<?xml version="1.0" encoding="UTF-8"?>
<osm generator="osmapis" version="0.6">
	<node id="-351232" lat="58.155286109" lon="7.8072500057">
		<tag k="name" v="Trettekjerr" />
		<tag k="natural" v="wetland" />
		<tag k="ssr:stedsnr" v="463708" />
	</node>
	<node id="-350208" lat="58.2570694406" lon="7.68131111852">
		<tag k="name" v="Tjørrgårdsmyr" />
		<tag k="natural" v="wetland" />
		<tag k="ssr:stedsnr" v="99504" />
	</node>
	<node id="-350206" lat="58.2477666627" lon="7.72148333278">
		<tag k="name" v="Storemyr" />
		<tag k="natural" v="wetland" />
		<tag k="ssr:stedsnr" v="99485" />
	</node>
	<node id="-352253" lat="58.2969083317" lon="7.72499722661">
		<tag k="name" v="Kjelldalsmyr" />
		<tag k="natural" v="wetland" />
		<tag k="ssr:stedsnr" v="645390" />
	</node>
	<node id="-353194" lat="58.148980552" lon="7.89775000085">
		<tag k="name" v="Storemyr" />
		<tag k="natural" v="wetland" />
		<tag k="ssr:stedsnr" v="827812" />
	</node>
	<node id="-352249" lat="58.2917444424" lon="7.65912500101">
		<tag k="name" v="Blautemyr" />
		<tag k="natural" v="wetland" />
		<tag k="ssr:stedsnr" v="645365" />
	</node>
	<node id="-351220" lat="58.2623111074" lon="7.67819444076">
		<tag k="name" v="Kromyran" />
		<tag k="natural" v="wetland" />
		<tag k="ssr:stedsnr" v="463600" />
	</node>
	<node id="-348659" lat="58.1775499998" lon="7.86136666763">
		<tag k="name" v="Teresmyr" />
		<tag k="natural" v="wetland" />
		<tag k="ssr:stedsnr" v="281997" />
	</node>
	<node id="-348658" lat="58.2421027809" lon="7.65312777746">
		<tag k="name" v="Skjeddansmyr" />
		<tag k="natural" v="wetland" />
		<tag k="ssr:stedsnr" v="281984" />
	</node>
	<node id="-350193" lat="58.2900194413" lon="7.65527221734">
		<tag k="name" v="Vestmyran" />
		<tag k="natural" v="wetland" />
		<tag k="ssr:stedsnr" v="99407" />
	</node>
	<node id="-352895" lat="58.1864111138" lon="7.83286110339">
		<tag k="name" v="Solheimyr" />
		<tag k="natural" v="wetland" />
		<tag k="ssr:stedsnr" v="766857" />
	</node>
	<node id="-351215" lat="58.3328138856" lon="7.63694722965">
		<tag k="name" v="Rånemyr" />
		<tag k="natural" v="wetland" />
		<tag k="ssr:stedsnr" v="463557" />
	</node>
	<node id="-350190" lat="58.2880944421" lon="7.64677500331">
		<tag k="name" v="Kviheikarten" />
		<tag k="natural" v="wetland" />
		<tag k="ssr:stedsnr" v="99400" />
	</node>
	<node id="-351212" lat="58.3445916623" lon="7.62630832676">
		<tag k="name" v="Langemyr" />
		<tag k="natural" v="wetland" />
		<tag k="ssr:stedsnr" v="463508" />
	</node>
	<node id="-351210" lat="58.3074111106" lon="7.68318888873">
		<tag k="name" v="Surtemyr" />
		<tag k="natural" v="wetland" />
		<tag k="ssr:stedsnr" v="463497" />
	</node>
	<node id="-351208" lat="58.312633334" lon="7.71247221664">
		<tag k="name" v="Kvinnemyran" />
		<tag k="natural" v="wetland" />
		<tag k="ssr:stedsnr" v="463484" />
	</node>
	<node id="-351207" lat="58.2398805548" lon="7.70636110372">
		<tag k="name" v="Moltestykket" />
		<tag k="natural" v="wetland" />
		<tag k="ssr:stedsnr" v="463465" />
	</node>
	<node id="-352849" lat="58.3025027805" lon="7.65448610588">
		<tag k="name" v="Flåna" />
		<tag k="place" v="locality" />
		<tag k="ssr:stedsnr" v="766563" />
	</node>
	<node id="-352227" lat="58.2127166669" lon="7.74386389153">
		<tag k="name" v="Storemyr" />
		<tag k="natural" v="wetland" />
		<tag k="ssr:stedsnr" v="644718" />
	</node>
	<node id="-351202" lat="58.2974222222" lon="7.72093054758">
		<tag k="name" v="Dyblemyr" />
		<tag k="natural" v="wetland" />
		<tag k="ssr:stedsnr" v="463406" />
	</node>
	<node id="-350176" lat="58.3053194417" lon="7.61391944375">
		<tag k="name" v="Stokkåsholtan" />
		<tag k="place" v="locality" />
		<tag k="ssr:stedsnr" v="99287" />
	</node>
	<node id="-350174" lat="58.30560556" lon="7.56976389303">
		<tag k="name" v="Langemyran" />
		<tag k="natural" v="wetland" />
		<tag k="ssr:stedsnr" v="99284" />
	</node>
	<node id="-351197" lat="58.2191888876" lon="7.70833888203">
		<tag k="name" v="Kattekjerran" />
		<tag k="natural" v="wetland" />
		<tag k="ssr:stedsnr" v="463376" />
	</node>
	<node id="-351196" lat="58.2976388909" lon="7.65369167186">
		<tag k="name" v="Langemyr" />
		<tag k="natural" v="wetland" />
		<tag k="ssr:stedsnr" v="463371" />
	</node>
	<node id="-352219" lat="58.2695527736" lon="7.6710611037">
		<tag k="name" v="Slogmyran" />
		<tag k="natural" v="wetland" />
		<tag k="ssr:stedsnr" v="644663" />
	</node>
	<node id="-352218" lat="58.2640722201" lon="7.66967221531">
		<tag k="name" v="Bjønnskjeggstø" />
		<tag k="natural" v="wetland" />
		<tag k="ssr:stedsnr" v="644660" />
	</node>
	<node id="-351192" lat="58.2844750025" lon="7.66972222264">
		<tag k="name" v="Søndagskarten" />
		<tag k="natural" v="wetland" />
		<tag k="ssr:stedsnr" v="463358" />
	</node>
	<node id="-350167" lat="58.2530777785" lon="7.59781388358">
		<tag k="name" v="Lundemyr" />
		<tag k="natural" v="wetland" />
		<tag k="ssr:stedsnr" v="99207" />
	</node>
	<node id="-351188" lat="58.3202166648" lon="7.57841111008">
		<tag k="name" v="Heia" />
		<tag k="place" v="locality" />
		<tag k="ssr:stedsnr" v="463342" />
	</node>
	<node id="-351187" lat="58.3089083314" lon="7.58258889051">
		<tag k="name" v="Hessmyr" />
		<tag k="natural" v="wetland" />
		<tag k="ssr:stedsnr" v="463340" />
	</node>
	<node id="-352894" lat="58.1890388885" lon="7.81346667477">
		<tag k="name" v="Stemmen" />
		<tag k="natural" v="wetland" />
		<tag k="ssr:stedsnr" v="766855" />
	</node>
	<node id="-351185" lat="58.3135527775" lon="7.60689166214">
		<tag k="name" v="Kromyr" />
		<tag k="natural" v="wetland" />
		<tag k="ssr:stedsnr" v="463325" />
	</node>
	<node id="-352208" lat="58.3190805576" lon="7.70393611176">
		<tag k="name" v="Rademyrkartan" />
		<tag k="natural" v="wetland" />
		<tag k="ssr:stedsnr" v="644610" />
	</node>
	<node id="-351181" lat="58.355180556" lon="7.59829443709">
		<tag k="name" v="Stean" />
		<tag k="natural" v="wetland" />
		<tag k="ssr:stedsnr" v="463253" />
	</node>
	<node id="-351180" lat="58.3549444444" lon="7.57841388056">
		<tag k="name" v="Bjelkemyr" />
		<tag k="natural" v="wetland" />
		<tag k="ssr:stedsnr" v="463240" />
	</node>
	<node id="-348619" lat="58.3152111073" lon="7.62536666997">
		<tag k="name" v="Fænemyr" />
		<tag k="natural" v="wetland" />
		<tag k="ssr:stedsnr" v="281558" />
	</node>
	<node id="-351178" lat="58.2884055578" lon="7.60742222721">
		<tag k="name" v="Høgemyr" />
		<tag k="place" v="locality" />
		<tag k="ssr:stedsnr" v="463225" />
	</node>
	<node id="-349641" lat="58.1741472194" lon="7.87997777195">
		<tag k="name" v="Bjorkilen" />
		<tag k="natural" v="wetland" />
		<tag k="ssr:stedsnr" v="888989" />
	</node>
	<node id="-351176" lat="58.2564222208" lon="7.58572500754">
		<tag k="name" v="Monen" />
		<tag k="place" v="locality" />
		<tag k="ssr:stedsnr" v="463183" />
	</node>
	<node id="-350151" lat="58.2002166701" lon="7.79389722973">
		<tag k="name" v="Stokken" />
		<tag k="place" v="locality" />
		<tag k="ssr:stedsnr" v="98654" />
	</node>
	<node id="-352198" lat="58.2451638926" lon="7.64862499453">
		<tag k="name" v="Småmyr" />
		<tag k="natural" v="wetland" />
		<tag k="ssr:stedsnr" v="644497" />
	</node>
	<node id="-352196" lat="58.2383305579" lon="7.66626110721">
		<tag k="name" v="Sauetjønndega" />
		<tag k="natural" v="wetland" />
		<tag k="ssr:stedsnr" v="644483" />
	</node>
	<node id="-352195" lat="58.2402388855" lon="7.66890833622">
		<tag k="name" v="Skjeddansmyr" />
		<tag k="natural" v="wetland" />
		<tag k="ssr:stedsnr" v="644471" />
	</node>
	<node id="-352194" lat="58.2814694426" lon="7.69314443886">
		<tag k="name" v="Monen" />
		<tag k="place" v="locality" />
		<tag k="ssr:stedsnr" v="644445" />
	</node>
	<node id="-351168" lat="58.2760388927" lon="7.58817499818">
		<tag k="name" v="Kroken" />
		<tag k="place" v="locality" />
		<tag k="ssr:stedsnr" v="463127" />
	</node>
	<node id="-349631" lat="58.1919944438" lon="7.79633054837">
		<tag k="name" v="Vefelneset" />
		<tag k="place" v="locality" />
		<tag k="ssr:stedsnr" v="888869" />
	</node>
	<node id="-351165" lat="58.282783336" lon="7.60617500139">
		<tag k="name" v="Solåsslåttan" />
		<tag k="natural" v="wetland" />
		<tag k="ssr:stedsnr" v="463105" />
	</node>
	<node id="-349627" lat="58.1720027739" lon="7.78126944558">
		<tag k="name" v="Smale myre" />
		<tag k="natural" v="wetland" />
		<tag k="ssr:stedsnr" v="888855" />
	</node>
	<node id="-348575" lat="58.3368055517" lon="7.60866389193">
		<tag k="name" v="Strengemyr" />
		<tag k="natural" v="wetland" />
		<tag k="ssr:stedsnr" v="281177" />
	</node>
	<node id="-353268" lat="58.1880333306" lon="7.83123055914">
		<tag k="name" v="Grakjerr" />
		<tag k="natural" v="wetland" />
		<tag k="ssr:stedsnr" v="828846" />
	</node>
	<node id="-352182" lat="58.2889944418" lon="7.57951110517">
		<tag k="name" v="Dynjemyr" />
		<tag k="natural" v="wetland" />
		<tag k="ssr:stedsnr" v="644247" />
	</node>
	<node id="-352181" lat="58.2965749961" lon="7.59453610622">
		<tag k="name" v="Heimyr" />
		<tag k="natural" v="wetland" />
		<tag k="ssr:stedsnr" v="644237" />
	</node>
	<node id="-351154" lat="58.255650004" lon="7.69487500587">
		<tag k="name" v="Honnemyr" />
		<tag k="natural" v="wetland" />
		<tag k="ssr:stedsnr" v="462500" />
	</node>
	<node id="-348592" lat="58.3147250003" lon="7.55044166752">
		<tag k="name" v="Einerstean" />
		<tag k="natural" v="wetland" />
		<tag k="ssr:stedsnr" v="281351" />
	</node>
	<node id="-351580" lat="58.2517027745" lon="7.69454166892">
		<tag k="name" v="Skotmyr" />
		<tag k="natural" v="wetland" />
		<tag k="ssr:stedsnr" v="524419" />
	</node>
	<node id="-352172" lat="58.3425194458" lon="7.60861388322">
		<tag k="name" v="Flisemyr" />
		<tag k="natural" v="wetland" />
		<tag k="ssr:stedsnr" v="644174" />
	</node>
	<node id="-351147" lat="58.2555111141" lon="7.63525834068">
		<tag k="name" v="Tømmeråsmyra" />
		<tag k="natural" v="wetland" />
		<tag k="ssr:stedsnr" v="462230" />
	</node>
	<node id="-351146" lat="58.3563055565" lon="7.60984166292">
		<tag k="name" v="Åskusmyr" />
		<tag k="natural" v="wetland" />
		<tag k="ssr:stedsnr" v="462200" />
	</node>
	<node id="-350791" lat="58.2709361139" lon="7.60300832816">
		<tag k="name" v="Trandlekjerret" />
		<tag k="natural" v="wetland" />
		<tag k="ssr:stedsnr" v="220165" />
	</node>
	<node id="-352168" lat="58.2822749972" lon="7.57341944995">
		<tag k="name" v="Ronsemyr" />
		<tag k="natural" v="wetland" />
		<tag k="ssr:stedsnr" v="644121" />
	</node>
	<node id="-353180" lat="58.3255722188" lon="7.69033611058">
		<tag k="name" v="Sigdåsstean" />
		<tag k="natural" v="wetland" />
		<tag k="ssr:stedsnr" v="827644" />
	</node>
	<node id="-348582" lat="58.292666667" lon="7.58558888337">
		<tag k="name" v="Heknemyr" />
		<tag k="natural" v="wetland" />
		<tag k="ssr:stedsnr" v="281246" />
	</node>
	<node id="-351653" lat="58.1796055526" lon="7.87329166303">
		<tag k="name" v="Storemyr" />
		<tag k="natural" v="wetland" />
		<tag k="ssr:stedsnr" v="524966" />
	</node>
	<node id="-353188" lat="58.149455558" lon="7.77582500027">
		<tag k="name" v="Storemyr" />
		<tag k="natural" v="wetland" />
		<tag k="ssr:stedsnr" v="827762" />
	</node>
	<node id="-349851" lat="58.2448277821" lon="7.67250555009">
		<tag k="name" v="Krossmyr" />
		<tag k="natural" v="wetland" />
		<tag k="ssr:stedsnr" v="38473" />
	</node>
	<node id="-350624" lat="58.1801222214" lon="7.77056388274">
		<tag k="name" v="Høgåsmyr" />
		<tag k="natural" v="wetland" />
		<tag k="ssr:stedsnr" v="160866" />
	</node>
	<node id="-350623" lat="58.1743361125" lon="7.78270555306">
		<tag k="name" v="Orremyr" />
		<tag k="natural" v="wetland" />
		<tag k="ssr:stedsnr" v="160863" />
	</node>
	<node id="-349596" lat="58.2056416709" lon="7.77834445236">
		<tag k="name" v="Vollan" />
		<tag k="place" v="locality" />
		<tag k="ssr:stedsnr" v="888657" />
	</node>
	<node id="-352841" lat="58.2485472193" lon="7.6349305547">
		<tag k="name" v="Langeduken" />
		<tag k="place" v="locality" />
		<tag k="ssr:stedsnr" v="766444" />
	</node>
	<node id="-353176" lat="58.3024055531" lon="7.6610583333">
		<tag k="name" v="Storemyr" />
		<tag k="natural" v="wetland" />
		<tag k="ssr:stedsnr" v="827612" />
	</node>
	<node id="-349590" lat="58.1355305542" lon="7.80716666092">
		<tag k="name" v="Folemyra" />
		<tag k="natural" v="wetland" />
		<tag k="ssr:stedsnr" v="888626" />
	</node>
	<node id="-353262" lat="58.2445611143" lon="7.8167083302">
		<tag k="name" v="Kartmyr" />
		<tag k="natural" v="wetland" />
		<tag k="ssr:stedsnr" v="828827" />
	</node>
	<node id="-349584" lat="58.3213138859" lon="7.70853888526">
		<tag k="name" v="Varmekroken" />
		<tag k="natural" v="wetland" />
		<tag k="ssr:stedsnr" v="888530" />
	</node>
	<node id="-349583" lat="58.3061444465" lon="7.66922222179">
		<tag k="name" v="Snømyr" />
		<tag k="natural" v="wetland" />
		<tag k="ssr:stedsnr" v="888521" />
	</node>
	<node id="-351629" lat="58.2215638872" lon="7.7827666592">
		<tag k="name" v="Urdalsstean" />
		<tag k="natural" v="wetland" />
		<tag k="ssr:stedsnr" v="524800" />
	</node>
	<node id="-349579" lat="58.3130999966" lon="7.62583332615">
		<tag k="name" v="Djupemyr" />
		<tag k="natural" v="wetland" />
		<tag k="ssr:stedsnr" v="888494" />
	</node>
	<node id="-351626" lat="58.2162694475" lon="7.74833332781">
		<tag k="name" v="Aslakskjerret" />
		<tag k="natural" v="wetland" />
		<tag k="ssr:stedsnr" v="524795" />
	</node>
	<node id="-352814" lat="58.2781888845" lon="7.58971666135">
		<tag k="name" v="Krokkjerran" />
		<tag k="natural" v="wetland" />
		<tag k="ssr:stedsnr" v="766106" />
	</node>
	<node id="-351623" lat="58.2212166658" lon="7.79481944484">
		<tag k="name" v="Kjerran" />
		<tag k="natural" v="wetland" />
		<tag k="ssr:stedsnr" v="524773" />
	</node>
	<node id="-353157" lat="58.2837499991" lon="7.65602222026">
		<tag k="name" v="Tuemyr" />
		<tag k="natural" v="wetland" />
		<tag k="ssr:stedsnr" v="827404" />
	</node>
	<node id="-351620" lat="58.1260305581" lon="7.84765832673">
		<tag k="name" v="Kråkeneset" />
		<tag k="place" v="locality" />
		<tag k="ssr:stedsnr" v="524757" />
	</node>
	<node id="-353174" lat="58.3152666626" lon="7.63847499304">
		<tag k="name" v="Stean" />
		<tag k="natural" v="wetland" />
		<tag k="ssr:stedsnr" v="827586" />
	</node>
	<node id="-349569" lat="58.2224805566" lon="7.71583611941">
		<tag k="name" v="Feringsmyr" />
		<tag k="natural" v="wetland" />
		<tag k="ssr:stedsnr" v="888422" />
	</node>
	<node id="-351614" lat="58.1366416699" lon="7.84668332649">
		<tag k="name" v="Taraldsmyra" />
		<tag k="natural" v="wetland" />
		<tag k="ssr:stedsnr" v="524725" />
	</node>
	<node id="-352794" lat="58.1978944456" lon="7.82766388285">
		<tag k="name" v="Snømyr" />
		<tag k="natural" v="wetland" />
		<tag k="ssr:stedsnr" v="752910" />
	</node>
	<node id="-349564" lat="58.3000250027" lon="7.70853889678">
		<tag k="name" v="Moltemyr" />
		<tag k="natural" v="wetland" />
		<tag k="ssr:stedsnr" v="888381" />
	</node>
	<node id="-348650" lat="58.2269611107" lon="7.82133611848">
		<tag k="name" v="Hjelmekjerrane" />
		<tag k="natural" v="wetland" />
		<tag k="ssr:stedsnr" v="281866" />
	</node>
	<node id="-349562" lat="58.2891333317" lon="7.70008332671">
		<tag k="name" v="Stean" />
		<tag k="place" v="locality" />
		<tag k="ssr:stedsnr" v="888367" />
	</node>
	<node id="-350470" lat="58.3182222231" lon="7.64243055998">
		<tag k="name" v="Leirholtan" />
		<tag k="place" v="locality" />
		<tag k="ssr:stedsnr" v="159647" />
	</node>
	<node id="-353266" lat="58.1862194447" lon="7.82166945264">
		<tag k="name" v="Ørnetjønnmyr" />
		<tag k="natural" v="wetland" />
		<tag k="ssr:stedsnr" v="828841" />
	</node>
	<node id="-349557" lat="58.2967111102" lon="7.6410805551">
		<tag k="name" v="Storemyr" />
		<tag k="natural" v="wetland" />
		<tag k="ssr:stedsnr" v="888345" />
	</node>
	<node id="-353140" lat="58.3333833329" lon="7.61395000331">
		<tag k="name" v="Dyblemyr" />
		<tag k="natural" v="wetland" />
		<tag k="ssr:stedsnr" v="827177" />
	</node>
	<node id="-351603" lat="58.262380552" lon="7.68151388394">
		<tag k="name" v="Prestefænet" />
		<tag k="natural" v="wetland" />
		<tag k="ssr:stedsnr" v="524564" />
	</node>
	<node id="-351602" lat="58.2681333304" lon="7.63946111855">
		<tag k="name" v="Småstean" />
		<tag k="natural" v="wetland" />
		<tag k="ssr:stedsnr" v="524552" />
	</node>
	<node id="-353171" lat="58.3126611109" lon="7.68261944187">
		<tag k="name" v="Vestmyra" />
		<tag k="natural" v="wetland" />
		<tag k="ssr:stedsnr" v="827554" />
	</node>
	<node id="-349040" lat="58.2461111105" lon="7.8037361048">
		<tag k="name" v="Lindekjerr" />
		<tag k="natural" v="wetland" />
		<tag k="ssr:stedsnr" v="342796" />
	</node>
	<node id="-350575" lat="58.1633527749" lon="7.84431943786">
		<tag k="name" v="Kjerrane" />
		<tag k="natural" v="wetland" />
		<tag k="ssr:stedsnr" v="160739" />
	</node>
	<node id="-353597" lat="58.1371666669" lon="7.874130551">
		<tag k="name" v="Kartmyr" />
		<tag k="natural" v="wetland" />
		<tag k="ssr:stedsnr" v="949717" />
	</node>
	<node id="-349036" lat="58.2326111092" lon="7.82738333213">
		<tag k="name" v="Krogevannsmyra" />
		<tag k="natural" v="wetland" />
		<tag k="ssr:stedsnr" v="342781" />
	</node>
	<node id="-352619" lat="58.1838444464" lon="7.8292916751">
		<tag k="name" v="Sauetjønnmyr" />
		<tag k="natural" v="wetland" />
		<tag k="ssr:stedsnr" v="706853" />
	</node>
	<node id="-350183" lat="58.3122583353" lon="7.5766472201">
		<tag k="name" v="Geitebukkmyra" />
		<tag k="natural" v="wetland" />
		<tag k="ssr:stedsnr" v="99366" />
	</node>
	<node id="-351591" lat="58.3169666656" lon="7.64567778181">
		<tag k="name" v="Åsekjerran" />
		<tag k="natural" v="wetland" />
		<tag k="ssr:stedsnr" v="524476" />
	</node>
	<node id="-349542" lat="58.2864999992" lon="7.58800834092">
		<tag k="name" v="Hagemyr" />
		<tag k="natural" v="wetland" />
		<tag k="ssr:stedsnr" v="888200" />
	</node>
	<node id="-349537" lat="58.3385194487" lon="7.59962777222">
		<tag k="name" v="Steinsmyr" />
		<tag k="natural" v="wetland" />
		<tag k="ssr:stedsnr" v="888142" />
	</node>
	<node id="-353120" lat="58.3257305561" lon="7.58780555869">
		<tag k="name" v="Heimyr" />
		<tag k="natural" v="wetland" />
		<tag k="ssr:stedsnr" v="789786" />
	</node>
	<node id="-349533" lat="58.2757916705" lon="7.56455555379">
		<tag k="name" v="Småmyrstø" />
		<tag k="natural" v="wetland" />
		<tag k="ssr:stedsnr" v="888093" />
	</node>
	<node id="-350556" lat="58.3163249991" lon="7.60364166281">
		<tag k="name" v="Vonslemyr" />
		<tag k="natural" v="wetland" />
		<tag k="ssr:stedsnr" v="160324" />
	</node>
	<node id="-350555" lat="58.3109027773" lon="7.6124527712">
		<tag k="name" v="Dyblemyr" />
		<tag k="natural" v="wetland" />
		<tag k="ssr:stedsnr" v="160303" />
	</node>
	<node id="-350554" lat="58.3130277777" lon="7.59810833357">
		<tag k="name" v="Lemmyr" />
		<tag k="natural" v="wetland" />
		<tag k="ssr:stedsnr" v="160302" />
	</node>
	<node id="-349529" lat="58.2453472193" lon="7.65394167204">
		<tag k="name" v="Sveinsåsmyra" />
		<tag k="natural" v="wetland" />
		<tag k="ssr:stedsnr" v="887495" />
	</node>
	<node id="-353265" lat="58.1821499993" lon="7.83384166686">
		<tag k="name" v="Grindane" />
		<tag k="place" v="locality" />
		<tag k="ssr:stedsnr" v="828840" />
	</node>
	<node id="-349527" lat="58.2460722253" lon="7.65149443919">
		<tag k="name" v="Mæselmyra" />
		<tag k="natural" v="wetland" />
		<tag k="ssr:stedsnr" v="887479" />
	</node>
	<node id="-349526" lat="58.2407083352" lon="7.66277499306">
		<tag k="name" v="Bumyran" />
		<tag k="natural" v="wetland" />
		<tag k="ssr:stedsnr" v="887462" />
	</node>
	<node id="-349524" lat="58.2509583333" lon="7.65094444236">
		<tag k="name" v="Godmyr" />
		<tag k="natural" v="wetland" />
		<tag k="ssr:stedsnr" v="887290" />
	</node>
	<node id="-352595" lat="58.3238499996" lon="7.68309999426">
		<tag k="name" v="Stokkemyr" />
		<tag k="natural" v="wetland" />
		<tag k="ssr:stedsnr" v="706551" />
	</node>
	<node id="-352594" lat="58.3330999994" lon="7.70136944149">
		<tag k="name" v="Grasdalsmyr" />
		<tag k="natural" v="wetland" />
		<tag k="ssr:stedsnr" v="706548" />
	</node>
	<node id="-353617" lat="58.2443138908" lon="7.80307777127">
		<tag k="name" v="Sommerfjøsmyr" />
		<tag k="natural" v="wetland" />
		<tag k="ssr:stedsnr" v="949829" />
	</node>
	<node id="-352592" lat="58.2612777823" lon="7.69129444846">
		<tag k="name" v="Krosteinen" />
		<tag k="natural" v="stone" />
		<tag k="ssr:stedsnr" v="706525" />
	</node>
	<node id="-349605" lat="58.1600055585" lon="7.77911666119">
		<tag k="name" v="Røyrmyr" />
		<tag k="natural" v="wetland" />
		<tag k="ssr:stedsnr" v="888709" />
	</node>
	<node id="-348576" lat="58.3425833314" lon="7.60524999505">
		<tag k="loc_name" v="Laugemyr" />
		<tag k="name" v="Langemyr" />
		<tag k="natural" v="wetland" />
		<tag k="ssr:stedsnr" v="281184" />
	</node>
	<node id="-351558" lat="58.3117361086" lon="7.59665555478">
		<tag k="name" v="Godmyr" />
		<tag k="natural" v="wetland" />
		<tag k="ssr:stedsnr" v="524303" />
	</node>
	<node id="-352580" lat="58.2545583377" lon="7.7124416666">
		<tag k="name" v="Bogemyr" />
		<tag k="natural" v="wetland" />
		<tag k="ssr:stedsnr" v="706460" />
	</node>
	<node id="-352579" lat="58.251480552" lon="7.72766110503">
		<tag k="name" v="Skuggesteinen" />
		<tag k="natural" v="stone" />
		<tag k="ssr:stedsnr" v="706446" />
	</node>
	<node id="-348994" lat="58.2320055562" lon="7.65243611955">
		<tag k="name" v="Eikeråsmyra" />
		<tag k="natural" v="wetland" />
		<tag k="ssr:stedsnr" v="342410" />
	</node>
	<node id="-350529" lat="58.1596250005" lon="7.78779166955">
		<tag k="name" v="Høgekjerran" />
		<tag k="natural" v="wetland" />
		<tag k="ssr:stedsnr" v="159770" />
	</node>
	<node id="-350527" lat="58.1467194407" lon="7.84078610656">
		<tag k="name" v="Ureneset" />
		<tag k="place" v="locality" />
		<tag k="ssr:stedsnr" v="159761" />
	</node>
	<node id="-348989" lat="58.3141638858" lon="7.61844721732">
		<tag k="name" v="Kvinneholtan" />
		<tag k="place" v="locality" />
		<tag k="ssr:stedsnr" v="342321" />
	</node>
	<node id="-348988" lat="58.3028972196" lon="7.57326944149">
		<tag k="name" v="Snømyran" />
		<tag k="natural" v="wetland" />
		<tag k="ssr:stedsnr" v="342250" />
	</node>
	<node id="-352566" lat="58.2894833327" lon="7.72073332961">
		<tag k="name" v="Gyslåtta" />
		<tag k="natural" v="wetland" />
		<tag k="ssr:stedsnr" v="706380" />
	</node>
	<node id="-350857" lat="58.1692888881" lon="7.76438888451">
		<tag k="name" v="Småmyran" />
		<tag k="natural" v="wetland" />
		<tag k="ssr:stedsnr" v="220797" />
	</node>
	<node id="-351539" lat="58.1632972244" lon="7.80039444714">
		<tag k="name" v="Bladmyr" />
		<tag k="natural" v="wetland" />
		<tag k="ssr:stedsnr" v="523775" />
	</node>
	<node id="-350513" lat="58.3124750006" lon="7.62862222772">
		<tag k="name" v="Knipemyr" />
		<tag k="natural" v="wetland" />
		<tag k="ssr:stedsnr" v="159598" />
	</node>
	<node id="-350511" lat="58.3535388851" lon="7.62105833359">
		<tag k="name" v="Skjevlekarten" />
		<tag k="natural" v="wetland" />
		<tag k="ssr:stedsnr" v="159592" />
	</node>
	<node id="-348973" lat="58.1453638855" lon="7.78053055888">
		<tag k="name" v="Øygardsmyra" />
		<tag k="natural" v="wetland" />
		<tag k="ssr:stedsnr" v="341779" />
	</node>
	<node id="-351884" lat="58.2631638881" lon="7.64344999674">
		<tag k="name" v="Torsteinsvollan" />
		<tag k="natural" v="wetland" />
		<tag k="ssr:stedsnr" v="584624" />
	</node>
	<node id="-350507" lat="58.2272222217" lon="7.70675278254">
		<tag k="name" v="Løemyr" />
		<tag k="natural" v="wetland" />
		<tag k="ssr:stedsnr" v="159526" />
	</node>
	<node id="-352554" lat="58.2899055555" lon="7.60349166174">
		<tag k="name" v="Revemyr" />
		<tag k="natural" v="wetland" />
		<tag k="ssr:stedsnr" v="706217" />
	</node>
	<node id="-353159" lat="58.281738893" lon="7.66282778368">
		<tag k="name" v="Langemyran" />
		<tag k="natural" v="wetland" />
		<tag k="ssr:stedsnr" v="827415" />
	</node>
	<node id="-350504" lat="58.2394111128" lon="7.64397500733">
		<tag k="name" v="Orreleiksmyr" />
		<tag k="natural" v="wetland" />
		<tag k="ssr:stedsnr" v="159496" />
	</node>
	<node id="-352220" lat="58.2676388891" lon="7.66857499843">
		<tag k="name" v="Merrkjerran" />
		<tag k="natural" v="wetland" />
		<tag k="ssr:stedsnr" v="644662" />
	</node>
	<node id="-350502" lat="58.2994388873" lon="7.69326666206">
		<tag k="name" v="Skjermyr" />
		<tag k="natural" v="wetland" />
		<tag k="ssr:stedsnr" v="159479" />
	</node>
	<node id="-352561" lat="58.2922833294" lon="7.65633889134">
		<tag k="name" v="Snømyr" />
		<tag k="natural" v="wetland" />
		<tag k="ssr:stedsnr" v="706356" />
	</node>
	<node id="-350500" lat="58.2905222266" lon="7.69626388617">
		<tag k="name" v="Holemyr" />
		<tag k="natural" v="wetland" />
		<tag k="ssr:stedsnr" v="159465" />
	</node>
	<node id="-351519" lat="58.3022555578" lon="7.69600833035">
		<tag k="name" v="Hegglandskarten" />
		<tag k="natural" v="wetland" />
		<tag k="ssr:stedsnr" v="523595" />
	</node>
	<node id="-349632" lat="58.1765333303" lon="7.76435833805">
		<tag k="name" v="Kartmyr" />
		<tag k="natural" v="wetland" />
		<tag k="ssr:stedsnr" v="888870" />
	</node>
	<node id="-348956" lat="58.333397219" lon="7.69791944375">
		<tag k="name" v="Moltemyr" />
		<tag k="natural" v="wetland" />
		<tag k="ssr:stedsnr" v="341666" />
	</node>
	<node id="-351515" lat="58.2449916669" lon="7.62933055948">
		<tag k="name" v="Moltemyr" />
		<tag k="natural" v="wetland" />
		<tag k="ssr:stedsnr" v="523528" />
	</node>
	<node id="-353561" lat="58.2348388927" lon="7.67017777051">
		<tag k="name" v="Lille Bjeddansmyr" />
		<tag k="natural" v="wetland" />
		<tag k="ssr:stedsnr" v="949404" />
	</node>
	<node id="-350488" lat="58.3314999966" lon="7.58810556213">
		<tag k="name" v="Myra" />
		<tag k="natural" v="wetland" />
		<tag k="ssr:stedsnr" v="159342" />
	</node>
	<node id="-351511" lat="58.3297861092" lon="7.61235000372">
		<tag k="name" v="Espelandskjerret" />
		<tag k="natural" v="wetland" />
		<tag k="ssr:stedsnr" v="523366" />
	</node>
	<node id="-352534" lat="58.1458888929" lon="7.81344999234">
		<tag k="name" v="Grønland" />
		<tag k="natural" v="wetland" />
		<tag k="ssr:stedsnr" v="705764" />
	</node>
	<node id="-351507" lat="58.1685861111" lon="7.71356945148">
		<tag k="name" v="Spiremyr" />
		<tag k="natural" v="wetland" />
		<tag k="ssr:stedsnr" v="523337" />
	</node>
	<node id="-352530" lat="58.1869583314" lon="7.78386388146">
		<tag k="name" v="Store Øygard" />
		<tag k="natural" v="wetland" />
		<tag k="ssr:stedsnr" v="705728" />
	</node>
	<node id="-353155" lat="58.301616669" lon="7.55555555507">
		<tag k="name" v="Lønnskarholtet" />
		<tag k="place" v="locality" />
		<tag k="ssr:stedsnr" v="827352" />
	</node>
	<node id="-348944" lat="58.2430194411" lon="7.63725834192">
		<tag k="name" v="Kartemyr" />
		<tag k="natural" v="wetland" />
		<tag k="ssr:stedsnr" v="341499" />
	</node>
	<node id="-348943" lat="58.248338885" lon="7.63660277493">
		<tag k="name" v="Finnsletta" />
		<tag k="place" v="locality" />
		<tag k="ssr:stedsnr" v="341498" />
	</node>
	<node id="-350478" lat="58.287150003" lon="7.59324722228">
		<tag k="name" v="Pallmyr" />
		<tag k="natural" v="wetland" />
		<tag k="ssr:stedsnr" v="159244" />
	</node>
	<node id="-348941" lat="58.2414777793" lon="7.67630555122">
		<tag k="name" v="Austre Tverrmyr" />
		<tag k="natural" v="wetland" />
		<tag k="ssr:stedsnr" v="341486" />
	</node>
	<node id="-348940" lat="58.3003944415" lon="7.71294721452">
		<tag k="name" v="Ingeborgsmyr" />
		<tag k="natural" v="wetland" />
		<tag k="ssr:stedsnr" v="341470" />
	</node>
	<node id="-350474" lat="58.2463972221" lon="7.6185638906">
		<tag k="name" v="Porsmyr" />
		<tag k="natural" v="wetland" />
		<tag k="ssr:stedsnr" v="159208" />
	</node>
	<node id="-350473" lat="58.2010333299" lon="7.80861111434">
		<tag k="name" v="Lyngmyr" />
		<tag k="natural" v="wetland" />
		<tag k="ssr:stedsnr" v="159692" />
	</node>
	<node id="-351496" lat="58.2747277793" lon="7.60337499944">
		<tag k="name" v="Kleivekarten" />
		<tag k="natural" v="wetland" />
		<tag k="ssr:stedsnr" v="523159" />
	</node>
	<node id="-352518" lat="58.3173638906" lon="7.56646944158">
		<tag k="name" v="Elsmyran" />
		<tag k="natural" v="wetland" />
		<tag k="ssr:stedsnr" v="705408" />
	</node>
	<node id="-352517" lat="58.3208416686" lon="7.59368888903">
		<tag k="name" v="Sedsvollen" />
		<tag k="place" v="locality" />
		<tag k="ssr:stedsnr" v="705405" />
	</node>
	<node id="-353539" lat="58.3547361144" lon="7.5844083309">
		<tag k="name" v="Godmyr" />
		<tag k="natural" v="wetland" />
		<tag k="ssr:stedsnr" v="949239" />
	</node>
	<node id="-348930" lat="58.3435694452" lon="7.60268333821">
		<tag k="name" v="Åsemyr" />
		<tag k="natural" v="wetland" />
		<tag k="ssr:stedsnr" v="341332" />
	</node>
	<node id="-350465" lat="58.3037888923" lon="7.6230861083">
		<tag k="name" v="Krugemyr" />
		<tag k="natural" v="wetland" />
		<tag k="ssr:stedsnr" v="159609" />
	</node>
	<node id="-352512" lat="58.3227527795" lon="7.61946389448">
		<tag k="name" v="Dyblemyr" />
		<tag k="natural" v="wetland" />
		<tag k="ssr:stedsnr" v="705351" />
	</node>
	<node id="-351506" lat="58.3480972189" lon="7.5771472277">
		<tag k="name" v="Galtemyr" />
		<tag k="natural" v="wetland" />
		<tag k="ssr:stedsnr" v="523325" />
	</node>
	<node id="-348926" lat="58.3548277743" lon="7.60589443792">
		<tag k="name" v="Djupemyr" />
		<tag k="natural" v="wetland" />
		<tag k="ssr:stedsnr" v="341283" />
	</node>
	<node id="-350461" lat="58.2816166695" lon="7.59963056257">
		<tag k="name" v="Blautemyr" />
		<tag k="natural" v="wetland" />
		<tag k="ssr:stedsnr" v="159137" />
	</node>
	<node id="-349210" lat="58.2544583295" lon="7.594349994">
		<tag k="name" v="Småstean" />
		<tag k="natural" v="wetland" />
		<tag k="ssr:stedsnr" v="402212" />
	</node>
	<node id="-348921" lat="58.2946083298" lon="7.56986666902">
		<tag k="name" v="Flåna" />
		<tag k="natural" v="wetland" />
		<tag k="ssr:stedsnr" v="341251" />
	</node>
	<node id="-352504" lat="58.3408749982" lon="7.61781667496">
		<tag k="name" v="Pausekarten" />
		<tag k="natural" v="wetland" />
		<tag k="ssr:stedsnr" v="705203" />
	</node>
	<node id="-348918" lat="58.2993277809" lon="7.55727222479">
		<tag k="name" v="Jærbærmyra" />
		<tag k="place" v="locality" />
		<tag k="ssr:stedsnr" v="341232" />
	</node>
	<node id="-351529" lat="58.3194944418" lon="7.63269167288">
		<tag k="name" v="Engemyr" />
		<tag k="natural" v="wetland" />
		<tag k="ssr:stedsnr" v="523675" />
	</node>
	<node id="-349545" lat="58.3236694406" lon="7.59123611045">
		<tag k="name" v="Karten" />
		<tag k="natural" v="wetland" />
		<tag k="ssr:stedsnr" v="888278" />
	</node>
	<node id="-348915" lat="58.2534416685" lon="7.61577500196">
		<tag k="name" v="Eikemyr" />
		<tag k="natural" v="wetland" />
		<tag k="ssr:stedsnr" v="341194" />
	</node>
	<node id="-350163" lat="58.3399361137" lon="7.55643055818">
		<tag k="name" v="Øvre Heislåtta" />
		<tag k="natural" v="wetland" />
		<tag k="ssr:stedsnr" v="99183" />
	</node>
	<node id="-353520" lat="58.1666694408" lon="7.80286943985">
		<tag k="name" v="Bergedalsmyra" />
		<tag k="natural" v="wetland" />
		<tag k="ssr:stedsnr" v="948816" />
	</node>
	<node id="-352495" lat="58.236711108" lon="7.64132222136">
		<tag k="name" v="Trollemyr" />
		<tag k="natural" v="wetland" />
		<tag k="ssr:stedsnr" v="705525" />
	</node>
	<node id="-353518" lat="58.1617972264" lon="7.77647499533">
		<tag k="name" v="Stolpåsmyra" />
		<tag k="natural" v="wetland" />
		<tag k="ssr:stedsnr" v="948803" />
	</node>
	<node id="-352493" lat="58.2421055518" lon="7.66604167491">
		<tag k="name" v="Vestre Tverrmyr" />
		<tag k="natural" v="wetland" />
		<tag k="ssr:stedsnr" v="705520" />
	</node>
	<node id="-350954" lat="58.1849083303" lon="7.8262194373">
		<tag k="name" v="Lyngmyr" />
		<tag k="natural" v="wetland" />
		<tag k="ssr:stedsnr" v="221827" />
	</node>
	<node id="-350759" lat="58.1506777741" lon="7.847719453">
		<tag k="name" v="Løvoll" />
		<tag k="place" v="locality" />
		<tag k="ssr:stedsnr" v="179703" />
	</node>
	<node id="-350847" lat="58.2644638932" lon="7.65941111558">
		<tag k="name" v="Vatnelijordet" />
		<tag k="natural" v="wetland" />
		<tag k="ssr:stedsnr" v="220676" />
	</node>
	<node id="-352209" lat="58.3402805562" lon="7.62983888177">
		<tag k="name" v="Gråtermyran" />
		<tag k="natural" v="wetland" />
		<tag k="ssr:stedsnr" v="644615" />
	</node>
	<node id="-349575" lat="58.2420416661" lon="7.68133889391">
		<tag k="name" v="Torborgsmyr" />
		<tag k="natural" v="wetland" />
		<tag k="ssr:stedsnr" v="888446" />
	</node>
	<node id="-350947" lat="58.1245249971" lon="7.88793054966">
		<tag k="name" v="Klovsteinmyra" />
		<tag k="natural" v="wetland" />
		<tag k="ssr:stedsnr" v="221785" />
	</node>
	<node id="-349920" lat="58.3123166698" lon="7.61597777487">
		<tag k="name" v="Moltekjerran" />
		<tag k="natural" v="wetland" />
		<tag k="ssr:stedsnr" v="39282" />
	</node>
	<node id="-350942" lat="58.1224527775" lon="7.86009721692">
		<tag k="name" v="Storemyr" />
		<tag k="natural" v="wetland" />
		<tag k="ssr:stedsnr" v="221751" />
	</node>
	<node id="-350941" lat="58.1273305582" lon="7.85033333428">
		<tag k="name" v="Møyneset" />
		<tag k="place" v="locality" />
		<tag k="ssr:stedsnr" v="221749" />
	</node>
	<node id="-353499" lat="58.3266111093" lon="7.62968888404">
		<tag k="name" v="Bleikmyr" />
		<tag k="natural" v="wetland" />
		<tag k="ssr:stedsnr" v="948650" />
	</node>
	<node id="-352826" lat="58.2505805537" lon="7.66034444572">
		<tag k="name" v="Karten" />
		<tag k="natural" v="wetland" />
		<tag k="ssr:stedsnr" v="766290" />
	</node>
	<node id="-348964" lat="58.1955027764" lon="7.79296944159">
		<tag k="name" v="Gjerdøla" />
		<tag k="place" v="locality" />
		<tag k="ssr:stedsnr" v="341719" />
	</node>
	<node id="-351841" lat="58.2407638864" lon="7.61370278424">
		<tag k="name" v="Stedjan" />
		<tag k="natural" v="wetland" />
		<tag k="ssr:stedsnr" v="584229" />
	</node>
	<node id="-353489" lat="58.2361222237" lon="7.66771666579">
		<tag k="name" v="Orlogskarten" />
		<tag k="natural" v="wetland" />
		<tag k="ssr:stedsnr" v="948520" />
	</node>
	<node id="-353486" lat="58.2391527759" lon="7.67611666955">
		<tag k="name" v="Lonemyr" />
		<tag k="natural" v="wetland" />
		<tag k="ssr:stedsnr" v="948506" />
	</node>
	<node id="-349389" lat="58.1747305559" lon="7.76618333464">
		<tag k="name" v="Pers stem" />
		<tag k="natural" v="wetland" />
		<tag k="ssr:stedsnr" v="403888" />
	</node>
	<node id="-353483" lat="58.3335111151" lon="7.58673055493">
		<tag k="name" v="Gramsmyr" />
		<tag k="natural" v="wetland" />
		<tag k="ssr:stedsnr" v="948345" />
	</node>
	<node id="-353482" lat="58.3278555535" lon="7.61023889287">
		<tag k="name" v="Karten" />
		<tag k="natural" v="wetland" />
		<tag k="ssr:stedsnr" v="948334" />
	</node>
	<node id="-349897" lat="58.1869972201" lon="7.84054722575">
		<tag k="name" v="Hagan" />
		<tag k="natural" v="wetland" />
		<tag k="ssr:stedsnr" v="38880" />
	</node>
	<node id="-353192" lat="58.1687138862" lon="7.8215138957">
		<tag k="name" v="Grosmyr" />
		<tag k="natural" v="wetland" />
		<tag k="ssr:stedsnr" v="827797" />
	</node>
	<node id="-353550" lat="58.2930666704" lon="7.72366667062">
		<tag k="name" v="Pantemyr" />
		<tag k="natural" v="wetland" />
		<tag k="ssr:stedsnr" v="949353" />
	</node>
	<node id="-350918" lat="58.1863500034" lon="7.76690555389">
		<tag k="name" v="Djupemyr" />
		<tag k="natural" v="wetland" />
		<tag k="ssr:stedsnr" v="221598" />
	</node>
	<node id="-353474" lat="58.2978055577" lon="7.60394721599">
		<tag k="name" v="Myran" />
		<tag k="natural" v="wetland" />
		<tag k="ssr:stedsnr" v="948241" />
	</node>
	<node id="-352885" lat="58.1224944404" lon="7.89754444856">
		<tag k="name" v="Myrbunden" />
		<tag k="natural" v="wetland" />
		<tag k="ssr:stedsnr" v="766814" />
	</node>
	<node id="-353468" lat="58.266738889" lon="7.57828610605">
		<tag k="name" v="Storemyr" />
		<tag k="natural" v="wetland" />
		<tag k="ssr:stedsnr" v="948158" />
	</node>
	<node id="-353467" lat="58.2820972247" lon="7.57864166279">
		<tag k="name" v="Stimyr" />
		<tag k="natural" v="wetland" />
		<tag k="ssr:stedsnr" v="948154" />
	</node>
	<node id="-349882" lat="58.1607750002" lon="7.77086943719">
		<tag k="name" v="Larsmyr" />
		<tag k="natural" v="wetland" />
		<tag k="ssr:stedsnr" v="38763" />
	</node>
	<node id="-349880" lat="58.1568194432" lon="7.80814166972">
		<tag k="name" v="Forelundskjerran" />
		<tag k="natural" v="wetland" />
		<tag k="ssr:stedsnr" v="38751" />
	</node>
	<node id="-349901" lat="58.1732972264" lon="7.8676277753">
		<tag k="name" v="Myrane" />
		<tag k="natural" v="wetland" />
		<tag k="ssr:stedsnr" v="38996" />
	</node>
	<node id="-349918" lat="58.355436107" lon="7.59003610557">
		<tag k="name" v="Solåsmyr" />
		<tag k="natural" v="wetland" />
		<tag k="ssr:stedsnr" v="39205" />
	</node>
	<node id="-349811" lat="58.260036114" lon="7.59790555227">
		<tag k="name" v="Djupmyr" />
		<tag k="natural" v="wetland" />
		<tag k="ssr:stedsnr" v="38162" />
	</node>
	<node id="-349287" lat="58.2054333346" lon="7.77000000773">
		<tag k="name" v="Borvedalsmyra" />
		<tag k="natural" v="wetland" />
		<tag k="ssr:stedsnr" v="402721" />
	</node>
	<node id="-351918" lat="58.1852833298" lon="7.80055000259">
		<tag k="name" v="Vollan" />
		<tag k="place" v="locality" />
		<tag k="ssr:stedsnr" v="584883" />
	</node>
	<node id="-348957" lat="58.2711500039" lon="7.64753888058">
		<tag k="name" v="Kilemyr" />
		<tag k="natural" v="wetland" />
		<tag k="ssr:stedsnr" v="341677" />
	</node>
	<node id="-349884" lat="58.1666861075" lon="7.77266944068">
		<tag k="name" v="Biskundssteinen" />
		<tag k="natural" v="stone" />
		<tag k="ssr:stedsnr" v="38773" />
	</node>
	<node id="-349866" lat="58.3230749971" lon="7.68470277019">
		<tag k="name" v="Grindånstean" />
		<tag k="natural" v="wetland" />
		<tag k="ssr:stedsnr" v="38608" />
	</node>
	<node id="-351911" lat="58.1224027768" lon="7.8427083249">
		<tag k="name" v="Storeneset" />
		<tag k="place" v="locality" />
		<tag k="ssr:stedsnr" v="584818" />
	</node>
	<node id="-350886" lat="58.3024416711" lon="7.60807778577">
		<tag k="name" v="Normannsmyra" />
		<tag k="natural" v="wetland" />
		<tag k="ssr:stedsnr" v="221244" />
	</node>
	<node id="-353137" lat="58.2601527743" lon="7.58626944956">
		<tag k="name" v="Holtemonen" />
		<tag k="place" v="locality" />
		<tag k="ssr:stedsnr" v="827163" />
	</node>
	<node id="-351908" lat="58.2169555599" lon="7.81869444699">
		<tag k="name" v="Utsmyra" />
		<tag k="natural" v="wetland" />
		<tag k="ssr:stedsnr" v="584810" />
	</node>
	<node id="-350491" lat="58.3078250029" lon="7.56694444059">
		<tag k="name" v="Kvile" />
		<tag k="place" v="locality" />
		<tag k="ssr:stedsnr" v="159377" />
	</node>
	<node id="-351903" lat="58.1384555531" lon="7.87809445022">
		<tag k="name" v="Storemyr" />
		<tag k="natural" v="wetland" />
		<tag k="ssr:stedsnr" v="584779" />
	</node>
	<node id="-349854" lat="58.2520333328" lon="7.72156111184">
		<tag k="name" v="Barlindmyra" />
		<tag k="natural" v="wetland" />
		<tag k="ssr:stedsnr" v="38506" />
	</node>
	<node id="-351899" lat="58.1585444423" lon="7.77872778578">
		<tag k="name" v="Lille Røyrmyr" />
		<tag k="natural" v="wetland" />
		<tag k="ssr:stedsnr" v="584765" />
	</node>
	<node id="-349849" lat="58.2481611154" lon="7.63376111565">
		<tag k="name" v="Perstykket" />
		<tag k="place" v="locality" />
		<tag k="ssr:stedsnr" v="38467" />
	</node>
	<node id="-349848" lat="58.2880777781" lon="7.69385833105">
		<tag k="name" v="Breimyr" />
		<tag k="natural" v="wetland" />
		<tag k="ssr:stedsnr" v="38431" />
	</node>
	<node id="-351894" lat="58.1516305585" lon="7.83748055445">
		<tag k="name" v="Prestvoll" />
		<tag k="place" v="locality" />
		<tag k="ssr:stedsnr" v="584718" />
	</node>
	<node id="-352537" lat="58.162919443" lon="7.82930277513">
		<tag k="historic" v="shieling" />
		<tag k="name" v="Dyrskueplassen" />
		<tag k="place" v="locality" />
		<tag k="ssr:stedsnr" v="705793" />
	</node>
	<node id="-352916" lat="58.3506055518" lon="7.57005834076">
		<tag k="name" v="Orreleikmyr" />
		<tag k="natural" v="wetland" />
		<tag k="ssr:stedsnr" v="767226" />
	</node>
	<node id="-349294" lat="58.1641111138" lon="7.78151944416">
		<tag k="name" v="Søheimyra" />
		<tag k="natural" v="wetland" />
		<tag k="ssr:stedsnr" v="402773" />
	</node>
	<node id="-349840" lat="58.3014055537" lon="7.54653333961">
		<tag k="name" v="Torvkarten" />
		<tag k="natural" v="wetland" />
		<tag k="ssr:stedsnr" v="38383" />
	</node>
	<node id="-348952" lat="58.306930553" lon="7.63890278026">
		<tag k="name" v="Myrdalen" />
		<tag k="natural" v="wetland" />
		<tag k="ssr:stedsnr" v="341627" />
	</node>
	<node id="-349838" lat="58.311791667" lon="7.56307500669">
		<tag k="name" v="Braunkollkarten" />
		<tag k="natural" v="wetland" />
		<tag k="ssr:stedsnr" v="38342" />
	</node>
	<node id="-349293" lat="58.1624527769" lon="7.76179444036">
		<tag k="landuse" v="meadow" />
		<tag k="name" v="Flegevoll" />
		<tag k="ssr:stedsnr" v="402771" />
	</node>
	<node id="-349836" lat="58.3249000031" lon="7.57206666367">
		<tag k="name" v="Klappekjerran" />
		<tag k="natural" v="wetland" />
		<tag k="ssr:stedsnr" v="38335" />
	</node>
	<node id="-350858" lat="58.1676499995" lon="7.79284444219">
		<tag k="name" v="Søheimyra" />
		<tag k="natural" v="wetland" />
		<tag k="ssr:stedsnr" v="220809" />
	</node>
	<node id="-351881" lat="58.3205222229" lon="7.63925277076">
		<tag k="name" v="Stålsmyr" />
		<tag k="natural" v="wetland" />
		<tag k="ssr:stedsnr" v="584598" />
	</node>
	<node id="-350856" lat="58.158161109" lon="7.77090833577">
		<tag k="name" v="Bjørndalsmyra" />
		<tag k="natural" v="wetland" />
		<tag k="ssr:stedsnr" v="220784" />
	</node>
	<node id="-351879" lat="58.3203722254" lon="7.71137777396">
		<tag k="name" v="Krikkemyr" />
		<tag k="natural" v="wetland" />
		<tag k="ssr:stedsnr" v="584577" />
	</node>
	<node id="-352559" lat="58.3054750044" lon="7.58981666617">
		<tag k="name" v="Vamoen" />
		<tag k="place" v="locality" />
		<tag k="ssr:stedsnr" v="706262" />
	</node>
	<node id="-350852" lat="58.1402583291" lon="7.83178889419">
		<tag k="name" v="Tømmermyra" />
		<tag k="natural" v="wetland" />
		<tag k="ssr:stedsnr" v="220732" />
	</node>
	<node id="-349315" lat="58.2094388897" lon="7.84675556181">
		<tag k="name" v="Sjøheimyran" />
		<tag k="natural" v="wetland" />
		<tag k="ssr:stedsnr" v="402993" />
	</node>
	<node id="-351874" lat="58.3166666659" lon="7.65053889383">
		<tag k="name" v="Storemyr" />
		<tag k="natural" v="wetland" />
		<tag k="ssr:stedsnr" v="584548" />
	</node>
	<node id="-349291" lat="58.1531138869" lon="7.83379722921">
		<tag k="name" v="Storeneset" />
		<tag k="place" v="locality" />
		<tag k="ssr:stedsnr" v="402748" />
	</node>
	<node id="-349311" lat="58.180158332" lon="7.76359999584">
		<tag k="name" v="Kleivmyr" />
		<tag k="natural" v="wetland" />
		<tag k="ssr:stedsnr" v="402895" />
	</node>
	<node id="-350846" lat="58.2607166634" lon="7.63618333973">
		<tag k="name" v="Holan" />
		<tag k="natural" v="wetland" />
		<tag k="ssr:stedsnr" v="220671" />
	</node>
	<node id="-349308" lat="58.2383999973" lon="7.81832500081">
		<tag k="name" v="Øygarden" />
		<tag k="place" v="locality" />
		<tag k="ssr:stedsnr" v="402873" />
	</node>
	<node id="-350843" lat="58.2740833292" lon="7.67312777865">
		<tag k="name" v="Svegemyr" />
		<tag k="place" v="locality" />
		<tag k="ssr:stedsnr" v="220663" />
	</node>
	<node id="-350841" lat="58.3165250021" lon="7.62870833889">
		<tag k="name" v="Grasgomyr" />
		<tag k="natural" v="wetland" />
		<tag k="ssr:stedsnr" v="220653" />
	</node>
	<node id="-350825" lat="58.2476472207" lon="7.64339721401">
		<tag k="name" v="Røyselandsmyra" />
		<tag k="natural" v="wetland" />
		<tag k="ssr:stedsnr" v="220522" />
	</node>
	<node id="-349300" lat="58.1198083308" lon="7.89181944969">
		<tag k="name" v="Busteinen" />
		<tag k="natural" v="stone" />
		<tag k="ssr:stedsnr" v="402822" />
	</node>
	<node id="-351859" lat="58.2276500034" lon="7.70173332967">
		<tag k="name" v="Lundsmyr" />
		<tag k="natural" v="wetland" />
		<tag k="ssr:stedsnr" v="584423" />
	</node>
	<node id="-352797" lat="58.2562611134" lon="7.68437499705">
		<tag k="name" v="Greibeslandsmyr" />
		<tag k="natural" v="wetland" />
		<tag k="ssr:stedsnr" v="766508" />
	</node>
	<node id="-349832" lat="58.2857611106" lon="7.61031111473">
		<tag k="name" v="Storemyr" />
		<tag k="natural" v="wetland" />
		<tag k="ssr:stedsnr" v="38283" />
	</node>
	<node id="-350830" lat="58.3159083299" lon="7.68812221392">
		<tag k="name" v="Fisketjønnmyr" />
		<tag k="natural" v="wetland" />
		<tag k="ssr:stedsnr" v="220560" />
	</node>
	<node id="-350141" lat="58.2428972192" lon="7.64200555309">
		<tag k="name" v="Geitemyr" />
		<tag k="natural" v="wetland" />
		<tag k="ssr:stedsnr" v="98480" />
	</node>
	<node id="-351852" lat="58.3094277773" lon="7.55418888559">
		<tag k="name" v="Tonnsbærholtan" />
		<tag k="place" v="locality" />
		<tag k="ssr:stedsnr" v="584339" />
	</node>
	<node id="-348946" lat="58.253280559" lon="7.69530277651">
		<tag k="name" v="Tjønnmyr" />
		<tag k="natural" v="wetland" />
		<tag k="ssr:stedsnr" v="341552" />
	</node>
	<node id="-351849" lat="58.3088222228" lon="7.6081999989">
		<tag k="name" v="Gauksmyr" />
		<tag k="natural" v="wetland" />
		<tag k="ssr:stedsnr" v="584292" />
	</node>
	<node id="-349288" lat="58.2032638871" lon="7.7830138808">
		<tag k="name" v="Vomma" />
		<tag k="place" v="locality" />
		<tag k="ssr:stedsnr" v="402733" />
	</node>
	<node id="-350823" lat="58.3251361141" lon="7.63943611723">
		<tag k="name" v="Bleiksmyr" />
		<tag k="natural" v="wetland" />
		<tag k="ssr:stedsnr" v="220637" />
	</node>
	<node id="-352529" lat="58.1976555524" lon="7.80032777458">
		<tag k="name" v="Bjelkekjerret" />
		<tag k="natural" v="wetland" />
		<tag k="ssr:stedsnr" v="705725" />
	</node>
	<node id="-350819" lat="58.3086805581" lon="7.62952777102">
		<tag k="name" v="Langemyr" />
		<tag k="natural" v="wetland" />
		<tag k="ssr:stedsnr" v="220605" />
	</node>
	<node id="-348603" lat="58.2912638902" lon="7.62420555271">
		<tag k="name" v="Blautemyr" />
		<tag k="natural" v="wetland" />
		<tag k="ssr:stedsnr" v="281414" />
	</node>
	<node id="-350813" lat="58.3264555541" lon="7.57058888835">
		<tag k="name" v="Terlingsmyr" />
		<tag k="natural" v="wetland" />
		<tag k="ssr:stedsnr" v="220389" />
	</node>
	<node id="-349276" lat="58.2618777771" lon="7.65841111246">
		<tag k="name" v="Gaupegjelegra" />
		<tag k="place" v="locality" />
		<tag k="ssr:stedsnr" v="402651" />
	</node>
	<node id="-349267" lat="58.3424500035" lon="7.62886111277">
		<tag k="name" v="Stedjan" />
		<tag k="natural" v="wetland" />
		<tag k="ssr:stedsnr" v="402611" />
	</node>
	<node id="-351830" lat="58.3376583315" lon="7.60291111287">
		<tag k="name" v="Torvmyr" />
		<tag k="natural" v="wetland" />
		<tag k="ssr:stedsnr" v="584165" />
	</node>
	<node id="-349268" lat="58.2623888877" lon="7.68658888669">
		<tag k="name" v="Bumyran" />
		<tag k="natural" v="wetland" />
		<tag k="ssr:stedsnr" v="402612" />
	</node>
	<node id="-350803" lat="58.2858305579" lon="7.56957500411">
		<tag k="name" v="Blikksmyr" />
		<tag k="natural" v="wetland" />
		<tag k="ssr:stedsnr" v="220287" />
	</node>
	<node id="-351843" lat="58.292316666" lon="7.60316110722">
		<tag k="name" v="Kvinnelimyr" />
		<tag k="natural" v="wetland" />
		<tag k="ssr:stedsnr" v="584240" />
	</node>
	<node id="-350799" lat="58.2565249974" lon="7.58360832976">
		<tag k="name" v="Storenes" />
		<tag k="place" v="locality" />
		<tag k="ssr:stedsnr" v="220249" />
	</node>
	<node id="-350798" lat="58.2443555557" lon="7.6061083325">
		<tag k="name" v="Austremyr" />
		<tag k="natural" v="wetland" />
		<tag k="ssr:stedsnr" v="220234" />
	</node>
	<node id="-352844" lat="58.2481249962" lon="7.69354167272">
		<tag k="name" v="Stemmyr" />
		<tag k="natural" v="wetland" />
		<tag k="ssr:stedsnr" v="766478" />
	</node>
	<node id="-350795" lat="58.2635638851" lon="7.61716667454">
		<tag k="name" v="Hanseskjerret" />
		<tag k="natural" v="wetland" />
		<tag k="ssr:stedsnr" v="220184" />
	</node>
	<node id="-349257" lat="58.2316944485" lon="7.66521111583">
		<tag k="name" v="Store Bjeddansmyr" />
		<tag k="natural" v="wetland" />
		<tag k="ssr:stedsnr" v="402515" />
	</node>
	<node id="-352840" lat="58.2398527742" lon="7.63713889087">
		<tag k="name" v="Holekjerran" />
		<tag k="natural" v="wetland" />
		<tag k="ssr:stedsnr" v="766437" />
	</node>
	<node id="-352839" lat="58.239838885" lon="7.67285554914">
		<tag k="name" v="Holemyr" />
		<tag k="natural" v="wetland" />
		<tag k="ssr:stedsnr" v="766434" />
	</node>
	<node id="-349254" lat="58.242855553" lon="7.67497222045">
		<tag k="name" v="Fagerfjellmyr" />
		<tag k="natural" v="wetland" />
		<tag k="ssr:stedsnr" v="402477" />
	</node>
	<node id="-351813" lat="58.2444027797" lon="7.64968889617">
		<tag k="name" v="Langemyr" />
		<tag k="natural" v="wetland" />
		<tag k="ssr:stedsnr" v="583481" />
	</node>
	<node id="-349252" lat="58.2442027774" lon="7.66349165955">
		<tag k="name" v="Mæselmyra" />
		<tag k="natural" v="wetland" />
		<tag k="ssr:stedsnr" v="402472" />
	</node>
	<node id="-351811" lat="58.2514500033" lon="7.64372500334">
		<tag k="name" v="Åsekjerran" />
		<tag k="natural" v="wetland" />
		<tag k="ssr:stedsnr" v="583478" />
	</node>
	<node id="-351809" lat="58.2401777745" lon="7.6415527705">
		<tag k="name" v="Torsteinsmyr" />
		<tag k="place" v="locality" />
		<tag k="ssr:stedsnr" v="583463" />
	</node>
	<node id="-352318" lat="58.1752694486" lon="7.75500276936">
		<tag k="name" v="Livoll" />
		<tag k="place" v="locality" />
		<tag k="ssr:stedsnr" v="645852" />
	</node>
	<node id="-348597" lat="58.3261499961" lon="7.566044441">
		<tag k="name" v="Stemmyr" />
		<tag k="natural" v="wetland" />
		<tag k="ssr:stedsnr" v="281368" />
	</node>
	<node id="-352828" lat="58.3300805551" lon="7.59567221654">
		<tag k="name" v="Snømyr" />
		<tag k="natural" v="wetland" />
		<tag k="ssr:stedsnr" v="766333" />
	</node>
	<node id="-349242" lat="58.2840805543" lon="7.67200277729">
		<tag k="name" v="Engemyr" />
		<tag k="natural" v="wetland" />
		<tag k="ssr:stedsnr" v="402405" />
	</node>
	<node id="-352312" lat="58.188530554" lon="7.80078333504">
		<tag k="name" v="Kråkeneset" />
		<tag k="place" v="locality" />
		<tag k="ssr:stedsnr" v="645835" />
	</node>
	<node id="-352823" lat="58.2847361126" lon="7.59587222865">
		<tag k="name" v="Tvitjønnmyr" />
		<tag k="natural" v="wetland" />
		<tag k="ssr:stedsnr" v="766243" />
	</node>
	<node id="-350262" lat="58.206775004" lon="7.84598332622">
		<tag k="name" v="Sjongskjerret" />
		<tag k="natural" v="wetland" />
		<tag k="ssr:stedsnr" v="99998" />
	</node>
	<node id="-353545" lat="58.2276888885" lon="7.70182777708">
		<tag k="name" v="Grasskotet" />
		<tag k="natural" v="wetland" />
		<tag k="ssr:stedsnr" v="949340" />
	</node>
	<node id="-352829" lat="58.3087277774" lon="7.56982777656">
		<tag k="name" v="Kartemyr" />
		<tag k="natural" v="wetland" />
		<tag k="ssr:stedsnr" v="766346" />
	</node>
	<node id="-349230" lat="58.3448250003" lon="7.61044167191">
		<tag k="name" v="Djupekjerran" />
		<tag k="natural" v="wetland" />
		<tag k="ssr:stedsnr" v="402335" />
	</node>
	<node id="-352524" lat="58.3054250039" lon="7.68899443766">
		<tag k="name" v="Kirkemyr" />
		<tag k="natural" v="wetland" />
		<tag k="ssr:stedsnr" v="705598" />
	</node>
	<node id="-349228" lat="58.3447888869" lon="7.61783333737">
		<tag k="name" v="Krossmyr" />
		<tag k="natural" v="wetland" />
		<tag k="ssr:stedsnr" v="402332" />
	</node>
	<node id="-350247" lat="58.220586109" lon="7.83957221625">
		<tag k="name" v="Eikebroksmyra" />
		<tag k="natural" v="wetland" />
		<tag k="ssr:stedsnr" v="99839" />
	</node>
	<node id="-350246" lat="58.2187888855" lon="7.8240777778">
		<tag k="name" v="Langedalsmyra" />
		<tag k="natural" v="wetland" />
		<tag k="ssr:stedsnr" v="99838" />
	</node>
	<node id="-348934" lat="58.3283555585" lon="7.58439444218">
		<tag k="name" v="Pærsmyr" />
		<tag k="natural" v="wetland" />
		<tag k="ssr:stedsnr" v="341362" />
	</node>
	<node id="-349217" lat="58.2890194479" lon="7.56798889585">
		<tag k="name" v="Orlingskarten" />
		<tag k="natural" v="wetland" />
		<tag k="ssr:stedsnr" v="402258" />
	</node>
	<node id="-350240" lat="58.1672444457" lon="7.86060278462">
		<tag k="name" v="Tunballen" />
		<tag k="place" v="locality" />
		<tag k="ssr:stedsnr" v="99811" />
	</node>
	<node id="-349572" lat="58.2338777734" lon="7.64330833296">
		<tag k="name" v="Eptevannsstean" />
		<tag k="natural" v="wetland" />
		<tag k="ssr:stedsnr" v="888429" />
	</node>
	<node id="-352285" lat="58.1833166645" lon="7.75921389172">
		<tag k="name" v="Øvre Åsene" />
		<tag k="place" v="locality" />
		<tag k="ssr:stedsnr" v="645614" />
	</node>
	<node id="-352796" lat="58.2510027784" lon="7.70273611958">
		<tag k="name" v="Store Øygard" />
		<tag k="place" v="locality" />
		<tag k="ssr:stedsnr" v="766505" />
	</node>
	<node id="-349211" lat="58.2556305541" lon="7.6177555624">
		<tag k="name" v="Storekarten" />
		<tag k="natural" v="wetland" />
		<tag k="ssr:stedsnr" v="402213" />
	</node>
	<node id="-349623" lat="58.2434222191" lon="7.79427222279">
		<tag k="name" v="Fjelltjønnmyra" />
		<tag k="natural" v="wetland" />
		<tag k="ssr:stedsnr" v="888832" />
	</node>
	<node id="-352281" lat="58.2736527811" lon="7.64518332515">
		<tag k="name" v="Slåttan" />
		<tag k="natural" v="wetland" />
		<tag k="ssr:stedsnr" v="645562" />
	</node>
	<node id="-349208" lat="58.2337277764" lon="7.85511943882">
		<tag k="name" v="Dypemyr" />
		<tag k="natural" v="wetland" />
		<tag k="ssr:stedsnr" v="402205" />
	</node>
	<node id="-350231" lat="58.16981389" lon="7.7885083257">
		<tag k="name" v="Trandlemyr" />
		<tag k="natural" v="wetland" />
		<tag k="ssr:stedsnr" v="99754" />
	</node>
	<node id="-349205" lat="58.3309444438" lon="7.6132944374">
		<tag k="name" v="Tolleholtan" />
		<tag k="place" v="locality" />
		<tag k="ssr:stedsnr" v="402168" />
	</node>
	<node id="-349203" lat="58.273074996" lon="7.57501110375">
		<tag k="name" v="Pytten" />
		<tag k="natural" v="wetland" />
		<tag k="ssr:stedsnr" v="402140" />
	</node>
	<node id="-352515" lat="58.3301055549" lon="7.60226111101">
		<tag k="name" v="Edjan" />
		<tag k="natural" v="wetland" />
		<tag k="ssr:stedsnr" v="705372" />
	</node>
	<node id="-351500" lat="58.3329777786" lon="7.60988055922">
		<tag k="name" v="Røyråskjerret" />
		<tag k="natural" v="wetland" />
		<tag k="ssr:stedsnr" v="523190" />
	</node>
	<node id="-349043" lat="58.1906805543" lon="7.82126111694">
		<tag k="name" v="Ørneheimyr" />
		<tag k="natural" v="wetland" />
		<tag k="ssr:stedsnr" v="342812" />
	</node>
	<node id="-349855" lat="58.2530666673" lon="7.67783332864">
		<tag k="name" v="Saga" />
		<tag k="place" v="locality" />
		<tag k="ssr:stedsnr" v="38508" />
	</node>
	<node id="-350219" lat="58.3291611082" lon="7.70174445306">
		<tag k="name" v="Løemyr" />
		<tag k="natural" v="wetland" />
		<tag k="ssr:stedsnr" v="99597" />
	</node>
	<node id="-349255" lat="58.2379666643" lon="7.62360277905">
		<tag k="name" v="Blikksmyr" />
		<tag k="natural" v="wetland" />
		<tag k="ssr:stedsnr" v="402480" />
	</node>
	<node id="-350486" lat="58.184847221" lon="7.72487221653">
		<tag k="name" v="Moltemyr" />
		<tag k="natural" v="wetland" />
		<tag k="ssr:stedsnr" v="159325" />
	</node>
	<node id="-349238" lat="58.3110416632" lon="7.5766861138">
		<tag k="name" v="Håbakkmyra" />
		<tag k="natural" v="wetland" />
		<tag k="ssr:stedsnr" v="402377" />
	</node>
	<node id="-350212" lat="58.3142333343" lon="7.66989443995">
		<tag k="name" v="Fladen" />
		<tag k="natural" v="wetland" />
		<tag k="ssr:stedsnr" v="99549" />
	</node>
	<node id="-352854" lat="58.3327111144" lon="7.71201111043">
		<tag k="name" v="Stean" />
		<tag k="natural" v="wetland" />
		<tag k="ssr:stedsnr" v="766599" />
	</node>
	<node id="-350210" lat="58.3118138872" lon="7.69620278006">
		<tag k="name" v="Staksmyr" />
		<tag k="natural" v="wetland" />
		<tag k="ssr:stedsnr" v="99517" />
	</node>
	<node id="-349213" lat="58.295938889" lon="7.56025000203">
		<tag k="name" v="Kartemyr" />
		<tag k="natural" v="wetland" />
		<tag k="ssr:stedsnr" v="402222" />
	</node>
</osm>
