<?xml version="1.0" encoding="UTF-8"?>
<osm generator="osmapis" version="0.6">
	<node id="-352253" lat="58.2453333309" lon="7.62293056085">
		<tag k="name" v="Trælefossen" />
		<tag k="natural" v="waterfall" />
		<tag k="ssr:stedsnr" v="583470" />
	</node>
	<node id="-352251" lat="58.2365416685" lon="7.62410833235">
		<tag k="name" v="Blikkstjønn" />
		<tag k="natural" v="water" />
		<tag k="ssr:stedsnr" v="583460" />
	</node>
	<node id="-352249" lat="58.2426666698" lon="7.66656389463">
		<tag k="name" v="Skjeddanspytten" />
		<tag k="natural" v="water" />
		<tag k="ssr:stedsnr" v="583455" />
	</node>
	<node id="-352247" lat="58.3487666664" lon="7.608286109">
		<tag k="name" v="Lonan" />
		<tag k="natural" v="water" />
		<tag k="ssr:stedsnr" v="583281" />
		<tag k="water" v="lake" />
	</node>
	<node id="-350889" lat="58.3270472251" lon="7.61411110542">
		<tag k="alt_name" v="Ågstjønna" />
		<tag k="name" v="Ågstjørna" />
		<tag k="natural" v="water" />
		<tag k="ssr:stedsnr" v="121744" />
	</node>
	<node id="-351912" lat="58.2362086498" lon="7.63240665893">
		<tag k="alt_name" v="Høgåstjønn" />
		<tag k="name" v="Høgåstjørna" />
		<tag k="natural" v="water" />
		<tag k="ssr:stedsnr" v="485599" />
	</node>
	<node id="-352237" lat="58.3185888909" lon="7.59953610855">
		<tag k="alt_name" v="Gardvann" />
		<tag k="name" v="Gardvatnet" />
		<tag k="natural" v="water" />
		<tag k="ssr:stedsnr" v="546741" />
	</node>
	<node id="-352230" lat="58.2237444444" lon="7.83949165836">
		<tag k="alt_name" v="Tømmervann" />
		<tag k="name" v="Timrevatnet" />
		<tag k="natural" v="water" />
		<tag k="ssr:stedsnr" v="546104" />
		<tag k="water" v="lake" />
	</node>
	<node id="-352229" lat="58.1561083344" lon="7.7529583292">
		<tag k="alt_name" v="Tronstadvatnet" />
		<tag k="loc_name" v="Tronstadvannet" />
		<tag k="name" v="Tronstadvann" />
		<tag k="natural" v="water" />
		<tag k="ssr:stedsnr" v="546055" />
		<tag k="water" v="lake" />
	</node>
	<node id="-352228" lat="58.157144442" lon="7.85127777448">
		<tag k="alt_name" v="Hestvann" />
		<tag k="name" v="Hestvatnet" />
		<tag k="natural" v="water" />
		<tag k="ssr:stedsnr" v="546053" />
	</node>
	<node id="-352227" lat="58.1709944453" lon="7.73153889203">
		<tag k="alt_name" v="Krogevann" />
		<tag k="name" v="Krokvatnet" />
		<tag k="natural" v="water" />
		<tag k="ssr:stedsnr" v="546044" />
		<tag k="water" v="lake" />
	</node>
	<node id="-353616" lat="58.1671944473" lon="7.73978332866">
		<tag k="name" v="Lødalstjønn" />
		<tag k="natural" v="water" />
		<tag k="ssr:stedsnr" v="827581" />
	</node>
	<node id="-353273" lat="58.3131499961" lon="7.58427222815">
		<tag k="name" v="Lartedalsbekken" />
		<tag k="ssr:stedsnr" v="766352" />
		<tag k="waterway" v="stream" />
	</node>
	<node id="-352930" lat="58.3140583369" lon="7.61490833458">
		<tag k="alt_name" v="Stomnevannet" />
		<tag k="name" v="Stomnevatna" />
		<tag k="natural" v="water" />
		<tag k="ssr:stedsnr" v="667823" />
	</node>
	<node id="-350069" lat="58.1728777752" lon="7.77525555638">
		<tag k="name" v="Lomtjønn" />
		<tag k="natural" v="water" />
		<tag k="ssr:stedsnr" v="888857" />
	</node>
	<node id="-350063" lat="58.2162666693" lon="7.77906666895">
		<tag k="name" v="Urdalsbekken" />
		<tag k="ssr:stedsnr" v="888826" />
		<tag k="waterway" v="stream" />
	</node>
	<node id="-350059" lat="58.2279527819" lon="7.82807776923">
		<tag k="name" v="Store Hemmestjønn" />
		<tag k="natural" v="water" />
		<tag k="ssr:stedsnr" v="888814" />
	</node>
	<node id="-350049" lat="58.1335555595" lon="7.8536305472">
		<tag k="name" v="Møllebekken" />
		<tag k="ssr:stedsnr" v="888751" />
		<tag k="waterway" v="stream" />
	</node>
	<node id="-350043" lat="58.1547111081" lon="7.75000278117">
		<tag k="name" v="Dyrviga" />
		<tag k="natural" v="bay" />
		<tag k="ssr:stedsnr" v="888697" />
	</node>
	<node id="-350033" lat="58.1348472201" lon="7.79105832521">
		<tag k="name" v="Hestvelttjønn" />
		<tag k="natural" v="water" />
		<tag k="ssr:stedsnr" v="888632" />
	</node>
	<node id="-350028" lat="58.2607277746" lon="7.68093610485">
		<tag k="name" v="Steffansbekken" />
		<tag k="ssr:stedsnr" v="888581" />
		<tag k="waterway" v="stream" />
	</node>
	<node id="-350027" lat="58.2652361145" lon="7.64858888924">
		<tag k="name" v="Tarjarneset" />
		<tag k="natural" v="cape" />
		<tag k="ssr:stedsnr" v="888570" />
	</node>
	<node id="-350023" lat="58.3102055545" lon="7.6737527726">
		<tag k="name" v="Raunlipytten" />
		<tag k="natural" v="water" />
		<tag k="ssr:stedsnr" v="888519" />
		<tag k="water" v="pond" />
	</node>
	<node id="-350022" lat="58.3068916647" lon="7.62694444853">
		<tag k="name" v="Espelandstjønn" />
		<tag k="natural" v="water" />
		<tag k="ssr:stedsnr" v="888507" />
	</node>
	<node id="-352064" lat="58.1176972257" lon="7.88166388419">
		<tag k="name" v="Skotstø" />
		<tag k="natural" v="bay" />
		<tag k="ssr:stedsnr" v="524764" />
	</node>
	<node id="-350011" lat="58.2277111111" lon="7.716516665">
		<tag k="name" v="Hegglandstjønna" />
		<tag k="natural" v="water" />
		<tag k="ssr:stedsnr" v="888425" />
	</node>
	<node id="-352043" lat="58.2700361092" lon="7.64146667116">
		<tag k="name" v="Ålebekken" />
		<tag k="ssr:stedsnr" v="524540" />
		<tag k="waterway" v="stream" />
	</node>
	<node id="-352037" lat="58.3414277746" lon="7.62826388568">
		<tag k="name" v="Vassåstjønn" />
		<tag k="natural" v="water" />
		<tag k="ssr:stedsnr" v="524501" />
	</node>
	<node id="-349984" lat="58.2859861119" lon="7.60858889385">
		<tag k="name" v="Geitebekken" />
		<tag k="ssr:stedsnr" v="888213" />
		<tag k="waterway" v="stream" />
	</node>
	<node id="-349981" lat="58.247544445" lon="7.6149305534">
		<tag k="name" v="Kirkedalsbekken" />
		<tag k="ssr:stedsnr" v="888165" />
		<tag k="waterway" v="stream" />
	</node>
	<node id="-349972" lat="58.1948944489" lon="7.74750833997">
		<tag k="name" v="Ålgårdsbekken" />
		<tag k="ssr:stedsnr" v="887647" />
		<tag k="waterway" v="stream" />
	</node>
	<node id="-352017" lat="58.2249777736" lon="7.71815556149">
		<tag k="name" v="Tvitjønnan" />
		<tag k="natural" v="water" />
		<tag k="ssr:stedsnr" v="524395" />
	</node>
	<node id="-354061" lat="58.1918805514" lon="7.82696389211">
		<tag k="name" v="Solheivann" />
		<tag k="natural" v="water" />
		<tag k="ssr:stedsnr" v="949831" />
	</node>
	<node id="-349963" lat="58.1761944411" lon="7.72843610338">
		<tag k="name" v="Austre Grunnevann" />
		<tag k="natural" v="water" />
		<tag k="ssr:stedsnr" v="887281" />
		<tag k="water" v="lake" />
	</node>
	<node id="-349962" lat="58.2562833365" lon="7.63132778149">
		<tag k="name" v="Naudesund" />
		<tag k="natural" v="strait" />
		<tag k="ssr:stedsnr" v="887277" />
	</node>
	<node id="-354050" lat="58.1671277797" lon="7.84182778411">
		<tag k="name" v="Store Geittjønn" />
		<tag k="natural" v="water" />
		<tag k="ssr:stedsnr" v="949772" />
	</node>
	<node id="-352000" lat="58.3530805546" lon="7.57363610712">
		<tag k="name" v="Kleivtjønn" />
		<tag k="natural" v="water" />
		<tag k="ssr:stedsnr" v="524231" />
	</node>
	<node id="-354046" lat="58.1467111096" lon="7.86971666306">
		<tag k="name" v="Storholmen" />
		<tag k="place" v="islet" />
		<tag k="ssr:stedsnr" v="949757" />
	</node>
	<node id="-354045" lat="58.1567833288" lon="7.87173888287">
		<tag k="name" v="Straisvannbekken" />
		<tag k="ssr:stedsnr" v="949743" />
		<tag k="waterway" v="stream" />
	</node>
	<node id="-351984" lat="58.1568222258" lon="7.83714722298">
		<tag k="name" v="Skeibekken" />
		<tag k="ssr:stedsnr" v="523801" />
		<tag k="waterway" v="stream" />
	</node>
	<node id="-351983" lat="58.1638444401" lon="7.77569444328">
		<tag k="name" v="Stavetjønn" />
		<tag k="natural" v="water" />
		<tag k="ssr:stedsnr" v="523788" />
	</node>
	<node id="-351980" lat="58.2104138889" lon="7.75088610554">
		<tag k="name" v="Gumpetjønn" />
		<tag k="natural" v="water" />
		<tag k="ssr:stedsnr" v="523749" />
	</node>
	<node id="-351979" lat="58.1445833334" lon="7.8068666732">
		<tag k="name" v="Lille Fiskebekk" />
		<tag k="ssr:stedsnr" v="523746" />
		<tag k="waterway" v="stream" />
	</node>
	<node id="-351977" lat="58.1361305552" lon="7.8025416677">
		<tag k="name" v="Kvelpetjønn" />
		<tag k="natural" v="water" />
		<tag k="ssr:stedsnr" v="523739" />
	</node>
	<node id="-354023" lat="58.1836305568" lon="7.73508611002">
		<tag k="name" v="Slettåstjønn" />
		<tag k="natural" v="water" />
		<tag k="ssr:stedsnr" v="949582" />
	</node>
	<node id="-351974" lat="58.1977194439" lon="7.74147499441">
		<tag k="name" v="Skåråna" />
		<tag k="ssr:stedsnr" v="523718" />
		<tag k="waterway" v="river" />
	</node>
	<node id="-354020" lat="58.2583722232" lon="7.63325000305">
		<tag k="name" v="Trælevannskilen" />
		<tag k="natural" v="bay" />
		<tag k="ssr:stedsnr" v="949552" />
	</node>
	<node id="-351971" lat="58.3274416663" lon="7.70076945074">
		<tag k="name" v="Løemyrbekken" />
		<tag k="ssr:stedsnr" v="523666" />
		<tag k="waterway" v="stream" />
	</node>
	<node id="-351968" lat="58.306611113" lon="7.63301111491">
		<tag k="name" v="Saueneset" />
		<tag k="natural" v="cape" />
		<tag k="ssr:stedsnr" v="523638" />
	</node>
	<node id="-351961" lat="58.3058083341" lon="7.72033888073">
		<tag k="name" v="Knibebekken" />
		<tag k="ssr:stedsnr" v="523591" />
		<tag k="waterway" v="stream" />
	</node>
	<node id="-351953" lat="58.3306888891" lon="7.59234166016">
		<tag k="name" v="Nadåstjønn" />
		<tag k="natural" v="water" />
		<tag k="ssr:stedsnr" v="523363" />
	</node>
	<node id="-351945" lat="58.2412888888" lon="7.61129722331">
		<tag k="name" v="Høyeåna" />
		<tag k="ssr:stedsnr" v="523232" />
		<tag k="waterway" v="river" />
	</node>
	<node id="-351940" lat="58.2687361093" lon="7.61040277006">
		<tag k="name" v="Fanteholmen" />
		<tag k="place" v="islet" />
		<tag k="ssr:stedsnr" v="523164" />
	</node>
	<node id="-353986" lat="58.2818083332" lon="7.63473610738">
		<tag k="name" v="Rubetjønn" />
		<tag k="natural" v="water" />
		<tag k="ssr:stedsnr" v="949328" />
	</node>
	<node id="-353984" lat="58.3180027766" lon="7.61377221691">
		<tag k="name" v="Espelandstjønn" />
		<tag k="natural" v="water" />
		<tag k="ssr:stedsnr" v="949322" />
	</node>
	<node id="-351921" lat="58.1552777812" lon="7.88459999268">
		<tag k="name" v="Tjuvtjønn" />
		<tag k="natural" v="water" />
		<tag k="ssr:stedsnr" v="509872" />
	</node>
	<node id="-351919" lat="58.3034065426" lon="7.71424731226">
		<tag k="alt_name" v="Blikkstjønn" />
		<tag k="name" v="Blikkstjørn" />
		<tag k="natural" v="water" />
		<tag k="ssr:stedsnr" v="485858" />
	</node>
	<node id="-349469" lat="58.1501416661" lon="7.86391388188">
		<tag k="name" v="Saltholmen" />
		<tag k="place" v="islet" />
		<tag k="ssr:stedsnr" v="342736" />
	</node>
	<node id="-353964" lat="58.1535166699" lon="7.78327777318">
		<tag k="name" v="Gåsetjønn" />
		<tag k="natural" v="water" />
		<tag k="ssr:stedsnr" v="948824" />
	</node>
	<node id="-351914" lat="58.3395861113" lon="7.60805000834">
		<tag k="alt_name" v="Røyråstjønn" />
		<tag k="name" v="Røyråstjørna" />
		<tag k="natural" v="water" />
		<tag k="ssr:stedsnr" v="485771" />
	</node>
	<node id="-353960" lat="58.1623083299" lon="7.75751389267">
		<tag k="name" v="Kilen" />
		<tag k="natural" v="bay" />
		<tag k="ssr:stedsnr" v="948795" />
	</node>
	<node id="-351911" lat="58.2425388866" lon="7.6482861062">
		<tag k="alt_name" v="Djupetjønn" />
		<tag k="name" v="Djupetjørna" />
		<tag k="natural" v="water" />
		<tag k="ssr:stedsnr" v="485598" />
	</node>
	<node id="-351908" lat="58.1345999996" lon="7.79393889692">
		<tag k="alt_name" v="Langevann" />
		<tag k="name" v="Langevatnet" />
		<tag k="natural" v="water" />
		<tag k="ssr:stedsnr" v="485172" />
	</node>
	<node id="-353950" lat="58.195902778" lon="7.75065000124">
		<tag k="name" v="Skårosen" />
		<tag k="natural" v="bay" />
		<tag k="ssr:stedsnr" v="948707" />
	</node>
	<node id="-353946" lat="58.2083555538" lon="7.79975278479">
		<tag k="name" v="Fidjeåna" />
		<tag k="ssr:stedsnr" v="948697" />
		<tag k="waterway" v="river" />
	</node>
	<node id="-353938" lat="58.3049972264" lon="7.62177222731">
		<tag k="name" v="Stokkåstjønn" />
		<tag k="natural" v="water" />
		<tag k="ssr:stedsnr" v="948621" />
	</node>
	<node id="-353933" lat="58.244719447" lon="7.6247416645">
		<tag k="name" v="Krossbekken" />
		<tag k="ssr:stedsnr" v="948525" />
		<tag k="waterway" v="stream" />
	</node>
	<node id="-353923" lat="58.1824166711" lon="7.72160556315">
		<tag k="name" v="Ospedalstjønn" />
		<tag k="natural" v="water" />
		<tag k="ssr:stedsnr" v="948325" />
	</node>
	<node id="-353922" lat="58.1773333342" lon="7.72476944395">
		<tag k="name" v="Nordre Grunnevann" />
		<tag k="natural" v="water" />
		<tag k="ssr:stedsnr" v="948303" />
		<tag k="water" v="lake" />
	</node>
	<node id="-353921" lat="58.2564861156" lon="7.67096666681">
		<tag k="name" v="Spikkevabekken" />
		<tag k="ssr:stedsnr" v="948300" />
		<tag k="waterway" v="stream" />
	</node>
	<node id="-353920" lat="58.284430552" lon="7.60373610356">
		<tag k="name" v="Kirketjønn" />
		<tag k="natural" v="water" />
		<tag k="ssr:stedsnr" v="948263" />
	</node>
	<node id="-353913" lat="58.2618916626" lon="7.60655277988">
		<tag k="name" v="Tjønna" />
		<tag k="natural" v="water" />
		<tag k="ssr:stedsnr" v="948172" />
	</node>
	<node id="-353903" lat="58.2940555515" lon="7.70018332621">
		<tag k="name" v="Auståna" />
		<tag k="ssr:stedsnr" v="910865" />
		<tag k="waterway" v="stream" />
	</node>
	<node id="-353902" lat="58.2984444413" lon="7.56267499239">
		<tag k="alt_name" v="Heitjønn" />
		<tag k="name" v="Heitjørn" />
		<tag k="natural" v="water" />
		<tag k="ssr:stedsnr" v="910850" />
	</node>
	<node id="-353898" lat="58.2681916643" lon="7.62322777121">
		<tag k="alt_name" v="Grotjønn" />
		<tag k="name" v="Grotjørn" />
		<tag k="natural" v="water" />
		<tag k="ssr:stedsnr" v="910821" />
	</node>
	<node id="-353896" lat="58.279839847" lon="7.55556043314">
		<tag k="name" v="Lonan" />
		<tag k="natural" v="water" />
		<tag k="ssr:stedsnr" v="910809" />
	</node>
	<node id="-349780" lat="58.315388893" lon="7.61976944341">
		<tag k="name" v="Hestefænet" />
		<tag k="natural" v="water" />
		<tag k="ssr:stedsnr" v="403342" />
		<tag k="water" v="pond" />
	</node>
	<node id="-349755" lat="58.1839388864" lon="7.85402499163">
		<tag k="name" v="Skiftingstjønn" />
		<tag k="natural" v="water" />
		<tag k="ssr:stedsnr" v="402991" />
	</node>
	<node id="-349754" lat="58.1807083364" lon="7.86378332601">
		<tag k="name" v="Kutjønna" />
		<tag k="natural" v="water" />
		<tag k="ssr:stedsnr" v="402986" />
	</node>
	<node id="-349748" lat="58.2492916635" lon="7.80136389235">
		<tag k="name" v="Iglevannsbekken" />
		<tag k="ssr:stedsnr" v="402864" />
		<tag k="waterway" v="stream" />
	</node>
	<node id="-349747" lat="58.2483361078" lon="7.80438054729">
		<tag k="name" v="Kjetilstjønn" />
		<tag k="natural" v="water" />
		<tag k="ssr:stedsnr" v="402863" />
	</node>
	<node id="-349746" lat="58.2310083308" lon="7.81288334095">
		<tag k="name" v="Fidjeelva" />
		<tag k="ssr:stedsnr" v="402859" />
		<tag k="waterway" v="stream" />
	</node>
	<node id="-349742" lat="58.2235722261" lon="7.83255277659">
		<tag k="name" v="Stebekken" />
		<tag k="ssr:stedsnr" v="402842" />
		<tag k="waterway" v="stream" />
	</node>
	<node id="-349736" lat="58.1617944423" lon="7.82516943817">
		<tag k="name" v="Spjoshølen" />
		<tag k="place" v="locality" />
		<tag k="ssr:stedsnr" v="402786" />
	</node>
	<node id="-349733" lat="58.1477083338" lon="7.79689721602">
		<tag k="name" v="Svarttjønn" />
		<tag k="natural" v="water" />
		<tag k="ssr:stedsnr" v="402754" />
	</node>
	<node id="-349725" lat="58.1908527768" lon="7.75567222521">
		<tag k="name" v="Holmen" />
		<tag k="place" v="islet" />
		<tag k="ssr:stedsnr" v="402700" />
	</node>
	<node id="-349719" lat="58.2573305588" lon="7.63525833048">
		<tag k="name" v="Tømmeråstjønna" />
		<tag k="natural" v="water" />
		<tag k="ssr:stedsnr" v="402655" />
	</node>
	<node id="-349714" lat="58.2684277786" lon="7.6414805557">
		<tag k="name" v="Blikkstjønn" />
		<tag k="natural" v="water" />
		<tag k="ssr:stedsnr" v="402634" />
	</node>
	<node id="-349712" lat="58.3247140515" lon="7.64028365536">
		<tag k="name" v="Bleikstjønn" />
		<tag k="natural" v="water" />
		<tag k="ssr:stedsnr" v="402622" />
	</node>
	<node id="-349703" lat="58.3170861147" lon="7.68995833274">
		<tag k="name" v="Fisketjønn" />
		<tag k="natural" v="water" />
		<tag k="ssr:stedsnr" v="402540" />
	</node>
	<node id="-349697" lat="58.2496944452" lon="7.64461389105">
		<tag k="name" v="Lille Godmyrheitjønn" />
		<tag k="natural" v="water" />
		<tag k="ssr:stedsnr" v="402492" />
	</node>
	<node id="-349691" lat="58.2885388874" lon="7.71545832547">
		<tag k="name" v="Gytjønn" />
		<tag k="natural" v="water" />
		<tag k="ssr:stedsnr" v="402457" />
	</node>
	<node id="-349685" lat="58.2256055575" lon="7.70275833788">
		<tag k="name" v="Skumtjønn" />
		<tag k="natural" v="water" />
		<tag k="ssr:stedsnr" v="402432" />
	</node>
	<node id="-349684" lat="58.2973972238" lon="7.66283889023">
		<tag k="name" v="Saurdalsbekken" />
		<tag k="ssr:stedsnr" v="402424" />
		<tag k="waterway" v="stream" />
	</node>
	<node id="-349667" lat="58.3486527799" lon="7.61761666982">
		<tag k="name" v="Hauglandshølen" />
		<tag k="place" v="locality" />
		<tag k="ssr:stedsnr" v="402326" />
	</node>
	<node id="-349660" lat="58.310458333" lon="7.60871943997">
		<tag k="name" v="Stomnevannsbekken" />
		<tag k="ssr:stedsnr" v="402285" />
		<tag k="waterway" v="stream" />
	</node>
	<node id="-351700" lat="58.2279861133" lon="7.78669999166">
		<tag k="name" v="Jostadvann" />
		<tag k="natural" v="water" />
		<tag k="ssr:stedsnr" v="463830" />
		<tag k="water" v="lake" />
	</node>
	<node id="-349650" lat="58.2568861139" lon="7.58973055271">
		<tag k="name" v="Låmmanstjønn" />
		<tag k="natural" v="water" />
		<tag k="ssr:stedsnr" v="402209" />
	</node>
	<node id="-349645" lat="58.261883335" lon="7.57317221665">
		<tag k="name" v="Stemtjønn" />
		<tag k="natural" v="water" />
		<tag k="ssr:stedsnr" v="402166" />
	</node>
	<node id="-351691" lat="58.1423555558" lon="7.8717472223">
		<tag k="name" v="Lille Kjelåstjønn" />
		<tag k="natural" v="water" />
		<tag k="ssr:stedsnr" v="463788" />
	</node>
	<node id="-351688" lat="58.1626499992" lon="7.87322499667">
		<tag k="name" v="Kabretjønn" />
		<tag k="natural" v="water" />
		<tag k="ssr:stedsnr" v="463781" />
	</node>
	<node id="-349635" lat="58.2472916665" lon="7.66388611568">
		<tag k="alt_name" v="Fyllstjønn" />
		<tag k="name" v="Fylltjørna" />
		<tag k="natural" v="water" />
		<tag k="ssr:stedsnr" v="364666" />
	</node>
	<node id="-349634" lat="58.2373000011" lon="7.66432777636">
		<tag k="alt_name" v="Sauetjønn" />
		<tag k="name" v="Sautjørna" />
		<tag k="natural" v="water" />
		<tag k="ssr:stedsnr" v="364652" />
	</node>
	<node id="-351677" lat="58.1630361099" lon="7.74479443757">
		<tag k="name" v="Skuggåna" />
		<tag k="ssr:stedsnr" v="463715" />
		<tag k="waterway" v="stream" />
	</node>
	<node id="-351674" lat="58.1455666628" lon="7.8071472284">
		<tag k="name" v="Grønlandsbukta" />
		<tag k="natural" v="bay" />
		<tag k="ssr:stedsnr" v="463692" />
	</node>
	<node id="-351668" lat="58.1341527757" lon="7.79668611295">
		<tag k="name" v="Svarttjønn" />
		<tag k="natural" v="water" />
		<tag k="ssr:stedsnr" v="463641" />
	</node>
	<node id="-351660" lat="58.3189694434" lon="7.63629444482">
		<tag k="name" v="Storeneset" />
		<tag k="natural" v="cape" />
		<tag k="ssr:stedsnr" v="463567" />
	</node>
	<node id="-351659" lat="58.3337138856" lon="7.71531388178">
		<tag k="name" v="Lonan" />
		<tag k="natural" v="water" />
		<tag k="ssr:stedsnr" v="463565" />
		<tag k="water" v="lake" />
	</node>
	<node id="-353703" lat="58.1771194429" lon="7.79158055663">
		<tag k="name" v="Krokevannsbekken" />
		<tag k="ssr:stedsnr" v="828818" />
		<tag k="waterway" v="stream" />
	</node>
	<node id="-353700" lat="58.2307944412" lon="7.82313055436">
		<tag k="name" v="Lille Hemmestjønn" />
		<tag k="natural" v="water" />
		<tag k="ssr:stedsnr" v="828788" />
	</node>
	<node id="-351644" lat="58.288572225" lon="7.71246388896">
		<tag k="name" v="Gybekken" />
		<tag k="ssr:stedsnr" v="463403" />
		<tag k="waterway" v="stream" />
	</node>
	<node id="-351638" lat="58.2932472218" lon="7.62796388727">
		<tag k="name" v="Vedrebrokktjønn" />
		<tag k="natural" v="water" />
		<tag k="ssr:stedsnr" v="463367" />
	</node>
	<node id="-351636" lat="58.2819333307" lon="7.66935554825">
		<tag k="name" v="Midtstemmen" />
		<tag k="natural" v="water" />
		<tag k="ssr:stedsnr" v="463359" />
	</node>
	<node id="-353683" lat="58.1876694415" lon="7.73390833233">
		<tag k="name" v="Bjortjønn" />
		<tag k="natural" v="water" />
		<tag k="ssr:stedsnr" v="828611" />
	</node>
	<node id="-351615" lat="58.3387138918" lon="7.58959999206">
		<tag k="name" v="Jordstjønn" />
		<tag k="natural" v="water" />
		<tag k="ssr:stedsnr" v="463150" />
	</node>
	<node id="-353639" lat="58.1637777782" lon="7.88150555672">
		<tag k="alt_name" v="Straisvann" />
		<tag k="name" v="Straisvannet" />
		<tag k="natural" v="water" />
		<tag k="ssr:stedsnr" v="827841" />
		<tag k="water" v="lake" />
	</node>
	<node id="-353634" lat="58.1702666676" lon="7.82544166613">
		<tag k="name" v="Nygårdsneset" />
		<tag k="natural" v="cape" />
		<tag k="ssr:stedsnr" v="827795" />
	</node>
	<node id="-353628" lat="58.2016527803" lon="7.77183055637">
		<tag k="name" v="Skårtjønn" />
		<tag k="natural" v="water" />
		<tag k="ssr:stedsnr" v="827732" />
	</node>
	<node id="-351579" lat="58.3103750033" lon="7.635038888">
		<tag k="alt_name" v="Kråketjønn" />
		<tag k="name" v="Kråketjørn" />
		<tag k="natural" v="water" />
		<tag k="ssr:stedsnr" v="425861" />
	</node>
	<node id="-351576" lat="58.3469528644" lon="7.59379012229">
		<tag k="alt_name" v="Våkkelandstjønn" />
		<tag k="name" v="Våklandstjørna" />
		<tag k="natural" v="water" />
		<tag k="ssr:stedsnr" v="425825" />
	</node>
	<node id="-351573" lat="58.2431555589" lon="7.69821111928">
		<tag k="alt_name" v="Stubstadtjønna" />
		<tag k="name" v="Stupstadtjørna" />
		<tag k="natural" v="water" />
		<tag k="ssr:stedsnr" v="425738" />
	</node>
	<node id="-351570" lat="58.1441833311" lon="7.83189999274">
		<tag k="name" v="Risbekken" />
		<tag k="ssr:stedsnr" v="425201" />
		<tag k="waterway" v="stream" />
	</node>
	<node id="-351569" lat="58.2331694487" lon="7.84436388094">
		<tag k="alt_name" v="Hemmingsvatnet" />
		<tag k="name" v="Hemmesvann" />
		<tag k="natural" v="water" />
		<tag k="ssr:stedsnr" v="425092" />
		<tag k="water" v="lake" />
	</node>
	<node id="-351568" lat="58.2377166654" lon="7.83409721687">
		<tag k="alt_name" v="Krogevann" />
		<tag k="name" v="Krokvatnet" />
		<tag k="natural" v="water" />
		<tag k="ssr:stedsnr" v="425091" />
	</node>
	<node id="-353611" lat="58.2452666639" lon="7.64726665923">
		<tag k="name" v="Småtjønnan" />
		<tag k="natural" v="water" />
		<tag k="ssr:stedsnr" v="827508" />
	</node>
	<node id="-353609" lat="58.2809000028" lon="7.6439083338">
		<tag k="name" v="Neverdalstjønn" />
		<tag k="natural" v="water" />
		<tag k="ssr:stedsnr" v="827484" />
	</node>
	<node id="-353607" lat="58.2886472217" lon="7.69652778465">
		<tag k="name" v="Breivahølen" />
		<tag k="place" v="locality" />
		<tag k="ssr:stedsnr" v="827459" />
	</node>
	<node id="-353604" lat="58.2938750022" lon="7.64942778271">
		<tag k="name" v="Reinstjønn" />
		<tag k="natural" v="water" />
		<tag k="ssr:stedsnr" v="827433" />
	</node>
	<node id="-349494" lat="58.1726805564" lon="7.75920556086">
		<tag k="name" v="Indrestøbekken" />
		<tag k="ssr:stedsnr" v="342840" />
		<tag k="waterway" v="stream" />
	</node>
	<node id="-353585" lat="58.2247722254" lon="7.84795555917">
		<tag k="name" v="Krontjønn" />
		<tag k="natural" v="water" />
		<tag k="ssr:stedsnr" v="827221" />
	</node>
	<node id="-349487" lat="58.1786472226" lon="7.78426389333">
		<tag k="name" v="Krokevann" />
		<tag k="natural" v="water" />
		<tag k="ssr:stedsnr" v="342824" />
		<tag k="water" v="lake" />
	</node>
	<node id="-351533" lat="58.1350805525" lon="7.88332499525">
		<tag k="alt_name" v="Øygardsvannan" />
		<tag k="name" v="Øygardsvatnet" />
		<tag k="natural" v="water" />
		<tag k="ssr:stedsnr" v="243203" />
	</node>
	<node id="-351532" lat="58.213416671" lon="7.82112499654">
		<tag k="alt_name" v="Jankevann" />
		<tag k="name" v="Jankevatnet" />
		<tag k="natural" v="water" />
		<tag k="ssr:stedsnr" v="243118" />
	</node>
	<node id="-353565" lat="58.3358888914" lon="7.58406110653">
		<tag k="alt_name" v="Ristjønn" />
		<tag k="name" v="Ristjørn" />
		<tag k="natural" v="water" />
		<tag k="ssr:stedsnr" v="789808" />
	</node>
	<node id="-353561" lat="58.2398000034" lon="7.60284166018">
		<tag k="alt_name" v="Poddetjønn" />
		<tag k="name" v="Poddetjørna" />
		<tag k="natural" v="water" />
		<tag k="ssr:stedsnr" v="789634" />
	</node>
	<node id="-353560" lat="58.1184000017" lon="7.86308889425">
		<tag k="alt_name" v="Tritjønnan" />
		<tag k="name" v="Tretjørna" />
		<tag k="natural" v="water" />
		<tag k="ssr:stedsnr" v="789250" />
	</node>
	<node id="-353557" lat="58.3007583304" lon="7.64044166495">
		<tag k="alt_name" v="Djupeslandsvannet" />
		<tag k="name" v="Djubeslandsvatnet" />
		<tag k="natural" v="water" />
		<tag k="ssr:stedsnr" v="788836" />
		<tag k="water" v="lake" />
	</node>
	<node id="-353556" lat="58.2656333323" lon="7.60338333777">
		<tag k="alt_name" v="Homevann" />
		<tag k="name" v="Homevatnet" />
		<tag k="natural" v="water" />
		<tag k="ssr:stedsnr" v="788820" />
		<tag k="water" v="lake" />
	</node>
	<node id="-349437" lat="58.2401083308" lon="7.70426388777">
		<tag k="name" v="Eikelandsvaet" />
		<tag k="ssr:stedsnr" v="342420" />
		<tag k="waterway" v="stream" />
	</node>
	<node id="-349426" lat="58.3016472202" lon="7.56928610324">
		<tag k="name" v="Stemtjønn" />
		<tag k="natural" v="water" />
		<tag k="ssr:stedsnr" v="342224" />
	</node>
	<node id="-349413" lat="58.1498361137" lon="7.77072221774">
		<tag k="name" v="Gåsebekken" />
		<tag k="ssr:stedsnr" v="341776" />
		<tag k="waterway" v="stream" />
	</node>
	<node id="-349411" lat="58.1525305543" lon="7.83208888241">
		<tag k="name" v="Nodehølen" />
		<tag k="place" v="locality" />
		<tag k="ssr:stedsnr" v="341769" />
	</node>
	<node id="-349410" lat="58.1513361087" lon="7.8187222236">
		<tag k="name" v="Rakketjønn" />
		<tag k="natural" v="water" />
		<tag k="ssr:stedsnr" v="341766" />
	</node>
	<node id="-349408" lat="58.1408138862" lon="7.83079443811">
		<tag k="name" v="Tømmermyrbekken" />
		<tag k="ssr:stedsnr" v="341740" />
		<tag k="waterway" v="stream" />
	</node>
	<node id="-349406" lat="58.1905555574" lon="7.74149165895">
		<tag k="name" v="Ålgårdstjønn" />
		<tag k="natural" v="water" />
		<tag k="ssr:stedsnr" v="341722" />
	</node>
	<node id="-349400" lat="58.265075001" lon="7.63344165862">
		<tag k="name" v="Bjørkekjerrtjønn" />
		<tag k="natural" v="water" />
		<tag k="ssr:stedsnr" v="341684" />
	</node>
	<node id="-349399" lat="58.2647499985" lon="7.63847221637">
		<tag k="name" v="Perspytt" />
		<tag k="natural" v="water" />
		<tag k="ssr:stedsnr" v="341683" />
		<tag k="water" v="pond" />
	</node>
	<node id="-349390" lat="58.3102999981" lon="7.68866666766">
		<tag k="name" v="Hommansbekken" />
		<tag k="ssr:stedsnr" v="341583" />
		<tag k="waterway" v="stream" />
	</node>
	<node id="-349369" lat="58.2520916634" lon="7.65166666599">
		<tag k="name" v="Stemmen" />
		<tag k="natural" v="water" />
		<tag k="ssr:stedsnr" v="341313" />
	</node>
	<node id="-349368" lat="58.2534972207" lon="7.63835832797">
		<tag k="name" v="Stemmen" />
		<tag k="ssr:stedsnr" v="341304" />
		<tag k="waterway" v="dam" />
	</node>
	<node id="-349366" lat="58.3560361138" lon="7.61706667147">
		<tag k="name" v="Dyblebekken" />
		<tag k="ssr:stedsnr" v="341278" />
		<tag k="waterway" v="stream" />
	</node>
	<node id="-349361" lat="58.2989333293" lon="7.61125277969">
		<tag k="name" v="Bubakktjønn" />
		<tag k="natural" v="water" />
		<tag k="ssr:stedsnr" v="341246" />
	</node>
	<node id="-349355" lat="58.3409833333" lon="7.61968889709">
		<tag k="name" v="Pausetjønn" />
		<tag k="natural" v="water" />
		<tag k="ssr:stedsnr" v="341189" />
	</node>
	<node id="-351401" lat="58.1729777785" lon="7.7539249966">
		<tag k="name" v="Indrestø" />
		<tag k="natural" v="cape" />
		<tag k="ssr:stedsnr" v="221849" />
	</node>
	<node id="-349351" lat="58.2675083309" lon="7.60429167176">
		<tag k="name" v="Oksen" />
		<tag k="place" v="islet" />
		<tag k="ssr:stedsnr" v="341158" />
	</node>
	<node id="-349350" lat="58.262047223" lon="7.58945554797">
		<tag k="name" v="Kattetjønn" />
		<tag k="natural" v="water" />
		<tag k="ssr:stedsnr" v="341154" />
	</node>
	<node id="-351396" lat="58.2477250036" lon="7.80839999264">
		<tag k="name" v="Kjetilsbekken" />
		<tag k="ssr:stedsnr" v="221810" />
		<tag k="waterway" v="stream" />
	</node>
	<node id="-349347" lat="58.2651500027" lon="7.58948056323">
		<tag k="name" v="Nykkfossen" />
		<tag k="natural" v="waterfall" />
		<tag k="ssr:stedsnr" v="341131" />
	</node>
	<node id="-349321" lat="58.2317750028" lon="7.67558611571">
		<tag k="alt_name" v="Rypetjønn" />
		<tag k="name" v="Rypetjørna" />
		<tag k="natural" v="water" />
		<tag k="ssr:stedsnr" v="303712" />
	</node>
	<node id="-349320" lat="58.2521105041" lon="7.62496613361">
		<tag k="alt_name" v="Trælevann" />
		<tag k="name" v="Trælevatnet" />
		<tag k="natural" v="water" />
		<tag k="ssr:stedsnr" v="303654" />
		<tag k="water" v="lake" />
	</node>
	<node id="-349319" lat="58.1277555553" lon="7.88572777069">
		<tag k="alt_name" v="Brulivann" />
		<tag k="name" v="Brudlevatnet" />
		<tag k="natural" v="water" />
		<tag k="ssr:stedsnr" v="303240" />
	</node>
	<node id="-349318" lat="58.13320833" lon="7.89116110473">
		<tag k="alt_name" v="Fossvann" />
		<tag k="name" v="Fossvatnet" />
		<tag k="natural" v="water" />
		<tag k="ssr:stedsnr" v="303218" />
	</node>
	<node id="-349317" lat="58.1394583338" lon="7.8835944465">
		<tag k="alt_name" v="Mjåvann" />
		<tag k="name" v="Mjåvatnet" />
		<tag k="natural" v="water" />
		<tag k="ssr:stedsnr" v="303217" />
	</node>
	<node id="-351362" lat="58.1882638853" lon="7.75933889722">
		<tag k="name" v="Larkestø" />
		<tag k="natural" v="bay" />
		<tag k="ssr:stedsnr" v="221597" />
	</node>
	<node id="-349313" lat="58.246708333" lon="7.82443056312">
		<tag k="alt_name" v="Skogevann" />
		<tag k="name" v="Skogevatnet" />
		<tag k="natural" v="water" />
		<tag k="ssr:stedsnr" v="303093" />
	</node>
	<node id="-353393" lat="58.184013893" lon="7.75343888651">
		<tag k="name" v="Sønninga" />
		<tag k="natural" v="cape" />
		<tag k="ssr:stedsnr" v="767628" />
	</node>
	<node id="-351303" lat="58.156122224" lon="7.76207499204">
		<tag k="name" v="Kvihola" />
		<tag k="natural" v="bay" />
		<tag k="ssr:stedsnr" v="220815" />
	</node>
	<node id="-351302" lat="58.1626055582" lon="7.84090833918">
		<tag k="name" v="Geittjønnbekken" />
		<tag k="ssr:stedsnr" v="220811" />
		<tag k="waterway" v="stream" />
	</node>
	<node id="-353342" lat="58.1933083368" lon="7.853622219">
		<tag k="name" v="Guritjønn" />
		<tag k="natural" v="water" />
		<tag k="ssr:stedsnr" v="767000" />
	</node>
	<node id="-351293" lat="58.1960388901" lon="7.80801110398">
		<tag k="name" v="Tretjønn" />
		<tag k="natural" v="water" />
		<tag k="ssr:stedsnr" v="220716" />
	</node>
	<node id="-351292" lat="58.2038166628" lon="7.83458888417">
		<tag k="name" v="Røyråsbekken" />
		<tag k="ssr:stedsnr" v="220698" />
		<tag k="waterway" v="stream" />
	</node>
	<node id="-351291" lat="58.2051333376" lon="7.79978332849">
		<tag k="name" v="Røyrvannsbekken" />
		<tag k="ssr:stedsnr" v="220695" />
		<tag k="waterway" v="stream" />
	</node>
	<node id="-351288" lat="58.2602972228" lon="7.624136103">
		<tag k="name" v="Bjølltjønn" />
		<tag k="natural" v="water" />
		<tag k="ssr:stedsnr" v="220668" />
	</node>
	<node id="-351287" lat="58.273183331" lon="7.65808888367">
		<tag k="name" v="Sparufstjønn" />
		<tag k="natural" v="water" />
		<tag k="ssr:stedsnr" v="220666" />
	</node>
	<node id="-351285" lat="58.2673083371" lon="7.64810555854">
		<tag k="name" v="Piningstangen" />
		<tag k="natural" v="cape" />
		<tag k="ssr:stedsnr" v="220661" />
	</node>
	<node id="-353331" lat="58.2177138846" lon="7.8268555552">
		<tag k="name" v="Liabekken" />
		<tag k="ssr:stedsnr" v="766825" />
		<tag k="waterway" v="stream" />
	</node>
	<node id="-353325" lat="58.1380416686" lon="7.88075554856">
		<tag k="name" v="Langetjønn" />
		<tag k="natural" v="water" />
		<tag k="ssr:stedsnr" v="766789" />
	</node>
	<node id="-351271" lat="58.2400916629" lon="7.67831666683">
		<tag k="name" v="Storevastemmen" />
		<tag k="natural" v="water" />
		<tag k="ssr:stedsnr" v="220538" />
		<tag k="water" v="pond" />
	</node>
	<node id="-353317" lat="58.1663388881" lon="7.74892777813">
		<tag k="name" v="Marodden" />
		<tag k="natural" v="cape" />
		<tag k="ssr:stedsnr" v="766755" />
	</node>
	<node id="-353316" lat="58.1599583323" lon="7.74617222469">
		<tag k="name" v="Linddalsholmen" />
		<tag k="place" v="islet" />
		<tag k="ssr:stedsnr" v="766748" />
	</node>
	<node id="-353314" lat="58.1425861132" lon="7.76098611115">
		<tag k="name" v="Nepstadodden" />
		<tag k="natural" v="cape" />
		<tag k="ssr:stedsnr" v="766733" />
	</node>
	<node id="-353313" lat="58.1376854158" lon="7.77288456732">
		<tag k="name" v="Bjortjønn" />
		<tag k="natural" v="water" />
		<tag k="ssr:stedsnr" v="766727" />
	</node>
	<node id="-351259" lat="58.2251833335" lon="7.70399999728">
		<tag k="name" v="Lauvtjønn" />
		<tag k="natural" v="water" />
		<tag k="ssr:stedsnr" v="220454" />
	</node>
	<node id="-353306" lat="58.1308361144" lon="7.81139722191">
		<tag k="name" v="Ytre Kobotjønn" />
		<tag k="natural" v="water" />
		<tag k="ssr:stedsnr" v="766687" />
	</node>
	<node id="-351255" lat="58.3008555586" lon="7.56358333706">
		<tag k="name" v="Ørknetjønn" />
		<tag k="natural" v="water" />
		<tag k="ssr:stedsnr" v="220377" />
	</node>
	<node id="-353295" lat="58.3347722187" lon="7.63198055633">
		<tag k="name" v="Kvellandsvannet" />
		<tag k="natural" v="water" />
		<tag k="ssr:stedsnr" v="766586" />
		<tag k="water" v="lake" />
	</node>
	<node id="-353293" lat="58.3029666709" lon="7.62943888758">
		<tag k="name" v="Lille Nordvolltjønn" />
		<tag k="natural" v="water" />
		<tag k="ssr:stedsnr" v="766568" />
	</node>
	<node id="-351244" lat="58.2849444476" lon="7.58866110278">
		<tag k="name" v="Jordtjønn" />
		<tag k="natural" v="water" />
		<tag k="ssr:stedsnr" v="220281" />
	</node>
	<node id="-353281" lat="58.2932055599" lon="7.68529721898">
		<tag k="name" v="Ingnusdalsbekken" />
		<tag k="ssr:stedsnr" v="766423" />
		<tag k="waterway" v="stream" />
	</node>
	<node id="-353279" lat="58.2749916705" lon="7.64579165957">
		<tag k="name" v="Laugtjønn" />
		<tag k="natural" v="water" />
		<tag k="ssr:stedsnr" v="766408" />
	</node>
	<node id="-351228" lat="58.2908944446" lon="7.71493889462">
		<tag k="alt_name" v="Gyvann" />
		<tag k="name" v="Gyvatnet" />
		<tag k="natural" v="water" />
		<tag k="ssr:stedsnr" v="182846" />
	</node>
	<node id="-353275" lat="58.309577777" lon="7.59169167167">
		<tag k="name" v="Treskobekken" />
		<tag k="ssr:stedsnr" v="766354" />
		<tag k="waterway" v="stream" />
	</node>
	<node id="-351226" lat="58.288024997" lon="7.5507999939">
		<tag k="alt_name" v="Stavtjønn" />
		<tag k="name" v="Stavtjørn" />
		<tag k="natural" v="water" />
		<tag k="ssr:stedsnr" v="182803" />
	</node>
	<node id="-351225" lat="58.2374638858" lon="7.70988610744">
		<tag k="name" v="Gumpedalselva" />
		<tag k="ssr:stedsnr" v="182716" />
		<tag k="waterway" v="river" />
	</node>
	<node id="-351224" lat="58.1304888861" lon="7.87710000178">
		<tag k="alt_name" v="Grisetjønnan" />
		<tag k="name" v="Grisetjørnane" />
		<tag k="natural" v="water" />
		<tag k="ssr:stedsnr" v="182215" />
	</node>
	<node id="-351222" lat="58.2649641471" lon="7.65202433736">
		<tag k="alt_name" v="Livann" />
		<tag k="name" v="Livatnet" />
		<tag k="natural" v="water" />
		<tag k="ssr:stedsnr" v="182197" />
		<tag k="water" v="lake" />
	</node>
	<node id="-351221" lat="58.2032527763" lon="7.81678054927">
		<tag k="alt_name" v="Røyrvann" />
		<tag k="name" v="Røyrvatnet" />
		<tag k="natural" v="water" />
		<tag k="ssr:stedsnr" v="182104" />
	</node>
	<node id="-351218" lat="58.1834333366" lon="7.83998889564">
		<tag k="alt_name" v="Stemtjønn" />
		<tag k="name" v="Stemtjørn" />
		<tag k="natural" v="water" />
		<tag k="ssr:stedsnr" v="182021" />
		<tag k="water" v="lake" />
	</node>
	<node id="-351059" lat="58.1829916672" lon="7.82574445209">
		<tag k="name" v="Sauetjønn" />
		<tag k="natural" v="water" />
		<tag k="ssr:stedsnr" v="160841" />
	</node>
	<node id="-353264" lat="58.2162888859" lon="7.85059999295">
		<tag k="name" v="Gjillartjønn" />
		<tag k="natural" v="water" />
		<tag k="ssr:stedsnr" v="766199" />
	</node>
	<node id="-353262" lat="58.2604694467" lon="7.59880556037">
		<tag k="name" v="Poddetjønn" />
		<tag k="natural" v="water" />
		<tag k="ssr:stedsnr" v="766147" />
	</node>
	<node id="-353261" lat="58.261186108" lon="7.55523888792">
		<tag k="name" v="Grodalsholmen" />
		<tag k="place" v="islet" />
		<tag k="ssr:stedsnr" v="766140" />
	</node>
	<node id="-353238" lat="58.25735556" lon="7.69983888577">
		<tag k="name" v="Krokbekken" />
		<tag k="ssr:stedsnr" v="766503" />
		<tag k="waterway" v="stream" />
	</node>
	<node id="-353235" lat="58.2747611143" lon="7.59291111529">
		<tag k="alt_name" v="Borvann" />
		<tag k="name" v="Bordvatn" />
		<tag k="natural" v="water" />
		<tag k="ssr:stedsnr" v="728798" />
	</node>
	<node id="-353231" lat="58.1383611127" lon="7.81562500218">
		<tag k="alt_name" v="Risvann" />
		<tag k="name" v="Risvatnet" />
		<tag k="natural" v="water" />
		<tag k="ssr:stedsnr" v="728186" />
	</node>
	<node id="-353230" lat="58.1471611118" lon="7.86792777437">
		<tag k="alt_name" v="Farvannet" />
		<tag k="name" v="Farvatnet" />
		<tag k="natural" v="water" />
		<tag k="ssr:stedsnr" v="728175" />
		<tag k="water" v="lake" />
	</node>
	<node id="-353229" lat="58.1513388933" lon="7.79333889299">
		<tag k="alt_name" v="Tritjønnene" />
		<tag k="name" v="Tretjørnane" />
		<tag k="natural" v="water" />
		<tag k="ssr:stedsnr" v="728158" />
	</node>
	<node id="-353227" lat="58.2057305549" lon="7.74439166827">
		<tag k="alt_name" v="Stemtjønn" />
		<tag k="name" v="Stemmetjørn" />
		<tag k="natural" v="water" />
		<tag k="ssr:stedsnr" v="728099" />
	</node>
	<node id="-353223" lat="58.1744923219" lon="7.72166132177">
		<tag k="alt_name" v="Heimre Grunnevann" />
		<tag k="name" v="Grunnevatnet" />
		<tag k="natural" v="water" />
		<tag k="ssr:stedsnr" v="728026" />
	</node>
	<node id="-349094" lat="58.2495388863" lon="7.81599722476">
		<tag k="name" v="Homselva" />
		<tag k="ssr:stedsnr" v="281874" />
		<tag k="waterway" v="river" />
	</node>
	<node id="-349081" lat="58.1572583344" lon="7.83222221886">
		<tag k="name" v="Storeneset" />
		<tag k="natural" v="cape" />
		<tag k="ssr:stedsnr" v="281732" />
	</node>
	<node id="-349080" lat="58.1585722238" lon="7.82647221791">
		<tag k="name" v="Bruhølen" />
		<tag k="place" v="locality" />
		<tag k="ssr:stedsnr" v="281730" />
	</node>
	<node id="-349079" lat="58.1518111099" lon="7.81298333729">
		<tag k="name" v="Kvernhusbekken" />
		<tag k="ssr:stedsnr" v="281720" />
		<tag k="waterway" v="stream" />
	</node>
	<node id="-349076" lat="58.1397694422" lon="7.80139722602">
		<tag k="name" v="Bjortjønn" />
		<tag k="natural" v="water" />
		<tag k="ssr:stedsnr" v="281685" />
	</node>
	<node id="-349075" lat="58.1340805531" lon="7.80984999866">
		<tag k="name" v="Paddetjønn" />
		<tag k="natural" v="water" />
		<tag k="ssr:stedsnr" v="281684" />
	</node>
	<node id="-349073" lat="58.2595444415" lon="7.65943889074">
		<tag k="name" v="Spikkevann" />
		<tag k="natural" v="water" />
		<tag k="ssr:stedsnr" v="281654" />
	</node>
	<node id="-349072" lat="58.2739583372" lon="7.67745277095">
		<tag k="name" v="Spikketjønn" />
		<tag k="natural" v="water" />
		<tag k="ssr:stedsnr" v="281652" />
	</node>
	<node id="-349068" lat="58.3262888925" lon="7.6938805518">
		<tag k="name" v="Lunnehølen" />
		<tag k="place" v="locality" />
		<tag k="ssr:stedsnr" v="281605" />
	</node>
	<node id="-349064" lat="58.3023722183" lon="7.62749721818">
		<tag k="name" v="Store Nordvolltjønn" />
		<tag k="natural" v="water" />
		<tag k="ssr:stedsnr" v="281571" />
	</node>
	<node id="-349046" lat="58.2984111109" lon="7.63848889058">
		<tag k="name" v="Kilen" />
		<tag k="natural" v="bay" />
		<tag k="ssr:stedsnr" v="281429" />
	</node>
	<node id="-349045" lat="58.2938111138" lon="7.63948888985">
		<tag k="name" v="Lille Dyråstjønn" />
		<tag k="natural" v="water" />
		<tag k="ssr:stedsnr" v="281416" />
	</node>
	<node id="-351091" lat="58.173630555" lon="7.85575278532">
		<tag k="name" v="Svarttjønn" />
		<tag k="natural" v="water" />
		<tag k="ssr:stedsnr" v="160984" />
	</node>
	<node id="-349039" lat="58.3129000001" lon="7.61934999846">
		<tag k="name" v="Histjønn" />
		<tag k="natural" v="water" />
		<tag k="ssr:stedsnr" v="281371" />
	</node>
	<node id="-349032" lat="58.3022888881" lon="7.61255833667">
		<tag k="name" v="Svartehølen" />
		<tag k="place" v="locality" />
		<tag k="ssr:stedsnr" v="281311" />
	</node>
	<node id="-349027" lat="58.2899638902" lon="7.57571388594">
		<tag k="name" v="Bjølltjønn" />
		<tag k="natural" v="water" />
		<tag k="ssr:stedsnr" v="281263" />
	</node>
	<node id="-352059" lat="58.1320000036" lon="7.845149998">
		<tag k="name" v="Mørkedalstjønn" />
		<tag k="natural" v="water" />
		<tag k="ssr:stedsnr" v="524726" />
	</node>
	<node id="-349020" lat="58.2486194432" lon="7.61023889491">
		<tag k="name" v="Bergebrottjønna" />
		<tag k="natural" v="water" />
		<tag k="ssr:stedsnr" v="281210" />
	</node>
	<node id="-351064" lat="58.1780944468" lon="7.77188055046">
		<tag k="name" v="Langedalstjønn" />
		<tag k="natural" v="water" />
		<tag k="ssr:stedsnr" v="160859" />
	</node>
	<node id="-349012" lat="58.2645222215" lon="7.59855277718">
		<tag k="name" v="Dynekilen" />
		<tag k="natural" v="bay" />
		<tag k="ssr:stedsnr" v="281132" />
	</node>
	<node id="-349011" lat="58.2629694452" lon="7.59793888681">
		<tag k="name" v="Homevannstjønn" />
		<tag k="natural" v="water" />
		<tag k="ssr:stedsnr" v="281129" />
	</node>
	<node id="-349009" lat="58.2770833355" lon="7.55306944875">
		<tag k="name" v="Skrebekken" />
		<tag k="ssr:stedsnr" v="281108" />
		<tag k="waterway" v="stream" />
	</node>
	<node id="-351056" lat="58.2390250009" lon="7.79373333472">
		<tag k="name" v="Svarttjønn" />
		<tag k="natural" v="water" />
		<tag k="ssr:stedsnr" v="160830" />
	</node>
	<node id="-349001" lat="58.2441861123" lon="7.65865000072">
		<tag k="name" v="Ålgårdstjønn" />
		<tag k="natural" v="water" />
		<tag k="ssr:stedsnr" v="280445" />
	</node>
	<node id="-349000" lat="58.1806333311" lon="7.72375834031">
		<tag k="name" v="Svartetjønn" />
		<tag k="natural" v="water" />
		<tag k="ssr:stedsnr" v="280244" />
	</node>
	<node id="-351044" lat="58.1819944486" lon="7.76840277131">
		<tag k="name" v="Ospedalstjønn" />
		<tag k="natural" v="water" />
		<tag k="ssr:stedsnr" v="160584" />
	</node>
	<node id="-353084" lat="58.1749416709" lon="7.84986667494">
		<tag k="name" v="Gratjønn" />
		<tag k="natural" v="water" />
		<tag k="ssr:stedsnr" v="706996" />
	</node>
	<node id="-353068" lat="58.1789249982" lon="7.83544166948">
		<tag k="name" v="Dalebekken" />
		<tag k="ssr:stedsnr" v="706874" />
		<tag k="waterway" v="stream" />
	</node>
	<node id="-353415" lat="58.174444445" lon="7.73480277309">
		<tag k="name" v="Toruskotstjønn" />
		<tag k="natural" v="water" />
		<tag k="ssr:stedsnr" v="767879" />
	</node>
	<node id="-351010" lat="58.1384472241" lon="7.87165276923">
		<tag k="name" v="Bjortjønn" />
		<tag k="natural" v="water" />
		<tag k="ssr:stedsnr" v="160717" />
	</node>
	<node id="-353055" lat="58.2206861069" lon="7.81672499194">
		<tag k="name" v="Tjønnan" />
		<tag k="natural" v="water" />
		<tag k="ssr:stedsnr" v="706789" />
	</node>
	<node id="-353054" lat="58.1714111073" lon="7.87049723013">
		<tag k="name" v="Grundetjønn" />
		<tag k="natural" v="water" />
		<tag k="ssr:stedsnr" v="706786" />
	</node>
	<node id="-353052" lat="58.161902774" lon="7.8547972206">
		<tag k="name" v="Igletjønn" />
		<tag k="natural" v="water" />
		<tag k="ssr:stedsnr" v="706762" />
	</node>
	<node id="-353621" lat="58.3192333327" lon="7.71467778353">
		<tag k="name" v="Kodetjønn" />
		<tag k="natural" v="water" />
		<tag k="ssr:stedsnr" v="827619" />
	</node>
	<node id="-351000" lat="58.3161611104" lon="7.61380555478">
		<tag k="name" v="Dagekilen" />
		<tag k="natural" v="bay" />
		<tag k="ssr:stedsnr" v="160332" />
	</node>
	<node id="-353007" lat="58.2894861135" lon="7.69204999356">
		<tag k="name" v="Breiva" />
		<tag k="natural" v="water" />
		<tag k="ssr:stedsnr" v="706377" />
		<tag k="water" v="lake" />
	</node>
	<node id="-350994" lat="58.357205557" lon="7.56683889639">
		<tag k="name" v="Eldhusdalsvannet" />
		<tag k="natural" v="water" />
		<tag k="ssr:stedsnr" v="160197" />
		<tag k="water" v="lake" />
	</node>
	<node id="-350969" lat="58.1568527787" lon="7.82300555366">
		<tag k="name" v="Stavbekken" />
		<tag k="ssr:stedsnr" v="159752" />
		<tag k="waterway" v="stream" />
	</node>
	<node id="-350964" lat="58.1410444422" lon="7.79985555888">
		<tag k="name" v="Store Fiskebekk" />
		<tag k="ssr:stedsnr" v="159720" />
		<tag k="waterway" v="stream" />
	</node>
	<node id="-350963" lat="58.1326805512" lon="7.81222500659">
		<tag k="name" v="Indre Kobotjønn" />
		<tag k="natural" v="water" />
		<tag k="ssr:stedsnr" v="159714" />
	</node>
	<node id="-350961" lat="58.1292805523" lon="7.82410556406">
		<tag k="name" v="Tustetjønn" />
		<tag k="natural" v="water" />
		<tag k="ssr:stedsnr" v="159712" />
	</node>
	<node id="-350959" lat="58.1909583344" lon="7.73633055941">
		<tag k="name" v="Amjernstjønn" />
		<tag k="natural" v="water" />
		<tag k="ssr:stedsnr" v="159703" />
	</node>
	<node id="-353006" lat="58.2736250011" lon="7.63600833074">
		<tag k="name" v="Badstutjønn" />
		<tag k="natural" v="water" />
		<tag k="ssr:stedsnr" v="706365" />
	</node>
	<node id="-350951" lat="58.3184277747" lon="7.68172777362">
		<tag k="name" v="Lærdalsbekken" />
		<tag k="ssr:stedsnr" v="159559" />
		<tag k="waterway" v="stream" />
	</node>
	<node id="-350946" lat="58.2398222208" lon="7.64853333202">
		<tag k="name" v="Sauetjønn" />
		<tag k="natural" v="water" />
		<tag k="ssr:stedsnr" v="159493" />
	</node>
	<node id="-350939" lat="58.2233499989" lon="7.69688611275">
		<tag k="name" v="Troåstjønn" />
		<tag k="natural" v="water" />
		<tag k="ssr:stedsnr" v="159449" />
	</node>
	<node id="-352981" lat="58.1552222212" lon="7.77975277563">
		<tag k="name" v="Øygardstjønnan" />
		<tag k="natural" v="water" />
		<tag k="ssr:stedsnr" v="705801" />
	</node>
	<node id="-350928" lat="58.3445555563" lon="7.58436666639">
		<tag k="name" v="Kvernebekken" />
		<tag k="ssr:stedsnr" v="159314" />
		<tag k="waterway" v="stream" />
	</node>
	<node id="-352974" lat="58.1433166698" lon="7.83659166659">
		<tag k="name" v="Plommedalstjønn" />
		<tag k="natural" v="water" />
		<tag k="ssr:stedsnr" v="705733" />
	</node>
	<node id="-350923" lat="58.2842499974" lon="7.59887500418">
		<tag k="name" v="Tvitjønn" />
		<tag k="natural" v="water" />
		<tag k="ssr:stedsnr" v="159265" />
	</node>
	<node id="-352963" lat="58.2399638851" lon="7.67637500168">
		<tag k="name" v="Lonan" />
		<tag k="natural" v="water" />
		<tag k="ssr:stedsnr" v="705572" />
		<tag k="water" v="lake" />
	</node>
	<node id="-350914" lat="58.2686499976" lon="7.65005277792">
		<tag k="name" v="Neset" />
		<tag k="natural" v="cape" />
		<tag k="ssr:stedsnr" v="159660" />
	</node>
	<node id="-350912" lat="58.3302916643" lon="7.63958610338">
		<tag k="name" v="Kilane" />
		<tag k="natural" v="water" />
		<tag k="ssr:stedsnr" v="159633" />
		<tag k="water" v="lake" />
	</node>
	<node id="-352954" lat="58.179252774" lon="7.73001944481">
		<tag k="name" v="Saudalstjønn" />
		<tag k="natural" v="water" />
		<tag k="ssr:stedsnr" v="705333" />
	</node>
	<node id="-350903" lat="58.2363250022" lon="7.84391388463">
		<tag k="name" v="Bevertjønn" />
		<tag k="natural" v="water" />
		<tag k="ssr:stedsnr" v="159056" />
	</node>
	<node id="-350895" lat="58.2939194476" lon="7.60278055688">
		<tag k="alt_name" v="Frigstadfossen" />
		<tag k="name" v="Frikstadfossen" />
		<tag k="natural" v="waterfall" />
		<tag k="ssr:stedsnr" v="121858" />
	</node>
	<node id="-352937" lat="58.2408027781" lon="7.65031110299">
		<tag k="name" v="Djupetjønnbekken" />
		<tag k="ssr:stedsnr" v="705526" />
		<tag k="waterway" v="stream" />
	</node>
	<node id="-350887" lat="58.2662698948" lon="7.68768375672">
		<tag k="alt_name" v="Tvitjønnan" />
		<tag k="name" v="Tvitjørn" />
		<tag k="natural" v="water" />
		<tag k="ssr:stedsnr" v="121207" />
	</node>
	<node id="-350886" lat="58.1520583308" lon="7.77858332823">
		<tag k="alt_name" v="Gåsevann" />
		<tag k="name" v="Gåsevatnet" />
		<tag k="natural" v="water" />
		<tag k="ssr:stedsnr" v="121193" />
	</node>
	<node id="-350885" lat="58.1558250032" lon="7.79760555941">
		<tag k="alt_name" v="Lomtjønn" />
		<tag k="name" v="Lomstjørna" />
		<tag k="natural" v="water" />
		<tag k="ssr:stedsnr" v="121191" />
	</node>
	<node id="-352931" lat="58.2920305587" lon="7.6389166607">
		<tag k="alt_name" v="Store Dyråstjønn" />
		<tag k="name" v="Dyråstjørnane" />
		<tag k="natural" v="water" />
		<tag k="ssr:stedsnr" v="667835" />
	</node>
	<node id="-350882" lat="58.1623222229" lon="7.86574999469">
		<tag k="alt_name" v="Hellersvann" />
		<tag k="name" v="Hellersvatnet" />
		<tag k="natural" v="water" />
		<tag k="ssr:stedsnr" v="121064" />
	</node>
	<node id="-352929" lat="58.3046416696" lon="7.56889167358">
		<tag k="alt_name" v="Folltjønn" />
		<tag k="name" v="Folltjørn" />
		<tag k="natural" v="water" />
		<tag k="ssr:stedsnr" v="667817" />
	</node>
	<node id="-352924" lat="58.2148555555" lon="7.73035000492">
		<tag k="alt_name" v="Stemtjønn" />
		<tag k="name" v="Stemtjørn" />
		<tag k="natural" v="water" />
		<tag k="ssr:stedsnr" v="667685" />
	</node>
	<node id="-352920" lat="58.14124722" lon="7.89184721561">
		<tag k="alt_name" v="Bukksteinsvannet;Bukksteinsvann;Bukkesteinsvannet" />
		<tag k="name" v="Bukksteinsvatnet" />
		<tag k="natural" v="water" />
		<tag k="ssr:stedsnr" v="667212" />
		<tag k="water" v="lake" />
	</node>
	<node id="-352919" lat="58.1447583333" lon="7.79792500057">
		<tag k="alt_name" v="Trobbevann" />
		<tag k="name" v="Trobbevatnet" />
		<tag k="natural" v="water" />
		<tag k="ssr:stedsnr" v="667210" />
		<tag k="water" v="lake" />
	</node>
	<node id="-352917" lat="58.2246722238" lon="7.82316667284">
		<tag k="alt_name" v="Veisevann" />
		<tag k="name" v="Veisevatnet" />
		<tag k="natural" v="water" />
		<tag k="ssr:stedsnr" v="667122" />
	</node>
	<node id="-349629" lat="58.3059083355" lon="7.67985832882">
		<tag k="alt_name" v="Sogna" />
		<tag k="name" v="Songa" />
		<tag k="ssr:stedsnr" v="364875" />
		<tag k="waterway" v="river" />
	</node>
	<node id="-352344" lat="58.1550111096" lon="7.7628333358">
		<tag k="name" v="Sandstø" />
		<tag k="natural" v="bay" />
		<tag k="ssr:stedsnr" v="584771" />
	</node>
	<node id="-352776" lat="58.1764500022" lon="7.84959444959">
		<tag k="name" v="Lille Gratjønn" />
		<tag k="natural" v="water" />
		<tag k="ssr:stedsnr" v="645984" />
	</node>
	<node id="-352775" lat="58.179944446" lon="7.85394722295">
		<tag k="name" v="Moradstjønn" />
		<tag k="natural" v="water" />
		<tag k="ssr:stedsnr" v="645980" />
	</node>
	<node id="-352762" lat="58.174966663" lon="7.7479333363">
		<tag k="name" v="Fiskekilen" />
		<tag k="natural" v="bay" />
		<tag k="ssr:stedsnr" v="645863" />
	</node>
	<node id="-352759" lat="58.1894694448" lon="7.79119167447">
		<tag k="name" v="Øygardsbekken" />
		<tag k="ssr:stedsnr" v="645848" />
		<tag k="waterway" v="stream" />
	</node>
	<node id="-350703" lat="58.1759638903" lon="7.88074166247">
		<tag k="name" v="Hestetangen" />
		<tag k="natural" v="cape" />
		<tag k="ssr:stedsnr" v="99989" />
	</node>
	<node id="-352749" lat="58.1179388933" lon="7.87722499382">
		<tag k="name" v="Smalsund" />
		<tag k="natural" v="strait" />
		<tag k="ssr:stedsnr" v="645766" />
	</node>
	<node id="-352338" lat="58.1611083377" lon="7.7621444428">
		<tag k="name" v="Kleivstø" />
		<tag k="natural" v="bay" />
		<tag k="ssr:stedsnr" v="584748" />
	</node>
	<node id="-352742" lat="58.1647972205" lon="7.85458054794">
		<tag k="name" v="Børustjønn" />
		<tag k="natural" v="water" />
		<tag k="ssr:stedsnr" v="645744" />
	</node>
	<node id="-352741" lat="58.1340944415" lon="7.85469166171">
		<tag k="name" v="Løeneset" />
		<tag k="natural" v="cape" />
		<tag k="ssr:stedsnr" v="645741" />
	</node>
	<node id="-352740" lat="58.1297944462" lon="7.86030277843">
		<tag k="name" v="Rossevannsbekken" />
		<tag k="ssr:stedsnr" v="645740" />
		<tag k="waterway" v="stream" />
	</node>
	<node id="-350688" lat="58.1720361091" lon="7.86617222169">
		<tag k="name" v="Borglitjønn" />
		<tag k="natural" v="water" />
		<tag k="ssr:stedsnr" v="99830" />
	</node>
	<node id="-350687" lat="58.1706527756" lon="7.85498055946">
		<tag k="name" v="Magnusdalstjønna" />
		<tag k="natural" v="water" />
		<tag k="ssr:stedsnr" v="99827" />
	</node>
	<node id="-350686" lat="58.1151083299" lon="7.89920277306">
		<tag k="name" v="Svingertjønn" />
		<tag k="natural" v="water" />
		<tag k="ssr:stedsnr" v="99824" />
	</node>
	<node id="-350684" lat="58.1627333314" lon="7.88022777422">
		<tag k="name" v="Smørneset" />
		<tag k="natural" v="cape" />
		<tag k="ssr:stedsnr" v="99814" />
	</node>
	<node id="-350682" lat="58.1539805538" lon="7.85399166632">
		<tag k="name" v="Madsestjønn" />
		<tag k="natural" v="water" />
		<tag k="ssr:stedsnr" v="99812" />
	</node>
	<node id="-352676" lat="58.1573388882" lon="7.7792027811">
		<tag k="name" v="Skilmyrbekken" />
		<tag k="ssr:stedsnr" v="644774" />
		<tag k="waterway" v="stream" />
	</node>
	<node id="-350677" lat="58.1652333372" lon="7.83753611461">
		<tag k="name" v="Lille Geittjønn" />
		<tag k="natural" v="water" />
		<tag k="ssr:stedsnr" v="99784" />
	</node>
	<node id="-350669" lat="58.1393361076" lon="7.80926389242">
		<tag k="name" v="Torvetjønn" />
		<tag k="natural" v="water" />
		<tag k="ssr:stedsnr" v="99690" />
	</node>
	<node id="-350665" lat="58.330080555" lon="7.71037499414">
		<tag k="name" v="Grindåna" />
		<tag k="ssr:stedsnr" v="99608" />
		<tag k="waterway" v="stream" />
	</node>
	<node id="-350663" lat="58.3353250015" lon="7.72232221958">
		<tag k="name" v="Rundetjønn" />
		<tag k="natural" v="water" />
		<tag k="ssr:stedsnr" v="99605" />
	</node>
	<node id="-350661" lat="58.3339472204" lon="7.63615833539">
		<tag k="name" v="Storeneset" />
		<tag k="natural" v="cape" />
		<tag k="ssr:stedsnr" v="99588" />
	</node>
	<node id="-352707" lat="58.2373083309" lon="7.69631111855">
		<tag k="name" v="Raundalsbekken" />
		<tag k="ssr:stedsnr" v="645449" />
		<tag k="waterway" v="stream" />
	</node>
	<node id="-350658" lat="58.3182348962" lon="7.69947921215">
		<tag k="name" v="Tjønna" />
		<tag k="natural" v="water" />
		<tag k="ssr:stedsnr" v="99577" />
	</node>
	<node id="-352703" lat="58.2315583346" lon="7.65375554752">
		<tag k="name" v="Eikeråstjønn" />
		<tag k="natural" v="water" />
		<tag k="ssr:stedsnr" v="645434" />
	</node>
	<node id="-352693" lat="58.2768972195" lon="7.62401389185">
		<tag k="name" v="Fossan" />
		<tag k="natural" v="waterfall" />
		<tag k="ssr:stedsnr" v="645379" />
	</node>
	<node id="-352690" lat="58.2811583325" lon="7.63809443806">
		<tag k="name" v="Rubetjønnbekken" />
		<tag k="ssr:stedsnr" v="645352" />
		<tag k="waterway" v="stream" />
	</node>
	<node id="-350641" lat="58.2902999985" lon="7.72486944562">
		<tag k="name" v="Knudebekken" />
		<tag k="ssr:stedsnr" v="99429" />
		<tag k="waterway" v="stream" />
	</node>
	<node id="-352687" lat="58.3038999983" lon="7.61612777795">
		<tag k="name" v="Leiusfossen" />
		<tag k="natural" v="waterfall" />
		<tag k="ssr:stedsnr" v="645240" />
	</node>
	<node id="-350635" lat="58.2943472215" lon="7.67185556343">
		<tag k="name" v="Bershambekken" />
		<tag k="ssr:stedsnr" v="99408" />
		<tag k="waterway" v="stream" />
	</node>
	<node id="-350632" lat="58.2871416705" lon="7.65336943588">
		<tag k="name" v="Djupetjønn" />
		<tag k="natural" v="water" />
		<tag k="ssr:stedsnr" v="99399" />
	</node>
	<node id="-350631" lat="58.2842611139" lon="7.66246110671">
		<tag k="name" v="Tjønnan" />
		<tag k="natural" v="water" />
		<tag k="ssr:stedsnr" v="99392" />
	</node>
	<node id="-350628" lat="58.3010972207" lon="7.52962778003">
		<tag k="name" v="Mannflåvann" />
		<tag k="natural" v="water" />
		<tag k="ssr:stedsnr" v="99379" />
		<tag k="water" v="lake" />
	</node>
	<node id="-352675" lat="58.1682305584" lon="7.80764999998">
		<tag k="name" v="Storåstjønn" />
		<tag k="natural" v="water" />
		<tag k="ssr:stedsnr" v="644768" />
	</node>
	<node id="-352673" lat="58.1643388894" lon="7.74907222255">
		<tag k="name" v="Mannodden" />
		<tag k="natural" v="cape" />
		<tag k="ssr:stedsnr" v="644746" />
	</node>
	<node id="-352668" lat="58.1946694419" lon="7.76221389172">
		<tag k="name" v="Buråsodden" />
		<tag k="natural" v="cape" />
		<tag k="ssr:stedsnr" v="644710" />
	</node>
	<node id="-352667" lat="58.1419861148" lon="7.83435277181">
		<tag k="name" v="Kleivtjønn" />
		<tag k="natural" v="water" />
		<tag k="ssr:stedsnr" v="644704" />
	</node>
	<node id="-352665" lat="58.2008722181" lon="7.7882055612">
		<tag k="name" v="Stokkåna" />
		<tag k="ssr:stedsnr" v="644685" />
		<tag k="waterway" v="river" />
	</node>
	<node id="-350614" lat="58.282994447" lon="7.58851389537">
		<tag k="name" v="Esperåstjønnan" />
		<tag k="natural" v="water" />
		<tag k="ssr:stedsnr" v="99244" />
	</node>
	<node id="-350958" lat="58.2406194404" lon="7.69734721677">
		<tag k="name" v="Sagebekken" />
		<tag k="ssr:stedsnr" v="160421" />
		<tag k="waterway" v="stream" />
	</node>
	<node id="-352658" lat="58.2709916636" lon="7.65032222039">
		<tag k="name" v="Svingtjønn" />
		<tag k="natural" v="water" />
		<tag k="ssr:stedsnr" v="644646" />
	</node>
	<node id="-352655" lat="58.32987778" lon="7.70364167178">
		<tag k="name" v="Fiskebekken" />
		<tag k="ssr:stedsnr" v="644627" />
		<tag k="waterway" v="stream" />
	</node>
	<node id="-352654" lat="58.3294111134" lon="7.62648610529">
		<tag k="name" v="Kvellandstjønna" />
		<tag k="natural" v="water" />
		<tag k="ssr:stedsnr" v="644624" />
	</node>
	<node id="-350604" lat="58.260347218" lon="7.59514722334">
		<tag k="name" v="Tvitjønnan" />
		<tag k="natural" v="water" />
		<tag k="ssr:stedsnr" v="99159" />
	</node>
	<node id="-352649" lat="58.3043111134" lon="7.64197499504">
		<tag k="name" v="Djupåna" />
		<tag k="ssr:stedsnr" v="644597" />
		<tag k="waterway" v="river" />
	</node>
	<node id="-352646" lat="58.1686277808" lon="7.75203055135">
		<tag k="name" v="Neset" />
		<tag k="natural" v="cape" />
		<tag k="ssr:stedsnr" v="644579" />
	</node>
	<node id="-352642" lat="58.2458527787" lon="7.65423055733">
		<tag k="name" v="Sveinsåstjønn" />
		<tag k="natural" v="water" />
		<tag k="ssr:stedsnr" v="644498" />
	</node>
	<node id="-350593" lat="58.2094722239" lon="7.81921666075">
		<tag k="name" v="Fidjebekken" />
		<tag k="ssr:stedsnr" v="98644" />
		<tag k="waterway" v="stream" />
	</node>
	<node id="-350585" lat="58.2426527804" lon="7.64144722803">
		<tag k="name" v="Geitetjønn" />
		<tag k="natural" v="water" />
		<tag k="ssr:stedsnr" v="98484" />
	</node>
	<node id="-352632" lat="58.334552775" lon="7.57932499709">
		<tag k="name" v="Gramsbekken" />
		<tag k="ssr:stedsnr" v="644333" />
		<tag k="waterway" v="stream" />
	</node>
	<node id="-350582" lat="58.3454586815" lon="7.61900393602">
		<tag k="name" v="Høverslandstjønn" />
		<tag k="natural" v="water" />
		<tag k="ssr:stedsnr" v="98281" />
	</node>
	<node id="-352619" lat="58.2467250038" lon="7.61086388932">
		<tag k="name" v="Kirketjønn" />
		<tag k="natural" v="water" />
		<tag k="ssr:stedsnr" v="644193" />
	</node>
	<node id="-350570" lat="58.3486472206" lon="7.61451111759">
		<tag k="name" v="Honnemyrstean" />
		<tag k="place" v="locality" />
		<tag k="ssr:stedsnr" v="61800" />
	</node>
	<node id="-352617" lat="58.2509499973" lon="7.6205027848">
		<tag k="name" v="Kvistlitangen" />
		<tag k="natural" v="cape" />
		<tag k="ssr:stedsnr" v="644187" />
	</node>
	<node id="-350568" lat="58.1927444417" lon="7.75731944094">
		<tag k="alt_name" v="Birkelandsvann" />
		<tag k="loc_name" v="Birkelandsvannet" />
		<tag k="name" v="Birkelandsvatnet" />
		<tag k="natural" v="water" />
		<tag k="ssr:stedsnr" v="61728" />
		<tag k="water" v="lake" />
	</node>
	<node id="-350565" lat="58.177327774" lon="7.81298333995">
		<tag k="name" v="Songdalselva" />
		<tag k="ssr:stedsnr" v="61022" />
		<tag k="waterway" v="river" />
	</node>
	<node id="-352581" lat="58.2503722198" lon="7.64862499866">
		<tag k="alt_name" v="Godmyrheitjønn" />
		<tag k="name" v="Stemman" />
		<tag k="natural" v="water" />
		<tag k="ssr:stedsnr" v="606205" />
	</node>
	<node id="-352578" lat="58.1562416702" lon="7.89281110536">
		<tag k="alt_name" v="Kvislevann" />
		<tag k="name" v="Kvislevatnet" />
		<tag k="natural" v="water" />
		<tag k="ssr:stedsnr" v="606190" />
	</node>
	<node id="-353962" lat="58.1711166703" lon="7.76288056373">
		<tag k="name" v="Hasseldalsbekken" />
		<tag k="ssr:stedsnr" v="948805" />
		<tag k="waterway" v="stream" />
	</node>
	<node id="-350326" lat="58.1624333306" lon="7.76587221383">
		<tag k="name" v="Flegevollsbekken" />
		<tag k="ssr:stedsnr" v="38764" />
		<tag k="waterway" v="stream" />
	</node>
	<node id="-350343" lat="58.2397944419" lon="7.85068611587">
		<tag k="name" v="Viertjønn" />
		<tag k="natural" v="water" />
		<tag k="ssr:stedsnr" v="38991" />
	</node>
	<node id="-350339" lat="58.2423166705" lon="7.81391943666">
		<tag k="name" v="Paddetjønn" />
		<tag k="natural" v="water" />
		<tag k="ssr:stedsnr" v="38869" />
	</node>
	<node id="-350328" lat="58.15920278" lon="7.82682777548">
		<tag k="name" v="Spjosneset" />
		<tag k="natural" v="cape" />
		<tag k="ssr:stedsnr" v="38783" />
	</node>
	<node id="-352374" lat="58.1943277741" lon="7.84713889031">
		<tag k="name" v="Igletjønn" />
		<tag k="natural" v="water" />
		<tag k="ssr:stedsnr" v="584998" />
	</node>
	<node id="-352373" lat="58.2024416707" lon="7.84756111436">
		<tag k="name" v="Hågenvann" />
		<tag k="natural" v="water" />
		<tag k="ssr:stedsnr" v="584997" />
		<tag k="water" v="lake" />
	</node>
	<node id="-350321" lat="58.1408805595" lon="7.76647777838">
		<tag k="name" v="Bjortjønnbekken" />
		<tag k="ssr:stedsnr" v="38744" />
		<tag k="waterway" v="stream" />
	</node>
	<node id="-350318" lat="58.207241663" lon="7.77323055541">
		<tag k="name" v="Mandalsfossen" />
		<tag k="natural" v="waterfall" />
		<tag k="ssr:stedsnr" v="38709" />
	</node>
	<node id="-352363" lat="58.1902805574" lon="7.80071945186">
		<tag k="name" v="Lohølen" />
		<tag k="place" v="locality" />
		<tag k="ssr:stedsnr" v="584899" />
	</node>
	<node id="-350314" lat="58.1861722194" lon="7.7574833342">
		<tag k="name" v="Bak" />
		<tag k="natural" v="bay" />
		<tag k="ssr:stedsnr" v="38661" />
	</node>
	<node id="-352356" lat="58.1257111101" lon="7.88026944804">
		<tag k="name" v="Bukketjønn" />
		<tag k="natural" v="water" />
		<tag k="ssr:stedsnr" v="584822" />
	</node>
	<node id="-352355" lat="58.1261083336" lon="7.89128055817">
		<tag k="name" v="Låbergtjønn" />
		<tag k="natural" v="water" />
		<tag k="ssr:stedsnr" v="584820" />
	</node>
	<node id="-352353" lat="58.1286749989" lon="7.8690388936">
		<tag k="name" v="Heftetjønn" />
		<tag k="natural" v="water" />
		<tag k="ssr:stedsnr" v="584815" />
	</node>
	<node id="-352348" lat="58.1566166685" lon="7.85747499649">
		<tag k="name" v="Hesttjønn" />
		<tag k="natural" v="water" />
		<tag k="ssr:stedsnr" v="584789" />
	</node>
	<node id="-350296" lat="58.2353166646" lon="7.69167777318">
		<tag k="name" v="Raundalstjønn" />
		<tag k="natural" v="water" />
		<tag k="ssr:stedsnr" v="38490" />
	</node>
	<node id="-352343" lat="58.1502861091" lon="7.76342778602">
		<tag k="name" v="Sauvika" />
		<tag k="natural" v="bay" />
		<tag k="ssr:stedsnr" v="584766" />
	</node>
	<node id="-350290" lat="58.2872499977" lon="7.70016389033">
		<tag k="name" v="Samkom" />
		<tag k="ssr:stedsnr" v="38432" />
		<tag k="waterway" v="river" />
	</node>
	<node id="-350282" lat="58.305888891" lon="7.56342778617">
		<tag k="name" v="Fløystølbekken" />
		<tag k="ssr:stedsnr" v="38349" />
		<tag k="waterway" v="stream" />
	</node>
	<node id="-350280" lat="58.3131194453" lon="7.5551305559">
		<tag k="name" v="Trettebekken" />
		<tag k="ssr:stedsnr" v="38340" />
		<tag k="waterway" v="stream" />
	</node>
	<node id="-350276" lat="58.254661107" lon="7.64071666521">
		<tag k="name" v="Meåna" />
		<tag k="ssr:stedsnr" v="38313" />
		<tag k="waterway" v="river" />
	</node>
	<node id="-352321" lat="58.3190333376" lon="7.70751110317">
		<tag k="name" v="Dåsvann" />
		<tag k="natural" v="water" />
		<tag k="ssr:stedsnr" v="584578" />
		<tag k="water" v="lake" />
	</node>
	<node id="-350265" lat="58.29332222" lon="7.59938888699">
		<tag k="name" v="Djupåna" />
		<tag k="ssr:stedsnr" v="38232" />
		<tag k="waterway" v="stream" />
	</node>
	<node id="-350260" lat="58.2435805582" lon="7.62120555108">
		<tag k="name" v="Kvernhushølen" />
		<tag k="place" v="locality" />
		<tag k="ssr:stedsnr" v="38208" />
	</node>
	<node id="-350257" lat="58.33293611" lon="7.60496111801">
		<tag k="name" v="Strengebekken" />
		<tag k="ssr:stedsnr" v="38182" />
		<tag k="waterway" v="stream" />
	</node>
	<node id="-352300" lat="58.2210861067" lon="7.70995000372">
		<tag k="name" v="Dyblan" />
		<tag k="natural" v="water" />
		<tag k="ssr:stedsnr" v="584420" />
		<tag k="water" v="pond" />
	</node>
	<node id="-352293" lat="58.3237472256" lon="7.60839999186">
		<tag k="name" v="Lauvåstjønn" />
		<tag k="natural" v="water" />
		<tag k="ssr:stedsnr" v="584333" />
	</node>
	<node id="-350240" lat="58.2732444421" lon="7.57361944292">
		<tag k="alt_name" v="Pyttetjønn" />
		<tag k="name" v="Pyttetjørn" />
		<tag k="natural" v="water" />
		<tag k="ssr:stedsnr" v="818" />
	</node>
	<node id="-350237" lat="58.2314527764" lon="7.68598611662">
		<tag k="alt_name" v="Småtjønnan" />
		<tag k="name" v="Småtjørna" />
		<tag k="natural" v="water" />
		<tag k="ssr:stedsnr" v="729" />
	</node>
	<node id="-352282" lat="58.2178500039" lon="7.84726665949">
		<tag k="name" v="Gjillaren" />
		<tag k="natural" v="water" />
		<tag k="ssr:stedsnr" v="584204" />
	</node>
	<node id="-350229" lat="58.1871055519" lon="7.73759721531">
		<tag k="alt_name" v="Tvitjønn" />
		<tag k="name" v="Tvitjørn" />
		<tag k="natural" v="water" />
		<tag k="ssr:stedsnr" v="31" />
	</node>
	<node id="-350227" lat="58.2916916661" lon="7.58255555415">
		<tag k="alt_name" v="Finnsåna" />
		<tag k="name" v="Finså" />
		<tag k="ssr:stedsnr" v="750" />
		<tag k="waterway" v="river" />
	</node>
	<node id="-350226" lat="58.1531894145" lon="7.74915862184">
		<tag k="name" v="Kimestadstøa" />
		<tag k="natural" v="bay" />
		<tag k="ssr:stedsnr" v="567989" />
	</node>
	<node id="-350224" lat="58.3167260281" lon="7.67372534976">
		<tag k="alt_name" v="Songevatnet" />
		<tag k="name" v="Sognevann" />
		<tag k="natural" v="water" />
		<tag k="ssr:stedsnr" v="425789" />
		<tag k="water" v="lake" />
	</node>
	<node id="-352260" lat="58.1944388899" lon="7.7668416605">
		<tag k="name" v="Paradis" />
		<tag k="natural" v="bay" />
		<tag k="ssr:stedsnr" v="583668" />
	</node>
</osm>
