<?xml version="1.0" encoding="UTF-8"?>
<osm version="0.6" generator="osmapis">
	<node id="2354929583" lat="63.713328" lon="10.604897" version="2" timestamp="2018-05-02T17:04:05Z" changeset="58620907" uid="3497659" user="NKA">
		<tag k="name" v="Åsen" />
		<tag k="place" v="farm" />
		<tag k="source" v="Kartverket" />
		<tag k="ssr:stedsnr" v="255482" />
	</node>
	<node id="7285882856" lat="63.549723" lon="10.2014" version="2" timestamp="2022-01-26T07:15:22Z" changeset="116611310" uid="3497659" user="NKA">
		<tag k="junction" v="yes" />
		<tag k="name" v="Vollakrysset" />
		<tag k="ssr:stedsnr" v="508090" />
	</node>
	<node id="7285880338" lat="63.5769331" lon="9.9350739" version="2" timestamp="2022-01-24T21:00:15Z" changeset="116559033" uid="3497659" user="NKA" />
	<node id="7285880339" lat="63.5777703" lon="9.9353917" version="2" timestamp="2022-01-24T21:00:15Z" changeset="116559033" uid="3497659" user="NKA" />
	<node id="7285880336" lat="63.59331" lon="9.919193" version="1" timestamp="2020-03-11T19:47:16Z" changeset="82077107" uid="3497659" user="NKA" />
	<node id="7285880337" lat="63.592919" lon="9.919689" version="1" timestamp="2020-03-11T19:47:16Z" changeset="82077107" uid="3497659" user="NKA" />
	<node id="7285813475" lat="63.641786" lon="9.859427" version="1" timestamp="2020-03-11T19:46:57Z" changeset="82077094" uid="3497659" user="NKA" />
	<node id="7285813476" lat="63.641755" lon="9.859356" version="1" timestamp="2020-03-11T19:46:57Z" changeset="82077094" uid="3497659" user="NKA" />
	<node id="7285879734" lat="63.641899" lon="9.8596379" version="2" timestamp="2022-01-24T21:00:15Z" changeset="116559033" uid="3497659" user="NKA" />
	<node id="7285880334" lat="63.641738" lon="9.859312" version="1" timestamp="2020-03-11T19:47:16Z" changeset="82077107" uid="3497659" user="NKA" />
	<node id="7285883081" lat="63.645394" lon="9.863705" version="1" timestamp="2020-03-11T19:47:21Z" changeset="82077110" uid="3497659" user="NKA" />
	<node id="7285884265" lat="63.645383" lon="9.863436" version="1" timestamp="2020-03-11T19:47:21Z" changeset="82077110" uid="3497659" user="NKA" />
	<node id="7285814775" lat="63.622345" lon="10.041845" version="1" timestamp="2020-03-11T19:46:57Z" changeset="82077094" uid="3497659" user="NKA" />
	<node id="7285814776" lat="63.621963" lon="10.041523" version="1" timestamp="2020-03-11T19:46:57Z" changeset="82077094" uid="3497659" user="NKA" />
	<node id="7285882985" lat="63.712231" lon="9.999228" version="1" timestamp="2020-03-11T19:47:21Z" changeset="82077110" uid="3497659" user="NKA" />
	<node id="7285883021" lat="63.712128" lon="9.998737" version="1" timestamp="2020-03-11T19:47:21Z" changeset="82077110" uid="3497659" user="NKA" />
	<node id="7285879199" lat="63.641136" lon="10.095047" version="1" timestamp="2020-03-11T19:47:16Z" changeset="82077107" uid="3497659" user="NKA" />
	<node id="7285879201" lat="63.6408262" lon="10.0955539" version="2" timestamp="2022-01-24T21:00:15Z" changeset="116559033" uid="3497659" user="NKA" />
	<node id="7285879197" lat="63.65693" lon="10.160436" version="1" timestamp="2020-03-11T19:47:16Z" changeset="82077107" uid="3497659" user="NKA" />
	<node id="7285879200" lat="63.656644" lon="10.160806" version="1" timestamp="2020-03-11T19:47:16Z" changeset="82077107" uid="3497659" user="NKA" />
	<node id="2354947938" lat="63.6513553" lon="10.2756716" version="3" timestamp="2021-06-17T18:46:03Z" changeset="106547402" uid="3497659" user="NKA" />
	<node id="2354947939" lat="63.6514214" lon="10.2757398" version="3" timestamp="2021-06-17T18:46:03Z" changeset="106547402" uid="3497659" user="NKA" />
	<node id="2354947940" lat="63.6513377" lon="10.2756788" version="3" timestamp="2021-06-17T18:46:03Z" changeset="106547402" uid="3497659" user="NKA" />
	<node id="2354948251" lat="63.6513627" lon="10.2757637" version="2" timestamp="2021-06-17T18:46:03Z" changeset="106547402" uid="3497659" user="NKA" />
	<node id="8842759340" lat="63.6514454" lon="10.2756814" version="1" timestamp="2021-06-17T18:45:13Z" changeset="106547359" uid="3497659" user="NKA" />
	<node id="8842759341" lat="63.6514176" lon="10.2756927" version="1" timestamp="2021-06-17T18:45:13Z" changeset="106547359" uid="3497659" user="NKA" />
	<node id="8842759342" lat="63.6513274" lon="10.2755502" version="1" timestamp="2021-06-17T18:45:13Z" changeset="106547359" uid="3497659" user="NKA" />
	<node id="8842759343" lat="63.6514315" lon="10.2755079" version="1" timestamp="2021-06-17T18:45:13Z" changeset="106547359" uid="3497659" user="NKA" />
	<node id="7285879410" lat="63.754084" lon="10.129622" version="1" timestamp="2020-03-11T19:47:16Z" changeset="82077107" uid="3497659" user="NKA" />
	<node id="7285879411" lat="63.754262" lon="10.12923" version="1" timestamp="2020-03-11T19:47:16Z" changeset="82077107" uid="3497659" user="NKA" />
	<node id="7285812981" lat="63.761048" lon="10.161005" version="1" timestamp="2020-03-11T19:46:57Z" changeset="82077094" uid="3497659" user="NKA" />
	<node id="7285884116" lat="63.760857" lon="10.160723" version="1" timestamp="2020-03-11T19:47:21Z" changeset="82077110" uid="3497659" user="NKA" />
	<node id="7285884117" lat="63.761238" lon="10.161288" version="1" timestamp="2020-03-11T19:47:21Z" changeset="82077110" uid="3497659" user="NKA" />
	<node id="7285880112" lat="63.68233" lon="10.249365" version="1" timestamp="2020-03-11T19:47:16Z" changeset="82077107" uid="3497659" user="NKA" />
	<node id="7285880114" lat="63.68255" lon="10.249764" version="1" timestamp="2020-03-11T19:47:16Z" changeset="82077107" uid="3497659" user="NKA" />
	<node id="7285885740" lat="63.696184" lon="10.276566" version="1" timestamp="2020-03-11T19:47:21Z" changeset="82077110" uid="3497659" user="NKA" />
	<node id="7285885741" lat="63.695983" lon="10.277005" version="1" timestamp="2020-03-11T19:47:21Z" changeset="82077110" uid="3497659" user="NKA" />
	<node id="7285880111" lat="63.711278" lon="10.316867" version="1" timestamp="2020-03-11T19:47:16Z" changeset="82077107" uid="3497659" user="NKA" />
	<node id="7285880113" lat="63.7111283" lon="10.316614" version="2" timestamp="2022-01-24T21:00:15Z" changeset="116559033" uid="3497659" user="NKA" />
	<node id="7285883290" lat="63.730924" lon="10.620841" version="1" timestamp="2020-03-11T19:47:21Z" changeset="82077110" uid="3497659" user="NKA" />
	<node id="7285883291" lat="63.730958" lon="10.620713" version="1" timestamp="2020-03-11T19:47:21Z" changeset="82077110" uid="3497659" user="NKA" />
	<node id="7285822166" lat="63.8033475" lon="10.2268778" version="2" timestamp="2022-01-24T21:00:15Z" changeset="116559033" uid="3497659" user="NKA" />
	<node id="7285884910" lat="63.803265" lon="10.226965" version="1" timestamp="2020-03-11T19:47:21Z" changeset="82077110" uid="3497659" user="NKA" />
	<node id="7285884911" lat="63.803751" lon="10.226597" version="1" timestamp="2020-03-11T19:47:21Z" changeset="82077110" uid="3497659" user="NKA" />
	<node id="9445777761" lat="63.8034175" lon="10.2268231" version="1" timestamp="2022-01-24T21:00:15Z" changeset="116559033" uid="3497659" user="NKA" />
	<node id="2354943034" lat="63.789273" lon="10.6223812" version="2" timestamp="2013-06-21T16:32:00Z" changeset="16646222" uid="1556391" user="relet" />
	<node id="2354943035" lat="63.790543" lon="10.63252" version="2" timestamp="2013-06-21T16:32:00Z" changeset="16646222" uid="1556391" user="relet" />
	<way id="4975428" version="6" timestamp="2022-01-24T21:00:15Z" changeset="116559033" uid="3497659" user="NKA">
		<tag k="bridge" v="yes" />
		<tag k="highway" v="primary" />
		<tag k="layer" v="1" />
		<tag k="maxspeed" v="70" />
		<tag k="name" v="Sundsbrua" />
		<tag k="ref" v="717" />
		<tag k="ssr:stedsnr" v="770231" />
		<tag k="surface" v="asphalt" />
		<nd ref="7285880339" />
		<nd ref="7285880338" />
	</way>
	<way id="71764913" version="7" timestamp="2022-01-24T21:00:15Z" changeset="116559033" uid="3497659" user="NKA">
		<tag k="bridge" v="yes" />
		<tag k="class:bicycle:roadcycling" v="2" />
		<tag k="class:bicycle:touring" v="1" />
		<tag k="highway" v="primary" />
		<tag k="layer" v="1" />
		<tag k="maxspeed" v="80" />
		<tag k="name" v="Stobrua" />
		<tag k="ref" v="720" />
		<tag k="ssr:stedsnr" v="103700" />
		<tag k="surface" v="asphalt" />
		<nd ref="7285880112" />
		<nd ref="7285880114" />
	</way>
	<way id="106758277" version="5" timestamp="2022-01-24T21:00:15Z" changeset="116559033" uid="3497659" user="NKA">
		<tag k="bridge" v="yes" />
		<tag k="bridge:description" v="Oselv" />
		<tag k="highway" v="secondary" />
		<tag k="layer" v="1" />
		<tag k="maxspeed" v="50" />
		<tag k="name" v="Oselvbrua" />
		<tag k="ref" v="6362" />
		<tag k="ssr:stedsnr" v="832977" />
		<tag k="surface" v="asphalt" />
		<nd ref="7285879410" />
		<nd ref="7285879411" />
	</way>
	<way id="158027135" version="6" timestamp="2022-01-24T21:00:15Z" changeset="116559033" uid="3497659" user="NKA">
		<tag k="bridge" v="yes" />
		<tag k="class:bicycle:roadcycling" v="2" />
		<tag k="class:bicycle:touring" v="1" />
		<tag k="highway" v="primary" />
		<tag k="layer" v="1" />
		<tag k="maxspeed" v="80" />
		<tag k="name" v="Fossbrua" />
		<tag k="ref" v="720" />
		<tag k="ssr:stedsnr" v="524760" />
		<tag k="surface" v="asphalt" />
		<nd ref="7285814776" />
		<nd ref="7285814775" />
	</way>
	<way id="158027258" version="5" timestamp="2022-01-24T21:00:15Z" changeset="116559033" uid="3497659" user="NKA">
		<tag k="bridge" v="yes" />
		<tag k="highway" v="secondary" />
		<tag k="lanes" v="1" />
		<tag k="layer" v="1" />
		<tag k="maxspeed" v="80" />
		<tag k="name" v="Seterbrua" />
		<tag k="ref" v="6374" />
		<tag k="ssr:stedsnr" v="159809" />
		<tag k="surface" v="gravel" />
		<nd ref="7285879201" />
		<nd ref="7285879199" />
	</way>
	<way id="158027564" version="7" timestamp="2022-01-24T21:00:15Z" changeset="116559033" uid="3497659" user="NKA">
		<tag k="bridge" v="yes" />
		<tag k="highway" v="secondary" />
		<tag k="layer" v="1" />
		<tag k="maxspeed" v="80" />
		<tag k="maxweight" v="40" />
		<tag k="name" v="Einbakkbrua" />
		<tag k="ref" v="6374" />
		<tag k="ssr:stedsnr" v="649980" />
		<tag k="surface" v="asphalt" />
		<nd ref="7285879197" />
		<nd ref="7285879200" />
	</way>
	<way id="179971404" version="4" timestamp="2022-01-24T21:00:15Z" changeset="116559033" uid="3497659" user="NKA">
		<tag k="bridge" v="yes" />
		<tag k="highway" v="primary" />
		<tag k="layer" v="1" />
		<tag k="maxspeed" v="80" />
		<tag k="name" v="Fosshaugbrua" />
		<tag k="ref" v="718" />
		<tag k="ssr:stedsnr" v="463168" />
		<tag k="surface" v="asphalt" />
		<nd ref="7285884116" />
		<nd ref="7285812981" />
		<nd ref="7285884117" />
	</way>
	<way id="179980335" version="5" timestamp="2022-01-24T21:00:15Z" changeset="116559033" uid="3497659" user="NKA">
		<tag k="bridge" v="yes" />
		<tag k="highway" v="primary" />
		<tag k="layer" v="1" />
		<tag k="maxspeed" v="80" />
		<tag k="name" v="Krinsvassbrua" />
		<tag k="ref" v="715" />
		<tag k="ssr:stedsnr" v="584986" />
		<tag k="surface" v="asphalt" />
		<tag k="toll" v="yes" />
		<nd ref="7285884910" />
		<nd ref="7285822166" />
		<nd ref="9445777761" />
		<nd ref="7285884911" />
	</way>
	<way id="226739835" version="2" timestamp="2018-05-02T17:09:23Z" changeset="58620907" uid="3497659" user="NKA">
		<tag k="name" v="Seterdalen" />
		<tag k="natural" v="valley" />
		<tag k="source" v="Kartverket" />
		<tag k="ssr:stedsnr" v="471442" />
		<nd ref="2354943034" />
		<nd ref="2354943035" />
	</way>
	<way id="226740517" version="5" timestamp="2021-06-17T18:46:03Z" changeset="106547402" uid="3497659" user="NKA">
		<tag k="building" v="cabin" />
		<tag k="name" v="Haugen" />
		<tag k="ref:bygningsnr" v="185529215" />
		<tag k="ssr:stedsnr" v="959300" />
		<nd ref="8842759343" />
		<nd ref="8842759342" />
		<nd ref="2354947940" />
		<nd ref="2354947938" />
		<nd ref="2354948251" />
		<nd ref="2354947939" />
		<nd ref="8842759341" />
		<nd ref="8842759340" />
		<nd ref="8842759343" />
	</way>
	<way id="425624215" version="4" timestamp="2022-01-24T21:00:15Z" changeset="116559033" uid="3497659" user="NKA">
		<tag k="bridge" v="yes" />
		<tag k="class:bicycle:roadcycling" v="2" />
		<tag k="class:bicycle:touring" v="1" />
		<tag k="highway" v="primary" />
		<tag k="layer" v="1" />
		<tag k="maxspeed" v="80" />
		<tag k="name" v="Alsetbrua" />
		<tag k="ref" v="720" />
		<tag k="ssr:stedsnr" v="99984" />
		<tag k="surface" v="asphalt" />
		<nd ref="7285880113" />
		<nd ref="7285880111" />
	</way>
	<way id="579789566" version="3" timestamp="2022-01-24T21:00:15Z" changeset="116559033" uid="3497659" user="NKA">
		<tag k="bridge" v="yes" />
		<tag k="highway" v="unclassified" />
		<tag k="layer" v="1" />
		<tag k="name" v="Ålvassbrua" />
		<tag k="ssr:stedsnr" v="958268" />
		<nd ref="7285883290" />
		<nd ref="7285883291" />
	</way>
	<way id="780295568" version="2" timestamp="2022-01-24T21:00:15Z" changeset="116559033" uid="3497659" user="NKA">
		<tag k="bridge" v="yes" />
		<tag k="highway" v="primary" />
		<tag k="layer" v="1" />
		<tag k="maxspeed" v="80" />
		<tag k="name" v="Dalabrua" />
		<tag k="ref" v="718" />
		<tag k="ssr:stedsnr" v="705983" />
		<tag k="surface" v="asphalt" />
		<nd ref="7285883021" />
		<nd ref="7285882985" />
	</way>
	<way id="780295583" version="2" timestamp="2022-01-24T21:00:15Z" changeset="116559033" uid="3497659" user="NKA">
		<tag k="bridge" v="yes" />
		<tag k="highway" v="primary" />
		<tag k="layer" v="1" />
		<tag k="maxspeed" v="80" />
		<tag k="name" v="Hårbergbrua" />
		<tag k="ref" v="718" />
		<tag k="ssr:stedsnr" v="584984" />
		<tag k="surface" v="asphalt" />
		<nd ref="7285880334" />
		<nd ref="7285813476" />
		<nd ref="7285813475" />
		<nd ref="7285879734" />
	</way>
	<way id="780295596" version="2" timestamp="2022-01-24T21:00:15Z" changeset="116559033" uid="3497659" user="NKA">
		<tag k="bridge" v="yes" />
		<tag k="bridge:structure" v="truss" />
		<tag k="highway" v="primary" />
		<tag k="layer" v="1" />
		<tag k="maxheight" v="4.2" />
		<tag k="maxspeed" v="60" />
		<tag k="name" v="Skaugabrua" />
		<tag k="ref" v="718" />
		<tag k="ssr:stedsnr" v="38982" />
		<tag k="surface" v="asphalt" />
		<nd ref="7285880337" />
		<nd ref="7285880336" />
	</way>
	<way id="780297051" version="2" timestamp="2022-01-24T21:00:15Z" changeset="116559033" uid="3497659" user="NKA">
		<tag k="bridge" v="yes" />
		<tag k="highway" v="residential" />
		<tag k="layer" v="1" />
		<tag k="maxspeed" v="80" />
		<tag k="name" v="Hjørundhølen bru" />
		<tag k="ssr:stedsnr" v="345608" />
		<nd ref="7285885741" />
		<nd ref="7285885740" />
	</way>
	<way id="780297055" version="2" timestamp="2022-01-24T21:00:15Z" changeset="116559033" uid="3497659" user="NKA">
		<tag k="bridge" v="yes" />
		<tag k="highway" v="residential" />
		<tag k="layer" v="1" />
		<tag k="maxspeed" v="30" />
		<tag k="maxweight" v="32" />
		<tag k="name" v="Steinbrua" />
		<tag k="ssr:stedsnr" v="923848" />
		<nd ref="7285884265" />
		<nd ref="7285883081" />
	</way>
</osm>
