<?xml version="1.0" encoding="UTF-8"?>
<<<<<<< HEAD
<osm version="0.6" generator="osmapis">
	<node lat="68.73705555585917" lon="17.48404722415674" id="-37989">
		<tag k="highway" v="path" />
		<tag k="name" v="Grønnfjellveien" />
		<tag k="ssr:stedsnr" v="475260" />
	</node>
	<node lat="68.81394721977905" lon="17.41706944620654" id="-38021">
=======
<osm generator="osmapis" version="0.6">
	<node id="-856384" lat="68.6566500003" lon="17.6680944516">
		<tag k="highway" v="path" />
		<tag k="name" v="Kollveien" />
		<tag k="ssr:stedsnr" v="900353" />
	</node>
	<node id="-856389" lat="68.707619444" lon="17.5082083255">
		<tag k="highway" v="path" />
		<tag k="name" v="Fjellveien" />
		<tag k="ssr:stedsnr" v="900461" />
	</node>
	<node id="-856539" lat="68.7714249971" lon="17.2984722097">
		<tag k="highway" v="path" />
		<tag k="name" v="Skarveien" />
		<tag k="ssr:stedsnr" v="172445" />
	</node>
	<node id="-856282" lat="68.6347305546" lon="17.7387666719">
		<tag k="highway" v="path" />
		<tag k="name" v="Saunesveien" />
		<tag k="ssr:stedsnr" v="718376" />
	</node>
	<node id="-856371" lat="68.6503916662" lon="17.545050004">
		<tag k="highway" v="path" />
		<tag k="name" v="Skogveien" />
		<tag k="ssr:stedsnr" v="840315" />
	</node>
	<node id="-856749" lat="68.6520000036" lon="17.7177222126">
		<tag k="highway" v="path" />
		<tag k="name" v="Hulderveien" />
		<tag k="ssr:stedsnr" v="779386" />
	</node>
	<node id="-856301" lat="68.6618250041" lon="17.6632388923">
		<tag k="highway" v="path" />
		<tag k="name" v="Kollveien" />
		<tag k="ssr:stedsnr" v="657322" />
	</node>
	<node id="-856266" lat="68.8139472198" lon="17.4170694462">
>>>>>>> e1d4bc35ff8a6074a6f2e91616a996b547c36f15
		<tag k="fixme" v="verify maritime location" />
		<tag k="mooring" v="yes" />
		<tag k="name" v="Støen" />
		<tag k="place" v="locality" />
		<tag k="ssr:stedsnr" v="535771" />
	</node>
<<<<<<< HEAD
	<node lat="68.63473055460756" lon="17.7387666718895" id="-38066">
		<tag k="highway" v="path" />
		<tag k="name" v="Saunesveien" />
		<tag k="ssr:stedsnr" v="718376" />
	</node>
	<node lat="68.6654388865629" lon="17.83543331928617" id="-38076">
=======
	<node id="-856328" lat="68.6654388866" lon="17.8354333193">
>>>>>>> e1d4bc35ff8a6074a6f2e91616a996b547c36f15
		<tag k="junction" v="yes" />
		<tag k="name" v="Bukkemyrskjæringen" />
		<tag k="place" v="locality" />
		<tag k="ssr:stedsnr" v="900383" />
	</node>
<<<<<<< HEAD
	<node lat="68.70761944398414" lon="17.508208325523714" id="-38081">
=======
	<node id="-856167" lat="68.7370555559" lon="17.4840472242">
>>>>>>> e1d4bc35ff8a6074a6f2e91616a996b547c36f15
		<tag k="highway" v="path" />
		<tag k="name" v="Fjellveien" />
		<tag k="ssr:stedsnr" v="900461" />
	</node>
<<<<<<< HEAD
	<node lat="68.65039166617856" lon="17.545050004012015" id="-38109">
=======
	<node id="-856485" lat="68.7368416643" lon="17.4894888768">
>>>>>>> e1d4bc35ff8a6074a6f2e91616a996b547c36f15
		<tag k="highway" v="path" />
		<tag k="name" v="Skogveien" />
		<tag k="ssr:stedsnr" v="840315" />
	</node>
<<<<<<< HEAD
	<node lat="68.6566500003128" lon="17.668094451644283" id="-38132">
		<tag k="highway" v="path" />
		<tag k="name" v="Kollveien" />
		<tag k="ssr:stedsnr" v="900353" />
	</node>
	<node lat="68.73684166434936" lon="17.48948887678987" id="-38217">
		<tag k="highway" v="path" />
		<tag k="name" v="Breiveien" />
		<tag k="ssr:stedsnr" v="112291" />
	</node>
	<node lat="68.77142499705153" lon="17.298472209738485" id="-38254">
		<tag k="highway" v="path" />
		<tag k="name" v="Skarveien" />
		<tag k="ssr:stedsnr" v="172445" />
	</node>
	<node lat="68.66182500408512" lon="17.663238892313426" id="-38477">
		<tag k="highway" v="path" />
		<tag k="name" v="Kollveien" />
		<tag k="ssr:stedsnr" v="657322" />
	</node>
	<node lat="68.65200000363231" lon="17.717722212615698" id="-38516">
		<tag k="highway" v="path" />
		<tag k="name" v="Hulderveien" />
		<tag k="ssr:stedsnr" v="779386" />
	</node>
=======
>>>>>>> e1d4bc35ff8a6074a6f2e91616a996b547c36f15
</osm>
