<?xml version="1.0" encoding="UTF-8"?>
<<<<<<< HEAD
<osm version="0.6" generator="osmapis">
	<node lat="68.8127472264451" lon="17.428327769353018" id="-37797">
		<tag k="name" v="Loftbergan" />
=======
<osm generator="osmapis" version="0.6">
	<node id="-856061" lat="68.7733333291" lon="17.4820166724">
		<tag k="fixme" v="consider natural=peak for the most distinct mountains in the district" />
		<tag k="name" v="Ystelifjellet" />
		<tag k="natural" v="hill" />
		<tag k="place" v="locality" />
		<tag k="ssr:stedsnr" v="260765" />
	</node>
	<node id="-856058" lat="68.7049388911" lon="17.6292138871">
		<tag k="fixme" v="consider natural=peak for the most distinct mountains in the district" />
		<tag k="name" v="Årsteinhornet - Čoarvečohkka" />
		<tag k="name:no" v="Årsteinhornet" />
		<tag k="name:se" v="Čoarvečohkka" />
		<tag k="natural" v="hill" />
		<tag k="place" v="locality" />
		<tag k="ssr:stedsnr" v="260598" />
	</node>
	<node id="-856057" lat="68.6078611155" lon="17.5866249928">
		<tag k="fixme" v="consider natural=peak for the most distinct mountains in the district" />
		<tag k="name" v="Storfjellaksla" />
		<tag k="natural" v="hill" />
		<tag k="place" v="locality" />
		<tag k="ssr:stedsnr" v="260570" />
	</node>
	<node id="-856053" lat="68.8118972231" lon="17.4444083252">
		<tag k="name" v="Storelvklubben" />
		<tag k="natural" v="hill" />
		<tag k="place" v="locality" />
		<tag k="ssr:stedsnr" v="51312" />
	</node>
	<node id="-856052" lat="68.6351999963" lon="17.6910666597">
		<tag k="name" v="Čohkadievvá" />
		<tag k="name:se" v="Čohkadievvá" />
		<tag k="natural" v="hill" />
		<tag k="place" v="locality" />
		<tag k="ssr:stedsnr" v="51401" />
	</node>
	<node id="-856051" lat="68.6431138856" lon="17.7531138845">
		<tag k="name" v="Jordnesen" />
		<tag k="natural" v="hill" />
		<tag k="place" v="locality" />
		<tag k="ssr:stedsnr" v="233400" />
	</node>
	<node id="-856050" lat="68.6492166665" lon="17.73487221">
		<tag k="name" v="Marnberget" />
		<tag k="natural" v="hill" />
		<tag k="place" v="locality" />
		<tag k="ssr:stedsnr" v="233391" />
	</node>
	<node id="-856044" lat="68.7962111109" lon="17.3995972272">
		<tag k="name" v="Langeberget" />
		<tag k="natural" v="hill" />
		<tag k="place" v="locality" />
		<tag k="ssr:stedsnr" v="233306" />
	</node>
	<node id="-856043" lat="68.8122277759" lon="17.4538222289">
		<tag k="name" v="Heia" />
		<tag k="natural" v="hill" />
		<tag k="place" v="locality" />
		<tag k="ssr:stedsnr" v="233302" />
	</node>
	<node id="-856042" lat="68.7403916678" lon="17.4528138763">
		<tag k="name" v="Smålian" />
		<tag k="natural" v="slope" />
		<tag k="place" v="locality" />
		<tag k="ssr:stedsnr" v="233286" />
	</node>
	<node id="-856040" lat="68.7513166662" lon="17.3854861037">
		<tag k="name" v="Glassteinhågen" />
		<tag k="natural" v="hill" />
		<tag k="place" v="locality" />
		<tag k="ssr:stedsnr" v="232430" />
	</node>
	<node id="-856036" lat="68.6966111114" lon="17.4142972131">
		<tag k="name" v="Nattmålshågen" />
		<tag k="natural" v="hill" />
		<tag k="place" v="locality" />
		<tag k="ssr:stedsnr" v="232419" />
	</node>
	<node id="-856034" lat="68.6636027747" lon="17.4073555535">
		<tag k="fixme" v="consider natural=peak for the most distinct mountains in the district" />
		<tag k="name" v="Ruksesvárik" />
		<tag k="name:se" v="Ruksesvárik" />
		<tag k="natural" v="hill" />
		<tag k="place" v="locality" />
		<tag k="ssr:stedsnr" v="21508" />
	</node>
	<node id="-856853" lat="68.6545638915" lon="17.3104944357">
		<tag k="fixme" v="consider natural=peak for the most distinct mountains in the district" />
		<tag k="name" v="Oldertinden - Leaibečohkka" />
		<tag k="name:no" v="Oldertinden" />
		<tag k="name:se" v="Leaibečohkka" />
		<tag k="natural" v="hill" />
		<tag k="place" v="locality" />
		<tag k="ssr:stedsnr" v="141880" />
	</node>
	<node id="-856847" lat="68.5969638922" lon="17.5474249964">
		<tag k="fixme" v="consider natural=peak for the most distinct mountains in the district" />
		<tag k="name" v="Lofttinden - Návstaoaivi" />
		<tag k="name:no" v="Lofttinden" />
		<tag k="name:se" v="Návstaoaivi" />
		<tag k="natural" v="hill" />
		<tag k="place" v="locality" />
		<tag k="ssr:stedsnr" v="784158" />
	</node>
	<node id="-856845" lat="68.6536138928" lon="17.8333749993">
		<tag k="fixme" v="consider natural=peak for the most distinct mountains in the district" />
		<tag k="loc_name:se" v="Unna Suobddegas" />
		<tag k="name" v="Baikačohkka - Høgtinden" />
		<tag k="name:no" v="Høgtinden" />
		<tag k="name:se" v="Baikačohkka" />
		<tag k="natural" v="hill" />
		<tag k="old_name:se" v="Baikačåkka" />
		<tag k="place" v="locality" />
		<tag k="ssr:stedsnr" v="749609" />
	</node>
	<node id="-856832" lat="68.7190420842" lon="17.4042919091">
		<tag k="name" v="Čuvvágohpi" />
		<tag k="name:se" v="Čuvvágohpi" />
		<tag k="natural" v="valley" />
		<tag k="place" v="locality" />
		<tag k="ssr:stedsnr" v="989682" />
	</node>
	<node id="-856828" lat="68.664303574" lon="17.5646457286">
		<tag k="fixme" v="consider natural=peak for the most distinct mountains in the district" />
		<tag k="name" v="Gálarápma" />
		<tag k="name:se" v="Gálarápma" />
		<tag k="natural" v="hill" />
		<tag k="place" v="locality" />
		<tag k="ssr:stedsnr" v="988989" />
	</node>
	<node id="-856822" lat="68.7462555595" lon="17.4477222303">
		<tag k="name" v="Mellaskaret" />
		<tag k="natural" v="valley" />
		<tag k="place" v="locality" />
		<tag k="ssr:stedsnr" v="961494" />
	</node>
	<node id="-856821" lat="68.7465499994" lon="17.4001138827">
		<tag k="name" v="Kvigeberget" />
>>>>>>> e1d4bc35ff8a6074a6f2e91616a996b547c36f15
		<tag k="natural" v="hill" />
		<tag k="place" v="locality" />
		<tag k="ssr:stedsnr" v="231819" />
	</node>
<<<<<<< HEAD
	<node lat="68.74987222299085" lon="17.29243888128077" id="-37799">
		<tag k="name" v="Brenna" />
=======
	<node id="-856818" lat="68.7042333349" lon="17.4799527708">
		<tag k="name" v="Sandmelen" />
>>>>>>> e1d4bc35ff8a6074a6f2e91616a996b547c36f15
		<tag k="natural" v="slope" />
		<tag k="place" v="locality" />
		<tag k="ssr:stedsnr" v="232360" />
	</node>
<<<<<<< HEAD
	<node lat="68.7322166677123" lon="17.247269444138208" id="-37801">
		<tag k="name" v="Stigebergan" />
=======
	<node id="-856816" lat="68.7021694445" lon="17.5427527844">
		<tag k="name" v="Storhågen" />
>>>>>>> e1d4bc35ff8a6074a6f2e91616a996b547c36f15
		<tag k="natural" v="hill" />
		<tag k="place" v="locality" />
		<tag k="ssr:stedsnr" v="232367" />
	</node>
<<<<<<< HEAD
	<node lat="68.73011389001284" lon="17.265024986888932" id="-37802">
		<tag k="name" v="Neven" />
		<tag k="natural" v="hill" />
		<tag k="place" v="locality" />
		<tag k="ssr:stedsnr" v="232371" />
	</node>
	<node lat="68.69841110765327" lon="17.400694447947785" id="-37803">
		<tag k="name" v="Lia" />
		<tag k="natural" v="slope" />
=======
	<node id="-856815" lat="68.6824527786" lon="17.6026694319">
		<tag k="name" v="Gammelheimhammarn" />
		<tag k="natural" v="hill" />
		<tag k="place" v="locality" />
		<tag k="ssr:stedsnr" v="961339" />
	</node>
	<node id="-856814" lat="68.6643694467" lon="17.5143527691">
		<tag k="name" v="Moan" />
		<tag k="place" v="locality" />
		<tag k="ssr:stedsnr" v="961296" />
	</node>
	<node id="-856811" lat="68.7906583307" lon="17.3938194302">
		<tag k="name" v="Durmålsskaret" />
		<tag k="natural" v="valley" />
>>>>>>> e1d4bc35ff8a6074a6f2e91616a996b547c36f15
		<tag k="place" v="locality" />
		<tag k="ssr:stedsnr" v="232417" />
	</node>
<<<<<<< HEAD
	<node lat="68.69661111143469" lon="17.414297213060514" id="-37804">
		<tag k="name" v="Nattmålshågen" />
=======
	<node id="-856810" lat="68.7769250028" lon="17.2939138992">
		<tag k="name" v="Holtebergan" />
>>>>>>> e1d4bc35ff8a6074a6f2e91616a996b547c36f15
		<tag k="natural" v="hill" />
		<tag k="place" v="locality" />
		<tag k="ssr:stedsnr" v="232419" />
	</node>
<<<<<<< HEAD
	<node lat="68.70486666563563" lon="17.694577763325587" id="-37807">
=======
	<node id="-856809" lat="68.7323805584" lon="17.282558328">
>>>>>>> e1d4bc35ff8a6074a6f2e91616a996b547c36f15
		<tag k="fixme" v="consider natural=peak for the most distinct mountains in the district" />
		<tag k="name" v="Hornaksla" />
		<tag k="natural" v="hill" />
		<tag k="place" v="locality" />
<<<<<<< HEAD
		<tag k="ssr:stedsnr" v="17604" />
	</node>
	<node lat="68.64921666653996" lon="17.734872210014977" id="-37811">
		<tag k="name" v="Marnberget" />
		<tag k="natural" v="hill" />
=======
		<tag k="ssr:stedsnr" v="960415" />
	</node>
	<node id="-856808" lat="68.7286472261" lon="17.2368777698">
		<tag k="name" v="Lofteteigan" />
		<tag k="natural" v="slope" />
		<tag k="place" v="locality" />
		<tag k="ssr:stedsnr" v="960400" />
	</node>
	<node id="-856807" lat="68.7623305543" lon="17.2922111079">
		<tag k="name" v="Ørnholla" />
		<tag k="natural" v="valley" />
>>>>>>> e1d4bc35ff8a6074a6f2e91616a996b547c36f15
		<tag k="place" v="locality" />
		<tag k="ssr:stedsnr" v="233391" />
	</node>
<<<<<<< HEAD
	<node lat="68.81222777591674" lon="17.45382222894778" id="-37812">
		<tag k="name" v="Heia" />
=======
	<node id="-856806" lat="68.7613749985" lon="17.2745666535">
		<tag k="name" v="Bonhågen" />
>>>>>>> e1d4bc35ff8a6074a6f2e91616a996b547c36f15
		<tag k="natural" v="hill" />
		<tag k="place" v="locality" />
		<tag k="ssr:stedsnr" v="233302" />
	</node>
<<<<<<< HEAD
	<node lat="68.64311388558006" lon="17.753113884499932" id="-37813">
		<tag k="name" v="Jordnesen" />
		<tag k="natural" v="hill" />
		<tag k="place" v="locality" />
		<tag k="ssr:stedsnr" v="233400" />
	</node>
	<node lat="68.66360277470709" lon="17.40735555353462" id="-37814">
=======
	<node id="-856797" lat="68.7200194482" lon="17.5417222319">
>>>>>>> e1d4bc35ff8a6074a6f2e91616a996b547c36f15
		<tag k="fixme" v="consider natural=peak for the most distinct mountains in the district" />
		<tag k="name" v="Ruksesvárik" />
		<tag k="name:se" v="Ruksesvárik" />
		<tag k="natural" v="hill" />
		<tag k="place" v="locality" />
		<tag k="ssr:stedsnr" v="21508" />
	</node>
<<<<<<< HEAD
	<node lat="68.71781389162356" lon="17.337933327486653" id="-37818">
		<tag k="name" v="Øvste skaret" />
		<tag k="natural" v="valley" />
=======
	<node id="-856787" lat="68.6255222228" lon="17.7673722295">
		<tag k="name" v="Storhaugen" />
		<tag k="natural" v="hill" />
>>>>>>> e1d4bc35ff8a6074a6f2e91616a996b547c36f15
		<tag k="place" v="locality" />
		<tag k="ssr:stedsnr" v="50379" />
	</node>
<<<<<<< HEAD
	<node lat="68.63519999628168" lon="17.691066659699707" id="-37821">
		<tag k="name" v="Čohkadievvá" />
		<tag k="name:se" v="Čohkadievvá" />
=======
	<node id="-856786" lat="68.7257694464" lon="17.3967416777">
		<tag k="name" v="Vikhøghågen" />
>>>>>>> e1d4bc35ff8a6074a6f2e91616a996b547c36f15
		<tag k="natural" v="hill" />
		<tag k="place" v="locality" />
		<tag k="ssr:stedsnr" v="51401" />
	</node>
<<<<<<< HEAD
	<node lat="68.73434722118944" lon="17.51912498958102" id="-37823">
		<tag k="name" v="Langhågen" />
=======
	<node id="-856785" lat="68.7169027751" lon="17.4806944335">
		<tag k="name" v="Stinabergan" />
>>>>>>> e1d4bc35ff8a6074a6f2e91616a996b547c36f15
		<tag k="natural" v="hill" />
		<tag k="place" v="locality" />
		<tag k="ssr:stedsnr" v="51384" />
	</node>
<<<<<<< HEAD
	<node lat="68.7747888900859" lon="17.34899443371317" id="-37825">
		<tag k="name" v="Moan" />
=======
	<node id="-856783" lat="68.7214972223" lon="17.376888886">
		<tag k="name" v="Nersteskaret" />
		<tag k="natural" v="valley" />
>>>>>>> e1d4bc35ff8a6074a6f2e91616a996b547c36f15
		<tag k="place" v="locality" />
		<tag k="ssr:stedsnr" v="51480" />
	</node>
<<<<<<< HEAD
	<node lat="68.7154805516827" lon="17.405888887266286" id="-37826">
		<tag k="fixme" v="consider natural=peak for the most distinct mountains in the district" />
		<tag k="name" v="Middagsfjellet" />
		<tag k="natural" v="hill" />
=======
	<node id="-856781" lat="68.7006444477" lon="17.4197666745">
		<tag k="name" v="Brekkebakken" />
		<tag k="natural" v="slope" />
>>>>>>> e1d4bc35ff8a6074a6f2e91616a996b547c36f15
		<tag k="place" v="locality" />
		<tag k="ssr:stedsnr" v="51484" />
	</node>
<<<<<<< HEAD
	<node lat="68.75414722305604" lon="17.580624987705857" id="-37831">
		<tag k="name" v="Stordalen" />
		<tag k="natural" v="valley" />
=======
	<node id="-856780" lat="68.7009777795" lon="17.406450007">
		<tag k="name" v="Slettebakken" />
		<tag k="natural" v="slope" />
>>>>>>> e1d4bc35ff8a6074a6f2e91616a996b547c36f15
		<tag k="place" v="locality" />
		<tag k="ssr:stedsnr" v="79250" />
	</node>
<<<<<<< HEAD
	<node lat="68.62694999854695" lon="17.81508055819725" id="-37832">
=======
	<node id="-856779" lat="68.6991805541" lon="17.4090694485">
>>>>>>> e1d4bc35ff8a6074a6f2e91616a996b547c36f15
		<tag k="fixme" v="consider natural=peak for the most distinct mountains in the district" />
		<tag k="name" v="Stortinden - Stuoračohkka" />
		<tag k="name:no" v="Stortinden" />
		<tag k="name:se" v="Stuoračohkka" />
		<tag k="natural" v="hill" />
		<tag k="old_name:se" v="Stuoračåkka" />
		<tag k="place" v="locality" />
		<tag k="ssr:stedsnr" v="79497" />
	</node>
<<<<<<< HEAD
	<node lat="68.76829166356653" lon="17.504530540559493" id="-37833">
		<tag k="alt_name" v="Holtinden" />
		<tag k="fixme" v="consider natural=peak for the most distinct mountains in the district" />
		<tag k="name" v="Båtkjølen" />
=======
	<node id="-856778" lat="68.6998333369" lon="17.4261722129">
		<tag k="name" v="Hellarn" />
>>>>>>> e1d4bc35ff8a6074a6f2e91616a996b547c36f15
		<tag k="natural" v="hill" />
		<tag k="place" v="locality" />
		<tag k="ssr:stedsnr" v="79694" />
	</node>
<<<<<<< HEAD
	<node lat="68.72854444490883" lon="17.264275003921792" id="-37839">
		<tag k="name" v="Langebergsteigan" />
		<tag k="natural" v="slope" />
		<tag k="place" v="locality" />
		<tag k="ssr:stedsnr" v="111381" />
	</node>
	<node lat="68.72651389261023" lon="17.297130553564873" id="-37841">
		<tag k="name" v="Blomholla" />
=======
	<node id="-856777" lat="68.6828388879" lon="17.5980027659">
		<tag k="name" v="Ingerholla" />
>>>>>>> e1d4bc35ff8a6074a6f2e91616a996b547c36f15
		<tag k="natural" v="valley" />
		<tag k="place" v="locality" />
		<tag k="ssr:stedsnr" v="111402" />
	</node>
<<<<<<< HEAD
	<node lat="68.71895555933921" lon="17.4037166684241" id="-37844">
		<tag k="name" v="Bjørnskarva" />
		<tag k="natural" v="hill" />
=======
	<node id="-856776" lat="68.688861108" lon="17.6579972263">
		<tag k="name" v="Fjordbotnlian" />
		<tag k="natural" v="slope" />
>>>>>>> e1d4bc35ff8a6074a6f2e91616a996b547c36f15
		<tag k="place" v="locality" />
		<tag k="ssr:stedsnr" v="111422" />
	</node>
<<<<<<< HEAD
	<node lat="68.6721888907866" lon="17.637202787331166" id="-37846">
		<tag k="name" v="Skjellhågen" />
=======
	<node id="-856774" lat="68.7990833319" lon="17.4047166679">
		<tag k="name" v="Bonasklubben" />
>>>>>>> e1d4bc35ff8a6074a6f2e91616a996b547c36f15
		<tag k="natural" v="hill" />
		<tag k="place" v="locality" />
		<tag k="ssr:stedsnr" v="112326" />
	</node>
<<<<<<< HEAD
	<node lat="68.69240277573256" lon="17.842952778988817" id="-37851">
=======
	<node id="-856773" lat="68.8049388921" lon="17.4220416612">
>>>>>>> e1d4bc35ff8a6074a6f2e91616a996b547c36f15
		<tag k="fixme" v="consider natural=peak for the most distinct mountains in the district" />
		<tag k="loc_name:se" v="Silbaloamičohkka" />
		<tag k="name" v="Sølvfjellet" />
		<tag k="name:no" v="Sølvfjellet" />
		<tag k="natural" v="hill" />
		<tag k="place" v="locality" />
		<tag k="ssr:stedsnr" v="138594" />
	</node>
	<node lat="68.64579166782633" lon="17.490747214478972" id="-37852">
		<tag k="name" v="Botnsletta" />
		<tag k="place" v="locality" />
		<tag k="ssr:stedsnr" v="139549" />
	</node>
<<<<<<< HEAD
	<node lat="68.75216388778951" lon="17.54783611851904" id="-37853">
=======
	<node id="-856771" lat="68.7252666653" lon="17.2863527871">
>>>>>>> e1d4bc35ff8a6074a6f2e91616a996b547c36f15
		<tag k="fixme" v="consider natural=peak for the most distinct mountains in the district" />
		<tag k="name" v="Blåuran" />
		<tag k="natural" v="hill" />
		<tag k="place" v="locality" />
		<tag k="ssr:stedsnr" v="139703" />
	</node>
<<<<<<< HEAD
	<node lat="68.75679722299931" lon="17.513677775495136" id="-37855">
		<tag k="fixme" v="consider natural=peak for the most distinct mountains in the district" />
		<tag k="name" v="Rasekoppfjellet" />
=======
	<node id="-856770" lat="68.7251472242" lon="17.2048972293">
		<tag k="name" v="Svaberget" />
>>>>>>> e1d4bc35ff8a6074a6f2e91616a996b547c36f15
		<tag k="natural" v="hill" />
		<tag k="place" v="locality" />
		<tag k="ssr:stedsnr" v="139701" />
	</node>
<<<<<<< HEAD
	<node lat="68.68726110812923" lon="17.76385555008044" id="-37860">
		<tag k="name" v="Oreberget" />
=======
	<node id="-856767" lat="68.6394527782" lon="17.5126166728">
		<tag k="name" v="Botnhågen" />
>>>>>>> e1d4bc35ff8a6074a6f2e91616a996b547c36f15
		<tag k="natural" v="hill" />
		<tag k="place" v="locality" />
		<tag k="ssr:stedsnr" v="149723" />
	</node>
<<<<<<< HEAD
	<node lat="68.60786111551772" lon="17.586624992763277" id="-37862">
=======
	<node id="-856762" lat="68.7102972227" lon="17.3941472298">
>>>>>>> e1d4bc35ff8a6074a6f2e91616a996b547c36f15
		<tag k="fixme" v="consider natural=peak for the most distinct mountains in the district" />
		<tag k="name" v="Storfjellaksla" />
		<tag k="natural" v="hill" />
		<tag k="place" v="locality" />
		<tag k="ssr:stedsnr" v="260570" />
	</node>
<<<<<<< HEAD
	<node lat="68.65231111025814" lon="17.68139721219105" id="-37863">
		<tag k="alt_name" v="Middagshågen" />
		<tag k="name" v="Middagshaugen" />
=======
	<node id="-856761" lat="68.7582944465" lon="17.2874666648">
		<tag k="fixme" v="consider natural=peak for the most distinct mountains in the district" />
		<tag k="name" v="Veten" />
>>>>>>> e1d4bc35ff8a6074a6f2e91616a996b547c36f15
		<tag k="natural" v="hill" />
		<tag k="place" v="locality" />
		<tag k="ssr:stedsnr" v="260624" />
	</node>
<<<<<<< HEAD
	<node lat="68.77333332907865" lon="17.482016672420635" id="-37866">
=======
	<node id="-856760" lat="68.7569638923" lon="17.4048972337">
>>>>>>> e1d4bc35ff8a6074a6f2e91616a996b547c36f15
		<tag k="fixme" v="consider natural=peak for the most distinct mountains in the district" />
		<tag k="name" v="Ystelifjellet" />
		<tag k="natural" v="hill" />
		<tag k="place" v="locality" />
		<tag k="ssr:stedsnr" v="260765" />
	</node>
<<<<<<< HEAD
	<node lat="68.77239444069869" lon="17.274674991355532" id="-37869">
		<tag k="name" v="Selnakken" />
		<tag k="natural" v="hill" />
=======
	<node id="-856757" lat="68.6194833318" lon="17.7581527761">
		<tag k="name" v="Leigassletta" />
>>>>>>> e1d4bc35ff8a6074a6f2e91616a996b547c36f15
		<tag k="place" v="locality" />
		<tag k="ssr:stedsnr" v="171413" />
	</node>
<<<<<<< HEAD
	<node lat="68.71893055555273" lon="17.20747222120788" id="-37871">
		<tag k="name" v="Storelvdalen" />
		<tag k="natural" v="valley" />
		<tag k="place" v="locality" />
		<tag k="ssr:stedsnr" v="171360" />
	</node>
	<node lat="68.72244722012235" lon="17.21839444715159" id="-37872">
		<tag k="fixme" v="consider natural=peak for the most distinct mountains in the district" />
		<tag k="name" v="Ørnreiret" />
=======
	<node id="-856756" lat="68.7440222206" lon="17.375108341">
		<tag k="name" v="Moldforholla" />
		<tag k="natural" v="valley" />
		<tag k="place" v="locality" />
		<tag k="ssr:stedsnr" v="779501" />
	</node>
	<node id="-856755" lat="68.750536113" lon="17.3796138923">
		<tag k="name" v="Keipsletta" />
		<tag k="place" v="locality" />
		<tag k="ssr:stedsnr" v="779493" />
	</node>
	<node id="-856753" lat="68.6898027754" lon="17.4211111203">
		<tag k="name" v="Holteberget" />
>>>>>>> e1d4bc35ff8a6074a6f2e91616a996b547c36f15
		<tag k="natural" v="hill" />
		<tag k="place" v="locality" />
		<tag k="ssr:stedsnr" v="171363" />
	</node>
<<<<<<< HEAD
	<node lat="68.66533888886067" lon="17.53891110221006" id="-37874">
		<tag k="name" v="Høgdeteigan" />
=======
	<node id="-856751" lat="68.7043333297" lon="17.4902361106">
		<tag k="name" v="Gluggeporten" />
>>>>>>> e1d4bc35ff8a6074a6f2e91616a996b547c36f15
		<tag k="natural" v="slope" />
		<tag k="place" v="locality" />
		<tag k="ssr:stedsnr" v="172303" />
	</node>
<<<<<<< HEAD
	<node lat="68.67756110834065" lon="17.53716665646144" id="-37875">
		<tag k="name" v="Tortenholla" />
		<tag k="natural" v="valley" />
		<tag k="place" v="locality" />
		<tag k="ssr:stedsnr" v="172307" />
	</node>
	<node lat="68.67876388826771" lon="17.57400276900878" id="-37876">
		<tag k="name" v="Ørnhammarn" />
=======
	<node id="-856750" lat="68.6734055546" lon="17.5084638784">
		<tag k="name" v="Gråberget" />
>>>>>>> e1d4bc35ff8a6074a6f2e91616a996b547c36f15
		<tag k="natural" v="hill" />
		<tag k="place" v="locality" />
		<tag k="ssr:stedsnr" v="172309" />
	</node>
<<<<<<< HEAD
	<node lat="68.67679166543995" lon="17.572688895798425" id="-37877">
=======
	<node id="-856748" lat="68.6742361145" lon="17.7961527719">
>>>>>>> e1d4bc35ff8a6074a6f2e91616a996b547c36f15
		<tag k="fixme" v="consider natural=peak for the most distinct mountains in the district" />
		<tag k="name" v="Middagsfjellet" />
		<tag k="natural" v="hill" />
		<tag k="place" v="locality" />
		<tag k="ssr:stedsnr" v="172310" />
	</node>
<<<<<<< HEAD
	<node lat="68.67400555374373" lon="17.533683323761707" id="-37878">
		<tag k="name" v="Milmarka" />
		<tag k="place" v="locality" />
		<tag k="ssr:stedsnr" v="172314" />
	</node>
	<node lat="68.6724777810803" lon="17.44310000928166" id="-37879">
		<tag k="name" v="Falkeberget" />
=======
	<node id="-856742" lat="68.7372611143" lon="17.4527916536">
		<tag k="name" v="Olpålsaberget" />
>>>>>>> e1d4bc35ff8a6074a6f2e91616a996b547c36f15
		<tag k="natural" v="hill" />
		<tag k="place" v="locality" />
		<tag k="ssr:stedsnr" v="172457" />
	</node>
<<<<<<< HEAD
	<node lat="68.65004722072592" lon="17.652602772294603" id="-37880">
		<tag k="name" v="Reingjerdan" />
=======
	<node id="-856740" lat="68.7242083371" lon="17.2051527654">
		<tag k="name" v="Skavlia" />
>>>>>>> e1d4bc35ff8a6074a6f2e91616a996b547c36f15
		<tag k="natural" v="slope" />
		<tag k="place" v="locality" />
		<tag k="ssr:stedsnr" v="172355" />
	</node>
<<<<<<< HEAD
	<node lat="68.76004444742301" lon="17.374119443301435" id="-37881">
		<tag k="name" v="Rundhågen" />
=======
	<node id="-856739" lat="68.7259972237" lon="17.2801527765">
		<tag k="fixme" v="consider natural=peak for the most distinct mountains in the district" />
		<tag k="name" v="Storlemman" />
>>>>>>> e1d4bc35ff8a6074a6f2e91616a996b547c36f15
		<tag k="natural" v="hill" />
		<tag k="place" v="locality" />
		<tag k="ssr:stedsnr" v="172503" />
	</node>
<<<<<<< HEAD
	<node lat="68.74462499787023" lon="17.414894440929704" id="-37882">
		<tag k="name" v="Skjærberget" />
=======
	<node id="-856738" lat="68.7357388917" lon="17.2804305478">
		<tag k="name" v="Kalvegjerdspira" />
>>>>>>> e1d4bc35ff8a6074a6f2e91616a996b547c36f15
		<tag k="natural" v="hill" />
		<tag k="place" v="locality" />
		<tag k="ssr:stedsnr" v="172510" />
	</node>
<<<<<<< HEAD
	<node lat="68.74643055524334" lon="17.46710832893615" id="-37883">
		<tag k="name" v="Kvantohøgda" />
=======
	<node id="-856736" lat="68.7549527749" lon="17.2549555505">
		<tag k="name" v="Nesseberget" />
>>>>>>> e1d4bc35ff8a6074a6f2e91616a996b547c36f15
		<tag k="natural" v="hill" />
		<tag k="place" v="locality" />
		<tag k="ssr:stedsnr" v="172513" />
	</node>
<<<<<<< HEAD
	<node lat="68.6301111138535" lon="17.73298610853831" id="-37886">
		<tag k="alt_name" v="Forslia" />
		<tag k="name" v="Fosslia" />
		<tag k="natural" v="slope" />
		<tag k="place" v="locality" />
		<tag k="ssr:stedsnr" v="261529" />
	</node>
	<node lat="68.64373055435219" lon="17.529974995638106" id="-37888">
		<tag k="name" v="Labergsdalen - Gálavuopmi" />
		<tag k="name:no" v="Labergsdalen" />
		<tag k="name:se" v="Gálavuopmi" />
=======
	<node id="-856727" lat="68.6494944407" lon="17.4003611027">
		<tag k="name" v="Melladalen - Gaskariehppi" />
		<tag k="name:no" v="Melladalen" />
		<tag k="name:se" v="Gaskariehppi" />
>>>>>>> e1d4bc35ff8a6074a6f2e91616a996b547c36f15
		<tag k="natural" v="valley" />
		<tag k="old_name:se" v="Galavuobmi" />
		<tag k="place" v="locality" />
		<tag k="ssr:stedsnr" v="264520" />
	</node>
<<<<<<< HEAD
	<node lat="68.6918888919761" lon="17.540619432799947" id="-37896">
		<tag k="alt_name" v="Orhaugen" />
		<tag k="name" v="Orrhågen" />
=======
	<node id="-856726" lat="68.6430722183" lon="17.3686972156">
		<tag k="fixme" v="consider natural=peak for the most distinct mountains in the district" />
		<tag k="name" v="Urfjellet - Juovvavárri" />
		<tag k="name:no" v="Urfjellet" />
		<tag k="name:se" v="Juovvavárri" />
>>>>>>> e1d4bc35ff8a6074a6f2e91616a996b547c36f15
		<tag k="natural" v="hill" />
		<tag k="place" v="locality" />
		<tag k="ssr:stedsnr" v="211573" />
	</node>
<<<<<<< HEAD
	<node lat="68.72003055880596" lon="17.357288877223404" id="-37897">
		<tag k="name" v="Mellaskaret" />
		<tag k="natural" v="valley" />
		<tag k="place" v="locality" />
		<tag k="ssr:stedsnr" v="212229" />
	</node>
	<node lat="68.75131666622755" lon="17.385486103718183" id="-37904">
		<tag k="name" v="Glassteinhågen" />
=======
	<node id="-856717" lat="68.6637388877" lon="17.4072999894">
		<tag k="name" v="Ruksesvárik" />
		<tag k="name:se" v="Ruksesvárik" />
>>>>>>> e1d4bc35ff8a6074a6f2e91616a996b547c36f15
		<tag k="natural" v="hill" />
		<tag k="place" v="locality" />
		<tag k="ssr:stedsnr" v="232430" />
	</node>
<<<<<<< HEAD
	<node lat="68.74039166775736" lon="17.45281387625664" id="-37906">
		<tag k="name" v="Smålian" />
=======
	<node id="-856711" lat="68.7505305569" lon="17.436166656">
		<tag k="name" v="Steinbergskarlian" />
>>>>>>> e1d4bc35ff8a6074a6f2e91616a996b547c36f15
		<tag k="natural" v="slope" />
		<tag k="place" v="locality" />
		<tag k="ssr:stedsnr" v="233286" />
	</node>
<<<<<<< HEAD
	<node lat="68.79621111085432" lon="17.399597227207543" id="-37907">
		<tag k="name" v="Langeberget" />
		<tag k="natural" v="hill" />
=======
	<node id="-856710" lat="68.6697416635" lon="17.7653638888">
		<tag k="name" v="Finnesletta" />
>>>>>>> e1d4bc35ff8a6074a6f2e91616a996b547c36f15
		<tag k="place" v="locality" />
		<tag k="ssr:stedsnr" v="233306" />
	</node>
<<<<<<< HEAD
	<node lat="68.70493889106432" lon="17.629213887066467" id="-37918">
		<tag k="fixme" v="consider natural=peak for the most distinct mountains in the district" />
		<tag k="name" v="Årsteinhornet - Čoarvečohkka" />
		<tag k="name:no" v="Årsteinhornet" />
		<tag k="name:se" v="Čoarvečohkka" />
=======
	<node id="-856703" lat="68.6458500009" lon="17.7194611075">
		<tag k="name" v="Storhaugen - Reaidu" />
		<tag k="name:no" v="Storhaugen" />
		<tag k="name:se" v="Reaidu" />
>>>>>>> e1d4bc35ff8a6074a6f2e91616a996b547c36f15
		<tag k="natural" v="hill" />
		<tag k="place" v="locality" />
		<tag k="ssr:stedsnr" v="260598" />
	</node>
<<<<<<< HEAD
	<node lat="68.72568889351903" lon="17.210016658461257" id="-37924">
		<tag k="name" v="Olderteigen" />
=======
	<node id="-856701" lat="68.6873416652" lon="17.6491305503">
		<tag k="name" v="Smålian" />
>>>>>>> e1d4bc35ff8a6074a6f2e91616a996b547c36f15
		<tag k="natural" v="slope" />
		<tag k="place" v="locality" />
		<tag k="ssr:stedsnr" v="292385" />
	</node>
<<<<<<< HEAD
	<node lat="68.8191444442181" lon="17.463347211663606" id="-37925">
		<tag k="name" v="Munnsletta" />
=======
	<node id="-856697" lat="68.7505361139" lon="17.4031416661">
		<tag k="name" v="Nattmålshågen" />
		<tag k="natural" v="hill" />
>>>>>>> e1d4bc35ff8a6074a6f2e91616a996b547c36f15
		<tag k="place" v="locality" />
		<tag k="ssr:stedsnr" v="293324" />
	</node>
<<<<<<< HEAD
	<node lat="68.67178333720089" lon="17.708708334137263" id="-37926">
=======
	<node id="-856696" lat="68.6949277788" lon="17.4065861155">
>>>>>>> e1d4bc35ff8a6074a6f2e91616a996b547c36f15
		<tag k="fixme" v="consider natural=peak for the most distinct mountains in the district" />
		<tag k="name" v="Kalmeryggen" />
		<tag k="natural" v="hill" />
		<tag k="place" v="locality" />
<<<<<<< HEAD
		<tag k="ssr:stedsnr" v="293404" />
	</node>
	<node lat="68.74973332975186" lon="17.41361666331045" id="-37927">
		<tag k="name" v="Bratthøgda" />
=======
		<tag k="ssr:stedsnr" v="596442" />
	</node>
	<node id="-856695" lat="68.6931138901" lon="17.3768055623">
		<tag k="name" v="Vargedalen" />
		<tag k="natural" v="valley" />
		<tag k="place" v="locality" />
		<tag k="ssr:stedsnr" v="596432" />
	</node>
	<node id="-856693" lat="68.7213166707" lon="17.4044166622">
		<tag k="name" v="Grindtøhågen" />
>>>>>>> e1d4bc35ff8a6074a6f2e91616a996b547c36f15
		<tag k="natural" v="hill" />
		<tag k="place" v="locality" />
		<tag k="ssr:stedsnr" v="293502" />
	</node>
<<<<<<< HEAD
	<node lat="68.69314444368264" lon="17.3572416545238" id="-37929">
		<tag k="name" v="Lillereingjerdet" />
=======
	<node id="-856692" lat="68.7113833309" lon="17.4200416692">
		<tag k="name" v="Henrikskaret" />
		<tag k="natural" v="valley" />
>>>>>>> e1d4bc35ff8a6074a6f2e91616a996b547c36f15
		<tag k="place" v="locality" />
		<tag k="ssr:stedsnr" v="293480" />
	</node>
<<<<<<< HEAD
	<node lat="68.68733055741805" lon="17.638816667519038" id="-37935">
		<tag k="name" v="Svennlia" />
		<tag k="natural" v="slope" />
=======
	<node id="-856690" lat="68.6824055561" lon="17.3338638912">
		<tag k="fixme" v="consider natural=peak for the most distinct mountains in the district" />
		<tag k="name" v="Ranen" />
		<tag k="natural" v="hill" />
>>>>>>> e1d4bc35ff8a6074a6f2e91616a996b547c36f15
		<tag k="place" v="locality" />
		<tag k="ssr:stedsnr" v="334613" />
	</node>
<<<<<<< HEAD
	<node lat="68.73091389081242" lon="17.25010555779973" id="-37936">
		<tag k="name" v="Øvrehalsan" />
=======
	<node id="-856689" lat="68.7677694468" lon="17.2948750054">
		<tag k="fixme" v="consider natural=peak for the most distinct mountains in the district" />
		<tag k="name" v="Storfløya" />
>>>>>>> e1d4bc35ff8a6074a6f2e91616a996b547c36f15
		<tag k="natural" v="hill" />
		<tag k="place" v="locality" />
		<tag k="ssr:stedsnr" v="353407" />
	</node>
<<<<<<< HEAD
	<node lat="68.7270111129725" lon="17.319819440538826" id="-37939">
		<tag k="name" v="Perbulian" />
		<tag k="natural" v="slope" />
=======
	<node id="-856685" lat="68.7247111094" lon="17.5061999958">
		<tag k="name" v="Skifteaksla" />
>>>>>>> e1d4bc35ff8a6074a6f2e91616a996b547c36f15
		<tag k="place" v="locality" />
		<tag k="ssr:stedsnr" v="353422" />
	</node>
<<<<<<< HEAD
	<node lat="68.71842222240963" lon="17.395805543788317" id="-37940">
		<tag k="name" v="Bjørnhågen" />
		<tag k="natural" v="hill" />
		<tag k="place" v="locality" />
		<tag k="ssr:stedsnr" v="354455" />
	</node>
	<node lat="68.73025833281942" lon="17.485466666415025" id="-37942">
		<tag k="fixme" v="consider natural=peak for the most distinct mountains in the district" />
		<tag k="name" v="Svartfjellet" />
		<tag k="natural" v="hill" />
=======
	<node id="-856680" lat="68.7697138889" lon="17.3036111111">
		<tag k="fixme" v="consider natural=peak for the most distinct mountains in the district" />
		<tag k="name" v="Storfløyta" />
		<tag k="natural" v="hill" />
		<tag k="place" v="locality" />
		<tag k="ssr:stedsnr" v="563962" />
	</node>
	<node id="-856675" lat="68.714658331" lon="17.4809750014">
		<tag k="name" v="Ingerdalen" />
		<tag k="natural" v="valley" />
		<tag k="place" v="locality" />
		<tag k="ssr:stedsnr" v="563565" />
	</node>
	<node id="-856673" lat="68.6838055542" lon="17.5753222173">
		<tag k="name" v="Donseflaten" />
		<tag k="natural" v="slope" />
>>>>>>> e1d4bc35ff8a6074a6f2e91616a996b547c36f15
		<tag k="place" v="locality" />
		<tag k="ssr:stedsnr" v="475257" />
	</node>
<<<<<<< HEAD
	<node lat="68.79433610863263" lon="17.363750009542887" id="-37943">
		<tag k="name" v="Hans-Olaihågen" />
		<tag k="natural" v="hill" />
=======
	<node id="-856671" lat="68.6965388915" lon="17.5920194398">
		<tag k="name" v="Årsteinlian" />
		<tag k="natural" v="slope" />
>>>>>>> e1d4bc35ff8a6074a6f2e91616a996b547c36f15
		<tag k="place" v="locality" />
		<tag k="ssr:stedsnr" v="475280" />
	</node>
<<<<<<< HEAD
	<node lat="68.80648610902345" lon="17.428063890124136" id="-37944">
		<tag k="fixme" v="consider natural=peak for the most distinct mountains in the district" />
		<tag k="name" v="Slettkollen" />
=======
	<node id="-856669" lat="68.61997778" lon="17.7131527874">
		<tag k="name" v="Roasmeberget" />
>>>>>>> e1d4bc35ff8a6074a6f2e91616a996b547c36f15
		<tag k="natural" v="hill" />
		<tag k="place" v="locality" />
		<tag k="ssr:stedsnr" v="475283" />
	</node>
<<<<<<< HEAD
	<node lat="68.67137500158033" lon="17.651211104012773" id="-37946">
		<tag k="alt_name" v="Elveneshaugen" />
		<tag k="name" v="Elveneshågen" />
=======
	<node id="-856668" lat="68.6115777754" lon="17.5691222289">
		<tag k="fixme" v="consider natural=peak for the most distinct mountains in the district" />
		<tag k="name" v="Rundfjellet - Geahčovárri" />
		<tag k="name:no" v="Rundfjellet" />
		<tag k="name:se" v="Geahčovárri" />
>>>>>>> e1d4bc35ff8a6074a6f2e91616a996b547c36f15
		<tag k="natural" v="hill" />
		<tag k="place" v="locality" />
		<tag k="ssr:stedsnr" v="475293" />
	</node>
<<<<<<< HEAD
	<node lat="68.66370277833738" lon="17.663783320519066" id="-37948">
		<tag k="name" v="Høgda" />
=======
	<node id="-856667" lat="68.6834222223" lon="17.595086107">
		<tag k="name" v="Garnhollberget" />
>>>>>>> e1d4bc35ff8a6074a6f2e91616a996b547c36f15
		<tag k="natural" v="hill" />
		<tag k="place" v="locality" />
		<tag k="ssr:stedsnr" v="475329" />
	</node>
<<<<<<< HEAD
	<node lat="68.64531666305324" lon="17.71575278060733" id="-37951">
		<tag k="name" v="Beinberget" />
=======
	<node id="-856665" lat="68.6834333373" lon="17.582086104">
		<tag k="name" v="Hesthågen" />
>>>>>>> e1d4bc35ff8a6074a6f2e91616a996b547c36f15
		<tag k="natural" v="hill" />
		<tag k="place" v="locality" />
		<tag k="ssr:stedsnr" v="475394" />
	</node>
<<<<<<< HEAD
	<node lat="68.6741305597259" lon="17.479302769857345" id="-37954">
		<tag k="name" v="Krokan" />
=======
	<node id="-856663" lat="68.6596583298" lon="17.5191222131">
		<tag k="name" v="Spadebakken" />
>>>>>>> e1d4bc35ff8a6074a6f2e91616a996b547c36f15
		<tag k="natural" v="slope" />
		<tag k="place" v="locality" />
		<tag k="ssr:stedsnr" v="475444" />
	</node>
<<<<<<< HEAD
	<node lat="68.71740833279947" lon="17.397769438743627" id="-37955">
		<tag k="name" v="Vedhågen" />
		<tag k="natural" v="hill" />
=======
	<node id="-856661" lat="68.7950166648" lon="17.3945861057">
		<tag k="name" v="Grindbakken" />
		<tag k="natural" v="slope" />
>>>>>>> e1d4bc35ff8a6074a6f2e91616a996b547c36f15
		<tag k="place" v="locality" />
		<tag k="ssr:stedsnr" v="475445" />
	</node>
<<<<<<< HEAD
	<node lat="68.72016666854594" lon="17.47055555812481" id="-37956">
		<tag k="fixme" v="consider natural=peak for the most distinct mountains in the district" />
		<tag k="name" v="Geitryggen" />
=======
	<node id="-856660" lat="68.6967166708" lon="17.4276833308">
		<tag k="name" v="Linberget" />
>>>>>>> e1d4bc35ff8a6074a6f2e91616a996b547c36f15
		<tag k="natural" v="hill" />
		<tag k="place" v="locality" />
		<tag k="ssr:stedsnr" v="475449" />
	</node>
<<<<<<< HEAD
	<node lat="68.65982222221966" lon="17.683677776349136" id="-37958">
		<tag k="name" v="Storbakken" />
		<tag k="natural" v="slope" />
=======
	<node id="-856659" lat="68.7034444476" lon="17.5096888761">
		<tag k="name" v="Godbærmoen" />
>>>>>>> e1d4bc35ff8a6074a6f2e91616a996b547c36f15
		<tag k="place" v="locality" />
		<tag k="ssr:stedsnr" v="381602" />
	</node>
<<<<<<< HEAD
	<node lat="68.63225277814726" lon="17.769949990937906" id="-37960">
		<tag k="name" v="Holtåsbotn - Skáidegohpi" />
		<tag k="name:no" v="Holtåsbotn" />
		<tag k="name:se" v="Skáidegohpi" />
		<tag k="natural" v="valley" />
=======
	<node id="-856657" lat="68.7351777732" lon="17.4909833376">
		<tag k="name" v="Trangskogsletta" />
>>>>>>> e1d4bc35ff8a6074a6f2e91616a996b547c36f15
		<tag k="place" v="locality" />
		<tag k="ssr:stedsnr" v="382517" />
	</node>
<<<<<<< HEAD
	<node lat="68.7244583315405" lon="17.20124722965155" id="-37963">
		<tag k="name" v="Flateberget" />
=======
	<node id="-856656" lat="68.723183336" lon="17.3487499981">
		<tag k="name" v="Svartberget" />
>>>>>>> e1d4bc35ff8a6074a6f2e91616a996b547c36f15
		<tag k="natural" v="hill" />
		<tag k="place" v="locality" />
		<tag k="ssr:stedsnr" v="414403" />
	</node>
<<<<<<< HEAD
	<node lat="68.74496388506154" lon="17.321438879061837" id="-37964">
		<tag k="name" v="Skredholla" />
		<tag k="natural" v="valley" />
=======
	<node id="-856655" lat="68.7350361129" lon="17.290641677">
		<tag k="name" v="Teisteberget" />
		<tag k="natural" v="hill" />
>>>>>>> e1d4bc35ff8a6074a6f2e91616a996b547c36f15
		<tag k="place" v="locality" />
		<tag k="ssr:stedsnr" v="414385" />
	</node>
	<node lat="68.66481388552756" lon="17.65866388376763" id="-37968">
		<tag k="name" v="Klokkarbakkan" />
		<tag k="natural" v="slope" />
		<tag k="place" v="locality" />
		<tag k="ssr:stedsnr" v="415342" />
	</node>
<<<<<<< HEAD
	<node lat="68.69526388828247" lon="17.41573056305654" id="-37970">
=======
	<node id="-856649" lat="68.6952638883" lon="17.4157305631">
>>>>>>> e1d4bc35ff8a6074a6f2e91616a996b547c36f15
		<tag k="name" v="Grønlia" />
		<tag k="natural" v="slope" />
		<tag k="place" v="locality" />
		<tag k="ssr:stedsnr" v="415505" />
	</node>
<<<<<<< HEAD
	<node lat="68.65329166437455" lon="17.63155278640979" id="-37973">
		<tag k="name" v="Tuva" />
=======
	<node id="-856648" lat="68.7077083335" lon="17.4901916744">
		<tag k="name" v="Orrhågen" />
>>>>>>> e1d4bc35ff8a6074a6f2e91616a996b547c36f15
		<tag k="natural" v="hill" />
		<tag k="place" v="locality" />
		<tag k="ssr:stedsnr" v="442600" />
	</node>
<<<<<<< HEAD
	<node lat="68.62468611094451" lon="17.70373332234509" id="-37975">
		<tag k="name" v="Stuoraváráš" />
		<tag k="name:se" v="Stuoraváráš" />
		<tag k="natural" v="hill" />
		<tag k="old_name:se" v="Stuorvaraš" />
		<tag k="place" v="locality" />
		<tag k="ssr:stedsnr" v="443504" />
	</node>
	<node lat="68.73536111049323" lon="17.494961119697514" id="-37976">
		<tag k="fixme" v="multiple name tags, choose one and add the other to alt_name" />
		<tag k="name" v="Stordalen;Hesjebergdalen" />
=======
	<node id="-856645" lat="68.6659611145" lon="17.7743138994">
		<tag k="name" v="Fjelldalen" />
>>>>>>> e1d4bc35ff8a6074a6f2e91616a996b547c36f15
		<tag k="natural" v="valley" />
		<tag k="place" v="locality" />
		<tag k="ssr:stedsnr" v="443936" />
	</node>
<<<<<<< HEAD
	<node lat="68.68249444609005" lon="17.445477788131793" id="-37978">
		<tag k="name" v="Øyhalsen" />
		<tag k="natural" v="valley" />
=======
	<node id="-856643" lat="68.7463361105" lon="17.5216666674">
		<tag k="name" v="Grønnfjellia" />
		<tag k="natural" v="slope" />
>>>>>>> e1d4bc35ff8a6074a6f2e91616a996b547c36f15
		<tag k="place" v="locality" />
		<tag k="ssr:stedsnr" v="454150" />
	</node>
<<<<<<< HEAD
	<node lat="68.72689722463912" lon="17.224691662156577" id="-37979">
		<tag k="name" v="Smålian" />
=======
	<node id="-856642" lat="68.6648138855" lon="17.6586638838">
		<tag k="name" v="Klokkarbakkan" />
>>>>>>> e1d4bc35ff8a6074a6f2e91616a996b547c36f15
		<tag k="natural" v="slope" />
		<tag k="place" v="locality" />
		<tag k="ssr:stedsnr" v="474410" />
	</node>
<<<<<<< HEAD
	<node lat="68.73510555675102" lon="17.282097226471567" id="-37980">
		<tag k="name" v="Høyberget" />
=======
	<node id="-856640" lat="68.6662722183" lon="17.5287638854">
		<tag k="name" v="Lyshøgda" />
>>>>>>> e1d4bc35ff8a6074a6f2e91616a996b547c36f15
		<tag k="natural" v="hill" />
		<tag k="place" v="locality" />
		<tag k="ssr:stedsnr" v="474419" />
	</node>
<<<<<<< HEAD
	<node lat="68.7278361142834" lon="17.280908320343542" id="-37982">
		<tag k="name" v="Lemman" />
=======
	<node id="-856636" lat="68.7686777759" lon="17.2799916535">
		<tag k="name" v="Brekka" />
>>>>>>> e1d4bc35ff8a6074a6f2e91616a996b547c36f15
		<tag k="natural" v="hill" />
		<tag k="place" v="locality" />
		<tag k="ssr:stedsnr" v="474422" />
	</node>
<<<<<<< HEAD
	<node lat="68.7270444434157" lon="17.3173777752324" id="-37984">
		<tag k="name" v="Skarvberget" />
		<tag k="natural" v="hill" />
		<tag k="place" v="locality" />
		<tag k="ssr:stedsnr" v="474430" />
	</node>
	<node lat="68.72459166500599" lon="17.32475834082581" id="-37985">
		<tag k="name" v="Åmundhøgda" />
=======
	<node id="-856635" lat="68.7244583315" lon="17.2012472297">
		<tag k="name" v="Flateberget" />
		<tag k="natural" v="hill" />
		<tag k="place" v="locality" />
		<tag k="ssr:stedsnr" v="414403" />
	</node>
	<node id="-856633" lat="68.7449638851" lon="17.3214388791">
		<tag k="name" v="Skredholla" />
		<tag k="natural" v="valley" />
		<tag k="place" v="locality" />
		<tag k="ssr:stedsnr" v="414385" />
	</node>
	<node id="-856632" lat="68.7349027775" lon="17.2759944398">
		<tag k="name" v="Hesteberget" />
>>>>>>> e1d4bc35ff8a6074a6f2e91616a996b547c36f15
		<tag k="natural" v="hill" />
		<tag k="place" v="locality" />
		<tag k="ssr:stedsnr" v="474431" />
	</node>
<<<<<<< HEAD
	<node lat="68.7561083370589" lon="17.313619434553424" id="-37986">
		<tag k="name" v="Fjellvad" />
=======
	<node id="-856631" lat="68.7119333313" lon="17.3369222283">
		<tag k="name" v="Kvitebergan" />
>>>>>>> e1d4bc35ff8a6074a6f2e91616a996b547c36f15
		<tag k="natural" v="hill" />
		<tag k="place" v="locality" />
		<tag k="ssr:stedsnr" v="474383" />
	</node>
<<<<<<< HEAD
	<node lat="68.81549444604866" lon="17.44639167742998" id="-37987">
		<tag k="name" v="Geitholla" />
=======
	<node id="-856629" lat="68.8146444457" lon="17.4305194421">
		<tag k="name" v="Ressholla" />
>>>>>>> e1d4bc35ff8a6074a6f2e91616a996b547c36f15
		<tag k="natural" v="valley" />
		<tag k="place" v="locality" />
		<tag k="ssr:stedsnr" v="475305" />
	</node>
<<<<<<< HEAD
	<node lat="68.6980805583921" lon="17.3739277740277" id="-37990">
		<tag k="name" v="Vasslian" />
=======
	<node id="-856628" lat="68.8154111117" lon="17.4214472165">
		<tag k="name" v="Steinbakken" />
>>>>>>> e1d4bc35ff8a6074a6f2e91616a996b547c36f15
		<tag k="natural" v="slope" />
		<tag k="place" v="locality" />
		<tag k="ssr:stedsnr" v="475460" />
	</node>
<<<<<<< HEAD
	<node lat="68.70088611481377" lon="17.397108333016995" id="-37991">
		<tag k="fixme" v="consider natural=peak for the most distinct mountains in the district" />
		<tag k="name" v="Heibrunen" />
		<tag k="natural" v="hill" />
=======
	<node id="-856623" lat="68.6611361136" lon="17.5545999925">
		<tag k="name" v="Botnan" />
		<tag k="natural" v="valley" />
>>>>>>> e1d4bc35ff8a6074a6f2e91616a996b547c36f15
		<tag k="place" v="locality" />
		<tag k="ssr:stedsnr" v="475466" />
	</node>
<<<<<<< HEAD
	<node lat="68.60732222570107" lon="17.77025000791009" id="-37995">
		<tag k="name" v="Leigasskaret" />
=======
	<node id="-856622" lat="68.6477583379" lon="17.343377772">
		<tag k="name" v="Rivttákáidi" />
		<tag k="name:se" v="Rivttákáidi" />
>>>>>>> e1d4bc35ff8a6074a6f2e91616a996b547c36f15
		<tag k="natural" v="valley" />
		<tag k="place" v="locality" />
		<tag k="ssr:stedsnr" v="503529" />
	</node>
<<<<<<< HEAD
	<node lat="68.64452499678644" lon="17.783697210772438" id="-37999">
		<tag k="name" v="Loapmi" />
		<tag k="name:se" v="Loapmi" />
		<tag k="old_name:se" v="Loabmi" />
=======
	<node id="-856620" lat="68.7175499989" lon="17.2884555637">
		<tag k="fixme" v="consider natural=peak for the most distinct mountains in the district" />
		<tag k="name" v="Tverrfjellet" />
		<tag k="natural" v="hill" />
>>>>>>> e1d4bc35ff8a6074a6f2e91616a996b547c36f15
		<tag k="place" v="locality" />
		<tag k="ssr:stedsnr" v="503482" />
	</node>
<<<<<<< HEAD
	<node lat="68.64600277894043" lon="17.660225006368893" id="-38001">
		<tag k="name" v="Kjølen" />
		<tag k="natural" v="hill" />
		<tag k="place" v="locality" />
		<tag k="ssr:stedsnr" v="503484" />
	</node>
	<node lat="68.77756944800446" lon="17.46864445005291" id="-38002">
		<tag k="name" v="Nebbergan" />
		<tag k="natural" v="hill" />
=======
	<node id="-856619" lat="68.7267638925" lon="17.5117694338">
		<tag k="name" v="Hoaŋka" />
		<tag k="name:se" v="Hoaŋka" />
		<tag k="natural" v="hill" />
		<tag k="place" v="locality" />
		<tag k="ssr:stedsnr" v="382940" />
	</node>
	<node id="-856618" lat="68.6322527781" lon="17.7699499909">
		<tag k="name" v="Holtåsbotn - Skáidegohpi" />
		<tag k="name:no" v="Holtåsbotn" />
		<tag k="name:se" v="Skáidegohpi" />
		<tag k="natural" v="valley" />
		<tag k="place" v="locality" />
		<tag k="ssr:stedsnr" v="382517" />
	</node>
	<node id="-856614" lat="68.716152778" lon="17.4252305422">
		<tag k="name" v="Daumannshola" />
		<tag k="natural" v="valley" />
>>>>>>> e1d4bc35ff8a6074a6f2e91616a996b547c36f15
		<tag k="place" v="locality" />
		<tag k="ssr:stedsnr" v="503669" />
	</node>
<<<<<<< HEAD
	<node lat="68.73503611286324" lon="17.29064167695108" id="-38020">
		<tag k="name" v="Teisteberget" />
=======
	<node id="-856612" lat="68.68803889" lon="17.7944472136">
		<tag k="fixme" v="consider natural=peak for the most distinct mountains in the district" />
		<tag k="name" v="Slettfjellet" />
>>>>>>> e1d4bc35ff8a6074a6f2e91616a996b547c36f15
		<tag k="natural" v="hill" />
		<tag k="place" v="locality" />
		<tag k="ssr:stedsnr" v="535417" />
	</node>
<<<<<<< HEAD
	<node lat="68.79501666483698" lon="17.394586105736636" id="-38022">
		<tag k="name" v="Grindbakken" />
=======
	<node id="-856609" lat="68.6954833301" lon="17.3894472182">
		<tag k="name" v="Kirstiheimbakken" />
>>>>>>> e1d4bc35ff8a6074a6f2e91616a996b547c36f15
		<tag k="natural" v="slope" />
		<tag k="place" v="locality" />
		<tag k="ssr:stedsnr" v="536270" />
	</node>
<<<<<<< HEAD
	<node lat="68.66205833126973" lon="17.41503056407006" id="-38023">
		<tag k="name" v="Talggrøtbergan" />
=======
	<node id="-856608" lat="68.7184222224" lon="17.3958055438">
		<tag k="name" v="Bjørnhågen" />
>>>>>>> e1d4bc35ff8a6074a6f2e91616a996b547c36f15
		<tag k="natural" v="hill" />
		<tag k="place" v="locality" />
		<tag k="ssr:stedsnr" v="536422" />
	</node>
<<<<<<< HEAD
	<node lat="68.72471110941629" lon="17.506199995765165" id="-38027">
		<tag k="name" v="Skifteaksla" />
=======
	<node id="-856605" lat="68.6533805531" lon="17.6443749896">
		<tag k="name" v="Bardejorda" />
		<tag k="natural" v="slope" />
>>>>>>> e1d4bc35ff8a6074a6f2e91616a996b547c36f15
		<tag k="place" v="locality" />
		<tag k="ssr:stedsnr" v="573598" />
	</node>
<<<<<<< HEAD
	<node lat="68.76776944677081" lon="17.294875005445043" id="-38033">
		<tag k="fixme" v="consider natural=peak for the most distinct mountains in the district" />
		<tag k="name" v="Storfløya" />
=======
	<node id="-856604" lat="68.6948083318" lon="17.5864861168">
		<tag k="name" v="Sveberget" />
>>>>>>> e1d4bc35ff8a6074a6f2e91616a996b547c36f15
		<tag k="natural" v="hill" />
		<tag k="place" v="locality" />
		<tag k="ssr:stedsnr" v="596362" />
	</node>
<<<<<<< HEAD
	<node lat="68.68240555609" lon="17.33386389123495" id="-38034">
		<tag k="fixme" v="consider natural=peak for the most distinct mountains in the district" />
		<tag k="name" v="Ranen" />
		<tag k="natural" v="hill" />
=======
	<node id="-856603" lat="68.6952861126" lon="17.5763722145">
		<tag k="name" v="Småsvean" />
		<tag k="natural" v="slope" />
>>>>>>> e1d4bc35ff8a6074a6f2e91616a996b547c36f15
		<tag k="place" v="locality" />
		<tag k="ssr:stedsnr" v="596365" />
	</node>
<<<<<<< HEAD
	<node lat="68.71138333092478" lon="17.42004166919747" id="-38035">
		<tag k="name" v="Henrikskaret" />
		<tag k="natural" v="valley" />
		<tag k="place" v="locality" />
		<tag k="ssr:stedsnr" v="596416" />
	</node>
	<node lat="68.72131667074679" lon="17.404416662244046" id="-38036">
		<tag k="name" v="Grindtøhågen" />
=======
	<node id="-856601" lat="68.8177277785" lon="17.4433138806">
		<tag k="name" v="Svaberget" />
>>>>>>> e1d4bc35ff8a6074a6f2e91616a996b547c36f15
		<tag k="natural" v="hill" />
		<tag k="place" v="locality" />
		<tag k="ssr:stedsnr" v="596417" />
	</node>
<<<<<<< HEAD
	<node lat="68.75053611385752" lon="17.4031416661467" id="-38037">
		<tag k="name" v="Nattmålshågen" />
=======
	<node id="-856600" lat="68.7398305525" lon="17.4691250014">
		<tag k="name" v="Blomhågen" />
>>>>>>> e1d4bc35ff8a6074a6f2e91616a996b547c36f15
		<tag k="natural" v="hill" />
		<tag k="place" v="locality" />
		<tag k="ssr:stedsnr" v="596451" />
	</node>
<<<<<<< HEAD
	<node lat="68.68734166519984" lon="17.649130550279747" id="-38038">
		<tag k="name" v="Smålian" />
=======
	<node id="-856598" lat="68.727011113" lon="17.3198194405">
		<tag k="name" v="Perbulian" />
>>>>>>> e1d4bc35ff8a6074a6f2e91616a996b547c36f15
		<tag k="natural" v="slope" />
		<tag k="place" v="locality" />
		<tag k="ssr:stedsnr" v="597352" />
	</node>
<<<<<<< HEAD
	<node lat="68.66974166345513" lon="17.76536388884502" id="-38041">
		<tag k="name" v="Finnesletta" />
=======
	<node id="-856595" lat="68.7309138908" lon="17.2501055578">
		<tag k="name" v="Øvrehalsan" />
		<tag k="natural" v="hill" />
>>>>>>> e1d4bc35ff8a6074a6f2e91616a996b547c36f15
		<tag k="place" v="locality" />
		<tag k="ssr:stedsnr" v="624610" />
	</node>
<<<<<<< HEAD
	<node lat="68.74287499815192" lon="17.43313054220485" id="-38046">
		<tag k="name" v="Brattberget" />
		<tag k="natural" v="hill" />
=======
	<node id="-856589" lat="68.6806166651" lon="17.3313138953">
		<tag k="name" v="Girkoláhku" />
		<tag k="name:se" v="Girkoláhku" />
		<tag k="natural" v="slope" />
>>>>>>> e1d4bc35ff8a6074a6f2e91616a996b547c36f15
		<tag k="place" v="locality" />
		<tag k="ssr:stedsnr" v="635826" />
	</node>
<<<<<<< HEAD
	<node lat="68.72576389270306" lon="17.234438895968953" id="-38048">
=======
	<node id="-856587" lat="68.7226416653" lon="17.2388499892">
>>>>>>> e1d4bc35ff8a6074a6f2e91616a996b547c36f15
		<tag k="fixme" v="consider natural=peak for the most distinct mountains in the district" />
		<tag k="name" v="Skjærvikflogan" />
		<tag k="natural" v="hill" />
		<tag k="place" v="locality" />
		<tag k="ssr:stedsnr" v="656388" />
	</node>
<<<<<<< HEAD
	<node lat="68.7997500001432" lon="17.383566656798934" id="-38049">
		<tag k="name" v="Bergholla" />
		<tag k="natural" v="valley" />
=======
	<node id="-856585" lat="68.763324997" lon="17.3299388826">
		<tag k="fixme" v="consider natural=peak for the most distinct mountains in the district" />
		<tag k="name" v="Blåfjellet" />
		<tag k="natural" v="hill" />
>>>>>>> e1d4bc35ff8a6074a6f2e91616a996b547c36f15
		<tag k="place" v="locality" />
		<tag k="ssr:stedsnr" v="657290" />
	</node>
<<<<<<< HEAD
	<node lat="68.76674167001237" lon="17.36629167018523" id="-38050">
		<tag k="name" v="Skarbotn" />
		<tag k="natural" v="valley" />
=======
	<node id="-856583" lat="68.8009500046" lon="17.4354527698">
		<tag k="fixme" v="consider natural=peak for the most distinct mountains in the district" />
		<tag k="name" v="Selneskollen" />
		<tag k="natural" v="hill" />
>>>>>>> e1d4bc35ff8a6074a6f2e91616a996b547c36f15
		<tag k="place" v="locality" />
		<tag k="ssr:stedsnr" v="657293" />
	</node>
<<<<<<< HEAD
	<node lat="68.63758333240557" lon="17.73990278229363" id="-38052">
		<tag k="name" v="Gjerdehaugen" />
=======
	<node id="-856581" lat="68.6514500011" lon="17.7559861075">
		<tag k="name" v="Storhaugen" />
>>>>>>> e1d4bc35ff8a6074a6f2e91616a996b547c36f15
		<tag k="natural" v="hill" />
		<tag k="place" v="locality" />
		<tag k="ssr:stedsnr" v="657392" />
	</node>
<<<<<<< HEAD
	<node lat="68.74972499942768" lon="17.42477499893649" id="-38053">
		<tag k="name" v="Lokkhåglia" />
		<tag k="natural" v="slope" />
=======
	<node id="-856579" lat="68.6510388857" lon="17.6661583327">
		<tag k="name" v="Tverrelvsletta" />
>>>>>>> e1d4bc35ff8a6074a6f2e91616a996b547c36f15
		<tag k="place" v="locality" />
		<tag k="ssr:stedsnr" v="657505" />
	</node>
<<<<<<< HEAD
	<node lat="68.7467972225482" lon="17.4286861156761" id="-38054">
		<tag k="name" v="Lokkhågen" />
=======
	<node id="-856578" lat="68.6622055536" lon="17.4543388835">
		<tag k="fixme" v="consider natural=peak for the most distinct mountains in the district" />
		<tag k="name" v="Middagsfjellet" />
>>>>>>> e1d4bc35ff8a6074a6f2e91616a996b547c36f15
		<tag k="natural" v="hill" />
		<tag k="place" v="locality" />
		<tag k="ssr:stedsnr" v="657501" />
	</node>
<<<<<<< HEAD
	<node lat="68.62597222296114" lon="17.622836114621318" id="-38055">
		<tag k="name" v="Høgebakken" />
		<tag k="natural" v="slope" />
		<tag k="place" v="locality" />
		<tag k="ssr:stedsnr" v="685491" />
	</node>
	<node lat="68.61915833567345" lon="17.722277780819592" id="-38056">
		<tag k="fixme" v="consider natural=peak for the most distinct mountains in the district" />
		<tag k="name" v="Roašmi" />
		<tag k="name:se" v="Roašmi" />
=======
	<node id="-856576" lat="68.7041305589" lon="17.5236361186">
		<tag k="name" v="Storhågen" />
>>>>>>> e1d4bc35ff8a6074a6f2e91616a996b547c36f15
		<tag k="natural" v="hill" />
		<tag k="place" v="locality" />
		<tag k="ssr:stedsnr" v="685545" />
	</node>
<<<<<<< HEAD
	<node lat="68.76975833566796" lon="17.325930549615293" id="-38058">
		<tag k="fixme" v="consider natural=peak for the most distinct mountains in the district" />
		<tag k="name" v="Klubben" />
		<tag k="natural" v="hill" />
		<tag k="place" v="locality" />
		<tag k="ssr:stedsnr" v="685949" />
	</node>
	<node lat="68.65849166563493" lon="17.401200002105966" id="-38059">
		<tag k="name" v="Dudalen - Guhtovággi" />
		<tag k="name:no" v="Dudalen" />
		<tag k="name:se" v="Guhtovággi" />
=======
	<node id="-856574" lat="68.6400527803" lon="17.490519446">
		<tag k="name" v="Luossariehppi" />
		<tag k="name:se" v="Luossariehppi" />
>>>>>>> e1d4bc35ff8a6074a6f2e91616a996b547c36f15
		<tag k="natural" v="valley" />
		<tag k="place" v="locality" />
		<tag k="ssr:stedsnr" v="688990" />
	</node>
<<<<<<< HEAD
	<node lat="68.63790555439832" lon="17.441044437343727" id="-38060">
		<tag k="fixme" v="consider natural=peak for the most distinct mountains in the district" />
		<tag k="name" v="Dudalstinden - Guhtočohkka" />
		<tag k="name:no" v="Dudalstinden" />
		<tag k="name:se" v="Guhtočohkka" />
=======
	<node id="-856569" lat="68.6788055569" lon="17.440661103">
		<tag k="name" v="Hellarberget" />
>>>>>>> e1d4bc35ff8a6074a6f2e91616a996b547c36f15
		<tag k="natural" v="hill" />
		<tag k="old_name:se" v="Guttučåkka" />
		<tag k="place" v="locality" />
		<tag k="ssr:stedsnr" v="689488" />
	</node>
<<<<<<< HEAD
	<node lat="68.8193638907933" lon="17.457416653091617" id="-38063">
		<tag k="name" v="Ungsmalberget" />
=======
	<node id="-856567" lat="68.691888892" lon="17.5406194328">
		<tag k="alt_name" v="Orhaugen" />
		<tag k="name" v="Orrhågen" />
>>>>>>> e1d4bc35ff8a6074a6f2e91616a996b547c36f15
		<tag k="natural" v="hill" />
		<tag k="place" v="locality" />
		<tag k="ssr:stedsnr" v="718271" />
	</node>
<<<<<<< HEAD
	<node lat="68.67421110946964" lon="17.73785276614437" id="-38067">
		<tag k="name" v="Storsletthaugen" />
=======
	<node id="-856563" lat="68.6516944408" lon="17.6046083243">
		<tag k="fixme" v="consider natural=peak for the most distinct mountains in the district" />
		<tag k="name" v="Snaufjellet - Ruoppis" />
		<tag k="name:no" v="Snaufjellet" />
		<tag k="name:se" v="Ruoppis" />
>>>>>>> e1d4bc35ff8a6074a6f2e91616a996b547c36f15
		<tag k="natural" v="hill" />
		<tag k="place" v="locality" />
		<tag k="ssr:stedsnr" v="718379" />
	</node>
<<<<<<< HEAD
	<node lat="68.71545000115593" lon="17.50128054348642" id="-38069">
		<tag k="name" v="Småhamran" />
=======
	<node id="-856562" lat="68.6667138883" lon="17.3876500051">
		<tag k="fixme" v="consider natural=peak for the most distinct mountains in the district" />
		<tag k="name" v="Kvannto - Duolba" />
		<tag k="name:no" v="Kvannto" />
		<tag k="name:se" v="Duolba" />
>>>>>>> e1d4bc35ff8a6074a6f2e91616a996b547c36f15
		<tag k="natural" v="hill" />
		<tag k="place" v="locality" />
		<tag k="ssr:stedsnr" v="718474" />
	</node>
<<<<<<< HEAD
	<node lat="68.81777500037889" lon="17.45443610838313" id="-38071">
		<tag k="name" v="Bukkisen" />
=======
	<node id="-856558" lat="68.6942944438" lon="17.2949861178">
		<tag k="fixme" v="consider natural=peak for the most distinct mountains in the district" />
		<tag k="name" v="Sula - Girkoaivi" />
		<tag k="name:no" v="Sula" />
		<tag k="name:se" v="Girkoaivi" />
>>>>>>> e1d4bc35ff8a6074a6f2e91616a996b547c36f15
		<tag k="natural" v="hill" />
		<tag k="place" v="locality" />
		<tag k="ssr:stedsnr" v="900292" />
	</node>
<<<<<<< HEAD
	<node lat="68.633011109847" lon="17.748869441233378" id="-38072">
		<tag k="name" v="Saunesen" />
		<tag k="natural" v="hill" />
=======
	<node id="-856557" lat="68.7316499982" lon="17.4755861176">
		<tag k="name" v="Mølndalen" />
		<tag k="natural" v="valley" />
>>>>>>> e1d4bc35ff8a6074a6f2e91616a996b547c36f15
		<tag k="place" v="locality" />
		<tag k="ssr:stedsnr" v="900367" />
	</node>
<<<<<<< HEAD
	<node lat="68.76961389300594" lon="17.299027769677757" id="-38075">
		<tag k="name" v="Rishågen" />
=======
	<node id="-856556" lat="68.73803611" lon="17.3252944314">
		<tag k="alt_name" v="Ramtua;Ramtuva" />
		<tag k="name" v="Ramntuva" />
>>>>>>> e1d4bc35ff8a6074a6f2e91616a996b547c36f15
		<tag k="natural" v="hill" />
		<tag k="place" v="locality" />
		<tag k="ssr:stedsnr" v="900431" />
	</node>
<<<<<<< HEAD
	<node lat="68.71505278174376" lon="17.342386107569933" id="-38078">
		<tag k="name" v="Kviteberget" />
=======
	<node id="-856555" lat="68.6716555579" lon="17.7267416557">
		<tag k="name" v="Småbergan" />
>>>>>>> e1d4bc35ff8a6074a6f2e91616a996b547c36f15
		<tag k="natural" v="hill" />
		<tag k="place" v="locality" />
		<tag k="ssr:stedsnr" v="900391" />
	</node>
<<<<<<< HEAD
	<node lat="68.7487305543676" lon="17.299199986179293" id="-38079">
		<tag k="name" v="Liaberget" />
		<tag k="natural" v="hill" />
=======
	<node id="-856551" lat="68.6271555577" lon="17.7424916654">
		<tag k="alt_name" v="Forsejorda" />
		<tag k="name" v="Fossejorda" />
>>>>>>> e1d4bc35ff8a6074a6f2e91616a996b547c36f15
		<tag k="place" v="locality" />
		<tag k="ssr:stedsnr" v="900395" />
	</node>
<<<<<<< HEAD
	<node lat="68.72746388488851" lon="17.240241657607186" id="-38080">
		<tag k="name" v="Petterlia" />
		<tag k="natural" v="slope" />
=======
	<node id="-856548" lat="68.7120111144" lon="17.4740749942">
		<tag k="name" v="Svabergan" />
		<tag k="natural" v="hill" />
>>>>>>> e1d4bc35ff8a6074a6f2e91616a996b547c36f15
		<tag k="place" v="locality" />
		<tag k="ssr:stedsnr" v="900401" />
	</node>
<<<<<<< HEAD
	<node lat="68.7142250038112" lon="17.493091664485778" id="-38084">
		<tag k="name" v="Skjellberget" />
=======
	<node id="-856547" lat="68.6841972225" lon="17.6794972106">
		<tag k="name" v="Kristenhågen" />
>>>>>>> e1d4bc35ff8a6074a6f2e91616a996b547c36f15
		<tag k="natural" v="hill" />
		<tag k="place" v="locality" />
		<tag k="ssr:stedsnr" v="900451" />
	</node>
<<<<<<< HEAD
	<node lat="68.74994722565565" lon="17.408644453743218" id="-38086">
		<tag k="name" v="Litjesletta" />
=======
	<node id="-856543" lat="68.6163444483" lon="17.5117166556">
		<tag k="name" v="Beađvaláhku" />
		<tag k="name:se" v="Beađvaláhku" />
		<tag k="old_name:se" v="Bæđvalakko" />
>>>>>>> e1d4bc35ff8a6074a6f2e91616a996b547c36f15
		<tag k="place" v="locality" />
		<tag k="ssr:stedsnr" v="900489" />
	</node>
<<<<<<< HEAD
	<node lat="68.75153055777888" lon="17.40203610652826" id="-38087">
		<tag k="name" v="Nattmålssletta" />
=======
	<node id="-856542" lat="68.7006027754" lon="17.4893999888">
		<tag k="name" v="Sjåflaten" />
>>>>>>> e1d4bc35ff8a6074a6f2e91616a996b547c36f15
		<tag k="place" v="locality" />
		<tag k="ssr:stedsnr" v="900490" />
	</node>
<<<<<<< HEAD
	<node lat="68.73656944244577" lon="17.478011095824765" id="-38088">
		<tag k="name" v="Lyshøgdbakkan" />
		<tag k="natural" v="slope" />
=======
	<node id="-856541" lat="68.708024997" lon="17.5027222135">
		<tag k="name" v="Høgebakkdalen" />
		<tag k="natural" v="valley" />
>>>>>>> e1d4bc35ff8a6074a6f2e91616a996b547c36f15
		<tag k="place" v="locality" />
		<tag k="ssr:stedsnr" v="901232" />
	</node>
<<<<<<< HEAD
	<node lat="68.62865277938539" lon="17.547505561882108" id="-38089">
		<tag k="name" v="Belvasskaret" />
		<tag k="natural" v="valley" />
=======
	<node id="-856540" lat="68.6724777811" lon="17.4431000093">
		<tag k="name" v="Falkeberget" />
		<tag k="natural" v="hill" />
>>>>>>> e1d4bc35ff8a6074a6f2e91616a996b547c36f15
		<tag k="place" v="locality" />
		<tag k="ssr:stedsnr" v="901280" />
	</node>
<<<<<<< HEAD
	<node lat="68.6536138927911" lon="17.833374999323595" id="-38093">
=======
	<node id="-856535" lat="68.6750250042" lon="17.7650555431">
>>>>>>> e1d4bc35ff8a6074a6f2e91616a996b547c36f15
		<tag k="fixme" v="consider natural=peak for the most distinct mountains in the district" />
		<tag k="loc_name:se" v="Unna Suovdi" />
		<tag k="name" v="Unna Suobddegaš - Høgtinden" />
		<tag k="name:no" v="Høgtinden" />
		<tag k="name:se" v="Unna Suobddegaš" />
		<tag k="natural" v="hill" />
		<tag k="place" v="locality" />
		<tag k="ssr:stedsnr" v="749609" />
	</node>
<<<<<<< HEAD
	<node lat="68.759441668264" lon="17.258850008929603" id="-38095">
		<tag k="alt_name" v="Høynesmoen" />
		<tag k="name" v="Høgnesmoen" />
		<tag k="place" v="locality" />
		<tag k="ssr:stedsnr" v="757913" />
	</node>
	<node lat="68.7043333297423" lon="17.490236110639124" id="-38101">
		<tag k="name" v="Gluggeporten" />
=======
	<node id="-856534" lat="68.6500472207" lon="17.6526027723">
		<tag k="name" v="Reingjerdan" />
>>>>>>> e1d4bc35ff8a6074a6f2e91616a996b547c36f15
		<tag k="natural" v="slope" />
		<tag k="place" v="locality" />
		<tag k="ssr:stedsnr" v="779467" />
	</node>
<<<<<<< HEAD
	<node lat="68.74402222055514" lon="17.375108341021722" id="-38102">
		<tag k="name" v="Moldforholla" />
		<tag k="natural" v="valley" />
		<tag k="place" v="locality" />
		<tag k="ssr:stedsnr" v="779501" />
	</node>
	<node lat="68.59696389223474" lon="17.547424996382624" id="-38103">
		<tag k="fixme" v="consider natural=peak for the most distinct mountains in the district" />
		<tag k="name" v="Lofttinden - Návstaoaivi" />
		<tag k="name:no" v="Lofttinden" />
		<tag k="name:se" v="Návstaoaivi" />
=======
	<node id="-856533" lat="68.6499750023" lon="17.662838884">
		<tag k="name" v="Middagshågen" />
>>>>>>> e1d4bc35ff8a6074a6f2e91616a996b547c36f15
		<tag k="natural" v="hill" />
		<tag k="place" v="locality" />
		<tag k="ssr:stedsnr" v="784158" />
	</node>
<<<<<<< HEAD
	<node lat="68.72514722418833" lon="17.204897229252058" id="-38106">
		<tag k="name" v="Svaberget" />
=======
	<node id="-856532" lat="68.6854333305" lon="17.5585111071">
		<tag k="name" v="Straumsneshammarn" />
>>>>>>> e1d4bc35ff8a6074a6f2e91616a996b547c36f15
		<tag k="natural" v="hill" />
		<tag k="place" v="locality" />
		<tag k="ssr:stedsnr" v="839413" />
	</node>
<<<<<<< HEAD
	<node lat="68.72526666530685" lon="17.28635278705401" id="-38107">
		<tag k="fixme" v="consider natural=peak for the most distinct mountains in the district" />
		<tag k="name" v="Tinden" />
		<tag k="natural" v="hill" />
=======
	<node id="-856531" lat="68.6740055537" lon="17.5336833238">
		<tag k="name" v="Milmarka" />
>>>>>>> e1d4bc35ff8a6074a6f2e91616a996b547c36f15
		<tag k="place" v="locality" />
		<tag k="ssr:stedsnr" v="839415" />
	</node>
<<<<<<< HEAD
	<node lat="68.8049388921121" lon="17.422041661223652" id="-38111">
=======
	<node id="-856530" lat="68.6767916654" lon="17.5726888958">
>>>>>>> e1d4bc35ff8a6074a6f2e91616a996b547c36f15
		<tag k="fixme" v="consider natural=peak for the most distinct mountains in the district" />
		<tag k="name" v="Vardefjell" />
		<tag k="natural" v="hill" />
		<tag k="place" v="locality" />
		<tag k="ssr:stedsnr" v="840277" />
	</node>
<<<<<<< HEAD
	<node lat="68.79908333194929" lon="17.40471666794267" id="-38112">
		<tag k="name" v="Bonasklubben" />
=======
	<node id="-856529" lat="68.6787638883" lon="17.574002769">
		<tag k="name" v="Ørnhammarn" />
>>>>>>> e1d4bc35ff8a6074a6f2e91616a996b547c36f15
		<tag k="natural" v="hill" />
		<tag k="place" v="locality" />
		<tag k="ssr:stedsnr" v="840278" />
	</node>
<<<<<<< HEAD
	<node lat="68.65902500297467" lon="17.712758341205035" id="-38115">
		<tag k="name" v="Grindsletta" />
=======
	<node id="-856528" lat="68.6775611083" lon="17.5371666565">
		<tag k="name" v="Tortenholla" />
		<tag k="natural" v="valley" />
>>>>>>> e1d4bc35ff8a6074a6f2e91616a996b547c36f15
		<tag k="place" v="locality" />
		<tag k="ssr:stedsnr" v="928562" />
	</node>
<<<<<<< HEAD
	<node lat="68.65246944842944" lon="17.707924994779763" id="-38116">
		<tag k="alt_name" v="Forshaugen" />
		<tag k="name" v="Fosshaugen" />
		<tag k="natural" v="hill" />
=======
	<node id="-856527" lat="68.6653388889" lon="17.5389111022">
		<tag k="name" v="Høgdeteigan" />
		<tag k="natural" v="slope" />
>>>>>>> e1d4bc35ff8a6074a6f2e91616a996b547c36f15
		<tag k="place" v="locality" />
		<tag k="ssr:stedsnr" v="928570" />
	</node>
<<<<<<< HEAD
	<node lat="68.6804388850557" lon="17.418619435015646" id="-38118">
		<tag k="name" v="Middagshågen" />
=======
	<node id="-856522" lat="68.733752778" lon="17.4638527698">
		<tag k="name" v="Kalveberget" />
>>>>>>> e1d4bc35ff8a6074a6f2e91616a996b547c36f15
		<tag k="natural" v="hill" />
		<tag k="place" v="locality" />
		<tag k="ssr:stedsnr" v="928535" />
	</node>
<<<<<<< HEAD
	<node lat="68.72001944818422" lon="17.541722231884183" id="-38124">
		<tag k="fixme" v="consider natural=peak for the most distinct mountains in the district" />
		<tag k="name" v="Svartfjellet" />
		<tag k="natural" v="hill" />
=======
	<node id="-856521" lat="68.7416861082" lon="17.4755360992">
		<tag k="name" v="Reingjerdsletta" />
>>>>>>> e1d4bc35ff8a6074a6f2e91616a996b547c36f15
		<tag k="place" v="locality" />
		<tag k="ssr:stedsnr" v="867934" />
	</node>
<<<<<<< HEAD
	<node lat="68.73227222185221" lon="17.25444444063045" id="-38129">
		<tag k="name" v="Klipa" />
=======
	<node id="-856520" lat="68.723436108" lon="17.4714861174">
		<tag k="name" v="Bukkeberget" />
>>>>>>> e1d4bc35ff8a6074a6f2e91616a996b547c36f15
		<tag k="natural" v="hill" />
		<tag k="place" v="locality" />
		<tag k="ssr:stedsnr" v="899412" />
	</node>
<<<<<<< HEAD
	<node lat="68.73047500370889" lon="17.284786110178263" id="-38131">
		<tag k="name" v="Ryggen" />
=======
	<node id="-856518" lat="68.7723944407" lon="17.2746749914">
		<tag k="name" v="Selnakken" />
>>>>>>> e1d4bc35ff8a6074a6f2e91616a996b547c36f15
		<tag k="natural" v="hill" />
		<tag k="place" v="locality" />
		<tag k="ssr:stedsnr" v="900411" />
	</node>
	<node lat="68.73381944013028" lon="17.478322225446487" id="-38134">
		<tag k="name" v="Finnesletta" />
		<tag k="place" v="locality" />
		<tag k="ssr:stedsnr" v="901261" />
	</node>
<<<<<<< HEAD
	<node lat="68.73238055838807" lon="17.282558327969124" id="-38142">
=======
	<node id="-856516" lat="68.7000416687" lon="17.3232138769">
>>>>>>> e1d4bc35ff8a6074a6f2e91616a996b547c36f15
		<tag k="fixme" v="consider natural=peak for the most distinct mountains in the district" />
		<tag k="name" v="Ramntuva" />
		<tag k="natural" v="hill" />
		<tag k="place" v="locality" />
		<tag k="ssr:stedsnr" v="960415" />
	</node>
<<<<<<< HEAD
	<node lat="68.68245277858544" lon="17.60266943190502" id="-38143">
		<tag k="name" v="Gammelheimhammarn" />
=======
	<node id="-856515" lat="68.7224472201" lon="17.2183944472">
		<tag k="fixme" v="consider natural=peak for the most distinct mountains in the district" />
		<tag k="name" v="Ørnreiret" />
>>>>>>> e1d4bc35ff8a6074a6f2e91616a996b547c36f15
		<tag k="natural" v="hill" />
		<tag k="place" v="locality" />
		<tag k="ssr:stedsnr" v="961339" />
	</node>
<<<<<<< HEAD
	<node lat="68.70216944446328" lon="17.54275278435384" id="-38144">
		<tag k="name" v="Storhågen" />
		<tag k="natural" v="hill" />
=======
	<node id="-856514" lat="68.7189305556" lon="17.2074722212">
		<tag k="name" v="Storelvdalen" />
		<tag k="natural" v="valley" />
>>>>>>> e1d4bc35ff8a6074a6f2e91616a996b547c36f15
		<tag k="place" v="locality" />
		<tag k="ssr:stedsnr" v="961344" />
	</node>
<<<<<<< HEAD
	<node lat="68.66436944666431" lon="17.514352769108008" id="-38147">
		<tag k="name" v="Moan" />
=======
	<node id="-856510" lat="68.6706250023" lon="17.4979972176">
		<tag k="name" v="Revmoa" />
>>>>>>> e1d4bc35ff8a6074a6f2e91616a996b547c36f15
		<tag k="place" v="locality" />
		<tag k="ssr:stedsnr" v="961296" />
	</node>
<<<<<<< HEAD
	<node lat="68.74654999938903" lon="17.40011388266707" id="-38148">
		<tag k="name" v="Kvigeberget" />
=======
	<node id="-856509" lat="68.6872611081" lon="17.7638555501">
		<tag k="name" v="Oreberget" />
>>>>>>> e1d4bc35ff8a6074a6f2e91616a996b547c36f15
		<tag k="natural" v="hill" />
		<tag k="place" v="locality" />
		<tag k="ssr:stedsnr" v="961489" />
	</node>
	<node lat="68.74625555947628" lon="17.44772223025675" id="-38149">
		<tag k="name" v="Mellaskaret" />
		<tag k="natural" v="valley" />
		<tag k="place" v="locality" />
		<tag k="ssr:stedsnr" v="961494" />
	</node>
<<<<<<< HEAD
	<node lat="68.66430357402523" lon="17.564645728567598" id="-38153">
=======
	<node id="-856504" lat="68.5975194427" lon="17.745861112">
>>>>>>> e1d4bc35ff8a6074a6f2e91616a996b547c36f15
		<tag k="fixme" v="consider natural=peak for the most distinct mountains in the district" />
		<tag k="name" v="Gálarápma" />
		<tag k="name:se" v="Gálarápma" />
		<tag k="natural" v="hill" />
		<tag k="place" v="locality" />
		<tag k="ssr:stedsnr" v="988989" />
	</node>
<<<<<<< HEAD
	<node lat="68.68924166388688" lon="17.693600002846825" id="-38164">
=======
	<node id="-856502" lat="68.7521638878" lon="17.5478361185">
>>>>>>> e1d4bc35ff8a6074a6f2e91616a996b547c36f15
		<tag k="fixme" v="consider natural=peak for the most distinct mountains in the district" />
		<tag k="name" v="Fjordbotnheia" />
		<tag k="natural" v="hill" />
		<tag k="place" v="locality" />
		<tag k="ssr:stedsnr" v="17581" />
	</node>
<<<<<<< HEAD
	<node lat="68.6545194419721" lon="17.739819448381137" id="-38166">
=======
	<node id="-856501" lat="68.756797223" lon="17.5136777755">
>>>>>>> e1d4bc35ff8a6074a6f2e91616a996b547c36f15
		<tag k="fixme" v="consider natural=peak for the most distinct mountains in the district" />
		<tag k="name" v="Snolke" />
		<tag k="natural" v="hill" />
		<tag k="place" v="locality" />
		<tag k="ssr:stedsnr" v="18564" />
	</node>
<<<<<<< HEAD
	<node lat="68.64473055546213" lon="17.646480544929684" id="-38170">
		<tag k="alt_name" v="Fjellbakkan" />
		<tag k="name" v="Fjellbakken" />
		<tag k="natural" v="slope" />
=======
	<node id="-856499" lat="68.6457916678" lon="17.4907472145">
		<tag k="name" v="Botnsletta" />
>>>>>>> e1d4bc35ff8a6074a6f2e91616a996b547c36f15
		<tag k="place" v="locality" />
		<tag k="ssr:stedsnr" v="18486" />
	</node>
<<<<<<< HEAD
	<node lat="68.64640833688323" lon="17.601844444149354" id="-38171">
=======
	<node id="-856497" lat="68.6337833347" lon="17.7415527851">
>>>>>>> e1d4bc35ff8a6074a6f2e91616a996b547c36f15
		<tag k="fixme" v="consider natural=peak for the most distinct mountains in the district" />
		<tag k="name" v="Varden" />
		<tag k="natural" v="hill" />
		<tag k="place" v="locality" />
		<tag k="ssr:stedsnr" v="18487" />
	</node>
<<<<<<< HEAD
	<node lat="68.66845000155577" lon="17.59699722700473" id="-38173">
=======
	<node id="-856495" lat="68.623455551" lon="17.8149916678">
>>>>>>> e1d4bc35ff8a6074a6f2e91616a996b547c36f15
		<tag k="fixme" v="consider natural=peak for the most distinct mountains in the district" />
		<tag k="name" v="Middagsfjellet" />
		<tag k="natural" v="hill" />
		<tag k="place" v="locality" />
		<tag k="ssr:stedsnr" v="18582" />
	</node>
<<<<<<< HEAD
	<node lat="68.81668055664" lon="17.43054444249103" id="-38181">
		<tag k="name" v="Resshågen" />
		<tag k="natural" v="hill" />
		<tag k="place" v="locality" />
		<tag k="ssr:stedsnr" v="49790" />
	</node>
	<node lat="68.81189722307717" lon="17.4444083251864" id="-38183">
		<tag k="name" v="Storelvklubben" />
		<tag k="natural" v="hill" />
		<tag k="place" v="locality" />
		<tag k="ssr:stedsnr" v="51312" />
	</node>
	<node lat="68.6926388860395" lon="17.545688883052275" id="-38184">
		<tag k="name" v="Skillevollen" />
=======
	<node id="-856491" lat="68.6924027757" lon="17.842952779">
		<tag k="fixme" v="consider natural=peak for the most distinct mountains in the district" />
		<tag k="name" v="Sølvfjellet" />
		<tag k="natural" v="hill" />
		<tag k="place" v="locality" />
		<tag k="ssr:stedsnr" v="138594" />
	</node>
	<node id="-856487" lat="68.743872222" lon="17.4573527672">
		<tag k="name" v="Småliskaret" />
		<tag k="natural" v="valley" />
		<tag k="place" v="locality" />
		<tag k="ssr:stedsnr" v="112296" />
	</node>
	<node id="-856486" lat="68.7376805528" lon="17.5105000032">
		<tag k="name" v="Stordalbakken" />
		<tag k="natural" v="slope" />
		<tag k="place" v="locality" />
		<tag k="ssr:stedsnr" v="112292" />
	</node>
	<node id="-856483" lat="68.6674361146" lon="17.6960527786">
		<tag k="name" v="Svartedalen" />
		<tag k="natural" v="valley" />
		<tag k="place" v="locality" />
		<tag k="ssr:stedsnr" v="112381" />
	</node>
	<node id="-856482" lat="68.707830556" lon="17.5535944321">
		<tag k="name" v="Reinveian" />
		<tag k="natural" v="hill" />
		<tag k="place" v="locality" />
		<tag k="ssr:stedsnr" v="112371" />
	</node>
	<node id="-856480" lat="68.7535861147" lon="17.5115750089">
		<tag k="name" v="Ressekoppskaret" />
		<tag k="natural" v="valley" />
		<tag k="place" v="locality" />
		<tag k="ssr:stedsnr" v="111464" />
	</node>
	<node id="-856479" lat="68.7539749971" lon="17.3980416638">
		<tag k="name" v="Kvannlia" />
		<tag k="natural" v="slope" />
>>>>>>> e1d4bc35ff8a6074a6f2e91616a996b547c36f15
		<tag k="place" v="locality" />
		<tag k="ssr:stedsnr" v="51389" />
	</node>
<<<<<<< HEAD
	<node lat="68.65743889188742" lon="17.69085832181405" id="-38185">
		<tag k="name" v="Harehaugen" />
		<tag k="natural" v="hill" />
=======
	<node id="-856478" lat="68.7015611146" lon="17.4985666566">
		<tag k="name" v="Dalebakkporten" />
		<tag k="natural" v="slope" />
>>>>>>> e1d4bc35ff8a6074a6f2e91616a996b547c36f15
		<tag k="place" v="locality" />
		<tag k="ssr:stedsnr" v="51395" />
	</node>
<<<<<<< HEAD
	<node lat="68.65937221886085" lon="17.693380542776133" id="-38186">
		<tag k="name" v="Storberget" />
=======
	<node id="-856474" lat="68.7189555593" lon="17.4037166684">
		<tag k="name" v="Bjørnskarva" />
>>>>>>> e1d4bc35ff8a6074a6f2e91616a996b547c36f15
		<tag k="natural" v="hill" />
		<tag k="place" v="locality" />
		<tag k="ssr:stedsnr" v="51396" />
	</node>
<<<<<<< HEAD
	<node lat="68.75129722303106" lon="17.374647219214296" id="-38191">
		<tag k="name" v="Keiplia" />
=======
	<node id="-856470" lat="68.7285444449" lon="17.2642750039">
		<tag k="name" v="Langebergsteigan" />
>>>>>>> e1d4bc35ff8a6074a6f2e91616a996b547c36f15
		<tag k="natural" v="slope" />
		<tag k="place" v="locality" />
		<tag k="ssr:stedsnr" v="51535" />
	</node>
<<<<<<< HEAD
	<node lat="68.74713611174778" lon="17.44514721304586" id="-38192">
=======
	<node id="-856461" lat="68.7369611071" lon="17.5962222293">
		<tag k="alt_name" v="Lavangstinden" />
>>>>>>> e1d4bc35ff8a6074a6f2e91616a996b547c36f15
		<tag k="fixme" v="consider natural=peak for the most distinct mountains in the district" />
		<tag k="name" v="Ytterkollen" />
		<tag k="natural" v="hill" />
		<tag k="place" v="locality" />
		<tag k="ssr:stedsnr" v="51540" />
	</node>
<<<<<<< HEAD
	<node lat="68.7455027748056" lon="17.456791655194333" id="-38195">
=======
	<node id="-856459" lat="68.7682916636" lon="17.5045305406">
		<tag k="alt_name" v="Holtinden" />
>>>>>>> e1d4bc35ff8a6074a6f2e91616a996b547c36f15
		<tag k="fixme" v="consider natural=peak for the most distinct mountains in the district" />
		<tag k="name" v="Innerkollen" />
		<tag k="natural" v="hill" />
		<tag k="place" v="locality" />
		<tag k="ssr:stedsnr" v="51541" />
	</node>
<<<<<<< HEAD
	<node lat="68.62882499802967" lon="17.591880540839462" id="-38203">
		<tag k="name" v="Litjevasshøgda" />
=======
	<node id="-856458" lat="68.6269499985" lon="17.8150805582">
		<tag k="fixme" v="consider natural=peak for the most distinct mountains in the district" />
		<tag k="name" v="Stortinden - Stuoračohkka" />
		<tag k="name:no" v="Stortinden" />
		<tag k="name:se" v="Stuoračohkka" />
>>>>>>> e1d4bc35ff8a6074a6f2e91616a996b547c36f15
		<tag k="natural" v="hill" />
		<tag k="place" v="locality" />
		<tag k="ssr:stedsnr" v="79481" />
	</node>
<<<<<<< HEAD
	<node lat="68.62798333179111" lon="17.486602773009707" id="-38204">
=======
	<node id="-856456" lat="68.6279833318" lon="17.486602773">
>>>>>>> e1d4bc35ff8a6074a6f2e91616a996b547c36f15
		<tag k="fixme" v="consider natural=peak for the most distinct mountains in the district" />
		<tag k="name" v="Nonstinden - Beađvačohkka" />
		<tag k="name:no" v="Nonstinden" />
		<tag k="name:se" v="Beađvačohkka" />
		<tag k="natural" v="hill" />
		<tag k="old_name:se" v="Bæđvačåkka" />
		<tag k="place" v="locality" />
		<tag k="ssr:stedsnr" v="79485" />
	</node>
<<<<<<< HEAD
	<node lat="68.7369611071224" lon="17.596222229311152" id="-38207">
		<tag k="alt_name" v="Lavangstinden" />
		<tag k="fixme" v="consider natural=peak for the most distinct mountains in the district" />
		<tag k="name" v="Storfjellet" />
=======
	<node id="-856455" lat="68.628824998" lon="17.5918805408">
		<tag k="name" v="Litjevasshøgda" />
>>>>>>> e1d4bc35ff8a6074a6f2e91616a996b547c36f15
		<tag k="natural" v="hill" />
		<tag k="place" v="locality" />
		<tag k="ssr:stedsnr" v="79923" />
	</node>
<<<<<<< HEAD
	<node lat="68.7015611145839" lon="17.498566656610542" id="-38214">
		<tag k="name" v="Dalebakkporten" />
		<tag k="natural" v="slope" />
=======
	<node id="-856454" lat="68.7541472231" lon="17.5806249877">
		<tag k="name" v="Stordalen" />
		<tag k="natural" v="valley" />
>>>>>>> e1d4bc35ff8a6074a6f2e91616a996b547c36f15
		<tag k="place" v="locality" />
		<tag k="ssr:stedsnr" v="111442" />
	</node>
<<<<<<< HEAD
	<node lat="68.75397499712533" lon="17.3980416638343" id="-38215">
		<tag k="name" v="Kvannlia" />
		<tag k="natural" v="slope" />
=======
	<node id="-856442" lat="68.7455027748" lon="17.4567916552">
		<tag k="fixme" v="consider natural=peak for the most distinct mountains in the district" />
		<tag k="name" v="Innerkollen" />
		<tag k="natural" v="hill" />
>>>>>>> e1d4bc35ff8a6074a6f2e91616a996b547c36f15
		<tag k="place" v="locality" />
		<tag k="ssr:stedsnr" v="111460" />
	</node>
<<<<<<< HEAD
	<node lat="68.753586114677" lon="17.511575008928947" id="-38216">
		<tag k="name" v="Ressekoppskaret" />
		<tag k="natural" v="valley" />
=======
	<node id="-856441" lat="68.7471361117" lon="17.445147213">
		<tag k="fixme" v="consider natural=peak for the most distinct mountains in the district" />
		<tag k="name" v="Ytterkollen" />
		<tag k="natural" v="hill" />
>>>>>>> e1d4bc35ff8a6074a6f2e91616a996b547c36f15
		<tag k="place" v="locality" />
		<tag k="ssr:stedsnr" v="111464" />
	</node>
<<<<<<< HEAD
	<node lat="68.73768055275761" lon="17.510500003195798" id="-38218">
		<tag k="name" v="Stordalbakken" />
=======
	<node id="-856440" lat="68.751297223" lon="17.3746472192">
		<tag k="name" v="Keiplia" />
>>>>>>> e1d4bc35ff8a6074a6f2e91616a996b547c36f15
		<tag k="natural" v="slope" />
		<tag k="place" v="locality" />
		<tag k="ssr:stedsnr" v="112292" />
	</node>
<<<<<<< HEAD
	<node lat="68.74387222197252" lon="17.457352767182794" id="-38219">
		<tag k="name" v="Småliskaret" />
		<tag k="natural" v="valley" />
		<tag k="place" v="locality" />
		<tag k="ssr:stedsnr" v="112296" />
	</node>
	<node lat="68.70783055595199" lon="17.55359443212321" id="-38221">
		<tag k="name" v="Reinveian" />
=======
	<node id="-856433" lat="68.7154805517" lon="17.4058888873">
		<tag k="fixme" v="consider natural=peak for the most distinct mountains in the district" />
		<tag k="name" v="Middagsfjellet" />
>>>>>>> e1d4bc35ff8a6074a6f2e91616a996b547c36f15
		<tag k="natural" v="hill" />
		<tag k="place" v="locality" />
		<tag k="ssr:stedsnr" v="112371" />
	</node>
<<<<<<< HEAD
	<node lat="68.66743611463409" lon="17.69605277855906" id="-38222">
		<tag k="name" v="Svartedalen" />
		<tag k="natural" v="valley" />
=======
	<node id="-856432" lat="68.7747888901" lon="17.3489944337">
		<tag k="name" v="Moan" />
>>>>>>> e1d4bc35ff8a6074a6f2e91616a996b547c36f15
		<tag k="place" v="locality" />
		<tag k="ssr:stedsnr" v="112381" />
	</node>
<<<<<<< HEAD
	<node lat="68.62345555100033" lon="17.814991667831073" id="-38228">
		<tag k="fixme" v="consider natural=peak for the most distinct mountains in the district" />
		<tag k="name" v="Durmålsfjellet" />
=======
	<node id="-856431" lat="68.6593722189" lon="17.6933805428">
		<tag k="name" v="Storberget" />
>>>>>>> e1d4bc35ff8a6074a6f2e91616a996b547c36f15
		<tag k="natural" v="hill" />
		<tag k="place" v="locality" />
		<tag k="ssr:stedsnr" v="139530" />
	</node>
<<<<<<< HEAD
	<node lat="68.63378333471137" lon="17.74155278510846" id="-38229">
		<tag k="fixme" v="consider natural=peak for the most distinct mountains in the district" />
		<tag k="name" v="Saunåsen" />
=======
	<node id="-856430" lat="68.6574388919" lon="17.6908583218">
		<tag k="name" v="Harehaugen" />
>>>>>>> e1d4bc35ff8a6074a6f2e91616a996b547c36f15
		<tag k="natural" v="hill" />
		<tag k="place" v="locality" />
		<tag k="ssr:stedsnr" v="139541" />
	</node>
<<<<<<< HEAD
	<node lat="68.59751944272381" lon="17.745861111977863" id="-38231">
		<tag k="fixme" v="consider natural=peak for the most distinct mountains in the district" />
		<tag k="name" v="Leigastinden - Leaiggasoaivi" />
		<tag k="name:no" v="Leigastinden" />
		<tag k="name:se" v="Leaiggasoaivi" />
		<tag k="natural" v="hill" />
		<tag k="old_name:se" v="Læigasoaivi" />
=======
	<node id="-856429" lat="68.692638886" lon="17.5456888831">
		<tag k="name" v="Skillevollen" />
>>>>>>> e1d4bc35ff8a6074a6f2e91616a996b547c36f15
		<tag k="place" v="locality" />
		<tag k="ssr:stedsnr" v="142529" />
	</node>
<<<<<<< HEAD
	<node lat="68.65456389146205" lon="17.31049443573884" id="-38232">
		<tag k="fixme" v="consider natural=peak for the most distinct mountains in the district" />
		<tag k="name" v="Oldertinden - Leaibečohkka" />
		<tag k="name:no" v="Oldertinden" />
		<tag k="name:se" v="Leaibečohkka" />
=======
	<node id="-856428" lat="68.7343472212" lon="17.5191249896">
		<tag k="name" v="Langhågen" />
>>>>>>> e1d4bc35ff8a6074a6f2e91616a996b547c36f15
		<tag k="natural" v="hill" />
		<tag k="place" v="locality" />
		<tag k="ssr:stedsnr" v="141880" />
	</node>
<<<<<<< HEAD
	<node lat="68.6706250023102" lon="17.497997217592054" id="-38235">
		<tag k="name" v="Revmoa" />
=======
	<node id="-856423" lat="68.7178138916" lon="17.3379333275">
		<tag k="name" v="Øvste skaret" />
		<tag k="natural" v="valley" />
>>>>>>> e1d4bc35ff8a6074a6f2e91616a996b547c36f15
		<tag k="place" v="locality" />
		<tag k="ssr:stedsnr" v="149728" />
	</node>
<<<<<<< HEAD
	<node lat="68.72343610802326" lon="17.47148611736821" id="-38239">
		<tag k="name" v="Bukkeberget" />
=======
	<node id="-856422" lat="68.8166805566" lon="17.4305444425">
		<tag k="name" v="Resshågen" />
>>>>>>> e1d4bc35ff8a6074a6f2e91616a996b547c36f15
		<tag k="natural" v="hill" />
		<tag k="place" v="locality" />
		<tag k="ssr:stedsnr" v="172267" />
	</node>
	<node lat="68.74168610818396" lon="17.475536099181834" id="-38240">
		<tag k="name" v="Reingjerdsletta" />
		<tag k="place" v="locality" />
		<tag k="ssr:stedsnr" v="172271" />
	</node>
<<<<<<< HEAD
	<node lat="68.70004166868112" lon="17.323213876932975" id="-38241">
=======
	<node id="-856410" lat="68.6464083369" lon="17.6018444441">
>>>>>>> e1d4bc35ff8a6074a6f2e91616a996b547c36f15
		<tag k="fixme" v="consider natural=peak for the most distinct mountains in the district" />
		<tag k="name" v="Yttersulaksla" />
		<tag k="natural" v="hill" />
		<tag k="place" v="locality" />
		<tag k="ssr:stedsnr" v="171375" />
	</node>
<<<<<<< HEAD
	<node lat="68.67502500424597" lon="17.765055543086405" id="-38243">
		<tag k="name" v="Slettfjellet" />
=======
	<node id="-856409" lat="68.6447305555" lon="17.6464805449">
		<tag k="alt_name" v="Fjellbakkan" />
		<tag k="name" v="Fjellbakken" />
>>>>>>> e1d4bc35ff8a6074a6f2e91616a996b547c36f15
		<tag k="natural" v="slope" />
		<tag k="place" v="locality" />
		<tag k="ssr:stedsnr" v="172365" />
	</node>
<<<<<<< HEAD
	<node lat="68.70802499698269" lon="17.5027222134881" id="-38247">
		<tag k="name" v="Høgebakkdalen" />
		<tag k="natural" v="valley" />
=======
	<node id="-856408" lat="68.6684500016" lon="17.596997227">
		<tag k="fixme" v="consider natural=peak for the most distinct mountains in the district" />
		<tag k="name" v="Middagsfjellet" />
		<tag k="natural" v="hill" />
>>>>>>> e1d4bc35ff8a6074a6f2e91616a996b547c36f15
		<tag k="place" v="locality" />
		<tag k="ssr:stedsnr" v="172475" />
	</node>
<<<<<<< HEAD
	<node lat="68.73375277795387" lon="17.463852769818626" id="-38248">
		<tag k="name" v="Kalveberget" />
=======
	<node id="-856406" lat="68.654519442" lon="17.7398194484">
		<tag k="fixme" v="consider natural=peak for the most distinct mountains in the district" />
		<tag k="name" v="Snolke" />
>>>>>>> e1d4bc35ff8a6074a6f2e91616a996b547c36f15
		<tag k="natural" v="hill" />
		<tag k="place" v="locality" />
		<tag k="ssr:stedsnr" v="172272" />
	</node>
<<<<<<< HEAD
	<node lat="68.68543333050557" lon="17.558511107145005" id="-38252">
		<tag k="name" v="Straumsneshammarn" />
=======
	<node id="-856403" lat="68.7048666656" lon="17.6945777633">
		<tag k="fixme" v="consider natural=peak for the most distinct mountains in the district" />
		<tag k="name" v="Hornaksla" />
>>>>>>> e1d4bc35ff8a6074a6f2e91616a996b547c36f15
		<tag k="natural" v="hill" />
		<tag k="place" v="locality" />
		<tag k="ssr:stedsnr" v="172349" />
	</node>
<<<<<<< HEAD
	<node lat="68.64997500233594" lon="17.662838884046714" id="-38253">
		<tag k="name" v="Middagshågen" />
=======
	<node id="-856402" lat="68.6892416639" lon="17.6936000028">
		<tag k="fixme" v="consider natural=peak for the most distinct mountains in the district" />
		<tag k="name" v="Fjordbotnheia" />
>>>>>>> e1d4bc35ff8a6074a6f2e91616a996b547c36f15
		<tag k="natural" v="hill" />
		<tag k="place" v="locality" />
		<tag k="ssr:stedsnr" v="172353" />
	</node>
<<<<<<< HEAD
	<node lat="68.74214722449096" lon="17.43005833935443" id="-38255">
		<tag k="name" v="Brattåsberget" />
=======
	<node id="-856398" lat="68.6299222265" lon="17.701852775">
		<tag k="name" v="Váráš" />
		<tag k="name:se" v="Váráš" />
>>>>>>> e1d4bc35ff8a6074a6f2e91616a996b547c36f15
		<tag k="natural" v="hill" />
		<tag k="place" v="locality" />
		<tag k="ssr:stedsnr" v="172524" />
	</node>
<<<<<<< HEAD
	<node lat="68.70060277543323" lon="17.4893999888361" id="-38257">
		<tag k="name" v="Sjåflaten" />
=======
	<node id="-856397" lat="68.6465722245" lon="17.7335888874">
		<tag k="name" v="Steinhaugen" />
		<tag k="natural" v="hill" />
>>>>>>> e1d4bc35ff8a6074a6f2e91616a996b547c36f15
		<tag k="place" v="locality" />
		<tag k="ssr:stedsnr" v="172498" />
	</node>
<<<<<<< HEAD
	<node lat="68.61634444826798" lon="17.51171665558938" id="-38259">
		<tag k="name" v="Beađvaláhku" />
		<tag k="name:se" v="Beađvaláhku" />
		<tag k="old_name:se" v="Bæđvalakko" />
=======
	<node id="-856395" lat="68.7322083358" lon="17.4644722149">
		<tag k="name" v="Strandhågen" />
		<tag k="natural" v="hill" />
>>>>>>> e1d4bc35ff8a6074a6f2e91616a996b547c36f15
		<tag k="place" v="locality" />
		<tag k="ssr:stedsnr" v="199547" />
	</node>
<<<<<<< HEAD
	<node lat="68.68419722254107" lon="17.67949721062903" id="-38262">
		<tag k="name" v="Kristenhågen" />
		<tag k="natural" v="hill" />
=======
	<node id="-856390" lat="68.7338194401" lon="17.4783222254">
		<tag k="name" v="Finnesletta" />
>>>>>>> e1d4bc35ff8a6074a6f2e91616a996b547c36f15
		<tag k="place" v="locality" />
		<tag k="ssr:stedsnr" v="199576" />
	</node>
<<<<<<< HEAD
	<node lat="68.71201111443175" lon="17.474074994192087" id="-38263">
		<tag k="name" v="Svabergan" />
=======
	<node id="-856387" lat="68.7304750037" lon="17.2847861102">
		<tag k="name" v="Ryggen" />
>>>>>>> e1d4bc35ff8a6074a6f2e91616a996b547c36f15
		<tag k="natural" v="hill" />
		<tag k="place" v="locality" />
		<tag k="ssr:stedsnr" v="199592" />
	</node>
<<<<<<< HEAD
	<node lat="68.66252777752655" lon="17.70377221301625" id="-38266">
		<tag k="name" v="Høgbakken" />
=======
	<node id="-856385" lat="68.6330111098" lon="17.7488694412">
		<tag k="name" v="Saunesen" />
>>>>>>> e1d4bc35ff8a6074a6f2e91616a996b547c36f15
		<tag k="natural" v="hill" />
		<tag k="place" v="locality" />
		<tag k="ssr:stedsnr" v="200605" />
	</node>
<<<<<<< HEAD
	<node lat="68.67175291280108" lon="17.726540025053456" id="-38268">
		<tag k="name" v="Småbergan" />
=======
	<node id="-856381" lat="68.7322722219" lon="17.2544444406">
		<tag k="name" v="Klipa" />
>>>>>>> e1d4bc35ff8a6074a6f2e91616a996b547c36f15
		<tag k="natural" v="hill" />
		<tag k="place" v="locality" />
		<tag k="ssr:stedsnr" v="200626" />
	</node>
<<<<<<< HEAD
	<node lat="68.62715555765443" lon="17.74249166540803" id="-38269">
		<tag k="alt_name" v="Forsejorda" />
		<tag k="name" v="Fossejorda" />
		<tag k="place" v="locality" />
		<tag k="ssr:stedsnr" v="200536" />
	</node>
	<node lat="68.73803611001689" lon="17.325294431353118" id="-38272">
		<tag k="alt_name" v="Ramtua;Ramtuva" />
		<tag k="name" v="Ramntuva" />
=======
	<node id="-856379" lat="68.7025111148" lon="17.3035277814">
		<tag k="fixme" v="consider natural=peak for the most distinct mountains in the district" />
		<tag k="name" v="Rundfjellet" />
>>>>>>> e1d4bc35ff8a6074a6f2e91616a996b547c36f15
		<tag k="natural" v="hill" />
		<tag k="place" v="locality" />
		<tag k="ssr:stedsnr" v="200882" />
	</node>
<<<<<<< HEAD
	<node lat="68.73164999817925" lon="17.475586117607083" id="-38273">
		<tag k="name" v="Mølndalen" />
		<tag k="natural" v="valley" />
=======
	<node id="-856378" lat="68.7103416647" lon="17.2501055652">
		<tag k="name" v="Hilsaláhku" />
		<tag k="name:se" v="Hilsaláhku" />
>>>>>>> e1d4bc35ff8a6074a6f2e91616a996b547c36f15
		<tag k="place" v="locality" />
		<tag k="ssr:stedsnr" v="200921" />
	</node>
<<<<<<< HEAD
	<node lat="68.69429444378086" lon="17.294986117792575" id="-38274">
		<tag k="fixme" v="consider natural=peak for the most distinct mountains in the district" />
		<tag k="name" v="Sula - Girkoaivi" />
		<tag k="name:no" v="Sula" />
		<tag k="name:se" v="Girkoaivi" />
=======
	<node id="-856374" lat="68.6974111114" lon="17.3570750097">
		<tag k="name" v="Trollhågen" />
>>>>>>> e1d4bc35ff8a6074a6f2e91616a996b547c36f15
		<tag k="natural" v="hill" />
		<tag k="place" v="locality" />
		<tag k="ssr:stedsnr" v="202537" />
	</node>
<<<<<<< HEAD
	<node lat="68.6667138883448" lon="17.387650005137097" id="-38275">
=======
	<node id="-856369" lat="68.7698222264" lon="17.2935777675">
>>>>>>> e1d4bc35ff8a6074a6f2e91616a996b547c36f15
		<tag k="fixme" v="consider natural=peak for the most distinct mountains in the district" />
		<tag k="name" v="Kvannto - Duolba" />
		<tag k="name:no" v="Kvannto" />
		<tag k="name:se" v="Duolba" />
		<tag k="natural" v="hill" />
		<tag k="place" v="locality" />
		<tag k="ssr:stedsnr" v="202988" />
	</node>
<<<<<<< HEAD
	<node lat="68.65169444078212" lon="17.60460832428561" id="-38276">
		<tag k="fixme" v="consider natural=peak for the most distinct mountains in the district" />
		<tag k="name" v="Snaufjellet - Ruoppis" />
		<tag k="name:no" v="Snaufjellet" />
		<tag k="name:se" v="Ruoppis" />
=======
	<node id="-856368" lat="68.7418583308" lon="17.4592833252">
		<tag k="name" v="Ramnfløybergan" />
>>>>>>> e1d4bc35ff8a6074a6f2e91616a996b547c36f15
		<tag k="natural" v="hill" />
		<tag k="old_name:se" v="Ruobbis" />
		<tag k="place" v="locality" />
		<tag k="ssr:stedsnr" v="203601" />
	</node>
<<<<<<< HEAD
	<node lat="68.67880555691919" lon="17.44066110298884" id="-38280">
		<tag k="name" v="Hellarberget" />
		<tag k="natural" v="hill" />
		<tag k="place" v="locality" />
		<tag k="ssr:stedsnr" v="212151" />
	</node>
	<node lat="68.75390555775367" lon="17.279494447602797" id="-38286">
		<tag k="name" v="Småveian" />
=======
	<node id="-856366" lat="68.6746277821" lon="17.689052765">
		<tag k="name" v="Smålian" />
>>>>>>> e1d4bc35ff8a6074a6f2e91616a996b547c36f15
		<tag k="natural" v="slope" />
		<tag k="place" v="locality" />
		<tag k="ssr:stedsnr" v="293432" />
	</node>
<<<<<<< HEAD
	<node lat="68.72423888466675" lon="17.303988894209482" id="-38287">
		<tag k="name" v="Skarvberglemman" />
=======
	<node id="-856365" lat="68.678822219" lon="17.4960166699">
		<tag k="name" v="Sorteberget" />
>>>>>>> e1d4bc35ff8a6074a6f2e91616a996b547c36f15
		<tag k="natural" v="hill" />
		<tag k="place" v="locality" />
		<tag k="ssr:stedsnr" v="293443" />
	</node>
<<<<<<< HEAD
	<node lat="68.67733055897033" lon="17.41658056343395" id="-38289">
		<tag k="name" v="Storforrhågen" />
=======
	<node id="-856356" lat="68.6524694484" lon="17.7079249948">
		<tag k="alt_name" v="Forshaugen" />
		<tag k="name" v="Fosshaugen" />
>>>>>>> e1d4bc35ff8a6074a6f2e91616a996b547c36f15
		<tag k="natural" v="hill" />
		<tag k="place" v="locality" />
		<tag k="ssr:stedsnr" v="293462" />
	</node>
<<<<<<< HEAD
	<node lat="68.666391670196" lon="17.509922229788845" id="-38290">
		<tag k="name" v="Nevermoen" />
=======
	<node id="-856355" lat="68.659025003" lon="17.7127583412">
		<tag k="name" v="Grindsletta" />
>>>>>>> e1d4bc35ff8a6074a6f2e91616a996b547c36f15
		<tag k="place" v="locality" />
		<tag k="ssr:stedsnr" v="293463" />
	</node>
<<<<<<< HEAD
	<node lat="68.65834167046005" lon="17.7117888882089" id="-38293">
		<tag k="name" v="Fjellhøgda" />
=======
	<node id="-856351" lat="68.6804388851" lon="17.418619435">
		<tag k="name" v="Middagshågen" />
>>>>>>> e1d4bc35ff8a6074a6f2e91616a996b547c36f15
		<tag k="natural" v="hill" />
		<tag k="place" v="locality" />
		<tag k="ssr:stedsnr" v="293399" />
	</node>
<<<<<<< HEAD
	<node lat="68.6548972219908" lon="17.707158326071433" id="-38294">
		<tag k="name" v="Storberget" />
		<tag k="natural" v="hill" />
=======
	<node id="-856349" lat="68.6776222253" lon="17.6825555645">
		<tag k="name" v="Grønnlia" />
		<tag k="natural" v="slope" />
>>>>>>> e1d4bc35ff8a6074a6f2e91616a996b547c36f15
		<tag k="place" v="locality" />
		<tag k="ssr:stedsnr" v="293400" />
	</node>
<<<<<<< HEAD
	<node lat="68.66472222565126" lon="17.829994447454208" id="-38295">
		<tag k="name" v="Jensvoll" />
=======
	<node id="-856348" lat="68.7594416683" lon="17.2588500089">
		<tag k="alt_name" v="Høynesmoen" />
		<tag k="name" v="Høgnesmoen" />
>>>>>>> e1d4bc35ff8a6074a6f2e91616a996b547c36f15
		<tag k="place" v="locality" />
		<tag k="ssr:stedsnr" v="293416" />
	</node>
<<<<<<< HEAD
	<node lat="68.723352780226" lon="17.365644433634735" id="-38296">
=======
	<node id="-856347" lat="68.7561638905" lon="17.3929194356">
>>>>>>> e1d4bc35ff8a6074a6f2e91616a996b547c36f15
		<tag k="fixme" v="consider natural=peak for the most distinct mountains in the district" />
		<tag k="name" v="Skjellorfjellet" />
		<tag k="natural" v="hill" />
		<tag k="place" v="locality" />
		<tag k="ssr:stedsnr" v="293521" />
	</node>
<<<<<<< HEAD
	<node lat="68.67680555574768" lon="17.587708334268086" id="-38297">
		<tag k="name" v="Durmålshaugen" />
		<tag k="natural" v="hill" />
=======
	<node id="-856346" lat="68.6375472205" lon="17.8093805569">
		<tag k="name" v="Lortskaret" />
		<tag k="natural" v="valley" />
>>>>>>> e1d4bc35ff8a6074a6f2e91616a996b547c36f15
		<tag k="place" v="locality" />
		<tag k="ssr:stedsnr" v="294280" />
	</node>
<<<<<<< HEAD
	<node lat="68.60679166777275" lon="17.609016672486824" id="-38298">
		<tag k="fixme" v="consider natural=peak for the most distinct mountains in the district" />
		<tag k="name" v="Storfjellet" />
=======
	<node id="-856345" lat="68.6230749991" lon="17.6744222284">
		<tag k="name" v="Mellomvasshaugen - Váráš" />
		<tag k="name:no" v="Mellomvasshaugen" />
		<tag k="name:se" v="Váráš" />
>>>>>>> e1d4bc35ff8a6074a6f2e91616a996b547c36f15
		<tag k="natural" v="hill" />
		<tag k="place" v="locality" />
		<tag k="ssr:stedsnr" v="294285" />
	</node>
<<<<<<< HEAD
	<node lat="68.73551944589227" lon="17.460191662946677" id="-38299">
		<tag k="name" v="Løslettberget" />
		<tag k="natural" v="hill" />
=======
	<node id="-856342" lat="68.6286527794" lon="17.5475055619">
		<tag k="name" v="Belvasskaret" />
		<tag k="natural" v="valley" />
>>>>>>> e1d4bc35ff8a6074a6f2e91616a996b547c36f15
		<tag k="place" v="locality" />
		<tag k="ssr:stedsnr" v="294252" />
	</node>
<<<<<<< HEAD
	<node lat="68.73979999708658" lon="17.440980558496804" id="-38300">
		<tag k="name" v="Sjåberget" />
		<tag k="natural" v="hill" />
=======
	<node id="-856341" lat="68.7365694424" lon="17.4780110958">
		<tag k="name" v="Lyshøgdbakkan" />
		<tag k="natural" v="slope" />
>>>>>>> e1d4bc35ff8a6074a6f2e91616a996b547c36f15
		<tag k="place" v="locality" />
		<tag k="ssr:stedsnr" v="294254" />
	</node>
<<<<<<< HEAD
	<node lat="68.74023889011589" lon="17.462688884553803" id="-38301">
		<tag k="name" v="Breilihågen" />
=======
	<node id="-856340" lat="68.7142250038" lon="17.4930916645">
		<tag k="name" v="Skjellberget" />
>>>>>>> e1d4bc35ff8a6074a6f2e91616a996b547c36f15
		<tag k="natural" v="hill" />
		<tag k="place" v="locality" />
		<tag k="ssr:stedsnr" v="294258" />
	</node>
<<<<<<< HEAD
	<node lat="68.68399444145798" lon="17.58523610031839" id="-38302">
		<tag k="name" v="Orhågen" />
=======
	<node id="-856339" lat="68.769613893" lon="17.2990277697">
		<tag k="name" v="Rishågen" />
>>>>>>> e1d4bc35ff8a6074a6f2e91616a996b547c36f15
		<tag k="natural" v="hill" />
		<tag k="place" v="locality" />
		<tag k="ssr:stedsnr" v="294342" />
	</node>
<<<<<<< HEAD
	<node lat="68.64005278031664" lon="17.49051944602983" id="-38304">
		<tag k="name" v="Luossariehppi" />
		<tag k="name:se" v="Luossariehppi" />
		<tag k="natural" v="valley" />
		<tag k="old_name:se" v="Luossarieppi" />
=======
	<node id="-856337" lat="68.7274638849" lon="17.2402416576">
		<tag k="name" v="Petterlia" />
		<tag k="natural" v="slope" />
>>>>>>> e1d4bc35ff8a6074a6f2e91616a996b547c36f15
		<tag k="place" v="locality" />
		<tag k="ssr:stedsnr" v="321495" />
	</node>
<<<<<<< HEAD
	<node lat="68.70413055886313" lon="17.52363611861715" id="-38306">
		<tag k="name" v="Storhågen" />
=======
	<node id="-856336" lat="68.7487305544" lon="17.2991999862">
		<tag k="name" v="Liaberget" />
>>>>>>> e1d4bc35ff8a6074a6f2e91616a996b547c36f15
		<tag k="natural" v="hill" />
		<tag k="place" v="locality" />
		<tag k="ssr:stedsnr" v="321556" />
	</node>
<<<<<<< HEAD
	<node lat="68.66220555362395" lon="17.45433888352318" id="-38308">
		<tag k="fixme" v="consider natural=peak for the most distinct mountains in the district" />
		<tag k="name" v="Middagsfjellet" />
		<tag k="natural" v="hill" />
=======
	<node id="-856335" lat="68.7515305578" lon="17.4020361065">
		<tag k="name" v="Nattmålssletta" />
>>>>>>> e1d4bc35ff8a6074a6f2e91616a996b547c36f15
		<tag k="place" v="locality" />
		<tag k="ssr:stedsnr" v="321564" />
	</node>
<<<<<<< HEAD
	<node lat="68.65103888565949" lon="17.666158332664953" id="-38309">
		<tag k="name" v="Tverrelvsletta" />
=======
	<node id="-856334" lat="68.7499472257" lon="17.4086444537">
		<tag k="name" v="Litjesletta" />
>>>>>>> e1d4bc35ff8a6074a6f2e91616a996b547c36f15
		<tag k="place" v="locality" />
		<tag k="ssr:stedsnr" v="321568" />
	</node>
<<<<<<< HEAD
	<node lat="68.6514500011068" lon="17.75598610747256" id="-38311">
		<tag k="name" v="Storhaugen" />
=======
	<node id="-856330" lat="68.7150527817" lon="17.3423861076">
		<tag k="name" v="Kviteberget" />
>>>>>>> e1d4bc35ff8a6074a6f2e91616a996b547c36f15
		<tag k="natural" v="hill" />
		<tag k="place" v="locality" />
		<tag k="ssr:stedsnr" v="321575" />
	</node>
<<<<<<< HEAD
	<node lat="68.8009500046043" lon="17.435452769750487" id="-38312">
		<tag k="fixme" v="consider natural=peak for the most distinct mountains in the district" />
		<tag k="name" v="Selneskollen" />
		<tag k="natural" v="hill" />
		<tag k="place" v="locality" />
		<tag k="ssr:stedsnr" v="321674" />
	</node>
	<node lat="68.76332499697119" lon="17.329938882593204" id="-38314">
		<tag k="fixme" v="consider natural=peak for the most distinct mountains in the district" />
		<tag k="name" v="Blåfjellet" />
		<tag k="natural" v="hill" />
=======
	<node id="-856327" lat="68.8177750004" lon="17.4544361084">
		<tag k="name" v="Bukkisen" />
		<tag k="natural" v="hill" />
		<tag k="place" v="locality" />
		<tag k="ssr:stedsnr" v="900292" />
	</node>
	<node id="-856326" lat="68.6950888912" lon="17.5150694388">
		<tag k="name" v="Stien" />
		<tag k="natural" v="slope" />
		<tag k="place" v="locality" />
		<tag k="ssr:stedsnr" v="718364" />
	</node>
	<node id="-856325" lat="68.7026027747" lon="17.5544055469">
		<tag k="name" v="Hillestien" />
		<tag k="natural" v="slope" />
		<tag k="place" v="locality" />
		<tag k="ssr:stedsnr" v="718362" />
	</node>
	<node id="-856324" lat="68.7064333318" lon="17.5157055568">
		<tag k="name" v="Tverrbakkan" />
		<tag k="natural" v="slope" />
>>>>>>> e1d4bc35ff8a6074a6f2e91616a996b547c36f15
		<tag k="place" v="locality" />
		<tag k="ssr:stedsnr" v="321985" />
	</node>
<<<<<<< HEAD
	<node lat="68.68061666513492" lon="17.331313895257914" id="-38315">
		<tag k="name" v="Girkoláhku" />
		<tag k="name:se" v="Girkoláhku" />
=======
	<node id="-856323" lat="68.7288944448" lon="17.2803249903">
		<tag k="name" v="Slettbakkan" />
>>>>>>> e1d4bc35ff8a6074a6f2e91616a996b547c36f15
		<tag k="natural" v="slope" />
		<tag k="place" v="locality" />
		<tag k="ssr:stedsnr" v="323999" />
	</node>
<<<<<<< HEAD
	<node lat="68.7226416652769" lon="17.238849989230662" id="-38317">
=======
	<node id="-856322" lat="68.7235861157" lon="17.2846749899">
>>>>>>> e1d4bc35ff8a6074a6f2e91616a996b547c36f15
		<tag k="fixme" v="consider natural=peak for the most distinct mountains in the district" />
		<tag k="name" v="Bukkespelen" />
		<tag k="natural" v="hill" />
		<tag k="place" v="locality" />
		<tag k="ssr:stedsnr" v="323966" />
	</node>
<<<<<<< HEAD
	<node lat="68.69548333013188" lon="17.389447218232686" id="-38327">
		<tag k="name" v="Kirstiheimbakken" />
=======
	<node id="-856317" lat="68.7482944486" lon="17.3016027721">
		<tag k="name" v="Grøsneslia" />
>>>>>>> e1d4bc35ff8a6074a6f2e91616a996b547c36f15
		<tag k="natural" v="slope" />
		<tag k="place" v="locality" />
		<tag k="ssr:stedsnr" v="354469" />
	</node>
<<<<<<< HEAD
	<node lat="68.73983055247966" lon="17.4691250013744" id="-38328">
		<tag k="name" v="Blomhågen" />
=======
	<node id="-856311" lat="68.7467972225" lon="17.4286861157">
		<tag k="name" v="Lokkhågen" />
>>>>>>> e1d4bc35ff8a6074a6f2e91616a996b547c36f15
		<tag k="natural" v="hill" />
		<tag k="place" v="locality" />
		<tag k="ssr:stedsnr" v="354283" />
	</node>
<<<<<<< HEAD
	<node lat="68.81772777848737" lon="17.443313880563707" id="-38329">
		<tag k="name" v="Svaberget" />
		<tag k="natural" v="hill" />
=======
	<node id="-856310" lat="68.697925001" lon="17.4122916664">
		<tag k="name" v="Foldvikskaret" />
		<tag k="natural" v="valley" />
>>>>>>> e1d4bc35ff8a6074a6f2e91616a996b547c36f15
		<tag k="place" v="locality" />
		<tag k="ssr:stedsnr" v="354289" />
	</node>
<<<<<<< HEAD
	<node lat="68.69528611261553" lon="17.576372214475516" id="-38331">
		<tag k="name" v="Småsvean" />
=======
	<node id="-856309" lat="68.7108388887" lon="17.5036805494">
		<tag k="name" v="Høgebakken" />
>>>>>>> e1d4bc35ff8a6074a6f2e91616a996b547c36f15
		<tag k="natural" v="slope" />
		<tag k="place" v="locality" />
		<tag k="ssr:stedsnr" v="354351" />
	</node>
<<<<<<< HEAD
	<node lat="68.6948083318344" lon="17.58648611678774" id="-38332">
		<tag k="name" v="Sveberget" />
		<tag k="natural" v="hill" />
		<tag k="place" v="locality" />
		<tag k="ssr:stedsnr" v="354352" />
	</node>
	<node lat="68.6533805531474" lon="17.644374989602824" id="-38333">
		<tag k="name" v="Bardejorda" />
=======
	<node id="-856308" lat="68.7079083313" lon="17.3974916566">
		<tag k="name" v="Heia" />
		<tag k="natural" v="hill" />
		<tag k="place" v="locality" />
		<tag k="ssr:stedsnr" v="657464" />
	</node>
	<node id="-856306" lat="68.6729722194" lon="17.5037333291">
		<tag k="name" v="Dalen" />
		<tag k="natural" v="valley" />
		<tag k="place" v="locality" />
		<tag k="ssr:stedsnr" v="657455" />
	</node>
	<node id="-856305" lat="68.7497249994" lon="17.4247749989">
		<tag k="name" v="Lokkhåglia" />
		<tag k="natural" v="slope" />
		<tag k="place" v="locality" />
		<tag k="ssr:stedsnr" v="657505" />
	</node>
	<node id="-856303" lat="68.7915222259" lon="17.3713333381">
		<tag k="name" v="Masterlia" />
>>>>>>> e1d4bc35ff8a6074a6f2e91616a996b547c36f15
		<tag k="natural" v="slope" />
		<tag k="place" v="locality" />
		<tag k="ssr:stedsnr" v="354363" />
	</node>
<<<<<<< HEAD
	<node lat="68.68803888998669" lon="17.794447213635905" id="-38338">
		<tag k="fixme" v="consider natural=peak for the most distinct mountains in the district" />
		<tag k="name" v="Slettfjellet" />
=======
	<node id="-856302" lat="68.7273749994" lon="17.4959444314">
		<tag k="name" v="Kjerringnesen" />
>>>>>>> e1d4bc35ff8a6074a6f2e91616a996b547c36f15
		<tag k="natural" v="hill" />
		<tag k="place" v="locality" />
		<tag k="ssr:stedsnr" v="381561" />
	</node>
<<<<<<< HEAD
	<node lat="68.7161527780267" lon="17.425230542158612" id="-38340">
		<tag k="name" v="Daumannshola" />
		<tag k="natural" v="valley" />
=======
	<node id="-856300" lat="68.6602944469" lon="17.6555888948">
		<tag k="fixme" v="consider natural=peak for the most distinct mountains in the district" />
		<tag k="name" v="Kollen" />
		<tag k="natural" v="hill" />
>>>>>>> e1d4bc35ff8a6074a6f2e91616a996b547c36f15
		<tag k="place" v="locality" />
		<tag k="ssr:stedsnr" v="381578" />
	</node>
<<<<<<< HEAD
	<node lat="68.65024166799307" lon="17.421186097228137" id="-38343">
		<tag k="name" v="Sisriehppi" />
		<tag k="name:se" v="Sisriehppi" />
		<tag k="natural" v="valley" />
		<tag k="old_name:se" v="Sisrieppi" />
=======
	<node id="-856299" lat="68.7428749982" lon="17.4331305422">
		<tag k="name" v="Brattberget" />
		<tag k="natural" v="hill" />
>>>>>>> e1d4bc35ff8a6074a6f2e91616a996b547c36f15
		<tag k="place" v="locality" />
		<tag k="ssr:stedsnr" v="381614" />
	</node>
<<<<<<< HEAD
	<node lat="68.64507222099759" lon="17.498102784008804" id="-38344">
		<tag k="name" v="Botn" />
=======
	<node id="-856295" lat="68.6930388913" lon="17.4094444541">
		<tag k="name" v="Svartdalen" />
>>>>>>> e1d4bc35ff8a6074a6f2e91616a996b547c36f15
		<tag k="natural" v="valley" />
		<tag k="place" v="locality" />
		<tag k="ssr:stedsnr" v="381618" />
	</node>
<<<<<<< HEAD
	<node lat="68.72676389248416" lon="17.511769433831176" id="-38345">
		<tag k="name" v="Hoaŋka" />
		<tag k="name:se" v="Hoaŋka" />
=======
	<node id="-856293" lat="68.7154500012" lon="17.5012805435">
		<tag k="name" v="Småhamran" />
>>>>>>> e1d4bc35ff8a6074a6f2e91616a996b547c36f15
		<tag k="natural" v="hill" />
		<tag k="place" v="locality" />
		<tag k="ssr:stedsnr" v="382940" />
	</node>
<<<<<<< HEAD
	<node lat="68.71754999887908" lon="17.288455563746503" id="-38346">
=======
	<node id="-856290" lat="68.636461111" lon="17.7712277813">
>>>>>>> e1d4bc35ff8a6074a6f2e91616a996b547c36f15
		<tag k="fixme" v="consider natural=peak for the most distinct mountains in the district" />
		<tag k="name" v="Tverrfjellet" />
		<tag k="natural" v="hill" />
		<tag k="place" v="locality" />
		<tag k="ssr:stedsnr" v="383968" />
	</node>
<<<<<<< HEAD
	<node lat="68.64775833793452" lon="17.343377772044818" id="-38348">
		<tag k="name" v="Rivttákáidi" />
		<tag k="name:se" v="Rivttákáidi" />
=======
	<node id="-856289" lat="68.6734333362" lon="17.5209444347">
		<tag k="name" v="Bjørnbåsen" />
>>>>>>> e1d4bc35ff8a6074a6f2e91616a996b547c36f15
		<tag k="natural" v="valley" />
		<tag k="place" v="locality" />
		<tag k="ssr:stedsnr" v="384242" />
	</node>
<<<<<<< HEAD
	<node lat="68.66113611362344" lon="17.55459999253129" id="-38349">
		<tag k="name" v="Botnan" />
		<tag k="natural" v="valley" />
=======
	<node id="-856285" lat="68.8193638908" lon="17.4574166531">
		<tag k="name" v="Ungsmalberget" />
		<tag k="natural" v="hill" />
>>>>>>> e1d4bc35ff8a6074a6f2e91616a996b547c36f15
		<tag k="place" v="locality" />
		<tag k="ssr:stedsnr" v="392761" />
	</node>
<<<<<<< HEAD
	<node lat="68.81541111169999" lon="17.421447216494602" id="-38352">
		<tag k="name" v="Steinbakken" />
		<tag k="natural" v="slope" />
=======
	<node id="-856284" lat="68.7941888897" lon="17.398686107">
		<tag k="name" v="Belnesgrinda" />
		<tag k="natural" v="hill" />
>>>>>>> e1d4bc35ff8a6074a6f2e91616a996b547c36f15
		<tag k="place" v="locality" />
		<tag k="ssr:stedsnr" v="413794" />
	</node>
<<<<<<< HEAD
	<node lat="68.81464444565582" lon="17.430519442053406" id="-38353">
		<tag k="name" v="Ressholla" />
		<tag k="natural" v="valley" />
		<tag k="place" v="locality" />
		<tag k="ssr:stedsnr" v="413795" />
	</node>
	<node lat="68.71193333128639" lon="17.336922228258143" id="-38355">
		<tag k="name" v="Kvitebergan" />
=======
	<node id="-856283" lat="68.6742111095" lon="17.7378527661">
		<tag k="name" v="Storsletthaugen" />
>>>>>>> e1d4bc35ff8a6074a6f2e91616a996b547c36f15
		<tag k="natural" v="hill" />
		<tag k="place" v="locality" />
		<tag k="ssr:stedsnr" v="414381" />
	</node>
<<<<<<< HEAD
	<node lat="68.73490277747796" lon="17.2759944397647" id="-38356">
		<tag k="name" v="Hesteberget" />
=======
	<node id="-856277" lat="68.6884166667" lon="17.3300750049">
		<tag k="fixme" v="consider natural=peak for the most distinct mountains in the district" />
		<tag k="name" v="Innersulaksla" />
>>>>>>> e1d4bc35ff8a6074a6f2e91616a996b547c36f15
		<tag k="natural" v="hill" />
		<tag k="place" v="locality" />
		<tag k="ssr:stedsnr" v="414384" />
	</node>
<<<<<<< HEAD
	<node lat="68.76867777590954" lon="17.279991653486558" id="-38357">
		<tag k="name" v="Brekka" />
		<tag k="natural" v="hill" />
		<tag k="place" v="locality" />
		<tag k="ssr:stedsnr" v="414426" />
	</node>
	<node lat="68.66627221833485" lon="17.52876388542921" id="-38360">
		<tag k="name" v="Lyshøgda" />
=======
	<node id="-856271" lat="68.6249638909" lon="17.7237444467">
		<tag k="name" v="Roašmebákti" />
		<tag k="name:se" v="Roašmebákti" />
>>>>>>> e1d4bc35ff8a6074a6f2e91616a996b547c36f15
		<tag k="natural" v="hill" />
		<tag k="place" v="locality" />
		<tag k="ssr:stedsnr" v="415307" />
	</node>
<<<<<<< HEAD
	<node lat="68.70770833345065" lon="17.490191674371335" id="-38362">
		<tag k="name" v="Orrhågen" />
		<tag k="natural" v="hill" />
=======
	<node id="-856270" lat="68.7432222212" lon="17.5622722165">
		<tag k="name" v="Finnlægran" />
		<tag k="natural" v="slope" />
>>>>>>> e1d4bc35ff8a6074a6f2e91616a996b547c36f15
		<tag k="place" v="locality" />
		<tag k="ssr:stedsnr" v="415492" />
	</node>
<<<<<<< HEAD
	<node lat="68.74633611048083" lon="17.521666667431973" id="-38363">
		<tag k="name" v="Grønnfjellia" />
=======
	<node id="-856269" lat="68.6641666645" lon="17.7028083292">
		<tag k="name" v="Høgebakkan" />
>>>>>>> e1d4bc35ff8a6074a6f2e91616a996b547c36f15
		<tag k="natural" v="slope" />
		<tag k="place" v="locality" />
		<tag k="ssr:stedsnr" v="415366" />
	</node>
<<<<<<< HEAD
	<node lat="68.66596111445796" lon="17.77431389943841" id="-38365">
		<tag k="name" v="Fjelldalen" />
		<tag k="natural" v="valley" />
=======
	<node id="-856268" lat="68.7156861117" lon="17.3670055553">
		<tag k="name" v="Småvasslia" />
		<tag k="natural" v="slope" />
>>>>>>> e1d4bc35ff8a6074a6f2e91616a996b547c36f15
		<tag k="place" v="locality" />
		<tag k="ssr:stedsnr" v="415383" />
	</node>
<<<<<<< HEAD
	<node lat="68.77900833128547" lon="17.377686099017268" id="-38373">
		<tag k="fixme" v="consider natural=peak for the most distinct mountains in the district" />
		<tag k="name" v="Borturskartinden" />
=======
	<node id="-856267" lat="68.6620583313" lon="17.4150305641">
		<tag k="name" v="Talggrøtbergan" />
>>>>>>> e1d4bc35ff8a6074a6f2e91616a996b547c36f15
		<tag k="natural" v="hill" />
		<tag k="place" v="locality" />
		<tag k="ssr:stedsnr" v="442951" />
	</node>
<<<<<<< HEAD
	<node lat="68.67256111446409" lon="17.31297499363771" id="-38379">
		<tag k="fixme" v="consider natural=peak for the most distinct mountains in the district" />
		<tag k="name" v="Tretinden" />
=======
	<node id="-856265" lat="68.6935916685" lon="17.3483305459">
		<tag k="name" v="Reingjerdhågen" />
>>>>>>> e1d4bc35ff8a6074a6f2e91616a996b547c36f15
		<tag k="natural" v="hill" />
		<tag k="place" v="locality" />
		<tag k="ssr:stedsnr" v="445998" />
	</node>
<<<<<<< HEAD
	<node lat="68.6839805513828" lon="17.557333330050735" id="-38382">
		<tag k="name" v="Høghågen - Strávvečorru" />
		<tag k="name:no" v="Høghågen" />
		<tag k="name:se" v="Strávvečorru" />
=======
	<node id="-856263" lat="68.6379055544" lon="17.4410444373">
		<tag k="fixme" v="consider natural=peak for the most distinct mountains in the district" />
		<tag k="name" v="Dudalstinden - Guhtočohkka" />
		<tag k="name:no" v="Dudalstinden" />
		<tag k="name:se" v="Guhtočohkka" />
>>>>>>> e1d4bc35ff8a6074a6f2e91616a996b547c36f15
		<tag k="natural" v="hill" />
		<tag k="place" v="locality" />
		<tag k="ssr:stedsnr" v="503537" />
	</node>
<<<<<<< HEAD
	<node lat="68.72328055219872" lon="17.57671665669992" id="-38391">
		<tag k="name" v="Resselvskaret" />
=======
	<node id="-856262" lat="68.6584916656" lon="17.4012000021">
		<tag k="name" v="Dudalen - Guhtovággi" />
		<tag k="name:no" v="Dudalen" />
		<tag k="name:se" v="Guhtovággi" />
>>>>>>> e1d4bc35ff8a6074a6f2e91616a996b547c36f15
		<tag k="natural" v="valley" />
		<tag k="place" v="locality" />
		<tag k="ssr:stedsnr" v="503890" />
	</node>
<<<<<<< HEAD
	<node lat="68.75949722449806" lon="17.423341677889816" id="-38392">
		<tag k="alt_name" v="Rissen" />
=======
	<node id="-856261" lat="68.7697583357" lon="17.3259305496">
>>>>>>> e1d4bc35ff8a6074a6f2e91616a996b547c36f15
		<tag k="fixme" v="consider natural=peak for the most distinct mountains in the district" />
		<tag k="name" v="Risen" />
		<tag k="natural" v="hill" />
		<tag k="place" v="locality" />
		<tag k="ssr:stedsnr" v="503982" />
	</node>
<<<<<<< HEAD
	<node lat="68.75732499962064" lon="17.336999998431928" id="-38393">
=======
	<node id="-856253" lat="68.6191583357" lon="17.7222777808">
>>>>>>> e1d4bc35ff8a6074a6f2e91616a996b547c36f15
		<tag k="fixme" v="consider natural=peak for the most distinct mountains in the district" />
		<tag k="name" v="Keipen" />
		<tag k="natural" v="hill" />
		<tag k="place" v="locality" />
		<tag k="ssr:stedsnr" v="503985" />
	</node>
<<<<<<< HEAD
	<node lat="68.66894444019141" lon="17.343052775231758" id="-38396">
		<tag k="fixme" v="consider natural=peak for the most distinct mountains in the district" />
		<tag k="name" v="Nonsfjellet" />
		<tag k="natural" v="hill" />
=======
	<node id="-856248" lat="68.625972223" lon="17.6228361146">
		<tag k="name" v="Høgebakken" />
		<tag k="natural" v="slope" />
>>>>>>> e1d4bc35ff8a6074a6f2e91616a996b547c36f15
		<tag k="place" v="locality" />
		<tag k="ssr:stedsnr" v="505992" />
	</node>
<<<<<<< HEAD
	<node lat="68.67515000024672" lon="17.257449995018252" id="-38397">
		<tag k="fixme" v="consider natural=peak for the most distinct mountains in the district" />
		<tag k="name" v="Tinden" />
=======
	<node id="-856242" lat="68.6460027789" lon="17.6602250064">
		<tag k="name" v="Kjølen" />
>>>>>>> e1d4bc35ff8a6074a6f2e91616a996b547c36f15
		<tag k="natural" v="hill" />
		<tag k="place" v="locality" />
		<tag k="ssr:stedsnr" v="505996" />
	</node>
<<<<<<< HEAD
	<node lat="68.67379444233525" lon="17.359102769552205" id="-38398">
		<tag k="name" v="Nonsfjellbotn" />
		<tag k="natural" v="valley" />
=======
	<node id="-856240" lat="68.6445249968" lon="17.7836972108">
		<tag k="name" v="Loapmi" />
		<tag k="name:se" v="Loapmi" />
		<tag k="old_name:se" v="Loabmi" />
>>>>>>> e1d4bc35ff8a6074a6f2e91616a996b547c36f15
		<tag k="place" v="locality" />
		<tag k="ssr:stedsnr" v="505998" />
	</node>
<<<<<<< HEAD
	<node lat="68.69359166849989" lon="17.348330545880845" id="-38404">
		<tag k="name" v="Reingjerdhågen" />
		<tag k="natural" v="hill" />
=======
	<node id="-856236" lat="68.6073222257" lon="17.7702500079">
		<tag k="name" v="Leigasskaret" />
		<tag k="natural" v="valley" />
>>>>>>> e1d4bc35ff8a6074a6f2e91616a996b547c36f15
		<tag k="place" v="locality" />
		<tag k="ssr:stedsnr" v="535394" />
	</node>
<<<<<<< HEAD
	<node lat="68.72318333601713" lon="17.348749998069806" id="-38406">
		<tag k="name" v="Svartberget" />
=======
	<node id="-856232" lat="68.6375833324" lon="17.7399027823">
		<tag k="name" v="Gjerdehaugen" />
>>>>>>> e1d4bc35ff8a6074a6f2e91616a996b547c36f15
		<tag k="natural" v="hill" />
		<tag k="place" v="locality" />
		<tag k="ssr:stedsnr" v="535430" />
	</node>
<<<<<<< HEAD
	<node lat="68.65965832976815" lon="17.519122213100964" id="-38408">
		<tag k="name" v="Spadebakken" />
		<tag k="natural" v="slope" />
=======
	<node id="-856228" lat="68.76674167" lon="17.3662916702">
		<tag k="name" v="Skarbotn" />
		<tag k="natural" v="valley" />
>>>>>>> e1d4bc35ff8a6074a6f2e91616a996b547c36f15
		<tag k="place" v="locality" />
		<tag k="ssr:stedsnr" v="536292" />
	</node>
<<<<<<< HEAD
	<node lat="68.73517777318263" lon="17.490983337634468" id="-38409">
		<tag k="name" v="Trangskogsletta" />
=======
	<node id="-856227" lat="68.7997500001" lon="17.3835666568">
		<tag k="name" v="Bergholla" />
		<tag k="natural" v="valley" />
>>>>>>> e1d4bc35ff8a6074a6f2e91616a996b547c36f15
		<tag k="place" v="locality" />
		<tag k="ssr:stedsnr" v="536251" />
	</node>
<<<<<<< HEAD
	<node lat="68.68343333733029" lon="17.582086104045846" id="-38412">
		<tag k="name" v="Hesthågen" />
=======
	<node id="-856226" lat="68.771761111" lon="17.2716638801">
		<tag k="name" v="Storhågen" />
>>>>>>> e1d4bc35ff8a6074a6f2e91616a996b547c36f15
		<tag k="natural" v="hill" />
		<tag k="place" v="locality" />
		<tag k="ssr:stedsnr" v="536339" />
	</node>
<<<<<<< HEAD
	<node lat="68.68342222233585" lon="17.595086106981203" id="-38414">
		<tag k="name" v="Garnhollberget" />
=======
	<node id="-856224" lat="68.7261638886" lon="17.2943277746">
		<tag k="name" v="Flaen" />
>>>>>>> e1d4bc35ff8a6074a6f2e91616a996b547c36f15
		<tag k="natural" v="hill" />
		<tag k="place" v="locality" />
		<tag k="ssr:stedsnr" v="536345" />
	</node>
<<<<<<< HEAD
	<node lat="68.66416666454258" lon="17.702808329246103" id="-38415">
		<tag k="name" v="Høgebakkan" />
=======
	<node id="-856223" lat="68.7255277815" lon="17.2664138918">
		<tag k="name" v="Tverrlia" />
>>>>>>> e1d4bc35ff8a6074a6f2e91616a996b547c36f15
		<tag k="natural" v="slope" />
		<tag k="place" v="locality" />
		<tag k="ssr:stedsnr" v="536355" />
	</node>
<<<<<<< HEAD
	<node lat="68.74322222117439" lon="17.562272216548383" id="-38416">
		<tag k="name" v="Finnlægran" />
		<tag k="natural" v="slope" />
=======
	<node id="-856222" lat="68.7637500027" lon="17.3664944334">
		<tag k="name" v="Løvdalsskaret" />
		<tag k="natural" v="valley" />
>>>>>>> e1d4bc35ff8a6074a6f2e91616a996b547c36f15
		<tag k="place" v="locality" />
		<tag k="ssr:stedsnr" v="536360" />
	</node>
<<<<<<< HEAD
	<node lat="68.62496389090515" lon="17.723744446660266" id="-38417">
		<tag k="name" v="Roašmebákti" />
		<tag k="name:se" v="Roašmebákti" />
=======
	<node id="-856221" lat="68.7257638927" lon="17.234438896">
		<tag k="fixme" v="consider natural=peak for the most distinct mountains in the district" />
		<tag k="name" v="Skjærvikflogan" />
>>>>>>> e1d4bc35ff8a6074a6f2e91616a996b547c36f15
		<tag k="natural" v="hill" />
		<tag k="place" v="locality" />
		<tag k="ssr:stedsnr" v="536362" />
	</node>
<<<<<<< HEAD
	<node lat="68.71568611167815" lon="17.36700555531362" id="-38418">
		<tag k="name" v="Småvasslia" />
		<tag k="natural" v="slope" />
=======
	<node id="-856213" lat="68.6737944423" lon="17.3591027696">
		<tag k="name" v="Nonsfjellbotn" />
		<tag k="natural" v="valley" />
>>>>>>> e1d4bc35ff8a6074a6f2e91616a996b547c36f15
		<tag k="place" v="locality" />
		<tag k="ssr:stedsnr" v="536439" />
	</node>
<<<<<<< HEAD
	<node lat="68.70344444755375" lon="17.509688876061883" id="-38419">
		<tag k="name" v="Godbærmoen" />
=======
	<node id="-856212" lat="68.6751500002" lon="17.257449995">
		<tag k="fixme" v="consider natural=peak for the most distinct mountains in the district" />
		<tag k="name" v="Tinden" />
		<tag k="natural" v="hill" />
>>>>>>> e1d4bc35ff8a6074a6f2e91616a996b547c36f15
		<tag k="place" v="locality" />
		<tag k="ssr:stedsnr" v="536446" />
	</node>
<<<<<<< HEAD
	<node lat="68.69671667084944" lon="17.427683330766342" id="-38420">
		<tag k="name" v="Linberget" />
=======
	<node id="-856211" lat="68.6689444402" lon="17.3430527752">
		<tag k="fixme" v="consider natural=peak for the most distinct mountains in the district" />
		<tag k="name" v="Nonsfjellet" />
>>>>>>> e1d4bc35ff8a6074a6f2e91616a996b547c36f15
		<tag k="natural" v="hill" />
		<tag k="place" v="locality" />
		<tag k="ssr:stedsnr" v="536457" />
	</node>
<<<<<<< HEAD
	<node lat="68.61157777544788" lon="17.569122228876058" id="-38422">
=======
	<node id="-856210" lat="68.7573249996" lon="17.3369999984">
>>>>>>> e1d4bc35ff8a6074a6f2e91616a996b547c36f15
		<tag k="fixme" v="consider natural=peak for the most distinct mountains in the district" />
		<tag k="name" v="Rundfjellet - Geahčovárri" />
		<tag k="name:no" v="Rundfjellet" />
		<tag k="name:se" v="Geahčovárri" />
		<tag k="natural" v="hill" />
		<tag k="old_name:se" v="Gæččuvarri" />
		<tag k="place" v="locality" />
		<tag k="ssr:stedsnr" v="563521" />
	</node>
<<<<<<< HEAD
	<node lat="68.61997777998839" lon="17.713152787350165" id="-38423">
		<tag k="name" v="Roasmeberget" />
=======
	<node id="-856209" lat="68.7594972245" lon="17.4233416779">
		<tag k="alt_name" v="Rissen" />
		<tag k="fixme" v="consider natural=peak for the most distinct mountains in the district" />
		<tag k="name" v="Risen" />
>>>>>>> e1d4bc35ff8a6074a6f2e91616a996b547c36f15
		<tag k="natural" v="hill" />
		<tag k="place" v="locality" />
		<tag k="ssr:stedsnr" v="563530" />
	</node>
<<<<<<< HEAD
	<node lat="68.69653889154523" lon="17.59201943980275" id="-38425">
		<tag k="name" v="Årsteinlian" />
		<tag k="natural" v="slope" />
=======
	<node id="-856207" lat="68.7232805522" lon="17.5767166567">
		<tag k="name" v="Resselvskaret" />
		<tag k="natural" v="valley" />
>>>>>>> e1d4bc35ff8a6074a6f2e91616a996b547c36f15
		<tag k="place" v="locality" />
		<tag k="ssr:stedsnr" v="563549" />
	</node>
<<<<<<< HEAD
	<node lat="68.6838055541852" lon="17.5753222173341" id="-38427">
		<tag k="name" v="Donseflaten" />
		<tag k="natural" v="slope" />
=======
	<node id="-856197" lat="68.6839805514" lon="17.5573333301">
		<tag k="name" v="Høghågen - Strávvečorru" />
		<tag k="name:no" v="Høghågen" />
		<tag k="name:se" v="Strávvečorru" />
		<tag k="natural" v="hill" />
>>>>>>> e1d4bc35ff8a6074a6f2e91616a996b547c36f15
		<tag k="place" v="locality" />
		<tag k="ssr:stedsnr" v="563559" />
	</node>
<<<<<<< HEAD
	<node lat="68.71465833103353" lon="17.480975001398328" id="-38429">
		<tag k="name" v="Ingerdalen" />
		<tag k="natural" v="valley" />
		<tag k="place" v="locality" />
		<tag k="ssr:stedsnr" v="563565" />
	</node>
	<node lat="68.76971388887188" lon="17.30361111114163" id="-38434">
		<tag k="fixme" v="consider natural=peak for the most distinct mountains in the district" />
		<tag k="name" v="Storfløyta" />
=======
	<node id="-856196" lat="68.777569448" lon="17.4686444501">
		<tag k="name" v="Nebbergan" />
>>>>>>> e1d4bc35ff8a6074a6f2e91616a996b547c36f15
		<tag k="natural" v="hill" />
		<tag k="place" v="locality" />
		<tag k="ssr:stedsnr" v="563962" />
	</node>
<<<<<<< HEAD
	<node lat="68.6931138901146" lon="17.376805562257253" id="-38440">
		<tag k="name" v="Vargedalen" />
=======
	<node id="-856195" lat="68.645072221" lon="17.498102784">
		<tag k="name" v="Botn" />
>>>>>>> e1d4bc35ff8a6074a6f2e91616a996b547c36f15
		<tag k="natural" v="valley" />
		<tag k="place" v="locality" />
		<tag k="ssr:stedsnr" v="596432" />
	</node>
<<<<<<< HEAD
	<node lat="68.69492777883757" lon="17.406586115517896" id="-38441">
		<tag k="fixme" v="consider natural=peak for the most distinct mountains in the district" />
		<tag k="name" v="Høgda" />
		<tag k="natural" v="hill" />
=======
	<node id="-856194" lat="68.650241668" lon="17.4211860972">
		<tag k="name" v="Sisriehppi" />
		<tag k="name:se" v="Sisriehppi" />
		<tag k="natural" v="valley" />
		<tag k="old_name:se" v="Sisrieppi" />
>>>>>>> e1d4bc35ff8a6074a6f2e91616a996b547c36f15
		<tag k="place" v="locality" />
		<tag k="ssr:stedsnr" v="596442" />
	</node>
<<<<<<< HEAD
	<node lat="68.64585000089983" lon="17.719461107506227" id="-38446">
		<tag k="name" v="Storhaugen - Reaidu" />
		<tag k="name:no" v="Storhaugen" />
		<tag k="name:se" v="Reaidu" />
		<tag k="natural" v="hill" />
=======
	<node id="-856193" lat="68.6598222222" lon="17.6836777763">
		<tag k="name" v="Storbakken" />
		<tag k="natural" v="slope" />
>>>>>>> e1d4bc35ff8a6074a6f2e91616a996b547c36f15
		<tag k="place" v="locality" />
		<tag k="ssr:stedsnr" v="597380" />
	</node>
<<<<<<< HEAD
	<node lat="68.75053055692352" lon="17.43616665602888" id="-38451">
		<tag k="name" v="Steinbergskarlian" />
=======
	<node id="-856191" lat="68.6873305574" lon="17.6388166675">
		<tag k="name" v="Svennlia" />
>>>>>>> e1d4bc35ff8a6074a6f2e91616a996b547c36f15
		<tag k="natural" v="slope" />
		<tag k="place" v="locality" />
		<tag k="ssr:stedsnr" v="624624" />
	</node>
<<<<<<< HEAD
	<node lat="68.76375000265675" lon="17.366494433419586" id="-38460">
		<tag k="name" v="Løvdalsskaret" />
		<tag k="natural" v="valley" />
=======
	<node id="-856186" lat="68.7008861148" lon="17.397108333">
		<tag k="fixme" v="consider natural=peak for the most distinct mountains in the district" />
		<tag k="name" v="Heibrunen" />
		<tag k="natural" v="hill" />
>>>>>>> e1d4bc35ff8a6074a6f2e91616a996b547c36f15
		<tag k="place" v="locality" />
		<tag k="ssr:stedsnr" v="656396" />
	</node>
<<<<<<< HEAD
	<node lat="68.7255277815052" lon="17.266413891799857" id="-38461">
		<tag k="name" v="Tverrlia" />
=======
	<node id="-856185" lat="68.6980805584" lon="17.373927774">
		<tag k="name" v="Vasslian" />
>>>>>>> e1d4bc35ff8a6074a6f2e91616a996b547c36f15
		<tag k="natural" v="slope" />
		<tag k="place" v="locality" />
		<tag k="ssr:stedsnr" v="656398" />
	</node>
<<<<<<< HEAD
	<node lat="68.72616388863146" lon="17.294327774557704" id="-38462">
		<tag k="name" v="Flaen" />
=======
	<node id="-856183" lat="68.7201666685" lon="17.4705555581">
		<tag k="fixme" v="consider natural=peak for the most distinct mountains in the district" />
		<tag k="name" v="Geitryggen" />
>>>>>>> e1d4bc35ff8a6074a6f2e91616a996b547c36f15
		<tag k="natural" v="hill" />
		<tag k="place" v="locality" />
		<tag k="ssr:stedsnr" v="656412" />
	</node>
<<<<<<< HEAD
	<node lat="68.77176111096323" lon="17.271663880085768" id="-38464">
		<tag k="name" v="Storhågen" />
		<tag k="natural" v="hill" />
		<tag k="place" v="locality" />
		<tag k="ssr:stedsnr" v="656422" />
	</node>
	<node lat="68.72737499942153" lon="17.495944431386175" id="-38466">
		<tag k="name" v="Kjerringnesen" />
=======
	<node id="-856182" lat="68.7174083328" lon="17.3977694387">
		<tag k="name" v="Vedhågen" />
		<tag k="natural" v="hill" />
		<tag k="place" v="locality" />
		<tag k="ssr:stedsnr" v="475445" />
	</node>
	<node id="-856181" lat="68.6741305597" lon="17.4793027699">
		<tag k="name" v="Krokan" />
		<tag k="natural" v="slope" />
		<tag k="place" v="locality" />
		<tag k="ssr:stedsnr" v="475444" />
	</node>
	<node id="-856178" lat="68.6453166631" lon="17.7157527806">
		<tag k="name" v="Beinberget" />
>>>>>>> e1d4bc35ff8a6074a6f2e91616a996b547c36f15
		<tag k="natural" v="hill" />
		<tag k="place" v="locality" />
		<tag k="ssr:stedsnr" v="657255" />
	</node>
<<<<<<< HEAD
	<node lat="68.79152222594041" lon="17.37133333806935" id="-38467">
		<tag k="name" v="Masterlia" />
		<tag k="natural" v="slope" />
=======
	<node id="-856175" lat="68.6637027783" lon="17.6637833205">
		<tag k="name" v="Høgda" />
		<tag k="natural" v="hill" />
>>>>>>> e1d4bc35ff8a6074a6f2e91616a996b547c36f15
		<tag k="place" v="locality" />
		<tag k="ssr:stedsnr" v="657275" />
	</node>
<<<<<<< HEAD
	<node lat="68.67297221935237" lon="17.503733329111085" id="-38472">
		<tag k="name" v="Dalen" />
=======
	<node id="-856173" lat="68.815494446" lon="17.4463916774">
		<tag k="name" v="Geitholla" />
>>>>>>> e1d4bc35ff8a6074a6f2e91616a996b547c36f15
		<tag k="natural" v="valley" />
		<tag k="place" v="locality" />
		<tag k="ssr:stedsnr" v="657455" />
	</node>
<<<<<<< HEAD
	<node lat="68.7079083312846" lon="17.397491656559612" id="-38474">
		<tag k="name" v="Heia" />
=======
	<node id="-856171" lat="68.6713750016" lon="17.651211104">
		<tag k="alt_name" v="Elveneshaugen" />
		<tag k="name" v="Elveneshågen" />
>>>>>>> e1d4bc35ff8a6074a6f2e91616a996b547c36f15
		<tag k="natural" v="hill" />
		<tag k="place" v="locality" />
		<tag k="ssr:stedsnr" v="657464" />
	</node>
<<<<<<< HEAD
	<node lat="68.7108388887047" lon="17.503680549417464" id="-38475">
		<tag k="name" v="Høgebakken" />
		<tag k="natural" v="slope" />
		<tag k="place" v="locality" />
		<tag k="ssr:stedsnr" v="657468" />
	</node>
	<node lat="68.66029444692805" lon="17.655588894836473" id="-38476">
=======
	<node id="-856169" lat="68.806486109" lon="17.4280638901">
>>>>>>> e1d4bc35ff8a6074a6f2e91616a996b547c36f15
		<tag k="fixme" v="consider natural=peak for the most distinct mountains in the district" />
		<tag k="name" v="Kollen" />
		<tag k="natural" v="hill" />
		<tag k="place" v="locality" />
		<tag k="ssr:stedsnr" v="657321" />
	</node>
<<<<<<< HEAD
	<node lat="68.6979250009976" lon="17.41229166641556" id="-38478">
		<tag k="name" v="Foldvikskaret" />
		<tag k="natural" v="valley" />
=======
	<node id="-856168" lat="68.7943361086" lon="17.3637500095">
		<tag k="name" v="Hans-Olaihågen" />
		<tag k="natural" v="hill" />
>>>>>>> e1d4bc35ff8a6074a6f2e91616a996b547c36f15
		<tag k="place" v="locality" />
		<tag k="ssr:stedsnr" v="657482" />
	</node>
<<<<<<< HEAD
	<node lat="68.68841666673478" lon="17.330075004881696" id="-38479">
=======
	<node id="-856166" lat="68.7302583328" lon="17.4854666664">
>>>>>>> e1d4bc35ff8a6074a6f2e91616a996b547c36f15
		<tag k="fixme" v="consider natural=peak for the most distinct mountains in the district" />
		<tag k="name" v="Innersulaksla" />
		<tag k="natural" v="hill" />
		<tag k="place" v="locality" />
		<tag k="ssr:stedsnr" v="717401" />
	</node>
<<<<<<< HEAD
	<node lat="68.7235861157123" lon="17.284674989915306" id="-38483">
		<tag k="fixme" v="consider natural=peak for the most distinct mountains in the district" />
		<tag k="name" v="Tuva" />
=======
	<node id="-856164" lat="68.724591665" lon="17.3247583408">
		<tag k="name" v="Åmundhøgda" />
>>>>>>> e1d4bc35ff8a6074a6f2e91616a996b547c36f15
		<tag k="natural" v="hill" />
		<tag k="place" v="locality" />
		<tag k="ssr:stedsnr" v="717417" />
	</node>
<<<<<<< HEAD
	<node lat="68.72889444483971" lon="17.2803249903425" id="-38484">
		<tag k="name" v="Slettbakkan" />
		<tag k="natural" v="slope" />
=======
	<node id="-856163" lat="68.7270444434" lon="17.3173777752">
		<tag k="name" v="Skarvberget" />
		<tag k="natural" v="hill" />
>>>>>>> e1d4bc35ff8a6074a6f2e91616a996b547c36f15
		<tag k="place" v="locality" />
		<tag k="ssr:stedsnr" v="717421" />
	</node>
<<<<<<< HEAD
	<node lat="68.6734333361569" lon="17.520944434713396" id="-38487">
		<tag k="name" v="Bjørnbåsen" />
		<tag k="natural" v="valley" />
=======
	<node id="-856161" lat="68.7278361143" lon="17.2809083203">
		<tag k="name" v="Lemman" />
		<tag k="natural" v="hill" />
>>>>>>> e1d4bc35ff8a6074a6f2e91616a996b547c36f15
		<tag k="place" v="locality" />
		<tag k="ssr:stedsnr" v="718301" />
	</node>
<<<<<<< HEAD
	<node lat="68.63646111101835" lon="17.771227781345726" id="-38488">
		<tag k="fixme" v="consider natural=peak for the most distinct mountains in the district" />
		<tag k="name" v="Jierrebákti" />
		<tag k="name:se" v="Jierrebákti" />
=======
	<node id="-856159" lat="68.7351055568" lon="17.2820972265">
		<tag k="name" v="Høyberget" />
>>>>>>> e1d4bc35ff8a6074a6f2e91616a996b547c36f15
		<tag k="natural" v="hill" />
		<tag k="place" v="locality" />
		<tag k="ssr:stedsnr" v="718396" />
	</node>
<<<<<<< HEAD
	<node lat="68.69303889129351" lon="17.409444454052935" id="-38490">
		<tag k="name" v="Svartdalen" />
		<tag k="natural" v="valley" />
=======
	<node id="-856158" lat="68.7268972246" lon="17.2246916622">
		<tag k="name" v="Smålian" />
		<tag k="natural" v="slope" />
>>>>>>> e1d4bc35ff8a6074a6f2e91616a996b547c36f15
		<tag k="place" v="locality" />
		<tag k="ssr:stedsnr" v="718487" />
	</node>
<<<<<<< HEAD
	<node lat="68.79418888971621" lon="17.398686107006796" id="-38491">
		<tag k="name" v="Belnesgrinda" />
=======
	<node id="-856157" lat="68.7561083371" lon="17.3136194346">
		<tag k="name" v="Fjellvad" />
>>>>>>> e1d4bc35ff8a6074a6f2e91616a996b547c36f15
		<tag k="natural" v="hill" />
		<tag k="place" v="locality" />
		<tag k="ssr:stedsnr" v="718269" />
	</node>
<<<<<<< HEAD
	<node lat="68.70643333178405" lon="17.51570555681864" id="-38492">
		<tag k="name" v="Tverrbakkan" />
		<tag k="natural" v="slope" />
=======
	<node id="-856156" lat="68.654897222" lon="17.7071583261">
		<tag k="name" v="Storberget" />
		<tag k="natural" v="hill" />
>>>>>>> e1d4bc35ff8a6074a6f2e91616a996b547c36f15
		<tag k="place" v="locality" />
		<tag k="ssr:stedsnr" v="718353" />
	</node>
<<<<<<< HEAD
	<node lat="68.70260277469556" lon="17.554405546899773" id="-38493">
		<tag k="name" v="Hillestien" />
		<tag k="natural" v="slope" />
=======
	<node id="-856155" lat="68.6583416705" lon="17.7117888882">
		<tag k="name" v="Fjellhøgda" />
		<tag k="natural" v="hill" />
>>>>>>> e1d4bc35ff8a6074a6f2e91616a996b547c36f15
		<tag k="place" v="locality" />
		<tag k="ssr:stedsnr" v="718362" />
	</node>
<<<<<<< HEAD
	<node lat="68.69508889123608" lon="17.51506943876628" id="-38494">
		<tag k="name" v="Stien" />
=======
	<node id="-856154" lat="68.7256888935" lon="17.2100166585">
		<tag k="name" v="Olderteigen" />
>>>>>>> e1d4bc35ff8a6074a6f2e91616a996b547c36f15
		<tag k="natural" v="slope" />
		<tag k="place" v="locality" />
		<tag k="ssr:stedsnr" v="718364" />
	</node>
<<<<<<< HEAD
	<node lat="68.62307499909569" lon="17.674422228352686" id="-38499">
		<tag k="name" v="Mellomvasshaugen - Váráš" />
		<tag k="name:no" v="Mellomvasshaugen" />
		<tag k="name:se" v="Váráš" />
=======
	<node id="-856149" lat="68.6523111103" lon="17.6813972122">
		<tag k="alt_name" v="Middagshågen" />
		<tag k="name" v="Middagshaugen" />
>>>>>>> e1d4bc35ff8a6074a6f2e91616a996b547c36f15
		<tag k="natural" v="hill" />
		<tag k="old_name:se" v="Varaš" />
		<tag k="place" v="locality" />
		<tag k="ssr:stedsnr" v="746506" />
	</node>
<<<<<<< HEAD
	<node lat="68.6375472205168" lon="17.80938055691008" id="-38500">
		<tag k="name" v="Lortskaret" />
=======
	<node id="-856146" lat="68.6824944461" lon="17.4454777881">
		<tag k="name" v="Øyhalsen" />
>>>>>>> e1d4bc35ff8a6074a6f2e91616a996b547c36f15
		<tag k="natural" v="valley" />
		<tag k="place" v="locality" />
		<tag k="ssr:stedsnr" v="746512" />
	</node>
<<<<<<< HEAD
	<node lat="68.64307221826579" lon="17.368697215641653" id="-38502">
=======
	<node id="-856140" lat="68.6725611145" lon="17.3129749936">
>>>>>>> e1d4bc35ff8a6074a6f2e91616a996b547c36f15
		<tag k="fixme" v="consider natural=peak for the most distinct mountains in the district" />
		<tag k="name" v="Urfjellet - Juovvavárri" />
		<tag k="name:no" v="Urfjellet" />
		<tag k="name:se" v="Juovvavárri" />
		<tag k="natural" v="hill" />
		<tag k="place" v="locality" />
		<tag k="ssr:stedsnr" v="748886" />
	</node>
<<<<<<< HEAD
	<node lat="68.64949444070578" lon="17.40036110268059" id="-38503">
		<tag k="name" v="Melladalen - Gaskariehppi" />
		<tag k="name:no" v="Melladalen" />
		<tag k="name:se" v="Gaskariehppi" />
		<tag k="natural" v="valley" />
		<tag k="place" v="locality" />
		<tag k="ssr:stedsnr" v="748899" />
	</node>
	<node lat="68.7561638904969" lon="17.392919435558532" id="-38505">
		<tag k="fixme" v="consider natural=peak for the most distinct mountains in the district" />
		<tag k="name" v="Risen" />
=======
	<node id="-856136" lat="68.7353611105" lon="17.4949611197">
		<tag k="fixme" v="multiple name tags, choose one and add the other to alt_name" />
		<tag k="name" v="Hesjebergdalen;Stordalen" />
		<tag k="natural" v="valley" />
		<tag k="place" v="locality" />
		<tag k="ssr:stedsnr" v="443936" />
	</node>
	<node id="-856135" lat="68.6984111077" lon="17.4006944479">
		<tag k="name" v="Lia" />
		<tag k="natural" v="slope" />
		<tag k="place" v="locality" />
		<tag k="ssr:stedsnr" v="232417" />
	</node>
	<node id="-856134" lat="68.73011389" lon="17.2650249869">
		<tag k="name" v="Neven" />
		<tag k="natural" v="hill" />
		<tag k="place" v="locality" />
		<tag k="ssr:stedsnr" v="232371" />
	</node>
	<node id="-856133" lat="68.7322166677" lon="17.2472694441">
		<tag k="name" v="Stigebergan" />
>>>>>>> e1d4bc35ff8a6074a6f2e91616a996b547c36f15
		<tag k="natural" v="hill" />
		<tag k="place" v="locality" />
		<tag k="ssr:stedsnr" v="752231" />
	</node>
<<<<<<< HEAD
	<node lat="68.6776222253313" lon="17.682555564461957" id="-38510">
		<tag k="name" v="Grønnlia" />
=======
	<node id="-856131" lat="68.749872223" lon="17.2924388813">
		<tag k="name" v="Brenna" />
>>>>>>> e1d4bc35ff8a6074a6f2e91616a996b547c36f15
		<tag k="natural" v="slope" />
		<tag k="place" v="locality" />
		<tag k="ssr:stedsnr" v="758670" />
	</node>
<<<<<<< HEAD
	<node lat="68.75495277490023" lon="17.254955550462657" id="-38511">
		<tag k="name" v="Nesseberget" />
=======
	<node id="-856129" lat="68.8127472264" lon="17.4283277694">
		<tag k="name" v="Loftbergan" />
>>>>>>> e1d4bc35ff8a6074a6f2e91616a996b547c36f15
		<tag k="natural" v="hill" />
		<tag k="place" v="locality" />
		<tag k="ssr:stedsnr" v="778373" />
	</node>
<<<<<<< HEAD
	<node lat="68.73573889170066" lon="17.280430547833223" id="-38513">
		<tag k="name" v="Kalvegjerdspira" />
=======
	<node id="-856126" lat="68.6246861109" lon="17.7037333223">
		<tag k="name" v="Stuoraváráš" />
		<tag k="name:se" v="Stuoraváráš" />
>>>>>>> e1d4bc35ff8a6074a6f2e91616a996b547c36f15
		<tag k="natural" v="hill" />
		<tag k="place" v="locality" />
		<tag k="ssr:stedsnr" v="778389" />
	</node>
<<<<<<< HEAD
	<node lat="68.72599722368398" lon="17.280152776461925" id="-38514">
		<tag k="fixme" v="consider natural=peak for the most distinct mountains in the district" />
		<tag k="name" v="Storlemman" />
=======
	<node id="-856124" lat="68.7790083313" lon="17.377686099">
		<tag k="fixme" v="consider natural=peak for the most distinct mountains in the district" />
		<tag k="name" v="Borturskartinden" />
		<tag k="natural" v="hill" />
		<tag k="place" v="locality" />
		<tag k="ssr:stedsnr" v="442951" />
	</node>
	<node id="-856120" lat="68.6532916644" lon="17.6315527864">
		<tag k="name" v="Tuva" />
>>>>>>> e1d4bc35ff8a6074a6f2e91616a996b547c36f15
		<tag k="natural" v="hill" />
		<tag k="place" v="locality" />
		<tag k="ssr:stedsnr" v="778395" />
	</node>
<<<<<<< HEAD
	<node lat="68.72420833711787" lon="17.20515276535579" id="-38515">
		<tag k="name" v="Skavlia" />
		<tag k="natural" v="slope" />
=======
	<node id="-856115" lat="68.7200305588" lon="17.3572888772">
		<tag k="name" v="Mellaskaret" />
		<tag k="natural" v="valley" />
>>>>>>> e1d4bc35ff8a6074a6f2e91616a996b547c36f15
		<tag k="place" v="locality" />
		<tag k="ssr:stedsnr" v="778400" />
	</node>
<<<<<<< HEAD
	<node lat="68.67340555462575" lon="17.50846387842322" id="-38517">
		<tag k="name" v="Gråberget" />
=======
	<node id="-856114" lat="68.6839944415" lon="17.5852361003">
		<tag k="name" v="Orhågen" />
>>>>>>> e1d4bc35ff8a6074a6f2e91616a996b547c36f15
		<tag k="natural" v="hill" />
		<tag k="place" v="locality" />
		<tag k="ssr:stedsnr" v="779446" />
	</node>
<<<<<<< HEAD
	<node lat="68.73726111426387" lon="17.45279165356142" id="-38518">
		<tag k="name" v="Olpålsaberget" />
=======
	<node id="-856113" lat="68.6067916678" lon="17.6090166725">
		<tag k="fixme" v="consider natural=peak for the most distinct mountains in the district" />
		<tag k="name" v="Storfjellet" />
>>>>>>> e1d4bc35ff8a6074a6f2e91616a996b547c36f15
		<tag k="natural" v="hill" />
		<tag k="place" v="locality" />
		<tag k="ssr:stedsnr" v="779268" />
	</node>
<<<<<<< HEAD
	<node lat="68.68980277537918" lon="17.421111120332444" id="-38522">
		<tag k="name" v="Holteberget" />
=======
	<node id="-856112" lat="68.6768055557" lon="17.5877083343">
		<tag k="name" v="Durmålshaugen" />
>>>>>>> e1d4bc35ff8a6074a6f2e91616a996b547c36f15
		<tag k="natural" v="hill" />
		<tag k="place" v="locality" />
		<tag k="ssr:stedsnr" v="779483" />
	</node>
<<<<<<< HEAD
	<node lat="68.75053611296129" lon="17.379613892255133" id="-38524">
		<tag k="name" v="Keipsletta" />
=======
	<node id="-856111" lat="68.7402388901" lon="17.4626888846">
		<tag k="name" v="Breilihågen" />
		<tag k="natural" v="hill" />
>>>>>>> e1d4bc35ff8a6074a6f2e91616a996b547c36f15
		<tag k="place" v="locality" />
		<tag k="ssr:stedsnr" v="779493" />
	</node>
<<<<<<< HEAD
	<node lat="68.61948333176146" lon="17.758152776136484" id="-38525">
		<tag k="name" v="Leigassletta" />
=======
	<node id="-856110" lat="68.7397999971" lon="17.4409805585">
		<tag k="name" v="Sjåberget" />
		<tag k="natural" v="hill" />
>>>>>>> e1d4bc35ff8a6074a6f2e91616a996b547c36f15
		<tag k="place" v="locality" />
		<tag k="ssr:stedsnr" v="806535" />
	</node>
<<<<<<< HEAD
	<node lat="68.75696389233525" lon="17.404897233685027" id="-38529">
		<tag k="fixme" v="consider natural=peak for the most distinct mountains in the district" />
		<tag k="name" v="Rødfjellet" />
=======
	<node id="-856109" lat="68.7355194459" lon="17.4601916629">
		<tag k="name" v="Løslettberget" />
>>>>>>> e1d4bc35ff8a6074a6f2e91616a996b547c36f15
		<tag k="natural" v="hill" />
		<tag k="place" v="locality" />
		<tag k="ssr:stedsnr" v="806983" />
	</node>
<<<<<<< HEAD
	<node lat="68.75829444645227" lon="17.287466664774737" id="-38530">
		<tag k="fixme" v="consider natural=peak for the most distinct mountains in the district" />
		<tag k="name" v="Veten" />
=======
	<node id="-856107" lat="68.6625277775" lon="17.703772213">
		<tag k="name" v="Høgbakken" />
>>>>>>> e1d4bc35ff8a6074a6f2e91616a996b547c36f15
		<tag k="natural" v="hill" />
		<tag k="place" v="locality" />
		<tag k="ssr:stedsnr" v="806985" />
	</node>
<<<<<<< HEAD
	<node lat="68.71029722267107" lon="17.394147229802382" id="-38535">
=======
	<node id="-856105" lat="68.7233527802" lon="17.3656444336">
>>>>>>> e1d4bc35ff8a6074a6f2e91616a996b547c36f15
		<tag k="fixme" v="consider natural=peak for the most distinct mountains in the district" />
		<tag k="name" v="Tjuvskjærholtan" />
		<tag k="natural" v="hill" />
		<tag k="place" v="locality" />
		<tag k="ssr:stedsnr" v="809960" />
	</node>
<<<<<<< HEAD
	<node lat="68.63945277824345" lon="17.51261667278162" id="-38537">
		<tag k="name" v="Botnhågen" />
=======
	<node id="-856104" lat="68.7497333298" lon="17.4136166633">
		<tag k="name" v="Bratthøgda" />
>>>>>>> e1d4bc35ff8a6074a6f2e91616a996b547c36f15
		<tag k="natural" v="hill" />
		<tag k="place" v="locality" />
		<tag k="ssr:stedsnr" v="817729" />
	</node>
<<<<<<< HEAD
	<node lat="68.67882221895884" lon="17.496016669906528" id="-38539">
		<tag k="name" v="Sorteberget" />
		<tag k="natural" v="hill" />
=======
	<node id="-856101" lat="68.6931444437" lon="17.3572416545">
		<tag k="name" v="Lillereingjerdet" />
>>>>>>> e1d4bc35ff8a6074a6f2e91616a996b547c36f15
		<tag k="place" v="locality" />
		<tag k="ssr:stedsnr" v="817714" />
	</node>
<<<<<<< HEAD
	<node lat="68.67462778210566" lon="17.689052764974658" id="-38541">
		<tag k="name" v="Smålian" />
		<tag k="natural" v="slope" />
=======
	<node id="-856097" lat="68.6663916702" lon="17.5099222298">
		<tag k="name" v="Nevermoen" />
>>>>>>> e1d4bc35ff8a6074a6f2e91616a996b547c36f15
		<tag k="place" v="locality" />
		<tag k="ssr:stedsnr" v="819655" />
	</node>
<<<<<<< HEAD
	<node lat="68.76982222643551" lon="17.293577767469483" id="-38542">
		<tag k="fixme" v="consider natural=peak for the most distinct mountains in the district" />
		<tag k="name" v="Litjefløya" />
=======
	<node id="-856096" lat="68.677330559" lon="17.4165805634">
		<tag k="name" v="Storforrhågen" />
>>>>>>> e1d4bc35ff8a6074a6f2e91616a996b547c36f15
		<tag k="natural" v="hill" />
		<tag k="place" v="locality" />
		<tag k="ssr:stedsnr" v="840416" />
	</node>
<<<<<<< HEAD
	<node lat="68.74185833080125" lon="17.45928332516698" id="-38543">
		<tag k="name" v="Ramnfløybergan" />
=======
	<node id="-856094" lat="68.7242388847" lon="17.3039888942">
		<tag k="name" v="Skarvberglemman" />
>>>>>>> e1d4bc35ff8a6074a6f2e91616a996b547c36f15
		<tag k="natural" v="hill" />
		<tag k="place" v="locality" />
		<tag k="ssr:stedsnr" v="840262" />
	</node>
<<<<<<< HEAD
	<node lat="68.688861107973" lon="17.657997226339788" id="-38544">
		<tag k="name" v="Fjordbotnlian" />
=======
	<node id="-856093" lat="68.7539055578" lon="17.2794944476">
		<tag k="name" v="Småveian" />
>>>>>>> e1d4bc35ff8a6074a6f2e91616a996b547c36f15
		<tag k="natural" v="slope" />
		<tag k="place" v="locality" />
		<tag k="ssr:stedsnr" v="840341" />
	</node>
<<<<<<< HEAD
	<node lat="68.68283888791348" lon="17.59800276587728" id="-38545">
		<tag k="name" v="Ingerholla" />
		<tag k="natural" v="valley" />
=======
	<node id="-856091" lat="68.6647222257" lon="17.8299944475">
		<tag k="name" v="Jensvoll" />
>>>>>>> e1d4bc35ff8a6074a6f2e91616a996b547c36f15
		<tag k="place" v="locality" />
		<tag k="ssr:stedsnr" v="840343" />
	</node>
<<<<<<< HEAD
	<node lat="68.7169027750762" lon="17.480694433531173" id="-38549">
		<tag k="name" v="Stinabergan" />
=======
	<node id="-856090" lat="68.6717833372" lon="17.7087083341">
		<tag k="fixme" v="consider natural=peak for the most distinct mountains in the district" />
		<tag k="name" v="Kalmeryggen" />
>>>>>>> e1d4bc35ff8a6074a6f2e91616a996b547c36f15
		<tag k="natural" v="hill" />
		<tag k="place" v="locality" />
		<tag k="ssr:stedsnr" v="840446" />
	</node>
<<<<<<< HEAD
	<node lat="68.69741111137212" lon="17.35707500974856" id="-38550">
		<tag k="name" v="Trollhågen" />
		<tag k="natural" v="hill" />
=======
	<node id="-856089" lat="68.8191444442" lon="17.4633472117">
		<tag k="name" v="Munnsletta" />
>>>>>>> e1d4bc35ff8a6074a6f2e91616a996b547c36f15
		<tag k="place" v="locality" />
		<tag k="ssr:stedsnr" v="840456" />
	</node>
<<<<<<< HEAD
	<node lat="68.69983333693166" lon="17.426172212879735" id="-38551">
		<tag k="name" v="Hellarn" />
=======
	<node id="-856085" lat="68.7421472245" lon="17.4300583394">
		<tag k="name" v="Brattåsberget" />
>>>>>>> e1d4bc35ff8a6074a6f2e91616a996b547c36f15
		<tag k="natural" v="hill" />
		<tag k="place" v="locality" />
		<tag k="ssr:stedsnr" v="840459" />
	</node>
<<<<<<< HEAD
	<node lat="68.69918055407769" lon="17.40906944847558" id="-38552">
		<tag k="fixme" v="consider natural=peak for the most distinct mountains in the district" />
		<tag k="name" v="Brekka" />
=======
	<node id="-856083" lat="68.7464305552" lon="17.4671083289">
		<tag k="name" v="Kvantohøgda" />
>>>>>>> e1d4bc35ff8a6074a6f2e91616a996b547c36f15
		<tag k="natural" v="hill" />
		<tag k="place" v="locality" />
		<tag k="ssr:stedsnr" v="840461" />
	</node>
<<<<<<< HEAD
	<node lat="68.70097777947238" lon="17.40645000699023" id="-38553">
		<tag k="name" v="Slettebakken" />
		<tag k="natural" v="slope" />
=======
	<node id="-856082" lat="68.7446249979" lon="17.4148944409">
		<tag k="name" v="Skjærberget" />
		<tag k="natural" v="hill" />
>>>>>>> e1d4bc35ff8a6074a6f2e91616a996b547c36f15
		<tag k="place" v="locality" />
		<tag k="ssr:stedsnr" v="840462" />
	</node>
<<<<<<< HEAD
	<node lat="68.70064444771563" lon="17.419766674504103" id="-38554">
		<tag k="name" v="Brekkebakken" />
		<tag k="natural" v="slope" />
=======
	<node id="-856081" lat="68.7600444474" lon="17.3741194433">
		<tag k="name" v="Rundhågen" />
		<tag k="natural" v="hill" />
>>>>>>> e1d4bc35ff8a6074a6f2e91616a996b547c36f15
		<tag k="place" v="locality" />
		<tag k="ssr:stedsnr" v="840463" />
	</node>
<<<<<<< HEAD
	<node lat="68.72149722232899" lon="17.376888885978143" id="-38556">
		<tag k="name" v="Nersteskaret" />
=======
	<node id="-856072" lat="68.6437305544" lon="17.5299749956">
		<tag k="name" v="Labergsdalen - Gálavuopmi" />
		<tag k="name:no" v="Labergsdalen" />
		<tag k="name:se" v="Gálavuopmi" />
>>>>>>> e1d4bc35ff8a6074a6f2e91616a996b547c36f15
		<tag k="natural" v="valley" />
		<tag k="place" v="locality" />
		<tag k="ssr:stedsnr" v="840424" />
	</node>
<<<<<<< HEAD
	<node lat="68.72576944643161" lon="17.396741677720186" id="-38557">
		<tag k="name" v="Vikhøghågen" />
		<tag k="natural" v="hill" />
=======
	<node id="-856070" lat="68.6301111139" lon="17.7329861085">
		<tag k="alt_name" v="Forslia" />
		<tag k="name" v="Fosslia" />
		<tag k="natural" v="slope" />
>>>>>>> e1d4bc35ff8a6074a6f2e91616a996b547c36f15
		<tag k="place" v="locality" />
		<tag k="ssr:stedsnr" v="840501" />
	</node>
<<<<<<< HEAD
	<node lat="68.62552222276597" lon="17.767372229482998" id="-38559">
		<tag k="name" v="Storhaugen" />
=======
	<node id="-856067" lat="68.6721888908" lon="17.6372027873">
		<tag k="name" v="Skjellhågen" />
>>>>>>> e1d4bc35ff8a6074a6f2e91616a996b547c36f15
		<tag k="natural" v="hill" />
		<tag k="place" v="locality" />
		<tag k="ssr:stedsnr" v="867202" />
	</node>
<<<<<<< HEAD
	<node lat="68.71034166472293" lon="17.25010556518932" id="-38572">
		<tag k="name" v="Hilsaláhku" />
		<tag k="name:se" v="Hilsaláhku" />
=======
	<node id="-856065" lat="68.7265138926" lon="17.2971305536">
		<tag k="name" v="Blomholla" />
		<tag k="natural" v="valley" />
>>>>>>> e1d4bc35ff8a6074a6f2e91616a996b547c36f15
		<tag k="place" v="locality" />
		<tag k="ssr:stedsnr" v="869956" />
	</node>
<<<<<<< HEAD
	<node lat="68.70251111475868" lon="17.303527781385146" id="-38573">
		<tag k="fixme" v="consider natural=peak for the most distinct mountains in the district" />
		<tag k="name" v="Rundfjellet" />
		<tag k="natural" v="hill" />
		<tag k="place" v="locality" />
		<tag k="ssr:stedsnr" v="869957" />
	</node>
	<node lat="68.74829444855948" lon="17.301602772106676" id="-38580">
		<tag k="name" v="Grøsneslia" />
		<tag k="natural" v="slope" />
		<tag k="place" v="locality" />
		<tag k="ssr:stedsnr" v="879887" />
	</node>
	<node lat="68.76137499852042" lon="17.274566653473954" id="-38584">
		<tag k="name" v="Bonhågen" />
		<tag k="natural" v="hill" />
		<tag k="place" v="locality" />
		<tag k="ssr:stedsnr" v="960380" />
	</node>
	<node lat="68.76233055428052" lon="17.292211107889898" id="-38585">
		<tag k="name" v="Ørnholla" />
		<tag k="natural" v="valley" />
		<tag k="place" v="locality" />
		<tag k="ssr:stedsnr" v="960396" />
	</node>
	<node lat="68.72864722607575" lon="17.236877769775344" id="-38586">
		<tag k="name" v="Lofteteigan" />
		<tag k="natural" v="slope" />
		<tag k="place" v="locality" />
		<tag k="ssr:stedsnr" v="960400" />
	</node>
	<node lat="68.77692500277996" lon="17.293913899160938" id="-38587">
		<tag k="name" v="Holtebergan" />
		<tag k="natural" v="hill" />
		<tag k="place" v="locality" />
		<tag k="ssr:stedsnr" v="960420" />
	</node>
	<node lat="68.7322083357649" lon="17.464472214909037" id="-38588">
		<tag k="name" v="Strandhågen" />
		<tag k="natural" v="hill" />
		<tag k="place" v="locality" />
		<tag k="ssr:stedsnr" v="961265" />
	</node>
	<node lat="68.7906583307139" lon="17.393819430240324" id="-38589">
		<tag k="name" v="Durmålsskaret" />
		<tag k="natural" v="valley" />
		<tag k="place" v="locality" />
		<tag k="ssr:stedsnr" v="961280" />
	</node>
	<node lat="68.64657222453953" lon="17.733588887376154" id="-38592">
		<tag k="name" v="Steinhaugen" />
		<tag k="natural" v="hill" />
		<tag k="place" v="locality" />
		<tag k="ssr:stedsnr" v="961362" />
	</node>
	<node lat="68.62992222650911" lon="17.70185277501001" id="-38593">
		<tag k="name" v="Váráš" />
		<tag k="name:se" v="Váráš" />
		<tag k="natural" v="hill" />
		<tag k="place" v="locality" />
		<tag k="ssr:stedsnr" v="961363" />
	</node>
	<node lat="68.70423333486279" lon="17.47995277081824" id="-38595">
		<tag k="name" v="Sandmelen" />
		<tag k="natural" v="slope" />
		<tag k="place" v="locality" />
		<tag k="ssr:stedsnr" v="961464" />
	</node>
	<node lat="68.71904208417891" lon="17.404291909061616" id="-38603">
		<tag k="name" v="Čuvvágohpi" />
		<tag k="name:se" v="Čuvvágohpi" />
		<tag k="natural" v="valley" />
		<tag k="place" v="locality" />
		<tag k="ssr:stedsnr" v="989682" />
	</node>
=======
>>>>>>> e1d4bc35ff8a6074a6f2e91616a996b547c36f15
</osm>
