<?xml version="1.0" encoding="UTF-8"?>
<osm version="0.6" generator="osmapis">
	<node lat="68.8127472264451" lon="17.428327769353018" id="-96197">
		<tag k="name" v="Loftbergan" />
		<tag k="natural" v="hill" />
		<tag k="place" v="locality" />
		<tag k="ssr:stedsnr" v="231819" />
	</node>
	<node lat="68.81078055202241" lon="17.42327499620048" id="-96198">
		<tag k="name" v="Loftelva" />
		<tag k="ssr:stedsnr" v="231821" />
		<tag k="waterway" v="stream" />
	</node>
	<node lat="68.74987222299085" lon="17.29243888128077" id="-96199">
		<tag k="name" v="Brenna" />
		<tag k="natural" v="slope" />
		<tag k="place" v="locality" />
		<tag k="ssr:stedsnr" v="232360" />
	</node>
	<node lat="68.76127777400538" lon="17.299824994133296" id="-96200">
		<tag k="name" v="Finnheimen" />
		<tag k="place" v="locality" />
		<tag k="ssr:stedsnr" v="232362" />
	</node>
	<node lat="68.7322166677123" lon="17.247269444138208" id="-96201">
		<tag k="name" v="Stigebergan" />
		<tag k="natural" v="hill" />
		<tag k="place" v="locality" />
		<tag k="ssr:stedsnr" v="232367" />
	</node>
	<node lat="68.73011389001284" lon="17.265024986888932" id="-96202">
		<tag k="name" v="Neven" />
		<tag k="natural" v="hill" />
		<tag k="place" v="locality" />
		<tag k="ssr:stedsnr" v="232371" />
	</node>
	<node lat="68.69841110765327" lon="17.400694447947785" id="-96203">
		<tag k="name" v="Lia" />
		<tag k="natural" v="slope" />
		<tag k="place" v="locality" />
		<tag k="ssr:stedsnr" v="232417" />
	</node>
	<node lat="68.69661111143469" lon="17.414297213060514" id="-96204">
		<tag k="name" v="Nattmålshågen" />
		<tag k="natural" v="hill" />
		<tag k="place" v="locality" />
		<tag k="ssr:stedsnr" v="232419" />
	</node>
	<node lat="68.68848055913284" lon="17.402933336041624" id="-96205">
		<tag k="name" v="Stormyra" />
		<tag k="natural" v="wetland" />
		<tag k="ssr:stedsnr" v="232421" />
	</node>
	<node lat="68.6952556598337" lon="17.424558056242194" id="-96206">
		<tag k="name" v="Lia" />
		<tag k="place" v="farm" />
		<tag k="ssr:stedsnr" v="232426" />
	</node>
	<node lat="68.70486666563563" lon="17.694577763325587" id="-96207">
		<tag k="fixme" v="consider natural=peak for the most distinct mountains in the district" />
		<tag k="name" v="Hornaksla" />
		<tag k="natural" v="hill" />
		<tag k="place" v="locality" />
		<tag k="ssr:stedsnr" v="17604" />
	</node>
	<node lat="68.81001666493965" lon="17.442316675540795" id="-96208">
		<tag k="name" v="Holmen" />
		<tag k="natural" v="cape" />
		<tag k="ssr:stedsnr" v="233332" />
	</node>
	<node lat="68.73270278014267" lon="17.296013882994586" id="-96209">
		<tag k="name" v="Holtan" />
		<tag k="natural" v="cape" />
		<tag k="ssr:stedsnr" v="18894" />
	</node>
	<node lat="68.66154999873834" lon="17.681222214504242" id="-96210">
		<tag k="name" v="Revstrengmyra" />
		<tag k="natural" v="wetland" />
		<tag k="ssr:stedsnr" v="233387" />
	</node>
	<node lat="68.64921666653996" lon="17.734872210014977" id="-96211">
		<tag k="name" v="Marnberget" />
		<tag k="natural" v="hill" />
		<tag k="place" v="locality" />
		<tag k="ssr:stedsnr" v="233391" />
	</node>
	<node lat="68.81222777591674" lon="17.45382222894778" id="-96212">
		<tag k="name" v="Heia" />
		<tag k="natural" v="hill" />
		<tag k="place" v="locality" />
		<tag k="ssr:stedsnr" v="233302" />
	</node>
	<node lat="68.64311388558006" lon="17.753113884499932" id="-96213">
		<tag k="name" v="Jordnesen" />
		<tag k="natural" v="hill" />
		<tag k="place" v="locality" />
		<tag k="ssr:stedsnr" v="233400" />
	</node>
	<node lat="68.79966239531743" lon="17.388122329887906" id="-96215">
		<tag k="fixme" v="consider place=hamlet" />
		<tag k="name" v="Belnes" />
		<tag k="place" v="farm" />
		<tag k="ssr:stedsnr" v="25181" />
	</node>
	<node lat="68.69505000239045" lon="17.562402770447516" id="-96216">
		<tag k="alt_name" v="Esekel" />
		<tag k="name" v="Esekiel" />
		<tag k="place" v="locality" />
		<tag k="ssr:stedsnr" v="30633" />
	</node>
	<node lat="68.6827250006293" lon="17.600752785428426" id="-96217">
		<tag k="name" v="Storhammaren" />
		<tag k="natural" v="cape" />
		<tag k="ssr:stedsnr" v="272537" />
	</node>
	<node lat="68.71781389162356" lon="17.337933327486653" id="-96218">
		<tag k="name" v="Øvste skaret" />
		<tag k="natural" v="valley" />
		<tag k="place" v="locality" />
		<tag k="ssr:stedsnr" v="50379" />
	</node>
	<node lat="68.73564166263591" lon="17.26027222901312" id="-96219">
		<tag k="name" v="Dallevika" />
		<tag k="natural" v="bay" />
		<tag k="ssr:stedsnr" v="50381" />
	</node>
	<node lat="68.80397500077703" lon="17.40663610920993" id="-96220">
		<tag k="name" v="Bekken" />
		<tag k="ssr:stedsnr" v="51322" />
		<tag k="waterway" v="stream" />
	</node>
	<node lat="68.63519999628168" lon="17.691066659699707" id="-96221">
		<tag k="name" v="Čohkadievvá" />
		<tag k="name:se" v="Čohkadievvá" />
		<tag k="natural" v="hill" />
		<tag k="place" v="locality" />
		<tag k="ssr:stedsnr" v="51401" />
	</node>
	<node lat="68.64952500450693" lon="17.54004999349278" id="-96222">
		<tag k="name" v="Klemmeselvskogen" />
		<tag k="place" v="locality" />
		<tag k="ssr:stedsnr" v="51372" />
	</node>
	<node lat="68.73434722118944" lon="17.51912498958102" id="-96223">
		<tag k="name" v="Langhågen" />
		<tag k="natural" v="hill" />
		<tag k="place" v="locality" />
		<tag k="ssr:stedsnr" v="51384" />
	</node>
	<node lat="68.68561388649002" lon="17.37080278211036" id="-96224">
		<tag k="name" v="Mella Elven" />
		<tag k="natural" v="cape" />
		<tag k="ssr:stedsnr" v="51523" />
	</node>
	<node lat="68.7747888900859" lon="17.34899443371317" id="-96225">
		<tag k="name" v="Moan" />
		<tag k="place" v="locality" />
		<tag k="ssr:stedsnr" v="51480" />
	</node>
	<node lat="68.7154805516827" lon="17.405888887266286" id="-96226">
		<tag k="fixme" v="consider natural=peak for the most distinct mountains in the district" />
		<tag k="name" v="Middagsfjellet" />
		<tag k="natural" v="hill" />
		<tag k="place" v="locality" />
		<tag k="ssr:stedsnr" v="51484" />
	</node>
	<node lat="68.69272019677386" lon="17.42515504007593" id="-96227">
		<tag k="alt_name:no" v="Foldvik" />
		<tag k="fixme" v="consider place=hamlet" />
		<tag k="loc_name:se" v="Huvlaviika" />
		<tag k="name" v="Foldvika" />
		<tag k="name:no" v="Foldvika" />
		<tag k="place" v="village" />
		<tag k="ssr:stedsnr" v="78551" />
	</node>
	<node lat="68.64849999658595" lon="17.495652767679093" id="-96228">
		<tag k="name" v="Botnvatnet" />
		<tag k="natural" v="water" />
		<tag k="ssr:stedsnr" v="78597" />
	</node>
	<node lat="68.75414722305604" lon="17.580624987705857" id="-96231">
		<tag k="name" v="Stordalen" />
		<tag k="natural" v="valley" />
		<tag k="place" v="locality" />
		<tag k="ssr:stedsnr" v="79250" />
	</node>
	<node lat="68.62694999854695" lon="17.81508055819725" id="-96232">
		<tag k="fixme" v="consider natural=peak for the most distinct mountains in the district" />
		<tag k="name" v="Stortinden - Stuoračohkka" />
		<tag k="name:no" v="Stortinden" />
		<tag k="name:se" v="Stuoračohkka" />
		<tag k="natural" v="hill" />
		<tag k="old_name:se" v="Stuoračåkka" />
		<tag k="place" v="locality" />
		<tag k="ssr:stedsnr" v="79497" />
	</node>
	<node lat="68.76829166356653" lon="17.504530540559493" id="-96233">
		<tag k="alt_name" v="Holtinden" />
		<tag k="fixme" v="consider natural=peak for the most distinct mountains in the district" />
		<tag k="name" v="Båtkjølen" />
		<tag k="natural" v="hill" />
		<tag k="place" v="locality" />
		<tag k="ssr:stedsnr" v="79694" />
	</node>
	<node lat="68.69051110749832" lon="17.35542778431655" id="-96234">
		<tag k="fixme" v="multiple name:se tags, choose one and add the other to alt_name:se" />
		<tag k="name" v="Foldvikelva" />
		<tag k="name:no" v="Foldvikelva" />
		<tag k="name:se" v="Huvlláviikjohka;Huvlajohka" />
		<tag k="ssr:stedsnr" v="81985" />
		<tag k="waterway" v="river" />
	</node>
	<node lat="68.68265555690591" lon="17.46660833997071" id="-96237">
		<tag k="name" v="Hellarbugrunnen" />
		<tag k="natural" v="shoal" />
		<tag k="place" v="locality" />
		<tag k="ssr:stedsnr" v="90129" />
	</node>
	<node lat="68.70054721972315" lon="17.477938882569838" id="-96238">
		<tag k="name" v="Bonden" />
		<tag k="place" v="locality" />
		<tag k="seamark:type" v="rock" />
		<tag k="ssr:stedsnr" v="90766" />
	</node>
	<node lat="68.72854444490883" lon="17.264275003921792" id="-96239">
		<tag k="name" v="Langebergsteigan" />
		<tag k="natural" v="slope" />
		<tag k="place" v="locality" />
		<tag k="ssr:stedsnr" v="111381" />
	</node>
	<node lat="68.73282499722295" lon="17.288958338985996" id="-96240">
		<tag k="name" v="Holtan" />
		<tag k="place" v="locality" />
		<tag k="ssr:stedsnr" v="111390" />
	</node>
	<node lat="68.72651389261023" lon="17.297130553564873" id="-96241">
		<tag k="name" v="Blomholla" />
		<tag k="natural" v="valley" />
		<tag k="place" v="locality" />
		<tag k="ssr:stedsnr" v="111402" />
	</node>
	<node lat="68.73078333142611" lon="17.296608331522602" id="-96242">
		<tag k="name" v="Laksevika" />
		<tag k="natural" v="bay" />
		<tag k="ssr:stedsnr" v="111404" />
	</node>
	<node lat="68.67934444736703" lon="17.420052782816235" id="-96243">
		<tag k="name" v="Middagsmyra" />
		<tag k="natural" v="wetland" />
		<tag k="ssr:stedsnr" v="111407" />
	</node>
	<node lat="68.71895555933921" lon="17.4037166684241" id="-96244">
		<tag k="name" v="Bjørnskarva" />
		<tag k="natural" v="hill" />
		<tag k="place" v="locality" />
		<tag k="ssr:stedsnr" v="111422" />
	</node>
	<node lat="68.74173055169766" lon="17.36828609861578" id="-96245">
		<tag k="name" v="Måsholtet" />
		<tag k="place" v="locality" />
		<tag k="ssr:stedsnr" v="111470" />
	</node>
	<node lat="68.6721888907866" lon="17.637202787331166" id="-96246">
		<tag k="name" v="Skjellhågen" />
		<tag k="natural" v="hill" />
		<tag k="place" v="locality" />
		<tag k="ssr:stedsnr" v="112326" />
	</node>
	<node lat="68.66948055829891" lon="17.5338111079503" id="-96247">
		<tag k="name" v="Stormyra" />
		<tag k="natural" v="wetland" />
		<tag k="ssr:stedsnr" v="112330" />
	</node>
	<node lat="68.6767944459921" lon="17.79044445239645" id="-96248">
		<tag k="alt_name" v="Sølvelva, vestre" />
		<tag k="name" v="Vestre Sølvelva" />
		<tag k="ssr:stedsnr" v="138611" />
		<tag k="waterway" v="stream" />
	</node>
	<node lat="68.67122777788768" lon="17.411386106506473" id="-96249">
		<tag k="name" v="Dudalselva" />
		<tag k="ssr:stedsnr" v="138614" />
		<tag k="waterway" v="river" />
	</node>
	<node lat="68.62144999709807" lon="17.65064444253448" id="-96250">
		<tag k="name" v="Øse" />
		<tag k="place" v="farm" />
		<tag k="ssr:stedsnr" v="138507" />
	</node>
	<node lat="68.69240277573256" lon="17.842952778988817" id="-96251">
		<tag k="fixme" v="consider natural=peak for the most distinct mountains in the district" />
		<tag k="loc_name:se" v="Silbaloamičohkka" />
		<tag k="name" v="Sølvfjellet" />
		<tag k="name:no" v="Sølvfjellet" />
		<tag k="natural" v="hill" />
		<tag k="place" v="locality" />
		<tag k="ssr:stedsnr" v="138594" />
	</node>
	<node lat="68.64579166782633" lon="17.490747214478972" id="-96252">
		<tag k="name" v="Botnsletta" />
		<tag k="place" v="locality" />
		<tag k="ssr:stedsnr" v="139549" />
	</node>
	<node lat="68.75216388778951" lon="17.54783611851904" id="-96253">
		<tag k="fixme" v="consider natural=peak for the most distinct mountains in the district" />
		<tag k="name" v="Blåuran" />
		<tag k="natural" v="hill" />
		<tag k="place" v="locality" />
		<tag k="ssr:stedsnr" v="139703" />
	</node>
	<node lat="68.74633055281134" lon="17.475805552506355" id="-96254">
		<tag k="alt_name" v="Ytsteelva" />
		<tag k="name" v="Ystelielva" />
		<tag k="ssr:stedsnr" v="139700" />
		<tag k="waterway" v="stream" />
	</node>
	<node lat="68.75679722299931" lon="17.513677775495136" id="-96255">
		<tag k="fixme" v="consider natural=peak for the most distinct mountains in the district" />
		<tag k="name" v="Rasekoppfjellet" />
		<tag k="natural" v="hill" />
		<tag k="place" v="locality" />
		<tag k="ssr:stedsnr" v="139701" />
	</node>
	<node lat="68.73953610865756" lon="17.32223332094881" id="-96257">
		<tag k="name" v="Lille Grøsnes" />
		<tag k="place" v="farm" />
		<tag k="ssr:stedsnr" v="147637" />
	</node>
	<node lat="68.60726666749456" lon="17.62345278528494" id="-96261">
		<tag k="name" v="Langvatnet" />
		<tag k="natural" v="water" />
		<tag k="ssr:stedsnr" v="260569" />
		<tag k="water" v="lake" />
	</node>
	<node lat="68.60786111551772" lon="17.586624992763277" id="-96262">
		<tag k="fixme" v="consider natural=peak for the most distinct mountains in the district" />
		<tag k="name" v="Storfjellaksla" />
		<tag k="natural" v="hill" />
		<tag k="place" v="locality" />
		<tag k="ssr:stedsnr" v="260570" />
	</node>
	<node lat="68.65231111025814" lon="17.68139721219105" id="-96263">
		<tag k="alt_name" v="Middagshågen" />
		<tag k="name" v="Middagshaugen" />
		<tag k="natural" v="hill" />
		<tag k="place" v="locality" />
		<tag k="ssr:stedsnr" v="260624" />
	</node>
	<node lat="68.6406544539944" lon="17.552519572963618" id="-96264">
		<tag k="name" v="Labergsdalen" />
		<tag k="place" v="locality" />
		<tag k="ssr:stedsnr" v="260544" />
	</node>
	<node lat="68.81968333571186" lon="17.462091664848792" id="-96265">
		<tag k="name" v="Svarthammaren" />
		<tag k="natural" v="cape" />
		<tag k="ssr:stedsnr" v="260724" />
	</node>
	<node lat="68.77333332907865" lon="17.482016672420635" id="-96266">
		<tag k="fixme" v="consider natural=peak for the most distinct mountains in the district" />
		<tag k="name" v="Ystelifjellet" />
		<tag k="natural" v="hill" />
		<tag k="place" v="locality" />
		<tag k="ssr:stedsnr" v="260765" />
	</node>
	<node lat="68.81181111516679" lon="17.427777769413197" id="-96267">
		<tag k="name" v="Gårdselva" />
		<tag k="ssr:stedsnr" v="170806" />
		<tag k="waterway" v="stream" />
	</node>
	<node lat="68.78414249204933" lon="17.332572423315664" id="-96268">
		<tag k="alt_name" v="Litle Lauvdal;Lauvdal, l" />
		<tag k="name" v="Lille Løvdal" />
		<tag k="place" v="farm" />
		<tag k="ssr:stedsnr" v="260977" />
	</node>
	<node lat="68.77239444069869" lon="17.274674991355532" id="-96269">
		<tag k="name" v="Selnakken" />
		<tag k="natural" v="hill" />
		<tag k="place" v="locality" />
		<tag k="ssr:stedsnr" v="171413" />
	</node>
	<node lat="68.72419999613457" lon="17.29815278418406" id="-96270">
		<tag k="name" v="Skarvberglemelva" />
		<tag k="ssr:stedsnr" v="171420" />
		<tag k="waterway" v="stream" />
	</node>
	<node lat="68.71893055555273" lon="17.20747222120788" id="-96271">
		<tag k="name" v="Storelvdalen" />
		<tag k="natural" v="valley" />
		<tag k="place" v="locality" />
		<tag k="ssr:stedsnr" v="171360" />
	</node>
	<node lat="68.72244722012235" lon="17.21839444715159" id="-96272">
		<tag k="fixme" v="consider natural=peak for the most distinct mountains in the district" />
		<tag k="name" v="Ørnreiret" />
		<tag k="natural" v="hill" />
		<tag k="place" v="locality" />
		<tag k="ssr:stedsnr" v="171363" />
	</node>
	<node lat="68.66543889002662" lon="17.58723332888443" id="-96273">
		<tag k="name" v="Klubbevatnan" />
		<tag k="natural" v="water" />
		<tag k="ssr:stedsnr" v="172302" />
		<tag k="water" v="lake" />
	</node>
	<node lat="68.66533888886067" lon="17.53891110221006" id="-96274">
		<tag k="name" v="Høgdeteigan" />
		<tag k="natural" v="slope" />
		<tag k="place" v="locality" />
		<tag k="ssr:stedsnr" v="172303" />
	</node>
	<node lat="68.67756110834065" lon="17.53716665646144" id="-96275">
		<tag k="name" v="Tortenholla" />
		<tag k="natural" v="valley" />
		<tag k="place" v="locality" />
		<tag k="ssr:stedsnr" v="172307" />
	</node>
	<node lat="68.67876388826771" lon="17.57400276900878" id="-96276">
		<tag k="name" v="Ørnhammarn" />
		<tag k="natural" v="hill" />
		<tag k="place" v="locality" />
		<tag k="ssr:stedsnr" v="172309" />
	</node>
	<node lat="68.67679166543995" lon="17.572688895798425" id="-96277">
		<tag k="fixme" v="consider natural=peak for the most distinct mountains in the district" />
		<tag k="name" v="Middagsfjellet" />
		<tag k="natural" v="hill" />
		<tag k="place" v="locality" />
		<tag k="ssr:stedsnr" v="172310" />
	</node>
	<node lat="68.67400555374373" lon="17.533683323761707" id="-96278">
		<tag k="name" v="Milmarka" />
		<tag k="place" v="locality" />
		<tag k="ssr:stedsnr" v="172314" />
	</node>
	<node lat="68.6724777810803" lon="17.44310000928166" id="-96279">
		<tag k="name" v="Falkeberget" />
		<tag k="natural" v="hill" />
		<tag k="place" v="locality" />
		<tag k="ssr:stedsnr" v="172457" />
	</node>
	<node lat="68.65004722072592" lon="17.652602772294603" id="-96280">
		<tag k="name" v="Reingjerdan" />
		<tag k="natural" v="slope" />
		<tag k="place" v="locality" />
		<tag k="ssr:stedsnr" v="172355" />
	</node>
	<node lat="68.76004444742301" lon="17.374119443301435" id="-96281">
		<tag k="name" v="Rundhågen" />
		<tag k="natural" v="hill" />
		<tag k="place" v="locality" />
		<tag k="ssr:stedsnr" v="172503" />
	</node>
	<node lat="68.74462499787023" lon="17.414894440929704" id="-96282">
		<tag k="name" v="Skjærberget" />
		<tag k="natural" v="hill" />
		<tag k="place" v="locality" />
		<tag k="ssr:stedsnr" v="172510" />
	</node>
	<node lat="68.74643055524334" lon="17.46710832893615" id="-96283">
		<tag k="name" v="Kvantohøgda" />
		<tag k="natural" v="hill" />
		<tag k="place" v="locality" />
		<tag k="ssr:stedsnr" v="172513" />
	</node>
	<node lat="68.72442500345929" lon="17.360174987610186" id="-96284">
		<tag k="name" v="Skjelloran" />
		<tag k="natural" v="scree" />
		<tag k="ssr:stedsnr" v="172520" />
	</node>
	<node lat="68.62819167100685" lon="17.631338880732308" id="-96285">
		<tag k="fixme" v="consider place=hamlet" />
		<tag k="name" v="Vassøse" />
		<tag k="place" v="village" />
		<tag k="ssr:stedsnr" v="261517" />
	</node>
	<node lat="68.6301111138535" lon="17.73298610853831" id="-96286">
		<tag k="alt_name" v="Forslia" />
		<tag k="name" v="Fosslia" />
		<tag k="natural" v="slope" />
		<tag k="place" v="locality" />
		<tag k="ssr:stedsnr" v="261529" />
	</node>
	<node lat="68.64373055435219" lon="17.529974995638106" id="-96288">
		<tag k="name" v="Labergsdalen" />
		<tag k="name:no" v="Labergsdalen" />
		<tag k="name:se" v="Gálavuopmi" />
		<tag k="natural" v="valley" />
		<tag k="old_name:se" v="Galavuobmi" />
		<tag k="place" v="locality" />
		<tag k="ssr:stedsnr" v="264520" />
	</node>
	<node lat="68.6134861103422" lon="17.627008336683755" id="-96289">
		<tag k="name" v="Henrikkjølen" />
		<tag k="natural" v="cape" />
		<tag k="ssr:stedsnr" v="199504" />
	</node>
	<node lat="68.68392500062417" lon="17.4464027834605" id="-96290">
		<tag k="name" v="Foldvika" />
		<tag k="natural" v="bay" />
		<tag k="ssr:stedsnr" v="199572" />
	</node>
	<node lat="68.680227777231" lon="17.61553612084629" id="-96291">
		<tag k="name" v="Haugen" />
		<tag k="place" v="farm" />
		<tag k="ssr:stedsnr" v="199573" />
	</node>
	<node lat="68.79793610841429" lon="17.590547220981033" id="-96292">
		<tag k="bay" v="fjord" />
		<tag k="name" v="Lavangen" />
		<tag k="name:no" v="Lavangen" />
		<tag k="name:se" v="Loabákvuotna" />
		<tag k="natural" v="bay" />
		<tag k="ssr:stedsnr" v="200691" />
	</node>
	<node lat="68.71872500220556" lon="17.262919452651396" id="-96294">
		<tag k="name" v="Hilleshamnvatnet" />
		<tag k="name:no" v="Hilleshamnvatnet" />
		<tag k="name:se" v="Hilssájávri" />
		<tag k="natural" v="water" />
		<tag k="ssr:stedsnr" v="202970" />
	</node>
	<node lat="68.71878888938298" lon="17.31926110353402" id="-96295">
		<tag k="alt_name" v="Åmundvikelva" />
		<tag k="name" v="Åmundsvikelva" />
		<tag k="ssr:stedsnr" v="202975" />
		<tag k="waterway" v="stream" />
	</node>
	<node lat="68.6918888919761" lon="17.540619432799947" id="-96296">
		<tag k="alt_name" v="Orhaugen" />
		<tag k="name" v="Orrhågen" />
		<tag k="natural" v="hill" />
		<tag k="place" v="locality" />
		<tag k="ssr:stedsnr" v="211573" />
	</node>
	<node lat="68.72003055880596" lon="17.357288877223404" id="-96297">
		<tag k="name" v="Mellaskaret" />
		<tag k="natural" v="valley" />
		<tag k="place" v="locality" />
		<tag k="ssr:stedsnr" v="212229" />
	</node>
	<node lat="68.6822944438197" lon="17.43896945295666" id="-96303">
		<tag k="name" v="Dudalsholtan" />
		<tag k="place" v="locality" />
		<tag k="ssr:stedsnr" v="232428" />
	</node>
	<node lat="68.75131666622755" lon="17.385486103718183" id="-96304">
		<tag k="name" v="Glassteinhågen" />
		<tag k="natural" v="hill" />
		<tag k="place" v="locality" />
		<tag k="ssr:stedsnr" v="232430" />
	</node>
	<node lat="68.74579166514526" lon="17.386427768626945" id="-96305">
		<tag k="name" v="Garnsteinen" />
		<tag k="natural" v="stone" />
		<tag k="ssr:stedsnr" v="232432" />
	</node>
	<node lat="68.74039166775736" lon="17.45281387625664" id="-96306">
		<tag k="name" v="Smålian" />
		<tag k="natural" v="slope" />
		<tag k="place" v="locality" />
		<tag k="ssr:stedsnr" v="233286" />
	</node>
	<node lat="68.79621111085432" lon="17.399597227207543" id="-96307">
		<tag k="name" v="Langeberget" />
		<tag k="natural" v="hill" />
		<tag k="place" v="locality" />
		<tag k="ssr:stedsnr" v="233306" />
	</node>
	<node lat="68.66806666359503" lon="17.523988878798885" id="-96308">
		<tag k="name" v="Lyshøgdmyra" />
		<tag k="natural" v="wetland" />
		<tag k="ssr:stedsnr" v="233321" />
	</node>
	<node lat="68.69841388716604" lon="17.516555542368426" id="-96309">
		<tag k="name" v="Stielva" />
		<tag k="ssr:stedsnr" v="233383" />
		<tag k="waterway" v="stream" />
	</node>
	<node lat="68.6735000043908" lon="17.735794431938366" id="-96310">
		<tag k="name" v="Storslettelva" />
		<tag k="ssr:stedsnr" v="233385" />
		<tag k="waterway" v="stream" />
	</node>
	<node lat="68.80860277484099" lon="17.398605549541603" id="-96315">
		<tag k="name" v="Kobbgrunnen" />
		<tag k="natural" v="shoal" />
		<tag k="place" v="locality" />
		<tag k="ssr:stedsnr" v="454973" />
	</node>
	<node lat="68.70187500300608" lon="17.736552782758654" id="-96316">
		<tag k="name" v="Jalgesáidi - Fjordbotneidet" />
		<tag k="name:no" v="Fjordbotneidet" />
		<tag k="name:se" v="Jalgesáidi" />
		<tag k="old_name:se" v="Jalgesaidi" />
		<tag k="place" v="locality" />
		<tag k="ssr:stedsnr" v="260604" />
	</node>
	<node lat="68.65738888487263" lon="17.580644437297266" id="-96317">
		<tag k="alt_name" v="Klemmeselvvatnet, nedre" />
		<tag k="name" v="Nedre Klemmeselvvatnet" />
		<tag k="natural" v="water" />
		<tag k="ssr:stedsnr" v="260616" />
	</node>
	<node lat="68.70493889106432" lon="17.629213887066467" id="-96318">
		<tag k="fixme" v="consider natural=peak for the most distinct mountains in the district" />
		<tag k="name" v="Årsteinhornet" />
		<tag k="name:no" v="Årsteinhornet" />
		<tag k="name:se" v="Čoarvečohkka" />
		<tag k="natural" v="hill" />
		<tag k="place" v="locality" />
		<tag k="ssr:stedsnr" v="260598" />
	</node>
	<node lat="68.89702777911363" lon="17.57659721844176" id="-96320">
		<tag k="bay" v="fjord" />
		<tag k="name" v="Salangen" />
		<tag k="name:no" v="Salangen" />
		<tag k="name:se" v="Siellakvuotna" />
		<tag k="natural" v="bay" />
		<tag k="ssr:stedsnr" v="260857" />
	</node>
	<node lat="68.7351111129933" lon="17.263577766226707" id="-96321">
		<tag k="name" v="Hamnneset" />
		<tag k="natural" v="cape" />
		<tag k="ssr:stedsnr" v="260950" />
	</node>
	<node lat="68.7396805591916" lon="17.316019449161516" id="-96322">
		<tag k="name" v="Langneset" />
		<tag k="natural" v="cape" />
		<tag k="ssr:stedsnr" v="272874" />
	</node>
	<node lat="68.72568889351903" lon="17.210016658461257" id="-96324">
		<tag k="name" v="Olderteigen" />
		<tag k="natural" v="slope" />
		<tag k="place" v="locality" />
		<tag k="ssr:stedsnr" v="292385" />
	</node>
	<node lat="68.8191444442181" lon="17.463347211663606" id="-96325">
		<tag k="name" v="Munnsletta" />
		<tag k="place" v="locality" />
		<tag k="ssr:stedsnr" v="293324" />
	</node>
	<node lat="68.67178333720089" lon="17.708708334137263" id="-96326">
		<tag k="fixme" v="consider natural=peak for the most distinct mountains in the district" />
		<tag k="name" v="Kalmeryggen" />
		<tag k="natural" v="hill" />
		<tag k="place" v="locality" />
		<tag k="ssr:stedsnr" v="293404" />
	</node>
	<node lat="68.74973332975186" lon="17.41361666331045" id="-96327">
		<tag k="name" v="Bratthøgda" />
		<tag k="natural" v="hill" />
		<tag k="place" v="locality" />
		<tag k="ssr:stedsnr" v="293502" />
	</node>
	<node lat="68.70729999619606" lon="17.496616670731786" id="-96328">
		<tag k="name" v="Trolldalselva" />
		<tag k="ssr:stedsnr" v="293474" />
		<tag k="waterway" v="stream" />
	</node>
	<node lat="68.69314444368264" lon="17.3572416545238" id="-96329">
		<tag k="name" v="Lillereingjerdet" />
		<tag k="place" v="locality" />
		<tag k="ssr:stedsnr" v="293480" />
	</node>
	<node lat="68.69168611230566" lon="17.387758322532356" id="-96330">
		<tag k="name" v="Storelva" />
		<tag k="ssr:stedsnr" v="293483" />
		<tag k="waterway" v="river" />
	</node>
	<node lat="68.64711163729119" lon="17.718804140498456" id="-96331">
		<tag k="name" v="Fjelldal" />
		<tag k="place" v="farm" />
		<tag k="ssr:stedsnr" v="321485" />
	</node>
	<node lat="68.64558333495398" lon="17.71204165502059" id="-96332">
		<tag k="alt_name" v="Bjerkemoelva" />
		<tag k="name" v="Bjørkmoelva" />
		<tag k="ssr:stedsnr" v="321491" />
		<tag k="waterway" v="stream" />
	</node>
	<node lat="68.68733055741805" lon="17.638816667519038" id="-96335">
		<tag k="name" v="Svennlia" />
		<tag k="natural" v="slope" />
		<tag k="place" v="locality" />
		<tag k="ssr:stedsnr" v="334613" />
	</node>
	<node lat="68.73091389081242" lon="17.25010555779973" id="-96336">
		<tag k="name" v="Øvrehalsan" />
		<tag k="natural" v="hill" />
		<tag k="place" v="locality" />
		<tag k="ssr:stedsnr" v="353407" />
	</node>
	<node lat="68.72964444254687" lon="17.290558320378587" id="-96337">
		<tag k="name" v="Stilleholtan" />
		<tag k="place" v="locality" />
		<tag k="ssr:stedsnr" v="353416" />
	</node>
	<node lat="68.74237222423825" lon="17.31461666693724" id="-96338">
		<tag k="name" v="Lavika" />
		<tag k="natural" v="bay" />
		<tag k="ssr:stedsnr" v="353418" />
	</node>
	<node lat="68.7270111129725" lon="17.319819440538826" id="-96339">
		<tag k="name" v="Perbulian" />
		<tag k="natural" v="slope" />
		<tag k="place" v="locality" />
		<tag k="ssr:stedsnr" v="353422" />
	</node>
	<node lat="68.71842222240963" lon="17.395805543788317" id="-96340">
		<tag k="name" v="Bjørnhågen" />
		<tag k="natural" v="hill" />
		<tag k="place" v="locality" />
		<tag k="ssr:stedsnr" v="354455" />
	</node>
	<node lat="68.73083611383393" lon="17.478511101972515" id="-96341">
		<tag k="name" v="Vedsteinen" />
		<tag k="natural" v="stone" />
		<tag k="ssr:stedsnr" v="475255" />
	</node>
	<node lat="68.73025833281942" lon="17.485466666415025" id="-96342">
		<tag k="fixme" v="consider natural=peak for the most distinct mountains in the district" />
		<tag k="name" v="Svartfjellet" />
		<tag k="natural" v="hill" />
		<tag k="place" v="locality" />
		<tag k="ssr:stedsnr" v="475257" />
	</node>
	<node lat="68.79433610863263" lon="17.363750009542887" id="-96343">
		<tag k="name" v="Hans-Olaihågen" />
		<tag k="natural" v="hill" />
		<tag k="place" v="locality" />
		<tag k="ssr:stedsnr" v="475280" />
	</node>
	<node lat="68.80648610902345" lon="17.428063890124136" id="-96344">
		<tag k="fixme" v="consider natural=peak for the most distinct mountains in the district" />
		<tag k="name" v="Slettkollen" />
		<tag k="natural" v="hill" />
		<tag k="place" v="locality" />
		<tag k="ssr:stedsnr" v="475283" />
	</node>
	<node lat="68.72555278116715" lon="17.47891111513713" id="-96345">
		<tag k="name" v="Skredelva" />
		<tag k="ssr:stedsnr" v="475287" />
		<tag k="waterway" v="stream" />
	</node>
	<node lat="68.67137500158033" lon="17.651211104012773" id="-96346">
		<tag k="alt_name" v="Elveneshaugen" />
		<tag k="name" v="Elveneshågen" />
		<tag k="natural" v="hill" />
		<tag k="place" v="locality" />
		<tag k="ssr:stedsnr" v="475293" />
	</node>
	<node lat="68.66283611134081" lon="17.636619454175086" id="-96347">
		<tag k="name" v="Hågskogen" />
		<tag k="place" v="locality" />
		<tag k="ssr:stedsnr" v="475294" />
	</node>
	<node lat="68.66370277833738" lon="17.663783320519066" id="-96348">
		<tag k="name" v="Høgda" />
		<tag k="natural" v="hill" />
		<tag k="place" v="locality" />
		<tag k="ssr:stedsnr" v="475329" />
	</node>
	<node lat="68.64840833710181" lon="17.549333344844012" id="-96349">
		<tag k="name" v="Klemmeselvholmen" />
		<tag k="natural" v="cape" />
		<tag k="ssr:stedsnr" v="475336" />
	</node>
	<node lat="68.62510555281106" lon="17.73828054358609" id="-96350">
		<tag k="name" v="Storfossen" />
		<tag k="natural" v="waterfall" />
		<tag k="ssr:stedsnr" v="475376" />
	</node>
	<node lat="68.64531666305324" lon="17.71575278060733" id="-96351">
		<tag k="name" v="Beinberget" />
		<tag k="natural" v="hill" />
		<tag k="place" v="locality" />
		<tag k="ssr:stedsnr" v="475394" />
	</node>
	<node lat="68.67764721807096" lon="17.43002777538045" id="-96352">
		<tag k="name" v="Rikmannsheimen" />
		<tag k="place" v="locality" />
		<tag k="ssr:stedsnr" v="475433" />
	</node>
	<node lat="68.67654444485382" lon="17.428799997892018" id="-96353">
		<tag k="name" v="Dudalsholtet" />
		<tag k="place" v="locality" />
		<tag k="ssr:stedsnr" v="475434" />
	</node>
	<node lat="68.6741305597259" lon="17.479302769857345" id="-96354">
		<tag k="name" v="Krokan" />
		<tag k="natural" v="slope" />
		<tag k="place" v="locality" />
		<tag k="ssr:stedsnr" v="475444" />
	</node>
	<node lat="68.71740833279947" lon="17.397769438743627" id="-96355">
		<tag k="name" v="Vedhågen" />
		<tag k="natural" v="hill" />
		<tag k="place" v="locality" />
		<tag k="ssr:stedsnr" v="475445" />
	</node>
	<node lat="68.72016666854594" lon="17.47055555812481" id="-96356">
		<tag k="fixme" v="consider natural=peak for the most distinct mountains in the district" />
		<tag k="name" v="Geitryggen" />
		<tag k="natural" v="hill" />
		<tag k="place" v="locality" />
		<tag k="ssr:stedsnr" v="475449" />
	</node>
	<node lat="68.71088611322891" lon="17.490002770301455" id="-96357">
		<tag k="name" v="Hestemyra" />
		<tag k="natural" v="wetland" />
		<tag k="ssr:stedsnr" v="475457" />
	</node>
	<node lat="68.65982222221966" lon="17.683677776349136" id="-96358">
		<tag k="name" v="Storbakken" />
		<tag k="natural" v="slope" />
		<tag k="place" v="locality" />
		<tag k="ssr:stedsnr" v="381602" />
	</node>
	<node lat="68.63063611571862" lon="17.758741654667087" id="-96359">
		<tag k="name" v="Lassaelva" />
		<tag k="ssr:stedsnr" v="382511" />
		<tag k="waterway" v="stream" />
	</node>
	<node lat="68.63225277814726" lon="17.769949990937906" id="-96360">
		<tag k="name" v="Holtåsbotn" />
		<tag k="name:no" v="Holtåsbotn" />
		<tag k="name:se" v="Skáidegohpi" />
		<tag k="natural" v="valley" />
		<tag k="place" v="locality" />
		<tag k="ssr:stedsnr" v="382517" />
	</node>
	<node lat="68.72543888947017" lon="17.411138885123872" id="-96361">
		<tag k="fixme" v="consider seamark:type=rock or natural=shoal" />
		<tag k="name" v="Vedmerra" />
		<tag k="place" v="islet" />
		<tag k="ssr:stedsnr" v="393232" />
	</node>
	<node lat="68.77553611287154" lon="17.28257499594993" id="-96362">
		<tag k="alt_name" v="Masivika" />
		<tag k="name" v="Madsvika" />
		<tag k="natural" v="bay" />
		<tag k="ssr:stedsnr" v="393901" />
	</node>
	<node lat="68.7244583315405" lon="17.20124722965155" id="-96363">
		<tag k="name" v="Flateberget" />
		<tag k="natural" v="hill" />
		<tag k="place" v="locality" />
		<tag k="ssr:stedsnr" v="414403" />
	</node>
	<node lat="68.74496388506154" lon="17.321438879061837" id="-96364">
		<tag k="name" v="Skredholla" />
		<tag k="natural" v="valley" />
		<tag k="place" v="locality" />
		<tag k="ssr:stedsnr" v="414385" />
	</node>
	<node lat="68.75353889082986" lon="17.299891675930972" id="-96365">
		<tag k="name" v="Lielva" />
		<tag k="ssr:stedsnr" v="414388" />
		<tag k="waterway" v="stream" />
	</node>
	<node lat="68.79873055864941" lon="17.3851416591733" id="-96366">
		<tag k="name" v="Skjellelva" />
		<tag k="ssr:stedsnr" v="415295" />
		<tag k="waterway" v="stream" />
	</node>
	<node lat="68.6735638934347" lon="17.652011102503174" id="-96367">
		<tag k="name" v="Hågvika" />
		<tag k="natural" v="bay" />
		<tag k="ssr:stedsnr" v="415301" />
	</node>
	<node lat="68.66481388552756" lon="17.65866388376763" id="-96368">
		<tag k="name" v="Klokkarbakkan" />
		<tag k="natural" v="slope" />
		<tag k="place" v="locality" />
		<tag k="ssr:stedsnr" v="415342" />
	</node>
	<node lat="68.642575004245" lon="17.708772209154443" id="-96369">
		<tag k="name" v="Bjørnarmyra" />
		<tag k="natural" v="wetland" />
		<tag k="ssr:stedsnr" v="415401" />
	</node>
	<node lat="68.69526388828247" lon="17.41573056305654" id="-96370">
		<tag k="name" v="Grønlia" />
		<tag k="natural" v="slope" />
		<tag k="place" v="locality" />
		<tag k="ssr:stedsnr" v="415505" />
	</node>
	<node lat="68.6564472198891" lon="17.702836114524217" id="-96371">
		<tag k="alt_name" v="Storforsen" />
		<tag k="name" v="Storfossen" />
		<tag k="natural" v="waterfall" />
		<tag k="ssr:stedsnr" v="442604" />
	</node>
	<node lat="68.66663333444241" lon="17.706827775878438" id="-96372">
		<tag k="name" v="Meelva" />
		<tag k="name:no" v="Meelva" />
		<tag k="name:se" v="Skuhpijohka" />
		<tag k="ssr:stedsnr" v="442590" />
		<tag k="waterway" v="river" />
	</node>
	<node lat="68.65329166437455" lon="17.63155278640979" id="-96373">
		<tag k="name" v="Tuva" />
		<tag k="natural" v="hill" />
		<tag k="place" v="locality" />
		<tag k="ssr:stedsnr" v="442600" />
	</node>
	<node lat="68.81847777359057" lon="17.45111389586224" id="-96374">
		<tag k="name" v="Kvitsteinsvika" />
		<tag k="natural" v="bay" />
		<tag k="ssr:stedsnr" v="442707" />
	</node>
	<node lat="68.62468611094451" lon="17.70373332234509" id="-96375">
		<tag k="name" v="Stuoraváráš" />
		<tag k="name:se" v="Stuoraváráš" />
		<tag k="natural" v="hill" />
		<tag k="old_name:se" v="Stuorvaraš" />
		<tag k="place" v="locality" />
		<tag k="ssr:stedsnr" v="443504" />
	</node>
	<node lat="68.73536111049323" lon="17.494961119697514" id="-96376">
		<tag k="fixme" v="multiple name tags, choose one and add the other to alt_name" />
		<tag k="name" v="Stordalen;Hesjebergdalen" />
		<tag k="natural" v="valley" />
		<tag k="place" v="locality" />
		<tag k="ssr:stedsnr" v="443936" />
	</node>
	<node lat="68.7873254848399" lon="17.351155364000835" id="-96377">
		<tag k="alt_name" v="Lauvdal" />
		<tag k="name" v="Løvdal" />
		<tag k="place" v="hamlet" />
		<tag k="ssr:stedsnr" v="446179" />
	</node>
	<node lat="68.68249444609005" lon="17.445477788131793" id="-96378">
		<tag k="name" v="Øyhalsen" />
		<tag k="natural" v="valley" />
		<tag k="place" v="locality" />
		<tag k="ssr:stedsnr" v="454150" />
	</node>
	<node lat="68.72689722463912" lon="17.224691662156577" id="-96379">
		<tag k="name" v="Smålian" />
		<tag k="natural" v="slope" />
		<tag k="place" v="locality" />
		<tag k="ssr:stedsnr" v="474410" />
	</node>
	<node lat="68.73510555675102" lon="17.282097226471567" id="-96380">
		<tag k="name" v="Høyberget" />
		<tag k="natural" v="hill" />
		<tag k="place" v="locality" />
		<tag k="ssr:stedsnr" v="474419" />
	</node>
	<node lat="68.7352194428361" lon="17.28559444660517" id="-96381">
		<tag k="name" v="Innersjøen" />
		<tag k="natural" v="bay" />
		<tag k="ssr:stedsnr" v="474421" />
	</node>
	<node lat="68.7278361142834" lon="17.280908320343542" id="-96382">
		<tag k="name" v="Lemman" />
		<tag k="natural" v="hill" />
		<tag k="place" v="locality" />
		<tag k="ssr:stedsnr" v="474422" />
	</node>
	<node lat="68.73048055515255" lon="17.27966943834048" id="-96383">
		<tag k="name" v="Stormyra" />
		<tag k="natural" v="wetland" />
		<tag k="ssr:stedsnr" v="474428" />
	</node>
	<node lat="68.7270444434157" lon="17.3173777752324" id="-96384">
		<tag k="name" v="Skarvberget" />
		<tag k="natural" v="hill" />
		<tag k="place" v="locality" />
		<tag k="ssr:stedsnr" v="474430" />
	</node>
	<node lat="68.72459166500599" lon="17.32475834082581" id="-96385">
		<tag k="name" v="Åmundhøgda" />
		<tag k="natural" v="hill" />
		<tag k="place" v="locality" />
		<tag k="ssr:stedsnr" v="474431" />
	</node>
	<node lat="68.7561083370589" lon="17.313619434553424" id="-96386">
		<tag k="name" v="Fjellvad" />
		<tag k="natural" v="hill" />
		<tag k="place" v="locality" />
		<tag k="ssr:stedsnr" v="474383" />
	</node>
	<node lat="68.81549444604866" lon="17.44639167742998" id="-96387">
		<tag k="name" v="Geitholla" />
		<tag k="natural" v="valley" />
		<tag k="place" v="locality" />
		<tag k="ssr:stedsnr" v="475305" />
	</node>
	<node lat="68.6051944427525" lon="17.62972500660907" id="-96388">
		<tag k="name" v="Storrenna" />
		<tag k="ssr:stedsnr" v="475308" />
		<tag k="waterway" v="stream" />
	</node>
	<node lat="68.73705555585917" lon="17.48404722415674" id="-96389">
		<tag k="highway" v="path" />
		<tag k="name" v="Grønnfjellveien" />
		<tag k="ssr:stedsnr" v="475260" />
	</node>
	<node lat="68.6980805583921" lon="17.3739277740277" id="-96390">
		<tag k="name" v="Vasslian" />
		<tag k="natural" v="slope" />
		<tag k="place" v="locality" />
		<tag k="ssr:stedsnr" v="475460" />
	</node>
	<node lat="68.70088611481377" lon="17.397108333016995" id="-96391">
		<tag k="fixme" v="consider natural=peak for the most distinct mountains in the district" />
		<tag k="name" v="Heibrunen" />
		<tag k="natural" v="hill" />
		<tag k="place" v="locality" />
		<tag k="ssr:stedsnr" v="475466" />
	</node>
	<node lat="68.69541944032594" lon="17.371672224297477" id="-96392">
		<tag k="name" v="Nuttegamsvatnan" />
		<tag k="natural" v="water" />
		<tag k="ssr:stedsnr" v="475467" />
		<tag k="water" v="lake" />
	</node>
	<node lat="68.69842500446794" lon="17.508013876975525" id="-96393">
		<tag k="name" v="Olavikelva" />
		<tag k="ssr:stedsnr" v="475478" />
		<tag k="waterway" v="stream" />
	</node>
	<node lat="68.61304444262552" lon="17.615580547622805" id="-96394">
		<tag k="name" v="Guksejávrrit" />
		<tag k="name:se" v="Guksejávrrit" />
		<tag k="natural" v="water" />
		<tag k="old_name:se" v="Guksejavrit" />
		<tag k="ssr:stedsnr" v="503522" />
		<tag k="water" v="lake" />
	</node>
	<node lat="68.61597778175933" lon="17.649605548661025" id="-96398">
		<tag k="name" v="Storvatnet" />
		<tag k="natural" v="water" />
		<tag k="ssr:stedsnr" v="503477" />
		<tag k="water" v="lake" />
	</node>
	<node lat="68.64452499678644" lon="17.783697210772438" id="-96399">
		<tag k="name" v="Loapmi" />
		<tag k="name:se" v="Loapmi" />
		<tag k="old_name:se" v="Loabmi" />
		<tag k="place" v="locality" />
		<tag k="ssr:stedsnr" v="503482" />
	</node>
	<node lat="68.64549113828403" lon="17.735526544616288" id="-96400">
		<tag k="fixme" v="consider place=hamlet" />
		<tag k="loc_name:no" v="Holtåsen" />
		<tag k="name" v="Holtås" />
		<tag k="name:no" v="Holtås" />
		<tag k="name:se" v="Reaidduorda" />
		<tag k="place" v="farm" />
		<tag k="ssr:stedsnr" v="503483" />
	</node>
	<node lat="68.64600277894043" lon="17.660225006368893" id="-96401">
		<tag k="name" v="Kjølen" />
		<tag k="natural" v="hill" />
		<tag k="place" v="locality" />
		<tag k="ssr:stedsnr" v="503484" />
	</node>
	<node lat="68.77756944800446" lon="17.46864445005291" id="-96402">
		<tag k="name" v="Nebbergan" />
		<tag k="natural" v="hill" />
		<tag k="place" v="locality" />
		<tag k="ssr:stedsnr" v="503669" />
	</node>
	<node lat="68.72856388463474" lon="17.39706667374601" id="-96403">
		<tag k="name" v="Håkjerringneset" />
		<tag k="natural" v="cape" />
		<tag k="ssr:stedsnr" v="503872" />
	</node>
	<node lat="68.81567232317033" lon="17.41948895905698" id="-96407">
		<tag k="fixme" v="multiple name tags, choose one and add the other to alt_name" />
		<tag k="name" v="Selnes;Neset" />
		<tag k="natural" v="cape" />
		<tag k="ssr:stedsnr" v="685187" />
	</node>
	<node lat="68.62003055350296" lon="17.620024996608304" id="-96409">
		<tag k="name" v="Holmen" />
		<tag k="place" v="islet" />
		<tag k="ssr:stedsnr" v="685502" />
	</node>
	<node lat="68.6119361087186" lon="17.717641674424613" id="-96410">
		<tag k="name" v="Rundvatnet" />
		<tag k="natural" v="water" />
		<tag k="ssr:stedsnr" v="685555" />
	</node>
	<node lat="68.67780418014391" lon="17.493066489690186" id="-96411">
		<tag k="alt_name" v="Svartebekken" />
		<tag k="fixme" v="consider place=hamlet" />
		<tag k="name" v="Sortebekken" />
		<tag k="place" v="farm" />
		<tag k="ssr:stedsnr" v="685564" />
	</node>
	<node lat="68.66902222385187" lon="17.796538877238348" id="-96413">
		<tag k="name" v="Perniamyra" />
		<tag k="natural" v="wetland" />
		<tag k="ssr:stedsnr" v="685606" />
	</node>
	<node lat="68.64491388849044" lon="17.697750004484355" id="-96414">
		<tag k="name" v="Bjørnarvatnet" />
		<tag k="natural" v="water" />
		<tag k="ssr:stedsnr" v="685511" />
		<tag k="water" v="lake" />
	</node>
	<node lat="68.63704444616506" lon="17.768986109057398" id="-96415">
		<tag k="alt_name" v="Indretverrelva" />
		<tag k="name" v="Indre Tverrelva" />
		<tag k="ssr:stedsnr" v="685514" />
		<tag k="waterway" v="stream" />
	</node>
	<node lat="68.7467984930775" lon="17.41637723063257" id="-96416">
		<tag k="alt_name" v="Lavik" />
		<tag k="fixme" v="consider place=hamlet" />
		<tag k="name" v="Lavika" />
		<tag k="place" v="farm" />
		<tag k="ssr:stedsnr" v="685917" />
	</node>
	<node lat="68.7528833355466" lon="17.27006110436657" id="-96418">
		<tag k="name" v="Klemnes" />
		<tag k="natural" v="cape" />
		<tag k="ssr:stedsnr" v="535386" />
	</node>
	<node lat="68.73096944699358" lon="17.25873612177331" id="-96419">
		<tag k="name" v="Revsteinen" />
		<tag k="natural" v="stone" />
		<tag k="ssr:stedsnr" v="535405" />
	</node>
	<node lat="68.73503611286324" lon="17.29064167695108" id="-96420">
		<tag k="name" v="Teisteberget" />
		<tag k="natural" v="hill" />
		<tag k="place" v="locality" />
		<tag k="ssr:stedsnr" v="535417" />
	</node>
	<node lat="68.81394721977905" lon="17.41706944620654" id="-96421">
		<tag k="fixme" v="verify maritime location" />
		<tag k="mooring" v="yes" />
		<tag k="name" v="Støen" />
		<tag k="place" v="locality" />
		<tag k="ssr:stedsnr" v="535771" />
	</node>
	<node lat="68.79501666483698" lon="17.394586105736636" id="-96422">
		<tag k="name" v="Grindbakken" />
		<tag k="natural" v="slope" />
		<tag k="place" v="locality" />
		<tag k="ssr:stedsnr" v="536270" />
	</node>
	<node lat="68.66205833126973" lon="17.41503056407006" id="-96423">
		<tag k="name" v="Talggrøtbergan" />
		<tag k="natural" v="hill" />
		<tag k="place" v="locality" />
		<tag k="ssr:stedsnr" v="536422" />
	</node>
	<node lat="68.71613889159832" lon="17.469047224736986" id="-96429">
		<tag k="name" v="Skifteneset" />
		<tag k="natural" v="cape" />
		<tag k="ssr:stedsnr" v="575754" />
	</node>
	<node lat="68.73930833150253" lon="17.353366660589113" id="-96430">
		<tag k="name" v="Finnvikneset" />
		<tag k="natural" v="cape" />
		<tag k="ssr:stedsnr" v="696898" />
	</node>
	<node lat="68.7783305588285" lon="17.240555557289948" id="-96431">
		<tag k="name" v="Salangsgrunnen" />
		<tag k="natural" v="shoal" />
		<tag k="place" v="locality" />
		<tag k="ssr:stedsnr" v="697402" />
	</node>
	<node lat="68.74610833738933" lon="17.390813885995925" id="-96432">
		<tag k="name" v="Åmundsberget" />
		<tag k="natural" v="cape" />
		<tag k="ssr:stedsnr" v="697862" />
	</node>
	<node lat="68.76776944677081" lon="17.294875005445043" id="-96433">
		<tag k="fixme" v="consider natural=peak for the most distinct mountains in the district" />
		<tag k="name" v="Storfløya" />
		<tag k="natural" v="hill" />
		<tag k="place" v="locality" />
		<tag k="ssr:stedsnr" v="596362" />
	</node>
	<node lat="68.68240555609" lon="17.33386389123495" id="-96434">
		<tag k="fixme" v="consider natural=peak for the most distinct mountains in the district" />
		<tag k="name" v="Ranen" />
		<tag k="natural" v="hill" />
		<tag k="place" v="locality" />
		<tag k="ssr:stedsnr" v="596365" />
	</node>
	<node lat="68.71138333092478" lon="17.42004166919747" id="-96435">
		<tag k="name" v="Henrikskaret" />
		<tag k="natural" v="valley" />
		<tag k="place" v="locality" />
		<tag k="ssr:stedsnr" v="596416" />
	</node>
	<node lat="68.72131667074679" lon="17.404416662244046" id="-96436">
		<tag k="name" v="Grindtøhågen" />
		<tag k="natural" v="hill" />
		<tag k="place" v="locality" />
		<tag k="ssr:stedsnr" v="596417" />
	</node>
	<node lat="68.75053611385752" lon="17.4031416661467" id="-96437">
		<tag k="name" v="Nattmålshågen" />
		<tag k="natural" v="hill" />
		<tag k="place" v="locality" />
		<tag k="ssr:stedsnr" v="596451" />
	</node>
	<node lat="68.68734166519984" lon="17.649130550279747" id="-96438">
		<tag k="name" v="Smålian" />
		<tag k="natural" v="slope" />
		<tag k="place" v="locality" />
		<tag k="ssr:stedsnr" v="597352" />
	</node>
	<node lat="68.6759555550194" lon="17.50717222812208" id="-96439">
		<tag k="alt_name:no" v="Laberg" />
		<tag k="fixme" v="consider place=hamlet" />
		<tag k="loc_name:se" v="Gálla" />
		<tag k="name" v="Laberget" />
		<tag k="name:no" v="Laberget" />
		<tag k="place" v="village" />
		<tag k="ssr:stedsnr" v="624604" />
	</node>
	<node lat="68.66857500046987" lon="17.668255556867585" id="-96440">
		<tag k="fixme" v="consider place=hamlet" />
		<tag k="loc_name:se" v="Rivttákbahta" />
		<tag k="name" v="Gratangsbotn" />
		<tag k="name:no" v="Gratangsbotn" />
		<tag k="place" v="village" />
		<tag k="ssr:stedsnr" v="624607" />
	</node>
	<node lat="68.66974166345513" lon="17.76536388884502" id="-96441">
		<tag k="name" v="Finnesletta" />
		<tag k="place" v="locality" />
		<tag k="ssr:stedsnr" v="624610" />
	</node>
	<node lat="68.76221944675497" lon="17.25363889340866" id="-96442">
		<tag k="alt_name" v="Høyneset" />
		<tag k="name" v="Høgneset" />
		<tag k="natural" v="cape" />
		<tag k="ssr:stedsnr" v="624992" />
	</node>
	<node lat="68.74287499815192" lon="17.43313054220485" id="-96446">
		<tag k="name" v="Brattberget" />
		<tag k="natural" v="hill" />
		<tag k="place" v="locality" />
		<tag k="ssr:stedsnr" v="635826" />
	</node>
	<node lat="68.75632777857443" lon="17.254055554417025" id="-96447">
		<tag k="name" v="Jøvika" />
		<tag k="natural" v="bay" />
		<tag k="ssr:stedsnr" v="656383" />
	</node>
	<node lat="68.72576389270306" lon="17.234438895968953" id="-96448">
		<tag k="fixme" v="consider natural=peak for the most distinct mountains in the district" />
		<tag k="name" v="Skjærvikflogan" />
		<tag k="natural" v="hill" />
		<tag k="place" v="locality" />
		<tag k="ssr:stedsnr" v="656388" />
	</node>
	<node lat="68.7997500001432" lon="17.383566656798934" id="-96449">
		<tag k="name" v="Bergholla" />
		<tag k="natural" v="valley" />
		<tag k="place" v="locality" />
		<tag k="ssr:stedsnr" v="657290" />
	</node>
	<node lat="68.76674167001237" lon="17.36629167018523" id="-96450">
		<tag k="name" v="Skarbotn" />
		<tag k="natural" v="valley" />
		<tag k="place" v="locality" />
		<tag k="ssr:stedsnr" v="657293" />
	</node>
	<node lat="68.67782111143649" lon="17.624655922126085" id="-96451">
		<tag k="alt_name" v="Grimjord" />
		<tag k="fixme" v="consider place=hamlet" />
		<tag k="name" v="Grimjorda" />
		<tag k="place" v="farm" />
		<tag k="ssr:stedsnr" v="657295" />
	</node>
	<node lat="68.63758333240557" lon="17.73990278229363" id="-96452">
		<tag k="name" v="Gjerdehaugen" />
		<tag k="natural" v="hill" />
		<tag k="place" v="locality" />
		<tag k="ssr:stedsnr" v="657392" />
	</node>
	<node lat="68.74972499942768" lon="17.42477499893649" id="-96453">
		<tag k="name" v="Lokkhåglia" />
		<tag k="natural" v="slope" />
		<tag k="place" v="locality" />
		<tag k="ssr:stedsnr" v="657505" />
	</node>
	<node lat="68.7467972225482" lon="17.4286861156761" id="-96454">
		<tag k="name" v="Lokkhågen" />
		<tag k="natural" v="hill" />
		<tag k="place" v="locality" />
		<tag k="ssr:stedsnr" v="657501" />
	</node>
	<node lat="68.62597222296114" lon="17.622836114621318" id="-96455">
		<tag k="name" v="Høgebakken" />
		<tag k="natural" v="slope" />
		<tag k="place" v="locality" />
		<tag k="ssr:stedsnr" v="685491" />
	</node>
	<node lat="68.61915833567345" lon="17.722277780819592" id="-96456">
		<tag k="fixme" v="consider natural=peak for the most distinct mountains in the district" />
		<tag k="name" v="Roašmi" />
		<tag k="name:se" v="Roašmi" />
		<tag k="natural" v="hill" />
		<tag k="place" v="locality" />
		<tag k="ssr:stedsnr" v="685545" />
	</node>
	<node lat="68.73320833183939" lon="17.270238884557433" id="-96457">
		<tag k="fixme" v="consider place=hamlet" />
		<tag k="loc_name:se" v="Hilsá" />
		<tag k="name" v="Hilleshamn" />
		<tag k="name:no" v="Hilleshamn" />
		<tag k="place" v="village" />
		<tag k="ssr:stedsnr" v="685910" />
	</node>
	<node lat="68.76975833566796" lon="17.325930549615293" id="-96458">
		<tag k="fixme" v="consider natural=peak for the most distinct mountains in the district" />
		<tag k="name" v="Klubben" />
		<tag k="natural" v="hill" />
		<tag k="place" v="locality" />
		<tag k="ssr:stedsnr" v="685949" />
	</node>
	<node lat="68.65849166563493" lon="17.401200002105966" id="-96459">
		<tag k="name" v="Dudalen" />
		<tag k="name:no" v="Dudalen" />
		<tag k="name:se" v="Guhtovággi" />
		<tag k="natural" v="valley" />
		<tag k="place" v="locality" />
		<tag k="ssr:stedsnr" v="688990" />
	</node>
	<node lat="68.63790555439832" lon="17.441044437343727" id="-96460">
		<tag k="fixme" v="consider natural=peak for the most distinct mountains in the district" />
		<tag k="name" v="Dudalstinden - Guhtočohkka" />
		<tag k="name:no" v="Dudalstinden" />
		<tag k="name:se" v="Guhtočohkka" />
		<tag k="natural" v="hill" />
		<tag k="old_name:se" v="Guttučåkka" />
		<tag k="place" v="locality" />
		<tag k="ssr:stedsnr" v="689488" />
	</node>
	<node lat="68.74963610973087" lon="17.31171111922092" id="-96462">
		<tag k="name" v="Furåselva" />
		<tag k="ssr:stedsnr" v="717408" />
		<tag k="waterway" v="stream" />
	</node>
	<node lat="68.8193638907933" lon="17.457416653091617" id="-96463">
		<tag k="name" v="Ungsmalberget" />
		<tag k="natural" v="hill" />
		<tag k="place" v="locality" />
		<tag k="ssr:stedsnr" v="718271" />
	</node>
	<node lat="68.8044694427646" lon="17.408972225259603" id="-96464">
		<tag k="name" v="Mølleelva" />
		<tag k="ssr:stedsnr" v="718280" />
		<tag k="waterway" v="stream" />
	</node>
	<node lat="68.80319166612252" lon="17.39209443430114" id="-96465">
		<tag k="name" v="Elvevoll" />
		<tag k="place" v="farm" />
		<tag k="ssr:stedsnr" v="718283" />
	</node>
	<node lat="68.63473055460756" lon="17.7387666718895" id="-96466">
		<tag k="highway" v="path" />
		<tag k="name" v="Saunesveien" />
		<tag k="ssr:stedsnr" v="718376" />
	</node>
	<node lat="68.67421110946964" lon="17.73785276614437" id="-96467">
		<tag k="name" v="Storsletthaugen" />
		<tag k="natural" v="hill" />
		<tag k="place" v="locality" />
		<tag k="ssr:stedsnr" v="718379" />
	</node>
	<node lat="68.7479611118461" lon="17.420080552960872" id="-96468">
		<tag k="name" v="Gårdselva" />
		<tag k="ssr:stedsnr" v="718505" />
		<tag k="waterway" v="stream" />
	</node>
	<node lat="68.71545000115593" lon="17.50128054348642" id="-96469">
		<tag k="name" v="Småhamran" />
		<tag k="natural" v="hill" />
		<tag k="place" v="locality" />
		<tag k="ssr:stedsnr" v="718474" />
	</node>
	<node lat="68.78950833532456" lon="17.356075004813924" id="-96470">
		<tag k="name" v="Bjerkmo" />
		<tag k="place" v="farm" />
		<tag k="ssr:stedsnr" v="899662" />
	</node>
	<node lat="68.81777500037889" lon="17.45443610838313" id="-96471">
		<tag k="name" v="Bukkisen" />
		<tag k="natural" v="hill" />
		<tag k="place" v="locality" />
		<tag k="ssr:stedsnr" v="900292" />
	</node>
	<node lat="68.633011109847" lon="17.748869441233378" id="-96472">
		<tag k="name" v="Saunesen" />
		<tag k="natural" v="hill" />
		<tag k="place" v="locality" />
		<tag k="ssr:stedsnr" v="900367" />
	</node>
	<node lat="68.66935833574749" lon="17.680627778845604" id="-96473">
		<tag k="amenity" v="sports_centre" />
		<tag k="name" v="Tennevoll" />
		<tag k="ssr:stedsnr" v="900371" />
	</node>
	<node lat="68.77794722083011" lon="17.30063054324971" id="-96474">
		<tag k="name" v="Holtebukta" />
		<tag k="natural" v="bay" />
		<tag k="ssr:stedsnr" v="900424" />
	</node>
	<node lat="68.76961389300594" lon="17.299027769677757" id="-96475">
		<tag k="name" v="Rishågen" />
		<tag k="natural" v="hill" />
		<tag k="place" v="locality" />
		<tag k="ssr:stedsnr" v="900431" />
	</node>
	<node lat="68.6654388865629" lon="17.83543331928617" id="-96476">
		<tag k="junction" v="yes" />
		<tag k="name" v="Bukkemyrskjæringen" />
		<tag k="place" v="locality" />
		<tag k="ssr:stedsnr" v="900383" />
	</node>
	<node lat="68.75339166564127" lon="17.265586097284455" id="-96477">
		<tag k="name" v="Grøsnesvika" />
		<tag k="natural" v="bay" />
		<tag k="ssr:stedsnr" v="900389" />
	</node>
	<node lat="68.71505278174376" lon="17.342386107569933" id="-96478">
		<tag k="name" v="Kviteberget" />
		<tag k="natural" v="hill" />
		<tag k="place" v="locality" />
		<tag k="ssr:stedsnr" v="900391" />
	</node>
	<node lat="68.7487305543676" lon="17.299199986179293" id="-96479">
		<tag k="name" v="Liaberget" />
		<tag k="natural" v="hill" />
		<tag k="place" v="locality" />
		<tag k="ssr:stedsnr" v="900395" />
	</node>
	<node lat="68.72746388488851" lon="17.240241657607186" id="-96480">
		<tag k="name" v="Petterlia" />
		<tag k="natural" v="slope" />
		<tag k="place" v="locality" />
		<tag k="ssr:stedsnr" v="900401" />
	</node>
	<node lat="68.70761944398414" lon="17.508208325523714" id="-96481">
		<tag k="highway" v="path" />
		<tag k="name" v="Fjellveien" />
		<tag k="ssr:stedsnr" v="900461" />
	</node>
	<node lat="68.68732500406432" lon="17.41045554705369" id="-96482">
		<tag k="name" v="Kattemoelva" />
		<tag k="ssr:stedsnr" v="900476" />
		<tag k="waterway" v="stream" />
	</node>
	<node lat="68.68768055435746" lon="17.420116661566873" id="-96483">
		<tag k="name" v="Hågelva" />
		<tag k="ssr:stedsnr" v="900477" />
		<tag k="waterway" v="stream" />
	</node>
	<node lat="68.7142250038112" lon="17.493091664485778" id="-96484">
		<tag k="name" v="Skjellberget" />
		<tag k="natural" v="hill" />
		<tag k="place" v="locality" />
		<tag k="ssr:stedsnr" v="900451" />
	</node>
	<node lat="68.68154444473362" lon="17.461480560970735" id="-96485">
		<tag k="name" v="Hellarbogen" />
		<tag k="natural" v="bay" />
		<tag k="ssr:stedsnr" v="900480" />
	</node>
	<node lat="68.74994722565565" lon="17.408644453743218" id="-96486">
		<tag k="name" v="Litjesletta" />
		<tag k="place" v="locality" />
		<tag k="ssr:stedsnr" v="900489" />
	</node>
	<node lat="68.75153055777888" lon="17.40203610652826" id="-96487">
		<tag k="name" v="Nattmålssletta" />
		<tag k="place" v="locality" />
		<tag k="ssr:stedsnr" v="900490" />
	</node>
	<node lat="68.73656944244577" lon="17.478011095824765" id="-96488">
		<tag k="name" v="Lyshøgdbakkan" />
		<tag k="natural" v="slope" />
		<tag k="place" v="locality" />
		<tag k="ssr:stedsnr" v="901232" />
	</node>
	<node lat="68.62865277938539" lon="17.547505561882108" id="-96489">
		<tag k="name" v="Belvasskaret" />
		<tag k="natural" v="valley" />
		<tag k="place" v="locality" />
		<tag k="ssr:stedsnr" v="901280" />
	</node>
	<node lat="68.81538888673465" lon="17.440027785108697" id="-96490">
		<tag k="name" v="Storelva" />
		<tag k="ssr:stedsnr" v="901281" />
		<tag k="waterway" v="stream" />
	</node>
	<node lat="68.72708055563623" lon="17.21797500908429" id="-96492">
		<tag k="name" v="Djuphola" />
		<tag k="natural" v="bay" />
		<tag k="ssr:stedsnr" v="748969" />
	</node>
	<node lat="68.759441668264" lon="17.258850008929603" id="-96495">
		<tag k="alt_name" v="Høynesmoen" />
		<tag k="name" v="Høgnesmoen" />
		<tag k="place" v="locality" />
		<tag k="ssr:stedsnr" v="757913" />
	</node>
	<node lat="68.69238888872243" lon="17.550252763816218" id="-96496">
		<tag k="name" v="Bjørnvika" />
		<tag k="natural" v="bay" />
		<tag k="ssr:stedsnr" v="758651" />
	</node>
	<node lat="68.74177499894611" lon="17.332805542988233" id="-96497">
		<tag k="name" v="Mølnelva" />
		<tag k="ssr:stedsnr" v="778414" />
		<tag k="waterway" v="stream" />
	</node>
	<node lat="68.67975833628222" lon="17.536158338029164" id="-96498">
		<tag k="name" v="Molvika" />
		<tag k="natural" v="bay" />
		<tag k="ssr:stedsnr" v="779351" />
	</node>
	<node lat="68.69103333198089" lon="17.5299361020825" id="-96499">
		<tag k="name" v="Vika" />
		<tag k="natural" v="bay" />
		<tag k="ssr:stedsnr" v="779362" />
	</node>
	<node lat="68.69280555783821" lon="17.519524988679553" id="-96500">
		<tag k="name" v="Kirkenes" />
		<tag k="natural" v="cape" />
		<tag k="ssr:stedsnr" v="779364" />
	</node>
	<node lat="68.7043333297423" lon="17.490236110639124" id="-96501">
		<tag k="name" v="Gluggeporten" />
		<tag k="natural" v="slope" />
		<tag k="place" v="locality" />
		<tag k="ssr:stedsnr" v="779467" />
	</node>
	<node lat="68.74402222055514" lon="17.375108341021722" id="-96502">
		<tag k="name" v="Moldforholla" />
		<tag k="natural" v="valley" />
		<tag k="place" v="locality" />
		<tag k="ssr:stedsnr" v="779501" />
	</node>
	<node lat="68.72577778084433" lon="17.2718666626229" id="-96504">
		<tag k="name" v="Hilleshamnelva" />
		<tag k="name:no" v="Hilleshamnelva" />
		<tag k="name:se" v="Hilssájohka" />
		<tag k="ssr:stedsnr" v="809967" />
		<tag k="waterway" v="stream" />
	</node>
	<node lat="68.72514722418833" lon="17.204897229252058" id="-96506">
		<tag k="name" v="Svaberget" />
		<tag k="natural" v="hill" />
		<tag k="place" v="locality" />
		<tag k="ssr:stedsnr" v="839413" />
	</node>
	<node lat="68.72526666530685" lon="17.28635278705401" id="-96507">
		<tag k="fixme" v="consider natural=peak for the most distinct mountains in the district" />
		<tag k="name" v="Tinden" />
		<tag k="natural" v="hill" />
		<tag k="place" v="locality" />
		<tag k="ssr:stedsnr" v="839415" />
	</node>
	<node lat="68.78703611026184" lon="17.33752499366724" id="-96508">
		<tag k="name" v="Rotnes" />
		<tag k="natural" v="cape" />
		<tag k="ssr:stedsnr" v="839425" />
	</node>
	<node lat="68.65039166617856" lon="17.545050004012015" id="-96509">
		<tag k="highway" v="path" />
		<tag k="name" v="Skogveien" />
		<tag k="ssr:stedsnr" v="840315" />
	</node>
	<node lat="68.68429722674864" lon="17.550327768398308" id="-96510">
		<tag k="fixme" v="consider place=hamlet" />
		<tag k="loc_name:se" v="Strávvenjárga" />
		<tag k="name" v="Straumsnes" />
		<tag k="name:no" v="Straumsnes" />
		<tag k="place" v="village" />
		<tag k="ssr:stedsnr" v="840337" />
	</node>
	<node lat="68.8049388921121" lon="17.422041661223652" id="-96511">
		<tag k="fixme" v="consider natural=peak for the most distinct mountains in the district" />
		<tag k="name" v="Vardefjell" />
		<tag k="natural" v="hill" />
		<tag k="place" v="locality" />
		<tag k="ssr:stedsnr" v="840277" />
	</node>
	<node lat="68.79908333194929" lon="17.40471666794267" id="-96512">
		<tag k="name" v="Bonasklubben" />
		<tag k="natural" v="hill" />
		<tag k="place" v="locality" />
		<tag k="ssr:stedsnr" v="840278" />
	</node>
	<node lat="68.64424999915587" lon="17.687130543323864" id="-96513">
		<tag k="name" v="Hestvatnet" />
		<tag k="natural" v="water" />
		<tag k="ssr:stedsnr" v="928476" />
		<tag k="water" v="lake" />
	</node>
	<node lat="68.63709166690076" lon="17.755822213159096" id="-96514">
		<tag k="alt_name" v="Kvitmyren" />
		<tag k="name" v="Kvitmyra" />
		<tag k="natural" v="wetland" />
		<tag k="ssr:stedsnr" v="928484" />
	</node>
	<node lat="68.65902500297467" lon="17.712758341205035" id="-96515">
		<tag k="name" v="Grindsletta" />
		<tag k="place" v="locality" />
		<tag k="ssr:stedsnr" v="928562" />
	</node>
	<node lat="68.65246944842944" lon="17.707924994779763" id="-96516">
		<tag k="alt_name" v="Forshaugen" />
		<tag k="name" v="Fosshaugen" />
		<tag k="natural" v="hill" />
		<tag k="place" v="locality" />
		<tag k="ssr:stedsnr" v="928570" />
	</node>
	<node lat="68.68985278049627" lon="17.8090222197394" id="-96517">
		<tag k="name" v="Sølvfjellvatnet" />
		<tag k="natural" v="water" />
		<tag k="ssr:stedsnr" v="928533" />
	</node>
	<node lat="68.68521666932209" lon="17.453372231314816" id="-96519">
		<tag k="name" v="Storøya" />
		<tag k="name:no" v="Storøya" />
		<tag k="name:se" v="Huvlanjárga" />
		<tag k="natural" v="cape" />
		<tag k="ssr:stedsnr" v="928546" />
	</node>
	<node lat="68.67417500276729" lon="17.51212500546255" id="-96520">
		<tag k="name" v="Frydenlund" />
		<tag k="place" v="farm" />
		<tag k="ssr:stedsnr" v="928580" />
	</node>
	<node lat="68.74496110888221" lon="17.42913611448692" id="-96521">
		<tag k="name" v="Lavika" />
		<tag k="place" v="farm" />
		<tag k="ssr:stedsnr" v="928907" />
	</node>
	<node lat="68.73169444771489" lon="17.369741671589715" id="-96522">
		<tag k="bay" v="fjord" />
		<tag k="name" v="Gratangen" />
		<tag k="name:no" v="Gratangen" />
		<tag k="name:se" v="Rivtták" />
		<tag k="natural" v="bay" />
		<tag k="ssr:stedsnr" v="928911" />
	</node>
	<node lat="68.77376388721501" lon="17.308816673988968" id="-96526">
		<tag k="name" v="Kvannelva" />
		<tag k="ssr:stedsnr" v="867948" />
		<tag k="waterway" v="stream" />
	</node>
	<node lat="68.75417777423154" lon="17.514513897072323" id="-96527">
		<tag k="alt_name" v="Ressekoppelva" />
		<tag k="name" v="Rasekoppelva" />
		<tag k="ssr:stedsnr" v="868704" />
		<tag k="waterway" v="stream" />
	</node>
	<node lat="68.73227222185221" lon="17.25444444063045" id="-96529">
		<tag k="name" v="Klipa" />
		<tag k="natural" v="hill" />
		<tag k="place" v="locality" />
		<tag k="ssr:stedsnr" v="899412" />
	</node>
	<node lat="68.8159333292234" lon="17.4238111055164" id="-96530">
		<tag k="name" v="Båtholla" />
		<tag k="natural" v="bay" />
		<tag k="ssr:stedsnr" v="899811" />
	</node>
	<node lat="68.73047500370889" lon="17.284786110178263" id="-96531">
		<tag k="name" v="Ryggen" />
		<tag k="natural" v="hill" />
		<tag k="place" v="locality" />
		<tag k="ssr:stedsnr" v="900411" />
	</node>
	<node lat="68.6566500003128" lon="17.668094451644283" id="-96532">
		<tag k="highway" v="path" />
		<tag k="name" v="Kollveien" />
		<tag k="ssr:stedsnr" v="900353" />
	</node>
	<node lat="68.71290833380499" lon="17.492377784323338" id="-96533">
		<tag k="name" v="Rundmyra" />
		<tag k="natural" v="wetland" />
		<tag k="ssr:stedsnr" v="900455" />
	</node>
	<node lat="68.73381944013028" lon="17.478322225446487" id="-96534">
		<tag k="name" v="Finnesletta" />
		<tag k="place" v="locality" />
		<tag k="ssr:stedsnr" v="901261" />
	</node>
	<node lat="68.65113333782577" lon="17.703944436586507" id="-96535">
		<tag k="name" v="Storelva" />
		<tag k="ssr:stedsnr" v="928168" />
		<tag k="waterway" v="river" />
	</node>
	<node lat="68.70090443951973" lon="17.48109162547214" id="-96536">
		<tag k="alt_name" v="Åkeneset" />
		<tag k="fixme" v="consider place=hamlet" />
		<tag k="name" v="Åkenes" />
		<tag k="place" v="farm" />
		<tag k="ssr:stedsnr" v="928557" />
	</node>
	<node lat="68.70680249765753" lon="17.43174434579449" id="-96537">
		<tag k="name" v="Stegan" />
		<tag k="place" v="isolated_dwelling" />
		<tag k="ssr:stedsnr" v="928560" />
	</node>
	<node lat="68.81443079765863" lon="17.421683554755106" id="-96540">
		<tag k="fixme" v="consider place=hamlet" />
		<tag k="name" v="Selnes" />
		<tag k="place" v="farm" />
		<tag k="ssr:stedsnr" v="939999" />
	</node>
	<node lat="68.78914999725588" lon="17.348280541315948" id="-96541">
		<tag k="name" v="Lønes" />
		<tag k="natural" v="cape" />
		<tag k="ssr:stedsnr" v="959629" />
	</node>
	<node lat="68.73238055838807" lon="17.282558327969124" id="-96542">
		<tag k="fixme" v="consider natural=peak for the most distinct mountains in the district" />
		<tag k="name" v="Ramntuva" />
		<tag k="natural" v="hill" />
		<tag k="place" v="locality" />
		<tag k="ssr:stedsnr" v="960415" />
	</node>
	<node lat="68.68245277858544" lon="17.60266943190502" id="-96543">
		<tag k="name" v="Gammelheimhammarn" />
		<tag k="natural" v="hill" />
		<tag k="place" v="locality" />
		<tag k="ssr:stedsnr" v="961339" />
	</node>
	<node lat="68.70216944446328" lon="17.54275278435384" id="-96544">
		<tag k="name" v="Storhågen" />
		<tag k="natural" v="hill" />
		<tag k="place" v="locality" />
		<tag k="ssr:stedsnr" v="961344" />
	</node>
	<node lat="68.67174722426735" lon="17.6229500101772" id="-96545">
		<tag k="name" v="Grimjordskogen" />
		<tag k="place" v="locality" />
		<tag k="ssr:stedsnr" v="961289" />
	</node>
	<node lat="68.67395278132307" lon="17.58927777646063" id="-96546">
		<tag k="name" v="Sennamyra" />
		<tag k="natural" v="wetland" />
		<tag k="ssr:stedsnr" v="961293" />
	</node>
	<node lat="68.66436944666431" lon="17.514352769108008" id="-96547">
		<tag k="name" v="Moan" />
		<tag k="place" v="locality" />
		<tag k="ssr:stedsnr" v="961296" />
	</node>
	<node lat="68.74654999938903" lon="17.40011388266707" id="-96548">
		<tag k="name" v="Kvigeberget" />
		<tag k="natural" v="hill" />
		<tag k="place" v="locality" />
		<tag k="ssr:stedsnr" v="961489" />
	</node>
	<node lat="68.74625555947628" lon="17.44772223025675" id="-96549">
		<tag k="name" v="Mellaskaret" />
		<tag k="natural" v="valley" />
		<tag k="place" v="locality" />
		<tag k="ssr:stedsnr" v="961494" />
	</node>
	<node lat="68.74070555122766" lon="17.36323334170396" id="-96550">
		<tag k="name" v="Aspeneset" />
		<tag k="natural" v="cape" />
		<tag k="ssr:stedsnr" v="961499" />
	</node>
	<node lat="68.73312820851316" lon="17.273286567358788" id="-96554">
		<tag k="fixme" v="consider place=hamlet" />
		<tag k="name" v="Hilleshamn" />
		<tag k="name:no" v="Hilleshamn" />
		<tag k="name:se" v="Hilsá" />
		<tag k="place" v="farm" />
		<tag k="ssr:stedsnr" v="989683" />
	</node>
	<node lat="68.69017180011917" lon="17.541430145145025" id="-96555">
		<tag k="fixme" v="multiple name:se tags, choose one and add the other to alt_name:se; consider place=hamlet" />
		<tag k="name" v="Årstein" />
		<tag k="name:no" v="Årstein" />
		<tag k="name:se" v="Árjogeargi;Orrageargi" />
		<tag k="place" v="farm" />
		<tag k="ssr:stedsnr" v="989684" />
	</node>
	<node lat="68.71912703174063" lon="17.478193086137548" id="-96556">
		<tag k="name" v="Skifte" />
		<tag k="name:no" v="Skifte" />
		<tag k="name:se" v="Skikta" />
		<tag k="place" v="hamlet" />
		<tag k="ssr:stedsnr" v="989685" />
	</node>
	<node lat="68.72966237564937" lon="17.472604331533162" id="-96557">
		<tag k="fixme" v="consider place=hamlet" />
		<tag k="name" v="Hesjeberg" />
		<tag k="name:no" v="Hesjeberg" />
		<tag k="name:se" v="Hássobákti" />
		<tag k="place" v="farm" />
		<tag k="ssr:stedsnr" v="989686" />
	</node>
	<node lat="68.75637341663001" lon="17.26181269833119" id="-96558">
		<tag k="loc_name:se" v="Rivttáknášši" />
		<tag k="name" v="Grøsnes" />
		<tag k="name:no" v="Grøsnes" />
		<tag k="place" v="hamlet" />
		<tag k="ssr:stedsnr" v="989687" />
	</node>
	<node lat="68.74140516288475" lon="17.323787493403973" id="-96559">
		<tag k="fixme" v="consider place=hamlet" />
		<tag k="name" v="Lille Grøsnes" />
		<tag k="name:no" v="Lille Grøsnes" />
		<tag k="name:se" v="Unna Rivttáknáššáš" />
		<tag k="place" v="farm" />
		<tag k="ssr:stedsnr" v="989688" />
	</node>
	<node lat="68.7553325030317" lon="17.261559509279728" id="-96560">
		<tag k="fixme" v="consider place=hamlet" />
		<tag k="name" v="Store Grøsnes" />
		<tag k="name:no" v="Store Grøsnes" />
		<tag k="name:se" v="Stuora Rivttáknášši" />
		<tag k="place" v="farm" />
		<tag k="ssr:stedsnr" v="989689" />
	</node>
	<node lat="68.63694321572366" lon="17.7292708350121" id="-96562">
		<tag k="fixme" v="consider place=hamlet" />
		<tag k="name" v="Kvernmoen" />
		<tag k="place" v="farm" />
		<tag k="ssr:stedsnr" v="989691" />
	</node>
	<node lat="68.80482499975632" lon="17.39283888511434" id="-96563">
		<tag k="alt_name" v="Belnes" />
		<tag k="name" v="Belnesodden" />
		<tag k="natural" v="cape" />
		<tag k="ssr:stedsnr" v="17231" />
	</node>
	<node lat="68.69004489025302" lon="17.551992189736808" id="-96564">
		<tag k="alt_name" v="Gratangen;Linds Minne" />
		<tag k="amenity" v="place_of_worship" />
		<tag k="denomination" v="lutheran" />
		<tag k="name" v="Gratangen kirke" />
		<tag k="religion" v="christian" />
		<tag k="ssr:stedsnr" v="17578" />
	</node>
	<node lat="68.68924166388688" lon="17.693600002846825" id="-96565">
		<tag k="fixme" v="consider natural=peak for the most distinct mountains in the district" />
		<tag k="name" v="Fjordbotnheia" />
		<tag k="natural" v="hill" />
		<tag k="place" v="locality" />
		<tag k="ssr:stedsnr" v="17581" />
	</node>
	<node lat="68.65544721833002" lon="17.518308327682224" id="-96566">
		<tag k="name" v="Labergselva" />
		<tag k="name:no" v="Labergselva" />
		<tag k="name:se" v="Gálajohka" />
		<tag k="ssr:stedsnr" v="18558" />
		<tag k="waterway" v="river" />
	</node>
	<node lat="68.67811843193458" lon="17.627094517474816" id="-96568">
		<tag k="name" v="Grimjorda" />
		<tag k="place" v="farm" />
		<tag k="ssr:stedsnr" v="18535" />
	</node>
	<node lat="68.75591388720356" lon="17.449038894254596" id="-96569">
		<tag k="name" v="Ystelivatnet" />
		<tag k="natural" v="water" />
		<tag k="ssr:stedsnr" v="18671" />
	</node>
	<node lat="68.75971110952821" lon="17.550561096171666" id="-96570">
		<tag k="name" v="Rennelvvatnet" />
		<tag k="natural" v="water" />
		<tag k="ssr:stedsnr" v="18676" />
	</node>
	<node lat="68.64473055546213" lon="17.646480544929684" id="-96571">
		<tag k="alt_name" v="Fjellbakkan" />
		<tag k="name" v="Fjellbakken" />
		<tag k="natural" v="slope" />
		<tag k="place" v="locality" />
		<tag k="ssr:stedsnr" v="18486" />
	</node>
	<node lat="68.64640833688323" lon="17.601844444149354" id="-96572">
		<tag k="fixme" v="consider natural=peak for the most distinct mountains in the district" />
		<tag k="name" v="Varden" />
		<tag k="natural" v="hill" />
		<tag k="place" v="locality" />
		<tag k="ssr:stedsnr" v="18487" />
	</node>
	<node lat="68.67445974365309" lon="17.532899152803175" id="-96573">
		<tag k="name" v="Milmarka" />
		<tag k="place" v="locality" />
		<tag k="ssr:stedsnr" v="18578" />
	</node>
	<node lat="68.66845000155577" lon="17.59699722700473" id="-96574">
		<tag k="fixme" v="consider natural=peak for the most distinct mountains in the district" />
		<tag k="name" v="Middagsfjellet" />
		<tag k="natural" v="hill" />
		<tag k="place" v="locality" />
		<tag k="ssr:stedsnr" v="18582" />
	</node>
	<node lat="68.67406389104275" lon="17.80039723000012" id="-96575">
		<tag k="alt_name" v="Sølvelva, austre" />
		<tag k="name" v="Austre Sølvelva" />
		<tag k="ssr:stedsnr" v="18584" />
		<tag k="waterway" v="stream" />
	</node>
	<node lat="68.72978333675402" lon="17.470105563937825" id="-96576">
		<tag k="loc_name:se" v="Hássobákti" />
		<tag k="name" v="Hesjeberg" />
		<tag k="name:no" v="Hesjeberg" />
		<tag k="place" v="hamlet" />
		<tag k="ssr:stedsnr" v="18916" />
	</node>
	<node lat="68.65509444064871" lon="17.352350001402105" id="-96577">
		<tag k="fixme" v="multiple name:se tags, choose one and add the other to alt_name:se" />
		<tag k="name" v="Eidevatnet" />
		<tag k="name:no" v="Eidevatnet" />
		<tag k="name:se" v="Stuorajávri;Áidejávri" />
		<tag k="natural" v="water" />
		<tag k="ssr:stedsnr" v="20894" />
		<tag k="water" v="lake" />
	</node>
	<node lat="68.7298972189783" lon="17.30620554768005" id="-96581">
		<tag k="name" v="Skarvbergbakken" />
		<tag k="natural" v="shoal" />
		<tag k="place" v="locality" />
		<tag k="ssr:stedsnr" v="29160" />
	</node>
	<node lat="68.81668055664" lon="17.43054444249103" id="-96582">
		<tag k="name" v="Resshågen" />
		<tag k="natural" v="hill" />
		<tag k="place" v="locality" />
		<tag k="ssr:stedsnr" v="49790" />
	</node>
	<node lat="68.72512777953867" lon="17.4699444448274" id="-96583">
		<tag k="name" v="Vika" />
		<tag k="natural" v="bay" />
		<tag k="ssr:stedsnr" v="51289" />
	</node>
	<node lat="68.81189722307717" lon="17.4444083251864" id="-96584">
		<tag k="name" v="Storelvklubben" />
		<tag k="natural" v="hill" />
		<tag k="place" v="locality" />
		<tag k="ssr:stedsnr" v="51312" />
	</node>
	<node lat="68.6926388860395" lon="17.545688883052275" id="-96585">
		<tag k="name" v="Skillevollen" />
		<tag k="place" v="locality" />
		<tag k="ssr:stedsnr" v="51389" />
	</node>
	<node lat="68.65743889188742" lon="17.69085832181405" id="-96586">
		<tag k="name" v="Harehaugen" />
		<tag k="natural" v="hill" />
		<tag k="place" v="locality" />
		<tag k="ssr:stedsnr" v="51395" />
	</node>
	<node lat="68.65937221886085" lon="17.693380542776133" id="-96587">
		<tag k="name" v="Storberget" />
		<tag k="natural" v="hill" />
		<tag k="place" v="locality" />
		<tag k="ssr:stedsnr" v="51396" />
	</node>
	<node lat="68.80017499842855" lon="17.393430557946125" id="-96588">
		<tag k="name" v="Elvekrokan" />
		<tag k="natural" v="bay" />
		<tag k="ssr:stedsnr" v="51325" />
	</node>
	<node lat="68.64784499286053" lon="17.723543033675544" id="-96589">
		<tag k="fixme" v="consider place=hamlet" />
		<tag k="name" v="Fjelldal" />
		<tag k="place" v="farm" />
		<tag k="ssr:stedsnr" v="51420" />
	</node>
	<node lat="68.63779722233558" lon="17.68990277068053" id="-96590">
		<tag k="name" v="Lomvatnet" />
		<tag k="natural" v="water" />
		<tag k="ssr:stedsnr" v="51422" />
	</node>
	<node lat="68.69051388518828" lon="17.415166670030324" id="-96591">
		<tag k="name" v="Ressekastet" />
		<tag k="place" v="locality" />
		<tag k="ssr:stedsnr" v="51525" />
	</node>
	<node lat="68.75129722303106" lon="17.374647219214296" id="-96592">
		<tag k="name" v="Keiplia" />
		<tag k="natural" v="slope" />
		<tag k="place" v="locality" />
		<tag k="ssr:stedsnr" v="51535" />
	</node>
	<node lat="68.74713611174778" lon="17.44514721304586" id="-96593">
		<tag k="fixme" v="consider natural=peak for the most distinct mountains in the district" />
		<tag k="name" v="Ytterkollen" />
		<tag k="natural" v="hill" />
		<tag k="place" v="locality" />
		<tag k="ssr:stedsnr" v="51540" />
	</node>
	<node lat="68.69785832973051" lon="17.421883333149612" id="-96594">
		<tag k="name" v="Linbergelva" />
		<tag k="ssr:stedsnr" v="51493" />
		<tag k="waterway" v="stream" />
	</node>
	<node lat="68.71285555341" lon="17.478786114363896" id="-96595">
		<tag k="name" v="Erikmyra" />
		<tag k="natural" v="wetland" />
		<tag k="ssr:stedsnr" v="51496" />
	</node>
	<node lat="68.7455027748056" lon="17.456791655194333" id="-96596">
		<tag k="fixme" v="consider natural=peak for the most distinct mountains in the district" />
		<tag k="name" v="Innerkollen" />
		<tag k="natural" v="hill" />
		<tag k="place" v="locality" />
		<tag k="ssr:stedsnr" v="51541" />
	</node>
	<node lat="68.70654721858587" lon="17.487322213752545" id="-96597">
		<tag k="name" v="Mølnelva" />
		<tag k="ssr:stedsnr" v="51630" />
		<tag k="waterway" v="stream" />
	</node>
	<node lat="68.64181110867727" lon="17.755294436347064" id="-96598">
		<tag k="alt_name" v="Tverrelva" />
		<tag k="name" v="Ytre Tverrelva" />
		<tag k="ssr:stedsnr" v="78195" />
		<tag k="waterway" v="stream" />
	</node>
	<node lat="68.67576666793119" lon="17.586922211870316" id="-96600">
		<tag k="name" v="Gårdselva" />
		<tag k="ssr:stedsnr" v="78605" />
		<tag k="waterway" v="stream" />
	</node>
	<node lat="68.67836389176863" lon="17.649519453938588" id="-96601">
		<tag k="name" v="Gratangsbotn" />
		<tag k="natural" v="bay" />
		<tag k="ssr:stedsnr" v="78564" />
	</node>
	<node lat="68.66228773165612" lon="17.710126571903917" id="-96602">
		<tag k="name" v="Nylund" />
		<tag k="place" v="farm" />
		<tag k="ssr:stedsnr" v="78582" />
	</node>
	<node lat="68.75590833343763" lon="17.26383888787716" id="-96603">
		<tag k="alt_name" v="Grøsnes, store" />
		<tag k="name" v="Store Grøsnes" />
		<tag k="place" v="farm" />
		<tag k="ssr:stedsnr" v="78990" />
	</node>
	<node lat="68.62798333179111" lon="17.486602773009707" id="-96605">
		<tag k="fixme" v="consider natural=peak for the most distinct mountains in the district" />
		<tag k="name" v="Beađvačohkka" />
		<tag k="name:no" v="Nonstinden" />
		<tag k="name:se" v="Beađvačohkka" />
		<tag k="natural" v="hill" />
		<tag k="old_name:se" v="Bæđvačåkka" />
		<tag k="place" v="locality" />
		<tag k="ssr:stedsnr" v="79485" />
	</node>
	<node lat="68.6343972184604" lon="17.470586115791892" id="-96606">
		<tag k="name" v="Blåvatnet" />
		<tag k="natural" v="water" />
		<tag k="ssr:stedsnr" v="79486" />
	</node>
	<node lat="68.75625000025106" lon="17.56897223051188" id="-96607">
		<tag k="name" v="Rennelva" />
		<tag k="ssr:stedsnr" v="79708" />
		<tag k="waterway" v="stream" />
	</node>
	<node lat="68.7369611071224" lon="17.596222229311152" id="-96608">
		<tag k="alt_name" v="Lavangstinden" />
		<tag k="fixme" v="consider natural=peak for the most distinct mountains in the district" />
		<tag k="name" v="Storfjellet" />
		<tag k="natural" v="hill" />
		<tag k="place" v="locality" />
		<tag k="ssr:stedsnr" v="79923" />
	</node>
	<node lat="68.81358055623733" lon="17.429583334959844" id="-96611">
		<tag k="name" v="Kaldbekken" />
		<tag k="ssr:stedsnr" v="110801" />
		<tag k="waterway" v="stream" />
	</node>
	<node lat="68.71851111414429" lon="17.48729443550134" id="-96612">
		<tag k="name" v="Gammelgården" />
		<tag k="place" v="locality" />
		<tag k="ssr:stedsnr" v="111430" />
	</node>
	<node lat="68.72204167017003" lon="17.46982500326892" id="-96613">
		<tag k="name" v="Ingerholla" />
		<tag k="natural" v="bay" />
		<tag k="ssr:stedsnr" v="111434" />
	</node>
	<node lat="68.70487499832417" lon="17.496072219449662" id="-96614">
		<tag k="name" v="Høgholtet" />
		<tag k="place" v="locality" />
		<tag k="ssr:stedsnr" v="111435" />
	</node>
	<node lat="68.7015611145839" lon="17.498566656610542" id="-96615">
		<tag k="name" v="Dalebakkporten" />
		<tag k="natural" v="slope" />
		<tag k="place" v="locality" />
		<tag k="ssr:stedsnr" v="111442" />
	</node>
	<node lat="68.75397499712533" lon="17.3980416638343" id="-96616">
		<tag k="name" v="Kvannlia" />
		<tag k="natural" v="slope" />
		<tag k="place" v="locality" />
		<tag k="ssr:stedsnr" v="111460" />
	</node>
	<node lat="68.753586114677" lon="17.511575008928947" id="-96617">
		<tag k="name" v="Ressekoppskaret" />
		<tag k="natural" v="valley" />
		<tag k="place" v="locality" />
		<tag k="ssr:stedsnr" v="111464" />
	</node>
	<node lat="68.73684166434936" lon="17.48948887678987" id="-96618">
		<tag k="highway" v="path" />
		<tag k="name" v="Breiveien" />
		<tag k="ssr:stedsnr" v="112291" />
	</node>
	<node lat="68.73768055275761" lon="17.510500003195798" id="-96619">
		<tag k="name" v="Stordalbakken" />
		<tag k="natural" v="slope" />
		<tag k="place" v="locality" />
		<tag k="ssr:stedsnr" v="112292" />
	</node>
	<node lat="68.74387222197252" lon="17.457352767182794" id="-96620">
		<tag k="name" v="Småliskaret" />
		<tag k="natural" v="valley" />
		<tag k="place" v="locality" />
		<tag k="ssr:stedsnr" v="112296" />
	</node>
	<node lat="68.79604444854562" lon="17.415891665529607" id="-96621">
		<tag k="name" v="Tverrelva" />
		<tag k="ssr:stedsnr" v="112313" />
		<tag k="waterway" v="stream" />
	</node>
	<node lat="68.70783055595199" lon="17.55359443212321" id="-96622">
		<tag k="name" v="Reinveian" />
		<tag k="natural" v="hill" />
		<tag k="place" v="locality" />
		<tag k="ssr:stedsnr" v="112371" />
	</node>
	<node lat="68.66743611463409" lon="17.69605277855906" id="-96623">
		<tag k="name" v="Svartedalen" />
		<tag k="natural" v="valley" />
		<tag k="place" v="locality" />
		<tag k="ssr:stedsnr" v="112381" />
	</node>
	<node lat="68.62834722488907" lon="17.703238892704313" id="-96624">
		<tag k="name" v="Varasmyra" />
		<tag k="natural" v="wetland" />
		<tag k="ssr:stedsnr" v="112387" />
	</node>
	<node lat="68.69033055659254" lon="17.542233342213574" id="-96625">
		<tag k="fixme" v="consider place=hamlet" />
		<tag k="loc_name:se" v="Árjogeargi;Orrageargi" />
		<tag k="name" v="Årstein" />
		<tag k="name:no" v="Årstein" />
		<tag k="place" v="village" />
		<tag k="ssr:stedsnr" v="138567" />
	</node>
	<node lat="68.67588888423731" lon="17.696750003241377" id="-96626">
		<tag k="name" v="Mølnelva" />
		<tag k="ssr:stedsnr" v="138583" />
		<tag k="waterway" v="stream" />
	</node>
	<node lat="68.62345555100033" lon="17.814991667831073" id="-96629">
		<tag k="fixme" v="consider natural=peak for the most distinct mountains in the district" />
		<tag k="name" v="Durmålsfjellet" />
		<tag k="natural" v="hill" />
		<tag k="place" v="locality" />
		<tag k="ssr:stedsnr" v="139530" />
	</node>
	<node lat="68.63378333471137" lon="17.74155278510846" id="-96630">
		<tag k="fixme" v="consider natural=peak for the most distinct mountains in the district" />
		<tag k="name" v="Saunåsen" />
		<tag k="natural" v="hill" />
		<tag k="place" v="locality" />
		<tag k="ssr:stedsnr" v="139541" />
	</node>
	<node lat="68.63283888532669" lon="17.67759167218224" id="-96631">
		<tag k="alt_name" v="Reisevatnet" />
		<tag k="name" v="Reisvatnet" />
		<tag k="natural" v="water" />
		<tag k="ssr:stedsnr" v="139547" />
		<tag k="water" v="lake" />
	</node>
	<node lat="68.59751944272381" lon="17.745861111977863" id="-96632">
		<tag k="fixme" v="consider natural=peak for the most distinct mountains in the district" />
		<tag k="name" v="Leaiggasoaivi" />
		<tag k="name:no" v="Leigastinden" />
		<tag k="name:se" v="Leaiggasoaivi" />
		<tag k="natural" v="hill" />
		<tag k="old_name:se" v="Læigasoaivi" />
		<tag k="place" v="locality" />
		<tag k="ssr:stedsnr" v="142529" />
	</node>
	<node lat="68.69427500469037" lon="17.45189998769149" id="-96637">
		<tag k="name" v="Foldvikgrunnen" />
		<tag k="natural" v="shoal" />
		<tag k="place" v="locality" />
		<tag k="ssr:stedsnr" v="150138" />
	</node>
	<node lat="68.74365000176716" lon="17.422925001431082" id="-96638">
		<tag k="alt_name" v="Lillevika" />
		<tag k="name" v="Litlevika" />
		<tag k="natural" v="bay" />
		<tag k="ssr:stedsnr" v="150831" />
	</node>
	<node lat="68.7934055534201" lon="17.358494434275553" id="-96639">
		<tag k="name" v="Leirvika" />
		<tag k="natural" v="bay" />
		<tag k="ssr:stedsnr" v="272963" />
	</node>
	<node lat="68.72343610802326" lon="17.47148611736821" id="-96640">
		<tag k="name" v="Bukkeberget" />
		<tag k="natural" v="hill" />
		<tag k="place" v="locality" />
		<tag k="ssr:stedsnr" v="172267" />
	</node>
	<node lat="68.74168610818396" lon="17.475536099181834" id="-96641">
		<tag k="name" v="Reingjerdsletta" />
		<tag k="place" v="locality" />
		<tag k="ssr:stedsnr" v="172271" />
	</node>
	<node lat="68.70004166868112" lon="17.323213876932975" id="-96642">
		<tag k="fixme" v="consider natural=peak for the most distinct mountains in the district" />
		<tag k="name" v="Yttersulaksla" />
		<tag k="natural" v="hill" />
		<tag k="place" v="locality" />
		<tag k="ssr:stedsnr" v="171375" />
	</node>
	<node lat="68.75249999586075" lon="17.28325833380619" id="-96643">
		<tag k="name" v="Øra" />
		<tag k="natural" v="scree" />
		<tag k="ssr:stedsnr" v="171388" />
	</node>
	<node lat="68.67502500424597" lon="17.765055543086405" id="-96644">
		<tag k="name" v="Slettfjellet" />
		<tag k="natural" v="slope" />
		<tag k="place" v="locality" />
		<tag k="ssr:stedsnr" v="172365" />
	</node>
	<node lat="68.63251666479867" lon="17.77206943094878" id="-96645">
		<tag k="name" v="Lassaelva" />
		<tag k="name:no" v="Lassaelva" />
		<tag k="name:se" v="Skáiddilássájohka" />
		<tag k="ssr:stedsnr" v="172367" />
		<tag k="waterway" v="stream" />
	</node>
	<node lat="68.64236944044701" lon="17.72822222851572" id="-96646">
		<tag k="fixme" v="consider place=hamlet" />
		<tag k="loc_name:no" v="Holtåsen" />
		<tag k="loc_name:se" v="Reaidduorda" />
		<tag k="name" v="Holtås" />
		<tag k="name:no" v="Holtås" />
		<tag k="place" v="village" />
		<tag k="ssr:stedsnr" v="172383" />
	</node>
	<node lat="68.64777777942653" lon="17.763097232403723" id="-96647">
		<tag k="name" v="Hulelva" />
		<tag k="ssr:stedsnr" v="172386" />
		<tag k="waterway" v="stream" />
	</node>
	<node lat="68.70802499698269" lon="17.5027222134881" id="-96648">
		<tag k="name" v="Høgebakkdalen" />
		<tag k="natural" v="valley" />
		<tag k="place" v="locality" />
		<tag k="ssr:stedsnr" v="172475" />
	</node>
	<node lat="68.73375277795387" lon="17.463852769818626" id="-96649">
		<tag k="name" v="Kalveberget" />
		<tag k="natural" v="hill" />
		<tag k="place" v="locality" />
		<tag k="ssr:stedsnr" v="172272" />
	</node>
	<node lat="68.78990833493133" lon="17.372450001098635" id="-96650">
		<tag k="name" v="Gårdselva" />
		<tag k="ssr:stedsnr" v="172286" />
		<tag k="waterway" v="stream" />
	</node>
	<node lat="68.80173889073426" lon="17.39580556334537" id="-96651">
		<tag k="name" v="Pikhelleren" />
		<tag k="natural" v="stone" />
		<tag k="ssr:stedsnr" v="172293" />
	</node>
	<node lat="68.66689999613169" lon="17.599627773345546" id="-96652">
		<tag k="name" v="Lomvatnet" />
		<tag k="natural" v="water" />
		<tag k="ssr:stedsnr" v="172298" />
	</node>
	<node lat="68.68543333050557" lon="17.558511107145005" id="-96653">
		<tag k="name" v="Straumsneshammarn" />
		<tag k="natural" v="hill" />
		<tag k="place" v="locality" />
		<tag k="ssr:stedsnr" v="172349" />
	</node>
	<node lat="68.64997500233594" lon="17.662838884046714" id="-96654">
		<tag k="name" v="Middagshågen" />
		<tag k="natural" v="hill" />
		<tag k="place" v="locality" />
		<tag k="ssr:stedsnr" v="172353" />
	</node>
	<node lat="68.77142499705153" lon="17.298472209738485" id="-96655">
		<tag k="highway" v="path" />
		<tag k="name" v="Skarveien" />
		<tag k="ssr:stedsnr" v="172445" />
	</node>
	<node lat="68.74214722449096" lon="17.43005833935443" id="-96656">
		<tag k="name" v="Brattåsberget" />
		<tag k="natural" v="hill" />
		<tag k="place" v="locality" />
		<tag k="ssr:stedsnr" v="172524" />
	</node>
	<node lat="68.72499999570852" lon="17.41173333543249" id="-96657">
		<tag k="name" v="Vednesvika" />
		<tag k="natural" v="bay" />
		<tag k="ssr:stedsnr" v="172526" />
	</node>
	<node lat="68.70060277543323" lon="17.4893999888361" id="-96658">
		<tag k="name" v="Sjåflaten" />
		<tag k="place" v="locality" />
		<tag k="ssr:stedsnr" v="172498" />
	</node>
	<node lat="68.72643611570172" lon="17.40724166500951" id="-96659">
		<tag k="name" v="Mellavika" />
		<tag k="natural" v="bay" />
		<tag k="ssr:stedsnr" v="172531" />
	</node>
	<node lat="68.61634444826798" lon="17.51171665558938" id="-96660">
		<tag k="name" v="Beađvaláhku" />
		<tag k="name:se" v="Beađvaláhku" />
		<tag k="old_name:se" v="Bæđvalakko" />
		<tag k="place" v="locality" />
		<tag k="ssr:stedsnr" v="199547" />
	</node>
	<node lat="68.60955833258147" lon="17.634122207379963" id="-96661">
		<tag k="alt_name" v="Dauvatnet" />
		<tag k="name" v="Daudvatnet" />
		<tag k="natural" v="water" />
		<tag k="ssr:stedsnr" v="199550" />
	</node>
	<node lat="68.67405450899247" lon="17.691517800238525" id="-96662">
		<tag k="fixme" v="consider place=hamlet" />
		<tag k="name" v="Fjordbotn" />
		<tag k="name:no" v="Fjordbotn" />
		<tag k="name:se" v="Vuotnabahta" />
		<tag k="place" v="farm" />
		<tag k="ssr:stedsnr" v="199638" />
	</node>
	<node lat="68.66252777752655" lon="17.70377221301625" id="-96667">
		<tag k="name" v="Høgbakken" />
		<tag k="natural" v="hill" />
		<tag k="place" v="locality" />
		<tag k="ssr:stedsnr" v="200605" />
	</node>
	<node lat="68.66256111119743" lon="17.764847209450302" id="-96668">
		<tag k="name" v="Gratangen turiststasjon" />
		<tag k="ssr:stedsnr" v="200607" />
		<tag k="tourism" v="hotel" />
	</node>
	<node lat="68.67175291280108" lon="17.726540025053456" id="-96669">
		<tag k="name" v="Småbergan" />
		<tag k="natural" v="hill" />
		<tag k="place" v="locality" />
		<tag k="ssr:stedsnr" v="200626" />
	</node>
	<node lat="68.62715555765443" lon="17.74249166540803" id="-96670">
		<tag k="alt_name" v="Forsejorda" />
		<tag k="name" v="Fossejorda" />
		<tag k="place" v="locality" />
		<tag k="ssr:stedsnr" v="200536" />
	</node>
	<node lat="68.63967777923337" lon="17.679441655488453" id="-96671">
		<tag k="alt_name" v="Coardaelva" />
		<tag k="name" v="Kjårdaelva" />
		<tag k="ssr:stedsnr" v="200549" />
		<tag k="waterway" v="river" />
	</node>
	<node lat="68.63215833178145" lon="17.722994446283543" id="-96672">
		<tag k="alt_name" v="Skjelelva" />
		<tag k="name" v="Skjellelva" />
		<tag k="ssr:stedsnr" v="200546" />
		<tag k="waterway" v="stream" />
	</node>
	<node lat="68.73803611001689" lon="17.325294431353118" id="-96673">
		<tag k="alt_name" v="Ramtua;Ramtuva" />
		<tag k="name" v="Ramntuva" />
		<tag k="natural" v="hill" />
		<tag k="place" v="locality" />
		<tag k="ssr:stedsnr" v="200882" />
	</node>
	<node lat="68.69429444378086" lon="17.294986117792575" id="-96675">
		<tag k="fixme" v="consider natural=peak for the most distinct mountains in the district" />
		<tag k="name" v="Sula" />
		<tag k="name:no" v="Sula" />
		<tag k="name:se" v="Girkoaivi" />
		<tag k="natural" v="hill" />
		<tag k="place" v="locality" />
		<tag k="ssr:stedsnr" v="202537" />
	</node>
	<node lat="68.6667138883448" lon="17.387650005137097" id="-96676">
		<tag k="fixme" v="consider natural=peak for the most distinct mountains in the district" />
		<tag k="name" v="Kvannto" />
		<tag k="name:no" v="Kvannto" />
		<tag k="name:se" v="Duolba" />
		<tag k="natural" v="hill" />
		<tag k="place" v="locality" />
		<tag k="ssr:stedsnr" v="202988" />
	</node>
	<node lat="68.65169444078212" lon="17.60460832428561" id="-96677">
		<tag k="fixme" v="consider natural=peak for the most distinct mountains in the district" />
		<tag k="name" v="Snaufjellet - Ruoppis" />
		<tag k="name:no" v="Snaufjellet" />
		<tag k="name:se" v="Ruoppis" />
		<tag k="natural" v="hill" />
		<tag k="old_name:se" v="Ruobbis" />
		<tag k="place" v="locality" />
		<tag k="ssr:stedsnr" v="203601" />
	</node>
	<node lat="68.67880555691919" lon="17.44066110298884" id="-96681">
		<tag k="name" v="Hellarberget" />
		<tag k="natural" v="hill" />
		<tag k="place" v="locality" />
		<tag k="ssr:stedsnr" v="212151" />
	</node>
	<node lat="68.73683055932979" lon="17.278638887739554" id="-96682">
		<tag k="name" v="Marsteinen" />
		<tag k="place" v="locality" />
		<tag k="seamark:type" v="rock" />
		<tag k="ssr:stedsnr" v="212162" />
	</node>
	<node lat="68.69308889114802" lon="17.596774993982393" id="-96683">
		<tag k="name" v="Reiteneset" />
		<tag k="natural" v="cape" />
		<tag k="ssr:stedsnr" v="273629" />
	</node>
	<node lat="68.69290000074534" lon="17.55201387763363" id="-96684">
		<tag k="name" v="Ørneset" />
		<tag k="natural" v="cape" />
		<tag k="ssr:stedsnr" v="289822" />
	</node>
	<node lat="68.81575000355367" lon="17.43354167364041" id="-96685">
		<tag k="name" v="Skogly" />
		<tag k="place" v="farm" />
		<tag k="ssr:stedsnr" v="292790" />
	</node>
	<node lat="68.7471027755566" lon="17.323863895256252" id="-96686">
		<tag k="name" v="Vedmoelva" />
		<tag k="ssr:stedsnr" v="293428" />
		<tag k="waterway" v="stream" />
	</node>
	<node lat="68.75390555775367" lon="17.279494447602797" id="-96687">
		<tag k="name" v="Småveian" />
		<tag k="natural" v="slope" />
		<tag k="place" v="locality" />
		<tag k="ssr:stedsnr" v="293432" />
	</node>
	<node lat="68.72423888466675" lon="17.303988894209482" id="-96688">
		<tag k="name" v="Skarvberglemman" />
		<tag k="natural" v="hill" />
		<tag k="place" v="locality" />
		<tag k="ssr:stedsnr" v="293443" />
	</node>
	<node lat="68.68238888651187" lon="17.417891672047556" id="-96689">
		<tag k="name" v="Kvantofjellelva" />
		<tag k="ssr:stedsnr" v="293459" />
		<tag k="waterway" v="stream" />
	</node>
	<node lat="68.67733055897033" lon="17.41658056343395" id="-96690">
		<tag k="name" v="Storforrhågen" />
		<tag k="natural" v="hill" />
		<tag k="place" v="locality" />
		<tag k="ssr:stedsnr" v="293462" />
	</node>
	<node lat="68.666391670196" lon="17.509922229788845" id="-96691">
		<tag k="name" v="Nevermoen" />
		<tag k="place" v="locality" />
		<tag k="ssr:stedsnr" v="293463" />
	</node>
	<node lat="68.66776111402365" lon="17.47056388746921" id="-96692">
		<tag k="name" v="Pesselva" />
		<tag k="ssr:stedsnr" v="293464" />
		<tag k="waterway" v="stream" />
	</node>
	<node lat="68.67607222430145" lon="17.463786122013975" id="-96693">
		<tag k="name" v="Silsandelva" />
		<tag k="ssr:stedsnr" v="293472" />
		<tag k="waterway" v="stream" />
	</node>
	<node lat="68.65834167046005" lon="17.7117888882089" id="-96694">
		<tag k="name" v="Fjellhøgda" />
		<tag k="natural" v="hill" />
		<tag k="place" v="locality" />
		<tag k="ssr:stedsnr" v="293399" />
	</node>
	<node lat="68.6548972219908" lon="17.707158326071433" id="-96695">
		<tag k="name" v="Storberget" />
		<tag k="natural" v="hill" />
		<tag k="place" v="locality" />
		<tag k="ssr:stedsnr" v="293400" />
	</node>
	<node lat="68.66472222565126" lon="17.829994447454208" id="-96696">
		<tag k="name" v="Jensvoll" />
		<tag k="place" v="locality" />
		<tag k="ssr:stedsnr" v="293416" />
	</node>
	<node lat="68.723352780226" lon="17.365644433634735" id="-96697">
		<tag k="fixme" v="consider natural=peak for the most distinct mountains in the district" />
		<tag k="name" v="Skjellorfjellet" />
		<tag k="natural" v="hill" />
		<tag k="place" v="locality" />
		<tag k="ssr:stedsnr" v="293521" />
	</node>
	<node lat="68.67680555574768" lon="17.587708334268086" id="-96698">
		<tag k="name" v="Durmålshaugen" />
		<tag k="natural" v="hill" />
		<tag k="place" v="locality" />
		<tag k="ssr:stedsnr" v="294280" />
	</node>
	<node lat="68.60679166777275" lon="17.609016672486824" id="-96699">
		<tag k="fixme" v="consider natural=peak for the most distinct mountains in the district" />
		<tag k="name" v="Storfjellet" />
		<tag k="natural" v="hill" />
		<tag k="place" v="locality" />
		<tag k="ssr:stedsnr" v="294285" />
	</node>
	<node lat="68.73551944589227" lon="17.460191662946677" id="-96700">
		<tag k="name" v="Løslettberget" />
		<tag k="natural" v="hill" />
		<tag k="place" v="locality" />
		<tag k="ssr:stedsnr" v="294252" />
	</node>
	<node lat="68.73979999708658" lon="17.440980558496804" id="-96701">
		<tag k="name" v="Sjåberget" />
		<tag k="natural" v="hill" />
		<tag k="place" v="locality" />
		<tag k="ssr:stedsnr" v="294254" />
	</node>
	<node lat="68.74023889011589" lon="17.462688884553803" id="-96702">
		<tag k="name" v="Breilihågen" />
		<tag k="natural" v="hill" />
		<tag k="place" v="locality" />
		<tag k="ssr:stedsnr" v="294258" />
	</node>
	<node lat="68.68399444145798" lon="17.58523610031839" id="-96703">
		<tag k="name" v="Orhågen" />
		<tag k="natural" v="hill" />
		<tag k="place" v="locality" />
		<tag k="ssr:stedsnr" v="294342" />
	</node>
	<node lat="68.66236111414659" lon="17.6480472125789" id="-96704">
		<tag k="name" v="Mølnelva" />
		<tag k="ssr:stedsnr" v="321176" />
		<tag k="waterway" v="stream" />
	</node>
	<node lat="68.64005278031664" lon="17.49051944602983" id="-96705">
		<tag k="name" v="Luossariehppi" />
		<tag k="name:se" v="Luossariehppi" />
		<tag k="natural" v="valley" />
		<tag k="old_name:se" v="Luossarieppi" />
		<tag k="place" v="locality" />
		<tag k="ssr:stedsnr" v="321495" />
	</node>
	<node lat="68.59863333091812" lon="17.619374987327777" id="-96706">
		<tag k="name" v="Gratangseidet" />
		<tag k="name:no" v="Gratangseidet" />
		<tag k="name:se" v="Rivttákáidi" />
		<tag k="place" v="locality" />
		<tag k="ssr:stedsnr" v="321527" />
	</node>
	<node lat="68.66209578622943" lon="17.727211455102292" id="-96708">
		<tag k="fixme" v="consider place=hamlet" />
		<tag k="name" v="Dalsletta" />
		<tag k="place" v="farm" />
		<tag k="ssr:stedsnr" v="321562" />
	</node>
	<node lat="68.65103888565949" lon="17.666158332664953" id="-96710">
		<tag k="name" v="Tverrelvsletta" />
		<tag k="place" v="locality" />
		<tag k="ssr:stedsnr" v="321568" />
	</node>
	<node lat="68.65806835703494" lon="17.70884626939244" id="-96711">
		<tag k="fixme" v="consider place=hamlet" />
		<tag k="name" v="Fjellhøgda" />
		<tag k="place" v="farm" />
		<tag k="ssr:stedsnr" v="321571" />
	</node>
	<node lat="68.6514500011068" lon="17.75598610747256" id="-96712">
		<tag k="name" v="Storhaugen" />
		<tag k="natural" v="hill" />
		<tag k="place" v="locality" />
		<tag k="ssr:stedsnr" v="321575" />
	</node>
	<node lat="68.8009500046043" lon="17.435452769750487" id="-96713">
		<tag k="fixme" v="consider natural=peak for the most distinct mountains in the district" />
		<tag k="name" v="Selneskollen" />
		<tag k="natural" v="hill" />
		<tag k="place" v="locality" />
		<tag k="ssr:stedsnr" v="321674" />
	</node>
	<node lat="68.78609444193698" lon="17.421972228682108" id="-96714">
		<tag k="name" v="Belnesvatnet" />
		<tag k="natural" v="water" />
		<tag k="ssr:stedsnr" v="321958" />
		<tag k="water" v="lake" />
	</node>
	<node lat="68.76332499697119" lon="17.329938882593204" id="-96715">
		<tag k="fixme" v="consider natural=peak for the most distinct mountains in the district" />
		<tag k="name" v="Blåfjellet" />
		<tag k="natural" v="hill" />
		<tag k="place" v="locality" />
		<tag k="ssr:stedsnr" v="321985" />
	</node>
	<node lat="68.71514444144935" lon="17.190869443773444" id="-96717">
		<tag k="name" v="Storelva" />
		<tag k="ssr:stedsnr" v="323965" />
		<tag k="waterway" v="stream" />
	</node>
	<node lat="68.7226416652769" lon="17.238849989230662" id="-96718">
		<tag k="fixme" v="consider natural=peak for the most distinct mountains in the district" />
		<tag k="name" v="Bukkespelen" />
		<tag k="natural" v="hill" />
		<tag k="place" v="locality" />
		<tag k="ssr:stedsnr" v="323966" />
	</node>
	<node lat="68.72348333236197" lon="17.231022211799917" id="-96719">
		<tag k="name" v="Tvillingvatnan" />
		<tag k="natural" v="water" />
		<tag k="ssr:stedsnr" v="323967" />
		<tag k="water" v="lake" />
	</node>
	<node lat="68.72060450278119" lon="17.479565350391567" id="-96720">
		<tag k="alt_name" v="Skifte" />
		<tag k="fixme" v="consider place=hamlet" />
		<tag k="name" v="Ytter-Skifte" />
		<tag k="place" v="farm" />
		<tag k="ssr:stedsnr" v="331743" />
	</node>
	<node lat="68.69215833748147" lon="17.428325000203735" id="-96722">
		<tag k="alt_name" v="Nesset" />
		<tag k="name" v="Neset" />
		<tag k="natural" v="cape" />
		<tag k="ssr:stedsnr" v="333176" />
	</node>
	<node lat="68.72907777625068" lon="17.295294438951483" id="-96723">
		<tag k="name" v="Stillevika" />
		<tag k="natural" v="bay" />
		<tag k="ssr:stedsnr" v="333181" />
	</node>
	<node lat="68.7562888927369" lon="17.262711106347084" id="-96724">
		<tag k="fixme" v="consider place=hamlet" />
		<tag k="loc_name:se" v="Rivttáknášši" />
		<tag k="name" v="Grøsnes" />
		<tag k="name:no" v="Grøsnes" />
		<tag k="place" v="village" />
		<tag k="ssr:stedsnr" v="332775" />
	</node>
	<node lat="68.7732888906521" lon="17.268849997903082" id="-96725">
		<tag k="name" v="Kalvegjerdet" />
		<tag k="place" v="locality" />
		<tag k="ssr:stedsnr" v="332893" />
	</node>
	<node lat="68.78683333346586" lon="17.34045276358865" id="-96726">
		<tag k="name" v="Myrlund" />
		<tag k="place" v="farm" />
		<tag k="ssr:stedsnr" v="353429" />
	</node>
	<node lat="68.76946388982525" lon="17.283066662694658" id="-96727">
		<tag k="cemetery" v="grave" />
		<tag k="name" v="Fredly" />
		<tag k="place" v="locality" />
		<tag k="ssr:stedsnr" v="354441" />
	</node>
	<node lat="68.69548333013188" lon="17.389447218232686" id="-96728">
		<tag k="name" v="Kirstiheimbakken" />
		<tag k="natural" v="slope" />
		<tag k="place" v="locality" />
		<tag k="ssr:stedsnr" v="354469" />
	</node>
	<node lat="68.73983055247966" lon="17.4691250013744" id="-96729">
		<tag k="name" v="Blomhågen" />
		<tag k="natural" v="hill" />
		<tag k="place" v="locality" />
		<tag k="ssr:stedsnr" v="354283" />
	</node>
	<node lat="68.81772777848737" lon="17.443313880563707" id="-96730">
		<tag k="name" v="Svaberget" />
		<tag k="natural" v="hill" />
		<tag k="place" v="locality" />
		<tag k="ssr:stedsnr" v="354289" />
	</node>
	<node lat="68.79348333100668" lon="17.369708326883682" id="-96731">
		<tag k="name" v="Metøa" />
		<tag k="place" v="locality" />
		<tag k="ssr:stedsnr" v="354293" />
	</node>
	<node lat="68.69528611261553" lon="17.576372214475516" id="-96732">
		<tag k="name" v="Småsvean" />
		<tag k="natural" v="slope" />
		<tag k="place" v="locality" />
		<tag k="ssr:stedsnr" v="354351" />
	</node>
	<node lat="68.6948083318344" lon="17.58648611678774" id="-96733">
		<tag k="name" v="Sveberget" />
		<tag k="natural" v="hill" />
		<tag k="place" v="locality" />
		<tag k="ssr:stedsnr" v="354352" />
	</node>
	<node lat="68.6533805531474" lon="17.644374989602824" id="-96734">
		<tag k="name" v="Bardejorda" />
		<tag k="natural" v="slope" />
		<tag k="place" v="locality" />
		<tag k="ssr:stedsnr" v="354363" />
	</node>
	<node lat="68.67099722623405" lon="17.779155560817596" id="-96735">
		<tag k="name" v="Finneslettskogen" />
		<tag k="place" v="locality" />
		<tag k="ssr:stedsnr" v="354372" />
	</node>
	<node lat="68.79899444843423" lon="17.400791668148866" id="-96736">
		<tag k="name" v="Belneselva" />
		<tag k="ssr:stedsnr" v="381232" />
		<tag k="waterway" v="river" />
	</node>
	<node lat="68.73572777355885" lon="17.490205560782726" id="-96737">
		<tag k="name" v="Storelva" />
		<tag k="ssr:stedsnr" v="381196" />
		<tag k="waterway" v="river" />
	</node>
	<node lat="68.6495916628796" lon="17.554097227609986" id="-96738">
		<tag k="name" v="Klemmeselva" />
		<tag k="ssr:stedsnr" v="381520" />
		<tag k="waterway" v="stream" />
	</node>
	<node lat="68.68803888998669" lon="17.794447213635905" id="-96739">
		<tag k="fixme" v="consider natural=peak for the most distinct mountains in the district" />
		<tag k="name" v="Slettfjellet" />
		<tag k="natural" v="hill" />
		<tag k="place" v="locality" />
		<tag k="ssr:stedsnr" v="381561" />
	</node>
	<node lat="68.65721944824858" lon="17.588550010338775" id="-96742">
		<tag k="alt_name" v="Klemmeselvvatnet, øvre" />
		<tag k="name" v="Øvre Klemmeselvvatnet" />
		<tag k="natural" v="water" />
		<tag k="ssr:stedsnr" v="381599" />
	</node>
	<node lat="68.65024166799307" lon="17.421186097228137" id="-96744">
		<tag k="name" v="Sisriehppi" />
		<tag k="name:se" v="Sisriehppi" />
		<tag k="natural" v="valley" />
		<tag k="old_name:se" v="Sisrieppi" />
		<tag k="place" v="locality" />
		<tag k="ssr:stedsnr" v="381614" />
	</node>
	<node lat="68.72676389248416" lon="17.511769433831176" id="-96746">
		<tag k="name" v="Hoaŋka" />
		<tag k="name:se" v="Hoaŋka" />
		<tag k="natural" v="hill" />
		<tag k="place" v="locality" />
		<tag k="ssr:stedsnr" v="382940" />
	</node>
	<node lat="68.71754999887908" lon="17.288455563746503" id="-96747">
		<tag k="fixme" v="consider natural=peak for the most distinct mountains in the district" />
		<tag k="name" v="Tverrfjellet" />
		<tag k="natural" v="hill" />
		<tag k="place" v="locality" />
		<tag k="ssr:stedsnr" v="383968" />
	</node>
	<node lat="68.71927499857082" lon="17.386186097433352" id="-96748">
		<tag k="name" v="Ytterelva" />
		<tag k="ssr:stedsnr" v="383972" />
		<tag k="waterway" v="stream" />
	</node>
	<node lat="68.74228055171506" lon="17.246158328833104" id="-96751">
		<tag k="name" v="Hamnnesgrunnan" />
		<tag k="natural" v="cape" />
		<tag k="ssr:stedsnr" v="393480" />
	</node>
	<node lat="68.72485555220666" lon="17.47302500849493" id="-96752">
		<tag k="name" v="Vika" />
		<tag k="place" v="isolated_dwelling" />
		<tag k="ssr:stedsnr" v="393793" />
	</node>
	<node lat="68.81541111169999" lon="17.421447216494602" id="-96753">
		<tag k="name" v="Steinbakken" />
		<tag k="natural" v="slope" />
		<tag k="place" v="locality" />
		<tag k="ssr:stedsnr" v="413794" />
	</node>
	<node lat="68.81464444565582" lon="17.430519442053406" id="-96754">
		<tag k="name" v="Ressholla" />
		<tag k="natural" v="valley" />
		<tag k="place" v="locality" />
		<tag k="ssr:stedsnr" v="413795" />
	</node>
	<node lat="68.81357777480831" lon="17.42548889395687" id="-96755">
		<tag k="name" v="Ryet" />
		<tag k="place" v="locality" />
		<tag k="ssr:stedsnr" v="413798" />
	</node>
	<node lat="68.71193333128639" lon="17.336922228258143" id="-96756">
		<tag k="name" v="Kvitebergan" />
		<tag k="natural" v="hill" />
		<tag k="place" v="locality" />
		<tag k="ssr:stedsnr" v="414381" />
	</node>
	<node lat="68.73490277747796" lon="17.2759944397647" id="-96757">
		<tag k="name" v="Hesteberget" />
		<tag k="natural" v="hill" />
		<tag k="place" v="locality" />
		<tag k="ssr:stedsnr" v="414384" />
	</node>
	<node lat="68.76867777590954" lon="17.279991653486558" id="-96758">
		<tag k="name" v="Brekka" />
		<tag k="natural" v="hill" />
		<tag k="place" v="locality" />
		<tag k="ssr:stedsnr" v="414426" />
	</node>
	<node lat="68.6785805599179" lon="17.403152778938676" id="-96759">
		<tag k="name" v="Storskogen" />
		<tag k="place" v="locality" />
		<tag k="ssr:stedsnr" v="415464" />
	</node>
	<node lat="68.73450000333672" lon="17.48445556515852" id="-96760">
		<tag k="name" v="Lakseløa" />
		<tag k="place" v="locality" />
		<tag k="ssr:stedsnr" v="415271" />
	</node>
	<node lat="68.66627221833485" lon="17.52876388542921" id="-96761">
		<tag k="name" v="Lyshøgda" />
		<tag k="natural" v="hill" />
		<tag k="place" v="locality" />
		<tag k="ssr:stedsnr" v="415307" />
	</node>
	<node lat="68.67017222554381" lon="17.521858342329704" id="-96762">
		<tag k="name" v="Stendemyra" />
		<tag k="natural" v="wetland" />
		<tag k="ssr:stedsnr" v="415314" />
	</node>
	<node lat="68.70770833345065" lon="17.490191674371335" id="-96763">
		<tag k="name" v="Orrhågen" />
		<tag k="natural" v="hill" />
		<tag k="place" v="locality" />
		<tag k="ssr:stedsnr" v="415492" />
	</node>
	<node lat="68.74633611048083" lon="17.521666667431973" id="-96764">
		<tag k="name" v="Grønnfjellia" />
		<tag k="natural" v="slope" />
		<tag k="place" v="locality" />
		<tag k="ssr:stedsnr" v="415366" />
	</node>
	<node lat="68.70398611410631" lon="17.519750008241346" id="-96765">
		<tag k="name" v="Bleikmyra" />
		<tag k="natural" v="wetland" />
		<tag k="ssr:stedsnr" v="415369" />
	</node>
	<node lat="68.66596111445796" lon="17.77431389943841" id="-96766">
		<tag k="name" v="Fjelldalen" />
		<tag k="natural" v="valley" />
		<tag k="place" v="locality" />
		<tag k="ssr:stedsnr" v="415383" />
	</node>
	<node lat="68.6863944433234" lon="17.382405555975474" id="-96767">
		<tag k="name" v="Nonsfjellelva" />
		<tag k="ssr:stedsnr" v="415511" />
		<tag k="waterway" v="stream" />
	</node>
	<node lat="68.7478833319824" lon="17.441741671582104" id="-96768">
		<tag k="name" v="Steinbergselva" />
		<tag k="ssr:stedsnr" v="415519" />
		<tag k="waterway" v="stream" />
	</node>
	<node lat="68.72840277425539" lon="17.392624985708743" id="-96769">
		<tag k="name" v="Skjettneset" />
		<tag k="natural" v="cape" />
		<tag k="ssr:stedsnr" v="415532" />
	</node>
	<node lat="68.65394444190524" lon="17.489830544582812" id="-96770">
		<tag k="name" v="Tverrelva" />
		<tag k="ssr:stedsnr" v="442218" />
		<tag k="waterway" v="river" />
	</node>
	<node lat="68.65114999857165" lon="17.53705832515861" id="-96771">
		<tag k="name" v="Nilslabekken" />
		<tag k="ssr:stedsnr" v="442528" />
		<tag k="waterway" v="stream" />
	</node>
	<node lat="68.66863611035664" lon="17.71642499902269" id="-96772">
		<tag k="name" v="Moan" />
		<tag k="place" v="farm" />
		<tag k="ssr:stedsnr" v="442628" />
	</node>
	<node lat="68.70796110778687" lon="17.42184443211106" id="-96773">
		<tag k="name" v="Olinaelva" />
		<tag k="ssr:stedsnr" v="442578" />
		<tag k="waterway" v="stream" />
	</node>
	<node lat="68.62359999661767" lon="17.62297777879919" id="-96776">
		<tag k="name" v="Øsevatnet" />
		<tag k="natural" v="water" />
		<tag k="ssr:stedsnr" v="443516" />
		<tag k="water" v="lake" />
	</node>
	<node lat="68.6334500026294" lon="17.729136098995987" id="-96777">
		<tag k="alt_name:no" v="Skoltelva" />
		<tag k="name" v="Skolteelva - Skultetjohka" />
		<tag k="name:no" v="Skolteelva" />
		<tag k="name:se" v="Skultetjohka" />
		<tag k="ssr:stedsnr" v="443526" />
		<tag k="waterway" v="stream" />
	</node>
	<node lat="68.72493055485516" lon="17.33929722703962" id="-96778">
		<tag k="alt_name:no" v="Åmundvika" />
		<tag k="name" v="Åmundsvika" />
		<tag k="name:no" v="Åmundsvika" />
		<tag k="name:se" v="Ommaluokta" />
		<tag k="natural" v="bay" />
		<tag k="ssr:stedsnr" v="444967" />
	</node>
	<node lat="68.67256111446409" lon="17.31297499363771" id="-96780">
		<tag k="fixme" v="consider natural=peak for the most distinct mountains in the district" />
		<tag k="name" v="Tretinden" />
		<tag k="natural" v="hill" />
		<tag k="place" v="locality" />
		<tag k="ssr:stedsnr" v="445998" />
	</node>
	<node lat="68.70664722612834" lon="17.392663895550793" id="-96781">
		<tag k="alt_name" v="Langevatnet" />
		<tag k="name" v="Langvatnet" />
		<tag k="natural" v="water" />
		<tag k="ssr:stedsnr" v="445955" />
	</node>
	<node lat="68.67417777850076" lon="17.498363894098965" id="-96782">
		<tag k="name" v="Fossheim" />
		<tag k="place" v="farm" />
		<tag k="ssr:stedsnr" v="503574" />
	</node>
	<node lat="68.68076944640119" lon="17.583802773465777" id="-96785">
		<tag k="name" v="Høgdelva" />
		<tag k="ssr:stedsnr" v="503543" />
		<tag k="waterway" v="stream" />
	</node>
	<node lat="68.71045277604031" lon="17.431647220548946" id="-96786">
		<tag k="alt_name" v="Øyra" />
		<tag k="name" v="Nautnesøyra" />
		<tag k="natural" v="cape" />
		<tag k="ssr:stedsnr" v="503549" />
	</node>
	<node lat="68.65174999843573" lon="17.654672227064694" id="-96788">
		<tag k="name" v="Tverrelva" />
		<tag k="ssr:stedsnr" v="503567" />
		<tag k="waterway" v="stream" />
	</node>
	<node lat="68.66998610641592" lon="17.627055559468303" id="-96789">
		<tag k="name" v="Grimjordelva" />
		<tag k="ssr:stedsnr" v="503579" />
		<tag k="waterway" v="stream" />
	</node>
	<node lat="68.672561115854" lon="17.542049993660626" id="-96790">
		<tag k="alt_name" v="Molvikelva" />
		<tag k="name" v="Mollvikelva" />
		<tag k="ssr:stedsnr" v="503580" />
		<tag k="waterway" v="stream" />
	</node>
	<node lat="68.7349333329297" lon="17.282633321269035" id="-96791">
		<tag k="name" v="Teistebergodden" />
		<tag k="natural" v="cape" />
		<tag k="ssr:stedsnr" v="503875" />
	</node>
	<node lat="68.75949722449806" lon="17.423341677889816" id="-96793">
		<tag k="alt_name" v="Rissen" />
		<tag k="fixme" v="consider natural=peak for the most distinct mountains in the district" />
		<tag k="name" v="Risen" />
		<tag k="natural" v="hill" />
		<tag k="place" v="locality" />
		<tag k="ssr:stedsnr" v="503982" />
	</node>
	<node lat="68.75732499962064" lon="17.336999998431928" id="-96794">
		<tag k="fixme" v="consider natural=peak for the most distinct mountains in the district" />
		<tag k="name" v="Keipen" />
		<tag k="natural" v="hill" />
		<tag k="place" v="locality" />
		<tag k="ssr:stedsnr" v="503985" />
	</node>
	<node lat="68.74101666346958" lon="17.329591654454344" id="-96795">
		<tag k="alt_name:no" v="Grøsnes lille;Grøsnes, l" />
		<tag k="loc_name:se" v="Unna Rivttáknášši" />
		<tag k="name" v="Lille Grøsnes" />
		<tag k="name:no" v="Lille Grøsnes" />
		<tag k="place" v="hamlet" />
		<tag k="ssr:stedsnr" v="503849" />
	</node>
	<node lat="68.76883151215716" lon="17.272414338335025" id="-96796">
		<tag k="fixme" v="consider place=hamlet" />
		<tag k="name" v="Myrland" />
		<tag k="place" v="farm" />
		<tag k="ssr:stedsnr" v="503928" />
	</node>
	<node lat="68.66894444019141" lon="17.343052775231758" id="-96797">
		<tag k="fixme" v="consider natural=peak for the most distinct mountains in the district" />
		<tag k="name" v="Nonsfjellet" />
		<tag k="natural" v="hill" />
		<tag k="place" v="locality" />
		<tag k="ssr:stedsnr" v="505992" />
	</node>
	<node lat="68.67515000024672" lon="17.257449995018252" id="-96798">
		<tag k="fixme" v="consider natural=peak for the most distinct mountains in the district" />
		<tag k="name" v="Tinden" />
		<tag k="natural" v="hill" />
		<tag k="place" v="locality" />
		<tag k="ssr:stedsnr" v="505996" />
	</node>
	<node lat="68.67379444233525" lon="17.359102769552205" id="-96799">
		<tag k="name" v="Nonsfjellbotn" />
		<tag k="natural" v="valley" />
		<tag k="place" v="locality" />
		<tag k="ssr:stedsnr" v="505998" />
	</node>
	<node lat="68.69592499834533" lon="17.505266671176866" id="-96803">
		<tag k="name" v="Stigbergan" />
		<tag k="natural" v="cape" />
		<tag k="ssr:stedsnr" v="515796" />
	</node>
	<node lat="68.78363888672443" lon="17.308527771374454" id="-96804">
		<tag k="name" v="Holmegrunnen" />
		<tag k="natural" v="shoal" />
		<tag k="place" v="locality" />
		<tag k="ssr:stedsnr" v="515969" />
	</node>
	<node lat="68.69359166849989" lon="17.348330545880845" id="-96805">
		<tag k="name" v="Reingjerdhågen" />
		<tag k="natural" v="hill" />
		<tag k="place" v="locality" />
		<tag k="ssr:stedsnr" v="535394" />
	</node>
	<node lat="68.73336944751773" lon="17.26310833140537" id="-96806">
		<tag k="name" v="Hamnegården" />
		<tag k="place" v="farm" />
		<tag k="ssr:stedsnr" v="535399" />
	</node>
	<node lat="68.72318333601713" lon="17.348749998069806" id="-96807">
		<tag k="name" v="Svartberget" />
		<tag k="natural" v="hill" />
		<tag k="place" v="locality" />
		<tag k="ssr:stedsnr" v="535430" />
	</node>
	<node lat="68.80296666442837" lon="17.404147222000315" id="-96808">
		<tag k="name" v="Bukkebakkelva" />
		<tag k="ssr:stedsnr" v="536277" />
		<tag k="waterway" v="stream" />
	</node>
	<node lat="68.65965832976815" lon="17.519122213100964" id="-96809">
		<tag k="name" v="Spadebakken" />
		<tag k="natural" v="slope" />
		<tag k="place" v="locality" />
		<tag k="ssr:stedsnr" v="536292" />
	</node>
	<node lat="68.73517777318263" lon="17.490983337634468" id="-96810">
		<tag k="name" v="Trangskogsletta" />
		<tag k="place" v="locality" />
		<tag k="ssr:stedsnr" v="536251" />
	</node>
	<node lat="68.73809166309913" lon="17.46908056437534" id="-96811">
		<tag k="name" v="Slåttelielva" />
		<tag k="ssr:stedsnr" v="536253" />
		<tag k="waterway" v="stream" />
	</node>
	<node lat="68.67622777387244" lon="17.622094440643806" id="-96812">
		<tag k="name" v="Gardselva" />
		<tag k="ssr:stedsnr" v="536321" />
		<tag k="waterway" v="stream" />
	</node>
	<node lat="68.68343333733029" lon="17.582086104045846" id="-96813">
		<tag k="name" v="Hesthågen" />
		<tag k="natural" v="hill" />
		<tag k="place" v="locality" />
		<tag k="ssr:stedsnr" v="536339" />
	</node>
	<node lat="68.6875388861455" lon="17.678144451928688" id="-96814">
		<tag k="name" v="Blåelva" />
		<tag k="ssr:stedsnr" v="536342" />
		<tag k="waterway" v="stream" />
	</node>
	<node lat="68.68342222233585" lon="17.595086106981203" id="-96815">
		<tag k="name" v="Garnhollberget" />
		<tag k="natural" v="hill" />
		<tag k="place" v="locality" />
		<tag k="ssr:stedsnr" v="536345" />
	</node>
	<node lat="68.66416666454258" lon="17.702808329246103" id="-96816">
		<tag k="name" v="Høgebakkan" />
		<tag k="natural" v="slope" />
		<tag k="place" v="locality" />
		<tag k="ssr:stedsnr" v="536355" />
	</node>
	<node lat="68.74322222117439" lon="17.562272216548383" id="-96817">
		<tag k="name" v="Finnlægran" />
		<tag k="natural" v="slope" />
		<tag k="place" v="locality" />
		<tag k="ssr:stedsnr" v="536360" />
	</node>
	<node lat="68.62496389090515" lon="17.723744446660266" id="-96818">
		<tag k="name" v="Roašmebákti" />
		<tag k="name:se" v="Roašmebákti" />
		<tag k="natural" v="hill" />
		<tag k="place" v="locality" />
		<tag k="ssr:stedsnr" v="536362" />
	</node>
	<node lat="68.71568611167815" lon="17.36700555531362" id="-96819">
		<tag k="name" v="Småvasslia" />
		<tag k="natural" v="slope" />
		<tag k="place" v="locality" />
		<tag k="ssr:stedsnr" v="536439" />
	</node>
	<node lat="68.70344444755375" lon="17.509688876061883" id="-96820">
		<tag k="name" v="Godbærmoen" />
		<tag k="place" v="locality" />
		<tag k="ssr:stedsnr" v="536446" />
	</node>
	<node lat="68.69671667084944" lon="17.427683330766342" id="-96821">
		<tag k="name" v="Linberget" />
		<tag k="natural" v="hill" />
		<tag k="place" v="locality" />
		<tag k="ssr:stedsnr" v="536457" />
	</node>
	<node lat="68.61157777544788" lon="17.569122228876058" id="-96823">
		<tag k="fixme" v="consider natural=peak for the most distinct mountains in the district" />
		<tag k="name" v="Geahčovárri" />
		<tag k="name:no" v="Rundfjellet" />
		<tag k="name:se" v="Geahčovárri" />
		<tag k="natural" v="hill" />
		<tag k="old_name:se" v="Gæččuvarri" />
		<tag k="place" v="locality" />
		<tag k="ssr:stedsnr" v="563521" />
	</node>
	<node lat="68.60201666909717" lon="17.78139166323376" id="-96825">
		<tag k="name" v="Britavatnet" />
		<tag k="natural" v="water" />
		<tag k="ssr:stedsnr" v="563535" />
	</node>
	<node lat="68.69653889154523" lon="17.59201943980275" id="-96826">
		<tag k="name" v="Årsteinlian" />
		<tag k="natural" v="slope" />
		<tag k="place" v="locality" />
		<tag k="ssr:stedsnr" v="563549" />
	</node>
	<node lat="68.68581111313277" lon="17.584938899111066" id="-96829">
		<tag k="alt_name" v="Sandnes" />
		<tag k="name" v="Sandneset" />
		<tag k="natural" v="cape" />
		<tag k="ssr:stedsnr" v="563562" />
	</node>
	<node lat="68.71465833103353" lon="17.480975001398328" id="-96830">
		<tag k="name" v="Ingerdalen" />
		<tag k="natural" v="valley" />
		<tag k="place" v="locality" />
		<tag k="ssr:stedsnr" v="563565" />
	</node>
	<node lat="68.67131343506203" lon="17.6580699372844" id="-96831">
		<tag k="alt_name" v="Elvenes" />
		<tag k="name" v="Elveneset" />
		<tag k="natural" v="cape" />
		<tag k="ssr:stedsnr" v="563607" />
	</node>
	<node lat="68.75988333581682" lon="17.459655556081536" id="-96833">
		<tag k="name" v="Ystelimyran" />
		<tag k="natural" v="wetland" />
		<tag k="ssr:stedsnr" v="563774" />
	</node>
	<node lat="68.78755000457254" lon="17.24449721852488" id="-96834">
		<tag k="bay" v="fjord" />
		<tag k="loc_name:se" v="Ásttavierda" />
		<tag k="name" v="Astafjorden" />
		<tag k="name:no" v="Astafjorden" />
		<tag k="natural" v="bay" />
		<tag k="ssr:stedsnr" v="563969" />
	</node>
	<node lat="68.76971388887188" lon="17.30361111114163" id="-96835">
		<tag k="fixme" v="consider natural=peak for the most distinct mountains in the district" />
		<tag k="name" v="Storfløyta" />
		<tag k="natural" v="hill" />
		<tag k="place" v="locality" />
		<tag k="ssr:stedsnr" v="563962" />
	</node>
	<node lat="68.76751944506198" lon="17.32374165409944" id="-96836">
		<tag k="alt_name" v="Klubbvatnet" />
		<tag k="name" v="Klubbevatnet" />
		<tag k="natural" v="water" />
		<tag k="ssr:stedsnr" v="563963" />
	</node>
	<node lat="68.56710586244859" lon="17.49558233452525" id="-96838">
		<tag k="fixme" v="consider natural=peak for the most distinct mountains in the district" />
		<tag k="name" v="Storfjellet - Návstavárri" />
		<tag k="name:no" v="Storfjellet" />
		<tag k="name:se" v="Návstavárri" />
		<tag k="natural" v="hill" />
		<tag k="old_name:se" v="Navstavarri" />
		<tag k="place" v="locality" />
		<tag k="ssr:stedsnr" v="567184" />
	</node>
	<node lat="68.76702221945669" lon="17.272269430435855" id="-96840">
		<tag k="name" v="Storelva" />
		<tag k="ssr:stedsnr" v="596380" />
		<tag k="waterway" v="stream" />
	</node>
	<node lat="68.71330277754686" lon="17.4838500034286" id="-96841">
		<tag k="name" v="Kumyra" />
		<tag k="natural" v="wetland" />
		<tag k="ssr:stedsnr" v="596425" />
	</node>
	<node lat="68.6931138901146" lon="17.376805562257253" id="-96842">
		<tag k="name" v="Vargedalen" />
		<tag k="natural" v="valley" />
		<tag k="place" v="locality" />
		<tag k="ssr:stedsnr" v="596432" />
	</node>
	<node lat="68.69492777883757" lon="17.406586115517896" id="-96843">
		<tag k="fixme" v="consider natural=peak for the most distinct mountains in the district" />
		<tag k="name" v="Høgda" />
		<tag k="natural" v="hill" />
		<tag k="place" v="locality" />
		<tag k="ssr:stedsnr" v="596442" />
	</node>
	<node lat="68.67247012894721" lon="17.70764614427549" id="-96844">
		<tag k="name" v="Fjelloran" />
		<tag k="natural" v="scree" />
		<tag k="ssr:stedsnr" v="597372" />
	</node>
	<node lat="68.80778889078314" lon="17.410322229034744" id="-96845">
		<tag k="name" v="Hestevollelva" />
		<tag k="ssr:stedsnr" v="597287" />
		<tag k="waterway" v="stream" />
	</node>
	<node lat="68.80585277623935" lon="17.405822211167596" id="-96846">
		<tag k="name" v="Møllelvfeltet" />
		<tag k="place" v="locality" />
		<tag k="ssr:stedsnr" v="597290" />
	</node>
	<node lat="68.68382254316589" lon="17.583428677850705" id="-96847">
		<tag k="fixme" v="consider place=hamlet" />
		<tag k="name" v="Sandnes" />
		<tag k="place" v="farm" />
		<tag k="ssr:stedsnr" v="597345" />
	</node>
	<node lat="68.64585000089983" lon="17.719461107506227" id="-96848">
		<tag k="name" v="Storhaugen" />
		<tag k="name:no" v="Storhaugen" />
		<tag k="name:se" v="Reaidu" />
		<tag k="natural" v="hill" />
		<tag k="place" v="locality" />
		<tag k="ssr:stedsnr" v="597380" />
	</node>
	<node lat="68.70761944784286" lon="17.478997224531366" id="-96849">
		<tag k="name" v="Svavika" />
		<tag k="natural" v="bay" />
		<tag k="ssr:stedsnr" v="624587" />
	</node>
	<node lat="68.6633833366967" lon="17.762011114821043" id="-96850">
		<tag k="name" v="Fjordbotnmarka - Skuhppi" />
		<tag k="name:no" v="Fjordbotnmarka" />
		<tag k="name:se" v="Skuhppi" />
		<tag k="old_name:se" v="Skuppi" />
		<tag k="place" v="locality" />
		<tag k="ssr:stedsnr" v="624588" />
	</node>
	<node lat="68.61995278097608" lon="17.671022230228207" id="-96851">
		<tag k="name" v="Bergevatnet" />
		<tag k="natural" v="water" />
		<tag k="ssr:stedsnr" v="624511" />
	</node>
	<node lat="68.61230278275137" lon="17.731961098316354" id="-96852">
		<tag k="name" v="Roašmejávrrit" />
		<tag k="name:se" v="Roašmejávrrit" />
		<tag k="natural" v="water" />
		<tag k="old_name:se" v="Roašmejavrit" />
		<tag k="ssr:stedsnr" v="624555" />
	</node>
	<node lat="68.75053055692352" lon="17.43616665602888" id="-96853">
		<tag k="name" v="Steinbergskarlian" />
		<tag k="natural" v="slope" />
		<tag k="place" v="locality" />
		<tag k="ssr:stedsnr" v="624624" />
	</node>
	<node lat="68.75146110718418" lon="17.309005564047563" id="-96856">
		<tag k="alt_name" v="Mørkelva" />
		<tag k="name" v="Mørkeelva" />
		<tag k="ssr:stedsnr" v="625000" />
		<tag k="waterway" v="stream" />
	</node>
	<node lat="68.72113889182546" lon="17.41566389453083" id="-96857">
		<tag k="alt_name:no" v="Tjuvskjeret" />
		<tag k="loc_name:se" v="Čuvvá" />
		<tag k="name" v="Tjuvskjær" />
		<tag k="name:no" v="Tjuvskjær" />
		<tag k="place" v="hamlet" />
		<tag k="ssr:stedsnr" v="626970" />
	</node>
	<node lat="68.81179444799783" lon="17.41514999097448" id="-96861">
		<tag k="fixme" v="multiple name tags, choose one and add the other to alt_name" />
		<tag k="name" v="Selnesvika;Vika" />
		<tag k="natural" v="bay" />
		<tag k="ssr:stedsnr" v="636970" />
	</node>
	<node lat="68.76375000265675" lon="17.366494433419586" id="-96862">
		<tag k="name" v="Løvdalsskaret" />
		<tag k="natural" v="valley" />
		<tag k="place" v="locality" />
		<tag k="ssr:stedsnr" v="656396" />
	</node>
	<node lat="68.7255277815052" lon="17.266413891799857" id="-96863">
		<tag k="name" v="Tverrlia" />
		<tag k="natural" v="slope" />
		<tag k="place" v="locality" />
		<tag k="ssr:stedsnr" v="656398" />
	</node>
	<node lat="68.72616388863146" lon="17.294327774557704" id="-96864">
		<tag k="name" v="Flaen" />
		<tag k="natural" v="hill" />
		<tag k="place" v="locality" />
		<tag k="ssr:stedsnr" v="656412" />
	</node>
	<node lat="68.73730278019401" lon="17.32049444739294" id="-96865">
		<tag k="name" v="Keila" />
		<tag k="natural" v="bay" />
		<tag k="ssr:stedsnr" v="656418" />
	</node>
	<node lat="68.77176111096323" lon="17.271663880085768" id="-96866">
		<tag k="name" v="Storhågen" />
		<tag k="natural" v="hill" />
		<tag k="place" v="locality" />
		<tag k="ssr:stedsnr" v="656422" />
	</node>
	<node lat="68.71105277666702" lon="17.204494446660963" id="-96867">
		<tag k="name" v="Rundvatnet" />
		<tag k="natural" v="water" />
		<tag k="ssr:stedsnr" v="656375" />
	</node>
	<node lat="68.72737499942153" lon="17.495944431386175" id="-96868">
		<tag k="name" v="Kjerringnesen" />
		<tag k="natural" v="hill" />
		<tag k="place" v="locality" />
		<tag k="ssr:stedsnr" v="657255" />
	</node>
	<node lat="68.79152222594041" lon="17.37133333806935" id="-96869">
		<tag k="name" v="Masterlia" />
		<tag k="natural" v="slope" />
		<tag k="place" v="locality" />
		<tag k="ssr:stedsnr" v="657275" />
	</node>
	<node lat="68.80318333465647" lon="17.41240278168082" id="-96870">
		<tag k="name" v="Mølleforsen" />
		<tag k="natural" v="waterfall" />
		<tag k="ssr:stedsnr" v="657278" />
	</node>
	<node lat="68.69446666614708" lon="17.533213897575244" id="-96871">
		<tag k="name" v="Vikelva" />
		<tag k="ssr:stedsnr" v="657362" />
		<tag k="waterway" v="stream" />
	</node>
	<node lat="68.67411111256646" lon="17.729063880934298" id="-96872">
		<tag k="name" v="Skoddeløelva" />
		<tag k="ssr:stedsnr" v="657367" />
		<tag k="waterway" v="stream" />
	</node>
	<node lat="68.67878332900347" lon="17.5107194514906" id="-96873">
		<tag k="name" v="Pålfinnholla" />
		<tag k="natural" v="bay" />
		<tag k="ssr:stedsnr" v="657446" />
	</node>
	<node lat="68.67297221935237" lon="17.503733329111085" id="-96874">
		<tag k="name" v="Dalen" />
		<tag k="natural" v="valley" />
		<tag k="place" v="locality" />
		<tag k="ssr:stedsnr" v="657455" />
	</node>
	<node lat="68.70397499793326" lon="17.35868055367101" id="-96875">
		<tag k="name" v="Vinkelvatnan" />
		<tag k="natural" v="water" />
		<tag k="ssr:stedsnr" v="657462" />
		<tag k="water" v="lake" />
	</node>
	<node lat="68.7079083312846" lon="17.397491656559612" id="-96876">
		<tag k="name" v="Heia" />
		<tag k="natural" v="hill" />
		<tag k="place" v="locality" />
		<tag k="ssr:stedsnr" v="657464" />
	</node>
	<node lat="68.7108388887047" lon="17.503680549417464" id="-96877">
		<tag k="name" v="Høgebakken" />
		<tag k="natural" v="slope" />
		<tag k="place" v="locality" />
		<tag k="ssr:stedsnr" v="657468" />
	</node>
	<node lat="68.66029444692805" lon="17.655588894836473" id="-96878">
		<tag k="fixme" v="consider natural=peak for the most distinct mountains in the district" />
		<tag k="name" v="Kollen" />
		<tag k="natural" v="hill" />
		<tag k="place" v="locality" />
		<tag k="ssr:stedsnr" v="657321" />
	</node>
	<node lat="68.66182500408512" lon="17.663238892313426" id="-96879">
		<tag k="highway" v="path" />
		<tag k="name" v="Kollveien" />
		<tag k="ssr:stedsnr" v="657322" />
	</node>
	<node lat="68.6979250009976" lon="17.41229166641556" id="-96880">
		<tag k="name" v="Foldvikskaret" />
		<tag k="natural" v="valley" />
		<tag k="place" v="locality" />
		<tag k="ssr:stedsnr" v="657482" />
	</node>
	<node lat="68.68841666673478" lon="17.330075004881696" id="-96881">
		<tag k="fixme" v="consider natural=peak for the most distinct mountains in the district" />
		<tag k="name" v="Innersulaksla" />
		<tag k="natural" v="hill" />
		<tag k="place" v="locality" />
		<tag k="ssr:stedsnr" v="717401" />
	</node>
	<node lat="68.71825555442904" lon="17.323430543547786" id="-96882">
		<tag k="name" v="Åmundsvikvatnan" />
		<tag k="natural" v="water" />
		<tag k="ssr:stedsnr" v="717402" />
		<tag k="water" v="lake" />
	</node>
	<node lat="68.78646111088592" lon="17.35314998605086" id="-96883">
		<tag k="name" v="Løelva" />
		<tag k="ssr:stedsnr" v="717438" />
		<tag k="waterway" v="stream" />
	</node>
	<node lat="68.73224999704883" lon="17.298241651500366" id="-96884">
		<tag k="name" v="Kvernvika" />
		<tag k="natural" v="bay" />
		<tag k="ssr:stedsnr" v="717440" />
	</node>
	<node lat="68.7235861157123" lon="17.284674989915306" id="-96885">
		<tag k="fixme" v="consider natural=peak for the most distinct mountains in the district" />
		<tag k="name" v="Tuva" />
		<tag k="natural" v="hill" />
		<tag k="place" v="locality" />
		<tag k="ssr:stedsnr" v="717417" />
	</node>
	<node lat="68.72889444483971" lon="17.2803249903425" id="-96886">
		<tag k="name" v="Slettbakkan" />
		<tag k="natural" v="slope" />
		<tag k="place" v="locality" />
		<tag k="ssr:stedsnr" v="717421" />
	</node>
	<node lat="68.78821389207741" lon="17.35041112129302" id="-96887">
		<tag k="alt_name" v="Store Lauvdal;Lauvdal, store" />
		<tag k="name" v="Store Løvdal" />
		<tag k="old_name" v="Lauvdal" />
		<tag k="place" v="farm" />
		<tag k="ssr:stedsnr" v="717657" />
	</node>
	<node lat="68.67441944869555" lon="17.52110554518816" id="-96888">
		<tag k="name" v="Milstrupen" />
		<tag k="natural" v="wetland" />
		<tag k="ssr:stedsnr" v="718299" />
	</node>
	<node lat="68.6734333361569" lon="17.520944434713396" id="-96889">
		<tag k="name" v="Bjørnbåsen" />
		<tag k="natural" v="valley" />
		<tag k="place" v="locality" />
		<tag k="ssr:stedsnr" v="718301" />
	</node>
	<node lat="68.63646111101835" lon="17.771227781345726" id="-96890">
		<tag k="fixme" v="consider natural=peak for the most distinct mountains in the district" />
		<tag k="name" v="Jierrebákti" />
		<tag k="name:se" v="Jierrebákti" />
		<tag k="natural" v="hill" />
		<tag k="place" v="locality" />
		<tag k="ssr:stedsnr" v="718396" />
	</node>
	<node lat="68.69353055554748" lon="17.36700277819681" id="-96891">
		<tag k="name" v="Trollhågelva" />
		<tag k="ssr:stedsnr" v="718486" />
		<tag k="waterway" v="stream" />
	</node>
	<node lat="68.69303889129351" lon="17.409444454052935" id="-96892">
		<tag k="name" v="Svartdalen" />
		<tag k="natural" v="valley" />
		<tag k="place" v="locality" />
		<tag k="ssr:stedsnr" v="718487" />
	</node>
	<node lat="68.79418888971621" lon="17.398686107006796" id="-96893">
		<tag k="name" v="Belnesgrinda" />
		<tag k="natural" v="hill" />
		<tag k="place" v="locality" />
		<tag k="ssr:stedsnr" v="718269" />
	</node>
	<node lat="68.70643333178405" lon="17.51570555681864" id="-96894">
		<tag k="name" v="Tverrbakkan" />
		<tag k="natural" v="slope" />
		<tag k="place" v="locality" />
		<tag k="ssr:stedsnr" v="718353" />
	</node>
	<node lat="68.70260277469556" lon="17.554405546899773" id="-96895">
		<tag k="name" v="Hillestien" />
		<tag k="natural" v="slope" />
		<tag k="place" v="locality" />
		<tag k="ssr:stedsnr" v="718362" />
	</node>
	<node lat="68.69508889123608" lon="17.51506943876628" id="-96896">
		<tag k="name" v="Stien" />
		<tag k="natural" v="slope" />
		<tag k="place" v="locality" />
		<tag k="ssr:stedsnr" v="718364" />
	</node>
	<node lat="68.67646944454131" lon="17.41515555245775" id="-96897">
		<tag k="name" v="Dalemyra" />
		<tag k="natural" v="wetland" />
		<tag k="ssr:stedsnr" v="718442" />
	</node>
	<node lat="68.71790278158979" lon="17.496886110555973" id="-96898">
		<tag k="name" v="Engelstad" />
		<tag k="place" v="locality" />
		<tag k="ssr:stedsnr" v="718467" />
	</node>
	<node lat="68.77351667075187" lon="17.278525004222836" id="-96899">
		<tag k="fixme" v="consider place=hamlet" />
		<tag k="name" v="Myrlandshaugen" />
		<tag k="place" v="village" />
		<tag k="ssr:stedsnr" v="745951" />
	</node>
	<node lat="68.61946944408332" lon="17.662686098464658" id="-96900">
		<tag k="alt_name" v="Mellavasselva" />
		<tag k="name" v="Mellomvasselva" />
		<tag k="ssr:stedsnr" v="746505" />
		<tag k="waterway" v="river" />
	</node>
	<node lat="68.62307499909569" lon="17.674422228352686" id="-96901">
		<tag k="name" v="Mellomvasshaugen - Váráš" />
		<tag k="name:no" v="Mellomvasshaugen" />
		<tag k="name:se" v="Váráš" />
		<tag k="natural" v="hill" />
		<tag k="old_name:se" v="Varaš" />
		<tag k="place" v="locality" />
		<tag k="ssr:stedsnr" v="746506" />
	</node>
	<node lat="68.68753333538776" lon="17.27763054845577" id="-96906">
		<tag k="name" v="Foldvikvatnet" />
		<tag k="name:no" v="Foldvikvatnet" />
		<tag k="name:se" v="Girkojávri" />
		<tag k="natural" v="water" />
		<tag k="ssr:stedsnr" v="748979" />
		<tag k="water" v="lake" />
	</node>
	<node lat="68.7561638904969" lon="17.392919435558532" id="-96907">
		<tag k="fixme" v="consider natural=peak for the most distinct mountains in the district" />
		<tag k="name" v="Risen" />
		<tag k="natural" v="hill" />
		<tag k="place" v="locality" />
		<tag k="ssr:stedsnr" v="752231" />
	</node>
	<node lat="68.81377500077338" lon="17.418488889355903" id="-96908">
		<tag k="name" v="Selnes" />
		<tag k="place" v="hamlet" />
		<tag k="ssr:stedsnr" v="754181" />
	</node>
	<node lat="68.6776222253313" lon="17.682555564461957" id="-96912">
		<tag k="name" v="Grønnlia" />
		<tag k="natural" v="slope" />
		<tag k="place" v="locality" />
		<tag k="ssr:stedsnr" v="758670" />
	</node>
	<node lat="68.75495277490023" lon="17.254955550462657" id="-96913">
		<tag k="name" v="Nesseberget" />
		<tag k="natural" v="hill" />
		<tag k="place" v="locality" />
		<tag k="ssr:stedsnr" v="778373" />
	</node>
	<node lat="68.70653888931845" lon="17.346086108440968" id="-96914">
		<tag k="name" v="Rundvatnet" />
		<tag k="natural" v="water" />
		<tag k="ssr:stedsnr" v="778375" />
	</node>
	<node lat="68.73573889170066" lon="17.280430547833223" id="-96915">
		<tag k="name" v="Kalvegjerdspira" />
		<tag k="natural" v="hill" />
		<tag k="place" v="locality" />
		<tag k="ssr:stedsnr" v="778389" />
	</node>
	<node lat="68.72599722368398" lon="17.280152776461925" id="-96916">
		<tag k="fixme" v="consider natural=peak for the most distinct mountains in the district" />
		<tag k="name" v="Storlemman" />
		<tag k="natural" v="hill" />
		<tag k="place" v="locality" />
		<tag k="ssr:stedsnr" v="778395" />
	</node>
	<node lat="68.72420833711787" lon="17.20515276535579" id="-96917">
		<tag k="name" v="Skavlia" />
		<tag k="natural" v="slope" />
		<tag k="place" v="locality" />
		<tag k="ssr:stedsnr" v="778400" />
	</node>
	<node lat="68.65200000363231" lon="17.717722212615698" id="-96918">
		<tag k="highway" v="path" />
		<tag k="name" v="Hulderveien" />
		<tag k="ssr:stedsnr" v="779386" />
	</node>
	<node lat="68.67340555462575" lon="17.50846387842322" id="-96919">
		<tag k="name" v="Gråberget" />
		<tag k="natural" v="hill" />
		<tag k="place" v="locality" />
		<tag k="ssr:stedsnr" v="779446" />
	</node>
	<node lat="68.73726111426387" lon="17.45279165356142" id="-96920">
		<tag k="name" v="Olpålsaberget" />
		<tag k="natural" v="hill" />
		<tag k="place" v="locality" />
		<tag k="ssr:stedsnr" v="779268" />
	</node>
	<node lat="68.6740777792358" lon="17.58280833428687" id="-96921">
		<tag k="name" v="Lømyra" />
		<tag k="natural" v="wetland" />
		<tag k="ssr:stedsnr" v="779293" />
	</node>
	<node lat="68.65721666903659" lon="17.53771944943382" id="-96922">
		<tag k="name" v="Alkegammen" />
		<tag k="place" v="locality" />
		<tag k="ssr:stedsnr" v="779333" />
	</node>
	<node lat="68.68938055629825" lon="17.42488888477618" id="-96923">
		<tag k="name" v="Moa" />
		<tag k="place" v="locality" />
		<tag k="ssr:stedsnr" v="779482" />
	</node>
	<node lat="68.68980277537918" lon="17.421111120332444" id="-96924">
		<tag k="name" v="Holteberget" />
		<tag k="natural" v="hill" />
		<tag k="place" v="locality" />
		<tag k="ssr:stedsnr" v="779483" />
	</node>
	<node lat="68.68790833031188" lon="17.408594451045634" id="-96925">
		<tag k="name" v="Forsemyra" />
		<tag k="natural" v="wetland" />
		<tag k="ssr:stedsnr" v="779489" />
	</node>
	<node lat="68.75053611296129" lon="17.379613892255133" id="-96926">
		<tag k="name" v="Keipsletta" />
		<tag k="place" v="locality" />
		<tag k="ssr:stedsnr" v="779493" />
	</node>
	<node lat="68.67613333788353" lon="17.734538879965353" id="-96930">
		<tag k="name" v="Storslettskogen" />
		<tag k="place" v="locality" />
		<tag k="ssr:stedsnr" v="806614" />
	</node>
	<node lat="68.75829444645227" lon="17.287466664774737" id="-96932">
		<tag k="fixme" v="consider natural=peak for the most distinct mountains in the district" />
		<tag k="name" v="Veten" />
		<tag k="natural" v="hill" />
		<tag k="place" v="locality" />
		<tag k="ssr:stedsnr" v="806985" />
	</node>
	<node lat="68.63691111263307" lon="17.751883325427514" id="-96933">
		<tag k="name" v="Kvernmoelva" />
		<tag k="name:no" v="Kvernmoelva" />
		<tag k="name:se" v="Skáiddijohka" />
		<tag k="ssr:stedsnr" v="807517" />
		<tag k="waterway" v="stream" />
	</node>
	<node lat="68.74008888545605" lon="17.35851942879436" id="-96934">
		<tag k="alt_name" v="Finnvika" />
		<tag k="name" v="Finnevika" />
		<tag k="natural" v="bay" />
		<tag k="ssr:stedsnr" v="807916" />
	</node>
	<node lat="68.73836111138009" lon="17.339544446278012" id="-96935">
		<tag k="name" v="Småvika" />
		<tag k="natural" v="bay" />
		<tag k="ssr:stedsnr" v="807917" />
	</node>
	<node lat="68.69766944479402" lon="17.344836118906883" id="-96936">
		<tag k="name" v="Storsulvatnet" />
		<tag k="natural" v="water" />
		<tag k="ssr:stedsnr" v="809988" />
	</node>
	<node lat="68.71877500070308" lon="17.475341673803545" id="-96940">
		<tag k="loc_name:se" v="Skikta" />
		<tag k="name" v="Skifte" />
		<tag k="name:no" v="Skifte" />
		<tag k="place" v="hamlet" />
		<tag k="ssr:stedsnr" v="817751" />
	</node>
	<node lat="68.72810277466252" lon="17.37687498798208" id="-96942">
		<tag k="name" v="Silsand" />
		<tag k="natural" v="bay" />
		<tag k="ssr:stedsnr" v="818243" />
	</node>
	<node lat="68.67462778210566" lon="17.689052764974658" id="-96943">
		<tag k="name" v="Smålian" />
		<tag k="natural" v="slope" />
		<tag k="place" v="locality" />
		<tag k="ssr:stedsnr" v="819655" />
	</node>
	<node lat="68.76982222643551" lon="17.293577767469483" id="-96944">
		<tag k="fixme" v="consider natural=peak for the most distinct mountains in the district" />
		<tag k="name" v="Litjefløya" />
		<tag k="natural" v="hill" />
		<tag k="place" v="locality" />
		<tag k="ssr:stedsnr" v="840416" />
	</node>
	<node lat="68.74185833080125" lon="17.45928332516698" id="-96945">
		<tag k="name" v="Ramnfløybergan" />
		<tag k="natural" v="hill" />
		<tag k="place" v="locality" />
		<tag k="ssr:stedsnr" v="840262" />
	</node>
	<node lat="68.688861107973" lon="17.657997226339788" id="-96946">
		<tag k="name" v="Fjordbotnlian" />
		<tag k="natural" v="slope" />
		<tag k="place" v="locality" />
		<tag k="ssr:stedsnr" v="840341" />
	</node>
	<node lat="68.68283888791348" lon="17.59800276587728" id="-96947">
		<tag k="name" v="Ingerholla" />
		<tag k="natural" v="valley" />
		<tag k="place" v="locality" />
		<tag k="ssr:stedsnr" v="840343" />
	</node>
	<node lat="68.67293610856838" lon="17.695824992949458" id="-96948">
		<tag k="fixme" v="consider place=hamlet" />
		<tag k="loc_name:se" v="Vuotnavahta" />
		<tag k="name" v="Fjordbotn" />
		<tag k="name:no" v="Fjordbotn" />
		<tag k="place" v="village" />
		<tag k="ssr:stedsnr" v="840358" />
	</node>
	<node lat="68.63868333300027" lon="17.726275006838595" id="-96949">
		<tag k="fixme" v="consider place=hamlet" />
		<tag k="loc_name:no" v="Kvernmoen" />
		<tag k="loc_name:se" v="Skáidi" />
		<tag k="name" v="Kvernmo" />
		<tag k="name:no" v="Kvernmo" />
		<tag k="place" v="village" />
		<tag k="ssr:stedsnr" v="840371" />
	</node>
	<node lat="68.72075833026767" lon="17.388691668016037" id="-96950">
		<tag k="name" v="Langmyra" />
		<tag k="natural" v="wetland" />
		<tag k="ssr:stedsnr" v="840436" />
	</node>
	<node lat="68.7169027750762" lon="17.480694433531173" id="-96951">
		<tag k="name" v="Stinabergan" />
		<tag k="natural" v="hill" />
		<tag k="place" v="locality" />
		<tag k="ssr:stedsnr" v="840446" />
	</node>
	<node lat="68.69741111137212" lon="17.35707500974856" id="-96952">
		<tag k="name" v="Trollhågen" />
		<tag k="natural" v="hill" />
		<tag k="place" v="locality" />
		<tag k="ssr:stedsnr" v="840456" />
	</node>
	<node lat="68.69983333693166" lon="17.426172212879735" id="-96953">
		<tag k="name" v="Hellarn" />
		<tag k="natural" v="hill" />
		<tag k="place" v="locality" />
		<tag k="ssr:stedsnr" v="840459" />
	</node>
	<node lat="68.69918055407769" lon="17.40906944847558" id="-96954">
		<tag k="fixme" v="consider natural=peak for the most distinct mountains in the district" />
		<tag k="name" v="Brekka" />
		<tag k="natural" v="hill" />
		<tag k="place" v="locality" />
		<tag k="ssr:stedsnr" v="840461" />
	</node>
	<node lat="68.70097777947238" lon="17.40645000699023" id="-96955">
		<tag k="name" v="Slettebakken" />
		<tag k="natural" v="slope" />
		<tag k="place" v="locality" />
		<tag k="ssr:stedsnr" v="840462" />
	</node>
	<node lat="68.70064444771563" lon="17.419766674504103" id="-96956">
		<tag k="name" v="Brekkebakken" />
		<tag k="natural" v="slope" />
		<tag k="place" v="locality" />
		<tag k="ssr:stedsnr" v="840463" />
	</node>
	<node lat="68.64383610845034" lon="17.488138875945623" id="-96957">
		<tag k="name" v="Botnelva" />
		<tag k="ssr:stedsnr" v="840422" />
		<tag k="waterway" v="stream" />
	</node>
	<node lat="68.72149722232899" lon="17.376888885978143" id="-96958">
		<tag k="name" v="Nersteskaret" />
		<tag k="natural" v="valley" />
		<tag k="place" v="locality" />
		<tag k="ssr:stedsnr" v="840424" />
	</node>
	<node lat="68.72576944643161" lon="17.396741677720186" id="-96959">
		<tag k="name" v="Vikhøghågen" />
		<tag k="natural" v="hill" />
		<tag k="place" v="locality" />
		<tag k="ssr:stedsnr" v="840501" />
	</node>
	<node lat="68.68577222016967" lon="17.397758329149898" id="-96960">
		<tag k="name" v="Skårmyra" />
		<tag k="natural" v="wetland" />
		<tag k="ssr:stedsnr" v="840472" />
	</node>
	<node lat="68.62552222276597" lon="17.767372229482998" id="-96961">
		<tag k="name" v="Storhaugen" />
		<tag k="natural" v="hill" />
		<tag k="place" v="locality" />
		<tag k="ssr:stedsnr" v="867202" />
	</node>
	<node lat="68.64206974041187" lon="17.72960136568105" id="-96962">
		<tag k="name" v="Nyheim" />
		<tag k="place" v="farm" />
		<tag k="ssr:stedsnr" v="867535" />
	</node>
	<node lat="68.64997777420433" lon="17.686338881052386" id="-96963">
		<tag k="name" v="Langmyra" />
		<tag k="natural" v="wetland" />
		<tag k="ssr:stedsnr" v="867538" />
	</node>
	<node lat="68.63938055230062" lon="17.636172220157224" id="-96964">
		<tag k="name" v="Gregusvatnet" />
		<tag k="natural" v="water" />
		<tag k="ssr:stedsnr" v="867542" />
	</node>
	<node lat="68.61871388935062" lon="17.68596666718453" id="-96965">
		<tag k="alt_name" v="Bergeelva" />
		<tag k="name" v="Bergelva" />
		<tag k="ssr:stedsnr" v="867523" />
		<tag k="waterway" v="stream" />
	</node>
	<node lat="68.69036666315976" lon="17.731836109733347" id="-96966">
		<tag k="name" v="Sletteidet" />
		<tag k="place" v="locality" />
		<tag k="ssr:stedsnr" v="867580" />
	</node>
	<node lat="68.70614444711143" lon="17.496905546929597" id="-96967">
		<tag k="name" v="Oksevadelva" />
		<tag k="ssr:stedsnr" v="867606" />
		<tag k="waterway" v="stream" />
	</node>
	<node lat="68.67493333482145" lon="17.75145556498451" id="-96968">
		<tag k="name" v="Finneslettelva" />
		<tag k="ssr:stedsnr" v="867618" />
		<tag k="waterway" v="stream" />
	</node>
	<node lat="68.67651111409413" lon="17.54141389851756" id="-96969">
		<tag k="name" v="Tortenelva" />
		<tag k="ssr:stedsnr" v="867625" />
		<tag k="waterway" v="stream" />
	</node>
	<node lat="68.66425658937564" lon="17.687496867748862" id="-96970">
		<tag k="fixme" v="consider place=hamlet" />
		<tag k="name" v="Osvoll" />
		<tag k="place" v="farm" />
		<tag k="ssr:stedsnr" v="867629" />
	</node>
	<node lat="68.63196140660867" lon="17.563545603802602" id="-96972">
		<tag k="name" v="Beritsletta" />
		<tag k="place" v="locality" />
		<tag k="ssr:stedsnr" v="868500" />
	</node>
	<node lat="68.72666111314206" lon="17.325638891569405" id="-96973">
		<tag k="name" v="Perbuneset" />
		<tag k="natural" v="cape" />
		<tag k="ssr:stedsnr" v="868890" />
	</node>
	<node lat="68.70251111475868" lon="17.303527781385146" id="-96975">
		<tag k="fixme" v="consider natural=peak for the most distinct mountains in the district" />
		<tag k="name" v="Rundfjellet" />
		<tag k="natural" v="hill" />
		<tag k="place" v="locality" />
		<tag k="ssr:stedsnr" v="869957" />
	</node>
	<node lat="68.74829444855948" lon="17.301602772106676" id="-96982">
		<tag k="name" v="Grøsneslia" />
		<tag k="natural" v="slope" />
		<tag k="place" v="locality" />
		<tag k="ssr:stedsnr" v="879887" />
	</node>
	<node lat="68.66902077970377" lon="17.65861332345773" id="-96984">
		<tag k="alt_name" v="Elvenes" />
		<tag k="fixme" v="consider place=hamlet" />
		<tag k="name" v="Elveneset" />
		<tag k="place" v="farm" />
		<tag k="ssr:stedsnr" v="940414" />
	</node>
	<node lat="68.73211110986689" lon="17.464313892233907" id="-96985">
		<tag k="name" v="Strandhagen" />
		<tag k="natural" v="beach" />
		<tag k="ssr:stedsnr" v="940793" />
	</node>
	<node lat="68.76137499852042" lon="17.274566653473954" id="-96986">
		<tag k="name" v="Bonhågen" />
		<tag k="natural" v="hill" />
		<tag k="place" v="locality" />
		<tag k="ssr:stedsnr" v="960380" />
	</node>
	<node lat="68.76233055428052" lon="17.292211107889898" id="-96987">
		<tag k="name" v="Ørnholla" />
		<tag k="natural" v="valley" />
		<tag k="place" v="locality" />
		<tag k="ssr:stedsnr" v="960396" />
	</node>
	<node lat="68.72864722607575" lon="17.236877769775344" id="-96988">
		<tag k="name" v="Lofteteigan" />
		<tag k="natural" v="slope" />
		<tag k="place" v="locality" />
		<tag k="ssr:stedsnr" v="960400" />
	</node>
	<node lat="68.77692500277996" lon="17.293913899160938" id="-96989">
		<tag k="name" v="Holtebergan" />
		<tag k="natural" v="hill" />
		<tag k="place" v="locality" />
		<tag k="ssr:stedsnr" v="960420" />
	</node>
	<node lat="68.7322083357649" lon="17.464472214909037" id="-96990">
		<tag k="name" v="Strandhågen" />
		<tag k="natural" v="hill" />
		<tag k="place" v="locality" />
		<tag k="ssr:stedsnr" v="961265" />
	</node>
	<node lat="68.7906583307139" lon="17.393819430240324" id="-96991">
		<tag k="name" v="Durmålsskaret" />
		<tag k="natural" v="valley" />
		<tag k="place" v="locality" />
		<tag k="ssr:stedsnr" v="961280" />
	</node>
	<node lat="68.69300277828471" lon="17.54229999522665" id="-96992">
		<tag k="name" v="Gårdselva" />
		<tag k="ssr:stedsnr" v="961351" />
		<tag k="waterway" v="stream" />
	</node>
	<node lat="68.66538333426796" lon="17.747991652551544" id="-96993">
		<tag k="alt_name:no" v="Fjordbotnmark" />
		<tag k="fixme" v="consider place=hamlet" />
		<tag k="loc_name:se" v="Skuhppi" />
		<tag k="name" v="Fjordbotnmarka" />
		<tag k="name:no" v="Fjordbotnmarka" />
		<tag k="place" v="village" />
		<tag k="ssr:stedsnr" v="961358" />
	</node>
	<node lat="68.64657222453953" lon="17.733588887376154" id="-96994">
		<tag k="name" v="Steinhaugen" />
		<tag k="natural" v="hill" />
		<tag k="place" v="locality" />
		<tag k="ssr:stedsnr" v="961362" />
	</node>
	<node lat="68.62992222650911" lon="17.70185277501001" id="-96995">
		<tag k="name" v="Váráš" />
		<tag k="name:se" v="Váráš" />
		<tag k="natural" v="hill" />
		<tag k="place" v="locality" />
		<tag k="ssr:stedsnr" v="961363" />
	</node>
	<node lat="68.67146944357381" lon="17.73761667379059" id="-96996">
		<tag k="barrier" v="fence" />
		<tag k="name" v="Torvegjerdet" />
		<tag k="ssr:stedsnr" v="961371" />
	</node>
	<node lat="68.70423333486279" lon="17.47995277081824" id="-96997">
		<tag k="name" v="Sandmelen" />
		<tag k="natural" v="slope" />
		<tag k="place" v="locality" />
		<tag k="ssr:stedsnr" v="961464" />
	</node>
	<node lat="68.69818551628809" lon="17.426574357695255" id="-96998">
		<tag k="name" v="Sletten" />
		<tag k="place" v="farm" />
		<tag k="ssr:stedsnr" v="961477" />
	</node>
	<node lat="68.68097777661586" lon="17.45179722685551" id="-96999">
		<tag k="name" v="Oselva" />
		<tag k="ssr:stedsnr" v="961483" />
		<tag k="waterway" v="stream" />
	</node>
	<node lat="68.62277746614221" lon="17.65073741501119" id="-97000">
		<tag k="name" v="Øse hyttegrend" />
		<tag k="place" v="neighbourhood" />
		<tag k="ssr:stedsnr" v="975754" />
	</node>
	<node lat="68.6804137392348" lon="17.463681670873214" id="-97001">
		<tag k="name" v="Hellarbogen industriområde" />
		<tag k="place" v="quarter" />
		<tag k="ssr:stedsnr" v="975755" />
	</node>
	<node lat="68.68359346059141" lon="17.552235542728777" id="-97002">
		<tag k="fixme" v="consider place=hamlet" />
		<tag k="name" v="Straumsnes" />
		<tag k="name:no" v="Straumsnes" />
		<tag k="name:se" v="Strávvenjárga" />
		<tag k="place" v="farm" />
		<tag k="ssr:stedsnr" v="989678" />
	</node>
	<node lat="68.68893362275034" lon="17.419154158290702" id="-97003">
		<tag k="fixme" v="consider place=hamlet" />
		<tag k="name" v="Foldvika" />
		<tag k="name:no" v="Foldvika" />
		<tag k="name:se" v="Huvlaviika" />
		<tag k="place" v="farm" />
		<tag k="ssr:stedsnr" v="989679" />
	</node>
	<node lat="68.72101631131403" lon="17.4109371084832" id="-97004">
		<tag k="fixme" v="consider place=hamlet" />
		<tag k="name" v="Tjuvskjær" />
		<tag k="name:no" v="Tjuvskjær" />
		<tag k="name:se" v="Čuvvá" />
		<tag k="place" v="farm" />
		<tag k="ssr:stedsnr" v="989680" />
	</node>
	<node lat="68.63490092329864" lon="17.70824149814337" id="-97057">
		<tag k="name" v="Bjørkmo" />
		<tag k="place" v="locality" />
		<tag k="ssr:stedsnr" v="1077250" />
	</node>
	<node lat="68.66408697609636" lon="17.68947806676821" id="-97058">
		<tag k="alt_name" v="Brandmoen" />
		<tag k="name" v="Brannmoen" />
		<tag k="place" v="farm" />
		<tag k="ssr:stedsnr" v="1077251" />
	</node>
	<node lat="68.64059466040148" lon="17.55348641199499" id="-97059">
		<tag k="fixme" v="consider place=hamlet" />
		<tag k="name" v="Nedre Dalen" />
		<tag k="place" v="farm" />
		<tag k="ssr:stedsnr" v="1077252" />
	</node>
	<node lat="68.63958445790324" lon="17.558177597831854" id="-97060">
		<tag k="fixme" v="consider place=hamlet" />
		<tag k="name" v="Øvre Dalen" />
		<tag k="place" v="farm" />
		<tag k="ssr:stedsnr" v="1077253" />
	</node>
	<node lat="68.69290521839204" lon="17.253708305609997" id="-97061">
		<tag k="name" v="Keipen" />
		<tag k="place" v="locality" />
		<tag k="ssr:stedsnr" v="1077254" />
	</node>
</osm>
