<?xml version="1.0" encoding="UTF-8"?>
<osm generator="osmapis" version="0.6">
	<node id="-856319" lat="68.6690222239" lon="17.7965388772">
		<tag k="name" v="Perniamyra" />
		<tag k="natural" v="wetland" />
		<tag k="ssr:stedsnr" v="685606" />
	</node>
	<node id="-856702" lat="68.675708337" lon="17.6882694525">
		<tag k="name" v="Fjelloran" />
		<tag k="natural" v="scree" />
		<tag k="ssr:stedsnr" v="597372" />
	</node>
	<node id="-856827" lat="68.6384254307" lon="17.5469601734">
		<tag k="name" v="Gálavuomjeaggi" />
		<tag k="name:se" v="Gálavuomjeaggi" />
		<tag k="natural" v="wetland" />
		<tag k="ssr:stedsnr" v="988988" />
	</node>
	<node id="-856184" lat="68.7108861132" lon="17.4900027703">
		<tag k="name" v="Hestemyra" />
		<tag k="natural" v="wetland" />
		<tag k="ssr:stedsnr" v="475457" />
	</node>
	<node id="-856084" lat="68.7244250035" lon="17.3601749876">
		<tag k="name" v="Skjelloran" />
		<tag k="natural" v="scree" />
		<tag k="ssr:stedsnr" v="172520" />
	</node>
	<node id="-856694" lat="68.7133027775" lon="17.4838500034">
		<tag k="name" v="Kumyra" />
		<tag k="natural" v="wetland" />
		<tag k="ssr:stedsnr" v="596425" />
	</node>
	<node id="-856180" lat="68.6765444449" lon="17.4287999979">
		<tag k="name" v="Dudalsholtet" />
		<tag k="place" v="locality" />
		<tag k="ssr:stedsnr" v="475434" />
	</node>
	<node id="-856435" lat="68.7128555534" lon="17.4787861144">
		<tag k="name" v="Erikmyra" />
		<tag k="natural" v="wetland" />
		<tag k="ssr:stedsnr" v="51496" />
	</node>
	<node id="-856049" lat="68.6615499987" lon="17.6812222145">
		<tag k="name" v="Revstrengmyra" />
		<tag k="natural" v="wetland" />
		<tag k="ssr:stedsnr" v="233387" />
	</node>
	<node id="-856813" lat="68.6739527813" lon="17.5892777765">
		<tag k="name" v="Sennamyra" />
		<tag k="natural" v="wetland" />
		<tag k="ssr:stedsnr" v="961293" />
	</node>
	<node id="-856812" lat="68.6717472243" lon="17.6229500102">
		<tag k="name" v="Grimjordskogen" />
		<tag k="place" v="locality" />
		<tag k="ssr:stedsnr" v="961289" />
	</node>
	<node id="-856041" lat="68.7457916651" lon="17.3864277686">
		<tag k="name" v="Garnsteinen" />
		<tag k="natural" v="stone" />
		<tag k="ssr:stedsnr" v="232432" />
	</node>
	<node id="-856039" lat="68.6822944438" lon="17.438969453">
		<tag k="name" v="Dudalsholtan" />
		<tag k="place" v="locality" />
		<tag k="ssr:stedsnr" v="232428" />
	</node>
	<node id="-856037" lat="68.6884805591" lon="17.402933336">
		<tag k="name" v="Stormyra" />
		<tag k="natural" v="wetland" />
		<tag k="ssr:stedsnr" v="232421" />
	</node>
	<node id="-856291" lat="68.6764694445" lon="17.4151555525">
		<tag k="name" v="Dalemyra" />
		<tag k="natural" v="wetland" />
		<tag k="ssr:stedsnr" v="718442" />
	</node>
	<node id="-856162" lat="68.7304805552" lon="17.2796694383">
		<tag k="name" v="Stormyra" />
		<tag k="natural" v="wetland" />
		<tag k="ssr:stedsnr" v="474428" />
	</node>
	<node id="-856699" lat="68.8058527762" lon="17.4058222112">
		<tag k="name" v="Møllelvfeltet" />
		<tag k="place" v="locality" />
		<tag k="ssr:stedsnr" v="597290" />
	</node>
	<node id="-856288" lat="68.6744194487" lon="17.5211055452">
		<tag k="name" v="Milstrupen" />
		<tag k="natural" v="wetland" />
		<tag k="ssr:stedsnr" v="718299" />
	</node>
	<node id="-856080" lat="68.6937416656" lon="17.5987527636">
		<tag k="landuse" v="meadow" />
		<tag k="name" v="Reite" />
		<tag k="ssr:stedsnr" v="149712" />
	</node>
	<node id="-856165" lat="68.7308361138" lon="17.478511102">
		<tag k="name" v="Vedsteinen" />
		<tag k="natural" v="stone" />
		<tag k="ssr:stedsnr" v="475255" />
	</node>
	<node id="-856421" lat="68.6950500024" lon="17.5624027704">
		<tag k="alt_name" v="Esekel" />
		<tag k="name" v="Esekiel" />
		<tag k="place" v="locality" />
		<tag k="ssr:stedsnr" v="30633" />
	</node>
	<node id="-856790" lat="68.6499777742" lon="17.6863388811">
		<tag k="name" v="Langmyra" />
		<tag k="natural" v="wetland" />
		<tag k="ssr:stedsnr" v="867538" />
	</node>
	<node id="-856782" lat="68.6857722202" lon="17.3977583291">
		<tag k="name" v="Skårmyra" />
		<tag k="natural" v="wetland" />
		<tag k="ssr:stedsnr" v="840472" />
	</node>
	<node id="-856784" lat="68.7207583303" lon="17.388691668">
		<tag k="name" v="Langmyra" />
		<tag k="natural" v="wetland" />
		<tag k="ssr:stedsnr" v="840436" />
	</node>
	<node id="-856654" lat="68.730969447" lon="17.2587361218">
		<tag k="name" v="Revsteinen" />
		<tag k="natural" v="stone" />
		<tag k="ssr:stedsnr" v="535405" />
	</node>
	<node id="-856524" lat="68.8017388907" lon="17.3958055633">
		<tag k="name" v="Pikhelleren" />
		<tag k="natural" v="stone" />
		<tag k="ssr:stedsnr" v="172293" />
	</node>
	<node id="-856647" lat="68.6785805599" lon="17.4031527789">
		<tag k="name" v="Storskogen" />
		<tag k="place" v="locality" />
		<tag k="ssr:stedsnr" v="415464" />
	</node>
	<node id="-856646" lat="68.6425750042" lon="17.7087722092">
		<tag k="name" v="Bjørnarmyra" />
		<tag k="natural" v="wetland" />
		<tag k="ssr:stedsnr" v="415401" />
	</node>
	<node id="-856517" lat="68.7524999959" lon="17.2832583338">
		<tag k="name" v="Øra" />
		<tag k="natural" v="scree" />
		<tag k="ssr:stedsnr" v="171388" />
	</node>
	<node id="-856388" lat="68.7129083338" lon="17.4923777843">
		<tag k="name" v="Rundmyra" />
		<tag k="natural" v="wetland" />
		<tag k="ssr:stedsnr" v="900455" />
	</node>
	<node id="-856054" lat="68.6495250045" lon="17.5400499935">
		<tag k="name" v="Klemmeselvskogen" />
		<tag k="place" v="locality" />
		<tag k="ssr:stedsnr" v="51372" />
	</node>
	<node id="-856641" lat="68.6701722255" lon="17.5218583423">
		<tag k="name" v="Stendemyra" />
		<tag k="natural" v="wetland" />
		<tag k="ssr:stedsnr" v="415314" />
	</node>
	<node id="-856759" lat="68.6761333379" lon="17.73453888">
		<tag k="name" v="Storslettskogen" />
		<tag k="place" v="locality" />
		<tag k="ssr:stedsnr" v="806614" />
	</node>
	<node id="-856630" lat="68.8135777748" lon="17.425488894">
		<tag k="name" v="Ryet" />
		<tag k="place" v="locality" />
		<tag k="ssr:stedsnr" v="413798" />
	</node>
	<node id="-856754" lat="68.6879083303" lon="17.408594451">
		<tag k="name" v="Forsemyra" />
		<tag k="natural" v="wetland" />
		<tag k="ssr:stedsnr" v="779489" />
	</node>
	<node id="-856363" lat="68.6370916669" lon="17.7558222132">
		<tag k="alt_name" v="Kvitmyren" />
		<tag k="name" v="Kvitmyra" />
		<tag k="natural" v="wetland" />
		<tag k="ssr:stedsnr" v="928484" />
	</node>
	<node id="-856743" lat="68.6740777792" lon="17.5828083343">
		<tag k="name" v="Lømyra" />
		<tag k="natural" v="wetland" />
		<tag k="ssr:stedsnr" v="779293" />
	</node>
	<node id="-856357" lat="68.6719000011" lon="17.5155194518">
		<tag k="name" v="Tjønnemyra" />
		<tag k="natural" v="wetland" />
		<tag k="ssr:stedsnr" v="806603" />
	</node>
	<node id="-856484" lat="68.6283472249" lon="17.7032388927">
		<tag k="name" v="Varasmyra" />
		<tag k="natural" v="wetland" />
		<tag k="ssr:stedsnr" v="112387" />
	</node>
	<node id="-856481" lat="68.7417305517" lon="17.3682860986">
		<tag k="name" v="Måsholtet" />
		<tag k="place" v="locality" />
		<tag k="ssr:stedsnr" v="111470" />
	</node>
	<node id="-856679" lat="68.7598833358" lon="17.4596555561">
		<tag k="name" v="Ystelimyran" />
		<tag k="natural" v="wetland" />
		<tag k="ssr:stedsnr" v="563774" />
	</node>
	<node id="-856606" lat="68.6709972262" lon="17.7791555608">
		<tag k="name" v="Finneslettskogen" />
		<tag k="place" v="locality" />
		<tag k="ssr:stedsnr" v="354372" />
	</node>
	<node id="-856477" lat="68.7048749983" lon="17.4960722194">
		<tag k="name" v="Høgholtet" />
		<tag k="place" v="locality" />
		<tag k="ssr:stedsnr" v="111435" />
	</node>
	<node id="-856602" lat="68.793483331" lon="17.3697083269">
		<tag k="name" v="Metøa" />
		<tag k="place" v="locality" />
		<tag k="ssr:stedsnr" v="354293" />
	</node>
	<node id="-856473" lat="68.6793444474" lon="17.4200527828">
		<tag k="name" v="Middagsmyra" />
		<tag k="natural" v="wetland" />
		<tag k="ssr:stedsnr" v="111407" />
	</node>
	<node id="-856644" lat="68.7039861141" lon="17.5197500082">
		<tag k="name" v="Bleikmyra" />
		<tag k="natural" v="wetland" />
		<tag k="ssr:stedsnr" v="415369" />
	</node>
	<node id="-856596" lat="68.7296444425" lon="17.2905583204">
		<tag k="name" v="Stilleholtan" />
		<tag k="place" v="locality" />
		<tag k="ssr:stedsnr" v="353416" />
	</node>
	<node id="-856592" lat="68.7732888907" lon="17.2688499979">
		<tag k="name" v="Kalvegjerdet" />
		<tag k="place" v="locality" />
		<tag k="ssr:stedsnr" v="332893" />
	</node>
	<node id="-856045" lat="68.6680666636" lon="17.5239888788">
		<tag k="name" v="Lyshøgdmyra" />
		<tag k="natural" v="wetland" />
		<tag k="ssr:stedsnr" v="233321" />
	</node>
	<node id="-856471" lat="68.7328249972" lon="17.288958339">
		<tag k="name" v="Holtan" />
		<tag k="place" v="locality" />
		<tag k="ssr:stedsnr" v="111390" />
	</node>
	<node id="-856172" lat="68.6628361113" lon="17.6366194542">
		<tag k="name" v="Hågskogen" />
		<tag k="place" v="locality" />
		<tag k="ssr:stedsnr" v="475294" />
	</node>
	<node id="-856068" lat="68.6694805583" lon="17.533811108">
		<tag k="name" v="Stormyra" />
		<tag k="natural" v="wetland" />
		<tag k="ssr:stedsnr" v="112330" />
	</node>
	<node id="-856707" lat="68.6633833367" lon="17.7620111148">
		<tag k="name" v="Fjordbotnmarka - Skuhppi" />
		<tag k="name:no" v="Fjordbotnmarka" />
		<tag k="name:se" v="Skuhppi" />
		<tag k="old_name:se" v="Skuppi" />
		<tag k="place" v="locality" />
		<tag k="ssr:stedsnr" v="624588" />
	</node>
	<node id="-856450" lat="68.6751666684" lon="17.4834388993">
		<tag k="name" v="Sortebekkmyra" />
		<tag k="natural" v="wetland" />
		<tag k="ssr:stedsnr" v="78600" />
	</node>
</osm>
