<?xml version="1.0" encoding="UTF-8"?>
<osm version="0.6" generator="osmapis">
	<node lat="68.73270278014267" lon="17.296013882994586" id="-54648">
		<tag k="name" v="Holtan" />
		<tag k="natural" v="cape" />
		<tag k="ssr:stedsnr" v="18894" />
	</node>
	<node lat="68.6827250006293" lon="17.600752785428426" id="-54656">
		<tag k="name" v="Storhammaren" />
		<tag k="natural" v="cape" />
		<tag k="ssr:stedsnr" v="272537" />
	</node>
	<node lat="68.73564166263591" lon="17.26027222901312" id="-54658">
		<tag k="name" v="Dallevika" />
		<tag k="natural" v="bay" />
		<tag k="ssr:stedsnr" v="50381" />
	</node>
	<node lat="68.68265555690591" lon="17.46660833997071" id="-54676">
		<tag k="name" v="Hellarbugrunnen" />
		<tag k="natural" v="shoal" />
		<tag k="place" v="locality" />
		<tag k="ssr:stedsnr" v="90129" />
	</node>
	<node lat="68.70054721972315" lon="17.477938882569838" id="-54677">
		<tag k="name" v="Bonden" />
		<tag k="place" v="locality" />
		<tag k="seamark:type" v="rock" />
		<tag k="ssr:stedsnr" v="90766" />
	</node>
	<node lat="68.73078333142611" lon="17.296608331522602" id="-54681">
		<tag k="name" v="Laksevika" />
		<tag k="natural" v="bay" />
		<tag k="ssr:stedsnr" v="111404" />
	</node>
	<node lat="68.76014722064401" lon="17.327972216533983" id="-54695">
		<tag k="loc_name:no" v="Hornhalvøya" />
		<tag k="name" v="Čoarvenjárga" />
		<tag k="name:se" v="Čoarvenjárga" />
		<tag k="natural" v="cape" />
		<tag k="ssr:stedsnr" v="141616" />
	</node>
	<node lat="68.81968333571186" lon="17.462091664848792" id="-54704">
		<tag k="name" v="Svarthammaren" />
		<tag k="natural" v="cape" />
		<tag k="ssr:stedsnr" v="260724" />
	</node>
	<node lat="68.72742500322148" lon="17.36768333820423" id="-54726">
		<tag k="name" v="Gotåsneset" />
		<tag k="natural" v="cape" />
		<tag k="ssr:stedsnr" v="261886" />
	</node>
	<node lat="68.68392500062417" lon="17.4464027834605" id="-54729">
		<tag k="name" v="Foldvika" />
		<tag k="natural" v="bay" />
		<tag k="ssr:stedsnr" v="199572" />
	</node>
	<node lat="68.79793610841429" lon="17.590547220981033" id="-54731">
		<tag k="bay" v="fjord" />
		<tag k="name" v="Loabákvuotna - Lavangen" />
		<tag k="name:no" v="Lavangen" />
		<tag k="name:se" v="Loabákvuotna" />
		<tag k="natural" v="bay" />
		<tag k="ssr:stedsnr" v="200691" />
	</node>
	<node lat="68.80860277484099" lon="17.398605549541603" id="-54754">
		<tag k="name" v="Kobbgrunnen" />
		<tag k="natural" v="shoal" />
		<tag k="place" v="locality" />
		<tag k="ssr:stedsnr" v="454973" />
	</node>
	<node lat="68.89702777911363" lon="17.57659721844176" id="-54759">
		<tag k="bay" v="fjord" />
		<tag k="name" v="Salangen - Siellakvuotna" />
		<tag k="name:no" v="Salangen" />
		<tag k="name:se" v="Siellakvuotna" />
		<tag k="natural" v="bay" />
		<tag k="ssr:stedsnr" v="260857" />
	</node>
	<node lat="68.7351111129933" lon="17.263577766226707" id="-54760">
		<tag k="name" v="Hamnneset" />
		<tag k="natural" v="cape" />
		<tag k="ssr:stedsnr" v="260950" />
	</node>
	<node lat="68.7396805591916" lon="17.316019449161516" id="-54761">
		<tag k="name" v="Langneset" />
		<tag k="natural" v="cape" />
		<tag k="ssr:stedsnr" v="272874" />
	</node>
	<node lat="68.68498866974078" lon="17.546755947034793" id="-54762">
		<tag k="name" v="Straumsflua" />
		<tag k="natural" v="shoal" />
		<tag k="place" v="locality" />
		<tag k="ssr:stedsnr" v="273676" />
	</node>
	<node lat="68.74237222423825" lon="17.31461666693724" id="-54777">
		<tag k="name" v="Lavika" />
		<tag k="natural" v="bay" />
		<tag k="ssr:stedsnr" v="353418" />
	</node>
	<node lat="68.72543888947017" lon="17.411138885123872" id="-54800">
		<tag k="fixme" v="consider seamark:type=rock or natural=shoal" />
		<tag k="name" v="Vedmerra" />
		<tag k="place" v="islet" />
		<tag k="ssr:stedsnr" v="393232" />
	</node>
	<node lat="68.77553611287154" lon="17.28257499594993" id="-54801">
		<tag k="alt_name" v="Masivika" />
		<tag k="name" v="Madsvika" />
		<tag k="natural" v="bay" />
		<tag k="ssr:stedsnr" v="393901" />
	</node>
	<node lat="68.6735638934347" lon="17.652011102503174" id="-54806">
		<tag k="name" v="Hågvika" />
		<tag k="natural" v="bay" />
		<tag k="ssr:stedsnr" v="415301" />
	</node>
	<node lat="68.81847777359057" lon="17.45111389586224" id="-54813">
		<tag k="name" v="Kvitsteinsvika" />
		<tag k="natural" v="bay" />
		<tag k="ssr:stedsnr" v="442707" />
	</node>
	<node lat="68.7352194428361" lon="17.28559444660517" id="-54820">
		<tag k="name" v="Innersjøen" />
		<tag k="natural" v="bay" />
		<tag k="ssr:stedsnr" v="474421" />
	</node>
	<node lat="68.69204166488494" lon="17.450955549892118" id="-54835">
		<tag k="fixme" v="consider seamark:type=rock or natural=shoal" />
		<tag k="name" v="Skjæret" />
		<tag k="place" v="islet" />
		<tag k="ssr:stedsnr" v="503532" />
	</node>
	<node lat="68.72856388463474" lon="17.39706667374601" id="-54842">
		<tag k="name" v="Håkjerringneset" />
		<tag k="natural" v="cape" />
		<tag k="ssr:stedsnr" v="503872" />
	</node>
	<node lat="68.6783388843187" lon="17.531411112519006" id="-54845">
		<tag k="name" v="Tverrlandet" />
		<tag k="natural" v="beach" />
		<tag k="ssr:stedsnr" v="514705" />
	</node>
	<node lat="68.81567232317033" lon="17.41948895905698" id="-54846">
		<tag k="fixme" v="multiple name tags, choose one and add the other to alt_name" />
		<tag k="name" v="Selnes;Neset" />
		<tag k="natural" v="cape" />
		<tag k="ssr:stedsnr" v="685187" />
	</node>
	<node lat="68.68955277954333" lon="17.448372210380043" id="-54851">
		<tag k="name" v="Litjeøya" />
		<tag k="place" v="islet" />
		<tag k="ssr:stedsnr" v="685567" />
	</node>
	<node lat="68.7528833355466" lon="17.27006110436657" id="-54857">
		<tag k="name" v="Klemnes" />
		<tag k="natural" v="cape" />
		<tag k="ssr:stedsnr" v="535386" />
	</node>
	<node lat="68.6861527758818" lon="17.547222215875276" id="-54864">
		<tag k="name" v="Straumen" />
		<tag k="natural" v="strait" />
		<tag k="ssr:stedsnr" v="695652" />
	</node>
	<node lat="68.7545507801379" lon="17.259527134931847" id="-54865">
		<tag k="name" v="Grøsnes" />
		<tag k="natural" v="cape" />
		<tag k="ssr:stedsnr" v="566275" />
	</node>
	<node lat="68.71613889159832" lon="17.469047224736986" id="-54868">
		<tag k="name" v="Skifteneset" />
		<tag k="natural" v="cape" />
		<tag k="ssr:stedsnr" v="575754" />
	</node>
	<node lat="68.73930833150253" lon="17.353366660589113" id="-54869">
		<tag k="name" v="Finnvikneset" />
		<tag k="natural" v="cape" />
		<tag k="ssr:stedsnr" v="696898" />
	</node>
	<node lat="68.7783305588285" lon="17.240555557289948" id="-54870">
		<tag k="name" v="Salangsgrunnen" />
		<tag k="natural" v="shoal" />
		<tag k="place" v="locality" />
		<tag k="ssr:stedsnr" v="697402" />
	</node>
	<node lat="68.74610833738933" lon="17.390813885995925" id="-54871">
		<tag k="name" v="Åmundsberget" />
		<tag k="natural" v="cape" />
		<tag k="ssr:stedsnr" v="697862" />
	</node>
	<node lat="68.76221944675497" lon="17.25363889340866" id="-54881">
		<tag k="alt_name" v="Høyneset" />
		<tag k="name" v="Høgneset" />
		<tag k="natural" v="cape" />
		<tag k="ssr:stedsnr" v="624992" />
	</node>
	<node lat="68.72210555696151" lon="17.4227111156306" id="-54884">
		<tag k="fixme" v="consider seamark:type=rock or natural=shoal" />
		<tag k="name" v="Tjuvskjæret - Čuvváskearru" />
		<tag k="name:no" v="Tjuvskjæret" />
		<tag k="name:se" v="Čuvváskearru" />
		<tag k="place" v="islet" />
		<tag k="ssr:stedsnr" v="635684" />
	</node>
	<node lat="68.75632777857443" lon="17.254055554417025" id="-54886">
		<tag k="name" v="Jøvika" />
		<tag k="natural" v="bay" />
		<tag k="ssr:stedsnr" v="656383" />
	</node>
	<node lat="68.77794722083011" lon="17.30063054324971" id="-54913">
		<tag k="name" v="Holtebukta" />
		<tag k="natural" v="bay" />
		<tag k="ssr:stedsnr" v="900424" />
	</node>
	<node lat="68.75339166564127" lon="17.265586097284455" id="-54916">
		<tag k="name" v="Grøsnesvika" />
		<tag k="natural" v="bay" />
		<tag k="ssr:stedsnr" v="900389" />
	</node>
	<node lat="68.68154444473362" lon="17.461480560970735" id="-54924">
		<tag k="name" v="Hellarbogen" />
		<tag k="natural" v="bay" />
		<tag k="ssr:stedsnr" v="900480" />
	</node>
	<node lat="68.72708055563623" lon="17.21797500908429" id="-54931">
		<tag k="name" v="Djuphola" />
		<tag k="natural" v="bay" />
		<tag k="ssr:stedsnr" v="748969" />
	</node>
	<node lat="68.69238888872243" lon="17.550252763816218" id="-54935">
		<tag k="name" v="Bjørnvika" />
		<tag k="natural" v="bay" />
		<tag k="ssr:stedsnr" v="758651" />
	</node>
	<node lat="68.67975833628222" lon="17.536158338029164" id="-54937">
		<tag k="name" v="Molvika" />
		<tag k="natural" v="bay" />
		<tag k="ssr:stedsnr" v="779351" />
	</node>
	<node lat="68.69103333198089" lon="17.5299361020825" id="-54938">
		<tag k="name" v="Vika" />
		<tag k="natural" v="bay" />
		<tag k="ssr:stedsnr" v="779362" />
	</node>
	<node lat="68.69280555783821" lon="17.519524988679553" id="-54939">
		<tag k="name" v="Kirkenes" />
		<tag k="natural" v="cape" />
		<tag k="ssr:stedsnr" v="779364" />
	</node>
	<node lat="68.78703611026184" lon="17.33752499366724" id="-54947">
		<tag k="name" v="Rotnes" />
		<tag k="natural" v="cape" />
		<tag k="ssr:stedsnr" v="839425" />
	</node>
	<node lat="68.68521666932209" lon="17.453372231314816" id="-54958">
		<tag k="name" v="Storøya - Huvlanjárga" />
		<tag k="name:no" v="Storøya" />
		<tag k="name:se" v="Huvlanjárga" />
		<tag k="natural" v="cape" />
		<tag k="ssr:stedsnr" v="928546" />
	</node>
	<node lat="68.73169444771489" lon="17.369741671589715" id="-54961">
		<tag k="bay" v="fjord" />
		<tag k="name" v="Gratangen - Rivtták" />
		<tag k="name:no" v="Gratangen" />
		<tag k="name:se" v="Rivtták" />
		<tag k="natural" v="bay" />
		<tag k="ssr:stedsnr" v="928911" />
	</node>
	<node lat="68.72998055327679" lon="17.233738880530023" id="-54962">
		<tag k="name" v="Skjærvika" />
		<tag k="natural" v="bay" />
		<tag k="ssr:stedsnr" v="928913" />
	</node>
	<node lat="68.8159333292234" lon="17.4238111055164" id="-54969">
		<tag k="name" v="Båtholla" />
		<tag k="natural" v="bay" />
		<tag k="ssr:stedsnr" v="899811" />
	</node>
	<node lat="68.78914999725588" lon="17.348280541315948" id="-54980">
		<tag k="name" v="Lønes" />
		<tag k="natural" v="cape" />
		<tag k="ssr:stedsnr" v="959629" />
	</node>
	<node lat="68.74070555122766" lon="17.36323334170396" id="-54989">
		<tag k="name" v="Aspeneset" />
		<tag k="natural" v="cape" />
		<tag k="ssr:stedsnr" v="961499" />
	</node>
	<node lat="68.80482499975632" lon="17.39283888511434" id="-55001">
		<tag k="alt_name" v="Belnes" />
		<tag k="name" v="Belnesodden" />
		<tag k="natural" v="cape" />
		<tag k="ssr:stedsnr" v="17231" />
	</node>
	<node lat="68.74015000362286" lon="17.280758329876637" id="-55016">
		<tag k="bay" v="fjord" />
		<tag k="name" v="Rivttáganjálbmi" />
		<tag k="name:se" v="Rivttáganjálbmi" />
		<tag k="natural" v="bay" />
		<tag k="ssr:stedsnr" v="26349" />
	</node>
	<node lat="68.7298972189783" lon="17.30620554768005" id="-55019">
		<tag k="name" v="Skarvbergbakken" />
		<tag k="natural" v="shoal" />
		<tag k="place" v="locality" />
		<tag k="ssr:stedsnr" v="29160" />
	</node>
	<node lat="68.72512777953867" lon="17.4699444448274" id="-55021">
		<tag k="name" v="Vika" />
		<tag k="natural" v="bay" />
		<tag k="ssr:stedsnr" v="51289" />
	</node>
	<node lat="68.67836389176863" lon="17.649519453938588" id="-55039">
		<tag k="name" v="Gratangsbotn" />
		<tag k="natural" v="bay" />
		<tag k="ssr:stedsnr" v="78564" />
	</node>
	<node lat="68.6950222226549" lon="17.506294434120164" id="-55048">
		<tag k="name" v="Olavika" />
		<tag k="natural" v="bay" />
		<tag k="ssr:stedsnr" v="88725" />
	</node>
	<node lat="68.72204167017003" lon="17.46982500326892" id="-55051">
		<tag k="name" v="Ingerholla" />
		<tag k="natural" v="bay" />
		<tag k="ssr:stedsnr" v="111434" />
	</node>
	<node lat="68.69427500469037" lon="17.45189998769149" id="-55075">
		<tag k="name" v="Foldvikgrunnen" />
		<tag k="natural" v="shoal" />
		<tag k="place" v="locality" />
		<tag k="ssr:stedsnr" v="150138" />
	</node>
	<node lat="68.74365000176716" lon="17.422925001431082" id="-55076">
		<tag k="alt_name" v="Lillevika" />
		<tag k="name" v="Litlevika" />
		<tag k="natural" v="bay" />
		<tag k="ssr:stedsnr" v="150831" />
	</node>
	<node lat="68.7934055534201" lon="17.358494434275553" id="-55077">
		<tag k="name" v="Leirvika" />
		<tag k="natural" v="bay" />
		<tag k="ssr:stedsnr" v="272963" />
	</node>
	<node lat="68.72499999570852" lon="17.41173333543249" id="-55095">
		<tag k="name" v="Vednesvika" />
		<tag k="natural" v="bay" />
		<tag k="ssr:stedsnr" v="172526" />
	</node>
	<node lat="68.72643611570172" lon="17.40724166500951" id="-55097">
		<tag k="name" v="Mellavika" />
		<tag k="natural" v="bay" />
		<tag k="ssr:stedsnr" v="172531" />
	</node>
	<node lat="68.69657499708856" lon="17.498375007982087" id="-55118">
		<tag k="name" v="Olderneset" />
		<tag k="natural" v="cape" />
		<tag k="ssr:stedsnr" v="210760" />
	</node>
	<node lat="68.73683055932979" lon="17.278638887739554" id="-55120">
		<tag k="name" v="Marsteinen" />
		<tag k="place" v="locality" />
		<tag k="seamark:type" v="rock" />
		<tag k="ssr:stedsnr" v="212162" />
	</node>
	<node lat="68.69308889114802" lon="17.596774993982393" id="-55121">
		<tag k="name" v="Reiteneset" />
		<tag k="natural" v="cape" />
		<tag k="ssr:stedsnr" v="273629" />
	</node>
	<node lat="68.69290000074534" lon="17.55201387763363" id="-55122">
		<tag k="name" v="Ørneset" />
		<tag k="natural" v="cape" />
		<tag k="ssr:stedsnr" v="289822" />
	</node>
	<node lat="68.68903332999008" lon="17.62455833734888" id="-55159">
		<tag k="fixme" v="multiple name tags, choose one and add the other to alt_name" />
		<tag k="name" v="Årsteinleira;Pollen" />
		<tag k="natural" v="bay" />
		<tag k="ssr:stedsnr" v="331765" />
	</node>
	<node lat="68.69215833748147" lon="17.428325000203735" id="-55160">
		<tag k="alt_name" v="Nesset" />
		<tag k="name" v="Neset" />
		<tag k="natural" v="cape" />
		<tag k="ssr:stedsnr" v="333176" />
	</node>
	<node lat="68.72907777625068" lon="17.295294438951483" id="-55161">
		<tag k="name" v="Stillevika" />
		<tag k="natural" v="bay" />
		<tag k="ssr:stedsnr" v="333181" />
	</node>
	<node lat="68.74228055171506" lon="17.246158328833104" id="-55189">
		<tag k="name" v="Hamnnesgrunnan" />
		<tag k="natural" v="cape" />
		<tag k="ssr:stedsnr" v="393480" />
	</node>
	<node lat="68.72840277425539" lon="17.392624985708743" id="-55207">
		<tag k="name" v="Skjettneset" />
		<tag k="natural" v="cape" />
		<tag k="ssr:stedsnr" v="415532" />
	</node>
	<node lat="68.72493055485516" lon="17.33929722703962" id="-55216">
		<tag k="alt_name:no" v="Åmundvika" />
		<tag k="name" v="Åmundsvika - Ommaluokta" />
		<tag k="name:no" v="Åmundsvika" />
		<tag k="name:se" v="Ommaluokta" />
		<tag k="natural" v="bay" />
		<tag k="ssr:stedsnr" v="444967" />
	</node>
	<node lat="68.68142777832017" lon="17.472088876156736" id="-55222">
		<tag k="fixme" v="consider seamark:type=rock or natural=shoal" />
		<tag k="name" v="Foldvikøya" />
		<tag k="place" v="islet" />
		<tag k="ssr:stedsnr" v="503539" />
	</node>
	<node lat="68.71045277604031" lon="17.431647220548946" id="-55224">
		<tag k="alt_name" v="Øyra" />
		<tag k="name" v="Nautnesøyra" />
		<tag k="natural" v="cape" />
		<tag k="ssr:stedsnr" v="503549" />
	</node>
	<node lat="68.7349333329297" lon="17.282633321269035" id="-55229">
		<tag k="name" v="Teistebergodden" />
		<tag k="natural" v="cape" />
		<tag k="ssr:stedsnr" v="503875" />
	</node>
	<node lat="68.69592499834533" lon="17.505266671176866" id="-55241">
		<tag k="name" v="Stigbergan" />
		<tag k="natural" v="cape" />
		<tag k="ssr:stedsnr" v="515796" />
	</node>
	<node lat="68.78363888672443" lon="17.308527771374454" id="-55242">
		<tag k="name" v="Holmegrunnen" />
		<tag k="natural" v="shoal" />
		<tag k="place" v="locality" />
		<tag k="ssr:stedsnr" v="515969" />
	</node>
	<node lat="68.68445902487275" lon="17.548639258665464" id="-55265">
		<tag k="name" v="Straumsnes" />
		<tag k="natural" v="cape" />
		<tag k="ssr:stedsnr" v="563551" />
	</node>
	<node lat="68.68581111313277" lon="17.584938899111066" id="-55267">
		<tag k="alt_name" v="Sandnes" />
		<tag k="name" v="Sandneset" />
		<tag k="natural" v="cape" />
		<tag k="ssr:stedsnr" v="563562" />
	</node>
	<node lat="68.67131343506203" lon="17.6580699372844" id="-55269">
		<tag k="alt_name" v="Elvenes" />
		<tag k="name" v="Elveneset" />
		<tag k="natural" v="cape" />
		<tag k="ssr:stedsnr" v="563607" />
	</node>
	<node lat="68.78755000457254" lon="17.24449721852488" id="-55272">
		<tag k="bay" v="fjord" />
		<tag k="loc_name:se" v="Ásttavierda" />
		<tag k="name" v="Astafjorden" />
		<tag k="name:no" v="Astafjorden" />
		<tag k="natural" v="bay" />
		<tag k="ssr:stedsnr" v="563969" />
	</node>
	<node lat="68.69486666692869" lon="17.24467498617389" id="-55275">
		<tag k="name" v="Skávhlenjárga" />
		<tag k="name:se" v="Skávhlenjárga" />
		<tag k="natural" v="cape" />
		<tag k="ssr:stedsnr" v="567239" />
	</node>
	<node lat="68.70761944784286" lon="17.478997224531366" id="-55286">
		<tag k="name" v="Svavika" />
		<tag k="natural" v="bay" />
		<tag k="ssr:stedsnr" v="624587" />
	</node>
	<node lat="68.72802777801705" lon="17.303202773875615" id="-55291">
		<tag k="name" v="Skarvbergvika" />
		<tag k="natural" v="bay" />
		<tag k="ssr:stedsnr" v="624909" />
	</node>
	<node lat="68.81179444799783" lon="17.41514999097448" id="-55298">
		<tag k="fixme" v="multiple name tags, choose one and add the other to alt_name" />
		<tag k="name" v="Selnesvika;Vika" />
		<tag k="natural" v="bay" />
		<tag k="ssr:stedsnr" v="636970" />
	</node>
	<node lat="68.73730278019401" lon="17.32049444739294" id="-55302">
		<tag k="name" v="Keila" />
		<tag k="natural" v="bay" />
		<tag k="ssr:stedsnr" v="656418" />
	</node>
	<node lat="68.67878332900347" lon="17.5107194514906" id="-55310">
		<tag k="name" v="Pålfinnholla" />
		<tag k="natural" v="bay" />
		<tag k="ssr:stedsnr" v="657446" />
	</node>
	<node lat="68.73224999704883" lon="17.298241651500366" id="-55321">
		<tag k="name" v="Kvernvika" />
		<tag k="natural" v="bay" />
		<tag k="ssr:stedsnr" v="717440" />
	</node>
	<node lat="68.74008888545605" lon="17.35851942879436" id="-55371">
		<tag k="alt_name" v="Finnvika" />
		<tag k="name" v="Finnevika" />
		<tag k="natural" v="bay" />
		<tag k="ssr:stedsnr" v="807916" />
	</node>
	<node lat="68.73836111138009" lon="17.339544446278012" id="-55372">
		<tag k="name" v="Småvika" />
		<tag k="natural" v="bay" />
		<tag k="ssr:stedsnr" v="807917" />
	</node>
	<node lat="68.72810277466252" lon="17.37687498798208" id="-55379">
		<tag k="name" v="Silsand" />
		<tag k="natural" v="bay" />
		<tag k="ssr:stedsnr" v="818243" />
	</node>
	<node lat="68.78364166730219" lon="17.318836115523343" id="-55408">
		<tag k="name" v="Løvdalsholmen" />
		<tag k="place" v="islet" />
		<tag k="ssr:stedsnr" v="867959" />
	</node>
	<node lat="68.72666111314206" lon="17.325638891569405" id="-55410">
		<tag k="name" v="Perbuneset" />
		<tag k="natural" v="cape" />
		<tag k="ssr:stedsnr" v="868890" />
	</node>
	<node lat="68.77977500381459" lon="17.316152789570136" id="-55414">
		<tag k="name" v="Løvdalsstranda" />
		<tag k="natural" v="beach" />
		<tag k="ssr:stedsnr" v="870278" />
	</node>
	<node lat="68.68546666691485" lon="17.564658320183074" id="-55415">
		<tag k="name" v="Straumsnesvika" />
		<tag k="natural" v="bay" />
		<tag k="old_name" v="Ingerhola" />
		<tag k="ssr:stedsnr" v="877665" />
	</node>
</osm>
