<?xml version="1.0" encoding="UTF-8"?>
<osm version="0.6" generator="osmapis">
	<node lat="68.76127777400538" lon="17.299824994133296" id="-61025">
		<tag k="name" v="Finnheimen" />
		<tag k="place" v="locality" />
		<tag k="ssr:stedsnr" v="232362" />
	</node>
	<node lat="68.6952556598337" lon="17.424558056242194" id="-61031">
		<tag k="name" v="Lia" />
		<tag k="place" v="farm" />
		<tag k="ssr:stedsnr" v="232426" />
	</node>
	<node lat="68.79966239531743" lon="17.388122329887906" id="-61040">
		<tag k="fixme" v="consider place=hamlet" />
		<tag k="name" v="Belnes" />
		<tag k="place" v="farm" />
		<tag k="ssr:stedsnr" v="25181" />
	</node>
	<node lat="68.69272019677386" lon="17.42515504007593" id="-61052">
		<tag k="alt_name:no" v="Foldvik" />
		<tag k="fixme" v="consider place=hamlet" />
		<tag k="loc_name:se" v="Huvlaviika" />
		<tag k="name" v="Foldvika" />
		<tag k="name:no" v="Foldvika" />
		<tag k="place" v="village" />
		<tag k="ssr:stedsnr" v="78551" />
	</node>
	<node lat="68.7458499958253" lon="17.302186115895275" id="-61055">
		<tag k="name" v="Forråsen" />
		<tag k="place" v="farm" />
		<tag k="ssr:stedsnr" v="78908" />
	</node>
	<node lat="68.69699166627119" lon="17.425724995325147" id="-61060">
		<tag k="name" v="Foldvik" />
		<tag k="place" v="farm" />
		<tag k="ssr:stedsnr" v="89715" />
	</node>
	<node lat="68.69566666674451" lon="17.42475555536246" id="-61061">
		<tag k="name" v="Foldvik" />
		<tag k="place" v="farm" />
		<tag k="ssr:stedsnr" v="89716" />
	</node>
	<node lat="68.62144999709807" lon="17.65064444253448" id="-61075">
		<tag k="name" v="Øse" />
		<tag k="place" v="farm" />
		<tag k="ssr:stedsnr" v="138507" />
	</node>
	<node lat="68.73953610865756" lon="17.32223332094881" id="-61082">
		<tag k="name" v="Lille Grøsnes" />
		<tag k="place" v="farm" />
		<tag k="ssr:stedsnr" v="147637" />
	</node>
	<node lat="68.72158590078854" lon="17.47698049015149" id="-61083">
		<tag k="name" v="Ytter-Skifte" />
		<tag k="place" v="farm" />
		<tag k="ssr:stedsnr" v="149544" />
	</node>
	<node lat="68.6406544539944" lon="17.552519572963618" id="-61089">
		<tag k="name" v="Labergsdalen" />
		<tag k="place" v="locality" />
		<tag k="ssr:stedsnr" v="260544" />
	</node>
	<node lat="68.78414249204933" lon="17.332572423315664" id="-61093">
		<tag k="alt_name" v="Litle Lauvdal;Lauvdal, l" />
		<tag k="name" v="Lille Løvdal" />
		<tag k="place" v="farm" />
		<tag k="ssr:stedsnr" v="260977" />
	</node>
	<node lat="68.62819167100685" lon="17.631338880732308" id="-61110">
		<tag k="fixme" v="consider place=hamlet" />
		<tag k="name" v="Vassøse" />
		<tag k="place" v="village" />
		<tag k="ssr:stedsnr" v="261517" />
	</node>
	<node lat="68.680227777231" lon="17.61553612084629" id="-61116">
		<tag k="name" v="Haugen" />
		<tag k="place" v="farm" />
		<tag k="ssr:stedsnr" v="199573" />
	</node>
	<node lat="68.70132778134005" lon="17.485408341098623" id="-61123">
		<tag k="name" v="Åkenes" />
		<tag k="place" v="farm" />
		<tag k="ssr:stedsnr" v="270533" />
	</node>
	<node lat="68.67773611506146" lon="17.49630834203159" id="-61124">
		<tag k="name" v="Sortebekk" />
		<tag k="place" v="farm" />
		<tag k="ssr:stedsnr" v="270538" />
	</node>
	<node lat="68.6980083311378" lon="17.34790833716083" id="-61127">
		<tag k="name" v="Foldvik" />
		<tag k="place" v="farm" />
		<tag k="ssr:stedsnr" v="271763" />
	</node>
	<node lat="68.70044722008393" lon="17.486074995145316" id="-61136">
		<tag k="name" v="Åkenes" />
		<tag k="place" v="farm" />
		<tag k="ssr:stedsnr" v="452542" />
	</node>
	<node lat="68.68432772496978" lon="17.551215936779936" id="-61137">
		<tag k="name" v="Straumsnes" />
		<tag k="place" v="farm" />
		<tag k="ssr:stedsnr" v="452548" />
	</node>
	<node lat="68.69808611412466" lon="17.34655278483646" id="-61138">
		<tag k="name" v="Foldvik" />
		<tag k="place" v="farm" />
		<tag k="ssr:stedsnr" v="453734" />
	</node>
	<node lat="68.68988333224816" lon="17.42520833632772" id="-61139">
		<tag k="name" v="Foldvik" />
		<tag k="place" v="farm" />
		<tag k="ssr:stedsnr" v="453735" />
	</node>
	<node lat="68.71241388766865" lon="17.425116671180106" id="-61144">
		<tag k="name" v="Brattberg" />
		<tag k="place" v="isolated_dwelling" />
		<tag k="ssr:stedsnr" v="260599" />
	</node>
	<node lat="68.64711163729119" lon="17.718804140498456" id="-61156">
		<tag k="name" v="Fjelldal" />
		<tag k="place" v="farm" />
		<tag k="ssr:stedsnr" v="321485" />
	</node>
	<node lat="68.67648610822451" lon="17.507580558106003" id="-61159">
		<tag k="name" v="Laberget" />
		<tag k="place" v="farm" />
		<tag k="ssr:stedsnr" v="331626" />
	</node>
	<node lat="68.67764721807096" lon="17.43002777538045" id="-61177">
		<tag k="name" v="Rikmannsheimen" />
		<tag k="place" v="locality" />
		<tag k="ssr:stedsnr" v="475433" />
	</node>
	<node lat="68.7873254848399" lon="17.351155364000835" id="-61202">
		<tag k="alt_name" v="Lauvdal" />
		<tag k="name" v="Løvdal" />
		<tag k="place" v="hamlet" />
		<tag k="ssr:stedsnr" v="446179" />
	</node>
	<node lat="68.64549113828403" lon="17.735526544616288" id="-61225">
		<tag k="fixme" v="consider place=hamlet" />
		<tag k="loc_name:no" v="Holtåsen" />
		<tag k="name" v="Holtås - Reaidduorda" />
		<tag k="name:no" v="Holtås" />
		<tag k="name:se" v="Reaidduorda" />
		<tag k="place" v="farm" />
		<tag k="ssr:stedsnr" v="503483" />
	</node>
	<node lat="68.67635555097854" lon="17.496297224242895" id="-61230">
		<tag k="name" v="Sortebekk" />
		<tag k="place" v="farm" />
		<tag k="ssr:stedsnr" v="513575" />
	</node>
	<node lat="68.67780418014391" lon="17.493066489690186" id="-61236">
		<tag k="alt_name" v="Svartebekken" />
		<tag k="fixme" v="consider place=hamlet" />
		<tag k="name" v="Sortebekken" />
		<tag k="place" v="farm" />
		<tag k="ssr:stedsnr" v="685564" />
	</node>
	<node lat="68.7467984930775" lon="17.41637723063257" id="-61241">
		<tag k="alt_name" v="Lavik" />
		<tag k="fixme" v="consider place=hamlet" />
		<tag k="name" v="Lavika" />
		<tag k="place" v="farm" />
		<tag k="ssr:stedsnr" v="685917" />
	</node>
	<node lat="68.68073617148644" lon="17.607684306910098" id="-61249">
		<tag k="fixme" v="consider place=hamlet" />
		<tag k="name" v="Hågen" />
		<tag k="place" v="farm" />
		<tag k="ssr:stedsnr" v="695645" />
	</node>
	<node lat="68.69878889075379" lon="17.426852781171036" id="-61253">
		<tag k="name" v="Foldvik" />
		<tag k="place" v="farm" />
		<tag k="ssr:stedsnr" v="574745" />
	</node>
	<node lat="68.6759555550194" lon="17.50717222812208" id="-61264">
		<tag k="alt_name:no" v="Laberg" />
		<tag k="fixme" v="consider place=hamlet" />
		<tag k="loc_name:se" v="Gálla" />
		<tag k="name" v="Laberget" />
		<tag k="name:no" v="Laberget" />
		<tag k="place" v="village" />
		<tag k="ssr:stedsnr" v="624604" />
	</node>
	<node lat="68.66857500046987" lon="17.668255556867585" id="-61265">
		<tag k="fixme" v="consider place=hamlet" />
		<tag k="loc_name:se" v="Rivttákbahta" />
		<tag k="name" v="Gratangsbotn" />
		<tag k="name:no" v="Gratangsbotn" />
		<tag k="place" v="village" />
		<tag k="ssr:stedsnr" v="624607" />
	</node>
	<node lat="68.69348889245543" lon="17.427711115164307" id="-61268">
		<tag k="name" v="Foldvik" />
		<tag k="place" v="farm" />
		<tag k="ssr:stedsnr" v="635676" />
	</node>
	<node lat="68.68927500408715" lon="17.425219446111562" id="-61269">
		<tag k="name" v="Foldvik" />
		<tag k="place" v="farm" />
		<tag k="ssr:stedsnr" v="635680" />
	</node>
	<node lat="68.67782111143649" lon="17.624655922126085" id="-61276">
		<tag k="alt_name" v="Grimjord" />
		<tag k="fixme" v="consider place=hamlet" />
		<tag k="name" v="Grimjorda" />
		<tag k="place" v="farm" />
		<tag k="ssr:stedsnr" v="657295" />
	</node>
	<node lat="68.73320833183939" lon="17.270238884557433" id="-61282">
		<tag k="fixme" v="consider place=hamlet" />
		<tag k="loc_name:se" v="Hilsá" />
		<tag k="name" v="Hilleshamn" />
		<tag k="name:no" v="Hilleshamn" />
		<tag k="place" v="village" />
		<tag k="ssr:stedsnr" v="685910" />
	</node>
	<node lat="68.74285555449838" lon="17.437972221826552" id="-61286">
		<tag k="name" v="Lavik" />
		<tag k="place" v="farm" />
		<tag k="ssr:stedsnr" v="695549" />
	</node>
	<node lat="68.80319166612252" lon="17.39209443430114" id="-61290">
		<tag k="name" v="Elvevoll" />
		<tag k="place" v="farm" />
		<tag k="ssr:stedsnr" v="718283" />
	</node>
	<node lat="68.78950833532456" lon="17.356075004813924" id="-61295">
		<tag k="name" v="Bjerkmo" />
		<tag k="place" v="farm" />
		<tag k="ssr:stedsnr" v="899662" />
	</node>
	<node lat="68.66935833574749" lon="17.680627778845604" id="-61298">
		<tag k="amenity" v="sports_centre" />
		<tag k="name" v="Tennevoll" />
		<tag k="ssr:stedsnr" v="900371" />
	</node>
	<node lat="68.6717083913434" lon="17.64546904547052" id="-61316">
		<tag k="fixme" v="consider place=hamlet" />
		<tag k="name" v="Elveneshågen" />
		<tag k="place" v="farm" />
		<tag k="ssr:stedsnr" v="745614" />
	</node>
	<node lat="68.69994166472573" lon="17.491905541926375" id="-61319">
		<tag k="name" v="Åkenes" />
		<tag k="place" v="farm" />
		<tag k="ssr:stedsnr" v="756557" />
	</node>
	<node lat="68.67723055289592" lon="17.492550006219805" id="-61330">
		<tag k="name" v="Sortebekk" />
		<tag k="place" v="farm" />
		<tag k="ssr:stedsnr" v="817532" />
	</node>
	<node lat="68.68429722674864" lon="17.550327768398308" id="-61335">
		<tag k="fixme" v="consider place=hamlet" />
		<tag k="loc_name:se" v="Strávvenjárga" />
		<tag k="name" v="Straumsnes" />
		<tag k="name:no" v="Straumsnes" />
		<tag k="place" v="village" />
		<tag k="ssr:stedsnr" v="840337" />
	</node>
	<node lat="68.67417500276729" lon="17.51212500546255" id="-61345">
		<tag k="name" v="Frydenlund" />
		<tag k="place" v="farm" />
		<tag k="ssr:stedsnr" v="928580" />
	</node>
	<node lat="68.74496110888221" lon="17.42913611448692" id="-61346">
		<tag k="name" v="Lavika" />
		<tag k="place" v="farm" />
		<tag k="ssr:stedsnr" v="928907" />
	</node>
	<node lat="68.72016382088552" lon="17.477622308687433" id="-61350">
		<tag k="name" v="Ytter-Skifte" />
		<tag k="place" v="farm" />
		<tag k="ssr:stedsnr" v="867935" />
	</node>
	<node lat="68.67965278024158" lon="17.484213881890316" id="-61353">
		<tag k="name" v="Sortebekk" />
		<tag k="place" v="farm" />
		<tag k="ssr:stedsnr" v="877555" />
	</node>
	<node lat="68.70090443951973" lon="17.48109162547214" id="-61361">
		<tag k="alt_name" v="Åkeneset" />
		<tag k="fixme" v="consider place=hamlet" />
		<tag k="name" v="Åkenes" />
		<tag k="place" v="farm" />
		<tag k="ssr:stedsnr" v="928557" />
	</node>
	<node lat="68.70680249765753" lon="17.43174434579449" id="-61362">
		<tag k="name" v="Stegan" />
		<tag k="place" v="isolated_dwelling" />
		<tag k="ssr:stedsnr" v="928560" />
	</node>
	<node lat="68.74564946497169" lon="17.41267545260776" id="-61363">
		<tag k="name" v="Lavik" />
		<tag k="place" v="farm" />
		<tag k="ssr:stedsnr" v="938526" />
	</node>
	<node lat="68.69839153347444" lon="17.42542408196702" id="-61364">
		<tag k="name" v="Foldvik" />
		<tag k="place" v="farm" />
		<tag k="ssr:stedsnr" v="939703" />
	</node>
	<node lat="68.81443079765863" lon="17.421683554755106" id="-61365">
		<tag k="fixme" v="consider place=hamlet" />
		<tag k="name" v="Selnes" />
		<tag k="place" v="farm" />
		<tag k="ssr:stedsnr" v="939999" />
	</node>
	<node lat="68.67550529800441" lon="17.50876556050663" id="-61376">
		<tag k="fixme" v="consider place=hamlet" />
		<tag k="name" v="Laberget - Gálla" />
		<tag k="name:no" v="Laberget" />
		<tag k="name:se" v="Gálla" />
		<tag k="place" v="farm" />
		<tag k="ssr:stedsnr" v="988987" />
	</node>
	<node lat="68.73312820851316" lon="17.273286567358788" id="-61379">
		<tag k="fixme" v="consider place=hamlet" />
		<tag k="name" v="Hilleshamn - Hilsá" />
		<tag k="name:no" v="Hilleshamn" />
		<tag k="name:se" v="Hilsá" />
		<tag k="place" v="farm" />
		<tag k="ssr:stedsnr" v="989683" />
	</node>
	<node lat="68.69017180011917" lon="17.541430145145025" id="-61380">
		<tag k="fixme" v="multiple name tags, choose one and add the other to alt_name; consider place=hamlet" />
		<tag k="name" v="Årstein - Árjogeargi;Orrageargi" />
		<tag k="name:no" v="Årstein" />
		<tag k="name:se" v="Árjogeargi;Orrageargi" />
		<tag k="place" v="farm" />
		<tag k="ssr:stedsnr" v="989684" />
	</node>
	<node lat="68.71912703174063" lon="17.478193086137548" id="-61381">
		<tag k="name" v="Skifte - Skikta" />
		<tag k="name:no" v="Skifte" />
		<tag k="name:se" v="Skikta" />
		<tag k="place" v="hamlet" />
		<tag k="ssr:stedsnr" v="989685" />
	</node>
	<node lat="68.72966237564937" lon="17.472604331533162" id="-61382">
		<tag k="fixme" v="consider place=hamlet" />
		<tag k="name" v="Hesjeberg - Hássobákti" />
		<tag k="name:no" v="Hesjeberg" />
		<tag k="name:se" v="Hássobákti" />
		<tag k="place" v="farm" />
		<tag k="ssr:stedsnr" v="989686" />
	</node>
	<node lat="68.75637341663001" lon="17.26181269833119" id="-61383">
		<tag k="loc_name:se" v="Rivttáknášši" />
		<tag k="name" v="Grøsnes" />
		<tag k="name:no" v="Grøsnes" />
		<tag k="place" v="hamlet" />
		<tag k="ssr:stedsnr" v="989687" />
	</node>
	<node lat="68.74140516288475" lon="17.323787493403973" id="-61384">
		<tag k="fixme" v="consider place=hamlet" />
		<tag k="name" v="Lille Grøsnes - Unna Rivttáknáššáš" />
		<tag k="name:no" v="Lille Grøsnes" />
		<tag k="name:se" v="Unna Rivttáknáššáš" />
		<tag k="place" v="farm" />
		<tag k="ssr:stedsnr" v="989688" />
	</node>
	<node lat="68.7553325030317" lon="17.261559509279728" id="-61385">
		<tag k="fixme" v="consider place=hamlet" />
		<tag k="name" v="Store Grøsnes - Stuora Rivttáknášši" />
		<tag k="name:no" v="Store Grøsnes" />
		<tag k="name:se" v="Stuora Rivttáknášši" />
		<tag k="place" v="farm" />
		<tag k="ssr:stedsnr" v="989689" />
	</node>
	<node lat="68.63694321572366" lon="17.7292708350121" id="-61387">
		<tag k="fixme" v="consider place=hamlet" />
		<tag k="name" v="Kvernmoen" />
		<tag k="place" v="farm" />
		<tag k="ssr:stedsnr" v="989691" />
	</node>
	<node lat="68.67811843193458" lon="17.627094517474816" id="-61393">
		<tag k="name" v="Grimjorda" />
		<tag k="place" v="farm" />
		<tag k="ssr:stedsnr" v="18535" />
	</node>
	<node lat="68.67445974365309" lon="17.532899152803175" id="-61398">
		<tag k="name" v="Milmarka" />
		<tag k="place" v="locality" />
		<tag k="ssr:stedsnr" v="18578" />
	</node>
	<node lat="68.72978333675402" lon="17.470105563937825" id="-61401">
		<tag k="loc_name:se" v="Hássobákti" />
		<tag k="name" v="Hesjeberg" />
		<tag k="name:no" v="Hesjeberg" />
		<tag k="place" v="hamlet" />
		<tag k="ssr:stedsnr" v="18916" />
	</node>
	<node lat="68.7454227703979" lon="17.415981184886665" id="-61404">
		<tag k="name" v="Lavik" />
		<tag k="place" v="farm" />
		<tag k="ssr:stedsnr" v="28560" />
	</node>
	<node lat="68.69374721824634" lon="17.425622216391005" id="-61405">
		<tag k="name" v="Foldvik" />
		<tag k="place" v="farm" />
		<tag k="ssr:stedsnr" v="28727" />
	</node>
	<node lat="68.64784499286053" lon="17.723543033675544" id="-61414">
		<tag k="fixme" v="consider place=hamlet" />
		<tag k="name" v="Fjelldal" />
		<tag k="place" v="farm" />
		<tag k="ssr:stedsnr" v="51420" />
	</node>
	<node lat="68.69051388518828" lon="17.415166670030324" id="-61416">
		<tag k="name" v="Ressekastet" />
		<tag k="place" v="locality" />
		<tag k="ssr:stedsnr" v="51525" />
	</node>
	<node lat="68.66228773165612" lon="17.710126571903917" id="-61427">
		<tag k="name" v="Nylund" />
		<tag k="place" v="farm" />
		<tag k="ssr:stedsnr" v="78582" />
	</node>
	<node lat="68.75590833343763" lon="17.26383888787716" id="-61428">
		<tag k="alt_name" v="Grøsnes, store" />
		<tag k="name" v="Store Grøsnes" />
		<tag k="place" v="farm" />
		<tag k="ssr:stedsnr" v="78990" />
	</node>
	<node lat="68.69745555218496" lon="17.4977083335231" id="-61434">
		<tag k="name" v="Oldernes" />
		<tag k="place" v="farm" />
		<tag k="ssr:stedsnr" v="88466" />
	</node>
	<node lat="68.71851111414429" lon="17.48729443550134" id="-61437">
		<tag k="name" v="Gammelgården" />
		<tag k="place" v="locality" />
		<tag k="ssr:stedsnr" v="111430" />
	</node>
	<node lat="68.69033055659254" lon="17.542233342213574" id="-61450">
		<tag k="fixme" v="consider place=hamlet" />
		<tag k="loc_name:se" v="Árjogeargi;Orrageargi" />
		<tag k="name" v="Årstein" />
		<tag k="name:no" v="Årstein" />
		<tag k="place" v="village" />
		<tag k="ssr:stedsnr" v="138567" />
	</node>
	<node lat="68.71618226234312" lon="17.478387125957685" id="-61452">
		<tag k="fixme" v="consider place=hamlet" />
		<tag k="name" v="Inner-Skifte" />
		<tag k="place" v="farm" />
		<tag k="ssr:stedsnr" v="138925" />
	</node>
	<node lat="68.7041499984847" lon="17.483116653948404" id="-61459">
		<tag k="name" v="Åkenes" />
		<tag k="place" v="farm" />
		<tag k="ssr:stedsnr" v="149546" />
	</node>
	<node lat="68.7011138860534" lon="17.485452777928586" id="-61460">
		<tag k="name" v="Åkenes" />
		<tag k="place" v="farm" />
		<tag k="ssr:stedsnr" v="149551" />
	</node>
	<node lat="68.64236944044701" lon="17.72822222851572" id="-61471">
		<tag k="fixme" v="consider place=hamlet" />
		<tag k="loc_name:no" v="Holtåsen" />
		<tag k="loc_name:se" v="Reaidduorda" />
		<tag k="name" v="Holtås" />
		<tag k="name:no" v="Holtås" />
		<tag k="place" v="village" />
		<tag k="ssr:stedsnr" v="172383" />
	</node>
	<node lat="68.67405450899247" lon="17.691517800238525" id="-61487">
		<tag k="fixme" v="consider place=hamlet" />
		<tag k="name" v="Fjordbotn - Vuotnabahta" />
		<tag k="name:no" v="Fjordbotn" />
		<tag k="name:se" v="Vuotnabahta" />
		<tag k="place" v="farm" />
		<tag k="ssr:stedsnr" v="199638" />
	</node>
	<node lat="68.71176111556059" lon="17.427916660409668" id="-61490">
		<tag k="name" v="Nautnes" />
		<tag k="place" v="farm" />
		<tag k="ssr:stedsnr" v="199593" />
	</node>
	<node lat="68.66256111119743" lon="17.764847209450302" id="-61493">
		<tag k="name" v="Gratangen turiststasjon" />
		<tag k="ssr:stedsnr" v="200607" />
		<tag k="tourism" v="hotel" />
	</node>
	<node lat="68.67663610878796" lon="17.507905558932002" id="-61503">
		<tag k="name" v="Laberget" />
		<tag k="place" v="farm" />
		<tag k="ssr:stedsnr" v="210640" />
	</node>
	<node lat="68.69948889255555" lon="17.488022216686797" id="-61504">
		<tag k="name" v="Åkenes" />
		<tag k="place" v="farm" />
		<tag k="ssr:stedsnr" v="210550" />
	</node>
	<node lat="68.81575000355367" lon="17.43354167364041" id="-61510">
		<tag k="name" v="Skogly" />
		<tag k="place" v="farm" />
		<tag k="ssr:stedsnr" v="292790" />
	</node>
	<node lat="68.66209578622943" lon="17.727211455102292" id="-61533">
		<tag k="fixme" v="consider place=hamlet" />
		<tag k="name" v="Dalsletta" />
		<tag k="place" v="farm" />
		<tag k="ssr:stedsnr" v="321562" />
	</node>
	<node lat="68.65806835703494" lon="17.70884626939244" id="-61536">
		<tag k="fixme" v="consider place=hamlet" />
		<tag k="name" v="Fjellhøgda" />
		<tag k="place" v="farm" />
		<tag k="ssr:stedsnr" v="321571" />
	</node>
	<node lat="68.72060450278119" lon="17.479565350391567" id="-61545">
		<tag k="alt_name" v="Skifte" />
		<tag k="fixme" v="consider place=hamlet" />
		<tag k="name" v="Ytter-Skifte" />
		<tag k="place" v="farm" />
		<tag k="ssr:stedsnr" v="331743" />
	</node>
	<node lat="68.7562888927369" lon="17.262711106347084" id="-61549">
		<tag k="fixme" v="consider place=hamlet" />
		<tag k="loc_name:se" v="Rivttáknášši" />
		<tag k="name" v="Grøsnes" />
		<tag k="name:no" v="Grøsnes" />
		<tag k="place" v="village" />
		<tag k="ssr:stedsnr" v="332775" />
	</node>
	<node lat="68.78683333346586" lon="17.34045276358865" id="-61551">
		<tag k="name" v="Myrlund" />
		<tag k="place" v="farm" />
		<tag k="ssr:stedsnr" v="353429" />
	</node>
	<node lat="68.72485555220666" lon="17.47302500849493" id="-61577">
		<tag k="name" v="Vika" />
		<tag k="place" v="isolated_dwelling" />
		<tag k="ssr:stedsnr" v="393793" />
	</node>
	<node lat="68.66863611035664" lon="17.71642499902269" id="-61597">
		<tag k="name" v="Moan" />
		<tag k="place" v="farm" />
		<tag k="ssr:stedsnr" v="442628" />
	</node>
	<node lat="68.7748388923916" lon="17.280611104501567" id="-61604">
		<tag k="name" v="Myrlandshaugen" />
		<tag k="place" v="farm" />
		<tag k="ssr:stedsnr" v="445258" />
	</node>
	<node lat="68.67417777850076" lon="17.498363894098965" id="-61607">
		<tag k="name" v="Fossheim" />
		<tag k="place" v="farm" />
		<tag k="ssr:stedsnr" v="503574" />
	</node>
	<node lat="68.74101666346958" lon="17.329591654454344" id="-61620">
		<tag k="alt_name:no" v="Grøsnes lille;Grøsnes, l" />
		<tag k="loc_name:se" v="Unna Rivttáknášši" />
		<tag k="name" v="Lille Grøsnes" />
		<tag k="name:no" v="Lille Grøsnes" />
		<tag k="place" v="hamlet" />
		<tag k="ssr:stedsnr" v="503849" />
	</node>
	<node lat="68.76883151215716" lon="17.272414338335025" id="-61621">
		<tag k="fixme" v="consider place=hamlet" />
		<tag k="name" v="Myrland" />
		<tag k="place" v="farm" />
		<tag k="ssr:stedsnr" v="503928" />
	</node>
	<node lat="68.72185449279469" lon="17.413344410503306" id="-61625">
		<tag k="name" v="Tjuvskjær" />
		<tag k="place" v="farm" />
		<tag k="ssr:stedsnr" v="507449" />
	</node>
	<node lat="68.773447098289" lon="17.279592908756833" id="-61627">
		<tag k="name" v="Myrlandshaugen" />
		<tag k="place" v="farm" />
		<tag k="ssr:stedsnr" v="513562" />
	</node>
	<node lat="68.73336944751773" lon="17.26310833140537" id="-61631">
		<tag k="name" v="Hamnegården" />
		<tag k="place" v="farm" />
		<tag k="ssr:stedsnr" v="535399" />
	</node>
	<node lat="68.7030527754839" lon="17.43264444589481" id="-61647">
		<tag k="name" v="Teistevoll" />
		<tag k="place" v="farm" />
		<tag k="ssr:stedsnr" v="563579" />
	</node>
	<node lat="68.63643591789116" lon="17.72839474122656" id="-61664">
		<tag k="name" v="Kvernmo" />
		<tag k="place" v="farm" />
		<tag k="ssr:stedsnr" v="574762" />
	</node>
	<node lat="68.68382254316589" lon="17.583428677850705" id="-61672">
		<tag k="fixme" v="consider place=hamlet" />
		<tag k="name" v="Sandnes" />
		<tag k="place" v="farm" />
		<tag k="ssr:stedsnr" v="597345" />
	</node>
	<node lat="68.72113889182546" lon="17.41566389453083" id="-61682">
		<tag k="alt_name:no" v="Tjuvskjeret" />
		<tag k="loc_name:se" v="Čuvvá" />
		<tag k="name" v="Tjuvskjær" />
		<tag k="name:no" v="Tjuvskjær" />
		<tag k="place" v="hamlet" />
		<tag k="ssr:stedsnr" v="626970" />
	</node>
	<node lat="68.7208974779306" lon="17.412593517824437" id="-61683">
		<tag k="name" v="Tjuvskjær" />
		<tag k="place" v="farm" />
		<tag k="ssr:stedsnr" v="628464" />
	</node>
	<node lat="68.67675833234743" lon="17.493819447604594" id="-61684">
		<tag k="name" v="Sortebekk" />
		<tag k="place" v="farm" />
		<tag k="ssr:stedsnr" v="634573" />
	</node>
	<node lat="68.67739166876613" lon="17.505266669378305" id="-61685">
		<tag k="name" v="Laberget" />
		<tag k="place" v="farm" />
		<tag k="ssr:stedsnr" v="634652" />
	</node>
	<node lat="68.78821389207741" lon="17.35041112129302" id="-61712">
		<tag k="alt_name" v="Store Lauvdal;Lauvdal, store" />
		<tag k="name" v="Store Løvdal" />
		<tag k="old_name" v="Lauvdal" />
		<tag k="place" v="farm" />
		<tag k="ssr:stedsnr" v="717657" />
	</node>
	<node lat="68.71790278158979" lon="17.496886110555973" id="-61723">
		<tag k="name" v="Engelstad" />
		<tag k="place" v="locality" />
		<tag k="ssr:stedsnr" v="718467" />
	</node>
	<node lat="68.77351667075187" lon="17.278525004222836" id="-61724">
		<tag k="fixme" v="consider place=hamlet" />
		<tag k="name" v="Myrlandshaugen" />
		<tag k="place" v="village" />
		<tag k="ssr:stedsnr" v="745951" />
	</node>
	<node lat="68.63770457553068" lon="17.72868792157815" id="-61728">
		<tag k="fixme" v="consider place=hamlet" />
		<tag k="loc_name:se" v="Skáidi" />
		<tag k="name" v="Kvernmo" />
		<tag k="name:no" v="Kvernmo" />
		<tag k="place" v="farm" />
		<tag k="ssr:stedsnr" v="746533" />
	</node>
	<node lat="68.81377500077338" lon="17.418488889355903" id="-61733">
		<tag k="name" v="Selnes" />
		<tag k="place" v="hamlet" />
		<tag k="ssr:stedsnr" v="754181" />
	</node>
	<node lat="68.77459204084813" lon="17.277801789974202" id="-61734">
		<tag k="fixme" v="consider place=hamlet" />
		<tag k="name" v="Myrlandshaugen" />
		<tag k="place" v="farm" />
		<tag k="ssr:stedsnr" v="756537" />
	</node>
	<node lat="68.69936666405218" lon="17.492013887901386" id="-61735">
		<tag k="name" v="Åkenes" />
		<tag k="place" v="farm" />
		<tag k="ssr:stedsnr" v="756544" />
	</node>
	<node lat="68.67654722342097" lon="17.50576110991017" id="-61736">
		<tag k="name" v="Laberget" />
		<tag k="place" v="farm" />
		<tag k="ssr:stedsnr" v="756651" />
	</node>
	<node lat="68.68938055629825" lon="17.42488888477618" id="-61748">
		<tag k="name" v="Moa" />
		<tag k="place" v="locality" />
		<tag k="ssr:stedsnr" v="779482" />
	</node>
	<node lat="68.72123333012563" lon="17.478840247580816" id="-61763">
		<tag k="name" v="Ytter-Skifte" />
		<tag k="place" v="farm" />
		<tag k="ssr:stedsnr" v="817540" />
	</node>
	<node lat="68.71877500070308" lon="17.475341673803545" id="-61765">
		<tag k="loc_name:se" v="Skikta" />
		<tag k="name" v="Skifte" />
		<tag k="name:no" v="Skifte" />
		<tag k="place" v="hamlet" />
		<tag k="ssr:stedsnr" v="817751" />
	</node>
	<node lat="68.67293610856838" lon="17.695824992949458" id="-61773">
		<tag k="fixme" v="consider place=hamlet" />
		<tag k="loc_name:se" v="Vuotnavahta" />
		<tag k="name" v="Fjordbotn" />
		<tag k="name:no" v="Fjordbotn" />
		<tag k="place" v="village" />
		<tag k="ssr:stedsnr" v="840358" />
	</node>
	<node lat="68.63868333300027" lon="17.726275006838595" id="-61774">
		<tag k="fixme" v="consider place=hamlet" />
		<tag k="loc_name:no" v="Kvernmoen" />
		<tag k="loc_name:se" v="Skáidi" />
		<tag k="name" v="Kvernmo" />
		<tag k="name:no" v="Kvernmo" />
		<tag k="place" v="village" />
		<tag k="ssr:stedsnr" v="840371" />
	</node>
	<node lat="68.64206974041187" lon="17.72960136568105" id="-61787">
		<tag k="name" v="Nyheim" />
		<tag k="place" v="farm" />
		<tag k="ssr:stedsnr" v="867535" />
	</node>
	<node lat="68.66425658937564" lon="17.687496867748862" id="-61795">
		<tag k="fixme" v="consider place=hamlet" />
		<tag k="name" v="Osvoll" />
		<tag k="place" v="farm" />
		<tag k="ssr:stedsnr" v="867629" />
	</node>
	<node lat="68.63196140660867" lon="17.563545603802602" id="-61797">
		<tag k="name" v="Beritsletta" />
		<tag k="place" v="locality" />
		<tag k="ssr:stedsnr" v="868500" />
	</node>
	<node lat="68.746152777618" lon="17.415666655962355" id="-61804">
		<tag k="name" v="Lavik" />
		<tag k="place" v="farm" />
		<tag k="ssr:stedsnr" v="877563" />
	</node>
	<node lat="68.70111111581738" lon="17.483086106499385" id="-61805">
		<tag k="name" v="Åkenes" />
		<tag k="place" v="farm" />
		<tag k="ssr:stedsnr" v="877570" />
	</node>
	<node lat="68.69309999968121" lon="17.42267223007608" id="-61806">
		<tag k="name" v="Foldvik" />
		<tag k="place" v="farm" />
		<tag k="ssr:stedsnr" v="878718" />
	</node>
	<node lat="68.66902077970377" lon="17.65861332345773" id="-61809">
		<tag k="alt_name" v="Elvenes" />
		<tag k="fixme" v="consider place=hamlet" />
		<tag k="name" v="Elveneset" />
		<tag k="place" v="farm" />
		<tag k="ssr:stedsnr" v="940414" />
	</node>
	<node lat="68.66538333426796" lon="17.747991652551544" id="-61818">
		<tag k="alt_name:no" v="Fjordbotnmark" />
		<tag k="fixme" v="consider place=hamlet" />
		<tag k="loc_name:se" v="Skuhppi" />
		<tag k="name" v="Fjordbotnmarka" />
		<tag k="name:no" v="Fjordbotnmarka" />
		<tag k="place" v="village" />
		<tag k="ssr:stedsnr" v="961358" />
	</node>
	<node lat="68.67146944357381" lon="17.73761667379059" id="-61821">
		<tag k="barrier" v="fence" />
		<tag k="name" v="Torvegjerdet" />
		<tag k="ssr:stedsnr" v="961371" />
	</node>
	<node lat="68.69818551628809" lon="17.426574357695255" id="-61823">
		<tag k="name" v="Sletten" />
		<tag k="place" v="farm" />
		<tag k="ssr:stedsnr" v="961477" />
	</node>
	<node lat="68.62277746614221" lon="17.65073741501119" id="-61825">
		<tag k="name" v="Øse hyttegrend" />
		<tag k="place" v="neighbourhood" />
		<tag k="ssr:stedsnr" v="975754" />
	</node>
	<node lat="68.6804137392348" lon="17.463681670873214" id="-61826">
		<tag k="name" v="Hellarbogen industriområde" />
		<tag k="place" v="quarter" />
		<tag k="ssr:stedsnr" v="975755" />
	</node>
	<node lat="68.68359346059141" lon="17.552235542728777" id="-61827">
		<tag k="fixme" v="consider place=hamlet" />
		<tag k="name" v="Straumsnes - Strávvenjárga" />
		<tag k="name:no" v="Straumsnes" />
		<tag k="name:se" v="Strávvenjárga" />
		<tag k="place" v="farm" />
		<tag k="ssr:stedsnr" v="989678" />
	</node>
	<node lat="68.68893362275034" lon="17.419154158290702" id="-61828">
		<tag k="fixme" v="consider place=hamlet" />
		<tag k="name" v="Foldvika - Huvlaviika" />
		<tag k="name:no" v="Foldvika" />
		<tag k="name:se" v="Huvlaviika" />
		<tag k="place" v="farm" />
		<tag k="ssr:stedsnr" v="989679" />
	</node>
	<node lat="68.72101631131403" lon="17.4109371084832" id="-61829">
		<tag k="fixme" v="consider place=hamlet" />
		<tag k="name" v="Tjuvskjær - Čuvvá" />
		<tag k="name:no" v="Tjuvskjær" />
		<tag k="name:se" v="Čuvvá" />
		<tag k="place" v="farm" />
		<tag k="ssr:stedsnr" v="989680" />
	</node>
	<node lat="69.65483861708206" lon="18.954055597917613" id="-61881">
		<tag k="amenity" v="school" />
		<tag k="name" v="Ishavsbyen videregående skole" />
		<tag k="ssr:stedsnr" v="1075695" />
	</node>
	<node lat="68.63490092329864" lon="17.70824149814337" id="-61882">
		<tag k="name" v="Bjørkmo" />
		<tag k="place" v="locality" />
		<tag k="ssr:stedsnr" v="1077250" />
	</node>
	<node lat="68.66408697609636" lon="17.68947806676821" id="-61883">
		<tag k="alt_name" v="Brandmoen" />
		<tag k="name" v="Brannmoen" />
		<tag k="place" v="farm" />
		<tag k="ssr:stedsnr" v="1077251" />
	</node>
	<node lat="68.64059466040148" lon="17.55348641199499" id="-61884">
		<tag k="fixme" v="consider place=hamlet" />
		<tag k="name" v="Nedre Dalen" />
		<tag k="place" v="farm" />
		<tag k="ssr:stedsnr" v="1077252" />
	</node>
	<node lat="68.63958445790324" lon="17.558177597831854" id="-61885">
		<tag k="fixme" v="consider place=hamlet" />
		<tag k="name" v="Øvre Dalen" />
		<tag k="place" v="farm" />
		<tag k="ssr:stedsnr" v="1077253" />
	</node>
	<node lat="68.69290521839204" lon="17.253708305609997" id="-61886">
		<tag k="name" v="Keipen" />
		<tag k="place" v="locality" />
		<tag k="ssr:stedsnr" v="1077254" />
	</node>
</osm>
