<?xml version="1.0" encoding="UTF-8"?>
<osm version="0.6" generator="osmapis">
	<node lat="71.05687441024737" lon="24.94773640612598" id="-100888">
		<tag k="name" v="Måsøykalven" />
		<tag k="ssr:date" v="2020-11-10" />
		<tag k="ssr:gruppe" v="navigasjon" />
		<tag k="ssr:hovedgruppe" v="infrastruktur" />
		<tag k="ssr:stedsnr" v="230011" />
		<tag k="ssr:type" v="fyrlykt" />
	</node>
	<node lat="71.03741363378484" lon="25.053897936264672" id="-100931">
		<tag k="name" v="Måsneset" />
		<tag k="ssr:date" v="2020-09-01" />
		<tag k="ssr:gruppe" v="navigasjon" />
		<tag k="ssr:hovedgruppe" v="infrastruktur" />
		<tag k="ssr:stedsnr" v="58188" />
		<tag k="ssr:type" v="lanterne" />
	</node>
	<node lat="70.94596054103346" lon="24.213307300137703" id="-101042">
		<tag k="name" v="Rolvsøyhamn" />
		<tag k="ssr:date" v="2020-11-10" />
		<tag k="ssr:gruppe" v="navigasjon" />
		<tag k="ssr:hovedgruppe" v="infrastruktur" />
		<tag k="ssr:stedsnr" v="263235" />
		<tag k="ssr:type" v="fyrlykt" />
	</node>
	<node lat="70.99879911932872" lon="23.89048254858827" id="-101150">
		<tag k="name" v="Tufjord" />
		<tag k="ssr:date" v="2020-11-10" />
		<tag k="ssr:gruppe" v="navigasjon" />
		<tag k="ssr:hovedgruppe" v="infrastruktur" />
		<tag k="ssr:stedsnr" v="263211" />
		<tag k="ssr:type" v="fyrlykt" />
	</node>
	<node lat="70.99751667026372" lon="24.210935998071005" id="-101272">
		<tag k="name" v="Rolfsøykalven" />
		<tag k="ssr:date" v="2019-12-27" />
		<tag k="ssr:gruppe" v="navigasjon" />
		<tag k="ssr:hovedgruppe" v="infrastruktur" />
		<tag k="ssr:stedsnr" v="472816" />
		<tag k="ssr:type" v="lanterne" />
	</node>
	<node lat="71.08882778471518" lon="24.055147119332265" id="-101357">
		<tag k="name" v="Ingøy" />
		<tag k="ssr:date" v="2019-12-27" />
		<tag k="ssr:gruppe" v="navigasjon" />
		<tag k="ssr:hovedgruppe" v="infrastruktur" />
		<tag k="ssr:stedsnr" v="565605" />
		<tag k="ssr:type" v="fyrlykt" />
	</node>
	<node lat="71.08561159448908" lon="24.185986667752314" id="-101413">
		<tag k="name" v="Store Gåsøya" />
		<tag k="old_name" v="Gåsøy, store" />
		<tag k="ssr:date" v="2020-10-15" />
		<tag k="ssr:gruppe" v="navigasjon" />
		<tag k="ssr:hovedgruppe" v="infrastruktur" />
		<tag k="ssr:stedsnr" v="626602" />
		<tag k="ssr:type" v="fyrlykt" />
	</node>
	<node lat="70.99172820758108" lon="24.129828066756495" id="-101519">
		<tag k="name" v="Gunnarneset" />
		<tag k="ssr:date" v="2020-11-26" />
		<tag k="ssr:gruppe" v="navigasjon" />
		<tag k="ssr:hovedgruppe" v="infrastruktur" />
		<tag k="ssr:stedsnr" v="809243" />
		<tag k="ssr:type" v="fyrlykt" />
	</node>
	<node lat="70.9193555585951" lon="25.27104982334108" id="-101546">
		<tag k="name" v="Stor-Kobbøya" />
		<tag k="ssr:date" v="2019-12-27" />
		<tag k="ssr:gruppe" v="navigasjon" />
		<tag k="ssr:hovedgruppe" v="infrastruktur" />
		<tag k="ssr:stedsnr" v="837181" />
		<tag k="ssr:type" v="fyrlykt" />
	</node>
	<node lat="71.0792277456817" lon="24.0741449103321" id="-101548">
		<tag k="name" v="Skrapleia" />
		<tag k="ssr:date" v="2020-09-01" />
		<tag k="ssr:gruppe" v="navigasjon" />
		<tag k="ssr:hovedgruppe" v="infrastruktur" />
		<tag k="ssr:stedsnr" v="847381" />
		<tag k="ssr:type" v="lanterne" />
	</node>
	<node lat="70.6858722284454" lon="24.5752387441026" id="-101753">
		<tag k="name" v="Måsholmen" />
		<tag k="ssr:date" v="2019-12-27" />
		<tag k="ssr:gruppe" v="navigasjon" />
		<tag k="ssr:hovedgruppe" v="infrastruktur" />
		<tag k="ssr:stedsnr" v="48457" />
		<tag k="ssr:type" v="fyrlykt" />
	</node>
	<node lat="71.08650525040906" lon="23.98342414695092" id="-101837">
		<tag k="name" v="Sandholmen" />
		<tag k="ssr:date" v="2021-01-05" />
		<tag k="ssr:gruppe" v="navigasjon" />
		<tag k="ssr:hovedgruppe" v="infrastruktur" />
		<tag k="ssr:stedsnr" v="140547" />
		<tag k="ssr:type" v="fyrlykt" />
	</node>
	<node lat="70.99231553469623" lon="24.625164476790292" id="-101915">
		<tag k="name" v="Rotskjæringsneset" />
		<tag k="old_name" v="Rotskjeringsneset" />
		<tag k="ssr:date" v="2020-09-10" />
		<tag k="ssr:gruppe" v="navigasjon" />
		<tag k="ssr:hovedgruppe" v="infrastruktur" />
		<tag k="ssr:stedsnr" v="202339" />
		<tag k="ssr:type" v="fyrlykt" />
	</node>
	<node lat="71.07216636243628" lon="23.98998681360165" id="-101941">
		<tag k="name" v="Finnes" />
		<tag k="ssr:date" v="2020-11-10" />
		<tag k="ssr:gruppe" v="navigasjon" />
		<tag k="ssr:hovedgruppe" v="infrastruktur" />
		<tag k="ssr:stedsnr" v="202588" />
		<tag k="ssr:type" v="fyrlykt" />
	</node>
	<node lat="70.99653333905997" lon="24.66144431751619" id="-102129">
		<tag k="name" v="Måsøy kommune" />
		<tag k="ssr:date" v="2019-12-27" />
		<tag k="ssr:gruppe" v="administrativeIndelinger" />
		<tag k="ssr:hovedgruppe" v="offentligAdministrasjon" />
		<tag k="ssr:stedsnr" v="390321" />
		<tag k="ssr:type" v="kommune" />
	</node>
	<node lat="71.09372674840957" lon="23.98366355266514" id="-102160">
		<tag k="name" v="Fruholmen" />
		<tag k="old_name" v="Fruholmen fyr" />
		<tag k="ssr:date" v="2020-09-01" />
		<tag k="ssr:gruppe" v="navigasjon" />
		<tag k="ssr:hovedgruppe" v="infrastruktur" />
		<tag k="ssr:stedsnr" v="444482" />
		<tag k="ssr:type" v="fyrstasjon" />
	</node>
	<node lat="71.10328043646898" lon="24.849699063949036" id="-102250">
		<tag k="name" v="Svartviknæringen" />
		<tag k="ssr:date" v="2020-09-17" />
		<tag k="ssr:gruppe" v="navigasjon" />
		<tag k="ssr:hovedgruppe" v="infrastruktur" />
		<tag k="ssr:stedsnr" v="505646" />
		<tag k="ssr:type" v="fyrlykt" />
	</node>
	<node lat="71.0077666247037" lon="25.033730236854268" id="-102255">
		<tag k="name" v="Måsøy" />
		<tag k="ssr:date" v="2020-09-17" />
		<tag k="ssr:gruppe" v="navigasjon" />
		<tag k="ssr:hovedgruppe" v="infrastruktur" />
		<tag k="ssr:stedsnr" v="505734" />
		<tag k="ssr:type" v="fyrlykt" />
	</node>
	<node lat="71.04343406319872" lon="23.985369011999712" id="-102275">
		<tag k="name" v="Trollsundet" />
		<tag k="ssr:date" v="2020-09-17" />
		<tag k="ssr:gruppe" v="navigasjon" />
		<tag k="ssr:hovedgruppe" v="infrastruktur" />
		<tag k="ssr:stedsnr" v="511935" />
		<tag k="ssr:type" v="fyrlykt" />
	</node>
	<node lat="71.00643055626841" lon="25.0174498330996" id="-102287">
		<tag k="name" v="Måsøy molo" />
		<tag k="ssr:date" v="2019-12-27" />
		<tag k="ssr:gruppe" v="navigasjon" />
		<tag k="ssr:hovedgruppe" v="infrastruktur" />
		<tag k="ssr:stedsnr" v="543197" />
		<tag k="ssr:type" v="lanterne" />
	</node>
	<node lat="70.7974388937709" lon="24.15603321568477" id="-102436">
		<tag k="name" v="Rypøyan" />
		<tag k="ssr:date" v="2019-12-27" />
		<tag k="ssr:gruppe" v="navigasjon" />
		<tag k="ssr:hovedgruppe" v="infrastruktur" />
		<tag k="ssr:stedsnr" v="663816" />
		<tag k="ssr:type" v="lanterne" />
	</node>
	<node lat="70.86648056199675" lon="25.23293038936984" id="-102437">
		<tag k="name" v="Smedberget" />
		<tag k="ssr:date" v="2019-12-27" />
		<tag k="ssr:gruppe" v="navigasjon" />
		<tag k="ssr:hovedgruppe" v="infrastruktur" />
		<tag k="ssr:stedsnr" v="715262" />
		<tag k="ssr:type" v="fyrlykt" />
	</node>
	<node lat="70.96205712111842" lon="25.43113893378055" id="-102445">
		<tag k="name" v="Risvikneset" />
		<tag k="ssr:date" v="2020-09-17" />
		<tag k="ssr:gruppe" v="navigasjon" />
		<tag k="ssr:hovedgruppe" v="infrastruktur" />
		<tag k="ssr:stedsnr" v="747445" />
		<tag k="ssr:type" v="fyrlykt" />
	</node>
	<node lat="71.02066389288501" lon="24.558010989898385" id="-102499">
		<tag k="name" v="Havøygavlen" />
		<tag k="ssr:date" v="2019-12-27" />
		<tag k="ssr:gruppe" v="navigasjon" />
		<tag k="ssr:hovedgruppe" v="infrastruktur" />
		<tag k="ssr:stedsnr" v="748617" />
		<tag k="ssr:type" v="fyrlykt" />
	</node>
	<node lat="71.09129563840193" lon="24.732445795993243" id="-102537">
		<tag k="alt_name" v="Akkarfjord" />
		<tag k="name" v="Akkarfjorden" />
		<tag k="ssr:date" v="2021-01-14" />
		<tag k="ssr:gruppe" v="navigasjon" />
		<tag k="ssr:hovedgruppe" v="infrastruktur" />
		<tag k="ssr:stedsnr" v="808629" />
		<tag k="ssr:type" v="fyrlykt" />
	</node>
	<node lat="70.99640643535373" lon="24.970051371273197" id="-102635">
		<tag k="name" v="Måsøysund" />
		<tag k="ssr:date" v="2020-11-26" />
		<tag k="ssr:gruppe" v="navigasjon" />
		<tag k="ssr:hovedgruppe" v="infrastruktur" />
		<tag k="ssr:stedsnr" v="870357" />
		<tag k="ssr:type" v="fyrlykt" />
	</node>
	<node lat="70.98605277655231" lon="23.999891560010425" id="-102683">
		<tag k="name" v="Valfjord" />
		<tag k="ssr:date" v="2019-12-27" />
		<tag k="ssr:gruppe" v="navigasjon" />
		<tag k="ssr:hovedgruppe" v="infrastruktur" />
		<tag k="ssr:stedsnr" v="942569" />
		<tag k="ssr:type" v="fyrlykt" />
	</node>
	<node lat="70.99624180511351" lon="24.661421470708465" id="-102689">
		<tag k="name" v="Torget" />
		<tag k="ssr:date" v="2019-12-27" />
		<tag k="ssr:gruppe" v="veg" />
		<tag k="ssr:hovedgruppe" v="infrastruktur" />
		<tag k="ssr:stedsnr" v="1055755" />
		<tag k="ssr:type" v="adressenavn" />
	</node>
	<node lat="70.99981099940041" lon="24.692255971933506" id="-102690">
		<tag k="name" v="Hallvikveien" />
		<tag k="ssr:date" v="2019-12-27" />
		<tag k="ssr:gruppe" v="veg" />
		<tag k="ssr:hovedgruppe" v="infrastruktur" />
		<tag k="ssr:stedsnr" v="1055439" />
		<tag k="ssr:type" v="adressenavn" />
	</node>
	<node lat="70.9994502281734" lon="24.690730803850332" id="-102691">
		<tag k="name" v="Måseveien" />
		<tag k="ssr:date" v="2019-12-27" />
		<tag k="ssr:gruppe" v="veg" />
		<tag k="ssr:hovedgruppe" v="infrastruktur" />
		<tag k="ssr:stedsnr" v="1055386" />
		<tag k="ssr:type" v="adressenavn" />
	</node>
	<node lat="70.99628211572356" lon="24.662186315794223" id="-102692">
		<tag k="name" v="Nordregata" />
		<tag k="ssr:date" v="2019-12-27" />
		<tag k="ssr:gruppe" v="veg" />
		<tag k="ssr:hovedgruppe" v="infrastruktur" />
		<tag k="ssr:stedsnr" v="1055389" />
		<tag k="ssr:type" v="adressenavn" />
	</node>
	<node lat="70.995408990452" lon="24.63081878737154" id="-102693">
		<tag k="name" v="Strandgata" />
		<tag k="ssr:date" v="2019-12-27" />
		<tag k="ssr:gruppe" v="veg" />
		<tag k="ssr:hovedgruppe" v="infrastruktur" />
		<tag k="ssr:stedsnr" v="1055393" />
		<tag k="ssr:type" v="adressenavn" />
	</node>
	<node lat="70.99611434744885" lon="24.660459392860325" id="-102694">
		<tag k="name" v="Søndregata" />
		<tag k="ssr:date" v="2019-12-27" />
		<tag k="ssr:gruppe" v="veg" />
		<tag k="ssr:hovedgruppe" v="infrastruktur" />
		<tag k="ssr:stedsnr" v="1055395" />
		<tag k="ssr:type" v="adressenavn" />
	</node>
	<node lat="70.997369229219" lon="24.655615788657535" id="-102695">
		<tag k="name" v="Storvannsveien" />
		<tag k="ssr:date" v="2019-12-27" />
		<tag k="ssr:gruppe" v="veg" />
		<tag k="ssr:hovedgruppe" v="infrastruktur" />
		<tag k="ssr:stedsnr" v="1055401" />
		<tag k="ssr:type" v="adressenavn" />
	</node>
	<node lat="70.99755001633048" lon="24.64931716837491" id="-102696">
		<tag k="name" v="Rolvsøyveien" />
		<tag k="ssr:date" v="2019-12-27" />
		<tag k="ssr:gruppe" v="veg" />
		<tag k="ssr:hovedgruppe" v="infrastruktur" />
		<tag k="ssr:stedsnr" v="1055415" />
		<tag k="ssr:type" v="adressenavn" />
	</node>
	<node lat="70.99570212195509" lon="24.66837298212132" id="-102697">
		<tag k="name" v="Raschveien" />
		<tag k="ssr:date" v="2019-12-27" />
		<tag k="ssr:gruppe" v="veg" />
		<tag k="ssr:hovedgruppe" v="infrastruktur" />
		<tag k="ssr:stedsnr" v="1055428" />
		<tag k="ssr:type" v="adressenavn" />
	</node>
	<node lat="71.00081438964669" lon="24.655301209689533" id="-102698">
		<tag k="name" v="Ringveien" />
		<tag k="ssr:date" v="2019-12-27" />
		<tag k="ssr:gruppe" v="veg" />
		<tag k="ssr:hovedgruppe" v="infrastruktur" />
		<tag k="ssr:stedsnr" v="1055431" />
		<tag k="ssr:type" v="adressenavn" />
	</node>
	<node lat="71.00081438964669" lon="24.655301209689533" id="-102699">
		<tag k="name" v="Lomvannsveien" />
		<tag k="ssr:date" v="2019-12-27" />
		<tag k="ssr:gruppe" v="veg" />
		<tag k="ssr:hovedgruppe" v="infrastruktur" />
		<tag k="ssr:stedsnr" v="1055509" />
		<tag k="ssr:type" v="adressenavn" />
	</node>
	<node lat="70.9976410943203" lon="24.663967833038658" id="-102701">
		<tag k="name" v="Fjellveien" />
		<tag k="ssr:date" v="2019-12-27" />
		<tag k="ssr:gruppe" v="veg" />
		<tag k="ssr:hovedgruppe" v="infrastruktur" />
		<tag k="ssr:stedsnr" v="1055482" />
		<tag k="ssr:type" v="adressenavn" />
	</node>
	<node lat="70.9974855286351" lon="24.64688150819839" id="-102702">
		<tag k="name" v="Ingøyveien" />
		<tag k="ssr:date" v="2019-12-27" />
		<tag k="ssr:gruppe" v="veg" />
		<tag k="ssr:hovedgruppe" v="infrastruktur" />
		<tag k="ssr:stedsnr" v="1055546" />
		<tag k="ssr:type" v="adressenavn" />
	</node>
	<node lat="70.99664702940228" lon="24.659030545455636" id="-102703">
		<tag k="name" v="Kirkeveien" />
		<tag k="ssr:date" v="2019-12-27" />
		<tag k="ssr:gruppe" v="veg" />
		<tag k="ssr:hovedgruppe" v="infrastruktur" />
		<tag k="ssr:stedsnr" v="1055533" />
		<tag k="ssr:type" v="adressenavn" />
	</node>
	<node lat="70.99667424002041" lon="24.636842340472963" id="-102704">
		<tag k="name" v="Kirkegårdsveien" />
		<tag k="ssr:date" v="2019-12-27" />
		<tag k="ssr:gruppe" v="veg" />
		<tag k="ssr:hovedgruppe" v="infrastruktur" />
		<tag k="ssr:stedsnr" v="1055689" />
		<tag k="ssr:type" v="adressenavn" />
	</node>
	<node lat="70.99526414276019" lon="24.673788691624146" id="-102705">
		<tag k="name" v="Serviceplassen" />
		<tag k="ssr:date" v="2019-12-27" />
		<tag k="ssr:gruppe" v="veg" />
		<tag k="ssr:hovedgruppe" v="infrastruktur" />
		<tag k="ssr:stedsnr" v="1055691" />
		<tag k="ssr:type" v="adressenavn" />
	</node>
	<node lat="70.99588901787031" lon="24.666602041232277" id="-102706">
		<tag k="name" v="Kårdalsveien" />
		<tag k="ssr:date" v="2019-12-27" />
		<tag k="ssr:gruppe" v="veg" />
		<tag k="ssr:hovedgruppe" v="infrastruktur" />
		<tag k="ssr:stedsnr" v="1055692" />
		<tag k="ssr:type" v="adressenavn" />
	</node>
	<node lat="71.00081438964669" lon="24.655301209689533" id="-102707">
		<tag k="name" v="Dalveien" />
		<tag k="ssr:date" v="2019-12-27" />
		<tag k="ssr:gruppe" v="veg" />
		<tag k="ssr:hovedgruppe" v="infrastruktur" />
		<tag k="ssr:stedsnr" v="1055693" />
		<tag k="ssr:type" v="adressenavn" />
	</node>
	<node lat="70.99733374823845" lon="24.662597591357134" id="-102708">
		<tag k="name" v="Hjelmsøyveien" />
		<tag k="ssr:date" v="2019-12-27" />
		<tag k="ssr:gruppe" v="veg" />
		<tag k="ssr:hovedgruppe" v="infrastruktur" />
		<tag k="ssr:stedsnr" v="1055576" />
		<tag k="ssr:type" v="adressenavn" />
	</node>
	<node lat="70.99557338972657" lon="24.669768066952976" id="-102710">
		<tag k="name" v="Fyllingsveien" />
		<tag k="ssr:date" v="2019-12-27" />
		<tag k="ssr:gruppe" v="veg" />
		<tag k="ssr:hovedgruppe" v="infrastruktur" />
		<tag k="ssr:stedsnr" v="1055716" />
		<tag k="ssr:type" v="adressenavn" />
	</node>
	<node lat="71.00213640333389" lon="24.657929256530092" id="-102711">
		<tag k="name" v="Skytterveien" />
		<tag k="ssr:date" v="2019-12-27" />
		<tag k="ssr:gruppe" v="veg" />
		<tag k="ssr:hovedgruppe" v="infrastruktur" />
		<tag k="ssr:stedsnr" v="1055717" />
		<tag k="ssr:type" v="adressenavn" />
	</node>
	<node lat="70.99627389581948" lon="24.66704743579652" id="-102712">
		<tag k="name" v="Øytunveien" />
		<tag k="ssr:date" v="2019-12-27" />
		<tag k="ssr:gruppe" v="veg" />
		<tag k="ssr:hovedgruppe" v="infrastruktur" />
		<tag k="ssr:stedsnr" v="1055770" />
		<tag k="ssr:type" v="adressenavn" />
	</node>
</osm>
