<?xml version="1.0" encoding="UTF-8"?>
<osm generator="osmapis" version="0.6">
	<node id="-30720" lat="59.8614833331" lon="11.6222027789">
		<tag k="fixme" v="consider natural=peak for the most distinct mountains in the district" />
		<tag k="name" v="Holmenkollen" />
		<tag k="natural" v="hill" />
		<tag k="place" v="locality" />
		<tag k="ssr:stedsnr" v="830870" />
	</node>
	<node id="-28671" lat="59.8806472251" lon="11.3459583272">
		<tag k="name" v="Helvetesberget" />
		<tag k="natural" v="cliff" />
		<tag k="ssr:stedsnr" v="241050" />
	</node>
	<node id="-30718" lat="59.9020055599" lon="11.4900861171">
		<tag k="name" v="Korsdalen" />
		<tag k="natural" v="valley" />
		<tag k="place" v="locality" />
		<tag k="ssr:stedsnr" v="830407" />
	</node>
	<node id="-30717" lat="59.9731166685" lon="11.711775002">
		<tag k="name" v="Bjønndalen" />
		<tag k="natural" v="valley" />
		<tag k="place" v="locality" />
		<tag k="ssr:stedsnr" v="830337" />
	</node>
	<node id="-28666" lat="59.7325527806" lon="11.5110277845">
		<tag k="name" v="Bergsjøbrenna" />
		<tag k="natural" v="slope" />
		<tag k="place" v="locality" />
		<tag k="ssr:stedsnr" v="240601" />
	</node>
	<node id="-30713" lat="59.9749472258" lon="11.7724027857">
		<tag k="name" v="Revberget" />
		<tag k="natural" v="cliff" />
		<tag k="ssr:stedsnr" v="829991" />
	</node>
	<node id="-28664" lat="59.5989944441" lon="11.4908472194">
		<tag k="fixme" v="consider natural=peak for the most distinct mountains in the district" />
		<tag k="name" v="Langfosstjennhøgda" />
		<tag k="natural" v="hill" />
		<tag k="place" v="locality" />
		<tag k="ssr:stedsnr" v="240582" />
	</node>
	<node id="-28657" lat="59.9262833324" lon="11.6493694393">
		<tag k="name" v="Breifalla" />
		<tag k="natural" v="slope" />
		<tag k="place" v="locality" />
		<tag k="ssr:stedsnr" v="239783" />
	</node>
	<node id="-28669" lat="59.7896499999" lon="11.888686109">
		<tag k="fixme" v="consider natural=peak for the most distinct mountains in the district" />
		<tag k="name" v="Bjønnehihøgda" />
		<tag k="natural" v="hill" />
		<tag k="place" v="locality" />
		<tag k="ssr:stedsnr" v="240726" />
	</node>
	<node id="-30700" lat="59.8601611108" lon="11.3548749932">
		<tag k="fixme" v="consider natural=peak for the most distinct mountains in the district" />
		<tag k="name" v="Holmetjennhøgda" />
		<tag k="natural" v="hill" />
		<tag k="place" v="locality" />
		<tag k="ssr:stedsnr" v="831674" />
	</node>
	<node id="-28649" lat="59.8775444478" lon="11.5103444387">
		<tag k="name" v="Vingårdsdalen" />
		<tag k="natural" v="valley" />
		<tag k="place" v="locality" />
		<tag k="ssr:stedsnr" v="239358" />
	</node>
	<node id="-28648" lat="59.8846944428" lon="11.4103388801">
		<tag k="fixme" v="consider natural=peak for the most distinct mountains in the district" />
		<tag k="name" v="Korstjennhøgda" />
		<tag k="natural" v="hill" />
		<tag k="place" v="locality" />
		<tag k="ssr:stedsnr" v="239349" />
	</node>
	<node id="-28646" lat="59.8863638918" lon="11.4085833418">
		<tag k="name" v="Jammerdalen" />
		<tag k="natural" v="valley" />
		<tag k="place" v="locality" />
		<tag k="ssr:stedsnr" v="239344" />
	</node>
	<node id="-30689" lat="59.7966388909" lon="11.5012444386">
		<tag k="fixme" v="consider natural=peak for the most distinct mountains in the district" />
		<tag k="name" v="Naddumåsen" />
		<tag k="natural" v="hill" />
		<tag k="place" v="locality" />
		<tag k="ssr:stedsnr" v="829096" />
	</node>
	<node id="-28640" lat="59.8986194411" lon="11.3360166684">
		<tag k="name" v="Brattbakkene" />
		<tag k="natural" v="slope" />
		<tag k="place" v="locality" />
		<tag k="ssr:stedsnr" v="239238" />
	</node>
	<node id="-30686" lat="59.9424555589" lon="11.7294694509">
		<tag k="name" v="Sprettedalen" />
		<tag k="natural" v="valley" />
		<tag k="place" v="locality" />
		<tag k="ssr:stedsnr" v="829065" />
	</node>
	<node id="-30680" lat="59.9551333295" lon="11.6461555529">
		<tag k="name" v="Vestre Svarvestoldalen" />
		<tag k="natural" v="valley" />
		<tag k="place" v="locality" />
		<tag k="ssr:stedsnr" v="829005" />
	</node>
	<node id="-28628" lat="59.9500583341" lon="11.5976416691">
		<tag k="name" v="Stygghølet" />
		<tag k="natural" v="valley" />
		<tag k="place" v="locality" />
		<tag k="ssr:stedsnr" v="238374" />
	</node>
	<node id="-28622" lat="59.8308833313" lon="11.3041638949">
		<tag k="fixme" v="consider natural=peak for the most distinct mountains in the district" />
		<tag k="name" v="Vestre Svarttjennhøgda" />
		<tag k="natural" v="hill" />
		<tag k="place" v="locality" />
		<tag k="ssr:stedsnr" v="237739" />
	</node>
	<node id="-28621" lat="59.7980222217" lon="11.732002773">
		<tag k="fixme" v="consider natural=peak for the most distinct mountains in the district" />
		<tag k="name" v="Matsekkåsen" />
		<tag k="natural" v="hill" />
		<tag k="place" v="locality" />
		<tag k="ssr:stedsnr" v="237725" />
	</node>
	<node id="-30664" lat="59.6938055591" lon="11.3908111185">
		<tag k="name" v="Knatten" />
		<tag k="natural" v="hill" />
		<tag k="place" v="locality" />
		<tag k="ssr:stedsnr" v="811203" />
	</node>
	<node id="-29004" lat="59.842555552" lon="11.4112027754">
		<tag k="alt_name" v="Aurtjennåsen" />
		<tag k="fixme" v="consider natural=peak for the most distinct mountains in the district" />
		<tag k="name" v="Auretjennåsen" />
		<tag k="natural" v="hill" />
		<tag k="place" v="locality" />
		<tag k="ssr:stedsnr" v="430735" />
	</node>
	<node id="-30662" lat="59.7045944463" lon="11.380941674">
		<tag k="name" v="Sæterdalen" />
		<tag k="natural" v="valley" />
		<tag k="place" v="locality" />
		<tag k="ssr:stedsnr" v="811190" />
	</node>
	<node id="-30661" lat="59.7487611132" lon="11.4372194443">
		<tag k="name" v="Biskopbakken" />
		<tag k="natural" v="slope" />
		<tag k="place" v="locality" />
		<tag k="ssr:stedsnr" v="811168" />
	</node>
	<node id="-30655" lat="59.834894445" lon="11.3104722309">
		<tag k="fixme" v="consider natural=peak for the most distinct mountains in the district" />
		<tag k="name" v="Svarttjennhøgda" />
		<tag k="natural" v="hill" />
		<tag k="place" v="locality" />
		<tag k="ssr:stedsnr" v="794770" />
	</node>
	<node id="-30651" lat="59.8350694399" lon="11.4212083372">
		<tag k="fixme" v="consider natural=peak for the most distinct mountains in the district" />
		<tag k="name" v="Sæterhøgda" />
		<tag k="natural" v="hill" />
		<tag k="place" v="locality" />
		<tag k="ssr:stedsnr" v="794518" />
	</node>
	<node id="-28602" lat="59.9113111125" lon="11.7101277737">
		<tag k="name" v="Linlia" />
		<tag k="natural" v="slope" />
		<tag k="place" v="locality" />
		<tag k="ssr:stedsnr" v="224803" />
	</node>
	<node id="-28599" lat="59.8429583289" lon="11.5694000057">
		<tag k="name" v="Skjønhaugberga" />
		<tag k="natural" v="cliff" />
		<tag k="ssr:stedsnr" v="224750" />
	</node>
	<node id="-30644" lat="59.814819448" lon="11.5552277732">
		<tag k="fixme" v="consider natural=peak for the most distinct mountains in the district" />
		<tag k="name" v="Snartjennåsen" />
		<tag k="natural" v="hill" />
		<tag k="place" v="locality" />
		<tag k="ssr:stedsnr" v="794259" />
	</node>
	<node id="-30638" lat="59.8832805522" lon="11.6522000005">
		<tag k="name" v="Årtjennhøgda" />
		<tag k="natural" v="hill" />
		<tag k="place" v="locality" />
		<tag k="ssr:stedsnr" v="794208" />
	</node>
	<node id="-28588" lat="59.95895278" lon="11.7001722272">
		<tag k="name" v="Pineholmene" />
		<tag k="natural" v="hill" />
		<tag k="place" v="locality" />
		<tag k="ssr:stedsnr" v="223298" />
	</node>
	<node id="-28573" lat="59.7754499978" lon="11.3400861092">
		<tag k="fixme" v="consider natural=peak for the most distinct mountains in the district" />
		<tag k="name" v="Rundåsen" />
		<tag k="natural" v="hill" />
		<tag k="place" v="locality" />
		<tag k="ssr:stedsnr" v="222142" />
	</node>
	<node id="-30620" lat="59.970674997" lon="11.5285499948">
		<tag k="fixme" v="consider natural=peak for the most distinct mountains in the district" />
		<tag k="name" v="Bergerteigen" />
		<tag k="natural" v="hill" />
		<tag k="place" v="locality" />
		<tag k="ssr:stedsnr" v="793977" />
	</node>
	<node id="-28567" lat="59.9393750012" lon="11.7467638846">
		<tag k="name" v="Kopptjenndalen" />
		<tag k="natural" v="valley" />
		<tag k="place" v="locality" />
		<tag k="ssr:stedsnr" v="222048" />
	</node>
	<node id="-28565" lat="59.9538638845" lon="11.6381722258">
		<tag k="name" v="Tømmermyrdalen" />
		<tag k="natural" v="valley" />
		<tag k="place" v="locality" />
		<tag k="ssr:stedsnr" v="222013" />
	</node>
	<node id="-28564" lat="59.9756638927" lon="11.5510916648">
		<tag k="fixme" v="consider natural=peak for the most distinct mountains in the district" />
		<tag k="name" v="Revtjennhøgda" />
		<tag k="natural" v="hill" />
		<tag k="place" v="locality" />
		<tag k="ssr:stedsnr" v="222005" />
	</node>
	<node id="-28563" lat="59.9706472214" lon="11.4216222284">
		<tag k="name" v="Askhøla" />
		<tag k="place" v="locality" />
		<tag k="ssr:stedsnr" v="222003" />
	</node>
	<node id="-30606" lat="59.8809555589" lon="11.3588305516">
		<tag k="fixme" v="consider natural=peak for the most distinct mountains in the district" />
		<tag k="name" v="Røysekollen" />
		<tag k="natural" v="hill" />
		<tag k="place" v="locality" />
		<tag k="ssr:stedsnr" v="793696" />
	</node>
	<node id="-26946" lat="59.9327916642" lon="11.7757916624">
		<tag k="fixme" v="consider natural=peak for the most distinct mountains in the district" />
		<tag k="name" v="Lustjennknatten" />
		<tag k="natural" v="hill" />
		<tag k="place" v="locality" />
		<tag k="ssr:stedsnr" v="301405" />
	</node>
	<node id="-30601" lat="59.79863611" lon="11.7882722211">
		<tag k="alt_name" v="Knatten, østre" />
		<tag k="fixme" v="multiple name tags, choose one and add the other to alt_name; consider natural=peak for the most distinct mountains in the district" />
		<tag k="name" v="Østre Sjurtjennknatten;Østre Knatten" />
		<tag k="natural" v="hill" />
		<tag k="place" v="locality" />
		<tag k="ssr:stedsnr" v="793520" />
	</node>
	<node id="-28552" lat="59.738713885" lon="11.5170972292">
		<tag k="fixme" v="consider natural=peak for the most distinct mountains in the district" />
		<tag k="name" v="Lystjennhøgda" />
		<tag k="natural" v="hill" />
		<tag k="place" v="locality" />
		<tag k="ssr:stedsnr" v="221357" />
	</node>
	<node id="-28652" lat="59.8161083376" lon="11.6605222236">
		<tag k="fixme" v="consider natural=peak for the most distinct mountains in the district" />
		<tag k="name" v="Skjellåsen" />
		<tag k="natural" v="hill" />
		<tag k="place" v="locality" />
		<tag k="ssr:stedsnr" v="239491" />
	</node>
	<node id="-30278" lat="59.8007944457" lon="11.5487000086">
		<tag k="name" v="Lauvfallmoen" />
		<tag k="place" v="locality" />
		<tag k="ssr:stedsnr" v="732504" />
	</node>
	<node id="-28543" lat="59.6447250025" lon="11.5021527845">
		<tag k="name" v="Krokdalen" />
		<tag k="natural" v="valley" />
		<tag k="place" v="locality" />
		<tag k="ssr:stedsnr" v="219105" />
	</node>
	<node id="-28533" lat="59.7991166684" lon="11.8998472232">
		<tag k="fixme" v="consider natural=peak for the most distinct mountains in the district" />
		<tag k="name" v="Hellehøgda" />
		<tag k="natural" v="hill" />
		<tag k="place" v="locality" />
		<tag k="ssr:stedsnr" v="188188" />
	</node>
	<node id="-28732" lat="59.8897250045" lon="11.7837055478">
		<tag k="fixme" v="consider natural=peak for the most distinct mountains in the district" />
		<tag k="name" v="Langsrudåsen" />
		<tag k="natural" v="hill" />
		<tag k="place" v="locality" />
		<tag k="ssr:stedsnr" v="247236" />
	</node>
	<node id="-28989" lat="59.8610277768" lon="11.8165749916">
		<tag k="fixme" v="consider natural=peak for the most distinct mountains in the district" />
		<tag k="name" v="Bruremyråsen" />
		<tag k="natural" v="hill" />
		<tag k="place" v="locality" />
		<tag k="ssr:stedsnr" v="430140" />
	</node>
	<node id="-28520" lat="59.8272277744" lon="11.3240361165">
		<tag k="fixme" v="consider natural=peak for the most distinct mountains in the district" />
		<tag k="name" v="Tjuvdalshøgda" />
		<tag k="natural" v="hill" />
		<tag k="place" v="locality" />
		<tag k="ssr:stedsnr" v="187503" />
	</node>
	<node id="-26939" lat="59.7841638923" lon="11.5883305613">
		<tag k="name" v="Haukedalen" />
		<tag k="natural" v="valley" />
		<tag k="place" v="locality" />
		<tag k="ssr:stedsnr" v="300987" />
	</node>
	<node id="-28304" lat="59.7871333351" lon="11.4201916613">
		<tag k="fixme" v="consider natural=peak for the most distinct mountains in the district" />
		<tag k="name" v="Sersjantåsen" />
		<tag k="natural" v="hill" />
		<tag k="place" v="locality" />
		<tag k="ssr:stedsnr" v="163396" />
	</node>
	<node id="-28509" lat="59.7854472251" lon="11.7933722226">
		<tag k="fixme" v="consider natural=peak for the most distinct mountains in the district" />
		<tag k="name" v="Rognliheia" />
		<tag k="natural" v="hill" />
		<tag k="place" v="locality" />
		<tag k="ssr:stedsnr" v="187411" />
	</node>
	<node id="-30556" lat="59.822522226" lon="11.3712000045">
		<tag k="fixme" v="consider natural=peak for the most distinct mountains in the district" />
		<tag k="name" v="Sletneråsen" />
		<tag k="natural" v="hill" />
		<tag k="place" v="locality" />
		<tag k="ssr:stedsnr" v="787860" />
	</node>
	<node id="-28504" lat="59.8266361095" lon="11.4694249963">
		<tag k="name" v="Gravtjennhøgda" />
		<tag k="natural" v="hill" />
		<tag k="place" v="locality" />
		<tag k="ssr:stedsnr" v="187298" />
	</node>
	<node id="-30550" lat="59.8105777777" lon="11.757216671">
		<tag k="name" v="Aurtjenndalen" />
		<tag k="natural" v="valley" />
		<tag k="place" v="locality" />
		<tag k="ssr:stedsnr" v="787589" />
	</node>
	<node id="-30548" lat="59.853286109" lon="11.4934611126">
		<tag k="name" v="Djupedalen" />
		<tag k="natural" v="valley" />
		<tag k="place" v="locality" />
		<tag k="ssr:stedsnr" v="787569" />
	</node>
	<node id="-28498" lat="59.8055611147" lon="11.7543249981">
		<tag k="name" v="Fuglekollen" />
		<tag k="natural" v="hill" />
		<tag k="place" v="locality" />
		<tag k="ssr:stedsnr" v="187239" />
	</node>
	<node id="-28496" lat="59.8836888922" lon="11.612888885">
		<tag k="fixme" v="consider natural=peak for the most distinct mountains in the district" />
		<tag k="name" v="Langfallåsen" />
		<tag k="natural" v="hill" />
		<tag k="place" v="locality" />
		<tag k="ssr:stedsnr" v="187212" />
	</node>
	<node id="-30540" lat="59.9279555541" lon="11.7750138876">
		<tag k="name" v="Stordalen" />
		<tag k="natural" v="valley" />
		<tag k="place" v="locality" />
		<tag k="ssr:stedsnr" v="787402" />
	</node>
	<node id="-30538" lat="59.9484666639" lon="11.758816666">
		<tag k="name" v="Korpeberget" />
		<tag k="natural" v="hill" />
		<tag k="place" v="locality" />
		<tag k="ssr:stedsnr" v="787383" />
	</node>
	<node id="-30536" lat="59.9671777818" lon="11.7879722289">
		<tag k="name" v="Roparhella" />
		<tag k="place" v="locality" />
		<tag k="ssr:stedsnr" v="787367" />
	</node>
	<node id="-28300" lat="59.8667305536" lon="11.5972833262">
		<tag k="name" v="Adventdalen" />
		<tag k="natural" v="valley" />
		<tag k="place" v="locality" />
		<tag k="ssr:stedsnr" v="162883" />
	</node>
	<node id="-30532" lat="59.8631638918" lon="11.6947583311">
		<tag k="fixme" v="consider natural=peak for the most distinct mountains in the district" />
		<tag k="name" v="Igletjennknatten" />
		<tag k="natural" v="hill" />
		<tag k="place" v="locality" />
		<tag k="ssr:stedsnr" v="787240" />
	</node>
	<node id="-27275" lat="59.9339611143" lon="11.784180561">
		<tag k="name" v="Mangtjennlia" />
		<tag k="natural" v="slope" />
		<tag k="place" v="locality" />
		<tag k="ssr:stedsnr" v="362427" />
	</node>
	<node id="-30528" lat="59.9761638853" lon="11.5826944475">
		<tag k="name" v="Knølldalen" />
		<tag k="natural" v="valley" />
		<tag k="place" v="locality" />
		<tag k="ssr:stedsnr" v="787134" />
	</node>
	<node id="-30527" lat="59.9785472206" lon="11.5788305582">
		<tag k="name" v="Vesleknatten" />
		<tag k="natural" v="hill" />
		<tag k="place" v="locality" />
		<tag k="ssr:stedsnr" v="787128" />
	</node>
	<node id="-30526" lat="59.8765138896" lon="11.3841416649">
		<tag k="name" v="Gurihøldalen" />
		<tag k="natural" v="valley" />
		<tag k="place" v="locality" />
		<tag k="ssr:stedsnr" v="787046" />
	</node>
	<node id="-30525" lat="59.8879111076" lon="11.3381416657">
		<tag k="fixme" v="consider natural=peak for the most distinct mountains in the district" />
		<tag k="name" v="Ringkollen" />
		<tag k="natural" v="hill" />
		<tag k="place" v="locality" />
		<tag k="ssr:stedsnr" v="787044" />
	</node>
	<node id="-26932" lat="59.8840416692" lon="11.4043055563">
		<tag k="name" v="Svarttjennlia" />
		<tag k="natural" v="slope" />
		<tag k="place" v="locality" />
		<tag k="ssr:stedsnr" v="57343" />
	</node>
	<node id="-30518" lat="59.6080027759" lon="11.5201972285">
		<tag k="fixme" v="consider natural=peak for the most distinct mountains in the district" />
		<tag k="name" v="Korpeskallen" />
		<tag k="natural" v="hill" />
		<tag k="place" v="locality" />
		<tag k="ssr:stedsnr" v="786569" />
	</node>
	<node id="-28638" lat="59.770605554" lon="11.7532583279">
		<tag k="name" v="Lauvhauga" />
		<tag k="natural" v="hill" />
		<tag k="place" v="locality" />
		<tag k="ssr:stedsnr" v="239104" />
	</node>
	<node id="-30514" lat="59.746524996" lon="11.6952888821">
		<tag k="name" v="Grevlingkulknatten" />
		<tag k="natural" v="hill" />
		<tag k="place" v="locality" />
		<tag k="ssr:stedsnr" v="786469" />
	</node>
	<node id="-28908" lat="59.7306805545" lon="11.6121944437">
		<tag k="name" v="Veatorget" />
		<tag k="place" v="locality" />
		<tag k="ssr:stedsnr" v="428587" />
	</node>
	<node id="-28456" lat="59.7994749985" lon="11.7810416678">
		<tag k="alt_name" v="Knatten, vestre" />
		<tag k="fixme" v="multiple name tags, choose one and add the other to alt_name; consider natural=peak for the most distinct mountains in the district" />
		<tag k="name" v="Vestre Sjurtjennknatten;Vestre Knatten" />
		<tag k="natural" v="hill" />
		<tag k="place" v="locality" />
		<tag k="ssr:stedsnr" v="186542" />
	</node>
	<node id="-30503" lat="59.9349972197" lon="11.6327694492">
		<tag k="alt_name" v="Rundelen" />
		<tag k="name" v="Runddelen" />
		<tag k="natural" v="hill" />
		<tag k="place" v="locality" />
		<tag k="ssr:stedsnr" v="785814" />
	</node>
	<node id="-30502" lat="59.9174361069" lon="11.6869722302">
		<tag k="name" v="Elgtjenndalen" />
		<tag k="natural" v="valley" />
		<tag k="place" v="locality" />
		<tag k="ssr:stedsnr" v="785754" />
	</node>
	<node id="-30498" lat="59.844266666" lon="11.340880563">
		<tag k="fixme" v="consider natural=peak for the most distinct mountains in the district" />
		<tag k="name" v="Rognåsen" />
		<tag k="natural" v="hill" />
		<tag k="place" v="locality" />
		<tag k="ssr:stedsnr" v="785607" />
	</node>
	<node id="-30489" lat="59.8240916623" lon="11.5927833317">
		<tag k="fixme" v="consider natural=peak for the most distinct mountains in the district" />
		<tag k="name" v="Ormetjennåsen" />
		<tag k="natural" v="hill" />
		<tag k="place" v="locality" />
		<tag k="ssr:stedsnr" v="785379" />
	</node>
	<node id="-28440" lat="59.6810750044" lon="11.6268250083">
		<tag k="name" v="Kløvhøgda" />
		<tag k="natural" v="hill" />
		<tag k="place" v="locality" />
		<tag k="ssr:stedsnr" v="186353" />
	</node>
	<node id="-30487" lat="59.9003527817" lon="11.401533331">
		<tag k="fixme" v="consider natural=peak for the most distinct mountains in the district" />
		<tag k="name" v="Reveberget" />
		<tag k="natural" v="hill" />
		<tag k="place" v="locality" />
		<tag k="ssr:stedsnr" v="785249" />
	</node>
	<node id="-30486" lat="59.8866916647" lon="11.3851027782">
		<tag k="name" v="Tverrtjenndalen" />
		<tag k="natural" v="valley" />
		<tag k="place" v="locality" />
		<tag k="ssr:stedsnr" v="785247" />
	</node>
	<node id="-28437" lat="59.9032416707" lon="11.6304138915">
		<tag k="alt_name" v="Sleppehøgda" />
		<tag k="name" v="Slepphøgda" />
		<tag k="natural" v="hill" />
		<tag k="place" v="locality" />
		<tag k="ssr:stedsnr" v="186217" />
	</node>
	<node id="-30484" lat="59.8892083368" lon="11.3741111128">
		<tag k="name" v="Tverrtjennhaugene" />
		<tag k="natural" v="hill" />
		<tag k="place" v="locality" />
		<tag k="ssr:stedsnr" v="785241" />
	</node>
	<node id="-30483" lat="59.9339083357" lon="11.7170583312">
		<tag k="name" v="Garsjødalen" />
		<tag k="natural" v="valley" />
		<tag k="place" v="locality" />
		<tag k="ssr:stedsnr" v="785237" />
	</node>
	<node id="-27267" lat="59.8461805586" lon="11.7413972276">
		<tag k="fixme" v="consider natural=peak for the most distinct mountains in the district" />
		<tag k="name" v="Vesle Bjønnvassheia" />
		<tag k="natural" v="hill" />
		<tag k="place" v="locality" />
		<tag k="ssr:stedsnr" v="362184" />
	</node>
	<node id="-30478" lat="59.9483805537" lon="11.5793333307">
		<tag k="name" v="Langfossbakken" />
		<tag k="natural" v="slope" />
		<tag k="place" v="locality" />
		<tag k="ssr:stedsnr" v="784391" />
	</node>
	<node id="-30477" lat="59.9448277806" lon="11.6362361088">
		<tag k="name" v="Butjennholmen" />
		<tag k="place" v="locality" />
		<tag k="ssr:stedsnr" v="784332" />
	</node>
	<node id="-30476" lat="59.9568055518" lon="11.5839111158">
		<tag k="name" v="Kallebråtadalen" />
		<tag k="natural" v="valley" />
		<tag k="place" v="locality" />
		<tag k="ssr:stedsnr" v="784280" />
	</node>
	<node id="-30473" lat="59.7925111116" lon="11.4262500054">
		<tag k="fixme" v="consider natural=peak for the most distinct mountains in the district" />
		<tag k="name" v="Støvinåsen" />
		<tag k="natural" v="hill" />
		<tag k="place" v="locality" />
		<tag k="ssr:stedsnr" v="783974" />
	</node>
	<node id="-30471" lat="59.8030166661" lon="11.7349972276">
		<tag k="name" v="Morttjenndalen" />
		<tag k="natural" v="valley" />
		<tag k="place" v="locality" />
		<tag k="ssr:stedsnr" v="783692" />
	</node>
	<node id="-30469" lat="59.7922888875" lon="11.820580547">
		<tag k="name" v="Langliene" />
		<tag k="natural" v="slope" />
		<tag k="place" v="locality" />
		<tag k="ssr:stedsnr" v="783416" />
	</node>
	<node id="-30468" lat="59.7882555557" lon="11.8133055535">
		<tag k="name" v="Delingsdalen" />
		<tag k="natural" v="valley" />
		<tag k="place" v="locality" />
		<tag k="ssr:stedsnr" v="783412" />
	</node>
	<node id="-28416" lat="59.847363893" lon="11.7247277704">
		<tag k="name" v="Tangemoen" />
		<tag k="place" v="locality" />
		<tag k="ssr:stedsnr" v="181185" />
	</node>
	<node id="-28414" lat="59.8409666652" lon="11.7290055548">
		<tag k="name" v="Morttjenndalen" />
		<tag k="natural" v="valley" />
		<tag k="place" v="locality" />
		<tag k="ssr:stedsnr" v="181180" />
	</node>
	<node id="-28412" lat="59.7904000033" lon="11.3820000028">
		<tag k="fixme" v="consider natural=peak for the most distinct mountains in the district" />
		<tag k="name" v="Skårerhøgda" />
		<tag k="natural" v="hill" />
		<tag k="place" v="locality" />
		<tag k="ssr:stedsnr" v="180873" />
	</node>
	<node id="-30459" lat="59.7888999957" lon="11.5452750021">
		<tag k="name" v="Sagdalen" />
		<tag k="natural" v="valley" />
		<tag k="place" v="locality" />
		<tag k="ssr:stedsnr" v="793491" />
	</node>
	<node id="-28403" lat="59.6622444447" lon="11.5302000046">
		<tag k="name" v="Torkildsdalen" />
		<tag k="natural" v="valley" />
		<tag k="place" v="locality" />
		<tag k="ssr:stedsnr" v="180678" />
	</node>
	<node id="-28398" lat="59.9337138874" lon="11.6241277696">
		<tag k="name" v="Gammelsæterdalen" />
		<tag k="natural" v="valley" />
		<tag k="place" v="locality" />
		<tag k="ssr:stedsnr" v="180582" />
	</node>
	<node id="-28397" lat="59.8189166638" lon="11.7614749961">
		<tag k="name" v="Nisseåsen" />
		<tag k="natural" v="hill" />
		<tag k="place" v="locality" />
		<tag k="ssr:stedsnr" v="180578" />
	</node>
	<node id="-28967" lat="59.7245888894" lon="11.4336666589">
		<tag k="alt_name" v="Katrineberget" />
		<tag k="fixme" v="consider natural=peak for the most distinct mountains in the district" />
		<tag k="name" v="Torpåsen" />
		<tag k="natural" v="hill" />
		<tag k="place" v="locality" />
		<tag k="ssr:stedsnr" v="429865" />
	</node>
	<node id="-30440" lat="59.9081166632" lon="11.6875416682">
		<tag k="fixme" v="consider natural=peak for the most distinct mountains in the district" />
		<tag k="name" v="Blekketjennhøgda" />
		<tag k="natural" v="hill" />
		<tag k="place" v="locality" />
		<tag k="ssr:stedsnr" v="770791" />
	</node>
	<node id="-30437" lat="59.8403527772" lon="11.5905500046">
		<tag k="fixme" v="consider natural=peak for the most distinct mountains in the district" />
		<tag k="name" v="Rundåsen" />
		<tag k="natural" v="hill" />
		<tag k="place" v="locality" />
		<tag k="ssr:stedsnr" v="770759" />
	</node>
	<node id="-30435" lat="59.8700499973" lon="11.4000972178">
		<tag k="name" v="Tonslia" />
		<tag k="natural" v="slope" />
		<tag k="place" v="locality" />
		<tag k="ssr:stedsnr" v="770726" />
	</node>
	<node id="-28382" lat="59.8661777752" lon="11.6622527815">
		<tag k="name" v="Brenndalen" />
		<tag k="natural" v="valley" />
		<tag k="place" v="locality" />
		<tag k="ssr:stedsnr" v="180260" />
	</node>
	<node id="-28380" lat="59.8655083366" lon="11.7998388855">
		<tag k="fixme" v="consider natural=peak for the most distinct mountains in the district" />
		<tag k="name" v="Orremåsahøgda" />
		<tag k="natural" v="hill" />
		<tag k="place" v="locality" />
		<tag k="ssr:stedsnr" v="180195" />
	</node>
	<node id="-30425" lat="59.8405166673" lon="11.7471805571">
		<tag k="name" v="Halvardsvikdalen" />
		<tag k="natural" v="valley" />
		<tag k="place" v="locality" />
		<tag k="ssr:stedsnr" v="770236" />
	</node>
	<node id="-30423" lat="59.9033805593" lon="11.4623972247">
		<tag k="fixme" v="consider natural=peak for the most distinct mountains in the district" />
		<tag k="name" v="Dreierudåsen" />
		<tag k="natural" v="hill" />
		<tag k="place" v="locality" />
		<tag k="ssr:stedsnr" v="769442" />
	</node>
	<node id="-28371" lat="59.8842277764" lon="11.3748444449">
		<tag k="name" v="Tverrtjennlia" />
		<tag k="natural" v="slope" />
		<tag k="place" v="locality" />
		<tag k="ssr:stedsnr" v="180037" />
	</node>
	<node id="-28370" lat="59.8790944487" lon="11.3923861123">
		<tag k="name" v="Hvileberget" />
		<tag k="natural" v="hill" />
		<tag k="place" v="locality" />
		<tag k="ssr:stedsnr" v="180032" />
	</node>
	<node id="-30416" lat="59.9099499977" lon="11.6147555586">
		<tag k="name" v="Fossumåsen" />
		<tag k="natural" v="hill" />
		<tag k="place" v="locality" />
		<tag k="ssr:stedsnr" v="769101" />
	</node>
	<node id="-28962" lat="59.7971805549" lon="11.3722333259">
		<tag k="alt_name" v="Monsedalen" />
		<tag k="name" v="Monsdalen" />
		<tag k="natural" v="valley" />
		<tag k="place" v="locality" />
		<tag k="ssr:stedsnr" v="429829" />
	</node>
	<node id="-28360" lat="59.7492805577" lon="11.5562027693">
		<tag k="name" v="Delingsdalen" />
		<tag k="natural" v="valley" />
		<tag k="place" v="locality" />
		<tag k="ssr:stedsnr" v="179442" />
	</node>
	<node id="-28354" lat="59.9089166697" lon="11.3983777851">
		<tag k="name" v="Persbråtadalen" />
		<tag k="natural" v="valley" />
		<tag k="place" v="locality" />
		<tag k="ssr:stedsnr" v="179305" />
	</node>
	<node id="-30400" lat="59.9751861153" lon="11.5613805489">
		<tag k="name" v="Jønsoklia" />
		<tag k="natural" v="slope" />
		<tag k="place" v="locality" />
		<tag k="ssr:stedsnr" v="768019" />
	</node>
	<node id="-30399" lat="59.9754666652" lon="11.5325083335">
		<tag k="name" v="Kudalen" />
		<tag k="natural" v="valley" />
		<tag k="place" v="locality" />
		<tag k="ssr:stedsnr" v="768012" />
	</node>
	<node id="-30389" lat="59.9842777817" lon="11.7229444385">
		<tag k="fixme" v="consider natural=peak for the most distinct mountains in the district" />
		<tag k="name" v="Klemetsrudåsen" />
		<tag k="natural" v="hill" />
		<tag k="place" v="locality" />
		<tag k="ssr:stedsnr" v="767666" />
	</node>
	<node id="-28340" lat="59.8046138867" lon="11.7025833405">
		<tag k="fixme" v="consider natural=peak for the most distinct mountains in the district" />
		<tag k="name" v="Sæteråsen" />
		<tag k="natural" v="hill" />
		<tag k="place" v="locality" />
		<tag k="ssr:stedsnr" v="177750" />
	</node>
	<node id="-30387" lat="59.9957249961" lon="11.6248444387">
		<tag k="name" v="Kjølholmen" />
		<tag k="natural" v="ridge" />
		<tag k="place" v="locality" />
		<tag k="ssr:stedsnr" v="767658" />
	</node>
	<node id="-28335" lat="59.8747000007" lon="11.6606638915">
		<tag k="fixme" v="consider natural=peak for the most distinct mountains in the district" />
		<tag k="name" v="Høltjennåsen" />
		<tag k="natural" v="hill" />
		<tag k="place" v="locality" />
		<tag k="ssr:stedsnr" v="177608" />
	</node>
	<node id="-30380" lat="59.9824472216" lon="11.5852111122">
		<tag k="name" v="Rogndalen" />
		<tag k="natural" v="valley" />
		<tag k="place" v="locality" />
		<tag k="ssr:stedsnr" v="767566" />
	</node>
	<node id="-28330" lat="59.9555666704" lon="11.6307666739">
		<tag k="fixme" v="consider natural=peak for the most distinct mountains in the district" />
		<tag k="name" v="Gamlevanghøgda" />
		<tag k="natural" v="hill" />
		<tag k="place" v="locality" />
		<tag k="ssr:stedsnr" v="177254" />
	</node>
	<node id="-28329" lat="59.954272225" lon="11.6177111041">
		<tag k="fixme" v="consider natural=peak for the most distinct mountains in the district" />
		<tag k="name" v="Roligheta" />
		<tag k="natural" v="hill" />
		<tag k="place" v="locality" />
		<tag k="ssr:stedsnr" v="177249" />
	</node>
	<node id="-30131" lat="59.9522804067" lon="11.6424911205">
		<tag k="fixme" v="consider natural=peak for the most distinct mountains in the district" />
		<tag k="name" v="Vestre Ringkollhøgda" />
		<tag k="natural" v="hill" />
		<tag k="place" v="locality" />
		<tag k="ssr:stedsnr" v="708025" />
	</node>
	<node id="-27929" lat="59.8899333317" lon="11.3586444413">
		<tag k="fixme" v="consider natural=peak for the most distinct mountains in the district" />
		<tag k="name" v="Trøkkpå" />
		<tag k="natural" v="hill" />
		<tag k="place" v="locality" />
		<tag k="ssr:stedsnr" v="65657" />
	</node>
	<node id="-30353" lat="59.8381138915" lon="11.3717166727">
		<tag k="name" v="Larsbråtahøgda" />
		<tag k="natural" v="hill" />
		<tag k="place" v="locality" />
		<tag k="ssr:stedsnr" v="733734" />
	</node>
	<node id="-30352" lat="59.856850003" lon="11.405536113">
		<tag k="fixme" v="consider natural=peak for the most distinct mountains in the district" />
		<tag k="name" v="Langfosshøgda" />
		<tag k="natural" v="hill" />
		<tag k="place" v="locality" />
		<tag k="ssr:stedsnr" v="733704" />
	</node>
	<node id="-28303" lat="59.9067194444" lon="11.4958583297">
		<tag k="name" v="Smaldalen" />
		<tag k="natural" v="valley" />
		<tag k="place" v="locality" />
		<tag k="ssr:stedsnr" v="163392" />
	</node>
	<node id="-28301" lat="59.9063305547" lon="11.547700007">
		<tag k="name" v="Kvennesdalen" />
		<tag k="natural" v="valley" />
		<tag k="place" v="locality" />
		<tag k="ssr:stedsnr" v="163089" />
	</node>
	<node id="-30348" lat="59.894641669" lon="11.6101027748">
		<tag k="fixme" v="multiple name tags, choose one and add the other to alt_name; consider natural=peak for the most distinct mountains in the district" />
		<tag k="name" v="Bergerudåsen;Høgåsen" />
		<tag k="natural" v="hill" />
		<tag k="place" v="locality" />
		<tag k="ssr:stedsnr" v="733511" />
	</node>
	<node id="-26925" lat="59.919169444" lon="11.6617555538">
		<tag k="name" v="Kjøldalen" />
		<tag k="natural" v="valley" />
		<tag k="place" v="locality" />
		<tag k="ssr:stedsnr" v="300649" />
	</node>
	<node id="-28297" lat="59.962877779" lon="11.718122219">
		<tag k="name" v="Langmyrliene" />
		<tag k="natural" v="slope" />
		<tag k="place" v="locality" />
		<tag k="ssr:stedsnr" v="162286" />
	</node>
	<node id="-28291" lat="60.0181916705" lon="11.5451444447">
		<tag k="fixme" v="consider natural=peak for the most distinct mountains in the district" />
		<tag k="name" v="Djuptjennhøgda" />
		<tag k="natural" v="hill" />
		<tag k="place" v="locality" />
		<tag k="ssr:stedsnr" v="161780" />
	</node>
	<node id="-30337" lat="59.9747916681" lon="11.4280499931">
		<tag k="fixme" v="multiple name tags, choose one and add the other to alt_name; consider natural=peak for the most distinct mountains in the district" />
		<tag k="name" v="Gunhildrudhøgda;Fjuktjennhøgda" />
		<tag k="natural" v="hill" />
		<tag k="place" v="locality" />
		<tag k="ssr:stedsnr" v="733416" />
	</node>
	<node id="-28284" lat="60.0019888889" lon="11.5300499912">
		<tag k="name" v="Ulvikdalen" />
		<tag k="natural" v="valley" />
		<tag k="place" v="locality" />
		<tag k="ssr:stedsnr" v="161541" />
	</node>
	<node id="-30330" lat="59.7698138932" lon="11.5632222208">
		<tag k="name" v="Vardehøgda" />
		<tag k="natural" v="hill" />
		<tag k="place" v="locality" />
		<tag k="ssr:stedsnr" v="733392" />
	</node>
	<node id="-28281" lat="59.7887305519" lon="11.6040999925">
		<tag k="name" v="Brudalen" />
		<tag k="natural" v="valley" />
		<tag k="place" v="locality" />
		<tag k="ssr:stedsnr" v="161206" />
	</node>
	<node id="-28277" lat="59.7993138908" lon="11.7548416628">
		<tag k="name" v="Langedal" />
		<tag k="natural" v="valley" />
		<tag k="place" v="locality" />
		<tag k="ssr:stedsnr" v="161095" />
	</node>
	<node id="-28274" lat="59.9640222222" lon="11.4680083376">
		<tag k="fixme" v="consider natural=peak for the most distinct mountains in the district" />
		<tag k="name" v="Korpåsen" />
		<tag k="natural" v="hill" />
		<tag k="place" v="locality" />
		<tag k="ssr:stedsnr" v="161009" />
	</node>
	<node id="-28273" lat="59.9720222196" lon="11.4594999958">
		<tag k="name" v="Vardalen" />
		<tag k="natural" v="valley" />
		<tag k="place" v="locality" />
		<tag k="ssr:stedsnr" v="161002" />
	</node>
	<node id="-28270" lat="59.9869694463" lon="11.5611055543">
		<tag k="fixme" v="consider natural=peak for the most distinct mountains in the district" />
		<tag k="name" v="Rundtjennhøgda" />
		<tag k="natural" v="hill" />
		<tag k="place" v="locality" />
		<tag k="ssr:stedsnr" v="161603" />
	</node>
	<node id="-30315" lat="59.9492555536" lon="11.731730556">
		<tag k="fixme" v="multiple name tags, choose one and add the other to alt_name; consider natural=peak for the most distinct mountains in the district" />
		<tag k="name" v="Gjøkåsen;Vålåsbrenna" />
		<tag k="natural" v="hill" />
		<tag k="place" v="locality" />
		<tag k="ssr:stedsnr" v="733138" />
	</node>
	<node id="-28264" lat="59.7117305519" lon="11.3820555465">
		<tag k="name" v="Stordalen" />
		<tag k="natural" v="valley" />
		<tag k="place" v="locality" />
		<tag k="ssr:stedsnr" v="143179" />
	</node>
	<node id="-28603" lat="59.8472888867" lon="11.4545194502">
		<tag k="name" v="Langvannsdalen" />
		<tag k="natural" v="valley" />
		<tag k="place" v="locality" />
		<tag k="ssr:stedsnr" v="224822" />
	</node>
	<node id="-30298" lat="59.9177749985" lon="11.6178749994">
		<tag k="name" v="Framlia" />
		<tag k="natural" v="slope" />
		<tag k="place" v="locality" />
		<tag k="ssr:stedsnr" v="733004" />
	</node>
	<node id="-30296" lat="59.9855722229" lon="11.578461104">
		<tag k="name" v="Flaenshaugen" />
		<tag k="natural" v="hill" />
		<tag k="place" v="locality" />
		<tag k="ssr:stedsnr" v="732990" />
	</node>
	<node id="-30286" lat="59.8963527737" lon="11.3548444368">
		<tag k="alt_name" v="Søljedalen" />
		<tag k="name" v="Søljudalen" />
		<tag k="natural" v="valley" />
		<tag k="place" v="locality" />
		<tag k="ssr:stedsnr" v="732683" />
	</node>
	<node id="-26948" lat="59.6725083378" lon="11.5276499935">
		<tag k="fixme" v="consider natural=peak for the most distinct mountains in the district" />
		<tag k="name" v="Torvmyrtoppen" />
		<tag k="natural" v="hill" />
		<tag k="place" v="locality" />
		<tag k="ssr:stedsnr" v="301407" />
	</node>
	<node id="-28234" lat="59.9765194459" lon="11.4543861076">
		<tag k="fixme" v="consider natural=peak for the most distinct mountains in the district" />
		<tag k="name" v="Gåsebrenna" />
		<tag k="natural" v="hill" />
		<tag k="place" v="locality" />
		<tag k="ssr:stedsnr" v="126450" />
	</node>
	<node id="-28231" lat="59.7701138913" lon="11.6575722276">
		<tag k="fixme" v="consider natural=peak for the most distinct mountains in the district" />
		<tag k="name" v="Piperhjell" />
		<tag k="natural" v="hill" />
		<tag k="place" v="locality" />
		<tag k="ssr:stedsnr" v="126428" />
	</node>
	<node id="-28230" lat="59.7708277811" lon="11.6975166687">
		<tag k="name" v="Gaupetjennhøgda" />
		<tag k="natural" v="hill" />
		<tag k="place" v="locality" />
		<tag k="ssr:stedsnr" v="126427" />
	</node>
	<node id="-28257" lat="59.9755166706" lon="11.7680361118">
		<tag k="alt_name" v="Mangknollen" />
		<tag k="fixme" v="multiple name tags, choose one and add the other to alt_name; consider natural=peak for the most distinct mountains in the district" />
		<tag k="name" v="Knollen;Mangeknatten" />
		<tag k="natural" v="hill" />
		<tag k="place" v="locality" />
		<tag k="ssr:stedsnr" v="126993" />
	</node>
	<node id="-26891" lat="59.8023611146" lon="11.7376361113">
		<tag k="name" v="Morttjennlia" />
		<tag k="natural" v="slope" />
		<tag k="place" v="locality" />
		<tag k="ssr:stedsnr" v="298699" />
	</node>
	<node id="-28221" lat="59.8876277797" lon="11.5139305487">
		<tag k="alt_name" v="Oredalen" />
		<tag k="name" v="Åredalen" />
		<tag k="natural" v="valley" />
		<tag k="place" v="locality" />
		<tag k="ssr:stedsnr" v="126186" />
	</node>
	<node id="-30265" lat="59.8817944469" lon="11.7741277732">
		<tag k="alt_name" v="Røytjennkollen" />
		<tag k="fixme" v="consider natural=peak for the most distinct mountains in the district" />
		<tag k="name" v="Røytjennskollen" />
		<tag k="natural" v="hill" />
		<tag k="place" v="locality" />
		<tag k="ssr:stedsnr" v="732226" />
	</node>
	<node id="-30254" lat="59.913683337" lon="11.3657500039">
		<tag k="name" v="Nauttjennåsen" />
		<tag k="natural" v="hill" />
		<tag k="place" v="locality" />
		<tag k="ssr:stedsnr" v="727472" />
	</node>
	<node id="-28205" lat="59.936091664" lon="11.771824992">
		<tag k="fixme" v="consider natural=peak for the most distinct mountains in the district" />
		<tag k="name" v="Lustjennåsen" />
		<tag k="natural" v="hill" />
		<tag k="place" v="locality" />
		<tag k="ssr:stedsnr" v="126086" />
	</node>
	<node id="-28204" lat="59.9359250013" lon="11.5347999966">
		<tag k="fixme" v="consider natural=peak for the most distinct mountains in the district" />
		<tag k="name" v="Dingsrudåsen" />
		<tag k="natural" v="hill" />
		<tag k="place" v="locality" />
		<tag k="ssr:stedsnr" v="126079" />
	</node>
	<node id="-30250" lat="59.8314333363" lon="11.719124993">
		<tag k="name" v="Ringstadlia" />
		<tag k="natural" v="slope" />
		<tag k="place" v="locality" />
		<tag k="ssr:stedsnr" v="727221" />
	</node>
	<node id="-28201" lat="59.9290638856" lon="11.7774333281">
		<tag k="name" v="Gravdalen" />
		<tag k="natural" v="valley" />
		<tag k="place" v="locality" />
		<tag k="ssr:stedsnr" v="126032" />
	</node>
	<node id="-30248" lat="59.8437638857" lon="11.7444833293">
		<tag k="name" v="Bukkelihøgda" />
		<tag k="natural" v="hill" />
		<tag k="place" v="locality" />
		<tag k="ssr:stedsnr" v="727188" />
	</node>
	<node id="-28197" lat="59.8610416644" lon="11.697991662">
		<tag k="name" v="Lidalen" />
		<tag k="natural" v="valley" />
		<tag k="place" v="locality" />
		<tag k="ssr:stedsnr" v="126126" />
	</node>
	<node id="-28187" lat="59.819480556" lon="11.4132388828">
		<tag k="fixme" v="consider natural=peak for the most distinct mountains in the district" />
		<tag k="name" v="Lunderåsen" />
		<tag k="natural" v="hill" />
		<tag k="place" v="locality" />
		<tag k="ssr:stedsnr" v="125777" />
	</node>
	<node id="-28183" lat="59.81558056" lon="11.3844027795">
		<tag k="fixme" v="consider natural=peak for the most distinct mountains in the district" />
		<tag k="name" v="Moåsen" />
		<tag k="natural" v="hill" />
		<tag k="place" v="locality" />
		<tag k="ssr:stedsnr" v="125823" />
	</node>
	<node id="-30225" lat="59.8256388888" lon="11.6203111121">
		<tag k="fixme" v="consider natural=peak for the most distinct mountains in the district" />
		<tag k="name" v="Lintjennåsen" />
		<tag k="natural" v="hill" />
		<tag k="place" v="locality" />
		<tag k="ssr:stedsnr" v="726415" />
	</node>
	<node id="-30218" lat="59.9711944415" lon="11.609280563">
		<tag k="name" v="Trandumtjenndalen" />
		<tag k="natural" v="valley" />
		<tag k="place" v="locality" />
		<tag k="ssr:stedsnr" v="726122" />
	</node>
	<node id="-30215" lat="59.7831722195" lon="11.6525694428">
		<tag k="fixme" v="consider natural=peak for the most distinct mountains in the district" />
		<tag k="name" v="Vikaåsen" />
		<tag k="natural" v="hill" />
		<tag k="place" v="locality" />
		<tag k="ssr:stedsnr" v="725889" />
	</node>
	<node id="-26880" lat="60.0078138889" lon="11.6845444403">
		<tag k="fixme" v="consider natural=peak for the most distinct mountains in the district" />
		<tag k="name" v="Strømsæterhøgda" />
		<tag k="natural" v="hill" />
		<tag k="place" v="locality" />
		<tag k="ssr:stedsnr" v="298055" />
	</node>
	<node id="-28157" lat="59.874613888" lon="11.4782083319">
		<tag k="name" v="Knollsæterdalen" />
		<tag k="natural" v="valley" />
		<tag k="place" v="locality" />
		<tag k="ssr:stedsnr" v="125230" />
	</node>
	<node id="-30203" lat="59.9010750041" lon="11.3490277715">
		<tag k="fixme" v="consider natural=peak for the most distinct mountains in the district" />
		<tag k="name" v="Sloraåsen" />
		<tag k="natural" v="hill" />
		<tag k="place" v="locality" />
		<tag k="ssr:stedsnr" v="725280" />
	</node>
	<node id="-30199" lat="59.8850361157" lon="11.4358166582">
		<tag k="name" v="Lammedalen" />
		<tag k="natural" v="valley" />
		<tag k="place" v="locality" />
		<tag k="ssr:stedsnr" v="725254" />
	</node>
	<node id="-30198" lat="59.9011861072" lon="11.366436106">
		<tag k="name" v="Mærradalen" />
		<tag k="natural" v="valley" />
		<tag k="place" v="locality" />
		<tag k="ssr:stedsnr" v="725253" />
	</node>
	<node id="-28148" lat="59.797533336" lon="11.3636833404">
		<tag k="name" v="Bikkjedalen" />
		<tag k="natural" v="valley" />
		<tag k="place" v="locality" />
		<tag k="ssr:stedsnr" v="120862" />
	</node>
	<node id="-30194" lat="59.9089722218" lon="11.3383722217">
		<tag k="fixme" v="consider natural=peak for the most distinct mountains in the district" />
		<tag k="name" v="Morttjennåsen" />
		<tag k="natural" v="hill" />
		<tag k="place" v="locality" />
		<tag k="ssr:stedsnr" v="725238" />
	</node>
	<node id="-30192" lat="59.7757833335" lon="11.5909777816">
		<tag k="name" v="Midtfjelldalen" />
		<tag k="natural" v="valley" />
		<tag k="place" v="locality" />
		<tag k="ssr:stedsnr" v="724671" />
	</node>
	<node id="-30191" lat="59.8501805581" lon="11.376255549">
		<tag k="fixme" v="consider natural=peak for the most distinct mountains in the district" />
		<tag k="name" v="Slorahøgda" />
		<tag k="natural" v="hill" />
		<tag k="place" v="locality" />
		<tag k="ssr:stedsnr" v="724626" />
	</node>
	<node id="-28138" lat="59.9677722187" lon="11.670727781">
		<tag k="name" v="Vestre Ormemyrholen" />
		<tag k="natural" v="ridge" />
		<tag k="place" v="locality" />
		<tag k="ssr:stedsnr" v="120155" />
	</node>
	<node id="-28135" lat="59.9665722239" lon="11.59119445">
		<tag k="fixme" v="consider natural=peak for the most distinct mountains in the district" />
		<tag k="name" v="Vivangen" />
		<tag k="natural" v="hill" />
		<tag k="place" v="locality" />
		<tag k="ssr:stedsnr" v="120113" />
	</node>
	<node id="-30182" lat="59.958388887" lon="11.4594027856">
		<tag k="fixme" v="consider natural=peak for the most distinct mountains in the district" />
		<tag k="name" v="Ringmuren" />
		<tag k="natural" v="hill" />
		<tag k="place" v="locality" />
		<tag k="ssr:stedsnr" v="724415" />
	</node>
	<node id="-28133" lat="59.8090166645" lon="11.5074888969">
		<tag k="fixme" v="consider natural=peak for the most distinct mountains in the district" />
		<tag k="name" v="Lemåsen" />
		<tag k="natural" v="hill" />
		<tag k="place" v="locality" />
		<tag k="ssr:stedsnr" v="119942" />
	</node>
	<node id="-27124" lat="59.7128833337" lon="11.5326166667">
		<tag k="fixme" v="consider natural=peak for the most distinct mountains in the district" />
		<tag k="name" v="Kolbergåsen" />
		<tag k="natural" v="hill" />
		<tag k="place" v="locality" />
		<tag k="ssr:stedsnr" v="342722" />
	</node>
	<node id="-28126" lat="59.7354055595" lon="11.624188897">
		<tag k="name" v="Djupedal" />
		<tag k="natural" v="valley" />
		<tag k="place" v="locality" />
		<tag k="ssr:stedsnr" v="119623" />
	</node>
	<node id="-30165" lat="60.0132805582" lon="11.5874388833">
		<tag k="name" v="Badstuovnen" />
		<tag k="place" v="locality" />
		<tag k="ssr:stedsnr" v="722075" />
	</node>
	<node id="-28115" lat="59.9228361123" lon="11.7830138881">
		<tag k="name" v="Bråtabrenndalen" />
		<tag k="natural" v="valley" />
		<tag k="place" v="locality" />
		<tag k="ssr:stedsnr" v="119441" />
	</node>
	<node id="-28112" lat="59.9513388881" lon="11.7768444474">
		<tag k="name" v="Knatteliene" />
		<tag k="natural" v="slope" />
		<tag k="place" v="locality" />
		<tag k="ssr:stedsnr" v="119402" />
	</node>
	<node id="-26912" lat="59.8912555574" lon="11.3890944364">
		<tag k="name" v="Putthøgda" />
		<tag k="natural" v="hill" />
		<tag k="place" v="locality" />
		<tag k="ssr:stedsnr" v="300282" />
	</node>
	<node id="-30153" lat="59.9109444438" lon="11.6735138952">
		<tag k="name" v="Furuliene" />
		<tag k="natural" v="slope" />
		<tag k="place" v="locality" />
		<tag k="ssr:stedsnr" v="709787" />
	</node>
	<node id="-30150" lat="59.9102444438" lon="11.6431527764">
		<tag k="name" v="Lauvdalen" />
		<tag k="natural" v="valley" />
		<tag k="place" v="locality" />
		<tag k="ssr:stedsnr" v="709778" />
	</node>
	<node id="-31107" lat="59.8355472254" lon="11.6298722275">
		<tag k="name" v="Dyntjenndalen" />
		<tag k="natural" v="valley" />
		<tag k="place" v="locality" />
		<tag k="ssr:stedsnr" v="915288" />
	</node>
	<node id="-30146" lat="59.8664333352" lon="11.3617500009">
		<tag k="name" v="Jarsfallet" />
		<tag k="place" v="locality" />
		<tag k="ssr:stedsnr" v="709693" />
	</node>
	<node id="-28097" lat="59.8936333362" lon="11.4560611053">
		<tag k="fixme" v="consider natural=peak for the most distinct mountains in the district" />
		<tag k="name" v="Budikken" />
		<tag k="natural" v="hill" />
		<tag k="place" v="locality" />
		<tag k="ssr:stedsnr" v="118350" />
	</node>
	<node id="-30142" lat="59.9496638894" lon="11.5752583404">
		<tag k="fixme" v="consider natural=peak for the most distinct mountains in the district" />
		<tag k="name" v="Sagåsen" />
		<tag k="natural" v="hill" />
		<tag k="place" v="locality" />
		<tag k="ssr:stedsnr" v="709427" />
	</node>
	<node id="-28093" lat="59.954183336" lon="11.373672223">
		<tag k="name" v="Hekkendalskleiva" />
		<tag k="natural" v="slope" />
		<tag k="place" v="locality" />
		<tag k="ssr:stedsnr" v="118267" />
	</node>
	<node id="-30136" lat="59.9071277738" lon="11.6147666575">
		<tag k="name" v="Morttjenndalen" />
		<tag k="natural" v="valley" />
		<tag k="place" v="locality" />
		<tag k="ssr:stedsnr" v="709120" />
	</node>
	<node id="-28087" lat="59.7619527814" lon="11.5711500055">
		<tag k="name" v="Grofsa" />
		<tag k="natural" v="valley" />
		<tag k="place" v="locality" />
		<tag k="ssr:stedsnr" v="118047" />
	</node>
	<node id="-30133" lat="59.954858332" lon="11.7197222194">
		<tag k="name" v="Puttelia" />
		<tag k="natural" v="slope" />
		<tag k="place" v="locality" />
		<tag k="ssr:stedsnr" v="708918" />
	</node>
	<node id="-28083" lat="59.9582222192" lon="11.413441667">
		<tag k="fixme" v="consider natural=peak for the most distinct mountains in the district" />
		<tag k="name" v="Øståsen" />
		<tag k="natural" v="hill" />
		<tag k="place" v="locality" />
		<tag k="ssr:stedsnr" v="117474" />
	</node>
	<node id="-28082" lat="59.9591083325" lon="11.4370638872">
		<tag k="name" v="Bråtaåsen" />
		<tag k="natural" v="slope" />
		<tag k="place" v="locality" />
		<tag k="ssr:stedsnr" v="117473" />
	</node>
	<node id="-28081" lat="59.9382888912" lon="11.5015444383">
		<tag k="name" v="Badstuåsen" />
		<tag k="natural" v="hill" />
		<tag k="place" v="locality" />
		<tag k="ssr:stedsnr" v="117471" />
	</node>
	<node id="-30128" lat="59.982269446" lon="11.7948888889">
		<tag k="name" v="Hestevadet" />
		<tag k="place" v="locality" />
		<tag k="ssr:stedsnr" v="707981" />
	</node>
	<node id="-28079" lat="59.839627778" lon="11.7260222144">
		<tag k="fixme" v="consider natural=peak for the most distinct mountains in the district" />
		<tag k="name" v="Morttjennåsen" />
		<tag k="natural" v="hill" />
		<tag k="place" v="locality" />
		<tag k="ssr:stedsnr" v="125335" />
	</node>
	<node id="-30124" lat="60.0053888873" lon="11.5119222253">
		<tag k="name" v="Syltemyrliene" />
		<tag k="natural" v="slope" />
		<tag k="place" v="locality" />
		<tag k="ssr:stedsnr" v="707821" />
	</node>
	<node id="-26866" lat="59.842108329" lon="11.6076833375">
		<tag k="name" v="Deledalen" />
		<tag k="natural" v="valley" />
		<tag k="place" v="locality" />
		<tag k="ssr:stedsnr" v="285766" />
	</node>
	<node id="-28070" lat="59.8039805526" lon="11.7696361083">
		<tag k="fixme" v="consider natural=peak for the most distinct mountains in the district" />
		<tag k="name" v="Øvresæteråsen" />
		<tag k="natural" v="hill" />
		<tag k="place" v="locality" />
		<tag k="ssr:stedsnr" v="116408" />
	</node>
	<node id="-28069" lat="59.8048250041" lon="11.7568305558">
		<tag k="name" v="Elgdråga" />
		<tag k="natural" v="valley" />
		<tag k="place" v="locality" />
		<tag k="ssr:stedsnr" v="116407" />
	</node>
	<node id="-28067" lat="59.9491194476" lon="11.6255611152">
		<tag k="fixme" v="consider natural=peak for the most distinct mountains in the district" />
		<tag k="name" v="Bjønnhøgda" />
		<tag k="natural" v="hill" />
		<tag k="place" v="locality" />
		<tag k="ssr:stedsnr" v="116323" />
	</node>
	<node id="-28066" lat="59.950724996" lon="11.610786106">
		<tag k="name" v="Nisseskåpet" />
		<tag k="natural" v="valley" />
		<tag k="place" v="locality" />
		<tag k="ssr:stedsnr" v="116321" />
	</node>
	<node id="-30113" lat="59.9209972228" lon="11.567311113">
		<tag k="name" v="Skanseberget" />
		<tag k="natural" v="hill" />
		<tag k="place" v="locality" />
		<tag k="ssr:stedsnr" v="707612" />
	</node>
	<node id="-27205" lat="59.8700000027" lon="11.5168861157">
		<tag k="name" v="Gøranåsen" />
		<tag k="natural" v="hill" />
		<tag k="place" v="locality" />
		<tag k="ssr:stedsnr" v="358867" />
	</node>
	<node id="-30102" lat="59.9664027797" lon="11.5548222301">
		<tag k="name" v="Østre Gørrtjenndalen" />
		<tag k="natural" v="valley" />
		<tag k="place" v="locality" />
		<tag k="ssr:stedsnr" v="707126" />
	</node>
	<node id="-30101" lat="59.9660166701" lon="11.5524277866">
		<tag k="name" v="Vestre Gørrtjenndalen" />
		<tag k="natural" v="valley" />
		<tag k="place" v="locality" />
		<tag k="ssr:stedsnr" v="707016" />
	</node>
	<node id="-30100" lat="59.9655749964" lon="11.4317694409">
		<tag k="name" v="Gunhildrudhøgda" />
		<tag k="natural" v="hill" />
		<tag k="place" v="locality" />
		<tag k="ssr:stedsnr" v="707013" />
	</node>
	<node id="-28049" lat="59.9553777761" lon="11.4738666667">
		<tag k="fixme" v="consider natural=peak for the most distinct mountains in the district" />
		<tag k="name" v="Balterudåsen" />
		<tag k="natural" v="hill" />
		<tag k="place" v="locality" />
		<tag k="ssr:stedsnr" v="102556" />
	</node>
	<node id="-28048" lat="59.9091499995" lon="11.4641305484">
		<tag k="fixme" v="consider natural=peak for the most distinct mountains in the district" />
		<tag k="name" v="Kantåsen" />
		<tag k="natural" v="hill" />
		<tag k="place" v="locality" />
		<tag k="ssr:stedsnr" v="102520" />
	</node>
	<node id="-30095" lat="59.7159388852" lon="11.4660333305">
		<tag k="fixme" v="consider natural=peak for the most distinct mountains in the district" />
		<tag k="name" v="Slottåsen" />
		<tag k="natural" v="hill" />
		<tag k="place" v="locality" />
		<tag k="ssr:stedsnr" v="706768" />
	</node>
	<node id="-28045" lat="59.900716664" lon="11.4837305503">
		<tag k="fixme" v="consider natural=peak for the most distinct mountains in the district" />
		<tag k="name" v="Signalåsen" />
		<tag k="natural" v="hill" />
		<tag k="place" v="locality" />
		<tag k="ssr:stedsnr" v="102498" />
	</node>
	<node id="-30090" lat="59.6920472264" lon="11.5402305531">
		<tag k="name" v="Åbogdalen" />
		<tag k="natural" v="valley" />
		<tag k="place" v="locality" />
		<tag k="ssr:stedsnr" v="706125" />
	</node>
	<node id="-28040" lat="59.9848555555" lon="11.4669083389">
		<tag k="name" v="Javelsbrudalen" />
		<tag k="natural" v="valley" />
		<tag k="place" v="locality" />
		<tag k="ssr:stedsnr" v="102408" />
	</node>
	<node id="-26860" lat="59.9495138908" lon="11.5787750023">
		<tag k="name" v="Lindalen" />
		<tag k="natural" v="valley" />
		<tag k="place" v="locality" />
		<tag k="ssr:stedsnr" v="284435" />
	</node>
	<node id="-28038" lat="59.9851638918" lon="11.5289638898">
		<tag k="name" v="Petterberget" />
		<tag k="place" v="locality" />
		<tag k="ssr:stedsnr" v="102388" />
	</node>
	<node id="-30078" lat="59.972669446" lon="11.5526000006">
		<tag k="fixme" v="consider natural=peak for the most distinct mountains in the district" />
		<tag k="name" v="Gørrtjennteigen" />
		<tag k="natural" v="hill" />
		<tag k="place" v="locality" />
		<tag k="ssr:stedsnr" v="672974" />
	</node>
	<node id="-30076" lat="59.7634972219" lon="11.4408638809">
		<tag k="fixme" v="consider natural=peak for the most distinct mountains in the district" />
		<tag k="name" v="Vardåsen" />
		<tag k="natural" v="hill" />
		<tag k="place" v="locality" />
		<tag k="ssr:stedsnr" v="672925" />
	</node>
	<node id="-28022" lat="59.9291194483" lon="11.5151722244">
		<tag k="fixme" v="consider natural=peak for the most distinct mountains in the district" />
		<tag k="name" v="Østbergåsen" />
		<tag k="natural" v="hill" />
		<tag k="place" v="locality" />
		<tag k="ssr:stedsnr" v="101631" />
	</node>
	<node id="-27881" lat="59.920700001" lon="11.6208111182">
		<tag k="name" v="Steindalen" />
		<tag k="natural" v="valley" />
		<tag k="place" v="locality" />
		<tag k="ssr:stedsnr" v="59613" />
	</node>
	<node id="-30068" lat="59.8531944428" lon="11.380772225">
		<tag k="fixme" v="consider natural=peak for the most distinct mountains in the district" />
		<tag k="name" v="Trettåsen" />
		<tag k="natural" v="hill" />
		<tag k="place" v="locality" />
		<tag k="ssr:stedsnr" v="672711" />
	</node>
	<node id="-28017" lat="59.9471444481" lon="11.6608833258">
		<tag k="fixme" v="consider natural=peak for the most distinct mountains in the district" />
		<tag k="name" v="Larstjennåsen" />
		<tag k="natural" v="hill" />
		<tag k="place" v="locality" />
		<tag k="ssr:stedsnr" v="101099" />
	</node>
	<node id="-28016" lat="59.9394583303" lon="11.6855138867">
		<tag k="name" v="Halvorsrudtangen" />
		<tag k="natural" v="hill" />
		<tag k="place" v="locality" />
		<tag k="ssr:stedsnr" v="101090" />
	</node>
	<node id="-28013" lat="59.9461027784" lon="11.73687777">
		<tag k="name" v="Revberget" />
		<tag k="natural" v="hill" />
		<tag k="place" v="locality" />
		<tag k="ssr:stedsnr" v="101052" />
	</node>
	<node id="-28011" lat="59.8058444475" lon="11.5131694488">
		<tag k="fixme" v="consider natural=peak for the most distinct mountains in the district" />
		<tag k="name" v="Surkaåsen" />
		<tag k="natural" v="hill" />
		<tag k="place" v="locality" />
		<tag k="ssr:stedsnr" v="101013" />
	</node>
	<node id="-30056" lat="59.8027249959" lon="11.8190000013">
		<tag k="alt_name" v="Abbortjennkollen" />
		<tag k="fixme" v="consider natural=peak for the most distinct mountains in the district" />
		<tag k="name" v="Abbortjennskollen" />
		<tag k="natural" v="hill" />
		<tag k="place" v="locality" />
		<tag k="ssr:stedsnr" v="672452" />
	</node>
	<node id="-28007" lat="60.0123638874" lon="11.5760444396">
		<tag k="name" v="Sælaputtronget" />
		<tag k="place" v="locality" />
		<tag k="ssr:stedsnr" v="100764" />
	</node>
	<node id="-28006" lat="60.0178145856" lon="11.5248553493">
		<tag k="fixme" v="consider natural=peak for the most distinct mountains in the district" />
		<tag k="name" v="Søndre Tjuvknatten" />
		<tag k="natural" v="hill" />
		<tag k="place" v="locality" />
		<tag k="ssr:stedsnr" v="100755" />
	</node>
	<node id="-30052" lat="59.7756999992" lon="11.7424888963">
		<tag k="name" v="Stordalen" />
		<tag k="natural" v="valley" />
		<tag k="place" v="locality" />
		<tag k="ssr:stedsnr" v="672407" />
	</node>
	<node id="-30050" lat="59.7646888911" lon="11.5528388813">
		<tag k="fixme" v="consider natural=peak for the most distinct mountains in the district" />
		<tag k="name" v="Skjemtefjellåsen" />
		<tag k="natural" v="hill" />
		<tag k="place" v="locality" />
		<tag k="ssr:stedsnr" v="672397" />
	</node>
	<node id="-30049" lat="59.7626499982" lon="11.6167444411">
		<tag k="alt_name" v="Tryndalen" />
		<tag k="name" v="Trundalen" />
		<tag k="natural" v="valley" />
		<tag k="place" v="locality" />
		<tag k="ssr:stedsnr" v="672393" />
	</node>
	<node id="-27993" lat="59.7796055515" lon="11.3987277692">
		<tag k="fixme" v="consider natural=peak for the most distinct mountains in the district" />
		<tag k="name" v="Engaåsen" />
		<tag k="natural" v="hill" />
		<tag k="place" v="locality" />
		<tag k="ssr:stedsnr" v="100324" />
	</node>
	<node id="-27992" lat="59.9660250028" lon="11.5764944421">
		<tag k="name" v="Skartnordalen" />
		<tag k="natural" v="valley" />
		<tag k="place" v="locality" />
		<tag k="ssr:stedsnr" v="100113" />
	</node>
	<node id="-30039" lat="59.8723861082" lon="11.5124027835">
		<tag k="fixme" v="consider natural=peak for the most distinct mountains in the district" />
		<tag k="name" v="Lemmeheia" />
		<tag k="natural" v="hill" />
		<tag k="place" v="locality" />
		<tag k="ssr:stedsnr" v="672151" />
	</node>
	<node id="-27989" lat="59.9692277752" lon="11.5293611075">
		<tag k="name" v="Teigpynten" />
		<tag k="natural" v="hill" />
		<tag k="place" v="locality" />
		<tag k="ssr:stedsnr" v="100006" />
	</node>
	<node id="-30035" lat="59.8638249968" lon="11.7202500052">
		<tag k="name" v="Trolldalen" />
		<tag k="natural" v="valley" />
		<tag k="place" v="locality" />
		<tag k="ssr:stedsnr" v="672116" />
	</node>
	<node id="-29923" lat="59.8927388932" lon="11.4988333288">
		<tag k="name" v="Strupen" />
		<tag k="natural" v="valley" />
		<tag k="place" v="locality" />
		<tag k="ssr:stedsnr" v="662860" />
	</node>
	<node id="-30031" lat="59.9465388874" lon="11.7590611079">
		<tag k="alt_name" v="Fagerlihøgda" />
		<tag k="fixme" v="consider natural=peak for the most distinct mountains in the district" />
		<tag k="name" v="Fagerliåsen" />
		<tag k="natural" v="hill" />
		<tag k="place" v="locality" />
		<tag k="ssr:stedsnr" v="672081" />
	</node>
	<node id="-27982" lat="59.7583083352" lon="11.3936638854">
		<tag k="name" v="Lintjennhøgda" />
		<tag k="natural" v="hill" />
		<tag k="place" v="locality" />
		<tag k="ssr:stedsnr" v="83212" />
	</node>
	<node id="-30027" lat="59.9298166648" lon="11.6253972218">
		<tag k="fixme" v="multiple name tags, choose one and add the other to alt_name; consider natural=peak for the most distinct mountains in the district" />
		<tag k="name" v="Djupdalshøgda;Morttjennbrenna" />
		<tag k="natural" v="hill" />
		<tag k="place" v="locality" />
		<tag k="ssr:stedsnr" v="672042" />
	</node>
	<node id="-27978" lat="59.7394583312" lon="11.4150277691">
		<tag k="fixme" v="consider natural=peak for the most distinct mountains in the district" />
		<tag k="name" v="Høgåsen" />
		<tag k="natural" v="hill" />
		<tag k="place" v="locality" />
		<tag k="ssr:stedsnr" v="83155" />
	</node>
	<node id="-27974" lat="59.7872249994" lon="11.4331861136">
		<tag k="fixme" v="consider natural=peak for the most distinct mountains in the district" />
		<tag k="name" v="Bergåsen" />
		<tag k="natural" v="hill" />
		<tag k="place" v="locality" />
		<tag k="ssr:stedsnr" v="66863" />
	</node>
	<node id="-30020" lat="59.91378889" lon="11.6361694403">
		<tag k="name" v="Svarttjennhøgda" />
		<tag k="natural" v="hill" />
		<tag k="place" v="locality" />
		<tag k="ssr:stedsnr" v="672012" />
	</node>
	<node id="-27970" lat="59.8516055599" lon="11.4701944467">
		<tag k="fixme" v="consider natural=peak for the most distinct mountains in the district" />
		<tag k="name" v="Maltjennåsen" />
		<tag k="natural" v="hill" />
		<tag k="place" v="locality" />
		<tag k="ssr:stedsnr" v="66358" />
	</node>
	<node id="-27968" lat="59.8560833358" lon="11.7773805476">
		<tag k="name" v="Skåltjenndalen" />
		<tag k="natural" v="valley" />
		<tag k="place" v="locality" />
		<tag k="ssr:stedsnr" v="66354" />
	</node>
	<node id="-30015" lat="59.7818638886" lon="11.3485861177">
		<tag k="name" v="Folkedalen" />
		<tag k="natural" v="valley" />
		<tag k="place" v="locality" />
		<tag k="ssr:stedsnr" v="671857" />
	</node>
	<node id="-27189" lat="59.9072305529" lon="11.693088896">
		<tag k="name" v="Svarvestoldalen" />
		<tag k="natural" v="valley" />
		<tag k="place" v="locality" />
		<tag k="ssr:stedsnr" v="345798" />
	</node>
	<node id="-30008" lat="59.7362277773" lon="11.565794447">
		<tag k="fixme" v="consider natural=peak for the most distinct mountains in the district" />
		<tag k="name" v="Åstjennhøgda" />
		<tag k="natural" v="hill" />
		<tag k="place" v="locality" />
		<tag k="ssr:stedsnr" v="671681" />
	</node>
	<node id="-28755" lat="59.8009388919" lon="11.7506249985">
		<tag k="fixme" v="consider natural=peak for the most distinct mountains in the district" />
		<tag k="name" v="Trundtjennåsen" />
		<tag k="natural" v="hill" />
		<tag k="place" v="locality" />
		<tag k="ssr:stedsnr" v="247457" />
	</node>
	<node id="-30002" lat="59.6784194431" lon="11.5177750005">
		<tag k="fixme" v="consider natural=peak for the most distinct mountains in the district" />
		<tag k="name" v="Leinahøgda" />
		<tag k="natural" v="hill" />
		<tag k="place" v="locality" />
		<tag k="ssr:stedsnr" v="671351" />
	</node>
	<node id="-30001" lat="59.8492527743" lon="11.6670777721">
		<tag k="fixme" v="consider natural=peak for the most distinct mountains in the district" />
		<tag k="name" v="Anderskollen" />
		<tag k="natural" v="hill" />
		<tag k="place" v="locality" />
		<tag k="ssr:stedsnr" v="671349" />
	</node>
	<node id="-30000" lat="59.7035916682" lon="11.6128250004">
		<tag k="alt_name" v="Gunnarsvikdalen" />
		<tag k="name" v="Gunnarsdalen" />
		<tag k="natural" v="valley" />
		<tag k="place" v="locality" />
		<tag k="ssr:stedsnr" v="671315" />
	</node>
	<node id="-27950" lat="59.9919277734" lon="11.662436109">
		<tag k="name" v="Maurlia" />
		<tag k="natural" v="slope" />
		<tag k="place" v="locality" />
		<tag k="ssr:stedsnr" v="65992" />
	</node>
	<node id="-27949" lat="59.9847138927" lon="11.6025583414">
		<tag k="alt_name" v="Bjønnehøgda" />
		<tag k="fixme" v="consider natural=peak for the most distinct mountains in the district" />
		<tag k="name" v="Bjørnhøgda" />
		<tag k="natural" v="hill" />
		<tag k="place" v="locality" />
		<tag k="ssr:stedsnr" v="65990" />
	</node>
	<node id="-30765" lat="59.9493388925" lon="11.6005055579">
		<tag k="name" v="Tørrmoen" />
		<tag k="place" v="locality" />
		<tag k="ssr:stedsnr" v="845369" />
	</node>
	<node id="-29989" lat="59.7999611126" lon="11.3590416695">
		<tag k="name" v="Galteryggen" />
		<tag k="natural" v="ridge" />
		<tag k="place" v="locality" />
		<tag k="ssr:stedsnr" v="666855" />
	</node>
	<node id="-29988" lat="59.8114944401" lon="11.3419166642">
		<tag k="name" v="Snipptjenndalen" />
		<tag k="natural" v="valley" />
		<tag k="place" v="locality" />
		<tag k="ssr:stedsnr" v="666802" />
	</node>
	<node id="-27939" lat="59.7727916657" lon="11.3749888839">
		<tag k="name" v="Styggedalen" />
		<tag k="natural" v="valley" />
		<tag k="place" v="locality" />
		<tag k="ssr:stedsnr" v="65850" />
	</node>
	<node id="-29985" lat="59.845925004" lon="11.7034138914">
		<tag k="fixme" v="consider natural=peak for the most distinct mountains in the district" />
		<tag k="name" v="Oddevaldåsen" />
		<tag k="natural" v="hill" />
		<tag k="place" v="locality" />
		<tag k="ssr:stedsnr" v="666191" />
	</node>
	<node id="-29983" lat="59.8216416645" lon="11.4573416651">
		<tag k="name" v="Fjellsdalen" />
		<tag k="natural" v="valley" />
		<tag k="place" v="locality" />
		<tag k="ssr:stedsnr" v="665900" />
	</node>
	<node id="-29981" lat="59.6452555564" lon="11.5376333312">
		<tag k="fixme" v="consider natural=peak for the most distinct mountains in the district" />
		<tag k="name" v="Lofothøgda" />
		<tag k="natural" v="hill" />
		<tag k="place" v="locality" />
		<tag k="ssr:stedsnr" v="665726" />
	</node>
	<node id="-27932" lat="59.8805166636" lon="11.4206722259">
		<tag k="fixme" v="consider natural=peak for the most distinct mountains in the district" />
		<tag k="name" v="Prestehesten" />
		<tag k="natural" v="hill" />
		<tag k="place" v="locality" />
		<tag k="ssr:stedsnr" v="65686" />
	</node>
	<node id="-27931" lat="59.74235556" lon="11.5122611081">
		<tag k="alt_name" v="Kinnarlundsfjella" />
		<tag k="name" v="Kinnerlundsfjella" />
		<tag k="natural" v="hill" />
		<tag k="place" v="locality" />
		<tag k="ssr:stedsnr" v="65685" />
	</node>
	<node id="-29977" lat="59.9201722205" lon="11.6174583252">
		<tag k="name" v="Jensbråtedalen" />
		<tag k="natural" v="valley" />
		<tag k="place" v="locality" />
		<tag k="ssr:stedsnr" v="665668" />
	</node>
	<node id="-27926" lat="59.8958111076" lon="11.4119111166">
		<tag k="fixme" v="consider natural=peak for the most distinct mountains in the district" />
		<tag k="name" v="Tjuvdalshøgda" />
		<tag k="natural" v="hill" />
		<tag k="place" v="locality" />
		<tag k="ssr:stedsnr" v="65631" />
	</node>
	<node id="-29973" lat="59.8552749981" lon="11.4685722138">
		<tag k="fixme" v="consider natural=peak for the most distinct mountains in the district" />
		<tag k="name" v="Signalen" />
		<tag k="natural" v="hill" />
		<tag k="place" v="locality" />
		<tag k="ssr:stedsnr" v="665609" />
	</node>
	<node id="-29972" lat="59.6211027802" lon="11.5116916727">
		<tag k="fixme" v="consider natural=peak for the most distinct mountains in the district" />
		<tag k="name" v="Marikollen" />
		<tag k="natural" v="hill" />
		<tag k="place" v="locality" />
		<tag k="ssr:stedsnr" v="665563" />
	</node>
	<node id="-29970" lat="59.896758335" lon="11.7772194438">
		<tag k="name" v="Maikollen" />
		<tag k="natural" v="hill" />
		<tag k="place" v="locality" />
		<tag k="ssr:stedsnr" v="665494" />
	</node>
	<node id="-27919" lat="59.7987861122" lon="11.5369749986">
		<tag k="fixme" v="consider natural=peak for the most distinct mountains in the district" />
		<tag k="name" v="Rambergåsen" />
		<tag k="natural" v="hill" />
		<tag k="place" v="locality" />
		<tag k="ssr:stedsnr" v="65468" />
	</node>
	<node id="-29966" lat="59.6705194417" lon="11.5583166629">
		<tag k="name" v="Lindalen" />
		<tag k="natural" v="valley" />
		<tag k="place" v="locality" />
		<tag k="ssr:stedsnr" v="665469" />
	</node>
	<node id="-28890" lat="59.8985166681" lon="11.4500916597">
		<tag k="fixme" v="consider natural=peak for the most distinct mountains in the district" />
		<tag k="name" v="Fossåsen" />
		<tag k="natural" v="hill" />
		<tag k="place" v="locality" />
		<tag k="ssr:stedsnr" v="423525" />
	</node>
	<node id="-27914" lat="59.767174997" lon="11.7613666635">
		<tag k="fixme" v="multiple name tags, choose one and add the other to alt_name; consider natural=peak for the most distinct mountains in the district" />
		<tag k="name" v="Isberget;Isberghøgda" />
		<tag k="natural" v="hill" />
		<tag k="place" v="locality" />
		<tag k="ssr:stedsnr" v="65395" />
	</node>
	<node id="-26839" lat="59.952777779" lon="11.6689138817">
		<tag k="name" v="Oppsjøholma" />
		<tag k="natural" v="hill" />
		<tag k="place" v="locality" />
		<tag k="ssr:stedsnr" v="283093" />
	</node>
	<node id="-29959" lat="59.9759249959" lon="11.5802222176">
		<tag k="name" v="Busåsknatten" />
		<tag k="natural" v="hill" />
		<tag k="place" v="locality" />
		<tag k="ssr:stedsnr" v="665119" />
	</node>
	<node id="-29958" lat="59.9630305512" lon="11.6140861042">
		<tag k="fixme" v="consider natural=peak for the most distinct mountains in the district" />
		<tag k="name" v="Skalabergåsen" />
		<tag k="natural" v="hill" />
		<tag k="place" v="locality" />
		<tag k="ssr:stedsnr" v="665118" />
	</node>
	<node id="-29957" lat="59.9620000001" lon="11.6003333284">
		<tag k="name" v="Tiurdalen" />
		<tag k="natural" v="valley" />
		<tag k="place" v="locality" />
		<tag k="ssr:stedsnr" v="665108" />
	</node>
	<node id="-29956" lat="59.8900861151" lon="11.3330388854">
		<tag k="name" v="Brannberg" />
		<tag k="natural" v="cliff" />
		<tag k="ssr:stedsnr" v="665055" />
	</node>
	<node id="-27907" lat="59.8876999965" lon="11.6231249998">
		<tag k="name" v="Åremåsahøgda" />
		<tag k="natural" v="hill" />
		<tag k="place" v="locality" />
		<tag k="ssr:stedsnr" v="65199" />
	</node>
	<node id="-27902" lat="59.8692000044" lon="11.7166166594">
		<tag k="name" v="Karltjennhøgda" />
		<tag k="natural" v="hill" />
		<tag k="place" v="locality" />
		<tag k="ssr:stedsnr" v="65120" />
	</node>
	<node id="-29946" lat="59.8416916672" lon="11.3906805559">
		<tag k="fixme" v="consider natural=peak for the most distinct mountains in the district" />
		<tag k="name" v="Tiurleiken" />
		<tag k="natural" v="hill" />
		<tag k="place" v="locality" />
		<tag k="ssr:stedsnr" v="664665" />
	</node>
	<node id="-29945" lat="59.919908333" lon="11.6665583305">
		<tag k="fixme" v="consider natural=peak for the most distinct mountains in the district" />
		<tag k="name" v="Røyåsen" />
		<tag k="natural" v="hill" />
		<tag k="place" v="locality" />
		<tag k="ssr:stedsnr" v="664612" />
	</node>
	<node id="-29942" lat="59.8855888859" lon="11.4218638806">
		<tag k="name" v="Svarttjenndalen" />
		<tag k="natural" v="valley" />
		<tag k="place" v="locality" />
		<tag k="ssr:stedsnr" v="664240" />
	</node>
	<node id="-29941" lat="59.8871583299" lon="11.3979333325">
		<tag k="name" v="Stenstjenndalen" />
		<tag k="natural" v="valley" />
		<tag k="place" v="locality" />
		<tag k="ssr:stedsnr" v="664236" />
	</node>
	<node id="-26835" lat="59.8222194483" lon="11.8280000067">
		<tag k="name" v="Råbukkdalen" />
		<tag k="natural" v="valley" />
		<tag k="place" v="locality" />
		<tag k="ssr:stedsnr" v="282903" />
	</node>
	<node id="-27884" lat="59.7960472202" lon="11.3753444466">
		<tag k="fixme" v="consider natural=peak for the most distinct mountains in the district" />
		<tag k="name" v="Midtåsen" />
		<tag k="natural" v="hill" />
		<tag k="place" v="locality" />
		<tag k="ssr:stedsnr" v="59859" />
	</node>
	<node id="-27883" lat="59.7935583305" lon="11.3281805528">
		<tag k="name" v="Spondalen" />
		<tag k="natural" v="valley" />
		<tag k="place" v="locality" />
		<tag k="ssr:stedsnr" v="59826" />
	</node>
	<node id="-27882" lat="59.8704472239" lon="11.3778111142">
		<tag k="name" v="Bergtrongdalen" />
		<tag k="natural" v="valley" />
		<tag k="place" v="locality" />
		<tag k="ssr:stedsnr" v="59718" />
	</node>
	<node id="-29929" lat="59.8272555536" lon="11.6117500016">
		<tag k="name" v="Hovrøysa" />
		<tag k="natural" v="valley" />
		<tag k="place" v="locality" />
		<tag k="ssr:stedsnr" v="663364" />
	</node>
	<node id="-27879" lat="59.8744972196" lon="11.8190388921">
		<tag k="name" v="Skjærtjennlia" />
		<tag k="natural" v="slope" />
		<tag k="place" v="locality" />
		<tag k="ssr:stedsnr" v="59509" />
	</node>
	<node id="-27877" lat="59.9127361129" lon="11.7843333293">
		<tag k="name" v="Langlia" />
		<tag k="natural" v="slope" />
		<tag k="place" v="locality" />
		<tag k="ssr:stedsnr" v="59422" />
	</node>
	<node id="-27876" lat="59.915130554" lon="11.7989388947">
		<tag k="fixme" v="consider natural=peak for the most distinct mountains in the district" />
		<tag k="name" v="Sagåsen" />
		<tag k="natural" v="hill" />
		<tag k="place" v="locality" />
		<tag k="ssr:stedsnr" v="59415" />
	</node>
	<node id="-27875" lat="59.9211000042" lon="11.7823333421">
		<tag k="fixme" v="consider natural=peak for the most distinct mountains in the district" />
		<tag k="name" v="Saumyråsen" />
		<tag k="natural" v="hill" />
		<tag k="place" v="locality" />
		<tag k="ssr:stedsnr" v="59413" />
	</node>
	<node id="-27874" lat="59.8022083344" lon="11.3052500017">
		<tag k="name" v="Korsdalen" />
		<tag k="natural" v="valley" />
		<tag k="place" v="locality" />
		<tag k="ssr:stedsnr" v="59406" />
	</node>
	<node id="-29921" lat="59.821852775" lon="11.3166333326">
		<tag k="name" v="Elgedalen" />
		<tag k="natural" v="valley" />
		<tag k="place" v="locality" />
		<tag k="ssr:stedsnr" v="662740" />
	</node>
	<node id="-27872" lat="59.9342111079" lon="11.8105361163">
		<tag k="name" v="Øysjøliene" />
		<tag k="natural" v="slope" />
		<tag k="place" v="locality" />
		<tag k="ssr:stedsnr" v="59366" />
	</node>
	<node id="-28820" lat="59.8711833317" lon="11.5057361057">
		<tag k="fixme" v="consider natural=peak for the most distinct mountains in the district" />
		<tag k="name" v="Årnesåsen" />
		<tag k="natural" v="hill" />
		<tag k="place" v="locality" />
		<tag k="ssr:stedsnr" v="419877" />
	</node>
	<node id="-29910" lat="59.8204916662" lon="11.4737222211">
		<tag k="fixme" v="consider natural=peak for the most distinct mountains in the district" />
		<tag k="name" v="Ormåsen" />
		<tag k="natural" v="hill" />
		<tag k="place" v="locality" />
		<tag k="ssr:stedsnr" v="662149" />
	</node>
	<node id="-28878" lat="59.9577472244" lon="11.6384999942">
		<tag k="name" v="Haukelundtangen" />
		<tag k="natural" v="hill" />
		<tag k="place" v="locality" />
		<tag k="ssr:stedsnr" v="423157" />
	</node>
	<node id="-29906" lat="60.0010750009" lon="11.7213111165">
		<tag k="alt_name" v="Tallholen" />
		<tag k="fixme" v="consider natural=peak for the most distinct mountains in the district" />
		<tag k="name" v="Tallhorn" />
		<tag k="natural" v="hill" />
		<tag k="place" v="locality" />
		<tag k="ssr:stedsnr" v="661183" />
	</node>
	<node id="-27170" lat="59.9912277796" lon="11.4639749936">
		<tag k="fixme" v="consider natural=peak for the most distinct mountains in the district" />
		<tag k="name" v="Kalvelihøgda" />
		<tag k="natural" v="hill" />
		<tag k="place" v="locality" />
		<tag k="ssr:stedsnr" v="344362" />
	</node>
	<node id="-29898" lat="59.8137583329" lon="11.8758416613">
		<tag k="fixme" v="consider natural=peak for the most distinct mountains in the district" />
		<tag k="name" v="Ulvehihøgda" />
		<tag k="natural" v="hill" />
		<tag k="place" v="locality" />
		<tag k="ssr:stedsnr" v="648869" />
	</node>
	<node id="-27846" lat="59.8342567089" lon="11.8390286405">
		<tag k="name" v="Høneheia" />
		<tag k="natural" v="hill" />
		<tag k="place" v="locality" />
		<tag k="ssr:stedsnr" v="65298" />
	</node>
	<node id="-29892" lat="59.902069448" lon="11.6373694362">
		<tag k="name" v="Borkedalen" />
		<tag k="natural" v="valley" />
		<tag k="place" v="locality" />
		<tag k="ssr:stedsnr" v="648780" />
	</node>
	<node id="-27510" lat="59.9083583342" lon="11.6283166709">
		<tag k="fixme" v="consider natural=peak for the most distinct mountains in the district" />
		<tag k="name" v="Morttjennhøgda" />
		<tag k="natural" v="hill" />
		<tag k="place" v="locality" />
		<tag k="ssr:stedsnr" v="891132" />
	</node>
	<node id="-27842" lat="59.674625004" lon="11.5352527852">
		<tag k="name" v="Tangenåsen" />
		<tag k="natural" v="hill" />
		<tag k="place" v="locality" />
		<tag k="ssr:stedsnr" v="58434" />
	</node>
	<node id="-27838" lat="59.7666944417" lon="11.5643555582">
		<tag k="fixme" v="consider natural=peak for the most distinct mountains in the district" />
		<tag k="name" v="Bjørntjennåsen" />
		<tag k="natural" v="hill" />
		<tag k="place" v="locality" />
		<tag k="ssr:stedsnr" v="58055" />
	</node>
	<node id="-27832" lat="59.9294666689" lon="11.6357138968">
		<tag k="name" v="Sommerfjøstoppen" />
		<tag k="natural" v="hill" />
		<tag k="place" v="locality" />
		<tag k="ssr:stedsnr" v="57741" />
	</node>
	<node id="-29879" lat="59.9388249995" lon="11.5598083253">
		<tag k="name" v="Kvindalen" />
		<tag k="natural" v="valley" />
		<tag k="place" v="locality" />
		<tag k="ssr:stedsnr" v="648396" />
	</node>
	<node id="-29874" lat="59.8942996648" lon="11.5890555455">
		<tag k="name" v="Rishagåsen" />
		<tag k="natural" v="hill" />
		<tag k="place" v="locality" />
		<tag k="ssr:stedsnr" v="648139" />
	</node>
	<node id="-29872" lat="59.991263887" lon="11.4551916651">
		<tag k="name" v="Mikkelholet" />
		<tag k="place" v="locality" />
		<tag k="ssr:stedsnr" v="647366" />
	</node>
	<node id="-29871" lat="59.9947861071" lon="11.4638444354">
		<tag k="fixme" v="consider natural=peak for the most distinct mountains in the district" />
		<tag k="name" v="Stenshøgda" />
		<tag k="natural" v="hill" />
		<tag k="place" v="locality" />
		<tag k="ssr:stedsnr" v="647362" />
	</node>
	<node id="-27816" lat="59.905813891" lon="11.4005666685">
		<tag k="fixme" v="consider natural=peak for the most distinct mountains in the district" />
		<tag k="name" v="Einerudåsene" />
		<tag k="natural" v="hill" />
		<tag k="place" v="locality" />
		<tag k="ssr:stedsnr" v="57256" />
	</node>
	<node id="-29859" lat="59.9536472236" lon="11.7187277761">
		<tag k="name" v="Puttedalen" />
		<tag k="natural" v="valley" />
		<tag k="place" v="locality" />
		<tag k="ssr:stedsnr" v="646909" />
	</node>
	<node id="-29857" lat="59.9562861109" lon="11.7470166678">
		<tag k="name" v="Ospedalen" />
		<tag k="natural" v="valley" />
		<tag k="place" v="locality" />
		<tag k="ssr:stedsnr" v="646905" />
	</node>
	<node id="-29852" lat="59.992572219" lon="11.6957027783">
		<tag k="name" v="Blekketjennliene" />
		<tag k="natural" v="slope" />
		<tag k="place" v="locality" />
		<tag k="ssr:stedsnr" v="646688" />
	</node>
	<node id="-27803" lat="59.9382083353" lon="11.5899111189">
		<tag k="name" v="Tranget" />
		<tag k="place" v="locality" />
		<tag k="ssr:stedsnr" v="56243" />
	</node>
	<node id="-27802" lat="59.9508333298" lon="11.6311055541">
		<tag k="name" v="Ormetjenndalen" />
		<tag k="natural" v="valley" />
		<tag k="place" v="locality" />
		<tag k="ssr:stedsnr" v="56259" />
	</node>
	<node id="-27798" lat="59.793930558" lon="11.4149972222">
		<tag k="name" v="Tjuvdalen" />
		<tag k="natural" v="valley" />
		<tag k="place" v="locality" />
		<tag k="ssr:stedsnr" v="55965" />
	</node>
	<node id="-29844" lat="59.9925277788" lon="11.5695361123">
		<tag k="name" v="Sleppene" />
		<tag k="natural" v="cliff" />
		<tag k="ssr:stedsnr" v="646578" />
	</node>
	<node id="-29843" lat="59.9907027775" lon="11.5659138899">
		<tag k="name" v="Bekkestøyten" />
		<tag k="place" v="locality" />
		<tag k="ssr:stedsnr" v="646576" />
	</node>
	<node id="-29840" lat="59.7817083332" lon="11.3942277711">
		<tag k="fixme" v="consider natural=peak for the most distinct mountains in the district" />
		<tag k="name" v="Verphøgda" />
		<tag k="natural" v="hill" />
		<tag k="place" v="locality" />
		<tag k="ssr:stedsnr" v="646333" />
	</node>
	<node id="-29839" lat="59.7937055527" lon="11.5376749935">
		<tag k="name" v="Kudalen" />
		<tag k="natural" v="valley" />
		<tag k="place" v="locality" />
		<tag k="ssr:stedsnr" v="646248" />
	</node>
	<node id="-27789" lat="60.0054444472" lon="11.7142611164">
		<tag k="fixme" v="consider natural=peak for the most distinct mountains in the district" />
		<tag k="name" v="Alishøgda" />
		<tag k="natural" v="hill" />
		<tag k="place" v="locality" />
		<tag k="ssr:stedsnr" v="55190" />
	</node>
	<node id="-29890" lat="59.9090888931" lon="11.6662611169">
		<tag k="fixme" v="consider natural=peak for the most distinct mountains in the district" />
		<tag k="name" v="Hytteåsen" />
		<tag k="natural" v="hill" />
		<tag k="place" v="locality" />
		<tag k="ssr:stedsnr" v="648774" />
	</node>
	<node id="-29833" lat="59.9800944413" lon="11.4746194503">
		<tag k="fixme" v="consider natural=peak for the most distinct mountains in the district" />
		<tag k="name" v="Bjørnmyråsen" />
		<tag k="natural" v="hill" />
		<tag k="place" v="locality" />
		<tag k="ssr:stedsnr" v="646105" />
	</node>
	<node id="-27782" lat="59.9993222203" lon="11.7671972285">
		<tag k="fixme" v="consider natural=peak for the most distinct mountains in the district" />
		<tag k="name" v="Grasberget" />
		<tag k="natural" v="hill" />
		<tag k="place" v="locality" />
		<tag k="ssr:stedsnr" v="42891" />
	</node>
	<node id="-29821" lat="59.7168861083" lon="11.4526888852">
		<tag k="fixme" v="consider natural=peak for the most distinct mountains in the district" />
		<tag k="name" v="Pengeåsen" />
		<tag k="natural" v="hill" />
		<tag k="place" v="locality" />
		<tag k="ssr:stedsnr" v="629235" />
	</node>
	<node id="-29819" lat="59.7405055519" lon="11.3711166658">
		<tag k="name" v="Ingridmåsahøgda" />
		<tag k="natural" v="hill" />
		<tag k="place" v="locality" />
		<tag k="ssr:stedsnr" v="629229" />
	</node>
	<node id="-27767" lat="59.9469750002" lon="11.4739749951">
		<tag k="fixme" v="consider natural=peak for the most distinct mountains in the district" />
		<tag k="name" v="Engaåsen" />
		<tag k="natural" v="hill" />
		<tag k="place" v="locality" />
		<tag k="ssr:stedsnr" v="41481" />
	</node>
	<node id="-27766" lat="59.8984527748" lon="11.4946138857">
		<tag k="name" v="Vannskillet" />
		<tag k="place" v="locality" />
		<tag k="ssr:stedsnr" v="41428" />
	</node>
	<node id="-27764" lat="59.9777805546" lon="11.7282555476">
		<tag k="fixme" v="consider natural=peak for the most distinct mountains in the district" />
		<tag k="name" v="Utgravlitjennåsen" />
		<tag k="natural" v="hill" />
		<tag k="place" v="locality" />
		<tag k="ssr:stedsnr" v="41362" />
	</node>
	<node id="-27496" lat="59.7942083294" lon="11.5627250064">
		<tag k="name" v="Vinterberget" />
		<tag k="natural" v="hill" />
		<tag k="place" v="locality" />
		<tag k="ssr:stedsnr" v="890258" />
	</node>
	<node id="-29803" lat="59.9951805598" lon="11.5049777818">
		<tag k="alt_name" v="Høldalen" />
		<tag k="name" v="Holdalen" />
		<tag k="natural" v="valley" />
		<tag k="place" v="locality" />
		<tag k="ssr:stedsnr" v="611969" />
	</node>
	<node id="-27751" lat="59.9222666675" lon="11.4092194512">
		<tag k="fixme" v="consider natural=peak for the most distinct mountains in the district" />
		<tag k="name" v="Stubbjaråsen" />
		<tag k="natural" v="hill" />
		<tag k="place" v="locality" />
		<tag k="ssr:stedsnr" v="40956" />
	</node>
	<node id="-28177" lat="59.8596499988" lon="11.3598222203">
		<tag k="name" v="Stordalen" />
		<tag k="natural" v="valley" />
		<tag k="place" v="locality" />
		<tag k="ssr:stedsnr" v="125727" />
	</node>
	<node id="-29795" lat="59.7968138914" lon="11.304783329">
		<tag k="name" v="Himdalen" />
		<tag k="natural" v="valley" />
		<tag k="place" v="locality" />
		<tag k="ssr:stedsnr" v="611849" />
	</node>
	<node id="-29789" lat="59.8415166671" lon="11.4601277704">
		<tag k="fixme" v="consider natural=peak for the most distinct mountains in the district" />
		<tag k="name" v="Basteheia" />
		<tag k="natural" v="hill" />
		<tag k="place" v="locality" />
		<tag k="ssr:stedsnr" v="611758" />
	</node>
	<node id="-29788" lat="59.8693833299" lon="11.4320277738">
		<tag k="alt_name" v="Skottdalen" />
		<tag k="name" v="Skotdalen" />
		<tag k="natural" v="valley" />
		<tag k="place" v="locality" />
		<tag k="ssr:stedsnr" v="611698" />
	</node>
	<node id="-27738" lat="59.9617999998" lon="11.5963222209">
		<tag k="name" v="Æresporten" />
		<tag k="natural" v="gorge" />
		<tag k="ssr:stedsnr" v="40032" />
	</node>
	<node id="-27737" lat="59.9558750003" lon="11.6490444524">
		<tag k="name" v="Østre Svarvestoldalen" />
		<tag k="natural" v="valley" />
		<tag k="place" v="locality" />
		<tag k="ssr:stedsnr" v="40021" />
	</node>
	<node id="-27736" lat="59.967524996" lon="11.4356583241">
		<tag k="name" v="Tverrdalen" />
		<tag k="natural" v="valley" />
		<tag k="place" v="locality" />
		<tag k="ssr:stedsnr" v="40022" />
	</node>
	<node id="-27735" lat="59.9697777771" lon="11.5604777807">
		<tag k="name" v="Djupdalen" />
		<tag k="natural" v="valley" />
		<tag k="place" v="locality" />
		<tag k="ssr:stedsnr" v="40016" />
	</node>
	<node id="-27731" lat="59.6999888901" lon="11.6488611101">
		<tag k="fixme" v="consider natural=peak for the most distinct mountains in the district" />
		<tag k="name" v="Tresjøhøgda" />
		<tag k="natural" v="hill" />
		<tag k="place" v="locality" />
		<tag k="ssr:stedsnr" v="39777" />
	</node>
	<node id="-27725" lat="59.9883055579" lon="11.5846999954">
		<tag k="name" v="Neverfurua" />
		<tag k="place" v="locality" />
		<tag k="ssr:stedsnr" v="39611" />
	</node>
	<node id="-27723" lat="59.9903555575" lon="11.5777222173">
		<tag k="name" v="Orremåsahøgda" />
		<tag k="natural" v="ridge" />
		<tag k="place" v="locality" />
		<tag k="ssr:stedsnr" v="39513" />
	</node>
	<node id="-29768" lat="59.8470611074" lon="11.6151750011">
		<tag k="fixme" v="consider natural=peak for the most distinct mountains in the district" />
		<tag k="name" v="Sæterhøgda" />
		<tag k="natural" v="hill" />
		<tag k="place" v="locality" />
		<tag k="ssr:stedsnr" v="611351" />
	</node>
	<node id="-27719" lat="59.977833335" lon="11.4777666627">
		<tag k="name" v="Tangedalen" />
		<tag k="natural" v="valley" />
		<tag k="place" v="locality" />
		<tag k="ssr:stedsnr" v="40127" />
	</node>
	<node id="-27718" lat="59.9505194475" lon="11.6373861152">
		<tag k="fixme" v="consider natural=peak for the most distinct mountains in the district" />
		<tag k="name" v="Gamlevanghøgda" />
		<tag k="natural" v="hill" />
		<tag k="place" v="locality" />
		<tag k="ssr:stedsnr" v="40113" />
	</node>
	<node id="-27717" lat="59.7959444427" lon="11.7681138951">
		<tag k="fixme" v="consider natural=peak for the most distinct mountains in the district" />
		<tag k="name" v="Sagåsen" />
		<tag k="natural" v="hill" />
		<tag k="place" v="locality" />
		<tag k="ssr:stedsnr" v="40104" />
	</node>
	<node id="-29763" lat="59.8331555574" lon="11.5635749919">
		<tag k="fixme" v="consider natural=peak for the most distinct mountains in the district" />
		<tag k="name" v="Sæteråsen" />
		<tag k="natural" v="hill" />
		<tag k="place" v="locality" />
		<tag k="ssr:stedsnr" v="611328" />
	</node>
	<node id="-28854" lat="59.9549388868" lon="11.4042833297">
		<tag k="fixme" v="consider natural=peak for the most distinct mountains in the district" />
		<tag k="name" v="Veståsen" />
		<tag k="natural" v="hill" />
		<tag k="place" v="locality" />
		<tag k="ssr:stedsnr" v="422261" />
	</node>
	<node id="-27708" lat="60.0014444481" lon="11.8134250027">
		<tag k="fixme" v="consider natural=peak for the most distinct mountains in the district" />
		<tag k="loc_name" v="Tyrhalåsen" />
		<tag k="name" v="Tørrhardåsen" />
		<tag k="natural" v="hill" />
		<tag k="place" v="locality" />
		<tag k="ssr:stedsnr" v="5947" />
	</node>
	<node id="-27706" lat="59.7924361096" lon="11.3577444376">
		<tag k="fixme" v="consider natural=peak for the most distinct mountains in the district" />
		<tag k="name" v="Hølands varde" />
		<tag k="natural" v="hill" />
		<tag k="place" v="locality" />
		<tag k="ssr:stedsnr" v="5841" />
	</node>
	<node id="-27703" lat="59.8387944443" lon="11.3434416742">
		<tag k="fixme" v="consider natural=peak for the most distinct mountains in the district" />
		<tag k="name" v="Åmothøgda" />
		<tag k="natural" v="hill" />
		<tag k="place" v="locality" />
		<tag k="ssr:stedsnr" v="5763" />
	</node>
	<node id="-27702" lat="59.8368916646" lon="11.4576083276">
		<tag k="name" v="Trondsdalen" />
		<tag k="natural" v="valley" />
		<tag k="place" v="locality" />
		<tag k="ssr:stedsnr" v="5733" />
	</node>
	<node id="-29748" lat="59.8951750003" lon="11.5457722269">
		<tag k="fixme" v="consider natural=peak for the most distinct mountains in the district" />
		<tag k="name" v="Bliksrudåsen" />
		<tag k="natural" v="hill" />
		<tag k="place" v="locality" />
		<tag k="ssr:stedsnr" v="611234" />
	</node>
	<node id="-29747" lat="59.8821361132" lon="11.678991671">
		<tag k="fixme" v="consider natural=peak for the most distinct mountains in the district" />
		<tag k="name" v="Tukuhøgda" />
		<tag k="natural" v="hill" />
		<tag k="place" v="locality" />
		<tag k="ssr:stedsnr" v="611211" />
	</node>
	<node id="-27697" lat="59.8230638859" lon="11.5180361052">
		<tag k="fixme" v="consider natural=peak for the most distinct mountains in the district" />
		<tag k="name" v="Høgåsen" />
		<tag k="natural" v="hill" />
		<tag k="place" v="locality" />
		<tag k="ssr:stedsnr" v="5527" />
	</node>
	<node id="-27695" lat="59.7835972205" lon="11.7627777722">
		<tag k="name" v="Østre Hauketjennkollen" />
		<tag k="natural" v="hill" />
		<tag k="place" v="locality" />
		<tag k="ssr:stedsnr" v="5435" />
	</node>
	<node id="-29742" lat="59.8761750029" lon="11.5311666728">
		<tag k="fixme" v="consider natural=peak for the most distinct mountains in the district" />
		<tag k="name" v="Skamoåsen" />
		<tag k="natural" v="hill" />
		<tag k="place" v="locality" />
		<tag k="ssr:stedsnr" v="611163" />
	</node>
	<node id="-27689" lat="59.8518027753" lon="11.7549083321">
		<tag k="alt_name" v="Bjørnebassheia" />
		<tag k="fixme" v="consider natural=peak for the most distinct mountains in the district" />
		<tag k="name" v="Bjørnbassheia" />
		<tag k="natural" v="hill" />
		<tag k="place" v="locality" />
		<tag k="ssr:stedsnr" v="5343" />
	</node>
	<node id="-29730" lat="59.9438499982" lon="11.6581833288">
		<tag k="alt_name" v="Tangen" />
		<tag k="fixme" v="consider natural=peak for the most distinct mountains in the district" />
		<tag k="name" v="Tangåsen" />
		<tag k="natural" v="hill" />
		<tag k="place" v="locality" />
		<tag k="ssr:stedsnr" v="611074" />
	</node>
	<node id="-27678" lat="59.8626444448" lon="11.7831611047">
		<tag k="fixme" v="consider natural=peak for the most distinct mountains in the district" />
		<tag k="name" v="Østbyhøgda" />
		<tag k="natural" v="hill" />
		<tag k="place" v="locality" />
		<tag k="ssr:stedsnr" v="5121" />
	</node>
	<node id="-27823" lat="59.8492666692" lon="11.3536055506">
		<tag k="fixme" v="consider natural=peak for the most distinct mountains in the district" />
		<tag k="name" v="Vikeåsen" />
		<tag k="natural" v="hill" />
		<tag k="place" v="locality" />
		<tag k="ssr:stedsnr" v="57605" />
	</node>
	<node id="-27669" lat="59.9410138863" lon="11.522591663">
		<tag k="fixme" v="consider natural=peak for the most distinct mountains in the district" />
		<tag k="name" v="Nygardsåsen" />
		<tag k="natural" v="hill" />
		<tag k="place" v="locality" />
		<tag k="ssr:stedsnr" v="5077" />
	</node>
	<node id="-27663" lat="59.9181555551" lon="11.6580777807">
		<tag k="alt_name" v="Storsæteråsen" />
		<tag k="fixme" v="consider natural=peak for the most distinct mountains in the district" />
		<tag k="name" v="Storsæterhøgda" />
		<tag k="natural" v="hill" />
		<tag k="place" v="locality" />
		<tag k="ssr:stedsnr" v="5009" />
	</node>
	<node id="-27662" lat="59.9951555514" lon="11.6676277734">
		<tag k="fixme" v="consider natural=peak for the most distinct mountains in the district" />
		<tag k="name" v="Knollen" />
		<tag k="natural" v="hill" />
		<tag k="place" v="locality" />
		<tag k="ssr:stedsnr" v="4949" />
	</node>
	<node id="-27656" lat="59.8122833377" lon="11.3044111182">
		<tag k="name" v="Sæterbudalen" />
		<tag k="natural" v="valley" />
		<tag k="place" v="locality" />
		<tag k="ssr:stedsnr" v="4837" />
	</node>
	<node id="-29702" lat="59.9715722208" lon="11.639975007">
		<tag k="name" v="Haukelunddalen" />
		<tag k="natural" v="valley" />
		<tag k="place" v="locality" />
		<tag k="ssr:stedsnr" v="605194" />
	</node>
	<node id="-27652" lat="59.8820750035" lon="11.3410027824">
		<tag k="alt_name" v="Ringkollen, søndre" />
		<tag k="fixme" v="consider natural=peak for the most distinct mountains in the district" />
		<tag k="name" v="Søndre Ringkollen" />
		<tag k="natural" v="hill" />
		<tag k="place" v="locality" />
		<tag k="ssr:stedsnr" v="4675" />
	</node>
	<node id="-29699" lat="59.9766222229" lon="11.6259472291">
		<tag k="name" v="Ospedalen" />
		<tag k="natural" v="valley" />
		<tag k="place" v="locality" />
		<tag k="ssr:stedsnr" v="605156" />
	</node>
	<node id="-29697" lat="59.7693249985" lon="11.3726972243">
		<tag k="name" v="Stokkåsen" />
		<tag k="natural" v="hill" />
		<tag k="place" v="locality" />
		<tag k="ssr:stedsnr" v="604975" />
	</node>
	<node id="-29690" lat="59.7417638905" lon="11.6324305594">
		<tag k="name" v="Klemmedalen" />
		<tag k="natural" v="valley" />
		<tag k="place" v="locality" />
		<tag k="ssr:stedsnr" v="604611" />
	</node>
	<node id="-28267" lat="59.6725388919" lon="11.4382138936">
		<tag k="name" v="Gukilhøgda" />
		<tag k="natural" v="hill" />
		<tag k="place" v="locality" />
		<tag k="ssr:stedsnr" v="144260" />
	</node>
	<node id="-27638" lat="59.7897888889" lon="11.5672694447">
		<tag k="fixme" v="consider natural=peak for the most distinct mountains in the district" />
		<tag k="name" v="Lintjennåsen" />
		<tag k="natural" v="hill" />
		<tag k="place" v="locality" />
		<tag k="ssr:stedsnr" v="4450" />
	</node>
	<node id="-27637" lat="59.9832333332" lon="11.4627305524">
		<tag k="name" v="Sæterdalen" />
		<tag k="natural" v="valley" />
		<tag k="place" v="locality" />
		<tag k="ssr:stedsnr" v="4449" />
	</node>
	<node id="-29684" lat="59.8730999963" lon="11.349555559">
		<tag k="fixme" v="consider natural=peak for the most distinct mountains in the district" />
		<tag k="name" v="Røyskollen" />
		<tag k="natural" v="hill" />
		<tag k="place" v="locality" />
		<tag k="ssr:stedsnr" v="604557" />
	</node>
	<node id="-27635" lat="59.7666250039" lon="11.752397215">
		<tag k="fixme" v="consider natural=peak for the most distinct mountains in the district" />
		<tag k="name" v="Stordalshøgda" />
		<tag k="natural" v="hill" />
		<tag k="place" v="locality" />
		<tag k="ssr:stedsnr" v="4400" />
	</node>
	<node id="-29682" lat="59.7467361151" lon="11.6028611192">
		<tag k="fixme" v="consider natural=peak for the most distinct mountains in the district" />
		<tag k="name" v="Røyshøgda" />
		<tag k="natural" v="hill" />
		<tag k="place" v="locality" />
		<tag k="ssr:stedsnr" v="604463" />
	</node>
	<node id="-27632" lat="59.7571166642" lon="11.5356833391">
		<tag k="name" v="Hanseberget" />
		<tag k="natural" v="hill" />
		<tag k="place" v="locality" />
		<tag k="ssr:stedsnr" v="4388" />
	</node>
	<node id="-29679" lat="59.6466999995" lon="11.5468833346">
		<tag k="fixme" v="consider natural=peak for the most distinct mountains in the district" />
		<tag k="name" v="Beheimhøgda" />
		<tag k="natural" v="hill" />
		<tag k="place" v="locality" />
		<tag k="ssr:stedsnr" v="604704" />
	</node>
	<node id="-27629" lat="59.8458472199" lon="11.5802472219">
		<tag k="fixme" v="consider natural=peak for the most distinct mountains in the district" />
		<tag k="name" v="Jonsrudåsen" />
		<tag k="natural" v="hill" />
		<tag k="place" v="locality" />
		<tag k="ssr:stedsnr" v="4324" />
	</node>
	<node id="-27623" lat="59.6125666642" lon="11.4971166577">
		<tag k="alt_name" v="Årberget" />
		<tag k="fixme" v="consider natural=peak for the most distinct mountains in the district" />
		<tag k="name" v="Orreberget" />
		<tag k="natural" v="hill" />
		<tag k="place" v="locality" />
		<tag k="ssr:stedsnr" v="4285" />
	</node>
	<node id="-27619" lat="59.8972555599" lon="11.5032666676">
		<tag k="name" v="Halvorsrudhøgda" />
		<tag k="natural" v="hill" />
		<tag k="place" v="locality" />
		<tag k="ssr:stedsnr" v="4225" />
	</node>
	<node id="-29664" lat="59.88193611" lon="11.7312416654">
		<tag k="name" v="Åsvassdalen" />
		<tag k="natural" v="valley" />
		<tag k="place" v="locality" />
		<tag k="ssr:stedsnr" v="603674" />
	</node>
	<node id="-29662" lat="59.923061108" lon="11.7310611112">
		<tag k="name" v="Kutjennlia" />
		<tag k="natural" v="slope" />
		<tag k="place" v="locality" />
		<tag k="ssr:stedsnr" v="603665" />
	</node>
	<node id="-27613" lat="59.8599249968" lon="11.5764972244">
		<tag k="fixme" v="consider natural=peak for the most distinct mountains in the district" />
		<tag k="name" v="Djupdalshøgda" />
		<tag k="natural" v="hill" />
		<tag k="place" v="locality" />
		<tag k="ssr:stedsnr" v="4139" />
	</node>
	<node id="-29660" lat="59.846125003" lon="11.3495083274">
		<tag k="name" v="Stigemoen" />
		<tag k="place" v="locality" />
		<tag k="ssr:stedsnr" v="603602" />
	</node>
	<node id="-29657" lat="59.9029944433" lon="11.4014722203">
		<tag k="name" v="Sjøkanlidalen" />
		<tag k="natural" v="valley" />
		<tag k="place" v="locality" />
		<tag k="ssr:stedsnr" v="603287" />
	</node>
	<node id="-29653" lat="59.8989611098" lon="11.3692083279">
		<tag k="fixme" v="consider natural=peak for the most distinct mountains in the district" />
		<tag k="name" v="Brenna" />
		<tag k="natural" v="hill" />
		<tag k="place" v="locality" />
		<tag k="ssr:stedsnr" v="603249" />
	</node>
	<node id="-29652" lat="59.8835000038" lon="11.4241222277">
		<tag k="name" v="Bjønndalen" />
		<tag k="natural" v="valley" />
		<tag k="place" v="locality" />
		<tag k="ssr:stedsnr" v="603246" />
	</node>
	<node id="-27602" lat="59.6750416687" lon="11.5915777845">
		<tag k="name" v="Sæteråsen" />
		<tag k="natural" v="hill" />
		<tag k="place" v="locality" />
		<tag k="ssr:stedsnr" v="3254" />
	</node>
	<node id="-29649" lat="59.7642527743" lon="11.5747111075">
		<tag k="name" v="Den hvite knatten" />
		<tag k="natural" v="hill" />
		<tag k="place" v="locality" />
		<tag k="ssr:stedsnr" v="603035" />
	</node>
	<node id="-29646" lat="59.8747083342" lon="11.6415611155">
		<tag k="name" v="Stubberudmoen" />
		<tag k="place" v="locality" />
		<tag k="ssr:stedsnr" v="602595" />
	</node>
	<node id="-29645" lat="59.8868583373" lon="11.6373083409">
		<tag k="name" v="Østre Skottdal" />
		<tag k="natural" v="valley" />
		<tag k="place" v="locality" />
		<tag k="ssr:stedsnr" v="602591" />
	</node>
	<node id="-29643" lat="59.8105845682" lon="11.6505580175">
		<tag k="fixme" v="consider natural=peak for the most distinct mountains in the district" />
		<tag k="name" v="Spikeråsen" />
		<tag k="natural" v="hill" />
		<tag k="place" v="locality" />
		<tag k="ssr:stedsnr" v="602516" />
	</node>
	<node id="-29175" lat="59.898213886" lon="11.4877111148">
		<tag k="fixme" v="consider natural=peak for the most distinct mountains in the district" />
		<tag k="name" v="Toverudåsen" />
		<tag k="natural" v="hill" />
		<tag k="place" v="locality" />
		<tag k="ssr:stedsnr" v="489265" />
	</node>
	<node id="-27809" lat="59.8899722189" lon="11.6136861127">
		<tag k="name" v="Grasmoen" />
		<tag k="place" v="locality" />
		<tag k="ssr:stedsnr" v="56597" />
	</node>
	<node id="-29631" lat="59.8783611094" lon="11.529205557">
		<tag k="name" v="Ekornberget" />
		<tag k="place" v="locality" />
		<tag k="ssr:stedsnr" v="601867" />
	</node>
	<node id="-27582" lat="59.8335305595" lon="11.2950472242">
		<tag k="name" v="Mjøsjødalen" />
		<tag k="natural" v="valley" />
		<tag k="place" v="locality" />
		<tag k="ssr:stedsnr" v="848378" />
	</node>
	<node id="-27578" lat="60.0180861088" lon="11.5249111175">
		<tag k="fixme" v="consider natural=peak for the most distinct mountains in the district" />
		<tag k="name" v="Tyvknattane" />
		<tag k="natural" v="hill" />
		<tag k="place" v="locality" />
		<tag k="ssr:stedsnr" v="673583" />
	</node>
	<node id="-29623" lat="59.8738500023" lon="11.5894222308">
		<tag k="name" v="Festningsåsen" />
		<tag k="natural" v="hill" />
		<tag k="place" v="locality" />
		<tag k="ssr:stedsnr" v="601582" />
	</node>
	<node id="-29621" lat="59.8817583363" lon="11.5919694438">
		<tag k="fixme" v="consider natural=peak for the most distinct mountains in the district" />
		<tag k="name" v="Skanseåsen" />
		<tag k="natural" v="hill" />
		<tag k="place" v="locality" />
		<tag k="ssr:stedsnr" v="601577" />
	</node>
	<node id="-29619" lat="59.9468527802" lon="11.6180222243">
		<tag k="name" v="Bjønndalen" />
		<tag k="natural" v="valley" />
		<tag k="place" v="locality" />
		<tag k="ssr:stedsnr" v="601314" />
	</node>
	<node id="-29613" lat="60.0033833362" lon="11.7305972218">
		<tag k="fixme" v="consider natural=peak for the most distinct mountains in the district" />
		<tag k="name" v="Ternehøgda" />
		<tag k="natural" v="hill" />
		<tag k="place" v="locality" />
		<tag k="ssr:stedsnr" v="600201" />
	</node>
	<node id="-28827" lat="59.8016499962" lon="11.3724611032">
		<tag k="name" v="Holeåsen" />
		<tag k="natural" v="hill" />
		<tag k="place" v="locality" />
		<tag k="ssr:stedsnr" v="419929" />
	</node>
	<node id="-28144" lat="59.9250500008" lon="11.6261833423">
		<tag k="name" v="Promlia" />
		<tag k="natural" v="slope" />
		<tag k="place" v="locality" />
		<tag k="ssr:stedsnr" v="120574" />
	</node>
	<node id="-29597" lat="59.8686055513" lon="11.3960444387">
		<tag k="name" v="Korpedalen" />
		<tag k="natural" v="valley" />
		<tag k="place" v="locality" />
		<tag k="ssr:stedsnr" v="588743" />
	</node>
	<node id="-28826" lat="59.8063833307" lon="11.3530416716">
		<tag k="name" v="Eriksdalen" />
		<tag k="natural" v="valley" />
		<tag k="place" v="locality" />
		<tag k="ssr:stedsnr" v="419924" />
	</node>
	<node id="-28484" lat="59.9525837719" lon="11.6433061439">
		<tag k="name" v="Ringkollen" />
		<tag k="natural" v="hill" />
		<tag k="place" v="locality" />
		<tag k="ssr:stedsnr" v="187117" />
	</node>
	<node id="-29588" lat="59.95749167" lon="11.4913472221">
		<tag k="fixme" v="consider natural=peak for the most distinct mountains in the district" />
		<tag k="name" v="Haukåsen" />
		<tag k="natural" v="hill" />
		<tag k="place" v="locality" />
		<tag k="ssr:stedsnr" v="587415" />
	</node>
	<node id="-27527" lat="59.9093833378" lon="11.681402774">
		<tag k="name" v="Grasmyrlia" />
		<tag k="natural" v="slope" />
		<tag k="place" v="locality" />
		<tag k="ssr:stedsnr" v="892783" />
	</node>
	<node id="-27526" lat="59.9139972186" lon="11.6876972255">
		<tag k="name" v="Gråmerråsen" />
		<tag k="natural" v="hill" />
		<tag k="place" v="locality" />
		<tag k="ssr:stedsnr" v="892777" />
	</node>
	<node id="-27524" lat="59.8336888897" lon="11.616250005">
		<tag k="name" v="Lensmannsdalen" />
		<tag k="natural" v="valley" />
		<tag k="place" v="locality" />
		<tag k="ssr:stedsnr" v="892737" />
	</node>
	<node id="-27522" lat="59.8672999996" lon="11.6093861072">
		<tag k="name" v="Mærradalen" />
		<tag k="natural" v="valley" />
		<tag k="place" v="locality" />
		<tag k="ssr:stedsnr" v="891882" />
	</node>
	<node id="-29568" lat="59.7891194437" lon="11.5036777705">
		<tag k="name" v="Bjørnefjell" />
		<tag k="natural" v="hill" />
		<tag k="place" v="locality" />
		<tag k="ssr:stedsnr" v="586071" />
	</node>
	<node id="-28480" lat="59.9215277748" lon="11.641524998">
		<tag k="name" v="Postillen" />
		<tag k="natural" v="slope" />
		<tag k="place" v="locality" />
		<tag k="ssr:stedsnr" v="187001" />
	</node>
	<node id="-29564" lat="59.9624277812" lon="11.5803527865">
		<tag k="name" v="Busåslia" />
		<tag k="natural" v="slope" />
		<tag k="place" v="locality" />
		<tag k="ssr:stedsnr" v="586017" />
	</node>
	<node id="-29559" lat="59.7065416661" lon="11.5860833251">
		<tag k="name" v="Bringebærdalen" />
		<tag k="natural" v="valley" />
		<tag k="place" v="locality" />
		<tag k="ssr:stedsnr" v="585763" />
	</node>
	<node id="-29558" lat="60.0129361125" lon="11.5789777773">
		<tag k="fixme" v="consider natural=peak for the most distinct mountains in the district" />
		<tag k="name" v="Øysjøberget" />
		<tag k="natural" v="hill" />
		<tag k="place" v="locality" />
		<tag k="ssr:stedsnr" v="585762" />
	</node>
	<node id="-29554" lat="59.9985000044" lon="11.7128499932">
		<tag k="name" v="Paddetjennlia" />
		<tag k="natural" v="slope" />
		<tag k="place" v="locality" />
		<tag k="ssr:stedsnr" v="585665" />
	</node>
	<node id="-29552" lat="59.9869555553" lon="11.5673277779">
		<tag k="fixme" v="consider natural=peak for the most distinct mountains in the district" />
		<tag k="name" v="Svarttjennhøgda" />
		<tag k="natural" v="hill" />
		<tag k="place" v="locality" />
		<tag k="ssr:stedsnr" v="585583" />
	</node>
	<node id="-29551" lat="59.8185361069" lon="11.8141638916">
		<tag k="fixme" v="consider natural=peak for the most distinct mountains in the district" />
		<tag k="name" v="Lomtjennåsen" />
		<tag k="natural" v="hill" />
		<tag k="place" v="locality" />
		<tag k="ssr:stedsnr" v="585577" />
	</node>
	<node id="-29544" lat="59.7916472235" lon="11.7912527702">
		<tag k="fixme" v="consider natural=peak for the most distinct mountains in the district" />
		<tag k="name" v="Skytteråsen" />
		<tag k="natural" v="hill" />
		<tag k="place" v="locality" />
		<tag k="ssr:stedsnr" v="585094" />
	</node>
	<node id="-29542" lat="59.7571166674" lon="11.6171305591">
		<tag k="name" v="Korsdalen" />
		<tag k="natural" v="valley" />
		<tag k="place" v="locality" />
		<tag k="ssr:stedsnr" v="585057" />
	</node>
	<node id="-29540" lat="59.9683361071" lon="11.5467472161">
		<tag k="name" v="Nilsemoen" />
		<tag k="place" v="locality" />
		<tag k="ssr:stedsnr" v="585018" />
	</node>
	<node id="-27485" lat="59.9555111112" lon="11.6523833384">
		<tag k="fixme" v="consider natural=peak for the most distinct mountains in the district" />
		<tag k="name" v="Østre Ringkollhøgda" />
		<tag k="natural" v="hill" />
		<tag k="place" v="locality" />
		<tag k="ssr:stedsnr" v="890019" />
	</node>
	<node id="-27483" lat="59.9709611089" lon="11.5401388974">
		<tag k="fixme" v="consider natural=peak for the most distinct mountains in the district" />
		<tag k="name" v="Bukkåsen" />
		<tag k="natural" v="hill" />
		<tag k="place" v="locality" />
		<tag k="ssr:stedsnr" v="890006" />
	</node>
	<node id="-27480" lat="59.7025305584" lon="11.664425008">
		<tag k="name" v="Lyserkula" />
		<tag k="natural" v="hill" />
		<tag k="place" v="locality" />
		<tag k="ssr:stedsnr" v="889813" />
	</node>
	<node id="-28814" lat="59.8146138881" lon="11.477158327">
		<tag k="fixme" v="consider natural=peak for the most distinct mountains in the district" />
		<tag k="name" v="Engeråsen" />
		<tag k="natural" v="hill" />
		<tag k="place" v="locality" />
		<tag k="ssr:stedsnr" v="419167" />
	</node>
	<node id="-27470" lat="59.7279111143" lon="11.4610250026">
		<tag k="name" v="Maurtipp" />
		<tag k="natural" v="hill" />
		<tag k="place" v="locality" />
		<tag k="ssr:stedsnr" v="889577" />
	</node>
	<node id="-29509" lat="59.8115194401" lon="11.5104944436">
		<tag k="name" v="Fosståskollen" />
		<tag k="natural" v="hill" />
		<tag k="place" v="locality" />
		<tag k="ssr:stedsnr" v="551278" />
	</node>
	<node id="-29506" lat="59.8866249968" lon="11.6309750027">
		<tag k="fixme" v="consider natural=peak for the most distinct mountains in the district" />
		<tag k="name" v="Bukkåsen" />
		<tag k="natural" v="hill" />
		<tag k="place" v="locality" />
		<tag k="ssr:stedsnr" v="551236" />
	</node>
	<node id="-29500" lat="59.9323666674" lon="11.6520138877">
		<tag k="name" v="Stygglia" />
		<tag k="natural" v="slope" />
		<tag k="place" v="locality" />
		<tag k="ssr:stedsnr" v="551101" />
	</node>
	<node id="-29497" lat="59.9449138897" lon="11.7837555514">
		<tag k="alt_name" v="Mangknatten" />
		<tag k="fixme" v="consider natural=peak for the most distinct mountains in the district" />
		<tag k="name" v="Sørmangknatten" />
		<tag k="natural" v="hill" />
		<tag k="place" v="locality" />
		<tag k="ssr:stedsnr" v="551073" />
	</node>
	<node id="-27443" lat="59.8598027744" lon="11.3816583294">
		<tag k="name" v="Delingsdalen" />
		<tag k="natural" v="valley" />
		<tag k="place" v="locality" />
		<tag k="ssr:stedsnr" v="406692" />
	</node>
	<node id="-27442" lat="59.9468888923" lon="11.5774972223">
		<tag k="fixme" v="consider natural=peak for the most distinct mountains in the district" />
		<tag k="name" v="Børtåsen" />
		<tag k="natural" v="hill" />
		<tag k="place" v="locality" />
		<tag k="ssr:stedsnr" v="406469" />
	</node>
	<node id="-27440" lat="59.9489972229" lon="11.5591055527">
		<tag k="fixme" v="consider natural=peak for the most distinct mountains in the district" />
		<tag k="name" v="Brenna" />
		<tag k="natural" v="hill" />
		<tag k="place" v="locality" />
		<tag k="ssr:stedsnr" v="406397" />
	</node>
	<node id="-27439" lat="59.9452888925" lon="11.5627777783">
		<tag k="name" v="Sleipdalen" />
		<tag k="natural" v="valley" />
		<tag k="place" v="locality" />
		<tag k="ssr:stedsnr" v="406393" />
	</node>
	<node id="-29481" lat="59.9785305602" lon="11.5834527721">
		<tag k="fixme" v="consider natural=peak for the most distinct mountains in the district" />
		<tag k="name" v="Tråkkåsen" />
		<tag k="natural" v="hill" />
		<tag k="place" v="locality" />
		<tag k="ssr:stedsnr" v="550985" />
	</node>
	<node id="-27429" lat="59.9760361137" lon="11.7546750083">
		<tag k="fixme" v="consider natural=peak for the most distinct mountains in the district" />
		<tag k="name" v="Dalengåsen" />
		<tag k="natural" v="hill" />
		<tag k="place" v="locality" />
		<tag k="ssr:stedsnr" v="404984" />
	</node>
	<node id="-27419" lat="59.7961499956" lon="11.6330805566">
		<tag k="fixme" v="consider natural=peak for the most distinct mountains in the district" />
		<tag k="name" v="Lystjennhøgda" />
		<tag k="natural" v="hill" />
		<tag k="place" v="locality" />
		<tag k="ssr:stedsnr" v="404215" />
	</node>
	<node id="-29456" lat="59.7626555597" lon="11.5582333308">
		<tag k="name" v="Delingsdalen" />
		<tag k="natural" v="valley" />
		<tag k="place" v="locality" />
		<tag k="ssr:stedsnr" v="550384" />
	</node>
	<node id="-27402" lat="59.7083434819" lon="11.5757987071">
		<tag k="name" v="Stormoen" />
		<tag k="place" v="locality" />
		<tag k="ssr:stedsnr" v="403784" />
	</node>
	<node id="-29447" lat="59.8019027776" lon="11.5287527707">
		<tag k="fixme" v="consider natural=peak for the most distinct mountains in the district" />
		<tag k="name" v="Kvernhusåsen" />
		<tag k="natural" v="hill" />
		<tag k="place" v="locality" />
		<tag k="ssr:stedsnr" v="550254" />
	</node>
	<node id="-27398" lat="59.9709694475" lon="11.68806667">
		<tag k="fixme" v="consider natural=peak for the most distinct mountains in the district" />
		<tag k="name" v="Bergerudhøgda" />
		<tag k="natural" v="hill" />
		<tag k="place" v="locality" />
		<tag k="ssr:stedsnr" v="241149" />
	</node>
	<node id="-27396" lat="59.998841671" lon="11.6465444438">
		<tag k="name" v="Sinkerudlia" />
		<tag k="natural" v="slope" />
		<tag k="place" v="locality" />
		<tag k="ssr:stedsnr" v="403706" />
	</node>
	<node id="-27094" lat="59.9703166645" lon="11.6542138947">
		<tag k="alt_name" v="Bjønnmyrhøgda" />
		<tag k="name" v="Bjørnemyrhøgda" />
		<tag k="natural" v="hill" />
		<tag k="place" v="locality" />
		<tag k="ssr:stedsnr" v="308972" />
	</node>
	<node id="-29442" lat="59.9018777756" lon="11.5401333272">
		<tag k="fixme" v="consider natural=peak for the most distinct mountains in the district" />
		<tag k="name" v="Råkaldåsen" />
		<tag k="natural" v="hill" />
		<tag k="place" v="locality" />
		<tag k="ssr:stedsnr" v="550235" />
	</node>
	<node id="-29441" lat="59.9070499987" lon="11.4931472133">
		<tag k="fixme" v="multiple name tags, choose one and add the other to alt_name" />
		<tag k="name" v="Deledalen;Toveruddalen" />
		<tag k="natural" v="valley" />
		<tag k="place" v="locality" />
		<tag k="ssr:stedsnr" v="550233" />
	</node>
	<node id="-27389" lat="59.6964194406" lon="11.3753027743">
		<tag k="fixme" v="consider natural=peak for the most distinct mountains in the district" />
		<tag k="name" v="Arreståsen" />
		<tag k="natural" v="hill" />
		<tag k="place" v="locality" />
		<tag k="ssr:stedsnr" v="386224" />
	</node>
	<node id="-29434" lat="59.8706611127" lon="11.6957833298">
		<tag k="fixme" v="consider natural=peak for the most distinct mountains in the district" />
		<tag k="name" v="Kastet" />
		<tag k="natural" v="hill" />
		<tag k="place" v="locality" />
		<tag k="ssr:stedsnr" v="550170" />
	</node>
	<node id="-27384" lat="59.8280333361" lon="11.4301527693">
		<tag k="fixme" v="consider natural=peak for the most distinct mountains in the district" />
		<tag k="name" v="Brannåsen" />
		<tag k="natural" v="hill" />
		<tag k="place" v="locality" />
		<tag k="ssr:stedsnr" v="369759" />
	</node>
	<node id="-29429" lat="59.9596805554" lon="11.4728888945">
		<tag k="fixme" v="consider natural=peak for the most distinct mountains in the district" />
		<tag k="name" v="Balterudåsen" />
		<tag k="natural" v="hill" />
		<tag k="place" v="locality" />
		<tag k="ssr:stedsnr" v="550110" />
	</node>
	<node id="-27380" lat="60.0083722266" lon="11.7567222217">
		<tag k="fixme" v="consider natural=peak for the most distinct mountains in the district" />
		<tag k="name" v="Svartkollen" />
		<tag k="natural" v="hill" />
		<tag k="place" v="locality" />
		<tag k="ssr:stedsnr" v="369529" />
	</node>
	<node id="-27378" lat="60.0106999963" lon="11.7236999908">
		<tag k="alt_name" v="Bukkeholta" />
		<tag k="name" v="Bukkeholtet" />
		<tag k="natural" v="hill" />
		<tag k="place" v="locality" />
		<tag k="ssr:stedsnr" v="369508" />
	</node>
	<node id="-27377" lat="59.9076111085" lon="11.6419416612">
		<tag k="alt_name" v="Sagåsen" />
		<tag k="fixme" v="consider natural=peak for the most distinct mountains in the district" />
		<tag k="name" v="Knatten" />
		<tag k="natural" v="hill" />
		<tag k="place" v="locality" />
		<tag k="ssr:stedsnr" v="369476" />
	</node>
	<node id="-27773" lat="59.7775749963" lon="11.4060638814">
		<tag k="name" v="Verkdalen" />
		<tag k="natural" v="valley" />
		<tag k="place" v="locality" />
		<tag k="ssr:stedsnr" v="42422" />
	</node>
	<node id="-29281" lat="59.9690277783" lon="11.4447277712">
		<tag k="name" v="Hæslibrauta" />
		<tag k="place" v="locality" />
		<tag k="ssr:stedsnr" v="525019" />
	</node>
	<node id="-27370" lat="59.8173249997" lon="11.7326555574">
		<tag k="name" v="Ufsene" />
		<tag k="natural" v="cliff" />
		<tag k="ssr:stedsnr" v="369279" />
	</node>
	<node id="-29416" lat="59.7991416658" lon="11.3764916627">
		<tag k="name" v="Styggedalen" />
		<tag k="natural" v="valley" />
		<tag k="place" v="locality" />
		<tag k="ssr:stedsnr" v="544875" />
	</node>
	<node id="-29412" lat="59.8077472201" lon="11.8416305465">
		<tag k="name" v="Vestre Bukkedal" />
		<tag k="natural" v="valley" />
		<tag k="place" v="locality" />
		<tag k="ssr:stedsnr" v="544710" />
	</node>
	<node id="-27771" lat="59.7777083345" lon="11.4354194492">
		<tag k="fixme" v="consider natural=peak for the most distinct mountains in the district" />
		<tag k="name" v="Revjaåsen" />
		<tag k="natural" v="hill" />
		<tag k="place" v="locality" />
		<tag k="ssr:stedsnr" v="42391" />
	</node>
	<node id="-29408" lat="59.9189083334" lon="11.6371666597">
		<tag k="name" v="Toreberget" />
		<tag k="natural" v="hill" />
		<tag k="place" v="locality" />
		<tag k="ssr:stedsnr" v="544627" />
	</node>
	<node id="-29406" lat="59.903102777" lon="11.4216194393">
		<tag k="fixme" v="consider natural=peak for the most distinct mountains in the district" />
		<tag k="name" v="Morttjennåsen" />
		<tag k="natural" v="hill" />
		<tag k="place" v="locality" />
		<tag k="ssr:stedsnr" v="544510" />
	</node>
	<node id="-29405" lat="59.902163893" lon="11.4350388955">
		<tag k="name" v="Langbråtedalen" />
		<tag k="natural" v="valley" />
		<tag k="place" v="locality" />
		<tag k="ssr:stedsnr" v="544507" />
	</node>
	<node id="-27356" lat="59.8565527792" lon="11.6779333327">
		<tag k="fixme" v="multiple name tags, choose one and add the other to alt_name" />
		<tag k="name" v="Knatten;Åmotshøgda" />
		<tag k="natural" v="hill" />
		<tag k="place" v="locality" />
		<tag k="ssr:stedsnr" v="369129" />
	</node>
	<node id="-29402" lat="59.9076249963" lon="11.7625805576">
		<tag k="fixme" v="consider natural=peak for the most distinct mountains in the district" />
		<tag k="name" v="Mærliåsen" />
		<tag k="natural" v="hill" />
		<tag k="place" v="locality" />
		<tag k="ssr:stedsnr" v="544430" />
	</node>
	<node id="-27352" lat="59.9602972238" lon="11.7213138905">
		<tag k="alt_name" v="Vaalaasen" />
		<tag k="fixme" v="consider natural=peak for the most distinct mountains in the district" />
		<tag k="name" v="Vålåsen" />
		<tag k="natural" v="hill" />
		<tag k="place" v="locality" />
		<tag k="ssr:stedsnr" v="369094" />
	</node>
	<node id="-29399" lat="59.6749416681" lon="11.5540527812">
		<tag k="name" v="Stordalen" />
		<tag k="natural" v="valley" />
		<tag k="place" v="locality" />
		<tag k="ssr:stedsnr" v="544414" />
	</node>
	<node id="-29397" lat="59.8684027754" lon="11.6388833298">
		<tag k="fixme" v="consider natural=peak for the most distinct mountains in the district" />
		<tag k="name" v="Langtjennåsen" />
		<tag k="natural" v="hill" />
		<tag k="place" v="locality" />
		<tag k="ssr:stedsnr" v="544250" />
	</node>
	<node id="-29395" lat="59.9690944414" lon="11.6599944408">
		<tag k="name" v="Igletjennhøgda" />
		<tag k="natural" v="ridge" />
		<tag k="place" v="locality" />
		<tag k="ssr:stedsnr" v="544162" />
	</node>
	<node id="-27344" lat="59.9241138874" lon="11.7358833267">
		<tag k="fixme" v="consider natural=peak for the most distinct mountains in the district" />
		<tag k="name" v="Mangfjellet" />
		<tag k="natural" v="hill" />
		<tag k="place" v="locality" />
		<tag k="ssr:stedsnr" v="369037" />
	</node>
	<node id="-29390" lat="59.9603027765" lon="11.59247778">
		<tag k="name" v="Bukkåsen" />
		<tag k="natural" v="slope" />
		<tag k="place" v="locality" />
		<tag k="ssr:stedsnr" v="544108" />
	</node>
	<node id="-28450" lat="59.7571138932" lon="11.5185805595">
		<tag k="name" v="Masbrudalen" />
		<tag k="natural" v="valley" />
		<tag k="place" v="locality" />
		<tag k="ssr:stedsnr" v="186431" />
	</node>
	<node id="-29385" lat="59.7746111133" lon="11.6116777747">
		<tag k="fixme" v="consider natural=peak for the most distinct mountains in the district" />
		<tag k="name" v="Stikktjennåsen" />
		<tag k="natural" v="hill" />
		<tag k="place" v="locality" />
		<tag k="ssr:stedsnr" v="543958" />
	</node>
	<node id="-29383" lat="59.7749333373" lon="11.5522499939">
		<tag k="name" v="Barbrudalen" />
		<tag k="natural" v="valley" />
		<tag k="place" v="locality" />
		<tag k="ssr:stedsnr" v="543786" />
	</node>
	<node id="-29375" lat="59.9124388877" lon="11.3959666719">
		<tag k="fixme" v="consider natural=peak for the most distinct mountains in the district" />
		<tag k="name" v="Bråtaåsen" />
		<tag k="natural" v="hill" />
		<tag k="place" v="locality" />
		<tag k="ssr:stedsnr" v="543317" />
	</node>
	<node id="-29374" lat="59.8998666674" lon="11.3732805517">
		<tag k="name" v="Gunnartjenndalen" />
		<tag k="natural" v="valley" />
		<tag k="place" v="locality" />
		<tag k="ssr:stedsnr" v="543294" />
	</node>
	<node id="-27325" lat="59.7866638884" lon="11.6616166702">
		<tag k="fixme" v="consider natural=peak for the most distinct mountains in the district" />
		<tag k="name" v="Abbortjennåsen" />
		<tag k="natural" v="hill" />
		<tag k="place" v="locality" />
		<tag k="ssr:stedsnr" v="368513" />
	</node>
	<node id="-29367" lat="59.8865944488" lon="11.4096388961">
		<tag k="name" v="Krullfuruåsen" />
		<tag k="natural" v="hill" />
		<tag k="place" v="locality" />
		<tag k="ssr:stedsnr" v="542370" />
	</node>
	<node id="-29366" lat="59.8924305568" lon="11.4279916735">
		<tag k="name" v="Vaskekrakken" />
		<tag k="place" v="locality" />
		<tag k="ssr:stedsnr" v="542358" />
	</node>
	<node id="-29365" lat="59.8923666656" lon="11.4332805573">
		<tag k="fixme" v="consider natural=peak for the most distinct mountains in the district" />
		<tag k="name" v="Søljedalshøgda" />
		<tag k="natural" v="hill" />
		<tag k="place" v="locality" />
		<tag k="ssr:stedsnr" v="542359" />
	</node>
	<node id="-29362" lat="59.8891305532" lon="11.3793611112">
		<tag k="name" v="Hanakammen" />
		<tag k="natural" v="hill" />
		<tag k="place" v="locality" />
		<tag k="ssr:stedsnr" v="542252" />
	</node>
	<node id="-29359" lat="59.8854916636" lon="11.5166638846">
		<tag k="name" v="Lauvlifjell" />
		<tag k="place" v="locality" />
		<tag k="ssr:stedsnr" v="541892" />
	</node>
	<node id="-27309" lat="59.8957722261" lon="11.5098972195">
		<tag k="fixme" v="consider natural=peak for the most distinct mountains in the district" />
		<tag k="name" v="Svarttjennhøgda" />
		<tag k="natural" v="hill" />
		<tag k="place" v="locality" />
		<tag k="ssr:stedsnr" v="368249" />
	</node>
	<node id="-29356" lat="59.796313889" lon="11.8720027864">
		<tag k="name" v="Holmene" />
		<tag k="natural" v="hill" />
		<tag k="place" v="locality" />
		<tag k="ssr:stedsnr" v="541755" />
	</node>
	<node id="-27303" lat="59.8653750006" lon="11.7326333304">
		<tag k="fixme" v="consider natural=peak for the most distinct mountains in the district" />
		<tag k="name" v="Skremtjennhøgda" />
		<tag k="natural" v="hill" />
		<tag k="place" v="locality" />
		<tag k="ssr:stedsnr" v="368149" />
	</node>
	<node id="-29350" lat="59.9556166652" lon="11.6028777831">
		<tag k="name" v="Tørrmoslora" />
		<tag k="natural" v="valley" />
		<tag k="place" v="locality" />
		<tag k="ssr:stedsnr" v="541272" />
	</node>
	<node id="-29344" lat="59.867655559" lon="11.5360583248">
		<tag k="name" v="Hageåsen" />
		<tag k="natural" v="hill" />
		<tag k="place" v="locality" />
		<tag k="ssr:stedsnr" v="540914" />
	</node>
	<node id="-27292" lat="59.7725916691" lon="11.3702916588">
		<tag k="fixme" v="consider natural=peak for the most distinct mountains in the district" />
		<tag k="name" v="Brannsberga" />
		<tag k="natural" v="hill" />
		<tag k="place" v="locality" />
		<tag k="ssr:stedsnr" v="362962" />
	</node>
	<node id="-27076" lat="59.8749166623" lon="11.4328583332">
		<tag k="fixme" v="consider natural=peak for the most distinct mountains in the district" />
		<tag k="name" v="Blåkollen" />
		<tag k="natural" v="hill" />
		<tag k="place" v="locality" />
		<tag k="ssr:stedsnr" v="308657" />
	</node>
	<node id="-29332" lat="59.814094441" lon="11.8912666598">
		<tag k="name" v="Krokvasslia" />
		<tag k="natural" v="slope" />
		<tag k="place" v="locality" />
		<tag k="ssr:stedsnr" v="527855" />
	</node>
	<node id="-29574" lat="59.9809972224" lon="11.5409416741">
		<tag k="name" v="Skjepptjennberga" />
		<tag k="natural" v="cliff" />
		<tag k="ssr:stedsnr" v="586480" />
	</node>
	<node id="-29323" lat="59.9026138868" lon="11.5139527759">
		<tag k="name" v="Linjedalen" />
		<tag k="natural" v="valley" />
		<tag k="place" v="locality" />
		<tag k="ssr:stedsnr" v="527427" />
	</node>
	<node id="-27274" lat="59.9289861105" lon="11.7951111141">
		<tag k="name" v="Lauvtjenntangen" />
		<tag k="natural" v="ridge" />
		<tag k="place" v="locality" />
		<tag k="ssr:stedsnr" v="362422" />
	</node>
	<node id="-27272" lat="59.951469443" lon="11.7813666665">
		<tag k="name" v="Knattedalen" />
		<tag k="natural" v="valley" />
		<tag k="place" v="locality" />
		<tag k="ssr:stedsnr" v="362396" />
	</node>
	<node id="-29316" lat="59.8427944405" lon="11.7821111037">
		<tag k="name" v="Lembrukleiva" />
		<tag k="natural" v="slope" />
		<tag k="place" v="locality" />
		<tag k="ssr:stedsnr" v="527246" />
	</node>
	<node id="-29315" lat="59.8395027745" lon="11.7545055493">
		<tag k="name" v="Skaratjennlia" />
		<tag k="natural" v="slope" />
		<tag k="place" v="locality" />
		<tag k="ssr:stedsnr" v="527241" />
	</node>
	<node id="-27755" lat="59.975277776" lon="11.7800861138">
		<tag k="name" v="Kulphella" />
		<tag k="place" v="locality" />
		<tag k="ssr:stedsnr" v="40995" />
	</node>
	<node id="-27264" lat="59.9662055554" lon="11.6165750065">
		<tag k="name" v="Kaprialbakken" />
		<tag k="natural" v="slope" />
		<tag k="place" v="locality" />
		<tag k="ssr:stedsnr" v="362130" />
	</node>
	<node id="-27263" lat="59.9675277794" lon="11.5791722284">
		<tag k="name" v="Harekleiva" />
		<tag k="natural" v="slope" />
		<tag k="place" v="locality" />
		<tag k="ssr:stedsnr" v="362115" />
	</node>
	<node id="-27260" lat="59.6187472258" lon="11.4801805471">
		<tag k="fixme" v="consider natural=peak for the most distinct mountains in the district" />
		<tag k="name" v="Kastås" />
		<tag k="natural" v="hill" />
		<tag k="place" v="locality" />
		<tag k="ssr:stedsnr" v="361759" />
	</node>
	<node id="-29304" lat="59.966966663" lon="11.4063361163">
		<tag k="name" v="Brenna" />
		<tag k="natural" v="slope" />
		<tag k="place" v="locality" />
		<tag k="ssr:stedsnr" v="525828" />
	</node>
	<node id="-29303" lat="59.9669722259" lon="11.4010888843">
		<tag k="name" v="Djupdalen" />
		<tag k="natural" v="valley" />
		<tag k="place" v="locality" />
		<tag k="ssr:stedsnr" v="525823" />
	</node>
	<node id="-29300" lat="60.0048416668" lon="11.5766249944">
		<tag k="name" v="Djupdalen" />
		<tag k="natural" v="valley" />
		<tag k="place" v="locality" />
		<tag k="ssr:stedsnr" v="525780" />
	</node>
	<node id="-29299" lat="60.0164861097" lon="11.5286638961">
		<tag k="name" v="Kalddalen" />
		<tag k="natural" v="valley" />
		<tag k="place" v="locality" />
		<tag k="ssr:stedsnr" v="525769" />
	</node>
	<node id="-29296" lat="59.9868611122" lon="11.5759277792">
		<tag k="name" v="Andersdalen" />
		<tag k="natural" v="valley" />
		<tag k="place" v="locality" />
		<tag k="ssr:stedsnr" v="525627" />
	</node>
	<node id="-29288" lat="59.7986833305" lon="11.6349388913">
		<tag k="name" v="Fosshøgda" />
		<tag k="natural" v="hill" />
		<tag k="place" v="locality" />
		<tag k="ssr:stedsnr" v="525233" />
	</node>
	<node id="-29287" lat="59.800444442" lon="11.5905722265">
		<tag k="name" v="Stangslia" />
		<tag k="natural" v="slope" />
		<tag k="place" v="locality" />
		<tag k="ssr:stedsnr" v="525224" />
	</node>
	<node id="-29286" lat="59.8019499993" lon="11.6057388884">
		<tag k="name" v="Røydalen" />
		<tag k="natural" v="valley" />
		<tag k="place" v="locality" />
		<tag k="ssr:stedsnr" v="525225" />
	</node>
	<node id="-31329" lat="59.9269305535" lon="11.6178833419">
		<tag k="name" v="Djupdalen" />
		<tag k="natural" v="valley" />
		<tag k="place" v="locality" />
		<tag k="ssr:stedsnr" v="969605" />
	</node>
	<node id="-29280" lat="59.9802666695" lon="11.5592805597">
		<tag k="name" v="Rundtjennholene" />
		<tag k="place" v="locality" />
		<tag k="ssr:stedsnr" v="525005" />
	</node>
	<node id="-27228" lat="59.8993750041" lon="11.4631916644">
		<tag k="name" v="Stordalen" />
		<tag k="natural" v="valley" />
		<tag k="place" v="locality" />
		<tag k="ssr:stedsnr" v="360336" />
	</node>
	<node id="-27226" lat="59.8776249995" lon="11.4696055636">
		<tag k="name" v="Kvekula" />
		<tag k="natural" v="hill" />
		<tag k="place" v="locality" />
		<tag k="ssr:stedsnr" v="360324" />
	</node>
	<node id="-31321" lat="59.9060916649" lon="11.7571944453">
		<tag k="name" v="Høgmåsalia" />
		<tag k="natural" v="slope" />
		<tag k="place" v="locality" />
		<tag k="ssr:stedsnr" v="969449" />
	</node>
	<node id="-31317" lat="59.8492722256" lon="11.7339916728">
		<tag k="fixme" v="consider natural=peak for the most distinct mountains in the district" />
		<tag k="name" v="Merrabrenna" />
		<tag k="natural" v="hill" />
		<tag k="place" v="locality" />
		<tag k="ssr:stedsnr" v="969193" />
	</node>
	<node id="-31316" lat="59.968091667" lon="11.6753611146">
		<tag k="name" v="Østre Ormemyrholen" />
		<tag k="natural" v="ridge" />
		<tag k="place" v="locality" />
		<tag k="ssr:stedsnr" v="969172" />
	</node>
	<node id="-27219" lat="59.8350416703" lon="11.3184777775">
		<tag k="name" v="Tjuvdalen" />
		<tag k="natural" v="valley" />
		<tag k="place" v="locality" />
		<tag k="ssr:stedsnr" v="359730" />
	</node>
	<node id="-31314" lat="59.9766611094" lon="11.5838638887">
		<tag k="name" v="Knølldalslia" />
		<tag k="natural" v="slope" />
		<tag k="place" v="locality" />
		<tag k="ssr:stedsnr" v="969158" />
	</node>
	<node id="-31312" lat="59.8918444429" lon="11.3360944476">
		<tag k="name" v="Steinkjerringa" />
		<tag k="place" v="locality" />
		<tag k="ssr:stedsnr" v="969053" />
	</node>
	<node id="-29262" lat="59.9909500007" lon="11.4826499973">
		<tag k="name" v="Delingsdalen" />
		<tag k="natural" v="valley" />
		<tag k="place" v="locality" />
		<tag k="ssr:stedsnr" v="490966" />
	</node>
	<node id="-29261" lat="59.9961500005" lon="11.6093249916">
		<tag k="name" v="Jogelia" />
		<tag k="natural" v="slope" />
		<tag k="place" v="locality" />
		<tag k="ssr:stedsnr" v="490960" />
	</node>
	<node id="-27211" lat="59.9387972257" lon="11.6408777808">
		<tag k="name" v="Butjennlia" />
		<tag k="natural" v="slope" />
		<tag k="place" v="locality" />
		<tag k="ssr:stedsnr" v="359268" />
	</node>
	<node id="-29256" lat="59.7934944411" lon="11.3390111055">
		<tag k="name" v="Knektedalen" />
		<tag k="natural" v="valley" />
		<tag k="place" v="locality" />
		<tag k="ssr:stedsnr" v="490817" />
	</node>
	<node id="-28428" lat="59.8870027744" lon="11.6551777699">
		<tag k="name" v="Svartsæterhøgda" />
		<tag k="natural" v="hill" />
		<tag k="place" v="locality" />
		<tag k="ssr:stedsnr" v="186190" />
	</node>
	<node id="-29253" lat="59.9080611095" lon="11.3429527852">
		<tag k="name" v="Vinterdalen" />
		<tag k="natural" v="valley" />
		<tag k="place" v="locality" />
		<tag k="ssr:stedsnr" v="490608" />
	</node>
	<node id="-31296" lat="59.6897750005" lon="11.5601055531">
		<tag k="name" v="Trolldalen" />
		<tag k="natural" v="valley" />
		<tag k="place" v="locality" />
		<tag k="ssr:stedsnr" v="968387" />
	</node>
	<node id="-27198" lat="60.0026555512" lon="11.7078444393">
		<tag k="name" v="Deledalen" />
		<tag k="natural" v="valley" />
		<tag k="place" v="locality" />
		<tag k="ssr:stedsnr" v="358183" />
	</node>
	<node id="-27194" lat="60.0026861086" lon="11.8314888906">
		<tag k="name" v="Havsjølia" />
		<tag k="natural" v="slope" />
		<tag k="place" v="locality" />
		<tag k="ssr:stedsnr" v="345910" />
	</node>
	<node id="-29241" lat="59.8566944421" lon="11.8183361055">
		<tag k="name" v="Eikeheihøgda" />
		<tag k="natural" v="hill" />
		<tag k="place" v="locality" />
		<tag k="ssr:stedsnr" v="490349" />
	</node>
	<node id="-31288" lat="59.7699749967" lon="11.5889055473">
		<tag k="name" v="Åsvassdalen" />
		<tag k="natural" v="valley" />
		<tag k="place" v="locality" />
		<tag k="ssr:stedsnr" v="967927" />
	</node>
	<node id="-27191" lat="59.8322944438" lon="11.5305305628">
		<tag k="fixme" v="consider natural=peak for the most distinct mountains in the district" />
		<tag k="name" v="Stubbengåsen" />
		<tag k="natural" v="hill" />
		<tag k="place" v="locality" />
		<tag k="ssr:stedsnr" v="345848" />
	</node>
	<node id="-31285" lat="59.7820194439" lon="11.5374833282">
		<tag k="fixme" v="consider natural=peak for the most distinct mountains in the district" />
		<tag k="name" v="Tittutåsen" />
		<tag k="natural" v="hill" />
		<tag k="place" v="locality" />
		<tag k="ssr:stedsnr" v="967783" />
	</node>
	<node id="-27187" lat="59.9161083313" lon="11.6487527803">
		<tag k="name" v="Stavtjenndalen" />
		<tag k="natural" v="valley" />
		<tag k="place" v="locality" />
		<tag k="ssr:stedsnr" v="345789" />
	</node>
	<node id="-31281" lat="59.9221472245" lon="11.686780564">
		<tag k="name" v="Korpedalen" />
		<tag k="natural" v="valley" />
		<tag k="place" v="locality" />
		<tag k="ssr:stedsnr" v="967722" />
	</node>
	<node id="-31278" lat="59.8823944426" lon="11.7038055598">
		<tag k="fixme" v="consider natural=peak for the most distinct mountains in the district" />
		<tag k="name" v="Sætermohøgda" />
		<tag k="natural" v="hill" />
		<tag k="place" v="locality" />
		<tag k="ssr:stedsnr" v="967658" />
	</node>
	<node id="-31277" lat="59.9250333317" lon="11.7459888913">
		<tag k="name" v="Jeinstigåsen" />
		<tag k="place" v="locality" />
		<tag k="ssr:stedsnr" v="967652" />
	</node>
	<node id="-27180" lat="59.8997388872" lon="11.5204250027">
		<tag k="name" v="Delingsdalen" />
		<tag k="natural" v="valley" />
		<tag k="place" v="locality" />
		<tag k="ssr:stedsnr" v="345399" />
	</node>
	<node id="-31271" lat="59.9554694468" lon="11.4224111161">
		<tag k="name" v="Moen" />
		<tag k="place" v="locality" />
		<tag k="ssr:stedsnr" v="967427" />
	</node>
	<node id="-27171" lat="59.8953138904" lon="11.4981666664">
		<tag k="name" v="Deledalen" />
		<tag k="natural" v="valley" />
		<tag k="place" v="locality" />
		<tag k="ssr:stedsnr" v="344442" />
	</node>
	<node id="-27433" lat="59.9841361102" lon="11.4808194482">
		<tag k="name" v="Tangedalen" />
		<tag k="natural" v="valley" />
		<tag k="place" v="locality" />
		<tag k="ssr:stedsnr" v="405358" />
	</node>
	<node id="-29217" lat="59.9369500036" lon="11.629505558">
		<tag k="fixme" v="consider natural=peak for the most distinct mountains in the district" />
		<tag k="name" v="Holtemyråsen" />
		<tag k="natural" v="hill" />
		<tag k="place" v="locality" />
		<tag k="ssr:stedsnr" v="490086" />
	</node>
	<node id="-31262" lat="59.8895277755" lon="11.5235472162">
		<tag k="name" v="Larskjerke" />
		<tag k="natural" v="hill" />
		<tag k="place" v="locality" />
		<tag k="ssr:stedsnr" v="966627" />
	</node>
	<node id="-31261" lat="59.8807555527" lon="11.6298361052">
		<tag k="name" v="Djuptjennliene" />
		<tag k="natural" v="slope" />
		<tag k="place" v="locality" />
		<tag k="ssr:stedsnr" v="966613" />
	</node>
	<node id="-31256" lat="59.9582166703" lon="11.5645833295">
		<tag k="fixme" v="consider natural=peak for the most distinct mountains in the district" />
		<tag k="name" v="Strømstadåsen" />
		<tag k="natural" v="hill" />
		<tag k="place" v="locality" />
		<tag k="ssr:stedsnr" v="966374" />
	</node>
	<node id="-29207" lat="59.9915833359" lon="11.7788722232">
		<tag k="fixme" v="consider natural=peak for the most distinct mountains in the district" />
		<tag k="name" v="Sagåsen" />
		<tag k="natural" v="hill" />
		<tag k="place" v="locality" />
		<tag k="ssr:stedsnr" v="489949" />
	</node>
	<node id="-27157" lat="60.0121166679" lon="11.5739444358">
		<tag k="name" v="Trappa" />
		<tag k="place" v="locality" />
		<tag k="ssr:stedsnr" v="343835" />
	</node>
	<node id="-27054" lat="59.7546250037" lon="11.5959249995">
		<tag k="fixme" v="multiple name tags, choose one and add the other to alt_name" />
		<tag k="name" v="Mørkomdalen;Østre Mørkomdalen" />
		<tag k="natural" v="valley" />
		<tag k="place" v="locality" />
		<tag k="ssr:stedsnr" v="308359" />
	</node>
	<node id="-29197" lat="59.7883694436" lon="11.7497861111">
		<tag k="fixme" v="consider natural=peak for the most distinct mountains in the district" />
		<tag k="name" v="Vestre Hauketjennkollen" />
		<tag k="natural" v="hill" />
		<tag k="place" v="locality" />
		<tag k="ssr:stedsnr" v="490442" />
	</node>
	<node id="-29196" lat="59.7837583364" lon="11.6283249935">
		<tag k="alt_name" v="Bråtehøgda" />
		<tag k="name" v="Bråtåhøgda" />
		<tag k="natural" v="hill" />
		<tag k="place" v="locality" />
		<tag k="ssr:stedsnr" v="490440" />
	</node>
	<node id="-31242" lat="59.8237166627" lon="11.5527527788">
		<tag k="name" v="Bjørnedalen" />
		<tag k="natural" v="valley" />
		<tag k="place" v="locality" />
		<tag k="ssr:stedsnr" v="965233" />
	</node>
	<node id="-27145" lat="59.769124996" lon="11.4039250047">
		<tag k="name" v="Svarttjenndalen" />
		<tag k="natural" v="valley" />
		<tag k="place" v="locality" />
		<tag k="ssr:stedsnr" v="343301" />
	</node>
	<node id="-27141" lat="59.7968972211" lon="11.5813305562">
		<tag k="name" v="Delingsdalen" />
		<tag k="natural" v="valley" />
		<tag k="place" v="locality" />
		<tag k="ssr:stedsnr" v="343201" />
	</node>
	<node id="-27139" lat="59.9750694407" lon="11.4980999939">
		<tag k="name" v="Engeråsen" />
		<tag k="natural" v="hill" />
		<tag k="place" v="locality" />
		<tag k="ssr:stedsnr" v="343119" />
	</node>
	<node id="-27138" lat="59.9780333328" lon="11.4638361121">
		<tag k="name" v="Rugholet" />
		<tag k="place" v="locality" />
		<tag k="ssr:stedsnr" v="343115" />
	</node>
	<node id="-27137" lat="59.9525138866" lon="11.67747222">
		<tag k="name" v="Langtjennbrenna" />
		<tag k="natural" v="ridge" />
		<tag k="place" v="locality" />
		<tag k="ssr:stedsnr" v="343114" />
	</node>
	<node id="-29182" lat="59.6933527817" lon="11.5537999937">
		<tag k="fixme" v="consider natural=peak for the most distinct mountains in the district" />
		<tag k="name" v="Vaktåsen" />
		<tag k="natural" v="hill" />
		<tag k="place" v="locality" />
		<tag k="ssr:stedsnr" v="489371" />
	</node>
	<node id="-27132" lat="59.8004666711" lon="11.5054555543">
		<tag k="name" v="Trolldalen" />
		<tag k="natural" v="valley" />
		<tag k="place" v="locality" />
		<tag k="ssr:stedsnr" v="343015" />
	</node>
	<node id="-27131" lat="59.96563889" lon="11.4258777788">
		<tag k="name" v="Grønlandslia" />
		<tag k="natural" v="slope" />
		<tag k="place" v="locality" />
		<tag k="ssr:stedsnr" v="343009" />
	</node>
	<node id="-31226" lat="59.8294972261" lon="11.7482527718">
		<tag k="fixme" v="consider natural=peak for the most distinct mountains in the district" />
		<tag k="name" v="Damtjennhøgda" />
		<tag k="natural" v="hill" />
		<tag k="place" v="locality" />
		<tag k="ssr:stedsnr" v="952834" />
	</node>
	<node id="-31223" lat="59.895211115" lon="11.6629499933">
		<tag k="fixme" v="consider natural=peak for the most distinct mountains in the district" />
		<tag k="name" v="Breisjøhøgda" />
		<tag k="natural" v="hill" />
		<tag k="place" v="locality" />
		<tag k="ssr:stedsnr" v="952767" />
	</node>
	<node id="-27126" lat="59.827475003" lon="11.8330333282">
		<tag k="fixme" v="consider natural=peak for the most distinct mountains in the district" />
		<tag k="name" v="Hvitfjellet" />
		<tag k="natural" v="hill" />
		<tag k="place" v="locality" />
		<tag k="ssr:stedsnr" v="342862" />
	</node>
	<node id="-29172" lat="59.9024583298" lon="11.6556555585">
		<tag k="fixme" v="consider natural=peak for the most distinct mountains in the district" />
		<tag k="name" v="Rossheia" />
		<tag k="natural" v="hill" />
		<tag k="place" v="locality" />
		<tag k="ssr:stedsnr" v="489254" />
	</node>
	<node id="-27123" lat="59.7419222239" lon="11.6677555569">
		<tag k="name" v="Vadalen" />
		<tag k="natural" v="valley" />
		<tag k="place" v="locality" />
		<tag k="ssr:stedsnr" v="342352" />
	</node>
	<node id="-31217" lat="59.9445527816" lon="11.5507222287">
		<tag k="fixme" v="consider natural=peak for the most distinct mountains in the district" />
		<tag k="name" v="Øgardsåsen" />
		<tag k="natural" v="hill" />
		<tag k="place" v="locality" />
		<tag k="ssr:stedsnr" v="952394" />
	</node>
	<node id="-27117" lat="59.6424138905" lon="11.5017499926">
		<tag k="fixme" v="consider natural=peak for the most distinct mountains in the district" />
		<tag k="name" v="Hønmokollen" />
		<tag k="natural" v="hill" />
		<tag k="place" v="locality" />
		<tag k="ssr:stedsnr" v="340116" />
	</node>
	<node id="-29163" lat="59.9729194479" lon="11.6394916611">
		<tag k="fixme" v="consider natural=peak for the most distinct mountains in the district" />
		<tag k="name" v="Høgåsen" />
		<tag k="natural" v="hill" />
		<tag k="place" v="locality" />
		<tag k="ssr:stedsnr" v="484152" />
	</node>
	<node id="-31210" lat="59.8622749958" lon="11.5799305601">
		<tag k="name" v="Djupdalen" />
		<tag k="natural" v="valley" />
		<tag k="place" v="locality" />
		<tag k="ssr:stedsnr" v="951858" />
	</node>
	<node id="-31206" lat="59.9641027753" lon="11.7388305558">
		<tag k="name" v="Oredalen" />
		<tag k="natural" v="valley" />
		<tag k="place" v="locality" />
		<tag k="ssr:stedsnr" v="951346" />
	</node>
	<node id="-27109" lat="59.7034083311" lon="11.3842777853">
		<tag k="name" v="Haukedalen" />
		<tag k="natural" v="valley" />
		<tag k="place" v="locality" />
		<tag k="ssr:stedsnr" v="326198" />
	</node>
	<node id="-31203" lat="59.975411111" lon="11.7587999983">
		<tag k="name" v="Sotknollen" />
		<tag k="natural" v="hill" />
		<tag k="place" v="locality" />
		<tag k="ssr:stedsnr" v="950995" />
	</node>
	<node id="-27103" lat="59.6989083336" lon="11.4013472309">
		<tag k="fixme" v="consider natural=peak for the most distinct mountains in the district" />
		<tag k="name" v="Pengeåsen" />
		<tag k="natural" v="hill" />
		<tag k="place" v="locality" />
		<tag k="ssr:stedsnr" v="326138" />
	</node>
	<node id="-29148" lat="59.9321138874" lon="11.7647972262">
		<tag k="name" v="Mortensmyrlia" />
		<tag k="natural" v="slope" />
		<tag k="place" v="locality" />
		<tag k="ssr:stedsnr" v="483448" />
	</node>
	<node id="-31194" lat="59.9928388917" lon="11.7364361045">
		<tag k="fixme" v="consider natural=peak for the most distinct mountains in the district" />
		<tag k="name" v="Hungeraltåsen" />
		<tag k="natural" v="hill" />
		<tag k="place" v="locality" />
		<tag k="ssr:stedsnr" v="950686" />
	</node>
	<node id="-31191" lat="59.988475001" lon="11.6988666713">
		<tag k="name" v="Tennaråsen" />
		<tag k="place" v="locality" />
		<tag k="ssr:stedsnr" v="950678" />
	</node>
	<node id="-31190" lat="59.9285750004" lon="11.4716916661">
		<tag k="name" v="Kråkhaugen" />
		<tag k="natural" v="hill" />
		<tag k="place" v="locality" />
		<tag k="ssr:stedsnr" v="950604" />
	</node>
	<node id="-31189" lat="59.983686109" lon="11.5734194431">
		<tag k="name" v="Brattbakka" />
		<tag k="natural" v="slope" />
		<tag k="place" v="locality" />
		<tag k="ssr:stedsnr" v="950605" />
	</node>
	<node id="-29140" lat="59.9274555558" lon="11.7495527754">
		<tag k="name" v="Bjørkelia" />
		<tag k="natural" v="slope" />
		<tag k="place" v="locality" />
		<tag k="ssr:stedsnr" v="483397" />
	</node>
	<node id="-29138" lat="59.8551944421" lon="11.7551416633">
		<tag k="name" v="Styggedalen" />
		<tag k="natural" v="valley" />
		<tag k="place" v="locality" />
		<tag k="ssr:stedsnr" v="483246" />
	</node>
	<node id="-31185" lat="59.9806111069" lon="11.5795111172">
		<tag k="name" v="Rogndalsstallen" />
		<tag k="place" v="locality" />
		<tag k="ssr:stedsnr" v="950574" />
	</node>
	<node id="-29136" lat="59.885216664" lon="11.3842111096">
		<tag k="name" v="Stintelia" />
		<tag k="natural" v="slope" />
		<tag k="place" v="locality" />
		<tag k="ssr:stedsnr" v="483056" />
	</node>
	<node id="-31182" lat="59.8014138908" lon="11.4939722207">
		<tag k="name" v="Ringhaug" />
		<tag k="natural" v="hill" />
		<tag k="place" v="locality" />
		<tag k="ssr:stedsnr" v="950233" />
	</node>
	<node id="-27082" lat="59.8382222198" lon="11.3564305608">
		<tag k="fixme" v="consider natural=peak for the most distinct mountains in the district" />
		<tag k="name" v="Sakaliåsen" />
		<tag k="natural" v="hill" />
		<tag k="place" v="locality" />
		<tag k="ssr:stedsnr" v="308725" />
	</node>
	<node id="-27080" lat="59.8544111128" lon="11.3897361117">
		<tag k="fixme" v="consider natural=peak for the most distinct mountains in the district" />
		<tag k="name" v="Ørnekollen" />
		<tag k="natural" v="hill" />
		<tag k="place" v="locality" />
		<tag k="ssr:stedsnr" v="308699" />
	</node>
	<node id="-31175" lat="59.8040138931" lon="11.4186861158">
		<tag k="name" v="Steindalen" />
		<tag k="natural" v="valley" />
		<tag k="place" v="locality" />
		<tag k="ssr:stedsnr" v="950070" />
	</node>
	<node id="-29126" lat="59.6919361071" lon="11.6171416592">
		<tag k="name" v="Gunnarsdalen" />
		<tag k="natural" v="valley" />
		<tag k="place" v="locality" />
		<tag k="ssr:stedsnr" v="482338" />
	</node>
	<node id="-29124" lat="59.8786944408" lon="11.4411444473">
		<tag k="name" v="Sølaterdalen" />
		<tag k="natural" v="valley" />
		<tag k="place" v="locality" />
		<tag k="ssr:stedsnr" v="482265" />
	</node>
	<node id="-29122" lat="59.9342027766" lon="11.7271611143">
		<tag k="name" v="Gullgruvelia" />
		<tag k="natural" v="slope" />
		<tag k="place" v="locality" />
		<tag k="ssr:stedsnr" v="482241" />
	</node>
	<node id="-29120" lat="59.7612444472" lon="11.565933334">
		<tag k="name" v="Bollekleivdalen" />
		<tag k="natural" v="valley" />
		<tag k="place" v="locality" />
		<tag k="ssr:stedsnr" v="482052" />
	</node>
	<node id="-31166" lat="59.9781805549" lon="11.5259222151">
		<tag k="name" v="Flomyrlia" />
		<tag k="natural" v="slope" />
		<tag k="place" v="locality" />
		<tag k="ssr:stedsnr" v="950002" />
	</node>
	<node id="-29117" lat="59.8854027803" lon="11.71736666">
		<tag k="name" v="Aursetberga" />
		<tag k="natural" v="cliff" />
		<tag k="ssr:stedsnr" v="481671" />
	</node>
	<node id="-29114" lat="59.943622224" lon="11.5159500019">
		<tag k="name" v="Korpedalen" />
		<tag k="natural" v="valley" />
		<tag k="place" v="locality" />
		<tag k="ssr:stedsnr" v="481487" />
	</node>
	<node id="-27058" lat="59.9733638899" lon="11.4631472299">
		<tag k="alt_name" v="Slettnerknollen" />
		<tag k="fixme" v="consider natural=peak for the most distinct mountains in the district" />
		<tag k="name" v="Sletnerknatten" />
		<tag k="natural" v="hill" />
		<tag k="place" v="locality" />
		<tag k="ssr:stedsnr" v="308399" />
	</node>
	<node id="-29104" lat="59.8229166656" lon="11.3346194357">
		<tag k="name" v="Lauvdråga" />
		<tag k="natural" v="valley" />
		<tag k="place" v="locality" />
		<tag k="ssr:stedsnr" v="480748" />
	</node>
	<node id="-31150" lat="59.7373638907" lon="11.4276694373">
		<tag k="name" v="Allergottronga" />
		<tag k="place" v="locality" />
		<tag k="ssr:stedsnr" v="933076" />
	</node>
	<node id="-31148" lat="59.7083333379" lon="11.3831999964">
		<tag k="name" v="Korpeflaue" />
		<tag k="place" v="locality" />
		<tag k="ssr:stedsnr" v="933210" />
	</node>
	<node id="-27049" lat="59.8534000037" lon="11.7164500012">
		<tag k="fixme" v="consider natural=peak for the most distinct mountains in the district" />
		<tag k="name" v="Ørnekollen" />
		<tag k="natural" v="hill" />
		<tag k="place" v="locality" />
		<tag k="ssr:stedsnr" v="308329" />
	</node>
	<node id="-31142" lat="59.9834416635" lon="11.692808337">
		<tag k="fixme" v="consider natural=peak for the most distinct mountains in the district" />
		<tag k="name" v="Leikåsen" />
		<tag k="natural" v="hill" />
		<tag k="place" v="locality" />
		<tag k="ssr:stedsnr" v="915992" />
	</node>
	<node id="-29093" lat="59.9576305541" lon="11.5670638877">
		<tag k="name" v="Fjøsdråga" />
		<tag k="natural" v="valley" />
		<tag k="place" v="locality" />
		<tag k="ssr:stedsnr" v="480319" />
	</node>
	<node id="-31139" lat="59.9943583376" lon="11.629552774">
		<tag k="fixme" v="consider natural=peak for the most distinct mountains in the district" />
		<tag k="name" v="Kjølen" />
		<tag k="natural" v="hill" />
		<tag k="place" v="locality" />
		<tag k="ssr:stedsnr" v="915954" />
	</node>
	<node id="-31135" lat="59.7964527801" lon="11.4269277823">
		<tag k="fixme" v="consider natural=peak for the most distinct mountains in the district" />
		<tag k="name" v="Skredderåsen" />
		<tag k="natural" v="hill" />
		<tag k="place" v="locality" />
		<tag k="ssr:stedsnr" v="915816" />
	</node>
	<node id="-31134" lat="59.7956416698" lon="11.3817694375">
		<tag k="fixme" v="consider natural=peak for the most distinct mountains in the district" />
		<tag k="name" v="Nygardsåsen" />
		<tag k="natural" v="hill" />
		<tag k="place" v="locality" />
		<tag k="ssr:stedsnr" v="915815" />
	</node>
	<node id="-29085" lat="59.9958861073" lon="11.8018499939">
		<tag k="name" v="Kudalen" />
		<tag k="natural" v="valley" />
		<tag k="place" v="locality" />
		<tag k="ssr:stedsnr" v="466923" />
	</node>
	<node id="-29084" lat="59.9906222202" lon="11.8027499928">
		<tag k="fixme" v="consider natural=peak for the most distinct mountains in the district" />
		<tag k="name" v="Damåsen" />
		<tag k="natural" v="hill" />
		<tag k="place" v="locality" />
		<tag k="ssr:stedsnr" v="466921" />
	</node>
	<node id="-27287" lat="59.8035055553" lon="11.3421222246">
		<tag k="fixme" v="consider natural=peak for the most distinct mountains in the district" />
		<tag k="name" v="Grimskollen" />
		<tag k="natural" v="hill" />
		<tag k="place" v="locality" />
		<tag k="ssr:stedsnr" v="362835" />
	</node>
	<node id="-28754" lat="59.7910249968" lon="11.813638889">
		<tag k="fixme" v="consider natural=peak for the most distinct mountains in the district" />
		<tag k="name" v="Nybrenna" />
		<tag k="natural" v="hill" />
		<tag k="place" v="locality" />
		<tag k="ssr:stedsnr" v="247439" />
	</node>
	<node id="-27032" lat="59.8628555518" lon="11.6353888951">
		<tag k="name" v="Guluhøgda" />
		<tag k="natural" v="hill" />
		<tag k="place" v="locality" />
		<tag k="ssr:stedsnr" v="308112" />
	</node>
	<node id="-29079" lat="59.8375750011" lon="11.5846388821">
		<tag k="fixme" v="consider natural=peak for the most distinct mountains in the district" />
		<tag k="name" v="Holeåsen" />
		<tag k="natural" v="hill" />
		<tag k="place" v="locality" />
		<tag k="ssr:stedsnr" v="466800" />
	</node>
	<node id="-27030" lat="59.9595333333" lon="11.7382305538">
		<tag k="name" v="Sotsjøliene" />
		<tag k="natural" v="slope" />
		<tag k="place" v="locality" />
		<tag k="ssr:stedsnr" v="308091" />
	</node>
	<node id="-29075" lat="59.9494083321" lon="11.5537111033">
		<tag k="name" v="Svartehølet" />
		<tag k="natural" v="valley" />
		<tag k="place" v="locality" />
		<tag k="ssr:stedsnr" v="466423" />
	</node>
	<node id="-29074" lat="59.978688889" lon="11.6971194479">
		<tag k="name" v="Daltjennliene" />
		<tag k="natural" v="slope" />
		<tag k="place" v="locality" />
		<tag k="ssr:stedsnr" v="466386" />
	</node>
	<node id="-31121" lat="59.8026611104" lon="11.6102166653">
		<tag k="fixme" v="multiple name tags, choose one and add the other to alt_name; consider natural=peak for the most distinct mountains in the district" />
		<tag k="name" v="Tromsåshøgda;Tromåsen" />
		<tag k="natural" v="hill" />
		<tag k="place" v="locality" />
		<tag k="ssr:stedsnr" v="915479" />
	</node>
	<node id="-29072" lat="59.972452777" lon="11.6791722289">
		<tag k="fixme" v="consider natural=peak for the most distinct mountains in the district" />
		<tag k="name" v="Stallåsen" />
		<tag k="natural" v="hill" />
		<tag k="place" v="locality" />
		<tag k="ssr:stedsnr" v="466323" />
	</node>
	<node id="-29080" lat="59.8447611098" lon="11.4504749995">
		<tag k="fixme" v="consider natural=peak for the most distinct mountains in the district" />
		<tag k="name" v="Tyrihjellåsen" />
		<tag k="natural" v="hill" />
		<tag k="place" v="locality" />
		<tag k="ssr:stedsnr" v="466848" />
	</node>
	<node id="-27021" lat="59.9266694444" lon="11.6160555589">
		<tag k="name" v="Djupdalshøgda" />
		<tag k="natural" v="hill" />
		<tag k="place" v="locality" />
		<tag k="ssr:stedsnr" v="308036" />
	</node>
	<node id="-27019" lat="59.9780027744" lon="11.6165555502">
		<tag k="fixme" v="consider natural=peak for the most distinct mountains in the district" />
		<tag k="name" v="Firhørningen" />
		<tag k="natural" v="hill" />
		<tag k="place" v="locality" />
		<tag k="ssr:stedsnr" v="307991" />
	</node>
	<node id="-29066" lat="59.9221666628" lon="11.3964527746">
		<tag k="name" v="Neseråsen" />
		<tag k="natural" v="hill" />
		<tag k="place" v="locality" />
		<tag k="ssr:stedsnr" v="465979" />
	</node>
	<node id="-27031" lat="59.8622638869" lon="11.7066527762">
		<tag k="alt_name" v="Aurkytejennhøgda" />
		<tag k="name" v="Aurekyttjennhøgda" />
		<tag k="natural" v="hill" />
		<tag k="place" v="locality" />
		<tag k="ssr:stedsnr" v="308106" />
	</node>
	<node id="-31112" lat="59.8343666635" lon="11.623319446">
		<tag k="fixme" v="consider natural=peak for the most distinct mountains in the district" />
		<tag k="name" v="Ilebekkhøgda" />
		<tag k="natural" v="hill" />
		<tag k="place" v="locality" />
		<tag k="ssr:stedsnr" v="915319" />
	</node>
	<node id="-31168" lat="59.9550777762" lon="11.6345611175">
		<tag k="name" v="Bokseruddalen" />
		<tag k="natural" v="valley" />
		<tag k="place" v="locality" />
		<tag k="ssr:stedsnr" v="950013" />
	</node>
	<node id="-27012" lat="59.7047944427" lon="11.4606611181">
		<tag k="fixme" v="consider natural=peak for the most distinct mountains in the district" />
		<tag k="name" v="Skjønnebergåsen" />
		<tag k="natural" v="hill" />
		<tag k="place" v="locality" />
		<tag k="ssr:stedsnr" v="307856" />
	</node>
	<node id="-29078" lat="59.8585527808" lon="11.3748361055">
		<tag k="name" v="Larsbråtalia" />
		<tag k="natural" v="slope" />
		<tag k="place" v="locality" />
		<tag k="ssr:stedsnr" v="466729" />
	</node>
	<node id="-31104" lat="59.8167166684" lon="11.5982388855">
		<tag k="fixme" v="consider natural=peak for the most distinct mountains in the district" />
		<tag k="name" v="Lysåsen" />
		<tag k="natural" v="hill" />
		<tag k="place" v="locality" />
		<tag k="ssr:stedsnr" v="915263" />
	</node>
	<node id="-27006" lat="59.7407666702" lon="11.5444999931">
		<tag k="name" v="Merradalen" />
		<tag k="natural" v="valley" />
		<tag k="place" v="locality" />
		<tag k="ssr:stedsnr" v="307683" />
	</node>
	<node id="-29053" lat="59.968688885" lon="11.449863884">
		<tag k="name" v="Grandalen" />
		<tag k="natural" v="valley" />
		<tag k="place" v="locality" />
		<tag k="ssr:stedsnr" v="465008" />
	</node>
	<node id="-29051" lat="59.972625" lon="11.4171416581">
		<tag k="name" v="Fjuktjennlia" />
		<tag k="natural" v="slope" />
		<tag k="place" v="locality" />
		<tag k="ssr:stedsnr" v="465002" />
	</node>
	<node id="-31098" lat="59.9293888921" lon="11.7240277778">
		<tag k="name" v="Jomfrubakken" />
		<tag k="natural" v="slope" />
		<tag k="place" v="locality" />
		<tag k="ssr:stedsnr" v="915089" />
	</node>
	<node id="-30428" lat="59.9419416666" lon="11.5593138859">
		<tag k="name" v="Sæteråsen" />
		<tag k="natural" v="ridge" />
		<tag k="place" v="locality" />
		<tag k="ssr:stedsnr" v="770360" />
	</node>
	<node id="-31093" lat="59.925777778" lon="11.7913861075">
		<tag k="fixme" v="consider natural=peak for the most distinct mountains in the district" />
		<tag k="name" v="Gravdalshøgda" />
		<tag k="natural" v="hill" />
		<tag k="place" v="locality" />
		<tag k="ssr:stedsnr" v="915049" />
	</node>
	<node id="-31092" lat="59.9212638858" lon="11.7754499931">
		<tag k="alt_name" v="Gauplidalen" />
		<tag k="name" v="Gaupelidalen" />
		<tag k="natural" v="valley" />
		<tag k="place" v="locality" />
		<tag k="ssr:stedsnr" v="915048" />
	</node>
	<node id="-29043" lat="59.9886444442" lon="11.6189944448">
		<tag k="name" v="Asakdalen" />
		<tag k="natural" v="valley" />
		<tag k="place" v="locality" />
		<tag k="ssr:stedsnr" v="464666" />
	</node>
	<node id="-29041" lat="59.9848388845" lon="11.6691111182">
		<tag k="name" v="Slåttemyrlia" />
		<tag k="natural" v="slope" />
		<tag k="place" v="locality" />
		<tag k="ssr:stedsnr" v="464621" />
	</node>
	<node id="-26992" lat="60.0070583332" lon="11.7667861041">
		<tag k="name" v="Svartkollia" />
		<tag k="natural" v="slope" />
		<tag k="place" v="locality" />
		<tag k="ssr:stedsnr" v="302919" />
	</node>
	<node id="-28392" lat="59.8995055557" lon="11.4364833271">
		<tag k="fixme" v="consider natural=peak for the most distinct mountains in the district" />
		<tag k="name" v="Hjerterudåsen" />
		<tag k="natural" v="hill" />
		<tag k="place" v="locality" />
		<tag k="ssr:stedsnr" v="180485" />
	</node>
	<node id="-26990" lat="59.7843416656" lon="11.7231833298">
		<tag k="name" v="Åsmyrdalen" />
		<tag k="natural" v="valley" />
		<tag k="place" v="locality" />
		<tag k="ssr:stedsnr" v="302678" />
	</node>
	<node id="-26987" lat="59.9192916661" lon="11.6408833351">
		<tag k="fixme" v="consider natural=peak for the most distinct mountains in the district" />
		<tag k="name" v="Stavtjennåsen" />
		<tag k="natural" v="hill" />
		<tag k="place" v="locality" />
		<tag k="ssr:stedsnr" v="302589" />
	</node>
	<node id="-31082" lat="59.7823722225" lon="11.3752611075">
		<tag k="name" v="Trolltjennmoa" />
		<tag k="place" v="locality" />
		<tag k="ssr:stedsnr" v="914863" />
	</node>
	<node id="-31080" lat="59.7408527738" lon="11.590602786">
		<tag k="fixme" v="consider natural=peak for the most distinct mountains in the district" />
		<tag k="name" v="Knotten" />
		<tag k="natural" v="hill" />
		<tag k="place" v="locality" />
		<tag k="ssr:stedsnr" v="914696" />
	</node>
	<node id="-31079" lat="59.7279388894" lon="11.4784249952">
		<tag k="fixme" v="consider natural=peak for the most distinct mountains in the district" />
		<tag k="name" v="Engeråsen" />
		<tag k="natural" v="hill" />
		<tag k="place" v="locality" />
		<tag k="ssr:stedsnr" v="914663" />
	</node>
	<node id="-29030" lat="59.7974361156" lon="11.7613027803">
		<tag k="name" v="Hyttlidal" />
		<tag k="natural" v="valley" />
		<tag k="place" v="locality" />
		<tag k="ssr:stedsnr" v="464099" />
	</node>
	<node id="-29023" lat="59.7597388915" lon="11.3867000075">
		<tag k="name" v="Bjørktjennhøgda" />
		<tag k="natural" v="hill" />
		<tag k="place" v="locality" />
		<tag k="ssr:stedsnr" v="447197" />
	</node>
	<node id="-26974" lat="59.9643027762" lon="11.6578694517">
		<tag k="name" v="Igletjenndalen" />
		<tag k="natural" v="valley" />
		<tag k="place" v="locality" />
		<tag k="ssr:stedsnr" v="302188" />
	</node>
	<node id="-27972" lat="59.8123638898" lon="11.6701583307">
		<tag k="fixme" v="consider natural=peak for the most distinct mountains in the district" />
		<tag k="name" v="Høgåsen" />
		<tag k="natural" v="hill" />
		<tag k="place" v="locality" />
		<tag k="ssr:stedsnr" v="66513" />
	</node>
	<node id="-26972" lat="59.7750555558" lon="11.3606861101">
		<tag k="name" v="Skogsberg" />
		<tag k="place" v="locality" />
		<tag k="ssr:stedsnr" v="301960" />
	</node>
	<node id="-31067" lat="59.8960750042" lon="11.7017333294">
		<tag k="fixme" v="consider natural=peak for the most distinct mountains in the district" />
		<tag k="name" v="Grønkollen" />
		<tag k="natural" v="hill" />
		<tag k="place" v="locality" />
		<tag k="ssr:stedsnr" v="914246" />
	</node>
	<node id="-31119" lat="59.9908361123" lon="11.4157583303">
		<tag k="alt_name" v="Hurdalen" />
		<tag k="name" v="Hudalen" />
		<tag k="natural" v="valley" />
		<tag k="place" v="locality" />
		<tag k="ssr:stedsnr" v="915456" />
	</node>
	<node id="-31063" lat="59.8928444451" lon="11.7341222151">
		<tag k="fixme" v="multiple name tags, choose one and add the other to alt_name" />
		<tag k="name" v="Urvassåsen;Korstjennhøgda" />
		<tag k="natural" v="hill" />
		<tag k="place" v="locality" />
		<tag k="ssr:stedsnr" v="914213" />
	</node>
	<node id="-29014" lat="59.973436113" lon="11.7010277722">
		<tag k="fixme" v="consider natural=peak for the most distinct mountains in the district" />
		<tag k="name" v="Daltjennåsen" />
		<tag k="natural" v="hill" />
		<tag k="place" v="locality" />
		<tag k="ssr:stedsnr" v="430979" />
	</node>
	<node id="-26963" lat="59.8725638878" lon="11.3549833319">
		<tag k="fixme" v="consider natural=peak for the most distinct mountains in the district" />
		<tag k="name" v="Halstjennåsen" />
		<tag k="natural" v="hill" />
		<tag k="place" v="locality" />
		<tag k="ssr:stedsnr" v="301545" />
	</node>
	<node id="-26962" lat="59.6136694461" lon="11.4920416731">
		<tag k="name" v="Ormedalen" />
		<tag k="natural" v="valley" />
		<tag k="place" v="locality" />
		<tag k="ssr:stedsnr" v="301531" />
	</node>
	<node id="-26959" lat="59.747402776" lon="11.5184444448">
		<tag k="fixme" v="consider natural=peak for the most distinct mountains in the district" />
		<tag k="name" v="Skjertjennåsen" />
		<tag k="natural" v="hill" />
		<tag k="place" v="locality" />
		<tag k="ssr:stedsnr" v="301454" />
	</node>
	<node id="-29005" lat="59.8270944436" lon="11.3794777785">
		<tag k="fixme" v="multiple name tags, choose one and add the other to alt_name" />
		<tag k="name" v="Krigsdalen;Kryssdalen" />
		<tag k="natural" v="valley" />
		<tag k="place" v="locality" />
		<tag k="ssr:stedsnr" v="430766" />
	</node>
	<node id="-31052" lat="59.861000003" lon="11.6091249955">
		<tag k="name" v="Østre Opptjennhøgda" />
		<tag k="natural" v="hill" />
		<tag k="place" v="locality" />
		<tag k="ssr:stedsnr" v="915138" />
	</node>
	<node id="-28999" lat="59.7762444483" lon="11.7102472207">
		<tag k="name" v="Bolstadhøgda" />
		<tag k="natural" v="hill" />
		<tag k="place" v="locality" />
		<tag k="ssr:stedsnr" v="430429" />
	</node>
	<node id="-26949" lat="59.9284583317" lon="11.7924361121">
		<tag k="name" v="Lauvtjennlia" />
		<tag k="natural" v="slope" />
		<tag k="place" v="locality" />
		<tag k="ssr:stedsnr" v="301406" />
	</node>
	<node id="-28996" lat="59.7695277769" lon="11.727391669">
		<tag k="fixme" v="consider natural=peak for the most distinct mountains in the district" />
		<tag k="name" v="Hallangsberga" />
		<tag k="natural" v="hill" />
		<tag k="place" v="locality" />
		<tag k="ssr:stedsnr" v="430412" />
	</node>
	<node id="-26947" lat="59.933599998" lon="11.8042000054">
		<tag k="fixme" v="consider natural=peak for the most distinct mountains in the district" />
		<tag k="name" v="Øysjøhøgda" />
		<tag k="natural" v="hill" />
		<tag k="place" v="locality" />
		<tag k="ssr:stedsnr" v="301404" />
	</node>
	<node id="-31042" lat="59.9011388867" lon="11.4213861074">
		<tag k="name" v="Tyrihjelldalen" />
		<tag k="natural" v="valley" />
		<tag k="place" v="locality" />
		<tag k="ssr:stedsnr" v="909493" />
	</node>
	<node id="-27360" lat="59.8839388904" lon="11.4954833363">
		<tag k="name" v="Skamodalen" />
		<tag k="natural" v="valley" />
		<tag k="place" v="locality" />
		<tag k="ssr:stedsnr" v="369181" />
	</node>
	<node id="-31037" lat="59.9728194427" lon="11.6529805607">
		<tag k="name" v="Heggemyrlia" />
		<tag k="natural" v="slope" />
		<tag k="place" v="locality" />
		<tag k="ssr:stedsnr" v="909187" />
	</node>
	<node id="-28987" lat="59.9648083367" lon="11.5269638843">
		<tag k="name" v="Askedalen" />
		<tag k="natural" v="valley" />
		<tag k="place" v="locality" />
		<tag k="ssr:stedsnr" v="430090" />
	</node>
	<node id="-31033" lat="59.9663833374" lon="11.5806972279">
		<tag k="name" v="Torget" />
		<tag k="place" v="locality" />
		<tag k="ssr:stedsnr" v="909138" />
	</node>
	<node id="-28982" lat="59.9407722235" lon="11.712694447">
		<tag k="fixme" v="consider natural=peak for the most distinct mountains in the district" />
		<tag k="name" v="Kongsberghøgda" />
		<tag k="natural" v="hill" />
		<tag k="place" v="locality" />
		<tag k="ssr:stedsnr" v="430063" />
	</node>
	<node id="-26933" lat="59.923072218" lon="11.6762611065">
		<tag k="name" v="Stygghølet" />
		<tag k="natural" v="valley" />
		<tag k="place" v="locality" />
		<tag k="ssr:stedsnr" v="300761" />
	</node>
	<node id="-31028" lat="59.6607805563" lon="11.5222055581">
		<tag k="fixme" v="consider natural=peak for the most distinct mountains in the district" />
		<tag k="name" v="Stomperudhøgda" />
		<tag k="natural" v="hill" />
		<tag k="place" v="locality" />
		<tag k="ssr:stedsnr" v="908686" />
	</node>
	<node id="-26929" lat="59.9286833306" lon="11.6878277802">
		<tag k="name" v="Langmyråsen" />
		<tag k="natural" v="slope" />
		<tag k="place" v="locality" />
		<tag k="ssr:stedsnr" v="300739" />
	</node>
	<node id="-28973" lat="59.9912249979" lon="11.4717027828">
		<tag k="fixme" v="consider natural=peak for the most distinct mountains in the district" />
		<tag k="name" v="Kjempesteinhøgda" />
		<tag k="natural" v="hill" />
		<tag k="place" v="locality" />
		<tag k="ssr:stedsnr" v="429950" />
	</node>
	<node id="-31172" lat="59.9629250002" lon="11.5898333258">
		<tag k="name" v="Svarvestolen" />
		<tag k="natural" v="gorge" />
		<tag k="ssr:stedsnr" v="950033" />
	</node>
	<node id="-28970" lat="59.7678111119" lon="11.3906111126">
		<tag k="fixme" v="consider natural=peak for the most distinct mountains in the district" />
		<tag k="name" v="Blekktjennåsen" />
		<tag k="natural" v="hill" />
		<tag k="place" v="locality" />
		<tag k="ssr:stedsnr" v="429899" />
	</node>
	<node id="-28039" lat="59.9977999978" lon="11.5102888828">
		<tag k="fixme" v="consider natural=peak for the most distinct mountains in the district" />
		<tag k="name" v="Høldalsåsen" />
		<tag k="natural" v="hill" />
		<tag k="place" v="locality" />
		<tag k="ssr:stedsnr" v="102402" />
	</node>
	<node id="-31015" lat="59.6734666639" lon="11.5513999935">
		<tag k="fixme" v="consider natural=peak for the most distinct mountains in the district" />
		<tag k="name" v="Korpåsen" />
		<tag k="natural" v="hill" />
		<tag k="place" v="locality" />
		<tag k="ssr:stedsnr" v="908448" />
	</node>
	<node id="-26917" lat="59.9062555565" lon="11.3746666694">
		<tag k="name" v="Vasletta" />
		<tag k="place" v="locality" />
		<tag k="ssr:stedsnr" v="300324" />
	</node>
	<node id="-31011" lat="59.9377527763" lon="11.7520722211">
		<tag k="name" v="Høymyrdalen" />
		<tag k="natural" v="valley" />
		<tag k="place" v="locality" />
		<tag k="ssr:stedsnr" v="908392" />
	</node>
	<node id="-31010" lat="59.9384805545" lon="11.7902166581">
		<tag k="name" v="Kulkuslia" />
		<tag k="natural" v="slope" />
		<tag k="place" v="locality" />
		<tag k="ssr:stedsnr" v="908391" />
	</node>
	<node id="-26913" lat="59.8998916701" lon="11.3773777746">
		<tag k="name" v="Deledalen" />
		<tag k="natural" v="valley" />
		<tag k="place" v="locality" />
		<tag k="ssr:stedsnr" v="300288" />
	</node>
	<node id="-31008" lat="59.8831749987" lon="11.3843499921">
		<tag k="fixme" v="consider natural=peak for the most distinct mountains in the district" />
		<tag k="name" v="Svanmosåsen" />
		<tag k="natural" v="hill" />
		<tag k="place" v="locality" />
		<tag k="ssr:stedsnr" v="908046" />
	</node>
	<node id="-28959" lat="59.8276361117" lon="11.3452777718">
		<tag k="fixme" v="consider natural=peak for the most distinct mountains in the district" />
		<tag k="name" v="Slottåsen" />
		<tag k="natural" v="hill" />
		<tag k="place" v="locality" />
		<tag k="ssr:stedsnr" v="429761" />
	</node>
	<node id="-26908" lat="59.9309055552" lon="11.7279999972">
		<tag k="fixme" v="consider natural=peak for the most distinct mountains in the district" />
		<tag k="name" v="Tommeltjennåsen" />
		<tag k="natural" v="hill" />
		<tag k="place" v="locality" />
		<tag k="ssr:stedsnr" v="300273" />
	</node>
	<node id="-26907" lat="59.9247166688" lon="11.7096638966">
		<tag k="name" v="Garsjølia" />
		<tag k="natural" v="slope" />
		<tag k="place" v="locality" />
		<tag k="ssr:stedsnr" v="300267" />
	</node>
	<node id="-26904" lat="59.9518722221" lon="11.582650002">
		<tag k="fixme" v="consider natural=peak for the most distinct mountains in the district" />
		<tag k="name" v="Lindalsåsen" />
		<tag k="natural" v="hill" />
		<tag k="place" v="locality" />
		<tag k="ssr:stedsnr" v="56226" />
	</node>
	<node id="-26902" lat="59.8838416694" lon="11.5934361169">
		<tag k="fixme" v="consider natural=peak for the most distinct mountains in the district" />
		<tag k="name" v="Fabrikkåsen" />
		<tag k="natural" v="hill" />
		<tag k="place" v="locality" />
		<tag k="ssr:stedsnr" v="299604" />
	</node>
	<node id="-26901" lat="59.8828694478" lon="11.6672888856">
		<tag k="name" v="Langvikdalen" />
		<tag k="natural" v="valley" />
		<tag k="place" v="locality" />
		<tag k="ssr:stedsnr" v="299586" />
	</node>
	<node id="-30996" lat="59.9098388925" lon="11.3497888941">
		<tag k="name" v="Matmyradråga" />
		<tag k="natural" v="valley" />
		<tag k="place" v="locality" />
		<tag k="ssr:stedsnr" v="907263" />
	</node>
	<node id="-26898" lat="59.7737361135" lon="11.7487972188">
		<tag k="name" v="Trollkjerka" />
		<tag k="place" v="locality" />
		<tag k="ssr:stedsnr" v="299090" />
	</node>
	<node id="-30993" lat="59.9523027767" lon="11.3726944407">
		<tag k="fixme" v="consider natural=peak for the most distinct mountains in the district" />
		<tag k="name" v="Harkerudåsen" />
		<tag k="natural" v="hill" />
		<tag k="place" v="locality" />
		<tag k="ssr:stedsnr" v="907232" />
	</node>
	<node id="-26896" lat="59.7952111095" lon="11.4073888906">
		<tag k="fixme" v="consider natural=peak for the most distinct mountains in the district" />
		<tag k="name" v="Haugåsen" />
		<tag k="natural" v="hill" />
		<tag k="place" v="locality" />
		<tag k="ssr:stedsnr" v="298965" />
	</node>
	<node id="-30991" lat="59.9294999954" lon="11.6950027848">
		<tag k="name" v="Brenngangen" />
		<tag k="natural" v="valley" />
		<tag k="place" v="locality" />
		<tag k="ssr:stedsnr" v="907222" />
	</node>
	<node id="-30990" lat="59.9303333293" lon="11.6954999996">
		<tag k="name" v="Sagåsen" />
		<tag k="natural" v="hill" />
		<tag k="place" v="locality" />
		<tag k="ssr:stedsnr" v="907217" />
	</node>
	<node id="-30989" lat="60.0016027761" lon="11.6341722215">
		<tag k="name" v="Kjølkampen" />
		<tag k="natural" v="hill" />
		<tag k="place" v="locality" />
		<tag k="ssr:stedsnr" v="907144" />
	</node>
	<node id="-30987" lat="59.8814888907" lon="11.5398472137">
		<tag k="name" v="Skakkhøldalen" />
		<tag k="natural" v="valley" />
		<tag k="place" v="locality" />
		<tag k="ssr:stedsnr" v="906910" />
	</node>
	<node id="-28937" lat="59.8280555544" lon="11.8037777813">
		<tag k="name" v="Ledalen" />
		<tag k="natural" v="valley" />
		<tag k="place" v="locality" />
		<tag k="ssr:stedsnr" v="429285" />
	</node>
	<node id="-30982" lat="59.8744999999" lon="11.7023416611">
		<tag k="name" v="Stordalen" />
		<tag k="natural" v="valley" />
		<tag k="place" v="locality" />
		<tag k="ssr:stedsnr" v="906583" />
	</node>
	<node id="-26884" lat="59.9583166708" lon="11.5866444443">
		<tag k="name" v="Hattmyråsen" />
		<tag k="natural" v="ridge" />
		<tag k="place" v="locality" />
		<tag k="ssr:stedsnr" v="298234" />
	</node>
	<node id="-30978" lat="59.8681666679" lon="11.4756750036">
		<tag k="name" v="Sæterlia" />
		<tag k="natural" v="slope" />
		<tag k="place" v="locality" />
		<tag k="ssr:stedsnr" v="905882" />
	</node>
	<node id="-28929" lat="59.7927944483" lon="11.8316416691">
		<tag k="fixme" v="consider natural=peak for the most distinct mountains in the district" />
		<tag k="name" v="Leverheia" />
		<tag k="natural" v="hill" />
		<tag k="place" v="locality" />
		<tag k="ssr:stedsnr" v="429467" />
	</node>
	<node id="-30976" lat="59.8605861083" lon="11.4913833283">
		<tag k="fixme" v="consider natural=peak for the most distinct mountains in the district" />
		<tag k="name" v="Abbortjennhøgda" />
		<tag k="natural" v="hill" />
		<tag k="place" v="locality" />
		<tag k="ssr:stedsnr" v="905661" />
	</node>
	<node id="-29056" lat="59.938424998" lon="11.7004722138">
		<tag k="name" v="Sautjenndalen" />
		<tag k="natural" v="valley" />
		<tag k="place" v="locality" />
		<tag k="ssr:stedsnr" v="465024" />
	</node>
	<node id="-30972" lat="59.7916222228" lon="11.8422722209">
		<tag k="name" v="Graverdalen" />
		<tag k="natural" v="valley" />
		<tag k="place" v="locality" />
		<tag k="ssr:stedsnr" v="905434" />
	</node>
	<node id="-30970" lat="59.9564444421" lon="11.5807833335">
		<tag k="name" v="Jubellia" />
		<tag k="natural" v="slope" />
		<tag k="place" v="locality" />
		<tag k="ssr:stedsnr" v="905249" />
	</node>
	<node id="-26870" lat="59.8955583297" lon="11.6979194513">
		<tag k="name" v="Grønkollia" />
		<tag k="natural" v="slope" />
		<tag k="place" v="locality" />
		<tag k="ssr:stedsnr" v="285799" />
	</node>
	<node id="-26868" lat="59.848144449" lon="11.5848694392">
		<tag k="fixme" v="consider natural=peak for the most distinct mountains in the district" />
		<tag k="name" v="Langåsen" />
		<tag k="natural" v="hill" />
		<tag k="place" v="locality" />
		<tag k="ssr:stedsnr" v="285772" />
	</node>
	<node id="-28914" lat="59.8642972238" lon="11.5977722218">
		<tag k="name" v="Vestre Opptjennhøgda" />
		<tag k="natural" v="hill" />
		<tag k="place" v="locality" />
		<tag k="ssr:stedsnr" v="429130" />
	</node>
	<node id="-30959" lat="59.7614222197" lon="11.5346027741">
		<tag k="name" v="Djupedalen" />
		<tag k="natural" v="valley" />
		<tag k="place" v="locality" />
		<tag k="ssr:stedsnr" v="874893" />
	</node>
	<node id="-30957" lat="59.759049999" lon="11.3519972281">
		<tag k="fixme" v="consider natural=peak for the most distinct mountains in the district" />
		<tag k="name" v="Korpåsen" />
		<tag k="natural" v="hill" />
		<tag k="place" v="locality" />
		<tag k="ssr:stedsnr" v="872234" />
	</node>
	<node id="-30956" lat="59.7172694443" lon="11.3744583408">
		<tag k="fixme" v="consider natural=peak for the most distinct mountains in the district" />
		<tag k="name" v="Gangnesåsen" />
		<tag k="natural" v="hill" />
		<tag k="place" v="locality" />
		<tag k="ssr:stedsnr" v="872212" />
	</node>
	<node id="-26858" lat="59.943019445" lon="11.553308325">
		<tag k="name" v="Rodalen" />
		<tag k="natural" v="valley" />
		<tag k="place" v="locality" />
		<tag k="ssr:stedsnr" v="284403" />
	</node>
	<node id="-30953" lat="59.7611805538" lon="11.4324194513">
		<tag k="name" v="Ulveflaen" />
		<tag k="place" v="locality" />
		<tag k="ssr:stedsnr" v="872160" />
	</node>
	<node id="-30952" lat="59.7481472193" lon="11.4311777755">
		<tag k="fixme" v="consider natural=peak for the most distinct mountains in the district" />
		<tag k="name" v="Holsåsen" />
		<tag k="natural" v="hill" />
		<tag k="place" v="locality" />
		<tag k="ssr:stedsnr" v="872149" />
	</node>
	<node id="-28028" lat="59.9146305543" lon="11.624697215">
		<tag k="name" v="Steindalen" />
		<tag k="natural" v="valley" />
		<tag k="place" v="locality" />
		<tag k="ssr:stedsnr" v="102107" />
	</node>
	<node id="-26854" lat="59.9114777814" lon="11.6254666654">
		<tag k="name" v="Tyttebærlia" />
		<tag k="natural" v="slope" />
		<tag k="place" v="locality" />
		<tag k="ssr:stedsnr" v="284115" />
	</node>
	<node id="-28899" lat="59.6317666651" lon="11.530830549">
		<tag k="name" v="Revedråga" />
		<tag k="natural" v="valley" />
		<tag k="place" v="locality" />
		<tag k="ssr:stedsnr" v="423726" />
	</node>
	<node id="-28897" lat="59.6451944417" lon="11.5272638862">
		<tag k="fixme" v="consider natural=peak for the most distinct mountains in the district" />
		<tag k="name" v="Vesletjennhøgda" />
		<tag k="natural" v="hill" />
		<tag k="place" v="locality" />
		<tag k="ssr:stedsnr" v="423714" />
	</node>
	<node id="-30944" lat="59.9981083315" lon="11.4840194506">
		<tag k="fixme" v="consider natural=peak for the most distinct mountains in the district" />
		<tag k="name" v="Sæterhøgda" />
		<tag k="natural" v="hill" />
		<tag k="place" v="locality" />
		<tag k="ssr:stedsnr" v="855534" />
	</node>
	<node id="-28893" lat="59.887625002" lon="11.7808555601">
		<tag k="name" v="Langsruddalen" />
		<tag k="natural" v="valley" />
		<tag k="place" v="locality" />
		<tag k="ssr:stedsnr" v="423547" />
	</node>
	<node id="-30940" lat="59.848400004" lon="11.4845361027">
		<tag k="fixme" v="consider natural=peak for the most distinct mountains in the district" />
		<tag k="name" v="Revehiåsen" />
		<tag k="natural" v="hill" />
		<tag k="place" v="locality" />
		<tag k="ssr:stedsnr" v="855364" />
	</node>
	<node id="-30938" lat="59.8488777809" lon="11.4920888956">
		<tag k="name" v="Djupedalen" />
		<tag k="natural" v="valley" />
		<tag k="place" v="locality" />
		<tag k="ssr:stedsnr" v="855360" />
	</node>
	<node id="-30937" lat="59.84988611" lon="11.7976333276">
		<tag k="alt_name" v="Tangsæteråsen" />
		<tag k="fixme" v="consider natural=peak for the most distinct mountains in the district" />
		<tag k="name" v="Tangesæteråsen" />
		<tag k="natural" v="hill" />
		<tag k="place" v="locality" />
		<tag k="ssr:stedsnr" v="855355" />
	</node>
	<node id="-28888" lat="59.9042833374" lon="11.7994916672">
		<tag k="name" v="Sjølia" />
		<tag k="natural" v="slope" />
		<tag k="place" v="locality" />
		<tag k="ssr:stedsnr" v="423479" />
	</node>
	<node id="-28887" lat="59.907075004" lon="11.7970777784">
		<tag k="name" v="Kartbergåsen" />
		<tag k="natural" v="hill" />
		<tag k="place" v="locality" />
		<tag k="ssr:stedsnr" v="423477" />
	</node>
	<node id="-30934" lat="59.8202055518" lon="11.8284361025">
		<tag k="alt_name" v="Aurtjenndalen" />
		<tag k="name" v="Auretjenndalen" />
		<tag k="natural" v="valley" />
		<tag k="place" v="locality" />
		<tag k="ssr:stedsnr" v="855285" />
	</node>
	<node id="-26837" lat="59.9683222226" lon="11.5227333293">
		<tag k="fixme" v="consider natural=peak for the most distinct mountains in the district" />
		<tag k="name" v="Åsnesåsen" />
		<tag k="natural" v="hill" />
		<tag k="place" v="locality" />
		<tag k="ssr:stedsnr" v="283005" />
	</node>
	<node id="-26836" lat="59.8250222183" lon="11.8057722271">
		<tag k="fixme" v="consider natural=peak for the most distinct mountains in the district" />
		<tag k="name" v="Børresmyråsen" />
		<tag k="natural" v="hill" />
		<tag k="place" v="locality" />
		<tag k="ssr:stedsnr" v="282902" />
	</node>
	<node id="-30931" lat="59.8854194456" lon="11.5354444503">
		<tag k="fixme" v="consider natural=peak for the most distinct mountains in the district" />
		<tag k="name" v="Høgåsen" />
		<tag k="natural" v="hill" />
		<tag k="place" v="locality" />
		<tag k="ssr:stedsnr" v="855187" />
	</node>
	<node id="-30930" lat="59.804955556" lon="11.884444453">
		<tag k="fixme" v="consider natural=peak for the most distinct mountains in the district" />
		<tag k="name" v="Kaperalholtåsen" />
		<tag k="natural" v="hill" />
		<tag k="place" v="locality" />
		<tag k="ssr:stedsnr" v="855151" />
	</node>
	<node id="-28881" lat="59.8651555566" lon="11.8298055579">
		<tag k="fixme" v="consider natural=peak for the most distinct mountains in the district" />
		<tag k="name" v="Skjærtjennhøgda" />
		<tag k="natural" v="hill" />
		<tag k="place" v="locality" />
		<tag k="ssr:stedsnr" v="423241" />
	</node>
	<node id="-28880" lat="59.8557694487" lon="11.7498833335">
		<tag k="name" v="Rennelia" />
		<tag k="natural" v="slope" />
		<tag k="place" v="locality" />
		<tag k="ssr:stedsnr" v="423235" />
	</node>
	<node id="-28879" lat="59.9768694453" lon="11.666927772">
		<tag k="name" v="Svegholtliene" />
		<tag k="natural" v="slope" />
		<tag k="place" v="locality" />
		<tag k="ssr:stedsnr" v="423177" />
	</node>
	<node id="-30926" lat="59.9263194471" lon="11.6875472162">
		<tag k="fixme" v="consider natural=peak for the most distinct mountains in the district" />
		<tag k="name" v="Korpåsen" />
		<tag k="natural" v="hill" />
		<tag k="place" v="locality" />
		<tag k="ssr:stedsnr" v="855042" />
	</node>
	<node id="-26828" lat="59.9968750028" lon="11.6732555641">
		<tag k="name" v="Knolleliene" />
		<tag k="natural" v="slope" />
		<tag k="place" v="locality" />
		<tag k="ssr:stedsnr" v="282696" />
	</node>
	<node id="-28874" lat="59.8853000007" lon="11.3364750069">
		<tag k="name" v="Ringkolldalen" />
		<tag k="natural" v="valley" />
		<tag k="place" v="locality" />
		<tag k="ssr:stedsnr" v="423057" />
	</node>
	<node id="-26824" lat="59.9939555565" lon="11.7041194405">
		<tag k="name" v="Blekketjenntangen" />
		<tag k="natural" v="hill" />
		<tag k="place" v="locality" />
		<tag k="ssr:stedsnr" v="282665" />
	</node>
	<node id="-28869" lat="59.7797999956" lon="11.5542944414">
		<tag k="name" v="Venemoen" />
		<tag k="place" v="locality" />
		<tag k="ssr:stedsnr" v="422796" />
	</node>
	<node id="-26820" lat="59.9891805548" lon="11.6146777852">
		<tag k="name" v="Vidalen" />
		<tag k="natural" v="valley" />
		<tag k="place" v="locality" />
		<tag k="ssr:stedsnr" v="282630" />
	</node>
	<node id="-26818" lat="59.810999997" lon="11.8207694493">
		<tag k="name" v="Brattfossbrenna" />
		<tag k="natural" v="slope" />
		<tag k="place" v="locality" />
		<tag k="ssr:stedsnr" v="282586" />
	</node>
	<node id="-26817" lat="59.9842750003" lon="11.5928305613">
		<tag k="name" v="Rogndalstorget" />
		<tag k="place" v="locality" />
		<tag k="ssr:stedsnr" v="282566" />
	</node>
	<node id="-30906" lat="59.8531999998" lon="11.4487944497">
		<tag k="fixme" v="consider natural=peak for the most distinct mountains in the district" />
		<tag k="name" v="Trollkjerka" />
		<tag k="natural" v="hill" />
		<tag k="place" v="locality" />
		<tag k="ssr:stedsnr" v="854712" />
	</node>
	<node id="-30905" lat="59.8781333361" lon="11.3630611065">
		<tag k="fixme" v="consider natural=peak for the most distinct mountains in the district" />
		<tag k="name" v="Sæterhøgda" />
		<tag k="natural" v="hill" />
		<tag k="place" v="locality" />
		<tag k="ssr:stedsnr" v="854646" />
	</node>
	<node id="-30902" lat="59.8883417622" lon="11.3384516863">
		<tag k="alt_name" v="Ringkollen, nordre" />
		<tag k="fixme" v="consider natural=peak for the most distinct mountains in the district" />
		<tag k="name" v="Nordre Ringkollen" />
		<tag k="natural" v="hill" />
		<tag k="place" v="locality" />
		<tag k="ssr:stedsnr" v="854641" />
	</node>
	<node id="-28702" lat="59.7411361083" lon="11.5313555567">
		<tag k="fixme" v="consider natural=peak for the most distinct mountains in the district" />
		<tag k="name" v="Stangshøgda" />
		<tag k="natural" v="hill" />
		<tag k="place" v="locality" />
		<tag k="ssr:stedsnr" v="246604" />
	</node>
	<node id="-28849" lat="59.8271194465" lon="11.7156138875">
		<tag k="name" v="Nisseberget" />
		<tag k="natural" v="hill" />
		<tag k="place" v="locality" />
		<tag k="ssr:stedsnr" v="421716" />
	</node>
	<node id="-28848" lat="59.8805833372" lon="11.736652773">
		<tag k="name" v="Åsvasslia" />
		<tag k="natural" v="slope" />
		<tag k="place" v="locality" />
		<tag k="ssr:stedsnr" v="421707" />
	</node>
	<node id="-30894" lat="59.7793861124" lon="11.7446388819">
		<tag k="fixme" v="consider natural=peak for the most distinct mountains in the district" />
		<tag k="name" v="Hallangsholta" />
		<tag k="natural" v="hill" />
		<tag k="place" v="locality" />
		<tag k="ssr:stedsnr" v="854440" />
	</node>
	<node id="-28842" lat="59.883236113" lon="11.4634249959">
		<tag k="name" v="Ekorndalen" />
		<tag k="natural" v="valley" />
		<tag k="place" v="locality" />
		<tag k="ssr:stedsnr" v="421360" />
	</node>
	<node id="-28840" lat="59.8949388868" lon="11.4053777752">
		<tag k="name" v="Tjuvdalen" />
		<tag k="natural" v="valley" />
		<tag k="place" v="locality" />
		<tag k="ssr:stedsnr" v="421345" />
	</node>
	<node id="-28839" lat="59.8736916683" lon="11.4240000085">
		<tag k="name" v="Trætteholmene" />
		<tag k="natural" v="hill" />
		<tag k="place" v="locality" />
		<tag k="ssr:stedsnr" v="421233" />
	</node>
	<node id="-28834" lat="59.8796555533" lon="11.6631527835">
		<tag k="fixme" v="consider natural=peak for the most distinct mountains in the district" />
		<tag k="name" v="Grubeåsen" />
		<tag k="natural" v="hill" />
		<tag k="place" v="locality" />
		<tag k="ssr:stedsnr" v="420613" />
	</node>
	<node id="-28766" lat="59.872088891" lon="11.3388527803">
		<tag k="alt_name" v="Bjønndalen" />
		<tag k="name" v="Bjørndalen" />
		<tag k="natural" v="valley" />
		<tag k="place" v="locality" />
		<tag k="ssr:stedsnr" v="247674" />
	</node>
	<node id="-28832" lat="59.8854194419" lon="11.6748944438">
		<tag k="name" v="Breisjølia" />
		<tag k="natural" v="slope" />
		<tag k="place" v="locality" />
		<tag k="ssr:stedsnr" v="420608" />
	</node>
	<node id="-28828" lat="59.7936222252" lon="11.4331916707">
		<tag k="name" v="Kjerkedalen" />
		<tag k="natural" v="valley" />
		<tag k="place" v="locality" />
		<tag k="ssr:stedsnr" v="419975" />
	</node>
	<node id="-30875" lat="59.6263694473" lon="11.5430333342">
		<tag k="fixme" v="consider natural=peak for the most distinct mountains in the district" />
		<tag k="name" v="Svinåsen" />
		<tag k="natural" v="hill" />
		<tag k="place" v="locality" />
		<tag k="ssr:stedsnr" v="854249" />
	</node>
	<node id="-30874" lat="59.8220361089" lon="11.6185999998">
		<tag k="name" v="Styggedalen" />
		<tag k="natural" v="valley" />
		<tag k="place" v="locality" />
		<tag k="ssr:stedsnr" v="854247" />
	</node>
	<node id="-28825" lat="59.8630944458" lon="11.5280111131">
		<tag k="fixme" v="consider natural=peak for the most distinct mountains in the district" />
		<tag k="name" v="Mannåsen" />
		<tag k="natural" v="hill" />
		<tag k="place" v="locality" />
		<tag k="ssr:stedsnr" v="419910" />
	</node>
	<node id="-27673" lat="59.9672472191" lon="11.6011916667">
		<tag k="name" v="Fotiltjennhøgda" />
		<tag k="natural" v="hill" />
		<tag k="place" v="locality" />
		<tag k="ssr:stedsnr" v="5094" />
	</node>
	<node id="-30868" lat="59.9061833337" lon="11.5307611049">
		<tag k="name" v="Kudalshøgda" />
		<tag k="natural" v="hill" />
		<tag k="place" v="locality" />
		<tag k="ssr:stedsnr" v="854218" />
	</node>
	<node id="-28816" lat="60.0086527779" lon="11.6988055509">
		<tag k="name" v="Haugerliene" />
		<tag k="natural" v="slope" />
		<tag k="place" v="locality" />
		<tag k="ssr:stedsnr" v="419189" />
	</node>
	<node id="-30862" lat="59.8732805582" lon="11.7490249948">
		<tag k="fixme" v="consider natural=peak for the most distinct mountains in the district" />
		<tag k="name" v="Harahøgda" />
		<tag k="natural" v="hill" />
		<tag k="place" v="locality" />
		<tag k="ssr:stedsnr" v="854174" />
	</node>
	<node id="-28803" lat="59.6943027743" lon="11.3929388883">
		<tag k="fixme" v="consider natural=peak for the most distinct mountains in the district" />
		<tag k="name" v="Kløvsåsen" />
		<tag k="natural" v="hill" />
		<tag k="place" v="locality" />
		<tag k="ssr:stedsnr" v="265226" />
	</node>
	<node id="-30848" lat="59.6949222247" lon="11.3831222138">
		<tag k="fixme" v="multiple name tags, choose one and add the other to alt_name; consider natural=peak for the most distinct mountains in the district" />
		<tag k="name" v="Høgåsen;Høgmåshøgda" />
		<tag k="natural" v="hill" />
		<tag k="place" v="locality" />
		<tag k="ssr:stedsnr" v="853838" />
	</node>
	<node id="-27811" lat="59.8158416685" lon="11.6648694387">
		<tag k="name" v="Bjønndalen" />
		<tag k="natural" v="valley" />
		<tag k="place" v="locality" />
		<tag k="ssr:stedsnr" v="57458" />
	</node>
	<node id="-26986" lat="59.9209222191" lon="11.6348750042">
		<tag k="name" v="Skavlia" />
		<tag k="natural" v="slope" />
		<tag k="place" v="locality" />
		<tag k="ssr:stedsnr" v="302582" />
	</node>
	<node id="-28794" lat="59.8428111116" lon="11.6350166697">
		<tag k="fixme" v="consider natural=peak for the most distinct mountains in the district" />
		<tag k="name" v="Butjennåsen" />
		<tag k="natural" v="hill" />
		<tag k="place" v="locality" />
		<tag k="ssr:stedsnr" v="248325" />
	</node>
	<node id="-27327" lat="59.873388886" lon="11.409216665">
		<tag k="fixme" v="multiple name tags, choose one and add the other to alt_name" />
		<tag k="name" v="Gravdalen;Rudsdalen" />
		<tag k="natural" v="valley" />
		<tag k="place" v="locality" />
		<tag k="ssr:stedsnr" v="368726" />
	</node>
	<node id="-30833" lat="59.9294083339" lon="11.6111333316">
		<tag k="loc_name" v="Knatten" />
		<tag k="name" v="Trosterudknatten" />
		<tag k="natural" v="hill" />
		<tag k="place" v="locality" />
		<tag k="ssr:stedsnr" v="848605" />
	</node>
	<node id="-28783" lat="59.9760888865" lon="11.5700333403">
		<tag k="fixme" v="consider natural=peak for the most distinct mountains in the district" />
		<tag k="name" v="Revtjennhøgda" />
		<tag k="natural" v="hill" />
		<tag k="place" v="locality" />
		<tag k="ssr:stedsnr" v="247969" />
	</node>
	<node id="-28782" lat="59.9764401442" lon="11.5791301457">
		<tag k="fixme" v="consider natural=peak for the most distinct mountains in the district" />
		<tag k="name" v="Busåsen" />
		<tag k="natural" v="hill" />
		<tag k="place" v="locality" />
		<tag k="ssr:stedsnr" v="247967" />
	</node>
	<node id="-30826" lat="59.9723833359" lon="11.5981361179">
		<tag k="fixme" v="consider natural=peak for the most distinct mountains in the district" />
		<tag k="name" v="Gråbeinåsen" />
		<tag k="natural" v="hill" />
		<tag k="place" v="locality" />
		<tag k="ssr:stedsnr" v="848137" />
	</node>
	<node id="-30821" lat="59.8563722208" lon="11.7365555537">
		<tag k="name" v="Søndagstjenndalen" />
		<tag k="natural" v="valley" />
		<tag k="place" v="locality" />
		<tag k="ssr:stedsnr" v="848244" />
	</node>
	<node id="-30820" lat="59.8377472206" lon="11.7348666701">
		<tag k="fixme" v="consider natural=peak for the most distinct mountains in the district" />
		<tag k="name" v="Morttjennheia" />
		<tag k="natural" v="hill" />
		<tag k="place" v="locality" />
		<tag k="ssr:stedsnr" v="848219" />
	</node>
	<node id="-30818" lat="59.8794527759" lon="11.3978611171">
		<tag k="name" v="Svarttjennlia" />
		<tag k="natural" v="slope" />
		<tag k="place" v="locality" />
		<tag k="ssr:stedsnr" v="848046" />
	</node>
	<node id="-30814" lat="59.7391722189" lon="11.584725006">
		<tag k="name" v="Sæterdalen" />
		<tag k="natural" v="valley" />
		<tag k="place" v="locality" />
		<tag k="ssr:stedsnr" v="847586" />
	</node>
	<node id="-28764" lat="59.8835611069" lon="11.4686333348">
		<tag k="fixme" v="consider natural=peak for the most distinct mountains in the district" />
		<tag k="name" v="Elgheia" />
		<tag k="natural" v="hill" />
		<tag k="place" v="locality" />
		<tag k="ssr:stedsnr" v="247646" />
	</node>
	<node id="-30810" lat="59.689083333" lon="11.5880222178">
		<tag k="name" v="Kråkedalen" />
		<tag k="natural" v="valley" />
		<tag k="place" v="locality" />
		<tag k="ssr:stedsnr" v="847383" />
	</node>
	<node id="-30803" lat="59.7725138894" lon="11.5450638845">
		<tag k="name" v="Steinbrotdalen" />
		<tag k="natural" v="valley" />
		<tag k="place" v="locality" />
		<tag k="ssr:stedsnr" v="846804" />
	</node>
	<node id="-30802" lat="59.7684222194" lon="11.5452333349">
		<tag k="name" v="Brudalen" />
		<tag k="natural" v="valley" />
		<tag k="place" v="locality" />
		<tag k="ssr:stedsnr" v="846800" />
	</node>
	<node id="-30796" lat="59.8503861092" lon="11.3972333321">
		<tag k="fixme" v="consider natural=peak for the most distinct mountains in the district" />
		<tag k="name" v="Tornekollen" />
		<tag k="natural" v="hill" />
		<tag k="place" v="locality" />
		<tag k="ssr:stedsnr" v="846676" />
	</node>
	<node id="-28744" lat="59.6816805543" lon="11.5089583303">
		<tag k="alt_name" v="Kragtorpbrenna" />
		<tag k="fixme" v="consider natural=peak for the most distinct mountains in the district" />
		<tag k="name" v="Kragtorpåsen" />
		<tag k="natural" v="hill" />
		<tag k="place" v="locality" />
		<tag k="ssr:stedsnr" v="247331" />
	</node>
	<node id="-30789" lat="59.9564888854" lon="11.4392000017">
		<tag k="name" v="Gravdalen" />
		<tag k="natural" v="valley" />
		<tag k="place" v="locality" />
		<tag k="ssr:stedsnr" v="846413" />
	</node>
	<node id="-28738" lat="59.8348222208" lon="11.7906916595">
		<tag k="fixme" v="consider natural=peak for the most distinct mountains in the district" />
		<tag k="name" v="Lembruheia" />
		<tag k="natural" v="hill" />
		<tag k="place" v="locality" />
		<tag k="ssr:stedsnr" v="247294" />
	</node>
	<node id="-30785" lat="59.8109111108" lon="11.6429500028">
		<tag k="fixme" v="consider natural=peak for the most distinct mountains in the district" />
		<tag k="name" v="Sæterhøgda" />
		<tag k="natural" v="hill" />
		<tag k="place" v="locality" />
		<tag k="ssr:stedsnr" v="846373" />
	</node>
	<node id="-30782" lat="59.8775861123" lon="11.4105388939">
		<tag k="fixme" v="consider natural=peak for the most distinct mountains in the district" />
		<tag k="name" v="Vestre Prestehesten" />
		<tag k="natural" v="hill" />
		<tag k="place" v="locality" />
		<tag k="ssr:stedsnr" v="846210" />
	</node>
	<node id="-27317" lat="59.8316194443" lon="11.5768444393">
		<tag k="fixme" v="consider natural=peak for the most distinct mountains in the district" />
		<tag k="name" v="Grasåsen" />
		<tag k="natural" v="hill" />
		<tag k="place" v="locality" />
		<tag k="ssr:stedsnr" v="368342" />
	</node>
	<node id="-30780" lat="59.7756333373" lon="11.7469749937">
		<tag k="name" v="Trollkjerkedalen" />
		<tag k="natural" v="valley" />
		<tag k="place" v="locality" />
		<tag k="ssr:stedsnr" v="846080" />
	</node>
	<node id="-28682" lat="59.8557583366" lon="11.5147027693">
		<tag k="fixme" v="consider natural=peak for the most distinct mountains in the district" />
		<tag k="name" v="Røysåsen" />
		<tag k="natural" v="hill" />
		<tag k="place" v="locality" />
		<tag k="ssr:stedsnr" v="241529" />
	</node>
	<node id="-28730" lat="59.9040500023" lon="11.747036108">
		<tag k="fixme" v="consider natural=peak for the most distinct mountains in the district" />
		<tag k="name" v="Midtfjella" />
		<tag k="natural" v="hill" />
		<tag k="place" v="locality" />
		<tag k="ssr:stedsnr" v="247230" />
	</node>
	<node id="-26975" lat="59.8395805572" lon="11.7368916638">
		<tag k="name" v="Maridalen" />
		<tag k="natural" v="valley" />
		<tag k="place" v="locality" />
		<tag k="ssr:stedsnr" v="302224" />
	</node>
	<node id="-30773" lat="59.8853055537" lon="11.5400111106">
		<tag k="name" v="Apiko" />
		<tag k="natural" v="hill" />
		<tag k="place" v="locality" />
		<tag k="ssr:stedsnr" v="845669" />
	</node>
	<node id="-30772" lat="59.887811109" lon="11.6043999977">
		<tag k="name" v="Eksismoen" />
		<tag k="place" v="locality" />
		<tag k="ssr:stedsnr" v="845628" />
	</node>
	<node id="-30770" lat="59.8731555555" lon="11.6100249938">
		<tag k="name" v="Malmsleppa" />
		<tag k="place" v="locality" />
		<tag k="ssr:stedsnr" v="845623" />
	</node>
	<node id="-28339" lat="59.794449999" lon="11.7395194428">
		<tag k="fixme" v="consider natural=peak for the most distinct mountains in the district" />
		<tag k="name" v="Hanskebrenna" />
		<tag k="natural" v="hill" />
		<tag k="place" v="locality" />
		<tag k="ssr:stedsnr" v="177736" />
	</node>
	<node id="-30767" lat="59.9422972246" lon="11.5834805597">
		<tag k="fixme" v="consider natural=peak for the most distinct mountains in the district" />
		<tag k="name" v="Sagåsen" />
		<tag k="natural" v="hill" />
		<tag k="place" v="locality" />
		<tag k="ssr:stedsnr" v="845382" />
	</node>
	<node id="-26973" lat="59.9695638849" lon="11.6276277778">
		<tag k="fixme" v="consider natural=peak for the most distinct mountains in the district" />
		<tag k="name" v="Jenrupen" />
		<tag k="natural" v="hill" />
		<tag k="place" v="locality" />
		<tag k="ssr:stedsnr" v="302153" />
	</node>
	<node id="-28716" lat="59.8683472231" lon="11.6510277823">
		<tag k="fixme" v="consider natural=peak for the most distinct mountains in the district" />
		<tag k="name" v="Ørnekollen" />
		<tag k="natural" v="hill" />
		<tag k="place" v="locality" />
		<tag k="ssr:stedsnr" v="247130" />
	</node>
	<node id="-28708" lat="59.9221611155" lon="11.7617861059">
		<tag k="alt_name" v="Gaupliåsen" />
		<tag k="fixme" v="consider natural=peak for the most distinct mountains in the district" />
		<tag k="name" v="Gaupeliåsen" />
		<tag k="natural" v="hill" />
		<tag k="place" v="locality" />
		<tag k="ssr:stedsnr" v="247042" />
	</node>
	<node id="-28706" lat="59.931219448" lon="11.5936250032">
		<tag k="fixme" v="consider natural=peak for the most distinct mountains in the district" />
		<tag k="name" v="Trongåsen" />
		<tag k="natural" v="hill" />
		<tag k="place" v="locality" />
		<tag k="ssr:stedsnr" v="247035" />
	</node>
	<node id="-26971" lat="59.8041805549" lon="11.8398833319">
		<tag k="name" v="Østre Bukkedal" />
		<tag k="natural" v="valley" />
		<tag k="place" v="locality" />
		<tag k="ssr:stedsnr" v="301707" />
	</node>
	<node id="-30752" lat="59.8700472219" lon="11.4897500028">
		<tag k="name" v="Hulderåsen" />
		<tag k="natural" v="hill" />
		<tag k="place" v="locality" />
		<tag k="ssr:stedsnr" v="844875" />
	</node>
	<node id="-30750" lat="60.0077166702" lon="11.6209500058">
		<tag k="fixme" v="consider natural=peak for the most distinct mountains in the district" />
		<tag k="name" v="Rynjutjennåsen" />
		<tag k="natural" v="hill" />
		<tag k="place" v="locality" />
		<tag k="ssr:stedsnr" v="844065" />
	</node>
	<node id="-28695" lat="59.7473361107" lon="11.405047218">
		<tag k="fixme" v="consider natural=peak for the most distinct mountains in the district" />
		<tag k="name" v="Okstjennhøgda" />
		<tag k="natural" v="hill" />
		<tag k="place" v="locality" />
		<tag k="ssr:stedsnr" v="246092" />
	</node>
	<node id="-30741" lat="60.0112833353" lon="11.799475006">
		<tag k="alt_name" v="Bjørndalen" />
		<tag k="name" v="Bjønndalen" />
		<tag k="natural" v="valley" />
		<tag k="place" v="locality" />
		<tag k="ssr:stedsnr" v="832708" />
	</node>
	<node id="-28687" lat="59.9318694419" lon="11.6111472177">
		<tag k="name" v="Rosdalen" />
		<tag k="natural" v="valley" />
		<tag k="place" v="locality" />
		<tag k="ssr:stedsnr" v="241592" />
	</node>
	<node id="-28686" lat="59.8618583376" lon="11.4144027862">
		<tag k="name" v="Grønmyrdalen" />
		<tag k="natural" v="valley" />
		<tag k="place" v="locality" />
		<tag k="ssr:stedsnr" v="241495" />
	</node>
	<node id="-30730" lat="59.7790416699" lon="11.4044249926">
		<tag k="name" v="Damtjennhøgda" />
		<tag k="natural" v="hill" />
		<tag k="place" v="locality" />
		<tag k="ssr:stedsnr" v="831408" />
	</node>
	<node id="-27991" lat="59.7567416699" lon="11.5934527692">
		<tag k="name" v="Vestre Mørkomdalen" />
		<tag k="natural" v="valley" />
		<tag k="place" v="locality" />
		<tag k="ssr:stedsnr" v="100038" />
	</node>
	<node id="-30724" lat="59.9142194487" lon="11.6023722297">
		<tag k="fixme" v="consider natural=peak for the most distinct mountains in the district" />
		<tag k="name" v="Nygårdsåsen" />
		<tag k="natural" v="hill" />
		<tag k="place" v="locality" />
		<tag k="ssr:stedsnr" v="831179" />
	</node>
	<node id="-28674" lat="59.8404111119" lon="11.6396111023">
		<tag k="name" v="Butjenndalen" />
		<tag k="natural" v="valley" />
		<tag k="place" v="locality" />
		<tag k="ssr:stedsnr" v="241206" />
	</node>
	<node id="-28673" lat="59.8978611136" lon="11.755172225">
		<tag k="name" v="Merraskolldalen" />
		<tag k="natural" v="valley" />
		<tag k="place" v="locality" />
		<tag k="ssr:stedsnr" v="241425" />
	</node>
</osm>
