<?xml version="1.0" encoding="UTF-8"?>
<osm generator="osmapis" version="0.6">
	<node id="-29312" lat="59.9313000036" lon="11.3517194427">
		<tag k="name" v="Liasaga" />
		<tag k="place" v="locality" />
		<tag k="ssr:stedsnr" v="525983" />
	</node>
	<node id="-28285" lat="59.7954777769" lon="11.6663833364">
		<tag k="name" v="Kaffeberget" />
		<tag k="place" v="locality" />
		<tag k="ssr:stedsnr" v="161175" />
	</node>
	<node id="-31226" lat="59.9439277786" lon="11.5555472158">
		<tag k="name" v="Gyrileet" />
		<tag k="place" v="locality" />
		<tag k="ssr:stedsnr" v="952397" />
	</node>
	<node id="-28662" lat="59.9336416632" lon="11.6689138899">
		<tag k="name" v="Sterkerudsaga" />
		<tag k="place" v="locality" />
		<tag k="ssr:stedsnr" v="239752" />
	</node>
	<node id="-28533" lat="59.7975472187" lon="11.4679194412">
		<tag k="alt_name" v="Løken" />
		<tag k="amenity" v="place_of_worship" />
		<tag k="denomination" v="lutheran" />
		<tag k="name" v="Løken kirke" />
		<tag k="religion" v="christian" />
		<tag k="ssr:stedsnr" v="187800" />
	</node>
	<node id="-28147" lat="59.8340305548" lon="11.730402776">
		<tag k="name" v="Kolstadbråten" />
		<tag k="place" v="locality" />
		<tag k="ssr:stedsnr" v="120198" />
	</node>
	<node id="-28782" lat="59.7174055528" lon="11.4487416592">
		<tag k="alt_name" v="Søndre Høland" />
		<tag k="amenity" v="place_of_worship" />
		<tag k="denomination" v="lutheran" />
		<tag k="name" v="Søndre Høland kirke" />
		<tag k="religion" v="christian" />
		<tag k="ssr:stedsnr" v="247832" />
	</node>
	<node id="-28908" lat="59.6243916629" lon="11.5190500051">
		<tag k="name" v="Stenersby sag" />
		<tag k="place" v="locality" />
		<tag k="ssr:stedsnr" v="423748" />
	</node>
	<node id="-29162" lat="59.6222277754" lon="11.5087777847">
		<tag k="name" v="Høyendal" />
		<tag k="place" v="locality" />
		<tag k="ssr:stedsnr" v="483746" />
	</node>
	<node id="-27496" lat="59.7978333373" lon="11.4743083416">
		<tag k="name" v="Prestegårdshagen" />
		<tag k="place" v="locality" />
		<tag k="ssr:stedsnr" v="890021" />
	</node>
	<node id="-27109" lat="59.7230861123" lon="11.4524138878">
		<tag k="name" v="Bygdetunet" />
		<tag k="ssr:stedsnr" v="326065" />
		<tag k="tourism" v="attraction" />
	</node>
	<node id="-30436" lat="59.9425999958" lon="11.550861105">
		<tag k="name" v="Kisteberget" />
		<tag k="place" v="locality" />
		<tag k="ssr:stedsnr" v="770363" />
	</node>
	<node id="-30045" lat="59.8572250032" lon="11.5253138947">
		<tag k="alt_name" v="Hornåseng st" />
		<tag k="name" v="Hornåseng" />
		<tag k="place" v="locality" />
		<tag k="ssr:stedsnr" v="672133" />
	</node>
	<node id="-31194" lat="59.9338944475" lon="11.5397361073">
		<tag k="name" v="Dingsrud" />
		<tag k="place" v="locality" />
		<tag k="ssr:stedsnr" v="950584" />
	</node>
	<node id="-28633" lat="59.9558305517" lon="11.5210500005">
		<tag k="name" v="Jakobsmoen" />
		<tag k="place" v="locality" />
		<tag k="ssr:stedsnr" v="238327" />
	</node>
	<node id="-31310" lat="59.8773916683" lon="11.8189249975">
		<tag k="name" v="Lessinga" />
		<tag k="place" v="locality" />
		<tag k="ssr:stedsnr" v="968541" />
	</node>
	<node id="-30158" lat="59.9099194446" lon="11.653144452">
		<tag k="name" v="Gryta" />
		<tag k="place" v="locality" />
		<tag k="ssr:stedsnr" v="709780" />
	</node>
	<node id="-31051" lat="59.7964972194" lon="11.335072215">
		<tag k="name" v="Brattbakk" />
		<tag k="place" v="locality" />
		<tag k="ssr:stedsnr" v="909834" />
	</node>
	<node id="-27850" lat="59.8266416665" lon="11.7222833329">
		<tag k="alt_name" v="Setskog" />
		<tag k="amenity" v="place_of_worship" />
		<tag k="denomination" v="lutheran" />
		<tag k="name" v="Setskog kirke" />
		<tag k="religion" v="christian" />
		<tag k="ssr:stedsnr" v="65286" />
	</node>
	<node id="-27080" lat="59.9269305577" lon="11.4568416711">
		<tag k="alt_name" v="Aurskog" />
		<tag k="amenity" v="place_of_worship" />
		<tag k="denomination" v="lutheran" />
		<tag k="name" v="Aurskog kirke" />
		<tag k="religion" v="christian" />
		<tag k="ssr:stedsnr" v="308568" />
	</node>
	<node id="-30151" lat="59.8986833359" lon="11.4966694418">
		<tag k="name" v="Gamlevangen" />
		<tag k="place" v="locality" />
		<tag k="ssr:stedsnr" v="709439" />
	</node>
	<node id="-29891" lat="59.7741361131" lon="11.459886107">
		<tag k="name" v="Sjøberg" />
		<tag k="place" v="locality" />
		<tag k="ssr:stedsnr" v="648481" />
	</node>
	<node id="-29643" lat="59.9575333291" lon="11.4585166712">
		<tag k="name" v="Ringmuren" />
		<tag k="place" v="locality" />
		<tag k="ssr:stedsnr" v="602451" />
	</node>
	<node id="-29376" lat="59.8242166657" lon="11.6322083333">
		<tag k="name" v="Lensmannsvelta" />
		<tag k="place" v="locality" />
		<tag k="ssr:stedsnr" v="542467" />
	</node>
	<node id="-30268" lat="59.8769138904" lon="11.5594944504">
		<tag k="alt_name" v="Bjørkelangen" />
		<tag k="amenity" v="place_of_worship" />
		<tag k="denomination" v="lutheran" />
		<tag k="name" v="Bjørkelangen kirke" />
		<tag k="religion" v="christian" />
		<tag k="ssr:stedsnr" v="732184" />
	</node>
	<node id="-26937" lat="59.8444666628" lon="11.3663166743">
		<tag k="name" v="Svenskeslora" />
		<tag k="place" v="locality" />
		<tag k="ssr:stedsnr" v="300692" />
	</node>
	<node id="-31283" lat="59.9207833373" lon="11.6484999916">
		<tag k="name" v="Postillsaga" />
		<tag k="place" v="locality" />
		<tag k="ssr:stedsnr" v="967600" />
	</node>
	<node id="-26924" lat="59.9436444472" lon="11.4435722158">
		<tag k="name" v="Korsbekken" />
		<tag k="place" v="locality" />
		<tag k="ssr:stedsnr" v="300305" />
	</node>
	<node id="-28841" lat="59.8782777743" lon="11.5784194418">
		<tag k="name" v="Leiren" />
		<tag k="place" v="locality" />
		<tag k="ssr:stedsnr" v="420632" />
	</node>
	<node id="-26919" lat="59.9426916641" lon="11.3787222298">
		<tag k="name" v="Harkerudbakkene" />
		<tag k="place" v="locality" />
		<tag k="ssr:stedsnr" v="300278" />
	</node>
	<node id="-28325" lat="59.8202999989" lon="11.4924222244">
		<tag k="name" v="Møllebak" />
		<tag k="place" v="locality" />
		<tag k="ssr:stedsnr" v="176175" />
	</node>
	<node id="-30726" lat="59.8658999978" lon="11.6206388881">
		<tag k="name" v="Sydengsvangen" />
		<tag k="place" v="locality" />
		<tag k="ssr:stedsnr" v="830860" />
	</node>
	<node id="-29596" lat="59.9547472246" lon="11.5748666605">
		<tag k="name" v="Kølamoen" />
		<tag k="place" v="locality" />
		<tag k="ssr:stedsnr" v="587434" />
	</node>
	<node id="-29211" lat="59.9926416651" lon="11.7747083243">
		<tag k="alt_name" v="Mangen" />
		<tag k="amenity" v="place_of_worship" />
		<tag k="denomination" v="lutheran" />
		<tag k="name" v="Mangen kapell" />
		<tag k="religion" v="christian" />
		<tag k="ssr:stedsnr" v="489937" />
	</node>
	<node id="-27162" lat="59.9308916685" lon="11.495563893">
		<tag k="name" v="Sagneset" />
		<tag k="place" v="locality" />
		<tag k="ssr:stedsnr" v="343661" />
	</node>
	<node id="-26853" lat="59.7817000001" lon="11.3817361108">
		<tag k="name" v="Tjennsmo" />
		<tag k="place" v="locality" />
		<tag k="ssr:stedsnr" v="283293" />
	</node>
	<node id="-29844" lat="59.7872555594" lon="11.5268666725">
		<tag k="name" v="Nerbyfurua" />
		<tag k="place" v="locality" />
		<tag k="ssr:stedsnr" v="646236" />
	</node>
	<node id="-30739" lat="59.9045138897" lon="11.4995027798">
		<tag k="name" v="Snekkermoen" />
		<tag k="place" v="locality" />
		<tag k="ssr:stedsnr" v="831415" />
	</node>
	<node id="-30215" lat="59.8882388912" lon="11.4292249946">
		<tag k="name" v="Sætra" />
		<tag k="place" v="locality" />
		<tag k="ssr:stedsnr" v="725339" />
	</node>
	<node id="-30985" lat="59.8092388898" lon="11.3898888903">
		<tag k="amenity" v="community_centre" />
		<tag k="name" v="Betel" />
		<tag k="ssr:stedsnr" v="905736" />
	</node>
	<node id="-29831" lat="59.743552778" lon="11.5032194427">
		<tag k="name" v="Furteburet" />
		<tag k="place" v="locality" />
		<tag k="ssr:stedsnr" v="645367" />
	</node>
	<node id="-29574" lat="59.799399996" lon="11.4524416729">
		<tag k="name" v="Skattumlia" />
		<tag k="place" v="locality" />
		<tag k="ssr:stedsnr" v="586067" />
	</node>
	<node id="-29956" lat="59.7705944416" lon="11.7201388945">
		<tag k="name" v="Rasmusbråten" />
		<tag k="place" v="locality" />
		<tag k="ssr:stedsnr" v="664904" />
	</node>
	<node id="-27139" lat="59.975708335" lon="11.4278527698">
		<tag k="name" v="Sekkehytta" />
		<tag k="place" v="locality" />
		<tag k="ssr:stedsnr" v="343003" />
	</node>
</osm>
