<?xml version="1.0" encoding="UTF-8"?>
<osm generator="osmapis" version="0.6">
	<node id="-28669" lat="59.6717527807" lon="11.5843777865">
		<tag k="name" v="Vestre Fuglemåsan" />
		<tag k="natural" v="wetland" />
		<tag k="ssr:stedsnr" v="240454" />
	</node>
	<node id="-30715" lat="59.9487166627" lon="11.7472305635">
		<tag k="name" v="Engebråten" />
		<tag k="place" v="locality" />
		<tag k="ssr:stedsnr" v="829931" />
	</node>
	<node id="-30713" lat="60.0011583336" lon="11.5941333303">
		<tag k="name" v="Åkermyra" />
		<tag k="natural" v="wetland" />
		<tag k="ssr:stedsnr" v="829697" />
	</node>
	<node id="-30711" lat="59.9833611079" lon="11.6245444531">
		<tag k="name" v="Kvintjennmyra" />
		<tag k="natural" v="wetland" />
		<tag k="ssr:stedsnr" v="829682" />
	</node>
	<node id="-30708" lat="59.8347138859" lon="11.3085666594">
		<tag k="name" v="Vivangmyra" />
		<tag k="natural" v="wetland" />
		<tag k="ssr:stedsnr" v="829673" />
	</node>
	<node id="-30706" lat="59.8552416698" lon="11.3545805506">
		<tag k="name" v="Vikemåsan" />
		<tag k="natural" v="wetland" />
		<tag k="ssr:stedsnr" v="831672" />
	</node>
	<node id="-30705" lat="59.8569722202" lon="11.3512027752">
		<tag k="name" v="Vikemåsaholet" />
		<tag k="natural" v="wetland" />
		<tag k="ssr:stedsnr" v="831669" />
	</node>
	<node id="-30704" lat="59.9231666653" lon="11.4726305585">
		<tag k="name" v="Hogstadmyra" />
		<tag k="natural" v="wetland" />
		<tag k="ssr:stedsnr" v="829634" />
	</node>
	<node id="-28651" lat="59.8784722196" lon="11.469436113">
		<tag k="name" v="Kvea" />
		<tag k="natural" v="wetland" />
		<tag k="ssr:stedsnr" v="239339" />
	</node>
	<node id="-30697" lat="59.9515333301" lon="11.6468694433">
		<tag k="name" v="Ringkollmyra" />
		<tag k="natural" v="wetland" />
		<tag k="ssr:stedsnr" v="829114" />
	</node>
	<node id="-28648" lat="59.8738000015" lon="11.4361027797">
		<tag k="name" v="Vestre Blåkollmåsan" />
		<tag k="natural" v="wetland" />
		<tag k="ssr:stedsnr" v="239240" />
	</node>
	<node id="-28647" lat="59.8945111071" lon="11.3768666661">
		<tag k="name" v="Gunnartjennmyra" />
		<tag k="natural" v="wetland" />
		<tag k="ssr:stedsnr" v="239237" />
	</node>
	<node id="-28645" lat="59.9240388861" lon="11.6913555615">
		<tag k="name" v="Korpedalsmyra" />
		<tag k="natural" v="wetland" />
		<tag k="ssr:stedsnr" v="239235" />
	</node>
	<node id="-30690" lat="59.7991777744" lon="11.4654027741">
		<tag k="name" v="Prestegårdsmåsan" />
		<tag k="natural" v="wetland" />
		<tag k="ssr:stedsnr" v="829027" />
	</node>
	<node id="-30689" lat="59.968319441" lon="11.4198027804">
		<tag k="name" v="Mærramyrene" />
		<tag k="natural" v="wetland" />
		<tag k="ssr:stedsnr" v="829014" />
	</node>
	<node id="-30688" lat="59.9749194411" lon="11.5277888897">
		<tag k="name" v="Gullmyra" />
		<tag k="natural" v="wetland" />
		<tag k="ssr:stedsnr" v="829009" />
	</node>
	<node id="-28639" lat="59.8768111088" lon="11.7074249951">
		<tag k="name" v="Torsmyr" />
		<tag k="natural" v="wetland" />
		<tag k="ssr:stedsnr" v="238596" />
	</node>
	<node id="-30683" lat="59.811166669" lon="11.8096194446">
		<tag k="name" v="Brattfossmåsan" />
		<tag k="natural" v="wetland" />
		<tag k="ssr:stedsnr" v="828564" />
	</node>
	<node id="-30680" lat="59.7292722256" lon="11.4992527693">
		<tag k="name" v="Langerekke" />
		<tag k="place" v="locality" />
		<tag k="ssr:stedsnr" v="828549" />
	</node>
	<node id="-28665" lat="59.6538361087" lon="11.5315166599">
		<tag k="name" v="Olavsmåsan" />
		<tag k="natural" v="wetland" />
		<tag k="ssr:stedsnr" v="240716" />
	</node>
	<node id="-28623" lat="60.0144805596" lon="11.5831194361">
		<tag k="name" v="Sørbergmåsan" />
		<tag k="natural" v="wetland" />
		<tag k="ssr:stedsnr" v="237054" />
	</node>
	<node id="-30659" lat="60.0069666629" lon="11.731413895">
		<tag k="name" v="Bukkemåsan" />
		<tag k="natural" v="wetland" />
		<tag k="ssr:stedsnr" v="794579" />
	</node>
	<node id="-28610" lat="59.8367583378" lon="11.5028444379">
		<tag k="name" v="Torva" />
		<tag k="natural" v="wetland" />
		<tag k="ssr:stedsnr" v="224831" />
	</node>
	<node id="-30656" lat="59.7750583371" lon="11.6760305484">
		<tag k="name" v="Orremåsan" />
		<tag k="natural" v="wetland" />
		<tag k="ssr:stedsnr" v="794414" />
	</node>
	<node id="-28603" lat="59.9493027777" lon="11.4643361139">
		<tag k="name" v="Lokshaugmåsan" />
		<tag k="natural" v="wetland" />
		<tag k="ssr:stedsnr" v="224466" />
	</node>
	<node id="-28602" lat="59.9478583356" lon="11.4714277704">
		<tag k="name" v="Kavlebrumyra" />
		<tag k="natural" v="wetland" />
		<tag k="ssr:stedsnr" v="224465" />
	</node>
	<node id="-28601" lat="60.0171472189" lon="11.8249722252">
		<tag k="name" v="Kailandsholtet" />
		<tag k="place" v="locality" />
		<tag k="ssr:stedsnr" v="224903" />
	</node>
	<node id="-27276" lat="59.9666111116" lon="11.6721944395">
		<tag k="name" v="Ormemyra" />
		<tag k="natural" v="wetland" />
		<tag k="ssr:stedsnr" v="362160" />
	</node>
	<node id="-28596" lat="59.9790138856" lon="11.6892222258">
		<tag k="name" v="Blautmyra" />
		<tag k="natural" v="wetland" />
		<tag k="ssr:stedsnr" v="223303" />
	</node>
	<node id="-28595" lat="59.9769944478" lon="11.6868333301">
		<tag k="name" v="Bråtaholtet" />
		<tag k="place" v="locality" />
		<tag k="ssr:stedsnr" v="223302" />
	</node>
	<node id="-28592" lat="59.9608388889" lon="11.4009111087">
		<tag k="name" v="Loppen" />
		<tag k="natural" v="wetland" />
		<tag k="ssr:stedsnr" v="222820" />
	</node>
	<node id="-28591" lat="60.0174083343" lon="11.5670166718">
		<tag k="name" v="Haramyra" />
		<tag k="natural" v="wetland" />
		<tag k="ssr:stedsnr" v="222781" />
	</node>
	<node id="-28589" lat="59.9881055554" lon="11.6808138816">
		<tag k="name" v="Kjelketjennmåsan" />
		<tag k="natural" v="wetland" />
		<tag k="ssr:stedsnr" v="222720" />
	</node>
	<node id="-28588" lat="60.0001499994" lon="11.7043555624">
		<tag k="name" v="Deledalsmyra" />
		<tag k="natural" v="wetland" />
		<tag k="ssr:stedsnr" v="222708" />
	</node>
	<node id="-28586" lat="59.9967749961" lon="11.578508332">
		<tag k="name" v="Orremåsan" />
		<tag k="natural" v="wetland" />
		<tag k="ssr:stedsnr" v="222683" />
	</node>
	<node id="-28585" lat="59.9837333291" lon="11.6744194458">
		<tag k="name" v="Nedre Slåttemyra" />
		<tag k="natural" v="wetland" />
		<tag k="ssr:stedsnr" v="222599" />
	</node>
	<node id="-28580" lat="59.7902333318" lon="11.7123638897">
		<tag k="name" v="Leikerholen" />
		<tag k="place" v="locality" />
		<tag k="ssr:stedsnr" v="222151" />
	</node>
	<node id="-26950" lat="59.7652305524" lon="11.6821555489">
		<tag k="name" v="Ertåkermåsan" />
		<tag k="natural" v="wetland" />
		<tag k="ssr:stedsnr" v="300997" />
	</node>
	<node id="-28578" lat="59.7860805522" lon="11.3359833398">
		<tag k="name" v="Dammyrene" />
		<tag k="natural" v="wetland" />
		<tag k="ssr:stedsnr" v="222124" />
	</node>
	<node id="-28576" lat="59.7966722207" lon="11.7788722262">
		<tag k="name" v="Røsfallmåsan" />
		<tag k="natural" v="wetland" />
		<tag k="ssr:stedsnr" v="222075" />
	</node>
	<node id="-28572" lat="59.9433666673" lon="11.705688884">
		<tag k="name" v="Sautjennmyra" />
		<tag k="natural" v="wetland" />
		<tag k="ssr:stedsnr" v="222046" />
	</node>
	<node id="-28564" lat="59.8208750005" lon="11.8046916643">
		<tag k="name" v="Slenga" />
		<tag k="natural" v="wetland" />
		<tag k="ssr:stedsnr" v="221576" />
	</node>
	<node id="-27630" lat="59.8236361104" lon="11.7749805544">
		<tag k="name" v="Måsabymåsan" />
		<tag k="natural" v="wetland" />
		<tag k="ssr:stedsnr" v="4306" />
	</node>
	<node id="-28559" lat="60.0012250007" lon="11.5778694528">
		<tag k="name" v="Grønnmyra" />
		<tag k="natural" v="wetland" />
		<tag k="ssr:stedsnr" v="221528" />
	</node>
	<node id="-28555" lat="59.9889499963" lon="11.7891222273">
		<tag k="name" v="Mangenmyra" />
		<tag k="natural" v="wetland" />
		<tag k="ssr:stedsnr" v="222967" />
	</node>
	<node id="-27287" lat="59.9122083303" lon="11.7705666694">
		<tag k="name" v="Kroktjennmåsan" />
		<tag k="natural" v="wetland" />
		<tag k="ssr:stedsnr" v="362431" />
	</node>
	<node id="-28551" lat="59.7586083369" lon="11.6068472157">
		<tag k="name" v="Langmyr" />
		<tag k="natural" v="wetland" />
		<tag k="ssr:stedsnr" v="221039" />
	</node>
	<node id="-30593" lat="59.9061500038" lon="11.787888896">
		<tag k="name" v="Lauvskogmyra" />
		<tag k="natural" v="wetland" />
		<tag k="ssr:stedsnr" v="793240" />
	</node>
	<node id="-30592" lat="59.8967888911" lon="11.6241638807">
		<tag k="alt_name" v="Orremåsan" />
		<tag k="name" v="Åremåsan" />
		<tag k="natural" v="wetland" />
		<tag k="ssr:stedsnr" v="793235" />
	</node>
	<node id="-26944" lat="59.782016668" lon="11.465544453">
		<tag k="name" v="Gravhaugåkeren" />
		<tag k="place" v="locality" />
		<tag k="ssr:stedsnr" v="300774" />
	</node>
	<node id="-28538" lat="59.9715499963" lon="11.6315083413">
		<tag k="name" v="Saumyra" />
		<tag k="natural" v="wetland" />
		<tag k="ssr:stedsnr" v="187971" />
	</node>
	<node id="-30585" lat="59.8624500039" lon="11.5441277816">
		<tag k="name" v="Komnesmåsan" />
		<tag k="natural" v="wetland" />
		<tag k="ssr:stedsnr" v="793181" />
	</node>
	<node id="-28649" lat="59.8928694471" lon="11.3812916677">
		<tag k="name" v="Gunnartjennmåsan" />
		<tag k="natural" v="wetland" />
		<tag k="ssr:stedsnr" v="239249" />
	</node>
	<node id="-27283" lat="59.8164166637" lon="11.3221944431">
		<tag k="name" v="Elgedalsmåsan" />
		<tag k="natural" v="wetland" />
		<tag k="ssr:stedsnr" v="362406" />
	</node>
	<node id="-28989" lat="59.9414027787" lon="11.7155749912">
		<tag k="alt_name" v="Orremyrene" />
		<tag k="name" v="Orremyrane" />
		<tag k="natural" v="wetland" />
		<tag k="ssr:stedsnr" v="430066" />
	</node>
	<node id="-28523" lat="59.9186805576" lon="11.3479805587">
		<tag k="name" v="Spondalsmyra" />
		<tag k="natural" v="wetland" />
		<tag k="ssr:stedsnr" v="187576" />
	</node>
	<node id="-30568" lat="59.727930558" lon="11.541330551">
		<tag k="alt_name" v="Langmyr" />
		<tag k="name" v="Vestre Langmyr" />
		<tag k="natural" v="wetland" />
		<tag k="ssr:stedsnr" v="792617" />
	</node>
	<node id="-30558" lat="59.8525583327" lon="11.4580861169">
		<tag k="name" v="Sleppmyra" />
		<tag k="natural" v="wetland" />
		<tag k="ssr:stedsnr" v="787590" />
	</node>
	<node id="-30556" lat="59.8128805562" lon="11.7966861083">
		<tag k="name" v="Lamungmyr" />
		<tag k="natural" v="wetland" />
		<tag k="ssr:stedsnr" v="787583" />
	</node>
	<node id="-30553" lat="59.8736638881" lon="11.8196999911">
		<tag k="name" v="Lessemyr" />
		<tag k="natural" v="wetland" />
		<tag k="ssr:stedsnr" v="787523" />
	</node>
	<node id="-30552" lat="59.9017250045" lon="11.4266861036">
		<tag k="name" v="Stormåsan" />
		<tag k="natural" v="wetland" />
		<tag k="ssr:stedsnr" v="787509" />
	</node>
	<node id="-30551" lat="59.8976527801" lon="11.4277833412">
		<tag k="name" v="Vestre Saugmyr" />
		<tag k="natural" v="wetland" />
		<tag k="ssr:stedsnr" v="787506" />
	</node>
	<node id="-30548" lat="59.854202782" lon="11.7705972261">
		<tag k="name" v="Gammelsætermåsan" />
		<tag k="natural" v="wetland" />
		<tag k="ssr:stedsnr" v="787403" />
	</node>
	<node id="-28498" lat="59.8557638846" lon="11.5035750027">
		<tag k="name" v="Jøssmyra" />
		<tag k="natural" v="wetland" />
		<tag k="ssr:stedsnr" v="187163" />
	</node>
	<node id="-30544" lat="59.9341638907" lon="11.7514694373">
		<tag k="name" v="Kinnemyra" />
		<tag k="natural" v="wetland" />
		<tag k="ssr:stedsnr" v="787381" />
	</node>
	<node id="-30537" lat="59.8682138877" lon="11.7305083287">
		<tag k="name" v="Skremtjennmåsan" />
		<tag k="natural" v="wetland" />
		<tag k="ssr:stedsnr" v="787213" />
	</node>
	<node id="-28487" lat="59.9599888869" lon="11.7574388868">
		<tag k="alt_name" v="Linnemyra" />
		<tag k="name" v="Lindemyra" />
		<tag k="natural" v="wetland" />
		<tag k="ssr:stedsnr" v="187103" />
	</node>
	<node id="-30529" lat="59.7965722238" lon="11.814291669">
		<tag k="name" v="Konstansemyra" />
		<tag k="natural" v="wetland" />
		<tag k="ssr:stedsnr" v="786727" />
	</node>
	<node id="-30528" lat="59.7369527778" lon="11.6588888927">
		<tag k="name" v="Vamåsan" />
		<tag k="natural" v="wetland" />
		<tag k="ssr:stedsnr" v="786613" />
	</node>
	<node id="-30527" lat="59.7384305538" lon="11.545886108">
		<tag k="name" v="Nordre Skovreimyr" />
		<tag k="natural" v="wetland" />
		<tag k="ssr:stedsnr" v="786596" />
	</node>
	<node id="-30523" lat="59.7470999965" lon="11.6795805546">
		<tag k="name" v="Viermyrene" />
		<tag k="natural" v="wetland" />
		<tag k="ssr:stedsnr" v="786471" />
	</node>
	<node id="-28473" lat="59.776244447" lon="11.3907333277">
		<tag k="name" v="Fuglemåsan" />
		<tag k="natural" v="wetland" />
		<tag k="ssr:stedsnr" v="186846" />
	</node>
	<node id="-30519" lat="59.6903138877" lon="11.5801916732">
		<tag k="name" v="Kråketjennmåsan" />
		<tag k="natural" v="wetland" />
		<tag k="ssr:stedsnr" v="786375" />
	</node>
	<node id="-30512" lat="59.7726333338" lon="11.6009055476">
		<tag k="name" v="Geitsteinen" />
		<tag k="natural" v="stone" />
		<tag k="ssr:stedsnr" v="785949" />
	</node>
	<node id="-27272" lat="59.9654305559" lon="11.5999583275">
		<tag k="name" v="Skytterstumåsan" />
		<tag k="natural" v="wetland" />
		<tag k="ssr:stedsnr" v="362112" />
	</node>
	<node id="-28461" lat="59.9408833302" lon="11.3763555508">
		<tag k="name" v="Vesle Jarsmåsan" />
		<tag k="natural" v="wetland" />
		<tag k="ssr:stedsnr" v="186589" />
	</node>
	<node id="-28454" lat="59.7539500017" lon="11.5511249921">
		<tag k="alt_name" v="Høymyrane" />
		<tag k="name" v="Høymyrene" />
		<tag k="natural" v="wetland" />
		<tag k="ssr:stedsnr" v="186400" />
	</node>
	<node id="-30500" lat="59.8094083291" lon="11.7399972283">
		<tag k="name" v="Buesætermåsan" />
		<tag k="natural" v="wetland" />
		<tag k="ssr:stedsnr" v="785416" />
	</node>
	<node id="-30495" lat="59.8947194439" lon="11.447433332">
		<tag k="name" v="Tranbergmyrene" />
		<tag k="natural" v="wetland" />
		<tag k="ssr:stedsnr" v="785336" />
	</node>
	<node id="-28444" lat="59.9020777811" lon="11.7012194445">
		<tag k="name" v="Korsmåsan" />
		<tag k="natural" v="wetland" />
		<tag k="ssr:stedsnr" v="186223" />
	</node>
	<node id="-30488" lat="59.8731472179" lon="11.5330805606">
		<tag k="name" v="Gullringmyra" />
		<tag k="natural" v="wetland" />
		<tag k="ssr:stedsnr" v="784889" />
	</node>
	<node id="-28437" lat="59.8266861087" lon="11.592022228">
		<tag k="fixme" v="multiple name tags, choose one and add the other to alt_name" />
		<tag k="name" v="Ormemåsan;Åremåsane" />
		<tag k="natural" v="wetland" />
		<tag k="ssr:stedsnr" v="186311" />
	</node>
	<node id="-30482" lat="59.9370111138" lon="11.6550583276">
		<tag k="name" v="Sterkerudsteinen" />
		<tag k="natural" v="stone" />
		<tag k="ssr:stedsnr" v="784271" />
	</node>
	<node id="-30479" lat="59.8244527745" lon="11.3396861175">
		<tag k="name" v="Rundmyr" />
		<tag k="natural" v="wetland" />
		<tag k="ssr:stedsnr" v="783737" />
	</node>
	<node id="-30474" lat="59.7973777808" lon="11.784905547">
		<tag k="name" v="Sjurtjenndråga" />
		<tag k="natural" v="wetland" />
		<tag k="ssr:stedsnr" v="783405" />
	</node>
	<node id="-30473" lat="59.7975333307" lon="11.7966500017">
		<tag k="name" v="Høymyrene" />
		<tag k="natural" v="wetland" />
		<tag k="ssr:stedsnr" v="783404" />
	</node>
	<node id="-30472" lat="60.0048027779" lon="11.7205583305">
		<tag k="name" v="Grevlingmyra" />
		<tag k="natural" v="wetland" />
		<tag k="ssr:stedsnr" v="783172" />
	</node>
	<node id="-30471" lat="59.821822226" lon="11.5097166595">
		<tag k="name" v="Hestmyrkroken" />
		<tag k="place" v="locality" />
		<tag k="ssr:stedsnr" v="783138" />
	</node>
	<node id="-30470" lat="59.8109472192" lon="11.5538444469">
		<tag k="name" v="Røssmyra" />
		<tag k="natural" v="wetland" />
		<tag k="ssr:stedsnr" v="783120" />
	</node>
	<node id="-30469" lat="60.0016388877" lon="11.6717555618">
		<tag k="name" v="Langbrumyr" />
		<tag k="natural" v="wetland" />
		<tag k="ssr:stedsnr" v="783049" />
	</node>
	<node id="-30468" lat="59.8795583353" lon="11.7663999932">
		<tag k="name" v="Hvervsætermåsan" />
		<tag k="natural" v="wetland" />
		<tag k="ssr:stedsnr" v="783033" />
	</node>
	<node id="-28417" lat="59.7937555594" lon="11.3478194386">
		<tag k="name" v="Posttjennmyrene" />
		<tag k="natural" v="wetland" />
		<tag k="ssr:stedsnr" v="180870" />
	</node>
	<node id="-28416" lat="59.8018305552" lon="11.3352833382">
		<tag k="name" v="Bjørnebråtemåsan" />
		<tag k="natural" v="wetland" />
		<tag k="ssr:stedsnr" v="180829" />
	</node>
	<node id="-28414" lat="59.8001861071" lon="11.812955556">
		<tag k="name" v="Skoklemyra" />
		<tag k="natural" v="wetland" />
		<tag k="ssr:stedsnr" v="180703" />
	</node>
	<node id="-30461" lat="59.7776500039" lon="11.5475749931">
		<tag k="name" v="Dammerudmyrane" />
		<tag k="natural" v="wetland" />
		<tag k="ssr:stedsnr" v="793467" />
	</node>
	<node id="-30460" lat="59.7724777785" lon="11.5987361044">
		<tag k="alt_name" v="Geitsteinsmåsan" />
		<tag k="name" v="Geitesteinmåsan" />
		<tag k="natural" v="wetland" />
		<tag k="ssr:stedsnr" v="793464" />
	</node>
	<node id="-28410" lat="59.6449388851" lon="11.5227916658">
		<tag k="name" v="Grindmyrene" />
		<tag k="natural" v="wetland" />
		<tag k="ssr:stedsnr" v="180685" />
	</node>
	<node id="-28408" lat="59.6725750043" lon="11.5982416748">
		<tag k="name" v="Østre Fuglemåsan" />
		<tag k="natural" v="wetland" />
		<tag k="ssr:stedsnr" v="180658" />
	</node>
	<node id="-28405" lat="59.9249249997" lon="11.5796583383">
		<tag k="name" v="Fallemyra" />
		<tag k="natural" v="wetland" />
		<tag k="ssr:stedsnr" v="180610" />
	</node>
	<node id="-30450" lat="59.9998416702" lon="11.7962305577">
		<tag k="name" v="Hyttebråten" />
		<tag k="place" v="locality" />
		<tag k="ssr:stedsnr" v="770920" />
	</node>
	<node id="-30446" lat="59.9055666632" lon="11.6657305467">
		<tag k="name" v="Ormtjennmåsan" />
		<tag k="natural" v="wetland" />
		<tag k="ssr:stedsnr" v="770781" />
	</node>
	<node id="-30443" lat="59.8297722259" lon="11.5977416715">
		<tag k="name" v="Orremåsan" />
		<tag k="natural" v="wetland" />
		<tag k="ssr:stedsnr" v="770754" />
	</node>
	<node id="-30441" lat="59.9441833337" lon="11.496794445">
		<tag k="name" v="Skjelholen" />
		<tag k="place" v="locality" />
		<tag k="ssr:stedsnr" v="770487" />
	</node>
	<node id="-28389" lat="59.9438194404" lon="11.7807444399">
		<tag k="name" v="Eriksmyra" />
		<tag k="natural" v="wetland" />
		<tag k="ssr:stedsnr" v="180381" />
	</node>
	<node id="-28382" lat="59.958577781" lon="11.6606555642">
		<tag k="name" v="Dammyra" />
		<tag k="natural" v="wetland" />
		<tag k="ssr:stedsnr" v="180148" />
	</node>
	<node id="-28379" lat="59.9674805588" lon="11.5852444509">
		<tag k="name" v="Stutauemyr" />
		<tag k="natural" v="wetland" />
		<tag k="ssr:stedsnr" v="180113" />
	</node>
	<node id="-28378" lat="59.8717861091" lon="11.6918638828">
		<tag k="name" v="Blåpølmyr" />
		<tag k="natural" v="wetland" />
		<tag k="ssr:stedsnr" v="180048" />
	</node>
	<node id="-28373" lat="59.920466669" lon="11.6824027768">
		<tag k="name" v="Lisætermyra" />
		<tag k="natural" v="wetland" />
		<tag k="ssr:stedsnr" v="179746" />
	</node>
	<node id="-28372" lat="59.9269611078" lon="11.6842527694">
		<tag k="name" v="Milesteinsmyra" />
		<tag k="natural" v="wetland" />
		<tag k="ssr:stedsnr" v="179742" />
	</node>
	<node id="-28371" lat="59.9158472188" lon="11.6652472166">
		<tag k="name" v="Nysætermåsan" />
		<tag k="natural" v="wetland" />
		<tag k="ssr:stedsnr" v="179626" />
	</node>
	<node id="-30418" lat="59.8374083331" lon="11.3380083261">
		<tag k="name" v="Korsmåsan" />
		<tag k="natural" v="wetland" />
		<tag k="ssr:stedsnr" v="768658" />
	</node>
	<node id="-26915" lat="59.8784055558" lon="11.4128166605">
		<tag k="name" v="Hestemyrene" />
		<tag k="natural" v="wetland" />
		<tag k="ssr:stedsnr" v="300264" />
	</node>
	<node id="-28365" lat="59.6819472263" lon="11.5885749963">
		<tag k="name" v="Kråkedalsmyrene" />
		<tag k="natural" v="wetland" />
		<tag k="ssr:stedsnr" v="179359" />
	</node>
	<node id="-28364" lat="59.685513891" lon="11.5894361087">
		<tag k="name" v="Orremyrskiftet" />
		<tag k="place" v="locality" />
		<tag k="ssr:stedsnr" v="179358" />
	</node>
	<node id="-28363" lat="59.6903000026" lon="11.6379138947">
		<tag k="name" v="Langrasta" />
		<tag k="natural" v="wetland" />
		<tag k="ssr:stedsnr" v="179348" />
	</node>
	<node id="-30410" lat="59.9416805596" lon="11.6703833249">
		<tag k="name" v="Tjennshaugmåsan" />
		<tag k="natural" v="wetland" />
		<tag k="ssr:stedsnr" v="768101" />
	</node>
	<node id="-28361" lat="59.677663886" lon="11.5383444495">
		<tag k="name" v="Vikehagan" />
		<tag k="place" v="locality" />
		<tag k="ssr:stedsnr" v="179324" />
	</node>
	<node id="-30405" lat="59.9716777759" lon="11.429636104">
		<tag k="name" v="Lauvåsmåsan" />
		<tag k="natural" v="wetland" />
		<tag k="ssr:stedsnr" v="768010" />
	</node>
	<node id="-30403" lat="59.8070166678" lon="11.8760805559">
		<tag k="name" v="Olafsmyr" />
		<tag k="natural" v="wetland" />
		<tag k="ssr:stedsnr" v="767906" />
	</node>
	<node id="-28351" lat="59.8769916635" lon="11.5012249928">
		<tag k="name" v="Væringsmyra" />
		<tag k="natural" v="wetland" />
		<tag k="ssr:stedsnr" v="178367" />
	</node>
	<node id="-30398" lat="60.0040805534" lon="11.5149805597">
		<tag k="name" v="Syltemyra" />
		<tag k="natural" v="wetland" />
		<tag k="ssr:stedsnr" v="767691" />
	</node>
	<node id="-28349" lat="59.9939305595" lon="11.6043472203">
		<tag k="name" v="Sjuvintertjennmåsan" />
		<tag k="natural" v="wetland" />
		<tag k="ssr:stedsnr" v="178149" />
	</node>
	<node id="-28347" lat="59.8844194418" lon="11.5098444362">
		<tag k="name" v="Vesle Oremåsan" />
		<tag k="natural" v="wetland" />
		<tag k="ssr:stedsnr" v="177885" />
	</node>
	<node id="-30393" lat="59.998738893" lon="11.6009944463">
		<tag k="name" v="Høymyra" />
		<tag k="natural" v="wetland" />
		<tag k="ssr:stedsnr" v="767657" />
	</node>
	<node id="-30392" lat="59.9841805596" lon="11.6847277842">
		<tag k="name" v="Basshøla" />
		<tag k="natural" v="wetland" />
		<tag k="ssr:stedsnr" v="767601" />
	</node>
	<node id="-30391" lat="59.8219777809" lon="11.7985027852">
		<tag k="name" v="Styggemyr" />
		<tag k="natural" v="wetland" />
		<tag k="ssr:stedsnr" v="767598" />
	</node>
	<node id="-30390" lat="59.9850194435" lon="11.5583749979">
		<tag k="name" v="Grisemyra" />
		<tag k="natural" v="wetland" />
		<tag k="ssr:stedsnr" v="767597" />
	</node>
	<node id="-30389" lat="59.8226750016" lon="11.8510388863">
		<tag k="name" v="Steinsmåsan" />
		<tag k="natural" v="wetland" />
		<tag k="ssr:stedsnr" v="767594" />
	</node>
	<node id="-28340" lat="59.8736638874" lon="11.7175694489">
		<tag k="name" v="Svarttjennbanken" />
		<tag k="place" v="locality" />
		<tag k="ssr:stedsnr" v="177595" />
	</node>
	<node id="-28339" lat="59.7861888882" lon="11.8297444483">
		<tag k="name" v="Krokmyra" />
		<tag k="natural" v="wetland" />
		<tag k="ssr:stedsnr" v="177442" />
	</node>
	<node id="-26909" lat="59.8271333343" lon="11.6301361143">
		<tag k="name" v="Røysmyrene" />
		<tag k="natural" v="wetland" />
		<tag k="ssr:stedsnr" v="299439" />
	</node>
	<node id="-28331" lat="59.880238885" lon="11.802544449">
		<tag k="name" v="Gardsmyr" />
		<tag k="natural" v="wetland" />
		<tag k="ssr:stedsnr" v="177009" />
	</node>
	<node id="-28330" lat="59.8695444429" lon="11.5031111075">
		<tag k="name" v="Årnesmåsan" />
		<tag k="natural" v="wetland" />
		<tag k="ssr:stedsnr" v="176865" />
	</node>
	<node id="-28324" lat="60.0005472192" lon="11.6254583344">
		<tag k="name" v="Kjøltjennmyrene" />
		<tag k="natural" v="wetland" />
		<tag k="ssr:stedsnr" v="176070" />
	</node>
	<node id="-30370" lat="59.8146777759" lon="11.8514250024">
		<tag k="alt_name" v="Rekket, store;Store Rekke;Langerække" />
		<tag k="name" v="Store Rekket" />
		<tag k="natural" v="wetland" />
		<tag k="ssr:stedsnr" v="734151" />
	</node>
	<node id="-28315" lat="59.8143277742" lon="11.8658999991">
		<tag k="name" v="Rasmusmyr" />
		<tag k="natural" v="wetland" />
		<tag k="ssr:stedsnr" v="163845" />
	</node>
	<node id="-28308" lat="59.9056583316" lon="11.5144166659">
		<tag k="name" v="Mærraholet" />
		<tag k="natural" v="wetland" />
		<tag k="ssr:stedsnr" v="163390" />
	</node>
	<node id="-27246" lat="59.8379555529" lon="11.4361777698">
		<tag k="name" v="Orremåsan" />
		<tag k="natural" v="wetland" />
		<tag k="ssr:stedsnr" v="360639" />
	</node>
	<node id="-30354" lat="59.9648611091" lon="11.4119722297">
		<tag k="name" v="Lindåsmåsane" />
		<tag k="natural" v="wetland" />
		<tag k="ssr:stedsnr" v="733463" />
	</node>
	<node id="-28305" lat="59.8976805585" lon="11.4745805532">
		<tag k="name" v="Posttjennmåsan" />
		<tag k="natural" v="wetland" />
		<tag k="ssr:stedsnr" v="162436" />
	</node>
	<node id="-30351" lat="59.7908277778" lon="11.5957972189">
		<tag k="name" v="Fuglemåsan" />
		<tag k="natural" v="wetland" />
		<tag k="ssr:stedsnr" v="733433" />
	</node>
	<node id="-28295" lat="60.0011499972" lon="11.6519472132">
		<tag k="name" v="Sinkerudmyra" />
		<tag k="natural" v="wetland" />
		<tag k="ssr:stedsnr" v="161708" />
	</node>
	<node id="-28294" lat="59.9917472213" lon="11.6409722183">
		<tag k="name" v="Høltjennmyrene" />
		<tag k="natural" v="wetland" />
		<tag k="ssr:stedsnr" v="161693" />
	</node>
	<node id="-30341" lat="59.7776249985" lon="11.5914222204">
		<tag k="alt_name" v="Sandemmåsane" />
		<tag k="name" v="Sandummåsane" />
		<tag k="natural" v="wetland" />
		<tag k="ssr:stedsnr" v="733406" />
	</node>
	<node id="-28283" lat="59.937774997" lon="11.683444442">
		<tag k="name" v="Helgemåsan" />
		<tag k="natural" v="wetland" />
		<tag k="ssr:stedsnr" v="161114" />
	</node>
	<node id="-28280" lat="59.9552472205" lon="11.6574138924">
		<tag k="name" v="Haresteinen" />
		<tag k="natural" v="stone" />
		<tag k="ssr:stedsnr" v="161036" />
	</node>
	<node id="-28277" lat="59.7114861152" lon="11.6795222233">
		<tag k="name" v="Vestre Skarabolsætermåsan" />
		<tag k="natural" v="wetland" />
		<tag k="ssr:stedsnr" v="160880" />
	</node>
	<node id="-27240" lat="59.9534055525" lon="11.4345499943">
		<tag k="name" v="Hestehagen" />
		<tag k="place" v="locality" />
		<tag k="ssr:stedsnr" v="360398" />
	</node>
	<node id="-27239" lat="59.8846388908" lon="11.4944000032">
		<tag k="name" v="Burholtangen" />
		<tag k="place" v="locality" />
		<tag k="ssr:stedsnr" v="360351" />
	</node>
	<node id="-28945" lat="59.702477781" lon="11.6287388926">
		<tag k="name" v="Gravmåsan" />
		<tag k="natural" v="wetland" />
		<tag k="ssr:stedsnr" v="429291" />
	</node>
	<node id="-28255" lat="59.7886222223" lon="11.4271611155">
		<tag k="name" v="Bergmåsan" />
		<tag k="natural" v="wetland" />
		<tag k="ssr:stedsnr" v="126871" />
	</node>
	<node id="-30299" lat="59.6807722232" lon="11.414200002">
		<tag k="name" v="Strandmåsan" />
		<tag k="natural" v="wetland" />
		<tag k="ssr:stedsnr" v="732804" />
	</node>
	<node id="-30426" lat="59.9957000042" lon="11.4945444369">
		<tag k="name" v="Sætermyrene" />
		<tag k="natural" v="wetland" />
		<tag k="ssr:stedsnr" v="769335" />
	</node>
	<node id="-28237" lat="59.7732222224" lon="11.668686119">
		<tag k="name" v="Kvernmåsan" />
		<tag k="natural" v="wetland" />
		<tag k="ssr:stedsnr" v="126429" />
	</node>
	<node id="-30282" lat="59.683780552" lon="11.4943527784">
		<tag k="alt_name" v="Langmyra" />
		<tag k="name" v="Langmyr" />
		<tag k="natural" v="wetland" />
		<tag k="ssr:stedsnr" v="732373" />
	</node>
	<node id="-30280" lat="59.6791333317" lon="11.5570888837">
		<tag k="landuse" v="quarry" />
		<tag k="name" v="Stormoen" />
		<tag k="ssr:stedsnr" v="732355" />
	</node>
	<node id="-26892" lat="60.0018083335" lon="11.7366916666">
		<tag k="name" v="Ternebråtamyra" />
		<tag k="natural" v="wetland" />
		<tag k="ssr:stedsnr" v="298183" />
	</node>
	<node id="-28229" lat="59.80226944" lon="11.8092444462">
		<tag k="name" v="Abbortjennmyra" />
		<tag k="natural" v="wetland" />
		<tag k="ssr:stedsnr" v="126237" />
	</node>
	<node id="-28222" lat="59.7840249999" lon="11.5567500052">
		<tag k="alt_name" v="Sørlimyrene" />
		<tag k="name" v="Sørlimyrane" />
		<tag k="natural" v="wetland" />
		<tag k="ssr:stedsnr" v="126457" />
	</node>
	<node id="-27231" lat="59.8926916662" lon="11.5051749998">
		<tag k="name" v="Dålimyrene" />
		<tag k="natural" v="wetland" />
		<tag k="ssr:stedsnr" v="359881" />
	</node>
	<node id="-28216" lat="59.8139222214" lon="11.6415805499">
		<tag k="name" v="Slorene" />
		<tag k="natural" v="wetland" />
		<tag k="ssr:stedsnr" v="126256" />
	</node>
	<node id="-30263" lat="59.8978944455" lon="11.4303416614">
		<tag k="name" v="Østre Saugmyr" />
		<tag k="natural" v="wetland" />
		<tag k="ssr:stedsnr" v="727490" />
	</node>
	<node id="-28212" lat="59.9625388923" lon="11.6432888963">
		<tag k="alt_name" v="Haukelundmåsan" />
		<tag k="name" v="Hauklundmåsan" />
		<tag k="natural" v="wetland" />
		<tag k="ssr:stedsnr" v="126098" />
	</node>
	<node id="-29278" lat="59.7433999985" lon="11.4543805545">
		<tag k="name" v="Ankerløkka" />
		<tag k="place" v="locality" />
		<tag k="ssr:stedsnr" v="508168" />
	</node>
	<node id="-30253" lat="60.0069388891" lon="11.7527444503">
		<tag k="name" v="Svartkollmyra" />
		<tag k="natural" v="wetland" />
		<tag k="ssr:stedsnr" v="726933" />
	</node>
	<node id="-30251" lat="59.8164999973" lon="11.8269611171">
		<tag k="name" v="Lessemyr" />
		<tag k="natural" v="wetland" />
		<tag k="ssr:stedsnr" v="726880" />
	</node>
	<node id="-27911" lat="59.8806305578" lon="11.5167749965">
		<tag k="alt_name" v="Stølbumyra" />
		<tag k="fixme" v="multiple name tags, choose one and add the other to alt_name" />
		<tag k="name" v="Stolpemyra;Stølbumyra" />
		<tag k="natural" v="wetland" />
		<tag k="ssr:stedsnr" v="65171" />
	</node>
	<node id="-28200" lat="59.9556111079" lon="11.694883335">
		<tag k="name" v="Midtfjellmåsan" />
		<tag k="natural" v="wetland" />
		<tag k="ssr:stedsnr" v="126116" />
	</node>
	<node id="-30247" lat="59.6544916633" lon="11.5748833346">
		<tag k="name" v="Langbråtemyr" />
		<tag k="natural" v="wetland" />
		<tag k="ssr:stedsnr" v="726689" />
	</node>
	<node id="-30246" lat="59.6655388858" lon="11.5737055516">
		<tag k="name" v="Engemyr" />
		<tag k="natural" v="wetland" />
		<tag k="ssr:stedsnr" v="726682" />
	</node>
	<node id="-27227" lat="59.8908277817" lon="11.5683944492">
		<tag k="name" v="Lemmeholen" />
		<tag k="natural" v="wetland" />
		<tag k="ssr:stedsnr" v="359618" />
	</node>
	<node id="-30240" lat="59.8541555563" lon="11.4649527777">
		<tag k="name" v="Øgardsmåsan" />
		<tag k="natural" v="wetland" />
		<tag k="ssr:stedsnr" v="726580" />
	</node>
	<node id="-30239" lat="59.8022944446" lon="11.9093249977">
		<tag k="name" v="Bøslorene" />
		<tag k="natural" v="wetland" />
		<tag k="ssr:stedsnr" v="726573" />
	</node>
	<node id="-30234" lat="59.6706138914" lon="11.5645222214">
		<tag k="name" v="Sletthellene" />
		<tag k="place" v="locality" />
		<tag k="ssr:stedsnr" v="726450" />
	</node>
	<node id="-28184" lat="59.8088027734" lon="11.3035277762">
		<tag k="alt_name" v="Langemyr" />
		<tag k="name" v="Langmyr" />
		<tag k="natural" v="wetland" />
		<tag k="ssr:stedsnr" v="125807" />
	</node>
	<node id="-30227" lat="59.8665361094" lon="11.8182222201">
		<tag k="name" v="Søndre Skjærtjennmyr" />
		<tag k="natural" v="wetland" />
		<tag k="ssr:stedsnr" v="726184" />
	</node>
	<node id="-30223" lat="59.8848888879" lon="11.3650250033">
		<tag k="name" v="Tverrtjennslorene" />
		<tag k="natural" v="wetland" />
		<tag k="ssr:stedsnr" v="726038" />
	</node>
	<node id="-30217" lat="59.9364527807" lon="11.6568944449">
		<tag k="name" v="Langmyra" />
		<tag k="natural" v="wetland" />
		<tag k="ssr:stedsnr" v="725697" />
	</node>
	<node id="-30216" lat="59.8762944403" lon="11.4628416627">
		<tag k="name" v="Hestemåsan" />
		<tag k="natural" v="wetland" />
		<tag k="ssr:stedsnr" v="725356" />
	</node>
	<node id="-30214" lat="59.894630552" lon="11.4609805603">
		<tag k="name" v="Stordalsmåsan" />
		<tag k="natural" v="wetland" />
		<tag k="ssr:stedsnr" v="725336" />
	</node>
	<node id="-30207" lat="59.9549416705" lon="11.394216666">
		<tag k="name" v="Kambuholta" />
		<tag k="place" v="locality" />
		<tag k="ssr:stedsnr" v="725259" />
	</node>
	<node id="-30196" lat="59.847450004" lon="11.406449999">
		<tag k="name" v="Sætermyra" />
		<tag k="natural" v="wetland" />
		<tag k="ssr:stedsnr" v="724579" />
	</node>
	<node id="-28145" lat="59.9748944422" lon="11.6400250033">
		<tag k="name" v="Skolemyra" />
		<tag k="natural" v="wetland" />
		<tag k="ssr:stedsnr" v="120175" />
	</node>
	<node id="-28144" lat="59.9657666654" lon="11.6485083253">
		<tag k="name" v="Trettemyra" />
		<tag k="natural" v="wetland" />
		<tag k="ssr:stedsnr" v="120163" />
	</node>
	<node id="-28139" lat="59.9688500023" lon="11.5868555592">
		<tag k="name" v="Vivangmyra" />
		<tag k="natural" v="wetland" />
		<tag k="ssr:stedsnr" v="120110" />
	</node>
	<node id="-30184" lat="59.8004805513" lon="11.8769972221">
		<tag k="name" v="Pipemåsan" />
		<tag k="natural" v="wetland" />
		<tag k="ssr:stedsnr" v="723732" />
	</node>
	<node id="-28135" lat="59.6328972194" lon="11.5359888922">
		<tag k="name" v="Veslemåsan" />
		<tag k="natural" v="wetland" />
		<tag k="ssr:stedsnr" v="119738" />
	</node>
	<node id="-30182" lat="59.8820944455" lon="11.6744111104">
		<tag k="name" v="Hvitlandsmåsan" />
		<tag k="natural" v="wetland" />
		<tag k="ssr:stedsnr" v="723567" />
	</node>
	<node id="-30181" lat="59.7858750018" lon="11.8158305595">
		<tag k="name" v="Stokkemåsan" />
		<tag k="natural" v="wetland" />
		<tag k="ssr:stedsnr" v="723427" />
	</node>
	<node id="-30177" lat="59.8572916631" lon="11.6121916671">
		<tag k="historic" v="shieling" />
		<tag k="name" v="Hyttesætra" />
		<tag k="place" v="locality" />
		<tag k="ssr:stedsnr" v="722943" />
	</node>
	<node id="-28126" lat="59.6061083295" lon="11.4962138944">
		<tag k="name" v="Fuglemåsan" />
		<tag k="natural" v="wetland" />
		<tag k="ssr:stedsnr" v="119565" />
	</node>
	<node id="-30173" lat="59.812630554" lon="11.5586805468">
		<tag k="name" v="Munken" />
		<tag k="natural" v="wetland" />
		<tag k="ssr:stedsnr" v="722152" />
	</node>
	<node id="-28122" lat="59.6711555557" lon="11.5277972232">
		<tag k="name" v="Høylundmåsan" />
		<tag k="natural" v="wetland" />
		<tag k="ssr:stedsnr" v="119444" />
	</node>
	<node id="-30165" lat="59.841472219" lon="11.5511833315">
		<tag k="name" v="Ilebekkmåsan" />
		<tag k="natural" v="wetland" />
		<tag k="ssr:stedsnr" v="709880" />
	</node>
	<node id="-30164" lat="59.8369472226" lon="11.4934000072">
		<tag k="name" v="Jutulen" />
		<tag k="natural" v="wetland" />
		<tag k="ssr:stedsnr" v="709858" />
	</node>
	<node id="-28115" lat="59.8786250038" lon="11.3212805564">
		<tag k="name" v="Tjonsteinen" />
		<tag k="natural" v="stone" />
		<tag k="ssr:stedsnr" v="119059" />
	</node>
	<node id="-30159" lat="59.9112722235" lon="11.6866000012">
		<tag k="name" v="Blekketjennmåsan" />
		<tag k="natural" v="wetland" />
		<tag k="ssr:stedsnr" v="709783" />
	</node>
	<node id="-28109" lat="59.9284777766" lon="11.6635416746">
		<tag k="name" v="Orremåsan" />
		<tag k="natural" v="wetland" />
		<tag k="ssr:stedsnr" v="118737" />
	</node>
	<node id="-30156" lat="59.8425361102" lon="11.5932361147">
		<tag k="name" v="Husmannsmyra" />
		<tag k="natural" v="wetland" />
		<tag k="ssr:stedsnr" v="709764" />
	</node>
	<node id="-28107" lat="59.8451305551" lon="11.3763777771">
		<tag k="name" v="Dammåsan" />
		<tag k="natural" v="wetland" />
		<tag k="ssr:stedsnr" v="118587" />
	</node>
	<node id="-28106" lat="59.8460333316" lon="11.3840472178">
		<tag k="name" v="Svarttjenn" />
		<tag k="natural" v="wetland" />
		<tag k="ssr:stedsnr" v="118586" />
	</node>
	<node id="-30152" lat="59.9475333328" lon="11.5734111055">
		<tag k="name" v="Trillemåsan" />
		<tag k="natural" v="wetland" />
		<tag k="ssr:stedsnr" v="709445" />
	</node>
	<node id="-28100" lat="59.6918027751" lon="11.6130611127">
		<tag k="name" v="Morassmåsan" />
		<tag k="natural" v="wetland" />
		<tag k="ssr:stedsnr" v="118325" />
	</node>
	<node id="-30146" lat="59.9885611154" lon="11.4920888855">
		<tag k="name" v="Småmyra" />
		<tag k="natural" v="wetland" />
		<tag k="ssr:stedsnr" v="709352" />
	</node>
	<node id="-30145" lat="59.9952500035" lon="11.4774361055">
		<tag k="name" v="Dammyr" />
		<tag k="natural" v="wetland" />
		<tag k="ssr:stedsnr" v="709343" />
	</node>
	<node id="-30144" lat="59.867847219" lon="11.6557388842">
		<tag k="name" v="Langemyr" />
		<tag k="natural" v="wetland" />
		<tag k="ssr:stedsnr" v="709170" />
	</node>
	<node id="-30142" lat="59.9489916644" lon="11.7374750048">
		<tag k="name" v="Gjøgåsmyra" />
		<tag k="natural" v="wetland" />
		<tag k="ssr:stedsnr" v="708925" />
	</node>
	<node id="-30141" lat="59.9518249992" lon="11.7420249974">
		<tag k="name" v="Vållangmyra" />
		<tag k="natural" v="wetland" />
		<tag k="ssr:stedsnr" v="708923" />
	</node>
	<node id="-30139" lat="59.7960333378" lon="11.4935166586">
		<tag k="landuse" v="meadow" />
		<tag k="name" v="Kalvehagan" />
		<tag k="ssr:stedsnr" v="708108" />
	</node>
	<node id="-28611" lat="59.8178805561" lon="11.8772305567">
		<tag k="name" v="Storemyr" />
		<tag k="natural" v="wetland" />
		<tag k="ssr:stedsnr" v="224844" />
	</node>
	<node id="-30136" lat="59.980261115" lon="11.8014611137">
		<tag k="name" v="Haveråtangen" />
		<tag k="place" v="locality" />
		<tag k="ssr:stedsnr" v="707985" />
	</node>
	<node id="-28082" lat="59.818080555" lon="11.3479083303">
		<tag k="name" v="Kassmyrene" />
		<tag k="natural" v="wetland" />
		<tag k="ssr:stedsnr" v="116725" />
	</node>
	<node id="-30129" lat="60.0114916711" lon="11.5385111047">
		<tag k="name" v="Ulvikmåsan" />
		<tag k="natural" v="wetland" />
		<tag k="ssr:stedsnr" v="707804" />
	</node>
	<node id="-30128" lat="59.991325" lon="11.6767166588">
		<tag k="name" v="Presterudmåsan" />
		<tag k="natural" v="wetland" />
		<tag k="ssr:stedsnr" v="707713" />
	</node>
	<node id="-28079" lat="59.8153833334" lon="11.3167194438">
		<tag k="name" v="Høymyra" />
		<tag k="natural" v="wetland" />
		<tag k="ssr:stedsnr" v="116709" />
	</node>
	<node id="-30126" lat="59.984863888" lon="11.6330027823">
		<tag k="name" v="Snortemyra" />
		<tag k="natural" v="wetland" />
		<tag k="ssr:stedsnr" v="707673" />
	</node>
	<node id="-30125" lat="59.8405749962" lon="11.332730562">
		<tag k="name" v="Åmotmåsan" />
		<tag k="natural" v="wetland" />
		<tag k="ssr:stedsnr" v="707646" />
	</node>
	<node id="-30124" lat="59.984402782" lon="11.679922218">
		<tag k="name" v="Haugmyrene" />
		<tag k="natural" v="wetland" />
		<tag k="ssr:stedsnr" v="707635" />
	</node>
	<node id="-29168" lat="59.9653083318" lon="11.6566083371">
		<tag k="name" v="Rømmegrautmyra" />
		<tag k="natural" v="wetland" />
		<tag k="ssr:stedsnr" v="484138" />
	</node>
	<node id="-30112" lat="59.7995972229" lon="11.6560666642">
		<tag k="name" v="Fuglemåsan" />
		<tag k="natural" v="wetland" />
		<tag k="ssr:stedsnr" v="707181" />
	</node>
	<node id="-30111" lat="59.8032777806" lon="11.6481222246">
		<tag k="name" v="Vesle Fossmyr" />
		<tag k="natural" v="wetland" />
		<tag k="ssr:stedsnr" v="707180" />
	</node>
	<node id="-28062" lat="59.9132166676" lon="11.737891671">
		<tag k="name" v="Tatermyra" />
		<tag k="natural" v="wetland" />
		<tag k="ssr:stedsnr" v="103734" />
	</node>
	<node id="-28060" lat="59.8522888931" lon="11.3953527837">
		<tag k="name" v="Vaskemyra" />
		<tag k="natural" v="wetland" />
		<tag k="ssr:stedsnr" v="103676" />
	</node>
	<node id="-30106" lat="59.9757666681" lon="11.5541833265">
		<tag k="name" v="Revtjennmyra" />
		<tag k="natural" v="wetland" />
		<tag k="ssr:stedsnr" v="707002" />
	</node>
	<node id="-28051" lat="59.9040833364" lon="11.4804777803">
		<tag k="name" v="Hellebakkmyra" />
		<tag k="natural" v="wetland" />
		<tag k="ssr:stedsnr" v="102500" />
	</node>
	<node id="-30098" lat="59.724825003" lon="11.4903111156">
		<tag k="name" v="Vesleslora" />
		<tag k="natural" v="wetland" />
		<tag k="ssr:stedsnr" v="706559" />
	</node>
	<node id="-28049" lat="59.8997138918" lon="11.5015749949">
		<tag k="name" v="Sætermyrene" />
		<tag k="natural" v="wetland" />
		<tag k="ssr:stedsnr" v="102491" />
	</node>
	<node id="-28046" lat="59.9718027748" lon="11.7418666709">
		<tag k="name" v="Sjømyra" />
		<tag k="natural" v="wetland" />
		<tag k="ssr:stedsnr" v="102417" />
	</node>
	<node id="-28042" lat="59.9753249996" lon="11.6779694488">
		<tag k="name" v="Brann" />
		<tag k="place" v="locality" />
		<tag k="ssr:stedsnr" v="102356" />
	</node>
	<node id="-28041" lat="59.979097221" lon="11.6513500031">
		<tag k="name" v="Liervangen" />
		<tag k="place" v="locality" />
		<tag k="ssr:stedsnr" v="102349" />
	</node>
	<node id="-28040" lat="59.8511916703" lon="11.7514000023">
		<tag k="name" v="Østre Bjørnbassmåsan" />
		<tag k="natural" v="wetland" />
		<tag k="ssr:stedsnr" v="102310" />
	</node>
	<node id="-28039" lat="59.8345527799" lon="11.7813333326">
		<tag k="name" v="Lembrumåsan" />
		<tag k="natural" v="wetland" />
		<tag k="ssr:stedsnr" v="102296" />
	</node>
	<node id="-28038" lat="59.8359999984" lon="11.7638194363">
		<tag k="name" v="Smådalsmåsan" />
		<tag k="natural" v="wetland" />
		<tag k="ssr:stedsnr" v="102295" />
	</node>
	<node id="-28029" lat="59.9542694418" lon="11.7299027761">
		<tag k="name" v="Vålåsmyrene" />
		<tag k="natural" v="wetland" />
		<tag k="ssr:stedsnr" v="101932" />
	</node>
	<node id="-28028" lat="59.9192000005" lon="11.3369972151">
		<tag k="name" v="Attholdsdammen" />
		<tag k="natural" v="wetland" />
		<tag k="ssr:stedsnr" v="101910" />
	</node>
	<node id="-28023" lat="59.7894388861" lon="11.5874361055">
		<tag k="name" v="Råneholet" />
		<tag k="natural" v="wetland" />
		<tag k="ssr:stedsnr" v="101175" />
	</node>
	<node id="-30068" lat="59.7763027792" lon="11.5723611144">
		<tag k="name" v="Høgmåsan" />
		<tag k="natural" v="wetland" />
		<tag k="ssr:stedsnr" v="672512" />
	</node>
	<node id="-27198" lat="59.911655558" lon="11.6408499925">
		<tag k="name" v="Rundmåsan" />
		<tag k="natural" v="wetland" />
		<tag k="ssr:stedsnr" v="345792" />
	</node>
	<node id="-30066" lat="59.9622277733" lon="11.4597222284">
		<tag k="alt_name" v="Sletnermåsan" />
		<tag k="name" v="Slettnermåsan" />
		<tag k="natural" v="wetland" />
		<tag k="ssr:stedsnr" v="672480" />
	</node>
	<node id="-28013" lat="60.0060527778" lon="11.5293027796">
		<tag k="name" v="Persmyra" />
		<tag k="natural" v="wetland" />
		<tag k="ssr:stedsnr" v="100770" />
	</node>
	<node id="-28009" lat="59.7075000025" lon="11.478605557">
		<tag k="name" v="Torget" />
		<tag k="place" v="locality" />
		<tag k="ssr:stedsnr" v="100740" />
	</node>
	<node id="-28000" lat="59.9998583359" lon="11.5709638899">
		<tag k="name" v="Brennbergsmåsan" />
		<tag k="natural" v="wetland" />
		<tag k="ssr:stedsnr" v="100549" />
	</node>
	<node id="-27995" lat="59.9714249965" lon="11.541266659">
		<tag k="name" v="Bukkemåsan" />
		<tag k="natural" v="wetland" />
		<tag k="ssr:stedsnr" v="100008" />
	</node>
	<node id="-27986" lat="59.6954666681" lon="11.3885833263">
		<tag k="name" v="Saltmyra" />
		<tag k="natural" v="wetland" />
		<tag k="ssr:stedsnr" v="83210" />
	</node>
	<node id="-27982" lat="59.74230556" lon="11.4143333254">
		<tag k="name" v="Høgmåsan" />
		<tag k="natural" v="wetland" />
		<tag k="ssr:stedsnr" v="83152" />
	</node>
	<node id="-30028" lat="59.9062583366" lon="11.5620583283">
		<tag k="name" v="Liermåsan" />
		<tag k="natural" v="wetland" />
		<tag k="ssr:stedsnr" v="672013" />
	</node>
	<node id="-30026" lat="59.917463887" lon="11.7246166691">
		<tag k="name" v="Storfelten" />
		<tag k="natural" v="wetland" />
		<tag k="ssr:stedsnr" v="672009" />
	</node>
	<node id="-27971" lat="59.810683329" lon="11.8363999997">
		<tag k="name" v="Veslerekka" />
		<tag k="natural" v="wetland" />
		<tag k="old_name" v="Vesle-Rekka" />
		<tag k="ssr:stedsnr" v="66266" />
	</node>
	<node id="-30014" lat="59.7433083375" lon="11.5560305516">
		<tag k="name" v="Bønsmåsan" />
		<tag k="natural" v="wetland" />
		<tag k="ssr:stedsnr" v="671680" />
	</node>
	<node id="-30010" lat="59.8475777821" lon="11.7857361149">
		<tag k="name" v="Tuven" />
		<tag k="natural" v="wetland" />
		<tag k="ssr:stedsnr" v="671353" />
	</node>
	<node id="-29987" lat="59.6598833309" lon="11.577497216">
		<tag k="name" v="Kloppmåsan" />
		<tag k="natural" v="wetland" />
		<tag k="ssr:stedsnr" v="665718" />
	</node>
	<node id="-29982" lat="59.7333694462" lon="11.5441333325">
		<tag k="name" v="Froskemyr" />
		<tag k="natural" v="wetland" />
		<tag k="ssr:stedsnr" v="665639" />
	</node>
	<node id="-27930" lat="59.9099583319" lon="11.3348805519">
		<tag k="alt_name" v="Leikmyrene" />
		<tag k="name" v="Leikmyrane" />
		<tag k="natural" v="wetland" />
		<tag k="ssr:stedsnr" v="65606" />
	</node>
	<node id="-29976" lat="59.9017277735" lon="11.7785111116">
		<tag k="name" v="Stormyra" />
		<tag k="natural" v="wetland" />
		<tag k="ssr:stedsnr" v="665491" />
	</node>
	<node id="-29975" lat="59.8979750027" lon="11.7945777847">
		<tag k="name" v="Søndre Bikkjemyra" />
		<tag k="natural" v="wetland" />
		<tag k="ssr:stedsnr" v="665492" />
	</node>
	<node id="-28889" lat="59.9468666646" lon="11.8018999996">
		<tag k="name" v="Øysjøfossmyra" />
		<tag k="natural" v="wetland" />
		<tag k="ssr:stedsnr" v="423418" />
	</node>
	<node id="-29972" lat="59.9139388929" lon="11.7966916718">
		<tag k="name" v="Nordre Bikkjemyra" />
		<tag k="natural" v="wetland" />
		<tag k="ssr:stedsnr" v="665467" />
	</node>
	<node id="-29971" lat="59.9338722261" lon="11.7615416637">
		<tag k="name" v="Mortensmyra" />
		<tag k="natural" v="wetland" />
		<tag k="ssr:stedsnr" v="665455" />
	</node>
	<node id="-27920" lat="59.7792083295" lon="11.551516667">
		<tag k="name" v="Valtronsmyrane" />
		<tag k="natural" v="wetland" />
		<tag k="ssr:stedsnr" v="65431" />
	</node>
	<node id="-29229" lat="59.8576277787" lon="11.4906750038">
		<tag k="name" v="Delingsmyra" />
		<tag k="natural" v="wetland" />
		<tag k="ssr:stedsnr" v="490149" />
	</node>
	<node id="-29962" lat="59.8800750026" lon="11.3488666732">
		<tag k="name" v="Helvetesmyra" />
		<tag k="natural" v="wetland" />
		<tag k="ssr:stedsnr" v="665047" />
	</node>
	<node id="-29959" lat="59.7744277738" lon="11.5936694462">
		<tag k="name" v="Geisteinsmyra" />
		<tag k="natural" v="wetland" />
		<tag k="ssr:stedsnr" v="664961" />
	</node>
	<node id="-29957" lat="59.7745916645" lon="11.5770944395">
		<tag k="name" v="Eikedalsmåsane" />
		<tag k="natural" v="wetland" />
		<tag k="ssr:stedsnr" v="664951" />
	</node>
	<node id="-29954" lat="59.9225861148" lon="11.7439416735">
		<tag k="name" v="Jeinstigtjenn" />
		<tag k="natural" v="wetland" />
		<tag k="ssr:stedsnr" v="664694" />
	</node>
	<node id="-29951" lat="59.6852583328" lon="11.5567583352">
		<tag k="name" v="Langmyr" />
		<tag k="natural" v="wetland" />
		<tag k="ssr:stedsnr" v="664335" />
	</node>
	<node id="-27178" lat="59.9980972265" lon="11.5013444497">
		<tag k="name" v="Høldalsmyra" />
		<tag k="natural" v="wetland" />
		<tag k="ssr:stedsnr" v="344352" />
	</node>
	<node id="-28412" lat="59.7996388857" lon="11.8271916647">
		<tag k="name" v="Graverbekkmåsan" />
		<tag k="natural" v="wetland" />
		<tag k="ssr:stedsnr" v="180702" />
	</node>
	<node id="-27896" lat="59.7076083299" lon="11.6477361064">
		<tag k="alt_name" v="Sauemyra" />
		<tag k="name" v="Sauemyrene" />
		<tag k="natural" v="wetland" />
		<tag k="ssr:stedsnr" v="64341" />
	</node>
	<node id="-27895" lat="59.7133194459" lon="11.6847555555">
		<tag k="name" v="Skarrabolsmåsan" />
		<tag k="natural" v="wetland" />
		<tag k="ssr:stedsnr" v="64338" />
	</node>
	<node id="-29942" lat="59.8783944409" lon="11.7325944427">
		<tag k="name" v="Nordre Høgfagra" />
		<tag k="natural" v="wetland" />
		<tag k="ssr:stedsnr" v="663706" />
	</node>
	<node id="-29941" lat="59.8801972255" lon="11.7210694377">
		<tag k="name" v="Langemyr" />
		<tag k="natural" v="wetland" />
		<tag k="ssr:stedsnr" v="663705" />
	</node>
	<node id="-29935" lat="59.8586361117" lon="11.6068138907">
		<tag k="name" v="Goromyr" />
		<tag k="natural" v="wetland" />
		<tag k="ssr:stedsnr" v="662924" />
	</node>
	<node id="-29934" lat="59.8812388907" lon="11.5234555601">
		<tag k="name" v="Rolighetsmyra" />
		<tag k="natural" v="wetland" />
		<tag k="ssr:stedsnr" v="662892" />
	</node>
	<node id="-27883" lat="59.8945250028" lon="11.8055194406">
		<tag k="name" v="Langsrudhagen" />
		<tag k="place" v="locality" />
		<tag k="ssr:stedsnr" v="59506" />
	</node>
	<node id="-29929" lat="59.7946333299" lon="11.9120805468">
		<tag k="name" v="Dammåsan" />
		<tag k="natural" v="wetland" />
		<tag k="ssr:stedsnr" v="662749" />
	</node>
	<node id="-27878" lat="59.9294333343" lon="11.8138722185">
		<tag k="name" v="Bjønnåsmyra" />
		<tag k="natural" v="wetland" />
		<tag k="ssr:stedsnr" v="59368" />
	</node>
	<node id="-29925" lat="59.8601249957" lon="11.4633222241">
		<tag k="name" v="Breimåsan" />
		<tag k="natural" v="wetland" />
		<tag k="ssr:stedsnr" v="662642" />
	</node>
	<node id="-27876" lat="59.9697138932" lon="11.772108337">
		<tag k="name" v="Lystjennmåsan" />
		<tag k="natural" v="wetland" />
		<tag k="ssr:stedsnr" v="59355" />
	</node>
	<node id="-29923" lat="59.8850305562" lon="11.6272055622">
		<tag k="name" v="Orremåsan" />
		<tag k="natural" v="wetland" />
		<tag k="ssr:stedsnr" v="662599" />
	</node>
	<node id="-27872" lat="59.8589138846" lon="11.7395861078">
		<tag k="name" v="Damtjennmåsan" />
		<tag k="natural" v="wetland" />
		<tag k="ssr:stedsnr" v="59210" />
	</node>
	<node id="-27868" lat="59.9689583331" lon="11.622741671">
		<tag k="name" v="Burholmåsan" />
		<tag k="natural" v="wetland" />
		<tag k="ssr:stedsnr" v="59105" />
	</node>
	<node id="-27514" lat="59.9261583348" lon="11.4568722253">
		<tag k="landuse" v="meadow" />
		<tag k="name" v="Kjørkesanden" />
		<tag k="ssr:stedsnr" v="890950" />
	</node>
	<node id="-29912" lat="60.0106861077" lon="11.5851361109">
		<tag k="name" v="Dingsrudmåsan" />
		<tag k="natural" v="wetland" />
		<tag k="ssr:stedsnr" v="661048" />
	</node>
	<node id="-27862" lat="59.6661666663" lon="11.5209944392">
		<tag k="name" v="Vintermyrene" />
		<tag k="natural" v="wetland" />
		<tag k="ssr:stedsnr" v="58670" />
	</node>
	<node id="-29901" lat="59.9062194463" lon="11.7125388929">
		<tag k="name" v="Elgesteina" />
		<tag k="natural" v="stone" />
		<tag k="ssr:stedsnr" v="648791" />
	</node>
	<node id="-29900" lat="59.9142305511" lon="11.6903444491">
		<tag k="name" v="Den grå merra" />
		<tag k="natural" v="stone" />
		<tag k="ssr:stedsnr" v="648782" />
	</node>
	<node id="-30388" lat="59.8237555547" lon="11.840425006">
		<tag k="name" v="Otermåsan" />
		<tag k="natural" v="wetland" />
		<tag k="ssr:stedsnr" v="767593" />
	</node>
	<node id="-29895" lat="59.8477250031" lon="11.6039444457">
		<tag k="name" v="Geitmyra" />
		<tag k="natural" v="wetland" />
		<tag k="ssr:stedsnr" v="648761" />
	</node>
	<node id="-27169" lat="59.9638777765" lon="11.4170250069">
		<tag k="name" v="Grønlandsmyra" />
		<tag k="natural" v="wetland" />
		<tag k="ssr:stedsnr" v="343870" />
	</node>
	<node id="-28342" lat="59.8824027742" lon="11.596647223">
		<tag k="landuse" v="meadow" />
		<tag k="name" v="Nyenga" />
		<tag k="ssr:stedsnr" v="177621" />
	</node>
	<node id="-29889" lat="59.895091667" lon="11.4932888847">
		<tag k="name" v="Orremyra" />
		<tag k="natural" v="wetland" />
		<tag k="ssr:stedsnr" v="648432" />
	</node>
	<node id="-29885" lat="59.9965805543" lon="11.4860194415">
		<tag k="name" v="Orremåsan" />
		<tag k="natural" v="wetland" />
		<tag k="ssr:stedsnr" v="648360" />
	</node>
	<node id="-29882" lat="59.8943861139" lon="11.5871416655">
		<tag k="name" v="Kjellehagen" />
		<tag k="place" v="locality" />
		<tag k="ssr:stedsnr" v="648140" />
	</node>
	<node id="-27832" lat="59.8866250024" lon="11.721702784">
		<tag k="name" v="Sneisemyrene" />
		<tag k="natural" v="wetland" />
		<tag k="ssr:stedsnr" v="57648" />
	</node>
	<node id="-29877" lat="59.9988277805" lon="11.4735444372">
		<tag k="name" v="Spitmyra" />
		<tag k="natural" v="wetland" />
		<tag k="ssr:stedsnr" v="647360" />
	</node>
	<node id="-29874" lat="59.9777305559" lon="11.7557666649">
		<tag k="name" v="Dalenga" />
		<tag k="place" v="locality" />
		<tag k="ssr:stedsnr" v="646987" />
	</node>
	<node id="-27819" lat="59.934488886" lon="11.7102111128">
		<tag k="name" v="Hestebrumyr" />
		<tag k="natural" v="wetland" />
		<tag k="ssr:stedsnr" v="57208" />
	</node>
	<node id="-27818" lat="59.9038083292" lon="11.3448222243">
		<tag k="name" v="Kumåsan" />
		<tag k="natural" v="wetland" />
		<tag k="ssr:stedsnr" v="57200" />
	</node>
	<node id="-29865" lat="59.9568666626" lon="11.7442166692">
		<tag k="name" v="Viermyra" />
		<tag k="natural" v="wetland" />
		<tag k="ssr:stedsnr" v="646906" />
	</node>
	<node id="-29863" lat="60.0135638908" lon="11.524638888">
		<tag k="name" v="Knattemyra" />
		<tag k="natural" v="wetland" />
		<tag k="ssr:stedsnr" v="646783" />
	</node>
	<node id="-29861" lat="59.9870638909" lon="11.6393277868">
		<tag k="name" v="Øvre Snortemyr" />
		<tag k="natural" v="wetland" />
		<tag k="ssr:stedsnr" v="646709" />
	</node>
	<node id="-29860" lat="59.980038887" lon="11.7137388923">
		<tag k="name" v="Bikkjemyra" />
		<tag k="natural" v="wetland" />
		<tag k="ssr:stedsnr" v="646710" />
	</node>
	<node id="-27811" lat="59.9438111145" lon="11.6201472224">
		<tag k="name" v="Bjønndalsmyra" />
		<tag k="natural" v="wetland" />
		<tag k="ssr:stedsnr" v="56373" />
	</node>
	<node id="-29857" lat="59.9364138881" lon="11.512772229">
		<tag k="name" v="Østbergermyra" />
		<tag k="natural" v="wetland" />
		<tag k="ssr:stedsnr" v="646623" />
	</node>
	<node id="-27800" lat="59.8103805584" lon="11.2950611059">
		<tag k="name" v="Kleppmyr" />
		<tag k="natural" v="wetland" />
		<tag k="ssr:stedsnr" v="55676" />
	</node>
	<node id="-27798" lat="59.7979138864" lon="11.8608722249">
		<tag k="name" v="Storenga" />
		<tag k="natural" v="wetland" />
		<tag k="ssr:stedsnr" v="55718" />
	</node>
	<node id="-29845" lat="59.7946333321" lon="11.568997231">
		<tag k="name" v="Tjennsjordet" />
		<tag k="place" v="locality" />
		<tag k="ssr:stedsnr" v="646246" />
	</node>
	<node id="-27796" lat="59.8828749968" lon="11.7939361026">
		<tag k="name" v="Langsjølungmyra" />
		<tag k="natural" v="wetland" />
		<tag k="ssr:stedsnr" v="55470" />
	</node>
	<node id="-27791" lat="60.001641664" lon="11.6880805625">
		<tag k="name" v="Gråbeinmyra" />
		<tag k="natural" v="wetland" />
		<tag k="ssr:stedsnr" v="55061" />
	</node>
	<node id="-29837" lat="59.9456861133" lon="11.7166055536">
		<tag k="name" v="Fugleleikmyrene" />
		<tag k="natural" v="wetland" />
		<tag k="ssr:stedsnr" v="646048" />
	</node>
	<node id="-29836" lat="59.9421888932" lon="11.7004916706">
		<tag k="name" v="Fugleleikmyra" />
		<tag k="natural" v="wetland" />
		<tag k="ssr:stedsnr" v="646038" />
	</node>
	<node id="-27785" lat="59.9128027753" lon="11.6687249916">
		<tag k="name" v="Olaslora" />
		<tag k="natural" v="wetland" />
		<tag k="ssr:stedsnr" v="42774" />
	</node>
	<node id="-27784" lat="59.9142000018" lon="11.685208327">
		<tag k="name" v="Gråmerrmåsan" />
		<tag k="natural" v="wetland" />
		<tag k="ssr:stedsnr" v="42772" />
	</node>
	<node id="-27783" lat="59.9012777819" lon="11.6800861095">
		<tag k="name" v="Storrmyra" />
		<tag k="natural" v="wetland" />
		<tag k="ssr:stedsnr" v="42769" />
	</node>
	<node id="-27781" lat="59.8646444461" lon="11.3687694522">
		<tag k="name" v="Almefossmyra" />
		<tag k="natural" v="wetland" />
		<tag k="ssr:stedsnr" v="42695" />
	</node>
	<node id="-27158" lat="59.9923083377" lon="11.5587388918">
		<tag k="name" v="Hokshaugmyra" />
		<tag k="natural" v="wetland" />
		<tag k="ssr:stedsnr" v="343597" />
	</node>
	<node id="-27775" lat="59.8473861151" lon="11.8137083277">
		<tag k="name" v="Eikeheimyrene" />
		<tag k="natural" v="wetland" />
		<tag k="ssr:stedsnr" v="42260" />
	</node>
	<node id="-27157" lat="59.799477777" lon="11.7926583356">
		<tag k="name" v="Kvernhusmåsan" />
		<tag k="natural" v="wetland" />
		<tag k="ssr:stedsnr" v="343407" />
	</node>
	<node id="-27768" lat="59.969916671" lon="11.7239500049">
		<tag k="name" v="Ovliensmyra" />
		<tag k="natural" v="wetland" />
		<tag k="ssr:stedsnr" v="41359" />
	</node>
	<node id="-27767" lat="59.989888888" lon="11.4759249986">
		<tag k="name" v="Stakamyra" />
		<tag k="natural" v="wetland" />
		<tag k="ssr:stedsnr" v="41358" />
	</node>
	<node id="-27766" lat="59.9923833347" lon="11.4965555627">
		<tag k="name" v="Kutjennmåsan" />
		<tag k="natural" v="wetland" />
		<tag k="ssr:stedsnr" v="41353" />
	</node>
	<node id="-27761" lat="59.968400003" lon="11.404524993">
		<tag k="name" v="Storrkilen" />
		<tag k="natural" v="wetland" />
		<tag k="ssr:stedsnr" v="40848" />
	</node>
	<node id="-29804" lat="59.7797833335" lon="11.371033332">
		<tag k="name" v="Mørkmåsane" />
		<tag k="natural" v="wetland" />
		<tag k="ssr:stedsnr" v="611875" />
	</node>
	<node id="-27751" lat="59.8083555587" lon="11.7812555575">
		<tag k="name" v="Bringebærmyr" />
		<tag k="natural" v="wetland" />
		<tag k="ssr:stedsnr" v="40443" />
	</node>
	<node id="-27747" lat="59.7863361123" lon="11.3271249981">
		<tag k="name" v="Hoffmyrene" />
		<tag k="natural" v="wetland" />
		<tag k="ssr:stedsnr" v="40167" />
	</node>
	<node id="-27152" lat="59.8058500043" lon="11.5101749961">
		<tag k="name" v="Surka" />
		<tag k="place" v="locality" />
		<tag k="ssr:stedsnr" v="343210" />
	</node>
	<node id="-29789" lat="59.7959805548" lon="11.677102782">
		<tag k="name" v="Kolstadmåsan" />
		<tag k="natural" v="wetland" />
		<tag k="ssr:stedsnr" v="611494" />
	</node>
	<node id="-29788" lat="59.8000499999" lon="11.6634500038">
		<tag k="name" v="Langemyr" />
		<tag k="natural" v="wetland" />
		<tag k="ssr:stedsnr" v="611492" />
	</node>
	<node id="-27834" lat="59.8852472199" lon="11.7070916682">
		<tag k="name" v="Høgdesætermåsan" />
		<tag k="natural" v="wetland" />
		<tag k="ssr:stedsnr" v="57671" />
	</node>
	<node id="-27737" lat="59.7131527821" lon="11.6585472149">
		<tag k="name" v="Bjørkmyrene" />
		<tag k="natural" v="wetland" />
		<tag k="ssr:stedsnr" v="39862" />
	</node>
	<node id="-27734" lat="59.9893250011" lon="11.6689166611">
		<tag k="name" v="Øvre Slåttemyra" />
		<tag k="natural" v="wetland" />
		<tag k="ssr:stedsnr" v="39645" />
	</node>
	<node id="-27733" lat="60.0039805528" lon="11.5009638801">
		<tag k="name" v="Olamyrholta" />
		<tag k="place" v="locality" />
		<tag k="ssr:stedsnr" v="39639" />
	</node>
	<node id="-27731" lat="59.9925972222" lon="11.5880833353">
		<tag k="name" v="Tjennsmåsan" />
		<tag k="natural" v="wetland" />
		<tag k="ssr:stedsnr" v="39617" />
	</node>
	<node id="-29197" lat="59.7799083288" lon="11.6118611191">
		<tag k="alt_name" v="Gjershaugmåsan" />
		<tag k="name" v="Store Gjershaugmåsan" />
		<tag k="natural" v="wetland" />
		<tag k="ssr:stedsnr" v="490413" />
	</node>
	<node id="-27829" lat="59.8329638927" lon="11.3850416617">
		<tag k="name" v="Fuglemåsan" />
		<tag k="natural" v="wetland" />
		<tag k="ssr:stedsnr" v="57612" />
	</node>
	<node id="-29751" lat="59.8835944483" lon="11.5233111101">
		<tag k="name" v="Bergmyra" />
		<tag k="natural" v="wetland" />
		<tag k="ssr:stedsnr" v="611182" />
	</node>
	<node id="-28851" lat="59.9511888873" lon="11.4114444364">
		<tag k="name" v="Fuglemåsan" />
		<tag k="natural" v="wetland" />
		<tag k="ssr:stedsnr" v="421434" />
	</node>
	<node id="-29738" lat="59.9411055532" lon="11.7646083391">
		<tag k="name" v="Langmyra" />
		<tag k="natural" v="wetland" />
		<tag k="ssr:stedsnr" v="611077" />
	</node>
	<node id="-27143" lat="59.7816305555" lon="11.761350007">
		<tag k="name" v="Vesle Lysermåsan" />
		<tag k="natural" v="wetland" />
		<tag k="ssr:stedsnr" v="343083" />
	</node>
	<node id="-27686" lat="59.8590662111" lon="11.6500962013">
		<tag k="name" v="Settemåsan" />
		<tag k="natural" v="wetland" />
		<tag k="ssr:stedsnr" v="5143" />
	</node>
	<node id="-27685" lat="59.8515555549" lon="11.689461108">
		<tag k="name" v="Fagermomyra" />
		<tag k="natural" v="wetland" />
		<tag k="ssr:stedsnr" v="5141" />
	</node>
	<node id="-29718" lat="60.0072305549" lon="11.7961722139">
		<tag k="name" v="Svartbrenna" />
		<tag k="place" v="locality" />
		<tag k="ssr:stedsnr" v="605910" />
	</node>
	<node id="-29717" lat="59.7952055539" lon="11.3151583404">
		<tag k="name" v="Bjørnemyr" />
		<tag k="natural" v="wetland" />
		<tag k="ssr:stedsnr" v="605839" />
	</node>
	<node id="-29716" lat="59.7930972207" lon="11.3354388809">
		<tag k="name" v="Tuemåsan" />
		<tag k="natural" v="wetland" />
		<tag k="ssr:stedsnr" v="605685" />
	</node>
	<node id="-29715" lat="59.9219749959" lon="11.6063083385">
		<tag k="name" v="Bjønnmyra" />
		<tag k="natural" v="wetland" />
		<tag k="ssr:stedsnr" v="605595" />
	</node>
	<node id="-29711" lat="59.838019445" lon="11.7441694424">
		<tag k="name" v="Skaratjennmåsan" />
		<tag k="natural" v="wetland" />
		<tag k="ssr:stedsnr" v="605227" />
	</node>
	<node id="-27660" lat="59.8174613518" lon="11.3069629356">
		<tag k="name" v="Andersmåsane" />
		<tag k="natural" v="wetland" />
		<tag k="ssr:stedsnr" v="4830" />
	</node>
	<node id="-29705" lat="59.9674222262" lon="11.5817805565">
		<tag k="name" v="Midtmåsan" />
		<tag k="natural" v="wetland" />
		<tag k="ssr:stedsnr" v="605145" />
	</node>
	<node id="-27656" lat="59.892774999" lon="11.3524833253">
		<tag k="alt_name" v="Tjennsmyra" />
		<tag k="name" v="Tjennshaugmyra" />
		<tag k="natural" v="wetland" />
		<tag k="ssr:stedsnr" v="4650" />
	</node>
	<node id="-29702" lat="59.811191668" lon="11.5150166643">
		<tag k="name" v="Fetmåsan" />
		<tag k="natural" v="wetland" />
		<tag k="ssr:stedsnr" v="604934" />
	</node>
	<node id="-29698" lat="59.8155444461" lon="11.7499916658">
		<tag k="name" v="Aurtjennmåsan" />
		<tag k="natural" v="wetland" />
		<tag k="ssr:stedsnr" v="604612" />
	</node>
	<node id="-29693" lat="59.8682000004" lon="11.4232249981">
		<tag k="name" v="Måstadmåsan" />
		<tag k="natural" v="wetland" />
		<tag k="ssr:stedsnr" v="604579" />
	</node>
	<node id="-29688" lat="59.7868472225" lon="11.8853055554">
		<tag k="name" v="Brenna" />
		<tag k="place" v="locality" />
		<tag k="ssr:stedsnr" v="604731" />
	</node>
	<node id="-29687" lat="59.6416583299" lon="11.5293749962">
		<tag k="name" v="Øvre Karlsmyr" />
		<tag k="natural" v="wetland" />
		<tag k="ssr:stedsnr" v="604729" />
	</node>
	<node id="-29685" lat="59.9447944431" lon="11.7650833269">
		<tag k="name" v="Lappemyra" />
		<tag k="natural" v="wetland" />
		<tag k="ssr:stedsnr" v="604377" />
	</node>
	<node id="-29684" lat="59.9467749986" lon="11.7683472286">
		<tag k="name" v="Høymyra" />
		<tag k="natural" v="wetland" />
		<tag k="ssr:stedsnr" v="604374" />
	</node>
	<node id="-29182" lat="59.8939055569" lon="11.8001000012">
		<tag k="name" v="Grønsetmyra" />
		<tag k="natural" v="wetland" />
		<tag k="ssr:stedsnr" v="489282" />
	</node>
	<node id="-29682" lat="59.962763889" lon="11.7577305478">
		<tag k="name" v="Sotmåsan" />
		<tag k="natural" v="wetland" />
		<tag k="ssr:stedsnr" v="604349" />
	</node>
	<node id="-29681" lat="59.8585361079" lon="11.73141111">
		<tag k="name" v="Søndagstjennmåsan" />
		<tag k="natural" v="wetland" />
		<tag k="ssr:stedsnr" v="604234" />
	</node>
	<node id="-29679" lat="59.8840361098" lon="11.3447861182">
		<tag k="name" v="Ringmyra" />
		<tag k="natural" v="wetland" />
		<tag k="ssr:stedsnr" v="604050" />
	</node>
	<node id="-29678" lat="59.8841138873" lon="11.389083332">
		<tag k="name" v="Sameiemyrene" />
		<tag k="natural" v="wetland" />
		<tag k="ssr:stedsnr" v="604042" />
	</node>
	<node id="-29677" lat="59.8824166678" lon="11.3968249917">
		<tag k="name" v="Lomsnesmyra" />
		<tag k="natural" v="wetland" />
		<tag k="ssr:stedsnr" v="604038" />
	</node>
	<node id="-29674" lat="59.766205558" lon="11.7320916669">
		<tag k="name" v="Grøviksætermyrene" />
		<tag k="natural" v="wetland" />
		<tag k="ssr:stedsnr" v="603880" />
	</node>
	<node id="-27625" lat="59.8968500044" lon="11.534288883">
		<tag k="name" v="Håmannsmyra" />
		<tag k="natural" v="wetland" />
		<tag k="ssr:stedsnr" v="4229" />
	</node>
	<node id="-29670" lat="59.9203666695" lon="11.737477782">
		<tag k="name" v="Kutjennmåsan" />
		<tag k="natural" v="wetland" />
		<tag k="ssr:stedsnr" v="603666" />
	</node>
	<node id="-27620" lat="59.8763805596" lon="11.5234250025">
		<tag k="name" v="Fløyta" />
		<tag k="natural" v="wetland" />
		<tag k="ssr:stedsnr" v="4183" />
	</node>
	<node id="-29665" lat="59.6819194418" lon="11.5763305513">
		<tag k="name" v="Størrhesten" />
		<tag k="natural" v="wetland" />
		<tag k="ssr:stedsnr" v="603347" />
	</node>
	<node id="-27616" lat="59.8591722181" lon="11.69130833">
		<tag k="name" v="Fagermåsan" />
		<tag k="natural" v="wetland" />
		<tag k="ssr:stedsnr" v="4127" />
	</node>
	<node id="-29662" lat="59.9073749972" lon="11.3482749993">
		<tag k="name" v="Matmyra" />
		<tag k="natural" v="wetland" />
		<tag k="ssr:stedsnr" v="603276" />
	</node>
	<node id="-29657" lat="59.9106416658" lon="11.3465388953">
		<tag k="name" v="Vinterdalsmyr" />
		<tag k="natural" v="wetland" />
		<tag k="ssr:stedsnr" v="603233" />
	</node>
	<node id="-27812" lat="59.8924555568" lon="11.636927769">
		<tag k="name" v="Brennsæterholta" />
		<tag k="place" v="locality" />
		<tag k="ssr:stedsnr" v="56589" />
	</node>
	<node id="-29654" lat="59.8126916634" lon="11.7433527802">
		<tag k="name" v="Vesletjennmåsan" />
		<tag k="natural" v="wetland" />
		<tag k="ssr:stedsnr" v="602733" />
	</node>
	<node id="-27128" lat="59.7544861122" lon="11.6935805503">
		<tag k="name" v="Tiurleikmyra" />
		<tag k="natural" v="wetland" />
		<tag k="ssr:stedsnr" v="342009" />
	</node>
	<node id="-29637" lat="59.7947916665" lon="11.887774998">
		<tag k="name" v="Lemmemyr" />
		<tag k="natural" v="wetland" />
		<tag k="ssr:stedsnr" v="601737" />
	</node>
	<node id="-29635" lat="59.8166722207" lon="11.2943333387">
		<tag k="name" v="Rundemyr" />
		<tag k="natural" v="wetland" />
		<tag k="ssr:stedsnr" v="601705" />
	</node>
	<node id="-28758" lat="59.7813833343" lon="11.7676027835">
		<tag k="name" v="Lysermåsan" />
		<tag k="natural" v="wetland" />
		<tag k="ssr:stedsnr" v="247426" />
	</node>
	<node id="-29618" lat="60.0101805531" lon="11.579283327">
		<tag k="name" v="Olamyra" />
		<tag k="natural" v="wetland" />
		<tag k="ssr:stedsnr" v="600056" />
	</node>
	<node id="-29615" lat="59.9201722259" lon="11.7803222251">
		<tag k="name" v="Saumyra" />
		<tag k="natural" v="wetland" />
		<tag k="ssr:stedsnr" v="604421" />
	</node>
	<node id="-29611" lat="59.9997722208" lon="11.7650277739">
		<tag k="name" v="Grasbergmyra" />
		<tag k="natural" v="wetland" />
		<tag k="ssr:stedsnr" v="588918" />
	</node>
	<node id="-29610" lat="59.8382555576" lon="11.5682888965">
		<tag k="name" v="Dammyra" />
		<tag k="natural" v="wetland" />
		<tag k="ssr:stedsnr" v="588885" />
	</node>
	<node id="-29606" lat="59.9001611123" lon="11.686899993">
		<tag k="name" v="Revmyra" />
		<tag k="natural" v="wetland" />
		<tag k="ssr:stedsnr" v="588813" />
	</node>
	<node id="-29599" lat="59.9530055568" lon="11.5535777738">
		<tag k="name" v="Strømstadmåsan" />
		<tag k="natural" v="wetland" />
		<tag k="ssr:stedsnr" v="587465" />
	</node>
	<node id="-29593" lat="59.8516250025" lon="11.7646861202">
		<tag k="name" v="Gammelsæterholta" />
		<tag k="place" v="locality" />
		<tag k="ssr:stedsnr" v="587290" />
	</node>
	<node id="-29592" lat="59.8286166643" lon="11.8358611073">
		<tag k="name" v="Grønnemyr" />
		<tag k="natural" v="wetland" />
		<tag k="ssr:stedsnr" v="587285" />
	</node>
	<node id="-29591" lat="59.9003999962" lon="11.5421305506">
		<tag k="name" v="Stutemyra" />
		<tag k="natural" v="wetland" />
		<tag k="ssr:stedsnr" v="587098" />
	</node>
	<node id="-27540" lat="59.8505972255" lon="11.4964749915">
		<tag k="name" v="Ulvemyra" />
		<tag k="natural" v="wetland" />
		<tag k="ssr:stedsnr" v="892834" />
	</node>
	<node id="-27538" lat="59.8999277816" lon="11.7136166706">
		<tag k="name" v="Slafossmyra" />
		<tag k="natural" v="wetland" />
		<tag k="ssr:stedsnr" v="892801" />
	</node>
	<node id="-29584" lat="59.8347027753" lon="11.3351055586">
		<tag k="name" v="Drypilen" />
		<tag k="natural" v="wetland" />
		<tag k="ssr:stedsnr" v="586661" />
	</node>
	<node id="-27535" lat="59.9071361135" lon="11.6512416722">
		<tag k="name" v="Knattemåsan" />
		<tag k="natural" v="wetland" />
		<tag k="ssr:stedsnr" v="892770" />
	</node>
	<node id="-27530" lat="59.9102111134" lon="11.5074083357">
		<tag k="name" v="Jordmyra" />
		<tag k="natural" v="wetland" />
		<tag k="ssr:stedsnr" v="891454" />
	</node>
	<node id="-27528" lat="59.9013194477" lon="11.5087777809">
		<tag k="name" v="Storsteinen" />
		<tag k="natural" v="stone" />
		<tag k="ssr:stedsnr" v="891449" />
	</node>
	<node id="-27527" lat="59.8965333321" lon="11.5057694463">
		<tag k="name" v="Tuemyra" />
		<tag k="natural" v="wetland" />
		<tag k="ssr:stedsnr" v="891444" />
	</node>
	<node id="-27524" lat="59.8508027774" lon="11.7490111137">
		<tag k="name" v="Vestre Bjørnbassmåsan" />
		<tag k="natural" v="wetland" />
		<tag k="ssr:stedsnr" v="891293" />
	</node>
	<node id="-27523" lat="59.8318527778" lon="11.8403666676">
		<tag k="name" v="Høneheimåsan" />
		<tag k="natural" v="wetland" />
		<tag k="ssr:stedsnr" v="891291" />
	</node>
	<node id="-27521" lat="59.9005222215" lon="11.5866166755">
		<tag k="name" v="Hestehagen" />
		<tag k="place" v="locality" />
		<tag k="ssr:stedsnr" v="891141" />
	</node>
	<node id="-29564" lat="59.7132222262" lon="11.4787416616">
		<tag k="name" v="Slorehagan" />
		<tag k="place" v="locality" />
		<tag k="ssr:stedsnr" v="585755" />
	</node>
	<node id="-29563" lat="60.0035361104" lon="11.8235972265">
		<tag k="name" v="Vibekkmyr" />
		<tag k="natural" v="wetland" />
		<tag k="ssr:stedsnr" v="585749" />
	</node>
	<node id="-29562" lat="59.9919111155" lon="11.6836138919">
		<tag k="name" v="Langsmalemyra" />
		<tag k="natural" v="wetland" />
		<tag k="ssr:stedsnr" v="585691" />
	</node>
	<node id="-29555" lat="59.9937305582" lon="11.5660055489">
		<tag k="name" v="Lognemyra" />
		<tag k="natural" v="wetland" />
		<tag k="ssr:stedsnr" v="585537" />
	</node>
	<node id="-27499" lat="59.9592888848" lon="11.5505138876">
		<tag k="name" v="Syltemåsan" />
		<tag k="natural" v="wetland" />
		<tag k="ssr:stedsnr" v="890120" />
	</node>
	<node id="-29545" lat="59.7631388921" lon="11.547502785">
		<tag k="name" v="Langmåsan" />
		<tag k="natural" v="wetland" />
		<tag k="ssr:stedsnr" v="570886" />
	</node>
	<node id="-27494" lat="59.9730138906" lon="11.5562472159">
		<tag k="name" v="Revtjennmyra" />
		<tag k="natural" v="wetland" />
		<tag k="ssr:stedsnr" v="890009" />
	</node>
	<node id="-29541" lat="59.7308500014" lon="11.4147499949">
		<tag k="name" v="Gramshagen" />
		<tag k="place" v="locality" />
		<tag k="ssr:stedsnr" v="568175" />
	</node>
	<node id="-27488" lat="60.0134833312" lon="11.5712166709">
		<tag k="name" v="Snissemyra" />
		<tag k="natural" v="wetland" />
		<tag k="ssr:stedsnr" v="889787" />
	</node>
	<node id="-27484" lat="59.9806750006" lon="11.7277222169">
		<tag k="name" v="Totjennmyr" />
		<tag k="natural" v="wetland" />
		<tag k="ssr:stedsnr" v="889667" />
	</node>
	<node id="-27483" lat="59.9927194483" lon="11.6250888862">
		<tag k="name" v="Langmyrene" />
		<tag k="natural" v="wetland" />
		<tag k="ssr:stedsnr" v="889657" />
	</node>
	<node id="-27482" lat="59.8247722249" lon="11.7580694413">
		<tag k="name" v="Fiskemyr" />
		<tag k="natural" v="wetland" />
		<tag k="ssr:stedsnr" v="889587" />
	</node>
	<node id="-27481" lat="59.8217749974" lon="11.7608722151">
		<tag k="name" v="Bumåsan" />
		<tag k="natural" v="wetland" />
		<tag k="ssr:stedsnr" v="889584" />
	</node>
	<node id="-27478" lat="59.7399166684" lon="11.6757666691">
		<tag k="name" v="Langmyr" />
		<tag k="natural" v="wetland" />
		<tag k="ssr:stedsnr" v="889372" />
	</node>
	<node id="-27474" lat="59.9450472203" lon="11.6526027848">
		<tag k="name" v="Tangemåsan" />
		<tag k="natural" v="wetland" />
		<tag k="ssr:stedsnr" v="479235" />
	</node>
	<node id="-27473" lat="60.0013611126" lon="11.7461277749">
		<tag k="name" v="Rundemyra" />
		<tag k="natural" v="wetland" />
		<tag k="ssr:stedsnr" v="479200" />
	</node>
	<node id="-27472" lat="60.001924998" lon="11.701038882">
		<tag k="name" v="Sagmyra" />
		<tag k="natural" v="wetland" />
		<tag k="ssr:stedsnr" v="479059" />
	</node>
	<node id="-27471" lat="60.0040527823" lon="11.586663891">
		<tag k="name" v="Bjørnemyra" />
		<tag k="natural" v="wetland" />
		<tag k="ssr:stedsnr" v="479044" />
	</node>
	<node id="-29510" lat="59.7984361124" lon="11.882991668">
		<tag k="name" v="Kaperalmåsan" />
		<tag k="natural" v="wetland" />
		<tag k="ssr:stedsnr" v="551164" />
	</node>
	<node id="-27458" lat="60.0027861121" lon="11.8099527805">
		<tag k="name" v="Kårsenmyr" />
		<tag k="natural" v="wetland" />
		<tag k="ssr:stedsnr" v="406920" />
	</node>
	<node id="-27457" lat="60.0144916664" lon="11.8146250081">
		<tag k="name" v="Pestikkholtet" />
		<tag k="place" v="locality" />
		<tag k="ssr:stedsnr" v="406908" />
	</node>
	<node id="-27456" lat="59.8487166623" lon="11.4851750072">
		<tag k="name" v="Garsvikmyra" />
		<tag k="natural" v="wetland" />
		<tag k="ssr:stedsnr" v="406854" />
	</node>
	<node id="-27455" lat="59.8958416631" lon="11.7252111164">
		<tag k="name" v="Langemyr" />
		<tag k="natural" v="wetland" />
		<tag k="ssr:stedsnr" v="406802" />
	</node>
	<node id="-27454" lat="59.8670583358" lon="11.3669916755">
		<tag k="name" v="Jarsfallmyra" />
		<tag k="natural" v="wetland" />
		<tag k="ssr:stedsnr" v="406694" />
	</node>
	<node id="-27451" lat="59.9570499996" lon="11.4717722216">
		<tag k="name" v="Balterudmyra" />
		<tag k="natural" v="wetland" />
		<tag k="ssr:stedsnr" v="406410" />
	</node>
	<node id="-27448" lat="59.8492694446" lon="11.7608999979">
		<tag k="name" v="Den lange måsan" />
		<tag k="natural" v="wetland" />
		<tag k="ssr:stedsnr" v="406255" />
	</node>
	<node id="-27446" lat="59.9025527756" lon="11.5020388811">
		<tag k="name" v="Kumyra" />
		<tag k="natural" v="wetland" />
		<tag k="ssr:stedsnr" v="405456" />
	</node>
	<node id="-29493" lat="59.9056222264" lon="11.7509666625">
		<tag k="name" v="Høgmåsan" />
		<tag k="natural" v="wetland" />
		<tag k="ssr:stedsnr" v="551021" />
	</node>
	<node id="-29488" lat="59.9786777795" lon="11.7005000074">
		<tag k="name" v="Mangskogen" />
		<tag k="place" v="locality" />
		<tag k="ssr:stedsnr" v="550988" />
	</node>
	<node id="-29485" lat="59.9916777802" lon="11.5979111185">
		<tag k="alt_name" v="Kjerringmyrene" />
		<tag k="name" v="Kjerringmyrane" />
		<tag k="natural" v="wetland" />
		<tag k="ssr:stedsnr" v="550969" />
	</node>
	<node id="-27433" lat="59.9262249999" lon="11.5236500068">
		<tag k="name" v="Gjærsmyra" />
		<tag k="place" v="locality" />
		<tag k="ssr:stedsnr" v="404588" />
	</node>
	<node id="-29480" lat="59.79947778" lon="11.3138500011">
		<tag k="name" v="Tuemåsan" />
		<tag k="natural" v="wetland" />
		<tag k="ssr:stedsnr" v="550826" />
	</node>
	<node id="-27427" lat="59.793366665" lon="11.6446805634">
		<tag k="name" v="Stolpevikmyra" />
		<tag k="natural" v="wetland" />
		<tag k="ssr:stedsnr" v="404160" />
	</node>
	<node id="-27425" lat="59.9492916701" lon="11.649719437">
		<tag k="name" v="Køddebakkmyra" />
		<tag k="natural" v="wetland" />
		<tag k="ssr:stedsnr" v="404104" />
	</node>
	<node id="-27423" lat="59.7915888859" lon="11.797719449">
		<tag k="name" v="Rundtjennmyra" />
		<tag k="natural" v="wetland" />
		<tag k="ssr:stedsnr" v="404084" />
	</node>
	<node id="-26964" lat="59.6738583368" lon="11.5659249918">
		<tag k="name" v="Dryplemyra" />
		<tag k="natural" v="wetland" />
		<tag k="ssr:stedsnr" v="301428" />
	</node>
	<node id="-27418" lat="59.9558638867" lon="11.6584305485">
		<tag k="name" v="Svartlitjennmyra" />
		<tag k="natural" v="wetland" />
		<tag k="ssr:stedsnr" v="404010" />
	</node>
	<node id="-29464" lat="59.7942500027" lon="11.6022250022">
		<tag k="fixme" v="multiple name tags, choose one and add the other to alt_name" />
		<tag k="name" v="Akselmyra;Fiskemyra" />
		<tag k="natural" v="wetland" />
		<tag k="ssr:stedsnr" v="550457" />
	</node>
	<node id="-27413" lat="60.0050305572" lon="11.5591305638">
		<tag k="name" v="Trekartmyra" />
		<tag k="natural" v="wetland" />
		<tag k="ssr:stedsnr" v="403791" />
	</node>
	<node id="-27409" lat="59.9647500025" lon="11.6472638852">
		<tag k="name" v="Haukelundmarka" />
		<tag k="place" v="locality" />
		<tag k="ssr:stedsnr" v="241154" />
	</node>
	<node id="-29143" lat="59.8685000031" lon="11.8204944503">
		<tag k="name" v="Nordre Skjærtjennmyr" />
		<tag k="natural" v="wetland" />
		<tag k="ssr:stedsnr" v="483205" />
	</node>
	<node id="-27398" lat="59.7132277781" lon="11.3676611043">
		<tag k="name" v="Sleppa" />
		<tag k="place" v="locality" />
		<tag k="ssr:stedsnr" v="386218" />
	</node>
	<node id="-29141" lat="59.7678805515" lon="11.5545416615">
		<tag k="name" v="Sætermyrene" />
		<tag k="natural" v="wetland" />
		<tag k="ssr:stedsnr" v="482788" />
	</node>
	<node id="-29430" lat="59.7177138897" lon="11.6341138925">
		<tag k="fixme" v="multiple name tags, choose one and add the other to alt_name" />
		<tag k="name" v="Gunnarsvikmåsan;Trefoldighetsmyra" />
		<tag k="natural" v="wetland" />
		<tag k="ssr:stedsnr" v="549615" />
	</node>
	<node id="-29426" lat="59.7714166658" lon="11.3476583326">
		<tag k="name" v="Sørlihagen" />
		<tag k="place" v="locality" />
		<tag k="ssr:stedsnr" v="544975" />
	</node>
	<node id="-27376" lat="59.8166277788" lon="11.8070805569">
		<tag k="alt_name" v="Orremåsan" />
		<tag k="name" v="Åremåsane" />
		<tag k="natural" v="wetland" />
		<tag k="ssr:stedsnr" v="369255" />
	</node>
	<node id="-29420" lat="59.872022224" lon="11.3805666697">
		<tag k="name" v="Brenna" />
		<tag k="place" v="locality" />
		<tag k="ssr:stedsnr" v="544738" />
	</node>
	<node id="-27367" lat="59.8533416646" lon="11.6398666583">
		<tag k="alt_name" v="Madshølet" />
		<tag k="name" v="Madsholet" />
		<tag k="natural" v="wetland" />
		<tag k="ssr:stedsnr" v="369132" />
	</node>
	<node id="-29413" lat="59.9029805529" lon="11.4184611045">
		<tag k="name" v="Morttjennmyra" />
		<tag k="natural" v="wetland" />
		<tag k="ssr:stedsnr" v="544514" />
	</node>
	<node id="-28667" lat="59.693355556" lon="11.5981833404">
		<tag k="name" v="Sjekta" />
		<tag k="place" v="locality" />
		<tag k="ssr:stedsnr" v="240361" />
	</node>
	<node id="-29404" lat="59.9386888868" lon="11.7537611184">
		<tag k="name" v="Høymyra" />
		<tag k="natural" v="wetland" />
		<tag k="ssr:stedsnr" v="544357" />
	</node>
	<node id="-29402" lat="59.8690777811" lon="11.6650944452">
		<tag k="name" v="Brenndalsmåsan" />
		<tag k="natural" v="wetland" />
		<tag k="ssr:stedsnr" v="544230" />
	</node>
	<node id="-28111" lat="59.7707111114" lon="11.5693305533">
		<tag k="name" v="Eikedalsmåsan" />
		<tag k="natural" v="wetland" />
		<tag k="ssr:stedsnr" v="118786" />
	</node>
	<node id="-29399" lat="59.9639500026" lon="11.6522166683">
		<tag k="name" v="Syltehølet" />
		<tag k="natural" v="wetland" />
		<tag k="ssr:stedsnr" v="544137" />
	</node>
	<node id="-29397" lat="59.9708527816" lon="11.5846638808">
		<tag k="name" v="Brønnsmyra" />
		<tag k="natural" v="wetland" />
		<tag k="ssr:stedsnr" v="544128" />
	</node>
	<node id="-29395" lat="59.8705555531" lon="11.7448694495">
		<tag k="name" v="Abbortjennmåsan" />
		<tag k="natural" v="wetland" />
		<tag k="ssr:stedsnr" v="544055" />
	</node>
	<node id="-29394" lat="59.8836472207" lon="11.3915138958">
		<tag k="name" v="Sameia" />
		<tag k="place" v="locality" />
		<tag k="ssr:stedsnr" v="544040" />
	</node>
	<node id="-29390" lat="59.7732027806" lon="11.7360833389">
		<tag k="name" v="Syltungmyr" />
		<tag k="natural" v="wetland" />
		<tag k="ssr:stedsnr" v="543873" />
	</node>
	<node id="-27085" lat="59.877011109" lon="11.3749722219">
		<tag k="alt_name" v="Svanmåsan" />
		<tag k="name" v="Svanemåsan" />
		<tag k="natural" v="wetland" />
		<tag k="ssr:stedsnr" v="308640" />
	</node>
	<node id="-29382" lat="59.6915638875" lon="11.5939027737">
		<tag k="name" v="Kumyrholtet" />
		<tag k="place" v="locality" />
		<tag k="ssr:stedsnr" v="543359" />
	</node>
	<node id="-27330" lat="59.6978083308" lon="11.5954305585">
		<tag k="alt_name" v="Bleksen" />
		<tag k="name" v="Bliksen" />
		<tag k="natural" v="wetland" />
		<tag k="ssr:stedsnr" v="368384" />
	</node>
	<node id="-29377" lat="59.8097138891" lon="11.647008333">
		<tag k="name" v="Elgemyr" />
		<tag k="natural" v="wetland" />
		<tag k="ssr:stedsnr" v="542502" />
	</node>
	<node id="-27328" lat="59.8392361117" lon="11.8096249946">
		<tag k="name" v="Lange rekka" />
		<tag k="natural" v="wetland" />
		<tag k="ssr:stedsnr" v="368376" />
	</node>
	<node id="-29370" lat="59.8750499984" lon="11.4414472153">
		<tag k="name" v="Østre Blåkollmåsan" />
		<tag k="natural" v="wetland" />
		<tag k="ssr:stedsnr" v="542272" />
	</node>
	<node id="-29369" lat="59.8818194476" lon="11.4269861056">
		<tag k="name" v="Sameia" />
		<tag k="place" v="locality" />
		<tag k="ssr:stedsnr" v="542264" />
	</node>
	<node id="-28684" lat="59.9418055545" lon="11.7803083384">
		<tag k="name" v="Knattemyra" />
		<tag k="natural" v="wetland" />
		<tag k="ssr:stedsnr" v="241363" />
	</node>
	<node id="-29364" lat="59.8824611124" lon="11.4856194488">
		<tag k="name" v="Bjørkmåsan" />
		<tag k="natural" v="wetland" />
		<tag k="ssr:stedsnr" v="541893" />
	</node>
	<node id="-29363" lat="59.7919222263" lon="11.8619972139">
		<tag k="name" v="Hillertjennmåsan" />
		<tag k="natural" v="wetland" />
		<tag k="ssr:stedsnr" v="541757" />
	</node>
	<node id="-29361" lat="59.8859916698" lon="11.5430499942">
		<tag k="name" v="Dalhaug" />
		<tag k="place" v="locality" />
		<tag k="ssr:stedsnr" v="541644" />
	</node>
	<node id="-29359" lat="59.9485305553" lon="11.5868111057">
		<tag k="landuse" v="meadow" />
		<tag k="name" v="Engene" />
		<tag k="ssr:stedsnr" v="541371" />
	</node>
	<node id="-29354" lat="59.880469446" lon="11.7704444489">
		<tag k="name" v="Søndre Røytjennkollmåsan" />
		<tag k="natural" v="wetland" />
		<tag k="ssr:stedsnr" v="541005" />
	</node>
	<node id="-29346" lat="60.0124083341" lon="11.7302472256">
		<tag k="name" v="Lauvtjennmyra" />
		<tag k="natural" v="wetland" />
		<tag k="ssr:stedsnr" v="540199" />
	</node>
	<node id="-29345" lat="60.0072750029" lon="11.5872916673">
		<tag k="name" v="Bikkjemyra" />
		<tag k="natural" v="wetland" />
		<tag k="ssr:stedsnr" v="540071" />
	</node>
	<node id="-27296" lat="59.7816888898" lon="11.7752194423">
		<tag k="name" v="Kubråteholtet" />
		<tag k="place" v="locality" />
		<tag k="ssr:stedsnr" v="362831" />
	</node>
	<node id="-27294" lat="59.9269416697" lon="11.6073250059">
		<tag k="name" v="Askedalsmyra" />
		<tag k="natural" v="wetland" />
		<tag k="ssr:stedsnr" v="362598" />
	</node>
	<node id="-27293" lat="59.8649222197" lon="11.4474055508">
		<tag k="name" v="Blåkollmåsan" />
		<tag k="natural" v="wetland" />
		<tag k="ssr:stedsnr" v="362565" />
	</node>
	<node id="-27290" lat="59.9014055524" lon="11.4112305498">
		<tag k="name" v="Storkilmåsan" />
		<tag k="natural" v="wetland" />
		<tag k="ssr:stedsnr" v="362492" />
	</node>
	<node id="-29335" lat="59.9120138923" lon="11.6534361046">
		<tag k="name" v="Storsætermyra" />
		<tag k="natural" v="wetland" />
		<tag k="ssr:stedsnr" v="527796" />
	</node>
	<node id="-29334" lat="59.9047083326" lon="11.6347527709">
		<tag k="name" v="Vivangmyra" />
		<tag k="natural" v="wetland" />
		<tag k="ssr:stedsnr" v="527789" />
	</node>
	<node id="-29333" lat="59.8664749969" lon="11.3724527784">
		<tag k="name" v="Haremyra" />
		<tag k="natural" v="wetland" />
		<tag k="ssr:stedsnr" v="527741" />
	</node>
	<node id="-29331" lat="59.9528749956" lon="11.4712083414">
		<tag k="name" v="Åserudmyra" />
		<tag k="natural" v="wetland" />
		<tag k="ssr:stedsnr" v="527490" />
	</node>
	<node id="-29328" lat="59.9503777805" lon="11.4926777798">
		<tag k="name" v="Fosserholta" />
		<tag k="place" v="locality" />
		<tag k="ssr:stedsnr" v="527405" />
	</node>
	<node id="-27278" lat="59.8641111154" lon="11.7095000009">
		<tag k="name" v="Aurkytetjenn" />
		<tag k="natural" v="wetland" />
		<tag k="ssr:stedsnr" v="362208" />
	</node>
	<node id="-29325" lat="59.8587388863" lon="11.7957499941">
		<tag k="name" v="Gørrtjennmyr" />
		<tag k="natural" v="wetland" />
		<tag k="ssr:stedsnr" v="527262" />
	</node>
	<node id="-29324" lat="59.8372833291" lon="11.8256194417">
		<tag k="name" v="Linneholta" />
		<tag k="place" v="locality" />
		<tag k="ssr:stedsnr" v="527258" />
	</node>
	<node id="-29323" lat="59.8457416665" lon="11.7679472303">
		<tag k="name" v="Abbortjennmåsan" />
		<tag k="natural" v="wetland" />
		<tag k="ssr:stedsnr" v="527248" />
	</node>
	<node id="-29320" lat="59.8606416643" lon="11.6783499992">
		<tag k="name" v="Fagermohagen" />
		<tag k="place" v="locality" />
		<tag k="ssr:stedsnr" v="527205" />
	</node>
	<node id="-29318" lat="59.9894722256" lon="11.4966222167">
		<tag k="name" v="Amundsmyra" />
		<tag k="natural" v="wetland" />
		<tag k="ssr:stedsnr" v="526337" />
	</node>
	<node id="-29317" lat="60.0003027734" lon="11.4786749963">
		<tag k="name" v="Spitmyrene" />
		<tag k="natural" v="wetland" />
		<tag k="ssr:stedsnr" v="526324" />
	</node>
	<node id="-27268" lat="59.6552750003" lon="11.5337749938">
		<tag k="name" v="Fuglemåsan" />
		<tag k="natural" v="wetland" />
		<tag k="ssr:stedsnr" v="361715" />
	</node>
	<node id="-27265" lat="59.6695805547" lon="11.5571611033">
		<tag k="name" v="Søgardshagen" />
		<tag k="place" v="locality" />
		<tag k="ssr:stedsnr" v="361682" />
	</node>
	<node id="-29307" lat="60.0075777804" lon="11.5215083321">
		<tag k="name" v="Kalvemåsan" />
		<tag k="natural" v="wetland" />
		<tag k="ssr:stedsnr" v="525795" />
	</node>
	<node id="-29304" lat="59.9999833336" lon="11.7403249958">
		<tag k="name" v="Krokmyra" />
		<tag k="natural" v="wetland" />
		<tag k="ssr:stedsnr" v="525709" />
	</node>
	<node id="-27252" lat="59.7763083314" lon="11.5675166693">
		<tag k="name" v="Nordre Høgmåsan" />
		<tag k="natural" v="wetland" />
		<tag k="ssr:stedsnr" v="360795" />
	</node>
	<node id="-28094" lat="59.8939666624" lon="11.3671555556">
		<tag k="name" v="Bakhonmyrene" />
		<tag k="natural" v="wetland" />
		<tag k="ssr:stedsnr" v="118231" />
	</node>
	<node id="-27250" lat="59.9411611121" lon="11.6287472298">
		<tag k="name" v="Fittsprettmyra" />
		<tag k="natural" v="wetland" />
		<tag k="ssr:stedsnr" v="360730" />
	</node>
	<node id="-27249" lat="59.8763444414" lon="11.737447217">
		<tag k="name" v="Søndre Høgfagra" />
		<tag k="natural" v="wetland" />
		<tag k="ssr:stedsnr" v="360679" />
	</node>
	<node id="-27248" lat="59.8833722206" lon="11.7455166626">
		<tag k="name" v="Øytjennmåsan" />
		<tag k="natural" v="wetland" />
		<tag k="ssr:stedsnr" v="360678" />
	</node>
	<node id="-31342" lat="59.8594888918" lon="11.5163777788">
		<tag k="name" v="Vestre Haugen" />
		<tag k="place" v="locality" />
		<tag k="ssr:stedsnr" v="969878" />
	</node>
	<node id="-28093" lat="59.9064833294" lon="11.3328111181">
		<tag k="name" v="Stutemåsan" />
		<tag k="natural" v="wetland" />
		<tag k="ssr:stedsnr" v="118229" />
	</node>
	<node id="-31339" lat="59.785447225" lon="11.7404388862">
		<tag k="name" v="Hallangsmåsan" />
		<tag k="natural" v="wetland" />
		<tag k="ssr:stedsnr" v="969688" />
	</node>
	<node id="-29290" lat="59.9610166647" lon="11.5223027839">
		<tag k="name" v="Sandbakken" />
		<tag k="place" v="locality" />
		<tag k="ssr:stedsnr" v="525131" />
	</node>
	<node id="-29288" lat="59.9642805579" lon="11.515133339">
		<tag k="name" v="Delingsmyra" />
		<tag k="natural" v="wetland" />
		<tag k="ssr:stedsnr" v="525032" />
	</node>
	<node id="-31335" lat="59.8107055536" lon="11.7648444426">
		<tag k="name" v="Svartebergmåsan" />
		<tag k="natural" v="wetland" />
		<tag k="ssr:stedsnr" v="969581" />
	</node>
	<node id="-27235" lat="59.9340250027" lon="11.7461055482">
		<tag k="name" v="Kinnemyra" />
		<tag k="natural" v="wetland" />
		<tag k="ssr:stedsnr" v="360218" />
	</node>
	<node id="-27233" lat="60.0005484437" lon="11.8158067452">
		<tag k="name" v="Tørrhardåsmyra" />
		<tag k="natural" v="wetland" />
		<tag k="ssr:stedsnr" v="360119" />
	</node>
	<node id="-29279" lat="59.7031861155" lon="11.3718527716">
		<tag k="name" v="Setemåsan" />
		<tag k="natural" v="wetland" />
		<tag k="ssr:stedsnr" v="508208" />
	</node>
	<node id="-31326" lat="59.9392444466" lon="11.793952774">
		<tag k="name" v="Kulkusmyra" />
		<tag k="natural" v="wetland" />
		<tag k="ssr:stedsnr" v="969383" />
	</node>
	<node id="-29277" lat="59.7573583321" lon="11.4567638884">
		<tag k="name" v="Hjellebølmåsan" />
		<tag k="natural" v="wetland" />
		<tag k="ssr:stedsnr" v="508156" />
	</node>
	<node id="-29276" lat="59.7075194475" lon="11.4075944487">
		<tag k="name" v="Øygarden" />
		<tag k="place" v="locality" />
		<tag k="ssr:stedsnr" v="508126" />
	</node>
	<node id="-31323" lat="59.9603277784" lon="11.6780666652">
		<tag k="name" v="Badstumyra" />
		<tag k="natural" v="wetland" />
		<tag k="ssr:stedsnr" v="969162" />
	</node>
	<node id="-29274" lat="59.7186222248" lon="11.4443694472">
		<tag k="name" v="Vormsund" />
		<tag k="place" v="locality" />
		<tag k="ssr:stedsnr" v="508119" />
	</node>
	<node id="-27225" lat="59.8765055577" lon="11.6704611086">
		<tag k="name" v="Bjørnemyra" />
		<tag k="natural" v="wetland" />
		<tag k="ssr:stedsnr" v="359594" />
	</node>
	<node id="-29272" lat="59.7884083355" lon="11.8805027852">
		<tag k="alt_name" v="Bjønnehimåsan" />
		<tag k="name" v="Bjørnhimåsan" />
		<tag k="natural" v="wetland" />
		<tag k="ssr:stedsnr" v="491161" />
	</node>
	<node id="-31317" lat="59.6223666696" lon="11.5061638858">
		<tag k="name" v="Høyendalsmåsan" />
		<tag k="natural" v="wetland" />
		<tag k="ssr:stedsnr" v="968749" />
	</node>
	<node id="-27230" lat="59.8299999975" lon="11.3317944365">
		<tag k="name" v="Ensrudmåsan" />
		<tag k="natural" v="wetland" />
		<tag k="ssr:stedsnr" v="359733" />
	</node>
	<node id="-27216" lat="59.8721138868" lon="11.4707694504">
		<tag k="name" v="Molteholet" />
		<tag k="natural" v="wetland" />
		<tag k="ssr:stedsnr" v="358880" />
	</node>
	<node id="-27214" lat="59.8708416679" lon="11.488200007">
		<tag k="name" v="Huldermyra" />
		<tag k="natural" v="wetland" />
		<tag k="ssr:stedsnr" v="358860" />
	</node>
	<node id="-27212" lat="59.7956361126" lon="11.8223972225">
		<tag k="name" v="Ellefsmyr" />
		<tag k="natural" v="wetland" />
		<tag k="ssr:stedsnr" v="358403" />
	</node>
	<node id="-31307" lat="59.6759166642" lon="11.5176416694">
		<tag k="name" v="Folungskiftet" />
		<tag k="place" v="locality" />
		<tag k="ssr:stedsnr" v="968440" />
	</node>
	<node id="-31300" lat="59.6465416623" lon="11.5670500084">
		<tag k="name" v="Sameiemåsan" />
		<tag k="natural" v="wetland" />
		<tag k="ssr:stedsnr" v="968337" />
	</node>
	<node id="-29251" lat="59.7633999989" lon="11.5167805616">
		<tag k="alt_name" v="Småmyra" />
		<tag k="name" v="Småmyrene" />
		<tag k="natural" v="wetland" />
		<tag k="ssr:stedsnr" v="490399" />
	</node>
	<node id="-31297" lat="59.77063611" lon="11.6828222205">
		<tag k="name" v="Kjøremyr" />
		<tag k="natural" v="wetland" />
		<tag k="ssr:stedsnr" v="967994" />
	</node>
	<node id="-31294" lat="59.7819361127" lon="11.6643749946">
		<tag k="name" v="Kalvenesmyra" />
		<tag k="natural" v="wetland" />
		<tag k="ssr:stedsnr" v="967846" />
	</node>
	<node id="-29243" lat="59.8438861084" lon="11.6158361121">
		<tag k="name" v="Grasmåsan" />
		<tag k="natural" v="wetland" />
		<tag k="ssr:stedsnr" v="490328" />
	</node>
	<node id="-31287" lat="59.803911113" lon="11.7205361144">
		<tag k="name" v="Kaldåkermåsan" />
		<tag k="natural" v="wetland" />
		<tag k="ssr:stedsnr" v="967674" />
	</node>
	<node id="-31277" lat="59.8741444447" lon="11.4610555536">
		<tag k="name" v="Langvassmåsan" />
		<tag k="natural" v="wetland" />
		<tag k="ssr:stedsnr" v="967352" />
	</node>
	<node id="-31276" lat="59.874450003" lon="11.4720666649">
		<tag k="name" v="Fallemyra" />
		<tag k="natural" v="wetland" />
		<tag k="ssr:stedsnr" v="967350" />
	</node>
	<node id="-31275" lat="59.898763891" lon="11.3446805594">
		<tag k="name" v="Brattbakkmyrene" />
		<tag k="natural" v="wetland" />
		<tag k="ssr:stedsnr" v="967196" />
	</node>
	<node id="-31274" lat="59.9241083315" lon="11.7208194491">
		<tag k="name" v="Brumåsan" />
		<tag k="natural" v="wetland" />
		<tag k="ssr:stedsnr" v="967195" />
	</node>
	<node id="-27177" lat="59.9998444488" lon="11.5033944432">
		<tag k="name" v="Olamyra" />
		<tag k="natural" v="wetland" />
		<tag k="ssr:stedsnr" v="344348" />
	</node>
	<node id="-31272" lat="59.8780305555" lon="11.5273055616">
		<tag k="name" v="Østre Fløytmyrene" />
		<tag k="natural" v="wetland" />
		<tag k="ssr:stedsnr" v="966889" />
	</node>
	<node id="-27175" lat="59.9777888867" lon="11.6556527777">
		<tag k="name" v="Liervanglia" />
		<tag k="natural" v="wetland" />
		<tag k="ssr:stedsnr" v="344298" />
	</node>
	<node id="-27173" lat="59.9307027804" lon="11.3600722206">
		<tag k="name" v="Jegerhagen" />
		<tag k="place" v="locality" />
		<tag k="ssr:stedsnr" v="343989" />
	</node>
	<node id="-27739" lat="59.9739333364" lon="11.4402333261">
		<tag k="name" v="Folungmyra" />
		<tag k="natural" v="wetland" />
		<tag k="ssr:stedsnr" v="40005" />
	</node>
	<node id="-27165" lat="60.0009527758" lon="11.6117333266">
		<tag k="name" v="Kjøltjennsnippen" />
		<tag k="place" v="locality" />
		<tag k="ssr:stedsnr" v="343736" />
	</node>
	<node id="-27164" lat="59.9857694404" lon="11.6240722141">
		<tag k="name" v="Svullmyra" />
		<tag k="natural" v="wetland" />
		<tag k="ssr:stedsnr" v="343711" />
	</node>
	<node id="-27163" lat="59.833958329" lon="11.3049277815">
		<tag k="name" v="Torsmyra" />
		<tag k="natural" v="wetland" />
		<tag k="ssr:stedsnr" v="343690" />
	</node>
	<node id="-31255" lat="59.8674111136" lon="11.498538895">
		<tag k="name" v="Rundmyra" />
		<tag k="natural" v="wetland" />
		<tag k="ssr:stedsnr" v="965879" />
	</node>
	<node id="-29206" lat="59.7953722252" lon="11.5945277749">
		<tag k="name" v="Høgmåsan" />
		<tag k="natural" v="wetland" />
		<tag k="ssr:stedsnr" v="490462" />
	</node>
	<node id="-31253" lat="59.7869416652" lon="11.8422138928">
		<tag k="name" v="Orremåsahalsen" />
		<tag k="natural" v="wetland" />
		<tag k="ssr:stedsnr" v="965428" />
	</node>
	<node id="-27156" lat="59.7870222253" lon="11.3820638848">
		<tag k="name" v="Tyrihjellen" />
		<tag k="place" v="locality" />
		<tag k="ssr:stedsnr" v="343305" />
	</node>
	<node id="-28078" lat="59.8593722263" lon="11.5022416753">
		<tag k="name" v="Granerudmyra" />
		<tag k="natural" v="wetland" />
		<tag k="ssr:stedsnr" v="116640" />
	</node>
	<node id="-31249" lat="60.0017722235" lon="11.726713886">
		<tag k="name" v="Svinemyra" />
		<tag k="natural" v="wetland" />
		<tag k="ssr:stedsnr" v="965194" />
	</node>
	<node id="-31248" lat="60.0060111072" lon="11.7399277708">
		<tag k="name" v="Bjønnemyra" />
		<tag k="natural" v="wetland" />
		<tag k="ssr:stedsnr" v="965189" />
	</node>
	<node id="-31245" lat="59.9040249964" lon="11.3942861182">
		<tag k="name" v="Einerudmåsan" />
		<tag k="natural" v="wetland" />
		<tag k="ssr:stedsnr" v="967263" />
	</node>
	<node id="-27146" lat="59.9472722266" lon="11.6367166602">
		<tag k="name" v="Butjennmåsan" />
		<tag k="natural" v="wetland" />
		<tag k="ssr:stedsnr" v="343107" />
	</node>
	<node id="-28076" lat="59.7855138864" lon="11.8455861094">
		<tag k="name" v="Geitelorten" />
		<tag k="natural" v="wetland" />
		<tag k="ssr:stedsnr" v="116416" />
	</node>
	<node id="-27140" lat="59.9789166688" lon="11.5226611124">
		<tag k="name" v="Flomyra" />
		<tag k="natural" v="wetland" />
		<tag k="ssr:stedsnr" v="343007" />
	</node>
	<node id="-31235" lat="59.8339111073" lon="11.5712555528">
		<tag k="name" v="Husemyrene" />
		<tag k="natural" v="wetland" />
		<tag k="ssr:stedsnr" v="952849" />
	</node>
	<node id="-27138" lat="59.8220972181" lon="11.8215305479">
		<tag k="name" v="Geitemyra" />
		<tag k="natural" v="wetland" />
		<tag k="ssr:stedsnr" v="342864" />
	</node>
	<node id="-27137" lat="59.823483331" lon="11.8125999963">
		<tag k="name" v="Børresmyra" />
		<tag k="natural" v="wetland" />
		<tag k="ssr:stedsnr" v="342863" />
	</node>
	<node id="-31232" lat="59.8943555553" lon="11.6921888935">
		<tag k="name" v="Bovlienmyra" />
		<tag k="natural" v="wetland" />
		<tag k="ssr:stedsnr" v="952785" />
	</node>
	<node id="-31230" lat="59.8298250014" lon="11.6073277841">
		<tag k="name" v="Hovrøysmyra" />
		<tag k="natural" v="wetland" />
		<tag k="ssr:stedsnr" v="952752" />
	</node>
	<node id="-31229" lat="59.8577583301" lon="11.3575638912">
		<tag k="name" v="Stordalsmyra" />
		<tag k="natural" v="wetland" />
		<tag k="ssr:stedsnr" v="952687" />
	</node>
	<node id="-31228" lat="59.9493694446" lon="11.4766611029">
		<tag k="name" v="Bjønnemyra" />
		<tag k="natural" v="wetland" />
		<tag k="ssr:stedsnr" v="952483" />
	</node>
	<node id="-31227" lat="59.9049888931" lon="11.4957833395">
		<tag k="name" v="Dammyr" />
		<tag k="natural" v="wetland" />
		<tag k="ssr:stedsnr" v="952439" />
	</node>
	<node id="-27130" lat="59.6991305568" lon="11.515794448">
		<tag k="name" v="Stormåsan" />
		<tag k="natural" v="wetland" />
		<tag k="ssr:stedsnr" v="342137" />
	</node>
	<node id="-29176" lat="59.8777416644" lon="11.7325333275">
		<tag k="name" v="Høyfagra" />
		<tag k="natural" v="wetland" />
		<tag k="ssr:stedsnr" v="489231" />
	</node>
	<node id="-29175" lat="59.888055559" lon="11.7320583333">
		<tag k="name" v="Bjørnemyra" />
		<tag k="natural" v="wetland" />
		<tag k="ssr:stedsnr" v="489229" />
	</node>
	<node id="-27126" lat="59.8522722257" lon="11.7939750048">
		<tag k="name" v="Skåltjennmåsan" />
		<tag k="natural" v="wetland" />
		<tag k="ssr:stedsnr" v="126366" />
	</node>
	<node id="-31219" lat="59.8602583327" lon="11.6120500079">
		<tag k="name" v="Nordre Hyttesætermåsan" />
		<tag k="natural" v="wetland" />
		<tag k="ssr:stedsnr" v="951860" />
	</node>
	<node id="-31217" lat="59.8975250034" lon="11.4809722277">
		<tag k="name" v="Postmyra" />
		<tag k="natural" v="wetland" />
		<tag k="ssr:stedsnr" v="951438" />
	</node>
	<node id="-31216" lat="59.896411111" lon="11.4790805511">
		<tag k="name" v="Stokkmyra" />
		<tag k="natural" v="wetland" />
		<tag k="ssr:stedsnr" v="951437" />
	</node>
	<node id="-31213" lat="59.9648472233" lon="11.7110805482">
		<tag k="name" v="Langmyra" />
		<tag k="natural" v="wetland" />
		<tag k="ssr:stedsnr" v="951283" />
	</node>
	<node id="-29159" lat="59.7332444411" lon="11.5310277743">
		<tag k="name" v="Ulvemåsan" />
		<tag k="natural" v="wetland" />
		<tag k="ssr:stedsnr" v="483613" />
	</node>
	<node id="-31206" lat="59.9868972214" lon="11.690327784">
		<tag k="name" v="Haramyra" />
		<tag k="natural" v="wetland" />
		<tag k="ssr:stedsnr" v="950707" />
	</node>
	<node id="-31204" lat="59.9998666646" lon="11.6957749999">
		<tag k="name" v="Åkermyra" />
		<tag k="natural" v="wetland" />
		<tag k="ssr:stedsnr" v="950692" />
	</node>
	<node id="-29155" lat="59.8812499989" lon="11.813694444">
		<tag k="name" v="Ulvemyr" />
		<tag k="natural" v="wetland" />
		<tag k="ssr:stedsnr" v="483537" />
	</node>
	<node id="-31201" lat="59.9924777823" lon="11.7317249999">
		<tag k="name" v="Hungeraltåsmyra" />
		<tag k="natural" v="wetland" />
		<tag k="ssr:stedsnr" v="950685" />
	</node>
	<node id="-31200" lat="59.9933166628" lon="11.7093222173">
		<tag k="name" v="Stormyra" />
		<tag k="natural" v="wetland" />
		<tag k="ssr:stedsnr" v="950683" />
	</node>
	<node id="-29150" lat="59.9548250021" lon="11.7503000069">
		<tag k="name" v="Linnemyrholta" />
		<tag k="place" v="locality" />
		<tag k="ssr:stedsnr" v="483420" />
	</node>
	<node id="-29149" lat="59.6927277743" lon="11.567511117">
		<tag k="name" v="Svensmåsan" />
		<tag k="natural" v="wetland" />
		<tag k="ssr:stedsnr" v="483411" />
	</node>
	<node id="-31196" lat="59.8211833367" lon="11.8427055611">
		<tag k="name" v="Abbortjennholta" />
		<tag k="place" v="locality" />
		<tag k="ssr:stedsnr" v="950599" />
	</node>
	<node id="-31192" lat="59.9962166685" lon="11.5642777703">
		<tag k="name" v="Sluttbekkmyra" />
		<tag k="natural" v="wetland" />
		<tag k="ssr:stedsnr" v="950560" />
	</node>
	<node id="-31191" lat="59.9367055539" lon="11.3846388804">
		<tag k="name" v="Jarsmåsan" />
		<tag k="natural" v="wetland" />
		<tag k="ssr:stedsnr" v="950462" />
	</node>
	<node id="-31189" lat="59.9501111089" lon="11.6403444446">
		<tag k="name" v="Tømmermyra" />
		<tag k="natural" v="wetland" />
		<tag k="ssr:stedsnr" v="950133" />
	</node>
	<node id="-29139" lat="59.9323194471" lon="11.6889472192">
		<tag k="name" v="Langmyra" />
		<tag k="natural" v="wetland" />
		<tag k="ssr:stedsnr" v="482739" />
	</node>
	<node id="-29138" lat="59.9324444413" lon="11.6739555553">
		<tag k="name" v="Helgemåsan" />
		<tag k="natural" v="wetland" />
		<tag k="ssr:stedsnr" v="482720" />
	</node>
	<node id="-29137" lat="59.8366694455" lon="11.3523055531">
		<tag k="landuse" v="meadow" />
		<tag k="name" v="Åmotengene" />
		<tag k="ssr:stedsnr" v="482624" />
	</node>
	<node id="-27088" lat="59.8650055511" lon="11.4500166699">
		<tag k="name" v="Breidmåsane" />
		<tag k="natural" v="wetland" />
		<tag k="ssr:stedsnr" v="308684" />
	</node>
	<node id="-29135" lat="59.873663888" lon="11.467094441">
		<tag k="name" v="Knollsmåsan" />
		<tag k="natural" v="wetland" />
		<tag k="ssr:stedsnr" v="482390" />
	</node>
	<node id="-29134" lat="59.8893472216" lon="11.5048694408">
		<tag k="name" v="Burhosætermåsan" />
		<tag k="natural" v="wetland" />
		<tag k="ssr:stedsnr" v="482388" />
	</node>
	<node id="-31181" lat="59.9480638877" lon="11.6939833251">
		<tag k="name" v="Bekka" />
		<tag k="natural" v="wetland" />
		<tag k="ssr:stedsnr" v="950058" />
	</node>
	<node id="-31178" lat="59.9680722233" lon="11.4155750054">
		<tag k="name" v="Torvet" />
		<tag k="natural" v="wetland" />
		<tag k="ssr:stedsnr" v="950016" />
	</node>
	<node id="-29129" lat="59.8875861123" lon="11.3558861113">
		<tag k="name" v="Viggernesabbortjenn" />
		<tag k="natural" v="wetland" />
		<tag k="ssr:stedsnr" v="482248" />
	</node>
	<node id="-27078" lat="59.9401027744" lon="11.3877027828">
		<tag k="name" v="Store Jarsmåsan" />
		<tag k="natural" v="wetland" />
		<tag k="ssr:stedsnr" v="308518" />
	</node>
	<node id="-31173" lat="59.7122444487" lon="11.6855416726">
		<tag k="name" v="Østre Skarabolsætermåsan" />
		<tag k="natural" v="wetland" />
		<tag k="ssr:stedsnr" v="949854" />
	</node>
	<node id="-29122" lat="59.8091611116" lon="11.6575611041">
		<tag k="name" v="Kallemyr" />
		<tag k="natural" v="wetland" />
		<tag k="ssr:stedsnr" v="481523" />
	</node>
	<node id="-31168" lat="59.6940999978" lon="11.4861083265">
		<tag k="name" v="Rudskogen" />
		<tag k="place" v="locality" />
		<tag k="ssr:stedsnr" v="949152" />
	</node>
	<node id="-27067" lat="59.7727250002" lon="11.5399777707">
		<tag k="alt_name" v="Sameismyra" />
		<tag k="name" v="Sameiemyra" />
		<tag k="natural" v="wetland" />
		<tag k="ssr:stedsnr" v="308392" />
	</node>
	<node id="-31162" lat="59.733080557" lon="11.4332138943">
		<tag k="name" v="Holshagen" />
		<tag k="place" v="locality" />
		<tag k="ssr:stedsnr" v="933171" />
	</node>
	<node id="-29113" lat="59.89228333" lon="11.5133861066">
		<tag k="name" v="Runde mose" />
		<tag k="natural" v="wetland" />
		<tag k="ssr:stedsnr" v="480876" />
	</node>
	<node id="-29111" lat="59.7922999954" lon="11.9162194529">
		<tag k="name" v="Dammåsan" />
		<tag k="natural" v="wetland" />
		<tag k="ssr:stedsnr" v="480759" />
	</node>
	<node id="-26952" lat="59.8597583363" lon="11.7687722231">
		<tag k="name" v="Perlemyra" />
		<tag k="natural" v="wetland" />
		<tag k="ssr:stedsnr" v="301191" />
	</node>
	<node id="-29106" lat="59.8656833342" lon="11.4634499938">
		<tag k="name" v="Hesjemyrene" />
		<tag k="natural" v="wetland" />
		<tag k="ssr:stedsnr" v="480617" />
	</node>
	<node id="-29105" lat="59.8642388893" lon="11.4957111059">
		<tag k="name" v="Langmyra" />
		<tag k="natural" v="wetland" />
		<tag k="ssr:stedsnr" v="480611" />
	</node>
	<node id="-29102" lat="59.884616664" lon="11.6829805622">
		<tag k="name" v="Breisjømåsan" />
		<tag k="natural" v="wetland" />
		<tag k="ssr:stedsnr" v="480584" />
	</node>
	<node id="-29101" lat="59.8836749998" lon="11.6798305562">
		<tag k="name" v="Moltehølet" />
		<tag k="natural" v="wetland" />
		<tag k="ssr:stedsnr" v="480585" />
	</node>
	<node id="-31148" lat="59.9962138912" lon="11.5234888908">
		<tag k="name" v="Hattmyra" />
		<tag k="natural" v="wetland" />
		<tag k="ssr:stedsnr" v="915961" />
	</node>
	<node id="-29089" lat="60.0115972257" lon="11.8142361085">
		<tag k="name" v="Mortensmyr" />
		<tag k="natural" v="wetland" />
		<tag k="ssr:stedsnr" v="466909" />
	</node>
	<node id="-29088" lat="59.8451944448" lon="11.4829111176">
		<tag k="name" v="Jordmyra" />
		<tag k="natural" v="wetland" />
		<tag k="ssr:stedsnr" v="466865" />
	</node>
	<node id="-27131" lat="59.6965527782" lon="11.5115472225">
		<tag k="name" v="Stormåsan" />
		<tag k="natural" v="wetland" />
		<tag k="ssr:stedsnr" v="342143" />
	</node>
	<node id="-31133" lat="59.864905559" lon="11.4092111075">
		<tag k="name" v="Grønmyra" />
		<tag k="natural" v="wetland" />
		<tag k="ssr:stedsnr" v="915675" />
	</node>
	<node id="-29083" lat="59.9017611114" lon="11.5039444482">
		<tag k="name" v="Moltemyra" />
		<tag k="natural" v="wetland" />
		<tag k="ssr:stedsnr" v="466458" />
	</node>
	<node id="-29079" lat="59.9846111125" lon="11.4506638803">
		<tag k="name" v="Eftasmyra" />
		<tag k="natural" v="wetland" />
		<tag k="ssr:stedsnr" v="466372" />
	</node>
	<node id="-29075" lat="59.9135416691" lon="11.5641055604">
		<tag k="name" v="Bånnhølen" />
		<tag k="place" v="locality" />
		<tag k="ssr:stedsnr" v="466116" />
	</node>
	<node id="-31121" lat="59.8546527794" lon="11.8021333424">
		<tag k="name" v="Eikeheimyra" />
		<tag k="natural" v="wetland" />
		<tag k="ssr:stedsnr" v="915343" />
	</node>
	<node id="-29064" lat="59.8024166695" lon="11.4157361106">
		<tag k="name" v="Bjønnemyra" />
		<tag k="natural" v="wetland" />
		<tag k="ssr:stedsnr" v="465114" />
	</node>
	<node id="-31108" lat="59.8176499971" lon="11.7381777757">
		<tag k="name" v="Ufsemåsan" />
		<tag k="natural" v="wetland" />
		<tag k="ssr:stedsnr" v="915231" />
	</node>
	<node id="-29058" lat="59.9785027807" lon="11.4433111115">
		<tag k="name" v="Borstadmåsan" />
		<tag k="natural" v="wetland" />
		<tag k="ssr:stedsnr" v="465004" />
	</node>
	<node id="-28395" lat="59.9061638896" lon="11.7602777854">
		<tag k="name" v="Bestefarmåsan" />
		<tag k="natural" v="wetland" />
		<tag k="ssr:stedsnr" v="180436" />
	</node>
	<node id="-29056" lat="59.8676305593" lon="11.7485416721">
		<tag k="name" v="Harahøgdmåsan" />
		<tag k="natural" v="wetland" />
		<tag k="ssr:stedsnr" v="464873" />
	</node>
	<node id="-29055" lat="60.0089722206" lon="11.561480555">
		<tag k="historic" v="shieling" />
		<tag k="name" v="Gamlevangen" />
		<tag k="place" v="locality" />
		<tag k="ssr:stedsnr" v="464826" />
	</node>
	<node id="-29054" lat="59.7152027735" lon="11.4636666695">
		<tag k="name" v="Ulrikmyra" />
		<tag k="natural" v="wetland" />
		<tag k="ssr:stedsnr" v="464798" />
	</node>
	<node id="-29052" lat="59.9836666635" lon="11.6407944364">
		<tag k="name" v="Tyrihjellholtet" />
		<tag k="place" v="locality" />
		<tag k="ssr:stedsnr" v="464739" />
	</node>
	<node id="-29048" lat="59.9878694443" lon="11.6291527863">
		<tag k="name" v="Skavreinmyra" />
		<tag k="natural" v="wetland" />
		<tag k="ssr:stedsnr" v="464660" />
	</node>
	<node id="-26999" lat="59.9218861094" lon="11.6307277862">
		<tag k="name" v="Skavlivangen" />
		<tag k="place" v="locality" />
		<tag k="ssr:stedsnr" v="302629" />
	</node>
	<node id="-26998" lat="59.9361333344" lon="11.6276861049">
		<tag k="name" v="Holtemyr" />
		<tag k="natural" v="wetland" />
		<tag k="ssr:stedsnr" v="302610" />
	</node>
	<node id="-26995" lat="59.9358500033" lon="11.5828166682">
		<tag k="name" v="Badstumyra" />
		<tag k="natural" v="wetland" />
		<tag k="ssr:stedsnr" v="302581" />
	</node>
	<node id="-29041" lat="59.7381555538" lon="11.5312194381">
		<tag k="name" v="Eikmåsan" />
		<tag k="natural" v="wetland" />
		<tag k="ssr:stedsnr" v="464394" />
	</node>
	<node id="-26992" lat="59.9105027744" lon="11.4416916624">
		<tag k="name" v="Finholtmåsan" />
		<tag k="natural" v="wetland" />
		<tag k="ssr:stedsnr" v="302424" />
	</node>
	<node id="-29038" lat="59.9617694446" lon="11.5569555524">
		<tag k="name" v="Saumyra" />
		<tag k="natural" v="wetland" />
		<tag k="ssr:stedsnr" v="464130" />
	</node>
	<node id="-29035" lat="59.9671638845" lon="11.5405111184">
		<tag k="name" v="Morttjennmyra" />
		<tag k="natural" v="wetland" />
		<tag k="ssr:stedsnr" v="464013" />
	</node>
	<node id="-29033" lat="59.9972277806" lon="11.6432388959">
		<tag k="name" v="Lessemyra" />
		<tag k="natural" v="wetland" />
		<tag k="ssr:stedsnr" v="464722" />
	</node>
	<node id="-29032" lat="60.0001027771" lon="11.7366416605">
		<tag k="name" v="Tvelessmyra" />
		<tag k="natural" v="wetland" />
		<tag k="ssr:stedsnr" v="464717" />
	</node>
	<node id="-29031" lat="59.7581500006" lon="11.5388777757">
		<tag k="name" v="Hansemyrene" />
		<tag k="natural" v="wetland" />
		<tag k="ssr:stedsnr" v="449876" />
	</node>
	<node id="-29028" lat="59.6966361105" lon="11.3828166688">
		<tag k="name" v="Høgmåsan" />
		<tag k="natural" v="wetland" />
		<tag k="ssr:stedsnr" v="447195" />
	</node>
	<node id="-26975" lat="59.7346083297" lon="11.5469305533">
		<tag k="name" v="Søndre Skovreimyr" />
		<tag k="natural" v="wetland" />
		<tag k="ssr:stedsnr" v="301577" />
	</node>
	<node id="-26974" lat="59.7224916699" lon="11.6777888948">
		<tag k="name" v="Skjærtjennmåsan" />
		<tag k="natural" v="wetland" />
		<tag k="ssr:stedsnr" v="301567" />
	</node>
	<node id="-30427" lat="59.9840111108" lon="11.4852027743">
		<tag k="name" v="Nysæterbrenna" />
		<tag k="place" v="locality" />
		<tag k="ssr:stedsnr" v="769347" />
	</node>
	<node id="-26970" lat="59.8861027741" lon="11.8089722263">
		<tag k="name" v="Storemyr" />
		<tag k="natural" v="wetland" />
		<tag k="ssr:stedsnr" v="301501" />
	</node>
	<node id="-26968" lat="59.7488555544" lon="11.6083833337">
		<tag k="name" v="Fuglemåsan" />
		<tag k="natural" v="wetland" />
		<tag k="ssr:stedsnr" v="301446" />
	</node>
	<node id="-26967" lat="59.9007166635" lon="11.7694111141">
		<tag k="name" v="Sørlimyra" />
		<tag k="natural" v="wetland" />
		<tag k="ssr:stedsnr" v="301436" />
	</node>
	<node id="-31062" lat="59.8587972248" lon="11.8263361134">
		<tag k="alt_name" v="Gastemyrene" />
		<tag k="name" v="Gastemyra" />
		<tag k="natural" v="wetland" />
		<tag k="ssr:stedsnr" v="915151" />
	</node>
	<node id="-29013" lat="59.7887583328" lon="11.3372361174">
		<tag k="name" v="Tossemåsan" />
		<tag k="natural" v="wetland" />
		<tag k="ssr:stedsnr" v="430865" />
	</node>
	<node id="-29012" lat="59.7974861149" lon="11.4327083358">
		<tag k="name" v="Skattummåsan" />
		<tag k="natural" v="wetland" />
		<tag k="ssr:stedsnr" v="430818" />
	</node>
	<node id="-31048" lat="59.8332722234" lon="11.7274666694">
		<tag k="name" v="Haramyra" />
		<tag k="natural" v="wetland" />
		<tag k="ssr:stedsnr" v="909236" />
	</node>
	<node id="-26951" lat="59.8624472199" lon="11.720477769">
		<tag k="name" v="Torebrennmyra" />
		<tag k="natural" v="wetland" />
		<tag k="ssr:stedsnr" v="301187" />
	</node>
	<node id="-31046" lat="59.9718083314" lon="11.6532027842">
		<tag k="name" v="Bjønnmyra" />
		<tag k="natural" v="wetland" />
		<tag k="ssr:stedsnr" v="909186" />
	</node>
	<node id="-31043" lat="59.9682999963" lon="11.6898944464">
		<tag k="name" v="Gampemyra" />
		<tag k="natural" v="wetland" />
		<tag k="ssr:stedsnr" v="909171" />
	</node>
	<node id="-31042" lat="59.9604055542" lon="11.6573777713">
		<tag k="name" v="Fjerdingsmyra" />
		<tag k="natural" v="wetland" />
		<tag k="ssr:stedsnr" v="909167" />
	</node>
	<node id="-31040" lat="60.0026055524" lon="11.7550555559">
		<tag k="name" v="Hettismyra" />
		<tag k="natural" v="wetland" />
		<tag k="ssr:stedsnr" v="908951" />
	</node>
	<node id="-31037" lat="59.6504416663" lon="11.5848666602">
		<tag k="name" v="Eikemyr" />
		<tag k="natural" v="wetland" />
		<tag k="ssr:stedsnr" v="908701" />
	</node>
	<node id="-26940" lat="59.8953888887" lon="11.4253472141">
		<tag k="loc_name" v="Karusstjennmåsan" />
		<tag k="name" v="Karustjennmåsan" />
		<tag k="natural" v="wetland" />
		<tag k="ssr:stedsnr" v="57332" />
	</node>
	<node id="-31034" lat="59.7289666641" lon="11.569524996">
		<tag k="name" v="Fuglemåsan" />
		<tag k="natural" v="wetland" />
		<tag k="ssr:stedsnr" v="908655" />
	</node>
	<node id="-26936" lat="59.8891055581" lon="11.7441666647">
		<tag k="name" v="Urvassmåsan" />
		<tag k="natural" v="wetland" />
		<tag k="ssr:stedsnr" v="300680" />
	</node>
	<node id="-31029" lat="59.8122222226" lon="11.7878916698">
		<tag k="name" v="Ulvesundmyra" />
		<tag k="natural" v="wetland" />
		<tag k="ssr:stedsnr" v="908609" />
	</node>
	<node id="-31027" lat="59.6196194454" lon="11.5056027713">
		<tag k="name" v="Magnesmyrene" />
		<tag k="natural" v="wetland" />
		<tag k="ssr:stedsnr" v="908559" />
	</node>
	<node id="-26930" lat="59.8809027737" lon="11.4686500072">
		<tag k="name" v="Ekornmyr" />
		<tag k="natural" v="wetland" />
		<tag k="ssr:stedsnr" v="300401" />
	</node>
	<node id="-26929" lat="59.8790138875" lon="11.5125277781">
		<tag k="name" v="Riveskaftmyra" />
		<tag k="natural" v="wetland" />
		<tag k="ssr:stedsnr" v="300397" />
	</node>
	<node id="-26921" lat="59.8929944481" lon="11.3976388832">
		<tag k="name" v="Orremyrene" />
		<tag k="natural" v="wetland" />
		<tag k="ssr:stedsnr" v="300283" />
	</node>
	<node id="-28966" lat="59.8111277767" lon="11.3976194532">
		<tag k="fixme" v="multiple name tags, choose one and add the other to alt_name" />
		<tag k="name" v="Holtermåsan;Momåsan" />
		<tag k="natural" v="wetland" />
		<tag k="ssr:stedsnr" v="429780" />
	</node>
	<node id="-28963" lat="59.7424749997" lon="11.6798138955">
		<tag k="name" v="Stutemåsan" />
		<tag k="natural" v="wetland" />
		<tag k="ssr:stedsnr" v="429647" />
	</node>
	<node id="-28962" lat="59.8891694404" lon="11.3294888957">
		<tag k="name" v="Slorene" />
		<tag k="natural" v="wetland" />
		<tag k="ssr:stedsnr" v="429638" />
	</node>
	<node id="-31009" lat="59.8796888906" lon="11.4883277855">
		<tag k="name" v="Vassmåsan" />
		<tag k="natural" v="wetland" />
		<tag k="ssr:stedsnr" v="907352" />
	</node>
	<node id="-31008" lat="59.8854861076" lon="11.4742805615">
		<tag k="name" v="Vardemyrene" />
		<tag k="natural" v="wetland" />
		<tag k="ssr:stedsnr" v="907348" />
	</node>
	<node id="-31007" lat="59.8926361084" lon="11.40884167">
		<tag k="name" v="Hyttemyra" />
		<tag k="natural" v="wetland" />
		<tag k="ssr:stedsnr" v="907332" />
	</node>
	<node id="-28958" lat="59.7598916711" lon="11.5062611107">
		<tag k="name" v="Fuglemåsan" />
		<tag k="natural" v="wetland" />
		<tag k="ssr:stedsnr" v="429379" />
	</node>
	<node id="-31005" lat="59.6793666709" lon="11.6462388854">
		<tag k="name" v="Risenmyrene" />
		<tag k="natural" v="wetland" />
		<tag k="ssr:stedsnr" v="907313" />
	</node>
	<node id="-28956" lat="59.6852361154" lon="11.5987750059">
		<tag k="name" v="Kumyra" />
		<tag k="natural" v="wetland" />
		<tag k="ssr:stedsnr" v="429354" />
	</node>
	<node id="-28955" lat="59.6859749975" lon="11.527208326">
		<tag k="alt_name" v="Påvestadmåsan" />
		<tag k="name" v="Pavestadmåsan" />
		<tag k="natural" v="wetland" />
		<tag k="ssr:stedsnr" v="429351" />
	</node>
	<node id="-28954" lat="59.6837000024" lon="11.509466666">
		<tag k="name" v="Høgmåsan" />
		<tag k="natural" v="wetland" />
		<tag k="ssr:stedsnr" v="429350" />
	</node>
	<node id="-28952" lat="59.6903166688" lon="11.6570388877">
		<tag k="name" v="Lysermåsan" />
		<tag k="natural" v="wetland" />
		<tag k="ssr:stedsnr" v="429342" />
	</node>
	<node id="-26902" lat="59.8706027777" lon="11.5153416743">
		<tag k="name" v="Stutemyra" />
		<tag k="natural" v="wetland" />
		<tag k="ssr:stedsnr" v="298853" />
	</node>
	<node id="-26899" lat="59.9443083376" lon="11.6190916634">
		<tag k="name" v="Bjønnesteinen" />
		<tag k="natural" v="stone" />
		<tag k="ssr:stedsnr" v="298332" />
	</node>
	<node id="-30994" lat="59.8841083375" lon="11.5330388916">
		<tag k="name" v="Høgåsmyra" />
		<tag k="natural" v="wetland" />
		<tag k="ssr:stedsnr" v="906646" />
	</node>
	<node id="-30993" lat="59.8865305552" lon="11.523874995">
		<tag k="name" v="Kjerkeholta" />
		<tag k="place" v="locality" />
		<tag k="ssr:stedsnr" v="906621" />
	</node>
	<node id="-30992" lat="59.8885583345" lon="11.649866675">
		<tag k="name" v="Svartsætermyr" />
		<tag k="natural" v="wetland" />
		<tag k="ssr:stedsnr" v="906600" />
	</node>
	<node id="-28940" lat="59.8323638879" lon="11.6069388879">
		<tag k="alt_name" v="Graveren" />
		<tag k="name" v="Gravern" />
		<tag k="natural" v="wetland" />
		<tag k="ssr:stedsnr" v="429275" />
	</node>
	<node id="-26891" lat="59.8777638868" lon="11.7969027842">
		<tag k="name" v="Elgtjennsmåsan" />
		<tag k="natural" v="wetland" />
		<tag k="ssr:stedsnr" v="298056" />
	</node>
	<node id="-30983" lat="59.8686861142" lon="11.4642777854">
		<tag k="name" v="Mellomleiken" />
		<tag k="natural" v="wetland" />
		<tag k="ssr:stedsnr" v="905633" />
	</node>
	<node id="-30982" lat="59.8640138895" lon="11.471561108">
		<tag k="name" v="Steina" />
		<tag k="natural" v="stone" />
		<tag k="ssr:stedsnr" v="905618" />
	</node>
	<node id="-30981" lat="59.8869777739" lon="11.7587222232">
		<tag k="name" v="Bekkemyr" />
		<tag k="natural" v="wetland" />
		<tag k="ssr:stedsnr" v="905529" />
	</node>
	<node id="-30977" lat="60.0016222261" lon="11.7413416695">
		<tag k="name" v="Krokmyra" />
		<tag k="natural" v="wetland" />
		<tag k="ssr:stedsnr" v="905186" />
	</node>
	<node id="-28927" lat="59.8727694422" lon="11.7296305633">
		<tag k="name" v="Fagra" />
		<tag k="natural" v="wetland" />
		<tag k="ssr:stedsnr" v="429177" />
	</node>
	<node id="-28926" lat="59.8653111098" lon="11.8069333372">
		<tag k="name" v="Orremåsan" />
		<tag k="natural" v="wetland" />
		<tag k="ssr:stedsnr" v="429176" />
	</node>
	<node id="-30973" lat="60.0057194447" lon="11.6078583369">
		<tag k="name" v="Bergersætermyra" />
		<tag k="natural" v="wetland" />
		<tag k="ssr:stedsnr" v="905059" />
	</node>
	<node id="-30972" lat="60.0090166699" lon="11.6110222285">
		<tag k="name" v="Stokkholmsmyrene" />
		<tag k="natural" v="wetland" />
		<tag k="ssr:stedsnr" v="905058" />
	</node>
	<node id="-28923" lat="59.8757416667" lon="11.6966638853">
		<tag k="name" v="Myrdammen" />
		<tag k="natural" v="wetland" />
		<tag k="ssr:stedsnr" v="429154" />
	</node>
	<node id="-26871" lat="59.7720388887" lon="11.4924749954">
		<tag k="name" v="Neshagen" />
		<tag k="place" v="locality" />
		<tag k="ssr:stedsnr" v="285381" />
	</node>
	<node id="-28910" lat="59.7056888925" lon="11.5143749918">
		<tag k="fixme" v="multiple name tags, choose one and add the other to alt_name" />
		<tag k="name" v="Leirdalsmåsan;Nautemyra" />
		<tag k="natural" v="wetland" />
		<tag k="ssr:stedsnr" v="428294" />
	</node>
	<node id="-30957" lat="59.7179805588" lon="11.4276805548">
		<tag k="name" v="Hemneshagen" />
		<tag k="place" v="locality" />
		<tag k="ssr:stedsnr" v="872130" />
	</node>
	<node id="-28907" lat="59.8059083314" lon="11.8180388846">
		<tag k="name" v="Vesle Rekke" />
		<tag k="natural" v="wetland" />
		<tag k="ssr:stedsnr" v="423729" />
	</node>
	<node id="-28906" lat="59.6303444426" lon="11.5258111163">
		<tag k="name" v="Hestemyra" />
		<tag k="natural" v="wetland" />
		<tag k="ssr:stedsnr" v="423727" />
	</node>
	<node id="-27004" lat="59.6835111075" lon="11.6434916702">
		<tag k="name" v="Risemåsan" />
		<tag k="natural" v="wetland" />
		<tag k="ssr:stedsnr" v="307352" />
	</node>
	<node id="-28901" lat="59.7827833304" lon="11.728547216">
		<tag k="name" v="Kjøttbergmåsan" />
		<tag k="natural" v="wetland" />
		<tag k="ssr:stedsnr" v="423704" />
	</node>
	<node id="-26851" lat="59.7784277773" lon="11.3599444457">
		<tag k="name" v="Skogsbergmåsan" />
		<tag k="natural" v="wetland" />
		<tag k="ssr:stedsnr" v="283123" />
	</node>
	<node id="-26849" lat="59.9534361066" lon="11.6590055625">
		<tag k="name" v="Haneborgsteinen" />
		<tag k="natural" v="stone" />
		<tag k="ssr:stedsnr" v="283094" />
	</node>
	<node id="-30937" lat="59.7929777824" lon="11.8987249942">
		<tag k="name" v="Stallmåsan" />
		<tag k="natural" v="wetland" />
		<tag k="ssr:stedsnr" v="855148" />
	</node>
	<node id="-26836" lat="59.993372218" lon="11.6539805566">
		<tag k="name" v="Spettdalsmyra" />
		<tag k="natural" v="wetland" />
		<tag k="ssr:stedsnr" v="282694" />
	</node>
	<node id="-28883" lat="59.972083331" lon="11.5891694379">
		<tag k="name" v="Kroktjennmyra" />
		<tag k="natural" v="wetland" />
		<tag k="ssr:stedsnr" v="423141" />
	</node>
	<node id="-28882" lat="59.9672749986" lon="11.6283249999">
		<tag k="name" v="Folemyra" />
		<tag k="natural" v="wetland" />
		<tag k="ssr:stedsnr" v="423131" />
	</node>
	<node id="-28881" lat="59.9673305538" lon="11.5965055484">
		<tag k="name" v="Fotiltjennmyrene" />
		<tag k="natural" v="wetland" />
		<tag k="ssr:stedsnr" v="423100" />
	</node>
	<node id="-26832" lat="59.9933805593" lon="11.7384888942">
		<tag k="name" v="Hyttebråten" />
		<tag k="place" v="locality" />
		<tag k="ssr:stedsnr" v="282657" />
	</node>
	<node id="-26830" lat="59.98715" lon="11.5846083361">
		<tag k="name" v="Flaenshaugmyra" />
		<tag k="natural" v="wetland" />
		<tag k="ssr:stedsnr" v="282636" />
	</node>
	<node id="-30924" lat="59.9875361155" lon="11.7563499951">
		<tag k="name" v="Stormyra" />
		<tag k="natural" v="wetland" />
		<tag k="ssr:stedsnr" v="854942" />
	</node>
	<node id="-28873" lat="59.9325555567" lon="11.6344750062">
		<tag k="name" v="Åsmyra" />
		<tag k="natural" v="wetland" />
		<tag k="ssr:stedsnr" v="422747" />
	</node>
	<node id="-28872" lat="59.9223472218" lon="11.6971777829">
		<tag k="name" v="Åkermyra" />
		<tag k="natural" v="wetland" />
		<tag k="ssr:stedsnr" v="422739" />
	</node>
	<node id="-28870" lat="59.7388388891" lon="11.5498694519">
		<tag k="name" v="Dammyr" />
		<tag k="natural" v="wetland" />
		<tag k="ssr:stedsnr" v="422591" />
	</node>
	<node id="-28862" lat="59.6881749961" lon="11.4947500011">
		<tag k="name" v="Breimyr" />
		<tag k="natural" v="wetland" />
		<tag k="ssr:stedsnr" v="422287" />
	</node>
	<node id="-28861" lat="59.6843666649" lon="11.5056611028">
		<tag k="name" v="Haramyr" />
		<tag k="natural" v="wetland" />
		<tag k="ssr:stedsnr" v="422281" />
	</node>
	<node id="-28858" lat="59.7633277739" lon="11.6591527726">
		<tag k="name" v="Sætermåsan" />
		<tag k="natural" v="wetland" />
		<tag k="ssr:stedsnr" v="422078" />
	</node>
	<node id="-28857" lat="59.7594638932" lon="11.6541777793">
		<tag k="name" v="Søndre Sætermåsan" />
		<tag k="natural" v="wetland" />
		<tag k="ssr:stedsnr" v="422076" />
	</node>
	<node id="-28853" lat="59.8838888916" lon="11.7314888883">
		<tag k="landuse" v="quarry" />
		<tag k="name" v="Klebersteinsbruddet" />
		<tag k="ssr:stedsnr" v="421705" />
	</node>
	<node id="-28852" lat="59.8350666664" lon="11.3953277836">
		<tag k="name" v="Høymyr" />
		<tag k="natural" v="wetland" />
		<tag k="ssr:stedsnr" v="421630" />
	</node>
	<node id="-30899" lat="59.7514527797" lon="11.5312638904">
		<tag k="name" v="Breimåsan" />
		<tag k="natural" v="wetland" />
		<tag k="ssr:stedsnr" v="854360" />
	</node>
	<node id="-28843" lat="59.8187388903" lon="11.3301694441">
		<tag k="name" v="Kvitmåsan" />
		<tag k="natural" v="wetland" />
		<tag k="ssr:stedsnr" v="420751" />
	</node>
	<node id="-28842" lat="59.8099861115" lon="11.3292555555">
		<tag k="name" v="Fuglemåsan" />
		<tag k="natural" v="wetland" />
		<tag k="ssr:stedsnr" v="420728" />
	</node>
	<node id="-28837" lat="59.8763944482" lon="11.7132361086">
		<tag k="name" v="Tårnemåsan" />
		<tag k="natural" v="wetland" />
		<tag k="ssr:stedsnr" v="420600" />
	</node>
	<node id="-30884" lat="59.8136805546" lon="11.7699249974">
		<tag k="name" v="Høgmåsan" />
		<tag k="natural" v="wetland" />
		<tag k="ssr:stedsnr" v="854254" />
	</node>
	<node id="-28835" lat="59.7884777754" lon="11.441836116">
		<tag k="name" v="Morgenlimåsan" />
		<tag k="natural" v="wetland" />
		<tag k="ssr:stedsnr" v="419980" />
	</node>
	<node id="-30872" lat="59.8827416652" lon="11.7568499984">
		<tag k="alt_name" v="Keiserholta" />
		<tag k="name" v="Keiserholtene" />
		<tag k="place" v="locality" />
		<tag k="ssr:stedsnr" v="854190" />
	</node>
	<node id="-28823" lat="60.0034888883" lon="11.6965194525">
		<tag k="name" v="Haugermåsan" />
		<tag k="natural" v="wetland" />
		<tag k="ssr:stedsnr" v="419199" />
	</node>
	<node id="-28818" lat="60.0101055557" lon="11.6852694495">
		<tag k="name" v="Aurpyttmyr" />
		<tag k="natural" v="wetland" />
		<tag k="ssr:stedsnr" v="419073" />
	</node>
	<node id="-28355" lat="59.836486111" lon="11.384952781">
		<tag k="name" v="Bikkjemyrene" />
		<tag k="natural" v="wetland" />
		<tag k="ssr:stedsnr" v="178611" />
	</node>
	<node id="-27211" lat="59.7891611091" lon="11.8514027729">
		<tag k="name" v="Abbortjennmåsan" />
		<tag k="natural" v="wetland" />
		<tag k="ssr:stedsnr" v="358401" />
	</node>
	<node id="-28812" lat="59.7970027773" lon="11.4248638891">
		<tag k="name" v="Åsermåsan" />
		<tag k="natural" v="wetland" />
		<tag k="ssr:stedsnr" v="479983" />
	</node>
	<node id="-29378" lat="59.8881472228" lon="11.7096888925">
		<tag k="name" v="Brennevinsmyrholtet" />
		<tag k="place" v="locality" />
		<tag k="ssr:stedsnr" v="542664" />
	</node>
	<node id="-30848" lat="59.7962416623" lon="11.3635583347">
		<tag k="name" v="Kalvemyra" />
		<tag k="natural" v="wetland" />
		<tag k="ssr:stedsnr" v="848857" />
	</node>
	<node id="-30847" lat="59.781211108" lon="11.7269027734">
		<tag k="name" v="Revemyr" />
		<tag k="natural" v="wetland" />
		<tag k="ssr:stedsnr" v="848683" />
	</node>
	<node id="-28798" lat="59.8123361108" lon="11.6354444484">
		<tag k="fixme" v="multiple name tags, choose one and add the other to alt_name" />
		<tag k="name" v="Lyvemyra;Sætermåsan" />
		<tag k="natural" v="wetland" />
		<tag k="ssr:stedsnr" v="248268" />
	</node>
	<node id="-30843" lat="59.8987388869" lon="11.4579055504">
		<tag k="name" v="Sandvadmyra" />
		<tag k="natural" v="wetland" />
		<tag k="ssr:stedsnr" v="848524" />
	</node>
	<node id="-28794" lat="59.8037250003" lon="11.8527666681">
		<tag k="name" v="Veslemyra" />
		<tag k="natural" v="wetland" />
		<tag k="ssr:stedsnr" v="248149" />
	</node>
	<node id="-30840" lat="59.9471888865" lon="11.7951222253">
		<tag k="name" v="Boksemyra" />
		<tag k="natural" v="wetland" />
		<tag k="ssr:stedsnr" v="848399" />
	</node>
	<node id="-30838" lat="59.976550002" lon="11.6497111201">
		<tag k="name" v="Haukelundmyra" />
		<tag k="natural" v="wetland" />
		<tag k="ssr:stedsnr" v="848183" />
	</node>
	<node id="-30837" lat="59.958613893" lon="11.6530083357">
		<tag k="name" v="Svartlitjennmyra" />
		<tag k="natural" v="wetland" />
		<tag k="ssr:stedsnr" v="848163" />
	</node>
	<node id="-30836" lat="59.97679444" lon="11.5990194481">
		<tag k="name" v="Gråbeinmåsan" />
		<tag k="natural" v="wetland" />
		<tag k="ssr:stedsnr" v="848145" />
	</node>
	<node id="-30835" lat="59.9745805578" lon="11.6028805569">
		<tag k="name" v="Ilemyra" />
		<tag k="natural" v="wetland" />
		<tag k="ssr:stedsnr" v="848139" />
	</node>
	<node id="-26941" lat="59.8862416691" lon="11.4473472248">
		<tag k="name" v="Rudskiftet" />
		<tag k="place" v="locality" />
		<tag k="ssr:stedsnr" v="57340" />
	</node>
	<node id="-30824" lat="59.6510499983" lon="11.5403416718">
		<tag k="name" v="Breimåsan" />
		<tag k="natural" v="wetland" />
		<tag k="ssr:stedsnr" v="847688" />
	</node>
	<node id="-30821" lat="59.7316305512" lon="11.6030749963">
		<tag k="name" v="Høymyra" />
		<tag k="natural" v="wetland" />
		<tag k="ssr:stedsnr" v="847582" />
	</node>
	<node id="-30820" lat="59.6757194427" lon="11.5667055626">
		<tag k="name" v="Midtskiftet" />
		<tag k="place" v="locality" />
		<tag k="ssr:stedsnr" v="847453" />
	</node>
	<node id="-28762" lat="59.8037638866" lon="11.6427194396">
		<tag k="alt_name" v="Fossmyr, store" />
		<tag k="name" v="Store Fossmyr" />
		<tag k="natural" v="wetland" />
		<tag k="ssr:stedsnr" v="247461" />
	</node>
	<node id="-30806" lat="59.9178888854" lon="11.6973888935">
		<tag k="name" v="Elgtjennmåsan" />
		<tag k="natural" v="wetland" />
		<tag k="ssr:stedsnr" v="846692" />
	</node>
	<node id="-30802" lat="59.8467222255" lon="11.3793138818">
		<tag k="name" v="Svarttjenn" />
		<tag k="natural" v="wetland" />
		<tag k="ssr:stedsnr" v="846608" />
	</node>
	<node id="-28344" lat="59.8850555516" lon="11.5648583341">
		<tag k="name" v="Bliksrudmåsan" />
		<tag k="natural" v="wetland" />
		<tag k="ssr:stedsnr" v="177657" />
	</node>
	<node id="-28747" lat="59.7011416649" lon="11.5069305471">
		<tag k="name" v="Bekkemåsan" />
		<tag k="natural" v="wetland" />
		<tag k="ssr:stedsnr" v="247307" />
	</node>
	<node id="-30792" lat="59.8767277743" lon="11.5141055528">
		<tag k="name" v="Rudsmåsan" />
		<tag k="natural" v="wetland" />
		<tag k="ssr:stedsnr" v="846358" />
	</node>
	<node id="-30791" lat="59.8884472244" lon="11.4207472146">
		<tag k="name" v="Rundhamn" />
		<tag k="place" v="locality" />
		<tag k="ssr:stedsnr" v="846233" />
	</node>
	<node id="-30787" lat="59.8820194417" lon="11.5556166616">
		<tag k="name" v="Vollamyra" />
		<tag k="natural" v="wetland" />
		<tag k="ssr:stedsnr" v="845917" />
	</node>
	<node id="-30786" lat="59.8195222239" lon="11.3096749917">
		<tag k="name" v="Øvre Andersmåsan" />
		<tag k="natural" v="wetland" />
		<tag k="ssr:stedsnr" v="845772" />
	</node>
	<node id="-30785" lat="59.8162999961" lon="11.3069194474">
		<tag k="name" v="Mellom-Andersmåsan" />
		<tag k="natural" v="wetland" />
		<tag k="ssr:stedsnr" v="845769" />
	</node>
	<node id="-30784" lat="59.7899388875" lon="11.7283472156">
		<tag k="name" v="Holemyrene" />
		<tag k="natural" v="wetland" />
		<tag k="ssr:stedsnr" v="845738" />
	</node>
	<node id="-30782" lat="59.8853138886" lon="11.5249805571">
		<tag k="name" v="Spjutmyra" />
		<tag k="natural" v="wetland" />
		<tag k="ssr:stedsnr" v="845674" />
	</node>
	<node id="-30776" lat="59.8736388876" lon="11.7305583287">
		<tag k="alt_name" v="Fagrene" />
		<tag k="name" v="Fagerne" />
		<tag k="natural" v="wetland" />
		<tag k="ssr:stedsnr" v="845608" />
	</node>
	<node id="-30775" lat="59.9337834171" lon="11.6429370341">
		<tag k="name" v="Fittsprettmyra" />
		<tag k="natural" v="wetland" />
		<tag k="ssr:stedsnr" v="845392" />
	</node>
	<node id="-30771" lat="59.9437750007" lon="11.6006416737">
		<tag k="name" v="Hyttemåsan" />
		<tag k="natural" v="wetland" />
		<tag k="ssr:stedsnr" v="845361" />
	</node>
	<node id="-30770" lat="59.9584083293" lon="11.5543138927">
		<tag k="name" v="Småmyrene" />
		<tag k="natural" v="wetland" />
		<tag k="ssr:stedsnr" v="845331" />
	</node>
	<node id="-30766" lat="59.9523694463" lon="11.5865916627">
		<tag k="name" v="Hattmyrholen" />
		<tag k="place" v="locality" />
		<tag k="ssr:stedsnr" v="845250" />
	</node>
	<node id="-30760" lat="59.8673277757" lon="11.4825083249">
		<tag k="name" v="Sætermyra" />
		<tag k="natural" v="wetland" />
		<tag k="ssr:stedsnr" v="844883" />
	</node>
	<node id="-30758" lat="60.0089666638" lon="11.7155916646">
		<tag k="name" v="Tjennsmyra" />
		<tag k="natural" v="wetland" />
		<tag k="ssr:stedsnr" v="844185" />
	</node>
	<node id="-30745" lat="59.8122722221" lon="11.8793527853">
		<tag k="name" v="Heimåsan" />
		<tag k="natural" v="wetland" />
		<tag k="ssr:stedsnr" v="831830" />
	</node>
	<node id="-28696" lat="59.7925638853" lon="11.368144449">
		<tag k="name" v="Leggmyra" />
		<tag k="natural" v="wetland" />
		<tag k="ssr:stedsnr" v="241875" />
	</node>
	<node id="-28695" lat="59.8708722205" lon="11.3641722251">
		<tag k="name" v="Sætermyra" />
		<tag k="natural" v="wetland" />
		<tag k="ssr:stedsnr" v="241720" />
	</node>
	<node id="-28694" lat="59.7922805548" lon="11.3312833266">
		<tag k="name" v="Meitetjenn" />
		<tag k="natural" v="wetland" />
		<tag k="ssr:stedsnr" v="241686" />
	</node>
	<node id="-28690" lat="59.9047083325" lon="11.427063893">
		<tag k="name" v="Gråmåsan" />
		<tag k="natural" v="wetland" />
		<tag k="ssr:stedsnr" v="241490" />
	</node>
	<node id="-28689" lat="59.807405555" lon="11.7610027765">
		<tag k="name" v="Droplemåsan" />
		<tag k="natural" v="wetland" />
		<tag k="ssr:stedsnr" v="241556" />
	</node>
	<node id="-30732" lat="59.8482388908" lon="11.7637444452">
		<tag k="name" v="Gammelsæterholta" />
		<tag k="place" v="locality" />
		<tag k="ssr:stedsnr" v="831239" />
	</node>
	<node id="-28682" lat="59.9677555574" lon="11.7687194432">
		<tag k="name" v="Manghagan" />
		<tag k="place" v="locality" />
		<tag k="ssr:stedsnr" v="241349" />
	</node>
	<node id="-30723" lat="59.9768888931" lon="11.736158336">
		<tag k="name" v="Lekkergåsmyra" />
		<tag k="natural" v="wetland" />
		<tag k="ssr:stedsnr" v="830335" />
	</node>
</osm>
