<?xml version="1.0" encoding="UTF-8"?>
<osm generator="osmapis" version="0.6">
	<node id="-31230" lat="59.7279166706" lon="11.5887861153">
		<tag k="bridge" v="yes" />
		<tag k="layer" v="1" />
		<tag k="name" v="Holm" />
		<tag k="ssr:stedsnr" v="956072" />
	</node>
	<node id="-31229" lat="59.8740305562" lon="11.6450138931">
		<tag k="bridge" v="yes" />
		<tag k="layer" v="1" />
		<tag k="name" v="Setta" />
		<tag k="ssr:stedsnr" v="956067" />
	</node>
	<node id="-31228" lat="59.7228666654" lon="11.4659583349">
		<tag k="bridge" v="yes" />
		<tag k="layer" v="1" />
		<tag k="name" v="Svendsen" />
		<tag k="ssr:stedsnr" v="956059" />
	</node>
	<node id="-30201" lat="59.9409305525" lon="11.4319694526">
		<tag k="junction" v="yes" />
		<tag k="name" v="Finstadbru" />
		<tag k="place" v="locality" />
		<tag k="ssr:stedsnr" v="725264" />
	</node>
	<node id="-30705" lat="59.9897055573" lon="11.5889694437">
		<tag k="ford" v="yes" />
		<tag k="name" v="Hestevadet" />
		<tag k="place" v="locality" />
		<tag k="ssr:stedsnr" v="829696" />
	</node>
	<node id="-28655" lat="59.8452250033" lon="11.3904527813">
		<tag k="highway" v="path" />
		<tag k="name" v="Maristien" />
		<tag k="ssr:stedsnr" v="239680" />
	</node>
	<node id="-29676" lat="59.9260027764" lon="11.7343444472">
		<tag k="highway" v="path" />
		<tag k="name" v="Sydskogvegen" />
		<tag k="ssr:stedsnr" v="604372" />
	</node>
	<node id="-28127" lat="59.6694444432" lon="11.5284861065">
		<tag k="bridge" v="yes" />
		<tag k="layer" v="1" />
		<tag k="name" v="Kloppene" />
		<tag k="ssr:stedsnr" v="119664" />
	</node>
	<node id="-30685" lat="59.9628138917" lon="11.4901722197">
		<tag k="bridge" v="yes" />
		<tag k="layer" v="1" />
		<tag k="name" v="Svensjøbrua" />
		<tag k="ssr:stedsnr" v="829033" />
	</node>
	<node id="-28068" lat="59.9485055552" lon="11.6121888955">
		<tag k="highway" v="path" />
		<tag k="name" v="Svingbakken" />
		<tag k="ssr:stedsnr" v="116325" />
	</node>
	<node id="-30163" lat="59.8340499993" lon="11.7202250037">
		<tag k="bridge" v="yes" />
		<tag k="layer" v="1" />
		<tag k="name" v="Kinnestad" />
		<tag k="ssr:stedsnr" v="713060" />
	</node>
	<node id="-30162" lat="59.8361083305" lon="11.3631277782">
		<tag k="bridge" v="yes" />
		<tag k="layer" v="1" />
		<tag k="name" v="Halvorsrud" />
		<tag k="ssr:stedsnr" v="713053" />
	</node>
	<node id="-29638" lat="59.8131638888" lon="11.6943388926">
		<tag k="man_made" v="quay" />
		<tag k="name" v="Gjensted" />
		<tag k="place" v="locality" />
		<tag k="ssr:stedsnr" v="602466" />
	</node>
	<node id="-28609" lat="59.9270444426" lon="11.4943249922">
		<tag k="bridge" v="yes" />
		<tag k="layer" v="1" />
		<tag k="loc_name" v="Brubakkbrua" />
		<tag k="name" v="Brubekk" />
		<tag k="ssr:stedsnr" v="228076" />
	</node>
	<node id="-28608" lat="59.7883416655" lon="11.4062277856">
		<tag k="bridge" v="yes" />
		<tag k="layer" v="1" />
		<tag k="name" v="Solberg" />
		<tag k="ssr:stedsnr" v="228057" />
	</node>
	<node id="-28607" lat="59.7685555568" lon="11.4854333336">
		<tag k="bridge" v="yes" />
		<tag k="layer" v="1" />
		<tag k="name" v="Nes" />
		<tag k="ssr:stedsnr" v="228058" />
	</node>
	<node id="-29624" lat="59.8634388899" lon="11.4796805566">
		<tag k="name" v="Pavestadvelta" />
		<tag k="place" v="locality" />
		<tag k="ssr:stedsnr" v="601584" />
	</node>
	<node id="-29622" lat="59.8789916628" lon="11.6024388815">
		<tag k="bridge" v="yes" />
		<tag k="layer" v="1" />
		<tag k="name" v="Februa" />
		<tag k="ssr:stedsnr" v="601581" />
	</node>
	<node id="-28591" lat="59.9082500028" lon="11.507136107">
		<tag k="highway" v="path" />
		<tag k="name" v="Sætervegen" />
		<tag k="ssr:stedsnr" v="223454" />
	</node>
	<node id="-29101" lat="59.8870000019" lon="11.5609333376">
		<tag k="junction" v="yes" />
		<tag k="name" v="Bliksrud" />
		<tag k="place" v="locality" />
		<tag k="ssr:stedsnr" v="480637" />
	</node>
	<node id="-29606" lat="59.9314333356" lon="11.4569138839">
		<tag k="bridge" v="yes" />
		<tag k="layer" v="1" />
		<tag k="name" v="Lund" />
		<tag k="ssr:stedsnr" v="592063" />
	</node>
	<node id="-30116" lat="59.92228611" lon="11.5016999983">
		<tag k="alt_name" v="Steinvaet" />
		<tag k="ford" v="yes" />
		<tag k="name" v="Steinvadet" />
		<tag k="place" v="locality" />
		<tag k="ssr:stedsnr" v="707627" />
	</node>
	<node id="-29089" lat="59.9335388911" lon="11.4466250011">
		<tag k="bridge" v="yes" />
		<tag k="layer" v="1" />
		<tag k="name" v="Finstad" />
		<tag k="ssr:stedsnr" v="471074" />
	</node>
	<node id="-29088" lat="59.9650333333" lon="11.6195861067">
		<tag k="bridge" v="yes" />
		<tag k="layer" v="1" />
		<tag k="name" v="Kvisla" />
		<tag k="ssr:stedsnr" v="471066" />
	</node>
	<node id="-29087" lat="59.891413889" lon="11.816630561">
		<tag k="bridge" v="yes" />
		<tag k="layer" v="1" />
		<tag k="name" v="Vangen" />
		<tag k="ssr:stedsnr" v="471049" />
	</node>
	<node id="-28061" lat="59.7934388865" lon="11.4799222307">
		<tag k="bridge" v="yes" />
		<tag k="layer" v="1" />
		<tag k="loc_name" v="Naddbrua" />
		<tag k="name" v="Nadden" />
		<tag k="ssr:stedsnr" v="107053" />
	</node>
	<node id="-28060" lat="59.9196861149" lon="11.5325694449">
		<tag k="bridge" v="yes" />
		<tag k="layer" v="1" />
		<tag k="name" v="Våler" />
		<tag k="ssr:stedsnr" v="107045" />
	</node>
	<node id="-28314" lat="59.7865833317" lon="11.7521833274">
		<tag k="bridge" v="yes" />
		<tag k="layer" v="1" />
		<tag k="name" v="Hauketjern" />
		<tag k="ssr:stedsnr" v="167053" />
	</node>
	<node id="-28313" lat="59.9841972194" lon="11.7144249908">
		<tag k="bridge" v="yes" />
		<tag k="layer" v="1" />
		<tag k="name" v="Ovlien" />
		<tag k="ssr:stedsnr" v="167049" />
	</node>
	<node id="-30096" lat="59.70685278" lon="11.6170444432">
		<tag k="junction" v="yes" />
		<tag k="name" v="Kølabonnkrysset" />
		<tag k="place" v="locality" />
		<tag k="ssr:stedsnr" v="706799" />
	</node>
	<node id="-29336" lat="59.9196500029" lon="11.5651527797">
		<tag k="bridge" v="yes" />
		<tag k="layer" v="1" />
		<tag k="name" v="Høgbrua" />
		<tag k="ssr:stedsnr" v="531052" />
	</node>
	<node id="-27534" lat="59.9471472192" lon="11.5010861069">
		<tag k="bridge" v="yes" />
		<tag k="layer" v="1" />
		<tag k="name" v="Åsnes" />
		<tag k="ssr:stedsnr" v="896037" />
	</node>
	<node id="-30093" lat="59.7120250019" lon="11.5808861162">
		<tag k="fixme" v="verify maritime location" />
		<tag k="mooring" v="yes" />
		<tag k="name" v="Båtstø" />
		<tag k="place" v="locality" />
		<tag k="ssr:stedsnr" v="706749" />
	</node>
	<node id="-29335" lat="59.7528138901" lon="11.3680444427">
		<tag k="bridge" v="yes" />
		<tag k="layer" v="1" />
		<tag k="name" v="Grorud" />
		<tag k="ssr:stedsnr" v="531047" />
	</node>
	<node id="-29063" lat="59.9334222263" lon="11.4391527812">
		<tag k="junction" v="yes" />
		<tag k="name" v="Finstad" />
		<tag k="place" v="locality" />
		<tag k="ssr:stedsnr" v="465965" />
	</node>
	<node id="-28031" lat="59.8436833344" lon="11.7542777709">
		<tag k="highway" v="path" />
		<tag k="name" v="Fjellvegen" />
		<tag k="ssr:stedsnr" v="102282" />
	</node>
	<node id="-28027" lat="59.9870722219" lon="11.764022217">
		<tag k="highway" v="path" />
		<tag k="name" v="Stormyrvegen" />
		<tag k="ssr:stedsnr" v="101974" />
	</node>
	<node id="-28014" lat="59.9351027795" lon="11.5587694378">
		<tag k="alt_name" v="Nautbrua" />
		<tag k="bridge" v="yes" />
		<tag k="layer" v="1" />
		<tag k="name" v="Nordby" />
		<tag k="ssr:stedsnr" v="101058" />
	</node>
	<node id="-30047" lat="59.8529250038" lon="11.7394166591">
		<tag k="alt_name" v="Soot" />
		<tag k="bridge" v="yes" />
		<tag k="layer" v="1" />
		<tag k="name" v="Sootbrua" />
		<tag k="ssr:stedsnr" v="672332" />
	</node>
	<node id="-27998" lat="59.9825944441" lon="11.6233194468">
		<tag k="highway" v="path" />
		<tag k="name" v="Barbrua" />
		<tag k="ssr:stedsnr" v="100630" />
	</node>
	<node id="-27535" lat="59.7132999985" lon="11.5549444484">
		<tag k="bridge" v="yes" />
		<tag k="layer" v="1" />
		<tag k="name" v="Verket" />
		<tag k="ssr:stedsnr" v="896039" />
	</node>
	<node id="-26950" lat="59.9226111071" lon="11.7885972169">
		<tag k="alt_name" v="Gravdalsvaet" />
		<tag k="ford" v="yes" />
		<tag k="name" v="Gravdalsvadet" />
		<tag k="place" v="locality" />
		<tag k="ssr:stedsnr" v="301412" />
	</node>
	<node id="-27453" lat="59.9178944459" lon="11.5028444409">
		<tag k="bridge" v="yes" />
		<tag k="layer" v="1" />
		<tag k="name" v="Aurskog meieri" />
		<tag k="ssr:stedsnr" v="410064" />
	</node>
	<node id="-27452" lat="59.7891972247" lon="11.4652500084">
		<tag k="bridge" v="yes" />
		<tag k="layer" v="1" />
		<tag k="name" v="Løkkeberg" />
		<tag k="ssr:stedsnr" v="410050" />
	</node>
	<node id="-27451" lat="59.7927416624" lon="11.4840444469">
		<tag k="bridge" v="yes" />
		<tag k="layer" v="1" />
		<tag k="name" v="Naddum" />
		<tag k="ssr:stedsnr" v="410051" />
	</node>
	<node id="-27450" lat="59.6944055551" lon="11.5290083358">
		<tag k="bridge" v="yes" />
		<tag k="layer" v="1" />
		<tag k="name" v="Pavestad" />
		<tag k="ssr:stedsnr" v="410049" />
	</node>
	<node id="-27449" lat="59.9223444428" lon="11.4578138864">
		<tag k="bridge" v="yes" />
		<tag k="layer" v="1" />
		<tag k="name" v="Riiser" />
		<tag k="ssr:stedsnr" v="410045" />
	</node>
	<node id="-31027" lat="59.6684861143" lon="11.5143138934">
		<tag k="highway" v="path" />
		<tag k="name" v="Smørkleiv" />
		<tag k="ssr:stedsnr" v="908678" />
	</node>
	<node id="-28462" lat="59.7431638881" lon="11.6579749949">
		<tag k="ford" v="yes" />
		<tag k="name" v="Vadet" />
		<tag k="place" v="locality" />
		<tag k="ssr:stedsnr" v="186703" />
	</node>
	<node id="-27101" lat="59.7194000005" lon="11.4328611065">
		<tag k="junction" v="yes" />
		<tag k="name" v="Torper" />
		<tag k="place" v="locality" />
		<tag k="ssr:stedsnr" v="326117" />
	</node>
	<node id="-29575" lat="59.9287527776" lon="11.5464305603">
		<tag k="junction" v="yes" />
		<tag k="name" v="Nordby" />
		<tag k="place" v="locality" />
		<tag k="ssr:stedsnr" v="586605" />
	</node>
	<node id="-30501" lat="59.8166833311" lon="11.7033472259">
		<tag k="man_made" v="quay" />
		<tag k="name" v="Lolykkja" />
		<tag k="place" v="locality" />
		<tag k="ssr:stedsnr" v="785706" />
	</node>
	<node id="-31012" lat="59.9413027782" lon="11.8078416587">
		<tag k="junction" v="yes" />
		<tag k="name" v="Øysetvegskillet" />
		<tag k="place" v="locality" />
		<tag k="ssr:stedsnr" v="908413" />
	</node>
	<node id="-27400" lat="59.7063555547" lon="11.5353249977">
		<tag k="junction" v="yes" />
		<tag k="name" v="Skogheim" />
		<tag k="place" v="locality" />
		<tag k="ssr:stedsnr" v="403773" />
	</node>
	<node id="-26878" lat="59.8842916685" lon="11.580983336">
		<tag k="bridge" v="yes" />
		<tag k="layer" v="1" />
		<tag k="name" v="Eidsbekken" />
		<tag k="ssr:stedsnr" v="289065" />
	</node>
	<node id="-26877" lat="59.7822611067" lon="11.7814083417">
		<tag k="bridge" v="yes" />
		<tag k="layer" v="1" />
		<tag k="name" v="Mortegropa" />
		<tag k="ssr:stedsnr" v="289050" />
	</node>
	<node id="-26876" lat="59.9289472202" lon="11.6982111102">
		<tag k="bridge" v="yes" />
		<tag k="layer" v="1" />
		<tag k="name" v="Garsjø" />
		<tag k="ssr:stedsnr" v="289051" />
	</node>
	<node id="-27519" lat="59.9068333344" lon="11.5139694522">
		<tag k="highway" v="path" />
		<tag k="name" v="Kongevegen" />
		<tag k="ssr:stedsnr" v="891453" />
	</node>
	<node id="-30967" lat="59.8198249984" lon="11.4866083389">
		<tag k="junction" v="yes" />
		<tag k="name" v="Fosser" />
		<tag k="place" v="locality" />
		<tag k="ssr:stedsnr" v="905152" />
	</node>
	<node id="-29139" lat="59.6285388929" lon="11.5160250079">
		<tag k="junction" v="yes" />
		<tag k="name" v="Ydersbotn" />
		<tag k="place" v="locality" />
		<tag k="ssr:stedsnr" v="483304" />
	</node>
	<node id="-30448" lat="59.9286944414" lon="11.4636722206">
		<tag k="bridge" v="yes" />
		<tag k="layer" v="1" />
		<tag k="name" v="Aurskog vest" />
		<tag k="ssr:stedsnr" v="774073" />
	</node>
	<node id="-30447" lat="59.7258722253" lon="11.4200222278">
		<tag k="bridge" v="yes" />
		<tag k="layer" v="1" />
		<tag k="name" v="Hemnes" />
		<tag k="ssr:stedsnr" v="774066" />
	</node>
	<node id="-30446" lat="59.7954611106" lon="11.7105722134">
		<tag k="bridge" v="yes" />
		<tag k="layer" v="1" />
		<tag k="name" v="Hestesund" />
		<tag k="ssr:stedsnr" v="774063" />
	</node>
	<node id="-30445" lat="59.8694694657" lon="11.5655754654">
		<tag k="alt_name" v="Skrepstad" />
		<tag k="bridge" v="yes" />
		<tag k="layer" v="1" />
		<tag k="name" v="Skrepstad bru" />
		<tag k="ssr:stedsnr" v="774054" />
	</node>
	<node id="-30444" lat="59.7772694442" lon="11.4940527749">
		<tag k="alt_name" v="Tøien" />
		<tag k="bridge" v="yes" />
		<tag k="layer" v="1" />
		<tag k="name" v="Tøyen" />
		<tag k="ssr:stedsnr" v="774052" />
	</node>
	<node id="-26852" lat="59.9290527781" lon="11.4183722254">
		<tag k="junction" v="yes" />
		<tag k="name" v="Stubbjarbotnen" />
		<tag k="place" v="locality" />
		<tag k="ssr:stedsnr" v="283970" />
	</node>
	<node id="-26849" lat="59.9186310182" lon="11.5317241199">
		<tag k="junction" v="yes" />
		<tag k="name" v="Lierfoss" />
		<tag k="place" v="locality" />
		<tag k="ssr:stedsnr" v="283604" />
	</node>
	<node id="-29915" lat="59.8909694419" lon="11.6236166625">
		<tag k="highway" v="path" />
		<tag k="name" v="Grautkleivene" />
		<tag k="ssr:stedsnr" v="662596" />
	</node>
	<node id="-27866" lat="59.8444222251" lon="11.7178805486">
		<tag k="junction" v="yes" />
		<tag k="name" v="Tangen" />
		<tag k="place" v="locality" />
		<tag k="ssr:stedsnr" v="59189" />
	</node>
	<node id="-29903" lat="59.7476166626" lon="11.4359138937">
		<tag k="bridge" v="yes" />
		<tag k="layer" v="1" />
		<tag k="name" v="Holsjarn" />
		<tag k="ssr:stedsnr" v="652054" />
	</node>
	<node id="-29902" lat="59.9079111126" lon="11.5809861126">
		<tag k="bridge" v="yes" />
		<tag k="layer" v="1" />
		<tag k="name" v="Østre Stein" />
		<tag k="ssr:stedsnr" v="652035" />
	</node>
	<node id="-30409" lat="59.9252833306" lon="11.5399916586">
		<tag k="junction" v="yes" />
		<tag k="name" v="Våler" />
		<tag k="place" v="locality" />
		<tag k="ssr:stedsnr" v="768609" />
	</node>
	<node id="-29373" lat="59.9503999989" lon="11.3900388927">
		<tag k="junction" v="yes" />
		<tag k="name" v="Verket" />
		<tag k="place" v="locality" />
		<tag k="ssr:stedsnr" v="543287" />
	</node>
	<node id="-27833" lat="59.9281666679" lon="11.6775666676">
		<tag k="highway" v="path" />
		<tag k="name" v="Lensmannskleiva" />
		<tag k="ssr:stedsnr" v="57747" />
	</node>
	<node id="-28344" lat="59.8902249995" lon="11.3864472221">
		<tag k="bridge" v="yes" />
		<tag k="layer" v="1" />
		<tag k="name" v="Tverrtjennbruene" />
		<tag k="ssr:stedsnr" v="178254" />
	</node>
	<node id="-28337" lat="59.8789277818" lon="11.5630638973">
		<tag k="junction" v="yes" />
		<tag k="name" v="Trandumsvingen" />
		<tag k="place" v="locality" />
		<tag k="ssr:stedsnr" v="177634" />
	</node>
	<node id="-28614" lat="59.8188972183" lon="11.521788897">
		<tag k="junction" v="yes" />
		<tag k="name" v="Øsken" />
		<tag k="place" v="locality" />
		<tag k="ssr:stedsnr" v="237135" />
	</node>
	<node id="-29863" lat="59.9334444411" lon="11.3971777809">
		<tag k="junction" v="yes" />
		<tag k="name" v="Korsmo" />
		<tag k="place" v="locality" />
		<tag k="ssr:stedsnr" v="646966" />
	</node>
	<node id="-29349" lat="59.8834555543" lon="11.7924472177">
		<tag k="bridge" v="yes" />
		<tag k="layer" v="1" />
		<tag k="name" v="Jordbrua" />
		<tag k="ssr:stedsnr" v="541015" />
	</node>
	<node id="-27812" lat="59.808747224" lon="11.6691555623">
		<tag k="highway" v="path" />
		<tag k="name" v="Fjellvegen" />
		<tag k="ssr:stedsnr" v="57469" />
	</node>
	<node id="-30371" lat="59.7460833349" lon="11.4358027865">
		<tag k="junction" v="yes" />
		<tag k="name" v="Holsjaren" />
		<tag k="place" v="locality" />
		<tag k="ssr:stedsnr" v="750120" />
	</node>
	<node id="-28315" lat="59.9406944484" lon="11.5712305578">
		<tag k="bridge" v="yes" />
		<tag k="layer" v="1" />
		<tag k="name" v="Børtnes" />
		<tag k="ssr:stedsnr" v="167066" />
	</node>
	<node id="-29338" lat="59.8066333361" lon="11.3770833379">
		<tag k="bridge" v="yes" />
		<tag k="layer" v="1" />
		<tag k="name" v="Foss" />
		<tag k="ssr:stedsnr" v="531063" />
	</node>
	<node id="-29337" lat="59.7202444445" lon="11.4921611073">
		<tag k="bridge" v="yes" />
		<tag k="layer" v="1" />
		<tag k="name" v="Bergsjø" />
		<tag k="ssr:stedsnr" v="531060" />
	</node>
	<node id="-28312" lat="59.8030166646" lon="11.4404500075">
		<tag k="bridge" v="yes" />
		<tag k="layer" v="1" />
		<tag k="name" v="Skattum" />
		<tag k="ssr:stedsnr" v="167046" />
	</node>
	<node id="-28311" lat="59.8324055559" lon="11.3559972157">
		<tag k="bridge" v="yes" />
		<tag k="layer" v="1" />
		<tag k="name" v="Åmotneset" />
		<tag k="old_name" v="Aamodtneset" />
		<tag k="ssr:stedsnr" v="167042" />
	</node>
	<node id="-29832" lat="59.9482250012" lon="11.6474500016">
		<tag k="highway" v="path" />
		<tag k="name" v="Køddebakken" />
		<tag k="ssr:stedsnr" v="646095" />
	</node>
	<node id="-27783" lat="59.9395722231" lon="11.4350694459">
		<tag k="bridge" v="yes" />
		<tag k="layer" v="1" />
		<tag k="name" v="Finstad" />
		<tag k="ssr:stedsnr" v="46070" />
	</node>
	<node id="-27270" lat="59.8502472204" lon="11.5807138971">
		<tag k="junction" v="yes" />
		<tag k="name" v="Lang" />
		<tag k="place" v="locality" />
		<tag k="ssr:stedsnr" v="362278" />
	</node>
	<node id="-27265" lat="59.9757916682" lon="11.6103222152">
		<tag k="fixme" v="consider highway=path" />
		<tag k="highway" v="track" />
		<tag k="name" v="Firhørningsvegen" />
		<tag k="ssr:stedsnr" v="362137" />
	</node>
	<node id="-30143" lat="59.8963361103" lon="11.4944527707">
		<tag k="highway" v="path" />
		<tag k="name" v="Kukleiva" />
		<tag k="ssr:stedsnr" v="709436" />
	</node>
	<node id="-27241" lat="59.7868333359" lon="11.4911194397">
		<tag k="junction" v="yes" />
		<tag k="name" v="Sandum" />
		<tag k="place" v="locality" />
		<tag k="ssr:stedsnr" v="360774" />
	</node>
	<node id="-27748" lat="59.9270944433" lon="11.5387500055">
		<tag k="junction" v="yes" />
		<tag k="name" v="Auten" />
		<tag k="place" v="locality" />
		<tag k="ssr:stedsnr" v="40616" />
	</node>
	<node id="-27235" lat="59.9204500038" lon="11.6445555599">
		<tag k="junction" v="yes" />
		<tag k="name" v="Postilltoppen" />
		<tag k="place" v="locality" />
		<tag k="ssr:stedsnr" v="360621" />
	</node>
	<node id="-27741" lat="59.7933277771" lon="11.4812472233">
		<tag k="alt_name" v="Nadden" />
		<tag k="junction" v="yes" />
		<tag k="name" v="Naddum" />
		<tag k="place" v="locality" />
		<tag k="ssr:stedsnr" v="40099" />
	</node>
	<node id="-30805" lat="59.7771805565" lon="11.6751499982">
		<tag k="junction" v="yes" />
		<tag k="name" v="Kolstadvika" />
		<tag k="place" v="locality" />
		<tag k="ssr:stedsnr" v="846884" />
	</node>
	<node id="-29651" lat="59.9415611156" lon="11.4013611064">
		<tag k="junction" v="yes" />
		<tag k="name" v="Killingmo" />
		<tag k="place" v="locality" />
		<tag k="ssr:stedsnr" v="603245" />
	</node>
	<node id="-31305" lat="59.669977781" lon="11.5468916653">
		<tag k="man_made" v="quay" />
		<tag k="name" v="Skulerud brygge" />
		<tag k="place" v="locality" />
		<tag k="ssr:stedsnr" v="968701" />
	</node>
	<node id="-27716" lat="59.7110972231" lon="11.3741222156">
		<tag k="highway" v="path" />
		<tag k="name" v="Tårnvegen" />
		<tag k="ssr:stedsnr" v="23257" />
	</node>
	<node id="-27195" lat="60.0030611115" lon="11.5963805637">
		<tag k="fixme" v="consider highway=path" />
		<tag k="highway" v="track" />
		<tag k="name" v="Bukkevegen" />
		<tag k="ssr:stedsnr" v="358053" />
	</node>
	<node id="-27536" lat="59.9274666672" lon="11.6725583394">
		<tag k="alt_name" v="Setta" />
		<tag k="bridge" v="yes" />
		<tag k="layer" v="1" />
		<tag k="name" v="Settebrua" />
		<tag k="ssr:stedsnr" v="896044" />
	</node>
	<node id="-27183" lat="59.9020944472" lon="11.5199777817">
		<tag k="highway" v="path" />
		<tag k="name" v="Stigen" />
		<tag k="ssr:stedsnr" v="345422" />
	</node>
	<node id="-29277" lat="59.7014888923" lon="11.5365555563">
		<tag k="landuse" v="industrial" />
		<tag k="name" v="Lundsfoss kraftstasjon" />
		<tag k="power" v="plant" />
		<tag k="ssr:stedsnr" v="524120" />
	</node>
	<node id="-30746" lat="59.7207194418" lon="11.481380549">
		<tag k="bridge" v="yes" />
		<tag k="layer" v="1" />
		<tag k="name" v="Daltorpfoss" />
		<tag k="ssr:stedsnr" v="835063" />
	</node>
	<node id="-30745" lat="59.7892055584" lon="11.7358111185">
		<tag k="bridge" v="yes" />
		<tag k="layer" v="1" />
		<tag k="name" v="Langbruslora" />
		<tag k="ssr:stedsnr" v="835057" />
	</node>
	<node id="-30744" lat="59.7956333308" lon="11.4586111108">
		<tag k="alt_name" v="Riser" />
		<tag k="bridge" v="yes" />
		<tag k="layer" v="1" />
		<tag k="name" v="Riser bru" />
		<tag k="ssr:stedsnr" v="835051" />
	</node>
	<node id="-30743" lat="59.9920166652" lon="11.7576861033">
		<tag k="bridge" v="yes" />
		<tag k="layer" v="1" />
		<tag k="name" v="Solli" />
		<tag k="ssr:stedsnr" v="835048" />
	</node>
	<node id="-30742" lat="59.8426750043" lon="11.7184111156">
		<tag k="bridge" v="yes" />
		<tag k="layer" v="1" />
		<tag k="name" v="Tangen" />
		<tag k="ssr:stedsnr" v="835045" />
	</node>
	<node id="-30740" lat="59.8377944453" lon="11.5527583318">
		<tag k="junction" v="yes" />
		<tag k="name" v="Ilebekk" />
		<tag k="place" v="locality" />
		<tag k="ssr:stedsnr" v="831868" />
	</node>
	<node id="-31250" lat="59.804658336" lon="11.3933611142">
		<tag k="junction" v="yes" />
		<tag k="name" v="Mo" />
		<tag k="place" v="locality" />
		<tag k="ssr:stedsnr" v="965940" />
	</node>
	<node id="-27143" lat="59.7874527736" lon="11.5222305603">
		<tag k="junction" v="yes" />
		<tag k="name" v="Nerby" />
		<tag k="place" v="locality" />
		<tag k="ssr:stedsnr" v="343220" />
	</node>
</osm>
