<?xml version="1.0" encoding="UTF-8"?>
<osm generator="osmapis" version="0.6">
	<node id="-6944" lat="62.351330556" lon="6.04804721712">
		<tag k="name" v="Grøthornura" />
		<tag k="natural" v="scree" />
		<tag k="ssr:stedsnr" v="460771" />
	</node>
	<node id="-6928" lat="62.3427027752" lon="6.07725833213">
		<tag k="name" v="Æda" />
		<tag k="natural" v="wetland" />
		<tag k="ssr:stedsnr" v="217620" />
	</node>
	<node id="-7230" lat="62.3469805531" lon="5.98759167562">
		<tag k="name" v="Brenslene" />
		<tag k="place" v="locality" />
		<tag k="ssr:stedsnr" v="581689" />
	</node>
	<node id="-7093" lat="62.3278916633" lon="6.03019721293">
		<tag k="name" v="Hjørungdalsmyrane" />
		<tag k="natural" v="wetland" />
		<tag k="ssr:stedsnr" v="35720" />
	</node>
	<node id="-7160" lat="62.3270249971" lon="6.01629165946">
		<tag k="name" v="Djupemyrane" />
		<tag k="natural" v="wetland" />
		<tag k="ssr:stedsnr" v="338657" />
	</node>
	<node id="-7053" lat="62.3310583352" lon="5.92828889302">
		<tag k="name" v="Blåfjellet" />
		<tag k="place" v="locality" />
		<tag k="ssr:stedsnr" v="824754" />
	</node>
	<node id="-7254" lat="62.3381333336" lon="5.98814444009">
		<tag k="name" v="Gråmyra" />
		<tag k="natural" v="wetland" />
		<tag k="ssr:stedsnr" v="641575" />
	</node>
	<node id="-7157" lat="62.2976694454" lon="5.97649166277">
		<tag k="name" v="Vollen" />
		<tag k="natural" v="scree" />
		<tag k="ssr:stedsnr" v="338565" />
	</node>
	<node id="-6868" lat="62.3242416683" lon="6.01737500062">
		<tag k="name" v="Torvholen" />
		<tag k="natural" v="wetland" />
		<tag k="ssr:stedsnr" v="217671" />
	</node>
	<node id="-7314" lat="62.3453972228" lon="6.07376943518">
		<tag k="name" v="Hamnamyrane" />
		<tag k="natural" v="wetland" />
		<tag k="ssr:stedsnr" v="824730" />
	</node>
	<node id="-6929" lat="62.3463277785" lon="5.9625694537">
		<tag k="name" v="Bliket" />
		<tag k="place" v="locality" />
		<tag k="ssr:stedsnr" v="217622" />
	</node>
	<node id="-7184" lat="62.2899833363" lon="5.95202777357">
		<tag k="name" v="Setrefonna" />
		<tag k="place" v="locality" />
		<tag k="ssr:stedsnr" v="399668" />
	</node>
	<node id="-7311" lat="62.3588166627" lon="6.00054722858">
		<tag k="name" v="Kaldholmyrane" />
		<tag k="natural" v="wetland" />
		<tag k="ssr:stedsnr" v="824791" />
	</node>
	<node id="-6897" lat="62.3870500039" lon="6.01975832529">
		<tag k="name" v="Blåsvædet" />
		<tag k="place" v="locality" />
		<tag k="ssr:stedsnr" v="96806" />
	</node>
	<node id="-6893" lat="62.3650055586" lon="6.0150027785">
		<tag k="name" v="Hareidsmyrane" />
		<tag k="natural" v="wetland" />
		<tag k="ssr:stedsnr" v="96761" />
	</node>
	<node id="-6912" lat="62.3609972248" lon="6.0055972241">
		<tag k="name" v="Kvitholane" />
		<tag k="place" v="locality" />
		<tag k="ssr:stedsnr" v="278798" />
	</node>
	<node id="-6933" lat="62.3524916635" lon="5.96793889517">
		<tag k="name" v="Hovden" />
		<tag k="natural" v="wetland" />
		<tag k="ssr:stedsnr" v="460652" />
	</node>
	<node id="-7048" lat="62.3656694416" lon="6.00733333442">
		<tag k="name" v="Grimstadmyrane" />
		<tag k="natural" v="wetland" />
		<tag k="ssr:stedsnr" v="824720" />
	</node>
	<node id="-7113" lat="62.3490194461" lon="6.08696667474">
		<tag k="name" v="Hjørungnesmyrane" />
		<tag k="natural" v="wetland" />
		<tag k="ssr:stedsnr" v="96732" />
	</node>
	<node id="-7269" lat="62.380255555" lon="6.02563611435">
		<tag k="name" v="Merkarsteinen" />
		<tag k="natural" v="stone" />
		<tag k="ssr:stedsnr" v="641784" />
	</node>
	<node id="-7204" lat="62.3501999957" lon="5.96055277461">
		<tag k="name" v="Hovdemyrane" />
		<tag k="natural" v="wetland" />
		<tag k="ssr:stedsnr" v="520686" />
	</node>
</osm>
