<?xml version="1.0" encoding="UTF-8"?>
<osm version="0.6" generator="osmapis">
	<node lat="62.3586479671735" lon="6.074065869340297" id="-3277">
		<tag k="fixme" v="consider place=hamlet" />
		<tag k="name" v="Ovra" />
		<tag k="place" v="farm" />
		<tag k="ssr:stedsnr" v="11826" />
	</node>
	<node lat="62.35485555976641" lon="6.072163894904095" id="-3278">
		<tag k="alt_name" v="Engane" />
		<tag k="name" v="Engene" />
		<tag k="place" v="farm" />
		<tag k="ssr:stedsnr" v="11829" />
	</node>
	<node lat="62.337894263346854" lon="6.0349621441515415" id="-3284">
		<tag k="alt_name" v="Øvreli;Øvrelid" />
		<tag k="name" v="Øverli" />
		<tag k="place" v="farm" />
		<tag k="ssr:stedsnr" v="242364" />
	</node>
	<node lat="62.341780552277285" lon="6.0788472157441" id="-3287">
		<tag k="name" v="Bøen" />
		<tag k="place" v="farm" />
		<tag k="ssr:stedsnr" v="72764" />
	</node>
	<node lat="62.38078889021273" lon="5.978922229429259" id="-3295">
		<tag k="historic" v="shieling" />
		<tag k="name" v="Håbakkselet" />
		<tag k="place" v="isolated_dwelling" />
		<tag k="ssr:stedsnr" v="131902" />
	</node>
	<node lat="62.317929811407" lon="6.032686104324704" id="-3296">
		<tag k="fixme" v="consider place=hamlet" />
		<tag k="name" v="Haugen" />
		<tag k="place" v="farm" />
		<tag k="ssr:stedsnr" v="254730" />
	</node>
	<node lat="62.3302444446478" lon="6.060844450585544" id="-3297">
		<tag k="name" v="Gamleåsen" />
		<tag k="place" v="farm" />
		<tag k="ssr:stedsnr" v="254789" />
	</node>
	<node lat="62.396372221079766" lon="6.001008332094393" id="-3308">
		<tag k="name" v="Plassen" />
		<tag k="place" v="farm" />
		<tag k="ssr:stedsnr" v="217607" />
	</node>
	<node lat="62.36350278175619" lon="6.051149994158824" id="-3309">
		<tag k="name" v="Hovleitet" />
		<tag k="place" v="farm" />
		<tag k="ssr:stedsnr" v="217610" />
	</node>
	<node lat="62.3984111921846" lon="6.0074704609626535" id="-3322">
		<tag k="fixme" v="consider place=hamlet" />
		<tag k="name" v="Brandal" />
		<tag k="place" v="farm" />
		<tag k="ssr:stedsnr" v="270798" />
	</node>
	<node lat="62.40034722153586" lon="6.006905553562399" id="-3340">
		<tag k="name" v="Ytrenes" />
		<tag k="place" v="isolated_dwelling" />
		<tag k="ssr:stedsnr" v="294915" />
	</node>
	<node lat="62.32956944634628" lon="6.035008325371424" id="-3341">
		<tag k="name" v="Myrdal" />
		<tag k="place" v="farm" />
		<tag k="ssr:stedsnr" v="314806" />
	</node>
	<node lat="62.35514166545116" lon="5.96186666353531" id="-3347">
		<tag k="name" v="Kashaugen" />
		<tag k="place" v="farm" />
		<tag k="ssr:stedsnr" v="338792" />
	</node>
	<node lat="62.408169445659176" lon="6.005097230964715" id="-3348">
		<tag k="name" v="Liset" />
		<tag k="place" v="isolated_dwelling" />
		<tag k="ssr:stedsnr" v="354914" />
	</node>
	<node lat="62.3229394617271" lon="6.00199980226843" id="-3351">
		<tag k="fixme" v="consider place=hamlet" />
		<tag k="name" v="Ulset" />
		<tag k="place" v="farm" />
		<tag k="ssr:stedsnr" v="375741" />
	</node>
	<node lat="62.33190154726872" lon="6.032418361194668" id="-3352">
		<tag k="fixme" v="consider place=hamlet" />
		<tag k="name" v="Hjørungdalen" />
		<tag k="place" v="farm" />
		<tag k="ssr:stedsnr" v="375786" />
	</node>
	<node lat="62.35225277922265" lon="5.938416663439997" id="-3361">
		<tag k="name" v="Ned-Rise" />
		<tag k="place" v="farm" />
		<tag k="ssr:stedsnr" v="421818" />
	</node>
	<node lat="62.33910324714983" lon="5.968435720660129" id="-3362">
		<tag k="name" v="Ytre Mork" />
		<tag k="place" v="farm" />
		<tag k="ssr:stedsnr" v="421914" />
	</node>
	<node lat="62.30691999743681" lon="5.976926220410455" id="-3365">
		<tag k="alt_name" v="Kvammen;Kvamme" />
		<tag k="fixme" v="consider place=hamlet" />
		<tag k="name" v="Kvamen" />
		<tag k="place" v="farm" />
		<tag k="ssr:stedsnr" v="436769" />
	</node>
	<node lat="62.3402055596307" lon="6.040205562972142" id="-3366">
		<tag k="name" v="Bakken" />
		<tag k="place" v="farm" />
		<tag k="ssr:stedsnr" v="460664" />
	</node>
	<node lat="62.377972875170215" lon="6.02761513464166" id="-3375">
		<tag k="alt_name" v="Håbakk" />
		<tag k="fixme" v="consider place=hamlet" />
		<tag k="name" v="Håbakkane" />
		<tag k="place" v="farm" />
		<tag k="ssr:stedsnr" v="678841" />
	</node>
	<node lat="62.36703927331263" lon="5.994785495074579" id="-3377">
		<tag k="fixme" v="consider place=hamlet" />
		<tag k="name" v="Grimstad" />
		<tag k="place" v="farm" />
		<tag k="ssr:stedsnr" v="678849" />
	</node>
	<node lat="62.364072220828135" lon="5.916769438204698" id="-3383">
		<tag k="historic" v="shieling" />
		<tag k="name" v="Risesætra" />
		<tag k="place" v="isolated_dwelling" />
		<tag k="ssr:stedsnr" v="496850" />
	</node>
	<node lat="62.365055559508754" lon="6.030294435244988" id="-3385">
		<tag k="name" v="Aurgotene" />
		<tag k="place" v="farm" />
		<tag k="ssr:stedsnr" v="520608" />
	</node>
	<node lat="62.376747221987465" lon="5.955127784711066" id="-3388">
		<tag k="historic" v="shieling" />
		<tag k="name" v="Grimstadsætra" />
		<tag k="place" v="isolated_dwelling" />
		<tag k="ssr:stedsnr" v="556861" />
	</node>
	<node lat="62.37683374282179" lon="6.023897125504486" id="-3390">
		<tag k="alt_name" v="Hovlid;Hovli;Hoveledet" />
		<tag k="fixme" v="consider place=hamlet" />
		<tag k="name" v="Hovled" />
		<tag k="place" v="farm" />
		<tag k="ssr:stedsnr" v="556869" />
	</node>
	<node lat="62.34020277928311" lon="6.040188890973172" id="-3397">
		<tag k="name" v="Øvre Liaset" />
		<tag k="place" v="farm" />
		<tag k="ssr:stedsnr" v="581748" />
	</node>
	<node lat="62.342527127049436" lon="6.080298549908868" id="-3402">
		<tag k="alt_name" v="Korshamna" />
		<tag k="fixme" v="consider place=hamlet" />
		<tag k="name" v="Korshamn" />
		<tag k="place" v="farm" />
		<tag k="ssr:stedsnr" v="617841" />
	</node>
	<node lat="62.351583329655604" lon="5.923027777897435" id="-3412">
		<tag k="name" v="Gjerdet" />
		<tag k="place" v="farm" />
		<tag k="ssr:stedsnr" v="703688" />
	</node>
	<node lat="62.34561944683436" lon="5.96016666494146" id="-3413">
		<tag k="historic" v="shieling" />
		<tag k="name" v="Sætra" />
		<tag k="place" v="isolated_dwelling" />
		<tag k="ssr:stedsnr" v="703693" />
	</node>
	<node lat="62.360644443223656" lon="6.070058328109945" id="-3414">
		<tag k="name" v="Slettebakken" />
		<tag k="place" v="farm" />
		<tag k="ssr:stedsnr" v="703793" />
	</node>
	<node lat="62.35113524703083" lon="6.106961227725818" id="-3427">
		<tag k="fixme" v="consider place=hamlet" />
		<tag k="name" v="Hjørungneset" />
		<tag k="place" v="farm" />
		<tag k="ssr:stedsnr" v="678814" />
	</node>
	<node lat="62.34467338831285" lon="6.052435825916902" id="-3428">
		<tag k="alt_name" v="Nedrelid;Nedre Li" />
		<tag k="fixme" v="consider place=hamlet" />
		<tag k="name" v="Nerli" />
		<tag k="place" v="farm" />
		<tag k="ssr:stedsnr" v="678821" />
	</node>
	<node lat="62.33996716751198" lon="5.965385889283212" id="-3429">
		<tag k="alt_name" v="Morka" />
		<tag k="name" v="Mork" />
		<tag k="place" v="hamlet" />
		<tag k="ssr:stedsnr" v="678780" />
	</node>
	<node lat="62.34047573547132" lon="6.043792701988336" id="-3438">
		<tag k="name" v="Liaset" />
		<tag k="place" v="hamlet" />
		<tag k="ssr:stedsnr" v="739794" />
	</node>
	<node lat="62.358353563119714" lon="5.961595094431535" id="-3445">
		<tag k="fixme" v="consider place=hamlet" />
		<tag k="name" v="Bigset" />
		<tag k="place" v="farm" />
		<tag k="ssr:stedsnr" v="800798" />
	</node>
	<node lat="62.41420000108187" lon="6.004455555889066" id="-3446">
		<tag k="name" v="Karlhaugen" />
		<tag k="place" v="farm" />
		<tag k="ssr:stedsnr" v="800923" />
	</node>
	<node lat="62.30026842273391" lon="5.989543729234154" id="-3447">
		<tag k="alt_name" v="Alme Store;Store Alme" />
		<tag k="fixme" v="consider place=hamlet" />
		<tag k="name" v="Alme" />
		<tag k="place" v="farm" />
		<tag k="ssr:stedsnr" v="921153" />
	</node>
	<node lat="62.35142778058925" lon="5.972363890313149" id="-3453">
		<tag k="name" v="Sandgota" />
		<tag k="place" v="farm" />
		<tag k="ssr:stedsnr" v="824610" />
	</node>
	<node lat="62.35078611343566" lon="5.990194436030759" id="-3461">
		<tag k="name" v="Kråkholen" />
		<tag k="place" v="farm" />
		<tag k="ssr:stedsnr" v="921823" />
	</node>
	<node lat="62.35190509444515" lon="5.938508093523124" id="-3463">
		<tag k="alt_name" v="Rise, nedre;Rise;Nedre Rise" />
		<tag k="fixme" v="consider place=hamlet" />
		<tag k="name" v="Ned-Rise" />
		<tag k="place" v="farm" />
		<tag k="ssr:stedsnr" v="921832" />
	</node>
	<node lat="62.37041388999723" lon="6.029022218519662" id="-3465">
		<tag k="name" v="Hareid" />
		<tag k="place" v="village" />
		<tag k="ssr:stedsnr" v="921868" />
	</node>
	<node lat="62.40077222370672" lon="6.008283324113992" id="-3466">
		<tag k="fixme" v="consider place=suburb, village or hamlet" />
		<tag k="name" v="Brandal" />
		<tag k="old_name" v="Branddal" />
		<tag k="place" v="quarter" />
		<tag k="ssr:stedsnr" v="921876" />
	</node>
	<node lat="62.371397217755494" lon="5.935997220705764" id="-3469">
		<tag k="alt_name" v="Bigsetsela" />
		<tag k="historic" v="shieling" />
		<tag k="name" v="Bigsetsætra" />
		<tag k="place" v="isolated_dwelling" />
		<tag k="ssr:stedsnr" v="860873" />
	</node>
	<node lat="62.39468889227721" lon="6.003191665718079" id="-3470">
		<tag k="name" v="Bakkane" />
		<tag k="place" v="farm" />
		<tag k="ssr:stedsnr" v="861913" />
	</node>
	<node lat="62.392286111631684" lon="5.9964222178593705" id="-3473">
		<tag k="name" v="Legene" />
		<tag k="place" v="farm" />
		<tag k="ssr:stedsnr" v="885603" />
	</node>
	<node lat="62.32694914798186" lon="5.925372066018466" id="-3481">
		<tag k="historic" v="shieling" />
		<tag k="name" v="Hammarstøylen" />
		<tag k="place" v="isolated_dwelling" />
		<tag k="ssr:stedsnr" v="945638" />
	</node>
	<node lat="62.30275000428147" lon="5.9970111140420075" id="-3483">
		<tag k="name" v="Gjerdet" />
		<tag k="place" v="isolated_dwelling" />
		<tag k="ssr:stedsnr" v="961801" />
	</node>
	<node lat="62.3402671841587" lon="6.0011056548087325" id="-3484">
		<tag k="alt_name" v="Bakken" />
		<tag k="fixme" v="consider place=hamlet" />
		<tag k="name" v="Røysetbakken" />
		<tag k="place" v="farm" />
		<tag k="ssr:stedsnr" v="11792" />
	</node>
	<node lat="62.33969787618691" lon="5.994868624457578" id="-3485">
		<tag k="fixme" v="consider place=hamlet" />
		<tag k="name" v="Røyset" />
		<tag k="place" v="farm" />
		<tag k="ssr:stedsnr" v="11793" />
	</node>
	<node lat="62.354310565597146" lon="5.986387440369253" id="-3486">
		<tag k="alt_name" v="Kaldholen" />
		<tag k="fixme" v="consider place=hamlet" />
		<tag k="name" v="Kaldhol" />
		<tag k="place" v="farm" />
		<tag k="ssr:stedsnr" v="11842" />
	</node>
	<node lat="62.35151813878825" lon="6.064123252004177" id="-3487">
		<tag k="alt_name" v="Pilskogane" />
		<tag k="fixme" v="consider place=hamlet" />
		<tag k="name" v="Pilskog" />
		<tag k="place" v="farm" />
		<tag k="ssr:stedsnr" v="11857" />
	</node>
	<node lat="62.4028805542494" lon="5.999372229826132" id="-3489">
		<tag k="alt_name" v="Haugen" />
		<tag k="name" v="Øvrebø" />
		<tag k="place" v="farm" />
		<tag k="ssr:stedsnr" v="11931" />
	</node>
	<node lat="62.3752499429015" lon="6.020812408610655" id="-3498">
		<tag k="fixme" v="consider place=hamlet" />
		<tag k="name" v="Teigane" />
		<tag k="place" v="farm" />
		<tag k="ssr:stedsnr" v="35650" />
	</node>
	<node lat="62.37247540188254" lon="6.009689182506456" id="-3509">
		<tag k="fixme" v="consider place=hamlet" />
		<tag k="name" v="Holstad" />
		<tag k="place" v="farm" />
		<tag k="ssr:stedsnr" v="71894" />
	</node>
	<node lat="62.3115420722216" lon="6.015225053109831" id="-3511">
		<tag k="alt_name" v="Alme, lisle;Litl Alme" />
		<tag k="fixme" v="consider place=hamlet" />
		<tag k="name" v="Lisle Alme" />
		<tag k="place" v="farm" />
		<tag k="ssr:stedsnr" v="72757" />
	</node>
	<node lat="62.337713890349995" lon="5.966061117124098" id="-3519">
		<tag k="name" v="Indre Mork" />
		<tag k="place" v="farm" />
		<tag k="ssr:stedsnr" v="118905" />
	</node>
	<node lat="62.37314722034969" lon="5.944080547479951" id="-3521">
		<tag k="alt_name" v="Bjåstadsela" />
		<tag k="historic" v="shieling" />
		<tag k="name" v="Bjåstadsætra" />
		<tag k="place" v="isolated_dwelling" />
		<tag k="ssr:stedsnr" v="131894" />
	</node>
	<node lat="62.40262777597685" lon="6.0063694491942075" id="-3523">
		<tag k="alt_name" v="Sauebø;Sauebøen" />
		<tag k="name" v="Saudebøen" />
		<tag k="place" v="farm" />
		<tag k="ssr:stedsnr" v="132884" />
	</node>
	<node lat="62.33854444692281" lon="6.040066667409917" id="-3528">
		<tag k="name" v="Grøtet" />
		<tag k="place" v="farm" />
		<tag k="ssr:stedsnr" v="156655" />
	</node>
	<node lat="62.350099997352686" lon="6.065244450945716" id="-3538">
		<tag k="name" v="Myra" />
		<tag k="place" v="isolated_dwelling" />
		<tag k="ssr:stedsnr" v="173868" />
	</node>
	<node lat="62.36008333746868" lon="6.070066665486713" id="-3539">
		<tag k="name" v="Mon" />
		<tag k="place" v="isolated_dwelling" />
		<tag k="ssr:stedsnr" v="173875" />
	</node>
	<node lat="62.35080555908098" lon="5.929866660315258" id="-3540">
		<tag k="name" v="Fram-Rise" />
		<tag k="place" v="farm" />
		<tag k="ssr:stedsnr" v="178796" />
	</node>
	<node lat="62.344518094592246" lon="6.064386837975975" id="-3543">
		<tag k="fixme" v="consider place=hamlet" />
		<tag k="name" v="Liavåg" />
		<tag k="place" v="farm" />
		<tag k="ssr:stedsnr" v="193846" />
	</node>
	<node lat="62.35273610770326" lon="6.071752771797322" id="-3545">
		<tag k="name" v="Hjørungavåg" />
		<tag k="place" v="village" />
		<tag k="ssr:stedsnr" v="193815" />
	</node>
	<node lat="62.363216662377845" lon="6.03163611200332" id="-3555">
		<tag k="alt_name" v="Brubakk" />
		<tag k="name" v="Bruabakken" />
		<tag k="place" v="farm" />
		<tag k="ssr:stedsnr" v="217754" />
	</node>
	<node lat="62.34084444815049" lon="5.993963885588581" id="-3558">
		<tag k="name" v="Bakken" />
		<tag k="place" v="farm" />
		<tag k="ssr:stedsnr" v="278698" />
	</node>
	<node lat="62.34109444052465" lon="5.9901138798997575" id="-3567">
		<tag k="name" v="Gjerdet" />
		<tag k="place" v="farm" />
		<tag k="ssr:stedsnr" v="278761" />
	</node>
	<node lat="62.349400003676486" lon="6.074994448893175" id="-3571">
		<tag k="building" v="industrial" />
		<tag k="name" v="Vågsholmen" />
		<tag k="ssr:stedsnr" v="294800" />
	</node>
	<node lat="62.34746111379319" lon="6.072630558119699" id="-3573">
		<tag k="alt_name" v="Gåsneset" />
		<tag k="name" v="Gåsnes" />
		<tag k="place" v="farm" />
		<tag k="ssr:stedsnr" v="314835" />
	</node>
	<node lat="62.34763082168457" lon="5.965383689854241" id="-3574">
		<tag k="fixme" v="consider place=hamlet" />
		<tag k="name" v="Hovden" />
		<tag k="place" v="farm" />
		<tag k="ssr:stedsnr" v="314836" />
	</node>
	<node lat="62.41883055220614" lon="6.00083611439782" id="-3576">
		<tag k="name" v="Klombra" />
		<tag k="place" v="isolated_dwelling" />
		<tag k="ssr:stedsnr" v="314897" />
	</node>
	<node lat="62.361034664408564" lon="5.975089920360482" id="-3590">
		<tag k="fixme" v="consider place=hamlet" />
		<tag k="name" v="Bjåstad" />
		<tag k="place" v="farm" />
		<tag k="ssr:stedsnr" v="374881" />
	</node>
	<node lat="62.363397675554836" lon="6.044916346450073" id="-3591">
		<tag k="fixme" v="consider place=hamlet" />
		<tag k="name" v="Hareid" />
		<tag k="place" v="farm" />
		<tag k="ssr:stedsnr" v="374886" />
	</node>
	<node lat="62.336950850627524" lon="6.0326327442059915" id="-3592">
		<tag k="alt_name" v="Øvreli;Øvre Lid" />
		<tag k="fixme" v="consider place=hamlet" />
		<tag k="name" v="Øverli" />
		<tag k="place" v="farm" />
		<tag k="ssr:stedsnr" v="375770" />
	</node>
	<node lat="62.35846389205418" lon="5.968261101616677" id="-3595">
		<tag k="name" v="Vonheim" />
		<tag k="place" v="farm" />
		<tag k="ssr:stedsnr" v="399617" />
	</node>
	<node lat="62.3418944432134" lon="6.000030551889994" id="-3598">
		<tag k="name" v="Ytstebakken" />
		<tag k="place" v="farm" />
		<tag k="ssr:stedsnr" v="399714" />
	</node>
	<node lat="62.394827782271435" lon="6.00247500238858" id="-3601">
		<tag k="name" v="Gjerdet" />
		<tag k="place" v="farm" />
		<tag k="ssr:stedsnr" v="399635" />
	</node>
	<node lat="62.33571666961112" lon="5.964800009165807" id="-3606">
		<tag k="name" v="Larsmorka" />
		<tag k="place" v="farm" />
		<tag k="ssr:stedsnr" v="399667" />
	</node>
	<node lat="62.33596944087019" lon="6.030069452039466" id="-3609">
		<tag k="alt_name" v="Øvreli;Øvrelid" />
		<tag k="name" v="Øverli" />
		<tag k="place" v="farm" />
		<tag k="ssr:stedsnr" v="424377" />
	</node>
	<node lat="62.35314262599324" lon="5.927432796804539" id="-3610">
		<tag k="fixme" v="consider place=hamlet" />
		<tag k="name" v="Nevstad" />
		<tag k="place" v="farm" />
		<tag k="ssr:stedsnr" v="435847" />
	</node>
	<node lat="62.34227222510082" lon="6.082605559471165" id="-3612">
		<tag k="name" v="Bakken" />
		<tag k="place" v="farm" />
		<tag k="ssr:stedsnr" v="436778" />
	</node>
	<node lat="62.30469166344716" lon="6.002547231337231" id="-3614">
		<tag k="name" v="Kåvika" />
		<tag k="place" v="farm" />
		<tag k="ssr:stedsnr" v="496145" />
	</node>
	<node lat="62.39335833363049" lon="6.005183335704923" id="-3615">
		<tag k="name" v="Skarbakken" />
		<tag k="place" v="locality" />
		<tag k="ssr:stedsnr" v="496880" />
	</node>
	<node lat="62.340824999429785" lon="6.045347222548351" id="-3628">
		<tag k="name" v="Nedre Liaset" />
		<tag k="place" v="farm" />
		<tag k="ssr:stedsnr" v="520740" />
	</node>
	<node lat="62.3412777787119" lon="5.965191673147447" id="-3630">
		<tag k="name" v="Gabrielmorka" />
		<tag k="place" v="farm" />
		<tag k="ssr:stedsnr" v="520749" />
	</node>
	<node lat="62.357463892763256" lon="5.973847221576832" id="-3634">
		<tag k="name" v="Toppholen" />
		<tag k="place" v="farm" />
		<tag k="ssr:stedsnr" v="556835" />
	</node>
	<node lat="62.35012722882291" lon="5.930323708802065" id="-3635">
		<tag k="alt_name" v="Rise, øvre" />
		<tag k="fixme" v="consider place=hamlet" />
		<tag k="name" v="Øvre Rise" />
		<tag k="place" v="farm" />
		<tag k="ssr:stedsnr" v="556837" />
	</node>
	<node lat="62.352013887316716" lon="5.951294436360283" id="-3636">
		<tag k="name" v="Myrvoll" />
		<tag k="place" v="farm" />
		<tag k="ssr:stedsnr" v="556839" />
	</node>
	<node lat="62.33981389249798" lon="5.9995888886619815" id="-3641">
		<tag k="name" v="Instebakken" />
		<tag k="place" v="farm" />
		<tag k="ssr:stedsnr" v="581676" />
	</node>
	<node lat="62.406388888538395" lon="5.982577776266377" id="-3652">
		<tag k="historic" v="shieling" />
		<tag k="name" v="Sætra" />
		<tag k="place" v="isolated_dwelling" />
		<tag k="ssr:stedsnr" v="617925" />
	</node>
	<node lat="62.41254444602513" lon="6.006013892538572" id="-3653">
		<tag k="alt_name" v="Haug" />
		<tag k="fixme" v="multiple name tags, choose one and add the other to alt_name" />
		<tag k="name" v="Smottene;Haugen" />
		<tag k="place" v="farm" />
		<tag k="ssr:stedsnr" v="617927" />
	</node>
	<node lat="62.32198494791941" lon="5.975949535035464" id="-3654">
		<tag k="fixme" v="consider place=hamlet" />
		<tag k="name" v="Nesset" />
		<tag k="place" v="farm" />
		<tag k="ssr:stedsnr" v="617777" />
	</node>
	<node lat="62.37367129521926" lon="6.01639685867186" id="-3656">
		<tag k="fixme" v="consider place=hamlet" />
		<tag k="name" v="Gjerdet" />
		<tag k="place" v="farm" />
		<tag k="ssr:stedsnr" v="617867" />
	</node>
	<node lat="62.37263055730875" lon="6.077308340185351" id="-3659">
		<tag k="name" v="Finnsgarden" />
		<tag k="place" v="farm" />
		<tag k="ssr:stedsnr" v="631579" />
	</node>
	<node lat="62.36662777847026" lon="6.033786113433624" id="-3661">
		<tag k="fixme" v="consider place=suburb, village or hamlet" />
		<tag k="name" v="Flotene" />
		<tag k="place" v="quarter" />
		<tag k="ssr:stedsnr" v="641600" />
	</node>
	<node lat="62.35635277612952" lon="5.965033341061389" id="-3665">
		<tag k="name" v="Langerysta" />
		<tag k="place" v="farm" />
		<tag k="ssr:stedsnr" v="641782" />
	</node>
	<node lat="62.34476944559633" lon="5.998641670889462" id="-3667">
		<tag k="name" v="Legene" />
		<tag k="place" v="farm" />
		<tag k="ssr:stedsnr" v="641647" />
	</node>
	<node lat="62.324661148590884" lon="6.044131518452732" id="-3676">
		<tag k="alt_name" v="Engeskaret" />
		<tag k="fixme" v="consider place=hamlet" />
		<tag k="name" v="Engjaskaret" />
		<tag k="place" v="farm" />
		<tag k="ssr:stedsnr" v="739767" />
	</node>
	<node lat="62.315540652648636" lon="5.974412283007037" id="-3677">
		<tag k="fixme" v="consider place=hamlet" />
		<tag k="name" v="Snipsøyr" />
		<tag k="place" v="farm" />
		<tag k="ssr:stedsnr" v="739771" />
	</node>
	<node lat="62.35560277898279" lon="6.074080546833158" id="-3679">
		<tag k="name" v="Kvernagota" />
		<tag k="place" v="farm" />
		<tag k="ssr:stedsnr" v="739826" />
	</node>
	<node lat="62.41200833724258" lon="6.004555555095665" id="-3684">
		<tag k="name" v="Smottene" />
		<tag k="place" v="farm" />
		<tag k="ssr:stedsnr" v="763651" />
	</node>
	<node lat="62.288522221962424" lon="5.956594451788408" id="-3685">
		<tag k="historic" v="shieling" />
		<tag k="name" v="Setra" />
		<tag k="place" v="isolated_dwelling" />
		<tag k="ssr:stedsnr" v="763625" />
	</node>
	<node lat="62.36899444365771" lon="6.0239305555790486" id="-3686">
		<tag k="name" v="Pålhaugen" />
		<tag k="place" v="farm" />
		<tag k="ssr:stedsnr" v="763628" />
	</node>
	<node lat="62.33397175152551" lon="6.066422653947598" id="-3701">
		<tag k="fixme" v="consider place=hamlet" />
		<tag k="name" v="Åsen" />
		<tag k="place" v="farm" />
		<tag k="ssr:stedsnr" v="800770" />
	</node>
	<node lat="62.394595672774194" lon="6.000738202006593" id="-3702">
		<tag k="name" v="Leitet" />
		<tag k="place" v="farm" />
		<tag k="ssr:stedsnr" v="800899" />
	</node>
	<node lat="62.35006389256036" lon="5.925922218730793" id="-3712">
		<tag k="name" v="Fram-Rise" />
		<tag k="place" v="farm" />
		<tag k="ssr:stedsnr" v="846801" />
	</node>
	<node lat="62.36880555856167" lon="5.9993166621848495" id="-3714">
		<tag k="name" v="Brettgarden" />
		<tag k="place" v="farm" />
		<tag k="ssr:stedsnr" v="860888" />
	</node>
	<node lat="62.30354999818437" lon="5.990219444237891" id="-3729">
		<tag k="historic" v="shieling" />
		<tag k="name" v="Koppestøylen" />
		<tag k="place" v="isolated_dwelling" />
		<tag k="ssr:stedsnr" v="945565" />
	</node>
	<node lat="62.33791110982637" lon="5.995374992422389" id="-3731">
		<tag k="name" v="Gjerdingane" />
		<tag k="place" v="farm" />
		<tag k="ssr:stedsnr" v="945643" />
	</node>
	<node lat="62.3498805581065" lon="5.988561110988426" id="-3732">
		<tag k="name" v="Kråkholen" />
		<tag k="place" v="farm" />
		<tag k="ssr:stedsnr" v="945646" />
	</node>
	<node lat="62.397397221881896" lon="6.0046777798003195" id="-3734">
		<tag k="name" v="Risegarden" />
		<tag k="place" v="farm" />
		<tag k="ssr:stedsnr" v="945757" />
	</node>
</osm>
