<?xml version="1.0" encoding="UTF-8"?>
<osm generator="osmapis" version="0.6">
	<node id="-561472" lat="62.3742222193" lon="5.92094445261">
		<tag k="name" v="Vardestranda" />
		<tag k="natural" v="beach" />
		<tag k="ssr:stedsnr" v="460747" />
	</node>
	<node id="-561662" lat="62.384650003" lon="5.97659444371">
		<tag k="name" v="Koppelva" />
		<tag k="ssr:stedsnr" v="824817" />
		<tag k="waterway" v="river" />
	</node>
	<node id="-561277" lat="62.3264805513" lon="5.97913889713">
		<tag k="name" v="Nessetholmen" />
		<tag k="place" v="islet" />
		<tag k="ssr:stedsnr" v="338681" />
	</node>
	<node id="-561276" lat="62.3144416697" lon="5.99182221545">
		<tag k="name" v="Ulsetbotnen" />
		<tag k="natural" v="beach" />
		<tag k="ssr:stedsnr" v="338661" />
	</node>
	<node id="-561313" lat="62.3631277738" lon="6.01375000681">
		<tag k="name" v="Djupeelva" />
		<tag k="ssr:stedsnr" v="399755" />
		<tag k="waterway" v="river" />
	</node>
	<node id="-561657" lat="62.3666361114" lon="6.01176110313">
		<tag k="name" v="Lomstjørna" />
		<tag k="natural" v="water" />
		<tag k="ssr:stedsnr" v="824787" />
	</node>
	<node id="-561528" lat="62.3214277816" lon="5.97914999802">
		<tag k="name" v="Byteneset" />
		<tag k="natural" v="cape" />
		<tag k="ssr:stedsnr" v="581722" />
	</node>
	<node id="-561527" lat="62.3043083343" lon="5.96773332745">
		<tag k="name" v="Djupedalselva" />
		<tag k="ssr:stedsnr" v="581702" />
		<tag k="waterway" v="stream" />
	</node>
	<node id="-561269" lat="62.3627805548" lon="6.00906667368">
		<tag k="name" v="Hareidselva" />
		<tag k="ssr:stedsnr" v="314849" />
		<tag k="waterway" v="stream" />
	</node>
	<node id="-561523" lat="62.3478555553" lon="5.97284443647">
		<tag k="name" v="Skinstøvika" />
		<tag k="natural" v="bay" />
		<tag k="ssr:stedsnr" v="581687" />
	</node>
	<node id="-561520" lat="62.3244388929" lon="5.9493972239">
		<tag k="name" v="Nessetelva" />
		<tag k="ssr:stedsnr" v="557787" />
		<tag k="waterway" v="stream" />
	</node>
	<node id="-561519" lat="62.3211416646" lon="5.95515833991">
		<tag k="name" v="Svartevatnet" />
		<tag k="natural" v="water" />
		<tag k="ssr:stedsnr" v="557741" />
	</node>
	<node id="-561517" lat="62.376749999" lon="5.95936388234">
		<tag k="name" v="Koppevatnet" />
		<tag k="natural" v="water" />
		<tag k="ssr:stedsnr" v="556863" />
	</node>
	<node id="-561385" lat="62.3475083334" lon="5.92132499944">
		<tag k="name" v="Dyfteelva" />
		<tag k="ssr:stedsnr" v="96735" />
		<tag k="waterway" v="stream" />
	</node>
	<node id="-561512" lat="62.3320138906" lon="5.98405834178">
		<tag k="name" v="Snipsøyrvatnet" />
		<tag k="natural" v="water" />
		<tag k="ssr:stedsnr" v="556798" />
		<tag k="water" v="lake" />
	</node>
	<node id="-561382" lat="62.4120861151" lon="5.97960276911">
		<tag k="name" v="Tverrelva" />
		<tag k="ssr:stedsnr" v="96793" />
		<tag k="waterway" v="stream" />
	</node>
	<node id="-561289" lat="62.3761666707" lon="5.95442778243">
		<tag k="name" v="Koppelva" />
		<tag k="ssr:stedsnr" v="362049" />
		<tag k="waterway" v="river" />
	</node>
	<node id="-561636" lat="62.4039472194" lon="5.97973889415">
		<tag k="name" v="Koppeelva" />
		<tag k="ssr:stedsnr" v="763780" />
		<tag k="waterway" v="stream" />
	</node>
	<node id="-561510" lat="62.4201805554" lon="5.97607499895">
		<tag k="name" v="Skolmedalselva" />
		<tag k="ssr:stedsnr" v="537899" />
		<tag k="waterway" v="stream" />
	</node>
	<node id="-561250" lat="62.3486444435" lon="5.97728610778">
		<tag k="name" v="Litleholmen" />
		<tag k="place" v="islet" />
		<tag k="ssr:stedsnr" v="278708" />
	</node>
	<node id="-561633" lat="62.3721666706" lon="6.01192222039">
		<tag k="name" v="Holstadelva" />
		<tag k="ssr:stedsnr" v="763763" />
		<tag k="waterway" v="stream" />
	</node>
	<node id="-561632" lat="62.3823222246" lon="5.91315554974">
		<tag k="name" v="Nordneset" />
		<tag k="natural" v="cape" />
		<tag k="ssr:stedsnr" v="763723" />
	</node>
	<node id="-561375" lat="62.3156916706" lon="5.96744722153">
		<tag k="name" v="Snipsøyrelva" />
		<tag k="ssr:stedsnr" v="96712" />
		<tag k="waterway" v="stream" />
	</node>
	<node id="-561630" lat="62.3744410136" lon="5.9086974868">
		<tag k="alt_name" v="Mosvatnelva" />
		<tag k="name" v="Mosvasselva" />
		<tag k="ssr:stedsnr" v="763717" />
		<tag k="waterway" v="river" />
	</node>
	<node id="-561373" lat="62.3369249971" lon="6.05941944558">
		<tag k="name" v="Hjørungdalsvatnet" />
		<tag k="natural" v="water" />
		<tag k="ssr:stedsnr" v="72769" />
		<tag k="water" v="lake" />
	</node>
	<node id="-561628" lat="62.31178056" lon="5.98370833844">
		<tag k="name" v="Holesanden" />
		<tag k="natural" v="beach" />
		<tag k="ssr:stedsnr" v="763703" />
	</node>
	<node id="-561627" lat="62.3252305559" lon="5.98015556507">
		<tag k="name" v="Storeneset" />
		<tag k="natural" v="cape" />
		<tag k="ssr:stedsnr" v="763701" />
	</node>
	<node id="-561496" lat="62.3491416682" lon="5.98435834209">
		<tag k="name" v="Langenesvika" />
		<tag k="natural" v="bay" />
		<tag k="ssr:stedsnr" v="520697" />
	</node>
	<node id="-561508" lat="62.3919972236" lon="5.99961110659">
		<tag k="alt_name" v="Indreelva" />
		<tag k="name" v="Indredalselva" />
		<tag k="ssr:stedsnr" v="520803" />
		<tag k="waterway" v="river" />
	</node>
	<node id="-561621" lat="62.380727776" lon="5.90959722067">
		<tag k="name" v="Sørneset" />
		<tag k="natural" v="cape" />
		<tag k="ssr:stedsnr" v="763650" />
	</node>
	<node id="-561620" lat="62.3794999968" lon="5.92135277189">
		<tag k="name" v="Elvane" />
		<tag k="ssr:stedsnr" v="763649" />
		<tag k="waterway" v="stream" />
	</node>
	<node id="-561619" lat="62.3297555532" lon="6.04279166071">
		<tag k="name" v="Krokelva" />
		<tag k="ssr:stedsnr" v="763642" />
		<tag k="waterway" v="stream" />
	</node>
	<node id="-561488" lat="62.3623027812" lon="5.99807222356">
		<tag k="name" v="Grimstadvatnet" />
		<tag k="natural" v="water" />
		<tag k="ssr:stedsnr" v="496852" />
	</node>
	<node id="-561358" lat="62.38307222" lon="5.90925832876">
		<tag k="name" v="Mosvasskråa" />
		<tag k="natural" v="bay" />
		<tag k="ssr:stedsnr" v="35741" />
	</node>
	<node id="-561612" lat="62.3506777758" lon="5.93959999802">
		<tag k="name" v="Riseelva" />
		<tag k="ssr:stedsnr" v="739835" />
		<tag k="waterway" v="stream" />
	</node>
	<node id="-561354" lat="62.3502388875" lon="5.97751667022">
		<tag k="name" v="Storholmen" />
		<tag k="place" v="islet" />
		<tag k="ssr:stedsnr" v="35712" />
	</node>
	<node id="-561481" lat="62.3816722243" lon="5.95988055787">
		<tag k="name" v="Grimstadvatnet" />
		<tag k="natural" v="water" />
		<tag k="ssr:stedsnr" v="460838" />
		<tag k="water" v="lake" />
	</node>
	<node id="-561479" lat="62.4031777757" lon="5.99376110239">
		<tag k="name" v="Ytredalselva" />
		<tag k="ssr:stedsnr" v="460825" />
		<tag k="waterway" v="stream" />
	</node>
	<node id="-561350" lat="62.3434333301" lon="6.06444444718">
		<tag k="name" v="Vågselva" />
		<tag k="ssr:stedsnr" v="35669" />
		<tag k="waterway" v="river" />
	</node>
	<node id="-561249" lat="62.34831111" lon="5.97997777231">
		<tag k="name" v="Langeneset" />
		<tag k="natural" v="cape" />
		<tag k="ssr:stedsnr" v="278705" />
	</node>
	<node id="-561476" lat="62.3405138915" lon="5.97146944812">
		<tag k="name" v="Badarvika" />
		<tag k="natural" v="bay" />
		<tag k="ssr:stedsnr" v="460769" />
	</node>
	<node id="-561475" lat="62.3382194403" lon="5.97336945045">
		<tag k="name" v="Storeneset" />
		<tag k="natural" v="cape" />
		<tag k="ssr:stedsnr" v="460768" />
	</node>
	<node id="-561278" lat="62.3335277812" lon="6.03659166264">
		<tag k="name" v="Hjørungdalselva" />
		<tag k="ssr:stedsnr" v="338710" />
		<tag k="waterway" v="stream" />
	</node>
	<node id="-561600" lat="62.3231999976" lon="5.9794611044">
		<tag k="name" v="Naustneset" />
		<tag k="natural" v="cape" />
		<tag k="ssr:stedsnr" v="703729" />
	</node>
	<node id="-561376" lat="62.3483194404" lon="5.99912776946">
		<tag k="name" v="Krokelva" />
		<tag k="ssr:stedsnr" v="96625" />
		<tag k="waterway" v="stream" />
	</node>
	<node id="-561470" lat="62.309316668" lon="5.97933054925">
		<tag k="name" v="Holeelva" />
		<tag k="ssr:stedsnr" v="460735" />
		<tag k="waterway" v="stream" />
	</node>
	<node id="-561478" lat="62.3637305553" lon="6.00760833248">
		<tag k="name" v="Raudesanden" />
		<tag k="natural" v="beach" />
		<tag k="ssr:stedsnr" v="460797" />
	</node>
	<node id="-561590" lat="62.3959527743" lon="6.00645277557">
		<tag k="name" v="Storelva" />
		<tag k="ssr:stedsnr" v="703652" />
		<tag k="waterway" v="river" />
	</node>
	<node id="-561589" lat="62.3436527795" lon="5.98276667396">
		<tag k="name" v="Skallane" />
		<tag k="natural" v="shoal" />
		<tag k="place" v="locality" />
		<tag k="ssr:stedsnr" v="703649" />
	</node>
	<node id="-561588" lat="62.3231277765" lon="5.93739167337">
		<tag k="name" v="Demninga" />
		<tag k="ssr:stedsnr" v="703642" />
		<tag k="waterway" v="dam" />
	</node>
	<node id="-561331" lat="62.3337222221" lon="5.97515000848">
		<tag k="name" v="Høgholneset" />
		<tag k="natural" v="cape" />
		<tag k="ssr:stedsnr" v="885726" />
	</node>
	<node id="-561587" lat="62.3128972199" lon="5.97860555958">
		<tag k="name" v="Vassvika" />
		<tag k="natural" v="bay" />
		<tag k="ssr:stedsnr" v="703634" />
	</node>
	<node id="-561401" lat="62.3252666652" lon="5.9595027755">
		<tag k="name" v="Svartevasselva" />
		<tag k="ssr:stedsnr" v="156689" />
		<tag k="waterway" v="stream" />
	</node>
	<node id="-561629" lat="62.3461166637" lon="5.98160832616">
		<tag k="name" v="Klovneset" />
		<tag k="natural" v="cape" />
		<tag k="ssr:stedsnr" v="763714" />
	</node>
	<node id="-561324" lat="62.3393138854" lon="6.07998610754">
		<tag k="name" v="Klubben" />
		<tag k="natural" v="cape" />
		<tag k="ssr:stedsnr" v="885617" />
	</node>
	<node id="-561579" lat="62.3792083358" lon="5.91676110325">
		<tag k="name" v="Mosvatnet" />
		<tag k="natural" v="water" />
		<tag k="ssr:stedsnr" v="678838" />
		<tag k="water" v="lake" />
	</node>
	<node id="-561685" lat="62.355944442" lon="5.98200277056">
		<tag k="name" v="Kaldholelva" />
		<tag k="ssr:stedsnr" v="921831" />
		<tag k="waterway" v="stream" />
	</node>
	<node id="-561529" lat="62.3335027745" lon="6.0582027846">
		<tag k="name" v="Svartevika" />
		<tag k="natural" v="bay" />
		<tag k="ssr:stedsnr" v="581732" />
	</node>
	<node id="-561575" lat="62.3757666706" lon="5.93124444708">
		<tag k="name" v="Mossvasseidet" />
		<tag k="natural" v="strait" />
		<tag k="ssr:stedsnr" v="665053" />
	</node>
	<node id="-561585" lat="62.4162194474" lon="5.97773332813">
		<tag k="name" v="Grøthornvatnet" />
		<tag k="natural" v="water" />
		<tag k="ssr:stedsnr" v="678902" />
	</node>
	<node id="-561444" lat="62.3319972236" lon="6.04404722127">
		<tag k="name" v="Furneselva" />
		<tag k="ssr:stedsnr" v="217719" />
		<tag k="waterway" v="stream" />
	</node>
	<node id="-561699" lat="62.4066805528" lon="5.98034999063">
		<tag k="name" v="Sætreelva" />
		<tag k="ssr:stedsnr" v="945760" />
		<tag k="waterway" v="stream" />
	</node>
	<node id="-561570" lat="62.3034750027" lon="5.95393887987">
		<tag k="name" v="Lomtjørn" />
		<tag k="natural" v="water" />
		<tag k="ssr:stedsnr" v="642636" />
	</node>
	<node id="-561499" lat="62.3127222203" lon="5.98222500235">
		<tag k="name" v="Holeneset" />
		<tag k="natural" v="cape" />
		<tag k="ssr:stedsnr" v="520718" />
	</node>
	<node id="-561696" lat="62.332836112" lon="5.99119444349">
		<tag k="name" v="Litlemyrneset" />
		<tag k="natural" v="cape" />
		<tag k="ssr:stedsnr" v="945698" />
	</node>
	<node id="-561392" lat="62.3300499989" lon="5.91598889174">
		<tag k="name" v="Halsen" />
		<tag k="natural" v="strait" />
		<tag k="ssr:stedsnr" v="156607" />
	</node>
	<node id="-561310" lat="62.3660777756" lon="5.90471389575">
		<tag k="alt_name" v="Feillielva" />
		<tag k="name" v="Feilielva" />
		<tag k="ssr:stedsnr" v="399713" />
		<tag k="waterway" v="stream" />
	</node>
	<node id="-561349" lat="62.3115055543" lon="5.98368054702">
		<tag k="name" v="Osane" />
		<tag k="natural" v="bay" />
		<tag k="ssr:stedsnr" v="35658" />
	</node>
	<node id="-561691" lat="62.3871416692" lon="5.97987221491">
		<tag k="name" v="Fossane" />
		<tag k="natural" v="waterfall" />
		<tag k="ssr:stedsnr" v="945570" />
	</node>
	<node id="-561305" lat="62.3590777757" lon="5.90990278598">
		<tag k="name" v="Legeelva" />
		<tag k="ssr:stedsnr" v="399638" />
		<tag k="waterway" v="stream" />
	</node>
	<node id="-561505" lat="62.3252027822" lon="5.91678055339">
		<tag k="name" v="Kriken" />
		<tag k="natural" v="bay" />
		<tag k="ssr:stedsnr" v="520748" />
	</node>
	<node id="-561431" lat="62.3504944438" lon="5.97445833305">
		<tag k="name" v="Sandgotvika" />
		<tag k="natural" v="bay" />
		<tag k="ssr:stedsnr" v="217659" />
	</node>
	<node id="-561557" lat="62.3403777822" lon="6.06970278691">
		<tag k="name" v="Storholmen" />
		<tag k="place" v="islet" />
		<tag k="ssr:stedsnr" v="641683" />
	</node>
	<node id="-561428" lat="62.3278222244" lon="5.97583888671">
		<tag k="name" v="Æda" />
		<tag k="natural" v="beach" />
		<tag k="ssr:stedsnr" v="217618" />
	</node>
	<node id="-561683" lat="62.3218527787" lon="5.9214083248">
		<tag k="alt_name" v="Hammarstøylvatnet" />
		<tag k="name" v="Hammarstøylsvatnet" />
		<tag k="natural" v="water" />
		<tag k="ssr:stedsnr" v="921818" />
		<tag k="water" v="lake" />
	</node>
	<node id="-561554" lat="62.3641861126" lon="6.02073054895">
		<tag k="name" v="Djuphola" />
		<tag k="place" v="locality" />
		<tag k="ssr:stedsnr" v="641598" />
	</node>
	<node id="-561553" lat="62.3611722233" lon="5.99519444778">
		<tag k="name" v="Tangane" />
		<tag k="natural" v="cape" />
		<tag k="ssr:stedsnr" v="641590" />
	</node>
	<node id="-561440" lat="62.3512916657" lon="6.11320833342">
		<tag k="name" v="Haukhamna" />
		<tag k="natural" v="bay" />
		<tag k="ssr:stedsnr" v="217693" />
	</node>
	<node id="-561453" lat="62.3585972223" lon="5.90487777681">
		<tag k="alt_name" v="Kattatjerna" />
		<tag k="name" v="Kattatjørna" />
		<tag k="natural" v="water" />
		<tag k="ssr:stedsnr" v="253881" />
	</node>
	<node id="-561360" lat="62.3319861088" lon="5.97813056396">
		<tag k="name" v="Skjellhola" />
		<tag k="natural" v="shoal" />
		<tag k="place" v="locality" />
		<tag k="ssr:stedsnr" v="35753" />
	</node>
	<node id="-561415" lat="62.3827333323" lon="6.02466665769">
		<tag k="name" v="Sveneselva" />
		<tag k="ssr:stedsnr" v="156806" />
		<tag k="waterway" v="stream" />
	</node>
	<node id="-561409" lat="62.3653527798" lon="5.99536943988">
		<tag k="name" v="Grimstadelva" />
		<tag k="ssr:stedsnr" v="156768" />
		<tag k="waterway" v="stream" />
	</node>
</osm>
