<?xml version="1.0" encoding="UTF-8"?>
<osm generator="osmapis" version="0.6">
	<node id="-63484" lat="62.316602776" lon="6.01771388047">
		<tag k="name" v="Kamben" />
		<tag k="natural" v="ridge" />
		<tag k="place" v="locality" />
		<tag k="ssr:stedsnr" v="338648" />
	</node>
	<node id="-63483" lat="62.383272226" lon="6.0286472214">
		<tag k="name" v="Rinden" />
		<tag k="natural" v="ridge" />
		<tag k="place" v="locality" />
		<tag k="ssr:stedsnr" v="338593" />
	</node>
	<node id="-63477" lat="62.3901361075" lon="5.98616944718">
		<tag k="name" v="Indredalen" />
		<tag k="natural" v="valley" />
		<tag k="place" v="locality" />
		<tag k="ssr:stedsnr" v="193886" />
	</node>
	<node id="-63476" lat="62.3985638898" lon="5.99716945135">
		<tag k="alt_name" v="Knutenakken" />
		<tag k="fixme" v="consider natural=peak for the most distinct mountains in the district" />
		<tag k="name" v="Knutnakken" />
		<tag k="natural" v="hill" />
		<tag k="place" v="locality" />
		<tag k="ssr:stedsnr" v="193883" />
	</node>
	<node id="-63475" lat="62.3399722192" lon="5.94494167296">
		<tag k="alt_name" v="Haugnakken" />
		<tag k="fixme" v="consider natural=peak for the most distinct mountains in the district" />
		<tag k="name" v="Hovdenakken" />
		<tag k="natural" v="hill" />
		<tag k="place" v="locality" />
		<tag k="ssr:stedsnr" v="193852" />
	</node>
	<node id="-63474" lat="62.3716916701" lon="5.94991389226">
		<tag k="fixme" v="consider natural=peak for the most distinct mountains in the district" />
		<tag k="name" v="Skafjellet" />
		<tag k="natural" v="hill" />
		<tag k="place" v="locality" />
		<tag k="ssr:stedsnr" v="192879" />
	</node>
	<node id="-63473" lat="62.3926499984" lon="5.95569167536">
		<tag k="name" v="Litle Tørlingehaug" />
		<tag k="natural" v="hill" />
		<tag k="place" v="locality" />
		<tag k="ssr:stedsnr" v="180042" />
	</node>
	<node id="-63467" lat="62.4075027734" lon="5.96786943644">
		<tag k="name" v="Småvardane" />
		<tag k="natural" v="hill" />
		<tag k="place" v="locality" />
		<tag k="ssr:stedsnr" v="156792" />
	</node>
	<node id="-63465" lat="62.4091222232" lon="5.99763332616">
		<tag k="name" v="Lisetbrunene" />
		<tag k="natural" v="ridge" />
		<tag k="place" v="locality" />
		<tag k="ssr:stedsnr" v="156784" />
	</node>
	<node id="-63461" lat="62.362616665" lon="6.03753612064">
		<tag k="name" v="Smådalane" />
		<tag k="natural" v="valley" />
		<tag k="place" v="locality" />
		<tag k="ssr:stedsnr" v="156753" />
	</node>
	<node id="-63460" lat="62.3346916673" lon="5.96715834149">
		<tag k="name" v="Klungrebakken" />
		<tag k="natural" v="slope" />
		<tag k="place" v="locality" />
		<tag k="ssr:stedsnr" v="156718" />
	</node>
	<node id="-63459" lat="62.3444472203" lon="6.00169721409">
		<tag k="name" v="Seljehjellen" />
		<tag k="place" v="locality" />
		<tag k="ssr:stedsnr" v="156715" />
	</node>
	<node id="-63458" lat="62.360855559" lon="5.98065278104">
		<tag k="name" v="Bjåstadbakken" />
		<tag k="natural" v="slope" />
		<tag k="place" v="locality" />
		<tag k="ssr:stedsnr" v="156701" />
	</node>
	<node id="-63454" lat="62.3264999957" lon="6.01173055534">
		<tag k="name" v="Ulsetleitet" />
		<tag k="natural" v="slope" />
		<tag k="place" v="locality" />
		<tag k="ssr:stedsnr" v="156678" />
	</node>
	<node id="-63453" lat="62.3292333313" lon="6.02742222967">
		<tag k="name" v="Furehaugen" />
		<tag k="natural" v="hill" />
		<tag k="place" v="locality" />
		<tag k="ssr:stedsnr" v="156676" />
	</node>
	<node id="-63449" lat="62.3271250005" lon="6.0001611065">
		<tag k="name" v="Haugen" />
		<tag k="natural" v="hill" />
		<tag k="place" v="locality" />
		<tag k="ssr:stedsnr" v="156613" />
	</node>
	<node id="-63448" lat="62.3120555595" lon="5.96485555824">
		<tag k="name" v="Bulegene" />
		<tag k="natural" v="slope" />
		<tag k="place" v="locality" />
		<tag k="ssr:stedsnr" v="156611" />
	</node>
	<node id="-63441" lat="62.4013916669" lon="6.00099723079">
		<tag k="name" v="Årdalshaugen" />
		<tag k="natural" v="hill" />
		<tag k="place" v="locality" />
		<tag k="ssr:stedsnr" v="96792" />
	</node>
	<node id="-63440" lat="62.2876083339" lon="5.95385000531">
		<tag k="name" v="Bukketaket" />
		<tag k="natural" v="slope" />
		<tag k="place" v="locality" />
		<tag k="ssr:stedsnr" v="96682" />
	</node>
	<node id="-63436" lat="62.383202777" lon="6.01583333115">
		<tag k="name" v="Brende" />
		<tag k="natural" v="slope" />
		<tag k="place" v="locality" />
		<tag k="ssr:stedsnr" v="300150" />
	</node>
	<node id="-63435" lat="62.4026055513" lon="5.93885000666">
		<tag k="fixme" v="multiple name tags, choose one and add the other to alt_name; consider natural=peak for the most distinct mountains in the district" />
		<tag k="name" v="Sneldelida;Sneldelihorn" />
		<tag k="natural" v="hill" />
		<tag k="place" v="locality" />
		<tag k="ssr:stedsnr" v="72877" />
	</node>
	<node id="-63430" lat="62.3819722263" lon="6.02561111336">
		<tag k="fixme" v="consider natural=peak for the most distinct mountains in the district" />
		<tag k="name" v="Håbakknotten" />
		<tag k="natural" v="hill" />
		<tag k="place" v="locality" />
		<tag k="ssr:stedsnr" v="71876" />
	</node>
	<node id="-63429" lat="62.3660111094" lon="5.91223610907">
		<tag k="fixme" v="consider natural=peak for the most distinct mountains in the district" />
		<tag k="name" v="Bjørnenakken" />
		<tag k="natural" v="hill" />
		<tag k="place" v="locality" />
		<tag k="ssr:stedsnr" v="71867" />
	</node>
	<node id="-63427" lat="62.2941416673" lon="5.96182777152">
		<tag k="name" v="Tirhammargjelet" />
		<tag k="natural" v="gorge" />
		<tag k="ssr:stedsnr" v="51244" />
	</node>
	<node id="-63425" lat="62.3556416667" lon="6.04700277073">
		<tag k="name" v="Furingenausen" />
		<tag k="natural" v="ridge" />
		<tag k="place" v="locality" />
		<tag k="ssr:stedsnr" v="35789" />
	</node>
	<node id="-63423" lat="62.3343277769" lon="5.94306111058">
		<tag k="name" v="Sletteskogen" />
		<tag k="natural" v="slope" />
		<tag k="place" v="locality" />
		<tag k="ssr:stedsnr" v="35756" />
	</node>
	<node id="-63421" lat="62.3399444406" lon="6.0271750048">
		<tag k="name" v="Liahjellen" />
		<tag k="place" v="locality" />
		<tag k="ssr:stedsnr" v="35746" />
	</node>
	<node id="-63419" lat="62.3093083359" lon="5.97242221438">
		<tag k="name" v="Holeleite" />
		<tag k="natural" v="slope" />
		<tag k="place" v="locality" />
		<tag k="ssr:stedsnr" v="35730" />
	</node>
	<node id="-63413" lat="62.3229027793" lon="6.03119722242">
		<tag k="name" v="Koldalen" />
		<tag k="natural" v="valley" />
		<tag k="place" v="locality" />
		<tag k="ssr:stedsnr" v="35673" />
	</node>
	<node id="-63405" lat="62.3116222185" lon="5.94712777667">
		<tag k="alt_name" v="Langeheia" />
		<tag k="fixme" v="consider natural=peak for the most distinct mountains in the district" />
		<tag k="name" v="Langheida" />
		<tag k="natural" v="hill" />
		<tag k="place" v="locality" />
		<tag k="ssr:stedsnr" v="11777" />
	</node>
	<node id="-63404" lat="62.2812555572" lon="5.9392888978">
		<tag k="fixme" v="consider natural=peak for the most distinct mountains in the district" />
		<tag k="name" v="Laupen" />
		<tag k="natural" v="hill" />
		<tag k="place" v="locality" />
		<tag k="ssr:stedsnr" v="10187" />
	</node>
	<node id="-63402" lat="62.3523583378" lon="6.02961666591">
		<tag k="fixme" v="consider natural=peak for the most distinct mountains in the district" />
		<tag k="name" v="Litlehornet" />
		<tag k="natural" v="hill" />
		<tag k="place" v="locality" />
		<tag k="ssr:stedsnr" v="885759" />
	</node>
	<node id="-63401" lat="62.3366722183" lon="5.98966944388">
		<tag k="name" v="Storeberget" />
		<tag k="natural" v="hill" />
		<tag k="place" v="locality" />
		<tag k="ssr:stedsnr" v="885669" />
	</node>
	<node id="-63398" lat="62.3348583354" lon="6.00752221732">
		<tag k="fixme" v="consider natural=peak for the most distinct mountains in the district" />
		<tag k="name" v="Nausane" />
		<tag k="natural" v="hill" />
		<tag k="place" v="locality" />
		<tag k="ssr:stedsnr" v="885613" />
	</node>
	<node id="-63397" lat="62.3845666692" lon="5.99123889123">
		<tag k="name" v="Ryggen" />
		<tag k="natural" v="ridge" />
		<tag k="place" v="locality" />
		<tag k="ssr:stedsnr" v="885609" />
	</node>
	<node id="-63388" lat="62.3764944438" lon="6.01557778042">
		<tag k="name" v="Kvia" />
		<tag k="natural" v="slope" />
		<tag k="place" v="locality" />
		<tag k="ssr:stedsnr" v="945583" />
	</node>
	<node id="-63382" lat="62.3331472232" lon="6.04101389565">
		<tag k="name" v="Hjørungdalen" />
		<tag k="natural" v="valley" />
		<tag k="place" v="locality" />
		<tag k="ssr:stedsnr" v="938818" />
	</node>
	<node id="-63379" lat="62.3384277733" lon="5.93813610797">
		<tag k="name" v="Småskogane" />
		<tag k="natural" v="slope" />
		<tag k="place" v="locality" />
		<tag k="ssr:stedsnr" v="824757" />
	</node>
	<node id="-63377" lat="62.3559583306" lon="5.9320138943">
		<tag k="name" v="Lebakkane" />
		<tag k="natural" v="slope" />
		<tag k="place" v="locality" />
		<tag k="ssr:stedsnr" v="824820" />
	</node>
	<node id="-63372" lat="62.3154638909" lon="5.93918055933">
		<tag k="fixme" v="consider natural=peak for the most distinct mountains in the district" />
		<tag k="name" v="Steinholten" />
		<tag k="natural" v="hill" />
		<tag k="place" v="locality" />
		<tag k="ssr:stedsnr" v="824705" />
	</node>
	<node id="-63368" lat="62.3822444489" lon="5.98980555794">
		<tag k="alt_name" v="Feliskaret" />
		<tag k="name" v="Feiliskaret" />
		<tag k="natural" v="valley" />
		<tag k="place" v="locality" />
		<tag k="ssr:stedsnr" v="921861" />
	</node>
	<node id="-63363" lat="62.3051722188" lon="5.96808611678">
		<tag k="fixme" v="consider natural=peak for the most distinct mountains in the district" />
		<tag k="name" v="Holenakken" />
		<tag k="natural" v="hill" />
		<tag k="place" v="locality" />
		<tag k="ssr:stedsnr" v="921788" />
	</node>
	<node id="-63362" lat="62.2997388907" lon="5.96685833565">
		<tag k="fixme" v="consider natural=peak for the most distinct mountains in the district" />
		<tag k="name" v="Kvamstua" />
		<tag k="natural" v="hill" />
		<tag k="place" v="locality" />
		<tag k="ssr:stedsnr" v="921154" />
	</node>
	<node id="-63358" lat="62.3862277764" lon="5.92018055053">
		<tag k="fixme" v="consider natural=peak for the most distinct mountains in the district" />
		<tag k="name" v="Brørene" />
		<tag k="natural" v="hill" />
		<tag k="place" v="locality" />
		<tag k="ssr:stedsnr" v="739878" />
	</node>
	<node id="-63356" lat="62.4121888935" lon="5.96177223029">
		<tag k="alt_name" v="Skinnalihornet" />
		<tag k="fixme" v="consider natural=peak for the most distinct mountains in the district" />
		<tag k="name" v="Signalhornet" />
		<tag k="natural" v="hill" />
		<tag k="place" v="locality" />
		<tag k="ssr:stedsnr" v="739922" />
	</node>
	<node id="-63346" lat="62.3587194442" lon="5.95919999152">
		<tag k="name" v="Bigsetbakkane" />
		<tag k="natural" v="slope" />
		<tag k="place" v="locality" />
		<tag k="ssr:stedsnr" v="885789" />
	</node>
	<node id="-63345" lat="62.3588611143" lon="5.93218888165">
		<tag k="name" v="Dikebakken" />
		<tag k="natural" v="slope" />
		<tag k="place" v="locality" />
		<tag k="ssr:stedsnr" v="885788" />
	</node>
	<node id="-63342" lat="62.3113749992" lon="5.99680832657">
		<tag k="name" v="Tuhjellen" />
		<tag k="place" v="locality" />
		<tag k="ssr:stedsnr" v="885684" />
	</node>
	<node id="-63341" lat="62.3255361069" lon="5.9953277703">
		<tag k="name" v="Rekedalen" />
		<tag k="natural" v="slope" />
		<tag k="place" v="locality" />
		<tag k="ssr:stedsnr" v="885680" />
	</node>
	<node id="-63340" lat="62.3342611146" lon="5.9511333342">
		<tag k="name" v="Morkaskogane" />
		<tag k="natural" v="slope" />
		<tag k="place" v="locality" />
		<tag k="ssr:stedsnr" v="885724" />
	</node>
	<node id="-63336" lat="62.3336749988" lon="5.93295556088">
		<tag k="name" v="Søre Bjørnaskaret" />
		<tag k="natural" v="valley" />
		<tag k="place" v="locality" />
		<tag k="ssr:stedsnr" v="641711" />
	</node>
	<node id="-63335" lat="62.3440694404" lon="5.94658056376">
		<tag k="name" v="Lia" />
		<tag k="natural" v="slope" />
		<tag k="place" v="locality" />
		<tag k="ssr:stedsnr" v="641707" />
	</node>
	<node id="-63333" lat="62.2881499983" lon="5.9377388918">
		<tag k="fixme" v="multiple name tags, choose one and add the other to alt_name; consider natural=peak for the most distinct mountains in the district" />
		<tag k="name" v="Kongsvollen;Løsethorn" />
		<tag k="natural" v="hill" />
		<tag k="place" v="locality" />
		<tag k="ssr:stedsnr" v="617168" />
	</node>
	<node id="-63329" lat="62.4066777778" lon="5.99526110572">
		<tag k="fixme" v="consider natural=peak for the most distinct mountains in the district" />
		<tag k="name" v="Saudebønakken" />
		<tag k="natural" v="hill" />
		<tag k="place" v="locality" />
		<tag k="ssr:stedsnr" v="581805" />
	</node>
	<node id="-63324" lat="62.3462777819" lon="6.07133332744">
		<tag k="name" v="Vågslegene" />
		<tag k="natural" v="hill" />
		<tag k="place" v="locality" />
		<tag k="ssr:stedsnr" v="703751" />
	</node>
	<node id="-63321" lat="62.3033194412" lon="5.95761389068">
		<tag k="name" v="Skjervene" />
		<tag k="natural" v="hill" />
		<tag k="place" v="locality" />
		<tag k="ssr:stedsnr" v="703712" />
	</node>
	<node id="-63319" lat="62.3054388887" lon="5.99436666228">
		<tag k="name" v="Grøtnakken" />
		<tag k="natural" v="ridge" />
		<tag k="place" v="locality" />
		<tag k="ssr:stedsnr" v="703706" />
	</node>
	<node id="-63316" lat="62.3568749996" lon="6.07101666714">
		<tag k="name" v="Røra" />
		<tag k="natural" v="ridge" />
		<tag k="place" v="locality" />
		<tag k="ssr:stedsnr" v="703665" />
	</node>
	<node id="-63315" lat="62.4183222229" lon="5.9559972162">
		<tag k="fixme" v="consider natural=peak for the most distinct mountains in the district" />
		<tag k="name" v="Skolma" />
		<tag k="natural" v="hill" />
		<tag k="place" v="locality" />
		<tag k="ssr:stedsnr" v="556912" />
	</node>
	<node id="-63311" lat="62.4047361114" lon="5.95873888537">
		<tag k="name" v="Rypedalen" />
		<tag k="natural" v="valley" />
		<tag k="place" v="locality" />
		<tag k="ssr:stedsnr" v="540161" />
	</node>
	<node id="-63310" lat="62.3475611142" lon="6.0987527728">
		<tag k="alt_name" v="Hjørungneshornet" />
		<tag k="fixme" v="consider natural=peak for the most distinct mountains in the district" />
		<tag k="name" v="Hornet" />
		<tag k="natural" v="hill" />
		<tag k="place" v="locality" />
		<tag k="ssr:stedsnr" v="687340" />
	</node>
	<node id="-63302" lat="62.3787333371" lon="5.98523332665">
		<tag k="alt_name" v="Holstadhorn" />
		<tag k="fixme" v="consider natural=peak for the most distinct mountains in the district" />
		<tag k="name" v="Holstadhornet" />
		<tag k="natural" v="hill" />
		<tag k="ssr:stedsnr" v="678840" />
	</node>
	<node id="-63298" lat="62.2959861108" lon="5.95914999611">
		<tag k="fixme" v="consider natural=peak for the most distinct mountains in the district" />
		<tag k="name" v="Høgenausa" />
		<tag k="natural" v="hill" />
		<tag k="place" v="locality" />
		<tag k="ssr:stedsnr" v="436131" />
	</node>
	<node id="-63293" lat="62.4188361137" lon="5.97250832508">
		<tag k="name" v="Skolmedalen" />
		<tag k="natural" v="valley" />
		<tag k="place" v="locality" />
		<tag k="ssr:stedsnr" v="384359" />
	</node>
	<node id="-63289" lat="62.3166472221" lon="5.93628610201">
		<tag k="fixme" v="consider natural=peak for the most distinct mountains in the district" />
		<tag k="name" v="Løkeberget" />
		<tag k="natural" v="hill" />
		<tag k="place" v="locality" />
		<tag k="ssr:stedsnr" v="496767" />
	</node>
	<node id="-63283" lat="62.3927694443" lon="6.01063056475">
		<tag k="fixme" v="consider natural=peak for the most distinct mountains in the district" />
		<tag k="name" v="Skarebakknakken" />
		<tag k="natural" v="hill" />
		<tag k="place" v="locality" />
		<tag k="ssr:stedsnr" v="338779" />
	</node>
	<node id="-63282" lat="62.4148999993" lon="5.95576388111">
		<tag k="name" v="Skinnalidalen" />
		<tag k="natural" v="valley" />
		<tag k="place" v="locality" />
		<tag k="ssr:stedsnr" v="338775" />
	</node>
	<node id="-63281" lat="62.4102250017" lon="5.99719445261">
		<tag k="name" v="Furenakken" />
		<tag k="natural" v="ridge" />
		<tag k="place" v="locality" />
		<tag k="ssr:stedsnr" v="338771" />
	</node>
	<node id="-63278" lat="62.354355555" lon="6.00463054613">
		<tag k="name" v="Furebakkane" />
		<tag k="natural" v="slope" />
		<tag k="place" v="locality" />
		<tag k="ssr:stedsnr" v="338752" />
	</node>
	<node id="-63274" lat="62.3724277778" lon="5.96796110953">
		<tag k="name" v="Mybærholane" />
		<tag k="natural" v="slope" />
		<tag k="place" v="locality" />
		<tag k="ssr:stedsnr" v="460841" />
	</node>
	<node id="-63272" lat="62.404288891" lon="5.94494444667">
		<tag k="name" v="Rjupedalen" />
		<tag k="natural" v="valley" />
		<tag k="place" v="locality" />
		<tag k="ssr:stedsnr" v="460827" />
	</node>
	<node id="-63265" lat="62.359847224" lon="5.9134972276">
		<tag k="name" v="Legene" />
		<tag k="natural" v="slope" />
		<tag k="place" v="locality" />
		<tag k="ssr:stedsnr" v="460749" />
	</node>
	<node id="-63263" lat="62.3250861109" lon="5.99934721981">
		<tag k="name" v="Einerinden" />
		<tag k="natural" v="ridge" />
		<tag k="place" v="locality" />
		<tag k="ssr:stedsnr" v="460739" />
	</node>
	<node id="-63261" lat="62.293047218" lon="5.95867223121">
		<tag k="name" v="Langhammargjelet" />
		<tag k="natural" v="gorge" />
		<tag k="ssr:stedsnr" v="460711" />
	</node>
	<node id="-63259" lat="62.3102083344" lon="5.9976611122">
		<tag k="fixme" v="consider natural=peak for the most distinct mountains in the district" />
		<tag k="name" v="Litletua" />
		<tag k="natural" v="hill" />
		<tag k="place" v="locality" />
		<tag k="ssr:stedsnr" v="460657" />
	</node>
	<node id="-63255" lat="62.3679083347" lon="6.01480277457">
		<tag k="name" v="Brekkene" />
		<tag k="place" v="locality" />
		<tag k="ssr:stedsnr" v="233879" />
	</node>
	<node id="-63248" lat="62.3572750004" lon="5.90523056514">
		<tag k="fixme" v="consider natural=peak for the most distinct mountains in the district" />
		<tag k="name" v="Nevstadnipa" />
		<tag k="natural" v="hill" />
		<tag k="place" v="locality" />
		<tag k="ssr:stedsnr" v="217704" />
	</node>
	<node id="-63240" lat="62.3670999962" lon="5.94216665852">
		<tag k="name" v="Dalsmunnbakkane" />
		<tag k="natural" v="slope" />
		<tag k="place" v="locality" />
		<tag k="ssr:stedsnr" v="278824" />
	</node>
	<node id="-63239" lat="62.3886611133" lon="5.96715278217">
		<tag k="name" v="Bondebakkane" />
		<tag k="natural" v="slope" />
		<tag k="place" v="locality" />
		<tag k="ssr:stedsnr" v="278816" />
	</node>
	<node id="-63238" lat="62.395486115" lon="6.00417499934">
		<tag k="name" v="Indredalen" />
		<tag k="natural" v="valley" />
		<tag k="place" v="locality" />
		<tag k="ssr:stedsnr" v="278815" />
	</node>
	<node id="-63229" lat="62.3012027815" lon="5.98047222939">
		<tag k="name" v="Haugen" />
		<tag k="natural" v="hill" />
		<tag k="place" v="locality" />
		<tag k="ssr:stedsnr" v="278665" />
	</node>
	<node id="-63226" lat="62.3483000026" lon="6.02450278449">
		<tag k="fixme" v="consider natural=peak for the most distinct mountains in the district" />
		<tag k="name" v="Melshornet" />
		<tag k="natural" v="hill" />
		<tag k="place" v="locality" />
		<tag k="ssr:stedsnr" v="132838" />
	</node>
	<node id="-63220" lat="62.3524972237" lon="6.03484999333">
		<tag k="name" v="Melshornlægdene" />
		<tag k="natural" v="slope" />
		<tag k="place" v="locality" />
		<tag k="ssr:stedsnr" v="96773" />
	</node>
	<node id="-63219" lat="62.3576000021" lon="6.04724722124">
		<tag k="name" v="Stordalen" />
		<tag k="natural" v="valley" />
		<tag k="place" v="locality" />
		<tag k="ssr:stedsnr" v="96771" />
	</node>
	<node id="-63212" lat="62.3999277807" lon="5.94521665715">
		<tag k="name" v="Sneldelia" />
		<tag k="natural" v="slope" />
		<tag k="place" v="locality" />
		<tag k="ssr:stedsnr" v="55151" />
	</node>
	<node id="-63210" lat="62.415625002" lon="5.98265556469">
		<tag k="fixme" v="consider natural=peak for the most distinct mountains in the district" />
		<tag k="name" v="Grøthornet" />
		<tag k="natural" v="hill" />
		<tag k="place" v="locality" />
		<tag k="ssr:stedsnr" v="11927" />
	</node>
	<node id="-63205" lat="62.3229750009" lon="5.96625277397">
		<tag k="alt_name" v="Nessetnakken" />
		<tag k="fixme" v="consider natural=peak for the most distinct mountains in the district" />
		<tag k="name" v="Stornakken" />
		<tag k="natural" v="hill" />
		<tag k="place" v="locality" />
		<tag k="ssr:stedsnr" v="11818" />
	</node>
	<node id="-63202" lat="62.4154833308" lon="5.99393332514">
		<tag k="name" v="Hestegylet" />
		<tag k="natural" v="gorge" />
		<tag k="ssr:stedsnr" v="217772" />
	</node>
	<node id="-63198" lat="62.3116250025" lon="5.94695278269">
		<tag k="fixme" v="consider natural=peak for the most distinct mountains in the district" />
		<tag k="name" v="Tverrheia" />
		<tag k="natural" v="hill" />
		<tag k="place" v="locality" />
		<tag k="ssr:stedsnr" v="217684" />
	</node>
	<node id="-63197" lat="62.3216027789" lon="5.96460277891">
		<tag k="name" v="Moldskaret" />
		<tag k="natural" v="valley" />
		<tag k="place" v="locality" />
		<tag k="ssr:stedsnr" v="217683" />
	</node>
	<node id="-63196" lat="62.3208722203" lon="5.9433027829">
		<tag k="name" v="Hjellen" />
		<tag k="place" v="locality" />
		<tag k="ssr:stedsnr" v="217682" />
	</node>
	<node id="-63195" lat="62.3198388893" lon="6.02178333907">
		<tag k="name" v="Indresloka" />
		<tag k="natural" v="valley" />
		<tag k="place" v="locality" />
		<tag k="ssr:stedsnr" v="217680" />
	</node>
	<node id="-63192" lat="62.3043888874" lon="6.00234999941">
		<tag k="name" v="Raudehaugen" />
		<tag k="natural" v="hill" />
		<tag k="place" v="locality" />
		<tag k="ssr:stedsnr" v="217664" />
	</node>
	<node id="-63189" lat="62.3665083306" lon="5.90365832762">
		<tag k="name" v="Osnesdalen" />
		<tag k="natural" v="valley" />
		<tag k="place" v="locality" />
		<tag k="ssr:stedsnr" v="217717" />
	</node>
	<node id="-63647" lat="62.3319527779" lon="6.0582638909">
		<tag k="fixme" v="consider natural=peak for the most distinct mountains in the district" />
		<tag k="name" v="Åsefjellet" />
		<tag k="natural" v="hill" />
		<tag k="place" v="locality" />
		<tag k="ssr:stedsnr" v="869367" />
	</node>
	<node id="-63646" lat="62.3951833297" lon="5.95189999861">
		<tag k="name" v="Tørlingeskaret" />
		<tag k="natural" v="valley" />
		<tag k="place" v="locality" />
		<tag k="ssr:stedsnr" v="861895" />
	</node>
	<node id="-63643" lat="62.3846972266" lon="5.93300277462">
		<tag k="name" v="Nøre Broren" />
		<tag k="natural" v="hill" />
		<tag k="place" v="locality" />
		<tag k="ssr:stedsnr" v="848055" />
	</node>
	<node id="-63640" lat="62.3666722182" lon="5.92141667199">
		<tag k="name" v="Aksliskaret" />
		<tag k="natural" v="valley" />
		<tag k="place" v="locality" />
		<tag k="ssr:stedsnr" v="824745" />
	</node>
	<node id="-63638" lat="62.3240388917" lon="6.03376388376">
		<tag k="name" v="Ramnfloget" />
		<tag k="natural" v="cliff" />
		<tag k="ssr:stedsnr" v="824701" />
	</node>
	<node id="-63634" lat="62.3532388868" lon="6.11047499505">
		<tag k="name" v="Kletten" />
		<tag k="natural" v="hill" />
		<tag k="place" v="locality" />
		<tag k="ssr:stedsnr" v="824640" />
	</node>
	<node id="-63633" lat="62.3641583375" lon="5.95150556449">
		<tag k="name" v="Linja" />
		<tag k="natural" v="slope" />
		<tag k="place" v="locality" />
		<tag k="ssr:stedsnr" v="824617" />
	</node>
	<node id="-63632" lat="62.3186499956" lon="5.95607776931">
		<tag k="name" v="Moldheia" />
		<tag k="natural" v="ridge" />
		<tag k="place" v="locality" />
		<tag k="ssr:stedsnr" v="824612" />
	</node>
	<node id="-63626" lat="62.3843472241" lon="6.00579167578">
		<tag k="name" v="Brende" />
		<tag k="natural" v="slope" />
		<tag k="place" v="locality" />
		<tag k="ssr:stedsnr" v="785126" />
	</node>
	<node id="-63625" lat="62.3881805577" lon="6.01484167196">
		<tag k="name" v="Tverrmålet" />
		<tag k="natural" v="valley" />
		<tag k="place" v="locality" />
		<tag k="ssr:stedsnr" v="763797" />
	</node>
	<node id="-63624" lat="62.3817083373" lon="5.9653111162">
		<tag k="name" v="Grimstaddalen" />
		<tag k="natural" v="valley" />
		<tag k="place" v="locality" />
		<tag k="ssr:stedsnr" v="763786" />
	</node>
	<node id="-63622" lat="62.3526638881" lon="6.11154722527">
		<tag k="name" v="Morteberget" />
		<tag k="natural" v="hill" />
		<tag k="place" v="locality" />
		<tag k="ssr:stedsnr" v="763774" />
	</node>
	<node id="-63621" lat="62.3557833358" lon="6.02663611391">
		<tag k="name" v="Hareidsberget" />
		<tag k="natural" v="slope" />
		<tag k="place" v="locality" />
		<tag k="ssr:stedsnr" v="763766" />
	</node>
	<node id="-63614" lat="62.3835277751" lon="5.90858333416">
		<tag k="name" v="Mosdalen" />
		<tag k="natural" v="valley" />
		<tag k="place" v="locality" />
		<tag k="ssr:stedsnr" v="763636" />
	</node>
	<node id="-63605" lat="62.3166611132" lon="5.93620556079">
		<tag k="fixme" v="consider natural=peak for the most distinct mountains in the district" />
		<tag k="name" v="Løkeberghornet" />
		<tag k="natural" v="hill" />
		<tag k="place" v="locality" />
		<tag k="ssr:stedsnr" v="763698" />
	</node>
	<node id="-63602" lat="62.3080833333" lon="5.99515832844">
		<tag k="name" v="Kåvikskaret" />
		<tag k="natural" v="valley" />
		<tag k="place" v="locality" />
		<tag k="ssr:stedsnr" v="763683" />
	</node>
	<node id="-63598" lat="62.3072083317" lon="5.96183333531">
		<tag k="name" v="Brua" />
		<tag k="natural" v="valley" />
		<tag k="place" v="locality" />
		<tag k="ssr:stedsnr" v="642689" />
	</node>
	<node id="-63597" lat="62.320213885" lon="6.01628610842">
		<tag k="name" v="Ytresloka" />
		<tag k="natural" v="valley" />
		<tag k="place" v="locality" />
		<tag k="ssr:stedsnr" v="642683" />
	</node>
	<node id="-63592" lat="62.4212305551" lon="5.96484444833">
		<tag k="name" v="Storeflåa" />
		<tag k="natural" v="cliff" />
		<tag k="ssr:stedsnr" v="641753" />
	</node>
	<node id="-63591" lat="62.4174750037" lon="5.98467778244">
		<tag k="name" v="Klombrene" />
		<tag k="natural" v="ridge" />
		<tag k="place" v="locality" />
		<tag k="ssr:stedsnr" v="641751" />
	</node>
	<node id="-63590" lat="62.3539055527" lon="6.04175556266">
		<tag k="fixme" v="consider natural=peak for the most distinct mountains in the district" />
		<tag k="name" v="Grøthornet" />
		<tag k="natural" v="hill" />
		<tag k="place" v="locality" />
		<tag k="ssr:stedsnr" v="641744" />
	</node>
	<node id="-63588" lat="62.3646138848" lon="6.03240832577">
		<tag k="name" v="Kvernabakken" />
		<tag k="natural" v="slope" />
		<tag k="place" v="locality" />
		<tag k="ssr:stedsnr" v="641731" />
	</node>
	<node id="-63587" lat="62.3401000016" lon="6.0107194518">
		<tag k="name" v="Eggakanten" />
		<tag k="natural" v="ridge" />
		<tag k="place" v="locality" />
		<tag k="ssr:stedsnr" v="641697" />
	</node>
	<node id="-63586" lat="62.3856555527" lon="5.92697222265">
		<tag k="fixme" v="consider natural=peak for the most distinct mountains in the district" />
		<tag k="name" v="Midtre Broren" />
		<tag k="natural" v="hill" />
		<tag k="place" v="locality" />
		<tag k="ssr:stedsnr" v="641695" />
	</node>
	<node id="-63585" lat="62.3383611139" lon="6.06839999451">
		<tag k="name" v="vassberget" />
		<tag k="natural" v="hill" />
		<tag k="place" v="locality" />
		<tag k="ssr:stedsnr" v="641689" />
	</node>
	<node id="-63576" lat="62.3927222232" lon="6.01066667001">
		<tag k="fixme" v="consider natural=peak for the most distinct mountains in the district" />
		<tag k="name" v="Skarbakknakken" />
		<tag k="natural" v="hill" />
		<tag k="old_name" v="Skårbakknakken" />
		<tag k="place" v="locality" />
		<tag k="ssr:stedsnr" v="626368" />
	</node>
	<node id="-63573" lat="62.3864916638" lon="5.99420000946">
		<tag k="name" v="Nonsberget" />
		<tag k="natural" v="hill" />
		<tag k="place" v="locality" />
		<tag k="ssr:stedsnr" v="617897" />
	</node>
	<node id="-63572" lat="62.403961111" lon="5.98332499441">
		<tag k="name" v="Ytredalen" />
		<tag k="natural" v="valley" />
		<tag k="place" v="locality" />
		<tag k="ssr:stedsnr" v="617891" />
	</node>
	<node id="-63570" lat="62.3721194406" lon="5.91143333675">
		<tag k="fixme" v="consider natural=peak for the most distinct mountains in the district" />
		<tag k="name" v="Mosvarden" />
		<tag k="natural" v="hill" />
		<tag k="place" v="locality" />
		<tag k="ssr:stedsnr" v="617854" />
	</node>
	<node id="-63568" lat="62.3314916652" lon="5.93187777497">
		<tag k="fixme" v="multiple name tags, choose one and add the other to alt_name; consider natural=peak for the most distinct mountains in the district" />
		<tag k="name" v="Haretua;Ramnefjellet" />
		<tag k="natural" v="hill" />
		<tag k="place" v="locality" />
		<tag k="ssr:stedsnr" v="617813" />
	</node>
	<node id="-63563" lat="62.3445000031" lon="5.93769444969">
		<tag k="name" v="Risenakken" />
		<tag k="natural" v="hill" />
		<tag k="place" v="locality" />
		<tag k="ssr:stedsnr" v="581758" />
	</node>
	<node id="-63557" lat="62.3046722224" lon="5.98776389655">
		<tag k="name" v="Geitnakken" />
		<tag k="natural" v="ridge" />
		<tag k="place" v="locality" />
		<tag k="ssr:stedsnr" v="581701" />
	</node>
	<node id="-63556" lat="62.3027861124" lon="5.97013333634">
		<tag k="name" v="Jonsnakken" />
		<tag k="natural" v="ridge" />
		<tag k="place" v="locality" />
		<tag k="ssr:stedsnr" v="581700" />
	</node>
	<node id="-63553" lat="62.3018999972" lon="5.9844861139">
		<tag k="name" v="Almekleiva" />
		<tag k="natural" v="valley" />
		<tag k="place" v="locality" />
		<tag k="ssr:stedsnr" v="581683" />
	</node>
	<node id="-63551" lat="62.3853972203" lon="5.91019723007">
		<tag k="fixme" v="consider natural=peak for the most distinct mountains in the district" />
		<tag k="name" v="Skålnakken" />
		<tag k="natural" v="hill" />
		<tag k="place" v="locality" />
		<tag k="ssr:stedsnr" v="557885" />
	</node>
	<node id="-63543" lat="62.3701194436" lon="5.93606943645">
		<tag k="fixme" v="consider natural=peak for the most distinct mountains in the district" />
		<tag k="name" v="Grøthornet" />
		<tag k="natural" v="hill" />
		<tag k="place" v="locality" />
		<tag k="ssr:stedsnr" v="520827" />
	</node>
	<node id="-63541" lat="62.403936115" lon="5.96896111739">
		<tag k="name" v="Smådalane" />
		<tag k="natural" v="valley" />
		<tag k="place" v="locality" />
		<tag k="ssr:stedsnr" v="520801" />
	</node>
	<node id="-63540" lat="62.3352944399" lon="5.93760277401">
		<tag k="name" v="Nordre Bjørnaskaret" />
		<tag k="natural" v="valley" />
		<tag k="place" v="locality" />
		<tag k="ssr:stedsnr" v="520753" />
	</node>
	<node id="-63536" lat="62.3821611098" lon="5.92177222622">
		<tag k="fixme" v="multiple name tags, choose one and add the other to alt_name" />
		<tag k="name" v="Brørebakkane;Brørelia" />
		<tag k="natural" v="slope" />
		<tag k="place" v="locality" />
		<tag k="ssr:stedsnr" v="520729" />
	</node>
	<node id="-63535" lat="62.3388833333" lon="6.05381388587">
		<tag k="name" v="Vasshaugane" />
		<tag k="natural" v="hill" />
		<tag k="place" v="locality" />
		<tag k="ssr:stedsnr" v="520723" />
	</node>
	<node id="-63532" lat="62.3246166697" lon="5.96497222292">
		<tag k="name" v="Litlenakken" />
		<tag k="natural" v="ridge" />
		<tag k="place" v="locality" />
		<tag k="ssr:stedsnr" v="520714" />
	</node>
	<node id="-63531" lat="62.3227083327" lon="6.02668055383">
		<tag k="name" v="Blikhyllene" />
		<tag k="place" v="locality" />
		<tag k="ssr:stedsnr" v="520713" />
	</node>
	<node id="-63528" lat="62.2951083364" lon="5.9595972136">
		<tag k="name" v="Furehammaren" />
		<tag k="natural" v="cliff" />
		<tag k="ssr:stedsnr" v="520683" />
	</node>
	<node id="-63523" lat="62.3156444489" lon="6.00983333885">
		<tag k="fixme" v="consider natural=peak for the most distinct mountains in the district" />
		<tag k="name" v="Ulsettua" />
		<tag k="natural" v="hill" />
		<tag k="place" v="locality" />
		<tag k="ssr:stedsnr" v="436766" />
	</node>
	<node id="-63521" lat="62.3871722259" lon="5.94783055595">
		<tag k="name" v="Tørlyngskaret" />
		<tag k="natural" v="valley" />
		<tag k="place" v="locality" />
		<tag k="ssr:stedsnr" v="423054" />
	</node>
	<node id="-63519" lat="62.4201944477" lon="5.96630833368">
		<tag k="fixme" v="consider natural=peak for the most distinct mountains in the district" />
		<tag k="name" v="Skolma" />
		<tag k="natural" v="hill" />
		<tag k="place" v="locality" />
		<tag k="ssr:stedsnr" v="404981" />
	</node>
	<node id="-63518" lat="62.3694194475" lon="5.92823889391">
		<tag k="name" v="Akslinakken" />
		<tag k="natural" v="ridge" />
		<tag k="place" v="locality" />
		<tag k="ssr:stedsnr" v="399804" />
	</node>
	<node id="-63517" lat="62.3857777742" lon="6.02165832564">
		<tag k="name" v="Måsegylet" />
		<tag k="natural" v="gorge" />
		<tag k="ssr:stedsnr" v="399802" />
	</node>
	<node id="-63516" lat="62.3915583303" lon="5.99448889035">
		<tag k="name" v="Indredalen" />
		<tag k="natural" v="valley" />
		<tag k="place" v="locality" />
		<tag k="ssr:stedsnr" v="399788" />
	</node>
	<node id="-63514" lat="62.4248666692" lon="5.96913610481">
		<tag k="name" v="Buhammaren" />
		<tag k="natural" v="cliff" />
		<tag k="ssr:stedsnr" v="399776" />
	</node>
	<node id="-63512" lat="62.3365416643" lon="5.91650555082">
		<tag k="name" v="Fjellsbrekkene" />
		<tag k="natural" v="slope" />
		<tag k="place" v="locality" />
		<tag k="ssr:stedsnr" v="399730" />
	</node>
	<node id="-63507" lat="62.3591250036" lon="6.05498332919">
		<tag k="name" v="Smådalen" />
		<tag k="natural" v="valley" />
		<tag k="place" v="locality" />
		<tag k="ssr:stedsnr" v="399643" />
	</node>
	<node id="-63504" lat="62.4037750008" lon="5.97699443786">
		<tag k="name" v="Koppen" />
		<tag k="natural" v="valley" />
		<tag k="place" v="locality" />
		<tag k="ssr:stedsnr" v="399637" />
	</node>
	<node id="-63502" lat="62.3303388861" lon="6.00427222889">
		<tag k="name" v="Skora" />
		<tag k="natural" v="valley" />
		<tag k="place" v="locality" />
		<tag k="ssr:stedsnr" v="399626" />
	</node>
	<node id="-63501" lat="62.3226222182" lon="5.94952499749">
		<tag k="name" v="Haugane" />
		<tag k="natural" v="hill" />
		<tag k="place" v="locality" />
		<tag k="ssr:stedsnr" v="399623" />
	</node>
	<node id="-63497" lat="62.3981361073" lon="5.969469442">
		<tag k="name" v="Lågheida" />
		<tag k="natural" v="hill" />
		<tag k="place" v="locality" />
		<tag k="ssr:stedsnr" v="375880" />
	</node>
	<node id="-63495" lat="62.357958332" lon="6.0595833282">
		<tag k="fixme" v="consider natural=peak for the most distinct mountains in the district" />
		<tag k="name" v="Ovranakken" />
		<tag k="natural" v="hill" />
		<tag k="place" v="locality" />
		<tag k="ssr:stedsnr" v="374836" />
	</node>
	<node id="-63492" lat="62.3884722247" lon="5.95195555182">
		<tag k="name" v="Tørlingehaugen" />
		<tag k="natural" v="hill" />
		<tag k="place" v="locality" />
		<tag k="ssr:stedsnr" v="362051" />
	</node>
	<node id="-63490" lat="62.3527555593" lon="6.08947500124">
		<tag k="name" v="Leirvågkollen" />
		<tag k="natural" v="hill" />
		<tag k="place" v="locality" />
		<tag k="ssr:stedsnr" v="355857" />
	</node>
</osm>
