<?xml version="1.0" encoding="UTF-8"?>
<osm generator="osmapis" version="0.6">
	<node id="-63599" lat="62.3470083315" lon="5.91452777474">
		<tag k="bridge" v="yes" />
		<tag k="layer" v="1" />
		<tag k="name" v="Dyftebrua" />
		<tag k="ssr:stedsnr" v="642726" />
	</node>
	<node id="-63203" lat="62.401502782" lon="6.0102388925">
		<tag k="man_made" v="quay" />
		<tag k="name" v="Brandal molo" />
		<tag k="place" v="locality" />
		<tag k="ssr:stedsnr" v="217777" />
	</node>
	<node id="-63353" lat="62.3816249965" lon="6.00673055567">
		<tag k="highway" v="path" />
		<tag k="name" v="Håbakkråsa" />
		<tag k="ssr:stedsnr" v="725171" />
	</node>
	<node id="-63224" lat="62.365630559" lon="6.03982778179">
		<tag k="bridge" v="yes" />
		<tag k="layer" v="1" />
		<tag k="name" v="Mylnebrua" />
		<tag k="ssr:stedsnr" v="266633" />
	</node>
	<node id="-63351" lat="62.3748805548" lon="6.03352222651">
		<tag k="man_made" v="quay" />
		<tag k="name" v="Ytrekaia" />
		<tag k="place" v="locality" />
		<tag k="ssr:stedsnr" v="703654" />
	</node>
	<node id="-63414" lat="62.3641750026" lon="6.02828888399">
		<tag k="ford" v="yes" />
		<tag k="name" v="Vadet" />
		<tag k="place" v="locality" />
		<tag k="ssr:stedsnr" v="35677" />
	</node>
	<node id="-63381" lat="62.3995277778" lon="6.01047221851">
		<tag k="bridge" v="yes" />
		<tag k="layer" v="1" />
		<tag k="name" v="Brandalsbrua" />
		<tag k="ssr:stedsnr" v="934599" />
	</node>
	<node id="-63380" lat="62.369216666" lon="6.02186111262">
		<tag k="bridge" v="yes" />
		<tag k="layer" v="1" />
		<tag k="name" v="Rimabrua" />
		<tag k="ssr:stedsnr" v="934597" />
	</node>
	<node id="-63249" lat="62.3349722256" lon="6.02025277273">
		<tag k="highway" v="path" />
		<tag k="name" v="Skoravegen" />
		<tag k="ssr:stedsnr" v="217712" />
	</node>
	<node id="-63375" lat="62.3795083368" lon="6.02573888146">
		<tag k="highway" v="path" />
		<tag k="name" v="Køyrevegen" />
		<tag k="ssr:stedsnr" v="824811" />
	</node>
	<node id="-63214" lat="62.3542555579" lon="5.97148055262">
		<tag k="bridge" v="yes" />
		<tag k="layer" v="1" />
		<tag k="name" v="Hovdebrua" />
		<tag k="ssr:stedsnr" v="84658" />
	</node>
	<node id="-63213" lat="62.3742583317" lon="6.02434722161">
		<tag k="highway" v="path" />
		<tag k="name" v="Teigeråsa" />
		<tag k="ssr:stedsnr" v="240051" />
	</node>
	<node id="-63284" lat="62.3743805533" lon="5.98220833684">
		<tag k="highway" v="path" />
		<tag k="name" v="Holstadråsa" />
		<tag k="ssr:stedsnr" v="338786" />
	</node>
	<node id="-63577" lat="62.3517166655" lon="5.93518889565">
		<tag k="bridge" v="yes" />
		<tag k="layer" v="1" />
		<tag k="name" v="Risebrua" />
		<tag k="ssr:stedsnr" v="630583" />
	</node>
	<node id="-63499" lat="62.3706999957" lon="6.03165278044">
		<tag k="amenity" v="ferry_terminal" />
		<tag k="name" v="Hareid ferjekai" />
		<tag k="ssr:stedsnr" v="398286" />
	</node>
	<node id="-63204" lat="62.3672138924" lon="5.94735276966">
		<tag k="highway" v="path" />
		<tag k="name" v="Bjåstadråsa" />
		<tag k="ssr:stedsnr" v="217781" />
	</node>
	<node id="-63331" lat="62.3618611129" lon="5.94546389348">
		<tag k="highway" v="path" />
		<tag k="name" v="Bigsetråsa" />
		<tag k="ssr:stedsnr" v="581827" />
	</node>
	<node id="-63257" lat="62.3294027806" lon="5.97087500499">
		<tag k="bridge" v="yes" />
		<tag k="layer" v="1" />
		<tag k="name" v="Nessetbrua" />
		<tag k="ssr:stedsnr" v="448679" />
	</node>
	<node id="-63393" lat="62.3682361105" lon="6.03711945258">
		<tag k="man_made" v="quay" />
		<tag k="name" v="Indrekaia" />
		<tag k="place" v="locality" />
		<tag k="ssr:stedsnr" v="945722" />
	</node>
</osm>
