<?xml version="1.0" encoding="UTF-8"?>
<osm version="0.6" generator="osmapis">
	<node lat="62.421080558544695" lon="5.994313893192226" id="-7350">
		<tag k="name" v="Krokvika" />
		<tag k="natural" v="bay" />
		<tag k="ssr:stedsnr" v="11907" />
	</node>
	<node lat="62.36292777436719" lon="6.063930547042022" id="-7369">
		<tag k="name" v="Ovrastranda" />
		<tag k="natural" v="beach" />
		<tag k="ssr:stedsnr" v="156762" />
	</node>
	<node lat="62.378563893116784" lon="6.0360833370885505" id="-7370">
		<tag k="name" v="Korsneset" />
		<tag k="natural" v="cape" />
		<tag k="ssr:stedsnr" v="156798" />
	</node>
	<node lat="62.303008334665705" lon="5.9983555515276565" id="-7371">
		<tag k="name" v="Gjerdevika" />
		<tag k="natural" v="bay" />
		<tag k="ssr:stedsnr" v="156673" />
	</node>
	<node lat="62.301844448276086" lon="5.994869445729184" id="-7372">
		<tag k="name" v="Naustvika" />
		<tag k="natural" v="bay" />
		<tag k="ssr:stedsnr" v="156674" />
	</node>
	<node lat="62.34288611452905" lon="6.098436111868154" id="-7376">
		<tag k="name" v="Søre Neset" />
		<tag k="natural" v="cape" />
		<tag k="ssr:stedsnr" v="156700" />
	</node>
	<node lat="62.3419972179027" lon="6.0692277840958235" id="-7407">
		<tag k="name" v="Elvaneset" />
		<tag k="natural" v="cape" />
		<tag k="ssr:stedsnr" v="460751" />
	</node>
	<node lat="62.34855000398015" lon="6.069280563507638" id="-7413">
		<tag k="fixme" v="multiple name tags, choose one and add the other to alt_name" />
		<tag k="name" v="Hjørungavågen;Liavågen" />
		<tag k="natural" v="bay" />
		<tag k="ssr:stedsnr" v="314828" />
	</node>
	<node lat="62.3805722238325" lon="6.128161101821952" id="-7414">
		<tag k="bay" v="fjord" />
		<tag k="name" v="Sulafjorden" />
		<tag k="natural" v="bay" />
		<tag k="ssr:stedsnr" v="314906" />
	</node>
	<node lat="62.35204166404953" lon="6.094783338188093" id="-7428">
		<tag k="name" v="Leirvågen" />
		<tag k="natural" v="bay" />
		<tag k="ssr:stedsnr" v="399779" />
	</node>
	<node lat="62.3823472261716" lon="6.0342444399723885" id="-7443">
		<tag k="name" v="Hesteberget" />
		<tag k="natural" v="cape" />
		<tag k="ssr:stedsnr" v="476863" />
	</node>
	<node lat="62.25951111328695" lon="5.872927774359176" id="-7447">
		<tag k="name" v="Hareidlandet" />
		<tag k="place" v="island" />
		<tag k="ssr:stedsnr" v="678847" />
	</node>
	<node lat="62.42148888455082" lon="6.000469440160677" id="-7449">
		<tag k="name" v="Kvitneset" />
		<tag k="natural" v="cape" />
		<tag k="ssr:stedsnr" v="678898" />
	</node>
	<node lat="62.42444167033815" lon="5.963455550202395" id="-7450">
		<tag k="name" v="Attavika" />
		<tag k="natural" v="bay" />
		<tag k="ssr:stedsnr" v="678900" />
	</node>
	<node lat="62.34571944277339" lon="6.064127779730065" id="-7467">
		<tag k="name" v="Leira" />
		<tag k="natural" v="beach" />
		<tag k="ssr:stedsnr" v="581744" />
	</node>
	<node lat="62.41951666454362" lon="6.0036361202094355" id="-7469">
		<tag k="name" v="Klombraodden" />
		<tag k="natural" v="cape" />
		<tag k="ssr:stedsnr" v="581797" />
	</node>
	<node lat="62.35475000252127" lon="6.084066663728069" id="-7470">
		<tag k="name" v="Steffaneset" />
		<tag k="natural" v="cape" />
		<tag k="ssr:stedsnr" v="581801" />
	</node>
	<node lat="62.36343055125273" lon="6.061705556897439" id="-7481">
		<tag k="name" v="Kuggane" />
		<tag k="natural" v="cape" />
		<tag k="ssr:stedsnr" v="703658" />
	</node>
	<node lat="62.358116668845085" lon="6.080913892867519" id="-7486">
		<tag k="name" v="Skarveneset" />
		<tag k="natural" v="cape" />
		<tag k="ssr:stedsnr" v="703798" />
	</node>
	<node lat="62.302702778790064" lon="5.997927776590851" id="-7503">
		<tag k="name" v="Gjerdeneset" />
		<tag k="natural" v="cape" />
		<tag k="ssr:stedsnr" v="703710" />
	</node>
	<node lat="62.317641669499345" lon="6.03478610163635" id="-7505">
		<tag k="name" v="Haugeneset" />
		<tag k="natural" v="cape" />
		<tag k="ssr:stedsnr" v="703719" />
	</node>
	<node lat="62.41624444683893" lon="6.003208331908275" id="-7507">
		<tag k="name" v="Englandsvika" />
		<tag k="natural" v="bay" />
		<tag k="ssr:stedsnr" v="703809" />
	</node>
	<node lat="62.38512777531533" lon="6.0320555521750165" id="-7508">
		<tag k="fixme" v="consider seamark:type=rock or natural=shoal" />
		<tag k="name" v="Islendingen" />
		<tag k="place" v="islet" />
		<tag k="ssr:stedsnr" v="703813" />
	</node>
	<node lat="62.314163889491255" lon="6.026213892934786" id="-7513">
		<tag k="name" v="Haggardneset" />
		<tag k="natural" v="cape" />
		<tag k="ssr:stedsnr" v="763694" />
	</node>
	<node lat="62.38724722614244" lon="6.030063892196623" id="-7527">
		<tag k="name" v="Langeneset" />
		<tag k="natural" v="cape" />
		<tag k="ssr:stedsnr" v="824810" />
	</node>
	<node lat="62.33420555863638" lon="6.069730560832279" id="-7538">
		<tag k="name" v="Lågåsen" />
		<tag k="natural" v="cape" />
		<tag k="ssr:stedsnr" v="840808" />
	</node>
	<node lat="62.36608055263358" lon="6.042369439110018" id="-7539">
		<tag k="name" v="Elvenes" />
		<tag k="natural" v="cape" />
		<tag k="ssr:stedsnr" v="841876" />
	</node>
	<node lat="62.31204444874981" lon="6.05654443698448" id="-7549">
		<tag k="bay" v="fjord" />
		<tag k="name" v="Vartdalsfjorden" />
		<tag k="natural" v="bay" />
		<tag k="ssr:stedsnr" v="920141" />
	</node>
	<node lat="62.44163333638717" lon="5.958799992813189" id="-7561">
		<tag k="alt_name" v="Breidsundet" />
		<tag k="bay" v="fjord" />
		<tag k="name" v="Breisundet" />
		<tag k="natural" v="bay" />
		<tag k="ssr:stedsnr" v="11958" />
	</node>
	<node lat="62.40129444336839" lon="6.008791670131233" id="-7565">
		<tag k="name" v="Mola" />
		<tag k="natural" v="cape" />
		<tag k="ssr:stedsnr" v="35678" />
	</node>
	<node lat="62.36186388598973" lon="6.081891659716957" id="-7566">
		<tag k="fixme" v="consider seamark:type=rock or natural=shoal" />
		<tag k="name" v="Ovrafludene" />
		<tag k="place" v="islet" />
		<tag k="ssr:stedsnr" v="35788" />
	</node>
	<node lat="62.4225222190608" lon="6.0025194520120975" id="-7568">
		<tag k="fixme" v="consider seamark:type=rock or natural=shoal" />
		<tag k="name" v="Kvitnesskjeret" />
		<tag k="place" v="islet" />
		<tag k="ssr:stedsnr" v="35794" />
	</node>
	<node lat="62.30072500131049" lon="5.993855553122642" id="-7571">
		<tag k="name" v="Bauteneset" />
		<tag k="natural" v="cape" />
		<tag k="ssr:stedsnr" v="35716" />
	</node>
	<node lat="62.329858335482875" lon="6.061655564720604" id="-7589">
		<tag k="name" v="Naustberget" />
		<tag k="natural" v="cape" />
		<tag k="ssr:stedsnr" v="112792" />
	</node>
	<node lat="62.347558337042024" lon="6.108277783356623" id="-7601">
		<tag k="name" v="Svinegjerdsvika" />
		<tag k="natural" v="bay" />
		<tag k="ssr:stedsnr" v="156697" />
	</node>
	<node lat="62.422327779709065" lon="6.002005556696845" id="-7603">
		<tag k="name" v="Skjersundet" />
		<tag k="natural" v="strait" />
		<tag k="ssr:stedsnr" v="156779" />
	</node>
	<node lat="62.403097222593516" lon="6.007588881036077" id="-7605">
		<tag k="name" v="Saudebømola" />
		<tag k="natural" v="beach" />
		<tag k="ssr:stedsnr" v="156786" />
	</node>
	<node lat="62.30982499627107" lon="6.013136111949981" id="-7619">
		<tag k="name" v="Litle-Almestranda" />
		<tag k="natural" v="beach" />
		<tag k="ssr:stedsnr" v="217675" />
	</node>
	<node lat="62.34143611543255" lon="5.986547227231225" id="-7623">
		<tag k="name" v="Gjerdevika" />
		<tag k="natural" v="bay" />
		<tag k="ssr:stedsnr" v="217663" />
	</node>
	<node lat="62.352488886195324" lon="6.103447221353665" id="-7627">
		<tag k="name" v="Raudeberget" />
		<tag k="natural" v="cape" />
		<tag k="ssr:stedsnr" v="217770" />
	</node>
	<node lat="62.36254444165166" lon="6.067391659201718" id="-7630">
		<tag k="name" v="Langetonga" />
		<tag k="natural" v="cape" />
		<tag k="ssr:stedsnr" v="278795" />
	</node>
	<node lat="62.31648055422022" lon="6.03249723097401" id="-7634">
		<tag k="name" v="Leirvika" />
		<tag k="natural" v="bay" />
		<tag k="ssr:stedsnr" v="278664" />
	</node>
	<node lat="62.345850001773904" lon="6.106802768338194" id="-7636">
		<tag k="name" v="Nørdre Neset" />
		<tag k="natural" v="cape" />
		<tag k="ssr:stedsnr" v="278738" />
	</node>
	<node lat="62.382105551480855" lon="6.035411105769121" id="-7637">
		<tag k="name" v="Sveneset" />
		<tag k="natural" v="cape" />
		<tag k="ssr:stedsnr" v="278742" />
	</node>
	<node lat="62.28085833362783" lon="5.95011110837245" id="-7639">
		<tag k="name" v="Laupsvika" />
		<tag k="natural" v="bay" />
		<tag k="ssr:stedsnr" v="294214" />
	</node>
	<node lat="62.32294999715177" lon="6.043388889851571" id="-7640">
		<tag k="name" v="Engeskarvika" />
		<tag k="natural" v="bay" />
		<tag k="ssr:stedsnr" v="294794" />
	</node>
	<node lat="62.417797219250254" lon="6.002624996517008" id="-7653">
		<tag k="name" v="Englandsvika" />
		<tag k="natural" v="bay" />
		<tag k="ssr:stedsnr" v="338759" />
	</node>
	<node lat="62.35992778037229" lon="6.075330546542533" id="-7654">
		<tag k="name" v="Ovrasanden" />
		<tag k="natural" v="beach" />
		<tag k="ssr:stedsnr" v="338764" />
	</node>
	<node lat="62.35364166993138" lon="6.09311665938565" id="-7675">
		<tag k="name" v="Risneset" />
		<tag k="natural" v="cape" />
		<tag k="ssr:stedsnr" v="399640" />
	</node>
	<node lat="62.35237221907815" lon="6.108766671913287" id="-7687">
		<tag k="name" v="Hjørungneset" />
		<tag k="natural" v="cape" />
		<tag k="ssr:stedsnr" v="513234" />
	</node>
	<node lat="62.39015832926989" lon="6.024394451509752" id="-7688">
		<tag k="name" v="Uravika" />
		<tag k="natural" v="bay" />
		<tag k="ssr:stedsnr" v="520630" />
	</node>
	<node lat="62.33330278207131" lon="6.06912500846437" id="-7696">
		<tag k="name" v="Åsestranda" />
		<tag k="natural" v="beach" />
		<tag k="ssr:stedsnr" v="520722" />
	</node>
	<node lat="62.36645833294548" lon="6.045494439097535" id="-7718">
		<tag k="name" v="Raffelneset" />
		<tag k="natural" v="cape" />
		<tag k="ssr:stedsnr" v="581782" />
	</node>
	<node lat="62.370152775362584" lon="6.042066671796662" id="-7719">
		<tag k="alt_name" v="Hareidsbukta" />
		<tag k="name" v="Hareidsvika" />
		<tag k="natural" v="bay" />
		<tag k="ssr:stedsnr" v="581786" />
	</node>
	<node lat="62.39282778021689" lon="6.0201194536125495" id="-7720">
		<tag k="name" v="Litleneset" />
		<tag k="natural" v="cape" />
		<tag k="ssr:stedsnr" v="581815" />
	</node>
	<node lat="62.361330551463965" lon="6.076641672285183" id="-7739">
		<tag k="name" v="Ovraneset" />
		<tag k="natural" v="cape" />
		<tag k="ssr:stedsnr" v="641741" />
	</node>
	<node lat="62.41464444783912" lon="6.004605549846848" id="-7745">
		<tag k="name" v="Ensomheten" />
		<tag k="natural" v="cape" />
		<tag k="ssr:stedsnr" v="719893" />
	</node>
	<node lat="62.31058888599194" lon="6.016736115133894" id="-7758">
		<tag k="name" v="Nobba" />
		<tag k="natural" v="cape" />
		<tag k="ssr:stedsnr" v="763632" />
	</node>
	<node lat="62.298816670672366" lon="5.984916657903" id="-7760">
		<tag k="name" v="Tarevika" />
		<tag k="natural" v="bay" />
		<tag k="ssr:stedsnr" v="763640" />
	</node>
	<node lat="62.305611109577555" lon="5.999561110315061" id="-7765">
		<tag k="name" v="Almestranda" />
		<tag k="natural" v="beach" />
		<tag k="ssr:stedsnr" v="763684" />
	</node>
	<node lat="62.42486944357032" lon="5.969911114743796" id="-7774">
		<tag k="name" v="Buhammaren" />
		<tag k="natural" v="cape" />
		<tag k="ssr:stedsnr" v="809356" />
	</node>
	<node lat="62.353711110688195" lon="6.1068611138254685" id="-7778">
		<tag k="fixme" v="consider seamark:type=rock or natural=shoal" />
		<tag k="name" v="Hjørungnesfludene" />
		<tag k="place" v="islet" />
		<tag k="ssr:stedsnr" v="824799" />
	</node>
	<node lat="62.35564444440438" lon="6.08144722682987" id="-7793">
		<tag k="name" v="Litlevågen" />
		<tag k="natural" v="bay" />
		<tag k="ssr:stedsnr" v="885769" />
	</node>
	<node lat="62.28389166645641" lon="5.9504666633655035" id="-7794">
		<tag k="name" v="Almestranda" />
		<tag k="natural" v="beach" />
		<tag k="ssr:stedsnr" v="885665" />
	</node>
	<node lat="62.32113888480662" lon="6.039636120876427" id="-7798">
		<tag k="name" v="Kattmannvika" />
		<tag k="natural" v="bay" />
		<tag k="ssr:stedsnr" v="885687" />
	</node>
</osm>
