<?xml version="1.0" encoding="UTF-8"?>
<osm generator="osmapis" version="0.6">
	<node id="-58732" lat="62.3027500043" lon="5.99701111404">
		<tag k="name" v="Gjerdet" />
		<tag k="place" v="isolated_dwelling" />
		<tag k="ssr:stedsnr" v="961801" />
	</node>
	<node id="-58731" lat="62.3319527779" lon="6.0582638909">
		<tag k="fixme" v="consider natural=peak for the most distinct mountains in the district" />
		<tag k="name" v="Åsefjellet" />
		<tag k="natural" v="hill" />
		<tag k="place" v="locality" />
		<tag k="ssr:stedsnr" v="869367" />
	</node>
	<node id="-58730" lat="62.3951833297" lon="5.95189999861">
		<tag k="name" v="Tørlingeskaret" />
		<tag k="natural" v="valley" />
		<tag k="place" v="locality" />
		<tag k="ssr:stedsnr" v="861895" />
	</node>
	<node id="-58729" lat="62.3688055586" lon="5.99931666218">
		<tag k="name" v="Brettgarden" />
		<tag k="place" v="farm" />
		<tag k="ssr:stedsnr" v="860888" />
	</node>
	<node id="-58728" lat="62.3713972178" lon="5.93599722071">
		<tag k="alt_name" v="Bigsetsela" />
		<tag k="historic" v="shieling" />
		<tag k="name" v="Bigsetsætra" />
		<tag k="place" v="locality" />
		<tag k="ssr:stedsnr" v="860873" />
	</node>
	<node id="-58727" lat="62.3846972266" lon="5.93300277462">
		<tag k="name" v="Nøre Broren" />
		<tag k="natural" v="hill" />
		<tag k="place" v="locality" />
		<tag k="ssr:stedsnr" v="848055" />
	</node>
	<node id="-58726" lat="62.3500638926" lon="5.92592221873">
		<tag k="name" v="Fram-Rise" />
		<tag k="place" v="farm" />
		<tag k="ssr:stedsnr" v="846801" />
	</node>
	<node id="-58724" lat="62.3666722182" lon="5.92141667199">
		<tag k="name" v="Aksliskaret" />
		<tag k="natural" v="valley" />
		<tag k="place" v="locality" />
		<tag k="ssr:stedsnr" v="824745" />
	</node>
	<node id="-58723" lat="62.3453972228" lon="6.07376943518">
		<tag k="name" v="Hamnamyrane" />
		<tag k="natural" v="wetland" />
		<tag k="ssr:stedsnr" v="824730" />
	</node>
	<node id="-58722" lat="62.3240388917" lon="6.03376388376">
		<tag k="name" v="Ramnfloget" />
		<tag k="natural" v="cliff" />
		<tag k="ssr:stedsnr" v="824701" />
	</node>
	<node id="-58721" lat="62.3537111107" lon="6.10686111383">
		<tag k="fixme" v="consider seamark:type=rock or natural=shoal" />
		<tag k="name" v="Hjørungnesfludene" />
		<tag k="place" v="islet" />
		<tag k="ssr:stedsnr" v="824799" />
	</node>
	<node id="-58720" lat="62.3588166627" lon="6.00054722858">
		<tag k="name" v="Kaldholmyrane" />
		<tag k="natural" v="wetland" />
		<tag k="ssr:stedsnr" v="824791" />
	</node>
	<node id="-58719" lat="62.3666361114" lon="6.01176110313">
		<tag k="name" v="Lomstjørna" />
		<tag k="natural" v="water" />
		<tag k="ssr:stedsnr" v="824787" />
	</node>
	<node id="-58718" lat="62.3532388868" lon="6.11047499505">
		<tag k="name" v="Kletten" />
		<tag k="natural" v="hill" />
		<tag k="place" v="locality" />
		<tag k="ssr:stedsnr" v="824640" />
	</node>
	<node id="-58717" lat="62.3641583375" lon="5.95150556449">
		<tag k="name" v="Linja" />
		<tag k="natural" v="slope" />
		<tag k="place" v="locality" />
		<tag k="ssr:stedsnr" v="824617" />
	</node>
	<node id="-58716" lat="62.3186499956" lon="5.95607776931">
		<tag k="name" v="Moldheia" />
		<tag k="natural" v="ridge" />
		<tag k="place" v="locality" />
		<tag k="ssr:stedsnr" v="824612" />
	</node>
	<node id="-58715" lat="62.3514277806" lon="5.97236389031">
		<tag k="name" v="Sandgota" />
		<tag k="place" v="farm" />
		<tag k="ssr:stedsnr" v="824610" />
	</node>
	<node id="-58714" lat="62.4248694436" lon="5.96991111474">
		<tag k="name" v="Buhammaren" />
		<tag k="natural" v="cape" />
		<tag k="ssr:stedsnr" v="809356" />
	</node>
	<node id="-58713" lat="62.4142000011" lon="6.00445555589">
		<tag k="name" v="Karlhaugen" />
		<tag k="place" v="farm" />
		<tag k="ssr:stedsnr" v="800923" />
	</node>
	<node id="-58712" lat="62.3945956728" lon="6.00073820201">
		<tag k="name" v="Leitet" />
		<tag k="place" v="farm" />
		<tag k="ssr:stedsnr" v="800899" />
	</node>
	<node id="-58711" lat="62.3583535631" lon="5.96159509443">
		<tag k="fixme" v="consider place=hamlet" />
		<tag k="name" v="Bigset" />
		<tag k="place" v="farm" />
		<tag k="ssr:stedsnr" v="800798" />
	</node>
	<node id="-58710" lat="62.3843472241" lon="6.00579167578">
		<tag k="name" v="Brende" />
		<tag k="natural" v="slope" />
		<tag k="place" v="locality" />
		<tag k="ssr:stedsnr" v="785126" />
	</node>
	<node id="-58709" lat="62.3881805577" lon="6.01484167196">
		<tag k="name" v="Tverrmålet" />
		<tag k="natural" v="valley" />
		<tag k="place" v="locality" />
		<tag k="ssr:stedsnr" v="763797" />
	</node>
	<node id="-58708" lat="62.3817083373" lon="5.9653111162">
		<tag k="name" v="Grimstaddalen" />
		<tag k="natural" v="valley" />
		<tag k="place" v="locality" />
		<tag k="ssr:stedsnr" v="763786" />
	</node>
	<node id="-58707" lat="62.4039472194" lon="5.97973889415">
		<tag k="name" v="Koppeelva" />
		<tag k="ssr:stedsnr" v="763780" />
		<tag k="waterway" v="stream" />
	</node>
	<node id="-58706" lat="62.3526638881" lon="6.11154722527">
		<tag k="name" v="Morteberget" />
		<tag k="natural" v="hill" />
		<tag k="place" v="locality" />
		<tag k="ssr:stedsnr" v="763774" />
	</node>
	<node id="-58705" lat="62.3557833358" lon="6.02663611391">
		<tag k="name" v="Hareidsberget" />
		<tag k="natural" v="slope" />
		<tag k="place" v="locality" />
		<tag k="ssr:stedsnr" v="763766" />
	</node>
	<node id="-58704" lat="62.3721666706" lon="6.01192222039">
		<tag k="name" v="Holstadelva" />
		<tag k="ssr:stedsnr" v="763763" />
		<tag k="waterway" v="stream" />
	</node>
	<node id="-58703" lat="62.4120083372" lon="6.0045555551">
		<tag k="name" v="Smottene" />
		<tag k="place" v="farm" />
		<tag k="ssr:stedsnr" v="763651" />
	</node>
	<node id="-58702" lat="62.380727776" lon="5.90959722067">
		<tag k="name" v="Sørneset" />
		<tag k="natural" v="cape" />
		<tag k="ssr:stedsnr" v="763650" />
	</node>
	<node id="-58701" lat="62.3794999968" lon="5.92135277189">
		<tag k="name" v="Elvane" />
		<tag k="ssr:stedsnr" v="763649" />
		<tag k="waterway" v="stream" />
	</node>
	<node id="-58700" lat="62.3297555532" lon="6.04279166071">
		<tag k="name" v="Krokelva" />
		<tag k="ssr:stedsnr" v="763642" />
		<tag k="waterway" v="stream" />
	</node>
	<node id="-58699" lat="62.2988166707" lon="5.9849166579">
		<tag k="name" v="Tarevika" />
		<tag k="natural" v="bay" />
		<tag k="ssr:stedsnr" v="763640" />
	</node>
	<node id="-58698" lat="62.3835277751" lon="5.90858333416">
		<tag k="name" v="Mosdalen" />
		<tag k="natural" v="valley" />
		<tag k="place" v="locality" />
		<tag k="ssr:stedsnr" v="763636" />
	</node>
	<node id="-58697" lat="62.310588886" lon="6.01673611513">
		<tag k="name" v="Nobba" />
		<tag k="natural" v="cape" />
		<tag k="ssr:stedsnr" v="763632" />
	</node>
	<node id="-58696" lat="62.3689944437" lon="6.02393055558">
		<tag k="name" v="Pålhaugen" />
		<tag k="place" v="farm" />
		<tag k="ssr:stedsnr" v="763628" />
	</node>
	<node id="-58695" lat="62.288522222" lon="5.95659445179">
		<tag k="historic" v="shieling" />
		<tag k="name" v="Setra" />
		<tag k="place" v="locality" />
		<tag k="ssr:stedsnr" v="763625" />
	</node>
	<node id="-58694" lat="62.3823222246" lon="5.91315554974">
		<tag k="name" v="Nordneset" />
		<tag k="natural" v="cape" />
		<tag k="ssr:stedsnr" v="763723" />
	</node>
	<node id="-58693" lat="62.3744410136" lon="5.9086974868">
		<tag k="alt_name" v="Mosvatnelva" />
		<tag k="name" v="Mosvasselva" />
		<tag k="ssr:stedsnr" v="763717" />
		<tag k="waterway" v="river" />
	</node>
	<node id="-58692" lat="62.3461166637" lon="5.98160832616">
		<tag k="name" v="Klovneset" />
		<tag k="natural" v="cape" />
		<tag k="ssr:stedsnr" v="763714" />
	</node>
	<node id="-58691" lat="62.31178056" lon="5.98370833844">
		<tag k="name" v="Holesanden" />
		<tag k="natural" v="beach" />
		<tag k="ssr:stedsnr" v="763703" />
	</node>
	<node id="-58690" lat="62.3252305559" lon="5.98015556507">
		<tag k="name" v="Storeneset" />
		<tag k="natural" v="cape" />
		<tag k="ssr:stedsnr" v="763701" />
	</node>
	<node id="-58689" lat="62.3166611132" lon="5.93620556079">
		<tag k="fixme" v="consider natural=peak for the most distinct mountains in the district" />
		<tag k="name" v="Løkeberghornet" />
		<tag k="natural" v="hill" />
		<tag k="place" v="locality" />
		<tag k="ssr:stedsnr" v="763698" />
	</node>
	<node id="-58688" lat="62.3141638895" lon="6.02621389293">
		<tag k="name" v="Haggardneset" />
		<tag k="natural" v="cape" />
		<tag k="ssr:stedsnr" v="763694" />
	</node>
	<node id="-58687" lat="62.3056111096" lon="5.99956111032">
		<tag k="name" v="Almestranda" />
		<tag k="natural" v="beach" />
		<tag k="place" v="locality" />
		<tag k="ssr:stedsnr" v="763684" />
	</node>
	<node id="-58686" lat="62.3080833333" lon="5.99515832844">
		<tag k="name" v="Kåvikskaret" />
		<tag k="natural" v="valley" />
		<tag k="place" v="locality" />
		<tag k="ssr:stedsnr" v="763683" />
	</node>
	<node id="-58685" lat="62.3506777758" lon="5.93959999802">
		<tag k="name" v="Riseelva" />
		<tag k="ssr:stedsnr" v="739835" />
		<tag k="waterway" v="stream" />
	</node>
	<node id="-58684" lat="62.3404757355" lon="6.04379270199">
		<tag k="name" v="Liaset" />
		<tag k="place" v="hamlet" />
		<tag k="ssr:stedsnr" v="739794" />
	</node>
	<node id="-58683" lat="62.3470083315" lon="5.91452777474">
		<tag k="bridge" v="yes" />
		<tag k="layer" v="1" />
		<tag k="name" v="Dyftebrua" />
		<tag k="ssr:stedsnr" v="642726" />
	</node>
	<node id="-58682" lat="62.3072083317" lon="5.96183333531">
		<tag k="name" v="Brua" />
		<tag k="natural" v="valley" />
		<tag k="place" v="locality" />
		<tag k="ssr:stedsnr" v="642689" />
	</node>
	<node id="-58681" lat="62.320213885" lon="6.01628610842">
		<tag k="name" v="Ytresloka" />
		<tag k="natural" v="valley" />
		<tag k="place" v="locality" />
		<tag k="ssr:stedsnr" v="642683" />
	</node>
	<node id="-58679" lat="62.3034750027" lon="5.95393887987">
		<tag k="name" v="Lomtjørn" />
		<tag k="natural" v="water" />
		<tag k="ssr:stedsnr" v="642636" />
	</node>
	<node id="-58678" lat="62.380255555" lon="6.02563611435">
		<tag k="name" v="Merkarsteinen" />
		<tag k="natural" v="stone" />
		<tag k="ssr:stedsnr" v="641784" />
	</node>
	<node id="-58677" lat="62.3563527761" lon="5.96503334106">
		<tag k="name" v="Langerysta" />
		<tag k="place" v="farm" />
		<tag k="ssr:stedsnr" v="641782" />
	</node>
	<node id="-58676" lat="62.4212305551" lon="5.96484444833">
		<tag k="name" v="Storeflåa" />
		<tag k="natural" v="cliff" />
		<tag k="ssr:stedsnr" v="641753" />
	</node>
	<node id="-58675" lat="62.4174750037" lon="5.98467778244">
		<tag k="name" v="Klombrene" />
		<tag k="natural" v="ridge" />
		<tag k="place" v="locality" />
		<tag k="ssr:stedsnr" v="641751" />
	</node>
	<node id="-58674" lat="62.3539055527" lon="6.04175556266">
		<tag k="fixme" v="consider natural=peak for the most distinct mountains in the district" />
		<tag k="name" v="Grøthornet" />
		<tag k="natural" v="hill" />
		<tag k="place" v="locality" />
		<tag k="ssr:stedsnr" v="641744" />
	</node>
	<node id="-58673" lat="62.3613305515" lon="6.07664167229">
		<tag k="name" v="Ovraneset" />
		<tag k="natural" v="cape" />
		<tag k="ssr:stedsnr" v="641741" />
	</node>
	<node id="-58672" lat="62.3646138848" lon="6.03240832577">
		<tag k="name" v="Kvernabakken" />
		<tag k="natural" v="slope" />
		<tag k="place" v="locality" />
		<tag k="ssr:stedsnr" v="641731" />
	</node>
	<node id="-58671" lat="62.3401000016" lon="6.0107194518">
		<tag k="name" v="Eggakanten" />
		<tag k="natural" v="ridge" />
		<tag k="place" v="locality" />
		<tag k="ssr:stedsnr" v="641697" />
	</node>
	<node id="-58670" lat="62.3856555527" lon="5.92697222265">
		<tag k="fixme" v="consider natural=peak for the most distinct mountains in the district" />
		<tag k="name" v="Midtre Broren" />
		<tag k="natural" v="hill" />
		<tag k="place" v="locality" />
		<tag k="ssr:stedsnr" v="641695" />
	</node>
	<node id="-58669" lat="62.3383611139" lon="6.06839999451">
		<tag k="name" v="vassberget" />
		<tag k="natural" v="hill" />
		<tag k="place" v="locality" />
		<tag k="ssr:stedsnr" v="641689" />
	</node>
	<node id="-58668" lat="62.3403777822" lon="6.06970278691">
		<tag k="name" v="Storholmen" />
		<tag k="place" v="islet" />
		<tag k="ssr:stedsnr" v="641683" />
	</node>
	<node id="-58667" lat="62.3447694456" lon="5.99864167089">
		<tag k="name" v="Legene" />
		<tag k="place" v="farm" />
		<tag k="ssr:stedsnr" v="641647" />
	</node>
	<node id="-58666" lat="62.3666277785" lon="6.03378611343">
		<tag k="fixme" v="consider place=suburb, village or hamlet" />
		<tag k="name" v="Flotene" />
		<tag k="place" v="quarter" />
		<tag k="ssr:stedsnr" v="641600" />
	</node>
	<node id="-58665" lat="62.3641861126" lon="6.02073054895">
		<tag k="name" v="Djuphola" />
		<tag k="place" v="locality" />
		<tag k="ssr:stedsnr" v="641598" />
	</node>
	<node id="-58664" lat="62.3611722233" lon="5.99519444778">
		<tag k="name" v="Tangane" />
		<tag k="natural" v="cape" />
		<tag k="ssr:stedsnr" v="641590" />
	</node>
	<node id="-58663" lat="62.3381333336" lon="5.98814444009">
		<tag k="name" v="Gråmyra" />
		<tag k="natural" v="wetland" />
		<tag k="ssr:stedsnr" v="641575" />
	</node>
	<node id="-58662" lat="62.3726305573" lon="6.07730834019">
		<tag k="name" v="Finnsgarden" />
		<tag k="place" v="farm" />
		<tag k="ssr:stedsnr" v="631579" />
	</node>
	<node id="-58661" lat="62.3517166655" lon="5.93518889565">
		<tag k="bridge" v="yes" />
		<tag k="layer" v="1" />
		<tag k="name" v="Risebrua" />
		<tag k="ssr:stedsnr" v="630583" />
	</node>
	<node id="-58660" lat="62.3927222232" lon="6.01066667001">
		<tag k="fixme" v="consider natural=peak for the most distinct mountains in the district" />
		<tag k="name" v="Skarbakknakken" />
		<tag k="natural" v="hill" />
		<tag k="old_name" v="Skårbakknakken" />
		<tag k="place" v="locality" />
		<tag k="ssr:stedsnr" v="626368" />
	</node>
	<node id="-58659" lat="62.412544446" lon="6.00601389254">
		<tag k="alt_name" v="Haug" />
		<tag k="fixme" v="multiple name tags, choose one and add the other to alt_name" />
		<tag k="name" v="Haugen;Smottene" />
		<tag k="place" v="farm" />
		<tag k="ssr:stedsnr" v="617927" />
	</node>
	<node id="-58658" lat="62.4063888885" lon="5.98257777627">
		<tag k="historic" v="shieling" />
		<tag k="name" v="Sætra" />
		<tag k="place" v="locality" />
		<tag k="ssr:stedsnr" v="617925" />
	</node>
	<node id="-58657" lat="62.3864916638" lon="5.99420000946">
		<tag k="name" v="Nonsberget" />
		<tag k="natural" v="hill" />
		<tag k="place" v="locality" />
		<tag k="ssr:stedsnr" v="617897" />
	</node>
	<node id="-58656" lat="62.403961111" lon="5.98332499441">
		<tag k="name" v="Ytredalen" />
		<tag k="natural" v="valley" />
		<tag k="place" v="locality" />
		<tag k="ssr:stedsnr" v="617891" />
	</node>
	<node id="-58655" lat="62.3736712952" lon="6.01639685867">
		<tag k="fixme" v="consider place=hamlet" />
		<tag k="name" v="Gjerdet" />
		<tag k="place" v="farm" />
		<tag k="ssr:stedsnr" v="617867" />
	</node>
	<node id="-58654" lat="62.3721194406" lon="5.91143333675">
		<tag k="fixme" v="consider natural=peak for the most distinct mountains in the district" />
		<tag k="name" v="Mosvarden" />
		<tag k="natural" v="hill" />
		<tag k="place" v="locality" />
		<tag k="ssr:stedsnr" v="617854" />
	</node>
	<node id="-58653" lat="62.342527127" lon="6.08029854991">
		<tag k="alt_name" v="Korshamna" />
		<tag k="fixme" v="consider place=hamlet" />
		<tag k="name" v="Korshamn" />
		<tag k="place" v="farm" />
		<tag k="ssr:stedsnr" v="617841" />
	</node>
	<node id="-58652" lat="62.3314916652" lon="5.93187777497">
		<tag k="fixme" v="multiple name tags, choose one and add the other to alt_name; consider natural=peak for the most distinct mountains in the district" />
		<tag k="name" v="Haretua;Ramnefjellet" />
		<tag k="natural" v="hill" />
		<tag k="place" v="locality" />
		<tag k="ssr:stedsnr" v="617813" />
	</node>
	<node id="-58651" lat="62.3547500025" lon="6.08406666373">
		<tag k="name" v="Steffaneset" />
		<tag k="natural" v="cape" />
		<tag k="ssr:stedsnr" v="581801" />
	</node>
	<node id="-58650" lat="62.4195166645" lon="6.00363612021">
		<tag k="name" v="Klombraodden" />
		<tag k="natural" v="cape" />
		<tag k="ssr:stedsnr" v="581797" />
	</node>
	<node id="-58649" lat="62.3701527754" lon="6.0420666718">
		<tag k="alt_name" v="Hareidsbukta" />
		<tag k="name" v="Hareidsvika" />
		<tag k="natural" v="bay" />
		<tag k="ssr:stedsnr" v="581786" />
	</node>
	<node id="-58648" lat="62.3664583329" lon="6.0454944391">
		<tag k="name" v="Raffelneset" />
		<tag k="natural" v="cape" />
		<tag k="ssr:stedsnr" v="581782" />
	</node>
	<node id="-58647" lat="62.3445000031" lon="5.93769444969">
		<tag k="name" v="Risenakken" />
		<tag k="natural" v="hill" />
		<tag k="place" v="locality" />
		<tag k="ssr:stedsnr" v="581758" />
	</node>
	<node id="-58646" lat="62.3402027793" lon="6.04018889097">
		<tag k="name" v="Øvre Liaset" />
		<tag k="place" v="farm" />
		<tag k="ssr:stedsnr" v="581748" />
	</node>
	<node id="-58645" lat="62.3457194428" lon="6.06412777973">
		<tag k="name" v="Leira" />
		<tag k="natural" v="beach" />
		<tag k="place" v="locality" />
		<tag k="ssr:stedsnr" v="581744" />
	</node>
	<node id="-58644" lat="62.3335027745" lon="6.0582027846">
		<tag k="name" v="Svartevika" />
		<tag k="natural" v="bay" />
		<tag k="ssr:stedsnr" v="581732" />
	</node>
	<node id="-58643" lat="62.3214277816" lon="5.97914999802">
		<tag k="name" v="Byteneset" />
		<tag k="natural" v="cape" />
		<tag k="ssr:stedsnr" v="581722" />
	</node>
	<node id="-58642" lat="62.3043083343" lon="5.96773332745">
		<tag k="name" v="Djupedalselva" />
		<tag k="ssr:stedsnr" v="581702" />
		<tag k="waterway" v="stream" />
	</node>
	<node id="-58641" lat="62.3046722224" lon="5.98776389655">
		<tag k="name" v="Geitnakken" />
		<tag k="natural" v="ridge" />
		<tag k="place" v="locality" />
		<tag k="ssr:stedsnr" v="581701" />
	</node>
	<node id="-58640" lat="62.3027861124" lon="5.97013333634">
		<tag k="name" v="Jonsnakken" />
		<tag k="natural" v="ridge" />
		<tag k="place" v="locality" />
		<tag k="ssr:stedsnr" v="581700" />
	</node>
	<node id="-58639" lat="62.3469805531" lon="5.98759167562">
		<tag k="name" v="Brenslene" />
		<tag k="place" v="locality" />
		<tag k="ssr:stedsnr" v="581689" />
	</node>
	<node id="-58638" lat="62.3478555553" lon="5.97284443647">
		<tag k="name" v="Skinstøvika" />
		<tag k="natural" v="bay" />
		<tag k="ssr:stedsnr" v="581687" />
	</node>
	<node id="-58637" lat="62.3018999972" lon="5.9844861139">
		<tag k="name" v="Almekleiva" />
		<tag k="natural" v="valley" />
		<tag k="place" v="locality" />
		<tag k="ssr:stedsnr" v="581683" />
	</node>
	<node id="-58636" lat="62.3398138925" lon="5.99958888866">
		<tag k="name" v="Instebakken" />
		<tag k="place" v="farm" />
		<tag k="ssr:stedsnr" v="581676" />
	</node>
	<node id="-58635" lat="62.3853972203" lon="5.91019723007">
		<tag k="fixme" v="consider natural=peak for the most distinct mountains in the district" />
		<tag k="name" v="Skålnakken" />
		<tag k="natural" v="hill" />
		<tag k="place" v="locality" />
		<tag k="ssr:stedsnr" v="557885" />
	</node>
	<node id="-58634" lat="62.3211416646" lon="5.95515833991">
		<tag k="name" v="Svartevatnet" />
		<tag k="natural" v="water" />
		<tag k="ssr:stedsnr" v="557741" />
	</node>
	<node id="-58633" lat="62.3244388929" lon="5.9493972239">
		<tag k="name" v="Nessetelva" />
		<tag k="ssr:stedsnr" v="557787" />
		<tag k="waterway" v="stream" />
	</node>
	<node id="-58632" lat="62.3520138873" lon="5.95129443636">
		<tag k="name" v="Myrvoll" />
		<tag k="place" v="farm" />
		<tag k="ssr:stedsnr" v="556839" />
	</node>
	<node id="-58631" lat="62.3501272288" lon="5.9303237088">
		<tag k="alt_name" v="Rise, øvre" />
		<tag k="fixme" v="consider place=hamlet" />
		<tag k="name" v="Øvre Rise" />
		<tag k="place" v="farm" />
		<tag k="ssr:stedsnr" v="556837" />
	</node>
	<node id="-58630" lat="62.3574638928" lon="5.97384722158">
		<tag k="name" v="Toppholen" />
		<tag k="place" v="farm" />
		<tag k="ssr:stedsnr" v="556835" />
	</node>
	<node id="-58629" lat="62.3320138906" lon="5.98405834178">
		<tag k="name" v="Snipsøyrvatnet" />
		<tag k="natural" v="water" />
		<tag k="ssr:stedsnr" v="556798" />
		<tag k="water" v="lake" />
	</node>
	<node id="-58628" lat="62.4201805554" lon="5.97607499895">
		<tag k="name" v="Skolmedalselva" />
		<tag k="ssr:stedsnr" v="537899" />
		<tag k="waterway" v="stream" />
	</node>
	<node id="-58627" lat="62.3701194436" lon="5.93606943645">
		<tag k="fixme" v="consider natural=peak for the most distinct mountains in the district" />
		<tag k="name" v="Grøthornet" />
		<tag k="natural" v="hill" />
		<tag k="place" v="locality" />
		<tag k="ssr:stedsnr" v="520827" />
	</node>
	<node id="-58626" lat="62.3919972236" lon="5.99961110659">
		<tag k="alt_name" v="Indreelva" />
		<tag k="name" v="Indredalselva" />
		<tag k="ssr:stedsnr" v="520803" />
		<tag k="waterway" v="river" />
	</node>
	<node id="-58625" lat="62.403936115" lon="5.96896111739">
		<tag k="name" v="Smådalane" />
		<tag k="natural" v="valley" />
		<tag k="place" v="locality" />
		<tag k="ssr:stedsnr" v="520801" />
	</node>
	<node id="-58624" lat="62.3352944399" lon="5.93760277401">
		<tag k="name" v="Nordre Bjørnaskaret" />
		<tag k="natural" v="valley" />
		<tag k="place" v="locality" />
		<tag k="ssr:stedsnr" v="520753" />
	</node>
	<node id="-58623" lat="62.3412777787" lon="5.96519167315">
		<tag k="name" v="Gabrielmorka" />
		<tag k="place" v="farm" />
		<tag k="ssr:stedsnr" v="520749" />
	</node>
	<node id="-58622" lat="62.3252027822" lon="5.91678055339">
		<tag k="name" v="Kriken" />
		<tag k="natural" v="bay" />
		<tag k="ssr:stedsnr" v="520748" />
	</node>
	<node id="-58621" lat="62.3408249994" lon="6.04534722255">
		<tag k="name" v="Nedre Liaset" />
		<tag k="place" v="farm" />
		<tag k="ssr:stedsnr" v="520740" />
	</node>
	<node id="-58620" lat="62.3821611098" lon="5.92177222622">
		<tag k="fixme" v="multiple name tags, choose one and add the other to alt_name" />
		<tag k="name" v="Brørebakkane;Brørelia" />
		<tag k="natural" v="slope" />
		<tag k="place" v="locality" />
		<tag k="ssr:stedsnr" v="520729" />
	</node>
	<node id="-58619" lat="62.3388833333" lon="6.05381388587">
		<tag k="name" v="Vasshaugane" />
		<tag k="natural" v="hill" />
		<tag k="place" v="locality" />
		<tag k="ssr:stedsnr" v="520723" />
	</node>
	<node id="-58618" lat="62.3333027821" lon="6.06912500846">
		<tag k="name" v="Åsestranda" />
		<tag k="natural" v="beach" />
		<tag k="place" v="locality" />
		<tag k="ssr:stedsnr" v="520722" />
	</node>
	<node id="-58617" lat="62.3127222203" lon="5.98222500235">
		<tag k="name" v="Holeneset" />
		<tag k="natural" v="cape" />
		<tag k="ssr:stedsnr" v="520718" />
	</node>
	<node id="-58616" lat="62.3246166697" lon="5.96497222292">
		<tag k="name" v="Litlenakken" />
		<tag k="natural" v="ridge" />
		<tag k="place" v="locality" />
		<tag k="ssr:stedsnr" v="520714" />
	</node>
	<node id="-58615" lat="62.3227083327" lon="6.02668055383">
		<tag k="name" v="Blikhyllene" />
		<tag k="place" v="locality" />
		<tag k="ssr:stedsnr" v="520713" />
	</node>
	<node id="-58614" lat="62.3491416682" lon="5.98435834209">
		<tag k="name" v="Langenesvika" />
		<tag k="natural" v="bay" />
		<tag k="ssr:stedsnr" v="520697" />
	</node>
	<node id="-58613" lat="62.3501999957" lon="5.96055277461">
		<tag k="name" v="Hovdemyrane" />
		<tag k="natural" v="wetland" />
		<tag k="ssr:stedsnr" v="520686" />
	</node>
	<node id="-58612" lat="62.2951083364" lon="5.9595972136">
		<tag k="name" v="Furehammaren" />
		<tag k="natural" v="cliff" />
		<tag k="ssr:stedsnr" v="520683" />
	</node>
	<node id="-58611" lat="62.3901583293" lon="6.02439445151">
		<tag k="name" v="Uravika" />
		<tag k="natural" v="bay" />
		<tag k="ssr:stedsnr" v="520630" />
	</node>
	<node id="-58610" lat="62.3650555595" lon="6.03029443524">
		<tag k="name" v="Aurgotene" />
		<tag k="place" v="farm" />
		<tag k="ssr:stedsnr" v="520608" />
	</node>
	<node id="-58609" lat="62.3422722251" lon="6.08260555947">
		<tag k="name" v="Bakken" />
		<tag k="place" v="farm" />
		<tag k="ssr:stedsnr" v="436778" />
	</node>
	<node id="-58608" lat="62.3069199974" lon="5.97692622041">
		<tag k="alt_name" v="Kvammen;Kvamme" />
		<tag k="fixme" v="consider place=hamlet" />
		<tag k="name" v="Kvamen" />
		<tag k="place" v="farm" />
		<tag k="ssr:stedsnr" v="436769" />
	</node>
	<node id="-58607" lat="62.3156444489" lon="6.00983333885">
		<tag k="fixme" v="consider natural=peak for the most distinct mountains in the district" />
		<tag k="name" v="Ulsettua" />
		<tag k="natural" v="hill" />
		<tag k="place" v="locality" />
		<tag k="ssr:stedsnr" v="436766" />
	</node>
	<node id="-58606" lat="62.3359694409" lon="6.03006945204">
		<tag k="alt_name" v="Øvreli;Øvrelid" />
		<tag k="name" v="Øverli" />
		<tag k="place" v="farm" />
		<tag k="ssr:stedsnr" v="424377" />
	</node>
	<node id="-58605" lat="62.3871722259" lon="5.94783055595">
		<tag k="name" v="Tørlyngskaret" />
		<tag k="natural" v="valley" />
		<tag k="place" v="locality" />
		<tag k="ssr:stedsnr" v="423054" />
	</node>
	<node id="-58604" lat="62.3391032471" lon="5.96843572066">
		<tag k="name" v="Ytre Mork" />
		<tag k="place" v="farm" />
		<tag k="ssr:stedsnr" v="421914" />
	</node>
	<node id="-58603" lat="62.4201944477" lon="5.96630833368">
		<tag k="fixme" v="consider natural=peak for the most distinct mountains in the district" />
		<tag k="name" v="Skolma" />
		<tag k="natural" v="hill" />
		<tag k="place" v="locality" />
		<tag k="ssr:stedsnr" v="404981" />
	</node>
	<node id="-58602" lat="62.3694194475" lon="5.92823889391">
		<tag k="name" v="Akslinakken" />
		<tag k="natural" v="ridge" />
		<tag k="place" v="locality" />
		<tag k="ssr:stedsnr" v="399804" />
	</node>
	<node id="-58601" lat="62.3857777742" lon="6.02165832564">
		<tag k="name" v="Måsegylet" />
		<tag k="natural" v="gorge" />
		<tag k="ssr:stedsnr" v="399802" />
	</node>
	<node id="-58600" lat="62.3915583303" lon="5.99448889035">
		<tag k="name" v="Indredalen" />
		<tag k="natural" v="valley" />
		<tag k="place" v="locality" />
		<tag k="ssr:stedsnr" v="399788" />
	</node>
	<node id="-58599" lat="62.352041664" lon="6.09478333819">
		<tag k="name" v="Leirvågen" />
		<tag k="natural" v="bay" />
		<tag k="ssr:stedsnr" v="399779" />
	</node>
	<node id="-58598" lat="62.4248666692" lon="5.96913610481">
		<tag k="name" v="Buhammaren" />
		<tag k="natural" v="cliff" />
		<tag k="ssr:stedsnr" v="399776" />
	</node>
	<node id="-58597" lat="62.3631277738" lon="6.01375000681">
		<tag k="name" v="Djupeelva" />
		<tag k="ssr:stedsnr" v="399755" />
		<tag k="waterway" v="river" />
	</node>
	<node id="-58596" lat="62.3365416643" lon="5.91650555082">
		<tag k="name" v="Fjellsbrekkene" />
		<tag k="natural" v="slope" />
		<tag k="place" v="locality" />
		<tag k="ssr:stedsnr" v="399730" />
	</node>
	<node id="-58595" lat="62.3418944432" lon="6.00003055189">
		<tag k="name" v="Ytstebakken" />
		<tag k="place" v="farm" />
		<tag k="ssr:stedsnr" v="399714" />
	</node>
	<node id="-58594" lat="62.3660777756" lon="5.90471389575">
		<tag k="alt_name" v="Feillielva" />
		<tag k="name" v="Feilielva" />
		<tag k="ssr:stedsnr" v="399713" />
		<tag k="waterway" v="stream" />
	</node>
	<node id="-58593" lat="62.2899833363" lon="5.95202777357">
		<tag k="name" v="Setrefonna" />
		<tag k="place" v="locality" />
		<tag k="ssr:stedsnr" v="399668" />
	</node>
	<node id="-58592" lat="62.3357166696" lon="5.96480000917">
		<tag k="name" v="Larsmorka" />
		<tag k="place" v="farm" />
		<tag k="ssr:stedsnr" v="399667" />
	</node>
	<node id="-58591" lat="62.3591250036" lon="6.05498332919">
		<tag k="name" v="Smådalen" />
		<tag k="natural" v="valley" />
		<tag k="place" v="locality" />
		<tag k="ssr:stedsnr" v="399643" />
	</node>
	<node id="-58590" lat="62.3536416699" lon="6.09311665939">
		<tag k="name" v="Risneset" />
		<tag k="natural" v="cape" />
		<tag k="ssr:stedsnr" v="399640" />
	</node>
	<node id="-58589" lat="62.3590777757" lon="5.90990278598">
		<tag k="name" v="Legeelva" />
		<tag k="ssr:stedsnr" v="399638" />
		<tag k="waterway" v="stream" />
	</node>
	<node id="-58588" lat="62.4037750008" lon="5.97699443786">
		<tag k="name" v="Koppen" />
		<tag k="natural" v="valley" />
		<tag k="place" v="locality" />
		<tag k="ssr:stedsnr" v="399637" />
	</node>
	<node id="-58587" lat="62.3948277823" lon="6.00247500239">
		<tag k="name" v="Gjerdet" />
		<tag k="place" v="farm" />
		<tag k="ssr:stedsnr" v="399635" />
	</node>
	<node id="-58586" lat="62.3303388861" lon="6.00427222889">
		<tag k="name" v="Skora" />
		<tag k="natural" v="valley" />
		<tag k="place" v="locality" />
		<tag k="ssr:stedsnr" v="399626" />
	</node>
	<node id="-58585" lat="62.3226222182" lon="5.94952499749">
		<tag k="name" v="Haugane" />
		<tag k="natural" v="hill" />
		<tag k="place" v="locality" />
		<tag k="ssr:stedsnr" v="399623" />
	</node>
	<node id="-58584" lat="62.3584638921" lon="5.96826110162">
		<tag k="name" v="Vonheim" />
		<tag k="place" v="farm" />
		<tag k="ssr:stedsnr" v="399617" />
	</node>
	<node id="-58583" lat="62.3706999957" lon="6.03165278044">
		<tag k="amenity" v="ferry_terminal" />
		<tag k="name" v="Hareid ferjekai" />
		<tag k="ssr:stedsnr" v="398286" />
	</node>
	<node id="-58582" lat="62.3229394617" lon="6.00199980227">
		<tag k="fixme" v="consider place=hamlet" />
		<tag k="name" v="Ulset" />
		<tag k="place" v="farm" />
		<tag k="ssr:stedsnr" v="375741" />
	</node>
	<node id="-58581" lat="62.3981361073" lon="5.969469442">
		<tag k="name" v="Lågheida" />
		<tag k="natural" v="hill" />
		<tag k="place" v="locality" />
		<tag k="ssr:stedsnr" v="375880" />
	</node>
	<node id="-58580" lat="62.3319015473" lon="6.03241836119">
		<tag k="fixme" v="consider place=hamlet" />
		<tag k="name" v="Hjørungdalen" />
		<tag k="place" v="farm" />
		<tag k="ssr:stedsnr" v="375786" />
	</node>
	<node id="-58579" lat="62.357958332" lon="6.0595833282">
		<tag k="fixme" v="consider natural=peak for the most distinct mountains in the district" />
		<tag k="name" v="Ovranakken" />
		<tag k="natural" v="hill" />
		<tag k="place" v="locality" />
		<tag k="ssr:stedsnr" v="374836" />
	</node>
	<node id="-58578" lat="62.3633976756" lon="6.04491634645">
		<tag k="fixme" v="consider place=hamlet" />
		<tag k="name" v="Hareid" />
		<tag k="place" v="farm" />
		<tag k="ssr:stedsnr" v="374886" />
	</node>
	<node id="-58577" lat="62.3610346644" lon="5.97508992036">
		<tag k="fixme" v="consider place=hamlet" />
		<tag k="name" v="Bjåstad" />
		<tag k="place" v="farm" />
		<tag k="ssr:stedsnr" v="374881" />
	</node>
	<node id="-58576" lat="62.3884722247" lon="5.95195555182">
		<tag k="name" v="Tørlingehaugen" />
		<tag k="natural" v="hill" />
		<tag k="place" v="locality" />
		<tag k="ssr:stedsnr" v="362051" />
	</node>
	<node id="-58575" lat="62.3761666707" lon="5.95442778243">
		<tag k="name" v="Koppelva" />
		<tag k="ssr:stedsnr" v="362049" />
		<tag k="waterway" v="river" />
	</node>
	<node id="-58574" lat="62.3527555593" lon="6.08947500124">
		<tag k="name" v="Leirvågkollen" />
		<tag k="natural" v="hill" />
		<tag k="place" v="locality" />
		<tag k="ssr:stedsnr" v="355857" />
	</node>
	<node id="-58573" lat="62.3551416655" lon="5.96186666354">
		<tag k="name" v="Kashaugen" />
		<tag k="place" v="farm" />
		<tag k="ssr:stedsnr" v="338792" />
	</node>
	<node id="-58572" lat="62.3335277812" lon="6.03659166264">
		<tag k="name" v="Hjørungdalselva" />
		<tag k="ssr:stedsnr" v="338710" />
		<tag k="waterway" v="stream" />
	</node>
	<node id="-58571" lat="62.3264805513" lon="5.97913889713">
		<tag k="name" v="Nessetholmen" />
		<tag k="place" v="islet" />
		<tag k="ssr:stedsnr" v="338681" />
	</node>
	<node id="-58570" lat="62.3144416697" lon="5.99182221545">
		<tag k="name" v="Ulsetbotnen" />
		<tag k="natural" v="beach" />
		<tag k="ssr:stedsnr" v="338661" />
	</node>
	<node id="-58569" lat="62.3270249971" lon="6.01629165946">
		<tag k="name" v="Djupemyrane" />
		<tag k="natural" v="wetland" />
		<tag k="ssr:stedsnr" v="338657" />
	</node>
	<node id="-58568" lat="62.316602776" lon="6.01771388047">
		<tag k="name" v="Kamben" />
		<tag k="natural" v="ridge" />
		<tag k="place" v="locality" />
		<tag k="ssr:stedsnr" v="338648" />
	</node>
	<node id="-58567" lat="62.383272226" lon="6.0286472214">
		<tag k="name" v="Rinden" />
		<tag k="natural" v="ridge" />
		<tag k="place" v="locality" />
		<tag k="ssr:stedsnr" v="338593" />
	</node>
	<node id="-58566" lat="62.2976694454" lon="5.97649166277">
		<tag k="name" v="Vollen" />
		<tag k="natural" v="scree" />
		<tag k="ssr:stedsnr" v="338565" />
	</node>
	<node id="-58565" lat="62.4188305522" lon="6.0008361144">
		<tag k="name" v="Klombra" />
		<tag k="place" v="isolated_dwelling" />
		<tag k="ssr:stedsnr" v="314897" />
	</node>
	<node id="-58564" lat="62.3627805548" lon="6.00906667368">
		<tag k="name" v="Hareidselva" />
		<tag k="ssr:stedsnr" v="314849" />
		<tag k="waterway" v="stream" />
	</node>
	<node id="-58563" lat="62.3476308217" lon="5.96538368985">
		<tag k="fixme" v="consider place=hamlet" />
		<tag k="name" v="Hovden" />
		<tag k="place" v="farm" />
		<tag k="ssr:stedsnr" v="314836" />
	</node>
	<node id="-58562" lat="62.3474611138" lon="6.07263055812">
		<tag k="alt_name" v="Gåsneset" />
		<tag k="name" v="Gåsnes" />
		<tag k="place" v="farm" />
		<tag k="ssr:stedsnr" v="314835" />
	</node>
	<node id="-58561" lat="62.3901361075" lon="5.98616944718">
		<tag k="name" v="Indredalen" />
		<tag k="natural" v="valley" />
		<tag k="place" v="locality" />
		<tag k="ssr:stedsnr" v="193886" />
	</node>
	<node id="-58560" lat="62.3985638898" lon="5.99716945135">
		<tag k="alt_name" v="Knutenakken" />
		<tag k="fixme" v="consider natural=peak for the most distinct mountains in the district" />
		<tag k="name" v="Knutnakken" />
		<tag k="natural" v="hill" />
		<tag k="place" v="locality" />
		<tag k="ssr:stedsnr" v="193883" />
	</node>
	<node id="-58559" lat="62.3399722192" lon="5.94494167296">
		<tag k="alt_name" v="Haugnakken" />
		<tag k="fixme" v="consider natural=peak for the most distinct mountains in the district" />
		<tag k="name" v="Hovdenakken" />
		<tag k="natural" v="hill" />
		<tag k="place" v="locality" />
		<tag k="ssr:stedsnr" v="193852" />
	</node>
	<node id="-58558" lat="62.3716916701" lon="5.94991389226">
		<tag k="fixme" v="consider natural=peak for the most distinct mountains in the district" />
		<tag k="name" v="Skafjellet" />
		<tag k="natural" v="hill" />
		<tag k="place" v="locality" />
		<tag k="ssr:stedsnr" v="192879" />
	</node>
	<node id="-58557" lat="62.3926499984" lon="5.95569167536">
		<tag k="name" v="Litle Tørlingehaug" />
		<tag k="natural" v="hill" />
		<tag k="place" v="locality" />
		<tag k="ssr:stedsnr" v="180042" />
	</node>
	<node id="-58556" lat="62.3508055591" lon="5.92986666032">
		<tag k="name" v="Fram-Rise" />
		<tag k="place" v="farm" />
		<tag k="ssr:stedsnr" v="178796" />
	</node>
	<node id="-58555" lat="62.3600833375" lon="6.07006666549">
		<tag k="name" v="Mon" />
		<tag k="place" v="isolated_dwelling" />
		<tag k="ssr:stedsnr" v="173875" />
	</node>
	<node id="-58554" lat="62.3500999974" lon="6.06524445095">
		<tag k="name" v="Myra" />
		<tag k="place" v="isolated_dwelling" />
		<tag k="ssr:stedsnr" v="173868" />
	</node>
	<node id="-58553" lat="62.3827333323" lon="6.02466665769">
		<tag k="name" v="Sveneselva" />
		<tag k="ssr:stedsnr" v="156806" />
		<tag k="waterway" v="stream" />
	</node>
	<node id="-58552" lat="62.3785638931" lon="6.03608333709">
		<tag k="name" v="Korsneset" />
		<tag k="natural" v="cape" />
		<tag k="ssr:stedsnr" v="156798" />
	</node>
	<node id="-58551" lat="62.4075027734" lon="5.96786943644">
		<tag k="name" v="Småvardane" />
		<tag k="natural" v="hill" />
		<tag k="place" v="locality" />
		<tag k="ssr:stedsnr" v="156792" />
	</node>
	<node id="-58550" lat="62.4030972226" lon="6.00758888104">
		<tag k="name" v="Saudebømola" />
		<tag k="natural" v="beach" />
		<tag k="place" v="locality" />
		<tag k="ssr:stedsnr" v="156786" />
	</node>
	<node id="-58549" lat="62.4091222232" lon="5.99763332616">
		<tag k="name" v="Lisetbrunene" />
		<tag k="natural" v="ridge" />
		<tag k="place" v="locality" />
		<tag k="ssr:stedsnr" v="156784" />
	</node>
	<node id="-58548" lat="62.4223277797" lon="6.0020055567">
		<tag k="name" v="Skjersundet" />
		<tag k="natural" v="strait" />
		<tag k="ssr:stedsnr" v="156779" />
	</node>
	<node id="-58547" lat="62.3653527798" lon="5.99536943988">
		<tag k="name" v="Grimstadelva" />
		<tag k="ssr:stedsnr" v="156768" />
		<tag k="waterway" v="stream" />
	</node>
	<node id="-58546" lat="62.3629277744" lon="6.06393054704">
		<tag k="name" v="Ovrastranda" />
		<tag k="natural" v="beach" />
		<tag k="place" v="locality" />
		<tag k="ssr:stedsnr" v="156762" />
	</node>
	<node id="-58545" lat="62.362616665" lon="6.03753612064">
		<tag k="name" v="Smådalane" />
		<tag k="natural" v="valley" />
		<tag k="place" v="locality" />
		<tag k="ssr:stedsnr" v="156753" />
	</node>
	<node id="-58544" lat="62.3346916673" lon="5.96715834149">
		<tag k="name" v="Klungrebakken" />
		<tag k="natural" v="slope" />
		<tag k="place" v="locality" />
		<tag k="ssr:stedsnr" v="156718" />
	</node>
	<node id="-58543" lat="62.3444472203" lon="6.00169721409">
		<tag k="name" v="Seljehjellen" />
		<tag k="place" v="locality" />
		<tag k="ssr:stedsnr" v="156715" />
	</node>
	<node id="-58542" lat="62.360855559" lon="5.98065278104">
		<tag k="name" v="Bjåstadbakken" />
		<tag k="natural" v="slope" />
		<tag k="place" v="locality" />
		<tag k="ssr:stedsnr" v="156701" />
	</node>
	<node id="-58541" lat="62.3428861145" lon="6.09843611187">
		<tag k="name" v="Søre Neset" />
		<tag k="natural" v="cape" />
		<tag k="ssr:stedsnr" v="156700" />
	</node>
	<node id="-58540" lat="62.347558337" lon="6.10827778336">
		<tag k="name" v="Svinegjerdsvika" />
		<tag k="natural" v="bay" />
		<tag k="ssr:stedsnr" v="156697" />
	</node>
	<node id="-58539" lat="62.3252666652" lon="5.9595027755">
		<tag k="name" v="Svartevasselva" />
		<tag k="ssr:stedsnr" v="156689" />
		<tag k="waterway" v="stream" />
	</node>
	<node id="-58538" lat="62.3264999957" lon="6.01173055534">
		<tag k="name" v="Ulsetleitet" />
		<tag k="natural" v="slope" />
		<tag k="place" v="locality" />
		<tag k="ssr:stedsnr" v="156678" />
	</node>
	<node id="-58537" lat="62.3292333313" lon="6.02742222967">
		<tag k="name" v="Furehaugen" />
		<tag k="natural" v="hill" />
		<tag k="place" v="locality" />
		<tag k="ssr:stedsnr" v="156676" />
	</node>
	<node id="-58536" lat="62.3018444483" lon="5.99486944573">
		<tag k="name" v="Naustvika" />
		<tag k="natural" v="bay" />
		<tag k="ssr:stedsnr" v="156674" />
	</node>
	<node id="-58535" lat="62.3030083347" lon="5.99835555153">
		<tag k="name" v="Gjerdevika" />
		<tag k="natural" v="bay" />
		<tag k="ssr:stedsnr" v="156673" />
	</node>
	<node id="-58534" lat="62.3385444469" lon="6.04006666741">
		<tag k="name" v="Grøtet" />
		<tag k="place" v="farm" />
		<tag k="ssr:stedsnr" v="156655" />
	</node>
	<node id="-58533" lat="62.3271250005" lon="6.0001611065">
		<tag k="name" v="Haugen" />
		<tag k="natural" v="hill" />
		<tag k="place" v="locality" />
		<tag k="ssr:stedsnr" v="156613" />
	</node>
	<node id="-58532" lat="62.3120555595" lon="5.96485555824">
		<tag k="name" v="Bulegene" />
		<tag k="natural" v="slope" />
		<tag k="place" v="locality" />
		<tag k="ssr:stedsnr" v="156611" />
	</node>
	<node id="-58531" lat="62.3300499989" lon="5.91598889174">
		<tag k="name" v="Halsen" />
		<tag k="natural" v="strait" />
		<tag k="ssr:stedsnr" v="156607" />
	</node>
	<node id="-58530" lat="62.402627776" lon="6.00636944919">
		<tag k="alt_name" v="Sauebø;Sauebøen" />
		<tag k="name" v="Saudebøen" />
		<tag k="place" v="farm" />
		<tag k="ssr:stedsnr" v="132884" />
	</node>
	<node id="-58529" lat="62.3731472203" lon="5.94408054748">
		<tag k="alt_name" v="Bjåstadsela" />
		<tag k="historic" v="shieling" />
		<tag k="name" v="Bjåstadsætra" />
		<tag k="place" v="locality" />
		<tag k="ssr:stedsnr" v="131894" />
	</node>
	<node id="-58528" lat="62.3744555599" lon="5.90855000331">
		<tag k="name" v="Mosvasselva" />
		<tag k="ssr:stedsnr" v="131893" />
		<tag k="waterway" v="stream" />
	</node>
	<node id="-58527" lat="62.3298583355" lon="6.06165556472">
		<tag k="name" v="Naustberget" />
		<tag k="natural" v="cape" />
		<tag k="ssr:stedsnr" v="112792" />
	</node>
	<node id="-58526" lat="62.4120861151" lon="5.97960276911">
		<tag k="name" v="Tverrelva" />
		<tag k="ssr:stedsnr" v="96793" />
		<tag k="waterway" v="stream" />
	</node>
	<node id="-58525" lat="62.4013916669" lon="6.00099723079">
		<tag k="name" v="Årdalshaugen" />
		<tag k="natural" v="hill" />
		<tag k="place" v="locality" />
		<tag k="ssr:stedsnr" v="96792" />
	</node>
	<node id="-58524" lat="62.2876083339" lon="5.95385000531">
		<tag k="name" v="Bukketaket" />
		<tag k="natural" v="slope" />
		<tag k="place" v="locality" />
		<tag k="ssr:stedsnr" v="96682" />
	</node>
	<node id="-58523" lat="62.3475083334" lon="5.92132499944">
		<tag k="name" v="Dyfteelva" />
		<tag k="ssr:stedsnr" v="96735" />
		<tag k="waterway" v="stream" />
	</node>
	<node id="-58522" lat="62.3490194461" lon="6.08696667474">
		<tag k="name" v="Hjørungnesmyrane" />
		<tag k="natural" v="wetland" />
		<tag k="ssr:stedsnr" v="96732" />
	</node>
	<node id="-58521" lat="62.3156916706" lon="5.96744722153">
		<tag k="name" v="Snipsøyrelva" />
		<tag k="ssr:stedsnr" v="96712" />
		<tag k="waterway" v="stream" />
	</node>
	<node id="-58520" lat="62.383202777" lon="6.01583333115">
		<tag k="name" v="Brende" />
		<tag k="natural" v="slope" />
		<tag k="place" v="locality" />
		<tag k="ssr:stedsnr" v="300150" />
	</node>
	<node id="-58519" lat="62.4026055513" lon="5.93885000666">
		<tag k="fixme" v="multiple name tags, choose one and add the other to alt_name; consider natural=peak for the most distinct mountains in the district" />
		<tag k="name" v="Sneldelida;Sneldelihorn" />
		<tag k="natural" v="hill" />
		<tag k="place" v="locality" />
		<tag k="ssr:stedsnr" v="72877" />
	</node>
	<node id="-58518" lat="62.3369249971" lon="6.05941944558">
		<tag k="name" v="Hjørungdalsvatnet" />
		<tag k="natural" v="water" />
		<tag k="ssr:stedsnr" v="72769" />
		<tag k="water" v="lake" />
	</node>
	<node id="-58517" lat="62.3417805523" lon="6.07884721574">
		<tag k="name" v="Bøen" />
		<tag k="place" v="farm" />
		<tag k="ssr:stedsnr" v="72764" />
	</node>
	<node id="-58516" lat="62.3115420722" lon="6.01522505311">
		<tag k="alt_name" v="Alme, lisle;Litl Alme" />
		<tag k="fixme" v="consider place=hamlet" />
		<tag k="name" v="Lisle Alme" />
		<tag k="place" v="farm" />
		<tag k="ssr:stedsnr" v="72757" />
	</node>
	<node id="-58515" lat="62.3724754019" lon="6.00968918251">
		<tag k="fixme" v="consider place=hamlet" />
		<tag k="name" v="Holstad" />
		<tag k="place" v="farm" />
		<tag k="ssr:stedsnr" v="71894" />
	</node>
	<node id="-58514" lat="62.3819722263" lon="6.02561111336">
		<tag k="fixme" v="consider natural=peak for the most distinct mountains in the district" />
		<tag k="name" v="Håbakknotten" />
		<tag k="natural" v="hill" />
		<tag k="place" v="locality" />
		<tag k="ssr:stedsnr" v="71876" />
	</node>
	<node id="-58513" lat="62.3660111094" lon="5.91223610907">
		<tag k="fixme" v="consider natural=peak for the most distinct mountains in the district" />
		<tag k="name" v="Bjørnenakken" />
		<tag k="natural" v="hill" />
		<tag k="place" v="locality" />
		<tag k="ssr:stedsnr" v="71867" />
	</node>
	<node id="-58512" lat="62.3673277736" lon="6.0296555648">
		<tag k="amenity" v="place_of_worship" />
		<tag k="denomination" v="lutheran" />
		<tag k="name" v="Hareid" />
		<tag k="religion" v="christian" />
		<tag k="ssr:stedsnr" v="51880" />
	</node>
	<node id="-58511" lat="62.2941416673" lon="5.96182777152">
		<tag k="name" v="Tirhammargjelet" />
		<tag k="natural" v="gorge" />
		<tag k="ssr:stedsnr" v="51244" />
	</node>
	<node id="-58510" lat="62.4225222191" lon="6.00251945201">
		<tag k="fixme" v="consider seamark:type=rock or natural=shoal" />
		<tag k="name" v="Kvitnesskjeret" />
		<tag k="place" v="islet" />
		<tag k="ssr:stedsnr" v="35794" />
	</node>
	<node id="-58509" lat="62.3556416667" lon="6.04700277073">
		<tag k="name" v="Furingenausen" />
		<tag k="natural" v="ridge" />
		<tag k="place" v="locality" />
		<tag k="ssr:stedsnr" v="35789" />
	</node>
	<node id="-58508" lat="62.361863886" lon="6.08189165972">
		<tag k="fixme" v="consider seamark:type=rock or natural=shoal" />
		<tag k="name" v="Ovrafludene" />
		<tag k="place" v="islet" />
		<tag k="ssr:stedsnr" v="35788" />
	</node>
	<node id="-58507" lat="62.3343277769" lon="5.94306111058">
		<tag k="name" v="Sletteskogen" />
		<tag k="natural" v="slope" />
		<tag k="place" v="locality" />
		<tag k="ssr:stedsnr" v="35756" />
	</node>
	<node id="-58506" lat="62.3319861088" lon="5.97813056396">
		<tag k="name" v="Skjellhola" />
		<tag k="natural" v="shoal" />
		<tag k="place" v="locality" />
		<tag k="ssr:stedsnr" v="35753" />
	</node>
	<node id="-58505" lat="62.3399444406" lon="6.0271750048">
		<tag k="name" v="Liahjellen" />
		<tag k="place" v="locality" />
		<tag k="ssr:stedsnr" v="35746" />
	</node>
	<node id="-58504" lat="62.38307222" lon="5.90925832876">
		<tag k="name" v="Mosvasskråa" />
		<tag k="natural" v="bay" />
		<tag k="ssr:stedsnr" v="35741" />
	</node>
	<node id="-58503" lat="62.3093083359" lon="5.97242221438">
		<tag k="name" v="Holeleite" />
		<tag k="natural" v="slope" />
		<tag k="place" v="locality" />
		<tag k="ssr:stedsnr" v="35730" />
	</node>
	<node id="-58502" lat="62.3278916633" lon="6.03019721293">
		<tag k="name" v="Hjørungdalsmyrane" />
		<tag k="natural" v="wetland" />
		<tag k="ssr:stedsnr" v="35720" />
	</node>
	<node id="-58501" lat="62.3007250013" lon="5.99385555312">
		<tag k="name" v="Bauteneset" />
		<tag k="natural" v="cape" />
		<tag k="ssr:stedsnr" v="35716" />
	</node>
	<node id="-58500" lat="62.3502388875" lon="5.97751667022">
		<tag k="name" v="Storholmen" />
		<tag k="place" v="islet" />
		<tag k="ssr:stedsnr" v="35712" />
	</node>
	<node id="-58499" lat="62.4012944434" lon="6.00879167013">
		<tag k="name" v="Mola" />
		<tag k="natural" v="cape" />
		<tag k="ssr:stedsnr" v="35678" />
	</node>
	<node id="-58498" lat="62.3641750026" lon="6.02828888399">
		<tag k="ford" v="yes" />
		<tag k="name" v="Vadet" />
		<tag k="place" v="locality" />
		<tag k="ssr:stedsnr" v="35677" />
	</node>
	<node id="-58497" lat="62.3229027793" lon="6.03119722242">
		<tag k="name" v="Koldalen" />
		<tag k="natural" v="valley" />
		<tag k="place" v="locality" />
		<tag k="ssr:stedsnr" v="35673" />
	</node>
	<node id="-58496" lat="62.3434333301" lon="6.06444444718">
		<tag k="name" v="Vågselva" />
		<tag k="ssr:stedsnr" v="35669" />
		<tag k="waterway" v="river" />
	</node>
	<node id="-58495" lat="62.3115055543" lon="5.98368054702">
		<tag k="name" v="Osane" />
		<tag k="natural" v="bay" />
		<tag k="ssr:stedsnr" v="35658" />
	</node>
	<node id="-58494" lat="62.3752499429" lon="6.02081240861">
		<tag k="fixme" v="consider place=hamlet" />
		<tag k="name" v="Teigane" />
		<tag k="place" v="farm" />
		<tag k="ssr:stedsnr" v="35650" />
	</node>
	<node id="-58493" lat="62.3515181388" lon="6.064123252">
		<tag k="alt_name" v="Pilskogane" />
		<tag k="fixme" v="consider place=hamlet" />
		<tag k="name" v="Pilskog" />
		<tag k="place" v="farm" />
		<tag k="ssr:stedsnr" v="11857" />
	</node>
	<node id="-58492" lat="62.3396978762" lon="5.99486862446">
		<tag k="fixme" v="consider place=hamlet" />
		<tag k="name" v="Røyset" />
		<tag k="place" v="farm" />
		<tag k="ssr:stedsnr" v="11793" />
	</node>
	<node id="-58491" lat="62.3402671842" lon="6.00110565481">
		<tag k="alt_name" v="Bakken" />
		<tag k="fixme" v="consider place=hamlet" />
		<tag k="name" v="Røysetbakken" />
		<tag k="place" v="farm" />
		<tag k="ssr:stedsnr" v="11792" />
	</node>
	<node id="-58490" lat="62.4416333364" lon="5.95879999281">
		<tag k="alt_name" v="Breidsundet" />
		<tag k="bay" v="fjord" />
		<tag k="name" v="Breisundet" />
		<tag k="natural" v="bay" />
		<tag k="ssr:stedsnr" v="11958" />
	</node>
	<node id="-58489" lat="62.3116222185" lon="5.94712777667">
		<tag k="alt_name" v="Langeheia" />
		<tag k="fixme" v="consider natural=peak for the most distinct mountains in the district" />
		<tag k="name" v="Langheida" />
		<tag k="natural" v="hill" />
		<tag k="place" v="locality" />
		<tag k="ssr:stedsnr" v="11777" />
	</node>
	<node id="-58488" lat="62.2812555572" lon="5.9392888978">
		<tag k="fixme" v="consider natural=peak for the most distinct mountains in the district" />
		<tag k="name" v="Laupen" />
		<tag k="natural" v="hill" />
		<tag k="place" v="locality" />
		<tag k="ssr:stedsnr" v="10187" />
	</node>
	<node id="-58487" lat="62.3556444444" lon="6.08144722683">
		<tag k="name" v="Litlevågen" />
		<tag k="natural" v="bay" />
		<tag k="ssr:stedsnr" v="885769" />
	</node>
	<node id="-58486" lat="62.3523583378" lon="6.02961666591">
		<tag k="fixme" v="consider natural=peak for the most distinct mountains in the district" />
		<tag k="name" v="Litlehornet" />
		<tag k="natural" v="hill" />
		<tag k="place" v="locality" />
		<tag k="ssr:stedsnr" v="885759" />
	</node>
	<node id="-58485" lat="62.3366722183" lon="5.98966944388">
		<tag k="name" v="Storeberget" />
		<tag k="natural" v="hill" />
		<tag k="place" v="locality" />
		<tag k="ssr:stedsnr" v="885669" />
	</node>
	<node id="-58484" lat="62.2838916665" lon="5.95046666337">
		<tag k="name" v="Almestranda" />
		<tag k="natural" v="beach" />
		<tag k="place" v="locality" />
		<tag k="ssr:stedsnr" v="885665" />
	</node>
	<node id="-58483" lat="62.3393138854" lon="6.07998610754">
		<tag k="name" v="Klubben" />
		<tag k="natural" v="cape" />
		<tag k="ssr:stedsnr" v="885617" />
	</node>
	<node id="-58482" lat="62.3348583354" lon="6.00752221732">
		<tag k="fixme" v="consider natural=peak for the most distinct mountains in the district" />
		<tag k="name" v="Nausane" />
		<tag k="natural" v="hill" />
		<tag k="place" v="locality" />
		<tag k="ssr:stedsnr" v="885613" />
	</node>
	<node id="-58481" lat="62.3845666692" lon="5.99123889123">
		<tag k="name" v="Ryggen" />
		<tag k="natural" v="ridge" />
		<tag k="place" v="locality" />
		<tag k="ssr:stedsnr" v="885609" />
	</node>
	<node id="-58480" lat="62.3922861116" lon="5.99642221786">
		<tag k="name" v="Legene" />
		<tag k="place" v="farm" />
		<tag k="ssr:stedsnr" v="885603" />
	</node>
	<node id="-58479" lat="62.4066805528" lon="5.98034999063">
		<tag k="name" v="Sætreelva" />
		<tag k="ssr:stedsnr" v="945760" />
		<tag k="waterway" v="stream" />
	</node>
	<node id="-58478" lat="62.3973972219" lon="6.0046777798">
		<tag k="name" v="Risegarden" />
		<tag k="place" v="farm" />
		<tag k="ssr:stedsnr" v="945757" />
	</node>
	<node id="-58477" lat="62.3682361105" lon="6.03711945258">
		<tag k="man_made" v="quay" />
		<tag k="name" v="Indrekaia" />
		<tag k="place" v="locality" />
		<tag k="ssr:stedsnr" v="945722" />
	</node>
	<node id="-58476" lat="62.332836112" lon="5.99119444349">
		<tag k="name" v="Litlemyrneset" />
		<tag k="natural" v="cape" />
		<tag k="ssr:stedsnr" v="945698" />
	</node>
	<node id="-58475" lat="62.3498805581" lon="5.98856111099">
		<tag k="name" v="Kråkholen" />
		<tag k="place" v="farm" />
		<tag k="ssr:stedsnr" v="945646" />
	</node>
	<node id="-58474" lat="62.3379111098" lon="5.99537499242">
		<tag k="name" v="Gjerdingane" />
		<tag k="place" v="farm" />
		<tag k="ssr:stedsnr" v="945643" />
	</node>
	<node id="-58473" lat="62.326949148" lon="5.92537206602">
		<tag k="historic" v="shieling" />
		<tag k="name" v="Hammarstøylen" />
		<tag k="place" v="locality" />
		<tag k="ssr:stedsnr" v="945638" />
	</node>
	<node id="-58472" lat="62.3764944438" lon="6.01557778042">
		<tag k="name" v="Kvia" />
		<tag k="natural" v="slope" />
		<tag k="place" v="locality" />
		<tag k="ssr:stedsnr" v="945583" />
	</node>
	<node id="-58471" lat="62.3871416692" lon="5.97987221491">
		<tag k="name" v="Fossane" />
		<tag k="natural" v="waterfall" />
		<tag k="ssr:stedsnr" v="945570" />
	</node>
	<node id="-58470" lat="62.3035499982" lon="5.99021944424">
		<tag k="historic" v="shieling" />
		<tag k="name" v="Koppestøylen" />
		<tag k="place" v="locality" />
		<tag k="ssr:stedsnr" v="945565" />
	</node>
	<node id="-58469" lat="62.3946888923" lon="6.00319166572">
		<tag k="name" v="Bakkane" />
		<tag k="place" v="farm" />
		<tag k="ssr:stedsnr" v="861913" />
	</node>
	<node id="-58468" lat="62.3660805526" lon="6.04236943911">
		<tag k="name" v="Elvenes" />
		<tag k="natural" v="cape" />
		<tag k="ssr:stedsnr" v="841876" />
	</node>
	<node id="-58467" lat="62.3342055586" lon="6.06973056083">
		<tag k="name" v="Lågåsen" />
		<tag k="natural" v="cape" />
		<tag k="ssr:stedsnr" v="840808" />
	</node>
	<node id="-58466" lat="62.3331472232" lon="6.04101389565">
		<tag k="name" v="Hjørungdalen" />
		<tag k="natural" v="valley" />
		<tag k="place" v="locality" />
		<tag k="ssr:stedsnr" v="938818" />
	</node>
	<node id="-58465" lat="62.3995277778" lon="6.01047221851">
		<tag k="bridge" v="yes" />
		<tag k="layer" v="1" />
		<tag k="name" v="Brandalsbrua" />
		<tag k="ssr:stedsnr" v="934599" />
	</node>
	<node id="-58464" lat="62.369216666" lon="6.02186111262">
		<tag k="bridge" v="yes" />
		<tag k="layer" v="1" />
		<tag k="name" v="Rimabrua" />
		<tag k="ssr:stedsnr" v="934597" />
	</node>
	<node id="-58463" lat="62.3384277733" lon="5.93813610797">
		<tag k="name" v="Småskogane" />
		<tag k="natural" v="slope" />
		<tag k="place" v="locality" />
		<tag k="ssr:stedsnr" v="824757" />
	</node>
	<node id="-58462" lat="62.3310583352" lon="5.92828889302">
		<tag k="name" v="Blåfjellet" />
		<tag k="place" v="locality" />
		<tag k="ssr:stedsnr" v="824754" />
	</node>
	<node id="-58461" lat="62.3559583306" lon="5.9320138943">
		<tag k="name" v="Lebakkane" />
		<tag k="natural" v="slope" />
		<tag k="place" v="locality" />
		<tag k="ssr:stedsnr" v="824820" />
	</node>
	<node id="-58460" lat="62.384650003" lon="5.97659444371">
		<tag k="name" v="Koppelva" />
		<tag k="ssr:stedsnr" v="824817" />
		<tag k="waterway" v="river" />
	</node>
	<node id="-58459" lat="62.3795083368" lon="6.02573888146">
		<tag k="highway" v="path" />
		<tag k="name" v="Køyrevegen" />
		<tag k="ssr:stedsnr" v="824811" />
	</node>
	<node id="-58458" lat="62.3872472261" lon="6.0300638922">
		<tag k="name" v="Langeneset" />
		<tag k="natural" v="cape" />
		<tag k="ssr:stedsnr" v="824810" />
	</node>
	<node id="-58457" lat="62.3656694416" lon="6.00733333442">
		<tag k="name" v="Grimstadmyrane" />
		<tag k="natural" v="wetland" />
		<tag k="ssr:stedsnr" v="824720" />
	</node>
	<node id="-58456" lat="62.3154638909" lon="5.93918055933">
		<tag k="fixme" v="consider natural=peak for the most distinct mountains in the district" />
		<tag k="name" v="Steinholten" />
		<tag k="natural" v="hill" />
		<tag k="place" v="locality" />
		<tag k="ssr:stedsnr" v="824705" />
	</node>
	<node id="-58455" lat="62.3339717515" lon="6.06642265395">
		<tag k="fixme" v="consider place=hamlet" />
		<tag k="name" v="Åsen" />
		<tag k="place" v="farm" />
		<tag k="ssr:stedsnr" v="800770" />
	</node>
	<node id="-58454" lat="62.4007722237" lon="6.00828332411">
		<tag k="fixme" v="consider place=suburb, village or hamlet" />
		<tag k="name" v="Brandal" />
		<tag k="old_name" v="Branddal" />
		<tag k="place" v="quarter" />
		<tag k="ssr:stedsnr" v="921876" />
	</node>
	<node id="-58453" lat="62.37041389" lon="6.02902221852">
		<tag k="name" v="Hareid" />
		<tag k="place" v="village" />
		<tag k="ssr:stedsnr" v="921868" />
	</node>
	<node id="-58452" lat="62.3822444489" lon="5.98980555794">
		<tag k="alt_name" v="Feliskaret" />
		<tag k="name" v="Feiliskaret" />
		<tag k="natural" v="valley" />
		<tag k="place" v="locality" />
		<tag k="ssr:stedsnr" v="921861" />
	</node>
	<node id="-58451" lat="62.3519050944" lon="5.93850809352">
		<tag k="alt_name" v="Rise, nedre;Rise;Nedre Rise" />
		<tag k="fixme" v="consider place=hamlet" />
		<tag k="name" v="Ned-Rise" />
		<tag k="place" v="farm" />
		<tag k="ssr:stedsnr" v="921832" />
	</node>
	<node id="-58450" lat="62.355944442" lon="5.98200277056">
		<tag k="name" v="Kaldholelva" />
		<tag k="ssr:stedsnr" v="921831" />
		<tag k="waterway" v="stream" />
	</node>
	<node id="-58449" lat="62.3507861134" lon="5.99019443603">
		<tag k="name" v="Kråkholen" />
		<tag k="place" v="farm" />
		<tag k="ssr:stedsnr" v="921823" />
	</node>
	<node id="-58448" lat="62.3218527787" lon="5.9214083248">
		<tag k="alt_name" v="Hammarstøylvatnet" />
		<tag k="name" v="Hammarstøylsvatnet" />
		<tag k="natural" v="water" />
		<tag k="ssr:stedsnr" v="921818" />
		<tag k="water" v="lake" />
	</node>
	<node id="-58447" lat="62.3051722188" lon="5.96808611678">
		<tag k="fixme" v="consider natural=peak for the most distinct mountains in the district" />
		<tag k="name" v="Holenakken" />
		<tag k="natural" v="hill" />
		<tag k="place" v="locality" />
		<tag k="ssr:stedsnr" v="921788" />
	</node>
	<node id="-58446" lat="62.2997388907" lon="5.96685833565">
		<tag k="fixme" v="consider natural=peak for the most distinct mountains in the district" />
		<tag k="name" v="Kvamstua" />
		<tag k="natural" v="hill" />
		<tag k="place" v="locality" />
		<tag k="ssr:stedsnr" v="921154" />
	</node>
	<node id="-58445" lat="62.3002684227" lon="5.98954372923">
		<tag k="alt_name" v="Alme Store;Store Alme" />
		<tag k="fixme" v="consider place=hamlet" />
		<tag k="name" v="Alme" />
		<tag k="place" v="farm" />
		<tag k="ssr:stedsnr" v="921153" />
	</node>
	<node id="-58444" lat="62.3120444487" lon="6.05654443698">
		<tag k="bay" v="fjord" />
		<tag k="name" v="Vartdalsfjorden" />
		<tag k="natural" v="bay" />
		<tag k="ssr:stedsnr" v="920141" />
	</node>
	<node id="-58442" lat="62.3862277764" lon="5.92018055053">
		<tag k="fixme" v="consider natural=peak for the most distinct mountains in the district" />
		<tag k="name" v="Brørene" />
		<tag k="natural" v="hill" />
		<tag k="place" v="locality" />
		<tag k="ssr:stedsnr" v="739878" />
	</node>
	<node id="-58441" lat="62.355602779" lon="6.07408054683">
		<tag k="name" v="Kvernagota" />
		<tag k="place" v="farm" />
		<tag k="ssr:stedsnr" v="739826" />
	</node>
	<node id="-58440" lat="62.4121888935" lon="5.96177223029">
		<tag k="alt_name" v="Skinnalihornet" />
		<tag k="fixme" v="consider natural=peak for the most distinct mountains in the district" />
		<tag k="name" v="Signalhornet" />
		<tag k="natural" v="hill" />
		<tag k="place" v="locality" />
		<tag k="ssr:stedsnr" v="739922" />
	</node>
	<node id="-58439" lat="62.3155406526" lon="5.97441228301">
		<tag k="fixme" v="consider place=hamlet" />
		<tag k="name" v="Snipsøyr" />
		<tag k="place" v="farm" />
		<tag k="ssr:stedsnr" v="739771" />
	</node>
	<node id="-58438" lat="62.3246611486" lon="6.04413151845">
		<tag k="alt_name" v="Engeskaret" />
		<tag k="fixme" v="consider place=hamlet" />
		<tag k="name" v="Engjaskaret" />
		<tag k="place" v="farm" />
		<tag k="ssr:stedsnr" v="739767" />
	</node>
	<node id="-58437" lat="62.3816249965" lon="6.00673055567">
		<tag k="highway" v="path" />
		<tag k="name" v="Håbakkråsa" />
		<tag k="ssr:stedsnr" v="725171" />
	</node>
	<node id="-58436" lat="62.3634305513" lon="6.0617055569">
		<tag k="name" v="Kuggane" />
		<tag k="natural" v="cape" />
		<tag k="ssr:stedsnr" v="703658" />
	</node>
	<node id="-58435" lat="62.3748805548" lon="6.03352222651">
		<tag k="man_made" v="quay" />
		<tag k="name" v="Ytrekaia" />
		<tag k="place" v="locality" />
		<tag k="ssr:stedsnr" v="703654" />
	</node>
	<node id="-58434" lat="62.3959527743" lon="6.00645277557">
		<tag k="name" v="Storelva" />
		<tag k="ssr:stedsnr" v="703652" />
		<tag k="waterway" v="river" />
	</node>
	<node id="-58433" lat="62.3436527795" lon="5.98276667396">
		<tag k="name" v="Skallane" />
		<tag k="natural" v="shoal" />
		<tag k="place" v="locality" />
		<tag k="ssr:stedsnr" v="703649" />
	</node>
	<node id="-58432" lat="62.3231277765" lon="5.93739167337">
		<tag k="name" v="Demninga" />
		<tag k="ssr:stedsnr" v="703642" />
		<tag k="waterway" v="dam" />
	</node>
	<node id="-58431" lat="62.3128972199" lon="5.97860555958">
		<tag k="name" v="Vassvika" />
		<tag k="natural" v="bay" />
		<tag k="ssr:stedsnr" v="703634" />
	</node>
	<node id="-58430" lat="62.3587194442" lon="5.95919999152">
		<tag k="name" v="Bigsetbakkane" />
		<tag k="natural" v="slope" />
		<tag k="place" v="locality" />
		<tag k="ssr:stedsnr" v="885789" />
	</node>
	<node id="-58429" lat="62.3588611143" lon="5.93218888165">
		<tag k="name" v="Dikebakken" />
		<tag k="natural" v="slope" />
		<tag k="place" v="locality" />
		<tag k="ssr:stedsnr" v="885788" />
	</node>
	<node id="-58428" lat="62.3337222221" lon="5.97515000848">
		<tag k="name" v="Høgholneset" />
		<tag k="natural" v="cape" />
		<tag k="ssr:stedsnr" v="885726" />
	</node>
	<node id="-58427" lat="62.3211388848" lon="6.03963612088">
		<tag k="name" v="Kattmannvika" />
		<tag k="natural" v="bay" />
		<tag k="ssr:stedsnr" v="885687" />
	</node>
	<node id="-58426" lat="62.3113749992" lon="5.99680832657">
		<tag k="name" v="Tuhjellen" />
		<tag k="place" v="locality" />
		<tag k="ssr:stedsnr" v="885684" />
	</node>
	<node id="-58425" lat="62.3255361069" lon="5.9953277703">
		<tag k="name" v="Rekedalen" />
		<tag k="natural" v="slope" />
		<tag k="place" v="locality" />
		<tag k="ssr:stedsnr" v="885680" />
	</node>
	<node id="-58424" lat="62.3342611146" lon="5.9511333342">
		<tag k="name" v="Morkaskogane" />
		<tag k="natural" v="slope" />
		<tag k="place" v="locality" />
		<tag k="ssr:stedsnr" v="885724" />
	</node>
	<node id="-58423" lat="62.3446733883" lon="6.05243582592">
		<tag k="alt_name" v="Nedrelid;Nedre Li" />
		<tag k="fixme" v="consider place=hamlet" />
		<tag k="name" v="Nerli" />
		<tag k="place" v="farm" />
		<tag k="ssr:stedsnr" v="678821" />
	</node>
	<node id="-58422" lat="62.351135247" lon="6.10696122773">
		<tag k="fixme" v="consider place=hamlet" />
		<tag k="name" v="Hjørungneset" />
		<tag k="place" v="farm" />
		<tag k="ssr:stedsnr" v="678814" />
	</node>
	<node id="-58421" lat="62.3757666706" lon="5.93124444708">
		<tag k="name" v="Mossvasseidet" />
		<tag k="natural" v="strait" />
		<tag k="ssr:stedsnr" v="665053" />
	</node>
	<node id="-58420" lat="62.3336749988" lon="5.93295556088">
		<tag k="name" v="Søre Bjørnaskaret" />
		<tag k="natural" v="valley" />
		<tag k="place" v="locality" />
		<tag k="ssr:stedsnr" v="641711" />
	</node>
	<node id="-58419" lat="62.3440694404" lon="5.94658056376">
		<tag k="name" v="Lia" />
		<tag k="natural" v="slope" />
		<tag k="place" v="locality" />
		<tag k="ssr:stedsnr" v="641707" />
	</node>
	<node id="-58418" lat="62.3219849479" lon="5.97594953504">
		<tag k="fixme" v="consider place=hamlet" />
		<tag k="name" v="Nesset" />
		<tag k="place" v="farm" />
		<tag k="ssr:stedsnr" v="617777" />
	</node>
	<node id="-58417" lat="62.2881499983" lon="5.9377388918">
		<tag k="fixme" v="multiple name tags, choose one and add the other to alt_name; consider natural=peak for the most distinct mountains in the district" />
		<tag k="name" v="Kongsvollen;Løsethorn" />
		<tag k="natural" v="hill" />
		<tag k="place" v="locality" />
		<tag k="ssr:stedsnr" v="617168" />
	</node>
	<node id="-58416" lat="62.4146444478" lon="6.00460554985">
		<tag k="name" v="Ensomheten" />
		<tag k="natural" v="cape" />
		<tag k="ssr:stedsnr" v="719893" />
	</node>
	<node id="-58415" lat="62.3618611129" lon="5.94546389348">
		<tag k="highway" v="path" />
		<tag k="name" v="Bigsetråsa" />
		<tag k="ssr:stedsnr" v="581827" />
	</node>
	<node id="-58414" lat="62.3928277802" lon="6.02011945361">
		<tag k="name" v="Litleneset" />
		<tag k="natural" v="cape" />
		<tag k="ssr:stedsnr" v="581815" />
	</node>
	<node id="-58413" lat="62.4066777778" lon="5.99526110572">
		<tag k="fixme" v="consider natural=peak for the most distinct mountains in the district" />
		<tag k="name" v="Saudebønakken" />
		<tag k="natural" v="hill" />
		<tag k="place" v="locality" />
		<tag k="ssr:stedsnr" v="581805" />
	</node>
	<node id="-58412" lat="62.3851277753" lon="6.03205555218">
		<tag k="fixme" v="consider seamark:type=rock or natural=shoal" />
		<tag k="name" v="Islendingen" />
		<tag k="place" v="islet" />
		<tag k="ssr:stedsnr" v="703813" />
	</node>
	<node id="-58411" lat="62.4162444468" lon="6.00320833191">
		<tag k="name" v="Englandsvika" />
		<tag k="natural" v="bay" />
		<tag k="ssr:stedsnr" v="703809" />
	</node>
	<node id="-58410" lat="62.3581166688" lon="6.08091389287">
		<tag k="name" v="Skarveneset" />
		<tag k="natural" v="cape" />
		<tag k="ssr:stedsnr" v="703798" />
	</node>
	<node id="-58409" lat="62.3606444432" lon="6.07005832811">
		<tag k="name" v="Slettebakken" />
		<tag k="place" v="farm" />
		<tag k="ssr:stedsnr" v="703793" />
	</node>
	<node id="-58408" lat="62.3462777819" lon="6.07133332744">
		<tag k="name" v="Vågslegene" />
		<tag k="natural" v="hill" />
		<tag k="place" v="locality" />
		<tag k="ssr:stedsnr" v="703751" />
	</node>
	<node id="-58407" lat="62.3231999976" lon="5.9794611044">
		<tag k="name" v="Naustneset" />
		<tag k="natural" v="cape" />
		<tag k="ssr:stedsnr" v="703729" />
	</node>
	<node id="-58406" lat="62.3176416695" lon="6.03478610164">
		<tag k="name" v="Haugeneset" />
		<tag k="natural" v="cape" />
		<tag k="ssr:stedsnr" v="703719" />
	</node>
	<node id="-58405" lat="62.3033194412" lon="5.95761389068">
		<tag k="name" v="Skjervene" />
		<tag k="natural" v="hill" />
		<tag k="place" v="locality" />
		<tag k="ssr:stedsnr" v="703712" />
	</node>
	<node id="-58404" lat="62.3027027788" lon="5.99792777659">
		<tag k="name" v="Gjerdeneset" />
		<tag k="natural" v="cape" />
		<tag k="ssr:stedsnr" v="703710" />
	</node>
	<node id="-58403" lat="62.3054388887" lon="5.99436666228">
		<tag k="name" v="Grøtnakken" />
		<tag k="natural" v="ridge" />
		<tag k="place" v="locality" />
		<tag k="ssr:stedsnr" v="703706" />
	</node>
	<node id="-58402" lat="62.3456194468" lon="5.96016666494">
		<tag k="historic" v="shieling" />
		<tag k="name" v="Sætra" />
		<tag k="place" v="locality" />
		<tag k="ssr:stedsnr" v="703693" />
	</node>
	<node id="-58401" lat="62.3515833297" lon="5.9230277779">
		<tag k="name" v="Gjerdet" />
		<tag k="place" v="farm" />
		<tag k="ssr:stedsnr" v="703688" />
	</node>
	<node id="-58400" lat="62.3568749996" lon="6.07101666714">
		<tag k="name" v="Røra" />
		<tag k="natural" v="ridge" />
		<tag k="place" v="locality" />
		<tag k="ssr:stedsnr" v="703665" />
	</node>
	<node id="-58399" lat="62.4183222229" lon="5.9559972162">
		<tag k="fixme" v="consider natural=peak for the most distinct mountains in the district" />
		<tag k="name" v="Skolma" />
		<tag k="natural" v="hill" />
		<tag k="place" v="locality" />
		<tag k="ssr:stedsnr" v="556912" />
	</node>
	<node id="-58398" lat="62.3768337428" lon="6.0238971255">
		<tag k="alt_name" v="Hovlid;Hovli;Hoveledet" />
		<tag k="fixme" v="consider place=hamlet" />
		<tag k="name" v="Hovled" />
		<tag k="place" v="farm" />
		<tag k="ssr:stedsnr" v="556869" />
	</node>
	<node id="-58397" lat="62.376749999" lon="5.95936388234">
		<tag k="name" v="Koppevatnet" />
		<tag k="natural" v="water" />
		<tag k="ssr:stedsnr" v="556863" />
	</node>
	<node id="-58396" lat="62.376747222" lon="5.95512778471">
		<tag k="historic" v="shieling" />
		<tag k="name" v="Grimstadsætra" />
		<tag k="place" v="locality" />
		<tag k="ssr:stedsnr" v="556861" />
	</node>
	<node id="-58395" lat="62.4047361114" lon="5.95873888537">
		<tag k="name" v="Rypedalen" />
		<tag k="natural" v="valley" />
		<tag k="place" v="locality" />
		<tag k="ssr:stedsnr" v="540161" />
	</node>
	<node id="-58394" lat="62.3475611142" lon="6.0987527728">
		<tag k="alt_name" v="Hjørungneshornet" />
		<tag k="fixme" v="consider natural=peak for the most distinct mountains in the district" />
		<tag k="name" v="Hornet" />
		<tag k="natural" v="hill" />
		<tag k="place" v="locality" />
		<tag k="ssr:stedsnr" v="687340" />
	</node>
	<node id="-58393" lat="62.3623027812" lon="5.99807222356">
		<tag k="name" v="Grimstadvatnet" />
		<tag k="natural" v="water" />
		<tag k="ssr:stedsnr" v="496852" />
	</node>
	<node id="-58392" lat="62.4162194474" lon="5.97773332813">
		<tag k="name" v="Grøthornvatnet" />
		<tag k="natural" v="water" />
		<tag k="ssr:stedsnr" v="678902" />
	</node>
	<node id="-58391" lat="62.4244416703" lon="5.9634555502">
		<tag k="name" v="Attavika" />
		<tag k="natural" v="bay" />
		<tag k="ssr:stedsnr" v="678900" />
	</node>
	<node id="-58390" lat="62.4214888846" lon="6.00046944016">
		<tag k="name" v="Kvitneset" />
		<tag k="natural" v="cape" />
		<tag k="ssr:stedsnr" v="678898" />
	</node>
	<node id="-58389" lat="62.3670392733" lon="5.99478549507">
		<tag k="fixme" v="consider place=hamlet" />
		<tag k="name" v="Grimstad" />
		<tag k="place" v="farm" />
		<tag k="ssr:stedsnr" v="678849" />
	</node>
	<node id="-58388" lat="62.2595111133" lon="5.87292777436">
		<tag k="name" v="Hareidlandet" />
		<tag k="place" v="island" />
		<tag k="ssr:stedsnr" v="678847" />
	</node>
	<node id="-58387" lat="62.3779728752" lon="6.02761513464">
		<tag k="alt_name" v="Håbakk" />
		<tag k="fixme" v="consider place=hamlet" />
		<tag k="name" v="Håbakkane" />
		<tag k="place" v="farm" />
		<tag k="ssr:stedsnr" v="678841" />
	</node>
	<node id="-58386" lat="62.3787333371" lon="5.98523332665">
		<tag k="alt_name" v="Holstadhorn" />
		<tag k="fixme" v="consider natural=peak for the most distinct mountains in the district" />
		<tag k="name" v="Holstadhornet" />
		<tag k="natural" v="hill" />
		<tag k="ssr:stedsnr" v="678840" />
	</node>
	<node id="-58385" lat="62.3792083358" lon="5.91676110325">
		<tag k="name" v="Mosvatnet" />
		<tag k="natural" v="water" />
		<tag k="ssr:stedsnr" v="678838" />
		<tag k="water" v="lake" />
	</node>
	<node id="-58384" lat="62.3399671675" lon="5.96538588928">
		<tag k="alt_name" v="Morka" />
		<tag k="name" v="Mork" />
		<tag k="place" v="hamlet" />
		<tag k="ssr:stedsnr" v="678780" />
	</node>
	<node id="-58383" lat="62.3823472262" lon="6.03424443997">
		<tag k="name" v="Hesteberget" />
		<tag k="natural" v="cape" />
		<tag k="ssr:stedsnr" v="476863" />
	</node>
	<node id="-58382" lat="62.2959861108" lon="5.95914999611">
		<tag k="fixme" v="consider natural=peak for the most distinct mountains in the district" />
		<tag k="name" v="Høgenausa" />
		<tag k="natural" v="hill" />
		<tag k="place" v="locality" />
		<tag k="ssr:stedsnr" v="436131" />
	</node>
	<node id="-58381" lat="62.353142626" lon="5.9274327968">
		<tag k="fixme" v="consider place=hamlet" />
		<tag k="name" v="Nevstad" />
		<tag k="place" v="farm" />
		<tag k="ssr:stedsnr" v="435847" />
	</node>
	<node id="-58380" lat="62.3522527792" lon="5.93841666344">
		<tag k="name" v="Ned-Rise" />
		<tag k="place" v="farm" />
		<tag k="ssr:stedsnr" v="421818" />
	</node>
	<node id="-58379" lat="62.3523722191" lon="6.10876667191">
		<tag k="name" v="Hjørungneset" />
		<tag k="natural" v="cape" />
		<tag k="ssr:stedsnr" v="513234" />
	</node>
	<node id="-58378" lat="62.3512333368" lon="6.11075000121">
		<tag k="name" v="Hjørungneset" />
		<tag k="natural" v="cape" />
		<tag k="ssr:stedsnr" v="513231" />
	</node>
	<node id="-58377" lat="62.4188361137" lon="5.97250832508">
		<tag k="name" v="Skolmedalen" />
		<tag k="natural" v="valley" />
		<tag k="place" v="locality" />
		<tag k="ssr:stedsnr" v="384359" />
	</node>
	<node id="-58376" lat="62.3369508506" lon="6.03263274421">
		<tag k="alt_name" v="Øvreli;Øvre Lid" />
		<tag k="fixme" v="consider place=hamlet" />
		<tag k="name" v="Øverli" />
		<tag k="place" v="farm" />
		<tag k="ssr:stedsnr" v="375770" />
	</node>
	<node id="-58375" lat="62.3640722208" lon="5.9167694382">
		<tag k="historic" v="shieling" />
		<tag k="name" v="Risesætra" />
		<tag k="place" v="locality" />
		<tag k="ssr:stedsnr" v="496850" />
	</node>
	<node id="-58373" lat="62.3166472221" lon="5.93628610201">
		<tag k="fixme" v="consider natural=peak for the most distinct mountains in the district" />
		<tag k="name" v="Løkeberget" />
		<tag k="natural" v="hill" />
		<tag k="place" v="locality" />
		<tag k="ssr:stedsnr" v="496767" />
	</node>
	<node id="-58372" lat="62.3933583336" lon="6.0051833357">
		<tag k="name" v="Skarbakken" />
		<tag k="place" v="locality" />
		<tag k="ssr:stedsnr" v="496880" />
	</node>
	<node id="-58371" lat="62.3046916634" lon="6.00254723134">
		<tag k="name" v="Kåvika" />
		<tag k="place" v="farm" />
		<tag k="ssr:stedsnr" v="496145" />
	</node>
	<node id="-58370" lat="62.4081694457" lon="6.00509723096">
		<tag k="name" v="Liset" />
		<tag k="place" v="isolated_dwelling" />
		<tag k="ssr:stedsnr" v="354914" />
	</node>
	<node id="-58369" lat="62.3407027754" lon="5.91386388209">
		<tag k="name" v="Eidet" />
		<tag k="place" v="locality" />
		<tag k="ssr:stedsnr" v="484245" />
	</node>
	<node id="-58368" lat="62.3743805533" lon="5.98220833684">
		<tag k="highway" v="path" />
		<tag k="name" v="Holstadråsa" />
		<tag k="ssr:stedsnr" v="338786" />
	</node>
	<node id="-58367" lat="62.3927694443" lon="6.01063056475">
		<tag k="fixme" v="consider natural=peak for the most distinct mountains in the district" />
		<tag k="name" v="Skarebakknakken" />
		<tag k="natural" v="hill" />
		<tag k="place" v="locality" />
		<tag k="ssr:stedsnr" v="338779" />
	</node>
	<node id="-58366" lat="62.4148999993" lon="5.95576388111">
		<tag k="name" v="Skinnalidalen" />
		<tag k="natural" v="valley" />
		<tag k="place" v="locality" />
		<tag k="ssr:stedsnr" v="338775" />
	</node>
	<node id="-58365" lat="62.4102250017" lon="5.99719445261">
		<tag k="name" v="Furenakken" />
		<tag k="natural" v="ridge" />
		<tag k="place" v="locality" />
		<tag k="ssr:stedsnr" v="338771" />
	</node>
	<node id="-58364" lat="62.3599277804" lon="6.07533054654">
		<tag k="name" v="Ovrasanden" />
		<tag k="natural" v="beach" />
		<tag k="place" v="locality" />
		<tag k="ssr:stedsnr" v="338764" />
	</node>
	<node id="-58363" lat="62.4177972193" lon="6.00262499652">
		<tag k="name" v="Englandsvika" />
		<tag k="natural" v="bay" />
		<tag k="ssr:stedsnr" v="338759" />
	</node>
	<node id="-58362" lat="62.354355555" lon="6.00463054613">
		<tag k="name" v="Furebakkane" />
		<tag k="natural" v="slope" />
		<tag k="place" v="locality" />
		<tag k="ssr:stedsnr" v="338752" />
	</node>
	<node id="-58361" lat="62.3805722238" lon="6.12816110182">
		<tag k="bay" v="fjord" />
		<tag k="name" v="Sulafjorden" />
		<tag k="natural" v="bay" />
		<tag k="ssr:stedsnr" v="314906" />
	</node>
	<node id="-58360" lat="62.348550004" lon="6.06928056351">
		<tag k="fixme" v="multiple name tags, choose one and add the other to alt_name" />
		<tag k="name" v="Hjørungavågen;Liavågen" />
		<tag k="natural" v="bay" />
		<tag k="ssr:stedsnr" v="314828" />
	</node>
	<node id="-58359" lat="62.3295694463" lon="6.03500832537">
		<tag k="name" v="Myrdal" />
		<tag k="place" v="farm" />
		<tag k="ssr:stedsnr" v="314806" />
	</node>
	<node id="-58358" lat="62.3724277778" lon="5.96796110953">
		<tag k="name" v="Mybærholane" />
		<tag k="natural" v="slope" />
		<tag k="place" v="locality" />
		<tag k="ssr:stedsnr" v="460841" />
	</node>
	<node id="-58357" lat="62.3816722243" lon="5.95988055787">
		<tag k="name" v="Grimstadvatnet" />
		<tag k="natural" v="water" />
		<tag k="ssr:stedsnr" v="460838" />
		<tag k="water" v="lake" />
	</node>
	<node id="-58356" lat="62.404288891" lon="5.94494444667">
		<tag k="name" v="Rjupedalen" />
		<tag k="natural" v="valley" />
		<tag k="place" v="locality" />
		<tag k="ssr:stedsnr" v="460827" />
	</node>
	<node id="-58355" lat="62.4031777757" lon="5.99376110239">
		<tag k="name" v="Ytredalselva" />
		<tag k="ssr:stedsnr" v="460825" />
		<tag k="waterway" v="stream" />
	</node>
	<node id="-58354" lat="62.3637305553" lon="6.00760833248">
		<tag k="name" v="Raudesanden" />
		<tag k="natural" v="beach" />
		<tag k="ssr:stedsnr" v="460797" />
	</node>
	<node id="-58353" lat="62.351330556" lon="6.04804721712">
		<tag k="name" v="Grøthornura" />
		<tag k="natural" v="scree" />
		<tag k="ssr:stedsnr" v="460771" />
	</node>
	<node id="-58352" lat="62.3405138915" lon="5.97146944812">
		<tag k="name" v="Badarvika" />
		<tag k="natural" v="bay" />
		<tag k="ssr:stedsnr" v="460769" />
	</node>
	<node id="-58351" lat="62.3382194403" lon="5.97336945045">
		<tag k="name" v="Storeneset" />
		<tag k="natural" v="cape" />
		<tag k="ssr:stedsnr" v="460768" />
	</node>
	<node id="-58350" lat="62.3419972179" lon="6.0692277841">
		<tag k="name" v="Elvaneset" />
		<tag k="natural" v="cape" />
		<tag k="ssr:stedsnr" v="460751" />
	</node>
	<node id="-58349" lat="62.359847224" lon="5.9134972276">
		<tag k="name" v="Legene" />
		<tag k="natural" v="slope" />
		<tag k="place" v="locality" />
		<tag k="ssr:stedsnr" v="460749" />
	</node>
	<node id="-58348" lat="62.3742222193" lon="5.92094445261">
		<tag k="name" v="Vardestranda" />
		<tag k="natural" v="beach" />
		<tag k="ssr:stedsnr" v="460747" />
	</node>
	<node id="-58347" lat="62.3250861109" lon="5.99934721981">
		<tag k="name" v="Einerinden" />
		<tag k="natural" v="ridge" />
		<tag k="place" v="locality" />
		<tag k="ssr:stedsnr" v="460739" />
	</node>
	<node id="-58346" lat="62.309316668" lon="5.97933054925">
		<tag k="name" v="Holeelva" />
		<tag k="ssr:stedsnr" v="460735" />
		<tag k="waterway" v="stream" />
	</node>
	<node id="-58345" lat="62.293047218" lon="5.95867223121">
		<tag k="name" v="Langhammargjelet" />
		<tag k="natural" v="gorge" />
		<tag k="ssr:stedsnr" v="460711" />
	</node>
	<node id="-58344" lat="62.3402055596" lon="6.04020556297">
		<tag k="name" v="Bakken" />
		<tag k="place" v="farm" />
		<tag k="ssr:stedsnr" v="460664" />
	</node>
	<node id="-58343" lat="62.3102083344" lon="5.9976611122">
		<tag k="fixme" v="consider natural=peak for the most distinct mountains in the district" />
		<tag k="name" v="Litletua" />
		<tag k="natural" v="hill" />
		<tag k="place" v="locality" />
		<tag k="ssr:stedsnr" v="460657" />
	</node>
	<node id="-58342" lat="62.3524916635" lon="5.96793889517">
		<tag k="name" v="Hovden" />
		<tag k="natural" v="wetland" />
		<tag k="ssr:stedsnr" v="460652" />
	</node>
	<node id="-58341" lat="62.3294027806" lon="5.97087500499">
		<tag k="bridge" v="yes" />
		<tag k="layer" v="1" />
		<tag k="name" v="Nessetbrua" />
		<tag k="ssr:stedsnr" v="448679" />
	</node>
	<node id="-58340" lat="62.3378942633" lon="6.03496214415">
		<tag k="alt_name" v="Øvreli;Øvrelid" />
		<tag k="name" v="Øverli" />
		<tag k="place" v="farm" />
		<tag k="ssr:stedsnr" v="242364" />
	</node>
	<node id="-58339" lat="62.3679083347" lon="6.01480277457">
		<tag k="name" v="Brekkene" />
		<tag k="place" v="locality" />
		<tag k="ssr:stedsnr" v="233879" />
	</node>
	<node id="-58338" lat="62.3463277785" lon="5.9625694537">
		<tag k="name" v="Bliket" />
		<tag k="place" v="locality" />
		<tag k="ssr:stedsnr" v="217622" />
	</node>
	<node id="-58337" lat="62.3427027752" lon="6.07725833213">
		<tag k="name" v="Æda" />
		<tag k="natural" v="wetland" />
		<tag k="ssr:stedsnr" v="217620" />
	</node>
	<node id="-58336" lat="62.3278222244" lon="5.97583888671">
		<tag k="name" v="Æda" />
		<tag k="natural" v="beach" />
		<tag k="ssr:stedsnr" v="217618" />
	</node>
	<node id="-58335" lat="62.3635027818" lon="6.05114999416">
		<tag k="name" v="Hovleitet" />
		<tag k="place" v="farm" />
		<tag k="ssr:stedsnr" v="217610" />
	</node>
	<node id="-58334" lat="62.3963722211" lon="6.00100833209">
		<tag k="name" v="Plassen" />
		<tag k="place" v="farm" />
		<tag k="ssr:stedsnr" v="217607" />
	</node>
	<node id="-58333" lat="62.3349722256" lon="6.02025277273">
		<tag k="highway" v="path" />
		<tag k="name" v="Skoravegen" />
		<tag k="ssr:stedsnr" v="217712" />
	</node>
	<node id="-58332" lat="62.3572750004" lon="5.90523056514">
		<tag k="fixme" v="consider natural=peak for the most distinct mountains in the district" />
		<tag k="name" v="Nevstadnipa" />
		<tag k="natural" v="hill" />
		<tag k="place" v="locality" />
		<tag k="ssr:stedsnr" v="217704" />
	</node>
	<node id="-58331" lat="62.4003472215" lon="6.00690555356">
		<tag k="name" v="Ytrenes" />
		<tag k="place" v="isolated_dwelling" />
		<tag k="ssr:stedsnr" v="294915" />
	</node>
	<node id="-58330" lat="62.3494000037" lon="6.07499444889">
		<tag k="building" v="industrial" />
		<tag k="name" v="Vågsholmen" />
		<tag k="ssr:stedsnr" v="294800" />
	</node>
	<node id="-58329" lat="62.339686111" lon="6.07916666661">
		<tag k="name" v="Korshamn" />
		<tag k="place" v="locality" />
		<tag k="ssr:stedsnr" v="294796" />
	</node>
	<node id="-58328" lat="62.3229499972" lon="6.04338888985">
		<tag k="name" v="Engeskarvika" />
		<tag k="natural" v="bay" />
		<tag k="ssr:stedsnr" v="294794" />
	</node>
	<node id="-58327" lat="62.2808583336" lon="5.95011110837">
		<tag k="name" v="Laupsvika" />
		<tag k="natural" v="bay" />
		<tag k="ssr:stedsnr" v="294214" />
	</node>
	<node id="-58326" lat="62.3445180946" lon="6.06438683798">
		<tag k="fixme" v="consider place=hamlet" />
		<tag k="name" v="Liavåg" />
		<tag k="place" v="farm" />
		<tag k="ssr:stedsnr" v="193846" />
	</node>
	<node id="-58325" lat="62.3527361077" lon="6.0717527718">
		<tag k="name" v="Hjørungavåg" />
		<tag k="place" v="village" />
		<tag k="ssr:stedsnr" v="193815" />
	</node>
	<node id="-58324" lat="62.3670999962" lon="5.94216665852">
		<tag k="name" v="Dalsmunnbakkane" />
		<tag k="natural" v="slope" />
		<tag k="place" v="locality" />
		<tag k="ssr:stedsnr" v="278824" />
	</node>
	<node id="-58323" lat="62.3886611133" lon="5.96715278217">
		<tag k="name" v="Bondebakkane" />
		<tag k="natural" v="slope" />
		<tag k="place" v="locality" />
		<tag k="ssr:stedsnr" v="278816" />
	</node>
	<node id="-58322" lat="62.395486115" lon="6.00417499934">
		<tag k="name" v="Indredalen" />
		<tag k="natural" v="valley" />
		<tag k="place" v="locality" />
		<tag k="ssr:stedsnr" v="278815" />
	</node>
	<node id="-58321" lat="62.3609972248" lon="6.0055972241">
		<tag k="name" v="Kvitholane" />
		<tag k="place" v="locality" />
		<tag k="ssr:stedsnr" v="278798" />
	</node>
	<node id="-58320" lat="62.3625444417" lon="6.0673916592">
		<tag k="name" v="Langetonga" />
		<tag k="natural" v="cape" />
		<tag k="ssr:stedsnr" v="278795" />
	</node>
	<node id="-58319" lat="62.3410944405" lon="5.9901138799">
		<tag k="name" v="Gjerdet" />
		<tag k="place" v="farm" />
		<tag k="ssr:stedsnr" v="278761" />
	</node>
	<node id="-58318" lat="62.3821055515" lon="6.03541110577">
		<tag k="name" v="Sveneset" />
		<tag k="natural" v="cape" />
		<tag k="ssr:stedsnr" v="278742" />
	</node>
	<node id="-58317" lat="62.3458500018" lon="6.10680276834">
		<tag k="name" v="Nørdre Neset" />
		<tag k="natural" v="cape" />
		<tag k="ssr:stedsnr" v="278738" />
	</node>
	<node id="-58316" lat="62.3486444435" lon="5.97728610778">
		<tag k="name" v="Litleholmen" />
		<tag k="place" v="islet" />
		<tag k="ssr:stedsnr" v="278708" />
	</node>
	<node id="-58315" lat="62.34831111" lon="5.97997777231">
		<tag k="name" v="Langeneset" />
		<tag k="natural" v="cape" />
		<tag k="ssr:stedsnr" v="278705" />
	</node>
	<node id="-58314" lat="62.3408444482" lon="5.99396388559">
		<tag k="name" v="Bakken" />
		<tag k="place" v="farm" />
		<tag k="ssr:stedsnr" v="278698" />
	</node>
	<node id="-58313" lat="62.3012027815" lon="5.98047222939">
		<tag k="name" v="Haugen" />
		<tag k="natural" v="hill" />
		<tag k="place" v="locality" />
		<tag k="ssr:stedsnr" v="278665" />
	</node>
	<node id="-58312" lat="62.3164805542" lon="6.03249723097">
		<tag k="name" v="Leirvika" />
		<tag k="natural" v="bay" />
		<tag k="ssr:stedsnr" v="278664" />
	</node>
	<node id="-58311" lat="62.3984111922" lon="6.00747046096">
		<tag k="fixme" v="consider place=hamlet" />
		<tag k="name" v="Brandal" />
		<tag k="place" v="farm" />
		<tag k="ssr:stedsnr" v="270798" />
	</node>
	<node id="-58310" lat="62.3483000026" lon="6.02450278449">
		<tag k="fixme" v="consider natural=peak for the most distinct mountains in the district" />
		<tag k="name" v="Melshornet" />
		<tag k="natural" v="hill" />
		<tag k="place" v="locality" />
		<tag k="ssr:stedsnr" v="132838" />
	</node>
	<node id="-58309" lat="62.3807888902" lon="5.97892222943">
		<tag k="historic" v="shieling" />
		<tag k="name" v="Håbakkselet" />
		<tag k="place" v="locality" />
		<tag k="ssr:stedsnr" v="131902" />
	</node>
	<node id="-58308" lat="62.365630559" lon="6.03982778179">
		<tag k="bridge" v="yes" />
		<tag k="layer" v="1" />
		<tag k="name" v="Mylnebrua" />
		<tag k="ssr:stedsnr" v="266633" />
	</node>
	<node id="-58307" lat="62.3377138903" lon="5.96606111712">
		<tag k="name" v="Indre Mork" />
		<tag k="place" v="farm" />
		<tag k="ssr:stedsnr" v="118905" />
	</node>
	<node id="-58306" lat="62.3870500039" lon="6.01975832529">
		<tag k="name" v="Blåsvædet" />
		<tag k="place" v="locality" />
		<tag k="ssr:stedsnr" v="96806" />
	</node>
	<node id="-58305" lat="62.3483194404" lon="5.99912776946">
		<tag k="name" v="Krokelva" />
		<tag k="ssr:stedsnr" v="96625" />
		<tag k="waterway" v="stream" />
	</node>
	<node id="-58304" lat="62.3524972237" lon="6.03484999333">
		<tag k="name" v="Melshornlægdene" />
		<tag k="natural" v="slope" />
		<tag k="place" v="locality" />
		<tag k="ssr:stedsnr" v="96773" />
	</node>
	<node id="-58303" lat="62.3576000021" lon="6.04724722124">
		<tag k="name" v="Stordalen" />
		<tag k="natural" v="valley" />
		<tag k="place" v="locality" />
		<tag k="ssr:stedsnr" v="96771" />
	</node>
	<node id="-58302" lat="62.3650055586" lon="6.0150027785">
		<tag k="name" v="Hareidsmyrane" />
		<tag k="natural" v="wetland" />
		<tag k="ssr:stedsnr" v="96761" />
	</node>
	<node id="-58301" lat="62.3302444446" lon="6.06084445059">
		<tag k="name" v="Gamleåsen" />
		<tag k="place" v="farm" />
		<tag k="ssr:stedsnr" v="254789" />
	</node>
	<node id="-58300" lat="62.3179298114" lon="6.03268610432">
		<tag k="fixme" v="consider place=hamlet" />
		<tag k="name" v="Haugen" />
		<tag k="place" v="farm" />
		<tag k="ssr:stedsnr" v="254730" />
	</node>
	<node id="-58299" lat="62.3585972223" lon="5.90487777681">
		<tag k="alt_name" v="Kattatjerna" />
		<tag k="name" v="Kattatjørna" />
		<tag k="natural" v="water" />
		<tag k="ssr:stedsnr" v="253881" />
	</node>
	<node id="-58298" lat="62.3542555579" lon="5.97148055262">
		<tag k="bridge" v="yes" />
		<tag k="layer" v="1" />
		<tag k="name" v="Hovdebrua" />
		<tag k="ssr:stedsnr" v="84658" />
	</node>
	<node id="-58297" lat="62.3742583317" lon="6.02434722161">
		<tag k="highway" v="path" />
		<tag k="name" v="Teigeråsa" />
		<tag k="ssr:stedsnr" v="240051" />
	</node>
	<node id="-58296" lat="62.3999277807" lon="5.94521665715">
		<tag k="name" v="Sneldelia" />
		<tag k="natural" v="slope" />
		<tag k="place" v="locality" />
		<tag k="ssr:stedsnr" v="55151" />
	</node>
	<node id="-58295" lat="62.4028805542" lon="5.99937222983">
		<tag k="alt_name" v="Haugen" />
		<tag k="name" v="Øvrebø" />
		<tag k="place" v="farm" />
		<tag k="ssr:stedsnr" v="11931" />
	</node>
	<node id="-58294" lat="62.415625002" lon="5.98265556469">
		<tag k="fixme" v="consider natural=peak for the most distinct mountains in the district" />
		<tag k="name" v="Grøthornet" />
		<tag k="natural" v="hill" />
		<tag k="place" v="locality" />
		<tag k="ssr:stedsnr" v="11927" />
	</node>
	<node id="-58293" lat="62.4210805585" lon="5.99431389319">
		<tag k="name" v="Krokvika" />
		<tag k="natural" v="bay" />
		<tag k="ssr:stedsnr" v="11907" />
	</node>
	<node id="-58292" lat="62.3543105656" lon="5.98638744037">
		<tag k="alt_name" v="Kaldholen" />
		<tag k="fixme" v="consider place=hamlet" />
		<tag k="name" v="Kaldhol" />
		<tag k="place" v="farm" />
		<tag k="ssr:stedsnr" v="11842" />
	</node>
	<node id="-58291" lat="62.3548555598" lon="6.0721638949">
		<tag k="alt_name" v="Engane" />
		<tag k="name" v="Engene" />
		<tag k="place" v="farm" />
		<tag k="ssr:stedsnr" v="11829" />
	</node>
	<node id="-58290" lat="62.3586479672" lon="6.07406586934">
		<tag k="fixme" v="consider place=hamlet" />
		<tag k="name" v="Ovra" />
		<tag k="place" v="farm" />
		<tag k="ssr:stedsnr" v="11826" />
	</node>
	<node id="-58289" lat="62.3229750009" lon="5.96625277397">
		<tag k="alt_name" v="Nessetnakken" />
		<tag k="fixme" v="consider natural=peak for the most distinct mountains in the district" />
		<tag k="name" v="Stornakken" />
		<tag k="natural" v="hill" />
		<tag k="place" v="locality" />
		<tag k="ssr:stedsnr" v="11818" />
	</node>
	<node id="-58288" lat="62.3672138924" lon="5.94735276966">
		<tag k="highway" v="path" />
		<tag k="name" v="Bjåstadråsa" />
		<tag k="ssr:stedsnr" v="217781" />
	</node>
	<node id="-58287" lat="62.401502782" lon="6.0102388925">
		<tag k="man_made" v="quay" />
		<tag k="name" v="Brandal molo" />
		<tag k="place" v="locality" />
		<tag k="ssr:stedsnr" v="217777" />
	</node>
	<node id="-58286" lat="62.4154833308" lon="5.99393332514">
		<tag k="name" v="Hestegylet" />
		<tag k="natural" v="gorge" />
		<tag k="ssr:stedsnr" v="217772" />
	</node>
	<node id="-58285" lat="62.3524888862" lon="6.10344722135">
		<tag k="name" v="Raudeberget" />
		<tag k="natural" v="cape" />
		<tag k="ssr:stedsnr" v="217770" />
	</node>
	<node id="-58284" lat="62.3632166624" lon="6.031636112">
		<tag k="alt_name" v="Brubakk" />
		<tag k="name" v="Bruabakken" />
		<tag k="place" v="farm" />
		<tag k="ssr:stedsnr" v="217754" />
	</node>
	<node id="-58283" lat="62.3512916657" lon="6.11320833342">
		<tag k="name" v="Haukhamna" />
		<tag k="natural" v="bay" />
		<tag k="ssr:stedsnr" v="217693" />
	</node>
	<node id="-58282" lat="62.3116250025" lon="5.94695278269">
		<tag k="fixme" v="consider natural=peak for the most distinct mountains in the district" />
		<tag k="name" v="Tverrheia" />
		<tag k="natural" v="hill" />
		<tag k="place" v="locality" />
		<tag k="ssr:stedsnr" v="217684" />
	</node>
	<node id="-58281" lat="62.3216027789" lon="5.96460277891">
		<tag k="name" v="Moldskaret" />
		<tag k="natural" v="valley" />
		<tag k="place" v="locality" />
		<tag k="ssr:stedsnr" v="217683" />
	</node>
	<node id="-58280" lat="62.3208722203" lon="5.9433027829">
		<tag k="name" v="Hjellen" />
		<tag k="place" v="locality" />
		<tag k="ssr:stedsnr" v="217682" />
	</node>
	<node id="-58279" lat="62.3198388893" lon="6.02178333907">
		<tag k="name" v="Indresloka" />
		<tag k="natural" v="valley" />
		<tag k="place" v="locality" />
		<tag k="ssr:stedsnr" v="217680" />
	</node>
	<node id="-58278" lat="62.3098249963" lon="6.01313611195">
		<tag k="name" v="Litle-Almestranda" />
		<tag k="natural" v="beach" />
		<tag k="place" v="locality" />
		<tag k="ssr:stedsnr" v="217675" />
	</node>
	<node id="-58277" lat="62.3242416683" lon="6.01737500062">
		<tag k="name" v="Torvholen" />
		<tag k="natural" v="wetland" />
		<tag k="ssr:stedsnr" v="217671" />
	</node>
	<node id="-58276" lat="62.3043888874" lon="6.00234999941">
		<tag k="name" v="Raudehaugen" />
		<tag k="natural" v="hill" />
		<tag k="place" v="locality" />
		<tag k="ssr:stedsnr" v="217664" />
	</node>
	<node id="-58275" lat="62.3414361154" lon="5.98654722723">
		<tag k="name" v="Gjerdevika" />
		<tag k="natural" v="bay" />
		<tag k="ssr:stedsnr" v="217663" />
	</node>
	<node id="-58274" lat="62.3319972236" lon="6.04404722127">
		<tag k="name" v="Furneselva" />
		<tag k="ssr:stedsnr" v="217719" />
		<tag k="waterway" v="stream" />
	</node>
	<node id="-58273" lat="62.3665083306" lon="5.90365832762">
		<tag k="name" v="Osnesdalen" />
		<tag k="natural" v="valley" />
		<tag k="place" v="locality" />
		<tag k="ssr:stedsnr" v="217717" />
	</node>
	<node id="-58272" lat="62.3504944438" lon="5.97445833305">
		<tag k="name" v="Sandgotvika" />
		<tag k="natural" v="bay" />
		<tag k="ssr:stedsnr" v="217659" />
	</node>
</osm>
