<?xml version="1.0" encoding="UTF-8"?>
<osm generator="osmapis" version="0.6">
	<node id="-574976" lat="62.5257093829" lon="6.72171374697">
		<tag k="fixme" v="consider place=hamlet" />
		<tag k="name" v="Brune" />
		<tag k="place" v="farm" />
		<tag k="ssr:stedsnr" v="861832" />
	</node>
	<node id="-574973" lat="62.5260524066" lon="6.69999194777">
		<tag k="fixme" v="consider place=hamlet" />
		<tag k="name" v="Kassneset" />
		<tag k="place" v="farm" />
		<tag k="ssr:stedsnr" v="861155" />
	</node>
	<node id="-574968" lat="62.4844480149" lon="6.47826001658">
		<tag k="name" v="Reiakvam" />
		<tag k="place" v="hamlet" />
		<tag k="ssr:stedsnr" v="860259" />
	</node>
	<node id="-574967" lat="62.4822491367" lon="6.4704221073">
		<tag k="alt_name" v="Rumpen" />
		<tag k="fixme" v="consider place=hamlet" />
		<tag k="name" v="Rumpa" />
		<tag k="place" v="farm" />
		<tag k="ssr:stedsnr" v="860258" />
	</node>
	<node id="-574449" lat="62.49926667" lon="6.47625277427">
		<tag k="historic" v="shieling" />
		<tag k="name" v="Sætra" />
		<tag k="place" v="locality" />
		<tag k="ssr:stedsnr" v="217078" />
	</node>
	<node id="-574034" lat="62.5046805601" lon="6.69322222978">
		<tag k="name" v="Skodje" />
		<tag k="place" v="village" />
		<tag k="ssr:stedsnr" v="314097" />
	</node>
	<node id="-574033" lat="62.4586104403" lon="6.6011167046">
		<tag k="alt_name" v="Nonsvik" />
		<tag k="fixme" v="consider place=hamlet" />
		<tag k="name" v="Nonsvika" />
		<tag k="place" v="farm" />
		<tag k="ssr:stedsnr" v="314063" />
	</node>
	<node id="-574945" lat="62.5144111132" lon="6.47614443525">
		<tag k="name" v="Vauleplassen" />
		<tag k="place" v="farm" />
		<tag k="ssr:stedsnr" v="824390" />
	</node>
	<node id="-574430" lat="62.5249111153" lon="6.75218054726">
		<tag k="name" v="Solli" />
		<tag k="place" v="farm" />
		<tag k="ssr:stedsnr" v="193830" />
	</node>
	<node id="-574425" lat="62.4958250454" lon="6.59771992263">
		<tag k="fixme" v="consider place=hamlet" />
		<tag k="name" v="Saltkjelsvik" />
		<tag k="place" v="farm" />
		<tag k="ssr:stedsnr" v="192240" />
	</node>
	<node id="-574423" lat="62.4681833359" lon="6.62088610182">
		<tag k="name" v="Øvre Glomset" />
		<tag k="place" v="quarter" />
		<tag k="ssr:stedsnr" v="180912" />
	</node>
	<node id="-574421" lat="62.5020749988" lon="6.72488610309">
		<tag k="name" v="Midtli" />
		<tag k="place" v="farm" />
		<tag k="ssr:stedsnr" v="173052" />
	</node>
	<node id="-574932" lat="62.5070916708" lon="6.6289888836">
		<tag k="name" v="Demmegjerdet" />
		<tag k="place" v="farm" />
		<tag k="ssr:stedsnr" v="824105" />
	</node>
	<node id="-574931" lat="62.5008333355" lon="6.71633610495">
		<tag k="name" v="Lundbø" />
		<tag k="place" v="farm" />
		<tag k="ssr:stedsnr" v="824102" />
	</node>
	<node id="-574930" lat="62.488269448" lon="6.71304999081">
		<tag k="name" v="Hatlevika" />
		<tag k="place" v="farm" />
		<tag k="ssr:stedsnr" v="824101" />
	</node>
	<node id="-574929" lat="62.5038631272" lon="6.69983585695">
		<tag k="fixme" v="consider place=hamlet" />
		<tag k="name" v="Indre Skodje" />
		<tag k="place" v="farm" />
		<tag k="ssr:stedsnr" v="824097" />
	</node>
	<node id="-574928" lat="62.4673484776" lon="6.62251823831">
		<tag k="fixme" v="consider place=hamlet" />
		<tag k="name" v="Nedre Glomset" />
		<tag k="place" v="farm" />
		<tag k="ssr:stedsnr" v="824092" />
	</node>
	<node id="-574926" lat="62.5002999971" lon="6.69965833706">
		<tag k="name" v="Røysa" />
		<tag k="place" v="farm" />
		<tag k="ssr:stedsnr" v="824042" />
	</node>
	<node id="-574409" lat="62.5264194469" lon="6.72054166815">
		<tag k="name" v="Øvre Brune" />
		<tag k="place" v="farm" />
		<tag k="ssr:stedsnr" v="156387" />
	</node>
	<node id="-574917" lat="62.5083094288" lon="6.65827383037">
		<tag k="fixme" v="consider place=hamlet" />
		<tag k="name" v="Berget" />
		<tag k="old_name" v="Ytreberg" />
		<tag k="place" v="farm" />
		<tag k="ssr:stedsnr" v="813472" />
	</node>
	<node id="-574916" lat="62.5048222226" lon="6.65481110401">
		<tag k="name" v="Kriken" />
		<tag k="place" v="quarter" />
		<tag k="ssr:stedsnr" v="810538" />
	</node>
	<node id="-574911" lat="62.5418537238" lon="6.758975743">
		<tag k="alt_name" v="Øye" />
		<tag k="fixme" v="consider place=hamlet" />
		<tag k="name" v="Øyane" />
		<tag k="place" v="farm" />
		<tag k="ssr:stedsnr" v="800913" />
	</node>
	<node id="-574905" lat="62.4698555557" lon="6.55657222426">
		<tag k="historic" v="shieling" />
		<tag k="name" v="Øvrestølen" />
		<tag k="place" v="locality" />
		<tag k="ssr:stedsnr" v="800036" />
	</node>
	<node id="-574904" lat="62.4690749981" lon="6.57366944609">
		<tag k="name" v="Nerstølen" />
		<tag k="place" v="locality" />
		<tag k="ssr:stedsnr" v="800001" />
	</node>
	<node id="-574901" lat="62.4819049017" lon="6.64316945146">
		<tag k="alt_name" v="Flåte" />
		<tag k="fixme" v="consider place=hamlet" />
		<tag k="name" v="Flote" />
		<tag k="place" v="farm" />
		<tag k="ssr:stedsnr" v="799017" />
	</node>
	<node id="-574900" lat="62.4794916702" lon="6.67756666652">
		<tag k="name" v="Håem" />
		<tag k="place" v="farm" />
		<tag k="ssr:stedsnr" v="788156" />
	</node>
	<node id="-574899" lat="62.4971083328" lon="6.539427769">
		<tag k="loc_name" v="Gyridhaugen" />
		<tag k="name" v="Gyrihaugen" />
		<tag k="place" v="quarter" />
		<tag k="ssr:stedsnr" v="787918" />
	</node>
	<node id="-574898" lat="62.5378277769" lon="6.68626388594">
		<tag k="fixme" v="consider place=hamlet" />
		<tag k="name" v="Engesetdal" />
		<tag k="place" v="village" />
		<tag k="ssr:stedsnr" v="783972" />
	</node>
	<node id="-574895" lat="62.5047972177" lon="6.65483332754">
		<tag k="name" v="Grindvikgjerdet" />
		<tag k="place" v="quarter" />
		<tag k="ssr:stedsnr" v="777934" />
	</node>
	<node id="-574380" lat="62.5038527802" lon="6.51560832951">
		<tag k="name" v="Tøssebruvåg" />
		<tag k="place" v="farm" />
		<tag k="ssr:stedsnr" v="156416" />
	</node>
	<node id="-574367" lat="62.4743935268" lon="6.66693830699">
		<tag k="fixme" v="consider place=hamlet" />
		<tag k="name" v="Valle" />
		<tag k="place" v="farm" />
		<tag k="ssr:stedsnr" v="155447" />
	</node>
	<node id="-574364" lat="62.5152796908" lon="6.46674039028">
		<tag k="fixme" v="consider place=hamlet" />
		<tag k="name" v="Mauren" />
		<tag k="place" v="farm" />
		<tag k="ssr:stedsnr" v="141913" />
	</node>
	<node id="-574363" lat="62.5148916681" lon="6.77531667362">
		<tag k="alt_name" v="Apalvikstølen" />
		<tag k="historic" v="shieling" />
		<tag k="name" v="Apalviksætra" />
		<tag k="place" v="locality" />
		<tag k="ssr:stedsnr" v="133867" />
	</node>
	<node id="-574562" lat="62.5328138871" lon="6.79324721857">
		<tag k="name" v="Gamlesætra" />
		<tag k="place" v="locality" />
		<tag k="ssr:stedsnr" v="497839" />
	</node>
	<node id="-574359" lat="62.5374750015" lon="6.72218333424">
		<tag k="name" v="Saghaugen" />
		<tag k="place" v="farm" />
		<tag k="ssr:stedsnr" v="132910" />
	</node>
	<node id="-574869" lat="62.5059999986" lon="6.62610278148">
		<tag k="name" v="Straumsheim" />
		<tag k="place" v="farm" />
		<tag k="ssr:stedsnr" v="763091" />
	</node>
	<node id="-574356" lat="62.485497749" lon="6.50147394937">
		<tag k="fixme" v="consider place=hamlet" />
		<tag k="name" v="Slettebakken" />
		<tag k="place" v="farm" />
		<tag k="ssr:stedsnr" v="132211" />
	</node>
	<node id="-574867" lat="62.5072472742" lon="6.67051546469">
		<tag k="alt_name" v="Indreberg" />
		<tag k="fixme" v="consider place=hamlet" />
		<tag k="name" v="Indre Berget" />
		<tag k="place" v="farm" />
		<tag k="ssr:stedsnr" v="763074" />
	</node>
	<node id="-574866" lat="62.4996853099" lon="6.75112684467">
		<tag k="fixme" v="consider place=hamlet" />
		<tag k="name" v="Furlia" />
		<tag k="place" v="farm" />
		<tag k="ssr:stedsnr" v="763064" />
	</node>
	<node id="-574352" lat="62.5211694411" lon="6.63634721482">
		<tag k="name" v="Stette næringsområde" />
		<tag k="place" v="quarter" />
		<tag k="ssr:stedsnr" v="120912" />
	</node>
	<node id="-574350" lat="62.5241472221" lon="6.58835555714">
		<tag k="name" v="Opskar" />
		<tag k="place" v="quarter" />
		<tag k="ssr:stedsnr" v="120897" />
	</node>
	<node id="-574859" lat="62.5442166636" lon="6.7637277786">
		<tag k="historic" v="shieling" />
		<tag k="name" v="Øye" />
		<tag k="place" v="locality" />
		<tag k="ssr:stedsnr" v="761825" />
	</node>
	<node id="-574387" lat="62.4671888935" lon="6.65794445269">
		<tag k="name" v="Indrebø" />
		<tag k="place" v="farm" />
		<tag k="ssr:stedsnr" v="156070" />
	</node>
	<node id="-574345" lat="62.5040055578" lon="6.695741666">
		<tag k="name" v="Olivermarka" />
		<tag k="place" v="quarter" />
		<tag k="ssr:stedsnr" v="110942" />
	</node>
	<node id="-574341" lat="62.5367922687" lon="6.70633223559">
		<tag k="fixme" v="consider place=hamlet" />
		<tag k="name" v="Litle Engset" />
		<tag k="place" v="farm" />
		<tag k="ssr:stedsnr" v="96428" />
	</node>
	<node id="-574852" lat="62.5191493112" lon="6.50617026767">
		<tag k="fixme" v="consider place=hamlet" />
		<tag k="name" v="Steinset" />
		<tag k="place" v="farm" />
		<tag k="ssr:stedsnr" v="740179" />
	</node>
	<node id="-574187" lat="62.5360861125" lon="6.67960832386">
		<tag k="name" v="Hauggjæra" />
		<tag k="place" v="farm" />
		<tag k="ssr:stedsnr" v="885425" />
	</node>
	<node id="-574847" lat="62.5255388929" lon="6.79326111032">
		<tag k="historic" v="shieling" />
		<tag k="name" v="Steinsetsætra" />
		<tag k="place" v="locality" />
		<tag k="ssr:stedsnr" v="739824" />
	</node>
	<node id="-574357" lat="62.4952141707" lon="6.71090984604">
		<tag k="fixme" v="consider place=hamlet" />
		<tag k="name" v="Apalvika" />
		<tag k="place" v="farm" />
		<tag k="ssr:stedsnr" v="132216" />
	</node>
	<node id="-574843" lat="62.5144472212" lon="6.65900832639">
		<tag k="name" v="Storhola" />
		<tag k="place" v="isolated_dwelling" />
		<tag k="ssr:stedsnr" v="739144" />
	</node>
	<node id="-574330" lat="62.4606488321" lon="6.61574772915">
		<tag k="fixme" v="consider place=hamlet" />
		<tag k="name" v="Honningdalsnes" />
		<tag k="place" v="farm" />
		<tag k="ssr:stedsnr" v="96407" />
	</node>
	<node id="-574839" lat="62.484791568" lon="6.53171609827">
		<tag k="fixme" v="consider place=hamlet" />
		<tag k="name" v="Brusdal" />
		<tag k="place" v="farm" />
		<tag k="ssr:stedsnr" v="738234" />
	</node>
	<node id="-574837" lat="62.4983972246" lon="6.73887777999">
		<tag k="name" v="Furlia næringsområde" />
		<tag k="place" v="quarter" />
		<tag k="ssr:stedsnr" v="727913" />
	</node>
	<node id="-574835" lat="62.503163893" lon="6.69372776835">
		<tag k="name" v="Korsveggarden" />
		<tag k="place" v="quarter" />
		<tag k="ssr:stedsnr" v="721590" />
	</node>
	<node id="-574319" lat="62.5052805543" lon="6.6250111094">
		<tag k="name" v="Malihaugen" />
		<tag k="place" v="farm" />
		<tag k="ssr:stedsnr" v="96104" />
	</node>
	<node id="-574318" lat="62.5005593445" lon="6.73103823475">
		<tag k="fixme" v="consider place=hamlet" />
		<tag k="name" v="Sjurslia" />
		<tag k="place" v="farm" />
		<tag k="ssr:stedsnr" v="96100" />
	</node>
	<node id="-574475" lat="62.5037583333" lon="6.69661666456">
		<tag k="name" v="Lundbøen" />
		<tag k="place" v="quarter" />
		<tag k="ssr:stedsnr" v="231933" />
	</node>
	<node id="-574307" lat="62.5534527783" lon="6.77040000956">
		<tag k="alt_name" v="Litle Engsetsætra" />
		<tag k="historic" v="shieling" />
		<tag k="name" v="Høgsætra" />
		<tag k="place" v="locality" />
		<tag k="ssr:stedsnr" v="94837" />
	</node>
	<node id="-574813" lat="62.5001555545" lon="6.71979444119">
		<tag k="name" v="Lars-Petterplassen" />
		<tag k="place" v="farm" />
		<tag k="ssr:stedsnr" v="703084" />
	</node>
	<node id="-574812" lat="62.5149305538" lon="6.47338612012">
		<tag k="name" v="Duåsen" />
		<tag k="place" v="farm" />
		<tag k="ssr:stedsnr" v="703073" />
	</node>
	<node id="-574811" lat="62.5045861116" lon="6.4541194512">
		<tag k="alt_name" v="Halvorplassen" />
		<tag k="name" v="Halvardsplassen" />
		<tag k="place" v="locality" />
		<tag k="ssr:stedsnr" v="703065" />
	</node>
	<node id="-574296" lat="62.5379863014" lon="6.68246218665">
		<tag k="fixme" v="consider place=hamlet" />
		<tag k="name" v="Erstad" />
		<tag k="place" v="farm" />
		<tag k="ssr:stedsnr" v="72153" />
	</node>
	<node id="-574291" lat="62.5188499995" lon="6.62943610853">
		<tag k="name" v="Kleivahaugen" />
		<tag k="place" v="farm" />
		<tag k="ssr:stedsnr" v="72117" />
	</node>
	<node id="-574290" lat="62.5199704998" lon="6.62784442474">
		<tag k="fixme" v="consider place=hamlet" />
		<tag k="name" v="Stette" />
		<tag k="place" v="farm" />
		<tag k="ssr:stedsnr" v="72114" />
	</node>
	<node id="-574289" lat="62.483653401" lon="6.63936081916">
		<tag k="alt_name" v="Svortehaugen;Svartehaugen" />
		<tag k="fixme" v="consider place=hamlet" />
		<tag k="name" v="Svortahaugen" />
		<tag k="place" v="farm" />
		<tag k="ssr:stedsnr" v="71243" />
	</node>
	<node id="-574288" lat="62.4763805525" lon="6.66544721774">
		<tag k="fixme" v="consider place=hamlet" />
		<tag k="name" v="Valle" />
		<tag k="place" v="village" />
		<tag k="ssr:stedsnr" v="71023" />
	</node>
	<node id="-574285" lat="62.5043972196" lon="6.69726388749">
		<tag k="name" v="Bøbakken" />
		<tag k="place" v="quarter" />
		<tag k="ssr:stedsnr" v="49941" />
	</node>
	<node id="-574284" lat="62.5051999986" lon="6.64790555342">
		<tag k="name" v="Bergslia" />
		<tag k="place" v="quarter" />
		<tag k="ssr:stedsnr" v="49939" />
	</node>
	<node id="-574783" lat="62.5464777771" lon="6.74753888644">
		<tag k="name" v="Bruna" />
		<tag k="place" v="locality" />
		<tag k="ssr:stedsnr" v="679921" />
	</node>
	<node id="-574782" lat="62.518308337" lon="6.76985554987">
		<tag k="historic" v="shieling" />
		<tag k="name" v="Skodjestølen" />
		<tag k="place" v="locality" />
		<tag k="ssr:stedsnr" v="679790" />
	</node>
	<node id="-574779" lat="62.5354988388" lon="6.66570249291">
		<tag k="fixme" v="consider place=hamlet" />
		<tag k="name" v="Stige" />
		<tag k="place" v="farm" />
		<tag k="ssr:stedsnr" v="679150" />
	</node>
	<node id="-574776" lat="62.4992666685" lon="6.74556667204">
		<tag k="name" v="Fremmerli" />
		<tag k="place" v="farm" />
		<tag k="ssr:stedsnr" v="678316" />
	</node>
	<node id="-574773" lat="62.4927361148" lon="6.62257778662">
		<tag k="alt_name" v="Svortevik" />
		<tag k="name" v="Svortavika" />
		<tag k="place" v="farm" />
		<tag k="ssr:stedsnr" v="678250" />
	</node>
	<node id="-574767" lat="62.4592408084" lon="6.61145448382">
		<tag k="fixme" v="consider place=hamlet" />
		<tag k="name" v="Nesvika" />
		<tag k="place" v="farm" />
		<tag k="ssr:stedsnr" v="678071" />
	</node>
	<node id="-574766" lat="62.478861281" lon="6.67489422972">
		<tag k="fixme" v="consider place=hamlet" />
		<tag k="name" v="Håem" />
		<tag k="place" v="farm" />
		<tag k="ssr:stedsnr" v="678028" />
	</node>
	<node id="-574764" lat="62.4676781534" lon="6.62076032412">
		<tag k="name" v="Glomset" />
		<tag k="place" v="hamlet" />
		<tag k="ssr:stedsnr" v="678016" />
	</node>
	<node id="-574761" lat="62.491583337" lon="6.60711943764">
		<tag k="name" v="Digernes næringsområde" />
		<tag k="place" v="quarter" />
		<tag k="ssr:stedsnr" v="666902" />
	</node>
	<node id="-574760" lat="62.471405557" lon="6.66323610821">
		<tag k="name" v="Runnane" />
		<tag k="place" v="quarter" />
		<tag k="ssr:stedsnr" v="666524" />
	</node>
	<node id="-574237" lat="62.4633224741" lon="6.6124536707">
		<tag k="fixme" v="consider place=hamlet" />
		<tag k="name" v="Honningdal" />
		<tag k="place" v="farm" />
		<tag k="ssr:stedsnr" v="34355" />
	</node>
	<node id="-574235" lat="62.5423885497" lon="6.75155390235">
		<tag k="alt_name" v="Storsæter" />
		<tag k="name" v="Storsætra" />
		<tag k="place" v="farm" />
		<tag k="ssr:stedsnr" v="33819" />
	</node>
	<node id="-574228" lat="62.5208333356" lon="6.54118641553">
		<tag k="fixme" v="consider place=hamlet" />
		<tag k="name" v="Stavset" />
		<tag k="place" v="farm" />
		<tag k="ssr:stedsnr" v="12191" />
	</node>
	<node id="-574254" lat="62.4827666705" lon="6.52358332888">
		<tag k="name" v="Gjæra" />
		<tag k="place" v="isolated_dwelling" />
		<tag k="ssr:stedsnr" v="35077" />
	</node>
	<node id="-574226" lat="62.5298194421" lon="6.71528333018">
		<tag k="name" v="Stranda" />
		<tag k="place" v="farm" />
		<tag k="ssr:stedsnr" v="12175" />
	</node>
	<node id="-574223" lat="62.5429203429" lon="6.7476837736">
		<tag k="fixme" v="consider place=hamlet" />
		<tag k="name" v="Storsætra" />
		<tag k="place" v="farm" />
		<tag k="ssr:stedsnr" v="11911" />
	</node>
	<node id="-574222" lat="62.5012638851" lon="6.67462778428">
		<tag k="name" v="Vik" />
		<tag k="place" v="farm" />
		<tag k="ssr:stedsnr" v="11078" />
	</node>
	<node id="-574221" lat="62.4599581811" lon="6.60521542227">
		<tag k="fixme" v="consider place=hamlet" />
		<tag k="name" v="Rabben" />
		<tag k="place" v="farm" />
		<tag k="ssr:stedsnr" v="11053" />
	</node>
	<node id="-574220" lat="62.4552866776" lon="6.59279619659">
		<tag k="fixme" v="consider place=hamlet" />
		<tag k="name" v="Gudmundset" />
		<tag k="place" v="farm" />
		<tag k="ssr:stedsnr" v="11047" />
	</node>
	<node id="-574731" lat="62.5434138882" lon="6.67394166743">
		<tag k="alt_name" v="Beite ytre" />
		<tag k="name" v="Ytre Beite" />
		<tag k="place" v="farm" />
		<tag k="ssr:stedsnr" v="642298" />
	</node>
	<node id="-574206" lat="62.5422666637" lon="6.74528123035">
		<tag k="name" v="Storsætra" />
		<tag k="place" v="farm" />
		<tag k="ssr:stedsnr" v="988419" />
	</node>
	<node id="-574203" lat="62.5106719945" lon="6.57161744838">
		<tag k="name" v="Vemøya" />
		<tag k="place" v="locality" />
		<tag k="ssr:stedsnr" v="983769" />
	</node>
	<node id="-574202" lat="62.5047800305" lon="6.61836475844">
		<tag k="fixme" v="consider place=hamlet" />
		<tag k="name" v="Straumen" />
		<tag k="place" v="farm" />
		<tag k="ssr:stedsnr" v="983763" />
	</node>
	<node id="-574709" lat="62.5273944454" lon="6.74654444474">
		<tag k="name" v="Nerlien" />
		<tag k="place" v="farm" />
		<tag k="ssr:stedsnr" v="641098" />
	</node>
	<node id="-574248" lat="62.507463889" lon="6.67690555048">
		<tag k="name" v="Ellinggjerdet" />
		<tag k="place" v="quarter" />
		<tag k="ssr:stedsnr" v="35055" />
	</node>
	<node id="-574113" lat="62.5143805578" lon="6.632427786">
		<tag k="historic" v="shieling" />
		<tag k="name" v="Gamlesætra" />
		<tag k="place" v="locality" />
		<tag k="ssr:stedsnr" v="399081" />
	</node>
	<node id="-574701" lat="62.5234133197" lon="6.70725680834">
		<tag k="fixme" v="consider place=hamlet" />
		<tag k="name" v="Langnes" />
		<tag k="place" v="farm" />
		<tag k="ssr:stedsnr" v="641064" />
	</node>
	<node id="-574700" lat="62.5031694423" lon="6.45984445213">
		<tag k="name" v="Lønberg" />
		<tag k="place" v="farm" />
		<tag k="ssr:stedsnr" v="641063" />
	</node>
	<node id="-574699" lat="62.5228888932" lon="6.63139999021">
		<tag k="name" v="Nedste Leita" />
		<tag k="place" v="farm" />
		<tag k="ssr:stedsnr" v="641056" />
	</node>
	<node id="-574698" lat="62.4846972187" lon="6.53942777704">
		<tag k="name" v="Hestegjære" />
		<tag k="place" v="farm" />
		<tag k="ssr:stedsnr" v="641050" />
	</node>
	<node id="-574694" lat="62.5419305569" lon="6.73914722801">
		<tag k="name" v="Bjørkly" />
		<tag k="place" v="isolated_dwelling" />
		<tag k="ssr:stedsnr" v="641018" />
	</node>
	<node id="-574691" lat="62.483069447" lon="6.64304167024">
		<tag k="name" v="Kronborg" />
		<tag k="place" v="isolated_dwelling" />
		<tag k="ssr:stedsnr" v="641009" />
	</node>
	<node id="-574160" lat="62.5092107603" lon="6.69728468604">
		<tag k="name" v="Skodjereitane" />
		<tag k="place" v="farm" />
		<tag k="ssr:stedsnr" v="885066" />
	</node>
	<node id="-574686" lat="62.5452805401" lon="6.69299294997">
		<tag k="fixme" v="consider place=hamlet" />
		<tag k="name" v="Grasdal" />
		<tag k="place" v="farm" />
		<tag k="ssr:stedsnr" v="618172" />
	</node>
	<node id="-574501" lat="62.5243840467" lon="6.61673401909">
		<tag k="fixme" v="consider place=hamlet" />
		<tag k="name" v="Støråk" />
		<tag k="place" v="farm" />
		<tag k="ssr:stedsnr" v="436149" />
	</node>
	<node id="-574684" lat="62.5432423814" lon="6.67609205173">
		<tag k="name" v="Seljebø" />
		<tag k="place" v="farm" />
		<tag k="ssr:stedsnr" v="618159" />
	</node>
	<node id="-574683" lat="62.5340255022" lon="6.71491617756">
		<tag k="fixme" v="consider place=hamlet" />
		<tag k="name" v="Engset" />
		<tag k="place" v="farm" />
		<tag k="ssr:stedsnr" v="618146" />
	</node>
	<node id="-574682" lat="62.5249586645" lon="6.58596096298">
		<tag k="fixme" v="consider place=hamlet" />
		<tag k="name" v="Opskar" />
		<tag k="place" v="farm" />
		<tag k="ssr:stedsnr" v="618140" />
	</node>
	<node id="-574159" lat="62.5044305576" lon="6.69774444264">
		<tag k="name" v="Bøen" />
		<tag k="place" v="farm" />
		<tag k="ssr:stedsnr" v="885062" />
	</node>
	<node id="-574676" lat="62.4978764391" lon="6.71808747065">
		<tag k="fixme" v="consider place=hamlet" />
		<tag k="name" v="Skodjevåg" />
		<tag k="place" v="farm" />
		<tag k="ssr:stedsnr" v="617324" />
	</node>
	<node id="-574162" lat="62.5076223948" lon="6.69344783276">
		<tag k="fixme" v="consider place=hamlet" />
		<tag k="name" v="Ytre Skodje" />
		<tag k="place" v="farm" />
		<tag k="ssr:stedsnr" v="885080" />
	</node>
	<node id="-574161" lat="62.5142750004" lon="6.47266944586">
		<tag k="name" v="Kjønnaplassen" />
		<tag k="place" v="farm" />
		<tag k="ssr:stedsnr" v="885076" />
	</node>
	<node id="-574672" lat="62.4502055516" lon="6.55757499367">
		<tag k="historic" v="shieling" />
		<tag k="name" v="Heggebakksætra" />
		<tag k="place" v="locality" />
		<tag k="ssr:stedsnr" v="617061" />
	</node>
	<node id="-574671" lat="62.4801361112" lon="6.68110555122">
		<tag k="name" v="Håem" />
		<tag k="place" v="farm" />
		<tag k="ssr:stedsnr" v="606152" />
	</node>
	<node id="-574158" lat="62.5424361127" lon="6.687280554">
		<tag k="name" v="Brautne" />
		<tag k="place" v="farm" />
		<tag k="ssr:stedsnr" v="885061" />
	</node>
	<node id="-574154" lat="62.5035805597" lon="6.45640554954">
		<tag k="name" v="Ingebrigtsplassen" />
		<tag k="place" v="farm" />
		<tag k="ssr:stedsnr" v="885030" />
	</node>
	<node id="-574150" lat="62.4699694457" lon="6.66274722434">
		<tag k="name" v="Jovik" />
		<tag k="place" v="isolated_dwelling" />
		<tag k="ssr:stedsnr" v="476953" />
	</node>
	<node id="-574147" lat="62.5049138922" lon="6.66934722364">
		<tag k="name" v="Litlegjerdet" />
		<tag k="place" v="farm" />
		<tag k="ssr:stedsnr" v="399496" />
	</node>
	<node id="-574496" lat="62.4661083379" lon="6.61247500561">
		<tag k="name" v="Bakkeneset" />
		<tag k="place" v="quarter" />
		<tag k="ssr:stedsnr" v="423928" />
	</node>
	<node id="-574495" lat="62.5020111088" lon="6.5146277728">
		<tag k="name" v="Juvågen" />
		<tag k="place" v="quarter" />
		<tag k="ssr:stedsnr" v="423917" />
	</node>
	<node id="-574418" lat="62.5038333369" lon="6.51601111328">
		<tag k="alt_name" v="Tyssebruvågen" />
		<tag k="name" v="Tøssebruvågen" />
		<tag k="place" v="quarter" />
		<tag k="ssr:stedsnr" v="162070" />
	</node>
	<node id="-574643" lat="62.4866944428" lon="6.5294277855">
		<tag k="name" v="Petterplassen" />
		<tag k="place" v="farm" />
		<tag k="ssr:stedsnr" v="581100" />
	</node>
	<node id="-574642" lat="62.5011749984" lon="6.67486389612">
		<tag k="name" v="Murvika" />
		<tag k="place" v="farm" />
		<tag k="ssr:stedsnr" v="581092" />
	</node>
	<node id="-574641" lat="62.5075444411" lon="6.6256027779">
		<tag k="name" v="Reiten" />
		<tag k="place" v="farm" />
		<tag k="ssr:stedsnr" v="581084" />
	</node>
	<node id="-574632" lat="62.5377777745" lon="6.67968334158">
		<tag k="name" v="Reiten" />
		<tag k="place" v="farm" />
		<tag k="ssr:stedsnr" v="581006" />
	</node>
	<node id="-574626" lat="62.5518527738" lon="6.75283333874">
		<tag k="name" v="Erstadsætra" />
		<tag k="place" v="locality" />
		<tag k="ssr:stedsnr" v="557898" />
	</node>
	<node id="-574625" lat="62.5435583339" lon="6.81825554581">
		<tag k="historic" v="shieling" />
		<tag k="name" v="Engsetsætra" />
		<tag k="place" v="locality" />
		<tag k="ssr:stedsnr" v="557895" />
	</node>
	<node id="-574112" lat="62.5033315676" lon="6.68860111198">
		<tag k="fixme" v="consider place=hamlet" />
		<tag k="name" v="Nedre Skodje" />
		<tag k="place" v="farm" />
		<tag k="ssr:stedsnr" v="399079" />
	</node>
	<node id="-574064" lat="62.4862999999" lon="6.52815833474">
		<tag k="name" v="Eliasplassen" />
		<tag k="place" v="farm" />
		<tag k="ssr:stedsnr" v="338224" />
	</node>
	<node id="-574110" lat="62.4999967539" lon="6.59367851139">
		<tag k="fixme" v="consider place=hamlet" />
		<tag k="name" v="Digernes" />
		<tag k="place" v="farm" />
		<tag k="ssr:stedsnr" v="399066" />
	</node>
	<node id="-574619" lat="62.5392940381" lon="6.69326113532">
		<tag k="fixme" v="consider place=hamlet" />
		<tag k="name" v="Ytre Eikrol" />
		<tag k="place" v="farm" />
		<tag k="ssr:stedsnr" v="557153" />
	</node>
	<node id="-574618" lat="62.5393023211" lon="6.70254992005">
		<tag k="fixme" v="consider place=hamlet" />
		<tag k="name" v="Indre Eikrol" />
		<tag k="place" v="farm" />
		<tag k="ssr:stedsnr" v="557151" />
	</node>
	<node id="-574095" lat="62.4875132913" lon="6.73025059179">
		<tag k="fixme" v="consider place=hamlet" />
		<tag k="name" v="Solnør" />
		<tag k="place" v="farm" />
		<tag k="ssr:stedsnr" v="375262" />
	</node>
	<node id="-574605" lat="62.4994555559" lon="6.71527500153">
		<tag k="name" v="Løvstad" />
		<tag k="place" v="farm" />
		<tag k="ssr:stedsnr" v="520439" />
	</node>
	<node id="-574088" lat="62.5059527788" lon="6.69244444769">
		<tag k="name" v="Nilsgarden" />
		<tag k="place" v="quarter" />
		<tag k="ssr:stedsnr" v="362918" />
	</node>
	<node id="-574087" lat="62.4987138915" lon="6.72036666627">
		<tag k="name" v="Britplassen" />
		<tag k="place" v="quarter" />
		<tag k="ssr:stedsnr" v="362913" />
	</node>
	<node id="-574486" lat="62.4965849287" lon="6.5651383602">
		<tag k="fixme" v="consider place=hamlet" />
		<tag k="name" v="Innvika" />
		<tag k="place" v="farm" />
		<tag k="ssr:stedsnr" v="253268" />
	</node>
	<node id="-574078" lat="62.5256472233" lon="6.7231166681">
		<tag k="name" v="Nedre Brune" />
		<tag k="place" v="farm" />
		<tag k="ssr:stedsnr" v="338350" />
	</node>
	<node id="-574578" lat="62.5433202151" lon="6.68007706257">
		<tag k="alt_name" v="Beite indre" />
		<tag k="fixme" v="consider place=hamlet" />
		<tag k="name" v="Indre Beite" />
		<tag k="place" v="farm" />
		<tag k="ssr:stedsnr" v="520069" />
	</node>
	<node id="-574577" lat="62.5374666702" lon="6.72193611424">
		<tag k="name" v="Solhaug" />
		<tag k="place" v="isolated_dwelling" />
		<tag k="ssr:stedsnr" v="520060" />
	</node>
	<node id="-574576" lat="62.4495916623" lon="6.56739999264">
		<tag k="historic" v="shieling" />
		<tag k="name" v="Nerstølen" />
		<tag k="place" v="locality" />
		<tag k="ssr:stedsnr" v="520057" />
	</node>
	<node id="-574868" lat="62.4990333327" lon="6.72983889106">
		<tag k="name" v="Nymarka" />
		<tag k="place" v="farm" />
		<tag k="ssr:stedsnr" v="763081" />
	</node>
	<node id="-574060" lat="62.4998367723" lon="6.71129102897">
		<tag k="name" v="Østgård" />
		<tag k="place" v="farm" />
		<tag k="ssr:stedsnr" v="338067" />
	</node>
	<node id="-574481" lat="62.5055912931" lon="6.51791937634">
		<tag k="name" v="Tøssebru" />
		<tag k="place" v="farm" />
		<tag k="ssr:stedsnr" v="242156" />
	</node>
	<node id="-574563" lat="62.5314558362" lon="6.77194999135">
		<tag k="name" v="Nesjesætra" />
		<tag k="place" v="isolated_dwelling" />
		<tag k="ssr:stedsnr" v="497841" />
	</node>
	<node id="-574050" lat="62.5253805512" lon="6.62696944076">
		<tag k="name" v="Øvste Leitet" />
		<tag k="place" v="farm" />
		<tag k="ssr:stedsnr" v="337718" />
	</node>
	<node id="-574559" lat="62.5239030578" lon="6.62512537158">
		<tag k="fixme" v="consider place=hamlet" />
		<tag k="name" v="Leita" />
		<tag k="place" v="farm" />
		<tag k="ssr:stedsnr" v="497155" />
	</node>
	<node id="-574046" lat="62.5231379867" lon="6.72863292413">
		<tag k="fixme" v="consider place=hamlet" />
		<tag k="name" v="Fylling" />
		<tag k="place" v="farm" />
		<tag k="ssr:stedsnr" v="315824" />
	</node>
	<node id="-574044" lat="62.5506166644" lon="6.72901944286">
		<tag k="name" v="Eikrolsætra" />
		<tag k="place" v="isolated_dwelling" />
		<tag k="ssr:stedsnr" v="314904" />
	</node>
	<node id="-574042" lat="62.4989023421" lon="6.53380767399">
		<tag k="fixme" v="consider place=hamlet" />
		<tag k="name" v="Utvika" />
		<tag k="place" v="farm" />
		<tag k="ssr:stedsnr" v="314276" />
	</node>
	<node id="-574041" lat="62.4946861894" lon="6.4567311326">
		<tag k="alt_name" v="Høyvik" />
		<tag k="fixme" v="consider place=hamlet" />
		<tag k="name" v="Høyvika" />
		<tag k="place" v="farm" />
		<tag k="ssr:stedsnr" v="314270" />
	</node>
	<node id="-574039" lat="62.5098472451" lon="6.69649102984">
		<tag k="fixme" v="consider place=hamlet" />
		<tag k="name" v="Skodjereitane" />
		<tag k="place" v="farm" />
		<tag k="ssr:stedsnr" v="314168" />
	</node>
	<node id="-574037" lat="62.5024148056" lon="6.52517767412">
		<tag k="fixme" v="consider place=hamlet" />
		<tag k="name" v="Natvika" />
		<tag k="place" v="farm" />
		<tag k="ssr:stedsnr" v="314109" />
	</node>
	<node id="-574546" lat="62.4653491583" lon="6.63398985492">
		<tag k="alt_name" v="Ytrevik" />
		<tag k="fixme" v="consider place=hamlet" />
		<tag k="name" v="Ytrevika" />
		<tag k="place" v="farm" />
		<tag k="ssr:stedsnr" v="496009" />
	</node>
	<node id="-574545" lat="62.4912888932" lon="6.60244444364">
		<tag k="name" v="Digernes næringsområde" />
		<tag k="place" v="quarter" />
		<tag k="ssr:stedsnr" v="484909" />
	</node>
	<node id="-574032" lat="62.4578694466" lon="6.58214166267">
		<tag k="historic" v="shieling" />
		<tag k="name" v="Gudmundsetsætra" />
		<tag k="place" v="locality" />
		<tag k="ssr:stedsnr" v="314051" />
	</node>
	<node id="-575055" lat="62.5229579973" lon="6.62954180523">
		<tag k="name" v="Leitegarden" />
		<tag k="place" v="quarter" />
		<tag k="ssr:stedsnr" v="972485" />
	</node>
	<node id="-574030" lat="62.4791222262" lon="6.67361666049">
		<tag k="name" v="Håem" />
		<tag k="place" v="farm" />
		<tag k="ssr:stedsnr" v="303151" />
	</node>
	<node id="-575053" lat="62.5052527806" lon="6.71866110231">
		<tag k="name" v="Ytreli" />
		<tag k="place" v="farm" />
		<tag k="ssr:stedsnr" v="962458" />
	</node>
	<node id="-575051" lat="62.5389694435" lon="6.69939721995">
		<tag k="name" v="Eikrol" />
		<tag k="place" v="hamlet" />
		<tag k="ssr:stedsnr" v="950943" />
	</node>
	<node id="-574022" lat="62.5075555515" lon="6.67864444641">
		<tag k="name" v="Indre Berget" />
		<tag k="place" v="quarter" />
		<tag k="ssr:stedsnr" v="278509" />
	</node>
	<node id="-575045" lat="62.4856083349" lon="6.53818056497">
		<tag k="name" v="Solbakken" />
		<tag k="place" v="farm" />
		<tag k="ssr:stedsnr" v="946403" />
	</node>
	<node id="-574219" lat="62.4616694428" lon="6.54313888913">
		<tag k="historic" v="shieling" />
		<tag k="name" v="Vallesætra" />
		<tag k="place" v="locality" />
		<tag k="ssr:stedsnr" v="11003" />
	</node>
	<node id="-574389" lat="62.4644998523" lon="6.64526854298">
		<tag k="fixme" v="consider place=hamlet" />
		<tag k="name" v="Indrevik" />
		<tag k="place" v="farm" />
		<tag k="ssr:stedsnr" v="156075" />
	</node>
	<node id="-574388" lat="62.4689148796" lon="6.61731068004">
		<tag k="fixme" v="consider place=hamlet" />
		<tag k="name" v="Øvre Glomset" />
		<tag k="place" v="farm" />
		<tag k="ssr:stedsnr" v="156076" />
	</node>
	<node id="-574516" lat="62.5044111132" lon="6.66003610472">
		<tag k="name" v="Sjurgjerdet" />
		<tag k="place" v="farm" />
		<tag k="ssr:stedsnr" v="460106" />
	</node>
	<node id="-574515" lat="62.5245305572" lon="6.74271666825">
		<tag k="name" v="Soltun" />
		<tag k="place" v="farm" />
		<tag k="ssr:stedsnr" v="460101" />
	</node>
	<node id="-574002" lat="62.5028527795" lon="6.47491666474">
		<tag k="name" v="Myra" />
		<tag k="place" v="farm" />
		<tag k="ssr:stedsnr" v="278419" />
	</node>
	<node id="-574513" lat="62.5221583294" lon="6.7354888815">
		<tag k="name" v="Hjellen" />
		<tag k="place" v="farm" />
		<tag k="ssr:stedsnr" v="460087" />
	</node>
	<node id="-573993" lat="62.5131888916" lon="6.65456943487">
		<tag k="historic" v="shieling" />
		<tag k="name" v="Grindviksætra" />
		<tag k="place" v="locality" />
		<tag k="ssr:stedsnr" v="278090" />
	</node>
	<node id="-573992" lat="62.5043999965" lon="6.45955554699">
		<tag k="fixme" v="consider place=hamlet" />
		<tag k="name" v="Dyrøy" />
		<tag k="place" v="farm" />
		<tag k="ssr:stedsnr" v="278072" />
	</node>
	<node id="-574502" lat="62.5001305526" lon="6.73188888855">
		<tag k="name" v="Hanslia" />
		<tag k="place" v="farm" />
		<tag k="ssr:stedsnr" v="436839" />
	</node>
	<node id="-575013" lat="62.474627778" lon="6.55880277461">
		<tag k="historic" v="shieling" />
		<tag k="name" v="Glomsetsætra" />
		<tag k="place" v="locality" />
		<tag k="ssr:stedsnr" v="945256" />
	</node>
	<node id="-574500" lat="62.5046652058" lon="6.64818223777">
		<tag k="fixme" v="consider place=hamlet" />
		<tag k="name" v="Grindvika" />
		<tag k="place" v="farm" />
		<tag k="ssr:stedsnr" v="436095" />
	</node>
	<node id="-575008" lat="62.5223777751" lon="6.62235278671">
		<tag k="name" v="Stetteremma" />
		<tag k="place" v="farm" />
		<tag k="ssr:stedsnr" v="945077" />
	</node>
	<node id="-575007" lat="62.5052027752" lon="6.71608610879">
		<tag k="name" v="Øvrebøen" />
		<tag k="place" v="farm" />
		<tag k="ssr:stedsnr" v="945067" />
	</node>
	<node id="-575006" lat="62.5057777792" lon="6.69879167497">
		<tag k="name" v="Olmannsgarden" />
		<tag k="place" v="farm" />
		<tag k="ssr:stedsnr" v="945068" />
	</node>
	<node id="-575005" lat="62.5034194475" lon="6.47919999162">
		<tag k="name" v="Kransen" />
		<tag k="place" v="farm" />
		<tag k="ssr:stedsnr" v="945059" />
	</node>
	<node id="-575004" lat="62.5181166674" lon="6.54859721942">
		<tag k="name" v="Lundberg" />
		<tag k="place" v="farm" />
		<tag k="ssr:stedsnr" v="945053" />
	</node>
	<node id="-574488" lat="62.540831344" lon="6.66144853914">
		<tag k="fixme" v="consider place=hamlet" />
		<tag k="name" v="Skar" />
		<tag k="place" v="farm" />
		<tag k="ssr:stedsnr" v="254134" />
	</node>
	<node id="-574998" lat="62.5247944419" lon="6.58682500143">
		<tag k="name" v="Opskar" />
		<tag k="place" v="farm" />
		<tag k="ssr:stedsnr" v="944653" />
	</node>
	<node id="-574485" lat="62.4898972184" lon="6.53099167057">
		<tag k="name" v="Brusdalshjellen" />
		<tag k="place" v="farm" />
		<tag k="ssr:stedsnr" v="253264" />
	</node>
	<node id="-574483" lat="62.4516869761" lon="6.58507805923">
		<tag k="fixme" v="consider place=hamlet" />
		<tag k="name" v="Heggebakk" />
		<tag k="place" v="farm" />
		<tag k="ssr:stedsnr" v="253054" />
	</node>
	<node id="-574482" lat="62.4889187989" lon="6.63108364838">
		<tag k="alt_name" v="Svorte" />
		<tag k="fixme" v="consider place=hamlet" />
		<tag k="name" v="Svorta" />
		<tag k="place" v="farm" />
		<tag k="ssr:stedsnr" v="253020" />
	</node>
	<node id="-574993" lat="62.5325749955" lon="6.8088166587">
		<tag k="alt_name" v="hauststølen" />
		<tag k="historic" v="shieling" />
		<tag k="name" v="Barlindhaugsætra" />
		<tag k="place" v="locality" />
		<tag k="ssr:stedsnr" v="922819" />
	</node>
	<node id="-574992" lat="62.5306888871" lon="6.812630549">
		<tag k="historic" v="shieling" />
		<tag k="name" v="Brautesætra" />
		<tag k="place" v="locality" />
		<tag k="ssr:stedsnr" v="922817" />
	</node>
	<node id="-574991" lat="62.527521787" lon="6.66703827337">
		<tag k="fixme" v="consider place=hamlet" />
		<tag k="name" v="Nes" />
		<tag k="place" v="farm" />
		<tag k="ssr:stedsnr" v="922162" />
	</node>
	<node id="-574990" lat="62.5054053903" lon="6.51766016729">
		<tag k="fixme" v="consider place=hamlet" />
		<tag k="name" v="Tøssebru" />
		<tag k="place" v="farm" />
		<tag k="ssr:stedsnr" v="922144" />
	</node>
	<node id="-574989" lat="62.5437126511" lon="6.67855982844">
		<tag k="name" v="Beite" />
		<tag k="place" v="hamlet" />
		<tag k="ssr:stedsnr" v="921203" />
	</node>
	<node id="-574988" lat="62.501972019" lon="6.478087001">
		<tag k="fixme" v="consider place=hamlet" />
		<tag k="name" v="Mørkeset" />
		<tag k="place" v="farm" />
		<tag k="ssr:stedsnr" v="921101" />
	</node>
	<node id="-574987" lat="62.5041167837" lon="6.62260499607">
		<tag k="fixme" v="consider place=hamlet" />
		<tag k="name" v="Straumen" />
		<tag k="place" v="village" />
		<tag k="ssr:stedsnr" v="921095" />
	</node>
	<node id="-574984" lat="62.4822583294" lon="6.6857166626">
		<tag k="name" v="Håemsvik" />
		<tag k="place" v="farm" />
		<tag k="ssr:stedsnr" v="921020" />
	</node>
	<node id="-574977" lat="62.503311224" lon="6.71802868807">
		<tag k="fixme" v="consider place=hamlet" />
		<tag k="name" v="Hanslia" />
		<tag k="place" v="farm" />
		<tag k="ssr:stedsnr" v="861872" />
	</node>
</osm>
