<?xml version="1.0" encoding="UTF-8"?>
<osm generator="osmapis" version="0.6">
	<node id="-573435" lat="62.5221416686" lon="6.6696777848">
		<tag k="name" v="Neskjosen" />
		<tag k="natural" v="bay" />
		<tag k="ssr:stedsnr" v="72123" />
	</node>
	<node id="-573434" lat="62.5232500044" lon="6.70406944011">
		<tag k="name" v="Langneset" />
		<tag k="natural" v="cape" />
		<tag k="ssr:stedsnr" v="72122" />
	</node>
	<node id="-573268" lat="62.5327499963" lon="6.65246388527">
		<tag k="name" v="Korsneset" />
		<tag k="natural" v="cape" />
		<tag k="ssr:stedsnr" v="399347" />
	</node>
	<node id="-573942" lat="62.4816333345" lon="6.63170554647">
		<tag k="name" v="Haugelva" />
		<tag k="ssr:stedsnr" v="702301" />
		<tag k="waterway" v="stream" />
	</node>
	<node id="-573938" lat="62.4821499971" lon="6.5629305651">
		<tag k="name" v="Sætreneset" />
		<tag k="natural" v="cape" />
		<tag k="ssr:stedsnr" v="702285" />
	</node>
	<node id="-573424" lat="62.5209583325" lon="6.63371111317">
		<tag k="name" v="Stetteelva" />
		<tag k="ssr:stedsnr" v="35551" />
		<tag k="waterway" v="river" />
	</node>
	<node id="-573417" lat="62.5356555551" lon="6.69717222218">
		<tag k="name" v="Lassehaugtjønna" />
		<tag k="natural" v="water" />
		<tag k="ssr:stedsnr" v="35499" />
	</node>
	<node id="-573913" lat="62.4787166677" lon="6.47079999187">
		<tag k="name" v="Brusdalsvatnet" />
		<tag k="natural" v="water" />
		<tag k="ssr:stedsnr" v="678244" />
		<tag k="water" v="lake" />
	</node>
	<node id="-573387" lat="62.5092222233" lon="6.6279305577">
		<tag k="name" v="Nøretjønna" />
		<tag k="natural" v="water" />
		<tag k="ssr:stedsnr" v="35047" />
	</node>
	<node id="-573385" lat="62.4894055533" lon="6.47307778632">
		<tag k="name" v="Lillevatnet" />
		<tag k="natural" v="water" />
		<tag k="ssr:stedsnr" v="35045" />
	</node>
	<node id="-573384" lat="62.4846611144" lon="6.5499138925">
		<tag k="name" v="Olvika" />
		<tag k="natural" v="bay" />
		<tag k="ssr:stedsnr" v="35037" />
	</node>
	<node id="-573381" lat="62.4896916699" lon="6.62934166142">
		<tag k="name" v="Einaelva" />
		<tag k="ssr:stedsnr" v="35018" />
		<tag k="waterway" v="stream" />
	</node>
	<node id="-573891" lat="62.4508388864" lon="6.57555554789">
		<tag k="name" v="Kvennelva" />
		<tag k="ssr:stedsnr" v="642424" />
		<tag k="waterway" v="stream" />
	</node>
	<node id="-573890" lat="62.5370666711" lon="6.68482499628">
		<tag k="name" v="Erstadelva" />
		<tag k="ssr:stedsnr" v="642412" />
		<tag k="waterway" v="stream" />
	</node>
	<node id="-573889" lat="62.5251638865" lon="6.68426944652">
		<tag k="name" v="Kalverumpa" />
		<tag k="natural" v="cape" />
		<tag k="ssr:stedsnr" v="642407" />
	</node>
	<node id="-573373" lat="62.5354527737" lon="6.64544166924">
		<tag k="name" v="Skarsåna" />
		<tag k="ssr:stedsnr" v="33742" />
		<tag k="waterway" v="stream" />
	</node>
	<node id="-573371" lat="62.5629194444" lon="6.81076666506">
		<tag k="name" v="Svartevatnet" />
		<tag k="natural" v="water" />
		<tag k="ssr:stedsnr" v="12930" />
		<tag k="water" v="lake" />
	</node>
	<node id="-573370" lat="62.5640040877" lon="6.79695313015">
		<tag k="alt_name" v="Skålsvatnet" />
		<tag k="name" v="Litlevatnet" />
		<tag k="natural" v="water" />
		<tag k="ssr:stedsnr" v="12876" />
	</node>
	<node id="-573879" lat="62.4796972261" lon="6.52476667466">
		<tag k="name" v="Midtholmen" />
		<tag k="place" v="islet" />
		<tag k="ssr:stedsnr" v="642369" />
	</node>
	<node id="-573366" lat="62.5306222179" lon="6.66283056105">
		<tag k="name" v="Korsneset" />
		<tag k="natural" v="cape" />
		<tag k="ssr:stedsnr" v="12171" />
	</node>
	<node id="-573875" lat="62.4817583353" lon="6.47109443718">
		<tag k="name" v="Martinusneset" />
		<tag k="natural" v="cape" />
		<tag k="ssr:stedsnr" v="642357" />
	</node>
	<node id="-573873" lat="62.5291222251" lon="6.74007499904">
		<tag k="name" v="Gylstjønna" />
		<tag k="natural" v="water" />
		<tag k="ssr:stedsnr" v="642299" />
	</node>
	<node id="-573870" lat="62.4620138864" lon="6.59190556099">
		<tag k="name" v="Heimste Demmingsvatn" />
		<tag k="natural" v="water" />
		<tag k="ssr:stedsnr" v="642050" />
		<tag k="water" v="lake" />
	</node>
	<node id="-573868" lat="62.5182999956" lon="6.73326388089">
		<tag k="name" v="Sætrevika" />
		<tag k="natural" v="bay" />
		<tag k="ssr:stedsnr" v="642037" />
	</node>
	<node id="-573864" lat="62.4600833353" lon="6.5993972212">
		<tag k="name" v="Rabbeelva" />
		<tag k="ssr:stedsnr" v="641301" />
		<tag k="waterway" v="stream" />
	</node>
	<node id="-573857" lat="62.4921777748" lon="6.60943889112">
		<tag k="name" v="Lomstjønna" />
		<tag k="natural" v="water" />
		<tag k="ssr:stedsnr" v="641257" />
	</node>
	<node id="-573837" lat="62.503544442" lon="6.66442777021">
		<tag k="name" v="Bergselva" />
		<tag k="ssr:stedsnr" v="641031" />
		<tag k="waterway" v="stream" />
	</node>
	<node id="-573318" lat="62.4877972197" lon="6.61548889006">
		<tag k="name" v="Raudegrova" />
		<tag k="ssr:stedsnr" v="885345" />
		<tag k="waterway" v="stream" />
	</node>
	<node id="-573828" lat="62.5056305571" lon="6.75773055291">
		<tag k="name" v="Furlielva" />
		<tag k="ssr:stedsnr" v="618830" />
		<tag k="waterway" v="stream" />
	</node>
	<node id="-573809" lat="62.5215305526" lon="6.71284722399">
		<tag k="name" v="Langnesholmen" />
		<tag k="place" v="islet" />
		<tag k="ssr:stedsnr" v="581496" />
	</node>
	<node id="-573807" lat="62.4927944441" lon="6.59682777086">
		<tag k="name" v="Lilledemma" />
		<tag k="natural" v="water" />
		<tag k="ssr:stedsnr" v="581466" />
	</node>
	<node id="-573293" lat="62.5384055593" lon="6.64946388928">
		<tag k="name" v="Løkane" />
		<tag k="ssr:stedsnr" v="883777" />
		<tag k="waterway" v="stream" />
	</node>
	<node id="-573804" lat="62.5378027781" lon="6.8331527742">
		<tag k="name" v="Skinneset" />
		<tag k="natural" v="cape" />
		<tag k="ssr:stedsnr" v="581432" />
	</node>
	<node id="-573803" lat="62.4800805583" lon="6.52173889403">
		<tag k="alt_name" v="Ysteholmane" />
		<tag k="name" v="Ytsteholmane" />
		<tag k="place" v="islet" />
		<tag k="ssr:stedsnr" v="581402" />
	</node>
	<node id="-573290" lat="62.4876111076" lon="6.72441666583">
		<tag k="name" v="Osen" />
		<tag k="natural" v="bay" />
		<tag k="ssr:stedsnr" v="476449" />
	</node>
	<node id="-574183" lat="62.5351277819" lon="6.69093889191">
		<tag k="name" v="Lassehaugvika" />
		<tag k="natural" v="bay" />
		<tag k="ssr:stedsnr" v="946390" />
	</node>
	<node id="-573800" lat="62.4854138929" lon="6.63140833429">
		<tag k="name" v="Stølelva" />
		<tag k="ssr:stedsnr" v="581377" />
		<tag k="waterway" v="stream" />
	</node>
	<node id="-573795" lat="62.5159611143" lon="6.74411110431">
		<tag k="name" v="Djupdalsbekken" />
		<tag k="ssr:stedsnr" v="581350" />
		<tag k="waterway" v="stream" />
	</node>
	<node id="-573281" lat="62.5359888906" lon="6.8342194437">
		<tag k="name" v="Langerumpa" />
		<tag k="natural" v="cape" />
		<tag k="ssr:stedsnr" v="399440" />
	</node>
	<node id="-573785" lat="62.4873769368" lon="6.58580507793">
		<tag k="name" v="Løken" />
		<tag k="ssr:stedsnr" v="581125" />
		<tag k="waterway" v="stream" />
	</node>
	<node id="-573271" lat="62.4902333324" lon="6.61359721299">
		<tag k="name" v="Svortaelva" />
		<tag k="ssr:stedsnr" v="399373" />
		<tag k="waterway" v="stream" />
	</node>
	<node id="-573780" lat="62.4986388911" lon="6.58571944646">
		<tag k="name" v="Vaulen" />
		<tag k="natural" v="strait" />
		<tag k="ssr:stedsnr" v="581069" />
	</node>
	<node id="-573778" lat="62.4976361094" lon="6.71403610845">
		<tag k="name" v="Øyra" />
		<tag k="natural" v="strait" />
		<tag k="ssr:stedsnr" v="581054" />
	</node>
	<node id="-573772" lat="62.5341749997" lon="6.65870277373">
		<tag k="name" v="Sandvika" />
		<tag k="natural" v="bay" />
		<tag k="ssr:stedsnr" v="579757" />
	</node>
	<node id="-573258" lat="62.4773194429" lon="6.53477223127">
		<tag k="name" v="Sandvika" />
		<tag k="natural" v="bay" />
		<tag k="ssr:stedsnr" v="399119" />
	</node>
	<node id="-573765" lat="62.5426361135" lon="6.82694166903">
		<tag k="alt_name" v="Heinåa" />
		<tag k="name" v="Heiåna" />
		<tag k="ssr:stedsnr" v="557827" />
		<tag k="waterway" v="stream" />
	</node>
	<node id="-573764" lat="62.5237138904" lon="6.76027778525">
		<tag k="name" v="Fyllingselva" />
		<tag k="ssr:stedsnr" v="557803" />
		<tag k="waterway" v="stream" />
	</node>
	<node id="-573763" lat="62.5326333316" lon="6.69529722654">
		<tag k="name" v="Pelarsholmen" />
		<tag k="place" v="islet" />
		<tag k="ssr:stedsnr" v="557163" />
	</node>
	<node id="-573762" lat="62.5290916665" lon="6.63484166706">
		<tag k="name" v="Leitakjosen" />
		<tag k="natural" v="bay" />
		<tag k="ssr:stedsnr" v="557158" />
	</node>
	<node id="-573761" lat="62.5224361081" lon="6.52235278354">
		<tag k="name" v="Hådalstjørna" />
		<tag k="natural" v="water" />
		<tag k="ssr:stedsnr" v="557155" />
	</node>
	<node id="-573753" lat="62.4680638885" lon="6.60459722798">
		<tag k="name" v="Glomsetvatnet" />
		<tag k="natural" v="water" />
		<tag k="ssr:stedsnr" v="556024" />
	</node>
	<node id="-573752" lat="62.4626525048" lon="6.58908924539">
		<tag k="name" v="Demmingsvatna" />
		<tag k="natural" v="water" />
		<tag k="ssr:stedsnr" v="556013" />
	</node>
	<node id="-573742" lat="62.5296999998" lon="6.70607776995">
		<tag k="name" v="Fyllingstranda" />
		<tag k="natural" v="beach" />
		<tag k="ssr:stedsnr" v="520410" />
	</node>
	<node id="-573733" lat="62.4938888846" lon="6.60145277272">
		<tag k="name" v="Kvennhuselva" />
		<tag k="ssr:stedsnr" v="520314" />
		<tag k="waterway" v="stream" />
	</node>
	<node id="-573220" lat="62.4837833297" lon="6.51292222049">
		<tag k="name" v="Lillerestjønna" />
		<tag k="natural" v="water" />
		<tag k="ssr:stedsnr" v="338368" />
	</node>
	<node id="-573731" lat="62.4822222254" lon="6.51341110197">
		<tag k="name" v="Auravågane" />
		<tag k="natural" v="bay" />
		<tag k="ssr:stedsnr" v="520260" />
	</node>
	<node id="-573208" lat="62.4679805533" lon="6.56412499521">
		<tag k="name" v="Honningdalselva" />
		<tag k="ssr:stedsnr" v="338280" />
		<tag k="waterway" v="stream" />
	</node>
	<node id="-573671" lat="62.4841777782" lon="6.55016111796">
		<tag k="name" v="Olvikneset" />
		<tag k="natural" v="cape" />
		<tag k="ssr:stedsnr" v="460367" />
	</node>
	<node id="-573715" lat="62.520744448" lon="6.55714445024">
		<tag k="name" v="Eiteråna" />
		<tag k="ssr:stedsnr" v="520026" />
		<tag k="waterway" v="stream" />
	</node>
	<node id="-573198" lat="62.4888083295" lon="6.5933916724">
		<tag k="name" v="Vassvika" />
		<tag k="ssr:stedsnr" v="338025" />
		<tag k="waterway" v="river" />
	</node>
	<node id="-573196" lat="62.4909749975" lon="6.54854165976">
		<tag k="name" v="Tjønna" />
		<tag k="natural" v="water" />
		<tag k="ssr:stedsnr" v="338013" />
	</node>
	<node id="-573705" lat="62.5060166632" lon="6.73823888325">
		<tag k="alt_name" v="Lilletjønna" />
		<tag k="name" v="Litletjørna" />
		<tag k="natural" v="water" />
		<tag k="ssr:stedsnr" v="497852" />
	</node>
	<node id="-573190" lat="62.5306083369" lon="6.64736666048">
		<tag k="alt_name" v="Yste Korsneset" />
		<tag k="name" v="Ytste Korsneset" />
		<tag k="natural" v="cape" />
		<tag k="ssr:stedsnr" v="337709" />
	</node>
	<node id="-573691" lat="62.4802083364" lon="6.62252778195">
		<tag k="alt_name" v="Haugtjønna" />
		<tag k="name" v="Haugtjørna" />
		<tag k="natural" v="water" />
		<tag k="ssr:stedsnr" v="496241" />
	</node>
	<node id="-573172" lat="62.4623861072" lon="6.57888611757">
		<tag k="name" v="Sætrevatnet" />
		<tag k="natural" v="water" />
		<tag k="ssr:stedsnr" v="314002" />
	</node>
	<node id="-573683" lat="62.4754388886" lon="6.66256110687">
		<tag k="name" v="Valletjønna" />
		<tag k="natural" v="water" />
		<tag k="ssr:stedsnr" v="460473" />
	</node>
	<node id="-573681" lat="62.5353111119" lon="6.82633888029">
		<tag k="name" v="Sævikneset" />
		<tag k="natural" v="cape" />
		<tag k="ssr:stedsnr" v="460460" />
	</node>
	<node id="-573680" lat="62.4691055515" lon="6.61593611573">
		<tag k="name" v="Glomsetelva" />
		<tag k="ssr:stedsnr" v="460454" />
		<tag k="waterway" v="stream" />
	</node>
	<node id="-574189" lat="62.4892555558" lon="6.73197500953">
		<tag k="name" v="Solnørelva" />
		<tag k="ssr:stedsnr" v="946418" />
		<tag k="waterway" v="river" />
	</node>
	<node id="-573164" lat="62.5084666689" lon="6.63252778592">
		<tag k="name" v="Straumsdemma" />
		<tag k="natural" v="water" />
		<tag k="ssr:stedsnr" v="278518" />
	</node>
	<node id="-573160" lat="62.5379194451" lon="6.71378054939">
		<tag k="name" v="Engsetelva" />
		<tag k="ssr:stedsnr" v="278466" />
		<tag k="waterway" v="stream" />
	</node>
	<node id="-573159" lat="62.5319027763" lon="6.73195278556">
		<tag k="name" v="Kasneselva" />
		<tag k="ssr:stedsnr" v="278460" />
		<tag k="waterway" v="stream" />
	</node>
	<node id="-573158" lat="62.5255999985" lon="6.69020277012">
		<tag k="name" v="Nesholmen" />
		<tag k="place" v="islet" />
		<tag k="ssr:stedsnr" v="278457" />
	</node>
	<node id="-574181" lat="62.5341944427" lon="6.82476389478">
		<tag k="name" v="Sævika" />
		<tag k="natural" v="bay" />
		<tag k="ssr:stedsnr" v="946381" />
	</node>
	<node id="-573154" lat="62.5073249965" lon="6.77739721669">
		<tag k="name" v="Apalvikdemma" />
		<tag k="natural" v="water" />
		<tag k="ssr:stedsnr" v="278349" />
	</node>
	<node id="-573664" lat="62.4837888858" lon="6.47964444608">
		<tag k="name" v="Kolda" />
		<tag k="natural" v="bay" />
		<tag k="ssr:stedsnr" v="460135" />
	</node>
	<node id="-573149" lat="62.4959805571" lon="6.50541110287">
		<tag k="name" v="Insteelva" />
		<tag k="ssr:stedsnr" v="278309" />
		<tag k="waterway" v="stream" />
	</node>
	<node id="-573659" lat="62.4888722214" lon="6.53138055325">
		<tag k="name" v="Sagdemme" />
		<tag k="natural" v="water" />
		<tag k="ssr:stedsnr" v="460121" />
	</node>
	<node id="-574169" lat="62.5047972255" lon="6.46452221424">
		<tag k="name" v="Dyrøysundet" />
		<tag k="natural" v="strait" />
		<tag k="ssr:stedsnr" v="946333" />
	</node>
	<node id="-573142" lat="62.4640972205" lon="6.53790555104">
		<tag k="name" v="Botnaelva" />
		<tag k="ssr:stedsnr" v="278417" />
		<tag k="waterway" v="stream" />
	</node>
	<node id="-573650" lat="62.452827782" lon="6.58748056346">
		<tag k="name" v="Tøtelva" />
		<tag k="ssr:stedsnr" v="460028" />
		<tag k="waterway" v="stream" />
	</node>
	<node id="-574156" lat="62.4809749979" lon="6.52990000424">
		<tag k="name" v="Sagholmen" />
		<tag k="place" v="islet" />
		<tag k="ssr:stedsnr" v="945259" />
	</node>
	<node id="-573131" lat="62.5153333372" lon="6.71263055248">
		<tag k="name" v="Barvika" />
		<tag k="natural" v="bay" />
		<tag k="ssr:stedsnr" v="278064" />
	</node>
	<node id="-573640" lat="62.468966663" lon="6.59117778645">
		<tag k="alt_name" v="Lilletjønna" />
		<tag k="name" v="Litletjørna" />
		<tag k="natural" v="water" />
		<tag k="ssr:stedsnr" v="436001" />
	</node>
	<node id="-573644" lat="62.5212055547" lon="6.64112221501">
		<tag k="name" v="Stettetjørna" />
		<tag k="natural" v="water" />
		<tag k="ssr:stedsnr" v="437156" />
	</node>
	<node id="-573638" lat="62.4710472196" lon="6.59523889565">
		<tag k="alt_name" v="Røynavatnet" />
		<tag k="name" v="Røyravatnet" />
		<tag k="natural" v="water" />
		<tag k="ssr:stedsnr" v="435040" />
	</node>
	<node id="-573633" lat="62.516105557" lon="6.73337500818">
		<tag k="name" v="Gytta" />
		<tag k="ssr:stedsnr" v="254862" />
		<tag k="waterway" v="stream" />
	</node>
	<node id="-573631" lat="62.5388388888" lon="6.66135000762">
		<tag k="name" v="Skartjørna" />
		<tag k="natural" v="water" />
		<tag k="ssr:stedsnr" v="254137" />
	</node>
	<node id="-573702" lat="62.5266611139" lon="6.69527221246">
		<tag k="alt_name" v="Storholmen" />
		<tag k="name" v="Kasnesholmen" />
		<tag k="place" v="islet" />
		<tag k="ssr:stedsnr" v="497160" />
	</node>
	<node id="-574119" lat="62.5095888877" lon="6.73633611944">
		<tag k="alt_name" v="Stortjønna" />
		<tag k="name" v="Stortjørna" />
		<tag k="natural" v="water" />
		<tag k="ssr:stedsnr" v="861876" />
	</node>
	<node id="-573604" lat="62.4664166697" lon="6.57881389799">
		<tag k="name" v="Trøgrova" />
		<tag k="ssr:stedsnr" v="217352" />
		<tag k="waterway" v="stream" />
	</node>
	<node id="-573600" lat="62.4832000004" lon="6.58753333786">
		<tag k="name" v="Langedalsvika" />
		<tag k="natural" v="bay" />
		<tag k="ssr:stedsnr" v="217330" />
	</node>
	<node id="-574110" lat="62.4919805529" lon="6.74141945427">
		<tag k="name" v="Solnørelva" />
		<tag k="old_name" v="Salnørelva" />
		<tag k="ssr:stedsnr" v="860353" />
		<tag k="waterway" v="river" />
	</node>
	<node id="-573684" lat="62.4763888918" lon="6.5738416677">
		<tag k="name" v="Ørnakktjønna" />
		<tag k="natural" v="water" />
		<tag k="ssr:stedsnr" v="460477" />
	</node>
	<node id="-573593" lat="62.4818027779" lon="6.53478333743">
		<tag k="name" v="Kalvevika" />
		<tag k="natural" v="bay" />
		<tag k="ssr:stedsnr" v="217271" />
	</node>
	<node id="-574099" lat="62.5160833377" lon="6.73240832946">
		<tag k="name" v="Gryteelva" />
		<tag k="ssr:stedsnr" v="824456" />
		<tag k="waterway" v="stream" />
	</node>
	<node id="-573720" lat="62.4819916685" lon="6.52469444142">
		<tag k="name" v="Sandvika" />
		<tag k="natural" v="bay" />
		<tag k="ssr:stedsnr" v="520086" />
	</node>
	<node id="-574093" lat="62.4632916646" lon="6.58753611652">
		<tag k="name" v="Fremste Demmingsvatn" />
		<tag k="natural" v="water" />
		<tag k="ssr:stedsnr" v="824434" />
		<tag k="water" v="lake" />
	</node>
	<node id="-573575" lat="62.531586113" lon="6.63899444729">
		<tag k="name" v="Engsetdalsvatnet" />
		<tag k="natural" v="water" />
		<tag k="ssr:stedsnr" v="194168" />
		<tag k="water" v="lake" />
	</node>
	<node id="-573573" lat="62.5189138871" lon="6.71285555744">
		<tag k="name" v="Fyllingsvatnet" />
		<tag k="natural" v="water" />
		<tag k="ssr:stedsnr" v="194133" />
		<tag k="water" v="lake" />
	</node>
	<node id="-573570" lat="62.5276583309" lon="6.81607778126">
		<tag k="name" v="Mevatnet" />
		<tag k="natural" v="water" />
		<tag k="ssr:stedsnr" v="193819" />
		<tag k="water" v="lake" />
	</node>
	<node id="-574079" lat="62.4855583333" lon="6.50566389545">
		<tag k="name" v="Slettebakktjønna" />
		<tag k="natural" v="water" />
		<tag k="ssr:stedsnr" v="824316" />
	</node>
	<node id="-574078" lat="62.4815972234" lon="6.52461944038">
		<tag k="name" v="Høyvikneset" />
		<tag k="natural" v="cape" />
		<tag k="ssr:stedsnr" v="824310" />
	</node>
	<node id="-573565" lat="62.4860750028" lon="6.59144167392">
		<tag k="alt_name" v="Svartavatnet" />
		<tag k="name" v="Svortavatnet" />
		<tag k="natural" v="water" />
		<tag k="ssr:stedsnr" v="192238" />
	</node>
	<node id="-573555" lat="62.5201722223" lon="6.69553888363">
		<tag k="name" v="Sandvika" />
		<tag k="natural" v="bay" />
		<tag k="ssr:stedsnr" v="156451" />
	</node>
	<node id="-574065" lat="62.4818472193" lon="6.52788332861">
		<tag k="name" v="Høyvika" />
		<tag k="natural" v="bay" />
		<tag k="ssr:stedsnr" v="824028" />
	</node>
	<node id="-574060" lat="62.529702777" lon="6.63390834004">
		<tag k="name" v="Beinneset" />
		<tag k="natural" v="cape" />
		<tag k="ssr:stedsnr" v="822747" />
	</node>
	<node id="-574056" lat="62.5493972214" lon="6.80273611622">
		<tag k="name" v="Sætreelva" />
		<tag k="ssr:stedsnr" v="801259" />
		<tag k="waterway" v="stream" />
	</node>
	<node id="-574053" lat="62.5440583293" lon="6.72500555356">
		<tag k="name" v="Sætreelva" />
		<tag k="ssr:stedsnr" v="800932" />
		<tag k="waterway" v="stream" />
	</node>
	<node id="-574051" lat="62.5485722231" lon="6.77288054831">
		<tag k="name" v="Skålselva" />
		<tag k="ssr:stedsnr" v="800910" />
		<tag k="waterway" v="stream" />
	</node>
	<node id="-574048" lat="62.5260333328" lon="6.67951945407">
		<tag k="name" v="Kalveneset" />
		<tag k="natural" v="cape" />
		<tag k="ssr:stedsnr" v="800177" />
	</node>
	<node id="-573533" lat="62.4815916675" lon="6.66755276853">
		<tag k="name" v="Versla" />
		<tag k="natural" v="spring" />
		<tag k="ssr:stedsnr" v="156093" />
	</node>
	<node id="-574044" lat="62.4916277738" lon="6.48308610718">
		<tag k="alt_name" v="Rognhaugvatnet" />
		<tag k="name" v="Regnvatnet" />
		<tag k="natural" v="water" />
		<tag k="ssr:stedsnr" v="799247" />
	</node>
	<node id="-574043" lat="62.4898500037" lon="6.46968334173">
		<tag k="name" v="Svartevatnet" />
		<tag k="natural" v="water" />
		<tag k="ssr:stedsnr" v="799248" />
	</node>
	<node id="-573526" lat="62.4675361113" lon="6.61438889739">
		<tag k="name" v="Storelva" />
		<tag k="ssr:stedsnr" v="156064" />
		<tag k="waterway" v="river" />
	</node>
	<node id="-573525" lat="62.518377778" lon="6.71082222434">
		<tag k="name" v="Klubben" />
		<tag k="natural" v="cape" />
		<tag k="ssr:stedsnr" v="156061" />
	</node>
	<node id="-573539" lat="62.5157305516" lon="6.73554443846">
		<tag k="name" v="Gryteelva" />
		<tag k="ssr:stedsnr" v="156289" />
		<tag k="waterway" v="stream" />
	</node>
	<node id="-573519" lat="62.4674472223" lon="6.61050555282">
		<tag k="name" v="Bakkeneset" />
		<tag k="natural" v="cape" />
		<tag k="ssr:stedsnr" v="156409" />
	</node>
	<node id="-574030" lat="62.518080552" lon="6.53004166591">
		<tag k="name" v="Ådalsbekken" />
		<tag k="ssr:stedsnr" v="763444" />
		<tag k="waterway" v="stream" />
	</node>
	<node id="-573587" lat="62.4865638885" lon="6.68023333359">
		<tag k="name" v="Igletjønna" />
		<tag k="natural" v="water" />
		<tag k="ssr:stedsnr" v="217053" />
	</node>
	<node id="-573516" lat="62.4971166665" lon="6.72922221634">
		<tag k="name" v="Vågselva" />
		<tag k="ssr:stedsnr" v="156042" />
		<tag k="waterway" v="river" />
	</node>
	<node id="-573514" lat="62.5181527738" lon="6.73130833287">
		<tag k="name" v="Timbreneset" />
		<tag k="natural" v="cape" />
		<tag k="ssr:stedsnr" v="156034" />
	</node>
	<node id="-573536" lat="62.4738694454" lon="6.59557222571">
		<tag k="name" v="Fugledalselva" />
		<tag k="ssr:stedsnr" v="156228" />
		<tag k="waterway" v="stream" />
	</node>
	<node id="-573499" lat="62.4927416707" lon="6.47761389582">
		<tag k="name" v="Tremannsvatna" />
		<tag k="natural" v="water" />
		<tag k="ssr:stedsnr" v="132223" />
	</node>
	<node id="-573998" lat="62.5335805561" lon="6.67153332984">
		<tag k="name" v="Knutneset" />
		<tag k="natural" v="cape" />
		<tag k="ssr:stedsnr" v="761757" />
	</node>
	<node id="-573483" lat="62.5345666688" lon="6.69414721286">
		<tag k="name" v="Lassehaugneset" />
		<tag k="natural" v="cape" />
		<tag k="ssr:stedsnr" v="96432" />
	</node>
	<node id="-573481" lat="62.5324611127" lon="6.7222527722">
		<tag k="name" v="Engsettjønna" />
		<tag k="natural" v="water" />
		<tag k="ssr:stedsnr" v="96419" />
	</node>
	<node id="-573480" lat="62.5435638871" lon="6.8484805638">
		<tag k="name" v="Storneset" />
		<tag k="natural" v="cape" />
		<tag k="ssr:stedsnr" v="96413" />
	</node>
	<node id="-573990" lat="62.5175638931" lon="6.70837221565">
		<tag k="name" v="Barvikneset" />
		<tag k="natural" v="cape" />
		<tag k="ssr:stedsnr" v="740133" />
	</node>
	<node id="-573476" lat="62.5212444423" lon="6.67935000857">
		<tag k="name" v="Grønneset" />
		<tag k="natural" v="cape" />
		<tag k="ssr:stedsnr" v="96476" />
	</node>
	<node id="-573987" lat="62.497302778" lon="6.76526944067">
		<tag k="name" v="Engjavatnet" />
		<tag k="natural" v="water" />
		<tag k="old_name" v="Engavatnet" />
		<tag k="ssr:stedsnr" v="739277" />
	</node>
	<node id="-573461" lat="62.468497223" lon="6.54348333673">
		<tag k="name" v="Tveråna" />
		<tag k="ssr:stedsnr" v="96120" />
		<tag k="waterway" v="stream" />
	</node>
</osm>
