<?xml version="1.0" encoding="UTF-8"?>
<osm generator="osmapis" version="0.6">
	<node id="-573311" lat="62.4852250046" lon="6.50795833941">
		<tag k="name" v="Slettebakkmyrane" />
		<tag k="natural" v="wetland" />
		<tag k="ssr:stedsnr" v="885278" />
	</node>
	<node id="-573181" lat="62.5152638929" lon="6.64304999996">
		<tag k="name" v="Ringemyra" />
		<tag k="natural" v="wetland" />
		<tag k="ssr:stedsnr" v="314173" />
	</node>
	<node id="-573871" lat="62.5026999986" lon="6.70796945301">
		<tag k="name" v="Nymarka" />
		<tag k="place" v="locality" />
		<tag k="ssr:stedsnr" v="642060" />
	</node>
	<node id="-573557" lat="62.5036333344" lon="6.67173056403">
		<tag k="name" v="Ljøsemyra" />
		<tag k="natural" v="wetland" />
		<tag k="ssr:stedsnr" v="156454" />
	</node>
	<node id="-573939" lat="62.4905972237" lon="6.5845500093">
		<tag k="name" v="Høgsætermyra" />
		<tag k="natural" v="wetland" />
		<tag k="ssr:stedsnr" v="702288" />
	</node>
	<node id="-573843" lat="62.4839111138" lon="6.53438611608">
		<tag k="name" v="Bødemma" />
		<tag k="natural" v="wetland" />
		<tag k="ssr:stedsnr" v="641073" />
	</node>
	<node id="-574064" lat="62.5134527793" lon="6.63888888514">
		<tag k="name" v="Pehola" />
		<tag k="place" v="locality" />
		<tag k="ssr:stedsnr" v="824023" />
	</node>
	<node id="-573422" lat="62.5026583353" lon="6.67845278519">
		<tag k="name" v="Prestegardsskogen" />
		<tag k="place" v="locality" />
		<tag k="ssr:stedsnr" v="35529" />
	</node>
	<node id="-574188" lat="62.4813083316" lon="6.72730833017">
		<tag k="name" v="Djupdalsmyra" />
		<tag k="natural" v="wetland" />
		<tag k="ssr:stedsnr" v="946410" />
	</node>
	<node id="-573479" lat="62.5334583302" lon="6.79762221918">
		<tag k="historic" v="shieling" />
		<tag k="name" v="Nevrevollen" />
		<tag k="place" v="locality" />
		<tag k="ssr:stedsnr" v="96412" />
	</node>
	<node id="-573416" lat="62.541380559" lon="6.69983054878">
		<tag k="name" v="Kalvegjæra" />
		<tag k="place" v="locality" />
		<tag k="ssr:stedsnr" v="35495" />
	</node>
	<node id="-573794" lat="62.4915694405" lon="6.54963332505">
		<tag k="name" v="Demmemyrane" />
		<tag k="natural" v="wetland" />
		<tag k="ssr:stedsnr" v="581346" />
	</node>
	<node id="-573532" lat="62.4962361125" lon="6.54448611804">
		<tag k="name" v="Myrane" />
		<tag k="natural" v="wetland" />
		<tag k="ssr:stedsnr" v="156094" />
	</node>
	<node id="-574171" lat="62.5155666691" lon="6.47751388274">
		<tag k="name" v="Mauremyrane" />
		<tag k="natural" v="wetland" />
		<tag k="ssr:stedsnr" v="946337" />
	</node>
	<node id="-573397" lat="62.4967305568" lon="6.53178333715">
		<tag k="name" v="Fonna" />
		<tag k="place" v="locality" />
		<tag k="ssr:stedsnr" v="35129" />
	</node>
	<node id="-573394" lat="62.479074998" lon="6.67958332397">
		<tag k="name" v="Ospura" />
		<tag k="natural" v="scree" />
		<tag k="ssr:stedsnr" v="35074" />
	</node>
	<node id="-573136" lat="62.5193750008" lon="6.51685833456">
		<tag k="name" v="Hagen" />
		<tag k="place" v="locality" />
		<tag k="ssr:stedsnr" v="278109" />
	</node>
	<node id="-573135" lat="62.4921361092" lon="6.53358056098">
		<tag k="name" v="Mælemyra" />
		<tag k="natural" v="wetland" />
		<tag k="ssr:stedsnr" v="278101" />
	</node>
	<node id="-573709" lat="62.5031138889" lon="6.66055833475">
		<tag k="name" v="Øyra" />
		<tag k="place" v="locality" />
		<tag k="ssr:stedsnr" v="520001" />
	</node>
	<node id="-573898" lat="62.5417666702" lon="6.79340000479">
		<tag k="historic" v="shieling" />
		<tag k="name" v="Engsetsætra" />
		<tag k="place" v="locality" />
		<tag k="ssr:stedsnr" v="642808" />
	</node>
	<node id="-573129" lat="62.5215694427" lon="6.63901667313">
		<tag k="name" v="Stettemyra" />
		<tag k="natural" v="wetland" />
		<tag k="ssr:stedsnr" v="278052" />
	</node>
	<node id="-573512" lat="62.4876138924" lon="6.62706389306">
		<tag k="name" v="Myra" />
		<tag k="natural" v="wetland" />
		<tag k="ssr:stedsnr" v="156020" />
	</node>
	<node id="-573383" lat="62.5166888926" lon="6.62157500646">
		<tag k="name" v="Gjerda" />
		<tag k="place" v="locality" />
		<tag k="ssr:stedsnr" v="35024" />
	</node>
	<node id="-573893" lat="62.5072777782" lon="6.72658054811">
		<tag k="name" v="Beinmyra" />
		<tag k="natural" v="wetland" />
		<tag k="ssr:stedsnr" v="642441" />
	</node>
	<node id="-573503" lat="62.5214777804" lon="6.51047778385">
		<tag k="name" v="Brunamyra" />
		<tag k="natural" v="wetland" />
		<tag k="ssr:stedsnr" v="133173" />
	</node>
	<node id="-574141" lat="62.5141833377" lon="6.66762777605">
		<tag k="name" v="Stormyra" />
		<tag k="natural" v="wetland" />
		<tag k="ssr:stedsnr" v="945003" />
	</node>
	<node id="-573495" lat="62.4765611095" lon="6.64105832626">
		<tag k="name" v="Hjellmyra" />
		<tag k="natural" v="wetland" />
		<tag k="ssr:stedsnr" v="132021" />
	</node>
	<node id="-574004" lat="62.5141750034" lon="6.6723500002">
		<tag k="name" v="Rognskarmyra" />
		<tag k="natural" v="wetland" />
		<tag k="ssr:stedsnr" v="763044" />
	</node>
	<node id="-573235" lat="62.5276444412" lon="6.59689721628">
		<tag k="name" v="Stormyra" />
		<tag k="natural" v="wetland" />
		<tag k="ssr:stedsnr" v="375206" />
	</node>
	<node id="-573234" lat="62.5255722259" lon="6.63288611704">
		<tag k="name" v="Leitamyrane" />
		<tag k="natural" v="wetland" />
		<tag k="ssr:stedsnr" v="375136" />
	</node>
	<node id="-573128" lat="62.5405916682" lon="6.68221944005">
		<tag k="name" v="Flatmark" />
		<tag k="natural" v="wetland" />
		<tag k="ssr:stedsnr" v="278009" />
	</node>
	<node id="-573511" lat="62.4792638894" lon="6.56524444998">
		<tag k="historic" v="shieling" />
		<tag k="name" v="Sætra" />
		<tag k="place" v="locality" />
		<tag k="ssr:stedsnr" v="156007" />
	</node>
	<node id="-573224" lat="62.5118861135" lon="6.61515833147">
		<tag k="name" v="Almurene" />
		<tag k="natural" v="scree" />
		<tag k="ssr:stedsnr" v="338406" />
	</node>
	<node id="-573607" lat="62.4769972209" lon="6.52273332384">
		<tag k="name" v="Myrbærmyrane" />
		<tag k="natural" v="wetland" />
		<tag k="ssr:stedsnr" v="217366" />
	</node>
	<node id="-573734" lat="62.4872388866" lon="6.61160277027">
		<tag k="name" v="Blokkebærmyra" />
		<tag k="natural" v="wetland" />
		<tag k="ssr:stedsnr" v="520324" />
	</node>
	<node id="-573603" lat="62.4674194418" lon="6.55253055725">
		<tag k="name" v="Sætremarka" />
		<tag k="place" v="locality" />
		<tag k="ssr:stedsnr" v="217348" />
	</node>
	<node id="-573985" lat="62.5255333359" lon="6.57098054629">
		<tag k="name" v="Auleskarmyrane" />
		<tag k="natural" v="wetland" />
		<tag k="ssr:stedsnr" v="739161" />
	</node>
	<node id="-573856" lat="62.4929222253" lon="6.56242221943">
		<tag k="name" v="Depleskarmyra" />
		<tag k="natural" v="wetland" />
		<tag k="ssr:stedsnr" v="641253" />
	</node>
	<node id="-573339" lat="62.4806555587" lon="6.72359721727">
		<tag k="name" v="Barlindteigen" />
		<tag k="place" v="locality" />
		<tag k="ssr:stedsnr" v="703725" />
	</node>
	<node id="-573999" lat="62.5389166713" lon="6.64531667268">
		<tag k="name" v="Nymarka" />
		<tag k="place" v="locality" />
		<tag k="ssr:stedsnr" v="761764" />
	</node>
	<node id="-574101" lat="62.5051388908" lon="6.69550556012">
		<tag k="name" v="Solskinsmyra" />
		<tag k="natural" v="wetland" />
		<tag k="ssr:stedsnr" v="824467" />
	</node>
	<node id="-573588" lat="62.4912388919" lon="6.7299250075">
		<tag k="name" v="Hølsbøen" />
		<tag k="place" v="locality" />
		<tag k="ssr:stedsnr" v="217054" />
	</node>
	<node id="-573294" lat="62.4908222236" lon="6.57866945385">
		<tag k="historic" v="shieling" />
		<tag k="name" v="Høgsætra" />
		<tag k="place" v="locality" />
		<tag k="ssr:stedsnr" v="885024" />
	</node>
	<node id="-574098" lat="62.514011111" lon="6.69849723166">
		<tag k="name" v="Smalebeitet" />
		<tag k="place" v="locality" />
		<tag k="ssr:stedsnr" v="824455" />
	</node>
	<node id="-573713" lat="62.5202333332" lon="6.62584999586">
		<tag k="name" v="Fløtane" />
		<tag k="place" v="locality" />
		<tag k="ssr:stedsnr" v="520013" />
	</node>
	<node id="-573456" lat="62.5062083355" lon="6.70100000079">
		<tag k="name" v="Olmanngjerda" />
		<tag k="place" v="locality" />
		<tag k="ssr:stedsnr" v="96057" />
	</node>
	<node id="-573327" lat="62.5416861088" lon="6.72246667204">
		<tag k="name" v="Litle Engsetgjæra" />
		<tag k="place" v="locality" />
		<tag k="ssr:stedsnr" v="885422" />
	</node>
	<node id="-573453" lat="62.4933472232" lon="6.55490000444">
		<tag k="name" v="Demmene" />
		<tag k="natural" v="wetland" />
		<tag k="ssr:stedsnr" v="96044" />
	</node>
	<node id="-573836" lat="62.521538893" lon="6.55666666966">
		<tag k="name" v="Myrane" />
		<tag k="natural" v="wetland" />
		<tag k="ssr:stedsnr" v="641020" />
	</node>
	<node id="-573451" lat="62.5131527758" lon="6.64452499428">
		<tag k="name" v="Urene" />
		<tag k="natural" v="scree" />
		<tag k="ssr:stedsnr" v="96039" />
	</node>
	<node id="-573194" lat="62.5274499983" lon="6.59226110525">
		<tag k="name" v="Stormyra" />
		<tag k="natural" v="wetland" />
		<tag k="ssr:stedsnr" v="338006" />
	</node>
	<node id="-573833" lat="62.4769194447" lon="6.65926667436">
		<tag k="name" v="Stormyra" />
		<tag k="natural" v="wetland" />
		<tag k="ssr:stedsnr" v="641008" />
	</node>
	<node id="-573965" lat="62.541797225" lon="6.71108332794">
		<tag k="name" v="Eikrolgjæra" />
		<tag k="place" v="locality" />
		<tag k="ssr:stedsnr" v="703447" />
	</node>
	<node id="-573315" lat="62.5297027795" lon="6.78134723048">
		<tag k="name" v="Fyllingsgjæra" />
		<tag k="place" v="locality" />
		<tag k="ssr:stedsnr" v="885329" />
	</node>
	<node id="-573615" lat="62.5221694412" lon="6.64909165805">
		<tag k="name" v="Djupmyrane" />
		<tag k="natural" v="wetland" />
		<tag k="ssr:stedsnr" v="217466" />
	</node>
	<node id="-573569" lat="62.5139805556" lon="6.67301389857">
		<tag k="name" v="Rogneskarmyra" />
		<tag k="natural" v="wetland" />
		<tag k="ssr:stedsnr" v="193145" />
	</node>
</osm>
