<?xml version="1.0" encoding="UTF-8"?>
<osm generator="osmapis" version="0.6">
	<node id="-573948" lat="62.5145666676" lon="6.45820276801">
		<tag k="bridge" v="yes" />
		<tag k="layer" v="1" />
		<tag k="name" v="Taftasundbrua" />
		<tag k="ssr:stedsnr" v="703014" />
	</node>
	<node id="-573560" lat="62.4959861128" lon="6.71872777952">
		<tag k="layer" v="-1" />
		<tag k="name" v="Skodjevågen" />
		<tag k="ssr:stedsnr" v="165768" />
		<tag k="tunnel" v="yes" />
	</node>
	<node id="-573935" lat="62.4900105961" lon="6.60473108461">
		<tag k="junction" v="yes" />
		<tag k="name" v="Digernesskiftet" />
		<tag k="place" v="locality" />
		<tag k="ssr:stedsnr" v="702279" />
	</node>
	<node id="-573927" lat="62.4856888901" lon="6.48844999345">
		<tag k="layer" v="-1" />
		<tag k="name" v="Reiakvamundergangen" />
		<tag k="ssr:stedsnr" v="696874" />
		<tag k="tunnel" v="yes" />
	</node>
	<node id="-573777" lat="62.4826416691" lon="6.64605832726">
		<tag k="highway" v="path" />
		<tag k="name" v="Steingota" />
		<tag k="ssr:stedsnr" v="581045" />
	</node>
	<node id="-573156" lat="62.4641444439" lon="6.55704167607">
		<tag k="highway" v="path" />
		<tag k="name" v="Styggestigen" />
		<tag k="ssr:stedsnr" v="278388" />
	</node>
	<node id="-573240" lat="62.4657305552" lon="6.61498888178">
		<tag k="bridge" v="yes" />
		<tag k="layer" v="1" />
		<tag k="name" v="Glomsetbrua" />
		<tag k="ssr:stedsnr" v="392275" />
	</node>
	<node id="-574137" lat="62.519280556" lon="6.62583888933">
		<tag k="bridge" v="yes" />
		<tag k="layer" v="1" />
		<tag k="name" v="Skodjevågbrua" />
		<tag k="ssr:stedsnr" v="939872" />
	</node>
	<node id="-573393" lat="62.4834888868" lon="6.61024722888">
		<tag k="highway" v="path" />
		<tag k="name" v="Dyrstien" />
		<tag k="ssr:stedsnr" v="35071" />
	</node>
	<node id="-573648" lat="62.4848222267" lon="6.50220833574">
		<tag k="bridge" v="yes" />
		<tag k="layer" v="1" />
		<tag k="name" v="Slettebakkbrua" />
		<tag k="ssr:stedsnr" v="453885" />
	</node>
	<node id="-573647" lat="62.4886833307" lon="6.62074722961">
		<tag k="layer" v="-1" />
		<tag k="name" v="Svortaovergangen" />
		<tag k="ssr:stedsnr" v="453868" />
		<tag k="tunnel" v="yes" />
	</node>
	<node id="-573771" lat="62.4992666694" lon="6.73941388969">
		<tag k="bridge" v="yes" />
		<tag k="layer" v="1" />
		<tag k="name" v="Midtlidbrua" />
		<tag k="ssr:stedsnr" v="574909" />
	</node>
	<node id="-573770" lat="62.4879861152" lon="6.72713333016">
		<tag k="layer" v="-1" />
		<tag k="name" v="Solnørundergangen" />
		<tag k="ssr:stedsnr" v="574895" />
		<tag k="tunnel" v="yes" />
	</node>
	<node id="-573897" lat="62.517888893" lon="6.6314249941">
		<tag k="highway" v="path" />
		<tag k="name" v="Geitastigen" />
		<tag k="ssr:stedsnr" v="642467" />
	</node>
	<node id="-573255" lat="62.5056999997" lon="6.51340833119">
		<tag k="highway" v="path" />
		<tag k="name" v="Stigen" />
		<tag k="ssr:stedsnr" v="399108" />
	</node>
	<node id="-573124" lat="62.4910222262" lon="6.7264861113">
		<tag k="layer" v="-1" />
		<tag k="name" v="Hølsbøundergangen" />
		<tag k="ssr:stedsnr" v="271903" />
		<tag k="tunnel" v="yes" />
	</node>
	<node id="-573635" lat="62.5018916703" lon="6.62432777603">
		<tag k="bridge" v="yes" />
		<tag k="layer" v="1" />
		<tag k="name" v="Straumsbrua" />
		<tag k="ssr:stedsnr" v="266638" />
	</node>
	<node id="-573506" lat="62.4997027788" lon="6.62179166645">
		<tag k="bridge" v="yes" />
		<tag k="layer" v="1" />
		<tag k="name" v="Grøstraumsbrua" />
		<tag k="ssr:stedsnr" v="144659" />
	</node>
	<node id="-573372" lat="62.4839861116" lon="6.51594722231">
		<tag k="bridge" v="yes" />
		<tag k="layer" v="1" />
		<tag k="name" v="Brusdalsgangbrua" />
		<tag k="ssr:stedsnr" v="28272" />
	</node>
	<node id="-574138" lat="62.5360416694" lon="6.685125005">
		<tag k="bridge" v="yes" />
		<tag k="layer" v="1" />
		<tag k="name" v="Erstadbrua" />
		<tag k="ssr:stedsnr" v="939878" />
	</node>
	<node id="-573241" lat="62.4868527777" lon="6.63356666622">
		<tag k="layer" v="-1" />
		<tag k="name" v="Svortaundergangen" />
		<tag k="ssr:stedsnr" v="392883" />
		<tag k="tunnel" v="yes" />
	</node>
	<node id="-574136" lat="62.5022361111" lon="6.61666945248">
		<tag k="bridge" v="yes" />
		<tag k="layer" v="1" />
		<tag k="name" v="Skodjebrua" />
		<tag k="ssr:stedsnr" v="934600" />
	</node>
	<node id="-573749" lat="62.5126555592" lon="6.66860833832">
		<tag k="highway" v="path" />
		<tag k="name" v="Reitestigen" />
		<tag k="ssr:stedsnr" v="520457" />
	</node>
	<node id="-574002" lat="62.5114444438" lon="6.6695055497">
		<tag k="highway" v="path" />
		<tag k="name" v="Løypa" />
		<tag k="ssr:stedsnr" v="763003" />
	</node>
	<node id="-573997" lat="62.4855527788" lon="6.51148888484">
		<tag k="layer" v="-1" />
		<tag k="name" v="Slettebakkundergangen" />
		<tag k="ssr:stedsnr" v="756915" />
		<tag k="tunnel" v="yes" />
	</node>
	<node id="-573612" lat="62.5110749966" lon="6.6933194476">
		<tag k="highway" v="path" />
		<tag k="name" v="Reiteløypa" />
		<tag k="ssr:stedsnr" v="217442" />
	</node>
	<node id="-573223" lat="62.5212499959" lon="6.63155832665">
		<tag k="junction" v="yes" />
		<tag k="name" v="Stetteskiftet" />
		<tag k="place" v="locality" />
		<tag k="ssr:stedsnr" v="338401" />
	</node>
	<node id="-573507" lat="62.4899222195" lon="6.61181389128">
		<tag k="bridge" v="yes" />
		<tag k="layer" v="1" />
		<tag k="name" v="Svortabrua" />
		<tag k="ssr:stedsnr" v="149228" />
	</node>
	<node id="-573200" lat="62.4848027774" lon="6.61974166474">
		<tag k="highway" v="path" />
		<tag k="name" v="Sandgota" />
		<tag k="ssr:stedsnr" v="338056" />
	</node>
	<node id="-573455" lat="62.5025000004" lon="6.61640278591">
		<tag k="bridge" v="yes" />
		<tag k="layer" v="1" />
		<tag k="name" v="Straumsbrua" />
		<tag k="ssr:stedsnr" v="96052" />
	</node>
	<node id="-573707" lat="62.5357972235" lon="6.70744167323">
		<tag k="bridge" v="yes" />
		<tag k="layer" v="1" />
		<tag k="name" v="Engsetbrua" />
		<tag k="ssr:stedsnr" v="514845" />
	</node>
	<node id="-573578" lat="62.4880944413" lon="6.72713611314">
		<tag k="bridge" v="yes" />
		<tag k="layer" v="1" />
		<tag k="name" v="Solnørbrua" />
		<tag k="ssr:stedsnr" v="211264" />
	</node>
	<node id="-574089" lat="62.4793583352" lon="6.66620000052">
		<tag k="junction" v="yes" />
		<tag k="name" v="Valleskiftet" />
		<tag k="place" v="locality" />
		<tag k="ssr:stedsnr" v="824404" />
	</node>
	<node id="-573830" lat="62.482930556" lon="6.52855555284">
		<tag k="layer" v="-1" />
		<tag k="name" v="Brusdalsundergangen" />
		<tag k="ssr:stedsnr" v="635848" />
		<tag k="tunnel" v="yes" />
	</node>
	<node id="-573445" lat="62.5206611118" lon="6.73689721482">
		<tag k="bridge" v="yes" />
		<tag k="layer" v="1" />
		<tag k="name" v="Fyllingsbrua" />
		<tag k="ssr:stedsnr" v="89875" />
	</node>
	<node id="-573188" lat="62.5312583369" lon="6.61783610368">
		<tag k="bridge" v="yes" />
		<tag k="layer" v="1" />
		<tag k="name" v="Vadsetbrua" />
		<tag k="ssr:stedsnr" v="332853" />
	</node>
	<node id="-573443" lat="62.5014583352" lon="6.62082777768">
		<tag k="bridge" v="yes" />
		<tag k="layer" v="1" />
		<tag k="name" v="Heggjestraumsbrua" />
		<tag k="ssr:stedsnr" v="84664" />
	</node>
	<node id="-573193" lat="62.5096666653" lon="6.64090555062">
		<tag k="highway" v="path" />
		<tag k="name" v="Stigen" />
		<tag k="ssr:stedsnr" v="338004" />
	</node>
</osm>
