<?xml version="1.0" encoding="UTF-8"?>
<osm generator="osmapis" version="0.6">
	<node id="-574464" lat="62.5023388907" lon="6.59880555633">
		<tag k="name" v="Digernessundet" />
		<tag k="natural" v="strait" />
		<tag k="ssr:stedsnr" v="217354" />
	</node>
	<node id="-574974" lat="62.5138249992" lon="6.46343333658">
		<tag k="name" v="Maurneset" />
		<tag k="natural" v="cape" />
		<tag k="ssr:stedsnr" v="861166" />
	</node>
	<node id="-574461" lat="62.4993944408" lon="6.55898889396">
		<tag k="name" v="Lillejamtholmen" />
		<tag k="place" v="islet" />
		<tag k="ssr:stedsnr" v="217346" />
	</node>
	<node id="-574460" lat="62.4971972253" lon="6.56975554578">
		<tag k="name" v="Nøre Vågen" />
		<tag k="natural" v="bay" />
		<tag k="ssr:stedsnr" v="217344" />
	</node>
	<node id="-574971" lat="62.5010722209" lon="6.62375834061">
		<tag k="fixme" v="multiple name tags, choose one and add the other to alt_name" />
		<tag k="name" v="Kasholmen;Straumsholmen" />
		<tag k="place" v="islet" />
		<tag k="ssr:stedsnr" v="861103" />
	</node>
	<node id="-574970" lat="62.5049611096" lon="6.58658332717">
		<tag k="name" v="Syrholmen" />
		<tag k="place" v="islet" />
		<tag k="ssr:stedsnr" v="861102" />
	</node>
	<node id="-574456" lat="62.4993277737" lon="6.5957249969">
		<tag k="name" v="Naustbukta" />
		<tag k="natural" v="bay" />
		<tag k="ssr:stedsnr" v="217321" />
	</node>
	<node id="-574292" lat="62.5133888865" lon="6.58172222658">
		<tag k="name" v="Opskarvika" />
		<tag k="natural" v="bay" />
		<tag k="ssr:stedsnr" v="72119" />
	</node>
	<node id="-574454" lat="62.4764083349" lon="6.67896944998">
		<tag k="name" v="Klubben" />
		<tag k="natural" v="cape" />
		<tag k="ssr:stedsnr" v="217316" />
	</node>
	<node id="-574963" lat="62.4941055538" lon="6.44980832558">
		<tag k="name" v="Høyvika" />
		<tag k="natural" v="bay" />
		<tag k="ssr:stedsnr" v="841436" />
	</node>
	<node id="-574962" lat="62.504194442" lon="6.62686112089">
		<tag k="name" v="Saghusbukta" />
		<tag k="natural" v="bay" />
		<tag k="ssr:stedsnr" v="824482" />
	</node>
	<node id="-574035" lat="62.5000916685" lon="6.66083334125">
		<tag k="fixme" v="consider seamark:type=rock or natural=shoal" />
		<tag k="name" v="Småskjera" />
		<tag k="place" v="islet" />
		<tag k="ssr:stedsnr" v="314100" />
	</node>
	<node id="-574448" lat="62.4623999975" lon="6.63360278188">
		<tag k="name" v="Juvika" />
		<tag k="natural" v="bay" />
		<tag k="ssr:stedsnr" v="217068" />
	</node>
	<node id="-574956" lat="62.4914027819" lon="6.71280276875">
		<tag k="name" v="Mastrevika" />
		<tag k="natural" v="bay" />
		<tag k="ssr:stedsnr" v="824443" />
	</node>
	<node id="-574951" lat="62.4631472256" lon="6.64407499582">
		<tag k="name" v="Bøllsteinsvika" />
		<tag k="natural" v="bay" />
		<tag k="ssr:stedsnr" v="824416" />
	</node>
	<node id="-574436" lat="62.4479416681" lon="6.57799722338">
		<tag k="alt_name" v="Rognneset" />
		<tag k="name" v="Rogneneset" />
		<tag k="natural" v="cape" />
		<tag k="ssr:stedsnr" v="202317" />
	</node>
	<node id="-574947" lat="62.4468833346" lon="6.57171388043">
		<tag k="name" v="Løskjeret" />
		<tag k="place" v="locality" />
		<tag k="seamark:type" v="rock" />
		<tag k="ssr:stedsnr" v="824403" />
	</node>
	<node id="-574433" lat="62.5035190379" lon="6.47751443786">
		<tag k="name" v="Klubben" />
		<tag k="natural" v="cape" />
		<tag k="ssr:stedsnr" v="194147" />
	</node>
	<node id="-574942" lat="62.4965749985" lon="6.57054444316">
		<tag k="name" v="Søre Vågen" />
		<tag k="natural" v="bay" />
		<tag k="ssr:stedsnr" v="824368" />
	</node>
	<node id="-574941" lat="62.4880333334" lon="6.64351110989">
		<tag k="name" v="Grønholmen" />
		<tag k="place" v="islet" />
		<tag k="ssr:stedsnr" v="824366" />
	</node>
	<node id="-574940" lat="62.4999194474" lon="6.58471944864">
		<tag k="name" v="Bøvikneset" />
		<tag k="natural" v="cape" />
		<tag k="ssr:stedsnr" v="824345" />
	</node>
	<node id="-574458" lat="62.4988027776" lon="6.60289999037">
		<tag k="name" v="Karlholmen" />
		<tag k="place" v="islet" />
		<tag k="ssr:stedsnr" v="217324" />
	</node>
	<node id="-574426" lat="62.4944333293" lon="6.66764723134">
		<tag k="name" v="Skodjevika" />
		<tag k="natural" v="bay" />
		<tag k="ssr:stedsnr" v="192242" />
	</node>
	<node id="-574287" lat="62.4909444424" lon="6.72342499065">
		<tag k="name" v="Dragsundet" />
		<tag k="natural" v="strait" />
		<tag k="ssr:stedsnr" v="52057" />
	</node>
	<node id="-574372" lat="62.4584777745" lon="6.60913889125">
		<tag k="name" v="Nonsvikholmen" />
		<tag k="place" v="islet" />
		<tag k="ssr:stedsnr" v="156029" />
	</node>
	<node id="-574934" lat="62.5167972213" lon="6.50242499142">
		<tag k="name" v="Naustholmen" />
		<tag k="place" v="islet" />
		<tag k="ssr:stedsnr" v="824291" />
	</node>
	<node id="-574933" lat="62.5015527802" lon="6.53082776919">
		<tag k="name" v="Grøtvika" />
		<tag k="natural" v="bay" />
		<tag k="ssr:stedsnr" v="824145" />
	</node>
	<node id="-574420" lat="62.4956166698" lon="6.60133888765">
		<tag k="name" v="Saltkjelsvika" />
		<tag k="natural" v="bay" />
		<tag k="ssr:stedsnr" v="172005" />
	</node>
	<node id="-574927" lat="62.4851166665" lon="6.71852499516">
		<tag k="name" v="Lauvvika" />
		<tag k="natural" v="bay" />
		<tag k="ssr:stedsnr" v="824066" />
	</node>
	<node id="-574920" lat="62.5072111116" lon="6.61181944022">
		<tag k="name" v="Mevika" />
		<tag k="natural" v="bay" />
		<tag k="ssr:stedsnr" v="824003" />
	</node>
	<node id="-574407" lat="62.4625194453" lon="6.63197777531">
		<tag k="name" v="Fjøsvikneset" />
		<tag k="natural" v="cape" />
		<tag k="ssr:stedsnr" v="156372" />
	</node>
	<node id="-574405" lat="62.4650638911" lon="6.6602861015">
		<tag k="fixme" v="consider seamark:type=rock or natural=shoal" />
		<tag k="name" v="Valleskjeret" />
		<tag k="place" v="islet" />
		<tag k="ssr:stedsnr" v="156360" />
	</node>
	<node id="-574914" lat="62.5083388914" lon="6.52711667114">
		<tag k="name" v="Tøssebruneset" />
		<tag k="natural" v="cape" />
		<tag k="ssr:stedsnr" v="801143" />
	</node>
	<node id="-574401" lat="62.5152611113" lon="6.60901111249">
		<tag k="name" v="Båtvikneset" />
		<tag k="natural" v="cape" />
		<tag k="ssr:stedsnr" v="156323" />
	</node>
	<node id="-574399" lat="62.4985111085" lon="6.59989445023">
		<tag k="name" v="Lilleskjeret" />
		<tag k="natural" v="beach" />
		<tag k="place" v="locality" />
		<tag k="ssr:stedsnr" v="156293" />
	</node>
	<node id="-574897" lat="62.4606611127" lon="6.6299777721">
		<tag k="name" v="Revet" />
		<tag k="natural" v="shoal" />
		<tag k="place" v="locality" />
		<tag k="ssr:stedsnr" v="779959" />
	</node>
	<node id="-574896" lat="62.5036388914" lon="6.50511111358">
		<tag k="name" v="Klomreneset" />
		<tag k="natural" v="cape" />
		<tag k="ssr:stedsnr" v="779086" />
	</node>
	<node id="-574522" lat="62.5138083336" lon="6.60491111901">
		<tag k="name" v="Storvika" />
		<tag k="natural" v="bay" />
		<tag k="ssr:stedsnr" v="460131" />
	</node>
	<node id="-574381" lat="62.4955638928" lon="6.61030833287">
		<tag k="name" v="Sjukestranda" />
		<tag k="natural" v="beach" />
		<tag k="place" v="locality" />
		<tag k="ssr:stedsnr" v="156419" />
	</node>
	<node id="-574892" lat="62.5023249974" lon="6.66016943978">
		<tag k="name" v="Øyraneset" />
		<tag k="natural" v="cape" />
		<tag k="ssr:stedsnr" v="763486" />
	</node>
	<node id="-574891" lat="62.4899805573" lon="6.72337499481">
		<tag k="name" v="Søre Dragsundet" />
		<tag k="natural" v="strait" />
		<tag k="ssr:stedsnr" v="763465" />
	</node>
	<node id="-574890" lat="62.494627782" lon="6.71685278593">
		<tag k="name" v="Jaktevika" />
		<tag k="natural" v="bay" />
		<tag k="ssr:stedsnr" v="763462" />
	</node>
	<node id="-574377" lat="62.4882916706" lon="6.69530278543">
		<tag k="name" v="Vaulen" />
		<tag k="natural" v="bay" />
		<tag k="ssr:stedsnr" v="156054" />
	</node>
	<node id="-574887" lat="62.4824666671" lon="6.6527000052">
		<tag k="name" v="Litlevågen" />
		<tag k="natural" v="bay" />
		<tag k="ssr:stedsnr" v="763373" />
	</node>
	<node id="-574886" lat="62.4840361099" lon="6.66625556341">
		<tag k="name" v="Brennsneset" />
		<tag k="natural" v="cape" />
		<tag k="ssr:stedsnr" v="763371" />
	</node>
	<node id="-574193" lat="62.5038611104" lon="6.63859166738">
		<tag k="name" v="Hjellvika" />
		<tag k="natural" v="bay" />
		<tag k="ssr:stedsnr" v="885486" />
	</node>
	<node id="-574884" lat="62.5033249989" lon="6.60714722865">
		<tag k="name" v="Røvholmsundet" />
		<tag k="natural" v="strait" />
		<tag k="ssr:stedsnr" v="763366" />
	</node>
	<node id="-574881" lat="62.492205552" lon="6.63194166208">
		<tag k="name" v="Notholmen" />
		<tag k="place" v="islet" />
		<tag k="ssr:stedsnr" v="763345" />
	</node>
	<node id="-574880" lat="62.4971027809" lon="6.62395277416">
		<tag k="name" v="Svarthammarvika" />
		<tag k="natural" v="bay" />
		<tag k="ssr:stedsnr" v="763340" />
	</node>
	<node id="-574879" lat="62.4971611086" lon="6.60456943684">
		<tag k="name" v="Saltkjelsvikneset" />
		<tag k="natural" v="cape" />
		<tag k="ssr:stedsnr" v="763331" />
	</node>
	<node id="-574877" lat="62.4990777757" lon="6.53671389565">
		<tag k="name" v="Vika" />
		<tag k="natural" v="bay" />
		<tag k="ssr:stedsnr" v="763289" />
	</node>
	<node id="-574872" lat="62.5074583292" lon="6.5646416575">
		<tag k="name" v="Klubben" />
		<tag k="natural" v="cape" />
		<tag k="ssr:stedsnr" v="763121" />
	</node>
	<node id="-574870" lat="62.5078916654" lon="6.52590833107">
		<tag k="name" v="Vaulen" />
		<tag k="natural" v="bay" />
		<tag k="ssr:stedsnr" v="763097" />
	</node>
	<node id="-574105" lat="62.4826055531" lon="6.70897499215">
		<tag k="name" v="Rotnesbukta" />
		<tag k="natural" v="bay" />
		<tag k="ssr:stedsnr" v="399031" />
	</node>
	<node id="-574865" lat="62.4859722179" lon="6.70184444608">
		<tag k="alt_name" v="Vauleklubben" />
		<tag k="name" v="Klubben" />
		<tag k="natural" v="cape" />
		<tag k="ssr:stedsnr" v="763055" />
	</node>
	<node id="-574360" lat="62.5071861147" lon="6.58851944366">
		<tag k="name" v="Snauholmen" />
		<tag k="place" v="islet" />
		<tag k="ssr:stedsnr" v="133144" />
	</node>
	<node id="-573999" lat="62.5026555512" lon="6.47083054787">
		<tag k="name" v="Storvika" />
		<tag k="natural" v="bay" />
		<tag k="ssr:stedsnr" v="278135" />
	</node>
	<node id="-574349" lat="62.4495138919" lon="6.59167777387">
		<tag k="name" v="Gudmundsetskallen" />
		<tag k="natural" v="shoal" />
		<tag k="place" v="locality" />
		<tag k="ssr:stedsnr" v="112964" />
	</node>
	<node id="-574348" lat="62.4473861095" lon="6.59068611748">
		<tag k="name" v="Sveaskallen" />
		<tag k="natural" v="shoal" />
		<tag k="place" v="locality" />
		<tag k="ssr:stedsnr" v="112946" />
	</node>
	<node id="-574347" lat="62.4754333296" lon="6.68558334049">
		<tag k="name" v="Revet" />
		<tag k="natural" v="shoal" />
		<tag k="place" v="locality" />
		<tag k="ssr:stedsnr" v="112237" />
	</node>
	<node id="-574346" lat="62.5039666677" lon="6.46357500428">
		<tag k="name" v="Dyrøyflua" />
		<tag k="natural" v="shoal" />
		<tag k="place" v="locality" />
		<tag k="ssr:stedsnr" v="112130" />
	</node>
	<node id="-574853" lat="62.5004624613" lon="6.50907225607">
		<tag k="name" v="Juvågen" />
		<tag k="natural" v="bay" />
		<tag k="ssr:stedsnr" v="740266" />
	</node>
	<node id="-574850" lat="62.5055358712" lon="6.49498788717">
		<tag k="name" v="Mørkesetholmane" />
		<tag k="place" v="islet" />
		<tag k="ssr:stedsnr" v="740142" />
	</node>
	<node id="-574337" lat="62.5018861098" lon="6.6147416638">
		<tag k="name" v="Litleholmen" />
		<tag k="place" v="islet" />
		<tag k="ssr:stedsnr" v="96491" />
	</node>
	<node id="-574848" lat="62.5196777821" lon="6.60313610637">
		<tag k="name" v="Stettevika" />
		<tag k="natural" v="bay" />
		<tag k="ssr:stedsnr" v="740130" />
	</node>
	<node id="-574334" lat="62.4862250028" lon="6.674947227">
		<tag k="name" v="Fellene" />
		<tag k="natural" v="cape" />
		<tag k="ssr:stedsnr" v="96462" />
	</node>
	<node id="-574333" lat="62.4924222225" lon="6.67769445389">
		<tag k="name" v="Langedraget" />
		<tag k="natural" v="cape" />
		<tag k="ssr:stedsnr" v="96461" />
	</node>
	<node id="-574842" lat="62.5073055559" lon="6.61384167479">
		<tag k="name" v="Kuholmen" />
		<tag k="place" v="islet" />
		<tag k="ssr:stedsnr" v="739135" />
	</node>
	<node id="-574329" lat="62.4638000038" lon="6.62999721926">
		<tag k="name" v="Svartevika" />
		<tag k="natural" v="bay" />
		<tag k="ssr:stedsnr" v="96405" />
	</node>
	<node id="-574840" lat="62.4633527822" lon="6.61993055188">
		<tag k="alt_name" v="Glomsetvågen" />
		<tag k="name" v="Honningdalsvågen" />
		<tag k="natural" v="bay" />
		<tag k="ssr:stedsnr" v="739010" />
	</node>
	<node id="-574324" lat="62.5039666644" lon="6.52423889248">
		<tag k="name" v="Lilleneset" />
		<tag k="natural" v="cape" />
		<tag k="ssr:stedsnr" v="96280" />
	</node>
	<node id="-574323" lat="62.5173222247" lon="6.52034444618">
		<tag k="name" v="Erleholmen" />
		<tag k="place" v="islet" />
		<tag k="ssr:stedsnr" v="96276" />
	</node>
	<node id="-574834" lat="62.5222583309" lon="6.49021944092">
		<tag k="name" v="Kossa" />
		<tag k="natural" v="cape" />
		<tag k="ssr:stedsnr" v="718078" />
	</node>
	<node id="-574833" lat="62.4961750032" lon="6.65756943703">
		<tag k="name" v="Skjeljeflua" />
		<tag k="natural" v="shoal" />
		<tag k="place" v="locality" />
		<tag k="ssr:stedsnr" v="718050" />
	</node>
	<node id="-574832" lat="62.5035333364" lon="6.64339167578">
		<tag k="name" v="Bakkebukta" />
		<tag k="natural" v="bay" />
		<tag k="ssr:stedsnr" v="703501" />
	</node>
	<node id="-574317" lat="62.4990611141" lon="6.58569166988">
		<tag k="name" v="Bøvika" />
		<tag k="natural" v="bay" />
		<tag k="ssr:stedsnr" v="96081" />
	</node>
	<node id="-574827" lat="62.4872361155" lon="6.71989723121">
		<tag k="name" v="Svineneset" />
		<tag k="natural" v="cape" />
		<tag k="ssr:stedsnr" v="703477" />
	</node>
	<node id="-574825" lat="62.4978416639" lon="6.70757499095">
		<tag k="alt_name" v="Skodjevågen" />
		<tag k="name" v="Vågen" />
		<tag k="natural" v="bay" />
		<tag k="ssr:stedsnr" v="703470" />
	</node>
	<node id="-574524" lat="62.5175194485" lon="6.51766944763">
		<tag k="name" v="Hjellneset" />
		<tag k="natural" v="cape" />
		<tag k="ssr:stedsnr" v="460310" />
	</node>
	<node id="-574353" lat="62.4985361129" lon="6.62671943741">
		<tag k="name" v="Langneset" />
		<tag k="natural" v="cape" />
		<tag k="ssr:stedsnr" v="131228" />
	</node>
	<node id="-574820" lat="62.504794449" lon="6.44349723073">
		<tag k="name" v="Middagsvika" />
		<tag k="natural" v="bay" />
		<tag k="ssr:stedsnr" v="703419" />
	</node>
	<node id="-574819" lat="62.4930083329" lon="6.43751667141">
		<tag k="name" v="Grønvikneset" />
		<tag k="natural" v="cape" />
		<tag k="ssr:stedsnr" v="703412" />
	</node>
	<node id="-574814" lat="62.4702065909" lon="6.66984292311">
		<tag k="name" v="Jovika" />
		<tag k="natural" v="bay" />
		<tag k="ssr:stedsnr" v="703112" />
	</node>
	<node id="-574299" lat="62.5012138851" lon="6.591119448">
		<tag k="name" v="Digerneset" />
		<tag k="natural" v="cape" />
		<tag k="ssr:stedsnr" v="72271" />
	</node>
	<node id="-574295" lat="62.509461114" lon="6.58039166938">
		<tag k="name" v="Furholmen" />
		<tag k="place" v="islet" />
		<tag k="ssr:stedsnr" v="72138" />
	</node>
	<node id="-574806" lat="62.500324999" lon="6.66058610843">
		<tag k="name" v="Høgeskjeret" />
		<tag k="natural" v="beach" />
		<tag k="place" v="locality" />
		<tag k="ssr:stedsnr" v="702322" />
	</node>
	<node id="-574777" lat="62.5048555592" lon="6.47103332535">
		<tag k="name" v="Litledyrøya" />
		<tag k="place" v="islet" />
		<tag k="ssr:stedsnr" v="679141" />
	</node>
	<node id="-574804" lat="62.4966694444" lon="6.54910555767">
		<tag k="name" v="Kobbevika" />
		<tag k="natural" v="bay" />
		<tag k="ssr:stedsnr" v="702309" />
	</node>
	<node id="-574800" lat="62.4998250012" lon="6.62143055282">
		<tag k="name" v="Grøstraumen" />
		<tag k="natural" v="strait" />
		<tag k="ssr:stedsnr" v="702294" />
	</node>
	<node id="-574799" lat="62.4965805546" lon="6.61093888292">
		<tag k="name" v="Barnesvika" />
		<tag k="natural" v="bay" />
		<tag k="ssr:stedsnr" v="702292" />
	</node>
	<node id="-574286" lat="62.5009055542" lon="6.54864999468">
		<tag k="name" v="Utvikflua" />
		<tag k="natural" v="cape" />
		<tag k="ssr:stedsnr" v="51117" />
	</node>
	<node id="-574793" lat="62.4984777761" lon="6.58191945288">
		<tag k="name" v="Hagardsvika" />
		<tag k="natural" v="bay" />
		<tag k="ssr:stedsnr" v="702268" />
	</node>
	<node id="-574791" lat="62.5009388928" lon="6.53567499754">
		<tag k="name" v="Haugneset" />
		<tag k="natural" v="cape" />
		<tag k="ssr:stedsnr" v="702237" />
	</node>
	<node id="-574274" lat="62.4644277806" lon="6.62294443647">
		<tag k="name" v="Hengeneset" />
		<tag k="natural" v="cape" />
		<tag k="ssr:stedsnr" v="35483" />
	</node>
	<node id="-574273" lat="62.4627888912" lon="6.64124166722">
		<tag k="name" v="Saltkjelsvika" />
		<tag k="natural" v="bay" />
		<tag k="ssr:stedsnr" v="35480" />
	</node>
	<node id="-574272" lat="62.4535027766" lon="6.59455832787">
		<tag k="name" v="Gudmundsetvika" />
		<tag k="natural" v="bay" />
		<tag k="ssr:stedsnr" v="35462" />
	</node>
	<node id="-574271" lat="62.5052750021" lon="6.4582916568">
		<tag k="name" v="Halvardsvågen" />
		<tag k="natural" v="bay" />
		<tag k="ssr:stedsnr" v="35456" />
	</node>
	<node id="-574270" lat="62.5105250011" lon="6.60516389007">
		<tag k="name" v="Hammarsvika" />
		<tag k="natural" v="bay" />
		<tag k="ssr:stedsnr" v="35433" />
	</node>
	<node id="-575029" lat="62.501005558" lon="6.48191110786">
		<tag k="name" v="Naustvika" />
		<tag k="natural" v="bay" />
		<tag k="ssr:stedsnr" v="946338" />
	</node>
	<node id="-574780" lat="62.5266361073" lon="6.51770555558">
		<tag k="name" v="Fjordungskiftet" />
		<tag k="natural" v="cape" />
		<tag k="ssr:stedsnr" v="679152" />
	</node>
	<node id="-574090" lat="62.4862027748" lon="6.65415556104">
		<tag k="alt_name" v="Stemmerettsholmen" />
		<tag k="name" v="Floteholmen" />
		<tag k="place" v="islet" />
		<tag k="ssr:stedsnr" v="374029" />
	</node>
	<node id="-574266" lat="62.4992583379" lon="6.62708334219">
		<tag k="name" v="Fjøsvågen" />
		<tag k="natural" v="bay" />
		<tag k="ssr:stedsnr" v="35412" />
	</node>
	<node id="-574265" lat="62.495547225" lon="6.62768611424">
		<tag k="name" v="Litle Langneset" />
		<tag k="natural" v="cape" />
		<tag k="ssr:stedsnr" v="35408" />
	</node>
	<node id="-574775" lat="62.4987805543" lon="6.66303332864">
		<tag k="name" v="Flatholmen" />
		<tag k="place" v="islet" />
		<tag k="ssr:stedsnr" v="678269" />
	</node>
	<node id="-574258" lat="62.5161583302" lon="6.53372223055">
		<tag k="name" v="Lillevika" />
		<tag k="natural" v="bay" />
		<tag k="ssr:stedsnr" v="35304" />
	</node>
	<node id="-574765" lat="62.4819833369" lon="6.65844722778">
		<tag k="name" v="Storvågen" />
		<tag k="natural" v="bay" />
		<tag k="ssr:stedsnr" v="678027" />
	</node>
	<node id="-574251" lat="62.481938893" lon="6.70425278325">
		<tag k="name" v="Nesvika" />
		<tag k="natural" v="bay" />
		<tag k="ssr:stedsnr" v="35062" />
	</node>
	<node id="-574759" lat="62.5174944465" lon="6.47159723158">
		<tag k="name" v="Trollneset" />
		<tag k="natural" v="cape" />
		<tag k="ssr:stedsnr" v="657066" />
	</node>
	<node id="-574754" lat="62.5035722212" lon="6.63967499296">
		<tag k="name" v="Hjellvikneset" />
		<tag k="natural" v="cape" />
		<tag k="ssr:stedsnr" v="642457" />
	</node>
	<node id="-574427" lat="62.4950166654" lon="6.68235556115">
		<tag k="name" v="Smeltevika" />
		<tag k="natural" v="bay" />
		<tag k="ssr:stedsnr" v="192247" />
	</node>
	<node id="-574751" lat="62.5000555592" lon="6.681516657">
		<tag k="name" v="Notaholmen" />
		<tag k="place" v="islet" />
		<tag k="ssr:stedsnr" v="642439" />
	</node>
	<node id="-574238" lat="62.49889167" lon="6.56959721402">
		<tag k="name" v="Neset" />
		<tag k="natural" v="cape" />
		<tag k="ssr:stedsnr" v="35011" />
	</node>
	<node id="-574085" lat="62.4617500029" lon="6.648744439">
		<tag k="name" v="Vikaflua" />
		<tag k="natural" v="shoal" />
		<tag k="place" v="locality" />
		<tag k="ssr:stedsnr" v="354956" />
	</node>
	<node id="-574746" lat="62.4651222249" lon="6.62213611266">
		<tag k="name" v="Leithaugvika" />
		<tag k="natural" v="bay" />
		<tag k="ssr:stedsnr" v="642395" />
	</node>
	<node id="-574511" lat="62.4973722246" lon="6.70331944957">
		<tag k="name" v="Båtvika" />
		<tag k="natural" v="bay" />
		<tag k="ssr:stedsnr" v="460055" />
	</node>
	<node id="-574084" lat="62.4864555543" lon="6.70053056147">
		<tag k="name" v="Vauleklubben" />
		<tag k="natural" v="bay" />
		<tag k="ssr:stedsnr" v="354425" />
	</node>
	<node id="-574742" lat="62.4453750026" lon="6.56382778255">
		<tag k="name" v="Storurvika" />
		<tag k="natural" v="bay" />
		<tag k="ssr:stedsnr" v="642384" />
	</node>
	<node id="-574741" lat="62.4512027764" lon="6.58754166338">
		<tag k="fixme" v="consider seamark:type=rock or natural=shoal" />
		<tag k="name" v="Lilleskjeret" />
		<tag k="place" v="islet" />
		<tag k="ssr:stedsnr" v="642379" />
	</node>
	<node id="-574227" lat="62.5177730293" lon="6.50252585915">
		<tag k="name" v="Steinsetvågen" />
		<tag k="natural" v="bay" />
		<tag k="ssr:stedsnr" v="12192" />
	</node>
	<node id="-574737" lat="62.5043444477" lon="6.4786694408">
		<tag k="name" v="Kranseneset" />
		<tag k="natural" v="cape" />
		<tag k="ssr:stedsnr" v="642368" />
	</node>
	<node id="-574736" lat="62.5036638898" lon="6.47114999868">
		<tag k="name" v="Mørkesetsundet" />
		<tag k="natural" v="strait" />
		<tag k="ssr:stedsnr" v="642361" />
	</node>
	<node id="-574735" lat="62.4962333289" lon="6.45583610344">
		<tag k="name" v="Storneset" />
		<tag k="natural" v="cape" />
		<tag k="ssr:stedsnr" v="642359" />
	</node>
	<node id="-573997" lat="62.5161055581" lon="6.53977777945">
		<tag k="name" v="Sandvika" />
		<tag k="natural" v="bay" />
		<tag k="ssr:stedsnr" v="278118" />
	</node>
	<node id="-574728" lat="62.491680448" lon="6.72310758459">
		<tag k="name" v="Nørdre Dragsundet" />
		<tag k="natural" v="strait" />
		<tag k="ssr:stedsnr" v="642038" />
	</node>
	<node id="-574726" lat="62.4914388904" lon="6.68129722729">
		<tag k="name" v="Breivika" />
		<tag k="natural" v="bay" />
		<tag k="ssr:stedsnr" v="642015" />
	</node>
	<node id="-574722" lat="62.4975249972" lon="6.5723222221">
		<tag k="name" v="Notholmen" />
		<tag k="place" v="islet" />
		<tag k="ssr:stedsnr" v="641293" />
	</node>
	<node id="-574719" lat="62.5000638932" lon="6.61904166204">
		<tag k="name" v="Holmeneset" />
		<tag k="natural" v="cape" />
		<tag k="ssr:stedsnr" v="641279" />
	</node>
	<node id="-574204" lat="62.4805861117" lon="6.70039167269">
		<tag k="name" v="Ryttingsneset" />
		<tag k="natural" v="cape" />
		<tag k="ssr:stedsnr" v="885685" />
	</node>
	<node id="-574028" lat="62.5026388849" lon="6.44498055302">
		<tag k="name" v="Kyra" />
		<tag k="natural" v="cape" />
		<tag k="ssr:stedsnr" v="295434" />
	</node>
	<node id="-574711" lat="62.515658334" lon="6.52682499349">
		<tag k="name" v="Røyskattholmen" />
		<tag k="place" v="islet" />
		<tag k="ssr:stedsnr" v="641216" />
	</node>
	<node id="-574710" lat="62.5059638259" lon="6.49986306953">
		<tag k="alt_name" v="Innste Mørkesetholmen" />
		<tag k="fixme" v="multiple name tags, choose one and add the other to alt_name" />
		<tag k="name" v="Hegreholmen;Inste Mørkesetholmen" />
		<tag k="place" v="islet" />
		<tag k="ssr:stedsnr" v="641215" />
	</node>
	<node id="-574197" lat="62.4825527814" lon="6.70450832718">
		<tag k="name" v="Rotneset" />
		<tag k="natural" v="cape" />
		<tag k="ssr:stedsnr" v="217691" />
	</node>
	<node id="-574708" lat="62.5082805561" lon="6.56377221763">
		<tag k="name" v="Tarevika" />
		<tag k="natural" v="bay" />
		<tag k="ssr:stedsnr" v="641094" />
	</node>
	<node id="-574045" lat="62.5163777745" lon="6.51710278772">
		<tag k="name" v="Kjeholmen" />
		<tag k="place" v="islet" />
		<tag k="ssr:stedsnr" v="315179" />
	</node>
	<node id="-574705" lat="62.4824833291" lon="6.65962222796">
		<tag k="name" v="Buholmen" />
		<tag k="place" v="islet" />
		<tag k="ssr:stedsnr" v="641079" />
	</node>
	<node id="-574191" lat="62.5074305517" lon="6.61486389811">
		<tag k="name" v="Kuholmvaulen" />
		<tag k="natural" v="bay" />
		<tag k="ssr:stedsnr" v="885477" />
	</node>
	<node id="-574189" lat="62.4857888895" lon="6.69551665842">
		<tag k="name" v="Grønvika" />
		<tag k="natural" v="bay" />
		<tag k="ssr:stedsnr" v="885445" />
	</node>
	<node id="-574058" lat="62.492155558" lon="6.71851388863">
		<tag k="name" v="Åtløga" />
		<tag k="natural" v="bay" />
		<tag k="ssr:stedsnr" v="338051" />
	</node>
	<node id="-574184" lat="62.4646527747" lon="6.62949165837">
		<tag k="name" v="Naustvika" />
		<tag k="natural" v="bay" />
		<tag k="ssr:stedsnr" v="885409" />
	</node>
	<node id="-574179" lat="62.452811112" lon="6.59419166895">
		<tag k="name" v="Gudmundsetholmen" />
		<tag k="place" v="islet" />
		<tag k="ssr:stedsnr" v="885380" />
	</node>
	<node id="-574178" lat="62.5110472191" lon="6.59953056442">
		<tag k="name" v="Stetteholmsundet" />
		<tag k="natural" v="strait" />
		<tag k="ssr:stedsnr" v="885359" />
	</node>
	<node id="-574172" lat="62.4814944423" lon="6.50890833276">
		<tag k="name" v="Auravågneset" />
		<tag k="natural" v="cape" />
		<tag k="ssr:stedsnr" v="885298" />
	</node>
	<node id="-574681" lat="62.51044444" lon="6.59731110839">
		<tag k="name" v="Stetteholmen" />
		<tag k="place" v="islet" />
		<tag k="ssr:stedsnr" v="618131" />
	</node>
	<node id="-574679" lat="62.5005027792" lon="6.55901389616">
		<tag k="name" v="Jamteholmen" />
		<tag k="place" v="islet" />
		<tag k="ssr:stedsnr" v="618096" />
	</node>
	<node id="-574678" lat="62.5027083295" lon="6.6033527786">
		<tag k="name" v="Revholmen" />
		<tag k="place" v="islet" />
		<tag k="ssr:stedsnr" v="618093" />
	</node>
	<node id="-574165" lat="62.4487361086" lon="6.58029999677">
		<tag k="name" v="Sagvika" />
		<tag k="natural" v="bay" />
		<tag k="ssr:stedsnr" v="885100" />
	</node>
	<node id="-574674" lat="62.4975388865" lon="6.67035555361">
		<tag k="name" v="Brennholmen" />
		<tag k="place" v="islet" />
		<tag k="ssr:stedsnr" v="617265" />
	</node>
	<node id="-574673" lat="62.4904861094" lon="6.63811388427">
		<tag k="alt_name" v="Svorteholmen" />
		<tag k="name" v="Svortaholmen" />
		<tag k="place" v="islet" />
		<tag k="ssr:stedsnr" v="617264" />
	</node>
	<node id="-574328" lat="62.4446694448" lon="6.56278610385">
		<tag k="name" v="Simoneset" />
		<tag k="natural" v="cape" />
		<tag k="ssr:stedsnr" v="96390" />
	</node>
	<node id="-574670" lat="62.5158944423" lon="6.61703611809">
		<tag k="name" v="Skivedneset" />
		<tag k="natural" v="cape" />
		<tag k="ssr:stedsnr" v="581508" />
	</node>
	<node id="-574669" lat="62.5018000037" lon="6.62098332428">
		<tag k="name" v="Heggestraumen" />
		<tag k="natural" v="strait" />
		<tag k="ssr:stedsnr" v="581505" />
	</node>
	<node id="-574504" lat="62.5125749987" lon="6.47867777619">
		<tag k="name" v="Langøya" />
		<tag k="place" v="islet" />
		<tag k="ssr:stedsnr" v="437168" />
	</node>
	<node id="-574667" lat="62.4997916687" lon="6.69245554634">
		<tag k="fixme" v="consider seamark:type=rock or natural=shoal" />
		<tag k="name" v="Eilivskjeret" />
		<tag k="place" v="islet" />
		<tag k="ssr:stedsnr" v="581483" />
	</node>
	<node id="-574521" lat="62.4483916652" lon="6.57658611917">
		<tag k="name" v="Rognvika" />
		<tag k="natural" v="bay" />
		<tag k="ssr:stedsnr" v="460132" />
	</node>
	<node id="-574665" lat="62.4989805592" lon="6.58234722405">
		<tag k="name" v="Hagardsholmen" />
		<tag k="place" v="islet" />
		<tag k="ssr:stedsnr" v="581463" />
	</node>
	<node id="-574660" lat="62.5002055545" lon="6.66604723021">
		<tag k="name" v="Murvikneset" />
		<tag k="natural" v="cape" />
		<tag k="ssr:stedsnr" v="581383" />
	</node>
	<node id="-574155" lat="62.502577774" lon="6.61697221679">
		<tag k="alt_name" v="Straumen" />
		<tag k="name" v="Storstraumen" />
		<tag k="natural" v="strait" />
		<tag k="ssr:stedsnr" v="885033" />
	</node>
	<node id="-574656" lat="62.4944861089" lon="6.60275278366">
		<tag k="name" v="Brautavika" />
		<tag k="natural" v="bay" />
		<tag k="ssr:stedsnr" v="581358" />
	</node>
	<node id="-574143" lat="62.4884833359" lon="6.66282500326">
		<tag k="name" v="Kyrkjeholmen" />
		<tag k="place" v="islet" />
		<tag k="ssr:stedsnr" v="399462" />
	</node>
	<node id="-574651" lat="62.498797224" lon="6.50228889087">
		<tag k="alt_name" v="Innste Evjeneset" />
		<tag k="name" v="Inste Evjeneset" />
		<tag k="natural" v="cape" />
		<tag k="ssr:stedsnr" v="581323" />
	</node>
	<node id="-574650" lat="62.4996722223" lon="6.50041111039">
		<tag k="alt_name" v="Yste Evjeneset" />
		<tag k="name" v="Ytste Evjeneset" />
		<tag k="natural" v="cape" />
		<tag k="ssr:stedsnr" v="581319" />
	</node>
	<node id="-574649" lat="62.4996083327" lon="6.49500000604">
		<tag k="name" v="Lilleevja" />
		<tag k="natural" v="bay" />
		<tag k="ssr:stedsnr" v="581320" />
	</node>
	<node id="-574135" lat="62.4567555514" lon="6.60267222185">
		<tag k="name" v="Kopparholmen" />
		<tag k="place" v="islet" />
		<tag k="ssr:stedsnr" v="399422" />
	</node>
	<node id="-574645" lat="62.5119861096" lon="6.46007500067">
		<tag k="fixme" v="consider seamark:type=rock or natural=shoal" />
		<tag k="name" v="Steinane" />
		<tag k="place" v="islet" />
		<tag k="ssr:stedsnr" v="581128" />
	</node>
	<node id="-574132" lat="62.5010222264" lon="6.66693611446">
		<tag k="name" v="Ytste Murvika" />
		<tag k="natural" v="bay" />
		<tag k="ssr:stedsnr" v="399400" />
	</node>
	<node id="-574131" lat="62.4980861073" lon="6.56323055406">
		<tag k="name" v="Myrbærvika" />
		<tag k="natural" v="bay" />
		<tag k="ssr:stedsnr" v="399381" />
	</node>
	<node id="-574640" lat="62.5002472202" lon="6.59626944615">
		<tag k="name" v="Årbukta" />
		<tag k="natural" v="bay" />
		<tag k="ssr:stedsnr" v="581067" />
	</node>
	<node id="-574408" lat="62.46101944" lon="6.63293611065">
		<tag k="name" v="Langneset" />
		<tag k="natural" v="cape" />
		<tag k="ssr:stedsnr" v="156373" />
	</node>
	<node id="-574126" lat="62.4816388873" lon="6.50034721509">
		<tag k="name" v="Slettebakkholmane" />
		<tag k="place" v="islet" />
		<tag k="ssr:stedsnr" v="399316" />
	</node>
	<node id="-574322" lat="62.5138444402" lon="6.48644999712">
		<tag k="name" v="Kuholmen" />
		<tag k="place" v="islet" />
		<tag k="ssr:stedsnr" v="96128" />
	</node>
	<node id="-574121" lat="62.5166333334" lon="6.5103027874">
		<tag k="name" v="Olaholmane" />
		<tag k="place" v="islet" />
		<tag k="ssr:stedsnr" v="399283" />
	</node>
	<node id="-574120" lat="62.5045416672" lon="6.49108332508">
		<tag k="alt_name" v="Mørkesetholmen" />
		<tag k="name" v="Ytste Mørkesetholmen" />
		<tag k="place" v="islet" />
		<tag k="ssr:stedsnr" v="399281" />
	</node>
	<node id="-574119" lat="62.5031444487" lon="6.50606943798">
		<tag k="name" v="Klombra" />
		<tag k="natural" v="bay" />
		<tag k="ssr:stedsnr" v="399129" />
	</node>
	<node id="-574118" lat="62.5164083302" lon="6.52415833644">
		<tag k="name" v="Neset" />
		<tag k="natural" v="cape" />
		<tag k="ssr:stedsnr" v="399125" />
	</node>
	<node id="-574157" lat="62.4966444406" lon="6.72615277785">
		<tag k="name" v="Reset" />
		<tag k="place" v="locality" />
		<tag k="ssr:stedsnr" v="885045" />
	</node>
	<node id="-574109" lat="62.4630250008" lon="6.63177499801">
		<tag k="name" v="Fjøsvika" />
		<tag k="natural" v="bay" />
		<tag k="ssr:stedsnr" v="399063" />
	</node>
	<node id="-574108" lat="62.4989416655" lon="6.67649444163">
		<tag k="name" v="Dåren" />
		<tag k="natural" v="cape" />
		<tag k="ssr:stedsnr" v="399059" />
	</node>
	<node id="-574617" lat="62.5079913454" lon="6.61024991209">
		<tag k="name" v="Notaholmen" />
		<tag k="place" v="islet" />
		<tag k="ssr:stedsnr" v="557137" />
	</node>
	<node id="-574616" lat="62.5116666663" lon="6.46472500882">
		<tag k="name" v="Maurholmen" />
		<tag k="place" v="islet" />
		<tag k="ssr:stedsnr" v="557129" />
	</node>
	<node id="-574615" lat="62.5146247431" lon="6.57619660482">
		<tag k="name" v="Kjeholmen" />
		<tag k="place" v="islet" />
		<tag k="ssr:stedsnr" v="557119" />
	</node>
	<node id="-574610" lat="62.4588944473" lon="6.62011112044">
		<tag k="name" v="Nesflua" />
		<tag k="natural" v="shoal" />
		<tag k="place" v="locality" />
		<tag k="ssr:stedsnr" v="536972" />
	</node>
	<node id="-574606" lat="62.4859777752" lon="6.71835555335">
		<tag k="name" v="Lauvvikneset" />
		<tag k="natural" v="cape" />
		<tag k="ssr:stedsnr" v="520443" />
	</node>
	<node id="-574604" lat="62.4951527791" lon="6.69443610682">
		<tag k="name" v="Apalvikneset" />
		<tag k="natural" v="cape" />
		<tag k="ssr:stedsnr" v="520437" />
	</node>
	<node id="-574402" lat="62.5134138934" lon="6.55627222899">
		<tag k="name" v="Stordemma" />
		<tag k="natural" v="bay" />
		<tag k="ssr:stedsnr" v="156326" />
	</node>
	<node id="-574602" lat="62.4926000021" lon="6.69916389238">
		<tag k="fixme" v="consider seamark:type=rock or natural=shoal" />
		<tag k="name" v="Ottringskjeret" />
		<tag k="place" v="islet" />
		<tag k="ssr:stedsnr" v="520420" />
	</node>
	<node id="-574089" lat="62.4884870476" lon="6.72155999793">
		<tag k="name" v="Solnørvika" />
		<tag k="natural" v="bay" />
		<tag k="ssr:stedsnr" v="374026" />
	</node>
	<node id="-574597" lat="62.5003888914" lon="6.66211389434">
		<tag k="name" v="Flateskjeret" />
		<tag k="natural" v="beach" />
		<tag k="place" v="locality" />
		<tag k="ssr:stedsnr" v="520340" />
	</node>
	<node id="-574596" lat="62.4825694431" lon="6.65400555796">
		<tag k="name" v="Storvågneset" />
		<tag k="natural" v="cape" />
		<tag k="ssr:stedsnr" v="520339" />
	</node>
	<node id="-574080" lat="62.4997638902" lon="6.50681389644">
		<tag k="name" v="Seteneset" />
		<tag k="natural" v="cape" />
		<tag k="ssr:stedsnr" v="338370" />
	</node>
	<node id="-574589" lat="62.4982749966" lon="6.54111388319">
		<tag k="fixme" v="consider seamark:type=rock or natural=shoal" />
		<tag k="name" v="Brusdalsnaustflua" />
		<tag k="place" v="islet" />
		<tag k="ssr:stedsnr" v="520257" />
	</node>
	<node id="-574075" lat="62.4637861067" lon="6.61882777609">
		<tag k="name" v="Honningdalsvågen" />
		<tag k="natural" v="bay" />
		<tag k="ssr:stedsnr" v="338327" />
	</node>
	<node id="-574074" lat="62.4630083373" lon="6.64484721258">
		<tag k="name" v="Timbrevika" />
		<tag k="natural" v="bay" />
		<tag k="ssr:stedsnr" v="338324" />
	</node>
	<node id="-574585" lat="62.5078277795" lon="6.52004721959">
		<tag k="name" v="Storneset" />
		<tag k="natural" v="cape" />
		<tag k="ssr:stedsnr" v="520234" />
	</node>
	<node id="-574584" lat="62.4982916634" lon="6.50305278137">
		<tag k="name" v="Evja" />
		<tag k="natural" v="bay" />
		<tag k="ssr:stedsnr" v="520096" />
	</node>
	<node id="-574071" lat="62.5028972203" lon="6.46955833772">
		<tag k="name" v="Notaneset" />
		<tag k="natural" v="cape" />
		<tag k="ssr:stedsnr" v="338299" />
	</node>
	<node id="-574582" lat="62.4956055569" lon="6.45534444448">
		<tag k="name" v="Hauvika" />
		<tag k="natural" v="bay" />
		<tag k="ssr:stedsnr" v="520093" />
	</node>
	<node id="-574068" lat="62.498219447" lon="6.66983611665">
		<tag k="name" v="Holmsundet" />
		<tag k="natural" v="strait" />
		<tag k="ssr:stedsnr" v="338285" />
	</node>
	<node id="-574571" lat="62.4930861083" lon="6.62465832491">
		<tag k="name" v="Jensvika" />
		<tag k="natural" v="bay" />
		<tag k="ssr:stedsnr" v="520011" />
	</node>
	<node id="-574570" lat="62.4978472262" lon="6.55954722248">
		<tag k="name" v="Gardvika" />
		<tag k="natural" v="bay" />
		<tag k="ssr:stedsnr" v="520012" />
	</node>
	<node id="-574569" lat="62.4982499956" lon="6.57024444303">
		<tag k="name" v="Nesvika" />
		<tag k="natural" v="bay" />
		<tag k="ssr:stedsnr" v="520005" />
	</node>
	<node id="-574279" lat="62.4886583329" lon="6.66422777793">
		<tag k="name" v="Kyrkjeholmsundet" />
		<tag k="natural" v="strait" />
		<tag k="ssr:stedsnr" v="35510" />
	</node>
	<node id="-574224" lat="62.5097250029" lon="6.61563056147">
		<tag k="name" v="Juvågen" />
		<tag k="natural" v="bay" />
		<tag k="ssr:stedsnr" v="12160" />
	</node>
	<node id="-574558" lat="62.5123861094" lon="6.60146944866">
		<tag k="name" v="Stetteneset" />
		<tag k="natural" v="cape" />
		<tag k="ssr:stedsnr" v="497145" />
	</node>
	<node id="-574557" lat="62.5124111146" lon="6.58691111372">
		<tag k="name" v="Øyaneset" />
		<tag k="natural" v="cape" />
		<tag k="ssr:stedsnr" v="497142" />
	</node>
	<node id="-574556" lat="62.5149333292" lon="6.61130832446">
		<tag k="name" v="Båtsvika" />
		<tag k="natural" v="bay" />
		<tag k="ssr:stedsnr" v="497124" />
	</node>
	<node id="-574091" lat="62.4976666677" lon="6.66467499781">
		<tag k="name" v="Høgholmen" />
		<tag k="place" v="islet" />
		<tag k="ssr:stedsnr" v="374249" />
	</node>
	<node id="-574525" lat="62.4975222268" lon="6.54468334071">
		<tag k="name" v="Kvennhusvika" />
		<tag k="natural" v="bay" />
		<tag k="ssr:stedsnr" v="460322" />
	</node>
	<node id="-574551" lat="62.49312222" lon="6.62947777163">
		<tag k="alt_name" v="Jensvikholmen" />
		<tag k="name" v="Vikholmen" />
		<tag k="place" v="islet" />
		<tag k="ssr:stedsnr" v="496242" />
	</node>
	<node id="-574038" lat="62.5061583318" lon="6.61451666829">
		<tag k="name" v="Grynnvågen" />
		<tag k="natural" v="bay" />
		<tag k="ssr:stedsnr" v="314164" />
	</node>
	<node id="-574036" lat="62.5038972208" lon="6.45178888841">
		<tag k="name" v="Dyrøya" />
		<tag k="place" v="island" />
		<tag k="ssr:stedsnr" v="314102" />
	</node>
	<node id="-574547" lat="62.5016055568" lon="6.61443332915">
		<tag k="name" v="Storholmen" />
		<tag k="place" v="islet" />
		<tag k="ssr:stedsnr" v="496099" />
	</node>
	<node id="-574517" lat="62.5085777792" lon="6.523427779">
		<tag k="name" v="Lygaren" />
		<tag k="natural" v="cape" />
		<tag k="ssr:stedsnr" v="460116" />
	</node>
	<node id="-575052" lat="62.51196389" lon="6.45836665787">
		<tag k="name" v="Vestre Skarvsteinen" />
		<tag k="place" v="locality" />
		<tag k="seamark:type" v="rock" />
		<tag k="ssr:stedsnr" v="962410" />
	</node>
	<node id="-574027" lat="62.4938277764" lon="6.70654444678">
		<tag k="name" v="Apalvika" />
		<tag k="natural" v="bay" />
		<tag k="ssr:stedsnr" v="294049" />
	</node>
	<node id="-574535" lat="62.4883805593" lon="6.66461110339">
		<tag k="name" v="Felleneset" />
		<tag k="natural" v="cape" />
		<tag k="ssr:stedsnr" v="460415" />
	</node>
	<node id="-574534" lat="62.5132444415" lon="6.55181667401">
		<tag k="name" v="Vemøyneset" />
		<tag k="natural" v="cape" />
		<tag k="ssr:stedsnr" v="460412" />
	</node>
	<node id="-574527" lat="62.5013111097" lon="6.50713611827">
		<tag k="name" v="Juvikneset" />
		<tag k="natural" v="cape" />
		<tag k="ssr:stedsnr" v="460347" />
	</node>
	<node id="-575037" lat="62.4624888876" lon="6.62348055263">
		<tag k="name" v="Simoneset" />
		<tag k="natural" v="cape" />
		<tag k="ssr:stedsnr" v="946375" />
	</node>
	<node id="-575036" lat="62.4628805595" lon="6.6295555493">
		<tag k="name" v="Fleskeneset" />
		<tag k="natural" v="cape" />
		<tag k="ssr:stedsnr" v="946374" />
	</node>
	<node id="-575035" lat="62.4645944458" lon="6.62429166078">
		<tag k="name" v="Litlevika" />
		<tag k="natural" v="bay" />
		<tag k="ssr:stedsnr" v="946373" />
	</node>
	<node id="-575034" lat="62.4420833288" lon="6.55862499345">
		<tag k="name" v="Byttingsneset" />
		<tag k="natural" v="cape" />
		<tag k="ssr:stedsnr" v="946357" />
	</node>
	<node id="-575033" lat="62.4705483819" lon="6.66973508419">
		<tag k="alt_name" v="Jovikneset" />
		<tag k="name" v="Valleneset" />
		<tag k="natural" v="cape" />
		<tag k="ssr:stedsnr" v="946356" />
	</node>
	<node id="-574005" lat="62.517247226" lon="6.52603333926">
		<tag k="name" v="Instevågen" />
		<tag k="natural" v="bay" />
		<tag k="ssr:stedsnr" v="278281" />
	</node>
	<node id="-574512" lat="62.4649388918" lon="6.62738055968">
		<tag k="name" v="Løvika" />
		<tag k="natural" v="bay" />
		<tag k="ssr:stedsnr" v="460083" />
	</node>
	<node id="-575023" lat="62.4985444465" lon="6.59715278168">
		<tag k="name" v="Gjære" />
		<tag k="natural" v="bay" />
		<tag k="ssr:stedsnr" v="946041" />
	</node>
	<node id="-575022" lat="62.4836333376" lon="6.68663333658">
		<tag k="name" v="Karlvika" />
		<tag k="natural" v="bay" />
		<tag k="ssr:stedsnr" v="946013" />
	</node>
	<node id="-575021" lat="62.490844445" lon="6.67442222315">
		<tag k="name" v="Kjepina" />
		<tag k="place" v="islet" />
		<tag k="ssr:stedsnr" v="946012" />
	</node>
	<node id="-575019" lat="62.4817888875" lon="6.66339445069">
		<tag k="name" v="Evja" />
		<tag k="natural" v="bay" />
		<tag k="ssr:stedsnr" v="945305" />
	</node>
	<node id="-575016" lat="62.4950944443" lon="6.6017416603">
		<tag k="name" v="Sjøkleivneset" />
		<tag k="natural" v="cape" />
		<tag k="ssr:stedsnr" v="945294" />
	</node>
	<node id="-575011" lat="62.5162027749" lon="6.49904722529">
		<tag k="name" v="Bukkholmen" />
		<tag k="place" v="islet" />
		<tag k="ssr:stedsnr" v="945244" />
	</node>
	<node id="-574498" lat="62.4846861151" lon="6.18280556037">
		<tag k="bay" v="fjord" />
		<tag k="fixme" v="multiple name tags, choose one and add the other to alt_name" />
		<tag k="name" v="Ellingsøyfjorden;Stavsetfjorden" />
		<tag k="natural" v="bay" />
		<tag k="ssr:stedsnr" v="435999" />
	</node>
	<node id="-575009" lat="62.483275003" lon="6.65150832885">
		<tag k="fixme" v="consider seamark:type=rock or natural=shoal" />
		<tag k="name" v="Skjeret" />
		<tag k="place" v="islet" />
		<tag k="ssr:stedsnr" v="945081" />
	</node>
	<node id="-574072" lat="62.4653861109" lon="6.65462778678">
		<tag k="name" v="Skaffarneset" />
		<tag k="natural" v="cape" />
		<tag k="ssr:stedsnr" v="338318" />
	</node>
	<node id="-575003" lat="62.5103055527" lon="6.60923332684">
		<tag k="name" v="Husvika" />
		<tag k="natural" v="bay" />
		<tag k="ssr:stedsnr" v="945022" />
	</node>
	<node id="-575002" lat="62.5034472213" lon="6.61942500903">
		<tag k="name" v="Sandstøa" />
		<tag k="natural" v="beach" />
		<tag k="place" v="locality" />
		<tag k="ssr:stedsnr" v="945014" />
	</node>
	<node id="-574487" lat="62.5121001597" lon="6.56613277945">
		<tag k="name" v="Vemøya" />
		<tag k="place" v="island" />
		<tag k="ssr:stedsnr" v="254119" />
	</node>
	<node id="-574484" lat="62.4551916635" lon="6.60750832986">
		<tag k="name" v="Storholmen" />
		<tag k="old_name" v="Storholmem" />
		<tag k="place" v="islet" />
		<tag k="ssr:stedsnr" v="253055" />
	</node>
	<node id="-574583" lat="62.5139694489" lon="6.4620972313">
		<tag k="name" v="Neset" />
		<tag k="natural" v="cape" />
		<tag k="ssr:stedsnr" v="520095" />
	</node>
	<node id="-574478" lat="62.4608111123" lon="6.62046387927">
		<tag k="name" v="Honningdalsneset" />
		<tag k="natural" v="cape" />
		<tag k="ssr:stedsnr" v="233965" />
	</node>
	<node id="-574477" lat="62.4719805593" lon="6.6713972224">
		<tag k="name" v="Søre Vallevika" />
		<tag k="natural" v="bay" />
		<tag k="ssr:stedsnr" v="233960" />
	</node>
	<node id="-574476" lat="62.524422218" lon="6.50228334282">
		<tag k="name" v="Steinsetskarneset" />
		<tag k="natural" v="cape" />
		<tag k="ssr:stedsnr" v="232067" />
	</node>
	<node id="-574986" lat="62.5022083377" lon="6.56656944455">
		<tag k="name" v="Trollholmen" />
		<tag k="place" v="islet" />
		<tag k="ssr:stedsnr" v="921092" />
	</node>
	<node id="-574985" lat="62.487327782" lon="6.66975554912">
		<tag k="alt_name" v="Fella" />
		<tag k="name" v="Fellene" />
		<tag k="natural" v="bay" />
		<tag k="ssr:stedsnr" v="921019" />
	</node>
	<node id="-574982" lat="62.5005972259" lon="6.67819722202">
		<tag k="name" v="Murvika" />
		<tag k="natural" v="bay" />
		<tag k="ssr:stedsnr" v="901434" />
	</node>
	<node id="-574467" lat="62.4441305534" lon="6.56182777825">
		<tag k="alt_name" v="Saltkjelen" />
		<tag k="name" v="Saltkjelneset" />
		<tag k="natural" v="cape" />
		<tag k="ssr:stedsnr" v="217374" />
	</node>
	<node id="-574123" lat="62.5176444468" lon="6.52203056322">
		<tag k="name" v="Ytstevågen" />
		<tag k="natural" v="bay" />
		<tag k="ssr:stedsnr" v="399289" />
	</node>
</osm>
