<?xml version="1.0" encoding="UTF-8"?>
<osm generator="osmapis" version="0.6">
	<node id="-573439" lat="62.547274999" lon="6.67070554844">
		<tag k="name" v="Lydhaugen" />
		<tag k="natural" v="hill" />
		<tag k="place" v="locality" />
		<tag k="ssr:stedsnr" v="72193" />
	</node>
	<node id="-573438" lat="62.5242749998" lon="6.55537778411">
		<tag k="name" v="Tennfjordkleiva" />
		<tag k="natural" v="slope" />
		<tag k="place" v="locality" />
		<tag k="ssr:stedsnr" v="72161" />
	</node>
	<node id="-573423" lat="62.5068611134" lon="6.66171666226">
		<tag k="name" v="Nedste Rongja" />
		<tag k="natural" v="valley" />
		<tag k="place" v="locality" />
		<tag k="ssr:stedsnr" v="35534" />
	</node>
	<node id="-573421" lat="62.5122972264" lon="6.68889444383">
		<tag k="name" v="Brisingen" />
		<tag k="natural" v="slope" />
		<tag k="place" v="locality" />
		<tag k="ssr:stedsnr" v="35522" />
	</node>
	<node id="-573419" lat="62.4545416669" lon="6.56490555127">
		<tag k="name" v="Rysdalshaugen" />
		<tag k="natural" v="hill" />
		<tag k="place" v="locality" />
		<tag k="ssr:stedsnr" v="35506" />
	</node>
	<node id="-573418" lat="62.5025833301" lon="6.75288889326">
		<tag k="name" v="Furlirørene" />
		<tag k="natural" v="ridge" />
		<tag k="place" v="locality" />
		<tag k="ssr:stedsnr" v="35500" />
	</node>
	<node id="-573410" lat="62.4829305598" lon="6.6172944527">
		<tag k="name" v="Høgfjellet" />
		<tag k="natural" v="hill" />
		<tag k="place" v="locality" />
		<tag k="ssr:stedsnr" v="35424" />
	</node>
	<node id="-573409" lat="62.4853277787" lon="6.6263472158">
		<tag k="name" v="Nonsstomnen" />
		<tag k="place" v="locality" />
		<tag k="ssr:stedsnr" v="35423" />
	</node>
	<node id="-573408" lat="62.4875083329" lon="6.61544443639">
		<tag k="name" v="Gamlehjellen" />
		<tag k="place" v="locality" />
		<tag k="ssr:stedsnr" v="35415" />
	</node>
	<node id="-573405" lat="62.4821111136" lon="6.58081667449">
		<tag k="name" v="Ørnakkskaret" />
		<tag k="natural" v="valley" />
		<tag k="place" v="locality" />
		<tag k="ssr:stedsnr" v="35401" />
	</node>
	<node id="-573404" lat="62.4924277801" lon="6.59030556315">
		<tag k="name" v="Smådalane" />
		<tag k="natural" v="valley" />
		<tag k="place" v="locality" />
		<tag k="ssr:stedsnr" v="35394" />
	</node>
	<node id="-573403" lat="62.4953388932" lon="6.58274166325">
		<tag k="name" v="Hagardsskaret" />
		<tag k="natural" v="valley" />
		<tag k="place" v="locality" />
		<tag k="ssr:stedsnr" v="35393" />
	</node>
	<node id="-573402" lat="62.5153305556" lon="6.78750000778">
		<tag k="name" v="Nausa" />
		<tag k="natural" v="ridge" />
		<tag k="place" v="locality" />
		<tag k="ssr:stedsnr" v="35379" />
	</node>
	<node id="-573401" lat="62.5005694408" lon="6.5131722241">
		<tag k="name" v="Juvågbakken" />
		<tag k="natural" v="slope" />
		<tag k="place" v="locality" />
		<tag k="ssr:stedsnr" v="35340" />
	</node>
	<node id="-573400" lat="62.4930611146" lon="6.52402499435">
		<tag k="name" v="Demmingshaugen" />
		<tag k="natural" v="hill" />
		<tag k="place" v="locality" />
		<tag k="ssr:stedsnr" v="35326" />
	</node>
	<node id="-573398" lat="62.5041638856" lon="6.50898611035">
		<tag k="name" v="Klombrehaugen" />
		<tag k="natural" v="hill" />
		<tag k="place" v="locality" />
		<tag k="ssr:stedsnr" v="35301" />
	</node>
	<node id="-573396" lat="62.5266722254" lon="6.76133334102">
		<tag k="name" v="Medalane" />
		<tag k="natural" v="slope" />
		<tag k="place" v="locality" />
		<tag k="ssr:stedsnr" v="35127" />
	</node>
	<node id="-573391" lat="62.5059083343" lon="6.63167499362">
		<tag k="name" v="Straumskleiva" />
		<tag k="natural" v="slope" />
		<tag k="place" v="locality" />
		<tag k="ssr:stedsnr" v="35057" />
	</node>
	<node id="-573390" lat="62.4705083329" lon="6.54509445017">
		<tag k="name" v="Mælen" />
		<tag k="natural" v="hill" />
		<tag k="place" v="locality" />
		<tag k="ssr:stedsnr" v="35054" />
	</node>
	<node id="-573388" lat="62.4889277744" lon="6.68185277536">
		<tag k="name" v="Fellehaugen" />
		<tag k="natural" v="hill" />
		<tag k="place" v="locality" />
		<tag k="ssr:stedsnr" v="35053" />
	</node>
	<node id="-573386" lat="62.5021055566" lon="6.51866665767">
		<tag k="name" v="Klingerthaugen" />
		<tag k="natural" v="hill" />
		<tag k="place" v="locality" />
		<tag k="ssr:stedsnr" v="35044" />
	</node>
	<node id="-573382" lat="62.5050138924" lon="6.77525833672">
		<tag k="name" v="Heiane" />
		<tag k="natural" v="hill" />
		<tag k="place" v="locality" />
		<tag k="ssr:stedsnr" v="35022" />
	</node>
	<node id="-573380" lat="62.4858805586" lon="6.635133341">
		<tag k="name" v="Stølane" />
		<tag k="natural" v="slope" />
		<tag k="place" v="locality" />
		<tag k="ssr:stedsnr" v="35015" />
	</node>
	<node id="-573377" lat="62.5243166697" lon="6.51648888145">
		<tag k="name" v="Ørnehamaren" />
		<tag k="natural" v="cliff" />
		<tag k="ssr:stedsnr" v="34001" />
	</node>
	<node id="-573375" lat="62.5598861132" lon="6.79767778201">
		<tag k="fixme" v="consider natural=peak for the most distinct mountains in the district" />
		<tag k="name" v="Nordskåla" />
		<tag k="natural" v="hill" />
		<tag k="place" v="locality" />
		<tag k="ssr:stedsnr" v="33817" />
	</node>
	<node id="-573374" lat="62.5405444441" lon="6.65269166218">
		<tag k="name" v="Kamben" />
		<tag k="place" v="locality" />
		<tag k="ssr:stedsnr" v="33748" />
	</node>
	<node id="-573342" lat="62.4804500028" lon="6.70893056387">
		<tag k="name" v="Sandgota" />
		<tag k="natural" v="ridge" />
		<tag k="place" v="locality" />
		<tag k="ssr:stedsnr" v="278732" />
	</node>
	<node id="-573341" lat="62.4847027742" lon="6.74411667027">
		<tag k="name" v="Høgnakken" />
		<tag k="natural" v="ridge" />
		<tag k="place" v="locality" />
		<tag k="ssr:stedsnr" v="520651" />
	</node>
	<node id="-573340" lat="62.4796619118" lon="6.73069088642">
		<tag k="name" v="Djupdalen" />
		<tag k="natural" v="valley" />
		<tag k="place" v="locality" />
		<tag k="ssr:stedsnr" v="338674" />
	</node>
	<node id="-573335" lat="62.5122388866" lon="6.61671944159">
		<tag k="name" v="Storløypa" />
		<tag k="natural" v="ridge" />
		<tag k="place" v="locality" />
		<tag k="ssr:stedsnr" v="885494" />
	</node>
	<node id="-573333" lat="62.5124027782" lon="6.6349027829">
		<tag k="name" v="Osphjellen" />
		<tag k="place" v="locality" />
		<tag k="ssr:stedsnr" v="885480" />
	</node>
	<node id="-573331" lat="62.4940666653" lon="6.72004722808">
		<tag k="name" v="Apalvikhaugen" />
		<tag k="natural" v="hill" />
		<tag k="place" v="locality" />
		<tag k="ssr:stedsnr" v="885458" />
	</node>
	<node id="-573329" lat="62.4849166628" lon="6.53030000929">
		<tag k="name" v="Elvadalen" />
		<tag k="natural" v="valley" />
		<tag k="place" v="locality" />
		<tag k="ssr:stedsnr" v="885435" />
	</node>
	<node id="-573326" lat="62.4694027737" lon="6.62883332819">
		<tag k="name" v="Vikefjellet" />
		<tag k="natural" v="hill" />
		<tag k="place" v="locality" />
		<tag k="ssr:stedsnr" v="885413" />
	</node>
	<node id="-573324" lat="62.4704388931" lon="6.6355249965">
		<tag k="name" v="Ospahaugbakken" />
		<tag k="natural" v="slope" />
		<tag k="place" v="locality" />
		<tag k="ssr:stedsnr" v="885400" />
	</node>
	<node id="-573323" lat="62.4682611155" lon="6.64045555894">
		<tag k="name" v="Matkisthola" />
		<tag k="place" v="locality" />
		<tag k="ssr:stedsnr" v="885401" />
	</node>
	<node id="-573322" lat="62.4448083314" lon="6.55529166877">
		<tag k="name" v="Hessebergdalen" />
		<tag k="natural" v="valley" />
		<tag k="place" v="locality" />
		<tag k="ssr:stedsnr" v="885393" />
	</node>
	<node id="-573321" lat="62.4519861145" lon="6.59029444587">
		<tag k="name" v="Lillehalsen" />
		<tag k="natural" v="ridge" />
		<tag k="place" v="locality" />
		<tag k="ssr:stedsnr" v="885385" />
	</node>
	<node id="-573317" lat="62.4852444413" lon="6.57435832728">
		<tag k="name" v="Brøthaugane" />
		<tag k="natural" v="hill" />
		<tag k="place" v="locality" />
		<tag k="ssr:stedsnr" v="885341" />
	</node>
	<node id="-573316" lat="62.4949833292" lon="6.60545000354">
		<tag k="name" v="Ramnhammaren" />
		<tag k="natural" v="cliff" />
		<tag k="ssr:stedsnr" v="885336" />
	</node>
	<node id="-573314" lat="62.4907277798" lon="6.56443056111">
		<tag k="name" v="Middagshaugen" />
		<tag k="natural" v="hill" />
		<tag k="place" v="locality" />
		<tag k="ssr:stedsnr" v="885322" />
	</node>
	<node id="-573312" lat="62.4825999979" lon="6.53355556239">
		<tag k="name" v="Vasshaugane" />
		<tag k="natural" v="hill" />
		<tag k="place" v="locality" />
		<tag k="ssr:stedsnr" v="885281" />
	</node>
	<node id="-573310" lat="62.4902250018" lon="6.51739445238">
		<tag k="name" v="Trongdalen" />
		<tag k="natural" v="valley" />
		<tag k="place" v="locality" />
		<tag k="ssr:stedsnr" v="885274" />
	</node>
	<node id="-573309" lat="62.4702416692" lon="6.60358333208">
		<tag k="name" v="Mjølkebrauta" />
		<tag k="natural" v="slope" />
		<tag k="place" v="locality" />
		<tag k="ssr:stedsnr" v="885263" />
	</node>
	<node id="-573308" lat="62.5186166627" lon="6.54225555004">
		<tag k="fixme" v="consider natural=peak for the most distinct mountains in the district" />
		<tag k="name" v="Langhaugen" />
		<tag k="natural" v="hill" />
		<tag k="place" v="locality" />
		<tag k="ssr:stedsnr" v="885260" />
	</node>
	<node id="-573307" lat="62.4655722216" lon="6.5339944522">
		<tag k="name" v="Botnane" />
		<tag k="natural" v="valley" />
		<tag k="place" v="locality" />
		<tag k="ssr:stedsnr" v="885103" />
	</node>
	<node id="-573305" lat="62.4864916681" lon="6.51910000732">
		<tag k="name" v="Dalane" />
		<tag k="natural" v="valley" />
		<tag k="place" v="locality" />
		<tag k="ssr:stedsnr" v="885094" />
	</node>
	<node id="-573304" lat="62.4947861153" lon="6.53820833287">
		<tag k="name" v="Bruna" />
		<tag k="natural" v="ridge" />
		<tag k="place" v="locality" />
		<tag k="ssr:stedsnr" v="885082" />
	</node>
	<node id="-573297" lat="62.5053666624" lon="6.63708333793">
		<tag k="name" v="Grindvikbakkane" />
		<tag k="natural" v="slope" />
		<tag k="place" v="locality" />
		<tag k="ssr:stedsnr" v="885036" />
	</node>
	<node id="-573292" lat="62.5499444471" lon="6.68014999285">
		<tag k="name" v="Gnubben" />
		<tag k="natural" v="hill" />
		<tag k="place" v="locality" />
		<tag k="ssr:stedsnr" v="883472" />
	</node>
	<node id="-573289" lat="62.48579722" lon="6.47621666033">
		<tag k="name" v="Lynghaughola" />
		<tag k="natural" v="valley" />
		<tag k="place" v="locality" />
		<tag k="ssr:stedsnr" v="399511" />
	</node>
	<node id="-573287" lat="62.5100166701" lon="6.64591667189">
		<tag k="name" v="Skindalen" />
		<tag k="natural" v="valley" />
		<tag k="place" v="locality" />
		<tag k="ssr:stedsnr" v="399492" />
	</node>
	<node id="-573286" lat="62.5159722197" lon="6.69302499185">
		<tag k="name" v="Skahamrane" />
		<tag k="natural" v="cliff" />
		<tag k="ssr:stedsnr" v="399486" />
	</node>
	<node id="-573283" lat="62.4655611087" lon="6.61572778247">
		<tag k="name" v="Kvennhushaugen" />
		<tag k="natural" v="hill" />
		<tag k="place" v="locality" />
		<tag k="ssr:stedsnr" v="399455" />
	</node>
	<node id="-573282" lat="62.4727527813" lon="6.62621111966">
		<tag k="name" v="Høghaugen" />
		<tag k="natural" v="hill" />
		<tag k="place" v="locality" />
		<tag k="ssr:stedsnr" v="399453" />
	</node>
	<node id="-573280" lat="62.4697638853" lon="6.64143333563">
		<tag k="name" v="Ospahaugen" />
		<tag k="natural" v="hill" />
		<tag k="place" v="locality" />
		<tag k="ssr:stedsnr" v="399429" />
	</node>
	<node id="-573279" lat="62.4747027748" lon="6.64340555572">
		<tag k="name" v="Langhaugane" />
		<tag k="natural" v="hill" />
		<tag k="place" v="locality" />
		<tag k="ssr:stedsnr" v="399426" />
	</node>
	<node id="-573278" lat="62.4759611136" lon="6.65183054956">
		<tag k="name" v="Hjellnakken" />
		<tag k="natural" v="ridge" />
		<tag k="place" v="locality" />
		<tag k="ssr:stedsnr" v="399425" />
	</node>
	<node id="-573277" lat="62.472600003" lon="6.66922221352">
		<tag k="name" v="Hesthaugen" />
		<tag k="natural" v="hill" />
		<tag k="place" v="locality" />
		<tag k="ssr:stedsnr" v="399424" />
	</node>
	<node id="-573275" lat="62.4680500001" lon="6.52864443794">
		<tag k="name" v="Byrkjelia" />
		<tag k="natural" v="slope" />
		<tag k="place" v="locality" />
		<tag k="ssr:stedsnr" v="399410" />
	</node>
	<node id="-573274" lat="62.4970138919" lon="6.46569721528">
		<tag k="name" v="Storfjellet" />
		<tag k="natural" v="slope" />
		<tag k="place" v="locality" />
		<tag k="ssr:stedsnr" v="399404" />
	</node>
	<node id="-573270" lat="62.4958305577" lon="6.62496110906">
		<tag k="name" v="Svarthammaren" />
		<tag k="natural" v="cliff" />
		<tag k="ssr:stedsnr" v="399367" />
	</node>
	<node id="-573269" lat="62.4815499958" lon="6.580330557">
		<tag k="name" v="Ørnakkdalen" />
		<tag k="natural" v="valley" />
		<tag k="place" v="locality" />
		<tag k="ssr:stedsnr" v="399365" />
	</node>
	<node id="-573266" lat="62.4940194436" lon="6.53975276856">
		<tag k="name" v="Skarlemmen" />
		<tag k="natural" v="valley" />
		<tag k="place" v="locality" />
		<tag k="ssr:stedsnr" v="399294" />
	</node>
	<node id="-573265" lat="62.5029166671" lon="6.52746111782">
		<tag k="name" v="Natvikhaugen" />
		<tag k="natural" v="hill" />
		<tag k="place" v="locality" />
		<tag k="ssr:stedsnr" v="399293" />
	</node>
	<node id="-573263" lat="62.5210722263" lon="6.5089500074">
		<tag k="fixme" v="consider natural=peak for the most distinct mountains in the district" />
		<tag k="name" v="Steinsetfjellet" />
		<tag k="natural" v="hill" />
		<tag k="place" v="locality" />
		<tag k="ssr:stedsnr" v="399288" />
	</node>
	<node id="-573257" lat="62.4723666701" lon="6.53722499475">
		<tag k="name" v="Lilletua" />
		<tag k="natural" v="hill" />
		<tag k="place" v="locality" />
		<tag k="ssr:stedsnr" v="399118" />
	</node>
	<node id="-573256" lat="62.4848972194" lon="6.52309443664">
		<tag k="name" v="Løhaugen" />
		<tag k="natural" v="hill" />
		<tag k="place" v="locality" />
		<tag k="ssr:stedsnr" v="399113" />
	</node>
	<node id="-573252" lat="62.4722916639" lon="6.61398056038">
		<tag k="name" v="Hjellen" />
		<tag k="place" v="locality" />
		<tag k="ssr:stedsnr" v="399070" />
	</node>
	<node id="-573248" lat="62.5130833295" lon="6.70791943801">
		<tag k="name" v="Brautene" />
		<tag k="natural" v="slope" />
		<tag k="place" v="locality" />
		<tag k="ssr:stedsnr" v="399054" />
	</node>
	<node id="-573247" lat="62.5092666621" lon="6.72516110185">
		<tag k="name" v="Nausa" />
		<tag k="natural" v="hill" />
		<tag k="place" v="locality" />
		<tag k="ssr:stedsnr" v="399045" />
	</node>
	<node id="-573245" lat="62.4752055534" lon="6.60855277305">
		<tag k="name" v="Nausa" />
		<tag k="natural" v="ridge" />
		<tag k="place" v="locality" />
		<tag k="ssr:stedsnr" v="399023" />
	</node>
	<node id="-573244" lat="62.4797194415" lon="6.59202499539">
		<tag k="name" v="Akslene" />
		<tag k="natural" v="ridge" />
		<tag k="place" v="locality" />
		<tag k="ssr:stedsnr" v="399007" />
	</node>
	<node id="-573243" lat="62.5093583322" lon="6.6670166689">
		<tag k="name" v="Brauta" />
		<tag k="natural" v="slope" />
		<tag k="place" v="locality" />
		<tag k="ssr:stedsnr" v="399005" />
	</node>
	<node id="-573242" lat="62.5268361128" lon="6.58572500917">
		<tag k="name" v="Kleiva" />
		<tag k="natural" v="valley" />
		<tag k="place" v="locality" />
		<tag k="ssr:stedsnr" v="397652" />
	</node>
	<node id="-573239" lat="62.5488166667" lon="6.82720834211">
		<tag k="name" v="Dyrlia" />
		<tag k="natural" v="slope" />
		<tag k="place" v="locality" />
		<tag k="ssr:stedsnr" v="375912" />
	</node>
	<node id="-573238" lat="62.5072722261" lon="6.75528611677">
		<tag k="name" v="Langhaugane" />
		<tag k="natural" v="hill" />
		<tag k="place" v="locality" />
		<tag k="ssr:stedsnr" v="375856" />
	</node>
	<node id="-573237" lat="62.5120555577" lon="6.78716667289">
		<tag k="name" v="Sætrelia" />
		<tag k="natural" v="slope" />
		<tag k="place" v="locality" />
		<tag k="ssr:stedsnr" v="375854" />
	</node>
	<node id="-573233" lat="62.5190694454" lon="6.67178332562">
		<tag k="name" v="Markadelda" />
		<tag k="natural" v="valley" />
		<tag k="place" v="locality" />
		<tag k="ssr:stedsnr" v="375103" />
	</node>
	<node id="-573227" lat="62.5378833338" lon="6.72462223105">
		<tag k="name" v="Engsetdalen" />
		<tag k="natural" v="valley" />
		<tag k="place" v="locality" />
		<tag k="ssr:stedsnr" v="358964" />
	</node>
	<node id="-573222" lat="62.5109222261" lon="6.66533334031">
		<tag k="name" v="Fallhaugane" />
		<tag k="natural" v="hill" />
		<tag k="place" v="locality" />
		<tag k="ssr:stedsnr" v="338392" />
	</node>
	<node id="-573218" lat="62.4754166647" lon="6.62220277382">
		<tag k="name" v="Leitaløypa" />
		<tag k="natural" v="valley" />
		<tag k="place" v="locality" />
		<tag k="ssr:stedsnr" v="338334" />
	</node>
	<node id="-573217" lat="62.4699305573" lon="6.61044999888">
		<tag k="name" v="Kannarberget" />
		<tag k="natural" v="hill" />
		<tag k="place" v="locality" />
		<tag k="ssr:stedsnr" v="338328" />
	</node>
	<node id="-573214" lat="62.463349996" lon="6.63701111817">
		<tag k="name" v="Langneshaugen" />
		<tag k="natural" v="hill" />
		<tag k="place" v="locality" />
		<tag k="ssr:stedsnr" v="338325" />
	</node>
	<node id="-573211" lat="62.4880666661" lon="6.44606111582">
		<tag k="name" v="Nevreskaret" />
		<tag k="natural" v="valley" />
		<tag k="place" v="locality" />
		<tag k="ssr:stedsnr" v="338292" />
	</node>
	<node id="-573210" lat="62.5023361106" lon="6.60912499781">
		<tag k="name" v="Røtenøbba" />
		<tag k="natural" v="hill" />
		<tag k="place" v="locality" />
		<tag k="ssr:stedsnr" v="338286" />
	</node>
	<node id="-573207" lat="62.5106999959" lon="6.76797222892">
		<tag k="name" v="Osphaugen" />
		<tag k="natural" v="hill" />
		<tag k="place" v="locality" />
		<tag k="ssr:stedsnr" v="338255" />
	</node>
	<node id="-573206" lat="62.5418472268" lon="6.67424723128">
		<tag k="name" v="Lilleberget" />
		<tag k="natural" v="hill" />
		<tag k="place" v="locality" />
		<tag k="ssr:stedsnr" v="338256" />
	</node>
	<node id="-573204" lat="62.4919888881" lon="6.51674165915">
		<tag k="name" v="Demmingsdalen" />
		<tag k="natural" v="valley" />
		<tag k="place" v="locality" />
		<tag k="ssr:stedsnr" v="338225" />
	</node>
	<node id="-573203" lat="62.4928388886" lon="6.541736119">
		<tag k="name" v="Hatlebakken" />
		<tag k="natural" v="slope" />
		<tag k="place" v="locality" />
		<tag k="ssr:stedsnr" v="338215" />
	</node>
	<node id="-573202" lat="62.466713893" lon="6.57021666412">
		<tag k="name" v="Trøne" />
		<tag k="natural" v="valley" />
		<tag k="place" v="locality" />
		<tag k="ssr:stedsnr" v="338092" />
	</node>
	<node id="-573197" lat="62.4542666689" lon="6.57598889754">
		<tag k="name" v="Nakkane" />
		<tag k="natural" v="hill" />
		<tag k="place" v="locality" />
		<tag k="ssr:stedsnr" v="338018" />
	</node>
	<node id="-573195" lat="62.4963916642" lon="6.55841665772">
		<tag k="name" v="Øyareset" />
		<tag k="natural" v="valley" />
		<tag k="place" v="locality" />
		<tag k="ssr:stedsnr" v="338011" />
	</node>
	<node id="-573192" lat="62.5503305577" lon="6.79627499734">
		<tag k="fixme" v="consider natural=peak for the most distinct mountains in the district" />
		<tag k="name" v="Sørskåla" />
		<tag k="natural" v="hill" />
		<tag k="place" v="locality" />
		<tag k="ssr:stedsnr" v="337795" />
	</node>
	<node id="-573189" lat="62.5237527814" lon="6.53974444464">
		<tag k="name" v="Kallskaret" />
		<tag k="natural" v="valley" />
		<tag k="place" v="locality" />
		<tag k="ssr:stedsnr" v="337004" />
	</node>
	<node id="-573184" lat="62.5401916676" lon="6.77551110497">
		<tag k="name" v="Øyedalen" />
		<tag k="natural" v="valley" />
		<tag k="place" v="locality" />
		<tag k="ssr:stedsnr" v="314891" />
	</node>
	<node id="-573167" lat="62.5128250019" lon="6.61101111549">
		<tag k="name" v="Langhaugane" />
		<tag k="natural" v="hill" />
		<tag k="place" v="locality" />
		<tag k="ssr:stedsnr" v="278534" />
	</node>
	<node id="-573166" lat="62.5159305571" lon="6.65373332352">
		<tag k="name" v="Ringen" />
		<tag k="natural" v="hill" />
		<tag k="place" v="locality" />
		<tag k="ssr:stedsnr" v="278530" />
	</node>
	<node id="-573165" lat="62.5140055557" lon="6.66872222351">
		<tag k="name" v="Rognskaret" />
		<tag k="natural" v="valley" />
		<tag k="place" v="locality" />
		<tag k="ssr:stedsnr" v="278521" />
	</node>
	<node id="-573162" lat="62.4751999999" lon="6.67386667517">
		<tag k="name" v="Bratteberget" />
		<tag k="natural" v="cliff" />
		<tag k="ssr:stedsnr" v="278494" />
	</node>
	<node id="-573161" lat="62.5436027743" lon="6.69113612052">
		<tag k="name" v="Grasdalen" />
		<tag k="natural" v="valley" />
		<tag k="place" v="locality" />
		<tag k="ssr:stedsnr" v="278468" />
	</node>
	<node id="-573157" lat="62.4612388918" lon="6.55561944877">
		<tag k="name" v="Nedsteheia" />
		<tag k="natural" v="slope" />
		<tag k="place" v="locality" />
		<tag k="ssr:stedsnr" v="278391" />
	</node>
	<node id="-573155" lat="62.4897583365" lon="6.61954166879">
		<tag k="name" v="Timbrehaugane" />
		<tag k="natural" v="hill" />
		<tag k="place" v="locality" />
		<tag k="ssr:stedsnr" v="278379" />
	</node>
	<node id="-573153" lat="62.4941277757" lon="6.55563332608">
		<tag k="name" v="Meraftanakken" />
		<tag k="natural" v="ridge" />
		<tag k="place" v="locality" />
		<tag k="ssr:stedsnr" v="278347" />
	</node>
	<node id="-573152" lat="62.489399999" lon="6.56785833562">
		<tag k="name" v="Bjønnahiet" />
		<tag k="place" v="locality" />
		<tag k="ssr:stedsnr" v="278341" />
	</node>
	<node id="-573151" lat="62.488027782" lon="6.5355972215">
		<tag k="name" v="Olaplassen" />
		<tag k="natural" v="valley" />
		<tag k="place" v="locality" />
		<tag k="ssr:stedsnr" v="278312" />
	</node>
	<node id="-573150" lat="62.4901527755" lon="6.50201111921">
		<tag k="fixme" v="consider natural=peak for the most distinct mountains in the district" />
		<tag k="name" v="Slettbakk-kleiva" />
		<tag k="natural" v="hill" />
		<tag k="place" v="locality" />
		<tag k="ssr:stedsnr" v="278310" />
	</node>
	<node id="-573148" lat="62.4993777791" lon="6.51969722377">
		<tag k="name" v="Høghjellen" />
		<tag k="place" v="locality" />
		<tag k="ssr:stedsnr" v="278304" />
	</node>
	<node id="-573147" lat="62.479172222" lon="6.60536110975">
		<tag k="name" v="Fuglenakkane" />
		<tag k="natural" v="ridge" />
		<tag k="place" v="locality" />
		<tag k="ssr:stedsnr" v="278289" />
	</node>
	<node id="-573145" lat="62.4766722224" lon="6.62074721385">
		<tag k="name" v="Gudmundshamrane" />
		<tag k="natural" v="cliff" />
		<tag k="ssr:stedsnr" v="278451" />
	</node>
	<node id="-573144" lat="62.4586638932" lon="6.60686110499">
		<tag k="name" v="Einhaugen" />
		<tag k="natural" v="hill" />
		<tag k="place" v="locality" />
		<tag k="ssr:stedsnr" v="278428" />
	</node>
	<node id="-573141" lat="62.4955222228" lon="6.51065000519">
		<tag k="name" v="Grønhola" />
		<tag k="natural" v="valley" />
		<tag k="place" v="locality" />
		<tag k="ssr:stedsnr" v="278136" />
	</node>
	<node id="-573139" lat="62.5000055549" lon="6.47800832947">
		<tag k="name" v="Rabben" />
		<tag k="natural" v="slope" />
		<tag k="place" v="locality" />
		<tag k="ssr:stedsnr" v="278131" />
	</node>
	<node id="-573137" lat="62.4886472223" lon="6.53919999789">
		<tag k="name" v="Nakken" />
		<tag k="natural" v="hill" />
		<tag k="place" v="locality" />
		<tag k="ssr:stedsnr" v="278115" />
	</node>
	<node id="-573132" lat="62.5427388908" lon="6.804533338">
		<tag k="name" v="Dalsbotn" />
		<tag k="natural" v="valley" />
		<tag k="place" v="locality" />
		<tag k="ssr:stedsnr" v="278065" />
	</node>
	<node id="-573130" lat="62.500291667" lon="6.53103055498">
		<tag k="name" v="Haugen" />
		<tag k="natural" v="hill" />
		<tag k="place" v="locality" />
		<tag k="ssr:stedsnr" v="278061" />
	</node>
	<node id="-573127" lat="62.4776500003" lon="6.55011110238">
		<tag k="name" v="Rambjøra" />
		<tag k="natural" v="hill" />
		<tag k="place" v="locality" />
		<tag k="ssr:stedsnr" v="278010" />
	</node>
	<node id="-573126" lat="62.5387027772" lon="6.66565277563">
		<tag k="name" v="Stigehaugane" />
		<tag k="natural" v="hill" />
		<tag k="place" v="locality" />
		<tag k="ssr:stedsnr" v="276771" />
	</node>
	<node id="-573125" lat="62.5350250031" lon="6.64860000028">
		<tag k="name" v="Torvløbakken" />
		<tag k="natural" v="hill" />
		<tag k="place" v="locality" />
		<tag k="ssr:stedsnr" v="276764" />
	</node>
	<node id="-574191" lat="62.5069333376" lon="6.65718610697">
		<tag k="name" v="Kvennhushaugen" />
		<tag k="natural" v="hill" />
		<tag k="place" v="locality" />
		<tag k="ssr:stedsnr" v="946427" />
	</node>
	<node id="-574190" lat="62.5055499974" lon="6.70535000375">
		<tag k="name" v="Brisingberget" />
		<tag k="natural" v="hill" />
		<tag k="place" v="locality" />
		<tag k="ssr:stedsnr" v="946423" />
	</node>
	<node id="-574187" lat="62.4817944427" lon="6.72795833813">
		<tag k="name" v="Stornakken" />
		<tag k="natural" v="ridge" />
		<tag k="place" v="locality" />
		<tag k="ssr:stedsnr" v="946411" />
	</node>
	<node id="-574185" lat="62.4772944479" lon="6.66997499667">
		<tag k="name" v="Kleivaskaret" />
		<tag k="natural" v="valley" />
		<tag k="place" v="locality" />
		<tag k="ssr:stedsnr" v="946400" />
	</node>
	<node id="-574184" lat="62.4652055583" lon="6.63952777807">
		<tag k="name" v="Hjellhaugen" />
		<tag k="natural" v="hill" />
		<tag k="place" v="locality" />
		<tag k="ssr:stedsnr" v="946396" />
	</node>
	<node id="-574182" lat="62.5283694478" lon="6.71839166546">
		<tag k="name" v="Brunekyrkja" />
		<tag k="place" v="locality" />
		<tag k="ssr:stedsnr" v="946385" />
	</node>
	<node id="-574180" lat="62.5289888912" lon="6.79815833424">
		<tag k="name" v="Stabbefurhaugane" />
		<tag k="natural" v="hill" />
		<tag k="place" v="locality" />
		<tag k="ssr:stedsnr" v="946379" />
	</node>
	<node id="-574179" lat="62.4735944437" lon="6.61428612001">
		<tag k="name" v="Glomsetheia" />
		<tag k="natural" v="slope" />
		<tag k="place" v="locality" />
		<tag k="ssr:stedsnr" v="946377" />
	</node>
	<node id="-574173" lat="62.4576361087" lon="6.59628056305">
		<tag k="name" v="Kleivahaugen" />
		<tag k="natural" v="hill" />
		<tag k="place" v="locality" />
		<tag k="ssr:stedsnr" v="946353" />
	</node>
	<node id="-574172" lat="62.4574805586" lon="6.56371666487">
		<tag k="name" v="Fjellsenden" />
		<tag k="natural" v="ridge" />
		<tag k="place" v="locality" />
		<tag k="ssr:stedsnr" v="946350" />
	</node>
	<node id="-574168" lat="62.5174388879" lon="6.47642499104">
		<tag k="name" v="Fjellsenden" />
		<tag k="natural" v="ridge" />
		<tag k="place" v="locality" />
		<tag k="ssr:stedsnr" v="946334" />
	</node>
	<node id="-574167" lat="62.4981527789" lon="6.47578611353">
		<tag k="name" v="Sætrehaugen" />
		<tag k="natural" v="hill" />
		<tag k="place" v="locality" />
		<tag k="ssr:stedsnr" v="946327" />
	</node>
	<node id="-574166" lat="62.4864194468" lon="6.74296110201">
		<tag k="name" v="Svartedøra" />
		<tag k="natural" v="cliff" />
		<tag k="ssr:stedsnr" v="946284" />
	</node>
	<node id="-574165" lat="62.5341722183" lon="6.78899443969">
		<tag k="name" v="Nakkane" />
		<tag k="natural" v="slope" />
		<tag k="place" v="locality" />
		<tag k="ssr:stedsnr" v="946044" />
	</node>
	<node id="-574161" lat="62.4922138933" lon="6.61431666347">
		<tag k="name" v="Lyngbakkane" />
		<tag k="natural" v="slope" />
		<tag k="place" v="locality" />
		<tag k="ssr:stedsnr" v="945311" />
	</node>
	<node id="-574159" lat="62.4845611102" lon="6.56865833796">
		<tag k="name" v="Nørebotnen" />
		<tag k="natural" v="valley" />
		<tag k="place" v="locality" />
		<tag k="ssr:stedsnr" v="945299" />
	</node>
	<node id="-574158" lat="62.4886944469" lon="6.59558054609">
		<tag k="name" v="Vasshaugen" />
		<tag k="natural" v="hill" />
		<tag k="place" v="locality" />
		<tag k="ssr:stedsnr" v="945297" />
	</node>
	<node id="-574155" lat="62.4926138918" lon="6.54426945287">
		<tag k="name" v="Fjellsenden" />
		<tag k="natural" v="ridge" />
		<tag k="place" v="locality" />
		<tag k="ssr:stedsnr" v="945258" />
	</node>
	<node id="-574153" lat="62.4672666685" lon="6.59844722795">
		<tag k="name" v="Honningdalsdalen" />
		<tag k="natural" v="valley" />
		<tag k="place" v="locality" />
		<tag k="ssr:stedsnr" v="945253" />
	</node>
	<node id="-574151" lat="62.480888887" lon="6.59545833142">
		<tag k="name" v="Akslene" />
		<tag k="natural" v="ridge" />
		<tag k="place" v="locality" />
		<tag k="ssr:stedsnr" v="945087" />
	</node>
	<node id="-574142" lat="62.4804611108" lon="6.64959167357">
		<tag k="name" v="Nakkane" />
		<tag k="natural" v="ridge" />
		<tag k="place" v="locality" />
		<tag k="ssr:stedsnr" v="945007" />
	</node>
	<node id="-574140" lat="62.5391472263" lon="6.66484722686">
		<tag k="name" v="Skarsberget" />
		<tag k="natural" v="hill" />
		<tag k="place" v="locality" />
		<tag k="ssr:stedsnr" v="944740" />
	</node>
	<node id="-574135" lat="62.4950861149" lon="6.51823334231">
		<tag k="fixme" v="consider natural=peak for the most distinct mountains in the district" />
		<tag k="name" v="Storegga" />
		<tag k="natural" v="hill" />
		<tag k="place" v="locality" />
		<tag k="ssr:stedsnr" v="930333" />
	</node>
	<node id="-574121" lat="62.4748559323" lon="6.57968589971">
		<tag k="alt_name" v="Orrenakkdalen" />
		<tag k="name" v="Ørnakkdalen" />
		<tag k="natural" v="valley" />
		<tag k="place" v="locality" />
		<tag k="ssr:stedsnr" v="869359" />
	</node>
	<node id="-574120" lat="62.5525527735" lon="6.78143612088">
		<tag k="fixme" v="multiple name tags, choose one and add the other to alt_name" />
		<tag k="name" v="Engsetbotnen;Litle Engsetbotnen" />
		<tag k="natural" v="valley" />
		<tag k="place" v="locality" />
		<tag k="ssr:stedsnr" v="861932" />
	</node>
	<node id="-574116" lat="62.5533305562" lon="6.71332500533">
		<tag k="fixme" v="consider natural=peak for the most distinct mountains in the district" />
		<tag k="name" v="Grasdalsfjellet" />
		<tag k="natural" v="hill" />
		<tag k="place" v="locality" />
		<tag k="ssr:stedsnr" v="861213" />
	</node>
	<node id="-574113" lat="62.5137333317" lon="6.62424722102">
		<tag k="fixme" v="consider natural=peak for the most distinct mountains in the district" />
		<tag k="name" v="Halsane" />
		<tag k="natural" v="hill" />
		<tag k="place" v="locality" />
		<tag k="ssr:stedsnr" v="861134" />
	</node>
	<node id="-574107" lat="62.4785055858" lon="6.57335365128">
		<tag k="name" v="Glomsetskaret" />
		<tag k="natural" v="valley" />
		<tag k="place" v="locality" />
		<tag k="ssr:stedsnr" v="860030" />
	</node>
	<node id="-574106" lat="62.4775194421" lon="6.61856943764">
		<tag k="alt_name" v="Hovudtuva" />
		<tag k="fixme" v="consider natural=peak for the most distinct mountains in the district" />
		<tag k="name" v="Haugtua" />
		<tag k="natural" v="hill" />
		<tag k="place" v="locality" />
		<tag k="ssr:stedsnr" v="860027" />
	</node>
	<node id="-574105" lat="62.5482444418" lon="6.79340832415">
		<tag k="fixme" v="consider natural=peak for the most distinct mountains in the district" />
		<tag k="name" v="Småheiane" />
		<tag k="natural" v="hill" />
		<tag k="place" v="locality" />
		<tag k="ssr:stedsnr" v="861918" />
	</node>
	<node id="-574102" lat="62.5074055564" lon="6.66146943711">
		<tag k="name" v="Øvste Rongja" />
		<tag k="natural" v="valley" />
		<tag k="place" v="locality" />
		<tag k="ssr:stedsnr" v="824469" />
	</node>
	<node id="-574100" lat="62.518274997" lon="6.73115833221">
		<tag k="name" v="Brisingberget" />
		<tag k="natural" v="hill" />
		<tag k="place" v="locality" />
		<tag k="ssr:stedsnr" v="824458" />
	</node>
	<node id="-574096" lat="62.4852500003" lon="6.72061388411">
		<tag k="name" v="Lauvvikhammaren" />
		<tag k="natural" v="cliff" />
		<tag k="ssr:stedsnr" v="824444" />
	</node>
	<node id="-574095" lat="62.520005555" lon="6.78243888405">
		<tag k="name" v="Nonsskaret" />
		<tag k="natural" v="valley" />
		<tag k="place" v="locality" />
		<tag k="ssr:stedsnr" v="824441" />
	</node>
	<node id="-574094" lat="62.4808694449" lon="6.62722778396">
		<tag k="name" v="Haugdalen" />
		<tag k="natural" v="valley" />
		<tag k="place" v="locality" />
		<tag k="ssr:stedsnr" v="824436" />
	</node>
	<node id="-574091" lat="62.4707444476" lon="6.65878056409">
		<tag k="name" v="Rabben" />
		<tag k="natural" v="valley" />
		<tag k="place" v="locality" />
		<tag k="ssr:stedsnr" v="824410" />
	</node>
	<node id="-574090" lat="62.4712222255" lon="6.65517499038">
		<tag k="name" v="Høghaugen" />
		<tag k="natural" v="hill" />
		<tag k="place" v="locality" />
		<tag k="ssr:stedsnr" v="824407" />
	</node>
	<node id="-574087" lat="62.4540916635" lon="6.58124722534">
		<tag k="name" v="Rotnakken" />
		<tag k="natural" v="hill" />
		<tag k="place" v="locality" />
		<tag k="ssr:stedsnr" v="824396" />
	</node>
	<node id="-574085" lat="62.5007694454" lon="6.47777222899">
		<tag k="name" v="Hjellhaugen" />
		<tag k="natural" v="hill" />
		<tag k="place" v="locality" />
		<tag k="ssr:stedsnr" v="824384" />
	</node>
	<node id="-574084" lat="62.4897833312" lon="6.4591611063">
		<tag k="name" v="Smørdalen" />
		<tag k="natural" v="valley" />
		<tag k="place" v="locality" />
		<tag k="ssr:stedsnr" v="824381" />
	</node>
	<node id="-574080" lat="62.5131472182" lon="6.76495832936">
		<tag k="name" v="Albuskaret" />
		<tag k="natural" v="valley" />
		<tag k="place" v="locality" />
		<tag k="ssr:stedsnr" v="824340" />
	</node>
	<node id="-574077" lat="62.4764416685" lon="6.56174722481">
		<tag k="fixme" v="consider natural=peak for the most distinct mountains in the district" />
		<tag k="name" v="Fremste Svartenakken" />
		<tag k="natural" v="hill" />
		<tag k="place" v="locality" />
		<tag k="ssr:stedsnr" v="824300" />
	</node>
	<node id="-574076" lat="62.478158332" lon="6.56908888995">
		<tag k="name" v="Svartenakken" />
		<tag k="natural" v="hill" />
		<tag k="place" v="locality" />
		<tag k="ssr:stedsnr" v="824298" />
	</node>
	<node id="-574066" lat="62.5116722216" lon="6.68067778474">
		<tag k="name" v="Ådalen" />
		<tag k="natural" v="valley" />
		<tag k="place" v="locality" />
		<tag k="ssr:stedsnr" v="824037" />
	</node>
	<node id="-574063" lat="62.5353111157" lon="6.74278889632">
		<tag k="name" v="Brenne" />
		<tag k="natural" v="slope" />
		<tag k="place" v="locality" />
		<tag k="ssr:stedsnr" v="824011" />
	</node>
	<node id="-574062" lat="62.492747222" lon="6.57108889355">
		<tag k="name" v="Hønnet" />
		<tag k="natural" v="hill" />
		<tag k="place" v="locality" />
		<tag k="ssr:stedsnr" v="824008" />
	</node>
	<node id="-574059" lat="62.5445277812" lon="6.66334444043">
		<tag k="name" v="Hjelleskaret" />
		<tag k="natural" v="slope" />
		<tag k="place" v="locality" />
		<tag k="ssr:stedsnr" v="822743" />
	</node>
	<node id="-574054" lat="62.5174555564" lon="6.67565833278">
		<tag k="fixme" v="consider natural=peak for the most distinct mountains in the district" />
		<tag k="name" v="Høgenakkane" />
		<tag k="natural" v="hill" />
		<tag k="place" v="locality" />
		<tag k="ssr:stedsnr" v="801129" />
	</node>
	<node id="-574050" lat="62.5368527777" lon="6.771036115">
		<tag k="fixme" v="multiple name tags, choose one and add the other to alt_name; consider natural=peak for the most distinct mountains in the district" />
		<tag k="name" v="Engsetfjellet;Fyllingfjellet" />
		<tag k="natural" v="hill" />
		<tag k="place" v="locality" />
		<tag k="ssr:stedsnr" v="800822" />
	</node>
	<node id="-574049" lat="62.551716668" lon="6.68442499764">
		<tag k="name" v="Beiteskaret" />
		<tag k="natural" v="valley" />
		<tag k="place" v="locality" />
		<tag k="ssr:stedsnr" v="800192" />
	</node>
	<node id="-574047" lat="62.5409305543" lon="6.64572777579">
		<tag k="name" v="Kviteberget" />
		<tag k="natural" v="hill" />
		<tag k="place" v="locality" />
		<tag k="ssr:stedsnr" v="800154" />
	</node>
	<node id="-574035" lat="62.5159138932" lon="6.63088889685">
		<tag k="name" v="Sætrebakkane" />
		<tag k="natural" v="slope" />
		<tag k="place" v="locality" />
		<tag k="ssr:stedsnr" v="763503" />
	</node>
	<node id="-574034" lat="62.4847944464" lon="6.4404888796">
		<tag k="name" v="Demmhaugen" />
		<tag k="natural" v="hill" />
		<tag k="place" v="locality" />
		<tag k="ssr:stedsnr" v="763500" />
	</node>
	<node id="-574029" lat="62.4859499981" lon="6.43706110945">
		<tag k="name" v="Langedalen" />
		<tag k="natural" v="valley" />
		<tag k="place" v="locality" />
		<tag k="ssr:stedsnr" v="763380" />
	</node>
	<node id="-574026" lat="62.5125555554" lon="6.58527499798">
		<tag k="name" v="Sorgenfri" />
		<tag k="natural" v="hill" />
		<tag k="place" v="locality" />
		<tag k="ssr:stedsnr" v="763369" />
	</node>
	<node id="-574024" lat="62.4716666689" lon="6.56132776813">
		<tag k="name" v="Bjønntjønn-nakkane" />
		<tag k="natural" v="ridge" />
		<tag k="place" v="locality" />
		<tag k="ssr:stedsnr" v="763363" />
	</node>
	<node id="-574023" lat="62.4676916687" lon="6.58547500943">
		<tag k="fixme" v="consider natural=peak for the most distinct mountains in the district" />
		<tag k="name" v="Koppebrua" />
		<tag k="natural" v="hill" />
		<tag k="place" v="locality" />
		<tag k="ssr:stedsnr" v="763360" />
	</node>
	<node id="-574019" lat="62.4869138866" lon="6.54059445383">
		<tag k="name" v="Nakkerørene" />
		<tag k="natural" v="ridge" />
		<tag k="place" v="locality" />
		<tag k="ssr:stedsnr" v="763292" />
	</node>
	<node id="-574017" lat="62.4969083308" lon="6.54098055697">
		<tag k="name" v="Kvennhushaugen" />
		<tag k="natural" v="hill" />
		<tag k="place" v="locality" />
		<tag k="ssr:stedsnr" v="763287" />
	</node>
	<node id="-574016" lat="62.4610944485" lon="6.60890276785">
		<tag k="name" v="Nesnakken" />
		<tag k="natural" v="ridge" />
		<tag k="place" v="locality" />
		<tag k="ssr:stedsnr" v="763281" />
	</node>
	<node id="-574015" lat="62.4764805551" lon="6.60192777526">
		<tag k="name" v="Brokdalen" />
		<tag k="natural" v="valley" />
		<tag k="place" v="locality" />
		<tag k="ssr:stedsnr" v="763280" />
	</node>
	<node id="-574014" lat="62.4680333361" lon="6.58008054839">
		<tag k="name" v="Koppen" />
		<tag k="natural" v="valley" />
		<tag k="place" v="locality" />
		<tag k="ssr:stedsnr" v="763124" />
	</node>
	<node id="-574012" lat="62.4917111151" lon="6.45861665861">
		<tag k="name" v="Nakken" />
		<tag k="natural" v="ridge" />
		<tag k="place" v="locality" />
		<tag k="ssr:stedsnr" v="763116" />
	</node>
	<node id="-574005" lat="62.4897305553" lon="6.72531665819">
		<tag k="name" v="Trollkyrkja" />
		<tag k="natural" v="hill" />
		<tag k="place" v="locality" />
		<tag k="ssr:stedsnr" v="763045" />
	</node>
	<node id="-574003" lat="62.520747225" lon="6.53014167383">
		<tag k="name" v="Ådalen" />
		<tag k="natural" v="valley" />
		<tag k="place" v="locality" />
		<tag k="ssr:stedsnr" v="763031" />
	</node>
	<node id="-574001" lat="62.5028777797" lon="6.64780834121">
		<tag k="name" v="Ølberget" />
		<tag k="natural" v="hill" />
		<tag k="place" v="locality" />
		<tag k="ssr:stedsnr" v="763002" />
	</node>
	<node id="-573996" lat="62.5586472253" lon="6.75712500518">
		<tag k="fixme" v="consider natural=peak for the most distinct mountains in the district" />
		<tag k="name" v="Høgsalen" />
		<tag k="natural" v="hill" />
		<tag k="place" v="locality" />
		<tag k="ssr:stedsnr" v="740866" />
	</node>
	<node id="-573995" lat="62.5623749967" lon="6.77793888059">
		<tag k="name" v="Vatneskåla" />
		<tag k="natural" v="valley" />
		<tag k="place" v="locality" />
		<tag k="ssr:stedsnr" v="740861" />
	</node>
	<node id="-573992" lat="62.528491664" lon="6.6606861034">
		<tag k="fixme" v="consider natural=peak for the most distinct mountains in the district" />
		<tag k="name" v="Nesnakken" />
		<tag k="natural" v="hill" />
		<tag k="place" v="locality" />
		<tag k="ssr:stedsnr" v="740164" />
	</node>
	<node id="-573986" lat="62.5497888929" lon="6.68031389598">
		<tag k="name" v="Høghaugen" />
		<tag k="natural" v="hill" />
		<tag k="place" v="locality" />
		<tag k="ssr:stedsnr" v="739186" />
	</node>
	<node id="-573982" lat="62.4723222261" lon="6.54412500391">
		<tag k="name" v="Stortua" />
		<tag k="natural" v="hill" />
		<tag k="place" v="locality" />
		<tag k="ssr:stedsnr" v="739026" />
	</node>
	<node id="-573972" lat="62.5126111081" lon="6.62791388331">
		<tag k="name" v="Tverrbotnbakkane" />
		<tag k="natural" v="slope" />
		<tag k="place" v="locality" />
		<tag k="ssr:stedsnr" v="703498" />
	</node>
	<node id="-573971" lat="62.5187166686" lon="6.69844999083">
		<tag k="name" v="Løhammaren" />
		<tag k="natural" v="cliff" />
		<tag k="ssr:stedsnr" v="703492" />
	</node>
	<node id="-573970" lat="62.508227776" lon="6.64677777102">
		<tag k="name" v="Tverrdalen" />
		<tag k="natural" v="valley" />
		<tag k="place" v="locality" />
		<tag k="ssr:stedsnr" v="703489" />
	</node>
	<node id="-573969" lat="62.512919442" lon="6.67332222443">
		<tag k="name" v="Ørnekula" />
		<tag k="natural" v="hill" />
		<tag k="place" v="locality" />
		<tag k="ssr:stedsnr" v="703482" />
	</node>
	<node id="-573967" lat="62.4926972257" lon="6.72581945256">
		<tag k="name" v="Sundsbakken" />
		<tag k="natural" v="slope" />
		<tag k="place" v="locality" />
		<tag k="ssr:stedsnr" v="703475" />
	</node>
	<node id="-573964" lat="62.467861115" lon="6.6511916671">
		<tag k="name" v="Hatlarørene" />
		<tag k="natural" v="ridge" />
		<tag k="place" v="locality" />
		<tag k="ssr:stedsnr" v="703434" />
	</node>
	<node id="-573963" lat="62.4696666683" lon="6.66508333985">
		<tag k="name" v="Jovikhaugen" />
		<tag k="natural" v="hill" />
		<tag k="place" v="locality" />
		<tag k="ssr:stedsnr" v="703433" />
	</node>
	<node id="-573962" lat="62.4688583313" lon="6.53619443545">
		<tag k="name" v="Bjørkelia" />
		<tag k="natural" v="slope" />
		<tag k="place" v="locality" />
		<tag k="ssr:stedsnr" v="703422" />
	</node>
	<node id="-573959" lat="62.4990222243" lon="6.47278611551">
		<tag k="name" v="Trollkjerringa" />
		<tag k="natural" v="cliff" />
		<tag k="ssr:stedsnr" v="703409" />
	</node>
	<node id="-573958" lat="62.4861916679" lon="6.45073056512">
		<tag k="name" v="Langedalsrøra" />
		<tag k="natural" v="ridge" />
		<tag k="place" v="locality" />
		<tag k="ssr:stedsnr" v="703405" />
	</node>
	<node id="-573957" lat="62.4731444411" lon="6.56217777544">
		<tag k="name" v="Bjønntjønn-nakken" />
		<tag k="natural" v="hill" />
		<tag k="place" v="locality" />
		<tag k="ssr:stedsnr" v="703396" />
	</node>
	<node id="-573956" lat="62.5116333309" lon="6.753775008">
		<tag k="name" v="Bjørnhaugen" />
		<tag k="natural" v="hill" />
		<tag k="place" v="locality" />
		<tag k="ssr:stedsnr" v="703359" />
	</node>
	<node id="-573951" lat="62.4572222209" lon="6.58824166438">
		<tag k="name" v="Osphaugane" />
		<tag k="natural" v="hill" />
		<tag k="place" v="locality" />
		<tag k="ssr:stedsnr" v="703038" />
	</node>
	<node id="-573950" lat="62.4777944401" lon="6.58060555932">
		<tag k="name" v="Ørnakken" />
		<tag k="natural" v="ridge" />
		<tag k="place" v="locality" />
		<tag k="ssr:stedsnr" v="703033" />
	</node>
	<node id="-573949" lat="62.4524888916" lon="6.58009444166">
		<tag k="name" v="Nakkane" />
		<tag k="natural" v="hill" />
		<tag k="place" v="locality" />
		<tag k="ssr:stedsnr" v="703026" />
	</node>
	<node id="-573946" lat="62.5199638876" lon="6.55271388223">
		<tag k="name" v="Haugane" />
		<tag k="natural" v="hill" />
		<tag k="place" v="locality" />
		<tag k="ssr:stedsnr" v="702316" />
	</node>
	<node id="-573944" lat="62.4942861116" lon="6.5638555537">
		<tag k="name" v="Lillenakken" />
		<tag k="natural" v="hill" />
		<tag k="place" v="locality" />
		<tag k="ssr:stedsnr" v="702307" />
	</node>
	<node id="-573943" lat="62.4845694478" lon="6.62187499156">
		<tag k="name" v="Høgbrauta" />
		<tag k="natural" v="slope" />
		<tag k="place" v="locality" />
		<tag k="ssr:stedsnr" v="702302" />
	</node>
	<node id="-573937" lat="62.4815583317" lon="6.58813888441">
		<tag k="name" v="Bjørnhaugen" />
		<tag k="natural" v="hill" />
		<tag k="place" v="locality" />
		<tag k="ssr:stedsnr" v="702282" />
	</node>
	<node id="-573936" lat="62.491061109" lon="6.60670000182">
		<tag k="name" v="Timbrehaugane" />
		<tag k="natural" v="hill" />
		<tag k="place" v="locality" />
		<tag k="ssr:stedsnr" v="702278" />
	</node>
	<node id="-573933" lat="62.488549998" lon="6.53366666503">
		<tag k="name" v="Demmehaugen" />
		<tag k="natural" v="hill" />
		<tag k="place" v="locality" />
		<tag k="ssr:stedsnr" v="702241" />
	</node>
	<node id="-573931" lat="62.4916305554" lon="6.54335554688">
		<tag k="name" v="Pehola" />
		<tag k="natural" v="valley" />
		<tag k="place" v="locality" />
		<tag k="ssr:stedsnr" v="702233" />
	</node>
	<node id="-573930" lat="62.4729249976" lon="6.59786944147">
		<tag k="name" v="Fugledalsbrauta" />
		<tag k="natural" v="slope" />
		<tag k="place" v="locality" />
		<tag k="ssr:stedsnr" v="702225" />
	</node>
	<node id="-573929" lat="62.5412694486" lon="6.67165277748">
		<tag k="name" v="Lilleberget" />
		<tag k="natural" v="hill" />
		<tag k="place" v="locality" />
		<tag k="ssr:stedsnr" v="701754" />
	</node>
	<node id="-573928" lat="62.5277222263" lon="6.65101943466">
		<tag k="name" v="Skaret" />
		<tag k="natural" v="valley" />
		<tag k="place" v="locality" />
		<tag k="ssr:stedsnr" v="701744" />
	</node>
	<node id="-573926" lat="62.5380527763" lon="6.80312223163">
		<tag k="name" v="Leikvollsrørene" />
		<tag k="natural" v="ridge" />
		<tag k="place" v="locality" />
		<tag k="ssr:stedsnr" v="694315" />
	</node>
	<node id="-573925" lat="62.4953416709" lon="6.46931667077">
		<tag k="fixme" v="consider natural=peak for the most distinct mountains in the district" />
		<tag k="name" v="Varden" />
		<tag k="natural" v="hill" />
		<tag k="place" v="locality" />
		<tag k="ssr:stedsnr" v="687311" />
	</node>
	<node id="-573922" lat="62.5277999958" lon="6.71102777998">
		<tag k="fixme" v="consider natural=peak for the most distinct mountains in the district" />
		<tag k="name" v="Høgåsen" />
		<tag k="natural" v="hill" />
		<tag k="place" v="locality" />
		<tag k="ssr:stedsnr" v="679162" />
	</node>
	<node id="-573919" lat="62.5234027759" lon="6.51263055118">
		<tag k="fixme" v="consider natural=peak for the most distinct mountains in the district" />
		<tag k="name" v="Stavsetfjellet" />
		<tag k="natural" v="hill" />
		<tag k="place" v="locality" />
		<tag k="ssr:stedsnr" v="679151" />
	</node>
	<node id="-573915" lat="62.4954111079" lon="6.5197388988">
		<tag k="fixme" v="consider natural=peak for the most distinct mountains in the district" />
		<tag k="name" v="Utvikfjellet" />
		<tag k="natural" v="hill" />
		<tag k="place" v="locality" />
		<tag k="ssr:stedsnr" v="678267" />
	</node>
	<node id="-573912" lat="62.5107611084" lon="6.63425555169">
		<tag k="name" v="Straumsdalen" />
		<tag k="natural" v="valley" />
		<tag k="place" v="locality" />
		<tag k="ssr:stedsnr" v="678161" />
	</node>
	<node id="-573911" lat="62.5081722256" lon="6.63729722575">
		<tag k="name" v="Løhammaren" />
		<tag k="natural" v="hill" />
		<tag k="place" v="locality" />
		<tag k="ssr:stedsnr" v="678160" />
	</node>
	<node id="-573910" lat="62.5108305516" lon="6.71454165876">
		<tag k="name" v="Nausa" />
		<tag k="natural" v="hill" />
		<tag k="place" v="locality" />
		<tag k="ssr:stedsnr" v="678116" />
	</node>
	<node id="-573896" lat="62.5148694471" lon="6.61578889277">
		<tag k="name" v="Klingerthaugen" />
		<tag k="natural" v="hill" />
		<tag k="place" v="locality" />
		<tag k="ssr:stedsnr" v="642462" />
	</node>
	<node id="-573894" lat="62.5067333293" lon="6.64609445123">
		<tag k="name" v="Stavihaugen" />
		<tag k="natural" v="hill" />
		<tag k="old_name" v="Stavikhaugen" />
		<tag k="place" v="locality" />
		<tag k="ssr:stedsnr" v="642450" />
	</node>
	<node id="-573888" lat="62.4692750005" lon="6.62319722141">
		<tag k="name" v="Nilsnakken" />
		<tag k="natural" v="ridge" />
		<tag k="place" v="locality" />
		<tag k="ssr:stedsnr" v="642402" />
	</node>
	<node id="-573886" lat="62.4674277781" lon="6.63636943761">
		<tag k="name" v="Nakkane" />
		<tag k="natural" v="hill" />
		<tag k="place" v="locality" />
		<tag k="ssr:stedsnr" v="642393" />
	</node>
	<node id="-573885" lat="62.4671527783" lon="6.63438888817">
		<tag k="name" v="Myrfjøsnakken" />
		<tag k="natural" v="hill" />
		<tag k="place" v="locality" />
		<tag k="ssr:stedsnr" v="642392" />
	</node>
	<node id="-573884" lat="62.472966666" lon="6.6696055587">
		<tag k="name" v="Ostreberget" />
		<tag k="natural" v="hill" />
		<tag k="place" v="locality" />
		<tag k="ssr:stedsnr" v="642385" />
	</node>
	<node id="-573881" lat="62.4544805596" lon="6.59655278115">
		<tag k="name" v="Storhalsen" />
		<tag k="natural" v="ridge" />
		<tag k="place" v="locality" />
		<tag k="ssr:stedsnr" v="642375" />
	</node>
	<node id="-573880" lat="62.4756222183" lon="6.54248334012">
		<tag k="name" v="Tudalen" />
		<tag k="natural" v="valley" />
		<tag k="place" v="locality" />
		<tag k="ssr:stedsnr" v="642371" />
	</node>
	<node id="-573874" lat="62.4854777779" lon="6.46492221647">
		<tag k="name" v="Skothaugen" />
		<tag k="natural" v="hill" />
		<tag k="place" v="locality" />
		<tag k="ssr:stedsnr" v="642354" />
	</node>
	<node id="-573866" lat="62.5124027778" lon="6.67641666955">
		<tag k="name" v="Hamrane" />
		<tag k="natural" v="hill" />
		<tag k="place" v="locality" />
		<tag k="ssr:stedsnr" v="642013" />
	</node>
	<node id="-573865" lat="62.5018472187" lon="6.59396944119">
		<tag k="name" v="Digerneshaugen" />
		<tag k="natural" v="hill" />
		<tag k="place" v="locality" />
		<tag k="ssr:stedsnr" v="641302" />
	</node>
	<node id="-573862" lat="62.4894611148" lon="6.63374722082">
		<tag k="name" v="Sjøhaugen" />
		<tag k="natural" v="hill" />
		<tag k="place" v="locality" />
		<tag k="ssr:stedsnr" v="641291" />
	</node>
	<node id="-573861" lat="62.4916166686" lon="6.62938332855">
		<tag k="name" v="Kallarhaugen" />
		<tag k="natural" v="hill" />
		<tag k="place" v="locality" />
		<tag k="ssr:stedsnr" v="641289" />
	</node>
	<node id="-573859" lat="62.4862583307" lon="6.59700556539">
		<tag k="name" v="Ospedalen" />
		<tag k="natural" v="valley" />
		<tag k="place" v="locality" />
		<tag k="ssr:stedsnr" v="641270" />
	</node>
	<node id="-573858" lat="62.4845472205" lon="6.60308888799">
		<tag k="name" v="Sætrebakken" />
		<tag k="natural" v="slope" />
		<tag k="place" v="locality" />
		<tag k="ssr:stedsnr" v="641268" />
	</node>
	<node id="-573855" lat="62.488852782" lon="6.574777774">
		<tag k="name" v="Bytehella" />
		<tag k="place" v="locality" />
		<tag k="ssr:stedsnr" v="641249" />
	</node>
	<node id="-573854" lat="62.4984861097" lon="6.52823055687">
		<tag k="name" v="Løypehaugen" />
		<tag k="natural" v="hill" />
		<tag k="place" v="locality" />
		<tag k="ssr:stedsnr" v="641224" />
	</node>
	<node id="-573853" lat="62.5023972244" lon="6.52308332509">
		<tag k="name" v="Ormhaugen" />
		<tag k="natural" v="hill" />
		<tag k="place" v="locality" />
		<tag k="ssr:stedsnr" v="641220" />
	</node>
	<node id="-573848" lat="62.4449388856" lon="6.55831944261">
		<tag k="name" v="Brune" />
		<tag k="natural" v="ridge" />
		<tag k="place" v="locality" />
		<tag k="ssr:stedsnr" v="641088" />
	</node>
	<node id="-573847" lat="62.4960055511" lon="6.53404443783">
		<tag k="name" v="Kleiva" />
		<tag k="natural" v="slope" />
		<tag k="place" v="locality" />
		<tag k="ssr:stedsnr" v="641081" />
	</node>
	<node id="-573845" lat="62.492924997" lon="6.53470832925">
		<tag k="name" v="Storrota" />
		<tag k="place" v="locality" />
		<tag k="ssr:stedsnr" v="641077" />
	</node>
	<node id="-573844" lat="62.4852944488" lon="6.52676667146">
		<tag k="name" v="Klivet" />
		<tag k="natural" v="slope" />
		<tag k="place" v="locality" />
		<tag k="ssr:stedsnr" v="641075" />
	</node>
	<node id="-573838" lat="62.5114527769" lon="6.62751667459">
		<tag k="name" v="Osphjellbrauta" />
		<tag k="natural" v="slope" />
		<tag k="place" v="locality" />
		<tag k="ssr:stedsnr" v="641038" />
	</node>
	<node id="-573834" lat="62.5061305578" lon="6.61996666888">
		<tag k="name" v="Haugane" />
		<tag k="natural" v="hill" />
		<tag k="place" v="locality" />
		<tag k="ssr:stedsnr" v="641012" />
	</node>
	<node id="-573829" lat="62.4776085148" lon="6.58492052212">
		<tag k="alt_name" v="Hjashusnakken" />
		<tag k="name" v="Jashusnakken" />
		<tag k="natural" v="hill" />
		<tag k="place" v="locality" />
		<tag k="ssr:stedsnr" v="626362" />
	</node>
	<node id="-573826" lat="62.5502583308" lon="6.70772499226">
		<tag k="name" v="Høgeberget" />
		<tag k="natural" v="hill" />
		<tag k="place" v="locality" />
		<tag k="ssr:stedsnr" v="618170" />
	</node>
	<node id="-573818" lat="62.4968666648" lon="6.75497222328">
		<tag k="name" v="Dyrhaugen" />
		<tag k="natural" v="hill" />
		<tag k="place" v="locality" />
		<tag k="ssr:stedsnr" v="617325" />
	</node>
	<node id="-573816" lat="62.4890027736" lon="6.46998888107">
		<tag k="alt_name" v="Rødlandstua;Raudlandstuva" />
		<tag k="fixme" v="consider natural=peak for the most distinct mountains in the district" />
		<tag k="name" v="Rollandstua" />
		<tag k="natural" v="hill" />
		<tag k="place" v="locality" />
		<tag k="ssr:stedsnr" v="617278" />
	</node>
	<node id="-573805" lat="62.5247305569" lon="6.70530000864">
		<tag k="name" v="Bytedalen" />
		<tag k="natural" v="valley" />
		<tag k="place" v="locality" />
		<tag k="ssr:stedsnr" v="581433" />
	</node>
	<node id="-573802" lat="62.4834805556" lon="6.45566388232">
		<tag k="name" v="Reitebakken" />
		<tag k="natural" v="slope" />
		<tag k="place" v="locality" />
		<tag k="ssr:stedsnr" v="581388" />
	</node>
	<node id="-573799" lat="62.4846999991" lon="6.63347221681">
		<tag k="name" v="Haugbakkane" />
		<tag k="natural" v="slope" />
		<tag k="place" v="locality" />
		<tag k="ssr:stedsnr" v="581370" />
	</node>
	<node id="-573798" lat="62.491458333" lon="6.59830555136">
		<tag k="name" v="Bythaugen" />
		<tag k="natural" v="hill" />
		<tag k="place" v="locality" />
		<tag k="ssr:stedsnr" v="581361" />
	</node>
	<node id="-573796" lat="62.5289249983" lon="6.75643055023">
		<tag k="name" v="Fyllingslia" />
		<tag k="natural" v="slope" />
		<tag k="place" v="locality" />
		<tag k="ssr:stedsnr" v="581355" />
	</node>
	<node id="-573793" lat="62.4871861138" lon="6.55758889464">
		<tag k="name" v="Knapperthola" />
		<tag k="natural" v="valley" />
		<tag k="place" v="locality" />
		<tag k="ssr:stedsnr" v="581345" />
	</node>
	<node id="-573789" lat="62.4944583292" lon="6.49286389286">
		<tag k="name" v="Furhamrane" />
		<tag k="natural" v="hill" />
		<tag k="place" v="locality" />
		<tag k="ssr:stedsnr" v="581317" />
	</node>
	<node id="-573788" lat="62.4975611067" lon="6.51162222076">
		<tag k="name" v="Salbunakken" />
		<tag k="natural" v="hill" />
		<tag k="place" v="locality" />
		<tag k="ssr:stedsnr" v="581299" />
	</node>
	<node id="-573787" lat="62.4922277752" lon="6.48629722179">
		<tag k="name" v="Fiskesjå" />
		<tag k="place" v="locality" />
		<tag k="ssr:stedsnr" v="581138" />
	</node>
	<node id="-573779" lat="62.5092027792" lon="6.73098055534">
		<tag k="name" v="Skura" />
		<tag k="natural" v="slope" />
		<tag k="place" v="locality" />
		<tag k="ssr:stedsnr" v="581058" />
	</node>
	<node id="-573776" lat="62.4638916688" lon="6.58971666894">
		<tag k="name" v="Vassnakkane" />
		<tag k="natural" v="ridge" />
		<tag k="place" v="locality" />
		<tag k="ssr:stedsnr" v="581046" />
	</node>
	<node id="-573775" lat="62.5010555535" lon="6.47073056505">
		<tag k="name" v="Lillehaugen" />
		<tag k="natural" v="hill" />
		<tag k="place" v="locality" />
		<tag k="ssr:stedsnr" v="581037" />
	</node>
	<node id="-573774" lat="62.5190249967" lon="6.64916667506">
		<tag k="name" v="Lia" />
		<tag k="natural" v="slope" />
		<tag k="place" v="locality" />
		<tag k="ssr:stedsnr" v="581021" />
	</node>
	<node id="-573769" lat="62.5600944401" lon="6.83926666179">
		<tag k="fixme" v="consider natural=peak for the most distinct mountains in the district" />
		<tag k="name" v="Frostadtinden" />
		<tag k="natural" v="hill" />
		<tag k="place" v="locality" />
		<tag k="ssr:stedsnr" v="557909" />
	</node>
	<node id="-573768" lat="62.547225004" lon="6.82930834253">
		<tag k="name" v="Storlia" />
		<tag k="natural" v="slope" />
		<tag k="place" v="locality" />
		<tag k="ssr:stedsnr" v="557899" />
	</node>
	<node id="-573755" lat="62.5173225329" lon="6.66714561831">
		<tag k="fixme" v="consider natural=peak for the most distinct mountains in the district" />
		<tag k="name" v="Nihusen" />
		<tag k="natural" v="hill" />
		<tag k="place" v="locality" />
		<tag k="ssr:stedsnr" v="557120" />
	</node>
	<node id="-573754" lat="62.4566055546" lon="6.5533861094">
		<tag k="alt_name" v="Merafta" />
		<tag k="name" v="Meraftafjellet" />
		<tag k="natural" v="hill" />
		<tag k="place" v="locality" />
		<tag k="ssr:stedsnr" v="556046" />
	</node>
	<node id="-573750" lat="62.5131916671" lon="6.61266667009">
		<tag k="name" v="Storløypreset" />
		<tag k="natural" v="ridge" />
		<tag k="place" v="locality" />
		<tag k="ssr:stedsnr" v="520463" />
	</node>
	<node id="-573748" lat="62.5045222192" lon="6.72477500612">
		<tag k="name" v="Hølnakken" />
		<tag k="natural" v="ridge" />
		<tag k="place" v="locality" />
		<tag k="ssr:stedsnr" v="520448" />
	</node>
	<node id="-573744" lat="62.5094527782" lon="6.72008611642">
		<tag k="name" v="Gildrehaugen" />
		<tag k="natural" v="hill" />
		<tag k="place" v="locality" />
		<tag k="ssr:stedsnr" v="520436" />
	</node>
	<node id="-573741" lat="62.4659611142" lon="6.61978889041">
		<tag k="name" v="Leitehaugen" />
		<tag k="natural" v="hill" />
		<tag k="place" v="locality" />
		<tag k="ssr:stedsnr" v="520381" />
	</node>
	<node id="-573740" lat="62.4753694418" lon="6.54602499127">
		<tag k="name" v="Bytehaugen" />
		<tag k="natural" v="hill" />
		<tag k="place" v="locality" />
		<tag k="ssr:stedsnr" v="520356" />
	</node>
	<node id="-573739" lat="62.4713027743" lon="6.51989722244">
		<tag k="fixme" v="consider natural=peak for the most distinct mountains in the district" />
		<tag k="name" v="Hundsfjellet" />
		<tag k="natural" v="hill" />
		<tag k="place" v="locality" />
		<tag k="ssr:stedsnr" v="520348" />
	</node>
	<node id="-573736" lat="62.4609694453" lon="6.60069443479">
		<tag k="name" v="Gjærenakken" />
		<tag k="natural" v="ridge" />
		<tag k="place" v="locality" />
		<tag k="ssr:stedsnr" v="520336" />
	</node>
	<node id="-573735" lat="62.4648138847" lon="6.58120554899">
		<tag k="name" v="Stornakken" />
		<tag k="natural" v="ridge" />
		<tag k="place" v="locality" />
		<tag k="ssr:stedsnr" v="520337" />
	</node>
	<node id="-573732" lat="62.4882805561" lon="6.55079167305">
		<tag k="name" v="Sølvberget" />
		<tag k="natural" v="ridge" />
		<tag k="place" v="locality" />
		<tag k="ssr:stedsnr" v="520301" />
	</node>
	<node id="-573729" lat="62.4954583374" lon="6.53995555669">
		<tag k="name" v="Hjellen" />
		<tag k="place" v="locality" />
		<tag k="ssr:stedsnr" v="520253" />
	</node>
	<node id="-573728" lat="62.4749111134" lon="6.56758332567">
		<tag k="name" v="Hjellhaugen" />
		<tag k="natural" v="hill" />
		<tag k="place" v="locality" />
		<tag k="ssr:stedsnr" v="520249" />
	</node>
	<node id="-573727" lat="62.5063749979" lon="6.52138889202">
		<tag k="name" v="Kamferberget" />
		<tag k="natural" v="hill" />
		<tag k="place" v="locality" />
		<tag k="ssr:stedsnr" v="520233" />
	</node>
	<node id="-573722" lat="62.4969027774" lon="6.47541665838">
		<tag k="name" v="Røra" />
		<tag k="natural" v="ridge" />
		<tag k="place" v="locality" />
		<tag k="ssr:stedsnr" v="520091" />
	</node>
	<node id="-573721" lat="62.5279638855" lon="6.71739443986">
		<tag k="fixme" v="consider natural=peak for the most distinct mountains in the district" />
		<tag k="name" v="Brunåsen" />
		<tag k="natural" v="hill" />
		<tag k="place" v="locality" />
		<tag k="ssr:stedsnr" v="520090" />
	</node>
	<node id="-573716" lat="62.5042583366" lon="6.63403333624">
		<tag k="name" v="Bratteberget" />
		<tag k="natural" v="cliff" />
		<tag k="ssr:stedsnr" v="520032" />
	</node>
	<node id="-573714" lat="62.4822972182" lon="6.5692777746">
		<tag k="name" v="Botnane" />
		<tag k="natural" v="valley" />
		<tag k="place" v="locality" />
		<tag k="ssr:stedsnr" v="520025" />
	</node>
	<node id="-573708" lat="62.5342222202" lon="6.64553332872">
		<tag k="name" v="Ånareset" />
		<tag k="natural" v="slope" />
		<tag k="place" v="locality" />
		<tag k="ssr:stedsnr" v="519724" />
	</node>
	<node id="-573706" lat="62.5655126397" lon="6.80703782779">
		<tag k="alt_name" v="Nedste Egga" />
		<tag k="fixme" v="consider natural=peak for the most distinct mountains in the district" />
		<tag k="name" v="Svartvassegga" />
		<tag k="natural" v="hill" />
		<tag k="place" v="locality" />
		<tag k="ssr:stedsnr" v="497869" />
	</node>
	<node id="-573701" lat="62.5288750037" lon="6.60326944472">
		<tag k="fixme" v="consider natural=peak for the most distinct mountains in the district" />
		<tag k="name" v="Støråkfjellet" />
		<tag k="natural" v="hill" />
		<tag k="place" v="locality" />
		<tag k="ssr:stedsnr" v="497156" />
	</node>
	<node id="-573696" lat="62.5379472184" lon="6.7497777753">
		<tag k="name" v="Kvitnakken" />
		<tag k="natural" v="hill" />
		<tag k="place" v="locality" />
		<tag k="ssr:stedsnr" v="496909" />
	</node>
	<node id="-573695" lat="62.5394555528" lon="6.76668888802">
		<tag k="name" v="Baklia" />
		<tag k="natural" v="slope" />
		<tag k="place" v="locality" />
		<tag k="ssr:stedsnr" v="496834" />
	</node>
	<node id="-573694" lat="62.4949861157" lon="6.46907500497">
		<tag k="fixme" v="consider natural=peak for the most distinct mountains in the district" />
		<tag k="name" v="Hornet" />
		<tag k="natural" v="hill" />
		<tag k="place" v="locality" />
		<tag k="ssr:stedsnr" v="496261" />
	</node>
	<node id="-573693" lat="62.4858999961" lon="6.44016110436">
		<tag k="name" v="Demma" />
		<tag k="natural" v="valley" />
		<tag k="place" v="locality" />
		<tag k="ssr:stedsnr" v="496253" />
	</node>
	<node id="-573690" lat="62.5441722181" lon="6.69907223091">
		<tag k="alt_name" v="Grasdalsåsen" />
		<tag k="fixme" v="consider natural=peak for the most distinct mountains in the district" />
		<tag k="name" v="Lassehaugåsen" />
		<tag k="natural" v="hill" />
		<tag k="place" v="locality" />
		<tag k="ssr:stedsnr" v="496220" />
	</node>
	<node id="-573689" lat="62.5065027757" lon="6.70731944282">
		<tag k="name" v="Klubben" />
		<tag k="natural" v="hill" />
		<tag k="place" v="locality" />
		<tag k="ssr:stedsnr" v="496105" />
	</node>
	<node id="-573685" lat="62.5142833334" lon="6.64077499921">
		<tag k="name" v="Bjønnalemmen" />
		<tag k="natural" v="slope" />
		<tag k="place" v="locality" />
		<tag k="ssr:stedsnr" v="460538" />
	</node>
	<node id="-573682" lat="62.5357944455" lon="6.72096111475">
		<tag k="name" v="Geilhaugen" />
		<tag k="natural" v="hill" />
		<tag k="place" v="locality" />
		<tag k="ssr:stedsnr" v="460463" />
	</node>
	<node id="-573679" lat="62.4688444448" lon="6.66453333792">
		<tag k="name" v="Slentrehola" />
		<tag k="place" v="locality" />
		<tag k="ssr:stedsnr" v="460445" />
	</node>
	<node id="-573678" lat="62.4713083321" lon="6.63196945232">
		<tag k="name" v="Valledalen" />
		<tag k="natural" v="valley" />
		<tag k="place" v="locality" />
		<tag k="ssr:stedsnr" v="460446" />
	</node>
	<node id="-573677" lat="62.5017388869" lon="6.47090556202">
		<tag k="name" v="Storhaugen" />
		<tag k="natural" v="hill" />
		<tag k="place" v="locality" />
		<tag k="ssr:stedsnr" v="460431" />
	</node>
	<node id="-573674" lat="62.4859500038" lon="6.56565555332">
		<tag k="fixme" v="consider natural=peak for the most distinct mountains in the district" />
		<tag k="name" v="Fjellsenden" />
		<tag k="natural" v="hill" />
		<tag k="place" v="locality" />
		<tag k="ssr:stedsnr" v="460389" />
	</node>
	<node id="-573673" lat="62.4865027802" lon="6.57592499337">
		<tag k="name" v="Skinstadreset" />
		<tag k="natural" v="valley" />
		<tag k="place" v="locality" />
		<tag k="ssr:stedsnr" v="460388" />
	</node>
	<node id="-573672" lat="62.4929388905" lon="6.58505278576">
		<tag k="name" v="Straumedalen" />
		<tag k="natural" v="valley" />
		<tag k="place" v="locality" />
		<tag k="ssr:stedsnr" v="460384" />
	</node>
	<node id="-573670" lat="62.4883777755" lon="6.56096666002">
		<tag k="name" v="Gamlehjellbakkane" />
		<tag k="natural" v="slope" />
		<tag k="place" v="locality" />
		<tag k="ssr:stedsnr" v="460364" />
	</node>
	<node id="-573669" lat="62.4914611119" lon="6.56142499216">
		<tag k="name" v="Depleskaret" />
		<tag k="natural" v="valley" />
		<tag k="place" v="locality" />
		<tag k="ssr:stedsnr" v="460362" />
	</node>
	<node id="-573667" lat="62.4972694433" lon="6.52568056025">
		<tag k="name" v="Svarthammaren" />
		<tag k="natural" v="ridge" />
		<tag k="place" v="locality" />
		<tag k="ssr:stedsnr" v="460332" />
	</node>
	<node id="-573661" lat="62.4933611132" lon="6.5428805544">
		<tag k="name" v="Skaret" />
		<tag k="natural" v="valley" />
		<tag k="place" v="locality" />
		<tag k="ssr:stedsnr" v="460124" />
	</node>
	<node id="-573660" lat="62.547324996" lon="6.66932778463">
		<tag k="name" v="Lyhaugen" />
		<tag k="natural" v="hill" />
		<tag k="place" v="locality" />
		<tag k="ssr:stedsnr" v="460122" />
	</node>
	<node id="-573655" lat="62.4475638891" lon="6.55956388239">
		<tag k="name" v="Smågjæra" />
		<tag k="natural" v="slope" />
		<tag k="place" v="locality" />
		<tag k="ssr:stedsnr" v="460089" />
	</node>
	<node id="-573651" lat="62.5138611083" lon="6.46503610558">
		<tag k="name" v="Maurekjerringa" />
		<tag k="natural" v="hill" />
		<tag k="place" v="locality" />
		<tag k="ssr:stedsnr" v="460042" />
	</node>
	<node id="-573649" lat="62.456019447" lon="6.59891111792">
		<tag k="name" v="Kleiva" />
		<tag k="natural" v="slope" />
		<tag k="place" v="locality" />
		<tag k="ssr:stedsnr" v="460029" />
	</node>
	<node id="-573646" lat="62.5575305533" lon="6.81524999065">
		<tag k="fixme" v="consider natural=peak for the most distinct mountains in the district" />
		<tag k="name" v="Vardtua" />
		<tag k="natural" v="hill" />
		<tag k="place" v="locality" />
		<tag k="ssr:stedsnr" v="437901" />
	</node>
	<node id="-573634" lat="62.2825638889" lon="6.74253611771">
		<tag k="fixme" v="multiple name tags, choose one and add the other to alt_name; consider natural=peak for the most distinct mountains in the district" />
		<tag k="name" v="Holetindane;Ytstevasshornet" />
		<tag k="natural" v="hill" />
		<tag k="old_name" v="Ystevasshornet" />
		<tag k="place" v="locality" />
		<tag k="ssr:stedsnr" v="265628" />
	</node>
	<node id="-573632" lat="62.5093388888" lon="6.71999999937">
		<tag k="name" v="Vassberget" />
		<tag k="natural" v="hill" />
		<tag k="place" v="locality" />
		<tag k="ssr:stedsnr" v="254858" />
	</node>
	<node id="-573630" lat="62.5374662094" lon="6.6579694737">
		<tag k="fixme" v="consider natural=peak for the most distinct mountains in the district" />
		<tag k="name" v="Stigenakken" />
		<tag k="natural" v="hill" />
		<tag k="place" v="locality" />
		<tag k="ssr:stedsnr" v="254136" />
	</node>
	<node id="-573614" lat="62.5042416681" lon="6.62901666624">
		<tag k="name" v="Kvennhushammaren" />
		<tag k="natural" v="cliff" />
		<tag k="ssr:stedsnr" v="217460" />
	</node>
	<node id="-573613" lat="62.5108888898" lon="6.63811945328">
		<tag k="name" v="Djupdalssletta" />
		<tag k="natural" v="valley" />
		<tag k="place" v="locality" />
		<tag k="ssr:stedsnr" v="217449" />
	</node>
	<node id="-573611" lat="62.5151750013" lon="6.70182777721">
		<tag k="name" v="Brendeskolten" />
		<tag k="natural" v="hill" />
		<tag k="place" v="locality" />
		<tag k="ssr:stedsnr" v="217437" />
	</node>
	<node id="-573610" lat="62.5132583358" lon="6.68028889508">
		<tag k="name" v="Smaleskaret" />
		<tag k="natural" v="valley" />
		<tag k="place" v="locality" />
		<tag k="ssr:stedsnr" v="217435" />
	</node>
	<node id="-573609" lat="62.5230361121" lon="6.53379443735">
		<tag k="name" v="Kallskaret" />
		<tag k="natural" v="valley" />
		<tag k="place" v="locality" />
		<tag k="ssr:stedsnr" v="217418" />
	</node>
	<node id="-573606" lat="62.4957055583" lon="6.46308610963">
		<tag k="name" v="Hornrøysene" />
		<tag k="natural" v="ridge" />
		<tag k="place" v="locality" />
		<tag k="ssr:stedsnr" v="217360" />
	</node>
	<node id="-573598" lat="62.4968472253" lon="6.58419166143">
		<tag k="name" v="Nausa" />
		<tag k="natural" v="ridge" />
		<tag k="place" v="locality" />
		<tag k="ssr:stedsnr" v="217322" />
	</node>
	<node id="-573596" lat="62.5150194432" lon="6.7502416655">
		<tag k="name" v="Kvennhuslia" />
		<tag k="natural" v="slope" />
		<tag k="place" v="locality" />
		<tag k="ssr:stedsnr" v="217318" />
	</node>
	<node id="-573594" lat="62.4888999981" lon="6.5795333403">
		<tag k="name" v="Digerneslia" />
		<tag k="natural" v="slope" />
		<tag k="place" v="locality" />
		<tag k="ssr:stedsnr" v="217309" />
	</node>
	<node id="-573592" lat="62.4934111086" lon="6.53095278176">
		<tag k="name" v="Grønskarhaugen" />
		<tag k="natural" v="hill" />
		<tag k="place" v="locality" />
		<tag k="ssr:stedsnr" v="217265" />
	</node>
	<node id="-573591" lat="62.4842527739" lon="6.51326388737">
		<tag k="name" v="Reset" />
		<tag k="natural" v="ridge" />
		<tag k="place" v="locality" />
		<tag k="ssr:stedsnr" v="217096" />
	</node>
	<node id="-573586" lat="62.4887249997" lon="6.45277499156">
		<tag k="name" v="Smørdalsrøra" />
		<tag k="natural" v="ridge" />
		<tag k="place" v="locality" />
		<tag k="ssr:stedsnr" v="217040" />
	</node>
	<node id="-573585" lat="62.4951111066" lon="6.59405832582">
		<tag k="name" v="Kleiva" />
		<tag k="natural" v="slope" />
		<tag k="place" v="locality" />
		<tag k="ssr:stedsnr" v="217029" />
	</node>
	<node id="-573584" lat="62.4732194413" lon="6.65437221353">
		<tag k="name" v="Fonne" />
		<tag k="natural" v="slope" />
		<tag k="place" v="locality" />
		<tag k="ssr:stedsnr" v="217011" />
	</node>
	<node id="-573583" lat="62.5063916638" lon="6.66658888578">
		<tag k="name" v="Haretua" />
		<tag k="natural" v="hill" />
		<tag k="place" v="locality" />
		<tag k="ssr:stedsnr" v="217006" />
	</node>
	<node id="-573582" lat="62.5440194442" lon="6.65629999585">
		<tag k="name" v="Kleiva" />
		<tag k="natural" v="valley" />
		<tag k="place" v="locality" />
		<tag k="ssr:stedsnr" v="216688" />
	</node>
	<node id="-573581" lat="62.4895805564" lon="6.5121888857">
		<tag k="name" v="Skylegga" />
		<tag k="natural" v="hill" />
		<tag k="place" v="locality" />
		<tag k="ssr:stedsnr" v="217117" />
	</node>
	<node id="-573580" lat="62.4672527823" lon="6.63135000415">
		<tag k="name" v="Svadalen" />
		<tag k="natural" v="valley" />
		<tag k="place" v="locality" />
		<tag k="ssr:stedsnr" v="217118" />
	</node>
	<node id="-573579" lat="62.4781722211" lon="6.54467778207">
		<tag k="name" v="Rambjøra" />
		<tag k="natural" v="cliff" />
		<tag k="ssr:stedsnr" v="217108" />
	</node>
	<node id="-573576" lat="62.555194446" lon="6.69006943629">
		<tag k="fixme" v="consider natural=peak for the most distinct mountains in the district" />
		<tag k="name" v="Beitegnubben" />
		<tag k="natural" v="hill" />
		<tag k="place" v="locality" />
		<tag k="ssr:stedsnr" v="194216" />
	</node>
	<node id="-573572" lat="62.5158166682" lon="6.65446943716">
		<tag k="fixme" v="consider natural=peak for the most distinct mountains in the district" />
		<tag k="name" v="Stettefjellet" />
		<tag k="natural" v="hill" />
		<tag k="place" v="locality" />
		<tag k="ssr:stedsnr" v="194128" />
	</node>
	<node id="-573558" lat="62.4920500034" lon="6.48083610225">
		<tag k="name" v="Rognahaugane" />
		<tag k="natural" v="hill" />
		<tag k="place" v="locality" />
		<tag k="ssr:stedsnr" v="156465" />
	</node>
	<node id="-573556" lat="62.5028388884" lon="6.6682722269">
		<tag k="name" v="Haugerørene" />
		<tag k="natural" v="ridge" />
		<tag k="place" v="locality" />
		<tag k="ssr:stedsnr" v="156455" />
	</node>
	<node id="-573554" lat="62.5076833356" lon="6.66569999859">
		<tag k="name" v="Brendhaugen" />
		<tag k="natural" v="hill" />
		<tag k="place" v="locality" />
		<tag k="ssr:stedsnr" v="156445" />
	</node>
	<node id="-573553" lat="62.5109638858" lon="6.70113333637">
		<tag k="name" v="Reitereset" />
		<tag k="natural" v="ridge" />
		<tag k="place" v="locality" />
		<tag k="ssr:stedsnr" v="156439" />
	</node>
	<node id="-573552" lat="62.5384138905" lon="6.69165555257">
		<tag k="name" v="Lassehaugen" />
		<tag k="natural" v="hill" />
		<tag k="place" v="locality" />
		<tag k="ssr:stedsnr" v="156401" />
	</node>
	<node id="-573551" lat="62.5312611082" lon="6.72121666433">
		<tag k="name" v="Rabbelthaugen" />
		<tag k="natural" v="hill" />
		<tag k="place" v="locality" />
		<tag k="ssr:stedsnr" v="156390" />
	</node>
	<node id="-573547" lat="62.4696138912" lon="6.65500277506">
		<tag k="name" v="Oterholene" />
		<tag k="place" v="locality" />
		<tag k="ssr:stedsnr" v="156364" />
	</node>
	<node id="-573545" lat="62.4512916648" lon="6.5727305509">
		<tag k="name" v="Kopphaugen" />
		<tag k="natural" v="hill" />
		<tag k="place" v="locality" />
		<tag k="ssr:stedsnr" v="156352" />
	</node>
	<node id="-573544" lat="62.4685388914" lon="6.53077221512">
		<tag k="name" v="Byrkjelihaugane" />
		<tag k="natural" v="hill" />
		<tag k="place" v="locality" />
		<tag k="ssr:stedsnr" v="156347" />
	</node>
	<node id="-573541" lat="62.4852083312" lon="6.61138333253">
		<tag k="name" v="Blombrauta" />
		<tag k="natural" v="slope" />
		<tag k="place" v="locality" />
		<tag k="ssr:stedsnr" v="156314" />
	</node>
	<node id="-573538" lat="62.4904638898" lon="6.57033888706">
		<tag k="name" v="Straumedalen" />
		<tag k="natural" v="valley" />
		<tag k="place" v="locality" />
		<tag k="ssr:stedsnr" v="156285" />
	</node>
	<node id="-573537" lat="62.4892111083" lon="6.52711110618">
		<tag k="name" v="Stordalen" />
		<tag k="natural" v="valley" />
		<tag k="place" v="locality" />
		<tag k="ssr:stedsnr" v="156241" />
	</node>
	<node id="-573535" lat="62.475925" lon="6.59709444738">
		<tag k="name" v="Fugledalen" />
		<tag k="natural" v="valley" />
		<tag k="place" v="locality" />
		<tag k="ssr:stedsnr" v="156227" />
	</node>
	<node id="-573534" lat="62.4897166646" lon="6.54429444627">
		<tag k="name" v="Pehola" />
		<tag k="natural" v="valley" />
		<tag k="place" v="locality" />
		<tag k="ssr:stedsnr" v="156096" />
	</node>
	<node id="-573531" lat="62.5052888905" lon="6.52067500017">
		<tag k="name" v="Brisstøa" />
		<tag k="place" v="locality" />
		<tag k="ssr:stedsnr" v="156090" />
	</node>
	<node id="-573527" lat="62.5318527802" lon="6.75095834038">
		<tag k="name" v="Gylet" />
		<tag k="natural" v="valley" />
		<tag k="place" v="locality" />
		<tag k="ssr:stedsnr" v="156063" />
	</node>
	<node id="-573524" lat="62.496966671" lon="6.59038611592">
		<tag k="name" v="Rørne" />
		<tag k="natural" v="ridge" />
		<tag k="place" v="locality" />
		<tag k="ssr:stedsnr" v="156056" />
	</node>
	<node id="-573523" lat="62.4896833297" lon="6.70540556326">
		<tag k="name" v="Mastrevikbakken" />
		<tag k="natural" v="slope" />
		<tag k="place" v="locality" />
		<tag k="ssr:stedsnr" v="156422" />
	</node>
	<node id="-573520" lat="62.473347226" lon="6.67033611333">
		<tag k="name" v="Nothengberget" />
		<tag k="natural" v="hill" />
		<tag k="place" v="locality" />
		<tag k="ssr:stedsnr" v="156410" />
	</node>
	<node id="-573517" lat="62.5027166706" lon="6.7016972211">
		<tag k="name" v="Bøbrekka" />
		<tag k="natural" v="slope" />
		<tag k="place" v="locality" />
		<tag k="ssr:stedsnr" v="156055" />
	</node>
	<node id="-573515" lat="62.4690555572" lon="6.60257778214">
		<tag k="name" v="Høghaugen" />
		<tag k="natural" v="hill" />
		<tag k="place" v="locality" />
		<tag k="ssr:stedsnr" v="156036" />
	</node>
	<node id="-573510" lat="62.5278777783" lon="6.6241805484">
		<tag k="name" v="Gjæra" />
		<tag k="natural" v="slope" />
		<tag k="place" v="locality" />
		<tag k="ssr:stedsnr" v="155704" />
	</node>
	<node id="-573509" lat="62.5300000024" lon="6.62268611481">
		<tag k="name" v="Støråkkleiva" />
		<tag k="natural" v="valley" />
		<tag k="place" v="locality" />
		<tag k="ssr:stedsnr" v="155705" />
	</node>
	<node id="-573502" lat="62.5276027773" lon="6.64518610864">
		<tag k="fixme" v="consider natural=peak for the most distinct mountains in the district" />
		<tag k="name" v="Leitaåsen" />
		<tag k="natural" v="hill" />
		<tag k="place" v="locality" />
		<tag k="ssr:stedsnr" v="133155" />
	</node>
	<node id="-573496" lat="62.4709749984" lon="6.51681944892">
		<tag k="fixme" v="multiple name tags, choose one and add the other to alt_name; consider natural=peak for the most distinct mountains in the district" />
		<tag k="name" v="Ursfjellet;Vasstrandfjellet" />
		<tag k="natural" v="hill" />
		<tag k="place" v="locality" />
		<tag k="ssr:stedsnr" v="132024" />
	</node>
	<node id="-573485" lat="62.4733361083" lon="6.66708888034">
		<tag k="name" v="Nepreithaugen" />
		<tag k="natural" v="hill" />
		<tag k="place" v="locality" />
		<tag k="ssr:stedsnr" v="96438" />
	</node>
	<node id="-573484" lat="62.4665222179" lon="6.61726388267">
		<tag k="name" v="Løypehaugen" />
		<tag k="natural" v="hill" />
		<tag k="place" v="locality" />
		<tag k="ssr:stedsnr" v="96434" />
	</node>
	<node id="-573477" lat="62.513875001" lon="6.65089722245">
		<tag k="name" v="Brendeskolten" />
		<tag k="natural" v="ridge" />
		<tag k="place" v="locality" />
		<tag k="ssr:stedsnr" v="96481" />
	</node>
	<node id="-573473" lat="62.5460249999" lon="6.66586944632">
		<tag k="name" v="Lia" />
		<tag k="natural" v="slope" />
		<tag k="place" v="locality" />
		<tag k="ssr:stedsnr" v="96334" />
	</node>
	<node id="-573472" lat="62.4881138886" lon="6.57108332615">
		<tag k="name" v="Høgsæterrørene" />
		<tag k="natural" v="ridge" />
		<tag k="place" v="locality" />
		<tag k="ssr:stedsnr" v="96324" />
	</node>
	<node id="-573468" lat="62.4886111083" lon="6.44306389812">
		<tag k="name" v="Pipenakken" />
		<tag k="natural" v="hill" />
		<tag k="place" v="locality" />
		<tag k="ssr:stedsnr" v="96369" />
	</node>
	<node id="-573467" lat="62.4874527758" lon="6.44722500631">
		<tag k="name" v="Gråsteinen" />
		<tag k="natural" v="hill" />
		<tag k="place" v="locality" />
		<tag k="ssr:stedsnr" v="96362" />
	</node>
	<node id="-573466" lat="62.5017666668" lon="6.52158333329">
		<tag k="name" v="Natvikreset" />
		<tag k="natural" v="ridge" />
		<tag k="place" v="locality" />
		<tag k="ssr:stedsnr" v="96288" />
	</node>
	<node id="-573462" lat="62.4929500034" lon="6.46546388113">
		<tag k="name" v="Skaret" />
		<tag k="natural" v="valley" />
		<tag k="place" v="locality" />
		<tag k="ssr:stedsnr" v="96123" />
	</node>
	<node id="-573457" lat="62.5068888925" lon="6.70757499091">
		<tag k="name" v="Nakken" />
		<tag k="natural" v="hill" />
		<tag k="place" v="locality" />
		<tag k="ssr:stedsnr" v="96069" />
	</node>
	<node id="-573454" lat="62.4951666675" lon="6.48773055236">
		<tag k="name" v="Gamlesæterhola" />
		<tag k="natural" v="valley" />
		<tag k="place" v="locality" />
		<tag k="ssr:stedsnr" v="96305" />
	</node>
	<node id="-573452" lat="62.4816027763" lon="6.6035555488">
		<tag k="name" v="Koldene" />
		<tag k="natural" v="hill" />
		<tag k="place" v="locality" />
		<tag k="ssr:stedsnr" v="96042" />
	</node>
	<node id="-573450" lat="62.4739750013" lon="6.57394999194">
		<tag k="name" v="Svene" />
		<tag k="natural" v="hill" />
		<tag k="place" v="locality" />
		<tag k="ssr:stedsnr" v="96005" />
	</node>
	<node id="-573449" lat="62.5238972265" lon="6.52943611771">
		<tag k="fixme" v="consider natural=peak for the most distinct mountains in the district" />
		<tag k="name" v="Stavsetfjellet" />
		<tag k="natural" v="hill" />
		<tag k="place" v="locality" />
		<tag k="ssr:stedsnr" v="95001" />
	</node>
	<node id="-573447" lat="62.5243416654" lon="6.60628611404">
		<tag k="name" v="Bjønnaberget" />
		<tag k="natural" v="hill" />
		<tag k="place" v="locality" />
		<tag k="ssr:stedsnr" v="94670" />
	</node>
	<node id="-573446" lat="62.5279694433" lon="6.59145554925">
		<tag k="name" v="Kamben" />
		<tag k="natural" v="ridge" />
		<tag k="place" v="locality" />
		<tag k="ssr:stedsnr" v="94667" />
	</node>
	<node id="-573444" lat="62.5413388846" lon="6.81426110824">
		<tag k="name" v="Deplane" />
		<tag k="place" v="locality" />
		<tag k="ssr:stedsnr" v="87329" />
	</node>
	<node id="-573442" lat="62.554213886" lon="6.75283055003">
		<tag k="name" v="Erstadlia" />
		<tag k="natural" v="slope" />
		<tag k="place" v="locality" />
		<tag k="ssr:stedsnr" v="72916" />
	</node>
	<node id="-573441" lat="62.5028083314" lon="6.75653888638">
		<tag k="name" v="Furlirørene" />
		<tag k="natural" v="hill" />
		<tag k="place" v="locality" />
		<tag k="ssr:stedsnr" v="72835" />
	</node>
</osm>
