<?xml version="1.0" encoding="UTF-8"?>
<osm generator="osmapis" version="0.6">
	<node changeset="57982147" id="4480764928" lat="58.5325831" lon="7.7529121" timestamp="2018-04-10T18:52:13Z" uid="3497659" user="NKA" version="2">
		<tag k="building" v="cabin" />
		<tag k="name" v="Svansehytta" />
		<tag k="place" v="isolated_dwelling" />
		<tag k="ssr:stedsnr" v="882110" />
		<tag k="ssr:type" v="fritidsbolig" />
	</node>
	<node changeset="57982147" id="4480764929" lat="58.4971955" lon="7.7284833" timestamp="2018-04-10T18:52:13Z" uid="3497659" user="NKA" version="2">
		<tag k="alt_name" v="Tønnesland søndre" />
		<tag k="name" v="Søndre Tønnesland" />
		<tag k="place" v="farm" />
		<tag k="ssr:stedsnr" v="760020" />
		<tag k="ssr:type" v="bruk" />
	</node>
	<node changeset="57982147" id="4480764930" lat="58.6025794" lon="7.6677727" timestamp="2018-04-10T18:52:13Z" uid="3497659" user="NKA" version="2">
		<tag k="name" v="Teigan" />
		<tag k="place" v="farm" />
		<tag k="ssr:stedsnr" v="699952" />
		<tag k="ssr:type" v="bruk" />
	</node>
	<node changeset="57982147" id="4480764931" lat="58.588166" lon="7.8141282" timestamp="2018-04-10T18:52:13Z" uid="3497659" user="NKA" version="2">
		<tag k="name" v="Tingberget" />
		<tag k="place" v="neighbourhood" />
		<tag k="ssr:stedsnr" v="943201" />
		<tag k="ssr:type" v="tettbebyggelse" />
	</node>
	<node changeset="57982147" id="4480764932" lat="58.6026133" lon="7.7121157" timestamp="2018-04-10T18:52:13Z" uid="3497659" user="NKA" version="2">
		<tag k="building" v="cabin" />
		<tag k="name" v="Toddelunden" />
		<tag k="place" v="isolated_dwelling" />
		<tag k="ssr:stedsnr" v="214953" />
		<tag k="ssr:type" v="fritidsbolig" />
	</node>
	<node changeset="57982147" id="4480764933" lat="58.6047149" lon="7.9035924" timestamp="2018-04-10T18:52:13Z" uid="3497659" user="NKA" version="2">
		<tag k="building" v="shed" />
		<tag k="name" v="Torsplass" />
		<tag k="place" v="locality" />
		<tag k="ssr:stedsnr" v="942735" />
		<tag k="ssr:type" v="gammelBosettingsplass" />
	</node>
	<node changeset="57982147" id="4480764934" lat="58.4911305" lon="7.7133258" timestamp="2018-04-10T18:52:14Z" uid="3497659" user="NKA" version="2">
		<tag k="name" v="Trolldalen" />
		<tag k="place" v="farm" />
		<tag k="ssr:stedsnr" v="336845" />
		<tag k="ssr:type" v="bruk" />
	</node>
	<node changeset="57982147" id="4480764935" lat="58.6365569" lon="7.7768939" timestamp="2018-04-10T18:52:14Z" uid="3497659" user="NKA" version="2">
		<tag k="name" v="Trosevollen" />
		<tag k="place" v="farm" />
		<tag k="ssr:stedsnr" v="700390" />
		<tag k="ssr:type" v="bruk" />
	</node>
	<node changeset="57982147" id="4480764936" lat="58.506384" lon="7.5710657" timestamp="2018-04-10T18:52:14Z" uid="3497659" user="NKA" version="2">
		<tag k="name" v="Trudvang" />
		<tag k="place" v="farm" />
		<tag k="ssr:stedsnr" v="943624" />
		<tag k="ssr:type" v="bruk" />
	</node>
	<node changeset="57982147" id="4480764937" lat="58.5375458" lon="7.6876303" timestamp="2018-04-10T18:52:14Z" uid="3497659" user="NKA" version="2">
		<tag k="name" v="Tveit sag" />
		<tag k="place" v="locality" />
		<tag k="ssr:stedsnr" v="336908" />
		<tag k="ssr:type" v="industriområde" />
	</node>
	<node changeset="57982147" id="4480764938" lat="58.5367728" lon="7.6837191" timestamp="2018-04-10T18:52:14Z" uid="3497659" user="NKA" version="2">
		<tag k="name" v="Tveit" />
		<tag k="place" v="hamlet" />
		<tag k="ssr:stedsnr" v="547977" />
		<tag k="ssr:type" v="bruk" />
	</node>
	<node changeset="57982147" id="4480764939" lat="58.6065737" lon="7.8605723" timestamp="2018-04-10T18:52:14Z" uid="3497659" user="NKA" version="2">
		<tag k="name" v="Tveit" />
		<tag k="place" v="farm" />
		<tag k="ssr:stedsnr" v="911723" />
		<tag k="ssr:type" v="bruk" />
	</node>
	<node changeset="57982147" id="4480764940" lat="58.5028585" lon="7.7362221" timestamp="2018-04-10T18:52:14Z" uid="3497659" user="NKA" version="2">
		<tag k="name" v="Tønnesland" />
		<tag k="place" v="farm" />
		<tag k="ssr:stedsnr" v="911433" />
		<tag k="ssr:type" v="bruk" />
	</node>
	<node changeset="57982147" id="4480764941" lat="58.5972013" lon="7.666439" timestamp="2018-04-10T18:52:14Z" uid="3497659" user="NKA" version="2">
		<tag k="name" v="Uleberg" />
		<tag k="place" v="hamlet" />
		<tag k="ssr:stedsnr" v="303856" />
		<tag k="ssr:type" v="bruk" />
	</node>
	<node changeset="57982147" id="4480764942" lat="58.5823935" lon="7.9178068" timestamp="2018-04-10T18:52:14Z" uid="3497659" user="NKA" version="2">
		<tag k="name" v="Undeland" />
		<tag k="place" v="hamlet" />
		<tag k="ssr:stedsnr" v="426755" />
		<tag k="ssr:type" v="bruk" />
	</node>
	<node changeset="57982147" id="4480764943" lat="58.5592922" lon="7.7577757" timestamp="2018-04-10T18:52:14Z" uid="3497659" user="NKA" version="2">
		<tag k="name" v="Valhall" />
		<tag k="place" v="farm" />
		<tag k="ssr:stedsnr" v="668685" />
		<tag k="ssr:type" v="bruk" />
	</node>
	<node changeset="57982147" id="4480764944" lat="58.5726647" lon="7.7633603" timestamp="2018-04-10T18:52:15Z" uid="3497659" user="NKA" version="2">
		<tag k="name" v="Varmedokka" />
		<tag k="place" v="farm" />
		<tag k="ssr:stedsnr" v="668750" />
		<tag k="ssr:type" v="bruk" />
	</node>
	<node changeset="57982147" id="4480764945" lat="58.4749048" lon="7.7861982" timestamp="2018-04-10T18:52:15Z" uid="3497659" user="NKA" version="2">
		<tag k="name" v="Vestre Hodne" />
		<tag k="place" v="hamlet" />
		<tag k="ssr:stedsnr" v="728161" />
		<tag k="ssr:type" v="gard" />
	</node>
	<node changeset="57982147" id="4480764946" lat="58.6801819" lon="7.6590743" timestamp="2018-04-10T18:52:15Z" uid="3497659" user="NKA" version="2">
		<tag k="name" v="Vetrhus" />
		<tag k="place" v="farm" />
		<tag k="ssr:stedsnr" v="122192" />
		<tag k="ssr:type" v="bruk" />
	</node>
	<node changeset="57982147" id="4480764947" lat="58.4746224" lon="7.712926" timestamp="2018-04-10T18:52:15Z" uid="3497659" user="NKA" version="2">
		<tag k="building" v="cabin" />
		<tag k="name" v="Vetterhushytta" />
		<tag k="place" v="isolated_dwelling" />
		<tag k="ssr:stedsnr" v="639856" />
		<tag k="ssr:type" v="fritidsbolig" />
	</node>
	<node changeset="58497758" id="4480764948" lat="58.5943757" lon="7.9685116" timestamp="2018-04-28T08:07:11Z" uid="3497659" user="NKA" version="3">
		<tag k="historic" v="shieling" />
		<tag k="name" v="Vikstøl" />
		<tag k="place" v="farm" />
		<tag k="ssr:stedsnr" v="243708" />
		<tag k="ssr:type" v="bruk" />
	</node>
	<node changeset="57982147" id="4480764949" lat="58.5213064" lon="7.8361034" timestamp="2018-04-10T18:52:15Z" uid="3497659" user="NKA" version="2">
		<tag k="alt_name" v="Vådne" />
		<tag k="name" v="Vånne" />
		<tag k="place" v="farm" />
		<tag k="ssr:stedsnr" v="790430" />
		<tag k="ssr:type" v="bruk" />
	</node>
	<node changeset="57982147" id="4480764950" lat="58.6254707" lon="7.6230236" timestamp="2018-04-10T18:52:15Z" uid="3497659" user="NKA" version="2">
		<tag k="alt_name" v="Dåsvatn, ytre" />
		<tag k="name" v="Ytre Dåsvatn" />
		<tag k="place" v="hamlet" />
		<tag k="ssr:stedsnr" v="546805" />
		<tag k="ssr:type" v="gard" />
	</node>
	<node changeset="58497758" id="4480764951" lat="58.4792771" lon="7.5709837" timestamp="2018-04-28T08:07:11Z" uid="3497659" user="NKA" version="3">
		<tag k="historic" v="shieling" />
		<tag k="name" v="Ytre Strånda" />
		<tag k="place" v="locality" />
		<tag k="ssr:stedsnr" v="518625" />
		<tag k="ssr:type" v="seterStøl" />
	</node>
	<node changeset="57982147" id="4480764952" lat="58.5939436" lon="7.6775962" timestamp="2018-04-10T18:52:16Z" uid="3497659" user="NKA" version="2">
		<tag k="fixme" v="check position" />
		<tag k="historic" v="ruins" />
		<tag k="name" v="Ytre Ås" />
		<tag k="place" v="locality" />
		<tag k="ssr:stedsnr" v="93841" />
		<tag k="ssr:type" v="gammelBosettingsplass" />
	</node>
	<node changeset="43391234" id="4480764953" lat="58.4614449" lon="7.8011039" timestamp="2016-11-03T22:00:33Z" uid="3842253" user="NKA_import" version="1" />
	<node changeset="43391234" id="4480764954" lat="58.4615908" lon="7.8022734" timestamp="2016-11-03T22:00:34Z" uid="3842253" user="NKA_import" version="1" />
	<node changeset="43391234" id="4480764955" lat="58.4616077" lon="7.8017584" timestamp="2016-11-03T22:00:34Z" uid="3842253" user="NKA_import" version="1" />
	<node changeset="43391234" id="4480764956" lat="58.4616975" lon="7.8009645" timestamp="2016-11-03T22:00:34Z" uid="3842253" user="NKA_import" version="1" />
	<node changeset="43391234" id="4480764957" lat="58.4617087" lon="7.8023378" timestamp="2016-11-03T22:00:34Z" uid="3842253" user="NKA_import" version="1" />
	<node changeset="43391234" id="4480764958" lat="58.4617367" lon="7.8006533" timestamp="2016-11-03T22:00:34Z" uid="3842253" user="NKA_import" version="1" />
	<node changeset="57982147" id="332545055" lat="58.6353394" lon="7.818743" timestamp="2018-04-10T18:40:00Z" uid="3497659" user="NKA" version="3">
		<tag k="name" v="Syrtveit" />
		<tag k="place" v="hamlet" />
		<tag k="ssr:stedsnr" v="304493" />
		<tag k="ssr:type" v="bruk" />
	</node>
	<node changeset="43391234" id="4480764960" lat="58.4618826" lon="7.8024021" timestamp="2016-11-03T22:00:34Z" uid="3842253" user="NKA_import" version="1" />
	<node changeset="43391234" id="4480764961" lat="58.4619893" lon="7.8003958" timestamp="2016-11-03T22:00:34Z" uid="3842253" user="NKA_import" version="1" />
	<node changeset="43391234" id="4480764962" lat="58.4619949" lon="7.8026489" timestamp="2016-11-03T22:00:34Z" uid="3842253" user="NKA_import" version="1" />
	<node changeset="43391234" id="4480764963" lat="58.4620959" lon="7.7997736" timestamp="2016-11-03T22:00:34Z" uid="3842253" user="NKA_import" version="1" />
	<node changeset="43391234" id="4480764964" lat="58.4621464" lon="7.8025738" timestamp="2016-11-03T22:00:34Z" uid="3842253" user="NKA_import" version="1" />
	<node changeset="43391234" id="4480764965" lat="58.4621801" lon="7.802209" timestamp="2016-11-03T22:00:34Z" uid="3842253" user="NKA_import" version="1" />
	<node changeset="43391234" id="4480764966" lat="58.4622306" lon="7.7996019" timestamp="2016-11-03T22:00:34Z" uid="3842253" user="NKA_import" version="1" />
	<node changeset="43391234" id="4480764967" lat="58.4622418" lon="7.8022948" timestamp="2016-11-03T22:00:34Z" uid="3842253" user="NKA_import" version="1" />
	<node changeset="43391234" id="4480764968" lat="58.4623035" lon="7.7997307" timestamp="2016-11-03T22:00:34Z" uid="3842253" user="NKA_import" version="1" />
	<node changeset="43391234" id="4480764969" lat="58.4623316" lon="7.8016511" timestamp="2016-11-03T22:00:34Z" uid="3842253" user="NKA_import" version="1" />
	<node changeset="43391234" id="4480764970" lat="58.4623933" lon="7.8014687" timestamp="2016-11-03T22:00:34Z" uid="3842253" user="NKA_import" version="1" />
	<node changeset="43391234" id="4480764971" lat="58.462528" lon="7.8013507" timestamp="2016-11-03T22:00:34Z" uid="3842253" user="NKA_import" version="1" />
	<node changeset="43391234" id="4480764972" lat="58.462702" lon="7.7998701" timestamp="2016-11-03T22:00:34Z" uid="3842253" user="NKA_import" version="1" />
	<node changeset="43391234" id="4480764973" lat="58.4627356" lon="7.801179" timestamp="2016-11-03T22:00:34Z" uid="3842253" user="NKA_import" version="1" />
	<node changeset="43391234" id="4480764974" lat="58.4629601" lon="7.8011576" timestamp="2016-11-03T22:00:34Z" uid="3842253" user="NKA_import" version="1" />
	<node changeset="43391234" id="4480764975" lat="58.4630667" lon="7.800546" timestamp="2016-11-03T22:00:34Z" uid="3842253" user="NKA_import" version="1" />
	<node changeset="43391234" id="4480764976" lat="58.4630667" lon="7.800943" timestamp="2016-11-03T22:00:34Z" uid="3842253" user="NKA_import" version="1" />
	<node changeset="43391234" id="4480764977" lat="58.4631509" lon="7.7997521" timestamp="2016-11-03T22:00:34Z" uid="3842253" user="NKA_import" version="1" />
	<node changeset="43391234" id="4480764978" lat="58.4631902" lon="7.7998379" timestamp="2016-11-03T22:00:34Z" uid="3842253" user="NKA_import" version="1" />
	<node changeset="57982147" id="4480764381" lat="58.6048147" lon="7.8318656" timestamp="2018-04-10T18:51:56Z" uid="3497659" user="NKA" version="2">
		<tag k="name" v="Evjeplassen" />
		<tag k="place" v="farm" />
		<tag k="ssr:stedsnr" v="243711" />
		<tag k="ssr:type" v="bruk" />
	</node>
	<node changeset="57982147" id="4480764388" lat="58.5580918" lon="7.7724306" timestamp="2018-04-10T18:51:57Z" uid="3497659" user="NKA" version="2">
		<tag k="name" v="Futegarden" />
		<tag k="place" v="farm" />
		<tag k="ssr:stedsnr" v="518200" />
		<tag k="ssr:type" v="bruk" />
	</node>
	<node changeset="57982147" id="4480764364" lat="58.6171384" lon="7.7206142" timestamp="2018-04-10T18:51:54Z" uid="3497659" user="NKA" version="2">
		<tag k="building" v="cabin" />
		<tag k="name" v="Birkelandsøygard" />
		<tag k="place" v="isolated_dwelling" />
		<tag k="ssr:stedsnr" v="668568" />
		<tag k="ssr:type" v="fritidsbolig" />
	</node>
	<node changeset="58431417" id="4480764671" lat="58.5790974" lon="7.9426019" timestamp="2018-04-26T06:12:46Z" uid="3497659" user="NKA" version="3">
		<tag k="alt_name" v="Mykjåland" />
		<tag k="name" v="Møkjåland" />
		<tag k="place" v="farm" />
		<tag k="ssr:stedsnr" v="729755" />
		<tag k="ssr:type" v="bruk" />
	</node>
	<node changeset="58497758" id="4480764620" lat="58.6156411" lon="7.9592773" timestamp="2018-04-28T08:07:09Z" uid="3497659" user="NKA" version="3">
		<tag k="historic" v="shieling" />
		<tag k="name" v="Hova" />
		<tag k="place" v="locality" />
		<tag k="ssr:stedsnr" v="638842" />
		<tag k="ssr:type" v="seterStøl" />
	</node>
	<node changeset="57982147" id="331218508" lat="58.6459485" lon="7.8168441" timestamp="2018-04-10T18:40:00Z" uid="3497659" user="NKA" version="4">
		<tag k="name" v="Fossberg" />
		<tag k="place" v="farm" />
		<tag k="ssr:stedsnr" v="396328" />
		<tag k="ssr:type" v="bruk" />
	</node>
	<node changeset="57982147" id="4480764602" lat="58.6007792" lon="7.9082388" timestamp="2018-04-10T18:51:58Z" uid="3497659" user="NKA" version="2">
		<tag k="name" v="Hagen" />
		<tag k="place" v="farm" />
		<tag k="ssr:stedsnr" v="335372" />
		<tag k="ssr:type" v="bruk" />
	</node>
	<node changeset="57982147" id="4480764386" lat="58.6175691" lon="7.9275596" timestamp="2018-04-10T18:51:56Z" uid="3497659" user="NKA" version="2">
		<tag k="alt_name" v="Flåtøygard" />
		<tag k="building" v="cabin" />
		<tag k="name" v="Flotøygarden" />
		<tag k="place" v="isolated_dwelling" />
		<tag k="ssr:stedsnr" v="426529" />
		<tag k="ssr:type" v="fritidsbolig" />
	</node>
	<node changeset="57982147" id="4480764603" lat="58.5091813" lon="7.7632453" timestamp="2018-04-10T18:51:58Z" uid="3497659" user="NKA" version="2">
		<tag k="name" v="Hannåsmoen" />
		<tag k="place" v="farm" />
		<tag k="ssr:stedsnr" v="790444" />
		<tag k="ssr:type" v="bruk" />
	</node>
	<node changeset="57982147" id="4480764604" lat="58.5512203" lon="7.7512677" timestamp="2018-04-10T18:51:59Z" uid="3497659" user="NKA" version="2">
		<tag k="name" v="Hasseldalen" />
		<tag k="place" v="farm" />
		<tag k="ssr:stedsnr" v="154295" />
		<tag k="ssr:type" v="bruk" />
	</node>
	<node changeset="43391234" id="4480764959" lat="58.4618658" lon="7.802209" timestamp="2016-11-03T22:00:34Z" uid="3842253" user="NKA_import" version="1" />
	<node changeset="57982147" id="4480764605" lat="58.5569359" lon="7.7721266" timestamp="2018-04-10T18:51:59Z" uid="3497659" user="NKA" version="2">
		<tag k="name" v="Haugen" />
		<tag k="place" v="farm" />
		<tag k="ssr:stedsnr" v="396159" />
		<tag k="ssr:type" v="bruk" />
	</node>
	<node changeset="57982147" id="4463977427" lat="58.5822561" lon="8.0741297" timestamp="2018-04-10T18:47:49Z" uid="3497659" user="NKA" version="2">
		<tag k="name" v="Tveit" />
		<tag k="place" v="hamlet" />
		<tag k="ssr:stedsnr" v="365739" />
		<tag k="ssr:type" v="gard" />
	</node>
	<node changeset="57982147" id="4480764606" lat="58.5831141" lon="7.8636516" timestamp="2018-04-10T18:51:59Z" uid="3497659" user="NKA" version="2">
		<tag k="name" v="Haugen" />
		<tag k="place" v="farm" />
		<tag k="ssr:stedsnr" v="729759" />
		<tag k="ssr:type" v="bruk" />
	</node>
	<node changeset="57982147" id="4480764383" lat="58.5824367" lon="7.7780256" timestamp="2018-04-10T18:51:56Z" uid="3497659" user="NKA" version="2">
		<tag k="name" v="Fennefoss" />
		<tag k="place" v="hamlet" />
		<tag k="ssr:stedsnr" v="607744" />
		<tag k="ssr:type" v="bruk" />
	</node>
	<node changeset="57982147" id="4463978104" lat="58.5815269" lon="8.0556902" timestamp="2018-04-10T18:47:55Z" uid="3497659" user="NKA" version="2">
		<tag k="fixme" v="check position" />
		<tag k="historic" v="ruins" />
		<tag k="name" v="Øygarden" />
		<tag k="place" v="locality" />
		<tag k="ssr:stedsnr" v="231093" />
		<tag k="ssr:type" v="gammelBosettingsplass" />
	</node>
	<node changeset="57982147" id="4480764607" lat="58.6380456" lon="7.7798093" timestamp="2018-04-10T18:51:59Z" uid="3497659" user="NKA" version="2">
		<tag k="name" v="Haugen" />
		<tag k="place" v="farm" />
		<tag k="ssr:stedsnr" v="882323" />
		<tag k="ssr:type" v="bruk" />
	</node>
	<node changeset="57982147" id="4480764608" lat="58.492777" lon="7.715891" timestamp="2018-04-10T18:51:59Z" uid="3497659" user="NKA" version="2">
		<tag k="name" v="Haugland" />
		<tag k="place" v="farm" />
		<tag k="ssr:stedsnr" v="910591" />
		<tag k="ssr:type" v="bruk" />
	</node>
	<node changeset="57982147" id="4480764609" lat="58.5956713" lon="7.6737621" timestamp="2018-04-10T18:51:59Z" uid="3497659" user="NKA" version="2">
		<tag k="fixme" v="check position" />
		<tag k="historic" v="ruins" />
		<tag k="name" v="Heimre Ås" />
		<tag k="place" v="locality" />
		<tag k="ssr:stedsnr" v="578866" />
		<tag k="ssr:type" v="gammelBosettingsplass" />
	</node>
	<node changeset="58497758" id="4480764610" lat="58.6396573" lon="7.848813" timestamp="2018-04-28T08:07:09Z" uid="3497659" user="NKA" version="3">
		<tag k="alt_name" v="Heimstølen" />
		<tag k="building" v="cabin" />
		<tag k="historic" v="shieling" />
		<tag k="name" v="Heimstøl" />
		<tag k="place" v="isolated_dwelling" />
		<tag k="ssr:stedsnr" v="183465" />
		<tag k="ssr:type" v="fritidsbolig" />
	</node>
	<node changeset="57982147" id="4480764611" lat="58.5342295" lon="7.7853718" timestamp="2018-04-10T18:51:59Z" uid="3497659" user="NKA" version="2">
		<tag k="name" v="Hestvåg" />
		<tag k="place" v="farm" />
		<tag k="ssr:stedsnr" v="364696" />
		<tag k="ssr:type" v="bruk" />
	</node>
	<node changeset="57982147" id="330712725" lat="58.5862731" lon="7.8049338" timestamp="2018-04-10T18:39:59Z" uid="3497659" user="NKA" version="5">
		<tag k="name" v="Evje" />
		<tag k="place" v="village" />
		<tag k="population" v="2445" />
		<tag k="ssr:stedsnr" v="1744" />
		<tag k="ssr:type" v="tettsted" />
	</node>
	<node changeset="57982147" id="4480764612" lat="58.4819379" lon="7.7837571" timestamp="2018-04-10T18:51:59Z" uid="3497659" user="NKA" version="2">
		<tag k="name" v="Hodnemoen" />
		<tag k="place" v="farm" />
		<tag k="ssr:stedsnr" v="364233" />
		<tag k="ssr:type" v="bruk" />
	</node>
	<node changeset="56035354" id="4480765082" lat="58.5991911" lon="7.8311332" timestamp="2018-02-03T17:50:05Z" uid="2114448" user="FredrikLindseth_import" version="2" />
	<node changeset="56035354" id="4480765083" lat="58.599192" lon="7.831353" timestamp="2018-02-03T17:50:05Z" uid="2114448" user="FredrikLindseth_import" version="2" />
	<node changeset="56035354" id="4480765084" lat="58.5992037" lon="7.8309368" timestamp="2018-02-03T17:50:06Z" uid="2114448" user="FredrikLindseth_import" version="2" />
	<node changeset="56035354" id="4480765085" lat="58.5992045" lon="7.831133" timestamp="2018-02-03T17:50:06Z" uid="2114448" user="FredrikLindseth_import" version="2" />
	<node changeset="56035354" id="4480765086" lat="58.5992227" lon="7.8313525" timestamp="2018-02-03T17:50:06Z" uid="2114448" user="FredrikLindseth_import" version="2" />
	<node changeset="57982147" id="332547743" lat="58.652043" lon="7.9520058" timestamp="2018-04-10T18:40:00Z" uid="3497659" user="NKA" version="3">
		<tag k="name" v="Gautestad" />
		<tag k="place" v="village" />
		<tag k="ssr:stedsnr" v="486524" />
		<tag k="ssr:type" v="bygdelagBygd" />
	</node>
	<node changeset="56035354" id="4480765088" lat="58.5992355" lon="7.8308496" timestamp="2018-02-03T17:50:06Z" uid="2114448" user="FredrikLindseth_import" version="2" />
	<node changeset="57982147" id="332547745" lat="58.6059586" lon="7.8779644" timestamp="2018-04-10T18:40:00Z" uid="3497659" user="NKA" version="3">
		<tag k="name" v="Flatebygd" />
		<tag k="place" v="village" />
		<tag k="ssr:stedsnr" v="668738" />
		<tag k="ssr:type" v="bygdelagBygd" />
	</node>
	<node changeset="56035354" id="4480765090" lat="58.5992877" lon="7.8308501" timestamp="2018-02-03T17:50:06Z" uid="2114448" user="FredrikLindseth_import" version="2" />
	<node changeset="56035354" id="4480765091" lat="58.5992881" lon="7.8309344" timestamp="2018-02-03T17:50:06Z" uid="2114448" user="FredrikLindseth_import" version="2" />
	<node changeset="57982147" id="821482148" lat="58.5902064" lon="7.8037948" timestamp="2018-04-10T18:40:02Z" uid="3497659" user="NKA" version="3">
		<tag k="name" v="Bakkemoen" />
		<tag k="place" v="neighbourhood" />
		<tag k="ssr:stedsnr" v="789697" />
		<tag k="ssr:type" v="eneboligMindreBoligbygg" />
	</node>
	<node changeset="57982147" id="4480764614" lat="58.4646713" lon="7.7699736" timestamp="2018-04-10T18:52:00Z" uid="3497659" user="NKA" version="2">
		<tag k="fixme" v="check position" />
		<tag k="historic" v="ruins" />
		<tag k="name" v="Hodneøygard" />
		<tag k="place" v="locality" />
		<tag k="ssr:stedsnr" v="32084" />
		<tag k="ssr:type" v="gammelBosettingsplass" />
	</node>
	<node changeset="56035354" id="4480765094" lat="58.5993201" lon="7.8309339" timestamp="2018-02-03T17:50:06Z" uid="2114448" user="FredrikLindseth_import" version="2" />
	<node changeset="56035354" id="4480765095" lat="58.5993209" lon="7.8311279" timestamp="2018-02-03T17:50:06Z" uid="2114448" user="FredrikLindseth_import" version="2" />
	<node changeset="56035354" id="4480765096" lat="58.5993328" lon="7.8311277" timestamp="2018-02-03T17:50:06Z" uid="2114448" user="FredrikLindseth_import" version="2" />
	<node changeset="56035354" id="4480765097" lat="58.5993337" lon="7.831349" timestamp="2018-02-03T17:50:06Z" uid="2114448" user="FredrikLindseth_import" version="2" />
	<node changeset="57982147" id="4480764615" lat="58.6413226" lon="7.777842" timestamp="2018-04-10T18:52:00Z" uid="3497659" user="NKA" version="2">
		<tag k="name" v="Holtet" />
		<tag k="place" v="farm" />
		<tag k="ssr:stedsnr" v="518320" />
		<tag k="ssr:type" v="bruk" />
	</node>
	<node changeset="57982147" id="4480764589" lat="58.5764974" lon="7.838751" timestamp="2018-04-10T18:51:57Z" uid="3497659" user="NKA" version="2">
		<tag k="name" v="Galteland" />
		<tag k="place" v="hamlet" />
		<tag k="ssr:stedsnr" v="61711" />
		<tag k="ssr:type" v="bruk" />
	</node>
	<node changeset="57982147" id="4480764590" lat="58.581271" lon="7.9915988" timestamp="2018-04-10T18:51:57Z" uid="3497659" user="NKA" version="2">
		<tag k="building" v="cabin" />
		<tag k="name" v="Glopstad" />
		<tag k="place" v="isolated_dwelling" />
		<tag k="ssr:stedsnr" v="275638" />
		<tag k="ssr:type" v="gammelBosettingsplass" />
	</node>
	<node changeset="57982147" id="4480764591" lat="58.5912385" lon="7.6483609" timestamp="2018-04-10T18:51:57Z" uid="3497659" user="NKA" version="2">
		<tag k="fixme" v="check position" />
		<tag k="historic" v="ruins" />
		<tag k="name" v="Godfars øygard" />
		<tag k="place" v="locality" />
		<tag k="ssr:stedsnr" v="154910" />
		<tag k="ssr:type" v="gammelBosettingsplass" />
	</node>
	<node changeset="57982147" id="4480764592" lat="58.6309806" lon="8.0170411" timestamp="2018-04-10T18:51:57Z" uid="3497659" user="NKA" version="2">
		<tag k="fixme" v="check position" />
		<tag k="historic" v="ruins" />
		<tag k="name" v="Godfarsøygard" />
		<tag k="place" v="locality" />
		<tag k="ssr:stedsnr" v="153660" />
		<tag k="ssr:type" v="gammelBosettingsplass" />
	</node>
	<node changeset="57982147" id="4480764593" lat="58.5855042" lon="7.8085633" timestamp="2018-04-10T18:51:57Z" uid="3497659" user="NKA" version="2">
		<tag k="name" v="Grenjå" />
		<tag k="place" v="neighbourhood" />
		<tag k="ssr:stedsnr" v="578153" />
		<tag k="ssr:type" v="boligfelt" />
	</node>
	<node changeset="57982147" id="4480764594" lat="58.6045643" lon="7.8794087" timestamp="2018-04-10T18:51:57Z" uid="3497659" user="NKA" version="2">
		<tag k="name" v="Grenneshaugen" />
		<tag k="place" v="neighbourhood" />
		<tag k="ssr:stedsnr" v="821504" />
		<tag k="ssr:type" v="boligfelt" />
	</node>
	<node changeset="57982147" id="4480764595" lat="58.5577121" lon="7.7635175" timestamp="2018-04-10T18:51:58Z" uid="3497659" user="NKA" version="2">
		<tag k="name" v="Gullslett" />
		<tag k="place" v="neighbourhood" />
		<tag k="ssr:stedsnr" v="154263" />
		<tag k="ssr:type" v="boligfelt" />
	</node>
	<node changeset="57982147" id="4480764596" lat="58.6639581" lon="7.7959778" timestamp="2018-04-10T18:51:58Z" uid="3497659" user="NKA" version="2">
		<tag k="name" v="Gullsmedmoen" />
		<tag k="place" v="farm" />
		<tag k="ssr:stedsnr" v="183579" />
		<tag k="ssr:type" v="bruk" />
	</node>
	<node changeset="57982147" id="4480764597" lat="58.5793663" lon="8.0017501" timestamp="2018-04-10T18:51:58Z" uid="3497659" user="NKA" version="2">
		<tag k="name" v="Gunnheim" />
		<tag k="place" v="farm" />
		<tag k="ssr:stedsnr" v="335681" />
		<tag k="ssr:type" v="eneboligMindreBoligbygg" />
	</node>
	<node changeset="57982147" id="4480764598" lat="58.5199222" lon="7.5609329" timestamp="2018-04-10T18:51:58Z" uid="3497659" user="NKA" version="2">
		<tag k="name" v="Gåseflå" />
		<tag k="place" v="farm" />
		<tag k="ssr:stedsnr" v="182872" />
		<tag k="ssr:type" v="bruk" />
	</node>
	<node changeset="57982147" id="4480764599" lat="58.609111" lon="7.8843938" timestamp="2018-04-10T18:51:58Z" uid="3497659" user="NKA" version="2">
		<tag k="name" v="Gåvoll" />
		<tag k="place" v="farm" />
		<tag k="ssr:stedsnr" v="729527" />
		<tag k="ssr:type" v="bruk" />
	</node>
	<node changeset="57982147" id="4480764600" lat="58.5167822" lon="7.7302736" timestamp="2018-04-10T18:51:58Z" uid="3497659" user="NKA" version="2">
		<tag k="name" v="Hagen" />
		<tag k="place" v="farm" />
		<tag k="ssr:stedsnr" v="61410" />
		<tag k="ssr:type" v="bruk" />
	</node>
	<node changeset="58497758" id="4480764601" lat="58.5485325" lon="7.7436172" timestamp="2018-04-28T08:07:09Z" uid="3497659" user="NKA" version="3">
		<tag k="historic" v="shieling" />
		<tag k="name" v="Hagen" />
		<tag k="place" v="locality" />
		<tag k="ssr:stedsnr" v="638182" />
		<tag k="ssr:type" v="setervoll" />
	</node>
	<node changeset="57982147" id="4480765114" lat="58.5711657" lon="7.8644286" timestamp="2018-04-10T18:52:16Z" uid="3497659" user="NKA" version="2">
		<tag k="name" v="Åmland" />
		<tag k="place" v="farm" />
		<tag k="ssr:stedsnr" v="61712" />
		<tag k="ssr:type" v="bruk" />
	</node>
	<node changeset="57982147" id="4480765115" lat="58.5810868" lon="7.8617139" timestamp="2018-04-10T18:52:16Z" uid="3497659" user="NKA" version="2">
		<tag k="name" v="Åneland" />
		<tag k="place" v="hamlet" />
		<tag k="ssr:stedsnr" v="668743" />
		<tag k="ssr:type" v="bruk" />
	</node>
	<node changeset="58497758" id="4480765116" lat="58.5959149" lon="7.9335562" timestamp="2018-04-28T08:07:11Z" uid="3497659" user="NKA" version="3">
		<tag k="building" v="cabin" />
		<tag k="historic" v="shieling" />
		<tag k="name" v="Ånestøl" />
		<tag k="place" v="isolated_dwelling" />
		<tag k="ssr:stedsnr" v="183708" />
		<tag k="ssr:type" v="fritidsbolig" />
	</node>
	<node changeset="57982147" id="4480765117" lat="58.6019765" lon="7.7782943" timestamp="2018-04-10T18:52:16Z" uid="3497659" user="NKA" version="2">
		<tag k="name" v="Ås" />
		<tag k="place" v="farm" />
		<tag k="ssr:stedsnr" v="911726" />
		<tag k="ssr:type" v="bruk" />
	</node>
	<node changeset="57982147" id="4480765118" lat="58.663354" lon="7.9243558" timestamp="2018-04-10T18:52:16Z" uid="3497659" user="NKA" version="2">
		<tag k="alt_name" v="Åsebu" />
		<tag k="building" v="cabin" />
		<tag k="name" v="Åsbu" />
		<tag k="place" v="isolated_dwelling" />
		<tag k="ssr:stedsnr" v="523" />
		<tag k="ssr:type" v="fritidsbolig" />
	</node>
	<node changeset="57982147" id="4480765119" lat="58.6059011" lon="7.8970173" timestamp="2018-04-10T18:52:16Z" uid="3497659" user="NKA" version="2">
		<tag k="name" v="Åsen" />
		<tag k="place" v="farm" />
		<tag k="ssr:stedsnr" v="699701" />
		<tag k="ssr:type" v="bruk" />
	</node>
	<node changeset="57982147" id="4480765120" lat="58.6076538" lon="7.9657027" timestamp="2018-04-10T18:52:16Z" uid="3497659" user="NKA" version="2">
		<tag k="name" v="Åsen" />
		<tag k="place" v="farm" />
		<tag k="ssr:stedsnr" v="546495" />
		<tag k="ssr:type" v="bruk" />
	</node>
	<node changeset="57982147" id="4480765121" lat="58.5824482" lon="7.8435344" timestamp="2018-04-10T18:52:17Z" uid="3497659" user="NKA" version="2">
		<tag k="name" v="Åsland" />
		<tag k="place" v="farm" />
		<tag k="ssr:stedsnr" v="911755" />
		<tag k="ssr:type" v="bruk" />
	</node>
	<node changeset="57982147" id="4480765122" lat="58.6039968" lon="7.9047204" timestamp="2018-04-10T18:52:17Z" uid="3497659" user="NKA" version="2">
		<tag k="name" v="Åvesland" />
		<tag k="place" v="hamlet" />
		<tag k="ssr:stedsnr" v="911739" />
		<tag k="ssr:type" v="bruk" />
	</node>
	<node changeset="57982147" id="4480765123" lat="58.5769127" lon="7.7698922" timestamp="2018-04-10T18:52:17Z" uid="3497659" user="NKA" version="2">
		<tag k="building" v="cabin" />
		<tag k="name" v="Ærdalen" />
		<tag k="place" v="isolated_dwelling" />
		<tag k="ssr:stedsnr" v="396804" />
		<tag k="ssr:type" v="fritidsbolig" />
	</node>
	<node changeset="57982147" id="4480765124" lat="58.6508549" lon="7.6371611" timestamp="2018-04-10T18:52:17Z" uid="3497659" user="NKA" version="2">
		<tag k="alt_name" v="Yksenskår" />
		<tag k="name" v="Øksenskår" />
		<tag k="place" v="locality" />
		<tag k="ssr:stedsnr" v="485134" />
		<tag k="ssr:type" v="bruk" />
	</node>
	<node changeset="57982147" id="4480764613" lat="58.4726977" lon="7.7887311" timestamp="2018-04-10T18:52:00Z" uid="3497659" user="NKA" version="2">
		<tag k="name" v="Hodnesund" />
		<tag k="place" v="farm" />
		<tag k="ssr:stedsnr" v="358167" />
		<tag k="ssr:type" v="bruk" />
	</node>
	<node changeset="57982147" id="4480765126" lat="58.6446724" lon="7.6111395" timestamp="2018-04-10T18:52:17Z" uid="3497659" user="NKA" version="2">
		<tag k="alt_name" v="Dåsvatn, øvre" />
		<tag k="name" v="Øvre Dåsvatn" />
		<tag k="place" v="farm" />
		<tag k="ssr:stedsnr" v="243144" />
		<tag k="ssr:type" v="bruk" />
	</node>
	<node changeset="57982147" id="4480765127" lat="58.5156321" lon="7.7609628" timestamp="2018-04-10T18:52:17Z" uid="3497659" user="NKA" version="2">
		<tag k="alt_name" v="Hannås øvre" />
		<tag k="name" v="Øvre Hannås" />
		<tag k="place" v="farm" />
		<tag k="ssr:stedsnr" v="789428" />
		<tag k="ssr:type" v="bruk" />
	</node>
	<node changeset="57982147" id="4480765128" lat="58.519538" lon="7.8539941" timestamp="2018-04-10T18:52:17Z" uid="3497659" user="NKA" version="2">
		<tag k="alt_name" v="Li Øvre;Li" />
		<tag k="name" v="Øvre Li" />
		<tag k="place" v="farm" />
		<tag k="ssr:stedsnr" v="911438" />
		<tag k="ssr:type" v="bruk" />
	</node>
	<node changeset="57982147" id="4480765129" lat="58.5395645" lon="7.672239" timestamp="2018-04-10T18:52:17Z" uid="3497659" user="NKA" version="2">
		<tag k="name" v="Øygarden" />
		<tag k="place" v="farm" />
		<tag k="ssr:stedsnr" v="183964" />
		<tag k="ssr:type" v="bruk" />
	</node>
	<node changeset="67725273" id="4480764618" lat="58.5592913" lon="7.7734664" timestamp="2019-03-02T22:47:33Z" uid="32112" user="SverigeFan" version="3" />
	<node changeset="57982147" id="4480765131" lat="58.5896709" lon="7.876655" timestamp="2018-04-10T18:52:18Z" uid="3497659" user="NKA" version="2">
		<tag k="building" v="cabin" />
		<tag k="name" v="Øygarden" />
		<tag k="place" v="isolated_dwelling" />
		<tag k="ssr:stedsnr" v="821405" />
		<tag k="ssr:type" v="gammelBosettingsplass" />
	</node>
	<node changeset="57982147" id="4480765132" lat="58.6345744" lon="7.6701895" timestamp="2018-04-10T18:52:18Z" uid="3497659" user="NKA" version="2">
		<tag k="fixme" v="check position" />
		<tag k="historic" v="ruins" />
		<tag k="name" v="Øygarden" />
		<tag k="place" v="locality" />
		<tag k="ssr:stedsnr" v="334958" />
		<tag k="ssr:type" v="gammelBosettingsplass" />
	</node>
	<node changeset="57982147" id="4480764621" lat="58.5410748" lon="7.6745622" timestamp="2018-04-10T18:52:00Z" uid="3497659" user="NKA" version="2">
		<tag k="name" v="Huset" />
		<tag k="place" v="farm" />
		<tag k="ssr:stedsnr" v="154933" />
		<tag k="ssr:type" v="bruk" />
	</node>
	<node changeset="57982147" id="4480764622" lat="58.5736096" lon="7.9338805" timestamp="2018-04-10T18:52:00Z" uid="3497659" user="NKA" version="2">
		<tag k="building" v="cabin" />
		<tag k="name" v="Håland" />
		<tag k="place" v="isolated_dwelling" />
		<tag k="ssr:stedsnr" v="790759" />
		<tag k="ssr:type" v="gammelBosettingsplass" />
	</node>
	<node changeset="57982147" id="4463977167" lat="58.6005892" lon="8.0952114" timestamp="2018-04-10T18:47:31Z" uid="3497659" user="NKA" version="2">
		<tag k="fixme" v="check position" />
		<tag k="historic" v="ruins" />
		<tag k="name" v="Hovlandssetra" />
		<tag k="place" v="locality" />
		<tag k="ssr:stedsnr" v="960494" />
		<tag k="ssr:type" v="gammelBosettingsplass" />
	</node>
	<node changeset="57982147" id="4480764624" lat="58.5821262" lon="7.972976" timestamp="2018-04-10T18:52:01Z" uid="3497659" user="NKA" version="2">
		<tag k="name" v="Håtveit" />
		<tag k="place" v="farm" />
		<tag k="ssr:stedsnr" v="1747" />
		<tag k="ssr:type" v="bruk" />
	</node>
	<node changeset="57982147" id="4480764625" lat="58.5644576" lon="7.8431936" timestamp="2018-04-10T18:52:01Z" uid="3497659" user="NKA" version="2">
		<tag k="name" v="Høgetveit" />
		<tag k="place" v="farm" />
		<tag k="ssr:stedsnr" v="790686" />
		<tag k="ssr:type" v="bruk" />
	</node>
	<node changeset="58497758" id="4480764626" lat="58.6521547" lon="7.9049751" timestamp="2018-04-28T08:07:10Z" uid="3497659" user="NKA" version="3">
		<tag k="building" v="cabin" />
		<tag k="historic" v="shieling" />
		<tag k="name" v="Indreøygard" />
		<tag k="place" v="isolated_dwelling" />
		<tag k="ssr:stedsnr" v="275717" />
		<tag k="ssr:type" v="seterStøl" />
	</node>
	<node changeset="57982147" id="4480764627" lat="58.5984574" lon="7.8534234" timestamp="2018-04-10T18:52:01Z" uid="3497659" user="NKA" version="2">
		<tag k="alt_name" v="Jokeli" />
		<tag k="name" v="Jokelid" />
		<tag k="place" v="farm" />
		<tag k="ssr:stedsnr" v="729731" />
		<tag k="ssr:type" v="eneboligMindreBoligbygg" />
	</node>
	<node changeset="57982147" id="4480764628" lat="58.5753513" lon="7.7504072" timestamp="2018-04-10T18:52:01Z" uid="3497659" user="NKA" version="2">
		<tag k="alt_name" v="Jortveit" />
		<tag k="name" v="Jordtveit" />
		<tag k="place" v="farm" />
		<tag k="ssr:stedsnr" v="304745" />
		<tag k="ssr:type" v="bruk" />
	</node>
	<node changeset="57982147" id="4463977166" lat="58.5872821" lon="8.0727522" timestamp="2018-04-10T18:47:31Z" uid="3497659" user="NKA" version="2">
		<tag k="name" v="Hovland" />
		<tag k="place" v="farm" />
		<tag k="ssr:stedsnr" v="607719" />
		<tag k="ssr:type" v="bruk" />
	</node>
	<node changeset="57982147" id="4480764630" lat="58.4727989" lon="7.6318527" timestamp="2018-04-10T18:52:01Z" uid="3497659" user="NKA" version="2">
		<tag k="name" v="Kalland" />
		<tag k="place" v="farm" />
		<tag k="ssr:stedsnr" v="182576" />
		<tag k="ssr:type" v="bruk" />
	</node>
	<node changeset="57982147" id="4480764631" lat="58.5770507" lon="7.7327695" timestamp="2018-04-10T18:52:01Z" uid="3497659" user="NKA" version="2">
		<tag k="name" v="Kallhovd" />
		<tag k="place" v="hamlet" />
		<tag k="ssr:stedsnr" v="122735" />
		<tag k="ssr:type" v="bruk" />
	</node>
	<node changeset="57982147" id="4480764632" lat="58.5697384" lon="7.856215" timestamp="2018-04-10T18:52:02Z" uid="3497659" user="NKA" version="2">
		<tag k="name" v="Kjebekk" />
		<tag k="place" v="farm" />
		<tag k="ssr:stedsnr" v="62657" />
		<tag k="ssr:type" v="bruk" />
	</node>
	<node changeset="57982147" id="4480764633" lat="58.6972263" lon="7.6696725" timestamp="2018-04-10T18:52:02Z" uid="3497659" user="NKA" version="2">
		<tag k="building" v="cabin" />
		<tag k="name" v="Kjåkedal" />
		<tag k="place" v="isolated_dwelling" />
		<tag k="ssr:stedsnr" v="729209" />
		<tag k="ssr:type" v="fritidsbolig" />
	</node>
	<node changeset="57982147" id="4480764634" lat="58.5976858" lon="7.8332159" timestamp="2018-04-10T18:52:02Z" uid="3497659" user="NKA" version="2">
		<tag k="name" v="Kjørkåsen" />
		<tag k="place" v="farm" />
		<tag k="ssr:stedsnr" v="700208" />
		<tag k="ssr:type" v="bruk" />
	</node>
	<node changeset="58497758" id="4480764623" lat="58.6313967" lon="7.946091" timestamp="2018-04-28T08:07:09Z" uid="3497659" user="NKA" version="3">
		<tag k="building" v="cabin" />
		<tag k="historic" v="shieling" />
		<tag k="name" v="Håstøl" />
		<tag k="place" v="isolated_dwelling" />
		<tag k="ssr:stedsnr" v="93562" />
		<tag k="ssr:type" v="seterStøl" />
	</node>
	<node changeset="57982147" id="4480764636" lat="58.5033818" lon="7.7818319" timestamp="2018-04-10T18:52:02Z" uid="3497659" user="NKA" version="2">
		<tag k="name" v="Klepp" />
		<tag k="place" v="farm" />
		<tag k="ssr:stedsnr" v="364408" />
		<tag k="ssr:type" v="bruk" />
	</node>
	<node changeset="57982147" id="4463977181" lat="58.6005275" lon="8.1029236" timestamp="2018-04-10T18:47:33Z" uid="3497659" user="NKA" version="2">
		<tag k="fixme" v="check position" />
		<tag k="historic" v="ruins" />
		<tag k="name" v="Kjetevassøygarden" />
		<tag k="place" v="locality" />
		<tag k="ssr:stedsnr" v="789352" />
		<tag k="ssr:type" v="gammelBosettingsplass" />
	</node>
	<node changeset="57982147" id="4480764638" lat="58.5787518" lon="7.9542037" timestamp="2018-04-10T18:52:02Z" uid="3497659" user="NKA" version="2">
		<tag k="name" v="Kleveland" />
		<tag k="place" v="hamlet" />
		<tag k="ssr:stedsnr" v="62736" />
		<tag k="ssr:type" v="bruk" />
	</node>
	<node changeset="57982147" id="4480764639" lat="58.6505024" lon="7.6153279" timestamp="2018-04-10T18:52:02Z" uid="3497659" user="NKA" version="2">
		<tag k="name" v="Kleven" />
		<tag k="place" v="farm" />
		<tag k="ssr:stedsnr" v="182155" />
		<tag k="ssr:type" v="bruk" />
	</node>
	<node changeset="57982147" id="4480764640" lat="58.5775363" lon="7.845068" timestamp="2018-04-10T18:52:03Z" uid="3497659" user="NKA" version="2">
		<tag k="name" v="Knapen" />
		<tag k="place" v="farm" />
		<tag k="ssr:stedsnr" v="607734" />
		<tag k="ssr:type" v="bruk" />
	</node>
	<node changeset="57982147" id="4480764641" lat="58.5424258" lon="7.7000508" timestamp="2018-04-10T18:52:03Z" uid="3497659" user="NKA" version="2">
		<tag k="name" v="Krohei" />
		<tag k="place" v="farm" />
		<tag k="ssr:stedsnr" v="303972" />
		<tag k="ssr:type" v="bruk" />
	</node>
	<node changeset="67725273" id="5383646434" lat="58.5592033" lon="7.7732127" timestamp="2019-03-02T22:47:33Z" uid="32112" user="SverigeFan" version="2" />
	<node changeset="57982147" id="4480764643" lat="58.5884335" lon="7.7968854" timestamp="2018-04-10T18:52:03Z" uid="3497659" user="NKA" version="2">
		<tag k="name" v="Krossen" />
		<tag k="place" v="neighbourhood" />
		<tag k="ssr:stedsnr" v="850728" />
		<tag k="ssr:type" v="tettbebyggelse" />
	</node>
	<node changeset="57982147" id="4480764644" lat="58.6291849" lon="7.6346872" timestamp="2018-04-10T18:52:03Z" uid="3497659" user="NKA" version="2">
		<tag k="building" v="cabin" />
		<tag k="name" v="Krossen" />
		<tag k="place" v="isolated_dwelling" />
		<tag k="ssr:stedsnr" v="485799" />
		<tag k="ssr:type" v="fritidsbolig" />
	</node>
	<node changeset="57982147" id="4480764645" lat="58.6376897" lon="7.8492506" timestamp="2018-04-10T18:52:03Z" uid="3497659" user="NKA" version="2">
		<tag k="fixme" v="check position" />
		<tag k="historic" v="ruins" />
		<tag k="name" v="Kråkestølane" />
		<tag k="place" v="locality" />
		<tag k="ssr:stedsnr" v="396563" />
		<tag k="ssr:type" v="gammelBosettingsplass" />
	</node>
	<node changeset="57982147" id="4480764646" lat="58.5986719" lon="7.6630894" timestamp="2018-04-10T18:52:03Z" uid="3497659" user="NKA" version="2">
		<tag k="name" v="Kvasshommen" />
		<tag k="place" v="farm" />
		<tag k="ssr:stedsnr" v="425866" />
		<tag k="ssr:type" v="bruk" />
	</node>
	<node changeset="57982147" id="4480764647" lat="58.5978673" lon="7.8273413" timestamp="2018-04-10T18:52:03Z" uid="3497659" user="NKA" version="2">
		<tag k="name" v="Kyrkjebygda" />
		<tag k="place" v="village" />
		<tag k="ssr:stedsnr" v="61696" />
		<tag k="ssr:type" v="bygdelagBygd" />
	</node>
	<node changeset="57982147" id="4480764648" lat="58.5129136" lon="7.8379286" timestamp="2018-04-10T18:52:03Z" uid="3497659" user="NKA" version="2">
		<tag k="name" v="Landsverk" />
		<tag k="place" v="farm" />
		<tag k="ssr:stedsnr" v="790406" />
		<tag k="ssr:type" v="bruk" />
	</node>
	<node changeset="57982147" id="4480764649" lat="58.5913115" lon="7.8613975" timestamp="2018-04-10T18:52:04Z" uid="3497659" user="NKA" version="2">
		<tag k="name" v="Landsverkplassen" />
		<tag k="place" v="farm" />
		<tag k="ssr:stedsnr" v="457382" />
		<tag k="ssr:type" v="bruk" />
	</node>
	<node changeset="57982147" id="4480764650" lat="58.6533028" lon="7.8034536" timestamp="2018-04-10T18:52:04Z" uid="3497659" user="NKA" version="2">
		<tag k="name" v="Langemyr" />
		<tag k="place" v="farm" />
		<tag k="ssr:stedsnr" v="517467" />
		<tag k="ssr:type" v="bruk" />
	</node>
	<node changeset="57982147" id="4480764651" lat="58.5535326" lon="7.8388781" timestamp="2018-04-10T18:52:04Z" uid="3497659" user="NKA" version="2">
		<tag k="name" v="Lauvland" />
		<tag k="place" v="hamlet" />
		<tag k="ssr:stedsnr" v="244669" />
		<tag k="ssr:type" v="bruk" />
	</node>
	<node changeset="57982147" id="4480764652" lat="58.6406954" lon="7.96645" timestamp="2018-04-10T18:52:04Z" uid="3497659" user="NKA" version="2">
		<tag k="name" v="Lauvås" />
		<tag k="place" v="farm" />
		<tag k="ssr:stedsnr" v="244594" />
		<tag k="ssr:type" v="bruk" />
	</node>
	<node changeset="57982147" id="4480764653" lat="58.6740578" lon="7.6565997" timestamp="2018-04-10T18:52:04Z" uid="3497659" user="NKA" version="2">
		<tag k="fixme" v="check position" />
		<tag k="historic" v="ruins" />
		<tag k="name" v="Lauvåsøygard" />
		<tag k="place" v="locality" />
		<tag k="ssr:stedsnr" v="517069" />
		<tag k="ssr:type" v="gammelBosettingsplass" />
	</node>
	<node changeset="57982147" id="4480764654" lat="58.5153513" lon="7.7144967" timestamp="2018-04-10T18:52:04Z" uid="3497659" user="NKA" version="2">
		<tag k="name" v="Li" />
		<tag k="place" v="farm" />
		<tag k="ssr:stedsnr" v="668877" />
		<tag k="ssr:type" v="bruk" />
	</node>
	<node changeset="57982147" id="4480764655" lat="58.5884593" lon="7.7890701" timestamp="2018-04-10T18:52:04Z" uid="3497659" user="NKA" version="2">
		<tag k="name" v="Lia" />
		<tag k="place" v="farm" />
		<tag k="ssr:stedsnr" v="911702" />
		<tag k="ssr:type" v="bruk" />
	</node>
	<node changeset="58497758" id="4480764656" lat="58.6212143" lon="7.6843739" timestamp="2018-04-28T08:07:10Z" uid="3497659" user="NKA" version="3">
		<tag k="building" v="cabin" />
		<tag k="historic" v="shieling" />
		<tag k="name" v="Liestøl" />
		<tag k="place" v="isolated_dwelling" />
		<tag k="ssr:stedsnr" v="517947" />
		<tag k="ssr:type" v="seterStøl" />
	</node>
	<node changeset="57982147" id="4480764657" lat="58.5382984" lon="7.6813537" timestamp="2018-04-10T18:52:04Z" uid="3497659" user="NKA" version="2">
		<tag k="name" v="Lislevand" />
		<tag k="place" v="farm" />
		<tag k="ssr:stedsnr" v="882902" />
		<tag k="ssr:type" v="bruk" />
	</node>
	<node changeset="57982147" id="4480764658" lat="58.5814008" lon="7.9859803" timestamp="2018-04-10T18:52:05Z" uid="3497659" user="NKA" version="2">
		<tag k="name" v="Lislevann" />
		<tag k="place" v="hamlet" />
		<tag k="ssr:stedsnr" v="183751" />
		<tag k="ssr:type" v="gard" />
	</node>
	<node changeset="57982147" id="4480764659" lat="58.5416673" lon="7.8138685" timestamp="2018-04-10T18:52:05Z" uid="3497659" user="NKA" version="2">
		<tag k="fixme" v="check position" />
		<tag k="historic" v="ruins" />
		<tag k="name" v="Lisleøygard" />
		<tag k="place" v="locality" />
		<tag k="ssr:stedsnr" v="882208" />
		<tag k="ssr:type" v="gammelBosettingsplass" />
	</node>
	<node changeset="57982147" id="4480764660" lat="58.5822054" lon="7.8570334" timestamp="2018-04-10T18:52:05Z" uid="3497659" user="NKA" version="2">
		<tag k="name" v="Lund" />
		<tag k="place" v="farm" />
		<tag k="ssr:stedsnr" v="850722" />
		<tag k="ssr:type" v="bruk" />
	</node>
	<node changeset="57982147" id="4480764661" lat="58.6403074" lon="7.7786212" timestamp="2018-04-10T18:52:05Z" uid="3497659" user="NKA" version="2">
		<tag k="name" v="Lunden" />
		<tag k="place" v="farm" />
		<tag k="ssr:stedsnr" v="396275" />
		<tag k="ssr:type" v="bruk" />
	</node>
	<node changeset="57982147" id="4480764662" lat="58.6377075" lon="7.7765168" timestamp="2018-04-10T18:52:05Z" uid="3497659" user="NKA" version="2">
		<tag k="name" v="Lunderekra" />
		<tag k="place" v="farm" />
		<tag k="ssr:stedsnr" v="457290" />
		<tag k="ssr:type" v="bruk" />
	</node>
	<node changeset="57982147" id="4480764663" lat="58.5264491" lon="7.5671938" timestamp="2018-04-10T18:52:05Z" uid="3497659" user="NKA" version="2">
		<tag k="alt_name" v="Matkroni" />
		<tag k="name" v="Matkrona" />
		<tag k="place" v="farm" />
		<tag k="ssr:stedsnr" v="607987" />
		<tag k="ssr:type" v="bruk" />
	</node>
	<node changeset="58497758" id="4480764664" lat="58.679922" lon="7.7287276" timestamp="2018-04-28T08:07:10Z" uid="3497659" user="NKA" version="3">
		<tag k="building" v="cabin" />
		<tag k="historic" v="shieling" />
		<tag k="name" v="Mjåvasstøl" />
		<tag k="place" v="isolated_dwelling" />
		<tag k="ssr:stedsnr" v="517272" />
		<tag k="ssr:type" v="seterStøl" />
	</node>
	<node changeset="57982147" id="4480764665" lat="58.5026298" lon="7.7749105" timestamp="2018-04-10T18:52:05Z" uid="3497659" user="NKA" version="2">
		<tag k="name" v="Moisund" />
		<tag k="place" v="farm" />
		<tag k="ssr:stedsnr" v="850444" />
		<tag k="ssr:type" v="bruk" />
	</node>
	<node changeset="57982147" id="4480764666" lat="58.6050147" lon="7.8304297" timestamp="2018-04-10T18:52:05Z" uid="3497659" user="NKA" version="2">
		<tag k="name" v="Monen" />
		<tag k="place" v="farm" />
		<tag k="ssr:stedsnr" v="335298" />
		<tag k="ssr:type" v="bruk" />
	</node>
	<node changeset="57982147" id="4480764667" lat="58.6396733" lon="7.7794641" timestamp="2018-04-10T18:52:06Z" uid="3497659" user="NKA" version="2">
		<tag k="name" v="Moseid" />
		<tag k="place" v="hamlet" />
		<tag k="ssr:stedsnr" v="426483" />
		<tag k="ssr:type" v="gard" />
	</node>
	<node changeset="57982147" id="4480764668" lat="58.4906182" lon="7.6883203" timestamp="2018-04-10T18:52:06Z" uid="3497659" user="NKA" version="2">
		<tag k="building" v="cabin" />
		<tag k="name" v="Mossebu" />
		<tag k="place" v="isolated_dwelling" />
		<tag k="ssr:stedsnr" v="457815" />
		<tag k="ssr:type" v="fritidsbolig" />
	</node>
	<node changeset="57982147" id="4480764669" lat="58.6151471" lon="7.8061723" timestamp="2018-04-10T18:52:06Z" uid="3497659" user="NKA" version="2">
		<tag k="name" v="Myrane" />
		<tag k="place" v="farm" />
		<tag k="ssr:stedsnr" v="517226" />
		<tag k="ssr:type" v="eneboligMindreBoligbygg" />
	</node>
	<node changeset="57982147" id="4480764670" lat="58.640002" lon="7.5810105" timestamp="2018-04-10T18:52:06Z" uid="3497659" user="NKA" version="2">
		<tag k="fixme" v="check position" />
		<tag k="historic" v="ruins" />
		<tag k="name" v="Myrbu" />
		<tag k="place" v="locality" />
		<tag k="ssr:stedsnr" v="93610" />
		<tag k="ssr:type" v="gammelBosettingsplass" />
	</node>
	<node changeset="57982147" id="4480764629" lat="58.5935883" lon="7.8065185" timestamp="2018-04-10T18:52:01Z" uid="3497659" user="NKA" version="2">
		<tag k="name" v="Jåmyr" />
		<tag k="place" v="farm" />
		<tag k="ssr:stedsnr" v="639364" />
		<tag k="ssr:type" v="bruk" />
	</node>
	<node changeset="57982147" id="4480764672" lat="58.5173256" lon="7.7661996" timestamp="2018-04-10T18:52:06Z" uid="3497659" user="NKA" version="2">
		<tag k="alt_name" v="Hannås nedre" />
		<tag k="name" v="Nedre Hannås" />
		<tag k="place" v="farm" />
		<tag k="ssr:stedsnr" v="729426" />
		<tag k="ssr:type" v="bruk" />
	</node>
	<node changeset="57982147" id="4480764673" lat="58.5136958" lon="7.8558056" timestamp="2018-04-10T18:52:06Z" uid="3497659" user="NKA" version="2">
		<tag k="alt_name" v="Li nedre;Li" />
		<tag k="name" v="Nedre Li" />
		<tag k="place" v="farm" />
		<tag k="ssr:stedsnr" v="607417" />
		<tag k="ssr:type" v="bruk" />
	</node>
	<node changeset="57982147" id="4480764674" lat="58.645747" lon="7.8675033" timestamp="2018-04-10T18:52:06Z" uid="3497659" user="NKA" version="2">
		<tag k="alt_name" v="Nedre Øygarden" />
		<tag k="building" v="cabin" />
		<tag k="name" v="Nedreøygard" />
		<tag k="place" v="isolated_dwelling" />
		<tag k="ssr:stedsnr" v="426496" />
		<tag k="ssr:type" v="fritidsbolig" />
	</node>
	<node changeset="57982147" id="4480764675" lat="58.5442914" lon="7.7597989" timestamp="2018-04-10T18:52:07Z" uid="3497659" user="NKA" version="2">
		<tag k="name" v="Neregarden" />
		<tag k="place" v="farm" />
		<tag k="ssr:stedsnr" v="518214" />
		<tag k="ssr:type" v="bruk" />
	</node>
	<node changeset="57982147" id="4480764676" lat="58.6095628" lon="7.8768809" timestamp="2018-04-10T18:52:07Z" uid="3497659" user="NKA" version="2">
		<tag k="name" v="Nordbø" />
		<tag k="place" v="hamlet" />
		<tag k="ssr:stedsnr" v="243541" />
		<tag k="ssr:type" v="bruk" />
	</node>
	<node changeset="57982147" id="4480764677" lat="58.6212951" lon="7.9167395" timestamp="2018-04-10T18:52:07Z" uid="3497659" user="NKA" version="2">
		<tag k="historic" v="ruins" />
		<tag k="name" v="Nordbøøygarden" />
		<tag k="place" v="locality" />
		<tag k="ssr:stedsnr" v="426527" />
		<tag k="ssr:type" v="fritidsbolig" />
	</node>
	<node changeset="57982147" id="4480764678" lat="58.4965531" lon="7.7157935" timestamp="2018-04-10T18:52:07Z" uid="3497659" user="NKA" version="2">
		<tag k="name" v="Nordheim" />
		<tag k="place" v="farm" />
		<tag k="ssr:stedsnr" v="761784" />
		<tag k="ssr:type" v="bruk" />
	</node>
	<node changeset="57982147" id="4480764679" lat="58.5385338" lon="7.6729256" timestamp="2018-04-10T18:52:07Z" uid="3497659" user="NKA" version="2">
		<tag k="alt_name" v="Nygard" />
		<tag k="name" v="Nygård" />
		<tag k="place" v="farm" />
		<tag k="ssr:stedsnr" v="426974" />
		<tag k="ssr:type" v="bruk" />
	</node>
	<node changeset="57982147" id="4480764680" lat="58.5966518" lon="7.8461197" timestamp="2018-04-10T18:52:07Z" uid="3497659" user="NKA" version="2">
		<tag k="name" v="Odde" />
		<tag k="place" v="farm" />
		<tag k="ssr:stedsnr" v="486710" />
		<tag k="ssr:type" v="bruk" />
	</node>
	<node changeset="57982147" id="4480764681" lat="58.593683" lon="7.842481" timestamp="2018-04-10T18:52:07Z" uid="3497659" user="NKA" version="2">
		<tag k="name" v="Oddehagen" />
		<tag k="place" v="farm" />
		<tag k="ssr:stedsnr" v="335387" />
		<tag k="ssr:type" v="bruk" />
	</node>
	<node changeset="57982147" id="4480764682" lat="58.6322126" lon="7.5520989" timestamp="2018-04-10T18:52:07Z" uid="3497659" user="NKA" version="2">
		<tag k="fixme" v="check position" />
		<tag k="historic" v="ruins" />
		<tag k="name" v="Olav Hansons øygard" />
		<tag k="place" v="locality" />
		<tag k="ssr:stedsnr" v="578662" />
		<tag k="ssr:type" v="gammelBosettingsplass" />
	</node>
	<node changeset="57982147" id="4480764683" lat="58.5491594" lon="7.7401551" timestamp="2018-04-10T18:52:08Z" uid="3497659" user="NKA" version="2">
		<tag k="building" v="cabin" />
		<tag k="name" v="Ommundsplass" />
		<tag k="place" v="isolated_dwelling" />
		<tag k="ssr:stedsnr" v="638178" />
		<tag k="ssr:type" v="gammelBosettingsplass" />
	</node>
	<node changeset="57982147" id="4480764684" lat="58.6393578" lon="7.7764691" timestamp="2018-04-10T18:52:08Z" uid="3497659" user="NKA" version="2">
		<tag k="name" v="Ospelunden" />
		<tag k="place" v="farm" />
		<tag k="ssr:stedsnr" v="457289" />
		<tag k="ssr:type" v="bruk" />
	</node>
	<node changeset="57982147" id="4480764685" lat="58.6597097" lon="7.7540607" timestamp="2018-04-10T18:52:08Z" uid="3497659" user="NKA" version="2">
		<tag k="building" v="cabin" />
		<tag k="name" v="Otrahytta" />
		<tag k="place" v="isolated_dwelling" />
		<tag k="ssr:stedsnr" v="850586" />
		<tag k="ssr:type" v="fritidsbolig" />
	</node>
	<node changeset="57982147" id="4480764686" lat="58.6139614" lon="7.8874972" timestamp="2018-04-10T18:52:08Z" uid="3497659" user="NKA" version="2">
		<tag k="fixme" v="check position" />
		<tag k="historic" v="ruins" />
		<tag k="name" v="Persplass" />
		<tag k="place" v="locality" />
		<tag k="ssr:stedsnr" v="335551" />
		<tag k="ssr:type" v="gammelBosettingsplass" />
	</node>
	<node changeset="57982147" id="4480764687" lat="58.5560688" lon="7.8437085" timestamp="2018-04-10T18:52:08Z" uid="3497659" user="NKA" version="2">
		<tag k="fixme" v="check position" />
		<tag k="historic" v="ruins" />
		<tag k="name" v="Plassen" />
		<tag k="place" v="locality" />
		<tag k="ssr:stedsnr" v="93368" />
		<tag k="ssr:type" v="gammelBosettingsplass" />
	</node>
	<node changeset="57982147" id="4480764688" lat="58.5800282" lon="7.8434619" timestamp="2018-04-10T18:52:08Z" uid="3497659" user="NKA" version="2">
		<tag k="name" v="Plassen" />
		<tag k="place" v="isolated_dwelling" />
		<tag k="ssr:stedsnr" v="214401" />
		<tag k="ssr:type" v="gammelBosettingsplass" />
	</node>
	<node changeset="57982147" id="4480764377" lat="58.6010128" lon="7.6427362" timestamp="2018-04-10T18:51:56Z" uid="3497659" user="NKA" version="2">
		<tag k="alt_name" v="Engin" />
		<tag k="name" v="Engen" />
		<tag k="place" v="farm" />
		<tag k="ssr:stedsnr" v="182850" />
		<tag k="ssr:type" v="bruk" />
	</node>
	<node changeset="57982147" id="4480764378" lat="58.4902983" lon="7.7028676" timestamp="2018-04-10T18:51:56Z" uid="3497659" user="NKA" version="2">
		<tag k="name" v="Espetveit" />
		<tag k="place" v="farm" />
		<tag k="ssr:stedsnr" v="182588" />
		<tag k="ssr:type" v="bruk" />
	</node>
	<node changeset="57982147" id="4480764635" lat="58.5659406" lon="7.8603506" timestamp="2018-04-10T18:52:02Z" uid="3497659" user="NKA" version="2">
		<tag k="name" v="Kleggetveit" />
		<tag k="place" v="farm" />
		<tag k="ssr:stedsnr" v="244678" />
		<tag k="ssr:type" v="bruk" />
	</node>
	<node changeset="57982147" id="4480764380" lat="58.60036" lon="7.8337014" timestamp="2018-04-10T18:51:56Z" uid="3497659" user="NKA" version="2">
		<tag k="name" v="Evje prestegard" />
		<tag k="place" v="farm" />
		<tag k="ssr:stedsnr" v="154422" />
		<tag k="ssr:type" v="bruk" />
	</node>
	<node changeset="57982147" id="4480764359" lat="58.5915767" lon="7.799924" timestamp="2018-04-10T18:51:54Z" uid="3497659" user="NKA" version="2">
		<tag k="name" v="Bakken" />
		<tag k="place" v="farm" />
		<tag k="ssr:stedsnr" v="457315" />
		<tag k="ssr:type" v="bruk" />
	</node>
	<node changeset="57982147" id="4480764637" lat="58.6142211" lon="7.9558182" timestamp="2018-04-10T18:52:02Z" uid="3497659" user="NKA" version="2">
		<tag k="name" v="Kleppsland" />
		<tag k="place" v="farm" />
		<tag k="ssr:stedsnr" v="850539" />
		<tag k="ssr:type" v="bruk" />
	</node>
	<node changeset="57982147" id="4480764382" lat="58.5598783" lon="7.7708466" timestamp="2018-04-10T18:51:56Z" uid="3497659" user="NKA" version="2">
		<tag k="name" v="Faret" />
		<tag k="place" v="farm" />
		<tag k="ssr:stedsnr" v="911669" />
		<tag k="ssr:type" v="bruk" />
	</node>
	<node changeset="56035354" id="5383646521" lat="58.5991914" lon="7.8312065" timestamp="2018-02-03T17:48:50Z" uid="2114448" user="FredrikLindseth_import" version="1" />
	<node changeset="56035354" id="5383646522" lat="58.5992783" lon="7.8308502" timestamp="2018-02-03T17:48:50Z" uid="2114448" user="FredrikLindseth_import" version="1" />
	<node changeset="56035354" id="5383646523" lat="58.5992782" lon="7.8308266" timestamp="2018-02-03T17:48:50Z" uid="2114448" user="FredrikLindseth_import" version="1" />
	<node changeset="57982147" id="4480765130" lat="58.5780559" lon="7.9912288" timestamp="2018-04-10T18:52:18Z" uid="3497659" user="NKA" version="2">
		<tag k="fixme" v="check position" />
		<tag k="historic" v="ruins" />
		<tag k="name" v="Øygarden" />
		<tag k="place" v="locality" />
		<tag k="ssr:stedsnr" v="93580" />
		<tag k="ssr:type" v="gammelBosettingsplass" />
	</node>
	<node changeset="56035354" id="5383646525" lat="58.5992454" lon="7.8308494" timestamp="2018-02-03T17:48:50Z" uid="2114448" user="FredrikLindseth_import" version="1" />
	<node changeset="57982147" id="4480764384" lat="58.5985678" lon="7.7343143" timestamp="2018-04-10T18:51:56Z" uid="3497659" user="NKA" version="2">
		<tag k="name" v="Fennefossøygard" />
		<tag k="place" v="locality" />
		<tag k="ssr:stedsnr" v="154219" />
		<tag k="ssr:type" v="gammelBosettingsplass" />
	</node>
	<node changeset="57982147" id="4480764385" lat="58.604881" lon="7.8756831" timestamp="2018-04-10T18:51:56Z" uid="3497659" user="NKA" version="2">
		<tag k="alt_name" v="Flåt" />
		<tag k="name" v="Flot" />
		<tag k="place" v="farm" />
		<tag k="ssr:stedsnr" v="911737" />
		<tag k="ssr:type" v="bruk" />
	</node>
	<node changeset="57982147" id="4463977289" lat="58.6159647" lon="8.0992638" timestamp="2018-04-10T18:47:34Z" uid="3497659" user="NKA" version="2">
		<tag k="fixme" v="check position" />
		<tag k="historic" v="ruins" />
		<tag k="name" v="Kvittjørnøygarden" />
		<tag k="place" v="locality" />
		<tag k="ssr:stedsnr" v="122367" />
		<tag k="ssr:type" v="gammelBosettingsplass" />
	</node>
	<node changeset="57982147" id="4480764642" lat="58.6210542" lon="7.6774775" timestamp="2018-04-10T18:52:03Z" uid="3497659" user="NKA" version="2">
		<tag k="alt_name" v="Kroni" />
		<tag k="building" v="cabin" />
		<tag k="name" v="Krona" />
		<tag k="place" v="isolated_dwelling" />
		<tag k="ssr:stedsnr" v="833" />
		<tag k="ssr:type" v="fritidsbolig" />
	</node>
	<node changeset="67725273" id="5383646435" lat="58.5591641" lon="7.7733119" timestamp="2019-03-02T22:47:33Z" uid="32112" user="SverigeFan" version="2" />
	<node changeset="58497758" id="4480764891" lat="58.6390118" lon="7.9871732" timestamp="2018-04-28T08:07:10Z" uid="3497659" user="NKA" version="3">
		<tag k="historic" v="shieling" />
		<tag k="name" v="Raudstøl" />
		<tag k="place" v="farm" />
		<tag k="ssr:stedsnr" v="1561" />
		<tag k="ssr:type" v="gard" />
	</node>
	<node changeset="57982147" id="4463977302" lat="58.5843727" lon="8.0832698" timestamp="2018-04-10T18:47:35Z" uid="3497659" user="NKA" version="2">
		<tag k="alt_name" v="Lisletveit" />
		<tag k="name" v="Lilletveit" />
		<tag k="place" v="farm" />
		<tag k="ssr:stedsnr" v="486741" />
		<tag k="ssr:type" v="bruk" />
	</node>
	<node changeset="57982147" id="4463977305" lat="58.5864267" lon="8.0681071" timestamp="2018-04-10T18:47:36Z" uid="3497659" user="NKA" version="2">
		<tag k="name" v="Ljosland" />
		<tag k="place" v="farm" />
		<tag k="ssr:stedsnr" v="61714" />
		<tag k="ssr:type" v="bruk" />
	</node>
	<node changeset="67725273" id="5383646437" lat="58.559191" lon="7.7735602" timestamp="2019-03-02T22:47:33Z" uid="32112" user="SverigeFan" version="2" />
	<node changeset="67725273" id="6313236324" lat="58.5592416" lon="7.7731689" timestamp="2019-03-02T22:47:31Z" uid="32112" user="SverigeFan" version="1" />
	<node changeset="67725273" id="5383646438" lat="58.559194" lon="7.7735607" timestamp="2019-03-02T22:47:33Z" uid="32112" user="SverigeFan" version="2" />
	<node changeset="56035354" id="5383646524" lat="58.5992453" lon="7.8308272" timestamp="2018-02-03T17:48:50Z" uid="2114448" user="FredrikLindseth_import" version="1" />
	<node changeset="57982147" id="4463977322" lat="58.5820655" lon="8.0478523" timestamp="2018-04-10T18:47:37Z" uid="3497659" user="NKA" version="2">
		<tag k="name" v="Myklebostad" />
		<tag k="place" v="farm" />
		<tag k="ssr:stedsnr" v="304764" />
		<tag k="ssr:type" v="bruk" />
	</node>
	<node changeset="67725273" id="5383646439" lat="58.5591918" lon="7.7736191" timestamp="2019-03-02T22:47:33Z" uid="32112" user="SverigeFan" version="2" />
	<node changeset="58497758" id="4480764387" lat="58.6547078" lon="7.7141395" timestamp="2018-04-28T08:07:09Z" uid="3497659" user="NKA" version="3">
		<tag k="historic" v="shieling" />
		<tag k="name" v="Furestøl" />
		<tag k="place" v="locality" />
		<tag k="ssr:stedsnr" v="396076" />
		<tag k="ssr:type" v="seterStøl" />
	</node>
	<node changeset="67725273" id="5383646440" lat="58.5592416" lon="7.7736257" timestamp="2019-03-02T22:47:33Z" uid="32112" user="SverigeFan" version="2" />
	<node changeset="67725273" id="5383646441" lat="58.5592437" lon="7.7735676" timestamp="2019-03-02T22:47:33Z" uid="32112" user="SverigeFan" version="2" />
	<node changeset="57982147" id="4463977340" lat="58.585483" lon="8.0581817" timestamp="2018-04-10T18:47:39Z" uid="3497659" user="NKA" version="2">
		<tag k="alt_name" v="Nygard" />
		<tag k="name" v="Nygård" />
		<tag k="place" v="farm" />
		<tag k="ssr:stedsnr" v="729769" />
		<tag k="ssr:type" v="bruk" />
	</node>
	<node changeset="67725273" id="5383646442" lat="58.5592539" lon="7.773569" timestamp="2019-03-02T22:47:33Z" uid="32112" user="SverigeFan" version="2" />
	<node changeset="57982147" id="4480764619" lat="58.5538998" lon="7.771412" timestamp="2018-04-10T18:52:00Z" uid="3497659" user="NKA" version="2">
		<tag k="name" v="Hornnes" />
		<tag k="place" v="village" />
		<tag k="ssr:stedsnr" v="183648" />
		<tag k="ssr:type" v="bygdelagBygd" />
	</node>
	<node changeset="57982147" id="4480765125" lat="58.6039279" lon="7.8837838" timestamp="2018-04-10T18:52:17Z" uid="3497659" user="NKA" version="2">
		<tag k="alt_name" v="Austerhus" />
		<tag k="name" v="Østerhus" />
		<tag k="place" v="farm" />
		<tag k="ssr:stedsnr" v="425732" />
		<tag k="ssr:type" v="bruk" />
	</node>
	<node changeset="67725273" id="5383646443" lat="58.5592949" lon="7.7733297" timestamp="2019-03-02T22:47:33Z" uid="32112" user="SverigeFan" version="2" />
	<node changeset="67725273" id="5383646444" lat="58.5592633" lon="7.7732239" timestamp="2019-03-02T22:47:33Z" uid="32112" user="SverigeFan" version="2" />
	<node changeset="58497758" id="4480764906" lat="58.5719355" lon="7.8275135" timestamp="2018-04-28T08:07:10Z" uid="3497659" user="NKA" version="3">
		<tag k="historic" v="shieling" />
		<tag k="name" v="Skaret" />
		<tag k="place" v="locality" />
		<tag k="ssr:stedsnr" v="578304" />
		<tag k="ssr:type" v="seterStøl" />
	</node>
	<node changeset="67725273" id="5383646445" lat="58.5592576" lon="7.7732229" timestamp="2019-03-02T22:47:33Z" uid="32112" user="SverigeFan" version="2" />
	<node changeset="67725273" id="5383646446" lat="58.55926" lon="7.7731723" timestamp="2019-03-02T22:47:33Z" uid="32112" user="SverigeFan" version="2" />
	<node changeset="67725273" id="5383646447" lat="58.5592123" lon="7.7731636" timestamp="2019-03-02T22:47:33Z" uid="32112" user="SverigeFan" version="2" />
	<node changeset="57982147" id="1471137695" lat="58.5033608" lon="7.770294" timestamp="2018-04-10T18:40:04Z" uid="3497659" user="NKA" version="4">
		<tag k="name" v="Moi" />
		<tag k="place" v="village" />
		<tag k="ssr:stedsnr" v="486449" />
		<tag k="ssr:type" v="bygdelagBygd" />
	</node>
	<node changeset="67725273" id="5383646448" lat="58.5592099" lon="7.7732141" timestamp="2019-03-02T22:47:33Z" uid="32112" user="SverigeFan" version="2" />
	<node changeset="56035354" id="4480765092" lat="58.5993031" lon="7.8313494" timestamp="2018-02-03T17:50:06Z" uid="2114448" user="FredrikLindseth_import" version="2" />
	<node changeset="57982147" id="1471137702" lat="58.5448331" lon="7.7555001" timestamp="2018-04-10T18:40:04Z" uid="3497659" user="NKA" version="3">
		<tag k="name" v="Kjetså" />
		<tag k="place" v="hamlet" />
		<tag k="ssr:stedsnr" v="789684" />
		<tag k="ssr:type" v="bruk" />
	</node>
	<node changeset="57982147" id="748450731" lat="58.5645946" lon="7.7817478" timestamp="2018-04-10T18:40:01Z" uid="3497659" user="NKA" version="3">
		<tag k="name" v="Evjemoen" />
		<tag k="place" v="neighbourhood" />
		<tag k="ssr:stedsnr" v="365655" />
		<tag k="ssr:type" v="militærtByggAnlegg" />
	</node>
	<node changeset="67725273" id="5383646436" lat="58.5591587" lon="7.7734519" timestamp="2019-03-02T22:47:33Z" uid="32112" user="SverigeFan" version="2" />
	<node changeset="57982147" id="2580479930" lat="58.4728216" lon="7.6056893" timestamp="2018-04-10T18:40:07Z" uid="3497659" user="NKA" version="3">
		<tag k="name" v="Abusland" />
		<tag k="place" v="hamlet" />
		<tag k="ssr:stedsnr" v="364593" />
		<tag k="ssr:type" v="bruk" />
	</node>
	<node changeset="56035354" id="4480765087" lat="58.5992229" lon="7.8313872" timestamp="2018-02-03T17:50:06Z" uid="2114448" user="FredrikLindseth_import" version="2" />
	<node changeset="57982147" id="2580479932" lat="58.5129801" lon="7.7054202" timestamp="2018-04-10T18:40:08Z" uid="3497659" user="NKA" version="3">
		<tag k="alt_name" v="Fjelestad" />
		<tag k="name" v="Fjælestad" />
		<tag k="place" v="farm" />
		<tag k="ssr:stedsnr" v="668891" />
		<tag k="ssr:type" v="bruk" />
	</node>
	<node changeset="56035354" id="4480765093" lat="58.5993033" lon="7.8313859" timestamp="2018-02-03T17:50:06Z" uid="2114448" user="FredrikLindseth_import" version="2" />
	<node changeset="57982147" id="4480764356" lat="58.4863433" lon="7.6084464" timestamp="2018-04-10T18:51:53Z" uid="3497659" user="NKA" version="2">
		<tag k="name" v="Abusdal" />
		<tag k="place" v="hamlet" />
		<tag k="ssr:stedsnr" v="364596" />
		<tag k="ssr:type" v="bruk" />
	</node>
	<node changeset="57982147" id="4480764357" lat="58.6332458" lon="7.9436182" timestamp="2018-04-10T18:51:53Z" uid="3497659" user="NKA" version="2">
		<tag k="building" v="cabin" />
		<tag k="name" v="Austerhusøygarden" />
		<tag k="place" v="isolated_dwelling" />
		<tag k="ssr:stedsnr" v="365550" />
		<tag k="ssr:type" v="fritidsbolig" />
	</node>
	<node changeset="57982147" id="4480764358" lat="58.4884026" lon="7.7195309" timestamp="2018-04-10T18:51:53Z" uid="3497659" user="NKA" version="2">
		<tag k="name" v="Bakkane" />
		<tag k="place" v="locality" />
		<tag k="ssr:stedsnr" v="425196" />
		<tag k="ssr:type" v="eneboligMindreBoligbygg" />
	</node>
	<node changeset="56035354" id="4480765089" lat="58.5992359" lon="7.8309363" timestamp="2018-02-03T17:50:06Z" uid="2114448" user="FredrikLindseth_import" version="2" />
	<node changeset="57982147" id="4480764360" lat="58.6016055" lon="7.8390614" timestamp="2018-04-10T18:51:54Z" uid="3497659" user="NKA" version="2">
		<tag k="name" v="Bakken" />
		<tag k="place" v="farm" />
		<tag k="ssr:stedsnr" v="93333" />
		<tag k="ssr:type" v="bruk" />
	</node>
	<node changeset="57982147" id="4480764361" lat="58.6435089" lon="7.7844422" timestamp="2018-04-10T18:51:54Z" uid="3497659" user="NKA" version="2">
		<tag k="name" v="Bakken" />
		<tag k="place" v="farm" />
		<tag k="ssr:stedsnr" v="882318" />
		<tag k="ssr:type" v="bruk" />
	</node>
	<node changeset="57982147" id="4480764362" lat="58.6158887" lon="7.7378993" timestamp="2018-04-10T18:51:54Z" uid="3497659" user="NKA" version="2">
		<tag k="fixme" v="check position" />
		<tag k="historic" v="ruins" />
		<tag k="name" v="Bakkeøygard" />
		<tag k="place" v="locality" />
		<tag k="ssr:stedsnr" v="154368" />
		<tag k="ssr:type" v="gammelBosettingsplass" />
	</node>
	<node changeset="57982147" id="4480764363" lat="58.5946492" lon="7.799659" timestamp="2018-04-10T18:51:54Z" uid="3497659" user="NKA" version="2">
		<tag k="name" v="Birkeland" />
		<tag k="place" v="hamlet" />
		<tag k="ssr:stedsnr" v="486713" />
		<tag k="ssr:type" v="bruk" />
	</node>
	<node changeset="57982147" id="4480764616" lat="58.6671823" lon="7.7139571" timestamp="2018-04-10T18:52:00Z" uid="3497659" user="NKA" version="2">
		<tag k="name" v="Holtøygard" />
		<tag k="place" v="locality" />
		<tag k="ssr:stedsnr" v="578096" />
		<tag k="ssr:type" v="gammelBosettingsplass" />
	</node>
	<node changeset="57982147" id="4480764365" lat="58.5589781" lon="7.7634452" timestamp="2018-04-10T18:51:54Z" uid="3497659" user="NKA" version="2">
		<tag k="name" v="Birketveit" />
		<tag k="place" v="farm" />
		<tag k="ssr:stedsnr" v="275168" />
		<tag k="ssr:type" v="bruk" />
	</node>
	<node changeset="57982147" id="4480764366" lat="58.579971" lon="7.8949015" timestamp="2018-04-10T18:51:54Z" uid="3497659" user="NKA" version="2">
		<tag k="name" v="Bjorland" />
		<tag k="place" v="farm" />
		<tag k="ssr:stedsnr" v="61725" />
		<tag k="ssr:type" v="fritidsbolig" />
	</node>
	<node changeset="57982147" id="4480764367" lat="58.550646" lon="7.807087" timestamp="2018-04-10T18:51:54Z" uid="3497659" user="NKA" version="2">
		<tag k="name" v="Bjorå" />
		<tag k="place" v="hamlet" />
		<tag k="ssr:stedsnr" v="304641" />
		<tag k="ssr:type" v="bruk" />
	</node>
	<node changeset="57982147" id="4480764368" lat="58.5321585" lon="7.8137212" timestamp="2018-04-10T18:51:55Z" uid="3497659" user="NKA" version="2">
		<tag k="fixme" v="check position" />
		<tag k="historic" v="ruins" />
		<tag k="name" v="Bjorøygard" />
		<tag k="place" v="locality" />
		<tag k="ssr:stedsnr" v="518149" />
		<tag k="ssr:type" v="gammelBosettingsplass" />
	</node>
	<node changeset="57982147" id="4480764369" lat="58.5694735" lon="7.8317237" timestamp="2018-04-10T18:51:55Z" uid="3497659" user="NKA" version="2">
		<tag k="name" v="Bjørkevollen" />
		<tag k="place" v="farm" />
		<tag k="ssr:stedsnr" v="822368" />
		<tag k="ssr:type" v="bruk" />
	</node>
	<node changeset="58497758" id="4480764370" lat="58.532033" lon="7.7005212" timestamp="2018-04-28T08:07:09Z" uid="3497659" user="NKA" version="3">
		<tag k="historic" v="shieling" />
		<tag k="name" v="Breistøl" />
		<tag k="place" v="locality" />
		<tag k="ssr:stedsnr" v="943895" />
		<tag k="ssr:type" v="seterStøl" />
	</node>
	<node changeset="57982147" id="4480764371" lat="58.5481589" lon="7.7551451" timestamp="2018-04-10T18:51:55Z" uid="3497659" user="NKA" version="2">
		<tag k="name" v="Breistøl" />
		<tag k="place" v="farm" />
		<tag k="ssr:stedsnr" v="396174" />
		<tag k="ssr:type" v="bruk" />
	</node>
	<node changeset="57982147" id="4480764372" lat="58.5507274" lon="7.7375044" timestamp="2018-04-10T18:51:55Z" uid="3497659" user="NKA" version="2">
		<tag k="name" v="Bærkjåsen" />
		<tag k="place" v="farm" />
		<tag k="ssr:stedsnr" v="639224" />
		<tag k="ssr:type" v="bruk" />
	</node>
	<node changeset="57982147" id="4480764373" lat="58.6381273" lon="7.8212341" timestamp="2018-04-10T18:51:55Z" uid="3497659" user="NKA" version="2">
		<tag k="name" v="Dalebakk" />
		<tag k="place" v="farm" />
		<tag k="ssr:stedsnr" v="457344" />
		<tag k="ssr:type" v="bruk" />
	</node>
	<node changeset="57982147" id="4480764374" lat="58.5655148" lon="7.7704752" timestamp="2018-04-10T18:51:55Z" uid="3497659" user="NKA" version="2">
		<tag k="name" v="Dåsnes" />
		<tag k="place" v="village" />
		<tag k="ssr:stedsnr" v="729741" />
		<tag k="ssr:type" v="tettsted" />
	</node>
	<node changeset="57982147" id="4480764375" lat="58.5704273" lon="7.764896" timestamp="2018-04-10T18:51:55Z" uid="3497659" user="NKA" version="2">
		<tag k="alt_name" v="Dåsnesmonen" />
		<tag k="name" v="Dåsnesmoen" />
		<tag k="place" v="neighbourhood" />
		<tag k="ssr:stedsnr" v="813017" />
		<tag k="ssr:type" v="boligfelt" />
	</node>
	<node changeset="58497758" id="4480764376" lat="58.6207702" lon="7.9244809" timestamp="2018-04-28T08:07:09Z" uid="3497659" user="NKA" version="3">
		<tag k="building" v="cabin" />
		<tag k="historic" v="shieling" />
		<tag k="name" v="Døløygard" />
		<tag k="place" v="isolated_dwelling" />
		<tag k="ssr:stedsnr" v="942475" />
		<tag k="ssr:type" v="seterStøl" />
	</node>
	<node changeset="57982147" id="4480764889" lat="58.6086382" lon="7.8872476" timestamp="2018-04-10T18:52:08Z" uid="3497659" user="NKA" version="2">
		<tag k="building" v="cabin" />
		<tag k="name" v="Plassen" />
		<tag k="place" v="isolated_dwelling" />
		<tag k="ssr:stedsnr" v="821501" />
		<tag k="ssr:type" v="gammelBosettingsplass" />
	</node>
	<node changeset="57982147" id="4480764890" lat="58.6091655" lon="7.9555927" timestamp="2018-04-10T18:52:08Z" uid="3497659" user="NKA" version="2">
		<tag k="alt_name" v="Prestøygarden" />
		<tag k="name" v="Prestøygard" />
		<tag k="place" v="farm" />
		<tag k="ssr:stedsnr" v="668546" />
		<tag k="ssr:type" v="bruk" />
	</node>
	<node changeset="56035354" id="4480764379" lat="58.5993331" lon="7.8311993" timestamp="2018-02-03T17:50:05Z" uid="2114448" user="FredrikLindseth_import" version="2" />
	<node changeset="58497758" id="4480764892" lat="58.6332669" lon="7.9420685" timestamp="2018-04-28T08:07:10Z" uid="3497659" user="NKA" version="3">
		<tag k="building" v="cabin" />
		<tag k="historic" v="shieling" />
		<tag k="name" v="Reidal" />
		<tag k="place" v="isolated_dwelling" />
		<tag k="ssr:stedsnr" v="638512" />
		<tag k="ssr:type" v="seterStøl" />
	</node>
	<node changeset="57982147" id="4480764893" lat="58.471525" lon="7.7894644" timestamp="2018-04-10T18:52:09Z" uid="3497659" user="NKA" version="2">
		<tag k="name" v="Reiet" />
		<tag k="place" v="farm" />
		<tag k="ssr:stedsnr" v="942004" />
		<tag k="ssr:type" v="bruk" />
	</node>
	<node changeset="57982147" id="4480764894" lat="58.5709247" lon="7.835563" timestamp="2018-04-10T18:52:09Z" uid="3497659" user="NKA" version="2">
		<tag k="name" v="Rosseland" />
		<tag k="place" v="farm" />
		<tag k="ssr:stedsnr" v="486734" />
		<tag k="ssr:type" v="bruk" />
	</node>
	<node changeset="57982147" id="4480764895" lat="58.6496236" lon="7.6198558" timestamp="2018-04-10T18:52:09Z" uid="3497659" user="NKA" version="2">
		<tag k="name" v="Rota" />
		<tag k="place" v="farm" />
		<tag k="ssr:stedsnr" v="364191" />
		<tag k="ssr:type" v="bruk" />
	</node>
	<node changeset="57982147" id="4480764896" lat="58.6068949" lon="7.6958419" timestamp="2018-04-10T18:52:09Z" uid="3497659" user="NKA" version="2">
		<tag k="building" v="cabin" />
		<tag k="name" v="Rysebu" />
		<tag k="place" v="isolated_dwelling" />
		<tag k="ssr:stedsnr" v="396931" />
		<tag k="ssr:type" v="fritidsbolig" />
	</node>
	<node changeset="57982147" id="4480764897" lat="58.582504" lon="7.8908751" timestamp="2018-04-10T18:52:09Z" uid="3497659" user="NKA" version="2">
		<tag k="fixme" v="check position" />
		<tag k="historic" v="ruins" />
		<tag k="name" v="Rønningen" />
		<tag k="place" v="locality" />
		<tag k="ssr:stedsnr" v="882366" />
		<tag k="ssr:type" v="gammelBosettingsplass" />
	</node>
	<node changeset="57982147" id="4480764898" lat="58.5843846" lon="7.9190912" timestamp="2018-04-10T18:52:09Z" uid="3497659" user="NKA" version="2">
		<tag k="fixme" v="check position" />
		<tag k="historic" v="ruins" />
		<tag k="name" v="Rønningen" />
		<tag k="place" v="locality" />
		<tag k="ssr:stedsnr" v="396385" />
		<tag k="ssr:type" v="gammelBosettingsplass" />
	</node>
	<node changeset="57982147" id="4480764899" lat="58.6487189" lon="7.8689454" timestamp="2018-04-10T18:52:09Z" uid="3497659" user="NKA" version="2">
		<tag k="building" v="cabin" />
		<tag k="name" v="Røynås" />
		<tag k="place" v="isolated_dwelling" />
		<tag k="ssr:stedsnr" v="668523" />
		<tag k="ssr:type" v="fritidsbolig" />
	</node>
	<node changeset="57982147" id="4480764900" lat="58.6021467" lon="7.8920167" timestamp="2018-04-10T18:52:10Z" uid="3497659" user="NKA" version="2">
		<tag k="fixme" v="check position" />
		<tag k="historic" v="ruins" />
		<tag k="name" v="Sandane" />
		<tag k="place" v="locality" />
		<tag k="ssr:stedsnr" v="760430" />
		<tag k="ssr:type" v="gammelBosettingsplass" />
	</node>
	<node changeset="57982147" id="4480764901" lat="58.6500753" lon="7.905506" timestamp="2018-04-10T18:52:10Z" uid="3497659" user="NKA" version="2">
		<tag k="building" v="cabin" />
		<tag k="name" v="Selland" />
		<tag k="place" v="isolated_dwelling" />
		<tag k="ssr:stedsnr" v="243519" />
		<tag k="ssr:type" v="fritidsbolig" />
	</node>
	<node changeset="57982147" id="4480764902" lat="58.6609506" lon="7.7971273" timestamp="2018-04-10T18:52:10Z" uid="3497659" user="NKA" version="2">
		<tag k="name" v="Sennummoen" />
		<tag k="place" v="hamlet" />
		<tag k="ssr:stedsnr" v="183577" />
		<tag k="ssr:type" v="eneboligMindreBoligbygg" />
	</node>
	<node changeset="57982147" id="4480764903" lat="58.6676661" lon="7.7853981" timestamp="2018-04-10T18:52:10Z" uid="3497659" user="NKA" version="2">
		<tag k="name" v="Senum" />
		<tag k="place" v="hamlet" />
		<tag k="ssr:stedsnr" v="425586" />
		<tag k="ssr:type" v="bruk" />
	</node>
	<node changeset="57982147" id="4480764904" lat="58.7259457" lon="7.6543154" timestamp="2018-04-10T18:52:10Z" uid="3497659" user="NKA" version="2">
		<tag k="fixme" v="check position" />
		<tag k="historic" v="ruins" />
		<tag k="name" v="Sindrebu" />
		<tag k="place" v="locality" />
		<tag k="ssr:stedsnr" v="336109" />
		<tag k="ssr:type" v="fritidsbolig" />
	</node>
	<node changeset="57982147" id="4480764905" lat="58.5909564" lon="7.8246194" timestamp="2018-04-10T18:52:10Z" uid="3497659" user="NKA" version="2">
		<tag k="name" v="Sindremoen" />
		<tag k="place" v="neighbourhood" />
		<tag k="ssr:stedsnr" v="578155" />
		<tag k="ssr:type" v="bruk" />
	</node>
	<node changeset="57982147" id="4480764617" lat="58.4718526" lon="7.7841921" timestamp="2018-04-10T18:52:00Z" uid="3497659" user="NKA" version="2">
		<tag k="name" v="Horne sag" />
		<tag k="place" v="locality" />
		<tag k="ssr:stedsnr" v="93006" />
		<tag k="ssr:type" v="industriområde" />
	</node>
	<node changeset="57982147" id="4480764907" lat="58.5638688" lon="7.8643765" timestamp="2018-04-10T18:52:10Z" uid="3497659" user="NKA" version="2">
		<tag k="name" v="Skjeggestad" />
		<tag k="place" v="farm" />
		<tag k="ssr:stedsnr" v="153618" />
		<tag k="ssr:type" v="bruk" />
	</node>
	<node changeset="57982147" id="4480764908" lat="58.4888892" lon="7.7780509" timestamp="2018-04-10T18:52:11Z" uid="3497659" user="NKA" version="2">
		<tag k="alt_name" v="Slettefit" />
		<tag k="name" v="Slettefet" />
		<tag k="place" v="farm" />
		<tag k="ssr:stedsnr" v="910210" />
		<tag k="ssr:type" v="bruk" />
	</node>
	<node changeset="57982147" id="4480764909" lat="58.5828282" lon="7.9535777" timestamp="2018-04-10T18:52:11Z" uid="3497659" user="NKA" version="2">
		<tag k="alt_name" v="Slettin" />
		<tag k="name" v="Sletten" />
		<tag k="place" v="farm" />
		<tag k="ssr:stedsnr" v="243759" />
		<tag k="ssr:type" v="bruk" />
	</node>
	<node changeset="57982147" id="4480764910" lat="58.613111" lon="7.8080859" timestamp="2018-04-10T18:52:11Z" uid="3497659" user="NKA" version="2">
		<tag k="name" v="Sole" />
		<tag k="place" v="farm" />
		<tag k="ssr:stedsnr" v="425523" />
		<tag k="ssr:type" v="bruk" />
	</node>
	<node changeset="57982147" id="4480764911" lat="58.5717292" lon="7.7612136" timestamp="2018-04-10T18:52:11Z" uid="3497659" user="NKA" version="2">
		<tag k="name" v="Solheim" />
		<tag k="place" v="farm" />
		<tag k="ssr:stedsnr" v="638812" />
		<tag k="ssr:type" v="bruk" />
	</node>
	<node changeset="57982147" id="4480764912" lat="58.5792276" lon="7.8425218" timestamp="2018-04-10T18:52:11Z" uid="3497659" user="NKA" version="2">
		<tag k="name" v="Solli" />
		<tag k="place" v="farm" />
		<tag k="ssr:stedsnr" v="517395" />
		<tag k="ssr:type" v="bruk" />
	</node>
	<node changeset="57982147" id="4480764913" lat="58.595026" lon="7.6880065" timestamp="2018-04-10T18:52:11Z" uid="3497659" user="NKA" version="2">
		<tag k="fixme" v="check position" />
		<tag k="historic" v="ruins" />
		<tag k="name" v="Soltonplassen" />
		<tag k="place" v="locality" />
		<tag k="ssr:stedsnr" v="639897" />
		<tag k="ssr:type" v="gammelBosettingsplass" />
	</node>
	<node changeset="57982147" id="4480764914" lat="58.5023313" lon="7.7648617" timestamp="2018-04-10T18:52:11Z" uid="3497659" user="NKA" version="2">
		<tag k="fixme" v="check position" />
		<tag k="historic" v="ruins" />
		<tag k="name" v="Stakkegården" />
		<tag k="place" v="locality" />
		<tag k="ssr:stedsnr" v="578033" />
		<tag k="ssr:type" v="gammelBosettingsplass" />
	</node>
	<node changeset="57982147" id="4480764915" lat="58.648825" lon="7.8013265" timestamp="2018-04-10T18:52:11Z" uid="3497659" user="NKA" version="2">
		<tag k="alt_name" v="Stean" />
		<tag k="name" v="Steane" />
		<tag k="place" v="farm" />
		<tag k="ssr:stedsnr" v="911520" />
		<tag k="ssr:type" v="bruk" />
	</node>
	<node changeset="57982147" id="4480764916" lat="58.5769931" lon="7.8169303" timestamp="2018-04-10T18:52:11Z" uid="3497659" user="NKA" version="2">
		<tag k="fixme" v="check position" />
		<tag k="historic" v="ruins" />
		<tag k="name" v="Steinsfjellplassen" />
		<tag k="place" v="locality" />
		<tag k="ssr:stedsnr" v="943342" />
		<tag k="ssr:type" v="gammelBosettingsplass" />
	</node>
	<node changeset="57982147" id="4480764917" lat="58.5037488" lon="7.5306963" timestamp="2018-04-10T18:52:12Z" uid="3497659" user="NKA" version="2">
		<tag k="name" v="Steinsland" />
		<tag k="place" v="farm" />
		<tag k="ssr:stedsnr" v="61891" />
		<tag k="ssr:type" v="bruk" />
	</node>
	<node changeset="57982147" id="4480764918" lat="58.5048037" lon="7.8217912" timestamp="2018-04-10T18:52:12Z" uid="3497659" user="NKA" version="2">
		<tag k="name" v="Stien" />
		<tag k="place" v="farm" />
		<tag k="ssr:stedsnr" v="401" />
		<tag k="ssr:type" v="eneboligMindreBoligbygg" />
	</node>
	<node changeset="57982147" id="4480764919" lat="58.6009037" lon="7.954634" timestamp="2018-04-10T18:52:12Z" uid="3497659" user="NKA" version="2">
		<tag k="alt_name" v="Storøygarden" />
		<tag k="building" v="cabin" />
		<tag k="name" v="Storøygard" />
		<tag k="place" v="isolated_dwelling" />
		<tag k="ssr:stedsnr" v="546683" />
		<tag k="ssr:type" v="fritidsbolig" />
	</node>
	<node changeset="57982147" id="4480764920" lat="58.5204306" lon="7.7851225" timestamp="2018-04-10T18:52:12Z" uid="3497659" user="NKA" version="2">
		<tag k="name" v="Strauman" />
		<tag k="place" v="farm" />
		<tag k="ssr:stedsnr" v="911437" />
		<tag k="ssr:type" v="gard" />
	</node>
	<node changeset="58497758" id="4480764921" lat="58.4828325" lon="7.5696437" timestamp="2018-04-28T08:07:10Z" uid="3497659" user="NKA" version="3">
		<tag k="historic" v="shieling" />
		<tag k="name" v="Strånda" />
		<tag k="place" v="locality" />
		<tag k="ssr:stedsnr" v="518624" />
		<tag k="ssr:type" v="seterStøl" />
	</node>
	<node changeset="57982147" id="4480764922" lat="58.524374" lon="7.7806881" timestamp="2018-04-10T18:52:12Z" uid="3497659" user="NKA" version="2">
		<tag k="alt_name" v="Straumstad" />
		<tag k="name" v="Strømstad" />
		<tag k="place" v="farm" />
		<tag k="ssr:stedsnr" v="122651" />
		<tag k="ssr:type" v="bruk" />
	</node>
	<node changeset="57982147" id="4480764923" lat="58.6349887" lon="7.9893053" timestamp="2018-04-10T18:52:12Z" uid="3497659" user="NKA" version="2">
		<tag k="name" v="Stuverød" />
		<tag k="place" v="farm" />
		<tag k="ssr:stedsnr" v="517680" />
		<tag k="ssr:type" v="bruk" />
	</node>
	<node changeset="58497758" id="4480764924" lat="58.6047572" lon="7.9796772" timestamp="2018-04-28T08:07:10Z" uid="3497659" user="NKA" version="3">
		<tag k="historic" v="shieling" />
		<tag k="name" v="Styggedalen" />
		<tag k="place" v="locality" />
		<tag k="ssr:stedsnr" v="153883" />
		<tag k="ssr:type" v="seterStøl" />
	</node>
	<node changeset="57982147" id="4480764925" lat="58.5870809" lon="7.7100156" timestamp="2018-04-10T18:52:13Z" uid="3497659" user="NKA" version="2">
		<tag k="name" v="Støylen" />
		<tag k="place" v="hamlet" />
		<tag k="ssr:stedsnr" v="485705" />
		<tag k="ssr:type" v="bruk" />
	</node>
	<node changeset="57982147" id="4480764926" lat="58.5928572" lon="7.9391573" timestamp="2018-04-10T18:52:13Z" uid="3497659" user="NKA" version="2">
		<tag k="fixme" v="check position" />
		<tag k="historic" v="ruins" />
		<tag k="name" v="Sukkestøl" />
		<tag k="place" v="locality" />
		<tag k="ssr:stedsnr" v="760425" />
		<tag k="ssr:type" v="gammelBosettingsplass" />
	</node>
	<node changeset="57982147" id="4480764927" lat="58.4908365" lon="7.726913" timestamp="2018-04-10T18:52:13Z" uid="3497659" user="NKA" version="2">
		<tag k="name" v="Sutestad" />
		<tag k="place" v="farm" />
		<tag k="ssr:stedsnr" v="667216" />
		<tag k="ssr:type" v="bruk" />
	</node>
	<way changeset="57983805" id="451248471" timestamp="2018-04-10T19:48:00Z" uid="3497659" user="NKA" version="3">
		<tag k="name" v="Hodneøya" />
		<tag k="place" v="islet" />
		<tag k="ssr:stedsnr" v="55171" />
		<tag k="ssr:type" v="bruk" />
		<nd ref="4480764978" />
		<nd ref="4480764977" />
		<nd ref="4480764972" />
		<nd ref="4480764968" />
		<nd ref="4480764966" />
		<nd ref="4480764963" />
		<nd ref="4480764961" />
		<nd ref="4480764958" />
		<nd ref="4480764956" />
		<nd ref="4480764953" />
		<nd ref="4480764955" />
		<nd ref="4480764954" />
		<nd ref="4480764957" />
		<nd ref="4480764959" />
		<nd ref="4480764960" />
		<nd ref="4480764962" />
		<nd ref="4480764964" />
		<nd ref="4480764967" />
		<nd ref="4480764965" />
		<nd ref="4480764969" />
		<nd ref="4480764970" />
		<nd ref="4480764971" />
		<nd ref="4480764973" />
		<nd ref="4480764974" />
		<nd ref="4480764976" />
		<nd ref="4480764975" />
		<nd ref="4480764978" />
	</way>
	<way changeset="67725273" id="558305430" timestamp="2019-03-02T22:47:38Z" uid="32112" user="SverigeFan" version="4">
		<tag k="amenity" v="place_of_worship" />
		<tag k="architect" v="Askildsen/Halling." />
		<tag k="building" v="church" />
		<tag k="capacity" v="300" />
		<tag k="deanery" v="Otredal" />
		<tag k="denomination" v="lutheran" />
		<tag k="diocese" v="Agder og Telemark" />
		<tag k="image" v="https://www.kirkebyggdatabasen.no/KBDBweb/getPublicImage.aspx?vedleggId=90144232-B46B-41C0-8C43-3E5B4B18E853" />
		<tag k="name" v="Hornnes kyrkje" />
		<tag k="operator" v="Evje og Hornnes sokneråd" />
		<tag k="parish" v="Evje og Hornnes" />
		<tag k="religion" v="christian" />
		<tag k="ssr:stedsnr" v="882167" />
		<tag k="ssr:type" v="kirke" />
		<tag k="start_date" v="1828" />
		<tag k="wikidata" v="Q6529221" />
		<nd ref="5383646448" />
		<nd ref="5383646447" />
		<nd ref="6313236324" />
		<nd ref="5383646446" />
		<nd ref="5383646445" />
		<nd ref="5383646444" />
		<nd ref="5383646443" />
		<nd ref="4480764618" />
		<nd ref="5383646442" />
		<nd ref="5383646441" />
		<nd ref="5383646440" />
		<nd ref="5383646439" />
		<nd ref="5383646438" />
		<nd ref="5383646437" />
		<nd ref="5383646436" />
		<nd ref="5383646435" />
		<nd ref="5383646434" />
		<nd ref="5383646448" />
	</way>
	<way changeset="57983805" id="451248487" timestamp="2018-04-10T19:48:00Z" uid="3497659" user="NKA" version="4">
		<tag k="amenity" v="place_of_worship" />
		<tag k="architect" v="bm Ludvig Karlsen" />
		<tag k="building" v="church" />
		<tag k="capacity" v="400" />
		<tag k="deanery" v="Otredal" />
		<tag k="denomination" v="lutheran" />
		<tag k="diocese" v="Agder og Telemark" />
		<tag k="hearing_aids" v="yes" />
		<tag k="image" v="https://www.kirkebyggdatabasen.no/KBDBweb/getPublicImage.aspx?vedleggId=597AD831-7EE7-4CBB-8659-AC90C31977FB" />
		<tag k="name" v="Evje kyrkje" />
		<tag k="note" v="Soknekirke" />
		<tag k="operator" v="Evje og Hornnes sokneråd" />
		<tag k="parish" v="Evje og Hornnes" />
		<tag k="religion" v="christian" />
		<tag k="ssr:stedsnr" v="425716" />
		<tag k="ssr:type" v="kirke" />
		<tag k="start_date" v="1891" />
		<tag k="toilets" v="yes" />
		<tag k="wheelchair" v="yes" />
		<tag k="wikidata" v="Q11968218" />
		<nd ref="5383646525" />
		<nd ref="5383646524" />
		<nd ref="5383646523" />
		<nd ref="5383646522" />
		<nd ref="4480765090" />
		<nd ref="4480765091" />
		<nd ref="4480765094" />
		<nd ref="4480765095" />
		<nd ref="4480765096" />
		<nd ref="4480764379" />
		<nd ref="4480765097" />
		<nd ref="4480765092" />
		<nd ref="4480765093" />
		<nd ref="4480765087" />
		<nd ref="4480765086" />
		<nd ref="4480765083" />
		<nd ref="5383646521" />
		<nd ref="4480765082" />
		<nd ref="4480765085" />
		<nd ref="4480765084" />
		<nd ref="4480765089" />
		<nd ref="4480765088" />
		<nd ref="5383646525" />
	</way>
</osm>
