<?xml version="1.0" encoding="UTF-8"?>
<<<<<<< HEAD
<osm version="0.6" generator="osmapis">
	<node lat="58.58030555601034" lon="6.50375555447048" id="-12">
		<tag k="name" v="Holeklamp" />
		<tag k="place" v="locality" />
		<tag k="ssr:stedsnr" v="27105" />
	</node>
	<node lat="58.597455551036916" lon="6.565366661896978" id="-16">
		<tag k="name" v="Podlemyr" />
		<tag k="natural" v="wetland" />
		<tag k="ssr:stedsnr" v="27120" />
	</node>
	<node lat="58.58467500273478" lon="6.498747223586112" id="-17">
		<tag k="name" v="Kringlemo" />
		<tag k="place" v="locality" />
		<tag k="ssr:stedsnr" v="27127" />
	</node>
	<node lat="58.520647226337175" lon="6.368650007140722" id="-26">
		<tag k="name" v="Engjamyra" />
		<tag k="natural" v="wetland" />
		<tag k="ssr:stedsnr" v="27301" />
	</node>
	<node lat="58.54360833490883" lon="6.325363895917245" id="-43">
		<tag k="name" v="Sode" />
		<tag k="place" v="locality" />
		<tag k="ssr:stedsnr" v="27374" />
	</node>
	<node lat="58.50436111311241" lon="6.363200001325475" id="-56">
		<tag k="name" v="Myrane" />
		<tag k="natural" v="wetland" />
		<tag k="ssr:stedsnr" v="27603" />
	</node>
	<node lat="58.40444166439786" lon="6.536688883014323" id="-65">
		<tag k="name" v="Breiemyr" />
		<tag k="natural" v="wetland" />
		<tag k="ssr:stedsnr" v="27703" />
	</node>
	<node lat="58.456122223365696" lon="6.414038889395037" id="-66">
		<tag k="name" v="Stabstova" />
		<tag k="natural" v="stone" />
		<tag k="ssr:stedsnr" v="27704" />
	</node>
	<node lat="58.45376389275934" lon="6.590936113674162" id="-68">
		<tag k="name" v="Daumannsrøysa" />
		<tag k="natural" v="scree" />
		<tag k="ssr:stedsnr" v="28568" />
	</node>
	<node lat="58.479486112481695" lon="6.444105550111223" id="-80">
		<tag k="name" v="Feda" />
		<tag k="place" v="locality" />
		<tag k="ssr:stedsnr" v="61932" />
	</node>
	<node lat="58.494511108981506" lon="6.519880558934225" id="-111">
		<tag k="name" v="Sleten" />
		<tag k="place" v="locality" />
		<tag k="ssr:stedsnr" v="87412" />
	</node>
	<node lat="58.46898611109108" lon="6.54248611454155" id="-121">
		<tag k="name" v="Klområ" />
		<tag k="place" v="locality" />
		<tag k="ssr:stedsnr" v="88492" />
	</node>
	<node lat="58.349783329201536" lon="6.546994440006482" id="-131">
		<tag k="name" v="Langemyrane" />
		<tag k="natural" v="wetland" />
		<tag k="ssr:stedsnr" v="88673" />
	</node>
	<node lat="58.49156111045043" lon="6.299302769334599" id="-142">
		<tag k="name" v="Unna Dalen" />
		<tag k="place" v="locality" />
		<tag k="ssr:stedsnr" v="148104" />
	</node>
	<node lat="58.52787778193668" lon="6.363536105895236" id="-156">
		<tag k="landuse" v="meadow" />
		<tag k="name" v="Mjelkevollen" />
		<tag k="ssr:stedsnr" v="148313" />
	</node>
	<node lat="58.408333331774" lon="6.513097226532073" id="-164">
		<tag k="name" v="Badlonhomma" />
		<tag k="place" v="locality" />
		<tag k="ssr:stedsnr" v="148706" />
	</node>
	<node lat="58.44012777592926" lon="6.396024996786365" id="-172">
		<tag k="name" v="Småskogen" />
		<tag k="place" v="locality" />
		<tag k="ssr:stedsnr" v="148670" />
	</node>
	<node lat="58.323594444544725" lon="6.500458331858802" id="-176">
		<tag k="name" v="Mandalsmyra" />
		<tag k="natural" v="wetland" />
		<tag k="ssr:stedsnr" v="148813" />
	</node>
	<node lat="58.62188333555982" lon="6.510830548682698" id="-184">
		<tag k="alt_name" v="Fenmyrane" />
		<tag k="name" v="Fenemyrane" />
		<tag k="natural" v="wetland" />
		<tag k="ssr:stedsnr" v="182825" />
	</node>
	<node lat="58.43579166407585" lon="6.372519440188667" id="-197">
		<tag k="name" v="Trollkyrkja" />
		<tag k="natural" v="stone" />
		<tag k="ssr:stedsnr" v="209077" />
	</node>
	<node lat="58.49802777779612" lon="6.5663999977988095" id="-202">
		<tag k="name" v="Marsteinen" />
		<tag k="natural" v="stone" />
		<tag k="ssr:stedsnr" v="209225" />
	</node>
	<node lat="58.52514166428234" lon="6.324366661160775" id="-208">
		<tag k="name" v="Gasamyr" />
		<tag k="natural" v="wetland" />
		<tag k="ssr:stedsnr" v="209343" />
	</node>
	<node lat="58.48543055540596" lon="6.490972219521842" id="-213">
		<tag k="landuse" v="meadow" />
		<tag k="name" v="Slåten" />
		<tag k="ssr:stedsnr" v="209443" />
	</node>
	<node lat="58.491094440263424" lon="6.432975001440467" id="-218">
		<tag k="name" v="Stabsto" />
		<tag k="natural" v="stone" />
		<tag k="ssr:stedsnr" v="209631" />
	</node>
	<node lat="58.367683334872225" lon="6.564299996648819" id="-227">
		<tag k="name" v="Stygga Urå" />
		<tag k="natural" v="scree" />
		<tag k="ssr:stedsnr" v="209754" />
	</node>
	<node lat="58.46154722272685" lon="6.533586109044061" id="-242">
		<tag k="name" v="Hestesprang" />
		<tag k="place" v="locality" />
		<tag k="ssr:stedsnr" v="210581" />
	</node>
	<node lat="58.45312778159166" lon="6.5178722223872025" id="-243">
		<tag k="name" v="Flåtmyra" />
		<tag k="natural" v="wetland" />
		<tag k="ssr:stedsnr" v="210587" />
	</node>
	<node lat="58.51651388701804" lon="6.314058327783881" id="-244">
		<tag k="name" v="Slåttemyr" />
		<tag k="natural" v="wetland" />
		<tag k="ssr:stedsnr" v="269410" />
	</node>
	<node lat="58.45099166996839" lon="6.601052782607728" id="-262">
		<tag k="name" v="Sandsmarkmyra" />
		<tag k="natural" v="wetland" />
		<tag k="ssr:stedsnr" v="270457" />
	</node>
	<node lat="58.332324997588266" lon="6.498413885282541" id="-278">
		<tag k="name" v="Fenmyra" />
		<tag k="natural" v="wetland" />
		<tag k="ssr:stedsnr" v="270755" />
	</node>
	<node lat="58.55815833081885" lon="6.34842499957545" id="-283">
		<tag k="name" v="Gråur" />
		<tag k="natural" v="scree" />
		<tag k="ssr:stedsnr" v="451394" />
	</node>
	<node lat="58.52154167070664" lon="6.294699994286934" id="-286">
		<tag k="name" v="Vide Myran" />
		<tag k="natural" v="wetland" />
		<tag k="ssr:stedsnr" v="451357" />
	</node>
	<node lat="58.393513891981236" lon="6.574208331111576" id="-289">
		<tag k="name" v="Krokmyr" />
		<tag k="natural" v="wetland" />
		<tag k="ssr:stedsnr" v="452600" />
	</node>
	<node lat="58.53601944784316" lon="6.581072223502378" id="-312">
		<tag k="landuse" v="meadow" />
		<tag k="name" v="øvre Kjædla" />
		<tag k="ssr:stedsnr" v="452150" />
	</node>
	<node lat="58.55800833575711" lon="6.544977783383992" id="-314">
		<tag k="name" v="Syrtemyr" />
		<tag k="natural" v="wetland" />
		<tag k="ssr:stedsnr" v="452196" />
	</node>
	<node lat="58.43414999946496" lon="6.510027782762971" id="-319">
		<tag k="name" v="Storemyra" />
		<tag k="natural" v="wetland" />
		<tag k="ssr:stedsnr" v="452535" />
	</node>
	<node lat="58.512530555835696" lon="6.508352780016683" id="-342">
		<tag k="name" v="Kroken" />
		<tag k="place" v="locality" />
		<tag k="ssr:stedsnr" v="269238" />
	</node>
	<node lat="58.508133329179266" lon="6.538741658839324" id="-347">
		<tag k="name" v="Stølen" />
		<tag k="place" v="locality" />
		<tag k="ssr:stedsnr" v="269247" />
	</node>
	<node lat="58.548852782200925" lon="6.342488894536147" id="-353">
		<tag k="landuse" v="meadow" />
		<tag k="name" v="Monen" />
		<tag k="ssr:stedsnr" v="269327" />
	</node>
	<node lat="58.49495000354299" lon="6.2884138931905404" id="-363">
		<tag k="name" v="Slåttemyr" />
		<tag k="natural" v="wetland" />
		<tag k="ssr:stedsnr" v="270121" />
	</node>
	<node lat="58.467144444548325" lon="6.541391660622006" id="-370">
		<tag k="name" v="Årsvoll" />
		<tag k="place" v="locality" />
		<tag k="ssr:stedsnr" v="270573" />
	</node>
	<node lat="58.460274997642834" lon="6.523380557712428" id="-373">
		<tag k="name" v="Geitsti" />
		<tag k="place" v="locality" />
		<tag k="ssr:stedsnr" v="270582" />
	</node>
	<node lat="58.44240277387115" lon="6.554188881638807" id="-407">
		<tag k="name" v="Lundestranda" />
		<tag k="place" v="locality" />
		<tag k="ssr:stedsnr" v="330411" />
	</node>
	<node lat="58.5672888927067" lon="6.415391667388028" id="-413">
		<tag k="name" v="Lynghei" />
		<tag k="place" v="locality" />
		<tag k="ssr:stedsnr" v="330524" />
	</node>
	<node lat="58.360036109807616" lon="6.534855559410025" id="-416">
		<tag k="name" v="Slåtå" />
		<tag k="place" v="locality" />
		<tag k="ssr:stedsnr" v="330775" />
	</node>
	<node lat="58.617033331093644" lon="6.56727499830244" id="-448">
		<tag k="name" v="Tønnemyran" />
		<tag k="natural" v="wetland" />
		<tag k="ssr:stedsnr" v="390115" />
	</node>
	<node lat="58.49017222442722" lon="6.339908326342336" id="-458">
		<tag k="name" v="Storemyra" />
		<tag k="natural" v="wetland" />
		<tag k="ssr:stedsnr" v="391034" />
	</node>
	<node lat="58.46991388739042" lon="6.350572226052277" id="-461">
		<tag k="name" v="Klovsteinen" />
		<tag k="natural" v="stone" />
		<tag k="ssr:stedsnr" v="391187" />
	</node>
	<node lat="58.48166944113037" lon="6.531616667364877" id="-472">
		<tag k="name" v="Øygarden" />
		<tag k="place" v="locality" />
		<tag k="ssr:stedsnr" v="391433" />
	</node>
	<node lat="58.527833334700105" lon="6.574641661525442" id="-516">
		<tag k="name" v="Ormelimyra" />
		<tag k="natural" v="wetland" />
		<tag k="ssr:stedsnr" v="425960" />
	</node>
	<node lat="58.50654999964538" lon="6.295183332604066" id="-525">
		<tag k="name" v="Høyløsegene" />
		<tag k="place" v="locality" />
		<tag k="ssr:stedsnr" v="451417" />
	</node>
	<node lat="58.48765832955629" lon="6.488450001944942" id="-542">
		<tag k="name" v="Sværevarp" />
		<tag k="place" v="locality" />
		<tag k="ssr:stedsnr" v="452619" />
	</node>
	<node lat="58.5406805532301" lon="6.400394439579411" id="-572">
		<tag k="name" v="Kalvhagen" />
		<tag k="place" v="locality" />
		<tag k="ssr:stedsnr" v="512279" />
	</node>
	<node lat="58.53643333186269" lon="6.572958333207037" id="-574">
		<tag k="name" v="Sundmyr" />
		<tag k="natural" v="wetland" />
		<tag k="ssr:stedsnr" v="512172" />
	</node>
	<node lat="58.52478610694354" lon="6.355647215106042" id="-575">
		<tag k="landuse" v="meadow" />
		<tag k="name" v="Røde Hav" />
		<tag k="ssr:stedsnr" v="512302" />
	</node>
	<node lat="58.47119721978609" lon="6.291391664006231" id="-587">
		<tag k="name" v="Svartemyr" />
=======
<osm generator="osmapis" version="0.6">
	<node id="-16896" lat="58.4910944403" lon="6.43297500144">
		<tag k="name" v="Stabsto" />
		<tag k="natural" v="stone" />
		<tag k="ssr:stedsnr" v="209631" />
	</node>
	<node id="-15870" lat="58.5488527822" lon="6.34248889454">
		<tag k="landuse" v="meadow" />
		<tag k="name" v="Monen" />
		<tag k="ssr:stedsnr" v="269327" />
	</node>
	<node id="-16893" lat="58.4924666675" lon="6.42229722942">
		<tag k="name" v="Dugamyra" />
		<tag k="natural" v="wetland" />
		<tag k="ssr:stedsnr" v="209616" />
	</node>
	<node id="-15865" lat="58.516513887" lon="6.31405832778">
		<tag k="name" v="Slåttemyr" />
		<tag k="natural" v="wetland" />
		<tag k="ssr:stedsnr" v="269410" />
	</node>
	<node id="-17395" lat="58.5307194439" lon="6.59319445003">
		<tag k="name" v="Ramsliheia" />
		<tag k="place" v="locality" />
		<tag k="ssr:stedsnr" v="816181" />
	</node>
	<node id="-17394" lat="58.5270249969" lon="6.55127778343">
		<tag k="name" v="Skittfenmyra" />
		<tag k="natural" v="wetland" />
		<tag k="ssr:stedsnr" v="816177" />
	</node>
	<node id="-17391" lat="58.4906500013" lon="6.31733889547">
		<tag k="name" v="Kringlemyr" />
		<tag k="natural" v="wetland" />
		<tag k="ssr:stedsnr" v="816129" />
	</node>
	<node id="-15849" lat="58.393513892" lon="6.57420833111">
		<tag k="name" v="Krokmyr" />
		<tag k="natural" v="wetland" />
		<tag k="ssr:stedsnr" v="452600" />
	</node>
	<node id="-16872" lat="58.4357916641" lon="6.37251944019">
		<tag k="name" v="Trollkyrkja" />
		<tag k="natural" v="stone" />
		<tag k="ssr:stedsnr" v="209077" />
	</node>
	<node id="-16870" lat="58.4754888904" lon="6.32044166483">
		<tag k="name" v="Teramyr" />
		<tag k="natural" v="wetland" />
		<tag k="ssr:stedsnr" v="209069" />
	</node>
	<node id="-16868" lat="58.531091665" lon="6.31544999272">
		<tag k="name" v="Øksa" />
		<tag k="natural" v="stone" />
		<tag k="ssr:stedsnr" v="209350" />
	</node>
	<node id="-16867" lat="58.5251416643" lon="6.32436666116">
		<tag k="name" v="Gasamyr" />
		<tag k="natural" v="wetland" />
		<tag k="ssr:stedsnr" v="209343" />
	</node>
	<node id="-15841" lat="58.4341499995" lon="6.51002778276">
		<tag k="name" v="Storemyra" />
		<tag k="natural" v="wetland" />
		<tag k="ssr:stedsnr" v="452535" />
	</node>
	<node id="-15837" lat="58.4876583296" lon="6.48845000194">
		<tag k="name" v="Sværevarp" />
		<tag k="place" v="locality" />
		<tag k="ssr:stedsnr" v="452619" />
	</node>
	<node id="-16207" lat="58.408355553" lon="6.55170555716">
		<tag k="name" v="Hommå" />
		<tag k="place" v="locality" />
		<tag k="ssr:stedsnr" v="573545" />
	</node>
	<node id="-16337" lat="58.3574777783" lon="6.57632777456">
		<tag k="name" v="Surtemyr" />
		<tag k="natural" v="wetland" />
		<tag k="ssr:stedsnr" v="876720" />
	</node>
	<node id="-15822" lat="58.5580083358" lon="6.54497778338">
		<tag k="name" v="Syrtemyr" />
		<tag k="natural" v="wetland" />
		<tag k="ssr:stedsnr" v="452196" />
	</node>
	<node id="-17357" lat="58.471280556" lon="6.53585000224">
		<tag k="name" v="Nordmark" />
		<tag k="place" v="locality" />
		<tag k="ssr:stedsnr" v="756579" />
	</node>
	<node id="-16839" lat="58.6218833356" lon="6.51083054868">
		<tag k="alt_name" v="Fenmyrane" />
		<tag k="name" v="Fenemyrane" />
		<tag k="natural" v="wetland" />
		<tag k="ssr:stedsnr" v="182825" />
	</node>
	<node id="-15814" lat="58.5360194478" lon="6.5810722235">
		<tag k="landuse" v="meadow" />
		<tag k="name" v="øvre Kjædla" />
		<tag k="ssr:stedsnr" v="452150" />
	</node>
	<node id="-16319" lat="58.5165694421" lon="6.35402222966">
		<tag k="name" v="Blåmyr" />
		<tag k="natural" v="wetland" />
		<tag k="ssr:stedsnr" v="876572" />
	</node>
	<node id="-15806" lat="58.5581583308" lon="6.34842499958">
		<tag k="name" v="Gråur" />
		<tag k="natural" v="scree" />
		<tag k="ssr:stedsnr" v="451394" />
	</node>
	<node id="-17340" lat="58.5134194432" lon="6.36881111211">
		<tag k="name" v="Jordet" />
		<tag k="place" v="locality" />
		<tag k="ssr:stedsnr" v="755580" />
	</node>
	<node id="-16314" lat="58.5640305534" lon="6.47866388246">
		<tag k="name" v="Porsmyr" />
		<tag k="natural" v="wetland" />
		<tag k="ssr:stedsnr" v="876489" />
	</node>
	<node id="-17337" lat="58.4485249959" lon="6.51955555494">
		<tag k="name" v="Naudehelleren" />
		<tag k="natural" v="stone" />
		<tag k="ssr:stedsnr" v="755528" />
	</node>
	<node id="-15800" lat="58.5215416707" lon="6.29469999429">
		<tag k="name" v="Vide Myran" />
		<tag k="natural" v="wetland" />
		<tag k="ssr:stedsnr" v="451357" />
	</node>
	<node id="-16823" lat="58.3527305524" lon="6.52989166918">
		<tag k="name" v="Botnan" />
		<tag k="natural" v="wetland" />
		<tag k="ssr:stedsnr" v="148744" />
	</node>
	<node id="-16310" lat="58.4405611135" lon="6.59171666241">
		<tag k="name" v="Erskoland" />
		<tag k="place" v="locality" />
		<tag k="ssr:stedsnr" v="876386" />
	</node>
	<node id="-16305" lat="58.5537722234" lon="6.30855278478">
		<tag k="name" v="Jentemyr" />
		<tag k="natural" v="wetland" />
		<tag k="ssr:stedsnr" v="876352" />
	</node>
	<node id="-16303" lat="58.5461444461" lon="6.35543611565">
		<tag k="landuse" v="meadow" />
		<tag k="name" v="Kåsen" />
		<tag k="ssr:stedsnr" v="876318" />
	</node>
	<node id="-16814" lat="58.4614388932" lon="6.6003138828">
		<tag k="name" v="Nye stølen" />
		<tag k="place" v="locality" />
		<tag k="ssr:stedsnr" v="148441" />
	</node>
	<node id="-16300" lat="58.5327027761" lon="6.36394723039">
		<tag k="landuse" v="meadow" />
		<tag k="name" v="Bjønnsokfeta" />
		<tag k="ssr:stedsnr" v="876288" />
	</node>
	<node id="-16299" lat="58.5317166673" lon="6.34508333271">
		<tag k="name" v="Vasshusmyrane" />
		<tag k="natural" v="wetland" />
		<tag k="ssr:stedsnr" v="876287" />
	</node>
	<node id="-16807" lat="58.5278777819" lon="6.3635361059">
		<tag k="landuse" v="meadow" />
		<tag k="name" v="Mjelkevollen" />
		<tag k="ssr:stedsnr" v="148313" />
	</node>
	<node id="-17318" lat="58.4975472235" lon="6.29685555969">
		<tag k="name" v="Steinabakken" />
		<tag k="place" v="locality" />
		<tag k="ssr:stedsnr" v="755363" />
	</node>
	<node id="-17317" lat="58.5429472214" lon="6.31375277001">
		<tag k="landuse" v="meadow" />
		<tag k="name" v="Harebakken" />
		<tag k="ssr:stedsnr" v="755361" />
	</node>
	<node id="-15777" lat="58.4854305554" lon="6.49097221952">
		<tag k="landuse" v="meadow" />
		<tag k="name" v="Slåten" />
		<tag k="ssr:stedsnr" v="209443" />
	</node>
	<node id="-17312" lat="58.5203166688" lon="6.30624444966">
		<tag k="name" v="Grøna Segå" />
		<tag k="natural" v="wetland" />
		<tag k="ssr:stedsnr" v="755338" />
	</node>
	<node id="-17311" lat="58.5475611118" lon="6.35895277052">
		<tag k="name" v="Jodå" />
		<tag k="place" v="locality" />
		<tag k="ssr:stedsnr" v="755332" />
	</node>
	<node id="-16793" lat="58.4903527822" lon="6.35726388542">
		<tag k="name" v="Fede" />
		<tag k="place" v="locality" />
		<tag k="ssr:stedsnr" v="148097" />
	</node>
	<node id="-17303" lat="58.5466027765" lon="6.46329165973">
		<tag k="name" v="Grastødnan" />
		<tag k="place" v="locality" />
		<tag k="ssr:stedsnr" v="755262" />
	</node>
	<node id="-15769" lat="58.4943000039" lon="6.33151945242">
		<tag k="name" v="Jakobsmyra" />
		<tag k="natural" v="wetland" />
		<tag k="ssr:stedsnr" v="209027" />
	</node>
	<node id="-17292" lat="58.5762527818" lon="6.52033888117">
		<tag k="name" v="Kyrkja" />
		<tag k="place" v="locality" />
		<tag k="ssr:stedsnr" v="755123" />
	</node>
	<node id="-16312" lat="58.4938555568" lon="6.54131944341">
		<tag k="name" v="Stakkstongmyrene" />
		<tag k="natural" v="wetland" />
		<tag k="ssr:stedsnr" v="876400" />
	</node>
	<node id="-16262" lat="58.434083337" lon="6.53456944548">
		<tag k="name" v="Langemyrane" />
>>>>>>> e1d4bc35ff8a6074a6f2e91616a996b547c36f15
		<tag k="natural" v="wetland" />
		<tag k="ssr:stedsnr" v="634564" />
	</node>
<<<<<<< HEAD
	<node lat="58.46529999635732" lon="6.348724997728495" id="-589">
		<tag k="name" v="Reamyr" />
		<tag k="natural" v="wetland" />
		<tag k="ssr:stedsnr" v="513192" />
	</node>
	<node lat="58.42010833376524" lon="6.338347222587295" id="-590">
		<tag k="name" v="Tingbord" />
		<tag k="natural" v="stone" />
		<tag k="ssr:stedsnr" v="513276" />
	</node>
	<node lat="58.44852499590862" lon="6.51955555493915" id="-618">
		<tag k="name" v="Naudehelleren" />
		<tag k="natural" v="stone" />
		<tag k="ssr:stedsnr" v="755528" />
	</node>
	<node lat="58.57161944814349" lon="6.4971333307580785" id="-624">
		<tag k="name" v="Fløe" />
		<tag k="place" v="locality" />
		<tag k="ssr:stedsnr" v="572147" />
	</node>
	<node lat="58.4855611137206" lon="6.325333336550315" id="-626">
		<tag k="name" v="Pedsersmyra" />
		<tag k="natural" v="wetland" />
		<tag k="ssr:stedsnr" v="572157" />
	</node>
	<node lat="58.50898055209133" lon="6.359419438250808" id="-638">
		<tag k="name" v="Njedlastykket" />
		<tag k="place" v="locality" />
		<tag k="ssr:stedsnr" v="572553" />
	</node>
	<node lat="58.340733337567876" lon="6.5425444376486235" id="-640">
		<tag k="name" v="Øygardsmyra" />
		<tag k="natural" v="wetland" />
		<tag k="ssr:stedsnr" v="572796" />
	</node>
	<node lat="58.42232500029298" lon="6.318272214927177" id="-644">
		<tag k="name" v="Åsmyra" />
		<tag k="natural" v="wetland" />
		<tag k="ssr:stedsnr" v="573301" />
	</node>
	<node lat="58.40835555295422" lon="6.551705557158849" id="-654">
		<tag k="name" v="Hommå" />
		<tag k="place" v="locality" />
		<tag k="ssr:stedsnr" v="573545" />
	</node>
	<node lat="58.35289167068534" lon="6.563116663229255" id="-663">
		<tag k="name" v="Rygle" />
		<tag k="natural" v="wetland" />
		<tag k="ssr:stedsnr" v="573700" />
	</node>
	<node lat="58.54187500323121" lon="6.283941674671467" id="-669">
		<tag k="landuse" v="meadow" />
		<tag k="name" v="Tønneplassen" />
		<tag k="ssr:stedsnr" v="694329" />
	</node>
	<node lat="58.54115277724988" lon="6.28127778293854" id="-670">
		<tag k="landuse" v="meadow" />
		<tag k="name" v="Kjemslåtta" />
		<tag k="ssr:stedsnr" v="694332" />
	</node>
	<node lat="58.4657027760135" lon="6.6025138869754425" id="-680">
		<tag k="name" v="Ommundstølen" />
		<tag k="place" v="locality" />
		<tag k="ssr:stedsnr" v="694445" />
	</node>
	<node lat="58.46362222391933" lon="6.324949996439077" id="-694">
		<tag k="name" v="Longemyr" />
		<tag k="natural" v="wetland" />
		<tag k="ssr:stedsnr" v="695163" />
	</node>
	<node lat="58.47144444617918" lon="6.337349995520522" id="-696">
		<tag k="name" v="Myro" />
		<tag k="natural" v="wetland" />
		<tag k="ssr:stedsnr" v="695198" />
	</node>
	<node lat="58.441683332754295" lon="6.609697224140564" id="-701">
		<tag k="name" v="Litlebø" />
		<tag k="place" v="locality" />
		<tag k="ssr:stedsnr" v="695473" />
	</node>
	<node lat="58.48914444471785" lon="6.3583388914739185" id="-721">
		<tag k="name" v="Prestfede" />
		<tag k="place" v="locality" />
		<tag k="ssr:stedsnr" v="633129" />
	</node>
	<node lat="58.504825001196444" lon="6.318872227930474" id="-727">
		<tag k="name" v="Lassegrop" />
		<tag k="place" v="locality" />
		<tag k="ssr:stedsnr" v="633439" />
	</node>
	<node lat="58.478839056348605" lon="6.61032904699649" id="-728">
		<tag k="name" v="Måvrestølen" />
		<tag k="place" v="locality" />
		<tag k="ssr:stedsnr" v="633494" />
	</node>
	<node lat="58.45536944246926" lon="6.518263883938679" id="-744">
		<tag k="name" v="Klovsteinane" />
		<tag k="natural" v="stone" />
		<tag k="ssr:stedsnr" v="634606" />
	</node>
	<node lat="58.46346666310356" lon="6.549580556288564" id="-793">
		<tag k="name" v="Søyrå" />
		<tag k="natural" v="wetland" />
		<tag k="ssr:stedsnr" v="694509" />
	</node>
	<node lat="58.45163611486134" lon="6.589119437712725" id="-808">
		<tag k="name" v="Kleivamyra" />
		<tag k="natural" v="wetland" />
		<tag k="ssr:stedsnr" v="695436" />
	</node>
	<node lat="58.57625278181306" lon="6.520338881171508" id="-846">
		<tag k="name" v="Kyrkja" />
		<tag k="place" v="locality" />
		<tag k="ssr:stedsnr" v="755123" />
	</node>
	<node lat="58.546602776506404" lon="6.463291659728282" id="-848">
		<tag k="name" v="Grastødnan" />
		<tag k="place" v="locality" />
		<tag k="ssr:stedsnr" v="755262" />
	</node>
	<node lat="58.542947221400176" lon="6.313752770012297" id="-868">
		<tag k="landuse" v="meadow" />
		<tag k="name" v="Harebakken" />
		<tag k="ssr:stedsnr" v="755361" />
	</node>
	<node lat="58.49754722351928" lon="6.296855559693872" id="-869">
		<tag k="name" v="Steinabakken" />
		<tag k="place" v="locality" />
		<tag k="ssr:stedsnr" v="755363" />
	</node>
	<node lat="58.376969447957634" lon="6.53790278185446" id="-877">
		<tag k="name" v="Svegeli" />
		<tag k="natural" v="wetland" />
		<tag k="ssr:stedsnr" v="755765" />
	</node>
	<node lat="58.6125166687808" lon="6.5593472262773345" id="-906">
		<tag k="name" v="Kalvhagen" />
		<tag k="place" v="locality" />
		<tag k="ssr:stedsnr" v="816111" />
	</node>
	<node lat="58.49065000134525" lon="6.317338895470294" id="-910">
		<tag k="name" v="Kringlemyr" />
		<tag k="natural" v="wetland" />
		<tag k="ssr:stedsnr" v="816129" />
	</node>
	<node lat="58.543861115355064" lon="6.60730278127367" id="-924">
		<tag k="name" v="Trodlevassmyra" />
=======
	<node id="-17283" lat="58.4880194406" lon="6.32680555989">
		<tag k="name" v="Djupemyr" />
		<tag k="natural" v="wetland" />
		<tag k="ssr:stedsnr" v="755034" />
	</node>
	<node id="-17280" lat="58.4553694425" lon="6.51826388394">
		<tag k="name" v="Klovsteinane" />
		<tag k="natural" v="stone" />
		<tag k="ssr:stedsnr" v="634606" />
	</node>
	<node id="-16255" lat="58.3700833372" lon="6.58099443687">
		<tag k="name" v="Diblemyr" />
		<tag k="natural" v="wetland" />
		<tag k="ssr:stedsnr" v="633768" />
	</node>
	<node id="-16253" lat="58.3242888902" lon="6.51712777402">
		<tag k="name" v="Stordalsmyra" />
		<tag k="natural" v="wetland" />
		<tag k="ssr:stedsnr" v="633823" />
	</node>
	<node id="-15737" lat="58.3645555562" lon="6.55528333709">
		<tag k="name" v="Diblan" />
		<tag k="natural" v="wetland" />
		<tag k="ssr:stedsnr" v="148732" />
	</node>
	<node id="-15735" lat="58.4083333318" lon="6.51309722653">
		<tag k="name" v="Badlonhomma" />
		<tag k="place" v="locality" />
		<tag k="ssr:stedsnr" v="148706" />
	</node>
	<node id="-15734" lat="58.4401277759" lon="6.39602499679">
		<tag k="name" v="Småskogen" />
		<tag k="place" v="locality" />
		<tag k="ssr:stedsnr" v="148670" />
	</node>
	<node id="-16755" lat="58.3497833292" lon="6.54699444001">
		<tag k="name" v="Langemyrane" />
		<tag k="natural" v="wetland" />
		<tag k="ssr:stedsnr" v="88673" />
	</node>
	<node id="-16240" lat="58.5029333323" lon="6.5017472233">
		<tag k="name" v="Steinhagen" />
		<tag k="natural" v="scree" />
		<tag k="ssr:stedsnr" v="633255" />
	</node>
	<node id="-16237" lat="58.5936555569" lon="6.49306111868">
		<tag k="name" v="Brekkeslått" />
		<tag k="place" v="locality" />
		<tag k="ssr:stedsnr" v="633167" />
	</node>
	<node id="-15723" lat="58.4508583301" lon="6.60794722258">
		<tag k="name" v="Stølsmyra" />
		<tag k="natural" v="wetland" />
		<tag k="ssr:stedsnr" v="148468" />
	</node>
	<node id="-17258" lat="58.4788390563" lon="6.610329047">
		<tag k="name" v="Måvrestølen" />
		<tag k="place" v="locality" />
		<tag k="ssr:stedsnr" v="633494" />
	</node>
	<node id="-16742" lat="58.4803583359" lon="6.52521667377">
		<tag k="name" v="Haptemyra" />
		<tag k="natural" v="wetland" />
		<tag k="ssr:stedsnr" v="88351" />
	</node>
	<node id="-17253" lat="58.5341916708" lon="6.26843334106">
		<tag k="name" v="Hedlersknudmyra" />
		<tag k="natural" v="wetland" />
		<tag k="ssr:stedsnr" v="633441" />
	</node>
	<node id="-17252" lat="58.5048250012" lon="6.31887222793">
		<tag k="name" v="Lassegrop" />
		<tag k="place" v="locality" />
		<tag k="ssr:stedsnr" v="633439" />
	</node>
	<node id="-16396" lat="58.4636222239" lon="6.32494999644">
		<tag k="name" v="Longemyr" />
		<tag k="natural" v="wetland" />
		<tag k="ssr:stedsnr" v="695163" />
	</node>
	<node id="-17248" lat="58.4981472239" lon="6.49513888992">
		<tag k="name" v="Tonnesteinen" />
		<tag k="natural" v="stone" />
		<tag k="ssr:stedsnr" v="633247" />
	</node>
	<node id="-16805" lat="58.5588833322" lon="6.27539999921">
		<tag k="name" v="Gråur" />
		<tag k="natural" v="scree" />
		<tag k="ssr:stedsnr" v="148379" />
	</node>
	<node id="-17243" lat="58.4891444447" lon="6.35833889147">
		<tag k="name" v="Prestfede" />
		<tag k="place" v="locality" />
		<tag k="ssr:stedsnr" v="633129" />
	</node>
	<node id="-15706" lat="58.4915611105" lon="6.29930276933">
		<tag k="name" v="Unna Dalen" />
		<tag k="place" v="locality" />
		<tag k="ssr:stedsnr" v="148104" />
	</node>
	<node id="-16212" lat="58.3528916707" lon="6.56311666323">
		<tag k="name" v="Rygle" />
		<tag k="natural" v="wetland" />
		<tag k="ssr:stedsnr" v="573700" />
	</node>
	<node id="-15695" lat="58.4602749976" lon="6.52338055771">
		<tag k="name" v="Geitsti" />
		<tag k="place" v="locality" />
		<tag k="ssr:stedsnr" v="270582" />
	</node>
	<node id="-15692" lat="58.4671444445" lon="6.54139166062">
		<tag k="name" v="Årsvoll" />
		<tag k="place" v="locality" />
		<tag k="ssr:stedsnr" v="270573" />
	</node>
	<node id="-16439" lat="58.5878027768" lon="6.50123333904">
		<tag k="name" v="Indre Moen" />
		<tag k="place" v="locality" />
		<tag k="ssr:stedsnr" v="816155" />
	</node>
	<node id="-16712" lat="58.560152778" lon="6.49645277875">
		<tag k="name" v="Åseløa" />
		<tag k="place" v="locality" />
		<tag k="ssr:stedsnr" v="87196" />
	</node>
	<node id="-16463" lat="58.4663833298" lon="6.57745833013">
		<tag k="name" v="Langemyrane" />
>>>>>>> e1d4bc35ff8a6074a6f2e91616a996b547c36f15
		<tag k="natural" v="wetland" />
		<tag k="ssr:stedsnr" v="816481" />
	</node>
<<<<<<< HEAD
	<node lat="58.54614444610879" lon="6.355436115653984" id="-957">
		<tag k="landuse" v="meadow" />
		<tag k="name" v="Kåsen" />
		<tag k="ssr:stedsnr" v="876318" />
	</node>
	<node lat="58.55377222339325" lon="6.308552784779632" id="-958">
		<tag k="name" v="Jentemyr" />
		<tag k="natural" v="wetland" />
		<tag k="ssr:stedsnr" v="876352" />
	</node>
	<node lat="58.3574777783008" lon="6.576327774558707" id="-970">
		<tag k="name" v="Surtemyr" />
		<tag k="natural" v="wetland" />
		<tag k="ssr:stedsnr" v="876720" />
	</node>
	<node lat="58.39698888636483" lon="6.556283335753728" id="-1009">
		<tag k="name" v="Klovsteinen" />
		<tag k="natural" v="stone" />
		<tag k="ssr:stedsnr" v="937613" />
	</node>
	<node lat="58.47759166662675" lon="6.477724991953197" id="-1011">
		<tag k="name" v="Langemyrane" />
		<tag k="natural" v="wetland" />
		<tag k="ssr:stedsnr" v="937631" />
	</node>
	<node lat="58.42381110897898" lon="6.309922220427032" id="-1017">
		<tag k="name" v="Lemmelimyra" />
		<tag k="natural" v="wetland" />
		<tag k="ssr:stedsnr" v="938322" />
	</node>
	<node lat="58.463100002890066" lon="6.583002781813947" id="-1025">
		<tag k="name" v="Flotmyr" />
		<tag k="natural" v="wetland" />
		<tag k="ssr:stedsnr" v="938539" />
	</node>
	<node lat="58.30588333058692" lon="6.475641669293914" id="-1045">
		<tag k="name" v="Ytra Markjå" />
		<tag k="place" v="locality" />
		<tag k="ssr:stedsnr" v="27928" />
	</node>
	<node lat="58.44119166829379" lon="6.35155555773367" id="-1048">
		<tag k="name" v="Sellsteinen" />
		<tag k="natural" v="stone" />
		<tag k="ssr:stedsnr" v="27066" />
	</node>
	<node lat="58.458302775683784" lon="6.376527773598833" id="-1050">
		<tag k="name" v="Eikelandsslåttene" />
		<tag k="place" v="locality" />
		<tag k="ssr:stedsnr" v="27154" />
	</node>
	<node lat="58.406305554365645" lon="6.5752194461131985" id="-1068">
		<tag k="name" v="Mevegen" />
		<tag k="place" v="locality" />
		<tag k="ssr:stedsnr" v="27597" />
	</node>
	<node lat="58.45881388909365" lon="6.598177769908534" id="-1079">
		<tag k="name" v="Longemyr" />
		<tag k="natural" v="wetland" />
		<tag k="ssr:stedsnr" v="27558" />
	</node>
	<node lat="58.349480557246906" lon="6.491722226801964" id="-1082">
=======
	<node id="-16185" lat="58.4516361149" lon="6.58911943771">
		<tag k="name" v="Kleivamyra" />
		<tag k="natural" v="wetland" />
		<tag k="ssr:stedsnr" v="695436" />
	</node>
	<node id="-16948" lat="58.4507944417" lon="6.32894999585">
		<tag k="name" v="Botnen" />
		<tag k="place" v="locality" />
		<tag k="ssr:stedsnr" v="330096" />
	</node>
	<node id="-16182" lat="58.4714444462" lon="6.33734999552">
		<tag k="name" v="Myro" />
		<tag k="natural" v="wetland" />
		<tag k="ssr:stedsnr" v="695198" />
	</node>
	<node id="-15666" lat="58.5081333292" lon="6.53874165884">
		<tag k="name" v="Stølen" />
		<tag k="place" v="locality" />
		<tag k="ssr:stedsnr" v="269247" />
	</node>
	<node id="-16688" lat="58.4794861125" lon="6.44410555011">
		<tag k="name" v="Feda" />
		<tag k="place" v="locality" />
		<tag k="ssr:stedsnr" v="61932" />
	</node>
	<node id="-15661" lat="58.5125305558" lon="6.50835278002">
		<tag k="name" v="Kroken" />
		<tag k="place" v="locality" />
		<tag k="ssr:stedsnr" v="269238" />
	</node>
	<node id="-17194" lat="58.3407333376" lon="6.54254443765">
		<tag k="name" v="Øygardsmyra" />
		<tag k="natural" v="wetland" />
		<tag k="ssr:stedsnr" v="572796" />
	</node>
	<node id="-17188" lat="58.5023166703" lon="6.28954166149">
		<tag k="name" v="Ormebakkane" />
		<tag k="place" v="locality" />
		<tag k="ssr:stedsnr" v="572414" />
	</node>
	<node id="-16163" lat="58.465702776" lon="6.60251388698">
		<tag k="name" v="Ommundstølen" />
		<tag k="place" v="locality" />
		<tag k="ssr:stedsnr" v="694445" />
	</node>
	<node id="-17200" lat="58.4223250003" lon="6.31827221493">
		<tag k="name" v="Åsmyra" />
		<tag k="natural" v="wetland" />
		<tag k="ssr:stedsnr" v="573301" />
	</node>
	<node id="-16156" lat="58.5411527772" lon="6.28127778294">
		<tag k="landuse" v="meadow" />
		<tag k="name" v="Kjemslåtta" />
		<tag k="ssr:stedsnr" v="694332" />
	</node>
	<node id="-16155" lat="58.5418750032" lon="6.28394167467">
		<tag k="landuse" v="meadow" />
		<tag k="name" v="Tønneplassen" />
		<tag k="ssr:stedsnr" v="694329" />
	</node>
	<node id="-17177" lat="58.5415777765" lon="6.31909444434">
		<tag k="landuse" v="meadow" />
		<tag k="name" v="Jerbergbakken" />
		<tag k="ssr:stedsnr" v="572361" />
	</node>
	<node id="-16564" lat="58.4775916666" lon="6.47772499195">
		<tag k="name" v="Langemyrane" />
		<tag k="natural" v="wetland" />
		<tag k="ssr:stedsnr" v="937631" />
	</node>
	<node id="-17172" lat="58.5089805521" lon="6.35941943825">
		<tag k="name" v="Njedlastykket" />
		<tag k="place" v="locality" />
		<tag k="ssr:stedsnr" v="572553" />
	</node>
	<node id="-15635" lat="58.389502781" lon="6.5868333411">
		<tag k="name" v="Høljan" />
		<tag k="place" v="locality" />
		<tag k="ssr:stedsnr" v="88536" />
	</node>
	<node id="-16658" lat="58.3494805572" lon="6.4917222268">
>>>>>>> e1d4bc35ff8a6074a6f2e91616a996b547c36f15
		<tag k="name" v="Podledal" />
		<tag k="natural" v="wetland" />
		<tag k="ssr:stedsnr" v="27726" />
	</node>
<<<<<<< HEAD
	<node lat="58.55221666585029" lon="6.591430555983057" id="-1117">
=======
	<node id="-15627" lat="58.5522166659" lon="6.59143055598">
>>>>>>> e1d4bc35ff8a6074a6f2e91616a996b547c36f15
		<tag k="name" v="Steian" />
		<tag k="natural" v="wetland" />
		<tag k="ssr:stedsnr" v="87187" />
	</node>
<<<<<<< HEAD
	<node lat="58.56015277796438" lon="6.496452778746185" id="-1122">
		<tag k="name" v="Åseløa" />
		<tag k="place" v="locality" />
		<tag k="ssr:stedsnr" v="87196" />
	</node>
	<node lat="58.48035833587836" lon="6.525216673767608" id="-1145">
		<tag k="name" v="Haptemyra" />
		<tag k="natural" v="wetland" />
		<tag k="ssr:stedsnr" v="88351" />
	</node>
	<node lat="58.38950278095632" lon="6.586833341100053" id="-1155">
		<tag k="name" v="Høljan" />
		<tag k="place" v="locality" />
		<tag k="ssr:stedsnr" v="88536" />
	</node>
	<node lat="58.49035278216807" lon="6.357263885422258" id="-1194">
		<tag k="name" v="Fede" />
		<tag k="place" v="locality" />
		<tag k="ssr:stedsnr" v="148097" />
	</node>
	<node lat="58.55888333224105" lon="6.275399999208832" id="-1198">
		<tag k="name" v="Gråur" />
		<tag k="natural" v="scree" />
		<tag k="ssr:stedsnr" v="148379" />
	</node>
	<node lat="58.54618332945345" lon="6.345097219966671" id="-1203">
		<tag k="landuse" v="meadow" />
		<tag k="name" v="Kalvamonen" />
		<tag k="ssr:stedsnr" v="148346" />
	</node>
	<node lat="58.548883329586374" lon="6.354469438438897" id="-1204">
		<tag k="name" v="Jentebakken" />
		<tag k="place" v="locality" />
		<tag k="ssr:stedsnr" v="148348" />
	</node>
	<node lat="58.46143889316178" lon="6.6003138827998615" id="-1206">
		<tag k="name" v="Nye stølen" />
		<tag k="place" v="locality" />
		<tag k="ssr:stedsnr" v="148441" />
	</node>
	<node lat="58.45085833008908" lon="6.607947222581905" id="-1209">
		<tag k="name" v="Stølsmyra" />
		<tag k="natural" v="wetland" />
		<tag k="ssr:stedsnr" v="148468" />
	</node>
	<node lat="58.36455555618562" lon="6.555283337094072" id="-1210">
		<tag k="name" v="Diblan" />
		<tag k="natural" v="wetland" />
		<tag k="ssr:stedsnr" v="148732" />
	</node>
	<node lat="58.352730552368" lon="6.529891669184923" id="-1220">
		<tag k="name" v="Botnan" />
		<tag k="natural" v="wetland" />
		<tag k="ssr:stedsnr" v="148744" />
	</node>
	<node lat="58.34816667044245" lon="6.49758611609113" id="-1221">
		<tag k="name" v="Storemyr" />
		<tag k="natural" v="wetland" />
		<tag k="ssr:stedsnr" v="148748" />
	</node>
	<node lat="58.49430000386078" lon="6.331519452416023" id="-1247">
		<tag k="name" v="Jakobsmyra" />
		<tag k="natural" v="wetland" />
		<tag k="ssr:stedsnr" v="209027" />
	</node>
	<node lat="58.47548889035412" lon="6.320441664833768" id="-1260">
		<tag k="name" v="Teramyr" />
=======
	<node id="-16647" lat="58.4063055544" lon="6.57521944611">
		<tag k="name" v="Mevegen" />
		<tag k="place" v="locality" />
		<tag k="ssr:stedsnr" v="27597" />
	</node>
	<node id="-17157" lat="58.4855611137" lon="6.32533333655">
		<tag k="name" v="Pedsersmyra" />
		<tag k="natural" v="wetland" />
		<tag k="ssr:stedsnr" v="572157" />
	</node>
	<node id="-17155" lat="58.5716194481" lon="6.49713333076">
		<tag k="name" v="Fløe" />
		<tag k="place" v="locality" />
		<tag k="ssr:stedsnr" v="572147" />
	</node>
	<node id="-16640" lat="58.4588138891" lon="6.59817776991">
		<tag k="name" v="Longemyr" />
		<tag k="natural" v="wetland" />
		<tag k="ssr:stedsnr" v="27558" />
	</node>
	<node id="-16122" lat="58.5247861069" lon="6.35564721511">
		<tag k="landuse" v="meadow" />
		<tag k="name" v="Røde Hav" />
		<tag k="ssr:stedsnr" v="512302" />
	</node>
	<node id="-17279" lat="58.4640416662" lon="6.51721944918">
		<tag k="name" v="Stovesteinane" />
		<tag k="natural" v="stone" />
		<tag k="ssr:stedsnr" v="634602" />
	</node>
	<node id="-15604" lat="58.4537638928" lon="6.59093611367">
		<tag k="name" v="Daumannsrøysa" />
		<tag k="natural" v="scree" />
		<tag k="ssr:stedsnr" v="28568" />
	</node>
	<node id="-15603" lat="58.3058833306" lon="6.47564166929">
		<tag k="name" v="Ytra Markjå" />
		<tag k="place" v="locality" />
		<tag k="ssr:stedsnr" v="27928" />
	</node>
	<node id="-15600" lat="58.4561222234" lon="6.4140388894">
		<tag k="name" v="Stabstova" />
		<tag k="natural" v="stone" />
		<tag k="ssr:stedsnr" v="27704" />
	</node>
	<node id="-15599" lat="58.4044416644" lon="6.53668888301">
		<tag k="name" v="Breiemyr" />
		<tag k="natural" v="wetland" />
		<tag k="ssr:stedsnr" v="27703" />
	</node>
	<node id="-15741" lat="58.3235944445" lon="6.50045833186">
		<tag k="name" v="Mandalsmyra" />
		<tag k="natural" v="wetland" />
		<tag k="ssr:stedsnr" v="148813" />
	</node>
	<node id="-15593" lat="58.5043611131" lon="6.36320000133">
		<tag k="name" v="Myrane" />
		<tag k="natural" v="wetland" />
		<tag k="ssr:stedsnr" v="27603" />
	</node>
	<node id="-16611" lat="58.4583027757" lon="6.3765277736">
		<tag k="name" v="Eikelandsslåttene" />
		<tag k="place" v="locality" />
		<tag k="ssr:stedsnr" v="27154" />
	</node>
	<node id="-16933" lat="58.5415222264" lon="6.58388610668">
		<tag k="alt_name" v="Langelandsstøl" />
		<tag k="historic" v="shieling" />
		<tag k="name" v="Langelandsstølen" />
		<tag k="place" v="locality" />
		<tag k="ssr:stedsnr" v="304938" />
	</node>
	<node id="-16604" lat="58.4411916683" lon="6.35155555773">
		<tag k="name" v="Sellsteinen" />
		<tag k="natural" v="stone" />
		<tag k="ssr:stedsnr" v="27066" />
	</node>
	<node id="-17113" lat="58.5278333347" lon="6.57464166153">
		<tag k="name" v="Ormelimyra" />
		<tag k="natural" v="wetland" />
		<tag k="ssr:stedsnr" v="425960" />
	</node>
	<node id="-15576" lat="58.5206472263" lon="6.36865000714">
		<tag k="name" v="Engjamyra" />
		<tag k="natural" v="wetland" />
		<tag k="ssr:stedsnr" v="27301" />
	</node>
	<node id="-15574" lat="58.5846750027" lon="6.49874722359">
		<tag k="name" v="Kringlemo" />
		<tag k="place" v="locality" />
		<tag k="ssr:stedsnr" v="27127" />
	</node>
	<node id="-15573" lat="58.597455551" lon="6.5653666619">
		<tag k="name" v="Podlemyr" />
>>>>>>> e1d4bc35ff8a6074a6f2e91616a996b547c36f15
		<tag k="natural" v="wetland" />
		<tag k="ssr:stedsnr" v="27120" />
	</node>
<<<<<<< HEAD
	<node lat="58.52136110692184" lon="6.43324167070751" id="-1271">
		<tag k="name" v="Stongsmyran" />
		<tag k="natural" v="wetland" />
		<tag k="ssr:stedsnr" v="209253" />
	</node>
	<node lat="58.5310916650129" lon="6.315449992715478" id="-1276">
		<tag k="name" v="Øksa" />
=======
	<node id="-15569" lat="58.580305556" lon="6.50375555447">
		<tag k="name" v="Holeklamp" />
		<tag k="place" v="locality" />
		<tag k="ssr:stedsnr" v="27105" />
	</node>
	<node id="-17099" lat="58.3163055547" lon="6.47446666137">
		<tag k="name" v="Hushelleren" />
>>>>>>> e1d4bc35ff8a6074a6f2e91616a996b547c36f15
		<tag k="natural" v="stone" />
		<tag k="ssr:stedsnr" v="391951" />
	</node>
<<<<<<< HEAD
	<node lat="58.553436115075925" lon="6.343327778664563" id="-1280">
		<tag k="landuse" v="meadow" />
		<tag k="name" v="Holan" />
		<tag k="ssr:stedsnr" v="209396" />
	</node>
	<node lat="58.49246666749836" lon="6.422297229422684" id="-1292">
		<tag k="name" v="Dugamyra" />
		<tag k="natural" v="wetland" />
		<tag k="ssr:stedsnr" v="209616" />
	</node>
	<node lat="58.33912777370709" lon="6.544763883956507" id="-1297">
		<tag k="name" v="Øygarden" />
		<tag k="place" v="locality" />
		<tag k="ssr:stedsnr" v="209788" />
	</node>
	<node lat="58.339624998936095" lon="6.537269447343423" id="-1298">
		<tag k="name" v="Rundamyra" />
		<tag k="natural" v="wetland" />
		<tag k="ssr:stedsnr" v="209793" />
	</node>
	<node lat="58.54152222638545" lon="6.583886106678792" id="-1316">
		<tag k="alt_name" v="Langelandsstøl" />
		<tag k="historic" v="shieling" />
		<tag k="name" v="Langelandsstølen" />
		<tag k="place" v="locality" />
		<tag k="ssr:stedsnr" v="304938" />
	</node>
	<node lat="58.45079444172467" lon="6.328949995850541" id="-1321">
		<tag k="name" v="Botnen" />
		<tag k="place" v="locality" />
		<tag k="ssr:stedsnr" v="330096" />
	</node>
	<node lat="58.4924472233317" lon="6.335002775047488" id="-1322">
		<tag k="name" v="Surtemyr" />
		<tag k="natural" v="wetland" />
		<tag k="ssr:stedsnr" v="330042" />
	</node>
	<node lat="58.54484444525085" lon="6.356761104832167" id="-1334">
		<tag k="landuse" v="meadow" />
		<tag k="name" v="Øvra Myrå" />
		<tag k="ssr:stedsnr" v="330351" />
	</node>
	<node lat="58.51231666351389" lon="6.322699997951635" id="-1342">
		<tag k="name" v="Lundan" />
		<tag k="place" v="locality" />
		<tag k="ssr:stedsnr" v="330425" />
	</node>
	<node lat="58.539808330658204" lon="6.290936117544611" id="-1344">
		<tag k="name" v="Synnmyr" />
		<tag k="natural" v="wetland" />
		<tag k="ssr:stedsnr" v="330375" />
	</node>
	<node lat="58.45513889257191" lon="6.6167944513588886" id="-1349">
		<tag k="name" v="Longemyr" />
		<tag k="natural" v="wetland" />
		<tag k="ssr:stedsnr" v="330465" />
	</node>
	<node lat="58.48024722147851" lon="6.457050007972534" id="-1355">
		<tag k="name" v="Utsteinane" />
		<tag k="natural" v="stone" />
		<tag k="ssr:stedsnr" v="330631" />
	</node>
	<node lat="58.41388888751876" lon="6.51721388428946" id="-1360">
		<tag k="name" v="Rådalshomma" />
		<tag k="natural" v="wetland" />
		<tag k="ssr:stedsnr" v="330731" />
	</node>
	<node lat="58.32076944282027" lon="6.520236109210244" id="-1367">
		<tag k="name" v="Ærdalsmyr" />
		<tag k="natural" v="wetland" />
		<tag k="ssr:stedsnr" v="330801" />
	</node>
	<node lat="58.46600833689696" lon="6.322088890005632" id="-1368">
		<tag k="name" v="Fodestøl" />
		<tag k="place" v="locality" />
		<tag k="ssr:stedsnr" v="331160" />
	</node>
	<node lat="58.39248889053176" lon="6.585827775841006" id="-1422">
		<tag k="name" v="Langebakkmyra" />
		<tag k="natural" v="wetland" />
		<tag k="ssr:stedsnr" v="391615" />
	</node>
	<node lat="58.469905553349186" lon="6.587383328300712" id="-1427">
		<tag k="name" v="Fullstiblane" />
		<tag k="natural" v="wetland" />
		<tag k="ssr:stedsnr" v="391560" />
	</node>
	<node lat="58.46296944828679" lon="6.503658339132366" id="-1431">
		<tag k="landuse" v="meadow" />
		<tag k="name" v="Sauehagen" />
		<tag k="ssr:stedsnr" v="391578" />
	</node>
	<node lat="58.38226944384573" lon="6.522633336974787" id="-1444">
		<tag k="name" v="Stabsto" />
		<tag k="natural" v="stone" />
		<tag k="ssr:stedsnr" v="391762" />
	</node>
	<node lat="58.31630555474341" lon="6.474466661372563" id="-1445">
		<tag k="name" v="Hushelleren" />
		<tag k="natural" v="stone" />
		<tag k="ssr:stedsnr" v="391951" />
	</node>
	<node lat="58.54314444723844" lon="6.317269443687083" id="-1462">
=======
	<node id="-16065" lat="58.5065499996" lon="6.2951833326">
		<tag k="name" v="Høyløsegene" />
		<tag k="place" v="locality" />
		<tag k="ssr:stedsnr" v="451417" />
	</node>
	<node id="-16573" lat="58.423811109" lon="6.30992222043">
		<tag k="name" v="Lemmelimyra" />
		<tag k="natural" v="wetland" />
		<tag k="ssr:stedsnr" v="938322" />
	</node>
	<node id="-17076" lat="58.4629694483" lon="6.50365833913">
		<tag k="landuse" v="meadow" />
		<tag k="name" v="Sauehagen" />
		<tag k="ssr:stedsnr" v="391578" />
	</node>
	<node id="-16562" lat="58.3969888864" lon="6.55628333575">
		<tag k="name" v="Klovsteinen" />
		<tag k="natural" v="stone" />
		<tag k="ssr:stedsnr" v="937613" />
	</node>
	<node id="-16048" lat="58.4437222201" lon="6.52404166412">
		<tag k="name" v="Prestmyrane" />
		<tag k="natural" v="wetland" />
		<tag k="ssr:stedsnr" v="513553" />
	</node>
	<node id="-17071" lat="58.4816694411" lon="6.53161666736">
		<tag k="name" v="Øygarden" />
		<tag k="place" v="locality" />
		<tag k="ssr:stedsnr" v="391433" />
	</node>
	<node id="-16045" lat="58.4321416686" lon="6.60307778121">
		<tag k="name" v="Uran" />
		<tag k="natural" v="scree" />
		<tag k="ssr:stedsnr" v="513499" />
	</node>
	<node id="-16039" lat="58.4652999964" lon="6.34872499773">
		<tag k="name" v="Reamyr" />
		<tag k="natural" v="wetland" />
		<tag k="ssr:stedsnr" v="513192" />
	</node>
	<node id="-16037" lat="58.4711972198" lon="6.29139166401">
		<tag k="name" v="Svartemyr" />
		<tag k="natural" v="wetland" />
		<tag k="ssr:stedsnr" v="513167" />
	</node>
	<node id="-16036" lat="58.4201083338" lon="6.33834722259">
		<tag k="name" v="Tingbord" />
		<tag k="natural" v="stone" />
		<tag k="ssr:stedsnr" v="513276" />
	</node>
	<node id="-17350" lat="58.376969448" lon="6.53790278185">
		<tag k="name" v="Svegeli" />
		<tag k="natural" v="wetland" />
		<tag k="ssr:stedsnr" v="755765" />
	</node>
	<node id="-17058" lat="58.4699138874" lon="6.35057222605">
		<tag k="name" v="Klovsteinen" />
		<tag k="natural" v="stone" />
		<tag k="ssr:stedsnr" v="391187" />
	</node>
	<node id="-17057" lat="58.4901722244" lon="6.33990832634">
		<tag k="name" v="Storemyra" />
		<tag k="natural" v="wetland" />
		<tag k="ssr:stedsnr" v="391034" />
	</node>
	<node id="-17264" lat="58.384163892" lon="6.55041389564">
		<tag k="name" v="Ystemyr" />
		<tag k="natural" v="wetland" />
		<tag k="ssr:stedsnr" v="633747" />
	</node>
	<node id="-16539" lat="58.4631000029" lon="6.58300278181">
		<tag k="name" v="Flotmyr" />
		<tag k="natural" v="wetland" />
		<tag k="ssr:stedsnr" v="938539" />
	</node>
	<node id="-16628" lat="58.5436083349" lon="6.32536389592">
		<tag k="name" v="Sode" />
		<tag k="place" v="locality" />
		<tag k="ssr:stedsnr" v="27374" />
	</node>
	<node id="-16014" lat="58.5546555585" lon="6.3385944406">
		<tag k="name" v="Kråkemyr" />
		<tag k="natural" v="wetland" />
		<tag k="ssr:stedsnr" v="512392" />
	</node>
	<node id="-16013" lat="58.5431444472" lon="6.31726944369">
>>>>>>> e1d4bc35ff8a6074a6f2e91616a996b547c36f15
		<tag k="landuse" v="meadow" />
		<tag k="name" v="Bustebakken" />
		<tag k="ssr:stedsnr" v="512359" />
	</node>
<<<<<<< HEAD
	<node lat="58.51889999996494" lon="6.367419446553676" id="-1470">
		<tag k="landuse" v="meadow" />
		<tag k="name" v="Fagervoll" />
		<tag k="ssr:stedsnr" v="512290" />
	</node>
	<node lat="58.55465555852653" lon="6.338594440596078" id="-1473">
		<tag k="name" v="Kråkemyr" />
		<tag k="natural" v="wetland" />
		<tag k="ssr:stedsnr" v="512392" />
	</node>
	<node lat="58.60253610976524" lon="6.498347222233431" id="-1479">
		<tag k="name" v="Hausteslått" />
		<tag k="place" v="locality" />
		<tag k="ssr:stedsnr" v="512153" />
	</node>
	<node lat="58.44372222011697" lon="6.524041664116241" id="-1512">
		<tag k="name" v="Prestmyrane" />
		<tag k="natural" v="wetland" />
		<tag k="ssr:stedsnr" v="513553" />
	</node>
	<node lat="58.43214166860821" lon="6.603077781207883" id="-1515">
		<tag k="name" v="Uran" />
		<tag k="natural" v="scree" />
		<tag k="ssr:stedsnr" v="513499" />
	</node>
	<node lat="58.455786108387635" lon="6.594900005739337" id="-1516">
		<tag k="name" v="Torvsteinen" />
		<tag k="natural" v="stone" />
		<tag k="ssr:stedsnr" v="513588" />
	</node>
	<node lat="58.541577776527106" lon="6.3190944443357555" id="-1543">
		<tag k="landuse" v="meadow" />
		<tag k="name" v="Jerbergbakken" />
		<tag k="ssr:stedsnr" v="572361" />
	</node>
	<node lat="58.5023166702542" lon="6.289541661485106" id="-1556">
		<tag k="name" v="Ormebakkane" />
		<tag k="place" v="locality" />
		<tag k="ssr:stedsnr" v="572414" />
	</node>
	<node lat="58.59365555691595" lon="6.493061118681954" id="-1605">
		<tag k="name" v="Brekkeslått" />
		<tag k="place" v="locality" />
		<tag k="ssr:stedsnr" v="633167" />
	</node>
	<node lat="58.498147223930324" lon="6.495138889924916" id="-1608">
		<tag k="name" v="Tonnesteinen" />
		<tag k="natural" v="stone" />
		<tag k="ssr:stedsnr" v="633247" />
	</node>
	<node lat="58.502933332286815" lon="6.50174722330049" id="-1610">
		<tag k="name" v="Steinhagen" />
		<tag k="natural" v="scree" />
		<tag k="ssr:stedsnr" v="633255" />
	</node>
	<node lat="58.53419167077512" lon="6.268433341057324" id="-1621">
		<tag k="name" v="Hedlersknudmyra" />
		<tag k="natural" v="wetland" />
		<tag k="ssr:stedsnr" v="633441" />
	</node>
	<node lat="58.38416389200146" lon="6.550413895639164" id="-1626">
		<tag k="name" v="Ystemyr" />
		<tag k="natural" v="wetland" />
		<tag k="ssr:stedsnr" v="633747" />
	</node>
	<node lat="58.370083337168" lon="6.580994436872587" id="-1628">
		<tag k="name" v="Diblemyr" />
		<tag k="natural" v="wetland" />
		<tag k="ssr:stedsnr" v="633768" />
	</node>
	<node lat="58.324288890194055" lon="6.517127774020328" id="-1633">
		<tag k="name" v="Stordalsmyra" />
=======
	<node id="-17036" lat="58.6170333311" lon="6.5672749983">
		<tag k="name" v="Tønnemyran" />
		<tag k="natural" v="wetland" />
		<tag k="ssr:stedsnr" v="390115" />
	</node>
	<node id="-16007" lat="58.5189" lon="6.36741944655">
		<tag k="landuse" v="meadow" />
		<tag k="name" v="Fagervoll" />
		<tag k="ssr:stedsnr" v="512290" />
	</node>
	<node id="-16006" lat="58.5406805532" lon="6.40039443958">
		<tag k="name" v="Kalvhagen" />
		<tag k="place" v="locality" />
		<tag k="ssr:stedsnr" v="512279" />
	</node>
	<node id="-16883" lat="58.5213611069" lon="6.43324167071">
		<tag k="name" v="Stongsmyran" />
		<tag k="natural" v="wetland" />
		<tag k="ssr:stedsnr" v="209253" />
	</node>
	<node id="-16746" lat="58.4689861111" lon="6.54248611454">
		<tag k="name" v="Klområ" />
		<tag k="place" v="locality" />
		<tag k="ssr:stedsnr" v="88492" />
	</node>
	<node id="-15993" lat="58.5364333319" lon="6.57295833321">
		<tag k="name" v="Sundmyr" />
		<tag k="natural" v="wetland" />
		<tag k="ssr:stedsnr" v="512172" />
	</node>
	<node id="-16404" lat="58.4416833328" lon="6.60969722414">
		<tag k="name" v="Litlebø" />
		<tag k="place" v="locality" />
		<tag k="ssr:stedsnr" v="695473" />
	</node>
	<node id="-16502" lat="58.4539277751" lon="6.60028055509">
		<tag k="name" v="Stølen" />
		<tag k="place" v="locality" />
		<tag k="ssr:stedsnr" v="937459" />
	</node>
	<node id="-15984" lat="58.6025361098" lon="6.49834722223">
		<tag k="name" v="Hausteslått" />
		<tag k="place" v="locality" />
		<tag k="ssr:stedsnr" v="512153" />
	</node>
	<node id="-15982" lat="58.3822694438" lon="6.52263333697">
		<tag k="name" v="Stabsto" />
		<tag k="natural" v="stone" />
		<tag k="ssr:stedsnr" v="391762" />
	</node>
	<node id="-16491" lat="58.55023889" lon="6.35779444115">
		<tag k="name" v="Klovsteinane" />
		<tag k="natural" v="stone" />
		<tag k="ssr:stedsnr" v="937356" />
	</node>
	<node id="-16489" lat="58.5495750012" lon="6.34547499389">
		<tag k="landuse" v="meadow" />
		<tag k="name" v="Helgastova" />
		<tag k="ssr:stedsnr" v="937353" />
	</node>
	<node id="-15975" lat="58.3924888905" lon="6.58582777584">
		<tag k="name" v="Langebakkmyra" />
		<tag k="natural" v="wetland" />
		<tag k="ssr:stedsnr" v="391615" />
	</node>
	<node id="-16485" lat="58.532530552" lon="6.57610556156">
		<tag k="landuse" v="meadow" />
		<tag k="name" v="Nedre Kjædla" />
		<tag k="ssr:stedsnr" v="937201" />
	</node>
	<node id="-16480" lat="58.4959416674" lon="6.55171110781">
		<tag k="alt_name" v="Viemyrane" />
		<tag k="name" v="Viemyran" />
>>>>>>> e1d4bc35ff8a6074a6f2e91616a996b547c36f15
		<tag k="natural" v="wetland" />
		<tag k="ssr:stedsnr" v="937257" />
	</node>
<<<<<<< HEAD
	<node lat="58.434083337030486" lon="6.534569445483918" id="-1634">
		<tag k="name" v="Langemyrane" />
		<tag k="natural" v="wetland" />
		<tag k="ssr:stedsnr" v="634564" />
	</node>
	<node lat="58.46404166620076" lon="6.517219449183264" id="-1641">
		<tag k="name" v="Stovesteinane" />
		<tag k="natural" v="stone" />
		<tag k="ssr:stedsnr" v="634602" />
	</node>
	<node lat="58.48801944061206" lon="6.326805559889604" id="-1683">
		<tag k="name" v="Djupemyr" />
		<tag k="natural" v="wetland" />
		<tag k="ssr:stedsnr" v="755034" />
	</node>
	<node lat="58.54756111178447" lon="6.358952770516013" id="-1690">
		<tag k="name" v="Jodå" />
		<tag k="place" v="locality" />
		<tag k="ssr:stedsnr" v="755332" />
	</node>
	<node lat="58.52031666881022" lon="6.306244449655437" id="-1691">
		<tag k="name" v="Grøna Segå" />
		<tag k="natural" v="wetland" />
		<tag k="ssr:stedsnr" v="755338" />
	</node>
	<node lat="58.5134194431721" lon="6.368811112110826" id="-1700">
		<tag k="name" v="Jordet" />
		<tag k="place" v="locality" />
		<tag k="ssr:stedsnr" v="755580" />
	</node>
	<node lat="58.471280556035154" lon="6.53585000223973" id="-1712">
		<tag k="name" v="Nordmark" />
		<tag k="place" v="locality" />
		<tag k="ssr:stedsnr" v="756579" />
	</node>
	<node lat="58.52702499687736" lon="6.551277783429532" id="-1741">
		<tag k="name" v="Skittfenmyra" />
		<tag k="natural" v="wetland" />
		<tag k="ssr:stedsnr" v="816177" />
	</node>
	<node lat="58.5878027767504" lon="6.501233339038925" id="-1744">
		<tag k="name" v="Indre Moen" />
		<tag k="place" v="locality" />
		<tag k="ssr:stedsnr" v="816155" />
	</node>
	<node lat="58.5879111145504" lon="6.522366664906525" id="-1747">
		<tag k="name" v="Vie Myran" />
		<tag k="natural" v="wetland" />
		<tag k="ssr:stedsnr" v="816160" />
	</node>
	<node lat="58.53071944394815" lon="6.593194450025927" id="-1752">
		<tag k="name" v="Ramsliheia" />
		<tag k="place" v="locality" />
		<tag k="ssr:stedsnr" v="816181" />
	</node>
	<node lat="58.46638332983677" lon="6.577458330128886" id="-1762">
		<tag k="name" v="Langemyrane" />
		<tag k="natural" v="wetland" />
		<tag k="ssr:stedsnr" v="816586" />
	</node>
	<node lat="58.46314166527038" lon="6.59612778393414" id="-1763">
		<tag k="name" v="Kyllingmyra" />
		<tag k="natural" v="wetland" />
		<tag k="ssr:stedsnr" v="816595" />
	</node>
	<node lat="58.442591663860824" lon="6.515472221205836" id="-1777">
		<tag k="name" v="Via myrå" />
		<tag k="natural" v="wetland" />
		<tag k="ssr:stedsnr" v="816566" />
	</node>
	<node lat="58.41029721805436" lon="6.5379722306899515" id="-1787">
		<tag k="name" v="Svinsoksmyra" />
		<tag k="natural" v="wetland" />
		<tag k="ssr:stedsnr" v="816751" />
	</node>
	<node lat="58.33829444653964" lon="6.502388895313476" id="-1791">
		<tag k="name" v="Deblan" />
		<tag k="natural" v="wetland" />
		<tag k="ssr:stedsnr" v="816815" />
	</node>
	<node lat="58.53171666728672" lon="6.345083332712191" id="-1835">
		<tag k="name" v="Vasshusmyrane" />
		<tag k="natural" v="wetland" />
		<tag k="ssr:stedsnr" v="876287" />
	</node>
	<node lat="58.53270277613824" lon="6.363947230394984" id="-1836">
		<tag k="landuse" v="meadow" />
		<tag k="name" v="Bjønnsokfeta" />
		<tag k="ssr:stedsnr" v="876288" />
	</node>
	<node lat="58.44056111354016" lon="6.591716662407514" id="-1840">
		<tag k="name" v="Erskoland" />
=======
	<node id="-15967" lat="58.4699055533" lon="6.5873833283">
		<tag k="name" v="Fullstiblane" />
		<tag k="natural" v="wetland" />
		<tag k="ssr:stedsnr" v="391560" />
	</node>
	<node id="-16478" lat="58.5534777734" lon="6.5419999953">
		<tag k="name" v="Breia Myrå" />
		<tag k="natural" v="wetland" />
		<tag k="ssr:stedsnr" v="937252" />
	</node>
	<node id="-16987" lat="58.4660083369" lon="6.32208889001">
		<tag k="name" v="Fodestøl" />
		<tag k="place" v="locality" />
		<tag k="ssr:stedsnr" v="331160" />
	</node>
	<node id="-16982" lat="58.3207694428" lon="6.52023610921">
		<tag k="name" v="Ærdalsmyr" />
		<tag k="natural" v="wetland" />
		<tag k="ssr:stedsnr" v="330801" />
	</node>
	<node id="-16468" lat="58.3382944465" lon="6.50238889531">
		<tag k="name" v="Deblan" />
		<tag k="natural" v="wetland" />
		<tag k="ssr:stedsnr" v="816815" />
	</node>
	<node id="-16978" lat="58.3600361098" lon="6.53485555941">
		<tag k="name" v="Slåtå" />
		<tag k="place" v="locality" />
		<tag k="ssr:stedsnr" v="330775" />
	</node>
	<node id="-16464" lat="58.4631416653" lon="6.59612778393">
		<tag k="name" v="Kyllingmyra" />
		<tag k="natural" v="wetland" />
		<tag k="ssr:stedsnr" v="816595" />
	</node>
	<node id="-16824" lat="58.3481666704" lon="6.49758611609">
		<tag k="name" v="Storemyr" />
		<tag k="natural" v="wetland" />
		<tag k="ssr:stedsnr" v="148748" />
	</node>
	<node id="-16972" lat="58.4138888875" lon="6.51721388429">
		<tag k="name" v="Rådalshomma" />
		<tag k="natural" v="wetland" />
		<tag k="ssr:stedsnr" v="330731" />
	</node>
	<node id="-16459" lat="58.4425916639" lon="6.51547222121">
		<tag k="name" v="Via myrå" />
		<tag k="natural" v="wetland" />
		<tag k="ssr:stedsnr" v="816566" />
	</node>
	<node id="-16908" lat="58.3396249989" lon="6.53726944734">
		<tag k="name" v="Rundamyra" />
		<tag k="natural" v="wetland" />
		<tag k="ssr:stedsnr" v="209793" />
	</node>
	<node id="-16966" lat="58.4551388926" lon="6.61679445136">
		<tag k="name" v="Longemyr" />
		<tag k="natural" v="wetland" />
		<tag k="ssr:stedsnr" v="330465" />
	</node>
	<node id="-16907" lat="58.3391277737" lon="6.54476388396">
		<tag k="name" v="Øygarden" />
		<tag k="place" v="locality" />
		<tag k="ssr:stedsnr" v="209788" />
	</node>
	<node id="-16960" lat="58.5398083307" lon="6.29093611754">
		<tag k="name" v="Synnmyr" />
		<tag k="natural" v="wetland" />
		<tag k="ssr:stedsnr" v="330375" />
	</node>
	<node id="-16958" lat="58.5448444453" lon="6.35676110483">
		<tag k="landuse" v="meadow" />
		<tag k="name" v="Øvra Myrå" />
		<tag k="ssr:stedsnr" v="330351" />
	</node>
	<node id="-16442" lat="58.5879111146" lon="6.52236666491">
		<tag k="name" v="Vie Myran" />
		<tag k="natural" v="wetland" />
		<tag k="ssr:stedsnr" v="816160" />
	</node>
	<node id="-15929" lat="58.5672888927" lon="6.41539166739">
		<tag k="name" v="Lynghei" />
		<tag k="place" v="locality" />
		<tag k="ssr:stedsnr" v="330524" />
	</node>
	<node id="-16052" lat="58.4557861084" lon="6.59490000574">
		<tag k="name" v="Torvsteinen" />
		<tag k="natural" v="stone" />
		<tag k="ssr:stedsnr" v="513588" />
	</node>
	<node id="-16436" lat="58.6125166688" lon="6.55934722628">
		<tag k="name" v="Kalvhagen" />
>>>>>>> e1d4bc35ff8a6074a6f2e91616a996b547c36f15
		<tag k="place" v="locality" />
		<tag k="ssr:stedsnr" v="876386" />
	</node>
<<<<<<< HEAD
	<node lat="58.49385555683067" lon="6.54131944340831" id="-1842">
		<tag k="name" v="Stakkstongmyrene" />
		<tag k="natural" v="wetland" />
		<tag k="ssr:stedsnr" v="876400" />
	</node>
	<node lat="58.56403055338743" lon="6.478663882463231" id="-1843">
		<tag k="name" v="Porsmyr" />
		<tag k="natural" v="wetland" />
		<tag k="ssr:stedsnr" v="876489" />
	</node>
	<node lat="58.516569442142575" lon="6.354022229662236" id="-1851">
		<tag k="name" v="Blåmyr" />
		<tag k="natural" v="wetland" />
		<tag k="ssr:stedsnr" v="876572" />
	</node>
	<node lat="58.55347777337012" lon="6.541999995295782" id="-1874">
		<tag k="name" v="Breia Myrå" />
		<tag k="natural" v="wetland" />
		<tag k="ssr:stedsnr" v="937252" />
	</node>
	<node lat="58.49594166740726" lon="6.551711107807854" id="-1876">
		<tag k="alt_name" v="Viemyrane" />
		<tag k="name" v="Viemyran" />
		<tag k="natural" v="wetland" />
		<tag k="ssr:stedsnr" v="937257" />
	</node>
	<node lat="58.53253055204319" lon="6.576105561555171" id="-1880">
		<tag k="landuse" v="meadow" />
		<tag k="name" v="Nedre Kjædla" />
		<tag k="ssr:stedsnr" v="937201" />
	</node>
	<node lat="58.54957500117254" lon="6.3454749938885575" id="-1893">
		<tag k="landuse" v="meadow" />
		<tag k="name" v="Helgastova" />
		<tag k="ssr:stedsnr" v="937353" />
	</node>
	<node lat="58.5502388899587" lon="6.35779444115164" id="-1895">
		<tag k="name" v="Klovsteinane" />
		<tag k="natural" v="stone" />
		<tag k="ssr:stedsnr" v="937356" />
	</node>
	<node lat="58.45392777509491" lon="6.600280555087751" id="-1908">
		<tag k="name" v="Stølen" />
		<tag k="place" v="locality" />
		<tag k="ssr:stedsnr" v="937459" />
=======
	<node id="-15922" lat="58.5123166635" lon="6.32269999795">
		<tag k="name" v="Lundan" />
		<tag k="place" v="locality" />
		<tag k="ssr:stedsnr" v="330425" />
	</node>
	<node id="-15920" lat="58.4424027739" lon="6.55418888164">
		<tag k="name" v="Lundestranda" />
		<tag k="place" v="locality" />
		<tag k="ssr:stedsnr" v="330411" />
	</node>
	<node id="-16938" lat="58.4924472233" lon="6.33500277505">
		<tag k="name" v="Surtemyr" />
		<tag k="natural" v="wetland" />
		<tag k="ssr:stedsnr" v="330042" />
	</node>
	<node id="-17445" lat="58.4102972181" lon="6.53797223069">
		<tag k="name" v="Svinsoksmyra" />
		<tag k="natural" v="wetland" />
		<tag k="ssr:stedsnr" v="816751" />
	</node>
	<node id="-15924" lat="58.4802472215" lon="6.45705000797">
		<tag k="name" v="Utsteinane" />
		<tag k="natural" v="stone" />
		<tag k="ssr:stedsnr" v="330631" />
	</node>
	<node id="-17436" lat="58.5438611154" lon="6.60730278127">
		<tag k="name" v="Trodlevassmyra" />
		<tag k="natural" v="wetland" />
		<tag k="ssr:stedsnr" v="816481" />
	</node>
	<node id="-16730" lat="58.494511109" lon="6.51988055893">
		<tag k="name" v="Sleten" />
		<tag k="place" v="locality" />
		<tag k="ssr:stedsnr" v="87412" />
	</node>
	<node id="-15894" lat="58.3323249976" lon="6.49841388528">
		<tag k="name" v="Fenmyra" />
		<tag k="natural" v="wetland" />
		<tag k="ssr:stedsnr" v="270755" />
	</node>
	<node id="-16917" lat="58.4531277816" lon="6.51787222239">
		<tag k="name" v="Flåtmyra" />
		<tag k="natural" v="wetland" />
		<tag k="ssr:stedsnr" v="210587" />
	</node>
	<node id="-16916" lat="58.4615472227" lon="6.53358610904">
		<tag k="name" v="Hestesprang" />
		<tag k="place" v="locality" />
		<tag k="ssr:stedsnr" v="210581" />
	</node>
	<node id="-16879" lat="58.4980277778" lon="6.5663999978">
		<tag k="name" v="Marsteinen" />
		<tag k="natural" v="stone" />
		<tag k="ssr:stedsnr" v="209225" />
	</node>
	<node id="-15883" lat="58.45099167" lon="6.60105278261">
		<tag k="name" v="Sandsmarkmyra" />
		<tag k="natural" v="wetland" />
		<tag k="ssr:stedsnr" v="270457" />
	</node>
	<node id="-16905" lat="58.3676833349" lon="6.56429999665">
		<tag k="name" v="Stygga Urå" />
		<tag k="natural" v="scree" />
		<tag k="ssr:stedsnr" v="209754" />
	</node>
	<node id="-16812" lat="58.5488833296" lon="6.35446943844">
		<tag k="name" v="Jentebakken" />
		<tag k="place" v="locality" />
		<tag k="ssr:stedsnr" v="148348" />
	</node>
	<node id="-16390" lat="58.4634666631" lon="6.54958055629">
		<tag k="name" v="Søyrå" />
		<tag k="natural" v="wetland" />
		<tag k="ssr:stedsnr" v="694509" />
	</node>
	<node id="-15877" lat="58.4949500035" lon="6.28841389319">
		<tag k="name" v="Slåttemyr" />
		<tag k="natural" v="wetland" />
		<tag k="ssr:stedsnr" v="270121" />
	</node>
	<node id="-16900" lat="58.5534361151" lon="6.34332777866">
		<tag k="landuse" v="meadow" />
		<tag k="name" v="Holan" />
		<tag k="ssr:stedsnr" v="209396" />
	</node>
	<node id="-16811" lat="58.5461833295" lon="6.34509721997">
		<tag k="landuse" v="meadow" />
		<tag k="name" v="Kalvamonen" />
		<tag k="ssr:stedsnr" v="148346" />
>>>>>>> e1d4bc35ff8a6074a6f2e91616a996b547c36f15
	</node>
</osm>
