<?xml version="1.0" encoding="UTF-8"?>
<osm generator="osmapis" version="0.6">
	<node id="-2042" lat="58.5464638903" lon="6.28063889395">
		<tag k="name" v="Storøy" />
		<tag k="place" v="island" />
		<tag k="ssr:stedsnr" v="87341" />
	</node>
	<node id="-2034" lat="58.4893000036" lon="6.3502083385">
		<tag k="name" v="Flåde" />
		<tag k="natural" v="beach" />
		<tag k="ssr:stedsnr" v="87096" />
	</node>
	<node id="-2030" lat="58.6009179922" lon="6.50127622369">
		<tag k="name" v="Holetjørna" />
		<tag k="natural" v="water" />
		<tag k="ssr:stedsnr" v="87136" />
	</node>
	<node id="-2029" lat="58.5977499964" lon="6.51570554863">
		<tag k="name" v="Kregebekk" />
		<tag k="ssr:stedsnr" v="87135" />
		<tag k="waterway" v="stream" />
	</node>
	<node id="-2027" lat="58.5119277808" lon="6.44306944517">
		<tag k="name" v="Kroktjørnane" />
		<tag k="natural" v="water" />
		<tag k="ssr:stedsnr" v="61984" />
		<tag k="water" v="lake" />
	</node>
	<node id="-2019" lat="58.4790555575" lon="6.57928610519">
		<tag k="name" v="Gjelevatnet" />
		<tag k="natural" v="water" />
		<tag k="ssr:stedsnr" v="61915" />
	</node>
	<node id="-2018" lat="58.4714444431" lon="6.46695000602">
		<tag k="name" v="Krogstemmen" />
		<tag k="natural" v="water" />
		<tag k="ssr:stedsnr" v="61914" />
	</node>
	<node id="-2016" lat="58.4666361129" lon="6.33045832907">
		<tag k="name" v="Stemmen" />
		<tag k="natural" v="water" />
		<tag k="ssr:stedsnr" v="61909" />
	</node>
	<node id="-2014" lat="58.585895419" lon="6.58752955028">
		<tag k="fixme" v="multiple name tags, choose one and add the other to alt_name" />
		<tag k="name" v="Stemmetjørna;Hovstjørna" />
		<tag k="natural" v="water" />
		<tag k="ssr:stedsnr" v="61902" />
	</node>
	<node id="-2013" lat="58.5862916645" lon="6.53640278067">
		<tag k="name" v="Svartevatnet" />
		<tag k="natural" v="water" />
		<tag k="ssr:stedsnr" v="61898" />
		<tag k="water" v="lake" />
	</node>
	<node id="-2006" lat="58.4719581322" lon="6.61072102389">
		<tag k="alt_name" v="indra Litjørn" />
		<tag k="name" v="Litjørna" />
		<tag k="natural" v="water" />
		<tag k="ssr:stedsnr" v="61075" />
	</node>
	<node id="-2004" lat="58.5299138846" lon="6.46102222901">
		<tag k="name" v="Siltjørna" />
		<tag k="natural" v="water" />
		<tag k="ssr:stedsnr" v="60958" />
	</node>
	<node id="-1990" lat="58.4652601408" lon="6.44695192862">
		<tag k="name" v="Stokkavatnet" />
		<tag k="natural" v="water" />
		<tag k="ssr:stedsnr" v="27693" />
		<tag k="water" v="lake" />
	</node>
	<node id="-1985" lat="58.485325004" lon="6.40221943925">
		<tag k="name" v="Fossane" />
		<tag k="natural" v="waterfall" />
		<tag k="ssr:stedsnr" v="27637" />
	</node>
	<node id="-1983" lat="58.4053388878" lon="6.58173055585">
		<tag k="name" v="Klubben" />
		<tag k="natural" v="cape" />
		<tag k="ssr:stedsnr" v="27599" />
	</node>
	<node id="-1981" lat="58.511366666" lon="6.36322499311">
		<tag k="name" v="Vassvik" />
		<tag k="natural" v="bay" />
		<tag k="ssr:stedsnr" v="27591" />
	</node>
	<node id="-1974" lat="58.4695888904" lon="6.54742499573">
		<tag k="name" v="Hauklandsbekken" />
		<tag k="ssr:stedsnr" v="27546" />
		<tag k="waterway" v="stream" />
	</node>
	<node id="-1973" lat="58.4476722192" lon="6.54730832526">
		<tag k="name" v="Malåna" />
		<tag k="ssr:stedsnr" v="27540" />
		<tag k="waterway" v="stream" />
	</node>
	<node id="-1971" lat="58.464397219" lon="6.61472221575">
		<tag k="name" v="Støbekken" />
		<tag k="ssr:stedsnr" v="27483" />
		<tag k="waterway" v="stream" />
	</node>
	<node id="-1969" lat="58.4915555591" lon="6.49488332554">
		<tag k="name" v="Øyna" />
		<tag k="place" v="island" />
		<tag k="ssr:stedsnr" v="27447" />
	</node>
	<node id="-1968" lat="58.4748055596" lon="6.52105277152">
		<tag k="name" v="Sandvika" />
		<tag k="natural" v="bay" />
		<tag k="ssr:stedsnr" v="27446" />
	</node>
	<node id="-1967" lat="58.4781500028" lon="6.5861055633">
		<tag k="name" v="Teinebekken" />
		<tag k="ssr:stedsnr" v="27444" />
		<tag k="waterway" v="stream" />
	</node>
	<node id="-1965" lat="58.5553316608" lon="6.36708338006">
		<tag k="name" v="Midtra Sandvatn" />
		<tag k="natural" v="water" />
		<tag k="ssr:stedsnr" v="27388" />
		<tag k="water" v="lake" />
	</node>
	<node id="-1964" lat="58.5448666687" lon="6.27540834008">
		<tag k="name" v="Hedlersvatnet" />
		<tag k="natural" v="water" />
		<tag k="ssr:stedsnr" v="27380" />
		<tag k="water" v="lake" />
	</node>
	<node id="-1955" lat="58.5380805516" lon="6.46133055904">
		<tag k="name" v="Kloppetjørna" />
		<tag k="natural" v="water" />
		<tag k="ssr:stedsnr" v="27230" />
	</node>
	<node id="-1949" lat="58.4628861096" lon="6.33996944806">
		<tag k="name" v="Kvednabekken" />
		<tag k="ssr:stedsnr" v="27166" />
		<tag k="waterway" v="stream" />
	</node>
	<node id="-1948" lat="58.5391992145" lon="6.54896260179">
		<tag k="name" v="Botnetjørna" />
		<tag k="natural" v="water" />
		<tag k="ssr:stedsnr" v="27165" />
	</node>
	<node id="-1944" lat="58.5265322926" lon="6.59420942059">
		<tag k="name" v="Langetjørna" />
		<tag k="natural" v="water" />
		<tag k="ssr:stedsnr" v="27147" />
	</node>
	<node id="-1941" lat="58.4466777753" lon="6.342366673">
		<tag k="name" v="Soldrangsbukta" />
		<tag k="natural" v="bay" />
		<tag k="ssr:stedsnr" v="27079" />
	</node>
	<node id="-1938" lat="58.4830750041" lon="6.2977999944">
		<tag k="name" v="Haptodden" />
		<tag k="natural" v="cape" />
		<tag k="ssr:stedsnr" v="27060" />
	</node>
	<node id="-1937" lat="58.4756277786" lon="6.30981110651">
		<tag k="name" v="Tosketjørn" />
		<tag k="natural" v="water" />
		<tag k="ssr:stedsnr" v="27058" />
	</node>
	<node id="-1930" lat="58.5009527783" lon="6.39259722607">
		<tag k="name" v="Mattisvatnet" />
		<tag k="natural" v="water" />
		<tag k="ssr:stedsnr" v="1525" />
	</node>
	<node id="-1927" lat="58.5243194416" lon="6.44461111906">
		<tag k="name" v="Urvatnet" />
		<tag k="natural" v="water" />
		<tag k="ssr:stedsnr" v="966" />
		<tag k="water" v="lake" />
	</node>
	<node id="-1924" lat="58.5334083291" lon="6.48350833393">
		<tag k="alt_name" v="Botnåni" />
		<tag k="name" v="Botnåna" />
		<tag k="ssr:stedsnr" v="946" />
		<tag k="waterway" v="stream" />
	</node>
	<node id="-1921" lat="58.5608000014" lon="6.41083611453">
		<tag k="name" v="Furbakktjørna" />
		<tag k="natural" v="water" />
		<tag k="ssr:stedsnr" v="925" />
	</node>
	<node id="-1920" lat="58.4744305578" lon="6.58916389038">
		<tag k="alt_name" v="Stølstjørna" />
		<tag k="name" v="Lindlandstjørna" />
		<tag k="natural" v="water" />
		<tag k="ssr:stedsnr" v="923" />
	</node>
	<node id="-1917" lat="58.4590249976" lon="6.54213889517">
		<tag k="alt_name" v="Moisåna" />
		<tag k="name" v="Osåna" />
		<tag k="ssr:stedsnr" v="900" />
		<tag k="waterway" v="river" />
	</node>
	<node id="-1910" lat="58.4883752328" lon="6.59237166886">
		<tag k="name" v="Heimre Botnen" />
		<tag k="natural" v="water" />
		<tag k="ssr:stedsnr" v="938453" />
	</node>
	<node id="-1909" lat="58.462480559" lon="6.5327694449">
		<tag k="name" v="Sandhølen" />
		<tag k="place" v="locality" />
		<tag k="ssr:stedsnr" v="938563" />
	</node>
	<node id="-1904" lat="58.5801323808" lon="6.4106366419">
		<tag k="name" v="Resafjelltjørnene" />
		<tag k="natural" v="water" />
		<tag k="ssr:stedsnr" v="937531" />
		<tag k="water" v="lake" />
	</node>
	<node id="-1900" lat="58.4826555567" lon="6.46988056049">
		<tag k="name" v="Lyngodden" />
		<tag k="natural" v="cape" />
		<tag k="ssr:stedsnr" v="937637" />
	</node>
	<node id="-1898" lat="58.3907638886" lon="6.591230553">
		<tag k="name" v="Holsonskjeret" />
		<tag k="place" v="islet" />
		<tag k="ssr:stedsnr" v="937619" />
	</node>
	<node id="-1894" lat="58.5555833367" lon="6.37364444899">
		<tag k="name" v="Stølsneset" />
		<tag k="natural" v="cape" />
		<tag k="ssr:stedsnr" v="937406" />
	</node>
	<node id="-1893" lat="58.5039111071" lon="6.38794723107">
		<tag k="name" v="Timrevik" />
		<tag k="natural" v="bay" />
		<tag k="ssr:stedsnr" v="937320" />
	</node>
	<node id="-1892" lat="58.4884944465" lon="6.36870000665">
		<tag k="name" v="Heimra Tjødnå" />
		<tag k="natural" v="water" />
		<tag k="ssr:stedsnr" v="937130" />
	</node>
	<node id="-1888" lat="58.4344555543" lon="6.33733889483">
		<tag k="name" v="ytra Mjelkevik" />
		<tag k="natural" v="bay" />
		<tag k="ssr:stedsnr" v="937107" />
	</node>
	<node id="-1885" lat="58.5518861074" lon="6.56617777263">
		<tag k="name" v="Siritjørna" />
		<tag k="natural" v="water" />
		<tag k="ssr:stedsnr" v="937220" />
	</node>
	<node id="-1882" lat="58.574233336" lon="6.60882499466">
		<tag k="name" v="Heståna" />
		<tag k="ssr:stedsnr" v="886415" />
		<tag k="waterway" v="river" />
	</node>
	<node id="-1879" lat="58.4694861092" lon="6.56591666533">
		<tag k="name" v="Skårstemmevatnet" />
		<tag k="natural" v="water" />
		<tag k="ssr:stedsnr" v="876532" />
		<tag k="water" v="lake" />
	</node>
	<node id="-1873" lat="58.4357166643" lon="6.52013611927">
		<tag k="name" v="Lomstjørn" />
		<tag k="natural" v="water" />
		<tag k="ssr:stedsnr" v="938525" />
	</node>
	<node id="-1872" lat="58.4871777743" lon="6.56491111286">
		<tag k="name" v="Botnen" />
		<tag k="natural" v="bay" />
		<tag k="ssr:stedsnr" v="938452" />
	</node>
	<node id="-1870" lat="58.435938887" lon="6.59064167274">
		<tag k="name" v="Store Hamreøyna" />
		<tag k="place" v="island" />
		<tag k="ssr:stedsnr" v="938413" />
	</node>
	<node id="-1859" lat="58.2999277821" lon="6.47075833162">
		<tag k="name" v="Rjukanfoss" />
		<tag k="natural" v="waterfall" />
		<tag k="ssr:stedsnr" v="937969" />
	</node>
	<node id="-1858" lat="58.3189194446" lon="6.52499166663">
		<tag k="name" v="Kjetødnan" />
		<tag k="natural" v="cape" />
		<tag k="ssr:stedsnr" v="937790" />
	</node>
	<node id="-1857" lat="58.3778749975" lon="6.5642111121">
		<tag k="name" v="Krossreitjørn" />
		<tag k="natural" v="water" />
		<tag k="ssr:stedsnr" v="937778" />
		<tag k="water" v="pond" />
	</node>
	<node id="-1856" lat="58.3752722237" lon="6.55792221843">
		<tag k="name" v="Nedre Stølstjørn" />
		<tag k="natural" v="water" />
		<tag k="ssr:stedsnr" v="937776" />
	</node>
	<node id="-1855" lat="58.3627852803" lon="6.51557608736">
		<tag k="name" v="Stemmetjørna" />
		<tag k="natural" v="water" />
		<tag k="ssr:stedsnr" v="937765" />
	</node>
	<node id="-1851" lat="58.4567722262" lon="6.40398611366">
		<tag k="name" v="Solknestjørn" />
		<tag k="natural" v="water" />
		<tag k="ssr:stedsnr" v="937717" />
	</node>
	<node id="-1848" lat="58.4479009381" lon="6.482593505">
		<tag k="name" v="Bukketjørn" />
		<tag k="natural" v="water" />
		<tag k="ssr:stedsnr" v="937660" />
	</node>
	<node id="-1839" lat="58.5516805593" lon="6.29898610334">
		<tag k="name" v="Langevik" />
		<tag k="natural" v="bay" />
		<tag k="ssr:stedsnr" v="937387" />
	</node>
	<node id="-1838" lat="58.4648543296" lon="6.61182915796">
		<tag k="name" v="Indra Stortjørn" />
		<tag k="natural" v="water" />
		<tag k="ssr:stedsnr" v="937482" />
	</node>
	<node id="-1833" lat="58.5048194465" lon="6.30449999824">
		<tag k="name" v="Svinaneset" />
		<tag k="natural" v="cape" />
		<tag k="ssr:stedsnr" v="937434" />
	</node>
	<node id="-1816" lat="58.514205552" lon="6.58911110398">
		<tag k="name" v="Listongstjørn" />
		<tag k="natural" v="water" />
		<tag k="ssr:stedsnr" v="937259" />
	</node>
	<node id="-1809" lat="58.5633895093" lon="6.57605069372">
		<tag k="name" v="Litlavatnet" />
		<tag k="natural" v="water" />
		<tag k="ssr:stedsnr" v="937153" />
		<tag k="water" v="lake" />
	</node>
	<node id="-1805" lat="58.491358335" lon="6.37531110483">
		<tag k="name" v="Midra Tjødno" />
		<tag k="natural" v="water" />
		<tag k="ssr:stedsnr" v="937133" />
	</node>
	<node id="-1796" lat="58.4711721088" lon="6.57218027366">
		<tag k="name" v="Heimre Hultjørna" />
		<tag k="natural" v="water" />
		<tag k="ssr:stedsnr" v="816578" />
	</node>
	<node id="-1795" lat="58.4316611139" lon="6.52837499971">
		<tag k="name" v="Kallstjørnene" />
		<tag k="natural" v="water" />
		<tag k="ssr:stedsnr" v="816573" />
		<tag k="water" v="pond" />
	</node>
	<node id="-1793" lat="58.4946611103" lon="6.59846666468">
		<tag k="name" v="Røssetjørna" />
		<tag k="natural" v="water" />
		<tag k="ssr:stedsnr" v="816455" />
	</node>
	<node id="-1792" lat="58.552780551" lon="6.28638054806">
		<tag k="name" v="Vibøyna" />
		<tag k="place" v="island" />
		<tag k="ssr:stedsnr" v="816364" />
	</node>
	<node id="-1791" lat="58.5539138893" lon="6.28178333009">
		<tag k="name" v="Sandvik" />
		<tag k="natural" v="bay" />
		<tag k="ssr:stedsnr" v="816363" />
	</node>
	<node id="-1790" lat="58.5316638884" lon="6.35660277919">
		<tag k="name" v="Krigen" />
		<tag k="natural" v="beach" />
		<tag k="ssr:stedsnr" v="816313" />
	</node>
	<node id="-1789" lat="58.4771083346" lon="6.40669721708">
		<tag k="name" v="Røsshombekken" />
		<tag k="ssr:stedsnr" v="816666" />
		<tag k="waterway" v="stream" />
	</node>
	<node id="-1786" lat="58.4976722227" lon="6.33951389112">
		<tag k="name" v="Pyttatjørn" />
		<tag k="natural" v="water" />
		<tag k="ssr:stedsnr" v="816624" />
	</node>
	<node id="-1784" lat="58.4703833355" lon="6.49684167385">
		<tag k="name" v="Osestemmen" />
		<tag k="natural" v="water" />
		<tag k="ssr:stedsnr" v="816604" />
	</node>
	<node id="-1779" lat="58.4618277746" lon="6.30569999889">
		<tag k="name" v="Trolltjørn" />
		<tag k="natural" v="water" />
		<tag k="ssr:stedsnr" v="816162" />
	</node>
	<node id="-1772" lat="58.5610388851" lon="6.60671111105">
		<tag k="name" v="Svartetjørna" />
		<tag k="natural" v="water" />
		<tag k="ssr:stedsnr" v="816113" />
	</node>
	<node id="-1770" lat="58.3653601864" lon="6.4883063899">
		<tag k="name" v="Kringletjørnan" />
		<tag k="natural" v="water" />
		<tag k="ssr:stedsnr" v="789214" />
		<tag k="water" v="lake" />
	</node>
	<node id="-1767" lat="58.4348111142" lon="6.48673610436">
		<tag k="name" v="Meheivatnet" />
		<tag k="natural" v="water" />
		<tag k="ssr:stedsnr" v="788155" />
		<tag k="water" v="lake" />
	</node>
	<node id="-1766" lat="58.5099194439" lon="6.39566666787">
		<tag k="alt_name" v="Svartevatnet" />
		<tag k="name" v="Svartvatnet" />
		<tag k="natural" v="water" />
		<tag k="ssr:stedsnr" v="911982" />
	</node>
	<node id="-1764" lat="58.503036113" lon="6.55086110451">
		<tag k="name" v="Daurmålstjørna" />
		<tag k="natural" v="water" />
		<tag k="ssr:stedsnr" v="911532" />
	</node>
	<node id="-1763" lat="58.5036111117" lon="6.42846944123">
		<tag k="name" v="Røynevatnet" />
		<tag k="natural" v="water" />
		<tag k="ssr:stedsnr" v="911517" />
	</node>
	<node id="-1754" lat="58.5568166711" lon="6.60786388534">
		<tag k="alt_name" v="Nuttjørna" />
		<tag k="name" v="Nuttjørn" />
		<tag k="natural" v="water" />
		<tag k="ssr:stedsnr" v="910680" />
	</node>
	<node id="-1753" lat="58.3312048339" lon="6.48456211484">
		<tag k="name" v="Fisketjørn" />
		<tag k="natural" v="water" />
		<tag k="ssr:stedsnr" v="910240" />
	</node>
	<node id="-1752" lat="58.3929444487" lon="6.57823888901">
		<tag k="name" v="Eigestemmen" />
		<tag k="natural" v="water" />
		<tag k="ssr:stedsnr" v="910192" />
	</node>
	<node id="-1750" lat="58.4102805524" lon="6.50992499885">
		<tag k="name" v="Gullvatnet" />
		<tag k="natural" v="water" />
		<tag k="ssr:stedsnr" v="910136" />
	</node>
	<node id="-1749" lat="58.4895583316" lon="6.59860832934">
		<tag k="alt_name" v="indre Botnen" />
		<tag k="name" v="Botnetjørn" />
		<tag k="natural" v="water" />
		<tag k="ssr:stedsnr" v="910042" />
	</node>
	<node id="-1742" lat="58.390466671" lon="6.55057778467">
		<tag k="alt_name" v="ytre Fagervatn;ytre Fagervatnet" />
		<tag k="name" v="Fagervatnet" />
		<tag k="natural" v="water" />
		<tag k="ssr:stedsnr" v="728156" />
		<tag k="water" v="lake" />
	</node>
	<node id="-1740" lat="58.4535463103" lon="6.50864388689">
		<tag k="name" v="Svenstjørna" />
		<tag k="natural" v="water" />
		<tag k="ssr:stedsnr" v="695564" />
	</node>
	<node id="-1737" lat="58.4917111081" lon="6.57936667072">
		<tag k="name" v="Ellingåna" />
		<tag k="ssr:stedsnr" v="695466" />
		<tag k="waterway" v="river" />
	</node>
	<node id="-1734" lat="58.4734750039" lon="6.28439167101">
		<tag k="name" v="Alvika" />
		<tag k="natural" v="bay" />
		<tag k="ssr:stedsnr" v="695174" />
	</node>
	<node id="-1732" lat="58.4664666711" lon="6.3057833301">
		<tag k="name" v="Djubetjørna" />
		<tag k="natural" v="water" />
		<tag k="ssr:stedsnr" v="695169" />
	</node>
	<node id="-1730" lat="58.343436107" lon="6.55753332994">
		<tag k="name" v="Husefjelltjørna" />
		<tag k="natural" v="water" />
		<tag k="ssr:stedsnr" v="694774" />
	</node>
	<node id="-1728" lat="58.3678189398" lon="6.51355092007">
		<tag k="name" v="Nedre Legetjørn" />
		<tag k="natural" v="water" />
		<tag k="ssr:stedsnr" v="694754" />
	</node>
	<node id="-1727" lat="58.5668833357" lon="6.44887500328">
		<tag k="name" v="Teinevik" />
		<tag k="natural" v="bay" />
		<tag k="ssr:stedsnr" v="694471" />
	</node>
	<node id="-1726" lat="58.4590865274" lon="6.60819819824">
		<tag k="name" v="Lomstjørna" />
		<tag k="natural" v="water" />
		<tag k="ssr:stedsnr" v="694422" />
	</node>
	<node id="-1720" lat="58.555192655" lon="6.35737124485">
		<tag k="name" v="Ytra Sandvatn" />
		<tag k="natural" v="water" />
		<tag k="ssr:stedsnr" v="694358" />
		<tag k="water" v="lake" />
	</node>
	<node id="-1712" lat="58.4393611073" lon="6.32856667455">
		<tag k="name" v="Kjerringøya" />
		<tag k="place" v="island" />
		<tag k="ssr:stedsnr" v="694057" />
	</node>
	<node id="-1711" lat="58.4368361105" lon="6.33489444869">
		<tag k="name" v="Øystra Sundet" />
		<tag k="natural" v="strait" />
		<tag k="ssr:stedsnr" v="694056" />
	</node>
	<node id="-1710" lat="58.4774944489" lon="6.3344722249">
		<tag k="name" v="Litla Tjødnå" />
		<tag k="natural" v="water" />
		<tag k="ssr:stedsnr" v="694025" />
	</node>
	<node id="-1706" lat="58.6014472239" lon="6.55047777535">
		<tag k="name" v="Lomstjørna" />
		<tag k="natural" v="water" />
		<tag k="ssr:stedsnr" v="694119" />
	</node>
	<node id="-1703" lat="58.5633527817" lon="6.56431388139">
		<tag k="name" v="Stredå" />
		<tag k="ssr:stedsnr" v="694109" />
		<tag k="waterway" v="stream" />
	</node>
	<node id="-1702" lat="58.5764361069" lon="6.59087221991">
		<tag k="name" v="Takholdtbukta" />
		<tag k="natural" v="bay" />
		<tag k="ssr:stedsnr" v="694107" />
	</node>
	<node id="-1701" lat="58.5644333311" lon="6.49553334141">
		<tag k="name" v="Kalvanes" />
		<tag k="natural" v="cape" />
		<tag k="ssr:stedsnr" v="694106" />
	</node>
	<node id="-1699" lat="58.5041722233" lon="6.52197222498">
		<tag k="name" v="Tonåi" />
		<tag k="ssr:stedsnr" v="668541" />
		<tag k="waterway" v="stream" />
	</node>
	<node id="-1697" lat="58.5154968378" lon="6.56483843914">
		<tag k="name" v="Ljosvatnet" />
		<tag k="natural" v="water" />
		<tag k="ssr:stedsnr" v="668533" />
	</node>
	<node id="-1696" lat="58.5096166637" lon="6.5848305625">
		<tag k="name" v="Fiskelausvatnet" />
		<tag k="natural" v="water" />
		<tag k="ssr:stedsnr" v="668532" />
	</node>
	<node id="-1694" lat="58.3656141125" lon="6.54140391362">
		<tag k="name" v="Navrestadvatnet" />
		<tag k="natural" v="water" />
		<tag k="ssr:stedsnr" v="667224" />
	</node>
	<node id="-1693" lat="58.3700416632" lon="6.50416667114">
		<tag k="name" v="Kvellandsvatnet" />
		<tag k="natural" v="water" />
		<tag k="ssr:stedsnr" v="667223" />
	</node>
	<node id="-1691" lat="58.3593833313" lon="6.52250277199">
		<tag k="name" v="Heptetjørna" />
		<tag k="natural" v="water" />
		<tag k="ssr:stedsnr" v="667205" />
	</node>
	<node id="-1690" lat="58.4669611077" lon="6.50107777416">
		<tag k="name" v="Osetjørna" />
		<tag k="natural" v="water" />
		<tag k="ssr:stedsnr" v="877586" />
	</node>
	<node id="-1688" lat="58.4685250021" lon="6.61039999966">
		<tag k="name" v="Heimra Litjørn" />
		<tag k="natural" v="water" />
		<tag k="ssr:stedsnr" v="877472" />
	</node>
	<node id="-1687" lat="58.4757444425" lon="6.56552222238">
		<tag k="name" v="Sjøen" />
		<tag k="natural" v="water" />
		<tag k="ssr:stedsnr" v="877432" />
	</node>
	<node id="-1682" lat="58.463558331" lon="6.30586110335">
		<tag k="name" v="Sandtjørn" />
		<tag k="natural" v="water" />
		<tag k="ssr:stedsnr" v="877150" />
	</node>
	<node id="-1681" lat="58.3003142383" lon="6.47375738794">
		<tag k="name" v="Svarthøl" />
		<tag k="place" v="locality" />
		<tag k="ssr:stedsnr" v="876967" />
	</node>
	<node id="-1678" lat="58.3196361089" lon="6.51744444104">
		<tag k="name" v="Hollandstjørn" />
		<tag k="natural" v="water" />
		<tag k="ssr:stedsnr" v="876766" />
	</node>
	<node id="-1676" lat="58.3646583351" lon="6.52420555622">
		<tag k="name" v="Kvedlandstjørna" />
		<tag k="natural" v="water" />
		<tag k="ssr:stedsnr" v="876748" />
		<tag k="water" v="lake" />
	</node>
	<node id="-1673" lat="58.3696166656" lon="6.55727500209">
		<tag k="name" v="Takletjørn" />
		<tag k="natural" v="water" />
		<tag k="ssr:stedsnr" v="876727" />
	</node>
	<node id="-1670" lat="58.4265192512" lon="6.52701360234">
		<tag k="name" v="Litlestemmen" />
		<tag k="natural" v="water" />
		<tag k="ssr:stedsnr" v="876702" />
	</node>
	<node id="-1667" lat="58.4032277741" lon="6.52026388793">
		<tag k="name" v="Tangetjørn" />
		<tag k="natural" v="water" />
		<tag k="ssr:stedsnr" v="876686" />
	</node>
	<node id="-1666" lat="58.4071694455" lon="6.53037500455">
		<tag k="name" v="Krokvatnet" />
		<tag k="natural" v="water" />
		<tag k="ssr:stedsnr" v="876681" />
		<tag k="water" v="lake" />
	</node>
	<node id="-1663" lat="58.3969972242" lon="6.58580834083">
		<tag k="name" v="Nesodden" />
		<tag k="natural" v="cape" />
		<tag k="ssr:stedsnr" v="876602" />
	</node>
	<node id="-1662" lat="58.4276777797" lon="6.55569999394">
		<tag k="name" v="Lervika" />
		<tag k="natural" v="bay" />
		<tag k="ssr:stedsnr" v="876596" />
	</node>
	<node id="-1657" lat="58.39464167" lon="6.57201945263">
		<tag k="name" v="Hunnetjørn" />
		<tag k="natural" v="water" />
		<tag k="ssr:stedsnr" v="876580" />
		<tag k="water" v="pond" />
	</node>
	<node id="-1656" lat="58.4051833368" lon="6.58045832642">
		<tag k="name" v="Klubbevika" />
		<tag k="natural" v="bay" />
		<tag k="ssr:stedsnr" v="876575" />
	</node>
	<node id="-1651" lat="58.5054777778" lon="6.44997222445">
		<tag k="name" v="Fiskelaus" />
		<tag k="natural" v="water" />
		<tag k="ssr:stedsnr" v="876499" />
	</node>
	<node id="-1650" lat="58.5612888866" lon="6.48246666629">
		<tag k="name" v="Ålevik" />
		<tag k="natural" v="bay" />
		<tag k="ssr:stedsnr" v="876491" />
	</node>
	<node id="-1644" lat="58.447141665" lon="6.56355832701">
		<tag k="name" v="Stongå" />
		<tag k="natural" v="cape" />
		<tag k="ssr:stedsnr" v="876384" />
	</node>
	<node id="-1642" lat="58.5395388863" lon="6.37102777294">
		<tag k="name" v="Ikodnnes" />
		<tag k="natural" v="cape" />
		<tag k="ssr:stedsnr" v="876364" />
	</node>
	<node id="-1639" lat="58.5351416659" lon="6.30120834154">
		<tag k="name" v="Kvednabekken" />
		<tag k="ssr:stedsnr" v="876336" />
		<tag k="waterway" v="stream" />
	</node>
	<node id="-1637" lat="58.5454000021" lon="6.33775555039">
		<tag k="name" v="Raulandsbukta" />
		<tag k="natural" v="bay" />
		<tag k="ssr:stedsnr" v="876314" />
	</node>
	<node id="-1636" lat="58.532543532" lon="6.36790286051">
		<tag k="name" v="Kogletjørn" />
		<tag k="natural" v="water" />
		<tag k="ssr:stedsnr" v="876292" />
	</node>
	<node id="-1632" lat="58.5576645423" lon="6.40265079814">
		<tag k="name" v="Indra Askeskortjørna" />
		<tag k="natural" v="water" />
		<tag k="ssr:stedsnr" v="876274" />
	</node>
	<node id="-1625" lat="58.4996861137" lon="6.57974999174">
		<tag k="name" v="Marihola" />
		<tag k="natural" v="water" />
		<tag k="ssr:stedsnr" v="876218" />
	</node>
	<node id="-1622" lat="58.5061861075" lon="6.44442223076">
		<tag k="alt_name" v="Ribuvatnet (Mårdalstjørna)" />
		<tag k="name" v="Rebuvatnet" />
		<tag k="natural" v="water" />
		<tag k="ssr:stedsnr" v="729993" />
	</node>
	<node id="-1607" lat="58.5685682577" lon="6.58938047083">
		<tag k="alt_name" v="Vigelandsvatnet" />
		<tag k="name" v="Viglandsvatnet" />
		<tag k="natural" v="water" />
		<tag k="ssr:stedsnr" v="728905" />
		<tag k="water" v="lake" />
	</node>
	<node id="-1603" lat="58.4521750035" lon="6.31181389394">
		<tag k="name" v="Tosketjørna" />
		<tag k="natural" v="water" />
		<tag k="ssr:stedsnr" v="728890" />
	</node>
	<node id="-1601" lat="58.591786111" lon="6.5120000028">
		<tag k="alt_name" v="Rusdalsåni" />
		<tag k="name" v="Rusdalsåna" />
		<tag k="ssr:stedsnr" v="728877" />
		<tag k="waterway" v="river" />
	</node>
	<node id="-1600" lat="58.44506389" lon="6.51105834005">
		<tag k="name" v="Bjørnstjørna" />
		<tag k="natural" v="water" />
		<tag k="ssr:stedsnr" v="728868" />
	</node>
	<node id="-1599" lat="58.6183499965" lon="6.53853610794">
		<tag k="name" v="Langetjørna" />
		<tag k="natural" v="water" />
		<tag k="ssr:stedsnr" v="728829" />
	</node>
	<node id="-1595" lat="58.4223305544" lon="6.34127222045">
		<tag k="name" v="Gjeiskånbukta" />
		<tag k="natural" v="bay" />
		<tag k="ssr:stedsnr" v="634260" />
	</node>
	<node id="-1591" lat="58.3789222179" lon="6.57192500164">
		<tag k="name" v="Stemmen" />
		<tag k="natural" v="water" />
		<tag k="ssr:stedsnr" v="633772" />
	</node>
	<node id="-1589" lat="58.3623783406" lon="6.52643098243">
		<tag k="name" v="Lonan" />
		<tag k="natural" v="water" />
		<tag k="ssr:stedsnr" v="633753" />
		<tag k="water" v="lake" />
	</node>
	<node id="-1584" lat="58.4101421352" lon="6.58027846064">
		<tag k="name" v="Neset" />
		<tag k="natural" v="cape" />
		<tag k="ssr:stedsnr" v="633623" />
	</node>
	<node id="-1573" lat="58.5281138878" lon="6.49406111569">
		<tag k="name" v="Øynå" />
		<tag k="place" v="islet" />
		<tag k="ssr:stedsnr" v="633209" />
	</node>
	<node id="-1568" lat="58.4044194403" lon="6.54673888979">
		<tag k="name" v="Fagervatnet" />
		<tag k="natural" v="water" />
		<tag k="ssr:stedsnr" v="728149" />
		<tag k="water" v="lake" />
	</node>
	<node id="-1566" lat="58.4272490746" lon="6.49947534117">
		<tag k="name" v="Madbrunn" />
		<tag k="natural" v="water" />
		<tag k="ssr:stedsnr" v="728111" />
		<tag k="water" v="lake" />
	</node>
	<node id="-1563" lat="58.3380861092" lon="6.50777499924">
		<tag k="name" v="Kleggdalstjørna" />
		<tag k="natural" v="water" />
		<tag k="ssr:stedsnr" v="728214" />
	</node>
	<node id="-1561" lat="58.5242786276" lon="6.41746545581">
		<tag k="alt_name" v="Gjuvvotni;Juvvatnet" />
		<tag k="name" v="Gjuvvatnet" />
		<tag k="natural" v="water" />
		<tag k="ssr:stedsnr" v="606959" />
		<tag k="water" v="lake" />
	</node>
	<node id="-1558" lat="58.4853777782" lon="6.60768888373">
		<tag k="alt_name" v="Stuttjørna" />
		<tag k="name" v="Stuttjørn" />
		<tag k="natural" v="water" />
		<tag k="ssr:stedsnr" v="606027" />
	</node>
	<node id="-1549" lat="58.3448402293" lon="6.50636404011">
		<tag k="name" v="Krossdalstjørna" />
		<tag k="natural" v="water" />
		<tag k="ssr:stedsnr" v="573710" />
	</node>
	<node id="-1548" lat="58.3626611072" lon="6.58967221638">
		<tag k="name" v="Elnes" />
		<tag k="natural" v="cape" />
		<tag k="ssr:stedsnr" v="573702" />
	</node>
	<node id="-1544" lat="58.3958388874" lon="6.524711108">
		<tag k="name" v="Stemmetjørn" />
		<tag k="natural" v="water" />
		<tag k="ssr:stedsnr" v="573684" />
	</node>
	<node id="-1529" lat="58.5078861144" lon="6.38955000334">
		<tag k="name" v="Øvre Gomitjørna" />
		<tag k="natural" v="water" />
		<tag k="ssr:stedsnr" v="572308" />
	</node>
	<node id="-1524" lat="58.4847361111" lon="6.35231110837">
		<tag k="name" v="Løeneset" />
		<tag k="natural" v="cape" />
		<tag k="ssr:stedsnr" v="572127" />
	</node>
	<node id="-1519" lat="58.4438027786" lon="6.60941111248">
		<tag k="name" v="Svartebekken" />
		<tag k="ssr:stedsnr" v="695480" />
		<tag k="waterway" v="stream" />
	</node>
	<node id="-1515" lat="58.4648583306" lon="6.36491667325">
		<tag k="name" v="Tjønndibelen" />
		<tag k="place" v="locality" />
		<tag k="ssr:stedsnr" v="695191" />
	</node>
	<node id="-1512" lat="58.3132277778" lon="6.49766111724">
		<tag k="name" v="Elvevika" />
		<tag k="natural" v="bay" />
		<tag k="ssr:stedsnr" v="694736" />
	</node>
	<node id="-1510" lat="58.3487083295" lon="6.55304999213">
		<tag k="name" v="Forkamtjørn" />
		<tag k="natural" v="water" />
		<tag k="ssr:stedsnr" v="694697" />
	</node>
	<node id="-1508" lat="58.3558653322" lon="6.50095687263">
		<tag k="name" v="Voreknuttjørna" />
		<tag k="natural" v="water" />
		<tag k="ssr:stedsnr" v="694692" />
	</node>
	<node id="-1503" lat="58.4712861079" lon="6.40005277178">
		<tag k="name" v="Monatjørn" />
		<tag k="natural" v="water" />
		<tag k="ssr:stedsnr" v="694648" />
	</node>
	<node id="-1496" lat="58.5118722267" lon="6.46212777835">
		<tag k="name" v="Stemmetjørna" />
		<tag k="natural" v="water" />
		<tag k="ssr:stedsnr" v="694536" />
	</node>
	<node id="-1495" lat="58.5464722219" lon="6.37057221569">
		<tag k="name" v="Stemmetjørn" />
		<tag k="natural" v="water" />
		<tag k="ssr:stedsnr" v="694352" />
	</node>
	<node id="-1493" lat="58.5528722243" lon="6.31663054715">
		<tag k="name" v="Laksatjørna" />
		<tag k="natural" v="water" />
		<tag k="ssr:stedsnr" v="694335" />
	</node>
	<node id="-1483" lat="58.5432333356" lon="6.32910000167">
		<tag k="name" v="Staurvik" />
		<tag k="natural" v="bay" />
		<tag k="ssr:stedsnr" v="694290" />
	</node>
	<node id="-1479" lat="58.5084055513" lon="6.49289444501">
		<tag k="name" v="Kvednhusbekken" />
		<tag k="ssr:stedsnr" v="694201" />
		<tag k="waterway" v="stream" />
	</node>
	<node id="-1474" lat="58.5355222185" lon="6.53969722515">
		<tag k="name" v="Furutangen" />
		<tag k="natural" v="cape" />
		<tag k="ssr:stedsnr" v="694174" />
	</node>
	<node id="-1473" lat="58.5322167752" lon="6.59243718849">
		<tag k="name" v="Moltjørnan" />
		<tag k="natural" v="water" />
		<tag k="ssr:stedsnr" v="694158" />
		<tag k="water" v="lake" />
	</node>
	<node id="-1470" lat="58.6037583303" lon="6.51135555052">
		<tag k="name" v="Blokketjørna" />
		<tag k="natural" v="water" />
		<tag k="ssr:stedsnr" v="694082" />
	</node>
	<node id="-1466" lat="58.480580554" lon="6.58442499858">
		<tag k="name" v="Auså" />
		<tag k="natural" v="bay" />
		<tag k="ssr:stedsnr" v="513465" />
	</node>
	<node id="-1463" lat="58.3194333379" lon="6.48263333572">
		<tag k="name" v="Svartetjørn" />
		<tag k="natural" v="water" />
		<tag k="ssr:stedsnr" v="512923" />
	</node>
	<node id="-1462" lat="58.516038888" lon="6.45717221714">
		<tag k="name" v="Ronnatjørna" />
		<tag k="natural" v="water" />
		<tag k="ssr:stedsnr" v="512488" />
	</node>
	<node id="-1461" lat="58.6207138856" lon="6.6034361117">
		<tag k="name" v="Øvre Fiskeløys" />
		<tag k="natural" v="water" />
		<tag k="ssr:stedsnr" v="512460" />
		<tag k="water" v="lake" />
	</node>
	<node id="-1448" lat="58.492097221" lon="6.35147777419">
		<tag k="name" v="Vormevik" />
		<tag k="natural" v="bay" />
		<tag k="ssr:stedsnr" v="512103" />
	</node>
	<node id="-1445" lat="58.508886113" lon="6.51200833781">
		<tag k="alt_name" v="Storåni" />
		<tag k="name" v="Storåna" />
		<tag k="ssr:stedsnr" v="486163" />
		<tag k="waterway" v="river" />
	</node>
	<node id="-1441" lat="58.5358194426" lon="6.35147222351">
		<tag k="name" v="Mjåsund" />
		<tag k="natural" v="strait" />
		<tag k="ssr:stedsnr" v="485961" />
	</node>
	<node id="-1438" lat="58.6181388914" lon="6.53085000219">
		<tag k="name" v="Åretjørna" />
		<tag k="natural" v="water" />
		<tag k="ssr:stedsnr" v="485821" />
	</node>
	<node id="-1436" lat="58.5355645405" lon="6.42687029572">
		<tag k="alt_name" v="Krokvotni" />
		<tag k="name" v="Krokvatna" />
		<tag k="natural" v="water" />
		<tag k="ssr:stedsnr" v="668929" />
		<tag k="water" v="lake" />
	</node>
	<node id="-1435" lat="58.440454891" lon="6.54011832837">
		<tag k="alt_name" v="Heiavatnet" />
		<tag k="name" v="Leidingstjørna" />
		<tag k="natural" v="water" />
		<tag k="ssr:stedsnr" v="668887" />
		<tag k="water" v="lake" />
	</node>
	<node id="-1431" lat="58.5242333375" lon="6.56022777001">
		<tag k="alt_name" v="Sætraåni" />
		<tag k="name" v="Sætraåna" />
		<tag k="ssr:stedsnr" v="667961" />
		<tag k="waterway" v="stream" />
	</node>
	<node id="-1429" lat="58.5295805532" lon="6.27819722771">
		<tag k="alt_name" v="Svartevatn" />
		<tag k="name" v="Svartevatnet" />
		<tag k="natural" v="water" />
		<tag k="ssr:stedsnr" v="667947" />
	</node>
	<node id="-1428" lat="58.4997944478" lon="6.33993888162">
		<tag k="name" v="Stemmetjørna" />
		<tag k="natural" v="water" />
		<tag k="ssr:stedsnr" v="667944" />
	</node>
	<node id="-1426" lat="58.5578777753" lon="6.59101388459">
		<tag k="alt_name" v="Sandåni" />
		<tag k="name" v="Sandåna" />
		<tag k="ssr:stedsnr" v="667926" />
		<tag k="waterway" v="stream" />
	</node>
	<node id="-1425" lat="58.479002782" lon="6.32899721352">
		<tag k="name" v="Kåretjørna" />
		<tag k="natural" v="water" />
		<tag k="ssr:stedsnr" v="667920" />
	</node>
	<node id="-1424" lat="58.4957777818" lon="6.58528056036">
		<tag k="name" v="Hestvatnet" />
		<tag k="natural" v="water" />
		<tag k="ssr:stedsnr" v="667914" />
	</node>
	<node id="-1418" lat="58.4575777754" lon="6.48730555807">
		<tag k="name" v="Fiskelaus" />
		<tag k="natural" v="water" />
		<tag k="ssr:stedsnr" v="667886" />
	</node>
	<node id="-1415" lat="58.4632473853" lon="6.48093381138">
		<tag k="name" v="Langavatnet" />
		<tag k="natural" v="water" />
		<tag k="ssr:stedsnr" v="667875" />
	</node>
	<node id="-1414" lat="58.5889999959" lon="6.49336110661">
		<tag k="alt_name" v="Brekkebekk" />
		<tag k="name" v="Brekkebekken" />
		<tag k="ssr:stedsnr" v="667874" />
		<tag k="waterway" v="stream" />
	</node>
	<node id="-1411" lat="58.4319805561" lon="6.51749722879">
		<tag k="name" v="Storestemmen" />
		<tag k="natural" v="water" />
		<tag k="ssr:stedsnr" v="667170" />
	</node>
	<node id="-1408" lat="58.3723249999" lon="6.55944165826">
		<tag k="name" v="Lomstjørn" />
		<tag k="natural" v="water" />
		<tag k="ssr:stedsnr" v="452721" />
	</node>
	<node id="-1403" lat="58.4832722236" lon="6.28516944852">
		<tag k="name" v="Pinøy" />
		<tag k="place" v="islet" />
		<tag k="ssr:stedsnr" v="452106" />
	</node>
	<node id="-1402" lat="58.5338833326" lon="6.46089165908">
		<tag k="name" v="Førlibekken" />
		<tag k="ssr:stedsnr" v="452225" />
		<tag k="waterway" v="stream" />
	</node>
	<node id="-1396" lat="58.4858361085" lon="6.35716389253">
		<tag k="name" v="Heskestadvatnet" />
		<tag k="natural" v="water" />
		<tag k="ssr:stedsnr" v="425921" />
		<tag k="water" v="lake" />
	</node>
	<node id="-1394" lat="58.5617188669" lon="6.48941579531">
		<tag k="name" v="Rusdalsvatnet" />
		<tag k="natural" v="water" />
		<tag k="ssr:stedsnr" v="425913" />
		<tag k="water" v="lake" />
	</node>
	<node id="-1393" lat="58.5652027764" lon="6.43969166628">
		<tag k="name" v="Førlandsvatnet" />
		<tag k="natural" v="water" />
		<tag k="ssr:stedsnr" v="425911" />
		<tag k="water" v="lake" />
	</node>
	<node id="-1392" lat="58.5498777742" lon="6.33998055221">
		<tag k="alt_name" v="Nordåni" />
		<tag k="name" v="Nordåna" />
		<tag k="ssr:stedsnr" v="425905" />
		<tag k="waterway" v="stream" />
	</node>
	<node id="-1391" lat="58.4700416703" lon="6.32377778133">
		<tag k="name" v="Iglatjørna" />
		<tag k="natural" v="water" />
		<tag k="ssr:stedsnr" v="425904" />
	</node>
	<node id="-1390" lat="58.4845639143" lon="6.60044649726">
		<tag k="name" v="Fiskelaus" />
		<tag k="natural" v="water" />
		<tag k="ssr:stedsnr" v="425026" />
	</node>
	<node id="-1377" lat="58.4786217136" lon="6.59536645843">
		<tag k="name" v="Sprangstjørn" />
		<tag k="natural" v="water" />
		<tag k="ssr:stedsnr" v="513470" />
	</node>
	<node id="-1363" lat="58.3975305585" lon="6.529455554">
		<tag k="name" v="Lilandsstemmen" />
		<tag k="natural" v="water" />
		<tag k="ssr:stedsnr" v="512720" />
	</node>
	<node id="-1359" lat="58.4936944471" lon="6.48086944632">
		<tag k="name" v="Sagåna" />
		<tag k="ssr:stedsnr" v="512627" />
		<tag k="waterway" v="stream" />
	</node>
	<node id="-1357" lat="58.4126333364" lon="6.57660277604">
		<tag k="name" v="Kjeldesvika" />
		<tag k="natural" v="bay" />
		<tag k="ssr:stedsnr" v="512612" />
	</node>
	<node id="-1354" lat="58.4561805593" lon="6.4721916588">
		<tag k="name" v="Støtjørna" />
		<tag k="natural" v="water" />
		<tag k="ssr:stedsnr" v="512695" />
		<tag k="water" v="pond" />
	</node>
	<node id="-1346" lat="58.5183972209" lon="6.28827777073">
		<tag k="name" v="Kviknudtjørn" />
		<tag k="natural" v="water" />
		<tag k="ssr:stedsnr" v="512348" />
	</node>
	<node id="-1336" lat="58.5530638864" lon="6.51058055113">
		<tag k="name" v="Stølstjørna" />
		<tag k="natural" v="water" />
		<tag k="ssr:stedsnr" v="512214" />
	</node>
	<node id="-1325" lat="58.5069055538" lon="6.48732777711">
		<tag k="name" v="Stemmetjørna" />
		<tag k="natural" v="water" />
		<tag k="ssr:stedsnr" v="512574" />
	</node>
	<node id="-1320" lat="58.5662777815" lon="6.39850555068">
		<tag k="name" v="Fureneset" />
		<tag k="natural" v="cape" />
		<tag k="ssr:stedsnr" v="512496" />
	</node>
	<node id="-1308" lat="58.397788886" lon="6.56687222116">
		<tag k="name" v="Stemmetjørn" />
		<tag k="natural" v="water" />
		<tag k="ssr:stedsnr" v="391608" />
	</node>
	<node id="-1298" lat="58.5485777775" lon="6.47062778587">
		<tag k="name" v="Risdalsbekken" />
		<tag k="ssr:stedsnr" v="391264" />
		<tag k="waterway" v="stream" />
	</node>
	<node id="-1294" lat="58.5380138881" lon="6.3307583274">
		<tag k="name" v="Krogavika" />
		<tag k="natural" v="bay" />
		<tag k="ssr:stedsnr" v="391313" />
	</node>
	<node id="-1285" lat="58.5165725874" lon="6.58073696938">
		<tag k="name" v="Rundtjørna" />
		<tag k="natural" v="water" />
		<tag k="ssr:stedsnr" v="486998" />
	</node>
	<node id="-1283" lat="58.517260454" lon="6.41458977622">
		<tag k="name" v="Bråtjørna" />
		<tag k="natural" v="water" />
		<tag k="ssr:stedsnr" v="486976" />
	</node>
	<node id="-1281" lat="58.5139472182" lon="6.54303333217">
		<tag k="alt_name" v="Liåni;Litlåna" />
		<tag k="name" v="Liåna" />
		<tag k="ssr:stedsnr" v="486532" />
		<tag k="waterway" v="stream" />
	</node>
	<node id="-1280" lat="58.5067777785" lon="6.38545000034">
		<tag k="fixme" v="multiple name tags, choose one and add the other to alt_name" />
		<tag k="name" v="Nedre Gomitjørna;Kompetjørna" />
		<tag k="natural" v="water" />
		<tag k="ssr:stedsnr" v="486529" />
	</node>
	<node id="-1272" lat="58.5889722234" lon="6.47634999623">
		<tag k="name" v="Orretjørna" />
		<tag k="natural" v="water" />
		<tag k="ssr:stedsnr" v="485883" />
	</node>
	<node id="-1271" lat="58.4319083314" lon="6.33174999459">
		<tag k="name" v="Birkenes" />
		<tag k="natural" v="cape" />
		<tag k="ssr:stedsnr" v="485876" />
	</node>
	<node id="-1270" lat="58.449116665" lon="6.5248138933">
		<tag k="name" v="Eigelandsvatnet" />
		<tag k="natural" v="water" />
		<tag k="ssr:stedsnr" v="485870" />
		<tag k="water" v="lake" />
	</node>
	<node id="-1269" lat="58.3239500028" lon="6.48116943875">
		<tag k="name" v="Grodomtjørna" />
		<tag k="natural" v="water" />
		<tag k="ssr:stedsnr" v="485188" />
	</node>
	<node id="-1266" lat="58.3724388883" lon="6.5306972211">
		<tag k="name" v="Noratjørn" />
		<tag k="natural" v="water" />
		<tag k="ssr:stedsnr" v="330807" />
	</node>
	<node id="-1265" lat="58.3725777771" lon="6.54297222508">
		<tag k="name" v="Lonan" />
		<tag k="natural" v="water" />
		<tag k="ssr:stedsnr" v="330804" />
		<tag k="water" v="lake" />
	</node>
	<node id="-1262" lat="58.56851944" lon="6.48473888282">
		<tag k="name" v="Espenes" />
		<tag k="natural" v="cape" />
		<tag k="ssr:stedsnr" v="330516" />
	</node>
	<node id="-1256" lat="58.4398055544" lon="6.5867805478">
		<tag k="name" v="Neset" />
		<tag k="natural" v="cape" />
		<tag k="ssr:stedsnr" v="330417" />
	</node>
	<node id="-1247" lat="58.449705559" lon="6.34035555478">
		<tag k="name" v="Kjerdalsbukta" />
		<tag k="natural" v="bay" />
		<tag k="ssr:stedsnr" v="330105" />
	</node>
	<node id="-1246" lat="58.4443083363" lon="6.33374444736">
		<tag k="name" v="Hølen" />
		<tag k="natural" v="bay" />
		<tag k="ssr:stedsnr" v="330103" />
	</node>
	<node id="-1232" lat="58.4673583375" lon="6.37868333542">
		<tag k="name" v="Ligningstjørna" />
		<tag k="natural" v="water" />
		<tag k="ssr:stedsnr" v="303905" />
	</node>
	<node id="-1231" lat="58.3152888904" lon="6.52579722497">
		<tag k="name" v="Lundevatnet" />
		<tag k="natural" v="water" />
		<tag k="ssr:stedsnr" v="303152" />
		<tag k="water" v="lake" />
	</node>
	<node id="-1227" lat="58.4650026151" lon="6.49350200028">
		<tag k="name" v="Johanstjørna" />
		<tag k="natural" v="water" />
		<tag k="ssr:stedsnr" v="270557" />
	</node>
	<node id="-1226" lat="58.444047221" lon="6.40113054743">
		<tag k="name" v="Smådalsvika" />
		<tag k="natural" v="bay" />
		<tag k="ssr:stedsnr" v="270676" />
	</node>
	<node id="-1224" lat="58.4625861132" lon="6.48533610467">
		<tag k="name" v="Halsen" />
		<tag k="natural" v="strait" />
		<tag k="ssr:stedsnr" v="270673" />
	</node>
	<node id="-1223" lat="58.4456861101" lon="6.39333610293">
		<tag k="name" v="Halsen" />
		<tag k="natural" v="strait" />
		<tag k="ssr:stedsnr" v="270662" />
	</node>
	<node id="-1221" lat="58.418955555" lon="6.57738055273">
		<tag k="name" v="Haukenesodden" />
		<tag k="natural" v="cape" />
		<tag k="ssr:stedsnr" v="270613" />
	</node>
	<node id="-1217" lat="58.457122221" lon="6.32333888601">
		<tag k="name" v="Voilane" />
		<tag k="natural" v="beach" />
		<tag k="ssr:stedsnr" v="270161" />
	</node>
	<node id="-1211" lat="58.483719448" lon="6.28851388969">
		<tag k="name" v="Gåsenebben" />
		<tag k="natural" v="cape" />
		<tag k="ssr:stedsnr" v="270119" />
	</node>
	<node id="-1209" lat="58.5156277813" lon="6.36931389574">
		<tag k="name" v="Ualandsåna" />
		<tag k="ssr:stedsnr" v="269557" />
		<tag k="waterway" v="river" />
	</node>
	<node id="-1204" lat="58.5402638864" lon="6.32881944635">
		<tag k="name" v="Neset" />
		<tag k="natural" v="cape" />
		<tag k="ssr:stedsnr" v="269325" />
	</node>
	<node id="-1203" lat="58.5348972181" lon="6.33158055649">
		<tag k="name" v="Bilstadtjørna" />
		<tag k="natural" v="water" />
		<tag k="ssr:stedsnr" v="269318" />
	</node>
	<node id="-1199" lat="58.4980814463" lon="6.28969891486">
		<tag k="name" v="Nordra Tjødnå" />
		<tag k="natural" v="water" />
		<tag k="ssr:stedsnr" v="269408" />
	</node>
	<node id="-1198" lat="58.5494833354" lon="6.45037778418">
		<tag k="name" v="Hågetjørna" />
		<tag k="natural" v="water" />
		<tag k="ssr:stedsnr" v="269273" />
	</node>
	<node id="-1193" lat="58.3086111101" lon="6.49593889272">
		<tag k="name" v="Nesodden" />
		<tag k="natural" v="cape" />
		<tag k="ssr:stedsnr" v="452756" />
	</node>
	<node id="-1185" lat="58.391999996" lon="6.56917222341">
		<tag k="name" v="Røyrtjørn" />
		<tag k="natural" v="water" />
		<tag k="ssr:stedsnr" v="452601" />
	</node>
	<node id="-1177" lat="58.4472999999" lon="6.5039138914">
		<tag k="name" v="Granholstjørna" />
		<tag k="natural" v="water" />
		<tag k="ssr:stedsnr" v="452538" />
	</node>
	<node id="-1170" lat="58.4392527756" lon="6.6010027749">
		<tag k="name" v="Klubben" />
		<tag k="natural" v="cape" />
		<tag k="ssr:stedsnr" v="452474" />
	</node>
	<node id="-1169" lat="58.4483166708" lon="6.61433888922">
		<tag k="name" v="Svartetjørna" />
		<tag k="natural" v="water" />
		<tag k="ssr:stedsnr" v="452466" />
	</node>
	<node id="-1167" lat="58.4780444436" lon="6.51513056222">
		<tag k="name" v="Lynberneset" />
		<tag k="natural" v="cape" />
		<tag k="ssr:stedsnr" v="452449" />
	</node>
	<node id="-1161" lat="58.6052722178" lon="6.55139165976">
		<tag k="alt_name" v="Kvidingspodlen" />
		<tag k="name" v="Kvidingspollane" />
		<tag k="place" v="locality" />
		<tag k="ssr:stedsnr" v="452094" />
	</node>
	<node id="-1152" lat="58.4543055568" lon="6.34185555667">
		<tag k="name" v="Bukkaodden" />
		<tag k="natural" v="cape" />
		<tag k="ssr:stedsnr" v="452169" />
	</node>
	<node id="-1150" lat="58.5246972234" lon="6.59619722272">
		<tag k="name" v="Blokketjørna" />
		<tag k="natural" v="water" />
		<tag k="ssr:stedsnr" v="452158" />
	</node>
	<node id="-1142" lat="58.4425194469" lon="6.32942777425">
		<tag k="name" v="Hetlestø" />
		<tag k="natural" v="beach" />
		<tag k="ssr:stedsnr" v="452070" />
	</node>
	<node id="-1138" lat="58.5464305542" lon="6.30068055966">
		<tag k="name" v="Seljeneset" />
		<tag k="natural" v="cape" />
		<tag k="ssr:stedsnr" v="451373" />
	</node>
	<node id="-1137" lat="58.5474138845" lon="6.29750833157">
		<tag k="name" v="Lauvneset" />
		<tag k="natural" v="cape" />
		<tag k="ssr:stedsnr" v="451372" />
	</node>
	<node id="-1132" lat="58.4342444431" lon="6.32752500704">
		<tag k="name" v="Rossenes" />
		<tag k="natural" v="cape" />
		<tag k="ssr:stedsnr" v="243872" />
	</node>
	<node id="-1131" lat="58.5804388864" lon="6.47296388626">
		<tag k="name" v="Langavatnet" />
		<tag k="natural" v="water" />
		<tag k="ssr:stedsnr" v="243864" />
		<tag k="water" v="lake" />
	</node>
	<node id="-1130" lat="58.5271082293" lon="6.29935151538">
		<tag k="name" v="Holmavatnet" />
		<tag k="natural" v="water" />
		<tag k="ssr:stedsnr" v="243970" />
		<tag k="water" v="lake" />
	</node>
	<node id="-1129" lat="58.4929826864" lon="6.50175405764">
		<tag k="name" v="Hovsvatnet" />
		<tag k="natural" v="water" />
		<tag k="ssr:stedsnr" v="243924" />
		<tag k="water" v="lake" />
	</node>
	<node id="-1128" lat="58.4600694456" lon="6.38888055951">
		<tag k="name" v="Ånstjørna" />
		<tag k="natural" v="water" />
		<tag k="ssr:stedsnr" v="243915" />
	</node>
	<node id="-1127" lat="58.4797583375" lon="6.54401666221">
		<tag k="name" v="Mjåvatnet" />
		<tag k="natural" v="water" />
		<tag k="ssr:stedsnr" v="243907" />
		<tag k="water" v="lake" />
	</node>
	<node id="-1123" lat="58.5102055524" lon="6.43280555643">
		<tag k="name" v="Tristølvatnet" />
		<tag k="natural" v="water" />
		<tag k="ssr:stedsnr" v="243166" />
		<tag k="water" v="lake" />
	</node>
	<node id="-1121" lat="58.377530556" lon="6.54644722428">
		<tag k="name" v="Godvatnet" />
		<tag k="natural" v="water" />
		<tag k="ssr:stedsnr" v="243160" />
	</node>
	<node id="-1120" lat="58.3894583304" lon="6.56267778047">
		<tag k="name" v="Krogvatnet" />
		<tag k="natural" v="water" />
		<tag k="ssr:stedsnr" v="243156" />
	</node>
	<node id="-1117" lat="58.4902888926" lon="6.38373611582">
		<tag k="name" v="Tverrå" />
		<tag k="ssr:stedsnr" v="209613" />
		<tag k="waterway" v="river" />
	</node>
	<node id="-1114" lat="58.3728207067" lon="6.55210767832">
		<tag k="name" v="Forkamtjørna" />
		<tag k="natural" v="water" />
		<tag k="ssr:stedsnr" v="209723" />
	</node>
	<node id="-1111" lat="58.480320548" lon="6.53493265859">
		<tag k="name" v="Stemmen" />
		<tag k="natural" v="water" />
		<tag k="ssr:stedsnr" v="209439" />
	</node>
	<node id="-1109" lat="58.4843555571" lon="6.54323055742">
		<tag k="name" v="Bukketjørna" />
		<tag k="natural" v="water" />
		<tag k="ssr:stedsnr" v="209420" />
	</node>
	<node id="-1106" lat="58.4392944465" lon="6.58686388755">
		<tag k="name" v="Nesodden" />
		<tag k="natural" v="cape" />
		<tag k="ssr:stedsnr" v="209412" />
	</node>
	<node id="-1099" lat="58.5813611099" lon="6.58078334186">
		<tag k="name" v="Sollibukta" />
		<tag k="natural" v="bay" />
		<tag k="ssr:stedsnr" v="209119" />
	</node>
	<node id="-1095" lat="58.4877333326" lon="6.35908332613">
		<tag k="name" v="Sauaneset" />
		<tag k="natural" v="cape" />
		<tag k="ssr:stedsnr" v="209111" />
	</node>
	<node id="-1092" lat="58.4895939637" lon="6.30144278924">
		<tag k="name" v="Dybingsvatnet" />
		<tag k="natural" v="water" />
		<tag k="ssr:stedsnr" v="295954" />
		<tag k="water" v="lake" />
	</node>
	<node id="-1088" lat="58.4778583309" lon="6.31669167494">
		<tag k="name" v="Langetjørna" />
		<tag k="natural" v="water" />
		<tag k="ssr:stedsnr" v="182923" />
	</node>
	<node id="-1086" lat="58.5448527753" lon="6.34745555128">
		<tag k="name" v="Kalvaneset" />
		<tag k="natural" v="cape" />
		<tag k="ssr:stedsnr" v="182920" />
	</node>
	<node id="-1085" lat="58.4936305585" lon="6.4004055533">
		<tag k="name" v="Svartevatnet" />
		<tag k="natural" v="water" />
		<tag k="ssr:stedsnr" v="182916" />
	</node>
	<node id="-1084" lat="58.5495131043" lon="6.27519631346">
		<tag k="name" v="Teksevatnet" />
		<tag k="natural" v="water" />
		<tag k="ssr:stedsnr" v="182902" />
		<tag k="water" v="lake" />
	</node>
	<node id="-1083" lat="58.6012361081" lon="6.55737221972">
		<tag k="name" v="Solliåna" />
		<tag k="ssr:stedsnr" v="182852" />
		<tag k="waterway" v="stream" />
	</node>
	<node id="-1071" lat="58.3960305513" lon="6.5216055526">
		<tag k="name" v="Tonebergtjørn" />
		<tag k="natural" v="water" />
		<tag k="ssr:stedsnr" v="148717" />
	</node>
	<node id="-1067" lat="58.3895250039" lon="6.56859166059">
		<tag k="name" v="Krokapollen" />
		<tag k="natural" v="water" />
		<tag k="ssr:stedsnr" v="148611" />
		<tag k="water" v="pond" />
	</node>
	<node id="-1066" lat="58.3954199828" lon="6.5693951573">
		<tag k="name" v="Langetjørn" />
		<tag k="natural" v="water" />
		<tag k="ssr:stedsnr" v="148604" />
	</node>
	<node id="-1065" lat="58.4014472192" lon="6.56561389714">
		<tag k="name" v="Deblan" />
		<tag k="natural" v="water" />
		<tag k="ssr:stedsnr" v="148603" />
	</node>
	<node id="-1060" lat="58.5273138859" lon="6.2902888819">
		<tag k="name" v="Tverrlitjørn" />
		<tag k="natural" v="water" />
		<tag k="ssr:stedsnr" v="148364" />
	</node>
	<node id="-1059" lat="58.5201555557" lon="6.29190832922">
		<tag k="name" v="Ormetjørn" />
		<tag k="natural" v="water" />
		<tag k="ssr:stedsnr" v="148361" />
	</node>
	<node id="-1053" lat="58.5593333294" lon="6.44291388685">
		<tag k="name" v="Poddetjørna" />
		<tag k="natural" v="water" />
		<tag k="ssr:stedsnr" v="148271" />
	</node>
	<node id="-1046" lat="58.5691916688" lon="6.5602083262">
		<tag k="name" v="Høydalstjørna" />
		<tag k="natural" v="water" />
		<tag k="ssr:stedsnr" v="148120" />
	</node>
	<node id="-1045" lat="58.4779860607" lon="6.29107027277">
		<tag k="name" v="Fjosatjørn" />
		<tag k="natural" v="water" />
		<tag k="ssr:stedsnr" v="148119" />
	</node>
	<node id="-1043" lat="58.5672472227" lon="6.59351111883">
		<tag k="name" v="Øyan" />
		<tag k="place" v="island" />
		<tag k="ssr:stedsnr" v="148113" />
	</node>
	<node id="-1039" lat="58.3826579294" lon="6.53930389871">
		<tag k="name" v="Nedre Lonen" />
		<tag k="natural" v="water" />
		<tag k="ssr:stedsnr" v="270750" />
		<tag k="water" v="lake" />
	</node>
	<node id="-1037" lat="58.3102388885" lon="6.50093611807">
		<tag k="name" v="Kippodden" />
		<tag k="natural" v="cape" />
		<tag k="ssr:stedsnr" v="270741" />
	</node>
	<node id="-1035" lat="58.4074805581" lon="6.52008888659">
		<tag k="name" v="Pertetjørn" />
		<tag k="natural" v="water" />
		<tag k="ssr:stedsnr" v="270687" />
	</node>
	<node id="-1029" lat="58.4577333327" lon="6.5203916723">
		<tag k="name" v="Husheitjørna" />
		<tag k="natural" v="water" />
		<tag k="ssr:stedsnr" v="270581" />
		<tag k="water" v="pond" />
	</node>
	<node id="-1028" lat="58.4598777786" lon="6.53511944573">
		<tag k="name" v="Svarthølen" />
		<tag k="place" v="locality" />
		<tag k="ssr:stedsnr" v="270579" />
	</node>
	<node id="-1026" lat="58.4930994103" lon="6.54799110585">
		<tag k="name" v="Lammetjørn" />
		<tag k="natural" v="water" />
		<tag k="ssr:stedsnr" v="270442" />
	</node>
	<node id="-1023" lat="58.4427055538" lon="6.58645555991">
		<tag k="name" v="Leirvika" />
		<tag k="natural" v="bay" />
		<tag k="ssr:stedsnr" v="270419" />
	</node>
	<node id="-1017" lat="58.4437333343" lon="6.36417777516">
		<tag k="name" v="Kolestrondsbukta" />
		<tag k="natural" v="bay" />
		<tag k="ssr:stedsnr" v="270083" />
	</node>
	<node id="-1008" lat="58.4609611094" lon="6.5586944424">
		<tag k="name" v="Brekkebekken" />
		<tag k="ssr:stedsnr" v="269509" />
		<tag k="waterway" v="stream" />
	</node>
	<node id="-1004" lat="58.5560611068" lon="6.32944444773">
		<tag k="name" v="Djupebekken" />
		<tag k="ssr:stedsnr" v="269382" />
		<tag k="waterway" v="stream" />
	</node>
	<node id="-998" lat="58.5041861152" lon="6.51938888249">
		<tag k="name" v="Kadlenes" />
		<tag k="natural" v="cape" />
		<tag k="ssr:stedsnr" v="269244" />
	</node>
	<node id="-995" lat="58.539008336" lon="6.52666944973">
		<tag k="name" v="Igletjørna" />
		<tag k="natural" v="water" />
		<tag k="ssr:stedsnr" v="269222" />
	</node>
	<node id="-990" lat="58.5381611134" lon="6.50351389632">
		<tag k="name" v="Helvetesfossen" />
		<tag k="natural" v="waterfall" />
		<tag k="ssr:stedsnr" v="269177" />
	</node>
	<node id="-984" lat="58.5747611133" lon="6.58516111872">
		<tag k="name" v="Takholdttangen" />
		<tag k="natural" v="cape" />
		<tag k="ssr:stedsnr" v="269134" />
	</node>
	<node id="-983" lat="58.5808527784" lon="6.57916944586">
		<tag k="name" v="Viglandsstranda" />
		<tag k="natural" v="beach" />
		<tag k="ssr:stedsnr" v="269132" />
	</node>
	<node id="-980" lat="58.5399263216" lon="6.35858964631">
		<tag k="name" v="Øvra Reitbakktjørn" />
		<tag k="natural" v="water" />
		<tag k="ssr:stedsnr" v="269338" />
	</node>
	<node id="-976" lat="58.5362416712" lon="6.50004722585">
		<tag k="name" v="Kvernnes" />
		<tag k="natural" v="cape" />
		<tag k="ssr:stedsnr" v="266539" />
	</node>
	<node id="-973" lat="58.4660875538" lon="6.40292516822">
		<tag k="name" v="Drangstjørna" />
		<tag k="natural" v="water" />
		<tag k="ssr:stedsnr" v="88615" />
	</node>
	<node id="-961" lat="58.5488805576" lon="6.57407221777">
		<tag k="name" v="Stutetjørna" />
		<tag k="natural" v="water" />
		<tag k="ssr:stedsnr" v="87182" />
	</node>
	<node id="-952" lat="58.6161805557" lon="6.55167500275">
		<tag k="name" v="Furbekktjørna" />
		<tag k="natural" v="water" />
		<tag k="ssr:stedsnr" v="243838" />
	</node>
	<node id="-946" lat="58.461527774" lon="6.50893240991">
		<tag k="name" v="Knappstjørn" />
		<tag k="natural" v="water" />
		<tag k="ssr:stedsnr" v="243881" />
	</node>
	<node id="-944" lat="58.6072555551" lon="6.5685694426">
		<tag k="alt_name" v="Sandtjørn, l;øvre Sandtjørna" />
		<tag k="name" v="Øvre Sandtjørna" />
		<tag k="natural" v="water" />
		<tag k="ssr:stedsnr" v="242844" />
	</node>
	<node id="-932" lat="58.4026194475" lon="6.52485277822">
		<tag k="name" v="Holtjørn" />
		<tag k="natural" v="water" />
		<tag k="ssr:stedsnr" v="27701" />
	</node>
	<node id="-924" lat="58.4881194425" lon="6.5430027839">
		<tag k="name" v="Stakkstongbekken" />
		<tag k="ssr:stedsnr" v="27431" />
		<tag k="waterway" v="stream" />
	</node>
	<node id="-923" lat="58.50307887" lon="6.29498866573">
		<tag k="name" v="Deblan" />
		<tag k="natural" v="water" />
		<tag k="ssr:stedsnr" v="27426" />
	</node>
	<node id="-920" lat="58.4413805592" lon="6.58028055273">
		<tag k="name" v="Nådestø" />
		<tag k="natural" v="bay" />
		<tag k="ssr:stedsnr" v="27413" />
	</node>
	<node id="-917" lat="58.5147361131" lon="6.49989721794">
		<tag k="alt_name" v="Steiebekken" />
		<tag k="name" v="Steielsbekken" />
		<tag k="ssr:stedsnr" v="27222" />
		<tag k="waterway" v="stream" />
	</node>
	<node id="-916" lat="58.4970166689" lon="6.53885555803">
		<tag k="name" v="Stutepollen" />
		<tag k="natural" v="water" />
		<tag k="ssr:stedsnr" v="27221" />
	</node>
	<node id="-915" lat="58.5147388865" lon="6.53490277832">
		<tag k="name" v="Neset" />
		<tag k="natural" v="cape" />
		<tag k="ssr:stedsnr" v="27210" />
	</node>
	<node id="-906" lat="58.6097805563" lon="6.52250833693">
		<tag k="name" v="Klubbebekken" />
		<tag k="ssr:stedsnr" v="27115" />
		<tag k="waterway" v="stream" />
	</node>
	<node id="-900" lat="58.2998888926" lon="6.4726083252">
		<tag k="name" v="Rjukanfoss" />
		<tag k="natural" v="waterfall" />
		<tag k="ssr:stedsnr" v="221219" />
	</node>
	<node id="-899" lat="58.4221277757" lon="6.34298055553">
		<tag k="name" v="Geiskåna" />
		<tag k="ssr:stedsnr" v="168" />
		<tag k="waterway" v="stream" />
	</node>
	<node id="-2859" lat="59.8279125227" lon="9.70560369472">
		<tag k="name" v="Grølla" />
		<tag k="natural" v="water" />
		<tag k="ssr:stedsnr" v="489738" />
		<tag k="water" v="lake" />
	</node>
	<node id="-2858" lat="58.4816619302" lon="6.28198356282">
		<tag k="name" v="Grøsfjellvatnet" />
		<tag k="natural" v="water" />
		<tag k="ssr:stedsnr" v="121953" />
		<tag k="water" v="lake" />
	</node>
	<node id="-2857" lat="58.4641399725" lon="6.29688974051">
		<tag k="name" v="Fiskeløys" />
		<tag k="natural" v="water" />
		<tag k="ssr:stedsnr" v="243910" />
	</node>
	<node id="-2821" lat="58.5822416709" lon="6.53467778087">
		<tag k="name" v="Sandvasstjørna" />
		<tag k="natural" v="water" />
		<tag k="ssr:stedsnr" v="876172" />
	</node>
	<node id="-2819" lat="58.48651667" lon="6.2990444425">
		<tag k="name" v="Øynå" />
		<tag k="place" v="island" />
		<tag k="ssr:stedsnr" v="876144" />
	</node>
	<node id="-2816" lat="58.4882555588" lon="6.35749165904">
		<tag k="name" v="Havrenesodden" />
		<tag k="natural" v="cape" />
		<tag k="ssr:stedsnr" v="876125" />
	</node>
	<node id="-2815" lat="58.4956722193" lon="6.37846111717">
		<tag k="name" v="Indra Tjødno" />
		<tag k="natural" v="water" />
		<tag k="ssr:stedsnr" v="876121" />
	</node>
	<node id="-2811" lat="58.4466027754" lon="6.33288888984">
		<tag k="name" v="Jibbenesbukta" />
		<tag k="natural" v="bay" />
		<tag k="ssr:stedsnr" v="876098" />
	</node>
	<node id="-2805" lat="58.5249083379" lon="6.30601111414">
		<tag k="name" v="Folatjørna" />
		<tag k="natural" v="water" />
		<tag k="ssr:stedsnr" v="850956" />
	</node>
	<node id="-2804" lat="58.5396299684" lon="6.38640227376">
		<tag k="name" v="Urdalsvatnet" />
		<tag k="natural" v="water" />
		<tag k="ssr:stedsnr" v="850943" />
		<tag k="water" v="lake" />
	</node>
	<node id="-2803" lat="58.4959504798" lon="6.40772843233">
		<tag k="name" v="Eldrivatnet" />
		<tag k="natural" v="water" />
		<tag k="ssr:stedsnr" v="850939" />
		<tag k="water" v="lake" />
	</node>
	<node id="-2800" lat="58.5491944456" lon="6.56978611291">
		<tag k="name" v="Urtjørna" />
		<tag k="natural" v="water" />
		<tag k="ssr:stedsnr" v="850915" />
	</node>
	<node id="-2799" lat="58.5848220547" lon="6.55670379566">
		<tag k="name" v="Pråmtjørna" />
		<tag k="natural" v="water" />
		<tag k="ssr:stedsnr" v="850901" />
	</node>
	<node id="-2797" lat="58.5799972236" lon="6.56520000721">
		<tag k="name" v="Litle Viglandstjørna" />
		<tag k="natural" v="water" />
		<tag k="ssr:stedsnr" v="850896" />
	</node>
	<node id="-2796" lat="58.5712309137" lon="6.38439634798">
		<tag k="name" v="Botnavatnet" />
		<tag k="natural" v="water" />
		<tag k="ssr:stedsnr" v="850893" />
		<tag k="water" v="lake" />
	</node>
	<node id="-2795" lat="58.4374777813" lon="6.31131944786">
		<tag k="name" v="Stemmetjørna" />
		<tag k="natural" v="water" />
		<tag k="ssr:stedsnr" v="850883" />
	</node>
	<node id="-2794" lat="58.6082500018" lon="6.55942777458">
		<tag k="name" v="Sandstølvatnet" />
		<tag k="natural" v="water" />
		<tag k="ssr:stedsnr" v="850858" />
		<tag k="water" v="lake" />
	</node>
	<node id="-2793" lat="58.6101333377" lon="6.59426111157">
		<tag k="name" v="Raunelivatnet" />
		<tag k="natural" v="water" />
		<tag k="ssr:stedsnr" v="850856" />
	</node>
	<node id="-2790" lat="58.3603527764" lon="6.55759167091">
		<tag k="name" v="Fiskeløystjørna" />
		<tag k="natural" v="water" />
		<tag k="ssr:stedsnr" v="850192" />
	</node>
	<node id="-2789" lat="58.375716668" lon="6.50751388774">
		<tag k="name" v="Juvvatnet" />
		<tag k="natural" v="water" />
		<tag k="ssr:stedsnr" v="850171" />
	</node>
	<node id="-2783" lat="58.3272694438" lon="6.47775556227">
		<tag k="name" v="Krossdalstjørna" />
		<tag k="natural" v="water" />
		<tag k="ssr:stedsnr" v="816994" />
	</node>
	<node id="-2779" lat="58.3611944438" lon="6.56668610324">
		<tag k="name" v="Orretjørn" />
		<tag k="natural" v="water" />
		<tag k="ssr:stedsnr" v="816749" />
		<tag k="water" v="pond" />
	</node>
	<node id="-2778" lat="58.3543720597" lon="6.55838391537">
		<tag k="name" v="Kadleråstjørn" />
		<tag k="natural" v="water" />
		<tag k="ssr:stedsnr" v="816745" />
	</node>
	<node id="-2776" lat="58.394081086" lon="6.51833340096">
		<tag k="name" v="Tangevatn" />
		<tag k="natural" v="water" />
		<tag k="ssr:stedsnr" v="816735" />
	</node>
	<node id="-2773" lat="58.4376277766" lon="6.60399443984">
		<tag k="name" v="Gitransodden" />
		<tag k="natural" v="cape" />
		<tag k="ssr:stedsnr" v="816491" />
	</node>
	<node id="-2768" lat="58.3766940215" lon="6.56353354082">
		<tag k="name" v="Øvre Stølstjørn" />
		<tag k="natural" v="water" />
		<tag k="ssr:stedsnr" v="816773" />
	</node>
	<node id="-2764" lat="58.3582916683" lon="6.51827221965">
		<tag k="name" v="Podlemyr" />
		<tag k="natural" v="water" />
		<tag k="ssr:stedsnr" v="816760" />
		<tag k="water" v="pond" />
	</node>
	<node id="-2757" lat="58.4487166626" lon="6.56832777154">
		<tag k="name" v="Skorsbekken" />
		<tag k="ssr:stedsnr" v="816426" />
		<tag k="waterway" v="river" />
	</node>
	<node id="-2755" lat="58.5064666704" lon="6.30609443701">
		<tag k="name" v="Hølen" />
		<tag k="natural" v="water" />
		<tag k="ssr:stedsnr" v="816422" />
	</node>
	<node id="-2750" lat="58.4483888849" lon="6.56069166695">
		<tag k="name" v="Steinungshammaren" />
		<tag k="natural" v="cape" />
		<tag k="ssr:stedsnr" v="816396" />
	</node>
	<node id="-2747" lat="58.5012583306" lon="6.53679166086">
		<tag k="name" v="Stemmetjørn" />
		<tag k="natural" v="water" />
		<tag k="ssr:stedsnr" v="816246" />
	</node>
	<node id="-2746" lat="58.5079750038" lon="6.51609999442">
		<tag k="name" v="Nesan" />
		<tag k="natural" v="cape" />
		<tag k="ssr:stedsnr" v="816239" />
	</node>
	<node id="-2743" lat="58.550524996" lon="6.53027777965">
		<tag k="name" v="Svartehølen" />
		<tag k="place" v="locality" />
		<tag k="ssr:stedsnr" v="816215" />
	</node>
	<node id="-2739" lat="58.4463472245" lon="6.62254167419">
		<tag k="name" v="Bringedalstjørna" />
		<tag k="natural" v="water" />
		<tag k="ssr:stedsnr" v="816479" />
	</node>
	<node id="-2735" lat="58.5368027749" lon="6.31880277252">
		<tag k="name" v="Legevika" />
		<tag k="place" v="locality" />
		<tag k="ssr:stedsnr" v="816341" />
	</node>
	<node id="-2728" lat="58.5615361131" lon="6.55669166525">
		<tag k="name" v="Flååna" />
		<tag k="ssr:stedsnr" v="816131" />
		<tag k="waterway" v="river" />
	</node>
	<node id="-2723" lat="58.4336472188" lon="6.32444444032">
		<tag k="name" v="Netland" />
		<tag k="natural" v="beach" />
		<tag k="ssr:stedsnr" v="816098" />
	</node>
	<node id="-2716" lat="58.5405011237" lon="6.3382175346">
		<tag k="name" v="Bilstadvatnet" />
		<tag k="natural" v="water" />
		<tag k="ssr:stedsnr" v="789930" />
		<tag k="water" v="lake" />
	</node>
	<node id="-2714" lat="58.460344449" lon="6.42847222389">
		<tag k="name" v="Holmelitjørna" />
		<tag k="natural" v="water" />
		<tag k="ssr:stedsnr" v="789923" />
	</node>
	<node id="-2712" lat="58.459622225" lon="6.34971944452">
		<tag k="name" v="Eidsvatnet" />
		<tag k="natural" v="water" />
		<tag k="ssr:stedsnr" v="789919" />
		<tag k="water" v="lake" />
	</node>
	<node id="-2711" lat="58.5554972201" lon="6.44267222313">
		<tag k="alt_name" v="Tjødn på Tverrhei" />
		<tag k="name" v="Svartetjørna" />
		<tag k="natural" v="water" />
		<tag k="ssr:stedsnr" v="789913" />
	</node>
	<node id="-2710" lat="58.4490194432" lon="6.31227777378">
		<tag k="name" v="Svaltjørna" />
		<tag k="natural" v="water" />
		<tag k="ssr:stedsnr" v="789912" />
	</node>
	<node id="-2707" lat="58.5100277807" lon="6.31009721516">
		<tag k="name" v="Saurtjørna" />
		<tag k="natural" v="water" />
		<tag k="ssr:stedsnr" v="789999" />
	</node>
	<node id="-2706" lat="58.5208138887" lon="6.58868333286">
		<tag k="name" v="Åmstadvatnet" />
		<tag k="natural" v="water" />
		<tag k="ssr:stedsnr" v="789995" />
	</node>
	<node id="-2704" lat="58.538484753" lon="6.60485949237">
		<tag k="alt_name" v="Einarvatn" />
		<tag k="name" v="Einarvatnet" />
		<tag k="natural" v="water" />
		<tag k="ssr:stedsnr" v="789745" />
		<tag k="water" v="lake" />
	</node>
	<node id="-2702" lat="58.5020583333" lon="6.30669722404">
		<tag k="alt_name" v="Fjedlavatnet" />
		<tag k="name" v="Fjellavatnet" />
		<tag k="natural" v="water" />
		<tag k="ssr:stedsnr" v="789516" />
		<tag k="water" v="lake" />
	</node>
	<node id="-2699" lat="58.6030638852" lon="6.51377500839">
		<tag k="name" v="Fjordungsbekken" />
		<tag k="ssr:stedsnr" v="788857" />
		<tag k="waterway" v="stream" />
	</node>
	<node id="-2689" lat="58.331099998" lon="6.54373888332">
		<tag k="name" v="Solbjørstjørn" />
		<tag k="natural" v="water" />
		<tag k="ssr:stedsnr" v="755802" />
	</node>
	<node id="-2686" lat="58.377775001" lon="6.52630000604">
		<tag k="name" v="Slåtetjørn" />
		<tag k="natural" v="water" />
		<tag k="ssr:stedsnr" v="755772" />
		<tag k="water" v="lake" />
	</node>
	<node id="-2683" lat="58.3559805544" lon="6.55719167227">
		<tag k="name" v="Igletjørn" />
		<tag k="natural" v="water" />
		<tag k="ssr:stedsnr" v="755708" />
	</node>
	<node id="-2680" lat="58.4078027778" lon="6.52514166382">
		<tag k="name" v="Langvatnet" />
		<tag k="natural" v="water" />
		<tag k="ssr:stedsnr" v="755668" />
		<tag k="water" v="lake" />
	</node>
	<node id="-2673" lat="58.4407308833" lon="6.49913519018">
		<tag k="name" v="Langevatna" />
		<tag k="natural" v="water" />
		<tag k="ssr:stedsnr" v="755539" />
		<tag k="water" v="lake" />
	</node>
	<node id="-2666" lat="58.4880916712" lon="6.56041389417">
		<tag k="name" v="Øynå" />
		<tag k="natural" v="cape" />
		<tag k="ssr:stedsnr" v="755451" />
	</node>
	<node id="-2665" lat="58.4545333374" lon="6.62203889623">
		<tag k="name" v="Skopollen" />
		<tag k="natural" v="water" />
		<tag k="ssr:stedsnr" v="755447" />
		<tag k="water" v="pond" />
	</node>
	<node id="-2664" lat="58.4912861088" lon="6.53237222591">
		<tag k="name" v="Stølstjørna" />
		<tag k="natural" v="water" />
		<tag k="ssr:stedsnr" v="755440" />
	</node>
	<node id="-2662" lat="58.4873305547" lon="6.50079444147">
		<tag k="name" v="Lisåna" />
		<tag k="ssr:stedsnr" v="755436" />
		<tag k="waterway" v="stream" />
	</node>
	<node id="-2659" lat="58.4381333369" lon="6.59689722443">
		<tag k="name" v="Litle Hamreøy" />
		<tag k="place" v="island" />
		<tag k="ssr:stedsnr" v="755416" />
	</node>
	<node id="-2658" lat="58.4786166662" lon="6.52043889722">
		<tag k="name" v="Espeneset" />
		<tag k="natural" v="cape" />
		<tag k="ssr:stedsnr" v="755415" />
	</node>
	<node id="-2656" lat="58.5551194457" lon="6.36163333112">
		<tag k="name" v="Råna" />
		<tag k="natural" v="strait" />
		<tag k="ssr:stedsnr" v="755385" />
	</node>
	<node id="-2654" lat="58.550999999" lon="6.29246666571">
		<tag k="name" v="Langenes" />
		<tag k="natural" v="cape" />
		<tag k="ssr:stedsnr" v="755368" />
	</node>
	<node id="-2649" lat="58.5203944463" lon="6.28456944722">
		<tag k="name" v="Ullstjørn" />
		<tag k="natural" v="water" />
		<tag k="ssr:stedsnr" v="755351" />
	</node>
	<node id="-2641" lat="58.5358027743" lon="6.35542777957">
		<tag k="name" v="Kvednabekken" />
		<tag k="ssr:stedsnr" v="755308" />
		<tag k="waterway" v="stream" />
	</node>
	<node id="-2637" lat="58.4274833322" lon="6.34580833685">
		<tag k="name" v="Svarta Tjødno" />
		<tag k="natural" v="water" />
		<tag k="ssr:stedsnr" v="755256" />
	</node>
	<node id="-2635" lat="58.5071611143" lon="6.5009749979">
		<tag k="name" v="Breiebekk" />
		<tag k="ssr:stedsnr" v="755230" />
		<tag k="waterway" v="stream" />
	</node>
	<node id="-2629" lat="58.5920638847" lon="6.55743889408">
		<tag k="name" v="Slorpetjørna" />
		<tag k="natural" v="water" />
		<tag k="ssr:stedsnr" v="755135" />
	</node>
	<node id="-2626" lat="58.4950027791" lon="6.36309445257">
		<tag k="name" v="Svarthølen" />
		<tag k="place" v="locality" />
		<tag k="ssr:stedsnr" v="755110" />
	</node>
	<node id="-2620" lat="58.4448944479" lon="6.37508055943">
		<tag k="name" v="Timrevika" />
		<tag k="natural" v="bay" />
		<tag k="ssr:stedsnr" v="755093" />
	</node>
	<node id="-2616" lat="58.4535972205" lon="6.52261944543">
		<tag k="name" v="Studepollen" />
		<tag k="natural" v="water" />
		<tag k="ssr:stedsnr" v="634609" />
	</node>
	<node id="-2610" lat="58.4801333363" lon="6.56088888054">
		<tag k="name" v="Storevika" />
		<tag k="natural" v="bay" />
		<tag k="ssr:stedsnr" v="634479" />
	</node>
	<node id="-2609" lat="58.434213885" lon="6.59012500598">
		<tag k="name" v="Lomsvik" />
		<tag k="natural" v="bay" />
		<tag k="ssr:stedsnr" v="634454" />
	</node>
	<node id="-2607" lat="58.4850972204" lon="6.52116667367">
		<tag k="name" v="Mygleviga" />
		<tag k="natural" v="bay" />
		<tag k="ssr:stedsnr" v="634441" />
	</node>
	<node id="-2602" lat="58.5043416696" lon="6.36629721532">
		<tag k="name" v="Mollvik" />
		<tag k="natural" v="bay" />
		<tag k="ssr:stedsnr" v="633585" />
	</node>
	<node id="-2601" lat="58.406924998" lon="6.54781667522">
		<tag k="name" v="Storaneset" />
		<tag k="natural" v="cape" />
		<tag k="ssr:stedsnr" v="633581" />
	</node>
	<node id="-2596" lat="58.4722453719" lon="6.57304271836">
		<tag k="name" v="Indre Hultjørna" />
		<tag k="natural" v="water" />
		<tag k="ssr:stedsnr" v="633546" />
	</node>
	<node id="-2595" lat="58.5717305515" lon="6.48756943917">
		<tag k="name" v="Iglekleiv" />
		<tag k="natural" v="cape" />
		<tag k="ssr:stedsnr" v="633502" />
	</node>
	<node id="-2584" lat="58.5157999977" lon="6.57599166933">
		<tag k="name" v="Kloppa" />
		<tag k="ssr:stedsnr" v="633250" />
		<tag k="waterway" v="stream" />
	</node>
	<node id="-2582" lat="58.5028805569" lon="6.54762499185">
		<tag k="name" v="Tvillingtjørnan" />
		<tag k="natural" v="water" />
		<tag k="ssr:stedsnr" v="633246" />
		<tag k="water" v="lake" />
	</node>
	<node id="-2577" lat="58.4858888855" lon="6.38037500527">
		<tag k="name" v="Fuglanestjørn" />
		<tag k="natural" v="water" />
		<tag k="ssr:stedsnr" v="633127" />
	</node>
	<node id="-2574" lat="58.534473879" lon="6.54485320957">
		<tag k="name" v="Sætravatnet" />
		<tag k="natural" v="water" />
		<tag k="ssr:stedsnr" v="607934" />
	</node>
	<node id="-2573" lat="58.5026803258" lon="6.54027383477">
		<tag k="name" v="Nonåstjørna" />
		<tag k="natural" v="water" />
		<tag k="ssr:stedsnr" v="607523" />
	</node>
	<node id="-2572" lat="58.5060385984" lon="6.46857387082">
		<tag k="name" v="Svartetjørna" />
		<tag k="natural" v="water" />
		<tag k="ssr:stedsnr" v="607510" />
	</node>
	<node id="-2569" lat="58.525472225" lon="6.32075000706">
		<tag k="name" v="Stølstjørna" />
		<tag k="natural" v="water" />
		<tag k="ssr:stedsnr" v="606968" />
	</node>
	<node id="-2565" lat="58.4501444473" lon="6.33728611063">
		<tag k="name" v="Eigenes" />
		<tag k="natural" v="cape" />
		<tag k="ssr:stedsnr" v="606893" />
	</node>
	<node id="-2564" lat="58.4609782553" lon="6.40661807249">
		<tag k="name" v="Fiskeløys" />
		<tag k="natural" v="water" />
		<tag k="ssr:stedsnr" v="606891" />
	</node>
	<node id="-2563" lat="58.5905660156" lon="6.4394401755">
		<tag k="alt_name" v="Holavatnet" />
		<tag k="name" v="Holevatnet" />
		<tag k="natural" v="water" />
		<tag k="ssr:stedsnr" v="606880" />
		<tag k="water" v="lake" />
	</node>
	<node id="-2562" lat="58.5805777759" lon="6.52904166949">
		<tag k="alt_name" v="Hulletjørna" />
		<tag k="name" v="Holetjørna" />
		<tag k="natural" v="water" />
		<tag k="ssr:stedsnr" v="606871" />
	</node>
	<node id="-2561" lat="58.5806805574" lon="6.54203888989">
		<tag k="name" v="Sandvatnet" />
		<tag k="natural" v="water" />
		<tag k="ssr:stedsnr" v="606869" />
	</node>
	<node id="-2559" lat="58.6004277751" lon="6.54151666706">
		<tag k="name" v="Lomstjørna" />
		<tag k="natural" v="water" />
		<tag k="ssr:stedsnr" v="606857" />
	</node>
	<node id="-2557" lat="58.4372527805" lon="6.59604166638">
		<tag k="name" v="Hamreøyane" />
		<tag k="place" v="islet" />
		<tag k="ssr:stedsnr" v="606114" />
	</node>
	<node id="-2556" lat="58.391305553" lon="6.53443888898">
		<tag k="name" v="Lilandsvatnet" />
		<tag k="natural" v="water" />
		<tag k="ssr:stedsnr" v="606177" />
	</node>
	<node id="-2553" lat="58.4625666705" lon="6.61834444421">
		<tag k="alt_name" v="Krokvatnet, heimre" />
		<tag k="name" v="Heimra Krokevatnet" />
		<tag k="natural" v="water" />
		<tag k="ssr:stedsnr" v="606070" />
	</node>
	<node id="-2551" lat="58.3686362933" lon="6.51065172896">
		<tag k="name" v="Øvre Legetjørn" />
		<tag k="natural" v="water" />
		<tag k="ssr:stedsnr" v="573751" />
	</node>
	<node id="-2548" lat="58.4741444355" lon="6.46054082248">
		<tag k="name" v="Tangavatnet" />
		<tag k="natural" v="water" />
		<tag k="ssr:stedsnr" v="573637" />
	</node>
	<node id="-2540" lat="58.4537111071" lon="6.33539721904">
		<tag k="name" v="Kadlaneset" />
		<tag k="natural" v="cape" />
		<tag k="ssr:stedsnr" v="573194" />
	</node>
	<node id="-2533" lat="58.4862250003" lon="6.33528610333">
		<tag k="name" v="Kollbakktjørn" />
		<tag k="natural" v="water" />
		<tag k="ssr:stedsnr" v="573018" />
	</node>
	<node id="-2526" lat="58.489642388" lon="6.56054968257">
		<tag k="name" v="Svartetjørn" />
		<tag k="natural" v="water" />
		<tag k="ssr:stedsnr" v="572449" />
	</node>
	<node id="-2524" lat="58.5151833368" lon="6.30644723006">
		<tag k="name" v="Folatjørnbekken" />
		<tag k="ssr:stedsnr" v="572421" />
		<tag k="waterway" v="stream" />
	</node>
	<node id="-2517" lat="58.5529055529" lon="6.27678888772">
		<tag k="name" v="Tjødne" />
		<tag k="place" v="locality" />
		<tag k="ssr:stedsnr" v="572378" />
	</node>
	<node id="-2516" lat="58.5522444479" lon="6.27246389092">
		<tag k="name" v="Neset" />
		<tag k="natural" v="cape" />
		<tag k="ssr:stedsnr" v="572376" />
	</node>
	<node id="-2515" lat="58.5490111136" lon="6.30170832604">
		<tag k="name" v="Voilen" />
		<tag k="natural" v="bay" />
		<tag k="ssr:stedsnr" v="572370" />
	</node>
	<node id="-2513" lat="58.5456166695" lon="6.29877500701">
		<tag k="name" v="Legetangen" />
		<tag k="natural" v="cape" />
		<tag k="ssr:stedsnr" v="572364" />
	</node>
	<node id="-2511" lat="58.5396055529" lon="6.31128056092">
		<tag k="name" v="Skiptingsbekken" />
		<tag k="ssr:stedsnr" v="572360" />
		<tag k="waterway" v="stream" />
	</node>
	<node id="-2509" lat="58.5419861111" lon="6.35073611787">
		<tag k="name" v="Litlaneset" />
		<tag k="natural" v="cape" />
		<tag k="ssr:stedsnr" v="572347" />
	</node>
	<node id="-2508" lat="58.5402401104" lon="6.35595941496">
		<tag k="name" v="Nedra Reitbakktjørn" />
		<tag k="natural" v="water" />
		<tag k="ssr:stedsnr" v="572344" />
		<tag k="water" v="lake" />
	</node>
	<node id="-2503" lat="58.5417250008" lon="6.51029444337">
		<tag k="name" v="Skåråna" />
		<tag k="ssr:stedsnr" v="572241" />
		<tag k="waterway" v="river" />
	</node>
	<node id="-2502" lat="58.5407638871" lon="6.57818332712">
		<tag k="name" v="Håletjørna" />
		<tag k="natural" v="water" />
		<tag k="ssr:stedsnr" v="572229" />
	</node>
	<node id="-2500" lat="58.5391666665" lon="6.58152777355">
		<tag k="name" v="Langelandstjørna" />
		<tag k="natural" v="water" />
		<tag k="ssr:stedsnr" v="572217" />
	</node>
	<node id="-2499" lat="58.5293416628" lon="6.52779444504">
		<tag k="name" v="Slettetjørnan" />
		<tag k="natural" v="water" />
		<tag k="ssr:stedsnr" v="572213" />
		<tag k="water" v="lake" />
	</node>
	<node id="-2491" lat="58.5658305551" lon="6.58351944023">
		<tag k="name" v="Rånetangen" />
		<tag k="natural" v="cape" />
		<tag k="ssr:stedsnr" v="572153" />
	</node>
	<node id="-2488" lat="58.4364027802" lon="6.33076111474">
		<tag k="name" v="Øyna" />
		<tag k="place" v="island" />
		<tag k="ssr:stedsnr" v="572092" />
	</node>
	<node id="-2487" lat="58.4485222251" lon="6.33300833576">
		<tag k="name" v="Steinsnes" />
		<tag k="natural" v="cape" />
		<tag k="ssr:stedsnr" v="572089" />
	</node>
	<node id="-2484" lat="58.5404148115" lon="6.36705415836">
		<tag k="alt_name" v="Glessjur" />
		<tag k="name" v="Glessjor" />
		<tag k="natural" v="water" />
		<tag k="ssr:stedsnr" v="546940" />
	</node>
	<node id="-2483" lat="58.5332555569" lon="6.35390000814">
		<tag k="name" v="Vasshusvika" />
		<tag k="natural" v="bay" />
		<tag k="ssr:stedsnr" v="546939" />
	</node>
	<node id="-2479" lat="58.4910591542" lon="6.56816557501">
		<tag k="name" v="Grunnetjørn" />
		<tag k="natural" v="water" />
		<tag k="ssr:stedsnr" v="546917" />
	</node>
	<node id="-2475" lat="58.5627972187" lon="6.46341666129">
		<tag k="alt_name" v="Tverråni" />
		<tag k="name" v="Tverråna" />
		<tag k="ssr:stedsnr" v="546908" />
		<tag k="waterway" v="stream" />
	</node>
	<node id="-2473" lat="58.5501550289" lon="6.31667057698">
		<tag k="name" v="Teksetjørna" />
		<tag k="natural" v="water" />
		<tag k="ssr:stedsnr" v="546900" />
	</node>
	<node id="-2471" lat="58.5857027785" lon="6.56658334091">
		<tag k="alt_name" v="Molltjørna" />
		<tag k="name" v="Moldtjørna" />
		<tag k="natural" v="water" />
		<tag k="ssr:stedsnr" v="546891" />
	</node>
	<node id="-2468" lat="58.4627638894" lon="6.43949722624">
		<tag k="name" v="Marigjelvatnan" />
		<tag k="natural" v="water" />
		<tag k="ssr:stedsnr" v="546880" />
	</node>
	<node id="-2466" lat="58.5887460035" lon="6.55011096511">
		<tag k="name" v="Maurtjørna" />
		<tag k="natural" v="water" />
		<tag k="ssr:stedsnr" v="546874" />
	</node>
	<node id="-2461" lat="58.3325916636" lon="6.4855388874">
		<tag k="name" v="Langevatnet" />
		<tag k="natural" v="water" />
		<tag k="ssr:stedsnr" v="546230" />
	</node>
	<node id="-2460" lat="58.3405027799" lon="6.48401666421">
		<tag k="name" v="Kringlelitjørna" />
		<tag k="natural" v="water" />
		<tag k="ssr:stedsnr" v="546229" />
	</node>
	<node id="-2454" lat="58.5096472186" lon="6.31909167231">
		<tag k="name" v="Fosstjørna" />
		<tag k="natural" v="water" />
		<tag k="ssr:stedsnr" v="426993" />
	</node>
	<node id="-2447" lat="58.5866192183" lon="6.5347263836">
		<tag k="name" v="Svartevatnet" />
		<tag k="natural" v="water" />
		<tag k="ssr:stedsnr" v="425928" />
		<tag k="water" v="lake" />
	</node>
	<node id="-2444" lat="58.5674500031" lon="6.36568611028">
		<tag k="name" v="Iglatjørna" />
		<tag k="natural" v="water" />
		<tag k="ssr:stedsnr" v="425899" />
	</node>
	<node id="-2442" lat="58.6019222219" lon="6.56737777265">
		<tag k="alt_name" v="Sandtjørn, store" />
		<tag k="name" v="Nedre Sandtjørna" />
		<tag k="natural" v="water" />
		<tag k="ssr:stedsnr" v="425865" />
	</node>
	<node id="-2440" lat="58.3532638865" lon="6.53745555437">
		<tag k="name" v="Åvedalsvatnet" />
		<tag k="natural" v="water" />
		<tag k="ssr:stedsnr" v="425191" />
		<tag k="water" v="lake" />
	</node>
	<node id="-2433" lat="58.3120666657" lon="6.48406110827">
		<tag k="name" v="Elvetjørna" />
		<tag k="natural" v="water" />
		<tag k="ssr:stedsnr" v="391941" />
	</node>
	<node id="-2432" lat="58.3081861093" lon="6.47932221941">
		<tag k="name" v="Uttjørn" />
		<tag k="natural" v="water" />
		<tag k="ssr:stedsnr" v="391939" />
	</node>
	<node id="-2431" lat="58.3451916694" lon="6.53857499713">
		<tag k="name" v="Løgen" />
		<tag k="natural" v="water" />
		<tag k="ssr:stedsnr" v="391751" />
		<tag k="water" v="lake" />
	</node>
	<node id="-2430" lat="58.3650388915" lon="6.55056943955">
		<tag k="name" v="Røylandstjørn" />
		<tag k="natural" v="water" />
		<tag k="ssr:stedsnr" v="391741" />
	</node>
	<node id="-2426" lat="58.3351333336" lon="6.52839722254">
		<tag k="name" v="Klumpøya" />
		<tag k="place" v="island" />
		<tag k="ssr:stedsnr" v="391827" />
	</node>
	<node id="-2425" lat="58.3699555514" lon="6.5325361139">
		<tag k="name" v="Stemmen" />
		<tag k="natural" v="water" />
		<tag k="ssr:stedsnr" v="391788" />
		<tag k="water" v="lake" />
	</node>
	<node id="-2424" lat="58.3849361087" lon="6.53709722015">
		<tag k="name" v="Båtlangen" />
		<tag k="natural" v="water" />
		<tag k="ssr:stedsnr" v="391784" />
		<tag k="water" v="lake" />
	</node>
	<node id="-2422" lat="58.4792722208" lon="6.41221388134">
		<tag k="name" v="Matbekken" />
		<tag k="ssr:stedsnr" v="391640" />
		<tag k="waterway" v="stream" />
	</node>
	<node id="-2410" lat="58.4742694412" lon="6.56220833033">
		<tag k="name" v="Igletjørna" />
		<tag k="natural" v="water" />
		<tag k="ssr:stedsnr" v="391448" />
	</node>
	<node id="-2409" lat="58.4740444431" lon="6.56913611438">
		<tag k="name" v="Midtgjel" />
		<tag k="natural" v="water" />
		<tag k="ssr:stedsnr" v="391447" />
	</node>
	<node id="-2407" lat="58.4824305569" lon="6.58326944854">
		<tag k="name" v="Nessan" />
		<tag k="natural" v="cape" />
		<tag k="ssr:stedsnr" v="391445" />
	</node>
	<node id="-2394" lat="58.5529055545" lon="6.58155832772">
		<tag k="name" v="Bolletjørna" />
		<tag k="natural" v="water" />
		<tag k="ssr:stedsnr" v="391194" />
	</node>
	<node id="-2388" lat="58.4437194455" lon="6.37056944761">
		<tag k="name" v="Einehagen" />
		<tag k="natural" v="beach" />
		<tag k="ssr:stedsnr" v="391075" />
	</node>
	<node id="-2384" lat="58.5035583364" lon="6.30539999727">
		<tag k="name" v="Førnesodden" />
		<tag k="natural" v="cape" />
		<tag k="ssr:stedsnr" v="390376" />
	</node>
	<node id="-2379" lat="58.5393194487" lon="6.34479444745">
		<tag k="name" v="Storaneset" />
		<tag k="natural" v="cape" />
		<tag k="ssr:stedsnr" v="390346" />
	</node>
	<node id="-2377" lat="58.546258335" lon="6.27450833192">
		<tag k="name" v="Litløy" />
		<tag k="place" v="island" />
		<tag k="ssr:stedsnr" v="390338" />
	</node>
	<node id="-2368" lat="58.5133586973" lon="6.4205224948">
		<tag k="name" v="Tristølvatnet" />
		<tag k="natural" v="water" />
		<tag k="ssr:stedsnr" v="364995" />
		<tag k="water" v="lake" />
	</node>
	<node id="-2365" lat="58.5159638904" lon="6.44475278569">
		<tag k="name" v="Dipletjørn" />
		<tag k="natural" v="water" />
		<tag k="ssr:stedsnr" v="364981" />
	</node>
	<node id="-2362" lat="58.5217888894" lon="6.36158611794">
		<tag k="name" v="Toretjørna" />
		<tag k="natural" v="water" />
		<tag k="ssr:stedsnr" v="364971" />
	</node>
	<node id="-2357" lat="58.4846583297" lon="6.3930861046">
		<tag k="name" v="Fosstjørnan" />
		<tag k="natural" v="water" />
		<tag k="ssr:stedsnr" v="364937" />
		<tag k="water" v="lake" />
	</node>
	<node id="-2355" lat="58.5548889936" lon="6.36215914266">
		<tag k="alt_name" v="Sandvotni" />
		<tag k="name" v="Sandvatna" />
		<tag k="natural" v="water" />
		<tag k="ssr:stedsnr" v="364932" />
		<tag k="water" v="lake" />
	</node>
	<node id="-2352" lat="58.5555555568" lon="6.46799444877">
		<tag k="name" v="Erskogtjørna" />
		<tag k="natural" v="water" />
		<tag k="ssr:stedsnr" v="364918" />
	</node>
	<node id="-2351" lat="58.5493704925" lon="6.43240158426">
		<tag k="alt_name" v="Kjørmotjørnan" />
		<tag k="name" v="Kjørmotjørnane" />
		<tag k="natural" v="water" />
		<tag k="ssr:stedsnr" v="364917" />
		<tag k="water" v="lake" />
	</node>
	<node id="-2349" lat="58.4547412404" lon="6.41012755119">
		<tag k="name" v="Gaulevatnet" />
		<tag k="natural" v="water" />
		<tag k="ssr:stedsnr" v="364914" />
	</node>
	<node id="-2348" lat="58.4526332768" lon="6.48741636135">
		<tag k="name" v="Ørnetjørn" />
		<tag k="natural" v="water" />
		<tag k="ssr:stedsnr" v="364913" />
	</node>
	<node id="-2346" lat="58.4418222255" lon="6.52768332709">
		<tag k="name" v="Prestvatnet" />
		<tag k="natural" v="water" />
		<tag k="ssr:stedsnr" v="364905" />
	</node>
	<node id="-2345" lat="58.5868972197" lon="6.42587221682">
		<tag k="name" v="Einerbekken" />
		<tag k="ssr:stedsnr" v="364904" />
		<tag k="waterway" v="stream" />
	</node>
	<node id="-2343" lat="58.5985416684" lon="6.4824138923">
		<tag k="name" v="Brekketjørna" />
		<tag k="natural" v="water" />
		<tag k="ssr:stedsnr" v="364881" />
	</node>
	<node id="-2342" lat="58.4246888884" lon="6.52197499618">
		<tag k="name" v="Svartetjørn" />
		<tag k="natural" v="water" />
		<tag k="ssr:stedsnr" v="364142" />
	</node>
	<node id="-2334" lat="58.4595638934" lon="6.50205000637">
		<tag k="name" v="Svebekken" />
		<tag k="ssr:stedsnr" v="331552" />
		<tag k="waterway" v="stream" />
	</node>
	<node id="-2330" lat="58.4504583342" lon="6.49157499806">
		<tag k="name" v="Fiskelaustjørna" />
		<tag k="natural" v="water" />
		<tag k="ssr:stedsnr" v="331515" />
	</node>
	<node id="-2329" lat="58.4430333326" lon="6.6143972194">
		<tag k="name" v="Bringedalsbekken" />
		<tag k="ssr:stedsnr" v="331461" />
		<tag k="waterway" v="stream" />
	</node>
	<node id="-2320" lat="58.4241305512" lon="6.33745278053">
		<tag k="alt_name" v="litla Stronno" />
		<tag k="name" v="Litla Strondo" />
		<tag k="natural" v="beach" />
		<tag k="ssr:stedsnr" v="331256" />
	</node>
	<node id="-2319" lat="58.4300388873" lon="6.3372944499">
		<tag k="name" v="Gåsevik" />
		<tag k="natural" v="bay" />
		<tag k="ssr:stedsnr" v="331253" />
	</node>
	<node id="-2314" lat="58.3596527765" lon="6.51503054902">
		<tag k="name" v="Slåtetjørn" />
		<tag k="natural" v="water" />
		<tag k="ssr:stedsnr" v="330776" />
	</node>
	<node id="-2311" lat="58.3629055549" lon="6.56424166726">
		<tag k="name" v="Kløppskottjørn" />
		<tag k="natural" v="water" />
		<tag k="ssr:stedsnr" v="330749" />
	</node>
	<node id="-2308" lat="58.3490027813" lon="6.56837222257">
		<tag k="name" v="Daletjørn" />
		<tag k="natural" v="water" />
		<tag k="ssr:stedsnr" v="330740" />
		<tag k="water" v="pond" />
	</node>
	<node id="-2298" lat="58.4360111084" lon="6.525327779">
		<tag k="name" v="Krotjørna" />
		<tag k="natural" v="water" />
		<tag k="ssr:stedsnr" v="330555" />
	</node>
	<node id="-2297" lat="58.5553333302" lon="6.35350278418">
		<tag k="name" v="Brannen" />
		<tag k="natural" v="bay" />
		<tag k="ssr:stedsnr" v="330401" />
	</node>
	<node id="-2292" lat="58.5430916628" lon="6.3327333313">
		<tag k="name" v="Oskarøyna" />
		<tag k="natural" v="cape" />
		<tag k="ssr:stedsnr" v="330337" />
	</node>
	<node id="-2290" lat="58.4989290132" lon="6.29178863274">
		<tag k="name" v="Heimra Tjødnå" />
		<tag k="natural" v="water" />
		<tag k="ssr:stedsnr" v="330431" />
	</node>
	<node id="-2286" lat="58.5445972257" lon="6.46273611201">
		<tag k="name" v="Stakkstongtjørna" />
		<tag k="natural" v="water" />
		<tag k="ssr:stedsnr" v="330268" />
	</node>
	<node id="-2284" lat="58.5867472262" lon="6.42357777456">
		<tag k="name" v="Stemmedalstjørna" />
		<tag k="natural" v="water" />
		<tag k="ssr:stedsnr" v="330255" />
	</node>
	<node id="-2272" lat="58.5240583356" lon="6.52045833644">
		<tag k="name" v="Svenstjørna" />
		<tag k="natural" v="water" />
		<tag k="ssr:stedsnr" v="304968" />
	</node>
	<node id="-2271" lat="58.5187555515" lon="6.40458055844">
		<tag k="name" v="Kotletjørna" />
		<tag k="natural" v="water" />
		<tag k="ssr:stedsnr" v="304964" />
	</node>
	<node id="-2269" lat="58.5295249982" lon="6.30751388604">
		<tag k="alt_name" v="Ullsvatn" />
		<tag k="name" v="Ullsvatnet" />
		<tag k="natural" v="water" />
		<tag k="ssr:stedsnr" v="304948" />
		<tag k="water" v="lake" />
	</node>
	<node id="-2264" lat="58.5439888852" lon="6.31250833179">
		<tag k="alt_name" v="Tekseåni" />
		<tag k="name" v="Tekseåna" />
		<tag k="ssr:stedsnr" v="303933" />
		<tag k="waterway" v="river" />
	</node>
	<node id="-2262" lat="58.5744111119" lon="6.36295555762">
		<tag k="alt_name" v="Botnåna" />
		<tag k="name" v="Botnaåni" />
		<tag k="ssr:stedsnr" v="303897" />
		<tag k="waterway" v="stream" />
	</node>
	<node id="-2261" lat="58.4555998704" lon="6.31867391489">
		<tag k="name" v="Ljosvatnet" />
		<tag k="natural" v="water" />
		<tag k="ssr:stedsnr" v="303894" />
		<tag k="water" v="lake" />
	</node>
	<node id="-2259" lat="58.5688080882" lon="6.41946256002">
		<tag k="name" v="Gyatjørna" />
		<tag k="natural" v="water" />
		<tag k="ssr:stedsnr" v="303888" />
	</node>
	<node id="-2257" lat="58.5518566279" lon="6.60185579133">
		<tag k="alt_name" v="Sandstølvatn" />
		<tag k="name" v="Sandstølvatnet" />
		<tag k="natural" v="water" />
		<tag k="ssr:stedsnr" v="303690" />
		<tag k="water" v="lake" />
	</node>
	<node id="-2254" lat="58.4222055557" lon="6.5531722215">
		<tag k="name" v="Skålandsviga" />
		<tag k="natural" v="bay" />
		<tag k="ssr:stedsnr" v="303136" />
	</node>
	<node id="-2253" lat="58.4646305582" lon="6.60741110506">
		<tag k="alt_name" v="Heimra Stortjørn" />
		<tag k="name" v="Stortjørn" />
		<tag k="natural" v="water" />
		<tag k="ssr:stedsnr" v="303083" />
	</node>
	<node id="-2236" lat="58.4368388896" lon="6.5377861139">
		<tag k="name" v="Annfinnsbekken" />
		<tag k="ssr:stedsnr" v="209534" />
		<tag k="waterway" v="stream" />
	</node>
	<node id="-2234" lat="58.5571868661" lon="6.37842275333">
		<tag k="name" v="Indra Sandvatn" />
		<tag k="natural" v="water" />
		<tag k="ssr:stedsnr" v="209382" />
		<tag k="water" v="lake" />
	</node>
	<node id="-2232" lat="58.5337583306" lon="6.29323889726">
		<tag k="name" v="Refslandsstemmen" />
		<tag k="natural" v="water" />
		<tag k="ssr:stedsnr" v="209365" />
	</node>
	<node id="-2224" lat="58.5133416686" lon="6.42999443878">
		<tag k="name" v="Podlen" />
		<tag k="natural" v="water" />
		<tag k="ssr:stedsnr" v="209288" />
	</node>
	<node id="-2209" lat="58.4336583328" lon="6.3484888804">
		<tag k="name" v="Lomtjørn" />
		<tag k="natural" v="water" />
		<tag k="ssr:stedsnr" v="209097" />
	</node>
	<node id="-2200" lat="58.4647027811" lon="6.35149444068">
		<tag k="name" v="Sandsmorkneset" />
		<tag k="natural" v="cape" />
		<tag k="ssr:stedsnr" v="209197" />
	</node>
	<node id="-2199" lat="58.5364608238" lon="6.59610714096">
		<tag k="name" v="Urtjørna" />
		<tag k="natural" v="water" />
		<tag k="ssr:stedsnr" v="209172" />
	</node>
	<node id="-2198" lat="58.4546888902" lon="6.33336389389">
		<tag k="name" v="Vassbotnen" />
		<tag k="natural" v="bay" />
		<tag k="ssr:stedsnr" v="209165" />
	</node>
	<node id="-2195" lat="58.5686012583" lon="6.53209561026">
		<tag k="name" v="Kroktjørna" />
		<tag k="natural" v="water" />
		<tag k="ssr:stedsnr" v="209133" />
	</node>
	<node id="-2189" lat="58.5091777757" lon="6.371063892">
		<tag k="name" v="Ualandsvatnet" />
		<tag k="natural" v="water" />
		<tag k="ssr:stedsnr" v="183983" />
		<tag k="water" v="lake" />
	</node>
	<node id="-2188" lat="58.5023976344" lon="6.46602802617">
		<tag k="name" v="Hovsvatnet" />
		<tag k="natural" v="water" />
		<tag k="ssr:stedsnr" v="183495" />
	</node>
	<node id="-2180" lat="58.4712514228" lon="6.5579779952">
		<tag k="name" v="Stemmevatnet" />
		<tag k="natural" v="water" />
		<tag k="ssr:stedsnr" v="182890" />
	</node>
	<node id="-2178" lat="58.4416194452" lon="6.34273888304">
		<tag k="name" v="Steinsvatnet" />
		<tag k="natural" v="water" />
		<tag k="ssr:stedsnr" v="182884" />
		<tag k="water" v="lake" />
	</node>
	<node id="-2177" lat="58.593163885" lon="6.58742777471">
		<tag k="name" v="Stemmetjørna" />
		<tag k="natural" v="water" />
		<tag k="ssr:stedsnr" v="182883" />
	</node>
	<node id="-2176" lat="58.4479611153" lon="6.38814722988">
		<tag k="name" v="Stokkavatnet" />
		<tag k="natural" v="water" />
		<tag k="ssr:stedsnr" v="182873" />
	</node>
	<node id="-2173" lat="58.3369944415" lon="6.52760832921">
		<tag k="name" v="Drivdalsvatnet" />
		<tag k="natural" v="water" />
		<tag k="ssr:stedsnr" v="182223" />
		<tag k="water" v="lake" />
	</node>
	<node id="-2172" lat="58.36872778" lon="6.57343610277">
		<tag k="name" v="Stemmen" />
		<tag k="natural" v="water" />
		<tag k="ssr:stedsnr" v="182207" />
	</node>
	<node id="-2163" lat="58.319552775" lon="6.47832499879">
		<tag k="name" v="Høljan" />
		<tag k="natural" v="water" />
		<tag k="ssr:stedsnr" v="148935" />
	</node>
	<node id="-2162" lat="58.3483055511" lon="6.4870638818">
		<tag k="name" v="Urdalstjørna" />
		<tag k="natural" v="water" />
		<tag k="ssr:stedsnr" v="148877" />
	</node>
	<node id="-2161" lat="58.3841222182" lon="6.52936667412">
		<tag k="name" v="Loppetjørn" />
		<tag k="natural" v="water" />
		<tag k="ssr:stedsnr" v="148783" />
	</node>
	<node id="-2157" lat="58.3782178026" lon="6.55477966081">
		<tag k="name" v="Ystemyrstemmen" />
		<tag k="natural" v="water" />
		<tag k="ssr:stedsnr" v="148737" />
	</node>
	<node id="-2152" lat="58.3891638903" lon="6.59081944327">
		<tag k="name" v="Holson" />
		<tag k="natural" v="beach" />
		<tag k="ssr:stedsnr" v="148620" />
	</node>
	<node id="-2150" lat="58.4859083319" lon="6.55524443709">
		<tag k="name" v="Stolen" />
		<tag k="natural" v="cape" />
		<tag k="ssr:stedsnr" v="148450" />
	</node>
	<node id="-2144" lat="58.419724996" lon="6.32196667265">
		<tag k="name" v="Geidebekken" />
		<tag k="ssr:stedsnr" v="148326" />
		<tag k="waterway" v="river" />
	</node>
	<node id="-2141" lat="58.5584805533" lon="6.39542222569">
		<tag k="name" v="Heimra Askeskortjørna" />
		<tag k="natural" v="water" />
		<tag k="ssr:stedsnr" v="148308" />
	</node>
	<node id="-2139" lat="58.5589944441" lon="6.29570555466">
		<tag k="name" v="Bjønndalsåna" />
		<tag k="ssr:stedsnr" v="148375" />
		<tag k="waterway" v="river" />
	</node>
	<node id="-2134" lat="58.6032257317" lon="6.50443741579">
		<tag k="alt_name" v="Storefjelltjørna" />
		<tag k="name" v="Storfjelltjørna" />
		<tag k="natural" v="water" />
		<tag k="ssr:stedsnr" v="148151" />
	</node>
	<node id="-2127" lat="58.6069666674" lon="6.58713055828">
		<tag k="name" v="Kvednhushølen" />
		<tag k="place" v="locality" />
		<tag k="ssr:stedsnr" v="148092" />
	</node>
	<node id="-2124" lat="58.4382361072" lon="6.34028334024">
		<tag k="name" v="Indra Mjelkevik" />
		<tag k="natural" v="bay" />
		<tag k="ssr:stedsnr" v="148081" />
	</node>
	<node id="-2121" lat="58.5071249993" lon="6.33286944915">
		<tag k="name" v="Åmdalstjørna" />
		<tag k="natural" v="water" />
		<tag k="ssr:stedsnr" v="122992" />
	</node>
	<node id="-2119" lat="58.5633433846" lon="6.37677284141">
		<tag k="alt_name" v="Botnaåni" />
		<tag k="name" v="Botnaåna" />
		<tag k="ssr:stedsnr" v="122164" />
		<tag k="waterway" v="stream" />
	</node>
	<node id="-2114" lat="58.4832673129" lon="6.55604500515">
		<tag k="name" v="Stølsvatnet" />
		<tag k="natural" v="water" />
		<tag k="ssr:stedsnr" v="121934" />
		<tag k="water" v="lake" />
	</node>
	<node id="-2110" lat="58.5637990636" lon="6.5864690061">
		<tag k="alt_name" v="Råni" />
		<tag k="name" v="Råna" />
		<tag k="natural" v="water" />
		<tag k="ssr:stedsnr" v="121912" />
	</node>
	<node id="-2109" lat="58.579241666" lon="6.57028610431">
		<tag k="name" v="Store Viglandstjørna" />
		<tag k="natural" v="water" />
		<tag k="ssr:stedsnr" v="121892" />
	</node>
	<node id="-2108" lat="58.5911000016" lon="6.57142777">
		<tag k="name" v="Sollivatnet" />
		<tag k="natural" v="water" />
		<tag k="ssr:stedsnr" v="121886" />
	</node>
	<node id="-2107" lat="58.4423472266" lon="6.39748611324">
		<tag k="name" v="Ljosvatnet" />
		<tag k="natural" v="water" />
		<tag k="ssr:stedsnr" v="121875" />
	</node>
	<node id="-2104" lat="58.4201527736" lon="6.56986110764">
		<tag k="name" v="Haukeneset" />
		<tag k="natural" v="cape" />
		<tag k="ssr:stedsnr" v="121134" />
	</node>
	<node id="-2103" lat="58.6264749991" lon="6.53323334121">
		<tag k="name" v="Kviltjørn" />
		<tag k="natural" v="water" />
		<tag k="ssr:stedsnr" v="119557" />
	</node>
	<node id="-2096" lat="58.3699833369" lon="6.56795278559">
		<tag k="name" v="Svartetjørna" />
		<tag k="natural" v="water" />
		<tag k="ssr:stedsnr" v="88718" />
	</node>
	<node id="-2093" lat="58.3547158923" lon="6.50694600901">
		<tag k="name" v="Svartetjørn" />
		<tag k="natural" v="water" />
		<tag k="ssr:stedsnr" v="88704" />
	</node>
	<node id="-2087" lat="58.390655552" lon="6.54351388571">
		<tag k="name" v="Lomstjørn" />
		<tag k="natural" v="water" />
		<tag k="ssr:stedsnr" v="88661" />
	</node>
	<node id="-2086" lat="58.3995892424" lon="6.52094212506">
		<tag k="name" v="Langevatn" />
		<tag k="natural" v="water" />
		<tag k="ssr:stedsnr" v="88656" />
		<tag k="water" v="lake" />
	</node>
	<node id="-2084" lat="58.4467115666" lon="6.49090574984">
		<tag k="alt_name" v="Lange Eikelandsvatnet" />
		<tag k="name" v="Langa Eikelandsvatnet" />
		<tag k="natural" v="water" />
		<tag k="ssr:stedsnr" v="88581" />
	</node>
	<node id="-2079" lat="58.452883329" lon="6.49894721413">
		<tag k="name" v="Stølstjørna" />
		<tag k="natural" v="water" />
		<tag k="ssr:stedsnr" v="88480" />
		<tag k="water" v="pond" />
	</node>
	<node id="-2074" lat="58.4412722187" lon="6.60701110744">
		<tag k="name" v="Tronvika" />
		<tag k="natural" v="bay" />
		<tag k="ssr:stedsnr" v="88402" />
	</node>
	<node id="-2067" lat="58.5352861115" lon="6.60840554747">
		<tag k="name" v="Einarstø" />
		<tag k="natural" v="bay" />
		<tag k="ssr:stedsnr" v="87438" />
	</node>
	<node id="-2064" lat="58.4845777786" lon="6.5074972299">
		<tag k="name" v="Skjeggestadstranda" />
		<tag k="natural" v="beach" />
		<tag k="ssr:stedsnr" v="87403" />
	</node>
	<node id="-2063" lat="58.5044249991" lon="6.31236111269">
		<tag k="name" v="Lyngodden" />
		<tag k="natural" v="cape" />
		<tag k="ssr:stedsnr" v="87393" />
	</node>
	<node id="-2059" lat="58.5553333357" lon="6.27479444261">
		<tag k="name" v="Vegavika" />
		<tag k="natural" v="bay" />
		<tag k="ssr:stedsnr" v="87357" />
	</node>
	<node id="-2058" lat="58.5517888907" lon="6.28976667331">
		<tag k="name" v="Søvresøy" />
		<tag k="place" v="island" />
		<tag k="ssr:stedsnr" v="87350" />
	</node>
	<node id="-2055" lat="58.4959580998" lon="6.41877058751">
		<tag k="name" v="Jonsokvatn" />
		<tag k="natural" v="water" />
		<tag k="ssr:stedsnr" v="87257" />
		<tag k="water" v="lake" />
	</node>
	<node id="-2050" lat="58.4999166624" lon="6.53445278035">
		<tag k="name" v="Litle Stemmetjørn" />
		<tag k="natural" v="water" />
		<tag k="ssr:stedsnr" v="87221" />
	</node>
</osm>
