<?xml version="1.0" encoding="UTF-8"?>
<osm generator="osmapis" version="0.6">
	<node id="-399872" lat="58.5410083336" lon="6.50201944556">
		<tag k="name" v="Nedre Skårdal" />
		<tag k="place" v="farm" />
		<tag k="ssr:stedsnr" v="816115" />
	</node>
	<node id="-400138" lat="58.4884388899" lon="6.53607222516">
		<tag k="historic" v="shieling" />
		<tag k="name" v="Skjerpestølen" />
		<tag k="place" v="locality" />
		<tag k="ssr:stedsnr" v="937427" />
	</node>
	<node id="-399189" lat="58.5984805542" lon="6.50917221797">
		<tag k="historic" v="shieling" />
		<tag k="name" v="Tunsomstøl" />
		<tag k="place" v="locality" />
		<tag k="ssr:stedsnr" v="452137" />
	</node>
	<node id="-399865" lat="58.4767083304" lon="6.32178056396">
		<tag k="name" v="Øystad" />
		<tag k="place" v="farm" />
		<tag k="ssr:stedsnr" v="814139" />
	</node>
	<node id="-398840" lat="58.4836916651" lon="6.53728056167">
		<tag k="historic" v="shieling" />
		<tag k="name" v="Legå" />
		<tag k="place" v="locality" />
		<tag k="ssr:stedsnr" v="87378" />
	</node>
	<node id="-399860" lat="58.5416861148" lon="6.54264166025">
		<tag k="name" v="Botnestølen" />
		<tag k="place" v="isolated_dwelling" />
		<tag k="ssr:stedsnr" v="789938" />
	</node>
	<node id="-399859" lat="58.4846819512" lon="6.29403478682">
		<tag k="fixme" v="consider place=hamlet" />
		<tag k="name" v="Grøsareid" />
		<tag k="place" v="farm" />
		<tag k="ssr:stedsnr" v="789931" />
	</node>
	<node id="-398751" lat="58.3924916703" lon="6.58863332674">
		<tag k="name" v="Slettevoll" />
		<tag k="place" v="farm" />
		<tag k="ssr:stedsnr" v="27616" />
	</node>
	<node id="-399851" lat="58.4433620743" lon="6.58259349771">
		<tag k="fixme" v="consider place=hamlet" />
		<tag k="name" v="Hamre" />
		<tag k="place" v="farm" />
		<tag k="ssr:stedsnr" v="789894" />
	</node>
	<node id="-399850" lat="58.6076649979" lon="6.53688238939">
		<tag k="alt_name" v="Kvidingen" />
		<tag k="fixme" v="consider place=hamlet" />
		<tag k="name" v="Kvitingen" />
		<tag k="place" v="farm" />
		<tag k="ssr:stedsnr" v="789852" />
	</node>
	<node id="-399846" lat="58.4007533322" lon="6.58077642486">
		<tag k="fixme" v="consider place=hamlet" />
		<tag k="name" v="Eige" />
		<tag k="place" v="farm" />
		<tag k="ssr:stedsnr" v="789198" />
	</node>
	<node id="-399842" lat="58.4442463768" lon="6.60849513672">
		<tag k="fixme" v="consider place=hamlet" />
		<tag k="name" v="Tronvik" />
		<tag k="place" v="farm" />
		<tag k="ssr:stedsnr" v="788125" />
	</node>
	<node id="-399317" lat="58.4383749967" lon="6.51081666848">
		<tag k="historic" v="shieling" />
		<tag k="name" v="Lundstølen" />
		<tag k="place" v="locality" />
		<tag k="ssr:stedsnr" v="512531" />
	</node>
	<node id="-398797" lat="58.5115362363" lon="6.50768651308">
		<tag k="fixme" v="consider place=hamlet" />
		<tag k="name" v="Hove" />
		<tag k="place" v="farm" />
		<tag k="ssr:stedsnr" v="61983" />
	</node>
	<node id="-398796" lat="58.520899996" lon="6.36049166612">
		<tag k="name" v="Toretjørn" />
		<tag k="place" v="farm" />
		<tag k="ssr:stedsnr" v="61976" />
	</node>
	<node id="-398498" lat="58.5177046247" lon="6.54053685673">
		<tag k="alt_name" v="Austreim" />
		<tag k="fixme" v="consider place=hamlet" />
		<tag k="name" v="Austrheim" />
		<tag k="place" v="farm" />
		<tag k="ssr:stedsnr" v="364999" />
	</node>
	<node id="-398793" lat="58.5400428903" lon="6.30063103567">
		<tag k="fixme" v="consider place=hamlet" />
		<tag k="name" v="Refsland" />
		<tag k="place" v="farm" />
		<tag k="ssr:stedsnr" v="61926" />
	</node>
	<node id="-398363" lat="58.5001277797" lon="6.36045833529">
		<tag k="alt_name" v="Ellingbekken" />
		<tag k="name" v="Heskestad" />
		<tag k="place" v="farm" />
		<tag k="ssr:stedsnr" v="304512" />
	</node>
	<node id="-398787" lat="58.4745468389" lon="6.51787414186">
		<tag k="fixme" v="consider place=hamlet" />
		<tag k="name" v="Osen" />
		<tag k="place" v="farm" />
		<tag k="ssr:stedsnr" v="61910" />
	</node>
	<node id="-398786" lat="58.4748250031" lon="6.36083333249">
		<tag k="fixme" v="consider place=hamlet" />
		<tag k="name" v="Eide" />
		<tag k="place" v="village" />
		<tag k="ssr:stedsnr" v="61905" />
	</node>
	<node id="-399296" lat="58.5413416642" lon="6.48738889321">
		<tag k="name" v="Åsen" />
		<tag k="place" v="farm" />
		<tag k="ssr:stedsnr" v="512248" />
	</node>
	<node id="-399008" lat="58.5783938906" lon="6.58842879992">
		<tag k="alt_name" v="Takholdt" />
		<tag k="fixme" v="consider place=hamlet" />
		<tag k="name" v="Takholte" />
		<tag k="place" v="farm" />
		<tag k="ssr:stedsnr" v="182888" />
	</node>
	<node id="-398782" lat="58.5761210039" lon="6.49432593792">
		<tag k="fixme" v="consider place=hamlet" />
		<tag k="name" v="Rusdal" />
		<tag k="place" v="farm" />
		<tag k="ssr:stedsnr" v="61868" />
	</node>
	<node id="-399291" lat="58.543227782" lon="6.49217222329">
		<tag k="name" v="Skadlehausen" />
		<tag k="place" v="farm" />
		<tag k="ssr:stedsnr" v="512212" />
	</node>
	<node id="-399263" lat="58.4553521455" lon="6.35351559769">
		<tag k="fixme" v="consider place=hamlet" />
		<tag k="name" v="Eigeland" />
		<tag k="place" v="farm" />
		<tag k="ssr:stedsnr" v="485895" />
	</node>
	<node id="-399286" lat="58.5296888845" lon="6.49866111256">
		<tag k="name" v="Lunnan" />
		<tag k="place" v="farm" />
		<tag k="ssr:stedsnr" v="512184" />
	</node>
	<node id="-399283" lat="58.5223194483" lon="6.54628056206">
		<tag k="name" v="Kleivan" />
		<tag k="place" v="farm" />
		<tag k="ssr:stedsnr" v="512170" />
	</node>
	<node id="-398769" lat="58.4321222224" lon="6.33067499746">
		<tag k="name" v="Neset" />
		<tag k="place" v="farm" />
		<tag k="ssr:stedsnr" v="39327" />
	</node>
	<node id="-398253" lat="58.5243500014" lon="6.50571389136">
		<tag k="name" v="Brangsdal" />
		<tag k="place" v="farm" />
		<tag k="ssr:stedsnr" v="269192" />
	</node>
	<node id="-399784" lat="58.5342416664" lon="6.35845833855">
		<tag k="name" v="Lyngbakken" />
		<tag k="place" v="farm" />
		<tag k="ssr:stedsnr" v="755307" />
	</node>
	<node id="-399780" lat="58.5102861077" lon="6.51301111716">
		<tag k="name" v="Kjerkevoll" />
		<tag k="place" v="farm" />
		<tag k="ssr:stedsnr" v="755233" />
	</node>
	<node id="-399267" lat="58.5157135572" lon="6.51251228892">
		<tag k="fixme" v="consider place=hamlet" />
		<tag k="name" v="Surdal" />
		<tag k="place" v="farm" />
		<tag k="ssr:stedsnr" v="486535" />
	</node>
	<node id="-399775" lat="58.5978861129" lon="6.5331777847">
		<tag k="historic" v="shieling" />
		<tag k="name" v="Gamlestølen" />
		<tag k="place" v="locality" />
		<tag k="ssr:stedsnr" v="755150" />
	</node>
	<node id="-399774" lat="58.4738805564" lon="6.30675832788">
		<tag k="name" v="Nedre Øystad" />
		<tag k="place" v="farm" />
		<tag k="ssr:stedsnr" v="755144" />
	</node>
	<node id="-399768" lat="58.4924916651" lon="6.35960555744">
		<tag k="name" v="Hauen" />
		<tag k="place" v="farm" />
		<tag k="ssr:stedsnr" v="755108" />
	</node>
	<node id="-399254" lat="58.530073635" lon="6.56461503236">
		<tag k="fixme" v="consider place=hamlet" />
		<tag k="name" v="Sætra" />
		<tag k="place" v="farm" />
		<tag k="ssr:stedsnr" v="485973" />
	</node>
	<node id="-399253" lat="58.5224916678" lon="6.36872223004">
		<tag k="name" v="Djupedal" />
		<tag k="place" v="farm" />
		<tag k="ssr:stedsnr" v="485963" />
	</node>
	<node id="-398740" lat="58.5097638895" lon="6.48859444285">
		<tag k="historic" v="shieling" />
		<tag k="name" v="Sannestølen" />
		<tag k="place" v="locality" />
		<tag k="ssr:stedsnr" v="27575" />
	</node>
	<node id="-399760" lat="58.4567361115" lon="6.55184999484">
		<tag k="name" v="Moi" />
		<tag k="place" v="village" />
		<tag k="ssr:stedsnr" v="751565" />
	</node>
	<node id="-399247" lat="58.5644691163" lon="6.43286267984">
		<tag k="fixme" v="consider place=hamlet" />
		<tag k="name" v="Førland" />
		<tag k="place" v="farm" />
		<tag k="ssr:stedsnr" v="485923" />
	</node>
	<node id="-399758" lat="58.5150303297" lon="6.35243130053">
		<tag k="fixme" v="consider place=hamlet" />
		<tag k="name" v="Åmdal" />
		<tag k="place" v="farm" />
		<tag k="ssr:stedsnr" v="729987" />
	</node>
	<node id="-399245" lat="58.4540416653" lon="6.55571111259">
		<tag k="name" v="Stranda" />
		<tag k="place" v="quarter" />
		<tag k="ssr:stedsnr" v="484851" />
	</node>
	<node id="-399755" lat="58.526319446" lon="6.34429722982">
		<tag k="name" v="Liavad" />
		<tag k="place" v="farm" />
		<tag k="ssr:stedsnr" v="728970" />
	</node>
	<node id="-399753" lat="58.5289440148" lon="6.46669598662">
		<tag k="fixme" v="consider place=hamlet" />
		<tag k="name" v="Kjørberg" />
		<tag k="place" v="farm" />
		<tag k="ssr:stedsnr" v="728953" />
	</node>
	<node id="-399752" lat="58.5397570585" lon="6.48969194267">
		<tag k="fixme" v="consider place=hamlet" />
		<tag k="name" v="Steinberg" />
		<tag k="place" v="farm" />
		<tag k="ssr:stedsnr" v="728934" />
	</node>
	<node id="-399751" lat="58.5355888903" lon="6.49942222271">
		<tag k="alt_name" v="Sverknes" />
		<tag k="name" v="Sveknes" />
		<tag k="place" v="locality" />
		<tag k="ssr:stedsnr" v="728935" />
	</node>
	<node id="-399237" lat="58.3807027799" lon="6.57581111885">
		<tag k="historic" v="shieling" />
		<tag k="name" v="Stølen" />
		<tag k="place" v="locality" />
		<tag k="ssr:stedsnr" v="452753" />
	</node>
	<node id="-398724" lat="58.4843638876" lon="6.58334444544">
		<tag k="historic" v="shieling" />
		<tag k="name" v="Gamlestølen" />
		<tag k="place" v="locality" />
		<tag k="ssr:stedsnr" v="27438" />
	</node>
	<node id="-398486" lat="58.4935587259" lon="6.35698785312">
		<tag k="fixme" v="consider place=hamlet" />
		<tag k="name" v="Heskestad" />
		<tag k="place" v="farm" />
		<tag k="ssr:stedsnr" v="364939" />
	</node>
	<node id="-399745" lat="58.542744448" lon="6.31704166741">
		<tag k="name" v="Bilstad" />
		<tag k="place" v="farm" />
		<tag k="ssr:stedsnr" v="728921" />
	</node>
	<node id="-399743" lat="58.4659132132" lon="6.34051171671">
		<tag k="fixme" v="consider place=hamlet" />
		<tag k="name" v="Sandsmork" />
		<tag k="place" v="farm" />
		<tag k="ssr:stedsnr" v="728911" />
	</node>
	<node id="-399742" lat="58.5666666683" lon="6.55597500186">
		<tag k="name" v="Hyttestølen" />
		<tag k="place" v="locality" />
		<tag k="ssr:stedsnr" v="728909" />
	</node>
	<node id="-399739" lat="58.4707694418" lon="6.3967861033">
		<tag k="name" v="Moen" />
		<tag k="place" v="farm" />
		<tag k="ssr:stedsnr" v="728902" />
	</node>
	<node id="-398714" lat="58.4433027766" lon="6.60385000413">
		<tag k="name" v="Brekkå" />
		<tag k="place" v="farm" />
		<tag k="ssr:stedsnr" v="27487" />
	</node>
	<node id="-398710" lat="58.5190694428" lon="6.36184166447">
		<tag k="name" v="Bakkan" />
		<tag k="place" v="locality" />
		<tag k="ssr:stedsnr" v="27299" />
	</node>
	<node id="-399220" lat="58.4617138914" lon="6.53935833816">
		<tag k="name" v="Skjerpe" />
		<tag k="place" v="farm" />
		<tag k="ssr:stedsnr" v="452585" />
	</node>
	<node id="-399218" lat="58.452681212" lon="6.56213037272">
		<tag k="fixme" v="consider place=hamlet" />
		<tag k="name" v="Audeland" />
		<tag k="place" v="farm" />
		<tag k="ssr:stedsnr" v="452567" />
	</node>
	<node id="-399729" lat="58.340436313" lon="6.55232612631">
		<tag k="fixme" v="consider place=hamlet" />
		<tag k="name" v="Solbjørg" />
		<tag k="place" v="farm" />
		<tag k="ssr:stedsnr" v="728209" />
	</node>
	<node id="-399128" lat="58.4648555371" lon="6.54209899862">
		<tag k="fixme" v="consider place=hamlet" />
		<tag k="name" v="Haukland" />
		<tag k="place" v="farm" />
		<tag k="ssr:stedsnr" v="243879" />
	</node>
	<node id="-399723" lat="58.4263780294" lon="6.54820887321">
		<tag k="fixme" v="consider place=hamlet" />
		<tag k="name" v="Skåland" />
		<tag k="place" v="farm" />
		<tag k="ssr:stedsnr" v="728110" />
	</node>
	<node id="-398698" lat="58.5267083313" lon="6.35690277002">
		<tag k="name" v="Skaret" />
		<tag k="place" v="farm" />
		<tag k="ssr:stedsnr" v="27310" />
	</node>
	<node id="-399205" lat="58.4492250031" lon="6.54970278611">
		<tag k="name" v="Leidingshaugen" />
		<tag k="place" v="village" />
		<tag k="ssr:stedsnr" v="452400" />
	</node>
	<node id="-399715" lat="58.4680361107" lon="6.51752223029">
		<tag k="name" v="Slåttet" />
		<tag k="place" v="locality" />
		<tag k="ssr:stedsnr" v="695576" />
	</node>
	<node id="-399200" lat="58.516600002" lon="6.54176944862">
		<tag k="name" v="Skaret" />
		<tag k="place" v="farm" />
		<tag k="ssr:stedsnr" v="452210" />
	</node>
	<node id="-398677" lat="58.5379083347" lon="6.47781666095">
		<tag k="name" v="Knodlen" />
		<tag k="place" v="farm" />
		<tag k="ssr:stedsnr" v="27233" />
	</node>
	<node id="-398563" lat="58.4719527767" lon="6.49312500246">
		<tag k="historic" v="shieling" />
		<tag k="name" v="Osastølen" />
		<tag k="place" v="locality" />
		<tag k="ssr:stedsnr" v="391584" />
	</node>
	<node id="-398670" lat="58.5233055581" lon="6.54983055487">
		<tag k="name" v="Hagen" />
		<tag k="place" v="farm" />
		<tag k="ssr:stedsnr" v="27138" />
	</node>
	<node id="-400201" lat="58.5372875754" lon="6.49504375017">
		<tag k="name" v="Hålå" />
		<tag k="place" v="farm" />
		<tag k="ssr:stedsnr" v="980182" />
	</node>
	<node id="-400199" lat="58.410660864" lon="6.57921619697">
		<tag k="name" v="Neset" />
		<tag k="place" v="neighbourhood" />
		<tag k="ssr:stedsnr" v="969864" />
	</node>
	<node id="-398661" lat="58.3416611876" lon="6.52546400774">
		<tag k="alt_name" v="Drivdal" />
		<tag k="fixme" v="consider place=hamlet" />
		<tag k="name" v="Øvre Drivdal" />
		<tag k="place" v="farm" />
		<tag k="ssr:stedsnr" v="25126" />
	</node>
	<node id="-398660" lat="58.5096900479" lon="6.52205022955">
		<tag k="fixme" v="consider place=hamlet" />
		<tag k="name" v="Handeland" />
		<tag k="place" v="farm" />
		<tag k="ssr:stedsnr" v="1536" />
	</node>
	<node id="-398658" lat="58.5056606641" lon="6.3079817219">
		<tag k="fixme" v="consider place=hamlet" />
		<tag k="name" v="Førnes" />
		<tag k="place" v="farm" />
		<tag k="ssr:stedsnr" v="995" />
	</node>
	<node id="-399169" lat="58.5385277814" lon="6.31864999215">
		<tag k="name" v="Bilstad (Legå)" />
		<tag k="place" v="farm" />
		<tag k="ssr:stedsnr" v="451352" />
	</node>
	<node id="-399072" lat="58.5447249977" lon="6.2944472152">
		<tag k="name" v="Lyngnes" />
		<tag k="place" v="farm" />
		<tag k="ssr:stedsnr" v="209370" />
	</node>
	<node id="-398654" lat="58.5340563226" lon="6.48121972287">
		<tag k="fixme" v="consider place=hamlet" />
		<tag k="name" v="Kjørmo" />
		<tag k="place" v="farm" />
		<tag k="ssr:stedsnr" v="948" />
	</node>
	<node id="-399157" lat="58.541648633" lon="6.27036036658">
		<tag k="alt_name" v="Hedleren" />
		<tag k="fixme" v="consider place=hamlet" />
		<tag k="name" v="Helleren" />
		<tag k="place" v="farm" />
		<tag k="ssr:stedsnr" v="425926" />
	</node>
	<node id="-399673" lat="58.4522944467" lon="6.55200832692">
		<tag k="amenity" v="school" />
		<tag k="name" v="Nygård skole" />
		<tag k="ssr:stedsnr" v="694378" />
	</node>
	<node id="-399672" lat="58.446222221" lon="6.57008054732">
		<tag k="name" v="Posmyr" />
		<tag k="place" v="farm" />
		<tag k="ssr:stedsnr" v="694379" />
	</node>
	<node id="-398647" lat="58.4733110215" lon="6.30917939381">
		<tag k="name" v="Øystad" />
		<tag k="place" v="hamlet" />
		<tag k="ssr:stedsnr" v="915" />
	</node>
	<node id="-398645" lat="58.6027694456" lon="6.48496944204">
		<tag k="name" v="Lidragstølen" />
		<tag k="place" v="locality" />
		<tag k="ssr:stedsnr" v="860" />
	</node>
	<node id="-399156" lat="58.5484821867" lon="6.30529991498">
		<tag k="fixme" v="consider place=hamlet" />
		<tag k="name" v="Tekse" />
		<tag k="place" v="farm" />
		<tag k="ssr:stedsnr" v="425923" />
	</node>
	<node id="-398642" lat="58.3955529286" lon="6.53251907144">
		<tag k="fixme" v="consider place=hamlet" />
		<tag k="name" v="Liland" />
		<tag k="place" v="farm" />
		<tag k="ssr:stedsnr" v="190" />
	</node>
	<node id="-399149" lat="58.4429127213" lon="6.33112505473">
		<tag k="fixme" v="consider place=hamlet" />
		<tag k="name" v="Steine" />
		<tag k="place" v="farm" />
		<tag k="ssr:stedsnr" v="425900" />
	</node>
	<node id="-399147" lat="58.5978194483" lon="6.49828888569">
		<tag k="alt_name" v="Hedlerdalstøl" />
		<tag k="name" v="Hellardalstølen" />
		<tag k="place" v="locality" />
		<tag k="ssr:stedsnr" v="425869" />
	</node>
	<node id="-399145" lat="58.6081105884" lon="6.57980596339">
		<tag k="fixme" v="consider place=hamlet" />
		<tag k="name" v="Espelistøl" />
		<tag k="place" v="farm" />
		<tag k="ssr:stedsnr" v="425857" />
	</node>
	<node id="-400164" lat="58.4473444476" lon="6.38253055461">
		<tag k="name" v="Øygarden" />
		<tag k="place" v="locality" />
		<tag k="ssr:stedsnr" v="937702" />
	</node>
	<node id="-399138" lat="58.5413971703" lon="6.50420582202">
		<tag k="name" v="Skårdal" />
		<tag k="place" v="hamlet" />
		<tag k="ssr:stedsnr" v="243941" />
	</node>
	<node id="-399648" lat="58.544627778" lon="6.51033332558">
		<tag k="name" v="Øvre Skårdal" />
		<tag k="place" v="farm" />
		<tag k="ssr:stedsnr" v="694187" />
	</node>
	<node id="-398616" lat="58.449537632" lon="6.5533552732">
		<tag k="fixme" v="consider place=hamlet" />
		<tag k="name" v="Lund" />
		<tag k="place" v="farm" />
		<tag k="ssr:stedsnr" v="991040" />
	</node>
	<node id="-400150" lat="58.4521861072" lon="6.54332778447">
		<tag k="amenity" v="school" />
		<tag k="name" v="Lundheim folkehøgskole" />
		<tag k="ssr:stedsnr" v="937548" />
	</node>
	<node id="-399124" lat="58.5027749982" lon="6.3577194404">
		<tag k="name" v="Solheim" />
		<tag k="place" v="farm" />
		<tag k="ssr:stedsnr" v="243524" />
	</node>
	<node id="-399123" lat="58.3411773572" lon="6.52662390312">
		<tag k="name" v="Øvre Drivdal" />
		<tag k="place" v="farm" />
		<tag k="ssr:stedsnr" v="243219" />
	</node>
	<node id="-399120" lat="58.4053467776" lon="6.56925090085">
		<tag k="fixme" v="consider place=hamlet" />
		<tag k="name" v="Litlehei" />
		<tag k="place" v="farm" />
		<tag k="ssr:stedsnr" v="243164" />
	</node>
	<node id="-399117" lat="58.4491969678" lon="6.62124647592">
		<tag k="fixme" v="consider place=hamlet" />
		<tag k="name" v="Bringedal" />
		<tag k="place" v="farm" />
		<tag k="ssr:stedsnr" v="243049" />
	</node>
	<node id="-399114" lat="58.5328444433" lon="6.50136388837">
		<tag k="name" v="Lunnan" />
		<tag k="place" v="quarter" />
		<tag k="ssr:stedsnr" v="241857" />
	</node>
	<node id="-399617" lat="58.5241966637" lon="6.55420254415">
		<tag k="fixme" v="consider place=hamlet" />
		<tag k="name" v="Mageland" />
		<tag k="place" v="farm" />
		<tag k="ssr:stedsnr" v="668992" />
	</node>
	<node id="-399614" lat="58.4491671449" lon="6.57149588339">
		<tag k="fixme" v="consider place=hamlet" />
		<tag k="name" v="Lindland" />
		<tag k="place" v="farm" />
		<tag k="ssr:stedsnr" v="668879" />
	</node>
	<node id="-398805" lat="58.5630166687" lon="6.55340278252">
		<tag k="historic" v="shieling" />
		<tag k="name" v="Nedre Holestølen" />
		<tag k="place" v="locality" />
		<tag k="ssr:stedsnr" v="87117" />
	</node>
	<node id="-398463" lat="58.4205916666" lon="6.57575555666">
		<tag k="name" v="Haukeneset" />
		<tag k="place" v="neighbourhood" />
		<tag k="ssr:stedsnr" v="362875" />
	</node>
	<node id="-399607" lat="58.5254333351" lon="6.49639443603">
		<tag k="fixme" v="consider place=hamlet" />
		<tag k="name" v="Eik" />
		<tag k="place" v="village" />
		<tag k="ssr:stedsnr" v="667959" />
	</node>
	<node id="-399604" lat="58.4872995639" lon="6.49908741373">
		<tag k="fixme" v="consider place=hamlet" />
		<tag k="name" v="Skjeggjestad" />
		<tag k="place" v="farm" />
		<tag k="ssr:stedsnr" v="667931" />
	</node>
	<node id="-399086" lat="58.4960777742" lon="6.47173056256">
		<tag k="historic" v="shieling" />
		<tag k="name" v="Vermundstølen" />
		<tag k="place" v="locality" />
		<tag k="ssr:stedsnr" v="209566" />
	</node>
	<node id="-400108" lat="58.5743250017" lon="6.49784166727">
		<tag k="name" v="Lonnan" />
		<tag k="place" v="farm" />
		<tag k="ssr:stedsnr" v="937146" />
	</node>
	<node id="-399082" lat="58.4892194452" lon="6.56966667119">
		<tag k="historic" v="shieling" />
		<tag k="name" v="Botnestølen" />
		<tag k="place" v="locality" />
		<tag k="ssr:stedsnr" v="209460" />
	</node>
	<node id="-399593" lat="58.5783194477" lon="6.53369999635">
		<tag k="name" v="Grønlistølen" />
		<tag k="place" v="isolated_dwelling" />
		<tag k="ssr:stedsnr" v="667876" />
	</node>
	<node id="-399590" lat="58.3213272853" lon="6.50807747824">
		<tag k="fixme" v="consider place=hamlet" />
		<tag k="name" v="Gjersdal" />
		<tag k="place" v="farm" />
		<tag k="ssr:stedsnr" v="667238" />
	</node>
	<node id="-400100" lat="58.4441472211" lon="6.32909999243">
		<tag k="name" v="Grov" />
		<tag k="place" v="farm" />
		<tag k="ssr:stedsnr" v="937108" />
	</node>
	<node id="-399587" lat="58.3633916077" lon="6.51436582128">
		<tag k="fixme" v="consider place=hamlet" />
		<tag k="name" v="Kvelland" />
		<tag k="place" v="farm" />
		<tag k="ssr:stedsnr" v="667222" />
	</node>
	<node id="-399585" lat="58.3791009931" lon="6.58964067666">
		<tag k="fixme" v="consider place=hamlet" />
		<tag k="name" v="Hellemork" />
		<tag k="old_name" v="Hedlemork" />
		<tag k="place" v="farm" />
		<tag k="ssr:stedsnr" v="667186" />
	</node>
	<node id="-400096" lat="58.5212235312" lon="6.5011898654">
		<tag k="fixme" v="consider place=hamlet" />
		<tag k="name" v="Eik" />
		<tag k="place" v="farm" />
		<tag k="ssr:stedsnr" v="911964" />
	</node>
	<node id="-400093" lat="58.536692633" lon="6.33484408119">
		<tag k="fixme" v="consider place=hamlet" />
		<tag k="name" v="Bilstad" />
		<tag k="place" v="farm" />
		<tag k="ssr:stedsnr" v="910957" />
	</node>
	<node id="-399068" lat="58.5243944465" lon="6.34994167508">
		<tag k="name" v="Reiarplasset" />
		<tag k="place" v="farm" />
		<tag k="ssr:stedsnr" v="209314" />
	</node>
	<node id="-400091" lat="58.4971369244" lon="6.29945386725">
		<tag k="fixme" v="consider place=hamlet" />
		<tag k="name" v="Røyseland" />
		<tag k="place" v="farm" />
		<tag k="ssr:stedsnr" v="910948" />
	</node>
	<node id="-400088" lat="58.5761527748" lon="6.50919999426">
		<tag k="alt_name" v="Raudgjelstølen" />
		<tag k="historic" v="shieling" />
		<tag k="name" v="Raudlistølen" />
		<tag k="place" v="locality" />
		<tag k="ssr:stedsnr" v="910902" />
	</node>
	<node id="-400087" lat="58.611692595" lon="6.56230329873">
		<tag k="alt_name" v="Sandstøl" />
		<tag k="fixme" v="consider place=hamlet" />
		<tag k="name" v="Indre Sandstøl" />
		<tag k="place" v="farm" />
		<tag k="ssr:stedsnr" v="910854" />
	</node>
	<node id="-400080" lat="58.5358861087" lon="6.57231666209">
		<tag k="name" v="Sundmyr" />
		<tag k="place" v="neighbourhood" />
		<tag k="ssr:stedsnr" v="909863" />
	</node>
	<node id="-399562" lat="58.3754111126" lon="6.52288888811">
		<tag k="amenity" v="school" />
		<tag k="name" v="Postmyr" />
		<tag k="ssr:stedsnr" v="633792" />
	</node>
	<node id="-399820" lat="58.4117055544" lon="6.56926110743">
		<tag k="name" v="Storåg" />
		<tag k="place" v="farm" />
		<tag k="ssr:stedsnr" v="755602" />
	</node>
	<node id="-399549" lat="58.4134666646" lon="6.57241388367">
		<tag k="name" v="Bervoll" />
		<tag k="place" v="farm" />
		<tag k="ssr:stedsnr" v="633609" />
	</node>
	<node id="-398644" lat="58.3242750981" lon="6.53780928302">
		<tag k="fixme" v="consider place=hamlet" />
		<tag k="name" v="Nedre Drivdal" />
		<tag k="place" v="farm" />
		<tag k="ssr:stedsnr" v="241" />
	</node>
	<node id="-398708" lat="58.512402777" lon="6.42991666011">
		<tag k="historic" v="shieling" />
		<tag k="name" v="Tristøl" />
		<tag k="place" v="locality" />
		<tag k="ssr:stedsnr" v="27288" />
	</node>
	<node id="-400051" lat="58.4269444473" lon="6.55260277162">
		<tag k="name" v="Brodet" />
		<tag k="place" v="farm" />
		<tag k="ssr:stedsnr" v="876594" />
	</node>
	<node id="-400050" lat="58.4278083339" lon="6.54865833631">
		<tag k="amenity" v="school" />
		<tag k="name" v="Skåland skole" />
		<tag k="ssr:stedsnr" v="876595" />
	</node>
	<node id="-399140" lat="58.5165722179" lon="6.35832499783">
		<tag k="name" v="Steinsland" />
		<tag k="place" v="farm" />
		<tag k="ssr:stedsnr" v="243983" />
	</node>
	<node id="-399024" lat="58.512437405" lon="6.35699787876">
		<tag k="fixme" v="consider place=hamlet" />
		<tag k="name" v="Hetland" />
		<tag k="place" v="farm" />
		<tag k="ssr:stedsnr" v="183984" />
	</node>
	<node id="-399020" lat="58.5016027148" lon="6.30026016812">
		<tag k="alt_name" v="Fjedla" />
		<tag k="fixme" v="consider place=hamlet" />
		<tag k="name" v="Fjella" />
		<tag k="place" v="farm" />
		<tag k="ssr:stedsnr" v="183484" />
	</node>
	<node id="-399531" lat="58.5306916634" lon="6.3414972276">
		<tag k="name" v="Hoktuen" />
		<tag k="place" v="farm" />
		<tag k="ssr:stedsnr" v="633316" />
	</node>
	<node id="-399018" lat="58.5206256897" lon="6.35306913141">
		<tag k="alt_name" v="Hauå" />
		<tag k="fixme" v="consider place=hamlet" />
		<tag k="name" v="Haugo" />
		<tag k="place" v="farm" />
		<tag k="ssr:stedsnr" v="182978" />
	</node>
	<node id="-398504" lat="58.5177527809" lon="6.53963055321">
		<tag k="name" v="Reinå" />
		<tag k="place" v="farm" />
		<tag k="ssr:stedsnr" v="390197" />
	</node>
	<node id="-399217" lat="58.464405556" lon="6.58392778221">
		<tag k="historic" v="shieling" />
		<tag k="name" v="Gamle stølen" />
		<tag k="place" v="locality" />
		<tag k="ssr:stedsnr" v="452560" />
	</node>
	<node id="-398933" lat="58.5344944477" lon="6.49582777715">
		<tag k="name" v="På Monen" />
		<tag k="place" v="farm" />
		<tag k="ssr:stedsnr" v="148167" />
	</node>
	<node id="-399010" lat="58.5524027802" lon="6.49328056102">
		<tag k="name" v="Vassmoen" />
		<tag k="place" v="farm" />
		<tag k="ssr:stedsnr" v="182899" />
	</node>
	<node id="-399308" lat="58.445375003" lon="6.57580832475">
		<tag k="name" v="Vodland" />
		<tag k="place" v="farm" />
		<tag k="ssr:stedsnr" v="512409" />
	</node>
	<node id="-399520" lat="58.530341664" lon="6.56295555555">
		<tag k="name" v="Haugåget" />
		<tag k="place" v="farm" />
		<tag k="ssr:stedsnr" v="633187" />
	</node>
	<node id="-398495" lat="58.5143055516" lon="6.5075055546">
		<tag k="name" v="Sandnes" />
		<tag k="place" v="farm" />
		<tag k="ssr:stedsnr" v="364992" />
	</node>
	<node id="-398998" lat="58.4105847374" lon="6.5746693698">
		<tag k="fixme" v="consider place=hamlet" />
		<tag k="name" v="Kjellesvig" />
		<tag k="place" v="farm" />
		<tag k="ssr:stedsnr" v="182124" />
	</node>
	<node id="-398997" lat="58.4438277772" lon="6.55206666729">
		<tag k="name" v="Lundestranda" />
		<tag k="place" v="quarter" />
		<tag k="ssr:stedsnr" v="180862" />
	</node>
	<node id="-398994" lat="58.4883545572" lon="6.32363745546">
		<tag k="fixme" v="consider place=hamlet" />
		<tag k="name" v="Dybing" />
		<tag k="place" v="farm" />
		<tag k="ssr:stedsnr" v="174937" />
	</node>
	<node id="-399505" lat="58.5600083332" lon="6.52755277895">
		<tag k="alt_name" v="Skårdalstølen, nedre;nedre Skårdalstøl" />
		<tag k="historic" v="shieling" />
		<tag k="name" v="Nedre Skårdalstølen" />
		<tag k="place" v="locality" />
		<tag k="ssr:stedsnr" v="606931" />
	</node>
	<node id="-399504" lat="58.5541055583" lon="6.51334165793">
		<tag k="alt_name" v="Skårdalstølen, øvre;øvre Skårdalstøl" />
		<tag k="name" v="Øvre Skårdalstølen" />
		<tag k="place" v="locality" />
		<tag k="ssr:stedsnr" v="606929" />
	</node>
	<node id="-399503" lat="58.5467166517" lon="6.35463399678">
		<tag k="fixme" v="consider place=hamlet" />
		<tag k="name" v="Bjuland" />
		<tag k="place" v="farm" />
		<tag k="ssr:stedsnr" v="606922" />
	</node>
	<node id="-399501" lat="58.4696472177" lon="6.52851388505">
		<tag k="alt_name" v="Haukelandsmoen" />
		<tag k="name" v="Moen" />
		<tag k="place" v="farm" />
		<tag k="ssr:stedsnr" v="606906" />
	</node>
	<node id="-400011" lat="58.5182472257" lon="6.50240832574">
		<tag k="name" v="Kamperhaug" />
		<tag k="place" v="farm" />
		<tag k="ssr:stedsnr" v="876198" />
	</node>
	<node id="-398472" lat="58.5926203754" lon="6.57417607183">
		<tag k="fixme" v="consider place=hamlet" />
		<tag k="name" v="Solli" />
		<tag k="place" v="farm" />
		<tag k="ssr:stedsnr" v="364902" />
	</node>
	<node id="-398471" lat="58.4522974376" lon="6.54903279752">
		<tag k="fixme" v="consider place=hamlet" />
		<tag k="name" v="Eigeland" />
		<tag k="place" v="farm" />
		<tag k="ssr:stedsnr" v="364897" />
	</node>
	<node id="-398467" lat="58.3608993244" lon="6.54767512616">
		<tag k="fixme" v="consider place=hamlet" />
		<tag k="name" v="Åvedal" />
		<tag k="place" v="farm" />
		<tag k="ssr:stedsnr" v="364217" />
	</node>
	<node id="-399489" lat="58.447018934" lon="6.37627152075">
		<tag k="alt_name" v="Kolestrond" />
		<tag k="fixme" v="consider place=hamlet" />
		<tag k="name" v="Kolestrand" />
		<tag k="place" v="farm" />
		<tag k="ssr:stedsnr" v="606867" />
	</node>
	<node id="-398464" lat="58.4079722252" lon="6.57593889515">
		<tag k="name" v="Tipperåsen" />
		<tag k="place" v="neighbourhood" />
		<tag k="ssr:stedsnr" v="362876" />
	</node>
	<node id="-398975" lat="58.4688833328" lon="6.38489445038">
		<tag k="name" v="Plassen" />
		<tag k="place" v="farm" />
		<tag k="ssr:stedsnr" v="148690" />
	</node>
	<node id="-399989" lat="58.5182565688" lon="6.50754285047">
		<tag k="alt_name" v="Hovsmo" />
		<tag k="fixme" v="consider place=hamlet" />
		<tag k="loc_name" v="Horsmo" />
		<tag k="name" v="Hovsmoen" />
		<tag k="place" v="farm" />
		<tag k="ssr:stedsnr" v="850992" />
	</node>
	<node id="-398452" lat="58.4491944446" lon="6.60998055954">
		<tag k="historic" v="shieling" />
		<tag k="name" v="Gamlestølen" />
		<tag k="place" v="locality" />
		<tag k="ssr:stedsnr" v="331451" />
	</node>
	<node id="-399987" lat="58.518383329" lon="6.35011666375">
		<tag k="name" v="Nyborg" />
		<tag k="place" v="farm" />
		<tag k="ssr:stedsnr" v="850987" />
	</node>
	<node id="-399986" lat="58.5193500042" lon="6.50032499555">
		<tag k="name" v="Eiksmoen" />
		<tag k="place" v="farm" />
		<tag k="ssr:stedsnr" v="850974" />
	</node>
	<node id="-398867" lat="58.4209333291" lon="6.54787778305">
		<tag k="name" v="Horsmoen" />
		<tag k="place" v="farm" />
		<tag k="ssr:stedsnr" v="88530" />
	</node>
	<node id="-399472" lat="58.3994194413" lon="6.57791667475">
		<tag k="name" v="På Hauen" />
		<tag k="place" v="farm" />
		<tag k="ssr:stedsnr" v="573558" />
	</node>
	<node id="-399471" lat="58.426097226" lon="6.55535833436">
		<tag k="name" v="Neset" />
		<tag k="place" v="farm" />
		<tag k="ssr:stedsnr" v="573559" />
	</node>
	<node id="-399982" lat="58.4910000041" lon="6.55713055521">
		<tag k="historic" v="shieling" />
		<tag k="name" v="Hauklandsstølen" />
		<tag k="place" v="locality" />
		<tag k="ssr:stedsnr" v="850918" />
	</node>
	<node id="-399468" lat="58.4632805527" lon="6.54421665834">
		<tag k="name" v="Tangeland" />
		<tag k="place" v="farm" />
		<tag k="ssr:stedsnr" v="573534" />
	</node>
	<node id="-399466" lat="58.4571138872" lon="6.5071722238">
		<tag k="historic" v="shieling" />
		<tag k="name" v="Bergstølen" />
		<tag k="place" v="locality" />
		<tag k="ssr:stedsnr" v="573522" />
	</node>
	<node id="-399289" lat="58.5214666706" lon="6.49998889625">
		<tag k="name" v="Vodlen" />
		<tag k="place" v="farm" />
		<tag k="ssr:stedsnr" v="512193" />
	</node>
	<node id="-399972" lat="58.3755429355" lon="6.58365911939">
		<tag k="fixme" v="consider place=hamlet" />
		<tag k="name" v="Djubedal" />
		<tag k="place" v="farm" />
		<tag k="ssr:stedsnr" v="850208" />
	</node>
	<node id="-398779" lat="58.555106995" lon="6.28746392165">
		<tag k="alt_name" v="Bjednamoen;Bjørnamoen" />
		<tag k="fixme" v="consider place=hamlet" />
		<tag k="name" v="Bjørnemoen" />
		<tag k="place" v="farm" />
		<tag k="ssr:stedsnr" v="61881" />
	</node>
	<node id="-399968" lat="58.5960638863" lon="6.53406110786">
		<tag k="historic" v="shieling" />
		<tag k="name" v="Storlistølen" />
		<tag k="place" v="locality" />
		<tag k="ssr:stedsnr" v="849884" />
	</node>
	<node id="-399967" lat="58.4916649646" lon="6.51853648871">
		<tag k="fixme" v="consider place=hamlet" />
		<tag k="name" v="Lagestronda" />
		<tag k="place" v="farm" />
		<tag k="ssr:stedsnr" v="850919" />
	</node>
	<node id="-398693" lat="58.5424777746" lon="6.49273055144">
		<tag k="name" v="Skadlen" />
		<tag k="place" v="farm" />
		<tag k="ssr:stedsnr" v="27180" />
	</node>
	<node id="-399495" lat="58.4192107501" lon="6.5410423973">
		<tag k="fixme" v="consider place=hamlet" />
		<tag k="name" v="Gursli" />
		<tag k="place" v="farm" />
		<tag k="ssr:stedsnr" v="606132" />
	</node>
	<node id="-399084" lat="58.4489361068" lon="6.55237222741">
		<tag k="alt_name" v="Prestegarden" />
		<tag k="name" v="Lund prestegard" />
		<tag k="place" v="farm" />
		<tag k="ssr:stedsnr" v="209490" />
	</node>
	<node id="-399375" lat="58.575452781" lon="6.57764444955">
		<tag k="name" v="Holestølen" />
		<tag k="place" v="isolated_dwelling" />
		<tag k="ssr:stedsnr" v="546879" />
	</node>
	<node id="-398422" lat="58.455544445" lon="6.5348277752">
		<tag k="name" v="Floran" />
		<tag k="place" v="farm" />
		<tag k="ssr:stedsnr" v="330598" />
	</node>
	<node id="-399801" lat="58.4449055557" lon="6.5729138884">
		<tag k="name" v="Slåta" />
		<tag k="place" v="farm" />
		<tag k="ssr:stedsnr" v="755408" />
	</node>
	<node id="-398932" lat="58.5316805547" lon="6.56964166403">
		<tag k="name" v="Vebakken" />
		<tag k="place" v="farm" />
		<tag k="ssr:stedsnr" v="148160" />
	</node>
	<node id="-399442" lat="58.5070749968" lon="6.44002222467">
		<tag k="historic" v="shieling" />
		<tag k="name" v="Perslistøl" />
		<tag k="place" v="locality" />
		<tag k="ssr:stedsnr" v="572504" />
	</node>
	<node id="-399433" lat="58.550869444" lon="6.32716944187">
		<tag k="name" v="Okseplasset" />
		<tag k="place" v="locality" />
		<tag k="ssr:stedsnr" v="572393" />
	</node>
	<node id="-398265" lat="58.5316638918" lon="6.44878610779">
		<tag k="historic" v="shieling" />
		<tag k="name" v="Rauknostølen" />
		<tag k="place" v="locality" />
		<tag k="ssr:stedsnr" v="269251" />
	</node>
	<node id="-399457" lat="58.4308000034" lon="6.32333333219">
		<tag k="name" v="Hedle" />
		<tag k="place" v="locality" />
		<tag k="ssr:stedsnr" v="573217" />
	</node>
	<node id="-398657" lat="58.5289641319" lon="6.35090839259">
		<tag k="fixme" v="consider place=hamlet" />
		<tag k="name" v="Vasshus" />
		<tag k="place" v="farm" />
		<tag k="ssr:stedsnr" v="975" />
	</node>
	<node id="-398908" lat="58.5299735565" lon="6.3629588019">
		<tag k="fixme" v="consider place=hamlet" />
		<tag k="name" v="Ollestad" />
		<tag k="place" v="farm" />
		<tag k="ssr:stedsnr" v="121973" />
	</node>
	<node id="-398602" lat="58.6169611152" lon="6.52436667015">
		<tag k="historic" v="shieling" />
		<tag k="name" v="Kvidingstølen" />
		<tag k="place" v="locality" />
		<tag k="ssr:stedsnr" v="269138" />
	</node>
	<node id="-399417" lat="58.5431333373" lon="6.40320555857">
		<tag k="fixme" v="consider place=hamlet" />
		<tag k="name" v="Urdal" />
		<tag k="place" v="farm" />
		<tag k="ssr:stedsnr" v="572307" />
	</node>
	<node id="-398389" lat="58.528452774" lon="6.56743611762">
		<tag k="name" v="Garen" />
		<tag k="place" v="farm" />
		<tag k="ssr:stedsnr" v="330191" />
	</node>
	<node id="-398898" lat="58.6118305528" lon="6.52149445324">
		<tag k="alt_name" v="Klubbestølen" />
		<tag k="name" v="Klubbestøl" />
		<tag k="place" v="isolated_dwelling" />
		<tag k="ssr:stedsnr" v="121853" />
	</node>
	<node id="-398896" lat="58.3237111112" lon="6.50739722764">
		<tag k="name" v="Gjersdalsmyra" />
		<tag k="place" v="farm" />
		<tag k="ssr:stedsnr" v="121228" />
	</node>
	<node id="-399919" lat="58.4863499992" lon="6.54917499463">
		<tag k="historic" v="shieling" />
		<tag k="name" v="Nye stølen" />
		<tag k="place" v="locality" />
		<tag k="ssr:stedsnr" v="816460" />
	</node>
	<node id="-398482" lat="58.566222225" lon="6.57473332773">
		<tag k="name" v="Steinbergstølen" />
		<tag k="place" v="isolated_dwelling" />
		<tag k="ssr:stedsnr" v="364929" />
	</node>
	<node id="-398378" lat="58.4920472236" lon="6.35474999176">
		<tag k="name" v="Rotten" />
		<tag k="place" v="farm" />
		<tag k="ssr:stedsnr" v="330121" />
	</node>
	<node id="-398854" lat="58.4717916659" lon="6.31226110337">
		<tag k="name" v="Øvre Øystad" />
		<tag k="place" v="farm" />
		<tag k="ssr:stedsnr" v="88112" />
	</node>
	<node id="-399393" lat="58.5073972198" lon="6.36661667491">
		<tag k="name" v="Neset" />
		<tag k="place" v="farm" />
		<tag k="ssr:stedsnr" v="546983" />
	</node>
	<node id="-399392" lat="58.512888773" lon="6.36387179549">
		<tag k="fixme" v="consider place=hamlet" />
		<tag k="name" v="Ualand" />
		<tag k="place" v="farm" />
		<tag k="ssr:stedsnr" v="546977" />
	</node>
	<node id="-398366" lat="58.5415222264" lon="6.58388610668">
		<tag k="alt_name" v="Langelandsstøl" />
		<tag k="name" v="Langelandsstølen" />
		<tag k="place" v="isolated_dwelling" />
		<tag k="ssr:stedsnr" v="304938" />
	</node>
	<node id="-398365" lat="58.4558535746" lon="6.54679083038">
		<tag k="fixme" v="consider place=hamlet" />
		<tag k="name" v="Moi" />
		<tag k="place" v="farm" />
		<tag k="ssr:stedsnr" v="304903" />
	</node>
	<node id="-398364" lat="58.449353941" lon="6.56285468407">
		<tag k="fixme" v="consider place=hamlet" />
		<tag k="name" v="Skor" />
		<tag k="place" v="farm" />
		<tag k="ssr:stedsnr" v="304889" />
	</node>
	<node id="-399387" lat="58.4792361508" lon="6.30636950374">
		<tag k="fixme" v="consider place=hamlet" />
		<tag k="name" v="Langhus" />
		<tag k="place" v="farm" />
		<tag k="ssr:stedsnr" v="546920" />
	</node>
	<node id="-398362" lat="58.3136602351" lon="6.49362322308">
		<tag k="fixme" v="consider place=hamlet" />
		<tag k="name" v="Elve" />
		<tag k="place" v="farm" />
		<tag k="ssr:stedsnr" v="304029" />
	</node>
	<node id="-399385" lat="58.5482928355" lon="6.5237236668">
		<tag k="fixme" v="consider place=hamlet" />
		<tag k="name" v="Flatestøl" />
		<tag k="place" v="farm" />
		<tag k="ssr:stedsnr" v="546914" />
	</node>
	<node id="-399384" lat="58.5452249955" lon="6.47521388128">
		<tag k="alt_name" v="Soleim" />
		<tag k="name" v="Solheim" />
		<tag k="place" v="farm" />
		<tag k="ssr:stedsnr" v="546915" />
	</node>
	<node id="-398359" lat="58.5416708674" lon="6.2724785537">
		<tag k="alt_name" v="Hedleren" />
		<tag k="name" v="Helleren" />
		<tag k="place" v="farm" />
		<tag k="ssr:stedsnr" v="303936" />
	</node>
	<node id="-399381" lat="58.5499966553" lon="6.3354779649">
		<tag k="alt_name" v="Birkjemoen" />
		<tag k="fixme" v="consider place=hamlet" />
		<tag k="name" v="Byrkjemo" />
		<tag k="place" v="farm" />
		<tag k="ssr:stedsnr" v="546902" />
	</node>
	<node id="-398356" lat="58.4746334177" lon="6.40944533965">
		<tag k="fixme" v="consider place=hamlet" />
		<tag k="name" v="Drange" />
		<tag k="place" v="farm" />
		<tag k="ssr:stedsnr" v="303912" />
	</node>
	<node id="-399379" lat="58.4586416698" lon="6.53871943827">
		<tag k="name" v="Skulevoll" />
		<tag k="place" v="farm" />
		<tag k="ssr:stedsnr" v="546892" />
	</node>
	<node id="-398475" lat="58.4413638902" lon="6.53573334109">
		<tag k="name" v="Heia" />
		<tag k="place" v="isolated_dwelling" />
		<tag k="ssr:stedsnr" v="364906" />
	</node>
	<node id="-398865" lat="58.3949861071" lon="6.54693333539">
		<tag k="historic" v="shieling" />
		<tag k="name" v="Stølen" />
		<tag k="place" v="locality" />
		<tag k="ssr:stedsnr" v="88524" />
	</node>
	<node id="-399888" lat="58.5518444453" lon="6.55706666974">
		<tag k="historic" v="shieling" />
		<tag k="name" v="Gamlestølen" />
		<tag k="place" v="locality" />
		<tag k="ssr:stedsnr" v="816200" />
	</node>
	<node id="-399887" lat="58.5210055521" lon="6.51008056058">
		<tag k="name" v="Teian" />
		<tag k="place" v="farm" />
		<tag k="ssr:stedsnr" v="816191" />
	</node>
	<node id="-398348" lat="58.3656102928" lon="6.58681891962">
		<tag k="fixme" v="consider place=hamlet" />
		<tag k="name" v="Røyland" />
		<tag k="place" v="farm" />
		<tag k="ssr:stedsnr" v="303219" />
	</node>
	<node id="-399371" lat="58.5526071509" lon="6.60935827559">
		<tag k="alt_name" v="Sandstøl, yt" />
		<tag k="fixme" v="consider place=hamlet" />
		<tag k="name" v="Ytre Sandstøl" />
		<tag k="place" v="farm" />
		<tag k="ssr:stedsnr" v="546707" />
	</node>
	<node id="-399367" lat="58.3640851369" lon="6.53715078001">
		<tag k="fixme" v="consider place=hamlet" />
		<tag k="name" v="Navrestad" />
		<tag k="place" v="farm" />
		<tag k="ssr:stedsnr" v="546207" />
	</node>
	<node id="-398361" lat="58.4957388931" lon="6.35622500241">
		<tag k="name" v="Skjerpe" />
		<tag k="place" v="farm" />
		<tag k="ssr:stedsnr" v="303954" />
	</node>
	<node id="-399105" lat="58.454852782" lon="6.50356110991">
		<tag k="historic" v="shieling" />
		<tag k="name" v="Stølen" />
		<tag k="place" v="locality" />
		<tag k="ssr:stedsnr" v="210555" />
	</node>
	<node id="-399596" lat="58.4687559851" lon="6.36735564283">
		<tag k="fixme" v="consider place=hamlet" />
		<tag k="name" v="Eide" />
		<tag k="place" v="farm" />
		<tag k="ssr:stedsnr" v="667892" />
	</node>
</osm>
