<?xml version="1.0" encoding="UTF-8"?>
<osm version="0.6" generator="osmapis">
	<node lat="58.53726111058821" lon="6.352836107361083" id="-132">
		<tag k="bridge" v="yes" />
		<tag k="layer" v="1" />
		<tag k="name" v="Yttraa" />
		<tag k="ssr:stedsnr" v="107719" />
	</node>
	<node lat="58.44188333273773" lon="6.610988896535262" id="-133">
		<tag k="bridge" v="yes" />
		<tag k="layer" v="1" />
		<tag k="name" v="Bringedal" />
		<tag k="ssr:stedsnr" v="108273" />
	</node>
	<node lat="58.44809721810379" lon="6.5675916678174024" id="-177">
		<tag k="bridge" v="yes" />
		<tag k="layer" v="1" />
		<tag k="name" v="Skårsbekken" />
		<tag k="ssr:stedsnr" v="168256" />
	</node>
	<node lat="58.53223610886018" lon="6.331188890733343" id="-178">
		<tag k="bridge" v="yes" />
		<tag k="layer" v="1" />
		<tag k="name" v="Bilstaddalen" />
		<tag k="ssr:stedsnr" v="168275" />
	</node>
	<node lat="58.503416670619124" lon="6.3565999913370685" id="-279">
		<tag k="bridge" v="yes" />
		<tag k="layer" v="1" />
		<tag k="name" v="Hammersmark" />
		<tag k="ssr:stedsnr" v="229282" />
	</node>
	<node lat="58.469180558129416" lon="6.523777786059551" id="-425">
		<tag k="bridge" v="yes" />
		<tag k="layer" v="1" />
		<tag k="name" v="Råse" />
		<tag k="ssr:stedsnr" v="472249" />
	</node>
	<node lat="58.46091944317041" lon="6.544019437405555" id="-426">
		<tag k="bridge" v="yes" />
		<tag k="layer" v="1" />
		<tag k="name" v="Skjerpe" />
		<tag k="ssr:stedsnr" v="350232" />
	</node>
	<node lat="58.4580675309573" lon="6.551074483160188" id="-435">
		<tag k="alt_name" v="Moi" />
		<tag k="name" v="Moi stasjon" />
		<tag k="railway" v="station" />
		<tag k="ssr:stedsnr" v="364915" />
		<tag k="train" v="yes" />
	</node>
	<node lat="58.446700003476394" lon="6.571577783712448" id="-505">
		<tag k="bridge" v="yes" />
		<tag k="layer" v="1" />
		<tag k="name" v="Lindland" />
		<tag k="ssr:stedsnr" v="411246" />
	</node>
	<node lat="58.46003611423823" lon="6.548505554935517" id="-506">
		<tag k="bridge" v="yes" />
		<tag k="layer" v="1" />
		<tag k="name" v="Haugland" />
		<tag k="ssr:stedsnr" v="411249" />
	</node>
	<node lat="58.47561111279126" lon="6.421663883356531" id="-549">
		<tag k="bridge" v="yes" />
		<tag k="layer" v="1" />
		<tag k="name" v="Drangsdalen Øvre" />
		<tag k="ssr:stedsnr" v="472263" />
	</node>
	<node lat="58.461244442768134" lon="6.533677772853417" id="-597">
		<tag k="bridge" v="yes" />
		<tag k="layer" v="1" />
		<tag k="name" v="Haukland" />
		<tag k="ssr:stedsnr" v="532224" />
	</node>
	<node lat="58.43961944382875" lon="6.396097214085128" id="-766">
		<tag k="highway" v="path" />
		<tag k="name" v="Hålandsvegen" />
		<tag k="ssr:stedsnr" v="692126" />
	</node>
	<node lat="58.53595555414898" lon="6.477013893270092" id="-811">
		<tag k="bridge" v="yes" />
		<tag k="layer" v="1" />
		<tag k="name" v="Kjørmo" />
		<tag k="ssr:stedsnr" v="715272" />
	</node>
	<node lat="58.44759444383758" lon="6.551977771069663" id="-812">
		<tag k="bridge" v="yes" />
		<tag k="layer" v="1" />
		<tag k="name" v="Malåna" />
		<tag k="ssr:stedsnr" v="715275" />
	</node>
	<node lat="58.54447499708382" lon="6.3091472138942" id="-813">
		<tag k="bridge" v="yes" />
		<tag k="layer" v="1" />
		<tag k="name" v="Refsland" />
		<tag k="ssr:stedsnr" v="715280" />
	</node>
	<node lat="58.49659166513955" lon="6.362480550409903" id="-814">
		<tag k="bridge" v="yes" />
		<tag k="layer" v="1" />
		<tag k="name" v="Skjærpe" />
		<tag k="ssr:stedsnr" v="715283" />
	</node>
	<node lat="58.4767555516864" lon="6.430722214841467" id="-815">
		<tag k="bridge" v="yes" />
		<tag k="layer" v="1" />
		<tag k="name" v="Drangsdalen Nedre" />
		<tag k="ssr:stedsnr" v="715303" />
	</node>
	<node lat="58.550361613589914" lon="6.340963376661654" id="-816">
		<tag k="bridge" v="yes" />
		<tag k="layer" v="1" />
		<tag k="name" v="Birkemo" />
		<tag k="ssr:stedsnr" v="715306" />
	</node>
	<node lat="58.5431583349015" lon="6.30887499242424" id="-830">
		<tag k="name" v="Refsland" />
		<tag k="railway" v="station" />
		<tag k="ssr:stedsnr" v="728922" />
		<tag k="train" v="yes" />
	</node>
	<node lat="58.57442499705455" lon="6.4969777717563675" id="-941">
		<tag k="bridge" v="yes" />
		<tag k="layer" v="1" />
		<tag k="name" v="Kvennebekken" />
		<tag k="ssr:stedsnr" v="836208" />
	</node>
	<node lat="58.445791662177925" lon="6.577238885805572" id="-942">
		<tag k="bridge" v="yes" />
		<tag k="layer" v="1" />
		<tag k="name" v="Hamre" />
		<tag k="ssr:stedsnr" v="836229" />
	</node>
	<node lat="58.525116663304374" lon="6.49545277664207" id="-943">
		<tag k="bridge" v="yes" />
		<tag k="layer" v="1" />
		<tag k="name" v="Eik" />
		<tag k="ssr:stedsnr" v="836231" />
	</node>
	<node lat="58.44154722195228" lon="6.611119452994654" id="-944">
		<tag k="bridge" v="yes" />
		<tag k="layer" v="1" />
		<tag k="name" v="Tronvik" />
		<tag k="ssr:stedsnr" v="836688" />
	</node>
	<node lat="58.452727781681425" lon="6.31487222724198" id="-952">
		<tag k="junction" v="yes" />
		<tag k="name" v="Steinskrossen" />
		<tag k="place" v="locality" />
		<tag k="ssr:stedsnr" v="876106" />
	</node>
	<node lat="58.53794721995626" lon="6.312727773818859" id="-978">
		<tag k="bridge" v="yes" />
		<tag k="layer" v="1" />
		<tag k="name" v="Bilstad" />
		<tag k="ssr:stedsnr" v="897258" />
	</node>
	<node lat="58.473680557396364" lon="6.361955560031424" id="-979">
		<tag k="bridge" v="yes" />
		<tag k="layer" v="1" />
		<tag k="name" v="Eidsvatn" />
		<tag k="ssr:stedsnr" v="897270" />
	</node>
	<node lat="58.50967221829176" lon="6.510463892149965" id="-1028">
		<tag k="bridge" v="yes" />
		<tag k="layer" v="1" />
		<tag k="name" v="Hove" />
		<tag k="ssr:stedsnr" v="957245" />
	</node>
	<node lat="58.47481111530988" lon="6.3601416590253255" id="-1087">
		<tag k="bridge" v="yes" />
		<tag k="layer" v="1" />
		<tag k="name" v="Eide" />
		<tag k="ssr:stedsnr" v="47289" />
	</node>
	<node lat="58.58829166283055" lon="6.506224998350207" id="-1088">
		<tag k="bridge" v="yes" />
		<tag k="layer" v="1" />
		<tag k="name" v="Rusdal" />
		<tag k="ssr:stedsnr" v="47261" />
	</node>
	<node lat="58.44205555169996" lon="6.610877778481621" id="-1089">
		<tag k="bridge" v="yes" />
		<tag k="layer" v="1" />
		<tag k="name" v="Sagåna" />
		<tag k="ssr:stedsnr" v="47265" />
	</node>
	<node lat="58.53276111199619" lon="6.336272222926806" id="-1090">
		<tag k="bridge" v="yes" />
		<tag k="layer" v="1" />
		<tag k="name" v="Surtebakken" />
		<tag k="ssr:stedsnr" v="47268" />
	</node>
	<node lat="58.53403055255857" lon="6.344174992852067" id="-1103">
		<tag k="bridge" v="yes" />
		<tag k="layer" v="1" />
		<tag k="name" v="Mjåsund" />
		<tag k="ssr:stedsnr" v="229260" />
	</node>
	<node lat="58.47549999668391" lon="6.3604555583987885" id="-1104">
		<tag k="bridge" v="yes" />
		<tag k="layer" v="1" />
		<tag k="name" v="Eide" />
		<tag k="ssr:stedsnr" v="229277" />
	</node>
	<node lat="58.52269166460975" lon="6.3460749962614385" id="-1167">
		<tag k="bridge" v="yes" />
		<tag k="layer" v="1" />
		<tag k="name" v="Nyborg" />
		<tag k="ssr:stedsnr" v="108257" />
	</node>
	<node lat="58.446816663715694" lon="6.565852771231609" id="-1168">
		<tag k="bridge" v="yes" />
		<tag k="layer" v="1" />
		<tag k="name" v="Skårs" />
		<tag k="ssr:stedsnr" v="108262" />
	</node>
	<node lat="58.52753333325903" lon="6.564688896766804" id="-1225">
		<tag k="bridge" v="yes" />
		<tag k="layer" v="1" />
		<tag k="name" v="Sætra" />
		<tag k="ssr:stedsnr" v="168701" />
	</node>
	<node lat="58.48833889291496" lon="6.502838880862505" id="-1226">
		<tag k="bridge" v="yes" />
		<tag k="layer" v="1" />
		<tag k="name" v="Skjeggestad" />
		<tag k="ssr:stedsnr" v="168251" />
	</node>
	<node lat="58.443238887450626" lon="6.608974992454058" id="-1227">
		<tag k="bridge" v="yes" />
		<tag k="layer" v="1" />
		<tag k="name" v="Svartebekken" />
		<tag k="ssr:stedsnr" v="168253" />
	</node>
	<node lat="58.44923888965353" lon="6.563994446865544" id="-1228">
		<tag k="bridge" v="yes" />
		<tag k="layer" v="1" />
		<tag k="name" v="Skår" />
		<tag k="ssr:stedsnr" v="168255" />
	</node>
	<node lat="58.553300003104" lon="6.486430556498276" id="-1275">
		<tag k="name" v="Pråmstø" />
		<tag k="place" v="locality" />
		<tag k="ssr:stedsnr" v="209266" />
	</node>
	<node lat="58.4742250026162" lon="6.516591666036393" id="-1304">
		<tag k="bridge" v="yes" />
		<tag k="layer" v="1" />
		<tag k="name" v="Osen" />
		<tag k="ssr:stedsnr" v="290242" />
	</node>
	<node lat="58.449894448173644" lon="6.551008332786514" id="-1305">
		<tag k="bridge" v="yes" />
		<tag k="layer" v="1" />
		<tag k="name" v="Prestegårdsjordet" />
		<tag k="ssr:stedsnr" v="290243" />
	</node>
	<node lat="58.424836115660746" lon="6.549775005677809" id="-1306">
		<tag k="bridge" v="yes" />
		<tag k="layer" v="1" />
		<tag k="name" v="Skåland" />
		<tag k="ssr:stedsnr" v="290252" />
	</node>
	<node lat="58.51993610841768" lon="6.391708337669644" id="-1405">
		<tag k="landuse" v="industrial" />
		<tag k="name" v="Ualand kraftverk" />
		<tag k="power" v="plant" />
		<tag k="ssr:stedsnr" v="391254" />
	</node>
	<node lat="58.535358337517614" lon="6.476605552291825" id="-1446">
		<tag k="bridge" v="yes" />
		<tag k="layer" v="1" />
		<tag k="name" v="Sveknes" />
		<tag k="ssr:stedsnr" v="411257" />
	</node>
	<node lat="58.478241665319935" lon="6.3575888974917705" id="-1447">
		<tag k="bridge" v="yes" />
		<tag k="layer" v="1" />
		<tag k="name" v="Eideelva" />
		<tag k="ssr:stedsnr" v="411268" />
	</node>
	<node lat="58.51268611225206" lon="6.352836109401546" id="-1518">
		<tag k="bridge" v="yes" />
		<tag k="layer" v="1" />
		<tag k="name" v="Steinsland Nordre" />
		<tag k="ssr:stedsnr" v="532238" />
	</node>
	<node lat="58.51069444440398" lon="6.518908325062221" id="-1519">
		<tag k="bridge" v="yes" />
		<tag k="layer" v="1" />
		<tag k="name" v="Handeland" />
		<tag k="ssr:stedsnr" v="532254" />
	</node>
	<node lat="58.45772499811514" lon="6.548497227198779" id="-1520">
		<tag k="bridge" v="yes" />
		<tag k="layer" v="1" />
		<tag k="name" v="Timrevik" />
		<tag k="ssr:stedsnr" v="532695" />
	</node>
	<node lat="58.46298611294347" lon="6.5356222246217985" id="-1581">
		<tag k="junction" v="yes" />
		<tag k="name" v="Velakrossen" />
		<tag k="place" v="locality" />
		<tag k="ssr:stedsnr" v="573535" />
	</node>
	<node lat="58.54207222370856" lon="6.273152783678675" id="-1586">
		<tag k="bridge" v="yes" />
		<tag k="layer" v="1" />
		<tag k="name" v="Helleren" />
		<tag k="ssr:stedsnr" v="593232" />
	</node>
	<node lat="58.443461111390654" lon="6.604963896929539" id="-1587">
		<tag k="bridge" v="yes" />
		<tag k="layer" v="1" />
		<tag k="name" v="Tronvikbekken" />
		<tag k="ssr:stedsnr" v="593645" />
	</node>
	<node lat="58.46795277786874" lon="6.339875002043246" id="-1631">
		<tag k="junction" v="yes" />
		<tag k="name" v="Skoro" />
		<tag k="place" v="locality" />
		<tag k="ssr:stedsnr" v="634151" />
	</node>
	<node lat="58.51503333675764" lon="6.3501666665893355" id="-1642">
		<tag k="bridge" v="yes" />
		<tag k="layer" v="1" />
		<tag k="name" v="Omdal" />
		<tag k="ssr:stedsnr" v="654265" />
	</node>
	<node lat="58.55461388738457" lon="6.2915027752238" id="-1643">
		<tag k="bridge" v="yes" />
		<tag k="layer" v="1" />
		<tag k="name" v="Bjørnemo" />
		<tag k="ssr:stedsnr" v="654278" />
	</node>
	<node lat="58.52502499990763" lon="6.343597229515786" id="-1714">
		<tag k="bridge" v="yes" />
		<tag k="layer" v="1" />
		<tag k="name" v="Ollestad" />
		<tag k="ssr:stedsnr" v="775237" />
	</node>
	<node lat="58.421625003808096" lon="6.546419444631048" id="-1715">
		<tag k="bridge" v="yes" />
		<tag k="layer" v="1" />
		<tag k="name" v="Skålandsvik" />
		<tag k="ssr:stedsnr" v="775238" />
	</node>
	<node lat="58.51234166637085" lon="6.507449995777793" id="-1716">
		<tag k="bridge" v="yes" />
		<tag k="layer" v="1" />
		<tag k="name" v="Sandnes" />
		<tag k="ssr:stedsnr" v="775240" />
	</node>
	<node lat="58.53166666875492" lon="6.333591659858191" id="-1717">
		<tag k="bridge" v="yes" />
		<tag k="layer" v="1" />
		<tag k="name" v="Smala" />
		<tag k="ssr:stedsnr" v="775244" />
	</node>
	<node lat="58.49859166717267" lon="6.344047228683623" id="-1902">
		<tag k="name" v="Råne" />
		<tag k="ssr:stedsnr" v="937600" />
		<tag k="waterway" v="canal" />
	</node>
	<node lat="58.45839166789005" lon="6.55295000468002" id="-1931">
		<tag k="bridge" v="yes" />
		<tag k="layer" v="1" />
		<tag k="name" v="Brekkebekken" />
		<tag k="ssr:stedsnr" v="957270" />
	</node>
	<node lat="58.44030014610155" lon="6.392238450245937" id="-1958">
		<tag k="highway" v="path" />
		<tag k="name" v="Hålandsvegen" />
		<tag k="ssr:stedsnr" v="1073450" />
	</node>
</osm>
