<?xml version="1.0" encoding="UTF-8"?>
<osm generator="osmapis" version="0.6">
	<node id="-502144" lat="61.1927388931" lon="4.79780833546">
		<tag k="name" v="Saltskoren lykt" />
		<tag k="ssr:date" v="2016-05-10" />
		<tag k="ssr:gruppe" v="navigasjon" />
		<tag k="ssr:hovedgruppe" v="infrastruktur" />
		<tag k="ssr:stedsnr" v="373085" />
		<tag k="ssr:type" v="fyrlykt" />
	</node>
	<node id="-502016" lat="61.2220111086" lon="4.72058056418">
		<tag k="alt_name" v="Ospøytåa" />
		<tag k="name" v="Ospøytåna" />
		<tag k="ssr:date" v="2016-05-10" />
		<tag k="ssr:gruppe" v="navigasjon" />
		<tag k="ssr:hovedgruppe" v="infrastruktur" />
		<tag k="ssr:stedsnr" v="313997" />
		<tag k="ssr:type" v="fyrlykt" />
	</node>
	<node id="-504085" lat="61.1674638923" lon="4.72063333523">
		<tag k="alt_name" v="Lyngøy" />
		<tag k="name" v="Lyngøy lykt" />
		<tag k="ssr:date" v="2016-05-11" />
		<tag k="ssr:gruppe" v="navigasjon" />
		<tag k="ssr:hovedgruppe" v="infrastruktur" />
		<tag k="ssr:stedsnr" v="737051" />
		<tag k="ssr:type" v="fyrlykt" />
	</node>
	<node id="-502658" lat="61.0136805534" lon="4.64770834018">
		<tag k="alt_name" v="Legøyna" />
		<tag k="name" v="Legøyna lykt" />
		<tag k="old_name" v="Legøy" />
		<tag k="ssr:date" v="2016-05-10" />
		<tag k="ssr:gruppe" v="navigasjon" />
		<tag k="ssr:hovedgruppe" v="infrastruktur" />
		<tag k="ssr:stedsnr" v="70957" />
		<tag k="ssr:type" v="fyrlykt" />
	</node>
	<node id="-503801" lat="61.1218166697" lon="5.03064165885">
		<tag k="alt_name" v="Klauva" />
		<tag k="name" v="Klauva lykt" />
		<tag k="ssr:date" v="2016-05-10" />
		<tag k="ssr:gruppe" v="navigasjon" />
		<tag k="ssr:hovedgruppe" v="infrastruktur" />
		<tag k="ssr:stedsnr" v="616341" />
		<tag k="ssr:type" v="fyrlykt" />
	</node>
	<node id="-502133" lat="60.9953239334" lon="4.70758583005">
		<tag k="name" v="Kverhella" />
		<tag k="ssr:date" v="2019-05-31" />
		<tag k="ssr:gruppe" v="veg" />
		<tag k="ssr:hovedgruppe" v="infrastruktur" />
		<tag k="ssr:stedsnr" v="1051966" />
		<tag k="ssr:type" v="adressenavn" />
	</node>
	<node id="-502132" lat="61.007825002" lon="4.61691110497">
		<tag k="alt_name" v="Lilleholmen;Lilleholmen lykt" />
		<tag k="name" v="Litleholmen lykt" />
		<tag k="ssr:date" v="2016-05-10" />
		<tag k="ssr:gruppe" v="navigasjon" />
		<tag k="ssr:hovedgruppe" v="infrastruktur" />
		<tag k="ssr:stedsnr" v="357641" />
		<tag k="ssr:type" v="fyrlykt" />
	</node>
	<node id="-502770" lat="60.9829333312" lon="4.70643889014">
		<tag k="alt_name" v="Kverknappen" />
		<tag k="name" v="Kverknappen lykt" />
		<tag k="old_name" v="Kværeknap" />
		<tag k="ssr:date" v="2016-05-10" />
		<tag k="ssr:gruppe" v="navigasjon" />
		<tag k="ssr:hovedgruppe" v="infrastruktur" />
		<tag k="ssr:stedsnr" v="128636" />
		<tag k="ssr:type" v="fyrlykt" />
	</node>
	<node id="-503025" lat="60.9997283502" lon="4.65722448613">
		<tag k="name" v="Søre Nosa varde" />
		<tag k="ssr:date" v="2019-03-27" />
		<tag k="ssr:gruppe" v="navigasjon" />
		<tag k="ssr:hovedgruppe" v="infrastruktur" />
		<tag k="ssr:stedsnr" v="191960" />
		<tag k="ssr:type" v="sjøvarde" />
	</node>
	<node id="-504560" lat="61.1491333364" lon="4.79256667383">
		<tag k="alt_name" v="Vardeholmen" />
		<tag k="name" v="Vardeholmen lykt" />
		<tag k="old_name" v="Vardholmen" />
		<tag k="ssr:date" v="2016-05-11" />
		<tag k="ssr:gruppe" v="navigasjon" />
		<tag k="ssr:hovedgruppe" v="infrastruktur" />
		<tag k="ssr:stedsnr" v="919234" />
		<tag k="ssr:type" v="fyrlykt" />
	</node>
	<node id="-502511" lat="61.0376222196" lon="4.87520000616">
		<tag k="name" v="Grønholmen lanterne" />
		<tag k="ssr:date" v="2016-05-10" />
		<tag k="ssr:gruppe" v="navigasjon" />
		<tag k="ssr:hovedgruppe" v="infrastruktur" />
		<tag k="ssr:stedsnr" v="39373" />
		<tag k="ssr:type" v="lanterne" />
	</node>
	<node id="-502637" lat="61.1242333327" lon="4.74164166221">
		<tag k="name" v="Oddekalven lykt" />
		<tag k="ssr:date" v="2016-05-10" />
		<tag k="ssr:gruppe" v="navigasjon" />
		<tag k="ssr:hovedgruppe" v="infrastruktur" />
		<tag k="ssr:stedsnr" v="70152" />
		<tag k="ssr:type" v="fyrlykt" />
	</node>
	<node id="-504323" lat="61.0606249982" lon="4.81963333932">
		<tag k="name" v="Vindnova lanterne" />
		<tag k="ssr:date" v="2016-05-11" />
		<tag k="ssr:gruppe" v="navigasjon" />
		<tag k="ssr:hovedgruppe" v="infrastruktur" />
		<tag k="ssr:stedsnr" v="816788" />
		<tag k="ssr:type" v="lanterne" />
	</node>
	<node id="-502317" lat="61.1481534452" lon="5.02400442007">
		<tag k="name" v="Lasken" />
		<tag k="ssr:date" v="2016-12-28" />
		<tag k="ssr:gruppe" v="navigasjon" />
		<tag k="ssr:hovedgruppe" v="infrastruktur" />
		<tag k="ssr:stedsnr" v="477443" />
		<tag k="ssr:type" v="lanterne" />
	</node>
	<node id="-502509" lat="61.0125888854" lon="4.66428889">
		<tag k="name" v="Kolgrov, øvre" />
		<tag k="old_name" v="Øvre Kolgrov" />
		<tag k="ssr:date" v="2016-05-10" />
		<tag k="ssr:gruppe" v="navigasjon" />
		<tag k="ssr:hovedgruppe" v="infrastruktur" />
		<tag k="ssr:stedsnr" v="25183" />
		<tag k="ssr:type" v="fyrlykt" />
	</node>
	<node id="-502623" lat="61.0560111069" lon="4.93631110524">
		<tag k="alt_name" v="Kråkeneset" />
		<tag k="name" v="Kråkeneset lykt" />
		<tag k="ssr:date" v="2016-05-10" />
		<tag k="ssr:gruppe" v="navigasjon" />
		<tag k="ssr:hovedgruppe" v="infrastruktur" />
		<tag k="ssr:stedsnr" v="70250" />
		<tag k="ssr:type" v="fyrlykt" />
	</node>
	<node id="-502494" lat="61.2201000007" lon="4.85823333165">
		<tag k="name" v="Buskøygavlen lykt" />
		<tag k="ssr:date" v="2016-05-10" />
		<tag k="ssr:gruppe" v="navigasjon" />
		<tag k="ssr:hovedgruppe" v="infrastruktur" />
		<tag k="ssr:stedsnr" v="9897" />
		<tag k="ssr:type" v="fyrlykt" />
	</node>
	<node id="-504496" lat="61.2099222237" lon="4.85325833828">
		<tag k="alt_name" v="Steinsøy" />
		<tag k="name" v="Steinsøyna lykt" />
		<tag k="ssr:date" v="2016-05-11" />
		<tag k="ssr:gruppe" v="navigasjon" />
		<tag k="ssr:hovedgruppe" v="infrastruktur" />
		<tag k="ssr:stedsnr" v="859923" />
		<tag k="ssr:type" v="fyrlykt" />
	</node>
	<node id="-502147" lat="61.2003425116" lon="4.78785736279">
		<tag k="alt_name" v="Ospøy" />
		<tag k="name" v="Ospøy lykt" />
		<tag k="ssr:date" v="2019-03-16" />
		<tag k="ssr:gruppe" v="navigasjon" />
		<tag k="ssr:hovedgruppe" v="infrastruktur" />
		<tag k="ssr:stedsnr" v="373097" />
		<tag k="ssr:type" v="fyrlykt" />
	</node>
	<node id="-501847" lat="61.1630222225" lon="5.0600888928">
		<tag k="name" v="Fureneset lanterne" />
		<tag k="ssr:date" v="2016-05-10" />
		<tag k="ssr:gruppe" v="navigasjon" />
		<tag k="ssr:hovedgruppe" v="infrastruktur" />
		<tag k="ssr:stedsnr" v="283477" />
		<tag k="ssr:type" v="lanterne" />
	</node>
	<node id="-502486" lat="61.0380388855" lon="4.63994999167">
		<tag k="alt_name" v="Syltholmen" />
		<tag k="name" v="Syltholmen lykt" />
		<tag k="ssr:date" v="2016-05-10" />
		<tag k="ssr:gruppe" v="navigasjon" />
		<tag k="ssr:hovedgruppe" v="infrastruktur" />
		<tag k="ssr:stedsnr" v="9780" />
		<tag k="ssr:type" v="fyrlykt" />
	</node>
	<node id="-501970" lat="61.1555805514" lon="4.65588888075">
		<tag k="alt_name" v="Kråkestein" />
		<tag k="name" v="Kråkestein lykt" />
		<tag k="ssr:date" v="2016-05-10" />
		<tag k="ssr:gruppe" v="navigasjon" />
		<tag k="ssr:hovedgruppe" v="infrastruktur" />
		<tag k="ssr:stedsnr" v="312837" />
		<tag k="ssr:type" v="fyrlykt" />
	</node>
	<node id="-503244" lat="61.0364999969" lon="4.74199166718">
		<tag k="alt_name" v="Ytre Steinsund" />
		<tag k="name" v="Ytre Steinsund lykt" />
		<tag k="old_name" v="Steinsund, yt" />
		<tag k="ssr:date" v="2016-05-10" />
		<tag k="ssr:gruppe" v="navigasjon" />
		<tag k="ssr:hovedgruppe" v="infrastruktur" />
		<tag k="ssr:stedsnr" v="418620" />
		<tag k="ssr:type" v="fyrlykt" />
	</node>
	<node id="-504265" lat="61.0591444405" lon="4.8217944435">
		<tag k="alt_name" v="Indre Steinsund" />
		<tag k="name" v="Indre Steinsund lykt" />
		<tag k="old_name" v="Steinsund, in" />
		<tag k="ssr:date" v="2016-05-11" />
		<tag k="ssr:gruppe" v="navigasjon" />
		<tag k="ssr:hovedgruppe" v="infrastruktur" />
		<tag k="ssr:stedsnr" v="798248" />
		<tag k="ssr:type" v="fyrlykt" />
	</node>
	<node id="-503238" lat="61.0734694429" lon="4.512047224">
		<tag k="name" v="Nordholmen lanterne" />
		<tag k="ssr:date" v="2016-05-10" />
		<tag k="ssr:gruppe" v="navigasjon" />
		<tag k="ssr:hovedgruppe" v="infrastruktur" />
		<tag k="ssr:stedsnr" v="416917" />
		<tag k="ssr:type" v="lanterne" />
	</node>
	<node id="-504132" lat="61.0993666711" lon="4.70451667482">
		<tag k="fixme" v="multiple name tags, choose one and add the other to alt_name" />
		<tag k="name" v="Storøyna lykt;Storøyna" />
		<tag k="ssr:date" v="2019-06-13" />
		<tag k="ssr:gruppe" v="navigasjon" />
		<tag k="ssr:hovedgruppe" v="infrastruktur" />
		<tag k="ssr:stedsnr" v="737755" />
		<tag k="ssr:type" v="fyrlykt" />
	</node>
	<node id="-502211" lat="61.071395445" lon="4.8411415518">
		<tag k="name" v="Storehaugen" />
		<tag k="ssr:date" v="2019-05-31" />
		<tag k="ssr:gruppe" v="veg" />
		<tag k="ssr:hovedgruppe" v="infrastruktur" />
		<tag k="ssr:stedsnr" v="1052022" />
		<tag k="ssr:type" v="adressenavn" />
	</node>
	<node id="-502977" lat="61.096916665" lon="4.8201305604">
		<tag k="alt_name" v="Taskholmen" />
		<tag k="name" v="Taskholmen lykt" />
		<tag k="ssr:date" v="2016-05-10" />
		<tag k="ssr:gruppe" v="navigasjon" />
		<tag k="ssr:hovedgruppe" v="infrastruktur" />
		<tag k="ssr:stedsnr" v="191294" />
		<tag k="ssr:type" v="fyrlykt" />
	</node>
	<node id="-503455" lat="61.0917583309" lon="4.68339443776">
		<tag k="alt_name" v="Øisundet" />
		<tag k="name" v="Øisundet lykt" />
		<tag k="ssr:date" v="2016-05-10" />
		<tag k="ssr:gruppe" v="navigasjon" />
		<tag k="ssr:hovedgruppe" v="infrastruktur" />
		<tag k="ssr:stedsnr" v="494741" />
		<tag k="ssr:type" v="fyrlykt" />
	</node>
	<node id="-504510" lat="61.0116444477" lon="4.66793888366">
		<tag k="name" v="Kolgrov, nedre" />
		<tag k="old_name" v="Nedre Kolgrov" />
		<tag k="ssr:date" v="2016-05-11" />
		<tag k="ssr:gruppe" v="navigasjon" />
		<tag k="ssr:hovedgruppe" v="infrastruktur" />
		<tag k="ssr:stedsnr" v="874200" />
		<tag k="ssr:type" v="fyrlykt" />
	</node>
	<node id="-503484" lat="61.0739416668" lon="4.83879999358">
		<tag k="alt_name" v="Solund" />
		<tag k="name" v="Solund kommune" />
		<tag k="ssr:date" v="2019-05-08" />
		<tag k="ssr:gruppe" v="administrativeIndelinger" />
		<tag k="ssr:hovedgruppe" v="offentligAdministrasjon" />
		<tag k="ssr:stedsnr" v="510833" />
		<tag k="ssr:type" v="kommune" />
	</node>
	<node id="-502163" lat="61.1556694469" lon="5.01844166432">
		<tag k="alt_name" v="Seglsteinen" />
		<tag k="name" v="Seglsteinen lykt" />
		<tag k="ssr:date" v="2016-05-10" />
		<tag k="ssr:gruppe" v="navigasjon" />
		<tag k="ssr:hovedgruppe" v="infrastruktur" />
		<tag k="ssr:stedsnr" v="373214" />
		<tag k="ssr:type" v="fyrlykt" />
	</node>
	<node id="-503993" lat="61.2013735518" lon="4.78900312772">
		<tag k="alt_name" v="Skomakeren;Skomakeren lykt;Drivøysund;Drivøysund lykt" />
		<tag k="name" v="Skomakaren lykt" />
		<tag k="ssr:date" v="2019-03-16" />
		<tag k="ssr:gruppe" v="navigasjon" />
		<tag k="ssr:hovedgruppe" v="infrastruktur" />
		<tag k="ssr:stedsnr" v="707355" />
		<tag k="ssr:type" v="fyrlykt" />
	</node>
	<node id="-504501" lat="61.0042055587" lon="4.59253888928">
		<tag k="alt_name" v="Guridnakken;Gurinakken" />
		<tag k="name" v="Guridnakken lykt" />
		<tag k="ssr:date" v="2016-05-11" />
		<tag k="ssr:gruppe" v="navigasjon" />
		<tag k="ssr:hovedgruppe" v="infrastruktur" />
		<tag k="ssr:stedsnr" v="859945" />
		<tag k="ssr:type" v="fyrlykt" />
	</node>
	<node id="-504606" lat="61.0037277748" lon="4.65857500946">
		<tag k="alt_name" v="Husøyostaren" />
		<tag k="name" v="Husøyostaren lykt" />
		<tag k="ssr:date" v="2016-05-11" />
		<tag k="ssr:gruppe" v="navigasjon" />
		<tag k="ssr:hovedgruppe" v="infrastruktur" />
		<tag k="ssr:stedsnr" v="935171" />
		<tag k="ssr:type" v="fyrlykt" />
	</node>
	<node id="-502194" lat="61.037105555" lon="4.50991110562">
		<tag k="name" v="Utvær fyr" />
		<tag k="ssr:date" v="2016-05-10" />
		<tag k="ssr:gruppe" v="navigasjon" />
		<tag k="ssr:hovedgruppe" v="infrastruktur" />
		<tag k="ssr:stedsnr" v="373787" />
		<tag k="ssr:type" v="fyrstasjon" />
	</node>
	<node id="-503985" lat="61.011744444" lon="4.65816388202">
		<tag k="alt_name" v="Kisteholmflu" />
		<tag k="name" v="Kisteholmflu lykt" />
		<tag k="ssr:date" v="2016-05-11" />
		<tag k="ssr:gruppe" v="navigasjon" />
		<tag k="ssr:hovedgruppe" v="infrastruktur" />
		<tag k="ssr:stedsnr" v="692167" />
		<tag k="ssr:type" v="fyrlykt" />
	</node>
	<node id="-504752" lat="60.8816104596" lon="6.30047518531">
		<tag k="name" v="Vestlandet" />
		<tag k="ssr:date" v="2019-01-06" />
		<tag k="ssr:gruppe" v="administrativeIndelinger" />
		<tag k="ssr:hovedgruppe" v="offentligAdministrasjon" />
		<tag k="ssr:stedsnr" v="974777" />
		<tag k="ssr:type" v="annenAdministrativInndeling" />
	</node>
	<node id="-502212" lat="61.0677657528" lon="4.82518619597">
		<tag k="name" v="Skoterokkvegen" />
		<tag k="ssr:date" v="2019-05-31" />
		<tag k="ssr:gruppe" v="veg" />
		<tag k="ssr:hovedgruppe" v="infrastruktur" />
		<tag k="ssr:stedsnr" v="1052025" />
		<tag k="ssr:type" v="adressenavn" />
	</node>
	<node id="-502446" lat="61.1134361109" lon="4.75023333826">
		<tag k="alt_name" v="Larsråholmen" />
		<tag k="name" v="Larsråholmen lykt" />
		<tag k="ssr:date" v="2016-05-10" />
		<tag k="ssr:gruppe" v="navigasjon" />
		<tag k="ssr:hovedgruppe" v="infrastruktur" />
		<tag k="ssr:stedsnr" v="9096" />
		<tag k="ssr:type" v="fyrlykt" />
	</node>
	<node id="-503945" lat="61.2063444483" lon="4.82311111823">
		<tag k="alt_name" v="Notskjæret" />
		<tag k="name" v="Notskjeret lykt" />
		<tag k="ssr:date" v="2016-05-10" />
		<tag k="ssr:gruppe" v="navigasjon" />
		<tag k="ssr:hovedgruppe" v="infrastruktur" />
		<tag k="ssr:stedsnr" v="676934" />
		<tag k="ssr:type" v="fyrlykt" />
	</node>
	<node id="-502186" lat="61.0393999969" lon="4.74153055402">
		<tag k="alt_name" v="Fængskjær;Fængskjær lykt" />
		<tag k="name" v="Fengskjeret lykt" />
		<tag k="ssr:date" v="2016-05-10" />
		<tag k="ssr:gruppe" v="navigasjon" />
		<tag k="ssr:hovedgruppe" v="infrastruktur" />
		<tag k="ssr:stedsnr" v="373507" />
		<tag k="ssr:type" v="fyrlykt" />
	</node>
	<node id="-502424" lat="60.9996420669" lon="4.65737337068">
		<tag k="alt_name" v="Søre Nåsa;Søre Nåsa lykt" />
		<tag k="name" v="Søre Nosa lykt" />
		<tag k="ssr:date" v="2019-03-19" />
		<tag k="ssr:gruppe" v="navigasjon" />
		<tag k="ssr:hovedgruppe" v="infrastruktur" />
		<tag k="ssr:stedsnr" v="7636" />
		<tag k="ssr:type" v="fyrlykt" />
	</node>
	<node id="-504737" lat="61.0669101971" lon="4.74875318927">
		<tag k="name" v="Tangenesvegen" />
		<tag k="ssr:date" v="2019-05-31" />
		<tag k="ssr:gruppe" v="veg" />
		<tag k="ssr:hovedgruppe" v="infrastruktur" />
		<tag k="ssr:stedsnr" v="973515" />
		<tag k="ssr:type" v="adressenavn" />
	</node>
	<node id="-504736" lat="61.0786543372" lon="4.83934388764">
		<tag k="name" v="Klubben" />
		<tag k="ssr:date" v="2019-05-31" />
		<tag k="ssr:gruppe" v="veg" />
		<tag k="ssr:hovedgruppe" v="infrastruktur" />
		<tag k="ssr:stedsnr" v="973514" />
		<tag k="ssr:type" v="adressenavn" />
	</node>
	<node id="-504735" lat="61.0262647202" lon="4.7800867606">
		<tag k="name" v="Tungodden" />
		<tag k="ssr:date" v="2019-05-31" />
		<tag k="ssr:gruppe" v="veg" />
		<tag k="ssr:hovedgruppe" v="infrastruktur" />
		<tag k="ssr:stedsnr" v="973513" />
		<tag k="ssr:type" v="adressenavn" />
	</node>
	<node id="-504734" lat="61.1751994364" lon="4.87278574262">
		<tag k="name" v="Kråkøysundet" />
		<tag k="ssr:date" v="2019-05-31" />
		<tag k="ssr:gruppe" v="veg" />
		<tag k="ssr:hovedgruppe" v="infrastruktur" />
		<tag k="ssr:stedsnr" v="973511" />
		<tag k="ssr:type" v="adressenavn" />
	</node>
	<node id="-504733" lat="61.1803342209" lon="4.94649286157">
		<tag k="name" v="Austrefjorden" />
		<tag k="ssr:date" v="2019-05-31" />
		<tag k="ssr:gruppe" v="veg" />
		<tag k="ssr:hovedgruppe" v="infrastruktur" />
		<tag k="ssr:stedsnr" v="973509" />
		<tag k="ssr:type" v="adressenavn" />
	</node>
	<node id="-504732" lat="61.0892106263" lon="4.9269063306">
		<tag k="name" v="Nessefjorden" />
		<tag k="ssr:date" v="2019-05-31" />
		<tag k="ssr:gruppe" v="veg" />
		<tag k="ssr:hovedgruppe" v="infrastruktur" />
		<tag k="ssr:stedsnr" v="973510" />
		<tag k="ssr:type" v="adressenavn" />
	</node>
	<node id="-504731" lat="61.1505953357" lon="4.83313248334">
		<tag k="name" v="Drengenesvegen" />
		<tag k="ssr:date" v="2019-05-31" />
		<tag k="ssr:gruppe" v="veg" />
		<tag k="ssr:hovedgruppe" v="infrastruktur" />
		<tag k="ssr:stedsnr" v="973503" />
		<tag k="ssr:type" v="adressenavn" />
	</node>
	<node id="-504730" lat="61.075921452" lon="4.84004585786">
		<tag k="name" v="Taklegarden" />
		<tag k="ssr:date" v="2019-05-31" />
		<tag k="ssr:gruppe" v="veg" />
		<tag k="ssr:hovedgruppe" v="infrastruktur" />
		<tag k="ssr:stedsnr" v="973504" />
		<tag k="ssr:type" v="adressenavn" />
	</node>
	<node id="-504729" lat="61.0704388929" lon="4.81202665736">
		<tag k="name" v="Steinsund" />
		<tag k="ssr:date" v="2019-05-31" />
		<tag k="ssr:gruppe" v="veg" />
		<tag k="ssr:hovedgruppe" v="infrastruktur" />
		<tag k="ssr:stedsnr" v="973502" />
		<tag k="ssr:type" v="adressenavn" />
	</node>
	<node id="-504728" lat="61.0118714789" lon="4.72071450616">
		<tag k="name" v="Trovågen" />
		<tag k="ssr:date" v="2019-05-31" />
		<tag k="ssr:gruppe" v="veg" />
		<tag k="ssr:hovedgruppe" v="infrastruktur" />
		<tag k="ssr:stedsnr" v="973501" />
		<tag k="ssr:type" v="adressenavn" />
	</node>
	<node id="-504727" lat="61.0792940627" lon="4.69736067359">
		<tag k="name" v="Ytrøyvegen" />
		<tag k="ssr:date" v="2019-05-31" />
		<tag k="ssr:gruppe" v="veg" />
		<tag k="ssr:hovedgruppe" v="infrastruktur" />
		<tag k="ssr:stedsnr" v="973500" />
		<tag k="ssr:type" v="adressenavn" />
	</node>
	<node id="-504726" lat="61.0646210895" lon="4.75234401522">
		<tag k="name" v="Steindalen" />
		<tag k="ssr:date" v="2019-05-31" />
		<tag k="ssr:gruppe" v="veg" />
		<tag k="ssr:hovedgruppe" v="infrastruktur" />
		<tag k="ssr:stedsnr" v="973499" />
		<tag k="ssr:type" v="adressenavn" />
	</node>
	<node id="-504725" lat="61.0639437196" lon="4.75873101854">
		<tag k="name" v="Solnesvegen" />
		<tag k="ssr:date" v="2019-05-31" />
		<tag k="ssr:gruppe" v="veg" />
		<tag k="ssr:hovedgruppe" v="infrastruktur" />
		<tag k="ssr:stedsnr" v="973498" />
		<tag k="ssr:type" v="adressenavn" />
	</node>
	<node id="-504724" lat="61.0671744701" lon="4.83487381149">
		<tag k="name" v="Sildevika" />
		<tag k="ssr:date" v="2019-05-31" />
		<tag k="ssr:gruppe" v="veg" />
		<tag k="ssr:hovedgruppe" v="infrastruktur" />
		<tag k="ssr:stedsnr" v="973496" />
		<tag k="ssr:type" v="adressenavn" />
	</node>
	<node id="-504723" lat="61.0693484877" lon="4.83974082196">
		<tag k="name" v="Håneset" />
		<tag k="ssr:date" v="2019-05-31" />
		<tag k="ssr:gruppe" v="veg" />
		<tag k="ssr:hovedgruppe" v="infrastruktur" />
		<tag k="ssr:stedsnr" v="973494" />
		<tag k="ssr:type" v="adressenavn" />
	</node>
	<node id="-504722" lat="61.0747147103" lon="4.84099865865">
		<tag k="name" v="Internatvegen" />
		<tag k="ssr:date" v="2019-05-31" />
		<tag k="ssr:gruppe" v="veg" />
		<tag k="ssr:hovedgruppe" v="infrastruktur" />
		<tag k="ssr:stedsnr" v="973492" />
		<tag k="ssr:type" v="adressenavn" />
	</node>
	<node id="-504721" lat="61.0756158621" lon="4.84061306318">
		<tag k="name" v="Hardbakke" />
		<tag k="ssr:date" v="2019-05-31" />
		<tag k="ssr:gruppe" v="veg" />
		<tag k="ssr:hovedgruppe" v="infrastruktur" />
		<tag k="ssr:stedsnr" v="973491" />
		<tag k="ssr:type" v="adressenavn" />
	</node>
	<node id="-504720" lat="61.0765050678" lon="4.84141465023">
		<tag k="name" v="Brattelia" />
		<tag k="ssr:date" v="2019-05-31" />
		<tag k="ssr:gruppe" v="veg" />
		<tag k="ssr:hovedgruppe" v="infrastruktur" />
		<tag k="ssr:stedsnr" v="973490" />
		<tag k="ssr:type" v="adressenavn" />
	</node>
	<node id="-504719" lat="61.0823089501" lon="4.84710561677">
		<tag k="name" v="Strandavågvegen" />
		<tag k="ssr:date" v="2019-05-31" />
		<tag k="ssr:gruppe" v="veg" />
		<tag k="ssr:hovedgruppe" v="infrastruktur" />
		<tag k="ssr:stedsnr" v="973487" />
		<tag k="ssr:type" v="adressenavn" />
	</node>
	<node id="-504718" lat="61.0802522976" lon="4.86062990163">
		<tag k="name" v="Hopsvegen" />
		<tag k="ssr:date" v="2019-05-31" />
		<tag k="ssr:gruppe" v="veg" />
		<tag k="ssr:hovedgruppe" v="infrastruktur" />
		<tag k="ssr:stedsnr" v="973486" />
		<tag k="ssr:type" v="adressenavn" />
	</node>
	<node id="-504717" lat="61.0957351347" lon="4.89569897314">
		<tag k="name" v="Strembeneset" />
		<tag k="ssr:date" v="2019-05-31" />
		<tag k="ssr:gruppe" v="veg" />
		<tag k="ssr:hovedgruppe" v="infrastruktur" />
		<tag k="ssr:stedsnr" v="973484" />
		<tag k="ssr:type" v="adressenavn" />
	</node>
	<node id="-504716" lat="61.1224545419" lon="4.90232080327">
		<tag k="name" v="Vaulevegen" />
		<tag k="ssr:date" v="2019-05-31" />
		<tag k="ssr:gruppe" v="veg" />
		<tag k="ssr:hovedgruppe" v="infrastruktur" />
		<tag k="ssr:stedsnr" v="973483" />
		<tag k="ssr:type" v="adressenavn" />
	</node>
	<node id="-504715" lat="61.1095879281" lon="4.91215568302">
		<tag k="name" v="Kråkåsvegen" />
		<tag k="ssr:date" v="2019-05-31" />
		<tag k="ssr:gruppe" v="veg" />
		<tag k="ssr:hovedgruppe" v="infrastruktur" />
		<tag k="ssr:stedsnr" v="973482" />
		<tag k="ssr:type" v="adressenavn" />
	</node>
	<node id="-504714" lat="61.1756313451" lon="4.90327355186">
		<tag k="name" v="Hersvikvegen" />
		<tag k="ssr:date" v="2019-05-31" />
		<tag k="ssr:gruppe" v="veg" />
		<tag k="ssr:hovedgruppe" v="infrastruktur" />
		<tag k="ssr:stedsnr" v="973481" />
		<tag k="ssr:type" v="adressenavn" />
	</node>
	<node id="-504713" lat="61.1240262006" lon="4.95393725634">
		<tag k="name" v="Engevikvegen" />
		<tag k="ssr:date" v="2019-05-31" />
		<tag k="ssr:gruppe" v="veg" />
		<tag k="ssr:hovedgruppe" v="infrastruktur" />
		<tag k="ssr:stedsnr" v="973480" />
		<tag k="ssr:type" v="adressenavn" />
	</node>
	<node id="-504712" lat="61.1175494305" lon="5.09271050846">
		<tag k="name" v="Losna" />
		<tag k="ssr:date" v="2019-05-31" />
		<tag k="ssr:gruppe" v="veg" />
		<tag k="ssr:hovedgruppe" v="infrastruktur" />
		<tag k="ssr:stedsnr" v="973479" />
		<tag k="ssr:type" v="adressenavn" />
	</node>
	<node id="-504711" lat="61.0112157447" lon="4.69333611802">
		<tag k="name" v="Kolgrovvegen" />
		<tag k="ssr:date" v="2019-05-31" />
		<tag k="ssr:gruppe" v="veg" />
		<tag k="ssr:hovedgruppe" v="infrastruktur" />
		<tag k="ssr:stedsnr" v="973478" />
		<tag k="ssr:type" v="adressenavn" />
	</node>
	<node id="-504710" lat="61.0545754999" lon="4.71672654639">
		<tag k="name" v="Lundøyvegen" />
		<tag k="ssr:date" v="2019-05-31" />
		<tag k="ssr:gruppe" v="veg" />
		<tag k="ssr:hovedgruppe" v="infrastruktur" />
		<tag k="ssr:stedsnr" v="973477" />
		<tag k="ssr:type" v="adressenavn" />
	</node>
	<node id="-504709" lat="61.0755758375" lon="4.84110733953">
		<tag k="name" v="Daløyvegen" />
		<tag k="ssr:date" v="2019-05-31" />
		<tag k="ssr:gruppe" v="veg" />
		<tag k="ssr:hovedgruppe" v="infrastruktur" />
		<tag k="ssr:stedsnr" v="973476" />
		<tag k="ssr:type" v="adressenavn" />
	</node>
	<node id="-504708" lat="61.1351411689" lon="4.92818005796">
		<tag k="name" v="Leknessundvegen" />
		<tag k="ssr:date" v="2019-05-31" />
		<tag k="ssr:gruppe" v="veg" />
		<tag k="ssr:hovedgruppe" v="infrastruktur" />
		<tag k="ssr:stedsnr" v="973473" />
		<tag k="ssr:type" v="adressenavn" />
	</node>
	<node id="-504707" lat="61.0756966031" lon="4.84111133149">
		<tag k="name" v="Krakhellevegen" />
		<tag k="ssr:date" v="2019-05-31" />
		<tag k="ssr:gruppe" v="veg" />
		<tag k="ssr:hovedgruppe" v="infrastruktur" />
		<tag k="ssr:stedsnr" v="973472" />
		<tag k="ssr:type" v="adressenavn" />
	</node>
	<node id="-504706" lat="61.2121757404" lon="4.89951104676">
		<tag k="name" v="Leknessundvika" />
		<tag k="ssr:date" v="2019-05-31" />
		<tag k="ssr:gruppe" v="veg" />
		<tag k="ssr:hovedgruppe" v="infrastruktur" />
		<tag k="ssr:stedsnr" v="972241" />
		<tag k="ssr:type" v="adressenavn" />
	</node>
	<node id="-504705" lat="61.0157266724" lon="4.74022373631">
		<tag k="name" v="Nårastraumen" />
		<tag k="ssr:date" v="2016-10-14" />
		<tag k="ssr:gruppe" v="farvann" />
		<tag k="ssr:hovedgruppe" v="sjø" />
		<tag k="ssr:stedsnr" v="972132" />
		<tag k="ssr:type" v="havstrøm" />
	</node>
</osm>
