<?xml version="1.0" encoding="UTF-8"?>
<osm generator="osmapis" version="0.6">
	<node id="-290944" lat="60.8319666686" lon="11.6535888866">
		<tag k="name" v="Sigdtjernvegen" />
		<tag k="ssr:date" v="2019-12-27" />
		<tag k="ssr:gruppe" v="veg" />
		<tag k="ssr:hovedgruppe" v="infrastruktur" />
		<tag k="ssr:stedsnr" v="222473" />
		<tag k="ssr:type" v="adressenavn" />
	</node>
	<node id="-293246" lat="61.032011112" lon="11.5416694363">
		<tag k="name" v="Kråkbergsvegen" />
		<tag k="ssr:date" v="2019-12-27" />
		<tag k="ssr:gruppe" v="veg" />
		<tag k="ssr:hovedgruppe" v="infrastruktur" />
		<tag k="ssr:stedsnr" v="587879" />
		<tag k="ssr:type" v="adressenavn" />
	</node>
	<node id="-293629" lat="60.8064916675" lon="11.7097694395">
		<tag k="name" v="Lømovegen" />
		<tag k="ssr:date" v="2019-12-27" />
		<tag k="ssr:gruppe" v="veg" />
		<tag k="ssr:hovedgruppe" v="infrastruktur" />
		<tag k="ssr:stedsnr" v="848696" />
		<tag k="ssr:type" v="adressenavn" />
	</node>
	<node id="-291835" lat="60.9832194477" lon="11.751536117">
		<tag k="name" v="Skogen" />
		<tag k="ssr:date" v="2019-12-27" />
		<tag k="ssr:gruppe" v="veg" />
		<tag k="ssr:hovedgruppe" v="infrastruktur" />
		<tag k="ssr:stedsnr" v="601157" />
		<tag k="ssr:type" v="adressenavn" />
	</node>
	<node id="-292728" lat="60.7995138925" lon="11.7813972166">
		<tag k="name" v="Borgåsvegen" />
		<tag k="ssr:date" v="2019-12-27" />
		<tag k="ssr:gruppe" v="veg" />
		<tag k="ssr:hovedgruppe" v="infrastruktur" />
		<tag k="ssr:stedsnr" v="180986" />
		<tag k="ssr:type" v="adressenavn" />
	</node>
	<node id="-293750" lat="60.9138582818" lon="11.6816705312">
		<tag k="name" v="Aarstadvegen" />
		<tag k="ssr:date" v="2019-12-27" />
		<tag k="ssr:gruppe" v="veg" />
		<tag k="ssr:hovedgruppe" v="infrastruktur" />
		<tag k="ssr:stedsnr" v="1008125" />
		<tag k="ssr:type" v="adressenavn" />
	</node>
	<node id="-293749" lat="60.8317417342" lon="11.905437529">
		<tag k="name" v="Nord-Flatåsen" />
		<tag k="ssr:date" v="2019-12-27" />
		<tag k="ssr:gruppe" v="veg" />
		<tag k="ssr:hovedgruppe" v="infrastruktur" />
		<tag k="ssr:stedsnr" v="1007526" />
		<tag k="ssr:type" v="adressenavn" />
	</node>
	<node id="-293748" lat="61.1333929989" lon="11.675936891">
		<tag k="name" v="Gransjøbergsvegen" />
		<tag k="ssr:date" v="2019-12-27" />
		<tag k="ssr:gruppe" v="veg" />
		<tag k="ssr:hovedgruppe" v="infrastruktur" />
		<tag k="ssr:stedsnr" v="1006058" />
		<tag k="ssr:type" v="adressenavn" />
	</node>
	<node id="-293747" lat="61.0064902612" lon="12.0873175399">
		<tag k="name" v="Flisberget" />
		<tag k="ssr:date" v="2020-04-14" />
		<tag k="ssr:gruppe" v="veg" />
		<tag k="ssr:hovedgruppe" v="infrastruktur" />
		<tag k="ssr:stedsnr" v="1005584" />
		<tag k="ssr:type" v="adressenavn" />
	</node>
	<node id="-291822" lat="61.0486333305" lon="11.7919805619">
		<tag k="name" v="Knettlivegen" />
		<tag k="ssr:date" v="2019-12-27" />
		<tag k="ssr:gruppe" v="veg" />
		<tag k="ssr:hovedgruppe" v="infrastruktur" />
		<tag k="ssr:stedsnr" v="709856" />
		<tag k="ssr:type" v="adressenavn" />
	</node>
	<node id="-291325" lat="60.7888555543" lon="11.479352777">
		<tag k="name" v="Østre Skogbygdveg" />
		<tag k="ssr:date" v="2019-12-27" />
		<tag k="ssr:gruppe" v="veg" />
		<tag k="ssr:hovedgruppe" v="infrastruktur" />
		<tag k="ssr:stedsnr" v="465397" />
		<tag k="ssr:type" v="adressenavn" />
	</node>
	<node id="-292073" lat="60.8691555538" lon="11.8557916682">
		<tag k="name" v="Kvasstadsætervegen" />
		<tag k="ssr:date" v="2019-12-27" />
		<tag k="ssr:gruppe" v="veg" />
		<tag k="ssr:hovedgruppe" v="infrastruktur" />
		<tag k="ssr:stedsnr" v="770861" />
		<tag k="ssr:type" v="adressenavn" />
	</node>
	<node id="-292581" lat="60.9329111075" lon="11.8909500023">
		<tag k="name" v="Rustavegen" />
		<tag k="ssr:date" v="2019-12-27" />
		<tag k="ssr:gruppe" v="veg" />
		<tag k="ssr:hovedgruppe" v="infrastruktur" />
		<tag k="ssr:stedsnr" v="118489" />
		<tag k="ssr:type" v="adressenavn" />
	</node>
	<node id="-291812" lat="60.8506388891" lon="11.7878805593">
		<tag k="name" v="Sør-Agåsen" />
		<tag k="ssr:date" v="2019-12-27" />
		<tag k="ssr:gruppe" v="veg" />
		<tag k="ssr:hovedgruppe" v="infrastruktur" />
		<tag k="ssr:stedsnr" v="708620" />
		<tag k="ssr:type" v="adressenavn" />
	</node>
	<node id="-292578" lat="60.8910472219" lon="11.9411527798">
		<tag k="name" v="Houmsvegen" />
		<tag k="ssr:date" v="2019-12-27" />
		<tag k="ssr:gruppe" v="veg" />
		<tag k="ssr:hovedgruppe" v="infrastruktur" />
		<tag k="ssr:stedsnr" v="118069" />
		<tag k="ssr:type" v="adressenavn" />
	</node>
	<node id="-292059" lat="60.8943749989" lon="11.7663472307">
		<tag k="name" v="Agåvegen" />
		<tag k="ssr:date" v="2019-12-27" />
		<tag k="ssr:gruppe" v="veg" />
		<tag k="ssr:hovedgruppe" v="infrastruktur" />
		<tag k="ssr:stedsnr" v="908160" />
		<tag k="ssr:type" v="adressenavn" />
	</node>
	<node id="-292312" lat="61.0525310255" lon="12.065995138">
		<tag k="name" v="Håberget" />
		<tag k="ssr:date" v="2019-12-27" />
		<tag k="ssr:gruppe" v="veg" />
		<tag k="ssr:hovedgruppe" v="infrastruktur" />
		<tag k="ssr:stedsnr" v="1006619" />
		<tag k="ssr:type" v="adressenavn" />
	</node>
	<node id="-291670" lat="60.9115777778" lon="11.8023388813">
		<tag k="name" v="Lisjøvegen" />
		<tag k="ssr:date" v="2019-12-27" />
		<tag k="ssr:gruppe" v="veg" />
		<tag k="ssr:hovedgruppe" v="infrastruktur" />
		<tag k="ssr:stedsnr" v="466666" />
		<tag k="ssr:type" v="adressenavn" />
	</node>
	<node id="-291026" lat="60.8800444485" lon="11.5721444474">
		<tag k="name" v="Jotunvegen" />
		<tag k="ssr:date" v="2019-12-27" />
		<tag k="ssr:gruppe" v="veg" />
		<tag k="ssr:hovedgruppe" v="infrastruktur" />
		<tag k="ssr:stedsnr" v="239874" />
		<tag k="ssr:type" v="adressenavn" />
	</node>
	<node id="-292044" lat="60.864530559" lon="11.5774138975">
		<tag k="name" v="Bureiserfeltet" />
		<tag k="ssr:date" v="2019-12-27" />
		<tag k="ssr:gruppe" v="veg" />
		<tag k="ssr:hovedgruppe" v="infrastruktur" />
		<tag k="ssr:stedsnr" v="907388" />
		<tag k="ssr:type" v="adressenavn" />
	</node>
	<node id="-291912" lat="60.8823944475" lon="11.6319000018">
		<tag k="name" v="Årtjennsvegen" />
		<tag k="ssr:date" v="2019-12-27" />
		<tag k="ssr:gruppe" v="veg" />
		<tag k="ssr:hovedgruppe" v="infrastruktur" />
		<tag k="ssr:stedsnr" v="726568" />
		<tag k="ssr:type" v="adressenavn" />
	</node>
	<node id="-291660" lat="60.8727111106" lon="11.8782583291">
		<tag k="name" v="Gardbergsvegen" />
		<tag k="ssr:date" v="2019-12-27" />
		<tag k="ssr:gruppe" v="veg" />
		<tag k="ssr:hovedgruppe" v="infrastruktur" />
		<tag k="ssr:stedsnr" v="666976" />
		<tag k="ssr:type" v="adressenavn" />
	</node>
	<node id="-292926" lat="61.0207472212" lon="11.6504083307">
		<tag k="name" v="Nøtselsætervegen" />
		<tag k="ssr:date" v="2019-12-27" />
		<tag k="ssr:gruppe" v="veg" />
		<tag k="ssr:hovedgruppe" v="infrastruktur" />
		<tag k="ssr:stedsnr" v="362545" />
		<tag k="ssr:type" v="adressenavn" />
	</node>
	<node id="-293690" lat="61.0490194465" lon="11.7300361128">
		<tag k="name" v="Stabergsvegen" />
		<tag k="ssr:date" v="2019-12-27" />
		<tag k="ssr:gruppe" v="veg" />
		<tag k="ssr:hovedgruppe" v="infrastruktur" />
		<tag k="ssr:stedsnr" v="950577" />
		<tag k="ssr:type" v="adressenavn" />
	</node>
	<node id="-293557" lat="61.0436750023" lon="11.7348000058">
		<tag k="name" v="Skarpbergsvegen" />
		<tag k="ssr:date" v="2019-12-27" />
		<tag k="ssr:gruppe" v="veg" />
		<tag k="ssr:hovedgruppe" v="infrastruktur" />
		<tag k="ssr:stedsnr" v="829566" />
		<tag k="ssr:type" v="adressenavn" />
	</node>
	<node id="-290974" lat="60.7544055547" lon="11.6509777821">
		<tag k="name" v="Bjølsetsætra" />
		<tag k="ssr:date" v="2019-12-27" />
		<tag k="ssr:gruppe" v="veg" />
		<tag k="ssr:hovedgruppe" v="infrastruktur" />
		<tag k="ssr:stedsnr" v="40812" />
		<tag k="ssr:type" v="adressenavn" />
	</node>
	<node id="-292399" lat="60.8562555549" lon="11.7606444467">
		<tag k="name" v="Europavegen" />
		<tag k="ssr:date" v="2019-12-27" />
		<tag k="ssr:gruppe" v="veg" />
		<tag k="ssr:hovedgruppe" v="infrastruktur" />
		<tag k="ssr:stedsnr" v="41933" />
		<tag k="ssr:type" v="adressenavn" />
	</node>
	<node id="-292141" lat="60.8768361146" lon="11.6605944383">
		<tag k="name" v="Hospitsvegen" />
		<tag k="ssr:date" v="2019-12-27" />
		<tag k="ssr:gruppe" v="veg" />
		<tag k="ssr:hovedgruppe" v="infrastruktur" />
		<tag k="ssr:stedsnr" v="787817" />
		<tag k="ssr:type" v="adressenavn" />
	</node>
	<node id="-290987" lat="60.9310166626" lon="11.8841694495">
		<tag k="name" v="Vesterkjølvegen" />
		<tag k="ssr:date" v="2019-12-27" />
		<tag k="ssr:gruppe" v="veg" />
		<tag k="ssr:hovedgruppe" v="infrastruktur" />
		<tag k="ssr:stedsnr" v="237462" />
		<tag k="ssr:type" v="adressenavn" />
	</node>
	<node id="-290982" lat="60.9872916694" lon="11.8524861054">
		<tag k="name" v="Nøtbergsætra" />
		<tag k="ssr:date" v="2019-12-27" />
		<tag k="ssr:gruppe" v="veg" />
		<tag k="ssr:hovedgruppe" v="infrastruktur" />
		<tag k="ssr:stedsnr" v="237194" />
		<tag k="ssr:type" v="adressenavn" />
	</node>
	<node id="-292389" lat="60.8257611132" lon="11.5769777837">
		<tag k="name" v="Skjærsjøen" />
		<tag k="ssr:date" v="2019-12-27" />
		<tag k="ssr:gruppe" v="veg" />
		<tag k="ssr:hovedgruppe" v="infrastruktur" />
		<tag k="ssr:stedsnr" v="40547" />
		<tag k="ssr:type" v="adressenavn" />
	</node>
	<node id="-291231" lat="60.9917694425" lon="11.4699861177">
		<tag k="name" v="Gobakkvegen" />
		<tag k="ssr:date" v="2019-12-27" />
		<tag k="ssr:gruppe" v="veg" />
		<tag k="ssr:hovedgruppe" v="infrastruktur" />
		<tag k="ssr:stedsnr" v="283769" />
		<tag k="ssr:type" v="adressenavn" />
	</node>
	<node id="-293790" lat="69.6388889725" lon="30.5666644427">
		<tag k="fixme" v="multiple name tags, choose one and add the other to alt_name" />
		<tag k="loc_name:se" v="Norgga gonagasriika" />
		<tag k="loc_name:sma" v="Nöörjen gånkarïjhke" />
		<tag k="loc_name:smj" v="Vuona gånågisrijkka" />
		<tag k="name" v="Noreg;Norge" />
		<tag k="name:en" v="Norway" />
		<tag k="name:no" v="Noreg;Norge" />
		<tag k="ssr:date" v="2020-06-04" />
		<tag k="ssr:gruppe" v="administrativeIndelinger" />
		<tag k="ssr:hovedgruppe" v="offentligAdministrasjon" />
		<tag k="ssr:stedsnr" v="26330" />
		<tag k="ssr:type" v="nasjon" />
	</node>
	<node id="-293789" lat="60.8942774194" lon="11.5973117814">
		<tag k="name" v="Honvegen" />
		<tag k="name:smj" v="Honvegen" />
		<tag k="ssr:date" v="2020-06-02" />
		<tag k="ssr:gruppe" v="veg" />
		<tag k="ssr:hovedgruppe" v="infrastruktur" />
		<tag k="ssr:stedsnr" v="1077157" />
		<tag k="ssr:type" v="adressenavn" />
	</node>
	<node id="-291223" lat="60.8294749981" lon="11.6061277788">
		<tag k="name" v="Kraftvegen" />
		<tag k="ssr:date" v="2019-12-27" />
		<tag k="ssr:gruppe" v="veg" />
		<tag k="ssr:hovedgruppe" v="infrastruktur" />
		<tag k="ssr:stedsnr" v="163862" />
		<tag k="ssr:type" v="adressenavn" />
	</node>
	<node id="-291928" lat="60.8646388909" lon="11.5585972166">
		<tag k="name" v="Bjørnebovegen" />
		<tag k="ssr:date" v="2019-12-27" />
		<tag k="ssr:gruppe" v="veg" />
		<tag k="ssr:hovedgruppe" v="infrastruktur" />
		<tag k="ssr:stedsnr" v="648483" />
		<tag k="ssr:type" v="adressenavn" />
	</node>
	<node id="-290957" lat="60.8530888858" lon="11.7753333378">
		<tag k="name" v="Nordre Agåssæter" />
		<tag k="ssr:date" v="2019-12-27" />
		<tag k="ssr:gruppe" v="veg" />
		<tag k="ssr:hovedgruppe" v="infrastruktur" />
		<tag k="ssr:stedsnr" v="223778" />
		<tag k="ssr:type" v="adressenavn" />
	</node>
	<node id="-292876" lat="60.8815888912" lon="11.563141658">
		<tag k="name" v="Elverum kommune" />
		<tag k="ssr:date" v="2019-12-27" />
		<tag k="ssr:gruppe" v="administrativeIndelinger" />
		<tag k="ssr:hovedgruppe" v="offentligAdministrasjon" />
		<tag k="ssr:stedsnr" v="329046" />
		<tag k="ssr:type" v="kommune" />
	</node>
	<node id="-293765" lat="60.7952487072" lon="11.0825912243">
		<tag k="name" v="Innlandet fylke" />
		<tag k="ssr:date" v="2020-01-13" />
		<tag k="ssr:gruppe" v="administrativeIndelinger" />
		<tag k="ssr:hovedgruppe" v="offentligAdministrasjon" />
		<tag k="ssr:stedsnr" v="1074406" />
		<tag k="ssr:type" v="fylke" />
	</node>
	<node id="-290947" lat="60.9846527788" lon="11.4982861074">
		<tag k="name" v="Strandsætervegen" />
		<tag k="ssr:date" v="2019-12-27" />
		<tag k="ssr:gruppe" v="veg" />
		<tag k="ssr:hovedgruppe" v="infrastruktur" />
		<tag k="ssr:stedsnr" v="222760" />
		<tag k="ssr:type" v="adressenavn" />
	</node>
	<node id="-290945" lat="60.900133331" lon="11.5499138886">
		<tag k="name" v="Prestøya" />
		<tag k="ssr:date" v="2019-12-27" />
		<tag k="ssr:gruppe" v="veg" />
		<tag k="ssr:hovedgruppe" v="infrastruktur" />
		<tag k="ssr:stedsnr" v="222482" />
		<tag k="ssr:type" v="adressenavn" />
	</node>
</osm>
