<?xml version="1.0" encoding="UTF-8"?>
<osm version="0.6" generator="osmapis">
	<node lat="60.83275277811577" lon="11.620916669097543" id="-20075">
		<tag k="old_name" v="Mostu" />
		<tag k="railway" v="halt" />
		<tag k="ssr:date" v="2019-12-27" />
		<tag k="ssr:gruppe" v="bane" />
		<tag k="ssr:hovedgruppe" v="infrastruktur" />
		<tag k="ssr:stedsnr" v="676189" />
		<tag k="ssr:type" v="holdeplass" />
		<tag k="train" v="yes" />
	</node>
	<node lat="60.81631388705777" lon="11.581563894522867" id="-20460">
		<tag k="old_name" v="Svea" />
		<tag k="place" v="farm" />
		<tag k="ssr:date" v="2019-12-27" />
		<tag k="ssr:gruppe" v="gardsbebyggelse" />
		<tag k="ssr:hovedgruppe" v="bebyggelse" />
		<tag k="ssr:stedsnr" v="920295" />
		<tag k="ssr:type" v="bruk" />
	</node>
	<node lat="61.103461806145326" lon="11.776860379870735" id="-20519">
		<tag k="loc_name" v="Krokkjølkoia" />
		<tag k="place" v="isolated_dwelling" />
		<tag k="ssr:date" v="2019-12-27" />
		<tag k="ssr:gruppe" v="bolighus" />
		<tag k="ssr:hovedgruppe" v="bebyggelse" />
		<tag k="ssr:stedsnr" v="990344" />
		<tag k="ssr:type" v="fritidsbolig" />
	</node>
	<node lat="60.90503333225169" lon="11.562461109877578" id="-20555">
		<tag k="old_name" v="Mo" />
		<tag k="place" v="isolated_dwelling" />
		<tag k="ssr:date" v="2019-12-27" />
		<tag k="ssr:gruppe" v="bolighus" />
		<tag k="ssr:hovedgruppe" v="bebyggelse" />
		<tag k="ssr:stedsnr" v="9135" />
		<tag k="ssr:type" v="eneboligMindreBoligbygg" />
	</node>
	<node lat="61.149619445378754" lon="11.816813885194879" id="-20622">
		<tag k="old_name" v="Ulvåa, store" />
		<tag k="ssr:date" v="2019-12-27" />
		<tag k="ssr:gruppe" v="rennendeVann" />
		<tag k="ssr:hovedgruppe" v="ferskvann" />
		<tag k="ssr:stedsnr" v="68165" />
		<tag k="ssr:type" v="elv" />
		<tag k="waterway" v="river" />
	</node>
</osm>
