<?xml version="1.0" encoding="UTF-8"?>
<osm generator="osmapis" version="0.6">
	<node id="-142845" lat="60.9789444461" lon="10.0587388974">
		<tag k="name" v="Pustut" />
		<tag k="place" v="locality" />
		<tag k="ssr:stedsnr" v="737302" />
	</node>
	<node id="-142966" lat="60.9352305571" lon="10.0432444471">
		<tag k="amenity" v="community_centre" />
		<tag k="name" v="Skogtun" />
		<tag k="ssr:stedsnr" v="797275" />
	</node>
	<node id="-141429" lat="61.0299416708" lon="10.1867333422">
		<tag k="amenity" v="community_centre" />
		<tag k="name" v="Røde Kors-hytta" />
		<tag k="ssr:stedsnr" v="41680" />
	</node>
	<node id="-142035" lat="60.8527472183" lon="10.1834777791">
		<tag k="amenity" v="community_centre" />
		<tag k="name" v="Åsheim" />
		<tag k="ssr:stedsnr" v="421060" />
	</node>
	<node id="-143341" lat="60.8416416625" lon="9.98286388696">
		<tag k="name" v="Baggerudmoen" />
		<tag k="place" v="locality" />
		<tag k="ssr:stedsnr" v="968702" />
	</node>
	<node id="-141674" lat="60.8457388922" lon="10.1841916677">
		<tag k="amenity" v="place_of_worship" />
		<tag k="denomination" v="lutheran" />
		<tag k="name" v="Vølstad kirke" />
		<tag k="old_name" v="Vølstad kapell" />
		<tag k="religion" v="christian" />
		<tag k="ssr:stedsnr" v="130486" />
	</node>
	<node id="-143328" lat="60.9283361097" lon="10.1029805481">
		<tag k="alt_name" v="Finstadrensla" />
		<tag k="name" v="Finnstadrensla" />
		<tag k="place" v="locality" />
		<tag k="ssr:stedsnr" v="968188" />
	</node>
	<node id="-142430" lat="60.9906166664" lon="10.0493499968">
		<tag k="amenity" v="community_centre" />
		<tag k="name" v="Torpeheimen" />
		<tag k="ssr:stedsnr" v="555263" />
	</node>
	<node id="-142170" lat="61.0265833376" lon="9.87596945101">
		<tag k="amenity" v="community_centre" />
		<tag k="name" v="Dal" />
		<tag k="ssr:stedsnr" v="464929" />
	</node>
	<node id="-141910" lat="60.9364138899" lon="10.0353666748">
		<tag k="amenity" v="place_of_worship" />
		<tag k="fixme" v="specify religion=*, denomination=*, building=* etc" />
		<tag k="name" v="Vest-Torpa bedehus" />
		<tag k="ssr:stedsnr" v="240626" />
	</node>
	<node id="-141395" lat="60.8490333347" lon="10.0786777715">
		<tag k="amenity" v="place_of_worship" />
		<tag k="denomination" v="lutheran" />
		<tag k="name" v="Østsinni kirke" />
		<tag k="old_name" v="Austsinni" />
		<tag k="religion" v="christian" />
		<tag k="ssr:stedsnr" v="9541" />
	</node>
	<node id="-142414" lat="60.9633305536" lon="10.063280549">
		<tag k="amenity" v="community_centre" />
		<tag k="name" v="Lysvoll" />
		<tag k="ssr:stedsnr" v="554364" />
	</node>
	<node id="-142413" lat="60.9367194413" lon="10.1291250023">
		<tag k="amenity" v="place_of_worship" />
		<tag k="denomination" v="lutheran" />
		<tag k="name" v="Kinn kirke" />
		<tag k="religion" v="christian" />
		<tag k="ssr:stedsnr" v="554335" />
	</node>
	<node id="-141892" lat="60.8153472178" lon="9.94600555099">
		<tag k="cemetery" v="grave" />
		<tag k="name" v="Åsli" />
		<tag k="place" v="locality" />
		<tag k="ssr:stedsnr" v="240203" />
	</node>
	<node id="-141115" lat="60.8523999985" lon="9.97875832935">
		<tag k="amenity" v="place_of_worship" />
		<tag k="denomination" v="lutheran" />
		<tag k="name" v="Haugner kirke" />
		<tag k="old_name" v="Hogne" />
		<tag k="religion" v="christian" />
		<tag k="ssr:stedsnr" v="312545" />
	</node>
	<node id="-141498" lat="60.9370361155" lon="10.122547222">
		<tag k="amenity" v="community_centre" />
		<tag k="name" v="Fredheim" />
		<tag k="ssr:stedsnr" v="69303" />
	</node>
	<node id="-142256" lat="60.9969333379" lon="10.0475972175">
		<tag k="amenity" v="place_of_worship" />
		<tag k="denomination" v="lutheran" />
		<tag k="name" v="Åmot kirke" />
		<tag k="old_name" v="Torpa" />
		<tag k="religion" v="christian" />
		<tag k="ssr:stedsnr" v="494144" />
	</node>
	<node id="-141614" lat="60.8414305578" lon="9.95853333629">
		<tag k="amenity" v="place_of_worship" />
		<tag k="denomination" v="lutheran" />
		<tag k="name" v="Nordsinni kirke" />
		<tag k="religion" v="christian" />
		<tag k="ssr:stedsnr" v="129063" />
	</node>
	<node id="-142890" lat="60.8591166641" lon="10.0091916717">
		<tag k="name" v="Leikarvoll" />
		<tag k="place" v="locality" />
		<tag k="ssr:stedsnr" v="784573" />
	</node>
	<node id="-141475" lat="61.0083833338" lon="10.0133333422">
		<tag k="amenity" v="community_centre" />
		<tag k="name" v="Solheim" />
		<tag k="ssr:stedsnr" v="58967" />
	</node>
	<node id="-141963" lat="60.9316222206" lon="10.043144452">
		<tag k="amenity" v="place_of_worship" />
		<tag k="denomination" v="lutheran" />
		<tag k="name" v="Lunde kirke" />
		<tag k="religion" v="christian" />
		<tag k="ssr:stedsnr" v="251460" />
	</node>
	<node id="-142343" lat="60.9336944438" lon="10.004186116">
		<tag k="name" v="Furulybakken" />
		<tag k="place" v="locality" />
		<tag k="ssr:stedsnr" v="542772" />
	</node>
</osm>
