<?xml version="1.0" encoding="UTF-8"?>
<osm generator="osmapis" version="0.6">
	<node id="-141310" lat="61.0679972204" lon="10.1367416659">
		<tag k="name" v="Vismunda" />
		<tag k="ssr:stedsnr" v="54078" />
		<tag k="waterway" v="river" />
	</node>
	<node id="-141303" lat="60.9846138923" lon="9.83846111547">
		<tag k="name" v="Breibekken" />
		<tag k="ssr:stedsnr" v="39515" />
		<tag k="waterway" v="stream" />
	</node>
	<node id="-141298" lat="60.8559916687" lon="10.2183500064">
		<tag k="alt_name" v="Eltonelva" />
		<tag k="name" v="Eltonselva" />
		<tag k="ssr:stedsnr" v="10518" />
		<tag k="waterway" v="stream" />
	</node>
	<node id="-141292" lat="60.9754805563" lon="9.95389999838">
		<tag k="alt_name" v="Nørstvatn" />
		<tag k="name" v="Nørdstvatn" />
		<tag k="natural" v="water" />
		<tag k="ssr:stedsnr" v="9936" />
	</node>
	<node id="-141288" lat="60.9587888875" lon="9.8507444361">
		<tag k="alt_name" v="Skjefta" />
		<tag k="name" v="Skofta" />
		<tag k="natural" v="water" />
		<tag k="ssr:stedsnr" v="9893" />
	</node>
	<node id="-141286" lat="60.9357527785" lon="9.82176389758">
		<tag k="alt_name" v="Livatnet, store;Store Livatn" />
		<tag k="name" v="Store Livatnet" />
		<tag k="natural" v="water" />
		<tag k="ssr:stedsnr" v="9874" />
	</node>
	<node id="-141285" lat="60.7921750017" lon="10.026188896">
		<tag k="alt_name" v="Nordre Hesttjern" />
		<tag k="name" v="Hesttjernet" />
		<tag k="natural" v="water" />
		<tag k="ssr:stedsnr" v="9676" />
	</node>
	<node id="-141284" lat="60.795911108" lon="10.0703999983">
		<tag k="name" v="Uksebekken" />
		<tag k="ssr:stedsnr" v="9674" />
		<tag k="waterway" v="stream" />
	</node>
	<node id="-141283" lat="60.785061109" lon="9.99800833437">
		<tag k="alt_name" v="Sandtjern" />
		<tag k="name" v="Sandtjernet" />
		<tag k="natural" v="water" />
		<tag k="ssr:stedsnr" v="9660" />
	</node>
	<node id="-141282" lat="60.7757861079" lon="10.0572972238">
		<tag k="name" v="Hølbekken" />
		<tag k="ssr:stedsnr" v="9640" />
		<tag k="waterway" v="stream" />
	</node>
	<node id="-141271" lat="60.8343500032" lon="10.1907444439">
		<tag k="alt_name" v="Oksetjern" />
		<tag k="name" v="Uksetjernet" />
		<tag k="natural" v="water" />
		<tag k="ssr:stedsnr" v="9511" />
	</node>
	<node id="-141270" lat="60.8383916635" lon="10.1278444505">
		<tag k="alt_name" v="Engetjern" />
		<tag k="name" v="Engetjernet" />
		<tag k="natural" v="water" />
		<tag k="ssr:stedsnr" v="9508" />
	</node>
	<node id="-141266" lat="60.9188694445" lon="10.0294861203">
		<tag k="name" v="Stokkbekken" />
		<tag k="ssr:stedsnr" v="9458" />
		<tag k="waterway" v="stream" />
	</node>
	<node id="-141263" lat="60.9700750019" lon="10.1858749994">
		<tag k="name" v="Bjørnmyrpullen" />
		<tag k="natural" v="water" />
		<tag k="ssr:stedsnr" v="9336" />
	</node>
	<node id="-141257" lat="60.8119027782" lon="9.90981666015">
		<tag k="alt_name" v="Gørrtjern" />
		<tag k="name" v="Gorrtjernet" />
		<tag k="natural" v="water" />
		<tag k="ssr:stedsnr" v="9205" />
	</node>
	<node id="-141253" lat="60.7581944471" lon="9.82792222627">
		<tag k="alt_name" v="Lauvlivatnet, nedre;Nedre Lauvlivatn" />
		<tag k="name" v="Nedre Lauvlivatnet" />
		<tag k="natural" v="water" />
		<tag k="ssr:stedsnr" v="9152" />
	</node>
	<node id="-141252" lat="60.7725749986" lon="9.8473111105">
		<tag k="alt_name" v="Bjørkelivatnet, øvre" />
		<tag k="name" v="Øvre Bjørkelivatnet" />
		<tag k="natural" v="water" />
		<tag k="ssr:stedsnr" v="9145" />
	</node>
	<node id="-141250" lat="60.7873500034" lon="9.8771027707">
		<tag k="name" v="Fløtebekken" />
		<tag k="ssr:stedsnr" v="9122" />
		<tag k="waterway" v="stream" />
	</node>
	<node id="-141249" lat="61.1445194423" lon="9.75063888475">
		<tag k="alt_name" v="Tobekktjern" />
		<tag k="name" v="Tobekktjernet" />
		<tag k="natural" v="water" />
		<tag k="ssr:stedsnr" v="8779" />
	</node>
	<node id="-141248" lat="61.1187414452" lon="9.75235212533">
		<tag k="name" v="Nytjernet" />
		<tag k="natural" v="water" />
		<tag k="ssr:stedsnr" v="8761" />
	</node>
	<node id="-141245" lat="61.1417166712" lon="9.90502499626">
		<tag k="name" v="Olaputten" />
		<tag k="natural" v="water" />
		<tag k="ssr:stedsnr" v="8732" />
	</node>
	<node id="-141241" lat="61.036441664" lon="9.85100554677">
		<tag k="name" v="Svartbekken" />
		<tag k="ssr:stedsnr" v="8355" />
		<tag k="waterway" v="stream" />
	</node>
	<node id="-141235" lat="60.9128722263" lon="9.96010556192">
		<tag k="alt_name" v="Nyvatnet, l;Nyvatn" />
		<tag k="name" v="Vesle Nyvatnet" />
		<tag k="natural" v="water" />
		<tag k="ssr:stedsnr" v="8095" />
	</node>
	<node id="-141234" lat="60.9029944415" lon="9.85499166252">
		<tag k="name" v="Fløyten" />
		<tag k="natural" v="water" />
		<tag k="ssr:stedsnr" v="8083" />
	</node>
	<node id="-141230" lat="61.0922666706" lon="9.82530555939">
		<tag k="name" v="Bjerttjernet" />
		<tag k="natural" v="water" />
		<tag k="ssr:stedsnr" v="7654" />
	</node>
	<node id="-141227" lat="61.0086166674" lon="9.7888444448">
		<tag k="name" v="Kyrtjernet" />
		<tag k="natural" v="water" />
		<tag k="ssr:stedsnr" v="7361" />
	</node>
	<node id="-141216" lat="61.0749916623" lon="10.0245416757">
		<tag k="name" v="Lauvlielva" />
		<tag k="ssr:stedsnr" v="6046" />
		<tag k="waterway" v="river" />
	</node>
	<node id="-141181" lat="60.9160160401" lon="9.88702734127">
		<tag k="name" v="Overgardstjerna" />
		<tag k="natural" v="water" />
		<tag k="ssr:stedsnr" v="985517" />
		<tag k="water" v="lake" />
	</node>
	<node id="-141179" lat="61.141747218" lon="9.96579999468">
		<tag k="fixme" v="multiple name tags, choose one and add the other to alt_name" />
		<tag k="name" v="Dokkfløy;Dokkfløyvatnet" />
		<tag k="natural" v="water" />
		<tag k="ssr:stedsnr" v="918762" />
		<tag k="water" v="lake" />
	</node>
	<node id="-143225" lat="61.1306388931" lon="9.86555555631">
		<tag k="name" v="Styggdalsbekken" />
		<tag k="ssr:stedsnr" v="968654" />
		<tag k="waterway" v="stream" />
	</node>
	<node id="-143224" lat="60.9318027759" lon="10.0159361136">
		<tag k="name" v="Kjøljua" />
		<tag k="ssr:stedsnr" v="968634" />
		<tag k="waterway" v="river" />
	</node>
	<node id="-143217" lat="60.8035694417" lon="9.85704443903">
		<tag k="alt_name" v="Orrhaugtjennet" />
		<tag k="name" v="Orrhaugtjernet" />
		<tag k="natural" v="water" />
		<tag k="ssr:stedsnr" v="968254" />
	</node>
	<node id="-143216" lat="61.0282666671" lon="9.81052221677">
		<tag k="name" v="Tverråa" />
		<tag k="ssr:stedsnr" v="968233" />
		<tag k="waterway" v="stream" />
	</node>
	<node id="-143215" lat="60.8175166662" lon="10.0398527701">
		<tag k="name" v="Gullerudbekken" />
		<tag k="ssr:stedsnr" v="968204" />
		<tag k="waterway" v="stream" />
	</node>
	<node id="-143214" lat="60.8179499985" lon="9.9370722205">
		<tag k="name" v="Svartputten" />
		<tag k="natural" v="water" />
		<tag k="ssr:stedsnr" v="968193" />
		<tag k="water" v="pond" />
	</node>
	<node id="-143210" lat="60.8394583314" lon="10.1558472204">
		<tag k="name" v="Bjeglerudtjernet" />
		<tag k="natural" v="water" />
		<tag k="ssr:stedsnr" v="967929" />
	</node>
	<node id="-141161" lat="60.8784611122" lon="9.86702777154">
		<tag k="name" v="Flisa" />
		<tag k="ssr:stedsnr" v="889986" />
		<tag k="waterway" v="river" />
	</node>
	<node id="-143207" lat="60.8482361127" lon="9.934333332">
		<tag k="name" v="Esbjugbekken" />
		<tag k="ssr:stedsnr" v="966873" />
		<tag k="waterway" v="stream" />
	</node>
	<node id="-141158" lat="60.7309888901" lon="9.8568333295">
		<tag k="name" v="Skalvatn" />
		<tag k="natural" v="water" />
		<tag k="ssr:stedsnr" v="889534" />
	</node>
	<node id="-143205" lat="60.912763887" lon="10.1334027714">
		<tag k="name" v="Bordbekken" />
		<tag k="ssr:stedsnr" v="966647" />
		<tag k="waterway" v="stream" />
	</node>
	<node id="-141155" lat="61.050497226" lon="9.87685277185">
		<tag k="name" v="Olaputten" />
		<tag k="natural" v="water" />
		<tag k="ssr:stedsnr" v="889133" />
		<tag k="water" v="pond" />
	</node>
	<node id="-143202" lat="60.7943416704" lon="9.9971749992">
		<tag k="name" v="Gullsimyrputten" />
		<tag k="natural" v="water" />
		<tag k="ssr:stedsnr" v="966443" />
		<tag k="water" v="pond" />
	</node>
	<node id="-143201" lat="60.9670666677" lon="10.0128500031">
		<tag k="name" v="Veslevatn" />
		<tag k="natural" v="water" />
		<tag k="ssr:stedsnr" v="966246" />
	</node>
	<node id="-141147" lat="61.0319555548" lon="10.215227787">
		<tag k="name" v="Storlon" />
		<tag k="natural" v="water" />
		<tag k="ssr:stedsnr" v="404986" />
	</node>
	<node id="-141142" lat="60.7326972216" lon="9.83426389756">
		<tag k="name" v="Snakavika" />
		<tag k="natural" v="bay" />
		<tag k="ssr:stedsnr" v="403527" />
	</node>
	<node id="-141141" lat="61.008630555" lon="9.79559444079">
		<tag k="name" v="Kyrtjernputten" />
		<tag k="natural" v="water" />
		<tag k="ssr:stedsnr" v="403146" />
	</node>
	<node id="-141138" lat="60.9416750043" lon="9.83771667213">
		<tag k="alt_name" v="Øyvatnet, nordre;Nordre Øyvatn" />
		<tag k="name" v="Nordre Øyvatnet" />
		<tag k="natural" v="water" />
		<tag k="ssr:stedsnr" v="373942" />
	</node>
	<node id="-141136" lat="60.9594888879" lon="9.84201110205">
		<tag k="name" v="Røstepullen" />
		<tag k="natural" v="water" />
		<tag k="ssr:stedsnr" v="373909" />
	</node>
	<node id="-143182" lat="61.0163916624" lon="9.76851944486">
		<tag k="name" v="Kvassesæterdammen" />
		<tag k="ssr:stedsnr" v="963273" />
		<tag k="waterway" v="dam" />
	</node>
	<node id="-141133" lat="60.783475003" lon="10.0192805584">
		<tag k="alt_name" v="Svartvatnet, øvre;Øvre Svartvatn" />
		<tag k="name" v="Øvre Svartvatnet" />
		<tag k="natural" v="water" />
		<tag k="ssr:stedsnr" v="373666" />
		<tag k="water" v="lake" />
	</node>
	<node id="-141132" lat="60.7845305561" lon="10.0582277858">
		<tag k="name" v="Pølla" />
		<tag k="natural" v="water" />
		<tag k="ssr:stedsnr" v="373665" />
	</node>
	<node id="-143176" lat="61.0213333307" lon="9.83735833068">
		<tag k="name" v="Maribekken" />
		<tag k="ssr:stedsnr" v="949924" />
		<tag k="waterway" v="stream" />
	</node>
	<node id="-143175" lat="61.0322083376" lon="9.87560832914">
		<tag k="name" v="Kampebekken" />
		<tag k="ssr:stedsnr" v="949919" />
		<tag k="waterway" v="stream" />
	</node>
	<node id="-141126" lat="60.8610194438" lon="9.97084167304">
		<tag k="alt_name" v="Fyritjern" />
		<tag k="name" v="Fyritjernet" />
		<tag k="natural" v="water" />
		<tag k="ssr:stedsnr" v="373563" />
	</node>
	<node id="-141124" lat="60.8336694458" lon="10.1333083424">
		<tag k="alt_name" v="Damtjern" />
		<tag k="name" v="Damtjernet" />
		<tag k="natural" v="water" />
		<tag k="ssr:stedsnr" v="373511" />
	</node>
	<node id="-141123" lat="60.8885444413" lon="10.1454972224">
		<tag k="fixme" v="multiple name tags, choose one and add the other to alt_name" />
		<tag k="name" v="Aursjøen;Bergsætervatnet" />
		<tag k="natural" v="water" />
		<tag k="ssr:stedsnr" v="373401" />
		<tag k="water" v="lake" />
	</node>
	<node id="-143170" lat="60.8058194432" lon="10.1004722286">
		<tag k="name" v="Oksebekken" />
		<tag k="ssr:stedsnr" v="949522" />
		<tag k="waterway" v="stream" />
	</node>
	<node id="-143169" lat="60.7326916665" lon="9.83566389277">
		<tag k="name" v="Damodden" />
		<tag k="natural" v="cape" />
		<tag k="ssr:stedsnr" v="949496" />
	</node>
	<node id="-141116" lat="60.8106441786" lon="9.89208388414">
		<tag k="alt_name" v="Vasslivatn" />
		<tag k="name" v="Vasslivatnet" />
		<tag k="natural" v="water" />
		<tag k="ssr:stedsnr" v="373227" />
		<tag k="water" v="lake" />
	</node>
	<node id="-143163" lat="61.1341055562" lon="9.77340278022">
		<tag k="name" v="Tobekken" />
		<tag k="ssr:stedsnr" v="935214" />
		<tag k="waterway" v="stream" />
	</node>
	<node id="-141114" lat="60.7968611074" lon="9.82866110505">
		<tag k="alt_name" v="Krokvatn" />
		<tag k="name" v="Krokvatna" />
		<tag k="natural" v="water" />
		<tag k="ssr:stedsnr" v="373207" />
		<tag k="water" v="lake" />
	</node>
	<node id="-141109" lat="61.0418472182" lon="9.93153887955">
		<tag k="name" v="Kuftebekken" />
		<tag k="ssr:stedsnr" v="372677" />
		<tag k="waterway" v="stream" />
	</node>
	<node id="-141106" lat="60.9282750042" lon="10.135183329">
		<tag k="name" v="Båntjernet" />
		<tag k="natural" v="water" />
		<tag k="ssr:stedsnr" v="372474" />
	</node>
	<node id="-143153" lat="60.9845111128" lon="9.82757499757">
		<tag k="alt_name" v="Breibekken" />
		<tag k="name" v="Breidbekken" />
		<tag k="ssr:stedsnr" v="919969" />
		<tag k="waterway" v="stream" />
	</node>
	<node id="-143152" lat="60.7529055512" lon="10.0817972225">
		<tag k="name" v="Larspullen" />
		<tag k="natural" v="water" />
		<tag k="ssr:stedsnr" v="919698" />
	</node>
	<node id="-143151" lat="60.7981527813" lon="9.98709722204">
		<tag k="alt_name" v="Viktjern" />
		<tag k="name" v="Viktjernet" />
		<tag k="natural" v="water" />
		<tag k="ssr:stedsnr" v="919656" />
	</node>
	<node id="-141101" lat="60.8689805557" lon="10.1315388948">
		<tag k="alt_name" v="Rokketjern" />
		<tag k="name" v="Rokketjernet" />
		<tag k="natural" v="water" />
		<tag k="ssr:stedsnr" v="372440" />
	</node>
	<node id="-141100" lat="60.8959666673" lon="10.1374694438">
		<tag k="alt_name" v="Rusketjern" />
		<tag k="name" v="Rusketjernet" />
		<tag k="natural" v="water" />
		<tag k="ssr:stedsnr" v="372403" />
	</node>
	<node id="-143142" lat="60.9162222264" lon="10.1909333413">
		<tag k="fixme" v="multiple name tags, choose one and add the other to alt_name" />
		<tag k="name" v="Vesle Åborvatn;Åborvatna" />
		<tag k="natural" v="water" />
		<tag k="ssr:stedsnr" v="919469" />
	</node>
	<node id="-143138" lat="60.8810966207" lon="10.1630876675">
		<tag k="name" v="Mårsjøen" />
		<tag k="natural" v="water" />
		<tag k="ssr:stedsnr" v="919401" />
		<tag k="water" v="lake" />
	</node>
	<node id="-143137" lat="60.8860555553" lon="10.1037305588">
		<tag k="alt_name" v="Trysilvatn" />
		<tag k="name" v="Trysilvatnet" />
		<tag k="natural" v="water" />
		<tag k="ssr:stedsnr" v="919400" />
		<tag k="water" v="lake" />
	</node>
	<node id="-141086" lat="60.8793694419" lon="9.94036667402">
		<tag k="alt_name" v="Nordre Øyvatn" />
		<tag k="name" v="Øyvatna" />
		<tag k="natural" v="water" />
		<tag k="ssr:stedsnr" v="372037" />
	</node>
	<node id="-141085" lat="60.8590861068" lon="9.90087222637">
		<tag k="alt_name" v="Tjuvtjern" />
		<tag k="name" v="Tjuvtjernet" />
		<tag k="natural" v="water" />
		<tag k="ssr:stedsnr" v="372001" />
	</node>
	<node id="-141084" lat="61.0387499999" lon="10.023983334">
		<tag k="name" v="Skjelnebekken" />
		<tag k="ssr:stedsnr" v="371455" />
		<tag k="waterway" v="stream" />
	</node>
	<node id="-143121" lat="60.8698027806" lon="9.79456944561">
		<tag k="fixme" v="multiple name tags, choose one and add the other to alt_name" />
		<tag k="name" v="Nedre Skilnadputten;Nedre Skjelnetjern" />
		<tag k="natural" v="water" />
		<tag k="ssr:stedsnr" v="919094" />
	</node>
	<node id="-143120" lat="60.9071910534" lon="9.95425551225">
		<tag k="name" v="Dumsjøen" />
		<tag k="natural" v="water" />
		<tag k="ssr:stedsnr" v="919083" />
	</node>
	<node id="-143119" lat="60.9128388918" lon="9.94828333635">
		<tag k="alt_name" v="Åbortjernet, l;Nordre Abborvatn" />
		<tag k="name" v="Vesle Åbortjernet" />
		<tag k="natural" v="water" />
		<tag k="ssr:stedsnr" v="919079" />
	</node>
	<node id="-143118" lat="60.8725499957" lon="9.96193055309">
		<tag k="alt_name" v="Rundamtjern" />
		<tag k="name" v="Rundhaugtjernet" />
		<tag k="natural" v="water" />
		<tag k="ssr:stedsnr" v="919028" />
	</node>
	<node id="-143117" lat="60.8708583349" lon="9.89930556094">
		<tag k="name" v="Damtjern" />
		<tag k="natural" v="water" />
		<tag k="ssr:stedsnr" v="919012" />
	</node>
	<node id="-143116" lat="60.868525001" lon="9.83594722451">
		<tag k="name" v="Ormpullen" />
		<tag k="natural" v="water" />
		<tag k="ssr:stedsnr" v="919013" />
	</node>
	<node id="-143113" lat="61.0823999994" lon="9.76094444848">
		<tag k="name" v="Hasatjernet" />
		<tag k="natural" v="water" />
		<tag k="ssr:stedsnr" v="918752" />
	</node>
	<node id="-143111" lat="61.0922361135" lon="9.85217222539">
		<tag k="name" v="Midtstrangen" />
		<tag k="ssr:stedsnr" v="918734" />
		<tag k="waterway" v="stream" />
	</node>
	<node id="-143109" lat="61.0245944485" lon="10.1131861111">
		<tag k="name" v="Djupbekken" />
		<tag k="ssr:stedsnr" v="918538" />
		<tag k="waterway" v="stream" />
	</node>
	<node id="-141057" lat="60.7440444418" lon="10.0590083386">
		<tag k="name" v="Øyvasselva" />
		<tag k="ssr:stedsnr" v="361349" />
		<tag k="waterway" v="river" />
	</node>
	<node id="-143104" lat="61.003730557" lon="10.1607222245">
		<tag k="alt_name" v="Bergevatn" />
		<tag k="name" v="Bergevatnet" />
		<tag k="natural" v="water" />
		<tag k="ssr:stedsnr" v="918274" />
	</node>
	<node id="-143099" lat="61.1068166698" lon="10.0178555578">
		<tag k="name" v="Torpevatna" />
		<tag k="natural" v="water" />
		<tag k="ssr:stedsnr" v="918005" />
	</node>
	<node id="-143098" lat="60.7461194409" lon="9.88970556114">
		<tag k="alt_name" v="Ongelvatn" />
		<tag k="name" v="Ongelvatnet" />
		<tag k="natural" v="water" />
		<tag k="ssr:stedsnr" v="917940" />
	</node>
	<node id="-143097" lat="61.0122083298" lon="9.77498610743">
		<tag k="alt_name" v="Store Rakaslyngen" />
		<tag k="name" v="Storrakaslynga" />
		<tag k="natural" v="water" />
		<tag k="ssr:stedsnr" v="917340" />
	</node>
	<node id="-143094" lat="61.0278861073" lon="9.92312500767">
		<tag k="alt_name" v="Abborvatnet" />
		<tag k="name" v="Åbortjernet" />
		<tag k="natural" v="water" />
		<tag k="ssr:stedsnr" v="917290" />
	</node>
	<node id="-143093" lat="61.0239083311" lon="10.2064277823">
		<tag k="name" v="Djupbekken" />
		<tag k="ssr:stedsnr" v="917175" />
		<tag k="waterway" v="stream" />
	</node>
	<node id="-143091" lat="61.0387416672" lon="10.1983638828">
		<tag k="name" v="Fjellobekken" />
		<tag k="ssr:stedsnr" v="917162" />
		<tag k="waterway" v="stream" />
	</node>
	<node id="-143090" lat="61.0390176749" lon="10.1705443851">
		<tag k="name" v="Fjellovatnet" />
		<tag k="natural" v="water" />
		<tag k="old_name" v="Fjellvatnet" />
		<tag k="ssr:stedsnr" v="917154" />
		<tag k="water" v="lake" />
	</node>
	<node id="-143088" lat="61.0506666677" lon="10.0644277857">
		<tag k="name" v="Fjerdingsbekken" />
		<tag k="ssr:stedsnr" v="917038" />
		<tag k="waterway" v="stream" />
	</node>
	<node id="-143087" lat="61.0838500042" lon="9.98235000512">
		<tag k="alt_name" v="Veslefossen" />
		<tag k="name" v="Veslfossen" />
		<tag k="natural" v="waterfall" />
		<tag k="ssr:stedsnr" v="917030" />
	</node>
	<node id="-143084" lat="61.0041166645" lon="10.0454666653">
		<tag k="name" v="Kloppbekken" />
		<tag k="ssr:stedsnr" v="908980" />
		<tag k="waterway" v="stream" />
	</node>
	<node id="-143080" lat="60.8780611124" lon="10.0412500019">
		<tag k="name" v="Dokka" />
		<tag k="ssr:stedsnr" v="908483" />
		<tag k="waterway" v="river" />
	</node>
	<node id="-143072" lat="60.9023444463" lon="9.84710278303">
		<tag k="name" v="Nemdalsbekken" />
		<tag k="ssr:stedsnr" v="908287" />
		<tag k="waterway" v="stream" />
	</node>
	<node id="-141020" lat="60.8722166629" lon="9.85636111996">
		<tag k="name" v="Leppa" />
		<tag k="ssr:stedsnr" v="342971" />
		<tag k="waterway" v="river" />
	</node>
	<node id="-143067" lat="61.006149999" lon="10.0539861187">
		<tag k="name" v="Dokka" />
		<tag k="ssr:stedsnr" v="908010" />
		<tag k="waterway" v="river" />
	</node>
	<node id="-141018" lat="60.7919277773" lon="10.0363222141">
		<tag k="alt_name" v="Søndre Hesttjern" />
		<tag k="name" v="Søre Hesttjern" />
		<tag k="natural" v="water" />
		<tag k="ssr:stedsnr" v="342613" />
	</node>
	<node id="-143065" lat="60.9233499994" lon="10.0457527827">
		<tag k="name" v="Kjøljua" />
		<tag k="ssr:stedsnr" v="907856" />
		<tag k="waterway" v="river" />
	</node>
	<node id="-143061" lat="60.7902805577" lon="9.87136665966">
		<tag k="name" v="Ekornlibekken" />
		<tag k="ssr:stedsnr" v="907261" />
		<tag k="waterway" v="stream" />
	</node>
	<node id="-143060" lat="60.761655559" lon="9.84316943813">
		<tag k="name" v="Rørvatn" />
		<tag k="natural" v="water" />
		<tag k="ssr:stedsnr" v="907219" />
	</node>
	<node id="-141010" lat="60.8105749956" lon="9.99014444195">
		<tag k="alt_name" v="Damtjern" />
		<tag k="name" v="Damtjernet" />
		<tag k="natural" v="water" />
		<tag k="ssr:stedsnr" v="313591" />
	</node>
	<node id="-143056" lat="60.8332972255" lon="10.1463916652">
		<tag k="name" v="Svarttjernsvetjernet" />
		<tag k="natural" v="water" />
		<tag k="ssr:stedsnr" v="906946" />
	</node>
	<node id="-141007" lat="60.8582861137" lon="10.2260166583">
		<tag k="name" v="Brattelva" />
		<tag k="ssr:stedsnr" v="313524" />
		<tag k="waterway" v="stream" />
	</node>
	<node id="-143050" lat="60.9083277777" lon="9.98378888567">
		<tag k="name" v="Sauputten" />
		<tag k="natural" v="water" />
		<tag k="ssr:stedsnr" v="906641" />
		<tag k="water" v="pond" />
	</node>
	<node id="-140998" lat="60.9294416659" lon="9.8187416686">
		<tag k="alt_name" v="Livatnet, vesle;Vesle Livatn" />
		<tag k="name" v="Vesle Livatnet" />
		<tag k="natural" v="water" />
		<tag k="ssr:stedsnr" v="312870" />
	</node>
	<node id="-140996" lat="60.7935583313" lon="10.0955694521">
		<tag k="name" v="Åvella" />
		<tag k="ssr:stedsnr" v="312651" />
		<tag k="waterway" v="river" />
	</node>
	<node id="-143041" lat="61.0124777768" lon="9.76885278285">
		<tag k="name" v="Rakaslønga" />
		<tag k="natural" v="bay" />
		<tag k="ssr:stedsnr" v="903397" />
	</node>
	<node id="-143040" lat="60.753058331" lon="9.87354999376">
		<tag k="name" v="Rosenvann" />
		<tag k="natural" v="water" />
		<tag k="ssr:stedsnr" v="875549" />
	</node>
	<node id="-140990" lat="60.9015805577" lon="10.1816138971">
		<tag k="name" v="Svarten" />
		<tag k="natural" v="water" />
		<tag k="ssr:stedsnr" v="312489" />
	</node>
	<node id="-143037" lat="60.9493055536" lon="9.9144916707">
		<tag k="alt_name" v="Øyvatn" />
		<tag k="name" v="Øyvatnet" />
		<tag k="natural" v="water" />
		<tag k="ssr:stedsnr" v="859912" />
	</node>
	<node id="-143028" lat="60.8210999979" lon="10.1737750081">
		<tag k="alt_name" v="Lomtjern" />
		<tag k="name" v="Lomtjernet" />
		<tag k="natural" v="water" />
		<tag k="ssr:stedsnr" v="859551" />
	</node>
	<node id="-140971" lat="60.872772219" lon="9.79678055573">
		<tag k="fixme" v="multiple name tags, choose one and add the other to alt_name" />
		<tag k="name" v="Midtre Skilnadputten;Midtre Skjelnetjern" />
		<tag k="natural" v="water" />
		<tag k="ssr:stedsnr" v="312087" />
	</node>
	<node id="-140970" lat="60.9095833317" lon="9.8430888876">
		<tag k="alt_name" v="Øyvatn" />
		<tag k="name" v="Øyvatnet" />
		<tag k="natural" v="water" />
		<tag k="ssr:stedsnr" v="312074" />
	</node>
	<node id="-140969" lat="60.9144750011" lon="9.87224722913">
		<tag k="alt_name" v="Vesle Bergevatn" />
		<tag k="name" v="Veslebergvatnet" />
		<tag k="natural" v="water" />
		<tag k="ssr:stedsnr" v="312073" />
	</node>
	<node id="-140968" lat="60.910383335" lon="9.92785278548">
		<tag k="alt_name" v="Øyvatn" />
		<tag k="name" v="Øyvatnet" />
		<tag k="natural" v="water" />
		<tag k="ssr:stedsnr" v="312072" />
	</node>
	<node id="-140964" lat="61.1562777753" lon="9.71045278455">
		<tag k="alt_name" v="Røssjøkollvatnet" />
		<tag k="name" v="Røssjøkolltjernet" />
		<tag k="natural" v="water" />
		<tag k="ssr:stedsnr" v="311790" />
	</node>
	<node id="-140962" lat="61.092822218" lon="9.76423611173">
		<tag k="name" v="Hasabekken" />
		<tag k="ssr:stedsnr" v="311716" />
		<tag k="waterway" v="stream" />
	</node>
	<node id="-140961" lat="61.1044777758" lon="9.81621943516">
		<tag k="name" v="Lønvatnet" />
		<tag k="natural" v="water" />
		<tag k="ssr:stedsnr" v="311706" />
	</node>
	<node id="-140960" lat="61.0471361125" lon="9.85351944761">
		<tag k="fixme" v="multiple name tags, choose one and add the other to alt_name" />
		<tag k="name" v="Brennbekken;Kvernbekken" />
		<tag k="ssr:stedsnr" v="311694" />
		<tag k="waterway" v="stream" />
	</node>
	<node id="-140959" lat="61.0666444459" lon="9.81893333371">
		<tag k="name" v="Høgkampvatnet" />
		<tag k="natural" v="water" />
		<tag k="ssr:stedsnr" v="311675" />
	</node>
	<node id="-140957" lat="60.8654000028" lon="9.98880000171">
		<tag k="alt_name" v="Stensrudtjern" />
		<tag k="name" v="Steinsrudtjernet" />
		<tag k="natural" v="water" />
		<tag k="ssr:stedsnr" v="311477" />
	</node>
	<node id="-143004" lat="61.1258027796" lon="9.75448055175">
		<tag k="name" v="Fabbrobekken" />
		<tag k="ssr:stedsnr" v="858728" />
		<tag k="waterway" v="stream" />
	</node>
	<node id="-143003" lat="61.1320888874" lon="9.72056666198">
		<tag k="alt_name" v="Tretjern" />
		<tag k="name" v="Tretjerna" />
		<tag k="natural" v="water" />
		<tag k="ssr:stedsnr" v="858725" />
	</node>
	<node id="-140949" lat="60.8910583359" lon="9.851977784">
		<tag k="alt_name" v="Skrevshaugtjern" />
		<tag k="name" v="Skrevsrudtjernet" />
		<tag k="natural" v="water" />
		<tag k="ssr:stedsnr" v="311145" />
	</node>
	<node id="-140948" lat="60.8871527788" lon="9.93020277536">
		<tag k="name" v="Rokotoa" />
		<tag k="natural" v="water" />
		<tag k="ssr:stedsnr" v="311129" />
	</node>
	<node id="-142988" lat="60.9643499964" lon="10.1699638826">
		<tag k="alt_name" v="Pusrudelva" />
		<tag k="name" v="Pussrudelva" />
		<tag k="ssr:stedsnr" v="858356" />
		<tag k="waterway" v="stream" />
	</node>
	<node id="-140938" lat="61.0609249974" lon="10.0602333255">
		<tag k="name" v="Torgebekken" />
		<tag k="ssr:stedsnr" v="310061" />
		<tag k="waterway" v="stream" />
	</node>
	<node id="-140934" lat="60.9481166709" lon="9.8787388945">
		<tag k="alt_name" v="Killingtjern" />
		<tag k="name" v="Killingvatnet" />
		<tag k="natural" v="water" />
		<tag k="ssr:stedsnr" v="313941" />
	</node>
	<node id="-142979" lat="60.7480833325" lon="9.88743054745">
		<tag k="alt_name" v="Smiudalstjern" />
		<tag k="name" v="Simudalstjernet" />
		<tag k="natural" v="water" />
		<tag k="ssr:stedsnr" v="857800" />
	</node>
	<node id="-140928" lat="60.8125027801" lon="10.0847638802">
		<tag k="name" v="Skjellungselva" />
		<tag k="ssr:stedsnr" v="301809" />
		<tag k="waterway" v="stream" />
	</node>
	<node id="-140925" lat="60.8216166636" lon="9.92094444221">
		<tag k="name" v="Løndalsbekken" />
		<tag k="ssr:stedsnr" v="301676" />
		<tag k="waterway" v="stream" />
	</node>
	<node id="-140924" lat="61.1031111149" lon="9.90528055712">
		<tag k="name" v="Sulutjern" />
		<tag k="natural" v="water" />
		<tag k="ssr:stedsnr" v="301670" />
	</node>
	<node id="-142963" lat="61.0362555553" lon="10.076775005">
		<tag k="name" v="Steinbekken" />
		<tag k="ssr:stedsnr" v="857219" />
		<tag k="waterway" v="stream" />
	</node>
	<node id="-142962" lat="60.7397888856" lon="9.84804444675">
		<tag k="name" v="Storvika" />
		<tag k="natural" v="bay" />
		<tag k="ssr:stedsnr" v="856965" />
	</node>
	<node id="-140913" lat="60.9672055532" lon="10.1169805561">
		<tag k="name" v="Pusrudelva" />
		<tag k="ssr:stedsnr" v="300547" />
		<tag k="waterway" v="stream" />
	</node>
	<node id="-142950" lat="60.8188083352" lon="9.99521666654">
		<tag k="name" v="Hanastadbekken" />
		<tag k="ssr:stedsnr" v="847374" />
		<tag k="waterway" v="stream" />
	</node>
	<node id="-140901" lat="60.8786805511" lon="9.94867222813">
		<tag k="alt_name" v="Søndre Øyvatn" />
		<tag k="name" v="Søre Øyvatn" />
		<tag k="natural" v="water" />
		<tag k="ssr:stedsnr" v="299904" />
	</node>
	<node id="-140902" lat="60.9296388915" lon="9.91963333069">
		<tag k="name" v="Kjølsjødammen" />
		<tag k="ssr:stedsnr" v="299947" />
		<tag k="waterway" v="dam" />
	</node>
	<node id="-142945" lat="60.8320222241" lon="9.86032499302">
		<tag k="name" v="Hølbekken" />
		<tag k="ssr:stedsnr" v="847206" />
		<tag k="waterway" v="stream" />
	</node>
	<node id="-142943" lat="60.8248388934" lon="10.0882333311">
		<tag k="name" v="Tonvollveita" />
		<tag k="ssr:stedsnr" v="847154" />
		<tag k="waterway" v="river" />
	</node>
	<node id="-140893" lat="61.0336805582" lon="9.89445277043">
		<tag k="name" v="Øvre Karusstjern" />
		<tag k="natural" v="water" />
		<tag k="ssr:stedsnr" v="299632" />
	</node>
	<node id="-140890" lat="60.7625694456" lon="9.94100000864">
		<tag k="name" v="Kalvputten" />
		<tag k="natural" v="water" />
		<tag k="ssr:stedsnr" v="299560" />
		<tag k="water" v="pond" />
	</node>
	<node id="-140882" lat="61.0010555518" lon="10.1957222252">
		<tag k="name" v="Haugsæterpullen" />
		<tag k="natural" v="water" />
		<tag k="ssr:stedsnr" v="297581" />
		<tag k="water" v="pond" />
	</node>
	<node id="-142929" lat="61.0632000014" lon="10.0725749984">
		<tag k="name" v="Torgebekken" />
		<tag k="ssr:stedsnr" v="845840" />
		<tag k="waterway" v="stream" />
	</node>
	<node id="-140880" lat="60.959536111" lon="10.1678833361">
		<tag k="name" v="Flåmyrpullen" />
		<tag k="natural" v="water" />
		<tag k="ssr:stedsnr" v="297042" />
	</node>
	<node id="-142925" lat="61.0739638894" lon="9.99255833653">
		<tag k="name" v="Dokka" />
		<tag k="ssr:stedsnr" v="845779" />
		<tag k="waterway" v="river" />
	</node>
	<node id="-140876" lat="61.0123777761" lon="9.87890832806">
		<tag k="name" v="Brennbekken" />
		<tag k="ssr:stedsnr" v="282892" />
		<tag k="waterway" v="stream" />
	</node>
	<node id="-140874" lat="60.7901111071" lon="10.0709083323">
		<tag k="name" v="Hansketjern" />
		<tag k="natural" v="water" />
		<tag k="ssr:stedsnr" v="282625" />
	</node>
	<node id="-142917" lat="60.9897055545" lon="10.0510583339">
		<tag k="name" v="Livasselva" />
		<tag k="ssr:stedsnr" v="845514" />
		<tag k="waterway" v="river" />
	</node>
	<node id="-142916" lat="60.895105553" lon="10.0568083261">
		<tag k="name" v="Dokka" />
		<tag k="ssr:stedsnr" v="845004" />
		<tag k="waterway" v="river" />
	</node>
	<node id="-142913" lat="60.8542027777" lon="9.82650277056">
		<tag k="name" v="Damtjernsbekken" />
		<tag k="ssr:stedsnr" v="843594" />
		<tag k="waterway" v="stream" />
	</node>
	<node id="-142912" lat="60.8544055581" lon="9.8079361086">
		<tag k="name" v="Damtjerna" />
		<tag k="natural" v="water" />
		<tag k="ssr:stedsnr" v="843593" />
	</node>
	<node id="-142910" lat="60.7852111121" lon="10.1328805553">
		<tag k="name" v="Våtbekken" />
		<tag k="ssr:stedsnr" v="834271" />
		<tag k="waterway" v="stream" />
	</node>
	<node id="-142906" lat="60.9790777806" lon="9.82933611623">
		<tag k="name" v="Hestebekken" />
		<tag k="ssr:stedsnr" v="828551" />
		<tag k="waterway" v="stream" />
	</node>
	<node id="-142905" lat="60.9717333375" lon="9.83825278429">
		<tag k="name" v="Bjørnlauga" />
		<tag k="natural" v="water" />
		<tag k="ssr:stedsnr" v="828531" />
		<tag k="water" v="pond" />
	</node>
	<node id="-142903" lat="60.7754916643" lon="9.82021666379">
		<tag k="name" v="Brynnstjern" />
		<tag k="natural" v="water" />
		<tag k="ssr:stedsnr" v="828468" />
	</node>
	<node id="-142902" lat="61.0120249999" lon="9.79553055778">
		<tag k="name" v="Livasselva" />
		<tag k="ssr:stedsnr" v="828135" />
		<tag k="waterway" v="stream" />
	</node>
	<node id="-142899" lat="61.1367666638" lon="9.69172222741">
		<tag k="name" v="Trondhusbekken" />
		<tag k="ssr:stedsnr" v="814875" />
		<tag k="waterway" v="stream" />
	</node>
	<node id="-142897" lat="61.1312444421" lon="9.79930833217">
		<tag k="name" v="Lenna" />
		<tag k="ssr:stedsnr" v="804291" />
		<tag k="waterway" v="river" />
	</node>
	<node id="-142895" lat="60.9864916702" lon="9.87739444228">
		<tag k="name" v="Øytjernet" />
		<tag k="natural" v="water" />
		<tag k="ssr:stedsnr" v="798974" />
	</node>
	<node id="-142891" lat="60.9493611116" lon="9.83504166794">
		<tag k="alt_name" v="Uksepullen" />
		<tag k="name" v="Oksepullen" />
		<tag k="natural" v="water" />
		<tag k="ssr:stedsnr" v="798911" />
	</node>
	<node id="-142886" lat="60.780072224" lon="10.0013611067">
		<tag k="name" v="Akksjøelva" />
		<tag k="ssr:stedsnr" v="798608" />
		<tag k="waterway" v="river" />
	</node>
	<node id="-142884" lat="60.9202388852" lon="9.86847499116">
		<tag k="alt_name" v="Langbergevatn" />
		<tag k="name" v="Langbergvatnet" />
		<tag k="natural" v="water" />
		<tag k="ssr:stedsnr" v="798888" />
	</node>
	<node id="-142883" lat="60.9305555551" lon="9.91429166063">
		<tag k="name" v="Kjølsjøen" />
		<tag k="natural" v="water" />
		<tag k="ssr:stedsnr" v="798877" />
		<tag k="water" v="lake" />
	</node>
	<node id="-142882" lat="60.8483447789" lon="10.160135036">
		<tag k="name" v="Skinnerudtjernet" />
		<tag k="natural" v="water" />
		<tag k="ssr:stedsnr" v="798480" />
	</node>
	<node id="-142877" lat="60.8716416702" lon="9.99476111372">
		<tag k="alt_name" v="Kalsåa" />
		<tag k="name" v="Karlsåa" />
		<tag k="ssr:stedsnr" v="798376" />
		<tag k="waterway" v="stream" />
	</node>
	<node id="-142875" lat="60.8939416695" lon="10.1065833368">
		<tag k="name" v="Djupåa" />
		<tag k="ssr:stedsnr" v="798346" />
		<tag k="waterway" v="stream" />
	</node>
	<node id="-142872" lat="60.9964305548" lon="10.02777777">
		<tag k="name" v="Synna" />
		<tag k="ssr:stedsnr" v="798281" />
		<tag k="waterway" v="river" />
	</node>
	<node id="-142870" lat="60.7631250028" lon="9.8276805546">
		<tag k="alt_name" v="Lauvlivatnet, øvre;Øvre Lauvlivatn" />
		<tag k="name" v="Øvre Lauvlivatnet" />
		<tag k="natural" v="water" />
		<tag k="ssr:stedsnr" v="798169" />
	</node>
	<node id="-142869" lat="60.7640888867" lon="9.81706111716">
		<tag k="alt_name" v="Skålvatn" />
		<tag k="name" v="Skålvatnet" />
		<tag k="natural" v="water" />
		<tag k="ssr:stedsnr" v="798168" />
	</node>
	<node id="-142868" lat="60.7524055579" lon="9.9003194502">
		<tag k="alt_name" v="Bondetjern" />
		<tag k="name" v="Bondetjernet" />
		<tag k="natural" v="water" />
		<tag k="ssr:stedsnr" v="798144" />
	</node>
	<node id="-142866" lat="61.1201027742" lon="9.82504165742">
		<tag k="name" v="Budeibekken" />
		<tag k="ssr:stedsnr" v="797734" />
		<tag k="waterway" v="stream" />
	</node>
	<node id="-142865" lat="61.114491664" lon="9.76514722723">
		<tag k="alt_name" v="Rakfiskpullen" />
		<tag k="name" v="Rakafiskputten" />
		<tag k="natural" v="water" />
		<tag k="ssr:stedsnr" v="797731" />
	</node>
	<node id="-142864" lat="61.1373805574" lon="9.72991666727">
		<tag k="alt_name" v="Storlægeren" />
		<tag k="name" v="Storlægervatnet" />
		<tag k="natural" v="water" />
		<tag k="ssr:stedsnr" v="797712" />
		<tag k="water" v="lake" />
	</node>
	<node id="-142863" lat="61.1355166673" lon="9.93907778644">
		<tag k="name" v="Mannstadbekken" />
		<tag k="ssr:stedsnr" v="797708" />
		<tag k="waterway" v="stream" />
	</node>
	<node id="-142862" lat="61.1121527796" lon="9.74664722244">
		<tag k="name" v="Lenningsvatna" />
		<tag k="natural" v="water" />
		<tag k="old_name" v="Lenningsvatnet;Lenningsv-na;Landingskjærn;Lenningen;Landings Kj" />
		<tag k="ssr:stedsnr" v="797670" />
		<tag k="water" v="lake" />
	</node>
	<node id="-142861" lat="60.9086194488" lon="10.1962222152">
		<tag k="name" v="Gulsetbekken" />
		<tag k="ssr:stedsnr" v="797487" />
		<tag k="waterway" v="stream" />
	</node>
	<node id="-142854" lat="60.8719750007" lon="10.084183334">
		<tag k="name" v="Fjerdingsbekken" />
		<tag k="ssr:stedsnr" v="797409" />
		<tag k="waterway" v="stream" />
	</node>
	<node id="-142853" lat="60.8731138916" lon="10.1479833255">
		<tag k="name" v="Krokevja" />
		<tag k="ssr:stedsnr" v="797405" />
		<tag k="waterway" v="stream" />
	</node>
	<node id="-142847" lat="60.853627778" lon="9.80174999918">
		<tag k="alt_name" v="Damtjernet, store" />
		<tag k="name" v="Store Damtjernet" />
		<tag k="natural" v="water" />
		<tag k="ssr:stedsnr" v="797061" />
	</node>
	<node id="-142844" lat="61.1017083334" lon="9.82401111748">
		<tag k="alt_name" v="Langvatnet" />
		<tag k="name" v="Langevatnet" />
		<tag k="natural" v="water" />
		<tag k="ssr:stedsnr" v="796670" />
		<tag k="water" v="lake" />
	</node>
	<node id="-142843" lat="61.0972083332" lon="9.80963333365">
		<tag k="name" v="Hovdevatnet" />
		<tag k="natural" v="water" />
		<tag k="ssr:stedsnr" v="796669" />
	</node>
	<node id="-142835" lat="60.7423444455" lon="9.87111111519">
		<tag k="alt_name" v="Styggsvartvatn" />
		<tag k="name" v="Styggsvartvatnet" />
		<tag k="natural" v="water" />
		<tag k="ssr:stedsnr" v="795955" />
	</node>
	<node id="-142828" lat="61.0807361143" lon="10.0585972299">
		<tag k="name" v="Øytjernet" />
		<tag k="natural" v="water" />
		<tag k="ssr:stedsnr" v="795069" />
	</node>
	<node id="-142827" lat="61.0713416624" lon="9.99284722365">
		<tag k="name" v="Høgfossen" />
		<tag k="natural" v="waterfall" />
		<tag k="ssr:stedsnr" v="795062" />
	</node>
	<node id="-142823" lat="60.8107999996" lon="10.064119448">
		<tag k="name" v="Huldreputten" />
		<tag k="natural" v="water" />
		<tag k="ssr:stedsnr" v="798554" />
	</node>
	<node id="-142821" lat="60.8238166669" lon="10.1612333318">
		<tag k="name" v="Hundtjernsbekken" />
		<tag k="ssr:stedsnr" v="798543" />
		<tag k="waterway" v="stream" />
	</node>
	<node id="-142818" lat="60.7994916666" lon="10.0589583387">
		<tag k="name" v="Mælumsbekken" />
		<tag k="ssr:stedsnr" v="798534" />
		<tag k="waterway" v="stream" />
	</node>
	<node id="-142810" lat="61.1371805548" lon="9.75975555932">
		<tag k="name" v="Tobekken" />
		<tag k="ssr:stedsnr" v="786881" />
		<tag k="waterway" v="stream" />
	</node>
	<node id="-142804" lat="60.9688555575" lon="10.0965138869">
		<tag k="name" v="Vinjarelva" />
		<tag k="ssr:stedsnr" v="786565" />
		<tag k="waterway" v="stream" />
	</node>
	<node id="-142799" lat="60.7619083337" lon="10.0493194512">
		<tag k="name" v="Furupullen" />
		<tag k="natural" v="water" />
		<tag k="ssr:stedsnr" v="786332" />
	</node>
	<node id="-142792" lat="60.9804527735" lon="10.0790249974">
		<tag k="name" v="Dokka" />
		<tag k="ssr:stedsnr" v="786056" />
		<tag k="waterway" v="river" />
	</node>
	<node id="-142784" lat="60.871025001" lon="9.95339722776">
		<tag k="name" v="Skjeldneputten" />
		<tag k="natural" v="water" />
		<tag k="ssr:stedsnr" v="784886" />
	</node>
	<node id="-142782" lat="61.0689388864" lon="10.0354277837">
		<tag k="name" v="Dokka" />
		<tag k="ssr:stedsnr" v="784854" />
		<tag k="waterway" v="river" />
	</node>
	<node id="-142777" lat="60.9473250038" lon="9.96730833824">
		<tag k="name" v="Brandsrudelva" />
		<tag k="ssr:stedsnr" v="784793" />
		<tag k="waterway" v="river" />
	</node>
	<node id="-142771" lat="60.8236805563" lon="10.0170833264">
		<tag k="name" v="Nølandsbekken" />
		<tag k="ssr:stedsnr" v="784531" />
		<tag k="waterway" v="stream" />
	</node>
	<node id="-142765" lat="61.0517194478" lon="10.0754833252">
		<tag k="name" v="Fjerdingsbekken" />
		<tag k="ssr:stedsnr" v="784044" />
		<tag k="waterway" v="stream" />
	</node>
	<node id="-142758" lat="61.0042222226" lon="9.79115832923">
		<tag k="name" v="Klauvsjøbekken" />
		<tag k="ssr:stedsnr" v="767140" />
		<tag k="waterway" v="stream" />
	</node>
	<node id="-142755" lat="60.9175555574" lon="9.88583055174">
		<tag k="name" v="Nedre Øvergardstjern" />
		<tag k="natural" v="water" />
		<tag k="ssr:stedsnr" v="767115" />
	</node>
	<node id="-142754" lat="60.9783055555" lon="9.82057499478">
		<tag k="name" v="Haugsjøen" />
		<tag k="natural" v="water" />
		<tag k="ssr:stedsnr" v="737995" />
	</node>
	<node id="-142753" lat="60.9857222188" lon="9.80039999093">
		<tag k="name" v="Oksepullen" />
		<tag k="natural" v="water" />
		<tag k="ssr:stedsnr" v="737983" />
	</node>
	<node id="-142752" lat="60.9419027821" lon="9.90606667368">
		<tag k="alt_name" v="Kalandstjern" />
		<tag k="name" v="Alvgardtjernet" />
		<tag k="natural" v="water" />
		<tag k="ssr:stedsnr" v="737877" />
	</node>
	<node id="-142738" lat="60.9034166634" lon="10.0317888833">
		<tag k="name" v="Dumma" />
		<tag k="ssr:stedsnr" v="737473" />
		<tag k="waterway" v="river" />
	</node>
	<node id="-142733" lat="60.9651277771" lon="9.97376110251">
		<tag k="alt_name" v="Kværnbekken" />
		<tag k="name" v="Kvernbekken" />
		<tag k="ssr:stedsnr" v="737342" />
		<tag k="waterway" v="stream" />
	</node>
	<node id="-142722" lat="60.7811194408" lon="9.84491110322">
		<tag k="alt_name" v="Veslevatn" />
		<tag k="name" v="Veslvatnet" />
		<tag k="natural" v="water" />
		<tag k="ssr:stedsnr" v="737128" />
	</node>
	<node id="-142715" lat="60.781041663" lon="10.1290611059">
		<tag k="name" v="Våtbekken" />
		<tag k="ssr:stedsnr" v="737652" />
		<tag k="waterway" v="stream" />
	</node>
	<node id="-142713" lat="60.7670111136" lon="9.99953888207">
		<tag k="name" v="Flesa" />
		<tag k="ssr:stedsnr" v="737624" />
		<tag k="waterway" v="river" />
	</node>
	<node id="-142707" lat="61.1455583343" lon="9.82951667228">
		<tag k="name" v="Oppsjøbekken" />
		<tag k="ssr:stedsnr" v="736712" />
		<tag k="waterway" v="stream" />
	</node>
	<node id="-142705" lat="61.1089666651" lon="9.8609388831">
		<tag k="alt_name" v="Kvitbekken" />
		<tag k="name" v="Bjørkesæterbekken" />
		<tag k="ssr:stedsnr" v="736665" />
		<tag k="waterway" v="stream" />
	</node>
	<node id="-142702" lat="60.8731666703" lon="10.1986722176">
		<tag k="name" v="Bratten" />
		<tag k="natural" v="water" />
		<tag k="ssr:stedsnr" v="736412" />
	</node>
	<node id="-142701" lat="60.8693083304" lon="10.2342277765">
		<tag k="alt_name" v="Komperudelva" />
		<tag k="name" v="Kumperudelva" />
		<tag k="ssr:stedsnr" v="736409" />
		<tag k="waterway" v="river" />
	</node>
	<node id="-142697" lat="60.9071305527" lon="9.88221665929">
		<tag k="name" v="Tubbemyrbekken" />
		<tag k="ssr:stedsnr" v="736084" />
		<tag k="waterway" v="stream" />
	</node>
	<node id="-142694" lat="61.09732222" lon="9.98495555098">
		<tag k="name" v="Skjelnebekken" />
		<tag k="ssr:stedsnr" v="736039" />
		<tag k="waterway" v="stream" />
	</node>
	<node id="-142693" lat="61.0880833365" lon="10.0305472248">
		<tag k="alt_name" v="Laulielva" />
		<tag k="name" v="Fiska" />
		<tag k="ssr:stedsnr" v="736005" />
		<tag k="waterway" v="river" />
	</node>
	<node id="-142692" lat="60.7490388919" lon="9.87023055317">
		<tag k="alt_name" v="Svartvatnet, l;Vesle Svartvatn" />
		<tag k="name" v="Vesle Svartvatnet" />
		<tag k="natural" v="water" />
		<tag k="ssr:stedsnr" v="735792" />
	</node>
	<node id="-142690" lat="61.0806583322" lon="9.90764166679">
		<tag k="name" v="Strangen" />
		<tag k="ssr:stedsnr" v="735670" />
		<tag k="waterway" v="stream" />
	</node>
	<node id="-142680" lat="60.8605944439" lon="10.1422499944">
		<tag k="alt_name" v="Søndre Midtvatn" />
		<tag k="name" v="Søre Midtvatn" />
		<tag k="natural" v="water" />
		<tag k="ssr:stedsnr" v="734082" />
	</node>
	<node id="-142679" lat="60.9703227269" lon="9.78552961767">
		<tag k="name" v="Øyangen" />
		<tag k="natural" v="water" />
		<tag k="ssr:stedsnr" v="728501" />
		<tag k="water" v="lake" />
	</node>
	<node id="-142666" lat="60.8320472225" lon="9.92521667218">
		<tag k="name" v="Etna" />
		<tag k="ssr:stedsnr" v="725614" />
		<tag k="waterway" v="river" />
	</node>
	<node id="-142664" lat="60.8245416667" lon="10.0041472239">
		<tag k="name" v="Hanastadbekken" />
		<tag k="ssr:stedsnr" v="725599" />
		<tag k="waterway" v="stream" />
	</node>
	<node id="-142663" lat="61.1260361141" lon="9.85937777796">
		<tag k="loc_name" v="Skjelneodden;Skilnadodden;Skilleodden" />
		<tag k="name" v="Sjelneodden" />
		<tag k="natural" v="cape" />
		<tag k="ssr:stedsnr" v="725565" />
	</node>
	<node id="-142658" lat="60.7725499968" lon="9.85531665781">
		<tag k="name" v="Knattsjøen" />
		<tag k="natural" v="water" />
		<tag k="ssr:stedsnr" v="725266" />
	</node>
	<node id="-142657" lat="60.812274999" lon="9.87196388765">
		<tag k="name" v="Håkenstadbekken" />
		<tag k="ssr:stedsnr" v="725217" />
		<tag k="waterway" v="stream" />
	</node>
	<node id="-142656" lat="60.8395388905" lon="9.88328610763">
		<tag k="name" v="Leppa" />
		<tag k="ssr:stedsnr" v="725185" />
		<tag k="waterway" v="river" />
	</node>
	<node id="-142650" lat="61.004975002" lon="9.90973611464">
		<tag k="name" v="Livassdammen" />
		<tag k="ssr:stedsnr" v="724214" />
		<tag k="waterway" v="dam" />
	</node>
	<node id="-142647" lat="60.9077277748" lon="10.2047083271">
		<tag k="name" v="Gulsetvatnet" />
		<tag k="natural" v="water" />
		<tag k="ssr:stedsnr" v="724113" />
	</node>
	<node id="-142646" lat="61.0403277816" lon="10.0898361181">
		<tag k="name" v="Steinbekken" />
		<tag k="ssr:stedsnr" v="724040" />
		<tag k="waterway" v="stream" />
	</node>
	<node id="-142643" lat="61.0311388917" lon="10.1402166592">
		<tag k="name" v="Fjellpullen" />
		<tag k="natural" v="water" />
		<tag k="ssr:stedsnr" v="722990" />
	</node>
	<node id="-142642" lat="61.0258944445" lon="10.1561472198">
		<tag k="name" v="Svartbekken" />
		<tag k="ssr:stedsnr" v="722980" />
		<tag k="waterway" v="stream" />
	</node>
	<node id="-142639" lat="60.9975888881" lon="9.99183611604">
		<tag k="name" v="Livasselva" />
		<tag k="ssr:stedsnr" v="722147" />
		<tag k="waterway" v="river" />
	</node>
	<node id="-142638" lat="60.9174666699" lon="9.79527499208">
		<tag k="name" v="Hagamyrbekken" />
		<tag k="ssr:stedsnr" v="721825" />
		<tag k="waterway" v="stream" />
	</node>
	<node id="-142633" lat="60.8046277819" lon="10.0837444531">
		<tag k="name" v="Mælumsbekken" />
		<tag k="ssr:stedsnr" v="706538" />
		<tag k="waterway" v="stream" />
	</node>
	<node id="-142627" lat="60.7550611147" lon="10.0005805522">
		<tag k="alt_name" v="Flesvatn" />
		<tag k="name" v="Flesvatnet" />
		<tag k="natural" v="water" />
		<tag k="ssr:stedsnr" v="677736" />
	</node>
	<node id="-142626" lat="60.8088972206" lon="10.0213222272">
		<tag k="name" v="Bjørkeputten" />
		<tag k="natural" v="water" />
		<tag k="ssr:stedsnr" v="677594" />
	</node>
	<node id="-142618" lat="60.7753194472" lon="9.98081389152">
		<tag k="alt_name" v="Krokevjua" />
		<tag k="name" v="Krokevjebekken" />
		<tag k="ssr:stedsnr" v="677641" />
		<tag k="waterway" v="stream" />
	</node>
	<node id="-142613" lat="60.9861972256" lon="9.77522221673">
		<tag k="alt_name" v="Lundtjern" />
		<tag k="name" v="Lundtjernet" />
		<tag k="natural" v="water" />
		<tag k="ssr:stedsnr" v="676980" />
	</node>
	<node id="-142612" lat="60.9650083305" lon="9.90672500249">
		<tag k="alt_name" v="Hyrningstjern" />
		<tag k="name" v="Hyrningtjernet" />
		<tag k="natural" v="water" />
		<tag k="ssr:stedsnr" v="676946" />
	</node>
	<node id="-142610" lat="60.7967388868" lon="10.0549805568">
		<tag k="alt_name" v="Gørrtjern" />
		<tag k="name" v="Gorrtjernet" />
		<tag k="natural" v="water" />
		<tag k="ssr:stedsnr" v="676658" />
	</node>
	<node id="-142600" lat="60.9011055598" lon="10.1305194402">
		<tag k="name" v="Maripullen" />
		<tag k="natural" v="water" />
		<tag k="ssr:stedsnr" v="676492" />
	</node>
	<node id="-142586" lat="60.9428222259" lon="10.0355388821">
		<tag k="name" v="Lundelva" />
		<tag k="ssr:stedsnr" v="676269" />
		<tag k="waterway" v="stream" />
	</node>
	<node id="-142584" lat="60.8193277764" lon="9.89847778197">
		<tag k="name" v="Nysvellibekken" />
		<tag k="ssr:stedsnr" v="676212" />
		<tag k="waterway" v="stream" />
	</node>
	<node id="-142578" lat="60.8764888916" lon="9.92567500056">
		<tag k="alt_name" v="Storpulla" />
		<tag k="name" v="Svartpullen" />
		<tag k="natural" v="water" />
		<tag k="ssr:stedsnr" v="676033" />
	</node>
	<node id="-142574" lat="60.8658305549" lon="9.82374722757">
		<tag k="alt_name" v="Skardvatnet, l;Skarvatn" />
		<tag k="name" v="Vesle Skardvatnet" />
		<tag k="natural" v="water" />
		<tag k="ssr:stedsnr" v="676018" />
	</node>
	<node id="-142572" lat="60.8667583308" lon="9.94098888034">
		<tag k="alt_name" v="Bronerbekken" />
		<tag k="name" v="Brunbekken" />
		<tag k="ssr:stedsnr" v="676015" />
		<tag k="waterway" v="stream" />
	</node>
	<node id="-142571" lat="60.8665000005" lon="9.92731388307">
		<tag k="alt_name" v="Skattumflattjern" />
		<tag k="name" v="Skattumflattjernet" />
		<tag k="natural" v="water" />
		<tag k="ssr:stedsnr" v="676012" />
	</node>
	<node id="-142566" lat="61.151022222" lon="9.75715278439">
		<tag k="alt_name" v="Gryttjønn" />
		<tag k="name" v="Gryttjønnet" />
		<tag k="natural" v="water" />
		<tag k="ssr:stedsnr" v="675768" />
	</node>
	<node id="-142564" lat="61.1623535338" lon="9.81901004637">
		<tag k="name" v="Oppsjøen" />
		<tag k="natural" v="water" />
		<tag k="ssr:stedsnr" v="675751" />
		<tag k="water" v="lake" />
	</node>
	<node id="-142563" lat="61.117252774" lon="9.84694722563">
		<tag k="name" v="Hitbekken" />
		<tag k="ssr:stedsnr" v="675731" />
		<tag k="waterway" v="stream" />
	</node>
	<node id="-142562" lat="61.1001055524" lon="9.86987221607">
		<tag k="name" v="Strangtjernet" />
		<tag k="natural" v="water" />
		<tag k="ssr:stedsnr" v="675687" />
	</node>
	<node id="-142556" lat="61.0411527778" lon="9.82656944808">
		<tag k="name" v="Hugulitjernet" />
		<tag k="natural" v="water" />
		<tag k="ssr:stedsnr" v="675370" />
	</node>
	<node id="-142553" lat="60.7361888896" lon="9.83219723026">
		<tag k="name" v="Lendingsputten" />
		<tag k="natural" v="water" />
		<tag k="old_name" v="Lendingsputt" />
		<tag k="ssr:stedsnr" v="674798" />
	</node>
	<node id="-142551" lat="61.0073460422" lon="9.90230375047">
		<tag k="name" v="Livatnet" />
		<tag k="natural" v="water" />
		<tag k="ssr:stedsnr" v="674326" />
		<tag k="water" v="lake" />
	</node>
	<node id="-142549" lat="61.0346777812" lon="10.0007888815">
		<tag k="name" v="Djupbekken" />
		<tag k="ssr:stedsnr" v="674186" />
		<tag k="waterway" v="stream" />
	</node>
	<node id="-142547" lat="61.0920555558" lon="10.005938887">
		<tag k="name" v="Langvatnet" />
		<tag k="natural" v="water" />
		<tag k="ssr:stedsnr" v="674016" />
	</node>
	<node id="-142543" lat="61.088511107" lon="9.92019721396">
		<tag k="name" v="Synna" />
		<tag k="ssr:stedsnr" v="665236" />
		<tag k="waterway" v="river" />
	</node>
	<node id="-142533" lat="61.1388472264" lon="9.74753889488">
		<tag k="name" v="Budeitjern" />
		<tag k="natural" v="water" />
		<tag k="ssr:stedsnr" v="664876" />
	</node>
	<node id="-142531" lat="60.8352722211" lon="9.98708055738">
		<tag k="name" v="Etna" />
		<tag k="ssr:stedsnr" v="664607" />
		<tag k="waterway" v="river" />
	</node>
	<node id="-142530" lat="61.1420583333" lon="9.81817221903">
		<tag k="name" v="Maribekken" />
		<tag k="ssr:stedsnr" v="664519" />
		<tag k="waterway" v="stream" />
	</node>
	<node id="-142529" lat="60.8719749991" lon="10.0209027764">
		<tag k="name" v="Kalsåa" />
		<tag k="ssr:stedsnr" v="664414" />
		<tag k="waterway" v="stream" />
	</node>
	<node id="-142526" lat="61.1461833289" lon="9.85795832903">
		<tag k="name" v="Skjervungsbekken" />
		<tag k="ssr:stedsnr" v="664355" />
		<tag k="waterway" v="stream" />
	</node>
	<node id="-142525" lat="60.7486978291" lon="10.0484720296">
		<tag k="name" v="Store Øyvatn" />
		<tag k="natural" v="water" />
		<tag k="ssr:stedsnr" v="664296" />
		<tag k="water" v="lake" />
	</node>
	<node id="-142511" lat="60.877155559" lon="10.0056694439">
		<tag k="name" v="Vangsjøbekken" />
		<tag k="ssr:stedsnr" v="663889" />
		<tag k="waterway" v="stream" />
	</node>
	<node id="-142510" lat="61.0619500021" lon="10.1212777796">
		<tag k="name" v="Krokbekken" />
		<tag k="ssr:stedsnr" v="663819" />
		<tag k="waterway" v="stream" />
	</node>
	<node id="-142506" lat="60.7943416704" lon="9.9971749992">
		<tag k="name" v="Sandtjernputten" />
		<tag k="natural" v="water" />
		<tag k="ssr:stedsnr" v="663473" />
		<tag k="water" v="pond" />
	</node>
	<node id="-142505" lat="60.784488886" lon="10.0073944385">
		<tag k="name" v="Sandtjernsbekken" />
		<tag k="ssr:stedsnr" v="663465" />
		<tag k="waterway" v="stream" />
	</node>
	<node id="-142503" lat="60.7874611072" lon="10.1699722146">
		<tag k="name" v="Stanesbekken" />
		<tag k="ssr:stedsnr" v="663260" />
		<tag k="waterway" v="stream" />
	</node>
	<node id="-142500" lat="60.9626583376" lon="9.79921111927">
		<tag k="name" v="Øyangselva" />
		<tag k="ssr:stedsnr" v="661912" />
		<tag k="waterway" v="river" />
	</node>
	<node id="-142489" lat="60.9630111119" lon="9.84714723026">
		<tag k="name" v="Nysæterbekken" />
		<tag k="ssr:stedsnr" v="645699" />
		<tag k="waterway" v="stream" />
	</node>
	<node id="-142486" lat="60.7371527739" lon="9.87126389726">
		<tag k="name" v="Guriputten" />
		<tag k="natural" v="water" />
		<tag k="ssr:stedsnr" v="645530" />
		<tag k="water" v="pond" />
	</node>
	<node id="-142483" lat="60.7527888896" lon="9.84699165754">
		<tag k="name" v="Rørvasskollen" />
		<tag k="natural" v="water" />
		<tag k="ssr:stedsnr" v="632553" />
	</node>
	<node id="-142481" lat="60.9478749976" lon="9.92850000288">
		<tag k="alt_name" v="Veslvatn" />
		<tag k="name" v="Veslvatnet" />
		<tag k="natural" v="water" />
		<tag k="ssr:stedsnr" v="616949" />
	</node>
	<node id="-142480" lat="60.95600833" lon="9.91920834019">
		<tag k="alt_name" v="Brandsrudvatn" />
		<tag k="name" v="Brandsrudvatnet" />
		<tag k="natural" v="water" />
		<tag k="ssr:stedsnr" v="616934" />
	</node>
	<node id="-142474" lat="60.8241194456" lon="10.1537861065">
		<tag k="alt_name" v="Hundtjern" />
		<tag k="name" v="Hundtjernet" />
		<tag k="natural" v="water" />
		<tag k="ssr:stedsnr" v="616625" />
	</node>
	<node id="-142471" lat="60.8532805537" lon="10.1117861199">
		<tag k="name" v="Arnesvetjernet" />
		<tag k="natural" v="water" />
		<tag k="ssr:stedsnr" v="616518" />
	</node>
	<node id="-142467" lat="60.9821750033" lon="9.77486389728">
		<tag k="alt_name" v="Bergatjern" />
		<tag k="name" v="Bergatjernet" />
		<tag k="natural" v="water" />
		<tag k="ssr:stedsnr" v="615968" />
	</node>
	<node id="-142466" lat="60.9618666667" lon="9.95186111137">
		<tag k="name" v="Sollibekken" />
		<tag k="ssr:stedsnr" v="615956" />
		<tag k="waterway" v="stream" />
	</node>
	<node id="-142465" lat="60.7538916704" lon="9.97305833413">
		<tag k="alt_name" v="Lulivatn" />
		<tag k="name" v="Lulivatnet" />
		<tag k="natural" v="water" />
		<tag k="ssr:stedsnr" v="615717" />
	</node>
	<node id="-142461" lat="60.8518361091" lon="9.96870833161">
		<tag k="alt_name" v="Bronerbekken" />
		<tag k="name" v="Brunerbekken" />
		<tag k="ssr:stedsnr" v="615527" />
		<tag k="waterway" v="stream" />
	</node>
	<node id="-142458" lat="60.8450638856" lon="10.1396361024">
		<tag k="alt_name" v="Svarttjern" />
		<tag k="name" v="Svarttjernet" />
		<tag k="natural" v="water" />
		<tag k="ssr:stedsnr" v="615509" />
	</node>
	<node id="-142452" lat="60.8806833301" lon="10.1913999953">
		<tag k="name" v="Brasettjernet" />
		<tag k="natural" v="water" />
		<tag k="ssr:stedsnr" v="615403" />
	</node>
	<node id="-142451" lat="60.8709972185" lon="9.97360000515">
		<tag k="alt_name" v="Langdamtjern" />
		<tag k="name" v="Langdamtjernet" />
		<tag k="natural" v="water" />
		<tag k="ssr:stedsnr" v="615400" />
	</node>
	<node id="-142450" lat="60.8820472219" lon="10.0154416576">
		<tag k="alt_name" v="Meåa" />
		<tag k="name" v="Medåa" />
		<tag k="ssr:stedsnr" v="615391" />
		<tag k="waterway" v="stream" />
	</node>
	<node id="-142447" lat="60.9579027734" lon="10.0278111156">
		<tag k="name" v="Ullsjøen" />
		<tag k="natural" v="water" />
		<tag k="old_name" v="Ullsiøen" />
		<tag k="ssr:stedsnr" v="615343" />
		<tag k="water" v="lake" />
	</node>
	<node id="-142435" lat="60.7544583343" lon="9.9425249939">
		<tag k="alt_name" v="Foledalstjern" />
		<tag k="name" v="Fålådalstjern" />
		<tag k="natural" v="water" />
		<tag k="ssr:stedsnr" v="615138" />
	</node>
	<node id="-142434" lat="60.7856388895" lon="9.92602777992">
		<tag k="name" v="Akksjøen" />
		<tag k="natural" v="water" />
		<tag k="ssr:stedsnr" v="615131" />
		<tag k="water" v="lake" />
	</node>
	<node id="-142433" lat="60.9045277742" lon="9.8637888803">
		<tag k="alt_name" v="Rotvatnet, vesle;Vesle Rotvatn" />
		<tag k="name" v="Vesle Rotvatnet" />
		<tag k="natural" v="water" />
		<tag k="ssr:stedsnr" v="615070" />
	</node>
	<node id="-142428" lat="61.1170916695" lon="9.81791666206">
		<tag k="name" v="Budeiputten" />
		<tag k="natural" v="water" />
		<tag k="ssr:stedsnr" v="614747" />
	</node>
	<node id="-142426" lat="61.1335583325" lon="9.74471945175">
		<tag k="alt_name" v="Svarttjern" />
		<tag k="name" v="Svarttjernet" />
		<tag k="natural" v="water" />
		<tag k="ssr:stedsnr" v="614729" />
	</node>
	<node id="-142424" lat="61.1468277821" lon="9.8790583369">
		<tag k="alt_name" v="Skjervungen, store" />
		<tag k="name" v="Store Skjervungen" />
		<tag k="natural" v="water" />
		<tag k="ssr:stedsnr" v="614712" />
		<tag k="water" v="lake" />
	</node>
	<node id="-142420" lat="60.8589916687" lon="10.1319388813">
		<tag k="alt_name" v="Nordre Midtvatn" />
		<tag k="name" v="Midtvatna" />
		<tag k="natural" v="water" />
		<tag k="ssr:stedsnr" v="614439" />
	</node>
	<node id="-142418" lat="61.0222749998" lon="9.78252221427">
		<tag k="alt_name" v="Illmilkjetjernet" />
		<tag k="name" v="Elmekjetjernet" />
		<tag k="natural" v="water" />
		<tag k="ssr:stedsnr" v="614309" />
	</node>
	<node id="-142410" lat="60.7445444423" lon="9.83446666227">
		<tag k="alt_name" v="Bjønnholmen" />
		<tag k="name" v="Bjørnholmen" />
		<tag k="place" v="islet" />
		<tag k="ssr:stedsnr" v="613799" />
	</node>
	<node id="-142405" lat="61.0233083369" lon="10.1369361127">
		<tag k="alt_name" v="Ytre Svartvatn" />
		<tag k="loc_name" v="Nedre Svartvatnet" />
		<tag k="name" v="Svartvatnet" />
		<tag k="natural" v="water" />
		<tag k="ssr:stedsnr" v="613196" />
	</node>
	<node id="-142404" lat="61.0434444484" lon="10.1373611042">
		<tag k="alt_name" v="Krokvatnet, store" />
		<tag k="name" v="Store Krokvatnet" />
		<tag k="natural" v="water" />
		<tag k="ssr:stedsnr" v="613182" />
	</node>
	<node id="-142403" lat="61.0727138919" lon="10.037147226">
		<tag k="alt_name" v="Gravskarbekken" />
		<tag k="name" v="Gravskardbekken" />
		<tag k="ssr:stedsnr" v="613041" />
		<tag k="waterway" v="stream" />
	</node>
	<node id="-142402" lat="61.0732611136" lon="9.9700888973">
		<tag k="name" v="Øytjernet" />
		<tag k="natural" v="water" />
		<tag k="ssr:stedsnr" v="613037" />
	</node>
	<node id="-141065" lat="60.7525333351" lon="10.0110166654">
		<tag k="name" v="Halvorsmyrpullen" />
		<tag k="natural" v="water" />
		<tag k="ssr:stedsnr" v="361695" />
	</node>
	<node id="-142392" lat="61.0811527787" lon="9.98455277291">
		<tag k="name" v="Dokka" />
		<tag k="ssr:stedsnr" v="604232" />
		<tag k="waterway" v="river" />
	</node>
	<node id="-142385" lat="61.1329861141" lon="9.75540278528">
		<tag k="name" v="Svartbekken" />
		<tag k="ssr:stedsnr" v="603868" />
		<tag k="waterway" v="stream" />
	</node>
	<node id="-142381" lat="61.1034555511" lon="9.83924999607">
		<tag k="name" v="Starrputtene" />
		<tag k="natural" v="water" />
		<tag k="ssr:stedsnr" v="603311" />
	</node>
	<node id="-142380" lat="60.7531638862" lon="10.0467416576">
		<tag k="name" v="Johanpullen" />
		<tag k="natural" v="water" />
		<tag k="ssr:stedsnr" v="603308" />
	</node>
	<node id="-142377" lat="60.8843666691" lon="10.0838666678">
		<tag k="name" v="Stomlibekken" />
		<tag k="ssr:stedsnr" v="603258" />
		<tag k="waterway" v="stream" />
	</node>
	<node id="-142375" lat="60.8190277795" lon="10.0397361095">
		<tag k="name" v="Gullerudrenna" />
		<tag k="place" v="locality" />
		<tag k="ssr:stedsnr" v="603168" />
	</node>
	<node id="-142367" lat="60.8735194428" lon="9.95636389677">
		<tag k="name" v="Rokkeputten" />
		<tag k="natural" v="water" />
		<tag k="ssr:stedsnr" v="602872" />
	</node>
	<node id="-142363" lat="61.0265944481" lon="9.96516943796">
		<tag k="name" v="Synna" />
		<tag k="ssr:stedsnr" v="602561" />
		<tag k="waterway" v="river" />
	</node>
	<node id="-142359" lat="60.8900749996" lon="10.00696111">
		<tag k="name" v="Skolmåa" />
		<tag k="ssr:stedsnr" v="602315" />
		<tag k="waterway" v="stream" />
	</node>
	<node id="-142354" lat="60.9128527777" lon="9.80089722417">
		<tag k="name" v="Bjørdøla" />
		<tag k="ssr:stedsnr" v="600838" />
		<tag k="waterway" v="river" />
	</node>
	<node id="-142353" lat="61.0053111152" lon="9.98923056433">
		<tag k="name" v="Synna" />
		<tag k="ssr:stedsnr" v="600747" />
		<tag k="waterway" v="river" />
	</node>
	<node id="-142351" lat="60.8815833321" lon="9.82595834102">
		<tag k="name" v="Leppa" />
		<tag k="ssr:stedsnr" v="600610" />
		<tag k="waterway" v="river" />
	</node>
	<node id="-141677" lat="60.7908000005" lon="9.95722221439">
		<tag k="name" v="Søre Skjelnetjern" />
		<tag k="natural" v="water" />
		<tag k="ssr:stedsnr" v="191114" />
	</node>
	<node id="-142340" lat="60.7921861118" lon="10.1429194435">
		<tag k="name" v="Våten" />
		<tag k="natural" v="bay" />
		<tag k="ssr:stedsnr" v="590302" />
	</node>
	<node id="-142336" lat="60.9040666702" lon="9.81981111343">
		<tag k="name" v="Nemdalsbekken" />
		<tag k="ssr:stedsnr" v="585144" />
		<tag k="waterway" v="stream" />
	</node>
	<node id="-142330" lat="60.986869445" lon="9.90566388493">
		<tag k="alt_name" v="Vesletjernet" />
		<tag k="name" v="Vesltjernet" />
		<tag k="natural" v="water" />
		<tag k="ssr:stedsnr" v="555987" />
	</node>
	<node id="-142329" lat="60.9616166696" lon="9.86489444338">
		<tag k="name" v="Nyvatn" />
		<tag k="natural" v="water" />
		<tag k="ssr:stedsnr" v="555921" />
	</node>
	<node id="-142328" lat="60.9263222256" lon="9.89767778574">
		<tag k="name" v="Laen" />
		<tag k="natural" v="water" />
		<tag k="ssr:stedsnr" v="555874" />
	</node>
	<node id="-142323" lat="60.7627833315" lon="10.0915083302">
		<tag k="name" v="Våtbekken" />
		<tag k="ssr:stedsnr" v="555593" />
		<tag k="waterway" v="stream" />
	</node>
	<node id="-142311" lat="60.8022888915" lon="9.94195833004">
		<tag k="alt_name" v="Båhattjern" />
		<tag k="name" v="Båhattjernet" />
		<tag k="natural" v="water" />
		<tag k="ssr:stedsnr" v="555184" />
	</node>
	<node id="-142308" lat="60.7950611117" lon="9.92587777155">
		<tag k="alt_name" v="Abortjernene" />
		<tag k="name" v="Åborvatna" />
		<tag k="natural" v="water" />
		<tag k="ssr:stedsnr" v="555103" />
	</node>
	<node id="-142303" lat="60.8771476417" lon="9.98277149206">
		<tag k="name" v="Vangsjøen" />
		<tag k="natural" v="water" />
		<tag k="ssr:stedsnr" v="554425" />
		<tag k="water" v="lake" />
	</node>
	<node id="-142301" lat="60.8918416667" lon="10.2154749998">
		<tag k="name" v="Kolsrudvatnet" />
		<tag k="natural" v="water" />
		<tag k="ssr:stedsnr" v="554398" />
	</node>
	<node id="-142300" lat="60.957577781" lon="9.99936389582">
		<tag k="name" v="Løken" />
		<tag k="ssr:stedsnr" v="554385" />
		<tag k="waterway" v="stream" />
	</node>
	<node id="-142291" lat="60.7883305578" lon="9.85063055184">
		<tag k="alt_name" v="Nyvatn" />
		<tag k="name" v="Nyvatnet" />
		<tag k="natural" v="water" />
		<tag k="ssr:stedsnr" v="554156" />
	</node>
	<node id="-142289" lat="60.8834694473" lon="9.91848889391">
		<tag k="alt_name" v="Mjelvatn" />
		<tag k="name" v="Mjellvatnet" />
		<tag k="natural" v="water" />
		<tag k="ssr:stedsnr" v="554102" />
		<tag k="water" v="lake" />
	</node>
	<node id="-142288" lat="60.9075968345" lon="9.86705640704">
		<tag k="alt_name" v="Store Rotvatn" />
		<tag k="name" v="Rotvatnet" />
		<tag k="natural" v="water" />
		<tag k="ssr:stedsnr" v="554076" />
		<tag k="water" v="lake" />
	</node>
	<node id="-142281" lat="60.8615555511" lon="9.79327499536">
		<tag k="alt_name" v="Kringelsjøen" />
		<tag k="name" v="Kringlesjøen" />
		<tag k="natural" v="water" />
		<tag k="ssr:stedsnr" v="554008" />
	</node>
	<node id="-142277" lat="61.1400444484" lon="9.84774166373">
		<tag k="name" v="Skjervungsbekken" />
		<tag k="ssr:stedsnr" v="553703" />
		<tag k="waterway" v="stream" />
	</node>
	<node id="-142276" lat="61.0793833309" lon="9.84695000005">
		<tag k="alt_name" v="Strangen, vest" />
		<tag k="name" v="Vest Strangen" />
		<tag k="ssr:stedsnr" v="553700" />
		<tag k="waterway" v="stream" />
	</node>
	<node id="-142274" lat="61.0530722228" lon="9.92809722108">
		<tag k="name" v="Tverråa" />
		<tag k="ssr:stedsnr" v="553664" />
		<tag k="waterway" v="stream" />
	</node>
	<node id="-142261" lat="61.0571749957" lon="10.1445777862">
		<tag k="name" v="Krokbekken" />
		<tag k="ssr:stedsnr" v="553054" />
		<tag k="waterway" v="stream" />
	</node>
	<node id="-142259" lat="60.7395527775" lon="9.83703332698">
		<tag k="alt_name" v="Løveøya" />
		<tag k="name" v="Lauvøya" />
		<tag k="place" v="islet" />
		<tag k="ssr:stedsnr" v="552836" />
	</node>
	<node id="-142258" lat="61.0137972221" lon="10.1083861093">
		<tag k="name" v="Sagbekken" />
		<tag k="ssr:stedsnr" v="552246" />
		<tag k="waterway" v="stream" />
	</node>
	<node id="-141128" lat="60.8050472239" lon="10.0397611169">
		<tag k="alt_name" v="Skjellungstjern" />
		<tag k="name" v="Skjellungstjernet" />
		<tag k="natural" v="water" />
		<tag k="ssr:stedsnr" v="373583" />
	</node>
	<node id="-142251" lat="60.9975388934" lon="10.0216777699">
		<tag k="name" v="Livasselva" />
		<tag k="ssr:stedsnr" v="544969" />
		<tag k="waterway" v="river" />
	</node>
	<node id="-142250" lat="61.0958861072" lon="9.91547777801">
		<tag k="name" v="Jomyrkroken" />
		<tag k="place" v="locality" />
		<tag k="ssr:stedsnr" v="544211" />
	</node>
	<node id="-142245" lat="60.9560250009" lon="10.1170861143">
		<tag k="alt_name" v="Grindvoldsbekken" />
		<tag k="name" v="Grindvollsbekken" />
		<tag k="ssr:stedsnr" v="543539" />
		<tag k="waterway" v="river" />
	</node>
	<node id="-142244" lat="60.7579611077" lon="10.0232055613">
		<tag k="alt_name" v="Søndre Høghaugspullen" />
		<tag k="name" v="Søre Høghaugspullen" />
		<tag k="natural" v="water" />
		<tag k="ssr:stedsnr" v="543360" />
	</node>
	<node id="-143174" lat="61.0109194448" lon="9.86183333819">
		<tag k="name" v="Livasselva" />
		<tag k="ssr:stedsnr" v="949857" />
		<tag k="waterway" v="river" />
	</node>
	<node id="-142239" lat="61.0698916683" lon="9.93794722096">
		<tag k="name" v="Synna" />
		<tag k="ssr:stedsnr" v="543256" />
		<tag k="waterway" v="river" />
	</node>
	<node id="-143171" lat="60.9742749961" lon="9.77801666963">
		<tag k="name" v="Fellestølputten" />
		<tag k="natural" v="water" />
		<tag k="ssr:stedsnr" v="949544" />
	</node>
	<node id="-142223" lat="61.1114666664" lon="9.94647222048">
		<tag k="loc_name" v="Svarttjernet" />
		<tag k="name" v="Svarttjern" />
		<tag k="natural" v="water" />
		<tag k="ssr:stedsnr" v="542099" />
	</node>
	<node id="-142222" lat="61.1127500036" lon="10.0406666681">
		<tag k="name" v="Fiska" />
		<tag k="ssr:stedsnr" v="542077" />
		<tag k="waterway" v="river" />
	</node>
	<node id="-142211" lat="60.8812694477" lon="9.80373332744">
		<tag k="name" v="Åborvassbekken" />
		<tag k="old_name" v="Øbbervassbekken" />
		<tag k="ssr:stedsnr" v="540634" />
		<tag k="waterway" v="stream" />
	</node>
	<node id="-142197" lat="61.0213722266" lon="9.83397221321">
		<tag k="name" v="Tverråa" />
		<tag k="ssr:stedsnr" v="524914" />
		<tag k="waterway" v="stream" />
	</node>
	<node id="-142190" lat="60.8926222212" lon="9.80613889617">
		<tag k="name" v="Bikkjepullen" />
		<tag k="natural" v="water" />
		<tag k="ssr:stedsnr" v="524105" />
		<tag k="water" v="pond" />
	</node>
	<node id="-142188" lat="61.0379444479" lon="9.78638889564">
		<tag k="name" v="Tverråa" />
		<tag k="ssr:stedsnr" v="524068" />
		<tag k="waterway" v="stream" />
	</node>
	<node id="-142186" lat="60.9397000016" lon="9.86468610571">
		<tag k="name" v="Øyangsbekken" />
		<tag k="ssr:stedsnr" v="495899" />
		<tag k="waterway" v="stream" />
	</node>
	<node id="-142180" lat="60.854752774" lon="10.1247222236">
		<tag k="name" v="Vadelva" />
		<tag k="ssr:stedsnr" v="495523" />
		<tag k="waterway" v="stream" />
	</node>
	<node id="-142178" lat="60.9850472231" lon="9.85253888062">
		<tag k="name" v="Oalen" />
		<tag k="natural" v="water" />
		<tag k="ssr:stedsnr" v="494984" />
		<tag k="water" v="lake" />
	</node>
	<node id="-141115" lat="60.8003750009" lon="9.84626110793">
		<tag k="name" v="Kroksjøen" />
		<tag k="natural" v="water" />
		<tag k="ssr:stedsnr" v="373210" />
	</node>
	<node id="-142176" lat="60.9471341077" lon="9.85733085308">
		<tag k="name" v="Øyangen" />
		<tag k="natural" v="water" />
		<tag k="ssr:stedsnr" v="494920" />
		<tag k="water" v="lake" />
	</node>
	<node id="-142174" lat="60.9556166672" lon="9.8300694381">
		<tag k="alt_name" v="Gåstjern" />
		<tag k="name" v="Gåstjernet" />
		<tag k="natural" v="water" />
		<tag k="ssr:stedsnr" v="494907" />
	</node>
	<node id="-142171" lat="60.7507703812" lon="10.0447848124">
		<tag k="alt_name" v="Øyvatnet" />
		<tag k="name" v="Øyvatna" />
		<tag k="natural" v="water" />
		<tag k="ssr:stedsnr" v="494702" />
		<tag k="water" v="lake" />
	</node>
	<node id="-142170" lat="60.8314166685" lon="10.1010861132">
		<tag k="alt_name" v="Damtjernbekken" />
		<tag k="name" v="Tonvollbekken" />
		<tag k="ssr:stedsnr" v="494589" />
		<tag k="waterway" v="stream" />
	</node>
	<node id="-142164" lat="60.8353861069" lon="10.1778666603">
		<tag k="alt_name" v="Storvatn" />
		<tag k="name" v="Storvatnet" />
		<tag k="natural" v="water" />
		<tag k="ssr:stedsnr" v="494488" />
		<tag k="water" v="lake" />
	</node>
	<node id="-142160" lat="60.9142694476" lon="10.1845166608">
		<tag k="name" v="Store Åborvatn" />
		<tag k="natural" v="water" />
		<tag k="old_name" v="Åbborvatna, store" />
		<tag k="ssr:stedsnr" v="494433" />
	</node>
	<node id="-142159" lat="60.9240472184" lon="10.1485999969">
		<tag k="name" v="Slåttsvebekken" />
		<tag k="ssr:stedsnr" v="494432" />
		<tag k="waterway" v="stream" />
	</node>
	<node id="-142155" lat="60.8882222237" lon="10.0654249979">
		<tag k="alt_name" v="Stomlibekken" />
		<tag k="name" v="Stomleibekken" />
		<tag k="ssr:stedsnr" v="494387" />
		<tag k="waterway" v="stream" />
	</node>
	<node id="-142153" lat="60.8888555593" lon="10.1624972179">
		<tag k="alt_name" v="Veslevatn" />
		<tag k="name" v="Veslevatnet" />
		<tag k="natural" v="water" />
		<tag k="ssr:stedsnr" v="494364" />
	</node>
	<node id="-142137" lat="60.9025194415" lon="9.92756667234">
		<tag k="alt_name" v="Aksletjern" />
		<tag k="name" v="Aksletjernet" />
		<tag k="natural" v="water" />
		<tag k="ssr:stedsnr" v="494078" />
	</node>
	<node id="-142136" lat="60.8631833376" lon="9.8248944389">
		<tag k="alt_name" v="Skarvatn;Skardvatnet, store" />
		<tag k="name" v="Store Skardvatnet" />
		<tag k="natural" v="water" />
		<tag k="ssr:stedsnr" v="494027" />
	</node>
	<node id="-142134" lat="61.1265055575" lon="9.86310277585">
		<tag k="name" v="Synnfjorden" />
		<tag k="natural" v="water" />
		<tag k="ssr:stedsnr" v="493723" />
		<tag k="water" v="lake" />
	</node>
	<node id="-142131" lat="61.0933972262" lon="9.9485277726">
		<tag k="alt_name" v="Slettumspullen" />
		<tag k="name" v="Slettomstjernet" />
		<tag k="natural" v="water" />
		<tag k="ssr:stedsnr" v="493691" />
	</node>
	<node id="-142128" lat="61.1111000025" lon="9.83727778226">
		<tag k="name" v="Hita" />
		<tag k="natural" v="water" />
		<tag k="ssr:stedsnr" v="493669" />
	</node>
	<node id="-142127" lat="61.0585750028" lon="9.78549166285">
		<tag k="name" v="Smørbukktjernet" />
		<tag k="natural" v="water" />
		<tag k="ssr:stedsnr" v="493654" />
	</node>
	<node id="-142123" lat="60.8782638855" lon="10.0913777846">
		<tag k="name" v="Øytjernet" />
		<tag k="natural" v="water" />
		<tag k="ssr:stedsnr" v="493397" />
	</node>
	<node id="-142113" lat="60.7419249962" lon="9.83955278674">
		<tag k="alt_name" v="Tverrvatnet, yt;Ytre Tverrvatn" />
		<tag k="name" v="Ytre Tverrvatnet" />
		<tag k="natural" v="water" />
		<tag k="ssr:stedsnr" v="492794" />
		<tag k="water" v="lake" />
	</node>
	<node id="-142112" lat="60.7466055568" lon="9.87579444338">
		<tag k="alt_name" v="Svartvatnet, store;Store Svartvatn" />
		<tag k="name" v="Store Svartvatnet" />
		<tag k="natural" v="water" />
		<tag k="ssr:stedsnr" v="492789" />
	</node>
	<node id="-142111" lat="60.7378777763" lon="10.0206055605">
		<tag k="alt_name" v="Vestre Hovdevatn" />
		<tag k="name" v="Hovdevatna" />
		<tag k="natural" v="water" />
		<tag k="ssr:stedsnr" v="492752" />
	</node>
	<node id="-142108" lat="61.0203722246" lon="10.1306138899">
		<tag k="alt_name" v="Abborvatn" />
		<tag k="name" v="Åborvatnet" />
		<tag k="natural" v="water" />
		<tag k="ssr:stedsnr" v="492178" />
	</node>
	<node id="-142106" lat="61.0356750017" lon="10.1509277715">
		<tag k="alt_name" v="Matpullen" />
		<tag k="name" v="Matputten" />
		<tag k="natural" v="water" />
		<tag k="ssr:stedsnr" v="492161" />
	</node>
	<node id="-142093" lat="60.8065000018" lon="9.99974167105">
		<tag k="name" v="Vatntjern" />
		<tag k="natural" v="water" />
		<tag k="ssr:stedsnr" v="483382" />
	</node>
	<node id="-142083" lat="60.9628444424" lon="10.1014583269">
		<tag k="name" v="Dokka" />
		<tag k="ssr:stedsnr" v="482550" />
		<tag k="waterway" v="river" />
	</node>
	<node id="-142080" lat="60.7837305561" lon="9.88819445039">
		<tag k="name" v="Lomholmen" />
		<tag k="place" v="islet" />
		<tag k="ssr:stedsnr" v="482286" />
	</node>
	<node id="-142079" lat="60.7691861103" lon="9.84654443722">
		<tag k="name" v="Kringsjøen" />
		<tag k="natural" v="water" />
		<tag k="ssr:stedsnr" v="482266" />
	</node>
	<node id="-142071" lat="60.9924944454" lon="9.96409723044">
		<tag k="name" v="Livasselva" />
		<tag k="ssr:stedsnr" v="481734" />
		<tag k="waterway" v="river" />
	</node>
	<node id="-142065" lat="60.7788277795" lon="9.99215832913">
		<tag k="name" v="Krokevjua" />
		<tag k="ssr:stedsnr" v="481509" />
		<tag k="waterway" v="stream" />
	</node>
	<node id="-142063" lat="60.8683472179" lon="10.2014361162">
		<tag k="name" v="Brattelva" />
		<tag k="ssr:stedsnr" v="481502" />
		<tag k="waterway" v="stream" />
	</node>
	<node id="-142052" lat="61.03376111" lon="9.862913893">
		<tag k="name" v="Brennbekken" />
		<tag k="ssr:stedsnr" v="464923" />
		<tag k="waterway" v="stream" />
	</node>
	<node id="-142050" lat="61.0107749981" lon="9.83480556351">
		<tag k="name" v="Klauvsjøbekken" />
		<tag k="ssr:stedsnr" v="464904" />
		<tag k="waterway" v="stream" />
	</node>
	<node id="-142048" lat="60.749411114" lon="9.8238805484">
		<tag k="name" v="Fløyten" />
		<tag k="natural" v="water" />
		<tag k="ssr:stedsnr" v="464565" />
	</node>
	<node id="-142047" lat="60.7706861152" lon="9.83782777705">
		<tag k="name" v="Blautmyrputten" />
		<tag k="natural" v="water" />
		<tag k="ssr:stedsnr" v="464495" />
	</node>
	<node id="-142044" lat="60.9869749964" lon="9.95004166758">
		<tag k="name" v="Lundbekken" />
		<tag k="ssr:stedsnr" v="434987" />
		<tag k="waterway" v="stream" />
	</node>
	<node id="-142042" lat="60.938827781" lon="9.83775555361">
		<tag k="alt_name" v="Øyvatnet, s;Søre Øyvatn" />
		<tag k="name" v="Søre Øyvatnet" />
		<tag k="natural" v="water" />
		<tag k="ssr:stedsnr" v="434930" />
	</node>
	<node id="-142040" lat="60.9597490256" lon="9.8800516224">
		<tag k="name" v="Langvatn" />
		<tag k="natural" v="water" />
		<tag k="ssr:stedsnr" v="434900" />
		<tag k="water" v="lake" />
	</node>
	<node id="-142037" lat="60.9148000039" lon="9.88947499598">
		<tag k="name" v="Øvre Øvergardstjern" />
		<tag k="natural" v="water" />
		<tag k="ssr:stedsnr" v="434886" />
	</node>
	<node id="-142036" lat="60.9302583291" lon="9.87035000195">
		<tag k="name" v="Steinsjøen" />
		<tag k="natural" v="water" />
		<tag k="ssr:stedsnr" v="434872" />
	</node>
	<node id="-142035" lat="60.9320583302" lon="9.85097500122">
		<tag k="name" v="Råka" />
		<tag k="natural" v="water" />
		<tag k="ssr:stedsnr" v="434869" />
		<tag k="water" v="lake" />
	</node>
	<node id="-142034" lat="60.9248388874" lon="9.80438889726">
		<tag k="alt_name" v="Bjørtjern" />
		<tag k="name" v="Bjørtjernet" />
		<tag k="natural" v="water" />
		<tag k="ssr:stedsnr" v="434861" />
	</node>
	<node id="-142033" lat="60.9336361086" lon="9.94273888232">
		<tag k="name" v="Kjøljua" />
		<tag k="ssr:stedsnr" v="434846" />
		<tag k="waterway" v="river" />
	</node>
	<node id="-142029" lat="60.8159500043" lon="10.0047027767">
		<tag k="alt_name" v="Bjørntjern" />
		<tag k="name" v="Bjørntjernet" />
		<tag k="natural" v="water" />
		<tag k="ssr:stedsnr" v="434570" />
	</node>
	<node id="-142027" lat="60.7986444433" lon="10.0032638892">
		<tag k="alt_name" v="Smaltjern" />
		<tag k="name" v="Smaltjernet" />
		<tag k="natural" v="water" />
		<tag k="ssr:stedsnr" v="434545" />
	</node>
	<node id="-142021" lat="60.8438805593" lon="10.1256638978">
		<tag k="alt_name" v="Gygertjern" />
		<tag k="name" v="Gygertjernet" />
		<tag k="natural" v="water" />
		<tag k="ssr:stedsnr" v="434483" />
	</node>
	<node id="-142010" lat="60.8282499974" lon="9.86715832519">
		<tag k="name" v="Håkenstadbekken" />
		<tag k="ssr:stedsnr" v="434179" />
		<tag k="waterway" v="stream" />
	</node>
	<node id="-142006" lat="60.760188893" lon="9.95238332712">
		<tag k="name" v="Førdugurdsputten" />
		<tag k="natural" v="water" />
		<tag k="ssr:stedsnr" v="434140" />
	</node>
	<node id="-142001" lat="61.1301277735" lon="9.78121388927">
		<tag k="name" v="Svartbekken" />
		<tag k="ssr:stedsnr" v="433716" />
		<tag k="waterway" v="stream" />
	</node>
	<node id="-141991" lat="61.0409138873" lon="9.87462500009">
		<tag k="alt_name" v="Kampelibekken" />
		<tag k="name" v="Kampebekken" />
		<tag k="ssr:stedsnr" v="433319" />
		<tag k="waterway" v="stream" />
	</node>
	<node id="-141982" lat="60.9048027767" lon="9.79293332771">
		<tag k="name" v="Leppa" />
		<tag k="ssr:stedsnr" v="433126" />
		<tag k="waterway" v="river" />
	</node>
	<node id="-141962" lat="61.014308332" lon="10.1686166592">
		<tag k="alt_name" v="Veslvatnet" />
		<tag k="name" v="Veslevatn" />
		<tag k="natural" v="water" />
		<tag k="ssr:stedsnr" v="432193" />
	</node>
	<node id="-141961" lat="61.0452138922" lon="10.1160194355">
		<tag k="alt_name" v="Krokvatnet, vle" />
		<tag k="name" v="Vesle Krokvatnet" />
		<tag k="natural" v="water" />
		<tag k="ssr:stedsnr" v="432175" />
	</node>
	<node id="-141951" lat="61.0179111141" lon="9.80515000559">
		<tag k="name" v="Livasselva" />
		<tag k="ssr:stedsnr" v="423221" />
		<tag k="waterway" v="river" />
	</node>
	<node id="-141949" lat="60.9483472249" lon="10.1042638934">
		<tag k="name" v="Fellefossen" />
		<tag k="natural" v="waterfall" />
		<tag k="ssr:stedsnr" v="422948" />
	</node>
	<node id="-141948" lat="60.9405805568" lon="10.102074996">
		<tag k="name" v="Dokka" />
		<tag k="ssr:stedsnr" v="422949" />
		<tag k="waterway" v="river" />
	</node>
	<node id="-141946" lat="60.9127416679" lon="10.0613555525">
		<tag k="name" v="Hestbekken" />
		<tag k="ssr:stedsnr" v="422915" />
		<tag k="waterway" v="stream" />
	</node>
	<node id="-141944" lat="60.7361888896" lon="9.83219723026">
		<tag k="name" v="Landingsputten" />
		<tag k="natural" v="water" />
		<tag k="ssr:stedsnr" v="422666" />
	</node>
	<node id="-141941" lat="61.1406222198" lon="9.831302776">
		<tag k="name" v="Oppsjøbekken" />
		<tag k="ssr:stedsnr" v="422624" />
		<tag k="waterway" v="stream" />
	</node>
	<node id="-141940" lat="60.8485333323" lon="10.0169916654">
		<tag k="name" v="Lysdammen" />
		<tag k="natural" v="water" />
		<tag k="ssr:stedsnr" v="422325" />
	</node>
	<node id="-141937" lat="60.8531388871" lon="10.0498249936">
		<tag k="name" v="Dokka" />
		<tag k="ssr:stedsnr" v="422302" />
		<tag k="waterway" v="river" />
	</node>
	<node id="-141934" lat="60.8282194447" lon="9.84973888005">
		<tag k="name" v="Gråbeinrudbekken" />
		<tag k="ssr:stedsnr" v="422176" />
		<tag k="waterway" v="stream" />
	</node>
	<node id="-141931" lat="60.8226750041" lon="10.0848861172">
		<tag k="name" v="Dokka-Etna" />
		<tag k="ssr:stedsnr" v="422124" />
		<tag k="waterway" v="river" />
	</node>
	<node id="-141929" lat="60.8329277758" lon="10.0323888932">
		<tag k="name" v="Etna" />
		<tag k="ssr:stedsnr" v="422074" />
		<tag k="waterway" v="river" />
	</node>
	<node id="-141928" lat="60.8373194431" lon="10.0633444426">
		<tag k="name" v="Dokka" />
		<tag k="ssr:stedsnr" v="422056" />
		<tag k="waterway" v="river" />
	</node>
	<node id="-141924" lat="61.0921333368" lon="10.0065527832">
		<tag k="name" v="Langvatnet" />
		<tag k="natural" v="water" />
		<tag k="ssr:stedsnr" v="421587" />
	</node>
	<node id="-141046" lat="61.0832027765" lon="10.0404361113">
		<tag k="name" v="Gravskarbekken" />
		<tag k="ssr:stedsnr" v="360571" />
		<tag k="waterway" v="stream" />
	</node>
	<node id="-141922" lat="60.9350027821" lon="10.1568916752">
		<tag k="name" v="Kjennsjordtjernet" />
		<tag k="natural" v="water" />
		<tag k="ssr:stedsnr" v="421564" />
	</node>
	<node id="-141919" lat="60.895474997" lon="10.1330305485">
		<tag k="name" v="Djupåbekken" />
		<tag k="ssr:stedsnr" v="421134" />
		<tag k="waterway" v="stream" />
	</node>
	<node id="-141914" lat="60.8974583375" lon="10.0693083391">
		<tag k="name" v="Djupåa" />
		<tag k="ssr:stedsnr" v="421001" />
		<tag k="waterway" v="stream" />
	</node>
	<node id="-141071" lat="61.0859277788" lon="9.97854444656">
		<tag k="name" v="Dokkfløydammen" />
		<tag k="ssr:stedsnr" v="370051" />
		<tag k="waterway" v="dam" />
	</node>
	<node id="-141906" lat="61.0276361107" lon="10.0632111162">
		<tag k="name" v="Dokka" />
		<tag k="ssr:stedsnr" v="420184" />
		<tag k="waterway" v="river" />
	</node>
	<node id="-141904" lat="61.0369333348" lon="10.1794666685">
		<tag k="name" v="Finniodden" />
		<tag k="natural" v="cape" />
		<tag k="ssr:stedsnr" v="419978" />
	</node>
	<node id="-141889" lat="61.1185794945" lon="9.74177230203">
		<tag k="name" v="Ongletjerna" />
		<tag k="natural" v="water" />
		<tag k="ssr:stedsnr" v="267825" />
		<tag k="water" v="lake" />
	</node>
	<node id="-141887" lat="60.9801055576" lon="9.89521666368">
		<tag k="name" v="Gjerddalstjernet" />
		<tag k="natural" v="water" />
		<tag k="ssr:stedsnr" v="252987" />
	</node>
	<node id="-141884" lat="60.9730694446" lon="9.95933332946">
		<tag k="name" v="Medvatnet" />
		<tag k="natural" v="water" />
		<tag k="ssr:stedsnr" v="252923" />
	</node>
	<node id="-141881" lat="60.9608472181" lon="9.90863333795">
		<tag k="name" v="Venhaugpullen" />
		<tag k="natural" v="water" />
		<tag k="ssr:stedsnr" v="252893" />
	</node>
	<node id="-141880" lat="60.955669441" lon="9.8914333309">
		<tag k="name" v="Holovatnet" />
		<tag k="natural" v="water" />
		<tag k="ssr:stedsnr" v="252894" />
	</node>
	<node id="-141879" lat="60.996947221" lon="9.93718056221">
		<tag k="name" v="Livasselva" />
		<tag k="ssr:stedsnr" v="252749" />
		<tag k="waterway" v="river" />
	</node>
	<node id="-141877" lat="60.7614305575" lon="10.0228027783">
		<tag k="alt_name" v="Nordre Høghaugpullen" />
		<tag k="name" v="Høghaugpullen" />
		<tag k="natural" v="water" />
		<tag k="ssr:stedsnr" v="252711" />
	</node>
	<node id="-141875" lat="60.79438611" lon="9.98631944228">
		<tag k="alt_name" v="Rundtjern" />
		<tag k="name" v="Rundtjernet" />
		<tag k="natural" v="water" />
		<tag k="ssr:stedsnr" v="252644" />
	</node>
	<node id="-141870" lat="60.8175000025" lon="10.1624638868">
		<tag k="alt_name" v="Bergevatn" />
		<tag k="name" v="Bergevatnet" />
		<tag k="natural" v="water" />
		<tag k="ssr:stedsnr" v="252536" />
	</node>
	<node id="-141063" lat="60.7545333329" lon="9.98205000565">
		<tag k="name" v="Lulibekken" />
		<tag k="ssr:stedsnr" v="361607" />
		<tag k="waterway" v="stream" />
	</node>
	<node id="-141861" lat="60.9871388855" lon="10.1322249973">
		<tag k="name" v="Vinjarelva" />
		<tag k="ssr:stedsnr" v="252296" />
		<tag k="waterway" v="stream" />
	</node>
	<node id="-141856" lat="60.757656338" lon="9.86524715256">
		<tag k="alt_name" v="Nordre Tverrvatn" />
		<tag k="name" v="Tverrvatnet" />
		<tag k="natural" v="water" />
		<tag k="ssr:stedsnr" v="252144" />
		<tag k="water" v="lake" />
	</node>
	<node id="-141854" lat="60.7532805593" lon="9.88472777115">
		<tag k="alt_name" v="Nyvatn" />
		<tag k="name" v="Nyvatnet" />
		<tag k="natural" v="water" />
		<tag k="ssr:stedsnr" v="252125" />
	</node>
	<node id="-141849" lat="60.9025638905" lon="10.2007527852">
		<tag k="name" v="Svartbekken" />
		<tag k="ssr:stedsnr" v="251521" />
		<tag k="waterway" v="stream" />
	</node>
	<node id="-142177" lat="60.9655083337" lon="9.79004444506">
		<tag k="name" v="Vesløyangen" />
		<tag k="natural" v="water" />
		<tag k="ssr:stedsnr" v="494952" />
	</node>
	<node id="-141830" lat="60.7767972197" lon="9.85258332792">
		<tag k="alt_name" v="Langvatn" />
		<tag k="name" v="Langvatnet" />
		<tag k="natural" v="water" />
		<tag k="ssr:stedsnr" v="251150" />
	</node>
	<node id="-141829" lat="60.8979888905" lon="9.85347222371">
		<tag k="name" v="Flågamyrtjernet" />
		<tag k="natural" v="water" />
		<tag k="ssr:stedsnr" v="251132" />
	</node>
	<node id="-141828" lat="60.8865527762" lon="9.88248055053">
		<tag k="name" v="Flisa" />
		<tag k="ssr:stedsnr" v="251127" />
		<tag k="waterway" v="stream" />
	</node>
	<node id="-141826" lat="60.9109407205" lon="9.94223035982">
		<tag k="alt_name" v="Åbortjernet, store;Søndre Abborvatn" />
		<tag k="name" v="Store Åbortjernet" />
		<tag k="natural" v="water" />
		<tag k="ssr:stedsnr" v="251089" />
	</node>
	<node id="-141825" lat="60.9019361087" lon="9.797116661">
		<tag k="alt_name" v="Leppsjøen, nedre" />
		<tag k="name" v="Nedre Leppsjøen" />
		<tag k="natural" v="water" />
		<tag k="ssr:stedsnr" v="251081" />
	</node>
	<node id="-141824" lat="60.8581777821" lon="9.96087499486">
		<tag k="fixme" v="multiple name tags, choose one and add the other to alt_name" />
		<tag k="name" v="Brundammen;Rønningsdammen" />
		<tag k="natural" v="water" />
		<tag k="ssr:stedsnr" v="251065" />
	</node>
	<node id="-141816" lat="61.0848194454" lon="9.80569999709">
		<tag k="name" v="Bjerttjerna" />
		<tag k="natural" v="water" />
		<tag k="ssr:stedsnr" v="250685" />
	</node>
	<node id="-141815" lat="61.0908916644" lon="9.91869167407">
		<tag k="name" v="Krokhølen" />
		<tag k="place" v="locality" />
		<tag k="ssr:stedsnr" v="250669" />
	</node>
	<node id="-141810" lat="61.0098416671" lon="9.78049444055">
		<tag k="alt_name" v="Vesle Rakaslyngen" />
		<tag k="name" v="Veslrakaslynga" />
		<tag k="natural" v="water" />
		<tag k="ssr:stedsnr" v="250363" />
	</node>
	<node id="-141793" lat="61.1142916693" lon="9.89277778104">
		<tag k="name" v="Prestpullen" />
		<tag k="natural" v="water" />
		<tag k="ssr:stedsnr" v="240694" />
	</node>
	<node id="-140881" lat="60.8342416639" lon="9.82258332722">
		<tag k="name" v="Etna" />
		<tag k="ssr:stedsnr" v="297542" />
		<tag k="waterway" v="river" />
	</node>
	<node id="-141788" lat="60.871372219" lon="10.058233332">
		<tag k="name" v="Fjerdingsbekken" />
		<tag k="ssr:stedsnr" v="240464" />
		<tag k="waterway" v="stream" />
	</node>
	<node id="-141784" lat="60.7384138862" lon="10.0301944533">
		<tag k="loc_name" v="Nordre Hovdevatnet" />
		<tag k="name" v="Nordre Hovdevatn" />
		<tag k="natural" v="water" />
		<tag k="ssr:stedsnr" v="240337" />
	</node>
	<node id="-141049" lat="60.977125003" lon="10.1105833246">
		<tag k="name" v="Vinjarelva" />
		<tag k="ssr:stedsnr" v="361010" />
		<tag k="waterway" v="stream" />
	</node>
	<node id="-141780" lat="61.1085555532" lon="9.77162778346">
		<tag k="name" v="Hasabekken" />
		<tag k="ssr:stedsnr" v="240280" />
		<tag k="waterway" v="stream" />
	</node>
	<node id="-141777" lat="60.9091638903" lon="10.1160166593">
		<tag k="name" v="Etarbekken" />
		<tag k="ssr:stedsnr" v="240140" />
		<tag k="waterway" v="stream" />
	</node>
	<node id="-141767" lat="61.1090888847" lon="9.72876388384">
		<tag k="name" v="Øvre Lenningsvatnet" />
		<tag k="natural" v="water" />
		<tag k="old_name" v="Lenningsv, øv" />
		<tag k="ssr:stedsnr" v="239216" />
		<tag k="water" v="lake" />
	</node>
	<node id="-141766" lat="61.1121809723" lon="9.74805231153">
		<tag k="name" v="Nedre Lenningsvatnet" />
		<tag k="natural" v="water" />
		<tag k="old_name" v="Lenningsv, ned" />
		<tag k="ssr:stedsnr" v="239215" />
		<tag k="water" v="lake" />
	</node>
	<node id="-141763" lat="60.8366999957" lon="10.2148944463">
		<tag k="name" v="Skinnerudelva" />
		<tag k="ssr:stedsnr" v="239000" />
		<tag k="waterway" v="river" />
	</node>
	<node id="-141757" lat="60.9920805526" lon="9.95145834224">
		<tag k="name" v="Gjerdåmot" />
		<tag k="natural" v="cape" />
		<tag k="ssr:stedsnr" v="238741" />
	</node>
	<node id="-141752" lat="60.9579944448" lon="10.0133555514">
		<tag k="name" v="Løken" />
		<tag k="ssr:stedsnr" v="238247" />
		<tag k="waterway" v="stream" />
	</node>
	<node id="-141751" lat="61.1052055551" lon="9.90780832927">
		<tag k="name" v="Synna" />
		<tag k="ssr:stedsnr" v="238081" />
		<tag k="waterway" v="river" />
	</node>
	<node id="-141750" lat="61.0248166624" lon="10.0438527749">
		<tag k="name" v="Djupbekken" />
		<tag k="ssr:stedsnr" v="238060" />
		<tag k="waterway" v="stream" />
	</node>
	<node id="-141748" lat="60.983499996" lon="10.0399111053">
		<tag k="name" v="Uksebekken" />
		<tag k="ssr:stedsnr" v="238502" />
		<tag k="waterway" v="stream" />
	</node>
	<node id="-141747" lat="60.796252777" lon="9.99282499774">
		<tag k="name" v="Lustjern" />
		<tag k="natural" v="water" />
		<tag k="ssr:stedsnr" v="238436" />
	</node>
	<node id="-141744" lat="60.9578750014" lon="9.79137223088">
		<tag k="name" v="Svartevassdammen" />
		<tag k="ssr:stedsnr" v="236918" />
		<tag k="waterway" v="dam" />
	</node>
	<node id="-141736" lat="60.9798138878" lon="10.1635833287">
		<tag k="name" v="Raumyrpullen" />
		<tag k="natural" v="water" />
		<tag k="ssr:stedsnr" v="236108" />
	</node>
	<node id="-141040" lat="60.94051944" lon="9.98243889361">
		<tag k="name" v="Kjøljua" />
		<tag k="ssr:stedsnr" v="359782" />
		<tag k="waterway" v="river" />
	</node>
	<node id="-141725" lat="60.9712305566" lon="9.77790554689">
		<tag k="name" v="Kråka" />
		<tag k="place" v="island" />
		<tag k="ssr:stedsnr" v="221558" />
	</node>
	<node id="-141724" lat="60.738583332" lon="9.83574166322">
		<tag k="name" v="Korsika" />
		<tag k="place" v="islet" />
		<tag k="ssr:stedsnr" v="221523" />
	</node>
	<node id="-141721" lat="61.0550833303" lon="9.86606945099">
		<tag k="name" v="Tverråa" />
		<tag k="ssr:stedsnr" v="221101" />
		<tag k="waterway" v="stream" />
	</node>
	<node id="-141719" lat="60.9763999989" lon="9.8117888847">
		<tag k="alt_name" v="Bergevatn" />
		<tag k="name" v="Bergevatnet" />
		<tag k="natural" v="water" />
		<tag k="ssr:stedsnr" v="191999" />
	</node>
	<node id="-141714" lat="60.9507944469" lon="9.87648888958">
		<tag k="alt_name" v="Brynntjern" />
		<tag k="name" v="Bryntjernet" />
		<tag k="natural" v="water" />
		<tag k="ssr:stedsnr" v="191896" />
	</node>
	<node id="-141713" lat="60.9903555573" lon="9.77957499459">
		<tag k="name" v="Kløvsteinbekken" />
		<tag k="ssr:stedsnr" v="191725" />
		<tag k="waterway" v="stream" />
	</node>
	<node id="-141698" lat="60.8992249957" lon="10.0984916755">
		<tag k="name" v="Skogpullen" />
		<tag k="natural" v="water" />
		<tag k="ssr:stedsnr" v="191468" />
	</node>
	<node id="-141696" lat="60.9127777746" lon="10.1987361184">
		<tag k="name" v="Hovdeputten" />
		<tag k="natural" v="water" />
		<tag k="ssr:stedsnr" v="191459" />
	</node>
	<node id="-141689" lat="60.9800055537" lon="10.1495638894">
		<tag k="name" v="Kjeldgjerdselva" />
		<tag k="ssr:stedsnr" v="191301" />
		<tag k="waterway" v="stream" />
	</node>
	<node id="-141679" lat="60.7637861086" lon="9.84843889086">
		<tag k="alt_name" v="Bjørkelivatnet, nedre" />
		<tag k="name" v="Nedre Bjørkelivatnet" />
		<tag k="natural" v="water" />
		<tag k="ssr:stedsnr" v="191142" />
	</node>
	<node id="-141153" lat="61.0558000023" lon="9.82002221833">
		<tag k="name" v="Brennbekken" />
		<tag k="ssr:stedsnr" v="889107" />
		<tag k="waterway" v="stream" />
	</node>
	<node id="-141676" lat="60.7954694417" lon="9.95219722513">
		<tag k="name" v="Svartputten" />
		<tag k="natural" v="water" />
		<tag k="ssr:stedsnr" v="191112" />
	</node>
	<node id="-141673" lat="60.8585249956" lon="9.7901055559">
		<tag k="alt_name" v="Kjøotjednet" />
		<tag k="name" v="Kjøetjernet" />
		<tag k="natural" v="water" />
		<tag k="ssr:stedsnr" v="191007" />
	</node>
	<node id="-141671" lat="60.8579194445" lon="9.88601943701">
		<tag k="alt_name" v="Trolltjern" />
		<tag k="name" v="Trolltjernet" />
		<tag k="natural" v="water" />
		<tag k="ssr:stedsnr" v="191003" />
	</node>
	<node id="-141670" lat="61.1179249961" lon="9.76745833873">
		<tag k="alt_name" v="Skartjern" />
		<tag k="name" v="Skardtjernet" />
		<tag k="natural" v="water" />
		<tag k="ssr:stedsnr" v="190731" />
	</node>
	<node id="-141669" lat="61.1248777801" lon="9.74084167318">
		<tag k="name" v="Ongeltjerna" />
		<tag k="natural" v="water" />
		<tag k="ssr:stedsnr" v="190727" />
	</node>
	<node id="-141667" lat="61.0634249976" lon="9.87944999548">
		<tag k="name" v="Vesltverråa" />
		<tag k="ssr:stedsnr" v="190638" />
		<tag k="waterway" v="stream" />
	</node>
	<node id="-141652" lat="60.7438722239" lon="10.0315083344">
		<tag k="name" v="Hovdebekken" />
		<tag k="ssr:stedsnr" v="189735" />
		<tag k="waterway" v="stream" />
	</node>
	<node id="-141651" lat="61.0857416655" lon="9.82343055095">
		<tag k="name" v="Midtstrangtjernet" />
		<tag k="natural" v="water" />
		<tag k="ssr:stedsnr" v="189649" />
	</node>
	<node id="-141648" lat="61.0064166646" lon="9.80548889">
		<tag k="alt_name" v="Klauvsjøen, store" />
		<tag k="name" v="Store Klauvsjøen" />
		<tag k="natural" v="water" />
		<tag k="ssr:stedsnr" v="189334" />
	</node>
	<node id="-141644" lat="61.0275111112" lon="10.14874722">
		<tag k="alt_name" v="Svarttjernet" />
		<tag k="name" v="Øvre Svartvatn" />
		<tag k="natural" v="water" />
		<tag k="ssr:stedsnr" v="188233" />
	</node>
	<node id="-141635" lat="60.7876527746" lon="10.0842166606">
		<tag k="name" v="Høgfoss" />
		<tag k="natural" v="waterfall" />
		<tag k="ssr:stedsnr" v="179694" />
	</node>
	<node id="-141634" lat="61.1035361096" lon="9.90876110601">
		<tag k="name" v="Synndammen" />
		<tag k="place" v="locality" />
		<tag k="ssr:stedsnr" v="179655" />
	</node>
	<node id="-141631" lat="60.9755166644" lon="9.88254721429">
		<tag k="name" v="Sagfossen" />
		<tag k="natural" v="waterfall" />
		<tag k="ssr:stedsnr" v="179544" />
	</node>
	<node id="-141628" lat="61.1438972217" lon="9.82000277804">
		<tag k="name" v="Maribekken" />
		<tag k="ssr:stedsnr" v="179389" />
		<tag k="waterway" v="stream" />
	</node>
	<node id="-141627" lat="61.1553222194" lon="9.82918055421">
		<tag k="name" v="Oppsjøputten" />
		<tag k="natural" v="water" />
		<tag k="ssr:stedsnr" v="179387" />
		<tag k="water" v="pond" />
	</node>
	<node id="-141625" lat="60.7364083327" lon="10.0296916742">
		<tag k="alt_name" v="Søndre Hovdevatn" />
		<tag k="loc_name" v="Søre Hovdevatnet" />
		<tag k="name" v="Søre Hovdevatn" />
		<tag k="natural" v="water" />
		<tag k="ssr:stedsnr" v="179316" />
	</node>
	<node id="-141623" lat="61.1115361108" lon="9.80079443807">
		<tag k="name" v="Hovdevassbekken" />
		<tag k="ssr:stedsnr" v="179266" />
		<tag k="waterway" v="stream" />
	</node>
	<node id="-141619" lat="60.8391194469" lon="9.86500555246">
		<tag k="name" v="Etna" />
		<tag k="ssr:stedsnr" v="179193" />
		<tag k="waterway" v="river" />
	</node>
	<node id="-141609" lat="60.8821111082" lon="9.94096111372">
		<tag k="name" v="Svartputten" />
		<tag k="natural" v="water" />
		<tag k="ssr:stedsnr" v="178892" />
	</node>
	<node id="-141601" lat="60.896005555" lon="10.0003666641">
		<tag k="name" v="Kvernbekken" />
		<tag k="ssr:stedsnr" v="178290" />
		<tag k="waterway" v="stream" />
	</node>
	<node id="-141597" lat="60.8880194478" lon="10.0247888821">
		<tag k="name" v="Skolmåa" />
		<tag k="ssr:stedsnr" v="178002" />
		<tag k="waterway" v="stream" />
	</node>
	<node id="-141596" lat="61.0708000005" lon="10.1075972138">
		<tag k="name" v="Brånåbekken" />
		<tag k="ssr:stedsnr" v="177820" />
		<tag k="waterway" v="stream" />
	</node>
	<node id="-141595" lat="61.0476611091" lon="10.0582722269">
		<tag k="name" v="Dokka" />
		<tag k="ssr:stedsnr" v="177813" />
		<tag k="waterway" v="river" />
	</node>
	<node id="-141594" lat="60.9147388897" lon="10.0020055471">
		<tag k="name" v="Stokkbekken" />
		<tag k="ssr:stedsnr" v="177650" />
		<tag k="waterway" v="stream" />
	</node>
	<node id="-141592" lat="60.8992861127" lon="9.91109166986">
		<tag k="name" v="Kollsæterputten" />
		<tag k="natural" v="water" />
		<tag k="ssr:stedsnr" v="177547" />
	</node>
	<node id="-141017" lat="60.7400833353" lon="9.84249445176">
		<tag k="name" v="Øya" />
		<tag k="place" v="islet" />
		<tag k="ssr:stedsnr" v="342492" />
	</node>
	<node id="-141581" lat="60.8780000037" lon="10.1769694371">
		<tag k="name" v="Mårsjøbekken" />
		<tag k="ssr:stedsnr" v="176212" />
		<tag k="waterway" v="stream" />
	</node>
	<node id="-141580" lat="60.9099138865" lon="9.79532777433">
		<tag k="name" v="Høgfossen" />
		<tag k="natural" v="waterfall" />
		<tag k="ssr:stedsnr" v="175850" />
	</node>
	<node id="-141572" lat="60.9995333346" lon="9.80513054724">
		<tag k="name" v="Kløvsteinbekken" />
		<tag k="ssr:stedsnr" v="160125" />
		<tag k="waterway" v="stream" />
	</node>
	<node id="-141571" lat="61.1099333342" lon="9.74195555943">
		<tag k="name" v="Lenna" />
		<tag k="ssr:stedsnr" v="140843" />
		<tag k="waterway" v="river" />
	</node>
	<node id="-141568" lat="60.8090361066" lon="10.0157194473">
		<tag k="alt_name" v="Sverdslitjern" />
		<tag k="name" v="Sverslitjernet" />
		<tag k="natural" v="water" />
		<tag k="ssr:stedsnr" v="131577" />
	</node>
	<node id="-141564" lat="60.9245277744" lon="9.88272222335">
		<tag k="alt_name" v="Buvatn" />
		<tag k="name" v="Buvatnet" />
		<tag k="natural" v="water" />
		<tag k="ssr:stedsnr" v="130883" />
	</node>
	<node id="-141563" lat="60.7850749963" lon="10.0399388848">
		<tag k="alt_name" v="Svartvatnet, nedre;Nedre Svartvatn" />
		<tag k="name" v="Nedre Svartvatnet" />
		<tag k="natural" v="water" />
		<tag k="ssr:stedsnr" v="130626" />
		<tag k="water" v="lake" />
	</node>
	<node id="-141559" lat="60.8170555585" lon="10.0145222244">
		<tag k="alt_name" v="Nølandsbekken" />
		<tag k="name" v="Mølderdalsbekken" />
		<tag k="ssr:stedsnr" v="130583" />
		<tag k="waterway" v="stream" />
	</node>
	<node id="-141558" lat="60.8041694442" lon="10.0484416644">
		<tag k="name" v="Skjellungselva" />
		<tag k="ssr:stedsnr" v="130552" />
		<tag k="waterway" v="stream" />
	</node>
	<node id="-141554" lat="60.8477833298" lon="10.1229611144">
		<tag k="name" v="Tvillingputtane" />
		<tag k="natural" v="water" />
		<tag k="ssr:stedsnr" v="130490" />
	</node>
	<node id="-141549" lat="60.8927138856" lon="9.98143054928">
		<tag k="alt_name" v="Brandtjern" />
		<tag k="name" v="Brandtjernet" />
		<tag k="natural" v="water" />
		<tag k="ssr:stedsnr" v="130350" />
	</node>
	<node id="-141538" lat="60.9957999987" lon="10.0593166696">
		<tag k="name" v="Dokka" />
		<tag k="ssr:stedsnr" v="130291" />
		<tag k="waterway" v="river" />
	</node>
	<node id="-141526" lat="60.8008631776" lon="9.91199583189">
		<tag k="name" v="Håmotten" />
		<tag k="natural" v="water" />
		<tag k="ssr:stedsnr" v="130195" />
		<tag k="water" v="lake" />
	</node>
	<node id="-141522" lat="60.7671611076" lon="9.949394437">
		<tag k="name" v="Vestersæterbekken" />
		<tag k="ssr:stedsnr" v="130149" />
		<tag k="waterway" v="stream" />
	</node>
	<node id="-141521" lat="60.7577666682" lon="9.95019999172">
		<tag k="alt_name" v="Lomtjern" />
		<tag k="name" v="Lomtjernet" />
		<tag k="natural" v="water" />
		<tag k="ssr:stedsnr" v="130135" />
	</node>
	<node id="-141518" lat="60.7876000031" lon="9.83244445122">
		<tag k="alt_name" v="Styggøyvatn" />
		<tag k="name" v="Styggøyvatnet" />
		<tag k="natural" v="water" />
		<tag k="ssr:stedsnr" v="130128" />
	</node>
	<node id="-141517" lat="60.7955666711" lon="9.87024166722">
		<tag k="alt_name" v="Ekornlivatn" />
		<tag k="name" v="Ekornlivatnet" />
		<tag k="natural" v="water" />
		<tag k="ssr:stedsnr" v="130121" />
	</node>
	<node id="-141515" lat="60.8688972223" lon="9.91237221483">
		<tag k="name" v="Lisettjernet" />
		<tag k="natural" v="water" />
		<tag k="ssr:stedsnr" v="130015" />
	</node>
	<node id="-141507" lat="61.1200638857" lon="9.78723889778">
		<tag k="name" v="Lenna" />
		<tag k="old_name" v="Leina;Lænna" />
		<tag k="ssr:stedsnr" v="129711" />
		<tag k="waterway" v="river" />
	</node>
	<node id="-141501" lat="60.874516668" lon="10.0128555525">
		<tag k="name" v="Vangsjøbekken" />
		<tag k="ssr:stedsnr" v="129406" />
		<tag k="waterway" v="stream" />
	</node>
	<node id="-141496" lat="60.8927611096" lon="9.89896389433">
		<tag k="alt_name" v="Flisvatnet, vestre;Nordre Flisvatn" />
		<tag k="name" v="Vestre Flisvatnet" />
		<tag k="natural" v="water" />
		<tag k="ssr:stedsnr" v="129149" />
	</node>
	<node id="-141494" lat="60.8750861131" lon="9.79701388903">
		<tag k="fixme" v="multiple name tags, choose one and add the other to alt_name" />
		<tag k="name" v="Øvre Skilnadputten;Øvre Skjelnetjern" />
		<tag k="natural" v="water" />
		<tag k="ssr:stedsnr" v="129115" />
	</node>
	<node id="-141492" lat="61.0947638889" lon="9.71611944064">
		<tag k="name" v="Regla" />
		<tag k="natural" v="water" />
		<tag k="ssr:stedsnr" v="128655" />
	</node>
	<node id="-141491" lat="61.0099944447" lon="9.81101666161">
		<tag k="alt_name" v="Klauvsjøen, vle" />
		<tag k="name" v="Vesle Klauvsjøen" />
		<tag k="natural" v="water" />
		<tag k="ssr:stedsnr" v="128331" />
	</node>
	<node id="-141490" lat="61.0302750012" lon="9.89735278112">
		<tag k="alt_name" v="Karustjernet" />
		<tag k="name" v="Nedre Karusstjernet" />
		<tag k="natural" v="water" />
		<tag k="ssr:stedsnr" v="128291" />
	</node>
	<node id="-141489" lat="61.0126611119" lon="10.1609750044">
		<tag k="name" v="Medvatnet" />
		<tag k="natural" v="water" />
		<tag k="ssr:stedsnr" v="128196" />
	</node>
	<node id="-141488" lat="61.0098666636" lon="10.1747638908">
		<tag k="name" v="Finnsjøen" />
		<tag k="natural" v="water" />
		<tag k="ssr:stedsnr" v="128195" />
	</node>
	<node id="-141477" lat="60.8176055523" lon="10.1008027803">
		<tag k="name" v="Dokka-Etna" />
		<tag k="ssr:stedsnr" v="119834" />
		<tag k="waterway" v="river" />
	</node>
	<node id="-141475" lat="61.0456638856" lon="9.95547221709">
		<tag k="name" v="Synna" />
		<tag k="ssr:stedsnr" v="119740" />
		<tag k="waterway" v="river" />
	</node>
	<node id="-141470" lat="60.7504305537" lon="10.0402861155">
		<tag k="name" v="Vesle Øyvatn" />
		<tag k="natural" v="water" />
		<tag k="ssr:stedsnr" v="119340" />
	</node>
	<node id="-141469" lat="60.7444249972" lon="10.0238583308">
		<tag k="name" v="Hovdedammen" />
		<tag k="place" v="locality" />
		<tag k="ssr:stedsnr" v="119324" />
	</node>
	<node id="-141468" lat="60.7822222213" lon="9.91762777758">
		<tag k="name" v="Langtangen" />
		<tag k="natural" v="cape" />
		<tag k="ssr:stedsnr" v="119318" />
	</node>
	<node id="-141461" lat="61.1257694454" lon="9.69985555278">
		<tag k="name" v="Røssjørompa" />
		<tag k="natural" v="water" />
		<tag k="ssr:stedsnr" v="118877" />
	</node>
	<node id="-141453" lat="60.8417555566" lon="10.1766666722">
		<tag k="name" v="Skinnerudelva" />
		<tag k="ssr:stedsnr" v="117991" />
		<tag k="waterway" v="stream" />
	</node>
	<node id="-141450" lat="60.8835083371" lon="10.0037138808">
		<tag k="name" v="Meåa" />
		<tag k="ssr:stedsnr" v="117877" />
		<tag k="waterway" v="stream" />
	</node>
	<node id="-141449" lat="60.9268888906" lon="9.90935278354">
		<tag k="name" v="Furupullen" />
		<tag k="natural" v="water" />
		<tag k="ssr:stedsnr" v="117809" />
	</node>
	<node id="-141444" lat="60.7578194417" lon="9.99457499781">
		<tag k="name" v="Lulibekken" />
		<tag k="ssr:stedsnr" v="117608" />
		<tag k="waterway" v="stream" />
	</node>
	<node id="-141443" lat="60.8886472205" lon="9.90164999109">
		<tag k="name" v="Flisa" />
		<tag k="ssr:stedsnr" v="117531" />
		<tag k="waterway" v="stream" />
	</node>
	<node id="-141442" lat="60.897530559" lon="9.9186916697">
		<tag k="name" v="Reintjern" />
		<tag k="natural" v="water" />
		<tag k="ssr:stedsnr" v="117532" />
	</node>
	<node id="-141438" lat="60.8879444446" lon="10.1587999911">
		<tag k="name" v="Bergsæterdammen" />
		<tag k="ssr:stedsnr" v="117135" />
		<tag k="waterway" v="dam" />
	</node>
	<node id="-141437" lat="60.8449722187" lon="10.1586972212">
		<tag k="name" v="Skinnerudselva" />
		<tag k="ssr:stedsnr" v="117104" />
		<tag k="waterway" v="stream" />
	</node>
	<node id="-141433" lat="61.0096638859" lon="10.1928277741">
		<tag k="name" v="Skipspullen" />
		<tag k="natural" v="water" />
		<tag k="ssr:stedsnr" v="115564" />
	</node>
	<node id="-141421" lat="60.9804555586" lon="9.82735833881">
		<tag k="name" v="Vesle Haugsjøen" />
		<tag k="natural" v="water" />
		<tag k="ssr:stedsnr" v="100575" />
	</node>
	<node id="-141419" lat="60.9747333353" lon="9.86486111713">
		<tag k="name" v="Gjerda" />
		<tag k="ssr:stedsnr" v="70996" />
		<tag k="waterway" v="river" />
	</node>
	<node id="-141416" lat="60.9524555536" lon="9.93247778189">
		<tag k="name" v="Brandsrudelva" />
		<tag k="ssr:stedsnr" v="70914" />
		<tag k="waterway" v="stream" />
	</node>
	<node id="-141415" lat="60.7542499955" lon="10.038961114">
		<tag k="alt_name" v="Abborpullen" />
		<tag k="name" v="Åborpullen" />
		<tag k="natural" v="water" />
		<tag k="ssr:stedsnr" v="70744" />
	</node>
	<node id="-141414" lat="60.9697944402" lon="9.96810277155">
		<tag k="alt_name" v="Fremstvatn" />
		<tag k="name" v="Klettvatnet" />
		<tag k="natural" v="water" />
		<tag k="ssr:stedsnr" v="70956" />
	</node>
	<node id="-141413" lat="60.8089777746" lon="9.98248610957">
		<tag k="name" v="Svartputten" />
		<tag k="natural" v="water" />
		<tag k="ssr:stedsnr" v="70622" />
	</node>
	<node id="-141412" lat="60.8325444474" lon="10.1651083407">
		<tag k="alt_name" v="Langvatn" />
		<tag k="name" v="Langvatnet" />
		<tag k="natural" v="water" />
		<tag k="ssr:stedsnr" v="70612" />
		<tag k="water" v="lake" />
	</node>
	<node id="-141410" lat="60.7985472236" lon="10.0486083382">
		<tag k="alt_name" v="Haugtjern" />
		<tag k="name" v="Haugtjernet" />
		<tag k="natural" v="water" />
		<tag k="ssr:stedsnr" v="70678" />
	</node>
	<node id="-141396" lat="61.1236194402" lon="9.72659166538">
		<tag k="name" v="Folungtjerna" />
		<tag k="natural" v="water" />
		<tag k="ssr:stedsnr" v="69744" />
	</node>
	<node id="-141386" lat="60.8748027789" lon="10.1626138839">
		<tag k="name" v="Springbekken" />
		<tag k="ssr:stedsnr" v="69443" />
		<tag k="waterway" v="stream" />
	</node>
	<node id="-141383" lat="60.8904861101" lon="9.97236110592">
		<tag k="name" v="Måsåputten" />
		<tag k="place" v="locality" />
		<tag k="ssr:stedsnr" v="69393" />
	</node>
	<node id="-141375" lat="60.7738250037" lon="9.86406388416">
		<tag k="name" v="Knattøyvatnet" />
		<tag k="natural" v="water" />
		<tag k="ssr:stedsnr" v="69144" />
	</node>
	<node id="-141374" lat="60.7844777806" lon="9.95090000347">
		<tag k="name" v="Meåa" />
		<tag k="natural" v="strait" />
		<tag k="ssr:stedsnr" v="69138" />
	</node>
	<node id="-141373" lat="60.8937305553" lon="9.92554722687">
		<tag k="alt_name" v="Flisvatnet, austre;Søndre Flisvatn" />
		<tag k="name" v="Austre Flisvatnet" />
		<tag k="natural" v="water" />
		<tag k="ssr:stedsnr" v="69125" />
	</node>
	<node id="-141372" lat="60.8828277759" lon="9.96612499278">
		<tag k="alt_name" v="Erttjern" />
		<tag k="name" v="Erttjernet" />
		<tag k="natural" v="water" />
		<tag k="ssr:stedsnr" v="69102" />
	</node>
	<node id="-141356" lat="60.9575472259" lon="9.7889833251">
		<tag k="name" v="Nedre Svartevatnet" />
		<tag k="natural" v="water" />
		<tag k="ssr:stedsnr" v="66901" />
	</node>
	<node id="-141351" lat="60.8524749971" lon="9.87278334193">
		<tag k="name" v="Leppa" />
		<tag k="ssr:stedsnr" v="58820" />
		<tag k="waterway" v="river" />
	</node>
	<node id="-141348" lat="60.8223666669" lon="9.89913888162">
		<tag k="name" v="Nysvelibekken" />
		<tag k="ssr:stedsnr" v="58699" />
		<tag k="waterway" v="stream" />
	</node>
	<node id="-141346" lat="61.1396194474" lon="9.82782222246">
		<tag k="name" v="Maribekken" />
		<tag k="ssr:stedsnr" v="58645" />
		<tag k="waterway" v="stream" />
	</node>
	<node id="-141345" lat="60.9653277757" lon="10.0875250069">
		<tag k="name" v="Røstebekken" />
		<tag k="ssr:stedsnr" v="58572" />
		<tag k="waterway" v="stream" />
	</node>
	<node id="-141343" lat="60.8152388911" lon="9.84057222834">
		<tag k="name" v="Gråbeinrudbekken" />
		<tag k="ssr:stedsnr" v="58267" />
		<tag k="waterway" v="stream" />
	</node>
	<node id="-141339" lat="60.7741027748" lon="9.93647222418">
		<tag k="name" v="Kongsbergbekken" />
		<tag k="ssr:stedsnr" v="58332" />
		<tag k="waterway" v="stream" />
	</node>
	<node id="-141336" lat="60.8065000032" lon="10.0236166576">
		<tag k="name" v="Smaltjernsbekken" />
		<tag k="ssr:stedsnr" v="58212" />
		<tag k="waterway" v="stream" />
	</node>
	<node id="-143007" lat="60.7553805587" lon="9.89585277405">
		<tag k="alt_name" v="Ormhøgdtjern" />
		<tag k="name" v="Ormhøgdtjernet" />
		<tag k="natural" v="water" />
		<tag k="ssr:stedsnr" v="859156" />
	</node>
	<node id="-141327" lat="60.7929361134" lon="9.95849722867">
		<tag k="name" v="Nordre Skjelnetjern" />
		<tag k="natural" v="water" />
		<tag k="ssr:stedsnr" v="56503" />
	</node>
	<node id="-141322" lat="60.8874138902" lon="10.131472231">
		<tag k="name" v="Trysilbekken" />
		<tag k="ssr:stedsnr" v="56125" />
		<tag k="waterway" v="stream" />
	</node>
	<node id="-141320" lat="61.0004750042" lon="10.1758222183">
		<tag k="name" v="Steinpullen" />
		<tag k="natural" v="water" />
		<tag k="ssr:stedsnr" v="55588" />
	</node>
</osm>
