<?xml version="1.0" encoding="UTF-8"?>
<osm version="0.6" generator="osmapis">
	<node lat="59.81476001753683" lon="10.264785590175016" id="-32986">
		<tag k="name" v="Kaprifolveien" />
		<tag k="ssr:date" v="2019-12-27" />
		<tag k="ssr:gruppe" v="veg" />
		<tag k="ssr:hovedgruppe" v="infrastruktur" />
		<tag k="ssr:stedsnr" v="21086" />
		<tag k="ssr:type" v="adressenavn" />
	</node>
	<node lat="59.81273225531932" lon="10.312025499674482" id="-32987">
		<tag k="name" v="Tveitabakken" />
		<tag k="ssr:date" v="2019-12-27" />
		<tag k="ssr:gruppe" v="veg" />
		<tag k="ssr:hovedgruppe" v="infrastruktur" />
		<tag k="ssr:stedsnr" v="21089" />
		<tag k="ssr:type" v="adressenavn" />
	</node>
	<node lat="59.85064116350226" lon="10.234911055262861" id="-32994">
		<tag k="name" v="Roaldsrudveien" />
		<tag k="ssr:date" v="2019-12-27" />
		<tag k="ssr:gruppe" v="veg" />
		<tag k="ssr:hovedgruppe" v="infrastruktur" />
		<tag k="ssr:stedsnr" v="21397" />
		<tag k="ssr:type" v="adressenavn" />
	</node>
	<node lat="59.77758990319185" lon="10.231897065871841" id="-33003">
		<tag k="name" v="Hageveien" />
		<tag k="ssr:date" v="2019-12-27" />
		<tag k="ssr:gruppe" v="veg" />
		<tag k="ssr:hovedgruppe" v="infrastruktur" />
		<tag k="ssr:stedsnr" v="21786" />
		<tag k="ssr:type" v="adressenavn" />
	</node>
	<node lat="59.76760168938219" lon="10.246204033421366" id="-33004">
		<tag k="name" v="Nybruveien" />
		<tag k="ssr:date" v="2019-12-27" />
		<tag k="ssr:gruppe" v="veg" />
		<tag k="ssr:hovedgruppe" v="infrastruktur" />
		<tag k="ssr:stedsnr" v="21794" />
		<tag k="ssr:type" v="adressenavn" />
	</node>
	<node lat="59.80266611546468" lon="10.266343517170478" id="-33006">
		<tag k="name" v="Lønneveien" />
		<tag k="ssr:date" v="2019-12-27" />
		<tag k="ssr:gruppe" v="veg" />
		<tag k="ssr:hovedgruppe" v="infrastruktur" />
		<tag k="ssr:stedsnr" v="21941" />
		<tag k="ssr:type" v="adressenavn" />
	</node>
	<node lat="59.87730230488606" lon="10.299732581443978" id="-33008">
		<tag k="name" v="Asdølveien" />
		<tag k="ssr:date" v="2019-12-27" />
		<tag k="ssr:gruppe" v="veg" />
		<tag k="ssr:hovedgruppe" v="infrastruktur" />
		<tag k="ssr:stedsnr" v="21887" />
		<tag k="ssr:type" v="adressenavn" />
	</node>
	<node lat="59.89207624230172" lon="10.298966795704644" id="-33009">
		<tag k="name" v="Svangstrandveien" />
		<tag k="ssr:date" v="2019-12-27" />
		<tag k="ssr:gruppe" v="veg" />
		<tag k="ssr:hovedgruppe" v="infrastruktur" />
		<tag k="ssr:stedsnr" v="21984" />
		<tag k="ssr:type" v="adressenavn" />
	</node>
	<node lat="59.89291700384248" lon="10.289885441752729" id="-33011">
		<tag k="name" v="Svangshagan" />
		<tag k="ssr:date" v="2019-12-27" />
		<tag k="ssr:gruppe" v="veg" />
		<tag k="ssr:hovedgruppe" v="infrastruktur" />
		<tag k="ssr:stedsnr" v="21996" />
		<tag k="ssr:type" v="adressenavn" />
	</node>
	<node lat="59.8275990796528" lon="10.280428642520295" id="-33014">
		<tag k="name" v="Svendsebråtan" />
		<tag k="ssr:date" v="2019-12-27" />
		<tag k="ssr:gruppe" v="veg" />
		<tag k="ssr:hovedgruppe" v="infrastruktur" />
		<tag k="ssr:stedsnr" v="22899" />
		<tag k="ssr:type" v="adressenavn" />
	</node>
	<node lat="59.81729079163261" lon="10.327092837295588" id="-33035">
		<tag k="name" v="Vestbyveien" />
		<tag k="ssr:date" v="2019-12-27" />
		<tag k="ssr:gruppe" v="veg" />
		<tag k="ssr:hovedgruppe" v="infrastruktur" />
		<tag k="ssr:stedsnr" v="82084" />
		<tag k="ssr:type" v="adressenavn" />
	</node>
	<node lat="59.74840542676575" lon="10.235177607115128" id="-33041">
		<tag k="name" v="Baches vei" />
		<tag k="ssr:date" v="2019-12-27" />
		<tag k="ssr:gruppe" v="veg" />
		<tag k="ssr:hovedgruppe" v="infrastruktur" />
		<tag k="ssr:stedsnr" v="82737" />
		<tag k="ssr:type" v="adressenavn" />
	</node>
	<node lat="59.778840105597446" lon="10.229506351086377" id="-33042">
		<tag k="name" v="Nedre Frognerlia" />
		<tag k="ssr:date" v="2019-12-27" />
		<tag k="ssr:gruppe" v="veg" />
		<tag k="ssr:hovedgruppe" v="infrastruktur" />
		<tag k="ssr:stedsnr" v="82781" />
		<tag k="ssr:type" v="adressenavn" />
	</node>
	<node lat="59.75016180955298" lon="10.250541377681031" id="-33043">
		<tag k="name" v="Jensvollveien" />
		<tag k="ssr:date" v="2019-12-27" />
		<tag k="ssr:gruppe" v="veg" />
		<tag k="ssr:hovedgruppe" v="infrastruktur" />
		<tag k="ssr:stedsnr" v="82903" />
		<tag k="ssr:type" v="adressenavn" />
	</node>
	<node lat="59.77693484627311" lon="10.291014397471475" id="-33045">
		<tag k="name" v="Øvregrenda" />
		<tag k="ssr:date" v="2019-12-27" />
		<tag k="ssr:gruppe" v="veg" />
		<tag k="ssr:hovedgruppe" v="infrastruktur" />
		<tag k="ssr:stedsnr" v="82933" />
		<tag k="ssr:type" v="adressenavn" />
	</node>
	<node lat="59.8040465781446" lon="10.266636596385196" id="-33046">
		<tag k="name" v="Furuveien" />
		<tag k="ssr:date" v="2019-12-27" />
		<tag k="ssr:gruppe" v="veg" />
		<tag k="ssr:hovedgruppe" v="infrastruktur" />
		<tag k="ssr:stedsnr" v="82942" />
		<tag k="ssr:type" v="adressenavn" />
	</node>
	<node lat="59.75395415148389" lon="10.235764507072403" id="-33047">
		<tag k="name" v="Triangelveien" />
		<tag k="ssr:date" v="2019-12-27" />
		<tag k="ssr:gruppe" v="veg" />
		<tag k="ssr:hovedgruppe" v="infrastruktur" />
		<tag k="ssr:stedsnr" v="82883" />
		<tag k="ssr:type" v="adressenavn" />
	</node>
	<node lat="59.751065872166144" lon="10.22826858742457" id="-33048">
		<tag k="name" v="Alv Johnsens vei" />
		<tag k="ssr:date" v="2019-12-27" />
		<tag k="ssr:gruppe" v="veg" />
		<tag k="ssr:hovedgruppe" v="infrastruktur" />
		<tag k="ssr:stedsnr" v="82885" />
		<tag k="ssr:type" v="adressenavn" />
	</node>
	<node lat="59.75243780711289" lon="10.235562123426929" id="-33049">
		<tag k="name" v="Østhellinga" />
		<tag k="ssr:date" v="2019-12-27" />
		<tag k="ssr:gruppe" v="veg" />
		<tag k="ssr:hovedgruppe" v="infrastruktur" />
		<tag k="ssr:stedsnr" v="82886" />
		<tag k="ssr:type" v="adressenavn" />
	</node>
	<node lat="59.76444697702282" lon="10.25339378594687" id="-33051">
		<tag k="name" v="Kjellstadveien" />
		<tag k="ssr:date" v="2019-12-27" />
		<tag k="ssr:gruppe" v="veg" />
		<tag k="ssr:hovedgruppe" v="infrastruktur" />
		<tag k="ssr:stedsnr" v="82900" />
		<tag k="ssr:type" v="adressenavn" />
	</node>
	<node lat="59.823722544095595" lon="10.32835687221565" id="-33077">
		<tag k="name" v="Bøveien" />
		<tag k="ssr:date" v="2019-12-27" />
		<tag k="ssr:gruppe" v="veg" />
		<tag k="ssr:hovedgruppe" v="infrastruktur" />
		<tag k="ssr:stedsnr" v="142105" />
		<tag k="ssr:type" v="adressenavn" />
	</node>
	<node lat="59.848385539321676" lon="10.27087681699251" id="-33078">
		<tag k="name" v="Opsahlgata" />
		<tag k="ssr:date" v="2019-12-27" />
		<tag k="ssr:gruppe" v="veg" />
		<tag k="ssr:hovedgruppe" v="infrastruktur" />
		<tag k="ssr:stedsnr" v="142110" />
		<tag k="ssr:type" v="adressenavn" />
	</node>
	<node lat="59.90915889319408" lon="10.282761403140798" id="-33084">
		<tag k="name" v="Hørteveien" />
		<tag k="ssr:date" v="2019-12-27" />
		<tag k="ssr:gruppe" v="veg" />
		<tag k="ssr:hovedgruppe" v="infrastruktur" />
		<tag k="ssr:stedsnr" v="142537" />
		<tag k="ssr:type" v="adressenavn" />
	</node>
	<node lat="59.90212414458724" lon="10.259573736606116" id="-33085">
		<tag k="name" v="Nedre Fagerlivei" />
		<tag k="ssr:date" v="2019-12-27" />
		<tag k="ssr:gruppe" v="veg" />
		<tag k="ssr:hovedgruppe" v="infrastruktur" />
		<tag k="ssr:stedsnr" v="142539" />
		<tag k="ssr:type" v="adressenavn" />
	</node>
	<node lat="59.81110932098451" lon="10.312696184219487" id="-33086">
		<tag k="name" v="Lyfjellveien" />
		<tag k="ssr:date" v="2019-12-27" />
		<tag k="ssr:gruppe" v="veg" />
		<tag k="ssr:hovedgruppe" v="infrastruktur" />
		<tag k="ssr:stedsnr" v="142677" />
		<tag k="ssr:type" v="adressenavn" />
	</node>
	<node lat="59.75047285541083" lon="10.255948640090345" id="-33088">
		<tag k="name" v="Terminalen" />
		<tag k="ssr:date" v="2019-12-27" />
		<tag k="ssr:gruppe" v="veg" />
		<tag k="ssr:hovedgruppe" v="infrastruktur" />
		<tag k="ssr:stedsnr" v="142779" />
		<tag k="ssr:type" v="adressenavn" />
	</node>
	<node lat="59.86346021564826" lon="10.28170731292179" id="-33089">
		<tag k="name" v="Skaugenveien" />
		<tag k="ssr:date" v="2019-12-27" />
		<tag k="ssr:gruppe" v="veg" />
		<tag k="ssr:hovedgruppe" v="infrastruktur" />
		<tag k="ssr:stedsnr" v="142910" />
		<tag k="ssr:type" v="adressenavn" />
	</node>
	<node lat="59.89476014107552" lon="10.281812172538876" id="-33093">
		<tag k="name" v="Meieribakken" />
		<tag k="ssr:date" v="2019-12-27" />
		<tag k="ssr:gruppe" v="veg" />
		<tag k="ssr:hovedgruppe" v="infrastruktur" />
		<tag k="ssr:stedsnr" v="142996" />
		<tag k="ssr:type" v="adressenavn" />
	</node>
	<node lat="59.88957297861273" lon="10.298765036481274" id="-33094">
		<tag k="name" v="Modumveien" />
		<tag k="ssr:date" v="2019-12-27" />
		<tag k="ssr:gruppe" v="veg" />
		<tag k="ssr:hovedgruppe" v="infrastruktur" />
		<tag k="ssr:stedsnr" v="142999" />
		<tag k="ssr:type" v="adressenavn" />
	</node>
	<node lat="59.83223575286766" lon="10.209354616992627" id="-33096">
		<tag k="name" v="Sørseterveien" />
		<tag k="ssr:date" v="2019-12-27" />
		<tag k="ssr:gruppe" v="veg" />
		<tag k="ssr:hovedgruppe" v="infrastruktur" />
		<tag k="ssr:stedsnr" v="143807" />
		<tag k="ssr:type" v="adressenavn" />
	</node>
	<node lat="59.82321829592715" lon="10.329377899108797" id="-33132">
		<tag k="name" v="Nedre Morenevei" />
		<tag k="ssr:date" v="2019-12-27" />
		<tag k="ssr:gruppe" v="veg" />
		<tag k="ssr:hovedgruppe" v="infrastruktur" />
		<tag k="ssr:stedsnr" v="203115" />
		<tag k="ssr:type" v="adressenavn" />
	</node>
	<node lat="59.851953134718784" lon="10.266156382962658" id="-33140">
		<tag k="name" v="Åmotveien" />
		<tag k="ssr:date" v="2019-12-27" />
		<tag k="ssr:gruppe" v="veg" />
		<tag k="ssr:hovedgruppe" v="infrastruktur" />
		<tag k="ssr:stedsnr" v="203414" />
		<tag k="ssr:type" v="adressenavn" />
	</node>
	<node lat="59.784036023496604" lon="10.271851877095388" id="-33141">
		<tag k="name" v="Haslumveien" />
		<tag k="ssr:date" v="2019-12-27" />
		<tag k="ssr:gruppe" v="veg" />
		<tag k="ssr:hovedgruppe" v="infrastruktur" />
		<tag k="ssr:stedsnr" v="203604" />
		<tag k="ssr:type" v="adressenavn" />
	</node>
	<node lat="59.81457467463118" lon="10.204706652026916" id="-33143">
		<tag k="name" v="Arkaveien" />
		<tag k="ssr:date" v="2019-12-27" />
		<tag k="ssr:gruppe" v="veg" />
		<tag k="ssr:hovedgruppe" v="infrastruktur" />
		<tag k="ssr:stedsnr" v="203811" />
		<tag k="ssr:type" v="adressenavn" />
	</node>
	<node lat="59.79371361885692" lon="10.261830387286265" id="-33144">
		<tag k="name" v="Brattbakken" />
		<tag k="ssr:date" v="2019-12-27" />
		<tag k="ssr:gruppe" v="veg" />
		<tag k="ssr:hovedgruppe" v="infrastruktur" />
		<tag k="ssr:stedsnr" v="203816" />
		<tag k="ssr:type" v="adressenavn" />
	</node>
	<node lat="59.755296664936196" lon="10.293096732656497" id="-33146">
		<tag k="name" v="Brinken" />
		<tag k="ssr:date" v="2019-12-27" />
		<tag k="ssr:gruppe" v="veg" />
		<tag k="ssr:hovedgruppe" v="infrastruktur" />
		<tag k="ssr:stedsnr" v="203863" />
		<tag k="ssr:type" v="adressenavn" />
	</node>
	<node lat="59.859763427163244" lon="10.277812883641108" id="-33149">
		<tag k="name" v="Skonarudveien" />
		<tag k="ssr:date" v="2019-12-27" />
		<tag k="ssr:gruppe" v="veg" />
		<tag k="ssr:hovedgruppe" v="infrastruktur" />
		<tag k="ssr:stedsnr" v="203918" />
		<tag k="ssr:type" v="adressenavn" />
	</node>
	<node lat="59.78821992271716" lon="10.278037787598455" id="-33151">
		<tag k="name" v="Haugdalen" />
		<tag k="ssr:date" v="2019-12-27" />
		<tag k="ssr:gruppe" v="veg" />
		<tag k="ssr:hovedgruppe" v="infrastruktur" />
		<tag k="ssr:stedsnr" v="203960" />
		<tag k="ssr:type" v="adressenavn" />
	</node>
	<node lat="59.90387341976603" lon="10.266856626428215" id="-33154">
		<tag k="name" v="Runsevollveien" />
		<tag k="ssr:date" v="2019-12-27" />
		<tag k="ssr:gruppe" v="veg" />
		<tag k="ssr:hovedgruppe" v="infrastruktur" />
		<tag k="ssr:stedsnr" v="204516" />
		<tag k="ssr:type" v="adressenavn" />
	</node>
	<node lat="59.727128073294296" lon="10.314537840405693" id="-33159">
		<tag k="name" v="Røykenveien" />
		<tag k="ssr:date" v="2019-12-27" />
		<tag k="ssr:gruppe" v="veg" />
		<tag k="ssr:hovedgruppe" v="infrastruktur" />
		<tag k="ssr:stedsnr" v="204854" />
		<tag k="ssr:type" v="adressenavn" />
	</node>
	<node lat="59.81268200089997" lon="10.270693706255232" id="-33176">
		<tag k="name" v="Tranbylia" />
		<tag k="ssr:date" v="2019-12-27" />
		<tag k="ssr:gruppe" v="veg" />
		<tag k="ssr:hovedgruppe" v="infrastruktur" />
		<tag k="ssr:stedsnr" v="446062" />
		<tag k="ssr:type" v="adressenavn" />
	</node>
	<node lat="59.812452580012526" lon="10.26265816584901" id="-33180">
		<tag k="name" v="Spireaveien" />
		<tag k="ssr:date" v="2019-12-27" />
		<tag k="ssr:gruppe" v="veg" />
		<tag k="ssr:hovedgruppe" v="infrastruktur" />
		<tag k="ssr:stedsnr" v="446088" />
		<tag k="ssr:type" v="adressenavn" />
	</node>
	<node lat="59.81449839267836" lon="10.21493347347872" id="-33188">
		<tag k="name" v="Baneveien" />
		<tag k="ssr:date" v="2019-12-27" />
		<tag k="ssr:gruppe" v="veg" />
		<tag k="ssr:hovedgruppe" v="infrastruktur" />
		<tag k="ssr:stedsnr" v="446395" />
		<tag k="ssr:type" v="adressenavn" />
	</node>
	<node lat="59.9018454980737" lon="10.259661171420406" id="-33191">
		<tag k="name" v="Fagerliåsen" />
		<tag k="ssr:date" v="2019-12-27" />
		<tag k="ssr:gruppe" v="veg" />
		<tag k="ssr:hovedgruppe" v="infrastruktur" />
		<tag k="ssr:stedsnr" v="446557" />
		<tag k="ssr:type" v="adressenavn" />
	</node>
	<node lat="59.76006669847165" lon="10.291072711433923" id="-33196">
		<tag k="name" v="Sørum terrasse" />
		<tag k="ssr:date" v="2019-12-27" />
		<tag k="ssr:gruppe" v="veg" />
		<tag k="ssr:hovedgruppe" v="infrastruktur" />
		<tag k="ssr:stedsnr" v="446853" />
		<tag k="ssr:type" v="adressenavn" />
	</node>
	<node lat="59.7671734850924" lon="10.292841757213925" id="-33197">
		<tag k="name" v="Fjellstien" />
		<tag k="ssr:date" v="2019-12-27" />
		<tag k="ssr:gruppe" v="veg" />
		<tag k="ssr:hovedgruppe" v="infrastruktur" />
		<tag k="ssr:stedsnr" v="446855" />
		<tag k="ssr:type" v="adressenavn" />
	</node>
	<node lat="59.863723302181654" lon="10.218187254802318" id="-33203">
		<tag k="name" v="Gifstadbakken" />
		<tag k="ssr:date" v="2019-12-27" />
		<tag k="ssr:gruppe" v="veg" />
		<tag k="ssr:hovedgruppe" v="infrastruktur" />
		<tag k="ssr:stedsnr" v="446820" />
		<tag k="ssr:type" v="adressenavn" />
	</node>
	<node lat="59.7497871317532" lon="10.23614528325947" id="-33204">
		<tag k="name" v="Fagertunveien" />
		<tag k="ssr:date" v="2019-12-27" />
		<tag k="ssr:gruppe" v="veg" />
		<tag k="ssr:hovedgruppe" v="infrastruktur" />
		<tag k="ssr:stedsnr" v="446767" />
		<tag k="ssr:type" v="adressenavn" />
	</node>
	<node lat="59.75072873056869" lon="10.234828265733215" id="-33205">
		<tag k="name" v="2.Nøste terrasse" />
		<tag k="ssr:date" v="2019-12-27" />
		<tag k="ssr:gruppe" v="veg" />
		<tag k="ssr:hovedgruppe" v="infrastruktur" />
		<tag k="ssr:stedsnr" v="446769" />
		<tag k="ssr:type" v="adressenavn" />
	</node>
	<node lat="59.75199944614376" lon="10.229427555349643" id="-33208">
		<tag k="name" v="Lorentzens vei" />
		<tag k="ssr:date" v="2019-12-27" />
		<tag k="ssr:gruppe" v="veg" />
		<tag k="ssr:hovedgruppe" v="infrastruktur" />
		<tag k="ssr:stedsnr" v="446870" />
		<tag k="ssr:type" v="adressenavn" />
	</node>
	<node lat="59.75619225820757" lon="10.28922620529629" id="-33209">
		<tag k="name" v="Linnesbakken" />
		<tag k="ssr:date" v="2019-12-27" />
		<tag k="ssr:gruppe" v="veg" />
		<tag k="ssr:hovedgruppe" v="infrastruktur" />
		<tag k="ssr:stedsnr" v="446877" />
		<tag k="ssr:type" v="adressenavn" />
	</node>
	<node lat="59.77618670924828" lon="10.282737035533797" id="-33213">
		<tag k="name" v="Vikerfaret" />
		<tag k="ssr:date" v="2019-12-27" />
		<tag k="ssr:gruppe" v="veg" />
		<tag k="ssr:hovedgruppe" v="infrastruktur" />
		<tag k="ssr:stedsnr" v="446955" />
		<tag k="ssr:type" v="adressenavn" />
	</node>
	<node lat="59.89299002668547" lon="10.290535610655768" id="-33216">
		<tag k="name" v="Skoleveien" />
		<tag k="ssr:date" v="2019-12-27" />
		<tag k="ssr:gruppe" v="veg" />
		<tag k="ssr:hovedgruppe" v="infrastruktur" />
		<tag k="ssr:stedsnr" v="446991" />
		<tag k="ssr:type" v="adressenavn" />
	</node>
	<node lat="59.89271495978162" lon="10.294198953076986" id="-33217">
		<tag k="name" v="Svangshavna" />
		<tag k="ssr:date" v="2019-12-27" />
		<tag k="ssr:gruppe" v="veg" />
		<tag k="ssr:hovedgruppe" v="infrastruktur" />
		<tag k="ssr:stedsnr" v="446993" />
		<tag k="ssr:type" v="adressenavn" />
	</node>
	<node lat="59.89333467643548" lon="10.288403066239454" id="-33218">
		<tag k="name" v="Svanglia" />
		<tag k="ssr:date" v="2019-12-27" />
		<tag k="ssr:gruppe" v="veg" />
		<tag k="ssr:hovedgruppe" v="infrastruktur" />
		<tag k="ssr:stedsnr" v="447000" />
		<tag k="ssr:type" v="adressenavn" />
	</node>
	<node lat="59.821372045537096" lon="10.19716834939336" id="-33242">
		<tag k="name" v="Saggata" />
		<tag k="ssr:date" v="2019-12-27" />
		<tag k="ssr:gruppe" v="veg" />
		<tag k="ssr:hovedgruppe" v="infrastruktur" />
		<tag k="ssr:stedsnr" v="264812" />
		<tag k="ssr:type" v="adressenavn" />
	</node>
	<node lat="59.75946630972899" lon="10.23194408341314" id="-33244">
		<tag k="name" v="Hasselbakken" />
		<tag k="ssr:date" v="2019-12-27" />
		<tag k="ssr:gruppe" v="veg" />
		<tag k="ssr:hovedgruppe" v="infrastruktur" />
		<tag k="ssr:stedsnr" v="264854" />
		<tag k="ssr:type" v="adressenavn" />
	</node>
	<node lat="59.76098545507993" lon="10.22801850198164" id="-33245">
		<tag k="name" v="Ekornveien" />
		<tag k="ssr:date" v="2019-12-27" />
		<tag k="ssr:gruppe" v="veg" />
		<tag k="ssr:hovedgruppe" v="infrastruktur" />
		<tag k="ssr:stedsnr" v="264855" />
		<tag k="ssr:type" v="adressenavn" />
	</node>
	<node lat="59.808459551191824" lon="10.247971309540535" id="-33268">
		<tag k="name" v="Hellumveien" />
		<tag k="ssr:date" v="2019-12-27" />
		<tag k="ssr:gruppe" v="veg" />
		<tag k="ssr:hovedgruppe" v="infrastruktur" />
		<tag k="ssr:stedsnr" v="324734" />
		<tag k="ssr:type" v="adressenavn" />
	</node>
	<node lat="59.804854507031294" lon="10.205173643622857" id="-33269">
		<tag k="name" v="Eriksrudveien" />
		<tag k="ssr:date" v="2019-12-27" />
		<tag k="ssr:gruppe" v="veg" />
		<tag k="ssr:hovedgruppe" v="infrastruktur" />
		<tag k="ssr:stedsnr" v="324744" />
		<tag k="ssr:type" v="adressenavn" />
	</node>
	<node lat="59.81884468330019" lon="10.27925455237769" id="-33274">
		<tag k="name" v="Hansebråtan" />
		<tag k="ssr:date" v="2019-12-27" />
		<tag k="ssr:gruppe" v="veg" />
		<tag k="ssr:hovedgruppe" v="infrastruktur" />
		<tag k="ssr:stedsnr" v="325042" />
		<tag k="ssr:type" v="adressenavn" />
	</node>
	<node lat="59.81634141949129" lon="10.287461500500397" id="-33275">
		<tag k="name" v="Ringveien" />
		<tag k="ssr:date" v="2019-12-27" />
		<tag k="ssr:gruppe" v="veg" />
		<tag k="ssr:hovedgruppe" v="infrastruktur" />
		<tag k="ssr:stedsnr" v="325043" />
		<tag k="ssr:type" v="adressenavn" />
	</node>
	<node lat="59.81244622908722" lon="10.260139346089716" id="-33286">
		<tag k="name" v="Gamle Ringeriksvei" />
		<tag k="ssr:date" v="2019-12-27" />
		<tag k="ssr:gruppe" v="veg" />
		<tag k="ssr:hovedgruppe" v="infrastruktur" />
		<tag k="ssr:stedsnr" v="325397" />
		<tag k="ssr:type" v="adressenavn" />
	</node>
	<node lat="59.74621815820716" lon="10.310763267709316" id="-33291">
		<tag k="name" v="Kovestadveien" />
		<tag k="ssr:date" v="2019-12-27" />
		<tag k="ssr:gruppe" v="veg" />
		<tag k="ssr:hovedgruppe" v="infrastruktur" />
		<tag k="ssr:stedsnr" v="325807" />
		<tag k="ssr:type" v="adressenavn" />
	</node>
	<node lat="59.7492873632673" lon="10.236823497295656" id="-33294">
		<tag k="name" v="2.Eikeli terrasse" />
		<tag k="ssr:date" v="2019-12-27" />
		<tag k="ssr:gruppe" v="veg" />
		<tag k="ssr:hovedgruppe" v="infrastruktur" />
		<tag k="ssr:stedsnr" v="325731" />
		<tag k="ssr:type" v="adressenavn" />
	</node>
	<node lat="59.764561850974026" lon="10.252986567359578" id="-33295">
		<tag k="name" v="Moserudveien" />
		<tag k="ssr:date" v="2019-12-27" />
		<tag k="ssr:gruppe" v="veg" />
		<tag k="ssr:hovedgruppe" v="infrastruktur" />
		<tag k="ssr:stedsnr" v="325737" />
		<tag k="ssr:type" v="adressenavn" />
	</node>
	<node lat="59.80918301212155" lon="10.349202378971027" id="-33316">
		<tag k="name" v="Ulvenveien" />
		<tag k="ssr:date" v="2019-12-27" />
		<tag k="ssr:gruppe" v="veg" />
		<tag k="ssr:hovedgruppe" v="infrastruktur" />
		<tag k="ssr:stedsnr" v="385104" />
		<tag k="ssr:type" v="adressenavn" />
	</node>
	<node lat="59.89481578400753" lon="10.232074950660959" id="-33318">
		<tag k="name" v="Trolldalveien" />
		<tag k="ssr:date" v="2019-12-27" />
		<tag k="ssr:gruppe" v="veg" />
		<tag k="ssr:hovedgruppe" v="infrastruktur" />
		<tag k="ssr:stedsnr" v="385176" />
		<tag k="ssr:type" v="adressenavn" />
	</node>
	<node lat="59.88281762469965" lon="10.246159281984664" id="-33319">
		<tag k="name" v="Bekkeliveien" />
		<tag k="ssr:date" v="2019-12-27" />
		<tag k="ssr:gruppe" v="veg" />
		<tag k="ssr:hovedgruppe" v="infrastruktur" />
		<tag k="ssr:stedsnr" v="385179" />
		<tag k="ssr:type" v="adressenavn" />
	</node>
	<node lat="59.8842423301097" lon="10.238751612252376" id="-33345">
		<tag k="name" v="Tronstadveien" />
		<tag k="ssr:date" v="2019-12-27" />
		<tag k="ssr:gruppe" v="veg" />
		<tag k="ssr:hovedgruppe" v="infrastruktur" />
		<tag k="ssr:stedsnr" v="446204" />
		<tag k="ssr:type" v="adressenavn" />
	</node>
	<node lat="59.92009189721825" lon="10.288568526141116" id="-33350">
		<tag k="name" v="Røineveien" />
		<tag k="ssr:date" v="2019-12-27" />
		<tag k="ssr:gruppe" v="veg" />
		<tag k="ssr:hovedgruppe" v="infrastruktur" />
		<tag k="ssr:stedsnr" v="446511" />
		<tag k="ssr:type" v="adressenavn" />
	</node>
	<node lat="59.78807832543485" lon="10.23603880744083" id="-33353">
		<tag k="name" v="Saueveien" />
		<tag k="ssr:date" v="2019-12-27" />
		<tag k="ssr:gruppe" v="veg" />
		<tag k="ssr:hovedgruppe" v="infrastruktur" />
		<tag k="ssr:stedsnr" v="446786" />
		<tag k="ssr:type" v="adressenavn" />
	</node>
	<node lat="59.76945632028157" lon="10.22545518992609" id="-33354">
		<tag k="name" v="Hauggata" />
		<tag k="ssr:date" v="2019-12-27" />
		<tag k="ssr:gruppe" v="veg" />
		<tag k="ssr:hovedgruppe" v="infrastruktur" />
		<tag k="ssr:stedsnr" v="446792" />
		<tag k="ssr:type" v="adressenavn" />
	</node>
	<node lat="59.78854833178893" lon="10.247413989662274" id="-33355">
		<tag k="name" v="Rønningen" />
		<tag k="ssr:date" v="2019-12-27" />
		<tag k="ssr:gruppe" v="veg" />
		<tag k="ssr:hovedgruppe" v="infrastruktur" />
		<tag k="ssr:stedsnr" v="446797" />
		<tag k="ssr:type" v="adressenavn" />
	</node>
	<node lat="59.79009224024198" lon="10.24782208587575" id="-33356">
		<tag k="name" v="Elveveien" />
		<tag k="ssr:date" v="2019-12-27" />
		<tag k="ssr:gruppe" v="veg" />
		<tag k="ssr:hovedgruppe" v="infrastruktur" />
		<tag k="ssr:stedsnr" v="446799" />
		<tag k="ssr:type" v="adressenavn" />
	</node>
	<node lat="59.77445793091408" lon="10.287687789946727" id="-33359">
		<tag k="name" v="Huldrestien" />
		<tag k="ssr:date" v="2019-12-27" />
		<tag k="ssr:gruppe" v="veg" />
		<tag k="ssr:hovedgruppe" v="infrastruktur" />
		<tag k="ssr:stedsnr" v="446945" />
		<tag k="ssr:type" v="adressenavn" />
	</node>
	<node lat="59.791666811155" lon="10.22924031151784" id="-33364">
		<tag k="name" v="Helgerudkroken" />
		<tag k="ssr:date" v="2019-12-27" />
		<tag k="ssr:gruppe" v="veg" />
		<tag k="ssr:hovedgruppe" v="infrastruktur" />
		<tag k="ssr:stedsnr" v="446803" />
		<tag k="ssr:type" v="adressenavn" />
	</node>
	<node lat="59.86877052026321" lon="10.219827556972218" id="-33365">
		<tag k="name" v="Bråtåsveien" />
		<tag k="ssr:date" v="2019-12-27" />
		<tag k="ssr:gruppe" v="veg" />
		<tag k="ssr:hovedgruppe" v="infrastruktur" />
		<tag k="ssr:stedsnr" v="446818" />
		<tag k="ssr:type" v="adressenavn" />
	</node>
	<node lat="59.74580061827559" lon="10.230473024180647" id="-33366">
		<tag k="name" v="Nøsteveien" />
		<tag k="ssr:date" v="2019-12-27" />
		<tag k="ssr:gruppe" v="veg" />
		<tag k="ssr:hovedgruppe" v="infrastruktur" />
		<tag k="ssr:stedsnr" v="446886" />
		<tag k="ssr:type" v="adressenavn" />
	</node>
	<node lat="59.747744276722855" lon="10.240013683981475" id="-33411">
		<tag k="name" v="Lierstranda" />
		<tag k="ssr:date" v="2019-12-27" />
		<tag k="ssr:gruppe" v="veg" />
		<tag k="ssr:hovedgruppe" v="infrastruktur" />
		<tag k="ssr:stedsnr" v="506884" />
		<tag k="ssr:type" v="adressenavn" />
	</node>
	<node lat="59.81059843674194" lon="10.31539290707464" id="-33413">
		<tag k="name" v="Østre Kjennervei" />
		<tag k="ssr:date" v="2019-12-27" />
		<tag k="ssr:gruppe" v="veg" />
		<tag k="ssr:hovedgruppe" v="infrastruktur" />
		<tag k="ssr:stedsnr" v="507071" />
		<tag k="ssr:type" v="adressenavn" />
	</node>
	<node lat="59.84958631543259" lon="10.215969349509455" id="-33420">
		<tag k="name" v="Hakavollveien" />
		<tag k="ssr:date" v="2019-12-27" />
		<tag k="ssr:gruppe" v="veg" />
		<tag k="ssr:hovedgruppe" v="infrastruktur" />
		<tag k="ssr:stedsnr" v="507353" />
		<tag k="ssr:type" v="adressenavn" />
	</node>
	<node lat="59.80859392696376" lon="10.271143680194164" id="-33425">
		<tag k="name" v="Barlindveien" />
		<tag k="ssr:date" v="2019-12-27" />
		<tag k="ssr:gruppe" v="veg" />
		<tag k="ssr:hovedgruppe" v="infrastruktur" />
		<tag k="ssr:stedsnr" v="507802" />
		<tag k="ssr:type" v="adressenavn" />
	</node>
	<node lat="59.86476119081185" lon="10.219770972136761" id="-33426">
		<tag k="name" v="Gifstadbråtan" />
		<tag k="ssr:date" v="2019-12-27" />
		<tag k="ssr:gruppe" v="veg" />
		<tag k="ssr:hovedgruppe" v="infrastruktur" />
		<tag k="ssr:stedsnr" v="507814" />
		<tag k="ssr:type" v="adressenavn" />
	</node>
	<node lat="59.757837611250785" lon="10.290490369514547" id="-33427">
		<tag k="name" v="Sørumlia" />
		<tag k="ssr:date" v="2019-12-27" />
		<tag k="ssr:gruppe" v="veg" />
		<tag k="ssr:hovedgruppe" v="infrastruktur" />
		<tag k="ssr:stedsnr" v="507865" />
		<tag k="ssr:type" v="adressenavn" />
	</node>
	<node lat="59.82382600978412" lon="10.337241682194273" id="-33428">
		<tag k="name" v="Elvebakken" />
		<tag k="ssr:date" v="2019-12-27" />
		<tag k="ssr:gruppe" v="veg" />
		<tag k="ssr:hovedgruppe" v="infrastruktur" />
		<tag k="ssr:stedsnr" v="507875" />
		<tag k="ssr:type" v="adressenavn" />
	</node>
	<node lat="59.808102183162724" lon="10.261603715418875" id="-33471">
		<tag k="name" v="Båhusveien" />
		<tag k="ssr:date" v="2019-12-27" />
		<tag k="ssr:gruppe" v="veg" />
		<tag k="ssr:hovedgruppe" v="infrastruktur" />
		<tag k="ssr:stedsnr" v="567803" />
		<tag k="ssr:type" v="adressenavn" />
	</node>
	<node lat="59.8627905514992" lon="10.215420238236126" id="-33472">
		<tag k="name" v="Oddevallveien" />
		<tag k="ssr:date" v="2019-12-27" />
		<tag k="ssr:gruppe" v="veg" />
		<tag k="ssr:hovedgruppe" v="infrastruktur" />
		<tag k="ssr:stedsnr" v="567811" />
		<tag k="ssr:type" v="adressenavn" />
	</node>
	<node lat="59.82388332858322" lon="10.326985639801277" id="-33504">
		<tag k="name" v="Øvre Morenevei" />
		<tag k="ssr:date" v="2019-12-27" />
		<tag k="ssr:gruppe" v="veg" />
		<tag k="ssr:hovedgruppe" v="infrastruktur" />
		<tag k="ssr:stedsnr" v="689098" />
		<tag k="ssr:type" v="adressenavn" />
	</node>
	<node lat="59.82331708828556" lon="10.287577136930018" id="-33506">
		<tag k="name" v="Maurrudløkka" />
		<tag k="ssr:date" v="2019-12-27" />
		<tag k="ssr:gruppe" v="veg" />
		<tag k="ssr:hovedgruppe" v="infrastruktur" />
		<tag k="ssr:stedsnr" v="689066" />
		<tag k="ssr:type" v="adressenavn" />
	</node>
	<node lat="59.82124722066268" lon="10.338822228559028" id="-33507">
		<tag k="name" v="Øgårdsveien" />
		<tag k="ssr:date" v="2019-12-27" />
		<tag k="ssr:gruppe" v="veg" />
		<tag k="ssr:hovedgruppe" v="infrastruktur" />
		<tag k="ssr:stedsnr" v="689077" />
		<tag k="ssr:type" v="adressenavn" />
	</node>
	<node lat="59.89727459581117" lon="10.294753230261696" id="-33514">
		<tag k="name" v="Gamle Stasjonsvei" />
		<tag k="ssr:date" v="2019-12-27" />
		<tag k="ssr:gruppe" v="veg" />
		<tag k="ssr:hovedgruppe" v="infrastruktur" />
		<tag k="ssr:stedsnr" v="689513" />
		<tag k="ssr:type" v="adressenavn" />
	</node>
	<node lat="59.77883559052217" lon="10.24497843444882" id="-33520">
		<tag k="name" v="Hegsbroveien" />
		<tag k="ssr:date" v="2019-12-27" />
		<tag k="ssr:gruppe" v="veg" />
		<tag k="ssr:hovedgruppe" v="infrastruktur" />
		<tag k="ssr:stedsnr" v="689750" />
		<tag k="ssr:type" v="adressenavn" />
	</node>
	<node lat="59.89749094623717" lon="10.277452756658622" id="-33521">
		<tag k="name" v="Kirkerudveien" />
		<tag k="ssr:date" v="2019-12-27" />
		<tag k="ssr:gruppe" v="veg" />
		<tag k="ssr:hovedgruppe" v="infrastruktur" />
		<tag k="ssr:stedsnr" v="689515" />
		<tag k="ssr:type" v="adressenavn" />
	</node>
	<node lat="59.905826639600434" lon="10.263376475608279" id="-33522">
		<tag k="name" v="Dambråtan" />
		<tag k="ssr:date" v="2019-12-27" />
		<tag k="ssr:gruppe" v="veg" />
		<tag k="ssr:hovedgruppe" v="infrastruktur" />
		<tag k="ssr:stedsnr" v="689519" />
		<tag k="ssr:type" v="adressenavn" />
	</node>
	<node lat="59.788452365659424" lon="10.240526609983569" id="-33526">
		<tag k="name" v="Østre Eikenga" />
		<tag k="ssr:date" v="2019-12-27" />
		<tag k="ssr:gruppe" v="veg" />
		<tag k="ssr:hovedgruppe" v="infrastruktur" />
		<tag k="ssr:stedsnr" v="689754" />
		<tag k="ssr:type" v="adressenavn" />
	</node>
	<node lat="59.80951796674587" lon="10.26087381448928" id="-33527">
		<tag k="name" v="Kirkesvingen" />
		<tag k="ssr:date" v="2019-12-27" />
		<tag k="ssr:gruppe" v="veg" />
		<tag k="ssr:hovedgruppe" v="infrastruktur" />
		<tag k="ssr:stedsnr" v="689769" />
		<tag k="ssr:type" v="adressenavn" />
	</node>
	<node lat="59.74936673710541" lon="10.319362954589511" id="-33528">
		<tag k="name" v="Skapertjernveien" />
		<tag k="ssr:date" v="2019-12-27" />
		<tag k="ssr:gruppe" v="veg" />
		<tag k="ssr:hovedgruppe" v="infrastruktur" />
		<tag k="ssr:stedsnr" v="689831" />
		<tag k="ssr:type" v="adressenavn" />
	</node>
	<node lat="59.75590444588261" lon="10.272428291576421" id="-33529">
		<tag k="name" v="Husebygata" />
		<tag k="ssr:date" v="2019-12-27" />
		<tag k="ssr:gruppe" v="veg" />
		<tag k="ssr:hovedgruppe" v="infrastruktur" />
		<tag k="ssr:stedsnr" v="689850" />
		<tag k="ssr:type" v="adressenavn" />
	</node>
	<node lat="59.93157551809683" lon="10.270237673032502" id="-33534">
		<tag k="name" v="Nedre Skustadvei" />
		<tag k="ssr:date" v="2019-12-27" />
		<tag k="ssr:gruppe" v="veg" />
		<tag k="ssr:hovedgruppe" v="infrastruktur" />
		<tag k="ssr:stedsnr" v="690728" />
		<tag k="ssr:type" v="adressenavn" />
	</node>
	<node lat="59.8075061903225" lon="10.2197288844388" id="-33536">
		<tag k="name" v="Askveien" />
		<tag k="ssr:date" v="2019-12-27" />
		<tag k="ssr:gruppe" v="veg" />
		<tag k="ssr:hovedgruppe" v="infrastruktur" />
		<tag k="ssr:stedsnr" v="627764" />
		<tag k="ssr:type" v="adressenavn" />
	</node>
	<node lat="59.791459946562156" lon="10.224344154001095" id="-33537">
		<tag k="name" v="Bergflødtveien" />
		<tag k="ssr:date" v="2019-12-27" />
		<tag k="ssr:gruppe" v="veg" />
		<tag k="ssr:hovedgruppe" v="infrastruktur" />
		<tag k="ssr:stedsnr" v="627766" />
		<tag k="ssr:type" v="adressenavn" />
	</node>
	<node lat="59.7447341786097" lon="10.233985627677502" id="-33538">
		<tag k="name" v="Strandveien" />
		<tag k="ssr:date" v="2019-12-27" />
		<tag k="ssr:gruppe" v="veg" />
		<tag k="ssr:hovedgruppe" v="infrastruktur" />
		<tag k="ssr:stedsnr" v="627913" />
		<tag k="ssr:type" v="adressenavn" />
	</node>
	<node lat="59.74746631749276" lon="10.243178769124658" id="-33539">
		<tag k="name" v="Strandbrua" />
		<tag k="ssr:date" v="2019-12-27" />
		<tag k="ssr:gruppe" v="veg" />
		<tag k="ssr:hovedgruppe" v="infrastruktur" />
		<tag k="ssr:stedsnr" v="627914" />
		<tag k="ssr:type" v="adressenavn" />
	</node>
	<node lat="59.817402879825266" lon="10.32768487584898" id="-33544">
		<tag k="name" v="Gamle Drammensvei" />
		<tag k="ssr:date" v="2019-12-27" />
		<tag k="ssr:gruppe" v="veg" />
		<tag k="ssr:hovedgruppe" v="infrastruktur" />
		<tag k="ssr:stedsnr" v="628072" />
		<tag k="ssr:type" v="adressenavn" />
	</node>
	<node lat="59.81967494039139" lon="10.327604207854812" id="-33545">
		<tag k="name" v="Ovenstadveien" />
		<tag k="ssr:date" v="2019-12-27" />
		<tag k="ssr:gruppe" v="veg" />
		<tag k="ssr:hovedgruppe" v="infrastruktur" />
		<tag k="ssr:stedsnr" v="628073" />
		<tag k="ssr:type" v="adressenavn" />
	</node>
	<node lat="59.758698075895325" lon="10.288870838485847" id="-33562">
		<tag k="name" v="Tuverudstien" />
		<tag k="ssr:date" v="2019-12-27" />
		<tag k="ssr:gruppe" v="veg" />
		<tag k="ssr:hovedgruppe" v="infrastruktur" />
		<tag k="ssr:stedsnr" v="628832" />
		<tag k="ssr:type" v="adressenavn" />
	</node>
	<node lat="59.763373535775465" lon="10.288399584722693" id="-33563">
		<tag k="name" v="Tunnelveien" />
		<tag k="ssr:date" v="2019-12-27" />
		<tag k="ssr:gruppe" v="veg" />
		<tag k="ssr:hovedgruppe" v="infrastruktur" />
		<tag k="ssr:stedsnr" v="628850" />
		<tag k="ssr:type" v="adressenavn" />
	</node>
	<node lat="59.77726645810469" lon="10.288976805299018" id="-33567">
		<tag k="name" v="Bekkefaret" />
		<tag k="ssr:date" v="2019-12-27" />
		<tag k="ssr:gruppe" v="veg" />
		<tag k="ssr:hovedgruppe" v="infrastruktur" />
		<tag k="ssr:stedsnr" v="628921" />
		<tag k="ssr:type" v="adressenavn" />
	</node>
	<node lat="59.80777026494056" lon="10.299644940173694" id="-33568">
		<tag k="name" v="Gjellebekkstubben" />
		<tag k="ssr:date" v="2019-12-27" />
		<tag k="ssr:gruppe" v="veg" />
		<tag k="ssr:hovedgruppe" v="infrastruktur" />
		<tag k="ssr:stedsnr" v="628926" />
		<tag k="ssr:type" v="adressenavn" />
	</node>
	<node lat="59.82524583072751" lon="10.28935301799687" id="-33591">
		<tag k="name" v="Haugane" />
		<tag k="ssr:date" v="2019-12-27" />
		<tag k="ssr:gruppe" v="veg" />
		<tag k="ssr:hovedgruppe" v="infrastruktur" />
		<tag k="ssr:stedsnr" v="689038" />
		<tag k="ssr:type" v="adressenavn" />
	</node>
	<node lat="59.816952849972225" lon="10.272996654558833" id="-33592">
		<tag k="name" v="Dølasletta" />
		<tag k="ssr:date" v="2019-12-27" />
		<tag k="ssr:gruppe" v="veg" />
		<tag k="ssr:hovedgruppe" v="infrastruktur" />
		<tag k="ssr:stedsnr" v="689050" />
		<tag k="ssr:type" v="adressenavn" />
	</node>
	<node lat="59.788388500437925" lon="10.23955459902046" id="-33599">
		<tag k="name" v="Haugestadbakken" />
		<tag k="ssr:date" v="2019-12-27" />
		<tag k="ssr:gruppe" v="veg" />
		<tag k="ssr:hovedgruppe" v="infrastruktur" />
		<tag k="ssr:stedsnr" v="689739" />
		<tag k="ssr:type" v="adressenavn" />
	</node>
	<node lat="59.76080383678026" lon="10.292965640946385" id="-33601">
		<tag k="name" v="Gruveveien" />
		<tag k="ssr:date" v="2019-12-27" />
		<tag k="ssr:gruppe" v="veg" />
		<tag k="ssr:hovedgruppe" v="infrastruktur" />
		<tag k="ssr:stedsnr" v="689822" />
		<tag k="ssr:type" v="adressenavn" />
	</node>
	<node lat="59.72464531698951" lon="10.312836772685591" id="-33604">
		<tag k="name" v="Nedre Lahellvei" />
		<tag k="ssr:date" v="2020-05-28" />
		<tag k="ssr:gruppe" v="veg" />
		<tag k="ssr:hovedgruppe" v="infrastruktur" />
		<tag k="ssr:stedsnr" v="689839" />
		<tag k="ssr:type" v="adressenavn" />
	</node>
	<node lat="59.77553387441317" lon="10.288845102944984" id="-33607">
		<tag k="name" v="Sommerroveien" />
		<tag k="ssr:date" v="2019-12-27" />
		<tag k="ssr:gruppe" v="veg" />
		<tag k="ssr:hovedgruppe" v="infrastruktur" />
		<tag k="ssr:stedsnr" v="689936" />
		<tag k="ssr:type" v="adressenavn" />
	</node>
	<node lat="59.945796004714104" lon="10.285078727561217" id="-33610">
		<tag k="name" v="Tømteveien" />
		<tag k="ssr:date" v="2019-12-27" />
		<tag k="ssr:gruppe" v="veg" />
		<tag k="ssr:hovedgruppe" v="infrastruktur" />
		<tag k="ssr:stedsnr" v="690332" />
		<tag k="ssr:type" v="adressenavn" />
	</node>
	<node lat="59.81111254599092" lon="10.264757651382538" id="-33649">
		<tag k="name" v="Syrinveien" />
		<tag k="ssr:date" v="2019-12-27" />
		<tag k="ssr:gruppe" v="veg" />
		<tag k="ssr:hovedgruppe" v="infrastruktur" />
		<tag k="ssr:stedsnr" v="749067" />
		<tag k="ssr:type" v="adressenavn" />
	</node>
	<node lat="59.81070080330258" lon="10.261248390929907" id="-33650">
		<tag k="name" v="Roseveien" />
		<tag k="ssr:date" v="2019-12-27" />
		<tag k="ssr:gruppe" v="veg" />
		<tag k="ssr:hovedgruppe" v="infrastruktur" />
		<tag k="ssr:stedsnr" v="749069" />
		<tag k="ssr:type" v="adressenavn" />
	</node>
	<node lat="59.81957962247159" lon="10.333797571133836" id="-33651">
		<tag k="name" v="Rypeveien" />
		<tag k="ssr:date" v="2019-12-27" />
		<tag k="ssr:gruppe" v="veg" />
		<tag k="ssr:hovedgruppe" v="infrastruktur" />
		<tag k="ssr:stedsnr" v="749085" />
		<tag k="ssr:type" v="adressenavn" />
	</node>
	<node lat="59.82269295531908" lon="10.254228539906046" id="-33655">
		<tag k="name" v="Buttedalveien" />
		<tag k="ssr:date" v="2019-12-27" />
		<tag k="ssr:gruppe" v="veg" />
		<tag k="ssr:hovedgruppe" v="infrastruktur" />
		<tag k="ssr:stedsnr" v="749421" />
		<tag k="ssr:type" v="adressenavn" />
	</node>
	<node lat="59.77145430278435" lon="10.287678605347823" id="-33658">
		<tag k="name" v="Sørumveien" />
		<tag k="ssr:date" v="2019-12-27" />
		<tag k="ssr:gruppe" v="veg" />
		<tag k="ssr:hovedgruppe" v="infrastruktur" />
		<tag k="ssr:stedsnr" v="749604" />
		<tag k="ssr:type" v="adressenavn" />
	</node>
	<node lat="59.80918829683869" lon="10.205812372807705" id="-33659">
		<tag k="name" v="Nordre Askvei" />
		<tag k="ssr:date" v="2019-12-27" />
		<tag k="ssr:gruppe" v="veg" />
		<tag k="ssr:hovedgruppe" v="infrastruktur" />
		<tag k="ssr:stedsnr" v="749822" />
		<tag k="ssr:type" v="adressenavn" />
	</node>
	<node lat="59.78937225746418" lon="10.233500073709253" id="-33660">
		<tag k="name" v="Vestre Eikenga" />
		<tag k="ssr:date" v="2019-12-27" />
		<tag k="ssr:gruppe" v="veg" />
		<tag k="ssr:hovedgruppe" v="infrastruktur" />
		<tag k="ssr:stedsnr" v="749825" />
		<tag k="ssr:type" v="adressenavn" />
	</node>
	<node lat="59.76169947643634" lon="10.292759105691292" id="-33661">
		<tag k="name" v="Konglestien" />
		<tag k="ssr:date" v="2019-12-27" />
		<tag k="ssr:gruppe" v="veg" />
		<tag k="ssr:hovedgruppe" v="infrastruktur" />
		<tag k="ssr:stedsnr" v="749876" />
		<tag k="ssr:type" v="adressenavn" />
	</node>
	<node lat="59.74829944759857" lon="10.241426564267437" id="-33665">
		<tag k="name" v="Cæsar Boecks gate" />
		<tag k="ssr:date" v="2019-12-27" />
		<tag k="ssr:gruppe" v="veg" />
		<tag k="ssr:hovedgruppe" v="infrastruktur" />
		<tag k="ssr:stedsnr" v="749781" />
		<tag k="ssr:type" v="adressenavn" />
	</node>
	<node lat="59.80515631934026" lon="10.267603742362697" id="-33666">
		<tag k="name" v="Røsslyngveien" />
		<tag k="ssr:date" v="2019-12-27" />
		<tag k="ssr:gruppe" v="veg" />
		<tag k="ssr:hovedgruppe" v="infrastruktur" />
		<tag k="ssr:stedsnr" v="749968" />
		<tag k="ssr:type" v="adressenavn" />
	</node>
	<node lat="59.82366292009052" lon="10.272622852372294" id="-33691">
		<tag k="name" v="Svenskerudveien" />
		<tag k="ssr:date" v="2019-12-27" />
		<tag k="ssr:gruppe" v="veg" />
		<tag k="ssr:hovedgruppe" v="infrastruktur" />
		<tag k="ssr:stedsnr" v="810050" />
		<tag k="ssr:type" v="adressenavn" />
	</node>
	<node lat="59.80939859226672" lon="10.325583487013104" id="-33692">
		<tag k="name" v="Bråtaveien" />
		<tag k="ssr:date" v="2019-12-27" />
		<tag k="ssr:gruppe" v="veg" />
		<tag k="ssr:hovedgruppe" v="infrastruktur" />
		<tag k="ssr:stedsnr" v="810104" />
		<tag k="ssr:type" v="adressenavn" />
	</node>
	<node lat="59.82269295531908" lon="10.254228539906046" id="-33694">
		<tag k="name" v="Funnesdalveien" />
		<tag k="ssr:date" v="2019-12-27" />
		<tag k="ssr:gruppe" v="veg" />
		<tag k="ssr:hovedgruppe" v="infrastruktur" />
		<tag k="ssr:stedsnr" v="810137" />
		<tag k="ssr:type" v="adressenavn" />
	</node>
	<node lat="59.881844410380104" lon="10.258717297555531" id="-33696">
		<tag k="name" v="Skjeggeruddalen" />
		<tag k="ssr:date" v="2019-12-27" />
		<tag k="ssr:gruppe" v="veg" />
		<tag k="ssr:hovedgruppe" v="infrastruktur" />
		<tag k="ssr:stedsnr" v="810187" />
		<tag k="ssr:type" v="adressenavn" />
	</node>
	<node lat="59.80180578832327" lon="10.216309669559138" id="-33700">
		<tag k="name" v="Søndre Eggevei" />
		<tag k="ssr:date" v="2019-12-27" />
		<tag k="ssr:gruppe" v="veg" />
		<tag k="ssr:hovedgruppe" v="infrastruktur" />
		<tag k="ssr:stedsnr" v="810384" />
		<tag k="ssr:type" v="adressenavn" />
	</node>
	<node lat="59.8223300562742" lon="10.346060468951782" id="-33747">
		<tag k="name" v="Stabekkveien" />
		<tag k="ssr:date" v="2019-12-27" />
		<tag k="ssr:gruppe" v="veg" />
		<tag k="ssr:hovedgruppe" v="infrastruktur" />
		<tag k="ssr:stedsnr" v="871080" />
		<tag k="ssr:type" v="adressenavn" />
	</node>
	<node lat="59.806709060618076" lon="10.26725394460718" id="-33757">
		<tag k="name" v="Skjeggerudveien" />
		<tag k="ssr:date" v="2019-12-27" />
		<tag k="ssr:gruppe" v="veg" />
		<tag k="ssr:hovedgruppe" v="infrastruktur" />
		<tag k="ssr:stedsnr" v="871938" />
		<tag k="ssr:type" v="adressenavn" />
	</node>
	<node lat="59.80775631645274" lon="10.27123542197943" id="-33789">
		<tag k="name" v="Joseph Kellers vei" />
		<tag k="ssr:date" v="2019-12-27" />
		<tag k="ssr:gruppe" v="veg" />
		<tag k="ssr:hovedgruppe" v="infrastruktur" />
		<tag k="ssr:stedsnr" v="932056" />
		<tag k="ssr:type" v="adressenavn" />
	</node>
	<node lat="59.82844295356872" lon="10.284014431811697" id="-33791">
		<tag k="name" v="Rotuveien" />
		<tag k="ssr:date" v="2019-12-27" />
		<tag k="ssr:gruppe" v="veg" />
		<tag k="ssr:hovedgruppe" v="infrastruktur" />
		<tag k="ssr:stedsnr" v="932095" />
		<tag k="ssr:type" v="adressenavn" />
	</node>
	<node lat="59.753433927566014" lon="10.23114786940712" id="-33801">
		<tag k="name" v="Bruusgaards vei" />
		<tag k="ssr:date" v="2019-12-27" />
		<tag k="ssr:gruppe" v="veg" />
		<tag k="ssr:hovedgruppe" v="infrastruktur" />
		<tag k="ssr:stedsnr" v="932709" />
		<tag k="ssr:type" v="adressenavn" />
	</node>
	<node lat="59.7713547827302" lon="10.222998580594986" id="-33802">
		<tag k="name" v="Vivelstadveien" />
		<tag k="ssr:date" v="2019-12-27" />
		<tag k="ssr:gruppe" v="veg" />
		<tag k="ssr:hovedgruppe" v="infrastruktur" />
		<tag k="ssr:stedsnr" v="932752" />
		<tag k="ssr:type" v="adressenavn" />
	</node>
	<node lat="59.80336837327312" lon="10.266536560168632" id="-33804">
		<tag k="name" v="Ospeveien" />
		<tag k="ssr:date" v="2019-12-27" />
		<tag k="ssr:gruppe" v="veg" />
		<tag k="ssr:hovedgruppe" v="infrastruktur" />
		<tag k="ssr:stedsnr" v="932942" />
		<tag k="ssr:type" v="adressenavn" />
	</node>
	<node lat="59.72639312759118" lon="10.314313676824673" id="-33808">
		<tag k="name" v="Lahelldammen" />
		<tag k="ssr:date" v="2019-12-27" />
		<tag k="ssr:gruppe" v="veg" />
		<tag k="ssr:hovedgruppe" v="infrastruktur" />
		<tag k="ssr:stedsnr" v="932805" />
		<tag k="ssr:type" v="adressenavn" />
	</node>
	<node lat="59.76148832356621" lon="10.29156217814323" id="-33809">
		<tag k="name" v="Seljestien" />
		<tag k="ssr:date" v="2019-12-27" />
		<tag k="ssr:gruppe" v="veg" />
		<tag k="ssr:hovedgruppe" v="infrastruktur" />
		<tag k="ssr:stedsnr" v="932842" />
		<tag k="ssr:type" v="adressenavn" />
	</node>
	<node lat="59.758711301166215" lon="10.288748449317447" id="-33811">
		<tag k="name" v="Gamle Tuverudvei" />
		<tag k="ssr:date" v="2019-12-27" />
		<tag k="ssr:gruppe" v="veg" />
		<tag k="ssr:hovedgruppe" v="infrastruktur" />
		<tag k="ssr:stedsnr" v="932846" />
		<tag k="ssr:type" v="adressenavn" />
	</node>
	<node lat="59.78560062108783" lon="10.244233282252923" id="-33842">
		<tag k="name" v="Vestsideveien" />
		<tag k="ssr:date" v="2019-12-27" />
		<tag k="ssr:gruppe" v="veg" />
		<tag k="ssr:hovedgruppe" v="infrastruktur" />
		<tag k="ssr:stedsnr" v="20755" />
		<tag k="ssr:type" v="adressenavn" />
	</node>
	<node lat="59.80492904894929" lon="10.257243378766065" id="-33844">
		<tag k="name" v="Overnveien" />
		<tag k="ssr:date" v="2019-12-27" />
		<tag k="ssr:gruppe" v="veg" />
		<tag k="ssr:hovedgruppe" v="infrastruktur" />
		<tag k="ssr:stedsnr" v="20769" />
		<tag k="ssr:type" v="adressenavn" />
	</node>
	<node lat="59.83345962931695" lon="10.320291491564566" id="-33847">
		<tag k="name" v="Ekebergveien" />
		<tag k="ssr:date" v="2019-12-27" />
		<tag k="ssr:gruppe" v="veg" />
		<tag k="ssr:hovedgruppe" v="infrastruktur" />
		<tag k="ssr:stedsnr" v="21113" />
		<tag k="ssr:type" v="adressenavn" />
	</node>
	<node lat="59.86216079795711" lon="10.213977061467498" id="-33852">
		<tag k="name" v="Glitreveien" />
		<tag k="ssr:date" v="2019-12-27" />
		<tag k="ssr:gruppe" v="veg" />
		<tag k="ssr:hovedgruppe" v="infrastruktur" />
		<tag k="ssr:stedsnr" v="21273" />
		<tag k="ssr:type" v="adressenavn" />
	</node>
	<node lat="59.81212276277874" lon="10.313798576522567" id="-33857">
		<tag k="name" v="Kjennerudveien" />
		<tag k="ssr:date" v="2019-12-27" />
		<tag k="ssr:gruppe" v="veg" />
		<tag k="ssr:hovedgruppe" v="infrastruktur" />
		<tag k="ssr:stedsnr" v="21058" />
		<tag k="ssr:type" v="adressenavn" />
	</node>
	<node lat="59.82600475664024" lon="10.255901866344775" id="-33860">
		<tag k="name" v="Haugveien" />
		<tag k="ssr:date" v="2019-12-27" />
		<tag k="ssr:gruppe" v="veg" />
		<tag k="ssr:hovedgruppe" v="infrastruktur" />
		<tag k="ssr:stedsnr" v="21422" />
		<tag k="ssr:type" v="adressenavn" />
	</node>
	<node lat="59.757926310659094" lon="10.2934298350613" id="-33864">
		<tag k="name" v="Blåveisstien" />
		<tag k="ssr:date" v="2019-12-27" />
		<tag k="ssr:gruppe" v="veg" />
		<tag k="ssr:hovedgruppe" v="infrastruktur" />
		<tag k="ssr:stedsnr" v="21852" />
		<tag k="ssr:type" v="adressenavn" />
	</node>
	<node lat="59.767240324102985" lon="10.246505546468395" id="-33868">
		<tag k="name" v="Kjellstadhageveien" />
		<tag k="ssr:date" v="2019-12-27" />
		<tag k="ssr:gruppe" v="veg" />
		<tag k="ssr:hovedgruppe" v="infrastruktur" />
		<tag k="ssr:stedsnr" v="21771" />
		<tag k="ssr:type" v="adressenavn" />
	</node>
	<node lat="59.93131997158734" lon="10.27045012083518" id="-33871">
		<tag k="name" v="Øvre Skustadvei" />
		<tag k="ssr:date" v="2019-12-27" />
		<tag k="ssr:gruppe" v="veg" />
		<tag k="ssr:hovedgruppe" v="infrastruktur" />
		<tag k="ssr:stedsnr" v="21564" />
		<tag k="ssr:type" v="adressenavn" />
	</node>
	<node lat="59.90415283290724" lon="10.262405186726674" id="-33873">
		<tag k="name" v="Skogliveien" />
		<tag k="ssr:date" v="2019-12-27" />
		<tag k="ssr:gruppe" v="veg" />
		<tag k="ssr:hovedgruppe" v="infrastruktur" />
		<tag k="ssr:stedsnr" v="21580" />
		<tag k="ssr:type" v="adressenavn" />
	</node>
	<node lat="59.72951939261687" lon="10.310212921414188" id="-33874">
		<tag k="name" v="Bergliveien" />
		<tag k="ssr:date" v="2019-12-27" />
		<tag k="ssr:gruppe" v="veg" />
		<tag k="ssr:hovedgruppe" v="infrastruktur" />
		<tag k="ssr:stedsnr" v="21824" />
		<tag k="ssr:type" v="adressenavn" />
	</node>
	<node lat="59.76072445910183" lon="10.27385904401204" id="-33876">
		<tag k="name" v="Sankt Hallvards vei" />
		<tag k="ssr:date" v="2019-12-27" />
		<tag k="ssr:gruppe" v="veg" />
		<tag k="ssr:hovedgruppe" v="infrastruktur" />
		<tag k="ssr:stedsnr" v="21893" />
		<tag k="ssr:type" v="adressenavn" />
	</node>
	<node lat="59.75208553509835" lon="10.269272359807982" id="-33883">
		<tag k="name" v="Gilhusveien" />
		<tag k="ssr:date" v="2019-12-27" />
		<tag k="ssr:gruppe" v="veg" />
		<tag k="ssr:hovedgruppe" v="infrastruktur" />
		<tag k="ssr:stedsnr" v="22863" />
		<tag k="ssr:type" v="adressenavn" />
	</node>
	<node lat="59.791534721331146" lon="10.250621853247008" id="-33915">
		<tag k="name" v="Haskollveien" />
		<tag k="ssr:date" v="2019-12-27" />
		<tag k="ssr:gruppe" v="veg" />
		<tag k="ssr:hovedgruppe" v="infrastruktur" />
		<tag k="ssr:stedsnr" v="81751" />
		<tag k="ssr:type" v="adressenavn" />
	</node>
	<node lat="59.881849349647155" lon="10.24430914836833" id="-33919">
		<tag k="name" v="Delekantbakken" />
		<tag k="ssr:date" v="2019-12-27" />
		<tag k="ssr:gruppe" v="veg" />
		<tag k="ssr:hovedgruppe" v="infrastruktur" />
		<tag k="ssr:stedsnr" v="82170" />
		<tag k="ssr:type" v="adressenavn" />
	</node>
	<node lat="59.817374526882084" lon="10.281995506803327" id="-33920">
		<tag k="name" v="Gunnersbråtan" />
		<tag k="ssr:date" v="2019-12-27" />
		<tag k="ssr:gruppe" v="veg" />
		<tag k="ssr:hovedgruppe" v="infrastruktur" />
		<tag k="ssr:stedsnr" v="82051" />
		<tag k="ssr:type" v="adressenavn" />
	</node>
	<node lat="59.81937465796109" lon="10.281287046894244" id="-33921">
		<tag k="name" v="Martinshaugen" />
		<tag k="ssr:date" v="2019-12-27" />
		<tag k="ssr:gruppe" v="veg" />
		<tag k="ssr:hovedgruppe" v="infrastruktur" />
		<tag k="ssr:stedsnr" v="82058" />
		<tag k="ssr:type" v="adressenavn" />
	</node>
	<node lat="59.83099298708051" lon="10.320709729155613" id="-33922">
		<tag k="name" v="Langelandveien" />
		<tag k="ssr:date" v="2019-12-27" />
		<tag k="ssr:gruppe" v="veg" />
		<tag k="ssr:hovedgruppe" v="infrastruktur" />
		<tag k="ssr:stedsnr" v="82060" />
		<tag k="ssr:type" v="adressenavn" />
	</node>
	<node lat="59.81304929163006" lon="10.265558280589095" id="-33924">
		<tag k="name" v="Hyllveien" />
		<tag k="ssr:date" v="2019-12-27" />
		<tag k="ssr:gruppe" v="veg" />
		<tag k="ssr:hovedgruppe" v="infrastruktur" />
		<tag k="ssr:stedsnr" v="82070" />
		<tag k="ssr:type" v="adressenavn" />
	</node>
	<node lat="59.81456277985387" lon="10.293039807212372" id="-33926">
		<tag k="name" v="Høgdabakkene" />
		<tag k="ssr:date" v="2019-12-27" />
		<tag k="ssr:gruppe" v="veg" />
		<tag k="ssr:hovedgruppe" v="infrastruktur" />
		<tag k="ssr:stedsnr" v="82624" />
		<tag k="ssr:type" v="adressenavn" />
	</node>
	<node lat="59.84986223098583" lon="10.211101041114567" id="-33928">
		<tag k="name" v="Fiskerveien" />
		<tag k="ssr:date" v="2019-12-27" />
		<tag k="ssr:gruppe" v="veg" />
		<tag k="ssr:hovedgruppe" v="infrastruktur" />
		<tag k="ssr:stedsnr" v="82361" />
		<tag k="ssr:type" v="adressenavn" />
	</node>
	<node lat="59.77052894680177" lon="10.254418986376386" id="-33931">
		<tag k="name" v="Holmenveien" />
		<tag k="ssr:date" v="2019-12-27" />
		<tag k="ssr:gruppe" v="veg" />
		<tag k="ssr:hovedgruppe" v="infrastruktur" />
		<tag k="ssr:stedsnr" v="82575" />
		<tag k="ssr:type" v="adressenavn" />
	</node>
	<node lat="59.80868451879855" lon="10.26110843382208" id="-33934">
		<tag k="name" v="Hennumveien" />
		<tag k="ssr:date" v="2019-12-27" />
		<tag k="ssr:gruppe" v="veg" />
		<tag k="ssr:hovedgruppe" v="infrastruktur" />
		<tag k="ssr:stedsnr" v="82376" />
		<tag k="ssr:type" v="adressenavn" />
	</node>
	<node lat="59.811191473103754" lon="10.260239302619164" id="-33935">
		<tag k="name" v="Villvinveien" />
		<tag k="ssr:date" v="2019-12-27" />
		<tag k="ssr:gruppe" v="veg" />
		<tag k="ssr:hovedgruppe" v="infrastruktur" />
		<tag k="ssr:stedsnr" v="82377" />
		<tag k="ssr:type" v="adressenavn" />
	</node>
	<node lat="59.895012893676615" lon="10.299468635231198" id="-33938">
		<tag k="name" v="Nordvangveien" />
		<tag k="ssr:date" v="2019-12-27" />
		<tag k="ssr:gruppe" v="veg" />
		<tag k="ssr:hovedgruppe" v="infrastruktur" />
		<tag k="ssr:stedsnr" v="82985" />
		<tag k="ssr:type" v="adressenavn" />
	</node>
	<node lat="59.89310465476724" lon="10.287566266864358" id="-33939">
		<tag k="name" v="Valstadbakken" />
		<tag k="ssr:date" v="2019-12-27" />
		<tag k="ssr:gruppe" v="veg" />
		<tag k="ssr:hovedgruppe" v="infrastruktur" />
		<tag k="ssr:stedsnr" v="82998" />
		<tag k="ssr:type" v="adressenavn" />
	</node>
	<node lat="59.78316208104527" lon="10.243698911662332" id="-33943">
		<tag k="name" v="Klokkersvingen" />
		<tag k="ssr:date" v="2019-12-27" />
		<tag k="ssr:gruppe" v="veg" />
		<tag k="ssr:hovedgruppe" v="infrastruktur" />
		<tag k="ssr:stedsnr" v="82778" />
		<tag k="ssr:type" v="adressenavn" />
	</node>
	<node lat="59.752827673621574" lon="10.293072208471656" id="-33944">
		<tag k="name" v="Kunterudveien" />
		<tag k="ssr:date" v="2019-12-27" />
		<tag k="ssr:gruppe" v="veg" />
		<tag k="ssr:hovedgruppe" v="infrastruktur" />
		<tag k="ssr:stedsnr" v="82865" />
		<tag k="ssr:type" v="adressenavn" />
	</node>
	<node lat="59.75433075146465" lon="10.26414198231163" id="-33945">
		<tag k="name" v="Husebysletta" />
		<tag k="ssr:date" v="2019-12-27" />
		<tag k="ssr:gruppe" v="veg" />
		<tag k="ssr:hovedgruppe" v="infrastruktur" />
		<tag k="ssr:stedsnr" v="82871" />
		<tag k="ssr:type" v="adressenavn" />
	</node>
	<node lat="59.75086762941999" lon="10.295801107083216" id="-33960">
		<tag k="name" v="Øvre Linneslia" />
		<tag k="ssr:date" v="2019-12-27" />
		<tag k="ssr:gruppe" v="veg" />
		<tag k="ssr:hovedgruppe" v="infrastruktur" />
		<tag k="ssr:stedsnr" v="142860" />
		<tag k="ssr:type" v="adressenavn" />
	</node>
	<node lat="59.81536596606276" lon="10.301258709954862" id="-33967">
		<tag k="name" v="Grøstadveien" />
		<tag k="ssr:date" v="2019-12-27" />
		<tag k="ssr:gruppe" v="veg" />
		<tag k="ssr:hovedgruppe" v="infrastruktur" />
		<tag k="ssr:stedsnr" v="142054" />
		<tag k="ssr:type" v="adressenavn" />
	</node>
	<node lat="59.82773269352816" lon="10.279766545025524" id="-33968">
		<tag k="name" v="Nordengveien" />
		<tag k="ssr:date" v="2019-12-27" />
		<tag k="ssr:gruppe" v="veg" />
		<tag k="ssr:hovedgruppe" v="infrastruktur" />
		<tag k="ssr:stedsnr" v="142056" />
		<tag k="ssr:type" v="adressenavn" />
	</node>
	<node lat="59.818864847379515" lon="10.290758582068854" id="-33974">
		<tag k="name" v="Svenskerud" />
		<tag k="ssr:date" v="2019-12-27" />
		<tag k="ssr:gruppe" v="veg" />
		<tag k="ssr:hovedgruppe" v="infrastruktur" />
		<tag k="ssr:stedsnr" v="142073" />
		<tag k="ssr:type" v="adressenavn" />
	</node>
	<node lat="59.74881617730001" lon="10.23960172757266" id="-33978">
		<tag k="name" v="Teglverksveien" />
		<tag k="ssr:date" v="2019-12-27" />
		<tag k="ssr:gruppe" v="veg" />
		<tag k="ssr:hovedgruppe" v="infrastruktur" />
		<tag k="ssr:stedsnr" v="142766" />
		<tag k="ssr:type" v="adressenavn" />
	</node>
	<node lat="59.79101402152193" lon="10.239822186969715" id="-33979">
		<tag k="name" v="Eikengveien" />
		<tag k="ssr:date" v="2019-12-27" />
		<tag k="ssr:gruppe" v="veg" />
		<tag k="ssr:hovedgruppe" v="infrastruktur" />
		<tag k="ssr:stedsnr" v="142814" />
		<tag k="ssr:type" v="adressenavn" />
	</node>
	<node lat="59.79071587998377" lon="10.252353582026377" id="-33980">
		<tag k="name" v="Haskollbakken" />
		<tag k="ssr:date" v="2019-12-27" />
		<tag k="ssr:gruppe" v="veg" />
		<tag k="ssr:hovedgruppe" v="infrastruktur" />
		<tag k="ssr:stedsnr" v="142820" />
		<tag k="ssr:type" v="adressenavn" />
	</node>
	<node lat="59.753433927566014" lon="10.23114786940712" id="-33982">
		<tag k="name" v="Stoppenveien" />
		<tag k="ssr:date" v="2019-12-27" />
		<tag k="ssr:gruppe" v="veg" />
		<tag k="ssr:hovedgruppe" v="infrastruktur" />
		<tag k="ssr:stedsnr" v="142870" />
		<tag k="ssr:type" v="adressenavn" />
	</node>
	<node lat="59.80793013410827" lon="10.298259167436319" id="-33984">
		<tag k="name" v="Drammensveien" />
		<tag k="ssr:date" v="2019-12-27" />
		<tag k="ssr:gruppe" v="veg" />
		<tag k="ssr:hovedgruppe" v="infrastruktur" />
		<tag k="ssr:stedsnr" v="143868" />
		<tag k="ssr:type" v="adressenavn" />
	</node>
	<node lat="59.882179216889575" lon="10.243340120185783" id="-34009">
		<tag k="name" v="Sliperiveien" />
		<tag k="ssr:date" v="2019-12-27" />
		<tag k="ssr:gruppe" v="veg" />
		<tag k="ssr:hovedgruppe" v="infrastruktur" />
		<tag k="ssr:stedsnr" v="203207" />
		<tag k="ssr:type" v="adressenavn" />
	</node>
	<node lat="59.88852859218951" lon="10.230003559955641" id="-34011">
		<tag k="name" v="Runterudveien" />
		<tag k="ssr:date" v="2019-12-27" />
		<tag k="ssr:gruppe" v="veg" />
		<tag k="ssr:hovedgruppe" v="infrastruktur" />
		<tag k="ssr:stedsnr" v="203199" />
		<tag k="ssr:type" v="adressenavn" />
	</node>
	<node lat="59.89063148375683" lon="10.229901072172037" id="-34012">
		<tag k="name" v="Kanadastien" />
		<tag k="ssr:date" v="2019-12-27" />
		<tag k="ssr:gruppe" v="veg" />
		<tag k="ssr:hovedgruppe" v="infrastruktur" />
		<tag k="ssr:stedsnr" v="203201" />
		<tag k="ssr:type" v="adressenavn" />
	</node>
	<node lat="59.843159164473036" lon="10.217409134401295" id="-34014">
		<tag k="name" v="Kviståsveien" />
		<tag k="ssr:date" v="2019-12-27" />
		<tag k="ssr:gruppe" v="veg" />
		<tag k="ssr:hovedgruppe" v="infrastruktur" />
		<tag k="ssr:stedsnr" v="203444" />
		<tag k="ssr:type" v="adressenavn" />
	</node>
	<node lat="59.75538131620913" lon="10.254242896797711" id="-34021">
		<tag k="name" v="Industrigata" />
		<tag k="ssr:date" v="2019-12-27" />
		<tag k="ssr:gruppe" v="veg" />
		<tag k="ssr:hovedgruppe" v="infrastruktur" />
		<tag k="ssr:stedsnr" v="203899" />
		<tag k="ssr:type" v="adressenavn" />
	</node>
	<node lat="59.744502775320356" lon="10.290491673798819" id="-34023">
		<tag k="name" v="Hyggenvegen" />
		<tag k="ssr:date" v="2019-12-27" />
		<tag k="ssr:gruppe" v="veg" />
		<tag k="ssr:hovedgruppe" v="infrastruktur" />
		<tag k="ssr:stedsnr" v="203846" />
		<tag k="ssr:type" v="adressenavn" />
	</node>
	<node lat="59.89476014107552" lon="10.281812172538876" id="-34028">
		<tag k="name" v="Syllingbakken" />
		<tag k="ssr:date" v="2019-12-27" />
		<tag k="ssr:gruppe" v="veg" />
		<tag k="ssr:hovedgruppe" v="infrastruktur" />
		<tag k="ssr:stedsnr" v="203996" />
		<tag k="ssr:type" v="adressenavn" />
	</node>
	<node lat="59.72784789430829" lon="10.312912427134407" id="-34034">
		<tag k="name" v="Mørkveien" />
		<tag k="ssr:date" v="2019-12-27" />
		<tag k="ssr:gruppe" v="veg" />
		<tag k="ssr:hovedgruppe" v="infrastruktur" />
		<tag k="ssr:stedsnr" v="204842" />
		<tag k="ssr:type" v="adressenavn" />
	</node>
	<node lat="59.81676246785677" lon="10.287762502159076" id="-34037">
		<tag k="name" v="Larsehagan" />
		<tag k="ssr:date" v="2019-12-27" />
		<tag k="ssr:gruppe" v="veg" />
		<tag k="ssr:hovedgruppe" v="infrastruktur" />
		<tag k="ssr:stedsnr" v="264059" />
		<tag k="ssr:type" v="adressenavn" />
	</node>
	<node lat="59.82504778324879" lon="10.287480454748463" id="-34038">
		<tag k="name" v="Korsplassen" />
		<tag k="ssr:date" v="2019-12-27" />
		<tag k="ssr:gruppe" v="veg" />
		<tag k="ssr:hovedgruppe" v="infrastruktur" />
		<tag k="ssr:stedsnr" v="264060" />
		<tag k="ssr:type" v="adressenavn" />
	</node>
	<node lat="59.82347465675315" lon="10.278615990241795" id="-34041">
		<tag k="name" v="Hennumbråtan" />
		<tag k="ssr:date" v="2019-12-27" />
		<tag k="ssr:gruppe" v="veg" />
		<tag k="ssr:hovedgruppe" v="infrastruktur" />
		<tag k="ssr:stedsnr" v="264037" />
		<tag k="ssr:type" v="adressenavn" />
	</node>
	<node lat="59.81198454783787" lon="10.311514125258753" id="-34044">
		<tag k="name" v="Kjennergrinda" />
		<tag k="ssr:date" v="2019-12-27" />
		<tag k="ssr:gruppe" v="veg" />
		<tag k="ssr:hovedgruppe" v="infrastruktur" />
		<tag k="ssr:stedsnr" v="264048" />
		<tag k="ssr:type" v="adressenavn" />
	</node>
	<node lat="59.829062508115285" lon="10.256264740600031" id="-34046">
		<tag k="name" v="Fuglerudveien" />
		<tag k="ssr:date" v="2019-12-27" />
		<tag k="ssr:gruppe" v="veg" />
		<tag k="ssr:hovedgruppe" v="infrastruktur" />
		<tag k="ssr:stedsnr" v="264114" />
		<tag k="ssr:type" v="adressenavn" />
	</node>
	<node lat="59.81048221907162" lon="10.260949134606598" id="-34048">
		<tag k="name" v="Hallingstadveien" />
		<tag k="ssr:date" v="2019-12-27" />
		<tag k="ssr:gruppe" v="veg" />
		<tag k="ssr:hovedgruppe" v="infrastruktur" />
		<tag k="ssr:stedsnr" v="264389" />
		<tag k="ssr:type" v="adressenavn" />
	</node>
	<node lat="59.848159477488316" lon="10.158270508197017" id="-34050">
		<tag k="name" v="Finnemarksveien" />
		<tag k="ssr:date" v="2019-12-27" />
		<tag k="ssr:gruppe" v="veg" />
		<tag k="ssr:hovedgruppe" v="infrastruktur" />
		<tag k="ssr:stedsnr" v="264421" />
		<tag k="ssr:type" v="adressenavn" />
	</node>
	<node lat="59.75190888608579" lon="10.287857800077317" id="-34053">
		<tag k="name" v="Tuverudveien" />
		<tag k="ssr:date" v="2019-12-27" />
		<tag k="ssr:gruppe" v="veg" />
		<tag k="ssr:hovedgruppe" v="infrastruktur" />
		<tag k="ssr:stedsnr" v="264870" />
		<tag k="ssr:type" v="adressenavn" />
	</node>
	<node lat="59.76827475983388" lon="10.237791466561536" id="-34060">
		<tag k="name" v="Årkvislaveien" />
		<tag k="ssr:date" v="2019-12-27" />
		<tag k="ssr:gruppe" v="veg" />
		<tag k="ssr:hovedgruppe" v="infrastruktur" />
		<tag k="ssr:stedsnr" v="264644" />
		<tag k="ssr:type" v="adressenavn" />
	</node>
	<node lat="59.74893157052283" lon="10.29844788642207" id="-34063">
		<tag k="name" v="Kvernbakken" />
		<tag k="ssr:date" v="2019-12-27" />
		<tag k="ssr:gruppe" v="veg" />
		<tag k="ssr:hovedgruppe" v="infrastruktur" />
		<tag k="ssr:stedsnr" v="264849" />
		<tag k="ssr:type" v="adressenavn" />
	</node>
	<node lat="59.77016277390402" lon="10.284359490268969" id="-34064">
		<tag k="name" v="Mellomveien" />
		<tag k="ssr:date" v="2019-12-27" />
		<tag k="ssr:gruppe" v="veg" />
		<tag k="ssr:hovedgruppe" v="infrastruktur" />
		<tag k="ssr:stedsnr" v="264581" />
		<tag k="ssr:type" v="adressenavn" />
	</node>
	<node lat="59.78800625783402" lon="10.24052533469714" id="-34066">
		<tag k="name" v="Vinderenveien" />
		<tag k="ssr:date" v="2019-12-27" />
		<tag k="ssr:gruppe" v="veg" />
		<tag k="ssr:hovedgruppe" v="infrastruktur" />
		<tag k="ssr:stedsnr" v="264782" />
		<tag k="ssr:type" v="adressenavn" />
	</node>
	<node lat="59.781540029587866" lon="10.226266044042436" id="-34067">
		<tag k="name" v="Øvre Frognerlia" />
		<tag k="ssr:date" v="2019-12-27" />
		<tag k="ssr:gruppe" v="veg" />
		<tag k="ssr:hovedgruppe" v="infrastruktur" />
		<tag k="ssr:stedsnr" v="264785" />
		<tag k="ssr:type" v="adressenavn" />
	</node>
	<node lat="59.779811746147324" lon="10.225416199045902" id="-34068">
		<tag k="name" v="Kirkestien" />
		<tag k="ssr:date" v="2019-12-27" />
		<tag k="ssr:gruppe" v="veg" />
		<tag k="ssr:hovedgruppe" v="infrastruktur" />
		<tag k="ssr:stedsnr" v="264787" />
		<tag k="ssr:type" v="adressenavn" />
	</node>
	<node lat="59.813023322245584" lon="10.263144884596857" id="-34104">
		<tag k="name" v="Hagtornveien" />
		<tag k="ssr:date" v="2019-12-27" />
		<tag k="ssr:gruppe" v="veg" />
		<tag k="ssr:hovedgruppe" v="infrastruktur" />
		<tag k="ssr:stedsnr" v="325064" />
		<tag k="ssr:type" v="adressenavn" />
	</node>
	<node lat="59.82841760361605" lon="10.283483838332637" id="-34105">
		<tag k="name" v="Fjellsveien" />
		<tag k="ssr:date" v="2019-12-27" />
		<tag k="ssr:gruppe" v="veg" />
		<tag k="ssr:hovedgruppe" v="infrastruktur" />
		<tag k="ssr:stedsnr" v="325027" />
		<tag k="ssr:type" v="adressenavn" />
	</node>
	<node lat="59.90280601190693" lon="10.259725259514893" id="-34108">
		<tag k="name" v="Øvre Fagerlivei" />
		<tag k="ssr:date" v="2019-12-27" />
		<tag k="ssr:gruppe" v="veg" />
		<tag k="ssr:hovedgruppe" v="infrastruktur" />
		<tag k="ssr:stedsnr" v="325553" />
		<tag k="ssr:type" v="adressenavn" />
	</node>
	<node lat="59.78949816117907" lon="10.233846119004493" id="-34114">
		<tag k="name" v="Vestenga" />
		<tag k="ssr:date" v="2019-12-27" />
		<tag k="ssr:gruppe" v="veg" />
		<tag k="ssr:hovedgruppe" v="infrastruktur" />
		<tag k="ssr:stedsnr" v="325766" />
		<tag k="ssr:type" v="adressenavn" />
	</node>
	<node lat="59.795976315269364" lon="10.260748398110508" id="-34115">
		<tag k="name" v="Grimsgaards vei" />
		<tag k="ssr:date" v="2019-12-27" />
		<tag k="ssr:gruppe" v="veg" />
		<tag k="ssr:hovedgruppe" v="infrastruktur" />
		<tag k="ssr:stedsnr" v="325776" />
		<tag k="ssr:type" v="adressenavn" />
	</node>
	<node lat="59.78874269941901" lon="10.246720665873235" id="-34116">
		<tag k="name" v="Nordveien" />
		<tag k="ssr:date" v="2019-12-27" />
		<tag k="ssr:gruppe" v="veg" />
		<tag k="ssr:hovedgruppe" v="infrastruktur" />
		<tag k="ssr:stedsnr" v="325777" />
		<tag k="ssr:type" v="adressenavn" />
	</node>
	<node lat="59.7606615251858" lon="10.226458288650877" id="-34117">
		<tag k="name" v="Nøtteknekkeren" />
		<tag k="ssr:date" v="2019-12-27" />
		<tag k="ssr:gruppe" v="veg" />
		<tag k="ssr:hovedgruppe" v="infrastruktur" />
		<tag k="ssr:stedsnr" v="325846" />
		<tag k="ssr:type" v="adressenavn" />
	</node>
	<node lat="59.72753077624946" lon="10.303941317736562" id="-34119">
		<tag k="name" v="Furusetveien" />
		<tag k="ssr:date" v="2019-12-27" />
		<tag k="ssr:gruppe" v="veg" />
		<tag k="ssr:hovedgruppe" v="infrastruktur" />
		<tag k="ssr:stedsnr" v="325850" />
		<tag k="ssr:type" v="adressenavn" />
	</node>
	<node lat="59.82145423831006" lon="10.326414674030481" id="-34120">
		<tag k="name" v="Ovenstadlia" />
		<tag k="ssr:date" v="2019-12-27" />
		<tag k="ssr:gruppe" v="veg" />
		<tag k="ssr:hovedgruppe" v="infrastruktur" />
		<tag k="ssr:stedsnr" v="325851" />
		<tag k="ssr:type" v="adressenavn" />
	</node>
	<node lat="59.87732911899048" lon="10.298497797200419" id="-34121">
		<tag k="name" v="Østengaveien" />
		<tag k="ssr:date" v="2019-12-27" />
		<tag k="ssr:gruppe" v="veg" />
		<tag k="ssr:hovedgruppe" v="infrastruktur" />
		<tag k="ssr:stedsnr" v="325866" />
		<tag k="ssr:type" v="adressenavn" />
	</node>
	<node lat="59.77505052041993" lon="10.285229926242845" id="-34123">
		<tag k="name" v="Skogsnaret" />
		<tag k="ssr:date" v="2019-12-27" />
		<tag k="ssr:gruppe" v="veg" />
		<tag k="ssr:hovedgruppe" v="infrastruktur" />
		<tag k="ssr:stedsnr" v="325940" />
		<tag k="ssr:type" v="adressenavn" />
	</node>
	<node lat="59.77997352628786" lon="10.28263412369843" id="-34124">
		<tag k="name" v="Reistadbakken" />
		<tag k="ssr:date" v="2019-12-27" />
		<tag k="ssr:gruppe" v="veg" />
		<tag k="ssr:hovedgruppe" v="infrastruktur" />
		<tag k="ssr:stedsnr" v="325941" />
		<tag k="ssr:type" v="adressenavn" />
	</node>
	<node lat="59.76601323217842" lon="10.280576466774754" id="-34125">
		<tag k="name" v="Lierbakkene" />
		<tag k="ssr:date" v="2019-12-27" />
		<tag k="ssr:gruppe" v="veg" />
		<tag k="ssr:hovedgruppe" v="infrastruktur" />
		<tag k="ssr:stedsnr" v="325942" />
		<tag k="ssr:type" v="adressenavn" />
	</node>
	<node lat="59.77858785938036" lon="10.230742718502627" id="-34152">
		<tag k="name" v="Kirkeveien" />
		<tag k="ssr:date" v="2019-12-27" />
		<tag k="ssr:gruppe" v="veg" />
		<tag k="ssr:hovedgruppe" v="infrastruktur" />
		<tag k="ssr:stedsnr" v="384728" />
		<tag k="ssr:type" v="adressenavn" />
	</node>
	<node lat="59.82386559409996" lon="10.28278708947381" id="-34154">
		<tag k="name" v="Røssekleiv" />
		<tag k="ssr:date" v="2019-12-27" />
		<tag k="ssr:gruppe" v="veg" />
		<tag k="ssr:hovedgruppe" v="infrastruktur" />
		<tag k="ssr:stedsnr" v="385047" />
		<tag k="ssr:type" v="adressenavn" />
	</node>
	<node lat="59.825682383584024" lon="10.337519411127609" id="-34162">
		<tag k="name" v="Skysshagen" />
		<tag k="ssr:date" v="2019-12-27" />
		<tag k="ssr:gruppe" v="veg" />
		<tag k="ssr:hovedgruppe" v="infrastruktur" />
		<tag k="ssr:stedsnr" v="385081" />
		<tag k="ssr:type" v="adressenavn" />
	</node>
	<node lat="59.814212097596574" lon="10.264158071358699" id="-34166">
		<tag k="name" v="Snøbærveien" />
		<tag k="ssr:date" v="2019-12-27" />
		<tag k="ssr:gruppe" v="veg" />
		<tag k="ssr:hovedgruppe" v="infrastruktur" />
		<tag k="ssr:stedsnr" v="385090" />
		<tag k="ssr:type" v="adressenavn" />
	</node>
	<node lat="59.81980469292058" lon="10.330964034200656" id="-34167">
		<tag k="name" v="Heiaveien" />
		<tag k="ssr:date" v="2019-12-27" />
		<tag k="ssr:gruppe" v="veg" />
		<tag k="ssr:hovedgruppe" v="infrastruktur" />
		<tag k="ssr:stedsnr" v="385099" />
		<tag k="ssr:type" v="adressenavn" />
	</node>
	<node lat="59.81998328303157" lon="10.197195391673336" id="-34168">
		<tag k="name" v="Sognaveien" />
		<tag k="ssr:date" v="2019-12-27" />
		<tag k="ssr:gruppe" v="veg" />
		<tag k="ssr:hovedgruppe" v="infrastruktur" />
		<tag k="ssr:stedsnr" v="385426" />
		<tag k="ssr:type" v="adressenavn" />
	</node>
	<node lat="59.83882016451849" lon="10.216764931950372" id="-34175">
		<tag k="name" v="Utengveien" />
		<tag k="ssr:date" v="2019-12-27" />
		<tag k="ssr:gruppe" v="veg" />
		<tag k="ssr:hovedgruppe" v="infrastruktur" />
		<tag k="ssr:stedsnr" v="385376" />
		<tag k="ssr:type" v="adressenavn" />
	</node>
	<node lat="59.81608183047882" lon="10.247843408135406" id="-34177">
		<tag k="name" v="Grøttegata" />
		<tag k="ssr:date" v="2019-12-27" />
		<tag k="ssr:gruppe" v="veg" />
		<tag k="ssr:hovedgruppe" v="infrastruktur" />
		<tag k="ssr:stedsnr" v="385397" />
		<tag k="ssr:type" v="adressenavn" />
	</node>
	<node lat="59.78859341349106" lon="10.230631250730585" id="-34187">
		<tag k="name" v="Eikengstubben" />
		<tag k="ssr:date" v="2019-12-27" />
		<tag k="ssr:gruppe" v="veg" />
		<tag k="ssr:hovedgruppe" v="infrastruktur" />
		<tag k="ssr:stedsnr" v="385810" />
		<tag k="ssr:type" v="adressenavn" />
	</node>
	<node lat="59.86799705846199" lon="10.221487910220388" id="-34188">
		<tag k="name" v="Østlia" />
		<tag k="ssr:date" v="2019-12-27" />
		<tag k="ssr:gruppe" v="veg" />
		<tag k="ssr:hovedgruppe" v="infrastruktur" />
		<tag k="ssr:stedsnr" v="385817" />
		<tag k="ssr:type" v="adressenavn" />
	</node>
	<node lat="59.80618170129832" lon="10.298018481985014" id="-34192">
		<tag k="name" v="Sagaveien" />
		<tag k="ssr:date" v="2019-12-27" />
		<tag k="ssr:gruppe" v="veg" />
		<tag k="ssr:hovedgruppe" v="infrastruktur" />
		<tag k="ssr:stedsnr" v="385691" />
		<tag k="ssr:type" v="adressenavn" />
	</node>
	<node lat="59.75131262579937" lon="10.234113924663498" id="-34195">
		<tag k="name" v="3.Nøste terrasse" />
		<tag k="ssr:date" v="2019-12-27" />
		<tag k="ssr:gruppe" v="veg" />
		<tag k="ssr:hovedgruppe" v="infrastruktur" />
		<tag k="ssr:stedsnr" v="385763" />
		<tag k="ssr:type" v="adressenavn" />
	</node>
	<node lat="59.784117977872675" lon="10.243952266382028" id="-34196">
		<tag k="name" v="Verkstedveien" />
		<tag k="ssr:date" v="2019-12-27" />
		<tag k="ssr:gruppe" v="veg" />
		<tag k="ssr:hovedgruppe" v="infrastruktur" />
		<tag k="ssr:stedsnr" v="385787" />
		<tag k="ssr:type" v="adressenavn" />
	</node>
	<node lat="59.78807832543485" lon="10.23603880744083" id="-34197">
		<tag k="name" v="Stubben" />
		<tag k="ssr:date" v="2019-12-27" />
		<tag k="ssr:gruppe" v="veg" />
		<tag k="ssr:hovedgruppe" v="infrastruktur" />
		<tag k="ssr:stedsnr" v="385791" />
		<tag k="ssr:type" v="adressenavn" />
	</node>
	<node lat="59.751381684401515" lon="10.232499792000183" id="-34203">
		<tag k="name" v="Apalveien" />
		<tag k="ssr:date" v="2019-12-27" />
		<tag k="ssr:gruppe" v="veg" />
		<tag k="ssr:hovedgruppe" v="infrastruktur" />
		<tag k="ssr:stedsnr" v="385869" />
		<tag k="ssr:type" v="adressenavn" />
	</node>
	<node lat="59.751303575176074" lon="10.229535876333983" id="-34204">
		<tag k="name" v="Martin Olsens vei" />
		<tag k="ssr:date" v="2019-12-27" />
		<tag k="ssr:gruppe" v="veg" />
		<tag k="ssr:hovedgruppe" v="infrastruktur" />
		<tag k="ssr:stedsnr" v="385871" />
		<tag k="ssr:type" v="adressenavn" />
	</node>
	<node lat="59.749754250715306" lon="10.291138761441475" id="-34205">
		<tag k="name" v="Solliveien" />
		<tag k="ssr:date" v="2019-12-27" />
		<tag k="ssr:gruppe" v="veg" />
		<tag k="ssr:hovedgruppe" v="infrastruktur" />
		<tag k="ssr:stedsnr" v="385876" />
		<tag k="ssr:type" v="adressenavn" />
	</node>
	<node lat="59.7444969128439" lon="10.299258488278623" id="-34209">
		<tag k="name" v="Gullaugkleiva" />
		<tag k="ssr:date" v="2019-12-27" />
		<tag k="ssr:gruppe" v="veg" />
		<tag k="ssr:hovedgruppe" v="infrastruktur" />
		<tag k="ssr:stedsnr" v="385854" />
		<tag k="ssr:type" v="adressenavn" />
	</node>
	<node lat="59.8942995146695" lon="10.28496959404941" id="-34214">
		<tag k="name" v="Nordhellinga" />
		<tag k="ssr:date" v="2019-12-27" />
		<tag k="ssr:gruppe" v="veg" />
		<tag k="ssr:hovedgruppe" v="infrastruktur" />
		<tag k="ssr:stedsnr" v="385995" />
		<tag k="ssr:type" v="adressenavn" />
	</node>
	<node lat="59.78966657261486" lon="10.270325357828193" id="-34215">
		<tag k="name" v="Fosshaugveien" />
		<tag k="ssr:date" v="2019-12-27" />
		<tag k="ssr:gruppe" v="veg" />
		<tag k="ssr:hovedgruppe" v="infrastruktur" />
		<tag k="ssr:stedsnr" v="385947" />
		<tag k="ssr:type" v="adressenavn" />
	</node>
	<node lat="59.80464407608533" lon="10.266967713073138" id="-34216">
		<tag k="name" v="Briskeveien" />
		<tag k="ssr:date" v="2019-12-27" />
		<tag k="ssr:gruppe" v="veg" />
		<tag k="ssr:hovedgruppe" v="infrastruktur" />
		<tag k="ssr:stedsnr" v="385951" />
		<tag k="ssr:type" v="adressenavn" />
	</node>
	<node lat="59.77090476439184" lon="10.284337737779511" id="-34217">
		<tag k="name" v="Vikerveien" />
		<tag k="ssr:date" v="2019-12-27" />
		<tag k="ssr:gruppe" v="veg" />
		<tag k="ssr:hovedgruppe" v="infrastruktur" />
		<tag k="ssr:stedsnr" v="385954" />
		<tag k="ssr:type" v="adressenavn" />
	</node>
	<node lat="59.82833312420547" lon="10.283084883149618" id="-34256">
		<tag k="name" v="Svendsekroken" />
		<tag k="ssr:date" v="2019-12-27" />
		<tag k="ssr:gruppe" v="veg" />
		<tag k="ssr:hovedgruppe" v="infrastruktur" />
		<tag k="ssr:stedsnr" v="507047" />
		<tag k="ssr:type" v="adressenavn" />
	</node>
	<node lat="59.76828947156662" lon="10.24435614826039" id="-34259">
		<tag k="name" v="Trudvangveien" />
		<tag k="ssr:date" v="2019-12-27" />
		<tag k="ssr:gruppe" v="veg" />
		<tag k="ssr:hovedgruppe" v="infrastruktur" />
		<tag k="ssr:stedsnr" v="506725" />
		<tag k="ssr:type" v="adressenavn" />
	</node>
	<node lat="59.793966335303445" lon="10.253400421270225" id="-34262">
		<tag k="name" v="Fossveien" />
		<tag k="ssr:date" v="2019-12-27" />
		<tag k="ssr:gruppe" v="veg" />
		<tag k="ssr:hovedgruppe" v="infrastruktur" />
		<tag k="ssr:stedsnr" v="506739" />
		<tag k="ssr:type" v="adressenavn" />
	</node>
	<node lat="59.77968931238134" lon="10.268495069340371" id="-34272">
		<tag k="name" v="Engaveien" />
		<tag k="ssr:date" v="2019-12-27" />
		<tag k="ssr:gruppe" v="veg" />
		<tag k="ssr:hovedgruppe" v="infrastruktur" />
		<tag k="ssr:stedsnr" v="507591" />
		<tag k="ssr:type" v="adressenavn" />
	</node>
	<node lat="59.7800232401138" lon="10.225864074856338" id="-34275">
		<tag k="name" v="Undersrudveien" />
		<tag k="ssr:date" v="2019-12-27" />
		<tag k="ssr:gruppe" v="veg" />
		<tag k="ssr:hovedgruppe" v="infrastruktur" />
		<tag k="ssr:stedsnr" v="507670" />
		<tag k="ssr:type" v="adressenavn" />
	</node>
	<node lat="59.78524193083077" lon="10.2441645226179" id="-34278">
		<tag k="name" v="Grønnlundveien" />
		<tag k="ssr:date" v="2019-12-27" />
		<tag k="ssr:gruppe" v="veg" />
		<tag k="ssr:hovedgruppe" v="infrastruktur" />
		<tag k="ssr:stedsnr" v="507785" />
		<tag k="ssr:type" v="adressenavn" />
	</node>
	<node lat="59.79052933764569" lon="10.237919373797856" id="-34279">
		<tag k="name" v="Østenga" />
		<tag k="ssr:date" v="2019-12-27" />
		<tag k="ssr:gruppe" v="veg" />
		<tag k="ssr:hovedgruppe" v="infrastruktur" />
		<tag k="ssr:stedsnr" v="507795" />
		<tag k="ssr:type" v="adressenavn" />
	</node>
	<node lat="59.77499746295408" lon="10.285305216452914" id="-34281">
		<tag k="name" v="Sørvangen" />
		<tag k="ssr:date" v="2019-12-27" />
		<tag k="ssr:gruppe" v="veg" />
		<tag k="ssr:hovedgruppe" v="infrastruktur" />
		<tag k="ssr:stedsnr" v="507943" />
		<tag k="ssr:type" v="adressenavn" />
	</node>
	<node lat="59.77630585779687" lon="10.287624767615142" id="-34282">
		<tag k="name" v="Bjørkeveien" />
		<tag k="ssr:date" v="2019-12-27" />
		<tag k="ssr:gruppe" v="veg" />
		<tag k="ssr:hovedgruppe" v="infrastruktur" />
		<tag k="ssr:stedsnr" v="507952" />
		<tag k="ssr:type" v="adressenavn" />
	</node>
	<node lat="59.78399242097787" lon="10.213731765984752" id="-34287">
		<tag k="name" v="Gåserudveien" />
		<tag k="ssr:date" v="2019-12-27" />
		<tag k="ssr:gruppe" v="veg" />
		<tag k="ssr:hovedgruppe" v="infrastruktur" />
		<tag k="ssr:stedsnr" v="510137" />
		<tag k="ssr:type" v="adressenavn" />
	</node>
	<node lat="59.78662500286004" lon="10.245905561019594" id="-34288">
		<tag k="alt_name" v="Lier" />
		<tag k="name" v="Lier kommune" />
		<tag k="ssr:date" v="2019-12-27" />
		<tag k="ssr:gruppe" v="administrativeIndelinger" />
		<tag k="ssr:hovedgruppe" v="offentligAdministrasjon" />
		<tag k="ssr:stedsnr" v="510801" />
		<tag k="ssr:type" v="kommune" />
	</node>
	<node lat="59.81119464447457" lon="10.313678074529944" id="-34302">
		<tag k="name" v="Vismutveien" />
		<tag k="ssr:date" v="2019-12-27" />
		<tag k="ssr:gruppe" v="veg" />
		<tag k="ssr:hovedgruppe" v="infrastruktur" />
		<tag k="ssr:stedsnr" v="567044" />
		<tag k="ssr:type" v="adressenavn" />
	</node>
	<node lat="59.818226082860335" lon="10.276359512482669" id="-34306">
		<tag k="name" v="Hennumhagan" />
		<tag k="ssr:date" v="2019-12-27" />
		<tag k="ssr:gruppe" v="veg" />
		<tag k="ssr:hovedgruppe" v="infrastruktur" />
		<tag k="ssr:stedsnr" v="567054" />
		<tag k="ssr:type" v="adressenavn" />
	</node>
	<node lat="59.78351218953881" lon="10.243813837266856" id="-34308">
		<tag k="name" v="Slettaveien" />
		<tag k="ssr:date" v="2019-12-27" />
		<tag k="ssr:gruppe" v="veg" />
		<tag k="ssr:hovedgruppe" v="infrastruktur" />
		<tag k="ssr:stedsnr" v="567771" />
		<tag k="ssr:type" v="adressenavn" />
	</node>
	<node lat="59.81325888812093" lon="10.252104989856342" id="-34309">
		<tag k="name" v="Hårbergbakken" />
		<tag k="ssr:date" v="2019-12-27" />
		<tag k="ssr:gruppe" v="veg" />
		<tag k="ssr:hovedgruppe" v="infrastruktur" />
		<tag k="ssr:stedsnr" v="567792" />
		<tag k="ssr:type" v="adressenavn" />
	</node>
	<node lat="59.729356920044" lon="10.309862735304797" id="-34315">
		<tag k="name" v="Siporexveien" />
		<tag k="ssr:date" v="2019-12-27" />
		<tag k="ssr:gruppe" v="veg" />
		<tag k="ssr:hovedgruppe" v="infrastruktur" />
		<tag k="ssr:stedsnr" v="567834" />
		<tag k="ssr:type" v="adressenavn" />
	</node>
	<node lat="59.726903303665985" lon="10.313747721098927" id="-34316">
		<tag k="name" v="Øvre Lahellvei" />
		<tag k="ssr:date" v="2020-05-28" />
		<tag k="ssr:gruppe" v="veg" />
		<tag k="ssr:hovedgruppe" v="infrastruktur" />
		<tag k="ssr:stedsnr" v="567836" />
		<tag k="ssr:type" v="adressenavn" />
	</node>
	<node lat="59.749730153902114" lon="10.294130834895647" id="-34317">
		<tag k="name" v="Sollibakken" />
		<tag k="ssr:date" v="2019-12-27" />
		<tag k="ssr:gruppe" v="veg" />
		<tag k="ssr:hovedgruppe" v="infrastruktur" />
		<tag k="ssr:stedsnr" v="567852" />
		<tag k="ssr:type" v="adressenavn" />
	</node>
	<node lat="59.749252728625386" lon="10.290921431401317" id="-34318">
		<tag k="name" v="Haragarn" />
		<tag k="ssr:date" v="2019-12-27" />
		<tag k="ssr:gruppe" v="veg" />
		<tag k="ssr:hovedgruppe" v="infrastruktur" />
		<tag k="ssr:stedsnr" v="567853" />
		<tag k="ssr:type" v="adressenavn" />
	</node>
	<node lat="59.840457433625915" lon="10.265270133613333" id="-34358">
		<tag k="name" v="Langgata" />
		<tag k="ssr:date" v="2019-12-27" />
		<tag k="ssr:gruppe" v="veg" />
		<tag k="ssr:hovedgruppe" v="infrastruktur" />
		<tag k="ssr:stedsnr" v="628076" />
		<tag k="ssr:type" v="adressenavn" />
	</node>
	<node lat="59.72850793948368" lon="10.307515390190241" id="-34362">
		<tag k="name" v="Engersand" />
		<tag k="ssr:date" v="2019-12-27" />
		<tag k="ssr:gruppe" v="veg" />
		<tag k="ssr:hovedgruppe" v="infrastruktur" />
		<tag k="ssr:stedsnr" v="628801" />
		<tag k="ssr:type" v="adressenavn" />
	</node>
	<node lat="59.74984778165069" lon="10.229144049688676" id="-34363">
		<tag k="name" v="Parkveien" />
		<tag k="ssr:date" v="2019-12-27" />
		<tag k="ssr:gruppe" v="veg" />
		<tag k="ssr:hovedgruppe" v="infrastruktur" />
		<tag k="ssr:stedsnr" v="628840" />
		<tag k="ssr:type" v="adressenavn" />
	</node>
	<node lat="59.75208553509835" lon="10.269272359807982" id="-34364">
		<tag k="name" v="Linnesstranda" />
		<tag k="ssr:date" v="2019-12-27" />
		<tag k="ssr:gruppe" v="veg" />
		<tag k="ssr:hovedgruppe" v="infrastruktur" />
		<tag k="ssr:stedsnr" v="628846" />
		<tag k="ssr:type" v="adressenavn" />
	</node>
	<node lat="59.82944512694749" lon="10.285908527935877" id="-34366">
		<tag k="name" v="Grindene" />
		<tag k="ssr:date" v="2019-12-27" />
		<tag k="ssr:gruppe" v="veg" />
		<tag k="ssr:hovedgruppe" v="infrastruktur" />
		<tag k="ssr:stedsnr" v="628029" />
		<tag k="ssr:type" v="adressenavn" />
	</node>
	<node lat="59.81652017932294" lon="10.304533827293799" id="-34369">
		<tag k="name" v="Øvre Grøstadvei" />
		<tag k="ssr:date" v="2019-12-27" />
		<tag k="ssr:gruppe" v="veg" />
		<tag k="ssr:hovedgruppe" v="infrastruktur" />
		<tag k="ssr:stedsnr" v="628044" />
		<tag k="ssr:type" v="adressenavn" />
	</node>
	<node lat="59.76656790718812" lon="10.249305036392562" id="-34381">
		<tag k="name" v="Åbyveien" />
		<tag k="ssr:date" v="2019-12-27" />
		<tag k="ssr:gruppe" v="veg" />
		<tag k="ssr:hovedgruppe" v="infrastruktur" />
		<tag k="ssr:stedsnr" v="628756" />
		<tag k="ssr:type" v="adressenavn" />
	</node>
	<node lat="59.74939042263839" lon="10.239042190735208" id="-34383">
		<tag k="name" v="1.Eikeli terrasse" />
		<tag k="ssr:date" v="2019-12-27" />
		<tag k="ssr:gruppe" v="veg" />
		<tag k="ssr:hovedgruppe" v="infrastruktur" />
		<tag k="ssr:stedsnr" v="628729" />
		<tag k="ssr:type" v="adressenavn" />
	</node>
	<node lat="59.759721158376" lon="10.258055860916258" id="-34384">
		<tag k="name" v="Vipeveien" />
		<tag k="ssr:date" v="2019-12-27" />
		<tag k="ssr:gruppe" v="veg" />
		<tag k="ssr:hovedgruppe" v="infrastruktur" />
		<tag k="ssr:stedsnr" v="628732" />
		<tag k="ssr:type" v="adressenavn" />
	</node>
	<node lat="59.86867971470797" lon="10.217066816946327" id="-34386">
		<tag k="name" v="Svarthavnveien" />
		<tag k="ssr:date" v="2019-12-27" />
		<tag k="ssr:gruppe" v="veg" />
		<tag k="ssr:hovedgruppe" v="infrastruktur" />
		<tag k="ssr:stedsnr" v="628783" />
		<tag k="ssr:type" v="adressenavn" />
	</node>
	<node lat="59.8655464709687" lon="10.218980120387913" id="-34387">
		<tag k="name" v="Stampehaugen" />
		<tag k="ssr:date" v="2019-12-27" />
		<tag k="ssr:gruppe" v="veg" />
		<tag k="ssr:hovedgruppe" v="infrastruktur" />
		<tag k="ssr:stedsnr" v="628787" />
		<tag k="ssr:type" v="adressenavn" />
	</node>
	<node lat="59.77952428930683" lon="10.283548603209056" id="-34388">
		<tag k="name" v="Reistadalleen" />
		<tag k="ssr:date" v="2019-12-27" />
		<tag k="ssr:gruppe" v="veg" />
		<tag k="ssr:hovedgruppe" v="infrastruktur" />
		<tag k="ssr:stedsnr" v="628937" />
		<tag k="ssr:type" v="adressenavn" />
	</node>
	<node lat="59.89376120375304" lon="10.276184719480796" id="-34390">
		<tag k="name" v="Gunnerudveien" />
		<tag k="ssr:date" v="2019-12-27" />
		<tag k="ssr:gruppe" v="veg" />
		<tag k="ssr:hovedgruppe" v="infrastruktur" />
		<tag k="ssr:stedsnr" v="628993" />
		<tag k="ssr:type" v="adressenavn" />
	</node>
	<node lat="59.793585427411394" lon="10.25554302616033" id="-34431">
		<tag k="name" v="Paradisbakkene" />
		<tag k="ssr:date" v="2019-12-27" />
		<tag k="ssr:gruppe" v="veg" />
		<tag k="ssr:hovedgruppe" v="infrastruktur" />
		<tag k="ssr:stedsnr" v="748755" />
		<tag k="ssr:type" v="adressenavn" />
	</node>
	<node lat="59.80980090155426" lon="10.307239648159962" id="-34432">
		<tag k="name" v="Vestre Kjennervei" />
		<tag k="ssr:date" v="2019-12-27" />
		<tag k="ssr:gruppe" v="veg" />
		<tag k="ssr:hovedgruppe" v="infrastruktur" />
		<tag k="ssr:stedsnr" v="749027" />
		<tag k="ssr:type" v="adressenavn" />
	</node>
	<node lat="59.81364029309518" lon="10.308161333303325" id="-34433">
		<tag k="name" v="Gravdalsveien" />
		<tag k="ssr:date" v="2019-12-27" />
		<tag k="ssr:gruppe" v="veg" />
		<tag k="ssr:hovedgruppe" v="infrastruktur" />
		<tag k="ssr:stedsnr" v="749028" />
		<tag k="ssr:type" v="adressenavn" />
	</node>
	<node lat="59.815939229761135" lon="10.27060089661894" id="-34436">
		<tag k="name" v="Haugerudbråtan" />
		<tag k="ssr:date" v="2019-12-27" />
		<tag k="ssr:gruppe" v="veg" />
		<tag k="ssr:hovedgruppe" v="infrastruktur" />
		<tag k="ssr:stedsnr" v="749041" />
		<tag k="ssr:type" v="adressenavn" />
	</node>
	<node lat="59.82640775735057" lon="10.285074490205002" id="-34437">
		<tag k="name" v="Svendsemarka" />
		<tag k="ssr:date" v="2019-12-27" />
		<tag k="ssr:gruppe" v="veg" />
		<tag k="ssr:hovedgruppe" v="infrastruktur" />
		<tag k="ssr:stedsnr" v="749050" />
		<tag k="ssr:type" v="adressenavn" />
	</node>
	<node lat="59.820562067876104" lon="10.204479104253535" id="-34442">
		<tag k="name" v="Eikseterveien" />
		<tag k="ssr:date" v="2019-12-27" />
		<tag k="ssr:gruppe" v="veg" />
		<tag k="ssr:hovedgruppe" v="infrastruktur" />
		<tag k="ssr:stedsnr" v="749449" />
		<tag k="ssr:type" v="adressenavn" />
	</node>
	<node lat="59.792715529429834" lon="10.260992432948617" id="-34447">
		<tag k="name" v="Stokkeveien" />
		<tag k="ssr:date" v="2019-12-27" />
		<tag k="ssr:gruppe" v="veg" />
		<tag k="ssr:hovedgruppe" v="infrastruktur" />
		<tag k="ssr:stedsnr" v="749651" />
		<tag k="ssr:type" v="adressenavn" />
	</node>
	<node lat="59.88943011184435" lon="10.306396318372418" id="-34458">
		<tag k="name" v="Bakkerudveien" />
		<tag k="ssr:date" v="2019-12-27" />
		<tag k="ssr:gruppe" v="veg" />
		<tag k="ssr:hovedgruppe" v="infrastruktur" />
		<tag k="ssr:stedsnr" v="749994" />
		<tag k="ssr:type" v="adressenavn" />
	</node>
	<node lat="59.894382779936755" lon="10.280863488326391" id="-34459">
		<tag k="name" v="Valstadveien" />
		<tag k="ssr:date" v="2019-12-27" />
		<tag k="ssr:gruppe" v="veg" />
		<tag k="ssr:hovedgruppe" v="infrastruktur" />
		<tag k="ssr:stedsnr" v="750000" />
		<tag k="ssr:type" v="adressenavn" />
	</node>
	<node lat="59.8568357338951" lon="10.278547847469955" id="-34460">
		<tag k="name" v="Torsrudveien" />
		<tag k="ssr:date" v="2019-12-27" />
		<tag k="ssr:gruppe" v="veg" />
		<tag k="ssr:hovedgruppe" v="infrastruktur" />
		<tag k="ssr:stedsnr" v="749919" />
		<tag k="ssr:type" v="adressenavn" />
	</node>
	<node lat="59.80144908537502" lon="10.249281633451027" id="-34500">
		<tag k="name" v="Kikutveien" />
		<tag k="ssr:date" v="2019-12-27" />
		<tag k="ssr:gruppe" v="veg" />
		<tag k="ssr:hovedgruppe" v="infrastruktur" />
		<tag k="ssr:stedsnr" v="809751" />
		<tag k="ssr:type" v="adressenavn" />
	</node>
	<node lat="59.7934279279366" lon="10.218115245988745" id="-34502">
		<tag k="name" v="Jarenveien" />
		<tag k="ssr:date" v="2019-12-27" />
		<tag k="ssr:gruppe" v="veg" />
		<tag k="ssr:hovedgruppe" v="infrastruktur" />
		<tag k="ssr:stedsnr" v="809759" />
		<tag k="ssr:type" v="adressenavn" />
	</node>
	<node lat="59.80908334754535" lon="10.264508615478302" id="-34505">
		<tag k="name" v="Berberissveien" />
		<tag k="ssr:date" v="2019-12-27" />
		<tag k="ssr:gruppe" v="veg" />
		<tag k="ssr:hovedgruppe" v="infrastruktur" />
		<tag k="ssr:stedsnr" v="810028" />
		<tag k="ssr:type" v="adressenavn" />
	</node>
	<node lat="59.8209272356455" lon="10.288750568053052" id="-34510">
		<tag k="name" v="Nygårdskogen" />
		<tag k="ssr:date" v="2019-12-27" />
		<tag k="ssr:gruppe" v="veg" />
		<tag k="ssr:hovedgruppe" v="infrastruktur" />
		<tag k="ssr:stedsnr" v="810079" />
		<tag k="ssr:type" v="adressenavn" />
	</node>
	<node lat="59.81921271825854" lon="10.288600879486745" id="-34511">
		<tag k="name" v="Skansen" />
		<tag k="ssr:date" v="2019-12-27" />
		<tag k="ssr:gruppe" v="veg" />
		<tag k="ssr:hovedgruppe" v="infrastruktur" />
		<tag k="ssr:stedsnr" v="810080" />
		<tag k="ssr:type" v="adressenavn" />
	</node>
	<node lat="59.78948714277265" lon="10.272842195689762" id="-34515">
		<tag k="name" v="Brurbergveien" />
		<tag k="ssr:date" v="2019-12-27" />
		<tag k="ssr:gruppe" v="veg" />
		<tag k="ssr:hovedgruppe" v="infrastruktur" />
		<tag k="ssr:stedsnr" v="810175" />
		<tag k="ssr:type" v="adressenavn" />
	</node>
	<node lat="59.81195694816041" lon="10.211526918918421" id="-34520">
		<tag k="name" v="Justadveien" />
		<tag k="ssr:date" v="2019-12-27" />
		<tag k="ssr:gruppe" v="veg" />
		<tag k="ssr:hovedgruppe" v="infrastruktur" />
		<tag k="ssr:stedsnr" v="810373" />
		<tag k="ssr:type" v="adressenavn" />
	</node>
	<node lat="59.83829943677483" lon="10.260930211876186" id="-34522">
		<tag k="name" v="Sørsdalgata" />
		<tag k="ssr:date" v="2019-12-27" />
		<tag k="ssr:gruppe" v="veg" />
		<tag k="ssr:hovedgruppe" v="infrastruktur" />
		<tag k="ssr:stedsnr" v="810379" />
		<tag k="ssr:type" v="adressenavn" />
	</node>
	<node lat="59.78291051585852" lon="10.245647824083875" id="-34526">
		<tag k="name" v="Heggveien" />
		<tag k="ssr:date" v="2019-12-27" />
		<tag k="ssr:gruppe" v="veg" />
		<tag k="ssr:hovedgruppe" v="infrastruktur" />
		<tag k="ssr:stedsnr" v="810800" />
		<tag k="ssr:type" v="adressenavn" />
	</node>
	<node lat="59.7902342922182" lon="10.236655180442094" id="-34527">
		<tag k="name" v="Mellomenga" />
		<tag k="ssr:date" v="2019-12-27" />
		<tag k="ssr:gruppe" v="veg" />
		<tag k="ssr:hovedgruppe" v="infrastruktur" />
		<tag k="ssr:stedsnr" v="810813" />
		<tag k="ssr:type" v="adressenavn" />
	</node>
	<node lat="59.79140146165893" lon="10.232829811141208" id="-34528">
		<tag k="name" v="Helgerudveien" />
		<tag k="ssr:date" v="2019-12-27" />
		<tag k="ssr:gruppe" v="veg" />
		<tag k="ssr:hovedgruppe" v="infrastruktur" />
		<tag k="ssr:stedsnr" v="810817" />
		<tag k="ssr:type" v="adressenavn" />
	</node>
	<node lat="59.93579461268989" lon="10.26774464984798" id="-34530">
		<tag k="name" v="Øverskogveien" />
		<tag k="ssr:date" v="2019-12-27" />
		<tag k="ssr:gruppe" v="veg" />
		<tag k="ssr:hovedgruppe" v="infrastruktur" />
		<tag k="ssr:stedsnr" v="810524" />
		<tag k="ssr:type" v="adressenavn" />
	</node>
	<node lat="59.78290717487387" lon="10.20261100164407" id="-34533">
		<tag k="name" v="Steinsveien" />
		<tag k="ssr:date" v="2019-12-27" />
		<tag k="ssr:gruppe" v="veg" />
		<tag k="ssr:hovedgruppe" v="infrastruktur" />
		<tag k="ssr:stedsnr" v="810666" />
		<tag k="ssr:type" v="adressenavn" />
	</node>
	<node lat="59.775547572071034" lon="10.289802832306993" id="-34538">
		<tag k="name" v="Åsveien" />
		<tag k="ssr:date" v="2019-12-27" />
		<tag k="ssr:gruppe" v="veg" />
		<tag k="ssr:hovedgruppe" v="infrastruktur" />
		<tag k="ssr:stedsnr" v="810941" />
		<tag k="ssr:type" v="adressenavn" />
	</node>
	<node lat="59.75025251821131" lon="10.235486227914269" id="-34539">
		<tag k="name" v="1.Nøste terrasse" />
		<tag k="ssr:date" v="2019-12-27" />
		<tag k="ssr:gruppe" v="veg" />
		<tag k="ssr:hovedgruppe" v="infrastruktur" />
		<tag k="ssr:stedsnr" v="810777" />
		<tag k="ssr:type" v="adressenavn" />
	</node>
	<node lat="59.7583182167877" lon="10.224602158761078" id="-34540">
		<tag k="name" v="Øvre Lianvei" />
		<tag k="ssr:date" v="2019-12-27" />
		<tag k="ssr:gruppe" v="veg" />
		<tag k="ssr:hovedgruppe" v="infrastruktur" />
		<tag k="ssr:stedsnr" v="810870" />
		<tag k="ssr:type" v="adressenavn" />
	</node>
	<node lat="59.75131262579937" lon="10.234113924663498" id="-34541">
		<tag k="name" v="Skarpsnoveien" />
		<tag k="ssr:date" v="2019-12-27" />
		<tag k="ssr:gruppe" v="veg" />
		<tag k="ssr:hovedgruppe" v="infrastruktur" />
		<tag k="ssr:stedsnr" v="810874" />
		<tag k="ssr:type" v="adressenavn" />
	</node>
	<node lat="59.75143467160457" lon="10.230958866255337" id="-34542">
		<tag k="name" v="Villaveien" />
		<tag k="ssr:date" v="2019-12-27" />
		<tag k="ssr:gruppe" v="veg" />
		<tag k="ssr:hovedgruppe" v="infrastruktur" />
		<tag k="ssr:stedsnr" v="810877" />
		<tag k="ssr:type" v="adressenavn" />
	</node>
	<node lat="59.80662266532989" lon="10.267387448714581" id="-34546">
		<tag k="name" v="Bjørkesvingen" />
		<tag k="ssr:date" v="2019-12-27" />
		<tag k="ssr:gruppe" v="veg" />
		<tag k="ssr:hovedgruppe" v="infrastruktur" />
		<tag k="ssr:stedsnr" v="810823" />
		<tag k="ssr:type" v="adressenavn" />
	</node>
	<node lat="59.79381419389396" lon="10.264387945433443" id="-34547">
		<tag k="name" v="Ottar Lingjærdes vei" />
		<tag k="ssr:date" v="2019-12-27" />
		<tag k="ssr:gruppe" v="veg" />
		<tag k="ssr:hovedgruppe" v="infrastruktur" />
		<tag k="ssr:stedsnr" v="810827" />
		<tag k="ssr:type" v="adressenavn" />
	</node>
	<node lat="59.89254190917906" lon="10.298245171066604" id="-34548">
		<tag k="name" v="Holsfjordveien" />
		<tag k="ssr:date" v="2019-12-27" />
		<tag k="ssr:gruppe" v="veg" />
		<tag k="ssr:hovedgruppe" v="infrastruktur" />
		<tag k="ssr:stedsnr" v="810986" />
		<tag k="ssr:type" v="adressenavn" />
	</node>
	<node lat="59.815072776373995" lon="10.271265233177997" id="-34574">
		<tag k="name" v="Bratromveien" />
		<tag k="ssr:date" v="2019-12-27" />
		<tag k="ssr:gruppe" v="veg" />
		<tag k="ssr:hovedgruppe" v="infrastruktur" />
		<tag k="ssr:stedsnr" v="871045" />
		<tag k="ssr:type" v="adressenavn" />
	</node>
	<node lat="59.821570411103316" lon="10.272987984916103" id="-34575">
		<tag k="name" v="Gunnersbråteveien" />
		<tag k="ssr:date" v="2019-12-27" />
		<tag k="ssr:gruppe" v="veg" />
		<tag k="ssr:hovedgruppe" v="infrastruktur" />
		<tag k="ssr:stedsnr" v="871049" />
		<tag k="ssr:type" v="adressenavn" />
	</node>
	<node lat="59.87903497337098" lon="10.256165802034308" id="-34578">
		<tag k="name" v="Iledalsveien" />
		<tag k="ssr:date" v="2019-12-27" />
		<tag k="ssr:gruppe" v="veg" />
		<tag k="ssr:hovedgruppe" v="infrastruktur" />
		<tag k="ssr:stedsnr" v="871139" />
		<tag k="ssr:type" v="adressenavn" />
	</node>
	<node lat="59.80504079586119" lon="10.289258314635296" id="-34585">
		<tag k="name" v="Kirkelina" />
		<tag k="ssr:date" v="2019-12-27" />
		<tag k="ssr:gruppe" v="veg" />
		<tag k="ssr:hovedgruppe" v="infrastruktur" />
		<tag k="ssr:stedsnr" v="871647" />
		<tag k="ssr:type" v="adressenavn" />
	</node>
	<node lat="59.849812238950925" lon="10.215834938337208" id="-34589">
		<tag k="name" v="Sjåstadveien" />
		<tag k="ssr:date" v="2019-12-27" />
		<tag k="ssr:gruppe" v="veg" />
		<tag k="ssr:hovedgruppe" v="infrastruktur" />
		<tag k="ssr:stedsnr" v="871351" />
		<tag k="ssr:type" v="adressenavn" />
	</node>
	<node lat="59.84229975218954" lon="10.22630181166731" id="-34590">
		<tag k="name" v="Merengata" />
		<tag k="ssr:date" v="2020-05-28" />
		<tag k="ssr:gruppe" v="veg" />
		<tag k="ssr:hovedgruppe" v="infrastruktur" />
		<tag k="ssr:stedsnr" v="871355" />
		<tag k="ssr:type" v="adressenavn" />
	</node>
	<node lat="59.903454837004446" lon="10.261181519099358" id="-34591">
		<tag k="name" v="Syllingbråtan" />
		<tag k="ssr:date" v="2019-12-27" />
		<tag k="ssr:gruppe" v="veg" />
		<tag k="ssr:hovedgruppe" v="infrastruktur" />
		<tag k="ssr:stedsnr" v="871542" />
		<tag k="ssr:type" v="adressenavn" />
	</node>
	<node lat="59.74653050802389" lon="10.301321941166416" id="-34600">
		<tag k="name" v="Damstubben" />
		<tag k="ssr:date" v="2019-12-27" />
		<tag k="ssr:gruppe" v="veg" />
		<tag k="ssr:hovedgruppe" v="infrastruktur" />
		<tag k="ssr:stedsnr" v="871832" />
		<tag k="ssr:type" v="adressenavn" />
	</node>
	<node lat="59.75879483194064" lon="10.292024085648372" id="-34601">
		<tag k="name" v="Berghylla" />
		<tag k="ssr:date" v="2019-12-27" />
		<tag k="ssr:gruppe" v="veg" />
		<tag k="ssr:hovedgruppe" v="infrastruktur" />
		<tag k="ssr:stedsnr" v="871841" />
		<tag k="ssr:type" v="adressenavn" />
	</node>
	<node lat="59.76206415426889" lon="10.289335072447889" id="-34602">
		<tag k="name" v="Humlebakken" />
		<tag k="ssr:date" v="2019-12-27" />
		<tag k="ssr:gruppe" v="veg" />
		<tag k="ssr:hovedgruppe" v="infrastruktur" />
		<tag k="ssr:stedsnr" v="871849" />
		<tag k="ssr:type" v="adressenavn" />
	</node>
	<node lat="59.74813352115212" lon="10.238438914841009" id="-34603">
		<tag k="name" v="Eikeliveien" />
		<tag k="ssr:date" v="2019-12-27" />
		<tag k="ssr:gruppe" v="veg" />
		<tag k="ssr:hovedgruppe" v="infrastruktur" />
		<tag k="ssr:stedsnr" v="871861" />
		<tag k="ssr:type" v="adressenavn" />
	</node>
	<node lat="59.75201933513542" lon="10.255289714062945" id="-34606">
		<tag k="name" v="Frydenlund" />
		<tag k="ssr:date" v="2019-12-27" />
		<tag k="ssr:gruppe" v="veg" />
		<tag k="ssr:hovedgruppe" v="infrastruktur" />
		<tag k="ssr:stedsnr" v="871737" />
		<tag k="ssr:type" v="adressenavn" />
	</node>
	<node lat="59.75875280257776" lon="10.25860632639533" id="-34607">
		<tag k="name" v="Vitbankveien" />
		<tag k="ssr:date" v="2019-12-27" />
		<tag k="ssr:gruppe" v="veg" />
		<tag k="ssr:hovedgruppe" v="infrastruktur" />
		<tag k="ssr:stedsnr" v="871739" />
		<tag k="ssr:type" v="adressenavn" />
	</node>
	<node lat="59.749966061905916" lon="10.253979037074771" id="-34608">
		<tag k="name" v="Tømmersvingen" />
		<tag k="ssr:date" v="2019-12-27" />
		<tag k="ssr:gruppe" v="veg" />
		<tag k="ssr:hovedgruppe" v="infrastruktur" />
		<tag k="ssr:stedsnr" v="871741" />
		<tag k="ssr:type" v="adressenavn" />
	</node>
	<node lat="59.78747817475032" lon="10.241884814461846" id="-34609">
		<tag k="name" v="Bruveien" />
		<tag k="ssr:date" v="2019-12-27" />
		<tag k="ssr:gruppe" v="veg" />
		<tag k="ssr:hovedgruppe" v="infrastruktur" />
		<tag k="ssr:stedsnr" v="871756" />
		<tag k="ssr:type" v="adressenavn" />
	</node>
	<node lat="59.89413220213644" lon="10.292265598729003" id="-34613">
		<tag k="name" v="Svangstrandbakken" />
		<tag k="ssr:date" v="2019-12-27" />
		<tag k="ssr:gruppe" v="veg" />
		<tag k="ssr:hovedgruppe" v="infrastruktur" />
		<tag k="ssr:stedsnr" v="872000" />
		<tag k="ssr:type" v="adressenavn" />
	</node>
	<node lat="59.78978300460575" lon="10.279562771461144" id="-34623">
		<tag k="name" v="Myraveien" />
		<tag k="ssr:date" v="2019-12-27" />
		<tag k="ssr:gruppe" v="veg" />
		<tag k="ssr:hovedgruppe" v="infrastruktur" />
		<tag k="ssr:stedsnr" v="931385" />
		<tag k="ssr:type" v="adressenavn" />
	</node>
	<node lat="59.89481578400753" lon="10.232074950660959" id="-34632">
		<tag k="name" v="Rustanveien" />
		<tag k="ssr:date" v="2019-12-27" />
		<tag k="ssr:gruppe" v="veg" />
		<tag k="ssr:hovedgruppe" v="infrastruktur" />
		<tag k="ssr:stedsnr" v="932168" />
		<tag k="ssr:type" v="adressenavn" />
	</node>
	<node lat="59.825089377493526" lon="10.278495991683197" id="-34636">
		<tag k="name" v="Slåttebråtan" />
		<tag k="ssr:date" v="2019-12-27" />
		<tag k="ssr:gruppe" v="veg" />
		<tag k="ssr:hovedgruppe" v="infrastruktur" />
		<tag k="ssr:stedsnr" v="932033" />
		<tag k="ssr:type" v="adressenavn" />
	</node>
	<node lat="59.82430733660903" lon="10.268887100707557" id="-34637">
		<tag k="name" v="Kraftveien" />
		<tag k="ssr:date" v="2019-12-27" />
		<tag k="ssr:gruppe" v="veg" />
		<tag k="ssr:hovedgruppe" v="infrastruktur" />
		<tag k="ssr:stedsnr" v="932034" />
		<tag k="ssr:type" v="adressenavn" />
	</node>
	<node lat="59.746853899439905" lon="10.240752965248378" id="-34638">
		<tag k="name" v="Nøstestranda" />
		<tag k="ssr:date" v="2019-12-27" />
		<tag k="ssr:gruppe" v="veg" />
		<tag k="ssr:hovedgruppe" v="infrastruktur" />
		<tag k="ssr:stedsnr" v="932724" />
		<tag k="ssr:type" v="adressenavn" />
	</node>
	<node lat="59.76552042600397" lon="10.260302139959082" id="-34639">
		<tag k="name" v="Vestre Linnesvei" />
		<tag k="ssr:date" v="2019-12-27" />
		<tag k="ssr:gruppe" v="veg" />
		<tag k="ssr:hovedgruppe" v="infrastruktur" />
		<tag k="ssr:stedsnr" v="932726" />
		<tag k="ssr:type" v="adressenavn" />
	</node>
	<node lat="59.817553736628575" lon="10.218195111795552" id="-34644">
		<tag k="name" v="Øvre Eggeveien" />
		<tag k="ssr:date" v="2019-12-27" />
		<tag k="ssr:gruppe" v="veg" />
		<tag k="ssr:hovedgruppe" v="infrastruktur" />
		<tag k="ssr:stedsnr" v="932378" />
		<tag k="ssr:type" v="adressenavn" />
	</node>
	<node lat="59.784631795706005" lon="10.266321812361204" id="-34646">
		<tag k="name" v="Brastadveien" />
		<tag k="ssr:date" v="2019-12-27" />
		<tag k="ssr:gruppe" v="veg" />
		<tag k="ssr:hovedgruppe" v="infrastruktur" />
		<tag k="ssr:stedsnr" v="932562" />
		<tag k="ssr:type" v="adressenavn" />
	</node>
	<node lat="59.75185310000905" lon="10.29356073051152" id="-34649">
		<tag k="name" v="Nedre Linneslia" />
		<tag k="ssr:date" v="2019-12-27" />
		<tag k="ssr:gruppe" v="veg" />
		<tag k="ssr:hovedgruppe" v="infrastruktur" />
		<tag k="ssr:stedsnr" v="932830" />
		<tag k="ssr:type" v="adressenavn" />
	</node>
	<node lat="59.77560806446188" lon="10.293468844773214" id="-34651">
		<tag k="name" v="Reistadlia" />
		<tag k="ssr:date" v="2019-12-27" />
		<tag k="ssr:gruppe" v="veg" />
		<tag k="ssr:hovedgruppe" v="infrastruktur" />
		<tag k="ssr:stedsnr" v="932931" />
		<tag k="ssr:type" v="adressenavn" />
	</node>
	<node lat="59.79785942916163" lon="10.232055904844502" id="-34656">
		<tag k="name" v="Linjeveien" />
		<tag k="ssr:date" v="2019-12-27" />
		<tag k="ssr:gruppe" v="veg" />
		<tag k="ssr:hovedgruppe" v="infrastruktur" />
		<tag k="ssr:stedsnr" v="932760" />
		<tag k="ssr:type" v="adressenavn" />
	</node>
	<node lat="59.746388304133944" lon="10.230741276270027" id="-34658">
		<tag k="name" v="Nøstebakken" />
		<tag k="ssr:date" v="2019-12-27" />
		<tag k="ssr:gruppe" v="veg" />
		<tag k="ssr:hovedgruppe" v="infrastruktur" />
		<tag k="ssr:stedsnr" v="932860" />
		<tag k="ssr:type" v="adressenavn" />
	</node>
	<node lat="59.81768929954602" lon="10.329946647059884" id="-34667">
		<tag k="name" v="Avstikkeren" />
		<tag k="ssr:date" v="2019-12-27" />
		<tag k="ssr:gruppe" v="veg" />
		<tag k="ssr:hovedgruppe" v="infrastruktur" />
		<tag k="ssr:stedsnr" v="1034269" />
		<tag k="ssr:type" v="adressenavn" />
	</node>
	<node lat="59.79630949496932" lon="10.26100802621463" id="-34668">
		<tag k="name" v="Auvi terrasse" />
		<tag k="ssr:date" v="2019-12-27" />
		<tag k="ssr:gruppe" v="veg" />
		<tag k="ssr:hovedgruppe" v="infrastruktur" />
		<tag k="ssr:stedsnr" v="1034281" />
		<tag k="ssr:type" v="adressenavn" />
	</node>
	<node lat="59.84565550025734" lon="10.224410719740224" id="-34669">
		<tag k="name" v="Bakkegata" />
		<tag k="ssr:date" v="2019-12-27" />
		<tag k="ssr:gruppe" v="veg" />
		<tag k="ssr:hovedgruppe" v="infrastruktur" />
		<tag k="ssr:stedsnr" v="1034395" />
		<tag k="ssr:type" v="adressenavn" />
	</node>
	<node lat="59.79114348862042" lon="10.280757137952786" id="-34670">
		<tag k="name" v="Dokka" />
		<tag k="ssr:date" v="2019-12-27" />
		<tag k="ssr:gruppe" v="veg" />
		<tag k="ssr:hovedgruppe" v="infrastruktur" />
		<tag k="ssr:stedsnr" v="1034696" />
		<tag k="ssr:type" v="adressenavn" />
	</node>
	<node lat="59.82649468172396" lon="10.327790496404512" id="-34671">
		<tag k="name" v="Ekebergsvingen" />
		<tag k="ssr:date" v="2019-12-27" />
		<tag k="ssr:gruppe" v="veg" />
		<tag k="ssr:hovedgruppe" v="infrastruktur" />
		<tag k="ssr:stedsnr" v="1034757" />
		<tag k="ssr:type" v="adressenavn" />
	</node>
	<node lat="59.826660493585834" lon="10.326952438017726" id="-34672">
		<tag k="name" v="Ekebergløkka" />
		<tag k="ssr:date" v="2019-12-27" />
		<tag k="ssr:gruppe" v="veg" />
		<tag k="ssr:hovedgruppe" v="infrastruktur" />
		<tag k="ssr:stedsnr" v="1034759" />
		<tag k="ssr:type" v="adressenavn" />
	</node>
	<node lat="59.78734391154127" lon="10.19190442388747" id="-34673">
		<tag k="name" v="Eikdamsveien" />
		<tag k="ssr:date" v="2019-12-27" />
		<tag k="ssr:gruppe" v="veg" />
		<tag k="ssr:hovedgruppe" v="infrastruktur" />
		<tag k="ssr:stedsnr" v="1034783" />
		<tag k="ssr:type" v="adressenavn" />
	</node>
	<node lat="59.78978300460575" lon="10.279562771461144" id="-34674">
		<tag k="name" v="Bråtasvingen" />
		<tag k="ssr:date" v="2019-12-27" />
		<tag k="ssr:gruppe" v="veg" />
		<tag k="ssr:hovedgruppe" v="infrastruktur" />
		<tag k="ssr:stedsnr" v="1034918" />
		<tag k="ssr:type" v="adressenavn" />
	</node>
	<node lat="59.80853108604214" lon="10.298523797715179" id="-34675">
		<tag k="name" v="Gjellebekkveien" />
		<tag k="ssr:date" v="2019-12-27" />
		<tag k="ssr:gruppe" v="veg" />
		<tag k="ssr:hovedgruppe" v="infrastruktur" />
		<tag k="ssr:stedsnr" v="1035048" />
		<tag k="ssr:type" v="adressenavn" />
	</node>
	<node lat="59.81923695552429" lon="10.31941922585485" id="-34676">
		<tag k="name" v="Gravdalberget" />
		<tag k="ssr:date" v="2019-12-27" />
		<tag k="ssr:gruppe" v="veg" />
		<tag k="ssr:hovedgruppe" v="infrastruktur" />
		<tag k="ssr:stedsnr" v="1035071" />
		<tag k="ssr:type" v="adressenavn" />
	</node>
	<node lat="59.79559019329277" lon="10.2635823305366" id="-34677">
		<tag k="name" v="Georg Tvibergs vei" />
		<tag k="ssr:date" v="2019-12-27" />
		<tag k="ssr:gruppe" v="veg" />
		<tag k="ssr:hovedgruppe" v="infrastruktur" />
		<tag k="ssr:stedsnr" v="1035190" />
		<tag k="ssr:type" v="adressenavn" />
	</node>
	<node lat="59.8196881302281" lon="10.322370567927313" id="-34678">
		<tag k="name" v="Groflata" />
		<tag k="ssr:date" v="2019-12-27" />
		<tag k="ssr:gruppe" v="veg" />
		<tag k="ssr:hovedgruppe" v="infrastruktur" />
		<tag k="ssr:stedsnr" v="1035244" />
		<tag k="ssr:type" v="adressenavn" />
	</node>
	<node lat="59.72699697804248" lon="10.313721215105492" id="-34679">
		<tag k="name" v="Grimsrudveien" />
		<tag k="ssr:date" v="2019-12-27" />
		<tag k="ssr:gruppe" v="veg" />
		<tag k="ssr:hovedgruppe" v="infrastruktur" />
		<tag k="ssr:stedsnr" v="1035246" />
		<tag k="ssr:type" v="adressenavn" />
	</node>
	<node lat="59.76358030990992" lon="10.219752339309215" id="-34680">
		<tag k="name" v="Flåtanstien" />
		<tag k="ssr:date" v="2019-12-27" />
		<tag k="ssr:gruppe" v="veg" />
		<tag k="ssr:hovedgruppe" v="infrastruktur" />
		<tag k="ssr:stedsnr" v="1035425" />
		<tag k="ssr:type" v="adressenavn" />
	</node>
	<node lat="59.73131212939459" lon="10.302499542140138" id="-34681">
		<tag k="name" v="Fjordsvingen" />
		<tag k="ssr:date" v="2019-12-27" />
		<tag k="ssr:gruppe" v="veg" />
		<tag k="ssr:hovedgruppe" v="infrastruktur" />
		<tag k="ssr:stedsnr" v="1035426" />
		<tag k="ssr:type" v="adressenavn" />
	</node>
	<node lat="59.76355713540376" lon="10.219010283882866" id="-34682">
		<tag k="name" v="Flåtan" />
		<tag k="ssr:date" v="2019-12-27" />
		<tag k="ssr:gruppe" v="veg" />
		<tag k="ssr:hovedgruppe" v="infrastruktur" />
		<tag k="ssr:stedsnr" v="1035427" />
		<tag k="ssr:type" v="adressenavn" />
	</node>
	<node lat="59.77332514981308" lon="10.24848146096549" id="-34683">
		<tag k="name" v="Fruktveien" />
		<tag k="ssr:date" v="2019-12-27" />
		<tag k="ssr:gruppe" v="veg" />
		<tag k="ssr:hovedgruppe" v="infrastruktur" />
		<tag k="ssr:stedsnr" v="1035494" />
		<tag k="ssr:type" v="adressenavn" />
	</node>
	<node lat="59.72990538909689" lon="10.304229357047195" id="-34684">
		<tag k="name" v="Engersand Havn" />
		<tag k="ssr:date" v="2019-12-27" />
		<tag k="ssr:gruppe" v="veg" />
		<tag k="ssr:hovedgruppe" v="infrastruktur" />
		<tag k="ssr:stedsnr" v="1035305" />
		<tag k="ssr:type" v="adressenavn" />
	</node>
	<node lat="59.90294249705087" lon="10.258620626217247" id="-34685">
		<tag k="name" v="Fagerlia" />
		<tag k="ssr:date" v="2019-12-27" />
		<tag k="ssr:gruppe" v="veg" />
		<tag k="ssr:hovedgruppe" v="infrastruktur" />
		<tag k="ssr:stedsnr" v="1035321" />
		<tag k="ssr:type" v="adressenavn" />
	</node>
	<node lat="59.79650554040991" lon="10.260981941258676" id="-34686">
		<tag k="name" v="Fosslia" />
		<tag k="ssr:date" v="2019-12-27" />
		<tag k="ssr:gruppe" v="veg" />
		<tag k="ssr:hovedgruppe" v="infrastruktur" />
		<tag k="ssr:stedsnr" v="1035407" />
		<tag k="ssr:type" v="adressenavn" />
	</node>
	<node lat="59.76427015525532" lon="10.221643817477606" id="-34687">
		<tag k="name" v="Flåtansvingen" />
		<tag k="ssr:date" v="2019-12-27" />
		<tag k="ssr:gruppe" v="veg" />
		<tag k="ssr:hovedgruppe" v="infrastruktur" />
		<tag k="ssr:stedsnr" v="1035419" />
		<tag k="ssr:type" v="adressenavn" />
	</node>
	<node lat="59.791378863714854" lon="10.263975904073614" id="-34688">
		<tag k="name" v="Fossbakken" />
		<tag k="ssr:date" v="2019-12-27" />
		<tag k="ssr:gruppe" v="veg" />
		<tag k="ssr:hovedgruppe" v="infrastruktur" />
		<tag k="ssr:stedsnr" v="1035421" />
		<tag k="ssr:type" v="adressenavn" />
	</node>
	<node lat="59.76398747937468" lon="10.220790542587205" id="-34689">
		<tag k="name" v="Flåtankroken" />
		<tag k="ssr:date" v="2019-12-27" />
		<tag k="ssr:gruppe" v="veg" />
		<tag k="ssr:hovedgruppe" v="infrastruktur" />
		<tag k="ssr:stedsnr" v="1035422" />
		<tag k="ssr:type" v="adressenavn" />
	</node>
	<node lat="59.94272623375435" lon="10.282301420660724" id="-34690">
		<tag k="name" v="Fuglerudsvingen" />
		<tag k="ssr:date" v="2019-12-27" />
		<tag k="ssr:gruppe" v="veg" />
		<tag k="ssr:hovedgruppe" v="infrastruktur" />
		<tag k="ssr:stedsnr" v="1035458" />
		<tag k="ssr:type" v="adressenavn" />
	</node>
	<node lat="59.932357103955724" lon="10.267621341028082" id="-34691">
		<tag k="name" v="Indre Skustadvei" />
		<tag k="ssr:date" v="2019-12-27" />
		<tag k="ssr:gruppe" v="veg" />
		<tag k="ssr:hovedgruppe" v="infrastruktur" />
		<tag k="ssr:stedsnr" v="1035534" />
		<tag k="ssr:type" v="adressenavn" />
	</node>
	<node lat="59.751358115204496" lon="10.237396211393886" id="-34692">
		<tag k="name" v="Høvik terrasse" />
		<tag k="ssr:date" v="2019-12-27" />
		<tag k="ssr:gruppe" v="veg" />
		<tag k="ssr:hovedgruppe" v="infrastruktur" />
		<tag k="ssr:stedsnr" v="1035546" />
		<tag k="ssr:type" v="adressenavn" />
	</node>
	<node lat="59.74889182129207" lon="10.243294948765417" id="-34693">
		<tag k="name" v="Høvik alle" />
		<tag k="ssr:date" v="2019-12-27" />
		<tag k="ssr:gruppe" v="veg" />
		<tag k="ssr:hovedgruppe" v="infrastruktur" />
		<tag k="ssr:stedsnr" v="1035549" />
		<tag k="ssr:type" v="adressenavn" />
	</node>
	<node lat="59.790081268759465" lon="10.280158153574355" id="-34694">
		<tag k="name" v="Jutilfaret" />
		<tag k="ssr:date" v="2019-12-27" />
		<tag k="ssr:gruppe" v="veg" />
		<tag k="ssr:hovedgruppe" v="infrastruktur" />
		<tag k="ssr:stedsnr" v="1035559" />
		<tag k="ssr:type" v="adressenavn" />
	</node>
	<node lat="59.77904342137897" lon="10.244872981336098" id="-34695">
		<tag k="name" v="Heggtoppen" />
		<tag k="ssr:date" v="2019-12-27" />
		<tag k="ssr:gruppe" v="veg" />
		<tag k="ssr:hovedgruppe" v="infrastruktur" />
		<tag k="ssr:stedsnr" v="1035607" />
		<tag k="ssr:type" v="adressenavn" />
	</node>
	<node lat="59.78154807309441" lon="10.248568558390179" id="-34696">
		<tag k="name" v="Heggalleen" />
		<tag k="ssr:date" v="2019-12-27" />
		<tag k="ssr:gruppe" v="veg" />
		<tag k="ssr:hovedgruppe" v="infrastruktur" />
		<tag k="ssr:stedsnr" v="1035610" />
		<tag k="ssr:type" v="adressenavn" />
	</node>
	<node lat="59.9421131091055" lon="10.286229480765755" id="-34697">
		<tag k="name" v="Holmenlia" />
		<tag k="ssr:date" v="2019-12-27" />
		<tag k="ssr:gruppe" v="veg" />
		<tag k="ssr:hovedgruppe" v="infrastruktur" />
		<tag k="ssr:stedsnr" v="1035702" />
		<tag k="ssr:type" v="adressenavn" />
	</node>
	<node lat="59.821556637224525" lon="10.277780478925918" id="-34698">
		<tag k="name" v="Hennummarka" />
		<tag k="ssr:date" v="2019-12-27" />
		<tag k="ssr:gruppe" v="veg" />
		<tag k="ssr:hovedgruppe" v="infrastruktur" />
		<tag k="ssr:stedsnr" v="1035713" />
		<tag k="ssr:type" v="adressenavn" />
	</node>
	<node lat="59.831875954380195" lon="10.259555001344115" id="-34699">
		<tag k="name" v="Hanseringen" />
		<tag k="ssr:date" v="2019-12-27" />
		<tag k="ssr:gruppe" v="veg" />
		<tag k="ssr:hovedgruppe" v="infrastruktur" />
		<tag k="ssr:stedsnr" v="1035654" />
		<tag k="ssr:type" v="adressenavn" />
	</node>
	<node lat="59.87597046275063" lon="10.266247114151485" id="-34700">
		<tag k="name" v="Holtsmarkveien" />
		<tag k="ssr:date" v="2019-12-27" />
		<tag k="ssr:gruppe" v="veg" />
		<tag k="ssr:hovedgruppe" v="infrastruktur" />
		<tag k="ssr:stedsnr" v="1035665" />
		<tag k="ssr:type" v="adressenavn" />
	</node>
	<node lat="59.89593963987624" lon="10.298996928999767" id="-34701">
		<tag k="name" v="Holsfjord Strand" />
		<tag k="ssr:date" v="2019-12-27" />
		<tag k="ssr:gruppe" v="veg" />
		<tag k="ssr:hovedgruppe" v="infrastruktur" />
		<tag k="ssr:stedsnr" v="1035670" />
		<tag k="ssr:type" v="adressenavn" />
	</node>
	<node lat="59.85140765040892" lon="10.205316594494981" id="-34702">
		<tag k="name" v="Liakroken" />
		<tag k="ssr:date" v="2019-12-27" />
		<tag k="ssr:gruppe" v="veg" />
		<tag k="ssr:hovedgruppe" v="infrastruktur" />
		<tag k="ssr:stedsnr" v="1035731" />
		<tag k="ssr:type" v="adressenavn" />
	</node>
	<node lat="59.949325877095916" lon="10.291710827118928" id="-34703">
		<tag k="name" v="Liaveien" />
		<tag k="ssr:date" v="2019-12-27" />
		<tag k="ssr:gruppe" v="veg" />
		<tag k="ssr:hovedgruppe" v="infrastruktur" />
		<tag k="ssr:stedsnr" v="1035738" />
		<tag k="ssr:type" v="adressenavn" />
	</node>
	<node lat="59.76180635440575" lon="10.227020275724952" id="-34704">
		<tag k="name" v="Lianstubben" />
		<tag k="ssr:date" v="2019-12-27" />
		<tag k="ssr:gruppe" v="veg" />
		<tag k="ssr:hovedgruppe" v="infrastruktur" />
		<tag k="ssr:stedsnr" v="1035739" />
		<tag k="ssr:type" v="adressenavn" />
	</node>
	<node lat="59.8077628993093" lon="10.220155949087825" id="-34705">
		<tag k="name" v="Landfallbakken" />
		<tag k="ssr:date" v="2019-12-27" />
		<tag k="ssr:gruppe" v="veg" />
		<tag k="ssr:hovedgruppe" v="infrastruktur" />
		<tag k="ssr:stedsnr" v="1035744" />
		<tag k="ssr:type" v="adressenavn" />
	</node>
	<node lat="59.8375564055934" lon="10.264215681994818" id="-34706">
		<tag k="name" v="Knipen" />
		<tag k="ssr:date" v="2019-12-27" />
		<tag k="ssr:gruppe" v="veg" />
		<tag k="ssr:hovedgruppe" v="infrastruktur" />
		<tag k="ssr:stedsnr" v="1036066" />
		<tag k="ssr:type" v="adressenavn" />
	</node>
	<node lat="59.749622765319955" lon="10.22752583027753" id="-34707">
		<tag k="name" v="Løkkebergveien" />
		<tag k="ssr:date" v="2019-12-27" />
		<tag k="ssr:gruppe" v="veg" />
		<tag k="ssr:hovedgruppe" v="infrastruktur" />
		<tag k="ssr:stedsnr" v="1035801" />
		<tag k="ssr:type" v="adressenavn" />
	</node>
	<node lat="59.75289811767053" lon="10.253474940725571" id="-34708">
		<tag k="name" v="Lille Frydenlund" />
		<tag k="ssr:date" v="2019-12-27" />
		<tag k="ssr:gruppe" v="veg" />
		<tag k="ssr:hovedgruppe" v="infrastruktur" />
		<tag k="ssr:stedsnr" v="1035891" />
		<tag k="ssr:type" v="adressenavn" />
	</node>
	<node lat="59.81696308592109" lon="10.248940392255644" id="-34709">
		<tag k="name" v="Lyngåsgata" />
		<tag k="ssr:date" v="2019-12-27" />
		<tag k="ssr:gruppe" v="veg" />
		<tag k="ssr:hovedgruppe" v="infrastruktur" />
		<tag k="ssr:stedsnr" v="1035900" />
		<tag k="ssr:type" v="adressenavn" />
	</node>
	<node lat="59.81275655162462" lon="10.313109055620616" id="-34710">
		<tag k="name" v="Kjennerstubben" />
		<tag k="ssr:date" v="2019-12-27" />
		<tag k="ssr:gruppe" v="veg" />
		<tag k="ssr:hovedgruppe" v="infrastruktur" />
		<tag k="ssr:stedsnr" v="1035914" />
		<tag k="ssr:type" v="adressenavn" />
	</node>
	<node lat="59.74706927656567" lon="10.232048673935077" id="-34711">
		<tag k="name" v="Seebergs vei" />
		<tag k="ssr:date" v="2019-12-27" />
		<tag k="ssr:gruppe" v="veg" />
		<tag k="ssr:hovedgruppe" v="infrastruktur" />
		<tag k="ssr:stedsnr" v="1036274" />
		<tag k="ssr:type" v="adressenavn" />
	</node>
	<node lat="59.75047733447137" lon="10.232935494727437" id="-34712">
		<tag k="name" v="Plommeveien" />
		<tag k="ssr:date" v="2019-12-27" />
		<tag k="ssr:gruppe" v="veg" />
		<tag k="ssr:hovedgruppe" v="infrastruktur" />
		<tag k="ssr:stedsnr" v="1036276" />
		<tag k="ssr:type" v="adressenavn" />
	</node>
	<node lat="59.822176447784614" lon="10.324465473967361" id="-34713">
		<tag k="name" v="Pina" />
		<tag k="ssr:date" v="2019-12-27" />
		<tag k="ssr:gruppe" v="veg" />
		<tag k="ssr:hovedgruppe" v="infrastruktur" />
		<tag k="ssr:stedsnr" v="1036278" />
		<tag k="ssr:type" v="adressenavn" />
	</node>
	<node lat="59.74966903696371" lon="10.245493917921458" id="-34714">
		<tag k="name" v="Roedebakken" />
		<tag k="ssr:date" v="2019-12-27" />
		<tag k="ssr:gruppe" v="veg" />
		<tag k="ssr:hovedgruppe" v="infrastruktur" />
		<tag k="ssr:stedsnr" v="1036293" />
		<tag k="ssr:type" v="adressenavn" />
	</node>
	<node lat="59.860232044800284" lon="10.281970172968677" id="-34715">
		<tag k="name" v="Rundtomåsveien" />
		<tag k="ssr:date" v="2019-12-27" />
		<tag k="ssr:gruppe" v="veg" />
		<tag k="ssr:hovedgruppe" v="infrastruktur" />
		<tag k="ssr:stedsnr" v="1036316" />
		<tag k="ssr:type" v="adressenavn" />
	</node>
	<node lat="59.77078544148347" lon="10.223320885562423" id="-34716">
		<tag k="name" v="Mølleveien" />
		<tag k="ssr:date" v="2019-12-27" />
		<tag k="ssr:gruppe" v="veg" />
		<tag k="ssr:hovedgruppe" v="infrastruktur" />
		<tag k="ssr:stedsnr" v="1036179" />
		<tag k="ssr:type" v="adressenavn" />
	</node>
	<node lat="59.94233871587404" lon="10.283897117756126" id="-34717">
		<tag k="name" v="Myrbråtaveien" />
		<tag k="ssr:date" v="2019-12-27" />
		<tag k="ssr:gruppe" v="veg" />
		<tag k="ssr:hovedgruppe" v="infrastruktur" />
		<tag k="ssr:stedsnr" v="1036180" />
		<tag k="ssr:type" v="adressenavn" />
	</node>
	<node lat="59.75957153267265" lon="10.232401358828463" id="-34718">
		<tag k="name" v="Nedre Lianvei" />
		<tag k="ssr:date" v="2019-12-27" />
		<tag k="ssr:gruppe" v="veg" />
		<tag k="ssr:hovedgruppe" v="infrastruktur" />
		<tag k="ssr:stedsnr" v="1036192" />
		<tag k="ssr:type" v="adressenavn" />
	</node>
	<node lat="59.82991712733281" lon="10.256103640091741" id="-34719">
		<tag k="name" v="Nordalveien" />
		<tag k="ssr:date" v="2019-12-27" />
		<tag k="ssr:gruppe" v="veg" />
		<tag k="ssr:hovedgruppe" v="infrastruktur" />
		<tag k="ssr:stedsnr" v="1036201" />
		<tag k="ssr:type" v="adressenavn" />
	</node>
	<node lat="59.82061351252078" lon="10.32126338728183" id="-34720">
		<tag k="name" v="Nerberget" />
		<tag k="ssr:date" v="2019-12-27" />
		<tag k="ssr:gruppe" v="veg" />
		<tag k="ssr:hovedgruppe" v="infrastruktur" />
		<tag k="ssr:stedsnr" v="1036202" />
		<tag k="ssr:type" v="adressenavn" />
	</node>
	<node lat="59.81706135758222" lon="10.196203979052333" id="-34721">
		<tag k="name" v="Nedre Solspillet" />
		<tag k="ssr:date" v="2019-12-27" />
		<tag k="ssr:gruppe" v="veg" />
		<tag k="ssr:hovedgruppe" v="infrastruktur" />
		<tag k="ssr:stedsnr" v="1036203" />
		<tag k="ssr:type" v="adressenavn" />
	</node>
	<node lat="59.75868081263874" lon="10.25563553896002" id="-34722">
		<tag k="name" v="Måkeveien" />
		<tag k="ssr:date" v="2019-12-27" />
		<tag k="ssr:gruppe" v="veg" />
		<tag k="ssr:hovedgruppe" v="infrastruktur" />
		<tag k="ssr:stedsnr" v="1036209" />
		<tag k="ssr:type" v="adressenavn" />
	</node>
	<node lat="59.826173268182835" lon="10.326818419547294" id="-34723">
		<tag k="name" v="Nedre Ekeberglia" />
		<tag k="ssr:date" v="2019-12-27" />
		<tag k="ssr:gruppe" v="veg" />
		<tag k="ssr:hovedgruppe" v="infrastruktur" />
		<tag k="ssr:stedsnr" v="1036226" />
		<tag k="ssr:type" v="adressenavn" />
	</node>
	<node lat="59.82036816449181" lon="10.32274872218139" id="-34724">
		<tag k="name" v="Røyskattstubben" />
		<tag k="ssr:date" v="2019-12-27" />
		<tag k="ssr:gruppe" v="veg" />
		<tag k="ssr:hovedgruppe" v="infrastruktur" />
		<tag k="ssr:stedsnr" v="1036232" />
		<tag k="ssr:type" v="adressenavn" />
	</node>
	<node lat="59.93238854031374" lon="10.254520049630313" id="-34725">
		<tag k="name" v="Røinehaugen" />
		<tag k="ssr:date" v="2019-12-27" />
		<tag k="ssr:gruppe" v="veg" />
		<tag k="ssr:hovedgruppe" v="infrastruktur" />
		<tag k="ssr:stedsnr" v="1036260" />
		<tag k="ssr:type" v="adressenavn" />
	</node>
	<node lat="59.83455182575438" lon="10.25893493981461" id="-34726">
		<tag k="name" v="Røedveien" />
		<tag k="ssr:date" v="2019-12-27" />
		<tag k="ssr:gruppe" v="veg" />
		<tag k="ssr:hovedgruppe" v="infrastruktur" />
		<tag k="ssr:stedsnr" v="1036261" />
		<tag k="ssr:type" v="adressenavn" />
	</node>
	<node lat="59.82799938779555" lon="10.336432076521465" id="-34727">
		<tag k="name" v="Rypekroken" />
		<tag k="ssr:date" v="2019-12-27" />
		<tag k="ssr:gruppe" v="veg" />
		<tag k="ssr:hovedgruppe" v="infrastruktur" />
		<tag k="ssr:stedsnr" v="1036264" />
		<tag k="ssr:type" v="adressenavn" />
	</node>
	<node lat="59.89376120375304" lon="10.276184719480796" id="-34728">
		<tag k="name" v="Syllinghaugen" />
		<tag k="ssr:date" v="2019-12-27" />
		<tag k="ssr:gruppe" v="veg" />
		<tag k="ssr:hovedgruppe" v="infrastruktur" />
		<tag k="ssr:stedsnr" v="1036392" />
		<tag k="ssr:type" v="adressenavn" />
	</node>
	<node lat="59.89749094623717" lon="10.277452756658622" id="-34729">
		<tag k="name" v="Sørliveien" />
		<tag k="ssr:date" v="2019-12-27" />
		<tag k="ssr:gruppe" v="veg" />
		<tag k="ssr:hovedgruppe" v="infrastruktur" />
		<tag k="ssr:stedsnr" v="1036398" />
		<tag k="ssr:type" v="adressenavn" />
	</node>
	<node lat="59.822501203838264" lon="10.197519952426594" id="-34730">
		<tag k="name" v="Sønderhellene" />
		<tag k="ssr:date" v="2019-12-27" />
		<tag k="ssr:gruppe" v="veg" />
		<tag k="ssr:hovedgruppe" v="infrastruktur" />
		<tag k="ssr:stedsnr" v="1036399" />
		<tag k="ssr:type" v="adressenavn" />
	</node>
	<node lat="59.9284777836632" lon="10.274575063215497" id="-34731">
		<tag k="name" v="Skustadhaugen" />
		<tag k="ssr:date" v="2019-12-27" />
		<tag k="ssr:gruppe" v="veg" />
		<tag k="ssr:hovedgruppe" v="infrastruktur" />
		<tag k="ssr:stedsnr" v="1036400" />
		<tag k="ssr:type" v="adressenavn" />
	</node>
	<node lat="59.925136073115155" lon="10.267490622634105" id="-34732">
		<tag k="name" v="Skustadenga" />
		<tag k="ssr:date" v="2019-12-27" />
		<tag k="ssr:gruppe" v="veg" />
		<tag k="ssr:hovedgruppe" v="infrastruktur" />
		<tag k="ssr:stedsnr" v="1036401" />
		<tag k="ssr:type" v="adressenavn" />
	</node>
	<node lat="59.752387357535206" lon="10.257807519206622" id="-34733">
		<tag k="name" v="Strandtunet" />
		<tag k="ssr:date" v="2019-12-27" />
		<tag k="ssr:gruppe" v="veg" />
		<tag k="ssr:hovedgruppe" v="infrastruktur" />
		<tag k="ssr:stedsnr" v="1036484" />
		<tag k="ssr:type" v="adressenavn" />
	</node>
	<node lat="59.82348261439062" lon="10.320127158514666" id="-34734">
		<tag k="name" v="Vestre Onstadvei" />
		<tag k="ssr:date" v="2019-12-27" />
		<tag k="ssr:gruppe" v="veg" />
		<tag k="ssr:hovedgruppe" v="infrastruktur" />
		<tag k="ssr:stedsnr" v="1036623" />
		<tag k="ssr:type" v="adressenavn" />
	</node>
	<node lat="59.93579461268989" lon="10.26774464984798" id="-34735">
		<tag k="name" v="Vestre Røinevei" />
		<tag k="ssr:date" v="2019-12-27" />
		<tag k="ssr:gruppe" v="veg" />
		<tag k="ssr:hovedgruppe" v="infrastruktur" />
		<tag k="ssr:stedsnr" v="1036624" />
		<tag k="ssr:type" v="adressenavn" />
	</node>
	<node lat="59.755231359839975" lon="10.260642416228196" id="-34736">
		<tag k="name" v="Vebjørns vei" />
		<tag k="ssr:date" v="2019-12-27" />
		<tag k="ssr:gruppe" v="veg" />
		<tag k="ssr:hovedgruppe" v="infrastruktur" />
		<tag k="ssr:stedsnr" v="1036631" />
		<tag k="ssr:type" v="adressenavn" />
	</node>
	<node lat="59.75836158463414" lon="10.228413200860807" id="-34737">
		<tag k="name" v="Risengbakken" />
		<tag k="ssr:date" v="2019-12-27" />
		<tag k="ssr:gruppe" v="veg" />
		<tag k="ssr:hovedgruppe" v="infrastruktur" />
		<tag k="ssr:stedsnr" v="1036343" />
		<tag k="ssr:type" v="adressenavn" />
	</node>
	<node lat="59.75398133201846" lon="10.262125455148064" id="-34738">
		<tag k="name" v="Ringeriksveien" />
		<tag k="ssr:date" v="2019-12-27" />
		<tag k="ssr:gruppe" v="veg" />
		<tag k="ssr:hovedgruppe" v="infrastruktur" />
		<tag k="ssr:stedsnr" v="1036347" />
		<tag k="ssr:type" v="adressenavn" />
	</node>
	<node lat="59.82056134299864" lon="10.321460226351823" id="-34739">
		<tag k="name" v="Revestubben" />
		<tag k="ssr:date" v="2019-12-27" />
		<tag k="ssr:gruppe" v="veg" />
		<tag k="ssr:hovedgruppe" v="infrastruktur" />
		<tag k="ssr:stedsnr" v="1036349" />
		<tag k="ssr:type" v="adressenavn" />
	</node>
	<node lat="59.75275017672539" lon="10.269135770602611" id="-34740">
		<tag k="name" v="Smetten" />
		<tag k="ssr:date" v="2019-12-27" />
		<tag k="ssr:gruppe" v="veg" />
		<tag k="ssr:hovedgruppe" v="infrastruktur" />
		<tag k="ssr:stedsnr" v="1036428" />
		<tag k="ssr:type" v="adressenavn" />
	</node>
	<node lat="59.79381419389396" lon="10.264387945433443" id="-34741">
		<tag k="name" v="Smedhagan" />
		<tag k="ssr:date" v="2019-12-27" />
		<tag k="ssr:gruppe" v="veg" />
		<tag k="ssr:hovedgruppe" v="infrastruktur" />
		<tag k="ssr:stedsnr" v="1036434" />
		<tag k="ssr:type" v="adressenavn" />
	</node>
	<node lat="59.89362075137755" lon="10.2989962264081" id="-34742">
		<tag k="name" v="Skjæret" />
		<tag k="ssr:date" v="2019-12-27" />
		<tag k="ssr:gruppe" v="veg" />
		<tag k="ssr:hovedgruppe" v="infrastruktur" />
		<tag k="ssr:stedsnr" v="1036439" />
		<tag k="ssr:type" v="adressenavn" />
	</node>
	<node lat="59.778770063075406" lon="10.232484256596077" id="-34743">
		<tag k="name" v="Solbakken" />
		<tag k="ssr:date" v="2019-12-27" />
		<tag k="ssr:gruppe" v="veg" />
		<tag k="ssr:hovedgruppe" v="infrastruktur" />
		<tag k="ssr:stedsnr" v="1036575" />
		<tag k="ssr:type" v="adressenavn" />
	</node>
	<node lat="59.79021729990475" lon="10.280401590147708" id="-34744">
		<tag k="name" v="Stoppopp" />
		<tag k="ssr:date" v="2019-12-27" />
		<tag k="ssr:gruppe" v="veg" />
		<tag k="ssr:hovedgruppe" v="infrastruktur" />
		<tag k="ssr:stedsnr" v="1036535" />
		<tag k="ssr:type" v="adressenavn" />
	</node>
	<node lat="59.76170659145585" lon="10.221548108836508" id="-34745">
		<tag k="name" v="Stoppenkollen" />
		<tag k="ssr:date" v="2019-12-27" />
		<tag k="ssr:gruppe" v="veg" />
		<tag k="ssr:hovedgruppe" v="infrastruktur" />
		<tag k="ssr:stedsnr" v="1036540" />
		<tag k="ssr:type" v="adressenavn" />
	</node>
	<node lat="59.81976908712975" lon="10.339675233854448" id="-34746">
		<tag k="name" v="Solvangveien" />
		<tag k="ssr:date" v="2019-12-27" />
		<tag k="ssr:gruppe" v="veg" />
		<tag k="ssr:hovedgruppe" v="infrastruktur" />
		<tag k="ssr:stedsnr" v="1036543" />
		<tag k="ssr:type" v="adressenavn" />
	</node>
	<node lat="59.8221309535387" lon="10.338670953022639" id="-34747">
		<tag k="name" v="Solvangen" />
		<tag k="ssr:date" v="2019-12-27" />
		<tag k="ssr:gruppe" v="veg" />
		<tag k="ssr:hovedgruppe" v="infrastruktur" />
		<tag k="ssr:stedsnr" v="1036554" />
		<tag k="ssr:type" v="adressenavn" />
	</node>
	<node lat="59.81455050465727" lon="10.217976203564747" id="-34748">
		<tag k="name" v="Snøplogsvingen" />
		<tag k="ssr:date" v="2019-12-27" />
		<tag k="ssr:gruppe" v="veg" />
		<tag k="ssr:hovedgruppe" v="infrastruktur" />
		<tag k="ssr:stedsnr" v="1036602" />
		<tag k="ssr:type" v="adressenavn" />
	</node>
	<node lat="59.81667500863685" lon="10.196068591637191" id="-34749">
		<tag k="name" v="Øvre Solspillet" />
		<tag k="ssr:date" v="2019-12-27" />
		<tag k="ssr:gruppe" v="veg" />
		<tag k="ssr:hovedgruppe" v="infrastruktur" />
		<tag k="ssr:stedsnr" v="1036691" />
		<tag k="ssr:type" v="adressenavn" />
	</node>
	<node lat="59.827968176373766" lon="10.325630325435316" id="-34750">
		<tag k="name" v="Øvre Ekeberglia" />
		<tag k="ssr:date" v="2019-12-27" />
		<tag k="ssr:gruppe" v="veg" />
		<tag k="ssr:hovedgruppe" v="infrastruktur" />
		<tag k="ssr:stedsnr" v="1036692" />
		<tag k="ssr:type" v="adressenavn" />
	</node>
	<node lat="59.893706452334364" lon="10.28148197903626" id="-34751">
		<tag k="name" v="Valstadlia" />
		<tag k="ssr:date" v="2019-12-27" />
		<tag k="ssr:gruppe" v="veg" />
		<tag k="ssr:hovedgruppe" v="infrastruktur" />
		<tag k="ssr:stedsnr" v="1036645" />
		<tag k="ssr:type" v="adressenavn" />
	</node>
	<node lat="59.76841901264766" lon="10.236472888326754" id="-34752">
		<tag k="name" v="Vårbakken" />
		<tag k="ssr:date" v="2019-12-27" />
		<tag k="ssr:gruppe" v="veg" />
		<tag k="ssr:hovedgruppe" v="infrastruktur" />
		<tag k="ssr:stedsnr" v="1036657" />
		<tag k="ssr:type" v="adressenavn" />
	</node>
	<node lat="59.81079658494179" lon="10.270914939024417" id="-34753">
		<tag k="name" v="Tranby torg" />
		<tag k="ssr:date" v="2019-12-27" />
		<tag k="ssr:gruppe" v="veg" />
		<tag k="ssr:hovedgruppe" v="infrastruktur" />
		<tag k="ssr:stedsnr" v="1036658" />
		<tag k="ssr:type" v="adressenavn" />
	</node>
	<node lat="59.83036751736991" lon="10.24372069148672" id="-34754">
		<tag k="name" v="Trollerudveien" />
		<tag k="ssr:date" v="2019-12-27" />
		<tag k="ssr:gruppe" v="veg" />
		<tag k="ssr:hovedgruppe" v="infrastruktur" />
		<tag k="ssr:stedsnr" v="1036661" />
		<tag k="ssr:type" v="adressenavn" />
	</node>
	<node lat="59.822257546492345" lon="10.197257296002766" id="-34755">
		<tag k="name" v="Torskroken" />
		<tag k="ssr:date" v="2019-12-27" />
		<tag k="ssr:gruppe" v="veg" />
		<tag k="ssr:hovedgruppe" v="infrastruktur" />
		<tag k="ssr:stedsnr" v="1036663" />
		<tag k="ssr:type" v="adressenavn" />
	</node>
	<node lat="59.74563739035418" lon="10.230510956899405" id="-34756">
		<tag k="name" v="Tomineborgveien" />
		<tag k="ssr:date" v="2019-12-27" />
		<tag k="ssr:gruppe" v="veg" />
		<tag k="ssr:hovedgruppe" v="infrastruktur" />
		<tag k="ssr:stedsnr" v="1036664" />
		<tag k="ssr:type" v="adressenavn" />
	</node>
	<node lat="59.82083914519559" lon="10.320459717559807" id="-34757">
		<tag k="name" v="Tiurstubben" />
		<tag k="ssr:date" v="2019-12-27" />
		<tag k="ssr:gruppe" v="veg" />
		<tag k="ssr:hovedgruppe" v="infrastruktur" />
		<tag k="ssr:stedsnr" v="1036665" />
		<tag k="ssr:type" v="adressenavn" />
	</node>
	<node lat="59.758698809358336" lon="10.256854281326945" id="-34758">
		<tag k="name" v="Terneveien" />
		<tag k="ssr:date" v="2019-12-27" />
		<tag k="ssr:gruppe" v="veg" />
		<tag k="ssr:hovedgruppe" v="infrastruktur" />
		<tag k="ssr:stedsnr" v="1036667" />
		<tag k="ssr:type" v="adressenavn" />
	</node>
	<node lat="59.93235197427449" lon="10.267836427800326" id="-34759">
		<tag k="name" v="Åsegårdveien" />
		<tag k="ssr:date" v="2019-12-27" />
		<tag k="ssr:gruppe" v="veg" />
		<tag k="ssr:hovedgruppe" v="infrastruktur" />
		<tag k="ssr:stedsnr" v="1036722" />
		<tag k="ssr:type" v="adressenavn" />
	</node>
	<node lat="59.76793785080976" lon="10.191059025575818" id="-34771">
		<tag k="name" v="Kanonveien" />
		<tag k="ssr:date" v="2019-12-27" />
		<tag k="ssr:gruppe" v="veg" />
		<tag k="ssr:hovedgruppe" v="infrastruktur" />
		<tag k="ssr:stedsnr" v="1073256" />
		<tag k="ssr:type" v="vegstrekning" />
	</node>
	<node lat="59.91168968762522" lon="10.758188226721538" id="-34772">
		<tag k="name" v="Viken fylke" />
		<tag k="ssr:date" v="2022-01-03" />
		<tag k="ssr:gruppe" v="administrativeIndelinger" />
		<tag k="ssr:hovedgruppe" v="offentligAdministrasjon" />
		<tag k="ssr:stedsnr" v="1074403" />
		<tag k="ssr:type" v="fylke" />
	</node>
	<node lat="59.963331232286585" lon="10.327420278220352" id="-34783">
		<tag k="name" v="Fjulsrudveien" />
		<tag k="ssr:date" v="2021-10-04" />
		<tag k="ssr:gruppe" v="veg" />
		<tag k="ssr:hovedgruppe" v="infrastruktur" />
		<tag k="ssr:stedsnr" v="1082507" />
		<tag k="ssr:type" v="adressenavn" />
	</node>
</osm>
