<?xml version="1.0" encoding="UTF-8"?>
<osm generator="osmapis" version="0.6">
	<node id="-221151" lat="58.9633833376" lon="9.68859167027">
		<tag k="alt_name" v="Mejulen" />
		<tag k="name" v="Medulen" />
		<tag k="ssr:date" v="2016-05-10" />
		<tag k="ssr:gruppe" v="navigasjon" />
		<tag k="ssr:hovedgruppe" v="infrastruktur" />
		<tag k="ssr:stedsnr" v="1894" />
		<tag k="ssr:type" v="fyrlykt" />
	</node>
	<node id="-222014" lat="58.9317472238" lon="9.563844445">
		<tag k="name" v="Eikvikåsen" />
		<tag k="ssr:date" v="2019-05-31" />
		<tag k="ssr:gruppe" v="veg" />
		<tag k="ssr:hovedgruppe" v="infrastruktur" />
		<tag k="ssr:stedsnr" v="605829" />
		<tag k="ssr:type" v="adressenavn" />
	</node>
	<node id="-221429" lat="59.0452675998" lon="9.70691458786">
		<tag k="alt_name" v="Gjermesholmen" />
		<tag k="name" v="Gjermundsholmen" />
		<tag k="ssr:date" v="2019-01-15" />
		<tag k="ssr:gruppe" v="navigasjon" />
		<tag k="ssr:hovedgruppe" v="infrastruktur" />
		<tag k="ssr:stedsnr" v="123540" />
		<tag k="ssr:type" v="fyrlykt" />
	</node>
	<node id="-221658" lat="58.926758332" lon="9.61309999469">
		<tag k="name" v="Vittenskjul" />
		<tag k="ssr:date" v="2016-05-10" />
		<tag k="ssr:gruppe" v="navigasjon" />
		<tag k="ssr:hovedgruppe" v="infrastruktur" />
		<tag k="ssr:stedsnr" v="243917" />
		<tag k="ssr:type" v="fyrlykt" />
	</node>
	<node id="-220799" lat="59.0015861105" lon="9.74600000542">
		<tag k="alt_name" v="Bamble" />
		<tag k="name" v="Bamble kommune" />
		<tag k="ssr:date" v="2019-01-09" />
		<tag k="ssr:gruppe" v="administrativeIndelinger" />
		<tag k="ssr:hovedgruppe" v="offentligAdministrasjon" />
		<tag k="ssr:stedsnr" v="328027" />
		<tag k="ssr:type" v="kommune" />
	</node>
	<node id="-222488" lat="58.9405527756" lon="9.63725278311">
		<tag k="name" v="Danholmen" />
		<tag k="ssr:date" v="2016-05-11" />
		<tag k="ssr:gruppe" v="navigasjon" />
		<tag k="ssr:hovedgruppe" v="infrastruktur" />
		<tag k="ssr:stedsnr" v="850925" />
		<tag k="ssr:type" v="fyrlykt" />
	</node>
	<node id="-221705" lat="58.9916805585" lon="9.75709999921">
		<tag k="alt_name" v="Langøytangen fyr" />
		<tag k="name" v="Langøytangen" />
		<tag k="ssr:date" v="2019-01-10" />
		<tag k="ssr:gruppe" v="navigasjon" />
		<tag k="ssr:hovedgruppe" v="infrastruktur" />
		<tag k="ssr:stedsnr" v="425548" />
		<tag k="ssr:type" v="fyrstasjon" />
	</node>
	<node id="-222580" lat="59.0236249976" lon="9.69145556021">
		<tag k="name" v="Tangvallkleiva" />
		<tag k="ssr:date" v="2016-05-11" />
		<tag k="ssr:gruppe" v="veg" />
		<tag k="ssr:hovedgruppe" v="infrastruktur" />
		<tag k="ssr:stedsnr" v="949060" />
		<tag k="ssr:type" v="vegstrekning" />
	</node>
	<node id="-221650" lat="58.9355083357" lon="9.61974444383">
		<tag k="name" v="Klokkersundet" />
		<tag k="ssr:date" v="2019-05-31" />
		<tag k="ssr:gruppe" v="veg" />
		<tag k="ssr:hovedgruppe" v="infrastruktur" />
		<tag k="ssr:stedsnr" v="242806" />
		<tag k="ssr:type" v="adressenavn" />
	</node>
	<node id="-221102" lat="59.0392676477" lon="9.39115988355">
		<tag k="name" v="Vellomvannsveien" />
		<tag k="ssr:date" v="2019-12-13" />
		<tag k="ssr:gruppe" v="veg" />
		<tag k="ssr:hovedgruppe" v="infrastruktur" />
		<tag k="ssr:stedsnr" v="1074277" />
		<tag k="ssr:type" v="adressenavn" />
	</node>
	<node id="-221101" lat="58.9969720503" lon="9.44223661206">
		<tag k="name" v="Hundkilveien" />
		<tag k="ssr:date" v="2019-12-13" />
		<tag k="ssr:gruppe" v="veg" />
		<tag k="ssr:hovedgruppe" v="infrastruktur" />
		<tag k="ssr:stedsnr" v="1074276" />
		<tag k="ssr:type" v="adressenavn" />
	</node>
	<node id="-221100" lat="59.0308021189" lon="9.41286686287">
		<tag k="name" v="Steinsvannsveien" />
		<tag k="ssr:date" v="2019-12-13" />
		<tag k="ssr:gruppe" v="veg" />
		<tag k="ssr:hovedgruppe" v="infrastruktur" />
		<tag k="ssr:stedsnr" v="1074275" />
		<tag k="ssr:type" v="adressenavn" />
	</node>
	<node id="-221099" lat="59.115054337" lon="9.50240269613">
		<tag k="name" v="Mebuktveien" />
		<tag k="ssr:date" v="2019-12-13" />
		<tag k="ssr:gruppe" v="veg" />
		<tag k="ssr:hovedgruppe" v="infrastruktur" />
		<tag k="ssr:stedsnr" v="1074274" />
		<tag k="ssr:type" v="adressenavn" />
	</node>
	<node id="-221098" lat="59.0288442249" lon="9.35599404409">
		<tag k="name" v="Skareveien" />
		<tag k="ssr:date" v="2019-12-13" />
		<tag k="ssr:gruppe" v="veg" />
		<tag k="ssr:hovedgruppe" v="infrastruktur" />
		<tag k="ssr:stedsnr" v="1074273" />
		<tag k="ssr:type" v="adressenavn" />
	</node>
	<node id="-221097" lat="59.0013414942" lon="9.74778374695">
		<tag k="name" v="John Gerhard Steens gate" />
		<tag k="ssr:date" v="2019-12-13" />
		<tag k="ssr:gruppe" v="veg" />
		<tag k="ssr:hovedgruppe" v="infrastruktur" />
		<tag k="ssr:stedsnr" v="1074272" />
		<tag k="ssr:type" v="adressenavn" />
	</node>
	<node id="-220808" lat="58.9923878348" lon="9.75717482985">
		<tag k="name" v="Langøytangen" />
		<tag k="ssr:date" v="2019-05-31" />
		<tag k="ssr:gruppe" v="veg" />
		<tag k="ssr:hovedgruppe" v="infrastruktur" />
		<tag k="ssr:stedsnr" v="1048069" />
		<tag k="ssr:type" v="adressenavn" />
	</node>
	<node id="-222663" lat="60.5908609473" lon="9.63819281559">
		<tag k="fixme" v="multiple name tags, choose one and add the other to alt_name" />
		<tag k="name" v="Austlandet;Østlandet" />
		<tag k="ssr:date" v="2018-01-09" />
		<tag k="ssr:gruppe" v="administrativeIndelinger" />
		<tag k="ssr:hovedgruppe" v="offentligAdministrasjon" />
		<tag k="ssr:stedsnr" v="974775" />
		<tag k="ssr:type" v="annenAdministrativInndeling" />
	</node>
	<node id="-221538" lat="59.0140309758" lon="9.74887823514">
		<tag k="name" v="Figgeskjæret" />
		<tag k="ssr:date" v="2019-01-10" />
		<tag k="ssr:gruppe" v="navigasjon" />
		<tag k="ssr:hovedgruppe" v="infrastruktur" />
		<tag k="ssr:stedsnr" v="183232" />
		<tag k="ssr:type" v="fyrlykt" />
	</node>
	<node id="-221291" lat="59.0540222242" lon="9.65576944532">
		<tag k="name" v="Midtfjordskjær" />
		<tag k="old_name" v="Midtfjordskjer" />
		<tag k="ssr:date" v="2016-05-10" />
		<tag k="ssr:gruppe" v="navigasjon" />
		<tag k="ssr:hovedgruppe" v="infrastruktur" />
		<tag k="ssr:stedsnr" v="62446" />
		<tag k="ssr:type" v="fyrlykt" />
	</node>
</osm>
