<?xml version="1.0" encoding="UTF-8"?>
<osm version="0.6" generator="osmapis">
	<node lat="59.737191664909076" lon="5.382044452348979" id="-68883">
		<tag k="alt_name" v="Brunsholmen" />
		<tag k="name" v="Brunsholmen lykt" />
		<tag k="ssr:date" v="2019-12-27" />
		<tag k="ssr:gruppe" v="navigasjon" />
		<tag k="ssr:hovedgruppe" v="infrastruktur" />
		<tag k="ssr:stedsnr" v="26417" />
		<tag k="ssr:type" v="fyrlykt" />
	</node>
	<node lat="59.78180832947696" lon="5.52448888200746" id="-68965">
		<tag k="alt_name" v="Leirvik hamn" />
		<tag k="name" v="Leirvik hamn lykt" />
		<tag k="ssr:date" v="2019-12-27" />
		<tag k="ssr:gruppe" v="navigasjon" />
		<tag k="ssr:hovedgruppe" v="infrastruktur" />
		<tag k="ssr:stedsnr" v="207134" />
		<tag k="ssr:type" v="fyrlykt" />
	</node>
	<node lat="59.77926367156287" lon="5.541857485719439" id="-69077">
		<tag k="alt_name" v="Leirvik" />
		<tag k="name" v="Leirvik lykt" />
		<tag k="ssr:date" v="2020-09-08" />
		<tag k="ssr:gruppe" v="navigasjon" />
		<tag k="ssr:hovedgruppe" v="infrastruktur" />
		<tag k="ssr:stedsnr" v="489383" />
		<tag k="ssr:type" v="fyrlykt" />
	</node>
	<node lat="59.841696840308074" lon="5.536267600605118" id="-69097">
		<tag k="alt_name" v="Grovaholmen" />
		<tag k="name" v="Grovaholmen lykt" />
		<tag k="ssr:date" v="2020-09-08" />
		<tag k="ssr:gruppe" v="navigasjon" />
		<tag k="ssr:hovedgruppe" v="infrastruktur" />
		<tag k="ssr:stedsnr" v="671337" />
		<tag k="ssr:type" v="fyrlykt" />
	</node>
	<node lat="59.63050277750045" lon="5.958086118840962" id="-69149">
		<tag k="name" v="Sunnhordland" />
		<tag k="ssr:date" v="2019-12-27" />
		<tag k="ssr:gruppe" v="terrengområder" />
		<tag k="ssr:hovedgruppe" v="terreng" />
		<tag k="ssr:stedsnr" v="692498" />
		<tag k="ssr:type" v="landskapsområde" />
	</node>
	<node lat="59.78088636515177" lon="5.49973740936561" id="-69167">
		<tag k="alt_name" v="Stord" />
		<tag k="name" v="Stord kommune" />
		<tag k="ssr:date" v="2019-12-27" />
		<tag k="ssr:gruppe" v="administrativeIndelinger" />
		<tag k="ssr:hovedgruppe" v="offentligAdministrasjon" />
		<tag k="ssr:stedsnr" v="587307" />
		<tag k="ssr:type" v="kommune" />
	</node>
	<node lat="59.7804777773802" lon="5.509830548278286" id="-69315">
		<tag k="alt_name" v="Skottaflu" />
		<tag k="name" v="Skottaflu lykt" />
		<tag k="ssr:date" v="2019-12-27" />
		<tag k="ssr:gruppe" v="navigasjon" />
		<tag k="ssr:hovedgruppe" v="infrastruktur" />
		<tag k="ssr:stedsnr" v="935129" />
		<tag k="ssr:type" v="fyrlykt" />
	</node>
	<node lat="59.866235233002975" lon="5.562494680728884" id="-69350">
		<tag k="name" v="Huglaneset" />
		<tag k="ssr:date" v="2019-12-27" />
		<tag k="ssr:gruppe" v="veg" />
		<tag k="ssr:hovedgruppe" v="infrastruktur" />
		<tag k="ssr:stedsnr" v="975568" />
		<tag k="ssr:type" v="adressenavn" />
	</node>
	<node lat="59.78481136290362" lon="5.3345732389685905" id="-69358">
		<tag k="alt_name" v="Stokkbleikjene" />
		<tag k="name" v="Stokkbleikjene lykt" />
		<tag k="ssr:date" v="2020-09-08" />
		<tag k="ssr:gruppe" v="navigasjon" />
		<tag k="ssr:hovedgruppe" v="infrastruktur" />
		<tag k="ssr:stedsnr" v="3472" />
		<tag k="ssr:type" v="fyrlykt" />
	</node>
	<node lat="59.77494166994631" lon="5.520088888934027" id="-69373">
		<tag k="alt_name" v="Sponaholmen" />
		<tag k="name" v="Sponaholmen lykt" />
		<tag k="ssr:date" v="2019-12-27" />
		<tag k="ssr:gruppe" v="navigasjon" />
		<tag k="ssr:hovedgruppe" v="infrastruktur" />
		<tag k="ssr:stedsnr" v="25137" />
		<tag k="ssr:type" v="fyrlykt" />
	</node>
	<node lat="59.8657046541819" lon="5.563179228304851" id="-69922">
		<tag k="name" v="Berrføttevegen" />
		<tag k="ssr:date" v="2019-12-27" />
		<tag k="ssr:gruppe" v="veg" />
		<tag k="ssr:hovedgruppe" v="infrastruktur" />
		<tag k="ssr:stedsnr" v="975569" />
		<tag k="ssr:type" v="adressenavn" />
	</node>
	<node lat="59.84245582139361" lon="5.476611736645917" id="-69923">
		<tag k="name" v="Kattnakkevegen" />
		<tag k="ssr:date" v="2019-12-27" />
		<tag k="ssr:gruppe" v="veg" />
		<tag k="ssr:hovedgruppe" v="infrastruktur" />
		<tag k="ssr:stedsnr" v="975570" />
		<tag k="ssr:type" v="adressenavn" />
	</node>
	<node lat="59.75626232114024" lon="5.445806963408605" id="-69924">
		<tag k="name" v="Hatlandsåsen" />
		<tag k="ssr:date" v="2019-12-27" />
		<tag k="ssr:gruppe" v="veg" />
		<tag k="ssr:hovedgruppe" v="infrastruktur" />
		<tag k="ssr:stedsnr" v="975571" />
		<tag k="ssr:type" v="adressenavn" />
	</node>
	<node lat="59.76546524590965" lon="5.470095146487536" id="-69925">
		<tag k="name" v="Langelandsstølen" />
		<tag k="ssr:date" v="2019-12-27" />
		<tag k="ssr:gruppe" v="veg" />
		<tag k="ssr:hovedgruppe" v="infrastruktur" />
		<tag k="ssr:stedsnr" v="975572" />
		<tag k="ssr:type" v="adressenavn" />
	</node>
	<node lat="59.76584894946259" lon="5.470660461231185" id="-69926">
		<tag k="name" v="Langelandshaugen" />
		<tag k="ssr:date" v="2019-12-27" />
		<tag k="ssr:gruppe" v="veg" />
		<tag k="ssr:hovedgruppe" v="infrastruktur" />
		<tag k="ssr:stedsnr" v="975573" />
		<tag k="ssr:type" v="adressenavn" />
	</node>
	<node lat="59.77646581527821" lon="5.395937450013572" id="-69927">
		<tag k="name" v="Banevegen" />
		<tag k="ssr:date" v="2019-12-27" />
		<tag k="ssr:gruppe" v="veg" />
		<tag k="ssr:hovedgruppe" v="infrastruktur" />
		<tag k="ssr:stedsnr" v="975574" />
		<tag k="ssr:type" v="adressenavn" />
	</node>
	<node lat="59.75258365372016" lon="5.460480075798863" id="-69928">
		<tag k="name" v="Solåsen" />
		<tag k="ssr:date" v="2019-12-27" />
		<tag k="ssr:gruppe" v="veg" />
		<tag k="ssr:hovedgruppe" v="infrastruktur" />
		<tag k="ssr:stedsnr" v="975575" />
		<tag k="ssr:type" v="adressenavn" />
	</node>
	<node lat="59.81148025105214" lon="5.519670276868173" id="-69936">
		<tag k="name" v="Krokane" />
		<tag k="ssr:date" v="2019-12-27" />
		<tag k="ssr:gruppe" v="veg" />
		<tag k="ssr:hovedgruppe" v="infrastruktur" />
		<tag k="ssr:stedsnr" v="1036962" />
		<tag k="ssr:type" v="adressenavn" />
	</node>
	<node lat="59.805595311162705" lon="5.530756460078732" id="-69937">
		<tag k="name" v="Kviteluren" />
		<tag k="ssr:date" v="2019-12-27" />
		<tag k="ssr:gruppe" v="veg" />
		<tag k="ssr:hovedgruppe" v="infrastruktur" />
		<tag k="ssr:stedsnr" v="1036964" />
		<tag k="ssr:type" v="adressenavn" />
	</node>
	<node lat="59.76763132067218" lon="5.491343681582307" id="-69938">
		<tag k="name" v="Knarrevegen" />
		<tag k="ssr:date" v="2019-12-27" />
		<tag k="ssr:gruppe" v="veg" />
		<tag k="ssr:hovedgruppe" v="infrastruktur" />
		<tag k="ssr:stedsnr" v="1036966" />
		<tag k="ssr:type" v="adressenavn" />
	</node>
	<node lat="59.815315539304805" lon="5.527544970902055" id="-69939">
		<tag k="name" v="Klingenbergvegen" />
		<tag k="ssr:date" v="2019-12-27" />
		<tag k="ssr:gruppe" v="veg" />
		<tag k="ssr:hovedgruppe" v="infrastruktur" />
		<tag k="ssr:stedsnr" v="1036986" />
		<tag k="ssr:type" v="adressenavn" />
	</node>
	<node lat="59.78242717301228" lon="5.496326155588237" id="-69940">
		<tag k="name" v="Myraskogen" />
		<tag k="ssr:date" v="2019-12-27" />
		<tag k="ssr:gruppe" v="veg" />
		<tag k="ssr:hovedgruppe" v="infrastruktur" />
		<tag k="ssr:stedsnr" v="1036987" />
		<tag k="ssr:type" v="adressenavn" />
	</node>
	<node lat="59.7799646273634" lon="5.501071988263571" id="-69941">
		<tag k="name" v="Nattrutekaien" />
		<tag k="ssr:date" v="2019-12-27" />
		<tag k="ssr:gruppe" v="veg" />
		<tag k="ssr:hovedgruppe" v="infrastruktur" />
		<tag k="ssr:stedsnr" v="1036989" />
		<tag k="ssr:type" v="adressenavn" />
	</node>
	<node lat="59.755275622768906" lon="5.470910007859141" id="-69942">
		<tag k="name" v="Moldmyrvegen" />
		<tag k="ssr:date" v="2019-12-27" />
		<tag k="ssr:gruppe" v="veg" />
		<tag k="ssr:hovedgruppe" v="infrastruktur" />
		<tag k="ssr:stedsnr" v="1036991" />
		<tag k="ssr:type" v="adressenavn" />
	</node>
	<node lat="59.78461122800547" lon="5.498800662729075" id="-69943">
		<tag k="name" v="Museumsbakken" />
		<tag k="ssr:date" v="2019-12-27" />
		<tag k="ssr:gruppe" v="veg" />
		<tag k="ssr:hovedgruppe" v="infrastruktur" />
		<tag k="ssr:stedsnr" v="1036993" />
		<tag k="ssr:type" v="adressenavn" />
	</node>
	<node lat="59.76627567527124" lon="5.405064029028056" id="-69944">
		<tag k="name" v="Neshaugane" />
		<tag k="ssr:date" v="2019-12-27" />
		<tag k="ssr:gruppe" v="veg" />
		<tag k="ssr:hovedgruppe" v="infrastruktur" />
		<tag k="ssr:stedsnr" v="1036995" />
		<tag k="ssr:type" v="adressenavn" />
	</node>
	<node lat="59.761401723111284" lon="5.4811790837117655" id="-69945">
		<tag k="name" v="Nesjahaugen" />
		<tag k="ssr:date" v="2019-12-27" />
		<tag k="ssr:gruppe" v="veg" />
		<tag k="ssr:hovedgruppe" v="infrastruktur" />
		<tag k="ssr:stedsnr" v="1036997" />
		<tag k="ssr:type" v="adressenavn" />
	</node>
	<node lat="59.76689335949427" lon="5.49790755057698" id="-69946">
		<tag k="name" v="Nedre hageby" />
		<tag k="ssr:date" v="2019-12-27" />
		<tag k="ssr:gruppe" v="veg" />
		<tag k="ssr:hovedgruppe" v="infrastruktur" />
		<tag k="ssr:stedsnr" v="1037000" />
		<tag k="ssr:type" v="adressenavn" />
	</node>
	<node lat="59.772715921758746" lon="5.49500440130307" id="-69947">
		<tag k="name" v="Legene" />
		<tag k="ssr:date" v="2019-12-27" />
		<tag k="ssr:gruppe" v="veg" />
		<tag k="ssr:hovedgruppe" v="infrastruktur" />
		<tag k="ssr:stedsnr" v="1037003" />
		<tag k="ssr:type" v="adressenavn" />
	</node>
	<node lat="59.78481752167039" lon="5.498469029976432" id="-69948">
		<tag k="name" v="Linneavegen" />
		<tag k="ssr:date" v="2019-12-27" />
		<tag k="ssr:gruppe" v="veg" />
		<tag k="ssr:hovedgruppe" v="infrastruktur" />
		<tag k="ssr:stedsnr" v="1037005" />
		<tag k="ssr:type" v="adressenavn" />
	</node>
	<node lat="59.76358633647926" lon="5.481983873455891" id="-69949">
		<tag k="name" v="Lauvdalen" />
		<tag k="ssr:date" v="2019-12-27" />
		<tag k="ssr:gruppe" v="veg" />
		<tag k="ssr:hovedgruppe" v="infrastruktur" />
		<tag k="ssr:stedsnr" v="1037007" />
		<tag k="ssr:type" v="adressenavn" />
	</node>
	<node lat="59.77449288428486" lon="5.4959379865685865" id="-69950">
		<tag k="name" v="Legemyrvegen" />
		<tag k="ssr:date" v="2019-12-27" />
		<tag k="ssr:gruppe" v="veg" />
		<tag k="ssr:hovedgruppe" v="infrastruktur" />
		<tag k="ssr:stedsnr" v="1037009" />
		<tag k="ssr:type" v="adressenavn" />
	</node>
	<node lat="59.77048663587195" lon="5.4910074838671195" id="-69951">
		<tag k="name" v="Marihaugen" />
		<tag k="ssr:date" v="2019-12-27" />
		<tag k="ssr:gruppe" v="veg" />
		<tag k="ssr:hovedgruppe" v="infrastruktur" />
		<tag k="ssr:stedsnr" v="1037011" />
		<tag k="ssr:type" v="adressenavn" />
	</node>
	<node lat="59.77490143982771" lon="5.50250290444008" id="-69952">
		<tag k="name" v="Midthaugen" />
		<tag k="ssr:date" v="2019-12-27" />
		<tag k="ssr:gruppe" v="veg" />
		<tag k="ssr:hovedgruppe" v="infrastruktur" />
		<tag k="ssr:stedsnr" v="1037013" />
		<tag k="ssr:type" v="adressenavn" />
	</node>
	<node lat="59.78579962999272" lon="5.410287952342929" id="-69953">
		<tag k="name" v="Longamyrvegen" />
		<tag k="ssr:date" v="2019-12-27" />
		<tag k="ssr:gruppe" v="veg" />
		<tag k="ssr:hovedgruppe" v="infrastruktur" />
		<tag k="ssr:stedsnr" v="1037015" />
		<tag k="ssr:type" v="adressenavn" />
	</node>
	<node lat="59.78092811542628" lon="5.4989651825095995" id="-69954">
		<tag k="name" v="Lønningsåsen" />
		<tag k="ssr:date" v="2019-12-27" />
		<tag k="ssr:gruppe" v="veg" />
		<tag k="ssr:hovedgruppe" v="infrastruktur" />
		<tag k="ssr:stedsnr" v="1037017" />
		<tag k="ssr:type" v="adressenavn" />
	</node>
	<node lat="59.78805036926406" lon="5.421362501069017" id="-69955">
		<tag k="name" v="Ramsdalen" />
		<tag k="ssr:date" v="2019-12-27" />
		<tag k="ssr:gruppe" v="veg" />
		<tag k="ssr:hovedgruppe" v="infrastruktur" />
		<tag k="ssr:stedsnr" v="1037020" />
		<tag k="ssr:type" v="adressenavn" />
	</node>
	<node lat="59.78119723999413" lon="5.39245893431538" id="-69956">
		<tag k="name" v="Rindane" />
		<tag k="ssr:date" v="2019-12-27" />
		<tag k="ssr:gruppe" v="veg" />
		<tag k="ssr:hovedgruppe" v="infrastruktur" />
		<tag k="ssr:stedsnr" v="1037023" />
		<tag k="ssr:type" v="adressenavn" />
	</node>
	<node lat="59.78334257242401" lon="5.503413223332609" id="-69957">
		<tag k="name" v="Prestlio" />
		<tag k="ssr:date" v="2019-12-27" />
		<tag k="ssr:gruppe" v="veg" />
		<tag k="ssr:hovedgruppe" v="infrastruktur" />
		<tag k="ssr:stedsnr" v="1037026" />
		<tag k="ssr:type" v="adressenavn" />
	</node>
	<node lat="59.76498242613727" lon="5.47357360239629" id="-69958">
		<tag k="name" v="Rabbafossen" />
		<tag k="ssr:date" v="2019-12-27" />
		<tag k="ssr:gruppe" v="veg" />
		<tag k="ssr:hovedgruppe" v="infrastruktur" />
		<tag k="ssr:stedsnr" v="1037029" />
		<tag k="ssr:type" v="adressenavn" />
	</node>
	<node lat="59.79322872002585" lon="5.520593201038855" id="-69959">
		<tag k="name" v="Rusti" />
		<tag k="ssr:date" v="2019-12-27" />
		<tag k="ssr:gruppe" v="veg" />
		<tag k="ssr:hovedgruppe" v="infrastruktur" />
		<tag k="ssr:stedsnr" v="1037031" />
		<tag k="ssr:type" v="adressenavn" />
	</node>
	<node lat="59.79479481094825" lon="5.519538369527278" id="-69960">
		<tag k="name" v="Rustungvegen" />
		<tag k="ssr:date" v="2019-12-27" />
		<tag k="ssr:gruppe" v="veg" />
		<tag k="ssr:hovedgruppe" v="infrastruktur" />
		<tag k="ssr:stedsnr" v="1037034" />
		<tag k="ssr:type" v="adressenavn" />
	</node>
	<node lat="59.7751627390629" lon="5.507470730326862" id="-69961">
		<tag k="name" v="Sandbrekko" />
		<tag k="ssr:date" v="2019-12-27" />
		<tag k="ssr:gruppe" v="veg" />
		<tag k="ssr:hovedgruppe" v="infrastruktur" />
		<tag k="ssr:stedsnr" v="1037086" />
		<tag k="ssr:type" v="adressenavn" />
	</node>
	<node lat="59.77471394997513" lon="5.393275340260399" id="-69962">
		<tag k="name" v="Sagvågsbrekko" />
		<tag k="ssr:date" v="2019-12-27" />
		<tag k="ssr:gruppe" v="veg" />
		<tag k="ssr:hovedgruppe" v="infrastruktur" />
		<tag k="ssr:stedsnr" v="1037089" />
		<tag k="ssr:type" v="adressenavn" />
	</node>
	<node lat="59.79042720009206" lon="5.417090722946639" id="-69963">
		<tag k="name" v="Rødkleiv" />
		<tag k="ssr:date" v="2019-12-27" />
		<tag k="ssr:gruppe" v="veg" />
		<tag k="ssr:hovedgruppe" v="infrastruktur" />
		<tag k="ssr:stedsnr" v="1037092" />
		<tag k="ssr:type" v="adressenavn" />
	</node>
	<node lat="59.85995381347449" lon="5.51160490938177" id="-69964">
		<tag k="name" v="Hetlesæter" />
		<tag k="ssr:date" v="2019-12-27" />
		<tag k="ssr:gruppe" v="veg" />
		<tag k="ssr:hovedgruppe" v="infrastruktur" />
		<tag k="ssr:stedsnr" v="1037545" />
		<tag k="ssr:type" v="adressenavn" />
	</node>
	<node lat="59.862259325826564" lon="5.522830317156141" id="-69965">
		<tag k="name" v="Agdestein" />
		<tag k="ssr:date" v="2019-12-27" />
		<tag k="ssr:gruppe" v="veg" />
		<tag k="ssr:hovedgruppe" v="infrastruktur" />
		<tag k="ssr:stedsnr" v="1037548" />
		<tag k="ssr:type" v="adressenavn" />
	</node>
	<node lat="59.7876811964197" lon="5.490970661572476" id="-69966">
		<tag k="name" v="Lønning" />
		<tag k="ssr:date" v="2019-12-27" />
		<tag k="ssr:gruppe" v="veg" />
		<tag k="ssr:hovedgruppe" v="infrastruktur" />
		<tag k="ssr:stedsnr" v="1037551" />
		<tag k="ssr:type" v="adressenavn" />
	</node>
	<node lat="59.77154696331484" lon="5.477498509084949" id="-69967">
		<tag k="name" v="Tveitastølen" />
		<tag k="ssr:date" v="2019-12-27" />
		<tag k="ssr:gruppe" v="veg" />
		<tag k="ssr:hovedgruppe" v="infrastruktur" />
		<tag k="ssr:stedsnr" v="1037554" />
		<tag k="ssr:type" v="adressenavn" />
	</node>
	<node lat="59.75101034889558" lon="5.4399219604068225" id="-69968">
		<tag k="name" v="Tømbervegen" />
		<tag k="ssr:date" v="2019-12-27" />
		<tag k="ssr:gruppe" v="veg" />
		<tag k="ssr:hovedgruppe" v="infrastruktur" />
		<tag k="ssr:stedsnr" v="1037557" />
		<tag k="ssr:type" v="adressenavn" />
	</node>
	<node lat="59.75041235307804" lon="5.4430589849159885" id="-69969">
		<tag k="name" v="Grindavikjo" />
		<tag k="ssr:date" v="2019-12-27" />
		<tag k="ssr:gruppe" v="veg" />
		<tag k="ssr:hovedgruppe" v="infrastruktur" />
		<tag k="ssr:stedsnr" v="1037560" />
		<tag k="ssr:type" v="adressenavn" />
	</node>
	<node lat="59.7543452525099" lon="5.430193053128335" id="-69970">
		<tag k="name" v="Tømbervikjo" />
		<tag k="ssr:date" v="2019-12-27" />
		<tag k="ssr:gruppe" v="veg" />
		<tag k="ssr:hovedgruppe" v="infrastruktur" />
		<tag k="ssr:stedsnr" v="1037563" />
		<tag k="ssr:type" v="adressenavn" />
	</node>
	<node lat="59.74904303764439" lon="5.458898604640166" id="-69971">
		<tag k="name" v="Vågodden" />
		<tag k="ssr:date" v="2019-12-27" />
		<tag k="ssr:gruppe" v="veg" />
		<tag k="ssr:hovedgruppe" v="infrastruktur" />
		<tag k="ssr:stedsnr" v="1037566" />
		<tag k="ssr:type" v="adressenavn" />
	</node>
	<node lat="59.75726430845594" lon="5.450357713890632" id="-69972">
		<tag k="name" v="Myrateigen" />
		<tag k="ssr:date" v="2019-12-27" />
		<tag k="ssr:gruppe" v="veg" />
		<tag k="ssr:hovedgruppe" v="infrastruktur" />
		<tag k="ssr:stedsnr" v="1037569" />
		<tag k="ssr:type" v="adressenavn" />
	</node>
	<node lat="59.77631659662861" lon="5.391163441390219" id="-69973">
		<tag k="name" v="Holmen" />
		<tag k="ssr:date" v="2019-12-27" />
		<tag k="ssr:gruppe" v="veg" />
		<tag k="ssr:hovedgruppe" v="infrastruktur" />
		<tag k="ssr:stedsnr" v="1037573" />
		<tag k="ssr:type" v="adressenavn" />
	</node>
	<node lat="59.807856019639416" lon="5.518711482318383" id="-69974">
		<tag k="name" v="Kråkemyro" />
		<tag k="ssr:date" v="2019-12-27" />
		<tag k="ssr:gruppe" v="veg" />
		<tag k="ssr:hovedgruppe" v="infrastruktur" />
		<tag k="ssr:stedsnr" v="1037575" />
		<tag k="ssr:type" v="adressenavn" />
	</node>
	<node lat="59.78698996331719" lon="5.4305746896227225" id="-69975">
		<tag k="name" v="Båtsvikjo" />
		<tag k="ssr:date" v="2019-12-27" />
		<tag k="ssr:gruppe" v="veg" />
		<tag k="ssr:hovedgruppe" v="infrastruktur" />
		<tag k="ssr:stedsnr" v="1037579" />
		<tag k="ssr:type" v="adressenavn" />
	</node>
	<node lat="59.792549373233406" lon="5.5011401763527035" id="-69976">
		<tag k="name" v="Krækjen" />
		<tag k="ssr:date" v="2019-12-27" />
		<tag k="ssr:gruppe" v="veg" />
		<tag k="ssr:hovedgruppe" v="infrastruktur" />
		<tag k="ssr:stedsnr" v="1037582" />
		<tag k="ssr:type" v="adressenavn" />
	</node>
	<node lat="59.766534328496654" lon="5.487606421360353" id="-69977">
		<tag k="name" v="Udnadalen" />
		<tag k="ssr:date" v="2019-12-27" />
		<tag k="ssr:gruppe" v="veg" />
		<tag k="ssr:hovedgruppe" v="infrastruktur" />
		<tag k="ssr:stedsnr" v="1037586" />
		<tag k="ssr:type" v="adressenavn" />
	</node>
	<node lat="59.82188492935278" lon="5.524097396181632" id="-69978">
		<tag k="name" v="Kyvik" />
		<tag k="ssr:date" v="2019-12-27" />
		<tag k="ssr:gruppe" v="veg" />
		<tag k="ssr:hovedgruppe" v="infrastruktur" />
		<tag k="ssr:stedsnr" v="1037589" />
		<tag k="ssr:type" v="adressenavn" />
	</node>
	<node lat="59.803376519182635" lon="5.510388677269087" id="-69979">
		<tag k="name" v="Tysemarkjo" />
		<tag k="ssr:date" v="2019-12-27" />
		<tag k="ssr:gruppe" v="veg" />
		<tag k="ssr:hovedgruppe" v="infrastruktur" />
		<tag k="ssr:stedsnr" v="1037595" />
		<tag k="ssr:type" v="adressenavn" />
	</node>
	<node lat="59.80380040663058" lon="5.509265040388856" id="-69980">
		<tag k="name" v="Prestagardslio" />
		<tag k="ssr:date" v="2019-12-27" />
		<tag k="ssr:gruppe" v="veg" />
		<tag k="ssr:hovedgruppe" v="infrastruktur" />
		<tag k="ssr:stedsnr" v="1037599" />
		<tag k="ssr:type" v="adressenavn" />
	</node>
	<node lat="59.8554458241381" lon="5.565000437560891" id="-69981">
		<tag k="name" v="Luradalen" />
		<tag k="ssr:date" v="2019-12-27" />
		<tag k="ssr:gruppe" v="veg" />
		<tag k="ssr:hovedgruppe" v="infrastruktur" />
		<tag k="ssr:stedsnr" v="1037601" />
		<tag k="ssr:type" v="adressenavn" />
	</node>
	<node lat="59.7783806812619" lon="5.4911406688360715" id="-69982">
		<tag k="name" v="Kringsjå" />
		<tag k="ssr:date" v="2019-12-27" />
		<tag k="ssr:gruppe" v="veg" />
		<tag k="ssr:hovedgruppe" v="infrastruktur" />
		<tag k="ssr:stedsnr" v="1036968" />
		<tag k="ssr:type" v="adressenavn" />
	</node>
	<node lat="59.755540090067214" lon="5.47614976937044" id="-69983">
		<tag k="name" v="Kårevikvegen" />
		<tag k="ssr:date" v="2019-12-27" />
		<tag k="ssr:gruppe" v="veg" />
		<tag k="ssr:hovedgruppe" v="infrastruktur" />
		<tag k="ssr:stedsnr" v="1036970" />
		<tag k="ssr:type" v="adressenavn" />
	</node>
	<node lat="59.76509497649684" lon="5.468847936695176" id="-69984">
		<tag k="name" v="Langelandsåsen" />
		<tag k="ssr:date" v="2019-12-27" />
		<tag k="ssr:gruppe" v="veg" />
		<tag k="ssr:hovedgruppe" v="infrastruktur" />
		<tag k="ssr:stedsnr" v="1036972" />
		<tag k="ssr:type" v="adressenavn" />
	</node>
	<node lat="59.755721156372324" lon="5.468686489367071" id="-69985">
		<tag k="name" v="Kårehaugen" />
		<tag k="ssr:date" v="2019-12-27" />
		<tag k="ssr:gruppe" v="veg" />
		<tag k="ssr:hovedgruppe" v="infrastruktur" />
		<tag k="ssr:stedsnr" v="1036974" />
		<tag k="ssr:type" v="adressenavn" />
	</node>
	<node lat="59.75437601531456" lon="5.473262678806181" id="-69986">
		<tag k="name" v="Kårevikstølen" />
		<tag k="ssr:date" v="2019-12-27" />
		<tag k="ssr:gruppe" v="veg" />
		<tag k="ssr:hovedgruppe" v="infrastruktur" />
		<tag k="ssr:stedsnr" v="1036977" />
		<tag k="ssr:type" v="adressenavn" />
	</node>
	<node lat="59.787255436085" lon="5.496165581511465" id="-69987">
		<tag k="name" v="Kattatveit" />
		<tag k="ssr:date" v="2019-12-27" />
		<tag k="ssr:gruppe" v="veg" />
		<tag k="ssr:hovedgruppe" v="infrastruktur" />
		<tag k="ssr:stedsnr" v="1036979" />
		<tag k="ssr:type" v="adressenavn" />
	</node>
	<node lat="59.76519500452161" lon="5.503072915046178" id="-69988">
		<tag k="name" v="Kjøtteinsvegen" />
		<tag k="ssr:date" v="2019-12-27" />
		<tag k="ssr:gruppe" v="veg" />
		<tag k="ssr:hovedgruppe" v="infrastruktur" />
		<tag k="ssr:stedsnr" v="1036980" />
		<tag k="ssr:type" v="adressenavn" />
	</node>
	<node lat="59.77408499547013" lon="5.374392112512212" id="-69989">
		<tag k="name" v="Kappelen" />
		<tag k="ssr:date" v="2019-12-27" />
		<tag k="ssr:gruppe" v="veg" />
		<tag k="ssr:hovedgruppe" v="infrastruktur" />
		<tag k="ssr:stedsnr" v="1036981" />
		<tag k="ssr:type" v="adressenavn" />
	</node>
	<node lat="59.78805036926406" lon="5.421362501069017" id="-69990">
		<tag k="name" v="Kattanesvegen" />
		<tag k="ssr:date" v="2019-12-27" />
		<tag k="ssr:gruppe" v="veg" />
		<tag k="ssr:hovedgruppe" v="infrastruktur" />
		<tag k="ssr:stedsnr" v="1036982" />
		<tag k="ssr:type" v="adressenavn" />
	</node>
	<node lat="59.81661877998616" lon="5.524414256126123" id="-69991">
		<tag k="name" v="Knappahagen" />
		<tag k="ssr:date" v="2019-12-27" />
		<tag k="ssr:gruppe" v="veg" />
		<tag k="ssr:hovedgruppe" v="infrastruktur" />
		<tag k="ssr:stedsnr" v="1036983" />
		<tag k="ssr:type" v="adressenavn" />
	</node>
	<node lat="59.81374496753991" lon="5.521569917739133" id="-69992">
		<tag k="name" v="Knappane" />
		<tag k="ssr:date" v="2019-12-27" />
		<tag k="ssr:gruppe" v="veg" />
		<tag k="ssr:hovedgruppe" v="infrastruktur" />
		<tag k="ssr:stedsnr" v="1036984" />
		<tag k="ssr:type" v="adressenavn" />
	</node>
	<node lat="59.799951185042765" lon="5.513772914146308" id="-69993">
		<tag k="name" v="Kleivane" />
		<tag k="ssr:date" v="2019-12-27" />
		<tag k="ssr:gruppe" v="veg" />
		<tag k="ssr:hovedgruppe" v="infrastruktur" />
		<tag k="ssr:stedsnr" v="1036985" />
		<tag k="ssr:type" v="adressenavn" />
	</node>
	<node lat="59.79305842888383" lon="5.515294292143482" id="-69994">
		<tag k="name" v="Roleghaugen" />
		<tag k="ssr:date" v="2019-12-27" />
		<tag k="ssr:gruppe" v="veg" />
		<tag k="ssr:hovedgruppe" v="infrastruktur" />
		<tag k="ssr:stedsnr" v="1037037" />
		<tag k="ssr:type" v="adressenavn" />
	</node>
	<node lat="59.804369559048254" lon="5.519065613863981" id="-69995">
		<tag k="name" v="Rommetveitvegen" />
		<tag k="ssr:date" v="2019-12-27" />
		<tag k="ssr:gruppe" v="veg" />
		<tag k="ssr:hovedgruppe" v="infrastruktur" />
		<tag k="ssr:stedsnr" v="1037040" />
		<tag k="ssr:type" v="adressenavn" />
	</node>
	<node lat="59.78222938146805" lon="5.402106844493717" id="-69996">
		<tag k="name" v="Nysæterstølen" />
		<tag k="ssr:date" v="2019-12-27" />
		<tag k="ssr:gruppe" v="veg" />
		<tag k="ssr:hovedgruppe" v="infrastruktur" />
		<tag k="ssr:stedsnr" v="1037042" />
		<tag k="ssr:type" v="adressenavn" />
	</node>
	<node lat="59.79417095880934" lon="5.508296299390222" id="-69997">
		<tag k="name" v="Olvikvegen" />
		<tag k="ssr:date" v="2019-12-27" />
		<tag k="ssr:gruppe" v="veg" />
		<tag k="ssr:hovedgruppe" v="infrastruktur" />
		<tag k="ssr:stedsnr" v="1037044" />
		<tag k="ssr:type" v="adressenavn" />
	</node>
	<node lat="59.78272385983633" lon="5.406082600977371" id="-69998">
		<tag k="name" v="Nysæterhaugen" />
		<tag k="ssr:date" v="2019-12-27" />
		<tag k="ssr:gruppe" v="veg" />
		<tag k="ssr:hovedgruppe" v="infrastruktur" />
		<tag k="ssr:stedsnr" v="1037046" />
		<tag k="ssr:type" v="adressenavn" />
	</node>
	<node lat="59.779330967315445" lon="5.402570913520418" id="-69999">
		<tag k="name" v="Nysæterneset" />
		<tag k="ssr:date" v="2019-12-27" />
		<tag k="ssr:gruppe" v="veg" />
		<tag k="ssr:hovedgruppe" v="infrastruktur" />
		<tag k="ssr:stedsnr" v="1037049" />
		<tag k="ssr:type" v="adressenavn" />
	</node>
	<node lat="59.783994368893" lon="5.503188668355396" id="-70000">
		<tag k="name" v="Parkvegen" />
		<tag k="ssr:date" v="2019-12-27" />
		<tag k="ssr:gruppe" v="veg" />
		<tag k="ssr:hovedgruppe" v="infrastruktur" />
		<tag k="ssr:stedsnr" v="1037052" />
		<tag k="ssr:type" v="adressenavn" />
	</node>
	<node lat="59.77340392047258" lon="5.400482095728783" id="-70001">
		<tag k="name" v="Podlen" />
		<tag k="ssr:date" v="2019-12-27" />
		<tag k="ssr:gruppe" v="veg" />
		<tag k="ssr:hovedgruppe" v="infrastruktur" />
		<tag k="ssr:stedsnr" v="1037055" />
		<tag k="ssr:type" v="adressenavn" />
	</node>
	<node lat="59.7831569424065" lon="5.488582419161361" id="-70002">
		<tag k="name" v="Orrebrotet" />
		<tag k="ssr:date" v="2019-12-27" />
		<tag k="ssr:gruppe" v="veg" />
		<tag k="ssr:hovedgruppe" v="infrastruktur" />
		<tag k="ssr:stedsnr" v="1037057" />
		<tag k="ssr:type" v="adressenavn" />
	</node>
	<node lat="59.779807625014065" lon="5.500564127465871" id="-70003">
		<tag k="name" v="Osen" />
		<tag k="ssr:date" v="2019-12-27" />
		<tag k="ssr:gruppe" v="veg" />
		<tag k="ssr:hovedgruppe" v="infrastruktur" />
		<tag k="ssr:stedsnr" v="1037059" />
		<tag k="ssr:type" v="adressenavn" />
	</node>
	<node lat="59.77399267773201" lon="5.500063533258581" id="-70004">
		<tag k="name" v="Skotabergvegen" />
		<tag k="ssr:date" v="2019-12-27" />
		<tag k="ssr:gruppe" v="veg" />
		<tag k="ssr:hovedgruppe" v="infrastruktur" />
		<tag k="ssr:stedsnr" v="1037062" />
		<tag k="ssr:type" v="adressenavn" />
	</node>
	<node lat="59.77770279019042" lon="5.502921280241138" id="-70005">
		<tag k="name" v="Skotlio" />
		<tag k="ssr:date" v="2019-12-27" />
		<tag k="ssr:gruppe" v="veg" />
		<tag k="ssr:hovedgruppe" v="infrastruktur" />
		<tag k="ssr:stedsnr" v="1037065" />
		<tag k="ssr:type" v="adressenavn" />
	</node>
	<node lat="59.779695902935835" lon="5.382651449412002" id="-70006">
		<tag k="name" v="Skifteslono" />
		<tag k="ssr:date" v="2019-12-27" />
		<tag k="ssr:gruppe" v="veg" />
		<tag k="ssr:hovedgruppe" v="infrastruktur" />
		<tag k="ssr:stedsnr" v="1037067" />
		<tag k="ssr:type" v="adressenavn" />
	</node>
	<node lat="59.77486400076457" lon="5.3911067403581905" id="-70007">
		<tag k="name" v="Skjepavikjo" />
		<tag k="ssr:date" v="2019-12-27" />
		<tag k="ssr:gruppe" v="veg" />
		<tag k="ssr:hovedgruppe" v="infrastruktur" />
		<tag k="ssr:stedsnr" v="1037071" />
		<tag k="ssr:type" v="adressenavn" />
	</node>
	<node lat="59.79305784843766" lon="5.503204513739011" id="-70008">
		<tag k="name" v="Skyttarhaugsvegen" />
		<tag k="ssr:date" v="2019-12-27" />
		<tag k="ssr:gruppe" v="veg" />
		<tag k="ssr:hovedgruppe" v="infrastruktur" />
		<tag k="ssr:stedsnr" v="1037074" />
		<tag k="ssr:type" v="adressenavn" />
	</node>
	<node lat="59.77692776641833" lon="5.509433765515859" id="-70009">
		<tag k="name" v="Sponavikdalen" />
		<tag k="ssr:date" v="2019-12-27" />
		<tag k="ssr:gruppe" v="veg" />
		<tag k="ssr:hovedgruppe" v="infrastruktur" />
		<tag k="ssr:stedsnr" v="1037078" />
		<tag k="ssr:type" v="adressenavn" />
	</node>
	<node lat="59.782997153569816" lon="5.498910213063565" id="-70010">
		<tag k="name" v="Skrivarvegen" />
		<tag k="ssr:date" v="2019-12-27" />
		<tag k="ssr:gruppe" v="veg" />
		<tag k="ssr:hovedgruppe" v="infrastruktur" />
		<tag k="ssr:stedsnr" v="1037081" />
		<tag k="ssr:type" v="adressenavn" />
	</node>
	<node lat="59.78266043339976" lon="5.391637804762899" id="-70011">
		<tag k="name" v="Hamrane" />
		<tag k="ssr:date" v="2019-12-27" />
		<tag k="ssr:gruppe" v="veg" />
		<tag k="ssr:hovedgruppe" v="infrastruktur" />
		<tag k="ssr:stedsnr" v="1037136" />
		<tag k="ssr:type" v="adressenavn" />
	</node>
	<node lat="59.75944376054202" lon="5.474311888512059" id="-70012">
		<tag k="name" v="Haugen" />
		<tag k="ssr:date" v="2019-12-27" />
		<tag k="ssr:gruppe" v="veg" />
		<tag k="ssr:hovedgruppe" v="infrastruktur" />
		<tag k="ssr:stedsnr" v="1037137" />
		<tag k="ssr:type" v="adressenavn" />
	</node>
	<node lat="59.80478183155968" lon="5.525792832027626" id="-70013">
		<tag k="name" v="Hagavollen" />
		<tag k="ssr:date" v="2019-12-27" />
		<tag k="ssr:gruppe" v="veg" />
		<tag k="ssr:hovedgruppe" v="infrastruktur" />
		<tag k="ssr:stedsnr" v="1037138" />
		<tag k="ssr:type" v="adressenavn" />
	</node>
	<node lat="59.77774597307937" lon="5.501071418969002" id="-70014">
		<tag k="name" v="Hamnegata" />
		<tag k="ssr:date" v="2019-12-27" />
		<tag k="ssr:gruppe" v="veg" />
		<tag k="ssr:hovedgruppe" v="infrastruktur" />
		<tag k="ssr:stedsnr" v="1037139" />
		<tag k="ssr:type" v="adressenavn" />
	</node>
	<node lat="59.772612182460875" lon="5.390882154301524" id="-70015">
		<tag k="name" v="Grunnavågsvegen" />
		<tag k="ssr:date" v="2019-12-27" />
		<tag k="ssr:gruppe" v="veg" />
		<tag k="ssr:hovedgruppe" v="infrastruktur" />
		<tag k="ssr:stedsnr" v="1037140" />
		<tag k="ssr:type" v="adressenavn" />
	</node>
	<node lat="59.78925830980087" lon="5.425162398198701" id="-70016">
		<tag k="name" v="Gjerdet" />
		<tag k="ssr:date" v="2019-12-27" />
		<tag k="ssr:gruppe" v="veg" />
		<tag k="ssr:hovedgruppe" v="infrastruktur" />
		<tag k="ssr:stedsnr" v="1037141" />
		<tag k="ssr:type" v="adressenavn" />
	</node>
	<node lat="59.78824973521795" lon="5.41757048403777" id="-70017">
		<tag k="name" v="Gruva" />
		<tag k="ssr:date" v="2019-12-27" />
		<tag k="ssr:gruppe" v="veg" />
		<tag k="ssr:hovedgruppe" v="infrastruktur" />
		<tag k="ssr:stedsnr" v="1037142" />
		<tag k="ssr:type" v="adressenavn" />
	</node>
	<node lat="59.80263400894063" lon="5.529084343506513" id="-70018">
		<tag k="name" v="Haga" />
		<tag k="ssr:date" v="2019-12-27" />
		<tag k="ssr:gruppe" v="veg" />
		<tag k="ssr:hovedgruppe" v="infrastruktur" />
		<tag k="ssr:stedsnr" v="1037143" />
		<tag k="ssr:type" v="adressenavn" />
	</node>
	<node lat="59.769005520642594" lon="5.498515757296448" id="-70019">
		<tag k="name" v="Gullbergvegen" />
		<tag k="ssr:date" v="2019-12-27" />
		<tag k="ssr:gruppe" v="veg" />
		<tag k="ssr:hovedgruppe" v="infrastruktur" />
		<tag k="ssr:stedsnr" v="1037144" />
		<tag k="ssr:type" v="adressenavn" />
	</node>
	<node lat="59.77285817128834" lon="5.499359507222416" id="-70020">
		<tag k="name" v="Gullskar" />
		<tag k="ssr:date" v="2019-12-27" />
		<tag k="ssr:gruppe" v="veg" />
		<tag k="ssr:hovedgruppe" v="infrastruktur" />
		<tag k="ssr:stedsnr" v="1037145" />
		<tag k="ssr:type" v="adressenavn" />
	</node>
	<node lat="59.76994829431775" lon="5.48083417013276" id="-70021">
		<tag k="name" v="Høylandsvegen" />
		<tag k="ssr:date" v="2019-12-27" />
		<tag k="ssr:gruppe" v="veg" />
		<tag k="ssr:hovedgruppe" v="infrastruktur" />
		<tag k="ssr:stedsnr" v="1037146" />
		<tag k="ssr:type" v="adressenavn" />
	</node>
	<node lat="59.79432903937592" lon="5.516864072514149" id="-70022">
		<tag k="name" v="Håvåsen" />
		<tag k="ssr:date" v="2019-12-27" />
		<tag k="ssr:gruppe" v="veg" />
		<tag k="ssr:hovedgruppe" v="infrastruktur" />
		<tag k="ssr:stedsnr" v="1037147" />
		<tag k="ssr:type" v="adressenavn" />
	</node>
	<node lat="59.79019218313685" lon="5.521281717577517" id="-70023">
		<tag k="name" v="Hystadtre" />
		<tag k="ssr:date" v="2019-12-27" />
		<tag k="ssr:gruppe" v="veg" />
		<tag k="ssr:hovedgruppe" v="infrastruktur" />
		<tag k="ssr:stedsnr" v="1037148" />
		<tag k="ssr:type" v="adressenavn" />
	</node>
	<node lat="59.76132883051875" lon="5.474992194131547" id="-70024">
		<tag k="name" v="Høgestølen" />
		<tag k="ssr:date" v="2019-12-27" />
		<tag k="ssr:gruppe" v="veg" />
		<tag k="ssr:hovedgruppe" v="infrastruktur" />
		<tag k="ssr:stedsnr" v="1037149" />
		<tag k="ssr:type" v="adressenavn" />
	</node>
	<node lat="59.77723178860127" lon="5.379575586713136" id="-70025">
		<tag k="name" v="Jensanesvegen" />
		<tag k="ssr:date" v="2019-12-27" />
		<tag k="ssr:gruppe" v="veg" />
		<tag k="ssr:hovedgruppe" v="infrastruktur" />
		<tag k="ssr:stedsnr" v="1037150" />
		<tag k="ssr:type" v="adressenavn" />
	</node>
	<node lat="59.78173714186617" lon="5.502524723615727" id="-70026">
		<tag k="name" v="Jens Hystadvegen" />
		<tag k="ssr:date" v="2019-12-27" />
		<tag k="ssr:gruppe" v="veg" />
		<tag k="ssr:hovedgruppe" v="infrastruktur" />
		<tag k="ssr:stedsnr" v="1037151" />
		<tag k="ssr:type" v="adressenavn" />
	</node>
	<node lat="59.77035573948568" lon="5.501086698475415" id="-70027">
		<tag k="name" v="Håklubben" />
		<tag k="ssr:date" v="2019-12-27" />
		<tag k="ssr:gruppe" v="veg" />
		<tag k="ssr:hovedgruppe" v="infrastruktur" />
		<tag k="ssr:stedsnr" v="1037152" />
		<tag k="ssr:type" v="adressenavn" />
	</node>
	<node lat="59.78253507150902" lon="5.503356206119089" id="-70028">
		<tag k="name" v="Ingebrigtshaugen" />
		<tag k="ssr:date" v="2019-12-27" />
		<tag k="ssr:gruppe" v="veg" />
		<tag k="ssr:hovedgruppe" v="infrastruktur" />
		<tag k="ssr:stedsnr" v="1037153" />
		<tag k="ssr:type" v="adressenavn" />
	</node>
	<node lat="59.787889000887674" lon="5.427659827590251" id="-70029">
		<tag k="name" v="Hillarhaugen" />
		<tag k="ssr:date" v="2019-12-27" />
		<tag k="ssr:gruppe" v="veg" />
		<tag k="ssr:hovedgruppe" v="infrastruktur" />
		<tag k="ssr:stedsnr" v="1037154" />
		<tag k="ssr:type" v="adressenavn" />
	</node>
	<node lat="59.75499272493028" lon="5.470544561345236" id="-70030">
		<tag k="name" v="Hjortåsen" />
		<tag k="ssr:date" v="2019-12-27" />
		<tag k="ssr:gruppe" v="veg" />
		<tag k="ssr:hovedgruppe" v="infrastruktur" />
		<tag k="ssr:stedsnr" v="1037155" />
		<tag k="ssr:type" v="adressenavn" />
	</node>
	<node lat="59.75948670098424" lon="5.4521275910694635" id="-70031">
		<tag k="name" v="Heiane" />
		<tag k="ssr:date" v="2019-12-27" />
		<tag k="ssr:gruppe" v="veg" />
		<tag k="ssr:hovedgruppe" v="infrastruktur" />
		<tag k="ssr:stedsnr" v="1037156" />
		<tag k="ssr:type" v="adressenavn" />
	</node>
	<node lat="59.771411994398456" lon="5.487247800304379" id="-70032">
		<tag k="name" v="Heio" />
		<tag k="ssr:date" v="2019-12-27" />
		<tag k="ssr:gruppe" v="veg" />
		<tag k="ssr:hovedgruppe" v="infrastruktur" />
		<tag k="ssr:stedsnr" v="1037157" />
		<tag k="ssr:type" v="adressenavn" />
	</node>
	<node lat="59.760051151186126" lon="5.477209692025517" id="-70033">
		<tag k="name" v="Hybelsneset" />
		<tag k="ssr:date" v="2019-12-27" />
		<tag k="ssr:gruppe" v="veg" />
		<tag k="ssr:hovedgruppe" v="infrastruktur" />
		<tag k="ssr:stedsnr" v="1037158" />
		<tag k="ssr:type" v="adressenavn" />
	</node>
	<node lat="59.78700399454425" lon="5.507441302340008" id="-70034">
		<tag k="name" v="Hystadvegen" />
		<tag k="ssr:date" v="2019-12-27" />
		<tag k="ssr:gruppe" v="veg" />
		<tag k="ssr:hovedgruppe" v="infrastruktur" />
		<tag k="ssr:stedsnr" v="1037159" />
		<tag k="ssr:type" v="adressenavn" />
	</node>
	<node lat="59.780346370745406" lon="5.496642718164873" id="-70035">
		<tag k="name" v="Holevegen" />
		<tag k="ssr:date" v="2019-12-27" />
		<tag k="ssr:gruppe" v="veg" />
		<tag k="ssr:hovedgruppe" v="infrastruktur" />
		<tag k="ssr:stedsnr" v="1037160" />
		<tag k="ssr:type" v="adressenavn" />
	</node>
	<node lat="59.75671963833132" lon="5.460453960228851" id="-70036">
		<tag k="name" v="Hornelandsvegen" />
		<tag k="ssr:date" v="2019-12-27" />
		<tag k="ssr:gruppe" v="veg" />
		<tag k="ssr:hovedgruppe" v="infrastruktur" />
		<tag k="ssr:stedsnr" v="1037161" />
		<tag k="ssr:type" v="adressenavn" />
	</node>
	<node lat="59.776581127856836" lon="5.493739237336501" id="-70037">
		<tag k="name" v="Saghaugen" />
		<tag k="ssr:date" v="2019-12-27" />
		<tag k="ssr:gruppe" v="veg" />
		<tag k="ssr:hovedgruppe" v="infrastruktur" />
		<tag k="ssr:stedsnr" v="1037095" />
		<tag k="ssr:type" v="adressenavn" />
	</node>
	<node lat="59.78913372751166" lon="5.51474617176616" id="-70038">
		<tag k="name" v="Sjukehusvegen" />
		<tag k="ssr:date" v="2019-12-27" />
		<tag k="ssr:gruppe" v="veg" />
		<tag k="ssr:hovedgruppe" v="infrastruktur" />
		<tag k="ssr:stedsnr" v="1037098" />
		<tag k="ssr:type" v="adressenavn" />
	</node>
	<node lat="59.84166267708026" lon="5.5732211976971815" id="-70039">
		<tag k="name" v="Skarvene" />
		<tag k="ssr:date" v="2019-12-27" />
		<tag k="ssr:gruppe" v="veg" />
		<tag k="ssr:hovedgruppe" v="infrastruktur" />
		<tag k="ssr:stedsnr" v="1037101" />
		<tag k="ssr:type" v="adressenavn" />
	</node>
	<node lat="59.76426336796166" lon="5.452134645902186" id="-70040">
		<tag k="name" v="Sagvågsvegen" />
		<tag k="ssr:date" v="2019-12-27" />
		<tag k="ssr:gruppe" v="veg" />
		<tag k="ssr:hovedgruppe" v="infrastruktur" />
		<tag k="ssr:stedsnr" v="1037104" />
		<tag k="ssr:type" v="adressenavn" />
	</node>
	<node lat="59.77763171188563" lon="5.5010245679173675" id="-70041">
		<tag k="name" v="Sjoarbakken" />
		<tag k="ssr:date" v="2019-12-27" />
		<tag k="ssr:gruppe" v="veg" />
		<tag k="ssr:hovedgruppe" v="infrastruktur" />
		<tag k="ssr:stedsnr" v="1037107" />
		<tag k="ssr:type" v="adressenavn" />
	</node>
	<node lat="59.79154054658418" lon="5.519061998591131" id="-70042">
		<tag k="name" v="Amlievegen" />
		<tag k="ssr:date" v="2019-12-27" />
		<tag k="ssr:gruppe" v="veg" />
		<tag k="ssr:hovedgruppe" v="infrastruktur" />
		<tag k="ssr:stedsnr" v="1037110" />
		<tag k="ssr:type" v="adressenavn" />
	</node>
	<node lat="59.80147870875433" lon="5.5211498532694625" id="-70043">
		<tag k="name" v="Apalvegen" />
		<tag k="ssr:date" v="2019-12-27" />
		<tag k="ssr:gruppe" v="veg" />
		<tag k="ssr:hovedgruppe" v="infrastruktur" />
		<tag k="ssr:stedsnr" v="1037111" />
		<tag k="ssr:type" v="adressenavn" />
	</node>
	<node lat="59.778942301746724" lon="5.488964687958872" id="-70044">
		<tag k="name" v="Bandadalen" />
		<tag k="ssr:date" v="2019-12-27" />
		<tag k="ssr:gruppe" v="veg" />
		<tag k="ssr:hovedgruppe" v="infrastruktur" />
		<tag k="ssr:stedsnr" v="1037112" />
		<tag k="ssr:type" v="adressenavn" />
	</node>
	<node lat="59.77500366127492" lon="5.374806624732369" id="-70045">
		<tag k="name" v="Berjahaugen" />
		<tag k="ssr:date" v="2019-12-27" />
		<tag k="ssr:gruppe" v="veg" />
		<tag k="ssr:hovedgruppe" v="infrastruktur" />
		<tag k="ssr:stedsnr" v="1037113" />
		<tag k="ssr:type" v="adressenavn" />
	</node>
	<node lat="59.78811754276132" lon="5.525005406054153" id="-70046">
		<tag k="name" v="Aslaksbrekko" />
		<tag k="ssr:date" v="2019-12-27" />
		<tag k="ssr:gruppe" v="veg" />
		<tag k="ssr:hovedgruppe" v="infrastruktur" />
		<tag k="ssr:stedsnr" v="1037114" />
		<tag k="ssr:type" v="adressenavn" />
	</node>
	<node lat="59.79335457529592" lon="5.520173063515307" id="-70047">
		<tag k="name" v="Eikevegen" />
		<tag k="ssr:date" v="2019-12-27" />
		<tag k="ssr:gruppe" v="veg" />
		<tag k="ssr:hovedgruppe" v="infrastruktur" />
		<tag k="ssr:stedsnr" v="1037115" />
		<tag k="ssr:type" v="adressenavn" />
	</node>
	<node lat="59.79294954196124" lon="5.520854498613176" id="-70048">
		<tag k="name" v="Ekro" />
		<tag k="ssr:date" v="2019-12-27" />
		<tag k="ssr:gruppe" v="veg" />
		<tag k="ssr:hovedgruppe" v="infrastruktur" />
		<tag k="ssr:stedsnr" v="1037117" />
		<tag k="ssr:type" v="adressenavn" />
	</node>
	<node lat="59.80024073257009" lon="5.521271130927401" id="-70049">
		<tag k="name" v="Dalen" />
		<tag k="ssr:date" v="2019-12-27" />
		<tag k="ssr:gruppe" v="veg" />
		<tag k="ssr:hovedgruppe" v="infrastruktur" />
		<tag k="ssr:stedsnr" v="1037118" />
		<tag k="ssr:type" v="adressenavn" />
	</node>
	<node lat="59.78939054953915" lon="5.5124897373262325" id="-70050">
		<tag k="name" v="Døso" />
		<tag k="ssr:date" v="2019-12-27" />
		<tag k="ssr:gruppe" v="veg" />
		<tag k="ssr:hovedgruppe" v="infrastruktur" />
		<tag k="ssr:stedsnr" v="1037119" />
		<tag k="ssr:type" v="adressenavn" />
	</node>
	<node lat="59.77367329443315" lon="5.396674987951028" id="-70051">
		<tag k="name" v="Fløytet" />
		<tag k="ssr:date" v="2019-12-27" />
		<tag k="ssr:gruppe" v="veg" />
		<tag k="ssr:hovedgruppe" v="infrastruktur" />
		<tag k="ssr:stedsnr" v="1037120" />
		<tag k="ssr:type" v="adressenavn" />
	</node>
	<node lat="59.7875319791446" lon="5.510494941384292" id="-70052">
		<tag k="name" v="Furulyvegen" />
		<tag k="ssr:date" v="2019-12-27" />
		<tag k="ssr:gruppe" v="veg" />
		<tag k="ssr:hovedgruppe" v="infrastruktur" />
		<tag k="ssr:stedsnr" v="1037121" />
		<tag k="ssr:type" v="adressenavn" />
	</node>
	<node lat="59.78446094502387" lon="5.400543873871806" id="-70053">
		<tag k="name" v="Fjellsmogehaugen" />
		<tag k="ssr:date" v="2019-12-27" />
		<tag k="ssr:gruppe" v="veg" />
		<tag k="ssr:hovedgruppe" v="infrastruktur" />
		<tag k="ssr:stedsnr" v="1037122" />
		<tag k="ssr:type" v="adressenavn" />
	</node>
	<node lat="59.77446464264124" lon="5.5035734008776505" id="-70054">
		<tag k="name" v="Flathaugane" />
		<tag k="ssr:date" v="2019-12-27" />
		<tag k="ssr:gruppe" v="veg" />
		<tag k="ssr:hovedgruppe" v="infrastruktur" />
		<tag k="ssr:stedsnr" v="1037123" />
		<tag k="ssr:type" v="adressenavn" />
	</node>
	<node lat="59.78072616330346" lon="5.500305005386152" id="-70055">
		<tag k="name" v="Borggata" />
		<tag k="ssr:date" v="2019-12-27" />
		<tag k="ssr:gruppe" v="veg" />
		<tag k="ssr:hovedgruppe" v="infrastruktur" />
		<tag k="ssr:stedsnr" v="1037124" />
		<tag k="ssr:type" v="adressenavn" />
	</node>
	<node lat="59.78398069366775" lon="5.49714192985278" id="-70056">
		<tag k="name" v="Botnen" />
		<tag k="ssr:date" v="2019-12-27" />
		<tag k="ssr:gruppe" v="veg" />
		<tag k="ssr:hovedgruppe" v="infrastruktur" />
		<tag k="ssr:stedsnr" v="1037125" />
		<tag k="ssr:type" v="adressenavn" />
	</node>
	<node lat="59.76959745348988" lon="5.495549332708492" id="-70057">
		<tag k="name" v="Bjellandsvegen" />
		<tag k="ssr:date" v="2019-12-27" />
		<tag k="ssr:gruppe" v="veg" />
		<tag k="ssr:hovedgruppe" v="infrastruktur" />
		<tag k="ssr:stedsnr" v="1037126" />
		<tag k="ssr:type" v="adressenavn" />
	</node>
	<node lat="59.77580687794038" lon="5.372349350105682" id="-70058">
		<tag k="name" v="Bogdehaugen" />
		<tag k="ssr:date" v="2019-12-27" />
		<tag k="ssr:gruppe" v="veg" />
		<tag k="ssr:hovedgruppe" v="infrastruktur" />
		<tag k="ssr:stedsnr" v="1037127" />
		<tag k="ssr:type" v="adressenavn" />
	</node>
	<node lat="59.768901919100166" lon="5.498149085312573" id="-70059">
		<tag k="name" v="Båtstøo" />
		<tag k="ssr:date" v="2019-12-27" />
		<tag k="ssr:gruppe" v="veg" />
		<tag k="ssr:hovedgruppe" v="infrastruktur" />
		<tag k="ssr:stedsnr" v="1037128" />
		<tag k="ssr:type" v="adressenavn" />
	</node>
	<node lat="59.76967149275921" lon="5.4991923127100195" id="-70060">
		<tag k="name" v="Båtstøvegen" />
		<tag k="ssr:date" v="2019-12-27" />
		<tag k="ssr:gruppe" v="veg" />
		<tag k="ssr:hovedgruppe" v="infrastruktur" />
		<tag k="ssr:stedsnr" v="1037129" />
		<tag k="ssr:type" v="adressenavn" />
	</node>
	<node lat="59.795849169587704" lon="5.510109631239794" id="-70061">
		<tag k="name" v="Brendehaugen" />
		<tag k="ssr:date" v="2019-12-27" />
		<tag k="ssr:gruppe" v="veg" />
		<tag k="ssr:hovedgruppe" v="infrastruktur" />
		<tag k="ssr:stedsnr" v="1037130" />
		<tag k="ssr:type" v="adressenavn" />
	</node>
	<node lat="59.77809848707746" lon="5.396387253236784" id="-70062">
		<tag k="name" v="Buneset" />
		<tag k="ssr:date" v="2019-12-27" />
		<tag k="ssr:gruppe" v="veg" />
		<tag k="ssr:hovedgruppe" v="infrastruktur" />
		<tag k="ssr:stedsnr" v="1037131" />
		<tag k="ssr:type" v="adressenavn" />
	</node>
	<node lat="59.80774915680705" lon="5.519922712479229" id="-70063">
		<tag k="name" v="Hagastølen" />
		<tag k="ssr:date" v="2019-12-27" />
		<tag k="ssr:gruppe" v="veg" />
		<tag k="ssr:hovedgruppe" v="infrastruktur" />
		<tag k="ssr:stedsnr" v="1037132" />
		<tag k="ssr:type" v="adressenavn" />
	</node>
	<node lat="59.807832321794706" lon="5.519101808537157" id="-70064">
		<tag k="name" v="Hagatre" />
		<tag k="ssr:date" v="2019-12-27" />
		<tag k="ssr:gruppe" v="veg" />
		<tag k="ssr:hovedgruppe" v="infrastruktur" />
		<tag k="ssr:stedsnr" v="1037133" />
		<tag k="ssr:type" v="adressenavn" />
	</node>
	<node lat="59.80562462696746" lon="5.520870380059563" id="-70065">
		<tag k="name" v="Hagamyrane" />
		<tag k="ssr:date" v="2019-12-27" />
		<tag k="ssr:gruppe" v="veg" />
		<tag k="ssr:hovedgruppe" v="infrastruktur" />
		<tag k="ssr:stedsnr" v="1037134" />
		<tag k="ssr:type" v="adressenavn" />
	</node>
	<node lat="59.80620619982037" lon="5.521109561732689" id="-70066">
		<tag k="name" v="Hagalio" />
		<tag k="ssr:date" v="2019-12-27" />
		<tag k="ssr:gruppe" v="veg" />
		<tag k="ssr:hovedgruppe" v="infrastruktur" />
		<tag k="ssr:stedsnr" v="1037135" />
		<tag k="ssr:type" v="adressenavn" />
	</node>
	<node lat="59.756608687649404" lon="5.458786390228826" id="-70067">
		<tag k="name" v="Oppestølen" />
		<tag k="ssr:date" v="2019-12-27" />
		<tag k="ssr:gruppe" v="veg" />
		<tag k="ssr:hovedgruppe" v="infrastruktur" />
		<tag k="ssr:stedsnr" v="1037838" />
		<tag k="ssr:type" v="adressenavn" />
	</node>
	<node lat="59.75433919852766" lon="5.456781927831197" id="-70068">
		<tag k="name" v="Brakahaugen" />
		<tag k="ssr:date" v="2019-12-27" />
		<tag k="ssr:gruppe" v="veg" />
		<tag k="ssr:hovedgruppe" v="infrastruktur" />
		<tag k="ssr:stedsnr" v="1037841" />
		<tag k="ssr:type" v="adressenavn" />
	</node>
	<node lat="59.84674052998257" lon="5.524471005013059" id="-70069">
		<tag k="name" v="Slettedalen" />
		<tag k="ssr:date" v="2019-12-27" />
		<tag k="ssr:gruppe" v="veg" />
		<tag k="ssr:hovedgruppe" v="infrastruktur" />
		<tag k="ssr:stedsnr" v="1037845" />
		<tag k="ssr:type" v="adressenavn" />
	</node>
	<node lat="59.8536072483955" lon="5.523334912108333" id="-70070">
		<tag k="name" v="Bordavikevegen" />
		<tag k="ssr:date" v="2019-12-27" />
		<tag k="ssr:gruppe" v="veg" />
		<tag k="ssr:hovedgruppe" v="infrastruktur" />
		<tag k="ssr:stedsnr" v="1037847" />
		<tag k="ssr:type" v="adressenavn" />
	</node>
	<node lat="59.80791249165261" lon="5.5175859342053055" id="-70071">
		<tag k="name" v="Tyse" />
		<tag k="ssr:date" v="2019-12-27" />
		<tag k="ssr:gruppe" v="veg" />
		<tag k="ssr:hovedgruppe" v="infrastruktur" />
		<tag k="ssr:stedsnr" v="1037852" />
		<tag k="ssr:type" v="adressenavn" />
	</node>
	<node lat="59.754316470240894" lon="5.453271778635335" id="-70072">
		<tag k="name" v="Byrkjeland" />
		<tag k="ssr:date" v="2019-12-27" />
		<tag k="ssr:gruppe" v="veg" />
		<tag k="ssr:hovedgruppe" v="infrastruktur" />
		<tag k="ssr:stedsnr" v="1037854" />
		<tag k="ssr:type" v="adressenavn" />
	</node>
	<node lat="59.802913379962945" lon="5.522012868441394" id="-70073">
		<tag k="name" v="Husahaugen" />
		<tag k="ssr:date" v="2019-12-27" />
		<tag k="ssr:gruppe" v="veg" />
		<tag k="ssr:hovedgruppe" v="infrastruktur" />
		<tag k="ssr:stedsnr" v="1037856" />
		<tag k="ssr:type" v="adressenavn" />
	</node>
	<node lat="59.780455922984174" lon="5.497424573389695" id="-70074">
		<tag k="name" v="Bandadalsplassen" />
		<tag k="ssr:date" v="2019-12-27" />
		<tag k="ssr:gruppe" v="veg" />
		<tag k="ssr:hovedgruppe" v="infrastruktur" />
		<tag k="ssr:stedsnr" v="1037860" />
		<tag k="ssr:type" v="adressenavn" />
	</node>
	<node lat="59.78350030215405" lon="5.455203958059501" id="-70075">
		<tag k="name" v="Litlabøvegen" />
		<tag k="ssr:date" v="2019-12-27" />
		<tag k="ssr:gruppe" v="veg" />
		<tag k="ssr:hovedgruppe" v="infrastruktur" />
		<tag k="ssr:stedsnr" v="1037863" />
		<tag k="ssr:type" v="adressenavn" />
	</node>
	<node lat="59.73385327844268" lon="5.4156230480009535" id="-70076">
		<tag k="name" v="Føyno" />
		<tag k="ssr:date" v="2019-12-27" />
		<tag k="ssr:gruppe" v="veg" />
		<tag k="ssr:hovedgruppe" v="infrastruktur" />
		<tag k="ssr:stedsnr" v="1037866" />
		<tag k="ssr:type" v="adressenavn" />
	</node>
	<node lat="59.7939059650165" lon="5.522453959133904" id="-70077">
		<tag k="name" v="Hystadbakkjen" />
		<tag k="ssr:date" v="2019-12-27" />
		<tag k="ssr:gruppe" v="veg" />
		<tag k="ssr:hovedgruppe" v="infrastruktur" />
		<tag k="ssr:stedsnr" v="1037869" />
		<tag k="ssr:type" v="adressenavn" />
	</node>
	<node lat="59.84674052998257" lon="5.524471005013059" id="-70078">
		<tag k="name" v="Småfurene" />
		<tag k="ssr:date" v="2019-12-27" />
		<tag k="ssr:gruppe" v="veg" />
		<tag k="ssr:hovedgruppe" v="infrastruktur" />
		<tag k="ssr:stedsnr" v="1037872" />
		<tag k="ssr:type" v="adressenavn" />
	</node>
	<node lat="59.84036616125799" lon="5.523235803666279" id="-70079">
		<tag k="name" v="Grovaåsen" />
		<tag k="ssr:date" v="2019-12-27" />
		<tag k="ssr:gruppe" v="veg" />
		<tag k="ssr:hovedgruppe" v="infrastruktur" />
		<tag k="ssr:stedsnr" v="1037874" />
		<tag k="ssr:type" v="adressenavn" />
	</node>
	<node lat="59.83604973017639" lon="5.523135273483102" id="-70080">
		<tag k="name" v="Grovavegen" />
		<tag k="ssr:date" v="2019-12-27" />
		<tag k="ssr:gruppe" v="veg" />
		<tag k="ssr:hovedgruppe" v="infrastruktur" />
		<tag k="ssr:stedsnr" v="1037877" />
		<tag k="ssr:type" v="adressenavn" />
	</node>
	<node lat="59.84267030117159" lon="5.526403650949716" id="-70081">
		<tag k="name" v="Grov" />
		<tag k="ssr:date" v="2019-12-27" />
		<tag k="ssr:gruppe" v="veg" />
		<tag k="ssr:hovedgruppe" v="infrastruktur" />
		<tag k="ssr:stedsnr" v="1037879" />
		<tag k="ssr:type" v="adressenavn" />
	</node>
	<node lat="59.81014358622558" lon="5.52892165988582" id="-70082">
		<tag k="name" v="Sjonarvegen" />
		<tag k="ssr:date" v="2019-12-27" />
		<tag k="ssr:gruppe" v="veg" />
		<tag k="ssr:hovedgruppe" v="infrastruktur" />
		<tag k="ssr:stedsnr" v="1037881" />
		<tag k="ssr:type" v="adressenavn" />
	</node>
	<node lat="59.76193486065335" lon="5.4729023158018135" id="-70083">
		<tag k="name" v="Løkjabrotet" />
		<tag k="ssr:date" v="2019-12-27" />
		<tag k="ssr:gruppe" v="veg" />
		<tag k="ssr:hovedgruppe" v="infrastruktur" />
		<tag k="ssr:stedsnr" v="1037885" />
		<tag k="ssr:type" v="adressenavn" />
	</node>
	<node lat="59.77542009908426" lon="5.485910604429454" id="-70084">
		<tag k="name" v="Vikastemmo" />
		<tag k="ssr:date" v="2019-12-27" />
		<tag k="ssr:gruppe" v="veg" />
		<tag k="ssr:hovedgruppe" v="infrastruktur" />
		<tag k="ssr:stedsnr" v="1037888" />
		<tag k="ssr:type" v="adressenavn" />
	</node>
	<node lat="59.77772812702906" lon="5.4943784138830996" id="-70085">
		<tag k="name" v="Vikabrekko" />
		<tag k="ssr:date" v="2019-12-27" />
		<tag k="ssr:gruppe" v="veg" />
		<tag k="ssr:hovedgruppe" v="infrastruktur" />
		<tag k="ssr:stedsnr" v="1037892" />
		<tag k="ssr:type" v="adressenavn" />
	</node>
	<node lat="59.767129012052614" lon="5.475179290806393" id="-70086">
		<tag k="name" v="Langelandsvegen" />
		<tag k="ssr:date" v="2019-12-27" />
		<tag k="ssr:gruppe" v="veg" />
		<tag k="ssr:hovedgruppe" v="infrastruktur" />
		<tag k="ssr:stedsnr" v="1037896" />
		<tag k="ssr:type" v="adressenavn" />
	</node>
	<node lat="59.75626232114024" lon="5.445806963408605" id="-70087">
		<tag k="name" v="Digernesvegen" />
		<tag k="ssr:date" v="2019-12-27" />
		<tag k="ssr:gruppe" v="veg" />
		<tag k="ssr:hovedgruppe" v="infrastruktur" />
		<tag k="ssr:stedsnr" v="1037900" />
		<tag k="ssr:type" v="adressenavn" />
	</node>
	<node lat="59.76001527378596" lon="5.47155742059425" id="-70088">
		<tag k="name" v="Trodlahaugen" />
		<tag k="ssr:date" v="2019-12-27" />
		<tag k="ssr:gruppe" v="veg" />
		<tag k="ssr:hovedgruppe" v="infrastruktur" />
		<tag k="ssr:stedsnr" v="1037904" />
		<tag k="ssr:type" v="adressenavn" />
	</node>
	<node lat="59.76287923167483" lon="5.4689403751044345" id="-70089">
		<tag k="name" v="Friarkvilet" />
		<tag k="ssr:date" v="2019-12-27" />
		<tag k="ssr:gruppe" v="veg" />
		<tag k="ssr:hovedgruppe" v="infrastruktur" />
		<tag k="ssr:stedsnr" v="1037908" />
		<tag k="ssr:type" v="adressenavn" />
	</node>
	<node lat="59.780017439586814" lon="5.487613136070971" id="-70090">
		<tag k="name" v="Studalsmyro" />
		<tag k="ssr:date" v="2019-12-27" />
		<tag k="ssr:gruppe" v="veg" />
		<tag k="ssr:hovedgruppe" v="infrastruktur" />
		<tag k="ssr:stedsnr" v="1037912" />
		<tag k="ssr:type" v="adressenavn" />
	</node>
	<node lat="59.78091764949808" lon="5.491798265715201" id="-70091">
		<tag k="name" v="Lyhaugen" />
		<tag k="ssr:date" v="2019-12-27" />
		<tag k="ssr:gruppe" v="veg" />
		<tag k="ssr:hovedgruppe" v="infrastruktur" />
		<tag k="ssr:stedsnr" v="1037914" />
		<tag k="ssr:type" v="adressenavn" />
	</node>
	<node lat="59.772146617287" lon="5.399321526846319" id="-70092">
		<tag k="name" v="Tjødnåsen" />
		<tag k="ssr:date" v="2019-12-27" />
		<tag k="ssr:gruppe" v="veg" />
		<tag k="ssr:hovedgruppe" v="infrastruktur" />
		<tag k="ssr:stedsnr" v="1037656" />
		<tag k="ssr:type" v="adressenavn" />
	</node>
	<node lat="59.807541837863" lon="5.5015519965232205" id="-70093">
		<tag k="name" v="Nordre Tveita" />
		<tag k="ssr:date" v="2019-12-27" />
		<tag k="ssr:gruppe" v="veg" />
		<tag k="ssr:hovedgruppe" v="infrastruktur" />
		<tag k="ssr:stedsnr" v="1037682" />
		<tag k="ssr:type" v="adressenavn" />
	</node>
	<node lat="59.81181712665911" lon="5.519503540338229" id="-70094">
		<tag k="name" v="Lunde" />
		<tag k="ssr:date" v="2019-12-27" />
		<tag k="ssr:gruppe" v="veg" />
		<tag k="ssr:hovedgruppe" v="infrastruktur" />
		<tag k="ssr:stedsnr" v="1037738" />
		<tag k="ssr:type" v="adressenavn" />
	</node>
	<node lat="59.83385385083793" lon="5.574383616835027" id="-70095">
		<tag k="name" v="Sørhuglo" />
		<tag k="ssr:date" v="2019-12-27" />
		<tag k="ssr:gruppe" v="veg" />
		<tag k="ssr:hovedgruppe" v="infrastruktur" />
		<tag k="ssr:stedsnr" v="1037742" />
		<tag k="ssr:type" v="adressenavn" />
	</node>
	<node lat="59.84744796525661" lon="5.603245602470633" id="-70096">
		<tag k="name" v="Haukanesvegen" />
		<tag k="ssr:date" v="2019-12-27" />
		<tag k="ssr:gruppe" v="veg" />
		<tag k="ssr:hovedgruppe" v="infrastruktur" />
		<tag k="ssr:stedsnr" v="1037745" />
		<tag k="ssr:type" v="adressenavn" />
	</node>
	<node lat="59.74980880285427" lon="5.451236975543898" id="-70097">
		<tag k="name" v="Apalehaugen" />
		<tag k="ssr:date" v="2019-12-27" />
		<tag k="ssr:gruppe" v="veg" />
		<tag k="ssr:hovedgruppe" v="infrastruktur" />
		<tag k="ssr:stedsnr" v="1037748" />
		<tag k="ssr:type" v="adressenavn" />
	</node>
	<node lat="59.855390272843024" lon="5.5641410785643" id="-70098">
		<tag k="name" v="Nordhuglo" />
		<tag k="ssr:date" v="2019-12-27" />
		<tag k="ssr:gruppe" v="veg" />
		<tag k="ssr:hovedgruppe" v="infrastruktur" />
		<tag k="ssr:stedsnr" v="1037752" />
		<tag k="ssr:type" v="adressenavn" />
	</node>
	<node lat="59.84331853371178" lon="5.590814915591068" id="-70099">
		<tag k="name" v="Litla Brandvik" />
		<tag k="ssr:date" v="2019-12-27" />
		<tag k="ssr:gruppe" v="veg" />
		<tag k="ssr:hovedgruppe" v="infrastruktur" />
		<tag k="ssr:stedsnr" v="1037756" />
		<tag k="ssr:type" v="adressenavn" />
	</node>
	<node lat="59.82937260997342" lon="5.576139948892495" id="-70100">
		<tag k="name" v="Lauvåsvegen" />
		<tag k="ssr:date" v="2019-12-27" />
		<tag k="ssr:gruppe" v="veg" />
		<tag k="ssr:hovedgruppe" v="infrastruktur" />
		<tag k="ssr:stedsnr" v="1037758" />
		<tag k="ssr:type" v="adressenavn" />
	</node>
	<node lat="59.83150606178031" lon="5.590524166173754" id="-70101">
		<tag k="name" v="Tveit" />
		<tag k="ssr:date" v="2019-12-27" />
		<tag k="ssr:gruppe" v="veg" />
		<tag k="ssr:hovedgruppe" v="infrastruktur" />
		<tag k="ssr:stedsnr" v="1037761" />
		<tag k="ssr:type" v="adressenavn" />
	</node>
	<node lat="59.84716906396296" lon="5.597314937526414" id="-70102">
		<tag k="name" v="Brandvik" />
		<tag k="ssr:date" v="2019-12-27" />
		<tag k="ssr:gruppe" v="veg" />
		<tag k="ssr:hovedgruppe" v="infrastruktur" />
		<tag k="ssr:stedsnr" v="1037764" />
		<tag k="ssr:type" v="adressenavn" />
	</node>
	<node lat="59.79881738887599" lon="5.495935725684905" id="-70103">
		<tag k="name" v="Fjellgardsvegen" />
		<tag k="ssr:date" v="2019-12-27" />
		<tag k="ssr:gruppe" v="veg" />
		<tag k="ssr:hovedgruppe" v="infrastruktur" />
		<tag k="ssr:stedsnr" v="1037767" />
		<tag k="ssr:type" v="adressenavn" />
	</node>
	<node lat="59.812910910069746" lon="5.487495859619421" id="-70104">
		<tag k="name" v="Vadvegen" />
		<tag k="ssr:date" v="2019-12-27" />
		<tag k="ssr:gruppe" v="veg" />
		<tag k="ssr:hovedgruppe" v="infrastruktur" />
		<tag k="ssr:stedsnr" v="1037769" />
		<tag k="ssr:type" v="adressenavn" />
	</node>
	<node lat="59.754442813570385" lon="5.458898234756234" id="-70105">
		<tag k="name" v="Vågavegen" />
		<tag k="ssr:date" v="2019-12-27" />
		<tag k="ssr:gruppe" v="veg" />
		<tag k="ssr:hovedgruppe" v="infrastruktur" />
		<tag k="ssr:stedsnr" v="1037773" />
		<tag k="ssr:type" v="adressenavn" />
	</node>
	<node lat="59.80161959524717" lon="5.490371776810236" id="-70106">
		<tag k="name" v="Vatnadalsvegen" />
		<tag k="ssr:date" v="2019-12-27" />
		<tag k="ssr:gruppe" v="veg" />
		<tag k="ssr:hovedgruppe" v="infrastruktur" />
		<tag k="ssr:stedsnr" v="1037775" />
		<tag k="ssr:type" v="adressenavn" />
	</node>
	<node lat="59.767671074018644" lon="5.493584394466304" id="-70107">
		<tag k="name" v="Bjarnebakkjen" />
		<tag k="ssr:date" v="2019-12-27" />
		<tag k="ssr:gruppe" v="veg" />
		<tag k="ssr:hovedgruppe" v="infrastruktur" />
		<tag k="ssr:stedsnr" v="1037779" />
		<tag k="ssr:type" v="adressenavn" />
	</node>
	<node lat="59.782355262362856" lon="5.503226264848837" id="-70108">
		<tag k="name" v="Brotalio" />
		<tag k="ssr:date" v="2019-12-27" />
		<tag k="ssr:gruppe" v="veg" />
		<tag k="ssr:hovedgruppe" v="infrastruktur" />
		<tag k="ssr:stedsnr" v="1037783" />
		<tag k="ssr:type" v="adressenavn" />
	</node>
	<node lat="59.75643006844442" lon="5.456066061487542" id="-70109">
		<tag k="name" v="Ingeborgstykket" />
		<tag k="ssr:date" v="2019-12-27" />
		<tag k="ssr:gruppe" v="veg" />
		<tag k="ssr:hovedgruppe" v="infrastruktur" />
		<tag k="ssr:stedsnr" v="1037613" />
		<tag k="ssr:type" v="adressenavn" />
	</node>
	<node lat="59.885554413835635" lon="5.519898350319254" id="-70110">
		<tag k="name" v="Børtveit" />
		<tag k="ssr:date" v="2019-12-27" />
		<tag k="ssr:gruppe" v="veg" />
		<tag k="ssr:hovedgruppe" v="infrastruktur" />
		<tag k="ssr:stedsnr" v="1037616" />
		<tag k="ssr:type" v="adressenavn" />
	</node>
	<node lat="59.759329272735876" lon="5.452817092827848" id="-70111">
		<tag k="name" v="Djupamyro" />
		<tag k="ssr:date" v="2019-12-27" />
		<tag k="ssr:gruppe" v="veg" />
		<tag k="ssr:hovedgruppe" v="infrastruktur" />
		<tag k="ssr:stedsnr" v="1037619" />
		<tag k="ssr:type" v="adressenavn" />
	</node>
	<node lat="59.76158512260552" lon="5.447234691655862" id="-70112">
		<tag k="name" v="Meatjønnsvegen" />
		<tag k="ssr:date" v="2019-12-27" />
		<tag k="ssr:gruppe" v="veg" />
		<tag k="ssr:hovedgruppe" v="infrastruktur" />
		<tag k="ssr:stedsnr" v="1037622" />
		<tag k="ssr:type" v="adressenavn" />
	</node>
	<node lat="59.74054569788168" lon="5.4028692486697105" id="-70113">
		<tag k="name" v="Bremnesvegen" />
		<tag k="ssr:date" v="2019-12-27" />
		<tag k="ssr:gruppe" v="veg" />
		<tag k="ssr:hovedgruppe" v="infrastruktur" />
		<tag k="ssr:stedsnr" v="1037628" />
		<tag k="ssr:type" v="adressenavn" />
	</node>
	<node lat="59.906801550156594" lon="5.501518333847698" id="-70114">
		<tag k="name" v="Mehammar" />
		<tag k="ssr:date" v="2019-12-27" />
		<tag k="ssr:gruppe" v="veg" />
		<tag k="ssr:hovedgruppe" v="infrastruktur" />
		<tag k="ssr:stedsnr" v="1037630" />
		<tag k="ssr:type" v="adressenavn" />
	</node>
	<node lat="59.77804547722567" lon="5.395727027269208" id="-70115">
		<tag k="name" v="Dyråsen" />
		<tag k="ssr:date" v="2019-12-27" />
		<tag k="ssr:gruppe" v="veg" />
		<tag k="ssr:hovedgruppe" v="infrastruktur" />
		<tag k="ssr:stedsnr" v="1037634" />
		<tag k="ssr:type" v="adressenavn" />
	</node>
	<node lat="59.82934460487632" lon="5.513631788881801" id="-70116">
		<tag k="name" v="Øvre Eskeland" />
		<tag k="ssr:date" v="2019-12-27" />
		<tag k="ssr:gruppe" v="veg" />
		<tag k="ssr:hovedgruppe" v="infrastruktur" />
		<tag k="ssr:stedsnr" v="1037686" />
		<tag k="ssr:type" v="adressenavn" />
	</node>
	<node lat="59.815594859913126" lon="5.520392481602781" id="-70117">
		<tag k="name" v="Øvre Rommetveit" />
		<tag k="ssr:date" v="2019-12-27" />
		<tag k="ssr:gruppe" v="veg" />
		<tag k="ssr:hovedgruppe" v="infrastruktur" />
		<tag k="ssr:stedsnr" v="1037690" />
		<tag k="ssr:type" v="adressenavn" />
	</node>
	<node lat="59.83085300568091" lon="5.517764102012827" id="-70118">
		<tag k="name" v="Førland" />
		<tag k="ssr:date" v="2019-12-27" />
		<tag k="ssr:gruppe" v="veg" />
		<tag k="ssr:hovedgruppe" v="infrastruktur" />
		<tag k="ssr:stedsnr" v="1037693" />
		<tag k="ssr:type" v="adressenavn" />
	</node>
	<node lat="59.81818293984007" lon="5.523269722543854" id="-70119">
		<tag k="name" v="Osahaugen" />
		<tag k="ssr:date" v="2019-12-27" />
		<tag k="ssr:gruppe" v="veg" />
		<tag k="ssr:hovedgruppe" v="infrastruktur" />
		<tag k="ssr:stedsnr" v="1037697" />
		<tag k="ssr:type" v="adressenavn" />
	</node>
	<node lat="59.75656207418345" lon="5.453171719233593" id="-70120">
		<tag k="name" v="Olderdalen" />
		<tag k="ssr:date" v="2019-12-27" />
		<tag k="ssr:gruppe" v="veg" />
		<tag k="ssr:hovedgruppe" v="infrastruktur" />
		<tag k="ssr:stedsnr" v="1037701" />
		<tag k="ssr:type" v="adressenavn" />
	</node>
	<node lat="59.82672386143807" lon="5.506851869125118" id="-70121">
		<tag k="name" v="Nedre Eskeland" />
		<tag k="ssr:date" v="2019-12-27" />
		<tag k="ssr:gruppe" v="veg" />
		<tag k="ssr:hovedgruppe" v="infrastruktur" />
		<tag k="ssr:stedsnr" v="1037705" />
		<tag k="ssr:type" v="adressenavn" />
	</node>
	<node lat="59.82553702603464" lon="5.500535656878118" id="-70122">
		<tag k="name" v="Solhaug" />
		<tag k="ssr:date" v="2019-12-27" />
		<tag k="ssr:gruppe" v="veg" />
		<tag k="ssr:hovedgruppe" v="infrastruktur" />
		<tag k="ssr:stedsnr" v="1037708" />
		<tag k="ssr:type" v="adressenavn" />
	</node>
	<node lat="59.7532303096665" lon="5.464884843398082" id="-70123">
		<tag k="name" v="Skotet" />
		<tag k="ssr:date" v="2019-12-27" />
		<tag k="ssr:gruppe" v="veg" />
		<tag k="ssr:hovedgruppe" v="infrastruktur" />
		<tag k="ssr:stedsnr" v="1037712" />
		<tag k="ssr:type" v="adressenavn" />
	</node>
	<node lat="59.75344057780456" lon="5.466276029737569" id="-70124">
		<tag k="name" v="Sæbøstølen" />
		<tag k="ssr:date" v="2019-12-27" />
		<tag k="ssr:gruppe" v="veg" />
		<tag k="ssr:hovedgruppe" v="infrastruktur" />
		<tag k="ssr:stedsnr" v="1037715" />
		<tag k="ssr:type" v="adressenavn" />
	</node>
	<node lat="59.75522301160123" lon="5.465191647995783" id="-70125">
		<tag k="name" v="Sæbøløkjen" />
		<tag k="ssr:date" v="2019-12-27" />
		<tag k="ssr:gruppe" v="veg" />
		<tag k="ssr:hovedgruppe" v="infrastruktur" />
		<tag k="ssr:stedsnr" v="1037718" />
		<tag k="ssr:type" v="adressenavn" />
	</node>
	<node lat="59.75217570090134" lon="5.46064331120151" id="-70126">
		<tag k="name" v="Alnavågsbrotet" />
		<tag k="ssr:date" v="2019-12-27" />
		<tag k="ssr:gruppe" v="veg" />
		<tag k="ssr:hovedgruppe" v="infrastruktur" />
		<tag k="ssr:stedsnr" v="1037723" />
		<tag k="ssr:type" v="adressenavn" />
	</node>
	<node lat="59.8199804963844" lon="5.523097385163469" id="-70127">
		<tag k="name" v="Øvre Kyvik" />
		<tag k="ssr:date" v="2019-12-27" />
		<tag k="ssr:gruppe" v="veg" />
		<tag k="ssr:hovedgruppe" v="infrastruktur" />
		<tag k="ssr:stedsnr" v="1037727" />
		<tag k="ssr:type" v="adressenavn" />
	</node>
	<node lat="59.81624351604433" lon="5.521166482930977" id="-70128">
		<tag k="name" v="Nedre Rommetveit" />
		<tag k="ssr:date" v="2019-12-27" />
		<tag k="ssr:gruppe" v="veg" />
		<tag k="ssr:hovedgruppe" v="infrastruktur" />
		<tag k="ssr:stedsnr" v="1037731" />
		<tag k="ssr:type" v="adressenavn" />
	</node>
	<node lat="59.810677935867595" lon="5.5190312489814195" id="-70129">
		<tag k="name" v="Lundemannsverk" />
		<tag k="ssr:date" v="2019-12-27" />
		<tag k="ssr:gruppe" v="veg" />
		<tag k="ssr:hovedgruppe" v="infrastruktur" />
		<tag k="ssr:stedsnr" v="1037735" />
		<tag k="ssr:type" v="adressenavn" />
	</node>
	<node lat="59.824784231964394" lon="5.5015959450346195" id="-70130">
		<tag k="name" v="Lundssetervegen" />
		<tag k="ssr:date" v="2019-12-27" />
		<tag k="ssr:gruppe" v="veg" />
		<tag k="ssr:hovedgruppe" v="infrastruktur" />
		<tag k="ssr:stedsnr" v="1037788" />
		<tag k="ssr:type" v="adressenavn" />
	</node>
	<node lat="59.784883702848745" lon="5.452092961033285" id="-70131">
		<tag k="name" v="Vassenden" />
		<tag k="ssr:date" v="2019-12-27" />
		<tag k="ssr:gruppe" v="veg" />
		<tag k="ssr:hovedgruppe" v="infrastruktur" />
		<tag k="ssr:stedsnr" v="1037792" />
		<tag k="ssr:type" v="adressenavn" />
	</node>
	<node lat="59.750580772199854" lon="5.447960635922311" id="-70132">
		<tag k="name" v="Slettaberget" />
		<tag k="ssr:date" v="2019-12-27" />
		<tag k="ssr:gruppe" v="veg" />
		<tag k="ssr:hovedgruppe" v="infrastruktur" />
		<tag k="ssr:stedsnr" v="1037796" />
		<tag k="ssr:type" v="adressenavn" />
	</node>
	<node lat="59.75012628896119" lon="5.447494346637251" id="-70133">
		<tag k="name" v="Vågakleivo" />
		<tag k="ssr:date" v="2019-12-27" />
		<tag k="ssr:gruppe" v="veg" />
		<tag k="ssr:hovedgruppe" v="infrastruktur" />
		<tag k="ssr:stedsnr" v="1037799" />
		<tag k="ssr:type" v="adressenavn" />
	</node>
	<node lat="59.7512048991337" lon="5.448614442568848" id="-70134">
		<tag k="name" v="Legebrotet" />
		<tag k="ssr:date" v="2019-12-27" />
		<tag k="ssr:gruppe" v="veg" />
		<tag k="ssr:hovedgruppe" v="infrastruktur" />
		<tag k="ssr:stedsnr" v="1037802" />
		<tag k="ssr:type" v="adressenavn" />
	</node>
	<node lat="59.75099535485309" lon="5.44839202700157" id="-70135">
		<tag k="name" v="Vågabrotet" />
		<tag k="ssr:date" v="2019-12-27" />
		<tag k="ssr:gruppe" v="veg" />
		<tag k="ssr:hovedgruppe" v="infrastruktur" />
		<tag k="ssr:stedsnr" v="1037804" />
		<tag k="ssr:type" v="adressenavn" />
	</node>
	<node lat="59.749077415171364" lon="5.44715575360351" id="-70136">
		<tag k="name" v="Jornevikjo" />
		<tag k="ssr:date" v="2019-12-27" />
		<tag k="ssr:gruppe" v="veg" />
		<tag k="ssr:hovedgruppe" v="infrastruktur" />
		<tag k="ssr:stedsnr" v="1037807" />
		<tag k="ssr:type" v="adressenavn" />
	</node>
	<node lat="59.74870896312744" lon="5.4473124250624645" id="-70137">
		<tag k="name" v="Kariplasset" />
		<tag k="ssr:date" v="2019-12-27" />
		<tag k="ssr:gruppe" v="veg" />
		<tag k="ssr:hovedgruppe" v="infrastruktur" />
		<tag k="ssr:stedsnr" v="1037810" />
		<tag k="ssr:type" v="adressenavn" />
	</node>
	<node lat="59.749709873183086" lon="5.445795797431648" id="-70138">
		<tag k="name" v="Grindavikebrotet" />
		<tag k="ssr:date" v="2019-12-27" />
		<tag k="ssr:gruppe" v="veg" />
		<tag k="ssr:hovedgruppe" v="infrastruktur" />
		<tag k="ssr:stedsnr" v="1037813" />
		<tag k="ssr:type" v="adressenavn" />
	</node>
	<node lat="59.749369084364794" lon="5.4471466265389346" id="-70139">
		<tag k="name" v="Flaten" />
		<tag k="ssr:date" v="2019-12-27" />
		<tag k="ssr:gruppe" v="veg" />
		<tag k="ssr:hovedgruppe" v="infrastruktur" />
		<tag k="ssr:stedsnr" v="1037816" />
		<tag k="ssr:type" v="adressenavn" />
	</node>
	<node lat="59.863763763188864" lon="5.567414977982031" id="-70140">
		<tag k="name" v="Hommandevegen" />
		<tag k="ssr:date" v="2019-12-27" />
		<tag k="ssr:gruppe" v="veg" />
		<tag k="ssr:hovedgruppe" v="infrastruktur" />
		<tag k="ssr:stedsnr" v="1037819" />
		<tag k="ssr:type" v="adressenavn" />
	</node>
	<node lat="59.759473437936144" lon="5.449417295292684" id="-70141">
		<tag k="name" v="Hatlandsmyro" />
		<tag k="ssr:date" v="2019-12-27" />
		<tag k="ssr:gruppe" v="veg" />
		<tag k="ssr:hovedgruppe" v="infrastruktur" />
		<tag k="ssr:stedsnr" v="1037821" />
		<tag k="ssr:type" v="adressenavn" />
	</node>
	<node lat="59.84648834529811" lon="5.5701266774555505" id="-70142">
		<tag k="name" v="Røssbø" />
		<tag k="ssr:date" v="2019-12-27" />
		<tag k="ssr:gruppe" v="veg" />
		<tag k="ssr:hovedgruppe" v="infrastruktur" />
		<tag k="ssr:stedsnr" v="1037824" />
		<tag k="ssr:type" v="adressenavn" />
	</node>
	<node lat="59.865126319445615" lon="5.561037261325226" id="-70143">
		<tag k="name" v="Granlio" />
		<tag k="ssr:date" v="2019-12-27" />
		<tag k="ssr:gruppe" v="veg" />
		<tag k="ssr:hovedgruppe" v="infrastruktur" />
		<tag k="ssr:stedsnr" v="1037826" />
		<tag k="ssr:type" v="adressenavn" />
	</node>
	<node lat="59.762120127881445" lon="5.455274591135953" id="-70144">
		<tag k="name" v="Meatjønnshaugen" />
		<tag k="ssr:date" v="2019-12-27" />
		<tag k="ssr:gruppe" v="veg" />
		<tag k="ssr:hovedgruppe" v="infrastruktur" />
		<tag k="ssr:stedsnr" v="1037829" />
		<tag k="ssr:type" v="adressenavn" />
	</node>
	<node lat="59.74803382451048" lon="5.44904848615957" id="-70145">
		<tag k="name" v="Nye Vågavegen" />
		<tag k="ssr:date" v="2019-12-27" />
		<tag k="ssr:gruppe" v="veg" />
		<tag k="ssr:hovedgruppe" v="infrastruktur" />
		<tag k="ssr:stedsnr" v="1037832" />
		<tag k="ssr:type" v="adressenavn" />
	</node>
	<node lat="59.76100520682612" lon="5.455119950678795" id="-70146">
		<tag k="name" v="Grønehaugen" />
		<tag k="ssr:date" v="2019-12-27" />
		<tag k="ssr:gruppe" v="veg" />
		<tag k="ssr:hovedgruppe" v="infrastruktur" />
		<tag k="ssr:stedsnr" v="1037834" />
		<tag k="ssr:type" v="adressenavn" />
	</node>
	<node lat="59.788393408441685" lon="5.421787636067978" id="-70147">
		<tag k="name" v="Gruvevegen" />
		<tag k="ssr:date" v="2019-12-27" />
		<tag k="ssr:gruppe" v="veg" />
		<tag k="ssr:hovedgruppe" v="infrastruktur" />
		<tag k="ssr:stedsnr" v="1037936" />
		<tag k="ssr:type" v="adressenavn" />
	</node>
	<node lat="59.78999623810608" lon="5.5304533089289345" id="-70148">
		<tag k="name" v="Liarstøl" />
		<tag k="ssr:date" v="2019-12-27" />
		<tag k="ssr:gruppe" v="veg" />
		<tag k="ssr:hovedgruppe" v="infrastruktur" />
		<tag k="ssr:stedsnr" v="1037940" />
		<tag k="ssr:type" v="adressenavn" />
	</node>
	<node lat="59.77453800554853" lon="5.406392759179569" id="-70149">
		<tag k="name" v="Almåstre" />
		<tag k="ssr:date" v="2019-12-27" />
		<tag k="ssr:gruppe" v="veg" />
		<tag k="ssr:hovedgruppe" v="infrastruktur" />
		<tag k="ssr:stedsnr" v="1037943" />
		<tag k="ssr:type" v="adressenavn" />
	</node>
	<node lat="59.7893500592956" lon="5.530419625125907" id="-70150">
		<tag k="name" v="Storhaugvegen" />
		<tag k="ssr:date" v="2019-12-27" />
		<tag k="ssr:gruppe" v="veg" />
		<tag k="ssr:hovedgruppe" v="infrastruktur" />
		<tag k="ssr:stedsnr" v="1037946" />
		<tag k="ssr:type" v="adressenavn" />
	</node>
	<node lat="59.78480296629329" lon="5.505860390444275" id="-70151">
		<tag k="name" v="Nesjaberget" />
		<tag k="ssr:date" v="2019-12-27" />
		<tag k="ssr:gruppe" v="veg" />
		<tag k="ssr:hovedgruppe" v="infrastruktur" />
		<tag k="ssr:stedsnr" v="1037949" />
		<tag k="ssr:type" v="adressenavn" />
	</node>
	<node lat="59.76488094457879" lon="5.437357117829551" id="-70152">
		<tag k="name" v="Kroktjødnevegen" />
		<tag k="ssr:date" v="2019-12-27" />
		<tag k="ssr:gruppe" v="veg" />
		<tag k="ssr:hovedgruppe" v="infrastruktur" />
		<tag k="ssr:stedsnr" v="1037952" />
		<tag k="ssr:type" v="adressenavn" />
	</node>
	<node lat="59.764218554813134" lon="5.438260639641314" id="-70153">
		<tag k="name" v="Navrastikksmyro" />
		<tag k="ssr:date" v="2019-12-27" />
		<tag k="ssr:gruppe" v="veg" />
		<tag k="ssr:hovedgruppe" v="infrastruktur" />
		<tag k="ssr:stedsnr" v="1037955" />
		<tag k="ssr:type" v="adressenavn" />
	</node>
	<node lat="59.77581386055129" lon="5.411153408355112" id="-70154">
		<tag k="name" v="Sandvikjo" />
		<tag k="ssr:date" v="2019-12-27" />
		<tag k="ssr:gruppe" v="veg" />
		<tag k="ssr:hovedgruppe" v="infrastruktur" />
		<tag k="ssr:stedsnr" v="1037958" />
		<tag k="ssr:type" v="adressenavn" />
	</node>
	<node lat="59.7669567687451" lon="5.427770508051958" id="-70155">
		<tag k="name" v="Valvatnavegen" />
		<tag k="ssr:date" v="2019-12-27" />
		<tag k="ssr:gruppe" v="veg" />
		<tag k="ssr:hovedgruppe" v="infrastruktur" />
		<tag k="ssr:stedsnr" v="1037961" />
		<tag k="ssr:type" v="adressenavn" />
	</node>
	<node lat="59.81128945771925" lon="5.529586236402739" id="-70156">
		<tag k="name" v="Knosterneset" />
		<tag k="ssr:date" v="2019-12-27" />
		<tag k="ssr:gruppe" v="veg" />
		<tag k="ssr:hovedgruppe" v="infrastruktur" />
		<tag k="ssr:stedsnr" v="1037963" />
		<tag k="ssr:type" v="adressenavn" />
	</node>
	<node lat="59.761769246432856" lon="5.472098000079001" id="-70157">
		<tag k="name" v="Storamyro" />
		<tag k="ssr:date" v="2019-12-27" />
		<tag k="ssr:gruppe" v="veg" />
		<tag k="ssr:hovedgruppe" v="infrastruktur" />
		<tag k="ssr:stedsnr" v="1037966" />
		<tag k="ssr:type" v="adressenavn" />
	</node>
	<node lat="59.77131150146588" lon="5.477678965141687" id="-70158">
		<tag k="name" v="Tveitahaugen" />
		<tag k="ssr:date" v="2019-12-27" />
		<tag k="ssr:gruppe" v="veg" />
		<tag k="ssr:hovedgruppe" v="infrastruktur" />
		<tag k="ssr:stedsnr" v="1037969" />
		<tag k="ssr:type" v="adressenavn" />
	</node>
	<node lat="59.81228291816923" lon="5.529409526493807" id="-70159">
		<tag k="name" v="Brurabrotet" />
		<tag k="ssr:date" v="2019-12-27" />
		<tag k="ssr:gruppe" v="veg" />
		<tag k="ssr:hovedgruppe" v="infrastruktur" />
		<tag k="ssr:stedsnr" v="1037973" />
		<tag k="ssr:type" v="adressenavn" />
	</node>
	<node lat="59.7884875610634" lon="5.372194431025308" id="-70160">
		<tag k="name" v="Flyplassvegen" />
		<tag k="ssr:date" v="2019-12-27" />
		<tag k="ssr:gruppe" v="veg" />
		<tag k="ssr:hovedgruppe" v="infrastruktur" />
		<tag k="ssr:stedsnr" v="1037976" />
		<tag k="ssr:type" v="adressenavn" />
	</node>
	<node lat="59.78423583204191" lon="5.3965981702639825" id="-70161">
		<tag k="name" v="Kyrkjevegen" />
		<tag k="ssr:date" v="2019-12-27" />
		<tag k="ssr:gruppe" v="veg" />
		<tag k="ssr:hovedgruppe" v="infrastruktur" />
		<tag k="ssr:stedsnr" v="1037979" />
		<tag k="ssr:type" v="adressenavn" />
	</node>
	<node lat="59.79130469939498" lon="5.43264888771257" id="-70162">
		<tag k="name" v="Isdalsvegen" />
		<tag k="ssr:date" v="2019-12-27" />
		<tag k="ssr:gruppe" v="veg" />
		<tag k="ssr:hovedgruppe" v="infrastruktur" />
		<tag k="ssr:stedsnr" v="1037982" />
		<tag k="ssr:type" v="adressenavn" />
	</node>
	<node lat="59.79473848398538" lon="5.437978893697436" id="-70163">
		<tag k="name" v="Skytebanevegen" />
		<tag k="ssr:date" v="2019-12-27" />
		<tag k="ssr:gruppe" v="veg" />
		<tag k="ssr:hovedgruppe" v="infrastruktur" />
		<tag k="ssr:stedsnr" v="1037985" />
		<tag k="ssr:type" v="adressenavn" />
	</node>
	<node lat="59.779621625104305" lon="5.39249132499481" id="-70164">
		<tag k="name" v="Skulehaugen" />
		<tag k="ssr:date" v="2019-12-27" />
		<tag k="ssr:gruppe" v="veg" />
		<tag k="ssr:hovedgruppe" v="infrastruktur" />
		<tag k="ssr:stedsnr" v="1038036" />
		<tag k="ssr:type" v="adressenavn" />
	</node>
	<node lat="59.80951966335886" lon="5.354324352916421" id="-70165">
		<tag k="name" v="Brotaneset" />
		<tag k="ssr:date" v="2019-12-27" />
		<tag k="ssr:gruppe" v="veg" />
		<tag k="ssr:hovedgruppe" v="infrastruktur" />
		<tag k="ssr:stedsnr" v="1038038" />
		<tag k="ssr:type" v="adressenavn" />
	</node>
	<node lat="59.78499634388244" lon="5.35559439031514" id="-70166">
		<tag k="name" v="Stokkavegen" />
		<tag k="ssr:date" v="2019-12-27" />
		<tag k="ssr:gruppe" v="veg" />
		<tag k="ssr:hovedgruppe" v="infrastruktur" />
		<tag k="ssr:stedsnr" v="1038041" />
		<tag k="ssr:type" v="adressenavn" />
	</node>
	<node lat="59.75012236261084" lon="5.455603995375147" id="-70167">
		<tag k="name" v="Kårevikmarkjo" />
		<tag k="ssr:date" v="2019-12-27" />
		<tag k="ssr:gruppe" v="veg" />
		<tag k="ssr:hovedgruppe" v="infrastruktur" />
		<tag k="ssr:stedsnr" v="1038045" />
		<tag k="ssr:type" v="adressenavn" />
	</node>
	<node lat="59.753993499800465" lon="5.463971681570245" id="-70168">
		<tag k="name" v="Sæbøhaugen" />
		<tag k="ssr:date" v="2019-12-27" />
		<tag k="ssr:gruppe" v="veg" />
		<tag k="ssr:hovedgruppe" v="infrastruktur" />
		<tag k="ssr:stedsnr" v="1038049" />
		<tag k="ssr:type" v="adressenavn" />
	</node>
	<node lat="59.7773531137044" lon="5.395343844732025" id="-70169">
		<tag k="name" v="Einarsdalen" />
		<tag k="ssr:date" v="2019-12-27" />
		<tag k="ssr:gruppe" v="veg" />
		<tag k="ssr:hovedgruppe" v="infrastruktur" />
		<tag k="ssr:stedsnr" v="1038053" />
		<tag k="ssr:type" v="adressenavn" />
	</node>
	<node lat="59.75297764637129" lon="5.462391429866353" id="-70170">
		<tag k="name" v="Sæbøsteinen" />
		<tag k="ssr:date" v="2019-12-27" />
		<tag k="ssr:gruppe" v="veg" />
		<tag k="ssr:hovedgruppe" v="infrastruktur" />
		<tag k="ssr:stedsnr" v="1038057" />
		<tag k="ssr:type" v="adressenavn" />
	</node>
	<node lat="59.79980621533936" lon="5.522258659827541" id="-70171">
		<tag k="name" v="Sjoarvegen" />
		<tag k="ssr:date" v="2019-12-27" />
		<tag k="ssr:gruppe" v="veg" />
		<tag k="ssr:hovedgruppe" v="infrastruktur" />
		<tag k="ssr:stedsnr" v="1038061" />
		<tag k="ssr:type" v="adressenavn" />
	</node>
	<node lat="59.79883251946245" lon="5.521550609447906" id="-70172">
		<tag k="name" v="Svinnshammaren" />
		<tag k="ssr:date" v="2019-12-27" />
		<tag k="ssr:gruppe" v="veg" />
		<tag k="ssr:hovedgruppe" v="infrastruktur" />
		<tag k="ssr:stedsnr" v="1038064" />
		<tag k="ssr:type" v="adressenavn" />
	</node>
	<node lat="59.791576896940626" lon="5.518927815010517" id="-70173">
		<tag k="name" v="Hystadtunet" />
		<tag k="ssr:date" v="2019-12-27" />
		<tag k="ssr:gruppe" v="veg" />
		<tag k="ssr:hovedgruppe" v="infrastruktur" />
		<tag k="ssr:stedsnr" v="1038068" />
		<tag k="ssr:type" v="adressenavn" />
	</node>
	<node lat="59.80143250199356" lon="5.517145371471442" id="-70174">
		<tag k="name" v="Øvre Dalen" />
		<tag k="ssr:date" v="2019-12-27" />
		<tag k="ssr:gruppe" v="veg" />
		<tag k="ssr:hovedgruppe" v="infrastruktur" />
		<tag k="ssr:stedsnr" v="1038071" />
		<tag k="ssr:type" v="adressenavn" />
	</node>
	<node lat="59.79666032106723" lon="5.509105589350861" id="-70175">
		<tag k="name" v="Skarpeteigen" />
		<tag k="ssr:date" v="2019-12-27" />
		<tag k="ssr:gruppe" v="veg" />
		<tag k="ssr:hovedgruppe" v="infrastruktur" />
		<tag k="ssr:stedsnr" v="1038075" />
		<tag k="ssr:type" v="adressenavn" />
	</node>
	<node lat="59.81030375116667" lon="5.367836988189164" id="-70176">
		<tag k="name" v="Dåfjordvegen" />
		<tag k="ssr:date" v="2019-12-27" />
		<tag k="ssr:gruppe" v="veg" />
		<tag k="ssr:hovedgruppe" v="infrastruktur" />
		<tag k="ssr:stedsnr" v="1038079" />
		<tag k="ssr:type" v="adressenavn" />
	</node>
	<node lat="59.79612170527833" lon="5.508289550146409" id="-70177">
		<tag k="name" v="Gardhaugen" />
		<tag k="ssr:date" v="2019-12-27" />
		<tag k="ssr:gruppe" v="veg" />
		<tag k="ssr:hovedgruppe" v="infrastruktur" />
		<tag k="ssr:stedsnr" v="1038082" />
		<tag k="ssr:type" v="adressenavn" />
	</node>
	<node lat="59.77969796072937" lon="5.4827303634692" id="-70178">
		<tag k="name" v="Studalen" />
		<tag k="ssr:date" v="2019-12-27" />
		<tag k="ssr:gruppe" v="veg" />
		<tag k="ssr:hovedgruppe" v="infrastruktur" />
		<tag k="ssr:stedsnr" v="1037918" />
		<tag k="ssr:type" v="adressenavn" />
	</node>
	<node lat="59.779690202105606" lon="5.485781259467435" id="-70179">
		<tag k="name" v="Hadlabrekko" />
		<tag k="ssr:date" v="2019-12-27" />
		<tag k="ssr:gruppe" v="veg" />
		<tag k="ssr:hovedgruppe" v="infrastruktur" />
		<tag k="ssr:stedsnr" v="1037921" />
		<tag k="ssr:type" v="adressenavn" />
	</node>
	<node lat="59.74917602256943" lon="5.452267758376281" id="-70180">
		<tag k="name" v="Hornelandsvågen" />
		<tag k="ssr:date" v="2019-12-27" />
		<tag k="ssr:gruppe" v="veg" />
		<tag k="ssr:hovedgruppe" v="infrastruktur" />
		<tag k="ssr:stedsnr" v="1037924" />
		<tag k="ssr:type" v="adressenavn" />
	</node>
	<node lat="59.78138433478569" lon="5.498987297297086" id="-70181">
		<tag k="name" v="Torget" />
		<tag k="ssr:date" v="2019-12-27" />
		<tag k="ssr:gruppe" v="veg" />
		<tag k="ssr:hovedgruppe" v="infrastruktur" />
		<tag k="ssr:stedsnr" v="1037928" />
		<tag k="ssr:type" v="adressenavn" />
	</node>
	<node lat="59.78046563353292" lon="5.396980713705113" id="-70182">
		<tag k="name" v="Nysætervegen" />
		<tag k="ssr:date" v="2019-12-27" />
		<tag k="ssr:gruppe" v="veg" />
		<tag k="ssr:hovedgruppe" v="infrastruktur" />
		<tag k="ssr:stedsnr" v="1037932" />
		<tag k="ssr:type" v="adressenavn" />
	</node>
	<node lat="59.76734196033051" lon="5.404620250463115" id="-70183">
		<tag k="name" v="Nesvegen" />
		<tag k="ssr:date" v="2019-12-27" />
		<tag k="ssr:gruppe" v="veg" />
		<tag k="ssr:hovedgruppe" v="infrastruktur" />
		<tag k="ssr:stedsnr" v="1037990" />
		<tag k="ssr:type" v="adressenavn" />
	</node>
	<node lat="59.76892493489091" lon="5.434042882735534" id="-70184">
		<tag k="name" v="Hiljesgjerdet" />
		<tag k="ssr:date" v="2019-12-27" />
		<tag k="ssr:gruppe" v="veg" />
		<tag k="ssr:hovedgruppe" v="infrastruktur" />
		<tag k="ssr:stedsnr" v="1037993" />
		<tag k="ssr:type" v="adressenavn" />
	</node>
	<node lat="59.76316434620137" lon="5.460567585793469" id="-70185">
		<tag k="name" v="Rundehaugen" />
		<tag k="ssr:date" v="2019-12-27" />
		<tag k="ssr:gruppe" v="veg" />
		<tag k="ssr:hovedgruppe" v="infrastruktur" />
		<tag k="ssr:stedsnr" v="1037998" />
		<tag k="ssr:type" v="adressenavn" />
	</node>
	<node lat="59.762172101179864" lon="5.4559839518707" id="-70186">
		<tag k="name" v="Svartadalen" />
		<tag k="ssr:date" v="2019-12-27" />
		<tag k="ssr:gruppe" v="veg" />
		<tag k="ssr:hovedgruppe" v="infrastruktur" />
		<tag k="ssr:stedsnr" v="1038001" />
		<tag k="ssr:type" v="adressenavn" />
	</node>
	<node lat="59.759613765347034" lon="5.47377930108807" id="-70187">
		<tag k="name" v="Haugavegen" />
		<tag k="ssr:date" v="2019-12-27" />
		<tag k="ssr:gruppe" v="veg" />
		<tag k="ssr:hovedgruppe" v="infrastruktur" />
		<tag k="ssr:stedsnr" v="1038004" />
		<tag k="ssr:type" v="adressenavn" />
	</node>
	<node lat="59.76278074645037" lon="5.46396288387839" id="-70188">
		<tag k="name" v="Ringvegen" />
		<tag k="ssr:date" v="2019-12-27" />
		<tag k="ssr:gruppe" v="veg" />
		<tag k="ssr:hovedgruppe" v="infrastruktur" />
		<tag k="ssr:stedsnr" v="1038006" />
		<tag k="ssr:type" v="adressenavn" />
	</node>
	<node lat="59.764996253958266" lon="5.437273651183618" id="-70189">
		<tag k="name" v="Åsaheio" />
		<tag k="ssr:date" v="2019-12-27" />
		<tag k="ssr:gruppe" v="veg" />
		<tag k="ssr:hovedgruppe" v="infrastruktur" />
		<tag k="ssr:stedsnr" v="1038009" />
		<tag k="ssr:type" v="adressenavn" />
	</node>
	<node lat="59.7678131858633" lon="5.404403099192102" id="-70190">
		<tag k="name" v="Neshadlene" />
		<tag k="ssr:date" v="2019-12-27" />
		<tag k="ssr:gruppe" v="veg" />
		<tag k="ssr:hovedgruppe" v="infrastruktur" />
		<tag k="ssr:stedsnr" v="1038013" />
		<tag k="ssr:type" v="adressenavn" />
	</node>
	<node lat="59.764400758612155" lon="5.4356361818700325" id="-70191">
		<tag k="name" v="Skodalen" />
		<tag k="ssr:date" v="2019-12-27" />
		<tag k="ssr:gruppe" v="veg" />
		<tag k="ssr:hovedgruppe" v="infrastruktur" />
		<tag k="ssr:stedsnr" v="1038016" />
		<tag k="ssr:type" v="adressenavn" />
	</node>
	<node lat="59.76407594583582" lon="5.429138977109305" id="-70192">
		<tag k="name" v="Valvatnaåsen" />
		<tag k="ssr:date" v="2019-12-27" />
		<tag k="ssr:gruppe" v="veg" />
		<tag k="ssr:hovedgruppe" v="infrastruktur" />
		<tag k="ssr:stedsnr" v="1038019" />
		<tag k="ssr:type" v="adressenavn" />
	</node>
	<node lat="59.785015007498416" lon="5.398381476312035" id="-70193">
		<tag k="name" v="Lurane" />
		<tag k="ssr:date" v="2019-12-27" />
		<tag k="ssr:gruppe" v="veg" />
		<tag k="ssr:hovedgruppe" v="infrastruktur" />
		<tag k="ssr:stedsnr" v="1038022" />
		<tag k="ssr:type" v="adressenavn" />
	</node>
	<node lat="59.75369832711522" lon="5.488921064500799" id="-70194">
		<tag k="name" v="Eldøyane" />
		<tag k="ssr:date" v="2019-12-27" />
		<tag k="ssr:gruppe" v="veg" />
		<tag k="ssr:hovedgruppe" v="infrastruktur" />
		<tag k="ssr:stedsnr" v="1038024" />
		<tag k="ssr:type" v="adressenavn" />
	</node>
	<node lat="59.769468229685494" lon="5.3953341869471725" id="-70195">
		<tag k="name" v="Høgåsen" />
		<tag k="ssr:date" v="2019-12-27" />
		<tag k="ssr:gruppe" v="veg" />
		<tag k="ssr:hovedgruppe" v="infrastruktur" />
		<tag k="ssr:stedsnr" v="1038027" />
		<tag k="ssr:type" v="adressenavn" />
	</node>
	<node lat="59.76926430347396" lon="5.3956934562679075" id="-70196">
		<tag k="name" v="Syljesmoget" />
		<tag k="ssr:date" v="2019-12-27" />
		<tag k="ssr:gruppe" v="veg" />
		<tag k="ssr:hovedgruppe" v="infrastruktur" />
		<tag k="ssr:stedsnr" v="1038030" />
		<tag k="ssr:type" v="adressenavn" />
	</node>
	<node lat="59.78312747825866" lon="5.376154598473513" id="-70197">
		<tag k="name" v="Bjørnvik" />
		<tag k="ssr:date" v="2019-12-27" />
		<tag k="ssr:gruppe" v="veg" />
		<tag k="ssr:hovedgruppe" v="infrastruktur" />
		<tag k="ssr:stedsnr" v="1038033" />
		<tag k="ssr:type" v="adressenavn" />
	</node>
	<node lat="59.79763344959096" lon="5.509841923148567" id="-70198">
		<tag k="name" v="Krossen" />
		<tag k="ssr:date" v="2019-12-27" />
		<tag k="ssr:gruppe" v="veg" />
		<tag k="ssr:hovedgruppe" v="infrastruktur" />
		<tag k="ssr:stedsnr" v="1038086" />
		<tag k="ssr:type" v="adressenavn" />
	</node>
	<node lat="59.78092811542628" lon="5.4989651825095995" id="-70199">
		<tag k="name" v="Sæ" />
		<tag k="ssr:date" v="2019-12-27" />
		<tag k="ssr:gruppe" v="veg" />
		<tag k="ssr:hovedgruppe" v="infrastruktur" />
		<tag k="ssr:stedsnr" v="1038090" />
		<tag k="ssr:type" v="adressenavn" />
	</node>
	<node lat="59.753837372857674" lon="5.474415756353276" id="-70200">
		<tag k="name" v="Sæbøvegen" />
		<tag k="ssr:date" v="2019-12-27" />
		<tag k="ssr:gruppe" v="veg" />
		<tag k="ssr:hovedgruppe" v="infrastruktur" />
		<tag k="ssr:stedsnr" v="1038093" />
		<tag k="ssr:type" v="adressenavn" />
	</node>
	<node lat="59.75720545127612" lon="5.47164690614393" id="-70201">
		<tag k="name" v="Sveinslio" />
		<tag k="ssr:date" v="2019-12-27" />
		<tag k="ssr:gruppe" v="veg" />
		<tag k="ssr:hovedgruppe" v="infrastruktur" />
		<tag k="ssr:stedsnr" v="1038096" />
		<tag k="ssr:type" v="adressenavn" />
	</node>
	<node lat="59.77154493937742" lon="5.402483042888948" id="-70202">
		<tag k="name" v="Tjødnalio" />
		<tag k="ssr:date" v="2019-12-27" />
		<tag k="ssr:gruppe" v="veg" />
		<tag k="ssr:hovedgruppe" v="infrastruktur" />
		<tag k="ssr:stedsnr" v="1038101" />
		<tag k="ssr:type" v="adressenavn" />
	</node>
	<node lat="59.77444786822196" lon="5.3768800105893115" id="-70203">
		<tag k="name" v="Sydnes" />
		<tag k="ssr:date" v="2019-12-27" />
		<tag k="ssr:gruppe" v="veg" />
		<tag k="ssr:hovedgruppe" v="infrastruktur" />
		<tag k="ssr:stedsnr" v="1038104" />
		<tag k="ssr:type" v="adressenavn" />
	</node>
	<node lat="59.79977692607763" lon="5.522005056507617" id="-70204">
		<tag k="name" v="Sævarhagen" />
		<tag k="ssr:date" v="2019-12-27" />
		<tag k="ssr:gruppe" v="veg" />
		<tag k="ssr:hovedgruppe" v="infrastruktur" />
		<tag k="ssr:stedsnr" v="1038107" />
		<tag k="ssr:type" v="adressenavn" />
	</node>
	<node lat="59.77745575309541" lon="5.509594687188929" id="-70205">
		<tag k="name" v="Teinehaugen" />
		<tag k="ssr:date" v="2019-12-27" />
		<tag k="ssr:gruppe" v="veg" />
		<tag k="ssr:hovedgruppe" v="infrastruktur" />
		<tag k="ssr:stedsnr" v="1038110" />
		<tag k="ssr:type" v="adressenavn" />
	</node>
	<node lat="59.80520440353072" lon="5.523783364889544" id="-70206">
		<tag k="name" v="Storestølen" />
		<tag k="ssr:date" v="2019-12-27" />
		<tag k="ssr:gruppe" v="veg" />
		<tag k="ssr:hovedgruppe" v="infrastruktur" />
		<tag k="ssr:stedsnr" v="1038113" />
		<tag k="ssr:type" v="adressenavn" />
	</node>
	<node lat="59.80764162687699" lon="5.530860040722441" id="-70207">
		<tag k="name" v="Strongalio" />
		<tag k="ssr:date" v="2019-12-27" />
		<tag k="ssr:gruppe" v="veg" />
		<tag k="ssr:hovedgruppe" v="infrastruktur" />
		<tag k="ssr:stedsnr" v="1038116" />
		<tag k="ssr:type" v="adressenavn" />
	</node>
	<node lat="59.77579846677538" lon="5.51259925674331" id="-70208">
		<tag k="name" v="Sponavikvegen" />
		<tag k="ssr:date" v="2019-12-27" />
		<tag k="ssr:gruppe" v="veg" />
		<tag k="ssr:hovedgruppe" v="infrastruktur" />
		<tag k="ssr:stedsnr" v="1038119" />
		<tag k="ssr:type" v="adressenavn" />
	</node>
	<node lat="59.77538463407407" lon="5.5005286467350505" id="-70209">
		<tag k="name" v="Storasletto" />
		<tag k="ssr:date" v="2019-12-27" />
		<tag k="ssr:gruppe" v="veg" />
		<tag k="ssr:hovedgruppe" v="infrastruktur" />
		<tag k="ssr:stedsnr" v="1038122" />
		<tag k="ssr:type" v="adressenavn" />
	</node>
	<node lat="59.79574947471217" lon="5.5186171067554115" id="-70210">
		<tag k="name" v="Sveene" />
		<tag k="ssr:date" v="2019-12-27" />
		<tag k="ssr:gruppe" v="veg" />
		<tag k="ssr:hovedgruppe" v="infrastruktur" />
		<tag k="ssr:stedsnr" v="1038125" />
		<tag k="ssr:type" v="adressenavn" />
	</node>
	<node lat="59.78621660538059" lon="5.503632935388605" id="-70211">
		<tag k="name" v="Svehaugen" />
		<tag k="ssr:date" v="2019-12-27" />
		<tag k="ssr:gruppe" v="veg" />
		<tag k="ssr:hovedgruppe" v="infrastruktur" />
		<tag k="ssr:stedsnr" v="1038127" />
		<tag k="ssr:type" v="adressenavn" />
	</node>
	<node lat="59.78727761894594" lon="5.5254283228894545" id="-70212">
		<tag k="name" v="Valevegen" />
		<tag k="ssr:date" v="2019-12-27" />
		<tag k="ssr:gruppe" v="veg" />
		<tag k="ssr:hovedgruppe" v="infrastruktur" />
		<tag k="ssr:stedsnr" v="1038136" />
		<tag k="ssr:type" v="adressenavn" />
	</node>
	<node lat="59.77555027559746" lon="5.395750597617482" id="-70213">
		<tag k="name" v="Vassneset" />
		<tag k="ssr:date" v="2019-12-27" />
		<tag k="ssr:gruppe" v="veg" />
		<tag k="ssr:hovedgruppe" v="infrastruktur" />
		<tag k="ssr:stedsnr" v="1038139" />
		<tag k="ssr:type" v="adressenavn" />
	</node>
	<node lat="59.78137278074442" lon="5.386370300044702" id="-70214">
		<tag k="name" v="Bregnehaugen" />
		<tag k="ssr:date" v="2019-12-27" />
		<tag k="ssr:gruppe" v="veg" />
		<tag k="ssr:hovedgruppe" v="infrastruktur" />
		<tag k="ssr:stedsnr" v="1038142" />
		<tag k="ssr:type" v="adressenavn" />
	</node>
	<node lat="59.78125425356698" lon="5.3886955938025185" id="-70215">
		<tag k="name" v="Utslettevegen" />
		<tag k="ssr:date" v="2019-12-27" />
		<tag k="ssr:gruppe" v="veg" />
		<tag k="ssr:hovedgruppe" v="infrastruktur" />
		<tag k="ssr:stedsnr" v="1038145" />
		<tag k="ssr:type" v="adressenavn" />
	</node>
	<node lat="59.78236012893001" lon="5.501433395424704" id="-70216">
		<tag k="name" v="Vidsteensvegen" />
		<tag k="ssr:date" v="2019-12-27" />
		<tag k="ssr:gruppe" v="veg" />
		<tag k="ssr:hovedgruppe" v="infrastruktur" />
		<tag k="ssr:stedsnr" v="1038148" />
		<tag k="ssr:type" v="adressenavn" />
	</node>
	<node lat="59.77547477774627" lon="5.48982878547475" id="-70217">
		<tag k="name" v="Vikahaugen" />
		<tag k="ssr:date" v="2019-12-27" />
		<tag k="ssr:gruppe" v="veg" />
		<tag k="ssr:hovedgruppe" v="infrastruktur" />
		<tag k="ssr:stedsnr" v="1038151" />
		<tag k="ssr:type" v="adressenavn" />
	</node>
	<node lat="59.766935182547954" lon="5.494390995959681" id="-70218">
		<tag k="name" v="Verftsvegen" />
		<tag k="ssr:date" v="2019-12-27" />
		<tag k="ssr:gruppe" v="veg" />
		<tag k="ssr:hovedgruppe" v="infrastruktur" />
		<tag k="ssr:stedsnr" v="1038154" />
		<tag k="ssr:type" v="adressenavn" />
	</node>
	<node lat="59.79813044573614" lon="5.496310785788349" id="-70219">
		<tag k="name" v="Vestlivegen" />
		<tag k="ssr:date" v="2019-12-27" />
		<tag k="ssr:gruppe" v="veg" />
		<tag k="ssr:hovedgruppe" v="infrastruktur" />
		<tag k="ssr:stedsnr" v="1038157" />
		<tag k="ssr:type" v="adressenavn" />
	</node>
	<node lat="59.78527175183638" lon="5.503893307442162" id="-70220">
		<tag k="name" v="Trudvangssmoget" />
		<tag k="ssr:date" v="2019-12-27" />
		<tag k="ssr:gruppe" v="veg" />
		<tag k="ssr:hovedgruppe" v="infrastruktur" />
		<tag k="ssr:stedsnr" v="1038161" />
		<tag k="ssr:type" v="adressenavn" />
	</node>
	<node lat="59.778918332549274" lon="5.4972785605070476" id="-70221">
		<tag k="name" v="Tresmyro" />
		<tag k="ssr:date" v="2019-12-27" />
		<tag k="ssr:gruppe" v="veg" />
		<tag k="ssr:hovedgruppe" v="infrastruktur" />
		<tag k="ssr:stedsnr" v="1038164" />
		<tag k="ssr:type" v="adressenavn" />
	</node>
	<node lat="59.77546925535088" lon="5.380442265106416" id="-70222">
		<tag k="name" v="Torkelsneset" />
		<tag k="ssr:date" v="2019-12-27" />
		<tag k="ssr:gruppe" v="veg" />
		<tag k="ssr:hovedgruppe" v="infrastruktur" />
		<tag k="ssr:stedsnr" v="1038166" />
		<tag k="ssr:type" v="adressenavn" />
	</node>
	<node lat="59.77985515002479" lon="5.500670294974534" id="-70223">
		<tag k="name" v="Torgbakken" />
		<tag k="ssr:date" v="2019-12-27" />
		<tag k="ssr:gruppe" v="veg" />
		<tag k="ssr:hovedgruppe" v="infrastruktur" />
		<tag k="ssr:stedsnr" v="1038169" />
		<tag k="ssr:type" v="adressenavn" />
	</node>
	<node lat="59.80306553384243" lon="5.515975418695762" id="-70224">
		<tag k="name" v="Tysestølen" />
		<tag k="ssr:date" v="2019-12-27" />
		<tag k="ssr:gruppe" v="veg" />
		<tag k="ssr:hovedgruppe" v="infrastruktur" />
		<tag k="ssr:stedsnr" v="1038172" />
		<tag k="ssr:type" v="adressenavn" />
	</node>
	<node lat="59.790184969488124" lon="5.505743290078548" id="-70225">
		<tag k="name" v="Tysevegen" />
		<tag k="ssr:date" v="2019-12-27" />
		<tag k="ssr:gruppe" v="veg" />
		<tag k="ssr:hovedgruppe" v="infrastruktur" />
		<tag k="ssr:stedsnr" v="1038175" />
		<tag k="ssr:type" v="adressenavn" />
	</node>
	<node lat="59.792816644295925" lon="5.515040643729207" id="-70226">
		<tag k="name" v="Tverrgardsvegen" />
		<tag k="ssr:date" v="2019-12-27" />
		<tag k="ssr:gruppe" v="veg" />
		<tag k="ssr:hovedgruppe" v="infrastruktur" />
		<tag k="ssr:stedsnr" v="1038178" />
		<tag k="ssr:type" v="adressenavn" />
	</node>
	<node lat="59.797964768036806" lon="5.51824650286693" id="-70227">
		<tag k="name" v="Tyselio" />
		<tag k="ssr:date" v="2019-12-27" />
		<tag k="ssr:gruppe" v="veg" />
		<tag k="ssr:hovedgruppe" v="infrastruktur" />
		<tag k="ssr:stedsnr" v="1038181" />
		<tag k="ssr:type" v="adressenavn" />
	</node>
	<node lat="59.78604782884787" lon="5.407173459811972" id="-70228">
		<tag k="name" v="Åsamyrvegen" />
		<tag k="ssr:date" v="2019-12-27" />
		<tag k="ssr:gruppe" v="veg" />
		<tag k="ssr:hovedgruppe" v="infrastruktur" />
		<tag k="ssr:stedsnr" v="1038184" />
		<tag k="ssr:type" v="adressenavn" />
	</node>
	<node lat="59.76188195624789" lon="5.480750091005244" id="-70229">
		<tag k="name" v="Eldøyvegen" />
		<tag k="ssr:date" v="2019-12-27" />
		<tag k="ssr:gruppe" v="veg" />
		<tag k="ssr:hovedgruppe" v="infrastruktur" />
		<tag k="ssr:stedsnr" v="1038237" />
		<tag k="ssr:type" v="adressenavn" />
	</node>
	<node lat="59.77570431412269" lon="5.372650157728227" id="-70230">
		<tag k="name" v="Vikaneskleivo" />
		<tag k="ssr:date" v="2019-12-27" />
		<tag k="ssr:gruppe" v="veg" />
		<tag k="ssr:hovedgruppe" v="infrastruktur" />
		<tag k="ssr:stedsnr" v="1038240" />
		<tag k="ssr:type" v="adressenavn" />
	</node>
	<node lat="59.7664125202963" lon="5.402805960415593" id="-70231">
		<tag k="name" v="Sætravikvegen" />
		<tag k="ssr:date" v="2019-12-27" />
		<tag k="ssr:gruppe" v="veg" />
		<tag k="ssr:hovedgruppe" v="infrastruktur" />
		<tag k="ssr:stedsnr" v="1038243" />
		<tag k="ssr:type" v="adressenavn" />
	</node>
	<node lat="59.77283044325938" lon="5.402949111816243" id="-70232">
		<tag k="name" v="Almåsvegen" />
		<tag k="ssr:date" v="2019-12-27" />
		<tag k="ssr:gruppe" v="veg" />
		<tag k="ssr:hovedgruppe" v="infrastruktur" />
		<tag k="ssr:stedsnr" v="1038246" />
		<tag k="ssr:type" v="adressenavn" />
	</node>
	<node lat="59.808735724777414" lon="5.5188555068573955" id="-70233">
		<tag k="name" v="Øklandsvegen" />
		<tag k="ssr:date" v="2019-12-27" />
		<tag k="ssr:gruppe" v="veg" />
		<tag k="ssr:hovedgruppe" v="infrastruktur" />
		<tag k="ssr:stedsnr" v="1038249" />
		<tag k="ssr:type" v="adressenavn" />
	</node>
	<node lat="59.76775377476885" lon="5.422137875953548" id="-70234">
		<tag k="name" v="Justagjerdet" />
		<tag k="ssr:date" v="2019-12-27" />
		<tag k="ssr:gruppe" v="veg" />
		<tag k="ssr:hovedgruppe" v="infrastruktur" />
		<tag k="ssr:stedsnr" v="1038252" />
		<tag k="ssr:type" v="adressenavn" />
	</node>
	<node lat="59.77434540592828" lon="5.392079220963118" id="-70235">
		<tag k="name" v="Åsheim" />
		<tag k="ssr:date" v="2019-12-27" />
		<tag k="ssr:gruppe" v="veg" />
		<tag k="ssr:hovedgruppe" v="infrastruktur" />
		<tag k="ssr:stedsnr" v="1038255" />
		<tag k="ssr:type" v="adressenavn" />
	</node>
	<node lat="59.774492083262224" lon="5.396177579800389" id="-70236">
		<tag k="name" v="Nilsahaugen" />
		<tag k="ssr:date" v="2019-12-27" />
		<tag k="ssr:gruppe" v="veg" />
		<tag k="ssr:hovedgruppe" v="infrastruktur" />
		<tag k="ssr:stedsnr" v="1038258" />
		<tag k="ssr:type" v="adressenavn" />
	</node>
	<node lat="59.76300864476335" lon="5.482335094112292" id="-70237">
		<tag k="name" v="Krono" />
		<tag k="ssr:date" v="2019-12-27" />
		<tag k="ssr:gruppe" v="veg" />
		<tag k="ssr:hovedgruppe" v="infrastruktur" />
		<tag k="ssr:stedsnr" v="1038261" />
		<tag k="ssr:type" v="adressenavn" />
	</node>
	<node lat="59.79397773552458" lon="5.504388446428115" id="-70238">
		<tag k="name" v="Storehaugen" />
		<tag k="ssr:date" v="2019-12-27" />
		<tag k="ssr:gruppe" v="veg" />
		<tag k="ssr:hovedgruppe" v="infrastruktur" />
		<tag k="ssr:stedsnr" v="1038264" />
		<tag k="ssr:type" v="adressenavn" />
	</node>
	<node lat="59.78121138479116" lon="5.401736797112561" id="-70239">
		<tag k="name" v="Mosahaugen" />
		<tag k="ssr:date" v="2019-12-27" />
		<tag k="ssr:gruppe" v="veg" />
		<tag k="ssr:hovedgruppe" v="infrastruktur" />
		<tag k="ssr:stedsnr" v="1038267" />
		<tag k="ssr:type" v="adressenavn" />
	</node>
	<node lat="59.790276120776255" lon="5.5115887701419926" id="-70240">
		<tag k="name" v="Pilehagen" />
		<tag k="ssr:date" v="2019-12-27" />
		<tag k="ssr:gruppe" v="veg" />
		<tag k="ssr:hovedgruppe" v="infrastruktur" />
		<tag k="ssr:stedsnr" v="1038271" />
		<tag k="ssr:type" v="adressenavn" />
	</node>
	<node lat="59.77255931811113" lon="5.4901078431512955" id="-70241">
		<tag k="name" v="Luren" />
		<tag k="ssr:date" v="2019-12-27" />
		<tag k="ssr:gruppe" v="veg" />
		<tag k="ssr:hovedgruppe" v="infrastruktur" />
		<tag k="ssr:stedsnr" v="1038274" />
		<tag k="ssr:type" v="adressenavn" />
	</node>
	<node lat="59.78644375228766" lon="5.494346740178905" id="-70242">
		<tag k="name" v="Knutsaåsen" />
		<tag k="ssr:date" v="2019-12-27" />
		<tag k="ssr:gruppe" v="veg" />
		<tag k="ssr:hovedgruppe" v="infrastruktur" />
		<tag k="ssr:stedsnr" v="1038277" />
		<tag k="ssr:type" v="adressenavn" />
	</node>
	<node lat="59.805209012927435" lon="5.522068185952064" id="-70243">
		<tag k="name" v="Stølshaugen" />
		<tag k="ssr:date" v="2019-12-27" />
		<tag k="ssr:gruppe" v="veg" />
		<tag k="ssr:hovedgruppe" v="infrastruktur" />
		<tag k="ssr:stedsnr" v="1038130" />
		<tag k="ssr:type" v="adressenavn" />
	</node>
	<node lat="59.77958593331153" lon="5.500760224683861" id="-70244">
		<tag k="name" v="Sunnhordlandskaien" />
		<tag k="ssr:date" v="2019-12-27" />
		<tag k="ssr:gruppe" v="veg" />
		<tag k="ssr:hovedgruppe" v="infrastruktur" />
		<tag k="ssr:stedsnr" v="1038133" />
		<tag k="ssr:type" v="adressenavn" />
	</node>
	<node lat="59.78651392876614" lon="5.5021918439282445" id="-70245">
		<tag k="name" v="Åsmyro" />
		<tag k="ssr:date" v="2019-12-27" />
		<tag k="ssr:gruppe" v="veg" />
		<tag k="ssr:hovedgruppe" v="infrastruktur" />
		<tag k="ssr:stedsnr" v="1038187" />
		<tag k="ssr:type" v="adressenavn" />
	</node>
	<node lat="59.78427143403035" lon="5.4142305559365775" id="-70246">
		<tag k="name" v="Åkervikåsen" />
		<tag k="ssr:date" v="2019-12-27" />
		<tag k="ssr:gruppe" v="veg" />
		<tag k="ssr:hovedgruppe" v="infrastruktur" />
		<tag k="ssr:stedsnr" v="1038190" />
		<tag k="ssr:type" v="adressenavn" />
	</node>
	<node lat="59.785431216311515" lon="5.501230530441516" id="-70247">
		<tag k="name" v="Ås" />
		<tag k="ssr:date" v="2019-12-27" />
		<tag k="ssr:gruppe" v="veg" />
		<tag k="ssr:hovedgruppe" v="infrastruktur" />
		<tag k="ssr:stedsnr" v="1038193" />
		<tag k="ssr:type" v="adressenavn" />
	</node>
	<node lat="59.77220763859777" lon="5.498249963795428" id="-70248">
		<tag k="name" v="Stølen" />
		<tag k="ssr:date" v="2019-12-27" />
		<tag k="ssr:gruppe" v="veg" />
		<tag k="ssr:hovedgruppe" v="infrastruktur" />
		<tag k="ssr:stedsnr" v="1038196" />
		<tag k="ssr:type" v="adressenavn" />
	</node>
	<node lat="59.774068093504404" lon="5.4847170423660065" id="-70249">
		<tag k="name" v="Vabakkjen" />
		<tag k="ssr:date" v="2019-12-27" />
		<tag k="ssr:gruppe" v="veg" />
		<tag k="ssr:hovedgruppe" v="infrastruktur" />
		<tag k="ssr:stedsnr" v="1038199" />
		<tag k="ssr:type" v="adressenavn" />
	</node>
	<node lat="59.78328419910494" lon="5.502922407604208" id="-70250">
		<tag k="name" v="Åsringen" />
		<tag k="ssr:date" v="2019-12-27" />
		<tag k="ssr:gruppe" v="veg" />
		<tag k="ssr:hovedgruppe" v="infrastruktur" />
		<tag k="ssr:stedsnr" v="1038202" />
		<tag k="ssr:type" v="adressenavn" />
	</node>
	<node lat="59.784595582019875" lon="5.499156514166103" id="-70251">
		<tag k="name" v="Åsvegen" />
		<tag k="ssr:date" v="2019-12-27" />
		<tag k="ssr:gruppe" v="veg" />
		<tag k="ssr:hovedgruppe" v="infrastruktur" />
		<tag k="ssr:stedsnr" v="1038205" />
		<tag k="ssr:type" v="adressenavn" />
	</node>
	<node lat="59.797238789906025" lon="5.5200744334439245" id="-70252">
		<tag k="name" v="Vinkelen" />
		<tag k="ssr:date" v="2019-12-27" />
		<tag k="ssr:gruppe" v="veg" />
		<tag k="ssr:hovedgruppe" v="infrastruktur" />
		<tag k="ssr:stedsnr" v="1038208" />
		<tag k="ssr:type" v="adressenavn" />
	</node>
	<node lat="59.80435479638389" lon="5.517917721605112" id="-70253">
		<tag k="name" v="Ørehaug" />
		<tag k="ssr:date" v="2019-12-27" />
		<tag k="ssr:gruppe" v="veg" />
		<tag k="ssr:hovedgruppe" v="infrastruktur" />
		<tag k="ssr:stedsnr" v="1038211" />
		<tag k="ssr:type" v="adressenavn" />
	</node>
	<node lat="59.77605254462864" lon="5.380071278063774" id="-70254">
		<tag k="name" v="Vikanesvegen" />
		<tag k="ssr:date" v="2019-12-27" />
		<tag k="ssr:gruppe" v="veg" />
		<tag k="ssr:hovedgruppe" v="infrastruktur" />
		<tag k="ssr:stedsnr" v="1038213" />
		<tag k="ssr:type" v="adressenavn" />
	</node>
	<node lat="59.79038719790369" lon="5.516866714048649" id="-70255">
		<tag k="name" v="Villavegen" />
		<tag k="ssr:date" v="2019-12-27" />
		<tag k="ssr:gruppe" v="veg" />
		<tag k="ssr:hovedgruppe" v="infrastruktur" />
		<tag k="ssr:stedsnr" v="1038216" />
		<tag k="ssr:type" v="adressenavn" />
	</node>
	<node lat="59.79031896810195" lon="5.507986462604893" id="-70256">
		<tag k="name" v="Ådlandslio" />
		<tag k="ssr:date" v="2019-12-27" />
		<tag k="ssr:gruppe" v="veg" />
		<tag k="ssr:hovedgruppe" v="infrastruktur" />
		<tag k="ssr:stedsnr" v="1038219" />
		<tag k="ssr:type" v="adressenavn" />
	</node>
	<node lat="59.78730387158163" lon="5.508182055526297" id="-70257">
		<tag k="name" v="Ådlandsvegen" />
		<tag k="ssr:date" v="2019-12-27" />
		<tag k="ssr:gruppe" v="veg" />
		<tag k="ssr:hovedgruppe" v="infrastruktur" />
		<tag k="ssr:stedsnr" v="1038222" />
		<tag k="ssr:type" v="adressenavn" />
	</node>
	<node lat="59.80565540624664" lon="5.519154836033054" id="-70258">
		<tag k="name" v="Øklandslio" />
		<tag k="ssr:date" v="2019-12-27" />
		<tag k="ssr:gruppe" v="veg" />
		<tag k="ssr:hovedgruppe" v="infrastruktur" />
		<tag k="ssr:stedsnr" v="1038225" />
		<tag k="ssr:type" v="adressenavn" />
	</node>
	<node lat="59.76982664045492" lon="5.49758812951894" id="-70259">
		<tag k="name" v="Øvre hageby" />
		<tag k="ssr:date" v="2019-12-27" />
		<tag k="ssr:gruppe" v="veg" />
		<tag k="ssr:hovedgruppe" v="infrastruktur" />
		<tag k="ssr:stedsnr" v="1038228" />
		<tag k="ssr:type" v="adressenavn" />
	</node>
	<node lat="59.77938633763441" lon="5.395869065671321" id="-70260">
		<tag k="name" v="Fitjarvegen" />
		<tag k="ssr:date" v="2019-12-27" />
		<tag k="ssr:gruppe" v="veg" />
		<tag k="ssr:hovedgruppe" v="infrastruktur" />
		<tag k="ssr:stedsnr" v="1038231" />
		<tag k="ssr:type" v="adressenavn" />
	</node>
	<node lat="59.774733974752515" lon="5.3941256675002345" id="-70261">
		<tag k="name" v="Lyngneset" />
		<tag k="ssr:date" v="2019-12-27" />
		<tag k="ssr:gruppe" v="veg" />
		<tag k="ssr:hovedgruppe" v="infrastruktur" />
		<tag k="ssr:stedsnr" v="1038234" />
		<tag k="ssr:type" v="adressenavn" />
	</node>
	<node lat="60.38666587132831" lon="5.332557531214444" id="-70262">
		<tag k="name" v="Vestland fylke" />
		<tag k="ssr:date" v="2022-01-03" />
		<tag k="ssr:gruppe" v="administrativeIndelinger" />
		<tag k="ssr:hovedgruppe" v="offentligAdministrasjon" />
		<tag k="ssr:stedsnr" v="1074408" />
		<tag k="ssr:type" v="fylke" />
	</node>
</osm>
