<?xml version="1.0" encoding="UTF-8"?>
<osm generator="osmapis" version="0.6">
	<node id="-535680" lat="61.4642527782" lon="5.44365556252">
		<tag k="name" v="Engelneset" />
		<tag k="natural" v="cape" />
		<tag k="ssr:stedsnr" v="893071" />
	</node>
	<node id="-535806" lat="61.4715416709" lon="5.44420833141">
		<tag k="name" v="Russenes" />
		<tag k="natural" v="cape" />
		<tag k="ssr:stedsnr" v="44063" />
	</node>
	<node id="-535677" lat="61.4864305564" lon="5.46950555298">
		<tag k="name" v="Liaverpflua" />
		<tag k="natural" v="shoal" />
		<tag k="place" v="locality" />
		<tag k="ssr:stedsnr" v="478016" />
	</node>
	<node id="-536572" lat="61.5050972212" lon="5.70305277546">
		<tag k="name" v="Mallasvik" />
		<tag k="natural" v="bay" />
		<tag k="ssr:stedsnr" v="711833" />
	</node>
	<node id="-535733" lat="61.4872972211" lon="5.65448889516">
		<tag k="alt_name" v="Pikneset" />
		<tag k="name" v="Pikaneset" />
		<tag k="natural" v="cape" />
		<tag k="ssr:stedsnr" v="7685" />
	</node>
	<node id="-536311" lat="61.4867027767" lon="5.65998610958">
		<tag k="alt_name" v="Storholmen" />
		<tag k="name" v="Storeholmen" />
		<tag k="place" v="islet" />
		<tag k="ssr:stedsnr" v="553731" />
	</node>
	<node id="-536309" lat="61.4593583292" lon="5.51150277762">
		<tag k="alt_name" v="Båtvikneset" />
		<tag k="name" v="Båtvikeneset" />
		<tag k="natural" v="cape" />
		<tag k="ssr:stedsnr" v="553680" />
	</node>
	<node id="-535923" lat="61.4620111077" lon="5.5656888948">
		<tag k="name" v="Kvitskjerneset" />
		<tag k="natural" v="cape" />
		<tag k="ssr:stedsnr" v="129677" />
	</node>
	<node id="-536306" lat="61.4642777811" lon="5.4590555621">
		<tag k="alt_name" v="Grønskarvika" />
		<tag k="name" v="Grøneskardvika" />
		<tag k="natural" v="bay" />
		<tag k="ssr:stedsnr" v="553113" />
	</node>
	<node id="-536688" lat="61.4882416683" lon="5.44087499181">
		<tag k="alt_name" v="Engebøneset" />
		<tag k="name" v="Engjabøneset" />
		<tag k="natural" v="cape" />
		<tag k="ssr:stedsnr" v="797010" />
	</node>
	<node id="-536303" lat="61.4908111106" lon="5.32937221821">
		<tag k="name" v="Lauvberget" />
		<tag k="natural" v="cape" />
		<tag k="ssr:stedsnr" v="530305" />
	</node>
	<node id="-535658" lat="61.4839805543" lon="5.48148333169">
		<tag k="name" v="Selvikneset" />
		<tag k="natural" v="cape" />
		<tag k="ssr:stedsnr" v="408148" />
	</node>
	<node id="-536804" lat="61.4868944451" lon="5.66070000646">
		<tag k="name" v="Holmesetholmane" />
		<tag k="place" v="islet" />
		<tag k="ssr:stedsnr" v="903780" />
	</node>
	<node id="-536418" lat="61.4841888899" lon="5.47116944206">
		<tag k="name" v="Liaverpet" />
		<tag k="natural" v="cape" />
		<tag k="ssr:stedsnr" v="614512" />
	</node>
	<node id="-536545" lat="61.4848111131" lon="5.63552221379">
		<tag k="name" v="Saltneset" />
		<tag k="natural" v="cape" />
		<tag k="ssr:stedsnr" v="710146" />
	</node>
	<node id="-535644" lat="61.4631027741" lon="5.46584999284">
		<tag k="name" v="Skarvika" />
		<tag k="natural" v="bay" />
		<tag k="ssr:stedsnr" v="407828" />
	</node>
	<node id="-535769" lat="61.4607500039" lon="5.54081665698">
		<tag k="name" v="Klubbatåna" />
		<tag k="natural" v="cape" />
		<tag k="ssr:stedsnr" v="42341" />
	</node>
	<node id="-536273" lat="61.4810250023" lon="5.47021943488">
		<tag k="name" v="Pinebenken" />
		<tag k="natural" v="cape" />
		<tag k="ssr:stedsnr" v="529117" />
	</node>
	<node id="-535671" lat="61.5034444453" lon="5.72483333349">
		<tag k="name" v="Naustdalsneset" />
		<tag k="natural" v="cape" />
		<tag k="ssr:stedsnr" v="408822" />
	</node>
	<node id="-535502" lat="61.4938250016" lon="5.67080832613">
		<tag k="name" v="Liabøneset" />
		<tag k="natural" v="cape" />
		<tag k="ssr:stedsnr" v="346083" />
	</node>
	<node id="-536137" lat="61.485727774" lon="5.49071110579">
		<tag k="name" v="Liavika" />
		<tag k="natural" v="bay" />
		<tag k="ssr:stedsnr" v="433499" />
	</node>
	<node id="-536264" lat="61.4631194472" lon="5.45496944149">
		<tag k="name" v="Bukkeneset" />
		<tag k="natural" v="cape" />
		<tag k="ssr:stedsnr" v="528788" />
	</node>
	<node id="-536775" lat="61.4650749995" lon="5.4470888855">
		<tag k="name" v="Klenevika" />
		<tag k="natural" v="bay" />
		<tag k="ssr:stedsnr" v="857093" />
	</node>
	<node id="-536772" lat="61.4892305536" lon="5.33891389687">
		<tag k="name" v="Brørne" />
		<tag k="natural" v="shoal" />
		<tag k="place" v="locality" />
		<tag k="ssr:stedsnr" v="842084" />
	</node>
	<node id="-536515" lat="61.4547944461" lon="5.53024444166">
		<tag k="name" v="Nåneset" />
		<tag k="natural" v="cape" />
		<tag k="ssr:stedsnr" v="675665" />
	</node>
	<node id="-536514" lat="61.4564444419" lon="5.50231667157">
		<tag k="name" v="Hillersvika" />
		<tag k="natural" v="bay" />
		<tag k="ssr:stedsnr" v="675661" />
	</node>
	<node id="-536511" lat="61.4930277823" lon="5.50092500809">
		<tag k="name" v="Nordvika" />
		<tag k="natural" v="bay" />
		<tag k="ssr:stedsnr" v="675528" />
	</node>
	<node id="-536117" lat="61.4898305544" lon="5.6617388935">
		<tag k="name" v="Indre Holmesetvika" />
		<tag k="natural" v="bay" />
		<tag k="ssr:stedsnr" v="417827" />
	</node>
	<node id="-535993" lat="61.4879694415" lon="5.46451666962">
		<tag k="alt_name" v="Gryteskjeret" />
		<tag k="fixme" v="consider seamark:type=rock or natural=shoal" />
		<tag k="name" v="Grytaskjeret" />
		<tag k="place" v="islet" />
		<tag k="ssr:stedsnr" v="190012" />
	</node>
	<node id="-536116" lat="61.4962694412" lon="5.29024722775">
		<tag k="name" v="Kvellestadvika" />
		<tag k="natural" v="bay" />
		<tag k="ssr:stedsnr" v="417081" />
	</node>
	<node id="-535734" lat="61.4843138855" lon="5.66477221593">
		<tag k="name" v="Litleholmen" />
		<tag k="place" v="islet" />
		<tag k="ssr:stedsnr" v="7687" />
	</node>
	<node id="-536501" lat="61.4725499985" lon="5.46209444066">
		<tag k="name" v="Midtverpet" />
		<tag k="natural" v="cape" />
		<tag k="ssr:stedsnr" v="675100" />
	</node>
	<node id="-536500" lat="61.4966666664" lon="5.27361110555">
		<tag k="name" v="Horneneset" />
		<tag k="natural" v="cape" />
		<tag k="ssr:stedsnr" v="675036" />
	</node>
	<node id="-535475" lat="61.4875000044" lon="5.6564805625">
		<tag k="name" v="Bruraneset" />
		<tag k="natural" v="cape" />
		<tag k="ssr:stedsnr" v="311787" />
	</node>
	<node id="-535474" lat="61.4714000017" lon="5.47245000287">
		<tag k="alt_name" v="Gjøringbøvika" />
		<tag k="name" v="Gjøringebøvika" />
		<tag k="natural" v="bay" />
		<tag k="ssr:stedsnr" v="311755" />
	</node>
	<node id="-535987" lat="61.4622722248" lon="5.45143333804">
		<tag k="name" v="Straumsnes" />
		<tag k="natural" v="cape" />
		<tag k="ssr:stedsnr" v="174993" />
	</node>
	<node id="-535470" lat="61.448316663" lon="5.52497778601">
		<tag k="name" v="Helgøyna" />
		<tag k="place" v="island" />
		<tag k="ssr:stedsnr" v="311683" />
	</node>
	<node id="-535725" lat="61.4879587727" lon="5.65545302313">
		<tag k="name" v="Holmesetneset" />
		<tag k="natural" v="cape" />
		<tag k="ssr:stedsnr" v="1073002" />
	</node>
	<node id="-535724" lat="61.4893187396" lon="5.46260591593">
		<tag k="name" v="Gryteneset" />
		<tag k="natural" v="cape" />
		<tag k="ssr:stedsnr" v="1072991" />
	</node>
	<node id="-535723" lat="61.4823166661" lon="5.30860000151">
		<tag k="alt_name" v="Sunnfjord" />
		<tag k="bay" v="fjord" />
		<tag k="name" v="Førdefjorden" />
		<tag k="natural" v="bay" />
		<tag k="ssr:stedsnr" v="554047" />
	</node>
	<node id="-535559" lat="61.4488972192" lon="5.50347499581">
		<tag k="alt_name" v="Ternholmen" />
		<tag k="name" v="Terneholmen" />
		<tag k="place" v="islet" />
		<tag k="ssr:stedsnr" v="371839" />
	</node>
	<node id="-536871" lat="61.4785583321" lon="5.63354167148">
		<tag k="name" v="Jørneset" />
		<tag k="natural" v="cape" />
		<tag k="ssr:stedsnr" v="954211" />
	</node>
	<node id="-536241" lat="61.4884499989" lon="5.3793972156">
		<tag k="alt_name" v="Årsetnes" />
		<tag k="name" v="Årsetneset" />
		<tag k="natural" v="cape" />
		<tag k="ssr:stedsnr" v="529031" />
	</node>
	<node id="-536740" lat="61.4879805552" lon="5.36296389165">
		<tag k="name" v="Apalsetneset" />
		<tag k="natural" v="cape" />
		<tag k="ssr:stedsnr" v="833033" />
	</node>
	<node id="-536867" lat="61.470002777" lon="5.46566111358">
		<tag k="name" v="Gamleverpet" />
		<tag k="natural" v="cape" />
		<tag k="ssr:stedsnr" v="954108" />
	</node>
	<node id="-535458" lat="61.4862305532" lon="5.65235000473">
		<tag k="name" v="Ytre Holmesetvika" />
		<tag k="natural" v="bay" />
		<tag k="ssr:stedsnr" v="296785" />
	</node>
	<node id="-536864" lat="61.4699555585" lon="5.44279443744">
		<tag k="name" v="Bukta" />
		<tag k="natural" v="bay" />
		<tag k="ssr:stedsnr" v="954064" />
	</node>
	<node id="-536070" lat="61.4933527751" lon="5.49218333156">
		<tag k="name" v="Redalsvika" />
		<tag k="natural" v="bay" />
		<tag k="ssr:stedsnr" v="235053" />
	</node>
	<node id="-535550" lat="61.4646333309" lon="5.57522500293">
		<tag k="name" v="Hellestranda" />
		<tag k="natural" v="beach" />
		<tag k="place" v="locality" />
		<tag k="ssr:stedsnr" v="356801" />
	</node>
	<node id="-536243" lat="61.4636972228" lon="5.5485527768">
		<tag k="name" v="Sandskjeret" />
		<tag k="natural" v="cape" />
		<tag k="ssr:stedsnr" v="527429" />
	</node>
	<node id="-535578" lat="61.4704527791" lon="5.61867222184">
		<tag k="name" v="Hestvika" />
		<tag k="natural" v="bay" />
		<tag k="ssr:stedsnr" v="372680" />
	</node>
	<node id="-535753" lat="61.4590611088" lon="5.46834166336">
		<tag k="name" v="Kuneset" />
		<tag k="natural" v="cape" />
		<tag k="ssr:stedsnr" v="8711" />
	</node>
	<node id="-536720" lat="61.4959361125" lon="5.67386111359">
		<tag k="name" v="Riskvineset" />
		<tag k="natural" v="cape" />
		<tag k="ssr:stedsnr" v="832092" />
	</node>
	<node id="-535823" lat="61.4890861141" lon="5.48191111608">
		<tag k="name" v="Kalveneset" />
		<tag k="natural" v="cape" />
		<tag k="ssr:stedsnr" v="69546" />
	</node>
	<node id="-535422" lat="61.4956111127" lon="5.29935000306">
		<tag k="fixme" v="consider seamark:type=rock or natural=shoal" />
		<tag k="name" v="Kvellestad" />
		<tag k="place" v="islet" />
		<tag k="ssr:stedsnr" v="286299" />
	</node>
	<node id="-536073" lat="61.4812805533" lon="5.63381110276">
		<tag k="name" v="Frammarsvika" />
		<tag k="natural" v="bay" />
		<tag k="ssr:stedsnr" v="235810" />
	</node>
	<node id="-536072" lat="61.4878583359" lon="5.37336389788">
		<tag k="name" v="Trøsevika" />
		<tag k="natural" v="bay" />
		<tag k="ssr:stedsnr" v="235120" />
	</node>
	<node id="-536876" lat="61.5953138934" lon="5.98725000674">
		<tag k="name" v="Stranda" />
		<tag k="natural" v="beach" />
		<tag k="place" v="locality" />
		<tag k="ssr:stedsnr" v="954581" />
	</node>
	<node id="-536326" lat="61.4567583332" lon="5.51844165772">
		<tag k="name" v="Skitlabrotvika" />
		<tag k="natural" v="bay" />
		<tag k="ssr:stedsnr" v="554684" />
	</node>
	<node id="-536065" lat="61.50150278" lon="5.76742500171">
		<tag k="name" v="Skredvika" />
		<tag k="natural" v="bay" />
		<tag k="ssr:stedsnr" v="226848" />
	</node>
</osm>
