<?xml version="1.0" encoding="UTF-8"?>
<osm generator="osmapis" version="0.6">
	<node id="-535546" lat="61.5555250016" lon="5.85212222228">
		<tag k="name" v="Betnegrova" />
		<tag k="ssr:stedsnr" v="347950" />
		<tag k="waterway" v="stream" />
	</node>
	<node id="-535545" lat="61.5532972231" lon="5.75808611874">
		<tag k="name" v="Lonene" />
		<tag k="natural" v="water" />
		<tag k="ssr:stedsnr" v="347945" />
		<tag k="water" v="lake" />
	</node>
	<node id="-536054" lat="61.4943861134" lon="5.46353055392">
		<tag k="name" v="Grytaelva" />
		<tag k="ssr:stedsnr" v="226239" />
		<tag k="waterway" v="river" />
	</node>
	<node id="-535541" lat="61.5224527751" lon="5.74479444547">
		<tag k="name" v="Grimsetelva" />
		<tag k="ssr:stedsnr" v="347857" />
		<tag k="waterway" v="river" />
	</node>
	<node id="-535464" lat="61.5528666638" lon="5.69733887998">
		<tag k="name" v="Svartevatnet" />
		<tag k="natural" v="water" />
		<tag k="ssr:stedsnr" v="311493" />
	</node>
	<node id="-536041" lat="61.6041444439" lon="5.89999721577">
		<tag k="name" v="Vindalselva" />
		<tag k="ssr:stedsnr" v="225854" />
		<tag k="waterway" v="river" />
	</node>
	<node id="-536552" lat="61.5589944424" lon="5.7487944457">
		<tag k="name" v="Nåletjørna" />
		<tag k="natural" v="water" />
		<tag k="ssr:stedsnr" v="710713" />
	</node>
	<node id="-535527" lat="61.4917527743" lon="5.52571943652">
		<tag k="name" v="Vassneset" />
		<tag k="natural" v="cape" />
		<tag k="ssr:stedsnr" v="347050" />
	</node>
	<node id="-535521" lat="61.5805749961" lon="5.86824166703">
		<tag k="name" v="Buneset" />
		<tag k="natural" v="cape" />
		<tag k="ssr:stedsnr" v="346772" />
	</node>
	<node id="-535519" lat="61.5563138855" lon="5.73864443992">
		<tag k="name" v="Dyttinga" />
		<tag k="natural" v="cape" />
		<tag k="ssr:stedsnr" v="346727" />
	</node>
	<node id="-535512" lat="61.5647944466" lon="5.77094165999">
		<tag k="name" v="Dalegrova" />
		<tag k="ssr:stedsnr" v="346580" />
		<tag k="waterway" v="stream" />
	</node>
	<node id="-536535" lat="61.5945583355" lon="5.94201666113">
		<tag k="name" v="Tverrelva" />
		<tag k="ssr:stedsnr" v="677709" />
		<tag k="waterway" v="stream" />
	</node>
	<node id="-536532" lat="61.5791361153" lon="5.78724443459">
		<tag k="name" v="Hyelva" />
		<tag k="ssr:stedsnr" v="676495" />
		<tag k="waterway" v="stream" />
	</node>
	<node id="-536531" lat="61.5892916702" lon="5.82222500181">
		<tag k="name" v="Kalvevatnet" />
		<tag k="natural" v="water" />
		<tag k="ssr:stedsnr" v="676475" />
	</node>
	<node id="-535506" lat="61.5453555523" lon="5.65845554959">
		<tag k="name" v="Litletangen" />
		<tag k="natural" v="cape" />
		<tag k="ssr:stedsnr" v="346430" />
	</node>
	<node id="-536528" lat="61.6149918214" lon="6.17942795141">
		<tag k="alt_name" v="Langevatnet, yt" />
		<tag k="name" v="Ytre Langevatnet" />
		<tag k="natural" v="water" />
		<tag k="ssr:stedsnr" v="676252" />
		<tag k="water" v="lake" />
	</node>
	<node id="-536014" lat="61.6141666678" lon="5.97244166457">
		<tag k="name" v="Svartebottsvatna" />
		<tag k="natural" v="water" />
		<tag k="ssr:stedsnr" v="191241" />
	</node>
	<node id="-536525" lat="61.6017861125" lon="6.13066389556">
		<tag k="name" v="Kvitefossen" />
		<tag k="natural" v="waterfall" />
		<tag k="ssr:stedsnr" v="676233" />
	</node>
	<node id="-535497" lat="61.54014722" lon="5.71069721472">
		<tag k="name" v="Vardevatnet" />
		<tag k="natural" v="water" />
		<tag k="ssr:stedsnr" v="323700" />
	</node>
	<node id="-535496" lat="61.5520416644" lon="5.76643055493">
		<tag k="name" v="Træla" />
		<tag k="ssr:stedsnr" v="323699" />
		<tag k="waterway" v="river" />
	</node>
	<node id="-536518" lat="61.4754500017" lon="5.48698333496">
		<tag k="alt_name" v="Gjøringbøvatnet" />
		<tag k="name" v="Gjøringebøvatnet" />
		<tag k="natural" v="water" />
		<tag k="ssr:stedsnr" v="675716" />
	</node>
	<node id="-536005" lat="61.5746944414" lon="5.9528305639">
		<tag k="name" v="Trodøla" />
		<tag k="ssr:stedsnr" v="191175" />
		<tag k="waterway" v="river" />
	</node>
	<node id="-535491" lat="61.5536555564" lon="5.96892500772">
		<tag k="name" v="Strupen" />
		<tag k="natural" v="strait" />
		<tag k="ssr:stedsnr" v="313199" />
	</node>
	<node id="-535490" lat="61.5316305576" lon="5.85262500339">
		<tag k="name" v="Kleppsstølsvatnet" />
		<tag k="natural" v="water" />
		<tag k="ssr:stedsnr" v="313192" />
	</node>
	<node id="-535489" lat="61.5167527756" lon="5.91511388779">
		<tag k="name" v="Høgefjellvatnet" />
		<tag k="natural" v="water" />
		<tag k="ssr:stedsnr" v="313187" />
	</node>
	<node id="-535488" lat="61.5884666636" lon="5.79040832737">
		<tag k="name" v="Vardegrova" />
		<tag k="ssr:stedsnr" v="312474" />
		<tag k="waterway" v="stream" />
	</node>
	<node id="-535487" lat="61.6217096993" lon="6.22174388821">
		<tag k="name" v="Inste Langevatnet" />
		<tag k="natural" v="water" />
		<tag k="ssr:stedsnr" v="312256" />
		<tag k="water" v="lake" />
	</node>
	<node id="-535486" lat="61.5915638853" lon="5.98748889114">
		<tag k="name" v="Nykkjevatnet" />
		<tag k="natural" v="water" />
		<tag k="ssr:stedsnr" v="312237" />
	</node>
	<node id="-536509" lat="61.5361250039" lon="5.71511943885">
		<tag k="name" v="Nordstølsvatnet" />
		<tag k="natural" v="water" />
		<tag k="ssr:stedsnr" v="675490" />
	</node>
	<node id="-535482" lat="61.5782055546" lon="5.87596666343">
		<tag k="name" v="Styggelifossen" />
		<tag k="natural" v="waterfall" />
		<tag k="ssr:stedsnr" v="312214" />
	</node>
	<node id="-536503" lat="61.5029750012" lon="5.50473333643">
		<tag k="name" v="Nordvikstølsvatnet" />
		<tag k="natural" v="water" />
		<tag k="ssr:stedsnr" v="675413" />
	</node>
	<node id="-536488" lat="61.5382750043" lon="5.77892778083">
		<tag k="name" v="Kvitla" />
		<tag k="ssr:stedsnr" v="650934" />
		<tag k="waterway" v="river" />
	</node>
	<node id="-535973" lat="61.6156527749" lon="5.99666667509">
		<tag k="name" v="Holeelva" />
		<tag k="ssr:stedsnr" v="165590" />
		<tag k="waterway" v="river" />
	</node>
	<node id="-535959" lat="61.4710416638" lon="5.47937500417">
		<tag k="name" v="Setelva" />
		<tag k="ssr:stedsnr" v="165105" />
		<tag k="waterway" v="stream" />
	</node>
	<node id="-536469" lat="61.5478388908" lon="5.97962222988">
		<tag k="name" v="Strandaelva" />
		<tag k="ssr:stedsnr" v="650461" />
		<tag k="waterway" v="stream" />
	</node>
	<node id="-536466" lat="61.4976722248" lon="5.29871944992">
		<tag k="name" v="Litleelva" />
		<tag k="ssr:stedsnr" v="650280" />
		<tag k="waterway" v="stream" />
	</node>
	<node id="-535441" lat="61.5781138935" lon="5.72823611645">
		<tag k="name" v="Ragnhildfossen" />
		<tag k="natural" v="waterfall" />
		<tag k="ssr:stedsnr" v="286760" />
	</node>
	<node id="-535951" lat="61.5606972259" lon="5.85415554687">
		<tag k="name" v="Lonene" />
		<tag k="ssr:stedsnr" v="164928" />
		<tag k="waterway" v="river" />
	</node>
	<node id="-535949" lat="61.5198638897" lon="5.73142221345">
		<tag k="name" v="Husøyna" />
		<tag k="natural" v="cape" />
		<tag k="ssr:stedsnr" v="164880" />
	</node>
	<node id="-535944" lat="61.594451588" lon="6.08484426714">
		<tag k="name" v="Rundebotnselva" />
		<tag k="ssr:stedsnr" v="164653" />
		<tag k="waterway" v="river" />
	</node>
	<node id="-535431" lat="61.6192972191" lon="6.00235278247">
		<tag k="name" v="Lonefossen" />
		<tag k="natural" v="waterfall" />
		<tag k="ssr:stedsnr" v="286632" />
	</node>
	<node id="-535938" lat="61.5363722266" lon="5.6201333376">
		<tag k="name" v="Lona" />
		<tag k="natural" v="water" />
		<tag k="ssr:stedsnr" v="141668" />
	</node>
	<node id="-535937" lat="61.6362861109" lon="6.19005554861">
		<tag k="alt_name" v="Svartpøylevatnet, in" />
		<tag k="name" v="Inste Svartpøylevatnet" />
		<tag k="natural" v="water" />
		<tag k="ssr:stedsnr" v="131252" />
	</node>
	<node id="-536448" lat="61.4878777815" lon="5.6090333237">
		<tag k="name" v="Stegligrova" />
		<tag k="ssr:stedsnr" v="649197" />
		<tag k="waterway" v="stream" />
	</node>
	<node id="-535933" lat="61.5996249987" lon="5.90726665872">
		<tag k="alt_name" v="Savlandsvatn" />
		<tag k="name" v="Savlandsvatnet" />
		<tag k="natural" v="water" />
		<tag k="ssr:stedsnr" v="130247" />
	</node>
	<node id="-535926" lat="61.6115666686" lon="6.02423888765">
		<tag k="name" v="Vonavatnet" />
		<tag k="natural" v="water" />
		<tag k="ssr:stedsnr" v="130254" />
		<tag k="water" v="lake" />
	</node>
	<node id="-536437" lat="61.6232888856" lon="6.00318332628">
		<tag k="name" v="Stølsvatnet" />
		<tag k="natural" v="water" />
		<tag k="ssr:stedsnr" v="616241" />
	</node>
	<node id="-536436" lat="61.5409888873" lon="5.89866666207">
		<tag k="name" v="Pevatnet" />
		<tag k="natural" v="water" />
		<tag k="ssr:stedsnr" v="616177" />
	</node>
	<node id="-536435" lat="61.5476222261" lon="5.90003610471">
		<tag k="name" v="Svartevatnet" />
		<tag k="natural" v="water" />
		<tag k="ssr:stedsnr" v="616175" />
	</node>
	<node id="-536637" lat="61.5974416633" lon="5.93535000464">
		<tag k="name" v="Lonene" />
		<tag k="ssr:stedsnr" v="771640" />
		<tag k="waterway" v="river" />
	</node>
	<node id="-535954" lat="61.5658472219" lon="5.88630000903">
		<tag k="name" v="Tjørna" />
		<tag k="natural" v="water" />
		<tag k="ssr:stedsnr" v="164957" />
	</node>
	<node id="-535914" lat="61.5396111078" lon="5.61593055019">
		<tag k="name" v="Jonstadvatnet" />
		<tag k="natural" v="water" />
		<tag k="ssr:stedsnr" v="129468" />
	</node>
	<node id="-536098" lat="61.6263333331" lon="6.25923889449">
		<tag k="name" v="Vassvendevatnet" />
		<tag k="natural" v="water" />
		<tag k="ssr:stedsnr" v="252050" />
	</node>
	<node id="-535909" lat="61.5099666674" lon="5.61155833532">
		<tag k="alt_name" v="Fammarsvikvatn" />
		<tag k="name" v="Frammarsvikvatnet" />
		<tag k="natural" v="water" />
		<tag k="ssr:stedsnr" v="129383" />
	</node>
	<node id="-536416" lat="61.5562361078" lon="5.73171389151">
		<tag k="name" v="Solheimsvatnet" />
		<tag k="natural" v="water" />
		<tag k="ssr:stedsnr" v="614452" />
	</node>
	<node id="-535587" lat="61.5633583306" lon="5.9613472231">
		<tag k="name" v="Skaflestadtjørna" />
		<tag k="natural" v="water" />
		<tag k="ssr:stedsnr" v="373202" />
	</node>
	<node id="-535895" lat="61.538977774" lon="5.78435555983">
		<tag k="name" v="Kvamselva" />
		<tag k="ssr:stedsnr" v="104927" />
		<tag k="waterway" v="river" />
	</node>
	<node id="-536401" lat="61.5471222181" lon="5.86782222213">
		<tag k="name" v="Blåhølen" />
		<tag k="place" v="locality" />
		<tag k="ssr:stedsnr" v="589944" />
	</node>
	<node id="-535888" lat="61.5269361112" lon="5.74768055204">
		<tag k="name" v="Gjelsøyna" />
		<tag k="place" v="islet" />
		<tag k="ssr:stedsnr" v="104816" />
	</node>
	<node id="-536398" lat="61.5407749999" lon="5.78646666287">
		<tag k="name" v="Bakkeelva" />
		<tag k="ssr:stedsnr" v="589940" />
		<tag k="waterway" v="river" />
	</node>
	<node id="-535878" lat="61.5763055536" lon="5.74958334146">
		<tag k="name" v="Loppegrova" />
		<tag k="ssr:stedsnr" v="104684" />
		<tag k="waterway" v="stream" />
	</node>
	<node id="-536898" lat="61.5494666633" lon="5.70865832663">
		<tag k="name" v="Lomevatnet" />
		<tag k="natural" v="water" />
		<tag k="ssr:stedsnr" v="954987" />
		<tag k="water" v="lake" />
	</node>
	<node id="-535872" lat="61.5576500005" lon="5.79354445345">
		<tag k="name" v="Kleivdalselva" />
		<tag k="ssr:stedsnr" v="104537" />
		<tag k="waterway" v="stream" />
	</node>
	<node id="-536884" lat="61.5849833364" lon="5.78847500792">
		<tag k="name" v="Almbotnsgrova" />
		<tag k="ssr:stedsnr" v="954682" />
		<tag k="waterway" v="stream" />
	</node>
	<node id="-536373" lat="61.5761027806" lon="5.7808138825">
		<tag k="name" v="Lialona" />
		<tag k="natural" v="water" />
		<tag k="ssr:stedsnr" v="589563" />
	</node>
	<node id="-535860" lat="61.5063000014" lon="5.65797777757">
		<tag k="name" v="Illevegsfossen" />
		<tag k="natural" v="waterfall" />
		<tag k="ssr:stedsnr" v="104205" />
	</node>
	<node id="-535858" lat="61.5022722234" lon="5.62358611269">
		<tag k="name" v="Tjørnene" />
		<tag k="natural" v="water" />
		<tag k="ssr:stedsnr" v="104122" />
	</node>
	<node id="-536366" lat="61.5506833332" lon="5.67386666616">
		<tag k="name" v="Storefossen" />
		<tag k="natural" v="waterfall" />
		<tag k="ssr:stedsnr" v="589458" />
	</node>
	<node id="-535851" lat="61.5586750034" lon="5.77210555492">
		<tag k="name" v="Vellegrova" />
		<tag k="ssr:stedsnr" v="103567" />
		<tag k="waterway" v="stream" />
	</node>
	<node id="-535850" lat="61.5590250023" lon="5.75534166411">
		<tag k="name" v="Lometjørna" />
		<tag k="natural" v="water" />
		<tag k="ssr:stedsnr" v="103566" />
	</node>
	<node id="-536356" lat="61.4991059797" lon="5.38034194852">
		<tag k="name" v="Botnavatnet" />
		<tag k="natural" v="water" />
		<tag k="ssr:stedsnr" v="589343" />
		<tag k="water" v="lake" />
	</node>
	<node id="-536354" lat="61.4839694402" lon="5.63284999414">
		<tag k="name" v="Floten" />
		<tag k="natural" v="cape" />
		<tag k="ssr:stedsnr" v="589247" />
	</node>
	<node id="-535839" lat="61.5932388903" lon="5.96209723042">
		<tag k="name" v="Teigavatnet" />
		<tag k="natural" v="water" />
		<tag k="ssr:stedsnr" v="70236" />
	</node>
	<node id="-535835" lat="61.5065833304" lon="5.34258889253">
		<tag k="name" v="Spenehaugsvatnet" />
		<tag k="natural" v="water" />
		<tag k="ssr:stedsnr" v="69666" />
	</node>
	<node id="-536857" lat="61.4675388913" lon="5.46193888817">
		<tag k="name" v="Litlevatnet" />
		<tag k="natural" v="water" />
		<tag k="ssr:stedsnr" v="953803" />
		<tag k="water" v="lake" />
	</node>
	<node id="-535832" lat="61.52591667" lon="5.83124443875">
		<tag k="name" v="Lonefossen" />
		<tag k="natural" v="waterfall" />
		<tag k="ssr:stedsnr" v="69470" />
	</node>
	<node id="-536342" lat="61.5676805557" lon="5.7831083419">
		<tag k="name" v="Åmotselva" />
		<tag k="ssr:stedsnr" v="588556" />
		<tag k="waterway" v="river" />
	</node>
	<node id="-535828" lat="61.5288500005" lon="5.72910000076">
		<tag k="name" v="Skeisgrova" />
		<tag k="ssr:stedsnr" v="69448" />
		<tag k="waterway" v="stream" />
	</node>
	<node id="-535825" lat="61.5085555552" lon="5.66221110955">
		<tag k="name" v="Bakkeelva" />
		<tag k="ssr:stedsnr" v="69394" />
		<tag k="waterway" v="stream" />
	</node>
	<node id="-536109" lat="61.5987972214" lon="5.98305000239">
		<tag k="name" v="Svovatnet" />
		<tag k="natural" v="water" />
		<tag k="ssr:stedsnr" v="252206" />
	</node>
	<node id="-536843" lat="61.5408638887" lon="5.65144444406">
		<tag k="name" v="Gråbeinsholmen" />
		<tag k="place" v="islet" />
		<tag k="ssr:stedsnr" v="952434" />
	</node>
	<node id="-536329" lat="61.56927778" lon="5.90537221948">
		<tag k="name" v="Espelandsdalselva" />
		<tag k="ssr:stedsnr" v="555162" />
		<tag k="waterway" v="stream" />
	</node>
	<node id="-535815" lat="61.4981694421" lon="5.37793332551">
		<tag k="name" v="Storelva" />
		<tag k="ssr:stedsnr" v="68006" />
		<tag k="waterway" v="stream" />
	</node>
	<node id="-536323" lat="61.4968388847" lon="5.49925555895">
		<tag k="name" v="Stølselva" />
		<tag k="ssr:stedsnr" v="554572" />
		<tag k="waterway" v="stream" />
	</node>
	<node id="-536320" lat="61.592886108" lon="5.80726110252">
		<tag k="name" v="Hyvatnet" />
		<tag k="natural" v="water" />
		<tag k="ssr:stedsnr" v="554505" />
		<tag k="water" v="lake" />
	</node>
	<node id="-536319" lat="61.5765611081" lon="5.9198555595">
		<tag k="name" v="Nausta" />
		<tag k="ssr:stedsnr" v="554486" />
		<tag k="waterway" v="river" />
	</node>
	<node id="-536315" lat="61.616841669" lon="6.00623889012">
		<tag k="name" v="Oddane" />
		<tag k="natural" v="cape" />
		<tag k="ssr:stedsnr" v="554305" />
	</node>
	<node id="-536020" lat="61.5165166648" lon="5.7202666591">
		<tag k="name" v="Naustdalsfossen" />
		<tag k="natural" v="waterfall" />
		<tag k="ssr:stedsnr" v="202733" />
	</node>
	<node id="-536815" lat="61.5519249973" lon="5.73094443956">
		<tag k="name" v="Horstadvatnet" />
		<tag k="natural" v="water" />
		<tag k="ssr:stedsnr" v="918506" />
	</node>
	<node id="-535790" lat="61.5200861118" lon="5.73854166807">
		<tag k="name" v="Flatøyna" />
		<tag k="natural" v="cape" />
		<tag k="ssr:stedsnr" v="43888" />
	</node>
	<node id="-536299" lat="61.5400666696" lon="5.70348054917">
		<tag k="name" v="Langetjørna" />
		<tag k="natural" v="water" />
		<tag k="ssr:stedsnr" v="529999" />
	</node>
	<node id="-535590" lat="61.6051500004" lon="6.20453333136">
		<tag k="name" v="Trollebottsvatnet" />
		<tag k="natural" v="water" />
		<tag k="ssr:stedsnr" v="373233" />
		<tag k="water" v="lake" />
	</node>
	<node id="-535778" lat="61.6187944469" lon="6.00436944355">
		<tag k="name" v="Lonene" />
		<tag k="natural" v="water" />
		<tag k="ssr:stedsnr" v="43609" />
		<tag k="water" v="lake" />
	</node>
	<node id="-535776" lat="61.5495583315" lon="5.66630278237">
		<tag k="name" v="Litlefossen" />
		<tag k="natural" v="waterfall" />
		<tag k="ssr:stedsnr" v="43468" />
	</node>
	<node id="-535844" lat="61.5092583346" lon="5.64907500913">
		<tag k="name" v="Kringlevatnet" />
		<tag k="natural" v="water" />
		<tag k="ssr:stedsnr" v="80715" />
	</node>
	<node id="-535766" lat="61.5095138872" lon="5.63683888969">
		<tag k="name" v="Svartevatnet" />
		<tag k="natural" v="water" />
		<tag k="ssr:stedsnr" v="20739" />
	</node>
	<node id="-536789" lat="61.4889444429" lon="5.51794444243">
		<tag k="name" v="Liavatnet" />
		<tag k="natural" v="water" />
		<tag k="ssr:stedsnr" v="858538" />
	</node>
	<node id="-536788" lat="61.5439222254" lon="5.64528610872">
		<tag k="name" v="Storevatnet" />
		<tag k="natural" v="water" />
		<tag k="ssr:stedsnr" v="858469" />
		<tag k="water" v="lake" />
	</node>
	<node id="-536785" lat="61.5297055541" lon="5.91185277116">
		<tag k="name" v="Gavlevatnet" />
		<tag k="natural" v="water" />
		<tag k="ssr:stedsnr" v="858171" />
	</node>
	<node id="-535759" lat="61.6359555564" lon="5.99663055782">
		<tag k="name" v="Kupevatna" />
		<tag k="natural" v="water" />
		<tag k="ssr:stedsnr" v="9229" />
	</node>
	<node id="-535757" lat="61.6304694489" lon="6.16549444272">
		<tag k="alt_name" v="Svartpøylevatnet, midtre" />
		<tag k="name" v="Midtre Svartpøylevatnet" />
		<tag k="natural" v="water" />
		<tag k="ssr:stedsnr" v="9216" />
	</node>
	<node id="-536267" lat="61.5185388854" lon="5.87333054861">
		<tag k="name" v="Blåbærelva" />
		<tag k="ssr:stedsnr" v="528934" />
		<tag k="waterway" v="river" />
	</node>
	<node id="-535752" lat="61.4601722205" lon="5.50476388537">
		<tag k="name" v="Vatnevatnet" />
		<tag k="natural" v="water" />
		<tag k="ssr:stedsnr" v="8695" />
	</node>
	<node id="-535751" lat="61.5033277806" lon="5.36774165845">
		<tag k="name" v="Storelva" />
		<tag k="ssr:stedsnr" v="8657" />
		<tag k="waterway" v="stream" />
	</node>
	<node id="-535585" lat="61.5451138905" lon="5.97397499928">
		<tag k="alt_name" v="Trodalsvatn" />
		<tag k="name" v="Trodalsvatnet" />
		<tag k="natural" v="water" />
		<tag k="ssr:stedsnr" v="373180" />
		<tag k="water" v="lake" />
	</node>
	<node id="-535748" lat="61.4953555552" lon="5.61436945292">
		<tag k="alt_name" v="Ytsteelva" />
		<tag k="name" v="Ytstelva" />
		<tag k="ssr:stedsnr" v="8534" />
		<tag k="waterway" v="stream" />
	</node>
	<node id="-535746" lat="61.4962638932" lon="5.62641666692">
		<tag k="alt_name" v="Indreelva" />
		<tag k="name" v="Indrelva" />
		<tag k="ssr:stedsnr" v="8532" />
		<tag k="waterway" v="stream" />
	</node>
	<node id="-535511" lat="61.5666083295" lon="5.76335834034">
		<tag k="name" v="Grøgrova" />
		<tag k="ssr:stedsnr" v="346578" />
		<tag k="waterway" v="stream" />
	</node>
	<node id="-536767" lat="61.5401416693" lon="5.73421944113">
		<tag k="name" v="Skarstølsgrova" />
		<tag k="ssr:stedsnr" v="833961" />
		<tag k="waterway" v="stream" />
	</node>
	<node id="-535742" lat="61.5112333376" lon="5.53433334178">
		<tag k="name" v="Viddalselva" />
		<tag k="ssr:stedsnr" v="8457" />
		<tag k="waterway" v="stream" />
	</node>
	<node id="-535740" lat="61.5261361088" lon="5.60953055513">
		<tag k="name" v="Boltevatnet" />
		<tag k="natural" v="water" />
		<tag k="ssr:stedsnr" v="8435" />
	</node>
	<node id="-535583" lat="61.5261972234" lon="5.91919999332">
		<tag k="name" v="Svartevatnet" />
		<tag k="natural" v="water" />
		<tag k="ssr:stedsnr" v="373146" />
	</node>
	<node id="-535735" lat="61.4807444428" lon="5.58196388434">
		<tag k="name" v="Einevollsvatnet" />
		<tag k="natural" v="water" />
		<tag k="ssr:stedsnr" v="7695" />
	</node>
	<node id="-536245" lat="61.5300166698" lon="5.68983332808">
		<tag k="name" v="Skeislona" />
		<tag k="natural" v="water" />
		<tag k="ssr:stedsnr" v="528042" />
		<tag k="water" v="lake" />
	</node>
	<node id="-535667" lat="61.607752775" lon="5.92728332636">
		<tag k="name" v="Kvangredalselva" />
		<tag k="ssr:stedsnr" v="408799" />
		<tag k="waterway" v="river" />
	</node>
	<node id="-536751" lat="61.5806055521" lon="5.79383888382">
		<tag k="name" v="Åkroken" />
		<tag k="natural" v="cape" />
		<tag k="ssr:stedsnr" v="833665" />
	</node>
	<node id="-535666" lat="61.585730553" lon="5.79863610925">
		<tag k="name" v="Kvernhusøya" />
		<tag k="place" v="island" />
		<tag k="ssr:stedsnr" v="408642" />
	</node>
	<node id="-536745" lat="61.540341671" lon="5.97315555228">
		<tag k="name" v="Lomegrova" />
		<tag k="ssr:stedsnr" v="833500" />
		<tag k="waterway" v="stream" />
	</node>
	<node id="-536744" lat="61.5842027743" lon="6.04285556351">
		<tag k="name" v="Stølselva" />
		<tag k="ssr:stedsnr" v="833498" />
		<tag k="waterway" v="river" />
	</node>
	<node id="-535842" lat="61.5704166689" lon="5.86864722177">
		<tag k="alt_name" v="Byrkjelandselva" />
		<tag k="name" v="Stølselva" />
		<tag k="ssr:stedsnr" v="70192" />
		<tag k="waterway" v="stream" />
	</node>
	<node id="-535714" lat="61.5224499965" lon="5.74000277166">
		<tag k="name" v="Kvitla" />
		<tag k="ssr:stedsnr" v="893884" />
		<tag k="waterway" v="river" />
	</node>
	<node id="-535712" lat="61.5208222227" lon="5.74233055585">
		<tag k="name" v="Brokøyna" />
		<tag k="place" v="islet" />
		<tag k="ssr:stedsnr" v="893834" />
	</node>
	<node id="-535709" lat="61.595555556" lon="5.91529722971">
		<tag k="name" v="Verehaugtjørn" />
		<tag k="natural" v="water" />
		<tag k="ssr:stedsnr" v="893784" />
	</node>
	<node id="-536732" lat="61.577058333" lon="5.89627223057">
		<tag k="name" v="Øyna" />
		<tag k="natural" v="cape" />
		<tag k="ssr:stedsnr" v="832770" />
	</node>
	<node id="-535707" lat="61.5774722211" lon="5.77901388935">
		<tag k="name" v="Liagrova" />
		<tag k="ssr:stedsnr" v="893638" />
		<tag k="waterway" v="stream" />
	</node>
	<node id="-536218" lat="61.5878166633" lon="5.8629888933">
		<tag k="name" v="Herstadelva" />
		<tag k="ssr:stedsnr" v="494224" />
		<tag k="waterway" v="stream" />
	</node>
	<node id="-536217" lat="61.6058361087" lon="6.04291666959">
		<tag k="name" v="Tangane" />
		<tag k="natural" v="cape" />
		<tag k="ssr:stedsnr" v="494218" />
	</node>
	<node id="-536724" lat="61.5419999989" lon="5.63489999509">
		<tag k="name" v="Osen" />
		<tag k="natural" v="bay" />
		<tag k="ssr:stedsnr" v="832473" />
	</node>
	<node id="-535697" lat="61.5467277749" lon="5.66534166449">
		<tag k="name" v="Espene" />
		<tag k="natural" v="cape" />
		<tag k="ssr:stedsnr" v="893482" />
	</node>
	<node id="-536203" lat="61.5516972202" lon="5.79163610953">
		<tag k="name" v="Kvernhusgrova" />
		<tag k="ssr:stedsnr" v="493446" />
		<tag k="waterway" v="stream" />
	</node>
	<node id="-536200" lat="61.5054083304" lon="5.57011388363">
		<tag k="name" v="Skitnestølsvatnet" />
		<tag k="natural" v="water" />
		<tag k="ssr:stedsnr" v="493380" />
	</node>
	<node id="-535686" lat="61.5000888894" lon="5.30061111681">
		<tag k="name" v="Storelva" />
		<tag k="ssr:stedsnr" v="893297" />
		<tag k="waterway" v="river" />
	</node>
	<node id="-536197" lat="61.4971527821" lon="5.42289444024">
		<tag k="name" v="Stølselva" />
		<tag k="ssr:stedsnr" v="493016" />
		<tag k="waterway" v="stream" />
	</node>
	<node id="-535830" lat="61.5164555594" lon="5.60291111759">
		<tag k="name" v="Langevatnet" />
		<tag k="natural" v="water" />
		<tag k="ssr:stedsnr" v="69457" />
	</node>
	<node id="-536704" lat="61.6107222204" lon="6.12368610602">
		<tag k="name" v="Lofthusvatnet" />
		<tag k="natural" v="water" />
		<tag k="ssr:stedsnr" v="798245" />
	</node>
	<node id="-536703" lat="61.6053194476" lon="6.10513610556">
		<tag k="name" v="Trongefossen" />
		<tag k="natural" v="waterfall" />
		<tag k="ssr:stedsnr" v="798227" />
	</node>
	<node id="-535678" lat="61.543322226" lon="5.65415833126">
		<tag k="name" v="Storetangen" />
		<tag k="natural" v="cape" />
		<tag k="ssr:stedsnr" v="892429" />
	</node>
	<node id="-536701" lat="61.5962277819" lon="5.98878889483">
		<tag k="name" v="Nesvatnet" />
		<tag k="natural" v="water" />
		<tag k="ssr:stedsnr" v="798220" />
	</node>
	<node id="-536700" lat="61.5852527808" lon="6.11426666102">
		<tag k="name" v="Kupevatnet" />
		<tag k="natural" v="water" />
		<tag k="ssr:stedsnr" v="798219" />
	</node>
	<node id="-535674" lat="61.5488916662" lon="5.80271943526">
		<tag k="name" v="Høgefossen" />
		<tag k="natural" v="waterfall" />
		<tag k="ssr:stedsnr" v="408906" />
	</node>
	<node id="-535670" lat="61.5103305561" lon="5.72284445134">
		<tag k="name" v="Granøyra" />
		<tag k="natural" v="cape" />
		<tag k="ssr:stedsnr" v="408819" />
	</node>
	<node id="-536254" lat="61.5555555534" lon="5.96534444734">
		<tag k="name" v="Lonene" />
		<tag k="natural" v="water" />
		<tag k="ssr:stedsnr" v="528529" />
		<tag k="water" v="lake" />
	</node>
	<node id="-536690" lat="61.5186597913" lon="5.73204769155">
		<tag k="name" v="Vidøya" />
		<tag k="place" v="islet" />
		<tag k="ssr:stedsnr" v="797364" />
	</node>
	<node id="-536175" lat="61.5693083289" lon="5.79873332876">
		<tag k="name" v="Nilsøyna" />
		<tag k="place" v="island" />
		<tag k="ssr:stedsnr" v="468493" />
	</node>
	<node id="-535997" lat="61.5063333352" lon="5.48229444546">
		<tag k="name" v="Småtjønnane" />
		<tag k="natural" v="water" />
		<tag k="ssr:stedsnr" v="190449" />
	</node>
	<node id="-536172" lat="61.5325527804" lon="5.8462555595">
		<tag k="name" v="Kvamsgrova" />
		<tag k="ssr:stedsnr" v="468382" />
		<tag k="waterway" v="stream" />
	</node>
	<node id="-536682" lat="61.5496694436" lon="5.81580278507">
		<tag k="name" v="Vassdalsvatn" />
		<tag k="natural" v="water" />
		<tag k="ssr:stedsnr" v="772907" />
		<tag k="water" v="lake" />
	</node>
	<node id="-536681" lat="61.6001305555" lon="5.81705277051">
		<tag k="name" v="Hydalselva" />
		<tag k="ssr:stedsnr" v="772865" />
		<tag k="waterway" v="river" />
	</node>
	<node id="-536164" lat="61.5188472245" lon="5.8017999905">
		<tag k="name" v="Espefessene" />
		<tag k="natural" v="water" />
		<tag k="ssr:stedsnr" v="467810" />
		<tag k="water" v="lake" />
	</node>
	<node id="-536160" lat="61.6379500041" lon="5.99556943753">
		<tag k="name" v="Skartjønna" />
		<tag k="natural" v="water" />
		<tag k="ssr:stedsnr" v="457426" />
	</node>
	<node id="-536671" lat="61.5666111073" lon="5.80001666047">
		<tag k="name" v="Sagelva" />
		<tag k="ssr:stedsnr" v="772535" />
		<tag k="waterway" v="stream" />
	</node>
	<node id="-536158" lat="61.5362583329" lon="5.64458610975">
		<tag k="name" v="Tverrgrova" />
		<tag k="ssr:stedsnr" v="445711" />
		<tag k="waterway" v="stream" />
	</node>
	<node id="-536157" lat="61.5194027764" lon="5.8678944494">
		<tag k="name" v="Lonene" />
		<tag k="natural" v="water" />
		<tag k="ssr:stedsnr" v="444703" />
		<tag k="water" v="lake" />
	</node>
	<node id="-535643" lat="61.5607777776" lon="5.73647222688">
		<tag k="name" v="Kroketjørna" />
		<tag k="natural" v="water" />
		<tag k="ssr:stedsnr" v="407735" />
	</node>
	<node id="-535642" lat="61.5930833318" lon="6.11506110871">
		<tag k="name" v="Kupehølen" />
		<tag k="place" v="locality" />
		<tag k="ssr:stedsnr" v="407627" />
	</node>
	<node id="-535652" lat="61.5010805558" lon="5.55562499159">
		<tag k="name" v="Leiteelva" />
		<tag k="ssr:stedsnr" v="408009" />
		<tag k="waterway" v="river" />
	</node>
	<node id="-536149" lat="61.6313361131" lon="6.00059167002">
		<tag k="name" v="Kupeelva" />
		<tag k="ssr:stedsnr" v="434231" />
		<tag k="waterway" v="stream" />
	</node>
	<node id="-536657" lat="61.5386916662" lon="5.75145555457">
		<tag k="name" v="Kvernhusgrova" />
		<tag k="ssr:stedsnr" v="771961" />
		<tag k="waterway" v="stream" />
	</node>
	<node id="-535631" lat="61.6228527821" lon="6.01639444898">
		<tag k="name" v="Steinbotnselva" />
		<tag k="ssr:stedsnr" v="396445" />
		<tag k="waterway" v="river" />
	</node>
	<node id="-535630" lat="61.6264472206" lon="5.9938777867">
		<tag k="name" v="Fagerdalselva" />
		<tag k="ssr:stedsnr" v="396446" />
		<tag k="waterway" v="river" />
	</node>
	<node id="-535629" lat="61.5750111091" lon="5.76081388625">
		<tag k="alt_name" v="Tufteelva" />
		<tag k="name" v="Blåhølelva" />
		<tag k="ssr:stedsnr" v="384709" />
		<tag k="waterway" v="river" />
	</node>
	<node id="-535628" lat="61.5967083348" lon="5.77651389562">
		<tag k="name" v="Blåhølen" />
		<tag k="natural" v="water" />
		<tag k="ssr:stedsnr" v="384708" />
	</node>
	<node id="-535645" lat="61.5196777776" lon="5.72881389533">
		<tag k="name" v="Litleøyna" />
		<tag k="place" v="islet" />
		<tag k="ssr:stedsnr" v="407880" />
	</node>
	<node id="-536638" lat="61.5785777823" lon="5.9354222292">
		<tag k="name" v="Grøneneset" />
		<tag k="natural" v="cape" />
		<tag k="ssr:stedsnr" v="771641" />
	</node>
	<node id="-536125" lat="61.5092194437" lon="5.62410832718">
		<tag k="name" v="Vassbotnevatnet" />
		<tag k="natural" v="water" />
		<tag k="ssr:stedsnr" v="433357" />
	</node>
	<node id="-536122" lat="61.473858334" lon="5.53107221415">
		<tag k="name" v="Brunavatnet" />
		<tag k="natural" v="water" />
		<tag k="ssr:stedsnr" v="432678" />
	</node>
	<node id="-535764" lat="61.584911112" lon="5.74278611595">
		<tag k="name" v="Blåhølen" />
		<tag k="place" v="locality" />
		<tag k="ssr:stedsnr" v="20724" />
	</node>
	<node id="-536625" lat="61.5797361122" lon="5.72513888342">
		<tag k="name" v="Tuftetjønna" />
		<tag k="natural" v="water" />
		<tag k="ssr:stedsnr" v="748723" />
	</node>
	<node id="-536624" lat="61.5426777818" lon="5.71042499633">
		<tag k="name" v="Gyttavatnet" />
		<tag k="natural" v="water" />
		<tag k="ssr:stedsnr" v="748712" />
	</node>
	<node id="-536621" lat="61.4907527769" lon="5.54419167192">
		<tag k="name" v="Stølselva" />
		<tag k="ssr:stedsnr" v="737529" />
		<tag k="waterway" v="stream" />
	</node>
	<node id="-536618" lat="61.6182972245" lon="6.13568056114">
		<tag k="name" v="Holebotsvatnet" />
		<tag k="natural" v="water" />
		<tag k="ssr:stedsnr" v="737253" />
		<tag k="water" v="lake" />
	</node>
	<node id="-535593" lat="61.6085694448" lon="6.00345556363">
		<tag k="name" v="Dettefossen" />
		<tag k="natural" v="waterfall" />
		<tag k="ssr:stedsnr" v="373268" />
	</node>
	<node id="-535592" lat="61.605250001" lon="6.00364444144">
		<tag k="name" v="Øyane" />
		<tag k="place" v="island" />
		<tag k="ssr:stedsnr" v="373261" />
	</node>
	<node id="-536614" lat="61.6280083351" lon="6.15471666538">
		<tag k="alt_name" v="Svartpøylevatnet, yt" />
		<tag k="name" v="Ytste Svartpøylevatnet" />
		<tag k="natural" v="water" />
		<tag k="ssr:stedsnr" v="737231" />
	</node>
	<node id="-535589" lat="61.5824861154" lon="6.01551389329">
		<tag k="name" v="Bøelva" />
		<tag k="ssr:stedsnr" v="373217" />
		<tag k="waterway" v="river" />
	</node>
	<node id="-536612" lat="61.6012472259" lon="6.14868611076">
		<tag k="alt_name" v="Gotdalsvatnet nord;Gotdalsvatnet sør" />
		<tag k="name" v="Gotdalsvatnet" />
		<tag k="natural" v="water" />
		<tag k="ssr:stedsnr" v="737221" />
	</node>
	<node id="-536099" lat="61.5545555594" lon="5.92418610979">
		<tag k="name" v="Vasslivatnet" />
		<tag k="natural" v="water" />
		<tag k="ssr:stedsnr" v="252162" />
	</node>
	<node id="-536610" lat="61.6024694451" lon="5.99774445019">
		<tag k="name" v="Nesfossen" />
		<tag k="natural" v="waterfall" />
		<tag k="ssr:stedsnr" v="737214" />
	</node>
	<node id="-536609" lat="61.592991666" lon="6.12163610956">
		<tag k="name" v="Rimmaelva" />
		<tag k="ssr:stedsnr" v="737202" />
		<tag k="waterway" v="river" />
	</node>
	<node id="-535584" lat="61.5533861101" lon="5.96946111742">
		<tag k="name" v="Årevika" />
		<tag k="natural" v="bay" />
		<tag k="ssr:stedsnr" v="373174" />
	</node>
	<node id="-536607" lat="61.5542083366" lon="6.00131943754">
		<tag k="name" v="Nordavatnet" />
		<tag k="natural" v="water" />
		<tag k="ssr:stedsnr" v="737179" />
	</node>
	<node id="-536094" lat="61.5200916685" lon="5.79342222014">
		<tag k="name" v="Åsedøla" />
		<tag k="ssr:stedsnr" v="251452" />
		<tag k="waterway" v="stream" />
	</node>
	<node id="-536604" lat="61.4752527755" lon="5.50722499915">
		<tag k="name" v="Steinstjørna" />
		<tag k="natural" v="water" />
		<tag k="ssr:stedsnr" v="736732" />
	</node>
	<node id="-536090" lat="61.5018777784" lon="5.66828610897">
		<tag k="name" v="Sælaelva" />
		<tag k="ssr:stedsnr" v="251405" />
		<tag k="waterway" v="stream" />
	</node>
	<node id="-536600" lat="61.4923027805" lon="5.53625554715">
		<tag k="name" v="Dalevatnet" />
		<tag k="natural" v="water" />
		<tag k="ssr:stedsnr" v="736503" />
	</node>
	<node id="-536083" lat="61.483324999" lon="5.58191667493">
		<tag k="name" v="Tungene" />
		<tag k="natural" v="cape" />
		<tag k="ssr:stedsnr" v="250718" />
	</node>
	<node id="-535568" lat="61.5232972236" lon="5.82666110609">
		<tag k="name" v="Sollifossen" />
		<tag k="natural" v="waterfall" />
		<tag k="ssr:stedsnr" v="372448" />
	</node>
	<node id="-535567" lat="61.5245138853" lon="5.73145555545">
		<tag k="name" v="Vollagrova" />
		<tag k="ssr:stedsnr" v="372441" />
		<tag k="waterway" v="stream" />
	</node>
	<node id="-535562" lat="61.5160083342" lon="5.68989166364">
		<tag k="name" v="Bærelva" />
		<tag k="ssr:stedsnr" v="372395" />
		<tag k="waterway" v="stream" />
	</node>
	<node id="-536068" lat="61.5605833334" lon="5.82189166728">
		<tag k="name" v="Litlelia" />
		<tag k="ssr:stedsnr" v="226953" />
		<tag k="waterway" v="stream" />
	</node>
	<node id="-536579" lat="61.5347305594" lon="5.86188056073">
		<tag k="name" v="Tverrelva" />
		<tag k="ssr:stedsnr" v="711922" />
		<tag k="waterway" v="stream" />
	</node>
	<node id="-536577" lat="61.6026555544" lon="5.89273334288">
		<tag k="name" v="Skarbotnetjørna" />
		<tag k="natural" v="water" />
		<tag k="ssr:stedsnr" v="711891" />
	</node>
</osm>
