<?xml version="1.0" encoding="UTF-8"?>
<osm generator="osmapis" version="0.6">
	<node id="-535548" lat="61.5651972194" lon="5.77362222755">
		<tag k="bridge" v="yes" />
		<tag k="layer" v="1" />
		<tag k="name" v="Furehaug" />
		<tag k="ssr:stedsnr" v="350599" />
	</node>
	<node id="-536058" lat="61.5198777776" lon="5.72503888925">
		<tag k="layer" v="-1" />
		<tag k="name" v="Naustdal" />
		<tag k="ssr:stedsnr" v="226390" />
		<tag k="tunnel" v="yes" />
	</node>
	<node id="-535799" lat="61.5478166668" lon="5.73077500541">
		<tag k="highway" v="path" />
		<tag k="name" v="Ekrestølsvegen" />
		<tag k="ssr:stedsnr" v="43957" />
	</node>
	<node id="-536304" lat="61.5457500003" lon="5.78264722796">
		<tag k="bridge" v="yes" />
		<tag k="layer" v="1" />
		<tag k="name" v="Trelle" />
		<tag k="ssr:stedsnr" v="533647" />
	</node>
	<node id="-536683" lat="61.5787777815" lon="5.94608888796">
		<tag k="bridge" v="yes" />
		<tag k="layer" v="1" />
		<tag k="name" v="Gamlestøl" />
		<tag k="ssr:stedsnr" v="775590" />
	</node>
	<node id="-535651" lat="61.5493138857" lon="5.69848611801">
		<tag k="highway" v="path" />
		<tag k="name" v="Horstadstølsvegen" />
		<tag k="ssr:stedsnr" v="408000" />
	</node>
	<node id="-536408" lat="61.5764277808" lon="5.84090555822">
		<tag k="bridge" v="yes" />
		<tag k="layer" v="1" />
		<tag k="name" v="Rimma" />
		<tag k="ssr:stedsnr" v="593575" />
	</node>
	<node id="-536279" lat="61.4711944441" lon="5.55001667224">
		<tag k="layer" v="-1" />
		<tag k="name" v="Helle" />
		<tag k="ssr:stedsnr" v="529479" />
		<tag k="tunnel" v="yes" />
	</node>
	<node id="-536406" lat="61.4939694476" lon="5.482075009">
		<tag k="layer" v="-1" />
		<tag k="name" v="Gryte" />
		<tag k="ssr:stedsnr" v="590484" />
		<tag k="tunnel" v="yes" />
	</node>
	<node id="-536900" lat="61.5751499973" lon="5.89842222013">
		<tag k="bridge" v="yes" />
		<tag k="layer" v="1" />
		<tag k="name" v="Espeland" />
		<tag k="ssr:stedsnr" v="958643" />
	</node>
	<node id="-536771" lat="61.5746888924" lon="5.76241389781">
		<tag k="bridge" v="yes" />
		<tag k="layer" v="1" />
		<tag k="name" v="Tufte" />
		<tag k="ssr:stedsnr" v="836624" />
	</node>
	<node id="-536585" lat="61.5516222256" lon="5.78801666907">
		<tag k="bridge" v="yes" />
		<tag k="layer" v="1" />
		<tag k="name" v="Indrekvam" />
		<tag k="ssr:stedsnr" v="715619" />
	</node>
	<node id="-535986" lat="61.4931305581" lon="5.46776110663">
		<tag k="bridge" v="yes" />
		<tag k="layer" v="1" />
		<tag k="name" v="Gryta" />
		<tag k="ssr:stedsnr" v="169612" />
	</node>
	<node id="-535985" lat="61.5444361157" lon="5.7859194491">
		<tag k="bridge" v="yes" />
		<tag k="layer" v="1" />
		<tag k="name" v="Trelle" />
		<tag k="ssr:stedsnr" v="168632" />
	</node>
	<node id="-536496" lat="61.5831749973" lon="5.94847499202">
		<tag k="bridge" v="yes" />
		<tag k="layer" v="1" />
		<tag k="name" v="Bøelv" />
		<tag k="ssr:stedsnr" v="654612" />
	</node>
	<node id="-535983" lat="61.5372861155" lon="5.75666666987">
		<tag k="bridge" v="yes" />
		<tag k="layer" v="1" />
		<tag k="name" v="Reiakvam" />
		<tag k="ssr:stedsnr" v="168627" />
	</node>
	<node id="-535722" lat="61.4950944479" lon="5.49382222158">
		<tag k="layer" v="-1" />
		<tag k="name" v="Redal" />
		<tag k="ssr:stedsnr" v="894420" />
		<tag k="tunnel" v="yes" />
	</node>
	<node id="-535713" lat="61.4740722242" lon="5.55641388489">
		<tag k="highway" v="path" />
		<tag k="name" v="Stien" />
		<tag k="ssr:stedsnr" v="893837" />
	</node>
	<node id="-535456" lat="61.5768666672" lon="5.86442499876">
		<tag k="bridge" v="yes" />
		<tag k="layer" v="1" />
		<tag k="name" v="Øyegrova" />
		<tag k="ssr:stedsnr" v="290560" />
	</node>
	<node id="-535455" lat="61.4929527774" lon="5.4202166583">
		<tag k="bridge" v="yes" />
		<tag k="layer" v="1" />
		<tag k="name" v="Vevring" />
		<tag k="ssr:stedsnr" v="290558" />
	</node>
	<node id="-535454" lat="61.56786944" lon="5.80107499825">
		<tag k="bridge" v="yes" />
		<tag k="layer" v="1" />
		<tag k="name" v="Espehaug" />
		<tag k="ssr:stedsnr" v="290549" />
	</node>
	<node id="-535453" lat="61.596700004" lon="5.99479444368">
		<tag k="bridge" v="yes" />
		<tag k="layer" v="1" />
		<tag k="name" v="Nes" />
		<tag k="ssr:stedsnr" v="290550" />
	</node>
	<node id="-535452" lat="61.532980557" lon="5.75161111259">
		<tag k="bridge" v="yes" />
		<tag k="layer" v="1" />
		<tag k="name" v="Hove" />
		<tag k="ssr:stedsnr" v="290548" />
	</node>
	<node id="-535451" lat="61.5779972207" lon="5.94009722417">
		<tag k="bridge" v="yes" />
		<tag k="layer" v="1" />
		<tag k="name" v="Jubrauta" />
		<tag k="ssr:stedsnr" v="289704" />
	</node>
	<node id="-536468" lat="61.4857944401" lon="5.63644444518">
		<tag k="layer" v="-1" />
		<tag k="name" v="Frammarsvik" />
		<tag k="ssr:stedsnr" v="650409" />
		<tag k="tunnel" v="yes" />
	</node>
	<node id="-536194" lat="61.5142999961" lon="5.71912222046">
		<tag k="bridge" v="yes" />
		<tag k="layer" v="1" />
		<tag k="name" v="Bærelva" />
		<tag k="ssr:stedsnr" v="472603" />
	</node>
	<node id="-536586" lat="61.5580777823" lon="5.78790555522">
		<tag k="bridge" v="yes" />
		<tag k="layer" v="1" />
		<tag k="name" v="Smådalene" />
		<tag k="ssr:stedsnr" v="715629" />
	</node>
	<node id="-536407" lat="61.4899888864" lon="5.4308638945">
		<tag k="layer" v="-1" />
		<tag k="name" v="Vevring" />
		<tag k="ssr:stedsnr" v="590647" />
		<tag k="tunnel" v="yes" />
	</node>
	<node id="-535984" lat="61.4985638885" lon="5.29937777644">
		<tag k="bridge" v="yes" />
		<tag k="layer" v="1" />
		<tag k="name" v="Kveldestad" />
		<tag k="ssr:stedsnr" v="168629" />
	</node>
	<node id="-536195" lat="61.5405027743" lon="5.78993610468">
		<tag k="bridge" v="yes" />
		<tag k="layer" v="1" />
		<tag k="name" v="Flatene" />
		<tag k="ssr:stedsnr" v="472614" />
	</node>
	<node id="-536066" lat="61.5989805575" lon="5.86779166189">
		<tag k="highway" v="path" />
		<tag k="name" v="Dombestien" />
		<tag k="ssr:stedsnr" v="226892" />
	</node>
</osm>
