<?xml version="1.0" encoding="UTF-8"?>
<osm generator="osmapis" version="0.6">
	<node id="-535405" lat="61.5987388921" lon="6.06242222205">
		<tag k="name" v="Lægdene" />
		<tag k="place" v="locality" />
		<tag k="ssr:stedsnr" v="281477" />
	</node>
	<node id="-536573" lat="61.5079861108" lon="5.75301388877">
		<tag k="name" v="Slokmyra" />
		<tag k="natural" v="wetland" />
		<tag k="ssr:stedsnr" v="711841" />
	</node>
	<node id="-536569" lat="61.5723583343" lon="5.75846944327">
		<tag k="name" v="Myrane" />
		<tag k="natural" v="wetland" />
		<tag k="ssr:stedsnr" v="711563" />
	</node>
	<node id="-535553" lat="61.4722499977" lon="5.62693055813">
		<tag k="name" v="Skjervane" />
		<tag k="place" v="locality" />
		<tag k="ssr:stedsnr" v="371691" />
	</node>
	<node id="-536183" lat="61.5865333349" lon="5.86058055043">
		<tag k="name" v="Gamlestølsmyra" />
		<tag k="natural" v="wetland" />
		<tag k="ssr:stedsnr" v="468790" />
	</node>
	<node id="-535542" lat="61.5331472201" lon="5.76427499708">
		<tag k="name" v="Holemyrane" />
		<tag k="natural" v="wetland" />
		<tag k="ssr:stedsnr" v="347868" />
	</node>
	<node id="-536181" lat="61.5824499966" lon="5.90492500792">
		<tag k="name" v="Starmyrane" />
		<tag k="natural" v="wetland" />
		<tag k="ssr:stedsnr" v="468774" />
	</node>
	<node id="-536180" lat="61.5772083313" lon="5.73686667062">
		<tag k="name" v="Storemyra" />
		<tag k="natural" v="wetland" />
		<tag k="ssr:stedsnr" v="468739" />
	</node>
	<node id="-536563" lat="61.4661222267" lon="5.56162500042">
		<tag k="name" v="Innlegda" />
		<tag k="place" v="locality" />
		<tag k="ssr:stedsnr" v="711431" />
	</node>
	<node id="-535407" lat="61.5066222207" lon="5.70409999871">
		<tag k="name" v="Neset" />
		<tag k="place" v="locality" />
		<tag k="ssr:stedsnr" v="286818" />
	</node>
	<node id="-536445" lat="61.4790416694" lon="5.5273222266">
		<tag k="name" v="Fjellstølen" />
		<tag k="place" v="locality" />
		<tag k="ssr:stedsnr" v="650079" />
	</node>
	<node id="-535946" lat="61.5733388852" lon="5.7394861208">
		<tag k="name" v="Løkene" />
		<tag k="natural" v="wetland" />
		<tag k="ssr:stedsnr" v="164729" />
	</node>
	<node id="-535529" lat="61.4824083339" lon="5.48342500047">
		<tag k="name" v="Rapemyra" />
		<tag k="natural" v="wetland" />
		<tag k="ssr:stedsnr" v="347111" />
	</node>
	<node id="-535784" lat="61.6080583307" lon="5.81518333364">
		<tag k="name" v="Gråura" />
		<tag k="natural" v="scree" />
		<tag k="ssr:stedsnr" v="43855" />
	</node>
	<node id="-536679" lat="61.5237250031" lon="5.78108889423">
		<tag k="name" v="Sørebøen" />
		<tag k="place" v="locality" />
		<tag k="ssr:stedsnr" v="772857" />
	</node>
	<node id="-536294" lat="61.6052555587" lon="5.91440554791">
		<tag k="name" v="Langemyra" />
		<tag k="natural" v="wetland" />
		<tag k="ssr:stedsnr" v="529898" />
	</node>
	<node id="-536549" lat="61.576516668" lon="5.96016388222">
		<tag k="name" v="Myrane" />
		<tag k="natural" v="wetland" />
		<tag k="ssr:stedsnr" v="710538" />
	</node>
	<node id="-535524" lat="61.5760472234" lon="5.87167500614">
		<tag k="name" v="Nordremarka" />
		<tag k="place" v="locality" />
		<tag k="ssr:stedsnr" v="346939" />
	</node>
	<node id="-536102" lat="61.5583194429" lon="5.85975277044">
		<tag k="name" v="Løkene" />
		<tag k="natural" v="wetland" />
		<tag k="ssr:stedsnr" v="252183" />
	</node>
	<node id="-536034" lat="61.5716277787" lon="5.96443333052">
		<tag k="name" v="Kalvegjerdet" />
		<tag k="place" v="locality" />
		<tag k="ssr:stedsnr" v="225491" />
	</node>
	<node id="-536544" lat="61.4973416652" lon="5.65752778452">
		<tag k="name" v="Rognemyra" />
		<tag k="natural" v="wetland" />
		<tag k="ssr:stedsnr" v="710065" />
	</node>
	<node id="-536286" lat="61.5947527763" lon="5.90279444982">
		<tag k="name" v="Sundeslåttene" />
		<tag k="place" v="locality" />
		<tag k="ssr:stedsnr" v="529804" />
	</node>
	<node id="-536677" lat="61.594416668" lon="5.92601944854">
		<tag k="name" v="Yttersbeitet" />
		<tag k="place" v="locality" />
		<tag k="ssr:stedsnr" v="772775" />
	</node>
	<node id="-536668" lat="61.5077083298" lon="5.40191388986">
		<tag k="name" v="Grønlimyra" />
		<tag k="natural" v="wetland" />
		<tag k="ssr:stedsnr" v="772259" />
	</node>
	<node id="-536026" lat="61.6037694478" lon="5.97564445247">
		<tag k="name" v="Slåttene" />
		<tag k="place" v="locality" />
		<tag k="ssr:stedsnr" v="225595" />
	</node>
	<node id="-535894" lat="61.5529861086" lon="5.76363888833">
		<tag k="name" v="Fessene" />
		<tag k="place" v="locality" />
		<tag k="ssr:stedsnr" v="104915" />
	</node>
	<node id="-535929" lat="61.600761114" lon="6.05211389244">
		<tag k="name" v="Gamlestølsmyrane" />
		<tag k="natural" v="wetland" />
		<tag k="ssr:stedsnr" v="130216" />
	</node>
	<node id="-535634" lat="61.5189555529" lon="5.68772778065">
		<tag k="name" v="Gunderskvia" />
		<tag k="place" v="locality" />
		<tag k="ssr:stedsnr" v="407068" />
	</node>
	<node id="-535889" lat="61.4707249957" lon="5.56102778313">
		<tag k="name" v="Langura" />
		<tag k="natural" v="scree" />
		<tag k="ssr:stedsnr" v="104815" />
	</node>
	<node id="-536783" lat="61.4814944465" lon="5.51513055251">
		<tag k="name" v="Tjørnamyra" />
		<tag k="natural" v="wetland" />
		<tag k="ssr:stedsnr" v="857749" />
	</node>
	<node id="-536654" lat="61.5724083371" lon="5.89552500338">
		<tag k="name" v="Slåtteled" />
		<tag k="place" v="locality" />
		<tag k="ssr:stedsnr" v="771944" />
	</node>
	<node id="-536421" lat="61.4662111136" lon="5.56582778468">
		<tag k="name" v="Klypemyra" />
		<tag k="natural" v="wetland" />
		<tag k="ssr:stedsnr" v="614684" />
	</node>
	<node id="-536395" lat="61.5139249959" lon="5.70668611331">
		<tag k="name" v="Brunene" />
		<tag k="place" v="locality" />
		<tag k="ssr:stedsnr" v="589886" />
	</node>
	<node id="-536012" lat="61.6113916675" lon="6.05492500488">
		<tag k="name" v="Jaren" />
		<tag k="natural" v="wetland" />
		<tag k="ssr:stedsnr" v="191235" />
	</node>
	<node id="-536262" lat="61.458727779" lon="5.47911389682">
		<tag k="name" v="Bårdmyra" />
		<tag k="natural" v="wetland" />
		<tag k="ssr:stedsnr" v="528780" />
	</node>
	<node id="-536645" lat="61.515041665" lon="5.79775277466">
		<tag k="name" v="Myrane" />
		<tag k="natural" v="wetland" />
		<tag k="ssr:stedsnr" v="771816" />
	</node>
	<node id="-536165" lat="61.5445888922" lon="5.66374999247">
		<tag k="name" v="Myrane" />
		<tag k="natural" v="wetland" />
		<tag k="ssr:stedsnr" v="468366" />
	</node>
	<node id="-535883" lat="61.5830611093" lon="5.82759723174">
		<tag k="name" v="Slåttemyrane" />
		<tag k="natural" v="wetland" />
		<tag k="ssr:stedsnr" v="104774" />
	</node>
	<node id="-536896" lat="61.5381250035" lon="5.75932221308">
		<tag k="name" v="Reiakvamsøyane" />
		<tag k="place" v="locality" />
		<tag k="ssr:stedsnr" v="954969" />
	</node>
	<node id="-535535" lat="61.5795166643" lon="5.94206388749">
		<tag k="name" v="Slettemarkmyrane" />
		<tag k="natural" v="wetland" />
		<tag k="ssr:stedsnr" v="347602" />
	</node>
	<node id="-536006" lat="61.5607583358" lon="5.84404167217">
		<tag k="name" v="Storemyra" />
		<tag k="natural" v="wetland" />
		<tag k="ssr:stedsnr" v="191180" />
	</node>
	<node id="-536842" lat="61.6026083325" lon="6.06117777079">
		<tag k="name" v="Botnalimyra" />
		<tag k="natural" v="wetland" />
		<tag k="ssr:stedsnr" v="948535" />
	</node>
	<node id="-536762" lat="61.5469027736" lon="5.77678334171">
		<tag k="name" v="Årøyane" />
		<tag k="place" v="locality" />
		<tag k="ssr:stedsnr" v="833938" />
	</node>
	<node id="-536633" lat="61.5761250013" lon="5.94275277275">
		<tag k="name" v="Stølsmyra" />
		<tag k="natural" v="wetland" />
		<tag k="ssr:stedsnr" v="771503" />
	</node>
	<node id="-536376" lat="61.6071833327" lon="5.98077778043">
		<tag k="name" v="Urane" />
		<tag k="natural" v="scree" />
		<tag k="ssr:stedsnr" v="589583" />
	</node>
	<node id="-536629" lat="61.4911555534" lon="5.62997500009">
		<tag k="name" v="Klettamyra" />
		<tag k="natural" v="wetland" />
		<tag k="ssr:stedsnr" v="771118" />
	</node>
	<node id="-536756" lat="61.5164777804" lon="5.74558611741">
		<tag k="name" v="Botnemyra" />
		<tag k="natural" v="wetland" />
		<tag k="ssr:stedsnr" v="833855" />
	</node>
	<node id="-536115" lat="61.505844447" lon="5.27687221419">
		<tag k="name" v="Tuemyra" />
		<tag k="natural" v="wetland" />
		<tag k="ssr:stedsnr" v="263397" />
	</node>
	<node id="-535857" lat="61.4817972256" lon="5.51359444511">
		<tag k="name" v="Tjørnamyra" />
		<tag k="natural" v="wetland" />
		<tag k="ssr:stedsnr" v="104075" />
	</node>
	<node id="-536750" lat="61.5971527765" lon="5.97204444207">
		<tag k="name" v="Myrane" />
		<tag k="natural" v="wetland" />
		<tag k="ssr:stedsnr" v="833639" />
	</node>
	<node id="-536714" lat="61.6069194454" lon="5.81810833951">
		<tag k="name" v="Lonene" />
		<tag k="natural" v="wetland" />
		<tag k="ssr:stedsnr" v="809716" />
	</node>
	<node id="-536746" lat="61.566297219" lon="5.78694167559">
		<tag k="name" v="Storemyra" />
		<tag k="natural" v="wetland" />
		<tag k="ssr:stedsnr" v="833573" />
	</node>
	<node id="-536105" lat="61.5758055593" lon="5.90751666495">
		<tag k="name" v="Skogaøyna" />
		<tag k="natural" v="wetland" />
		<tag k="ssr:stedsnr" v="252193" />
	</node>
	<node id="-535789" lat="61.5143138901" lon="5.69702500463">
		<tag k="name" v="Myrane" />
		<tag k="natural" v="wetland" />
		<tag k="ssr:stedsnr" v="43870" />
	</node>
	<node id="-536189" lat="61.5386250018" lon="5.77512778294">
		<tag k="name" v="Horstadøyane" />
		<tag k="place" v="locality" />
		<tag k="ssr:stedsnr" v="468920" />
	</node>
	<node id="-536742" lat="61.4851305584" lon="5.503683336">
		<tag k="name" v="Lægda" />
		<tag k="natural" v="scree" />
		<tag k="ssr:stedsnr" v="833125" />
	</node>
	<node id="-536869" lat="61.4720250007" lon="5.62728889359">
		<tag k="name" v="Kristiansteinen" />
		<tag k="natural" v="stone" />
		<tag k="ssr:stedsnr" v="954191" />
	</node>
	<node id="-536483" lat="61.5183333304" lon="5.71793055918">
		<tag k="name" v="Hola" />
		<tag k="place" v="locality" />
		<tag k="ssr:stedsnr" v="650856" />
	</node>
	<node id="-535711" lat="61.5770861098" lon="5.81719166607">
		<tag k="name" v="Hamremyra" />
		<tag k="natural" v="wetland" />
		<tag k="ssr:stedsnr" v="893804" />
	</node>
	<node id="-536861" lat="61.5687861076" lon="5.89876111322">
		<tag k="name" v="Storura" />
		<tag k="natural" v="scree" />
		<tag k="ssr:stedsnr" v="953943" />
	</node>
	<node id="-535964" lat="61.4968833317" lon="5.43783334214">
		<tag k="name" v="Skarmyrane" />
		<tag k="natural" v="wetland" />
		<tag k="ssr:stedsnr" v="165196" />
	</node>
	<node id="-535770" lat="61.4676944444" lon="5.57233056433">
		<tag k="name" v="Kringlemyra" />
		<tag k="natural" v="wetland" />
		<tag k="ssr:stedsnr" v="43137" />
	</node>
	<node id="-536739" lat="61.572744446" lon="5.88340278549">
		<tag k="name" v="Kreken" />
		<tag k="place" v="locality" />
		<tag k="ssr:stedsnr" v="832948" />
	</node>
	<node id="-535791" lat="61.5208138931" lon="5.79304445191">
		<tag k="name" v="Jarane" />
		<tag k="natural" v="wetland" />
		<tag k="ssr:stedsnr" v="43801" />
	</node>
	<node id="-535576" lat="61.5035138891" lon="5.45327499965">
		<tag k="name" v="Stølsmyra" />
		<tag k="natural" v="wetland" />
		<tag k="ssr:stedsnr" v="372652" />
	</node>
	<node id="-536726" lat="61.5741888921" lon="5.92442777884">
		<tag k="name" v="Skaflestadmyrane" />
		<tag k="natural" v="wetland" />
		<tag k="ssr:stedsnr" v="832569" />
	</node>
	<node id="-535573" lat="61.5797388874" lon="5.79217777368">
		<tag k="name" v="Fitjemyrane" />
		<tag k="natural" v="wetland" />
		<tag k="ssr:stedsnr" v="372517" />
	</node>
	<node id="-536852" lat="61.5218722184" lon="5.6628333309">
		<tag k="name" v="Hulda" />
		<tag k="natural" v="wetland" />
		<tag k="ssr:stedsnr" v="953547" />
	</node>
	<node id="-536494" lat="61.49003889" lon="5.42499722814">
		<tag k="name" v="Domsura" />
		<tag k="natural" v="scree" />
		<tag k="ssr:stedsnr" v="651254" />
	</node>
	<node id="-535865" lat="61.5085194474" lon="5.36402778398">
		<tag k="name" v="Sambeitene" />
		<tag k="place" v="locality" />
		<tag k="ssr:stedsnr" v="104353" />
	</node>
	<node id="-536465" lat="61.4688138885" lon="5.61091943778">
		<tag k="name" v="Hestefloten" />
		<tag k="place" v="locality" />
		<tag k="ssr:stedsnr" v="650183" />
	</node>
	<node id="-535693" lat="61.5307499967" lon="5.84089166994">
		<tag k="name" v="Rabbane" />
		<tag k="natural" v="wetland" />
		<tag k="ssr:stedsnr" v="893418" />
	</node>
	<node id="-535436" lat="61.5876500011" lon="5.96999722921">
		<tag k="name" v="Storemyra" />
		<tag k="natural" v="wetland" />
		<tag k="ssr:stedsnr" v="286660" />
	</node>
	<node id="-536587" lat="61.4736166673" lon="5.48101111389">
		<tag k="name" v="Kvitura" />
		<tag k="natural" v="scree" />
		<tag k="ssr:stedsnr" v="721993" />
	</node>
	<node id="-535434" lat="61.5820861084" lon="5.95700277248">
		<tag k="name" v="Slåttene" />
		<tag k="place" v="locality" />
		<tag k="ssr:stedsnr" v="286655" />
	</node>
	<node id="-536709" lat="61.6072444448" lon="6.26149444525">
		<tag k="name" v="Storebreen" />
		<tag k="natural" v="glacier" />
		<tag k="ssr:stedsnr" v="799025" />
	</node>
	<node id="-535428" lat="61.5278666637" lon="5.84004721787">
		<tag k="name" v="Myrane" />
		<tag k="natural" v="wetland" />
		<tag k="ssr:stedsnr" v="286437" />
	</node>
	<node id="-536214" lat="61.5265805598" lon="5.88775833142">
		<tag k="name" v="Blautemyra" />
		<tag k="natural" v="wetland" />
		<tag k="ssr:stedsnr" v="494138" />
	</node>
	<node id="-536193" lat="61.5082833294" lon="5.31758333581">
		<tag k="name" v="Storesteinane" />
		<tag k="natural" v="stone" />
		<tag k="ssr:stedsnr" v="469257" />
	</node>
</osm>
