<?xml version="1.0" encoding="UTF-8"?>
<osm generator="osmapis" version="0.6">
	<node id="-536140" lat="61.5488333333" lon="5.70697221874">
		<tag k="name" v="Høgeberget" />
		<tag k="natural" v="hill" />
		<tag k="place" v="locality" />
		<tag k="ssr:stedsnr" v="954996" />
	</node>
	<node id="-536138" lat="61.5533888881" lon="5.71609999386">
		<tag k="name" v="Seltuftene" />
		<tag k="natural" v="slope" />
		<tag k="place" v="locality" />
		<tag k="ssr:stedsnr" v="954985" />
	</node>
	<node id="-536136" lat="61.5441249997" lon="5.76511110679">
		<tag k="name" v="Brukedalen" />
		<tag k="natural" v="valley" />
		<tag k="place" v="locality" />
		<tag k="ssr:stedsnr" v="954959" />
	</node>
	<node id="-536135" lat="61.5447777817" lon="5.74767500574">
		<tag k="name" v="Storehammaren" />
		<tag k="natural" v="hill" />
		<tag k="place" v="locality" />
		<tag k="ssr:stedsnr" v="954940" />
	</node>
	<node id="-536134" lat="61.5671472212" lon="5.81431388658">
		<tag k="name" v="Holten" />
		<tag k="natural" v="hill" />
		<tag k="place" v="locality" />
		<tag k="ssr:stedsnr" v="954937" />
	</node>
	<node id="-536133" lat="61.5596444407" lon="5.81354444719">
		<tag k="name" v="Masshjellen" />
		<tag k="place" v="locality" />
		<tag k="ssr:stedsnr" v="954935" />
	</node>
	<node id="-536132" lat="61.5683722183" lon="5.8221333402">
		<tag k="name" v="Langhammaren" />
		<tag k="natural" v="hill" />
		<tag k="place" v="locality" />
		<tag k="ssr:stedsnr" v="954933" />
	</node>
	<node id="-536131" lat="61.5543250029" lon="5.79581111458">
		<tag k="name" v="Skylehamrane" />
		<tag k="natural" v="hill" />
		<tag k="place" v="locality" />
		<tag k="ssr:stedsnr" v="954895" />
	</node>
	<node id="-536130" lat="61.5180916705" lon="5.71501944629">
		<tag k="name" v="Storekvia" />
		<tag k="natural" v="slope" />
		<tag k="place" v="locality" />
		<tag k="ssr:stedsnr" v="954878" />
	</node>
	<node id="-536129" lat="61.5260805597" lon="5.71177499891">
		<tag k="name" v="Storeklubben" />
		<tag k="natural" v="hill" />
		<tag k="place" v="locality" />
		<tag k="ssr:stedsnr" v="954868" />
	</node>
	<node id="-536128" lat="61.5880611101" lon="5.81292777465">
		<tag k="name" v="Preikestolen" />
		<tag k="natural" v="hill" />
		<tag k="place" v="locality" />
		<tag k="ssr:stedsnr" v="954803" />
	</node>
	<node id="-536127" lat="61.5871499985" lon="5.91878055434">
		<tag k="name" v="Røtene" />
		<tag k="natural" v="hill" />
		<tag k="place" v="locality" />
		<tag k="ssr:stedsnr" v="954780" />
	</node>
	<node id="-536126" lat="61.5832749981" lon="5.78178611699">
		<tag k="name" v="Gildrehamrane" />
		<tag k="natural" v="hill" />
		<tag k="place" v="locality" />
		<tag k="ssr:stedsnr" v="954687" />
	</node>
	<node id="-536124" lat="61.5787722248" lon="5.76548611941">
		<tag k="name" v="Skinbakkholten" />
		<tag k="natural" v="hill" />
		<tag k="place" v="locality" />
		<tag k="ssr:stedsnr" v="954646" />
	</node>
	<node id="-536123" lat="61.5824805524" lon="5.79789166799">
		<tag k="name" v="Gravhaugen" />
		<tag k="natural" v="hill" />
		<tag k="place" v="locality" />
		<tag k="ssr:stedsnr" v="954633" />
	</node>
	<node id="-536122" lat="61.5836250006" lon="5.80136389548">
		<tag k="name" v="Gjestebodhaugen" />
		<tag k="natural" v="hill" />
		<tag k="place" v="locality" />
		<tag k="ssr:stedsnr" v="954631" />
	</node>
	<node id="-536121" lat="61.5841055559" lon="5.98676388171">
		<tag k="name" v="Martekvia" />
		<tag k="natural" v="hill" />
		<tag k="place" v="locality" />
		<tag k="ssr:stedsnr" v="954611" />
	</node>
	<node id="-536120" lat="61.5963944402" lon="5.94991388196">
		<tag k="name" v="Søreliane" />
		<tag k="natural" v="slope" />
		<tag k="place" v="locality" />
		<tag k="ssr:stedsnr" v="954601" />
	</node>
	<node id="-536119" lat="61.5807888883" lon="5.94053333266">
		<tag k="name" v="Fagerlia" />
		<tag k="natural" v="slope" />
		<tag k="place" v="locality" />
		<tag k="ssr:stedsnr" v="954600" />
	</node>
	<node id="-536118" lat="61.595166663" lon="5.97907499359">
		<tag k="name" v="Strandahamrane" />
		<tag k="natural" v="hill" />
		<tag k="place" v="locality" />
		<tag k="ssr:stedsnr" v="954583" />
	</node>
	<node id="-536116" lat="61.6052472237" lon="5.98811388924">
		<tag k="name" v="Gynten" />
		<tag k="natural" v="hill" />
		<tag k="place" v="locality" />
		<tag k="ssr:stedsnr" v="954576" />
	</node>
	<node id="-536115" lat="61.5508861141" lon="5.96069443729">
		<tag k="name" v="Skredene" />
		<tag k="natural" v="valley" />
		<tag k="place" v="locality" />
		<tag k="ssr:stedsnr" v="954492" />
	</node>
	<node id="-536113" lat="61.4912833295" lon="5.4375138976">
		<tag k="name" v="Aksla" />
		<tag k="natural" v="hill" />
		<tag k="place" v="locality" />
		<tag k="ssr:stedsnr" v="954238" />
	</node>
	<node id="-536111" lat="61.4944416638" lon="5.47843611579">
		<tag k="name" v="Hegrehammaren" />
		<tag k="natural" v="hill" />
		<tag k="place" v="locality" />
		<tag k="ssr:stedsnr" v="954208" />
	</node>
	<node id="-536109" lat="61.4923444432" lon="5.44413889158">
		<tag k="name" v="Mosehamrane" />
		<tag k="natural" v="hill" />
		<tag k="place" v="locality" />
		<tag k="ssr:stedsnr" v="954186" />
	</node>
	<node id="-536107" lat="61.4796944429" lon="5.54330000011">
		<tag k="name" v="Blåbærhaugen" />
		<tag k="natural" v="hill" />
		<tag k="place" v="locality" />
		<tag k="ssr:stedsnr" v="954100" />
	</node>
	<node id="-536106" lat="61.4853999963" lon="5.52376110984">
		<tag k="name" v="Jytten" />
		<tag k="natural" v="hill" />
		<tag k="place" v="locality" />
		<tag k="ssr:stedsnr" v="954076" />
	</node>
	<node id="-536104" lat="61.5003583321" lon="5.53734721311">
		<tag k="name" v="Dyrdalen" />
		<tag k="natural" v="valley" />
		<tag k="place" v="locality" />
		<tag k="ssr:stedsnr" v="954015" />
	</node>
	<node id="-536103" lat="61.4972777799" lon="5.54894444158">
		<tag k="name" v="Stegane" />
		<tag k="natural" v="valley" />
		<tag k="place" v="locality" />
		<tag k="ssr:stedsnr" v="954009" />
	</node>
	<node id="-536100" lat="61.5155472251" lon="5.73126110938">
		<tag k="name" v="Kleiva" />
		<tag k="natural" v="hill" />
		<tag k="place" v="locality" />
		<tag k="ssr:stedsnr" v="953868" />
	</node>
	<node id="-536099" lat="61.5291583309" lon="5.70848888981">
		<tag k="name" v="Glenjene" />
		<tag k="natural" v="hill" />
		<tag k="place" v="locality" />
		<tag k="ssr:stedsnr" v="953825" />
	</node>
	<node id="-536097" lat="61.5874722252" lon="5.84650833524">
		<tag k="name" v="Bjørnahellaren" />
		<tag k="natural" v="hill" />
		<tag k="place" v="locality" />
		<tag k="ssr:stedsnr" v="953780" />
	</node>
	<node id="-536096" lat="61.6175916681" lon="6.03162776836">
		<tag k="name" v="Fimlandsbotnen" />
		<tag k="natural" v="valley" />
		<tag k="place" v="locality" />
		<tag k="ssr:stedsnr" v="953648" />
	</node>
	<node id="-536095" lat="61.6038083334" lon="5.95401389524">
		<tag k="fixme" v="consider natural=peak for the most distinct mountains in the district" />
		<tag k="name" v="Øvstebotnseggene" />
		<tag k="natural" v="hill" />
		<tag k="place" v="locality" />
		<tag k="ssr:stedsnr" v="953573" />
	</node>
	<node id="-536094" lat="61.5205972246" lon="5.65600833624">
		<tag k="name" v="Botnen" />
		<tag k="natural" v="valley" />
		<tag k="place" v="locality" />
		<tag k="ssr:stedsnr" v="953552" />
	</node>
	<node id="-536092" lat="61.5488500021" lon="5.6765222128">
		<tag k="name" v="Blekhammaren" />
		<tag k="natural" v="hill" />
		<tag k="place" v="locality" />
		<tag k="ssr:stedsnr" v="953538" />
	</node>
	<node id="-536091" lat="61.6074638857" lon="6.05650554761">
		<tag k="name" v="Reinene" />
		<tag k="natural" v="slope" />
		<tag k="place" v="locality" />
		<tag k="ssr:stedsnr" v="953523" />
	</node>
	<node id="-536090" lat="61.6153333318" lon="6.06220000225">
		<tag k="name" v="Liatrammen" />
		<tag k="natural" v="hill" />
		<tag k="place" v="locality" />
		<tag k="ssr:stedsnr" v="953518" />
	</node>
	<node id="-536089" lat="61.5076722249" lon="5.38500834056">
		<tag k="name" v="Nipene" />
		<tag k="natural" v="hill" />
		<tag k="place" v="locality" />
		<tag k="ssr:stedsnr" v="953371" />
	</node>
	<node id="-536088" lat="61.5046972206" lon="5.46560556034">
		<tag k="fixme" v="consider natural=peak for the most distinct mountains in the district" />
		<tag k="name" v="Såta" />
		<tag k="natural" v="hill" />
		<tag k="place" v="locality" />
		<tag k="ssr:stedsnr" v="953236" />
	</node>
	<node id="-536087" lat="61.4770305548" lon="5.6045333356">
		<tag k="name" v="Kringlebotnshamrane" />
		<tag k="natural" v="hill" />
		<tag k="place" v="locality" />
		<tag k="ssr:stedsnr" v="953227" />
	</node>
	<node id="-536086" lat="61.5084888854" lon="5.670797216">
		<tag k="fixme" v="consider natural=peak for the most distinct mountains in the district" />
		<tag k="name" v="Kringlefjellet" />
		<tag k="natural" v="hill" />
		<tag k="place" v="locality" />
		<tag k="ssr:stedsnr" v="953200" />
	</node>
	<node id="-536085" lat="61.4949638875" lon="5.63345278543">
		<tag k="name" v="Knibbelia" />
		<tag k="natural" v="slope" />
		<tag k="place" v="locality" />
		<tag k="ssr:stedsnr" v="953121" />
	</node>
	<node id="-536078" lat="61.6133555519" lon="5.83281943864">
		<tag k="name" v="Knubbelia" />
		<tag k="natural" v="slope" />
		<tag k="place" v="locality" />
		<tag k="ssr:stedsnr" v="930717" />
	</node>
	<node id="-536074" lat="61.5535888853" lon="5.80580277445">
		<tag k="name" v="Bjørndalen" />
		<tag k="natural" v="valley" />
		<tag k="place" v="locality" />
		<tag k="ssr:stedsnr" v="920708" />
	</node>
	<node id="-536073" lat="61.6411638872" lon="6.19835554829">
		<tag k="name" v="Svartepøyla" />
		<tag k="natural" v="valley" />
		<tag k="place" v="locality" />
		<tag k="ssr:stedsnr" v="920254" />
	</node>
	<node id="-536072" lat="61.6148083335" lon="5.87133055483">
		<tag k="fixme" v="consider natural=peak for the most distinct mountains in the district" />
		<tag k="name" v="Slettheia" />
		<tag k="natural" v="hill" />
		<tag k="place" v="locality" />
		<tag k="ssr:stedsnr" v="920241" />
	</node>
	<node id="-536069" lat="61.5171027798" lon="5.87998054998">
		<tag k="name" v="Åsebotnen" />
		<tag k="natural" v="valley" />
		<tag k="place" v="locality" />
		<tag k="ssr:stedsnr" v="920164" />
	</node>
	<node id="-536068" lat="61.6338694458" lon="6.25475832901">
		<tag k="fixme" v="consider natural=peak for the most distinct mountains in the district" />
		<tag k="name" v="Kupefjellet" />
		<tag k="natural" v="hill" />
		<tag k="place" v="locality" />
		<tag k="ssr:stedsnr" v="920050" />
	</node>
	<node id="-536065" lat="61.6060222209" lon="6.11563333552">
		<tag k="name" v="Stillevadet" />
		<tag k="place" v="locality" />
		<tag k="ssr:stedsnr" v="919232" />
	</node>
	<node id="-536062" lat="61.4715138903" lon="5.54414443721">
		<tag k="alt_name" v="Hellelia, øvre" />
		<tag k="name" v="Øvre Hellelia" />
		<tag k="natural" v="slope" />
		<tag k="place" v="locality" />
		<tag k="ssr:stedsnr" v="918764" />
	</node>
	<node id="-536054" lat="61.5657861085" lon="5.83881944986">
		<tag k="fixme" v="consider natural=peak for the most distinct mountains in the district" />
		<tag k="name" v="Kallandsåsen" />
		<tag k="natural" v="hill" />
		<tag k="place" v="locality" />
		<tag k="ssr:stedsnr" v="918496" />
	</node>
	<node id="-536052" lat="61.5242944417" lon="5.65542221939">
		<tag k="name" v="Huldegjelet" />
		<tag k="natural" v="valley" />
		<tag k="place" v="locality" />
		<tag k="ssr:stedsnr" v="918478" />
	</node>
	<node id="-536051" lat="61.5295277733" lon="5.7779388845">
		<tag k="name" v="Veten" />
		<tag k="natural" v="hill" />
		<tag k="place" v="locality" />
		<tag k="ssr:stedsnr" v="918475" />
	</node>
	<node id="-536049" lat="61.514580553" lon="5.63598056191">
		<tag k="fixme" v="consider natural=peak for the most distinct mountains in the district" />
		<tag k="name" v="Steinkrossen" />
		<tag k="natural" v="hill" />
		<tag k="place" v="locality" />
		<tag k="ssr:stedsnr" v="918433" />
	</node>
	<node id="-536047" lat="61.4794999988" lon="5.56055000483">
		<tag k="fixme" v="consider natural=peak for the most distinct mountains in the district" />
		<tag k="name" v="Einevollsheiane" />
		<tag k="natural" v="hill" />
		<tag k="place" v="locality" />
		<tag k="ssr:stedsnr" v="917705" />
	</node>
	<node id="-536046" lat="61.4805833363" lon="5.57438334181">
		<tag k="name" v="Fessene" />
		<tag k="natural" v="valley" />
		<tag k="place" v="locality" />
		<tag k="ssr:stedsnr" v="917703" />
	</node>
	<node id="-536042" lat="61.6041944465" lon="6.1806472293">
		<tag k="fixme" v="consider natural=peak for the most distinct mountains in the district" />
		<tag k="name" v="Trollebottsegga" />
		<tag k="natural" v="hill" />
		<tag k="place" v="locality" />
		<tag k="ssr:stedsnr" v="859225" />
	</node>
	<node id="-536039" lat="61.5901247782" lon="6.09578740988">
		<tag k="alt_name" v="Kvangrenakken" />
		<tag k="fixme" v="consider natural=peak for the most distinct mountains in the district" />
		<tag k="name" v="Kvanngrønakken" />
		<tag k="natural" v="hill" />
		<tag k="place" v="locality" />
		<tag k="ssr:stedsnr" v="859204" />
	</node>
	<node id="-536038" lat="61.5937194464" lon="6.1610861021">
		<tag k="name" v="Gotdalen" />
		<tag k="natural" v="valley" />
		<tag k="place" v="locality" />
		<tag k="ssr:stedsnr" v="859202" />
	</node>
	<node id="-536035" lat="61.5699861141" lon="5.88668611138">
		<tag k="name" v="Bjørnabakkane" />
		<tag k="natural" v="slope" />
		<tag k="place" v="locality" />
		<tag k="ssr:stedsnr" v="859176" />
	</node>
	<node id="-536034" lat="61.5518638872" lon="5.98024723028">
		<tag k="fixme" v="consider natural=peak for the most distinct mountains in the district" />
		<tag k="name" v="Strandaklubben" />
		<tag k="natural" v="hill" />
		<tag k="place" v="locality" />
		<tag k="ssr:stedsnr" v="859166" />
	</node>
	<node id="-536033" lat="61.5291694426" lon="5.89892500654">
		<tag k="name" v="Gavlane" />
		<tag k="place" v="locality" />
		<tag k="ssr:stedsnr" v="859138" />
	</node>
	<node id="-536031" lat="61.5046250043" lon="5.37322222896">
		<tag k="fixme" v="consider natural=peak for the most distinct mountains in the district" />
		<tag k="name" v="Kletten" />
		<tag k="natural" v="hill" />
		<tag k="place" v="locality" />
		<tag k="ssr:stedsnr" v="858662" />
	</node>
	<node id="-536028" lat="61.5232638889" lon="5.71988334113">
		<tag k="name" v="Jonstadlia" />
		<tag k="natural" v="slope" />
		<tag k="place" v="locality" />
		<tag k="ssr:stedsnr" v="858440" />
	</node>
	<node id="-536027" lat="61.5295638898" lon="5.79201388744">
		<tag k="name" v="Holten" />
		<tag k="natural" v="hill" />
		<tag k="place" v="locality" />
		<tag k="ssr:stedsnr" v="858436" />
	</node>
	<node id="-536023" lat="61.4789555519" lon="5.53503334207">
		<tag k="fixme" v="consider natural=peak for the most distinct mountains in the district" />
		<tag k="name" v="Fotefjellet" />
		<tag k="natural" v="hill" />
		<tag k="place" v="locality" />
		<tag k="ssr:stedsnr" v="857745" />
	</node>
	<node id="-536022" lat="61.4827138902" lon="5.59031665748">
		<tag k="alt_name" v="Hanekammen" />
		<tag k="fixme" v="consider natural=peak for the most distinct mountains in the district" />
		<tag k="name" v="Hanekamben" />
		<tag k="natural" v="hill" />
		<tag k="place" v="locality" />
		<tag k="ssr:stedsnr" v="857740" />
	</node>
	<node id="-536014" lat="61.514774997" lon="5.71430833634">
		<tag k="name" v="Flatene" />
		<tag k="place" v="locality" />
		<tag k="ssr:stedsnr" v="842663" />
	</node>
	<node id="-536011" lat="61.5437888931" lon="5.72758332786">
		<tag k="name" v="Nipa" />
		<tag k="natural" v="hill" />
		<tag k="place" v="locality" />
		<tag k="ssr:stedsnr" v="833979" />
	</node>
	<node id="-536010" lat="61.548366664" lon="5.75145555879">
		<tag k="fixme" v="consider natural=peak for the most distinct mountains in the district" />
		<tag k="name" v="Halsnova" />
		<tag k="natural" v="hill" />
		<tag k="place" v="locality" />
		<tag k="ssr:stedsnr" v="833972" />
	</node>
	<node id="-536009" lat="61.5459250028" lon="5.75956665727">
		<tag k="name" v="Rognebakken" />
		<tag k="natural" v="hill" />
		<tag k="place" v="locality" />
		<tag k="ssr:stedsnr" v="833970" />
	</node>
	<node id="-536007" lat="61.5621722222" lon="5.82244443885">
		<tag k="name" v="Dalehola" />
		<tag k="natural" v="gorge" />
		<tag k="ssr:stedsnr" v="833960" />
	</node>
	<node id="-536006" lat="61.5746555568" lon="5.82321667361">
		<tag k="name" v="Svehaugen" />
		<tag k="natural" v="hill" />
		<tag k="place" v="locality" />
		<tag k="ssr:stedsnr" v="833958" />
	</node>
	<node id="-536005" lat="61.5579277787" lon="5.81685000123">
		<tag k="name" v="Palstadhola" />
		<tag k="natural" v="gorge" />
		<tag k="ssr:stedsnr" v="833953" />
	</node>
	<node id="-536004" lat="61.5362555578" lon="5.8022972279">
		<tag k="name" v="Kleppsdalen" />
		<tag k="natural" v="valley" />
		<tag k="place" v="locality" />
		<tag k="ssr:stedsnr" v="833948" />
	</node>
	<node id="-536002" lat="61.5413805594" lon="5.84489999203">
		<tag k="name" v="Nilsdalen" />
		<tag k="natural" v="valley" />
		<tag k="place" v="locality" />
		<tag k="ssr:stedsnr" v="833934" />
	</node>
	<node id="-536001" lat="61.5531833349" lon="5.81814722552">
		<tag k="name" v="Furehaugen" />
		<tag k="natural" v="hill" />
		<tag k="place" v="locality" />
		<tag k="ssr:stedsnr" v="833931" />
	</node>
	<node id="-536000" lat="61.603497222" lon="5.9154111167">
		<tag k="name" v="Langedalen" />
		<tag k="natural" v="valley" />
		<tag k="place" v="locality" />
		<tag k="ssr:stedsnr" v="833893" />
	</node>
	<node id="-535999" lat="61.6040388902" lon="5.89398888877">
		<tag k="name" v="Skarbotnen" />
		<tag k="natural" v="valley" />
		<tag k="place" v="locality" />
		<tag k="ssr:stedsnr" v="833883" />
	</node>
	<node id="-535998" lat="61.4826916696" lon="5.56776110678">
		<tag k="fixme" v="consider natural=peak for the most distinct mountains in the district" />
		<tag k="name" v="Merkeshaugen" />
		<tag k="natural" v="hill" />
		<tag k="place" v="locality" />
		<tag k="ssr:stedsnr" v="833876" />
	</node>
	<node id="-535996" lat="61.5041666652" lon="5.75015832664">
		<tag k="name" v="Bergplassen" />
		<tag k="natural" v="hill" />
		<tag k="place" v="locality" />
		<tag k="ssr:stedsnr" v="833844" />
	</node>
	<node id="-535995" lat="61.5090388894" lon="5.75831943822">
		<tag k="name" v="Kvernhushaugane" />
		<tag k="natural" v="hill" />
		<tag k="place" v="locality" />
		<tag k="ssr:stedsnr" v="833841" />
	</node>
	<node id="-535993" lat="61.5803750008" lon="5.91915000236">
		<tag k="name" v="Grindeberglia" />
		<tag k="natural" v="slope" />
		<tag k="place" v="locality" />
		<tag k="ssr:stedsnr" v="833792" />
	</node>
	<node id="-535990" lat="61.5921666711" lon="5.95081388988">
		<tag k="name" v="Haugane" />
		<tag k="natural" v="hill" />
		<tag k="place" v="locality" />
		<tag k="ssr:stedsnr" v="833630" />
	</node>
	<node id="-535989" lat="61.6102444468" lon="5.98418333661">
		<tag k="name" v="Brekka" />
		<tag k="natural" v="slope" />
		<tag k="place" v="locality" />
		<tag k="ssr:stedsnr" v="833578" />
	</node>
	<node id="-535988" lat="61.6130527803" lon="5.98594722901">
		<tag k="name" v="Bjørnabotnen" />
		<tag k="natural" v="valley" />
		<tag k="place" v="locality" />
		<tag k="ssr:stedsnr" v="833575" />
	</node>
	<node id="-535984" lat="61.4998861085" lon="5.26356666898">
		<tag k="fixme" v="consider natural=peak for the most distinct mountains in the district" />
		<tag k="name" v="Merkesgardholten" />
		<tag k="natural" v="hill" />
		<tag k="place" v="locality" />
		<tag k="ssr:stedsnr" v="833312" />
	</node>
	<node id="-535982" lat="61.5010916626" lon="5.52086667546">
		<tag k="fixme" v="consider natural=peak for the most distinct mountains in the district" />
		<tag k="name" v="Heia" />
		<tag k="natural" v="hill" />
		<tag k="place" v="locality" />
		<tag k="ssr:stedsnr" v="833050" />
	</node>
	<node id="-535979" lat="61.5767083375" lon="5.88193056358">
		<tag k="name" v="Stefinahammaren" />
		<tag k="natural" v="hill" />
		<tag k="place" v="locality" />
		<tag k="ssr:stedsnr" v="832947" />
	</node>
	<node id="-535978" lat="61.5739888888" lon="5.83155834229">
		<tag k="name" v="Storebotnen" />
		<tag k="natural" v="valley" />
		<tag k="place" v="locality" />
		<tag k="ssr:stedsnr" v="832923" />
	</node>
	<node id="-535977" lat="61.5557999991" lon="5.82283055636">
		<tag k="name" v="Langhamrane" />
		<tag k="natural" v="hill" />
		<tag k="place" v="locality" />
		<tag k="ssr:stedsnr" v="832916" />
	</node>
	<node id="-535976" lat="61.5675944485" lon="5.82872500133">
		<tag k="name" v="Skinstohammaren" />
		<tag k="natural" v="hill" />
		<tag k="place" v="locality" />
		<tag k="ssr:stedsnr" v="832917" />
	</node>
	<node id="-535975" lat="61.5164444455" lon="5.80786667495">
		<tag k="name" v="Espelia" />
		<tag k="natural" v="slope" />
		<tag k="place" v="locality" />
		<tag k="ssr:stedsnr" v="832790" />
	</node>
	<node id="-535974" lat="61.466294441" lon="5.49070000021">
		<tag k="name" v="Gjøringbøhaugen" />
		<tag k="natural" v="hill" />
		<tag k="place" v="locality" />
		<tag k="ssr:stedsnr" v="832787" />
	</node>
	<node id="-535972" lat="61.6110444485" lon="6.0101861164">
		<tag k="name" v="Vonahaugen" />
		<tag k="natural" v="hill" />
		<tag k="place" v="locality" />
		<tag k="ssr:stedsnr" v="832684" />
	</node>
	<node id="-535971" lat="61.6013194451" lon="6.01903610827">
		<tag k="fixme" v="consider natural=peak for the most distinct mountains in the district" />
		<tag k="name" v="Nesheia" />
		<tag k="natural" v="hill" />
		<tag k="place" v="locality" />
		<tag k="ssr:stedsnr" v="832678" />
	</node>
	<node id="-535970" lat="61.5199805524" lon="5.81317499348">
		<tag k="name" v="Øyane" />
		<tag k="place" v="locality" />
		<tag k="ssr:stedsnr" v="832650" />
	</node>
	<node id="-535969" lat="61.5701388933" lon="5.78666388843">
		<tag k="fixme" v="consider natural=peak for the most distinct mountains in the district" />
		<tag k="name" v="Høgefjellet" />
		<tag k="natural" v="hill" />
		<tag k="place" v="locality" />
		<tag k="ssr:stedsnr" v="832628" />
	</node>
	<node id="-535966" lat="61.5990694467" lon="5.93984443638">
		<tag k="name" v="Gamlestølslia" />
		<tag k="natural" v="slope" />
		<tag k="place" v="locality" />
		<tag k="ssr:stedsnr" v="832550" />
	</node>
	<node id="-535964" lat="61.5033388884" lon="5.6774138807">
		<tag k="name" v="Brunene" />
		<tag k="natural" v="hill" />
		<tag k="place" v="locality" />
		<tag k="ssr:stedsnr" v="832182" />
	</node>
	<node id="-535963" lat="61.4690138886" lon="5.57988888233">
		<tag k="fixme" v="consider natural=peak for the most distinct mountains in the district" />
		<tag k="name" v="Strokedalstrupen" />
		<tag k="natural" v="hill" />
		<tag k="place" v="locality" />
		<tag k="ssr:stedsnr" v="832160" />
	</node>
	<node id="-535962" lat="61.4873083353" lon="5.63374167072">
		<tag k="name" v="Nova" />
		<tag k="natural" v="gorge" />
		<tag k="ssr:stedsnr" v="832139" />
	</node>
	<node id="-535960" lat="61.4969250036" lon="5.3449638822">
		<tag k="name" v="Rindane" />
		<tag k="natural" v="hill" />
		<tag k="place" v="locality" />
		<tag k="ssr:stedsnr" v="833249" />
	</node>
	<node id="-535959" lat="61.4916388894" lon="5.43314999698">
		<tag k="name" v="Tekna" />
		<tag k="natural" v="hill" />
		<tag k="place" v="locality" />
		<tag k="ssr:stedsnr" v="833245" />
	</node>
	<node id="-535958" lat="61.4997583295" lon="5.48633611711">
		<tag k="fixme" v="consider natural=peak for the most distinct mountains in the district" />
		<tag k="name" v="Raudeskolten" />
		<tag k="natural" v="hill" />
		<tag k="place" v="locality" />
		<tag k="ssr:stedsnr" v="833220" />
	</node>
	<node id="-535957" lat="61.4844027745" lon="5.61441389564">
		<tag k="name" v="Kleivaholene" />
		<tag k="natural" v="gorge" />
		<tag k="ssr:stedsnr" v="833207" />
	</node>
	<node id="-535952" lat="61.6099527775" lon="5.78280000791">
		<tag k="fixme" v="multiple name tags, choose one and add the other to alt_name; consider natural=peak for the most distinct mountains in the district" />
		<tag k="name" v="Blånipa;Smylmedalsegga" />
		<tag k="natural" v="hill" />
		<tag k="place" v="locality" />
		<tag k="ssr:stedsnr" v="799820" />
	</node>
	<node id="-535949" lat="61.6032166674" lon="5.83611389148">
		<tag k="fixme" v="consider natural=peak for the most distinct mountains in the district" />
		<tag k="name" v="Eilerinden" />
		<tag k="natural" v="hill" />
		<tag k="place" v="locality" />
		<tag k="ssr:stedsnr" v="798704" />
	</node>
	<node id="-535947" lat="61.6007333299" lon="5.81471388068">
		<tag k="name" v="Hydalen" />
		<tag k="natural" v="valley" />
		<tag k="place" v="locality" />
		<tag k="ssr:stedsnr" v="798443" />
	</node>
	<node id="-535939" lat="61.5730611138" lon="6.02414444883">
		<tag k="name" v="Langedalen" />
		<tag k="natural" v="valley" />
		<tag k="place" v="locality" />
		<tag k="ssr:stedsnr" v="798197" />
	</node>
	<node id="-535937" lat="61.5073305559" lon="5.46004166854">
		<tag k="name" v="Smånipene" />
		<tag k="natural" v="hill" />
		<tag k="place" v="locality" />
		<tag k="ssr:stedsnr" v="797640" />
	</node>
	<node id="-535936" lat="61.4992638934" lon="5.49223056095">
		<tag k="fixme" v="consider natural=peak for the most distinct mountains in the district" />
		<tag k="name" v="Skarpeskolten" />
		<tag k="natural" v="hill" />
		<tag k="place" v="locality" />
		<tag k="ssr:stedsnr" v="797534" />
	</node>
	<node id="-535935" lat="61.4950499986" lon="5.47102776938">
		<tag k="fixme" v="consider natural=peak for the most distinct mountains in the district" />
		<tag k="name" v="Bjørndalsfjellet" />
		<tag k="natural" v="hill" />
		<tag k="place" v="locality" />
		<tag k="ssr:stedsnr" v="797533" />
	</node>
	<node id="-535933" lat="61.5460305566" lon="5.81880000693">
		<tag k="fixme" v="consider natural=peak for the most distinct mountains in the district" />
		<tag k="name" v="Ørneklumpen" />
		<tag k="natural" v="hill" />
		<tag k="place" v="locality" />
		<tag k="ssr:stedsnr" v="797452" />
	</node>
	<node id="-535932" lat="61.5149527775" lon="5.58776110948">
		<tag k="name" v="Bygdahaugen" />
		<tag k="natural" v="hill" />
		<tag k="place" v="locality" />
		<tag k="ssr:stedsnr" v="797416" />
	</node>
	<node id="-535927" lat="61.4930194474" lon="5.37920833169">
		<tag k="name" v="Einebakken" />
		<tag k="natural" v="slope" />
		<tag k="place" v="locality" />
		<tag k="ssr:stedsnr" v="796003" />
	</node>
	<node id="-535926" lat="61.4956916629" lon="5.3417416711">
		<tag k="alt_name" v="Torolvsholten" />
		<tag k="fixme" v="consider natural=peak for the most distinct mountains in the district" />
		<tag k="name" v="Tordalsholten" />
		<tag k="natural" v="hill" />
		<tag k="place" v="locality" />
		<tag k="ssr:stedsnr" v="796002" />
	</node>
	<node id="-535921" lat="61.5248055565" lon="5.69466944381">
		<tag k="name" v="Lianakken" />
		<tag k="natural" v="hill" />
		<tag k="place" v="locality" />
		<tag k="ssr:stedsnr" v="772860" />
	</node>
	<node id="-535919" lat="61.5295444446" lon="5.78799166101">
		<tag k="name" v="Åseskaret" />
		<tag k="natural" v="valley" />
		<tag k="place" v="locality" />
		<tag k="ssr:stedsnr" v="772799" />
	</node>
	<node id="-535917" lat="61.4810888909" lon="5.61918889102">
		<tag k="name" v="Storehaugen" />
		<tag k="natural" v="hill" />
		<tag k="place" v="locality" />
		<tag k="ssr:stedsnr" v="772770" />
	</node>
	<node id="-535916" lat="61.5861916658" lon="5.76951944688">
		<tag k="fixme" v="consider natural=peak for the most distinct mountains in the district" />
		<tag k="name" v="Tågebærhotten" />
		<tag k="natural" v="hill" />
		<tag k="place" v="locality" />
		<tag k="ssr:stedsnr" v="772656" />
	</node>
	<node id="-535915" lat="61.5929333337" lon="5.96953054826">
		<tag k="name" v="Vassbakkane" />
		<tag k="natural" v="slope" />
		<tag k="place" v="locality" />
		<tag k="ssr:stedsnr" v="772624" />
	</node>
	<node id="-535914" lat="61.5790666656" lon="5.9512722159">
		<tag k="name" v="Kviene" />
		<tag k="place" v="locality" />
		<tag k="ssr:stedsnr" v="772613" />
	</node>
	<node id="-535913" lat="61.6008722231" lon="5.99486666804">
		<tag k="name" v="Innlegdehaugen" />
		<tag k="natural" v="hill" />
		<tag k="place" v="locality" />
		<tag k="ssr:stedsnr" v="772603" />
	</node>
	<node id="-535911" lat="61.5856722195" lon="6.03558611295">
		<tag k="name" v="Stoa" />
		<tag k="natural" v="slope" />
		<tag k="place" v="locality" />
		<tag k="ssr:stedsnr" v="772492" />
	</node>
	<node id="-535910" lat="61.4964333332" lon="5.31668056462">
		<tag k="name" v="Litlehaugen" />
		<tag k="natural" v="hill" />
		<tag k="place" v="locality" />
		<tag k="ssr:stedsnr" v="772289" />
	</node>
	<node id="-535908" lat="61.5060805596" lon="5.39148610274">
		<tag k="name" v="Tortenhola" />
		<tag k="natural" v="gorge" />
		<tag k="ssr:stedsnr" v="772253" />
	</node>
	<node id="-535907" lat="61.4941138873" lon="5.41703056056">
		<tag k="name" v="Lindaberget" />
		<tag k="natural" v="hill" />
		<tag k="place" v="locality" />
		<tag k="ssr:stedsnr" v="772236" />
	</node>
	<node id="-535906" lat="61.4828722203" lon="5.60993056184">
		<tag k="name" v="Kvitbliholten" />
		<tag k="natural" v="hill" />
		<tag k="place" v="locality" />
		<tag k="ssr:stedsnr" v="772218" />
	</node>
	<node id="-535905" lat="61.4709749978" lon="5.50280834062">
		<tag k="name" v="Bruna" />
		<tag k="natural" v="slope" />
		<tag k="place" v="locality" />
		<tag k="ssr:stedsnr" v="772141" />
	</node>
	<node id="-535904" lat="61.4979805565" lon="5.60304999888">
		<tag k="name" v="Nærstølsliane" />
		<tag k="natural" v="slope" />
		<tag k="place" v="locality" />
		<tag k="ssr:stedsnr" v="772134" />
	</node>
	<node id="-535902" lat="61.4987861071" lon="5.5278333361">
		<tag k="name" v="Vasstølsnova" />
		<tag k="natural" v="ridge" />
		<tag k="place" v="locality" />
		<tag k="ssr:stedsnr" v="772052" />
	</node>
	<node id="-535901" lat="61.5050527817" lon="5.48843889242">
		<tag k="fixme" v="consider natural=peak for the most distinct mountains in the district" />
		<tag k="name" v="Mann" />
		<tag k="natural" v="hill" />
		<tag k="place" v="locality" />
		<tag k="ssr:stedsnr" v="772050" />
	</node>
	<node id="-535900" lat="61.4905805547" lon="5.56516111385">
		<tag k="name" v="Ulvestien" />
		<tag k="natural" v="valley" />
		<tag k="place" v="locality" />
		<tag k="ssr:stedsnr" v="772002" />
	</node>
	<node id="-535899" lat="61.5417638911" lon="5.70791666522">
		<tag k="name" v="Gytten" />
		<tag k="natural" v="hill" />
		<tag k="place" v="locality" />
		<tag k="ssr:stedsnr" v="771966" />
	</node>
	<node id="-535897" lat="61.551808334" lon="5.75845832793">
		<tag k="name" v="Bakkestølsholene" />
		<tag k="natural" v="valley" />
		<tag k="place" v="locality" />
		<tag k="ssr:stedsnr" v="771953" />
	</node>
	<node id="-535896" lat="61.5710388889" lon="5.90665555479">
		<tag k="name" v="Hjellholene" />
		<tag k="natural" v="valley" />
		<tag k="place" v="locality" />
		<tag k="ssr:stedsnr" v="771948" />
	</node>
	<node id="-535894" lat="61.5675694415" lon="5.89500556147">
		<tag k="name" v="Sveene" />
		<tag k="natural" v="hill" />
		<tag k="place" v="locality" />
		<tag k="ssr:stedsnr" v="771943" />
	</node>
	<node id="-535893" lat="61.5546388856" lon="5.73965834262">
		<tag k="name" v="Sleipelvehamrane" />
		<tag k="natural" v="hill" />
		<tag k="place" v="locality" />
		<tag k="ssr:stedsnr" v="771936" />
	</node>
	<node id="-535892" lat="61.5394305565" lon="5.74103333109">
		<tag k="name" v="Kviehaugen" />
		<tag k="natural" v="hill" />
		<tag k="place" v="locality" />
		<tag k="ssr:stedsnr" v="771927" />
	</node>
	<node id="-535891" lat="61.5724555542" lon="5.83324445274">
		<tag k="fixme" v="consider natural=peak for the most distinct mountains in the district" />
		<tag k="name" v="Skathaugen" />
		<tag k="natural" v="hill" />
		<tag k="place" v="locality" />
		<tag k="ssr:stedsnr" v="771914" />
	</node>
	<node id="-535890" lat="61.5998250017" lon="5.89775833572">
		<tag k="name" v="Tortneliane" />
		<tag k="natural" v="slope" />
		<tag k="place" v="locality" />
		<tag k="ssr:stedsnr" v="771880" />
	</node>
	<node id="-535888" lat="61.53053333" lon="5.72789166328">
		<tag k="name" v="Graulia" />
		<tag k="natural" v="slope" />
		<tag k="place" v="locality" />
		<tag k="ssr:stedsnr" v="771835" />
	</node>
	<node id="-535887" lat="61.5309583363" lon="5.71781111271">
		<tag k="name" v="Høgeklubben" />
		<tag k="natural" v="hill" />
		<tag k="place" v="locality" />
		<tag k="ssr:stedsnr" v="771832" />
	</node>
	<node id="-535885" lat="61.4637555532" lon="5.45257499361">
		<tag k="name" v="Skinstolia" />
		<tag k="natural" v="slope" />
		<tag k="place" v="locality" />
		<tag k="ssr:stedsnr" v="771811" />
	</node>
	<node id="-535884" lat="61.5183694439" lon="5.79186388676">
		<tag k="name" v="Blombrekka" />
		<tag k="natural" v="valley" />
		<tag k="place" v="locality" />
		<tag k="ssr:stedsnr" v="771798" />
	</node>
	<node id="-535883" lat="61.5799694413" lon="5.87773332741">
		<tag k="name" v="Herstadhaugane" />
		<tag k="natural" v="hill" />
		<tag k="place" v="locality" />
		<tag k="ssr:stedsnr" v="771785" />
	</node>
	<node id="-535882" lat="61.5849583305" lon="5.89209166178">
		<tag k="name" v="Jytten" />
		<tag k="natural" v="hill" />
		<tag k="place" v="locality" />
		<tag k="ssr:stedsnr" v="771780" />
	</node>
	<node id="-535881" lat="61.5880666651" lon="5.91256110514">
		<tag k="name" v="Blegja" />
		<tag k="natural" v="hill" />
		<tag k="place" v="locality" />
		<tag k="ssr:stedsnr" v="771773" />
	</node>
	<node id="-535880" lat="61.6029055587" lon="6.00769167545">
		<tag k="name" v="Finkebotnen" />
		<tag k="natural" v="valley" />
		<tag k="place" v="locality" />
		<tag k="ssr:stedsnr" v="771678" />
	</node>
	<node id="-535877" lat="61.5185972262" lon="5.84599167502">
		<tag k="name" v="Betnene" />
		<tag k="natural" v="hill" />
		<tag k="place" v="locality" />
		<tag k="ssr:stedsnr" v="771638" />
	</node>
	<node id="-535876" lat="61.5241999962" lon="5.66338611861">
		<tag k="name" v="Småliane" />
		<tag k="natural" v="slope" />
		<tag k="place" v="locality" />
		<tag k="ssr:stedsnr" v="771537" />
	</node>
	<node id="-535875" lat="61.5561194449" lon="5.97519999724">
		<tag k="name" v="Krærne" />
		<tag k="natural" v="valley" />
		<tag k="place" v="locality" />
		<tag k="ssr:stedsnr" v="771510" />
	</node>
	<node id="-535873" lat="61.5151638872" lon="5.66062499366">
		<tag k="name" v="Fjellsenden" />
		<tag k="natural" v="ridge" />
		<tag k="place" v="locality" />
		<tag k="ssr:stedsnr" v="771484" />
	</node>
	<node id="-535872" lat="61.5071000043" lon="5.4608083385">
		<tag k="name" v="Heia" />
		<tag k="natural" v="hill" />
		<tag k="place" v="locality" />
		<tag k="ssr:stedsnr" v="771240" />
	</node>
	<node id="-535871" lat="61.4640166647" lon="5.57278056145">
		<tag k="name" v="Øykevelta" />
		<tag k="natural" v="hill" />
		<tag k="place" v="locality" />
		<tag k="ssr:stedsnr" v="771172" />
	</node>
	<node id="-535869" lat="61.5021527783" lon="5.60884721721">
		<tag k="name" v="Seltuftene" />
		<tag k="place" v="locality" />
		<tag k="ssr:stedsnr" v="771019" />
	</node>
	<node id="-535868" lat="61.5733194468" lon="5.73154444078">
		<tag k="name" v="Tuftedalen" />
		<tag k="natural" v="valley" />
		<tag k="place" v="locality" />
		<tag k="ssr:stedsnr" v="771711" />
	</node>
	<node id="-535867" lat="61.5806833373" lon="5.81144999186">
		<tag k="name" v="Holtane" />
		<tag k="natural" v="hill" />
		<tag k="place" v="locality" />
		<tag k="ssr:stedsnr" v="748726" />
	</node>
	<node id="-535861" lat="61.5889416704" lon="5.81568055099">
		<tag k="fixme" v="consider natural=peak for the most distinct mountains in the district" />
		<tag k="name" v="Nordlifjellet" />
		<tag k="natural" v="hill" />
		<tag k="place" v="locality" />
		<tag k="ssr:stedsnr" v="737455" />
	</node>
	<node id="-535860" lat="61.592102775" lon="5.83734445312">
		<tag k="fixme" v="consider natural=peak for the most distinct mountains in the district" />
		<tag k="name" v="Trollebotsegga" />
		<tag k="natural" v="hill" />
		<tag k="place" v="locality" />
		<tag k="ssr:stedsnr" v="737443" />
	</node>
	<node id="-535856" lat="61.6103888868" lon="5.89187221917">
		<tag k="name" v="Vinddalen" />
		<tag k="natural" v="valley" />
		<tag k="place" v="locality" />
		<tag k="ssr:stedsnr" v="737236" />
	</node>
	<node id="-535854" lat="61.6339249962" lon="6.13472777074">
		<tag k="alt_name" v="Holebotnen, nordre" />
		<tag k="name" v="Nordre Holebotnen" />
		<tag k="natural" v="valley" />
		<tag k="place" v="locality" />
		<tag k="ssr:stedsnr" v="737232" />
	</node>
	<node id="-535852" lat="61.5997250028" lon="6.02745832499">
		<tag k="name" v="Sløkerabbane" />
		<tag k="natural" v="hill" />
		<tag k="place" v="locality" />
		<tag k="ssr:stedsnr" v="737216" />
	</node>
	<node id="-535832" lat="61.4956777794" lon="5.35881110169">
		<tag k="name" v="Botnarusta" />
		<tag k="natural" v="hill" />
		<tag k="place" v="locality" />
		<tag k="ssr:stedsnr" v="736006" />
	</node>
	<node id="-535831" lat="61.4967722225" lon="5.37296388272">
		<tag k="name" v="Djupedalen" />
		<tag k="natural" v="valley" />
		<tag k="place" v="locality" />
		<tag k="ssr:stedsnr" v="736001" />
	</node>
	<node id="-535830" lat="61.4859611147" lon="5.5370222255">
		<tag k="alt_name" v="Trongen" />
		<tag k="name" v="Trongane" />
		<tag k="natural" v="valley" />
		<tag k="place" v="locality" />
		<tag k="ssr:stedsnr" v="735714" />
	</node>
	<node id="-535829" lat="61.477916666" lon="5.51126667098">
		<tag k="fixme" v="consider natural=peak for the most distinct mountains in the district" />
		<tag k="name" v="Naregga" />
		<tag k="natural" v="hill" />
		<tag k="place" v="locality" />
		<tag k="ssr:stedsnr" v="735715" />
	</node>
	<node id="-535825" lat="61.4829166633" lon="5.4996694496">
		<tag k="name" v="Svegjelet" />
		<tag k="natural" v="valley" />
		<tag k="place" v="locality" />
		<tag k="ssr:stedsnr" v="712127" />
	</node>
	<node id="-535824" lat="61.5406472255" lon="5.69954443474">
		<tag k="name" v="Heia inste" />
		<tag k="natural" v="hill" />
		<tag k="place" v="locality" />
		<tag k="ssr:stedsnr" v="711998" />
	</node>
	<node id="-535823" lat="61.5718083376" lon="5.91271110591">
		<tag k="name" v="Rinden" />
		<tag k="natural" v="hill" />
		<tag k="place" v="locality" />
		<tag k="ssr:stedsnr" v="711996" />
	</node>
	<node id="-535822" lat="61.5691527777" lon="5.88249999741">
		<tag k="name" v="Slettene" />
		<tag k="place" v="locality" />
		<tag k="ssr:stedsnr" v="711962" />
	</node>
	<node id="-535821" lat="61.5469527794" lon="5.73431944501">
		<tag k="fixme" v="consider natural=peak for the most distinct mountains in the district" />
		<tag k="name" v="Annestølsfjellet" />
		<tag k="natural" v="hill" />
		<tag k="place" v="locality" />
		<tag k="ssr:stedsnr" v="711955" />
	</node>
	<node id="-535819" lat="61.5247583322" lon="5.7293611025">
		<tag k="name" v="Furehammaren" />
		<tag k="natural" v="hill" />
		<tag k="place" v="locality" />
		<tag k="ssr:stedsnr" v="711892" />
	</node>
	<node id="-535817" lat="61.5987583356" lon="5.91505556454">
		<tag k="name" v="Verehaugane" />
		<tag k="natural" v="hill" />
		<tag k="place" v="locality" />
		<tag k="ssr:stedsnr" v="711886" />
	</node>
	<node id="-535816" lat="61.6033583352" lon="5.92089444148">
		<tag k="name" v="Sauehaugen" />
		<tag k="natural" v="hill" />
		<tag k="place" v="locality" />
		<tag k="ssr:stedsnr" v="711884" />
	</node>
	<node id="-535815" lat="61.6124222207" lon="5.83729444034">
		<tag k="name" v="Trollhaugane" />
		<tag k="natural" v="hill" />
		<tag k="place" v="locality" />
		<tag k="ssr:stedsnr" v="711880" />
	</node>
	<node id="-535812" lat="61.5822222208" lon="5.73945277018">
		<tag k="name" v="Svarteberga" />
		<tag k="natural" v="hill" />
		<tag k="place" v="locality" />
		<tag k="ssr:stedsnr" v="711756" />
	</node>
	<node id="-535811" lat="61.5744833327" lon="5.78829999742">
		<tag k="fixme" v="consider natural=peak for the most distinct mountains in the district" />
		<tag k="name" v="Fitjeåsen" />
		<tag k="natural" v="hill" />
		<tag k="place" v="locality" />
		<tag k="ssr:stedsnr" v="711570" />
	</node>
	<node id="-535809" lat="61.5630194479" lon="5.79534167014">
		<tag k="name" v="Geitahaugen" />
		<tag k="natural" v="hill" />
		<tag k="place" v="locality" />
		<tag k="ssr:stedsnr" v="711549" />
	</node>
	<node id="-535808" lat="61.5577638891" lon="5.80181944812">
		<tag k="name" v="Kleivdalen" />
		<tag k="natural" v="valley" />
		<tag k="place" v="locality" />
		<tag k="ssr:stedsnr" v="711539" />
	</node>
	<node id="-535807" lat="61.5736333349" lon="5.95787777954">
		<tag k="name" v="Høgereina" />
		<tag k="natural" v="hill" />
		<tag k="place" v="locality" />
		<tag k="ssr:stedsnr" v="711489" />
	</node>
	<node id="-535806" lat="61.5464527792" lon="5.67852777883">
		<tag k="fixme" v="consider natural=peak for the most distinct mountains in the district" />
		<tag k="name" v="Horstadåsen" />
		<tag k="natural" v="hill" />
		<tag k="place" v="locality" />
		<tag k="ssr:stedsnr" v="711482" />
	</node>
	<node id="-535805" lat="61.5179583372" lon="5.67464443529">
		<tag k="name" v="Skredhaugane" />
		<tag k="natural" v="hill" />
		<tag k="place" v="locality" />
		<tag k="ssr:stedsnr" v="711444" />
	</node>
	<node id="-535803" lat="61.5249361093" lon="5.8539166586">
		<tag k="fixme" v="consider natural=peak for the most distinct mountains in the district" />
		<tag k="name" v="Skjenestadhaugen" />
		<tag k="natural" v="hill" />
		<tag k="place" v="locality" />
		<tag k="ssr:stedsnr" v="711413" />
	</node>
	<node id="-535802" lat="61.5060805598" lon="5.28421943601">
		<tag k="fixme" v="consider natural=peak for the most distinct mountains in the district" />
		<tag k="name" v="Åsenden" />
		<tag k="natural" v="hill" />
		<tag k="place" v="locality" />
		<tag k="ssr:stedsnr" v="711326" />
	</node>
	<node id="-535801" lat="61.4766666646" lon="5.61412777573">
		<tag k="name" v="Bjøllebakkane" />
		<tag k="natural" v="slope" />
		<tag k="place" v="locality" />
		<tag k="ssr:stedsnr" v="711221" />
	</node>
	<node id="-535800" lat="61.4934527748" lon="5.39725555917">
		<tag k="fixme" v="consider natural=peak for the most distinct mountains in the district" />
		<tag k="name" v="Klubben" />
		<tag k="natural" v="hill" />
		<tag k="place" v="locality" />
		<tag k="ssr:stedsnr" v="711172" />
	</node>
	<node id="-535799" lat="61.4894638883" lon="5.54432222382">
		<tag k="name" v="Reset" />
		<tag k="natural" v="hill" />
		<tag k="place" v="locality" />
		<tag k="ssr:stedsnr" v="711106" />
	</node>
	<node id="-535798" lat="61.4860111117" lon="5.5454694381">
		<tag k="name" v="Middagsjota" />
		<tag k="natural" v="gorge" />
		<tag k="ssr:stedsnr" v="711107" />
	</node>
	<node id="-535797" lat="61.4952111104" lon="5.55051944418">
		<tag k="name" v="Espekammen" />
		<tag k="natural" v="hill" />
		<tag k="place" v="locality" />
		<tag k="ssr:stedsnr" v="711014" />
	</node>
	<node id="-535796" lat="61.5750277745" lon="5.83753611646">
		<tag k="name" v="Sjurlia" />
		<tag k="natural" v="slope" />
		<tag k="place" v="locality" />
		<tag k="ssr:stedsnr" v="710925" />
	</node>
	<node id="-535795" lat="61.4655472256" lon="5.46433889337">
		<tag k="name" v="Arishaugane" />
		<tag k="natural" v="hill" />
		<tag k="place" v="locality" />
		<tag k="ssr:stedsnr" v="710791" />
	</node>
	<node id="-535794" lat="61.460419448" lon="5.47401945137">
		<tag k="name" v="Holtane" />
		<tag k="natural" v="hill" />
		<tag k="place" v="locality" />
		<tag k="ssr:stedsnr" v="710788" />
	</node>
	<node id="-535792" lat="61.6002333321" lon="5.9622777738">
		<tag k="name" v="Stien" />
		<tag k="natural" v="valley" />
		<tag k="place" v="locality" />
		<tag k="ssr:stedsnr" v="710548" />
	</node>
	<node id="-535791" lat="61.6026555551" lon="5.96068889298">
		<tag k="fixme" v="consider natural=peak for the most distinct mountains in the district" />
		<tag k="name" v="Blåfjell" />
		<tag k="natural" v="hill" />
		<tag k="place" v="locality" />
		<tag k="ssr:stedsnr" v="710547" />
	</node>
	<node id="-535789" lat="61.5710777801" lon="5.97399445199">
		<tag k="name" v="Joholten" />
		<tag k="natural" v="hill" />
		<tag k="place" v="locality" />
		<tag k="ssr:stedsnr" v="710491" />
	</node>
	<node id="-535787" lat="61.4980444422" lon="5.46685832898">
		<tag k="name" v="Aksla" />
		<tag k="natural" v="slope" />
		<tag k="place" v="locality" />
		<tag k="ssr:stedsnr" v="710235" />
	</node>
	<node id="-535784" lat="61.6053638873" lon="6.05833333986">
		<tag k="name" v="Holene" />
		<tag k="natural" v="slope" />
		<tag k="place" v="locality" />
		<tag k="ssr:stedsnr" v="706419" />
	</node>
	<node id="-535782" lat="61.5975972253" lon="5.99590833392">
		<tag k="name" v="Moane" />
		<tag k="place" v="locality" />
		<tag k="ssr:stedsnr" v="705427" />
	</node>
	<node id="-535780" lat="61.5284055538" lon="5.81903334282">
		<tag k="fixme" v="consider natural=peak for the most distinct mountains in the district" />
		<tag k="name" v="Byrkjelifjellet" />
		<tag k="natural" v="hill" />
		<tag k="place" v="locality" />
		<tag k="ssr:stedsnr" v="687718" />
	</node>
	<node id="-535778" lat="61.5304694407" lon="5.71058889505">
		<tag k="name" v="Ristalia" />
		<tag k="natural" v="slope" />
		<tag k="place" v="locality" />
		<tag k="ssr:stedsnr" v="687701" />
	</node>
	<node id="-535775" lat="61.5220638921" lon="5.85156110653">
		<tag k="fixme" v="consider natural=peak for the most distinct mountains in the district" />
		<tag k="name" v="Klubben" />
		<tag k="natural" v="hill" />
		<tag k="place" v="locality" />
		<tag k="ssr:stedsnr" v="677172" />
	</node>
	<node id="-535774" lat="61.475530555" lon="5.58907499304">
		<tag k="name" v="Botnen" />
		<tag k="natural" v="valley" />
		<tag k="place" v="locality" />
		<tag k="ssr:stedsnr" v="676545" />
	</node>
	<node id="-535771" lat="61.6204000046" lon="6.02763611559">
		<tag k="fixme" v="consider natural=peak for the most distinct mountains in the district" />
		<tag k="name" v="Haukefjellet" />
		<tag k="natural" v="hill" />
		<tag k="place" v="locality" />
		<tag k="ssr:stedsnr" v="676270" />
	</node>
	<node id="-535770" lat="61.6129305553" lon="6.10529444668">
		<tag k="alt_name" v="Bjørnefjell" />
		<tag k="fixme" v="consider natural=peak for the most distinct mountains in the district" />
		<tag k="name" v="Bjørnefjellet" />
		<tag k="natural" v="hill" />
		<tag k="place" v="locality" />
		<tag k="ssr:stedsnr" v="676264" />
	</node>
	<node id="-535764" lat="61.5243361081" lon="5.90248889473">
		<tag k="fixme" v="consider natural=peak for the most distinct mountains in the district" />
		<tag k="name" v="Grimseteheia" />
		<tag k="natural" v="hill" />
		<tag k="place" v="locality" />
		<tag k="ssr:stedsnr" v="676161" />
	</node>
	<node id="-535762" lat="61.4846083314" lon="5.52946110373">
		<tag k="fixme" v="consider natural=peak for the most distinct mountains in the district" />
		<tag k="name" v="Løypefjellet" />
		<tag k="natural" v="hill" />
		<tag k="place" v="locality" />
		<tag k="ssr:stedsnr" v="675743" />
	</node>
	<node id="-535761" lat="61.4831972249" lon="5.53645832973">
		<tag k="alt_name" v="Fremredalen" />
		<tag k="name" v="Dalane" />
		<tag k="natural" v="valley" />
		<tag k="place" v="locality" />
		<tag k="ssr:stedsnr" v="675742" />
	</node>
	<node id="-535760" lat="61.4728138898" lon="5.54512777391">
		<tag k="alt_name" v="Øyaskaret" />
		<tag k="name" v="Øyaskardet" />
		<tag k="natural" v="valley" />
		<tag k="place" v="locality" />
		<tag k="ssr:stedsnr" v="675715" />
	</node>
	<node id="-535758" lat="61.4722666644" lon="5.58366389387">
		<tag k="name" v="Rysjedalen" />
		<tag k="natural" v="valley" />
		<tag k="place" v="locality" />
		<tag k="ssr:stedsnr" v="675712" />
	</node>
	<node id="-535754" lat="61.5065694413" lon="5.43089999544">
		<tag k="name" v="Grønlia" />
		<tag k="natural" v="slope" />
		<tag k="place" v="locality" />
		<tag k="ssr:stedsnr" v="675650" />
	</node>
	<node id="-535751" lat="61.4981444468" lon="5.59718334074">
		<tag k="name" v="Holtane" />
		<tag k="natural" v="hill" />
		<tag k="place" v="locality" />
		<tag k="ssr:stedsnr" v="675524" />
	</node>
	<node id="-535747" lat="61.5283444407" lon="5.65129722756">
		<tag k="name" v="Huldehaugen" />
		<tag k="natural" v="hill" />
		<tag k="place" v="locality" />
		<tag k="ssr:stedsnr" v="675428" />
	</node>
	<node id="-535746" lat="61.5327666678" lon="5.69405556255">
		<tag k="fixme" v="consider natural=peak for the most distinct mountains in the district" />
		<tag k="name" v="Skeisknausen" />
		<tag k="natural" v="hill" />
		<tag k="place" v="locality" />
		<tag k="ssr:stedsnr" v="675426" />
	</node>
	<node id="-535743" lat="61.5024500044" lon="5.53668611829">
		<tag k="fixme" v="consider natural=peak for the most distinct mountains in the district" />
		<tag k="name" v="Dyrdalsheia" />
		<tag k="natural" v="hill" />
		<tag k="place" v="locality" />
		<tag k="ssr:stedsnr" v="675405" />
	</node>
	<node id="-535739" lat="61.4918500017" lon="5.37346110714">
		<tag k="fixme" v="consider natural=peak for the most distinct mountains in the district" />
		<tag k="name" v="Årsetfjellet" />
		<tag k="natural" v="hill" />
		<tag k="place" v="locality" />
		<tag k="ssr:stedsnr" v="675002" />
	</node>
	<node id="-535736" lat="61.4987750038" lon="5.42987221932">
		<tag k="name" v="Bygdalia" />
		<tag k="natural" v="slope" />
		<tag k="place" v="locality" />
		<tag k="ssr:stedsnr" v="651256" />
	</node>
	<node id="-535734" lat="61.5710555589" lon="5.92220277694">
		<tag k="name" v="Skaflestadlia" />
		<tag k="natural" v="slope" />
		<tag k="place" v="locality" />
		<tag k="ssr:stedsnr" v="650986" />
	</node>
	<node id="-535733" lat="61.569747218" lon="5.91646667034">
		<tag k="name" v="Nova" />
		<tag k="natural" v="hill" />
		<tag k="place" v="locality" />
		<tag k="ssr:stedsnr" v="650987" />
	</node>
	<node id="-535732" lat="61.5374111148" lon="5.72866389286">
		<tag k="name" v="Bjørnagjelet" />
		<tag k="natural" v="valley" />
		<tag k="place" v="locality" />
		<tag k="ssr:stedsnr" v="650968" />
	</node>
	<node id="-535731" lat="61.5593083292" lon="5.88229166772">
		<tag k="name" v="Jerbudalen" />
		<tag k="natural" v="valley" />
		<tag k="place" v="locality" />
		<tag k="ssr:stedsnr" v="650957" />
	</node>
	<node id="-535730" lat="61.5484583331" lon="5.78305000518">
		<tag k="name" v="Haugaknausen" />
		<tag k="natural" v="hill" />
		<tag k="place" v="locality" />
		<tag k="ssr:stedsnr" v="650939" />
	</node>
	<node id="-535728" lat="61.5409444479" lon="5.8584027741">
		<tag k="name" v="Spikhaugane" />
		<tag k="natural" v="hill" />
		<tag k="place" v="locality" />
		<tag k="ssr:stedsnr" v="650912" />
	</node>
	<node id="-535727" lat="61.5477555517" lon="5.79552500112">
		<tag k="fixme" v="consider natural=peak for the most distinct mountains in the district" />
		<tag k="name" v="Indrekvamsfjellet" />
		<tag k="natural" v="hill" />
		<tag k="place" v="locality" />
		<tag k="ssr:stedsnr" v="650901" />
	</node>
	<node id="-535726" lat="61.6058111137" lon="5.92374721964">
		<tag k="name" v="Fessene" />
		<tag k="natural" v="hill" />
		<tag k="place" v="locality" />
		<tag k="ssr:stedsnr" v="650864" />
	</node>
	<node id="-535725" lat="61.6033694443" lon="5.90604999305">
		<tag k="name" v="Bjørnaholene" />
		<tag k="natural" v="valley" />
		<tag k="place" v="locality" />
		<tag k="ssr:stedsnr" v="650860" />
	</node>
	<node id="-535723" lat="61.5229638859" lon="5.77353888732">
		<tag k="name" v="Storehammaren" />
		<tag k="natural" v="hill" />
		<tag k="place" v="locality" />
		<tag k="ssr:stedsnr" v="650845" />
	</node>
	<node id="-535722" lat="61.5324916691" lon="5.76010833618">
		<tag k="name" v="Svorahola" />
		<tag k="natural" v="gorge" />
		<tag k="ssr:stedsnr" v="650836" />
	</node>
	<node id="-535721" lat="61.5109277734" lon="5.73564721371">
		<tag k="name" v="Klettelia" />
		<tag k="natural" v="slope" />
		<tag k="place" v="locality" />
		<tag k="ssr:stedsnr" v="650819" />
	</node>
	<node id="-535720" lat="61.508394441" lon="5.70935832698">
		<tag k="name" v="Mjølkevika" />
		<tag k="natural" v="slope" />
		<tag k="place" v="locality" />
		<tag k="ssr:stedsnr" v="650805" />
	</node>
	<node id="-535719" lat="61.5278027813" lon="5.79811667257">
		<tag k="name" v="Lia" />
		<tag k="natural" v="slope" />
		<tag k="place" v="locality" />
		<tag k="ssr:stedsnr" v="650797" />
	</node>
	<node id="-535718" lat="61.5866888895" lon="5.81802221376">
		<tag k="name" v="Gamlestølsdalen" />
		<tag k="natural" v="valley" />
		<tag k="place" v="locality" />
		<tag k="ssr:stedsnr" v="650787" />
	</node>
	<node id="-535717" lat="61.5876861152" lon="5.92440833854">
		<tag k="name" v="Skaret" />
		<tag k="natural" v="valley" />
		<tag k="place" v="locality" />
		<tag k="ssr:stedsnr" v="650771" />
	</node>
	<node id="-535716" lat="61.5970055566" lon="5.9647166715">
		<tag k="name" v="Bjørkehaugane" />
		<tag k="natural" v="hill" />
		<tag k="place" v="locality" />
		<tag k="ssr:stedsnr" v="650588" />
	</node>
	<node id="-535715" lat="61.591325001" lon="5.97870833872">
		<tag k="name" v="Tverlia" />
		<tag k="natural" v="slope" />
		<tag k="place" v="locality" />
		<tag k="ssr:stedsnr" v="650586" />
	</node>
	<node id="-535714" lat="61.5829861124" lon="5.97396388242">
		<tag k="name" v="Bruabakken" />
		<tag k="natural" v="slope" />
		<tag k="place" v="locality" />
		<tag k="ssr:stedsnr" v="650583" />
	</node>
	<node id="-535713" lat="61.5950305515" lon="5.95232778536">
		<tag k="fixme" v="consider natural=peak for the most distinct mountains in the district" />
		<tag k="name" v="Mettefjell" />
		<tag k="natural" v="hill" />
		<tag k="place" v="locality" />
		<tag k="ssr:stedsnr" v="650578" />
	</node>
	<node id="-535712" lat="61.6021500039" lon="6.0017972212">
		<tag k="name" v="Steinbakken" />
		<tag k="natural" v="slope" />
		<tag k="place" v="locality" />
		<tag k="ssr:stedsnr" v="650566" />
	</node>
	<node id="-535711" lat="61.5728888888" lon="5.94615278493">
		<tag k="name" v="Høgereina" />
		<tag k="natural" v="slope" />
		<tag k="place" v="locality" />
		<tag k="ssr:stedsnr" v="650462" />
	</node>
	<node id="-535708" lat="61.5928111144" lon="6.00964722988">
		<tag k="name" v="Skorane" />
		<tag k="natural" v="valley" />
		<tag k="place" v="locality" />
		<tag k="ssr:stedsnr" v="650369" />
	</node>
	<node id="-535705" lat="61.4939916642" lon="5.44344722611">
		<tag k="fixme" v="consider natural=peak for the most distinct mountains in the district" />
		<tag k="name" v="Fureåsen" />
		<tag k="natural" v="hill" />
		<tag k="place" v="locality" />
		<tag k="ssr:stedsnr" v="650180" />
	</node>
	<node id="-535704" lat="61.4961916653" lon="5.52063055395">
		<tag k="name" v="Skafjellshaugen" />
		<tag k="natural" v="hill" />
		<tag k="place" v="locality" />
		<tag k="ssr:stedsnr" v="650049" />
	</node>
	<node id="-535703" lat="61.494977778" lon="5.55784443695">
		<tag k="name" v="Stølsbakken" />
		<tag k="natural" v="slope" />
		<tag k="place" v="locality" />
		<tag k="ssr:stedsnr" v="650029" />
	</node>
	<node id="-535702" lat="61.5687555557" lon="5.87375277063">
		<tag k="name" v="Svorene" />
		<tag k="natural" v="hill" />
		<tag k="place" v="locality" />
		<tag k="ssr:stedsnr" v="649933" />
	</node>
	<node id="-535701" lat="61.5692861131" lon="5.82743333229">
		<tag k="name" v="Skåberget" />
		<tag k="natural" v="hill" />
		<tag k="place" v="locality" />
		<tag k="ssr:stedsnr" v="649920" />
	</node>
	<node id="-535700" lat="61.5311999994" lon="5.74008333951">
		<tag k="name" v="Åregjelet" />
		<tag k="natural" v="valley" />
		<tag k="place" v="locality" />
		<tag k="ssr:stedsnr" v="649825" />
	</node>
	<node id="-535699" lat="61.5909388917" lon="5.86085277904">
		<tag k="name" v="Reshammaren" />
		<tag k="natural" v="hill" />
		<tag k="place" v="locality" />
		<tag k="ssr:stedsnr" v="649803" />
	</node>
	<node id="-535698" lat="61.5778416639" lon="5.83363889016">
		<tag k="fixme" v="consider natural=peak for the most distinct mountains in the district" />
		<tag k="name" v="Kleivafjellet" />
		<tag k="natural" v="hill" />
		<tag k="place" v="locality" />
		<tag k="ssr:stedsnr" v="649780" />
	</node>
	<node id="-535697" lat="61.587861113" lon="5.85435833965">
		<tag k="name" v="Holten" />
		<tag k="natural" v="hill" />
		<tag k="place" v="locality" />
		<tag k="ssr:stedsnr" v="649774" />
	</node>
	<node id="-535696" lat="61.565272223" lon="5.73620000814">
		<tag k="name" v="Vardalen" />
		<tag k="natural" v="valley" />
		<tag k="place" v="locality" />
		<tag k="ssr:stedsnr" v="649712" />
	</node>
	<node id="-535695" lat="61.5689638885" lon="5.73335833288">
		<tag k="name" v="Blåryggen" />
		<tag k="natural" v="ridge" />
		<tag k="place" v="locality" />
		<tag k="ssr:stedsnr" v="649711" />
	</node>
	<node id="-535694" lat="61.589761111" lon="5.77737778664">
		<tag k="name" v="Spikarhaugen" />
		<tag k="natural" v="hill" />
		<tag k="place" v="locality" />
		<tag k="ssr:stedsnr" v="649674" />
	</node>
	<node id="-535693" lat="61.5153249995" lon="5.81524165775">
		<tag k="name" v="Gytten" />
		<tag k="natural" v="hill" />
		<tag k="place" v="locality" />
		<tag k="ssr:stedsnr" v="649651" />
	</node>
	<node id="-535692" lat="61.5161999964" lon="5.83396666664">
		<tag k="name" v="Hanselia" />
		<tag k="natural" v="slope" />
		<tag k="place" v="locality" />
		<tag k="ssr:stedsnr" v="649635" />
	</node>
	<node id="-535691" lat="61.6193138895" lon="5.99669722898">
		<tag k="name" v="Kviteberget" />
		<tag k="natural" v="hill" />
		<tag k="place" v="locality" />
		<tag k="ssr:stedsnr" v="649622" />
	</node>
	<node id="-535690" lat="61.533666667" lon="5.63330277464">
		<tag k="fixme" v="consider natural=peak for the most distinct mountains in the district" />
		<tag k="name" v="Dormannsholten" />
		<tag k="natural" v="hill" />
		<tag k="place" v="locality" />
		<tag k="ssr:stedsnr" v="649457" />
	</node>
	<node id="-535688" lat="61.5061388852" lon="5.68429167266">
		<tag k="name" v="Øykjebakken" />
		<tag k="natural" v="slope" />
		<tag k="place" v="locality" />
		<tag k="ssr:stedsnr" v="649148" />
	</node>
	<node id="-535687" lat="61.4943194404" lon="5.65820555661">
		<tag k="name" v="Ospelundane" />
		<tag k="natural" v="slope" />
		<tag k="place" v="locality" />
		<tag k="ssr:stedsnr" v="649080" />
	</node>
	<node id="-535685" lat="61.4984388913" lon="5.5148083247">
		<tag k="name" v="Omnen" />
		<tag k="natural" v="hill" />
		<tag k="place" v="locality" />
		<tag k="ssr:stedsnr" v="650062" />
	</node>
	<node id="-535684" lat="61.5517972209" lon="5.66136388102">
		<tag k="fixme" v="consider natural=peak for the most distinct mountains in the district" />
		<tag k="name" v="Storefjellet" />
		<tag k="natural" v="hill" />
		<tag k="place" v="locality" />
		<tag k="ssr:stedsnr" v="648402" />
	</node>
	<node id="-535683" lat="61.6001138884" lon="6.06029167121">
		<tag k="name" v="Rabben" />
		<tag k="natural" v="hill" />
		<tag k="place" v="locality" />
		<tag k="ssr:stedsnr" v="644495" />
	</node>
	<node id="-535682" lat="61.6210361156" lon="6.00936945101">
		<tag k="name" v="Strandaslåtten" />
		<tag k="place" v="locality" />
		<tag k="ssr:stedsnr" v="639473" />
	</node>
	<node id="-535681" lat="61.5009722184" lon="5.46859999165">
		<tag k="name" v="Fardalen" />
		<tag k="natural" v="valley" />
		<tag k="place" v="locality" />
		<tag k="ssr:stedsnr" v="626735" />
	</node>
	<node id="-535679" lat="61.6328888861" lon="5.95750832886">
		<tag k="fixme" v="consider natural=peak for the most distinct mountains in the district" />
		<tag k="name" v="Merafteholten" />
		<tag k="natural" v="hill" />
		<tag k="place" v="locality" />
		<tag k="ssr:stedsnr" v="616250" />
	</node>
	<node id="-535674" lat="61.6059611119" lon="5.79661389029">
		<tag k="name" v="Ullalandsbotn" />
		<tag k="natural" v="valley" />
		<tag k="place" v="locality" />
		<tag k="ssr:stedsnr" v="615742" />
	</node>
	<node id="-535671" lat="61.5957749995" lon="6.00829444916">
		<tag k="name" v="Sløkene" />
		<tag k="natural" v="slope" />
		<tag k="place" v="locality" />
		<tag k="ssr:stedsnr" v="615217" />
	</node>
	<node id="-535669" lat="61.5913972192" lon="6.20011667094">
		<tag k="name" v="Gotdalsskaret" />
		<tag k="natural" v="valley" />
		<tag k="place" v="locality" />
		<tag k="ssr:stedsnr" v="615184" />
	</node>
	<node id="-535668" lat="61.4897555568" lon="5.631333341">
		<tag k="name" v="Kletten" />
		<tag k="natural" v="hill" />
		<tag k="place" v="locality" />
		<tag k="ssr:stedsnr" v="614781" />
	</node>
	<node id="-535664" lat="61.4740583306" lon="5.61112222743">
		<tag k="fixme" v="consider natural=peak for the most distinct mountains in the district" />
		<tag k="name" v="Pikholten" />
		<tag k="natural" v="hill" />
		<tag k="place" v="locality" />
		<tag k="ssr:stedsnr" v="614711" />
	</node>
	<node id="-535663" lat="61.4615972234" lon="5.47673332769">
		<tag k="name" v="Nonsholten" />
		<tag k="natural" v="hill" />
		<tag k="place" v="locality" />
		<tag k="ssr:stedsnr" v="614703" />
	</node>
	<node id="-535661" lat="61.5038000037" lon="5.32405000655">
		<tag k="name" v="Lia" />
		<tag k="natural" v="slope" />
		<tag k="place" v="locality" />
		<tag k="ssr:stedsnr" v="614642" />
	</node>
	<node id="-535660" lat="61.504119447" lon="5.34530277442">
		<tag k="fixme" v="consider natural=peak for the most distinct mountains in the district" />
		<tag k="name" v="Seljevollfjellet" />
		<tag k="natural" v="hill" />
		<tag k="place" v="locality" />
		<tag k="ssr:stedsnr" v="614641" />
	</node>
	<node id="-535652" lat="61.4942444465" lon="5.43776388859">
		<tag k="fixme" v="consider natural=peak for the most distinct mountains in the district" />
		<tag k="name" v="Kyrkjehaugane" />
		<tag k="natural" v="hill" />
		<tag k="place" v="locality" />
		<tag k="ssr:stedsnr" v="614014" />
	</node>
	<node id="-535651" lat="61.4914722252" lon="5.42780000553">
		<tag k="alt_name" v="Engebøfjellet" />
		<tag k="fixme" v="consider natural=peak for the most distinct mountains in the district" />
		<tag k="name" v="Engjabøfjellet" />
		<tag k="natural" v="hill" />
		<tag k="place" v="locality" />
		<tag k="ssr:stedsnr" v="614013" />
	</node>
	<node id="-535650" lat="61.4977166668" lon="5.3440999995">
		<tag k="name" v="Seljevolldalen" />
		<tag k="natural" v="valley" />
		<tag k="place" v="locality" />
		<tag k="ssr:stedsnr" v="614007" />
	</node>
	<node id="-535646" lat="61.4899722242" lon="5.35041666631">
		<tag k="fixme" v="consider natural=peak for the most distinct mountains in the district" />
		<tag k="name" v="Blåfjellet" />
		<tag k="natural" v="hill" />
		<tag k="place" v="locality" />
		<tag k="ssr:stedsnr" v="590376" />
	</node>
	<node id="-535645" lat="61.5051500036" lon="5.39811667241">
		<tag k="fixme" v="consider natural=peak for the most distinct mountains in the district" />
		<tag k="name" v="Tortenheia" />
		<tag k="natural" v="hill" />
		<tag k="place" v="locality" />
		<tag k="ssr:stedsnr" v="590245" />
	</node>
	<node id="-535644" lat="61.5765111126" lon="5.80609166577">
		<tag k="name" v="Småliane" />
		<tag k="natural" v="slope" />
		<tag k="place" v="locality" />
		<tag k="ssr:stedsnr" v="589978" />
	</node>
	<node id="-535643" lat="61.5658916645" lon="5.87329722924">
		<tag k="fixme" v="consider natural=peak for the most distinct mountains in the district" />
		<tag k="name" v="Skarhaugen" />
		<tag k="natural" v="hill" />
		<tag k="place" v="locality" />
		<tag k="ssr:stedsnr" v="589975" />
	</node>
	<node id="-535641" lat="61.5443611145" lon="5.85112222895">
		<tag k="name" v="Brattelia" />
		<tag k="natural" v="slope" />
		<tag k="place" v="locality" />
		<tag k="ssr:stedsnr" v="589945" />
	</node>
	<node id="-535640" lat="61.5531416704" lon="5.86628055154">
		<tag k="name" v="Stølsliane" />
		<tag k="natural" v="slope" />
		<tag k="place" v="locality" />
		<tag k="ssr:stedsnr" v="589943" />
	</node>
	<node id="-535638" lat="61.5611333292" lon="5.82984445361">
		<tag k="name" v="Rotehaugen" />
		<tag k="natural" v="hill" />
		<tag k="place" v="locality" />
		<tag k="ssr:stedsnr" v="589938" />
	</node>
	<node id="-535637" lat="61.5380722183" lon="5.84185554763">
		<tag k="name" v="Geitahelleren" />
		<tag k="place" v="locality" />
		<tag k="ssr:stedsnr" v="589928" />
	</node>
	<node id="-535635" lat="61.5233972235" lon="5.70173333944">
		<tag k="name" v="Nova" />
		<tag k="natural" v="hill" />
		<tag k="place" v="locality" />
		<tag k="ssr:stedsnr" v="589876" />
	</node>
	<node id="-535634" lat="61.527866667" lon="5.73427221289">
		<tag k="name" v="Lyehaugen" />
		<tag k="natural" v="hill" />
		<tag k="place" v="locality" />
		<tag k="ssr:stedsnr" v="589842" />
	</node>
	<node id="-535633" lat="61.5071444407" lon="5.73023888303">
		<tag k="fixme" v="consider natural=peak for the most distinct mountains in the district" />
		<tag k="name" v="Kletten" />
		<tag k="natural" v="hill" />
		<tag k="place" v="locality" />
		<tag k="ssr:stedsnr" v="589830" />
	</node>
	<node id="-535631" lat="61.5232944446" lon="5.79526111017">
		<tag k="name" v="Haugane" />
		<tag k="natural" v="hill" />
		<tag k="place" v="locality" />
		<tag k="ssr:stedsnr" v="589811" />
	</node>
	<node id="-535630" lat="61.5880972206" lon="5.83948055403">
		<tag k="name" v="Torkjellia" />
		<tag k="natural" v="slope" />
		<tag k="place" v="locality" />
		<tag k="ssr:stedsnr" v="589804" />
	</node>
	<node id="-535629" lat="61.5860805521" lon="5.88624722911">
		<tag k="name" v="Skorane" />
		<tag k="natural" v="valley" />
		<tag k="place" v="locality" />
		<tag k="ssr:stedsnr" v="589798" />
	</node>
	<node id="-535628" lat="61.5910666705" lon="5.9139611083">
		<tag k="name" v="Rognelia" />
		<tag k="natural" v="slope" />
		<tag k="place" v="locality" />
		<tag k="ssr:stedsnr" v="589789" />
	</node>
	<node id="-535627" lat="61.5857166634" lon="5.91976666521">
		<tag k="name" v="Blåhammaren" />
		<tag k="natural" v="hill" />
		<tag k="place" v="locality" />
		<tag k="ssr:stedsnr" v="589785" />
	</node>
	<node id="-535626" lat="61.5798777802" lon="5.7458388869">
		<tag k="name" v="Rusthaugen" />
		<tag k="natural" v="hill" />
		<tag k="place" v="locality" />
		<tag k="ssr:stedsnr" v="589753" />
	</node>
	<node id="-535625" lat="61.5702222253" lon="5.71924723044">
		<tag k="fixme" v="consider natural=peak for the most distinct mountains in the district" />
		<tag k="name" v="Hestienden" />
		<tag k="natural" v="hill" />
		<tag k="place" v="locality" />
		<tag k="ssr:stedsnr" v="589704" />
	</node>
	<node id="-535624" lat="61.6110444461" lon="6.00669999408">
		<tag k="name" v="Rognaldkleiva" />
		<tag k="natural" v="slope" />
		<tag k="place" v="locality" />
		<tag k="ssr:stedsnr" v="589644" />
	</node>
	<node id="-535623" lat="61.6095999992" lon="6.01152499849">
		<tag k="name" v="Leitebakkane" />
		<tag k="natural" v="slope" />
		<tag k="place" v="locality" />
		<tag k="ssr:stedsnr" v="589643" />
	</node>
	<node id="-535622" lat="61.6103416705" lon="6.04246666408">
		<tag k="name" v="Rupehaugen" />
		<tag k="natural" v="hill" />
		<tag k="place" v="locality" />
		<tag k="ssr:stedsnr" v="589641" />
	</node>
	<node id="-535621" lat="61.608094442" lon="6.02078055654">
		<tag k="fixme" v="consider natural=peak for the most distinct mountains in the district" />
		<tag k="name" v="Ropeholten" />
		<tag k="natural" v="hill" />
		<tag k="place" v="locality" />
		<tag k="ssr:stedsnr" v="589636" />
	</node>
	<node id="-535620" lat="61.5848361143" lon="5.80564722967">
		<tag k="name" v="Seten" />
		<tag k="natural" v="slope" />
		<tag k="place" v="locality" />
		<tag k="ssr:stedsnr" v="589627" />
	</node>
	<node id="-535619" lat="61.5908805566" lon="5.95708888817">
		<tag k="name" v="Svarthammaren" />
		<tag k="natural" v="hill" />
		<tag k="place" v="locality" />
		<tag k="ssr:stedsnr" v="589612" />
	</node>
	<node id="-535618" lat="61.5885694437" lon="5.80079722829">
		<tag k="name" v="Reshammaren" />
		<tag k="natural" v="hill" />
		<tag k="place" v="locality" />
		<tag k="ssr:stedsnr" v="589601" />
	</node>
	<node id="-535616" lat="61.5923159084" lon="6.08231719081">
		<tag k="name" v="Rundebotnbrekka" />
		<tag k="natural" v="slope" />
		<tag k="place" v="locality" />
		<tag k="ssr:stedsnr" v="589574" />
	</node>
	<node id="-535615" lat="61.5754555511" lon="5.76696666544">
		<tag k="name" v="Bjørnehaugen" />
		<tag k="natural" v="hill" />
		<tag k="place" v="locality" />
		<tag k="ssr:stedsnr" v="589564" />
	</node>
	<node id="-535612" lat="61.6048638875" lon="5.96070000395">
		<tag k="name" v="Blåfjellsbakkane" />
		<tag k="natural" v="slope" />
		<tag k="place" v="locality" />
		<tag k="ssr:stedsnr" v="589499" />
	</node>
	<node id="-535611" lat="61.5463166645" lon="5.98543889221">
		<tag k="name" v="Stølsskora" />
		<tag k="natural" v="valley" />
		<tag k="place" v="locality" />
		<tag k="ssr:stedsnr" v="589484" />
	</node>
	<node id="-535610" lat="61.5396611079" lon="5.94995555287">
		<tag k="name" v="Krunene" />
		<tag k="natural" v="hill" />
		<tag k="place" v="locality" />
		<tag k="ssr:stedsnr" v="589482" />
	</node>
	<node id="-535609" lat="61.5444805551" lon="5.6827249964">
		<tag k="name" v="Styggelia" />
		<tag k="natural" v="slope" />
		<tag k="place" v="locality" />
		<tag k="ssr:stedsnr" v="589471" />
	</node>
	<node id="-535608" lat="61.5634194415" lon="5.9448694354">
		<tag k="fixme" v="consider natural=peak for the most distinct mountains in the district" />
		<tag k="name" v="Skaflestadfjellet" />
		<tag k="natural" v="hill" />
		<tag k="place" v="locality" />
		<tag k="ssr:stedsnr" v="589464" />
	</node>
	<node id="-535606" lat="61.5684916651" lon="5.95849443875">
		<tag k="name" v="Tverrgjelet" />
		<tag k="natural" v="gorge" />
		<tag k="ssr:stedsnr" v="589447" />
	</node>
	<node id="-535605" lat="61.5649416694" lon="5.96486666168">
		<tag k="name" v="Reinegjelet" />
		<tag k="natural" v="gorge" />
		<tag k="ssr:stedsnr" v="589439" />
	</node>
	<node id="-535604" lat="61.5368694486" lon="5.63596667331">
		<tag k="name" v="Briterabben" />
		<tag k="natural" v="hill" />
		<tag k="place" v="locality" />
		<tag k="ssr:stedsnr" v="589428" />
	</node>
	<node id="-535603" lat="61.5360194411" lon="5.6578611184">
		<tag k="name" v="Moseheia" />
		<tag k="natural" v="hill" />
		<tag k="place" v="locality" />
		<tag k="ssr:stedsnr" v="589425" />
	</node>
	<node id="-535602" lat="61.5346722254" lon="5.64543332742">
		<tag k="fixme" v="consider natural=peak for the most distinct mountains in the district" />
		<tag k="name" v="Fessefjellet" />
		<tag k="natural" v="hill" />
		<tag k="place" v="locality" />
		<tag k="ssr:stedsnr" v="589421" />
	</node>
	<node id="-535601" lat="61.5298083301" lon="5.86006943803">
		<tag k="fixme" v="consider natural=peak for the most distinct mountains in the district" />
		<tag k="name" v="Roteliholten" />
		<tag k="natural" v="hill" />
		<tag k="place" v="locality" />
		<tag k="ssr:stedsnr" v="589410" />
	</node>
	<node id="-535600" lat="61.5447277756" lon="5.66873055475">
		<tag k="name" v="Norehjelldalen" />
		<tag k="natural" v="valley" />
		<tag k="place" v="locality" />
		<tag k="ssr:stedsnr" v="589396" />
	</node>
	<node id="-535599" lat="61.5901638852" lon="6.01245832581">
		<tag k="name" v="Botnen" />
		<tag k="natural" v="valley" />
		<tag k="place" v="locality" />
		<tag k="ssr:stedsnr" v="589388" />
	</node>
	<node id="-535598" lat="61.5835222255" lon="6.00503056077">
		<tag k="name" v="Styggebakken" />
		<tag k="natural" v="slope" />
		<tag k="place" v="locality" />
		<tag k="ssr:stedsnr" v="589385" />
	</node>
	<node id="-535596" lat="61.5027694434" lon="5.30174999868">
		<tag k="name" v="Rabbehola" />
		<tag k="natural" v="gorge" />
		<tag k="ssr:stedsnr" v="589300" />
	</node>
	<node id="-535594" lat="61.5023805539" lon="5.48191388378">
		<tag k="fixme" v="consider natural=peak for the most distinct mountains in the district" />
		<tag k="name" v="Høgenipa" />
		<tag k="natural" v="hill" />
		<tag k="place" v="locality" />
		<tag k="ssr:stedsnr" v="589244" />
	</node>
	<node id="-535593" lat="61.4965055538" lon="5.461705565">
		<tag k="name" v="Gjerde" />
		<tag k="natural" v="slope" />
		<tag k="place" v="locality" />
		<tag k="ssr:stedsnr" v="589242" />
	</node>
	<node id="-535592" lat="61.4961027782" lon="5.4664833274">
		<tag k="name" v="Breiskora" />
		<tag k="natural" v="valley" />
		<tag k="place" v="locality" />
		<tag k="ssr:stedsnr" v="589238" />
	</node>
	<node id="-535591" lat="61.4959055541" lon="5.39418056433">
		<tag k="name" v="Furehaugane" />
		<tag k="natural" v="hill" />
		<tag k="place" v="locality" />
		<tag k="ssr:stedsnr" v="589185" />
	</node>
	<node id="-535590" lat="61.4934666702" lon="5.61385278278">
		<tag k="name" v="Tjørehjellen" />
		<tag k="place" v="locality" />
		<tag k="ssr:stedsnr" v="589152" />
	</node>
	<node id="-535589" lat="61.4837194458" lon="5.47671945156">
		<tag k="name" v="Verpedalen" />
		<tag k="natural" v="valley" />
		<tag k="place" v="locality" />
		<tag k="ssr:stedsnr" v="589128" />
	</node>
	<node id="-535588" lat="61.4885527808" lon="5.51513055494">
		<tag k="name" v="Midthaugane" />
		<tag k="natural" v="hill" />
		<tag k="place" v="locality" />
		<tag k="ssr:stedsnr" v="589085" />
	</node>
	<node id="-535587" lat="61.4967249998" lon="5.4922694534">
		<tag k="name" v="Løbrotet" />
		<tag k="natural" v="slope" />
		<tag k="place" v="locality" />
		<tag k="ssr:stedsnr" v="589058" />
	</node>
	<node id="-535586" lat="61.4968888911" lon="5.50603056351">
		<tag k="name" v="Småhamrane" />
		<tag k="natural" v="hill" />
		<tag k="place" v="locality" />
		<tag k="ssr:stedsnr" v="589057" />
	</node>
	<node id="-535585" lat="61.5251861156" lon="5.68594444703">
		<tag k="name" v="Finnskjeggebakkane" />
		<tag k="natural" v="slope" />
		<tag k="place" v="locality" />
		<tag k="ssr:stedsnr" v="589044" />
	</node>
	<node id="-535584" lat="61.4969722249" lon="5.56346389019">
		<tag k="name" v="Rognelia" />
		<tag k="natural" v="slope" />
		<tag k="place" v="locality" />
		<tag k="ssr:stedsnr" v="589031" />
	</node>
	<node id="-535582" lat="61.5413805557" lon="5.66223056308">
		<tag k="name" v="Sørehjelldalen" />
		<tag k="natural" v="valley" />
		<tag k="place" v="locality" />
		<tag k="ssr:stedsnr" v="588411" />
	</node>
	<node id="-535581" lat="61.5905499993" lon="5.99315276929">
		<tag k="name" v="Holten" />
		<tag k="natural" v="hill" />
		<tag k="place" v="locality" />
		<tag k="ssr:stedsnr" v="583373" />
	</node>
	<node id="-535580" lat="61.5730750018" lon="5.72272221934">
		<tag k="alt_name" v="Heia" />
		<tag k="name" v="Ramsdalsheia" />
		<tag k="natural" v="hill" />
		<tag k="place" v="locality" />
		<tag k="ssr:stedsnr" v="573563" />
	</node>
	<node id="-535578" lat="61.5198277816" lon="5.66928610233">
		<tag k="name" v="Stølsdalen" />
		<tag k="natural" v="valley" />
		<tag k="place" v="locality" />
		<tag k="ssr:stedsnr" v="565718" />
	</node>
	<node id="-535576" lat="61.6484583302" lon="6.19359444021">
		<tag k="fixme" v="consider natural=peak for the most distinct mountains in the district" />
		<tag k="name" v="Blåfjellet" />
		<tag k="natural" v="hill" />
		<tag k="place" v="locality" />
		<tag k="ssr:stedsnr" v="555674" />
	</node>
	<node id="-535575" lat="61.6077083345" lon="6.07269444396">
		<tag k="name" v="Dalane" />
		<tag k="natural" v="valley" />
		<tag k="place" v="locality" />
		<tag k="ssr:stedsnr" v="555218" />
	</node>
	<node id="-535574" lat="61.617172221" lon="5.93119722238">
		<tag k="alt_name" v="Kvangredalen" />
		<tag k="name" v="Kvanngrødalen" />
		<tag k="natural" v="valley" />
		<tag k="place" v="locality" />
		<tag k="ssr:stedsnr" v="555212" />
	</node>
	<node id="-535573" lat="61.5873722181" lon="6.12909445262">
		<tag k="name" v="Rimmakupa" />
		<tag k="natural" v="valley" />
		<tag k="place" v="locality" />
		<tag k="ssr:stedsnr" v="555192" />
	</node>
	<node id="-535572" lat="61.5853305556" lon="6.01576667298">
		<tag k="name" v="Gardadalen" />
		<tag k="natural" v="valley" />
		<tag k="place" v="locality" />
		<tag k="ssr:stedsnr" v="555191" />
	</node>
	<node id="-535568" lat="61.4671055581" lon="5.58303056133">
		<tag k="name" v="Ramelfjellet" />
		<tag k="natural" v="ridge" />
		<tag k="place" v="locality" />
		<tag k="ssr:stedsnr" v="554699" />
	</node>
	<node id="-535566" lat="61.4569249974" lon="5.49061111121">
		<tag k="name" v="Ramsdalen" />
		<tag k="natural" v="valley" />
		<tag k="place" v="locality" />
		<tag k="ssr:stedsnr" v="554683" />
	</node>
	<node id="-535565" lat="61.5035055544" lon="5.26692500487">
		<tag k="fixme" v="consider natural=peak for the most distinct mountains in the district" />
		<tag k="name" v="Bruneskarholten" />
		<tag k="natural" v="hill" />
		<tag k="place" v="locality" />
		<tag k="ssr:stedsnr" v="554669" />
	</node>
	<node id="-535563" lat="61.4901000012" lon="5.53653610508">
		<tag k="name" v="Furehauglia" />
		<tag k="natural" v="slope" />
		<tag k="place" v="locality" />
		<tag k="ssr:stedsnr" v="554553" />
	</node>
	<node id="-535557" lat="61.5130861113" lon="5.81011389706">
		<tag k="fixme" v="consider natural=peak for the most distinct mountains in the district" />
		<tag k="name" v="Espenipa" />
		<tag k="natural" v="hill" />
		<tag k="place" v="locality" />
		<tag k="ssr:stedsnr" v="554390" />
	</node>
	<node id="-535554" lat="61.4767555564" lon="5.48112499745">
		<tag k="alt_name" v="Gjøringbøfjellet" />
		<tag k="fixme" v="consider natural=peak for the most distinct mountains in the district" />
		<tag k="name" v="Gjøringebøfjellet" />
		<tag k="natural" v="hill" />
		<tag k="place" v="locality" />
		<tag k="ssr:stedsnr" v="553748" />
	</node>
	<node id="-535549" lat="61.4975750014" lon="5.55636943504">
		<tag k="fixme" v="consider natural=peak for the most distinct mountains in the district" />
		<tag k="name" v="Holten" />
		<tag k="natural" v="hill" />
		<tag k="place" v="locality" />
		<tag k="ssr:stedsnr" v="553489" />
	</node>
	<node id="-535548" lat="61.4966194407" lon="5.52257500604">
		<tag k="alt_name" v="Skafjellet" />
		<tag k="fixme" v="consider natural=peak for the most distinct mountains in the district" />
		<tag k="name" v="Skadfjellet" />
		<tag k="natural" v="hill" />
		<tag k="place" v="locality" />
		<tag k="ssr:stedsnr" v="553487" />
	</node>
	<node id="-535543" lat="61.4988166676" lon="5.42294166803">
		<tag k="fixme" v="consider natural=peak for the most distinct mountains in the district" />
		<tag k="name" v="Lindabotnsfjellet" />
		<tag k="natural" v="hill" />
		<tag k="place" v="locality" />
		<tag k="ssr:stedsnr" v="530283" />
	</node>
	<node id="-535542" lat="61.5021694417" lon="5.41053610584">
		<tag k="fixme" v="consider natural=peak for the most distinct mountains in the district" />
		<tag k="name" v="Blåfjellet" />
		<tag k="natural" v="hill" />
		<tag k="place" v="locality" />
		<tag k="ssr:stedsnr" v="530278" />
	</node>
	<node id="-535541" lat="61.4991972246" lon="5.40451388623">
		<tag k="name" v="Timreskora" />
		<tag k="natural" v="valley" />
		<tag k="place" v="locality" />
		<tag k="ssr:stedsnr" v="530269" />
	</node>
	<node id="-535539" lat="61.5499861106" lon="5.86280277892">
		<tag k="name" v="Barbrolia" />
		<tag k="natural" v="slope" />
		<tag k="place" v="locality" />
		<tag k="ssr:stedsnr" v="529955" />
	</node>
	<node id="-535538" lat="61.465702779" lon="5.49941388018">
		<tag k="fixme" v="consider natural=peak for the most distinct mountains in the district" />
		<tag k="name" v="Holten" />
		<tag k="natural" v="hill" />
		<tag k="place" v="locality" />
		<tag k="ssr:stedsnr" v="529941" />
	</node>
	<node id="-535537" lat="61.5342555557" lon="5.84571666852">
		<tag k="name" v="Nakken" />
		<tag k="natural" v="slope" />
		<tag k="place" v="locality" />
		<tag k="ssr:stedsnr" v="529935" />
	</node>
	<node id="-535536" lat="61.5499361083" lon="5.77671944907">
		<tag k="name" v="Kreken" />
		<tag k="natural" v="slope" />
		<tag k="place" v="locality" />
		<tag k="ssr:stedsnr" v="529933" />
	</node>
	<node id="-535534" lat="61.5158138907" lon="5.69407777148">
		<tag k="name" v="Reinene" />
		<tag k="natural" v="hill" />
		<tag k="place" v="locality" />
		<tag k="ssr:stedsnr" v="529885" />
	</node>
	<node id="-535533" lat="61.5252972265" lon="5.70398333855">
		<tag k="name" v="Liafjell" />
		<tag k="natural" v="hill" />
		<tag k="place" v="locality" />
		<tag k="ssr:stedsnr" v="529883" />
	</node>
	<node id="-535532" lat="61.5193222185" lon="5.77458888416">
		<tag k="name" v="Leite" />
		<tag k="place" v="locality" />
		<tag k="ssr:stedsnr" v="529876" />
	</node>
	<node id="-535531" lat="61.6022333357" lon="5.81411666146">
		<tag k="name" v="Midthaugane" />
		<tag k="natural" v="hill" />
		<tag k="place" v="locality" />
		<tag k="ssr:stedsnr" v="529870" />
	</node>
	<node id="-535530" lat="61.5107111072" lon="5.70985833557">
		<tag k="name" v="Bakstudalen" />
		<tag k="natural" v="valley" />
		<tag k="place" v="locality" />
		<tag k="ssr:stedsnr" v="529826" />
	</node>
	<node id="-535529" lat="61.5189277816" lon="5.79281666019">
		<tag k="name" v="Sand" />
		<tag k="place" v="locality" />
		<tag k="ssr:stedsnr" v="529813" />
	</node>
	<node id="-535528" lat="61.5812583295" lon="5.81733054963">
		<tag k="name" v="Årebruket" />
		<tag k="natural" v="slope" />
		<tag k="place" v="locality" />
		<tag k="ssr:stedsnr" v="529811" />
	</node>
	<node id="-535526" lat="61.6087611153" lon="5.92196388806">
		<tag k="name" v="Vierunnane" />
		<tag k="natural" v="slope" />
		<tag k="place" v="locality" />
		<tag k="ssr:stedsnr" v="529799" />
	</node>
	<node id="-535525" lat="61.5895999983" lon="5.92818610255">
		<tag k="name" v="Ormebakkane" />
		<tag k="natural" v="slope" />
		<tag k="place" v="locality" />
		<tag k="ssr:stedsnr" v="529792" />
	</node>
	<node id="-535524" lat="61.6055027824" lon="5.99372778287">
		<tag k="name" v="Ospelia" />
		<tag k="natural" v="slope" />
		<tag k="place" v="locality" />
		<tag k="ssr:stedsnr" v="529587" />
	</node>
	<node id="-535523" lat="61.604175004" lon="5.99672499769">
		<tag k="name" v="Ospebotnen" />
		<tag k="natural" v="valley" />
		<tag k="place" v="locality" />
		<tag k="ssr:stedsnr" v="529586" />
	</node>
	<node id="-535522" lat="61.5725555574" lon="5.95663889041">
		<tag k="name" v="Trongane" />
		<tag k="natural" v="valley" />
		<tag k="place" v="locality" />
		<tag k="ssr:stedsnr" v="529487" />
	</node>
	<node id="-535519" lat="61.580580553" lon="6.01736667415">
		<tag k="name" v="Trangelia" />
		<tag k="natural" v="slope" />
		<tag k="place" v="locality" />
		<tag k="ssr:stedsnr" v="529389" />
	</node>
	<node id="-535518" lat="61.5060583331" lon="5.33245277493">
		<tag k="name" v="Nipa" />
		<tag k="natural" v="hill" />
		<tag k="place" v="locality" />
		<tag k="ssr:stedsnr" v="529240" />
	</node>
	<node id="-535517" lat="61.5048749971" lon="5.43320556437">
		<tag k="name" v="Skobbegeitsbakkane" />
		<tag k="natural" v="slope" />
		<tag k="place" v="locality" />
		<tag k="ssr:stedsnr" v="529193" />
	</node>
	<node id="-535516" lat="61.4887277756" lon="5.61986944377">
		<tag k="name" v="Øvstehaugen" />
		<tag k="natural" v="hill" />
		<tag k="place" v="locality" />
		<tag k="ssr:stedsnr" v="529192" />
	</node>
	<node id="-535515" lat="61.4979694489" lon="5.44585000477">
		<tag k="name" v="Furehaugane" />
		<tag k="natural" v="hill" />
		<tag k="place" v="locality" />
		<tag k="ssr:stedsnr" v="529190" />
	</node>
	<node id="-535513" lat="61.4784777736" lon="5.47661110535">
		<tag k="name" v="Berrskora" />
		<tag k="natural" v="hill" />
		<tag k="place" v="locality" />
		<tag k="ssr:stedsnr" v="529091" />
	</node>
	<node id="-535512" lat="61.4701972218" lon="5.53537223085">
		<tag k="name" v="Bjørnahaugen" />
		<tag k="natural" v="hill" />
		<tag k="place" v="locality" />
		<tag k="ssr:stedsnr" v="529080" />
	</node>
	<node id="-535511" lat="61.5665416656" lon="5.91491943726">
		<tag k="name" v="Stølshaugen" />
		<tag k="natural" v="hill" />
		<tag k="place" v="locality" />
		<tag k="ssr:stedsnr" v="528994" />
	</node>
	<node id="-535510" lat="61.5702333293" lon="5.88471665921">
		<tag k="name" v="Langhammaren" />
		<tag k="natural" v="hill" />
		<tag k="place" v="locality" />
		<tag k="ssr:stedsnr" v="528961" />
	</node>
	<node id="-535509" lat="61.5689999961" lon="5.88938888583">
		<tag k="name" v="Middagsva" />
		<tag k="natural" v="hill" />
		<tag k="place" v="locality" />
		<tag k="ssr:stedsnr" v="528958" />
	</node>
	<node id="-535507" lat="61.5622083336" lon="5.85143610703">
		<tag k="name" v="Setane" />
		<tag k="place" v="locality" />
		<tag k="ssr:stedsnr" v="528916" />
	</node>
	<node id="-535506" lat="61.5911472235" lon="5.86855555647">
		<tag k="fixme" v="consider natural=peak for the most distinct mountains in the district" />
		<tag k="name" v="Reinåsen" />
		<tag k="natural" v="hill" />
		<tag k="place" v="locality" />
		<tag k="ssr:stedsnr" v="528790" />
	</node>
	<node id="-535504" lat="61.463266667" lon="5.47891945044">
		<tag k="name" v="Ørnepiken" />
		<tag k="natural" v="hill" />
		<tag k="place" v="locality" />
		<tag k="ssr:stedsnr" v="528786" />
	</node>
	<node id="-535502" lat="61.5863194481" lon="5.82704444351">
		<tag k="name" v="Slettelihamrane" />
		<tag k="natural" v="hill" />
		<tag k="place" v="locality" />
		<tag k="ssr:stedsnr" v="528768" />
	</node>
	<node id="-535501" lat="61.5580944451" lon="5.72494722493">
		<tag k="name" v="Solheimsstigen" />
		<tag k="natural" v="hill" />
		<tag k="place" v="locality" />
		<tag k="ssr:stedsnr" v="528703" />
	</node>
	<node id="-535500" lat="61.6036916706" lon="6.02719165993">
		<tag k="name" v="Grønlia" />
		<tag k="natural" v="slope" />
		<tag k="place" v="locality" />
		<tag k="ssr:stedsnr" v="528657" />
	</node>
	<node id="-535499" lat="61.599080554" lon="6.04181389371">
		<tag k="name" v="Gamlestølslia" />
		<tag k="natural" v="slope" />
		<tag k="place" v="locality" />
		<tag k="ssr:stedsnr" v="528658" />
	</node>
	<node id="-535498" lat="61.4624916656" lon="5.51984999525">
		<tag k="name" v="Brekka" />
		<tag k="natural" v="valley" />
		<tag k="place" v="locality" />
		<tag k="ssr:stedsnr" v="528645" />
	</node>
	<node id="-535497" lat="61.5142138892" lon="5.82015278481">
		<tag k="name" v="Middagslia" />
		<tag k="natural" v="slope" />
		<tag k="place" v="locality" />
		<tag k="ssr:stedsnr" v="528635" />
	</node>
	<node id="-535496" lat="61.6073555588" lon="5.93461388043">
		<tag k="name" v="Klubblia" />
		<tag k="natural" v="slope" />
		<tag k="place" v="locality" />
		<tag k="ssr:stedsnr" v="528553" />
	</node>
	<node id="-535494" lat="61.5604388914" lon="5.98023333417">
		<tag k="fixme" v="consider natural=peak for the most distinct mountains in the district" />
		<tag k="name" v="Langeremma" />
		<tag k="natural" v="hill" />
		<tag k="place" v="locality" />
		<tag k="ssr:stedsnr" v="528527" />
	</node>
	<node id="-535492" lat="61.517383333" lon="5.83777221423">
		<tag k="name" v="Setane" />
		<tag k="natural" v="hill" />
		<tag k="place" v="locality" />
		<tag k="ssr:stedsnr" v="528474" />
	</node>
	<node id="-535491" lat="61.4987055581" lon="5.35418054861">
		<tag k="name" v="Stølsdalen" />
		<tag k="natural" v="valley" />
		<tag k="place" v="locality" />
		<tag k="ssr:stedsnr" v="528413" />
	</node>
	<node id="-535490" lat="61.5102444415" lon="5.37914999416">
		<tag k="name" v="Fagerdalen" />
		<tag k="natural" v="valley" />
		<tag k="place" v="locality" />
		<tag k="ssr:stedsnr" v="528391" />
	</node>
	<node id="-535489" lat="61.5009833327" lon="5.38090832959">
		<tag k="name" v="Skorane" />
		<tag k="natural" v="hill" />
		<tag k="place" v="locality" />
		<tag k="ssr:stedsnr" v="528389" />
	</node>
	<node id="-535488" lat="61.4675805545" lon="5.53173888424">
		<tag k="name" v="Hjellen" />
		<tag k="place" v="locality" />
		<tag k="ssr:stedsnr" v="528363" />
	</node>
	<node id="-535487" lat="61.4867222225" lon="5.6410888817">
		<tag k="name" v="Bøfjellet" />
		<tag k="natural" v="hill" />
		<tag k="place" v="locality" />
		<tag k="ssr:stedsnr" v="528144" />
	</node>
	<node id="-535485" lat="61.4672166683" lon="5.54001666419">
		<tag k="name" v="Vedahaugen" />
		<tag k="natural" v="hill" />
		<tag k="place" v="locality" />
		<tag k="ssr:stedsnr" v="527430" />
	</node>
	<node id="-535483" lat="61.5044305577" lon="5.51864722895">
		<tag k="name" v="Krokebotnen" />
		<tag k="natural" v="valley" />
		<tag k="place" v="locality" />
		<tag k="ssr:stedsnr" v="529050" />
	</node>
	<node id="-535481" lat="61.4981444489" lon="5.56746389378">
		<tag k="fixme" v="consider natural=peak for the most distinct mountains in the district" />
		<tag k="name" v="Rognelifjellet" />
		<tag k="natural" v="hill" />
		<tag k="place" v="locality" />
		<tag k="ssr:stedsnr" v="529023" />
	</node>
	<node id="-535480" lat="61.5097833337" lon="5.61756667212">
		<tag k="name" v="Vassbotnen" />
		<tag k="natural" v="valley" />
		<tag k="place" v="locality" />
		<tag k="ssr:stedsnr" v="529018" />
	</node>
	<node id="-535478" lat="61.4924527773" lon="5.55221389188">
		<tag k="name" v="Botnen" />
		<tag k="natural" v="valley" />
		<tag k="place" v="locality" />
		<tag k="ssr:stedsnr" v="529010" />
	</node>
	<node id="-535477" lat="61.5917916653" lon="5.99494166956">
		<tag k="name" v="Nova" />
		<tag k="natural" v="hill" />
		<tag k="place" v="locality" />
		<tag k="ssr:stedsnr" v="523434" />
	</node>
	<node id="-535476" lat="61.6326499985" lon="5.99821111163">
		<tag k="name" v="Grønlihola" />
		<tag k="natural" v="valley" />
		<tag k="place" v="locality" />
		<tag k="ssr:stedsnr" v="518445" />
	</node>
	<node id="-535472" lat="61.5693333326" lon="5.72313333298">
		<tag k="fixme" v="consider natural=peak for the most distinct mountains in the district" />
		<tag k="name" v="Hesteheia" />
		<tag k="natural" v="hill" />
		<tag k="place" v="locality" />
		<tag k="ssr:stedsnr" v="505722" />
	</node>
	<node id="-535471" lat="61.5907611125" lon="5.80937777467">
		<tag k="name" v="Nordlia" />
		<tag k="natural" v="slope" />
		<tag k="place" v="locality" />
		<tag k="ssr:stedsnr" v="505716" />
	</node>
	<node id="-535470" lat="61.5338083313" lon="5.7171250077">
		<tag k="fixme" v="consider natural=peak for the most distinct mountains in the district" />
		<tag k="name" v="Kletten" />
		<tag k="natural" v="hill" />
		<tag k="place" v="locality" />
		<tag k="ssr:stedsnr" v="505713" />
	</node>
	<node id="-535469" lat="61.5545694443" lon="5.71471389586">
		<tag k="name" v="Kletten" />
		<tag k="natural" v="hill" />
		<tag k="place" v="locality" />
		<tag k="ssr:stedsnr" v="505704" />
	</node>
	<node id="-535467" lat="61.5301055539" lon="5.88520555891">
		<tag k="name" v="Grimsetelia" />
		<tag k="natural" v="slope" />
		<tag k="place" v="locality" />
		<tag k="ssr:stedsnr" v="495201" />
	</node>
	<node id="-535463" lat="61.4769500043" lon="5.61862499397">
		<tag k="name" v="Langedalen" />
		<tag k="natural" v="valley" />
		<tag k="place" v="locality" />
		<tag k="ssr:stedsnr" v="494513" />
	</node>
	<node id="-535462" lat="61.6151055519" lon="6.04240833105">
		<tag k="fixme" v="consider natural=peak for the most distinct mountains in the district" />
		<tag k="name" v="Vonafjellet" />
		<tag k="natural" v="hill" />
		<tag k="place" v="locality" />
		<tag k="ssr:stedsnr" v="494239" />
	</node>
	<node id="-535461" lat="61.6133833299" lon="6.14426667022">
		<tag k="fixme" v="consider natural=peak for the most distinct mountains in the district" />
		<tag k="name" v="Lofthusfjellet" />
		<tag k="natural" v="hill" />
		<tag k="place" v="locality" />
		<tag k="ssr:stedsnr" v="494233" />
	</node>
	<node id="-535460" lat="61.592447218" lon="5.88231943606">
		<tag k="fixme" v="multiple name tags, choose one and add the other to alt_name; consider natural=peak for the most distinct mountains in the district" />
		<tag k="name" v="Gjuvra;Nakken;Savlandsfjellet" />
		<tag k="natural" v="hill" />
		<tag k="place" v="locality" />
		<tag k="ssr:stedsnr" v="494227" />
	</node>
	<node id="-535457" lat="61.5866472199" lon="6.01405555644">
		<tag k="fixme" v="consider natural=peak for the most distinct mountains in the district" />
		<tag k="name" v="Knolten" />
		<tag k="natural" v="hill" />
		<tag k="place" v="locality" />
		<tag k="ssr:stedsnr" v="494196" />
	</node>
	<node id="-535454" lat="61.4903999973" lon="5.61353611704">
		<tag k="name" v="Bjørndalen" />
		<tag k="natural" v="valley" />
		<tag k="place" v="locality" />
		<tag k="ssr:stedsnr" v="493765" />
	</node>
	<node id="-535453" lat="61.4769027739" lon="5.56400832593">
		<tag k="fixme" v="consider natural=peak for the most distinct mountains in the district" />
		<tag k="name" v="Orkja" />
		<tag k="natural" v="hill" />
		<tag k="place" v="locality" />
		<tag k="ssr:stedsnr" v="493714" />
	</node>
	<node id="-535452" lat="61.4697055516" lon="5.56504722153">
		<tag k="name" v="Kletten" />
		<tag k="natural" v="hill" />
		<tag k="place" v="locality" />
		<tag k="ssr:stedsnr" v="493709" />
	</node>
	<node id="-535450" lat="61.4662222267" lon="5.57700555239">
		<tag k="fixme" v="consider natural=peak for the most distinct mountains in the district" />
		<tag k="name" v="Litlefjellet" />
		<tag k="natural" v="hill" />
		<tag k="place" v="locality" />
		<tag k="ssr:stedsnr" v="493668" />
	</node>
	<node id="-535447" lat="61.4911055536" lon="5.56276110474">
		<tag k="name" v="Botnen" />
		<tag k="natural" v="valley" />
		<tag k="place" v="locality" />
		<tag k="ssr:stedsnr" v="493507" />
	</node>
	<node id="-535445" lat="61.4981916656" lon="5.53422778221">
		<tag k="alt_name" v="Nasekråna" />
		<tag k="name" v="Nasakråna" />
		<tag k="natural" v="valley" />
		<tag k="place" v="locality" />
		<tag k="ssr:stedsnr" v="493495" />
	</node>
	<node id="-535442" lat="61.5339805563" lon="5.76294722625">
		<tag k="alt_name" v="Raudhaugane" />
		<tag k="name" v="Rundhaugen" />
		<tag k="natural" v="hill" />
		<tag k="place" v="locality" />
		<tag k="ssr:stedsnr" v="493400" />
	</node>
	<node id="-535440" lat="61.508099996" lon="5.61269999848">
		<tag k="fixme" v="consider natural=peak for the most distinct mountains in the district" />
		<tag k="name" v="Heia" />
		<tag k="natural" v="hill" />
		<tag k="place" v="locality" />
		<tag k="ssr:stedsnr" v="493369" />
	</node>
	<node id="-535439" lat="61.4979916648" lon="5.41638888297">
		<tag k="fixme" v="consider natural=peak for the most distinct mountains in the district" />
		<tag k="name" v="Rindane" />
		<tag k="natural" v="hill" />
		<tag k="place" v="locality" />
		<tag k="ssr:stedsnr" v="493018" />
	</node>
	<node id="-535437" lat="61.4872833307" lon="5.55085277806">
		<tag k="alt_name" v="Borafjellet" />
		<tag k="fixme" v="consider natural=peak for the most distinct mountains in the district" />
		<tag k="name" v="Byrdafjellet" />
		<tag k="natural" v="hill" />
		<tag k="place" v="locality" />
		<tag k="ssr:stedsnr" v="492709" />
	</node>
	<node id="-535433" lat="61.5517416623" lon="5.7220444408">
		<tag k="name" v="Myrbærholene" />
		<tag k="natural" v="gorge" />
		<tag k="ssr:stedsnr" v="468988" />
	</node>
	<node id="-535432" lat="61.5529499968" lon="5.73963611333">
		<tag k="fixme" v="consider natural=peak for the most distinct mountains in the district" />
		<tag k="name" v="Skolten" />
		<tag k="natural" v="hill" />
		<tag k="place" v="locality" />
		<tag k="ssr:stedsnr" v="468940" />
	</node>
	<node id="-535431" lat="61.5438694478" lon="5.77686666102">
		<tag k="name" v="Hushaughaugen" />
		<tag k="natural" v="hill" />
		<tag k="place" v="locality" />
		<tag k="ssr:stedsnr" v="468924" />
	</node>
	<node id="-535429" lat="61.5370638885" lon="5.83411943706">
		<tag k="name" v="Kvamslia" />
		<tag k="natural" v="slope" />
		<tag k="place" v="locality" />
		<tag k="ssr:stedsnr" v="468897" />
	</node>
	<node id="-535428" lat="61.6072055602" lon="5.89455556129">
		<tag k="name" v="Vindalsnova" />
		<tag k="natural" v="hill" />
		<tag k="place" v="locality" />
		<tag k="ssr:stedsnr" v="468864" />
	</node>
	<node id="-535427" lat="61.5048250039" lon="5.77250276835">
		<tag k="name" v="Brendehaugen" />
		<tag k="natural" v="hill" />
		<tag k="place" v="locality" />
		<tag k="ssr:stedsnr" v="468812" />
	</node>
	<node id="-535426" lat="61.509763889" lon="5.68432500307">
		<tag k="alt_name" v="Bjørnhovdane" />
		<tag k="fixme" v="consider natural=peak for the most distinct mountains in the district" />
		<tag k="name" v="Bjørnhovda" />
		<tag k="natural" v="hill" />
		<tag k="place" v="locality" />
		<tag k="ssr:stedsnr" v="468806" />
	</node>
	<node id="-535425" lat="61.5882555552" lon="5.83186943517">
		<tag k="name" v="Trongane" />
		<tag k="natural" v="valley" />
		<tag k="place" v="locality" />
		<tag k="ssr:stedsnr" v="468795" />
	</node>
	<node id="-535423" lat="61.590069446" lon="5.88888055411">
		<tag k="name" v="Danielbotnen" />
		<tag k="natural" v="valley" />
		<tag k="place" v="locality" />
		<tag k="ssr:stedsnr" v="468788" />
	</node>
	<node id="-535420" lat="61.5942888884" lon="5.95709722685">
		<tag k="fixme" v="consider natural=peak for the most distinct mountains in the district" />
		<tag k="name" v="Teigafjell" />
		<tag k="natural" v="hill" />
		<tag k="place" v="locality" />
		<tag k="ssr:stedsnr" v="468601" />
	</node>
	<node id="-535419" lat="61.5167916683" lon="5.8169222135">
		<tag k="name" v="Gråhammaren" />
		<tag k="natural" v="hill" />
		<tag k="place" v="locality" />
		<tag k="ssr:stedsnr" v="468595" />
	</node>
	<node id="-535418" lat="61.6133388887" lon="6.03153611131">
		<tag k="name" v="Svartehola" />
		<tag k="natural" v="gorge" />
		<tag k="ssr:stedsnr" v="468577" />
	</node>
	<node id="-535417" lat="61.5938944439" lon="5.79830555725">
		<tag k="name" v="Vasslia" />
		<tag k="natural" v="slope" />
		<tag k="place" v="locality" />
		<tag k="ssr:stedsnr" v="468547" />
	</node>
	<node id="-535415" lat="61.5749111113" lon="5.9622027771">
		<tag k="name" v="Rogneliholten" />
		<tag k="natural" v="hill" />
		<tag k="place" v="locality" />
		<tag k="ssr:stedsnr" v="468467" />
	</node>
	<node id="-535414" lat="61.5722277769" lon="5.95183888404">
		<tag k="name" v="Giljane" />
		<tag k="natural" v="hill" />
		<tag k="place" v="locality" />
		<tag k="ssr:stedsnr" v="468457" />
	</node>
	<node id="-535412" lat="61.4827166699" lon="5.60379444211">
		<tag k="name" v="Kringlebotnen" />
		<tag k="natural" v="valley" />
		<tag k="place" v="locality" />
		<tag k="ssr:stedsnr" v="468213" />
	</node>
	<node id="-535411" lat="61.4886833313" lon="5.64584999291">
		<tag k="name" v="Klypet" />
		<tag k="natural" v="valley" />
		<tag k="place" v="locality" />
		<tag k="ssr:stedsnr" v="468138" />
	</node>
	<node id="-535410" lat="61.491977776" lon="5.64960000557">
		<tag k="name" v="Stegane" />
		<tag k="natural" v="valley" />
		<tag k="place" v="locality" />
		<tag k="ssr:stedsnr" v="468117" />
	</node>
	<node id="-535409" lat="61.5011972223" lon="5.49136111553">
		<tag k="name" v="Strupen" />
		<tag k="natural" v="valley" />
		<tag k="place" v="locality" />
		<tag k="ssr:stedsnr" v="468058" />
	</node>
	<node id="-535408" lat="61.4912083333" lon="5.55306111155">
		<tag k="name" v="Høgehammaren" />
		<tag k="natural" v="hill" />
		<tag k="place" v="locality" />
		<tag k="ssr:stedsnr" v="468012" />
	</node>
	<node id="-535407" lat="61.5613416668" lon="5.86497221628">
		<tag k="name" v="Kattaholene" />
		<tag k="natural" v="gorge" />
		<tag k="ssr:stedsnr" v="467947" />
	</node>
	<node id="-535404" lat="61.5566722199" lon="5.84477777229">
		<tag k="name" v="Botnane" />
		<tag k="natural" v="valley" />
		<tag k="place" v="locality" />
		<tag k="ssr:stedsnr" v="467923" />
	</node>
	<node id="-535403" lat="61.6062611146" lon="6.09976666134">
		<tag k="name" v="Krærne" />
		<tag k="natural" v="slope" />
		<tag k="place" v="locality" />
		<tag k="ssr:stedsnr" v="463411" />
	</node>
	<node id="-535402" lat="61.5967416704" lon="6.01357778516">
		<tag k="name" v="Sløkelia" />
		<tag k="natural" v="slope" />
		<tag k="place" v="locality" />
		<tag k="ssr:stedsnr" v="462377" />
	</node>
	<node id="-535396" lat="61.5376138901" lon="5.9210444523">
		<tag k="fixme" v="consider natural=peak for the most distinct mountains in the district" />
		<tag k="name" v="Blåfjellet" />
		<tag k="natural" v="hill" />
		<tag k="place" v="locality" />
		<tag k="ssr:stedsnr" v="435732" />
	</node>
	<node id="-535395" lat="61.5877944474" lon="5.95410834159">
		<tag k="fixme" v="consider natural=peak for the most distinct mountains in the district" />
		<tag k="name" v="Åsen" />
		<tag k="natural" v="hill" />
		<tag k="place" v="locality" />
		<tag k="ssr:stedsnr" v="435730" />
	</node>
	<node id="-535391" lat="61.621027777" lon="6.13743055002">
		<tag k="alt_name" v="Holebotnen, s" />
		<tag k="name" v="Søre Holebotnen" />
		<tag k="natural" v="valley" />
		<tag k="place" v="locality" />
		<tag k="ssr:stedsnr" v="434241" />
	</node>
	<node id="-535389" lat="61.60166667" lon="6.08214722619">
		<tag k="name" v="Storelia" />
		<tag k="natural" v="slope" />
		<tag k="place" v="locality" />
		<tag k="ssr:stedsnr" v="434218" />
	</node>
	<node id="-535388" lat="61.5841861073" lon="6.1261833298">
		<tag k="name" v="Kupenakken" />
		<tag k="natural" v="hill" />
		<tag k="place" v="locality" />
		<tag k="ssr:stedsnr" v="434211" />
	</node>
	<node id="-535387" lat="61.5812722244" lon="5.89708888151">
		<tag k="fixme" v="consider natural=peak for the most distinct mountains in the district" />
		<tag k="name" v="Sundsås" />
		<tag k="natural" v="hill" />
		<tag k="place" v="locality" />
		<tag k="ssr:stedsnr" v="434207" />
	</node>
	<node id="-535385" lat="61.587508334" lon="6.04449444821">
		<tag k="name" v="Kariskredene" />
		<tag k="natural" v="slope" />
		<tag k="place" v="locality" />
		<tag k="ssr:stedsnr" v="434198" />
	</node>
	<node id="-535384" lat="61.5621111101" lon="5.91138055536">
		<tag k="name" v="Espelandsdalen" />
		<tag k="natural" v="valley" />
		<tag k="place" v="locality" />
		<tag k="ssr:stedsnr" v="434196" />
	</node>
	<node id="-535380" lat="61.4944722194" lon="5.56438332546">
		<tag k="name" v="Holene" />
		<tag k="natural" v="valley" />
		<tag k="place" v="locality" />
		<tag k="ssr:stedsnr" v="433506" />
	</node>
	<node id="-535379" lat="61.4881638903" lon="5.52129444667">
		<tag k="fixme" v="consider natural=peak for the most distinct mountains in the district" />
		<tag k="name" v="Lynghamrane" />
		<tag k="natural" v="hill" />
		<tag k="place" v="locality" />
		<tag k="ssr:stedsnr" v="433502" />
	</node>
	<node id="-535377" lat="61.4973722198" lon="5.55148332877">
		<tag k="alt_name" v="Hundegjelet" />
		<tag k="name" v="Hundegilet" />
		<tag k="natural" v="valley" />
		<tag k="place" v="locality" />
		<tag k="ssr:stedsnr" v="433491" />
	</node>
	<node id="-535374" lat="61.5634666669" lon="5.73564721369">
		<tag k="name" v="Huldehaugen" />
		<tag k="natural" v="hill" />
		<tag k="place" v="locality" />
		<tag k="ssr:stedsnr" v="433435" />
	</node>
	<node id="-535373" lat="61.5254472205" lon="5.7703083375">
		<tag k="name" v="Åsedalen" />
		<tag k="natural" v="valley" />
		<tag k="place" v="locality" />
		<tag k="ssr:stedsnr" v="433421" />
	</node>
	<node id="-535372" lat="61.5027694426" lon="5.49044444572">
		<tag k="fixme" v="consider natural=peak for the most distinct mountains in the district" />
		<tag k="name" v="Heiane" />
		<tag k="natural" v="hill" />
		<tag k="place" v="locality" />
		<tag k="ssr:stedsnr" v="433417" />
	</node>
	<node id="-535370" lat="61.529899999" lon="5.8147666575">
		<tag k="fixme" v="consider natural=peak for the most distinct mountains in the district" />
		<tag k="name" v="Dunken" />
		<tag k="natural" v="hill" />
		<tag k="place" v="locality" />
		<tag k="ssr:stedsnr" v="433391" />
	</node>
	<node id="-535368" lat="61.5044166708" lon="5.60548611507">
		<tag k="name" v="Fosshola" />
		<tag k="natural" v="valley" />
		<tag k="place" v="locality" />
		<tag k="ssr:stedsnr" v="433366" />
	</node>
	<node id="-535365" lat="61.4811500015" lon="5.47591111198">
		<tag k="fixme" v="consider natural=peak for the most distinct mountains in the district" />
		<tag k="name" v="Skolten" />
		<tag k="natural" v="hill" />
		<tag k="place" v="locality" />
		<tag k="ssr:stedsnr" v="432709" />
	</node>
	<node id="-535361" lat="61.4642027767" lon="5.49723055791">
		<tag k="alt_name" v="Soleidalen" />
		<tag k="name" v="Soleiedalen" />
		<tag k="natural" v="valley" />
		<tag k="place" v="locality" />
		<tag k="ssr:stedsnr" v="432640" />
	</node>
	<node id="-535359" lat="61.4940833331" lon="5.38278611015">
		<tag k="fixme" v="consider natural=peak for the most distinct mountains in the district" />
		<tag k="name" v="Heia" />
		<tag k="natural" v="hill" />
		<tag k="place" v="locality" />
		<tag k="ssr:stedsnr" v="432006" />
	</node>
	<node id="-535355" lat="61.5304694407" lon="5.71058889505">
		<tag k="name" v="Ristalia" />
		<tag k="natural" v="slope" />
		<tag k="place" v="locality" />
		<tag k="ssr:stedsnr" v="262732" />
	</node>
	<node id="-535354" lat="61.6003194471" lon="5.85034999225">
		<tag k="name" v="Stordalen" />
		<tag k="natural" v="valley" />
		<tag k="place" v="locality" />
		<tag k="ssr:stedsnr" v="252676" />
	</node>
	<node id="-535353" lat="61.6114472211" lon="5.95723611398">
		<tag k="fixme" v="consider natural=peak for the most distinct mountains in the district" />
		<tag k="name" v="Kvanngrøfjellet" />
		<tag k="natural" v="hill" />
		<tag k="place" v="locality" />
		<tag k="ssr:stedsnr" v="252252" />
	</node>
	<node id="-535349" lat="61.5787111143" lon="5.97673054936">
		<tag k="name" v="Gardahogen" />
		<tag k="natural" v="hill" />
		<tag k="place" v="locality" />
		<tag k="ssr:stedsnr" v="252200" />
	</node>
	<node id="-535348" lat="61.5782972208" lon="6.0270527724">
		<tag k="name" v="Knolten" />
		<tag k="natural" v="slope" />
		<tag k="place" v="locality" />
		<tag k="ssr:stedsnr" v="252201" />
	</node>
	<node id="-535345" lat="61.5914833318" lon="6.1328222238">
		<tag k="name" v="Nesrimma" />
		<tag k="natural" v="hill" />
		<tag k="place" v="locality" />
		<tag k="ssr:stedsnr" v="252189" />
	</node>
	<node id="-535341" lat="61.5666000001" lon="5.8549777824">
		<tag k="name" v="Rimmagjelet" />
		<tag k="natural" v="valley" />
		<tag k="place" v="locality" />
		<tag k="ssr:stedsnr" v="252176" />
	</node>
	<node id="-535338" lat="61.6109722198" lon="5.81615277634">
		<tag k="name" v="Hyskredene" />
		<tag k="natural" v="valley" />
		<tag k="place" v="locality" />
		<tag k="ssr:stedsnr" v="251772" />
	</node>
	<node id="-535333" lat="61.5369361083" lon="5.81946667213">
		<tag k="name" v="Rjupeskaret" />
		<tag k="natural" v="valley" />
		<tag k="place" v="locality" />
		<tag k="ssr:stedsnr" v="251435" />
	</node>
	<node id="-535332" lat="61.5259888855" lon="5.69648889405">
		<tag k="fixme" v="consider natural=peak for the most distinct mountains in the district" />
		<tag k="name" v="Liafjellet" />
		<tag k="natural" v="hill" />
		<tag k="place" v="locality" />
		<tag k="ssr:stedsnr" v="251420" />
	</node>
	<node id="-535329" lat="61.5105027783" lon="5.67195000892">
		<tag k="fixme" v="consider natural=peak for the most distinct mountains in the district" />
		<tag k="name" v="Vindkjegla" />
		<tag k="natural" v="hill" />
		<tag k="place" v="locality" />
		<tag k="ssr:stedsnr" v="251398" />
	</node>
	<node id="-535328" lat="61.608521293" lon="5.98988953722">
		<tag k="fixme" v="consider natural=peak for the most distinct mountains in the district" />
		<tag k="name" v="Ospefjell" />
		<tag k="natural" v="hill" />
		<tag k="place" v="locality" />
		<tag k="ssr:stedsnr" v="251302" />
	</node>
	<node id="-535327" lat="61.6108166688" lon="5.93861944777">
		<tag k="fixme" v="consider natural=peak for the most distinct mountains in the district" />
		<tag k="name" v="Teigaklubben" />
		<tag k="natural" v="hill" />
		<tag k="place" v="locality" />
		<tag k="ssr:stedsnr" v="251301" />
	</node>
	<node id="-535325" lat="61.4817694452" lon="5.55424444646">
		<tag k="alt_name" v="Solbakkheia" />
		<tag k="fixme" v="consider natural=peak for the most distinct mountains in the district" />
		<tag k="name" v="Solbakkeheia" />
		<tag k="natural" v="hill" />
		<tag k="place" v="locality" />
		<tag k="ssr:stedsnr" v="250722" />
	</node>
	<node id="-535323" lat="61.4697750018" lon="5.58172223038">
		<tag k="alt_name" v="Skarkletten" />
		<tag k="name" v="Skardkletten" />
		<tag k="natural" v="hill" />
		<tag k="place" v="locality" />
		<tag k="ssr:stedsnr" v="250695" />
	</node>
	<node id="-535322" lat="61.4582250028" lon="5.48389167164">
		<tag k="name" v="Hellenesholten" />
		<tag k="natural" v="hill" />
		<tag k="place" v="locality" />
		<tag k="ssr:stedsnr" v="250658" />
	</node>
	<node id="-535320" lat="61.4984305512" lon="5.47730000134">
		<tag k="fixme" v="consider natural=peak for the most distinct mountains in the district" />
		<tag k="name" v="Fardalsfjellet" />
		<tag k="natural" v="hill" />
		<tag k="place" v="locality" />
		<tag k="ssr:stedsnr" v="250517" />
	</node>
	<node id="-535319" lat="61.4922388865" lon="5.56600278426">
		<tag k="fixme" v="consider natural=peak for the most distinct mountains in the district" />
		<tag k="name" v="Stølsfjellet" />
		<tag k="natural" v="hill" />
		<tag k="place" v="locality" />
		<tag k="ssr:stedsnr" v="250509" />
	</node>
	<node id="-535318" lat="61.4968500039" lon="5.63597776825">
		<tag k="fixme" v="consider natural=peak for the most distinct mountains in the district" />
		<tag k="name" v="Knibben" />
		<tag k="natural" v="hill" />
		<tag k="place" v="locality" />
		<tag k="ssr:stedsnr" v="250501" />
	</node>
	<node id="-535316" lat="61.4911249978" lon="5.33622500146">
		<tag k="fixme" v="consider natural=peak for the most distinct mountains in the district" />
		<tag k="name" v="Lauvberget" />
		<tag k="natural" v="hill" />
		<tag k="place" v="locality" />
		<tag k="ssr:stedsnr" v="250002" />
	</node>
	<node id="-535315" lat="61.4959000022" lon="5.37071111577">
		<tag k="alt_name" v="Furefjell" />
		<tag k="fixme" v="consider natural=peak for the most distinct mountains in the district" />
		<tag k="name" v="Furefjellet" />
		<tag k="natural" v="hill" />
		<tag k="place" v="locality" />
		<tag k="ssr:stedsnr" v="250001" />
	</node>
	<node id="-535312" lat="61.5093916633" lon="5.34244722456">
		<tag k="fixme" v="consider natural=peak for the most distinct mountains in the district" />
		<tag k="name" v="Storeheia" />
		<tag k="natural" v="hill" />
		<tag k="place" v="locality" />
		<tag k="ssr:stedsnr" v="235109" />
	</node>
	<node id="-535310" lat="61.5749666698" lon="5.86245833953">
		<tag k="name" v="Geilane" />
		<tag k="place" v="locality" />
		<tag k="ssr:stedsnr" v="226962" />
	</node>
	<node id="-535308" lat="61.534558331" lon="5.81667221588">
		<tag k="name" v="Sørlia" />
		<tag k="natural" v="slope" />
		<tag k="place" v="locality" />
		<tag k="ssr:stedsnr" v="226939" />
	</node>
	<node id="-535305" lat="61.5841138861" lon="5.9166472235">
		<tag k="name" v="Madalen" />
		<tag k="natural" v="valley" />
		<tag k="place" v="locality" />
		<tag k="ssr:stedsnr" v="226812" />
	</node>
	<node id="-535304" lat="61.582263892" lon="5.80640278366">
		<tag k="name" v="Stokkeberget" />
		<tag k="natural" v="hill" />
		<tag k="place" v="locality" />
		<tag k="ssr:stedsnr" v="226680" />
	</node>
	<node id="-535303" lat="61.5966194436" lon="5.97903332438">
		<tag k="fixme" v="consider natural=peak for the most distinct mountains in the district" />
		<tag k="name" v="Bergshaugen" />
		<tag k="natural" v="hill" />
		<tag k="place" v="locality" />
		<tag k="ssr:stedsnr" v="226631" />
	</node>
	<node id="-535302" lat="61.5933777771" lon="6.01627777531">
		<tag k="name" v="Stølslia" />
		<tag k="natural" v="slope" />
		<tag k="place" v="locality" />
		<tag k="ssr:stedsnr" v="226440" />
	</node>
	<node id="-535301" lat="61.5839749988" lon="5.99597222466">
		<tag k="name" v="Langøyane" />
		<tag k="place" v="locality" />
		<tag k="ssr:stedsnr" v="226438" />
	</node>
	<node id="-535300" lat="61.4940527806" lon="5.34636389616">
		<tag k="fixme" v="consider natural=peak for the most distinct mountains in the district" />
		<tag k="name" v="Åsen" />
		<tag k="natural" v="hill" />
		<tag k="place" v="locality" />
		<tag k="ssr:stedsnr" v="226420" />
	</node>
	<node id="-535298" lat="61.506077781" lon="5.28076388777">
		<tag k="fixme" v="consider natural=peak for the most distinct mountains in the district" />
		<tag k="name" v="Åsen" />
		<tag k="natural" v="hill" />
		<tag k="place" v="locality" />
		<tag k="ssr:stedsnr" v="226333" />
	</node>
	<node id="-535297" lat="61.5085944473" lon="5.32529444782">
		<tag k="name" v="Blombakkane" />
		<tag k="natural" v="slope" />
		<tag k="place" v="locality" />
		<tag k="ssr:stedsnr" v="226287" />
	</node>
	<node id="-535296" lat="61.4947527807" lon="5.40434443501">
		<tag k="name" v="Aksla" />
		<tag k="natural" v="hill" />
		<tag k="place" v="locality" />
		<tag k="ssr:stedsnr" v="226244" />
	</node>
	<node id="-535294" lat="61.4970666692" lon="5.61190555153">
		<tag k="name" v="Botnen" />
		<tag k="natural" v="valley" />
		<tag k="place" v="locality" />
		<tag k="ssr:stedsnr" v="226142" />
	</node>
	<node id="-535293" lat="61.4726750013" lon="5.45482221342">
		<tag k="name" v="Styggehola" />
		<tag k="natural" v="gorge" />
		<tag k="ssr:stedsnr" v="226119" />
	</node>
	<node id="-535292" lat="61.4879944459" lon="5.54016110417">
		<tag k="name" v="Smådalane" />
		<tag k="natural" v="valley" />
		<tag k="place" v="locality" />
		<tag k="ssr:stedsnr" v="226098" />
	</node>
	<node id="-535291" lat="61.495716664" lon="5.51419722465">
		<tag k="name" v="Einehaugen" />
		<tag k="natural" v="hill" />
		<tag k="place" v="locality" />
		<tag k="ssr:stedsnr" v="226065" />
	</node>
	<node id="-535290" lat="61.5373333308" lon="5.70518333283">
		<tag k="name" v="Norstølsheia" />
		<tag k="natural" v="hill" />
		<tag k="place" v="locality" />
		<tag k="ssr:stedsnr" v="225976" />
	</node>
	<node id="-535289" lat="61.5642416684" lon="5.88017500077">
		<tag k="fixme" v="consider natural=peak for the most distinct mountains in the district" />
		<tag k="name" v="Stølsfjellet" />
		<tag k="natural" v="hill" />
		<tag k="place" v="locality" />
		<tag k="ssr:stedsnr" v="225966" />
	</node>
	<node id="-535288" lat="61.5575416679" lon="5.8690000035">
		<tag k="name" v="Ospeskaret" />
		<tag k="natural" v="valley" />
		<tag k="place" v="locality" />
		<tag k="ssr:stedsnr" v="225950" />
	</node>
	<node id="-535287" lat="61.5735194423" lon="5.86004167283">
		<tag k="name" v="Purkehaugen" />
		<tag k="natural" v="hill" />
		<tag k="place" v="locality" />
		<tag k="ssr:stedsnr" v="225951" />
	</node>
	<node id="-535286" lat="61.5355888882" lon="5.76400833615">
		<tag k="name" v="Stoaberget" />
		<tag k="natural" v="hill" />
		<tag k="place" v="locality" />
		<tag k="ssr:stedsnr" v="225932" />
	</node>
	<node id="-535284" lat="61.5680916638" lon="5.83703888647">
		<tag k="name" v="Blomlia" />
		<tag k="natural" v="slope" />
		<tag k="place" v="locality" />
		<tag k="ssr:stedsnr" v="225913" />
	</node>
	<node id="-535283" lat="61.5474138925" lon="5.77241665865">
		<tag k="name" v="Stuttelia" />
		<tag k="natural" v="slope" />
		<tag k="place" v="locality" />
		<tag k="ssr:stedsnr" v="225904" />
	</node>
	<node id="-535281" lat="61.5839138909" lon="5.86880556169">
		<tag k="fixme" v="consider natural=peak for the most distinct mountains in the district" />
		<tag k="name" v="Flotefjellet" />
		<tag k="natural" v="hill" />
		<tag k="place" v="locality" />
		<tag k="ssr:stedsnr" v="225780" />
	</node>
	<node id="-535280" lat="61.6000166662" lon="5.93520833899">
		<tag k="name" v="Leite" />
		<tag k="natural" v="valley" />
		<tag k="place" v="locality" />
		<tag k="ssr:stedsnr" v="225544" />
	</node>
	<node id="-535279" lat="61.5449555575" lon="5.68883055083">
		<tag k="name" v="Rundeheiane" />
		<tag k="natural" v="hill" />
		<tag k="place" v="locality" />
		<tag k="ssr:stedsnr" v="225518" />
	</node>
	<node id="-535278" lat="61.5742722265" lon="5.93882776949">
		<tag k="name" v="Savlandshola" />
		<tag k="natural" v="gorge" />
		<tag k="ssr:stedsnr" v="225505" />
	</node>
	<node id="-535277" lat="61.6080722188" lon="6.06852778705">
		<tag k="fixme" v="consider natural=peak for the most distinct mountains in the district" />
		<tag k="name" v="Litlefjell" />
		<tag k="natural" v="hill" />
		<tag k="place" v="locality" />
		<tag k="ssr:stedsnr" v="225500" />
	</node>
	<node id="-535276" lat="61.6098305594" lon="6.05396389244">
		<tag k="name" v="Bruahaugen" />
		<tag k="natural" v="hill" />
		<tag k="place" v="locality" />
		<tag k="ssr:stedsnr" v="225498" />
	</node>
	<node id="-535274" lat="61.507961114" lon="5.68430833633">
		<tag k="fixme" v="consider natural=peak for the most distinct mountains in the district" />
		<tag k="name" v="Mallasvikfjellet" />
		<tag k="natural" v="hill" />
		<tag k="place" v="locality" />
		<tag k="ssr:stedsnr" v="225201" />
	</node>
	<node id="-535273" lat="61.4674444465" lon="5.60397777714">
		<tag k="name" v="Englekorsen" />
		<tag k="natural" v="hill" />
		<tag k="place" v="locality" />
		<tag k="ssr:stedsnr" v="225164" />
	</node>
	<node id="-535272" lat="61.4857000031" lon="5.63566111949">
		<tag k="name" v="Eikafloten" />
		<tag k="natural" v="hill" />
		<tag k="place" v="locality" />
		<tag k="ssr:stedsnr" v="225157" />
	</node>
	<node id="-535271" lat="61.5215472258" lon="5.68068888186">
		<tag k="name" v="Vedabrotet" />
		<tag k="natural" v="slope" />
		<tag k="place" v="locality" />
		<tag k="ssr:stedsnr" v="225072" />
	</node>
	<node id="-535270" lat="61.4874750015" lon="5.59381666135">
		<tag k="fixme" v="consider natural=peak for the most distinct mountains in the district" />
		<tag k="name" v="Buanesheia" />
		<tag k="natural" v="hill" />
		<tag k="place" v="locality" />
		<tag k="ssr:stedsnr" v="225065" />
	</node>
	<node id="-535269" lat="61.4921944409" lon="5.57533055668">
		<tag k="name" v="Ureledet" />
		<tag k="natural" v="slope" />
		<tag k="place" v="locality" />
		<tag k="ssr:stedsnr" v="225060" />
	</node>
	<node id="-535268" lat="61.51594167" lon="5.828424999">
		<tag k="name" v="Holten" />
		<tag k="natural" v="hill" />
		<tag k="place" v="locality" />
		<tag k="ssr:stedsnr" v="225651" />
	</node>
	<node id="-535266" lat="61.6048138919" lon="5.96887778218">
		<tag k="name" v="Botnen" />
		<tag k="natural" v="valley" />
		<tag k="place" v="locality" />
		<tag k="ssr:stedsnr" v="225593" />
	</node>
	<node id="-535265" lat="61.5368222177" lon="5.65316944169">
		<tag k="name" v="Rindane" />
		<tag k="natural" v="hill" />
		<tag k="place" v="locality" />
		<tag k="ssr:stedsnr" v="224425" />
	</node>
	<node id="-535264" lat="61.6250472178" lon="6.00829721847">
		<tag k="name" v="Stølslia" />
		<tag k="natural" v="slope" />
		<tag k="place" v="locality" />
		<tag k="ssr:stedsnr" v="214454" />
	</node>
	<node id="-535262" lat="61.5077174683" lon="5.7349738546">
		<tag k="fixme" v="consider natural=peak for the most distinct mountains in the district" />
		<tag k="name" v="Kletten" />
		<tag k="natural" v="hill" />
		<tag k="place" v="locality" />
		<tag k="ssr:stedsnr" v="202735" />
	</node>
	<node id="-535260" lat="61.5465666633" lon="5.78233889338">
		<tag k="name" v="Trælebøen" />
		<tag k="place" v="locality" />
		<tag k="ssr:stedsnr" v="202723" />
	</node>
	<node id="-535259" lat="61.5159333351" lon="5.85724166124">
		<tag k="name" v="Huksetebotnen" />
		<tag k="natural" v="valley" />
		<tag k="place" v="locality" />
		<tag k="ssr:stedsnr" v="192191" />
	</node>
	<node id="-535258" lat="61.5833361106" lon="5.75105832753">
		<tag k="fixme" v="consider natural=peak for the most distinct mountains in the district" />
		<tag k="name" v="Snipphamrane" />
		<tag k="natural" v="hill" />
		<tag k="place" v="locality" />
		<tag k="ssr:stedsnr" v="191448" />
	</node>
	<node id="-535254" lat="61.6052861147" lon="6.08295834097">
		<tag k="fixme" v="consider natural=peak for the most distinct mountains in the district" />
		<tag k="name" v="Dalerabben" />
		<tag k="natural" v="hill" />
		<tag k="place" v="locality" />
		<tag k="ssr:stedsnr" v="191236" />
	</node>
	<node id="-535252" lat="61.6387805562" lon="6.02881665952">
		<tag k="fixme" v="multiple name tags, choose one and add the other to alt_name; consider natural=peak for the most distinct mountains in the district" />
		<tag k="name" v="Steinbottsegga;Åstøylsfjellet" />
		<tag k="natural" v="hill" />
		<tag k="place" v="locality" />
		<tag k="ssr:stedsnr" v="191223" />
	</node>
	<node id="-535251" lat="61.6365805556" lon="6.09165832395">
		<tag k="name" v="Inste Svartebottsskaret" />
		<tag k="natural" v="valley" />
		<tag k="place" v="locality" />
		<tag k="ssr:stedsnr" v="191222" />
	</node>
	<node id="-535250" lat="61.594580554" lon="6.00948332819">
		<tag k="fixme" v="consider natural=peak for the most distinct mountains in the district" />
		<tag k="name" v="Klumpen" />
		<tag k="natural" v="hill" />
		<tag k="place" v="locality" />
		<tag k="ssr:stedsnr" v="191218" />
	</node>
	<node id="-535249" lat="61.5852916636" lon="6.0876472281">
		<tag k="name" v="Rundebotnen" />
		<tag k="natural" v="valley" />
		<tag k="place" v="locality" />
		<tag k="ssr:stedsnr" v="191203" />
	</node>
	<node id="-535245" lat="61.4922833292" lon="5.58203333393">
		<tag k="fixme" v="consider natural=peak for the most distinct mountains in the district" />
		<tag k="name" v="Svarthamrane" />
		<tag k="natural" v="hill" />
		<tag k="place" v="locality" />
		<tag k="ssr:stedsnr" v="190766" />
	</node>
	<node id="-535244" lat="61.4616277763" lon="5.47122222023">
		<tag k="alt_name" v="Skardvikebotnen;Skarvikbotnen" />
		<tag k="name" v="Skarvikebotnen" />
		<tag k="natural" v="valley" />
		<tag k="place" v="locality" />
		<tag k="ssr:stedsnr" v="190695" />
	</node>
	<node id="-535241" lat="61.4847611103" lon="5.51779166989">
		<tag k="fixme" v="consider natural=peak for the most distinct mountains in the district" />
		<tag k="name" v="Svarthammaren" />
		<tag k="natural" v="hill" />
		<tag k="place" v="locality" />
		<tag k="ssr:stedsnr" v="190520" />
	</node>
	<node id="-535239" lat="61.5445472186" lon="5.71296666862">
		<tag k="fixme" v="consider natural=peak for the most distinct mountains in the district" />
		<tag k="name" v="Bolteheia" />
		<tag k="natural" v="hill" />
		<tag k="place" v="locality" />
		<tag k="ssr:stedsnr" v="190468" />
	</node>
	<node id="-535233" lat="61.4805611138" lon="5.53093888314">
		<tag k="name" v="Sveiva" />
		<tag k="place" v="locality" />
		<tag k="ssr:stedsnr" v="189696" />
	</node>
	<node id="-535232" lat="61.4785249997" lon="5.60900277492">
		<tag k="alt_name" v="Gregorsholten" />
		<tag k="name" v="Grigusholten" />
		<tag k="natural" v="hill" />
		<tag k="place" v="locality" />
		<tag k="ssr:stedsnr" v="189690" />
	</node>
	<node id="-535230" lat="61.474441667" lon="5.50226111059">
		<tag k="fixme" v="consider natural=peak for the most distinct mountains in the district" />
		<tag k="name" v="Gamlestølsheia" />
		<tag k="natural" v="hill" />
		<tag k="place" v="locality" />
		<tag k="ssr:stedsnr" v="189661" />
	</node>
	<node id="-535229" lat="61.4751277809" lon="5.60460000693">
		<tag k="fixme" v="consider natural=peak for the most distinct mountains in the district" />
		<tag k="name" v="Lianova" />
		<tag k="natural" v="hill" />
		<tag k="place" v="locality" />
		<tag k="ssr:stedsnr" v="189657" />
	</node>
	<node id="-535222" lat="61.538505559" lon="5.74448333835">
		<tag k="name" v="Tungebakken" />
		<tag k="natural" v="slope" />
		<tag k="place" v="locality" />
		<tag k="ssr:stedsnr" v="165959" />
	</node>
	<node id="-535221" lat="61.535047225" lon="5.85907776888">
		<tag k="fixme" v="consider natural=peak for the most distinct mountains in the district" />
		<tag k="name" v="Bruneholten" />
		<tag k="natural" v="hill" />
		<tag k="place" v="locality" />
		<tag k="ssr:stedsnr" v="165925" />
	</node>
	<node id="-535220" lat="61.5045611122" lon="5.76589444919">
		<tag k="name" v="Helgåsberget" />
		<tag k="natural" v="hill" />
		<tag k="place" v="locality" />
		<tag k="ssr:stedsnr" v="165846" />
	</node>
	<node id="-535219" lat="61.5808222238" lon="5.91715278321">
		<tag k="name" v="Rabben" />
		<tag k="natural" v="hill" />
		<tag k="place" v="locality" />
		<tag k="ssr:stedsnr" v="165807" />
	</node>
	<node id="-535218" lat="61.5850861141" lon="5.79028054832">
		<tag k="name" v="Bjørnaholene" />
		<tag k="natural" v="valley" />
		<tag k="place" v="locality" />
		<tag k="ssr:stedsnr" v="165703" />
	</node>
	<node id="-535217" lat="61.5889055599" lon="5.98616944756">
		<tag k="name" v="Kammen" />
		<tag k="natural" v="hill" />
		<tag k="place" v="locality" />
		<tag k="ssr:stedsnr" v="165619" />
	</node>
	<node id="-535216" lat="61.5926500014" lon="5.93870278086">
		<tag k="name" v="Runnane" />
		<tag k="natural" v="hill" />
		<tag k="place" v="locality" />
		<tag k="ssr:stedsnr" v="165612" />
	</node>
	<node id="-535215" lat="61.5884111104" lon="5.94425278672">
		<tag k="name" v="Jytten" />
		<tag k="natural" v="hill" />
		<tag k="place" v="locality" />
		<tag k="ssr:stedsnr" v="165608" />
	</node>
	<node id="-535213" lat="61.6103361119" lon="5.98913889023">
		<tag k="name" v="Dalen" />
		<tag k="natural" v="valley" />
		<tag k="place" v="locality" />
		<tag k="ssr:stedsnr" v="165555" />
	</node>
	<node id="-535212" lat="61.5974749985" lon="5.94433334091">
		<tag k="name" v="Botnane" />
		<tag k="natural" v="valley" />
		<tag k="place" v="locality" />
		<tag k="ssr:stedsnr" v="165549" />
	</node>
	<node id="-535211" lat="61.5701166703" lon="5.94734999687">
		<tag k="name" v="Holteskorane" />
		<tag k="natural" v="hill" />
		<tag k="place" v="locality" />
		<tag k="ssr:stedsnr" v="165494" />
	</node>
	<node id="-535210" lat="61.580819446" lon="6.00669167284">
		<tag k="name" v="Flaterabben" />
		<tag k="natural" v="hill" />
		<tag k="place" v="locality" />
		<tag k="ssr:stedsnr" v="165397" />
	</node>
	<node id="-535209" lat="61.5259083302" lon="5.86761111803">
		<tag k="name" v="Revehola" />
		<tag k="natural" v="valley" />
		<tag k="place" v="locality" />
		<tag k="ssr:stedsnr" v="165391" />
	</node>
	<node id="-535208" lat="61.5234916663" lon="5.85909444997">
		<tag k="name" v="Reinene" />
		<tag k="natural" v="hill" />
		<tag k="place" v="locality" />
		<tag k="ssr:stedsnr" v="165388" />
	</node>
	<node id="-535207" lat="61.5052277762" lon="5.26707499551">
		<tag k="fixme" v="consider natural=peak for the most distinct mountains in the district" />
		<tag k="name" v="Steinhovden" />
		<tag k="natural" v="hill" />
		<tag k="place" v="locality" />
		<tag k="ssr:stedsnr" v="165301" />
	</node>
	<node id="-535206" lat="61.5007222236" lon="5.3081472207">
		<tag k="name" v="Høgedalen" />
		<tag k="natural" v="valley" />
		<tag k="place" v="locality" />
		<tag k="ssr:stedsnr" v="165278" />
	</node>
	<node id="-535204" lat="61.4976055573" lon="5.393016662">
		<tag k="name" v="Røyrskora" />
		<tag k="natural" v="valley" />
		<tag k="place" v="locality" />
		<tag k="ssr:stedsnr" v="165151" />
	</node>
	<node id="-535203" lat="61.5008944406" lon="5.3917083398">
		<tag k="name" v="Styggelia" />
		<tag k="natural" v="slope" />
		<tag k="place" v="locality" />
		<tag k="ssr:stedsnr" v="165150" />
	</node>
	<node id="-535202" lat="61.4908916667" lon="5.61133610763">
		<tag k="name" v="Hytta" />
		<tag k="natural" v="hill" />
		<tag k="place" v="locality" />
		<tag k="ssr:stedsnr" v="165119" />
	</node>
	<node id="-535199" lat="61.4945277822" lon="5.50856666251">
		<tag k="name" v="Geitaberget" />
		<tag k="natural" v="hill" />
		<tag k="place" v="locality" />
		<tag k="ssr:stedsnr" v="165048" />
	</node>
	<node id="-535198" lat="61.499988892" lon="5.53508056349">
		<tag k="fixme" v="consider natural=peak for the most distinct mountains in the district" />
		<tag k="name" v="Nedre Dyrdalsheia" />
		<tag k="natural" v="hill" />
		<tag k="place" v="locality" />
		<tag k="ssr:stedsnr" v="165020" />
	</node>
	<node id="-535197" lat="61.49470833" lon="5.54292221734">
		<tag k="name" v="Åregjelet" />
		<tag k="natural" v="valley" />
		<tag k="place" v="locality" />
		<tag k="ssr:stedsnr" v="165019" />
	</node>
	<node id="-535196" lat="61.5042388925" lon="5.55031666432">
		<tag k="name" v="Nonshaugen" />
		<tag k="natural" v="hill" />
		<tag k="place" v="locality" />
		<tag k="ssr:stedsnr" v="165014" />
	</node>
	<node id="-535194" lat="61.5602333356" lon="5.86204166246">
		<tag k="name" v="Gamlestølslia" />
		<tag k="natural" v="slope" />
		<tag k="place" v="locality" />
		<tag k="ssr:stedsnr" v="164952" />
	</node>
	<node id="-535193" lat="61.5708194441" lon="5.87281666547">
		<tag k="name" v="Hestehaugen" />
		<tag k="natural" v="hill" />
		<tag k="place" v="locality" />
		<tag k="ssr:stedsnr" v="164940" />
	</node>
	<node id="-535191" lat="61.5606722265" lon="5.83750556441">
		<tag k="name" v="Dyttinga" />
		<tag k="place" v="locality" />
		<tag k="ssr:stedsnr" v="164927" />
	</node>
	<node id="-535189" lat="61.4563361092" lon="5.47788332897">
		<tag k="name" v="Dyrebykse" />
		<tag k="natural" v="slope" />
		<tag k="place" v="locality" />
		<tag k="ssr:stedsnr" v="164807" />
	</node>
	<node id="-535188" lat="61.5602583304" lon="5.74917777898">
		<tag k="name" v="Høgefjellet" />
		<tag k="natural" v="hill" />
		<tag k="place" v="locality" />
		<tag k="ssr:stedsnr" v="164735" />
	</node>
	<node id="-535186" lat="61.5881861145" lon="5.80735278543">
		<tag k="name" v="Bjørnaskaret" />
		<tag k="natural" v="valley" />
		<tag k="place" v="locality" />
		<tag k="ssr:stedsnr" v="164669" />
	</node>
	<node id="-535184" lat="61.5748111153" lon="5.75571665688">
		<tag k="name" v="Bjørnakleiva" />
		<tag k="natural" v="slope" />
		<tag k="place" v="locality" />
		<tag k="ssr:stedsnr" v="164643" />
	</node>
	<node id="-535183" lat="61.6047944462" lon="5.94057777395">
		<tag k="name" v="Høgelia" />
		<tag k="natural" v="slope" />
		<tag k="place" v="locality" />
		<tag k="ssr:stedsnr" v="164587" />
	</node>
	<node id="-535182" lat="61.5722166701" lon="5.93627499229">
		<tag k="name" v="Ausehola" />
		<tag k="natural" v="gorge" />
		<tag k="ssr:stedsnr" v="164557" />
	</node>
	<node id="-535181" lat="61.5699694466" lon="5.96660276867">
		<tag k="name" v="Toene" />
		<tag k="natural" v="slope" />
		<tag k="place" v="locality" />
		<tag k="ssr:stedsnr" v="164547" />
	</node>
	<node id="-535180" lat="61.4771527785" lon="5.5927500067">
		<tag k="name" v="Liareset" />
		<tag k="natural" v="hill" />
		<tag k="place" v="locality" />
		<tag k="ssr:stedsnr" v="164266" />
	</node>
	<node id="-535177" lat="61.6340111108" lon="6.08436666961">
		<tag k="name" v="Ytste Svartebottsskaret" />
		<tag k="natural" v="valley" />
		<tag k="place" v="locality" />
		<tag k="ssr:stedsnr" v="131249" />
	</node>
	<node id="-535176" lat="61.6289611107" lon="6.03345832911">
		<tag k="name" v="Steinbotnen" />
		<tag k="natural" v="valley" />
		<tag k="place" v="locality" />
		<tag k="ssr:stedsnr" v="131245" />
	</node>
	<node id="-535172" lat="61.6453583331" lon="6.13549999866">
		<tag k="name" v="Holebottsskaret" />
		<tag k="natural" v="valley" />
		<tag k="place" v="locality" />
		<tag k="ssr:stedsnr" v="130243" />
	</node>
	<node id="-535168" lat="61.5677222186" lon="5.95683054851">
		<tag k="name" v="Pinehaugen" />
		<tag k="natural" v="hill" />
		<tag k="place" v="locality" />
		<tag k="ssr:stedsnr" v="130181" />
	</node>
	<node id="-535166" lat="61.4910055527" lon="5.59170000748">
		<tag k="fixme" v="consider natural=peak for the most distinct mountains in the district" />
		<tag k="name" v="Storeheia" />
		<tag k="natural" v="hill" />
		<tag k="place" v="locality" />
		<tag k="ssr:stedsnr" v="129757" />
	</node>
	<node id="-535165" lat="61.4913472267" lon="5.60027500731">
		<tag k="name" v="Fridalen" />
		<tag k="natural" v="valley" />
		<tag k="place" v="locality" />
		<tag k="ssr:stedsnr" v="129758" />
	</node>
	<node id="-535163" lat="61.4667722238" lon="5.5153694374">
		<tag k="name" v="Botnafjellet" />
		<tag k="natural" v="hill" />
		<tag k="place" v="locality" />
		<tag k="ssr:stedsnr" v="129670" />
	</node>
	<node id="-535161" lat="61.5020444481" lon="5.39493333248">
		<tag k="name" v="Nipa" />
		<tag k="natural" v="hill" />
		<tag k="place" v="locality" />
		<tag k="ssr:stedsnr" v="129631" />
	</node>
	<node id="-535159" lat="61.4956861071" lon="5.57295277678">
		<tag k="alt_name" v="Kalleskaret" />
		<tag k="name" v="Kalleskardet" />
		<tag k="natural" v="valley" />
		<tag k="place" v="locality" />
		<tag k="ssr:stedsnr" v="129502" />
	</node>
	<node id="-535158" lat="61.4981916704" lon="5.54059999382">
		<tag k="alt_name" v="Nasefjellet" />
		<tag k="fixme" v="consider natural=peak for the most distinct mountains in the district" />
		<tag k="name" v="Nasafjellet" />
		<tag k="natural" v="hill" />
		<tag k="place" v="locality" />
		<tag k="ssr:stedsnr" v="129498" />
	</node>
	<node id="-535146" lat="61.4974888923" lon="5.44948332599">
		<tag k="name" v="Engjabødalen" />
		<tag k="natural" v="valley" />
		<tag k="place" v="locality" />
		<tag k="ssr:stedsnr" v="129021" />
	</node>
	<node id="-535145" lat="61.4967611114" lon="5.41133887993">
		<tag k="alt_name" v="Råsdalen" />
		<tag k="name" v="Rossdalen" />
		<tag k="natural" v="valley" />
		<tag k="place" v="locality" />
		<tag k="ssr:stedsnr" v="129016" />
	</node>
	<node id="-535144" lat="61.479752782" lon="5.5987583257">
		<tag k="fixme" v="consider natural=peak for the most distinct mountains in the district" />
		<tag k="name" v="Bruna" />
		<tag k="natural" v="hill" />
		<tag k="place" v="locality" />
		<tag k="ssr:stedsnr" v="128704" />
	</node>
	<node id="-535142" lat="61.4935250009" lon="5.42550833602">
		<tag k="name" v="Smiedalen" />
		<tag k="natural" v="valley" />
		<tag k="place" v="locality" />
		<tag k="ssr:stedsnr" v="105280" />
	</node>
	<node id="-535141" lat="61.5030722258" lon="5.41554999232">
		<tag k="name" v="Stølsliane" />
		<tag k="natural" v="slope" />
		<tag k="place" v="locality" />
		<tag k="ssr:stedsnr" v="105274" />
	</node>
	<node id="-535140" lat="61.4898555596" lon="5.41043334123">
		<tag k="name" v="Lammeskora" />
		<tag k="natural" v="hill" />
		<tag k="place" v="locality" />
		<tag k="ssr:stedsnr" v="105171" />
	</node>
	<node id="-535139" lat="61.483352775" lon="5.50303888045">
		<tag k="name" v="Jukleskred" />
		<tag k="natural" v="valley" />
		<tag k="place" v="locality" />
		<tag k="ssr:stedsnr" v="105144" />
	</node>
	<node id="-535138" lat="61.5587805541" lon="5.92248055002">
		<tag k="name" v="Vasslihaugane" />
		<tag k="natural" v="slope" />
		<tag k="place" v="locality" />
		<tag k="ssr:stedsnr" v="104970" />
	</node>
	<node id="-535137" lat="61.5450222229" lon="5.7407527769">
		<tag k="name" v="Ristalia" />
		<tag k="natural" v="slope" />
		<tag k="place" v="locality" />
		<tag k="ssr:stedsnr" v="104938" />
	</node>
	<node id="-535134" lat="61.5446916625" lon="5.80792499711">
		<tag k="fixme" v="consider natural=peak for the most distinct mountains in the district" />
		<tag k="name" v="Andfjellet" />
		<tag k="natural" v="hill" />
		<tag k="place" v="locality" />
		<tag k="ssr:stedsnr" v="104900" />
	</node>
	<node id="-535133" lat="61.6064805542" lon="5.90311388767">
		<tag k="name" v="Ullaklubben" />
		<tag k="natural" v="hill" />
		<tag k="place" v="locality" />
		<tag k="ssr:stedsnr" v="104871" />
	</node>
	<node id="-535131" lat="61.5304555599" lon="5.76862221988">
		<tag k="fixme" v="consider natural=peak for the most distinct mountains in the district" />
		<tag k="name" v="Åsen" />
		<tag k="natural" v="hill" />
		<tag k="place" v="locality" />
		<tag k="ssr:stedsnr" v="104832" />
	</node>
	<node id="-535128" lat="61.5041083316" lon="5.73660000377">
		<tag k="name" v="Kjeskorane" />
		<tag k="natural" v="hill" />
		<tag k="place" v="locality" />
		<tag k="ssr:stedsnr" v="104798" />
	</node>
	<node id="-535127" lat="61.5327000004" lon="5.7914222187">
		<tag k="name" v="Furenakken" />
		<tag k="natural" v="hill" />
		<tag k="place" v="locality" />
		<tag k="ssr:stedsnr" v="104793" />
	</node>
	<node id="-535126" lat="61.583319446" lon="5.83648054799">
		<tag k="name" v="Almbotnen" />
		<tag k="natural" v="valley" />
		<tag k="place" v="locality" />
		<tag k="ssr:stedsnr" v="104776" />
	</node>
	<node id="-535125" lat="61.5867999995" lon="5.86540000773">
		<tag k="name" v="Allihamrane" />
		<tag k="natural" v="hill" />
		<tag k="place" v="locality" />
		<tag k="ssr:stedsnr" v="104773" />
	</node>
	<node id="-535123" lat="61.583044446" lon="5.85710000022">
		<tag k="name" v="Kalvehammaren" />
		<tag k="natural" v="hill" />
		<tag k="place" v="locality" />
		<tag k="ssr:stedsnr" v="104770" />
	</node>
	<node id="-535122" lat="61.58173056" lon="5.92025555566">
		<tag k="name" v="Tverlia" />
		<tag k="natural" v="slope" />
		<tag k="place" v="locality" />
		<tag k="ssr:stedsnr" v="104759" />
	</node>
	<node id="-535121" lat="61.5817194439" lon="5.90965555249">
		<tag k="name" v="Molia" />
		<tag k="natural" v="slope" />
		<tag k="place" v="locality" />
		<tag k="ssr:stedsnr" v="104760" />
	</node>
	<node id="-535120" lat="61.5554194489" lon="5.74758889192">
		<tag k="name" v="Storhordlistigen" />
		<tag k="natural" v="slope" />
		<tag k="place" v="locality" />
		<tag k="ssr:stedsnr" v="104704" />
	</node>
	<node id="-535118" lat="61.6080277784" lon="6.04778334108">
		<tag k="name" v="Litleelvehaugen" />
		<tag k="natural" v="hill" />
		<tag k="place" v="locality" />
		<tag k="ssr:stedsnr" v="104649" />
	</node>
	<node id="-535117" lat="61.5788055588" lon="5.80081945062">
		<tag k="name" v="Åsenden" />
		<tag k="natural" v="hill" />
		<tag k="place" v="locality" />
		<tag k="ssr:stedsnr" v="104646" />
	</node>
	<node id="-535116" lat="61.5242444448" lon="5.81945833432">
		<tag k="name" v="Rundehaugen" />
		<tag k="natural" v="hill" />
		<tag k="place" v="locality" />
		<tag k="ssr:stedsnr" v="104596" />
	</node>
	<node id="-535115" lat="61.5980305551" lon="6.07253611138">
		<tag k="name" v="Stølsjarane" />
		<tag k="place" v="locality" />
		<tag k="ssr:stedsnr" v="104579" />
	</node>
	<node id="-535114" lat="61.6007944434" lon="5.96749443989">
		<tag k="name" v="Saueskora" />
		<tag k="natural" v="valley" />
		<tag k="place" v="locality" />
		<tag k="ssr:stedsnr" v="104553" />
	</node>
	<node id="-535112" lat="61.5656083293" lon="5.95381944185">
		<tag k="name" v="Skaflestadtrodal" />
		<tag k="natural" v="valley" />
		<tag k="place" v="locality" />
		<tag k="ssr:stedsnr" v="104478" />
	</node>
	<node id="-535111" lat="61.5491694403" lon="5.68752221367">
		<tag k="name" v="Storeleite" />
		<tag k="place" v="locality" />
		<tag k="ssr:stedsnr" v="104472" />
	</node>
	<node id="-535110" lat="61.6128638852" lon="6.06210554954">
		<tag k="name" v="Skarbakkane" />
		<tag k="natural" v="slope" />
		<tag k="place" v="locality" />
		<tag k="ssr:stedsnr" v="104465" />
	</node>
	<node id="-535109" lat="61.6162555533" lon="6.05776943652">
		<tag k="name" v="Reset" />
		<tag k="natural" v="hill" />
		<tag k="place" v="locality" />
		<tag k="ssr:stedsnr" v="104463" />
	</node>
	<node id="-535108" lat="61.5131916659" lon="5.67389444712">
		<tag k="name" v="Svartesvå" />
		<tag k="natural" v="hill" />
		<tag k="place" v="locality" />
		<tag k="ssr:stedsnr" v="104437" />
	</node>
	<node id="-535107" lat="61.5826833329" lon="5.998647222">
		<tag k="name" v="Øyjordlia" />
		<tag k="natural" v="slope" />
		<tag k="place" v="locality" />
		<tag k="ssr:stedsnr" v="104383" />
	</node>
	<node id="-535105" lat="61.5031305532" lon="5.37926666672">
		<tag k="name" v="Årdalslia" />
		<tag k="natural" v="slope" />
		<tag k="place" v="locality" />
		<tag k="ssr:stedsnr" v="104338" />
	</node>
	<node id="-535104" lat="61.4709000031" lon="5.60366667461">
		<tag k="name" v="Grønebakkane" />
		<tag k="natural" v="slope" />
		<tag k="place" v="locality" />
		<tag k="ssr:stedsnr" v="104228" />
	</node>
	<node id="-535103" lat="61.4961472247" lon="5.48287221445">
		<tag k="name" v="Storeskora" />
		<tag k="natural" v="hill" />
		<tag k="place" v="locality" />
		<tag k="ssr:stedsnr" v="104229" />
	</node>
	<node id="-535102" lat="61.5009888856" lon="5.43914166199">
		<tag k="name" v="Skobbegeitsbakkane" />
		<tag k="natural" v="slope" />
		<tag k="place" v="locality" />
		<tag k="ssr:stedsnr" v="104211" />
	</node>
	<node id="-535100" lat="61.504458333" lon="5.67655555249">
		<tag k="name" v="Styggetorva" />
		<tag k="natural" v="hill" />
		<tag k="place" v="locality" />
		<tag k="ssr:stedsnr" v="104176" />
	</node>
	<node id="-535097" lat="61.498011109" lon="5.65289999764">
		<tag k="name" v="Brendehaugen" />
		<tag k="natural" v="hill" />
		<tag k="place" v="locality" />
		<tag k="ssr:stedsnr" v="104072" />
	</node>
	<node id="-535096" lat="61.50599167" lon="5.51169166554">
		<tag k="name" v="Svarthamrane" />
		<tag k="natural" v="hill" />
		<tag k="place" v="locality" />
		<tag k="ssr:stedsnr" v="104066" />
	</node>
	<node id="-535095" lat="61.4975805601" lon="5.59922500187">
		<tag k="name" v="Frammarsvikbakkane" />
		<tag k="natural" v="slope" />
		<tag k="place" v="locality" />
		<tag k="ssr:stedsnr" v="104027" />
	</node>
	<node id="-535094" lat="61.5076083329" lon="5.60828056282">
		<tag k="name" v="Skaret" />
		<tag k="natural" v="valley" />
		<tag k="place" v="locality" />
		<tag k="ssr:stedsnr" v="104024" />
	</node>
	<node id="-535093" lat="61.5675750041" lon="5.77138610811">
		<tag k="name" v="Rusta" />
		<tag k="natural" v="hill" />
		<tag k="place" v="locality" />
		<tag k="ssr:stedsnr" v="103571" />
	</node>
	<node id="-535090" lat="61.5621055598" lon="5.76383332402">
		<tag k="name" v="Myrebærhaugen" />
		<tag k="natural" v="hill" />
		<tag k="place" v="locality" />
		<tag k="ssr:stedsnr" v="103562" />
	</node>
	<node id="-535089" lat="61.4654000013" lon="5.55762222534">
		<tag k="name" v="Botelhelleren" />
		<tag k="natural" v="hill" />
		<tag k="place" v="locality" />
		<tag k="ssr:stedsnr" v="103435" />
	</node>
	<node id="-535088" lat="61.4761972243" lon="5.58120555874">
		<tag k="name" v="Gjelet" />
		<tag k="natural" v="valley" />
		<tag k="place" v="locality" />
		<tag k="ssr:stedsnr" v="103213" />
	</node>
	<node id="-535087" lat="61.5731055576" lon="5.99260554683">
		<tag k="name" v="Gaddehaugen" />
		<tag k="natural" v="hill" />
		<tag k="place" v="locality" />
		<tag k="ssr:stedsnr" v="98373" />
	</node>
	<node id="-535086" lat="61.6296594326" lon="6.00861868508">
		<tag k="name" v="Grovagjel" />
		<tag k="natural" v="gorge" />
		<tag k="ssr:stedsnr" v="93377" />
	</node>
	<node id="-535084" lat="61.5693861106" lon="6.04313055143">
		<tag k="fixme" v="consider natural=peak for the most distinct mountains in the district" />
		<tag k="name" v="Naustdalsskorene" />
		<tag k="natural" v="hill" />
		<tag k="place" v="locality" />
		<tag k="ssr:stedsnr" v="70200" />
	</node>
	<node id="-535082" lat="61.5192944455" lon="5.91110000367">
		<tag k="fixme" v="consider natural=peak for the most distinct mountains in the district" />
		<tag k="name" v="Høgefjellet" />
		<tag k="natural" v="hill" />
		<tag k="place" v="locality" />
		<tag k="ssr:stedsnr" v="70149" />
	</node>
	<node id="-535081" lat="61.6262361152" lon="6.087986117">
		<tag k="name" v="Svartebotnen" />
		<tag k="natural" v="valley" />
		<tag k="place" v="locality" />
		<tag k="ssr:stedsnr" v="70242" />
	</node>
	<node id="-535079" lat="61.5811388866" lon="5.9965416634">
		<tag k="fixme" v="consider natural=peak for the most distinct mountains in the district" />
		<tag k="name" v="Rabben" />
		<tag k="natural" v="hill" />
		<tag k="place" v="locality" />
		<tag k="ssr:stedsnr" v="70213" />
	</node>
	<node id="-535078" lat="61.5593666642" lon="5.97582777795">
		<tag k="name" v="Torgeirlia" />
		<tag k="natural" v="slope" />
		<tag k="place" v="locality" />
		<tag k="ssr:stedsnr" v="70201" />
	</node>
	<node id="-535061" lat="61.4993833357" lon="5.56355834095">
		<tag k="name" v="Kakedalen" />
		<tag k="natural" v="valley" />
		<tag k="place" v="locality" />
		<tag k="ssr:stedsnr" v="68518" />
	</node>
	<node id="-535060" lat="61.4814666664" lon="5.48850555755">
		<tag k="name" v="Botnen" />
		<tag k="natural" v="valley" />
		<tag k="place" v="locality" />
		<tag k="ssr:stedsnr" v="68752" />
	</node>
	<node id="-535059" lat="61.48448056" lon="5.56870000289">
		<tag k="name" v="Langedalen" />
		<tag k="natural" v="valley" />
		<tag k="place" v="locality" />
		<tag k="ssr:stedsnr" v="68745" />
	</node>
	<node id="-535055" lat="61.497802774" lon="5.38333611728">
		<tag k="name" v="Vasshaugane" />
		<tag k="natural" v="hill" />
		<tag k="place" v="locality" />
		<tag k="ssr:stedsnr" v="68007" />
	</node>
	<node id="-535053" lat="61.5041888919" lon="5.2973388904">
		<tag k="name" v="Rabben" />
		<tag k="natural" v="hill" />
		<tag k="place" v="locality" />
		<tag k="ssr:stedsnr" v="44292" />
	</node>
	<node id="-535052" lat="61.507308332" lon="5.30960278324">
		<tag k="name" v="Brendene" />
		<tag k="natural" v="hill" />
		<tag k="place" v="locality" />
		<tag k="ssr:stedsnr" v="44270" />
	</node>
	<node id="-535051" lat="61.4982638933" lon="5.33331111924">
		<tag k="name" v="Seljehamrane" />
		<tag k="natural" v="hill" />
		<tag k="place" v="locality" />
		<tag k="ssr:stedsnr" v="44260" />
	</node>
	<node id="-535050" lat="61.4935388876" lon="5.33234999678">
		<tag k="fixme" v="consider natural=peak for the most distinct mountains in the district" />
		<tag k="name" v="Seteråsen" />
		<tag k="natural" v="hill" />
		<tag k="place" v="locality" />
		<tag k="ssr:stedsnr" v="44257" />
	</node>
	<node id="-535049" lat="61.4976388866" lon="5.42465556137">
		<tag k="name" v="Lindabotn" />
		<tag k="natural" v="valley" />
		<tag k="place" v="locality" />
		<tag k="ssr:stedsnr" v="44252" />
	</node>
	<node id="-535048" lat="61.4845361096" lon="5.49600000547">
		<tag k="name" v="Kleiva" />
		<tag k="natural" v="slope" />
		<tag k="place" v="locality" />
		<tag k="ssr:stedsnr" v="44133" />
	</node>
	<node id="-535046" lat="61.5576749987" lon="5.91416945075">
		<tag k="name" v="Klumpane" />
		<tag k="natural" v="hill" />
		<tag k="place" v="locality" />
		<tag k="ssr:stedsnr" v="43983" />
	</node>
	<node id="-535045" lat="61.5472305522" lon="5.75778610418">
		<tag k="name" v="Morgjelhamrane" />
		<tag k="natural" v="hill" />
		<tag k="place" v="locality" />
		<tag k="ssr:stedsnr" v="43973" />
	</node>
	<node id="-535044" lat="61.546797218" lon="5.76458056319">
		<tag k="name" v="Huhaugane" />
		<tag k="natural" v="hill" />
		<tag k="place" v="locality" />
		<tag k="ssr:stedsnr" v="43972" />
	</node>
	<node id="-535043" lat="61.5447083339" lon="5.75369166963">
		<tag k="name" v="Steinkyrkja" />
		<tag k="natural" v="hill" />
		<tag k="place" v="locality" />
		<tag k="ssr:stedsnr" v="43969" />
	</node>
	<node id="-535042" lat="61.5703666638" lon="5.85725556113">
		<tag k="name" v="Kolvebotnen" />
		<tag k="natural" v="valley" />
		<tag k="place" v="locality" />
		<tag k="ssr:stedsnr" v="43965" />
	</node>
	<node id="-535041" lat="61.568172221" lon="5.86129722859">
		<tag k="name" v="Skinstoflata" />
		<tag k="place" v="locality" />
		<tag k="ssr:stedsnr" v="43963" />
	</node>
	<node id="-535039" lat="61.5491222268" lon="5.86826111484">
		<tag k="fixme" v="consider natural=peak for the most distinct mountains in the district" />
		<tag k="name" v="Barbroholten" />
		<tag k="natural" v="hill" />
		<tag k="place" v="locality" />
		<tag k="ssr:stedsnr" v="43946" />
	</node>
	<node id="-535038" lat="61.5383722184" lon="5.84866111712">
		<tag k="name" v="Bakkestølslia" />
		<tag k="natural" v="slope" />
		<tag k="place" v="locality" />
		<tag k="ssr:stedsnr" v="43932" />
	</node>
	<node id="-535037" lat="61.5522749996" lon="5.77069722385">
		<tag k="name" v="Stampehaugen" />
		<tag k="natural" v="hill" />
		<tag k="place" v="locality" />
		<tag k="ssr:stedsnr" v="43923" />
	</node>
	<node id="-535036" lat="61.543636111" lon="5.80458610693">
		<tag k="name" v="Bjørnstien" />
		<tag k="natural" v="valley" />
		<tag k="place" v="locality" />
		<tag k="ssr:stedsnr" v="43904" />
	</node>
	<node id="-535035" lat="61.5439694463" lon="5.79600833381">
		<tag k="name" v="Leitebakken" />
		<tag k="natural" v="slope" />
		<tag k="place" v="locality" />
		<tag k="ssr:stedsnr" v="43903" />
	</node>
	<node id="-535034" lat="61.4987388874" lon="5.50473889619">
		<tag k="name" v="Kviteskred" />
		<tag k="natural" v="valley" />
		<tag k="place" v="locality" />
		<tag k="ssr:stedsnr" v="44043" />
	</node>
	<node id="-535033" lat="61.5098083304" lon="5.7006277758">
		<tag k="name" v="Ospene" />
		<tag k="natural" v="hill" />
		<tag k="place" v="locality" />
		<tag k="ssr:stedsnr" v="43809" />
	</node>
	<node id="-535029" lat="61.5997166645" lon="5.86151389734">
		<tag k="name" v="Luseholene" />
		<tag k="natural" v="valley" />
		<tag k="place" v="locality" />
		<tag k="ssr:stedsnr" v="43864" />
	</node>
	<node id="-535028" lat="61.5217472217" lon="5.78018333146">
		<tag k="name" v="Litlelia" />
		<tag k="natural" v="slope" />
		<tag k="place" v="locality" />
		<tag k="ssr:stedsnr" v="43860" />
	</node>
	<node id="-535027" lat="61.5190027806" lon="5.78556389153">
		<tag k="name" v="Betnene" />
		<tag k="natural" v="slope" />
		<tag k="place" v="locality" />
		<tag k="ssr:stedsnr" v="43858" />
	</node>
	<node id="-535026" lat="61.5184111132" lon="5.76850833607">
		<tag k="name" v="Åsebotnen" />
		<tag k="natural" v="valley" />
		<tag k="place" v="locality" />
		<tag k="ssr:stedsnr" v="43856" />
	</node>
	<node id="-535024" lat="61.5844500014" lon="5.8480527716">
		<tag k="name" v="Blåhammaren" />
		<tag k="natural" v="hill" />
		<tag k="place" v="locality" />
		<tag k="ssr:stedsnr" v="43792" />
	</node>
	<node id="-535023" lat="61.5730583376" lon="5.74560555761">
		<tag k="name" v="Åmotsremma" />
		<tag k="natural" v="hill" />
		<tag k="place" v="locality" />
		<tag k="ssr:stedsnr" v="43683" />
	</node>
	<node id="-535022" lat="61.5788694458" lon="5.76045832426">
		<tag k="name" v="Årlihamrane" />
		<tag k="natural" v="hill" />
		<tag k="place" v="locality" />
		<tag k="ssr:stedsnr" v="43648" />
	</node>
	<node id="-535021" lat="61.5876027739" lon="5.94261944803">
		<tag k="name" v="Bruflotgjel" />
		<tag k="natural" v="gorge" />
		<tag k="ssr:stedsnr" v="43620" />
	</node>
	<node id="-535020" lat="61.5184222188" lon="5.82526945071">
		<tag k="name" v="Bjørkehaugen" />
		<tag k="natural" v="hill" />
		<tag k="place" v="locality" />
		<tag k="ssr:stedsnr" v="43612" />
	</node>
	<node id="-535018" lat="61.5718000011" lon="5.98106943625">
		<tag k="name" v="Fessene" />
		<tag k="natural" v="slope" />
		<tag k="place" v="locality" />
		<tag k="ssr:stedsnr" v="43446" />
	</node>
	<node id="-535016" lat="61.5861055543" lon="6.00259723077">
		<tag k="name" v="Rinden" />
		<tag k="natural" v="hill" />
		<tag k="place" v="locality" />
		<tag k="ssr:stedsnr" v="43385" />
	</node>
	<node id="-535015" lat="61.4935861069" lon="5.36394722705">
		<tag k="name" v="Ospehaugen" />
		<tag k="natural" v="hill" />
		<tag k="place" v="locality" />
		<tag k="ssr:stedsnr" v="43359" />
	</node>
	<node id="-535014" lat="61.5213777743" lon="5.83280277756">
		<tag k="fixme" v="consider natural=peak for the most distinct mountains in the district" />
		<tag k="name" v="Litleåsen" />
		<tag k="natural" v="hill" />
		<tag k="place" v="locality" />
		<tag k="ssr:stedsnr" v="43421" />
	</node>
	<node id="-535013" lat="61.5347694423" lon="5.65719999127">
		<tag k="fixme" v="consider natural=peak for the most distinct mountains in the district" />
		<tag k="name" v="Kvigeheia" />
		<tag k="natural" v="hill" />
		<tag k="place" v="locality" />
		<tag k="ssr:stedsnr" v="43422" />
	</node>
	<node id="-535012" lat="61.4996527762" lon="5.45131666543">
		<tag k="name" v="Sandgota" />
		<tag k="natural" v="hill" />
		<tag k="place" v="locality" />
		<tag k="ssr:stedsnr" v="43207" />
	</node>
	<node id="-535009" lat="61.5897916693" lon="6.00048054619">
		<tag k="name" v="Setane" />
		<tag k="natural" v="slope" />
		<tag k="place" v="locality" />
		<tag k="ssr:stedsnr" v="38394" />
	</node>
	<node id="-535008" lat="61.5074083302" lon="5.52564999893">
		<tag k="fixme" v="consider natural=peak for the most distinct mountains in the district" />
		<tag k="name" v="Langeheia" />
		<tag k="natural" v="hill" />
		<tag k="place" v="locality" />
		<tag k="ssr:stedsnr" v="20741" />
	</node>
	<node id="-534999" lat="61.632386114" lon="6.06641667398">
		<tag k="name" v="Vonaskaret" />
		<tag k="natural" v="valley" />
		<tag k="place" v="locality" />
		<tag k="ssr:stedsnr" v="9222" />
	</node>
	<node id="-534997" lat="61.590375001" lon="5.9233111046">
		<tag k="fixme" v="consider natural=peak for the most distinct mountains in the district" />
		<tag k="name" v="Ørnefjellet" />
		<tag k="natural" v="hill" />
		<tag k="place" v="locality" />
		<tag k="ssr:stedsnr" v="9212" />
	</node>
	<node id="-534995" lat="61.5380777758" lon="5.89008889066">
		<tag k="fixme" v="consider natural=peak for the most distinct mountains in the district" />
		<tag k="name" v="Smådalsnipa" />
		<tag k="natural" v="hill" />
		<tag k="place" v="locality" />
		<tag k="ssr:stedsnr" v="9172" />
	</node>
	<node id="-534988" lat="61.4974555544" lon="5.5865777826">
		<tag k="fixme" v="consider natural=peak for the most distinct mountains in the district" />
		<tag k="name" v="Kyrskora" />
		<tag k="natural" v="hill" />
		<tag k="place" v="locality" />
		<tag k="ssr:stedsnr" v="8531" />
	</node>
	<node id="-534984" lat="61.5269499965" lon="5.82180555669">
		<tag k="name" v="Fjellflatene" />
		<tag k="place" v="locality" />
		<tag k="ssr:stedsnr" v="8461" />
	</node>
	<node id="-534972" lat="61.4998194475" lon="5.31081665894">
		<tag k="name" v="Svortevikhaugen" />
		<tag k="natural" v="hill" />
		<tag k="place" v="locality" />
		<tag k="ssr:stedsnr" v="894321" />
	</node>
	<node id="-534971" lat="61.4989361125" lon="5.31823610868">
		<tag k="name" v="Slettebrekka" />
		<tag k="natural" v="slope" />
		<tag k="place" v="locality" />
		<tag k="ssr:stedsnr" v="894317" />
	</node>
	<node id="-534970" lat="61.5048055592" lon="5.40828333355">
		<tag k="fixme" v="consider natural=peak for the most distinct mountains in the district" />
		<tag k="name" v="Høgeheia" />
		<tag k="natural" v="hill" />
		<tag k="place" v="locality" />
		<tag k="ssr:stedsnr" v="894279" />
	</node>
	<node id="-534969" lat="61.567002774" lon="5.87839167473">
		<tag k="name" v="Heianova" />
		<tag k="natural" v="hill" />
		<tag k="place" v="locality" />
		<tag k="ssr:stedsnr" v="893967" />
	</node>
	<node id="-534968" lat="61.5715500034" lon="5.89884165986">
		<tag k="name" v="Reset" />
		<tag k="natural" v="hill" />
		<tag k="place" v="locality" />
		<tag k="ssr:stedsnr" v="893958" />
	</node>
	<node id="-534967" lat="61.5589916706" lon="5.82060554748">
		<tag k="name" v="Styggehaugen" />
		<tag k="natural" v="hill" />
		<tag k="place" v="locality" />
		<tag k="ssr:stedsnr" v="893935" />
	</node>
	<node id="-534966" lat="61.5533027821" lon="5.84241111811">
		<tag k="name" v="Betnene" />
		<tag k="natural" v="hill" />
		<tag k="place" v="locality" />
		<tag k="ssr:stedsnr" v="893916" />
	</node>
	<node id="-534961" lat="61.5855749965" lon="5.85068055287">
		<tag k="name" v="Bjørnalia" />
		<tag k="natural" v="slope" />
		<tag k="place" v="locality" />
		<tag k="ssr:stedsnr" v="893792" />
	</node>
	<node id="-534959" lat="61.5604638868" lon="5.72095276929">
		<tag k="name" v="Nipeflatene" />
		<tag k="place" v="locality" />
		<tag k="ssr:stedsnr" v="893694" />
	</node>
	<node id="-534957" lat="61.5792944422" lon="5.9706416721">
		<tag k="name" v="Glupet" />
		<tag k="place" v="locality" />
		<tag k="ssr:stedsnr" v="893611" />
	</node>
	<node id="-534956" lat="61.6186055583" lon="6.02521666131">
		<tag k="name" v="Strandaskora" />
		<tag k="natural" v="valley" />
		<tag k="place" v="locality" />
		<tag k="ssr:stedsnr" v="893599" />
	</node>
	<node id="-534955" lat="61.5991694412" lon="6.00187778109">
		<tag k="name" v="Botnen" />
		<tag k="natural" v="valley" />
		<tag k="place" v="locality" />
		<tag k="ssr:stedsnr" v="893591" />
	</node>
	<node id="-534954" lat="61.6133916661" lon="5.99838612027">
		<tag k="fixme" v="consider natural=peak for the most distinct mountains in the district" />
		<tag k="name" v="Illekleivholten" />
		<tag k="natural" v="hill" />
		<tag k="place" v="locality" />
		<tag k="ssr:stedsnr" v="893587" />
	</node>
	<node id="-534953" lat="61.605755552" lon="5.98191389092">
		<tag k="fixme" v="consider natural=peak for the most distinct mountains in the district" />
		<tag k="name" v="Åsen" />
		<tag k="natural" v="hill" />
		<tag k="place" v="locality" />
		<tag k="ssr:stedsnr" v="893585" />
	</node>
	<node id="-534952" lat="61.6113666664" lon="5.98766667432">
		<tag k="fixme" v="consider natural=peak for the most distinct mountains in the district" />
		<tag k="name" v="Tøgefjell" />
		<tag k="natural" v="hill" />
		<tag k="place" v="locality" />
		<tag k="ssr:stedsnr" v="893559" />
	</node>
	<node id="-534951" lat="61.5660611081" lon="5.80493332951">
		<tag k="name" v="Trollgjelet" />
		<tag k="natural" v="valley" />
		<tag k="place" v="locality" />
		<tag k="ssr:stedsnr" v="893541" />
	</node>
	<node id="-534950" lat="61.5216333295" lon="5.65428611615">
		<tag k="name" v="Hildrehamrane" />
		<tag k="natural" v="hill" />
		<tag k="place" v="locality" />
		<tag k="ssr:stedsnr" v="893499" />
	</node>
	<node id="-534949" lat="61.5564666685" lon="5.96979999241">
		<tag k="name" v="Heia" />
		<tag k="natural" v="hill" />
		<tag k="place" v="locality" />
		<tag k="ssr:stedsnr" v="893486" />
	</node>
	<node id="-534947" lat="61.5721694454" lon="5.96847778217">
		<tag k="name" v="Johola" />
		<tag k="natural" v="gorge" />
		<tag k="ssr:stedsnr" v="893457" />
	</node>
	<node id="-534946" lat="61.523905552" lon="5.84849444123">
		<tag k="name" v="Klubberimma" />
		<tag k="natural" v="hill" />
		<tag k="place" v="locality" />
		<tag k="ssr:stedsnr" v="893426" />
	</node>
	<node id="-534945" lat="61.5403777736" lon="5.63326943609">
		<tag k="name" v="Hovehaugen" />
		<tag k="natural" v="hill" />
		<tag k="place" v="locality" />
		<tag k="ssr:stedsnr" v="893423" />
	</node>
	<node id="-534943" lat="61.5322305599" lon="5.85851388844">
		<tag k="name" v="Botnen" />
		<tag k="natural" v="valley" />
		<tag k="place" v="locality" />
		<tag k="ssr:stedsnr" v="893409" />
	</node>
	<node id="-534942" lat="61.5810138897" lon="6.02790833746">
		<tag k="name" v="Fylshaugane" />
		<tag k="natural" v="hill" />
		<tag k="place" v="locality" />
		<tag k="ssr:stedsnr" v="893389" />
	</node>
	<node id="-534941" lat="61.4982138919" lon="5.36200278636">
		<tag k="name" v="Rustene" />
		<tag k="natural" v="hill" />
		<tag k="place" v="locality" />
		<tag k="ssr:stedsnr" v="893362" />
	</node>
	<node id="-534940" lat="61.5033250017" lon="5.35725000037">
		<tag k="name" v="Ivehamrane" />
		<tag k="natural" v="hill" />
		<tag k="place" v="locality" />
		<tag k="ssr:stedsnr" v="893348" />
	</node>
	<node id="-534939" lat="61.5039388863" lon="5.27708055206">
		<tag k="fixme" v="consider natural=peak for the most distinct mountains in the district" />
		<tag k="name" v="Litleåsen" />
		<tag k="natural" v="hill" />
		<tag k="place" v="locality" />
		<tag k="ssr:stedsnr" v="893301" />
	</node>
	<node id="-534938" lat="61.502224998" lon="5.28320833487">
		<tag k="name" v="Ramberga" />
		<tag k="natural" v="hill" />
		<tag k="place" v="locality" />
		<tag k="ssr:stedsnr" v="893298" />
	</node>
	<node id="-534936" lat="61.486441669" lon="5.58294443544">
		<tag k="name" v="Snelia" />
		<tag k="natural" v="slope" />
		<tag k="place" v="locality" />
		<tag k="ssr:stedsnr" v="893232" />
	</node>
	<node id="-534935" lat="61.5093305573" lon="5.44220832433">
		<tag k="name" v="Liane" />
		<tag k="natural" v="slope" />
		<tag k="place" v="locality" />
		<tag k="ssr:stedsnr" v="893223" />
	</node>
	<node id="-534934" lat="61.50893611" lon="5.42803333125">
		<tag k="name" v="Korskarhola" />
		<tag k="natural" v="gorge" />
		<tag k="ssr:stedsnr" v="893214" />
	</node>
	<node id="-534933" lat="61.5015083309" lon="5.64921110259">
		<tag k="name" v="Haugane" />
		<tag k="natural" v="hill" />
		<tag k="place" v="locality" />
		<tag k="ssr:stedsnr" v="893200" />
	</node>
	<node id="-534932" lat="61.4686611144" lon="5.47919445166">
		<tag k="name" v="Brekka" />
		<tag k="natural" v="slope" />
		<tag k="place" v="locality" />
		<tag k="ssr:stedsnr" v="893112" />
	</node>
	<node id="-534930" lat="61.5597805597" lon="5.76344165964">
		<tag k="fixme" v="consider natural=peak for the most distinct mountains in the district" />
		<tag k="name" v="Brendefjellet" />
		<tag k="natural" v="hill" />
		<tag k="place" v="locality" />
		<tag k="ssr:stedsnr" v="892538" />
	</node>
	<node id="-534927" lat="61.5507583338" lon="5.85660833836">
		<tag k="name" v="Skarelia" />
		<tag k="natural" v="slope" />
		<tag k="place" v="locality" />
		<tag k="ssr:stedsnr" v="408949" />
	</node>
	<node id="-534926" lat="61.5416833345" lon="5.86176389408">
		<tag k="fixme" v="consider natural=peak for the most distinct mountains in the district" />
		<tag k="name" v="Gilderholten" />
		<tag k="natural" v="hill" />
		<tag k="place" v="locality" />
		<tag k="ssr:stedsnr" v="408922" />
	</node>
	<node id="-534924" lat="61.4726305553" lon="5.56456111727">
		<tag k="name" v="Kviteberget" />
		<tag k="natural" v="hill" />
		<tag k="place" v="locality" />
		<tag k="ssr:stedsnr" v="408858" />
	</node>
	<node id="-534923" lat="61.5259888921" lon="5.75731389773">
		<tag k="name" v="Stampehaugen" />
		<tag k="natural" v="hill" />
		<tag k="place" v="locality" />
		<tag k="ssr:stedsnr" v="408851" />
	</node>
	<node id="-534919" lat="61.5957694486" lon="5.81793332909">
		<tag k="name" v="Svarthamrane" />
		<tag k="natural" v="hill" />
		<tag k="place" v="locality" />
		<tag k="ssr:stedsnr" v="408811" />
	</node>
	<node id="-534916" lat="61.5810888915" lon="5.96933888512">
		<tag k="name" v="Reset" />
		<tag k="natural" v="hill" />
		<tag k="place" v="locality" />
		<tag k="ssr:stedsnr" v="408623" />
	</node>
	<node id="-534914" lat="61.5816944454" lon="6.02205278708">
		<tag k="name" v="Ivaøyna" />
		<tag k="place" v="locality" />
		<tag k="ssr:stedsnr" v="408423" />
	</node>
	<node id="-534913" lat="61.525566664" lon="5.86111110659">
		<tag k="name" v="Brekkene" />
		<tag k="natural" v="slope" />
		<tag k="place" v="locality" />
		<tag k="ssr:stedsnr" v="408420" />
	</node>
	<node id="-534912" lat="61.5032722242" lon="5.28746388159">
		<tag k="name" v="Gattemota" />
		<tag k="natural" v="slope" />
		<tag k="place" v="locality" />
		<tag k="ssr:stedsnr" v="408323" />
	</node>
	<node id="-534911" lat="61.4980333313" lon="5.30913054867">
		<tag k="name" v="Mjellhaugen" />
		<tag k="natural" v="hill" />
		<tag k="place" v="locality" />
		<tag k="ssr:stedsnr" v="408302" />
	</node>
	<node id="-534910" lat="61.5021944421" lon="5.46811389067">
		<tag k="name" v="Brandane" />
		<tag k="natural" v="ridge" />
		<tag k="place" v="locality" />
		<tag k="ssr:stedsnr" v="408227" />
	</node>
	<node id="-534908" lat="61.471419447" lon="5.4566111165">
		<tag k="name" v="Verpeholene" />
		<tag k="natural" v="gorge" />
		<tag k="ssr:stedsnr" v="408126" />
	</node>
	<node id="-534907" lat="61.4890638936" lon="5.55568611785">
		<tag k="name" v="Reinsdyrskora" />
		<tag k="natural" v="valley" />
		<tag k="place" v="locality" />
		<tag k="ssr:stedsnr" v="408106" />
	</node>
	<node id="-534906" lat="61.4738499993" lon="5.54960834252">
		<tag k="name" v="Tjukkekjerringa" />
		<tag k="natural" v="hill" />
		<tag k="place" v="locality" />
		<tag k="ssr:stedsnr" v="408086" />
	</node>
	<node id="-534905" lat="61.4981888906" lon="5.49704999592">
		<tag k="name" v="Fossen" />
		<tag k="natural" v="slope" />
		<tag k="place" v="locality" />
		<tag k="ssr:stedsnr" v="408041" />
	</node>
	<node id="-534904" lat="61.5027805537" lon="5.55422777786">
		<tag k="name" v="Ryggen" />
		<tag k="natural" v="ridge" />
		<tag k="place" v="locality" />
		<tag k="ssr:stedsnr" v="408012" />
	</node>
	<node id="-534901" lat="61.5674888848" lon="5.91879166214">
		<tag k="name" v="Aksla" />
		<tag k="natural" v="hill" />
		<tag k="place" v="locality" />
		<tag k="ssr:stedsnr" v="407988" />
	</node>
	<node id="-534900" lat="61.5612055514" lon="5.92632777709">
		<tag k="name" v="Fessene" />
		<tag k="natural" v="slope" />
		<tag k="place" v="locality" />
		<tag k="ssr:stedsnr" v="407966" />
	</node>
	<node id="-534899" lat="61.565752777" lon="5.8622916666">
		<tag k="name" v="Ormskaret" />
		<tag k="natural" v="valley" />
		<tag k="place" v="locality" />
		<tag k="ssr:stedsnr" v="407947" />
	</node>
	<node id="-534898" lat="61.5434138912" lon="5.78260555758">
		<tag k="name" v="Ekrehaugen" />
		<tag k="natural" v="hill" />
		<tag k="place" v="locality" />
		<tag k="ssr:stedsnr" v="407931" />
	</node>
	<node id="-534897" lat="61.5694999969" lon="5.83678610473">
		<tag k="name" v="Litleåshammaren" />
		<tag k="natural" v="hill" />
		<tag k="place" v="locality" />
		<tag k="ssr:stedsnr" v="407919" />
	</node>
	<node id="-534892" lat="61.5604722235" lon="5.75993611717">
		<tag k="name" v="Gavlane" />
		<tag k="natural" v="hill" />
		<tag k="place" v="locality" />
		<tag k="ssr:stedsnr" v="407610" />
	</node>
	<node id="-534891" lat="61.6094000022" lon="6.06598611325">
		<tag k="name" v="Litlefjellsdalen" />
		<tag k="natural" v="valley" />
		<tag k="place" v="locality" />
		<tag k="ssr:stedsnr" v="407510" />
	</node>
	<node id="-534890" lat="61.5208722256" lon="5.84334721997">
		<tag k="name" v="Bjørnebotnen" />
		<tag k="natural" v="valley" />
		<tag k="place" v="locality" />
		<tag k="ssr:stedsnr" v="407476" />
	</node>
	<node id="-534889" lat="61.5292166635" lon="5.84800833377">
		<tag k="name" v="Vasshaugen" />
		<tag k="natural" v="hill" />
		<tag k="place" v="locality" />
		<tag k="ssr:stedsnr" v="407461" />
	</node>
	<node id="-534888" lat="61.5040861074" lon="5.47391944862">
		<tag k="name" v="Storebotnen" />
		<tag k="natural" v="valley" />
		<tag k="place" v="locality" />
		<tag k="ssr:stedsnr" v="407260" />
	</node>
	<node id="-534887" lat="61.4993861144" lon="5.45956667008">
		<tag k="name" v="Luren" />
		<tag k="natural" v="valley" />
		<tag k="place" v="locality" />
		<tag k="ssr:stedsnr" v="407254" />
	</node>
	<node id="-534886" lat="61.4876111118" lon="5.64139722276">
		<tag k="fixme" v="consider natural=peak for the most distinct mountains in the district" />
		<tag k="name" v="Holmesetfjellet" />
		<tag k="natural" v="hill" />
		<tag k="place" v="locality" />
		<tag k="ssr:stedsnr" v="407152" />
	</node>
	<node id="-534884" lat="61.6043388916" lon="6.0767972142">
		<tag k="name" v="Botnalirabben" />
		<tag k="natural" v="hill" />
		<tag k="place" v="locality" />
		<tag k="ssr:stedsnr" v="402494" />
	</node>
	<node id="-534883" lat="61.5907888868" lon="6.00048054791">
		<tag k="fixme" v="consider natural=peak for the most distinct mountains in the district" />
		<tag k="name" v="Fjellet" />
		<tag k="natural" v="hill" />
		<tag k="place" v="locality" />
		<tag k="ssr:stedsnr" v="402403" />
	</node>
	<node id="-534878" lat="61.5076416638" lon="5.78450555958">
		<tag k="name" v="Sletteholten" />
		<tag k="natural" v="hill" />
		<tag k="place" v="locality" />
		<tag k="ssr:stedsnr" v="383714" />
	</node>
	<node id="-534877" lat="61.5218833346" lon="5.76419999422">
		<tag k="name" v="Holtane" />
		<tag k="natural" v="hill" />
		<tag k="place" v="locality" />
		<tag k="ssr:stedsnr" v="383710" />
	</node>
	<node id="-534846" lat="61.6139499975" lon="6.27158055262">
		<tag k="fixme" v="consider natural=peak for the most distinct mountains in the district" />
		<tag k="name" v="Trollebottsegga" />
		<tag k="natural" v="hill" />
		<tag k="place" v="locality" />
		<tag k="ssr:stedsnr" v="373726" />
	</node>
	<node id="-534839" lat="61.5901305596" lon="6.04273888034">
		<tag k="fixme" v="multiple name tags, choose one and add the other to alt_name; consider natural=peak for the most distinct mountains in the district" />
		<tag k="name" v="Ekrefjellet;Svorstølsheia" />
		<tag k="natural" v="hill" />
		<tag k="place" v="locality" />
		<tag k="ssr:stedsnr" v="373206" />
	</node>
	<node id="-534833" lat="61.6371638888" lon="6.23930832748">
		<tag k="name" v="Blåskardet" />
		<tag k="natural" v="valley" />
		<tag k="place" v="locality" />
		<tag k="ssr:stedsnr" v="373039" />
	</node>
	<node id="-534832" lat="61.4940527791" lon="5.59099444551">
		<tag k="alt_name" v="Saueskaret" />
		<tag k="name" v="Saueskardet" />
		<tag k="natural" v="valley" />
		<tag k="place" v="locality" />
		<tag k="ssr:stedsnr" v="372765" />
	</node>
	<node id="-534816" lat="61.5045500003" lon="5.6494166662">
		<tag k="name" v="Sælalia" />
		<tag k="natural" v="slope" />
		<tag k="place" v="locality" />
		<tag k="ssr:stedsnr" v="372410" />
	</node>
	<node id="-534811" lat="61.495227778" lon="5.45701944403">
		<tag k="name" v="Rusta" />
		<tag k="natural" v="hill" />
		<tag k="place" v="locality" />
		<tag k="ssr:stedsnr" v="372013" />
	</node>
	<node id="-534807" lat="61.4732388896" lon="5.54091110734">
		<tag k="alt_name" v="Øyaskarholten" />
		<tag k="name" v="Øyaskardholten" />
		<tag k="natural" v="hill" />
		<tag k="place" v="locality" />
		<tag k="ssr:stedsnr" v="371703" />
	</node>
	<node id="-534803" lat="61.4667472186" lon="5.52739443879">
		<tag k="name" v="Bakkeholten" />
		<tag k="natural" v="hill" />
		<tag k="place" v="locality" />
		<tag k="ssr:stedsnr" v="371659" />
	</node>
	<node id="-534802" lat="61.469602776" lon="5.45669999179">
		<tag k="fixme" v="consider natural=peak for the most distinct mountains in the district" />
		<tag k="name" v="Høgda" />
		<tag k="natural" v="hill" />
		<tag k="place" v="locality" />
		<tag k="ssr:stedsnr" v="371075" />
	</node>
	<node id="-534798" lat="61.567391669" lon="5.82050276831">
		<tag k="name" v="Dilane" />
		<tag k="natural" v="hill" />
		<tag k="place" v="locality" />
		<tag k="ssr:stedsnr" v="347953" />
	</node>
	<node id="-534795" lat="61.6066777768" lon="5.83703333543">
		<tag k="name" v="Hillene" />
		<tag k="natural" v="hill" />
		<tag k="place" v="locality" />
		<tag k="ssr:stedsnr" v="347893" />
	</node>
	<node id="-534794" lat="61.5132166666" lon="5.76838610675">
		<tag k="name" v="Nova" />
		<tag k="natural" v="hill" />
		<tag k="place" v="locality" />
		<tag k="ssr:stedsnr" v="347870" />
	</node>
	<node id="-534791" lat="61.5024666644" lon="5.76405555779">
		<tag k="name" v="Skompen" />
		<tag k="natural" v="hill" />
		<tag k="place" v="locality" />
		<tag k="ssr:stedsnr" v="347836" />
	</node>
	<node id="-534790" lat="61.5112694415" lon="5.78117778277">
		<tag k="name" v="Stølsberga" />
		<tag k="natural" v="hill" />
		<tag k="place" v="locality" />
		<tag k="ssr:stedsnr" v="347829" />
	</node>
	<node id="-534789" lat="61.5799555535" lon="5.7364444423">
		<tag k="fixme" v="consider natural=peak for the most distinct mountains in the district" />
		<tag k="name" v="Høgenipa" />
		<tag k="natural" v="hill" />
		<tag k="place" v="locality" />
		<tag k="ssr:stedsnr" v="347754" />
	</node>
	<node id="-534787" lat="61.5824444479" lon="5.93369443873">
		<tag k="name" v="Styggegjelet" />
		<tag k="natural" v="gorge" />
		<tag k="ssr:stedsnr" v="347611" />
	</node>
	<node id="-534785" lat="61.5278111137" lon="5.86132223102">
		<tag k="name" v="Rotelia" />
		<tag k="natural" v="slope" />
		<tag k="place" v="locality" />
		<tag k="ssr:stedsnr" v="347411" />
	</node>
	<node id="-534784" lat="61.5039972184" lon="5.30795556418">
		<tag k="name" v="Rusta" />
		<tag k="natural" v="hill" />
		<tag k="place" v="locality" />
		<tag k="ssr:stedsnr" v="347297" />
	</node>
	<node id="-534783" lat="61.5092305578" lon="5.32355277306">
		<tag k="name" v="Strupen" />
		<tag k="natural" v="hill" />
		<tag k="place" v="locality" />
		<tag k="ssr:stedsnr" v="347263" />
	</node>
	<node id="-534782" lat="61.4936333306" lon="5.45334999226">
		<tag k="name" v="Stommelshaugane" />
		<tag k="natural" v="hill" />
		<tag k="place" v="locality" />
		<tag k="ssr:stedsnr" v="347219" />
	</node>
	<node id="-534781" lat="61.5012555592" lon="5.43650834183">
		<tag k="fixme" v="consider natural=peak for the most distinct mountains in the district" />
		<tag k="name" v="Navaren" />
		<tag k="natural" v="hill" />
		<tag k="place" v="locality" />
		<tag k="ssr:stedsnr" v="347204" />
	</node>
	<node id="-534779" lat="61.4782361154" lon="5.55176944287">
		<tag k="name" v="Eineliholene" />
		<tag k="natural" v="gorge" />
		<tag k="ssr:stedsnr" v="347091" />
	</node>
	<node id="-534777" lat="61.4901666624" lon="5.53154721843">
		<tag k="fixme" v="consider natural=peak for the most distinct mountains in the district" />
		<tag k="name" v="Åsen" />
		<tag k="natural" v="hill" />
		<tag k="place" v="locality" />
		<tag k="ssr:stedsnr" v="347018" />
	</node>
	<node id="-534776" lat="61.5658694443" lon="5.92276945133">
		<tag k="name" v="Bongsen" />
		<tag k="natural" v="hill" />
		<tag k="place" v="locality" />
		<tag k="ssr:stedsnr" v="346989" />
	</node>
	<node id="-534774" lat="61.5564972259" lon="5.83599166506">
		<tag k="name" v="Styggedalen" />
		<tag k="natural" v="valley" />
		<tag k="place" v="locality" />
		<tag k="ssr:stedsnr" v="346914" />
	</node>
	<node id="-534771" lat="61.5801083325" lon="5.89561667199">
		<tag k="name" v="Sundelia" />
		<tag k="natural" v="slope" />
		<tag k="place" v="locality" />
		<tag k="ssr:stedsnr" v="346767" />
	</node>
	<node id="-534769" lat="61.5722527757" lon="5.72459167362">
		<tag k="name" v="Dalsklumpen" />
		<tag k="natural" v="hill" />
		<tag k="place" v="locality" />
		<tag k="ssr:stedsnr" v="346718" />
	</node>
	<node id="-534768" lat="61.5295277784" lon="5.83481110504">
		<tag k="name" v="Kvia" />
		<tag k="natural" v="slope" />
		<tag k="place" v="locality" />
		<tag k="ssr:stedsnr" v="346646" />
	</node>
	<node id="-534767" lat="61.5301722184" lon="5.82719444039">
		<tag k="name" v="Dyreskora" />
		<tag k="natural" v="valley" />
		<tag k="place" v="locality" />
		<tag k="ssr:stedsnr" v="346645" />
	</node>
	<node id="-534766" lat="61.5953638926" lon="6.10994166495">
		<tag k="name" v="Øyna" />
		<tag k="place" v="locality" />
		<tag k="ssr:stedsnr" v="346604" />
	</node>
	<node id="-534765" lat="61.5915194441" lon="5.80018887952">
		<tag k="name" v="Osehaugen" />
		<tag k="natural" v="hill" />
		<tag k="place" v="locality" />
		<tag k="ssr:stedsnr" v="346602" />
	</node>
	<node id="-534764" lat="61.5765027794" lon="5.79342222178">
		<tag k="name" v="Fitjeåsen" />
		<tag k="natural" v="hill" />
		<tag k="place" v="locality" />
		<tag k="ssr:stedsnr" v="346590" />
	</node>
	<node id="-534761" lat="61.5646638873" lon="5.7654083269">
		<tag k="name" v="Blikhammaren" />
		<tag k="natural" v="hill" />
		<tag k="place" v="locality" />
		<tag k="ssr:stedsnr" v="346576" />
	</node>
	<node id="-534760" lat="61.569497224" lon="5.93726389487">
		<tag k="name" v="Sveene" />
		<tag k="natural" v="hill" />
		<tag k="place" v="locality" />
		<tag k="ssr:stedsnr" v="346505" />
	</node>
	<node id="-534759" lat="61.5236555512" lon="5.83716388454">
		<tag k="fixme" v="consider natural=peak for the most distinct mountains in the district" />
		<tag k="name" v="Åsen" />
		<tag k="natural" v="hill" />
		<tag k="place" v="locality" />
		<tag k="ssr:stedsnr" v="346458" />
	</node>
	<node id="-534758" lat="61.5419444461" lon="5.6739194368">
		<tag k="name" v="Bjørkebakkane" />
		<tag k="natural" v="slope" />
		<tag k="place" v="locality" />
		<tag k="ssr:stedsnr" v="346439" />
	</node>
	<node id="-534756" lat="61.4974777732" lon="5.45652221389">
		<tag k="name" v="Austrelia" />
		<tag k="natural" v="slope" />
		<tag k="place" v="locality" />
		<tag k="ssr:stedsnr" v="346221" />
	</node>
	<node id="-534755" lat="61.4853083365" lon="5.60328888624">
		<tag k="name" v="Aksla" />
		<tag k="natural" v="hill" />
		<tag k="place" v="locality" />
		<tag k="ssr:stedsnr" v="346214" />
	</node>
	<node id="-534754" lat="61.466136114" lon="5.59891389631">
		<tag k="name" v="Andalsberget" />
		<tag k="natural" v="hill" />
		<tag k="place" v="locality" />
		<tag k="ssr:stedsnr" v="346141" />
	</node>
	<node id="-534752" lat="61.5389333335" lon="5.6536694479">
		<tag k="name" v="Botnen" />
		<tag k="natural" v="valley" />
		<tag k="place" v="locality" />
		<tag k="ssr:stedsnr" v="345407" />
	</node>
	<node id="-534751" lat="61.602466669" lon="6.10070555282">
		<tag k="name" v="Trongane" />
		<tag k="natural" v="valley" />
		<tag k="place" v="locality" />
		<tag k="ssr:stedsnr" v="341483" />
	</node>
	<node id="-534750" lat="61.5930388882" lon="6.0463249938">
		<tag k="fixme" v="consider natural=peak for the most distinct mountains in the district" />
		<tag k="name" v="Nesheia" />
		<tag k="natural" v="hill" />
		<tag k="place" v="locality" />
		<tag k="ssr:stedsnr" v="333202" />
	</node>
	<node id="-534749" lat="61.5374694434" lon="5.70233888098">
		<tag k="name" v="Monsskaret" />
		<tag k="natural" v="valley" />
		<tag k="place" v="locality" />
		<tag k="ssr:stedsnr" v="323707" />
	</node>
	<node id="-534746" lat="61.530036111" lon="5.61178889377">
		<tag k="name" v="Bolteskaret" />
		<tag k="natural" v="valley" />
		<tag k="place" v="locality" />
		<tag k="ssr:stedsnr" v="323696" />
	</node>
	<node id="-534745" lat="61.6139194412" lon="5.90719722569">
		<tag k="fixme" v="consider natural=peak for the most distinct mountains in the district" />
		<tag k="name" v="Svartegrovfjellet" />
		<tag k="natural" v="hill" />
		<tag k="place" v="locality" />
		<tag k="ssr:stedsnr" v="313246" />
	</node>
	<node id="-534744" lat="61.5656916649" lon="5.97012499138">
		<tag k="fixme" v="consider natural=peak for the most distinct mountains in the district" />
		<tag k="name" v="Reineklubben" />
		<tag k="natural" v="hill" />
		<tag k="place" v="locality" />
		<tag k="ssr:stedsnr" v="313213" />
	</node>
	<node id="-534736" lat="61.6031250021" lon="6.02027777">
		<tag k="name" v="Finkenova" />
		<tag k="natural" v="hill" />
		<tag k="place" v="locality" />
		<tag k="ssr:stedsnr" v="312229" />
	</node>
	<node id="-534732" lat="61.588000003" lon="6.06183055473">
		<tag k="name" v="Stordalskreda" />
		<tag k="natural" v="slope" />
		<tag k="place" v="locality" />
		<tag k="ssr:stedsnr" v="312211" />
	</node>
	<node id="-534730" lat="61.5647388892" lon="5.88662777903">
		<tag k="fixme" v="consider natural=peak for the most distinct mountains in the district" />
		<tag k="name" v="Heianova" />
		<tag k="natural" v="hill" />
		<tag k="place" v="locality" />
		<tag k="ssr:stedsnr" v="312194" />
	</node>
	<node id="-534729" lat="61.4942416624" lon="5.62381667163">
		<tag k="fixme" v="consider natural=peak for the most distinct mountains in the district" />
		<tag k="name" v="Hestebruna" />
		<tag k="natural" v="hill" />
		<tag k="place" v="locality" />
		<tag k="ssr:stedsnr" v="311796" />
	</node>
	<node id="-534724" lat="61.4685555539" lon="5.48618333169">
		<tag k="alt_name" v="Blåfjell" />
		<tag k="fixme" v="consider natural=peak for the most distinct mountains in the district" />
		<tag k="name" v="Blåfjellet" />
		<tag k="natural" v="hill" />
		<tag k="place" v="locality" />
		<tag k="ssr:stedsnr" v="311749" />
	</node>
	<node id="-534723" lat="61.4768277771" lon="5.54577222252">
		<tag k="name" v="Indredalen" />
		<tag k="natural" v="valley" />
		<tag k="place" v="locality" />
		<tag k="ssr:stedsnr" v="311744" />
	</node>
	<node id="-534720" lat="61.5019055523" lon="5.31974165801">
		<tag k="name" v="Hesten" />
		<tag k="natural" v="hill" />
		<tag k="place" v="locality" />
		<tag k="ssr:stedsnr" v="311663" />
	</node>
	<node id="-534719" lat="61.5094888907" lon="5.39666667012">
		<tag k="fixme" v="consider natural=peak for the most distinct mountains in the district" />
		<tag k="name" v="Fagernipa" />
		<tag k="natural" v="hill" />
		<tag k="place" v="locality" />
		<tag k="ssr:stedsnr" v="311655" />
	</node>
	<node id="-534717" lat="61.4948416652" lon="5.50756389491">
		<tag k="name" v="Kleiva" />
		<tag k="natural" v="slope" />
		<tag k="place" v="locality" />
		<tag k="ssr:stedsnr" v="311537" />
	</node>
	<node id="-534712" lat="61.5285305562" lon="5.63074445081">
		<tag k="fixme" v="consider natural=peak for the most distinct mountains in the district" />
		<tag k="name" v="Ørnehamrane" />
		<tag k="natural" v="hill" />
		<tag k="place" v="locality" />
		<tag k="ssr:stedsnr" v="311452" />
	</node>
	<node id="-534711" lat="61.5002500003" lon="5.39966666216">
		<tag k="name" v="Bjørndalane" />
		<tag k="natural" v="valley" />
		<tag k="place" v="locality" />
		<tag k="ssr:stedsnr" v="311010" />
	</node>
	<node id="-534701" lat="61.4918777752" lon="5.35463611228">
		<tag k="name" v="Apalsetkviene" />
		<tag k="natural" v="slope" />
		<tag k="place" v="locality" />
		<tag k="ssr:stedsnr" v="287411" />
	</node>
	<node id="-534700" lat="61.5636694457" lon="5.92159444156">
		<tag k="name" v="Kyrabotnen" />
		<tag k="natural" v="valley" />
		<tag k="place" v="locality" />
		<tag k="ssr:stedsnr" v="286998" />
	</node>
	<node id="-534699" lat="61.5554027775" lon="5.92924721934">
		<tag k="name" v="Vassliklumpen" />
		<tag k="natural" v="hill" />
		<tag k="place" v="locality" />
		<tag k="ssr:stedsnr" v="286982" />
	</node>
	<node id="-534698" lat="61.5602944447" lon="5.88808055005">
		<tag k="name" v="Bjøllelia" />
		<tag k="natural" v="slope" />
		<tag k="place" v="locality" />
		<tag k="ssr:stedsnr" v="286968" />
	</node>
	<node id="-534697" lat="61.5434138857" lon="5.73636665951">
		<tag k="name" v="Langhaugen" />
		<tag k="natural" v="hill" />
		<tag k="place" v="locality" />
		<tag k="ssr:stedsnr" v="286963" />
	</node>
	<node id="-534696" lat="61.5212694409" lon="5.87586944127">
		<tag k="name" v="Blåbærhaugen" />
		<tag k="natural" v="hill" />
		<tag k="place" v="locality" />
		<tag k="ssr:stedsnr" v="286958" />
	</node>
	<node id="-534695" lat="61.5386083304" lon="5.85657500297">
		<tag k="fixme" v="consider natural=peak for the most distinct mountains in the district" />
		<tag k="name" v="Litlevarden" />
		<tag k="natural" v="hill" />
		<tag k="place" v="locality" />
		<tag k="ssr:stedsnr" v="286936" />
	</node>
	<node id="-534694" lat="61.5494250007" lon="5.81913333593">
		<tag k="name" v="Vassdalen" />
		<tag k="natural" v="valley" />
		<tag k="place" v="locality" />
		<tag k="ssr:stedsnr" v="286932" />
	</node>
	<node id="-534693" lat="61.5479972227" lon="5.81342778556">
		<tag k="name" v="Øvredalen" />
		<tag k="natural" v="valley" />
		<tag k="place" v="locality" />
		<tag k="ssr:stedsnr" v="286933" />
	</node>
	<node id="-534691" lat="61.5597583366" lon="5.73779999544">
		<tag k="name" v="Stongastigen" />
		<tag k="natural" v="hill" />
		<tag k="place" v="locality" />
		<tag k="ssr:stedsnr" v="286733" />
	</node>
	<node id="-534690" lat="61.5651416635" lon="5.74593055563">
		<tag k="name" v="Grønefena" />
		<tag k="natural" v="slope" />
		<tag k="place" v="locality" />
		<tag k="ssr:stedsnr" v="286724" />
	</node>
	<node id="-534689" lat="61.5918722264" lon="5.78234999716">
		<tag k="name" v="Bjørnebotn" />
		<tag k="natural" v="valley" />
		<tag k="place" v="locality" />
		<tag k="ssr:stedsnr" v="286707" />
	</node>
	<node id="-534688" lat="61.580013893" lon="5.77185555193">
		<tag k="name" v="Gjelhamrane" />
		<tag k="natural" v="hill" />
		<tag k="place" v="locality" />
		<tag k="ssr:stedsnr" v="286678" />
	</node>
	<node id="-534686" lat="61.5858833301" lon="5.97135832899">
		<tag k="name" v="Holtane" />
		<tag k="natural" v="hill" />
		<tag k="place" v="locality" />
		<tag k="ssr:stedsnr" v="286658" />
	</node>
	<node id="-534684" lat="61.5772388915" lon="5.96974444157">
		<tag k="name" v="Brendehaug" />
		<tag k="natural" v="hill" />
		<tag k="place" v="locality" />
		<tag k="ssr:stedsnr" v="286652" />
	</node>
	<node id="-534683" lat="61.5316527818" lon="5.83282222735">
		<tag k="fixme" v="consider natural=peak for the most distinct mountains in the district" />
		<tag k="name" v="Litlefjellet" />
		<tag k="natural" v="hill" />
		<tag k="place" v="locality" />
		<tag k="ssr:stedsnr" v="286650" />
	</node>
	<node id="-534681" lat="61.596736114" lon="6.07929722386">
		<tag k="name" v="Rundebotnjaren" />
		<tag k="place" v="locality" />
		<tag k="ssr:stedsnr" v="286600" />
	</node>
	<node id="-534680" lat="61.6015444433" lon="5.96400555095">
		<tag k="name" v="Skora" />
		<tag k="natural" v="valley" />
		<tag k="place" v="locality" />
		<tag k="ssr:stedsnr" v="286520" />
	</node>
	<node id="-534678" lat="61.5273416659" lon="5.86765834024">
		<tag k="fixme" v="consider natural=peak for the most distinct mountains in the district" />
		<tag k="name" v="Graurfjellet" />
		<tag k="natural" v="hill" />
		<tag k="place" v="locality" />
		<tag k="ssr:stedsnr" v="286417" />
	</node>
	<node id="-534677" lat="61.5875055571" lon="6.00472222849">
		<tag k="name" v="Holene" />
		<tag k="natural" v="valley" />
		<tag k="place" v="locality" />
		<tag k="ssr:stedsnr" v="286406" />
	</node>
	<node id="-534676" lat="61.5891777767" lon="6.02051943554">
		<tag k="name" v="Råkane" />
		<tag k="natural" v="hill" />
		<tag k="place" v="locality" />
		<tag k="ssr:stedsnr" v="286407" />
	</node>
	<node id="-534675" lat="61.5204750038" lon="5.85890833764">
		<tag k="name" v="Setane" />
		<tag k="natural" v="slope" />
		<tag k="place" v="locality" />
		<tag k="ssr:stedsnr" v="286396" />
	</node>
	<node id="-534674" lat="61.49202222" lon="5.36031943691">
		<tag k="name" v="Bjørnalia" />
		<tag k="natural" v="slope" />
		<tag k="place" v="locality" />
		<tag k="ssr:stedsnr" v="286372" />
	</node>
	<node id="-534672" lat="61.5070222194" lon="5.30333611383">
		<tag k="name" v="Øykjebergskaret" />
		<tag k="natural" v="valley" />
		<tag k="place" v="locality" />
		<tag k="ssr:stedsnr" v="286294" />
	</node>
	<node id="-534671" lat="61.4696750008" lon="5.57415555884">
		<tag k="name" v="Hesten" />
		<tag k="natural" v="valley" />
		<tag k="place" v="locality" />
		<tag k="ssr:stedsnr" v="286229" />
	</node>
	<node id="-534669" lat="61.4907416628" lon="5.59571944824">
		<tag k="name" v="Fridalsbakkane" />
		<tag k="natural" v="slope" />
		<tag k="place" v="locality" />
		<tag k="ssr:stedsnr" v="286226" />
	</node>
	<node id="-534668" lat="61.5030944445" lon="5.43211388062">
		<tag k="fixme" v="consider natural=peak for the most distinct mountains in the district" />
		<tag k="name" v="Skobbegeita" />
		<tag k="natural" v="hill" />
		<tag k="place" v="locality" />
		<tag k="ssr:stedsnr" v="286207" />
	</node>
	<node id="-534667" lat="61.5049916696" lon="5.68690833003">
		<tag k="name" v="Haugen" />
		<tag k="natural" v="hill" />
		<tag k="place" v="locality" />
		<tag k="ssr:stedsnr" v="286167" />
	</node>
	<node id="-534666" lat="61.4689777813" lon="5.45896666007">
		<tag k="name" v="Branden" />
		<tag k="natural" v="hill" />
		<tag k="place" v="locality" />
		<tag k="ssr:stedsnr" v="286124" />
	</node>
	<node id="-534665" lat="61.4964861091" lon="5.6657055569">
		<tag k="fixme" v="consider natural=peak for the most distinct mountains in the district" />
		<tag k="name" v="Skogaholten" />
		<tag k="natural" v="hill" />
		<tag k="place" v="locality" />
		<tag k="ssr:stedsnr" v="286113" />
	</node>
	<node id="-534664" lat="61.5060277788" lon="5.50282500071">
		<tag k="fixme" v="consider natural=peak for the most distinct mountains in the district" />
		<tag k="name" v="Middagshaugen" />
		<tag k="natural" v="hill" />
		<tag k="place" v="locality" />
		<tag k="ssr:stedsnr" v="286047" />
	</node>
	<node id="-534663" lat="61.5230861125" lon="5.6862333332">
		<tag k="name" v="Varlibakkane" />
		<tag k="natural" v="slope" />
		<tag k="place" v="locality" />
		<tag k="ssr:stedsnr" v="286045" />
	</node>
	<node id="-534662" lat="61.4999555544" lon="5.54946388458">
		<tag k="name" v="Sirihola" />
		<tag k="natural" v="gorge" />
		<tag k="ssr:stedsnr" v="286015" />
	</node>
	<node id="-534661" lat="61.4927888916" lon="5.57045834198">
		<tag k="fixme" v="consider natural=peak for the most distinct mountains in the district" />
		<tag k="name" v="Holten" />
		<tag k="natural" v="hill" />
		<tag k="place" v="locality" />
		<tag k="ssr:stedsnr" v="286003" />
	</node>
	<node id="-534660" lat="61.6020722217" lon="5.86564444192">
		<tag k="name" v="Uratrongen" />
		<tag k="natural" v="gorge" />
		<tag k="ssr:stedsnr" v="286873" />
	</node>
	<node id="-534659" lat="61.5047749971" lon="5.75772221718">
		<tag k="name" v="Rennehamrane" />
		<tag k="natural" v="hill" />
		<tag k="place" v="locality" />
		<tag k="ssr:stedsnr" v="286826" />
	</node>
	<node id="-534657" lat="61.5812611071" lon="5.82328055947">
		<tag k="name" v="Bjørndalen" />
		<tag k="natural" v="valley" />
		<tag k="place" v="locality" />
		<tag k="ssr:stedsnr" v="286811" />
	</node>
	<node id="-534655" lat="61.5947611143" lon="5.99551944894">
		<tag k="name" v="Raudhamrane" />
		<tag k="natural" v="hill" />
		<tag k="place" v="locality" />
		<tag k="ssr:stedsnr" v="280360" />
	</node>
	<node id="-534654" lat="61.6250527769" lon="5.99726388435">
		<tag k="name" v="Langhaug" />
		<tag k="natural" v="hill" />
		<tag k="place" v="locality" />
		<tag k="ssr:stedsnr" v="275412" />
	</node>
</osm>
