<?xml version="1.0" encoding="UTF-8"?>
<osm generator="osmapis" version="0.6">
	<node id="-536064" lat="61.5985608417" lon="5.99193419163">
		<tag k="fixme" v="consider place=hamlet" />
		<tag k="name" v="Nes" />
		<tag k="place" v="farm" />
		<tag k="ssr:stedsnr" v="919227" />
	</node>
	<node id="-536063" lat="61.5851138893" lon="6.03803055099">
		<tag k="historic" v="shieling" />
		<tag k="name" v="Gardastølane" />
		<tag k="place" v="locality" />
		<tag k="ssr:stedsnr" v="919217" />
	</node>
	<node id="-536061" lat="61.4768833326" lon="5.56778888327">
		<tag k="name" v="Gamlestølen" />
		<tag k="place" v="locality" />
		<tag k="ssr:stedsnr" v="918759" />
	</node>
	<node id="-536060" lat="61.4596416636" lon="5.47056943696">
		<tag k="alt_name" v="Skjerli" />
		<tag k="name" v="Kuneset" />
		<tag k="place" v="farm" />
		<tag k="ssr:stedsnr" v="918737" />
	</node>
	<node id="-536059" lat="61.5010084308" lon="5.36996487857">
		<tag k="fixme" v="consider place=hamlet" />
		<tag k="name" v="Vassbotnen" />
		<tag k="place" v="farm" />
		<tag k="ssr:stedsnr" v="918695" />
	</node>
	<node id="-536058" lat="61.5098361088" lon="5.36346389799">
		<tag k="alt_name" v="Årsetstølane" />
		<tag k="historic" v="shieling" />
		<tag k="name" v="Årsetstølen" />
		<tag k="place" v="locality" />
		<tag k="ssr:stedsnr" v="918676" />
	</node>
	<node id="-536057" lat="61.5517249969" lon="5.80635277835">
		<tag k="name" v="Indrekvamsstølen" />
		<tag k="place" v="isolated_dwelling" />
		<tag k="ssr:stedsnr" v="918509" />
	</node>
	<node id="-536055" lat="61.5492972219" lon="5.73980832815">
		<tag k="historic" v="shieling" />
		<tag k="name" v="Bakkestølen" />
		<tag k="place" v="locality" />
		<tag k="ssr:stedsnr" v="918504" />
	</node>
	<node id="-536053" lat="61.5240502282" lon="5.74836123485">
		<tag k="fixme" v="consider place=hamlet" />
		<tag k="name" v="Grimset" />
		<tag k="place" v="farm" />
		<tag k="ssr:stedsnr" v="918491" />
	</node>
	<node id="-536050" lat="61.5109249963" lon="5.61246943894">
		<tag k="name" v="Frammarsvikstølen" />
		<tag k="place" v="isolated_dwelling" />
		<tag k="ssr:stedsnr" v="918432" />
	</node>
	<node id="-536048" lat="61.5171851281" lon="5.80117122786">
		<tag k="fixme" v="consider place=hamlet" />
		<tag k="name" v="Espe" />
		<tag k="place" v="farm" />
		<tag k="ssr:stedsnr" v="918429" />
	</node>
	<node id="-536043" lat="61.5708951802" lon="5.96362558984">
		<tag k="name" v="Søre Reinene" />
		<tag k="place" v="farm" />
		<tag k="ssr:stedsnr" v="870478" />
	</node>
	<node id="-536041" lat="61.5993166628" lon="6.07180833618">
		<tag k="historic" v="shieling" />
		<tag k="name" v="Nesstølen" />
		<tag k="place" v="locality" />
		<tag k="ssr:stedsnr" v="859220" />
	</node>
	<node id="-536040" lat="61.5782999959" lon="5.95049722928">
		<tag k="name" v="Gamlestølen" />
		<tag k="place" v="farm" />
		<tag k="ssr:stedsnr" v="859209" />
	</node>
	<node id="-536037" lat="61.5625944438" lon="5.8781388967">
		<tag k="historic" v="shieling" />
		<tag k="name" v="Byrkjelandsstølane" />
		<tag k="place" v="locality" />
		<tag k="ssr:stedsnr" v="859188" />
	</node>
	<node id="-536036" lat="61.5747273355" lon="5.88776232036">
		<tag k="fixme" v="consider place=hamlet" />
		<tag k="name" v="Espeland" />
		<tag k="place" v="farm" />
		<tag k="ssr:stedsnr" v="859179" />
	</node>
	<node id="-535521" lat="61.5520111151" lon="5.96513055149">
		<tag k="name" v="Plassaselet" />
		<tag k="place" v="locality" />
		<tag k="ssr:stedsnr" v="529482" />
	</node>
	<node id="-536032" lat="61.4566416681" lon="5.50579722783">
		<tag k="name" v="Fossheim" />
		<tag k="place" v="farm" />
		<tag k="ssr:stedsnr" v="858674" />
	</node>
	<node id="-535006" lat="61.5605605876" lon="5.7909660668">
		<tag k="fixme" v="consider place=hamlet" />
		<tag k="name" v="Smådal" />
		<tag k="place" v="farm" />
		<tag k="ssr:stedsnr" v="20732" />
	</node>
	<node id="-535004" lat="61.5341138848" lon="5.74521388936">
		<tag k="name" v="Hovskletten" />
		<tag k="place" v="isolated_dwelling" />
		<tag k="ssr:stedsnr" v="20718" />
	</node>
	<node id="-535546" lat="61.4892310737" lon="5.36001761247">
		<tag k="fixme" v="consider place=hamlet" />
		<tag k="name" v="Apalset" />
		<tag k="place" v="farm" />
		<tag k="ssr:stedsnr" v="553007" />
	</node>
	<node id="-535002" lat="61.6173055553" lon="6.02417778624">
		<tag k="name" v="Stranda" />
		<tag k="place" v="locality" />
		<tag k="ssr:stedsnr" v="9248" />
	</node>
	<node id="-536025" lat="61.4830916688" lon="5.50766111007">
		<tag k="historic" v="shieling" />
		<tag k="name" v="Liastølen" />
		<tag k="place" v="locality" />
		<tag k="ssr:stedsnr" v="857748" />
	</node>
	<node id="-536021" lat="61.4661167851" lon="5.48334107941">
		<tag k="alt_name" v="Gjøringbø" />
		<tag k="fixme" v="consider place=hamlet" />
		<tag k="name" v="Gjøringebøen" />
		<tag k="place" v="farm" />
		<tag k="ssr:stedsnr" v="857709" />
	</node>
	<node id="-536020" lat="61.4712996687" lon="5.5973944608">
		<tag k="fixme" v="consider place=hamlet" />
		<tag k="name" v="Andalen" />
		<tag k="place" v="farm" />
		<tag k="ssr:stedsnr" v="857691" />
	</node>
	<node id="-536019" lat="61.4993500015" lon="5.64873888793">
		<tag k="historic" v="shieling" />
		<tag k="name" v="Liabøstølen" />
		<tag k="place" v="locality" />
		<tag k="ssr:stedsnr" v="857510" />
	</node>
	<node id="-536018" lat="61.4917333344" lon="5.50398610324">
		<tag k="fixme" v="consider place=hamlet" />
		<tag k="name" v="Redal" />
		<tag k="place" v="village" />
		<tag k="ssr:stedsnr" v="857511" />
	</node>
	<node id="-536017" lat="61.4708275242" lon="5.44681046559">
		<tag k="alt_name" v="Rossnes" />
		<tag k="fixme" v="consider place=hamlet" />
		<tag k="name" v="Russenes" />
		<tag k="place" v="farm" />
		<tag k="ssr:stedsnr" v="857095" />
	</node>
	<node id="-536015" lat="61.4911609744" lon="5.39705004953">
		<tag k="alt_name" v="Ytrevevring;Ytre Vefring" />
		<tag k="name" v="Ytre Vevring" />
		<tag k="place" v="farm" />
		<tag k="ssr:stedsnr" v="857009" />
	</node>
	<node id="-534990" lat="61.5012944476" lon="5.29164166005">
		<tag k="alt_name" v="Skår" />
		<tag k="name" v="Skorene" />
		<tag k="place" v="farm" />
		<tag k="ssr:stedsnr" v="8642" />
	</node>
	<node id="-534986" lat="61.5408138866" lon="5.83820833023">
		<tag k="name" v="Kleppsstølen" />
		<tag k="place" v="isolated_dwelling" />
		<tag k="ssr:stedsnr" v="8496" />
	</node>
	<node id="-534985" lat="61.521660993" lon="5.82266697918">
		<tag k="fixme" v="consider place=hamlet" />
		<tag k="name" v="Sollia" />
		<tag k="place" v="farm" />
		<tag k="ssr:stedsnr" v="8464" />
	</node>
	<node id="-535334" lat="61.5274972207" lon="5.71988888413">
		<tag k="name" v="Gamlestølen" />
		<tag k="place" v="locality" />
		<tag k="ssr:stedsnr" v="251437" />
	</node>
	<node id="-534982" lat="61.5291707115" lon="5.74718426771">
		<tag k="fixme" v="consider place=hamlet" />
		<tag k="name" v="Veien" />
		<tag k="place" v="farm" />
		<tag k="ssr:stedsnr" v="8445" />
	</node>
	<node id="-535493" lat="61.5178861102" lon="5.68392777453">
		<tag k="name" v="Elvareinene" />
		<tag k="place" v="locality" />
		<tag k="ssr:stedsnr" v="528503" />
	</node>
	<node id="-534980" lat="61.5291194413" lon="5.69593054881">
		<tag k="name" v="Skeisstølen" />
		<tag k="place" v="locality" />
		<tag k="ssr:stedsnr" v="8432" />
	</node>
	<node id="-534979" lat="61.5004541981" lon="5.68251816014">
		<tag k="fixme" v="consider place=hamlet" />
		<tag k="name" v="Sæla" />
		<tag k="place" v="farm" />
		<tag k="ssr:stedsnr" v="8411" />
	</node>
	<node id="-534978" lat="61.4896895574" lon="5.44084736167">
		<tag k="alt_name" v="Engebø" />
		<tag k="fixme" v="consider place=hamlet" />
		<tag k="name" v="Engjabøen" />
		<tag k="place" v="farm" />
		<tag k="ssr:stedsnr" v="8016" />
	</node>
	<node id="-534977" lat="61.490345312" lon="5.38011586987">
		<tag k="fixme" v="consider place=hamlet" />
		<tag k="name" v="Årset" />
		<tag k="place" v="farm" />
		<tag k="ssr:stedsnr" v="8003" />
	</node>
	<node id="-535456" lat="61.5616777781" lon="5.98445555904">
		<tag k="name" v="Reinestølen" />
		<tag k="place" v="locality" />
		<tag k="ssr:stedsnr" v="494191" />
	</node>
	<node id="-534773" lat="61.5131638908" lon="5.72583889049">
		<tag k="name" v="Øyra" />
		<tag k="place" v="farm" />
		<tag k="ssr:stedsnr" v="346865" />
	</node>
	<node id="-535994" lat="61.5038472181" lon="5.78109444553">
		<tag k="name" v="Svalheim" />
		<tag k="place" v="farm" />
		<tag k="ssr:stedsnr" v="833838" />
	</node>
	<node id="-534822" lat="61.5667729885" lon="5.79266972631">
		<tag k="fixme" v="consider place=hamlet" />
		<tag k="name" v="Ospehaugen" />
		<tag k="place" v="farm" />
		<tag k="ssr:stedsnr" v="372459" />
	</node>
	<node id="-535479" lat="61.5025472206" lon="5.60533056442">
		<tag k="name" v="Bonestølen" />
		<tag k="place" v="locality" />
		<tag k="ssr:stedsnr" v="529016" />
	</node>
	<node id="-535555" lat="61.6104649215" lon="6.04869251809">
		<tag k="fixme" v="consider place=hamlet" />
		<tag k="name" v="Vona" />
		<tag k="place" v="farm" />
		<tag k="ssr:stedsnr" v="554295" />
	</node>
	<node id="-535475" lat="61.4680833369" lon="5.54809722748">
		<tag k="name" v="Helle" />
		<tag k="place" v="hamlet" />
		<tag k="ssr:stedsnr" v="510514" />
	</node>
	<node id="-535474" lat="61.5062083292" lon="5.55689444355">
		<tag k="historic" v="shieling" />
		<tag k="name" v="Russenesstølen" />
		<tag k="place" v="locality" />
		<tag k="ssr:stedsnr" v="505726" />
	</node>
	<node id="-535473" lat="61.5731451546" lon="5.77305402086">
		<tag k="fixme" v="consider place=hamlet" />
		<tag k="name" v="Løtuft" />
		<tag k="place" v="farm" />
		<tag k="ssr:stedsnr" v="505723" />
	</node>
	<node id="-535468" lat="61.5464249963" lon="5.88027221829">
		<tag k="historic" v="shieling" />
		<tag k="name" v="Smådalsstølen" />
		<tag k="place" v="locality" />
		<tag k="ssr:stedsnr" v="495212" />
	</node>
	<node id="-535466" lat="61.5455583376" lon="5.98432500424">
		<tag k="name" v="Stranda" />
		<tag k="place" v="locality" />
		<tag k="ssr:stedsnr" v="495192" />
	</node>
	<node id="-535465" lat="61.5361335003" lon="5.85377731329">
		<tag k="alt_name" v="Kløpstølen;Kleppstølen" />
		<tag k="fixme" v="consider place=hamlet" />
		<tag k="name" v="Kleppsstølen" />
		<tag k="place" v="farm" />
		<tag k="ssr:stedsnr" v="495191" />
	</node>
	<node id="-535464" lat="61.5262333377" lon="5.8946249945">
		<tag k="name" v="Salmundstølen" />
		<tag k="place" v="locality" />
		<tag k="ssr:stedsnr" v="495180" />
	</node>
	<node id="-535968" lat="61.5032749969" lon="5.39216389243">
		<tag k="historic" v="shieling" />
		<tag k="name" v="Ytre Vefringstølen" />
		<tag k="place" v="locality" />
		<tag k="ssr:stedsnr" v="832603" />
	</node>
	<node id="-535844" lat="61.470252775" lon="5.50079443847">
		<tag k="historic" v="shieling" />
		<tag k="name" v="Vatnestølen" />
		<tag k="place" v="locality" />
		<tag k="ssr:stedsnr" v="736729" />
	</node>
	<node id="-535451" lat="61.461558333" lon="5.53151943587">
		<tag k="alt_name" v="Nestun" />
		<tag k="name" v="Nedsttun" />
		<tag k="place" v="farm" />
		<tag k="ssr:stedsnr" v="493689" />
	</node>
	<node id="-535449" lat="61.4663361094" lon="5.59222222857">
		<tag k="name" v="Andalsberget" />
		<tag k="place" v="isolated_dwelling" />
		<tag k="ssr:stedsnr" v="493665" />
	</node>
	<node id="-535448" lat="61.5009762771" lon="5.30419883916">
		<tag k="alt_name" v="Kleiven" />
		<tag k="fixme" v="consider place=hamlet" />
		<tag k="name" v="Kleiva" />
		<tag k="place" v="farm" />
		<tag k="ssr:stedsnr" v="493629" />
	</node>
	<node id="-535446" lat="61.4902012639" lon="5.50497007336">
		<tag k="alt_name" v="Redalen, nedre;Redal nedre;Redal" />
		<tag k="fixme" v="consider place=hamlet" />
		<tag k="name" v="Nedre Redalen" />
		<tag k="place" v="farm" />
		<tag k="ssr:stedsnr" v="493502" />
	</node>
	<node id="-535956" lat="61.573005557" lon="5.83009167183">
		<tag k="amenity" v="school" />
		<tag k="name" v="Midtredalen" />
		<tag k="ssr:stedsnr" v="816634" />
	</node>
	<node id="-535443" lat="61.5463722259" lon="5.78278333416">
		<tag k="name" v="Træla" />
		<tag k="place" v="farm" />
		<tag k="ssr:stedsnr" v="493438" />
	</node>
	<node id="-535954" lat="61.573213039" lon="5.87963296144">
		<tag k="fixme" v="consider place=hamlet" />
		<tag k="name" v="Heia" />
		<tag k="place" v="farm" />
		<tag k="ssr:stedsnr" v="809490" />
	</node>
	<node id="-535953" lat="61.6248277792" lon="6.00040278399">
		<tag k="historic" v="shieling" />
		<tag k="name" v="Svostølen" />
		<tag k="place" v="locality" />
		<tag k="ssr:stedsnr" v="809489" />
	</node>
	<node id="-535951" lat="61.5190388911" lon="5.75923610776">
		<tag k="name" v="Bjørndalen" />
		<tag k="place" v="farm" />
		<tag k="ssr:stedsnr" v="799738" />
	</node>
	<node id="-535948" lat="61.5801611145" lon="5.76785555042">
		<tag k="name" v="Liastølen" />
		<tag k="place" v="locality" />
		<tag k="ssr:stedsnr" v="798449" />
	</node>
	<node id="-535946" lat="61.6046555534" lon="5.92954999293">
		<tag k="historic" v="shieling" />
		<tag k="name" v="Slettemarkstølen" />
		<tag k="place" v="locality" />
		<tag k="ssr:stedsnr" v="798249" />
	</node>
	<node id="-534920" lat="61.5842027779" lon="5.81286388953">
		<tag k="name" v="Gamlestølen" />
		<tag k="place" v="locality" />
		<tag k="ssr:stedsnr" v="408810" />
	</node>
	<node id="-535943" lat="61.5988805594" lon="6.10566389541">
		<tag k="historic" v="shieling" />
		<tag k="name" v="Nesrimma" />
		<tag k="place" v="locality" />
		<tag k="ssr:stedsnr" v="798224" />
	</node>
	<node id="-535352" lat="61.5994750022" lon="6.14984722871">
		<tag k="name" v="Gotdalsstølen" />
		<tag k="place" v="isolated_dwelling" />
		<tag k="ssr:stedsnr" v="252220" />
	</node>
	<node id="-535940" lat="61.5834527757" lon="5.9798888924">
		<tag k="name" v="Sørebø" />
		<tag k="place" v="farm" />
		<tag k="ssr:stedsnr" v="798216" />
	</node>
	<node id="-534915" lat="61.5844222241" lon="5.947580557">
		<tag k="fixme" v="consider place=hamlet" />
		<tag k="name" v="Bruflot" />
		<tag k="place" v="farm" />
		<tag k="ssr:stedsnr" v="408619" />
	</node>
	<node id="-535934" lat="61.4930517901" lon="5.54582891602">
		<tag k="alt_name" v="Redalen, øvre;Redalen;Redal øvre;Øvre Redal" />
		<tag k="fixme" v="consider place=hamlet" />
		<tag k="name" v="Øvre Redalen" />
		<tag k="place" v="farm" />
		<tag k="ssr:stedsnr" v="797517" />
	</node>
	<node id="-535930" lat="61.5110833326" lon="5.71693888037">
		<tag k="name" v="Naustdal" />
		<tag k="place" v="village" />
		<tag k="ssr:stedsnr" v="797363" />
	</node>
	<node id="-535928" lat="61.4651867994" lon="5.50512992257">
		<tag k="fixme" v="consider place=hamlet" />
		<tag k="name" v="Vatnelia" />
		<tag k="old_name" v="Matslia" />
		<tag k="place" v="farm" />
		<tag k="ssr:stedsnr" v="796663" />
	</node>
	<node id="-535925" lat="61.5062555551" lon="5.72321944289">
		<tag k="name" v="Bøtun" />
		<tag k="place" v="isolated_dwelling" />
		<tag k="ssr:stedsnr" v="781682" />
	</node>
	<node id="-535337" lat="61.5028638897" lon="5.30241944012">
		<tag k="name" v="Sæterkvia" />
		<tag k="place" v="locality" />
		<tag k="ssr:stedsnr" v="251654" />
	</node>
	<node id="-535740" lat="61.4928397829" lon="5.46279702213">
		<tag k="alt_name" v="Grytten" />
		<tag k="fixme" v="consider place=hamlet" />
		<tag k="name" v="Gryta" />
		<tag k="place" v="farm" />
		<tag k="ssr:stedsnr" v="675015" />
	</node>
	<node id="-535400" lat="61.572511112" lon="5.75108056029">
		<tag k="name" v="Åmotsstølane" />
		<tag k="place" v="isolated_dwelling" />
		<tag k="ssr:stedsnr" v="445726" />
	</node>
	<node id="-535058" lat="61.4988966327" lon="5.29848693653">
		<tag k="fixme" v="consider place=hamlet" />
		<tag k="name" v="Kvellestad" />
		<tag k="place" v="farm" />
		<tag k="ssr:stedsnr" v="68024" />
	</node>
	<node id="-535397" lat="61.5362713285" lon="5.78822876672">
		<tag k="fixme" v="consider place=hamlet" />
		<tag k="name" v="Kvamme" />
		<tag k="place" v="farm" />
		<tag k="ssr:stedsnr" v="444702" />
	</node>
	<node id="-535394" lat="61.61004722" lon="5.8288333271">
		<tag k="historic" v="shieling" />
		<tag k="name" v="Mattisstølen" />
		<tag k="place" v="locality" />
		<tag k="ssr:stedsnr" v="434708" />
	</node>
	<node id="-535393" lat="61.5778466313" lon="5.77557263406">
		<tag k="alt_name" v="Åmotsli" />
		<tag k="fixme" v="consider place=hamlet" />
		<tag k="name" v="Åmotslia" />
		<tag k="place" v="farm" />
		<tag k="ssr:stedsnr" v="434454" />
	</node>
	<node id="-535392" lat="61.6183888894" lon="6.06806111047">
		<tag k="historic" v="shieling" />
		<tag k="name" v="Vonastølen" />
		<tag k="place" v="locality" />
		<tag k="ssr:stedsnr" v="434245" />
	</node>
	<node id="-535903" lat="61.5000861088" lon="5.60744999492">
		<tag k="name" v="Nærstølen" />
		<tag k="place" v="locality" />
		<tag k="ssr:stedsnr" v="772135" />
	</node>
	<node id="-535386" lat="61.5753472264" lon="5.88693888265">
		<tag k="name" v="Styggelia" />
		<tag k="place" v="farm" />
		<tag k="ssr:stedsnr" v="434201" />
	</node>
	<node id="-535383" lat="61.5531277734" lon="5.86103054888">
		<tag k="historic" v="shieling" />
		<tag k="name" v="Ospehaugstølen" />
		<tag k="place" v="locality" />
		<tag k="ssr:stedsnr" v="434176" />
	</node>
	<node id="-535382" lat="61.5283166682" lon="5.89029444287">
		<tag k="historic" v="shieling" />
		<tag k="name" v="Grimsetestølen" />
		<tag k="place" v="locality" />
		<tag k="ssr:stedsnr" v="434142" />
	</node>
	<node id="-535381" lat="61.4606166621" lon="5.53825554716">
		<tag k="alt_name" v="Klubben" />
		<tag k="name" v="Midtbø" />
		<tag k="place" v="farm" />
		<tag k="ssr:stedsnr" v="433671" />
	</node>
	<node id="-535889" lat="61.5193500037" lon="5.71560832821">
		<tag k="alt_name" v="Heggelid" />
		<tag k="name" v="Heggeli" />
		<tag k="place" v="farm" />
		<tag k="ssr:stedsnr" v="771876" />
	</node>
	<node id="-535376" lat="61.5400219186" lon="5.75253034568">
		<tag k="fixme" v="consider place=hamlet" />
		<tag k="name" v="Reiakvam" />
		<tag k="place" v="farm" />
		<tag k="ssr:stedsnr" v="433461" />
	</node>
	<node id="-535375" lat="61.5599789095" lon="5.77726290444">
		<tag k="fixme" v="consider place=hamlet" />
		<tag k="name" v="Furehaugen" />
		<tag k="place" v="farm" />
		<tag k="ssr:stedsnr" v="433437" />
	</node>
	<node id="-535371" lat="61.5344972252" lon="5.83974443894">
		<tag k="historic" v="shieling" />
		<tag k="name" v="Kvamsstølane" />
		<tag k="place" v="locality" />
		<tag k="ssr:stedsnr" v="433393" />
	</node>
	<node id="-535369" lat="61.5329111094" lon="5.72424722446">
		<tag k="name" v="Vegastølen" />
		<tag k="place" v="locality" />
		<tag k="ssr:stedsnr" v="433384" />
	</node>
	<node id="-535367" lat="61.505371098" lon="5.69107525977">
		<tag k="fixme" v="consider place=hamlet" />
		<tag k="name" v="Mallasvika" />
		<tag k="place" v="farm" />
		<tag k="ssr:stedsnr" v="433362" />
	</node>
	<node id="-535364" lat="61.4730055533" lon="5.49075556312">
		<tag k="alt_name" v="Gjøringbøstølen" />
		<tag k="historic" v="shieling" />
		<tag k="name" v="Gjøringebøstølen" />
		<tag k="place" v="locality" />
		<tag k="ssr:stedsnr" v="432681" />
	</node>
	<node id="-535362" lat="61.4630583375" lon="5.48802500734">
		<tag k="name" v="Kleiva" />
		<tag k="place" v="farm" />
		<tag k="ssr:stedsnr" v="432641" />
	</node>
	<node id="-535326" lat="61.4929388899" lon="5.59280833847">
		<tag k="historic" v="shieling" />
		<tag k="name" v="Buanesstølen" />
		<tag k="place" v="locality" />
		<tag k="ssr:stedsnr" v="250741" />
	</node>
	<node id="-535360" lat="61.4987986857" lon="5.28061217258">
		<tag k="fixme" v="consider place=hamlet" />
		<tag k="name" v="Horne" />
		<tag k="place" v="farm" />
		<tag k="ssr:stedsnr" v="432020" />
	</node>
	<node id="-534845" lat="61.4932083313" lon="5.4688861194">
		<tag k="name" v="Gryta" />
		<tag k="place" v="farm" />
		<tag k="ssr:stedsnr" v="373548" />
	</node>
	<node id="-535551" lat="61.4628416684" lon="5.51697222304">
		<tag k="name" v="Vatnebotnen" />
		<tag k="place" v="farm" />
		<tag k="ssr:stedsnr" v="553687" />
	</node>
	<node id="-534842" lat="61.6235777816" lon="5.99717222325">
		<tag k="historic" v="shieling" />
		<tag k="name" v="Bergsstølen" />
		<tag k="place" v="locality" />
		<tag k="ssr:stedsnr" v="373246" />
	</node>
	<node id="-535864" lat="61.5584638844" lon="5.78278333115">
		<tag k="name" v="Lunden" />
		<tag k="place" v="farm" />
		<tag k="ssr:stedsnr" v="748708" />
	</node>
	<node id="-535863" lat="61.5768700605" lon="5.85120161929">
		<tag k="fixme" v="consider place=hamlet" />
		<tag k="name" v="Byrkjeland" />
		<tag k="place" v="farm" />
		<tag k="ssr:stedsnr" v="737704" />
	</node>
	<node id="-534837" lat="61.5713252723" lon="5.96561961565">
		<tag k="name" v="Reinene" />
		<tag k="place" v="farm" />
		<tag k="ssr:stedsnr" v="373194" />
	</node>
	<node id="-535347" lat="61.5791691637" lon="5.92433862217">
		<tag k="fixme" v="consider place=hamlet" />
		<tag k="name" v="Slettemark" />
		<tag k="place" v="farm" />
		<tag k="ssr:stedsnr" v="252198" />
	</node>
	<node id="-535858" lat="61.6013138878" lon="5.92249722252">
		<tag k="historic" v="shieling" />
		<tag k="name" v="Sundsstølen" />
		<tag k="place" v="locality" />
		<tag k="ssr:stedsnr" v="737248" />
	</node>
	<node id="-535857" lat="61.5984460683" lon="5.96862852043">
		<tag k="alt_name" v="Berg" />
		<tag k="fixme" v="consider place=hamlet" />
		<tag k="name" v="Berget" />
		<tag k="place" v="farm" />
		<tag k="ssr:stedsnr" v="737247" />
	</node>
	<node id="-535344" lat="61.5592333366" lon="5.85348333528">
		<tag k="historic" v="shieling" />
		<tag k="name" v="Øvre Kallands-stølen" />
		<tag k="place" v="locality" />
		<tag k="ssr:stedsnr" v="252185" />
	</node>
	<node id="-534831" lat="61.4878416673" lon="5.5790416604">
		<tag k="alt_name" v="Andalstølen" />
		<tag k="historic" v="shieling" />
		<tag k="name" v="Andalsstølen" />
		<tag k="place" v="locality" />
		<tag k="ssr:stedsnr" v="372764" />
	</node>
	<node id="-535342" lat="61.5687000027" lon="5.97094167319">
		<tag k="historic" v="shieling" />
		<tag k="name" v="Bruflotstølen" />
		<tag k="place" v="locality" />
		<tag k="ssr:stedsnr" v="252181" />
	</node>
	<node id="-534828" lat="61.5053055524" lon="5.46170276907">
		<tag k="historic" v="shieling" />
		<tag k="name" v="Grytastølen" />
		<tag k="place" v="locality" />
		<tag k="ssr:stedsnr" v="372655" />
	</node>
	<node id="-534826" lat="61.5054999983" lon="5.45221943625">
		<tag k="historic" v="shieling" />
		<tag k="name" v="Kjerringkleiva" />
		<tag k="place" v="locality" />
		<tag k="ssr:stedsnr" v="372650" />
	</node>
	<node id="-535849" lat="61.555027777" lon="5.86552777269">
		<tag k="historic" v="shieling" />
		<tag k="name" v="Kallandsstølane" />
		<tag k="place" v="locality" />
		<tag k="ssr:stedsnr" v="737182" />
	</node>
	<node id="-535336" lat="61.5433749975" lon="5.67573610638">
		<tag k="historic" v="shieling" />
		<tag k="name" v="Reiakvamsstølen" />
		<tag k="place" v="locality" />
		<tag k="ssr:stedsnr" v="251475" />
	</node>
	<node id="-535847" lat="61.5214999972" lon="5.87822221614">
		<tag k="historic" v="shieling" />
		<tag k="name" v="Åsestølane" />
		<tag k="place" v="locality" />
		<tag k="ssr:stedsnr" v="737171" />
	</node>
	<node id="-535846" lat="61.5257277748" lon="5.88304722006">
		<tag k="alt_name" v="Sollidstølen" />
		<tag k="name" v="Sollistølen" />
		<tag k="place" v="locality" />
		<tag k="ssr:stedsnr" v="737170" />
	</node>
	<node id="-534821" lat="61.5694805294" lon="5.78130339949">
		<tag k="fixme" v="consider place=hamlet" />
		<tag k="name" v="Åmot" />
		<tag k="place" v="farm" />
		<tag k="ssr:stedsnr" v="372458" />
	</node>
	<node id="-534820" lat="61.5730300556" lon="5.7769342961">
		<tag k="fixme" v="consider place=hamlet" />
		<tag k="name" v="Byrkjeflot" />
		<tag k="place" v="farm" />
		<tag k="ssr:stedsnr" v="372455" />
	</node>
	<node id="-535843" lat="61.4668888904" lon="5.54892222756">
		<tag k="alt_name" v="Helle, nedre;Nedre Hella" />
		<tag k="name" v="Nedre Helle" />
		<tag k="place" v="farm" />
		<tag k="ssr:stedsnr" v="736682" />
	</node>
	<node id="-535842" lat="61.4628698436" lon="5.50831353271">
		<tag k="fixme" v="consider place=hamlet" />
		<tag k="name" v="Vatne" />
		<tag k="place" v="farm" />
		<tag k="ssr:stedsnr" v="736680" />
	</node>
	<node id="-534817" lat="61.534455779" lon="5.75364199806">
		<tag k="fixme" v="consider place=hamlet" />
		<tag k="name" v="Hove" />
		<tag k="place" v="farm" />
		<tag k="ssr:stedsnr" v="372439" />
	</node>
	<node id="-535840" lat="61.57960833" lon="5.82772222184">
		<tag k="name" v="Kleiva" />
		<tag k="place" v="farm" />
		<tag k="ssr:stedsnr" v="736483" />
	</node>
	<node id="-535839" lat="61.5395305547" lon="5.80899999162">
		<tag k="name" v="Stigakvia" />
		<tag k="place" v="locality" />
		<tag k="ssr:stedsnr" v="736464" />
	</node>
	<node id="-535838" lat="61.5382276233" lon="5.79499309451">
		<tag k="fixme" v="consider place=hamlet" />
		<tag k="name" v="Kleppe" />
		<tag k="place" v="farm" />
		<tag k="ssr:stedsnr" v="736463" />
	</node>
	<node id="-535837" lat="61.5541222198" lon="5.79211388073">
		<tag k="name" v="Solåsen" />
		<tag k="place" v="farm" />
		<tag k="ssr:stedsnr" v="736451" />
	</node>
	<node id="-535836" lat="61.5715103499" lon="5.80687181842">
		<tag k="fixme" v="consider place=hamlet" />
		<tag k="name" v="Ullaland" />
		<tag k="place" v="farm" />
		<tag k="ssr:stedsnr" v="736437" />
	</node>
	<node id="-535835" lat="61.5234202725" lon="5.80497085411">
		<tag k="fixme" v="consider place=hamlet" />
		<tag k="name" v="Byrkjelia" />
		<tag k="place" v="farm" />
		<tag k="ssr:stedsnr" v="736426" />
	</node>
	<node id="-535834" lat="61.5311759649" lon="5.75531289815">
		<tag k="fixme" v="consider place=hamlet" />
		<tag k="name" v="Hukset" />
		<tag k="place" v="farm" />
		<tag k="ssr:stedsnr" v="736414" />
	</node>
	<node id="-535833" lat="61.5075361144" lon="5.56923333302">
		<tag k="historic" v="shieling" />
		<tag k="name" v="Skitnestølen" />
		<tag k="place" v="locality" />
		<tag k="ssr:stedsnr" v="736369" />
	</node>
	<node id="-534808" lat="61.4710166667" lon="5.48714721763">
		<tag k="historic" v="shieling" />
		<tag k="name" v="Kleivastølen" />
		<tag k="place" v="locality" />
		<tag k="ssr:stedsnr" v="371705" />
	</node>
	<node id="-534806" lat="61.4716055549" lon="5.52029445313">
		<tag k="historic" v="shieling" />
		<tag k="name" v="Bakkestølen" />
		<tag k="place" v="locality" />
		<tag k="ssr:stedsnr" v="371704" />
	</node>
	<node id="-534805" lat="61.4755760644" lon="5.6277677037">
		<tag k="fixme" v="consider place=hamlet" />
		<tag k="name" v="Buanes" />
		<tag k="place" v="farm" />
		<tag k="ssr:stedsnr" v="371692" />
	</node>
	<node id="-534830" lat="61.4894098641" lon="5.65566162415">
		<tag k="fixme" v="consider place=hamlet" />
		<tag k="name" v="Holmeset" />
		<tag k="place" v="farm" />
		<tag k="ssr:stedsnr" v="372761" />
	</node>
	<node id="-534800" lat="61.5042499965" lon="5.68928332852">
		<tag k="name" v="Ytre Mallasvika" />
		<tag k="place" v="farm" />
		<tag k="ssr:stedsnr" v="356649" />
	</node>
	<node id="-535256" lat="61.6156777741" lon="6.0298638905">
		<tag k="name" v="Fimlandsstølen" />
		<tag k="place" v="isolated_dwelling" />
		<tag k="ssr:stedsnr" v="191244" />
	</node>
	<node id="-535767" lat="61.5869954646" lon="6.00067177559">
		<tag k="fixme" v="consider place=hamlet" />
		<tag k="name" v="Svorstøl" />
		<tag k="place" v="farm" />
		<tag k="ssr:stedsnr" v="676240" />
	</node>
	<node id="-534788" lat="61.5826305553" lon="5.98307777549">
		<tag k="name" v="Rabben" />
		<tag k="place" v="isolated_dwelling" />
		<tag k="ssr:stedsnr" v="347612" />
	</node>
	<node id="-534996" lat="61.572736109" lon="5.96325556438">
		<tag k="name" v="Nordbøen" />
		<tag k="place" v="farm" />
		<tag k="ssr:stedsnr" v="9179" />
	</node>
	<node id="-535285" lat="61.5465194419" lon="5.78639723109">
		<tag k="name" v="Nyheim" />
		<tag k="place" v="farm" />
		<tag k="ssr:stedsnr" v="225923" />
	</node>
	<node id="-535003" lat="61.5826138865" lon="5.77382222484">
		<tag k="name" v="Persstølen" />
		<tag k="place" v="locality" />
		<tag k="ssr:stedsnr" v="9480" />
	</node>
	<node id="-535788" lat="61.5045722178" lon="5.3789722209">
		<tag k="name" v="Tingnesstølen" />
		<tag k="place" v="locality" />
		<tag k="ssr:stedsnr" v="710363" />
	</node>
	<node id="-534823" lat="61.5529861088" lon="5.81957499151">
		<tag k="historic" v="shieling" />
		<tag k="name" v="Rognebakkstølen" />
		<tag k="place" v="locality" />
		<tag k="ssr:stedsnr" v="372475" />
	</node>
	<node id="-535351" lat="61.5820164583" lon="5.84474150603">
		<tag k="alt_name" v="Kleiva" />
		<tag k="fixme" v="consider place=hamlet" />
		<tag k="name" v="Kleivane" />
		<tag k="place" v="farm" />
		<tag k="ssr:stedsnr" v="252221" />
	</node>
	<node id="-535783" lat="61.5738444449" lon="6.00005834061">
		<tag k="name" v="Øyjordstølen" />
		<tag k="place" v="locality" />
		<tag k="ssr:stedsnr" v="705431" />
	</node>
	<node id="-535781" lat="61.5067527772" lon="5.66673888229">
		<tag k="name" v="Kringlestølen" />
		<tag k="place" v="isolated_dwelling" />
		<tag k="ssr:stedsnr" v="687724" />
	</node>
	<node id="-535779" lat="61.5078083316" lon="5.73933334109">
		<tag k="name" v="Hjellelia" />
		<tag k="place" v="farm" />
		<tag k="ssr:stedsnr" v="687713" />
	</node>
	<node id="-535777" lat="61.5575583313" lon="5.72611943689">
		<tag k="historic" v="shieling" />
		<tag k="name" v="Solheimsstølane" />
		<tag k="place" v="locality" />
		<tag k="ssr:stedsnr" v="687700" />
	</node>
	<node id="-535263" lat="61.6267999966" lon="6.24695278254">
		<tag k="fixme" v="consider tourism=alpine_hut or tourism=chalet" />
		<tag k="name" v="Longevasshytta" />
		<tag k="ssr:stedsnr" v="209681" />
		<tag k="tourism" v="wilderness_hut" />
	</node>
	<node id="-535077" lat="61.5041305575" lon="5.42692778454">
		<tag k="historic" v="shieling" />
		<tag k="name" v="Indre Vevringstølen" />
		<tag k="place" v="locality" />
		<tag k="ssr:stedsnr" v="69676" />
	</node>
	<node id="-534991" lat="61.5064166657" lon="5.37064999361">
		<tag k="historic" v="shieling" />
		<tag k="name" v="Gamlestølen" />
		<tag k="place" v="locality" />
		<tag k="ssr:stedsnr" v="8655" />
	</node>
	<node id="-535768" lat="61.5933833372" lon="5.86364999195">
		<tag k="alt_name" v="Herstadstøl" />
		<tag k="historic" v="shieling" />
		<tag k="name" v="Herstadstølane" />
		<tag k="place" v="locality" />
		<tag k="ssr:stedsnr" v="676253" />
	</node>
	<node id="-534743" lat="61.5651416629" lon="5.91149443607">
		<tag k="historic" v="shieling" />
		<tag k="name" v="Espelandsstølane" />
		<tag k="place" v="locality" />
		<tag k="ssr:stedsnr" v="313210" />
	</node>
	<node id="-535765" lat="61.5843678" lon="5.96019961432">
		<tag k="fixme" v="consider place=hamlet" />
		<tag k="name" v="Fimland" />
		<tag k="place" v="farm" />
		<tag k="ssr:stedsnr" v="676223" />
	</node>
	<node id="-535763" lat="61.4937333339" lon="5.64176665766">
		<tag k="historic" v="shieling" />
		<tag k="name" v="Holmesetstølen" />
		<tag k="place" v="locality" />
		<tag k="ssr:stedsnr" v="675767" />
	</node>
	<node id="-535248" lat="61.5801388901" lon="5.93395834093">
		<tag k="name" v="Kleiveland" />
		<tag k="place" v="farm" />
		<tag k="ssr:stedsnr" v="191198" />
	</node>
	<node id="-535160" lat="61.5043638897" lon="5.45174723141">
		<tag k="historic" v="shieling" />
		<tag k="name" v="Engjabøstølen" />
		<tag k="place" v="locality" />
		<tag k="ssr:stedsnr" v="129619" />
	</node>
	<node id="-534734" lat="61.5791694464" lon="5.85926388789">
		<tag k="alt_name" v="Birkeland" />
		<tag k="name" v="Byrkjeland" />
		<tag k="place" v="farm" />
		<tag k="ssr:stedsnr" v="312215" />
	</node>
	<node id="-535757" lat="61.462338051" lon="5.52635449392">
		<tag k="alt_name" v="Mortensbakke;Mortensbakken" />
		<tag k="fixme" v="consider place=hamlet" />
		<tag k="name" v="Marteinsbakken" />
		<tag k="place" v="farm" />
		<tag k="ssr:stedsnr" v="675690" />
	</node>
	<node id="-535243" lat="61.4553188211" lon="5.48235184011">
		<tag k="fixme" v="consider place=hamlet" />
		<tag k="name" v="Helleneset" />
		<tag k="place" v="farm" />
		<tag k="ssr:stedsnr" v="190651" />
	</node>
	<node id="-535242" lat="61.5026277745" lon="5.4040444542">
		<tag k="historic" v="shieling" />
		<tag k="name" v="Bjørndalen" />
		<tag k="place" v="locality" />
		<tag k="ssr:stedsnr" v="190639" />
	</node>
	<node id="-535753" lat="61.4937083776" lon="5.5257570485">
		<tag k="alt_name" v="Midtvatne;Midtvatn" />
		<tag k="fixme" v="consider place=hamlet" />
		<tag k="name" v="Med Vatnet" />
		<tag k="place" v="farm" />
		<tag k="ssr:stedsnr" v="675531" />
	</node>
	<node id="-535240" lat="61.5379833347" lon="5.62382777379">
		<tag k="name" v="Jonstadstølen" />
		<tag k="place" v="isolated_dwelling" />
		<tag k="ssr:stedsnr" v="190484" />
	</node>
	<node id="-534727" lat="61.4950074498" lon="5.66971442638">
		<tag k="alt_name" v="Liabø" />
		<tag k="fixme" v="consider place=hamlet" />
		<tag k="name" v="Liabøen" />
		<tag k="place" v="farm" />
		<tag k="ssr:stedsnr" v="311788" />
	</node>
	<node id="-535749" lat="61.5492333341" lon="5.7157861067">
		<tag k="historic" v="shieling" />
		<tag k="name" v="Ekrestølen" />
		<tag k="place" v="locality" />
		<tag k="ssr:stedsnr" v="675472" />
	</node>
	<node id="-535748" lat="61.5718564423" lon="5.81651041719">
		<tag k="fixme" v="consider place=hamlet" />
		<tag k="name" v="Kalland" />
		<tag k="place" v="farm" />
		<tag k="ssr:stedsnr" v="675461" />
	</node>
	<node id="-535235" lat="61.507863892" lon="5.64637221285">
		<tag k="name" v="Sælastølen" />
		<tag k="place" v="locality" />
		<tag k="ssr:stedsnr" v="190386" />
	</node>
	<node id="-534722" lat="61.4725833356" lon="5.58186110688">
		<tag k="name" v="Øyrane" />
		<tag k="place" v="locality" />
		<tag k="ssr:stedsnr" v="311742" />
	</node>
	<node id="-534731" lat="61.57312653" lon="5.91551887874">
		<tag k="fixme" v="consider place=hamlet" />
		<tag k="name" v="Skaflestad" />
		<tag k="place" v="farm" />
		<tag k="ssr:stedsnr" v="312198" />
	</node>
	<node id="-535257" lat="61.5983444443" lon="5.81288611525">
		<tag k="historic" v="shieling" />
		<tag k="name" v="Hamrestølen" />
		<tag k="place" v="locality" />
		<tag k="ssr:stedsnr" v="191440" />
	</node>
	<node id="-534718" lat="61.4924475883" lon="5.5072011759">
		<tag k="alt_name" v="Nordvika;Nordvik" />
		<tag k="fixme" v="consider place=hamlet" />
		<tag k="name" v="Horsevik" />
		<tag k="place" v="farm" />
		<tag k="ssr:stedsnr" v="311545" />
	</node>
	<node id="-534716" lat="61.5391166708" lon="5.67873333698">
		<tag k="historic" v="shieling" />
		<tag k="name" v="Hovestølen" />
		<tag k="place" v="locality" />
		<tag k="ssr:stedsnr" v="311503" />
	</node>
	<node id="-535738" lat="61.5048555589" lon="5.70055833747">
		<tag k="name" v="Indre Mallasvika" />
		<tag k="place" v="farm" />
		<tag k="ssr:stedsnr" v="660653" />
	</node>
	<node id="-534815" lat="61.5067797918" lon="5.73703370139">
		<tag k="name" v="Kletten" />
		<tag k="place" v="locality" />
		<tag k="ssr:stedsnr" v="372399" />
	</node>
	<node id="-535001" lat="61.5984944449" lon="5.86198333503">
		<tag k="historic" v="shieling" />
		<tag k="name" v="Kleivastølane" />
		<tag k="place" v="locality" />
		<tag k="ssr:stedsnr" v="9231" />
	</node>
	<node id="-534710" lat="61.492169742" lon="5.40686821384">
		<tag k="alt_name" v="Indrevevring;Indre Vefring" />
		<tag k="name" v="Indre Vevring" />
		<tag k="place" v="farm" />
		<tag k="ssr:stedsnr" v="311007" />
	</node>
	<node id="-534708" lat="61.5140000035" lon="5.72840555875">
		<tag k="name" v="Ospeteigen" />
		<tag k="place" v="isolated_dwelling" />
		<tag k="ssr:stedsnr" v="296664" />
	</node>
	<node id="-534814" lat="61.5093747105" lon="5.77295696722">
		<tag k="fixme" v="consider place=hamlet" />
		<tag k="name" v="Helgås" />
		<tag k="place" v="farm" />
		<tag k="ssr:stedsnr" v="372398" />
	</node>
	<node id="-534728" lat="61.4908163438" lon="5.61918993102">
		<tag k="alt_name" v="Øvrebø" />
		<tag k="fixme" v="consider place=hamlet" />
		<tag k="name" v="Bunnestølen" />
		<tag k="place" v="farm" />
		<tag k="ssr:stedsnr" v="311791" />
	</node>
	<node id="-535154" lat="61.5479643989" lon="5.78998814384">
		<tag k="fixme" v="consider place=hamlet" />
		<tag k="name" v="Indrekvam" />
		<tag k="place" v="farm" />
		<tag k="ssr:stedsnr" v="129461" />
	</node>
	<node id="-534812" lat="61.5085499974" lon="5.65677499964">
		<tag k="historic" v="shieling" />
		<tag k="name" v="Mallasvikstølane" />
		<tag k="place" v="locality" />
		<tag k="ssr:stedsnr" v="372392" />
	</node>
	<node id="-535153" lat="61.5490666661" lon="5.66636943621">
		<tag k="historic" v="shieling" />
		<tag k="name" v="Horstadstølen" />
		<tag k="place" v="locality" />
		<tag k="ssr:stedsnr" v="129458" />
	</node>
	<node id="-535067" lat="61.5010083326" lon="5.49675556264">
		<tag k="historic" v="shieling" />
		<tag k="name" v="Nordvikstølen" />
		<tag k="place" v="locality" />
		<tag k="ssr:stedsnr" v="69401" />
	</node>
	<node id="-535173" lat="61.6002833328" lon="5.92524999794">
		<tag k="historic" v="shieling" />
		<tag k="name" v="Savlandsstølen" />
		<tag k="place" v="locality" />
		<tag k="ssr:stedsnr" v="130246" />
	</node>
	<node id="-535237" lat="61.5059861105" lon="5.55700000169">
		<tag k="historic" v="shieling" />
		<tag k="name" v="Dalestølen" />
		<tag k="place" v="locality" />
		<tag k="ssr:stedsnr" v="190448" />
	</node>
	<node id="-535330" lat="61.5196433584" lon="5.82151508084">
		<tag k="fixme" v="consider place=hamlet" />
		<tag k="name" v="Øydbost" />
		<tag k="place" v="farm" />
		<tag k="ssr:stedsnr" v="251403" />
	</node>
	<node id="-535236" lat="61.5052690545" lon="5.6746458349">
		<tag k="fixme" v="consider place=hamlet" />
		<tag k="name" v="Kringla" />
		<tag k="place" v="farm" />
		<tag k="ssr:stedsnr" v="190397" />
	</node>
	<node id="-535321" lat="61.458436107" lon="5.53528612038">
		<tag k="name" v="Nåtun" />
		<tag k="place" v="farm" />
		<tag k="ssr:stedsnr" v="250638" />
	</node>
	<node id="-534670" lat="61.4889861076" lon="5.60209166314">
		<tag k="name" v="Skitnestølen" />
		<tag k="place" v="locality" />
		<tag k="ssr:stedsnr" v="286227" />
	</node>
	<node id="-535175" lat="61.5768777764" lon="5.75509999748">
		<tag k="historic" v="shieling" />
		<tag k="name" v="Tuftestølen" />
		<tag k="place" v="locality" />
		<tag k="ssr:stedsnr" v="130449" />
	</node>
	<node id="-535745" lat="61.5050861104" lon="5.6273777741">
		<tag k="name" v="Areklettstølen" />
		<tag k="place" v="locality" />
		<tag k="ssr:stedsnr" v="675415" />
	</node>
	<node id="-535231" lat="61.4821194465" lon="5.62667221273">
		<tag k="name" v="Frammarsvik" />
		<tag k="place" v="hamlet" />
		<tag k="ssr:stedsnr" v="189682" />
	</node>
	<node id="-535171" lat="61.5846444448" lon="5.95815278514">
		<tag k="fixme" v="consider place=hamlet" />
		<tag k="name" v="Fimland" />
		<tag k="place" v="village" />
		<tag k="ssr:stedsnr" v="130227" />
	</node>
	<node id="-535169" lat="61.5795833353" lon="5.96139721833">
		<tag k="name" v="Gavlane" />
		<tag k="place" v="locality" />
		<tag k="ssr:stedsnr" v="130203" />
	</node>
	<node id="-535680" lat="61.5543861151" lon="5.73403056268">
		<tag k="historic" v="shieling" />
		<tag k="name" v="Urastølen" />
		<tag k="place" v="locality" />
		<tag k="ssr:stedsnr" v="626714" />
	</node>
	<node id="-535317" lat="61.493936115" lon="5.31996665682">
		<tag k="fixme" v="consider place=hamlet" />
		<tag k="name" v="Seter" />
		<tag k="place" v="farm" />
		<tag k="ssr:stedsnr" v="250026" />
	</node>
	<node id="-535675" lat="61.528808331" lon="5.85251666372">
		<tag k="historic" v="shieling" />
		<tag k="name" v="Øydboststølen" />
		<tag k="place" v="locality" />
		<tag k="ssr:stedsnr" v="616162" />
	</node>
	<node id="-535162" lat="61.4738591552" lon="5.57315960898">
		<tag k="alt_name" v="Einevoll" />
		<tag k="fixme" v="consider place=hamlet" />
		<tag k="name" v="Einevollen" />
		<tag k="place" v="farm" />
		<tag k="ssr:stedsnr" v="129710" />
	</node>
	<node id="-535673" lat="61.6057694441" lon="5.93513888434">
		<tag k="alt_name" v="Teigastøl" />
		<tag k="historic" v="shieling" />
		<tag k="name" v="Teigastølen" />
		<tag k="place" v="locality" />
		<tag k="ssr:stedsnr" v="615246" />
	</node>
	<node id="-535672" lat="61.5819270606" lon="5.86349912054">
		<tag k="fixme" v="consider place=hamlet" />
		<tag k="name" v="Herstad" />
		<tag k="place" v="farm" />
		<tag k="ssr:stedsnr" v="615226" />
	</node>
	<node id="-535670" lat="61.5791916641" lon="5.92142222629">
		<tag k="name" v="Heimtun" />
		<tag k="place" v="farm" />
		<tag k="ssr:stedsnr" v="615204" />
	</node>
	<node id="-535157" lat="61.5402141329" lon="5.79519429633">
		<tag k="fixme" v="consider place=hamlet" />
		<tag k="name" v="Bakken" />
		<tag k="place" v="farm" />
		<tag k="ssr:stedsnr" v="129472" />
	</node>
	<node id="-535156" lat="61.5418338859" lon="5.79410177033">
		<tag k="fixme" v="consider place=hamlet" />
		<tag k="name" v="Stuhaugen" />
		<tag k="place" v="farm" />
		<tag k="ssr:stedsnr" v="129471" />
	</node>
	<node id="-535667" lat="61.4875573997" lon="5.63070619827">
		<tag k="alt_name" v="Areklett" />
		<tag k="fixme" v="consider place=hamlet" />
		<tag k="name" v="Arekletten" />
		<tag k="place" v="farm" />
		<tag k="ssr:stedsnr" v="614755" />
	</node>
	<node id="-535666" lat="61.4692222196" lon="5.55416666807">
		<tag k="alt_name" v="Helle, øvre;Øvre Hella" />
		<tag k="name" v="Øvre Helle" />
		<tag k="place" v="farm" />
		<tag k="ssr:stedsnr" v="614725" />
	</node>
	<node id="-535665" lat="61.4761294697" lon="5.59871603454">
		<tag k="alt_name" v="Storelid" />
		<tag k="fixme" v="consider place=hamlet" />
		<tag k="name" v="Storelia" />
		<tag k="place" v="farm" />
		<tag k="ssr:stedsnr" v="614716" />
	</node>
	<node id="-535152" lat="61.5630738283" lon="5.8112111568">
		<tag k="fixme" v="consider place=hamlet" />
		<tag k="name" v="Øvre Kalland" />
		<tag k="place" v="farm" />
		<tag k="ssr:stedsnr" v="129454" />
	</node>
	<node id="-535151" lat="61.5032055584" lon="5.78145555692">
		<tag k="name" v="Svistølen" />
		<tag k="place" v="farm" />
		<tag k="ssr:stedsnr" v="129386" />
	</node>
	<node id="-535149" lat="61.5726377126" lon="5.78459386743">
		<tag k="fixme" v="consider place=hamlet" />
		<tag k="name" v="Fitje" />
		<tag k="place" v="farm" />
		<tag k="ssr:stedsnr" v="129442" />
	</node>
	<node id="-535148" lat="61.5105722251" lon="5.54283055582">
		<tag k="historic" v="shieling" />
		<tag k="name" v="Viddalsstølen" />
		<tag k="place" v="locality" />
		<tag k="ssr:stedsnr" v="129430" />
	</node>
	<node id="-535147" lat="61.5225916711" lon="5.68719722795">
		<tag k="name" v="Varlia" />
		<tag k="place" v="locality" />
		<tag k="ssr:stedsnr" v="129424" />
	</node>
	<node id="-535658" lat="61.5529663022" lon="5.77533511126">
		<tag k="fixme" v="consider place=hamlet" />
		<tag k="name" v="Solheim" />
		<tag k="place" v="farm" />
		<tag k="ssr:stedsnr" v="614461" />
	</node>
	<node id="-535143" lat="61.481342454" lon="5.62644854403">
		<tag k="fixme" v="consider place=hamlet" />
		<tag k="name" v="Frammarsvika" />
		<tag k="place" v="farm" />
		<tag k="ssr:stedsnr" v="128699" />
	</node>
	<node id="-535656" lat="61.5260980808" lon="5.78033273083">
		<tag k="fixme" v="consider place=hamlet" />
		<tag k="name" v="Åse" />
		<tag k="place" v="farm" />
		<tag k="ssr:stedsnr" v="614438" />
	</node>
	<node id="-535655" lat="61.5196138871" lon="5.68242222994">
		<tag k="historic" v="shieling" />
		<tag k="name" v="Naustdalsstølane" />
		<tag k="place" v="locality" />
		<tag k="ssr:stedsnr" v="614428" />
	</node>
	<node id="-535654" lat="61.4954428989" lon="5.31156139085">
		<tag k="alt_name" v="Apneset" />
		<tag k="fixme" v="consider place=hamlet" />
		<tag k="name" v="Apnaset" />
		<tag k="place" v="farm" />
		<tag k="ssr:stedsnr" v="614038" />
	</node>
	<node id="-535653" lat="61.4980530412" lon="5.31735859311">
		<tag k="fixme" v="consider place=hamlet" />
		<tag k="name" v="Seljevollen" />
		<tag k="place" v="farm" />
		<tag k="ssr:stedsnr" v="614036" />
	</node>
	<node id="-534825" lat="61.5063777808" lon="5.31793333554">
		<tag k="historic" v="shieling" />
		<tag k="name" v="Kvellestadstølen" />
		<tag k="place" v="locality" />
		<tag k="ssr:stedsnr" v="372617" />
	</node>
	<node id="-535132" lat="61.514069447" lon="5.7254722299">
		<tag k="name" v="Løken" />
		<tag k="place" v="farm" />
		<tag k="ssr:stedsnr" v="104867" />
	</node>
	<node id="-534714" lat="61.5239218537" lon="5.74024558311">
		<tag k="fixme" v="consider place=hamlet" />
		<tag k="name" v="Skei" />
		<tag k="place" v="farm" />
		<tag k="ssr:stedsnr" v="311483" />
	</node>
	<node id="-535558" lat="61.5207241523" lon="5.73375439636">
		<tag k="fixme" v="consider place=hamlet" />
		<tag k="name" v="Jonstad" />
		<tag k="place" v="farm" />
		<tag k="ssr:stedsnr" v="554443" />
	</node>
	<node id="-534713" lat="61.5208055595" lon="5.65677500121">
		<tag k="historic" v="shieling" />
		<tag k="name" v="Liastølen" />
		<tag k="place" v="locality" />
		<tag k="ssr:stedsnr" v="311469" />
	</node>
	<node id="-536146" lat="61.5450262834" lon="5.98370131912">
		<tag k="fixme" v="consider place=hamlet" />
		<tag k="name" v="Trodalsstranda" />
		<tag k="place" v="farm" />
		<tag k="ssr:stedsnr" v="973799" />
	</node>
	<node id="-536145" lat="61.5086299535" lon="5.71406228384">
		<tag k="fixme" v="consider place=hamlet" />
		<tag k="name" v="Naustdal" />
		<tag k="place" v="farm" />
		<tag k="ssr:stedsnr" v="973794" />
	</node>
	<node id="-536144" lat="61.4675314346" lon="5.55169118395">
		<tag k="fixme" v="consider place=hamlet" />
		<tag k="name" v="Helle" />
		<tag k="place" v="farm" />
		<tag k="ssr:stedsnr" v="973793" />
	</node>
	<node id="-536143" lat="61.4919104498" lon="5.40019203404">
		<tag k="fixme" v="consider place=hamlet" />
		<tag k="name" v="Vevring" />
		<tag k="place" v="farm" />
		<tag k="ssr:stedsnr" v="973792" />
	</node>
	<node id="-536142" lat="61.5655777751" lon="5.75610278363">
		<tag k="historic" v="shieling" />
		<tag k="name" v="Furehaugsstølane" />
		<tag k="place" v="locality" />
		<tag k="ssr:stedsnr" v="964680" />
	</node>
	<node id="-535223" lat="61.5357305583" lon="5.71356666219">
		<tag k="name" v="Stølen" />
		<tag k="place" v="locality" />
		<tag k="ssr:stedsnr" v="165977" />
	</node>
	<node id="-534735" lat="61.6017426173" lon="5.97901649922">
		<tag k="fixme" v="consider place=hamlet" />
		<tag k="name" v="Svoa" />
		<tag k="place" v="farm" />
		<tag k="ssr:stedsnr" v="312226" />
	</node>
	<node id="-535613" lat="61.5573694425" lon="5.78282221763">
		<tag k="name" v="Loftheim" />
		<tag k="place" v="farm" />
		<tag k="ssr:stedsnr" v="589554" />
	</node>
	<node id="-535065" lat="61.4866644676" lon="5.50089441846">
		<tag k="alt_name" v="Underlid;Underli" />
		<tag k="fixme" v="consider place=hamlet" />
		<tag k="name" v="Under Li" />
		<tag k="place" v="farm" />
		<tag k="ssr:stedsnr" v="69548" />
	</node>
	<node id="-536114" lat="61.5040833372" lon="5.34438888205">
		<tag k="historic" v="shieling" />
		<tag k="name" v="Seljevollstølen" />
		<tag k="place" v="locality" />
		<tag k="ssr:stedsnr" v="954254" />
	</node>
	<node id="-534809" lat="61.4857944432" lon="5.56560277844">
		<tag k="historic" v="shieling" />
		<tag k="name" v="Einevollsstølen" />
		<tag k="place" v="locality" />
		<tag k="ssr:stedsnr" v="371732" />
	</node>
	<node id="-535559" lat="61.5417729175" lon="5.77552685441">
		<tag k="fixme" v="consider place=hamlet" />
		<tag k="name" v="Horstad" />
		<tag k="place" v="farm" />
		<tag k="ssr:stedsnr" v="554484" />
	</node>
	<node id="-536101" lat="61.5562666686" lon="5.82739721271">
		<tag k="name" v="Pæstølen" />
		<tag k="place" v="locality" />
		<tag k="ssr:stedsnr" v="953912" />
	</node>
	<node id="-535075" lat="61.5558000604" lon="5.7959265702">
		<tag k="alt_name" v="Rognebakke" />
		<tag k="fixme" v="consider place=hamlet" />
		<tag k="name" v="Rognebakken" />
		<tag k="place" v="farm" />
		<tag k="ssr:stedsnr" v="69488" />
	</node>
	<node id="-535074" lat="61.5633666623" lon="5.75564444408">
		<tag k="historic" v="shieling" />
		<tag k="name" v="Instebøstølen" />
		<tag k="place" v="locality" />
		<tag k="ssr:stedsnr" v="69478" />
	</node>
	<node id="-535072" lat="61.5239222242" lon="5.61402499652">
		<tag k="historic" v="shieling" />
		<tag k="name" v="Boltestølen" />
		<tag k="place" v="locality" />
		<tag k="ssr:stedsnr" v="69458" />
	</node>
	<node id="-535070" lat="61.5189583291" lon="5.70186388228">
		<tag k="alt_name" v="Naustdalslid" />
		<tag k="name" v="Naustdalslia" />
		<tag k="place" v="farm" />
		<tag k="ssr:stedsnr" v="69452" />
	</node>
	<node id="-535579" lat="61.501213888" lon="5.52884444589">
		<tag k="historic" v="shieling" />
		<tag k="name" v="Vasstølen" />
		<tag k="place" v="locality" />
		<tag k="ssr:stedsnr" v="565724" />
	</node>
	<node id="-535577" lat="61.4998662459" lon="5.29754500366">
		<tag k="name" v="Kvellestad" />
		<tag k="place" v="farm" />
		<tag k="ssr:stedsnr" v="555784" />
	</node>
	<node id="-535063" lat="61.5902944461" lon="5.79749723015">
		<tag k="historic" v="shieling" />
		<tag k="name" v="Fitjestølane" />
		<tag k="place" v="locality" />
		<tag k="ssr:stedsnr" v="69510" />
	</node>
	<node id="-535062" lat="61.460472221" lon="5.53620554705">
		<tag k="name" v="Nybø" />
		<tag k="place" v="farm" />
		<tag k="ssr:stedsnr" v="68681" />
	</node>
	<node id="-535571" lat="61.5789750938" lon="5.9078796499">
		<tag k="fixme" v="consider place=hamlet" />
		<tag k="name" v="Sunde" />
		<tag k="place" v="farm" />
		<tag k="ssr:stedsnr" v="555183" />
	</node>
	<node id="-536082" lat="61.5982166671" lon="5.80724166794">
		<tag k="alt_name" v="Hystølane" />
		<tag k="fixme" v="multiple name tags, choose one and add the other to alt_name" />
		<tag k="historic" v="shieling" />
		<tag k="name" v="Hystølen;Ullalandsstølane" />
		<tag k="place" v="locality" />
		<tag k="ssr:stedsnr" v="937617" />
	</node>
	<node id="-535569" lat="61.5219805541" lon="5.86583056343">
		<tag k="historic" v="shieling" />
		<tag k="name" v="Huksetestølen" />
		<tag k="place" v="locality" />
		<tag k="ssr:stedsnr" v="555137" />
	</node>
	<node id="-536080" lat="61.572036114" lon="5.96589722213">
		<tag k="name" v="Nordre Reinene" />
		<tag k="place" v="farm" />
		<tag k="ssr:stedsnr" v="931490" />
	</node>
	<node id="-536079" lat="61.5768861099" lon="5.73976665759">
		<tag k="historic" v="shieling" />
		<tag k="name" v="Haugastølen" />
		<tag k="place" v="locality" />
		<tag k="ssr:stedsnr" v="930723" />
	</node>
	<node id="-535054" lat="61.5710055586" lon="5.94821110517">
		<tag k="historic" v="shieling" />
		<tag k="name" v="Skaflestadstøl" />
		<tag k="place" v="locality" />
		<tag k="ssr:stedsnr" v="44489" />
	</node>
	<node id="-536077" lat="61.5354805568" lon="5.70676388432">
		<tag k="historic" v="shieling" />
		<tag k="name" v="Nordstølen" />
		<tag k="place" v="locality" />
		<tag k="ssr:stedsnr" v="930712" />
	</node>
	<node id="-536076" lat="61.5571527804" lon="5.79077500886">
		<tag k="name" v="Fletene" />
		<tag k="place" v="farm" />
		<tag k="ssr:stedsnr" v="930707" />
	</node>
	<node id="-536075" lat="61.5012555564" lon="5.27268887954">
		<tag k="name" v="Horne" />
		<tag k="place" v="farm" />
		<tag k="ssr:stedsnr" v="920806" />
	</node>
	<node id="-535562" lat="61.5776717139" lon="5.82474706914">
		<tag k="fixme" v="consider place=hamlet" />
		<tag k="name" v="Hamra" />
		<tag k="place" v="farm" />
		<tag k="ssr:stedsnr" v="554537" />
	</node>
	<node id="-536071" lat="61.5459194425" lon="5.85980000359">
		<tag k="historic" v="shieling" />
		<tag k="name" v="Stehogestølane" />
		<tag k="place" v="locality" />
		<tag k="ssr:stedsnr" v="920190" />
	</node>
	<node id="-536070" lat="61.5546777751" lon="5.92833610943">
		<tag k="historic" v="shieling" />
		<tag k="name" v="Vasslistølen" />
		<tag k="place" v="locality" />
		<tag k="ssr:stedsnr" v="920183" />
	</node>
	<node id="-536067" lat="61.5859521372" lon="5.9128567557">
		<tag k="fixme" v="consider place=hamlet" />
		<tag k="name" v="Savland" />
		<tag k="place" v="farm" />
		<tag k="ssr:stedsnr" v="919237" />
	</node>
	<node id="-536066" lat="61.5917993509" lon="5.94587543493">
		<tag k="fixme" v="consider place=hamlet" />
		<tag k="name" v="Teigen" />
		<tag k="place" v="farm" />
		<tag k="ssr:stedsnr" v="919238" />
	</node>
	<node id="-535553" lat="61.4851690888" lon="5.62448009179">
		<tag k="alt_name" v="Slettehaug" />
		<tag k="fixme" v="consider place=hamlet" />
		<tag k="name" v="Slettehaugen" />
		<tag k="place" v="farm" />
		<tag k="ssr:stedsnr" v="553739" />
	</node>
</osm>
