<?xml version="1.0" encoding="UTF-8"?>
<<<<<<< HEAD
<osm version="0.6" generator="osmapis">
	<node lat="59.22804722196756" lon="5.392383330640452" id="-2672">
		<tag k="alt_name" v="Breidvik" />
		<tag k="name" v="Breivik" />
=======
<osm generator="osmapis" version="0.6">
	<node id="-36475" lat="59.1956449242" lon="5.42944543857">
		<tag k="alt_name" v="Økland" />
		<tag k="fixme" v="consider place=hamlet" />
		<tag k="name" v="Aukland" />
		<tag k="place" v="farm" />
		<tag k="ssr:stedsnr" v="912060" />
	</node>
	<node id="-36345" lat="59.1953333334" lon="5.42443055363">
		<tag k="name" v="Kleivå" />
		<tag k="place" v="farm" />
		<tag k="ssr:stedsnr" v="478492" />
	</node>
	<node id="-36726" lat="59.1825027752" lon="5.44722778141">
		<tag k="name" v="Dybing" />
		<tag k="place" v="farm" />
		<tag k="ssr:stedsnr" v="600067" />
	</node>
	<node id="-36596" lat="59.1715075013" lon="5.4469444124">
		<tag k="fixme" v="consider place=hamlet" />
		<tag k="name" v="Are" />
		<tag k="place" v="farm" />
		<tag k="ssr:stedsnr" v="184439" />
	</node>
	<node id="-36339" lat="59.2343617604" lon="5.46016083048">
		<tag k="alt_name" v="Nerabø" />
		<tag k="fixme" v="consider place=hamlet" />
		<tag k="name" v="Nedrabø" />
		<tag k="place" v="farm" />
		<tag k="ssr:stedsnr" v="304017" />
	</node>
	<node id="-36722" lat="59.1981968903" lon="5.41084403436">
		<tag k="fixme" v="consider place=hamlet" />
		<tag k="name" v="Søre Grønestad" />
		<tag k="place" v="farm" />
		<tag k="ssr:stedsnr" v="599481" />
	</node>
	<node id="-36591" lat="59.2477944468" lon="5.46539444198">
		<tag k="name" v="Nydal" />
		<tag k="place" v="farm" />
		<tag k="ssr:stedsnr" v="183039" />
	</node>
	<node id="-36462" lat="59.171339664" lon="5.39182643142">
		<tag k="fixme" v="consider place=hamlet" />
		<tag k="name" v="Loten" />
		<tag k="place" v="farm" />
		<tag k="ssr:stedsnr" v="730437" />
	</node>
	<node id="-36328" lat="59.173780559" lon="5.3924361125">
		<tag k="name" v="Loten" />
		<tag k="place" v="farm" />
		<tag k="ssr:stedsnr" v="449793" />
	</node>
	<node id="-36327" lat="59.18089722" lon="5.39362778027">
		<tag k="name" v="Loten" />
		<tag k="place" v="farm" />
		<tag k="ssr:stedsnr" v="449790" />
	</node>
	<node id="-36708" lat="59.2101163567" lon="5.44843692859">
		<tag k="fixme" v="consider place=hamlet" />
		<tag k="name" v="Håland" />
		<tag k="place" v="farm" />
		<tag k="ssr:stedsnr" v="548089" />
	</node>
	<node id="-36706" lat="59.1802475141" lon="5.39130170853">
		<tag k="fixme" v="consider place=hamlet" />
		<tag k="name" v="Jøsen" />
		<tag k="place" v="farm" />
		<tag k="ssr:stedsnr" v="547435" />
	</node>
	<node id="-36705" lat="59.1969924591" lon="5.44371769415">
		<tag k="fixme" v="consider place=hamlet" />
		<tag k="name" v="Vatnaland" />
		<tag k="place" v="farm" />
		<tag k="ssr:stedsnr" v="547078" />
	</node>
	<node id="-36704" lat="59.1888772065" lon="5.40560972227">
		<tag k="alt_name" v="Sønnaland" />
		<tag k="fixme" v="consider place=hamlet" />
		<tag k="name" v="Sunnaland" />
		<tag k="place" v="farm" />
		<tag k="ssr:stedsnr" v="547075" />
	</node>
	<node id="-36570" lat="59.2218054706" lon="5.43932545611">
		<tag k="fixme" v="consider place=hamlet" />
		<tag k="name" v="Boknaberg" />
		<tag k="place" v="farm" />
		<tag k="ssr:stedsnr" v="123130" />
	</node>
	<node id="-36439" lat="59.2104571989" lon="5.42615900183">
		<tag k="fixme" v="consider place=hamlet" />
		<tag k="name" v="Torland" />
		<tag k="place" v="farm" />
		<tag k="ssr:stedsnr" v="730088" />
	</node>
	<node id="-36566" lat="59.2033336268" lon="5.43087933356">
		<tag k="fixme" v="consider place=hamlet" />
		<tag k="name" v="Dagsland" />
		<tag k="place" v="farm" />
		<tag k="ssr:stedsnr" v="122082" />
	</node>
	<node id="-36436" lat="59.255741267" lon="5.4711430913">
		<tag k="fixme" v="consider place=hamlet" />
		<tag k="name" v="Ogn" />
		<tag k="place" v="farm" />
		<tag k="ssr:stedsnr" v="633671" />
	</node>
	<node id="-36429" lat="59.230505557" lon="5.38842223081">
		<tag k="name" v="Nordre Breivik" />
		<tag k="place" v="farm" />
		<tag k="ssr:stedsnr" v="727887" />
	</node>
	<node id="-36555" lat="59.1884222184" lon="5.47311667161">
		<tag k="name" v="Oksabåsen" />
>>>>>>> e1d4bc35ff8a6074a6f2e91616a996b547c36f15
		<tag k="place" v="farm" />
		<tag k="ssr:stedsnr" v="1003" />
	</node>
	<node lat="59.23109444871263" lon="5.4393805524602294" id="-2673">
		<tag k="alt_name" v="Vigjå" />
		<tag k="name" v="Føresvik" />
		<tag k="place" v="village" />
		<tag k="ssr:stedsnr" v="1004" />
	</node>
<<<<<<< HEAD
	<node lat="59.21679556037692" lon="5.448411951085191" id="-2678">
=======
	<node id="-36553" lat="59.2140329506" lon="5.38708713213">
>>>>>>> e1d4bc35ff8a6074a6f2e91616a996b547c36f15
		<tag k="fixme" v="consider place=hamlet" />
		<tag k="name" v="Alvestad" />
		<tag k="place" v="farm" />
		<tag k="ssr:stedsnr" v="2102" />
	</node>
<<<<<<< HEAD
	<node lat="59.22810349418083" lon="5.443815789847576" id="-2692">
		<tag k="fixme" v="consider place=hamlet" />
		<tag k="name" v="Sæbø" />
		<tag k="place" v="farm" />
		<tag k="ssr:stedsnr" v="62016" />
	</node>
	<node lat="59.21403295060069" lon="5.387087132127375" id="-2694">
=======
	<node id="-36679" lat="59.2220499991" lon="5.4005277728">
		<tag k="name" v="Stølen" />
		<tag k="place" v="farm" />
		<tag k="ssr:stedsnr" v="427118" />
	</node>
	<node id="-36678" lat="59.2316972243" lon="5.39307500386">
		<tag k="alt_name" v="Borgenvik" />
		<tag k="name" v="Bornevik" />
		<tag k="place" v="locality" />
		<tag k="ssr:stedsnr" v="426001" />
	</node>
	<node id="-36796" lat="59.2339882316" lon="5.55196364083">
>>>>>>> e1d4bc35ff8a6074a6f2e91616a996b547c36f15
		<tag k="fixme" v="consider place=hamlet" />
		<tag k="name" v="Trosnavåg" />
		<tag k="place" v="farm" />
		<tag k="ssr:stedsnr" v="62088" />
	</node>
<<<<<<< HEAD
	<node lat="59.18842221844354" lon="5.473116671611013" id="-2696">
		<tag k="name" v="Oksabåsen" />
=======
	<node id="-36795" lat="59.2313628123" lon="5.39191290786">
		<tag k="name" v="Nordre Bornevik" />
>>>>>>> e1d4bc35ff8a6074a6f2e91616a996b547c36f15
		<tag k="place" v="farm" />
		<tag k="ssr:stedsnr" v="62280" />
	</node>
<<<<<<< HEAD
	<node lat="59.203333626795285" lon="5.430879333556526" id="-2711">
		<tag k="fixme" v="consider place=hamlet" />
		<tag k="name" v="Dagsland" />
		<tag k="place" v="farm" />
		<tag k="ssr:stedsnr" v="122082" />
	</node>
	<node lat="59.22180547061447" lon="5.439325456109454" id="-2713">
		<tag k="fixme" v="consider place=hamlet" />
		<tag k="name" v="Boknaberg" />
		<tag k="place" v="farm" />
		<tag k="ssr:stedsnr" v="123130" />
	</node>
	<node lat="59.17150750133745" lon="5.446944412395802" id="-2721">
=======
	<node id="-36657" lat="59.2264222199" lon="5.3958055587">
		<tag k="alt_name" v="Kleivane" />
		<tag k="name" v="Kleiva" />
		<tag k="place" v="farm" />
		<tag k="ssr:stedsnr" v="366106" />
	</node>
	<node id="-36656" lat="59.217156336" lon="5.41266398498">
>>>>>>> e1d4bc35ff8a6074a6f2e91616a996b547c36f15
		<tag k="fixme" v="consider place=hamlet" />
		<tag k="name" v="Are" />
		<tag k="place" v="farm" />
		<tag k="ssr:stedsnr" v="184439" />
	</node>
<<<<<<< HEAD
	<node lat="59.17378055899412" lon="5.3924361124968865" id="-2731">
		<tag k="name" v="Loten" />
=======
	<node id="-36654" lat="59.2179313307" lon="5.48734035496">
		<tag k="alt_name" v="Våga" />
		<tag k="fixme" v="consider place=hamlet" />
		<tag k="name" v="Søre Våga" />
>>>>>>> e1d4bc35ff8a6074a6f2e91616a996b547c36f15
		<tag k="place" v="farm" />
		<tag k="ssr:stedsnr" v="449793" />
	</node>
<<<<<<< HEAD
	<node lat="59.17806111260132" lon="5.3817027743987005" id="-2740">
		<tag k="name" v="Loten" />
=======
	<node id="-36652" lat="59.1813676247" lon="5.42487714893">
		<tag k="fixme" v="consider place=hamlet" />
		<tag k="name" v="Hognaland" />
>>>>>>> e1d4bc35ff8a6074a6f2e91616a996b547c36f15
		<tag k="place" v="farm" />
		<tag k="ssr:stedsnr" v="267817" />
	</node>
<<<<<<< HEAD
	<node lat="59.19533333339605" lon="5.424430553631149" id="-2765">
		<tag k="name" v="Kleivå" />
=======
	<node id="-36779" lat="59.216147226" lon="5.4869611099">
		<tag k="name" v="Rabben" />
>>>>>>> e1d4bc35ff8a6074a6f2e91616a996b547c36f15
		<tag k="place" v="farm" />
		<tag k="ssr:stedsnr" v="478492" />
	</node>
<<<<<<< HEAD
	<node lat="59.22204999913641" lon="5.400527772796609" id="-2789">
		<tag k="name" v="Stølen" />
		<tag k="place" v="farm" />
		<tag k="ssr:stedsnr" v="427118" />
	</node>
	<node lat="59.180897219955426" lon="5.393627780268685" id="-2790">
		<tag k="name" v="Loten" />
		<tag k="place" v="farm" />
		<tag k="ssr:stedsnr" v="449790" />
	</node>
	<node lat="59.18887720652103" lon="5.405609722271615" id="-2807">
		<tag k="alt_name" v="Sønnaland" />
		<tag k="fixme" v="consider place=hamlet" />
		<tag k="name" v="Sunnaland" />
		<tag k="place" v="farm" />
		<tag k="ssr:stedsnr" v="547075" />
	</node>
	<node lat="59.196992459145456" lon="5.443717694150293" id="-2808">
		<tag k="fixme" v="consider place=hamlet" />
		<tag k="name" v="Vatnaland" />
=======
	<node id="-36776" lat="59.2299722227" lon="5.43711388197">
		<tag k="amenity" v="school" />
		<tag k="name" v="Bokn" />
		<tag k="ssr:stedsnr" v="848897" />
	</node>
	<node id="-36519" lat="59.2310944487" lon="5.43938055246">
		<tag k="alt_name" v="Vigjå" />
		<tag k="name" v="Føresvik" />
		<tag k="place" v="village" />
		<tag k="ssr:stedsnr" v="1004" />
	</node>
	<node id="-36518" lat="59.228047222" lon="5.39238333064">
		<tag k="alt_name" v="Breidvik" />
		<tag k="name" v="Breivik" />
>>>>>>> e1d4bc35ff8a6074a6f2e91616a996b547c36f15
		<tag k="place" v="farm" />
		<tag k="ssr:stedsnr" v="547078" />
	</node>
<<<<<<< HEAD
	<node lat="59.182061115700094" lon="5.4151333365747" id="-2833">
		<tag k="name" v="Bakkjen" />
=======
	<node id="-36529" lat="59.2167955604" lon="5.44841195109">
		<tag k="fixme" v="consider place=hamlet" />
		<tag k="name" v="Alvestad" />
		<tag k="place" v="farm" />
		<tag k="ssr:stedsnr" v="2102" />
	</node>
	<node id="-36515" lat="59.2324194476" lon="5.41459999532">
		<tag k="name" v="Søllbrekk" />
>>>>>>> e1d4bc35ff8a6074a6f2e91616a996b547c36f15
		<tag k="place" v="farm" />
		<tag k="ssr:stedsnr" v="660395" />
	</node>
<<<<<<< HEAD
	<node lat="59.187491664778406" lon="5.423061114045528" id="-2839">
		<tag k="name" v="Tveidane" />
=======
	<node id="-36768" lat="59.2177777773" lon="5.499166666">
		<tag k="name" v="Båshilleren" />
>>>>>>> e1d4bc35ff8a6074a6f2e91616a996b547c36f15
		<tag k="place" v="farm" />
		<tag k="ssr:stedsnr" v="660498" />
	</node>
<<<<<<< HEAD
	<node lat="59.21150277558919" lon="5.3890694470454354" id="-2842">
		<tag k="name" v="Vintrastø" />
=======
	<node id="-36639" lat="59.2305305587" lon="5.39446945091">
		<tag k="name" v="Søre Bornevik" />
>>>>>>> e1d4bc35ff8a6074a6f2e91616a996b547c36f15
		<tag k="place" v="farm" />
		<tag k="ssr:stedsnr" v="669078" />
	</node>
<<<<<<< HEAD
	<node lat="59.23050555704832" lon="5.388422230805712" id="-2854">
		<tag k="name" v="Nordre Breivik" />
=======
	<node id="-36294" lat="59.2281034942" lon="5.44381578985">
		<tag k="fixme" v="consider place=hamlet" />
		<tag k="name" v="Sæbø" />
		<tag k="place" v="farm" />
		<tag k="ssr:stedsnr" v="62016" />
	</node>
	<node id="-36392" lat="59.2115027756" lon="5.38906944705">
		<tag k="name" v="Vintrastø" />
		<tag k="place" v="farm" />
		<tag k="ssr:stedsnr" v="669078" />
	</node>
	<node id="-36377" lat="59.1820611157" lon="5.41513333657">
		<tag k="name" v="Bakkjen" />
>>>>>>> e1d4bc35ff8a6074a6f2e91616a996b547c36f15
		<tag k="place" v="farm" />
		<tag k="ssr:stedsnr" v="727887" />
	</node>
<<<<<<< HEAD
	<node lat="59.21045719894622" lon="5.4261590018283705" id="-2861">
		<tag k="fixme" v="consider place=hamlet" />
		<tag k="name" v="Torland" />
		<tag k="place" v="farm" />
		<tag k="ssr:stedsnr" v="730088" />
	</node>
	<node lat="59.185043724364995" lon="5.446319481330605" id="-2879">
=======
	<node id="-36376" lat="59.1874916648" lon="5.42306111405">
		<tag k="name" v="Tveidane" />
		<tag k="place" v="farm" />
		<tag k="ssr:stedsnr" v="660498" />
	</node>
	<node id="-36758" lat="59.2012108262" lon="5.41000934383">
		<tag k="alt_name" v="Grønnestad;Nordre Grønnestad" />
		<tag k="name" v="Grønestad" />
		<tag k="place" v="hamlet" />
		<tag k="ssr:stedsnr" v="790071" />
	</node>
	<node id="-36334" lat="59.1780611126" lon="5.3817027744">
		<tag k="name" v="Loten" />
		<tag k="place" v="farm" />
		<tag k="ssr:stedsnr" v="267817" />
	</node>
	<node id="-36498" lat="59.2193976454" lon="5.48766760464">
		<tag k="name" v="Våga" />
		<tag k="place" v="hamlet" />
		<tag k="ssr:stedsnr" v="814922" />
	</node>
	<node id="-36483" lat="59.223435152" lon="5.48969601794">
		<tag k="alt_name" v="Våga" />
>>>>>>> e1d4bc35ff8a6074a6f2e91616a996b547c36f15
		<tag k="fixme" v="consider place=hamlet" />
		<tag k="name" v="Laupland" />
		<tag k="place" v="farm" />
		<tag k="ssr:stedsnr" v="790415" />
	</node>
<<<<<<< HEAD
	<node lat="59.19564492418766" lon="5.42944543856945" id="-2880">
		<tag k="alt_name" v="Økland" />
		<tag k="fixme" v="consider place=hamlet" />
		<tag k="name" v="Aukland" />
		<tag k="place" v="farm" />
		<tag k="ssr:stedsnr" v="912060" />
	</node>
	<node lat="59.21939764543304" lon="5.487667604642798" id="-2888">
		<tag k="name" v="Våga" />
		<tag k="place" v="hamlet" />
		<tag k="ssr:stedsnr" v="814922" />
	</node>
	<node lat="59.21614722598762" lon="5.486961109903994" id="-2892">
		<tag k="name" v="Rabben" />
=======
	<node id="-36495" lat="59.188208078" lon="5.44475798787">
		<tag k="alt_name" v="Hodl" />
		<tag k="fixme" v="consider place=hamlet" />
		<tag k="name" v="Trælhaug" />
>>>>>>> e1d4bc35ff8a6074a6f2e91616a996b547c36f15
		<tag k="place" v="farm" />
		<tag k="ssr:stedsnr" v="848979" />
	</node>
<<<<<<< HEAD
	<node lat="59.217777777308754" lon="5.499166666003426" id="-2900">
		<tag k="name" v="Båshilleren" />
=======
	<node id="-36494" lat="59.1850437244" lon="5.44631948133">
		<tag k="fixme" v="consider place=hamlet" />
		<tag k="name" v="Laupland" />
>>>>>>> e1d4bc35ff8a6074a6f2e91616a996b547c36f15
		<tag k="place" v="farm" />
		<tag k="ssr:stedsnr" v="875907" />
	</node>
<<<<<<< HEAD
	<node lat="59.22343515204639" lon="5.489696017943683" id="-2916">
		<tag k="alt_name" v="Våga" />
=======
	<node id="-36493" lat="59.2385589681" lon="5.46033509752">
>>>>>>> e1d4bc35ff8a6074a6f2e91616a996b547c36f15
		<tag k="fixme" v="consider place=hamlet" />
		<tag k="name" v="Nordre Våga" />
		<tag k="place" v="farm" />
		<tag k="ssr:stedsnr" v="912493" />
	</node>
<<<<<<< HEAD
	<node lat="59.23241944761077" lon="5.414599995317776" id="-2926">
		<tag k="name" v="Søllbrekk" />
=======
	<node id="-36492" lat="59.2435086735" lon="5.4633423777">
		<tag k="fixme" v="consider place=hamlet" />
		<tag k="name" v="Kro" />
>>>>>>> e1d4bc35ff8a6074a6f2e91616a996b547c36f15
		<tag k="place" v="farm" />
		<tag k="ssr:stedsnr" v="970610" />
	</node>
	<node lat="59.23136281228922" lon="5.391912907864712" id="-2927">
		<tag k="name" v="Nordre Bornevik" />
		<tag k="place" v="farm" />
		<tag k="ssr:stedsnr" v="973797" />
	</node>
<<<<<<< HEAD
	<node lat="59.187086112632706" lon="5.454819450743136" id="-2931">
=======
	<node id="-36524" lat="59.1870861126" lon="5.45481945074">
>>>>>>> e1d4bc35ff8a6074a6f2e91616a996b547c36f15
		<tag k="name" v="Vågshaug" />
		<tag k="place" v="farm" />
		<tag k="ssr:stedsnr" v="1423" />
	</node>
<<<<<<< HEAD
	<node lat="59.2477944468434" lon="5.465394441979377" id="-2980">
		<tag k="name" v="Nydal" />
		<tag k="place" v="farm" />
		<tag k="ssr:stedsnr" v="183039" />
	</node>
	<node lat="59.234361760420114" lon="5.460160830476915" id="-2995">
		<tag k="alt_name" v="Nerabø" />
		<tag k="fixme" v="consider place=hamlet" />
		<tag k="name" v="Nedrabø" />
		<tag k="place" v="farm" />
		<tag k="ssr:stedsnr" v="304017" />
	</node>
	<node lat="59.2305305586928" lon="5.394469450911403" id="-3017">
		<tag k="name" v="Søre Bornevik" />
		<tag k="place" v="farm" />
		<tag k="ssr:stedsnr" v="363874" />
	</node>
	<node lat="59.18136762467206" lon="5.424877148929864" id="-3028">
		<tag k="fixme" v="consider place=hamlet" />
		<tag k="name" v="Hognaland" />
		<tag k="place" v="farm" />
		<tag k="ssr:stedsnr" v="365424" />
	</node>
	<node lat="59.2179313307103" lon="5.487340354964246" id="-3030">
		<tag k="alt_name" v="Våga" />
		<tag k="fixme" v="consider place=hamlet" />
		<tag k="name" v="Søre Våga" />
		<tag k="place" v="farm" />
		<tag k="ssr:stedsnr" v="365471" />
	</node>
	<node lat="59.217156336020125" lon="5.412663984983846" id="-3032">
		<tag k="fixme" v="consider place=hamlet" />
		<tag k="name" v="Gunnarstad" />
		<tag k="place" v="farm" />
		<tag k="ssr:stedsnr" v="366083" />
	</node>
	<node lat="59.22642221985979" lon="5.395805558700993" id="-3033">
		<tag k="alt_name" v="Kleivane" />
		<tag k="name" v="Kleiva" />
		<tag k="place" v="farm" />
		<tag k="ssr:stedsnr" v="366106" />
	</node>
	<node lat="59.23169722425329" lon="5.393075003858134" id="-3056">
		<tag k="alt_name" v="Borgenvik" />
		<tag k="name" v="Bornevik" />
		<tag k="place" v="locality" />
		<tag k="ssr:stedsnr" v="426001" />
	</node>
	<node lat="59.18024751407638" lon="5.391301708531454" id="-3082">
		<tag k="fixme" v="consider place=hamlet" />
		<tag k="name" v="Jøsen" />
		<tag k="place" v="farm" />
		<tag k="ssr:stedsnr" v="547435" />
	</node>
	<node lat="59.21011635669639" lon="5.448436928593269" id="-3083">
		<tag k="fixme" v="consider place=hamlet" />
		<tag k="name" v="Håland" />
		<tag k="place" v="farm" />
		<tag k="ssr:stedsnr" v="548089" />
	</node>
	<node lat="59.1825027751861" lon="5.447227781410288" id="-3089">
		<tag k="name" v="Dybing" />
		<tag k="place" v="farm" />
		<tag k="ssr:stedsnr" v="600067" />
	</node>
	<node lat="59.19819689025223" lon="5.410844034363246" id="-3092">
		<tag k="fixme" v="consider place=hamlet" />
		<tag k="name" v="Søre Grønestad" />
		<tag k="place" v="farm" />
		<tag k="ssr:stedsnr" v="599481" />
	</node>
	<node lat="59.21594999829674" lon="5.4734555601326695" id="-3107">
		<tag k="name" v="Strandavika" />
		<tag k="place" v="farm" />
		<tag k="ssr:stedsnr" v="608481" />
	</node>
	<node lat="59.25574126700353" lon="5.4711430913023875" id="-3115">
		<tag k="fixme" v="consider place=hamlet" />
		<tag k="name" v="Ogn" />
		<tag k="place" v="farm" />
		<tag k="ssr:stedsnr" v="633671" />
	</node>
	<node lat="59.17133966402687" lon="5.391826431421569" id="-3136">
		<tag k="fixme" v="consider place=hamlet" />
		<tag k="name" v="Loten" />
		<tag k="place" v="farm" />
		<tag k="ssr:stedsnr" v="730437" />
	</node>
	<node lat="59.24350867351395" lon="5.463342377702478" id="-3148">
		<tag k="fixme" v="consider place=hamlet" />
		<tag k="name" v="Kro" />
		<tag k="place" v="farm" />
		<tag k="ssr:stedsnr" v="790023" />
	</node>
	<node lat="59.238558968109196" lon="5.460335097518754" id="-3149">
		<tag k="fixme" v="consider place=hamlet" />
		<tag k="name" v="Øvrabø" />
		<tag k="place" v="farm" />
		<tag k="ssr:stedsnr" v="790024" />
	</node>
	<node lat="59.20126320542974" lon="5.40975609813296" id="-3151">
		<tag k="alt_name" v="Grønnestad" />
		<tag k="name" v="Grønestad" />
		<tag k="place" v="hamlet" />
		<tag k="ssr:stedsnr" v="790071" />
	</node>
	<node lat="59.18820807801249" lon="5.444757987871548" id="-3153">
		<tag k="alt_name" v="Hodl" />
		<tag k="fixme" v="consider place=hamlet" />
		<tag k="name" v="Trælhaug" />
		<tag k="place" v="farm" />
		<tag k="ssr:stedsnr" v="790418" />
	</node>
	<node lat="59.219950980635666" lon="5.471538570615428" id="-3155">
		<tag k="fixme" v="consider place=hamlet" />
		<tag k="name" v="Aksdal" />
		<tag k="place" v="farm" />
		<tag k="ssr:stedsnr" v="790468" />
	</node>
	<node lat="59.229972222739484" lon="5.4371138819724045" id="-3164">
		<tag k="amenity" v="school" />
		<tag k="name" v="Bokn" />
		<tag k="ssr:stedsnr" v="848897" />
	</node>
	<node lat="59.23398823157561" lon="5.551963640831251" id="-3180">
		<tag k="fixme" v="consider place=hamlet" />
		<tag k="name" v="Nautøya" />
		<tag k="place" v="farm" />
		<tag k="ssr:stedsnr" v="1072026" />
	</node>
	<node lat="59.20507463539833" lon="5.406868538381306" id="-3181">
		<tag k="alt_name" v="Nordre Grønnestad" />
		<tag k="fixme" v="consider place=hamlet" />
		<tag k="name" v="Nordre Grønestad" />
		<tag k="place" v="farm" />
		<tag k="ssr:stedsnr" v="1077468" />
=======
	<node id="-36760" lat="59.2199509806" lon="5.47153857062">
		<tag k="fixme" v="consider place=hamlet" />
		<tag k="name" v="Aksdal" />
		<tag k="place" v="farm" />
		<tag k="ssr:stedsnr" v="790468" />
	</node>
	<node id="-36739" lat="59.2159499983" lon="5.47345556013">
		<tag k="name" v="Strandavika" />
		<tag k="place" v="farm" />
		<tag k="ssr:stedsnr" v="608481" />
>>>>>>> e1d4bc35ff8a6074a6f2e91616a996b547c36f15
	</node>
</osm>
