<?xml version="1.0" encoding="UTF-8"?>
<osm generator="osmapis" version="0.6">
	<node id="-4064" lat="59.1821111128" lon="5.46197778308">
		<tag k="bridge" v="yes" />
		<tag k="layer" v="1" />
		<tag k="name" v="Lauplandsvågen" />
		<tag k="ssr:stedsnr" v="47499" />
	</node>
	<node id="-4192" lat="59.1720500025" lon="5.45038333281">
		<tag k="bridge" v="yes" />
		<tag k="layer" v="1" />
		<tag k="name" v="Are" />
		<tag k="ssr:stedsnr" v="411499" />
	</node>
	<node id="-3836" lat="59.1974861085" lon="5.44298888294">
		<tag k="junction" v="yes" />
		<tag k="name" v="Vatlandskrossen" />
		<tag k="place" v="locality" />
		<tag k="ssr:stedsnr" v="114516" />
	</node>
	<node id="-3961" lat="59.2378972177" lon="5.45309166432">
		<tag k="fixme" v="verify maritime location" />
		<tag k="mooring" v="yes" />
		<tag k="name" v="Gongstø" />
		<tag k="place" v="locality" />
		<tag k="ssr:stedsnr" v="727895" />
	</node>
	<node id="-4211" lat="59.2323388921" lon="5.46206944165">
		<tag k="bridge" v="yes" />
		<tag k="layer" v="1" />
		<tag k="name" v="Kro" />
		<tag k="ssr:stedsnr" v="533510" />
	</node>
	<node id="-3945" lat="59.1853027806" lon="5.40414167145">
		<tag k="bridge" v="yes" />
		<tag k="layer" v="1" />
		<tag k="name" v="Sønderlandstraumen" />
		<tag k="ssr:stedsnr" v="715523" />
	</node>
	<node id="-4072" lat="59.2154138885" lon="5.39199721884">
		<tag k="alt_name" v="Vaet" />
		<tag k="ford" v="yes" />
		<tag k="name" v="Vadet" />
		<tag k="place" v="locality" />
		<tag k="ssr:stedsnr" v="59964" />
	</node>
	<node id="-3973" lat="59.17061667" lon="5.45350000407">
		<tag k="alt_name" v="Arsvågen" />
		<tag k="amenity" v="ferry_terminal" />
		<tag k="name" v="Arsvågen ferjekai" />
		<tag k="ssr:stedsnr" v="654513" />
	</node>
	<node id="-4068" lat="59.1783972235" lon="5.42476389505">
		<tag k="fixme" v="verify maritime location" />
		<tag k="mooring" v="yes" />
		<tag k="name" v="Sørenstøa" />
		<tag k="place" v="locality" />
		<tag k="ssr:stedsnr" v="54382" />
	</node>
	<node id="-4035" lat="59.2098222185" lon="5.45733611118">
		<tag k="bridge" v="yes" />
		<tag k="layer" v="1" />
		<tag k="name" v="Industrivegen" />
		<tag k="ssr:stedsnr" v="897477" />
	</node>
	<node id="-4065" lat="59.2216111137" lon="5.45332499685">
		<tag k="bridge" v="yes" />
		<tag k="layer" v="1" />
		<tag k="name" v="Alvestadkroken" />
		<tag k="ssr:stedsnr" v="47500" />
	</node>
</osm>
