<?xml version="1.0" encoding="UTF-8"?>
<osm version="0.6" generator="osmapis">
	<node lat="59.20134722344273" lon="5.374861112824671" id="-3532">
		<tag k="name" v="Tjørnaviga" />
		<tag k="natural" v="bay" />
		<tag k="ssr:stedsnr" v="1100" />
	</node>
	<node lat="59.29722222658022" lon="5.326388896975932" id="-3533">
		<tag k="name" v="Karmsundet" />
		<tag k="natural" v="strait" />
		<tag k="ssr:stedsnr" v="1101" />
	</node>
	<node lat="59.17816944583879" lon="5.416513893522185" id="-3534">
		<tag k="name" v="Litla Kjeøya" />
		<tag k="place" v="islet" />
		<tag k="ssr:stedsnr" v="1407" />
	</node>
	<node lat="59.11931944110125" lon="5.406113880687622" id="-3535">
		<tag k="bay" v="fjord" />
		<tag k="name" v="Boknafjorden" />
		<tag k="natural" v="bay" />
		<tag k="ssr:stedsnr" v="1388" />
	</node>
	<node lat="59.27222222573013" lon="5.4813888931829" id="-3537">
		<tag k="name" v="Frekasundet" />
		<tag k="natural" v="strait" />
		<tag k="ssr:stedsnr" v="2230" />
	</node>
	<node lat="59.26319166741051" lon="5.379686117849475" id="-3538">
		<tag k="bay" v="fjord" />
		<tag k="name" v="Austdjupet" />
		<tag k="natural" v="bay" />
		<tag k="ssr:stedsnr" v="2872" />
	</node>
	<node lat="59.251047222761024" lon="5.409586115104448" id="-3539">
		<tag k="fixme" v="consider seamark:type=rock or natural=shoal" />
		<tag k="name" v="Persloen" />
		<tag k="place" v="islet" />
		<tag k="ssr:stedsnr" v="26124" />
	</node>
	<node lat="59.173491665118924" lon="5.42317778541764" id="-3540">
		<tag k="name" v="Klubbholmen" />
		<tag k="place" v="islet" />
		<tag k="ssr:stedsnr" v="235420" />
	</node>
	<node lat="59.22376944877912" lon="5.456436106060249" id="-3546">
		<tag k="name" v="Fyren" />
		<tag k="natural" v="cape" />
		<tag k="ssr:stedsnr" v="59978" />
	</node>
	<node lat="59.212658333266006" lon="5.488861110325195" id="-3547">
		<tag k="name" v="Litlaneset" />
		<tag k="natural" v="cape" />
		<tag k="ssr:stedsnr" v="59985" />
	</node>
	<node lat="59.243728554857334" lon="5.454386814290803" id="-3549">
		<tag k="name" v="Krovågen" />
		<tag k="natural" v="bay" />
		<tag k="ssr:stedsnr" v="60910" />
	</node>
	<node lat="59.1928499957567" lon="5.473122217595084" id="-3553">
		<tag k="alt_name" v="Låderskjer" />
		<tag k="fixme" v="consider seamark:type=rock or natural=shoal" />
		<tag k="name" v="Låderskjera" />
		<tag k="place" v="islet" />
		<tag k="ssr:stedsnr" v="62278" />
	</node>
	<node lat="59.22405555289335" lon="5.498063888319048" id="-3555">
		<tag k="alt_name" v="Subanskallen" />
		<tag k="name" v="Supanskallen" />
		<tag k="natural" v="cape" />
		<tag k="ssr:stedsnr" v="62468" />
	</node>
	<node lat="59.237736109512426" lon="5.389199996523404" id="-3557">
		<tag k="name" v="Bekkjarvik" />
		<tag k="natural" v="bay" />
		<tag k="ssr:stedsnr" v="242876" />
	</node>
	<node lat="59.22277222467431" lon="5.457580559740396" id="-3558">
		<tag k="name" v="Boknasundet" />
		<tag k="natural" v="strait" />
		<tag k="ssr:stedsnr" v="244016" />
	</node>
	<node lat="59.175266665541386" lon="5.42107221908124" id="-3560">
		<tag k="name" v="Røssholmen" />
		<tag k="place" v="islet" />
		<tag k="ssr:stedsnr" v="244420" />
	</node>
	<node lat="59.23344999995441" lon="5.556527775754511" id="-3561">
		<tag k="alt_name" v="Tåa, austre" />
		<tag k="name" v="Austre Tåa" />
		<tag k="natural" v="cape" />
		<tag k="ssr:stedsnr" v="244448" />
	</node>
	<node lat="59.173583334608566" lon="5.378497213941763" id="-3563">
		<tag k="name" v="Kjølevigneset" />
		<tag k="natural" v="cape" />
		<tag k="ssr:stedsnr" v="85628" />
	</node>
	<node lat="59.19329727788583" lon="5.387123897209488" id="-3564">
		<tag k="fixme" v="consider seamark:type=rock or natural=shoal" />
		<tag k="name" v="Skibaskjeret" />
		<tag k="place" v="islet" />
		<tag k="ssr:stedsnr" v="85608" />
	</node>
	<node lat="59.26426666894894" lon="5.482961109928263" id="-3565">
		<tag k="alt_name" v="Svartaskjeret" />
		<tag k="fixme" v="consider seamark:type=rock or natural=shoal" />
		<tag k="name" v="Svartaskjer" />
		<tag k="place" v="islet" />
		<tag k="ssr:stedsnr" v="87624" />
	</node>
	<node lat="59.16488611442705" lon="5.406150002913574" id="-3566">
		<tag k="fixme" v="consider seamark:type=rock or natural=shoal" />
		<tag k="name" v="Godjen" />
		<tag k="place" v="islet" />
		<tag k="ssr:stedsnr" v="114406" />
	</node>
	<node lat="59.16038055758386" lon="5.443941668588086" id="-3567">
		<tag k="name" v="Avløybvika" />
		<tag k="natural" v="bay" />
		<tag k="ssr:stedsnr" v="114821" />
	</node>
	<node lat="59.21690000101755" lon="5.376594440563329" id="-3570">
		<tag k="name" v="Trosnavågneset" />
		<tag k="natural" v="cape" />
		<tag k="ssr:stedsnr" v="123123" />
	</node>
	<node lat="59.253486107252996" lon="5.4465194472083605" id="-3572">
		<tag k="alt_name" v="Fløysundholmane" />
		<tag k="name" v="Fløsundholmane" />
		<tag k="place" v="islet" />
		<tag k="ssr:stedsnr" v="124864" />
	</node>
	<node lat="59.161188885428444" lon="5.417794438050363" id="-3573">
		<tag k="name" v="Dyna" />
		<tag k="place" v="locality" />
		<tag k="seamark:type" v="rock" />
		<tag k="ssr:stedsnr" v="145669" />
	</node>
	<node lat="59.161298955307885" lon="5.431412078410066" id="-3574">
		<tag k="name" v="Stongholmen" />
		<tag k="place" v="islet" />
		<tag k="ssr:stedsnr" v="145679" />
	</node>
	<node lat="59.25313889284739" lon="5.479361119057784" id="-3575">
		<tag k="alt_name" v="Djupavika" />
		<tag k="name" v="Djubevik" />
		<tag k="natural" v="bay" />
		<tag k="ssr:stedsnr" v="148677" />
	</node>
	<node lat="59.179572219054705" lon="5.458477776150009" id="-3576">
		<tag k="name" v="Djubavika" />
		<tag k="natural" v="bay" />
		<tag k="ssr:stedsnr" v="175064" />
	</node>
	<node lat="59.18077777583736" lon="5.378611116901425" id="-3580">
		<tag k="name" v="Dalhavnen" />
		<tag k="natural" v="bay" />
		<tag k="ssr:stedsnr" v="267658" />
	</node>
	<node lat="59.17127778211686" lon="5.425422222421675" id="-3582">
		<tag k="name" v="Fladholmen" />
		<tag k="place" v="islet" />
		<tag k="ssr:stedsnr" v="206658" />
	</node>
	<node lat="59.20835277704641" lon="5.484836107743495" id="-3583">
		<tag k="name" v="Aksdalsneset" />
		<tag k="natural" v="cape" />
		<tag k="ssr:stedsnr" v="206942" />
	</node>
	<node lat="59.224449996755" lon="5.4967861039570565" id="-3584">
		<tag k="name" v="Barsvika" />
		<tag k="natural" v="bay" />
		<tag k="ssr:stedsnr" v="268927" />
	</node>
	<node lat="59.254947223090554" lon="5.426338895493462" id="-3585">
		<tag k="name" v="Svartøyna" />
		<tag k="place" v="islet" />
		<tag k="ssr:stedsnr" v="209046" />
	</node>
	<node lat="59.25250833318481" lon="5.455141658424741" id="-3586">
		<tag k="name" v="Tagvika" />
		<tag k="natural" v="bay" />
		<tag k="ssr:stedsnr" v="209687" />
	</node>
	<node lat="59.26321666819732" lon="5.407169437345546" id="-3588">
		<tag k="name" v="Breisund" />
		<tag k="natural" v="strait" />
		<tag k="ssr:stedsnr" v="451077" />
	</node>
	<node lat="59.24653889197397" lon="5.389250004350434" id="-3590">
		<tag k="alt_name" v="Boknehove;Boknahove;Boknahovudet" />
		<tag k="name" v="Boknahovet" />
		<tag k="natural" v="cape" />
		<tag k="ssr:stedsnr" v="450079" />
	</node>
	<node lat="59.18763889214752" lon="5.373966665127889" id="-3592">
		<tag k="name" v="Røyrvigneset" />
		<tag k="natural" v="cape" />
		<tag k="ssr:stedsnr" v="244083" />
	</node>
	<node lat="59.16341388503979" lon="5.406241670995862" id="-3593">
		<tag k="name" v="Drevsundholmen" />
		<tag k="place" v="islet" />
		<tag k="ssr:stedsnr" v="244433" />
	</node>
	<node lat="59.16870277491987" lon="5.382083331816602" id="-3594">
		<tag k="name" v="Nordra Auseviga" />
		<tag k="natural" v="bay" />
		<tag k="ssr:stedsnr" v="244437" />
	</node>
	<node lat="59.22896111228986" lon="5.540213882538221" id="-3595">
		<tag k="alt_name" v="Rova, store;Stora Roå" />
		<tag k="fixme" v="consider seamark:type=rock or natural=shoal" />
		<tag k="name" v="Stora Rova" />
		<tag k="place" v="islet" />
		<tag k="ssr:stedsnr" v="244481" />
	</node>
	<node lat="59.25942778095215" lon="5.458419450940196" id="-3596">
		<tag k="name" v="Ognahamn" />
		<tag k="natural" v="bay" />
		<tag k="ssr:stedsnr" v="452657" />
	</node>
	<node lat="59.15987221884945" lon="5.4359249948382145" id="-3599">
		<tag k="name" v="Drevsundholmen" />
		<tag k="natural" v="bay" />
		<tag k="ssr:stedsnr" v="296429" />
	</node>
	<node lat="59.19175833554619" lon="5.390450008139795" id="-3600">
		<tag k="name" v="Steinsvika" />
		<tag k="natural" v="bay" />
		<tag k="ssr:stedsnr" v="296440" />
	</node>
	<node lat="59.19842222319186" lon="5.38575000440034" id="-3601">
		<tag k="name" v="Breivik" />
		<tag k="natural" v="bay" />
		<tag k="ssr:stedsnr" v="296449" />
	</node>
	<node lat="59.16243332915192" lon="5.449624994946303" id="-3603">
		<tag k="name" v="Sjebavik" />
		<tag k="natural" v="bay" />
		<tag k="ssr:stedsnr" v="296805" />
	</node>
	<node lat="59.23816111144453" lon="5.419127782480981" id="-3609">
		<tag k="name" v="Leirbotn" />
		<tag k="natural" v="bay" />
		<tag k="ssr:stedsnr" v="304038" />
	</node>
	<node lat="59.234617590410835" lon="5.551455653534283" id="-3611">
		<tag k="alt_name" v="Naudøyna" />
		<tag k="name" v="Nautøya" />
		<tag k="place" v="island" />
		<tag k="ssr:stedsnr" v="305468" />
	</node>
	<node lat="59.2136611098088" lon="5.511722218723435" id="-3613">
		<tag k="name" v="Søra Vågsholmsundet" />
		<tag k="natural" v="strait" />
		<tag k="ssr:stedsnr" v="329915" />
	</node>
	<node lat="59.16658610859552" lon="5.429674999400972" id="-3614">
		<tag k="name" v="Torvvika" />
		<tag k="natural" v="bay" />
		<tag k="ssr:stedsnr" v="356408" />
	</node>
	<node lat="59.16150277772864" lon="5.4458194358426235" id="-3615">
		<tag k="name" v="Munkhamn" />
		<tag k="natural" v="bay" />
		<tag k="ssr:stedsnr" v="356825" />
	</node>
	<node lat="59.160505557456375" lon="5.387900001926259" id="-3617">
		<tag k="name" v="Stintenessundet" />
		<tag k="natural" v="strait" />
		<tag k="ssr:stedsnr" v="357811" />
	</node>
	<node lat="59.177113889246186" lon="5.41435833637042" id="-3618">
		<tag k="name" v="Trollhavet" />
		<tag k="natural" v="strait" />
		<tag k="ssr:stedsnr" v="478386" />
	</node>
	<node lat="59.17037777707758" lon="5.434533338436612" id="-3619">
		<tag k="name" v="Vierholmen" />
		<tag k="place" v="islet" />
		<tag k="ssr:stedsnr" v="478388" />
	</node>
	<node lat="59.167516670364016" lon="5.415800007594188" id="-3620">
		<tag k="name" v="Midbrog" />
		<tag k="place" v="islet" />
		<tag k="ssr:stedsnr" v="478389" />
	</node>
	<node lat="59.1976722207736" lon="5.378511118088953" id="-3622">
		<tag k="alt_name" v="Ådnaneset" />
		<tag k="name" v="Ådnanes" />
		<tag k="natural" v="cape" />
		<tag k="ssr:stedsnr" v="365093" />
	</node>
	<node lat="59.18376110870974" lon="5.471133329271459" id="-3624">
		<tag k="alt_name" v="Svartaholmen" />
		<tag k="name" v="Svartholmen" />
		<tag k="place" v="islet" />
		<tag k="ssr:stedsnr" v="366298" />
	</node>
	<node lat="59.17741111095698" lon="5.386849998376727" id="-3626">
		<tag k="name" v="Jøsenvågen" />
		<tag k="natural" v="bay" />
		<tag k="ssr:stedsnr" v="388652" />
	</node>
	<node lat="59.18667499707335" lon="5.373486117045087" id="-3627">
		<tag k="name" v="Røyrvikodden" />
		<tag k="natural" v="cape" />
		<tag k="ssr:stedsnr" v="484926" />
	</node>
	<node lat="59.191372225337794" lon="5.3746333410256035" id="-3628">
		<tag k="name" v="Fuglanes" />
		<tag k="natural" v="cape" />
		<tag k="ssr:stedsnr" v="484929" />
	</node>
	<node lat="59.222863891598166" lon="5.462211117720336" id="-3630">
		<tag k="name" v="Øyren" />
		<tag k="natural" v="cape" />
		<tag k="ssr:stedsnr" v="484990" />
	</node>
	<node lat="59.2388813162936" lon="5.383351115894084" id="-3632">
		<tag k="name" v="Lammaneset" />
		<tag k="natural" v="cape" />
		<tag k="ssr:stedsnr" v="547037" />
	</node>
	<node lat="59.242919447206184" lon="5.416347214888053" id="-3633">
		<tag k="alt_name" v="Vågmulen" />
		<tag k="name" v="Vågsmulen" />
		<tag k="natural" v="cape" />
		<tag k="ssr:stedsnr" v="486025" />
	</node>
	<node lat="59.24886047821081" lon="5.473087054511913" id="-3635">
		<tag k="name" v="Regaviga" />
		<tag k="natural" v="bay" />
		<tag k="ssr:stedsnr" v="486348" />
	</node>
	<node lat="59.20481389182478" lon="5.5073000035074156" id="-3636">
		<tag k="alt_name" v="Vågholmen, søre" />
		<tag k="name" v="Søre Vågholmen" />
		<tag k="place" v="islet" />
		<tag k="ssr:stedsnr" v="487292" />
	</node>
	<node lat="59.17115555295891" lon="5.452730561310165" id="-3637">
		<tag k="alt_name" v="Arsvågen, austre" />
		<tag k="name" v="Austre Arsvågen" />
		<tag k="natural" v="bay" />
		<tag k="ssr:stedsnr" v="487420" />
	</node>
	<node lat="59.16404166922154" lon="5.3887027809189805" id="-3638">
		<tag k="name" v="Søra Auseviga" />
		<tag k="natural" v="bay" />
		<tag k="ssr:stedsnr" v="487454" />
	</node>
	<node lat="59.22995555801168" lon="5.501458325589499" id="-3640">
		<tag k="name" v="Våganeset" />
		<tag k="natural" v="cape" />
		<tag k="ssr:stedsnr" v="487474" />
	</node>
	<node lat="59.16953611489676" lon="5.431030562507927" id="-3641">
		<tag k="name" v="Steinsholmen" />
		<tag k="place" v="islet" />
		<tag k="ssr:stedsnr" v="417437" />
	</node>
	<node lat="59.16928055836549" lon="5.396427777265225" id="-3642">
		<tag k="name" v="Tøgjevika" />
		<tag k="natural" v="bay" />
		<tag k="ssr:stedsnr" v="418346" />
	</node>
	<node lat="59.16068611170632" lon="5.437013891368993" id="-3643">
		<tag k="name" v="Teistholmen" />
		<tag k="place" v="islet" />
		<tag k="ssr:stedsnr" v="424912" />
	</node>
	<node lat="59.232475000072576" lon="5.552994440988765" id="-3645">
		<tag k="name" v="Sørevika" />
		<tag k="natural" v="bay" />
		<tag k="ssr:stedsnr" v="426427" />
	</node>
	<node lat="59.21489166549519" lon="5.475116672006806" id="-3649">
		<tag k="alt_name" v="Strandvig;Strandvik" />
		<tag k="name" v="Strandavika" />
		<tag k="natural" v="bay" />
		<tag k="ssr:stedsnr" v="449905" />
	</node>
	<node lat="59.17946111075755" lon="5.46424999595827" id="-3650">
		<tag k="fixme" v="consider seamark:type=rock or natural=shoal" />
		<tag k="name" v="Ringskjeret" />
		<tag k="place" v="islet" />
		<tag k="ssr:stedsnr" v="465613" />
	</node>
	<node lat="59.17021110778441" lon="5.414466658486033" id="-3651">
		<tag k="name" v="Litla Sauøyna" />
		<tag k="place" v="islet" />
		<tag k="ssr:stedsnr" v="478107" />
	</node>
	<node lat="59.173102776676245" lon="5.384836115760917" id="-3653">
		<tag k="name" v="Lodalandet" />
		<tag k="natural" v="cape" />
		<tag k="ssr:stedsnr" v="478371" />
	</node>
	<node lat="59.16946388519409" lon="5.40524999200161" id="-3654">
		<tag k="name" v="Midtre Vierholmen" />
		<tag k="place" v="islet" />
		<tag k="ssr:stedsnr" v="478378" />
	</node>
	<node lat="59.15987222293312" lon="5.435933325816218" id="-3656">
		<tag k="name" v="Teistholmen" />
		<tag k="place" v="islet" />
		<tag k="ssr:stedsnr" v="487408" />
	</node>
	<node lat="59.16313611404436" lon="5.445755547766981" id="-3657">
		<tag k="name" v="Arsneset" />
		<tag k="natural" v="cape" />
		<tag k="ssr:stedsnr" v="487409" />
	</node>
	<node lat="59.266638889978054" lon="5.4307611083185146" id="-3658">
		<tag k="alt_name" v="Bokneflæet" />
		<tag k="bay" v="fjord" />
		<tag k="name" v="Boknaflæet" />
		<tag k="natural" v="bay" />
		<tag k="ssr:stedsnr" v="487906" />
	</node>
	<node lat="59.25431111321277" lon="5.460424997793069" id="-3659">
		<tag k="fixme" v="consider seamark:type=rock or natural=shoal" />
		<tag k="name" v="Vardnesskjeret" />
		<tag k="place" v="islet" />
		<tag k="ssr:stedsnr" v="509603" />
	</node>
	<node lat="59.24596666253333" lon="5.393855555260877" id="-3661">
		<tag k="name" v="Irshamn" />
		<tag k="natural" v="bay" />
		<tag k="ssr:stedsnr" v="545875" />
	</node>
	<node lat="59.17967777426795" lon="5.3765250028282505" id="-3663">
		<tag k="name" v="Neset" />
		<tag k="natural" v="cape" />
		<tag k="ssr:stedsnr" v="545924" />
	</node>
	<node lat="59.23268332923987" lon="5.494450000639577" id="-3667">
		<tag k="alt_name" v="Søra Makrellvika" />
		<tag k="name" v="Makrellvika" />
		<tag k="natural" v="bay" />
		<tag k="ssr:stedsnr" v="547477" />
	</node>
	<node lat="59.15690277658296" lon="5.404474994406521" id="-3669">
		<tag k="name" v="Langholmen" />
		<tag k="place" v="islet" />
		<tag k="ssr:stedsnr" v="548404" />
	</node>
	<node lat="59.19332499957967" lon="5.377283336794508" id="-3670">
		<tag k="fixme" v="consider seamark:type=rock or natural=shoal" />
		<tag k="name" v="Nibbaskjeret" />
		<tag k="place" v="islet" />
		<tag k="ssr:stedsnr" v="692658" />
	</node>
	<node lat="59.20722222629141" lon="5.508333334030159" id="-3671">
		<tag k="name" v="Hillervågen" />
		<tag k="natural" v="bay" />
		<tag k="ssr:stedsnr" v="571938" />
	</node>
	<node lat="59.27255833455007" lon="5.473044448972804" id="-3672">
		<tag k="name" v="Brattholmen" />
		<tag k="place" v="islet" />
		<tag k="ssr:stedsnr" v="572645" />
	</node>
	<node lat="59.21200833623807" lon="5.552891658378352" id="-3673">
		<tag k="name" v="Rovetærgrunnen" />
		<tag k="natural" v="shoal" />
		<tag k="place" v="locality" />
		<tag k="ssr:stedsnr" v="693951" />
	</node>
	<node lat="59.2537194475685" lon="5.482952782381397" id="-3674">
		<tag k="alt_name" v="Ognatongjen" />
		<tag k="name" v="Ognatangen" />
		<tag k="natural" v="cape" />
		<tag k="ssr:stedsnr" v="694629" />
	</node>
	<node lat="59.203130557853555" lon="5.502861115771694" id="-3676">
		<tag k="name" v="Skolten" />
		<tag k="place" v="locality" />
		<tag k="seamark:type" v="rock" />
		<tag k="ssr:stedsnr" v="586616" />
	</node>
	<node lat="59.17036110775583" lon="5.402022216749139" id="-3677">
		<tag k="fixme" v="consider seamark:type=rock or natural=shoal" />
		<tag k="name" v="Varholmen" />
		<tag k="place" v="islet" />
		<tag k="ssr:stedsnr" v="599351" />
	</node>
	<node lat="59.175397218209" lon="5.402102772603731" id="-3678">
		<tag k="name" v="Stuttanes" />
		<tag k="natural" v="cape" />
		<tag k="ssr:stedsnr" v="599359" />
	</node>
	<node lat="59.182163888390576" lon="5.418855558244624" id="-3679">
		<tag k="name" v="Bakkavika" />
		<tag k="natural" v="bay" />
		<tag k="ssr:stedsnr" v="599365" />
	</node>
	<node lat="59.15902222070332" lon="5.3914861102168485" id="-3681">
		<tag k="name" v="Kleppogn" />
		<tag k="natural" v="strait" />
		<tag k="ssr:stedsnr" v="600807" />
	</node>
	<node lat="59.19324167021558" lon="5.379522222476459" id="-3683">
		<tag k="name" v="Ringpynten" />
		<tag k="natural" v="cape" />
		<tag k="ssr:stedsnr" v="608054" />
	</node>
	<node lat="59.22446944162533" lon="5.540652786347419" id="-3685">
		<tag k="fixme" v="consider seamark:type=rock or natural=shoal" />
		<tag k="name" v="Rovetærne" />
		<tag k="place" v="islet" />
		<tag k="ssr:stedsnr" v="608492" />
	</node>
	<node lat="59.25338055578002" lon="5.479633334714396" id="-3686">
		<tag k="name" v="Båsen" />
		<tag k="natural" v="bay" />
		<tag k="ssr:stedsnr" v="629911" />
	</node>
	<node lat="59.1935194483779" lon="5.384269444089318" id="-3687">
		<tag k="name" v="Skibaflua" />
		<tag k="place" v="locality" />
		<tag k="seamark:type" v="rock" />
		<tag k="ssr:stedsnr" v="630607" />
	</node>
	<node lat="59.173730558327506" lon="5.396694439403606" id="-3688">
		<tag k="name" v="Storevågen" />
		<tag k="natural" v="bay" />
		<tag k="ssr:stedsnr" v="630618" />
	</node>
	<node lat="59.194391666106704" lon="5.38591389707024" id="-3689">
		<tag k="name" v="Skibaflua" />
		<tag k="place" v="locality" />
		<tag k="seamark:type" v="rock" />
		<tag k="ssr:stedsnr" v="647625" />
	</node>
	<node lat="59.17024721780896" lon="5.420591663681121" id="-3692">
		<tag k="name" v="Skyttarholmen" />
		<tag k="place" v="islet" />
		<tag k="ssr:stedsnr" v="660399" />
	</node>
	<node lat="59.185455556959795" lon="5.401361102486552" id="-3694">
		<tag k="name" v="Kvednavika" />
		<tag k="natural" v="bay" />
		<tag k="ssr:stedsnr" v="660480" />
	</node>
	<node lat="59.161525002528386" lon="5.4302916646879185" id="-3698">
		<tag k="name" v="Stongholmsvika" />
		<tag k="natural" v="bay" />
		<tag k="ssr:stedsnr" v="660804" />
	</node>
	<node lat="59.23452499962338" lon="5.441911118908508" id="-3699">
		<tag k="fixme" v="consider seamark:type=rock or natural=shoal" />
		<tag k="name" v="Tå" />
		<tag k="place" v="islet" />
		<tag k="ssr:stedsnr" v="668008" />
	</node>
	<node lat="59.218722224467996" lon="5.458322225738959" id="-3701">
		<tag k="name" v="Alvestadkroken" />
		<tag k="natural" v="cape" />
		<tag k="ssr:stedsnr" v="669084" />
	</node>
	<node lat="59.17353888937258" lon="5.416436119726813" id="-3702">
		<tag k="name" v="Stora Kjeøya" />
		<tag k="place" v="islet" />
		<tag k="ssr:stedsnr" v="669416" />
	</node>
	<node lat="59.16128889016241" lon="5.427936117040781" id="-3703">
		<tag k="name" v="Stumpen" />
		<tag k="place" v="locality" />
		<tag k="seamark:type" v="rock" />
		<tag k="ssr:stedsnr" v="692681" />
	</node>
	<node lat="59.22728611090244" lon="5.499686110716996" id="-3704">
		<tag k="alt_name" v="Skjersund" />
		<tag k="name" v="Skjersundet" />
		<tag k="natural" v="strait" />
		<tag k="ssr:stedsnr" v="693872" />
	</node>
	<node lat="59.26498888603791" lon="5.450552785091462" id="-3705">
		<tag k="name" v="Brattholmen" />
		<tag k="place" v="islet" />
		<tag k="ssr:stedsnr" v="694624" />
	</node>
	<node lat="59.15311389099583" lon="5.43925277043292" id="-3707">
		<tag k="name" v="Skolleflua" />
		<tag k="place" v="locality" />
		<tag k="seamark:type" v="rock" />
		<tag k="ssr:stedsnr" v="708668" />
	</node>
	<node lat="59.170008336979784" lon="5.405174995394912" id="-3709">
		<tag k="name" v="Nordre Vierholmen" />
		<tag k="place" v="islet" />
		<tag k="ssr:stedsnr" v="721371" />
	</node>
	<node lat="59.24612499698034" lon="5.386924992105608" id="-3711">
		<tag k="name" v="Boknahovsholmen" />
		<tag k="place" v="islet" />
		<tag k="ssr:stedsnr" v="727876" />
	</node>
	<node lat="59.21537777888883" lon="5.49968055833438" id="-3717">
		<tag k="name" v="Sjuraodden" />
		<tag k="natural" v="cape" />
		<tag k="ssr:stedsnr" v="727998" />
	</node>
	<node lat="59.20448889123261" lon="5.382816660713641" id="-3718">
		<tag k="name" v="Ådnaneset" />
		<tag k="natural" v="cape" />
		<tag k="ssr:stedsnr" v="729081" />
	</node>
	<node lat="59.17345833400864" lon="5.403855557065033" id="-3721">
		<tag k="name" v="Langanes" />
		<tag k="natural" v="cape" />
		<tag k="ssr:stedsnr" v="730422" />
	</node>
	<node lat="59.25646666427164" lon="5.403375006630095" id="-3722">
		<tag k="alt_name" v="Mekjerøya, store;stora Megjarøyna;Stora Megerøy" />
		<tag k="name" v="Stora Mekjerøya" />
		<tag k="place" v="islet" />
		<tag k="ssr:stedsnr" v="730892" />
	</node>
	<node lat="59.268063889206005" lon="5.4534583275651975" id="-3723">
		<tag k="alt_name" v="Lamholmen" />
		<tag k="name" v="Lamholmane" />
		<tag k="place" v="islet" />
		<tag k="ssr:stedsnr" v="730904" />
	</node>
	<node lat="59.167077781556635" lon="5.4200999950715705" id="-3724">
		<tag k="name" v="Austre Brog" />
		<tag k="place" v="islet" />
		<tag k="ssr:stedsnr" v="903391" />
	</node>
	<node lat="59.186636111462946" lon="5.466977778630366" id="-3727">
		<tag k="alt_name" v="Krokvågen" />
		<tag k="name" v="Kråkevågen" />
		<tag k="natural" v="bay" />
		<tag k="ssr:stedsnr" v="903472" />
	</node>
	<node lat="59.160836112652326" lon="5.400152779707372" id="-3728">
		<tag k="name" v="Regavik" />
		<tag k="natural" v="bay" />
		<tag k="ssr:stedsnr" v="903811" />
	</node>
	<node lat="59.23662500402459" lon="5.485324999919377" id="-3729">
		<tag k="name" v="Nordra Makrellvika" />
		<tag k="natural" v="bay" />
		<tag k="ssr:stedsnr" v="909972" />
	</node>
	<node lat="59.21343888967205" lon="5.461030554058849" id="-3735">
		<tag k="name" v="Hålandssjøen" />
		<tag k="natural" v="bay" />
		<tag k="ssr:stedsnr" v="787989" />
	</node>
	<node lat="59.17433611371399" lon="5.45472222259752" id="-3739">
		<tag k="name" v="Kvernavika" />
		<tag k="natural" v="bay" />
		<tag k="ssr:stedsnr" v="912447" />
	</node>
	<node lat="59.1838749959688" lon="5.457061104152292" id="-3740">
		<tag k="name" v="Vågskjeften" />
		<tag k="natural" v="bay" />
		<tag k="ssr:stedsnr" v="912450" />
	</node>
	<node lat="59.23453611321141" lon="5.489005553966401" id="-3741">
		<tag k="alt_name" v="Ormestøa" />
		<tag k="name" v="Ormastø" />
		<tag k="natural" v="bay" />
		<tag k="ssr:stedsnr" v="912457" />
	</node>
	<node lat="59.15965555453401" lon="5.3948500023809745" id="-3743">
		<tag k="name" v="Regaviga" />
		<tag k="natural" v="bay" />
		<tag k="ssr:stedsnr" v="813678" />
	</node>
	<node lat="59.158722220987336" lon="5.409825000257031" id="-3744">
		<tag k="fixme" v="consider seamark:type=rock or natural=shoal" />
		<tag k="name" v="Olaskjeret" />
		<tag k="place" v="islet" />
		<tag k="ssr:stedsnr" v="813685" />
	</node>
	<node lat="59.1820555580666" lon="5.463808338945839" id="-3747">
		<tag k="fixme" v="consider seamark:type=rock or natural=shoal" />
		<tag k="name" v="Hedleskjer" />
		<tag k="place" v="islet" />
		<tag k="ssr:stedsnr" v="843078" />
	</node>
	<node lat="59.18194999669286" lon="5.409524995124676" id="-3748">
		<tag k="name" v="Djubevika" />
		<tag k="natural" v="bay" />
		<tag k="ssr:stedsnr" v="843374" />
	</node>
	<node lat="59.228180558075934" lon="5.460344438039478" id="-3749">
		<tag k="name" v="Tåganes" />
		<tag k="natural" v="cape" />
		<tag k="ssr:stedsnr" v="848895" />
	</node>
	<node lat="59.246113885946194" lon="5.391472219944636" id="-3751">
		<tag k="name" v="Djubavik" />
		<tag k="natural" v="bay" />
		<tag k="ssr:stedsnr" v="849887" />
	</node>
	<node lat="59.18703333208275" lon="5.400955549702363" id="-3754">
		<tag k="name" v="Sunnalandsstraumen" />
		<tag k="natural" v="strait" />
		<tag k="ssr:stedsnr" v="851077" />
	</node>
	<node lat="59.206480555780004" lon="5.465677773264849" id="-3755">
		<tag k="alt_name" v="Sponevig;Sponevik" />
		<tag k="name" v="Sponavika" />
		<tag k="natural" v="bay" />
		<tag k="ssr:stedsnr" v="851086" />
	</node>
	<node lat="59.21036944883246" lon="5.466216663985323" id="-3756">
		<tag k="alt_name" v="Knarrholmen" />
		<tag k="name" v="Knarholmen" />
		<tag k="place" v="islet" />
		<tag k="ssr:stedsnr" v="851087" />
	</node>
	<node lat="59.234691669357396" lon="5.555000005780942" id="-3757">
		<tag k="name" v="Laksavika" />
		<tag k="natural" v="bay" />
		<tag k="ssr:stedsnr" v="851407" />
	</node>
	<node lat="59.253130553500824" lon="5.473075000309049" id="-3760">
		<tag k="name" v="Bukkatøkje" />
		<tag k="natural" v="bay" />
		<tag k="ssr:stedsnr" v="876656" />
	</node>
	<node lat="59.25461389165803" lon="5.466674999702114" id="-3761">
		<tag k="name" v="Kvidatong" />
		<tag k="natural" v="cape" />
		<tag k="ssr:stedsnr" v="876658" />
	</node>
	<node lat="59.19705555940501" lon="5.3821444360581" id="-3762">
		<tag k="name" v="Kjelsflua" />
		<tag k="place" v="locality" />
		<tag k="seamark:type" v="rock" />
		<tag k="ssr:stedsnr" v="934629" />
	</node>
	<node lat="59.26683888580919" lon="5.485863882338447" id="-3763">
		<tag k="fixme" v="consider seamark:type=rock or natural=shoal" />
		<tag k="name" v="Ognakalvskjeret" />
		<tag k="place" v="islet" />
		<tag k="ssr:stedsnr" v="934886" />
	</node>
	<node lat="59.19293333111728" lon="5.378724994388155" id="-3766">
		<tag k="name" v="Stora Drauavika" />
		<tag k="natural" v="bay" />
		<tag k="ssr:stedsnr" v="910942" />
	</node>
	<node lat="59.240986113005526" lon="5.422850002414791" id="-3769">
		<tag k="name" v="Kongshamn" />
		<tag k="natural" v="bay" />
		<tag k="ssr:stedsnr" v="911038" />
	</node>
	<node lat="59.21307222149692" lon="5.3753361028491495" id="-3770">
		<tag k="name" v="Bergsuggenakken" />
		<tag k="natural" v="cape" />
		<tag k="ssr:stedsnr" v="912097" />
	</node>
	<node lat="59.16193610807667" lon="5.455130551235489" id="-3771">
		<tag k="alt_name" v="Solholmen, s" />
		<tag k="name" v="Søre Solholmen" />
		<tag k="place" v="islet" />
		<tag k="ssr:stedsnr" v="912390" />
	</node>
	<node lat="59.167500000589826" lon="5.4617833300948835" id="-3772">
		<tag k="alt_name" v="Knudskjeret" />
		<tag k="fixme" v="consider seamark:type=rock or natural=shoal" />
		<tag k="name" v="Knutskjer" />
		<tag k="place" v="islet" />
		<tag k="ssr:stedsnr" v="912408" />
	</node>
	<node lat="59.17678888885488" lon="5.411088890695061" id="-3773">
		<tag k="name" v="Lindraken" />
		<tag k="natural" v="cape" />
		<tag k="ssr:stedsnr" v="912430" />
	</node>
	<node lat="59.253577775500986" lon="5.398313888383111" id="-3775">
		<tag k="alt_name" v="Mekjerøya, l;litla Megjarøyna;Litla Megerøy" />
		<tag k="name" v="Litla Mekjerøya" />
		<tag k="place" v="islet" />
		<tag k="ssr:stedsnr" v="913884" />
	</node>
	<node lat="59.25546110792786" lon="5.389041674693126" id="-3776">
		<tag k="alt_name" v="Tollaksholmane" />
		<tag k="name" v="Tallaksholmane" />
		<tag k="place" v="islet" />
		<tag k="ssr:stedsnr" v="913885" />
	</node>
	<node lat="59.231536110199514" lon="5.378297227334011" id="-3777">
		<tag k="name" v="Vierflua" />
		<tag k="natural" v="shoal" />
		<tag k="place" v="locality" />
		<tag k="ssr:stedsnr" v="936035" />
	</node>
	<node lat="59.252902774875565" lon="5.45889167192914" id="-3778">
		<tag k="name" v="Varaneset" />
		<tag k="natural" v="cape" />
		<tag k="ssr:stedsnr" v="937706" />
	</node>
	<node lat="59.19924722186139" lon="5.470963896320764" id="-3779">
		<tag k="name" v="Sandvikneset" />
		<tag k="natural" v="cape" />
		<tag k="ssr:stedsnr" v="963547" />
	</node>
	<node lat="59.20002500301495" lon="5.472127773410166" id="-3780">
		<tag k="name" v="Seiavikane" />
		<tag k="natural" v="bay" />
		<tag k="ssr:stedsnr" v="963548" />
	</node>
	<node lat="59.16194721971006" lon="5.4384916696192604" id="-3781">
		<tag k="name" v="Hedleholmen" />
		<tag k="place" v="islet" />
		<tag k="ssr:stedsnr" v="963844" />
	</node>
	<node lat="59.24060833026677" lon="5.384808333667054" id="-3783">
		<tag k="name" v="Nordra Lammanesvika" />
		<tag k="natural" v="bay" />
		<tag k="ssr:stedsnr" v="970597" />
	</node>
	<node lat="59.24448333033075" lon="5.439941664701071" id="-3787">
		<tag k="alt_name" v="Bleika;Bleigjå" />
		<tag k="fixme" v="consider seamark:type=rock or natural=shoal" />
		<tag k="name" v="Bleikjo" />
		<tag k="place" v="islet" />
		<tag k="ssr:stedsnr" v="1035" />
	</node>
	<node lat="59.19956388492604" lon="5.465333332525366" id="-3788">
		<tag k="alt_name" v="Sandviga;Sandvik" />
		<tag k="name" v="Sandvika" />
		<tag k="natural" v="bay" />
		<tag k="ssr:stedsnr" v="1326" />
	</node>
	<node lat="59.17842500053211" lon="5.463516664805787" id="-3790">
		<tag k="name" v="Lauplandsholmen" />
		<tag k="place" v="islet" />
		<tag k="ssr:stedsnr" v="1440" />
	</node>
	<node lat="59.23879444424686" lon="5.482988893755605" id="-3791">
		<tag k="alt_name" v="Viervik" />
		<tag k="name" v="Viervika" />
		<tag k="natural" v="bay" />
		<tag k="ssr:stedsnr" v="1457" />
	</node>
	<node lat="59.22764999847975" lon="5.538925007927386" id="-3792">
		<tag k="fixme" v="consider seamark:type=rock or natural=shoal" />
		<tag k="name" v="Hompane" />
		<tag k="place" v="islet" />
		<tag k="ssr:stedsnr" v="1473" />
	</node>
	<node lat="59.22090832953897" lon="5.502300003123512" id="-3793">
		<tag k="name" v="Eikevika" />
		<tag k="natural" v="bay" />
		<tag k="ssr:stedsnr" v="1477" />
	</node>
	<node lat="59.156650002921566" lon="5.415894448977842" id="-3794">
		<tag k="fixme" v="consider seamark:type=rock or natural=shoal" />
		<tag k="name" v="Terneskjeret" />
		<tag k="place" v="islet" />
		<tag k="ssr:stedsnr" v="2392" />
	</node>
	<node lat="59.16229999870431" lon="5.423880563803916" id="-3795">
		<tag k="fixme" v="consider seamark:type=rock or natural=shoal" />
		<tag k="name" v="Krabbaskjer" />
		<tag k="place" v="islet" />
		<tag k="ssr:stedsnr" v="2397" />
	</node>
	<node lat="59.229119442462604" lon="5.4588611117101244" id="-3797">
		<tag k="name" v="Træsbåflua" />
		<tag k="natural" v="shoal" />
		<tag k="place" v="locality" />
		<tag k="ssr:stedsnr" v="24638" />
	</node>
	<node lat="59.25270832937266" lon="5.418652785643604" id="-3798">
		<tag k="alt_name" v="Gulebleken" />
		<tag k="fixme" v="consider seamark:type=rock or natural=shoal" />
		<tag k="name" v="Gula Bleigjå" />
		<tag k="place" v="islet" />
		<tag k="ssr:stedsnr" v="27040" />
	</node>
	<node lat="59.27119444613169" lon="5.447016667590716" id="-3799">
		<tag k="fixme" v="consider seamark:type=rock or natural=shoal" />
		<tag k="name" v="Rauholmflua" />
		<tag k="place" v="islet" />
		<tag k="ssr:stedsnr" v="27653" />
	</node>
	<node lat="59.26944444718837" lon="5.475277771266831" id="-3800">
		<tag k="alt_name" v="Kalvsundet" />
		<tag k="name" v="Ognakalvsundet" />
		<tag k="natural" v="strait" />
		<tag k="ssr:stedsnr" v="27666" />
	</node>
	<node lat="59.15950000385037" lon="5.438377785839577" id="-3805">
		<tag k="name" v="Sørasundet" />
		<tag k="natural" v="strait" />
		<tag k="ssr:stedsnr" v="53841" />
	</node>
	<node lat="59.198283333250856" lon="5.376844438795425" id="-3808">
		<tag k="name" v="Hattahola" />
		<tag k="natural" v="bay" />
		<tag k="ssr:stedsnr" v="60942" />
	</node>
	<node lat="59.26287777633957" lon="5.4672361078144425" id="-3809">
		<tag k="name" v="Ognøya" />
		<tag k="place" v="island" />
		<tag k="ssr:stedsnr" v="63876" />
	</node>
	<node lat="59.270388890511924" lon="5.467252785254811" id="-3810">
		<tag k="name" v="Buvika" />
		<tag k="natural" v="bay" />
		<tag k="ssr:stedsnr" v="85560" />
	</node>
	<node lat="59.25648888661277" lon="5.4489000035206425" id="-3811">
		<tag k="alt_name" v="Skarvaskjeret" />
		<tag k="fixme" v="consider seamark:type=rock or natural=shoal" />
		<tag k="name" v="Skarvaskjer" />
		<tag k="place" v="islet" />
		<tag k="ssr:stedsnr" v="87659" />
	</node>
	<node lat="59.1686333334456" lon="5.411305557206991" id="-3812">
		<tag k="fixme" v="consider seamark:type=rock or natural=shoal" />
		<tag k="name" v="Syssen" />
		<tag k="place" v="islet" />
		<tag k="ssr:stedsnr" v="114400" />
	</node>
	<node lat="59.16040000172484" lon="5.401633329110485" id="-3815">
		<tag k="name" v="Kjøresundodden" />
		<tag k="natural" v="cape" />
		<tag k="ssr:stedsnr" v="114830" />
	</node>
	<node lat="59.232724997729065" lon="5.38771388568818" id="-3816">
		<tag k="name" v="Måkholmen" />
		<tag k="place" v="islet" />
		<tag k="ssr:stedsnr" v="121893" />
	</node>
	<node lat="59.245369445353646" lon="5.420397229551688" id="-3818">
		<tag k="name" v="Store Brattholmen" />
		<tag k="place" v="islet" />
		<tag k="ssr:stedsnr" v="121901" />
	</node>
	<node lat="59.242547217886745" lon="5.5134166631092425" id="-3819">
		<tag k="bay" v="fjord" />
		<tag k="name" v="Falkeidflæet" />
		<tag k="natural" v="bay" />
		<tag k="ssr:stedsnr" v="122437" />
	</node>
	<node lat="59.15017499895058" lon="5.421244438937491" id="-3820">
		<tag k="name" v="Kråga" />
		<tag k="place" v="islet" />
		<tag k="ssr:stedsnr" v="122401" />
	</node>
	<node lat="59.165833329023236" lon="5.432738886387054" id="-3822">
		<tag k="name" v="Geida" />
		<tag k="natural" v="cape" />
		<tag k="ssr:stedsnr" v="123473" />
	</node>
	<node lat="59.15772618025176" lon="5.391314953883794" id="-3824">
		<tag k="fixme" v="consider seamark:type=rock or natural=shoal" />
		<tag k="name" v="Kleppskjeret" />
		<tag k="place" v="islet" />
		<tag k="ssr:stedsnr" v="123424" />
	</node>
	<node lat="59.16894444330419" lon="5.462702779975074" id="-3825">
		<tag k="alt_name" v="Solholmen, nordre" />
		<tag k="name" v="Nordre Solholmen" />
		<tag k="place" v="islet" />
		<tag k="ssr:stedsnr" v="123437" />
	</node>
	<node lat="59.175346145544246" lon="5.40435001232767" id="-3826">
		<tag k="name" v="Langanesvågen" />
		<tag k="natural" v="bay" />
		<tag k="ssr:stedsnr" v="145660" />
	</node>
	<node lat="59.21981110951597" lon="5.3762249938385205" id="-3827">
		<tag k="name" v="Skruholmen" />
		<tag k="place" v="islet" />
		<tag k="ssr:stedsnr" v="146648" />
	</node>
	<node lat="59.217638890168296" lon="5.378911107853845" id="-3828">
		<tag k="fixme" v="consider seamark:type=rock or natural=shoal" />
		<tag k="name" v="Purkesteinane" />
		<tag k="place" v="islet" />
		<tag k="ssr:stedsnr" v="146650" />
	</node>
	<node lat="59.252933333609484" lon="5.411252783156082" id="-3829">
		<tag k="name" v="Litle Vindholmen" />
		<tag k="place" v="islet" />
		<tag k="ssr:stedsnr" v="148048" />
	</node>
	<node lat="59.16080278076914" lon="5.403830546802279" id="-3831">
		<tag k="fixme" v="consider seamark:type=rock or natural=shoal" />
		<tag k="name" v="Bergsuggenakkjen" />
		<tag k="place" v="islet" />
		<tag k="ssr:stedsnr" v="175824" />
	</node>
	<node lat="59.161852774018534" lon="5.388230564145518" id="-3832">
		<tag k="name" v="Stintenesodden" />
		<tag k="natural" v="cape" />
		<tag k="ssr:stedsnr" v="175831" />
	</node>
	<node lat="59.2378111092688" lon="5.426674998432477" id="-3836">
		<tag k="alt_name" v="Døvik" />
		<tag k="name" v="Døvika" />
		<tag k="natural" v="bay" />
		<tag k="ssr:stedsnr" v="183026" />
	</node>
	<node lat="59.24264167035821" lon="5.406902779962274" id="-3839">
		<tag k="alt_name" v="Hallvardsvik" />
		<tag k="name" v="Halvardsvika" />
		<tag k="natural" v="bay" />
		<tag k="ssr:stedsnr" v="183042" />
	</node>
	<node lat="59.19937499565761" lon="5.47343055448692" id="-3840">
		<tag k="alt_name" v="Sandvigskjeret" />
		<tag k="fixme" v="consider seamark:type=rock or natural=shoal" />
		<tag k="name" v="Sandvikskjeret" />
		<tag k="place" v="islet" />
		<tag k="ssr:stedsnr" v="184277" />
	</node>
	<node lat="59.164247223690886" lon="5.437472229884123" id="-3841">
		<tag k="alt_name" v="Skodehamn" />
		<tag k="name" v="Skottahamn" />
		<tag k="natural" v="bay" />
		<tag k="ssr:stedsnr" v="184383" />
	</node>
	<node lat="59.16031944555258" lon="5.386377785714828" id="-3842">
		<tag k="fixme" v="consider seamark:type=rock or natural=shoal" />
		<tag k="name" v="Austevigskjeret" />
		<tag k="place" v="islet" />
		<tag k="ssr:stedsnr" v="206666" />
	</node>
	<node lat="59.155022219399314" lon="5.413205552515379" id="-3843">
		<tag k="name" v="Bussholmane" />
		<tag k="place" v="islet" />
		<tag k="ssr:stedsnr" v="206672" />
	</node>
	<node lat="59.22633333353253" lon="5.49666110322059" id="-3844">
		<tag k="name" v="Likvika" />
		<tag k="natural" v="bay" />
		<tag k="ssr:stedsnr" v="207874" />
	</node>
	<node lat="59.25216110730237" lon="5.40458611739224" id="-3846">
		<tag k="name" v="Teistholmen" />
		<tag k="place" v="islet" />
		<tag k="ssr:stedsnr" v="209050" />
	</node>
	<node lat="59.24969722482821" lon="5.465091665539241" id="-3847">
		<tag k="name" v="Krossnes" />
		<tag k="natural" v="cape" />
		<tag k="ssr:stedsnr" v="209690" />
	</node>
	<node lat="59.17806666448891" lon="5.418600008593227" id="-3849">
		<tag k="name" v="Fårå" />
		<tag k="place" v="islet" />
		<tag k="ssr:stedsnr" v="296346" />
	</node>
	<node lat="59.17578611083147" lon="5.431813896600792" id="-3850">
		<tag k="name" v="Hognåsvika" />
		<tag k="natural" v="bay" />
		<tag k="ssr:stedsnr" v="296348" />
	</node>
	<node lat="59.24665278136633" lon="5.394002781256146" id="-3851">
		<tag k="alt_name" v="Irståni" />
		<tag k="name" v="Irståna" />
		<tag k="place" v="island" />
		<tag k="ssr:stedsnr" v="304049" />
	</node>
	<node lat="59.23609999705323" lon="5.464355564366722" id="-3852">
		<tag k="alt_name" v="Bokn, austre" />
		<tag k="name" v="Austre Bokn" />
		<tag k="place" v="island" />
		<tag k="ssr:stedsnr" v="304015" />
	</node>
	<node lat="59.137669447440516" lon="5.439511103827489" id="-3854">
		<tag k="name" v="Arsgrunnen" />
		<tag k="natural" v="shoal" />
		<tag k="place" v="locality" />
		<tag k="ssr:stedsnr" v="304393" />
	</node>
	<node lat="59.269241665508105" lon="5.478997216479201" id="-3855">
		<tag k="name" v="Ognakalven" />
		<tag k="place" v="islet" />
		<tag k="ssr:stedsnr" v="305226" />
	</node>
	<node lat="59.195677776503636" lon="5.387230550386298" id="-3856">
		<tag k="name" v="Grønnestadvågen" />
		<tag k="natural" v="bay" />
		<tag k="ssr:stedsnr" v="305088" />
	</node>
	<node lat="59.21718055461922" lon="5.508480555439788" id="-3857">
		<tag k="alt_name" v="Vågholmen, nordre" />
		<tag k="name" v="Nordre Vågholmen" />
		<tag k="place" v="islet" />
		<tag k="ssr:stedsnr" v="305292" />
	</node>
	<node lat="59.15710000185142" lon="5.383744442100709" id="-3859">
		<tag k="name" v="Skolten" />
		<tag k="natural" v="shoal" />
		<tag k="place" v="locality" />
		<tag k="ssr:stedsnr" v="327643" />
	</node>
	<node lat="59.272375001229925" lon="5.470005558719871" id="-3861">
		<tag k="name" v="Risholmen" />
		<tag k="place" v="islet" />
		<tag k="ssr:stedsnr" v="330679" />
	</node>
	<node lat="59.26804758870769" lon="5.475450634680115" id="-3862">
		<tag k="name" v="Steinsvik" />
		<tag k="natural" v="bay" />
		<tag k="ssr:stedsnr" v="330681" />
	</node>
	<node lat="59.25994166489384" lon="5.484174999059603" id="-3863">
		<tag k="name" v="Regaviga" />
		<tag k="natural" v="bay" />
		<tag k="ssr:stedsnr" v="330683" />
	</node>
	<node lat="59.16412500027959" lon="5.458238884809215" id="-3864">
		<tag k="name" v="Eriksgrunnen" />
		<tag k="natural" v="shoal" />
		<tag k="place" v="locality" />
		<tag k="ssr:stedsnr" v="344675" />
	</node>
	<node lat="59.18455555920108" lon="5.4678222206047655" id="-3865">
		<tag k="fixme" v="consider seamark:type=rock or natural=shoal" />
		<tag k="name" v="Ringskjer" />
		<tag k="place" v="islet" />
		<tag k="ssr:stedsnr" v="344639" />
	</node>
	<node lat="59.15554721962211" lon="5.410683328043045" id="-3866">
		<tag k="name" v="Djubasundet" />
		<tag k="natural" v="strait" />
		<tag k="ssr:stedsnr" v="356836" />
	</node>
	<node lat="59.15588333098127" lon="5.405327784254897" id="-3867">
		<tag k="name" v="Longholmane" />
		<tag k="place" v="islet" />
		<tag k="ssr:stedsnr" v="356838" />
	</node>
	<node lat="59.15931944560355" lon="5.410305556347702" id="-3868">
		<tag k="fixme" v="consider seamark:type=rock or natural=shoal" />
		<tag k="name" v="Olaskjera" />
		<tag k="place" v="islet" />
		<tag k="ssr:stedsnr" v="356839" />
	</node>
	<node lat="59.18341388956241" lon="5.4576055478515295" id="-3869">
		<tag k="name" v="Lauplandsvågen" />
		<tag k="natural" v="bay" />
		<tag k="ssr:stedsnr" v="357080" />
	</node>
	<node lat="59.1682916647039" lon="5.3989638807712454" id="-3871">
		<tag k="name" v="Kvidanes" />
		<tag k="natural" v="cape" />
		<tag k="ssr:stedsnr" v="357349" />
	</node>
	<node lat="59.16320833173746" lon="5.401741660190464" id="-3872">
		<tag k="name" v="Røydehamn" />
		<tag k="natural" v="bay" />
		<tag k="ssr:stedsnr" v="357356" />
	</node>
	<node lat="59.16521944147313" lon="5.402963884431925" id="-3873">
		<tag k="fixme" v="consider seamark:type=rock or natural=shoal" />
		<tag k="name" v="Brennevinsskjeret" />
		<tag k="place" v="islet" />
		<tag k="ssr:stedsnr" v="357357" />
	</node>
	<node lat="59.185152775570586" lon="5.4712277732427905" id="-3874">
		<tag k="name" v="Varholmen" />
		<tag k="place" v="islet" />
		<tag k="ssr:stedsnr" v="357470" />
	</node>
	<node lat="59.214344444569875" lon="5.500030555503888" id="-3880">
		<tag k="fixme" v="consider seamark:type=rock or natural=shoal" />
		<tag k="name" v="Innjedel" />
		<tag k="place" v="islet" />
		<tag k="ssr:stedsnr" v="364000" />
	</node>
	<node lat="59.236647219679604" lon="5.391427781473546" id="-3882">
		<tag k="alt_name" v="Breivik" />
		<tag k="name" v="Breidvika" />
		<tag k="natural" v="bay" />
		<tag k="ssr:stedsnr" v="365033" />
	</node>
	<node lat="59.20532777499159" lon="5.377097227204623" id="-3884">
		<tag k="alt_name" v="Rekavika;Rekevik;Regavika" />
		<tag k="name" v="Regaviga" />
		<tag k="natural" v="bay" />
		<tag k="ssr:stedsnr" v="365087" />
	</node>
	<node lat="59.17438888696536" lon="5.379047220076442" id="-3885">
		<tag k="name" v="Kjølevig" />
		<tag k="natural" v="bay" />
		<tag k="ssr:stedsnr" v="365422" />
	</node>
	<node lat="59.16855555387281" lon="5.404038884330514" id="-3887">
		<tag k="name" v="Vierholmane" />
		<tag k="place" v="islet" />
		<tag k="ssr:stedsnr" v="365437" />
	</node>
	<node lat="59.22444999948705" lon="5.493219445402908" id="-3889">
		<tag k="name" v="Vågavågen" />
		<tag k="natural" v="bay" />
		<tag k="ssr:stedsnr" v="365487" />
	</node>
	<node lat="59.21675277655946" lon="5.383902775990255" id="-3892">
		<tag k="name" v="Trosnavågen" />
		<tag k="natural" v="bay" />
		<tag k="ssr:stedsnr" v="366107" />
	</node>
	<node lat="59.204636115207215" lon="5.510569441038362" id="-3894">
		<tag k="alt_name" v="Koppskjera;Kobbeskjera;Kobbskjer" />
		<tag k="fixme" v="consider seamark:type=rock or natural=shoal" />
		<tag k="name" v="Kobbskjeret" />
		<tag k="place" v="islet" />
		<tag k="ssr:stedsnr" v="366279" />
	</node>
	<node lat="59.26187778105478" lon="5.411891671850049" id="-3895">
		<tag k="name" v="Lamholmen" />
		<tag k="place" v="islet" />
		<tag k="ssr:stedsnr" v="366872" />
	</node>
	<node lat="59.25148058980887" lon="5.4484284860615455" id="-3896">
		<tag k="alt_name" v="Fløsund" />
		<tag k="name" v="Fløysundet" />
		<tag k="natural" v="strait" />
		<tag k="ssr:stedsnr" v="388622" />
	</node>
	<node lat="59.16708055309443" lon="5.418211107581074" id="-3897">
		<tag k="name" v="Brøgene" />
		<tag k="place" v="islet" />
		<tag k="ssr:stedsnr" v="388671" />
	</node>
	<node lat="59.24941111418844" lon="5.4715138964681715" id="-3900">
		<tag k="alt_name" v="Håtang" />
		<tag k="name" v="Håtong" />
		<tag k="natural" v="cape" />
		<tag k="ssr:stedsnr" v="391670" />
	</node>
	<node lat="59.16360277582749" lon="5.404988894840705" id="-3902">
		<tag k="name" v="Drevsund" />
		<tag k="natural" v="strait" />
		<tag k="ssr:stedsnr" v="418362" />
	</node>
	<node lat="59.18113055973195" lon="5.417561110651386" id="-3903">
		<tag k="fixme" v="consider seamark:type=rock or natural=shoal" />
		<tag k="name" v="Bakkaskjeret" />
		<tag k="place" v="islet" />
		<tag k="ssr:stedsnr" v="418364" />
	</node>
	<node lat="59.17138333430662" lon="5.418774997188085" id="-3904">
		<tag k="name" v="Kjøyvågen" />
		<tag k="natural" v="bay" />
		<tag k="ssr:stedsnr" v="418379" />
	</node>
	<node lat="59.183000002661146" lon="5.464497215214935" id="-3905">
		<tag k="name" v="Kjøynå" />
		<tag k="place" v="islet" />
		<tag k="ssr:stedsnr" v="418067" />
	</node>
	<node lat="59.21398332907796" lon="5.376722228500089" id="-3908">
		<tag k="name" v="Vintrastø" />
		<tag k="natural" v="bay" />
		<tag k="ssr:stedsnr" v="424921" />
	</node>
	<node lat="59.21478333378513" lon="5.4896611054565065" id="-3913">
		<tag k="name" v="Donevika" />
		<tag k="natural" v="bay" />
		<tag k="ssr:stedsnr" v="424988" />
	</node>
	<node lat="59.25370277543548" lon="5.462894442540205" id="-3915">
		<tag k="name" v="Ognasundet" />
		<tag k="natural" v="strait" />
		<tag k="ssr:stedsnr" v="427850" />
	</node>
	<node lat="59.261047218015186" lon="5.418188880777327" id="-3916">
		<tag k="alt_name" v="Skolbuholmen" />
		<tag k="name" v="Skolbuholmane" />
		<tag k="place" v="islet" />
		<tag k="ssr:stedsnr" v="427851" />
	</node>
	<node lat="59.25509166423426" lon="5.409680560636139" id="-3917">
		<tag k="alt_name" v="Vindholmen;Vindholmane" />
		<tag k="name" v="Store Vindholmen" />
		<tag k="place" v="islet" />
		<tag k="ssr:stedsnr" v="427855" />
	</node>
	<node lat="59.16284166575634" lon="5.396263890610981" id="-3918">
		<tag k="name" v="Kjøresundsodden" />
		<tag k="natural" v="cape" />
		<tag k="ssr:stedsnr" v="509643" />
	</node>
	<node lat="59.24924444365909" lon="5.4750750046505665" id="-3919">
		<tag k="name" v="Regaviggrunnen" />
		<tag k="natural" v="shoal" />
		<tag k="place" v="locality" />
		<tag k="ssr:stedsnr" v="509852" />
	</node>
	<node lat="59.2504222194587" lon="5.472213893520972" id="-3921">
		<tag k="fixme" v="consider seamark:type=rock or natural=shoal" />
		<tag k="name" v="Svartaskjer" />
		<tag k="place" v="islet" />
		<tag k="ssr:stedsnr" v="512681" />
	</node>
	<node lat="59.16726944081484" lon="5.408141666991364" id="-3924">
		<tag k="name" v="Brattholmen" />
		<tag k="place" v="islet" />
		<tag k="ssr:stedsnr" v="539328" />
	</node>
	<node lat="59.17117222412927" lon="5.411111117089105" id="-3925">
		<tag k="name" v="Eiderholmen" />
		<tag k="place" v="islet" />
		<tag k="ssr:stedsnr" v="539330" />
	</node>
	<node lat="59.16663889083191" lon="5.400013883415854" id="-3926">
		<tag k="name" v="Lyngnes" />
		<tag k="natural" v="cape" />
		<tag k="ssr:stedsnr" v="539333" />
	</node>
	<node lat="59.163002777165545" lon="5.428491662830461" id="-3927">
		<tag k="name" v="Stongholmsskjeret" />
		<tag k="place" v="islet" />
		<tag k="ssr:stedsnr" v="539343" />
	</node>
	<node lat="59.1658944414396" lon="5.414675000285583" id="-3930">
		<tag k="name" v="Vestre Brog" />
		<tag k="place" v="islet" />
		<tag k="ssr:stedsnr" v="539354" />
	</node>
	<node lat="59.19273333513693" lon="5.382216673049205" id="-3931">
		<tag k="name" v="Studahola" />
		<tag k="natural" v="bay" />
		<tag k="ssr:stedsnr" v="539430" />
	</node>
	<node lat="59.19189722124539" lon="5.383530559645417" id="-3932">
		<tag k="name" v="Sjebavika" />
		<tag k="natural" v="bay" />
		<tag k="ssr:stedsnr" v="539431" />
	</node>
	<node lat="59.24281666826434" lon="5.453580550562682" id="-3936">
		<tag k="name" v="Lammanes" />
		<tag k="natural" v="cape" />
		<tag k="ssr:stedsnr" v="545893" />
	</node>
	<node lat="59.22591666745171" lon="5.3766138947850495" id="-3937">
		<tag k="name" v="Rabnajoda" />
		<tag k="natural" v="bay" />
		<tag k="ssr:stedsnr" v="545870" />
	</node>
	<node lat="59.24527777518627" lon="5.420433328180032" id="-3939">
		<tag k="name" v="Brattholmen" />
		<tag k="place" v="islet" />
		<tag k="ssr:stedsnr" v="547057" />
	</node>
	<node lat="59.20632500372034" lon="5.506733341391788" id="-3942">
		<tag k="name" v="Hillervika" />
		<tag k="natural" v="bay" />
		<tag k="ssr:stedsnr" v="548295" />
	</node>
	<node lat="59.26769738396273" lon="5.478115753952641" id="-3943">
		<tag k="name" v="Steinsvikvågen" />
		<tag k="natural" v="bay" />
		<tag k="ssr:stedsnr" v="569858" />
	</node>
	<node lat="59.239998710816415" lon="5.453540351158769" id="-3945">
		<tag k="name" v="Øvrabøvågen" />
		<tag k="natural" v="bay" />
		<tag k="ssr:stedsnr" v="570594" />
	</node>
	<node lat="59.15793888677396" lon="5.441797230181907" id="-3946">
		<tag k="fixme" v="consider seamark:type=rock or natural=shoal" />
		<tag k="name" v="Meleskjeret" />
		<tag k="place" v="islet" />
		<tag k="ssr:stedsnr" v="586664" />
	</node>
	<node lat="59.17634166282213" lon="5.456027770764429" id="-3948">
		<tag k="name" v="Stølsvika" />
		<tag k="natural" v="bay" />
		<tag k="ssr:stedsnr" v="600077" />
	</node>
	<node lat="59.161116663532006" lon="5.421686110604816" id="-3952">
		<tag k="name" v="Osen" />
		<tag k="natural" v="strait" />
		<tag k="ssr:stedsnr" v="599826" />
	</node>
	<node lat="59.16231944092757" lon="5.404038887652304" id="-3953">
		<tag k="name" v="Søra Drevsund" />
		<tag k="natural" v="strait" />
		<tag k="ssr:stedsnr" v="599828" />
	</node>
	<node lat="59.240191667473354" lon="5.451249992218169" id="-3959">
		<tag k="name" v="Øvrabøneset" />
		<tag k="natural" v="cape" />
		<tag k="ssr:stedsnr" v="607031" />
	</node>
	<node lat="59.186644441526276" lon="5.376630563454689" id="-3960">
		<tag k="name" v="Røyrviga" />
		<tag k="natural" v="bay" />
		<tag k="ssr:stedsnr" v="608071" />
	</node>
	<node lat="59.218405555392536" lon="5.512161109692029" id="-3961">
		<tag k="alt_name" v="Svartaskjeret" />
		<tag k="fixme" v="consider seamark:type=rock or natural=shoal" />
		<tag k="name" v="Svartaskjer" />
		<tag k="place" v="islet" />
		<tag k="ssr:stedsnr" v="608279" />
	</node>
	<node lat="59.18538889179264" lon="5.472841665263623" id="-3962">
		<tag k="name" v="Lamholmen" />
		<tag k="place" v="islet" />
		<tag k="ssr:stedsnr" v="608303" />
	</node>
	<node lat="59.159600001851416" lon="5.440722220940691" id="-3963">
		<tag k="alt_name" v="Avløybet" />
		<tag k="name" v="Avløypsnibba" />
		<tag k="place" v="islet" />
		<tag k="ssr:stedsnr" v="608387" />
	</node>
	<node lat="59.20985000081161" lon="5.484619443245532" id="-3964">
		<tag k="name" v="Grønehilleren" />
		<tag k="natural" v="cape" />
		<tag k="ssr:stedsnr" v="608479" />
	</node>
	<node lat="59.262147220314205" lon="5.453094453024489" id="-3967">
		<tag k="alt_name" v="Kjøynå" />
		<tag k="name" v="Kjeøya" />
		<tag k="place" v="islet" />
		<tag k="ssr:stedsnr" v="609863" />
	</node>
	<node lat="59.16689444050727" lon="5.429099998985605" id="-3968">
		<tag k="name" v="Galten" />
		<tag k="place" v="locality" />
		<tag k="seamark:type" v="rock" />
		<tag k="ssr:stedsnr" v="630628" />
	</node>
	<node lat="59.154683336337925" lon="5.385747229476195" id="-3969">
		<tag k="name" v="Kleppflua" />
		<tag k="place" v="locality" />
		<tag k="seamark:type" v="rock" />
		<tag k="ssr:stedsnr" v="630629" />
	</node>
	<node lat="59.21830833122273" lon="5.505427782691464" id="-3970">
		<tag k="name" v="Nordra Vågholmsundet" />
		<tag k="natural" v="strait" />
		<tag k="ssr:stedsnr" v="630924" />
	</node>
	<node lat="59.26858610655179" lon="5.4753055498916545" id="-3971">
		<tag k="name" v="Steinsvikneset" />
		<tag k="natural" v="cape" />
		<tag k="ssr:stedsnr" v="630856" />
	</node>
	<node lat="59.192600001100125" lon="5.376780556895266" id="-3975">
		<tag k="name" v="Litla Drauavika" />
		<tag k="natural" v="bay" />
		<tag k="ssr:stedsnr" v="666930" />
	</node>
	<node lat="59.1585277748557" lon="5.419699994339263" id="-3978">
		<tag k="name" v="Sauøya" />
		<tag k="place" v="islet" />
		<tag k="ssr:stedsnr" v="668358" />
	</node>
	<node lat="59.23944166336731" lon="5.383263888932241" id="-3979">
		<tag k="name" v="Søra Lammanesvika" />
		<tag k="natural" v="bay" />
		<tag k="ssr:stedsnr" v="667871" />
	</node>
	<node lat="59.23127777720323" lon="5.382883329319295" id="-3980">
		<tag k="name" v="Kvidaneset" />
		<tag k="natural" v="cape" />
		<tag k="ssr:stedsnr" v="667879" />
	</node>
	<node lat="59.246605554347326" lon="5.417372229808303" id="-3981">
		<tag k="name" v="Litle Brattholmen" />
		<tag k="place" v="islet" />
		<tag k="ssr:stedsnr" v="667885" />
	</node>
	<node lat="59.18944444037665" lon="5.374474998805031" id="-3982">
		<tag k="name" v="Stolviga" />
		<tag k="natural" v="bay" />
		<tag k="ssr:stedsnr" v="669045" />
	</node>
	<node lat="59.25193889019154" lon="5.4720833386784165" id="-3984">
		<tag k="alt_name" v="Ognaskjer" />
		<tag k="fixme" v="consider seamark:type=rock or natural=shoal" />
		<tag k="name" v="Ognaskjeret" />
		<tag k="place" v="islet" />
		<tag k="ssr:stedsnr" v="669241" />
	</node>
	<node lat="59.167130551758746" lon="5.440394437892131" id="-3985">
		<tag k="alt_name" v="Arsvågen, vestre" />
		<tag k="name" v="Vestre Arsvågen" />
		<tag k="natural" v="bay" />
		<tag k="ssr:stedsnr" v="669387" />
	</node>
	<node lat="59.24587500400591" lon="5.474874996589074" id="-3986">
		<tag k="alt_name" v="Grønevik" />
		<tag k="name" v="Grønevika" />
		<tag k="natural" v="bay" />
		<tag k="ssr:stedsnr" v="669466" />
	</node>
	<node lat="59.17857222336847" lon="5.404763888550454" id="-3987">
		<tag k="name" v="Jøsenlandet" />
		<tag k="natural" v="cape" />
		<tag k="ssr:stedsnr" v="721377" />
	</node>
	<node lat="59.194547225435244" lon="5.394430554718674" id="-3989">
		<tag k="name" v="Skiftesvika" />
		<tag k="natural" v="bay" />
		<tag k="ssr:stedsnr" v="721462" />
	</node>
	<node lat="59.168527777653885" lon="5.404261104778281" id="-3990">
		<tag k="name" v="Store Vierholmen" />
		<tag k="place" v="islet" />
		<tag k="ssr:stedsnr" v="721367" />
	</node>
	<node lat="59.17646388515322" lon="5.377111106263348" id="-3993">
		<tag k="name" v="Båsen" />
		<tag k="natural" v="cape" />
		<tag k="ssr:stedsnr" v="730429" />
	</node>
	<node lat="59.21212777553444" lon="5.4950611190373815" id="-3995">
		<tag k="alt_name" v="Langetangen;Longatonga" />
		<tag k="name" v="Langetunga" />
		<tag k="natural" v="cape" />
		<tag k="ssr:stedsnr" v="730284" />
	</node>
	<node lat="59.16037500125799" lon="5.446636116207005" id="-3997">
		<tag k="name" v="Munkehausneset" />
		<tag k="natural" v="cape" />
		<tag k="ssr:stedsnr" v="769665" />
	</node>
	<node lat="59.190363888607685" lon="5.391366670654823" id="-3998">
		<tag k="name" v="Eithidlersundet" />
		<tag k="natural" v="strait" />
		<tag k="ssr:stedsnr" v="782435" />
	</node>
	<node lat="59.23209166217029" lon="5.387272216500342" id="-4003">
		<tag k="name" v="Krekjeberholmen" />
		<tag k="place" v="islet" />
		<tag k="ssr:stedsnr" v="788880" />
	</node>
	<node lat="59.19943888859199" lon="5.3748111042754125" id="-4005">
		<tag k="name" v="Svartodden" />
		<tag k="natural" v="cape" />
		<tag k="ssr:stedsnr" v="788937" />
	</node>
	<node lat="59.24492221883666" lon="5.45239167540597" id="-4008">
		<tag k="name" v="Kroholmen" />
		<tag k="place" v="islet" />
		<tag k="ssr:stedsnr" v="790042" />
	</node>
	<node lat="59.19399722255506" lon="5.42203054996682" id="-4010">
		<tag k="name" v="Vestre Bokn" />
		<tag k="place" v="island" />
		<tag k="ssr:stedsnr" v="790073" />
	</node>
	<node lat="59.22509444551606" lon="5.5419250085922265" id="-4014">
		<tag k="alt_name" v="Flaterova;Flada Roå" />
		<tag k="fixme" v="consider seamark:type=rock or natural=shoal" />
		<tag k="name" v="Flatarova" />
		<tag k="place" v="islet" />
		<tag k="ssr:stedsnr" v="790478" />
	</node>
	<node lat="59.251161113203885" lon="5.395516670104425" id="-4015">
		<tag k="fixme" v="consider seamark:type=rock or natural=shoal" />
		<tag k="name" v="Seieklubben" />
		<tag k="place" v="islet" />
		<tag k="ssr:stedsnr" v="815099" />
	</node>
	<node lat="59.26039166908935" lon="5.399969452585503" id="-4016">
		<tag k="alt_name" v="Barlundholmen" />
		<tag k="name" v="Barlon" />
		<tag k="place" v="islet" />
		<tag k="ssr:stedsnr" v="816063" />
	</node>
	<node lat="59.259661113594234" lon="5.443602776087564" id="-4017">
		<tag k="name" v="Brattholmen" />
		<tag k="place" v="islet" />
		<tag k="ssr:stedsnr" v="816693" />
	</node>
	<node lat="59.16044166640168" lon="5.433361119600016" id="-4018">
		<tag k="name" v="Sjebasundet" />
		<tag k="natural" v="strait" />
		<tag k="ssr:stedsnr" v="842834" />
	</node>
	<node lat="59.16734999589663" lon="5.401969448426308" id="-4019">
		<tag k="fixme" v="consider seamark:type=rock or natural=shoal" />
		<tag k="name" v="Lamholmen" />
		<tag k="place" v="islet" />
		<tag k="ssr:stedsnr" v="843361" />
	</node>
	<node lat="59.22716389050055" lon="5.543008325495905" id="-4026">
		<tag k="fixme" v="consider seamark:type=rock or natural=shoal" />
		<tag k="name" v="Bergsuggeskjera" />
		<tag k="place" v="islet" />
		<tag k="ssr:stedsnr" v="851424" />
	</node>
	<node lat="59.169333334109325" lon="5.4249499979181754" id="-4027">
		<tag k="name" v="Sauøya" />
		<tag k="place" v="islet" />
		<tag k="ssr:stedsnr" v="851397" />
	</node>
	<node lat="59.21226666259805" lon="5.487394445925617" id="-4028">
		<tag k="alt_name" v="Rabbevig;Rabbevik" />
		<tag k="name" v="Rabbavika" />
		<tag k="natural" v="bay" />
		<tag k="ssr:stedsnr" v="874917" />
	</node>
	<node lat="59.21508610685173" lon="5.4961861153616365" id="-4029">
		<tag k="alt_name" v="Ablavika" />
		<tag k="name" v="Apallevika" />
		<tag k="natural" v="bay" />
		<tag k="ssr:stedsnr" v="875900" />
	</node>
	<node lat="59.24926110868074" lon="5.4667833269135375" id="-4030">
		<tag k="alt_name" v="Kallabergvika" />
		<tag k="name" v="Kallabergvik" />
		<tag k="natural" v="bay" />
		<tag k="ssr:stedsnr" v="876296" />
	</node>
	<node lat="59.249886107015406" lon="5.463091659150227" id="-4031">
		<tag k="name" v="Stidlevik" />
		<tag k="natural" v="bay" />
		<tag k="ssr:stedsnr" v="876679" />
	</node>
	<node lat="59.259149997828956" lon="5.4081083406402115" id="-4032">
		<tag k="name" v="Bryggholmen" />
		<tag k="place" v="islet" />
		<tag k="ssr:stedsnr" v="937066" />
	</node>
	<node lat="59.25788888913932" lon="5.417699996905327" id="-4033">
		<tag k="name" v="Porsholmane" />
		<tag k="place" v="islet" />
		<tag k="ssr:stedsnr" v="937080" />
	</node>
	<node lat="59.26413611064006" lon="5.454994440909234" id="-4034">
		<tag k="alt_name" v="Kjeøyvågen" />
		<tag k="name" v="Kjøyvågen" />
		<tag k="natural" v="bay" />
		<tag k="ssr:stedsnr" v="937679" />
	</node>
	<node lat="59.21534765632588" lon="5.380933907478364" id="-4035">
		<tag k="name" v="Vestrevåg" />
		<tag k="natural" v="bay" />
		<tag k="ssr:stedsnr" v="969959" />
	</node>
</osm>
