<?xml version="1.0" encoding="UTF-8"?>
<osm version="0.6" generator="osmapis">
	<node lat="59.21021666641897" lon="5.438158331878075" id="-1557">
		<tag k="name" v="Nordra Hålandstjørna" />
		<tag k="natural" v="water" />
		<tag k="ssr:stedsnr" v="59992" />
	</node>
	<node lat="59.21385000351852" lon="5.3790499955242534" id="-1587">
		<tag k="name" v="Tjødnå" />
		<tag k="natural" v="water" />
		<tag k="ssr:stedsnr" v="181934" />
	</node>
	<node lat="59.173927776626215" lon="5.449572215983219" id="-1613">
		<tag k="name" v="Arsvatnet" />
		<tag k="natural" v="water" />
		<tag k="ssr:stedsnr" v="297090" />
		<tag k="water" v="lake" />
	</node>
	<node lat="59.21680833308297" lon="5.482125003074546" id="-1615">
		<tag k="name" v="Krågeskarpytten" />
		<tag k="natural" v="water" />
		<tag k="ssr:stedsnr" v="302980" />
		<tag k="water" v="pond" />
	</node>
	<node lat="59.22744166950629" lon="5.385869447046493" id="-1617">
		<tag k="name" v="Breiviktjørna" />
		<tag k="natural" v="water" />
		<tag k="ssr:stedsnr" v="303885" />
	</node>
	<node lat="59.200183331277856" lon="5.403233338617442" id="-1630">
		<tag k="name" v="Grønnestadvatnet" />
		<tag k="natural" v="water" />
		<tag k="ssr:stedsnr" v="365092" />
		<tag k="water" v="lake" />
	</node>
	<node lat="59.20361110946109" lon="5.403961111121852" id="-1643">
		<tag k="name" v="Stemmevatnet" />
		<tag k="natural" v="water" />
		<tag k="ssr:stedsnr" v="486064" />
		<tag k="water" v="lake" />
	</node>
	<node lat="59.211866662815325" lon="5.413172221641256" id="-1655">
		<tag k="alt_name" v="Ulvåvatnet" />
		<tag k="name" v="Ulvåna" />
		<tag k="natural" v="water" />
		<tag k="ssr:stedsnr" v="427105" />
		<tag k="water" v="lake" />
	</node>
	<node lat="59.24785000269261" lon="5.4588138829962105" id="-1691">
		<tag k="name" v="Krovatnet" />
		<tag k="natural" v="water" />
		<tag k="ssr:stedsnr" v="606898" />
	</node>
	<node lat="59.216622225226494" lon="5.4446000007676405" id="-1693">
		<tag k="alt_name" v="Boknabergsvatnet" />
		<tag k="name" v="Boknabergvatnet" />
		<tag k="natural" v="water" />
		<tag k="ssr:stedsnr" v="608091" />
	</node>
	<node lat="59.19208333703612" lon="5.432758337146293" id="-1704">
		<tag k="name" v="Pålavika" />
		<tag k="natural" v="bay" />
		<tag k="ssr:stedsnr" v="660487" />
	</node>
	<node lat="59.195438886640844" lon="5.433566664560379" id="-1705">
		<tag k="name" v="Vatlandsvatnet" />
		<tag k="natural" v="water" />
		<tag k="ssr:stedsnr" v="660491" />
		<tag k="water" v="lake" />
	</node>
	<node lat="59.1881027781558" lon="5.412258339762512" id="-1719">
		<tag k="name" v="Sunnalandsvatnet" />
		<tag k="natural" v="water" />
		<tag k="ssr:stedsnr" v="721472" />
		<tag k="water" v="lake" />
	</node>
	<node lat="59.20661944675771" lon="5.395380555985942" id="-1740">
		<tag k="name" v="Håmannsvatnet" />
		<tag k="natural" v="water" />
		<tag k="ssr:stedsnr" v="909981" />
	</node>
	<node lat="59.2408159427212" lon="5.393786243291541" id="-1761">
		<tag k="name" v="Søra Boknahovstjørna" />
		<tag k="natural" v="water" />
		<tag k="ssr:stedsnr" v="849890" />
	</node>
	<node lat="59.21561667094511" lon="5.404816664923349" id="-1762">
		<tag k="name" v="Gunnarstadvatnet" />
		<tag k="natural" v="water" />
		<tag k="ssr:stedsnr" v="851109" />
		<tag k="water" v="lake" />
	</node>
	<node lat="59.26083333406297" lon="5.471649999142609" id="-1768">
		<tag k="name" v="Stemmen" />
		<tag k="natural" v="water" />
		<tag k="ssr:stedsnr" v="876653" />
	</node>
	<node lat="59.22771666487489" lon="5.395108338284398" id="-1776">
		<tag k="name" v="Sandvatnet" />
		<tag k="natural" v="water" />
		<tag k="ssr:stedsnr" v="911006" />
	</node>
	<node lat="59.23179539554803" lon="5.403737150549055" id="-1777">
		<tag k="alt_name" v="Halvardsvatnet" />
		<tag k="name" v="Buarvatnet" />
		<tag k="natural" v="water" />
		<tag k="ssr:stedsnr" v="911008" />
		<tag k="water" v="lake" />
	</node>
	<node lat="59.20517801966486" lon="5.388704187188663" id="-1812">
		<tag k="name" v="Middagsvatnet" />
		<tag k="natural" v="water" />
		<tag k="ssr:stedsnr" v="54490" />
		<tag k="water" v="lake" />
	</node>
	<node lat="59.24264444060881" lon="5.389802779987838" id="-1816">
		<tag k="name" v="Nordra Boknahovstjørna" />
		<tag k="natural" v="water" />
		<tag k="ssr:stedsnr" v="60897" />
	</node>
	<node lat="59.25090277820499" lon="5.457591671365584" id="-1839">
		<tag k="name" v="Varanesvatnet" />
		<tag k="natural" v="water" />
		<tag k="ssr:stedsnr" v="148701" />
	</node>
	<node lat="59.20792778129792" lon="5.4079416683128505" id="-1846">
		<tag k="name" v="Hagavatnet" />
		<tag k="natural" v="water" />
		<tag k="ssr:stedsnr" v="183084" />
		<tag k="water" v="lake" />
	</node>
	<node lat="59.214999996790674" lon="5.509166674617796" id="-1854">
		<tag k="name" v="Humrabrunnen" />
		<tag k="natural" v="water" />
		<tag k="ssr:stedsnr" v="207909" />
		<tag k="water" v="lake" />
	</node>
	<node lat="59.18265858583878" lon="5.383878918500579" id="-1879">
		<tag k="name" v="Søra Jøsenvatnet" />
		<tag k="natural" v="water" />
		<tag k="ssr:stedsnr" v="357347" />
		<tag k="water" v="lake" />
	</node>
	<node lat="59.234499997375714" lon="5.418083335116175" id="-1885">
		<tag k="name" v="Stolltjørna" />
		<tag k="natural" v="water" />
		<tag k="ssr:stedsnr" v="363877" />
	</node>
	<node lat="59.21814166877261" lon="5.395988883421684" id="-1886">
		<tag k="name" v="Løgjen" />
		<tag k="natural" v="water" />
		<tag k="ssr:stedsnr" v="363966" />
		<tag k="water" v="lake" />
	</node>
	<node lat="59.216655559075356" lon="5.402983331671123" id="-1888">
		<tag k="name" v="Neset" />
		<tag k="natural" v="cape" />
		<tag k="ssr:stedsnr" v="363981" />
	</node>
	<node lat="59.19498611388241" lon="5.4370194396168845" id="-1890">
		<tag k="name" v="Vatnalandsvatnet" />
		<tag k="natural" v="water" />
		<tag k="ssr:stedsnr" v="365076" />
		<tag k="water" v="lake" />
	</node>
	<node lat="59.185977778135936" lon="5.42622221474018" id="-1892">
		<tag k="name" v="Hognalandsvatnet" />
		<tag k="natural" v="water" />
		<tag k="ssr:stedsnr" v="365085" />
		<tag k="water" v="lake" />
	</node>
	<node lat="59.22147500140201" lon="5.391374992899279" id="-1919">
		<tag k="name" v="Nordra Kobbervatnet" />
		<tag k="natural" v="water" />
		<tag k="ssr:stedsnr" v="424969" />
		<tag k="water" v="lake" />
	</node>
	<node lat="59.21462500321446" lon="5.401477770851537" id="-1921">
		<tag k="name" v="Holmen" />
		<tag k="natural" v="cape" />
		<tag k="ssr:stedsnr" v="424977" />
	</node>
	<node lat="59.1829138856546" lon="5.39535833646436" id="-1932">
		<tag k="name" v="Mellevatnet" />
		<tag k="natural" v="water" />
		<tag k="ssr:stedsnr" v="539324" />
		<tag k="water" v="lake" />
	</node>
	<node lat="59.17908611470844" lon="5.384377780705696" id="-1938">
		<tag k="name" v="Sævartjørna" />
		<tag k="natural" v="water" />
		<tag k="ssr:stedsnr" v="539313" />
	</node>
	<node lat="59.192700000449854" lon="5.421202781620981" id="-1958">
		<tag k="name" v="Mellevatnet" />
		<tag k="place" v="locality" />
		<tag k="ssr:stedsnr" v="599472" />
	</node>
	<node lat="59.20880000382336" lon="5.429183331028014" id="-1965">
		<tag k="name" v="Torlandsvatnet" />
		<tag k="natural" v="water" />
		<tag k="ssr:stedsnr" v="607080" />
		<tag k="water" v="lake" />
	</node>
	<node lat="59.239141664776234" lon="5.40552500270471" id="-1967">
		<tag k="name" v="Halvarsbekken" />
		<tag k="ssr:stedsnr" v="606882" />
		<tag k="waterway" v="stream" />
	</node>
	<node lat="59.22239722375049" lon="5.474458328217675" id="-1975">
		<tag k="name" v="Aksdalsstemmen" />
		<tag k="natural" v="water" />
		<tag k="ssr:stedsnr" v="608486" />
		<tag k="water" v="pond" />
	</node>
	<node lat="59.17771389186818" lon="5.443347229561029" id="-1983">
		<tag k="name" v="Tollakstjørna" />
		<tag k="natural" v="water" />
		<tag k="ssr:stedsnr" v="660066" />
	</node>
	<node lat="59.19531653466088" lon="5.4017252437985395" id="-1992">
		<tag k="alt_name" v="Gregulsvatnet" />
		<tag k="name" v="Gregersvatnet" />
		<tag k="natural" v="water" />
		<tag k="ssr:stedsnr" v="669046" />
		<tag k="water" v="lake" />
	</node>
	<node lat="59.18563055583486" lon="5.38477221771197" id="-1997">
		<tag k="name" v="Noravatnet" />
		<tag k="natural" v="water" />
		<tag k="ssr:stedsnr" v="721456" />
		<tag k="water" v="lake" />
	</node>
	<node lat="59.21895000183794" lon="5.392080548192024" id="-2008">
		<tag k="name" v="Søra Kobbervatnet" />
		<tag k="natural" v="water" />
		<tag k="ssr:stedsnr" v="787971" />
		<tag k="water" v="lake" />
	</node>
	<node lat="59.241216664865114" lon="5.4129388955704485" id="-2013">
		<tag k="name" v="Kongshabntjørna" />
		<tag k="natural" v="water" />
		<tag k="ssr:stedsnr" v="788887" />
	</node>
	<node lat="59.20829444791033" lon="5.441180552205259" id="-2032">
		<tag k="name" v="Søra Hålandstjørna" />
		<tag k="natural" v="water" />
		<tag k="ssr:stedsnr" v="848984" />
	</node>
</osm>
