<?xml version="1.0" encoding="UTF-8"?>
<<<<<<< HEAD
<osm version="0.6" generator="osmapis">
	<node lat="59.1870944479412" lon="5.397666667902881" id="-2684">
		<tag k="name" v="Straumastykket" />
		<tag k="place" v="locality" />
		<tag k="ssr:stedsnr" v="53489" />
	</node>
	<node lat="59.213708337191264" lon="5.381677775091845" id="-2698">
		<tag k="landuse" v="meadow" />
		<tag k="name" v="Træet" />
		<tag k="ssr:stedsnr" v="241972" />
	</node>
	<node lat="59.16522778109466" lon="5.398080563658661" id="-2719">
		<tag k="landuse" v="meadow" />
		<tag k="name" v="Stemmen" />
		<tag k="ssr:stedsnr" v="175370" />
	</node>
	<node lat="59.194852776135946" lon="5.456824996663619" id="-2744">
=======
<osm generator="osmapis" version="0.6">
	<node id="-36319" lat="59.1948527761" lon="5.45682499666">
>>>>>>> e1d4bc35ff8a6074a6f2e91616a996b547c36f15
		<tag k="name" v="Longamyr" />
		<tag k="natural" v="wetland" />
		<tag k="ssr:stedsnr" v="296457" />
	</node>
<<<<<<< HEAD
	<node lat="59.223294440322434" lon="5.466094444384829" id="-2749">
		<tag k="landuse" v="meadow" />
		<tag k="name" v="Træet" />
		<tag k="ssr:stedsnr" v="302984" />
	</node>
	<node lat="59.1899222253485" lon="5.40954444878587" id="-3093">
=======
	<node id="-36382" lat="59.2456083294" lon="5.46953888579">
		<tag k="name" v="Krostimyr" />
		<tag k="natural" v="wetland" />
		<tag k="ssr:stedsnr" v="666971" />
	</node>
	<node id="-36538" lat="59.1870944479" lon="5.3976666679">
		<tag k="name" v="Straumastykket" />
		<tag k="place" v="locality" />
		<tag k="ssr:stedsnr" v="53489" />
	</node>
	<node id="-36723" lat="59.1899222253" lon="5.40954444879">
>>>>>>> e1d4bc35ff8a6074a6f2e91616a996b547c36f15
		<tag k="name" v="Træsdalen" />
		<tag k="place" v="locality" />
		<tag k="ssr:stedsnr" v="599482" />
	</node>
<<<<<<< HEAD
	<node lat="59.22034999708076" lon="5.474797217898617" id="-3096">
		<tag k="landuse" v="meadow" />
		<tag k="name" v="Øygardsbrota" />
		<tag k="ssr:stedsnr" v="605983" />
	</node>
	<node lat="59.24560832941553" lon="5.469538885793344" id="-3118">
		<tag k="name" v="Krostimyr" />
		<tag k="natural" v="wetland" />
		<tag k="ssr:stedsnr" v="666971" />
	</node>
	<node lat="59.2359694422725" lon="5.397386103815204" id="-3143">
=======
	<node id="-36752" lat="59.2359694423" lon="5.39738610382">
>>>>>>> e1d4bc35ff8a6074a6f2e91616a996b547c36f15
		<tag k="name" v="Lindemyra" />
		<tag k="natural" v="wetland" />
		<tag k="ssr:stedsnr" v="788877" />
	</node>
	<node id="-36583" lat="59.1652277811" lon="5.39808056366">
		<tag k="landuse" v="meadow" />
		<tag k="name" v="Stemmen" />
		<tag k="ssr:stedsnr" v="175370" />
	</node>
	<node id="-36420" lat="59.2203499971" lon="5.4747972179">
		<tag k="landuse" v="meadow" />
		<tag k="name" v="Øygardsbrota" />
		<tag k="ssr:stedsnr" v="605983" />
	</node>
	<node id="-36323" lat="59.2137083372" lon="5.38167777509">
		<tag k="landuse" v="meadow" />
		<tag k="name" v="Træet" />
		<tag k="ssr:stedsnr" v="241972" />
	</node>
	<node id="-36609" lat="59.2232944403" lon="5.46609444438">
		<tag k="landuse" v="meadow" />
		<tag k="name" v="Træet" />
		<tag k="ssr:stedsnr" v="302984" />
	</node>
</osm>
