<?xml version="1.0" encoding="UTF-8"?>
<<<<<<< HEAD
<osm version="0.6" generator="osmapis">
	<node lat="59.19272500156204" lon="5.449686107716142" id="-2683">
		<tag k="name" v="Vandåg" />
		<tag k="natural" v="hill" />
		<tag k="place" v="locality" />
		<tag k="ssr:stedsnr" v="235523" />
	</node>
	<node lat="59.17968610885744" lon="5.406347230258266" id="-2686">
		<tag k="name" v="Linderabben" />
		<tag k="natural" v="hill" />
		<tag k="place" v="locality" />
		<tag k="ssr:stedsnr" v="54386" />
	</node>
	<node lat="59.241127780498445" lon="5.4664222293439755" id="-2687">
		<tag k="fixme" v="consider natural=peak for the most distinct mountains in the district" />
		<tag k="name" v="Håklepp" />
		<tag k="natural" v="hill" />
		<tag k="place" v="locality" />
		<tag k="ssr:stedsnr" v="59974" />
	</node>
	<node lat="59.18716388981083" lon="5.387891674524715" id="-2693">
		<tag k="fixme" v="consider natural=peak for the most distinct mountains in the district" />
		<tag k="name" v="Arafjellet" />
=======
<osm generator="osmapis" version="0.6">
	<node id="-36352" lat="59.2225944422" lon="5.49466111031">
		<tag k="name" v="Litlafjellet" />
		<tag k="natural" v="hill" />
		<tag k="place" v="locality" />
		<tag k="ssr:stedsnr" v="484999" />
	</node>
	<node id="-36607" lat="59.2147805562" lon="5.41000000229">
		<tag k="name" v="Ulvåghaugane" />
>>>>>>> e1d4bc35ff8a6074a6f2e91616a996b547c36f15
		<tag k="natural" v="hill" />
		<tag k="place" v="locality" />
		<tag k="ssr:stedsnr" v="302972" />
	</node>
<<<<<<< HEAD
	<node lat="59.21989999746384" lon="5.497875003623169" id="-2704">
		<tag k="fixme" v="multiple name tags, choose one and add the other to alt_name; consider natural=peak for the most distinct mountains in the district" />
		<tag k="name" v="Nipa;Storafjellet" />
		<tag k="natural" v="hill" />
		<tag k="place" v="locality" />
		<tag k="ssr:stedsnr" v="244467" />
	</node>
	<node lat="59.23954999693403" lon="5.465236118022129" id="-2710">
		<tag k="name" v="Litla Håklepp" />
		<tag k="natural" v="hill" />
		<tag k="place" v="locality" />
		<tag k="ssr:stedsnr" v="120979" />
	</node>
	<node lat="59.175522220703385" lon="5.383547217908518" id="-2723">
		<tag k="fixme" v="consider natural=peak for the most distinct mountains in the district" />
		<tag k="name" v="Hagafjellet" />
		<tag k="natural" v="hill" />
		<tag k="place" v="locality" />
		<tag k="ssr:stedsnr" v="206653" />
	</node>
	<node lat="59.22684166895704" lon="5.439000006911271" id="-2733">
		<tag k="name" v="Longhammar" />
		<tag k="natural" v="hill" />
		<tag k="place" v="locality" />
		<tag k="ssr:stedsnr" v="241978" />
	</node>
	<node lat="59.214780556199905" lon="5.410000002291947" id="-2747">
		<tag k="name" v="Ulvåghaugane" />
		<tag k="natural" v="hill" />
		<tag k="place" v="locality" />
		<tag k="ssr:stedsnr" v="302972" />
	</node>
	<node lat="59.1677527758856" lon="5.38803334207806" id="-2752">
		<tag k="fixme" v="consider natural=peak for the most distinct mountains in the district" />
		<tag k="name" v="Vardafjellet" />
		<tag k="natural" v="hill" />
		<tag k="place" v="locality" />
		<tag k="ssr:stedsnr" v="305445" />
	</node>
	<node lat="59.22798611438148" lon="5.495913882961978" id="-2754">
		<tag k="fixme" v="consider natural=peak for the most distinct mountains in the district" />
		<tag k="name" v="Liafjellet" />
		<tag k="natural" v="hill" />
		<tag k="place" v="locality" />
		<tag k="ssr:stedsnr" v="329870" />
	</node>
	<node lat="59.191569448623866" lon="5.460966665027895" id="-2758">
		<tag k="name" v="Høghaug" />
		<tag k="natural" v="hill" />
		<tag k="place" v="locality" />
		<tag k="ssr:stedsnr" v="357464" />
	</node>
	<node lat="59.24003332996286" lon="5.3983944380032005" id="-2767">
		<tag k="fixme" v="consider natural=peak for the most distinct mountains in the district" />
		<tag k="name" v="Halvarsfjellet" />
		<tag k="natural" v="hill" />
		<tag k="place" v="locality" />
		<tag k="ssr:stedsnr" v="485884" />
	</node>
	<node lat="59.21813055507814" lon="5.4808833362074125" id="-2771">
		<tag k="name" v="Krågeskarhaugane" />
		<tag k="natural" v="hill" />
		<tag k="place" v="locality" />
		<tag k="ssr:stedsnr" v="484988" />
	</node>
	<node lat="59.222594442209584" lon="5.494661110309327" id="-2773">
		<tag k="name" v="Litlafjellet" />
		<tag k="natural" v="hill" />
		<tag k="place" v="locality" />
		<tag k="ssr:stedsnr" v="484999" />
	</node>
	<node lat="59.22823333181683" lon="5.47302778148002" id="-2781">
		<tag k="alt_name" v="Varafjellet" />
		<tag k="fixme" v="consider natural=peak for the most distinct mountains in the district" />
		<tag k="name" v="Vardefjellet" />
		<tag k="natural" v="hill" />
		<tag k="place" v="locality" />
		<tag k="ssr:stedsnr" v="487468" />
	</node>
	<node lat="59.23522500385378" lon="5.475919445562026" id="-2786">
		<tag k="alt_name" v="Hetlebrekk" />
		<tag k="name" v="Hellebrekka" />
		<tag k="natural" v="slope" />
		<tag k="place" v="locality" />
		<tag k="ssr:stedsnr" v="426418" />
	</node>
	<node lat="59.17016666973422" lon="5.455372216387271" id="-2794">
		<tag k="name" v="Laksaberget" />
=======
	<node id="-36350" lat="59.2181305551" lon="5.48088333621">
		<tag k="name" v="Krågeskarhaugane" />
		<tag k="natural" v="hill" />
		<tag k="place" v="locality" />
		<tag k="ssr:stedsnr" v="484988" />
	</node>
	<node id="-36731" lat="59.2033694422" lon="5.45139444108">
		<tag k="alt_name" v="Kodlefjellet" />
		<tag k="fixme" v="consider natural=peak for the most distinct mountains in the district" />
		<tag k="name" v="Hatlefjellet" />
		<tag k="natural" v="hill" />
		<tag k="place" v="locality" />
		<tag k="ssr:stedsnr" v="607081" />
	</node>
	<node id="-36346" lat="59.1951444454" lon="5.4523444461">
		<tag k="name" v="Enebor" />
		<tag k="natural" v="hill" />
		<tag k="place" v="locality" />
		<tag k="ssr:stedsnr" v="478503" />
	</node>
	<node id="-36459" lat="59.2127027772" lon="5.42001666448">
		<tag k="name" v="Olahaugane" />
		<tag k="natural" v="hill" />
		<tag k="place" v="locality" />
		<tag k="ssr:stedsnr" v="727980" />
	</node>
	<node id="-36598" lat="59.1755222207" lon="5.38354721791">
		<tag k="fixme" v="consider natural=peak for the most distinct mountains in the district" />
		<tag k="name" v="Hagafjellet" />
		<tag k="natural" v="hill" />
		<tag k="place" v="locality" />
		<tag k="ssr:stedsnr" v="206653" />
	</node>
	<node id="-36469" lat="59.2471499988" lon="5.46846666885">
		<tag k="name" v="Reinafjellet" />
		<tag k="natural" v="cliff" />
		<tag k="ssr:stedsnr" v="909973" />
	</node>
	<node id="-36467" lat="59.2335499958" lon="5.46213888332">
		<tag k="name" v="Bakkane" />
		<tag k="natural" v="slope" />
		<tag k="place" v="locality" />
		<tag k="ssr:stedsnr" v="909910" />
	</node>
	<node id="-36466" lat="59.2281499968" lon="5.44538888194">
		<tag k="name" v="Sæbbøhaugen" />
		<tag k="natural" v="hill" />
		<tag k="place" v="locality" />
		<tag k="ssr:stedsnr" v="909909" />
	</node>
	<node id="-36720" lat="59.2011083342" lon="5.39014443578">
		<tag k="name" v="Otrahaugane" />
		<tag k="natural" v="hill" />
		<tag k="place" v="locality" />
		<tag k="ssr:stedsnr" v="599467" />
	</node>
	<node id="-36463" lat="59.1984361082" lon="5.45235278584">
		<tag k="fixme" v="consider natural=peak for the most distinct mountains in the district" />
		<tag k="name" v="Søra Hatlefjellet" />
		<tag k="natural" v="hill" />
		<tag k="place" v="locality" />
		<tag k="ssr:stedsnr" v="903466" />
	</node>
	<node id="-36589" lat="59.2192805582" lon="5.44610278442">
		<tag k="fixme" v="consider natural=peak for the most distinct mountains in the district" />
		<tag k="name" v="Glette" />
>>>>>>> e1d4bc35ff8a6074a6f2e91616a996b547c36f15
		<tag k="natural" v="hill" />
		<tag k="place" v="locality" />
		<tag k="ssr:stedsnr" v="181982" />
	</node>
<<<<<<< HEAD
	<node lat="59.195144445398874" lon="5.452344446099703" id="-2797">
		<tag k="name" v="Enebor" />
		<tag k="natural" v="hill" />
		<tag k="place" v="locality" />
		<tag k="ssr:stedsnr" v="478503" />
	</node>
	<node lat="59.229666662583156" lon="5.382144441640419" id="-2804">
		<tag k="fixme" v="consider natural=peak for the most distinct mountains in the district" />
		<tag k="name" v="Vierfjellet" />
		<tag k="natural" v="hill" />
		<tag k="place" v="locality" />
		<tag k="ssr:stedsnr" v="545880" />
	</node>
	<node lat="59.20855833512746" lon="5.396263882598381" id="-2806">
		<tag k="fixme" v="consider natural=peak for the most distinct mountains in the district" />
		<tag k="name" v="Håmannsnuten" />
		<tag k="natural" v="hill" />
		<tag k="place" v="locality" />
		<tag k="ssr:stedsnr" v="545975" />
	</node>
	<node lat="59.20110833421069" lon="5.3901444357835935" id="-2822">
		<tag k="name" v="Otrahaugane" />
		<tag k="natural" v="hill" />
		<tag k="place" v="locality" />
		<tag k="ssr:stedsnr" v="599467" />
	</node>
	<node lat="59.198033335600606" lon="5.441599991321494" id="-2835">
		<tag k="name" v="Husafjellet" />
		<tag k="natural" v="hill" />
		<tag k="place" v="locality" />
		<tag k="ssr:stedsnr" v="660504" />
	</node>
	<node lat="59.233338887877444" lon="5.41046943613732" id="-2855">
		<tag k="fixme" v="consider natural=peak for the most distinct mountains in the district" />
		<tag k="name" v="Spikfjell" />
		<tag k="natural" v="hill" />
		<tag k="place" v="locality" />
		<tag k="ssr:stedsnr" v="727889" />
	</node>
	<node lat="59.23776666471045" lon="5.411055561828947" id="-2856">
		<tag k="fixme" v="consider natural=peak for the most distinct mountains in the district" />
		<tag k="name" v="Stoggfjell" />
		<tag k="natural" v="hill" />
		<tag k="place" v="locality" />
		<tag k="ssr:stedsnr" v="727891" />
	</node>
	<node lat="59.22096111102748" lon="5.408263882613426" id="-2857">
		<tag k="fixme" v="consider natural=peak for the most distinct mountains in the district" />
		<tag k="name" v="Varen" />
		<tag k="natural" v="hill" />
		<tag k="place" v="locality" />
		<tag k="ssr:stedsnr" v="727977" />
	</node>
	<node lat="59.212702777247365" lon="5.420016664478855" id="-2858">
		<tag k="name" v="Olahaugane" />
		<tag k="natural" v="hill" />
		<tag k="place" v="locality" />
		<tag k="ssr:stedsnr" v="727980" />
	</node>
	<node lat="59.22626388977043" lon="5.384230547657463" id="-2862">
		<tag k="fixme" v="multiple name tags, choose one and add the other to alt_name" />
		<tag k="name" v="Flatberget;Ørnå" />
=======
	<node id="-36588" lat="59.2333388879" lon="5.41046943614">
		<tag k="fixme" v="consider natural=peak for the most distinct mountains in the district" />
		<tag k="name" v="Kodlefjell" />
		<tag k="natural" v="hill" />
		<tag k="place" v="locality" />
		<tag k="ssr:stedsnr" v="181895" />
	</node>
	<node id="-36587" lat="59.2274888863" lon="5.37628888797">
		<tag k="name" v="Fladberg" />
		<tag k="natural" v="hill" />
		<tag k="place" v="locality" />
		<tag k="ssr:stedsnr" v="181884" />
	</node>
	<node id="-36458" lat="59.220961111" lon="5.40826388261">
		<tag k="fixme" v="consider natural=peak for the most distinct mountains in the district" />
		<tag k="name" v="Varen" />
		<tag k="natural" v="hill" />
		<tag k="place" v="locality" />
		<tag k="ssr:stedsnr" v="727977" />
	</node>
	<node id="-36713" lat="59.2391666686" lon="5.48166665944">
		<tag k="alt_name" v="Straen" />
		<tag k="name" v="Viervikstraen" />
		<tag k="natural" v="slope" />
		<tag k="place" v="locality" />
		<tag k="ssr:stedsnr" v="570593" />
	</node>
	<node id="-36326" lat="59.2198999975" lon="5.49787500362">
		<tag k="fixme" v="multiple name tags, choose one and add the other to alt_name; consider natural=peak for the most distinct mountains in the district" />
		<tag k="name" v="Nipa;Storafjellet" />
		<tag k="natural" v="hill" />
		<tag k="place" v="locality" />
		<tag k="ssr:stedsnr" v="244467" />
	</node>
	<node id="-36497" lat="59.2166499966" lon="5.49833333384">
		<tag k="name" v="Torvberget" />
		<tag k="natural" v="hill" />
		<tag k="place" v="locality" />
		<tag k="ssr:stedsnr" v="814919" />
	</node>
	<node id="-36451" lat="59.1980333356" lon="5.44159999132">
		<tag k="name" v="Husafjellet" />
		<tag k="natural" v="hill" />
		<tag k="place" v="locality" />
		<tag k="ssr:stedsnr" v="660504" />
	</node>
	<node id="-36575" lat="59.1780916651" lon="5.43551389128">
		<tag k="fixme" v="consider natural=peak for the most distinct mountains in the district" />
		<tag k="name" v="Hognåsen" />
		<tag k="natural" v="hill" />
		<tag k="place" v="locality" />
		<tag k="ssr:stedsnr" v="123483" />
	</node>
	<node id="-36701" lat="59.2085583351" lon="5.3962638826">
		<tag k="fixme" v="consider natural=peak for the most distinct mountains in the district" />
		<tag k="name" v="Håmannsnuten" />
		<tag k="natural" v="hill" />
		<tag k="place" v="locality" />
		<tag k="ssr:stedsnr" v="545975" />
	</node>
	<node id="-36700" lat="59.2217249965" lon="5.41437221591">
		<tag k="name" v="Svenshidleren" />
		<tag k="natural" v="valley" />
		<tag k="place" v="locality" />
		<tag k="ssr:stedsnr" v="545969" />
	</node>
	<node id="-36571" lat="59.160694448" lon="5.39208055447">
		<tag k="name" v="Klepphaugen" />
>>>>>>> e1d4bc35ff8a6074a6f2e91616a996b547c36f15
		<tag k="natural" v="hill" />
		<tag k="place" v="locality" />
		<tag k="ssr:stedsnr" v="123416" />
	</node>
<<<<<<< HEAD
	<node lat="59.19511388833769" lon="5.406124993639438" id="-2867">
		<tag k="name" v="Håfjellet" />
		<tag k="natural" v="hill" />
		<tag k="place" v="locality" />
		<tag k="ssr:stedsnr" v="903455" />
	</node>
	<node lat="59.198436108247385" lon="5.452352785836301" id="-2868">
		<tag k="fixme" v="consider natural=peak for the most distinct mountains in the district" />
		<tag k="name" v="Søra Hatlefjellet" />
		<tag k="natural" v="hill" />
		<tag k="place" v="locality" />
		<tag k="ssr:stedsnr" v="903466" />
	</node>
	<node lat="59.24714999882068" lon="5.4684666688462995" id="-2872">
		<tag k="name" v="Reinafjellet" />
		<tag k="natural" v="cliff" />
		<tag k="ssr:stedsnr" v="909973" />
	</node>
	<node lat="59.19798333519404" lon="5.416950004664" id="-2874">
=======
	<node id="-36697" lat="59.2333472241" lon="5.43235832851">
		<tag k="name" v="Sæbøstølane" />
		<tag k="natural" v="slope" />
		<tag k="place" v="locality" />
		<tag k="ssr:stedsnr" v="545891" />
	</node>
	<node id="-36696" lat="59.2296666626" lon="5.38214444164">
		<tag k="fixme" v="consider natural=peak for the most distinct mountains in the district" />
		<tag k="name" v="Vierfjellet" />
		<tag k="natural" v="hill" />
		<tag k="place" v="locality" />
		<tag k="ssr:stedsnr" v="545880" />
	</node>
	<node id="-36437" lat="59.1992500011" lon="5.42276665793">
>>>>>>> e1d4bc35ff8a6074a6f2e91616a996b547c36f15
		<tag k="fixme" v="consider natural=peak for the most distinct mountains in the district" />
		<tag k="name" v="Rindafjellet" />
		<tag k="natural" v="hill" />
		<tag k="place" v="locality" />
		<tag k="ssr:stedsnr" v="729068" />
	</node>
<<<<<<< HEAD
	<node lat="59.22776667094166" lon="5.469613895574037" id="-2875">
		<tag k="name" v="Orrehammaren" />
		<tag k="natural" v="cliff" />
		<tag k="ssr:stedsnr" v="787891" />
	</node>
	<node lat="59.21813055507814" lon="5.4808833362074125" id="-2876">
		<tag k="name" v="Ospehaugane" />
		<tag k="natural" v="hill" />
		<tag k="place" v="locality" />
		<tag k="ssr:stedsnr" v="787986" />
	</node>
	<node lat="59.21008888672122" lon="5.451247230031792" id="-2878">
=======
	<node id="-36564" lat="59.2366944454" lon="5.40862499762">
		<tag k="name" v="Stoggdalen" />
		<tag k="natural" v="valley" />
		<tag k="place" v="locality" />
		<tag k="ssr:stedsnr" v="121898" />
	</node>
	<node id="-36430" lat="59.2333388879" lon="5.41046943614">
>>>>>>> e1d4bc35ff8a6074a6f2e91616a996b547c36f15
		<tag k="fixme" v="consider natural=peak for the most distinct mountains in the district" />
		<tag k="name" v="Spikfjell" />
		<tag k="natural" v="hill" />
		<tag k="place" v="locality" />
		<tag k="ssr:stedsnr" v="727889" />
	</node>
<<<<<<< HEAD
	<node lat="59.21664999655464" lon="5.498333333836586" id="-2887">
		<tag k="name" v="Torvberget" />
		<tag k="natural" v="hill" />
		<tag k="place" v="locality" />
		<tag k="ssr:stedsnr" v="814919" />
	</node>
	<node lat="59.228149996765964" lon="5.4453888819381175" id="-2906">
		<tag k="name" v="Sæbbøhaugen" />
		<tag k="natural" v="hill" />
		<tag k="place" v="locality" />
		<tag k="ssr:stedsnr" v="909909" />
	</node>
	<node lat="59.233549995829144" lon="5.462138883322272" id="-2907">
		<tag k="name" v="Bakkane" />
		<tag k="natural" v="slope" />
		<tag k="place" v="locality" />
		<tag k="ssr:stedsnr" v="909910" />
	</node>
	<node lat="59.22808055413365" lon="5.493763888175467" id="-2924">
		<tag k="fixme" v="consider natural=peak for the most distinct mountains in the district" />
		<tag k="name" v="Heigrafjellet" />
		<tag k="natural" v="hill" />
		<tag k="place" v="locality" />
		<tag k="ssr:stedsnr" v="969975" />
	</node>
	<node lat="59.202597220765085" lon="5.436602769814974" id="-2946">
		<tag k="fixme" v="consider natural=peak for the most distinct mountains in the district" />
		<tag k="name" v="Skarstadfjellet" />
		<tag k="natural" v="hill" />
		<tag k="place" v="locality" />
		<tag k="ssr:stedsnr" v="54500" />
	</node>
	<node lat="59.19996944456045" lon="5.419144436238096" id="-2955">
		<tag k="name" v="Dagslandsdalen" />
		<tag k="natural" v="valley" />
		<tag k="place" v="locality" />
		<tag k="ssr:stedsnr" v="114508" />
	</node>
	<node lat="59.2366944453949" lon="5.408624997624384" id="-2959">
		<tag k="name" v="Stoggdalen" />
		<tag k="natural" v="valley" />
		<tag k="place" v="locality" />
		<tag k="ssr:stedsnr" v="121898" />
	</node>
	<node lat="59.16069444797459" lon="5.392080554471159" id="-2963">
		<tag k="name" v="Klepphaugen" />
		<tag k="natural" v="hill" />
		<tag k="place" v="locality" />
		<tag k="ssr:stedsnr" v="123416" />
	</node>
	<node lat="59.17809166508881" lon="5.435513891283561" id="-2965">
		<tag k="fixme" v="consider natural=peak for the most distinct mountains in the district" />
		<tag k="name" v="Hognåsen" />
		<tag k="natural" v="hill" />
		<tag k="place" v="locality" />
		<tag k="ssr:stedsnr" v="123483" />
	</node>
	<node lat="59.22748888630943" lon="5.376288887965846" id="-2975">
		<tag k="name" v="Fladberg" />
		<tag k="natural" v="hill" />
		<tag k="place" v="locality" />
		<tag k="ssr:stedsnr" v="181884" />
	</node>
	<node lat="59.233338887877444" lon="5.41046943613732" id="-2976">
		<tag k="fixme" v="consider natural=peak for the most distinct mountains in the district" />
		<tag k="name" v="Kodlefjell" />
		<tag k="natural" v="hill" />
		<tag k="place" v="locality" />
		<tag k="ssr:stedsnr" v="181895" />
	</node>
	<node lat="59.21928055817444" lon="5.446102784421383" id="-2977">
		<tag k="fixme" v="consider natural=peak for the most distinct mountains in the district" />
		<tag k="name" v="Glette" />
		<tag k="natural" v="hill" />
		<tag k="place" v="locality" />
		<tag k="ssr:stedsnr" v="181982" />
	</node>
	<node lat="59.16959444357795" lon="5.391858330665528" id="-2990">
		<tag k="name" v="Husafjellet" />
		<tag k="natural" v="hill" />
		<tag k="place" v="locality" />
		<tag k="ssr:stedsnr" v="296331" />
	</node>
	<node lat="59.24741111217489" lon="5.473388888993976" id="-3020">
		<tag k="name" v="Otrahaugen" />
		<tag k="natural" v="hill" />
		<tag k="place" v="locality" />
		<tag k="ssr:stedsnr" v="363970" />
	</node>
	<node lat="59.21801389352544" lon="5.420661118150863" id="-3035">
		<tag k="fixme" v="consider natural=peak for the most distinct mountains in the district" />
		<tag k="name" v="Boknafjellet" />
		<tag k="natural" v="hill" />
		<tag k="place" v="locality" />
		<tag k="ssr:stedsnr" v="366113" />
	</node>
	<node lat="59.25830000263831" lon="5.465002770099864" id="-3041">
		<tag k="fixme" v="consider natural=peak for the most distinct mountains in the district" />
		<tag k="name" v="Liafjellet" />
		<tag k="natural" v="hill" />
		<tag k="place" v="locality" />
		<tag k="ssr:stedsnr" v="391666" />
	</node>
	<node lat="59.19852777699321" lon="5.3824444378047405" id="-3048">
		<tag k="name" v="Kilshaugen" />
		<tag k="natural" v="hill" />
		<tag k="place" v="locality" />
		<tag k="ssr:stedsnr" v="418460" />
	</node>
	<node lat="59.19726944271794" lon="5.3885861158549995" id="-3049">
		<tag k="name" v="Baståsen" />
		<tag k="natural" v="hill" />
		<tag k="place" v="locality" />
		<tag k="ssr:stedsnr" v="418463" />
	</node>
	<node lat="59.233013889866555" lon="5.397136117234377" id="-3051">
		<tag k="fixme" v="consider natural=peak for the most distinct mountains in the district" />
		<tag k="name" v="Buarfjellet" />
		<tag k="natural" v="hill" />
		<tag k="place" v="locality" />
		<tag k="ssr:stedsnr" v="424883" />
	</node>
	<node lat="59.22619166832447" lon="5.412727784668079" id="-3053">
		<tag k="name" v="Djubadalen" />
		<tag k="natural" v="valley" />
		<tag k="place" v="locality" />
		<tag k="ssr:stedsnr" v="424972" />
	</node>
	<node lat="59.18111666703386" lon="5.3927277700905805" id="-3064">
		<tag k="name" v="Jøsenfjellet" />
		<tag k="natural" v="hill" />
		<tag k="place" v="locality" />
		<tag k="ssr:stedsnr" v="539318" />
	</node>
	<node lat="59.168597221475125" lon="5.450877777107103" id="-3070">
		<tag k="name" v="Valberg" />
		<tag k="natural" v="hill" />
		<tag k="place" v="locality" />
		<tag k="ssr:stedsnr" v="539051" />
	</node>
	<node lat="59.20057778060576" lon="5.440633339536391" id="-3075">
		<tag k="fixme" v="consider natural=peak for the most distinct mountains in the district" />
		<tag k="name" v="Steinfjellet" />
		<tag k="natural" v="hill" />
		<tag k="place" v="locality" />
		<tag k="ssr:stedsnr" v="539451" />
	</node>
	<node lat="59.19220278117774" lon="5.424074993347595" id="-3076">
		<tag k="name" v="Bragabakkane" />
		<tag k="natural" v="slope" />
		<tag k="place" v="locality" />
		<tag k="ssr:stedsnr" v="539453" />
	</node>
	<node lat="59.233347224124" lon="5.4323583285103165" id="-3077">
		<tag k="name" v="Sæbøstølane" />
		<tag k="natural" v="slope" />
		<tag k="place" v="locality" />
		<tag k="ssr:stedsnr" v="545891" />
	</node>
	<node lat="59.22172499654516" lon="5.414372215907145" id="-3080">
		<tag k="name" v="Svenshidleren" />
		<tag k="natural" v="valley" />
=======
	<node id="-36306" lat="59.1999694446" lon="5.41914443624">
		<tag k="name" v="Dagslandsdalen" />
		<tag k="natural" v="valley" />
		<tag k="place" v="locality" />
		<tag k="ssr:stedsnr" v="114508" />
	</node>
	<node id="-36688" lat="59.181116667" lon="5.39272777009">
		<tag k="name" v="Jøsenfjellet" />
		<tag k="natural" v="hill" />
		<tag k="place" v="locality" />
		<tag k="ssr:stedsnr" v="539318" />
	</node>
	<node id="-36431" lat="59.2377666647" lon="5.41105556183">
		<tag k="fixme" v="consider natural=peak for the most distinct mountains in the district" />
		<tag k="name" v="Stoggfjell" />
		<tag k="natural" v="hill" />
		<tag k="place" v="locality" />
		<tag k="ssr:stedsnr" v="727891" />
	</node>
	<node id="-36686" lat="59.1922027812" lon="5.42407499335">
		<tag k="name" v="Bragabakkane" />
		<tag k="natural" v="slope" />
		<tag k="place" v="locality" />
		<tag k="ssr:stedsnr" v="539453" />
	</node>
	<node id="-36685" lat="59.2005777806" lon="5.44063333954">
		<tag k="fixme" v="consider natural=peak for the most distinct mountains in the district" />
		<tag k="name" v="Steinfjellet" />
		<tag k="natural" v="hill" />
		<tag k="place" v="locality" />
		<tag k="ssr:stedsnr" v="539451" />
	</node>
	<node id="-36684" lat="59.1685972215" lon="5.45087777711">
		<tag k="name" v="Valberg" />
		<tag k="natural" v="hill" />
		<tag k="place" v="locality" />
		<tag k="ssr:stedsnr" v="539051" />
	</node>
	<node id="-36514" lat="59.2280805541" lon="5.49376388818">
		<tag k="fixme" v="consider natural=peak for the most distinct mountains in the district" />
		<tag k="name" v="Heigrafjellet" />
		<tag k="natural" v="hill" />
		<tag k="place" v="locality" />
		<tag k="ssr:stedsnr" v="969975" />
	</node>
	<node id="-36552" lat="59.1871638898" lon="5.38789167452">
		<tag k="fixme" v="consider natural=peak for the most distinct mountains in the district" />
		<tag k="name" v="Arafjellet" />
		<tag k="natural" v="hill" />
		<tag k="place" v="locality" />
		<tag k="ssr:stedsnr" v="62069" />
	</node>
	<node id="-36295" lat="59.226841669" lon="5.43900000691">
		<tag k="name" v="Longhammar" />
		<tag k="natural" v="hill" />
		<tag k="place" v="locality" />
		<tag k="ssr:stedsnr" v="241978" />
	</node>
	<node id="-36421" lat="59.221750004" lon="5.48101944544">
		<tag k="name" v="Kastdal" />
		<tag k="natural" v="valley" />
		<tag k="place" v="locality" />
		<tag k="ssr:stedsnr" v="605986" />
	</node>
	<node id="-36675" lat="59.2261916683" lon="5.41272778467">
		<tag k="name" v="Djubadalen" />
		<tag k="natural" v="valley" />
		<tag k="place" v="locality" />
		<tag k="ssr:stedsnr" v="424972" />
	</node>
	<node id="-36545" lat="59.2411277805" lon="5.46642222934">
		<tag k="fixme" v="consider natural=peak for the most distinct mountains in the district" />
		<tag k="name" v="Håklepp" />
		<tag k="natural" v="hill" />
		<tag k="place" v="locality" />
		<tag k="ssr:stedsnr" v="59974" />
	</node>
	<node id="-36543" lat="59.2025972208" lon="5.43660276981">
		<tag k="fixme" v="consider natural=peak for the most distinct mountains in the district" />
		<tag k="name" v="Skarstadfjellet" />
		<tag k="natural" v="hill" />
		<tag k="place" v="locality" />
		<tag k="ssr:stedsnr" v="54500" />
	</node>
	<node id="-36541" lat="59.1796861089" lon="5.40634723026">
		<tag k="name" v="Linderabben" />
		<tag k="natural" v="hill" />
		<tag k="place" v="locality" />
		<tag k="ssr:stedsnr" v="54386" />
	</node>
	<node id="-36668" lat="59.1972694427" lon="5.38858611586">
		<tag k="name" v="Baståsen" />
		<tag k="natural" v="hill" />
		<tag k="place" v="locality" />
		<tag k="ssr:stedsnr" v="418463" />
	</node>
	<node id="-36667" lat="59.198527777" lon="5.3824444378">
		<tag k="name" v="Kilshaugen" />
		<tag k="natural" v="hill" />
		<tag k="place" v="locality" />
		<tag k="ssr:stedsnr" v="418460" />
	</node>
	<node id="-36793" lat="59.2400333354" lon="5.38444721353">
		<tag k="name" v="Lammaneshaugen" />
		<tag k="natural" v="hill" />
		<tag k="place" v="locality" />
		<tag k="ssr:stedsnr" v="970591" />
	</node>
	<node id="-36489" lat="59.2181305551" lon="5.48088333621">
		<tag k="name" v="Ospehaugane" />
		<tag k="natural" v="hill" />
		<tag k="place" v="locality" />
		<tag k="ssr:stedsnr" v="787986" />
	</node>
	<node id="-36404" lat="61.2177777797" lon="6.59979722139">
		<tag k="alt_name" v="Alskori" />
		<tag k="name" v="Almskori" />
		<tag k="place" v="locality" />
		<tag k="ssr:stedsnr" v="677966" />
	</node>
	<node id="-36659" lat="59.2180138935" lon="5.42066111815">
		<tag k="fixme" v="consider natural=peak for the most distinct mountains in the district" />
		<tag k="name" v="Boknafjellet" />
		<tag k="natural" v="hill" />
		<tag k="place" v="locality" />
		<tag k="ssr:stedsnr" v="366113" />
	</node>
	<node id="-36397" lat="59.1701666697" lon="5.45537221639">
		<tag k="name" v="Laksaberget" />
		<tag k="natural" v="hill" />
		<tag k="place" v="locality" />
		<tag k="ssr:stedsnr" v="478058" />
	</node>
	<node id="-36778" lat="59.2176000019" lon="5.38528055086">
		<tag k="name" v="Mjelkestøhompen" />
		<tag k="natural" v="hill" />
		<tag k="place" v="locality" />
		<tag k="ssr:stedsnr" v="848966" />
	</node>
	<node id="-36777" lat="59.2125749978" lon="5.39140278246">
		<tag k="fixme" v="consider natural=peak for the most distinct mountains in the district" />
		<tag k="name" v="Trosnavågfjellet" />
		<tag k="natural" v="hill" />
		<tag k="place" v="locality" />
		<tag k="ssr:stedsnr" v="848964" />
	</node>
	<node id="-36357" lat="59.2282333318" lon="5.47302778148">
		<tag k="alt_name" v="Varafjellet" />
		<tag k="fixme" v="consider natural=peak for the most distinct mountains in the district" />
		<tag k="name" v="Vardefjellet" />
		<tag k="natural" v="hill" />
		<tag k="place" v="locality" />
		<tag k="ssr:stedsnr" v="487468" />
	</node>
	<node id="-36316" lat="59.1695944436" lon="5.39185833067">
		<tag k="name" v="Husafjellet" />
		<tag k="natural" v="hill" />
		<tag k="place" v="locality" />
		<tag k="ssr:stedsnr" v="296331" />
	</node>
	<node id="-36774" lat="59.1995472239" lon="5.45297221432">
		<tag k="fixme" v="consider natural=peak for the most distinct mountains in the district" />
		<tag k="name" v="Nordra Hatlefjellet" />
		<tag k="natural" v="hill" />
		<tag k="place" v="locality" />
		<tag k="ssr:stedsnr" v="843494" />
	</node>
	<node id="-36773" lat="59.1886749961" lon="5.4176638877">
		<tag k="name" v="Vallberg" />
		<tag k="natural" v="hill" />
		<tag k="place" v="locality" />
		<tag k="ssr:stedsnr" v="843490" />
	</node>
	<node id="-36642" lat="59.2474111122" lon="5.47338888899">
		<tag k="name" v="Otrahaugen" />
		<tag k="natural" v="hill" />
		<tag k="place" v="locality" />
		<tag k="ssr:stedsnr" v="363970" />
	</node>
	<node id="-36513" lat="59.2209138872" lon="5.40263888054">
		<tag k="fixme" v="consider natural=peak for the most distinct mountains in the district" />
		<tag k="name" v="Skjenet" />
		<tag k="natural" v="hill" />
		<tag k="place" v="locality" />
		<tag k="ssr:stedsnr" v="969961" />
	</node>
	<node id="-36383" lat="59.2189638905" lon="5.41990555623">
		<tag k="fixme" v="consider natural=peak for the most distinct mountains in the district" />
		<tag k="name" v="Nip" />
		<tag k="natural" v="hill" />
		<tag k="place" v="locality" />
		<tag k="ssr:stedsnr" v="666977" />
	</node>
	<node id="-36293" lat="59.1927250016" lon="5.44968610772">
		<tag k="name" v="Vandåg" />
		<tag k="natural" v="hill" />
>>>>>>> e1d4bc35ff8a6074a6f2e91616a996b547c36f15
		<tag k="place" v="locality" />
		<tag k="ssr:stedsnr" v="235523" />
	</node>
<<<<<<< HEAD
	<node lat="59.23916666859029" lon="5.4816666594358825" id="-3086">
		<tag k="alt_name" v="Straen" />
		<tag k="name" v="Viervikstraen" />
		<tag k="natural" v="slope" />
		<tag k="place" v="locality" />
		<tag k="ssr:stedsnr" v="570593" />
	</node>
	<node lat="59.22175000396524" lon="5.481019445437361" id="-3097">
		<tag k="name" v="Kastdal" />
		<tag k="natural" v="valley" />
		<tag k="place" v="locality" />
		<tag k="ssr:stedsnr" v="605986" />
	</node>
	<node lat="59.20336944219069" lon="5.451394441079252" id="-3099">
		<tag k="alt_name" v="Kodlefjellet" />
		<tag k="fixme" v="consider natural=peak for the most distinct mountains in the district" />
		<tag k="name" v="Hatlefjellet" />
		<tag k="natural" v="hill" />
		<tag k="place" v="locality" />
		<tag k="ssr:stedsnr" v="607081" />
	</node>
	<node lat="59.233205553978564" lon="5.490555558345729" id="-3114">
		<tag k="alt_name" v="Straen" />
		<tag k="name" v="Vågastraen" />
		<tag k="natural" v="slope" />
		<tag k="place" v="locality" />
		<tag k="ssr:stedsnr" v="632845" />
	</node>
	<node lat="59.21896389049191" lon="5.419905556225228" id="-3119">
		<tag k="fixme" v="consider natural=peak for the most distinct mountains in the district" />
		<tag k="name" v="Nip" />
		<tag k="natural" v="hill" />
		<tag k="place" v="locality" />
		<tag k="ssr:stedsnr" v="666977" />
	</node>
	<node lat="59.199250001083136" lon="5.422766657926955" id="-3134">
=======
	<node id="-36637" lat="59.1915694486" lon="5.46096666503">
		<tag k="name" v="Høghaug" />
		<tag k="natural" v="hill" />
		<tag k="place" v="locality" />
		<tag k="ssr:stedsnr" v="357464" />
	</node>
	<node id="-36507" lat="59.1951138883" lon="5.40612499364">
		<tag k="name" v="Håfjellet" />
		<tag k="natural" v="hill" />
		<tag k="place" v="locality" />
		<tag k="ssr:stedsnr" v="903455" />
	</node>
	<node id="-36370" lat="59.2352250039" lon="5.47591944556">
		<tag k="alt_name" v="Hetlebrekk" />
		<tag k="name" v="Hellebrekka" />
		<tag k="natural" v="slope" />
		<tag k="place" v="locality" />
		<tag k="ssr:stedsnr" v="426418" />
	</node>
	<node id="-36753" lat="59.2364166633" lon="5.39472500344">
		<tag k="fixme" v="consider natural=peak for the most distinct mountains in the district" />
		<tag k="name" v="Linderabben" />
		<tag k="natural" v="hill" />
		<tag k="place" v="locality" />
		<tag k="ssr:stedsnr" v="788878" />
	</node>
	<node id="-36751" lat="59.2277666709" lon="5.46961389557">
		<tag k="name" v="Orrehammaren" />
		<tag k="natural" v="cliff" />
		<tag k="ssr:stedsnr" v="787891" />
	</node>
	<node id="-36622" lat="59.2279861144" lon="5.49591388296">
>>>>>>> e1d4bc35ff8a6074a6f2e91616a996b547c36f15
		<tag k="fixme" v="consider natural=peak for the most distinct mountains in the district" />
		<tag k="name" v="Rindafjellet" />
		<tag k="natural" v="hill" />
		<tag k="place" v="locality" />
		<tag k="ssr:stedsnr" v="729068" />
	</node>
<<<<<<< HEAD
	<node lat="59.21264166994443" lon="5.439411105633552" id="-3142">
		<tag k="fixme" v="consider natural=peak for the most distinct mountains in the district" />
		<tag k="name" v="Hest" />
		<tag k="natural" v="hill" />
		<tag k="place" v="locality" />
		<tag k="ssr:stedsnr" v="787978" />
	</node>
	<node lat="59.23641666326437" lon="5.394725003442877" id="-3144">
		<tag k="fixme" v="consider natural=peak for the most distinct mountains in the district" />
		<tag k="name" v="Linderabben" />
		<tag k="natural" v="hill" />
		<tag k="place" v="locality" />
		<tag k="ssr:stedsnr" v="788878" />
	</node>
	<node lat="59.18867499606977" lon="5.417663887695096" id="-3162">
		<tag k="name" v="Vallberg" />
		<tag k="natural" v="hill" />
		<tag k="place" v="locality" />
		<tag k="ssr:stedsnr" v="843490" />
	</node>
	<node lat="59.199547223859994" lon="5.452972214315221" id="-3163">
		<tag k="fixme" v="consider natural=peak for the most distinct mountains in the district" />
		<tag k="name" v="Nordra Hatlefjellet" />
		<tag k="natural" v="hill" />
		<tag k="place" v="locality" />
		<tag k="ssr:stedsnr" v="843494" />
	</node>
	<node lat="59.21257499780992" lon="5.391402782464083" id="-3166">
		<tag k="fixme" v="consider natural=peak for the most distinct mountains in the district" />
		<tag k="name" v="Trosnavågfjellet" />
		<tag k="natural" v="hill" />
		<tag k="place" v="locality" />
		<tag k="ssr:stedsnr" v="848964" />
	</node>
	<node lat="59.217600001897154" lon="5.385280550858637" id="-3167">
		<tag k="name" v="Mjelkestøhompen" />
		<tag k="natural" v="hill" />
		<tag k="place" v="locality" />
		<tag k="ssr:stedsnr" v="848966" />
	</node>
	<node lat="59.22091388723108" lon="5.402638880535471" id="-3178">
		<tag k="fixme" v="consider natural=peak for the most distinct mountains in the district" />
		<tag k="name" v="Skjenet" />
		<tag k="natural" v="hill" />
		<tag k="place" v="locality" />
		<tag k="ssr:stedsnr" v="969961" />
	</node>
	<node lat="59.24003333541755" lon="5.384447213529753" id="-3179">
		<tag k="name" v="Lammaneshaugen" />
		<tag k="natural" v="hill" />
		<tag k="place" v="locality" />
		<tag k="ssr:stedsnr" v="970591" />
=======
	<node id="-36562" lat="59.2395499969" lon="5.46523611802">
		<tag k="name" v="Litla Håklepp" />
		<tag k="natural" v="hill" />
		<tag k="place" v="locality" />
		<tag k="ssr:stedsnr" v="120979" />
	</node>
	<node id="-36364" lat="59.2583000026" lon="5.4650027701">
		<tag k="fixme" v="consider natural=peak for the most distinct mountains in the district" />
		<tag k="name" v="Liafjellet" />
		<tag k="natural" v="hill" />
		<tag k="place" v="locality" />
		<tag k="ssr:stedsnr" v="391666" />
	</node>
	<node id="-36491" lat="59.2100888867" lon="5.45124723003">
		<tag k="fixme" v="consider natural=peak for the most distinct mountains in the district" />
		<tag k="name" v="Linefjellet" />
		<tag k="natural" v="hill" />
		<tag k="place" v="locality" />
		<tag k="ssr:stedsnr" v="787992" />
	</node>
	<node id="-36746" lat="59.233205554" lon="5.49055555835">
		<tag k="alt_name" v="Straen" />
		<tag k="name" v="Vågastraen" />
		<tag k="natural" v="slope" />
		<tag k="place" v="locality" />
		<tag k="ssr:stedsnr" v="632845" />
	</node>
	<node id="-36617" lat="59.1677527759" lon="5.38803334208">
		<tag k="fixme" v="consider natural=peak for the most distinct mountains in the district" />
		<tag k="name" v="Vardafjellet" />
		<tag k="natural" v="hill" />
		<tag k="place" v="locality" />
		<tag k="ssr:stedsnr" v="305445" />
	</node>
	<node id="-36488" lat="59.2126416699" lon="5.43941110563">
		<tag k="fixme" v="consider natural=peak for the most distinct mountains in the district" />
		<tag k="name" v="Hest" />
		<tag k="natural" v="hill" />
		<tag k="place" v="locality" />
		<tag k="ssr:stedsnr" v="787978" />
	</node>
	<node id="-36750" lat="59.1979833352" lon="5.41695000466">
		<tag k="fixme" v="consider natural=peak for the most distinct mountains in the district" />
		<tag k="name" v="Grønestadfjellet" />
		<tag k="natural" v="hill" />
		<tag k="place" v="locality" />
		<tag k="ssr:stedsnr" v="782447" />
	</node>
	<node id="-36673" lat="59.2330138899" lon="5.39713611723">
		<tag k="fixme" v="consider natural=peak for the most distinct mountains in the district" />
		<tag k="name" v="Buarfjellet" />
		<tag k="natural" v="hill" />
		<tag k="place" v="locality" />
		<tag k="ssr:stedsnr" v="424883" />
	</node>
	<node id="-36354" lat="59.24003333" lon="5.398394438">
		<tag k="fixme" v="consider natural=peak for the most distinct mountains in the district" />
		<tag k="name" v="Halvarsfjellet" />
		<tag k="natural" v="hill" />
		<tag k="place" v="locality" />
		<tag k="ssr:stedsnr" v="485884" />
	</node>
	<node id="-36440" lat="59.2262638898" lon="5.38423054766">
		<tag k="fixme" v="multiple name tags, choose one and add the other to alt_name" />
		<tag k="name" v="Flatberget;Ørnå" />
		<tag k="natural" v="hill" />
		<tag k="place" v="locality" />
		<tag k="ssr:stedsnr" v="730106" />
>>>>>>> e1d4bc35ff8a6074a6f2e91616a996b547c36f15
	</node>
</osm>
