<?xml version="1.0" encoding="UTF-8"?>
<<<<<<< HEAD
<osm version="0.6" generator="osmapis">
	<node lat="59.22804722196756" lon="5.392383330640452" id="-2672">
		<tag k="alt_name" v="Breidvik" />
		<tag k="name" v="Breivik" />
=======
<osm generator="osmapis" version="0.6">
	<node id="-36798" lat="59.8279125227" lon="9.70560369472">
		<tag k="name" v="Grølla" />
		<tag k="natural" v="water" />
		<tag k="ssr:stedsnr" v="489738" />
		<tag k="water" v="lake" />
	</node>
	<node id="-36796" lat="59.2339882316" lon="5.55196364083">
		<tag k="fixme" v="consider place=hamlet" />
		<tag k="name" v="Nautøya" />
>>>>>>> e1d4bc35ff8a6074a6f2e91616a996b547c36f15
		<tag k="place" v="farm" />
		<tag k="ssr:stedsnr" v="1003" />
	</node>
<<<<<<< HEAD
	<node lat="59.23109444871263" lon="5.4393805524602294" id="-2673">
		<tag k="alt_name" v="Vigjå" />
		<tag k="name" v="Føresvik" />
		<tag k="place" v="village" />
		<tag k="ssr:stedsnr" v="1004" />
	</node>
	<node lat="59.20134722344273" lon="5.374861112824671" id="-2674">
		<tag k="name" v="Tjørnaviga" />
=======
	<node id="-36795" lat="59.2313628123" lon="5.39191290786">
		<tag k="name" v="Nordre Bornevik" />
		<tag k="place" v="farm" />
		<tag k="ssr:stedsnr" v="973797" />
	</node>
	<node id="-36794" lat="59.2406083303" lon="5.38480833367">
		<tag k="name" v="Nordra Lammanesvika" />
>>>>>>> e1d4bc35ff8a6074a6f2e91616a996b547c36f15
		<tag k="natural" v="bay" />
		<tag k="ssr:stedsnr" v="1100" />
	</node>
<<<<<<< HEAD
	<node lat="59.29722222658022" lon="5.326388896975932" id="-2675">
		<tag k="name" v="Karmsundet" />
		<tag k="natural" v="strait" />
		<tag k="ssr:stedsnr" v="1101" />
	</node>
	<node lat="59.17816944583879" lon="5.416513893522185" id="-2676">
		<tag k="name" v="Litla Kjeøya" />
=======
	<node id="-36793" lat="59.2400333354" lon="5.38444721353">
		<tag k="name" v="Lammaneshaugen" />
		<tag k="natural" v="hill" />
		<tag k="place" v="locality" />
		<tag k="ssr:stedsnr" v="970591" />
	</node>
	<node id="-36792" lat="59.1619472197" lon="5.43849166962">
		<tag k="name" v="Hedleholmen" />
>>>>>>> e1d4bc35ff8a6074a6f2e91616a996b547c36f15
		<tag k="place" v="islet" />
		<tag k="ssr:stedsnr" v="1407" />
	</node>
<<<<<<< HEAD
	<node lat="59.11931944110125" lon="5.406113880687622" id="-2677">
		<tag k="bay" v="fjord" />
		<tag k="name" v="Boknafjorden" />
=======
	<node id="-36791" lat="59.200025003" lon="5.47212777341">
		<tag k="name" v="Seiavikane" />
>>>>>>> e1d4bc35ff8a6074a6f2e91616a996b547c36f15
		<tag k="natural" v="bay" />
		<tag k="ssr:stedsnr" v="1388" />
	</node>
<<<<<<< HEAD
	<node lat="59.21679556037692" lon="5.448411951085191" id="-2678">
		<tag k="fixme" v="consider place=hamlet" />
		<tag k="name" v="Alvestad" />
		<tag k="place" v="farm" />
		<tag k="ssr:stedsnr" v="2102" />
	</node>
	<node lat="59.27222222573013" lon="5.4813888931829" id="-2679">
		<tag k="name" v="Frekasundet" />
		<tag k="natural" v="strait" />
		<tag k="ssr:stedsnr" v="2230" />
	</node>
	<node lat="59.26319166741051" lon="5.379686117849475" id="-2680">
		<tag k="bay" v="fjord" />
		<tag k="name" v="Austdjupet" />
=======
	<node id="-36790" lat="59.1992472219" lon="5.47096389632">
		<tag k="name" v="Sandvikneset" />
		<tag k="natural" v="cape" />
		<tag k="ssr:stedsnr" v="963547" />
	</node>
	<node id="-36789" lat="59.2271638905" lon="5.5430083255">
		<tag k="fixme" v="consider seamark:type=rock or natural=shoal" />
		<tag k="name" v="Bergsuggeskjera" />
		<tag k="place" v="islet" />
		<tag k="ssr:stedsnr" v="851424" />
	</node>
	<node id="-36788" lat="59.2346916694" lon="5.55500000578">
		<tag k="name" v="Laksavika" />
>>>>>>> e1d4bc35ff8a6074a6f2e91616a996b547c36f15
		<tag k="natural" v="bay" />
		<tag k="ssr:stedsnr" v="2872" />
	</node>
<<<<<<< HEAD
	<node lat="59.251047222761024" lon="5.409586115104448" id="-2681">
		<tag k="fixme" v="consider seamark:type=rock or natural=shoal" />
		<tag k="name" v="Persloen" />
		<tag k="place" v="islet" />
		<tag k="ssr:stedsnr" v="26124" />
	</node>
	<node lat="59.173491665118924" lon="5.42317778541764" id="-2682">
		<tag k="name" v="Klubbholmen" />
		<tag k="place" v="islet" />
		<tag k="ssr:stedsnr" v="235420" />
	</node>
	<node lat="59.19272500156204" lon="5.449686107716142" id="-2683">
		<tag k="name" v="Vandåg" />
		<tag k="natural" v="hill" />
		<tag k="place" v="locality" />
		<tag k="ssr:stedsnr" v="235523" />
	</node>
	<node lat="59.1870944479412" lon="5.397666667902881" id="-2684">
		<tag k="name" v="Straumastykket" />
		<tag k="place" v="locality" />
		<tag k="ssr:stedsnr" v="53489" />
	</node>
	<node lat="59.17839722345514" lon="5.4247638950532915" id="-2685">
		<tag k="fixme" v="verify maritime location" />
		<tag k="mooring" v="yes" />
		<tag k="name" v="Sørenstøa" />
		<tag k="place" v="locality" />
		<tag k="ssr:stedsnr" v="54382" />
	</node>
	<node lat="59.17968610885744" lon="5.406347230258266" id="-2686">
		<tag k="name" v="Linderabben" />
=======
	<node id="-36787" lat="59.1693333341" lon="5.42494999792">
		<tag k="name" v="Sauøya" />
		<tag k="place" v="islet" />
		<tag k="ssr:stedsnr" v="851397" />
	</node>
	<node id="-36786" lat="59.2156166709" lon="5.40481666492">
		<tag k="name" v="Gunnarstadvatnet" />
		<tag k="natural" v="water" />
		<tag k="ssr:stedsnr" v="851109" />
		<tag k="water" v="lake" />
	</node>
	<node id="-36785" lat="59.2103694488" lon="5.46621666399">
		<tag k="alt_name" v="Knarrholmen" />
		<tag k="name" v="Knarholmen" />
		<tag k="place" v="islet" />
		<tag k="ssr:stedsnr" v="851087" />
	</node>
	<node id="-36784" lat="59.2064805558" lon="5.46567777326">
		<tag k="alt_name" v="Sponevig;Sponevik" />
		<tag k="name" v="Sponavika" />
		<tag k="natural" v="bay" />
		<tag k="ssr:stedsnr" v="851086" />
	</node>
	<node id="-36783" lat="59.1870333321" lon="5.4009555497">
		<tag k="name" v="Sunnalandsstraumen" />
		<tag k="natural" v="strait" />
		<tag k="ssr:stedsnr" v="851077" />
	</node>
	<node id="-36782" lat="59.2408159427" lon="5.39378624329">
		<tag k="name" v="Søra Boknahovstjørna" />
		<tag k="natural" v="water" />
		<tag k="ssr:stedsnr" v="849890" />
	</node>
	<node id="-36781" lat="59.2461138859" lon="5.39147221994">
		<tag k="name" v="Djubavik" />
		<tag k="natural" v="bay" />
		<tag k="ssr:stedsnr" v="849887" />
	</node>
	<node id="-36780" lat="59.2082944479" lon="5.44118055221">
		<tag k="name" v="Søra Hålandstjørna" />
		<tag k="natural" v="water" />
		<tag k="ssr:stedsnr" v="848984" />
	</node>
	<node id="-36779" lat="59.216147226" lon="5.4869611099">
		<tag k="name" v="Rabben" />
		<tag k="place" v="farm" />
		<tag k="ssr:stedsnr" v="848979" />
	</node>
	<node id="-36778" lat="59.2176000019" lon="5.38528055086">
		<tag k="name" v="Mjelkestøhompen" />
>>>>>>> e1d4bc35ff8a6074a6f2e91616a996b547c36f15
		<tag k="natural" v="hill" />
		<tag k="place" v="locality" />
		<tag k="ssr:stedsnr" v="54386" />
	</node>
<<<<<<< HEAD
	<node lat="59.241127780498445" lon="5.4664222293439755" id="-2687">
=======
	<node id="-36777" lat="59.2125749978" lon="5.39140278246">
>>>>>>> e1d4bc35ff8a6074a6f2e91616a996b547c36f15
		<tag k="fixme" v="consider natural=peak for the most distinct mountains in the district" />
		<tag k="name" v="Håklepp" />
		<tag k="natural" v="hill" />
		<tag k="place" v="locality" />
		<tag k="ssr:stedsnr" v="59974" />
	</node>
<<<<<<< HEAD
	<node lat="59.22376944877912" lon="5.456436106060249" id="-2688">
		<tag k="name" v="Fyren" />
		<tag k="natural" v="cape" />
		<tag k="ssr:stedsnr" v="59978" />
	</node>
	<node lat="59.212658333266006" lon="5.488861110325195" id="-2689">
		<tag k="name" v="Litlaneset" />
=======
	<node id="-36776" lat="59.2299722227" lon="5.43711388197">
		<tag k="amenity" v="school" />
		<tag k="name" v="Bokn" />
		<tag k="ssr:stedsnr" v="848897" />
	</node>
	<node id="-36775" lat="59.2281805581" lon="5.46034443804">
		<tag k="name" v="Tåganes" />
>>>>>>> e1d4bc35ff8a6074a6f2e91616a996b547c36f15
		<tag k="natural" v="cape" />
		<tag k="ssr:stedsnr" v="59985" />
	</node>
<<<<<<< HEAD
	<node lat="59.21021666641897" lon="5.438158331878075" id="-2690">
		<tag k="name" v="Nordra Hålandstjørna" />
		<tag k="natural" v="water" />
		<tag k="ssr:stedsnr" v="59992" />
	</node>
	<node lat="59.243728554857334" lon="5.454386814290803" id="-2691">
		<tag k="name" v="Krovågen" />
		<tag k="natural" v="bay" />
		<tag k="ssr:stedsnr" v="60910" />
	</node>
	<node lat="59.22810349418083" lon="5.443815789847576" id="-2692">
		<tag k="fixme" v="consider place=hamlet" />
		<tag k="name" v="Sæbø" />
		<tag k="place" v="farm" />
		<tag k="ssr:stedsnr" v="62016" />
	</node>
	<node lat="59.18716388981083" lon="5.387891674524715" id="-2693">
		<tag k="fixme" v="consider natural=peak for the most distinct mountains in the district" />
		<tag k="name" v="Arafjellet" />
=======
	<node id="-36774" lat="59.1995472239" lon="5.45297221432">
		<tag k="fixme" v="consider natural=peak for the most distinct mountains in the district" />
		<tag k="name" v="Nordra Hatlefjellet" />
		<tag k="natural" v="hill" />
		<tag k="place" v="locality" />
		<tag k="ssr:stedsnr" v="843494" />
	</node>
	<node id="-36773" lat="59.1886749961" lon="5.4176638877">
		<tag k="name" v="Vallberg" />
>>>>>>> e1d4bc35ff8a6074a6f2e91616a996b547c36f15
		<tag k="natural" v="hill" />
		<tag k="place" v="locality" />
		<tag k="ssr:stedsnr" v="62069" />
	</node>
<<<<<<< HEAD
	<node lat="59.21403295060069" lon="5.387087132127375" id="-2694">
		<tag k="fixme" v="consider place=hamlet" />
		<tag k="name" v="Trosnavåg" />
		<tag k="place" v="farm" />
		<tag k="ssr:stedsnr" v="62088" />
	</node>
	<node lat="59.1928499957567" lon="5.473122217595084" id="-2695">
		<tag k="alt_name" v="Låderskjer" />
=======
	<node id="-36772" lat="59.1819499967" lon="5.40952499512">
		<tag k="name" v="Djubevika" />
		<tag k="natural" v="bay" />
		<tag k="ssr:stedsnr" v="843374" />
	</node>
	<node id="-36771" lat="59.1673499959" lon="5.40196944843">
>>>>>>> e1d4bc35ff8a6074a6f2e91616a996b547c36f15
		<tag k="fixme" v="consider seamark:type=rock or natural=shoal" />
		<tag k="name" v="Låderskjera" />
		<tag k="place" v="islet" />
		<tag k="ssr:stedsnr" v="62278" />
	</node>
<<<<<<< HEAD
	<node lat="59.18842221844354" lon="5.473116671611013" id="-2696">
		<tag k="name" v="Oksabåsen" />
		<tag k="place" v="farm" />
		<tag k="ssr:stedsnr" v="62280" />
	</node>
	<node lat="59.22405555289335" lon="5.498063888319048" id="-2697">
		<tag k="alt_name" v="Subanskallen" />
		<tag k="name" v="Supanskallen" />
		<tag k="natural" v="cape" />
		<tag k="ssr:stedsnr" v="62468" />
	</node>
	<node lat="59.213708337191264" lon="5.381677775091845" id="-2698">
		<tag k="landuse" v="meadow" />
		<tag k="name" v="Træet" />
		<tag k="ssr:stedsnr" v="241972" />
	</node>
	<node lat="59.237736109512426" lon="5.389199996523404" id="-2699">
		<tag k="name" v="Bekkjarvik" />
=======
	<node id="-36770" lat="59.1820555581" lon="5.46380833895">
		<tag k="fixme" v="consider seamark:type=rock or natural=shoal" />
		<tag k="name" v="Hedleskjer" />
		<tag k="place" v="islet" />
		<tag k="ssr:stedsnr" v="843078" />
	</node>
	<node id="-36769" lat="59.1604416664" lon="5.4333611196">
		<tag k="name" v="Sjebasundet" />
		<tag k="natural" v="strait" />
		<tag k="ssr:stedsnr" v="842834" />
	</node>
	<node id="-36768" lat="59.2177777773" lon="5.499166666">
		<tag k="name" v="Båshilleren" />
		<tag k="place" v="farm" />
		<tag k="ssr:stedsnr" v="875907" />
	</node>
	<node id="-36767" lat="59.2150861069" lon="5.49618611536">
		<tag k="alt_name" v="Ablavika" />
		<tag k="name" v="Apallevika" />
>>>>>>> e1d4bc35ff8a6074a6f2e91616a996b547c36f15
		<tag k="natural" v="bay" />
		<tag k="ssr:stedsnr" v="242876" />
	</node>
<<<<<<< HEAD
	<node lat="59.22277222467431" lon="5.457580559740396" id="-2700">
		<tag k="name" v="Boknasundet" />
		<tag k="natural" v="strait" />
		<tag k="ssr:stedsnr" v="244016" />
	</node>
	<node lat="59.223777781473295" lon="5.440458334792368" id="-2701">
		<tag k="amenity" v="place_of_worship" />
		<tag k="denomination" v="lutheran" />
		<tag k="name" v="Bokn kyrkje" />
		<tag k="religion" v="christian" />
		<tag k="ssr:stedsnr" v="244127" />
	</node>
	<node lat="59.175266665541386" lon="5.42107221908124" id="-2702">
		<tag k="name" v="Røssholmen" />
=======
	<node id="-36766" lat="59.2596611136" lon="5.44360277609">
		<tag k="name" v="Brattholmen" />
>>>>>>> e1d4bc35ff8a6074a6f2e91616a996b547c36f15
		<tag k="place" v="islet" />
		<tag k="ssr:stedsnr" v="244420" />
	</node>
<<<<<<< HEAD
	<node lat="59.23344999995441" lon="5.556527775754511" id="-2703">
		<tag k="alt_name" v="Tåa, austre" />
		<tag k="name" v="Austre Tåa" />
		<tag k="natural" v="cape" />
		<tag k="ssr:stedsnr" v="244448" />
	</node>
	<node lat="59.21989999746384" lon="5.497875003623169" id="-2704">
		<tag k="fixme" v="multiple name tags, choose one and add the other to alt_name; consider natural=peak for the most distinct mountains in the district" />
		<tag k="name" v="Nipa;Storafjellet" />
		<tag k="natural" v="hill" />
		<tag k="place" v="locality" />
		<tag k="ssr:stedsnr" v="244467" />
	</node>
	<node lat="59.173583334608566" lon="5.378497213941763" id="-2705">
		<tag k="name" v="Kjølevigneset" />
		<tag k="natural" v="cape" />
		<tag k="ssr:stedsnr" v="85628" />
	</node>
	<node lat="59.19329727788583" lon="5.387123897209488" id="-2706">
=======
	<node id="-36765" lat="59.2511611132" lon="5.3955166701">
>>>>>>> e1d4bc35ff8a6074a6f2e91616a996b547c36f15
		<tag k="fixme" v="consider seamark:type=rock or natural=shoal" />
		<tag k="name" v="Skibaskjeret" />
		<tag k="place" v="islet" />
		<tag k="ssr:stedsnr" v="85608" />
	</node>
<<<<<<< HEAD
	<node lat="59.26426666894894" lon="5.482961109928263" id="-2707">
		<tag k="alt_name" v="Svartaskjeret" />
=======
	<node id="-36764" lat="59.158722221" lon="5.40982500026">
>>>>>>> e1d4bc35ff8a6074a6f2e91616a996b547c36f15
		<tag k="fixme" v="consider seamark:type=rock or natural=shoal" />
		<tag k="name" v="Svartaskjer" />
		<tag k="place" v="islet" />
<<<<<<< HEAD
		<tag k="ssr:stedsnr" v="87624" />
	</node>
	<node lat="59.16488611442705" lon="5.406150002913574" id="-2708">
=======
		<tag k="ssr:stedsnr" v="813685" />
	</node>
	<node id="-36763" lat="59.1596555545" lon="5.39485000238">
		<tag k="name" v="Regaviga" />
		<tag k="natural" v="bay" />
		<tag k="ssr:stedsnr" v="813678" />
	</node>
	<node id="-36761" lat="59.2250944455" lon="5.54192500859">
		<tag k="alt_name" v="Flaterova;Flada Roå" />
>>>>>>> e1d4bc35ff8a6074a6f2e91616a996b547c36f15
		<tag k="fixme" v="consider seamark:type=rock or natural=shoal" />
		<tag k="name" v="Godjen" />
		<tag k="place" v="islet" />
		<tag k="ssr:stedsnr" v="114406" />
	</node>
	<node lat="59.16038055758386" lon="5.443941668588086" id="-2709">
		<tag k="name" v="Avløybvika" />
		<tag k="natural" v="bay" />
		<tag k="ssr:stedsnr" v="114821" />
	</node>
	<node lat="59.23954999693403" lon="5.465236118022129" id="-2710">
		<tag k="name" v="Litla Håklepp" />
		<tag k="natural" v="hill" />
		<tag k="place" v="locality" />
		<tag k="ssr:stedsnr" v="120979" />
	</node>
<<<<<<< HEAD
	<node lat="59.203333626795285" lon="5.430879333556526" id="-2711">
=======
	<node id="-36760" lat="59.2199509806" lon="5.47153857062">
>>>>>>> e1d4bc35ff8a6074a6f2e91616a996b547c36f15
		<tag k="fixme" v="consider place=hamlet" />
		<tag k="name" v="Dagsland" />
		<tag k="place" v="farm" />
		<tag k="ssr:stedsnr" v="122082" />
	</node>
<<<<<<< HEAD
	<node lat="59.21690000101755" lon="5.376594440563329" id="-2712">
		<tag k="name" v="Trosnavågneset" />
		<tag k="natural" v="cape" />
		<tag k="ssr:stedsnr" v="123123" />
	</node>
	<node lat="59.22180547061447" lon="5.439325456109454" id="-2713">
		<tag k="fixme" v="consider place=hamlet" />
		<tag k="name" v="Boknaberg" />
		<tag k="place" v="farm" />
		<tag k="ssr:stedsnr" v="123130" />
	</node>
	<node lat="59.253486107252996" lon="5.4465194472083605" id="-2714">
		<tag k="alt_name" v="Fløysundholmane" />
		<tag k="name" v="Fløsundholmane" />
=======
	<node id="-36759" lat="59.1939972226" lon="5.42203054997">
		<tag k="name" v="Vestre Bokn" />
		<tag k="place" v="island" />
		<tag k="ssr:stedsnr" v="790073" />
	</node>
	<node id="-36758" lat="59.2012108262" lon="5.41000934383">
		<tag k="alt_name" v="Grønnestad;Nordre Grønnestad" />
		<tag k="name" v="Grønestad" />
		<tag k="place" v="hamlet" />
		<tag k="ssr:stedsnr" v="790071" />
	</node>
	<node id="-36757" lat="59.2449222188" lon="5.45239167541">
		<tag k="name" v="Kroholmen" />
>>>>>>> e1d4bc35ff8a6074a6f2e91616a996b547c36f15
		<tag k="place" v="islet" />
		<tag k="ssr:stedsnr" v="124864" />
	</node>
<<<<<<< HEAD
	<node lat="59.161188885428444" lon="5.417794438050363" id="-2715">
		<tag k="name" v="Dyna" />
		<tag k="place" v="locality" />
		<tag k="seamark:type" v="rock" />
		<tag k="ssr:stedsnr" v="145669" />
	</node>
	<node lat="59.161298955307885" lon="5.431412078410066" id="-2716">
		<tag k="name" v="Stongholmen" />
=======
	<node id="-36756" lat="59.1994388886" lon="5.37481110428">
		<tag k="name" v="Svartodden" />
		<tag k="natural" v="cape" />
		<tag k="ssr:stedsnr" v="788937" />
	</node>
	<node id="-36755" lat="59.2412166649" lon="5.41293889557">
		<tag k="name" v="Kongshabntjørna" />
		<tag k="natural" v="water" />
		<tag k="ssr:stedsnr" v="788887" />
	</node>
	<node id="-36754" lat="59.2320916622" lon="5.3872722165">
		<tag k="name" v="Krekjeberholmen" />
>>>>>>> e1d4bc35ff8a6074a6f2e91616a996b547c36f15
		<tag k="place" v="islet" />
		<tag k="ssr:stedsnr" v="145679" />
	</node>
<<<<<<< HEAD
	<node lat="59.25313889284739" lon="5.479361119057784" id="-2717">
		<tag k="alt_name" v="Djupavika" />
		<tag k="name" v="Djubevik" />
		<tag k="natural" v="bay" />
		<tag k="ssr:stedsnr" v="148677" />
	</node>
	<node lat="59.179572219054705" lon="5.458477776150009" id="-2718">
		<tag k="name" v="Djubavika" />
		<tag k="natural" v="bay" />
		<tag k="ssr:stedsnr" v="175064" />
	</node>
	<node lat="59.16522778109466" lon="5.398080563658661" id="-2719">
		<tag k="landuse" v="meadow" />
		<tag k="name" v="Stemmen" />
		<tag k="ssr:stedsnr" v="175370" />
	</node>
	<node lat="59.21385000351852" lon="5.3790499955242534" id="-2720">
		<tag k="name" v="Tjødnå" />
		<tag k="natural" v="water" />
		<tag k="ssr:stedsnr" v="181934" />
	</node>
	<node lat="59.17150750133745" lon="5.446944412395802" id="-2721">
		<tag k="fixme" v="consider place=hamlet" />
		<tag k="name" v="Are" />
		<tag k="place" v="farm" />
		<tag k="ssr:stedsnr" v="184439" />
	</node>
	<node lat="59.18077777583736" lon="5.378611116901425" id="-2722">
		<tag k="name" v="Dalhavnen" />
		<tag k="natural" v="bay" />
		<tag k="ssr:stedsnr" v="267658" />
	</node>
	<node lat="59.175522220703385" lon="5.383547217908518" id="-2723">
		<tag k="fixme" v="consider natural=peak for the most distinct mountains in the district" />
		<tag k="name" v="Hagafjellet" />
		<tag k="natural" v="hill" />
=======
	<node id="-36753" lat="59.2364166633" lon="5.39472500344">
		<tag k="fixme" v="consider natural=peak for the most distinct mountains in the district" />
		<tag k="name" v="Linderabben" />
		<tag k="natural" v="hill" />
		<tag k="place" v="locality" />
		<tag k="ssr:stedsnr" v="788878" />
	</node>
	<node id="-36752" lat="59.2359694423" lon="5.39738610382">
		<tag k="name" v="Lindemyra" />
		<tag k="natural" v="wetland" />
		<tag k="ssr:stedsnr" v="788877" />
	</node>
	<node id="-36751" lat="59.2277666709" lon="5.46961389557">
		<tag k="name" v="Orrehammaren" />
		<tag k="natural" v="cliff" />
		<tag k="ssr:stedsnr" v="787891" />
	</node>
	<node id="-36750" lat="59.1979833352" lon="5.41695000466">
		<tag k="fixme" v="consider natural=peak for the most distinct mountains in the district" />
		<tag k="name" v="Grønestadfjellet" />
		<tag k="natural" v="hill" />
		<tag k="place" v="locality" />
		<tag k="ssr:stedsnr" v="782447" />
	</node>
	<node id="-36749" lat="59.1903638886" lon="5.39136667065">
		<tag k="name" v="Eithidlersundet" />
		<tag k="natural" v="strait" />
		<tag k="ssr:stedsnr" v="782435" />
	</node>
	<node id="-36747" lat="59.1943916661" lon="5.38591389707">
		<tag k="name" v="Skibaflua" />
		<tag k="place" v="locality" />
		<tag k="seamark:type" v="rock" />
		<tag k="ssr:stedsnr" v="647625" />
	</node>
	<node id="-36746" lat="59.233205554" lon="5.49055555835">
		<tag k="alt_name" v="Straen" />
		<tag k="name" v="Vågastraen" />
		<tag k="natural" v="slope" />
>>>>>>> e1d4bc35ff8a6074a6f2e91616a996b547c36f15
		<tag k="place" v="locality" />
		<tag k="ssr:stedsnr" v="206653" />
	</node>
<<<<<<< HEAD
	<node lat="59.17127778211686" lon="5.425422222421675" id="-2724">
		<tag k="name" v="Fladholmen" />
		<tag k="place" v="islet" />
		<tag k="ssr:stedsnr" v="206658" />
	</node>
	<node lat="59.20835277704641" lon="5.484836107743495" id="-2725">
		<tag k="name" v="Aksdalsneset" />
		<tag k="natural" v="cape" />
		<tag k="ssr:stedsnr" v="206942" />
	</node>
	<node lat="59.224449996755" lon="5.4967861039570565" id="-2726">
		<tag k="name" v="Barsvika" />
=======
	<node id="-36745" lat="59.1546833363" lon="5.38574722948">
		<tag k="name" v="Kleppflua" />
		<tag k="place" v="locality" />
		<tag k="seamark:type" v="rock" />
		<tag k="ssr:stedsnr" v="630629" />
	</node>
	<node id="-36744" lat="59.1668944405" lon="5.42909999899">
		<tag k="name" v="Galten" />
		<tag k="place" v="locality" />
		<tag k="seamark:type" v="rock" />
		<tag k="ssr:stedsnr" v="630628" />
	</node>
	<node id="-36743" lat="59.1737305583" lon="5.3966944394">
		<tag k="name" v="Storevågen" />
>>>>>>> e1d4bc35ff8a6074a6f2e91616a996b547c36f15
		<tag k="natural" v="bay" />
		<tag k="ssr:stedsnr" v="268927" />
	</node>
<<<<<<< HEAD
	<node lat="59.254947223090554" lon="5.426338895493462" id="-2727">
		<tag k="name" v="Svartøyna" />
=======
	<node id="-36742" lat="59.2621472203" lon="5.45309445302">
		<tag k="alt_name" v="Kjøynå" />
		<tag k="name" v="Kjeøya" />
>>>>>>> e1d4bc35ff8a6074a6f2e91616a996b547c36f15
		<tag k="place" v="islet" />
		<tag k="ssr:stedsnr" v="209046" />
	</node>
<<<<<<< HEAD
	<node lat="59.25250833318481" lon="5.455141658424741" id="-2728">
		<tag k="name" v="Tagvika" />
		<tag k="natural" v="bay" />
		<tag k="ssr:stedsnr" v="209687" />
	</node>
	<node lat="59.26321666819732" lon="5.407169437345546" id="-2730">
		<tag k="name" v="Breisund" />
		<tag k="natural" v="strait" />
		<tag k="ssr:stedsnr" v="451077" />
	</node>
	<node lat="59.17378055899412" lon="5.3924361124968865" id="-2731">
		<tag k="name" v="Loten" />
=======
	<node id="-36741" lat="59.2244694416" lon="5.54065278635">
		<tag k="fixme" v="consider seamark:type=rock or natural=shoal" />
		<tag k="name" v="Rovetærne" />
		<tag k="place" v="islet" />
		<tag k="ssr:stedsnr" v="608492" />
	</node>
	<node id="-36740" lat="59.2223972238" lon="5.47445832822">
		<tag k="name" v="Aksdalsstemmen" />
		<tag k="natural" v="water" />
		<tag k="ssr:stedsnr" v="608486" />
		<tag k="water" v="pond" />
	</node>
	<node id="-36739" lat="59.2159499983" lon="5.47345556013">
		<tag k="name" v="Strandavika" />
>>>>>>> e1d4bc35ff8a6074a6f2e91616a996b547c36f15
		<tag k="place" v="farm" />
		<tag k="ssr:stedsnr" v="449793" />
	</node>
<<<<<<< HEAD
	<node lat="59.24653889197397" lon="5.389250004350434" id="-2732">
		<tag k="alt_name" v="Boknehove;Boknahove;Boknahovudet" />
		<tag k="name" v="Boknahovet" />
=======
	<node id="-36738" lat="59.2098500008" lon="5.48461944325">
		<tag k="name" v="Grønehilleren" />
>>>>>>> e1d4bc35ff8a6074a6f2e91616a996b547c36f15
		<tag k="natural" v="cape" />
		<tag k="ssr:stedsnr" v="450079" />
	</node>
<<<<<<< HEAD
	<node lat="59.22684166895704" lon="5.439000006911271" id="-2733">
		<tag k="name" v="Longhammar" />
		<tag k="natural" v="hill" />
		<tag k="place" v="locality" />
		<tag k="ssr:stedsnr" v="241978" />
	</node>
	<node lat="59.18763889214752" lon="5.373966665127889" id="-2734">
		<tag k="name" v="Røyrvigneset" />
		<tag k="natural" v="cape" />
		<tag k="ssr:stedsnr" v="244083" />
	</node>
	<node lat="59.16341388503979" lon="5.406241670995862" id="-2735">
		<tag k="name" v="Drevsundholmen" />
		<tag k="place" v="islet" />
		<tag k="ssr:stedsnr" v="244433" />
	</node>
	<node lat="59.16870277491987" lon="5.382083331816602" id="-2736">
		<tag k="name" v="Nordra Auseviga" />
		<tag k="natural" v="bay" />
		<tag k="ssr:stedsnr" v="244437" />
	</node>
	<node lat="59.22896111228986" lon="5.540213882538221" id="-2737">
		<tag k="alt_name" v="Rova, store;Stora Roå" />
=======
	<node id="-36737" lat="59.1596000019" lon="5.44072222094">
		<tag k="alt_name" v="Avløybet" />
		<tag k="name" v="Avløypsnibba" />
		<tag k="place" v="islet" />
		<tag k="ssr:stedsnr" v="608387" />
	</node>
	<node id="-36736" lat="59.1853888918" lon="5.47284166526">
		<tag k="name" v="Lamholmen" />
		<tag k="place" v="islet" />
		<tag k="ssr:stedsnr" v="608303" />
	</node>
	<node id="-36735" lat="59.2166222252" lon="5.44460000077">
		<tag k="alt_name" v="Boknabergsvatnet" />
		<tag k="name" v="Boknabergvatnet" />
		<tag k="natural" v="water" />
		<tag k="ssr:stedsnr" v="608091" />
	</node>
	<node id="-36734" lat="59.1866444415" lon="5.37663056345">
		<tag k="name" v="Røyrviga" />
		<tag k="natural" v="bay" />
		<tag k="ssr:stedsnr" v="608071" />
	</node>
	<node id="-36733" lat="59.1932416702" lon="5.37952222248">
		<tag k="name" v="Ringpynten" />
		<tag k="natural" v="cape" />
		<tag k="ssr:stedsnr" v="608054" />
	</node>
	<node id="-36732" lat="59.2184055554" lon="5.51216110969">
		<tag k="alt_name" v="Svartaskjeret" />
>>>>>>> e1d4bc35ff8a6074a6f2e91616a996b547c36f15
		<tag k="fixme" v="consider seamark:type=rock or natural=shoal" />
		<tag k="name" v="Stora Rova" />
		<tag k="place" v="islet" />
		<tag k="ssr:stedsnr" v="244481" />
	</node>
<<<<<<< HEAD
	<node lat="59.25942778095215" lon="5.458419450940196" id="-2738">
		<tag k="name" v="Ognahamn" />
		<tag k="natural" v="bay" />
		<tag k="ssr:stedsnr" v="452657" />
	</node>
	<node lat="59.17806111260132" lon="5.3817027743987005" id="-2740">
		<tag k="name" v="Loten" />
		<tag k="place" v="farm" />
		<tag k="ssr:stedsnr" v="267817" />
	</node>
	<node lat="59.15987221884945" lon="5.4359249948382145" id="-2741">
		<tag k="name" v="Drevsundholmen" />
		<tag k="natural" v="bay" />
		<tag k="ssr:stedsnr" v="296429" />
	</node>
	<node lat="59.19175833554619" lon="5.390450008139795" id="-2742">
		<tag k="name" v="Steinsvika" />
		<tag k="natural" v="bay" />
		<tag k="ssr:stedsnr" v="296440" />
	</node>
	<node lat="59.19842222319186" lon="5.38575000440034" id="-2743">
		<tag k="name" v="Breivik" />
=======
	<node id="-36731" lat="59.2033694422" lon="5.45139444108">
		<tag k="alt_name" v="Kodlefjellet" />
		<tag k="fixme" v="consider natural=peak for the most distinct mountains in the district" />
		<tag k="name" v="Hatlefjellet" />
		<tag k="natural" v="hill" />
		<tag k="place" v="locality" />
		<tag k="ssr:stedsnr" v="607081" />
	</node>
	<node id="-36730" lat="59.2088000038" lon="5.42918333103">
		<tag k="name" v="Torlandsvatnet" />
		<tag k="natural" v="water" />
		<tag k="ssr:stedsnr" v="607080" />
		<tag k="water" v="lake" />
	</node>
	<node id="-36729" lat="59.2478500027" lon="5.458813883">
		<tag k="name" v="Krovatnet" />
		<tag k="natural" v="water" />
		<tag k="ssr:stedsnr" v="606898" />
	</node>
	<node id="-36728" lat="59.2391416648" lon="5.4055250027">
		<tag k="name" v="Halvarsbekken" />
		<tag k="ssr:stedsnr" v="606882" />
		<tag k="waterway" v="stream" />
	</node>
	<node id="-36727" lat="59.1763416628" lon="5.45602777076">
		<tag k="name" v="Stølsvika" />
>>>>>>> e1d4bc35ff8a6074a6f2e91616a996b547c36f15
		<tag k="natural" v="bay" />
		<tag k="ssr:stedsnr" v="296449" />
	</node>
<<<<<<< HEAD
	<node lat="59.194852776135946" lon="5.456824996663619" id="-2744">
		<tag k="name" v="Longamyr" />
		<tag k="natural" v="wetland" />
		<tag k="ssr:stedsnr" v="296457" />
	</node>
	<node lat="59.16243332915192" lon="5.449624994946303" id="-2745">
		<tag k="name" v="Sjebavik" />
		<tag k="natural" v="bay" />
		<tag k="ssr:stedsnr" v="296805" />
	</node>
	<node lat="59.173927776626215" lon="5.449572215983219" id="-2746">
		<tag k="name" v="Arsvatnet" />
		<tag k="natural" v="water" />
		<tag k="ssr:stedsnr" v="297090" />
		<tag k="water" v="lake" />
	</node>
	<node lat="59.214780556199905" lon="5.410000002291947" id="-2747">
		<tag k="name" v="Ulvåghaugane" />
		<tag k="natural" v="hill" />
=======
	<node id="-36726" lat="59.1825027752" lon="5.44722778141">
		<tag k="name" v="Dybing" />
		<tag k="place" v="farm" />
		<tag k="ssr:stedsnr" v="600067" />
	</node>
	<node id="-36725" lat="59.1623194409" lon="5.40403888765">
		<tag k="name" v="Søra Drevsund" />
		<tag k="natural" v="strait" />
		<tag k="ssr:stedsnr" v="599828" />
	</node>
	<node id="-36724" lat="59.1611166635" lon="5.4216861106">
		<tag k="name" v="Osen" />
		<tag k="natural" v="strait" />
		<tag k="ssr:stedsnr" v="599826" />
	</node>
	<node id="-36723" lat="59.1899222253" lon="5.40954444879">
		<tag k="name" v="Træsdalen" />
>>>>>>> e1d4bc35ff8a6074a6f2e91616a996b547c36f15
		<tag k="place" v="locality" />
		<tag k="ssr:stedsnr" v="302972" />
	</node>
<<<<<<< HEAD
	<node lat="59.21680833308297" lon="5.482125003074546" id="-2748">
		<tag k="name" v="Krågeskarpytten" />
		<tag k="natural" v="water" />
		<tag k="ssr:stedsnr" v="302980" />
		<tag k="water" v="pond" />
	</node>
	<node lat="59.223294440322434" lon="5.466094444384829" id="-2749">
		<tag k="landuse" v="meadow" />
		<tag k="name" v="Træet" />
		<tag k="ssr:stedsnr" v="302984" />
	</node>
	<node lat="59.22744166950629" lon="5.385869447046493" id="-2750">
		<tag k="name" v="Breiviktjørna" />
		<tag k="natural" v="water" />
		<tag k="ssr:stedsnr" v="303885" />
	</node>
	<node lat="59.23816111144453" lon="5.419127782480981" id="-2751">
		<tag k="name" v="Leirbotn" />
		<tag k="natural" v="bay" />
		<tag k="ssr:stedsnr" v="304038" />
	</node>
	<node lat="59.1677527758856" lon="5.38803334207806" id="-2752">
		<tag k="fixme" v="consider natural=peak for the most distinct mountains in the district" />
		<tag k="name" v="Vardafjellet" />
=======
	<node id="-36722" lat="59.1981968903" lon="5.41084403436">
		<tag k="fixme" v="consider place=hamlet" />
		<tag k="name" v="Søre Grønestad" />
		<tag k="place" v="farm" />
		<tag k="ssr:stedsnr" v="599481" />
	</node>
	<node id="-36721" lat="59.1927000004" lon="5.42120278162">
		<tag k="name" v="Mellevatnet" />
		<tag k="place" v="locality" />
		<tag k="ssr:stedsnr" v="599472" />
	</node>
	<node id="-36720" lat="59.2011083342" lon="5.39014443578">
		<tag k="name" v="Otrahaugane" />
>>>>>>> e1d4bc35ff8a6074a6f2e91616a996b547c36f15
		<tag k="natural" v="hill" />
		<tag k="place" v="locality" />
		<tag k="ssr:stedsnr" v="305445" />
	</node>
<<<<<<< HEAD
	<node lat="59.234617590410835" lon="5.551455653534283" id="-2753">
		<tag k="alt_name" v="Naudøyna" />
		<tag k="name" v="Nautøya" />
		<tag k="place" v="island" />
		<tag k="ssr:stedsnr" v="305468" />
	</node>
	<node lat="59.22798611438148" lon="5.495913882961978" id="-2754">
		<tag k="fixme" v="consider natural=peak for the most distinct mountains in the district" />
		<tag k="name" v="Liafjellet" />
		<tag k="natural" v="hill" />
		<tag k="place" v="locality" />
		<tag k="ssr:stedsnr" v="329870" />
	</node>
	<node lat="59.2136611098088" lon="5.511722218723435" id="-2755">
		<tag k="name" v="Søra Vågsholmsundet" />
		<tag k="natural" v="strait" />
		<tag k="ssr:stedsnr" v="329915" />
	</node>
	<node lat="59.16658610859552" lon="5.429674999400972" id="-2756">
		<tag k="name" v="Torvvika" />
=======
	<node id="-36719" lat="59.1703611078" lon="5.40202221675">
		<tag k="fixme" v="consider seamark:type=rock or natural=shoal" />
		<tag k="name" v="Varholmen" />
		<tag k="place" v="islet" />
		<tag k="ssr:stedsnr" v="599351" />
	</node>
	<node id="-36718" lat="59.2031305579" lon="5.50286111577">
		<tag k="name" v="Skolten" />
		<tag k="place" v="locality" />
		<tag k="seamark:type" v="rock" />
		<tag k="ssr:stedsnr" v="586616" />
	</node>
	<node id="-36717" lat="59.1579388868" lon="5.44179723018">
		<tag k="fixme" v="consider seamark:type=rock or natural=shoal" />
		<tag k="name" v="Meleskjeret" />
		<tag k="place" v="islet" />
		<tag k="ssr:stedsnr" v="586664" />
	</node>
	<node id="-36716" lat="59.2725583346" lon="5.47304444897">
		<tag k="name" v="Brattholmen" />
		<tag k="place" v="islet" />
		<tag k="ssr:stedsnr" v="572645" />
	</node>
	<node id="-36715" lat="59.2072222263" lon="5.50833333403">
		<tag k="name" v="Hillervågen" />
>>>>>>> e1d4bc35ff8a6074a6f2e91616a996b547c36f15
		<tag k="natural" v="bay" />
		<tag k="ssr:stedsnr" v="356408" />
	</node>
<<<<<<< HEAD
	<node lat="59.16150277772864" lon="5.4458194358426235" id="-2757">
		<tag k="name" v="Munkhamn" />
=======
	<node id="-36714" lat="59.2399987108" lon="5.45354035116">
		<tag k="name" v="Øvrabøvågen" />
>>>>>>> e1d4bc35ff8a6074a6f2e91616a996b547c36f15
		<tag k="natural" v="bay" />
		<tag k="ssr:stedsnr" v="356825" />
	</node>
<<<<<<< HEAD
	<node lat="59.191569448623866" lon="5.460966665027895" id="-2758">
		<tag k="name" v="Høghaug" />
		<tag k="natural" v="hill" />
		<tag k="place" v="locality" />
		<tag k="ssr:stedsnr" v="357464" />
	</node>
	<node lat="59.160505557456375" lon="5.387900001926259" id="-2759">
		<tag k="name" v="Stintenessundet" />
		<tag k="natural" v="strait" />
		<tag k="ssr:stedsnr" v="357811" />
	</node>
	<node lat="59.177113889246186" lon="5.41435833637042" id="-2760">
		<tag k="name" v="Trollhavet" />
		<tag k="natural" v="strait" />
		<tag k="ssr:stedsnr" v="478386" />
	</node>
	<node lat="59.17037777707758" lon="5.434533338436612" id="-2761">
		<tag k="name" v="Vierholmen" />
		<tag k="place" v="islet" />
		<tag k="ssr:stedsnr" v="478388" />
	</node>
	<node lat="59.167516670364016" lon="5.415800007594188" id="-2762">
		<tag k="name" v="Midbrog" />
		<tag k="place" v="islet" />
		<tag k="ssr:stedsnr" v="478389" />
	</node>
	<node lat="59.200183331277856" lon="5.403233338617442" id="-2763">
		<tag k="name" v="Grønnestadvatnet" />
		<tag k="natural" v="water" />
		<tag k="ssr:stedsnr" v="365092" />
		<tag k="water" v="lake" />
	</node>
	<node lat="59.1976722207736" lon="5.378511118088953" id="-2764">
		<tag k="alt_name" v="Ådnaneset" />
		<tag k="name" v="Ådnanes" />
		<tag k="natural" v="cape" />
		<tag k="ssr:stedsnr" v="365093" />
	</node>
	<node lat="59.19533333339605" lon="5.424430553631149" id="-2765">
		<tag k="name" v="Kleivå" />
=======
	<node id="-36713" lat="59.2391666686" lon="5.48166665944">
		<tag k="alt_name" v="Straen" />
		<tag k="name" v="Viervikstraen" />
		<tag k="natural" v="slope" />
		<tag k="place" v="locality" />
		<tag k="ssr:stedsnr" v="570593" />
	</node>
	<node id="-36712" lat="59.267697384" lon="5.47811575395">
		<tag k="name" v="Steinsvikvågen" />
		<tag k="natural" v="bay" />
		<tag k="ssr:stedsnr" v="569858" />
	</node>
	<node id="-36711" lat="59.1569027766" lon="5.40447499441">
		<tag k="name" v="Langholmen" />
		<tag k="place" v="islet" />
		<tag k="ssr:stedsnr" v="548404" />
	</node>
	<node id="-36710" lat="59.2063250037" lon="5.50673334139">
		<tag k="name" v="Hillervika" />
		<tag k="natural" v="bay" />
		<tag k="ssr:stedsnr" v="548295" />
	</node>
	<node id="-36708" lat="59.2101163567" lon="5.44843692859">
		<tag k="fixme" v="consider place=hamlet" />
		<tag k="name" v="Håland" />
		<tag k="place" v="farm" />
		<tag k="ssr:stedsnr" v="548089" />
	</node>
	<node id="-36707" lat="59.2326833292" lon="5.49445000064">
		<tag k="alt_name" v="Søra Makrellvika" />
		<tag k="name" v="Makrellvika" />
		<tag k="natural" v="bay" />
		<tag k="ssr:stedsnr" v="547477" />
	</node>
	<node id="-36706" lat="59.1802475141" lon="5.39130170853">
		<tag k="fixme" v="consider place=hamlet" />
		<tag k="name" v="Jøsen" />
		<tag k="place" v="farm" />
		<tag k="ssr:stedsnr" v="547435" />
	</node>
	<node id="-36705" lat="59.1969924591" lon="5.44371769415">
		<tag k="fixme" v="consider place=hamlet" />
		<tag k="name" v="Vatnaland" />
		<tag k="place" v="farm" />
		<tag k="ssr:stedsnr" v="547078" />
	</node>
	<node id="-36704" lat="59.1888772065" lon="5.40560972227">
		<tag k="alt_name" v="Sønnaland" />
		<tag k="fixme" v="consider place=hamlet" />
		<tag k="name" v="Sunnaland" />
>>>>>>> e1d4bc35ff8a6074a6f2e91616a996b547c36f15
		<tag k="place" v="farm" />
		<tag k="ssr:stedsnr" v="478492" />
	</node>
<<<<<<< HEAD
	<node lat="59.18376110870974" lon="5.471133329271459" id="-2766">
		<tag k="alt_name" v="Svartaholmen" />
		<tag k="name" v="Svartholmen" />
		<tag k="place" v="islet" />
		<tag k="ssr:stedsnr" v="366298" />
	</node>
	<node lat="59.24003332996286" lon="5.3983944380032005" id="-2767">
=======
	<node id="-36703" lat="59.2452777752" lon="5.42043332818">
		<tag k="name" v="Brattholmen" />
		<tag k="place" v="islet" />
		<tag k="ssr:stedsnr" v="547057" />
	</node>
	<node id="-36702" lat="59.2388813163" lon="5.38335111589">
		<tag k="name" v="Lammaneset" />
		<tag k="natural" v="cape" />
		<tag k="ssr:stedsnr" v="547037" />
	</node>
	<node id="-36701" lat="59.2085583351" lon="5.3962638826">
>>>>>>> e1d4bc35ff8a6074a6f2e91616a996b547c36f15
		<tag k="fixme" v="consider natural=peak for the most distinct mountains in the district" />
		<tag k="name" v="Halvarsfjellet" />
		<tag k="natural" v="hill" />
		<tag k="place" v="locality" />
		<tag k="ssr:stedsnr" v="485884" />
	</node>
<<<<<<< HEAD
	<node lat="59.17741111095698" lon="5.386849998376727" id="-2768">
		<tag k="name" v="Jøsenvågen" />
		<tag k="natural" v="bay" />
		<tag k="ssr:stedsnr" v="388652" />
	</node>
	<node lat="59.18667499707335" lon="5.373486117045087" id="-2769">
		<tag k="name" v="Røyrvikodden" />
=======
	<node id="-36700" lat="59.2217249965" lon="5.41437221591">
		<tag k="name" v="Svenshidleren" />
		<tag k="natural" v="valley" />
		<tag k="place" v="locality" />
		<tag k="ssr:stedsnr" v="545969" />
	</node>
	<node id="-36699" lat="59.1796777743" lon="5.37652500283">
		<tag k="name" v="Neset" />
>>>>>>> e1d4bc35ff8a6074a6f2e91616a996b547c36f15
		<tag k="natural" v="cape" />
		<tag k="ssr:stedsnr" v="484926" />
	</node>
<<<<<<< HEAD
	<node lat="59.191372225337794" lon="5.3746333410256035" id="-2770">
		<tag k="name" v="Fuglanes" />
		<tag k="natural" v="cape" />
		<tag k="ssr:stedsnr" v="484929" />
	</node>
	<node lat="59.21813055507814" lon="5.4808833362074125" id="-2771">
		<tag k="name" v="Krågeskarhaugane" />
		<tag k="natural" v="hill" />
		<tag k="place" v="locality" />
		<tag k="ssr:stedsnr" v="484988" />
	</node>
	<node lat="59.222863891598166" lon="5.462211117720336" id="-2772">
		<tag k="name" v="Øyren" />
		<tag k="natural" v="cape" />
		<tag k="ssr:stedsnr" v="484990" />
	</node>
	<node lat="59.222594442209584" lon="5.494661110309327" id="-2773">
		<tag k="name" v="Litlafjellet" />
		<tag k="natural" v="hill" />
		<tag k="place" v="locality" />
		<tag k="ssr:stedsnr" v="484999" />
	</node>
	<node lat="59.2388813162936" lon="5.383351115894084" id="-2774">
		<tag k="name" v="Lammaneset" />
		<tag k="natural" v="cape" />
		<tag k="ssr:stedsnr" v="547037" />
	</node>
	<node lat="59.242919447206184" lon="5.416347214888053" id="-2775">
		<tag k="alt_name" v="Vågmulen" />
		<tag k="name" v="Vågsmulen" />
		<tag k="natural" v="cape" />
		<tag k="ssr:stedsnr" v="486025" />
	</node>
	<node lat="59.20361110946109" lon="5.403961111121852" id="-2776">
		<tag k="name" v="Stemmevatnet" />
=======
	<node id="-36698" lat="59.2428166683" lon="5.45358055056">
		<tag k="name" v="Lammanes" />
		<tag k="natural" v="cape" />
		<tag k="ssr:stedsnr" v="545893" />
	</node>
	<node id="-36697" lat="59.2333472241" lon="5.43235832851">
		<tag k="name" v="Sæbøstølane" />
		<tag k="natural" v="slope" />
		<tag k="place" v="locality" />
		<tag k="ssr:stedsnr" v="545891" />
	</node>
	<node id="-36696" lat="59.2296666626" lon="5.38214444164">
		<tag k="fixme" v="consider natural=peak for the most distinct mountains in the district" />
		<tag k="name" v="Vierfjellet" />
		<tag k="natural" v="hill" />
		<tag k="place" v="locality" />
		<tag k="ssr:stedsnr" v="545880" />
	</node>
	<node id="-36695" lat="59.2459666625" lon="5.39385555526">
		<tag k="name" v="Irshamn" />
		<tag k="natural" v="bay" />
		<tag k="ssr:stedsnr" v="545875" />
	</node>
	<node id="-36694" lat="59.2259166675" lon="5.37661389479">
		<tag k="name" v="Rabnajoda" />
		<tag k="natural" v="bay" />
		<tag k="ssr:stedsnr" v="545870" />
	</node>
	<node id="-36693" lat="59.1630027772" lon="5.42849166283">
		<tag k="name" v="Stongholmsskjeret" />
		<tag k="place" v="islet" />
		<tag k="ssr:stedsnr" v="539343" />
	</node>
	<node id="-36692" lat="59.1666388908" lon="5.40001388342">
		<tag k="name" v="Lyngnes" />
		<tag k="natural" v="cape" />
		<tag k="ssr:stedsnr" v="539333" />
	</node>
	<node id="-36691" lat="59.1711722241" lon="5.41111111709">
		<tag k="name" v="Eiderholmen" />
		<tag k="place" v="islet" />
		<tag k="ssr:stedsnr" v="539330" />
	</node>
	<node id="-36690" lat="59.1672694408" lon="5.40814166699">
		<tag k="name" v="Brattholmen" />
		<tag k="place" v="islet" />
		<tag k="ssr:stedsnr" v="539328" />
	</node>
	<node id="-36689" lat="59.1829138857" lon="5.39535833646">
		<tag k="name" v="Mellevatnet" />
>>>>>>> e1d4bc35ff8a6074a6f2e91616a996b547c36f15
		<tag k="natural" v="water" />
		<tag k="ssr:stedsnr" v="486064" />
		<tag k="water" v="lake" />
	</node>
<<<<<<< HEAD
	<node lat="59.24886047821081" lon="5.473087054511913" id="-2777">
		<tag k="name" v="Regaviga" />
		<tag k="natural" v="bay" />
		<tag k="ssr:stedsnr" v="486348" />
	</node>
	<node lat="59.20481389182478" lon="5.5073000035074156" id="-2778">
		<tag k="alt_name" v="Vågholmen, søre" />
		<tag k="name" v="Søre Vågholmen" />
		<tag k="place" v="islet" />
		<tag k="ssr:stedsnr" v="487292" />
	</node>
	<node lat="59.17115555295891" lon="5.452730561310165" id="-2779">
		<tag k="alt_name" v="Arsvågen, austre" />
		<tag k="name" v="Austre Arsvågen" />
		<tag k="natural" v="bay" />
		<tag k="ssr:stedsnr" v="487420" />
	</node>
	<node lat="59.16404166922154" lon="5.3887027809189805" id="-2780">
		<tag k="name" v="Søra Auseviga" />
		<tag k="natural" v="bay" />
		<tag k="ssr:stedsnr" v="487454" />
	</node>
	<node lat="59.22823333181683" lon="5.47302778148002" id="-2781">
		<tag k="alt_name" v="Varafjellet" />
		<tag k="fixme" v="consider natural=peak for the most distinct mountains in the district" />
		<tag k="name" v="Vardefjellet" />
		<tag k="natural" v="hill" />
		<tag k="place" v="locality" />
		<tag k="ssr:stedsnr" v="487468" />
	</node>
	<node lat="59.22995555801168" lon="5.501458325589499" id="-2782">
		<tag k="name" v="Våganeset" />
		<tag k="natural" v="cape" />
		<tag k="ssr:stedsnr" v="487474" />
	</node>
	<node lat="59.16953611489676" lon="5.431030562507927" id="-2783">
		<tag k="name" v="Steinsholmen" />
=======
	<node id="-36688" lat="59.181116667" lon="5.39272777009">
		<tag k="name" v="Jøsenfjellet" />
		<tag k="natural" v="hill" />
		<tag k="place" v="locality" />
		<tag k="ssr:stedsnr" v="539318" />
	</node>
	<node id="-36687" lat="59.1790861147" lon="5.38437778071">
		<tag k="name" v="Sævartjørna" />
		<tag k="natural" v="water" />
		<tag k="ssr:stedsnr" v="539313" />
	</node>
	<node id="-36686" lat="59.1922027812" lon="5.42407499335">
		<tag k="name" v="Bragabakkane" />
		<tag k="natural" v="slope" />
		<tag k="place" v="locality" />
		<tag k="ssr:stedsnr" v="539453" />
	</node>
	<node id="-36685" lat="59.2005777806" lon="5.44063333954">
		<tag k="fixme" v="consider natural=peak for the most distinct mountains in the district" />
		<tag k="name" v="Steinfjellet" />
		<tag k="natural" v="hill" />
		<tag k="place" v="locality" />
		<tag k="ssr:stedsnr" v="539451" />
	</node>
	<node id="-36684" lat="59.1685972215" lon="5.45087777711">
		<tag k="name" v="Valberg" />
		<tag k="natural" v="hill" />
		<tag k="place" v="locality" />
		<tag k="ssr:stedsnr" v="539051" />
	</node>
	<node id="-36683" lat="59.2323388921" lon="5.46206944165">
		<tag k="bridge" v="yes" />
		<tag k="layer" v="1" />
		<tag k="name" v="Kro" />
		<tag k="ssr:stedsnr" v="533510" />
	</node>
	<node id="-36682" lat="59.2550916642" lon="5.40968056064">
		<tag k="alt_name" v="Vindholmen;Vindholmane" />
		<tag k="name" v="Store Vindholmen" />
		<tag k="place" v="islet" />
		<tag k="ssr:stedsnr" v="427855" />
	</node>
	<node id="-36681" lat="59.261047218" lon="5.41818888078">
		<tag k="alt_name" v="Skolbuholmen" />
		<tag k="name" v="Skolbuholmane" />
>>>>>>> e1d4bc35ff8a6074a6f2e91616a996b547c36f15
		<tag k="place" v="islet" />
		<tag k="ssr:stedsnr" v="417437" />
	</node>
<<<<<<< HEAD
	<node lat="59.16928055836549" lon="5.396427777265225" id="-2784">
		<tag k="name" v="Tøgjevika" />
		<tag k="natural" v="bay" />
		<tag k="ssr:stedsnr" v="418346" />
	</node>
	<node lat="59.16068611170632" lon="5.437013891368993" id="-2785">
		<tag k="name" v="Teistholmen" />
		<tag k="place" v="islet" />
		<tag k="ssr:stedsnr" v="424912" />
	</node>
	<node lat="59.23522500385378" lon="5.475919445562026" id="-2786">
		<tag k="alt_name" v="Hetlebrekk" />
		<tag k="name" v="Hellebrekka" />
		<tag k="natural" v="slope" />
=======
	<node id="-36680" lat="59.2537027754" lon="5.46289444254">
		<tag k="name" v="Ognasundet" />
		<tag k="natural" v="strait" />
		<tag k="ssr:stedsnr" v="427850" />
	</node>
	<node id="-36679" lat="59.2220499991" lon="5.4005277728">
		<tag k="name" v="Stølen" />
		<tag k="place" v="farm" />
		<tag k="ssr:stedsnr" v="427118" />
	</node>
	<node id="-36678" lat="59.2316972243" lon="5.39307500386">
		<tag k="alt_name" v="Borgenvik" />
		<tag k="name" v="Bornevik" />
>>>>>>> e1d4bc35ff8a6074a6f2e91616a996b547c36f15
		<tag k="place" v="locality" />
		<tag k="ssr:stedsnr" v="426418" />
	</node>
<<<<<<< HEAD
	<node lat="59.232475000072576" lon="5.552994440988765" id="-2787">
		<tag k="name" v="Sørevika" />
		<tag k="natural" v="bay" />
		<tag k="ssr:stedsnr" v="426427" />
	</node>
	<node lat="59.211866662815325" lon="5.413172221641256" id="-2788">
		<tag k="alt_name" v="Ulvåvatnet" />
		<tag k="name" v="Ulvåna" />
=======
	<node id="-36677" lat="59.2147833338" lon="5.48966110546">
		<tag k="name" v="Donevika" />
		<tag k="natural" v="bay" />
		<tag k="ssr:stedsnr" v="424988" />
	</node>
	<node id="-36676" lat="59.2146250032" lon="5.40147777085">
		<tag k="name" v="Holmen" />
		<tag k="natural" v="cape" />
		<tag k="ssr:stedsnr" v="424977" />
	</node>
	<node id="-36675" lat="59.2261916683" lon="5.41272778467">
		<tag k="name" v="Djubadalen" />
		<tag k="natural" v="valley" />
		<tag k="place" v="locality" />
		<tag k="ssr:stedsnr" v="424972" />
	</node>
	<node id="-36674" lat="59.2214750014" lon="5.3913749929">
		<tag k="name" v="Nordra Kobbervatnet" />
>>>>>>> e1d4bc35ff8a6074a6f2e91616a996b547c36f15
		<tag k="natural" v="water" />
		<tag k="ssr:stedsnr" v="427105" />
		<tag k="water" v="lake" />
	</node>
<<<<<<< HEAD
	<node lat="59.22204999913641" lon="5.400527772796609" id="-2789">
		<tag k="name" v="Stølen" />
		<tag k="place" v="farm" />
		<tag k="ssr:stedsnr" v="427118" />
	</node>
	<node lat="59.180897219955426" lon="5.393627780268685" id="-2790">
		<tag k="name" v="Loten" />
		<tag k="place" v="farm" />
		<tag k="ssr:stedsnr" v="449790" />
	</node>
	<node lat="59.21489166549519" lon="5.475116672006806" id="-2791">
		<tag k="alt_name" v="Strandvig;Strandvik" />
		<tag k="name" v="Strandavika" />
=======
	<node id="-36673" lat="59.2330138899" lon="5.39713611723">
		<tag k="fixme" v="consider natural=peak for the most distinct mountains in the district" />
		<tag k="name" v="Buarfjellet" />
		<tag k="natural" v="hill" />
		<tag k="place" v="locality" />
		<tag k="ssr:stedsnr" v="424883" />
	</node>
	<node id="-36672" lat="59.1713833343" lon="5.41877499719">
		<tag k="name" v="Kjøyvågen" />
>>>>>>> e1d4bc35ff8a6074a6f2e91616a996b547c36f15
		<tag k="natural" v="bay" />
		<tag k="ssr:stedsnr" v="449905" />
	</node>
<<<<<<< HEAD
	<node lat="59.17946111075755" lon="5.46424999595827" id="-2792">
=======
	<node id="-36671" lat="59.1811305597" lon="5.41756111065">
>>>>>>> e1d4bc35ff8a6074a6f2e91616a996b547c36f15
		<tag k="fixme" v="consider seamark:type=rock or natural=shoal" />
		<tag k="name" v="Ringskjeret" />
		<tag k="place" v="islet" />
<<<<<<< HEAD
		<tag k="ssr:stedsnr" v="465613" />
	</node>
	<node lat="59.17021110778441" lon="5.414466658486033" id="-2793">
		<tag k="name" v="Litla Sauøyna" />
		<tag k="place" v="islet" />
		<tag k="ssr:stedsnr" v="478107" />
	</node>
	<node lat="59.17016666973422" lon="5.455372216387271" id="-2794">
		<tag k="name" v="Laksaberget" />
=======
		<tag k="ssr:stedsnr" v="418364" />
	</node>
	<node id="-36670" lat="59.1636027758" lon="5.40498889484">
		<tag k="name" v="Drevsund" />
		<tag k="natural" v="strait" />
		<tag k="ssr:stedsnr" v="418362" />
	</node>
	<node id="-36669" lat="59.1692805584" lon="5.39642777727">
		<tag k="name" v="Tøgjevika" />
		<tag k="natural" v="bay" />
		<tag k="ssr:stedsnr" v="418346" />
	</node>
	<node id="-36668" lat="59.1972694427" lon="5.38858611586">
		<tag k="name" v="Baståsen" />
>>>>>>> e1d4bc35ff8a6074a6f2e91616a996b547c36f15
		<tag k="natural" v="hill" />
		<tag k="place" v="locality" />
		<tag k="ssr:stedsnr" v="478058" />
	</node>
<<<<<<< HEAD
	<node lat="59.173102776676245" lon="5.384836115760917" id="-2795">
		<tag k="name" v="Lodalandet" />
		<tag k="natural" v="cape" />
		<tag k="ssr:stedsnr" v="478371" />
	</node>
	<node lat="59.16946388519409" lon="5.40524999200161" id="-2796">
		<tag k="name" v="Midtre Vierholmen" />
		<tag k="place" v="islet" />
		<tag k="ssr:stedsnr" v="478378" />
	</node>
	<node lat="59.195144445398874" lon="5.452344446099703" id="-2797">
		<tag k="name" v="Enebor" />
=======
	<node id="-36667" lat="59.198527777" lon="5.3824444378">
		<tag k="name" v="Kilshaugen" />
>>>>>>> e1d4bc35ff8a6074a6f2e91616a996b547c36f15
		<tag k="natural" v="hill" />
		<tag k="place" v="locality" />
		<tag k="ssr:stedsnr" v="478503" />
	</node>
<<<<<<< HEAD
	<node lat="59.15987222293312" lon="5.435933325816218" id="-2798">
		<tag k="name" v="Teistholmen" />
=======
	<node id="-36666" lat="59.1830000027" lon="5.46449721521">
		<tag k="name" v="Kjøynå" />
>>>>>>> e1d4bc35ff8a6074a6f2e91616a996b547c36f15
		<tag k="place" v="islet" />
		<tag k="ssr:stedsnr" v="487408" />
	</node>
<<<<<<< HEAD
	<node lat="59.16313611404436" lon="5.445755547766981" id="-2799">
		<tag k="name" v="Arsneset" />
		<tag k="natural" v="cape" />
		<tag k="ssr:stedsnr" v="487409" />
	</node>
	<node lat="59.266638889978054" lon="5.4307611083185146" id="-2800">
		<tag k="alt_name" v="Bokneflæet" />
		<tag k="bay" v="fjord" />
		<tag k="name" v="Boknaflæet" />
		<tag k="natural" v="bay" />
		<tag k="ssr:stedsnr" v="487906" />
	</node>
	<node lat="59.25431111321277" lon="5.460424997793069" id="-2801">
		<tag k="fixme" v="consider seamark:type=rock or natural=shoal" />
		<tag k="name" v="Vardnesskjeret" />
=======
	<node id="-36665" lat="59.1695361149" lon="5.43103056251">
		<tag k="name" v="Steinsholmen" />
>>>>>>> e1d4bc35ff8a6074a6f2e91616a996b547c36f15
		<tag k="place" v="islet" />
		<tag k="ssr:stedsnr" v="509603" />
	</node>
<<<<<<< HEAD
	<node lat="59.2323388921394" lon="5.462069441646683" id="-2802">
		<tag k="bridge" v="yes" />
		<tag k="layer" v="1" />
		<tag k="name" v="Kro" />
		<tag k="ssr:stedsnr" v="533510" />
	</node>
	<node lat="59.24596666253333" lon="5.393855555260877" id="-2803">
		<tag k="name" v="Irshamn" />
		<tag k="natural" v="bay" />
		<tag k="ssr:stedsnr" v="545875" />
	</node>
	<node lat="59.229666662583156" lon="5.382144441640419" id="-2804">
		<tag k="fixme" v="consider natural=peak for the most distinct mountains in the district" />
		<tag k="name" v="Vierfjellet" />
		<tag k="natural" v="hill" />
		<tag k="place" v="locality" />
		<tag k="ssr:stedsnr" v="545880" />
	</node>
	<node lat="59.17967777426795" lon="5.3765250028282505" id="-2805">
		<tag k="name" v="Neset" />
		<tag k="natural" v="cape" />
		<tag k="ssr:stedsnr" v="545924" />
	</node>
	<node lat="59.20855833512746" lon="5.396263882598381" id="-2806">
=======
	<node id="-36664" lat="59.1720500025" lon="5.45038333281">
		<tag k="bridge" v="yes" />
		<tag k="layer" v="1" />
		<tag k="name" v="Are" />
		<tag k="ssr:stedsnr" v="411499" />
	</node>
	<node id="-36663" lat="59.1670805531" lon="5.41821110758">
		<tag k="name" v="Brøgene" />
		<tag k="place" v="islet" />
		<tag k="ssr:stedsnr" v="388671" />
	</node>
	<node id="-36662" lat="59.2514805898" lon="5.44842848606">
		<tag k="alt_name" v="Fløsund" />
		<tag k="name" v="Fløysundet" />
		<tag k="natural" v="strait" />
		<tag k="ssr:stedsnr" v="388622" />
	</node>
	<node id="-36661" lat="59.2618777811" lon="5.41189167185">
		<tag k="name" v="Lamholmen" />
		<tag k="place" v="islet" />
		<tag k="ssr:stedsnr" v="366872" />
	</node>
	<node id="-36660" lat="59.1837611087" lon="5.47113332927">
		<tag k="alt_name" v="Svartaholmen" />
		<tag k="name" v="Svartholmen" />
		<tag k="place" v="islet" />
		<tag k="ssr:stedsnr" v="366298" />
	</node>
	<node id="-36659" lat="59.2180138935" lon="5.42066111815">
>>>>>>> e1d4bc35ff8a6074a6f2e91616a996b547c36f15
		<tag k="fixme" v="consider natural=peak for the most distinct mountains in the district" />
		<tag k="name" v="Håmannsnuten" />
		<tag k="natural" v="hill" />
		<tag k="place" v="locality" />
<<<<<<< HEAD
		<tag k="ssr:stedsnr" v="545975" />
	</node>
	<node lat="59.18887720652103" lon="5.405609722271615" id="-2807">
		<tag k="alt_name" v="Sønnaland" />
		<tag k="fixme" v="consider place=hamlet" />
		<tag k="name" v="Sunnaland" />
=======
		<tag k="ssr:stedsnr" v="366113" />
	</node>
	<node id="-36658" lat="59.2167527766" lon="5.38390277599">
		<tag k="name" v="Trosnavågen" />
		<tag k="natural" v="bay" />
		<tag k="ssr:stedsnr" v="366107" />
	</node>
	<node id="-36657" lat="59.2264222199" lon="5.3958055587">
		<tag k="alt_name" v="Kleivane" />
		<tag k="name" v="Kleiva" />
>>>>>>> e1d4bc35ff8a6074a6f2e91616a996b547c36f15
		<tag k="place" v="farm" />
		<tag k="ssr:stedsnr" v="547075" />
	</node>
<<<<<<< HEAD
	<node lat="59.196992459145456" lon="5.443717694150293" id="-2808">
=======
	<node id="-36656" lat="59.217156336" lon="5.41266398498">
>>>>>>> e1d4bc35ff8a6074a6f2e91616a996b547c36f15
		<tag k="fixme" v="consider place=hamlet" />
		<tag k="name" v="Vatnaland" />
		<tag k="place" v="farm" />
		<tag k="ssr:stedsnr" v="547078" />
	</node>
<<<<<<< HEAD
	<node lat="59.23268332923987" lon="5.494450000639577" id="-2809">
		<tag k="alt_name" v="Søra Makrellvika" />
		<tag k="name" v="Makrellvika" />
		<tag k="natural" v="bay" />
		<tag k="ssr:stedsnr" v="547477" />
	</node>
	<node lat="59.15690277658296" lon="5.404474994406521" id="-2811">
		<tag k="name" v="Langholmen" />
=======
	<node id="-36655" lat="59.2244499995" lon="5.4932194454">
		<tag k="name" v="Vågavågen" />
		<tag k="natural" v="bay" />
		<tag k="ssr:stedsnr" v="365487" />
	</node>
	<node id="-36654" lat="59.2179313307" lon="5.48734035496">
		<tag k="alt_name" v="Våga" />
		<tag k="fixme" v="consider place=hamlet" />
		<tag k="name" v="Søre Våga" />
		<tag k="place" v="farm" />
		<tag k="ssr:stedsnr" v="365471" />
	</node>
	<node id="-36653" lat="59.1685555539" lon="5.40403888433">
		<tag k="name" v="Vierholmane" />
>>>>>>> e1d4bc35ff8a6074a6f2e91616a996b547c36f15
		<tag k="place" v="islet" />
		<tag k="ssr:stedsnr" v="548404" />
	</node>
<<<<<<< HEAD
	<node lat="59.19332499957967" lon="5.377283336794508" id="-2812">
		<tag k="fixme" v="consider seamark:type=rock or natural=shoal" />
		<tag k="name" v="Nibbaskjeret" />
		<tag k="place" v="islet" />
		<tag k="ssr:stedsnr" v="692658" />
	</node>
	<node lat="59.20722222629141" lon="5.508333334030159" id="-2813">
		<tag k="name" v="Hillervågen" />
=======
	<node id="-36652" lat="59.1813676247" lon="5.42487714893">
		<tag k="fixme" v="consider place=hamlet" />
		<tag k="name" v="Hognaland" />
		<tag k="place" v="farm" />
		<tag k="ssr:stedsnr" v="365424" />
	</node>
	<node id="-36651" lat="59.174388887" lon="5.37904722008">
		<tag k="name" v="Kjølevig" />
>>>>>>> e1d4bc35ff8a6074a6f2e91616a996b547c36f15
		<tag k="natural" v="bay" />
		<tag k="ssr:stedsnr" v="571938" />
	</node>
<<<<<<< HEAD
	<node lat="59.27255833455007" lon="5.473044448972804" id="-2814">
		<tag k="name" v="Brattholmen" />
		<tag k="place" v="islet" />
		<tag k="ssr:stedsnr" v="572645" />
	</node>
	<node lat="59.21200833623807" lon="5.552891658378352" id="-2815">
		<tag k="name" v="Rovetærgrunnen" />
		<tag k="natural" v="shoal" />
		<tag k="place" v="locality" />
		<tag k="ssr:stedsnr" v="693951" />
	</node>
	<node lat="59.2537194475685" lon="5.482952782381397" id="-2816">
		<tag k="alt_name" v="Ognatongjen" />
		<tag k="name" v="Ognatangen" />
=======
	<node id="-36650" lat="59.1976722208" lon="5.37851111809">
		<tag k="alt_name" v="Ådnaneset" />
		<tag k="name" v="Ådnanes" />
>>>>>>> e1d4bc35ff8a6074a6f2e91616a996b547c36f15
		<tag k="natural" v="cape" />
		<tag k="ssr:stedsnr" v="694629" />
	</node>
<<<<<<< HEAD
	<node lat="59.203130557853555" lon="5.502861115771694" id="-2818">
		<tag k="name" v="Skolten" />
		<tag k="place" v="locality" />
		<tag k="seamark:type" v="rock" />
		<tag k="ssr:stedsnr" v="586616" />
	</node>
	<node lat="59.17036110775583" lon="5.402022216749139" id="-2819">
		<tag k="fixme" v="consider seamark:type=rock or natural=shoal" />
		<tag k="name" v="Varholmen" />
		<tag k="place" v="islet" />
		<tag k="ssr:stedsnr" v="599351" />
	</node>
	<node lat="59.175397218209" lon="5.402102772603731" id="-2820">
		<tag k="name" v="Stuttanes" />
		<tag k="natural" v="cape" />
		<tag k="ssr:stedsnr" v="599359" />
	</node>
	<node lat="59.182163888390576" lon="5.418855558244624" id="-2821">
		<tag k="name" v="Bakkavika" />
=======
	<node id="-36649" lat="59.2001833313" lon="5.40323333862">
		<tag k="name" v="Grønnestadvatnet" />
		<tag k="natural" v="water" />
		<tag k="ssr:stedsnr" v="365092" />
		<tag k="water" v="lake" />
	</node>
	<node id="-36648" lat="59.205327775" lon="5.3770972272">
		<tag k="alt_name" v="Rekavika;Rekevik;Regavika" />
		<tag k="name" v="Regaviga" />
>>>>>>> e1d4bc35ff8a6074a6f2e91616a996b547c36f15
		<tag k="natural" v="bay" />
		<tag k="ssr:stedsnr" v="599365" />
	</node>
<<<<<<< HEAD
	<node lat="59.20110833421069" lon="5.3901444357835935" id="-2822">
		<tag k="name" v="Otrahaugane" />
		<tag k="natural" v="hill" />
		<tag k="place" v="locality" />
		<tag k="ssr:stedsnr" v="599467" />
	</node>
	<node lat="59.15902222070332" lon="5.3914861102168485" id="-2823">
		<tag k="name" v="Kleppogn" />
		<tag k="natural" v="strait" />
		<tag k="ssr:stedsnr" v="600807" />
	</node>
	<node lat="59.24785000269261" lon="5.4588138829962105" id="-2824">
		<tag k="name" v="Krovatnet" />
=======
	<node id="-36647" lat="59.1859777781" lon="5.42622221474">
		<tag k="name" v="Hognalandsvatnet" />
		<tag k="natural" v="water" />
		<tag k="ssr:stedsnr" v="365085" />
		<tag k="water" v="lake" />
	</node>
	<node id="-36646" lat="59.1949861139" lon="5.43701943962">
		<tag k="name" v="Vatnalandsvatnet" />
>>>>>>> e1d4bc35ff8a6074a6f2e91616a996b547c36f15
		<tag k="natural" v="water" />
		<tag k="ssr:stedsnr" v="606898" />
	</node>
<<<<<<< HEAD
	<node lat="59.19324167021558" lon="5.379522222476459" id="-2825">
		<tag k="name" v="Ringpynten" />
		<tag k="natural" v="cape" />
		<tag k="ssr:stedsnr" v="608054" />
	</node>
	<node lat="59.216622225226494" lon="5.4446000007676405" id="-2826">
		<tag k="alt_name" v="Boknabergsvatnet" />
		<tag k="name" v="Boknabergvatnet" />
		<tag k="natural" v="water" />
		<tag k="ssr:stedsnr" v="608091" />
	</node>
	<node lat="59.22446944162533" lon="5.540652786347419" id="-2827">
=======
	<node id="-36645" lat="59.2366472197" lon="5.39142778147">
		<tag k="alt_name" v="Breivik" />
		<tag k="name" v="Breidvika" />
		<tag k="natural" v="bay" />
		<tag k="ssr:stedsnr" v="365033" />
	</node>
	<node id="-36644" lat="59.2143444446" lon="5.5000305555">
>>>>>>> e1d4bc35ff8a6074a6f2e91616a996b547c36f15
		<tag k="fixme" v="consider seamark:type=rock or natural=shoal" />
		<tag k="name" v="Rovetærne" />
		<tag k="place" v="islet" />
		<tag k="ssr:stedsnr" v="608492" />
	</node>
<<<<<<< HEAD
	<node lat="59.25338055578002" lon="5.479633334714396" id="-2828">
		<tag k="name" v="Båsen" />
		<tag k="natural" v="bay" />
		<tag k="ssr:stedsnr" v="629911" />
	</node>
	<node lat="59.1935194483779" lon="5.384269444089318" id="-2829">
		<tag k="name" v="Skibaflua" />
=======
	<node id="-36643" lat="59.2166555591" lon="5.40298333167">
		<tag k="name" v="Neset" />
		<tag k="natural" v="cape" />
		<tag k="ssr:stedsnr" v="363981" />
	</node>
	<node id="-36642" lat="59.2474111122" lon="5.47338888899">
		<tag k="name" v="Otrahaugen" />
		<tag k="natural" v="hill" />
>>>>>>> e1d4bc35ff8a6074a6f2e91616a996b547c36f15
		<tag k="place" v="locality" />
		<tag k="seamark:type" v="rock" />
		<tag k="ssr:stedsnr" v="630607" />
	</node>
<<<<<<< HEAD
	<node lat="59.173730558327506" lon="5.396694439403606" id="-2830">
		<tag k="name" v="Storevågen" />
		<tag k="natural" v="bay" />
		<tag k="ssr:stedsnr" v="630618" />
	</node>
	<node lat="59.194391666106704" lon="5.38591389707024" id="-2831">
		<tag k="name" v="Skibaflua" />
		<tag k="place" v="locality" />
		<tag k="seamark:type" v="rock" />
		<tag k="ssr:stedsnr" v="647625" />
	</node>
	<node lat="59.17061667000397" lon="5.45350000406961" id="-2832">
		<tag k="alt_name" v="Arsvågen" />
		<tag k="amenity" v="ferry_terminal" />
		<tag k="name" v="Arsvågen ferjekai" />
		<tag k="ssr:stedsnr" v="654513" />
	</node>
	<node lat="59.182061115700094" lon="5.4151333365747" id="-2833">
		<tag k="name" v="Bakkjen" />
=======
	<node id="-36641" lat="59.2181416688" lon="5.39598888342">
		<tag k="name" v="Løgjen" />
		<tag k="natural" v="water" />
		<tag k="ssr:stedsnr" v="363966" />
		<tag k="water" v="lake" />
	</node>
	<node id="-36640" lat="59.2344999974" lon="5.41808333512">
		<tag k="name" v="Stolltjørna" />
		<tag k="natural" v="water" />
		<tag k="ssr:stedsnr" v="363877" />
	</node>
	<node id="-36639" lat="59.2305305587" lon="5.39446945091">
		<tag k="name" v="Søre Bornevik" />
>>>>>>> e1d4bc35ff8a6074a6f2e91616a996b547c36f15
		<tag k="place" v="farm" />
		<tag k="ssr:stedsnr" v="660395" />
	</node>
<<<<<<< HEAD
	<node lat="59.17024721780896" lon="5.420591663681121" id="-2834">
		<tag k="name" v="Skyttarholmen" />
=======
	<node id="-36638" lat="59.1851527756" lon="5.47122777324">
		<tag k="name" v="Varholmen" />
>>>>>>> e1d4bc35ff8a6074a6f2e91616a996b547c36f15
		<tag k="place" v="islet" />
		<tag k="ssr:stedsnr" v="660399" />
	</node>
<<<<<<< HEAD
	<node lat="59.198033335600606" lon="5.441599991321494" id="-2835">
		<tag k="name" v="Husafjellet" />
		<tag k="natural" v="hill" />
		<tag k="place" v="locality" />
		<tag k="ssr:stedsnr" v="660504" />
	</node>
	<node lat="59.185455556959795" lon="5.401361102486552" id="-2836">
		<tag k="name" v="Kvednavika" />
=======
	<node id="-36637" lat="59.1915694486" lon="5.46096666503">
		<tag k="name" v="Høghaug" />
		<tag k="natural" v="hill" />
		<tag k="place" v="locality" />
		<tag k="ssr:stedsnr" v="357464" />
	</node>
	<node id="-36636" lat="59.1652194415" lon="5.40296388443">
		<tag k="fixme" v="consider seamark:type=rock or natural=shoal" />
		<tag k="name" v="Brennevinsskjeret" />
		<tag k="place" v="islet" />
		<tag k="ssr:stedsnr" v="357357" />
	</node>
	<node id="-36635" lat="59.1632083317" lon="5.40174166019">
		<tag k="name" v="Røydehamn" />
>>>>>>> e1d4bc35ff8a6074a6f2e91616a996b547c36f15
		<tag k="natural" v="bay" />
		<tag k="ssr:stedsnr" v="660480" />
	</node>
<<<<<<< HEAD
	<node lat="59.19208333703612" lon="5.432758337146293" id="-2837">
		<tag k="name" v="Pålavika" />
		<tag k="natural" v="bay" />
		<tag k="ssr:stedsnr" v="660487" />
	</node>
	<node lat="59.195438886640844" lon="5.433566664560379" id="-2838">
		<tag k="name" v="Vatlandsvatnet" />
=======
	<node id="-36634" lat="59.1682916647" lon="5.39896388077">
		<tag k="name" v="Kvidanes" />
		<tag k="natural" v="cape" />
		<tag k="ssr:stedsnr" v="357349" />
	</node>
	<node id="-36633" lat="59.1826585858" lon="5.3838789185">
		<tag k="name" v="Søra Jøsenvatnet" />
>>>>>>> e1d4bc35ff8a6074a6f2e91616a996b547c36f15
		<tag k="natural" v="water" />
		<tag k="ssr:stedsnr" v="660491" />
		<tag k="water" v="lake" />
	</node>
<<<<<<< HEAD
	<node lat="59.187491664778406" lon="5.423061114045528" id="-2839">
		<tag k="name" v="Tveidane" />
		<tag k="place" v="farm" />
		<tag k="ssr:stedsnr" v="660498" />
	</node>
	<node lat="59.161525002528386" lon="5.4302916646879185" id="-2840">
		<tag k="name" v="Stongholmsvika" />
		<tag k="natural" v="bay" />
		<tag k="ssr:stedsnr" v="660804" />
	</node>
	<node lat="59.23452499962338" lon="5.441911118908508" id="-2841">
		<tag k="fixme" v="consider seamark:type=rock or natural=shoal" />
		<tag k="name" v="Tå" />
=======
	<node id="-36632" lat="59.1834138896" lon="5.45760554785">
		<tag k="name" v="Lauplandsvågen" />
		<tag k="natural" v="bay" />
		<tag k="ssr:stedsnr" v="357080" />
	</node>
	<node id="-36631" lat="59.1593194456" lon="5.41030555635">
		<tag k="fixme" v="consider seamark:type=rock or natural=shoal" />
		<tag k="name" v="Olaskjera" />
>>>>>>> e1d4bc35ff8a6074a6f2e91616a996b547c36f15
		<tag k="place" v="islet" />
		<tag k="ssr:stedsnr" v="668008" />
	</node>
<<<<<<< HEAD
	<node lat="59.21150277558919" lon="5.3890694470454354" id="-2842">
		<tag k="name" v="Vintrastø" />
		<tag k="place" v="farm" />
		<tag k="ssr:stedsnr" v="669078" />
	</node>
	<node lat="59.218722224467996" lon="5.458322225738959" id="-2843">
		<tag k="name" v="Alvestadkroken" />
		<tag k="natural" v="cape" />
		<tag k="ssr:stedsnr" v="669084" />
	</node>
	<node lat="59.17353888937258" lon="5.416436119726813" id="-2844">
		<tag k="name" v="Stora Kjeøya" />
=======
	<node id="-36630" lat="59.155883331" lon="5.40532778425">
		<tag k="name" v="Longholmane" />
>>>>>>> e1d4bc35ff8a6074a6f2e91616a996b547c36f15
		<tag k="place" v="islet" />
		<tag k="ssr:stedsnr" v="669416" />
	</node>
<<<<<<< HEAD
	<node lat="59.16128889016241" lon="5.427936117040781" id="-2845">
		<tag k="name" v="Stumpen" />
		<tag k="place" v="locality" />
		<tag k="seamark:type" v="rock" />
		<tag k="ssr:stedsnr" v="692681" />
	</node>
	<node lat="59.22728611090244" lon="5.499686110716996" id="-2846">
		<tag k="alt_name" v="Skjersund" />
		<tag k="name" v="Skjersundet" />
=======
	<node id="-36629" lat="59.1555472196" lon="5.41068332804">
		<tag k="name" v="Djubasundet" />
>>>>>>> e1d4bc35ff8a6074a6f2e91616a996b547c36f15
		<tag k="natural" v="strait" />
		<tag k="ssr:stedsnr" v="693872" />
	</node>
<<<<<<< HEAD
	<node lat="59.26498888603791" lon="5.450552785091462" id="-2847">
		<tag k="name" v="Brattholmen" />
		<tag k="place" v="islet" />
		<tag k="ssr:stedsnr" v="694624" />
	</node>
	<node lat="59.20982221852463" lon="5.457336111177077" id="-2848">
		<tag k="bridge" v="yes" />
		<tag k="layer" v="1" />
		<tag k="name" v="Industrivegen" />
		<tag k="ssr:stedsnr" v="897477" />
	</node>
	<node lat="59.15311389099583" lon="5.43925277043292" id="-2849">
		<tag k="name" v="Skolleflua" />
=======
	<node id="-36628" lat="59.1615027777" lon="5.44581943584">
		<tag k="name" v="Munkhamn" />
		<tag k="natural" v="bay" />
		<tag k="ssr:stedsnr" v="356825" />
	</node>
	<node id="-36627" lat="59.1665861086" lon="5.4296749994">
		<tag k="name" v="Torvvika" />
		<tag k="natural" v="bay" />
		<tag k="ssr:stedsnr" v="356408" />
	</node>
	<node id="-36626" lat="59.1641250003" lon="5.45823888481">
		<tag k="name" v="Eriksgrunnen" />
		<tag k="natural" v="shoal" />
>>>>>>> e1d4bc35ff8a6074a6f2e91616a996b547c36f15
		<tag k="place" v="locality" />
		<tag k="seamark:type" v="rock" />
		<tag k="ssr:stedsnr" v="708668" />
	</node>
<<<<<<< HEAD
	<node lat="59.18530278061914" lon="5.404141671451139" id="-2850">
		<tag k="bridge" v="yes" />
		<tag k="layer" v="1" />
		<tag k="name" v="Sønderlandstraumen" />
		<tag k="ssr:stedsnr" v="715523" />
	</node>
	<node lat="59.170008336979784" lon="5.405174995394912" id="-2851">
		<tag k="name" v="Nordre Vierholmen" />
=======
	<node id="-36625" lat="59.1845555592" lon="5.4678222206">
		<tag k="fixme" v="consider seamark:type=rock or natural=shoal" />
		<tag k="name" v="Ringskjer" />
>>>>>>> e1d4bc35ff8a6074a6f2e91616a996b547c36f15
		<tag k="place" v="islet" />
		<tag k="ssr:stedsnr" v="721371" />
	</node>
<<<<<<< HEAD
	<node lat="59.1881027781558" lon="5.412258339762512" id="-2852">
		<tag k="name" v="Sunnalandsvatnet" />
		<tag k="natural" v="water" />
		<tag k="ssr:stedsnr" v="721472" />
		<tag k="water" v="lake" />
	</node>
	<node lat="59.24612499698034" lon="5.386924992105608" id="-2853">
		<tag k="name" v="Boknahovsholmen" />
=======
	<node id="-36624" lat="59.2680475887" lon="5.47545063468">
		<tag k="name" v="Steinsvik" />
		<tag k="natural" v="bay" />
		<tag k="ssr:stedsnr" v="330681" />
	</node>
	<node id="-36623" lat="59.2723750012" lon="5.47000555872">
		<tag k="name" v="Risholmen" />
>>>>>>> e1d4bc35ff8a6074a6f2e91616a996b547c36f15
		<tag k="place" v="islet" />
		<tag k="ssr:stedsnr" v="727876" />
	</node>
	<node lat="59.23050555704832" lon="5.388422230805712" id="-2854">
		<tag k="name" v="Nordre Breivik" />
		<tag k="place" v="farm" />
		<tag k="ssr:stedsnr" v="727887" />
	</node>
<<<<<<< HEAD
	<node lat="59.233338887877444" lon="5.41046943613732" id="-2855">
=======
	<node id="-36622" lat="59.2279861144" lon="5.49591388296">
>>>>>>> e1d4bc35ff8a6074a6f2e91616a996b547c36f15
		<tag k="fixme" v="consider natural=peak for the most distinct mountains in the district" />
		<tag k="name" v="Spikfjell" />
		<tag k="natural" v="hill" />
		<tag k="place" v="locality" />
<<<<<<< HEAD
		<tag k="ssr:stedsnr" v="727889" />
	</node>
	<node lat="59.23776666471045" lon="5.411055561828947" id="-2856">
=======
		<tag k="ssr:stedsnr" v="329870" />
	</node>
	<node id="-36620" lat="59.1571000019" lon="5.3837444421">
		<tag k="name" v="Skolten" />
		<tag k="natural" v="shoal" />
		<tag k="place" v="locality" />
		<tag k="ssr:stedsnr" v="327643" />
	</node>
	<node id="-36618" lat="59.2346175904" lon="5.55145565353">
		<tag k="alt_name" v="Naudøyna" />
		<tag k="name" v="Nautøya" />
		<tag k="place" v="island" />
		<tag k="ssr:stedsnr" v="305468" />
	</node>
	<node id="-36617" lat="59.1677527759" lon="5.38803334208">
>>>>>>> e1d4bc35ff8a6074a6f2e91616a996b547c36f15
		<tag k="fixme" v="consider natural=peak for the most distinct mountains in the district" />
		<tag k="name" v="Stoggfjell" />
		<tag k="natural" v="hill" />
		<tag k="place" v="locality" />
<<<<<<< HEAD
		<tag k="ssr:stedsnr" v="727891" />
	</node>
	<node lat="59.22096111102748" lon="5.408263882613426" id="-2857">
		<tag k="fixme" v="consider natural=peak for the most distinct mountains in the district" />
		<tag k="name" v="Varen" />
		<tag k="natural" v="hill" />
		<tag k="place" v="locality" />
		<tag k="ssr:stedsnr" v="727977" />
	</node>
	<node lat="59.212702777247365" lon="5.420016664478855" id="-2858">
		<tag k="name" v="Olahaugane" />
=======
		<tag k="ssr:stedsnr" v="305445" />
	</node>
	<node id="-36616" lat="59.2171805546" lon="5.50848055544">
		<tag k="alt_name" v="Vågholmen, nordre" />
		<tag k="name" v="Nordre Vågholmen" />
		<tag k="place" v="islet" />
		<tag k="ssr:stedsnr" v="305292" />
	</node>
	<node id="-36615" lat="59.1956777765" lon="5.38723055039">
		<tag k="name" v="Grønnestadvågen" />
		<tag k="natural" v="bay" />
		<tag k="ssr:stedsnr" v="305088" />
	</node>
	<node id="-36614" lat="59.2692416655" lon="5.47899721648">
		<tag k="name" v="Ognakalven" />
		<tag k="place" v="islet" />
		<tag k="ssr:stedsnr" v="305226" />
	</node>
	<node id="-36613" lat="59.1376694474" lon="5.43951110383">
		<tag k="name" v="Arsgrunnen" />
		<tag k="natural" v="shoal" />
		<tag k="place" v="locality" />
		<tag k="ssr:stedsnr" v="304393" />
	</node>
	<node id="-36612" lat="59.2466527814" lon="5.39400278126">
		<tag k="alt_name" v="Irståni" />
		<tag k="name" v="Irståna" />
		<tag k="place" v="island" />
		<tag k="ssr:stedsnr" v="304049" />
	</node>
	<node id="-36611" lat="59.2381611114" lon="5.41912778248">
		<tag k="name" v="Leirbotn" />
		<tag k="natural" v="bay" />
		<tag k="ssr:stedsnr" v="304038" />
	</node>
	<node id="-36610" lat="59.2274416695" lon="5.38586944705">
		<tag k="name" v="Breiviktjørna" />
		<tag k="natural" v="water" />
		<tag k="ssr:stedsnr" v="303885" />
	</node>
	<node id="-36609" lat="59.2232944403" lon="5.46609444438">
		<tag k="landuse" v="meadow" />
		<tag k="name" v="Træet" />
		<tag k="ssr:stedsnr" v="302984" />
	</node>
	<node id="-36608" lat="59.2168083331" lon="5.48212500307">
		<tag k="name" v="Krågeskarpytten" />
		<tag k="natural" v="water" />
		<tag k="ssr:stedsnr" v="302980" />
		<tag k="water" v="pond" />
	</node>
	<node id="-36607" lat="59.2147805562" lon="5.41000000229">
		<tag k="name" v="Ulvåghaugane" />
>>>>>>> e1d4bc35ff8a6074a6f2e91616a996b547c36f15
		<tag k="natural" v="hill" />
		<tag k="place" v="locality" />
		<tag k="ssr:stedsnr" v="727980" />
	</node>
<<<<<<< HEAD
	<node lat="59.21537777888883" lon="5.49968055833438" id="-2859">
		<tag k="name" v="Sjuraodden" />
=======
	<node id="-36606" lat="59.2496972248" lon="5.46509166554">
		<tag k="name" v="Krossnes" />
>>>>>>> e1d4bc35ff8a6074a6f2e91616a996b547c36f15
		<tag k="natural" v="cape" />
		<tag k="ssr:stedsnr" v="727998" />
	</node>
<<<<<<< HEAD
	<node lat="59.20448889123261" lon="5.382816660713641" id="-2860">
		<tag k="name" v="Ådnaneset" />
		<tag k="natural" v="cape" />
		<tag k="ssr:stedsnr" v="729081" />
	</node>
	<node lat="59.21045719894622" lon="5.4261590018283705" id="-2861">
		<tag k="fixme" v="consider place=hamlet" />
		<tag k="name" v="Torland" />
		<tag k="place" v="farm" />
		<tag k="ssr:stedsnr" v="730088" />
	</node>
	<node lat="59.22626388977043" lon="5.384230547657463" id="-2862">
		<tag k="fixme" v="multiple name tags, choose one and add the other to alt_name" />
		<tag k="name" v="Flatberget;Ørnå" />
		<tag k="natural" v="hill" />
		<tag k="place" v="locality" />
		<tag k="ssr:stedsnr" v="730106" />
	</node>
	<node lat="59.17345833400864" lon="5.403855557065033" id="-2863">
		<tag k="name" v="Langanes" />
=======
	<node id="-36605" lat="59.2525083332" lon="5.45514165842">
		<tag k="name" v="Tagvika" />
		<tag k="natural" v="bay" />
		<tag k="ssr:stedsnr" v="209687" />
	</node>
	<node id="-36604" lat="59.2149999968" lon="5.50916667462">
		<tag k="name" v="Humrabrunnen" />
		<tag k="natural" v="water" />
		<tag k="ssr:stedsnr" v="207909" />
		<tag k="water" v="lake" />
	</node>
	<node id="-36603" lat="59.2263333335" lon="5.49666110322">
		<tag k="name" v="Likvika" />
		<tag k="natural" v="bay" />
		<tag k="ssr:stedsnr" v="207874" />
	</node>
	<node id="-36602" lat="59.208352777" lon="5.48483610774">
		<tag k="name" v="Aksdalsneset" />
>>>>>>> e1d4bc35ff8a6074a6f2e91616a996b547c36f15
		<tag k="natural" v="cape" />
		<tag k="ssr:stedsnr" v="730422" />
	</node>
<<<<<<< HEAD
	<node lat="59.25646666427164" lon="5.403375006630095" id="-2864">
		<tag k="alt_name" v="Mekjerøya, store;stora Megjarøyna;Stora Megerøy" />
		<tag k="name" v="Stora Mekjerøya" />
=======
	<node id="-36601" lat="59.1550222194" lon="5.41320555252">
		<tag k="name" v="Bussholmane" />
>>>>>>> e1d4bc35ff8a6074a6f2e91616a996b547c36f15
		<tag k="place" v="islet" />
		<tag k="ssr:stedsnr" v="730892" />
	</node>
<<<<<<< HEAD
	<node lat="59.268063889206005" lon="5.4534583275651975" id="-2865">
		<tag k="alt_name" v="Lamholmen" />
		<tag k="name" v="Lamholmane" />
=======
	<node id="-36600" lat="59.1603194456" lon="5.38637778571">
		<tag k="fixme" v="consider seamark:type=rock or natural=shoal" />
		<tag k="name" v="Austevigskjeret" />
>>>>>>> e1d4bc35ff8a6074a6f2e91616a996b547c36f15
		<tag k="place" v="islet" />
		<tag k="ssr:stedsnr" v="730904" />
	</node>
<<<<<<< HEAD
	<node lat="59.167077781556635" lon="5.4200999950715705" id="-2866">
		<tag k="name" v="Austre Brog" />
=======
	<node id="-36599" lat="59.1712777821" lon="5.42542222242">
		<tag k="name" v="Fladholmen" />
>>>>>>> e1d4bc35ff8a6074a6f2e91616a996b547c36f15
		<tag k="place" v="islet" />
		<tag k="ssr:stedsnr" v="903391" />
	</node>
<<<<<<< HEAD
	<node lat="59.19511388833769" lon="5.406124993639438" id="-2867">
		<tag k="name" v="Håfjellet" />
		<tag k="natural" v="hill" />
		<tag k="place" v="locality" />
		<tag k="ssr:stedsnr" v="903455" />
	</node>
	<node lat="59.198436108247385" lon="5.452352785836301" id="-2868">
		<tag k="fixme" v="consider natural=peak for the most distinct mountains in the district" />
		<tag k="name" v="Søra Hatlefjellet" />
		<tag k="natural" v="hill" />
		<tag k="place" v="locality" />
		<tag k="ssr:stedsnr" v="903466" />
	</node>
	<node lat="59.186636111462946" lon="5.466977778630366" id="-2869">
		<tag k="alt_name" v="Krokvågen" />
		<tag k="name" v="Kråkevågen" />
		<tag k="natural" v="bay" />
		<tag k="ssr:stedsnr" v="903472" />
	</node>
	<node lat="59.160836112652326" lon="5.400152779707372" id="-2870">
		<tag k="name" v="Regavik" />
		<tag k="natural" v="bay" />
		<tag k="ssr:stedsnr" v="903811" />
	</node>
	<node lat="59.23662500402459" lon="5.485324999919377" id="-2871">
		<tag k="name" v="Nordra Makrellvika" />
=======
	<node id="-36598" lat="59.1755222207" lon="5.38354721791">
		<tag k="fixme" v="consider natural=peak for the most distinct mountains in the district" />
		<tag k="name" v="Hagafjellet" />
		<tag k="natural" v="hill" />
		<tag k="place" v="locality" />
		<tag k="ssr:stedsnr" v="206653" />
	</node>
	<node id="-36597" lat="59.2521611073" lon="5.40458611739">
		<tag k="name" v="Teistholmen" />
		<tag k="place" v="islet" />
		<tag k="ssr:stedsnr" v="209050" />
	</node>
	<node id="-36596" lat="59.1715075013" lon="5.4469444124">
		<tag k="fixme" v="consider place=hamlet" />
		<tag k="name" v="Are" />
		<tag k="place" v="farm" />
		<tag k="ssr:stedsnr" v="184439" />
	</node>
	<node id="-36595" lat="59.1642472237" lon="5.43747222988">
		<tag k="alt_name" v="Skodehamn" />
		<tag k="name" v="Skottahamn" />
		<tag k="natural" v="bay" />
		<tag k="ssr:stedsnr" v="184383" />
	</node>
	<node id="-36594" lat="59.1993749957" lon="5.47343055449">
		<tag k="alt_name" v="Sandvigskjeret" />
		<tag k="fixme" v="consider seamark:type=rock or natural=shoal" />
		<tag k="name" v="Sandvikskjeret" />
		<tag k="place" v="islet" />
		<tag k="ssr:stedsnr" v="184277" />
	</node>
	<node id="-36593" lat="59.2079277813" lon="5.40794166831">
		<tag k="name" v="Hagavatnet" />
		<tag k="natural" v="water" />
		<tag k="ssr:stedsnr" v="183084" />
		<tag k="water" v="lake" />
	</node>
	<node id="-36592" lat="59.2426416704" lon="5.40690277996">
		<tag k="alt_name" v="Hallvardsvik" />
		<tag k="name" v="Halvardsvika" />
>>>>>>> e1d4bc35ff8a6074a6f2e91616a996b547c36f15
		<tag k="natural" v="bay" />
		<tag k="ssr:stedsnr" v="909972" />
	</node>
<<<<<<< HEAD
	<node lat="59.24714999882068" lon="5.4684666688462995" id="-2872">
		<tag k="name" v="Reinafjellet" />
		<tag k="natural" v="cliff" />
		<tag k="ssr:stedsnr" v="909973" />
	</node>
	<node lat="59.20661944675771" lon="5.395380555985942" id="-2873">
		<tag k="name" v="Håmannsvatnet" />
		<tag k="natural" v="water" />
		<tag k="ssr:stedsnr" v="909981" />
	</node>
	<node lat="59.19798333519404" lon="5.416950004664" id="-2874">
=======
	<node id="-36591" lat="59.2477944468" lon="5.46539444198">
		<tag k="name" v="Nydal" />
		<tag k="place" v="farm" />
		<tag k="ssr:stedsnr" v="183039" />
	</node>
	<node id="-36590" lat="59.2378111093" lon="5.42667499843">
		<tag k="alt_name" v="Døvik" />
		<tag k="name" v="Døvika" />
		<tag k="natural" v="bay" />
		<tag k="ssr:stedsnr" v="183026" />
	</node>
	<node id="-36589" lat="59.2192805582" lon="5.44610278442">
>>>>>>> e1d4bc35ff8a6074a6f2e91616a996b547c36f15
		<tag k="fixme" v="consider natural=peak for the most distinct mountains in the district" />
		<tag k="name" v="Grønestadfjellet" />
		<tag k="natural" v="hill" />
		<tag k="place" v="locality" />
		<tag k="ssr:stedsnr" v="782447" />
	</node>
<<<<<<< HEAD
	<node lat="59.22776667094166" lon="5.469613895574037" id="-2875">
		<tag k="name" v="Orrehammaren" />
		<tag k="natural" v="cliff" />
		<tag k="ssr:stedsnr" v="787891" />
	</node>
	<node lat="59.21813055507814" lon="5.4808833362074125" id="-2876">
		<tag k="name" v="Ospehaugane" />
=======
	<node id="-36588" lat="59.2333388879" lon="5.41046943614">
		<tag k="fixme" v="consider natural=peak for the most distinct mountains in the district" />
		<tag k="name" v="Kodlefjell" />
		<tag k="natural" v="hill" />
		<tag k="place" v="locality" />
		<tag k="ssr:stedsnr" v="181895" />
	</node>
	<node id="-36587" lat="59.2274888863" lon="5.37628888797">
		<tag k="name" v="Fladberg" />
>>>>>>> e1d4bc35ff8a6074a6f2e91616a996b547c36f15
		<tag k="natural" v="hill" />
		<tag k="place" v="locality" />
		<tag k="ssr:stedsnr" v="787986" />
	</node>
<<<<<<< HEAD
	<node lat="59.21343888967205" lon="5.461030554058849" id="-2877">
		<tag k="name" v="Hålandssjøen" />
		<tag k="natural" v="bay" />
		<tag k="ssr:stedsnr" v="787989" />
	</node>
	<node lat="59.21008888672122" lon="5.451247230031792" id="-2878">
		<tag k="fixme" v="consider natural=peak for the most distinct mountains in the district" />
		<tag k="name" v="Linefjellet" />
		<tag k="natural" v="hill" />
		<tag k="place" v="locality" />
		<tag k="ssr:stedsnr" v="787992" />
	</node>
	<node lat="59.185043724364995" lon="5.446319481330605" id="-2879">
		<tag k="fixme" v="consider place=hamlet" />
		<tag k="name" v="Laupland" />
		<tag k="place" v="farm" />
		<tag k="ssr:stedsnr" v="790415" />
	</node>
	<node lat="59.19564492418766" lon="5.42944543856945" id="-2880">
		<tag k="alt_name" v="Økland" />
		<tag k="fixme" v="consider place=hamlet" />
		<tag k="name" v="Aukland" />
		<tag k="place" v="farm" />
		<tag k="ssr:stedsnr" v="912060" />
	</node>
	<node lat="59.17433611371399" lon="5.45472222259752" id="-2881">
		<tag k="name" v="Kvernavika" />
		<tag k="natural" v="bay" />
		<tag k="ssr:stedsnr" v="912447" />
	</node>
	<node lat="59.1838749959688" lon="5.457061104152292" id="-2882">
		<tag k="name" v="Vågskjeften" />
		<tag k="natural" v="bay" />
		<tag k="ssr:stedsnr" v="912450" />
	</node>
	<node lat="59.23453611321141" lon="5.489005553966401" id="-2883">
		<tag k="alt_name" v="Ormestøa" />
		<tag k="name" v="Ormastø" />
		<tag k="natural" v="bay" />
		<tag k="ssr:stedsnr" v="912457" />
	</node>
	<node lat="59.15965555453401" lon="5.3948500023809745" id="-2885">
		<tag k="name" v="Regaviga" />
		<tag k="natural" v="bay" />
		<tag k="ssr:stedsnr" v="813678" />
	</node>
	<node lat="59.158722220987336" lon="5.409825000257031" id="-2886">
		<tag k="fixme" v="consider seamark:type=rock or natural=shoal" />
		<tag k="name" v="Olaskjeret" />
=======
	<node id="-36586" lat="59.2138500035" lon="5.37904999552">
		<tag k="name" v="Tjødnå" />
		<tag k="natural" v="water" />
		<tag k="ssr:stedsnr" v="181934" />
	</node>
	<node id="-36585" lat="59.161852774" lon="5.38823056415">
		<tag k="name" v="Stintenesodden" />
		<tag k="natural" v="cape" />
		<tag k="ssr:stedsnr" v="175831" />
	</node>
	<node id="-36584" lat="59.1608027808" lon="5.4038305468">
		<tag k="fixme" v="consider seamark:type=rock or natural=shoal" />
		<tag k="name" v="Bergsuggenakkjen" />
		<tag k="place" v="islet" />
		<tag k="ssr:stedsnr" v="175824" />
	</node>
	<node id="-36583" lat="59.1652277811" lon="5.39808056366">
		<tag k="landuse" v="meadow" />
		<tag k="name" v="Stemmen" />
		<tag k="ssr:stedsnr" v="175370" />
	</node>
	<node id="-36582" lat="59.1795722191" lon="5.45847777615">
		<tag k="name" v="Djubavika" />
		<tag k="natural" v="bay" />
		<tag k="ssr:stedsnr" v="175064" />
	</node>
	<node id="-36581" lat="59.2509027782" lon="5.45759167137">
		<tag k="name" v="Varanesvatnet" />
		<tag k="natural" v="water" />
		<tag k="ssr:stedsnr" v="148701" />
	</node>
	<node id="-36580" lat="59.2529333336" lon="5.41125278316">
		<tag k="name" v="Litle Vindholmen" />
		<tag k="place" v="islet" />
		<tag k="ssr:stedsnr" v="148048" />
	</node>
	<node id="-36579" lat="59.2176388902" lon="5.37891110785">
		<tag k="fixme" v="consider seamark:type=rock or natural=shoal" />
		<tag k="name" v="Purkesteinane" />
		<tag k="place" v="islet" />
		<tag k="ssr:stedsnr" v="146650" />
	</node>
	<node id="-36578" lat="59.2198111095" lon="5.37622499384">
		<tag k="name" v="Skruholmen" />
		<tag k="place" v="islet" />
		<tag k="ssr:stedsnr" v="146648" />
	</node>
	<node id="-36577" lat="59.1612989553" lon="5.43141207841">
		<tag k="name" v="Stongholmen" />
		<tag k="place" v="islet" />
		<tag k="ssr:stedsnr" v="145679" />
	</node>
	<node id="-36576" lat="59.2534861073" lon="5.44651944721">
		<tag k="alt_name" v="Fløysundholmane" />
		<tag k="name" v="Fløsundholmane" />
>>>>>>> e1d4bc35ff8a6074a6f2e91616a996b547c36f15
		<tag k="place" v="islet" />
		<tag k="ssr:stedsnr" v="813685" />
	</node>
<<<<<<< HEAD
	<node lat="59.21664999655464" lon="5.498333333836586" id="-2887">
		<tag k="name" v="Torvberget" />
		<tag k="natural" v="hill" />
		<tag k="place" v="locality" />
		<tag k="ssr:stedsnr" v="814919" />
	</node>
	<node lat="59.21939764543304" lon="5.487667604642798" id="-2888">
		<tag k="name" v="Våga" />
		<tag k="place" v="hamlet" />
		<tag k="ssr:stedsnr" v="814922" />
	</node>
	<node lat="59.1820555580666" lon="5.463808338945839" id="-2889">
=======
	<node id="-36575" lat="59.1780916651" lon="5.43551389128">
		<tag k="fixme" v="consider natural=peak for the most distinct mountains in the district" />
		<tag k="name" v="Hognåsen" />
		<tag k="natural" v="hill" />
		<tag k="place" v="locality" />
		<tag k="ssr:stedsnr" v="123483" />
	</node>
	<node id="-36574" lat="59.165833329" lon="5.43273888639">
		<tag k="name" v="Geida" />
		<tag k="natural" v="cape" />
		<tag k="ssr:stedsnr" v="123473" />
	</node>
	<node id="-36573" lat="59.1689444433" lon="5.46270277998">
		<tag k="alt_name" v="Solholmen, nordre" />
		<tag k="name" v="Nordre Solholmen" />
		<tag k="place" v="islet" />
		<tag k="ssr:stedsnr" v="123437" />
	</node>
	<node id="-36572" lat="59.1577261803" lon="5.39131495388">
>>>>>>> e1d4bc35ff8a6074a6f2e91616a996b547c36f15
		<tag k="fixme" v="consider seamark:type=rock or natural=shoal" />
		<tag k="name" v="Hedleskjer" />
		<tag k="place" v="islet" />
<<<<<<< HEAD
		<tag k="ssr:stedsnr" v="843078" />
	</node>
	<node lat="59.18194999669286" lon="5.409524995124676" id="-2890">
		<tag k="name" v="Djubevika" />
=======
		<tag k="ssr:stedsnr" v="123424" />
	</node>
	<node id="-36571" lat="59.160694448" lon="5.39208055447">
		<tag k="name" v="Klepphaugen" />
		<tag k="natural" v="hill" />
		<tag k="place" v="locality" />
		<tag k="ssr:stedsnr" v="123416" />
	</node>
	<node id="-36570" lat="59.2218054706" lon="5.43932545611">
		<tag k="fixme" v="consider place=hamlet" />
		<tag k="name" v="Boknaberg" />
		<tag k="place" v="farm" />
		<tag k="ssr:stedsnr" v="123130" />
	</node>
	<node id="-36569" lat="59.216900001" lon="5.37659444056">
		<tag k="name" v="Trosnavågneset" />
		<tag k="natural" v="cape" />
		<tag k="ssr:stedsnr" v="123123" />
	</node>
	<node id="-36568" lat="59.2425472179" lon="5.51341666311">
		<tag k="bay" v="fjord" />
		<tag k="name" v="Falkeidflæet" />
>>>>>>> e1d4bc35ff8a6074a6f2e91616a996b547c36f15
		<tag k="natural" v="bay" />
		<tag k="ssr:stedsnr" v="843374" />
	</node>
<<<<<<< HEAD
	<node lat="59.228180558075934" lon="5.460344438039478" id="-2891">
		<tag k="name" v="Tåganes" />
		<tag k="natural" v="cape" />
		<tag k="ssr:stedsnr" v="848895" />
	</node>
	<node lat="59.21614722598762" lon="5.486961109903994" id="-2892">
		<tag k="name" v="Rabben" />
=======
	<node id="-36567" lat="59.150174999" lon="5.42124443894">
		<tag k="name" v="Kråga" />
		<tag k="place" v="islet" />
		<tag k="ssr:stedsnr" v="122401" />
	</node>
	<node id="-36566" lat="59.2033336268" lon="5.43087933356">
		<tag k="fixme" v="consider place=hamlet" />
		<tag k="name" v="Dagsland" />
>>>>>>> e1d4bc35ff8a6074a6f2e91616a996b547c36f15
		<tag k="place" v="farm" />
		<tag k="ssr:stedsnr" v="848979" />
	</node>
<<<<<<< HEAD
	<node lat="59.246113885946194" lon="5.391472219944636" id="-2893">
		<tag k="name" v="Djubavik" />
		<tag k="natural" v="bay" />
		<tag k="ssr:stedsnr" v="849887" />
	</node>
	<node lat="59.2408159427212" lon="5.393786243291541" id="-2894">
		<tag k="name" v="Søra Boknahovstjørna" />
		<tag k="natural" v="water" />
		<tag k="ssr:stedsnr" v="849890" />
	</node>
	<node lat="59.21561667094511" lon="5.404816664923349" id="-2895">
		<tag k="name" v="Gunnarstadvatnet" />
		<tag k="natural" v="water" />
		<tag k="ssr:stedsnr" v="851109" />
		<tag k="water" v="lake" />
	</node>
	<node lat="59.18703333208275" lon="5.400955549702363" id="-2896">
		<tag k="name" v="Sunnalandsstraumen" />
		<tag k="natural" v="strait" />
		<tag k="ssr:stedsnr" v="851077" />
	</node>
	<node lat="59.206480555780004" lon="5.465677773264849" id="-2897">
		<tag k="alt_name" v="Sponevig;Sponevik" />
		<tag k="name" v="Sponavika" />
		<tag k="natural" v="bay" />
		<tag k="ssr:stedsnr" v="851086" />
	</node>
	<node lat="59.21036944883246" lon="5.466216663985323" id="-2898">
		<tag k="alt_name" v="Knarrholmen" />
		<tag k="name" v="Knarholmen" />
=======
	<node id="-36565" lat="59.2453694454" lon="5.42039722955">
		<tag k="name" v="Store Brattholmen" />
		<tag k="place" v="islet" />
		<tag k="ssr:stedsnr" v="121901" />
	</node>
	<node id="-36564" lat="59.2366944454" lon="5.40862499762">
		<tag k="name" v="Stoggdalen" />
		<tag k="natural" v="valley" />
		<tag k="place" v="locality" />
		<tag k="ssr:stedsnr" v="121898" />
	</node>
	<node id="-36563" lat="59.2327249977" lon="5.38771388569">
		<tag k="name" v="Måkholmen" />
		<tag k="place" v="islet" />
		<tag k="ssr:stedsnr" v="121893" />
	</node>
	<node id="-36562" lat="59.2395499969" lon="5.46523611802">
		<tag k="name" v="Litla Håklepp" />
		<tag k="natural" v="hill" />
		<tag k="place" v="locality" />
		<tag k="ssr:stedsnr" v="120979" />
	</node>
	<node id="-36561" lat="59.1686333334" lon="5.41130555721">
		<tag k="fixme" v="consider seamark:type=rock or natural=shoal" />
		<tag k="name" v="Syssen" />
		<tag k="place" v="islet" />
		<tag k="ssr:stedsnr" v="114400" />
	</node>
	<node id="-36560" lat="59.2564888866" lon="5.44890000352">
		<tag k="alt_name" v="Skarvaskjeret" />
		<tag k="fixme" v="consider seamark:type=rock or natural=shoal" />
		<tag k="name" v="Skarvaskjer" />
>>>>>>> e1d4bc35ff8a6074a6f2e91616a996b547c36f15
		<tag k="place" v="islet" />
		<tag k="ssr:stedsnr" v="851087" />
	</node>
<<<<<<< HEAD
	<node lat="59.234691669357396" lon="5.555000005780942" id="-2899">
		<tag k="name" v="Laksavika" />
		<tag k="natural" v="bay" />
		<tag k="ssr:stedsnr" v="851407" />
	</node>
	<node lat="59.217777777308754" lon="5.499166666003426" id="-2900">
		<tag k="name" v="Båshilleren" />
		<tag k="place" v="farm" />
		<tag k="ssr:stedsnr" v="875907" />
	</node>
	<node lat="59.26083333406297" lon="5.471649999142609" id="-2901">
		<tag k="name" v="Stemmen" />
		<tag k="natural" v="water" />
		<tag k="ssr:stedsnr" v="876653" />
	</node>
	<node lat="59.253130553500824" lon="5.473075000309049" id="-2902">
		<tag k="name" v="Bukkatøkje" />
		<tag k="natural" v="bay" />
		<tag k="ssr:stedsnr" v="876656" />
	</node>
	<node lat="59.25461389165803" lon="5.466674999702114" id="-2903">
		<tag k="name" v="Kvidatong" />
=======
	<node id="-36559" lat="59.2642666689" lon="5.48296110993">
		<tag k="alt_name" v="Svartaskjeret" />
		<tag k="fixme" v="consider seamark:type=rock or natural=shoal" />
		<tag k="name" v="Svartaskjer" />
		<tag k="place" v="islet" />
		<tag k="ssr:stedsnr" v="87624" />
	</node>
	<node id="-36558" lat="59.1735833346" lon="5.37849721394">
		<tag k="name" v="Kjølevigneset" />
		<tag k="natural" v="cape" />
		<tag k="ssr:stedsnr" v="85628" />
	</node>
	<node id="-36557" lat="59.2628777763" lon="5.46723610781">
		<tag k="name" v="Ognøya" />
		<tag k="place" v="island" />
		<tag k="ssr:stedsnr" v="63876" />
	</node>
	<node id="-36556" lat="59.2240555529" lon="5.49806388832">
		<tag k="alt_name" v="Subanskallen" />
		<tag k="name" v="Supanskallen" />
>>>>>>> e1d4bc35ff8a6074a6f2e91616a996b547c36f15
		<tag k="natural" v="cape" />
		<tag k="ssr:stedsnr" v="876658" />
	</node>
<<<<<<< HEAD
	<node lat="59.19705555940501" lon="5.3821444360581" id="-2904">
		<tag k="name" v="Kjelsflua" />
		<tag k="place" v="locality" />
		<tag k="seamark:type" v="rock" />
		<tag k="ssr:stedsnr" v="934629" />
	</node>
	<node lat="59.26683888580919" lon="5.485863882338447" id="-2905">
=======
	<node id="-36555" lat="59.1884222184" lon="5.47311667161">
		<tag k="name" v="Oksabåsen" />
		<tag k="place" v="farm" />
		<tag k="ssr:stedsnr" v="62280" />
	</node>
	<node id="-36554" lat="59.1928499958" lon="5.4731222176">
		<tag k="alt_name" v="Låderskjer" />
>>>>>>> e1d4bc35ff8a6074a6f2e91616a996b547c36f15
		<tag k="fixme" v="consider seamark:type=rock or natural=shoal" />
		<tag k="name" v="Ognakalvskjeret" />
		<tag k="place" v="islet" />
<<<<<<< HEAD
		<tag k="ssr:stedsnr" v="934886" />
	</node>
	<node lat="59.228149996765964" lon="5.4453888819381175" id="-2906">
		<tag k="name" v="Sæbbøhaugen" />
=======
		<tag k="ssr:stedsnr" v="62278" />
	</node>
	<node id="-36553" lat="59.2140329506" lon="5.38708713213">
		<tag k="fixme" v="consider place=hamlet" />
		<tag k="name" v="Trosnavåg" />
		<tag k="place" v="farm" />
		<tag k="ssr:stedsnr" v="62088" />
	</node>
	<node id="-36552" lat="59.1871638898" lon="5.38789167452">
		<tag k="fixme" v="consider natural=peak for the most distinct mountains in the district" />
		<tag k="name" v="Arafjellet" />
>>>>>>> e1d4bc35ff8a6074a6f2e91616a996b547c36f15
		<tag k="natural" v="hill" />
		<tag k="place" v="locality" />
		<tag k="ssr:stedsnr" v="909909" />
	</node>
<<<<<<< HEAD
	<node lat="59.233549995829144" lon="5.462138883322272" id="-2907">
		<tag k="name" v="Bakkane" />
		<tag k="natural" v="slope" />
		<tag k="place" v="locality" />
		<tag k="ssr:stedsnr" v="909910" />
	</node>
	<node lat="59.19293333111728" lon="5.378724994388155" id="-2908">
		<tag k="name" v="Stora Drauavika" />
=======
	<node id="-36551" lat="59.1982833333" lon="5.3768444388">
		<tag k="name" v="Hattahola" />
		<tag k="natural" v="bay" />
		<tag k="ssr:stedsnr" v="60942" />
	</node>
	<node id="-36550" lat="59.2437285549" lon="5.45438681429">
		<tag k="name" v="Krovågen" />
>>>>>>> e1d4bc35ff8a6074a6f2e91616a996b547c36f15
		<tag k="natural" v="bay" />
		<tag k="ssr:stedsnr" v="910942" />
	</node>
<<<<<<< HEAD
	<node lat="59.22771666487489" lon="5.395108338284398" id="-2909">
		<tag k="name" v="Sandvatnet" />
=======
	<node id="-36549" lat="59.2426444406" lon="5.38980277999">
		<tag k="name" v="Nordra Boknahovstjørna" />
>>>>>>> e1d4bc35ff8a6074a6f2e91616a996b547c36f15
		<tag k="natural" v="water" />
		<tag k="ssr:stedsnr" v="911006" />
	</node>
<<<<<<< HEAD
	<node lat="59.23179539554803" lon="5.403737150549055" id="-2910">
		<tag k="alt_name" v="Halvardsvatnet" />
		<tag k="name" v="Buarvatnet" />
=======
	<node id="-36548" lat="59.2102166664" lon="5.43815833188">
		<tag k="name" v="Nordra Hålandstjørna" />
>>>>>>> e1d4bc35ff8a6074a6f2e91616a996b547c36f15
		<tag k="natural" v="water" />
		<tag k="ssr:stedsnr" v="911008" />
		<tag k="water" v="lake" />
	</node>
<<<<<<< HEAD
	<node lat="59.240986113005526" lon="5.422850002414791" id="-2911">
		<tag k="name" v="Kongshamn" />
		<tag k="natural" v="bay" />
		<tag k="ssr:stedsnr" v="911038" />
	</node>
	<node lat="59.21307222149692" lon="5.3753361028491495" id="-2912">
		<tag k="name" v="Bergsuggenakken" />
		<tag k="natural" v="cape" />
		<tag k="ssr:stedsnr" v="912097" />
	</node>
	<node lat="59.16193610807667" lon="5.455130551235489" id="-2913">
		<tag k="alt_name" v="Solholmen, s" />
		<tag k="name" v="Søre Solholmen" />
		<tag k="place" v="islet" />
		<tag k="ssr:stedsnr" v="912390" />
	</node>
	<node lat="59.167500000589826" lon="5.4617833300948835" id="-2914">
		<tag k="alt_name" v="Knudskjeret" />
		<tag k="fixme" v="consider seamark:type=rock or natural=shoal" />
		<tag k="name" v="Knutskjer" />
		<tag k="place" v="islet" />
		<tag k="ssr:stedsnr" v="912408" />
	</node>
	<node lat="59.17678888885488" lon="5.411088890695061" id="-2915">
		<tag k="name" v="Lindraken" />
		<tag k="natural" v="cape" />
		<tag k="ssr:stedsnr" v="912430" />
	</node>
	<node lat="59.22343515204639" lon="5.489696017943683" id="-2916">
		<tag k="alt_name" v="Våga" />
		<tag k="fixme" v="consider place=hamlet" />
		<tag k="name" v="Nordre Våga" />
		<tag k="place" v="farm" />
		<tag k="ssr:stedsnr" v="912493" />
	</node>
	<node lat="59.253577775500986" lon="5.398313888383111" id="-2917">
		<tag k="alt_name" v="Mekjerøya, l;litla Megjarøyna;Litla Megerøy" />
		<tag k="name" v="Litla Mekjerøya" />
		<tag k="place" v="islet" />
		<tag k="ssr:stedsnr" v="913884" />
	</node>
	<node lat="59.25546110792786" lon="5.389041674693126" id="-2918">
		<tag k="alt_name" v="Tollaksholmane" />
		<tag k="name" v="Tallaksholmane" />
		<tag k="place" v="islet" />
		<tag k="ssr:stedsnr" v="913885" />
	</node>
	<node lat="59.231536110199514" lon="5.378297227334011" id="-2919">
		<tag k="name" v="Vierflua" />
		<tag k="natural" v="shoal" />
		<tag k="place" v="locality" />
		<tag k="ssr:stedsnr" v="936035" />
	</node>
	<node lat="59.252902774875565" lon="5.45889167192914" id="-2920">
		<tag k="name" v="Varaneset" />
		<tag k="natural" v="cape" />
		<tag k="ssr:stedsnr" v="937706" />
	</node>
	<node lat="59.19924722186139" lon="5.470963896320764" id="-2921">
		<tag k="name" v="Sandvikneset" />
		<tag k="natural" v="cape" />
		<tag k="ssr:stedsnr" v="963547" />
	</node>
	<node lat="59.20002500301495" lon="5.472127773410166" id="-2922">
		<tag k="name" v="Seiavikane" />
		<tag k="natural" v="bay" />
		<tag k="ssr:stedsnr" v="963548" />
	</node>
	<node lat="59.16194721971006" lon="5.4384916696192604" id="-2923">
		<tag k="name" v="Hedleholmen" />
=======
	<node id="-36547" lat="59.2126583333" lon="5.48886111033">
		<tag k="name" v="Litlaneset" />
		<tag k="natural" v="cape" />
		<tag k="ssr:stedsnr" v="59985" />
	</node>
	<node id="-36546" lat="59.2237694488" lon="5.45643610606">
		<tag k="name" v="Fyren" />
		<tag k="natural" v="cape" />
		<tag k="ssr:stedsnr" v="59978" />
	</node>
	<node id="-36545" lat="59.2411277805" lon="5.46642222934">
		<tag k="fixme" v="consider natural=peak for the most distinct mountains in the district" />
		<tag k="name" v="Håklepp" />
		<tag k="natural" v="hill" />
		<tag k="place" v="locality" />
		<tag k="ssr:stedsnr" v="59974" />
	</node>
	<node id="-36544" lat="59.2154138885" lon="5.39199721884">
		<tag k="alt_name" v="Vaet" />
		<tag k="ford" v="yes" />
		<tag k="name" v="Vadet" />
		<tag k="place" v="locality" />
		<tag k="ssr:stedsnr" v="59964" />
	</node>
	<node id="-36543" lat="59.2025972208" lon="5.43660276981">
		<tag k="fixme" v="consider natural=peak for the most distinct mountains in the district" />
		<tag k="name" v="Skarstadfjellet" />
		<tag k="natural" v="hill" />
		<tag k="place" v="locality" />
		<tag k="ssr:stedsnr" v="54500" />
	</node>
	<node id="-36542" lat="59.2051780197" lon="5.38870418719">
		<tag k="name" v="Middagsvatnet" />
		<tag k="natural" v="water" />
		<tag k="ssr:stedsnr" v="54490" />
		<tag k="water" v="lake" />
	</node>
	<node id="-36541" lat="59.1796861089" lon="5.40634723026">
		<tag k="name" v="Linderabben" />
		<tag k="natural" v="hill" />
		<tag k="place" v="locality" />
		<tag k="ssr:stedsnr" v="54386" />
	</node>
	<node id="-36540" lat="59.1783972235" lon="5.42476389505">
		<tag k="fixme" v="verify maritime location" />
		<tag k="mooring" v="yes" />
		<tag k="name" v="Sørenstøa" />
		<tag k="place" v="locality" />
		<tag k="ssr:stedsnr" v="54382" />
	</node>
	<node id="-36539" lat="59.1595000039" lon="5.43837778584">
		<tag k="name" v="Sørasundet" />
		<tag k="natural" v="strait" />
		<tag k="ssr:stedsnr" v="53841" />
	</node>
	<node id="-36538" lat="59.1870944479" lon="5.3976666679">
		<tag k="name" v="Straumastykket" />
		<tag k="place" v="locality" />
		<tag k="ssr:stedsnr" v="53489" />
	</node>
	<node id="-36537" lat="59.2216111137" lon="5.45332499685">
		<tag k="bridge" v="yes" />
		<tag k="layer" v="1" />
		<tag k="name" v="Alvestadkroken" />
		<tag k="ssr:stedsnr" v="47500" />
	</node>
	<node id="-36536" lat="59.1821111128" lon="5.46197778308">
		<tag k="bridge" v="yes" />
		<tag k="layer" v="1" />
		<tag k="name" v="Lauplandsvågen" />
		<tag k="ssr:stedsnr" v="47499" />
	</node>
	<node id="-36535" lat="59.2694444472" lon="5.47527777127">
		<tag k="alt_name" v="Kalvsundet" />
		<tag k="name" v="Ognakalvsundet" />
		<tag k="natural" v="strait" />
		<tag k="ssr:stedsnr" v="27666" />
	</node>
	<node id="-36534" lat="59.2711944461" lon="5.44701666759">
		<tag k="fixme" v="consider seamark:type=rock or natural=shoal" />
		<tag k="name" v="Rauholmflua" />
		<tag k="place" v="islet" />
		<tag k="ssr:stedsnr" v="27653" />
	</node>
	<node id="-36533" lat="59.2510472228" lon="5.4095861151">
		<tag k="fixme" v="consider seamark:type=rock or natural=shoal" />
		<tag k="name" v="Persloen" />
>>>>>>> e1d4bc35ff8a6074a6f2e91616a996b547c36f15
		<tag k="place" v="islet" />
		<tag k="ssr:stedsnr" v="963844" />
	</node>
<<<<<<< HEAD
	<node lat="59.22808055413365" lon="5.493763888175467" id="-2924">
		<tag k="fixme" v="consider natural=peak for the most distinct mountains in the district" />
		<tag k="name" v="Heigrafjellet" />
		<tag k="natural" v="hill" />
		<tag k="place" v="locality" />
		<tag k="ssr:stedsnr" v="969975" />
	</node>
	<node lat="59.24060833026677" lon="5.384808333667054" id="-2925">
		<tag k="name" v="Nordra Lammanesvika" />
		<tag k="natural" v="bay" />
		<tag k="ssr:stedsnr" v="970597" />
	</node>
	<node lat="59.23241944761077" lon="5.414599995317776" id="-2926">
		<tag k="name" v="Søllbrekk" />
=======
	<node id="-36531" lat="59.1622999987" lon="5.4238805638">
		<tag k="fixme" v="consider seamark:type=rock or natural=shoal" />
		<tag k="name" v="Krabbaskjer" />
		<tag k="place" v="islet" />
		<tag k="ssr:stedsnr" v="2397" />
	</node>
	<node id="-36530" lat="59.1566500029" lon="5.41589444898">
		<tag k="fixme" v="consider seamark:type=rock or natural=shoal" />
		<tag k="name" v="Terneskjeret" />
		<tag k="place" v="islet" />
		<tag k="ssr:stedsnr" v="2392" />
	</node>
	<node id="-36529" lat="59.2167955604" lon="5.44841195109">
		<tag k="fixme" v="consider place=hamlet" />
		<tag k="name" v="Alvestad" />
>>>>>>> e1d4bc35ff8a6074a6f2e91616a996b547c36f15
		<tag k="place" v="farm" />
		<tag k="ssr:stedsnr" v="970610" />
	</node>
<<<<<<< HEAD
	<node lat="59.23136281228922" lon="5.391912907864712" id="-2927">
		<tag k="name" v="Nordre Bornevik" />
		<tag k="place" v="farm" />
		<tag k="ssr:stedsnr" v="973797" />
	</node>
	<node lat="59.24448333033075" lon="5.439941664701071" id="-2929">
		<tag k="alt_name" v="Bleika;Bleigjå" />
=======
	<node id="-36528" lat="59.2209083295" lon="5.50230000312">
		<tag k="name" v="Eikevika" />
		<tag k="natural" v="bay" />
		<tag k="ssr:stedsnr" v="1477" />
	</node>
	<node id="-36527" lat="59.2276499985" lon="5.53892500793">
>>>>>>> e1d4bc35ff8a6074a6f2e91616a996b547c36f15
		<tag k="fixme" v="consider seamark:type=rock or natural=shoal" />
		<tag k="name" v="Bleikjo" />
		<tag k="place" v="islet" />
		<tag k="ssr:stedsnr" v="1035" />
	</node>
<<<<<<< HEAD
	<node lat="59.19956388492604" lon="5.465333332525366" id="-2930">
		<tag k="alt_name" v="Sandviga;Sandvik" />
		<tag k="name" v="Sandvika" />
		<tag k="natural" v="bay" />
		<tag k="ssr:stedsnr" v="1326" />
	</node>
	<node lat="59.187086112632706" lon="5.454819450743136" id="-2931">
=======
	<node id="-36526" lat="59.2387944442" lon="5.48298889376">
		<tag k="alt_name" v="Viervik" />
		<tag k="name" v="Viervika" />
		<tag k="natural" v="bay" />
		<tag k="ssr:stedsnr" v="1457" />
	</node>
	<node id="-36525" lat="59.1784250005" lon="5.46351666481">
		<tag k="name" v="Lauplandsholmen" />
		<tag k="place" v="islet" />
		<tag k="ssr:stedsnr" v="1440" />
	</node>
	<node id="-36524" lat="59.1870861126" lon="5.45481945074">
>>>>>>> e1d4bc35ff8a6074a6f2e91616a996b547c36f15
		<tag k="name" v="Vågshaug" />
		<tag k="place" v="farm" />
		<tag k="ssr:stedsnr" v="1423" />
	</node>
<<<<<<< HEAD
	<node lat="59.17842500053211" lon="5.463516664805787" id="-2932">
		<tag k="name" v="Lauplandsholmen" />
=======
	<node id="-36523" lat="59.1781694458" lon="5.41651389352">
		<tag k="name" v="Litla Kjeøya" />
>>>>>>> e1d4bc35ff8a6074a6f2e91616a996b547c36f15
		<tag k="place" v="islet" />
		<tag k="ssr:stedsnr" v="1440" />
	</node>
<<<<<<< HEAD
	<node lat="59.23879444424686" lon="5.482988893755605" id="-2933">
		<tag k="alt_name" v="Viervik" />
		<tag k="name" v="Viervika" />
=======
	<node id="-36522" lat="59.1193194411" lon="5.40611388069">
		<tag k="bay" v="fjord" />
		<tag k="name" v="Boknafjorden" />
>>>>>>> e1d4bc35ff8a6074a6f2e91616a996b547c36f15
		<tag k="natural" v="bay" />
		<tag k="ssr:stedsnr" v="1457" />
	</node>
<<<<<<< HEAD
	<node lat="59.22764999847975" lon="5.538925007927386" id="-2934">
		<tag k="fixme" v="consider seamark:type=rock or natural=shoal" />
		<tag k="name" v="Hompane" />
		<tag k="place" v="islet" />
		<tag k="ssr:stedsnr" v="1473" />
	</node>
	<node lat="59.22090832953897" lon="5.502300003123512" id="-2935">
		<tag k="name" v="Eikevika" />
=======
	<node id="-36521" lat="59.1995638849" lon="5.46533333253">
		<tag k="alt_name" v="Sandviga;Sandvik" />
		<tag k="name" v="Sandvika" />
>>>>>>> e1d4bc35ff8a6074a6f2e91616a996b547c36f15
		<tag k="natural" v="bay" />
		<tag k="ssr:stedsnr" v="1477" />
	</node>
<<<<<<< HEAD
	<node lat="59.156650002921566" lon="5.415894448977842" id="-2936">
=======
	<node id="-36520" lat="59.2444833303" lon="5.4399416647">
		<tag k="alt_name" v="Bleika;Bleigjå" />
>>>>>>> e1d4bc35ff8a6074a6f2e91616a996b547c36f15
		<tag k="fixme" v="consider seamark:type=rock or natural=shoal" />
		<tag k="name" v="Terneskjeret" />
		<tag k="place" v="islet" />
		<tag k="ssr:stedsnr" v="2392" />
	</node>
<<<<<<< HEAD
	<node lat="59.16229999870431" lon="5.423880563803916" id="-2937">
		<tag k="fixme" v="consider seamark:type=rock or natural=shoal" />
		<tag k="name" v="Krabbaskjer" />
		<tag k="place" v="islet" />
		<tag k="ssr:stedsnr" v="2397" />
	</node>
	<node lat="59.229119442462604" lon="5.4588611117101244" id="-2939">
		<tag k="name" v="Træsbåflua" />
		<tag k="natural" v="shoal" />
		<tag k="place" v="locality" />
		<tag k="ssr:stedsnr" v="24638" />
	</node>
	<node lat="59.25270832937266" lon="5.418652785643604" id="-2940">
		<tag k="alt_name" v="Gulebleken" />
		<tag k="fixme" v="consider seamark:type=rock or natural=shoal" />
		<tag k="name" v="Gula Bleigjå" />
		<tag k="place" v="islet" />
		<tag k="ssr:stedsnr" v="27040" />
	</node>
	<node lat="59.27119444613169" lon="5.447016667590716" id="-2941">
		<tag k="fixme" v="consider seamark:type=rock or natural=shoal" />
		<tag k="name" v="Rauholmflua" />
		<tag k="place" v="islet" />
		<tag k="ssr:stedsnr" v="27653" />
	</node>
	<node lat="59.26944444718837" lon="5.475277771266831" id="-2942">
		<tag k="alt_name" v="Kalvsundet" />
		<tag k="name" v="Ognakalvsundet" />
		<tag k="natural" v="strait" />
		<tag k="ssr:stedsnr" v="27666" />
	</node>
	<node lat="59.18211111279996" lon="5.461977783079021" id="-2943">
		<tag k="bridge" v="yes" />
		<tag k="layer" v="1" />
		<tag k="name" v="Lauplandsvågen" />
		<tag k="ssr:stedsnr" v="47499" />
	</node>
	<node lat="59.221611113665496" lon="5.453324996846674" id="-2944">
		<tag k="bridge" v="yes" />
		<tag k="layer" v="1" />
		<tag k="name" v="Alvestadkroken" />
		<tag k="ssr:stedsnr" v="47500" />
	</node>
	<node lat="59.20517801966486" lon="5.388704187188663" id="-2945">
		<tag k="name" v="Middagsvatnet" />
		<tag k="natural" v="water" />
		<tag k="ssr:stedsnr" v="54490" />
		<tag k="water" v="lake" />
	</node>
	<node lat="59.202597220765085" lon="5.436602769814974" id="-2946">
		<tag k="fixme" v="consider natural=peak for the most distinct mountains in the district" />
		<tag k="name" v="Skarstadfjellet" />
		<tag k="natural" v="hill" />
=======
	<node id="-36519" lat="59.2310944487" lon="5.43938055246">
		<tag k="alt_name" v="Vigjå" />
		<tag k="name" v="Føresvik" />
		<tag k="place" v="village" />
		<tag k="ssr:stedsnr" v="1004" />
	</node>
	<node id="-36518" lat="59.228047222" lon="5.39238333064">
		<tag k="alt_name" v="Breidvik" />
		<tag k="name" v="Breivik" />
		<tag k="place" v="farm" />
		<tag k="ssr:stedsnr" v="1003" />
	</node>
	<node id="-36517" lat="59.2013472234" lon="5.37486111282">
		<tag k="name" v="Tjørnaviga" />
		<tag k="natural" v="bay" />
		<tag k="ssr:stedsnr" v="1100" />
	</node>
	<node id="-36515" lat="59.2324194476" lon="5.41459999532">
		<tag k="name" v="Søllbrekk" />
		<tag k="place" v="farm" />
		<tag k="ssr:stedsnr" v="970610" />
	</node>
	<node id="-36514" lat="59.2280805541" lon="5.49376388818">
		<tag k="fixme" v="consider natural=peak for the most distinct mountains in the district" />
		<tag k="name" v="Heigrafjellet" />
		<tag k="natural" v="hill" />
		<tag k="place" v="locality" />
		<tag k="ssr:stedsnr" v="969975" />
	</node>
	<node id="-36513" lat="59.2209138872" lon="5.40263888054">
		<tag k="fixme" v="consider natural=peak for the most distinct mountains in the district" />
		<tag k="name" v="Skjenet" />
		<tag k="natural" v="hill" />
		<tag k="place" v="locality" />
		<tag k="ssr:stedsnr" v="969961" />
	</node>
	<node id="-36512" lat="59.2153476563" lon="5.38093390748">
		<tag k="name" v="Vestrevåg" />
		<tag k="natural" v="bay" />
		<tag k="ssr:stedsnr" v="969959" />
	</node>
	<node id="-36511" lat="59.2529027749" lon="5.45889167193">
		<tag k="name" v="Varaneset" />
		<tag k="natural" v="cape" />
		<tag k="ssr:stedsnr" v="937706" />
	</node>
	<node id="-36510" lat="59.1970555594" lon="5.38214443606">
		<tag k="name" v="Kjelsflua" />
>>>>>>> e1d4bc35ff8a6074a6f2e91616a996b547c36f15
		<tag k="place" v="locality" />
		<tag k="ssr:stedsnr" v="54500" />
	</node>
<<<<<<< HEAD
	<node lat="59.15950000385037" lon="5.438377785839577" id="-2947">
		<tag k="name" v="Sørasundet" />
		<tag k="natural" v="strait" />
		<tag k="ssr:stedsnr" v="53841" />
	</node>
	<node lat="59.21541388848557" lon="5.39199721883704" id="-2948">
		<tag k="alt_name" v="Vaet" />
		<tag k="ford" v="yes" />
		<tag k="name" v="Vadet" />
=======
	<node id="-36508" lat="59.1608361127" lon="5.40015277971">
		<tag k="name" v="Regavik" />
		<tag k="natural" v="bay" />
		<tag k="ssr:stedsnr" v="903811" />
	</node>
	<node id="-36507" lat="59.1951138883" lon="5.40612499364">
		<tag k="name" v="Håfjellet" />
		<tag k="natural" v="hill" />
>>>>>>> e1d4bc35ff8a6074a6f2e91616a996b547c36f15
		<tag k="place" v="locality" />
		<tag k="ssr:stedsnr" v="59964" />
	</node>
<<<<<<< HEAD
	<node lat="59.24264444060881" lon="5.389802779987838" id="-2949">
		<tag k="name" v="Nordra Boknahovstjørna" />
		<tag k="natural" v="water" />
		<tag k="ssr:stedsnr" v="60897" />
	</node>
	<node lat="59.198283333250856" lon="5.376844438795425" id="-2950">
		<tag k="name" v="Hattahola" />
=======
	<node id="-36506" lat="59.2098222185" lon="5.45733611118">
		<tag k="bridge" v="yes" />
		<tag k="layer" v="1" />
		<tag k="name" v="Industrivegen" />
		<tag k="ssr:stedsnr" v="897477" />
	</node>
	<node id="-36505" lat="59.2122666626" lon="5.48739444593">
		<tag k="alt_name" v="Rabbevig;Rabbevik" />
		<tag k="name" v="Rabbavika" />
>>>>>>> e1d4bc35ff8a6074a6f2e91616a996b547c36f15
		<tag k="natural" v="bay" />
		<tag k="ssr:stedsnr" v="60942" />
	</node>
<<<<<<< HEAD
	<node lat="59.26287777633957" lon="5.4672361078144425" id="-2951">
		<tag k="name" v="Ognøya" />
		<tag k="place" v="island" />
		<tag k="ssr:stedsnr" v="63876" />
	</node>
	<node lat="59.270388890511924" lon="5.467252785254811" id="-2952">
		<tag k="name" v="Buvika" />
=======
	<node id="-36504" lat="59.2641361106" lon="5.45499444091">
		<tag k="alt_name" v="Kjeøyvågen" />
		<tag k="name" v="Kjøyvågen" />
>>>>>>> e1d4bc35ff8a6074a6f2e91616a996b547c36f15
		<tag k="natural" v="bay" />
		<tag k="ssr:stedsnr" v="85560" />
	</node>
<<<<<<< HEAD
	<node lat="59.25648888661277" lon="5.4489000035206425" id="-2953">
		<tag k="alt_name" v="Skarvaskjeret" />
		<tag k="fixme" v="consider seamark:type=rock or natural=shoal" />
		<tag k="name" v="Skarvaskjer" />
=======
	<node id="-36503" lat="59.2578888891" lon="5.41769999691">
		<tag k="name" v="Porsholmane" />
>>>>>>> e1d4bc35ff8a6074a6f2e91616a996b547c36f15
		<tag k="place" v="islet" />
		<tag k="ssr:stedsnr" v="87659" />
	</node>
<<<<<<< HEAD
	<node lat="59.1686333334456" lon="5.411305557206991" id="-2954">
		<tag k="fixme" v="consider seamark:type=rock or natural=shoal" />
		<tag k="name" v="Syssen" />
=======
	<node id="-36502" lat="59.2591499978" lon="5.40810834064">
		<tag k="name" v="Bryggholmen" />
>>>>>>> e1d4bc35ff8a6074a6f2e91616a996b547c36f15
		<tag k="place" v="islet" />
		<tag k="ssr:stedsnr" v="114400" />
	</node>
<<<<<<< HEAD
	<node lat="59.19996944456045" lon="5.419144436238096" id="-2955">
		<tag k="name" v="Dagslandsdalen" />
		<tag k="natural" v="valley" />
=======
	<node id="-36501" lat="59.2315361102" lon="5.37829722733">
		<tag k="name" v="Vierflua" />
		<tag k="natural" v="shoal" />
>>>>>>> e1d4bc35ff8a6074a6f2e91616a996b547c36f15
		<tag k="place" v="locality" />
		<tag k="ssr:stedsnr" v="114508" />
	</node>
<<<<<<< HEAD
	<node lat="59.197486108452615" lon="5.44298888293692" id="-2956">
		<tag k="junction" v="yes" />
		<tag k="name" v="Vatlandskrossen" />
		<tag k="place" v="locality" />
		<tag k="ssr:stedsnr" v="114516" />
	</node>
	<node lat="59.16040000172484" lon="5.401633329110485" id="-2957">
		<tag k="name" v="Kjøresundodden" />
		<tag k="natural" v="cape" />
		<tag k="ssr:stedsnr" v="114830" />
	</node>
	<node lat="59.232724997729065" lon="5.38771388568818" id="-2958">
		<tag k="name" v="Måkholmen" />
		<tag k="place" v="islet" />
		<tag k="ssr:stedsnr" v="121893" />
	</node>
	<node lat="59.2366944453949" lon="5.408624997624384" id="-2959">
		<tag k="name" v="Stoggdalen" />
		<tag k="natural" v="valley" />
		<tag k="place" v="locality" />
		<tag k="ssr:stedsnr" v="121898" />
	</node>
	<node lat="59.245369445353646" lon="5.420397229551688" id="-2960">
		<tag k="name" v="Store Brattholmen" />
		<tag k="place" v="islet" />
		<tag k="ssr:stedsnr" v="121901" />
	</node>
	<node lat="59.242547217886745" lon="5.5134166631092425" id="-2961">
		<tag k="bay" v="fjord" />
		<tag k="name" v="Falkeidflæet" />
		<tag k="natural" v="bay" />
		<tag k="ssr:stedsnr" v="122437" />
	</node>
	<node lat="59.15017499895058" lon="5.421244438937491" id="-2962">
		<tag k="name" v="Kråga" />
		<tag k="place" v="islet" />
		<tag k="ssr:stedsnr" v="122401" />
	</node>
	<node lat="59.16069444797459" lon="5.392080554471159" id="-2963">
		<tag k="name" v="Klepphaugen" />
		<tag k="natural" v="hill" />
		<tag k="place" v="locality" />
		<tag k="ssr:stedsnr" v="123416" />
	</node>
	<node lat="59.165833329023236" lon="5.432738886387054" id="-2964">
		<tag k="name" v="Geida" />
		<tag k="natural" v="cape" />
		<tag k="ssr:stedsnr" v="123473" />
	</node>
	<node lat="59.17809166508881" lon="5.435513891283561" id="-2965">
=======
	<node id="-36500" lat="59.2668388858" lon="5.48586388234">
		<tag k="fixme" v="consider seamark:type=rock or natural=shoal" />
		<tag k="name" v="Ognakalvskjeret" />
		<tag k="place" v="islet" />
		<tag k="ssr:stedsnr" v="934886" />
	</node>
	<node id="-36499" lat="59.2603916691" lon="5.39996945259">
		<tag k="alt_name" v="Barlundholmen" />
		<tag k="name" v="Barlon" />
		<tag k="place" v="islet" />
		<tag k="ssr:stedsnr" v="816063" />
	</node>
	<node id="-36498" lat="59.2193976454" lon="5.48766760464">
		<tag k="name" v="Våga" />
		<tag k="place" v="hamlet" />
		<tag k="ssr:stedsnr" v="814922" />
	</node>
	<node id="-36497" lat="59.2166499966" lon="5.49833333384">
		<tag k="name" v="Torvberget" />
		<tag k="natural" v="hill" />
		<tag k="place" v="locality" />
		<tag k="ssr:stedsnr" v="814919" />
	</node>
	<node id="-36495" lat="59.188208078" lon="5.44475798787">
		<tag k="alt_name" v="Hodl" />
		<tag k="fixme" v="consider place=hamlet" />
		<tag k="name" v="Trælhaug" />
		<tag k="place" v="farm" />
		<tag k="ssr:stedsnr" v="790418" />
	</node>
	<node id="-36494" lat="59.1850437244" lon="5.44631948133">
		<tag k="fixme" v="consider place=hamlet" />
		<tag k="name" v="Laupland" />
		<tag k="place" v="farm" />
		<tag k="ssr:stedsnr" v="790415" />
	</node>
	<node id="-36493" lat="59.2385589681" lon="5.46033509752">
		<tag k="fixme" v="consider place=hamlet" />
		<tag k="name" v="Øvrabø" />
		<tag k="place" v="farm" />
		<tag k="ssr:stedsnr" v="790024" />
	</node>
	<node id="-36492" lat="59.2435086735" lon="5.4633423777">
		<tag k="fixme" v="consider place=hamlet" />
		<tag k="name" v="Kro" />
		<tag k="place" v="farm" />
		<tag k="ssr:stedsnr" v="790023" />
	</node>
	<node id="-36491" lat="59.2100888867" lon="5.45124723003">
		<tag k="fixme" v="consider natural=peak for the most distinct mountains in the district" />
		<tag k="name" v="Linefjellet" />
		<tag k="natural" v="hill" />
		<tag k="place" v="locality" />
		<tag k="ssr:stedsnr" v="787992" />
	</node>
	<node id="-36490" lat="59.2134388897" lon="5.46103055406">
		<tag k="name" v="Hålandssjøen" />
		<tag k="natural" v="bay" />
		<tag k="ssr:stedsnr" v="787989" />
	</node>
	<node id="-36489" lat="59.2181305551" lon="5.48088333621">
		<tag k="name" v="Ospehaugane" />
		<tag k="natural" v="hill" />
		<tag k="place" v="locality" />
		<tag k="ssr:stedsnr" v="787986" />
	</node>
	<node id="-36488" lat="59.2126416699" lon="5.43941110563">
>>>>>>> e1d4bc35ff8a6074a6f2e91616a996b547c36f15
		<tag k="fixme" v="consider natural=peak for the most distinct mountains in the district" />
		<tag k="name" v="Hognåsen" />
		<tag k="natural" v="hill" />
		<tag k="place" v="locality" />
<<<<<<< HEAD
		<tag k="ssr:stedsnr" v="123483" />
	</node>
	<node lat="59.15772618025176" lon="5.391314953883794" id="-2966">
		<tag k="fixme" v="consider seamark:type=rock or natural=shoal" />
		<tag k="name" v="Kleppskjeret" />
=======
		<tag k="ssr:stedsnr" v="787978" />
	</node>
	<node id="-36487" lat="59.2189500018" lon="5.39208054819">
		<tag k="name" v="Søra Kobbervatnet" />
		<tag k="natural" v="water" />
		<tag k="ssr:stedsnr" v="787971" />
		<tag k="water" v="lake" />
	</node>
	<node id="-36486" lat="59.1603750013" lon="5.44663611621">
		<tag k="name" v="Munkehausneset" />
		<tag k="natural" v="cape" />
		<tag k="ssr:stedsnr" v="769665" />
	</node>
	<node id="-36485" lat="59.2554611079" lon="5.38904167469">
		<tag k="alt_name" v="Tollaksholmane" />
		<tag k="name" v="Tallaksholmane" />
>>>>>>> e1d4bc35ff8a6074a6f2e91616a996b547c36f15
		<tag k="place" v="islet" />
		<tag k="ssr:stedsnr" v="123424" />
	</node>
<<<<<<< HEAD
	<node lat="59.16894444330419" lon="5.462702779975074" id="-2967">
		<tag k="alt_name" v="Solholmen, nordre" />
		<tag k="name" v="Nordre Solholmen" />
		<tag k="place" v="islet" />
		<tag k="ssr:stedsnr" v="123437" />
	</node>
	<node lat="59.175346145544246" lon="5.40435001232767" id="-2968">
		<tag k="name" v="Langanesvågen" />
=======
	<node id="-36484" lat="59.2535777755" lon="5.39831388838">
		<tag k="alt_name" v="Mekjerøya, l;litla Megjarøyna;Litla Megerøy" />
		<tag k="name" v="Litla Mekjerøya" />
		<tag k="place" v="islet" />
		<tag k="ssr:stedsnr" v="913884" />
	</node>
	<node id="-36483" lat="59.223435152" lon="5.48969601794">
		<tag k="alt_name" v="Våga" />
		<tag k="fixme" v="consider place=hamlet" />
		<tag k="name" v="Nordre Våga" />
		<tag k="place" v="farm" />
		<tag k="ssr:stedsnr" v="912493" />
	</node>
	<node id="-36482" lat="59.2345361132" lon="5.48900555397">
		<tag k="alt_name" v="Ormestøa" />
		<tag k="name" v="Ormastø" />
		<tag k="natural" v="bay" />
		<tag k="ssr:stedsnr" v="912457" />
	</node>
	<node id="-36481" lat="59.183874996" lon="5.45706110415">
		<tag k="name" v="Vågskjeften" />
		<tag k="natural" v="bay" />
		<tag k="ssr:stedsnr" v="912450" />
	</node>
	<node id="-36480" lat="59.1743361137" lon="5.4547222226">
		<tag k="name" v="Kvernavika" />
>>>>>>> e1d4bc35ff8a6074a6f2e91616a996b547c36f15
		<tag k="natural" v="bay" />
		<tag k="ssr:stedsnr" v="145660" />
	</node>
<<<<<<< HEAD
	<node lat="59.21981110951597" lon="5.3762249938385205" id="-2969">
		<tag k="name" v="Skruholmen" />
		<tag k="place" v="islet" />
		<tag k="ssr:stedsnr" v="146648" />
	</node>
	<node lat="59.217638890168296" lon="5.378911107853845" id="-2970">
=======
	<node id="-36479" lat="59.1767888889" lon="5.4110888907">
		<tag k="name" v="Lindraken" />
		<tag k="natural" v="cape" />
		<tag k="ssr:stedsnr" v="912430" />
	</node>
	<node id="-36478" lat="59.1675000006" lon="5.46178333009">
		<tag k="alt_name" v="Knudskjeret" />
>>>>>>> e1d4bc35ff8a6074a6f2e91616a996b547c36f15
		<tag k="fixme" v="consider seamark:type=rock or natural=shoal" />
		<tag k="name" v="Purkesteinane" />
		<tag k="place" v="islet" />
		<tag k="ssr:stedsnr" v="146650" />
	</node>
<<<<<<< HEAD
	<node lat="59.252933333609484" lon="5.411252783156082" id="-2971">
		<tag k="name" v="Litle Vindholmen" />
=======
	<node id="-36477" lat="59.1619361081" lon="5.45513055124">
		<tag k="alt_name" v="Solholmen, s" />
		<tag k="name" v="Søre Solholmen" />
>>>>>>> e1d4bc35ff8a6074a6f2e91616a996b547c36f15
		<tag k="place" v="islet" />
		<tag k="ssr:stedsnr" v="148048" />
	</node>
<<<<<<< HEAD
	<node lat="59.25090277820499" lon="5.457591671365584" id="-2972">
		<tag k="name" v="Varanesvatnet" />
		<tag k="natural" v="water" />
		<tag k="ssr:stedsnr" v="148701" />
	</node>
	<node lat="59.16080278076914" lon="5.403830546802279" id="-2973">
		<tag k="fixme" v="consider seamark:type=rock or natural=shoal" />
		<tag k="name" v="Bergsuggenakkjen" />
		<tag k="place" v="islet" />
		<tag k="ssr:stedsnr" v="175824" />
	</node>
	<node lat="59.161852774018534" lon="5.388230564145518" id="-2974">
		<tag k="name" v="Stintenesodden" />
=======
	<node id="-36476" lat="59.2130722215" lon="5.37533610285">
		<tag k="name" v="Bergsuggenakken" />
>>>>>>> e1d4bc35ff8a6074a6f2e91616a996b547c36f15
		<tag k="natural" v="cape" />
		<tag k="ssr:stedsnr" v="175831" />
	</node>
<<<<<<< HEAD
	<node lat="59.22748888630943" lon="5.376288887965846" id="-2975">
		<tag k="name" v="Fladberg" />
		<tag k="natural" v="hill" />
		<tag k="place" v="locality" />
		<tag k="ssr:stedsnr" v="181884" />
	</node>
	<node lat="59.233338887877444" lon="5.41046943613732" id="-2976">
		<tag k="fixme" v="consider natural=peak for the most distinct mountains in the district" />
		<tag k="name" v="Kodlefjell" />
		<tag k="natural" v="hill" />
		<tag k="place" v="locality" />
		<tag k="ssr:stedsnr" v="181895" />
	</node>
	<node lat="59.21928055817444" lon="5.446102784421383" id="-2977">
		<tag k="fixme" v="consider natural=peak for the most distinct mountains in the district" />
		<tag k="name" v="Glette" />
		<tag k="natural" v="hill" />
		<tag k="place" v="locality" />
		<tag k="ssr:stedsnr" v="181982" />
	</node>
	<node lat="59.2378111092688" lon="5.426674998432477" id="-2978">
		<tag k="alt_name" v="Døvik" />
		<tag k="name" v="Døvika" />
=======
	<node id="-36475" lat="59.1956449242" lon="5.42944543857">
		<tag k="alt_name" v="Økland" />
		<tag k="fixme" v="consider place=hamlet" />
		<tag k="name" v="Aukland" />
		<tag k="place" v="farm" />
		<tag k="ssr:stedsnr" v="912060" />
	</node>
	<node id="-36474" lat="59.240986113" lon="5.42285000241">
		<tag k="name" v="Kongshamn" />
>>>>>>> e1d4bc35ff8a6074a6f2e91616a996b547c36f15
		<tag k="natural" v="bay" />
		<tag k="ssr:stedsnr" v="183026" />
	</node>
<<<<<<< HEAD
	<node lat="59.20792778129792" lon="5.4079416683128505" id="-2979">
		<tag k="name" v="Hagavatnet" />
=======
	<node id="-36473" lat="59.2317953955" lon="5.40373715055">
		<tag k="alt_name" v="Halvardsvatnet" />
		<tag k="name" v="Buarvatnet" />
>>>>>>> e1d4bc35ff8a6074a6f2e91616a996b547c36f15
		<tag k="natural" v="water" />
		<tag k="ssr:stedsnr" v="183084" />
		<tag k="water" v="lake" />
	</node>
<<<<<<< HEAD
	<node lat="59.2477944468434" lon="5.465394441979377" id="-2980">
		<tag k="name" v="Nydal" />
		<tag k="place" v="farm" />
		<tag k="ssr:stedsnr" v="183039" />
	</node>
	<node lat="59.24264167035821" lon="5.406902779962274" id="-2981">
		<tag k="alt_name" v="Hallvardsvik" />
		<tag k="name" v="Halvardsvika" />
		<tag k="natural" v="bay" />
		<tag k="ssr:stedsnr" v="183042" />
	</node>
	<node lat="59.19937499565761" lon="5.47343055448692" id="-2982">
		<tag k="alt_name" v="Sandvigskjeret" />
		<tag k="fixme" v="consider seamark:type=rock or natural=shoal" />
		<tag k="name" v="Sandvikskjeret" />
		<tag k="place" v="islet" />
		<tag k="ssr:stedsnr" v="184277" />
	</node>
	<node lat="59.164247223690886" lon="5.437472229884123" id="-2983">
		<tag k="alt_name" v="Skodehamn" />
		<tag k="name" v="Skottahamn" />
		<tag k="natural" v="bay" />
		<tag k="ssr:stedsnr" v="184383" />
	</node>
	<node lat="59.16031944555258" lon="5.386377785714828" id="-2984">
		<tag k="fixme" v="consider seamark:type=rock or natural=shoal" />
		<tag k="name" v="Austevigskjeret" />
		<tag k="place" v="islet" />
		<tag k="ssr:stedsnr" v="206666" />
	</node>
	<node lat="59.155022219399314" lon="5.413205552515379" id="-2985">
		<tag k="name" v="Bussholmane" />
=======
	<node id="-36472" lat="59.2277166649" lon="5.39510833828">
		<tag k="name" v="Sandvatnet" />
		<tag k="natural" v="water" />
		<tag k="ssr:stedsnr" v="911006" />
	</node>
	<node id="-36471" lat="59.1929333311" lon="5.37872499439">
		<tag k="name" v="Stora Drauavika" />
		<tag k="natural" v="bay" />
		<tag k="ssr:stedsnr" v="910942" />
	</node>
	<node id="-36470" lat="59.2066194468" lon="5.39538055599">
		<tag k="name" v="Håmannsvatnet" />
		<tag k="natural" v="water" />
		<tag k="ssr:stedsnr" v="909981" />
	</node>
	<node id="-36469" lat="59.2471499988" lon="5.46846666885">
		<tag k="name" v="Reinafjellet" />
		<tag k="natural" v="cliff" />
		<tag k="ssr:stedsnr" v="909973" />
	</node>
	<node id="-36468" lat="59.236625004" lon="5.48532499992">
		<tag k="name" v="Nordra Makrellvika" />
		<tag k="natural" v="bay" />
		<tag k="ssr:stedsnr" v="909972" />
	</node>
	<node id="-36467" lat="59.2335499958" lon="5.46213888332">
		<tag k="name" v="Bakkane" />
		<tag k="natural" v="slope" />
		<tag k="place" v="locality" />
		<tag k="ssr:stedsnr" v="909910" />
	</node>
	<node id="-36466" lat="59.2281499968" lon="5.44538888194">
		<tag k="name" v="Sæbbøhaugen" />
		<tag k="natural" v="hill" />
		<tag k="place" v="locality" />
		<tag k="ssr:stedsnr" v="909909" />
	</node>
	<node id="-36465" lat="59.1670777816" lon="5.42009999507">
		<tag k="name" v="Austre Brog" />
>>>>>>> e1d4bc35ff8a6074a6f2e91616a996b547c36f15
		<tag k="place" v="islet" />
		<tag k="ssr:stedsnr" v="206672" />
	</node>
<<<<<<< HEAD
	<node lat="59.22633333353253" lon="5.49666110322059" id="-2986">
		<tag k="name" v="Likvika" />
=======
	<node id="-36464" lat="59.1866361115" lon="5.46697777863">
		<tag k="alt_name" v="Krokvågen" />
		<tag k="name" v="Kråkevågen" />
>>>>>>> e1d4bc35ff8a6074a6f2e91616a996b547c36f15
		<tag k="natural" v="bay" />
		<tag k="ssr:stedsnr" v="207874" />
	</node>
<<<<<<< HEAD
	<node lat="59.214999996790674" lon="5.509166674617796" id="-2987">
		<tag k="name" v="Humrabrunnen" />
		<tag k="natural" v="water" />
		<tag k="ssr:stedsnr" v="207909" />
		<tag k="water" v="lake" />
	</node>
	<node lat="59.25216110730237" lon="5.40458611739224" id="-2988">
		<tag k="name" v="Teistholmen" />
		<tag k="place" v="islet" />
		<tag k="ssr:stedsnr" v="209050" />
	</node>
	<node lat="59.24969722482821" lon="5.465091665539241" id="-2989">
		<tag k="name" v="Krossnes" />
=======
	<node id="-36463" lat="59.1984361082" lon="5.45235278584">
		<tag k="fixme" v="consider natural=peak for the most distinct mountains in the district" />
		<tag k="name" v="Søra Hatlefjellet" />
		<tag k="natural" v="hill" />
		<tag k="place" v="locality" />
		<tag k="ssr:stedsnr" v="903466" />
	</node>
	<node id="-36462" lat="59.171339664" lon="5.39182643142">
		<tag k="fixme" v="consider place=hamlet" />
		<tag k="name" v="Loten" />
		<tag k="place" v="farm" />
		<tag k="ssr:stedsnr" v="730437" />
	</node>
	<node id="-36461" lat="59.1764638852" lon="5.37711110626">
		<tag k="name" v="Båsen" />
>>>>>>> e1d4bc35ff8a6074a6f2e91616a996b547c36f15
		<tag k="natural" v="cape" />
		<tag k="ssr:stedsnr" v="209690" />
	</node>
<<<<<<< HEAD
	<node lat="59.16959444357795" lon="5.391858330665528" id="-2990">
		<tag k="name" v="Husafjellet" />
=======
	<node id="-36460" lat="59.173458334" lon="5.40385555707">
		<tag k="name" v="Langanes" />
		<tag k="natural" v="cape" />
		<tag k="ssr:stedsnr" v="730422" />
	</node>
	<node id="-36459" lat="59.2127027772" lon="5.42001666448">
		<tag k="name" v="Olahaugane" />
>>>>>>> e1d4bc35ff8a6074a6f2e91616a996b547c36f15
		<tag k="natural" v="hill" />
		<tag k="place" v="locality" />
		<tag k="ssr:stedsnr" v="296331" />
	</node>
<<<<<<< HEAD
	<node lat="59.17806666448891" lon="5.418600008593227" id="-2991">
		<tag k="name" v="Fårå" />
		<tag k="place" v="islet" />
		<tag k="ssr:stedsnr" v="296346" />
	</node>
	<node lat="59.17578611083147" lon="5.431813896600792" id="-2992">
		<tag k="name" v="Hognåsvika" />
		<tag k="natural" v="bay" />
		<tag k="ssr:stedsnr" v="296348" />
	</node>
	<node lat="59.24665278136633" lon="5.394002781256146" id="-2993">
		<tag k="alt_name" v="Irståni" />
		<tag k="name" v="Irståna" />
		<tag k="place" v="island" />
		<tag k="ssr:stedsnr" v="304049" />
	</node>
	<node lat="59.23609999705323" lon="5.464355564366722" id="-2994">
		<tag k="alt_name" v="Bokn, austre" />
		<tag k="name" v="Austre Bokn" />
		<tag k="place" v="island" />
		<tag k="ssr:stedsnr" v="304015" />
	</node>
	<node lat="59.234361760420114" lon="5.460160830476915" id="-2995">
		<tag k="alt_name" v="Nerabø" />
		<tag k="fixme" v="consider place=hamlet" />
		<tag k="name" v="Nedrabø" />
		<tag k="place" v="farm" />
		<tag k="ssr:stedsnr" v="304017" />
	</node>
	<node lat="59.137669447440516" lon="5.439511103827489" id="-2996">
		<tag k="name" v="Arsgrunnen" />
		<tag k="natural" v="shoal" />
		<tag k="place" v="locality" />
		<tag k="ssr:stedsnr" v="304393" />
	</node>
	<node lat="59.269241665508105" lon="5.478997216479201" id="-2997">
		<tag k="name" v="Ognakalven" />
=======
	<node id="-36458" lat="59.220961111" lon="5.40826388261">
		<tag k="fixme" v="consider natural=peak for the most distinct mountains in the district" />
		<tag k="name" v="Varen" />
		<tag k="natural" v="hill" />
		<tag k="place" v="locality" />
		<tag k="ssr:stedsnr" v="727977" />
	</node>
	<node id="-36457" lat="59.1785722234" lon="5.40476388855">
		<tag k="name" v="Jøsenlandet" />
		<tag k="natural" v="cape" />
		<tag k="ssr:stedsnr" v="721377" />
	</node>
	<node id="-36456" lat="59.170008337" lon="5.40517499539">
		<tag k="name" v="Nordre Vierholmen" />
		<tag k="place" v="islet" />
		<tag k="ssr:stedsnr" v="721371" />
	</node>
	<node id="-36455" lat="59.1685277777" lon="5.40426110478">
		<tag k="name" v="Store Vierholmen" />
		<tag k="place" v="islet" />
		<tag k="ssr:stedsnr" v="721367" />
	</node>
	<node id="-36454" lat="59.264988886" lon="5.45055278509">
		<tag k="name" v="Brattholmen" />
		<tag k="place" v="islet" />
		<tag k="ssr:stedsnr" v="694624" />
	</node>
	<node id="-36453" lat="59.1933249996" lon="5.37728333679">
		<tag k="fixme" v="consider seamark:type=rock or natural=shoal" />
		<tag k="name" v="Nibbaskjeret" />
>>>>>>> e1d4bc35ff8a6074a6f2e91616a996b547c36f15
		<tag k="place" v="islet" />
		<tag k="ssr:stedsnr" v="305226" />
	</node>
<<<<<<< HEAD
	<node lat="59.195677776503636" lon="5.387230550386298" id="-2998">
		<tag k="name" v="Grønnestadvågen" />
		<tag k="natural" v="bay" />
		<tag k="ssr:stedsnr" v="305088" />
	</node>
	<node lat="59.21718055461922" lon="5.508480555439788" id="-2999">
		<tag k="alt_name" v="Vågholmen, nordre" />
		<tag k="name" v="Nordre Vågholmen" />
=======
	<node id="-36452" lat="59.1735388894" lon="5.41643611973">
		<tag k="name" v="Stora Kjeøya" />
>>>>>>> e1d4bc35ff8a6074a6f2e91616a996b547c36f15
		<tag k="place" v="islet" />
		<tag k="ssr:stedsnr" v="305292" />
	</node>
<<<<<<< HEAD
	<node lat="59.15710000185142" lon="5.383744442100709" id="-3001">
		<tag k="name" v="Skolten" />
		<tag k="natural" v="shoal" />
=======
	<node id="-36451" lat="59.1980333356" lon="5.44159999132">
		<tag k="name" v="Husafjellet" />
		<tag k="natural" v="hill" />
>>>>>>> e1d4bc35ff8a6074a6f2e91616a996b547c36f15
		<tag k="place" v="locality" />
		<tag k="ssr:stedsnr" v="327643" />
	</node>
<<<<<<< HEAD
	<node lat="59.272375001229925" lon="5.470005558719871" id="-3003">
		<tag k="name" v="Risholmen" />
		<tag k="place" v="islet" />
		<tag k="ssr:stedsnr" v="330679" />
	</node>
	<node lat="59.26804758870769" lon="5.475450634680115" id="-3004">
		<tag k="name" v="Steinsvik" />
		<tag k="natural" v="bay" />
		<tag k="ssr:stedsnr" v="330681" />
	</node>
	<node lat="59.25994166489384" lon="5.484174999059603" id="-3005">
		<tag k="name" v="Regaviga" />
=======
	<node id="-36450" lat="59.1777138919" lon="5.44334722956">
		<tag k="name" v="Tollakstjørna" />
		<tag k="natural" v="water" />
		<tag k="ssr:stedsnr" v="660066" />
	</node>
	<node id="-36449" lat="59.249886107" lon="5.46309165915">
		<tag k="name" v="Stidlevik" />
		<tag k="natural" v="bay" />
		<tag k="ssr:stedsnr" v="876679" />
	</node>
	<node id="-36448" lat="59.2546138917" lon="5.4666749997">
		<tag k="name" v="Kvidatong" />
		<tag k="natural" v="cape" />
		<tag k="ssr:stedsnr" v="876658" />
	</node>
	<node id="-36447" lat="59.2531305535" lon="5.47307500031">
		<tag k="name" v="Bukkatøkje" />
>>>>>>> e1d4bc35ff8a6074a6f2e91616a996b547c36f15
		<tag k="natural" v="bay" />
		<tag k="ssr:stedsnr" v="330683" />
	</node>
<<<<<<< HEAD
	<node lat="59.16412500027959" lon="5.458238884809215" id="-3006">
		<tag k="name" v="Eriksgrunnen" />
		<tag k="natural" v="shoal" />
		<tag k="place" v="locality" />
		<tag k="ssr:stedsnr" v="344675" />
	</node>
	<node lat="59.18455555920108" lon="5.4678222206047655" id="-3007">
		<tag k="fixme" v="consider seamark:type=rock or natural=shoal" />
		<tag k="name" v="Ringskjer" />
		<tag k="place" v="islet" />
		<tag k="ssr:stedsnr" v="344639" />
	</node>
	<node lat="59.15554721962211" lon="5.410683328043045" id="-3008">
		<tag k="name" v="Djubasundet" />
		<tag k="natural" v="strait" />
		<tag k="ssr:stedsnr" v="356836" />
	</node>
	<node lat="59.15588333098127" lon="5.405327784254897" id="-3009">
		<tag k="name" v="Longholmane" />
=======
	<node id="-36446" lat="59.2608333341" lon="5.47164999914">
		<tag k="name" v="Stemmen" />
		<tag k="natural" v="water" />
		<tag k="ssr:stedsnr" v="876653" />
	</node>
	<node id="-36445" lat="59.2492611087" lon="5.46678332691">
		<tag k="alt_name" v="Kallabergvika" />
		<tag k="name" v="Kallabergvik" />
		<tag k="natural" v="bay" />
		<tag k="ssr:stedsnr" v="876296" />
	</node>
	<node id="-36444" lat="59.17061667" lon="5.45350000407">
		<tag k="alt_name" v="Arsvågen" />
		<tag k="amenity" v="ferry_terminal" />
		<tag k="name" v="Arsvågen ferjekai" />
		<tag k="ssr:stedsnr" v="654513" />
	</node>
	<node id="-36443" lat="59.2680638892" lon="5.45345832757">
		<tag k="alt_name" v="Lamholmen" />
		<tag k="name" v="Lamholmane" />
>>>>>>> e1d4bc35ff8a6074a6f2e91616a996b547c36f15
		<tag k="place" v="islet" />
		<tag k="ssr:stedsnr" v="356838" />
	</node>
<<<<<<< HEAD
	<node lat="59.15931944560355" lon="5.410305556347702" id="-3010">
		<tag k="fixme" v="consider seamark:type=rock or natural=shoal" />
		<tag k="name" v="Olaskjera" />
		<tag k="place" v="islet" />
		<tag k="ssr:stedsnr" v="356839" />
	</node>
	<node lat="59.18341388956241" lon="5.4576055478515295" id="-3011">
		<tag k="name" v="Lauplandsvågen" />
		<tag k="natural" v="bay" />
		<tag k="ssr:stedsnr" v="357080" />
	</node>
	<node lat="59.18265858583878" lon="5.383878918500579" id="-3012">
		<tag k="name" v="Søra Jøsenvatnet" />
		<tag k="natural" v="water" />
		<tag k="ssr:stedsnr" v="357347" />
		<tag k="water" v="lake" />
	</node>
	<node lat="59.1682916647039" lon="5.3989638807712454" id="-3013">
		<tag k="name" v="Kvidanes" />
		<tag k="natural" v="cape" />
		<tag k="ssr:stedsnr" v="357349" />
	</node>
	<node lat="59.16320833173746" lon="5.401741660190464" id="-3014">
		<tag k="name" v="Røydehamn" />
		<tag k="natural" v="bay" />
		<tag k="ssr:stedsnr" v="357356" />
	</node>
	<node lat="59.16521944147313" lon="5.402963884431925" id="-3015">
		<tag k="fixme" v="consider seamark:type=rock or natural=shoal" />
		<tag k="name" v="Brennevinsskjeret" />
		<tag k="place" v="islet" />
		<tag k="ssr:stedsnr" v="357357" />
	</node>
	<node lat="59.185152775570586" lon="5.4712277732427905" id="-3016">
		<tag k="name" v="Varholmen" />
		<tag k="place" v="islet" />
		<tag k="ssr:stedsnr" v="357470" />
	</node>
	<node lat="59.2305305586928" lon="5.394469450911403" id="-3017">
		<tag k="name" v="Søre Bornevik" />
		<tag k="place" v="farm" />
		<tag k="ssr:stedsnr" v="363874" />
	</node>
	<node lat="59.234499997375714" lon="5.418083335116175" id="-3018">
		<tag k="name" v="Stolltjørna" />
		<tag k="natural" v="water" />
		<tag k="ssr:stedsnr" v="363877" />
	</node>
	<node lat="59.21814166877261" lon="5.395988883421684" id="-3019">
		<tag k="name" v="Løgjen" />
		<tag k="natural" v="water" />
		<tag k="ssr:stedsnr" v="363966" />
		<tag k="water" v="lake" />
	</node>
	<node lat="59.24741111217489" lon="5.473388888993976" id="-3020">
		<tag k="name" v="Otrahaugen" />
		<tag k="natural" v="hill" />
		<tag k="place" v="locality" />
		<tag k="ssr:stedsnr" v="363970" />
	</node>
	<node lat="59.216655559075356" lon="5.402983331671123" id="-3021">
		<tag k="name" v="Neset" />
		<tag k="natural" v="cape" />
		<tag k="ssr:stedsnr" v="363981" />
	</node>
	<node lat="59.214344444569875" lon="5.500030555503888" id="-3022">
		<tag k="fixme" v="consider seamark:type=rock or natural=shoal" />
		<tag k="name" v="Innjedel" />
		<tag k="place" v="islet" />
		<tag k="ssr:stedsnr" v="364000" />
	</node>
	<node lat="59.19498611388241" lon="5.4370194396168845" id="-3023">
		<tag k="name" v="Vatnalandsvatnet" />
=======
	<node id="-36442" lat="59.2564666643" lon="5.40337500663">
		<tag k="alt_name" v="Mekjerøya, store;stora Megjarøyna;Stora Megerøy" />
		<tag k="name" v="Stora Mekjerøya" />
		<tag k="place" v="islet" />
		<tag k="ssr:stedsnr" v="730892" />
	</node>
	<node id="-36441" lat="59.2121277755" lon="5.49506111904">
		<tag k="alt_name" v="Langetangen;Longatonga" />
		<tag k="name" v="Langetunga" />
		<tag k="natural" v="cape" />
		<tag k="ssr:stedsnr" v="730284" />
	</node>
	<node id="-36440" lat="59.2262638898" lon="5.38423054766">
		<tag k="fixme" v="multiple name tags, choose one and add the other to alt_name" />
		<tag k="name" v="Flatberget;Ørnå" />
		<tag k="natural" v="hill" />
		<tag k="place" v="locality" />
		<tag k="ssr:stedsnr" v="730106" />
	</node>
	<node id="-36439" lat="59.2104571989" lon="5.42615900183">
		<tag k="fixme" v="consider place=hamlet" />
		<tag k="name" v="Torland" />
		<tag k="place" v="farm" />
		<tag k="ssr:stedsnr" v="730088" />
	</node>
	<node id="-36438" lat="59.2044888912" lon="5.38281666071">
		<tag k="name" v="Ådnaneset" />
		<tag k="natural" v="cape" />
		<tag k="ssr:stedsnr" v="729081" />
	</node>
	<node id="-36437" lat="59.1992500011" lon="5.42276665793">
		<tag k="fixme" v="consider natural=peak for the most distinct mountains in the district" />
		<tag k="name" v="Rindafjellet" />
		<tag k="natural" v="hill" />
		<tag k="place" v="locality" />
		<tag k="ssr:stedsnr" v="729068" />
	</node>
	<node id="-36436" lat="59.255741267" lon="5.4711430913">
		<tag k="fixme" v="consider place=hamlet" />
		<tag k="name" v="Ogn" />
		<tag k="place" v="farm" />
		<tag k="ssr:stedsnr" v="633671" />
	</node>
	<node id="-36435" lat="59.2153777789" lon="5.49968055833">
		<tag k="name" v="Sjuraodden" />
		<tag k="natural" v="cape" />
		<tag k="ssr:stedsnr" v="727998" />
	</node>
	<node id="-36434" lat="59.2685861066" lon="5.47530554989">
		<tag k="name" v="Steinsvikneset" />
		<tag k="natural" v="cape" />
		<tag k="ssr:stedsnr" v="630856" />
	</node>
	<node id="-36433" lat="59.2183083312" lon="5.50542778269">
		<tag k="name" v="Nordra Vågholmsundet" />
		<tag k="natural" v="strait" />
		<tag k="ssr:stedsnr" v="630924" />
	</node>
	<node id="-36432" lat="59.2378972177" lon="5.45309166432">
		<tag k="fixme" v="verify maritime location" />
		<tag k="mooring" v="yes" />
		<tag k="name" v="Gongstø" />
		<tag k="place" v="locality" />
		<tag k="ssr:stedsnr" v="727895" />
	</node>
	<node id="-36431" lat="59.2377666647" lon="5.41105556183">
		<tag k="fixme" v="consider natural=peak for the most distinct mountains in the district" />
		<tag k="name" v="Stoggfjell" />
		<tag k="natural" v="hill" />
		<tag k="place" v="locality" />
		<tag k="ssr:stedsnr" v="727891" />
	</node>
	<node id="-36430" lat="59.2333388879" lon="5.41046943614">
		<tag k="fixme" v="consider natural=peak for the most distinct mountains in the district" />
		<tag k="name" v="Spikfjell" />
		<tag k="natural" v="hill" />
		<tag k="place" v="locality" />
		<tag k="ssr:stedsnr" v="727889" />
	</node>
	<node id="-36429" lat="59.230505557" lon="5.38842223081">
		<tag k="name" v="Nordre Breivik" />
		<tag k="place" v="farm" />
		<tag k="ssr:stedsnr" v="727887" />
	</node>
	<node id="-36428" lat="59.1935194484" lon="5.38426944409">
		<tag k="name" v="Skibaflua" />
		<tag k="place" v="locality" />
		<tag k="seamark:type" v="rock" />
		<tag k="ssr:stedsnr" v="630607" />
	</node>
	<node id="-36427" lat="59.246124997" lon="5.38692499211">
		<tag k="name" v="Boknahovsholmen" />
		<tag k="place" v="islet" />
		<tag k="ssr:stedsnr" v="727876" />
	</node>
	<node id="-36426" lat="59.2533805558" lon="5.47963333471">
		<tag k="name" v="Båsen" />
		<tag k="natural" v="bay" />
		<tag k="ssr:stedsnr" v="629911" />
	</node>
	<node id="-36425" lat="59.1881027782" lon="5.41225833976">
		<tag k="name" v="Sunnalandsvatnet" />
>>>>>>> e1d4bc35ff8a6074a6f2e91616a996b547c36f15
		<tag k="natural" v="water" />
		<tag k="ssr:stedsnr" v="365076" />
		<tag k="water" v="lake" />
	</node>
<<<<<<< HEAD
	<node lat="59.236647219679604" lon="5.391427781473546" id="-3024">
		<tag k="alt_name" v="Breivik" />
		<tag k="name" v="Breidvika" />
=======
	<node id="-36424" lat="59.1945472254" lon="5.39443055472">
		<tag k="name" v="Skiftesvika" />
>>>>>>> e1d4bc35ff8a6074a6f2e91616a996b547c36f15
		<tag k="natural" v="bay" />
		<tag k="ssr:stedsnr" v="365033" />
	</node>
<<<<<<< HEAD
	<node lat="59.185977778135936" lon="5.42622221474018" id="-3025">
		<tag k="name" v="Hognalandsvatnet" />
=======
	<node id="-36423" lat="59.1856305558" lon="5.38477221771">
		<tag k="name" v="Noravatnet" />
>>>>>>> e1d4bc35ff8a6074a6f2e91616a996b547c36f15
		<tag k="natural" v="water" />
		<tag k="ssr:stedsnr" v="365085" />
		<tag k="water" v="lake" />
	</node>
<<<<<<< HEAD
	<node lat="59.20532777499159" lon="5.377097227204623" id="-3026">
		<tag k="alt_name" v="Rekavika;Rekevik;Regavika" />
		<tag k="name" v="Regaviga" />
		<tag k="natural" v="bay" />
		<tag k="ssr:stedsnr" v="365087" />
	</node>
	<node lat="59.17438888696536" lon="5.379047220076442" id="-3027">
		<tag k="name" v="Kjølevig" />
=======
	<node id="-36422" lat="59.2401916675" lon="5.45124999222">
		<tag k="name" v="Øvrabøneset" />
		<tag k="natural" v="cape" />
		<tag k="ssr:stedsnr" v="607031" />
	</node>
	<node id="-36421" lat="59.221750004" lon="5.48101944544">
		<tag k="name" v="Kastdal" />
		<tag k="natural" v="valley" />
		<tag k="place" v="locality" />
		<tag k="ssr:stedsnr" v="605986" />
	</node>
	<node id="-36420" lat="59.2203499971" lon="5.4747972179">
		<tag k="landuse" v="meadow" />
		<tag k="name" v="Øygardsbrota" />
		<tag k="ssr:stedsnr" v="605983" />
	</node>
	<node id="-36419" lat="59.1590222207" lon="5.39148611022">
		<tag k="name" v="Kleppogn" />
		<tag k="natural" v="strait" />
		<tag k="ssr:stedsnr" v="600807" />
	</node>
	<node id="-36418" lat="59.1821638884" lon="5.41885555824">
		<tag k="name" v="Bakkavika" />
>>>>>>> e1d4bc35ff8a6074a6f2e91616a996b547c36f15
		<tag k="natural" v="bay" />
		<tag k="ssr:stedsnr" v="365422" />
	</node>
<<<<<<< HEAD
	<node lat="59.18136762467206" lon="5.424877148929864" id="-3028">
		<tag k="fixme" v="consider place=hamlet" />
		<tag k="name" v="Hognaland" />
		<tag k="place" v="farm" />
		<tag k="ssr:stedsnr" v="365424" />
	</node>
	<node lat="59.16855555387281" lon="5.404038884330514" id="-3029">
		<tag k="name" v="Vierholmane" />
		<tag k="place" v="islet" />
		<tag k="ssr:stedsnr" v="365437" />
	</node>
	<node lat="59.2179313307103" lon="5.487340354964246" id="-3030">
		<tag k="alt_name" v="Våga" />
		<tag k="fixme" v="consider place=hamlet" />
		<tag k="name" v="Søre Våga" />
		<tag k="place" v="farm" />
		<tag k="ssr:stedsnr" v="365471" />
	</node>
	<node lat="59.22444999948705" lon="5.493219445402908" id="-3031">
		<tag k="name" v="Vågavågen" />
		<tag k="natural" v="bay" />
		<tag k="ssr:stedsnr" v="365487" />
	</node>
	<node lat="59.217156336020125" lon="5.412663984983846" id="-3032">
		<tag k="fixme" v="consider place=hamlet" />
		<tag k="name" v="Gunnarstad" />
		<tag k="place" v="farm" />
		<tag k="ssr:stedsnr" v="366083" />
	</node>
	<node lat="59.22642221985979" lon="5.395805558700993" id="-3033">
		<tag k="alt_name" v="Kleivane" />
		<tag k="name" v="Kleiva" />
		<tag k="place" v="farm" />
		<tag k="ssr:stedsnr" v="366106" />
	</node>
	<node lat="59.21675277655946" lon="5.383902775990255" id="-3034">
		<tag k="name" v="Trosnavågen" />
		<tag k="natural" v="bay" />
		<tag k="ssr:stedsnr" v="366107" />
	</node>
	<node lat="59.21801389352544" lon="5.420661118150863" id="-3035">
		<tag k="fixme" v="consider natural=peak for the most distinct mountains in the district" />
		<tag k="name" v="Boknafjellet" />
		<tag k="natural" v="hill" />
=======
	<node id="-36417" lat="59.1753972182" lon="5.4021027726">
		<tag k="name" v="Stuttanes" />
		<tag k="natural" v="cape" />
		<tag k="ssr:stedsnr" v="599359" />
	</node>
	<node id="-36416" lat="59.1853027806" lon="5.40414167145">
		<tag k="bridge" v="yes" />
		<tag k="layer" v="1" />
		<tag k="name" v="Sønderlandstraumen" />
		<tag k="ssr:stedsnr" v="715523" />
	</node>
	<node id="-36414" lat="59.153113891" lon="5.43925277043">
		<tag k="name" v="Skolleflua" />
		<tag k="place" v="locality" />
		<tag k="seamark:type" v="rock" />
		<tag k="ssr:stedsnr" v="708668" />
	</node>
	<node id="-36413" lat="59.2537194476" lon="5.48295278238">
		<tag k="alt_name" v="Ognatongjen" />
		<tag k="name" v="Ognatangen" />
		<tag k="natural" v="cape" />
		<tag k="ssr:stedsnr" v="694629" />
	</node>
	<node id="-36412" lat="59.2120083362" lon="5.55289165838">
		<tag k="name" v="Rovetærgrunnen" />
		<tag k="natural" v="shoal" />
		<tag k="place" v="locality" />
		<tag k="ssr:stedsnr" v="693951" />
	</node>
	<node id="-36411" lat="59.2272861109" lon="5.49968611072">
		<tag k="alt_name" v="Skjersund" />
		<tag k="name" v="Skjersundet" />
		<tag k="natural" v="strait" />
		<tag k="ssr:stedsnr" v="693872" />
	</node>
	<node id="-36410" lat="59.1612888902" lon="5.42793611704">
		<tag k="name" v="Stumpen" />
>>>>>>> e1d4bc35ff8a6074a6f2e91616a996b547c36f15
		<tag k="place" v="locality" />
		<tag k="ssr:stedsnr" v="366113" />
	</node>
<<<<<<< HEAD
	<node lat="59.204636115207215" lon="5.510569441038362" id="-3036">
		<tag k="alt_name" v="Koppskjera;Kobbeskjera;Kobbskjer" />
		<tag k="fixme" v="consider seamark:type=rock or natural=shoal" />
		<tag k="name" v="Kobbskjeret" />
=======
	<node id="-36409" lat="59.1658944414" lon="5.41467500029">
		<tag k="name" v="Vestre Brog" />
>>>>>>> e1d4bc35ff8a6074a6f2e91616a996b547c36f15
		<tag k="place" v="islet" />
		<tag k="ssr:stedsnr" v="366279" />
	</node>
<<<<<<< HEAD
	<node lat="59.26187778105478" lon="5.411891671850049" id="-3037">
		<tag k="name" v="Lamholmen" />
		<tag k="place" v="islet" />
		<tag k="ssr:stedsnr" v="366872" />
	</node>
	<node lat="59.25148058980887" lon="5.4484284860615455" id="-3038">
		<tag k="alt_name" v="Fløsund" />
		<tag k="name" v="Fløysundet" />
		<tag k="natural" v="strait" />
		<tag k="ssr:stedsnr" v="388622" />
	</node>
	<node lat="59.16708055309443" lon="5.418211107581074" id="-3039">
		<tag k="name" v="Brøgene" />
		<tag k="place" v="islet" />
		<tag k="ssr:stedsnr" v="388671" />
	</node>
	<node lat="59.25830000263831" lon="5.465002770099864" id="-3041">
		<tag k="fixme" v="consider natural=peak for the most distinct mountains in the district" />
		<tag k="name" v="Liafjellet" />
		<tag k="natural" v="hill" />
=======
	<node id="-36408" lat="59.1918972212" lon="5.38353055965">
		<tag k="name" v="Sjebavika" />
		<tag k="natural" v="bay" />
		<tag k="ssr:stedsnr" v="539431" />
	</node>
	<node id="-36407" lat="59.1927333351" lon="5.38221667305">
		<tag k="name" v="Studahola" />
		<tag k="natural" v="bay" />
		<tag k="ssr:stedsnr" v="539430" />
	</node>
	<node id="-36406" lat="59.2504222195" lon="5.47221389352">
		<tag k="fixme" v="consider seamark:type=rock or natural=shoal" />
		<tag k="name" v="Svartaskjer" />
		<tag k="place" v="islet" />
		<tag k="ssr:stedsnr" v="512681" />
	</node>
	<node id="-36405" lat="59.2492444437" lon="5.47507500465">
		<tag k="name" v="Regaviggrunnen" />
		<tag k="natural" v="shoal" />
		<tag k="place" v="locality" />
		<tag k="ssr:stedsnr" v="509852" />
	</node>
	<node id="-36404" lat="61.2177777797" lon="6.59979722139">
		<tag k="alt_name" v="Alskori" />
		<tag k="name" v="Almskori" />
>>>>>>> e1d4bc35ff8a6074a6f2e91616a996b547c36f15
		<tag k="place" v="locality" />
		<tag k="ssr:stedsnr" v="391666" />
	</node>
<<<<<<< HEAD
	<node lat="59.24941111418844" lon="5.4715138964681715" id="-3042">
		<tag k="alt_name" v="Håtang" />
		<tag k="name" v="Håtong" />
		<tag k="natural" v="cape" />
		<tag k="ssr:stedsnr" v="391670" />
	</node>
	<node lat="59.172050002544275" lon="5.450383332814826" id="-3043">
		<tag k="bridge" v="yes" />
		<tag k="layer" v="1" />
		<tag k="name" v="Are" />
		<tag k="ssr:stedsnr" v="411499" />
	</node>
	<node lat="59.16360277582749" lon="5.404988894840705" id="-3044">
		<tag k="name" v="Drevsund" />
		<tag k="natural" v="strait" />
		<tag k="ssr:stedsnr" v="418362" />
	</node>
	<node lat="59.18113055973195" lon="5.417561110651386" id="-3045">
		<tag k="fixme" v="consider seamark:type=rock or natural=shoal" />
		<tag k="name" v="Bakkaskjeret" />
=======
	<node id="-36403" lat="59.26663889" lon="5.43076110832">
		<tag k="alt_name" v="Bokneflæet" />
		<tag k="bay" v="fjord" />
		<tag k="name" v="Boknaflæet" />
		<tag k="natural" v="bay" />
		<tag k="ssr:stedsnr" v="487906" />
	</node>
	<node id="-36402" lat="59.171155553" lon="5.45273056131">
		<tag k="alt_name" v="Arsvågen, austre" />
		<tag k="name" v="Austre Arsvågen" />
		<tag k="natural" v="bay" />
		<tag k="ssr:stedsnr" v="487420" />
	</node>
	<node id="-36401" lat="59.163136114" lon="5.44575554777">
		<tag k="name" v="Arsneset" />
		<tag k="natural" v="cape" />
		<tag k="ssr:stedsnr" v="487409" />
	</node>
	<node id="-36400" lat="59.1598722229" lon="5.43593332582">
		<tag k="name" v="Teistholmen" />
>>>>>>> e1d4bc35ff8a6074a6f2e91616a996b547c36f15
		<tag k="place" v="islet" />
		<tag k="ssr:stedsnr" v="418364" />
	</node>
<<<<<<< HEAD
	<node lat="59.17138333430662" lon="5.418774997188085" id="-3046">
		<tag k="name" v="Kjøyvågen" />
		<tag k="natural" v="bay" />
		<tag k="ssr:stedsnr" v="418379" />
	</node>
	<node lat="59.183000002661146" lon="5.464497215214935" id="-3047">
		<tag k="name" v="Kjøynå" />
		<tag k="place" v="islet" />
		<tag k="ssr:stedsnr" v="418067" />
	</node>
	<node lat="59.19852777699321" lon="5.3824444378047405" id="-3048">
		<tag k="name" v="Kilshaugen" />
=======
	<node id="-36399" lat="59.2036111095" lon="5.40396111112">
		<tag k="name" v="Stemmevatnet" />
		<tag k="natural" v="water" />
		<tag k="ssr:stedsnr" v="486064" />
		<tag k="water" v="lake" />
	</node>
	<node id="-36398" lat="59.1731027767" lon="5.38483611576">
		<tag k="name" v="Lodalandet" />
		<tag k="natural" v="cape" />
		<tag k="ssr:stedsnr" v="478371" />
	</node>
	<node id="-36397" lat="59.1701666697" lon="5.45537221639">
		<tag k="name" v="Laksaberget" />
>>>>>>> e1d4bc35ff8a6074a6f2e91616a996b547c36f15
		<tag k="natural" v="hill" />
		<tag k="place" v="locality" />
		<tag k="ssr:stedsnr" v="418460" />
	</node>
<<<<<<< HEAD
	<node lat="59.19726944271794" lon="5.3885861158549995" id="-3049">
		<tag k="name" v="Baståsen" />
		<tag k="natural" v="hill" />
		<tag k="place" v="locality" />
		<tag k="ssr:stedsnr" v="418463" />
	</node>
	<node lat="59.21398332907796" lon="5.376722228500089" id="-3050">
		<tag k="name" v="Vintrastø" />
		<tag k="natural" v="bay" />
		<tag k="ssr:stedsnr" v="424921" />
	</node>
	<node lat="59.233013889866555" lon="5.397136117234377" id="-3051">
		<tag k="fixme" v="consider natural=peak for the most distinct mountains in the district" />
		<tag k="name" v="Buarfjellet" />
		<tag k="natural" v="hill" />
		<tag k="place" v="locality" />
		<tag k="ssr:stedsnr" v="424883" />
	</node>
	<node lat="59.22147500140201" lon="5.391374992899279" id="-3052">
		<tag k="name" v="Nordra Kobbervatnet" />
=======
	<node id="-36396" lat="59.245875004" lon="5.47487499659">
		<tag k="alt_name" v="Grønevik" />
		<tag k="name" v="Grønevika" />
		<tag k="natural" v="bay" />
		<tag k="ssr:stedsnr" v="669466" />
	</node>
	<node id="-36395" lat="59.1671305518" lon="5.44039443789">
		<tag k="alt_name" v="Arsvågen, vestre" />
		<tag k="name" v="Vestre Arsvågen" />
		<tag k="natural" v="bay" />
		<tag k="ssr:stedsnr" v="669387" />
	</node>
	<node id="-36394" lat="59.2519388902" lon="5.47208333868">
		<tag k="alt_name" v="Ognaskjer" />
		<tag k="fixme" v="consider seamark:type=rock or natural=shoal" />
		<tag k="name" v="Ognaskjeret" />
		<tag k="place" v="islet" />
		<tag k="ssr:stedsnr" v="669241" />
	</node>
	<node id="-36393" lat="59.2187222245" lon="5.45832222574">
		<tag k="name" v="Alvestadkroken" />
		<tag k="natural" v="cape" />
		<tag k="ssr:stedsnr" v="669084" />
	</node>
	<node id="-36392" lat="59.2115027756" lon="5.38906944705">
		<tag k="name" v="Vintrastø" />
		<tag k="place" v="farm" />
		<tag k="ssr:stedsnr" v="669078" />
	</node>
	<node id="-36391" lat="59.1953165347" lon="5.4017252438">
		<tag k="alt_name" v="Gregulsvatnet" />
		<tag k="name" v="Gregersvatnet" />
>>>>>>> e1d4bc35ff8a6074a6f2e91616a996b547c36f15
		<tag k="natural" v="water" />
		<tag k="ssr:stedsnr" v="424969" />
		<tag k="water" v="lake" />
	</node>
<<<<<<< HEAD
	<node lat="59.22619166832447" lon="5.412727784668079" id="-3053">
		<tag k="name" v="Djubadalen" />
		<tag k="natural" v="valley" />
		<tag k="place" v="locality" />
		<tag k="ssr:stedsnr" v="424972" />
	</node>
	<node lat="59.21462500321446" lon="5.401477770851537" id="-3054">
		<tag k="name" v="Holmen" />
		<tag k="natural" v="cape" />
		<tag k="ssr:stedsnr" v="424977" />
	</node>
	<node lat="59.21478333378513" lon="5.4896611054565065" id="-3055">
		<tag k="name" v="Donevika" />
=======
	<node id="-36390" lat="59.1894444404" lon="5.37447499881">
		<tag k="name" v="Stolviga" />
>>>>>>> e1d4bc35ff8a6074a6f2e91616a996b547c36f15
		<tag k="natural" v="bay" />
		<tag k="ssr:stedsnr" v="424988" />
	</node>
<<<<<<< HEAD
	<node lat="59.23169722425329" lon="5.393075003858134" id="-3056">
		<tag k="alt_name" v="Borgenvik" />
		<tag k="name" v="Bornevik" />
		<tag k="place" v="locality" />
		<tag k="ssr:stedsnr" v="426001" />
	</node>
	<node lat="59.25370277543548" lon="5.462894442540205" id="-3057">
		<tag k="name" v="Ognasundet" />
		<tag k="natural" v="strait" />
		<tag k="ssr:stedsnr" v="427850" />
	</node>
	<node lat="59.261047218015186" lon="5.418188880777327" id="-3058">
		<tag k="alt_name" v="Skolbuholmen" />
		<tag k="name" v="Skolbuholmane" />
=======
	<node id="-36389" lat="59.1585277749" lon="5.41969999434">
		<tag k="name" v="Sauøya" />
		<tag k="place" v="islet" />
		<tag k="ssr:stedsnr" v="668358" />
	</node>
	<node id="-36388" lat="59.2345249996" lon="5.44191111891">
		<tag k="fixme" v="consider seamark:type=rock or natural=shoal" />
		<tag k="name" v="Tå" />
>>>>>>> e1d4bc35ff8a6074a6f2e91616a996b547c36f15
		<tag k="place" v="islet" />
		<tag k="ssr:stedsnr" v="427851" />
	</node>
<<<<<<< HEAD
	<node lat="59.25509166423426" lon="5.409680560636139" id="-3059">
		<tag k="alt_name" v="Vindholmen;Vindholmane" />
		<tag k="name" v="Store Vindholmen" />
=======
	<node id="-36387" lat="59.2466055543" lon="5.41737222981">
		<tag k="name" v="Litle Brattholmen" />
>>>>>>> e1d4bc35ff8a6074a6f2e91616a996b547c36f15
		<tag k="place" v="islet" />
		<tag k="ssr:stedsnr" v="427855" />
	</node>
<<<<<<< HEAD
	<node lat="59.16284166575634" lon="5.396263890610981" id="-3060">
		<tag k="name" v="Kjøresundsodden" />
=======
	<node id="-36386" lat="59.2312777772" lon="5.38288332932">
		<tag k="name" v="Kvidaneset" />
>>>>>>> e1d4bc35ff8a6074a6f2e91616a996b547c36f15
		<tag k="natural" v="cape" />
		<tag k="ssr:stedsnr" v="509643" />
	</node>
<<<<<<< HEAD
	<node lat="59.24924444365909" lon="5.4750750046505665" id="-3061">
		<tag k="name" v="Regaviggrunnen" />
		<tag k="natural" v="shoal" />
		<tag k="place" v="locality" />
		<tag k="ssr:stedsnr" v="509852" />
	</node>
	<node lat="59.2504222194587" lon="5.472213893520972" id="-3063">
=======
	<node id="-36385" lat="59.2394416634" lon="5.38326388893">
		<tag k="name" v="Søra Lammanesvika" />
		<tag k="natural" v="bay" />
		<tag k="ssr:stedsnr" v="667871" />
	</node>
	<node id="-36384" lat="59.1794611108" lon="5.46424999596">
>>>>>>> e1d4bc35ff8a6074a6f2e91616a996b547c36f15
		<tag k="fixme" v="consider seamark:type=rock or natural=shoal" />
		<tag k="name" v="Svartaskjer" />
		<tag k="place" v="islet" />
		<tag k="ssr:stedsnr" v="512681" />
	</node>
<<<<<<< HEAD
	<node lat="59.18111666703386" lon="5.3927277700905805" id="-3064">
		<tag k="name" v="Jøsenfjellet" />
=======
	<node id="-36383" lat="59.2189638905" lon="5.41990555623">
		<tag k="fixme" v="consider natural=peak for the most distinct mountains in the district" />
		<tag k="name" v="Nip" />
>>>>>>> e1d4bc35ff8a6074a6f2e91616a996b547c36f15
		<tag k="natural" v="hill" />
		<tag k="place" v="locality" />
		<tag k="ssr:stedsnr" v="539318" />
	</node>
<<<<<<< HEAD
	<node lat="59.1829138856546" lon="5.39535833646436" id="-3065">
		<tag k="name" v="Mellevatnet" />
		<tag k="natural" v="water" />
		<tag k="ssr:stedsnr" v="539324" />
		<tag k="water" v="lake" />
	</node>
	<node lat="59.16726944081484" lon="5.408141666991364" id="-3066">
		<tag k="name" v="Brattholmen" />
		<tag k="place" v="islet" />
		<tag k="ssr:stedsnr" v="539328" />
	</node>
	<node lat="59.17117222412927" lon="5.411111117089105" id="-3067">
		<tag k="name" v="Eiderholmen" />
		<tag k="place" v="islet" />
		<tag k="ssr:stedsnr" v="539330" />
	</node>
	<node lat="59.16663889083191" lon="5.400013883415854" id="-3068">
		<tag k="name" v="Lyngnes" />
		<tag k="natural" v="cape" />
		<tag k="ssr:stedsnr" v="539333" />
	</node>
	<node lat="59.163002777165545" lon="5.428491662830461" id="-3069">
		<tag k="name" v="Stongholmsskjeret" />
=======
	<node id="-36382" lat="59.2456083294" lon="5.46953888579">
		<tag k="name" v="Krostimyr" />
		<tag k="natural" v="wetland" />
		<tag k="ssr:stedsnr" v="666971" />
	</node>
	<node id="-36381" lat="59.1926000011" lon="5.3767805569">
		<tag k="name" v="Litla Drauavika" />
		<tag k="natural" v="bay" />
		<tag k="ssr:stedsnr" v="666930" />
	</node>
	<node id="-36380" lat="59.1615250025" lon="5.43029166469">
		<tag k="name" v="Stongholmsvika" />
		<tag k="natural" v="bay" />
		<tag k="ssr:stedsnr" v="660804" />
	</node>
	<node id="-36379" lat="59.2148916655" lon="5.47511667201">
		<tag k="alt_name" v="Strandvig;Strandvik" />
		<tag k="name" v="Strandavika" />
		<tag k="natural" v="bay" />
		<tag k="ssr:stedsnr" v="449905" />
	</node>
	<node id="-36378" lat="59.1702472178" lon="5.42059166368">
		<tag k="name" v="Skyttarholmen" />
>>>>>>> e1d4bc35ff8a6074a6f2e91616a996b547c36f15
		<tag k="place" v="islet" />
		<tag k="ssr:stedsnr" v="539343" />
	</node>
<<<<<<< HEAD
	<node lat="59.168597221475125" lon="5.450877777107103" id="-3070">
		<tag k="name" v="Valberg" />
		<tag k="natural" v="hill" />
		<tag k="place" v="locality" />
		<tag k="ssr:stedsnr" v="539051" />
	</node>
	<node lat="59.17908611470844" lon="5.384377780705696" id="-3071">
		<tag k="name" v="Sævartjørna" />
=======
	<node id="-36377" lat="59.1820611157" lon="5.41513333657">
		<tag k="name" v="Bakkjen" />
		<tag k="place" v="farm" />
		<tag k="ssr:stedsnr" v="660395" />
	</node>
	<node id="-36376" lat="59.1874916648" lon="5.42306111405">
		<tag k="name" v="Tveidane" />
		<tag k="place" v="farm" />
		<tag k="ssr:stedsnr" v="660498" />
	</node>
	<node id="-36375" lat="59.1954388866" lon="5.43356666456">
		<tag k="name" v="Vatlandsvatnet" />
>>>>>>> e1d4bc35ff8a6074a6f2e91616a996b547c36f15
		<tag k="natural" v="water" />
		<tag k="ssr:stedsnr" v="539313" />
	</node>
<<<<<<< HEAD
	<node lat="59.1658944414396" lon="5.414675000285583" id="-3072">
		<tag k="name" v="Vestre Brog" />
		<tag k="place" v="islet" />
		<tag k="ssr:stedsnr" v="539354" />
	</node>
	<node lat="59.19273333513693" lon="5.382216673049205" id="-3073">
		<tag k="name" v="Studahola" />
=======
	<node id="-36374" lat="59.192083337" lon="5.43275833715">
		<tag k="name" v="Pålavika" />
>>>>>>> e1d4bc35ff8a6074a6f2e91616a996b547c36f15
		<tag k="natural" v="bay" />
		<tag k="ssr:stedsnr" v="539430" />
	</node>
<<<<<<< HEAD
	<node lat="59.19189722124539" lon="5.383530559645417" id="-3074">
		<tag k="name" v="Sjebavika" />
=======
	<node id="-36373" lat="59.185455557" lon="5.40136110249">
		<tag k="name" v="Kvednavika" />
>>>>>>> e1d4bc35ff8a6074a6f2e91616a996b547c36f15
		<tag k="natural" v="bay" />
		<tag k="ssr:stedsnr" v="539431" />
	</node>
<<<<<<< HEAD
	<node lat="59.20057778060576" lon="5.440633339536391" id="-3075">
		<tag k="fixme" v="consider natural=peak for the most distinct mountains in the district" />
		<tag k="name" v="Steinfjellet" />
		<tag k="natural" v="hill" />
		<tag k="place" v="locality" />
		<tag k="ssr:stedsnr" v="539451" />
	</node>
	<node lat="59.19220278117774" lon="5.424074993347595" id="-3076">
		<tag k="name" v="Bragabakkane" />
		<tag k="natural" v="slope" />
		<tag k="place" v="locality" />
		<tag k="ssr:stedsnr" v="539453" />
	</node>
	<node lat="59.233347224124" lon="5.4323583285103165" id="-3077">
		<tag k="name" v="Sæbøstølane" />
=======
	<node id="-36372" lat="59.2118666628" lon="5.41317222164">
		<tag k="alt_name" v="Ulvåvatnet" />
		<tag k="name" v="Ulvåna" />
		<tag k="natural" v="water" />
		<tag k="ssr:stedsnr" v="427105" />
		<tag k="water" v="lake" />
	</node>
	<node id="-36371" lat="59.2324750001" lon="5.55299444099">
		<tag k="name" v="Sørevika" />
		<tag k="natural" v="bay" />
		<tag k="ssr:stedsnr" v="426427" />
	</node>
	<node id="-36370" lat="59.2352250039" lon="5.47591944556">
		<tag k="alt_name" v="Hetlebrekk" />
		<tag k="name" v="Hellebrekka" />
>>>>>>> e1d4bc35ff8a6074a6f2e91616a996b547c36f15
		<tag k="natural" v="slope" />
		<tag k="place" v="locality" />
		<tag k="ssr:stedsnr" v="545891" />
	</node>
<<<<<<< HEAD
	<node lat="59.24281666826434" lon="5.453580550562682" id="-3078">
		<tag k="name" v="Lammanes" />
		<tag k="natural" v="cape" />
		<tag k="ssr:stedsnr" v="545893" />
	</node>
	<node lat="59.22591666745171" lon="5.3766138947850495" id="-3079">
		<tag k="name" v="Rabnajoda" />
=======
	<node id="-36369" lat="59.2139833291" lon="5.3767222285">
		<tag k="name" v="Vintrastø" />
>>>>>>> e1d4bc35ff8a6074a6f2e91616a996b547c36f15
		<tag k="natural" v="bay" />
		<tag k="ssr:stedsnr" v="545870" />
	</node>
<<<<<<< HEAD
	<node lat="59.22172499654516" lon="5.414372215907145" id="-3080">
		<tag k="name" v="Svenshidleren" />
		<tag k="natural" v="valley" />
		<tag k="place" v="locality" />
		<tag k="ssr:stedsnr" v="545969" />
	</node>
	<node lat="59.24527777518627" lon="5.420433328180032" id="-3081">
		<tag k="name" v="Brattholmen" />
=======
	<node id="-36368" lat="59.1606861117" lon="5.43701389137">
		<tag k="name" v="Teistholmen" />
>>>>>>> e1d4bc35ff8a6074a6f2e91616a996b547c36f15
		<tag k="place" v="islet" />
		<tag k="ssr:stedsnr" v="547057" />
	</node>
<<<<<<< HEAD
	<node lat="59.18024751407638" lon="5.391301708531454" id="-3082">
		<tag k="fixme" v="consider place=hamlet" />
		<tag k="name" v="Jøsen" />
		<tag k="place" v="farm" />
		<tag k="ssr:stedsnr" v="547435" />
	</node>
	<node lat="59.21011635669639" lon="5.448436928593269" id="-3083">
		<tag k="fixme" v="consider place=hamlet" />
		<tag k="name" v="Håland" />
		<tag k="place" v="farm" />
		<tag k="ssr:stedsnr" v="548089" />
	</node>
	<node lat="59.20632500372034" lon="5.506733341391788" id="-3084">
		<tag k="name" v="Hillervika" />
		<tag k="natural" v="bay" />
		<tag k="ssr:stedsnr" v="548295" />
	</node>
	<node lat="59.26769738396273" lon="5.478115753952641" id="-3085">
		<tag k="name" v="Steinsvikvågen" />
		<tag k="natural" v="bay" />
		<tag k="ssr:stedsnr" v="569858" />
	</node>
	<node lat="59.23916666859029" lon="5.4816666594358825" id="-3086">
		<tag k="alt_name" v="Straen" />
		<tag k="name" v="Viervikstraen" />
		<tag k="natural" v="slope" />
=======
	<node id="-36367" lat="59.1628416658" lon="5.39626389061">
		<tag k="name" v="Kjøresundsodden" />
		<tag k="natural" v="cape" />
		<tag k="ssr:stedsnr" v="509643" />
	</node>
	<node id="-36366" lat="59.2543111132" lon="5.46042499779">
		<tag k="fixme" v="consider seamark:type=rock or natural=shoal" />
		<tag k="name" v="Vardnesskjeret" />
		<tag k="place" v="islet" />
		<tag k="ssr:stedsnr" v="509603" />
	</node>
	<node id="-36365" lat="59.2494111142" lon="5.47151389647">
		<tag k="alt_name" v="Håtang" />
		<tag k="name" v="Håtong" />
		<tag k="natural" v="cape" />
		<tag k="ssr:stedsnr" v="391670" />
	</node>
	<node id="-36364" lat="59.2583000026" lon="5.4650027701">
		<tag k="fixme" v="consider natural=peak for the most distinct mountains in the district" />
		<tag k="name" v="Liafjellet" />
		<tag k="natural" v="hill" />
>>>>>>> e1d4bc35ff8a6074a6f2e91616a996b547c36f15
		<tag k="place" v="locality" />
		<tag k="ssr:stedsnr" v="570593" />
	</node>
<<<<<<< HEAD
	<node lat="59.239998710816415" lon="5.453540351158769" id="-3087">
		<tag k="name" v="Øvrabøvågen" />
=======
	<node id="-36363" lat="59.177411111" lon="5.38684999838">
		<tag k="name" v="Jøsenvågen" />
>>>>>>> e1d4bc35ff8a6074a6f2e91616a996b547c36f15
		<tag k="natural" v="bay" />
		<tag k="ssr:stedsnr" v="570594" />
	</node>
<<<<<<< HEAD
	<node lat="59.15793888677396" lon="5.441797230181907" id="-3088">
=======
	<node id="-36361" lat="59.2046361152" lon="5.51056944104">
		<tag k="alt_name" v="Koppskjera;Kobbeskjera;Kobbskjer" />
>>>>>>> e1d4bc35ff8a6074a6f2e91616a996b547c36f15
		<tag k="fixme" v="consider seamark:type=rock or natural=shoal" />
		<tag k="name" v="Meleskjeret" />
		<tag k="place" v="islet" />
		<tag k="ssr:stedsnr" v="586664" />
	</node>
<<<<<<< HEAD
	<node lat="59.1825027751861" lon="5.447227781410288" id="-3089">
		<tag k="name" v="Dybing" />
		<tag k="place" v="farm" />
		<tag k="ssr:stedsnr" v="600067" />
	</node>
	<node lat="59.17634166282213" lon="5.456027770764429" id="-3090">
		<tag k="name" v="Stølsvika" />
		<tag k="natural" v="bay" />
		<tag k="ssr:stedsnr" v="600077" />
	</node>
	<node lat="59.192700000449854" lon="5.421202781620981" id="-3091">
		<tag k="name" v="Mellevatnet" />
		<tag k="place" v="locality" />
		<tag k="ssr:stedsnr" v="599472" />
	</node>
	<node lat="59.19819689025223" lon="5.410844034363246" id="-3092">
		<tag k="fixme" v="consider place=hamlet" />
		<tag k="name" v="Søre Grønestad" />
		<tag k="place" v="farm" />
		<tag k="ssr:stedsnr" v="599481" />
	</node>
	<node lat="59.1899222253485" lon="5.40954444878587" id="-3093">
		<tag k="name" v="Træsdalen" />
		<tag k="place" v="locality" />
		<tag k="ssr:stedsnr" v="599482" />
	</node>
	<node lat="59.161116663532006" lon="5.421686110604816" id="-3094">
		<tag k="name" v="Osen" />
=======
	<node id="-36360" lat="59.1605055575" lon="5.38790000193">
		<tag k="name" v="Stintenessundet" />
>>>>>>> e1d4bc35ff8a6074a6f2e91616a996b547c36f15
		<tag k="natural" v="strait" />
		<tag k="ssr:stedsnr" v="599826" />
	</node>
<<<<<<< HEAD
	<node lat="59.16231944092757" lon="5.404038887652304" id="-3095">
		<tag k="name" v="Søra Drevsund" />
		<tag k="natural" v="strait" />
		<tag k="ssr:stedsnr" v="599828" />
	</node>
	<node lat="59.22034999708076" lon="5.474797217898617" id="-3096">
		<tag k="landuse" v="meadow" />
		<tag k="name" v="Øygardsbrota" />
		<tag k="ssr:stedsnr" v="605983" />
	</node>
	<node lat="59.22175000396524" lon="5.481019445437361" id="-3097">
		<tag k="name" v="Kastdal" />
		<tag k="natural" v="valley" />
		<tag k="place" v="locality" />
		<tag k="ssr:stedsnr" v="605986" />
	</node>
	<node lat="59.20880000382336" lon="5.429183331028014" id="-3098">
		<tag k="name" v="Torlandsvatnet" />
		<tag k="natural" v="water" />
		<tag k="ssr:stedsnr" v="607080" />
		<tag k="water" v="lake" />
	</node>
	<node lat="59.20336944219069" lon="5.451394441079252" id="-3099">
		<tag k="alt_name" v="Kodlefjellet" />
=======
	<node id="-36359" lat="59.2048138918" lon="5.50730000351">
		<tag k="alt_name" v="Vågholmen, søre" />
		<tag k="name" v="Søre Vågholmen" />
		<tag k="place" v="islet" />
		<tag k="ssr:stedsnr" v="487292" />
	</node>
	<node id="-36358" lat="59.229955558" lon="5.50145832559">
		<tag k="name" v="Våganeset" />
		<tag k="natural" v="cape" />
		<tag k="ssr:stedsnr" v="487474" />
	</node>
	<node id="-36357" lat="59.2282333318" lon="5.47302778148">
		<tag k="alt_name" v="Varafjellet" />
>>>>>>> e1d4bc35ff8a6074a6f2e91616a996b547c36f15
		<tag k="fixme" v="consider natural=peak for the most distinct mountains in the district" />
		<tag k="name" v="Hatlefjellet" />
		<tag k="natural" v="hill" />
		<tag k="place" v="locality" />
		<tag k="ssr:stedsnr" v="607081" />
	</node>
<<<<<<< HEAD
	<node lat="59.239141664776234" lon="5.40552500270471" id="-3100">
		<tag k="name" v="Halvarsbekken" />
		<tag k="ssr:stedsnr" v="606882" />
		<tag k="waterway" v="stream" />
	</node>
	<node lat="59.240191667473354" lon="5.451249992218169" id="-3101">
		<tag k="name" v="Øvrabøneset" />
		<tag k="natural" v="cape" />
		<tag k="ssr:stedsnr" v="607031" />
	</node>
	<node lat="59.186644441526276" lon="5.376630563454689" id="-3102">
		<tag k="name" v="Røyrviga" />
=======
	<node id="-36356" lat="59.1640416692" lon="5.38870278092">
		<tag k="name" v="Søra Auseviga" />
		<tag k="natural" v="bay" />
		<tag k="ssr:stedsnr" v="487454" />
	</node>
	<node id="-36355" lat="59.2488604782" lon="5.47308705451">
		<tag k="name" v="Regaviga" />
>>>>>>> e1d4bc35ff8a6074a6f2e91616a996b547c36f15
		<tag k="natural" v="bay" />
		<tag k="ssr:stedsnr" v="608071" />
	</node>
<<<<<<< HEAD
	<node lat="59.218405555392536" lon="5.512161109692029" id="-3103">
		<tag k="alt_name" v="Svartaskjeret" />
		<tag k="fixme" v="consider seamark:type=rock or natural=shoal" />
		<tag k="name" v="Svartaskjer" />
		<tag k="place" v="islet" />
		<tag k="ssr:stedsnr" v="608279" />
	</node>
	<node lat="59.18538889179264" lon="5.472841665263623" id="-3104">
		<tag k="name" v="Lamholmen" />
		<tag k="place" v="islet" />
		<tag k="ssr:stedsnr" v="608303" />
	</node>
	<node lat="59.159600001851416" lon="5.440722220940691" id="-3105">
		<tag k="alt_name" v="Avløybet" />
		<tag k="name" v="Avløypsnibba" />
		<tag k="place" v="islet" />
		<tag k="ssr:stedsnr" v="608387" />
	</node>
	<node lat="59.20985000081161" lon="5.484619443245532" id="-3106">
		<tag k="name" v="Grønehilleren" />
=======
	<node id="-36354" lat="59.24003333" lon="5.398394438">
		<tag k="fixme" v="consider natural=peak for the most distinct mountains in the district" />
		<tag k="name" v="Halvarsfjellet" />
		<tag k="natural" v="hill" />
		<tag k="place" v="locality" />
		<tag k="ssr:stedsnr" v="485884" />
	</node>
	<node id="-36353" lat="59.2429194472" lon="5.41634721489">
		<tag k="alt_name" v="Vågmulen" />
		<tag k="name" v="Vågsmulen" />
>>>>>>> e1d4bc35ff8a6074a6f2e91616a996b547c36f15
		<tag k="natural" v="cape" />
		<tag k="ssr:stedsnr" v="608479" />
	</node>
<<<<<<< HEAD
	<node lat="59.21594999829674" lon="5.4734555601326695" id="-3107">
		<tag k="name" v="Strandavika" />
		<tag k="place" v="farm" />
		<tag k="ssr:stedsnr" v="608481" />
	</node>
	<node lat="59.22239722375049" lon="5.474458328217675" id="-3108">
		<tag k="name" v="Aksdalsstemmen" />
		<tag k="natural" v="water" />
		<tag k="ssr:stedsnr" v="608486" />
		<tag k="water" v="pond" />
	</node>
	<node lat="59.262147220314205" lon="5.453094453024489" id="-3109">
		<tag k="alt_name" v="Kjøynå" />
		<tag k="name" v="Kjeøya" />
		<tag k="place" v="islet" />
		<tag k="ssr:stedsnr" v="609863" />
	</node>
	<node lat="59.16689444050727" lon="5.429099998985605" id="-3110">
		<tag k="name" v="Galten" />
=======
	<node id="-36352" lat="59.2225944422" lon="5.49466111031">
		<tag k="name" v="Litlafjellet" />
		<tag k="natural" v="hill" />
>>>>>>> e1d4bc35ff8a6074a6f2e91616a996b547c36f15
		<tag k="place" v="locality" />
		<tag k="seamark:type" v="rock" />
		<tag k="ssr:stedsnr" v="630628" />
	</node>
<<<<<<< HEAD
	<node lat="59.154683336337925" lon="5.385747229476195" id="-3111">
		<tag k="name" v="Kleppflua" />
		<tag k="place" v="locality" />
		<tag k="seamark:type" v="rock" />
		<tag k="ssr:stedsnr" v="630629" />
	</node>
	<node lat="59.21830833122273" lon="5.505427782691464" id="-3112">
		<tag k="name" v="Nordra Vågholmsundet" />
		<tag k="natural" v="strait" />
		<tag k="ssr:stedsnr" v="630924" />
	</node>
	<node lat="59.26858610655179" lon="5.4753055498916545" id="-3113">
		<tag k="name" v="Steinsvikneset" />
=======
	<node id="-36351" lat="59.2228638916" lon="5.46221111772">
		<tag k="name" v="Øyren" />
>>>>>>> e1d4bc35ff8a6074a6f2e91616a996b547c36f15
		<tag k="natural" v="cape" />
		<tag k="ssr:stedsnr" v="630856" />
	</node>
<<<<<<< HEAD
	<node lat="59.233205553978564" lon="5.490555558345729" id="-3114">
		<tag k="alt_name" v="Straen" />
		<tag k="name" v="Vågastraen" />
		<tag k="natural" v="slope" />
=======
	<node id="-36350" lat="59.2181305551" lon="5.48088333621">
		<tag k="name" v="Krågeskarhaugane" />
		<tag k="natural" v="hill" />
>>>>>>> e1d4bc35ff8a6074a6f2e91616a996b547c36f15
		<tag k="place" v="locality" />
		<tag k="ssr:stedsnr" v="632845" />
	</node>
<<<<<<< HEAD
	<node lat="59.25574126700353" lon="5.4711430913023875" id="-3115">
		<tag k="fixme" v="consider place=hamlet" />
		<tag k="name" v="Ogn" />
		<tag k="place" v="farm" />
		<tag k="ssr:stedsnr" v="633671" />
	</node>
	<node lat="59.17771389186818" lon="5.443347229561029" id="-3116">
		<tag k="name" v="Tollakstjørna" />
		<tag k="natural" v="water" />
		<tag k="ssr:stedsnr" v="660066" />
	</node>
	<node lat="59.192600001100125" lon="5.376780556895266" id="-3117">
		<tag k="name" v="Litla Drauavika" />
		<tag k="natural" v="bay" />
		<tag k="ssr:stedsnr" v="666930" />
	</node>
	<node lat="59.24560832941553" lon="5.469538885793344" id="-3118">
		<tag k="name" v="Krostimyr" />
		<tag k="natural" v="wetland" />
		<tag k="ssr:stedsnr" v="666971" />
	</node>
	<node lat="59.21896389049191" lon="5.419905556225228" id="-3119">
		<tag k="fixme" v="consider natural=peak for the most distinct mountains in the district" />
		<tag k="name" v="Nip" />
		<tag k="natural" v="hill" />
		<tag k="place" v="locality" />
		<tag k="ssr:stedsnr" v="666977" />
	</node>
	<node lat="59.1585277748557" lon="5.419699994339263" id="-3120">
		<tag k="name" v="Sauøya" />
=======
	<node id="-36349" lat="59.1913722253" lon="5.37463334103">
		<tag k="name" v="Fuglanes" />
		<tag k="natural" v="cape" />
		<tag k="ssr:stedsnr" v="484929" />
	</node>
	<node id="-36348" lat="59.1866749971" lon="5.37348611705">
		<tag k="name" v="Røyrvikodden" />
		<tag k="natural" v="cape" />
		<tag k="ssr:stedsnr" v="484926" />
	</node>
	<node id="-36347" lat="59.2136611098" lon="5.51172221872">
		<tag k="name" v="Søra Vågsholmsundet" />
		<tag k="natural" v="strait" />
		<tag k="ssr:stedsnr" v="329915" />
	</node>
	<node id="-36346" lat="59.1951444454" lon="5.4523444461">
		<tag k="name" v="Enebor" />
		<tag k="natural" v="hill" />
		<tag k="place" v="locality" />
		<tag k="ssr:stedsnr" v="478503" />
	</node>
	<node id="-36345" lat="59.1953333334" lon="5.42443055363">
		<tag k="name" v="Kleivå" />
		<tag k="place" v="farm" />
		<tag k="ssr:stedsnr" v="478492" />
	</node>
	<node id="-36344" lat="59.1675166704" lon="5.41580000759">
		<tag k="name" v="Midbrog" />
>>>>>>> e1d4bc35ff8a6074a6f2e91616a996b547c36f15
		<tag k="place" v="islet" />
		<tag k="ssr:stedsnr" v="668358" />
	</node>
<<<<<<< HEAD
	<node lat="59.23944166336731" lon="5.383263888932241" id="-3121">
		<tag k="name" v="Søra Lammanesvika" />
		<tag k="natural" v="bay" />
		<tag k="ssr:stedsnr" v="667871" />
	</node>
	<node lat="59.23127777720323" lon="5.382883329319295" id="-3122">
		<tag k="name" v="Kvidaneset" />
		<tag k="natural" v="cape" />
		<tag k="ssr:stedsnr" v="667879" />
	</node>
	<node lat="59.246605554347326" lon="5.417372229808303" id="-3123">
		<tag k="name" v="Litle Brattholmen" />
=======
	<node id="-36343" lat="59.1703777771" lon="5.43453333844">
		<tag k="name" v="Vierholmen" />
		<tag k="place" v="islet" />
		<tag k="ssr:stedsnr" v="478388" />
	</node>
	<node id="-36342" lat="59.1771138892" lon="5.41435833637">
		<tag k="name" v="Trollhavet" />
		<tag k="natural" v="strait" />
		<tag k="ssr:stedsnr" v="478386" />
	</node>
	<node id="-36341" lat="59.1694638852" lon="5.405249992">
		<tag k="name" v="Midtre Vierholmen" />
>>>>>>> e1d4bc35ff8a6074a6f2e91616a996b547c36f15
		<tag k="place" v="islet" />
		<tag k="ssr:stedsnr" v="667885" />
	</node>
<<<<<<< HEAD
	<node lat="59.18944444037665" lon="5.374474998805031" id="-3124">
		<tag k="name" v="Stolviga" />
		<tag k="natural" v="bay" />
		<tag k="ssr:stedsnr" v="669045" />
	</node>
	<node lat="59.19531653466088" lon="5.4017252437985395" id="-3125">
		<tag k="alt_name" v="Gregulsvatnet" />
		<tag k="name" v="Gregersvatnet" />
		<tag k="natural" v="water" />
		<tag k="ssr:stedsnr" v="669046" />
		<tag k="water" v="lake" />
	</node>
	<node lat="59.25193889019154" lon="5.4720833386784165" id="-3126">
		<tag k="alt_name" v="Ognaskjer" />
		<tag k="fixme" v="consider seamark:type=rock or natural=shoal" />
		<tag k="name" v="Ognaskjeret" />
		<tag k="place" v="islet" />
		<tag k="ssr:stedsnr" v="669241" />
	</node>
	<node lat="59.167130551758746" lon="5.440394437892131" id="-3127">
		<tag k="alt_name" v="Arsvågen, vestre" />
		<tag k="name" v="Vestre Arsvågen" />
=======
	<node id="-36340" lat="59.1702111078" lon="5.41446665849">
		<tag k="name" v="Litla Sauøyna" />
		<tag k="place" v="islet" />
		<tag k="ssr:stedsnr" v="478107" />
	</node>
	<node id="-36339" lat="59.2343617604" lon="5.46016083048">
		<tag k="alt_name" v="Nerabø" />
		<tag k="fixme" v="consider place=hamlet" />
		<tag k="name" v="Nedrabø" />
		<tag k="place" v="farm" />
		<tag k="ssr:stedsnr" v="304017" />
	</node>
	<node id="-36338" lat="59.2360999971" lon="5.46435556437">
		<tag k="alt_name" v="Bokn, austre" />
		<tag k="name" v="Austre Bokn" />
		<tag k="place" v="island" />
		<tag k="ssr:stedsnr" v="304015" />
	</node>
	<node id="-36337" lat="59.1984222232" lon="5.3857500044">
		<tag k="name" v="Breivik" />
>>>>>>> e1d4bc35ff8a6074a6f2e91616a996b547c36f15
		<tag k="natural" v="bay" />
		<tag k="ssr:stedsnr" v="669387" />
	</node>
<<<<<<< HEAD
	<node lat="59.24587500400591" lon="5.474874996589074" id="-3128">
		<tag k="alt_name" v="Grønevik" />
		<tag k="name" v="Grønevika" />
=======
	<node id="-36336" lat="59.1917583355" lon="5.39045000814">
		<tag k="name" v="Steinsvika" />
>>>>>>> e1d4bc35ff8a6074a6f2e91616a996b547c36f15
		<tag k="natural" v="bay" />
		<tag k="ssr:stedsnr" v="669466" />
	</node>
<<<<<<< HEAD
	<node lat="59.17857222336847" lon="5.404763888550454" id="-3129">
		<tag k="name" v="Jøsenlandet" />
		<tag k="natural" v="cape" />
		<tag k="ssr:stedsnr" v="721377" />
	</node>
	<node lat="59.18563055583486" lon="5.38477221771197" id="-3130">
		<tag k="name" v="Noravatnet" />
		<tag k="natural" v="water" />
		<tag k="ssr:stedsnr" v="721456" />
		<tag k="water" v="lake" />
	</node>
	<node lat="59.194547225435244" lon="5.394430554718674" id="-3131">
		<tag k="name" v="Skiftesvika" />
=======
	<node id="-36335" lat="59.1598722188" lon="5.43592499484">
		<tag k="name" v="Drevsundholmen" />
>>>>>>> e1d4bc35ff8a6074a6f2e91616a996b547c36f15
		<tag k="natural" v="bay" />
		<tag k="ssr:stedsnr" v="721462" />
	</node>
	<node lat="59.168527777653885" lon="5.404261104778281" id="-3132">
		<tag k="name" v="Store Vierholmen" />
		<tag k="place" v="islet" />
		<tag k="ssr:stedsnr" v="721367" />
	</node>
	<node lat="59.23789721774395" lon="5.453091664318273" id="-3133">
		<tag k="fixme" v="verify maritime location" />
		<tag k="mooring" v="yes" />
		<tag k="name" v="Gongstø" />
		<tag k="place" v="locality" />
		<tag k="ssr:stedsnr" v="727895" />
	</node>
	<node lat="59.199250001083136" lon="5.422766657926955" id="-3134">
		<tag k="fixme" v="consider natural=peak for the most distinct mountains in the district" />
		<tag k="name" v="Rindafjellet" />
		<tag k="natural" v="hill" />
		<tag k="place" v="locality" />
		<tag k="ssr:stedsnr" v="729068" />
	</node>
<<<<<<< HEAD
	<node lat="59.17646388515322" lon="5.377111106263348" id="-3135">
		<tag k="name" v="Båsen" />
		<tag k="natural" v="cape" />
		<tag k="ssr:stedsnr" v="730429" />
	</node>
	<node lat="59.17133966402687" lon="5.391826431421569" id="-3136">
		<tag k="fixme" v="consider place=hamlet" />
=======
	<node id="-36334" lat="59.1780611126" lon="5.3817027744">
>>>>>>> e1d4bc35ff8a6074a6f2e91616a996b547c36f15
		<tag k="name" v="Loten" />
		<tag k="place" v="farm" />
		<tag k="ssr:stedsnr" v="730437" />
	</node>
<<<<<<< HEAD
	<node lat="59.21212777553444" lon="5.4950611190373815" id="-3137">
		<tag k="alt_name" v="Langetangen;Longatonga" />
		<tag k="name" v="Langetunga" />
		<tag k="natural" v="cape" />
		<tag k="ssr:stedsnr" v="730284" />
	</node>
	<node lat="59.16037500125799" lon="5.446636116207005" id="-3139">
		<tag k="name" v="Munkehausneset" />
		<tag k="natural" v="cape" />
		<tag k="ssr:stedsnr" v="769665" />
	</node>
	<node lat="59.190363888607685" lon="5.391366670654823" id="-3140">
		<tag k="name" v="Eithidlersundet" />
		<tag k="natural" v="strait" />
		<tag k="ssr:stedsnr" v="782435" />
	</node>
	<node lat="59.21895000183794" lon="5.392080548192024" id="-3141">
		<tag k="name" v="Søra Kobbervatnet" />
		<tag k="natural" v="water" />
		<tag k="ssr:stedsnr" v="787971" />
		<tag k="water" v="lake" />
	</node>
	<node lat="59.21264166994443" lon="5.439411105633552" id="-3142">
		<tag k="fixme" v="consider natural=peak for the most distinct mountains in the district" />
		<tag k="name" v="Hest" />
		<tag k="natural" v="hill" />
		<tag k="place" v="locality" />
		<tag k="ssr:stedsnr" v="787978" />
	</node>
	<node lat="59.2359694422725" lon="5.397386103815204" id="-3143">
		<tag k="name" v="Lindemyra" />
		<tag k="natural" v="wetland" />
		<tag k="ssr:stedsnr" v="788877" />
	</node>
	<node lat="59.23641666326437" lon="5.394725003442877" id="-3144">
		<tag k="fixme" v="consider natural=peak for the most distinct mountains in the district" />
		<tag k="name" v="Linderabben" />
		<tag k="natural" v="hill" />
		<tag k="place" v="locality" />
		<tag k="ssr:stedsnr" v="788878" />
	</node>
	<node lat="59.23209166217029" lon="5.387272216500342" id="-3145">
		<tag k="name" v="Krekjeberholmen" />
		<tag k="place" v="islet" />
		<tag k="ssr:stedsnr" v="788880" />
	</node>
	<node lat="59.241216664865114" lon="5.4129388955704485" id="-3146">
		<tag k="name" v="Kongshabntjørna" />
		<tag k="natural" v="water" />
		<tag k="ssr:stedsnr" v="788887" />
	</node>
	<node lat="59.19943888859199" lon="5.3748111042754125" id="-3147">
		<tag k="name" v="Svartodden" />
=======
	<node id="-36332" lat="59.1807777758" lon="5.3786111169">
		<tag k="name" v="Dalhavnen" />
		<tag k="natural" v="bay" />
		<tag k="ssr:stedsnr" v="267658" />
	</node>
	<node id="-36331" lat="59.259427781" lon="5.45841945094">
		<tag k="name" v="Ognahamn" />
		<tag k="natural" v="bay" />
		<tag k="ssr:stedsnr" v="452657" />
	</node>
	<node id="-36330" lat="59.2632166682" lon="5.40716943735">
		<tag k="name" v="Breisund" />
		<tag k="natural" v="strait" />
		<tag k="ssr:stedsnr" v="451077" />
	</node>
	<node id="-36329" lat="59.246538892" lon="5.38925000435">
		<tag k="alt_name" v="Boknehove;Boknahove;Boknahovudet" />
		<tag k="name" v="Boknahovet" />
>>>>>>> e1d4bc35ff8a6074a6f2e91616a996b547c36f15
		<tag k="natural" v="cape" />
		<tag k="ssr:stedsnr" v="788937" />
	</node>
<<<<<<< HEAD
	<node lat="59.24350867351395" lon="5.463342377702478" id="-3148">
		<tag k="fixme" v="consider place=hamlet" />
		<tag k="name" v="Kro" />
=======
	<node id="-36328" lat="59.173780559" lon="5.3924361125">
		<tag k="name" v="Loten" />
>>>>>>> e1d4bc35ff8a6074a6f2e91616a996b547c36f15
		<tag k="place" v="farm" />
		<tag k="ssr:stedsnr" v="790023" />
	</node>
<<<<<<< HEAD
	<node lat="59.238558968109196" lon="5.460335097518754" id="-3149">
		<tag k="fixme" v="consider place=hamlet" />
		<tag k="name" v="Øvrabø" />
		<tag k="place" v="farm" />
		<tag k="ssr:stedsnr" v="790024" />
	</node>
	<node lat="59.24492221883666" lon="5.45239167540597" id="-3150">
		<tag k="name" v="Kroholmen" />
=======
	<node id="-36327" lat="59.18089722" lon="5.39362778027">
		<tag k="name" v="Loten" />
		<tag k="place" v="farm" />
		<tag k="ssr:stedsnr" v="449790" />
	</node>
	<node id="-36326" lat="59.2198999975" lon="5.49787500362">
		<tag k="fixme" v="multiple name tags, choose one and add the other to alt_name; consider natural=peak for the most distinct mountains in the district" />
		<tag k="name" v="Nipa;Storafjellet" />
		<tag k="natural" v="hill" />
		<tag k="place" v="locality" />
		<tag k="ssr:stedsnr" v="244467" />
	</node>
	<node id="-36325" lat="59.1752666655" lon="5.42107221908">
		<tag k="name" v="Røssholmen" />
>>>>>>> e1d4bc35ff8a6074a6f2e91616a996b547c36f15
		<tag k="place" v="islet" />
		<tag k="ssr:stedsnr" v="790042" />
	</node>
<<<<<<< HEAD
	<node lat="59.20126320542974" lon="5.40975609813296" id="-3151">
		<tag k="alt_name" v="Grønnestad" />
		<tag k="name" v="Grønestad" />
		<tag k="place" v="hamlet" />
		<tag k="ssr:stedsnr" v="790071" />
	</node>
	<node lat="59.19399722255506" lon="5.42203054996682" id="-3152">
		<tag k="name" v="Vestre Bokn" />
		<tag k="place" v="island" />
		<tag k="ssr:stedsnr" v="790073" />
	</node>
	<node lat="59.18820807801249" lon="5.444757987871548" id="-3153">
		<tag k="alt_name" v="Hodl" />
		<tag k="fixme" v="consider place=hamlet" />
		<tag k="name" v="Trælhaug" />
		<tag k="place" v="farm" />
		<tag k="ssr:stedsnr" v="790418" />
	</node>
	<node lat="59.219950980635666" lon="5.471538570615428" id="-3155">
		<tag k="fixme" v="consider place=hamlet" />
		<tag k="name" v="Aksdal" />
		<tag k="place" v="farm" />
		<tag k="ssr:stedsnr" v="790468" />
	</node>
	<node lat="59.22509444551606" lon="5.5419250085922265" id="-3156">
		<tag k="alt_name" v="Flaterova;Flada Roå" />
		<tag k="fixme" v="consider seamark:type=rock or natural=shoal" />
		<tag k="name" v="Flatarova" />
=======
	<node id="-36324" lat="59.2227722247" lon="5.45758055974">
		<tag k="name" v="Boknasundet" />
		<tag k="natural" v="strait" />
		<tag k="ssr:stedsnr" v="244016" />
	</node>
	<node id="-36323" lat="59.2137083372" lon="5.38167777509">
		<tag k="landuse" v="meadow" />
		<tag k="name" v="Træet" />
		<tag k="ssr:stedsnr" v="241972" />
	</node>
	<node id="-36322" lat="59.2549472231" lon="5.42633889549">
		<tag k="name" v="Svartøyna" />
>>>>>>> e1d4bc35ff8a6074a6f2e91616a996b547c36f15
		<tag k="place" v="islet" />
		<tag k="ssr:stedsnr" v="790478" />
	</node>
<<<<<<< HEAD
	<node lat="59.251161113203885" lon="5.395516670104425" id="-3157">
		<tag k="fixme" v="consider seamark:type=rock or natural=shoal" />
		<tag k="name" v="Seieklubben" />
		<tag k="place" v="islet" />
		<tag k="ssr:stedsnr" v="815099" />
	</node>
	<node lat="59.26039166908935" lon="5.399969452585503" id="-3158">
		<tag k="alt_name" v="Barlundholmen" />
		<tag k="name" v="Barlon" />
		<tag k="place" v="islet" />
		<tag k="ssr:stedsnr" v="816063" />
	</node>
	<node lat="59.259661113594234" lon="5.443602776087564" id="-3159">
		<tag k="name" v="Brattholmen" />
		<tag k="place" v="islet" />
		<tag k="ssr:stedsnr" v="816693" />
	</node>
	<node lat="59.16044166640168" lon="5.433361119600016" id="-3160">
		<tag k="name" v="Sjebasundet" />
		<tag k="natural" v="strait" />
		<tag k="ssr:stedsnr" v="842834" />
	</node>
	<node lat="59.16734999589663" lon="5.401969448426308" id="-3161">
		<tag k="fixme" v="consider seamark:type=rock or natural=shoal" />
		<tag k="name" v="Lamholmen" />
=======
	<node id="-36321" lat="59.1739277766" lon="5.44957221598">
		<tag k="name" v="Arsvatnet" />
		<tag k="natural" v="water" />
		<tag k="ssr:stedsnr" v="297090" />
		<tag k="water" v="lake" />
	</node>
	<node id="-36320" lat="59.1624333292" lon="5.44962499495">
		<tag k="name" v="Sjebavik" />
		<tag k="natural" v="bay" />
		<tag k="ssr:stedsnr" v="296805" />
	</node>
	<node id="-36319" lat="59.1948527761" lon="5.45682499666">
		<tag k="name" v="Longamyr" />
		<tag k="natural" v="wetland" />
		<tag k="ssr:stedsnr" v="296457" />
	</node>
	<node id="-36318" lat="59.1757861108" lon="5.4318138966">
		<tag k="name" v="Hognåsvika" />
		<tag k="natural" v="bay" />
		<tag k="ssr:stedsnr" v="296348" />
	</node>
	<node id="-36317" lat="59.1780666645" lon="5.41860000859">
		<tag k="name" v="Fårå" />
>>>>>>> e1d4bc35ff8a6074a6f2e91616a996b547c36f15
		<tag k="place" v="islet" />
		<tag k="ssr:stedsnr" v="843361" />
	</node>
<<<<<<< HEAD
	<node lat="59.18867499606977" lon="5.417663887695096" id="-3162">
		<tag k="name" v="Vallberg" />
		<tag k="natural" v="hill" />
		<tag k="place" v="locality" />
		<tag k="ssr:stedsnr" v="843490" />
	</node>
	<node lat="59.199547223859994" lon="5.452972214315221" id="-3163">
		<tag k="fixme" v="consider natural=peak for the most distinct mountains in the district" />
		<tag k="name" v="Nordra Hatlefjellet" />
		<tag k="natural" v="hill" />
		<tag k="place" v="locality" />
		<tag k="ssr:stedsnr" v="843494" />
	</node>
	<node lat="59.229972222739484" lon="5.4371138819724045" id="-3164">
		<tag k="amenity" v="school" />
		<tag k="name" v="Bokn" />
		<tag k="ssr:stedsnr" v="848897" />
	</node>
	<node lat="59.20829444791033" lon="5.441180552205259" id="-3165">
		<tag k="name" v="Søra Hålandstjørna" />
		<tag k="natural" v="water" />
		<tag k="ssr:stedsnr" v="848984" />
	</node>
	<node lat="59.21257499780992" lon="5.391402782464083" id="-3166">
		<tag k="fixme" v="consider natural=peak for the most distinct mountains in the district" />
		<tag k="name" v="Trosnavågfjellet" />
		<tag k="natural" v="hill" />
=======
	<node id="-36316" lat="59.1695944436" lon="5.39185833067">
		<tag k="name" v="Husafjellet" />
		<tag k="natural" v="hill" />
		<tag k="place" v="locality" />
		<tag k="ssr:stedsnr" v="296331" />
	</node>
	<node id="-36315" lat="59.2599416649" lon="5.48417499906">
		<tag k="name" v="Regaviga" />
		<tag k="natural" v="bay" />
		<tag k="ssr:stedsnr" v="330683" />
	</node>
	<node id="-36314" lat="59.2531388928" lon="5.47936111906">
		<tag k="alt_name" v="Djupavika" />
		<tag k="name" v="Djubevik" />
		<tag k="natural" v="bay" />
		<tag k="ssr:stedsnr" v="148677" />
	</node>
	<node id="-36313" lat="59.1611888854" lon="5.41779443805">
		<tag k="name" v="Dyna" />
		<tag k="place" v="locality" />
		<tag k="seamark:type" v="rock" />
		<tag k="ssr:stedsnr" v="145669" />
	</node>
	<node id="-36312" lat="59.1753461455" lon="5.40435001233">
		<tag k="name" v="Langanesvågen" />
		<tag k="natural" v="bay" />
		<tag k="ssr:stedsnr" v="145660" />
	</node>
	<node id="-36310" lat="59.2244499968" lon="5.49678610396">
		<tag k="name" v="Barsvika" />
		<tag k="natural" v="bay" />
		<tag k="ssr:stedsnr" v="268927" />
	</node>
	<node id="-36309" lat="59.1604000017" lon="5.40163332911">
		<tag k="name" v="Kjøresundodden" />
		<tag k="natural" v="cape" />
		<tag k="ssr:stedsnr" v="114830" />
	</node>
	<node id="-36308" lat="59.1603805576" lon="5.44394166859">
		<tag k="name" v="Avløybvika" />
		<tag k="natural" v="bay" />
		<tag k="ssr:stedsnr" v="114821" />
	</node>
	<node id="-36307" lat="59.1974861085" lon="5.44298888294">
		<tag k="junction" v="yes" />
		<tag k="name" v="Vatlandskrossen" />
>>>>>>> e1d4bc35ff8a6074a6f2e91616a996b547c36f15
		<tag k="place" v="locality" />
		<tag k="ssr:stedsnr" v="848964" />
	</node>
<<<<<<< HEAD
	<node lat="59.217600001897154" lon="5.385280550858637" id="-3167">
		<tag k="name" v="Mjelkestøhompen" />
		<tag k="natural" v="hill" />
=======
	<node id="-36306" lat="59.1999694446" lon="5.41914443624">
		<tag k="name" v="Dagslandsdalen" />
		<tag k="natural" v="valley" />
>>>>>>> e1d4bc35ff8a6074a6f2e91616a996b547c36f15
		<tag k="place" v="locality" />
		<tag k="ssr:stedsnr" v="848966" />
	</node>
<<<<<<< HEAD
	<node lat="59.22716389050055" lon="5.543008325495905" id="-3168">
=======
	<node id="-36305" lat="59.1648861144" lon="5.40615000291">
>>>>>>> e1d4bc35ff8a6074a6f2e91616a996b547c36f15
		<tag k="fixme" v="consider seamark:type=rock or natural=shoal" />
		<tag k="name" v="Bergsuggeskjera" />
		<tag k="place" v="islet" />
<<<<<<< HEAD
		<tag k="ssr:stedsnr" v="851424" />
	</node>
	<node lat="59.169333334109325" lon="5.4249499979181754" id="-3169">
		<tag k="name" v="Sauøya" />
=======
		<tag k="ssr:stedsnr" v="114406" />
	</node>
	<node id="-36304" lat="59.2703888905" lon="5.46725278525">
		<tag k="name" v="Buvika" />
		<tag k="natural" v="bay" />
		<tag k="ssr:stedsnr" v="85560" />
	</node>
	<node id="-36303" lat="59.1932972779" lon="5.38712389721">
		<tag k="fixme" v="consider seamark:type=rock or natural=shoal" />
		<tag k="name" v="Skibaskjeret" />
>>>>>>> e1d4bc35ff8a6074a6f2e91616a996b547c36f15
		<tag k="place" v="islet" />
		<tag k="ssr:stedsnr" v="851397" />
	</node>
<<<<<<< HEAD
	<node lat="59.21226666259805" lon="5.487394445925617" id="-3170">
		<tag k="alt_name" v="Rabbevig;Rabbevik" />
		<tag k="name" v="Rabbavika" />
		<tag k="natural" v="bay" />
		<tag k="ssr:stedsnr" v="874917" />
	</node>
	<node lat="59.21508610685173" lon="5.4961861153616365" id="-3171">
		<tag k="alt_name" v="Ablavika" />
		<tag k="name" v="Apallevika" />
		<tag k="natural" v="bay" />
		<tag k="ssr:stedsnr" v="875900" />
	</node>
	<node lat="59.24926110868074" lon="5.4667833269135375" id="-3172">
		<tag k="alt_name" v="Kallabergvika" />
		<tag k="name" v="Kallabergvik" />
=======
	<node id="-36302" lat="59.2289611123" lon="5.54021388254">
		<tag k="alt_name" v="Rova, store;Stora Roå" />
		<tag k="fixme" v="consider seamark:type=rock or natural=shoal" />
		<tag k="name" v="Stora Rova" />
		<tag k="place" v="islet" />
		<tag k="ssr:stedsnr" v="244481" />
	</node>
	<node id="-36301" lat="59.23345" lon="5.55652777575">
		<tag k="alt_name" v="Tåa, austre" />
		<tag k="name" v="Austre Tåa" />
		<tag k="natural" v="cape" />
		<tag k="ssr:stedsnr" v="244448" />
	</node>
	<node id="-36300" lat="59.1687027749" lon="5.38208333182">
		<tag k="name" v="Nordra Auseviga" />
>>>>>>> e1d4bc35ff8a6074a6f2e91616a996b547c36f15
		<tag k="natural" v="bay" />
		<tag k="ssr:stedsnr" v="876296" />
	</node>
<<<<<<< HEAD
	<node lat="59.249886107015406" lon="5.463091659150227" id="-3173">
		<tag k="name" v="Stidlevik" />
		<tag k="natural" v="bay" />
		<tag k="ssr:stedsnr" v="876679" />
	</node>
	<node lat="59.259149997828956" lon="5.4081083406402115" id="-3174">
		<tag k="name" v="Bryggholmen" />
=======
	<node id="-36299" lat="59.163413885" lon="5.406241671">
		<tag k="name" v="Drevsundholmen" />
>>>>>>> e1d4bc35ff8a6074a6f2e91616a996b547c36f15
		<tag k="place" v="islet" />
		<tag k="ssr:stedsnr" v="937066" />
	</node>
<<<<<<< HEAD
	<node lat="59.25788888913932" lon="5.417699996905327" id="-3175">
		<tag k="name" v="Porsholmane" />
		<tag k="place" v="islet" />
		<tag k="ssr:stedsnr" v="937080" />
	</node>
	<node lat="59.26413611064006" lon="5.454994440909234" id="-3176">
		<tag k="alt_name" v="Kjeøyvågen" />
		<tag k="name" v="Kjøyvågen" />
		<tag k="natural" v="bay" />
		<tag k="ssr:stedsnr" v="937679" />
	</node>
	<node lat="59.21534765632588" lon="5.380933907478364" id="-3177">
		<tag k="name" v="Vestrevåg" />
=======
	<node id="-36298" lat="59.2237777815" lon="5.44045833479">
		<tag k="amenity" v="place_of_worship" />
		<tag k="denomination" v="lutheran" />
		<tag k="name" v="Bokn kyrkje" />
		<tag k="religion" v="christian" />
		<tag k="ssr:stedsnr" v="244127" />
	</node>
	<node id="-36297" lat="59.1876388921" lon="5.37396666513">
		<tag k="name" v="Røyrvigneset" />
		<tag k="natural" v="cape" />
		<tag k="ssr:stedsnr" v="244083" />
	</node>
	<node id="-36296" lat="59.2377361095" lon="5.38919999652">
		<tag k="name" v="Bekkjarvik" />
>>>>>>> e1d4bc35ff8a6074a6f2e91616a996b547c36f15
		<tag k="natural" v="bay" />
		<tag k="ssr:stedsnr" v="969959" />
	</node>
<<<<<<< HEAD
	<node lat="59.22091388723108" lon="5.402638880535471" id="-3178">
		<tag k="fixme" v="consider natural=peak for the most distinct mountains in the district" />
		<tag k="name" v="Skjenet" />
		<tag k="natural" v="hill" />
		<tag k="place" v="locality" />
		<tag k="ssr:stedsnr" v="969961" />
	</node>
	<node lat="59.24003333541755" lon="5.384447213529753" id="-3179">
		<tag k="name" v="Lammaneshaugen" />
		<tag k="natural" v="hill" />
		<tag k="place" v="locality" />
		<tag k="ssr:stedsnr" v="970591" />
	</node>
	<node lat="59.23398823157561" lon="5.551963640831251" id="-3180">
		<tag k="fixme" v="consider place=hamlet" />
		<tag k="name" v="Nautøya" />
		<tag k="place" v="farm" />
		<tag k="ssr:stedsnr" v="1072026" />
	</node>
	<node lat="59.20507463539833" lon="5.406868538381306" id="-3181">
		<tag k="alt_name" v="Nordre Grønnestad" />
		<tag k="fixme" v="consider place=hamlet" />
		<tag k="name" v="Nordre Grønestad" />
		<tag k="place" v="farm" />
		<tag k="ssr:stedsnr" v="1077468" />
=======
	<node id="-36295" lat="59.226841669" lon="5.43900000691">
		<tag k="name" v="Longhammar" />
		<tag k="natural" v="hill" />
		<tag k="place" v="locality" />
		<tag k="ssr:stedsnr" v="241978" />
	</node>
	<node id="-36294" lat="59.2281034942" lon="5.44381578985">
		<tag k="fixme" v="consider place=hamlet" />
		<tag k="name" v="Sæbø" />
		<tag k="place" v="farm" />
		<tag k="ssr:stedsnr" v="62016" />
	</node>
	<node id="-36293" lat="59.1927250016" lon="5.44968610772">
		<tag k="name" v="Vandåg" />
		<tag k="natural" v="hill" />
		<tag k="place" v="locality" />
		<tag k="ssr:stedsnr" v="235523" />
	</node>
	<node id="-36292" lat="59.1734916651" lon="5.42317778542">
		<tag k="name" v="Klubbholmen" />
		<tag k="place" v="islet" />
		<tag k="ssr:stedsnr" v="235420" />
	</node>
	<node id="-36291" lat="59.2527083294" lon="5.41865278564">
		<tag k="alt_name" v="Gulebleken" />
		<tag k="fixme" v="consider seamark:type=rock or natural=shoal" />
		<tag k="name" v="Gula Bleigjå" />
		<tag k="place" v="islet" />
		<tag k="ssr:stedsnr" v="27040" />
	</node>
	<node id="-36290" lat="59.2291194425" lon="5.45886111171">
		<tag k="name" v="Træsbåflua" />
		<tag k="natural" v="shoal" />
		<tag k="place" v="locality" />
		<tag k="ssr:stedsnr" v="24638" />
	</node>
	<node id="-36289" lat="59.2631916674" lon="5.37968611785">
		<tag k="bay" v="fjord" />
		<tag k="name" v="Austdjupet" />
		<tag k="natural" v="bay" />
		<tag k="ssr:stedsnr" v="2872" />
	</node>
	<node id="-36288" lat="59.2722222257" lon="5.48138889318">
		<tag k="name" v="Frekasundet" />
		<tag k="natural" v="strait" />
		<tag k="ssr:stedsnr" v="2230" />
	</node>
	<node id="-36287" lat="59.2972222266" lon="5.32638889698">
		<tag k="name" v="Karmsundet" />
		<tag k="natural" v="strait" />
		<tag k="ssr:stedsnr" v="1101" />
>>>>>>> e1d4bc35ff8a6074a6f2e91616a996b547c36f15
	</node>
</osm>
