<?xml version="1.0" encoding="UTF-8"?>
<osm version="0.6" generator="osmapis">
	<node lat="58.738863889901104" lon="7.557466670484264" id="-39815">
		<tag k="alt_name" v="Olavsdalen" />
		<tag k="name" v="Olasdalen" />
		<tag k="natural" v="valley" />
		<tag k="place" v="locality" />
		<tag k="ssr:stedsnr" v="49" />
	</node>
	<node lat="58.74394444549894" lon="7.521613895981667" id="-39816">
		<tag k="name" v="Oddan" />
		<tag k="natural" v="cape" />
		<tag k="ssr:stedsnr" v="52" />
	</node>
	<node lat="58.74390277832292" lon="7.472888884142251" id="-39817">
		<tag k="alt_name" v="Reiårsdalen;Reiersdal" />
		<tag k="fixme" v="consider place=hamlet" />
		<tag k="name" v="Reiåsdalen" />
		<tag k="place" v="farm" />
		<tag k="ssr:stedsnr" v="56" />
	</node>
	<node lat="58.7468472263429" lon="7.410452774966786" id="-39818">
		<tag k="name" v="Turtebakkfjellet" />
		<tag k="natural" v="cliff" />
		<tag k="ssr:stedsnr" v="58" />
	</node>
	<node lat="58.625502774906685" lon="7.3948777748135965" id="-39819">
		<tag k="fixme" v="consider natural=peak for the most distinct mountains in the district" />
		<tag k="name" v="Kosåsen" />
		<tag k="natural" v="hill" />
		<tag k="place" v="locality" />
		<tag k="ssr:stedsnr" v="157" />
	</node>
	<node lat="58.768536111913996" lon="7.207508326517119" id="-39820">
		<tag k="name" v="Søtevassdalen" />
		<tag k="natural" v="valley" />
		<tag k="place" v="locality" />
		<tag k="ssr:stedsnr" v="348" />
	</node>
	<node lat="58.84098888673717" lon="7.3582833393031795" id="-39821">
		<tag k="alt_name" v="Bjortjørn" />
		<tag k="name" v="Bjortjønn" />
		<tag k="natural" v="water" />
		<tag k="ssr:stedsnr" v="398" />
	</node>
	<node lat="58.61527222342771" lon="7.294550001685797" id="-39822">
		<tag k="alt_name" v="Teistetjørni, nedre" />
		<tag k="name" v="Nera Teistedalstjønnæ" />
		<tag k="natural" v="water" />
		<tag k="ssr:stedsnr" v="501" />
		<tag k="water" v="lake" />
	</node>
	<node lat="58.82027777965343" lon="7.597738880765278" id="-39823">
		<tag k="fixme" v="consider natural=peak for the most distinct mountains in the district" />
		<tag k="name" v="Rjupedalsheia" />
		<tag k="natural" v="hill" />
		<tag k="place" v="locality" />
		<tag k="ssr:stedsnr" v="506" />
	</node>
	<node lat="58.799733331941574" lon="7.3646777718039855" id="-39824">
		<tag k="alt_name" v="Tjørni" />
		<tag k="name" v="Tjønnæ" />
		<tag k="natural" v="water" />
		<tag k="ssr:stedsnr" v="520" />
	</node>
	<node lat="58.7547222203745" lon="7.360766669085966" id="-39825">
		<tag k="fixme" v="consider natural=peak for the most distinct mountains in the district" />
		<tag k="name" v="Fitjansfjellet" />
		<tag k="natural" v="hill" />
		<tag k="place" v="locality" />
		<tag k="ssr:stedsnr" v="554" />
	</node>
	<node lat="58.76718333269829" lon="7.553783333176976" id="-39826">
		<tag k="alt_name" v="Voremyri" />
		<tag k="name" v="Voremyræ" />
		<tag k="natural" v="wetland" />
		<tag k="ssr:stedsnr" v="561" />
	</node>
	<node lat="58.70011111551377" lon="7.354441667507387" id="-39827">
		<tag k="alt_name" v="Djupa loni" />
		<tag k="name" v="Djupalonæ" />
		<tag k="natural" v="water" />
		<tag k="ssr:stedsnr" v="252" />
	</node>
	<node lat="58.55650555575877" lon="7.339005559681514" id="-39828">
		<tag k="fixme" v="consider natural=peak for the most distinct mountains in the district" />
		<tag k="name" v="Strondefjell" />
		<tag k="natural" v="hill" />
		<tag k="place" v="locality" />
		<tag k="ssr:stedsnr" v="402" />
	</node>
	<node lat="58.60777778170049" lon="7.492191668626438" id="-39829">
		<tag k="alt_name" v="Mjåvatnet, yt" />
		<tag k="name" v="Ytre Mjåvatn" />
		<tag k="natural" v="water" />
		<tag k="ssr:stedsnr" v="853" />
	</node>
	<node lat="58.54628055880578" lon="7.381177785244642" id="-39830">
		<tag k="fixme" v="consider place=hamlet" />
		<tag k="name" v="Madland" />
		<tag k="place" v="farm" />
		<tag k="ssr:stedsnr" v="806" />
	</node>
	<node lat="58.5881944448887" lon="7.484347214585069" id="-39831">
		<tag k="name" v="Nevdalsåni" />
		<tag k="ssr:stedsnr" v="763" />
		<tag k="waterway" v="stream" />
	</node>
	<node lat="58.574586113134686" lon="7.464300008056339" id="-39832">
		<tag k="alt_name" v="Bustetjørni" />
		<tag k="name" v="Bustetjønn" />
		<tag k="natural" v="water" />
		<tag k="ssr:stedsnr" v="793" />
	</node>
	<node lat="58.500016664726694" lon="7.400725007076106" id="-39833">
		<tag k="alt_name" v="Bjønnemyrhei" />
		<tag k="fixme" v="consider natural=peak for the most distinct mountains in the district" />
		<tag k="name" v="Bjørnemyrheia" />
		<tag k="natural" v="hill" />
		<tag k="place" v="locality" />
		<tag k="ssr:stedsnr" v="901" />
	</node>
	<node lat="58.66988611416753" lon="7.462608327357192" id="-39834">
		<tag k="alt_name" v="Eikemoen" />
		<tag k="fixme" v="consider place=hamlet" />
		<tag k="name" v="Eikjemonen" />
		<tag k="place" v="farm" />
		<tag k="ssr:stedsnr" v="1215" />
	</node>
	<node lat="58.68558055711423" lon="7.393286105287418" id="-39835">
		<tag k="alt_name" v="Åsefjell" />
		<tag k="fixme" v="consider natural=peak for the most distinct mountains in the district" />
		<tag k="name" v="Hesthomheia" />
		<tag k="natural" v="hill" />
		<tag k="place" v="locality" />
		<tag k="ssr:stedsnr" v="1223" />
	</node>
	<node lat="58.67475555218618" lon="7.426177771247293" id="-39836">
		<tag k="name" v="Grønsveg" />
		<tag k="natural" v="valley" />
		<tag k="place" v="locality" />
		<tag k="ssr:stedsnr" v="1200" />
	</node>
	<node lat="58.71475555546386" lon="7.314194439032719" id="-39837">
		<tag k="alt_name" v="Vetjørnknuten" />
		<tag k="name" v="Vetjønnknuten" />
		<tag k="natural" v="hill" />
		<tag k="place" v="locality" />
		<tag k="ssr:stedsnr" v="1306" />
	</node>
	<node lat="58.66094166356495" lon="7.215369438331111" id="-39838">
		<tag k="alt_name" v="Glyperindan" />
		<tag k="fixme" v="consider natural=peak for the most distinct mountains in the district" />
		<tag k="name" v="Glyperinnen" />
		<tag k="natural" v="hill" />
		<tag k="place" v="locality" />
		<tag k="ssr:stedsnr" v="1286" />
	</node>
	<node lat="58.65939999775478" lon="7.196036104629513" id="-39839">
		<tag k="alt_name" v="Skjerkedalsrindan" />
		<tag k="fixme" v="consider natural=peak for the most distinct mountains in the district" />
		<tag k="name" v="Skjerkedalsrinnen" />
		<tag k="natural" v="hill" />
		<tag k="place" v="locality" />
		<tag k="ssr:stedsnr" v="1290" />
	</node>
	<node lat="58.70219444561927" lon="7.267688889249471" id="-39840">
		<tag k="alt_name" v="Ratlonfjellet" />
		<tag k="fixme" v="consider natural=peak for the most distinct mountains in the district" />
		<tag k="name" v="Ratelonfjellet" />
		<tag k="natural" v="hill" />
		<tag k="place" v="locality" />
		<tag k="ssr:stedsnr" v="1294" />
	</node>
	<node lat="58.795630555782" lon="7.142625005917011" id="-39841">
		<tag k="alt_name" v="Bergetjørn" />
		<tag k="name" v="Bergetjønn" />
		<tag k="natural" v="water" />
		<tag k="ssr:stedsnr" v="1340" />
	</node>
	<node lat="58.52147500169467" lon="7.46831388083957" id="-39842">
		<tag k="alt_name" v="Åmedalsheia" />
		<tag k="fixme" v="consider natural=peak for the most distinct mountains in the district" />
		<tag k="name" v="Åmdalsheia" />
		<tag k="natural" v="hill" />
		<tag k="place" v="locality" />
		<tag k="ssr:stedsnr" v="1979" />
	</node>
	<node lat="58.62349722287456" lon="7.4012333306371385" id="-39843">
		<tag k="name" v="Brendebakka" />
		<tag k="natural" v="slope" />
		<tag k="place" v="locality" />
		<tag k="ssr:stedsnr" v="286497" />
	</node>
	<node lat="58.63908055408417" lon="7.4561555571256495" id="-39844">
		<tag k="name" v="Vardeknodden" />
		<tag k="natural" v="hill" />
		<tag k="place" v="locality" />
		<tag k="ssr:stedsnr" v="286500" />
	</node>
	<node lat="58.6261666649127" lon="7.445672230893739" id="-39845">
		<tag k="name" v="Noråre Tjørdalen" />
		<tag k="natural" v="valley" />
		<tag k="place" v="locality" />
		<tag k="ssr:stedsnr" v="286501" />
	</node>
	<node lat="58.82637499675185" lon="7.451722220547219" id="-39846">
		<tag k="name" v="Reinstjønnosen" />
		<tag k="natural" v="bay" />
		<tag k="ssr:stedsnr" v="37569" />
	</node>
	<node lat="58.831563893100075" lon="7.476688882883531" id="-39847">
		<tag k="name" v="Hålgjengsbakken" />
		<tag k="natural" v="slope" />
		<tag k="place" v="locality" />
		<tag k="ssr:stedsnr" v="37572" />
	</node>
	<node lat="58.77741111159667" lon="7.449566660645157" id="-39848">
		<tag k="name" v="Flæun" />
		<tag k="natural" v="valley" />
		<tag k="place" v="locality" />
		<tag k="ssr:stedsnr" v="38712" />
	</node>
	<node lat="58.791258334003714" lon="7.5216416707664555" id="-39849">
		<tag k="name" v="Heddebudalen" />
		<tag k="natural" v="valley" />
		<tag k="place" v="locality" />
		<tag k="ssr:stedsnr" v="38715" />
	</node>
	<node lat="58.846655556249644" lon="7.515666662275607" id="-39850">
		<tag k="name" v="Brubergæ" />
		<tag k="natural" v="hill" />
		<tag k="place" v="locality" />
		<tag k="ssr:stedsnr" v="38765" />
	</node>
	<node lat="58.855544440851865" lon="7.423608333731012" id="-39851">
		<tag k="name" v="Skrivarskaret" />
		<tag k="natural" v="valley" />
		<tag k="place" v="locality" />
		<tag k="ssr:stedsnr" v="38698" />
	</node>
	<node lat="58.83962499570774" lon="7.438063884630512" id="-39852">
		<tag k="name" v="Finnjotå" />
		<tag k="natural" v="valley" />
		<tag k="place" v="locality" />
		<tag k="ssr:stedsnr" v="39584" />
	</node>
	<node lat="58.84850000209783" lon="7.412163887851238" id="-39853">
		<tag k="name" v="Vikjæ" />
		<tag k="natural" v="bay" />
		<tag k="ssr:stedsnr" v="39614" />
	</node>
	<node lat="58.59250555632635" lon="7.564361114210776" id="-39854">
		<tag k="name" v="Kalvelia" />
		<tag k="natural" v="slope" />
		<tag k="place" v="locality" />
		<tag k="ssr:stedsnr" v="42172" />
	</node>
	<node lat="58.70589999804412" lon="7.615633331786826" id="-39855">
		<tag k="name" v="Tjønnæ på Langedalen" />
		<tag k="natural" v="water" />
		<tag k="ssr:stedsnr" v="42179" />
	</node>
	<node lat="58.583702779060914" lon="7.493958327171414" id="-39856">
		<tag k="name" v="Soyæ" />
		<tag k="place" v="locality" />
		<tag k="ssr:stedsnr" v="42180" />
	</node>
	<node lat="58.593961110306" lon="7.512872215770477" id="-39857">
		<tag k="ford" v="yes" />
		<tag k="name" v="Geitevaet" />
		<tag k="place" v="locality" />
		<tag k="ssr:stedsnr" v="42185" />
	</node>
	<node lat="58.70098611253508" lon="7.601563894016401" id="-39858">
		<tag k="name" v="Klyptelonæ" />
		<tag k="natural" v="water" />
		<tag k="ssr:stedsnr" v="42203" />
		<tag k="water" v="lake" />
	</node>
	<node lat="58.801950000013846" lon="7.327919450664171" id="-39859">
		<tag k="name" v="Holeskaret" />
		<tag k="natural" v="valley" />
		<tag k="place" v="locality" />
		<tag k="ssr:stedsnr" v="42274" />
	</node>
	<node lat="58.65797777527284" lon="7.371850005340628" id="-39860">
		<tag k="name" v="Svararknuten" />
		<tag k="natural" v="hill" />
		<tag k="place" v="locality" />
		<tag k="ssr:stedsnr" v="42280" />
	</node>
	<node lat="58.58233333510306" lon="7.293772221351631" id="-39861">
		<tag k="highway" v="path" />
		<tag k="name" v="Juskestien" />
		<tag k="ssr:stedsnr" v="42375" />
	</node>
	<node lat="58.560036108206134" lon="7.2922166669860555" id="-39862">
		<tag k="name" v="Halvorsslåttå" />
		<tag k="natural" v="wetland" />
		<tag k="ssr:stedsnr" v="42383" />
	</node>
	<node lat="58.810211110475755" lon="7.372763892138052" id="-39863">
		<tag k="alt_name" v="Nere Gloppedalen" />
		<tag k="name" v="Nedre Gloppedalen" />
		<tag k="natural" v="valley" />
		<tag k="place" v="locality" />
		<tag k="ssr:stedsnr" v="42510" />
	</node>
	<node lat="58.80359444861003" lon="7.376244437829433" id="-39864">
		<tag k="name" v="Stutebanken" />
		<tag k="natural" v="slope" />
		<tag k="place" v="locality" />
		<tag k="ssr:stedsnr" v="42513" />
	</node>
	<node lat="58.50780278159971" lon="7.419650001399475" id="-39865">
		<tag k="name" v="Dalebekken" />
		<tag k="ssr:stedsnr" v="42715" />
		<tag k="waterway" v="stream" />
	</node>
	<node lat="58.79255833182532" lon="7.329052777013216" id="-39866">
		<tag k="name" v="Kvennevassliæ" />
		<tag k="natural" v="slope" />
		<tag k="place" v="locality" />
		<tag k="ssr:stedsnr" v="42824" />
	</node>
	<node lat="58.77499444508555" lon="7.3351361131040935" id="-39867">
		<tag k="name" v="Hedderstakkslåtå" />
		<tag k="natural" v="wetland" />
		<tag k="ssr:stedsnr" v="42882" />
	</node>
	<node lat="58.78513333569078" lon="7.365836105619632" id="-39868">
		<tag k="name" v="Skrubbeholå" />
		<tag k="natural" v="valley" />
		<tag k="place" v="locality" />
		<tag k="ssr:stedsnr" v="42889" />
	</node>
	<node lat="58.563530553680195" lon="7.519233336336986" id="-39869">
		<tag k="name" v="Bjønnskvæven" />
		<tag k="natural" v="wetland" />
		<tag k="ssr:stedsnr" v="43004" />
	</node>
	<node lat="58.56872500406472" lon="7.511902778141071" id="-39870">
		<tag k="name" v="Fiskelausmyra" />
		<tag k="natural" v="wetland" />
		<tag k="ssr:stedsnr" v="43006" />
	</node>
	<node lat="58.77366666675796" lon="7.5749777836394285" id="-39871">
		<tag k="name" v="Øvre Støknuten" />
		<tag k="natural" v="hill" />
		<tag k="place" v="locality" />
		<tag k="ssr:stedsnr" v="43009" />
	</node>
	<node lat="58.692005552283895" lon="7.438738892945439" id="-39872">
		<tag k="name" v="Storrstettfjellet" />
		<tag k="natural" v="cliff" />
		<tag k="ssr:stedsnr" v="43025" />
	</node>
	<node lat="58.70474999888227" lon="7.4395472207396445" id="-39873">
		<tag k="name" v="Vardalsknuten" />
		<tag k="natural" v="hill" />
		<tag k="place" v="locality" />
		<tag k="ssr:stedsnr" v="43028" />
	</node>
	<node lat="58.692108329843386" lon="7.445480551063719" id="-39874">
		<tag k="name" v="Larslihei" />
		<tag k="natural" v="hill" />
		<tag k="place" v="locality" />
		<tag k="ssr:stedsnr" v="43029" />
	</node>
	<node lat="58.75620833531268" lon="7.526919436745049" id="-39875">
		<tag k="name" v="Kaddhåmåren" />
		<tag k="natural" v="cape" />
		<tag k="ssr:stedsnr" v="43032" />
	</node>
	<node lat="58.76387499706924" lon="7.312988892057463" id="-39876">
		<tag k="name" v="Rautjønn" />
		<tag k="natural" v="water" />
		<tag k="ssr:stedsnr" v="42901" />
	</node>
	<node lat="58.7052861071422" lon="7.3131722216662505" id="-39877">
		<tag k="name" v="Fosstjønn" />
		<tag k="natural" v="water" />
		<tag k="ssr:stedsnr" v="43072" />
	</node>
	<node lat="58.6989888896047" lon="7.32059444665143" id="-39878">
		<tag k="name" v="Knivskeikilen" />
		<tag k="natural" v="bay" />
		<tag k="ssr:stedsnr" v="43074" />
	</node>
	<node lat="58.7531472186944" lon="7.625711110006488" id="-39879">
		<tag k="name" v="Dalemannsbekken" />
		<tag k="ssr:stedsnr" v="43077" />
		<tag k="waterway" v="stream" />
	</node>
	<node lat="58.75872222654546" lon="7.6149111086786805" id="-39880">
		<tag k="name" v="Svartupskvæven" />
		<tag k="natural" v="valley" />
		<tag k="place" v="locality" />
		<tag k="ssr:stedsnr" v="43079" />
	</node>
	<node lat="58.73998333247086" lon="7.462041668777359" id="-39881">
		<tag k="name" v="Stemtjønn" />
		<tag k="natural" v="water" />
		<tag k="ssr:stedsnr" v="43208" />
	</node>
	<node lat="58.58070555553568" lon="7.44275278026405" id="-39882">
		<tag k="name" v="Prestekjelda" />
		<tag k="place" v="locality" />
		<tag k="ssr:stedsnr" v="43213" />
	</node>
	<node lat="58.80482499601712" lon="7.53820833313823" id="-39883">
		<tag k="name" v="Lisle Sandvassdalen" />
		<tag k="natural" v="valley" />
		<tag k="place" v="locality" />
		<tag k="ssr:stedsnr" v="43276" />
	</node>
	<node lat="58.740588886450446" lon="7.552358331179834" id="-39884">
		<tag k="name" v="Olasheia" />
		<tag k="natural" v="hill" />
		<tag k="place" v="locality" />
		<tag k="ssr:stedsnr" v="43280" />
	</node>
	<node lat="58.754786110873695" lon="7.660713883511433" id="-39885">
		<tag k="name" v="Kjosevasshommen" />
		<tag k="natural" v="valley" />
		<tag k="place" v="locality" />
		<tag k="ssr:stedsnr" v="43178" />
	</node>
	<node lat="58.596013892685406" lon="7.478766661159258" id="-39886">
		<tag k="name" v="Næverdalsheia" />
		<tag k="natural" v="hill" />
		<tag k="place" v="locality" />
		<tag k="ssr:stedsnr" v="43191" />
	</node>
	<node lat="58.73290555653181" lon="7.482000002944922" id="-39887">
		<tag k="name" v="Skotåsrinnan" />
		<tag k="natural" v="ridge" />
		<tag k="place" v="locality" />
		<tag k="ssr:stedsnr" v="43200" />
	</node>
	<node lat="58.7500666675131" lon="7.602855561456766" id="-39888">
		<tag k="name" v="Kjadda" />
		<tag k="place" v="locality" />
		<tag k="ssr:stedsnr" v="43305" />
	</node>
	<node lat="58.67024444586685" lon="7.3972944487676155" id="-39889">
		<tag k="name" v="Hyljestøyten" />
		<tag k="natural" v="slope" />
		<tag k="place" v="locality" />
		<tag k="ssr:stedsnr" v="43323" />
	</node>
	<node lat="58.686177780399596" lon="7.25428888427521" id="-39890">
		<tag k="name" v="Bjønnelonæ" />
		<tag k="natural" v="water" />
		<tag k="ssr:stedsnr" v="43723" />
	</node>
	<node lat="58.63846666888306" lon="7.449372218032367" id="-39891">
		<tag k="name" v="Salen" />
		<tag k="natural" v="hill" />
		<tag k="place" v="locality" />
		<tag k="ssr:stedsnr" v="43481" />
	</node>
	<node lat="58.81106111222642" lon="7.579586103150838" id="-39892">
		<tag k="name" v="På Liæ" />
		<tag k="natural" v="slope" />
		<tag k="place" v="locality" />
		<tag k="ssr:stedsnr" v="43626" />
	</node>
	<node lat="58.81689999780243" lon="7.216005550436975" id="-39893">
		<tag k="name" v="Sprengtjønnrinnen" />
		<tag k="natural" v="ridge" />
		<tag k="place" v="locality" />
		<tag k="ssr:stedsnr" v="43630" />
	</node>
	<node lat="58.63631666270005" lon="7.275466658928599" id="-39894">
		<tag k="name" v="Skulebørtjønnfjellet" />
		<tag k="natural" v="cliff" />
		<tag k="ssr:stedsnr" v="43690" />
	</node>
	<node lat="58.62645555158099" lon="7.25982221641004" id="-39895">
		<tag k="name" v="Steintjønndalen" />
		<tag k="natural" v="valley" />
		<tag k="place" v="locality" />
		<tag k="ssr:stedsnr" v="43695" />
	</node>
	<node lat="58.550397219167486" lon="7.280011111334383" id="-39896">
		<tag k="name" v="Heimre Knupen" />
		<tag k="natural" v="wetland" />
		<tag k="ssr:stedsnr" v="43803" />
	</node>
	<node lat="58.51323611230088" lon="7.49420833172556" id="-39897">
		<tag k="name" v="Gilmyran" />
		<tag k="natural" v="wetland" />
		<tag k="ssr:stedsnr" v="43804" />
	</node>
	<node lat="58.51442778128425" lon="7.4648361050015115" id="-39898">
		<tag k="name" v="Troddekjerråsen" />
		<tag k="natural" v="ridge" />
		<tag k="place" v="locality" />
		<tag k="ssr:stedsnr" v="43806" />
	</node>
	<node lat="58.5304805576028" lon="7.3309916652668425" id="-39899">
		<tag k="fixme" v="consider natural=peak for the most distinct mountains in the district" />
		<tag k="name" v="Fjeldsenden" />
		<tag k="natural" v="hill" />
		<tag k="place" v="locality" />
		<tag k="ssr:stedsnr" v="43812" />
	</node>
	<node lat="58.52731111487114" lon="7.32964445004389" id="-39900">
		<tag k="name" v="Fosshommen" />
		<tag k="natural" v="valley" />
		<tag k="place" v="locality" />
		<tag k="ssr:stedsnr" v="43813" />
	</node>
	<node lat="58.52233610884915" lon="7.3728916636909645" id="-39901">
		<tag k="name" v="Humledalen" />
		<tag k="natural" v="valley" />
		<tag k="place" v="locality" />
		<tag k="ssr:stedsnr" v="43924" />
	</node>
	<node lat="58.71070277905639" lon="7.480472221858682" id="-39902">
		<tag k="name" v="Skotet" />
		<tag k="natural" v="valley" />
		<tag k="place" v="locality" />
		<tag k="ssr:stedsnr" v="43928" />
	</node>
	<node lat="58.70902222191903" lon="7.480411112400066" id="-39903">
		<tag k="name" v="Knipeknodden" />
		<tag k="natural" v="hill" />
		<tag k="place" v="locality" />
		<tag k="ssr:stedsnr" v="43929" />
	</node>
	<node lat="58.520344445552055" lon="7.378749992137572" id="-39904">
		<tag k="name" v="Kvævan" />
		<tag k="natural" v="valley" />
		<tag k="place" v="locality" />
		<tag k="ssr:stedsnr" v="43930" />
	</node>
	<node lat="58.5220752096344" lon="7.351179066072166" id="-39905">
		<tag k="name" v="Høyvollen" />
		<tag k="place" v="locality" />
		<tag k="ssr:stedsnr" v="43934" />
	</node>
	<node lat="58.5258035499596" lon="7.348981816521353" id="-39906">
		<tag k="name" v="Berga" />
		<tag k="natural" v="slope" />
		<tag k="place" v="locality" />
		<tag k="ssr:stedsnr" v="43935" />
	</node>
	<node lat="58.723736115218074" lon="7.528500003160711" id="-39907">
		<tag k="name" v="Roligholå" />
		<tag k="natural" v="valley" />
		<tag k="place" v="locality" />
		<tag k="ssr:stedsnr" v="43940" />
	</node>
	<node lat="58.72663610914056" lon="7.380066665059473" id="-39908">
		<tag k="name" v="Kvile" />
		<tag k="natural" v="slope" />
		<tag k="place" v="locality" />
		<tag k="ssr:stedsnr" v="43975" />
	</node>
	<node lat="58.72851944503046" lon="7.42177500415406" id="-39909">
		<tag k="name" v="Søtaholet" />
		<tag k="natural" v="wetland" />
		<tag k="ssr:stedsnr" v="43990" />
	</node>
	<node lat="58.55097777535091" lon="7.45346388679614" id="-39910">
		<tag k="name" v="Torvmyr" />
		<tag k="natural" v="wetland" />
		<tag k="ssr:stedsnr" v="43993" />
	</node>
	<node lat="58.555744440740185" lon="7.462149992763742" id="-39911">
		<tag k="name" v="Sletteflekken" />
		<tag k="place" v="locality" />
		<tag k="ssr:stedsnr" v="43998" />
	</node>
	<node lat="58.768175004150436" lon="7.4684472228925065" id="-39912">
		<tag k="name" v="Øytjønnjuvet" />
		<tag k="natural" v="gorge" />
		<tag k="ssr:stedsnr" v="43999" />
	</node>
	<node lat="58.5720194419651" lon="7.50296110463682" id="-39913">
		<tag k="bridge" v="yes" />
		<tag k="layer" v="1" />
		<tag k="name" v="Neverå" />
		<tag k="ssr:stedsnr" v="46014" />
	</node>
	<node lat="58.74744444560599" lon="7.63031111897651" id="-39914">
		<tag k="name" v="Stasvatn" />
		<tag k="natural" v="water" />
		<tag k="ssr:stedsnr" v="61030" />
	</node>
	<node lat="58.69807222137257" lon="7.586175006825546" id="-39915">
		<tag k="alt_name" v="Krasen" />
		<tag k="name" v="Krasin" />
		<tag k="natural" v="hill" />
		<tag k="place" v="locality" />
		<tag k="ssr:stedsnr" v="61225" />
	</node>
	<node lat="58.698780552841725" lon="7.578355557706077" id="-39916">
		<tag k="name" v="Nordlund" />
		<tag k="place" v="farm" />
		<tag k="ssr:stedsnr" v="61229" />
	</node>
	<node lat="58.696213884863546" lon="7.537405562549439" id="-39917">
		<tag k="alt_name" v="Gommorsfjellet" />
		<tag k="fixme" v="consider natural=peak for the most distinct mountains in the district" />
		<tag k="name" v="Gomosfjellet" />
		<tag k="natural" v="hill" />
		<tag k="place" v="locality" />
		<tag k="ssr:stedsnr" v="61231" />
	</node>
	<node lat="58.693780558084256" lon="7.559247225951167" id="-39918">
		<tag k="alt_name" v="Bjørnehomvatnet" />
		<tag k="name" v="Bjønnshomvatnet" />
		<tag k="natural" v="water" />
		<tag k="ssr:stedsnr" v="61232" />
	</node>
	<node lat="58.61935000425671" lon="7.539669440796925" id="-39919">
		<tag k="fixme" v="consider natural=peak for the most distinct mountains in the district" />
		<tag k="name" v="Rullanheia" />
		<tag k="natural" v="hill" />
		<tag k="place" v="locality" />
		<tag k="ssr:stedsnr" v="61123" />
	</node>
	<node lat="58.68369166455991" lon="7.571775002247641" id="-39920">
		<tag k="alt_name" v="Olasdalen" />
		<tag k="name" v="Olavsdalen" />
		<tag k="natural" v="valley" />
		<tag k="place" v="locality" />
		<tag k="ssr:stedsnr" v="61128" />
	</node>
	<node lat="58.66462222306442" lon="7.530294445023999" id="-39921">
		<tag k="alt_name" v="Småhomman" />
		<tag k="name" v="Homman" />
		<tag k="natural" v="valley" />
		<tag k="place" v="locality" />
		<tag k="ssr:stedsnr" v="61177" />
	</node>
	<node lat="58.65027777688332" lon="7.43877777967739" id="-39922">
		<tag k="name" v="Austredalen" />
		<tag k="natural" v="valley" />
		<tag k="place" v="locality" />
		<tag k="ssr:stedsnr" v="61179" />
	</node>
	<node lat="58.740919448517644" lon="7.20848333818392" id="-39923">
		<tag k="name" v="Storevassknuten" />
		<tag k="natural" v="hill" />
		<tag k="place" v="locality" />
		<tag k="ssr:stedsnr" v="61306" />
	</node>
	<node lat="58.70646110972562" lon="7.231372228865424" id="-39924">
		<tag k="alt_name" v="Sundagsvatnet" />
		<tag k="name" v="Sundagsvatn" />
		<tag k="natural" v="water" />
		<tag k="ssr:stedsnr" v="61273" />
		<tag k="water" v="lake" />
	</node>
	<node lat="58.702016670843825" lon="7.323969448162471" id="-39925">
		<tag k="alt_name" v="Langevatnet" />
		<tag k="name" v="Langevatn" />
		<tag k="natural" v="water" />
		<tag k="ssr:stedsnr" v="61275" />
	</node>
	<node lat="58.69904999821387" lon="7.2985361098323365" id="-39926">
		<tag k="alt_name" v="Sandvassheia" />
		<tag k="fixme" v="consider natural=peak for the most distinct mountains in the district" />
		<tag k="name" v="Noråre Sandvassheia" />
		<tag k="natural" v="hill" />
		<tag k="place" v="locality" />
		<tag k="ssr:stedsnr" v="61276" />
	</node>
	<node lat="58.724233335416656" lon="7.2459722217317815" id="-39927">
		<tag k="alt_name" v="Storevassloni" />
		<tag k="name" v="Vivassdalstjønnæ" />
		<tag k="natural" v="water" />
		<tag k="ssr:stedsnr" v="61321" />
	</node>
	<node lat="58.84088610836195" lon="7.424016669738461" id="-39928">
		<tag k="alt_name" v="Gluggvardetjørnin" />
		<tag k="name" v="Store Gluggvartjønnæ" />
		<tag k="natural" v="water" />
		<tag k="ssr:stedsnr" v="61383" />
	</node>
	<node lat="58.75726944567544" lon="7.591686110667669" id="-39929">
		<tag k="alt_name" v="Skåretjørni" />
		<tag k="name" v="Skoretjønn" />
		<tag k="natural" v="water" />
		<tag k="ssr:stedsnr" v="61570" />
	</node>
	<node lat="58.75895277922923" lon="7.5066194445114265" id="-39930">
		<tag k="alt_name" v="Svartevatnet" />
		<tag k="name" v="Svartevatn" />
		<tag k="natural" v="water" />
		<tag k="ssr:stedsnr" v="61576" />
	</node>
	<node lat="58.56536666268212" lon="7.466608327923592" id="-39931">
		<tag k="fixme" v="consider place=hamlet" />
		<tag k="name" v="Handeland" />
		<tag k="place" v="farm" />
		<tag k="ssr:stedsnr" v="61796" />
	</node>
	<node lat="58.53918055873941" lon="7.416191665044837" id="-39932">
		<tag k="fixme" v="consider place=hamlet" />
		<tag k="name" v="Kylland" />
		<tag k="place" v="farm" />
		<tag k="ssr:stedsnr" v="61938" />
	</node>
	<node lat="58.539222224337266" lon="7.4297805525106675" id="-39933">
		<tag k="name" v="Surtedalen" />
		<tag k="natural" v="valley" />
		<tag k="place" v="locality" />
		<tag k="ssr:stedsnr" v="61940" />
	</node>
	<node lat="58.61146944813285" lon="7.358005552663707" id="-39934">
		<tag k="alt_name" v="Stemvatnet, heimre" />
		<tag k="name" v="Stemvatn" />
		<tag k="natural" v="water" />
		<tag k="ssr:stedsnr" v="61806" />
	</node>
	<node lat="58.61671944830671" lon="7.381488891981637" id="-39935">
		<tag k="name" v="Sosteli" />
		<tag k="natural" v="slope" />
		<tag k="place" v="locality" />
		<tag k="ssr:stedsnr" v="61812" />
	</node>
	<node lat="58.65843888837787" lon="7.394061111711449" id="-39936">
		<tag k="alt_name" v="Rysegluptjørni" />
		<tag k="name" v="Ryseglupptjønnæ" />
		<tag k="natural" v="water" />
		<tag k="ssr:stedsnr" v="62168" />
	</node>
	<node lat="58.662413884786574" lon="7.406649994482879" id="-39937">
		<tag k="fixme" v="consider place=hamlet" />
		<tag k="name" v="Røysland" />
		<tag k="place" v="farm" />
		<tag k="ssr:stedsnr" v="62171" />
	</node>
	<node lat="58.656452778041555" lon="7.371875006019422" id="-39938">
		<tag k="alt_name" v="Bakmedhurren" />
		<tag k="name" v="Bakmehurren" />
		<tag k="place" v="locality" />
		<tag k="ssr:stedsnr" v="62173" />
	</node>
	<node lat="58.68761944064381" lon="7.307772221544281" id="-39939">
		<tag k="fixme" v="multiple name tags, choose one and add the other to alt_name; consider natural=peak for the most distinct mountains in the district" />
		<tag k="name" v="Dukeberg;Sandvassheia" />
		<tag k="natural" v="hill" />
		<tag k="place" v="locality" />
		<tag k="ssr:stedsnr" v="62284" />
	</node>
	<node lat="58.847077777403754" lon="7.367491672149021" id="-39940">
		<tag k="alt_name" v="Fosstjørn" />
		<tag k="name" v="Fosstjønn" />
		<tag k="natural" v="water" />
		<tag k="ssr:stedsnr" v="62402" />
	</node>
	<node lat="58.80588055589503" lon="7.529530561642246" id="-39941">
		<tag k="fixme" v="consider natural=peak for the most distinct mountains in the district" />
		<tag k="name" v="Gråbuheia" />
		<tag k="natural" v="hill" />
		<tag k="place" v="locality" />
		<tag k="ssr:stedsnr" v="62516" />
	</node>
	<node lat="58.52792500371443" lon="7.495722230115428" id="-39942">
		<tag k="name" v="Lundeheia" />
		<tag k="natural" v="hill" />
		<tag k="place" v="locality" />
		<tag k="ssr:stedsnr" v="62970" />
	</node>
	<node lat="58.52428055400559" lon="7.454244447958726" id="-39943">
		<tag k="fixme" v="consider place=hamlet" />
		<tag k="name" v="Linjord" />
		<tag k="place" v="farm" />
		<tag k="ssr:stedsnr" v="62975" />
	</node>
	<node lat="58.743716665885366" lon="7.547075006906288" id="-39944">
		<tag k="name" v="Røydalen" />
		<tag k="natural" v="valley" />
		<tag k="place" v="locality" />
		<tag k="ssr:stedsnr" v="243035" />
	</node>
	<node lat="58.73664999782273" lon="7.354169440209421" id="-39945">
		<tag k="alt_name" v="Turtefjellet" />
		<tag k="fixme" v="consider natural=peak for the most distinct mountains in the district" />
		<tag k="name" v="Turtefjell" />
		<tag k="natural" v="hill" />
		<tag k="place" v="locality" />
		<tag k="ssr:stedsnr" v="243041" />
	</node>
	<node lat="58.71267222626235" lon="7.489527774146959" id="-39946">
		<tag k="fixme" v="consider place=hamlet" />
		<tag k="name" v="Listøl" />
		<tag k="place" v="farm" />
		<tag k="ssr:stedsnr" v="243004" />
	</node>
	<node lat="58.711686115119804" lon="7.399361108414435" id="-39947">
		<tag k="alt_name" v="Myrløa" />
		<tag k="name" v="Myrløå" />
		<tag k="place" v="isolated_dwelling" />
		<tag k="ssr:stedsnr" v="243009" />
	</node>
	<node lat="58.71619444642014" lon="7.393622223961131" id="-39948">
		<tag k="alt_name" v="Bredlandsvatnet" />
		<tag k="name" v="Brelandsvatnet" />
		<tag k="natural" v="water" />
		<tag k="ssr:stedsnr" v="243015" />
		<tag k="water" v="lake" />
	</node>
	<node lat="58.7349149816916" lon="7.47607123125156" id="-39949">
		<tag k="name" v="Myran" />
		<tag k="place" v="locality" />
		<tag k="ssr:stedsnr" v="243022" />
	</node>
	<node lat="58.64547499845668" lon="7.448608340916347" id="-39950">
		<tag k="fixme" v="consider place=hamlet" />
		<tag k="name" v="Torsland" />
		<tag k="place" v="farm" />
		<tag k="ssr:stedsnr" v="243140" />
	</node>
	<node lat="58.51975555975044" lon="7.317413893688956" id="-39951">
		<tag k="alt_name" v="Sandvatnet" />
		<tag k="name" v="Sandvatn" />
		<tag k="natural" v="water" />
		<tag k="ssr:stedsnr" v="243089" />
	</node>
	<node lat="58.631275001004056" lon="7.3943861161183" id="-39952">
		<tag k="alt_name" v="Gløypen" />
		<tag k="name" v="Glypen" />
		<tag k="place" v="isolated_dwelling" />
		<tag k="ssr:stedsnr" v="243124" />
	</node>
	<node lat="58.68426111186431" lon="7.358461106894867" id="-39953">
		<tag k="alt_name" v="Drittjørni" />
		<tag k="name" v="Drittjønn" />
		<tag k="natural" v="water" />
		<tag k="ssr:stedsnr" v="243193" />
	</node>
	<node lat="58.8031277780507" lon="7.232213888826317" id="-39954">
		<tag k="name" v="Øyvatnet" />
		<tag k="natural" v="water" />
		<tag k="ssr:stedsnr" v="243200" />
		<tag k="water" v="lake" />
	</node>
	<node lat="58.694955553066734" lon="7.468705554228876" id="-39955">
		<tag k="fixme" v="consider place=hamlet" />
		<tag k="name" v="Rosseland" />
		<tag k="place" v="farm" />
		<tag k="ssr:stedsnr" v="243215" />
	</node>
	<node lat="58.72068610864388" lon="7.6022222242740085" id="-39956">
		<tag k="alt_name" v="Linkolltjørni" />
		<tag k="name" v="Linkonntjønnæ" />
		<tag k="natural" v="water" />
		<tag k="ssr:stedsnr" v="243226" />
	</node>
	<node lat="58.698027776811216" lon="7.285108330716758" id="-39957">
		<tag k="alt_name" v="Signestjørni" />
		<tag k="name" v="Signestjønn" />
		<tag k="natural" v="water" />
		<tag k="ssr:stedsnr" v="243278" />
	</node>
	<node lat="58.71475277725184" lon="7.294077775946758" id="-39958">
		<tag k="alt_name" v="Svodvasstjørni, nedre" />
		<tag k="name" v="Ytra Svovasstjønn" />
		<tag k="natural" v="water" />
		<tag k="ssr:stedsnr" v="243283" />
		<tag k="water" v="lake" />
	</node>
	<node lat="58.65886678246748" lon="7.514793996774695" id="-39959">
		<tag k="alt_name" v="Stekroni" />
		<tag k="name" v="Stekronæ" />
		<tag k="place" v="locality" />
		<tag k="ssr:stedsnr" v="243168" />
	</node>
	<node lat="58.74780555514968" lon="7.205580549851948" id="-39960">
		<tag k="alt_name" v="Storevasskardet" />
		<tag k="name" v="Storevasskaret" />
		<tag k="natural" v="valley" />
		<tag k="place" v="locality" />
		<tag k="ssr:stedsnr" v="243315" />
	</node>
	<node lat="58.720639477348286" lon="7.3398166955150295" id="-39961">
		<tag k="alt_name" v="Stikil" />
		<tag k="name" v="Stekil" />
		<tag k="natural" v="water" />
		<tag k="ssr:stedsnr" v="243326" />
		<tag k="water" v="lake" />
	</node>
	<node lat="58.737369442151284" lon="7.2939194416468665" id="-39962">
		<tag k="alt_name" v="Kroktjørni, øvre" />
		<tag k="name" v="Øvre Kroktjønn" />
		<tag k="natural" v="water" />
		<tag k="ssr:stedsnr" v="243332" />
	</node>
	<node lat="58.83062778163466" lon="7.314211111984365" id="-39963">
		<tag k="alt_name" v="Øyvassloni" />
		<tag k="name" v="Øyvasslonæ" />
		<tag k="natural" v="water" />
		<tag k="ssr:stedsnr" v="243360" />
	</node>
	<node lat="58.81177222162057" lon="7.297836103241416" id="-39964">
		<tag k="alt_name" v="Blaugrevvatnet;Blaugrevatnet" />
		<tag k="name" v="Blaugrevatn" />
		<tag k="natural" v="water" />
		<tag k="old_name" v="Blogrevatnet" />
		<tag k="ssr:stedsnr" v="243367" />
		<tag k="water" v="lake" />
	</node>
	<node lat="58.815572223036426" lon="7.3249749992439" id="-39965">
		<tag k="alt_name" v="Velifjell" />
		<tag k="fixme" v="consider natural=peak for the most distinct mountains in the district" />
		<tag k="name" v="Velifjellet" />
		<tag k="natural" v="hill" />
		<tag k="place" v="locality" />
		<tag k="ssr:stedsnr" v="243370" />
	</node>
	<node lat="58.56452777468789" lon="7.302638881812268" id="-39966">
		<tag k="fixme" v="consider natural=peak for the most distinct mountains in the district" />
		<tag k="name" v="Heddersfjellet" />
		<tag k="natural" v="hill" />
		<tag k="place" v="locality" />
		<tag k="ssr:stedsnr" v="243372" />
	</node>
	<node lat="58.77798055616405" lon="7.5529194480918695" id="-39967">
		<tag k="alt_name" v="Lislerjukan" />
		<tag k="name" v="Lisle-Rjukan" />
		<tag k="natural" v="waterfall" />
		<tag k="ssr:stedsnr" v="243560" />
	</node>
	<node lat="58.78156944560545" lon="7.629844444642772" id="-39968">
		<tag k="alt_name" v="Laksetjørni" />
		<tag k="name" v="Laksetjønn" />
		<tag k="natural" v="water" />
		<tag k="ssr:stedsnr" v="243566" />
	</node>
	<node lat="58.59355833463419" lon="7.280383333731224" id="-39969">
		<tag k="alt_name" v="Glypetjønn;Glypetjørni" />
		<tag k="name" v="Glypetjønnæ" />
		<tag k="natural" v="water" />
		<tag k="ssr:stedsnr" v="243413" />
		<tag k="water" v="lake" />
	</node>
	<node lat="58.59965278121983" lon="7.255777774681062" id="-39970">
		<tag k="name" v="Vonavatnet" />
		<tag k="natural" v="water" />
		<tag k="ssr:stedsnr" v="243414" />
		<tag k="water" v="lake" />
	</node>
	<node lat="58.8225472247648" lon="7.517905559249919" id="-39971">
		<tag k="name" v="Juvatn" />
		<tag k="natural" v="water" />
		<tag k="ssr:stedsnr" v="243507" />
		<tag k="water" v="lake" />
	</node>
	<node lat="58.77584444259353" lon="7.405558325075197" id="-39972">
		<tag k="alt_name" v="Bliksvatnet, nedre" />
		<tag k="name" v="Nedre Bliksvatnet" />
		<tag k="natural" v="water" />
		<tag k="ssr:stedsnr" v="243575" />
	</node>
	<node lat="58.590424995975184" lon="7.442711116107393" id="-39973">
		<tag k="fixme" v="consider natural=peak for the most distinct mountains in the district" />
		<tag k="name" v="Vestheia" />
		<tag k="natural" v="hill" />
		<tag k="place" v="locality" />
		<tag k="ssr:stedsnr" v="243764" />
	</node>
	<node lat="58.57263055520978" lon="7.408766674315018" id="-39974">
		<tag k="name" v="Skåldalen" />
		<tag k="natural" v="valley" />
		<tag k="place" v="locality" />
		<tag k="ssr:stedsnr" v="243776" />
	</node>
	<node lat="58.59715555848664" lon="7.5466388963502995" id="-39975">
		<tag k="alt_name" v="Graneliheia" />
		<tag k="fixme" v="consider natural=peak for the most distinct mountains in the district" />
		<tag k="name" v="Vesthaddeheia" />
		<tag k="natural" v="hill" />
		<tag k="place" v="locality" />
		<tag k="ssr:stedsnr" v="243857" />
	</node>
	<node lat="58.53979444646452" lon="7.486730555766208" id="-39976">
		<tag k="alt_name" v="Fosstjørni" />
		<tag k="name" v="Fosstjønn" />
		<tag k="natural" v="water" />
		<tag k="ssr:stedsnr" v="243962" />
	</node>
	<node lat="58.65756388840398" lon="7.277219443883241" id="-39977">
		<tag k="alt_name" v="Øyvatnet" />
		<tag k="name" v="Øyvatn" />
		<tag k="natural" v="water" />
		<tag k="ssr:stedsnr" v="244179" />
		<tag k="water" v="lake" />
	</node>
	<node lat="58.67531666630283" lon="7.336430548130882" id="-39978">
		<tag k="name" v="Solbu" />
		<tag k="place" v="isolated_dwelling" />
		<tag k="ssr:stedsnr" v="244261" />
	</node>
	<node lat="58.85463889061878" lon="7.559788896508304" id="-39979">
		<tag k="name" v="Heddersdalen" />
		<tag k="natural" v="valley" />
		<tag k="place" v="locality" />
		<tag k="ssr:stedsnr" v="244418" />
	</node>
	<node lat="58.7972638922824" lon="7.2664083250009215" id="-39980">
		<tag k="alt_name" v="Kvennevatn;Kvernevatnet" />
		<tag k="name" v="Kvennevatnet" />
		<tag k="natural" v="water" />
		<tag k="ssr:stedsnr" v="244347" />
		<tag k="water" v="lake" />
	</node>
	<node lat="58.78454999898666" lon="7.3368499946627885" id="-39981">
		<tag k="name" v="Faråni" />
		<tag k="ssr:stedsnr" v="244355" />
		<tag k="waterway" v="stream" />
	</node>
	<node lat="58.80236110738162" lon="7.436019439524433" id="-39982">
		<tag k="name" v="Tverrdalen" />
		<tag k="natural" v="valley" />
		<tag k="place" v="locality" />
		<tag k="ssr:stedsnr" v="244557" />
	</node>
	<node lat="58.53242222492251" lon="7.478266667090647" id="-39983">
		<tag k="name" v="Tjovedalen" />
		<tag k="natural" v="valley" />
		<tag k="place" v="locality" />
		<tag k="ssr:stedsnr" v="244965" />
	</node>
	<node lat="58.829666668861584" lon="7.472427776417993" id="-39984">
		<tag k="name" v="Kvitefossliæ" />
		<tag k="natural" v="slope" />
		<tag k="place" v="locality" />
		<tag k="ssr:stedsnr" v="98564" />
	</node>
	<node lat="58.81113055480841" lon="7.449052775027177" id="-39986">
		<tag k="name" v="Grønaliholet" />
		<tag k="natural" v="valley" />
		<tag k="place" v="locality" />
		<tag k="ssr:stedsnr" v="99363" />
	</node>
	<node lat="58.80845832904686" lon="7.488872226780423" id="-39987">
		<tag k="name" v="Grønaliæ" />
		<tag k="natural" v="slope" />
		<tag k="place" v="locality" />
		<tag k="ssr:stedsnr" v="99368" />
	</node>
	<node lat="58.81209444108266" lon="7.484936106258961" id="-39988">
		<tag k="name" v="Storamyræ" />
		<tag k="natural" v="wetland" />
		<tag k="ssr:stedsnr" v="99373" />
	</node>
	<node lat="58.82173333171907" lon="7.470299992659645" id="-39989">
		<tag k="name" v="Samlagslåttå" />
		<tag k="natural" v="wetland" />
		<tag k="ssr:stedsnr" v="99509" />
	</node>
	<node lat="58.827741664470864" lon="7.484666670441298" id="-39990">
		<tag k="name" v="Kronæ" />
		<tag k="natural" v="valley" />
		<tag k="place" v="locality" />
		<tag k="ssr:stedsnr" v="99564" />
	</node>
	<node lat="58.83231389261607" lon="7.454575001279917" id="-39991">
		<tag k="name" v="Kvitvasshommen" />
		<tag k="natural" v="valley" />
		<tag k="place" v="locality" />
		<tag k="ssr:stedsnr" v="99578" />
	</node>
	<node lat="58.84742778033611" lon="7.416541673894686" id="-39992">
		<tag k="name" v="Fjellvassdalen" />
		<tag k="natural" v="valley" />
		<tag k="place" v="locality" />
		<tag k="ssr:stedsnr" v="99713" />
	</node>
	<node lat="58.85158055829764" lon="7.42042776939051" id="-39993">
		<tag k="name" v="Flåheia" />
		<tag k="natural" v="hill" />
		<tag k="place" v="locality" />
		<tag k="ssr:stedsnr" v="99714" />
	</node>
	<node lat="58.875530559229546" lon="7.453133334422574" id="-39994">
		<tag k="name" v="Nordre Finndalen" />
		<tag k="natural" v="valley" />
		<tag k="place" v="locality" />
		<tag k="ssr:stedsnr" v="99819" />
	</node>
	<node lat="58.55860833395301" lon="7.341791660961006" id="-39995">
		<tag k="name" v="Finndalen" />
		<tag k="natural" v="valley" />
		<tag k="place" v="locality" />
		<tag k="ssr:stedsnr" v="103126" />
	</node>
	<node lat="58.69542777626933" lon="7.6104666721935645" id="-39996">
		<tag k="name" v="Nedre Ormehommen" />
		<tag k="natural" v="valley" />
		<tag k="place" v="locality" />
		<tag k="ssr:stedsnr" v="103214" />
	</node>
	<node lat="58.694952774134045" lon="7.5381249958462355" id="-39997">
		<tag k="name" v="Unne Gomosfjellet" />
		<tag k="natural" v="valley" />
		<tag k="place" v="locality" />
		<tag k="ssr:stedsnr" v="103222" />
	</node>
	<node lat="58.82784444517703" lon="7.333774999203674" id="-39998">
		<tag k="name" v="Øyvasslønan" />
		<tag k="natural" v="water" />
		<tag k="ssr:stedsnr" v="103224" />
	</node>
	<node lat="58.69686666945022" lon="7.551980551254607" id="-39999">
		<tag k="name" v="Bjønnshombergjæ" />
		<tag k="natural" v="hill" />
		<tag k="place" v="locality" />
		<tag k="ssr:stedsnr" v="103225" />
	</node>
	<node lat="58.558872226435" lon="7.2966861074168445" id="-40000">
		<tag k="name" v="Skutetjønnæ" />
		<tag k="natural" v="water" />
		<tag k="ssr:stedsnr" v="103378" />
	</node>
	<node lat="58.56032778184121" lon="7.318288886609895" id="-40001">
		<tag k="name" v="Lonehommen" />
		<tag k="natural" v="valley" />
		<tag k="place" v="locality" />
		<tag k="ssr:stedsnr" v="103424" />
	</node>
	<node lat="58.626147225851234" lon="7.470477782558328" id="-40002">
		<tag k="name" v="Stupen" />
		<tag k="natural" v="waterfall" />
		<tag k="ssr:stedsnr" v="103479" />
	</node>
	<node lat="58.624261107685" lon="7.470441666406022" id="-40003">
		<tag k="name" v="Holun" />
		<tag k="place" v="locality" />
		<tag k="ssr:stedsnr" v="103480" />
	</node>
	<node lat="58.62806944010339" lon="7.500122215848706" id="-40004">
		<tag k="name" v="Hakkeheiskaret" />
		<tag k="natural" v="valley" />
		<tag k="place" v="locality" />
		<tag k="ssr:stedsnr" v="103483" />
	</node>
	<node lat="58.63070000215299" lon="7.527705559602119" id="-40005">
		<tag k="name" v="Saurtjønn" />
		<tag k="natural" v="water" />
		<tag k="ssr:stedsnr" v="103491" />
	</node>
	<node lat="58.76198332980581" lon="7.3329027696153295" id="-40006">
		<tag k="name" v="Sirisøygardstjønnæ" />
		<tag k="natural" v="water" />
		<tag k="ssr:stedsnr" v="103903" />
	</node>
	<node lat="58.766499996729394" lon="7.3232083295194705" id="-40007">
		<tag k="name" v="Padan" />
		<tag k="place" v="locality" />
		<tag k="ssr:stedsnr" v="103909" />
	</node>
	<node lat="58.76844722133779" lon="7.397161103648911" id="-40008">
		<tag k="name" v="Budalen" />
		<tag k="natural" v="valley" />
		<tag k="place" v="locality" />
		<tag k="ssr:stedsnr" v="103916" />
	</node>
	<node lat="58.78504444701238" lon="7.337911110353809" id="-40009">
		<tag k="name" v="Millikleivæ" />
		<tag k="natural" v="slope" />
		<tag k="place" v="locality" />
		<tag k="ssr:stedsnr" v="103887" />
	</node>
	<node lat="58.78635000317892" lon="7.343733341204189" id="-40010">
		<tag k="name" v="Kålgarslettæ" />
		<tag k="place" v="locality" />
		<tag k="ssr:stedsnr" v="103890" />
	</node>
	<node lat="58.779058335523736" lon="7.3581305535403665" id="-40011">
		<tag k="name" v="Geitesøkkjå" />
		<tag k="natural" v="valley" />
		<tag k="place" v="locality" />
		<tag k="ssr:stedsnr" v="103895" />
	</node>
	<node lat="58.78494721871456" lon="7.385622220209556" id="-40012">
		<tag k="name" v="Langetjønn" />
		<tag k="natural" v="water" />
		<tag k="ssr:stedsnr" v="103900" />
	</node>
	<node lat="58.70724444622127" lon="7.4726777806985085" id="-40013">
		<tag k="name" v="Ellhedderen" />
		<tag k="place" v="locality" />
		<tag k="ssr:stedsnr" v="104006" />
	</node>
	<node lat="58.570658330871616" lon="7.541913893484652" id="-40014">
		<tag k="name" v="Sutestad" />
		<tag k="natural" v="valley" />
		<tag k="place" v="locality" />
		<tag k="ssr:stedsnr" v="104008" />
	</node>
	<node lat="58.56937777908898" lon="7.549250004035017" id="-40015">
		<tag k="name" v="Stinemyrjotun" />
		<tag k="natural" v="valley" />
		<tag k="place" v="locality" />
		<tag k="ssr:stedsnr" v="104011" />
	</node>
	<node lat="58.572161115594824" lon="7.534333333332523" id="-40016">
		<tag k="name" v="Storeli" />
		<tag k="natural" v="slope" />
		<tag k="place" v="locality" />
		<tag k="ssr:stedsnr" v="104015" />
	</node>
	<node lat="58.76865832951368" lon="7.541719448149164" id="-40017">
		<tag k="name" v="Hageland" />
		<tag k="place" v="locality" />
		<tag k="ssr:stedsnr" v="104018" />
	</node>
	<node lat="58.75773333113139" lon="7.55411388643918" id="-40018">
		<tag k="name" v="Koddemyræ" />
		<tag k="natural" v="wetland" />
		<tag k="ssr:stedsnr" v="104025" />
	</node>
	<node lat="58.600083330391776" lon="7.550611109164464" id="-40019">
		<tag k="name" v="Eiketønan" />
		<tag k="place" v="locality" />
		<tag k="ssr:stedsnr" v="104183" />
	</node>
	<node lat="58.75370000071048" lon="7.5622777857853105" id="-40020">
		<tag k="name" v="Kleivansbakka" />
		<tag k="natural" v="hill" />
		<tag k="place" v="locality" />
		<tag k="ssr:stedsnr" v="104124" />
	</node>
	<node lat="58.719508334477666" lon="7.60028333944801" id="-40021">
		<tag k="name" v="Linkonnkvæven" />
		<tag k="natural" v="valley" />
		<tag k="place" v="locality" />
		<tag k="ssr:stedsnr" v="104125" />
	</node>
	<node lat="58.730588889258556" lon="7.58473611383497" id="-40022">
		<tag k="name" v="Hålsan" />
		<tag k="natural" v="ridge" />
		<tag k="place" v="locality" />
		<tag k="ssr:stedsnr" v="104134" />
	</node>
	<node lat="58.61251389049687" lon="7.495286109923453" id="-40023">
		<tag k="name" v="Bjørkelia" />
		<tag k="natural" v="slope" />
		<tag k="place" v="locality" />
		<tag k="ssr:stedsnr" v="104303" />
	</node>
	<node lat="58.670886113962716" lon="7.448224997901358" id="-40024">
		<tag k="name" v="Nørlifjellet" />
		<tag k="natural" v="cliff" />
		<tag k="ssr:stedsnr" v="104305" />
	</node>
	<node lat="58.60124999656925" lon="7.489466665910662" id="-40025">
		<tag k="name" v="Syrdalen" />
		<tag k="natural" v="valley" />
		<tag k="place" v="locality" />
		<tag k="ssr:stedsnr" v="104306" />
	</node>
	<node lat="58.74174721991252" lon="7.451847215436431" id="-40026">
		<tag k="name" v="Vardeheia" />
		<tag k="natural" v="hill" />
		<tag k="place" v="locality" />
		<tag k="ssr:stedsnr" v="104223" />
	</node>
	<node lat="58.59990555774083" lon="7.4521249930489155" id="-40027">
		<tag k="name" v="Brokkestaven" />
		<tag k="place" v="locality" />
		<tag k="ssr:stedsnr" v="104225" />
	</node>
	<node lat="58.597638891518976" lon="7.422155554953285" id="-40028">
		<tag k="name" v="Langamyra" />
		<tag k="natural" v="wetland" />
		<tag k="ssr:stedsnr" v="104231" />
	</node>
	<node lat="58.739758335375086" lon="7.646486112871301" id="-40029">
		<tag k="name" v="Knutsliøygard" />
		<tag k="natural" v="valley" />
		<tag k="place" v="locality" />
		<tag k="ssr:stedsnr" v="104276" />
	</node>
	<node lat="58.79048055796236" lon="7.493108338315776" id="-40030">
		<tag k="name" v="Tjaldalsåne" />
		<tag k="ssr:stedsnr" v="104284" />
		<tag k="waterway" v="river" />
	</node>
	<node lat="58.74341388863939" lon="7.513522224193417" id="-40031">
		<tag k="name" v="Hesteberget" />
		<tag k="natural" v="cape" />
		<tag k="ssr:stedsnr" v="104294" />
	</node>
	<node lat="58.73109999773766" lon="7.508791659679069" id="-40032">
		<tag k="name" v="Hesthomreet" />
		<tag k="natural" v="ridge" />
		<tag k="place" v="locality" />
		<tag k="ssr:stedsnr" v="104296" />
	</node>
	<node lat="58.60926944106138" lon="7.488230558628285" id="-40033">
		<tag k="name" v="Andresholon" />
		<tag k="natural" v="valley" />
		<tag k="place" v="locality" />
		<tag k="ssr:stedsnr" v="104299" />
	</node>
	<node lat="58.63244444074011" lon="7.443644438402179" id="-40034">
		<tag k="name" v="Vedalsknodden" />
		<tag k="natural" v="hill" />
		<tag k="place" v="locality" />
		<tag k="ssr:stedsnr" v="104404" />
	</node>
	<node lat="58.656927773820456" lon="7.5095388873562845" id="-40035">
		<tag k="name" v="Ekjemonøygard" />
		<tag k="place" v="locality" />
		<tag k="ssr:stedsnr" v="104417" />
	</node>
	<node lat="58.63943889070745" lon="7.323947228086149" id="-40036">
		<tag k="name" v="Glyvredalen" />
		<tag k="natural" v="valley" />
		<tag k="place" v="locality" />
		<tag k="ssr:stedsnr" v="104423" />
	</node>
	<node lat="58.63928611234513" lon="7.313205556366759" id="-40037">
		<tag k="name" v="Krokånæ" />
		<tag k="ssr:stedsnr" v="104424" />
		<tag k="waterway" v="river" />
	</node>
	<node lat="58.63609384161087" lon="7.29944449460369" id="-40038">
		<tag k="name" v="Dalestrokjet" />
		<tag k="natural" v="slope" />
		<tag k="place" v="locality" />
		<tag k="ssr:stedsnr" v="104425" />
	</node>
	<node lat="58.66785000032636" lon="7.4107000000950185" id="-40039">
		<tag k="name" v="Bortedalsmyræ" />
		<tag k="natural" v="wetland" />
		<tag k="ssr:stedsnr" v="104324" />
	</node>
	<node lat="58.670616669791876" lon="7.402366673815778" id="-40040">
		<tag k="name" v="Røyslandsbekken" />
		<tag k="ssr:stedsnr" v="104327" />
		<tag k="waterway" v="stream" />
	</node>
	<node lat="58.62565277876444" lon="7.302161114663318" id="-40041">
		<tag k="name" v="Hanseshommen" />
		<tag k="natural" v="valley" />
		<tag k="place" v="locality" />
		<tag k="ssr:stedsnr" v="104378" />
	</node>
	<node lat="58.62598333596695" lon="7.361022221366511" id="-40042">
		<tag k="name" v="Merretjønn" />
		<tag k="natural" v="water" />
		<tag k="ssr:stedsnr" v="104399" />
	</node>
	<node lat="58.65402222195523" lon="7.405522230740913" id="-40043">
		<tag k="name" v="Hestneset" />
		<tag k="place" v="locality" />
		<tag k="ssr:stedsnr" v="104505" />
	</node>
	<node lat="58.64093333432218" lon="7.474241671605535" id="-40044">
		<tag k="name" v="Løyningskaret" />
		<tag k="natural" v="valley" />
		<tag k="place" v="locality" />
		<tag k="ssr:stedsnr" v="104506" />
	</node>
	<node lat="58.734602781746474" lon="7.195113887845471" id="-40045">
		<tag k="name" v="Reinstjønn" />
		<tag k="natural" v="water" />
		<tag k="ssr:stedsnr" v="104623" />
	</node>
	<node lat="58.63939444823866" lon="7.207386104761181" id="-40046">
		<tag k="name" v="Smalavassosen" />
		<tag k="natural" v="bay" />
		<tag k="ssr:stedsnr" v="104685" />
	</node>
	<node lat="58.55551388811186" lon="7.295569435913739" id="-40047">
		<tag k="name" v="Heddaren" />
		<tag k="place" v="locality" />
		<tag k="ssr:stedsnr" v="104804" />
	</node>
	<node lat="58.52793610750297" lon="7.4325527723619285" id="-40048">
		<tag k="name" v="Geitestien" />
		<tag k="natural" v="slope" />
		<tag k="place" v="locality" />
		<tag k="ssr:stedsnr" v="104807" />
	</node>
	<node lat="58.52206388898693" lon="7.435869439643409" id="-40049">
		<tag k="name" v="Svinekleiv" />
		<tag k="natural" v="slope" />
		<tag k="place" v="locality" />
		<tag k="ssr:stedsnr" v="104808" />
	</node>
	<node lat="58.5287138871934" lon="7.427141674587318" id="-40050">
		<tag k="name" v="Gunnårsvika" />
		<tag k="natural" v="bay" />
		<tag k="ssr:stedsnr" v="104814" />
	</node>
	<node lat="58.67319999944064" lon="7.238852781247689" id="-40051">
		<tag k="name" v="Bråtebu" />
		<tag k="natural" v="slope" />
		<tag k="place" v="locality" />
		<tag k="ssr:stedsnr" v="104727" />
	</node>
	<node lat="58.554247159183106" lon="7.283149219616356" id="-40052">
		<tag k="name" v="Knupen" />
		<tag k="place" v="locality" />
		<tag k="ssr:stedsnr" v="104791" />
	</node>
	<node lat="58.53389999974025" lon="7.3706861185578" id="-40053">
		<tag k="name" v="Langemyr" />
		<tag k="natural" v="wetland" />
		<tag k="ssr:stedsnr" v="104904" />
	</node>
	<node lat="58.713991670142505" lon="7.4632499971725395" id="-40054">
		<tag k="name" v="Hallingdalen" />
		<tag k="natural" v="valley" />
		<tag k="place" v="locality" />
		<tag k="ssr:stedsnr" v="104905" />
	</node>
	<node lat="58.71243055472974" lon="7.4684499965394116" id="-40055">
		<tag k="name" v="Storlifjellet" />
		<tag k="natural" v="cliff" />
		<tag k="ssr:stedsnr" v="104911" />
	</node>
	<node lat="58.519186107738506" lon="7.382127780366988" id="-40056">
		<tag k="name" v="Bjønneholet" />
		<tag k="place" v="locality" />
		<tag k="ssr:stedsnr" v="104912" />
	</node>
	<node lat="58.71313055248719" lon="7.500183341317848" id="-40057">
		<tag k="name" v="Dyplan" />
		<tag k="natural" v="wetland" />
		<tag k="ssr:stedsnr" v="104913" />
	</node>
	<node lat="58.526146378806594" lon="7.355749829182155" id="-40058">
		<tag k="name" v="Kvennhusstøa" />
		<tag k="natural" v="bay" />
		<tag k="ssr:stedsnr" v="104914" />
	</node>
	<node lat="58.515570115252906" lon="7.382143060079763" id="-40059">
		<tag k="name" v="Bjorli" />
		<tag k="natural" v="slope" />
		<tag k="place" v="locality" />
		<tag k="ssr:stedsnr" v="104928" />
	</node>
	<node lat="58.53132167244808" lon="7.441991193376838" id="-40060">
		<tag k="name" v="Apaldalen" />
		<tag k="natural" v="valley" />
		<tag k="place" v="locality" />
		<tag k="ssr:stedsnr" v="104929" />
	</node>
	<node lat="58.71889166537829" lon="7.5156333260722645" id="-40061">
		<tag k="name" v="Bruneheia" />
		<tag k="natural" v="hill" />
		<tag k="place" v="locality" />
		<tag k="ssr:stedsnr" v="104932" />
	</node>
	<node lat="58.724630557854276" lon="7.402841659735499" id="-40062">
		<tag k="name" v="Dalbubekken" />
		<tag k="ssr:stedsnr" v="104973" />
		<tag k="waterway" v="stream" />
	</node>
	<node lat="58.54231388716391" lon="7.431611115054676" id="-40063">
		<tag k="name" v="Smååsan" />
		<tag k="natural" v="ridge" />
		<tag k="place" v="locality" />
		<tag k="ssr:stedsnr" v="104974" />
	</node>
	<node lat="58.54822222305931" lon="7.465991664812427" id="-40064">
		<tag k="name" v="Småøygardan" />
		<tag k="natural" v="wetland" />
		<tag k="ssr:stedsnr" v="104881" />
	</node>
	<node lat="58.521636111158216" lon="7.359558331315923" id="-40065">
		<tag k="name" v="Bjorvikknodden" />
		<tag k="natural" v="hill" />
		<tag k="place" v="locality" />
		<tag k="ssr:stedsnr" v="105185" />
	</node>
	<node lat="58.695858331778325" lon="7.471480553268179" id="-40066">
		<tag k="bridge" v="yes" />
		<tag k="layer" v="1" />
		<tag k="name" v="Kvernbekk" />
		<tag k="ssr:stedsnr" v="107012" />
	</node>
	<node lat="58.740633332017985" lon="7.51002499832974" id="-40067">
		<tag k="bridge" v="yes" />
		<tag k="layer" v="1" />
		<tag k="name" v="Røyneli bru" />
		<tag k="ssr:stedsnr" v="107015" />
	</node>
	<node lat="58.780297222352715" lon="7.48035278515777" id="-40068">
		<tag k="historic" v="shieling" />
		<tag k="name" v="Hurraheia" />
		<tag k="place" v="isolated_dwelling" />
		<tag k="ssr:stedsnr" v="116813" />
	</node>
	<node lat="58.72507499875923" lon="7.5932527735588415" id="-40069">
		<tag k="fixme" v="consider natural=peak for the most distinct mountains in the district" />
		<tag k="name" v="Nordheia" />
		<tag k="natural" v="hill" />
		<tag k="place" v="locality" />
		<tag k="ssr:stedsnr" v="121024" />
	</node>
	<node lat="58.743322221820414" lon="7.436788894634857" id="-40070">
		<tag k="name" v="Bliksdalen" />
		<tag k="natural" v="valley" />
		<tag k="place" v="locality" />
		<tag k="ssr:stedsnr" v="121067" />
	</node>
	<node lat="58.660413886659356" lon="7.495494443481274" id="-40071">
		<tag k="alt_name" v="Sveigsvatnet, heimste" />
		<tag k="name" v="Heimra Sveigsvatn" />
		<tag k="natural" v="water" />
		<tag k="ssr:stedsnr" v="121180" />
	</node>
	<node lat="58.61626666554174" lon="7.39914166684642" id="-40072">
		<tag k="fixme" v="consider natural=peak for the most distinct mountains in the district" />
		<tag k="name" v="Åsen" />
		<tag k="natural" v="hill" />
		<tag k="place" v="locality" />
		<tag k="ssr:stedsnr" v="122121" />
	</node>
	<node lat="58.59886944617134" lon="7.363519440376773" id="-40073">
		<tag k="name" v="Kåbekkvatnet" />
		<tag k="natural" v="water" />
		<tag k="ssr:stedsnr" v="121872" />
	</node>
	<node lat="58.71816110768484" lon="7.533136116804116" id="-40074">
		<tag k="name" v="Fyrstøllibekken" />
		<tag k="ssr:stedsnr" v="122003" />
		<tag k="waterway" v="stream" />
	</node>
	<node lat="58.683680551359345" lon="7.235111102892229" id="-40075">
		<tag k="alt_name" v="Breidslettheia" />
		<tag k="fixme" v="consider natural=peak for the most distinct mountains in the district" />
		<tag k="name" v="Breislettheia" />
		<tag k="natural" v="hill" />
		<tag k="place" v="locality" />
		<tag k="ssr:stedsnr" v="122322" />
	</node>
	<node lat="58.78595555274008" lon="7.448127774792447" id="-40076">
		<tag k="name" v="Tjaldalshommen" />
		<tag k="natural" v="valley" />
		<tag k="place" v="locality" />
		<tag k="ssr:stedsnr" v="122511" />
	</node>
	<node lat="58.78406944685217" lon="7.503694436506646" id="-40077">
		<tag k="name" v="Tjaldalsvatnet" />
		<tag k="natural" v="water" />
		<tag k="ssr:stedsnr" v="122514" />
		<tag k="water" v="lake" />
	</node>
	<node lat="58.783700000640074" lon="7.365063896284373" id="-40078">
		<tag k="alt_name" v="Logndalen" />
		<tag k="name" v="Longdalen" />
		<tag k="natural" v="valley" />
		<tag k="place" v="locality" />
		<tag k="ssr:stedsnr" v="122524" />
	</node>
	<node lat="58.51331944891375" lon="7.380477778733455" id="-40079">
		<tag k="name" v="Staven" />
		<tag k="natural" v="hill" />
		<tag k="place" v="locality" />
		<tag k="ssr:stedsnr" v="158218" />
	</node>
	<node lat="58.79841666501175" lon="7.4369583392734935" id="-40080">
		<tag k="name" v="Hustabben" />
		<tag k="natural" v="hill" />
		<tag k="place" v="locality" />
		<tag k="ssr:stedsnr" v="159355" />
	</node>
	<node lat="58.81707777722717" lon="7.449549993427154" id="-40081">
		<tag k="name" v="Kringlemyræ" />
		<tag k="natural" v="wetland" />
		<tag k="ssr:stedsnr" v="159599" />
	</node>
	<node lat="58.65957778041294" lon="7.383244438018222" id="-40082">
		<tag k="name" v="Langedalen" />
		<tag k="natural" v="valley" />
		<tag k="place" v="locality" />
		<tag k="ssr:stedsnr" v="163267" />
	</node>
	<node lat="58.768708334996184" lon="7.442766665997104" id="-40083">
		<tag k="name" v="Kilen" />
		<tag k="natural" v="bay" />
		<tag k="ssr:stedsnr" v="163973" />
	</node>
	<node lat="58.763144441739605" lon="7.433549993800183" id="-40084">
		<tag k="name" v="Ekserdalen" />
		<tag k="natural" v="valley" />
		<tag k="place" v="locality" />
		<tag k="ssr:stedsnr" v="163975" />
	</node>
	<node lat="58.72179444761836" lon="7.615972217851353" id="-40085">
		<tag k="name" v="Sirishomtjønnæ" />
		<tag k="natural" v="water" />
		<tag k="ssr:stedsnr" v="164103" />
	</node>
	<node lat="58.56929166647477" lon="7.443800003008794" id="-40086">
		<tag k="name" v="Storehom" />
		<tag k="natural" v="valley" />
		<tag k="place" v="locality" />
		<tag k="ssr:stedsnr" v="164109" />
	</node>
	<node lat="58.57295277728556" lon="7.426530556108661" id="-40087">
		<tag k="name" v="Hestehoven" />
		<tag k="natural" v="valley" />
		<tag k="place" v="locality" />
		<tag k="ssr:stedsnr" v="164112" />
	</node>
	<node lat="58.76097777801512" lon="7.596180548171142" id="-40088">
		<tag k="name" v="Hottan" />
		<tag k="natural" v="hill" />
		<tag k="place" v="locality" />
		<tag k="ssr:stedsnr" v="164126" />
	</node>
	<node lat="58.671638890311556" lon="7.31794999957483" id="-40089">
		<tag k="name" v="Stean" />
		<tag k="place" v="locality" />
		<tag k="ssr:stedsnr" v="164160" />
	</node>
	<node lat="58.7481833294659" lon="7.428105547103021" id="-40090">
		<tag k="name" v="Høgaskarknuten" />
		<tag k="natural" v="hill" />
		<tag k="place" v="locality" />
		<tag k="ssr:stedsnr" v="164163" />
	</node>
	<node lat="58.75050000201621" lon="7.419783336004166" id="-40091">
		<tag k="name" v="Blikksdalsfjellet" />
		<tag k="natural" v="cliff" />
		<tag k="ssr:stedsnr" v="164164" />
	</node>
	<node lat="58.77256944619889" lon="7.280672217796856" id="-40092">
		<tag k="name" v="Krokvasslønan" />
		<tag k="natural" v="water" />
		<tag k="ssr:stedsnr" v="163877" />
		<tag k="water" v="lake" />
	</node>
	<node lat="58.77375555985437" lon="7.567488882362737" id="-40093">
		<tag k="name" v="Nedre Støknuten" />
		<tag k="natural" v="hill" />
		<tag k="place" v="locality" />
		<tag k="ssr:stedsnr" v="164002" />
	</node>
	<node lat="58.766591668611625" lon="7.577647221058495" id="-40094">
		<tag k="name" v="Øvre Telemarsdalen" />
		<tag k="natural" v="valley" />
		<tag k="place" v="locality" />
		<tag k="ssr:stedsnr" v="164005" />
	</node>
	<node lat="58.703080553172164" lon="7.467833326088792" id="-40095">
		<tag k="name" v="Tjannin" />
		<tag k="natural" v="valley" />
		<tag k="place" v="locality" />
		<tag k="ssr:stedsnr" v="164006" />
	</node>
	<node lat="58.577638886411535" lon="7.55888332798831" id="-40096">
		<tag k="name" v="Fottjønn" />
		<tag k="natural" v="water" />
		<tag k="ssr:stedsnr" v="164010" />
	</node>
	<node lat="58.57956110844557" lon="7.553527778334468" id="-40097">
		<tag k="name" v="Øya" />
		<tag k="place" v="islet" />
		<tag k="ssr:stedsnr" v="164012" />
	</node>
	<node lat="58.76224166735942" lon="7.550272214898958" id="-40098">
		<tag k="name" v="Jæråliæ" />
		<tag k="natural" v="slope" />
		<tag k="place" v="locality" />
		<tag k="ssr:stedsnr" v="164018" />
	</node>
	<node lat="58.697513893305064" lon="7.40695556078095" id="-40099">
		<tag k="name" v="Oseliæ" />
		<tag k="natural" v="slope" />
		<tag k="place" v="locality" />
		<tag k="ssr:stedsnr" v="164019" />
	</node>
	<node lat="58.69734166763779" lon="7.410305552462995" id="-40100">
		<tag k="name" v="Osefjellet" />
		<tag k="natural" v="cliff" />
		<tag k="ssr:stedsnr" v="164020" />
	</node>
	<node lat="58.75784166793393" lon="7.5257749920240045" id="-40101">
		<tag k="name" v="Strondæ" />
		<tag k="natural" v="slope" />
		<tag k="place" v="locality" />
		<tag k="ssr:stedsnr" v="164024" />
	</node>
	<node lat="58.7067138903089" lon="7.4366305486196635" id="-40102">
		<tag k="name" v="Vardalen" />
		<tag k="natural" v="valley" />
		<tag k="place" v="locality" />
		<tag k="ssr:stedsnr" v="164026" />
	</node>
	<node lat="58.70714722336518" lon="7.411738882741281" id="-40103">
		<tag k="name" v="Furhommen" />
		<tag k="natural" v="valley" />
		<tag k="place" v="locality" />
		<tag k="ssr:stedsnr" v="164028" />
	</node>
	<node lat="58.75304722125831" lon="7.4979750037551085" id="-40104">
		<tag k="name" v="Runnaskaret" />
		<tag k="natural" v="valley" />
		<tag k="place" v="locality" />
		<tag k="ssr:stedsnr" v="164066" />
	</node>
	<node lat="58.76479721847471" lon="7.614311112016897" id="-40105">
		<tag k="name" v="Kvæven" />
		<tag k="natural" v="valley" />
		<tag k="place" v="locality" />
		<tag k="ssr:stedsnr" v="164075" />
	</node>
	<node lat="58.705972221301714" lon="7.385011111508505" id="-40106">
		<tag k="name" v="Ormetjønn" />
		<tag k="natural" v="water" />
		<tag k="ssr:stedsnr" v="164076" />
	</node>
	<node lat="58.560163892232765" lon="7.438030557797584" id="-40107">
		<tag k="name" v="Troddedalen" />
		<tag k="natural" v="valley" />
		<tag k="place" v="locality" />
		<tag k="ssr:stedsnr" v="164081" />
	</node>
	<node lat="58.735391669731605" lon="7.397547223750176" id="-40108">
		<tag k="name" v="Storaberget" />
		<tag k="natural" v="slope" />
		<tag k="place" v="locality" />
		<tag k="ssr:stedsnr" v="164302" />
	</node>
	<node lat="58.60653611352834" lon="7.549047215615161" id="-40109">
		<tag k="name" v="Hundhusfjellet" />
		<tag k="natural" v="cliff" />
		<tag k="ssr:stedsnr" v="164308" />
	</node>
	<node lat="58.65364444046391" lon="7.30273889705522" id="-40110">
		<tag k="name" v="Dapen" />
		<tag k="place" v="locality" />
		<tag k="ssr:stedsnr" v="164310" />
	</node>
	<node lat="58.73530277789549" lon="7.580586114073975" id="-40111">
		<tag k="name" v="Fantestaven" />
		<tag k="place" v="locality" />
		<tag k="ssr:stedsnr" v="164313" />
	</node>
	<node lat="58.797286115365715" lon="7.332955552365157" id="-40112">
		<tag k="name" v="Brattaberget" />
		<tag k="natural" v="cliff" />
		<tag k="ssr:stedsnr" v="164317" />
	</node>
	<node lat="58.60347221943485" lon="7.505597214426402" id="-40113">
		<tag k="name" v="Gogledalen" />
		<tag k="natural" v="valley" />
		<tag k="place" v="locality" />
		<tag k="ssr:stedsnr" v="164320" />
	</node>
	<node lat="58.74189722176614" lon="7.64673332864782" id="-40114">
		<tag k="name" v="Knutslidalen" />
		<tag k="natural" v="valley" />
		<tag k="place" v="locality" />
		<tag k="ssr:stedsnr" v="164321" />
	</node>
	<node lat="58.7946833313417" lon="7.32108333538186" id="-40115">
		<tag k="name" v="Kvennevassbotnen" />
		<tag k="natural" v="valley" />
		<tag k="place" v="locality" />
		<tag k="ssr:stedsnr" v="164322" />
	</node>
	<node lat="58.60792222361885" lon="7.559077773081679" id="-40116">
		<tag k="name" v="Knuten" />
		<tag k="natural" v="hill" />
		<tag k="place" v="locality" />
		<tag k="ssr:stedsnr" v="164360" />
	</node>
	<node lat="58.74708333472149" lon="7.563558340561472" id="-40117">
		<tag k="name" v="Nosmannsholå" />
		<tag k="natural" v="wetland" />
		<tag k="ssr:stedsnr" v="164361" />
	</node>
	<node lat="58.747747222974475" lon="7.590747214668877" id="-40118">
		<tag k="ford" v="yes" />
		<tag k="name" v="Heimre Bergeva" />
		<tag k="place" v="locality" />
		<tag k="ssr:stedsnr" v="164364" />
	</node>
	<node lat="58.738547222349894" lon="7.598333340975593" id="-40119">
		<tag k="name" v="Elgstjønn" />
		<tag k="natural" v="water" />
		<tag k="ssr:stedsnr" v="164372" />
	</node>
	<node lat="58.610125003782166" lon="7.414791666385455" id="-40120">
		<tag k="name" v="Joneset" />
		<tag k="natural" v="cape" />
		<tag k="ssr:stedsnr" v="164374" />
	</node>
	<node lat="58.60448055947164" lon="7.295955560065277" id="-40121">
		<tag k="name" v="Øvre Hommeheia" />
		<tag k="natural" v="hill" />
		<tag k="place" v="locality" />
		<tag k="ssr:stedsnr" v="164502" />
	</node>
	<node lat="58.74040277477276" lon="7.469197214890321" id="-40122">
		<tag k="name" v="Ballingdalen" />
		<tag k="natural" v="valley" />
		<tag k="place" v="locality" />
		<tag k="ssr:stedsnr" v="164262" />
	</node>
	<node lat="58.703300002519974" lon="7.529452779613705" id="-40123">
		<tag k="name" v="Lonefjellet" />
		<tag k="natural" v="cliff" />
		<tag k="ssr:stedsnr" v="164269" />
	</node>
	<node lat="58.594966666114345" lon="7.422555551736739" id="-40124">
		<tag k="name" v="Tjovebua" />
		<tag k="place" v="locality" />
		<tag k="ssr:stedsnr" v="164270" />
	</node>
	<node lat="58.821108336405054" lon="7.3668194422660225" id="-40125">
		<tag k="name" v="Møddumupsen" />
		<tag k="natural" v="cliff" />
		<tag k="ssr:stedsnr" v="164271" />
	</node>
	<node lat="58.7455916706393" lon="7.464294441807663" id="-40126">
		<tag k="name" v="Taggdalen" />
		<tag k="natural" v="valley" />
		<tag k="place" v="locality" />
		<tag k="ssr:stedsnr" v="164275" />
	</node>
	<node lat="58.69695000408269" lon="7.507874992361292" id="-40127">
		<tag k="name" v="Kålvetjønnreet" />
		<tag k="natural" v="ridge" />
		<tag k="place" v="locality" />
		<tag k="ssr:stedsnr" v="164276" />
	</node>
	<node lat="58.67541388458513" lon="7.459513884568269" id="-40128">
		<tag k="name" v="Ytra Likførbrotet" />
		<tag k="natural" v="slope" />
		<tag k="place" v="locality" />
		<tag k="ssr:stedsnr" v="164405" />
	</node>
	<node lat="58.612391666687856" lon="7.4047638837097" id="-40129">
		<tag k="name" v="Hundeset" />
		<tag k="place" v="locality" />
		<tag k="ssr:stedsnr" v="164412" />
	</node>
	<node lat="58.681758267931826" lon="7.484360701592841" id="-40130">
		<tag k="name" v="Murtetjønndalen" />
		<tag k="natural" v="valley" />
		<tag k="place" v="locality" />
		<tag k="ssr:stedsnr" v="164416" />
	</node>
	<node lat="58.73751944349369" lon="7.631838897457857" id="-40131">
		<tag k="name" v="Oddan" />
		<tag k="natural" v="cape" />
		<tag k="ssr:stedsnr" v="164420" />
	</node>
	<node lat="58.68006666674501" lon="7.347188892937349" id="-40132">
		<tag k="name" v="Drangedalen" />
		<tag k="natural" v="valley" />
		<tag k="place" v="locality" />
		<tag k="ssr:stedsnr" v="164427" />
	</node>
	<node lat="58.640905554920145" lon="7.372380555859089" id="-40133">
		<tag k="name" v="Grønehommen" />
		<tag k="natural" v="valley" />
		<tag k="place" v="locality" />
		<tag k="ssr:stedsnr" v="164469" />
	</node>
	<node lat="58.63567500125468" lon="7.444727786086856" id="-40134">
		<tag k="name" v="Grotånæ" />
		<tag k="ssr:stedsnr" v="164480" />
		<tag k="waterway" v="stream" />
	</node>
	<node lat="58.64143333040042" lon="7.405430563384249" id="-40135">
		<tag k="name" v="Unne fjellet" />
		<tag k="natural" v="slope" />
		<tag k="place" v="locality" />
		<tag k="ssr:stedsnr" v="164481" />
	</node>
	<node lat="58.52471944591283" lon="7.483994444591129" id="-40136">
		<tag k="name" v="Bjønneknuten" />
		<tag k="natural" v="hill" />
		<tag k="place" v="locality" />
		<tag k="ssr:stedsnr" v="164860" />
	</node>
	<node lat="58.53481110779031" lon="7.485536109788762" id="-40137">
		<tag k="name" v="Norddalen" />
		<tag k="natural" v="valley" />
		<tag k="place" v="locality" />
		<tag k="ssr:stedsnr" v="164866" />
	</node>
	<node lat="58.53553333665057" lon="7.51575277625506" id="-40138">
		<tag k="name" v="Ubasen" />
		<tag k="natural" v="wetland" />
		<tag k="ssr:stedsnr" v="164869" />
	</node>
	<node lat="58.5115583361819" lon="7.4651666628657845" id="-40139">
		<tag k="name" v="Utålskaret" />
		<tag k="natural" v="valley" />
		<tag k="place" v="locality" />
		<tag k="ssr:stedsnr" v="164811" />
	</node>
	<node lat="58.63420000253033" lon="7.418925004622413" id="-40140">
		<tag k="name" v="Ytre Støylsundalen" />
		<tag k="natural" v="valley" />
		<tag k="place" v="locality" />
		<tag k="ssr:stedsnr" v="164562" />
	</node>
	<node lat="58.81037778064259" lon="7.2345944504535815" id="-40141">
		<tag k="name" v="Kjellås" />
		<tag k="natural" v="ridge" />
		<tag k="place" v="locality" />
		<tag k="ssr:stedsnr" v="164760" />
	</node>
	<node lat="58.80998888672728" lon="7.275222217325815" id="-40142">
		<tag k="name" v="Tjønndalsånæ" />
		<tag k="ssr:stedsnr" v="164763" />
		<tag k="waterway" v="river" />
	</node>
	<node lat="58.80861666424185" lon="7.262961114568553" id="-40143">
		<tag k="name" v="Gråfjelldalen" />
		<tag k="natural" v="valley" />
		<tag k="place" v="locality" />
		<tag k="ssr:stedsnr" v="164764" />
	</node>
	<node lat="58.515797222804125" lon="7.510358328083641" id="-40144">
		<tag k="name" v="Ospeholtet" />
		<tag k="natural" v="slope" />
		<tag k="place" v="locality" />
		<tag k="ssr:stedsnr" v="164779" />
	</node>
	<node lat="58.54842500091654" lon="7.546830562182441" id="-40145">
		<tag k="name" v="Lisle Osuvslåtta" />
		<tag k="natural" v="wetland" />
		<tag k="ssr:stedsnr" v="164902" />
	</node>
	<node lat="58.72439722180784" lon="7.4810138899666745" id="-40146">
		<tag k="name" v="Kvæven" />
		<tag k="natural" v="valley" />
		<tag k="place" v="locality" />
		<tag k="ssr:stedsnr" v="164904" />
	</node>
	<node lat="58.717216670355974" lon="7.4710694416862" id="-40147">
		<tag k="name" v="Bjønndalsfjellet" />
		<tag k="natural" v="cliff" />
		<tag k="ssr:stedsnr" v="164907" />
	</node>
	<node lat="58.527430556299" lon="7.395127775154383" id="-40148">
		<tag k="name" v="Bjorlogheia" />
		<tag k="natural" v="hill" />
		<tag k="place" v="locality" />
		<tag k="ssr:stedsnr" v="164909" />
	</node>
	<node lat="58.52007500264099" lon="7.361972225240653" id="-40149">
		<tag k="name" v="Pikketua" />
		<tag k="place" v="locality" />
		<tag k="ssr:stedsnr" v="164920" />
	</node>
	<node lat="58.72823610991083" lon="7.532861107196242" id="-40150">
		<tag k="name" v="Karfitbekken" />
		<tag k="ssr:stedsnr" v="164921" />
		<tag k="waterway" v="stream" />
	</node>
	<node lat="58.58037777458091" lon="7.440905557752257" id="-40151">
		<tag k="name" v="Mørketjønndalen" />
		<tag k="natural" v="valley" />
		<tag k="place" v="locality" />
		<tag k="ssr:stedsnr" v="165211" />
	</node>
	<node lat="58.59267499673662" lon="7.476619450995664" id="-40152">
		<tag k="name" v="Sjoneshommen" />
		<tag k="natural" v="valley" />
		<tag k="place" v="locality" />
		<tag k="ssr:stedsnr" v="165175" />
	</node>
	<node lat="58.591338889957534" lon="7.459352786201781" id="-40153">
		<tag k="name" v="Tjønnebu" />
		<tag k="place" v="locality" />
		<tag k="ssr:stedsnr" v="165178" />
	</node>
	<node lat="58.590830554823405" lon="7.4658833300470615" id="-40154">
		<tag k="name" v="Skrikartjønnheia" />
		<tag k="natural" v="hill" />
		<tag k="place" v="locality" />
		<tag k="ssr:stedsnr" v="165180" />
	</node>
	<node lat="58.543505554866925" lon="7.40477221949899" id="-40155">
		<tag k="bridge" v="yes" />
		<tag k="layer" v="1" />
		<tag k="name" v="Geitskar" />
		<tag k="ssr:stedsnr" v="168011" />
	</node>
	<node lat="58.57634166538234" lon="7.5165333399156875" id="-40156">
		<tag k="bridge" v="yes" />
		<tag k="layer" v="1" />
		<tag k="name" v="Eikså" />
		<tag k="ssr:stedsnr" v="168013" />
	</node>
	<node lat="58.75756111325372" lon="7.323602777799084" id="-40157">
		<tag k="alt_name" v="Langatjørn" />
		<tag k="name" v="Langatjønnæ" />
		<tag k="natural" v="water" />
		<tag k="ssr:stedsnr" v="182310" />
	</node>
	<node lat="58.58887222186799" lon="7.3271166631099645" id="-40158">
		<tag k="alt_name" v="Lonetjørn" />
		<tag k="name" v="Lonetjønnæ" />
		<tag k="natural" v="water" />
		<tag k="ssr:stedsnr" v="182410" />
	</node>
	<node lat="58.57726111365125" lon="7.2864000058425695" id="-40159">
		<tag k="alt_name" v="Dyrevatn" />
		<tag k="name" v="Dyrevatnet" />
		<tag k="natural" v="water" />
		<tag k="ssr:stedsnr" v="182425" />
		<tag k="water" v="lake" />
	</node>
	<node lat="58.612302779299505" lon="7.3065305573865205" id="-40160">
		<tag k="alt_name" v="Sogefjell" />
		<tag k="fixme" v="consider natural=peak for the most distinct mountains in the district" />
		<tag k="name" v="Sågefjellet" />
		<tag k="natural" v="hill" />
		<tag k="place" v="locality" />
		<tag k="ssr:stedsnr" v="182442" />
	</node>
	<node lat="58.819850003568654" lon="7.376786104870865" id="-40161">
		<tag k="name" v="Ådalen" />
		<tag k="natural" v="valley" />
		<tag k="place" v="locality" />
		<tag k="ssr:stedsnr" v="182506" />
	</node>
	<node lat="58.814269447478615" lon="7.4622583276065315" id="-40162">
		<tag k="alt_name" v="Bergeåni" />
		<tag k="name" v="Bergeånæ" />
		<tag k="ssr:stedsnr" v="182518" />
		<tag k="waterway" v="stream" />
	</node>
	<node lat="58.81762777532692" lon="7.424316669782968" id="-40163">
		<tag k="alt_name" v="Nordgardstedjan" />
		<tag k="name" v="Nordgardstean" />
		<tag k="place" v="locality" />
		<tag k="ssr:stedsnr" v="182519" />
	</node>
	<node lat="58.612219447543" lon="7.565600008419758" id="-40164">
		<tag k="name" v="Revedalen" />
		<tag k="natural" v="valley" />
		<tag k="place" v="locality" />
		<tag k="ssr:stedsnr" v="182818" />
	</node>
	<node lat="58.591799999033405" lon="7.385683327767558" id="-40165">
		<tag k="name" v="Bytingsbekken" />
		<tag k="ssr:stedsnr" v="182847" />
		<tag k="waterway" v="stream" />
	</node>
	<node lat="58.60263888587087" lon="7.52604444850766" id="-40166">
		<tag k="name" v="Kvernhusheia" />
		<tag k="natural" v="hill" />
		<tag k="place" v="locality" />
		<tag k="ssr:stedsnr" v="182855" />
	</node>
	<node lat="58.54481111142334" lon="7.467569436843224" id="-40167">
		<tag k="alt_name" v="Molteheia" />
		<tag k="fixme" v="consider natural=peak for the most distinct mountains in the district" />
		<tag k="name" v="Moltehei" />
		<tag k="natural" v="hill" />
		<tag k="place" v="locality" />
		<tag k="ssr:stedsnr" v="182931" />
	</node>
	<node lat="58.539405551700874" lon="7.372088884196727" id="-40168">
		<tag k="alt_name" v="Øyuvstad" />
		<tag k="fixme" v="consider place=hamlet" />
		<tag k="name" v="Øyulvstad" />
		<tag k="place" v="farm" />
		<tag k="ssr:stedsnr" v="182937" />
	</node>
	<node lat="58.70154999874875" lon="7.378724993858364" id="-40169">
		<tag k="alt_name" v="Lomtjørnheia" />
		<tag k="fixme" v="consider natural=peak for the most distinct mountains in the district" />
		<tag k="name" v="Lomstjønnheia" />
		<tag k="natural" v="hill" />
		<tag k="place" v="locality" />
		<tag k="ssr:stedsnr" v="183221" />
	</node>
	<node lat="58.6479111104221" lon="7.201597217210062" id="-40170">
		<tag k="name" v="Skjoldhommen" />
		<tag k="natural" v="valley" />
		<tag k="place" v="locality" />
		<tag k="ssr:stedsnr" v="183247" />
	</node>
	<node lat="58.70996100573763" lon="7.611627670672287" id="-40171">
		<tag k="alt_name" v="Øygardsvatn;Fiskevatn" />
		<tag k="name" v="Fiskvatn" />
		<tag k="natural" v="water" />
		<tag k="ssr:stedsnr" v="183198" />
	</node>
	<node lat="58.697297219652846" lon="7.375252772942423" id="-40172">
		<tag k="name" v="Åstølvatnet" />
		<tag k="natural" v="water" />
		<tag k="ssr:stedsnr" v="183200" />
		<tag k="water" v="lake" />
	</node>
	<node lat="58.84998889166823" lon="7.389513882924143" id="-40173">
		<tag k="alt_name" v="Stintefjell" />
		<tag k="fixme" v="consider natural=peak for the most distinct mountains in the district" />
		<tag k="name" v="Stintefjellet" />
		<tag k="natural" v="hill" />
		<tag k="place" v="locality" />
		<tag k="ssr:stedsnr" v="183355" />
	</node>
	<node lat="58.846688885425905" lon="7.549222230057245" id="-40174">
		<tag k="fixme" v="consider natural=peak for the most distinct mountains in the district" />
		<tag k="name" v="Halleheia" />
		<tag k="natural" v="hill" />
		<tag k="place" v="locality" />
		<tag k="ssr:stedsnr" v="183359" />
	</node>
	<node lat="58.851961108295825" lon="7.5330333316734865" id="-40175">
		<tag k="alt_name" v="Austeheibekken, nordre" />
		<tag k="name" v="Nordre Austeheibekken" />
		<tag k="ssr:stedsnr" v="183360" />
		<tag k="waterway" v="stream" />
	</node>
	<node lat="58.79193055236671" lon="7.528213884406537" id="-40176">
		<tag k="alt_name" v="Brurledfjellet" />
		<tag k="fixme" v="consider natural=peak for the most distinct mountains in the district" />
		<tag k="name" v="Brurlefjellet" />
		<tag k="natural" v="hill" />
		<tag k="place" v="locality" />
		<tag k="ssr:stedsnr" v="183497" />
	</node>
	<node lat="58.78003610806481" lon="7.376169452715302" id="-40177">
		<tag k="fixme" v="consider natural=peak for the most distinct mountains in the district" />
		<tag k="name" v="Svåbekkheia" />
		<tag k="natural" v="hill" />
		<tag k="place" v="locality" />
		<tag k="ssr:stedsnr" v="183501" />
	</node>
	<node lat="58.78598055146555" lon="7.453641666520251" id="-40178">
		<tag k="alt_name" v="Skrubbetjørn" />
		<tag k="name" v="Skrubbetjønn" />
		<tag k="natural" v="water" />
		<tag k="ssr:stedsnr" v="183503" />
	</node>
	<node lat="58.78808610742182" lon="7.353044448162275" id="-40179">
		<tag k="fixme" v="consider place=hamlet" />
		<tag k="name" v="Ljosland" />
		<tag k="place" v="village" />
		<tag k="ssr:stedsnr" v="183507" />
	</node>
	<node lat="58.815822221185336" lon="7.516463889114621" id="-40180">
		<tag k="name" v="Mevatn" />
		<tag k="natural" v="water" />
		<tag k="ssr:stedsnr" v="262923" />
		<tag k="water" v="lake" />
	</node>
	<node lat="58.8231888885594" lon="7.543055556770376" id="-40181">
		<tag k="name" v="Bukta" />
		<tag k="natural" v="bay" />
		<tag k="ssr:stedsnr" v="262928" />
	</node>
	<node lat="58.76430278187988" lon="7.563702775353753" id="-40182">
		<tag k="name" v="Stoleheia" />
		<tag k="natural" v="hill" />
		<tag k="place" v="locality" />
		<tag k="ssr:stedsnr" v="262976" />
	</node>
	<node lat="58.771800002316375" lon="7.414333340687544" id="-40183">
		<tag k="fixme" v="consider natural=peak for the most distinct mountains in the district" />
		<tag k="name" v="Endestavheia" />
		<tag k="natural" v="hill" />
		<tag k="place" v="locality" />
		<tag k="ssr:stedsnr" v="262978" />
	</node>
	<node lat="58.8117361153701" lon="7.324616664655274" id="-40184">
		<tag k="name" v="Velilønan" />
		<tag k="natural" v="water" />
		<tag k="ssr:stedsnr" v="209929" />
	</node>
	<node lat="58.77336111102554" lon="7.327736114155031" id="-40185">
		<tag k="alt_name" v="Grytåtjørn" />
		<tag k="name" v="Grytåtjønn" />
		<tag k="natural" v="water" />
		<tag k="ssr:stedsnr" v="209932" />
	</node>
	<node lat="58.826644444922216" lon="7.489700003368742" id="-40186">
		<tag k="name" v="Fjellkjinn" />
		<tag k="natural" v="ridge" />
		<tag k="place" v="locality" />
		<tag k="ssr:stedsnr" v="220602" />
	</node>
	<node lat="58.82746666741734" lon="7.489141664565564" id="-40187">
		<tag k="fixme" v="consider natural=peak for the most distinct mountains in the district" />
		<tag k="name" v="Fjelkeknodden" />
		<tag k="natural" v="hill" />
		<tag k="place" v="locality" />
		<tag k="ssr:stedsnr" v="220604" />
	</node>
	<node lat="58.831905554090696" lon="7.469113881490974" id="-40188">
		<tag k="name" v="Lisla Skoræ" />
		<tag k="place" v="locality" />
		<tag k="ssr:stedsnr" v="220624" />
	</node>
	<node lat="58.83568333518232" lon="7.4160388901861864" id="-40189">
		<tag k="name" v="Lisla Gluggvartjønn" />
		<tag k="natural" v="water" />
		<tag k="ssr:stedsnr" v="220681" />
	</node>
	<node lat="58.81793333189672" lon="7.481563893863594" id="-40190">
		<tag k="name" v="Trættehommen" />
		<tag k="natural" v="valley" />
		<tag k="place" v="locality" />
		<tag k="ssr:stedsnr" v="220683" />
	</node>
	<node lat="58.77124721928252" lon="7.313175006609104" id="-40191">
		<tag k="alt_name" v="Upsetjørn" />
		<tag k="name" v="Upsetjønn" />
		<tag k="natural" v="water" />
		<tag k="ssr:stedsnr" v="270928" />
	</node>
	<node lat="58.85145833548358" lon="7.402136116071155" id="-40192">
		<tag k="name" v="Lisle Stintå" />
		<tag k="ssr:stedsnr" v="221616" />
		<tag k="waterway" v="stream" />
	</node>
	<node lat="58.8348944414408" lon="7.581991671010609" id="-40193">
		<tag k="name" v="Storekvævskronæ" />
		<tag k="natural" v="valley" />
		<tag k="place" v="locality" />
		<tag k="ssr:stedsnr" v="221675" />
	</node>
	<node lat="58.78324444500546" lon="7.497027779935365" id="-40194">
		<tag k="name" v="Rotvelthommen" />
		<tag k="natural" v="valley" />
		<tag k="place" v="locality" />
		<tag k="ssr:stedsnr" v="221682" />
	</node>
	<node lat="58.705930558440215" lon="7.565375004118083" id="-40195">
		<tag k="name" v="Nordlian" />
		<tag k="natural" v="slope" />
		<tag k="place" v="locality" />
		<tag k="ssr:stedsnr" v="224218" />
	</node>
	<node lat="58.6564249994711" lon="7.54578333093069" id="-40196">
		<tag k="name" v="Hommen" />
		<tag k="natural" v="wetland" />
		<tag k="ssr:stedsnr" v="224403" />
	</node>
	<node lat="58.617152775661694" lon="7.28968889667535" id="-40197">
		<tag k="name" v="Auståre Hommen" />
		<tag k="natural" v="valley" />
		<tag k="place" v="locality" />
		<tag k="ssr:stedsnr" v="224404" />
	</node>
	<node lat="58.627575001962605" lon="7.483111109605659" id="-40198">
		<tag k="name" v="Stylkemyrhommen" />
		<tag k="natural" v="wetland" />
		<tag k="ssr:stedsnr" v="224434" />
	</node>
	<node lat="58.55837777550676" lon="7.308011106964428" id="-40199">
		<tag k="name" v="Heddersheia" />
		<tag k="natural" v="hill" />
		<tag k="place" v="locality" />
		<tag k="ssr:stedsnr" v="224338" />
	</node>
	<node lat="58.558555554825965" lon="7.298738894832767" id="-40200">
		<tag k="name" v="Skutå" />
		<tag k="natural" v="hill" />
		<tag k="place" v="locality" />
		<tag k="ssr:stedsnr" v="224339" />
	</node>
	<node lat="58.68447222337013" lon="7.398011114799219" id="-40201">
		<tag k="name" v="Hesthomfjellet" />
		<tag k="natural" v="cliff" />
		<tag k="ssr:stedsnr" v="224344" />
	</node>
	<node lat="58.56282773029757" lon="7.337761256349117" id="-40202">
		<tag k="name" v="Fisklandstjønnin" />
		<tag k="natural" v="water" />
		<tag k="ssr:stedsnr" v="224388" />
		<tag k="water" v="lake" />
	</node>
	<node lat="58.626908333714006" lon="7.504577781187891" id="-40203">
		<tag k="name" v="Bjønneholet" />
		<tag k="natural" v="valley" />
		<tag k="place" v="locality" />
		<tag k="ssr:stedsnr" v="224396" />
	</node>
	<node lat="58.65566111438109" lon="7.529469438079645" id="-40204">
		<tag k="name" v="Holebekk" />
		<tag k="ssr:stedsnr" v="224400" />
		<tag k="waterway" v="stream" />
	</node>
	<node lat="58.782344448945864" lon="7.356994452842194" id="-40205">
		<tag k="name" v="Myran" />
		<tag k="natural" v="wetland" />
		<tag k="ssr:stedsnr" v="224908" />
	</node>
	<node lat="58.76557500112815" lon="7.359669437707093" id="-40206">
		<tag k="name" v="Bytingsevjå" />
		<tag k="natural" v="bay" />
		<tag k="ssr:stedsnr" v="224913" />
	</node>
	<node lat="58.75915833541266" lon="7.320186110235418" id="-40207">
		<tag k="name" v="Stikebosskaret" />
		<tag k="natural" v="valley" />
		<tag k="place" v="locality" />
		<tag k="ssr:stedsnr" v="224916" />
	</node>
	<node lat="58.78455555410927" lon="7.566005563958764" id="-40208">
		<tag k="name" v="Vorebuæ" />
		<tag k="place" v="locality" />
		<tag k="ssr:stedsnr" v="224845" />
	</node>
	<node lat="58.753416662390315" lon="7.546061110411303" id="-40209">
		<tag k="name" v="Bakkebekken" />
		<tag k="ssr:stedsnr" v="225005" />
		<tag k="waterway" v="stream" />
	</node>
	<node lat="58.562641669737914" lon="7.508550000377441" id="-40210">
		<tag k="name" v="Heddebekkslåtten" />
		<tag k="natural" v="wetland" />
		<tag k="ssr:stedsnr" v="225006" />
	</node>
	<node lat="58.70330000123094" lon="7.476022226401482" id="-40211">
		<tag k="name" v="Neset" />
		<tag k="natural" v="ridge" />
		<tag k="place" v="locality" />
		<tag k="ssr:stedsnr" v="225010" />
	</node>
	<node lat="58.70517222246207" lon="7.448077784571769" id="-40212">
		<tag k="name" v="Brelandsdalen" />
		<tag k="natural" v="valley" />
		<tag k="place" v="locality" />
		<tag k="ssr:stedsnr" v="225012" />
	</node>
	<node lat="58.71302778223377" lon="7.507675001422423" id="-40213">
		<tag k="highway" v="path" />
		<tag k="name" v="Manneveien" />
		<tag k="ssr:stedsnr" v="225134" />
	</node>
	<node lat="58.73014167101113" lon="7.573369444328175" id="-40214">
		<tag k="name" v="Støylsogøygard" />
		<tag k="natural" v="wetland" />
		<tag k="ssr:stedsnr" v="225138" />
	</node>
	<node lat="58.729797219368805" lon="7.577347216927522" id="-40215">
		<tag k="name" v="Rundatjønnæ" />
		<tag k="natural" v="water" />
		<tag k="ssr:stedsnr" v="225140" />
	</node>
	<node lat="58.5620194414916" lon="7.346211116982454" id="-40216">
		<tag k="name" v="Ørnedalen" />
		<tag k="natural" v="valley" />
		<tag k="place" v="locality" />
		<tag k="ssr:stedsnr" v="225142" />
	</node>
	<node lat="58.56764166631406" lon="7.351680554033522" id="-40217">
		<tag k="name" v="Gumuskjerret" />
		<tag k="natural" v="wetland" />
		<tag k="ssr:stedsnr" v="225146" />
	</node>
	<node lat="58.74789166518735" lon="7.322344439445346" id="-40218">
		<tag k="name" v="Einærvikjæ" />
		<tag k="natural" v="bay" />
		<tag k="ssr:stedsnr" v="225198" />
	</node>
	<node lat="58.79779166326642" lon="7.486122215357361" id="-40219">
		<tag k="name" v="Ormebrotet" />
		<tag k="natural" v="slope" />
		<tag k="place" v="locality" />
		<tag k="ssr:stedsnr" v="225302" />
	</node>
	<node lat="58.74011389059447" lon="7.619866673404091" id="-40220">
		<tag k="name" v="Kolandsbekken" />
		<tag k="ssr:stedsnr" v="225307" />
		<tag k="waterway" v="stream" />
	</node>
	<node lat="58.681325001342294" lon="7.5114694427962245" id="-40221">
		<tag k="name" v="Holeheia" />
		<tag k="natural" v="hill" />
		<tag k="place" v="locality" />
		<tag k="ssr:stedsnr" v="225317" />
	</node>
	<node lat="58.686527776194" lon="7.509224997293219" id="-40222">
		<tag k="name" v="Heimre Øygardsfjellet" />
		<tag k="natural" v="cliff" />
		<tag k="ssr:stedsnr" v="225318" />
	</node>
	<node lat="58.6693749994025" lon="7.466833326262497" id="-40223">
		<tag k="fixme" v="consider natural=peak for the most distinct mountains in the district" />
		<tag k="name" v="Toddeheia" />
		<tag k="natural" v="hill" />
		<tag k="place" v="locality" />
		<tag k="ssr:stedsnr" v="225320" />
	</node>
	<node lat="58.685233334521534" lon="7.57322778463394" id="-40224">
		<tag k="name" v="Olasdalsbekken" />
		<tag k="ssr:stedsnr" v="225331" />
		<tag k="waterway" v="stream" />
	</node>
	<node lat="58.744449997799514" lon="7.594797215528472" id="-40225">
		<tag k="name" v="Strondeknuten" />
		<tag k="natural" v="hill" />
		<tag k="place" v="locality" />
		<tag k="ssr:stedsnr" v="225333" />
	</node>
	<node lat="58.764358331860755" lon="7.506966665947102" id="-40226">
		<tag k="name" v="Hesteneset" />
		<tag k="place" v="locality" />
		<tag k="ssr:stedsnr" v="225035" />
	</node>
	<node lat="58.70645833475957" lon="7.390847228655151" id="-40227">
		<tag k="name" v="Storrfjellet" />
		<tag k="natural" v="cliff" />
		<tag k="ssr:stedsnr" v="225087" />
	</node>
	<node lat="58.55876944672642" lon="7.448599992719004" id="-40228">
		<tag k="name" v="Sveen" />
		<tag k="natural" v="slope" />
		<tag k="place" v="locality" />
		<tag k="ssr:stedsnr" v="225088" />
	</node>
	<node lat="58.76603889050286" lon="7.6516638838606434" id="-40229">
		<tag k="name" v="Fjelldraget" />
		<tag k="natural" v="ridge" />
		<tag k="place" v="locality" />
		<tag k="ssr:stedsnr" v="225089" />
	</node>
	<node lat="58.734088889754744" lon="7.4840583312098365" id="-40230">
		<tag k="name" v="Inkjenoko" />
		<tag k="natural" v="valley" />
		<tag k="place" v="locality" />
		<tag k="ssr:stedsnr" v="225233" />
	</node>
	<node lat="58.828247219590985" lon="7.351250007048261" id="-40231">
		<tag k="name" v="Hansestjønn" />
		<tag k="natural" v="water" />
		<tag k="ssr:stedsnr" v="225241" />
	</node>
	<node lat="58.80780832909061" lon="7.456669437952585" id="-40232">
		<tag k="name" v="Tjovedalen" />
		<tag k="natural" v="valley" />
		<tag k="place" v="locality" />
		<tag k="ssr:stedsnr" v="225285" />
	</node>
	<node lat="58.80224167052721" lon="7.3144138944439945" id="-40233">
		<tag k="name" v="Grasdalsfjell" />
		<tag k="natural" v="hill" />
		<tag k="place" v="locality" />
		<tag k="ssr:stedsnr" v="225287" />
	</node>
	<node lat="58.796038884686055" lon="7.329622229501745" id="-40234">
		<tag k="name" v="Vierskaret" />
		<tag k="natural" v="valley" />
		<tag k="place" v="locality" />
		<tag k="ssr:stedsnr" v="225291" />
	</node>
	<node lat="58.6021444455881" lon="7.544680556764384" id="-40235">
		<tag k="name" v="Buråslia" />
		<tag k="natural" v="slope" />
		<tag k="place" v="locality" />
		<tag k="ssr:stedsnr" v="225299" />
	</node>
	<node lat="58.66920555274678" lon="7.360008325074781" id="-40236">
		<tag k="name" v="Smalsundet" />
		<tag k="natural" v="strait" />
		<tag k="ssr:stedsnr" v="225406" />
	</node>
	<node lat="58.73724721894427" lon="7.619324994706918" id="-40237">
		<tag k="name" v="Dekefjellet" />
		<tag k="natural" v="cliff" />
		<tag k="ssr:stedsnr" v="225385" />
	</node>
	<node lat="58.67647222193548" lon="7.371483336638953" id="-40238">
		<tag k="name" v="Storeslåtten" />
		<tag k="natural" v="wetland" />
		<tag k="ssr:stedsnr" v="225386" />
	</node>
	<node lat="58.66069444070802" lon="7.446655552073884" id="-40239">
		<tag k="name" v="Steinkleiv" />
		<tag k="natural" v="slope" />
		<tag k="place" v="locality" />
		<tag k="ssr:stedsnr" v="225533" />
	</node>
	<node lat="58.64620000290967" lon="7.411408326392569" id="-40240">
		<tag k="name" v="Spakåsen" />
		<tag k="natural" v="ridge" />
		<tag k="place" v="locality" />
		<tag k="ssr:stedsnr" v="225538" />
	</node>
	<node lat="58.63728055255929" lon="7.479294442781191" id="-40241">
		<tag k="name" v="Løyningtjønnin" />
		<tag k="natural" v="water" />
		<tag k="ssr:stedsnr" v="225540" />
	</node>
	<node lat="58.67254444475295" lon="7.208100008488546" id="-40242">
		<tag k="name" v="Storodden" />
		<tag k="natural" v="cape" />
		<tag k="ssr:stedsnr" v="225702" />
	</node>
	<node lat="58.5586499991353" lon="7.261763894391444" id="-40243">
		<tag k="name" v="Hyttefjellet" />
		<tag k="natural" v="hill" />
		<tag k="place" v="locality" />
		<tag k="ssr:stedsnr" v="225718" />
	</node>
	<node lat="58.710894446335566" lon="7.251380556675606" id="-40244">
		<tag k="name" v="Sjikkestalegå" />
		<tag k="natural" v="valley" />
		<tag k="place" v="locality" />
		<tag k="ssr:stedsnr" v="225725" />
	</node>
	<node lat="58.66051666803051" lon="7.464475001332826" id="-40245">
		<tag k="name" v="Varemyr" />
		<tag k="natural" v="wetland" />
		<tag k="ssr:stedsnr" v="225483" />
	</node>
	<node lat="58.66416666675977" lon="7.494416658603806" id="-40246">
		<tag k="name" v="Vætingdalen" />
		<tag k="natural" v="valley" />
		<tag k="place" v="locality" />
		<tag k="ssr:stedsnr" v="225484" />
	</node>
	<node lat="58.79743889125332" lon="7.550808326959951" id="-40247">
		<tag k="name" v="Vakkerberg" />
		<tag k="natural" v="slope" />
		<tag k="place" v="locality" />
		<tag k="ssr:stedsnr" v="225661" />
	</node>
	<node lat="58.80072222023247" lon="7.542236103453165" id="-40248">
		<tag k="name" v="Juvassdammen" />
		<tag k="ssr:stedsnr" v="225662" />
		<tag k="waterway" v="dam" />
	</node>
	<node lat="58.76396270097999" lon="7.1823139780179295" id="-40249">
		<tag k="name" v="Kryplingdalen" />
		<tag k="natural" v="valley" />
		<tag k="place" v="locality" />
		<tag k="ssr:stedsnr" v="225663" />
	</node>
	<node lat="58.79585555810023" lon="7.536644448589823" id="-40250">
		<tag k="name" v="Urevikjæ" />
		<tag k="natural" v="bay" />
		<tag k="ssr:stedsnr" v="225689" />
	</node>
	<node lat="58.53301944501351" lon="7.31649444319054" id="-40251">
		<tag k="name" v="Bergebekk" />
		<tag k="ssr:stedsnr" v="225804" />
		<tag k="waterway" v="stream" />
	</node>
	<node lat="58.520758333878085" lon="7.402197224784467" id="-40252">
		<tag k="name" v="Hellaren" />
		<tag k="place" v="locality" />
		<tag k="ssr:stedsnr" v="225835" />
	</node>
	<node lat="58.52078055591375" lon="7.406300007982329" id="-40253">
		<tag k="fixme" v="consider natural=peak for the most distinct mountains in the district" />
		<tag k="name" v="Nordhei" />
		<tag k="natural" v="hill" />
		<tag k="place" v="locality" />
		<tag k="ssr:stedsnr" v="225836" />
	</node>
	<node lat="58.53445555468537" lon="7.4543499944649065" id="-40254">
		<tag k="fixme" v="consider natural=peak for the most distinct mountains in the district" />
		<tag k="name" v="Fjelldraget" />
		<tag k="natural" v="hill" />
		<tag k="place" v="locality" />
		<tag k="ssr:stedsnr" v="225848" />
	</node>
	<node lat="58.71770278185668" lon="7.486347215440249" id="-40255">
		<tag k="name" v="Skarvemyran" />
		<tag k="natural" v="wetland" />
		<tag k="ssr:stedsnr" v="225887" />
	</node>
	<node lat="58.527528866600726" lon="7.380398081247313" id="-40256">
		<tag k="name" v="Tvitjønnan" />
		<tag k="natural" v="water" />
		<tag k="ssr:stedsnr" v="225888" />
		<tag k="water" v="lake" />
	</node>
	<node lat="58.524341667949216" lon="7.364422225954367" id="-40257">
		<tag k="name" v="Krona" />
		<tag k="natural" v="valley" />
		<tag k="place" v="locality" />
		<tag k="ssr:stedsnr" v="225898" />
	</node>
	<node lat="58.50216388543373" lon="7.417488891453537" id="-40258">
		<tag k="name" v="Kvævefjellet" />
		<tag k="natural" v="cliff" />
		<tag k="ssr:stedsnr" v="225783" />
	</node>
	<node lat="58.505022225160346" lon="7.4490944461220385" id="-40259">
		<tag k="name" v="Berkjålskvæven" />
		<tag k="natural" v="wetland" />
		<tag k="ssr:stedsnr" v="225788" />
	</node>
	<node lat="58.51319166458914" lon="7.440502774001054" id="-40260">
		<tag k="name" v="Tomåsbakkan" />
		<tag k="natural" v="slope" />
		<tag k="place" v="locality" />
		<tag k="ssr:stedsnr" v="225790" />
	</node>
	<node lat="58.554263893047974" lon="7.280766667518753" id="-40261">
		<tag k="name" v="Ingjerdshommen" />
		<tag k="natural" v="valley" />
		<tag k="place" v="locality" />
		<tag k="ssr:stedsnr" v="225791" />
	</node>
	<node lat="58.55095833603043" lon="7.254916669016342" id="-40262">
		<tag k="name" v="Mjåvassfjellet" />
		<tag k="natural" v="cliff" />
		<tag k="ssr:stedsnr" v="225792" />
	</node>
	<node lat="58.51279999833418" lon="7.456847219488069" id="-40263">
		<tag k="name" v="Gastehylen" />
		<tag k="place" v="locality" />
		<tag k="ssr:stedsnr" v="225795" />
	</node>
	<node lat="58.70934444616832" lon="7.4749861153756605" id="-40264">
		<tag k="name" v="Røyddansmonen" />
		<tag k="place" v="locality" />
		<tag k="ssr:stedsnr" v="225902" />
	</node>
	<node lat="58.52248611172658" lon="7.377247223385204" id="-40265">
		<tag k="name" v="Bjønnesteinen" />
		<tag k="natural" v="stone" />
		<tag k="ssr:stedsnr" v="225906" />
	</node>
	<node lat="58.520069863477445" lon="7.361979195704088" id="-40266">
		<tag k="name" v="Lasteskotet" />
		<tag k="place" v="locality" />
		<tag k="ssr:stedsnr" v="225911" />
	</node>
	<node lat="58.51286839232081" lon="7.365885616120248" id="-40267">
		<tag k="fixme" v="consider natural=peak for the most distinct mountains in the district" />
		<tag k="name" v="Sæsåsen" />
		<tag k="natural" v="hill" />
		<tag k="place" v="locality" />
		<tag k="ssr:stedsnr" v="225916" />
	</node>
	<node lat="58.54673055746327" lon="7.426647216957038" id="-40268">
		<tag k="name" v="Røydalskaret" />
		<tag k="natural" v="valley" />
		<tag k="place" v="locality" />
		<tag k="ssr:stedsnr" v="225984" />
	</node>
	<node lat="58.76195555770668" lon="7.481450001115403" id="-40269">
		<tag k="name" v="Tørkkriet" />
		<tag k="natural" v="slope" />
		<tag k="place" v="locality" />
		<tag k="ssr:stedsnr" v="225988" />
	</node>
	<node lat="58.72806944702336" lon="7.441522229532627" id="-40270">
		<tag k="name" v="Snøheia" />
		<tag k="natural" v="hill" />
		<tag k="place" v="locality" />
		<tag k="ssr:stedsnr" v="225989" />
	</node>
	<node lat="58.538949997458005" lon="7.413088884384483" id="-40271">
		<tag k="bridge" v="yes" />
		<tag k="layer" v="1" />
		<tag k="name" v="Auklandsbrua" />
		<tag k="ssr:stedsnr" v="225990" />
	</node>
	<node lat="58.72262500441767" lon="7.649094442785312" id="-40272">
		<tag k="alt_name" v="Midtstrandknuten" />
		<tag k="fixme" v="consider natural=peak for the most distinct mountains in the district" />
		<tag k="name" v="Midtstrandnuten" />
		<tag k="natural" v="hill" />
		<tag k="place" v="locality" />
		<tag k="ssr:stedsnr" v="242008" />
	</node>
	<node lat="58.72191666388563" lon="7.519833341130975" id="-40273">
		<tag k="alt_name" v="Jyrevarden" />
		<tag k="fixme" v="consider natural=peak for the most distinct mountains in the district" />
		<tag k="name" v="Gygri" />
		<tag k="natural" v="hill" />
		<tag k="place" v="locality" />
		<tag k="ssr:stedsnr" v="242011" />
	</node>
	<node lat="58.60572499981418" lon="7.336483331821457" id="-40274">
		<tag k="name" v="Bytteborgtjørni" />
		<tag k="natural" v="water" />
		<tag k="ssr:stedsnr" v="242434" />
	</node>
	<node lat="58.624716669788114" lon="7.25110277312929" id="-40275">
		<tag k="name" v="Sandrebbtjørni" />
		<tag k="natural" v="water" />
		<tag k="ssr:stedsnr" v="243493" />
	</node>
	<node lat="58.75753888931447" lon="7.5410555529164105" id="-40276">
		<tag k="alt_name" v="Austegarden" />
		<tag k="fixme" v="consider place=hamlet" />
		<tag k="name" v="Austegard" />
		<tag k="place" v="farm" />
		<tag k="ssr:stedsnr" v="243594" />
	</node>
	<node lat="58.613152779553026" lon="7.539166659215876" id="-40277">
		<tag k="fixme" v="consider natural=peak for the most distinct mountains in the district" />
		<tag k="name" v="Sandvassheia" />
		<tag k="natural" v="hill" />
		<tag k="place" v="locality" />
		<tag k="ssr:stedsnr" v="243839" />
	</node>
	<node lat="58.57294722516617" lon="7.50711945265159" id="-40278">
		<tag k="name" v="Solvoll" />
		<tag k="place" v="farm" />
		<tag k="ssr:stedsnr" v="243785" />
	</node>
	<node lat="58.68663055301187" lon="7.174913890699929" id="-40279">
		<tag k="name" v="Simlehommen" />
		<tag k="natural" v="valley" />
		<tag k="place" v="locality" />
		<tag k="ssr:stedsnr" v="244300" />
	</node>
	<node lat="58.68830833270527" lon="7.206091666641566" id="-40280">
		<tag k="name" v="Kyrevatnet" />
		<tag k="natural" v="water" />
		<tag k="ssr:stedsnr" v="244301" />
		<tag k="water" v="lake" />
	</node>
	<node lat="58.67475555218618" lon="7.426177771247293" id="-40281">
		<tag k="alt_name" v="Heptetjørni" />
		<tag k="name" v="Heptetjønn" />
		<tag k="natural" v="water" />
		<tag k="ssr:stedsnr" v="244197" />
	</node>
	<node lat="58.638813893011935" lon="7.239791661754667" id="-40282">
		<tag k="alt_name" v="Hithomtjørni" />
		<tag k="name" v="Hithomtjønnæ" />
		<tag k="natural" v="water" />
		<tag k="ssr:stedsnr" v="244496" />
	</node>
	<node lat="58.7971138913086" lon="7.436597229417853" id="-40283">
		<tag k="name" v="Gråbudalen" />
		<tag k="natural" v="valley" />
		<tag k="place" v="locality" />
		<tag k="ssr:stedsnr" v="244585" />
	</node>
	<node lat="58.53593889310038" lon="7.518663888277" id="-40284">
		<tag k="alt_name" v="Ubastjørni" />
		<tag k="name" v="Ubastjønn" />
		<tag k="natural" v="water" />
		<tag k="ssr:stedsnr" v="244983" />
	</node>
	<node lat="58.81929166379346" lon="7.408311108263344" id="-40285">
		<tag k="name" v="Bjønneholdalen" />
		<tag k="natural" v="valley" />
		<tag k="place" v="locality" />
		<tag k="ssr:stedsnr" v="281229" />
	</node>
	<node lat="58.826322223582984" lon="7.433458331750024" id="-40286">
		<tag k="name" v="Reinstjønndalen" />
		<tag k="natural" v="valley" />
		<tag k="place" v="locality" />
		<tag k="ssr:stedsnr" v="281176" />
	</node>
	<node lat="58.78011944101592" lon="7.511633336066298" id="-40287">
		<tag k="name" v="Grå Uræ" />
		<tag k="natural" v="scree" />
		<tag k="ssr:stedsnr" v="281305" />
	</node>
	<node lat="58.8162722244324" lon="7.466099994610584" id="-40288">
		<tag k="name" v="Stutetjønn" />
		<tag k="natural" v="water" />
		<tag k="ssr:stedsnr" v="281369" />
	</node>
	<node lat="58.822511110379814" lon="7.48134166641665" id="-40289">
		<tag k="name" v="Snøbakken" />
		<tag k="natural" v="slope" />
		<tag k="place" v="locality" />
		<tag k="ssr:stedsnr" v="281518" />
	</node>
	<node lat="58.831027779294146" lon="7.489880554822486" id="-40290">
		<tag k="name" v="Storrdalen" />
		<tag k="natural" v="valley" />
		<tag k="place" v="locality" />
		<tag k="ssr:stedsnr" v="281569" />
	</node>
	<node lat="58.83413055606487" lon="7.4678611086326905" id="-40291">
		<tag k="name" v="Halvarsdalen" />
		<tag k="natural" v="valley" />
		<tag k="place" v="locality" />
		<tag k="ssr:stedsnr" v="281577" />
	</node>
	<node lat="58.84548055689979" lon="7.410533333297766" id="-40292">
		<tag k="name" v="Fjellvassbekken" />
		<tag k="ssr:stedsnr" v="281709" />
		<tag k="waterway" v="stream" />
	</node>
	<node lat="58.84634722630545" lon="7.434669440364149" id="-40293">
		<tag k="name" v="Hunneholtheia" />
		<tag k="natural" v="hill" />
		<tag k="place" v="locality" />
		<tag k="ssr:stedsnr" v="281716" />
	</node>
	<node lat="58.79151666327534" lon="7.537824996390343" id="-40294">
		<tag k="name" v="Ytre Urevikje" />
		<tag k="natural" v="bay" />
		<tag k="ssr:stedsnr" v="281724" />
	</node>
	<node lat="58.70528333087949" lon="7.483388885230861" id="-40295">
		<tag k="name" v="Husefjellet" />
		<tag k="natural" v="cliff" />
		<tag k="ssr:stedsnr" v="285005" />
	</node>
	<node lat="58.69502500184692" lon="7.598558331517281" id="-40296">
		<tag k="fixme" v="consider natural=peak for the most distinct mountains in the district" />
		<tag k="name" v="Kvennhusåsen" />
		<tag k="natural" v="hill" />
		<tag k="place" v="locality" />
		<tag k="ssr:stedsnr" v="285226" />
	</node>
	<node lat="58.688997226453516" lon="7.552497216818494" id="-40297">
		<tag k="name" v="Olasdalsbergjæ" />
		<tag k="natural" v="hill" />
		<tag k="place" v="locality" />
		<tag k="ssr:stedsnr" v="285233" />
	</node>
	<node lat="58.800983333575395" lon="7.531519438980296" id="-40298">
		<tag k="name" v="Store Sandvassdalen" />
		<tag k="natural" v="valley" />
		<tag k="place" v="locality" />
		<tag k="ssr:stedsnr" v="285295" />
	</node>
	<node lat="58.576155557778" lon="7.380202785884617" id="-40299">
		<tag k="name" v="Flæon" />
		<tag k="natural" v="ridge" />
		<tag k="place" v="locality" />
		<tag k="ssr:stedsnr" v="285178" />
	</node>
	<node lat="58.78008889178551" lon="7.620747218931152" id="-40300">
		<tag k="name" v="Laksetjønnstean" />
		<tag k="place" v="locality" />
		<tag k="ssr:stedsnr" v="285184" />
	</node>
	<node lat="58.68906666520726" lon="7.58053611973128" id="-40301">
		<tag k="name" v="Kvæven" />
		<tag k="natural" v="valley" />
		<tag k="place" v="locality" />
		<tag k="ssr:stedsnr" v="285185" />
	</node>
	<node lat="58.62889722566406" lon="7.370422214834529" id="-40302">
		<tag k="name" v="Lisla Gjyretjønnæ" />
		<tag k="natural" v="water" />
		<tag k="ssr:stedsnr" v="285390" />
	</node>
	<node lat="58.81305555716094" lon="7.576841672681116" id="-40303">
		<tag k="name" v="Ålsvarbekken" />
		<tag k="ssr:stedsnr" v="285617" />
		<tag k="waterway" v="stream" />
	</node>
	<node lat="58.510116668262526" lon="7.424113885563723" id="-40304">
		<tag k="name" v="Krokmyrbrotet" />
		<tag k="natural" v="slope" />
		<tag k="place" v="locality" />
		<tag k="ssr:stedsnr" v="285780" />
	</node>
	<node lat="58.77638611346465" lon="7.425908334842859" id="-40305">
		<tag k="name" v="Myrdalen" />
		<tag k="natural" v="valley" />
		<tag k="place" v="locality" />
		<tag k="ssr:stedsnr" v="285727" />
	</node>
	<node lat="58.55950555573633" lon="7.521172221155356" id="-40306">
		<tag k="name" v="Fjelkjen" />
		<tag k="natural" v="slope" />
		<tag k="place" v="locality" />
		<tag k="ssr:stedsnr" v="286008" />
	</node>
	<node lat="58.57643055856446" lon="7.545780554003537" id="-40307">
		<tag k="name" v="Storemyr" />
		<tag k="natural" v="wetland" />
		<tag k="ssr:stedsnr" v="286027" />
	</node>
	<node lat="58.578794445514504" lon="7.536475003746817" id="-40308">
		<tag k="name" v="Måneljosdalen" />
		<tag k="natural" v="valley" />
		<tag k="place" v="locality" />
		<tag k="ssr:stedsnr" v="286029" />
	</node>
	<node lat="58.76266666783828" lon="7.531580552812552" id="-40309">
		<tag k="name" v="Store Sundsdal" />
		<tag k="natural" v="valley" />
		<tag k="place" v="locality" />
		<tag k="ssr:stedsnr" v="286035" />
	</node>
	<node lat="58.760672220035374" lon="7.663338894712948" id="-40310">
		<tag k="name" v="Trettebekk" />
		<tag k="ssr:stedsnr" v="286077" />
		<tag k="waterway" v="stream" />
	</node>
	<node lat="58.692058333826424" lon="7.299058334981281" id="-40311">
		<tag k="name" v="Merredalen" />
		<tag k="natural" v="valley" />
		<tag k="place" v="locality" />
		<tag k="ssr:stedsnr" v="286078" />
	</node>
	<node lat="58.76968888923365" lon="7.414272229866358" id="-40312">
		<tag k="name" v="Ennestaven" />
		<tag k="place" v="locality" />
		<tag k="ssr:stedsnr" v="285931" />
	</node>
	<node lat="58.563699999173345" lon="7.425805560017491" id="-40313">
		<tag k="name" v="Ringstakktjønna" />
		<tag k="natural" v="water" />
		<tag k="ssr:stedsnr" v="286109" />
	</node>
	<node lat="58.567861111237356" lon="7.448047225093562" id="-40314">
		<tag k="name" v="Kjørren" />
		<tag k="natural" v="wetland" />
		<tag k="ssr:stedsnr" v="286116" />
	</node>
	<node lat="58.7164138867841" lon="7.566422215658499" id="-40315">
		<tag k="name" v="Hardeveddfjellet" />
		<tag k="natural" v="cliff" />
		<tag k="ssr:stedsnr" v="286128" />
	</node>
	<node lat="58.574505551588096" lon="7.401288882256923" id="-40316">
		<tag k="name" v="Rovlæ" />
		<tag k="natural" v="slope" />
		<tag k="place" v="locality" />
		<tag k="ssr:stedsnr" v="286129" />
	</node>
	<node lat="58.75960555634228" lon="7.573144441742262" id="-40317">
		<tag k="name" v="Livskjarret" />
		<tag k="natural" v="wetland" />
		<tag k="ssr:stedsnr" v="286138" />
	</node>
	<node lat="58.748888885806885" lon="7.373583335013492" id="-40318">
		<tag k="name" v="Tjønnebu" />
		<tag k="natural" v="wetland" />
		<tag k="ssr:stedsnr" v="286184" />
	</node>
	<node lat="58.588416666261594" lon="7.455975008056049" id="-40319">
		<tag k="name" v="Sauen" />
		<tag k="natural" v="slope" />
		<tag k="place" v="locality" />
		<tag k="ssr:stedsnr" v="286197" />
	</node>
	<node lat="58.64039234008615" lon="7.300695938356224" id="-40320">
		<tag k="name" v="Tusarliæ" />
		<tag k="natural" v="slope" />
		<tag k="place" v="locality" />
		<tag k="ssr:stedsnr" v="286433" />
	</node>
	<node lat="58.65116388596027" lon="7.510683325243119" id="-40321">
		<tag k="name" v="Stupetjønn" />
		<tag k="natural" v="water" />
		<tag k="ssr:stedsnr" v="286435" />
	</node>
	<node lat="58.63433055289377" lon="7.296158333101032" id="-40322">
		<tag k="name" v="Med tjønnin" />
		<tag k="natural" v="wetland" />
		<tag k="ssr:stedsnr" v="286446" />
	</node>
	<node lat="58.66518055625255" lon="7.452358334206322" id="-40323">
		<tag k="name" v="Geitefit" />
		<tag k="place" v="locality" />
		<tag k="ssr:stedsnr" v="286458" />
	</node>
	<node lat="58.66528610958161" lon="7.4597499978804365" id="-40324">
		<tag k="name" v="Knoddimøddom" />
		<tag k="natural" v="valley" />
		<tag k="place" v="locality" />
		<tag k="ssr:stedsnr" v="286462" />
	</node>
	<node lat="58.66409166296456" lon="7.474513894224395" id="-40325">
		<tag k="name" v="Veihombergjæ" />
		<tag k="natural" v="slope" />
		<tag k="place" v="locality" />
		<tag k="ssr:stedsnr" v="286463" />
	</node>
	<node lat="58.66096667101273" lon="7.475749998281415" id="-40326">
		<tag k="name" v="Merredalen" />
		<tag k="natural" v="valley" />
		<tag k="place" v="locality" />
		<tag k="ssr:stedsnr" v="286464" />
	</node>
	<node lat="58.65492777841518" lon="7.400983332709207" id="-40327">
		<tag k="name" v="Skvæna" />
		<tag k="ssr:stedsnr" v="286507" />
		<tag k="waterway" v="stream" />
	</node>
	<node lat="58.653597223767264" lon="7.407499992080494" id="-40328">
		<tag k="name" v="Skaddøynan" />
		<tag k="place" v="locality" />
		<tag k="ssr:stedsnr" v="286513" />
	</node>
	<node lat="58.645755559955596" lon="7.455341665283059" id="-40329">
		<tag k="name" v="Grindeliæ" />
		<tag k="natural" v="slope" />
		<tag k="place" v="locality" />
		<tag k="ssr:stedsnr" v="286477" />
	</node>
	<node lat="58.50608333332634" lon="7.405011118812746" id="-40330">
		<tag k="name" v="Hønelandsmyr" />
		<tag k="natural" v="wetland" />
		<tag k="ssr:stedsnr" v="286803" />
	</node>
	<node lat="58.5538055513436" lon="7.309280551362142" id="-40331">
		<tag k="name" v="Teinebekk" />
		<tag k="ssr:stedsnr" v="286830" />
		<tag k="waterway" v="stream" />
	</node>
	<node lat="58.79412499771419" lon="7.261580555900713" id="-40332">
		<tag k="name" v="Legå" />
		<tag k="natural" v="valley" />
		<tag k="place" v="locality" />
		<tag k="ssr:stedsnr" v="286779" />
	</node>
	<node lat="58.72940000313934" lon="7.449997219429117" id="-40333">
		<tag k="name" v="Skorva" />
		<tag k="natural" v="hill" />
		<tag k="place" v="locality" />
		<tag k="ssr:stedsnr" v="286905" />
	</node>
	<node lat="58.72997777369252" lon="7.478969450080718" id="-40334">
		<tag k="name" v="Skotåsknodden" />
		<tag k="natural" v="hill" />
		<tag k="place" v="locality" />
		<tag k="ssr:stedsnr" v="286910" />
	</node>
	<node lat="58.52955833189316" lon="7.367944449915416" id="-40335">
		<tag k="name" v="Åsen" />
		<tag k="natural" v="ridge" />
		<tag k="place" v="locality" />
		<tag k="ssr:stedsnr" v="286929" />
	</node>
	<node lat="58.52406111034727" lon="7.368447230515036" id="-40336">
		<tag k="name" v="Rullanmyran" />
		<tag k="natural" v="wetland" />
		<tag k="ssr:stedsnr" v="286930" />
	</node>
	<node lat="58.524202775182225" lon="7.382158340390621" id="-40337">
		<tag k="fixme" v="consider natural=peak for the most distinct mountains in the district" />
		<tag k="name" v="Tangetjønnåsen" />
		<tag k="natural" v="hill" />
		<tag k="place" v="locality" />
		<tag k="ssr:stedsnr" v="286935" />
	</node>
	<node lat="58.82751666866918" lon="7.4694555613942155" id="-40338">
		<tag k="name" v="Lonæ" />
		<tag k="natural" v="water" />
		<tag k="ssr:stedsnr" v="462547" />
		<tag k="water" v="lake" />
	</node>
	<node lat="58.77695555778515" lon="7.536555562656744" id="-40339">
		<tag k="name" v="Lisle Heddebutjønn" />
		<tag k="natural" v="water" />
		<tag k="ssr:stedsnr" v="463142" />
	</node>
	<node lat="58.84614999916416" lon="7.333480558926092" id="-40340">
		<tag k="name" v="Rovetjønn" />
		<tag k="natural" v="water" />
		<tag k="ssr:stedsnr" v="463099" />
	</node>
	<node lat="58.77486388899739" lon="7.510847221519165" id="-40341">
		<tag k="name" v="Lyngodden" />
		<tag k="natural" v="cape" />
		<tag k="ssr:stedsnr" v="463281" />
	</node>
	<node lat="58.775447222616926" lon="7.506977785854033" id="-40342">
		<tag k="name" v="Gyrosvik" />
		<tag k="natural" v="bay" />
		<tag k="ssr:stedsnr" v="463237" />
	</node>
	<node lat="58.77873611043505" lon="7.515297228039363" id="-40343">
		<tag k="name" v="Eivindskoræ" />
		<tag k="place" v="locality" />
		<tag k="ssr:stedsnr" v="463333" />
	</node>
	<node lat="58.81618889214544" lon="7.479930547976065" id="-40344">
		<tag k="name" v="Veliæ" />
		<tag k="natural" v="slope" />
		<tag k="place" v="locality" />
		<tag k="ssr:stedsnr" v="463335" />
	</node>
	<node lat="58.83686388738864" lon="7.4620555621686515" id="-40345">
		<tag k="name" v="Kleiveslåttå" />
		<tag k="natural" v="wetland" />
		<tag k="ssr:stedsnr" v="463547" />
	</node>
	<node lat="58.82974444381637" lon="7.537683333382705" id="-40346">
		<tag k="name" v="Torgrimslåttun" />
		<tag k="natural" v="slope" />
		<tag k="place" v="locality" />
		<tag k="ssr:stedsnr" v="463675" />
	</node>
	<node lat="58.824569448503084" lon="7.552111108724395" id="-40347">
		<tag k="name" v="Buktedalen" />
		<tag k="natural" v="valley" />
		<tag k="place" v="locality" />
		<tag k="ssr:stedsnr" v="463678" />
	</node>
	<node lat="58.794674996301566" lon="7.549766668283969" id="-40348">
		<tag k="name" v="Kilen" />
		<tag k="natural" v="bay" />
		<tag k="ssr:stedsnr" v="463679" />
	</node>
	<node lat="58.82692777362746" lon="7.591597227132617" id="-40349">
		<tag k="name" v="Tverrdalen" />
		<tag k="natural" v="valley" />
		<tag k="place" v="locality" />
		<tag k="ssr:stedsnr" v="463690" />
	</node>
	<node lat="58.8500583353803" lon="7.434330551025851" id="-40350">
		<tag k="name" v="Myrslåttun" />
		<tag k="natural" v="wetland" />
		<tag k="ssr:stedsnr" v="463650" />
	</node>
	<node lat="58.81792222103495" lon="7.598552774718149" id="-40351">
		<tag k="name" v="Rupedalen" />
		<tag k="natural" v="valley" />
		<tag k="place" v="locality" />
		<tag k="ssr:stedsnr" v="463698" />
	</node>
	<node lat="58.652200002507385" lon="7.527330550782926" id="-40352">
		<tag k="alt_name" v="Holebekktjørni" />
		<tag k="name" v="Holebekktjønnæ" />
		<tag k="natural" v="water" />
		<tag k="ssr:stedsnr" v="303175" />
	</node>
	<node lat="58.637677778089696" lon="7.330491669713764" id="-40353">
		<tag k="alt_name" v="Vikenutodden" />
		<tag k="name" v="Vikeknodden" />
		<tag k="natural" v="cape" />
		<tag k="ssr:stedsnr" v="303493" />
	</node>
	<node lat="58.60622499689213" lon="7.395622226191053" id="-40354">
		<tag k="fixme" v="consider natural=peak for the most distinct mountains in the district" />
		<tag k="name" v="Rufjellet" />
		<tag k="natural" v="hill" />
		<tag k="place" v="locality" />
		<tag k="ssr:stedsnr" v="303816" />
	</node>
	<node lat="58.604633334033586" lon="7.405775006043358" id="-40355">
		<tag k="alt_name" v="Skarpeteigen" />
		<tag k="name" v="Skarpsteigen" />
		<tag k="place" v="farm" />
		<tag k="ssr:stedsnr" v="303819" />
	</node>
	<node lat="58.54253611491059" lon="7.351544451493985" id="-40356">
		<tag k="alt_name" v="Øvre Koven" />
		<tag k="name" v="Koven" />
		<tag k="place" v="isolated_dwelling" />
		<tag k="ssr:stedsnr" v="303951" />
	</node>
	<node lat="58.6914944433699" lon="7.491450004744717" id="-40357">
		<tag k="alt_name" v="Høgeheia" />
		<tag k="fixme" v="consider natural=peak for the most distinct mountains in the district" />
		<tag k="name" v="Høgaheia" />
		<tag k="natural" v="hill" />
		<tag k="place" v="locality" />
		<tag k="ssr:stedsnr" v="304207" />
	</node>
	<node lat="58.69815000424373" lon="7.435144452195785" id="-40358">
		<tag k="fixme" v="consider natural=peak for the most distinct mountains in the district" />
		<tag k="name" v="Stemtjørnheia" />
		<tag k="natural" v="hill" />
		<tag k="place" v="locality" />
		<tag k="ssr:stedsnr" v="304209" />
	</node>
	<node lat="58.701672222163495" lon="7.183483339750097" id="-40359">
		<tag k="fixme" v="consider natural=peak for the most distinct mountains in the district" />
		<tag k="name" v="Punseknuten" />
		<tag k="natural" v="hill" />
		<tag k="place" v="locality" />
		<tag k="ssr:stedsnr" v="304280" />
	</node>
	<node lat="58.851888892028356" lon="7.470283340708604" id="-40360">
		<tag k="alt_name" v="Hesthommen" />
		<tag k="name" v="Hestehommen" />
		<tag k="place" v="locality" />
		<tag k="ssr:stedsnr" v="304406" />
	</node>
	<node lat="58.553277780894696" lon="7.565738886562073" id="-40361">
		<tag k="name" v="Stordalen" />
		<tag k="natural" v="valley" />
		<tag k="place" v="locality" />
		<tag k="ssr:stedsnr" v="304125" />
	</node>
	<node lat="58.80079999570177" lon="7.497563884807509" id="-40362">
		<tag k="fixme" v="consider natural=peak for the most distinct mountains in the district" />
		<tag k="name" v="Hesteheia" />
		<tag k="natural" v="hill" />
		<tag k="place" v="locality" />
		<tag k="ssr:stedsnr" v="304185" />
	</node>
	<node lat="58.69046944431146" lon="7.402858328934928" id="-40363">
		<tag k="alt_name" v="Homstøl" />
		<tag k="name" v="Humstøl" />
		<tag k="natural" v="valley" />
		<tag k="place" v="locality" />
		<tag k="ssr:stedsnr" v="304190" />
	</node>
	<node lat="58.68501388548281" lon="7.468586107515426" id="-40364">
		<tag k="alt_name" v="Hodna;Hodne" />
		<tag k="fixme" v="consider place=hamlet" />
		<tag k="name" v="Honna" />
		<tag k="place" v="farm" />
		<tag k="ssr:stedsnr" v="304192" />
	</node>
	<node lat="58.683808337265376" lon="7.546238885367583" id="-40365">
		<tag k="alt_name" v="Jøtnefoten" />
		<tag k="fixme" v="consider natural=peak for the most distinct mountains in the district" />
		<tag k="name" v="Jøtnefot" />
		<tag k="natural" v="hill" />
		<tag k="place" v="locality" />
		<tag k="ssr:stedsnr" v="304193" />
	</node>
	<node lat="58.82765555833873" lon="7.323808326209335" id="-40366">
		<tag k="alt_name" v="Øyvatnet" />
		<tag k="name" v="Øyvatn" />
		<tag k="natural" v="water" />
		<tag k="ssr:stedsnr" v="304195" />
		<tag k="water" v="lake" />
	</node>
	<node lat="58.74681388695938" lon="7.313791663353826" id="-40367">
		<tag k="alt_name" v="Stigebottsvatnet" />
		<tag k="name" v="Stikebossvatnet" />
		<tag k="natural" v="water" />
		<tag k="ssr:stedsnr" v="304317" />
		<tag k="water" v="lake" />
	</node>
	<node lat="58.732238890572376" lon="7.303658339107737" id="-40368">
		<tag k="alt_name" v="Kroktjørni, nedre" />
		<tag k="name" v="Nedre Kroktjønn" />
		<tag k="natural" v="water" />
		<tag k="ssr:stedsnr" v="304329" />
	</node>
	<node lat="58.82959444561156" lon="7.487752774495095" id="-40369">
		<tag k="name" v="Storrdalsknuten" />
		<tag k="natural" v="hill" />
		<tag k="place" v="locality" />
		<tag k="ssr:stedsnr" v="304385" />
	</node>
	<node lat="58.80797500047286" lon="7.358016662525949" id="-40370">
		<tag k="name" v="Veli" />
		<tag k="natural" v="slope" />
		<tag k="place" v="locality" />
		<tag k="ssr:stedsnr" v="304525" />
	</node>
	<node lat="58.81777884194666" lon="7.468169600933291" id="-40371">
		<tag k="name" v="Bortelidtjønna" />
		<tag k="natural" v="water" />
		<tag k="ssr:stedsnr" v="304526" />
	</node>
	<node lat="58.762936106648134" lon="7.344088885693722" id="-40372">
		<tag k="alt_name" v="Stigebottsåni" />
		<tag k="name" v="Stikebossånæ" />
		<tag k="ssr:stedsnr" v="304574" />
		<tag k="waterway" v="stream" />
	</node>
	<node lat="58.767816662740294" lon="7.613044451998459" id="-40373">
		<tag k="fixme" v="consider natural=peak for the most distinct mountains in the district" />
		<tag k="name" v="Kjosevassheia" />
		<tag k="natural" v="hill" />
		<tag k="place" v="locality" />
		<tag k="ssr:stedsnr" v="304575" />
	</node>
	<node lat="58.76869999692153" lon="7.384830563387617" id="-40374">
		<tag k="alt_name" v="Knapeknollen" />
		<tag k="fixme" v="consider natural=peak for the most distinct mountains in the district" />
		<tag k="name" v="Knapeknodden" />
		<tag k="natural" v="hill" />
		<tag k="place" v="locality" />
		<tag k="ssr:stedsnr" v="304593" />
	</node>
	<node lat="58.824477775080666" lon="7.563122216632097" id="-40375">
		<tag k="alt_name" v="Stemtjørn" />
		<tag k="name" v="Stemtjønn" />
		<tag k="natural" v="water" />
		<tag k="ssr:stedsnr" v="304485" />
	</node>
	<node lat="58.79649999967291" lon="7.479719439898248" id="-40376">
		<tag k="name" v="Surtemyræ" />
		<tag k="natural" v="wetland" />
		<tag k="ssr:stedsnr" v="467286" />
	</node>
	<node lat="58.57006666347709" lon="7.372008325406133" id="-40377">
		<tag k="name" v="Rupedalen" />
		<tag k="natural" v="valley" />
		<tag k="place" v="locality" />
		<tag k="ssr:stedsnr" v="467140" />
	</node>
	<node lat="58.69098888904865" lon="7.6155000021285355" id="-40378">
		<tag k="name" v="Indre Røyhommen" />
		<tag k="natural" v="valley" />
		<tag k="place" v="locality" />
		<tag k="ssr:stedsnr" v="467154" />
	</node>
	<node lat="58.588444441341785" lon="7.452450001312238" id="-40379">
		<tag k="name" v="Dalereet" />
		<tag k="natural" v="ridge" />
		<tag k="place" v="locality" />
		<tag k="ssr:stedsnr" v="467194" />
	</node>
	<node lat="58.67527222023626" lon="7.454966668895945" id="-40380">
		<tag k="name" v="Stora Losmonkronæ" />
		<tag k="natural" v="valley" />
		<tag k="place" v="locality" />
		<tag k="ssr:stedsnr" v="467317" />
	</node>
	<node lat="58.69803333409439" lon="7.609063882099987" id="-40381">
		<tag k="name" v="Liedraget" />
		<tag k="natural" v="ridge" />
		<tag k="place" v="locality" />
		<tag k="ssr:stedsnr" v="467223" />
	</node>
	<node lat="58.69866944044426" lon="7.527272217999188" id="-40382">
		<tag k="name" v="Listøl-Øygard" />
		<tag k="place" v="locality" />
		<tag k="ssr:stedsnr" v="467227" />
	</node>
	<node lat="58.59936944137149" lon="7.423122225952548" id="-40383">
		<tag k="name" v="Ripla" />
		<tag k="natural" v="valley" />
		<tag k="place" v="locality" />
		<tag k="ssr:stedsnr" v="467232" />
	</node>
	<node lat="58.58714722218683" lon="7.395602774251655" id="-40384">
		<tag k="name" v="Glomsdalen" />
		<tag k="natural" v="valley" />
		<tag k="place" v="locality" />
		<tag k="ssr:stedsnr" v="467240" />
	</node>
	<node lat="58.824225000044486" lon="7.334716663945697" id="-40385">
		<tag k="name" v="Øyvassbanken" />
		<tag k="natural" v="hill" />
		<tag k="place" v="locality" />
		<tag k="ssr:stedsnr" v="467243" />
	</node>
	<node lat="58.69133055134462" lon="7.5199166606927115" id="-40386">
		<tag k="name" v="Tjønnæ" />
		<tag k="natural" v="water" />
		<tag k="ssr:stedsnr" v="467245" />
	</node>
	<node lat="58.70077221937993" lon="7.490838895172843" id="-40387">
		<tag k="name" v="Ytre Storrdalen" />
		<tag k="natural" v="valley" />
		<tag k="place" v="locality" />
		<tag k="ssr:stedsnr" v="467250" />
	</node>
	<node lat="58.697727774769156" lon="7.475202786407639" id="-40388">
		<tag k="name" v="Holtet" />
		<tag k="place" v="locality" />
		<tag k="ssr:stedsnr" v="467256" />
	</node>
	<node lat="58.75044999846255" lon="7.449222220597313" id="-40389">
		<tag k="name" v="Hesthomman" />
		<tag k="natural" v="valley" />
		<tag k="place" v="locality" />
		<tag k="ssr:stedsnr" v="468228" />
	</node>
	<node lat="58.733897218594905" lon="7.573936115709056" id="-40390">
		<tag k="name" v="Karistjønn" />
		<tag k="natural" v="water" />
		<tag k="ssr:stedsnr" v="468243" />
	</node>
	<node lat="58.68376666791029" lon="7.624244441331191" id="-40391">
		<tag k="name" v="På Hommen" />
		<tag k="natural" v="hill" />
		<tag k="place" v="locality" />
		<tag k="ssr:stedsnr" v="468248" />
	</node>
	<node lat="58.60212222559309" lon="7.550547222507558" id="-40392">
		<tag k="name" v="Horshommen" />
		<tag k="natural" v="valley" />
		<tag k="place" v="locality" />
		<tag k="ssr:stedsnr" v="468250" />
	</node>
	<node lat="58.607927781111144" lon="7.314855547954229" id="-40393">
		<tag k="name" v="Skratarhommen" />
		<tag k="natural" v="valley" />
		<tag k="place" v="locality" />
		<tag k="ssr:stedsnr" v="467444" />
	</node>
	<node lat="58.64318055357474" lon="7.5263305481064" id="-40394">
		<tag k="name" v="Karfithei" />
		<tag k="natural" v="hill" />
		<tag k="place" v="locality" />
		<tag k="ssr:stedsnr" v="467487" />
	</node>
	<node lat="58.81282778086329" lon="7.569075000044534" id="-40395">
		<tag k="name" v="Ålsvarstean" />
		<tag k="natural" v="wetland" />
		<tag k="ssr:stedsnr" v="467649" />
	</node>
	<node lat="58.81255833709571" lon="7.563422224216441" id="-40396">
		<tag k="name" v="Ytre bekken" />
		<tag k="ssr:stedsnr" v="467651" />
		<tag k="waterway" v="stream" />
	</node>
	<node lat="58.779855551487614" lon="7.430308329538907" id="-40397">
		<tag k="name" v="Stean" />
		<tag k="natural" v="wetland" />
		<tag k="ssr:stedsnr" v="467734" />
	</node>
	<node lat="58.780077782200294" lon="7.4455861043184655" id="-40398">
		<tag k="name" v="Storrtjønn" />
		<tag k="natural" v="water" />
		<tag k="ssr:stedsnr" v="467735" />
	</node>
	<node lat="58.50068888738487" lon="7.448352783629563" id="-40399">
		<tag k="name" v="Langemyr" />
		<tag k="natural" v="wetland" />
		<tag k="ssr:stedsnr" v="467788" />
	</node>
	<node lat="58.79192222253009" lon="7.575500006657904" id="-40400">
		<tag k="name" v="Reinskvæven" />
		<tag k="natural" v="valley" />
		<tag k="place" v="locality" />
		<tag k="ssr:stedsnr" v="467872" />
	</node>
	<node lat="58.77253610685182" lon="7.321277771510479" id="-40401">
		<tag k="name" v="Grytåtjønndalen" />
		<tag k="natural" v="valley" />
		<tag k="place" v="locality" />
		<tag k="ssr:stedsnr" v="467887" />
	</node>
	<node lat="58.790988886594675" lon="7.334755551195143" id="-40402">
		<tag k="name" v="Russteliæ" />
		<tag k="natural" v="slope" />
		<tag k="place" v="locality" />
		<tag k="ssr:stedsnr" v="467888" />
	</node>
	<node lat="58.76465833085219" lon="7.411336110834244" id="-40403">
		<tag k="name" v="Storevasstjønnæ" />
		<tag k="natural" v="water" />
		<tag k="ssr:stedsnr" v="467968" />
	</node>
	<node lat="58.75775555196837" lon="7.347183339547291" id="-40404">
		<tag k="name" v="Pikstein" />
		<tag k="natural" v="stone" />
		<tag k="ssr:stedsnr" v="467928" />
	</node>
	<node lat="58.75819166619114" lon="7.3818833399044" id="-40405">
		<tag k="name" v="Blikkstølknuten" />
		<tag k="natural" v="hill" />
		<tag k="place" v="locality" />
		<tag k="ssr:stedsnr" v="467930" />
	</node>
	<node lat="58.75903610877328" lon="7.384330559383029" id="-40406">
		<tag k="historic" v="shieling" />
		<tag k="name" v="Blikkstøl" />
		<tag k="place" v="locality" />
		<tag k="ssr:stedsnr" v="467932" />
	</node>
	<node lat="58.75748889167014" lon="7.505152785548493" id="-40407">
		<tag k="name" v="Grønes" />
		<tag k="place" v="farm" />
		<tag k="ssr:stedsnr" v="468040" />
	</node>
	<node lat="58.77083889127399" lon="7.559277784560388" id="-40408">
		<tag k="name" v="Hardaslak" />
		<tag k="natural" v="valley" />
		<tag k="place" v="locality" />
		<tag k="ssr:stedsnr" v="468003" />
	</node>
	<node lat="58.55973333232543" lon="7.532505555854463" id="-40409">
		<tag k="name" v="Andersslåtta" />
		<tag k="natural" v="slope" />
		<tag k="place" v="locality" />
		<tag k="ssr:stedsnr" v="468009" />
	</node>
	<node lat="58.71662500333739" lon="7.63173888156293" id="-40410">
		<tag k="name" v="Knipanstjønnin" />
		<tag k="natural" v="water" />
		<tag k="ssr:stedsnr" v="468094" />
	</node>
	<node lat="58.56861667074393" lon="7.429897228624047" id="-40411">
		<tag k="name" v="Roleghola" />
		<tag k="natural" v="valley" />
		<tag k="place" v="locality" />
		<tag k="ssr:stedsnr" v="468100" />
	</node>
	<node lat="58.56526110995966" lon="7.430177769738354" id="-40412">
		<tag k="name" v="Ytre Smådalan" />
		<tag k="natural" v="valley" />
		<tag k="place" v="locality" />
		<tag k="ssr:stedsnr" v="468101" />
	</node>
	<node lat="58.56325277363566" lon="7.463963895680302" id="-40413">
		<tag k="name" v="Lona" />
		<tag k="natural" v="water" />
		<tag k="ssr:stedsnr" v="468057" />
		<tag k="water" v="lake" />
	</node>
	<node lat="58.56729722400538" lon="7.492383333938897" id="-40414">
		<tag k="name" v="Årlimyran" />
		<tag k="natural" v="wetland" />
		<tag k="ssr:stedsnr" v="468059" />
	</node>
	<node lat="58.75312499898694" lon="7.462833335738273" id="-40415">
		<tag k="name" v="På Kråkefjellet" />
		<tag k="natural" v="hill" />
		<tag k="place" v="locality" />
		<tag k="ssr:stedsnr" v="468060" />
	</node>
	<node lat="58.757944440803314" lon="7.564580552994485" id="-40416">
		<tag k="name" v="Røymerhommen" />
		<tag k="natural" v="valley" />
		<tag k="place" v="locality" />
		<tag k="ssr:stedsnr" v="468136" />
	</node>
	<node lat="58.67177500272734" lon="7.334424999116196" id="-40417">
		<tag k="name" v="Jonasdalen" />
		<tag k="natural" v="valley" />
		<tag k="place" v="locality" />
		<tag k="ssr:stedsnr" v="468140" />
	</node>
	<node lat="58.595208330423986" lon="7.475658327836541" id="-40418">
		<tag k="name" v="Homman" />
		<tag k="natural" v="wetland" />
		<tag k="ssr:stedsnr" v="468191" />
	</node>
	<node lat="58.597961110270475" lon="7.471097217431384" id="-40419">
		<tag k="name" v="Berga" />
		<tag k="natural" v="valley" />
		<tag k="place" v="locality" />
		<tag k="ssr:stedsnr" v="468192" />
	</node>
	<node lat="58.59492222539243" lon="7.467013895256373" id="-40420">
		<tag k="name" v="Vårslåtta" />
		<tag k="natural" v="wetland" />
		<tag k="ssr:stedsnr" v="468196" />
	</node>
	<node lat="58.74891111322388" lon="7.546275006738231" id="-40421">
		<tag k="name" v="Gunnarsknodden" />
		<tag k="natural" v="hill" />
		<tag k="place" v="locality" />
		<tag k="ssr:stedsnr" v="468201" />
	</node>
	<node lat="58.733658337872306" lon="7.641383336952568" id="-40422">
		<tag k="name" v="Brendaøynæ" />
		<tag k="place" v="islet" />
		<tag k="ssr:stedsnr" v="468337" />
	</node>
	<node lat="58.67706666375423" lon="7.350624995556793" id="-40423">
		<tag k="name" v="Mushomvikjæ" />
		<tag k="natural" v="bay" />
		<tag k="ssr:stedsnr" v="468341" />
	</node>
	<node lat="58.61383333230516" lon="7.5567027782256915" id="-40424">
		<tag k="name" v="Moltedalen" />
		<tag k="natural" v="valley" />
		<tag k="place" v="locality" />
		<tag k="ssr:stedsnr" v="468282" />
	</node>
	<node lat="58.617538886402755" lon="7.407597217082242" id="-40425">
		<tag k="name" v="Nordstovbakken" />
		<tag k="natural" v="hill" />
		<tag k="place" v="locality" />
		<tag k="ssr:stedsnr" v="468344" />
	</node>
	<node lat="58.61661666384411" lon="7.406711112032392" id="-40426">
		<tag k="name" v="Skorandsbakken" />
		<tag k="natural" v="hill" />
		<tag k="place" v="locality" />
		<tag k="ssr:stedsnr" v="468347" />
	</node>
	<node lat="58.686191669292874" lon="7.555944443575525" id="-40427">
		<tag k="name" v="Nere Øygard" />
		<tag k="place" v="locality" />
		<tag k="ssr:stedsnr" v="468285" />
	</node>
	<node lat="58.74796111546861" lon="7.5947166597693485" id="-40428">
		<tag k="ford" v="yes" />
		<tag k="name" v="Auståre Bergeva" />
		<tag k="place" v="locality" />
		<tag k="ssr:stedsnr" v="468288" />
	</node>
	<node lat="58.75201944218412" lon="7.594916658348554" id="-40429">
		<tag k="name" v="Stedjanstjønnæ" />
		<tag k="natural" v="water" />
		<tag k="ssr:stedsnr" v="468289" />
	</node>
	<node lat="58.63604444045112" lon="7.33379444292295" id="-40430">
		<tag k="name" v="Altartavlå" />
		<tag k="place" v="locality" />
		<tag k="ssr:stedsnr" v="468388" />
	</node>
	<node lat="58.64484722529179" lon="7.438125002313312" id="-40431">
		<tag k="name" v="Skorebekk" />
		<tag k="ssr:stedsnr" v="468400" />
		<tag k="waterway" v="stream" />
	</node>
	<node lat="58.630202776338756" lon="7.468669441507442" id="-40432">
		<tag k="name" v="Gjermundsholå" />
		<tag k="natural" v="valley" />
		<tag k="place" v="locality" />
		<tag k="ssr:stedsnr" v="468404" />
	</node>
	<node lat="58.61601389192772" lon="7.438736118575366" id="-40433">
		<tag k="name" v="Sigmundsdalen" />
		<tag k="natural" v="valley" />
		<tag k="place" v="locality" />
		<tag k="ssr:stedsnr" v="468301" />
	</node>
	<node lat="58.62188332923474" lon="7.47551389105643" id="-40434">
		<tag k="name" v="Tjønneslåtton" />
		<tag k="natural" v="wetland" />
		<tag k="ssr:stedsnr" v="468307" />
	</node>
	<node lat="58.62618888920695" lon="7.435377780280276" id="-40435">
		<tag k="name" v="Bjortjønn" />
		<tag k="natural" v="water" />
		<tag k="ssr:stedsnr" v="468455" />
	</node>
	<node lat="58.65513888499164" lon="7.410936108770992" id="-40436">
		<tag k="name" v="Pyseknuten" />
		<tag k="natural" v="hill" />
		<tag k="place" v="locality" />
		<tag k="ssr:stedsnr" v="468460" />
	</node>
	<node lat="58.76893128960401" lon="7.156080337393181" id="-40437">
		<tag k="name" v="Sandlonlegå" />
		<tag k="natural" v="valley" />
		<tag k="place" v="locality" />
		<tag k="ssr:stedsnr" v="468623" />
	</node>
	<node lat="58.63313610833539" lon="7.24553889488173" id="-40438">
		<tag k="name" v="Steintjønnfjellet" />
		<tag k="natural" v="cliff" />
		<tag k="ssr:stedsnr" v="468689" />
	</node>
	<node lat="58.57713888785597" lon="7.261925004314906" id="-40439">
		<tag k="name" v="Bjønnvassmyra" />
		<tag k="natural" v="wetland" />
		<tag k="ssr:stedsnr" v="468694" />
	</node>
	<node lat="58.57089166711681" lon="7.27436388902601" id="-40440">
		<tag k="name" v="Juvasshommen" />
		<tag k="natural" v="valley" />
		<tag k="place" v="locality" />
		<tag k="ssr:stedsnr" v="468697" />
	</node>
</osm>
