<?xml version="1.0" encoding="UTF-8"?>
<osm version="0.6" generator="osmapis">
	<node lat="58.593961110306" lon="7.512872215770477" id="-39857">
		<tag k="ford" v="yes" />
		<tag k="name" v="Geitevaet" />
		<tag k="place" v="locality" />
		<tag k="ssr:stedsnr" v="42185" />
	</node>
	<node lat="58.58233333510306" lon="7.293772221351631" id="-39861">
		<tag k="highway" v="path" />
		<tag k="name" v="Juskestien" />
		<tag k="ssr:stedsnr" v="42375" />
	</node>
	<node lat="58.5720194419651" lon="7.50296110463682" id="-39913">
		<tag k="bridge" v="yes" />
		<tag k="layer" v="1" />
		<tag k="name" v="Neverå" />
		<tag k="ssr:stedsnr" v="46014" />
	</node>
	<node lat="58.695858331778325" lon="7.471480553268179" id="-40066">
		<tag k="bridge" v="yes" />
		<tag k="layer" v="1" />
		<tag k="name" v="Kvernbekk" />
		<tag k="ssr:stedsnr" v="107012" />
	</node>
	<node lat="58.740633332017985" lon="7.51002499832974" id="-40067">
		<tag k="bridge" v="yes" />
		<tag k="layer" v="1" />
		<tag k="name" v="Røyneli bru" />
		<tag k="ssr:stedsnr" v="107015" />
	</node>
	<node lat="58.747747222974475" lon="7.590747214668877" id="-40118">
		<tag k="ford" v="yes" />
		<tag k="name" v="Heimre Bergeva" />
		<tag k="place" v="locality" />
		<tag k="ssr:stedsnr" v="164364" />
	</node>
	<node lat="58.543505554866925" lon="7.40477221949899" id="-40155">
		<tag k="bridge" v="yes" />
		<tag k="layer" v="1" />
		<tag k="name" v="Geitskar" />
		<tag k="ssr:stedsnr" v="168011" />
	</node>
	<node lat="58.57634166538234" lon="7.5165333399156875" id="-40156">
		<tag k="bridge" v="yes" />
		<tag k="layer" v="1" />
		<tag k="name" v="Eikså" />
		<tag k="ssr:stedsnr" v="168013" />
	</node>
	<node lat="58.71302778223377" lon="7.507675001422423" id="-40213">
		<tag k="highway" v="path" />
		<tag k="name" v="Manneveien" />
		<tag k="ssr:stedsnr" v="225134" />
	</node>
	<node lat="58.538949997458005" lon="7.413088884384483" id="-40271">
		<tag k="bridge" v="yes" />
		<tag k="layer" v="1" />
		<tag k="name" v="Auklandsbrua" />
		<tag k="ssr:stedsnr" v="225990" />
	</node>
	<node lat="58.74796111546861" lon="7.5947166597693485" id="-40428">
		<tag k="ford" v="yes" />
		<tag k="name" v="Auståre Bergeva" />
		<tag k="place" v="locality" />
		<tag k="ssr:stedsnr" v="468288" />
	</node>
</osm>
