<?xml version="1.0" encoding="UTF-8"?>
<<<<<<< HEAD
<osm version="0.6" generator="osmapis">
	<node lat="58.74390277832292" lon="7.472888884142251" id="-27782">
		<tag k="alt_name" v="Reiårsdalen;Reiersdal" />
		<tag k="fixme" v="consider place=hamlet" />
		<tag k="name" v="Reiåsdalen" />
		<tag k="place" v="farm" />
		<tag k="ssr:stedsnr" v="56" />
	</node>
	<node lat="58.54628055880578" lon="7.381177785244642" id="-27795">
=======
<osm generator="osmapis" version="0.6">
	<node id="-568829" lat="58.7802972224" lon="7.48035278516">
		<tag k="historic" v="shieling" />
		<tag k="name" v="Hurraheia" />
		<tag k="place" v="locality" />
		<tag k="ssr:stedsnr" v="116813" />
	</node>
	<node id="-570362" lat="58.6746499975" lon="7.37863888661">
		<tag k="alt_name" v="Skardet" />
		<tag k="name" v="Skaret" />
		<tag k="place" v="isolated_dwelling" />
		<tag k="ssr:stedsnr" v="790155" />
	</node>
	<node id="-570873" lat="58.6569277738" lon="7.50953888736">
		<tag k="name" v="Ekjemonøygard" />
		<tag k="place" v="locality" />
		<tag k="ssr:stedsnr" v="104417" />
	</node>
	<node id="-569334" lat="58.6721666662" lon="7.38606111022">
		<tag k="historic" v="shieling" />
		<tag k="name" v="Seldal" />
		<tag k="place" v="locality" />
		<tag k="ssr:stedsnr" v="486186" />
	</node>
	<node id="-571380" lat="58.6265277757" lon="7.46733611696">
		<tag k="historic" v="shieling" />
		<tag k="name" v="Kveldsol" />
		<tag k="place" v="locality" />
		<tag k="ssr:stedsnr" v="406486" />
	</node>
	<node id="-572401" lat="58.561661109" lon="7.4565083375">
		<tag k="fixme" v="consider place=hamlet" />
		<tag k="name" v="Nesland" />
		<tag k="place" v="farm" />
		<tag k="ssr:stedsnr" v="850801" />
	</node>
	<node id="-572399" lat="58.5744305548" lon="7.5448583413">
		<tag k="name" v="Stinemyr" />
		<tag k="place" v="farm" />
		<tag k="ssr:stedsnr" v="850789" />
	</node>
	<node id="-569399" lat="58.5508499992" lon="7.31646388048">
		<tag k="historic" v="shieling" />
		<tag k="name" v="Myreløa" />
		<tag k="place" v="locality" />
		<tag k="ssr:stedsnr" v="346808" />
	</node>
	<node id="-570348" lat="58.6923027761" lon="7.51626943623">
		<tag k="historic" v="shieling" />
		<tag k="name" v="Romeheia" />
		<tag k="place" v="locality" />
		<tag k="ssr:stedsnr" v="789221" />
	</node>
	<node id="-568999" lat="58.5394055517" lon="7.3720888842">
		<tag k="alt_name" v="Øyuvstad" />
>>>>>>> e1d4bc35ff8a6074a6f2e91616a996b547c36f15
		<tag k="fixme" v="consider place=hamlet" />
		<tag k="name" v="Øyulvstad" />
		<tag k="place" v="farm" />
		<tag k="ssr:stedsnr" v="182937" />
	</node>
<<<<<<< HEAD
	<node lat="58.66988611416753" lon="7.462608327357192" id="-27799">
		<tag k="alt_name" v="Eikemoen" />
		<tag k="fixme" v="consider place=hamlet" />
		<tag k="name" v="Eikjemonen" />
		<tag k="place" v="farm" />
		<tag k="ssr:stedsnr" v="1215" />
	</node>
	<node lat="58.583702779060914" lon="7.493958327171414" id="-27821">
		<tag k="name" v="Soyæ" />
		<tag k="place" v="locality" />
		<tag k="ssr:stedsnr" v="42180" />
	</node>
	<node lat="58.698780552841725" lon="7.578355557706077" id="-27881">
		<tag k="name" v="Nordlund" />
		<tag k="place" v="farm" />
		<tag k="ssr:stedsnr" v="61229" />
	</node>
	<node lat="58.56536666268212" lon="7.466608327923592" id="-27896">
		<tag k="fixme" v="consider place=hamlet" />
		<tag k="name" v="Handeland" />
		<tag k="place" v="farm" />
		<tag k="ssr:stedsnr" v="61796" />
	</node>
	<node lat="58.53918055873941" lon="7.416191665044837" id="-27897">
		<tag k="fixme" v="consider place=hamlet" />
		<tag k="name" v="Kylland" />
		<tag k="place" v="farm" />
		<tag k="ssr:stedsnr" v="61938" />
	</node>
	<node lat="58.662413884786574" lon="7.406649994482879" id="-27902">
		<tag k="fixme" v="consider place=hamlet" />
		<tag k="name" v="Røysland" />
		<tag k="place" v="farm" />
		<tag k="ssr:stedsnr" v="62171" />
	</node>
	<node lat="58.52428055400559" lon="7.454244447958726" id="-27908">
		<tag k="fixme" v="consider place=hamlet" />
		<tag k="name" v="Linjord" />
		<tag k="place" v="farm" />
		<tag k="ssr:stedsnr" v="62975" />
	</node>
	<node lat="58.71267222626235" lon="7.489527774146959" id="-27911">
		<tag k="fixme" v="consider place=hamlet" />
		<tag k="name" v="Listøl" />
		<tag k="place" v="farm" />
		<tag k="ssr:stedsnr" v="243004" />
	</node>
	<node lat="58.711686115119804" lon="7.399361108414435" id="-27912">
		<tag k="alt_name" v="Myrløa" />
		<tag k="name" v="Myrløå" />
		<tag k="place" v="isolated_dwelling" />
		<tag k="ssr:stedsnr" v="243009" />
	</node>
	<node lat="58.64547499845668" lon="7.448608340916347" id="-27915">
		<tag k="fixme" v="consider place=hamlet" />
		<tag k="name" v="Torsland" />
		<tag k="place" v="farm" />
		<tag k="ssr:stedsnr" v="243140" />
	</node>
	<node lat="58.631275001004056" lon="7.3943861161183" id="-27917">
		<tag k="alt_name" v="Gløypen" />
		<tag k="name" v="Glypen" />
		<tag k="place" v="isolated_dwelling" />
		<tag k="ssr:stedsnr" v="243124" />
	</node>
	<node lat="58.694955553066734" lon="7.468705554228876" id="-27920">
		<tag k="fixme" v="consider place=hamlet" />
		<tag k="name" v="Rosseland" />
		<tag k="place" v="farm" />
		<tag k="ssr:stedsnr" v="243215" />
	</node>
	<node lat="58.67531666630283" lon="7.336430548130882" id="-27943">
		<tag k="name" v="Solbu" />
		<tag k="place" v="isolated_dwelling" />
		<tag k="ssr:stedsnr" v="244261" />
	</node>
	<node lat="58.624261107685" lon="7.470441666406022" id="-27968">
		<tag k="name" v="Holun" />
		<tag k="place" v="locality" />
		<tag k="ssr:stedsnr" v="103480" />
	</node>
	<node lat="58.656927773820456" lon="7.5095388873562845" id="-28000">
		<tag k="name" v="Ekjemonøygard" />
		<tag k="place" v="locality" />
		<tag k="ssr:stedsnr" v="104417" />
	</node>
	<node lat="58.554247159183106" lon="7.283149219616356" id="-28017">
		<tag k="name" v="Knupen" />
		<tag k="place" v="locality" />
		<tag k="ssr:stedsnr" v="104791" />
	</node>
	<node lat="58.780297222352715" lon="7.48035278515777" id="-28033">
		<tag k="historic" v="shieling" />
		<tag k="name" v="Hurraheia" />
		<tag k="place" v="isolated_dwelling" />
		<tag k="ssr:stedsnr" v="116813" />
	</node>
	<node lat="58.65364444046391" lon="7.30273889705522" id="-28075">
		<tag k="name" v="Dapen" />
		<tag k="place" v="locality" />
		<tag k="ssr:stedsnr" v="164310" />
	</node>
	<node lat="58.594966666114345" lon="7.422555551736739" id="-28089">
		<tag k="name" v="Tjovebua" />
		<tag k="place" v="locality" />
		<tag k="ssr:stedsnr" v="164270" />
	</node>
	<node lat="58.591338889957534" lon="7.459352786201781" id="-28118">
		<tag k="name" v="Tjønnebu" />
		<tag k="place" v="locality" />
		<tag k="ssr:stedsnr" v="165178" />
	</node>
	<node lat="58.539405551700874" lon="7.372088884196727" id="-28133">
		<tag k="alt_name" v="Øyuvstad" />
		<tag k="fixme" v="consider place=hamlet" />
		<tag k="name" v="Øyulvstad" />
		<tag k="place" v="farm" />
		<tag k="ssr:stedsnr" v="182937" />
	</node>
	<node lat="58.78808610742182" lon="7.353044448162275" id="-28144">
		<tag k="fixme" v="consider place=hamlet" />
		<tag k="name" v="Ljosland" />
		<tag k="place" v="village" />
		<tag k="ssr:stedsnr" v="183507" />
	</node>
	<node lat="58.78455555410927" lon="7.566005563958764" id="-28173">
		<tag k="name" v="Vorebuæ" />
		<tag k="place" v="locality" />
		<tag k="ssr:stedsnr" v="224845" />
	</node>
	<node lat="58.75753888931447" lon="7.5410555529164105" id="-28241">
		<tag k="alt_name" v="Austegarden" />
		<tag k="fixme" v="consider place=hamlet" />
		<tag k="name" v="Austegard" />
		<tag k="place" v="farm" />
		<tag k="ssr:stedsnr" v="243594" />
	</node>
	<node lat="58.57294722516617" lon="7.50711945265159" id="-28243">
		<tag k="name" v="Solvoll" />
		<tag k="place" v="farm" />
		<tag k="ssr:stedsnr" v="243785" />
	</node>
	<node lat="58.604633334033586" lon="7.405775006043358" id="-28320">
		<tag k="alt_name" v="Skarpeteigen" />
		<tag k="name" v="Skarpsteigen" />
		<tag k="place" v="farm" />
		<tag k="ssr:stedsnr" v="303819" />
	</node>
	<node lat="58.54253611491059" lon="7.351544451493985" id="-28321">
		<tag k="alt_name" v="Øvre Koven" />
		<tag k="name" v="Koven" />
		<tag k="place" v="isolated_dwelling" />
		<tag k="ssr:stedsnr" v="303951" />
	</node>
	<node lat="58.68501388548281" lon="7.468586107515426" id="-28329">
		<tag k="alt_name" v="Hodna;Hodne" />
		<tag k="fixme" v="consider place=hamlet" />
		<tag k="name" v="Honna" />
		<tag k="place" v="farm" />
		<tag k="ssr:stedsnr" v="304192" />
	</node>
	<node lat="58.69866944044426" lon="7.527272217999188" id="-28347">
		<tag k="name" v="Listøl-Øygard" />
		<tag k="place" v="locality" />
		<tag k="ssr:stedsnr" v="467227" />
	</node>
	<node lat="58.75748889167014" lon="7.505152785548493" id="-28372">
		<tag k="name" v="Grønes" />
		<tag k="place" v="farm" />
		<tag k="ssr:stedsnr" v="468040" />
	</node>
	<node lat="58.686191669292874" lon="7.555944443575525" id="-28392">
		<tag k="name" v="Nere Øygard" />
		<tag k="place" v="locality" />
		<tag k="ssr:stedsnr" v="468285" />
	</node>
	<node lat="58.688558336329486" lon="7.598533336044763" id="-28446">
		<tag k="name" v="Midtteigbuæ" />
=======
	<node id="-571879" lat="58.5186138883" lon="7.35066944631">
		<tag k="fixme" v="consider place=hamlet" />
		<tag k="name" v="Vassbotnen" />
		<tag k="place" v="farm" />
		<tag k="ssr:stedsnr" v="607998" />
	</node>
	<node id="-572389" lat="58.7703777758" lon="7.52746944876">
		<tag k="alt_name" v="Haupelii" />
		<tag k="name" v="Haupeliæ" />
		<tag k="place" v="locality" />
		<tag k="ssr:stedsnr" v="850561" />
	</node>
	<node id="-571875" lat="58.5122333348" lon="7.39101111085">
		<tag k="name" v="Øygarden" />
		<tag k="place" v="locality" />
		<tag k="ssr:stedsnr" v="607869" />
	</node>
	<node id="-569312" lat="58.604633334" lon="7.40577500604">
		<tag k="alt_name" v="Skarpeteigen" />
		<tag k="name" v="Skarpsteigen" />
		<tag k="place" v="farm" />
		<tag k="ssr:stedsnr" v="303819" />
	</node>
	<node id="-572382" lat="58.8328916624" lon="7.37028610718">
		<tag k="historic" v="shieling" />
		<tag k="name" v="Kile" />
		<tag k="place" v="locality" />
		<tag k="ssr:stedsnr" v="850391" />
	</node>
	<node id="-571352" lat="58.7260361123" lon="7.30697500679">
		<tag k="historic" v="shieling" />
		<tag k="name" v="Hanseslegå" />
		<tag k="place" v="locality" />
		<tag k="ssr:stedsnr" v="401335" />
	</node>
	<node id="-571346" lat="58.774516671" lon="7.48404444485">
		<tag k="name" v="Hedderstjønnæ" />
		<tag k="place" v="isolated_dwelling" />
		<tag k="ssr:stedsnr" v="402740" />
	</node>
	<node id="-570275" lat="58.8154111143" lon="7.55706667037">
		<tag k="name" v="Juvasstøl" />
		<tag k="place" v="isolated_dwelling" />
		<tag k="ssr:stedsnr" v="911521" />
	</node>
	<node id="-572368" lat="58.7132722243" lon="7.38299167348">
		<tag k="alt_name" v="Godfarsbu" />
		<tag k="name" v="Gofasbu" />
		<tag k="place" v="isolated_dwelling" />
		<tag k="ssr:stedsnr" v="849010" />
	</node>
	<node id="-568781" lat="58.5729472252" lon="7.50711945265">
		<tag k="name" v="Solvoll" />
		<tag k="place" v="farm" />
		<tag k="ssr:stedsnr" v="243785" />
	</node>
	<node id="-568780" lat="58.7575388893" lon="7.54105555292">
		<tag k="alt_name" v="Austegarden" />
		<tag k="fixme" v="consider place=hamlet" />
		<tag k="name" v="Austegard" />
		<tag k="place" v="farm" />
		<tag k="ssr:stedsnr" v="243594" />
	</node>
	<node id="-572359" lat="58.7182666637" lon="7.38659167499">
		<tag k="historic" v="shieling" />
		<tag k="name" v="Bystøl" />
		<tag k="place" v="locality" />
		<tag k="ssr:stedsnr" v="832967" />
	</node>
	<node id="-569924" lat="58.532963888" lon="7.31232222051">
		<tag k="name" v="Homstøl" />
		<tag k="place" v="isolated_dwelling" />
		<tag k="ssr:stedsnr" v="728077" />
	</node>
	<node id="-571332" lat="58.6751388906" lon="7.27876389155">
		<tag k="alt_name" v="Lordehytta" />
		<tag k="name" v="Lordehyttå" />
		<tag k="place" v="isolated_dwelling" />
		<tag k="ssr:stedsnr" v="365271" />
	</node>
	<node id="-568771" lat="58.631275001" lon="7.39438611612">
		<tag k="alt_name" v="Gløypen" />
		<tag k="name" v="Glypen" />
		<tag k="place" v="isolated_dwelling" />
		<tag k="ssr:stedsnr" v="243124" />
	</node>
	<node id="-571328" lat="58.685877474" lon="7.49960154873">
		<tag k="alt_name" v="Hodnaøygarden" />
		<tag k="name" v="Honnaøygard" />
		<tag k="place" v="locality" />
		<tag k="ssr:stedsnr" v="365216" />
	</node>
	<node id="-569790" lat="58.6578916647" lon="7.50603333477">
		<tag k="name" v="Gamle-øygard" />
		<tag k="place" v="locality" />
		<tag k="ssr:stedsnr" v="710500" />
	</node>
	<node id="-571323" lat="58.5067583309" lon="7.42056944416">
		<tag k="alt_name" v="Håvårdstad" />
		<tag k="fixme" v="consider place=hamlet" />
		<tag k="name" v="Håvorstad" />
		<tag k="place" v="farm" />
		<tag k="ssr:stedsnr" v="364903" />
	</node>
	<node id="-571321" lat="58.619627776" lon="7.50531943696">
		<tag k="name" v="Sandvasstølen" />
		<tag k="place" v="isolated_dwelling" />
		<tag k="ssr:stedsnr" v="364862" />
	</node>
	<node id="-570804" lat="58.6242611077" lon="7.47044166641">
		<tag k="name" v="Holun" />
		<tag k="place" v="locality" />
		<tag k="ssr:stedsnr" v="103480" />
	</node>
	<node id="-569758" lat="58.7374138904" lon="7.44440833174">
		<tag k="historic" v="shieling" />
		<tag k="name" v="Brelandsdalen" />
		<tag k="place" v="locality" />
		<tag k="ssr:stedsnr" v="710270" />
	</node>
	<node id="-569261" lat="58.6861916693" lon="7.55594444358">
		<tag k="name" v="Nere Øygard" />
		<tag k="place" v="locality" />
		<tag k="ssr:stedsnr" v="468285" />
	</node>
	<node id="-571301" lat="58.5430833341" lon="7.32082499996">
		<tag k="name" v="Storeslåtta" />
		<tag k="place" v="isolated_dwelling" />
		<tag k="ssr:stedsnr" v="364115" />
	</node>
	<node id="-570182" lat="58.7238972199" lon="7.47760832863">
		<tag k="name" v="Ekill-øygard" />
		<tag k="place" v="locality" />
		<tag k="ssr:stedsnr" v="893899" />
	</node>
	<node id="-571298" lat="58.7341583288" lon="7.39483610294">
		<tag k="alt_name" v="Bredland" />
		<tag k="fixme" v="consider place=hamlet" />
		<tag k="name" v="Breland" />
		<tag k="place" v="farm" />
		<tag k="ssr:stedsnr" v="364032" />
	</node>
	<node id="-571806" lat="58.6651138845" lon="7.43131944451">
		<tag k="name" v="Tjønnestøl" />
		<tag k="place" v="locality" />
		<tag k="ssr:stedsnr" v="589483" />
	</node>
	<node id="-571291" lat="58.706769445" lon="7.37777778362">
		<tag k="alt_name" v="Øygard, øvre" />
		<tag k="name" v="Øvrøygard" />
		<tag k="place" v="isolated_dwelling" />
		<tag k="ssr:stedsnr" v="364263" />
	</node>
	<node id="-571290" lat="58.7069749962" lon="7.39866667232">
		<tag k="name" v="Brøystøl" />
		<tag k="place" v="isolated_dwelling" />
		<tag k="ssr:stedsnr" v="364262" />
	</node>
	<node id="-571288" lat="58.6538500031" lon="7.50854722924">
		<tag k="name" v="Brattestøl" />
		<tag k="place" v="locality" />
		<tag k="ssr:stedsnr" v="364195" />
	</node>
	<node id="-569751" lat="58.7344527749" lon="7.45838888185">
		<tag k="historic" v="shieling" />
		<tag k="name" v="Norårøygard" />
		<tag k="place" v="locality" />
		<tag k="ssr:stedsnr" v="710229" />
	</node>
	<node id="-572192" lat="58.7895472186" lon="7.5384611147">
		<tag k="name" v="Sandvasshyttå" />
		<tag k="place" v="isolated_dwelling" />
		<tag k="ssr:stedsnr" v="828659" />
	</node>
	<node id="-570534" lat="58.7998222238" lon="7.44486111247">
		<tag k="name" v="Timrebu" />
		<tag k="place" v="locality" />
		<tag k="ssr:stedsnr" v="20932" />
	</node>
	<node id="-572303" lat="58.6427861147" lon="7.34680278214">
		<tag k="name" v="Hommen" />
		<tag k="place" v="locality" />
		<tag k="ssr:stedsnr" v="832426" />
	</node>
	<node id="-569739" lat="58.8316222233" lon="7.34798055212">
		<tag k="historic" v="shieling" />
		<tag k="name" v="Lonebu" />
		<tag k="place" v="locality" />
		<tag k="ssr:stedsnr" v="710177" />
	</node>
	<node id="-570250" lat="58.6127555545" lon="7.42238888735">
		<tag k="name" v="Krossen" />
		<tag k="place" v="farm" />
		<tag k="ssr:stedsnr" v="910804" />
	</node>
	<node id="-569224" lat="58.7574888917" lon="7.50515278555">
		<tag k="name" v="Grønes" />
		<tag k="place" v="farm" />
		<tag k="ssr:stedsnr" v="468040" />
	</node>
	<node id="-570245" lat="58.5669694466" lon="7.39920556218">
		<tag k="fixme" v="consider place=hamlet" />
		<tag k="name" v="Fiskland" />
		<tag k="place" v="farm" />
		<tag k="ssr:stedsnr" v="910762" />
	</node>
	<node id="-570756" lat="58.524280554" lon="7.45424444796">
		<tag k="fixme" v="consider place=hamlet" />
		<tag k="name" v="Linjord" />
		<tag k="place" v="farm" />
		<tag k="ssr:stedsnr" v="62975" />
	</node>
	<node id="-570243" lat="58.5870083372" lon="7.34066943989">
		<tag k="name" v="Øygarden" />
		<tag k="place" v="locality" />
		<tag k="ssr:stedsnr" v="910743" />
	</node>
	<node id="-572288" lat="58.686033336" lon="7.60084721743">
		<tag k="name" v="Ysta Bjorstebuæ" />
		<tag k="place" v="locality" />
		<tag k="ssr:stedsnr" v="832343" />
	</node>
	<node id="-572287" lat="58.6877027782" lon="7.59944721593">
		<tag k="name" v="Ytra Midtteigbuæ" />
		<tag k="place" v="locality" />
		<tag k="ssr:stedsnr" v="832342" />
	</node>
	<node id="-571772" lat="58.624786109" lon="7.43036666723">
		<tag k="name" v="Austerudsmoen" />
		<tag k="place" v="quarter" />
		<tag k="ssr:stedsnr" v="589365" />
	</node>
	<node id="-572283" lat="58.6854055514" lon="7.50952777189">
		<tag k="name" v="Heimåre Øygard" />
>>>>>>> e1d4bc35ff8a6074a6f2e91616a996b547c36f15
		<tag k="place" v="locality" />
		<tag k="ssr:stedsnr" v="832329" />
	</node>
<<<<<<< HEAD
	<node lat="58.73415832879932" lon="7.3948361029391165" id="-28509">
		<tag k="alt_name" v="Bredland" />
		<tag k="fixme" v="consider place=hamlet" />
		<tag k="name" v="Breland" />
		<tag k="place" v="farm" />
		<tag k="ssr:stedsnr" v="364032" />
	</node>
	<node lat="58.62708333420057" lon="7.3891027812120615" id="-28513">
		<tag k="historic" v="shieling" />
		<tag k="name" v="Øygard" />
		<tag k="place" v="isolated_dwelling" />
		<tag k="ssr:stedsnr" v="364158" />
	</node>
	<node lat="58.543083334066786" lon="7.32082499996308" id="-28515">
		<tag k="name" v="Storeslåtta" />
		<tag k="place" v="isolated_dwelling" />
		<tag k="ssr:stedsnr" v="364115" />
	</node>
	<node lat="58.7069749962252" lon="7.398666672324811" id="-28517">
		<tag k="name" v="Brøystøl" />
		<tag k="place" v="isolated_dwelling" />
		<tag k="ssr:stedsnr" v="364262" />
	</node>
	<node lat="58.70676944502568" lon="7.377777783619382" id="-28518">
		<tag k="alt_name" v="Øygard, øvre" />
		<tag k="name" v="Øvrøygard" />
		<tag k="place" v="isolated_dwelling" />
		<tag k="ssr:stedsnr" v="364263" />
	</node>
	<node lat="58.50675833093051" lon="7.420569444159193" id="-28529">
		<tag k="alt_name" v="Håvårdstad" />
		<tag k="fixme" v="consider place=hamlet" />
		<tag k="name" v="Håvorstad" />
		<tag k="place" v="farm" />
		<tag k="ssr:stedsnr" v="364903" />
	</node>
	<node lat="58.72603611225006" lon="7.306975006791591" id="-28545">
		<tag k="historic" v="shieling" />
		<tag k="name" v="Hanseslegå" />
		<tag k="place" v="isolated_dwelling" />
		<tag k="ssr:stedsnr" v="401335" />
	</node>
	<node lat="58.556454926709996" lon="7.379441745106988" id="-28559">
		<tag k="name" v="Sinnes" />
		<tag k="place" v="farm" />
		<tag k="ssr:stedsnr" v="485753" />
	</node>
	<node lat="58.56371666886628" lon="7.466044449997112" id="-28562">
		<tag k="name" v="Skareberglia" />
		<tag k="place" v="farm" />
		<tag k="ssr:stedsnr" v="485781" />
	</node>
	<node lat="58.611936112712804" lon="7.379380558969814" id="-28563">
		<tag k="alt_name" v="Vindmerke" />
		<tag k="name" v="Vindmarka" />
		<tag k="place" v="farm" />
		<tag k="ssr:stedsnr" v="485793" />
	</node>
	<node lat="58.5959083310213" lon="7.510358334843058" id="-28565">
		<tag k="fixme" v="consider place=hamlet" />
		<tag k="name" v="Bydalen" />
		<tag k="place" v="farm" />
		<tag k="ssr:stedsnr" v="485859" />
	</node>
	<node lat="58.76677499738452" lon="7.634280556605866" id="-28646">
		<tag k="historic" v="shieling" />
		<tag k="name" v="Kjosevassøygard" />
		<tag k="place" v="isolated_dwelling" />
		<tag k="ssr:stedsnr" v="486575" />
	</node>
	<node lat="58.52513055999836" lon="7.44404445161055" id="-28652">
=======
	<node id="-570232" lat="58.742058337" lon="7.51778611277">
		<tag k="fixme" v="consider place=hamlet" />
		<tag k="name" v="Tveitstøl" />
		<tag k="place" v="farm" />
		<tag k="ssr:stedsnr" v="910066" />
	</node>
	<node id="-570743" lat="58.5391805587" lon="7.41619166504">
		<tag k="fixme" v="consider place=hamlet" />
		<tag k="name" v="Kylland" />
		<tag k="place" v="farm" />
		<tag k="ssr:stedsnr" v="61938" />
	</node>
	<node id="-570230" lat="58.7423916686" lon="7.60890833176">
		<tag k="name" v="Rostøl" />
		<tag k="place" v="isolated_dwelling" />
		<tag k="ssr:stedsnr" v="910057" />
	</node>
	<node id="-568693" lat="58.6247722219" lon="7.43097778337">
		<tag k="alt_name" v="Troddemonen" />
		<tag k="name" v="Toddemonen" />
		<tag k="place" v="farm" />
		<tag k="ssr:stedsnr" v="225530" />
	</node>
	<node id="-570739" lat="58.5653666627" lon="7.46660832792">
		<tag k="fixme" v="consider place=hamlet" />
		<tag k="name" v="Handeland" />
		<tag k="place" v="farm" />
		<tag k="ssr:stedsnr" v="61796" />
	</node>
	<node id="-570225" lat="58.6721722211" lon="7.41568334065">
		<tag k="name" v="Storli" />
		<tag k="place" v="locality" />
		<tag k="ssr:stedsnr" v="729203" />
	</node>
	<node id="-570222" lat="58.660863885" lon="7.50888888324">
		<tag k="historic" v="shieling" />
		<tag k="name" v="Romeheia" />
		<tag k="place" v="locality" />
		<tag k="ssr:stedsnr" v="729177" />
	</node>
	<node id="-569917" lat="58.8438083301" lon="7.37923610781">
		<tag k="name" v="Stinta" />
		<tag k="place" v="isolated_dwelling" />
		<tag k="ssr:stedsnr" v="607409" />
	</node>
	<node id="-570219" lat="58.5751083309" lon="7.53253333633">
		<tag k="name" v="Brubakken" />
		<tag k="place" v="farm" />
		<tag k="ssr:stedsnr" v="728773" />
	</node>
	<node id="-570218" lat="58.5631333347" lon="7.38694999433">
		<tag k="name" v="Buneset" />
		<tag k="place" v="farm" />
		<tag k="ssr:stedsnr" v="728762" />
	</node>
	<node id="-570217" lat="58.6135805537" lon="7.34165278235">
		<tag k="name" v="Sogja" />
		<tag k="place" v="isolated_dwelling" />
		<tag k="ssr:stedsnr" v="728422" />
	</node>
	<node id="-569704" lat="58.827216669" lon="7.56890832923">
		<tag k="name" v="Gamleøygard" />
		<tag k="place" v="locality" />
		<tag k="ssr:stedsnr" v="706690" />
	</node>
	<node id="-571025" lat="58.6602666639" lon="7.52940555721">
		<tag k="name" v="Sveigsøygard" />
		<tag k="place" v="locality" />
		<tag k="ssr:stedsnr" v="164492" />
	</node>
	<node id="-568676" lat="58.6175583328" lon="7.41538334078">
		<tag k="name" v="Berg" />
		<tag k="place" v="hamlet" />
		<tag k="ssr:stedsnr" v="225399" />
	</node>
	<node id="-571232" lat="58.5833277823" lon="7.41639444481">
		<tag k="name" v="Stokkestøl" />
		<tag k="place" v="locality" />
		<tag k="ssr:stedsnr" v="346215" />
	</node>
	<node id="-570206" lat="58.5857194426" lon="7.44832499644">
		<tag k="name" v="Monebua" />
		<tag k="place" v="locality" />
		<tag k="ssr:stedsnr" v="711226" />
	</node>
	<node id="-570714" lat="58.6987805528" lon="7.57835555771">
		<tag k="name" v="Nordlund" />
		<tag k="place" v="farm" />
		<tag k="ssr:stedsnr" v="61229" />
	</node>
	<node id="-570255" lat="58.7356416654" lon="7.5386194501">
		<tag k="name" v="Storefit" />
		<tag k="place" v="locality" />
		<tag k="ssr:stedsnr" v="911040" />
	</node>
	<node id="-572387" lat="58.8186611086" lon="7.47263055512">
		<tag k="alt_name" v="Bortelii" />
		<tag k="name" v="Bortelid" />
		<tag k="place" v="neighbourhood" />
		<tag k="ssr:stedsnr" v="850518" />
	</node>
	<node id="-571215" lat="58.7034638869" lon="7.57276665915">
		<tag k="name" v="Gamlebu" />
		<tag k="place" v="locality" />
		<tag k="ssr:stedsnr" v="345231" />
	</node>
	<node id="-572233" lat="58.7529833292" lon="7.50949999229">
		<tag k="alt_name" v="Nordgard" />
>>>>>>> e1d4bc35ff8a6074a6f2e91616a996b547c36f15
		<tag k="fixme" v="consider place=hamlet" />
		<tag k="name" v="Nordgarden" />
		<tag k="place" v="farm" />
		<tag k="ssr:stedsnr" v="832026" />
	</node>
<<<<<<< HEAD
	<node lat="58.81844948367332" lon="7.4660613592427705" id="-28655">
		<tag k="alt_name" v="Borteli" />
		<tag k="name" v="Bortelid" />
		<tag k="place" v="farm" />
		<tag k="ssr:stedsnr" v="415440" />
	</node>
	<node lat="58.60461666383846" lon="7.559525003589474" id="-28668">
		<tag k="fixme" v="consider place=hamlet" />
		<tag k="name" v="Flystveit" />
		<tag k="place" v="farm" />
		<tag k="ssr:stedsnr" v="425859" />
	</node>
	<node lat="58.665530555338584" lon="7.30992778120691" id="-28670">
		<tag k="name" v="Krokevasstøl" />
		<tag k="place" v="isolated_dwelling" />
		<tag k="ssr:stedsnr" v="426249" />
	</node>
	<node lat="58.670366670163226" lon="7.405219436114712" id="-28674">
		<tag k="alt_name" v="Røysland" />
		<tag k="name" v="Tveitan" />
		<tag k="place" v="farm" />
		<tag k="ssr:stedsnr" v="426198" />
	</node>
	<node lat="58.6071361139633" lon="7.406563880840583" id="-28765">
		<tag k="alt_name" v="Bubakka" />
		<tag k="name" v="Bubakke" />
		<tag k="place" v="farm" />
		<tag k="ssr:stedsnr" v="485804" />
	</node>
	<node lat="58.60945833503416" lon="7.417941673084314" id="-28766">
		<tag k="name" v="Kvesmoen" />
		<tag k="place" v="farm" />
		<tag k="ssr:stedsnr" v="485807" />
	</node>
	<node lat="58.67216666615885" lon="7.386061110223527" id="-28773">
		<tag k="historic" v="shieling" />
		<tag k="name" v="Seldal" />
		<tag k="place" v="isolated_dwelling" />
		<tag k="ssr:stedsnr" v="486186" />
	</node>
	<node lat="58.754294447102104" lon="7.550013893656138" id="-28775">
		<tag k="alt_name" v="Espeli" />
		<tag k="fixme" v="consider place=hamlet" />
		<tag k="name" v="Espelid" />
		<tag k="place" v="village" />
		<tag k="ssr:stedsnr" v="486603" />
	</node>
	<node lat="58.773969441301304" lon="7.360800001421541" id="-28778">
		<tag k="historic" v="shieling" />
		<tag k="name" v="Kløystøl" />
		<tag k="place" v="isolated_dwelling" />
		<tag k="ssr:stedsnr" v="505907" />
	</node>
	<node lat="58.69856110894962" lon="7.370805549528664" id="-28802">
		<tag k="name" v="Ommundstovas Åstøl" />
		<tag k="place" v="locality" />
		<tag k="ssr:stedsnr" v="528077" />
	</node>
	<node lat="58.75941775724444" lon="7.3894539032930915" id="-28866">
=======
	<node id="-571718" lat="58.8424333334" lon="7.35572777736">
		<tag k="name" v="Bjortjønn øygard" />
		<tag k="place" v="isolated_dwelling" />
		<tag k="ssr:stedsnr" v="584129" />
	</node>
	<node id="-569615" lat="58.5564638924" lon="7.37943610576">
		<tag k="name" v="Sinnes" />
		<tag k="place" v="isolated_dwelling" />
		<tag k="ssr:stedsnr" v="485753" />
	</node>
	<node id="-569664" lat="58.7444527745" lon="7.60234443677">
		<tag k="name" v="Eintre" />
		<tag k="place" v="locality" />
		<tag k="ssr:stedsnr" v="528360" />
	</node>
	<node id="-572217" lat="58.779433336" lon="7.56982776923">
		<tag k="name" v="Vorebu" />
		<tag k="place" v="isolated_dwelling" />
		<tag k="ssr:stedsnr" v="831822" />
	</node>
	<node id="-570680" lat="58.5220555538" lon="7.50376667531">
		<tag k="name" v="Glanestad" />
		<tag k="place" v="locality" />
		<tag k="ssr:stedsnr" v="43863" />
	</node>
	<node id="-569908" lat="58.5763277789" lon="7.45180278255">
		<tag k="name" v="Myrebu" />
		<tag k="place" v="isolated_dwelling" />
		<tag k="ssr:stedsnr" v="606764" />
	</node>
	<node id="-569649" lat="58.7028277795" lon="7.45900832689">
		<tag k="historic" v="shieling" />
		<tag k="name" v="Nereøygard" />
		<tag k="place" v="locality" />
		<tag k="ssr:stedsnr" v="528013" />
	</node>
	<node id="-571694" lat="58.6950805573" lon="7.58908611502">
		<tag k="fixme" v="consider place=hamlet" />
		<tag k="name" v="Håvestøl" />
		<tag k="place" v="farm" />
		<tag k="ssr:stedsnr" v="547256" />
	</node>
	<node id="-570944" lat="58.6043083303" lon="7.28050555157">
		<tag k="name" v="Glypen" />
		<tag k="place" v="isolated_dwelling" />
		<tag k="ssr:stedsnr" v="121439" />
	</node>
	<node id="-569921" lat="58.77363333" lon="7.58128332543">
		<tag k="name" v="Kveven" />
		<tag k="place" v="isolated_dwelling" />
		<tag k="ssr:stedsnr" v="607574" />
	</node>
	<node id="-570153" lat="58.6237861115" lon="7.38981389444">
		<tag k="name" v="Øygarden" />
		<tag k="place" v="farm" />
		<tag k="ssr:stedsnr" v="893402" />
	</node>
	<node id="-569374" lat="58.6885583363" lon="7.59853333604">
		<tag k="name" v="Midtteigbuæ" />
		<tag k="place" v="locality" />
		<tag k="ssr:stedsnr" v="346167" />
	</node>
	<node id="-570147" lat="58.6209833299" lon="7.4103749917">
		<tag k="name" v="Kroken" />
		<tag k="place" v="farm" />
		<tag k="ssr:stedsnr" v="893373" />
	</node>
	<node id="-569634" lat="58.7542944471" lon="7.55001389366">
		<tag k="alt_name" v="Espeli" />
		<tag k="fixme" v="consider place=hamlet" />
		<tag k="name" v="Espelid" />
		<tag k="place" v="village" />
		<tag k="ssr:stedsnr" v="486603" />
	</node>
	<node id="-571680" lat="58.6195277789" lon="7.48987777971">
		<tag k="name" v="Gamlebu" />
		<tag k="place" v="locality" />
		<tag k="ssr:stedsnr" v="546823" />
	</node>
	<node id="-571679" lat="58.6091999985" lon="7.40798611676">
		<tag k="fixme" v="consider place=hamlet" />
		<tag k="name" v="Åsland" />
		<tag k="place" v="farm" />
		<tag k="ssr:stedsnr" v="546806" />
	</node>
	<node id="-570142" lat="58.7433027784" lon="7.60233611408">
		<tag k="historic" v="shieling" />
		<tag k="name" v="Nybu" />
		<tag k="place" v="locality" />
		<tag k="ssr:stedsnr" v="893317" />
	</node>
	<node id="-569221" lat="58.7590361088" lon="7.38433055938">
		<tag k="name" v="Blikkstøl" />
		<tag k="place" v="locality" />
		<tag k="ssr:stedsnr" v="467932" />
	</node>
	<node id="-571674" lat="58.5553666623" lon="7.45961944139">
		<tag k="fixme" v="consider place=hamlet" />
		<tag k="name" v="Tveit" />
		<tag k="place" v="farm" />
		<tag k="ssr:stedsnr" v="546769" />
	</node>
	<node id="-570137" lat="58.739975002" lon="7.6404888971">
		<tag k="name" v="Rolfsbu" />
		<tag k="place" v="isolated_dwelling" />
		<tag k="ssr:stedsnr" v="893277" />
	</node>
	<node id="-569620" lat="58.595908331" lon="7.51035833484">
		<tag k="fixme" v="consider place=hamlet" />
		<tag k="name" v="Bydalen" />
		<tag k="place" v="farm" />
		<tag k="ssr:stedsnr" v="485859" />
	</node>
	<node id="-569619" lat="58.6119361127" lon="7.37938055897">
		<tag k="alt_name" v="Vindmerke" />
		<tag k="name" v="Vindmarka" />
		<tag k="place" v="farm" />
		<tag k="ssr:stedsnr" v="485793" />
	</node>
	<node id="-569618" lat="58.5637166689" lon="7.46604445">
		<tag k="name" v="Skareberglia" />
		<tag k="place" v="farm" />
		<tag k="ssr:stedsnr" v="485781" />
	</node>
	<node id="-571665" lat="58.759388886" lon="7.38938333642">
>>>>>>> e1d4bc35ff8a6074a6f2e91616a996b547c36f15
		<tag k="alt_name" v="Tjørnebu" />
		<tag k="name" v="Tjønnebu" />
		<tag k="place" v="locality" />
		<tag k="ssr:stedsnr" v="546519" />
	</node>
<<<<<<< HEAD
	<node lat="58.609199998484854" lon="7.407986116755351" id="-28868">
		<tag k="fixme" v="consider place=hamlet" />
		<tag k="name" v="Åsland" />
		<tag k="place" v="farm" />
		<tag k="ssr:stedsnr" v="546806" />
	</node>
	<node lat="58.6195277788786" lon="7.489877779705299" id="-28869">
		<tag k="name" v="Gamlebu" />
		<tag k="place" v="locality" />
		<tag k="ssr:stedsnr" v="546823" />
	</node>
	<node lat="58.5553666622851" lon="7.459619441391996" id="-28874">
		<tag k="fixme" v="consider place=hamlet" />
		<tag k="name" v="Tveit" />
		<tag k="place" v="farm" />
		<tag k="ssr:stedsnr" v="546769" />
	</node>
	<node lat="58.62478610900082" lon="7.430366667229658" id="-28933">
		<tag k="name" v="Austerudsmoen" />
		<tag k="place" v="quarter" />
		<tag k="ssr:stedsnr" v="589365" />
	</node>
	<node lat="58.81833055138736" lon="7.465266665024081" id="-28947">
		<tag k="alt_name" v="Borteli" />
		<tag k="name" v="Bortelid" />
		<tag k="place" v="farm" />
		<tag k="ssr:stedsnr" v="597414" />
	</node>
	<node lat="58.576327778895944" lon="7.451802782551448" id="-28953">
		<tag k="name" v="Myrebu" />
		<tag k="place" v="isolated_dwelling" />
		<tag k="ssr:stedsnr" v="606764" />
	</node>
	<node lat="58.518613888271936" lon="7.350669446311754" id="-28976">
		<tag k="fixme" v="consider place=hamlet" />
		<tag k="name" v="Vassbotnen" />
		<tag k="place" v="farm" />
		<tag k="ssr:stedsnr" v="607998" />
	</node>
	<node lat="58.849950002960746" lon="7.3338999978838215" id="-28985">
		<tag k="historic" v="shieling" />
		<tag k="name" v="Bustøl" />
		<tag k="place" v="isolated_dwelling" />
		<tag k="ssr:stedsnr" v="706140" />
	</node>
	<node lat="58.827216669002" lon="7.568908329229266" id="-29005">
		<tag k="name" v="Gamleøygard" />
=======
	<node id="-569103" lat="58.6949555531" lon="7.46870555423">
		<tag k="fixme" v="consider place=hamlet" />
		<tag k="name" v="Rosseland" />
		<tag k="place" v="farm" />
		<tag k="ssr:stedsnr" v="243215" />
	</node>
	<node id="-569102" lat="58.6588750023" lon="7.5131944394">
		<tag k="alt_name" v="Stekroni" />
		<tag k="name" v="Stekronæ" />
		<tag k="place" v="locality" />
		<tag k="ssr:stedsnr" v="243168" />
	</node>
	<node id="-571661" lat="58.5554055534" lon="7.31043610505">
		<tag k="name" v="Kvelpestøl" />
		<tag k="place" v="isolated_dwelling" />
		<tag k="ssr:stedsnr" v="546359" />
	</node>
	<node id="-571148" lat="58.6850138855" lon="7.46858610752">
		<tag k="alt_name" v="Hodna;Hodne" />
		<tag k="fixme" v="consider place=hamlet" />
		<tag k="name" v="Honna" />
		<tag k="place" v="farm" />
		<tag k="ssr:stedsnr" v="304192" />
	</node>
	<node id="-572171" lat="58.7530611067" lon="7.51028333139">
		<tag k="name" v="Lognevatn" />
		<tag k="place" v="hamlet" />
		<tag k="ssr:stedsnr" v="813850" />
	</node>
	<node id="-570634" lat="58.5960083365" lon="7.42527778535">
		<tag k="name" v="Såvestøl" />
		<tag k="place" v="locality" />
		<tag k="ssr:stedsnr" v="43217" />
	</node>
	<node id="-571142" lat="58.5425361149" lon="7.35154445149">
		<tag k="alt_name" v="Øvre Koven" />
		<tag k="name" v="Koven" />
		<tag k="place" v="isolated_dwelling" />
		<tag k="ssr:stedsnr" v="303951" />
	</node>
	<node id="-569603" lat="58.7514888904" lon="7.51445277852">
		<tag k="fixme" v="consider place=hamlet" />
		<tag k="name" v="Åknes" />
		<tag k="place" v="farm" />
		<tag k="ssr:stedsnr" v="668596" />
	</node>
	<node id="-570626" lat="58.7459972247" lon="7.43731945023">
		<tag k="historic" v="shieling" />
		<tag k="name" v="Blikksdalsøygard" />
		<tag k="place" v="locality" />
		<tag k="ssr:stedsnr" v="43142" />
	</node>
	<node id="-570625" lat="58.7396472222" lon="7.44407221958">
		<tag k="name" v="Snøheihyttå" />
		<tag k="place" v="isolated_dwelling" />
		<tag k="ssr:stedsnr" v="43141" />
	</node>
	<node id="-571264" lat="58.6423055537" lon="7.42336666306">
		<tag k="name" v="Skorskog" />
		<tag k="place" v="locality" />
		<tag k="ssr:stedsnr" v="346441" />
	</node>
	<node id="-572157" lat="58.5665805523" lon="7.47581944968">
		<tag k="alt_name" v="Lunnemyr" />
		<tag k="name" v="Lundemyr" />
		<tag k="place" v="farm" />
		<tag k="ssr:stedsnr" v="789794" />
	</node>
	<node id="-569596" lat="58.7629805529" lon="7.33679165941">
		<tag k="historic" v="shieling" />
		<tag k="name" v="Sirisøygard" />
		<tag k="place" v="locality" />
		<tag k="ssr:stedsnr" v="668378" />
	</node>
	<node id="-571130" lat="58.7891956339" lon="7.35570828398">
		<tag k="fixme" v="consider tourism=alpine_hut or tourism=chalet" />
		<tag k="name" v="Ljosland Fjellstove" />
		<tag k="ssr:stedsnr" v="207787" />
		<tag k="tourism" v="wilderness_hut" />
	</node>
	<node id="-570617" lat="58.5712694469" lon="7.40103610271">
		<tag k="name" v="Øygarden" />
		<tag k="place" v="locality" />
		<tag k="ssr:stedsnr" v="43104" />
	</node>
	<node id="-571128" lat="58.7610305594" lon="7.47451667415">
		<tag k="name" v="Øygarden" />
		<tag k="place" v="isolated_dwelling" />
		<tag k="ssr:stedsnr" v="183571" />
	</node>
	<node id="-571127" lat="58.7880861074" lon="7.35304444816">
		<tag k="fixme" v="consider place=hamlet" />
		<tag k="name" v="Ljosland" />
		<tag k="place" v="village" />
		<tag k="ssr:stedsnr" v="183507" />
	</node>
	<node id="-571121" lat="58.6383777796" lon="7.30548610444">
		<tag k="name" v="Dalan" />
		<tag k="place" v="isolated_dwelling" />
		<tag k="ssr:stedsnr" v="183431" />
	</node>
	<node id="-572143" lat="58.7396083309" lon="7.62572776946">
		<tag k="name" v="Koland" />
		<tag k="place" v="farm" />
		<tag k="ssr:stedsnr" v="789035" />
	</node>
	<node id="-569981" lat="58.5288722224" lon="7.45225000518">
		<tag k="alt_name" v="Tuptin" />
		<tag k="name" v="Tupten" />
		<tag k="place" v="locality" />
		<tag k="ssr:stedsnr" v="729986" />
	</node>
	<node id="-569577" lat="58.6618694415" lon="7.4525499981">
		<tag k="alt_name" v="Smedland" />
		<tag k="fixme" v="consider place=hamlet" />
		<tag k="name" v="Smeland" />
		<tag k="place" v="farm" />
		<tag k="ssr:stedsnr" v="668190" />
	</node>
	<node id="-570748" lat="58.6624138848" lon="7.40664999448">
		<tag k="fixme" v="consider place=hamlet" />
		<tag k="name" v="Røysland" />
		<tag k="place" v="farm" />
		<tag k="ssr:stedsnr" v="62171" />
	</node>
	<node id="-571107" lat="58.5762666627" lon="7.51604722471">
		<tag k="alt_name" v="Tjørnestean" />
		<tag k="name" v="Tjønnstean" />
		<tag k="place" v="farm" />
		<tag k="ssr:stedsnr" v="182763" />
	</node>
	<node id="-568543" lat="58.7439027783" lon="7.47288888414">
		<tag k="alt_name" v="Reiårsdalen;Reiersdal" />
		<tag k="fixme" v="consider place=hamlet" />
		<tag k="name" v="Reiåsdalen" />
		<tag k="place" v="farm" />
		<tag k="ssr:stedsnr" v="56" />
	</node>
	<node id="-570078" lat="58.5814444412" lon="7.45650278378">
		<tag k="name" v="Monebu" />
		<tag k="place" v="locality" />
		<tag k="ssr:stedsnr" v="892201" />
	</node>
	<node id="-569565" lat="58.710783333" lon="7.44613610421">
		<tag k="name" v="Firstøl" />
		<tag k="place" v="isolated_dwelling" />
		<tag k="ssr:stedsnr" v="668001" />
	</node>
	<node id="-570582" lat="58.7794527768" lon="7.57997500277">
		<tag k="name" v="Samlogbuæ" />
		<tag k="place" v="locality" />
		<tag k="ssr:stedsnr" v="42820" />
	</node>
	<node id="-572116" lat="58.5393944443" lon="7.35376666026">
		<tag k="name" v="Nedre Koven" />
		<tag k="place" v="isolated_dwelling" />
		<tag k="ssr:stedsnr" v="771942" />
	</node>
	<node id="-569635" lat="58.7739694413" lon="7.36080000142">
		<tag k="historic" v="shieling" />
		<tag k="name" v="Kløystøl" />
		<tag k="place" v="locality" />
		<tag k="ssr:stedsnr" v="505907" />
	</node>
	<node id="-568952" lat="58.7859861132" lon="7.44817499341">
		<tag k="name" v="Skrubbetjønnøygard" />
		<tag k="place" v="isolated_dwelling" />
		<tag k="ssr:stedsnr" v="281729" />
	</node>
	<node id="-569611" lat="58.607136114" lon="7.40656388084">
		<tag k="alt_name" v="Bubakka" />
		<tag k="name" v="Bubakke" />
		<tag k="place" v="farm" />
		<tag k="ssr:stedsnr" v="485804" />
	</node>
	<node id="-571084" lat="58.7317805551" lon="7.37858611853">
		<tag k="name" v="Reinsbu" />
>>>>>>> e1d4bc35ff8a6074a6f2e91616a996b547c36f15
		<tag k="place" v="locality" />
		<tag k="ssr:stedsnr" v="182032" />
	</node>
<<<<<<< HEAD
	<node lat="58.68630555520659" lon="7.5349749917212705" id="-29036">
		<tag k="name" v="Auståre Øygard" />
		<tag k="place" v="locality" />
		<tag k="ssr:stedsnr" v="649300" />
	</node>
	<node lat="58.624074997416805" lon="7.462063891724654" id="-29042">
		<tag k="name" v="Lislabu" />
		<tag k="place" v="locality" />
		<tag k="ssr:stedsnr" v="649488" />
	</node>
	<node lat="58.79976388608714" lon="7.599450001302527" id="-29048">
		<tag k="name" v="Krokevasshyttå" />
		<tag k="place" v="isolated_dwelling" />
		<tag k="ssr:stedsnr" v="649743" />
	</node>
	<node lat="58.54649721872194" lon="7.521475000824504" id="-29068">
		<tag k="name" v="Omestøl" />
		<tag k="place" v="locality" />
		<tag k="ssr:stedsnr" v="649896" />
	</node>
	<node lat="58.56313333473481" lon="7.386949994332422" id="-29071">
		<tag k="name" v="Buneset" />
		<tag k="place" v="farm" />
		<tag k="ssr:stedsnr" v="728762" />
	</node>
	<node lat="58.55219887211813" lon="7.2611086316055085" id="-29083">
		<tag k="name" v="Kråkestøl" />
		<tag k="place" v="locality" />
		<tag k="ssr:stedsnr" v="667147" />
	</node>
	<node lat="58.61411944236917" lon="7.408724992604597" id="-29093">
		<tag k="alt_name" v="Forsgard" />
		<tag k="fixme" v="consider place=hamlet" />
		<tag k="name" v="Forgard" />
		<tag k="place" v="farm" />
		<tag k="ssr:stedsnr" v="667789" />
	</node>
	<node lat="58.66186944146243" lon="7.452549998095638" id="-29101">
		<tag k="alt_name" v="Smedland" />
		<tag k="fixme" v="consider place=hamlet" />
		<tag k="name" v="Smeland" />
		<tag k="place" v="farm" />
		<tag k="ssr:stedsnr" v="668190" />
	</node>
	<node lat="58.751488890399735" lon="7.514452778519284" id="-29119">
		<tag k="fixme" v="consider place=hamlet" />
		<tag k="name" v="Åknes" />
		<tag k="place" v="farm" />
		<tag k="ssr:stedsnr" v="668596" />
	</node>
	<node lat="58.73741389039358" lon="7.444408331742007" id="-29123">
		<tag k="historic" v="shieling" />
		<tag k="name" v="Brelandsdalen" />
		<tag k="place" v="isolated_dwelling" />
		<tag k="ssr:stedsnr" v="710270" />
	</node>
	<node lat="58.58144444119744" lon="7.456502783775052" id="-29146">
		<tag k="name" v="Monebu" />
		<tag k="place" v="locality" />
		<tag k="ssr:stedsnr" v="892201" />
	</node>
	<node lat="58.558902776372626" lon="7.439663893841357" id="-29179">
		<tag k="name" v="Plasset" />
		<tag k="place" v="farm" />
		<tag k="ssr:stedsnr" v="893083" />
	</node>
	<node lat="58.62098332986763" lon="7.410374991697937" id="-29194">
		<tag k="name" v="Kroken" />
		<tag k="place" v="farm" />
		<tag k="ssr:stedsnr" v="893373" />
	</node>
	<node lat="58.62378611147412" lon="7.3898138944444325" id="-29200">
		<tag k="name" v="Øygarden" />
		<tag k="place" v="farm" />
		<tag k="ssr:stedsnr" v="893402" />
	</node>
	<node lat="58.72389721990177" lon="7.477608328633077" id="-29223">
		<tag k="name" v="Ekill-øygard" />
		<tag k="place" v="locality" />
		<tag k="ssr:stedsnr" v="893899" />
	</node>
	<node lat="58.734452774887245" lon="7.458388881848557" id="-29248">
		<tag k="historic" v="shieling" />
		<tag k="name" v="Norårøygard" />
		<tag k="place" v="isolated_dwelling" />
		<tag k="ssr:stedsnr" v="710229" />
	</node>
	<node lat="58.83162222330122" lon="7.347980552120453" id="-29254">
		<tag k="historic" v="shieling" />
		<tag k="name" v="Lonebu" />
		<tag k="place" v="isolated_dwelling" />
		<tag k="ssr:stedsnr" v="710177" />
	</node>
	<node lat="58.65789166470294" lon="7.506033334774846" id="-29271">
		<tag k="name" v="Gamle-øygard" />
		<tag k="place" v="locality" />
		<tag k="ssr:stedsnr" v="710500" />
	</node>
	<node lat="58.58571944258687" lon="7.448324996436619" id="-29300">
		<tag k="name" v="Monebua" />
		<tag k="place" v="locality" />
		<tag k="ssr:stedsnr" v="711226" />
	</node>
	<node lat="58.7597722223199" lon="7.443838889750652" id="-29303">
		<tag k="historic" v="shieling" />
		<tag k="name" v="Storrhei" />
		<tag k="place" v="isolated_dwelling" />
		<tag k="ssr:stedsnr" v="952964" />
	</node>
	<node lat="58.53296388797032" lon="7.312322220505212" id="-29304">
		<tag k="name" v="Homstøl" />
		<tag k="place" v="isolated_dwelling" />
		<tag k="ssr:stedsnr" v="728077" />
	</node>
	<node lat="58.61358055371984" lon="7.341652782352603" id="-29309">
		<tag k="name" v="Sogja" />
		<tag k="place" v="isolated_dwelling" />
		<tag k="ssr:stedsnr" v="728422" />
	</node>
	<node lat="58.57510833088777" lon="7.532533336334242" id="-29312">
		<tag k="name" v="Brubakken" />
		<tag k="place" v="farm" />
		<tag k="ssr:stedsnr" v="728773" />
	</node>
	<node lat="58.66086388497824" lon="7.508888883237836" id="-29317">
		<tag k="historic" v="shieling" />
		<tag k="name" v="Romeheia" />
		<tag k="place" v="isolated_dwelling" />
		<tag k="ssr:stedsnr" v="729177" />
	</node>
	<node lat="58.742391668569375" lon="7.608908331762926" id="-29403">
		<tag k="name" v="Rostøl" />
		<tag k="place" v="isolated_dwelling" />
		<tag k="ssr:stedsnr" v="910057" />
	</node>
	<node lat="58.74205833700354" lon="7.517786112772805" id="-29405">
		<tag k="fixme" v="consider place=hamlet" />
		<tag k="name" v="Tveitstøl" />
		<tag k="place" v="farm" />
		<tag k="ssr:stedsnr" v="910066" />
	</node>
	<node lat="58.58700833723174" lon="7.340669439886474" id="-29416">
		<tag k="name" v="Øygarden" />
		<tag k="place" v="locality" />
		<tag k="ssr:stedsnr" v="910743" />
	</node>
	<node lat="58.5669694465738" lon="7.399205562180256" id="-29417">
		<tag k="fixme" v="consider place=hamlet" />
		<tag k="name" v="Fiskland" />
		<tag k="place" v="farm" />
		<tag k="ssr:stedsnr" v="910762" />
	</node>
	<node lat="58.6127555545211" lon="7.4223888873474975" id="-29422">
		<tag k="name" v="Krossen" />
		<tag k="place" v="farm" />
		<tag k="ssr:stedsnr" v="910804" />
	</node>
	<node lat="58.8154111143316" lon="7.557066670374938" id="-29457">
		<tag k="name" v="Juvasstøl" />
		<tag k="place" v="isolated_dwelling" />
		<tag k="ssr:stedsnr" v="911521" />
	</node>
	<node lat="58.67464999752948" lon="7.378638886609586" id="-29475">
		<tag k="alt_name" v="Skardet" />
		<tag k="name" v="Skaret" />
		<tag k="place" v="isolated_dwelling" />
		<tag k="ssr:stedsnr" v="790155" />
	</node>
	<node lat="58.53280348726962" lon="7.4105195822864545" id="-29482">
		<tag k="name" v="Aukland" />
		<tag k="place" v="locality" />
		<tag k="ssr:stedsnr" v="790955" />
	</node>
	<node lat="58.685405551364404" lon="7.509527771889927" id="-29530">
		<tag k="name" v="Heimåre Øygard" />
		<tag k="place" v="locality" />
		<tag k="ssr:stedsnr" v="832329" />
	</node>
	<node lat="58.71327222432328" lon="7.3829916734757814" id="-29594">
		<tag k="alt_name" v="Godfarsbu" />
		<tag k="name" v="Gofasbu" />
		<tag k="place" v="isolated_dwelling" />
		<tag k="ssr:stedsnr" v="849010" />
	</node>
	<node lat="58.83289166237731" lon="7.3702861071786" id="-29598">
		<tag k="historic" v="shieling" />
		<tag k="name" v="Kile" />
		<tag k="place" v="isolated_dwelling" />
		<tag k="ssr:stedsnr" v="850391" />
	</node>
	<node lat="58.793836108016784" lon="7.4876999916413505" id="-29616">
		<tag k="fixme" v="consider place=hamlet" />
		<tag k="name" v="Tjaldal" />
		<tag k="place" v="village" />
		<tag k="ssr:stedsnr" v="851510" />
	</node>
	<node lat="58.74330277836197" lon="7.60233611407697" id="-29661">
		<tag k="historic" v="shieling" />
		<tag k="name" v="Nybu" />
		<tag k="place" v="isolated_dwelling" />
		<tag k="ssr:stedsnr" v="893317" />
	</node>
	<node lat="58.73997500198605" lon="7.640488897104121" id="-29670">
		<tag k="name" v="Rolfsbu" />
		<tag k="place" v="isolated_dwelling" />
		<tag k="ssr:stedsnr" v="893277" />
	</node>
	<node lat="58.59706666996169" lon="7.329494438494092" id="-29692">
		<tag k="name" v="Kotet" />
		<tag k="place" v="isolated_dwelling" />
		<tag k="ssr:stedsnr" v="910411" />
	</node>
	<node lat="58.58586666245456" lon="7.327566669001064" id="-29693">
		<tag k="alt_name" v="Lonestøl" />
		<tag k="name" v="Lonin" />
		<tag k="place" v="isolated_dwelling" />
		<tag k="ssr:stedsnr" v="910416" />
	</node>
	<node lat="58.70712499580181" lon="7.4811694408332565" id="-29698">
		<tag k="alt_name" v="Røylland;Røyland" />
		<tag k="fixme" v="consider place=hamlet" />
		<tag k="name" v="Røyddan" />
		<tag k="place" v="farm" />
		<tag k="ssr:stedsnr" v="911267" />
	</node>
	<node lat="58.78418333662467" lon="7.528388888951555" id="-29710">
		<tag k="name" v="Ingebjørgsbuæ" />
		<tag k="place" v="locality" />
		<tag k="ssr:stedsnr" v="949247" />
	</node>
	<node lat="58.617716605022956" lon="7.418032479768725" id="-29780">
		<tag k="fixme" v="consider place=hamlet" />
		<tag k="name" v="Underberg" />
		<tag k="place" v="farm" />
		<tag k="ssr:stedsnr" v="979161" />
	</node>
	<node lat="58.727066663519125" lon="7.47519445157364" id="-29783">
		<tag k="alt_name" v="Eikil" />
		<tag k="fixme" v="consider place=hamlet" />
		<tag k="name" v="Ekill" />
		<tag k="place" v="farm" />
		<tag k="ssr:stedsnr" v="12" />
	</node>
	<node lat="58.72024721894027" lon="7.458580558392624" id="-29785">
		<tag k="name" v="Liland" />
		<tag k="place" v="isolated_dwelling" />
		<tag k="ssr:stedsnr" v="19" />
	</node>
	<node lat="58.72853889002532" lon="7.393075007809392" id="-29786">
		<tag k="name" v="Sandnes" />
		<tag k="place" v="farm" />
		<tag k="ssr:stedsnr" v="32" />
	</node>
	<node lat="58.57693610817731" lon="7.53660556083604" id="-29806">
		<tag k="alt_name" v="Ekså" />
		<tag k="fixme" v="consider place=hamlet" />
		<tag k="name" v="Egså" />
		<tag k="place" v="farm" />
		<tag k="ssr:stedsnr" v="783" />
	</node>
	<node lat="58.79982222379244" lon="7.444861112470107" id="-29822">
		<tag k="name" v="Timrebu" />
		<tag k="place" v="locality" />
		<tag k="ssr:stedsnr" v="20932" />
	</node>
	<node lat="58.814805556298666" lon="7.325794444837262" id="-29845">
		<tag k="historic" v="shieling" />
		<tag k="name" v="Velifjeddøygard" />
		<tag k="place" v="isolated_dwelling" />
		<tag k="ssr:stedsnr" v="42063" />
	</node>
	<node lat="58.779452776811034" lon="7.5799750027651704" id="-29859">
		<tag k="name" v="Samlogbuæ" />
		<tag k="place" v="locality" />
		<tag k="ssr:stedsnr" v="42820" />
	</node>
	<node lat="58.73964722220167" lon="7.444072219576635" id="-29897">
		<tag k="name" v="Snøheihyttå" />
		<tag k="place" v="isolated_dwelling" />
		<tag k="ssr:stedsnr" v="43141" />
	</node>
	<node lat="58.745997224743725" lon="7.4373194502273305" id="-29898">
		<tag k="historic" v="shieling" />
		<tag k="name" v="Blikksdalsøygard" />
		<tag k="place" v="isolated_dwelling" />
		<tag k="ssr:stedsnr" v="43142" />
	</node>
	<node lat="58.596008336524996" lon="7.425277785351049" id="-29902">
		<tag k="name" v="Såvestøl" />
		<tag k="place" v="locality" />
		<tag k="ssr:stedsnr" v="43217" />
	</node>
	<node lat="58.57126944689189" lon="7.401036102708866" id="-29911">
		<tag k="name" v="Øygarden" />
		<tag k="place" v="locality" />
		<tag k="ssr:stedsnr" v="43104" />
	</node>
	<node lat="58.522055553794395" lon="7.503766675309985" id="-29936">
		<tag k="name" v="Glanestad" />
		<tag k="place" v="locality" />
		<tag k="ssr:stedsnr" v="43863" />
	</node>
	<node lat="58.73902777797832" lon="7.5081027854919755" id="-30099">
		<tag k="alt_name" v="Røynelien" />
		<tag k="fixme" v="consider place=hamlet" />
		<tag k="name" v="Røynli" />
		<tag k="place" v="farm" />
		<tag k="ssr:stedsnr" v="121063" />
	</node>
	<node lat="58.60430833027609" lon="7.2805055515656685" id="-30103">
		<tag k="name" v="Glypen" />
=======
	<node id="-571079" lat="58.59133889" lon="7.4593527862">
		<tag k="name" v="Tjønnebu" />
		<tag k="place" v="locality" />
		<tag k="ssr:stedsnr" v="165178" />
	</node>
	<node id="-571094" lat="58.8391166627" lon="7.4582722237">
		<tag k="alt_name" v="Kvitevassøygarden" />
		<tag k="name" v="Kvitevassøygard" />
		<tag k="place" v="locality" />
		<tag k="ssr:stedsnr" v="182385" />
	</node>
	<node id="-569540" lat="58.6141194424" lon="7.4087249926">
		<tag k="alt_name" v="Forsgard" />
		<tag k="fixme" v="consider place=hamlet" />
		<tag k="name" v="Forgard" />
		<tag k="place" v="farm" />
		<tag k="ssr:stedsnr" v="667789" />
	</node>
	<node id="-569539" lat="58.6152361097" lon="7.41390834079">
		<tag k="alt_name" v="Kyrkjebygdi" />
		<tag k="fixme" v="consider place=hamlet" />
		<tag k="name" v="Kyrkjebygda" />
		<tag k="place" v="village" />
		<tag k="ssr:stedsnr" v="667783" />
	</node>
	<node id="-570560" lat="58.5837027791" lon="7.49395832717">
		<tag k="name" v="Soyæ" />
		<tag k="place" v="locality" />
		<tag k="ssr:stedsnr" v="42180" />
	</node>
	<node id="-569120" lat="58.6753166663" lon="7.33643054813">
		<tag k="name" v="Solbu" />
		<tag k="place" v="isolated_dwelling" />
		<tag k="ssr:stedsnr" v="244261" />
	</node>
	<node id="-571581" lat="58.7441500019" lon="7.61450832664">
		<tag k="name" v="Olasøygard" />
		<tag k="place" v="locality" />
		<tag k="ssr:stedsnr" v="528323" />
	</node>
	<node id="-570556" lat="58.8148055563" lon="7.32579444484">
		<tag k="historic" v="shieling" />
		<tag k="name" v="Velifjeddøygard" />
		<tag k="place" v="locality" />
		<tag k="ssr:stedsnr" v="42063" />
	</node>
	<node id="-569528" lat="58.6986694404" lon="7.527272218">
		<tag k="name" v="Listøl-Øygard" />
		<tag k="place" v="locality" />
		<tag k="ssr:stedsnr" v="467227" />
	</node>
	<node id="-570037" lat="58.7620277766" lon="7.5850250036">
		<tag k="name" v="Sigurdsbu" />
		<tag k="place" v="locality" />
		<tag k="ssr:stedsnr" v="668605" />
	</node>
	<node id="-569011" lat="58.7842500017" lon="7.30885278079">
		<tag k="name" v="Farstøl" />
		<tag k="place" v="isolated_dwelling" />
		<tag k="ssr:stedsnr" v="183324" />
	</node>
	<node id="-569010" lat="58.8005249993" lon="7.32031667243">
		<tag k="alt_name" v="Grasdalsøygard" />
		<tag k="name" v="Grasdalen" />
		<tag k="place" v="locality" />
		<tag k="ssr:stedsnr" v="183321" />
	</node>
	<node id="-569514" lat="58.5521138871" lon="7.2610777818">
		<tag k="name" v="Kråkestøl" />
		<tag k="place" v="locality" />
		<tag k="ssr:stedsnr" v="667147" />
	</node>
	<node id="-571559" lat="58.7140972191" lon="7.58927499957">
		<tag k="name" v="Krokevasshyttå" />
		<tag k="place" v="isolated_dwelling" />
		<tag k="ssr:stedsnr" v="528103" />
	</node>
	<node id="-571046" lat="58.5708138914" lon="7.28221944961">
		<tag k="name" v="Leitebu" />
		<tag k="place" v="locality" />
		<tag k="ssr:stedsnr" v="164738" />
	</node>
	<node id="-570014" lat="58.6863055552" lon="7.53497499172">
		<tag k="name" v="Auståre Øygard" />
		<tag k="place" v="locality" />
		<tag k="ssr:stedsnr" v="649300" />
	</node>
	<node id="-571036" lat="58.6189861113" lon="7.40535278033">
		<tag k="name" v="Karten" />
		<tag k="place" v="farm" />
		<tag k="ssr:stedsnr" v="164448" />
	</node>
	<node id="-569356" lat="58.52513056" lon="7.44404445161">
		<tag k="fixme" v="consider place=hamlet" />
		<tag k="name" v="Åmland" />
		<tag k="place" v="farm" />
		<tag k="ssr:stedsnr" v="486985" />
	</node>
	<node id="-571844" lat="58.8183305514" lon="7.46526666502">
		<tag k="alt_name" v="Borteli" />
		<tag k="name" v="Bortelid" />
		<tag k="place" v="farm" />
		<tag k="ssr:stedsnr" v="597414" />
	</node>
	<node id="-572564" lat="58.5581733933" lon="7.44168222611">
		<tag k="fixme" v="consider place=hamlet" />
		<tag k="name" v="Vormelien" />
		<tag k="place" v="farm" />
		<tag k="ssr:stedsnr" v="979189" />
	</node>
	<node id="-572563" lat="58.7550424452" lon="7.54804434083">
		<tag k="fixme" v="consider place=hamlet" />
		<tag k="name" v="Espelid" />
		<tag k="place" v="farm" />
		<tag k="ssr:stedsnr" v="979188" />
	</node>
	<node id="-572562" lat="58.7918434745" lon="7.49219824311">
		<tag k="fixme" v="consider place=hamlet" />
		<tag k="name" v="Tjaldal" />
		<tag k="place" v="farm" />
		<tag k="ssr:stedsnr" v="979187" />
	</node>
	<node id="-570513" lat="58.6698861142" lon="7.46260832736">
		<tag k="alt_name" v="Eikemoen" />
		<tag k="fixme" v="consider place=hamlet" />
		<tag k="name" v="Eikjemonen" />
		<tag k="place" v="farm" />
		<tag k="ssr:stedsnr" v="1215" />
	</node>
	<node id="-572560" lat="58.788589584" lon="7.35084132212">
		<tag k="fixme" v="consider place=hamlet" />
		<tag k="name" v="Ljosland" />
		<tag k="place" v="farm" />
		<tag k="ssr:stedsnr" v="979185" />
	</node>
	<node id="-572559" lat="58.6157140328" lon="7.42243305695">
		<tag k="fixme" v="consider place=hamlet" />
		<tag k="name" v="Austrhus" />
		<tag k="place" v="farm" />
		<tag k="ssr:stedsnr" v="979162" />
	</node>
	<node id="-572558" lat="58.617716605" lon="7.41803247977">
		<tag k="fixme" v="consider place=hamlet" />
		<tag k="name" v="Underberg" />
		<tag k="place" v="farm" />
		<tag k="ssr:stedsnr" v="979161" />
	</node>
	<node id="-571529" lat="58.6985611089" lon="7.37080554953">
		<tag k="name" v="Ommundstovas Åstøl" />
		<tag k="place" v="locality" />
		<tag k="ssr:stedsnr" v="528077" />
	</node>
	<node id="-570504" lat="58.5462805588" lon="7.38117778524">
		<tag k="fixme" v="consider place=hamlet" />
		<tag k="name" v="Madland" />
		<tag k="place" v="farm" />
		<tag k="ssr:stedsnr" v="806" />
	</node>
	<node id="-570502" lat="58.5769361082" lon="7.53660556084">
		<tag k="alt_name" v="Ekså" />
		<tag k="fixme" v="consider place=hamlet" />
		<tag k="name" v="Egså" />
		<tag k="place" v="farm" />
		<tag k="ssr:stedsnr" v="783" />
	</node>
	<node id="-572561" lat="58.8519949028" lon="7.49905031206">
		<tag k="name" v="Helleren" />
		<tag k="place" v="locality" />
		<tag k="ssr:stedsnr" v="979186" />
	</node>
	<node id="-570123" lat="58.5589027764" lon="7.43966389384">
		<tag k="name" v="Plasset" />
		<tag k="place" v="farm" />
		<tag k="ssr:stedsnr" v="893083" />
	</node>
	<node id="-571516" lat="58.8195861153" lon="7.47134444027">
		<tag k="building" v="apartments" />
		<tag k="name" v="Bortelidseter" />
		<tag k="ssr:stedsnr" v="525631" />
	</node>
	<node id="-568682" lat="58.6318861124" lon="7.35933333473">
		<tag k="name" v="Troddegarden" />
		<tag k="place" v="locality" />
		<tag k="ssr:stedsnr" v="225436" />
	</node>
	<node id="-572095" lat="58.6026500032" lon="7.38943611204">
		<tag k="name" v="Åslandsøygard" />
		<tag k="place" v="locality" />
		<tag k="ssr:stedsnr" v="771378" />
	</node>
	<node id="-571512" lat="58.7929444428" lon="7.51501110583">
		<tag k="name" v="Dybleøygard" />
		<tag k="place" v="locality" />
		<tag k="ssr:stedsnr" v="524638" />
	</node>
	<node id="-568948" lat="58.8434083353" lon="7.43600277518">
		<tag k="name" v="Gluggvarhyttå" />
		<tag k="place" v="isolated_dwelling" />
		<tag k="ssr:stedsnr" v="281701" />
	</node>
	<node id="-569969" lat="58.8164416653" lon="7.33244444333">
		<tag k="name" v="Tjønnbu" />
		<tag k="place" v="isolated_dwelling" />
		<tag k="ssr:stedsnr" v="770146" />
	</node>
	<node id="-570479" lat="58.72853889" lon="7.39307500781">
		<tag k="name" v="Sandnes" />
		<tag k="place" v="farm" />
		<tag k="ssr:stedsnr" v="32" />
	</node>
	<node id="-570478" lat="58.7202472189" lon="7.45858055839">
		<tag k="name" v="Liland" />
		<tag k="place" v="isolated_dwelling" />
		<tag k="ssr:stedsnr" v="19" />
	</node>
	<node id="-570476" lat="58.7270666635" lon="7.47519445157">
		<tag k="alt_name" v="Eikil" />
		<tag k="fixme" v="consider place=hamlet" />
		<tag k="name" v="Ekill" />
		<tag k="place" v="farm" />
		<tag k="ssr:stedsnr" v="12" />
	</node>
	<node id="-569710" lat="58.7894472255" lon="7.2475027796">
		<tag k="fixme" v="consider tourism=alpine_hut or tourism=chalet" />
		<tag k="name" v="Lakkenstova" />
		<tag k="ssr:stedsnr" v="573919" />
		<tag k="tourism" v="wilderness_hut" />
	</node>
	<node id="-570984" lat="58.7965944466" lon="7.47414723052">
		<tag k="name" v="Juvlia" />
		<tag k="place" v="locality" />
		<tag k="ssr:stedsnr" v="141961" />
	</node>
	<node id="-570980" lat="58.5239666636" lon="7.44943889495">
		<tag k="name" v="Skardet" />
		<tag k="place" v="farm" />
		<tag k="ssr:stedsnr" v="122982" />
	</node>
	<node id="-572003" lat="58.7997638861" lon="7.5994500013">
		<tag k="name" v="Krokevasshyttå" />
		<tag k="place" v="isolated_dwelling" />
		<tag k="ssr:stedsnr" v="649743" />
	</node>
	<node id="-571490" lat="58.6703666702" lon="7.40521943611">
		<tag k="alt_name" v="Røysland" />
		<tag k="name" v="Tveitan" />
		<tag k="place" v="farm" />
		<tag k="ssr:stedsnr" v="426198" />
	</node>
	<node id="-568772" lat="58.6454749985" lon="7.44860834092">
		<tag k="fixme" v="consider place=hamlet" />
		<tag k="name" v="Torsland" />
		<tag k="place" v="farm" />
		<tag k="ssr:stedsnr" v="243140" />
	</node>
	<node id="-571485" lat="58.6655305553" lon="7.30992778121">
		<tag k="name" v="Krokevasstøl" />
		<tag k="place" v="isolated_dwelling" />
		<tag k="ssr:stedsnr" v="426249" />
	</node>
	<node id="-572508" lat="58.8155888911" lon="7.50713611789">
		<tag k="name" v="Liansøygard" />
		<tag k="place" v="locality" />
		<tag k="ssr:stedsnr" v="953290" />
	</node>
	<node id="-569947" lat="58.5399555577" lon="7.35998332692">
		<tag k="alt_name" v="Eikjerapen" />
		<tag k="fixme" v="consider place=hamlet" />
		<tag k="name" v="Eikerapen" />
		<tag k="place" v="farm" />
		<tag k="ssr:stedsnr" v="728941" />
	</node>
	<node id="-571994" lat="58.5464972187" lon="7.52147500082">
		<tag k="name" v="Omestøl" />
		<tag k="place" v="locality" />
		<tag k="ssr:stedsnr" v="649896" />
	</node>
	<node id="-568591" lat="58.7845555541" lon="7.56600556396">
		<tag k="name" v="Vorebuæ" />
		<tag k="place" v="locality" />
		<tag k="ssr:stedsnr" v="224845" />
	</node>
	<node id="-571480" lat="58.5815666627" lon="7.36769722245">
		<tag k="name" v="Skjerkestøl" />
		<tag k="place" v="isolated_dwelling" />
		<tag k="ssr:stedsnr" v="425770" />
	</node>
	<node id="-571476" lat="58.5183361087" lon="7.50354999426">
		<tag k="name" v="Haddeland" />
		<tag k="place" v="isolated_dwelling" />
		<tag k="ssr:stedsnr" v="425880" />
	</node>
	<node id="-571472" lat="58.6046166638" lon="7.55952500359">
		<tag k="fixme" v="consider place=hamlet" />
		<tag k="name" v="Flystveit" />
		<tag k="place" v="farm" />
		<tag k="ssr:stedsnr" v="425859" />
	</node>
	<node id="-569101" lat="58.7350388853" lon="7.47580833001">
		<tag k="name" v="Myran" />
		<tag k="place" v="locality" />
		<tag k="ssr:stedsnr" v="243022" />
	</node>
	<node id="-569418" lat="58.6270833342" lon="7.38910278121">
		<tag k="historic" v="shieling" />
		<tag k="name" v="Øygard" />
		<tag k="place" v="locality" />
		<tag k="ssr:stedsnr" v="364158" />
	</node>
	<node id="-571464" lat="58.7162583345" lon="7.61226388373">
		<tag k="alt_name" v="Håvestøløygard" />
		<tag k="name" v="Øygarden" />
		<tag k="place" v="isolated_dwelling" />
		<tag k="ssr:stedsnr" v="425239" />
	</node>
	<node id="-569612" lat="58.609458335" lon="7.41794167308">
		<tag k="name" v="Kvesmoen" />
		<tag k="place" v="farm" />
		<tag k="ssr:stedsnr" v="485807" />
	</node>
	<node id="-571462" lat="58.6179555533" lon="7.4165250031">
		<tag k="name" v="Bordalen" />
		<tag k="place" v="farm" />
		<tag k="ssr:stedsnr" v="425130" />
	</node>
	<node id="-572484" lat="58.7057861148" lon="7.62968054875">
		<tag k="name" v="Austebekkbuæ" />
		<tag k="place" v="locality" />
		<tag k="ssr:stedsnr" v="953185" />
	</node>
	<node id="-569923" lat="58.7466138854" lon="7.47586111662">
		<tag k="fixme" v="consider place=hamlet" />
		<tag k="name" v="Hamkoll" />
		<tag k="place" v="farm" />
		<tag k="ssr:stedsnr" v="728051" />
	</node>
	<node id="-571458" lat="58.8184494837" lon="7.46606135924">
		<tag k="alt_name" v="Borteli" />
		<tag k="name" v="Bortelid" />
		<tag k="place" v="farm" />
		<tag k="ssr:stedsnr" v="415440" />
	</node>
	<node id="-569099" lat="58.7116861151" lon="7.39936110841">
		<tag k="alt_name" v="Myrløa" />
		<tag k="name" v="Myrløå" />
>>>>>>> e1d4bc35ff8a6074a6f2e91616a996b547c36f15
		<tag k="place" v="isolated_dwelling" />
		<tag k="ssr:stedsnr" v="243009" />
	</node>
<<<<<<< HEAD
	<node lat="58.52396666364589" lon="7.449438894949419" id="-30137">
		<tag k="name" v="Skardet" />
		<tag k="place" v="farm" />
		<tag k="ssr:stedsnr" v="122982" />
	</node>
	<node lat="58.79659444659582" lon="7.47414723051982" id="-30142">
		<tag k="name" v="Juvlia" />
		<tag k="place" v="locality" />
		<tag k="ssr:stedsnr" v="141961" />
	</node>
	<node lat="58.61898611129183" lon="7.405352780327328" id="-30209">
		<tag k="name" v="Karten" />
		<tag k="place" v="farm" />
		<tag k="ssr:stedsnr" v="164448" />
	</node>
	<node lat="58.660486576969824" lon="7.52923766995347" id="-30215">
		<tag k="name" v="Sveigsøygard" />
		<tag k="place" v="locality" />
		<tag k="ssr:stedsnr" v="164492" />
	</node>
	<node lat="58.57081389137769" lon="7.282219449611929" id="-30232">
		<tag k="name" v="Leitebu" />
		<tag k="place" v="locality" />
		<tag k="ssr:stedsnr" v="164738" />
	</node>
	<node lat="58.73178055509852" lon="7.378586118534931" id="-30265">
		<tag k="name" v="Reinsbu" />
		<tag k="place" v="locality" />
		<tag k="ssr:stedsnr" v="182032" />
	</node>
	<node lat="58.8391166627056" lon="7.458272223700654" id="-30276">
		<tag k="alt_name" v="Kvitevassøygarden" />
		<tag k="name" v="Kvitevassøygard" />
		<tag k="place" v="locality" />
		<tag k="ssr:stedsnr" v="182385" />
	</node>
	<node lat="58.57626666270236" lon="7.516047224705667" id="-30281">
		<tag k="alt_name" v="Tjørnestean" />
		<tag k="name" v="Tjønnstean" />
		<tag k="place" v="farm" />
		<tag k="ssr:stedsnr" v="182763" />
	</node>
	<node lat="58.638377779563555" lon="7.305486104435844" id="-30284">
		<tag k="name" v="Dalan" />
		<tag k="place" v="isolated_dwelling" />
		<tag k="ssr:stedsnr" v="183431" />
	</node>
	<node lat="58.80033627574381" lon="7.320461151311551" id="-30290">
		<tag k="alt_name" v="Grasdalsøygard" />
		<tag k="name" v="Grasdalen" />
=======
	<node id="-572480" lat="58.6893833366" lon="7.59665277927">
		<tag k="name" v="Heimra Bjorstebuæ" />
		<tag k="place" v="locality" />
		<tag k="ssr:stedsnr" v="953174" />
	</node>
	<node id="-569696" lat="58.849950003" lon="7.33389999788">
		<tag k="historic" v="shieling" />
		<tag k="name" v="Bustøl" />
		<tag k="place" v="locality" />
		<tag k="ssr:stedsnr" v="706140" />
	</node>
	<node id="-568894" lat="58.6536444405" lon="7.30273889706">
		<tag k="name" v="Dapen" />
		<tag k="place" v="locality" />
		<tag k="ssr:stedsnr" v="164310" />
	</node>
	<node id="-570429" lat="58.7071249958" lon="7.48116944083">
		<tag k="alt_name" v="Røylland;Røyland" />
		<tag k="fixme" v="consider place=hamlet" />
		<tag k="name" v="Røyddan" />
		<tag k="place" v="farm" />
		<tag k="ssr:stedsnr" v="911267" />
	</node>
	<node id="-569098" lat="58.7126722263" lon="7.48952777415">
		<tag k="fixme" v="consider place=hamlet" />
		<tag k="name" v="Listøl" />
		<tag k="place" v="farm" />
		<tag k="ssr:stedsnr" v="243004" />
	</node>
	<node id="-570426" lat="58.5858666625" lon="7.327566669">
		<tag k="alt_name" v="Lonestøl" />
		<tag k="name" v="Lonin" />
		<tag k="place" v="isolated_dwelling" />
		<tag k="ssr:stedsnr" v="910416" />
	</node>
	<node id="-570425" lat="58.59706667" lon="7.32949443849">
		<tag k="name" v="Kotet" />
		<tag k="place" v="isolated_dwelling" />
		<tag k="ssr:stedsnr" v="910411" />
	</node>
	<node id="-571959" lat="58.6240749974" lon="7.46206389172">
		<tag k="name" v="Lislabu" />
>>>>>>> e1d4bc35ff8a6074a6f2e91616a996b547c36f15
		<tag k="place" v="locality" />
		<tag k="ssr:stedsnr" v="649488" />
	</node>
<<<<<<< HEAD
	<node lat="58.78425000167416" lon="7.30885278078837" id="-30291">
		<tag k="name" v="Farstøl" />
		<tag k="place" v="isolated_dwelling" />
		<tag k="ssr:stedsnr" v="183324" />
	</node>
	<node lat="58.76103055943673" lon="7.474516674151306" id="-30296">
		<tag k="name" v="Øygarden" />
		<tag k="place" v="isolated_dwelling" />
		<tag k="ssr:stedsnr" v="183571" />
	</node>
	<node lat="58.78919563390462" lon="7.35570828397786" id="-30298">
		<tag k="fixme" v="consider tourism=alpine_hut or tourism=chalet" />
		<tag k="name" v="Ljosland Fjellstove" />
		<tag k="ssr:stedsnr" v="207787" />
		<tag k="tourism" v="wilderness_hut" />
	</node>
	<node lat="58.617558332803796" lon="7.415383340777163" id="-30358">
		<tag k="name" v="Berg" />
		<tag k="place" v="hamlet" />
		<tag k="ssr:stedsnr" v="225399" />
	</node>
	<node lat="58.63188611241062" lon="7.359333334727277" id="-30380">
		<tag k="name" v="Troddegarden" />
		<tag k="place" v="locality" />
		<tag k="ssr:stedsnr" v="225436" />
	</node>
	<node lat="58.62477222194037" lon="7.430977783365358" id="-30395">
		<tag k="alt_name" v="Troddemonen" />
		<tag k="name" v="Toddemonen" />
		<tag k="place" v="farm" />
		<tag k="ssr:stedsnr" v="225530" />
	</node>
	<node lat="58.84340833530645" lon="7.436002775175267" id="-30426">
		<tag k="name" v="Gluggvarhyttå" />
		<tag k="place" v="isolated_dwelling" />
		<tag k="ssr:stedsnr" v="281701" />
	</node>
	<node lat="58.785986113201744" lon="7.448174993405416" id="-30428">
		<tag k="name" v="Skrubbetjønnøygard" />
		<tag k="place" v="isolated_dwelling" />
		<tag k="ssr:stedsnr" v="281729" />
	</node>
	<node lat="58.70346388686883" lon="7.572766659149623" id="-30601">
		<tag k="name" v="Gamlebu" />
		<tag k="place" v="locality" />
		<tag k="ssr:stedsnr" v="345231" />
	</node>
	<node lat="58.58332778226065" lon="7.416394444805998" id="-30629">
		<tag k="name" v="Stokkestøl" />
		<tag k="place" v="locality" />
		<tag k="ssr:stedsnr" v="346215" />
	</node>
	<node lat="58.642305553652825" lon="7.423366663062507" id="-30644">
		<tag k="name" v="Skorskog" />
		<tag k="place" v="locality" />
		<tag k="ssr:stedsnr" v="346441" />
	</node>
	<node lat="58.6196277759835" lon="7.5053194369618605" id="-30668">
		<tag k="name" v="Sandvasstølen" />
		<tag k="place" v="isolated_dwelling" />
		<tag k="ssr:stedsnr" v="364862" />
	</node>
	<node lat="58.65385000306411" lon="7.508547229236955" id="-30670">
		<tag k="name" v="Brattestøl" />
		<tag k="place" v="locality" />
		<tag k="ssr:stedsnr" v="364195" />
	</node>
	<node lat="58.61600833335421" lon="7.4209083255522925" id="-30694">
		<tag k="alt_name" v="Austrhus" />
		<tag k="name" v="Austrud" />
		<tag k="place" v="farm" />
		<tag k="ssr:stedsnr" v="364837" />
	</node>
	<node lat="58.67513889057573" lon="7.2787638915527895" id="-30697">
		<tag k="alt_name" v="Lordehytta" />
		<tag k="name" v="Lordehyttå" />
		<tag k="place" v="isolated_dwelling" />
		<tag k="ssr:stedsnr" v="365271" />
	</node>
	<node lat="58.68587747399755" lon="7.499601548728582" id="-30701">
		<tag k="alt_name" v="Hodnaøygarden" />
		<tag k="name" v="Honnaøygard" />
		<tag k="place" v="locality" />
		<tag k="ssr:stedsnr" v="365216" />
	</node>
	<node lat="58.69875618565254" lon="7.370677616345318" id="-30704">
		<tag k="name" v="Åstøl" />
		<tag k="place" v="locality" />
		<tag k="ssr:stedsnr" v="365234" />
	</node>
	<node lat="58.77451667104919" lon="7.484044444848971" id="-30712">
		<tag k="name" v="Hedderstjønnæ" />
		<tag k="place" v="isolated_dwelling" />
		<tag k="ssr:stedsnr" v="402740" />
	</node>
	<node lat="58.62652777573647" lon="7.467336116957394" id="-30740">
		<tag k="historic" v="shieling" />
		<tag k="name" v="Kveldsol" />
		<tag k="place" v="isolated_dwelling" />
		<tag k="ssr:stedsnr" v="406486" />
	</node>
	<node lat="58.61795555329139" lon="7.416525003100016" id="-30812">
		<tag k="name" v="Bordalen" />
		<tag k="place" v="farm" />
		<tag k="ssr:stedsnr" v="425130" />
	</node>
	<node lat="58.71625833448761" lon="7.612263883731356" id="-30816">
		<tag k="alt_name" v="Håvestøløygard" />
		<tag k="name" v="Øygarden" />
		<tag k="place" v="isolated_dwelling" />
		<tag k="ssr:stedsnr" v="425239" />
	</node>
	<node lat="58.58156666272058" lon="7.367697222446321" id="-30822">
		<tag k="name" v="Skjerkestøl" />
		<tag k="place" v="isolated_dwelling" />
		<tag k="ssr:stedsnr" v="425770" />
	</node>
	<node lat="58.518336108696786" lon="7.503549994257354" id="-30827">
		<tag k="name" v="Haddeland" />
		<tag k="place" v="isolated_dwelling" />
		<tag k="ssr:stedsnr" v="425880" />
	</node>
	<node lat="58.79294444282807" lon="7.515011105831596" id="-30856">
		<tag k="name" v="Dybleøygard" />
		<tag k="place" v="locality" />
		<tag k="ssr:stedsnr" v="524638" />
	</node>
	<node lat="58.819586115334936" lon="7.47134444026934" id="-30861">
		<tag k="building" v="apartments" />
		<tag k="name" v="Bortelidseter" />
		<tag k="ssr:stedsnr" v="525631" />
	</node>
	<node lat="58.702827779492345" lon="7.45900832689173" id="-30879">
		<tag k="historic" v="shieling" />
		<tag k="name" v="Nereøygard" />
		<tag k="place" v="isolated_dwelling" />
		<tag k="ssr:stedsnr" v="528013" />
	</node>
	<node lat="58.744452774543134" lon="7.602344436766065" id="-30910">
		<tag k="name" v="Eintre" />
		<tag k="place" v="locality" />
		<tag k="ssr:stedsnr" v="528360" />
	</node>
	<node lat="58.71409721912844" lon="7.589274999571068" id="-30914">
		<tag k="name" v="Krokevasshyttå" />
		<tag k="place" v="isolated_dwelling" />
		<tag k="ssr:stedsnr" v="528103" />
=======
	<node id="-570932" lat="58.739027778" lon="7.50810278549">
		<tag k="alt_name" v="Røynelien" />
		<tag k="fixme" v="consider place=hamlet" />
		<tag k="name" v="Røynli" />
		<tag k="place" v="farm" />
		<tag k="ssr:stedsnr" v="121063" />
	</node>
	<node id="-571955" lat="58.6120805589" lon="7.28544166363">
		<tag k="historic" v="shieling" />
		<tag k="name" v="Teistedalen" />
		<tag k="place" v="locality" />
		<tag k="ssr:stedsnr" v="649470" />
	</node>
	<node id="-568876" lat="58.5949666661" lon="7.42255555174">
		<tag k="name" v="Tjovebua" />
		<tag k="place" v="locality" />
		<tag k="ssr:stedsnr" v="164270" />
	</node>
	<node id="-571431" lat="58.5574583316" lon="7.49754722297">
		<tag k="name" v="Kyråbu" />
		<tag k="place" v="locality" />
		<tag k="ssr:stedsnr" v="407894" />
	</node>
	<node id="-572454" lat="58.7597722223" lon="7.44383888975">
		<tag k="historic" v="shieling" />
		<tag k="name" v="Storrhei" />
		<tag k="place" v="locality" />
		<tag k="ssr:stedsnr" v="952964" />
	</node>
	<node id="-569895" lat="58.5471472239" lon="7.32470277966">
		<tag k="name" v="Bustad" />
		<tag k="place" v="locality" />
		<tag k="ssr:stedsnr" v="711848" />
	</node>
	<node id="-571651" lat="58.7437277796" lon="7.60123611198">
		<tag k="name" v="Moltehommen" />
		<tag k="place" v="isolated_dwelling" />
		<tag k="ssr:stedsnr" v="546050" />
	</node>
	<node id="-569434" lat="58.6160083334" lon="7.42090832555">
		<tag k="alt_name" v="Austrhus" />
		<tag k="name" v="Austrud" />
		<tag k="place" v="farm" />
		<tag k="ssr:stedsnr" v="364837" />
	</node>
	<node id="-570391" lat="58.7841833366" lon="7.52838888895">
		<tag k="name" v="Ingebjørgsbuæ" />
		<tag k="place" v="locality" />
		<tag k="ssr:stedsnr" v="949247" />
	</node>
	<node id="-569980" lat="58.5285555549" lon="7.45438611831">
		<tag k="alt_name" v="Kidjåstad" />
		<tag k="fixme" v="consider place=hamlet" />
		<tag k="name" v="Kittelstad" />
		<tag k="place" v="farm" />
		<tag k="ssr:stedsnr" v="729983" />
	</node>
	<node id="-572163" lat="58.5033472248" lon="7.43433332697">
		<tag k="fixme" v="consider place=hamlet" />
		<tag k="name" v="Mjåland" />
		<tag k="place" v="farm" />
		<tag k="ssr:stedsnr" v="789889" />
	</node>
	<node id="-570895" lat="58.5542916666" lon="7.28303332814">
		<tag k="name" v="Knupen" />
		<tag k="place" v="locality" />
		<tag k="ssr:stedsnr" v="104791" />
	</node>
	<node id="-570380" lat="58.793836108" lon="7.48769999164">
		<tag k="fixme" v="consider place=hamlet" />
		<tag k="name" v="Tjaldal" />
		<tag k="place" v="village" />
		<tag k="ssr:stedsnr" v="851510" />
	</node>
	<node id="-569349" lat="58.7667749974" lon="7.63428055661">
		<tag k="historic" v="shieling" />
		<tag k="name" v="Kjosevassøygard" />
		<tag k="place" v="locality" />
		<tag k="ssr:stedsnr" v="486575" />
	</node>
	<node id="-570369" lat="58.5343805547" lon="7.41149444937">
		<tag k="name" v="Aukland" />
		<tag k="place" v="locality" />
		<tag k="ssr:stedsnr" v="790955" />
>>>>>>> e1d4bc35ff8a6074a6f2e91616a996b547c36f15
	</node>
</osm>
