<?xml version="1.0" encoding="UTF-8"?>
<osm version="0.6" generator="osmapis">
	<node lat="58.74394444549894" lon="7.521613895981667" id="-39816">
		<tag k="name" v="Oddan" />
		<tag k="natural" v="cape" />
		<tag k="ssr:stedsnr" v="52" />
	</node>
	<node lat="58.84098888673717" lon="7.3582833393031795" id="-39821">
		<tag k="alt_name" v="Bjortjørn" />
		<tag k="name" v="Bjortjønn" />
		<tag k="natural" v="water" />
		<tag k="ssr:stedsnr" v="398" />
	</node>
	<node lat="58.61527222342771" lon="7.294550001685797" id="-39822">
		<tag k="alt_name" v="Teistetjørni, nedre" />
		<tag k="name" v="Nera Teistedalstjønnæ" />
		<tag k="natural" v="water" />
		<tag k="ssr:stedsnr" v="501" />
		<tag k="water" v="lake" />
	</node>
	<node lat="58.799733331941574" lon="7.3646777718039855" id="-39824">
		<tag k="alt_name" v="Tjørni" />
		<tag k="name" v="Tjønnæ" />
		<tag k="natural" v="water" />
		<tag k="ssr:stedsnr" v="520" />
	</node>
	<node lat="58.70011111551377" lon="7.354441667507387" id="-39827">
		<tag k="alt_name" v="Djupa loni" />
		<tag k="name" v="Djupalonæ" />
		<tag k="natural" v="water" />
		<tag k="ssr:stedsnr" v="252" />
	</node>
	<node lat="58.60777778170049" lon="7.492191668626438" id="-39829">
		<tag k="alt_name" v="Mjåvatnet, yt" />
		<tag k="name" v="Ytre Mjåvatn" />
		<tag k="natural" v="water" />
		<tag k="ssr:stedsnr" v="853" />
	</node>
	<node lat="58.5881944448887" lon="7.484347214585069" id="-39831">
		<tag k="name" v="Nevdalsåni" />
		<tag k="ssr:stedsnr" v="763" />
		<tag k="waterway" v="stream" />
	</node>
	<node lat="58.574586113134686" lon="7.464300008056339" id="-39832">
		<tag k="alt_name" v="Bustetjørni" />
		<tag k="name" v="Bustetjønn" />
		<tag k="natural" v="water" />
		<tag k="ssr:stedsnr" v="793" />
	</node>
	<node lat="58.795630555782" lon="7.142625005917011" id="-39841">
		<tag k="alt_name" v="Bergetjørn" />
		<tag k="name" v="Bergetjønn" />
		<tag k="natural" v="water" />
		<tag k="ssr:stedsnr" v="1340" />
	</node>
	<node lat="58.82637499675185" lon="7.451722220547219" id="-39846">
		<tag k="name" v="Reinstjønnosen" />
		<tag k="natural" v="bay" />
		<tag k="ssr:stedsnr" v="37569" />
	</node>
	<node lat="58.84850000209783" lon="7.412163887851238" id="-39853">
		<tag k="name" v="Vikjæ" />
		<tag k="natural" v="bay" />
		<tag k="ssr:stedsnr" v="39614" />
	</node>
	<node lat="58.70589999804412" lon="7.615633331786826" id="-39855">
		<tag k="name" v="Tjønnæ på Langedalen" />
		<tag k="natural" v="water" />
		<tag k="ssr:stedsnr" v="42179" />
	</node>
	<node lat="58.70098611253508" lon="7.601563894016401" id="-39858">
		<tag k="name" v="Klyptelonæ" />
		<tag k="natural" v="water" />
		<tag k="ssr:stedsnr" v="42203" />
		<tag k="water" v="lake" />
	</node>
	<node lat="58.50780278159971" lon="7.419650001399475" id="-39865">
		<tag k="name" v="Dalebekken" />
		<tag k="ssr:stedsnr" v="42715" />
		<tag k="waterway" v="stream" />
	</node>
	<node lat="58.75620833531268" lon="7.526919436745049" id="-39875">
		<tag k="name" v="Kaddhåmåren" />
		<tag k="natural" v="cape" />
		<tag k="ssr:stedsnr" v="43032" />
	</node>
	<node lat="58.76387499706924" lon="7.312988892057463" id="-39876">
		<tag k="name" v="Rautjønn" />
		<tag k="natural" v="water" />
		<tag k="ssr:stedsnr" v="42901" />
	</node>
	<node lat="58.7052861071422" lon="7.3131722216662505" id="-39877">
		<tag k="name" v="Fosstjønn" />
		<tag k="natural" v="water" />
		<tag k="ssr:stedsnr" v="43072" />
	</node>
	<node lat="58.6989888896047" lon="7.32059444665143" id="-39878">
		<tag k="name" v="Knivskeikilen" />
		<tag k="natural" v="bay" />
		<tag k="ssr:stedsnr" v="43074" />
	</node>
	<node lat="58.7531472186944" lon="7.625711110006488" id="-39879">
		<tag k="name" v="Dalemannsbekken" />
		<tag k="ssr:stedsnr" v="43077" />
		<tag k="waterway" v="stream" />
	</node>
	<node lat="58.73998333247086" lon="7.462041668777359" id="-39881">
		<tag k="name" v="Stemtjønn" />
		<tag k="natural" v="water" />
		<tag k="ssr:stedsnr" v="43208" />
	</node>
	<node lat="58.686177780399596" lon="7.25428888427521" id="-39890">
		<tag k="name" v="Bjønnelonæ" />
		<tag k="natural" v="water" />
		<tag k="ssr:stedsnr" v="43723" />
	</node>
	<node lat="58.74744444560599" lon="7.63031111897651" id="-39914">
		<tag k="name" v="Stasvatn" />
		<tag k="natural" v="water" />
		<tag k="ssr:stedsnr" v="61030" />
	</node>
	<node lat="58.693780558084256" lon="7.559247225951167" id="-39918">
		<tag k="alt_name" v="Bjørnehomvatnet" />
		<tag k="name" v="Bjønnshomvatnet" />
		<tag k="natural" v="water" />
		<tag k="ssr:stedsnr" v="61232" />
	</node>
	<node lat="58.70646110972562" lon="7.231372228865424" id="-39924">
		<tag k="alt_name" v="Sundagsvatnet" />
		<tag k="name" v="Sundagsvatn" />
		<tag k="natural" v="water" />
		<tag k="ssr:stedsnr" v="61273" />
		<tag k="water" v="lake" />
	</node>
	<node lat="58.702016670843825" lon="7.323969448162471" id="-39925">
		<tag k="alt_name" v="Langevatnet" />
		<tag k="name" v="Langevatn" />
		<tag k="natural" v="water" />
		<tag k="ssr:stedsnr" v="61275" />
	</node>
	<node lat="58.724233335416656" lon="7.2459722217317815" id="-39927">
		<tag k="alt_name" v="Storevassloni" />
		<tag k="name" v="Vivassdalstjønnæ" />
		<tag k="natural" v="water" />
		<tag k="ssr:stedsnr" v="61321" />
	</node>
	<node lat="58.84088610836195" lon="7.424016669738461" id="-39928">
		<tag k="alt_name" v="Gluggvardetjørnin" />
		<tag k="name" v="Store Gluggvartjønnæ" />
		<tag k="natural" v="water" />
		<tag k="ssr:stedsnr" v="61383" />
	</node>
	<node lat="58.75726944567544" lon="7.591686110667669" id="-39929">
		<tag k="alt_name" v="Skåretjørni" />
		<tag k="name" v="Skoretjønn" />
		<tag k="natural" v="water" />
		<tag k="ssr:stedsnr" v="61570" />
	</node>
	<node lat="58.75895277922923" lon="7.5066194445114265" id="-39930">
		<tag k="alt_name" v="Svartevatnet" />
		<tag k="name" v="Svartevatn" />
		<tag k="natural" v="water" />
		<tag k="ssr:stedsnr" v="61576" />
	</node>
	<node lat="58.61146944813285" lon="7.358005552663707" id="-39934">
		<tag k="alt_name" v="Stemvatnet, heimre" />
		<tag k="name" v="Stemvatn" />
		<tag k="natural" v="water" />
		<tag k="ssr:stedsnr" v="61806" />
	</node>
	<node lat="58.65843888837787" lon="7.394061111711449" id="-39936">
		<tag k="alt_name" v="Rysegluptjørni" />
		<tag k="name" v="Ryseglupptjønnæ" />
		<tag k="natural" v="water" />
		<tag k="ssr:stedsnr" v="62168" />
	</node>
	<node lat="58.847077777403754" lon="7.367491672149021" id="-39940">
		<tag k="alt_name" v="Fosstjørn" />
		<tag k="name" v="Fosstjønn" />
		<tag k="natural" v="water" />
		<tag k="ssr:stedsnr" v="62402" />
	</node>
	<node lat="58.71619444642014" lon="7.393622223961131" id="-39948">
		<tag k="alt_name" v="Bredlandsvatnet" />
		<tag k="name" v="Brelandsvatnet" />
		<tag k="natural" v="water" />
		<tag k="ssr:stedsnr" v="243015" />
		<tag k="water" v="lake" />
	</node>
	<node lat="58.51975555975044" lon="7.317413893688956" id="-39951">
		<tag k="alt_name" v="Sandvatnet" />
		<tag k="name" v="Sandvatn" />
		<tag k="natural" v="water" />
		<tag k="ssr:stedsnr" v="243089" />
	</node>
	<node lat="58.68426111186431" lon="7.358461106894867" id="-39953">
		<tag k="alt_name" v="Drittjørni" />
		<tag k="name" v="Drittjønn" />
		<tag k="natural" v="water" />
		<tag k="ssr:stedsnr" v="243193" />
	</node>
	<node lat="58.8031277780507" lon="7.232213888826317" id="-39954">
		<tag k="name" v="Øyvatnet" />
		<tag k="natural" v="water" />
		<tag k="ssr:stedsnr" v="243200" />
		<tag k="water" v="lake" />
	</node>
	<node lat="58.72068610864388" lon="7.6022222242740085" id="-39956">
		<tag k="alt_name" v="Linkolltjørni" />
		<tag k="name" v="Linkonntjønnæ" />
		<tag k="natural" v="water" />
		<tag k="ssr:stedsnr" v="243226" />
	</node>
	<node lat="58.698027776811216" lon="7.285108330716758" id="-39957">
		<tag k="alt_name" v="Signestjørni" />
		<tag k="name" v="Signestjønn" />
		<tag k="natural" v="water" />
		<tag k="ssr:stedsnr" v="243278" />
	</node>
	<node lat="58.71475277725184" lon="7.294077775946758" id="-39958">
		<tag k="alt_name" v="Svodvasstjørni, nedre" />
		<tag k="name" v="Ytra Svovasstjønn" />
		<tag k="natural" v="water" />
		<tag k="ssr:stedsnr" v="243283" />
		<tag k="water" v="lake" />
	</node>
	<node lat="58.720639477348286" lon="7.3398166955150295" id="-39961">
		<tag k="alt_name" v="Stikil" />
		<tag k="name" v="Stekil" />
		<tag k="natural" v="water" />
		<tag k="ssr:stedsnr" v="243326" />
		<tag k="water" v="lake" />
	</node>
	<node lat="58.737369442151284" lon="7.2939194416468665" id="-39962">
		<tag k="alt_name" v="Kroktjørni, øvre" />
		<tag k="name" v="Øvre Kroktjønn" />
		<tag k="natural" v="water" />
		<tag k="ssr:stedsnr" v="243332" />
	</node>
	<node lat="58.83062778163466" lon="7.314211111984365" id="-39963">
		<tag k="alt_name" v="Øyvassloni" />
		<tag k="name" v="Øyvasslonæ" />
		<tag k="natural" v="water" />
		<tag k="ssr:stedsnr" v="243360" />
	</node>
	<node lat="58.81177222162057" lon="7.297836103241416" id="-39964">
		<tag k="alt_name" v="Blaugrevvatnet;Blaugrevatnet" />
		<tag k="name" v="Blaugrevatn" />
		<tag k="natural" v="water" />
		<tag k="old_name" v="Blogrevatnet" />
		<tag k="ssr:stedsnr" v="243367" />
		<tag k="water" v="lake" />
	</node>
	<node lat="58.77798055616405" lon="7.5529194480918695" id="-39967">
		<tag k="alt_name" v="Lislerjukan" />
		<tag k="name" v="Lisle-Rjukan" />
		<tag k="natural" v="waterfall" />
		<tag k="ssr:stedsnr" v="243560" />
	</node>
	<node lat="58.78156944560545" lon="7.629844444642772" id="-39968">
		<tag k="alt_name" v="Laksetjørni" />
		<tag k="name" v="Laksetjønn" />
		<tag k="natural" v="water" />
		<tag k="ssr:stedsnr" v="243566" />
	</node>
	<node lat="58.59355833463419" lon="7.280383333731224" id="-39969">
		<tag k="alt_name" v="Glypetjønn;Glypetjørni" />
		<tag k="name" v="Glypetjønnæ" />
		<tag k="natural" v="water" />
		<tag k="ssr:stedsnr" v="243413" />
		<tag k="water" v="lake" />
	</node>
	<node lat="58.59965278121983" lon="7.255777774681062" id="-39970">
		<tag k="name" v="Vonavatnet" />
		<tag k="natural" v="water" />
		<tag k="ssr:stedsnr" v="243414" />
		<tag k="water" v="lake" />
	</node>
	<node lat="58.8225472247648" lon="7.517905559249919" id="-39971">
		<tag k="name" v="Juvatn" />
		<tag k="natural" v="water" />
		<tag k="ssr:stedsnr" v="243507" />
		<tag k="water" v="lake" />
	</node>
	<node lat="58.77584444259353" lon="7.405558325075197" id="-39972">
		<tag k="alt_name" v="Bliksvatnet, nedre" />
		<tag k="name" v="Nedre Bliksvatnet" />
		<tag k="natural" v="water" />
		<tag k="ssr:stedsnr" v="243575" />
	</node>
	<node lat="58.53979444646452" lon="7.486730555766208" id="-39976">
		<tag k="alt_name" v="Fosstjørni" />
		<tag k="name" v="Fosstjønn" />
		<tag k="natural" v="water" />
		<tag k="ssr:stedsnr" v="243962" />
	</node>
	<node lat="58.65756388840398" lon="7.277219443883241" id="-39977">
		<tag k="alt_name" v="Øyvatnet" />
		<tag k="name" v="Øyvatn" />
		<tag k="natural" v="water" />
		<tag k="ssr:stedsnr" v="244179" />
		<tag k="water" v="lake" />
	</node>
	<node lat="58.7972638922824" lon="7.2664083250009215" id="-39980">
		<tag k="alt_name" v="Kvennevatn;Kvernevatnet" />
		<tag k="name" v="Kvennevatnet" />
		<tag k="natural" v="water" />
		<tag k="ssr:stedsnr" v="244347" />
		<tag k="water" v="lake" />
	</node>
	<node lat="58.78454999898666" lon="7.3368499946627885" id="-39981">
		<tag k="name" v="Faråni" />
		<tag k="ssr:stedsnr" v="244355" />
		<tag k="waterway" v="stream" />
	</node>
	<node lat="58.82784444517703" lon="7.333774999203674" id="-39998">
		<tag k="name" v="Øyvasslønan" />
		<tag k="natural" v="water" />
		<tag k="ssr:stedsnr" v="103224" />
	</node>
	<node lat="58.558872226435" lon="7.2966861074168445" id="-40000">
		<tag k="name" v="Skutetjønnæ" />
		<tag k="natural" v="water" />
		<tag k="ssr:stedsnr" v="103378" />
	</node>
	<node lat="58.626147225851234" lon="7.470477782558328" id="-40002">
		<tag k="name" v="Stupen" />
		<tag k="natural" v="waterfall" />
		<tag k="ssr:stedsnr" v="103479" />
	</node>
	<node lat="58.63070000215299" lon="7.527705559602119" id="-40005">
		<tag k="name" v="Saurtjønn" />
		<tag k="natural" v="water" />
		<tag k="ssr:stedsnr" v="103491" />
	</node>
	<node lat="58.76198332980581" lon="7.3329027696153295" id="-40006">
		<tag k="name" v="Sirisøygardstjønnæ" />
		<tag k="natural" v="water" />
		<tag k="ssr:stedsnr" v="103903" />
	</node>
	<node lat="58.78494721871456" lon="7.385622220209556" id="-40012">
		<tag k="name" v="Langetjønn" />
		<tag k="natural" v="water" />
		<tag k="ssr:stedsnr" v="103900" />
	</node>
	<node lat="58.79048055796236" lon="7.493108338315776" id="-40030">
		<tag k="name" v="Tjaldalsåne" />
		<tag k="ssr:stedsnr" v="104284" />
		<tag k="waterway" v="river" />
	</node>
	<node lat="58.74341388863939" lon="7.513522224193417" id="-40031">
		<tag k="name" v="Hesteberget" />
		<tag k="natural" v="cape" />
		<tag k="ssr:stedsnr" v="104294" />
	</node>
	<node lat="58.63928611234513" lon="7.313205556366759" id="-40037">
		<tag k="name" v="Krokånæ" />
		<tag k="ssr:stedsnr" v="104424" />
		<tag k="waterway" v="river" />
	</node>
	<node lat="58.670616669791876" lon="7.402366673815778" id="-40040">
		<tag k="name" v="Røyslandsbekken" />
		<tag k="ssr:stedsnr" v="104327" />
		<tag k="waterway" v="stream" />
	</node>
	<node lat="58.62598333596695" lon="7.361022221366511" id="-40042">
		<tag k="name" v="Merretjønn" />
		<tag k="natural" v="water" />
		<tag k="ssr:stedsnr" v="104399" />
	</node>
	<node lat="58.734602781746474" lon="7.195113887845471" id="-40045">
		<tag k="name" v="Reinstjønn" />
		<tag k="natural" v="water" />
		<tag k="ssr:stedsnr" v="104623" />
	</node>
	<node lat="58.63939444823866" lon="7.207386104761181" id="-40046">
		<tag k="name" v="Smalavassosen" />
		<tag k="natural" v="bay" />
		<tag k="ssr:stedsnr" v="104685" />
	</node>
	<node lat="58.5287138871934" lon="7.427141674587318" id="-40050">
		<tag k="name" v="Gunnårsvika" />
		<tag k="natural" v="bay" />
		<tag k="ssr:stedsnr" v="104814" />
	</node>
	<node lat="58.526146378806594" lon="7.355749829182155" id="-40058">
		<tag k="name" v="Kvennhusstøa" />
		<tag k="natural" v="bay" />
		<tag k="ssr:stedsnr" v="104914" />
	</node>
	<node lat="58.724630557854276" lon="7.402841659735499" id="-40062">
		<tag k="name" v="Dalbubekken" />
		<tag k="ssr:stedsnr" v="104973" />
		<tag k="waterway" v="stream" />
	</node>
	<node lat="58.660413886659356" lon="7.495494443481274" id="-40071">
		<tag k="alt_name" v="Sveigsvatnet, heimste" />
		<tag k="name" v="Heimra Sveigsvatn" />
		<tag k="natural" v="water" />
		<tag k="ssr:stedsnr" v="121180" />
	</node>
	<node lat="58.59886944617134" lon="7.363519440376773" id="-40073">
		<tag k="name" v="Kåbekkvatnet" />
		<tag k="natural" v="water" />
		<tag k="ssr:stedsnr" v="121872" />
	</node>
	<node lat="58.71816110768484" lon="7.533136116804116" id="-40074">
		<tag k="name" v="Fyrstøllibekken" />
		<tag k="ssr:stedsnr" v="122003" />
		<tag k="waterway" v="stream" />
	</node>
	<node lat="58.78406944685217" lon="7.503694436506646" id="-40077">
		<tag k="name" v="Tjaldalsvatnet" />
		<tag k="natural" v="water" />
		<tag k="ssr:stedsnr" v="122514" />
		<tag k="water" v="lake" />
	</node>
	<node lat="58.768708334996184" lon="7.442766665997104" id="-40083">
		<tag k="name" v="Kilen" />
		<tag k="natural" v="bay" />
		<tag k="ssr:stedsnr" v="163973" />
	</node>
	<node lat="58.72179444761836" lon="7.615972217851353" id="-40085">
		<tag k="name" v="Sirishomtjønnæ" />
		<tag k="natural" v="water" />
		<tag k="ssr:stedsnr" v="164103" />
	</node>
	<node lat="58.77256944619889" lon="7.280672217796856" id="-40092">
		<tag k="name" v="Krokvasslønan" />
		<tag k="natural" v="water" />
		<tag k="ssr:stedsnr" v="163877" />
		<tag k="water" v="lake" />
	</node>
	<node lat="58.577638886411535" lon="7.55888332798831" id="-40096">
		<tag k="name" v="Fottjønn" />
		<tag k="natural" v="water" />
		<tag k="ssr:stedsnr" v="164010" />
	</node>
	<node lat="58.57956110844557" lon="7.553527778334468" id="-40097">
		<tag k="name" v="Øya" />
		<tag k="place" v="islet" />
		<tag k="ssr:stedsnr" v="164012" />
	</node>
	<node lat="58.705972221301714" lon="7.385011111508505" id="-40106">
		<tag k="name" v="Ormetjønn" />
		<tag k="natural" v="water" />
		<tag k="ssr:stedsnr" v="164076" />
	</node>
	<node lat="58.738547222349894" lon="7.598333340975593" id="-40119">
		<tag k="name" v="Elgstjønn" />
		<tag k="natural" v="water" />
		<tag k="ssr:stedsnr" v="164372" />
	</node>
	<node lat="58.610125003782166" lon="7.414791666385455" id="-40120">
		<tag k="name" v="Joneset" />
		<tag k="natural" v="cape" />
		<tag k="ssr:stedsnr" v="164374" />
	</node>
	<node lat="58.73751944349369" lon="7.631838897457857" id="-40131">
		<tag k="name" v="Oddan" />
		<tag k="natural" v="cape" />
		<tag k="ssr:stedsnr" v="164420" />
	</node>
	<node lat="58.63567500125468" lon="7.444727786086856" id="-40134">
		<tag k="name" v="Grotånæ" />
		<tag k="ssr:stedsnr" v="164480" />
		<tag k="waterway" v="stream" />
	</node>
	<node lat="58.80998888672728" lon="7.275222217325815" id="-40142">
		<tag k="name" v="Tjønndalsånæ" />
		<tag k="ssr:stedsnr" v="164763" />
		<tag k="waterway" v="river" />
	</node>
	<node lat="58.72823610991083" lon="7.532861107196242" id="-40150">
		<tag k="name" v="Karfitbekken" />
		<tag k="ssr:stedsnr" v="164921" />
		<tag k="waterway" v="stream" />
	</node>
	<node lat="58.75756111325372" lon="7.323602777799084" id="-40157">
		<tag k="alt_name" v="Langatjørn" />
		<tag k="name" v="Langatjønnæ" />
		<tag k="natural" v="water" />
		<tag k="ssr:stedsnr" v="182310" />
	</node>
	<node lat="58.58887222186799" lon="7.3271166631099645" id="-40158">
		<tag k="alt_name" v="Lonetjørn" />
		<tag k="name" v="Lonetjønnæ" />
		<tag k="natural" v="water" />
		<tag k="ssr:stedsnr" v="182410" />
	</node>
	<node lat="58.57726111365125" lon="7.2864000058425695" id="-40159">
		<tag k="alt_name" v="Dyrevatn" />
		<tag k="name" v="Dyrevatnet" />
		<tag k="natural" v="water" />
		<tag k="ssr:stedsnr" v="182425" />
		<tag k="water" v="lake" />
	</node>
	<node lat="58.814269447478615" lon="7.4622583276065315" id="-40162">
		<tag k="alt_name" v="Bergeåni" />
		<tag k="name" v="Bergeånæ" />
		<tag k="ssr:stedsnr" v="182518" />
		<tag k="waterway" v="stream" />
	</node>
	<node lat="58.591799999033405" lon="7.385683327767558" id="-40165">
		<tag k="name" v="Bytingsbekken" />
		<tag k="ssr:stedsnr" v="182847" />
		<tag k="waterway" v="stream" />
	</node>
	<node lat="58.70996100573763" lon="7.611627670672287" id="-40171">
		<tag k="alt_name" v="Øygardsvatn;Fiskevatn" />
		<tag k="name" v="Fiskvatn" />
		<tag k="natural" v="water" />
		<tag k="ssr:stedsnr" v="183198" />
	</node>
	<node lat="58.697297219652846" lon="7.375252772942423" id="-40172">
		<tag k="name" v="Åstølvatnet" />
		<tag k="natural" v="water" />
		<tag k="ssr:stedsnr" v="183200" />
		<tag k="water" v="lake" />
	</node>
	<node lat="58.851961108295825" lon="7.5330333316734865" id="-40175">
		<tag k="alt_name" v="Austeheibekken, nordre" />
		<tag k="name" v="Nordre Austeheibekken" />
		<tag k="ssr:stedsnr" v="183360" />
		<tag k="waterway" v="stream" />
	</node>
	<node lat="58.78598055146555" lon="7.453641666520251" id="-40178">
		<tag k="alt_name" v="Skrubbetjørn" />
		<tag k="name" v="Skrubbetjønn" />
		<tag k="natural" v="water" />
		<tag k="ssr:stedsnr" v="183503" />
	</node>
	<node lat="58.815822221185336" lon="7.516463889114621" id="-40180">
		<tag k="name" v="Mevatn" />
		<tag k="natural" v="water" />
		<tag k="ssr:stedsnr" v="262923" />
		<tag k="water" v="lake" />
	</node>
	<node lat="58.8231888885594" lon="7.543055556770376" id="-40181">
		<tag k="name" v="Bukta" />
		<tag k="natural" v="bay" />
		<tag k="ssr:stedsnr" v="262928" />
	</node>
	<node lat="58.8117361153701" lon="7.324616664655274" id="-40184">
		<tag k="name" v="Velilønan" />
		<tag k="natural" v="water" />
		<tag k="ssr:stedsnr" v="209929" />
	</node>
	<node lat="58.77336111102554" lon="7.327736114155031" id="-40185">
		<tag k="alt_name" v="Grytåtjørn" />
		<tag k="name" v="Grytåtjønn" />
		<tag k="natural" v="water" />
		<tag k="ssr:stedsnr" v="209932" />
	</node>
	<node lat="58.83568333518232" lon="7.4160388901861864" id="-40189">
		<tag k="name" v="Lisla Gluggvartjønn" />
		<tag k="natural" v="water" />
		<tag k="ssr:stedsnr" v="220681" />
	</node>
	<node lat="58.77124721928252" lon="7.313175006609104" id="-40191">
		<tag k="alt_name" v="Upsetjørn" />
		<tag k="name" v="Upsetjønn" />
		<tag k="natural" v="water" />
		<tag k="ssr:stedsnr" v="270928" />
	</node>
	<node lat="58.85145833548358" lon="7.402136116071155" id="-40192">
		<tag k="name" v="Lisle Stintå" />
		<tag k="ssr:stedsnr" v="221616" />
		<tag k="waterway" v="stream" />
	</node>
	<node lat="58.56282773029757" lon="7.337761256349117" id="-40202">
		<tag k="name" v="Fisklandstjønnin" />
		<tag k="natural" v="water" />
		<tag k="ssr:stedsnr" v="224388" />
		<tag k="water" v="lake" />
	</node>
	<node lat="58.65566111438109" lon="7.529469438079645" id="-40204">
		<tag k="name" v="Holebekk" />
		<tag k="ssr:stedsnr" v="224400" />
		<tag k="waterway" v="stream" />
	</node>
	<node lat="58.76557500112815" lon="7.359669437707093" id="-40206">
		<tag k="name" v="Bytingsevjå" />
		<tag k="natural" v="bay" />
		<tag k="ssr:stedsnr" v="224913" />
	</node>
	<node lat="58.753416662390315" lon="7.546061110411303" id="-40209">
		<tag k="name" v="Bakkebekken" />
		<tag k="ssr:stedsnr" v="225005" />
		<tag k="waterway" v="stream" />
	</node>
	<node lat="58.729797219368805" lon="7.577347216927522" id="-40215">
		<tag k="name" v="Rundatjønnæ" />
		<tag k="natural" v="water" />
		<tag k="ssr:stedsnr" v="225140" />
	</node>
	<node lat="58.74789166518735" lon="7.322344439445346" id="-40218">
		<tag k="name" v="Einærvikjæ" />
		<tag k="natural" v="bay" />
		<tag k="ssr:stedsnr" v="225198" />
	</node>
	<node lat="58.74011389059447" lon="7.619866673404091" id="-40220">
		<tag k="name" v="Kolandsbekken" />
		<tag k="ssr:stedsnr" v="225307" />
		<tag k="waterway" v="stream" />
	</node>
	<node lat="58.685233334521534" lon="7.57322778463394" id="-40224">
		<tag k="name" v="Olasdalsbekken" />
		<tag k="ssr:stedsnr" v="225331" />
		<tag k="waterway" v="stream" />
	</node>
	<node lat="58.828247219590985" lon="7.351250007048261" id="-40231">
		<tag k="name" v="Hansestjønn" />
		<tag k="natural" v="water" />
		<tag k="ssr:stedsnr" v="225241" />
	</node>
	<node lat="58.66920555274678" lon="7.360008325074781" id="-40236">
		<tag k="name" v="Smalsundet" />
		<tag k="natural" v="strait" />
		<tag k="ssr:stedsnr" v="225406" />
	</node>
	<node lat="58.63728055255929" lon="7.479294442781191" id="-40241">
		<tag k="name" v="Løyningtjønnin" />
		<tag k="natural" v="water" />
		<tag k="ssr:stedsnr" v="225540" />
	</node>
	<node lat="58.67254444475295" lon="7.208100008488546" id="-40242">
		<tag k="name" v="Storodden" />
		<tag k="natural" v="cape" />
		<tag k="ssr:stedsnr" v="225702" />
	</node>
	<node lat="58.80072222023247" lon="7.542236103453165" id="-40248">
		<tag k="name" v="Juvassdammen" />
		<tag k="ssr:stedsnr" v="225662" />
		<tag k="waterway" v="dam" />
	</node>
	<node lat="58.79585555810023" lon="7.536644448589823" id="-40250">
		<tag k="name" v="Urevikjæ" />
		<tag k="natural" v="bay" />
		<tag k="ssr:stedsnr" v="225689" />
	</node>
	<node lat="58.53301944501351" lon="7.31649444319054" id="-40251">
		<tag k="name" v="Bergebekk" />
		<tag k="ssr:stedsnr" v="225804" />
		<tag k="waterway" v="stream" />
	</node>
	<node lat="58.527528866600726" lon="7.380398081247313" id="-40256">
		<tag k="name" v="Tvitjønnan" />
		<tag k="natural" v="water" />
		<tag k="ssr:stedsnr" v="225888" />
		<tag k="water" v="lake" />
	</node>
	<node lat="58.51279999833418" lon="7.456847219488069" id="-40263">
		<tag k="name" v="Gastehylen" />
		<tag k="place" v="locality" />
		<tag k="ssr:stedsnr" v="225795" />
	</node>
	<node lat="58.60572499981418" lon="7.336483331821457" id="-40274">
		<tag k="name" v="Bytteborgtjørni" />
		<tag k="natural" v="water" />
		<tag k="ssr:stedsnr" v="242434" />
	</node>
	<node lat="58.624716669788114" lon="7.25110277312929" id="-40275">
		<tag k="name" v="Sandrebbtjørni" />
		<tag k="natural" v="water" />
		<tag k="ssr:stedsnr" v="243493" />
	</node>
	<node lat="58.68830833270527" lon="7.206091666641566" id="-40280">
		<tag k="name" v="Kyrevatnet" />
		<tag k="natural" v="water" />
		<tag k="ssr:stedsnr" v="244301" />
		<tag k="water" v="lake" />
	</node>
	<node lat="58.67475555218618" lon="7.426177771247293" id="-40281">
		<tag k="alt_name" v="Heptetjørni" />
		<tag k="name" v="Heptetjønn" />
		<tag k="natural" v="water" />
		<tag k="ssr:stedsnr" v="244197" />
	</node>
	<node lat="58.638813893011935" lon="7.239791661754667" id="-40282">
		<tag k="alt_name" v="Hithomtjørni" />
		<tag k="name" v="Hithomtjønnæ" />
		<tag k="natural" v="water" />
		<tag k="ssr:stedsnr" v="244496" />
	</node>
	<node lat="58.53593889310038" lon="7.518663888277" id="-40284">
		<tag k="alt_name" v="Ubastjørni" />
		<tag k="name" v="Ubastjønn" />
		<tag k="natural" v="water" />
		<tag k="ssr:stedsnr" v="244983" />
	</node>
	<node lat="58.8162722244324" lon="7.466099994610584" id="-40288">
		<tag k="name" v="Stutetjønn" />
		<tag k="natural" v="water" />
		<tag k="ssr:stedsnr" v="281369" />
	</node>
	<node lat="58.84548055689979" lon="7.410533333297766" id="-40292">
		<tag k="name" v="Fjellvassbekken" />
		<tag k="ssr:stedsnr" v="281709" />
		<tag k="waterway" v="stream" />
	</node>
	<node lat="58.79151666327534" lon="7.537824996390343" id="-40294">
		<tag k="name" v="Ytre Urevikje" />
		<tag k="natural" v="bay" />
		<tag k="ssr:stedsnr" v="281724" />
	</node>
	<node lat="58.62889722566406" lon="7.370422214834529" id="-40302">
		<tag k="name" v="Lisla Gjyretjønnæ" />
		<tag k="natural" v="water" />
		<tag k="ssr:stedsnr" v="285390" />
	</node>
	<node lat="58.81305555716094" lon="7.576841672681116" id="-40303">
		<tag k="name" v="Ålsvarbekken" />
		<tag k="ssr:stedsnr" v="285617" />
		<tag k="waterway" v="stream" />
	</node>
	<node lat="58.760672220035374" lon="7.663338894712948" id="-40310">
		<tag k="name" v="Trettebekk" />
		<tag k="ssr:stedsnr" v="286077" />
		<tag k="waterway" v="stream" />
	</node>
	<node lat="58.563699999173345" lon="7.425805560017491" id="-40313">
		<tag k="name" v="Ringstakktjønna" />
		<tag k="natural" v="water" />
		<tag k="ssr:stedsnr" v="286109" />
	</node>
	<node lat="58.65116388596027" lon="7.510683325243119" id="-40321">
		<tag k="name" v="Stupetjønn" />
		<tag k="natural" v="water" />
		<tag k="ssr:stedsnr" v="286435" />
	</node>
	<node lat="58.65492777841518" lon="7.400983332709207" id="-40327">
		<tag k="name" v="Skvæna" />
		<tag k="ssr:stedsnr" v="286507" />
		<tag k="waterway" v="stream" />
	</node>
	<node lat="58.5538055513436" lon="7.309280551362142" id="-40331">
		<tag k="name" v="Teinebekk" />
		<tag k="ssr:stedsnr" v="286830" />
		<tag k="waterway" v="stream" />
	</node>
	<node lat="58.82751666866918" lon="7.4694555613942155" id="-40338">
		<tag k="name" v="Lonæ" />
		<tag k="natural" v="water" />
		<tag k="ssr:stedsnr" v="462547" />
		<tag k="water" v="lake" />
	</node>
	<node lat="58.77695555778515" lon="7.536555562656744" id="-40339">
		<tag k="name" v="Lisle Heddebutjønn" />
		<tag k="natural" v="water" />
		<tag k="ssr:stedsnr" v="463142" />
	</node>
	<node lat="58.84614999916416" lon="7.333480558926092" id="-40340">
		<tag k="name" v="Rovetjønn" />
		<tag k="natural" v="water" />
		<tag k="ssr:stedsnr" v="463099" />
	</node>
	<node lat="58.77486388899739" lon="7.510847221519165" id="-40341">
		<tag k="name" v="Lyngodden" />
		<tag k="natural" v="cape" />
		<tag k="ssr:stedsnr" v="463281" />
	</node>
	<node lat="58.775447222616926" lon="7.506977785854033" id="-40342">
		<tag k="name" v="Gyrosvik" />
		<tag k="natural" v="bay" />
		<tag k="ssr:stedsnr" v="463237" />
	</node>
	<node lat="58.794674996301566" lon="7.549766668283969" id="-40348">
		<tag k="name" v="Kilen" />
		<tag k="natural" v="bay" />
		<tag k="ssr:stedsnr" v="463679" />
	</node>
	<node lat="58.652200002507385" lon="7.527330550782926" id="-40352">
		<tag k="alt_name" v="Holebekktjørni" />
		<tag k="name" v="Holebekktjønnæ" />
		<tag k="natural" v="water" />
		<tag k="ssr:stedsnr" v="303175" />
	</node>
	<node lat="58.637677778089696" lon="7.330491669713764" id="-40353">
		<tag k="alt_name" v="Vikenutodden" />
		<tag k="name" v="Vikeknodden" />
		<tag k="natural" v="cape" />
		<tag k="ssr:stedsnr" v="303493" />
	</node>
	<node lat="58.82765555833873" lon="7.323808326209335" id="-40366">
		<tag k="alt_name" v="Øyvatnet" />
		<tag k="name" v="Øyvatn" />
		<tag k="natural" v="water" />
		<tag k="ssr:stedsnr" v="304195" />
		<tag k="water" v="lake" />
	</node>
	<node lat="58.74681388695938" lon="7.313791663353826" id="-40367">
		<tag k="alt_name" v="Stigebottsvatnet" />
		<tag k="name" v="Stikebossvatnet" />
		<tag k="natural" v="water" />
		<tag k="ssr:stedsnr" v="304317" />
		<tag k="water" v="lake" />
	</node>
	<node lat="58.732238890572376" lon="7.303658339107737" id="-40368">
		<tag k="alt_name" v="Kroktjørni, nedre" />
		<tag k="name" v="Nedre Kroktjønn" />
		<tag k="natural" v="water" />
		<tag k="ssr:stedsnr" v="304329" />
	</node>
	<node lat="58.81777884194666" lon="7.468169600933291" id="-40371">
		<tag k="name" v="Bortelidtjønna" />
		<tag k="natural" v="water" />
		<tag k="ssr:stedsnr" v="304526" />
	</node>
	<node lat="58.762936106648134" lon="7.344088885693722" id="-40372">
		<tag k="alt_name" v="Stigebottsåni" />
		<tag k="name" v="Stikebossånæ" />
		<tag k="ssr:stedsnr" v="304574" />
		<tag k="waterway" v="stream" />
	</node>
	<node lat="58.824477775080666" lon="7.563122216632097" id="-40375">
		<tag k="alt_name" v="Stemtjørn" />
		<tag k="name" v="Stemtjønn" />
		<tag k="natural" v="water" />
		<tag k="ssr:stedsnr" v="304485" />
	</node>
	<node lat="58.69133055134462" lon="7.5199166606927115" id="-40386">
		<tag k="name" v="Tjønnæ" />
		<tag k="natural" v="water" />
		<tag k="ssr:stedsnr" v="467245" />
	</node>
	<node lat="58.733897218594905" lon="7.573936115709056" id="-40390">
		<tag k="name" v="Karistjønn" />
		<tag k="natural" v="water" />
		<tag k="ssr:stedsnr" v="468243" />
	</node>
	<node lat="58.81255833709571" lon="7.563422224216441" id="-40396">
		<tag k="name" v="Ytre bekken" />
		<tag k="ssr:stedsnr" v="467651" />
		<tag k="waterway" v="stream" />
	</node>
	<node lat="58.780077782200294" lon="7.4455861043184655" id="-40398">
		<tag k="name" v="Storrtjønn" />
		<tag k="natural" v="water" />
		<tag k="ssr:stedsnr" v="467735" />
	</node>
	<node lat="58.76465833085219" lon="7.411336110834244" id="-40403">
		<tag k="name" v="Storevasstjønnæ" />
		<tag k="natural" v="water" />
		<tag k="ssr:stedsnr" v="467968" />
	</node>
	<node lat="58.71662500333739" lon="7.63173888156293" id="-40410">
		<tag k="name" v="Knipanstjønnin" />
		<tag k="natural" v="water" />
		<tag k="ssr:stedsnr" v="468094" />
	</node>
	<node lat="58.56325277363566" lon="7.463963895680302" id="-40413">
		<tag k="name" v="Lona" />
		<tag k="natural" v="water" />
		<tag k="ssr:stedsnr" v="468057" />
		<tag k="water" v="lake" />
	</node>
	<node lat="58.733658337872306" lon="7.641383336952568" id="-40422">
		<tag k="name" v="Brendaøynæ" />
		<tag k="place" v="islet" />
		<tag k="ssr:stedsnr" v="468337" />
	</node>
	<node lat="58.67706666375423" lon="7.350624995556793" id="-40423">
		<tag k="name" v="Mushomvikjæ" />
		<tag k="natural" v="bay" />
		<tag k="ssr:stedsnr" v="468341" />
	</node>
	<node lat="58.75201944218412" lon="7.594916658348554" id="-40429">
		<tag k="name" v="Stedjanstjønnæ" />
		<tag k="natural" v="water" />
		<tag k="ssr:stedsnr" v="468289" />
	</node>
	<node lat="58.64484722529179" lon="7.438125002313312" id="-40431">
		<tag k="name" v="Skorebekk" />
		<tag k="ssr:stedsnr" v="468400" />
		<tag k="waterway" v="stream" />
	</node>
	<node lat="58.62618888920695" lon="7.435377780280276" id="-40435">
		<tag k="name" v="Bjortjønn" />
		<tag k="natural" v="water" />
		<tag k="ssr:stedsnr" v="468455" />
	</node>
</osm>
