<?xml version="1.0" encoding="UTF-8"?>
<<<<<<< HEAD
<osm version="0.6" generator="osmapis">
	<node lat="59.17380833175229" lon="7.342336115303057" id="-29950">
=======
<osm generator="osmapis" version="0.6">
	<node id="-570199" lat="58.5333025592" lon="7.51981893534">
		<tag k="historic" v="boundary_stone" />
		<tag k="man_made" v="cairn" />
		<tag k="name" v="Kroksteinen" />
		<tag k="place" v="locality" />
		<tag k="ssr:stedsnr" v="710855" />
	</node>
	<node id="-570046" lat="58.7446944417" lon="7.49853333249">
		<tag k="historic" v="boundary_stone" />
		<tag k="man_made" v="cairn" />
		<tag k="name" v="Heddågrå" />
		<tag k="place" v="locality" />
		<tag k="ssr:stedsnr" v="888192" />
	</node>
	<node id="-570705" lat="59.1738083318" lon="7.3423361153">
>>>>>>> e1d4bc35ff8a6074a6f2e91616a996b547c36f15
		<tag k="fixme" v="consider boundary=protected_area and relevant protect_class if not nature reserve" />
		<tag k="leisure" v="nature_reserve" />
		<tag k="name" v="Setesdal Vesthei Ryfylkeheiane landskapsvernområde" />
		<tag k="ssr:stedsnr" v="60524" />
	</node>
<<<<<<< HEAD
	<node lat="58.6421388853063" lon="7.546727780458186" id="-30229">
=======
	<node id="-571041" lat="58.6421388853" lon="7.54672778046">
>>>>>>> e1d4bc35ff8a6074a6f2e91616a996b547c36f15
		<tag k="fixme" v="multiple name tags, choose one and add the other to alt_name" />
		<tag k="historic" v="boundary_stone" />
		<tag k="man_made" v="cairn" />
		<tag k="name" v="Kross-stein;Krosstein" />
		<tag k="place" v="locality" />
		<tag k="ssr:stedsnr" v="164535" />
	</node>
</osm>
