<?xml version="1.0" encoding="UTF-8"?>
<<<<<<< HEAD
<osm version="0.6" generator="osmapis">
	<node lat="58.7349149816916" lon="7.47607123125156" id="-27914">
		<tag k="name" v="Myran" />
		<tag k="place" v="locality" />
		<tag k="ssr:stedsnr" v="243022" />
	</node>
	<node lat="58.65886678246748" lon="7.514793996774695" id="-27924">
		<tag k="alt_name" v="Stekroni" />
		<tag k="name" v="Stekronæ" />
		<tag k="place" v="locality" />
		<tag k="ssr:stedsnr" v="243168" />
	</node>
	<node lat="58.520069863477445" lon="7.361979195704088" id="-28231">
		<tag k="name" v="Lasteskotet" />
=======
<osm generator="osmapis" version="0.6">
	<node id="-571199" lat="58.8029555564" lon="7.46712777807">
		<tag k="name" v="Stebuæ" />
		<tag k="place" v="locality" />
		<tag k="ssr:stedsnr" v="342344" />
	</node>
	<node id="-571966" lat="58.8040833314" lon="7.46308334153">
		<tag k="name" v="Stebuæ" />
>>>>>>> e1d4bc35ff8a6074a6f2e91616a996b547c36f15
		<tag k="place" v="locality" />
		<tag k="ssr:stedsnr" v="649413" />
	</node>
<<<<<<< HEAD
	<node lat="58.57954721847959" lon="7.599683327763972" id="-28413">
		<tag k="name" v="Eldhuset" />
		<tag k="place" v="locality" />
		<tag k="ssr:stedsnr" v="468930" />
	</node>
	<node lat="58.80295555638551" lon="7.467127778066761" id="-28428">
		<tag k="name" v="Stebuæ" />
		<tag k="place" v="locality" />
		<tag k="ssr:stedsnr" v="342344" />
	</node>
	<node lat="58.55084999923188" lon="7.31646388047903" id="-28484">
		<tag k="name" v="Myreløa" />
=======
	<node id="-569354" lat="58.7495555592" lon="7.51724166547">
		<tag k="amenity" v="place_of_worship" />
		<tag k="denomination" v="lutheran" />
		<tag k="name" v="Åkernes" />
		<tag k="religion" v="christian" />
		<tag k="ssr:stedsnr" v="486590" />
	</node>
	<node id="-571575" lat="58.8011305529" lon="7.44813055029">
		<tag k="name" v="Gråbuæ" />
>>>>>>> e1d4bc35ff8a6074a6f2e91616a996b547c36f15
		<tag k="place" v="locality" />
		<tag k="ssr:stedsnr" v="346808" />
	</node>
<<<<<<< HEAD
	<node lat="58.55745833158788" lon="7.497547222967675" id="-28631">
		<tag k="name" v="Kyråbu" />
		<tag k="place" v="locality" />
		<tag k="ssr:stedsnr" v="407894" />
	</node>
	<node lat="58.789244442193734" lon="7.350961111234947" id="-28706">
=======
	<node id="-569910" lat="58.6173750915" lon="7.41414934608">
>>>>>>> e1d4bc35ff8a6074a6f2e91616a996b547c36f15
		<tag k="amenity" v="place_of_worship" />
		<tag k="denomination" v="lutheran" />
		<tag k="name" v="Ljosland kapell" />
		<tag k="religion" v="christian" />
		<tag k="ssr:stedsnr" v="467902" />
	</node>
<<<<<<< HEAD
	<node lat="58.74962072579315" lon="7.517300193992158" id="-28777">
		<tag k="alt_name" v="Åkernes" />
		<tag k="amenity" v="place_of_worship" />
		<tag k="denomination" v="lutheran" />
		<tag k="name" v="Åknes kapell" />
		<tag k="religion" v="christian" />
		<tag k="ssr:stedsnr" v="486590" />
	</node>
	<node lat="58.80113055285662" lon="7.448130550291711" id="-28813">
		<tag k="name" v="Gråbuæ" />
=======
	<node id="-571731" lat="58.5928027804" lon="7.52511111187">
		<tag k="name" v="Bydalsbru" />
>>>>>>> e1d4bc35ff8a6074a6f2e91616a996b547c36f15
		<tag k="place" v="locality" />
		<tag k="ssr:stedsnr" v="528304" />
	</node>
	<node lat="58.744150001927935" lon="7.614508326637792" id="-28817">
		<tag k="name" v="Olasøygard" />
		<tag k="place" v="locality" />
		<tag k="ssr:stedsnr" v="528323" />
	</node>
<<<<<<< HEAD
	<node lat="58.80475278057902" lon="7.267725000633115" id="-28846">
=======
	<node id="-571634" lat="58.8047527806" lon="7.26772500063">
>>>>>>> e1d4bc35ff8a6074a6f2e91616a996b547c36f15
		<tag k="name" v="Nordmannsvegen" />
		<tag k="place" v="locality" />
		<tag k="ssr:stedsnr" v="528731" />
	</node>
<<<<<<< HEAD
	<node lat="58.59280278036339" lon="7.525111111871023" id="-28899">
		<tag k="name" v="Bydalsbru" />
=======
	<node id="-569295" lat="58.5795472185" lon="7.59968332776">
		<tag k="name" v="Eldhuset" />
>>>>>>> e1d4bc35ff8a6074a6f2e91616a996b547c36f15
		<tag k="place" v="locality" />
		<tag k="ssr:stedsnr" v="588170" />
	</node>
<<<<<<< HEAD
	<node lat="58.6173750914874" lon="7.414149346075816" id="-28957">
		<tag k="amenity" v="place_of_worship" />
		<tag k="denomination" v="lutheran" />
		<tag k="name" v="Åseral kyrkje" />
		<tag k="religion" v="christian" />
		<tag k="ssr:stedsnr" v="606799" />
=======
	<node id="-572078" lat="58.7281222224" lon="7.56492222468">
		<tag k="name" v="Stebuæ" />
		<tag k="place" v="locality" />
		<tag k="ssr:stedsnr" v="771127" />
>>>>>>> e1d4bc35ff8a6074a6f2e91616a996b547c36f15
	</node>
	<node id="-572331" lat="58.5242222236" lon="7.31988611734">
		<tag k="name" v="Storeløa" />
		<tag k="place" v="locality" />
		<tag k="ssr:stedsnr" v="832723" />
	</node>
	<node id="-569546" lat="58.7892444422" lon="7.35096111123">
		<tag k="amenity" v="place_of_worship" />
		<tag k="denomination" v="lutheran" />
		<tag k="name" v="Ljosland kapell" />
		<tag k="religion" v="christian" />
		<tag k="ssr:stedsnr" v="467902" />
	</node>
	<node id="-570402" lat="58.8297083361" lon="7.49360277314">
		<tag k="name" v="Libuæ" />
		<tag k="place" v="locality" />
		<tag k="ssr:stedsnr" v="888512" />
	</node>
	<node id="-569089" lat="58.5200750026" lon="7.36197222524">
		<tag k="name" v="Lasteskotet" />
		<tag k="place" v="locality" />
		<tag k="ssr:stedsnr" v="225911" />
	</node>
</osm>
