<?xml version="1.0" encoding="UTF-8"?>
<osm version="0.6" generator="osmapis">
	<node lat="58.76718333269829" lon="7.553783333176976" id="-26910">
		<tag k="alt_name" v="Voremyri" />
		<tag k="name" v="Voremyræ" />
		<tag k="natural" v="wetland" />
		<tag k="ssr:stedsnr" v="561" />
	</node>
	<node lat="58.560036108206134" lon="7.2922166669860555" id="-26946">
		<tag k="name" v="Halvorsslåttå" />
		<tag k="natural" v="wetland" />
		<tag k="ssr:stedsnr" v="42383" />
	</node>
	<node lat="58.77499444508555" lon="7.3351361131040935" id="-26951">
		<tag k="name" v="Hedderstakkslåtå" />
		<tag k="natural" v="wetland" />
		<tag k="ssr:stedsnr" v="42882" />
	</node>
	<node lat="58.563530553680195" lon="7.519233336336986" id="-26953">
		<tag k="name" v="Bjønnskvæven" />
		<tag k="natural" v="wetland" />
		<tag k="ssr:stedsnr" v="43004" />
	</node>
	<node lat="58.56872500406472" lon="7.511902778141071" id="-26954">
		<tag k="name" v="Fiskelausmyra" />
		<tag k="natural" v="wetland" />
		<tag k="ssr:stedsnr" v="43006" />
	</node>
	<node lat="58.550397219167486" lon="7.280011111334383" id="-26980">
		<tag k="name" v="Heimre Knupen" />
		<tag k="natural" v="wetland" />
		<tag k="ssr:stedsnr" v="43803" />
	</node>
	<node lat="58.51323611230088" lon="7.49420833172556" id="-26981">
		<tag k="name" v="Gilmyran" />
		<tag k="natural" v="wetland" />
		<tag k="ssr:stedsnr" v="43804" />
	</node>
	<node lat="58.72851944503046" lon="7.42177500415406" id="-26993">
		<tag k="name" v="Søtaholet" />
		<tag k="natural" v="wetland" />
		<tag k="ssr:stedsnr" v="43990" />
	</node>
	<node lat="58.55097777535091" lon="7.45346388679614" id="-26994">
		<tag k="name" v="Torvmyr" />
		<tag k="natural" v="wetland" />
		<tag k="ssr:stedsnr" v="43993" />
	</node>
	<node lat="58.555744440740185" lon="7.462149992763742" id="-26995">
		<tag k="name" v="Sletteflekken" />
		<tag k="place" v="locality" />
		<tag k="ssr:stedsnr" v="43998" />
	</node>
	<node lat="58.81209444108266" lon="7.484936106258961" id="-27072">
		<tag k="name" v="Storamyræ" />
		<tag k="natural" v="wetland" />
		<tag k="ssr:stedsnr" v="99373" />
	</node>
	<node lat="58.82173333171907" lon="7.470299992659645" id="-27073">
		<tag k="name" v="Samlagslåttå" />
		<tag k="natural" v="wetland" />
		<tag k="ssr:stedsnr" v="99509" />
	</node>
	<node lat="58.75773333113139" lon="7.55411388643918" id="-27102">
		<tag k="name" v="Koddemyræ" />
		<tag k="natural" v="wetland" />
		<tag k="ssr:stedsnr" v="104025" />
	</node>
	<node lat="58.597638891518976" lon="7.422155554953285" id="-27112">
		<tag k="name" v="Langamyra" />
		<tag k="natural" v="wetland" />
		<tag k="ssr:stedsnr" v="104231" />
	</node>
	<node lat="58.66785000032636" lon="7.4107000000950185" id="-27123">
		<tag k="name" v="Bortedalsmyræ" />
		<tag k="natural" v="wetland" />
		<tag k="ssr:stedsnr" v="104324" />
	</node>
	<node lat="58.65402222195523" lon="7.405522230740913" id="-27127">
		<tag k="name" v="Hestneset" />
		<tag k="place" v="locality" />
		<tag k="ssr:stedsnr" v="104505" />
	</node>
	<node lat="58.53389999974025" lon="7.3706861185578" id="-27137">
		<tag k="name" v="Langemyr" />
		<tag k="natural" v="wetland" />
		<tag k="ssr:stedsnr" v="104904" />
	</node>
	<node lat="58.71313055248719" lon="7.500183341317848" id="-27141">
		<tag k="name" v="Dyplan" />
		<tag k="natural" v="wetland" />
		<tag k="ssr:stedsnr" v="104913" />
	</node>
	<node lat="58.54822222305931" lon="7.465991664812427" id="-27148">
		<tag k="name" v="Småøygardan" />
		<tag k="natural" v="wetland" />
		<tag k="ssr:stedsnr" v="104881" />
	</node>
	<node lat="58.81707777722717" lon="7.449549993427154" id="-27165">
		<tag k="name" v="Kringlemyræ" />
		<tag k="natural" v="wetland" />
		<tag k="ssr:stedsnr" v="159599" />
	</node>
	<node lat="58.74708333472149" lon="7.563558340561472" id="-27201">
		<tag k="name" v="Nosmannsholå" />
		<tag k="natural" v="wetland" />
		<tag k="ssr:stedsnr" v="164361" />
	</node>
	<node lat="58.612391666687856" lon="7.4047638837097" id="-27213">
		<tag k="name" v="Hundeset" />
		<tag k="place" v="locality" />
		<tag k="ssr:stedsnr" v="164412" />
	</node>
	<node lat="58.53553333665057" lon="7.51575277625506" id="-27222">
		<tag k="name" v="Ubasen" />
		<tag k="natural" v="wetland" />
		<tag k="ssr:stedsnr" v="164869" />
	</node>
	<node lat="58.54842500091654" lon="7.546830562182441" id="-27229">
		<tag k="name" v="Lisle Osuvslåtta" />
		<tag k="natural" v="wetland" />
		<tag k="ssr:stedsnr" v="164902" />
	</node>
	<node lat="58.6564249994711" lon="7.54578333093069" id="-27280">
		<tag k="name" v="Hommen" />
		<tag k="natural" v="wetland" />
		<tag k="ssr:stedsnr" v="224403" />
	</node>
	<node lat="58.627575001962605" lon="7.483111109605659" id="-27282">
		<tag k="name" v="Stylkemyrhommen" />
		<tag k="natural" v="wetland" />
		<tag k="ssr:stedsnr" v="224434" />
	</node>
	<node lat="58.782344448945864" lon="7.356994452842194" id="-27289">
		<tag k="name" v="Myran" />
		<tag k="natural" v="wetland" />
		<tag k="ssr:stedsnr" v="224908" />
	</node>
	<node lat="58.562641669737914" lon="7.508550000377441" id="-27294">
		<tag k="name" v="Heddebekkslåtten" />
		<tag k="natural" v="wetland" />
		<tag k="ssr:stedsnr" v="225006" />
	</node>
	<node lat="58.73014167101113" lon="7.573369444328175" id="-27298">
		<tag k="name" v="Støylsogøygard" />
		<tag k="natural" v="wetland" />
		<tag k="ssr:stedsnr" v="225138" />
	</node>
	<node lat="58.56764166631406" lon="7.351680554033522" id="-27301">
		<tag k="name" v="Gumuskjerret" />
		<tag k="natural" v="wetland" />
		<tag k="ssr:stedsnr" v="225146" />
	</node>
	<node lat="58.764358331860755" lon="7.506966665947102" id="-27310">
		<tag k="name" v="Hesteneset" />
		<tag k="place" v="locality" />
		<tag k="ssr:stedsnr" v="225035" />
	</node>
	<node lat="58.67647222193548" lon="7.371483336638953" id="-27322">
		<tag k="name" v="Storeslåtten" />
		<tag k="natural" v="wetland" />
		<tag k="ssr:stedsnr" v="225386" />
	</node>
	<node lat="58.66051666803051" lon="7.464475001332826" id="-27329">
		<tag k="name" v="Varemyr" />
		<tag k="natural" v="wetland" />
		<tag k="ssr:stedsnr" v="225483" />
	</node>
	<node lat="58.71770278185668" lon="7.486347215440249" id="-27339">
		<tag k="name" v="Skarvemyran" />
		<tag k="natural" v="wetland" />
		<tag k="ssr:stedsnr" v="225887" />
	</node>
	<node lat="58.505022225160346" lon="7.4490944461220385" id="-27343">
		<tag k="name" v="Berkjålskvæven" />
		<tag k="natural" v="wetland" />
		<tag k="ssr:stedsnr" v="225788" />
	</node>
	<node lat="58.52248611172658" lon="7.377247223385204" id="-27349">
		<tag k="name" v="Bjønnesteinen" />
		<tag k="natural" v="stone" />
		<tag k="ssr:stedsnr" v="225906" />
	</node>
	<node lat="58.78011944101592" lon="7.511633336066298" id="-27371">
		<tag k="name" v="Grå Uræ" />
		<tag k="natural" v="scree" />
		<tag k="ssr:stedsnr" v="281305" />
	</node>
	<node lat="58.57643055856446" lon="7.545780554003537" id="-27391">
		<tag k="name" v="Storemyr" />
		<tag k="natural" v="wetland" />
		<tag k="ssr:stedsnr" v="286027" />
	</node>
	<node lat="58.567861111237356" lon="7.448047225093562" id="-27398">
		<tag k="name" v="Kjørren" />
		<tag k="natural" v="wetland" />
		<tag k="ssr:stedsnr" v="286116" />
	</node>
	<node lat="58.75960555634228" lon="7.573144441742262" id="-27401">
		<tag k="name" v="Livskjarret" />
		<tag k="natural" v="wetland" />
		<tag k="ssr:stedsnr" v="286138" />
	</node>
	<node lat="58.748888885806885" lon="7.373583335013492" id="-27402">
		<tag k="name" v="Tjønnebu" />
		<tag k="natural" v="wetland" />
		<tag k="ssr:stedsnr" v="286184" />
	</node>
	<node lat="58.63433055289377" lon="7.296158333101032" id="-27406">
		<tag k="name" v="Med tjønnin" />
		<tag k="natural" v="wetland" />
		<tag k="ssr:stedsnr" v="286446" />
	</node>
	<node lat="58.653597223767264" lon="7.407499992080494" id="-27412">
		<tag k="name" v="Skaddøynan" />
		<tag k="place" v="locality" />
		<tag k="ssr:stedsnr" v="286513" />
	</node>
	<node lat="58.50608333332634" lon="7.405011118812746" id="-27414">
		<tag k="name" v="Hønelandsmyr" />
		<tag k="natural" v="wetland" />
		<tag k="ssr:stedsnr" v="286803" />
	</node>
	<node lat="58.52406111034727" lon="7.368447230515036" id="-27420">
		<tag k="name" v="Rullanmyran" />
		<tag k="natural" v="wetland" />
		<tag k="ssr:stedsnr" v="286930" />
	</node>
	<node lat="58.83686388738864" lon="7.4620555621686515" id="-27429">
		<tag k="name" v="Kleiveslåttå" />
		<tag k="natural" v="wetland" />
		<tag k="ssr:stedsnr" v="463547" />
	</node>
	<node lat="58.8500583353803" lon="7.434330551025851" id="-27434">
		<tag k="name" v="Myrslåttun" />
		<tag k="natural" v="wetland" />
		<tag k="ssr:stedsnr" v="463650" />
	</node>
	<node lat="58.851888892028356" lon="7.470283340708604" id="-27444">
		<tag k="alt_name" v="Hesthommen" />
		<tag k="name" v="Hestehommen" />
		<tag k="place" v="locality" />
		<tag k="ssr:stedsnr" v="304406" />
	</node>
	<node lat="58.79649999967291" lon="7.479719439898248" id="-27460">
		<tag k="name" v="Surtemyræ" />
		<tag k="natural" v="wetland" />
		<tag k="ssr:stedsnr" v="467286" />
	</node>
	<node lat="58.81282778086329" lon="7.569075000044534" id="-27479">
		<tag k="name" v="Ålsvarstean" />
		<tag k="natural" v="wetland" />
		<tag k="ssr:stedsnr" v="467649" />
	</node>
	<node lat="58.779855551487614" lon="7.430308329538907" id="-27481">
		<tag k="name" v="Stean" />
		<tag k="natural" v="wetland" />
		<tag k="ssr:stedsnr" v="467734" />
	</node>
	<node lat="58.50068888738487" lon="7.448352783629563" id="-27483">
		<tag k="name" v="Langemyr" />
		<tag k="natural" v="wetland" />
		<tag k="ssr:stedsnr" v="467788" />
	</node>
	<node lat="58.75775555196837" lon="7.347183339547291" id="-27488">
		<tag k="name" v="Pikstein" />
		<tag k="natural" v="stone" />
		<tag k="ssr:stedsnr" v="467928" />
	</node>
	<node lat="58.75903610877328" lon="7.384330559383029" id="-27490">
		<tag k="historic" v="shieling" />
		<tag k="name" v="Blikkstøl" />
		<tag k="place" v="locality" />
		<tag k="ssr:stedsnr" v="467932" />
	</node>
	<node lat="58.56729722400538" lon="7.492383333938897" id="-27498">
		<tag k="name" v="Årlimyran" />
		<tag k="natural" v="wetland" />
		<tag k="ssr:stedsnr" v="468059" />
	</node>
	<node lat="58.595208330423986" lon="7.475658327836541" id="-27502">
		<tag k="name" v="Homman" />
		<tag k="natural" v="wetland" />
		<tag k="ssr:stedsnr" v="468191" />
	</node>
	<node lat="58.59492222539243" lon="7.467013895256373" id="-27504">
		<tag k="name" v="Vårslåtta" />
		<tag k="natural" v="wetland" />
		<tag k="ssr:stedsnr" v="468196" />
	</node>
	<node lat="58.62188332923474" lon="7.47551389105643" id="-27518">
		<tag k="name" v="Tjønneslåtton" />
		<tag k="natural" v="wetland" />
		<tag k="ssr:stedsnr" v="468307" />
	</node>
	<node lat="58.57713888785597" lon="7.261925004314906" id="-27523">
		<tag k="name" v="Bjønnvassmyra" />
		<tag k="natural" v="wetland" />
		<tag k="ssr:stedsnr" v="468694" />
	</node>
	<node lat="58.52833055356903" lon="7.413350006705937" id="-27530">
		<tag k="name" v="Kilan" />
		<tag k="place" v="locality" />
		<tag k="ssr:stedsnr" v="468849" />
	</node>
	<node lat="58.80246666551912" lon="7.467988892997764" id="-27548">
		<tag k="name" v="Holman" />
		<tag k="place" v="locality" />
		<tag k="ssr:stedsnr" v="342346" />
	</node>
	<node lat="58.75595555538155" lon="7.628466674153456" id="-27570">
		<tag k="name" v="Kjosevasskjarret" />
		<tag k="natural" v="wetland" />
		<tag k="ssr:stedsnr" v="346077" />
	</node>
	<node lat="58.66809444185507" lon="7.469238894091406" id="-27575">
		<tag k="name" v="Veihommen" />
		<tag k="natural" v="wetland" />
		<tag k="ssr:stedsnr" v="346308" />
	</node>
	<node lat="58.796922225451965" lon="7.445977775108182" id="-27585">
		<tag k="name" v="Nygreholå" />
		<tag k="natural" v="wetland" />
		<tag k="ssr:stedsnr" v="346271" />
	</node>
	<node lat="58.79761388839099" lon="7.455922219794812" id="-27588">
		<tag k="name" v="Holmeslåttun" />
		<tag k="natural" v="wetland" />
		<tag k="ssr:stedsnr" v="346276" />
	</node>
	<node lat="58.603380558847796" lon="7.530441659298989" id="-27589">
		<tag k="name" v="Buråsstean" />
		<tag k="natural" v="wetland" />
		<tag k="ssr:stedsnr" v="346278" />
	</node>
	<node lat="58.63455000280785" lon="7.347736105595359" id="-27591">
		<tag k="name" v="Stedjan" />
		<tag k="natural" v="wetland" />
		<tag k="ssr:stedsnr" v="346415" />
	</node>
	<node lat="58.53463055660889" lon="7.460166668737408" id="-27605">
		<tag k="name" v="Fænmyran" />
		<tag k="natural" v="wetland" />
		<tag k="ssr:stedsnr" v="346859" />
	</node>
	<node lat="58.5342166658397" lon="7.512541666099633" id="-27606">
		<tag k="name" v="Tutreslåtta" />
		<tag k="natural" v="wetland" />
		<tag k="ssr:stedsnr" v="346862" />
	</node>
	<node lat="58.515255554196926" lon="7.460094446839287" id="-27608">
		<tag k="name" v="Troddekjerran" />
		<tag k="natural" v="wetland" />
		<tag k="ssr:stedsnr" v="346872" />
	</node>
	<node lat="58.58752778194046" lon="7.447658332313076" id="-27617">
		<tag k="name" v="Bjønndalsmyra" />
		<tag k="natural" v="wetland" />
		<tag k="ssr:stedsnr" v="347226" />
	</node>
	<node lat="58.72421388980314" lon="7.3608888914223884" id="-27618">
		<tag k="name" v="Slåtehommen" />
		<tag k="natural" v="wetland" />
		<tag k="ssr:stedsnr" v="346956" />
	</node>
	<node lat="58.75950832929338" lon="7.586244447832272" id="-27644">
		<tag k="alt_name" v="Skjevlhushommen" />
		<tag k="name" v="Skjevlushommen" />
		<tag k="natural" v="wetland" />
		<tag k="ssr:stedsnr" v="364605" />
	</node>
	<node lat="58.731222223735465" lon="7.539294444808132" id="-27662">
		<tag k="alt_name" v="Karfit" />
		<tag k="name" v="Karfitmyræ" />
		<tag k="natural" v="wetland" />
		<tag k="ssr:stedsnr" v="485029" />
	</node>
	<node lat="58.8437972267764" lon="7.332355559474188" id="-27668">
		<tag k="name" v="Slækjå" />
		<tag k="natural" v="wetland" />
		<tag k="ssr:stedsnr" v="402175" />
	</node>
	<node lat="58.630783337467506" lon="7.37520555234987" id="-27693">
		<tag k="name" v="Gjyresteinen" />
		<tag k="natural" v="stone" />
		<tag k="ssr:stedsnr" v="406406" />
	</node>
	<node lat="58.56600000215224" lon="7.5138972240685815" id="-27703">
		<tag k="name" v="Sløon" />
		<tag k="natural" v="wetland" />
		<tag k="ssr:stedsnr" v="407011" />
	</node>
	<node lat="58.563777777238656" lon="7.4167638882695295" id="-27711">
		<tag k="name" v="Markamyran" />
		<tag k="natural" v="wetland" />
		<tag k="ssr:stedsnr" v="407110" />
	</node>
	<node lat="58.75479722553148" lon="7.590913886774222" id="-27713">
		<tag k="alt_name" v="Ausdalsøygard" />
		<tag k="name" v="Austdalsøygaard" />
		<tag k="natural" v="wetland" />
		<tag k="ssr:stedsnr" v="407112" />
	</node>
	<node lat="58.54024722560998" lon="7.45697777267644" id="-27749">
		<tag k="name" v="Tveitehomman" />
		<tag k="natural" v="wetland" />
		<tag k="ssr:stedsnr" v="407889" />
	</node>
	<node lat="58.55317499911249" lon="7.529399999824179" id="-27752">
		<tag k="name" v="Finnan" />
		<tag k="natural" v="wetland" />
		<tag k="ssr:stedsnr" v="407898" />
	</node>
	<node lat="58.861433336458816" lon="7.502125001595718" id="-27753">
		<tag k="name" v="Storhommen" />
		<tag k="place" v="locality" />
		<tag k="ssr:stedsnr" v="486434" />
	</node>
	<node lat="58.5912027808791" lon="7.420080563683685" id="-27764">
		<tag k="name" v="Johannamyra" />
		<tag k="natural" v="wetland" />
		<tag k="ssr:stedsnr" v="408243" />
	</node>
	<node lat="58.779436110230016" lon="7.536805562481965" id="-27804">
		<tag k="name" v="Myran" />
		<tag k="natural" v="wetland" />
		<tag k="ssr:stedsnr" v="463213" />
	</node>
	<node lat="58.803625000827275" lon="7.427386114124071" id="-27807">
		<tag k="name" v="Skothommen" />
		<tag k="natural" v="wetland" />
		<tag k="ssr:stedsnr" v="463321" />
	</node>
	<node lat="58.87410833039697" lon="7.461372214698197" id="-27809">
		<tag k="name" v="Hesteslåttun" />
		<tag k="natural" v="wetland" />
		<tag k="ssr:stedsnr" v="463805" />
	</node>
	<node lat="58.78924722074218" lon="7.483886107967501" id="-27811">
		<tag k="name" v="Kalvemyran" />
		<tag k="natural" v="wetland" />
		<tag k="ssr:stedsnr" v="463757" />
	</node>
	<node lat="58.69194166655348" lon="7.353577781574938" id="-27831">
		<tag k="name" v="Såslåttun" />
		<tag k="natural" v="wetland" />
		<tag k="ssr:stedsnr" v="468064" />
	</node>
	<node lat="58.574530554299606" lon="7.450463885535441" id="-27837">
		<tag k="name" v="Linjord" />
		<tag k="natural" v="wetland" />
		<tag k="ssr:stedsnr" v="468077" />
	</node>
	<node lat="58.671258337810414" lon="7.497802779065412" id="-27856">
		<tag k="name" v="Væting" />
		<tag k="natural" v="wetland" />
		<tag k="ssr:stedsnr" v="468268" />
	</node>
	<node lat="58.55137499827438" lon="7.510155557194335" id="-27864">
		<tag k="name" v="Myran" />
		<tag k="natural" v="wetland" />
		<tag k="ssr:stedsnr" v="468881" />
	</node>
	<node lat="58.79652500350788" lon="7.433394450536667" id="-27900">
		<tag k="name" v="Moltekjarrslåttå" />
		<tag k="natural" v="wetland" />
		<tag k="ssr:stedsnr" v="523384" />
	</node>
	<node lat="58.81262777691011" lon="7.457647226135347" id="-27904">
		<tag k="name" v="Storemyr" />
		<tag k="natural" v="wetland" />
		<tag k="ssr:stedsnr" v="524302" />
	</node>
	<node lat="58.812061112543816" lon="7.487913887699744" id="-27905">
		<tag k="name" v="Prestmyran" />
		<tag k="natural" v="wetland" />
		<tag k="ssr:stedsnr" v="524308" />
	</node>
	<node lat="58.55841388777502" lon="7.3987861093205325" id="-27925">
		<tag k="name" v="Torvemyr" />
		<tag k="natural" v="wetland" />
		<tag k="ssr:stedsnr" v="528088" />
	</node>
	<node lat="58.664847218017236" lon="7.405269443334949" id="-27943">
		<tag k="name" v="Kjeddingsteinen" />
		<tag k="natural" v="stone" />
		<tag k="ssr:stedsnr" v="528524" />
	</node>
	<node lat="58.810666669480774" lon="7.28707222564146" id="-27951">
		<tag k="name" v="Tonestorren" />
		<tag k="natural" v="wetland" />
		<tag k="ssr:stedsnr" v="528284" />
	</node>
	<node lat="58.7362138908911" lon="7.585538894678153" id="-27955">
		<tag k="name" v="Elgsskjelshomman" />
		<tag k="natural" v="wetland" />
		<tag k="ssr:stedsnr" v="528298" />
	</node>
	<node lat="58.523977774537606" lon="7.439644440498611" id="-27960">
		<tag k="name" v="Stimyr" />
		<tag k="natural" v="wetland" />
		<tag k="ssr:stedsnr" v="528806" />
	</node>
	<node lat="58.51162499553985" lon="7.453463888026746" id="-27966">
		<tag k="name" v="Krokstean" />
		<tag k="natural" v="wetland" />
		<tag k="ssr:stedsnr" v="528782" />
	</node>
	<node lat="58.76554999714584" lon="7.286061114145743" id="-27970">
		<tag k="name" v="Stikebosslåttun" />
		<tag k="natural" v="wetland" />
		<tag k="ssr:stedsnr" v="528910" />
	</node>
	<node lat="58.567702773311" lon="7.533583326379716" id="-28029">
		<tag k="name" v="Sollausmyra" />
		<tag k="natural" v="wetland" />
		<tag k="ssr:stedsnr" v="589012" />
	</node>
	<node lat="58.69006666659884" lon="7.356030557775166" id="-28033">
		<tag k="name" v="Persmannsslåttun" />
		<tag k="natural" v="wetland" />
		<tag k="ssr:stedsnr" v="589066" />
	</node>
	<node lat="58.572319445651964" lon="7.495366673972589" id="-28035">
		<tag k="name" v="Skogresmyr" />
		<tag k="natural" v="wetland" />
		<tag k="ssr:stedsnr" v="589077" />
	</node>
	<node lat="58.67703611096999" lon="7.341075001916341" id="-28054">
		<tag k="name" v="Drangedalstean" />
		<tag k="natural" v="wetland" />
		<tag k="ssr:stedsnr" v="589377" />
	</node>
	<node lat="58.51936111234109" lon="7.370472220651535" id="-28060">
		<tag k="name" v="Utålmyra" />
		<tag k="natural" v="wetland" />
		<tag k="ssr:stedsnr" v="589813" />
	</node>
	<node lat="58.51701111177726" lon="7.478538890544394" id="-28093">
		<tag k="name" v="Storemyran" />
		<tag k="natural" v="wetland" />
		<tag k="ssr:stedsnr" v="607992" />
	</node>
	<node lat="58.826411111926234" lon="7.422427774986442" id="-28097">
		<tag k="name" v="Storehommen" />
		<tag k="natural" v="wetland" />
		<tag k="ssr:stedsnr" v="705179" />
	</node>
	<node lat="58.818600003418894" lon="7.428408339510659" id="-28099">
		<tag k="name" v="Skrubbehomsteæ" />
		<tag k="natural" v="wetland" />
		<tag k="ssr:stedsnr" v="705201" />
	</node>
	<node lat="58.83477778017065" lon="7.458872229885036" id="-28101">
		<tag k="name" v="Strondeslåttå" />
		<tag k="natural" v="wetland" />
		<tag k="ssr:stedsnr" v="705644" />
	</node>
	<node lat="58.818344440539136" lon="7.424158340777181" id="-28108">
		<tag k="name" v="Stora Steæ" />
		<tag k="natural" v="wetland" />
		<tag k="ssr:stedsnr" v="644179" />
	</node>
	<node lat="58.81483888591127" lon="7.41904444812908" id="-28109">
		<tag k="name" v="Vene hommen" />
		<tag k="natural" v="wetland" />
		<tag k="ssr:stedsnr" v="644324" />
	</node>
	<node lat="58.7773055526299" lon="7.523061103353626" id="-28119">
		<tag k="name" v="Foleslåtten" />
		<tag k="natural" v="wetland" />
		<tag k="ssr:stedsnr" v="645383" />
	</node>
	<node lat="58.77628610828083" lon="7.490533340440656" id="-28121">
		<tag k="name" v="Klovne steinen" />
		<tag k="natural" v="stone" />
		<tag k="ssr:stedsnr" v="645716" />
	</node>
	<node lat="58.864399998273555" lon="7.459430556127409" id="-28123">
		<tag k="name" v="Finndalslønan" />
		<tag k="natural" v="wetland" />
		<tag k="ssr:stedsnr" v="645779" />
	</node>
	<node lat="58.79219444282589" lon="7.4763888889778904" id="-28131">
		<tag k="name" v="Bæktarholå" />
		<tag k="natural" v="wetland" />
		<tag k="ssr:stedsnr" v="706738" />
	</node>
	<node lat="58.560488887903226" lon="7.5166638896649385" id="-28139">
		<tag k="name" v="Tverrmyran" />
		<tag k="natural" v="wetland" />
		<tag k="ssr:stedsnr" v="649002" />
	</node>
	<node lat="58.694961112832885" lon="7.450058338185214" id="-28153">
		<tag k="name" v="Kjeddarmyrslåttå" />
		<tag k="natural" v="wetland" />
		<tag k="ssr:stedsnr" v="649252" />
	</node>
	<node lat="58.566322224246754" lon="7.32881111048126" id="-28157">
		<tag k="name" v="Brakemyran" />
		<tag k="natural" v="wetland" />
		<tag k="ssr:stedsnr" v="649450" />
	</node>
	<node lat="58.52932500316917" lon="7.2903416634137574" id="-28164">
		<tag k="name" v="Fuglemyran" />
		<tag k="natural" v="wetland" />
		<tag k="ssr:stedsnr" v="649805" />
	</node>
	<node lat="58.52329267744464" lon="7.354306748632574" id="-28170">
		<tag k="name" v="Urefita" />
		<tag k="natural" v="wetland" />
		<tag k="ssr:stedsnr" v="649910" />
	</node>
	<node lat="58.72230555365614" lon="7.554219453005318" id="-28173">
		<tag k="name" v="Langevodd" />
		<tag k="place" v="locality" />
		<tag k="ssr:stedsnr" v="649924" />
	</node>
	<node lat="58.723444442380845" lon="7.4595472156689535" id="-28184">
		<tag k="name" v="Tjorret" />
		<tag k="natural" v="wetland" />
		<tag k="ssr:stedsnr" v="649892" />
	</node>
	<node lat="58.53842777946557" lon="7.519030561787628" id="-28186">
		<tag k="name" v="Gisleslåtta" />
		<tag k="natural" v="wetland" />
		<tag k="ssr:stedsnr" v="649894" />
	</node>
	<node lat="58.587883332542695" lon="7.4396194489750656" id="-28189">
		<tag k="name" v="Staven" />
		<tag k="natural" v="wetland" />
		<tag k="ssr:stedsnr" v="650219" />
	</node>
	<node lat="58.50956944539672" lon="7.457036118306991" id="-28193">
		<tag k="name" v="Bjønnekjerran" />
		<tag k="natural" v="wetland" />
		<tag k="ssr:stedsnr" v="650808" />
	</node>
	<node lat="58.507961111391666" lon="7.454641662911692" id="-28194">
		<tag k="name" v="Takemyr" />
		<tag k="natural" v="wetland" />
		<tag k="ssr:stedsnr" v="650809" />
	</node>
	<node lat="58.66298055996905" lon="7.34373610308795" id="-28223">
		<tag k="name" v="Grøæ" />
		<tag k="natural" v="wetland" />
		<tag k="ssr:stedsnr" v="710292" />
	</node>
	<node lat="58.59804444116312" lon="7.568788895719936" id="-28230">
		<tag k="name" v="Øvre Myran" />
		<tag k="natural" v="wetland" />
		<tag k="ssr:stedsnr" v="710162" />
	</node>
	<node lat="58.68030555528892" lon="7.312994449658824" id="-28233">
		<tag k="name" v="Stedjan" />
		<tag k="natural" v="wetland" />
		<tag k="ssr:stedsnr" v="710173" />
	</node>
	<node lat="58.81827499790526" lon="7.456974994393462" id="-28236">
		<tag k="historic" v="shieling" />
		<tag k="name" v="Berge" />
		<tag k="place" v="locality" />
		<tag k="ssr:stedsnr" v="668518" />
	</node>
	<node lat="58.6794055566237" lon="7.493369439123205" id="-28250">
		<tag k="name" v="Mæ Tjønnin" />
		<tag k="natural" v="wetland" />
		<tag k="ssr:stedsnr" v="710357" />
	</node>
	<node lat="58.55766111404478" lon="7.303250000690974" id="-28273">
		<tag k="name" v="Heddersmyræ" />
		<tag k="natural" v="wetland" />
		<tag k="ssr:stedsnr" v="892343" />
	</node>
	<node lat="58.785127774926245" lon="7.556136118606645" id="-28281">
		<tag k="name" v="Synnemyræ" />
		<tag k="natural" v="wetland" />
		<tag k="ssr:stedsnr" v="892837" />
	</node>
	<node lat="58.75678055951319" lon="7.654555548354967" id="-28300">
		<tag k="name" v="Viemyræ" />
		<tag k="natural" v="wetland" />
		<tag k="ssr:stedsnr" v="893195" />
	</node>
	<node lat="58.745377780654" lon="7.422897223906701" id="-28302">
		<tag k="name" v="Valbørslåttun" />
		<tag k="natural" v="wetland" />
		<tag k="ssr:stedsnr" v="893155" />
	</node>
	<node lat="58.72916666767379" lon="7.544905556082837" id="-28303">
		<tag k="name" v="Langefit" />
		<tag k="natural" v="wetland" />
		<tag k="ssr:stedsnr" v="893927" />
	</node>
	<node lat="58.744566669959426" lon="7.491713880846337" id="-28307">
		<tag k="name" v="Kvistellmyræ" />
		<tag k="natural" v="wetland" />
		<tag k="ssr:stedsnr" v="893236" />
	</node>
	<node lat="58.58303889091737" lon="7.329613883154729" id="-28318">
		<tag k="name" v="Viemyran" />
		<tag k="natural" v="wetland" />
		<tag k="ssr:stedsnr" v="893397" />
	</node>
	<node lat="58.635036114984324" lon="7.312905560713222" id="-28321">
		<tag k="name" v="Kitelsmyræ" />
		<tag k="natural" v="wetland" />
		<tag k="ssr:stedsnr" v="893428" />
	</node>
	<node lat="58.82808888696041" lon="7.173024991573348" id="-28324">
		<tag k="name" v="Kaffisteinen" />
		<tag k="natural" v="stone" />
		<tag k="ssr:stedsnr" v="893644" />
	</node>
	<node lat="58.64772499885113" lon="7.375058341993347" id="-28327">
		<tag k="name" v="Helgaslåttå" />
		<tag k="natural" v="wetland" />
		<tag k="ssr:stedsnr" v="893491" />
	</node>
	<node lat="58.501666670127335" lon="7.4085305559996355" id="-28336">
		<tag k="name" v="Bjønnemyr" />
		<tag k="natural" v="wetland" />
		<tag k="ssr:stedsnr" v="893793" />
	</node>
	<node lat="58.52497499802368" lon="7.413338893637781" id="-28340">
		<tag k="name" v="Setan" />
		<tag k="natural" v="wetland" />
		<tag k="ssr:stedsnr" v="893854" />
	</node>
	<node lat="58.71298889170481" lon="7.434008337805714" id="-28341">
		<tag k="name" v="Urægrå" />
		<tag k="natural" v="scree" />
		<tag k="ssr:stedsnr" v="893892" />
	</node>
	<node lat="58.762727777262555" lon="7.486563884681502" id="-28346">
		<tag k="name" v="Gråneholet" />
		<tag k="natural" v="wetland" />
		<tag k="ssr:stedsnr" v="893985" />
	</node>
	<node lat="58.715205557396416" lon="7.436469444006638" id="-28350">
		<tag k="name" v="Granhomstean" />
		<tag k="natural" v="wetland" />
		<tag k="ssr:stedsnr" v="893997" />
	</node>
	<node lat="58.84186667029922" lon="7.352488888347266" id="-28356">
		<tag k="name" v="Dyplemyran" />
		<tag k="natural" v="wetland" />
		<tag k="ssr:stedsnr" v="706113" />
	</node>
	<node lat="58.747605552519225" lon="7.545616671672659" id="-28361">
		<tag k="name" v="Myrdalen" />
		<tag k="natural" v="wetland" />
		<tag k="ssr:stedsnr" v="710215" />
	</node>
	<node lat="58.5856527757532" lon="7.442652773808317" id="-28366">
		<tag k="name" v="Åksla" />
		<tag k="natural" v="wetland" />
		<tag k="ssr:stedsnr" v="710228" />
	</node>
	<node lat="58.686474998931494" lon="7.541866658327288" id="-28380">
		<tag k="name" v="Lokkslåttå" />
		<tag k="natural" v="wetland" />
		<tag k="ssr:stedsnr" v="710333" />
	</node>
	<node lat="58.644202776646445" lon="7.410777773912086" id="-28394">
		<tag k="name" v="Løkemyræ" />
		<tag k="natural" v="wetland" />
		<tag k="ssr:stedsnr" v="710532" />
	</node>
	<node lat="58.575486107948464" lon="7.457038883811402" id="-28417">
		<tag k="name" v="Stehommen" />
		<tag k="natural" v="wetland" />
		<tag k="ssr:stedsnr" v="711088" />
	</node>
	<node lat="58.679527778346056" lon="7.581663894018372" id="-28438">
		<tag k="alt_name" v="Presthommen" />
		<tag k="name" v="Presthomman" />
		<tag k="place" v="locality" />
		<tag k="ssr:stedsnr" v="729193" />
	</node>
	<node lat="58.77454444067797" lon="7.53163610325483" id="-28453">
		<tag k="name" v="Listakkslåttun" />
		<tag k="natural" v="wetland" />
		<tag k="ssr:stedsnr" v="766470" />
	</node>
	<node lat="58.814758331318856" lon="7.457850000330521" id="-28457">
		<tag k="name" v="Gråtarmyræ" />
		<tag k="natural" v="wetland" />
		<tag k="ssr:stedsnr" v="767343" />
	</node>
	<node lat="58.63234444752594" lon="7.5304888850834235" id="-28468">
		<tag k="name" v="Bryningshommen" />
		<tag k="natural" v="wetland" />
		<tag k="ssr:stedsnr" v="770468" />
	</node>
	<node lat="58.56469721878782" lon="7.513533329801623" id="-28474">
		<tag k="name" v="Hasteinsmyra" />
		<tag k="natural" v="wetland" />
		<tag k="ssr:stedsnr" v="771003" />
	</node>
	<node lat="58.57331389308566" lon="7.554002784544982" id="-28475">
		<tag k="name" v="Bjønndalsstean" />
		<tag k="natural" v="wetland" />
		<tag k="ssr:stedsnr" v="771009" />
	</node>
	<node lat="58.768441669664554" lon="7.593591665284826" id="-28476">
		<tag k="name" v="Oddeslåttå" />
		<tag k="natural" v="wetland" />
		<tag k="ssr:stedsnr" v="771011" />
	</node>
	<node lat="58.579052778790235" lon="7.533650000159745" id="-28479">
		<tag k="name" v="Torvemyr" />
		<tag k="natural" v="wetland" />
		<tag k="ssr:stedsnr" v="771025" />
	</node>
	<node lat="58.675830551616464" lon="7.321233337179266" id="-28485">
		<tag k="name" v="Vætingsmyran" />
		<tag k="natural" v="wetland" />
		<tag k="ssr:stedsnr" v="771161" />
	</node>
	<node lat="58.615530554508375" lon="7.481063891380303" id="-28493">
		<tag k="name" v="Annlaugsmyran" />
		<tag k="natural" v="wetland" />
		<tag k="ssr:stedsnr" v="771364" />
	</node>
	<node lat="58.629569443784476" lon="7.341497224889694" id="-28500">
		<tag k="name" v="Koddestøl" />
		<tag k="natural" v="wetland" />
		<tag k="ssr:stedsnr" v="771422" />
	</node>
	<node lat="58.531216669096146" lon="7.3766861110306525" id="-28512">
		<tag k="name" v="Torvmyra" />
		<tag k="natural" v="wetland" />
		<tag k="ssr:stedsnr" v="771906" />
	</node>
	<node lat="58.545599996396355" lon="7.437583336793077" id="-28516">
		<tag k="name" v="Torvmyr" />
		<tag k="natural" v="wetland" />
		<tag k="ssr:stedsnr" v="771970" />
	</node>
	<node lat="58.57102499583096" lon="7.428094442559681" id="-28537">
		<tag k="alt_name" v="Storemyri" />
		<tag k="name" v="Storemyra" />
		<tag k="natural" v="wetland" />
		<tag k="ssr:stedsnr" v="910766" />
	</node>
	<node lat="58.58380000182202" lon="7.2886138921281525" id="-28553">
		<tag k="name" v="Dyrevassmyran" />
		<tag k="natural" v="wetland" />
		<tag k="ssr:stedsnr" v="788411" />
	</node>
	<node lat="58.775997225942696" lon="7.560002784612433" id="-28587">
		<tag k="alt_name" v="Hestemyrane" />
		<tag k="name" v="Hestemyran" />
		<tag k="natural" v="wetland" />
		<tag k="ssr:stedsnr" v="911566" />
	</node>
	<node lat="58.85385833596418" lon="7.336519443165724" id="-28604">
		<tag k="name" v="Romeslåttå" />
		<tag k="natural" v="wetland" />
		<tag k="ssr:stedsnr" v="827180" />
	</node>
	<node lat="58.857441669442856" lon="7.374708336833041" id="-28605">
		<tag k="name" v="Stean" />
		<tag k="natural" v="wetland" />
		<tag k="ssr:stedsnr" v="827204" />
	</node>
	<node lat="58.784258330563155" lon="7.320849993592408" id="-28625">
		<tag k="name" v="Myrslåttå" />
		<tag k="natural" v="wetland" />
		<tag k="ssr:stedsnr" v="831835" />
	</node>
	<node lat="58.78572500387932" lon="7.354352779387102" id="-28628">
		<tag k="name" v="Nesevodden" />
		<tag k="place" v="locality" />
		<tag k="ssr:stedsnr" v="831898" />
	</node>
	<node lat="58.57200555615983" lon="7.43427222396281" id="-28637">
		<tag k="name" v="Øygarden" />
		<tag k="natural" v="wetland" />
		<tag k="ssr:stedsnr" v="832112" />
	</node>
	<node lat="58.67042777785142" lon="7.319347214467584" id="-28639">
		<tag k="name" v="Stedjan" />
		<tag k="natural" v="wetland" />
		<tag k="ssr:stedsnr" v="832134" />
	</node>
	<node lat="58.74107778126197" lon="7.630983337910241" id="-28642">
		<tag k="name" v="Vrålsbumyran" />
		<tag k="natural" v="wetland" />
		<tag k="ssr:stedsnr" v="832305" />
	</node>
	<node lat="58.700641664555036" lon="7.347869448987954" id="-28652">
		<tag k="name" v="Myran" />
		<tag k="natural" v="wetland" />
		<tag k="ssr:stedsnr" v="832079" />
	</node>
	<node lat="58.706136108834905" lon="7.351155549241639" id="-28653">
		<tag k="name" v="Hårekshommen" />
		<tag k="natural" v="wetland" />
		<tag k="ssr:stedsnr" v="832080" />
	</node>
	<node lat="58.74516667105582" lon="7.378719440247954" id="-28660">
		<tag k="name" v="Fitjan" />
		<tag k="natural" v="wetland" />
		<tag k="ssr:stedsnr" v="832203" />
	</node>
	<node lat="58.62222222514909" lon="7.4689472262873515" id="-28669">
		<tag k="name" v="Botnen" />
		<tag k="natural" v="wetland" />
		<tag k="ssr:stedsnr" v="832383" />
	</node>
	<node lat="58.65077777523992" lon="7.444769447655419" id="-28676">
		<tag k="name" v="Gåsefitæ" />
		<tag k="natural" v="wetland" />
		<tag k="ssr:stedsnr" v="832538" />
	</node>
	<node lat="58.6553944432022" lon="7.407688882009515" id="-28677">
		<tag k="name" v="Diggremyræ" />
		<tag k="natural" v="wetland" />
		<tag k="ssr:stedsnr" v="832541" />
	</node>
	<node lat="58.50663610940638" lon="7.458827779100093" id="-28690">
		<tag k="name" v="Bladkjerran" />
		<tag k="natural" v="wetland" />
		<tag k="ssr:stedsnr" v="832792" />
	</node>
	<node lat="58.53015833647892" lon="7.305044439401585" id="-28691">
		<tag k="name" v="Videmyran" />
		<tag k="natural" v="wetland" />
		<tag k="ssr:stedsnr" v="832793" />
	</node>
	<node lat="58.527091568649716" lon="7.345851490071007" id="-28694">
		<tag k="name" v="Bukstjønn" />
		<tag k="natural" v="wetland" />
		<tag k="ssr:stedsnr" v="832908" />
	</node>
	<node lat="58.554369443169364" lon="7.463474993372561" id="-28705">
		<tag k="name" v="Holtet" />
		<tag k="place" v="locality" />
		<tag k="ssr:stedsnr" v="833000" />
	</node>
	<node lat="58.58925833624305" lon="7.424036118815666" id="-28708">
		<tag k="name" v="Dyplan" />
		<tag k="natural" v="wetland" />
		<tag k="ssr:stedsnr" v="833235" />
	</node>
	<node lat="58.85472499819503" lon="7.363624995791288" id="-28732">
		<tag k="name" v="Skothommen" />
		<tag k="natural" v="wetland" />
		<tag k="ssr:stedsnr" v="851389" />
	</node>
	<node lat="58.79476111268783" lon="7.50745833391253" id="-28734">
		<tag k="name" v="Bjøddehommen" />
		<tag k="place" v="locality" />
		<tag k="ssr:stedsnr" v="851508" />
	</node>
	<node lat="58.81027777774705" lon="7.4659527758982165" id="-28740">
		<tag k="alt_name" v="Vestare Stedjan" />
		<tag k="name" v="Stedjan" />
		<tag k="natural" v="wetland" />
		<tag k="ssr:stedsnr" v="869967" />
	</node>
	<node lat="58.81583332971764" lon="7.475319442675909" id="-28741">
		<tag k="name" v="Austare Stedjan" />
		<tag k="natural" v="wetland" />
		<tag k="ssr:stedsnr" v="869970" />
	</node>
	<node lat="58.837663891006045" lon="7.352199999193603" id="-28749">
		<tag k="name" v="Møingen" />
		<tag k="natural" v="wetland" />
		<tag k="ssr:stedsnr" v="888100" />
	</node>
	<node lat="58.77719166367428" lon="7.59297778326296" id="-28753">
		<tag k="name" v="Gunnarskjarret" />
		<tag k="natural" v="wetland" />
		<tag k="ssr:stedsnr" v="892168" />
	</node>
	<node lat="58.82288333777106" lon="7.341733334841212" id="-28756">
		<tag k="name" v="Byteslåttå" />
		<tag k="natural" v="wetland" />
		<tag k="ssr:stedsnr" v="892224" />
	</node>
	<node lat="58.806836111435594" lon="7.361563894931498" id="-28762">
		<tag k="name" v="Finnvodd" />
		<tag k="natural" v="wetland" />
		<tag k="ssr:stedsnr" v="892512" />
	</node>
	<node lat="58.7770138903527" lon="7.332913896660595" id="-28769">
		<tag k="name" v="Øvraørnefjeddstakkslåttå" />
		<tag k="natural" v="wetland" />
		<tag k="ssr:stedsnr" v="892859" />
	</node>
	<node lat="58.561697218005015" lon="7.526941665953317" id="-28771">
		<tag k="name" v="Munkesteinen" />
		<tag k="natural" v="stone" />
		<tag k="ssr:stedsnr" v="893007" />
	</node>
	<node lat="58.63313611177874" lon="7.4953972273501055" id="-28791">
		<tag k="name" v="Venaslåttå" />
		<tag k="natural" v="wetland" />
		<tag k="ssr:stedsnr" v="893510" />
	</node>
	<node lat="58.68970278132785" lon="7.439475002214849" id="-28842">
		<tag k="name" v="Storrslettå" />
		<tag k="natural" v="wetland" />
		<tag k="ssr:stedsnr" v="953012" />
	</node>
	<node lat="58.56246944728779" lon="7.486338889800299" id="-28845">
		<tag k="name" v="Riskjerr" />
		<tag k="natural" v="wetland" />
		<tag k="ssr:stedsnr" v="953033" />
	</node>
	<node lat="58.61161389127047" lon="7.556583332831122" id="-28854">
		<tag k="name" v="Fjelkebu" />
		<tag k="natural" v="wetland" />
		<tag k="ssr:stedsnr" v="953328" />
	</node>
	<node lat="58.75034722130472" lon="7.585816674152416" id="-28855">
		<tag k="name" v="Kleggleithommen" />
		<tag k="natural" v="wetland" />
		<tag k="ssr:stedsnr" v="953330" />
	</node>
	<node lat="58.61726388934265" lon="7.472588891571308" id="-28860">
		<tag k="name" v="Storemyr" />
		<tag k="natural" v="wetland" />
		<tag k="ssr:stedsnr" v="953364" />
	</node>
	<node lat="58.805627778972195" lon="7.363138892183496" id="-28873">
		<tag k="name" v="Bergevassmyræ" />
		<tag k="natural" v="wetland" />
		<tag k="ssr:stedsnr" v="953594" />
	</node>
	<node lat="58.62707221788805" lon="7.475602785389377" id="-28879">
		<tag k="name" v="Finneslåttå" />
		<tag k="natural" v="wetland" />
		<tag k="ssr:stedsnr" v="953492" />
	</node>
	<node lat="58.80931110881583" lon="7.487552783391512" id="-28945">
		<tag k="name" v="Viamyræ" />
		<tag k="natural" v="wetland" />
		<tag k="ssr:stedsnr" v="38379" />
	</node>
	<node lat="58.81926944414938" lon="7.501799995037455" id="-28956">
		<tag k="name" v="Hattefurslåttun" />
		<tag k="natural" v="wetland" />
		<tag k="ssr:stedsnr" v="38726" />
	</node>
	<node lat="58.77614722100491" lon="7.484833332499655" id="-28958">
		<tag k="name" v="Stedjan" />
		<tag k="natural" v="wetland" />
		<tag k="ssr:stedsnr" v="38789" />
	</node>
	<node lat="58.82510277911904" lon="7.340872219776178" id="-28967">
		<tag k="name" v="Hakkeslåtton" />
		<tag k="natural" v="wetland" />
		<tag k="ssr:stedsnr" v="42236" />
	</node>
	<node lat="58.697361112515566" lon="7.514419449524439" id="-28968">
		<tag k="name" v="Kileslåttå" />
		<tag k="natural" v="wetland" />
		<tag k="ssr:stedsnr" v="42241" />
	</node>
	<node lat="58.698772226314304" lon="7.496100005897515" id="-28970">
		<tag k="name" v="Viemyran" />
		<tag k="natural" v="wetland" />
		<tag k="ssr:stedsnr" v="42250" />
	</node>
	<node lat="58.709988887636605" lon="7.622013892389399" id="-28983">
		<tag k="name" v="Øvre Kjeddin" />
		<tag k="natural" v="wetland" />
		<tag k="ssr:stedsnr" v="43082" />
	</node>
	<node lat="58.72831944842107" lon="7.635544441276074" id="-28987">
		<tag k="name" v="Lunsemyræ" />
		<tag k="natural" v="wetland" />
		<tag k="ssr:stedsnr" v="43088" />
	</node>
	<node lat="58.754919443849516" lon="7.563388884340677" id="-28988">
		<tag k="name" v="Fænmyr" />
		<tag k="natural" v="wetland" />
		<tag k="ssr:stedsnr" v="43096" />
	</node>
	<node lat="58.57834444618633" lon="7.41280277061184" id="-28990">
		<tag k="name" v="Kjørra" />
		<tag k="natural" v="wetland" />
		<tag k="ssr:stedsnr" v="43098" />
	</node>
	<node lat="58.616780551125785" lon="7.396261109164762" id="-29027">
		<tag k="name" v="Åsestean" />
		<tag k="natural" v="wetland" />
		<tag k="ssr:stedsnr" v="43344" />
	</node>
	<node lat="58.68582499959663" lon="7.350933333150877" id="-29029">
		<tag k="name" v="Stean" />
		<tag k="natural" v="wetland" />
		<tag k="ssr:stedsnr" v="43353" />
	</node>
	<node lat="58.630572220219165" lon="7.31578054767232" id="-29039">
		<tag k="name" v="Gomoskjerret" />
		<tag k="natural" v="wetland" />
		<tag k="ssr:stedsnr" v="43425" />
	</node>
	<node lat="58.52294721869613" lon="7.427863885141965" id="-29052">
		<tag k="name" v="Åmlandsmyran" />
		<tag k="natural" v="wetland" />
		<tag k="ssr:stedsnr" v="43828" />
	</node>
	<node lat="58.53787777505441" lon="7.458655557428137" id="-29060">
		<tag k="name" v="Storemohommen" />
		<tag k="natural" v="wetland" />
		<tag k="ssr:stedsnr" v="43897" />
	</node>
	<node lat="58.77904166984238" lon="7.532994437743534" id="-29099">
		<tag k="name" v="Bjorslåttå" />
		<tag k="natural" v="wetland" />
		<tag k="ssr:stedsnr" v="99056" />
	</node>
	<node lat="58.78994166840045" lon="7.522055554380069" id="-29108">
		<tag k="name" v="Øvre Listakkslåttå" />
		<tag k="natural" v="wetland" />
		<tag k="ssr:stedsnr" v="99728" />
	</node>
	<node lat="58.60191110947942" lon="7.28688055084746" id="-29121">
		<tag k="name" v="Glypemyran" />
		<tag k="natural" v="wetland" />
		<tag k="ssr:stedsnr" v="103448" />
	</node>
	<node lat="58.612338892324324" lon="7.37138332510107" id="-29138">
		<tag k="name" v="Reveura" />
		<tag k="natural" v="scree" />
		<tag k="ssr:stedsnr" v="103356" />
	</node>
	<node lat="58.5591555579199" lon="7.31978610945196" id="-29141">
		<tag k="name" v="Lonemyran" />
		<tag k="natural" v="wetland" />
		<tag k="ssr:stedsnr" v="103368" />
	</node>
	<node lat="58.81204444343549" lon="7.370752785190645" id="-29142">
		<tag k="name" v="Pænningslåttå" />
		<tag k="natural" v="wetland" />
		<tag k="ssr:stedsnr" v="103539" />
	</node>
	<node lat="58.80622499659952" lon="7.349019447335585" id="-29143">
		<tag k="name" v="Predikstolen" />
		<tag k="natural" v="stone" />
		<tag k="ssr:stedsnr" v="103541" />
	</node>
	<node lat="58.50761666770191" lon="7.425041667793218" id="-29145">
		<tag k="name" v="Lyngneset" />
		<tag k="place" v="locality" />
		<tag k="ssr:stedsnr" v="103775" />
	</node>
	<node lat="58.783766662520875" lon="7.563622227610281" id="-29149">
		<tag k="name" v="Vorestedjan" />
		<tag k="natural" v="wetland" />
		<tag k="ssr:stedsnr" v="103843" />
	</node>
	<node lat="58.560766670846874" lon="7.452775005075235" id="-29154">
		<tag k="name" v="Skarmyr" />
		<tag k="natural" v="wetland" />
		<tag k="ssr:stedsnr" v="104045" />
	</node>
	<node lat="58.74473333414243" lon="7.408769452467915" id="-29167">
		<tag k="name" v="Turtebakkstean" />
		<tag k="natural" v="wetland" />
		<tag k="ssr:stedsnr" v="104152" />
	</node>
	<node lat="58.66395833054168" lon="7.407844443957839" id="-29172">
		<tag k="name" v="Mannestøl" />
		<tag k="natural" v="wetland" />
		<tag k="ssr:stedsnr" v="104484" />
	</node>
	<node lat="58.61739999654025" lon="7.4879694392072285" id="-29186">
		<tag k="name" v="Moltemyr" />
		<tag k="natural" v="wetland" />
		<tag k="ssr:stedsnr" v="104332" />
	</node>
	<node lat="58.62214166456493" lon="7.467744451324625" id="-29187">
		<tag k="name" v="Trugfora" />
		<tag k="natural" v="wetland" />
		<tag k="ssr:stedsnr" v="104335" />
	</node>
	<node lat="58.60216110966109" lon="7.446302776041286" id="-29189">
		<tag k="name" v="Torkjelsslåtta" />
		<tag k="natural" v="wetland" />
		<tag k="ssr:stedsnr" v="104343" />
	</node>
	<node lat="58.52410555590257" lon="7.294333333743822" id="-29194">
		<tag k="name" v="Tronshommen" />
		<tag k="natural" v="wetland" />
		<tag k="ssr:stedsnr" v="104711" />
	</node>
	<node lat="58.529877775485545" lon="7.373033330498533" id="-29200">
		<tag k="name" v="Bjønneholtet" />
		<tag k="place" v="locality" />
		<tag k="ssr:stedsnr" v="104901" />
	</node>
	<node lat="58.537377774736655" lon="7.39864167205568" id="-29205">
		<tag k="name" v="Underlian" />
		<tag k="natural" v="wetland" />
		<tag k="ssr:stedsnr" v="104988" />
	</node>
	<node lat="58.72881666573257" lon="7.43658056223391" id="-29206">
		<tag k="name" v="Svohomman" />
		<tag k="natural" v="wetland" />
		<tag k="ssr:stedsnr" v="104989" />
	</node>
	<node lat="58.57306944458715" lon="7.5872999999186685" id="-29213">
		<tag k="name" v="Elgsholtet" />
		<tag k="place" v="locality" />
		<tag k="ssr:stedsnr" v="104937" />
	</node>
	<node lat="58.70744722110732" lon="7.395683340137013" id="-29242">
		<tag k="alt_name" v="Nesland" />
		<tag k="name" v="Nessland" />
		<tag k="place" v="locality" />
		<tag k="ssr:stedsnr" v="122255" />
	</node>
	<node lat="58.84183055171716" lon="7.365999997615272" id="-29264">
		<tag k="name" v="Storrhom" />
		<tag k="natural" v="wetland" />
		<tag k="ssr:stedsnr" v="159133" />
	</node>
	<node lat="58.82353611350502" lon="7.419719438596581" id="-29265">
		<tag k="name" v="Stora Slåttå" />
		<tag k="natural" v="wetland" />
		<tag k="ssr:stedsnr" v="159166" />
	</node>
	<node lat="58.845222219510894" lon="7.532280549704865" id="-29270">
		<tag k="name" v="Bjordalsstean" />
		<tag k="natural" v="wetland" />
		<tag k="ssr:stedsnr" v="159777" />
	</node>
	<node lat="58.778458330144076" lon="7.506174996122288" id="-29274">
		<tag k="name" v="Myran" />
		<tag k="place" v="locality" />
		<tag k="ssr:stedsnr" v="160192" />
	</node>
	<node lat="58.67721944456872" lon="7.443777772426474" id="-29285">
		<tag k="name" v="Småbekkstean" />
		<tag k="natural" v="wetland" />
		<tag k="ssr:stedsnr" v="163342" />
	</node>
	<node lat="58.584744447583226" lon="7.508375002336009" id="-29297">
		<tag k="name" v="Midtslåtta" />
		<tag k="natural" v="wetland" />
		<tag k="ssr:stedsnr" v="164208" />
	</node>
	<node lat="58.56681944669302" lon="7.490744449245628" id="-29306">
		<tag k="name" v="Leiteslåtten" />
		<tag k="natural" v="wetland" />
		<tag k="ssr:stedsnr" v="164052" />
	</node>
	<node lat="58.70158611350397" lon="7.595597213853311" id="-29318">
		<tag k="name" v="Tollstølhomen" />
		<tag k="natural" v="wetland" />
		<tag k="ssr:stedsnr" v="164236" />
	</node>
	<node lat="58.6809555594602" lon="7.601636107245534" id="-29325">
		<tag k="name" v="Staveslåttun" />
		<tag k="natural" v="wetland" />
		<tag k="ssr:stedsnr" v="164358" />
	</node>
	<node lat="58.65524166333422" lon="7.4233361047341955" id="-29342">
		<tag k="name" v="Ragnhildsmyræ" />
		<tag k="natural" v="wetland" />
		<tag k="ssr:stedsnr" v="164582" />
	</node>
	<node lat="58.52264444586201" lon="7.470163889131997" id="-29359">
		<tag k="name" v="Djupe myr" />
		<tag k="natural" v="wetland" />
		<tag k="ssr:stedsnr" v="164879" />
	</node>
	<node lat="58.84973888896712" lon="7.365733340917312" id="-29421">
		<tag k="name" v="Laurdagsslåttå" />
		<tag k="natural" v="wetland" />
		<tag k="ssr:stedsnr" v="220212" />
	</node>
	<node lat="58.85649444653229" lon="7.358202782841267" id="-29422">
		<tag k="name" v="Fyljemyrå" />
		<tag k="natural" v="wetland" />
		<tag k="ssr:stedsnr" v="220218" />
	</node>
	<node lat="58.784766665433324" lon="7.5164611156322625" id="-29425">
		<tag k="name" v="Nygård" />
		<tag k="natural" v="wetland" />
		<tag k="ssr:stedsnr" v="221234" />
	</node>
	<node lat="58.629911108726354" lon="7.3761583360505005" id="-29441">
		<tag k="name" v="Langamyræ" />
		<tag k="natural" v="wetland" />
		<tag k="ssr:stedsnr" v="224377" />
	</node>
	<node lat="58.61859721839667" lon="7.474341670530621" id="-29445">
		<tag k="name" v="Smalestean" />
		<tag k="natural" v="wetland" />
		<tag k="ssr:stedsnr" v="225353" />
	</node>
	<node lat="58.57345555612026" lon="7.445852784202464" id="-29468">
		<tag k="name" v="Svartedypelen" />
		<tag k="natural" v="wetland" />
		<tag k="ssr:stedsnr" v="225128" />
	</node>
	<node lat="58.755294446494524" lon="7.577166665081652" id="-29469">
		<tag k="name" v="Follehommen" />
		<tag k="natural" v="wetland" />
		<tag k="ssr:stedsnr" v="225131" />
	</node>
	<node lat="58.585449998570624" lon="7.362380547558797" id="-29472">
		<tag k="name" v="Øvre Laurdagsholet" />
		<tag k="natural" v="wetland" />
		<tag k="ssr:stedsnr" v="225271" />
	</node>
	<node lat="58.80827221793365" lon="7.452383335694" id="-29474">
		<tag k="name" v="Midtslåttun" />
		<tag k="natural" v="wetland" />
		<tag k="ssr:stedsnr" v="225279" />
	</node>
	<node lat="58.58792499591571" lon="7.322502770810033" id="-29508">
		<tag k="name" v="Hestedalsmyran" />
		<tag k="natural" v="wetland" />
		<tag k="ssr:stedsnr" v="225420" />
	</node>
	<node lat="58.51480946599301" lon="7.359383228376039" id="-29520">
		<tag k="name" v="Sæsåsmyran" />
		<tag k="natural" v="wetland" />
		<tag k="ssr:stedsnr" v="225917" />
	</node>
	<node lat="58.79444444790169" lon="7.4266555501620894" id="-29525">
		<tag k="name" v="Fjeddeslåttå" />
		<tag k="natural" v="wetland" />
		<tag k="ssr:stedsnr" v="225747" />
	</node>
	<node lat="58.51669444565778" lon="7.515655560787314" id="-29527">
		<tag k="name" v="Mjålandsmyran" />
		<tag k="natural" v="wetland" />
		<tag k="ssr:stedsnr" v="225774" />
	</node>
	<node lat="58.55105833707073" lon="7.517394447354401" id="-29532">
		<tag k="name" v="Lislekrikken" />
		<tag k="natural" v="wetland" />
		<tag k="ssr:stedsnr" v="225873" />
	</node>
	<node lat="58.77764166928109" lon="7.488250000154511" id="-29551">
		<tag k="name" v="Bergeslåttå" />
		<tag k="natural" v="wetland" />
		<tag k="ssr:stedsnr" v="281775" />
	</node>
	<node lat="58.58360556013745" lon="7.3586694503797085" id="-29557">
		<tag k="name" v="Tvistakkslåtta" />
		<tag k="natural" v="wetland" />
		<tag k="ssr:stedsnr" v="286248" />
	</node>
	<node lat="58.74909999723805" lon="7.625869442724599" id="-29560">
		<tag k="name" v="Stasvassmyran" />
		<tag k="natural" v="wetland" />
		<tag k="ssr:stedsnr" v="286264" />
	</node>
	<node lat="58.61941666565045" lon="7.446183333431523" id="-29564">
		<tag k="name" v="Fæna" />
		<tag k="natural" v="wetland" />
		<tag k="ssr:stedsnr" v="286330" />
	</node>
	<node lat="58.81607222646251" lon="7.348863883640837" id="-29569">
		<tag k="name" v="Bliksteinan" />
		<tag k="natural" v="stone" />
		<tag k="ssr:stedsnr" v="285248" />
	</node>
	<node lat="58.557388886385326" lon="7.312519438614723" id="-29579">
		<tag k="name" v="Hottemyræ" />
		<tag k="natural" v="wetland" />
		<tag k="ssr:stedsnr" v="285362" />
	</node>
	<node lat="58.7913055519132" lon="7.565899993555862" id="-29584">
		<tag k="name" v="Ryseholet" />
		<tag k="natural" v="wetland" />
		<tag k="ssr:stedsnr" v="285844" />
	</node>
	<node lat="58.687591666938076" lon="7.445497224648503" id="-29590">
		<tag k="name" v="Byklumsøygard" />
		<tag k="natural" v="wetland" />
		<tag k="ssr:stedsnr" v="286014" />
	</node>
	<node lat="58.76988611107964" lon="7.5317666605946245" id="-29593">
		<tag k="name" v="Poddekjørr" />
		<tag k="natural" v="wetland" />
		<tag k="ssr:stedsnr" v="286024" />
	</node>
	<node lat="58.639022221392636" lon="7.439558326649516" id="-29623">
		<tag k="name" v="Kjyddingmonen" />
		<tag k="place" v="locality" />
		<tag k="ssr:stedsnr" v="286416" />
	</node>
	<node lat="58.621450001797726" lon="7.470241662893719" id="-29627">
		<tag k="name" v="Nordre Holon" />
		<tag k="natural" v="wetland" />
		<tag k="ssr:stedsnr" v="286347" />
	</node>
	<node lat="58.68635617773656" lon="7.457267887496681" id="-29628">
		<tag k="name" v="Langaslåttå" />
		<tag k="natural" v="wetland" />
		<tag k="ssr:stedsnr" v="286350" />
	</node>
	<node lat="58.6715750006004" lon="7.369988886677291" id="-29630">
		<tag k="name" v="Saupkjarret" />
		<tag k="natural" v="wetland" />
		<tag k="ssr:stedsnr" v="286365" />
	</node>
	<node lat="58.52947458123019" lon="7.43482625404367" id="-29650">
		<tag k="name" v="Kjerret" />
		<tag k="natural" v="wetland" />
		<tag k="ssr:stedsnr" v="286948" />
	</node>
	<node lat="58.57050833359392" lon="7.567319449711964" id="-29652">
		<tag k="name" v="Bortemyr" />
		<tag k="natural" v="wetland" />
		<tag k="ssr:stedsnr" v="286956" />
	</node>
	<node lat="58.55092222390304" lon="7.398397224123129" id="-29655">
		<tag k="name" v="Prestestean" />
		<tag k="natural" v="wetland" />
		<tag k="ssr:stedsnr" v="286974" />
	</node>
	<node lat="58.64495278200778" lon="7.428186112199444" id="-29684">
		<tag k="name" v="Skorskog" />
		<tag k="place" v="locality" />
		<tag k="ssr:stedsnr" v="304162" />
	</node>
	<node lat="58.83576111010164" lon="7.440958329189847" id="-29701">
		<tag k="name" v="Piksteinen" />
		<tag k="natural" v="stone" />
		<tag k="ssr:stedsnr" v="341176" />
	</node>
	<node lat="58.83619444362967" lon="7.577286107789799" id="-29714">
		<tag k="name" v="Vallhøyslåttå" />
		<tag k="natural" v="wetland" />
		<tag k="ssr:stedsnr" v="342671" />
	</node>
	<node lat="58.56395555332619" lon="7.403666661536684" id="-29731">
		<tag k="name" v="Årogstein" />
		<tag k="natural" v="stone" />
		<tag k="ssr:stedsnr" v="346086" />
	</node>
	<node lat="58.528072224137006" lon="7.306944451563837" id="-29766">
		<tag k="name" v="Soppekjerret" />
		<tag k="natural" v="wetland" />
		<tag k="ssr:stedsnr" v="346730" />
	</node>
	<node lat="58.79782500044563" lon="7.5181388817022805" id="-29767">
		<tag k="name" v="Dyblemyran" />
		<tag k="natural" v="wetland" />
		<tag k="ssr:stedsnr" v="346693" />
	</node>
	<node lat="58.726058335134574" lon="7.4135222248106185" id="-29782">
		<tag k="name" v="Rosselandsstean" />
		<tag k="natural" v="wetland" />
		<tag k="ssr:stedsnr" v="346985" />
	</node>
	<node lat="58.84346111550325" lon="7.45666666628326" id="-29829">
		<tag k="name" v="Bergeslåttå" />
		<tag k="natural" v="wetland" />
		<tag k="ssr:stedsnr" v="402672" />
	</node>
	<node lat="58.58126944885758" lon="7.575233326610458" id="-29846">
		<tag k="name" v="Storestean" />
		<tag k="natural" v="wetland" />
		<tag k="ssr:stedsnr" v="406168" />
	</node>
	<node lat="58.58004722562364" lon="7.484683335427901" id="-29849">
		<tag k="name" v="Støylero" />
		<tag k="natural" v="wetland" />
		<tag k="ssr:stedsnr" v="406174" />
	</node>
	<node lat="58.72031666307875" lon="7.5575472262474985" id="-29865">
		<tag k="name" v="Veøy" />
		<tag k="place" v="locality" />
		<tag k="ssr:stedsnr" v="407133" />
	</node>
	<node lat="58.771124995814944" lon="7.346455550752411" id="-29875">
		<tag k="name" v="Urægrå" />
		<tag k="natural" v="scree" />
		<tag k="ssr:stedsnr" v="406924" />
	</node>
	<node lat="58.80495555882654" lon="7.518619441151056" id="-29884">
		<tag k="name" v="Bergeslåttun" />
		<tag k="natural" v="wetland" />
		<tag k="ssr:stedsnr" v="407204" />
	</node>
	<node lat="58.74761666962935" lon="7.382205547122508" id="-29885">
		<tag k="name" v="Storamyræ" />
		<tag k="natural" v="wetland" />
		<tag k="ssr:stedsnr" v="407210" />
	</node>
	<node lat="58.6724194437658" lon="7.4831388950064675" id="-29889">
		<tag k="name" v="Stormyræ" />
		<tag k="natural" v="wetland" />
		<tag k="ssr:stedsnr" v="407367" />
	</node>
	<node lat="58.68667222149797" lon="7.599472222372472" id="-29898">
		<tag k="name" v="Bjorstean" />
		<tag k="natural" v="wetland" />
		<tag k="ssr:stedsnr" v="407337" />
	</node>
	<node lat="58.7975222246474" lon="7.348916666284835" id="-29904">
		<tag k="name" v="Stakkslåttå" />
		<tag k="natural" v="wetland" />
		<tag k="ssr:stedsnr" v="407558" />
	</node>
	<node lat="58.80789444298409" lon="7.3726916737061226" id="-29905">
		<tag k="name" v="Stean" />
		<tag k="natural" v="wetland" />
		<tag k="ssr:stedsnr" v="407573" />
	</node>
	<node lat="58.532333336129795" lon="7.51389444818662" id="-29918">
		<tag k="name" v="Sløon" />
		<tag k="natural" v="wetland" />
		<tag k="ssr:stedsnr" v="407873" />
	</node>
	<node lat="58.54138055898033" lon="7.4486361186919305" id="-29923">
		<tag k="name" v="Beinsmyr" />
		<tag k="natural" v="wetland" />
		<tag k="ssr:stedsnr" v="407969" />
	</node>
	<node lat="58.54810277523851" lon="7.435025006229876" id="-29924">
		<tag k="name" v="Tjønnemyr" />
		<tag k="natural" v="wetland" />
		<tag k="ssr:stedsnr" v="407971" />
	</node>
	<node lat="58.82449166849093" lon="7.454508325512201" id="-29964">
		<tag k="name" v="Skinnarsmonen" />
		<tag k="natural" v="wetland" />
		<tag k="ssr:stedsnr" v="522533" />
	</node>
	<node lat="58.81893888812953" lon="7.431808326246069" id="-29968">
		<tag k="name" v="Stean" />
		<tag k="natural" v="wetland" />
		<tag k="ssr:stedsnr" v="523193" />
	</node>
	<node lat="58.65108333782909" lon="7.3799555634129685" id="-29981">
		<tag k="name" v="Stakkesteinan" />
		<tag k="natural" v="stone" />
		<tag k="ssr:stedsnr" v="527489" />
	</node>
	<node lat="58.6018250008131" lon="7.401499993512681" id="-29995">
		<tag k="name" v="Setan" />
		<tag k="place" v="locality" />
		<tag k="ssr:stedsnr" v="528399" />
	</node>
	<node lat="58.565772220155864" lon="7.368299998009257" id="-30006">
		<tag k="name" v="Steinen" />
		<tag k="natural" v="stone" />
		<tag k="ssr:stedsnr" v="528158" />
	</node>
	<node lat="58.62282500404133" lon="7.541152771418899" id="-30024">
		<tag k="name" v="Klovsteinen" />
		<tag k="natural" v="stone" />
		<tag k="ssr:stedsnr" v="528349" />
	</node>
	<node lat="58.67738610961032" lon="7.337650008693803" id="-30031">
		<tag k="name" v="Smehomman" />
		<tag k="natural" v="wetland" />
		<tag k="ssr:stedsnr" v="528433" />
	</node>
	<node lat="58.559761110779945" lon="7.348733336522048" id="-30036">
		<tag k="name" v="Med Hytta" />
		<tag k="natural" v="wetland" />
		<tag k="ssr:stedsnr" v="528117" />
	</node>
	<node lat="58.537647219002835" lon="7.3431888935525755" id="-30039">
		<tag k="name" v="Storekleivmyra" />
		<tag k="natural" v="wetland" />
		<tag k="ssr:stedsnr" v="528956" />
	</node>
	<node lat="58.54860833367178" lon="7.442758329418822" id="-30040">
		<tag k="name" v="Surtemyr" />
		<tag k="natural" v="wetland" />
		<tag k="ssr:stedsnr" v="528970" />
	</node>
	<node lat="58.82376111228809" lon="7.217774995874173" id="-30055">
		<tag k="name" v="Ramnestein" />
		<tag k="natural" v="stone" />
		<tag k="ssr:stedsnr" v="528644" />
	</node>
	<node lat="58.763549998749994" lon="7.49108610771253" id="-30072">
		<tag k="name" v="Via myræ" />
		<tag k="natural" v="wetland" />
		<tag k="ssr:stedsnr" v="528998" />
	</node>
</osm>
