<?xml version="1.0" encoding="UTF-8"?>
<<<<<<< HEAD
<osm version="0.6" generator="osmapis">
	<node lat="69.13619444077736" lon="18.00532222118299" id="-41424">
		<tag k="name" v="Falkefjellnova" />
		<tag k="natural" v="ridge" />
		<tag k="place" v="locality" />
		<tag k="ssr:stedsnr" v="232098" />
	</node>
	<node lat="69.08113333274706" lon="17.99335832018706" id="-41426">
		<tag k="name" v="Langranden" />
		<tag k="natural" v="slope" />
		<tag k="place" v="locality" />
		<tag k="ssr:stedsnr" v="233043" />
	</node>
	<node lat="69.15891666556344" lon="18.186713879454825" id="-41430">
		<tag k="name" v="Litjebollhaugen" />
		<tag k="natural" v="hill" />
		<tag k="place" v="locality" />
		<tag k="ssr:stedsnr" v="233331" />
	</node>
	<node lat="69.02823055756261" lon="17.95792220869445" id="-41431">
		<tag k="alt_name" v="Reinberget" />
		<tag k="name" v="Reinbergan" />
		<tag k="natural" v="hill" />
		<tag k="place" v="locality" />
		<tag k="ssr:stedsnr" v="19601" />
	</node>
	<node lat="69.1226166688697" lon="18.078008334757794" id="-41442">
		<tag k="name" v="Grønnlidalen" />
		<tag k="natural" v="valley" />
		<tag k="place" v="locality" />
		<tag k="ssr:stedsnr" v="237840" />
	</node>
	<node lat="69.12956388791669" lon="18.11899721670865" id="-41443">
		<tag k="name" v="Per-Svensaholene" />
		<tag k="natural" v="slope" />
		<tag k="place" v="locality" />
		<tag k="ssr:stedsnr" v="237867" />
	</node>
	<node lat="69.19400555918678" lon="18.140491653994673" id="-41444">
		<tag k="fixme" v="consider natural=peak for the most distinct mountains in the district" />
		<tag k="name" v="Gullhaugan" />
		<tag k="natural" v="hill" />
		<tag k="place" v="locality" />
		<tag k="ssr:stedsnr" v="50509" />
	</node>
	<node lat="69.19554166723113" lon="18.0916555594514" id="-41445">
		<tag k="name" v="Litje Durmålshaugen" />
		<tag k="natural" v="hill" />
		<tag k="place" v="locality" />
		<tag k="ssr:stedsnr" v="50515" />
	</node>
	<node lat="69.05060833105627" lon="17.92348609536325" id="-41447">
		<tag k="name" v="Reingjerdhaugen" />
		<tag k="natural" v="hill" />
		<tag k="place" v="locality" />
		<tag k="ssr:stedsnr" v="51020" />
	</node>
	<node lat="69.14412777472283" lon="17.931949998152966" id="-41449">
		<tag k="name" v="Stordalen" />
		<tag k="natural" v="valley" />
		<tag k="place" v="locality" />
		<tag k="ssr:stedsnr" v="51121" />
	</node>
	<node lat="69.14387778005648" lon="18.30359165641732" id="-41450">
		<tag k="fixme" v="consider natural=peak for the most distinct mountains in the district" />
		<tag k="name" v="Snaufjellet" />
		<tag k="natural" v="hill" />
		<tag k="place" v="locality" />
		<tag k="ssr:stedsnr" v="51303" />
	</node>
	<node lat="69.11363333320168" lon="18.23615276918292" id="-41455">
		<tag k="name" v="Bekkedalen" />
		<tag k="natural" v="valley" />
		<tag k="place" v="locality" />
		<tag k="ssr:stedsnr" v="239338" />
	</node>
	<node lat="69.08958611422109" lon="18.05781387762119" id="-41457">
		<tag k="name" v="Kvitfløya" />
		<tag k="place" v="locality" />
		<tag k="ssr:stedsnr" v="54903" />
	</node>
	<node lat="69.18729722617309" lon="18.078847211557957" id="-41458">
		<tag k="name" v="Litjemoen" />
		<tag k="place" v="locality" />
		<tag k="ssr:stedsnr" v="55679" />
	</node>
	<node lat="69.18596389054166" lon="18.05583055487195" id="-41459">
		<tag k="name" v="Bollhaugen" />
		<tag k="natural" v="hill" />
		<tag k="place" v="locality" />
		<tag k="ssr:stedsnr" v="55682" />
	</node>
	<node lat="69.12543055858487" lon="18.109599996217643" id="-41461">
		<tag k="name" v="Krokvasshaugen" />
		<tag k="natural" v="hill" />
		<tag k="place" v="locality" />
		<tag k="ssr:stedsnr" v="55820" />
	</node>
	<node lat="69.14862778230186" lon="18.0177777739849" id="-41463">
		<tag k="name" v="Vennesberget" />
		<tag k="natural" v="hill" />
		<tag k="place" v="locality" />
		<tag k="ssr:stedsnr" v="55910" />
	</node>
	<node lat="69.16599444100372" lon="18.18811944155222" id="-41466">
		<tag k="name" v="Storhunden" />
		<tag k="natural" v="hill" />
		<tag k="place" v="locality" />
		<tag k="ssr:stedsnr" v="79494" />
	</node>
	<node lat="69.1240055572088" lon="18.409194448838488" id="-41468">
		<tag k="fixme" v="consider natural=peak for the most distinct mountains in the district" />
		<tag k="name" v="Høgkampen" />
		<tag k="natural" v="hill" />
		<tag k="place" v="locality" />
		<tag k="ssr:stedsnr" v="79545" />
	</node>
	<node lat="69.10265555438167" lon="18.286038874085403" id="-41476">
		<tag k="fixme" v="consider natural=peak for the most distinct mountains in the district" />
		<tag k="name" v="Hammaren" />
		<tag k="natural" v="hill" />
		<tag k="place" v="locality" />
		<tag k="ssr:stedsnr" v="115372" />
	</node>
	<node lat="69.12055832895022" lon="18.14409167278967" id="-41480">
		<tag k="name" v="Hansemyrbakkan" />
		<tag k="natural" v="slope" />
		<tag k="place" v="locality" />
		<tag k="ssr:stedsnr" v="115823" />
	</node>
	<node lat="69.0802694466115" lon="18.16009443450302" id="-41481">
		<tag k="name" v="Middagselvdalen" />
		<tag k="natural" v="valley" />
		<tag k="place" v="locality" />
		<tag k="ssr:stedsnr" v="115892" />
	</node>
	<node lat="69.14229721852206" lon="18.23843610264224" id="-41482">
		<tag k="name" v="Svartbergan" />
		<tag k="natural" v="hill" />
		<tag k="place" v="locality" />
		<tag k="ssr:stedsnr" v="117387" />
	</node>
	<node lat="69.09233610822987" lon="18.091174998834433" id="-41483">
		<tag k="name" v="Kvitkua" />
		<tag k="natural" v="slope" />
		<tag k="place" v="locality" />
		<tag k="ssr:stedsnr" v="139587" />
	</node>
	<node lat="69.16935555235673" lon="18.150208328496504" id="-41485">
		<tag k="name" v="Skreda" />
		<tag k="natural" v="slope" />
		<tag k="place" v="locality" />
		<tag k="ssr:stedsnr" v="139702" />
	</node>
	<node lat="69.1207472239897" lon="18.43481944866338" id="-41491">
		<tag k="name" v="Andreasberget" />
		<tag k="natural" v="hill" />
		<tag k="place" v="locality" />
		<tag k="ssr:stedsnr" v="158601" />
	</node>
	<node lat="69.1400333327208" lon="17.923886097629165" id="-41495">
		<tag k="name" v="Kvasshaugen" />
		<tag k="natural" v="hill" />
		<tag k="place" v="locality" />
		<tag k="ssr:stedsnr" v="172068" />
	</node>
	<node lat="69.13411388476594" lon="17.920613886501783" id="-41497">
		<tag k="name" v="Grønnlia" />
		<tag k="natural" v="slope" />
		<tag k="place" v="locality" />
		<tag k="ssr:stedsnr" v="172113" />
	</node>
	<node lat="69.21499166798722" lon="18.30359722680606" id="-41498">
		<tag k="name" v="Langmobergan" />
		<tag k="natural" v="hill" />
		<tag k="place" v="locality" />
		<tag k="ssr:stedsnr" v="172512" />
	</node>
	<node lat="69.15400555968536" lon="18.1734861173525" id="-41499">
		<tag k="name" v="Sponlia" />
		<tag k="natural" v="slope" />
		<tag k="place" v="locality" />
		<tag k="ssr:stedsnr" v="173269" />
	</node>
	<node lat="69.09281111374804" lon="18.286697218791648" id="-41501">
		<tag k="name" v="Svenskhola" />
		<tag k="natural" v="valley" />
		<tag k="place" v="locality" />
		<tag k="ssr:stedsnr" v="175354" />
	</node>
	<node lat="69.19844167052185" lon="18.26358889488065" id="-41503">
		<tag k="name" v="Lyshaugen" />
		<tag k="natural" v="hill" />
		<tag k="place" v="locality" />
		<tag k="ssr:stedsnr" v="176155" />
	</node>
	<node lat="69.05705833287597" lon="18.386205554126953" id="-41504">
		<tag k="name" v="Sørhusrabban" />
		<tag k="natural" v="hill" />
		<tag k="place" v="locality" />
		<tag k="ssr:stedsnr" v="176169" />
	</node>
	<node lat="69.13613333662704" lon="18.067361101832073" id="-41508">
		<tag k="alt_name" v="Rambergan" />
		<tag k="name" v="Ramberg" />
		<tag k="natural" v="hill" />
		<tag k="place" v="locality" />
		<tag k="ssr:stedsnr" v="261557" />
	</node>
	<node lat="69.1930527823247" lon="18.219369436705467" id="-41516">
		<tag k="alt_name" v="Skjelfjellet" />
		<tag k="fixme" v="consider natural=peak for the most distinct mountains in the district" />
		<tag k="name" v="Skjellfjellet" />
		<tag k="natural" v="hill" />
		<tag k="place" v="locality" />
		<tag k="ssr:stedsnr" v="261702" />
	</node>
	<node lat="69.04873333758228" lon="18.37894722505515" id="-41518">
		<tag k="fixme" v="consider natural=peak for the most distinct mountains in the district" />
		<tag k="name" v="Sørhusfjellet" />
		<tag k="natural" v="hill" />
		<tag k="place" v="locality" />
		<tag k="ssr:stedsnr" v="261869" />
	</node>
	<node lat="69.0063777781602" lon="18.13976942923191" id="-41519">
		<tag k="fixme" v="consider natural=peak for the most distinct mountains in the district" />
		<tag k="name" v="Gievdnečohkka" />
		<tag k="name:se" v="Gievdnečohkka" />
		<tag k="natural" v="hill" />
		<tag k="old_name:se" v="Gievdnečåkka" />
		<tag k="place" v="locality" />
		<tag k="ssr:stedsnr" v="261908" />
	</node>
	<node lat="69.06313889319952" lon="18.118124997494068" id="-41520">
		<tag k="fixme" v="consider natural=peak for the most distinct mountains in the district" />
		<tag k="name" v="Storlifjellet - Lurosavárri" />
		<tag k="name:no" v="Storlifjellet" />
		<tag k="name:se" v="Lurosavárri" />
		<tag k="natural" v="hill" />
		<tag k="old_name:se" v="Lurusavarri" />
=======
<osm generator="osmapis" version="0.6">
	<node id="-867761" lat="69.1422166656" lon="18.1884361164">
		<tag k="name" v="Resset" />
		<tag k="natural" v="slope" />
		<tag k="place" v="locality" />
		<tag k="ssr:stedsnr" v="967337" />
	</node>
	<node id="-867759" lat="69.2066972187" lon="18.2727888954">
		<tag k="name" v="Durmålslia" />
		<tag k="natural" v="slope" />
		<tag k="place" v="locality" />
		<tag k="ssr:stedsnr" v="967193" />
	</node>
	<node id="-867758" lat="69.1357333365" lon="18.0544694344">
		<tag k="name" v="Fribakken" />
		<tag k="natural" v="slope" />
		<tag k="place" v="locality" />
		<tag k="ssr:stedsnr" v="965892" />
	</node>
	<node id="-867755" lat="69.1336444484" lon="18.1300916648">
		<tag k="name" v="Haugbakkan" />
		<tag k="natural" v="slope" />
		<tag k="place" v="locality" />
		<tag k="ssr:stedsnr" v="965876" />
	</node>
	<node id="-867754" lat="69.124372223" lon="18.0884944506">
		<tag k="name" v="Harhaugen" />
		<tag k="natural" v="hill" />
		<tag k="place" v="locality" />
		<tag k="ssr:stedsnr" v="965851" />
	</node>
	<node id="-867751" lat="69.118186114" lon="18.1159666667">
		<tag k="name" v="Nonstuva" />
		<tag k="natural" v="hill" />
		<tag k="place" v="locality" />
		<tag k="ssr:stedsnr" v="965834" />
	</node>
	<node id="-867748" lat="69.1255083335" lon="18.3580110949">
		<tag k="name" v="Kampkråa" />
		<tag k="natural" v="hill" />
		<tag k="place" v="locality" />
		<tag k="ssr:stedsnr" v="964882" />
	</node>
	<node id="-867747" lat="69.0867222202" lon="18.3809666535">
		<tag k="name" v="Rundhaugen" />
		<tag k="natural" v="hill" />
		<tag k="place" v="locality" />
		<tag k="ssr:stedsnr" v="964185" />
	</node>
	<node id="-867744" lat="69.1629249964" lon="18.1859194282">
		<tag k="name" v="Storhundlia" />
		<tag k="natural" v="slope" />
		<tag k="place" v="locality" />
		<tag k="ssr:stedsnr" v="961298" />
	</node>
	<node id="-867742" lat="69.0228166674" lon="18.0636277703">
		<tag k="name" v="Rundhaugen" />
		<tag k="natural" v="hill" />
		<tag k="place" v="locality" />
		<tag k="ssr:stedsnr" v="961149" />
	</node>
	<node id="-867741" lat="69.1243444477" lon="17.9746000051">
		<tag k="name" v="Storhaugen" />
		<tag k="natural" v="hill" />
		<tag k="place" v="locality" />
		<tag k="ssr:stedsnr" v="961100" />
	</node>
	<node id="-867739" lat="69.0594305585" lon="18.2676111209">
		<tag k="fixme" v="consider natural=peak for the most distinct mountains in the district" />
		<tag k="name" v="Matfjellet - Máttavárri" />
		<tag k="name:no" v="Matfjellet" />
		<tag k="name:se" v="Máttavárri" />
		<tag k="natural" v="hill" />
		<tag k="old_name:se" v="Maddavarri" />
		<tag k="place" v="locality" />
		<tag k="ssr:stedsnr" v="873876" />
	</node>
	<node id="-867738" lat="69.0307083333" lon="18.0129222068">
		<tag k="name" v="Fallbekkbergan" />
		<tag k="natural" v="hill" />
		<tag k="place" v="locality" />
		<tag k="ssr:stedsnr" v="868846" />
	</node>
	<node id="-867735" lat="68.9942833304" lon="18.0366722141">
		<tag k="fixme" v="consider natural=peak for the most distinct mountains in the district" />
		<tag k="name" v="Steinfjellet - Stuorageađgoaivi" />
		<tag k="name:no" v="Steinfjellet" />
		<tag k="name:se" v="Stuorageađgoaivi" />
		<tag k="natural" v="hill" />
		<tag k="place" v="locality" />
		<tag k="ssr:stedsnr" v="868596" />
	</node>
	<node id="-867733" lat="69.0691666677" lon="18.2575083236">
		<tag k="fixme" v="consider natural=peak for the most distinct mountains in the district" />
		<tag k="name" v="Holavassrabban - Gielas" />
		<tag k="name:no" v="Holavassrabban" />
		<tag k="name:se" v="Gielas" />
		<tag k="natural" v="hill" />
		<tag k="place" v="locality" />
		<tag k="ssr:stedsnr" v="868587" />
	</node>
	<node id="-867731" lat="69.151424999" lon="18.2304750004">
		<tag k="name" v="Jølbakkan" />
		<tag k="natural" v="slope" />
		<tag k="place" v="locality" />
		<tag k="ssr:stedsnr" v="868523" />
	</node>
	<node id="-867726" lat="69.1109250005" lon="17.9572555651">
		<tag k="fixme" v="multiple name tags, choose one and add the other to alt_name" />
		<tag k="name" v="Brørne;Småbergan" />
		<tag k="natural" v="hill" />
		<tag k="place" v="locality" />
		<tag k="ssr:stedsnr" v="868247" />
	</node>
	<node id="-867725" lat="69.1440333299" lon="18.0265944412">
		<tag k="name" v="Falkefløya" />
		<tag k="natural" v="hill" />
		<tag k="place" v="locality" />
		<tag k="ssr:stedsnr" v="860934" />
	</node>
	<node id="-867722" lat="69.1969527748" lon="18.2496500064">
		<tag k="name" v="Svartbergan" />
		<tag k="natural" v="hill" />
		<tag k="place" v="locality" />
		<tag k="ssr:stedsnr" v="846225" />
	</node>
	<node id="-867716" lat="69.1882888894" lon="18.0890916712">
		<tag k="name" v="Durmålshaugen" />
		<tag k="natural" v="hill" />
		<tag k="place" v="locality" />
		<tag k="ssr:stedsnr" v="844729" />
	</node>
	<node id="-867715" lat="69.167163892" lon="18.0858333388">
		<tag k="name" v="Vedheggen" />
		<tag k="natural" v="hill" />
		<tag k="place" v="locality" />
		<tag k="ssr:stedsnr" v="844692" />
	</node>
	<node id="-867713" lat="69.1818555584" lon="18.1369138776">
		<tag k="name" v="Broptkollen" />
		<tag k="natural" v="hill" />
		<tag k="place" v="locality" />
		<tag k="ssr:stedsnr" v="844678" />
	</node>
	<node id="-867712" lat="69.0973638864" lon="18.0544805593">
		<tag k="name" v="Oterlia" />
		<tag k="natural" v="slope" />
		<tag k="place" v="locality" />
		<tag k="ssr:stedsnr" v="843887" />
	</node>
	<node id="-867711" lat="69.0891500004" lon="18.0091972128">
		<tag k="name" v="Reingjerdan" />
		<tag k="natural" v="slope" />
		<tag k="place" v="locality" />
		<tag k="ssr:stedsnr" v="843886" />
	</node>
	<node id="-867709" lat="69.0984361085" lon="18.2972499904">
		<tag k="name" v="Storvasslia" />
		<tag k="natural" v="slope" />
		<tag k="place" v="locality" />
		<tag k="ssr:stedsnr" v="843343" />
	</node>
	<node id="-867707" lat="69.1981333373" lon="18.1022972237">
		<tag k="name" v="Rambergan" />
		<tag k="natural" v="hill" />
		<tag k="place" v="locality" />
		<tag k="ssr:stedsnr" v="839595" />
	</node>
	<node id="-867706" lat="69.2011111071" lon="18.0844472262">
		<tag k="name" v="Litjeholtet" />
		<tag k="natural" v="hill" />
		<tag k="place" v="locality" />
		<tag k="ssr:stedsnr" v="839571" />
	</node>
	<node id="-867704" lat="69.024516671" lon="17.9793472152">
		<tag k="fixme" v="consider natural=peak for the most distinct mountains in the district" />
		<tag k="name" v="Stortind" />
		<tag k="natural" v="hill" />
		<tag k="place" v="locality" />
		<tag k="ssr:stedsnr" v="808624" />
	</node>
	<node id="-867689" lat="69.1298111124" lon="17.9668944451">
		<tag k="alt_name" v="Espeneshaugen" />
		<tag k="name" v="Espeneshaugan" />
		<tag k="natural" v="hill" />
		<tag k="place" v="locality" />
		<tag k="ssr:stedsnr" v="807274" />
	</node>
	<node id="-867684" lat="69.1403750042" lon="18.1363111064">
		<tag k="name" v="Langhaugsletta" />
		<tag k="place" v="locality" />
		<tag k="ssr:stedsnr" v="783868" />
	</node>
	<node id="-867682" lat="69.1118472259" lon="18.0541416678">
		<tag k="name" v="Vidvarshaugen" />
		<tag k="natural" v="hill" />
		<tag k="place" v="locality" />
		<tag k="ssr:stedsnr" v="783844" />
	</node>
	<node id="-867677" lat="69.1656611085" lon="18.1035361008">
		<tag k="name" v="Ørnhola" />
		<tag k="natural" v="slope" />
		<tag k="place" v="locality" />
		<tag k="ssr:stedsnr" v="783657" />
	</node>
	<node id="-867676" lat="69.0616888938" lon="18.1957055427">
		<tag k="name" v="Finnheimen" />
		<tag k="place" v="locality" />
		<tag k="ssr:stedsnr" v="783630" />
	</node>
	<node id="-867675" lat="69.195863885" lon="18.2862638846">
		<tag k="name" v="Nevermyrkråa" />
		<tag k="natural" v="slope" />
>>>>>>> e1d4bc35ff8a6074a6f2e91616a996b547c36f15
		<tag k="place" v="locality" />
		<tag k="ssr:stedsnr" v="782129" />
	</node>
<<<<<<< HEAD
	<node lat="69.15969999787109" lon="18.2499777745887" id="-41522">
		<tag k="fixme" v="consider natural=peak for the most distinct mountains in the district" />
		<tag k="name" v="Berrskallen - Stuorrasnulki" />
		<tag k="name:no" v="Berrskallen" />
		<tag k="name:se" v="Stuorrasnulki" />
		<tag k="natural" v="hill" />
		<tag k="place" v="locality" />
		<tag k="ssr:stedsnr" v="201498" />
	</node>
	<node lat="68.98779166507394" lon="18.04423610929922" id="-41526">
		<tag k="fixme" v="consider natural=peak for the most distinct mountains in the district" />
		<tag k="name" v="Geađgebatvárri" />
		<tag k="name:se" v="Geađgebatvárri" />
		<tag k="natural" v="hill" />
		<tag k="old_name:se" v="Gædgebatvarri" />
		<tag k="place" v="locality" />
		<tag k="ssr:stedsnr" v="270316" />
	</node>
	<node lat="69.13319722147355" lon="18.321905541724387" id="-41528">
		<tag k="name" v="Vakkerhumplia" />
		<tag k="natural" v="slope" />
		<tag k="place" v="locality" />
		<tag k="ssr:stedsnr" v="233280" />
	</node>
	<node lat="69.09992777623854" lon="18.07520554446608" id="-41531">
		<tag k="name" v="Durmålskaret" />
		<tag k="natural" v="valley" />
		<tag k="place" v="locality" />
		<tag k="ssr:stedsnr" v="236879" />
	</node>
	<node lat="69.0955861145056" lon="18.053841668243447" id="-41532">
		<tag k="fixme" v="consider natural=peak for the most distinct mountains in the district" />
		<tag k="name" v="Rundfjellet" />
		<tag k="natural" v="hill" />
		<tag k="place" v="locality" />
		<tag k="ssr:stedsnr" v="236888" />
	</node>
	<node lat="69.08191944461139" lon="18.407263883023457" id="-41533">
		<tag k="name" v="Lytterhaugen" />
		<tag k="natural" v="hill" />
		<tag k="place" v="locality" />
		<tag k="ssr:stedsnr" v="236912" />
	</node>
	<node lat="69.11506944474625" lon="18.126063881571277" id="-41535">
		<tag k="name" v="Botolvmyrliene" />
		<tag k="natural" v="slope" />
		<tag k="place" v="locality" />
		<tag k="ssr:stedsnr" v="237830" />
	</node>
	<node lat="69.19370277757058" lon="18.064783333057708" id="-41541">
		<tag k="name" v="Ellingmyrhaugen" />
		<tag k="natural" v="hill" />
		<tag k="place" v="locality" />
		<tag k="ssr:stedsnr" v="292531" />
	</node>
	<node lat="69.05643055879783" lon="18.351394430908194" id="-41544">
		<tag k="name" v="Tverrelvdalen" />
		<tag k="natural" v="valley" />
		<tag k="place" v="locality" />
		<tag k="ssr:stedsnr" v="297171" />
	</node>
	<node lat="69.04986944952246" lon="18.21780831934999" id="-41545">
		<tag k="name" v="Veiddalen" />
=======
	<node id="-867674" lat="69.1068750024" lon="17.9503055656">
		<tag k="fixme" v="consider natural=peak for the most distinct mountains in the district" />
		<tag k="name" v="Tunfjellet" />
		<tag k="natural" v="hill" />
		<tag k="place" v="locality" />
		<tag k="ssr:stedsnr" v="780070" />
	</node>
	<node id="-867673" lat="69.1029361063" lon="17.9640833394">
		<tag k="name" v="Steinfjellia" />
		<tag k="natural" v="slope" />
		<tag k="place" v="locality" />
		<tag k="ssr:stedsnr" v="780068" />
	</node>
	<node id="-867672" lat="69.1054305579" lon="17.996180551">
		<tag k="name" v="Elvesletta" />
		<tag k="place" v="locality" />
		<tag k="ssr:stedsnr" v="780067" />
	</node>
	<node id="-867671" lat="69.0599916681" lon="17.9326333227">
		<tag k="name" v="Skredbekkhola" />
		<tag k="natural" v="valley" />
		<tag k="place" v="locality" />
		<tag k="ssr:stedsnr" v="780062" />
	</node>
	<node id="-867668" lat="69.1305694408" lon="17.9162777656">
		<tag k="name" v="Mobakken" />
		<tag k="natural" v="hill" />
		<tag k="place" v="locality" />
		<tag k="ssr:stedsnr" v="779098" />
	</node>
	<node id="-867667" lat="69.1191777773" lon="17.9793944517">
		<tag k="name" v="Skøelvdalshøgda" />
		<tag k="place" v="locality" />
		<tag k="ssr:stedsnr" v="779085" />
	</node>
	<node id="-867666" lat="69.1210861157" lon="17.9818472096">
		<tag k="name" v="Bjørnhiet" />
		<tag k="place" v="locality" />
		<tag k="ssr:stedsnr" v="779084" />
	</node>
	<node id="-867665" lat="69.1287583375" lon="17.9653527749">
		<tag k="name" v="Espenesskaret" />
		<tag k="natural" v="valley" />
		<tag k="place" v="locality" />
		<tag k="ssr:stedsnr" v="779082" />
	</node>
	<node id="-867663" lat="69.1170361084" lon="18.4153805554">
		<tag k="name" v="Brannmoslåtten" />
		<tag k="place" v="locality" />
		<tag k="ssr:stedsnr" v="765572" />
	</node>
	<node id="-867659" lat="69.0266111086" lon="18.1321999925">
		<tag k="name" v="Langdalen - Giepmestatvággi" />
		<tag k="name:no" v="Langdalen" />
		<tag k="name:se" v="Giepmestatvággi" />
>>>>>>> e1d4bc35ff8a6074a6f2e91616a996b547c36f15
		<tag k="natural" v="valley" />
		<tag k="old_name:se" v="Giebmestatvaggi" />
		<tag k="place" v="locality" />
<<<<<<< HEAD
		<tag k="ssr:stedsnr" v="297613" />
	</node>
	<node lat="69.0789611083902" lon="18.394341657616064" id="-41546">
		<tag k="name" v="Storbergan" />
=======
		<tag k="ssr:stedsnr" v="751902" />
	</node>
	<node id="-867656" lat="69.0400277758" lon="18.1514027669">
		<tag k="fixme" v="consider natural=peak for the most distinct mountains in the district" />
		<tag k="name" v="Møssmørtinden - Missarinčohkka" />
		<tag k="name:no" v="Møssmørtinden" />
		<tag k="name:se" v="Missarinčohkka" />
>>>>>>> e1d4bc35ff8a6074a6f2e91616a996b547c36f15
		<tag k="natural" v="hill" />
		<tag k="old_name:se" v="Missarinčåkka" />
		<tag k="place" v="locality" />
<<<<<<< HEAD
		<tag k="ssr:stedsnr" v="297908" />
	</node>
	<node lat="69.13374999665415" lon="18.038797219058605" id="-41551">
		<tag k="name" v="Finnebrekka" />
		<tag k="natural" v="slope" />
		<tag k="place" v="locality" />
		<tag k="ssr:stedsnr" v="297887" />
	</node>
	<node lat="69.11889166497083" lon="18.232074990163227" id="-41553">
		<tag k="name" v="Kalhaugen" />
		<tag k="natural" v="hill" />
		<tag k="place" v="locality" />
		<tag k="ssr:stedsnr" v="299381" />
	</node>
	<node lat="69.10887778115219" lon="18.286066664574662" id="-41555">
		<tag k="name" v="Slåttdalskanten" />
		<tag k="natural" v="slope" />
		<tag k="place" v="locality" />
		<tag k="ssr:stedsnr" v="299280" />
	</node>
	<node lat="69.11916388861559" lon="18.30921110102904" id="-41556">
		<tag k="name" v="Brattstien" />
		<tag k="natural" v="slope" />
		<tag k="place" v="locality" />
		<tag k="ssr:stedsnr" v="299301" />
	</node>
	<node lat="69.11064999986839" lon="18.119574985217827" id="-41559">
		<tag k="fixme" v="consider natural=peak for the most distinct mountains in the district" />
		<tag k="name" v="Heia - Ráissavárdu" />
		<tag k="name:no" v="Heia" />
		<tag k="name:se" v="Ráissavárdu" />
		<tag k="natural" v="hill" />
		<tag k="old_name:se" v="Raisavardo" />
		<tag k="place" v="locality" />
		<tag k="ssr:stedsnr" v="321534" />
	</node>
	<node lat="69.09505833580036" lon="18.008238891558896" id="-41560">
		<tag k="name" v="Mellemlyshaugen" />
		<tag k="natural" v="hill" />
		<tag k="place" v="locality" />
		<tag k="ssr:stedsnr" v="329863" />
	</node>
	<node lat="69.09570832863731" lon="18.410938895015445" id="-41561">
		<tag k="name" v="Kolekvinthaugen" />
=======
		<tag k="ssr:stedsnr" v="747903" />
	</node>
	<node id="-867655" lat="69.0672999986" lon="18.2307249969">
		<tag k="alt_name:se" v="Giegacåkka" />
		<tag k="fixme" v="consider natural=peak for the most distinct mountains in the district" />
		<tag k="name" v="Fuglåsen - Giegačohkka" />
		<tag k="name:no" v="Fuglåsen" />
		<tag k="name:se" v="Giegačohkka" />
		<tag k="natural" v="hill" />
		<tag k="place" v="locality" />
		<tag k="ssr:stedsnr" v="746595" />
	</node>
	<node id="-867650" lat="69.0456555536" lon="18.4367277787">
		<tag k="name" v="Koffertkrysset" />
		<tag k="place" v="locality" />
		<tag k="ssr:stedsnr" v="643636" />
	</node>
	<node id="-867647" lat="69.033808332" lon="18.092774988">
		<tag k="alt_name" v="Durmålsskardet" />
		<tag k="name" v="Durmålsskaret" />
		<tag k="natural" v="valley" />
		<tag k="place" v="locality" />
		<tag k="ssr:stedsnr" v="625905" />
	</node>
	<node id="-867644" lat="69.0583944433" lon="18.2364749964">
		<tag k="alt_name" v="Slåttelien" />
		<tag k="name" v="Slåtteliene" />
		<tag k="natural" v="slope" />
		<tag k="place" v="locality" />
		<tag k="ssr:stedsnr" v="625893" />
	</node>
	<node id="-867638" lat="69.138072222" lon="18.243880563">
		<tag k="name" v="Bukkhollia" />
		<tag k="natural" v="slope" />
		<tag k="place" v="locality" />
		<tag k="ssr:stedsnr" v="625530" />
	</node>
	<node id="-867634" lat="69.0126277746" lon="18.1816333396">
		<tag k="name" v="Hjerttindhola" />
		<tag k="natural" v="valley" />
		<tag k="place" v="locality" />
		<tag k="ssr:stedsnr" v="624923" />
	</node>
	<node id="-867633" lat="69.0247249989" lon="18.1710555622">
		<tag k="fixme" v="consider natural=peak for the most distinct mountains in the district" />
		<tag k="name" v="Kjeltinden - Giepmestat" />
		<tag k="name:no" v="Kjeltinden" />
		<tag k="name:se" v="Giepmestat" />
>>>>>>> e1d4bc35ff8a6074a6f2e91616a996b547c36f15
		<tag k="natural" v="hill" />
		<tag k="old_name:se" v="Giebmestat" />
		<tag k="place" v="locality" />
<<<<<<< HEAD
		<tag k="ssr:stedsnr" v="340615" />
	</node>
	<node lat="69.19848333700604" lon="18.087399996769637" id="-41562">
		<tag k="name" v="Stengebergan" />
		<tag k="natural" v="hill" />
		<tag k="place" v="locality" />
		<tag k="ssr:stedsnr" v="353558" />
	</node>
	<node lat="69.2012333324759" lon="18.096502767398608" id="-41563">
		<tag k="name" v="Kringellia" />
		<tag k="natural" v="slope" />
		<tag k="place" v="locality" />
		<tag k="ssr:stedsnr" v="353565" />
	</node>
	<node lat="69.13727222047656" lon="17.956311103304976" id="-41564">
		<tag k="fixme" v="consider natural=peak for the most distinct mountains in the district" />
		<tag k="name" v="Tiefjellet" />
		<tag k="natural" v="hill" />
		<tag k="place" v="locality" />
		<tag k="ssr:stedsnr" v="354102" />
	</node>
	<node lat="69.12056944746679" lon="17.99938610716223" id="-41566">
		<tag k="name" v="Svartberget" />
		<tag k="natural" v="hill" />
		<tag k="place" v="locality" />
		<tag k="ssr:stedsnr" v="354114" />
	</node>
	<node lat="69.20359444369528" lon="18.062666659002733" id="-41567">
		<tag k="name" v="Langhaugen" />
		<tag k="natural" v="hill" />
		<tag k="place" v="locality" />
		<tag k="ssr:stedsnr" v="474556" />
	</node>
	<node lat="69.13128056011783" lon="18.00108609991137" id="-41569">
		<tag k="name" v="Kvitfløya" />
		<tag k="natural" v="hill" />
		<tag k="place" v="locality" />
		<tag k="ssr:stedsnr" v="475100" />
	</node>
	<node lat="69.09541666992477" lon="18.369033328818997" id="-41570">
		<tag k="name" v="Midttjønnlia" />
		<tag k="natural" v="slope" />
		<tag k="place" v="locality" />
		<tag k="ssr:stedsnr" v="358149" />
	</node>
	<node lat="69.03939166416312" lon="17.965527764845476" id="-41573">
		<tag k="name" v="Finntjeldmoen" />
		<tag k="place" v="locality" />
		<tag k="ssr:stedsnr" v="476079" />
	</node>
	<node lat="69.05113888925624" lon="17.907027765930064" id="-41574">
		<tag k="name" v="Litjevassholtan" />
		<tag k="natural" v="hill" />
		<tag k="place" v="locality" />
		<tag k="ssr:stedsnr" v="476023" />
	</node>
	<node lat="69.15599166435159" lon="18.201077761445582" id="-41575">
		<tag k="name" v="Skjellbergan" />
		<tag k="natural" v="hill" />
		<tag k="place" v="locality" />
		<tag k="ssr:stedsnr" v="476292" />
	</node>
	<node lat="69.07617777444194" lon="18.050172223743665" id="-41576">
		<tag k="name" v="Hestesletta" />
		<tag k="place" v="locality" />
		<tag k="ssr:stedsnr" v="478912" />
	</node>
	<node lat="69.06955277740325" lon="18.055936101366086" id="-41577">
		<tag k="name" v="Reinhaugen" />
		<tag k="natural" v="hill" />
		<tag k="place" v="locality" />
		<tag k="ssr:stedsnr" v="478915" />
	</node>
	<node lat="69.09407777333746" lon="18.278188894529134" id="-41578">
		<tag k="name" v="Rabban" />
		<tag k="natural" v="hill" />
		<tag k="place" v="locality" />
		<tag k="ssr:stedsnr" v="479353" />
	</node>
	<node lat="69.10440000139978" lon="18.204638885333782" id="-41580">
		<tag k="name" v="Langgrubba" />
		<tag k="place" v="locality" />
		<tag k="ssr:stedsnr" v="479497" />
	</node>
	<node lat="69.10837777957077" lon="18.083205558680145" id="-41583">
		<tag k="name" v="Bjørnlihaugen" />
		<tag k="natural" v="hill" />
		<tag k="place" v="locality" />
		<tag k="ssr:stedsnr" v="479859" />
	</node>
	<node lat="69.11357500197852" lon="18.266316675476695" id="-41586">
		<tag k="fixme" v="consider natural=peak for the most distinct mountains in the district" />
		<tag k="name" v="Slettuva" />
		<tag k="natural" v="hill" />
		<tag k="place" v="locality" />
		<tag k="ssr:stedsnr" v="481291" />
	</node>
	<node lat="69.14491944288754" lon="18.18396943108518" id="-41588">
		<tag k="name" v="Brekkedalen" />
		<tag k="natural" v="valley" />
		<tag k="place" v="locality" />
		<tag k="ssr:stedsnr" v="481383" />
	</node>
	<node lat="69.12365278063606" lon="18.4118805604727" id="-41592">
		<tag k="fixme" v="consider natural=peak for the most distinct mountains in the district" />
		<tag k="name" v="Høgkampen" />
		<tag k="natural" v="hill" />
		<tag k="place" v="locality" />
		<tag k="ssr:stedsnr" v="401595" />
	</node>
	<node lat="69.21349166268323" lon="18.19104999925197" id="-41595">
		<tag k="name" v="Langneshalsen" />
		<tag k="natural" v="valley" />
		<tag k="place" v="locality" />
		<tag k="ssr:stedsnr" v="421241" />
	</node>
	<node lat="69.13689167002751" lon="18.198088888573626" id="-41596">
		<tag k="name" v="Straumslia" />
		<tag k="natural" v="slope" />
		<tag k="place" v="locality" />
		<tag k="ssr:stedsnr" v="421350" />
	</node>
	<node lat="69.14291944321539" lon="17.92504165963547" id="-41601">
		<tag k="name" v="Ørnholla" />
		<tag k="natural" v="valley" />
		<tag k="place" v="locality" />
		<tag k="ssr:stedsnr" v="475077" />
	</node>
	<node lat="69.13485555791213" lon="18.278394430945095" id="-41602">
		<tag k="name" v="Stabbursvasslia" />
		<tag k="natural" v="slope" />
		<tag k="place" v="locality" />
		<tag k="ssr:stedsnr" v="476259" />
	</node>
	<node lat="69.13258333086993" lon="18.36817776038703" id="-41603">
		<tag k="name" v="Heimskaret" />
		<tag k="natural" v="valley" />
		<tag k="place" v="locality" />
		<tag k="ssr:stedsnr" v="476362" />
	</node>
	<node lat="69.19047222012435" lon="18.0796861071432" id="-41605">
		<tag k="name" v="Wittenberg" />
		<tag k="natural" v="hill" />
		<tag k="place" v="locality" />
		<tag k="ssr:stedsnr" v="479704" />
	</node>
	<node lat="69.13707778165144" lon="18.219827776261464" id="-41609">
		<tag k="name" v="Flatbrekka" />
		<tag k="natural" v="slope" />
		<tag k="place" v="locality" />
		<tag k="ssr:stedsnr" v="481377" />
	</node>
	<node lat="69.09531944334401" lon="18.222538890873164" id="-41610">
		<tag k="fixme" v="consider natural=peak for the most distinct mountains in the district" />
		<tag k="name" v="Svartåsen" />
		<tag k="natural" v="hill" />
		<tag k="place" v="locality" />
		<tag k="ssr:stedsnr" v="503080" />
	</node>
	<node lat="69.12916944796396" lon="18.098758343733245" id="-41615">
		<tag k="name" v="Kollen" />
		<tag k="natural" v="hill" />
		<tag k="place" v="locality" />
		<tag k="ssr:stedsnr" v="503531" />
	</node>
	<node lat="69.18886111289787" lon="18.13881944709611" id="-41616">
		<tag k="name" v="Linabrekka" />
		<tag k="natural" v="hill" />
		<tag k="place" v="locality" />
		<tag k="ssr:stedsnr" v="503668" />
	</node>
	<node lat="69.18487777900921" lon="18.145452773136636" id="-41617">
		<tag k="name" v="Slettmoen" />
		<tag k="place" v="locality" />
		<tag k="ssr:stedsnr" v="503683" />
	</node>
	<node lat="69.04945277929045" lon="18.362100003240684" id="-41619">
		<tag k="name" v="Gearbmahabeassi" />
		<tag k="name:se" v="Gearbmahabeassi" />
		<tag k="natural" v="slope" />
		<tag k="old_name:se" v="Gærbmahabæssi" />
		<tag k="place" v="locality" />
		<tag k="ssr:stedsnr" v="504907" />
	</node>
	<node lat="69.14023888852094" lon="18.333336103277407" id="-41624">
		<tag k="fixme" v="consider natural=peak for the most distinct mountains in the district" />
		<tag k="name" v="Vakkerhumpen - Čáppavárdu" />
		<tag k="name:no" v="Vakkerhumpen" />
		<tag k="name:se" v="Čáppavárdu" />
=======
		<tag k="ssr:stedsnr" v="624878" />
	</node>
	<node id="-867630" lat="68.9938166626" lon="18.3035444449">
		<tag k="fixme" v="consider natural=peak for the most distinct mountains in the district" />
		<tag k="name" v="Hjerttindtuva" />
		<tag k="natural" v="hill" />
		<tag k="place" v="locality" />
		<tag k="ssr:stedsnr" v="624616" />
	</node>
	<node id="-867626" lat="69.0441138894" lon="18.2138000068">
		<tag k="name" v="Reingjerdan" />
		<tag k="natural" v="slope" />
		<tag k="place" v="locality" />
		<tag k="ssr:stedsnr" v="600596" />
	</node>
	<node id="-867625" lat="69.1012027781" lon="18.2656999991">
		<tag k="name" v="Svartvassdalen" />
		<tag k="natural" v="valley" />
		<tag k="place" v="locality" />
		<tag k="ssr:stedsnr" v="600347" />
	</node>
	<node id="-867623" lat="69.1019861156" lon="18.119486099">
		<tag k="name" v="Heia" />
		<tag k="natural" v="hill" />
		<tag k="place" v="locality" />
		<tag k="ssr:stedsnr" v="599896" />
	</node>
	<node id="-867622" lat="69.0942388925" lon="18.0470583219">
		<tag k="name" v="Rundfjelldalen" />
		<tag k="natural" v="valley" />
		<tag k="place" v="locality" />
		<tag k="ssr:stedsnr" v="599894" />
	</node>
	<node id="-867619" lat="69.0497138872" lon="17.9786999949">
		<tag k="name" v="Flatbergan" />
		<tag k="natural" v="hill" />
		<tag k="place" v="locality" />
		<tag k="ssr:stedsnr" v="597050" />
	</node>
	<node id="-867617" lat="69.0922666632" lon="18.0011305429">
		<tag k="name" v="Kvitberget" />
		<tag k="natural" v="hill" />
		<tag k="place" v="locality" />
		<tag k="ssr:stedsnr" v="597035" />
	</node>
	<node id="-867615" lat="69.2052972228" lon="18.084188885">
		<tag k="name" v="Jagarberget" />
		<tag k="natural" v="hill" />
		<tag k="place" v="locality" />
		<tag k="ssr:stedsnr" v="596519" />
	</node>
	<node id="-867611" lat="69.1216333298" lon="17.9760833221">
		<tag k="name" v="Ol-Gundersahaugen" />
		<tag k="natural" v="hill" />
		<tag k="place" v="locality" />
		<tag k="ssr:stedsnr" v="596111" />
	</node>
	<node id="-867609" lat="69.1208388898" lon="17.9333333304">
		<tag k="fixme" v="consider natural=peak for the most distinct mountains in the district" />
		<tag k="name" v="Kvitfløya" />
		<tag k="natural" v="hill" />
		<tag k="place" v="locality" />
		<tag k="ssr:stedsnr" v="596104" />
	</node>
	<node id="-867606" lat="69.0762472217" lon="18.4209472296">
		<tag k="name" v="Søkkmyrrabban" />
		<tag k="natural" v="hill" />
		<tag k="place" v="locality" />
		<tag k="ssr:stedsnr" v="582593" />
	</node>
	<node id="-867603" lat="69.0590111142" lon="18.3589944355">
		<tag k="name" v="Kvannlia" />
		<tag k="natural" v="slope" />
		<tag k="place" v="locality" />
		<tag k="ssr:stedsnr" v="564886" />
	</node>
	<node id="-867600" lat="69.076472225" lon="18.0463916519">
		<tag k="alt_name" v="Skarddalen" />
		<tag k="name" v="Skardalen" />
		<tag k="natural" v="valley" />
		<tag k="place" v="locality" />
		<tag k="ssr:stedsnr" v="564591" />
	</node>
	<node id="-867595" lat="69.1344416668" lon="18.2187583355">
		<tag k="name" v="Blomlia" />
		<tag k="natural" v="slope" />
		<tag k="place" v="locality" />
		<tag k="ssr:stedsnr" v="564552" />
	</node>
	<node id="-867588" lat="69.145966671" lon="17.9922388847">
		<tag k="name" v="Sildevikhøgda" />
		<tag k="natural" v="hill" />
		<tag k="place" v="locality" />
		<tag k="ssr:stedsnr" v="564284" />
	</node>
	<node id="-867587" lat="69.1434472192" lon="17.9588277645">
		<tag k="fixme" v="consider natural=peak for the most distinct mountains in the district" />
		<tag k="name" v="Bjørgekollen" />
		<tag k="natural" v="hill" />
		<tag k="place" v="locality" />
		<tag k="ssr:stedsnr" v="564281" />
	</node>
	<node id="-867585" lat="69.1419916632" lon="17.9329055526">
		<tag k="name" v="Stormoen" />
		<tag k="place" v="locality" />
		<tag k="ssr:stedsnr" v="564094" />
	</node>
	<node id="-867583" lat="69.137736109" lon="18.1138638957">
		<tag k="name" v="Brekka" />
		<tag k="natural" v="slope" />
		<tag k="place" v="locality" />
		<tag k="ssr:stedsnr" v="540877" />
	</node>
	<node id="-867582" lat="69.1431888863" lon="18.1328916722">
		<tag k="name" v="Bonhaugen" />
		<tag k="natural" v="hill" />
		<tag k="place" v="locality" />
		<tag k="ssr:stedsnr" v="540862" />
	</node>
	<node id="-867581" lat="69.1165027826" lon="18.0272694341">
		<tag k="name" v="Fossmoen" />
		<tag k="place" v="locality" />
		<tag k="ssr:stedsnr" v="540857" />
	</node>
	<node id="-867580" lat="69.123247227" lon="18.0719333207">
		<tag k="name" v="Storjorda" />
		<tag k="place" v="locality" />
		<tag k="ssr:stedsnr" v="540846" />
	</node>
	<node id="-867579" lat="69.1264638915" lon="18.0772666703">
		<tag k="name" v="Skavlia" />
		<tag k="natural" v="slope" />
		<tag k="place" v="locality" />
		<tag k="ssr:stedsnr" v="540844" />
	</node>
	<node id="-867577" lat="69.1615888896" lon="18.0787888738">
		<tag k="name" v="Kjelvikberget" />
		<tag k="natural" v="hill" />
		<tag k="place" v="locality" />
		<tag k="ssr:stedsnr" v="540661" />
	</node>
	<node id="-867576" lat="69.1673666664" lon="18.1181111099">
		<tag k="name" v="Vågstien" />
		<tag k="natural" v="hill" />
		<tag k="place" v="locality" />
		<tag k="ssr:stedsnr" v="540658" />
	</node>
	<node id="-867575" lat="69.1612833301" lon="18.0937305462">
		<tag k="name" v="Simavikberget" />
		<tag k="natural" v="hill" />
		<tag k="place" v="locality" />
		<tag k="ssr:stedsnr" v="540655" />
	</node>
	<node id="-867572" lat="69.0742805573" lon="18.3894694321">
		<tag k="name" v="Fiskeberget" />
		<tag k="natural" v="hill" />
		<tag k="place" v="locality" />
		<tag k="ssr:stedsnr" v="539899" />
	</node>
	<node id="-867569" lat="69.0637611112" lon="18.1890194359">
		<tag k="name" v="Bergedalen" />
		<tag k="natural" v="valley" />
		<tag k="place" v="locality" />
		<tag k="ssr:stedsnr" v="539295" />
	</node>
	<node id="-867568" lat="69.1331138894" lon="18.2580166517">
		<tag k="name" v="Bukkhollia" />
		<tag k="natural" v="slope" />
		<tag k="place" v="locality" />
		<tag k="ssr:stedsnr" v="537325" />
	</node>
	<node id="-867566" lat="69.048188886" lon="18.0202249959">
		<tag k="name" v="Skarbakken" />
		<tag k="natural" v="slope" />
		<tag k="place" v="locality" />
		<tag k="ssr:stedsnr" v="536123" />
	</node>
	<node id="-867565" lat="69.1151083349" lon="17.9981722166">
		<tag k="name" v="Aksla" />
		<tag k="place" v="locality" />
		<tag k="ssr:stedsnr" v="536119" />
	</node>
	<node id="-867564" lat="69.1966222235" lon="18.1085083291">
		<tag k="name" v="Tiurhaugan" />
>>>>>>> e1d4bc35ff8a6074a6f2e91616a996b547c36f15
		<tag k="natural" v="hill" />
		<tag k="old_name:se" v="Čabbavardo" />
		<tag k="place" v="locality" />
<<<<<<< HEAD
		<tag k="ssr:stedsnr" v="685526" />
	</node>
	<node lat="69.11637222086785" lon="17.968936118844855" id="-41627">
		<tag k="fixme" v="consider natural=peak for the most distinct mountains in the district" />
		<tag k="name" v="Vardefjellet" />
		<tag k="natural" v="hill" />
		<tag k="place" v="locality" />
		<tag k="ssr:stedsnr" v="686257" />
	</node>
	<node lat="69.1416305575107" lon="17.9217444330536" id="-41629">
		<tag k="alt_name" v="Bjørga, l" />
		<tag k="name" v="Litjebjørga" />
		<tag k="place" v="locality" />
		<tag k="ssr:stedsnr" v="686273" />
	</node>
	<node lat="69.19662222348845" lon="18.108508329089904" id="-41632">
		<tag k="name" v="Tiurhaugan" />
		<tag k="natural" v="hill" />
		<tag k="place" v="locality" />
		<tag k="ssr:stedsnr" v="535572" />
	</node>
	<node lat="69.11510833492233" lon="17.998172216570094" id="-41635">
		<tag k="name" v="Aksla" />
		<tag k="place" v="locality" />
		<tag k="ssr:stedsnr" v="536119" />
	</node>
	<node lat="69.04818888604657" lon="18.02022499591391" id="-41636">
		<tag k="name" v="Skarbakken" />
		<tag k="natural" v="slope" />
		<tag k="place" v="locality" />
		<tag k="ssr:stedsnr" v="536123" />
	</node>
	<node lat="69.08130000010486" lon="18.0187472093521" id="-41639">
		<tag k="fixme" v="consider natural=peak for the most distinct mountains in the district" />
		<tag k="name" v="Flatgumpen" />
		<tag k="natural" v="hill" />
		<tag k="place" v="locality" />
		<tag k="ssr:stedsnr" v="686609" />
	</node>
	<node lat="69.13311388942729" lon="18.25801665165693" id="-41641">
		<tag k="name" v="Bukkhollia" />
		<tag k="natural" v="slope" />
		<tag k="place" v="locality" />
		<tag k="ssr:stedsnr" v="537325" />
	</node>
	<node lat="69.11531666407329" lon="18.16251111597633" id="-41647">
		<tag k="name" v="Geitryggen" />
		<tag k="place" v="locality" />
		<tag k="ssr:stedsnr" v="540814" />
	</node>
	<node lat="69.0613277763146" lon="18.001497220336123" id="-41648">
		<tag k="fixme" v="consider natural=peak for the most distinct mountains in the district" />
		<tag k="name" v="Høggumpen - Gearsoaivi" />
		<tag k="name:no" v="Høggumpen" />
		<tag k="name:se" v="Gearsoaivi" />
		<tag k="natural" v="hill" />
		<tag k="place" v="locality" />
		<tag k="ssr:stedsnr" v="688376" />
	</node>
	<node lat="69.12083888981684" lon="17.93333333035068" id="-41661">
		<tag k="fixme" v="consider natural=peak for the most distinct mountains in the district" />
		<tag k="name" v="Kvitfløya" />
		<tag k="natural" v="hill" />
		<tag k="place" v="locality" />
		<tag k="ssr:stedsnr" v="596104" />
	</node>
	<node lat="69.04971388719957" lon="17.978699994902563" id="-41665">
		<tag k="name" v="Flatbergan" />
		<tag k="natural" v="hill" />
		<tag k="place" v="locality" />
		<tag k="ssr:stedsnr" v="597050" />
	</node>
	<node lat="69.03217499564957" lon="17.970711111041332" id="-41667">
		<tag k="name" v="Kvilarhaugen" />
		<tag k="natural" v="hill" />
		<tag k="place" v="locality" />
		<tag k="ssr:stedsnr" v="597056" />
	</node>
	<node lat="69.10120277812982" lon="18.265699999115764" id="-41669">
		<tag k="name" v="Svartvassdalen" />
		<tag k="natural" v="valley" />
		<tag k="place" v="locality" />
		<tag k="ssr:stedsnr" v="600347" />
	</node>
	<node lat="68.99381666263719" lon="18.303544444856698" id="-41671">
		<tag k="fixme" v="consider natural=peak for the most distinct mountains in the district" />
		<tag k="name" v="Hjerttindtuva" />
		<tag k="natural" v="hill" />
		<tag k="place" v="locality" />
		<tag k="ssr:stedsnr" v="624616" />
	</node>
	<node lat="69.02472499889507" lon="18.17105556223522" id="-41674">
		<tag k="fixme" v="consider natural=peak for the most distinct mountains in the district" />
		<tag k="name" v="Kjeltinden - Giepmestat" />
		<tag k="name:no" v="Kjeltinden" />
		<tag k="name:se" v="Giepmestat" />
=======
		<tag k="ssr:stedsnr" v="535572" />
	</node>
	<node id="-867563" lat="69.1954972184" lon="18.0769388828">
		<tag k="name" v="Kirkhaugen" />
		<tag k="natural" v="hill" />
		<tag k="place" v="locality" />
		<tag k="ssr:stedsnr" v="535550" />
	</node>
	<node id="-867562" lat="69.13689167" lon="18.1980888886">
		<tag k="name" v="Straumslia" />
		<tag k="natural" v="slope" />
		<tag k="place" v="locality" />
		<tag k="ssr:stedsnr" v="421350" />
	</node>
	<node id="-867561" lat="69.1104722218" lon="18.2778277825">
		<tag k="fixme" v="consider natural=peak for the most distinct mountains in the district" />
		<tag k="name" v="Bergedalskanten" />
		<tag k="natural" v="hill" />
		<tag k="place" v="locality" />
		<tag k="ssr:stedsnr" v="421257" />
	</node>
	<node id="-867560" lat="69.2134916627" lon="18.1910499993">
		<tag k="name" v="Langneshalsen" />
		<tag k="natural" v="valley" />
		<tag k="place" v="locality" />
		<tag k="ssr:stedsnr" v="421241" />
	</node>
	<node id="-867556" lat="69.1006249977" lon="18.1546611134">
		<tag k="name" v="Dalflatene" />
		<tag k="place" v="locality" />
		<tag k="ssr:stedsnr" v="418874" />
	</node>
	<node id="-867555" lat="69.1019694423" lon="18.0129249914">
		<tag k="name" v="Storbakken" />
		<tag k="natural" v="slope" />
		<tag k="place" v="locality" />
		<tag k="ssr:stedsnr" v="418575" />
	</node>
	<node id="-867553" lat="69.1877333332" lon="18.2922833301">
		<tag k="name" v="Øverfosslia" />
		<tag k="natural" v="slope" />
		<tag k="place" v="locality" />
		<tag k="ssr:stedsnr" v="415328" />
	</node>
	<node id="-867549" lat="69.1236527806" lon="18.4118805605">
		<tag k="fixme" v="consider natural=peak for the most distinct mountains in the district" />
		<tag k="name" v="Høgkampen" />
		<tag k="natural" v="hill" />
		<tag k="place" v="locality" />
		<tag k="ssr:stedsnr" v="401595" />
	</node>
	<node id="-867546" lat="69.0136750015" lon="18.1249833305">
		<tag k="fixme" v="consider natural=peak for the most distinct mountains in the district" />
		<tag k="name" v="Duolboalgi" />
		<tag k="name:se" v="Duolboalgi" />
		<tag k="natural" v="hill" />
		<tag k="place" v="locality" />
		<tag k="ssr:stedsnr" v="382936" />
	</node>
	<node id="-867545" lat="69.0515250027" lon="18.0261944318">
		<tag k="alt_name" v="Skardet" />
		<tag k="name" v="Skaret" />
		<tag k="natural" v="valley" />
		<tag k="place" v="locality" />
		<tag k="ssr:stedsnr" v="382892" />
	</node>
	<node id="-867544" lat="69.0280999956" lon="18.0912250041">
		<tag k="fixme" v="consider natural=peak for the most distinct mountains in the district" />
		<tag k="name" v="Durmålstinden" />
		<tag k="natural" v="hill" />
		<tag k="place" v="locality" />
		<tag k="ssr:stedsnr" v="382877" />
	</node>
	<node id="-867542" lat="69.0608083321" lon="18.0636805572">
		<tag k="name" v="Reindalen" />
		<tag k="natural" v="valley" />
		<tag k="place" v="locality" />
		<tag k="ssr:stedsnr" v="382601" />
	</node>
	<node id="-867541" lat="69.060733336" lon="18.1810972228">
		<tag k="name" v="Storsteinlia" />
		<tag k="natural" v="slope" />
		<tag k="place" v="locality" />
		<tag k="ssr:stedsnr" v="382595" />
	</node>
	<node id="-867538" lat="69.099174997" lon="18.1145305505">
		<tag k="name" v="Råtenhola - Guohcagohpi" />
		<tag k="name:no" v="Råtenhola" />
		<tag k="name:se" v="Guohcagohpi" />
		<tag k="natural" v="valley" />
		<tag k="old_name:se" v="Guoccagåppi" />
		<tag k="place" v="locality" />
		<tag k="ssr:stedsnr" v="382580" />
	</node>
	<node id="-867537" lat="69.0875750018" lon="18.0676500007">
		<tag k="fixme" v="consider natural=peak for the most distinct mountains in the district" />
		<tag k="name" v="Kobben - Gobbá" />
		<tag k="name:no" v="Kobben" />
		<tag k="name:se" v="Gobbá" />
		<tag k="natural" v="hill" />
		<tag k="old_name:se" v="Gåbba" />
		<tag k="place" v="locality" />
		<tag k="ssr:stedsnr" v="382571" />
	</node>
	<node id="-867532" lat="69.1008972238" lon="17.943244447">
		<tag k="alt_name" v="Knuthola, store" />
		<tag k="name" v="Stor-Knuthola" />
		<tag k="natural" v="valley" />
		<tag k="place" v="locality" />
		<tag k="ssr:stedsnr" v="382247" />
	</node>
	<node id="-867530" lat="69.045630555" lon="18.0961111153">
		<tag k="fixme" v="consider natural=peak for the most distinct mountains in the district" />
		<tag k="name" v="Tverrfjellet" />
		<tag k="natural" v="hill" />
		<tag k="place" v="locality" />
		<tag k="ssr:stedsnr" v="382096" />
	</node>
	<node id="-867528" lat="69.1242305525" lon="18.3254111171">
		<tag k="name" v="Vegavasshumpen" />
>>>>>>> e1d4bc35ff8a6074a6f2e91616a996b547c36f15
		<tag k="natural" v="hill" />
		<tag k="old_name:se" v="Giebmestat" />
		<tag k="place" v="locality" />
<<<<<<< HEAD
		<tag k="ssr:stedsnr" v="624878" />
	</node>
	<node lat="69.0652499967754" lon="18.06780832550419" id="-41677">
		<tag k="name" v="Josvadalen" />
		<tag k="natural" v="valley" />
		<tag k="place" v="locality" />
		<tag k="ssr:stedsnr" v="625605" />
	</node>
	<node lat="69.03380833201543" lon="18.092774988022693" id="-41679">
		<tag k="alt_name" v="Durmålsskardet" />
		<tag k="name" v="Durmålsskaret" />
		<tag k="natural" v="valley" />
=======
		<tag k="ssr:stedsnr" v="360232" />
	</node>
	<node id="-867523" lat="69.118613893" lon="18.3460027678">
		<tag k="name" v="Vegavasshaugen" />
		<tag k="natural" v="hill" />
		<tag k="place" v="locality" />
		<tag k="ssr:stedsnr" v="357898" />
	</node>
	<node id="-867522" lat="69.0774722235" lon="18.0388972068">
		<tag k="name" v="Grønnlia" />
		<tag k="natural" v="slope" />
>>>>>>> e1d4bc35ff8a6074a6f2e91616a996b547c36f15
		<tag k="place" v="locality" />
		<tag k="ssr:stedsnr" v="357896" />
	</node>
<<<<<<< HEAD
	<node lat="69.0836972187972" lon="17.991649995683026" id="-41681">
		<tag k="name" v="Vedjehaugen" />
		<tag k="natural" v="hill" />
		<tag k="place" v="locality" />
		<tag k="ssr:stedsnr" v="657042" />
	</node>
	<node lat="69.12016666993009" lon="17.968786114234796" id="-41682">
		<tag k="name" v="Baklia" />
		<tag k="natural" v="slope" />
		<tag k="place" v="locality" />
		<tag k="ssr:stedsnr" v="657105" />
	</node>
	<node lat="69.12733888607819" lon="17.922902768611902" id="-41684">
		<tag k="name" v="Øvre mollbakken" />
		<tag k="natural" v="slope" />
		<tag k="place" v="locality" />
		<tag k="ssr:stedsnr" v="657113" />
	</node>
	<node lat="69.15740832885308" lon="18.21150833733683" id="-41686">
		<tag k="name" v="Steinlia" />
		<tag k="natural" v="slope" />
		<tag k="place" v="locality" />
		<tag k="ssr:stedsnr" v="658289" />
	</node>
	<node lat="69.05233333185132" lon="18.32813333146564" id="-41687">
		<tag k="fixme" v="consider natural=peak for the most distinct mountains in the district" />
		<tag k="name" v="Matfjellenden" />
		<tag k="natural" v="hill" />
		<tag k="place" v="locality" />
		<tag k="ssr:stedsnr" v="661134" />
	</node>
	<node lat="69.12154167062818" lon="18.165502763644263" id="-41692">
		<tag k="name" v="Grønnlia" />
		<tag k="natural" v="slope" />
		<tag k="place" v="locality" />
		<tag k="ssr:stedsnr" v="661841" />
	</node>
	<node lat="69.1467166648448" lon="17.963941666631552" id="-41701">
		<tag k="fixme" v="consider natural=peak for the most distinct mountains in the district" />
		<tag k="name" v="Brattbjørga" />
		<tag k="natural" v="hill" />
		<tag k="place" v="locality" />
		<tag k="ssr:stedsnr" v="718128" />
	</node>
	<node lat="69.14346389180206" lon="18.28578610618641" id="-41703">
		<tag k="fixme" v="consider natural=peak for the most distinct mountains in the district" />
		<tag k="name" v="Snaufjellbruna" />
		<tag k="natural" v="hill" />
		<tag k="place" v="locality" />
		<tag k="ssr:stedsnr" v="719276" />
	</node>
	<node lat="69.08378611012544" lon="18.01570832103602" id="-41704">
		<tag k="name" v="Gumpnova" />
		<tag k="place" v="locality" />
		<tag k="ssr:stedsnr" v="721905" />
	</node>
	<node lat="69.0750194471481" lon="18.394283318913317" id="-41705">
		<tag k="name" v="Brattbakken" />
		<tag k="natural" v="slope" />
		<tag k="place" v="locality" />
		<tag k="ssr:stedsnr" v="721906" />
	</node>
	<node lat="69.14349722076733" lon="17.920674994466683" id="-41710">
		<tag k="name" v="Sildeberget" />
		<tag k="natural" v="hill" />
		<tag k="place" v="locality" />
		<tag k="ssr:stedsnr" v="900078" />
	</node>
	<node lat="69.14509722369408" lon="17.959152774077268" id="-41712">
		<tag k="alt_name" v="Svarteflåget" />
		<tag k="name" v="Svartefloget" />
		<tag k="natural" v="hill" />
		<tag k="place" v="locality" />
		<tag k="ssr:stedsnr" v="900132" />
	</node>
	<node lat="69.14350000136477" lon="17.94395554982528" id="-41713">
		<tag k="name" v="Reinsletta" />
		<tag k="place" v="locality" />
		<tag k="ssr:stedsnr" v="900135" />
	</node>
	<node lat="69.04882777989879" lon="17.926269454321822" id="-41714">
		<tag k="name" v="Rundhaugen" />
		<tag k="natural" v="hill" />
		<tag k="place" v="locality" />
		<tag k="ssr:stedsnr" v="901043" />
	</node>
	<node lat="69.1667305536706" lon="18.204641658015586" id="-41715">
		<tag k="name" v="Langlia" />
		<tag k="natural" v="slope" />
		<tag k="place" v="locality" />
		<tag k="ssr:stedsnr" v="901282" />
	</node>
	<node lat="69.09388055177413" lon="18.040347225568752" id="-41720">
		<tag k="name" v="Liflata" />
		<tag k="place" v="locality" />
		<tag k="ssr:stedsnr" v="903888" />
	</node>
	<node lat="69.0880083324986" lon="18.065766671434154" id="-41721">
		<tag k="name" v="Kobbhola" />
		<tag k="natural" v="slope" />
		<tag k="place" v="locality" />
		<tag k="ssr:stedsnr" v="903890" />
	</node>
	<node lat="69.0909777822449" lon="18.08311109888272" id="-41722">
		<tag k="name" v="Vendingselvdalen" />
		<tag k="natural" v="valley" />
		<tag k="place" v="locality" />
		<tag k="ssr:stedsnr" v="903892" />
	</node>
	<node lat="69.04002777580463" lon="18.151402766917773" id="-41723">
		<tag k="fixme" v="consider natural=peak for the most distinct mountains in the district" />
		<tag k="name" v="Møssmørtinden - Missarinčohkka" />
		<tag k="name:no" v="Møssmørtinden" />
		<tag k="name:se" v="Missarinčohkka" />
		<tag k="natural" v="hill" />
		<tag k="old_name:se" v="Missarinčåkka" />
		<tag k="place" v="locality" />
		<tag k="ssr:stedsnr" v="747903" />
	</node>
	<node lat="69.08703055814766" lon="18.273438878261253" id="-41724">
		<tag k="name" v="Høglirabban" />
		<tag k="natural" v="hill" />
		<tag k="place" v="locality" />
		<tag k="ssr:stedsnr" v="904351" />
	</node>
	<node lat="69.12313333249611" lon="18.102150002748814" id="-41729">
		<tag k="name" v="Finnkonghaugen" />
		<tag k="natural" v="hill" />
		<tag k="place" v="locality" />
		<tag k="ssr:stedsnr" v="904840" />
	</node>
	<node lat="69.14074444631363" lon="18.144572206906957" id="-41730">
		<tag k="name" v="Brubakkan" />
		<tag k="natural" v="slope" />
		<tag k="place" v="locality" />
		<tag k="ssr:stedsnr" v="904868" />
	</node>
	<node lat="69.1422111129418" lon="18.133375000484772" id="-41731">
		<tag k="name" v="Legda" />
		<tag k="natural" v="slope" />
		<tag k="place" v="locality" />
		<tag k="ssr:stedsnr" v="904870" />
	</node>
	<node lat="69.13553611605887" lon="18.10679998730775" id="-41733">
		<tag k="name" v="Litjevasshaugen" />
		<tag k="natural" v="hill" />
		<tag k="place" v="locality" />
		<tag k="ssr:stedsnr" v="904885" />
	</node>
	<node lat="69.10966111106359" lon="18.273705560410633" id="-41738">
		<tag k="name" v="Bergedalen" />
		<tag k="natural" v="valley" />
		<tag k="place" v="locality" />
		<tag k="ssr:stedsnr" v="906284" />
	</node>
	<node lat="69.11611944605504" lon="18.256199991628407" id="-41739">
		<tag k="name" v="Durmålsdalen" />
		<tag k="natural" v="valley" />
		<tag k="place" v="locality" />
		<tag k="ssr:stedsnr" v="906285" />
	</node>
	<node lat="69.05030833038435" lon="17.956969430124552" id="-41741">
		<tag k="name" v="Tangenhaugen" />
		<tag k="natural" v="hill" />
		<tag k="place" v="locality" />
		<tag k="ssr:stedsnr" v="780054" />
	</node>
	<node lat="69.05999166805546" lon="17.932633322650105" id="-41743">
		<tag k="name" v="Skredbekkhola" />
		<tag k="natural" v="valley" />
		<tag k="place" v="locality" />
		<tag k="ssr:stedsnr" v="780062" />
	</node>
	<node lat="69.10543055791979" lon="17.996180551008436" id="-41744">
		<tag k="name" v="Elvesletta" />
		<tag k="place" v="locality" />
		<tag k="ssr:stedsnr" v="780067" />
	</node>
	<node lat="69.1981333373291" lon="18.10229722373342" id="-41747">
		<tag k="name" v="Rambergan" />
		<tag k="natural" v="hill" />
		<tag k="place" v="locality" />
		<tag k="ssr:stedsnr" v="839595" />
	</node>
	<node lat="69.18828888943281" lon="18.089091671204375" id="-41750">
		<tag k="name" v="Durmålshaugen" />
		<tag k="natural" v="hill" />
		<tag k="place" v="locality" />
		<tag k="ssr:stedsnr" v="844729" />
	</node>
	<node lat="69.18185555843782" lon="18.136913877623282" id="-41751">
		<tag k="name" v="Broptkollen" />
		<tag k="natural" v="hill" />
		<tag k="place" v="locality" />
		<tag k="ssr:stedsnr" v="844678" />
	</node>
	<node lat="69.16716389204568" lon="18.085833338794725" id="-41753">
		<tag k="name" v="Vedheggen" />
		<tag k="natural" v="hill" />
		<tag k="place" v="locality" />
		<tag k="ssr:stedsnr" v="844692" />
	</node>
	<node lat="69.19695277483581" lon="18.249650006397754" id="-41758">
		<tag k="name" v="Svartbergan" />
		<tag k="natural" v="hill" />
		<tag k="place" v="locality" />
		<tag k="ssr:stedsnr" v="846225" />
	</node>
	<node lat="69.18719722324813" lon="18.15814721175509" id="-41768">
		<tag k="alt_name" v="Djupvågskardet" />
		<tag k="name" v="Djupvågskaret" />
		<tag k="natural" v="valley" />
		<tag k="place" v="locality" />
		<tag k="ssr:stedsnr" v="928686" />
	</node>
	<node lat="69.19744166716117" lon="18.326669444085756" id="-41769">
		<tag k="name" v="Falkebergan" />
		<tag k="natural" v="hill" />
		<tag k="place" v="locality" />
		<tag k="ssr:stedsnr" v="928694" />
	</node>
	<node lat="69.02125832999695" lon="18.10373054868861" id="-41771">
		<tag k="name" v="Loktariehppi" />
		<tag k="name:se" v="Loktariehppi" />
		<tag k="natural" v="valley" />
		<tag k="old_name:se" v="Låktarieppi" />
		<tag k="place" v="locality" />
		<tag k="ssr:stedsnr" v="928883" />
	</node>
	<node lat="69.03905555829681" lon="17.973305551622943" id="-41773">
		<tag k="name" v="Gumpedalen - Gumpevággi" />
		<tag k="name:no" v="Gumpedalen" />
		<tag k="name:se" v="Gumpevággi" />
		<tag k="natural" v="valley" />
		<tag k="place" v="locality" />
		<tag k="ssr:stedsnr" v="929280" />
	</node>
	<node lat="69.08216388490759" lon="18.392599992283746" id="-41775">
		<tag k="name" v="Myrhaugen" />
		<tag k="natural" v="hill" />
		<tag k="place" v="locality" />
		<tag k="ssr:stedsnr" v="929578" />
	</node>
	<node lat="69.15142499904097" lon="18.230475000357004" id="-41779">
		<tag k="name" v="Jølbakkan" />
		<tag k="natural" v="slope" />
		<tag k="place" v="locality" />
		<tag k="ssr:stedsnr" v="868523" />
	</node>
	<node lat="69.17859999828738" lon="18.182733333042375" id="-41782">
		<tag k="fixme" v="consider natural=peak for the most distinct mountains in the district" />
		<tag k="name" v="Lysheia - Gieddoaivi" />
		<tag k="name:no" v="Lysheia" />
		<tag k="name:se" v="Gieddoaivi" />
=======
	<node id="-867521" lat="69.0921805537" lon="18.0499527801">
		<tag k="name" v="Humpen" />
		<tag k="place" v="locality" />
		<tag k="ssr:stedsnr" v="357880" />
	</node>
	<node id="-867518" lat="69.0954166699" lon="18.3690333288">
		<tag k="name" v="Midttjønnlia" />
		<tag k="natural" v="slope" />
		<tag k="place" v="locality" />
		<tag k="ssr:stedsnr" v="358149" />
	</node>
	<node id="-867517" lat="69.1020305561" lon="18.3064666527">
		<tag k="name" v="Solstadlia" />
		<tag k="natural" v="slope" />
		<tag k="place" v="locality" />
		<tag k="ssr:stedsnr" v="357342" />
	</node>
	<node id="-867515" lat="69.0961027792" lon="18.3774860951">
		<tag k="name" v="Austtjønnberget" />
		<tag k="natural" v="hill" />
		<tag k="place" v="locality" />
		<tag k="ssr:stedsnr" v="357144" />
	</node>
	<node id="-867514" lat="69.0522194439" lon="17.9307361162">
		<tag k="name" v="Vahaugen" />
		<tag k="natural" v="hill" />
		<tag k="place" v="locality" />
		<tag k="ssr:stedsnr" v="355047" />
	</node>
	<node id="-867511" lat="69.0232138852" lon="18.0606944332">
		<tag k="name" v="Storhaugen" />
		<tag k="natural" v="hill" />
		<tag k="place" v="locality" />
		<tag k="ssr:stedsnr" v="354170" />
	</node>
	<node id="-867510" lat="69.148727778" lon="17.964013888">
		<tag k="name" v="Klubben" />
		<tag k="place" v="locality" />
		<tag k="ssr:stedsnr" v="354134" />
	</node>
	<node id="-867509" lat="69.1205694475" lon="17.9993861072">
		<tag k="name" v="Svartberget" />
		<tag k="natural" v="hill" />
		<tag k="place" v="locality" />
		<tag k="ssr:stedsnr" v="354114" />
	</node>
	<node id="-867507" lat="69.1372722205" lon="17.9563111033">
		<tag k="fixme" v="consider natural=peak for the most distinct mountains in the district" />
		<tag k="name" v="Tiefjellet" />
		<tag k="natural" v="hill" />
		<tag k="place" v="locality" />
		<tag k="ssr:stedsnr" v="354102" />
	</node>
	<node id="-867506" lat="69.2012333325" lon="18.0965027674">
		<tag k="name" v="Kringellia" />
		<tag k="natural" v="slope" />
		<tag k="place" v="locality" />
		<tag k="ssr:stedsnr" v="353565" />
	</node>
	<node id="-867505" lat="69.198483337" lon="18.0873999968">
		<tag k="name" v="Stengebergan" />
		<tag k="natural" v="hill" />
		<tag k="place" v="locality" />
		<tag k="ssr:stedsnr" v="353558" />
	</node>
	<node id="-867504" lat="69.0957083286" lon="18.410938895">
		<tag k="name" v="Kolekvinthaugen" />
		<tag k="natural" v="hill" />
		<tag k="place" v="locality" />
		<tag k="ssr:stedsnr" v="340615" />
	</node>
	<node id="-867503" lat="69.0950583358" lon="18.0082388916">
		<tag k="name" v="Mellemlyshaugen" />
		<tag k="natural" v="hill" />
		<tag k="place" v="locality" />
		<tag k="ssr:stedsnr" v="329863" />
	</node>
	<node id="-867498" lat="69.1340972229" lon="18.0178750067">
		<tag k="fixme" v="consider natural=peak for the most distinct mountains in the district" />
		<tag k="name" v="Svartåsen" />
		<tag k="natural" v="hill" />
		<tag k="place" v="locality" />
		<tag k="ssr:stedsnr" v="322542" />
	</node>
	<node id="-867497" lat="69.1082833286" lon="17.9588138939">
		<tag k="alt_name" v="Knuthola, l" />
		<tag k="name" v="Litje-Knuthola" />
		<tag k="natural" v="valley" />
		<tag k="place" v="locality" />
		<tag k="ssr:stedsnr" v="322238" />
	</node>
	<node id="-867496" lat="69.0216249994" lon="18.254211112">
		<tag k="fixme" v="consider natural=peak for the most distinct mountains in the district" />
		<tag k="name" v="Veidfjellet - Bálggesnjunni" />
		<tag k="name:no" v="Veidfjellet" />
		<tag k="name:se" v="Bálggesnjunni" />
		<tag k="natural" v="hill" />
		<tag k="old_name:se" v="Balgesnjunni" />
		<tag k="place" v="locality" />
		<tag k="ssr:stedsnr" v="321875" />
	</node>
	<node id="-867492" lat="69.1106499999" lon="18.1195749852">
		<tag k="fixme" v="consider natural=peak for the most distinct mountains in the district" />
		<tag k="name" v="Heia - Ráissavárdu" />
		<tag k="name:no" v="Heia" />
		<tag k="name:se" v="Ráissavárdu" />
		<tag k="natural" v="hill" />
		<tag k="old_name:se" v="Raisavardo" />
		<tag k="place" v="locality" />
		<tag k="ssr:stedsnr" v="321534" />
	</node>
	<node id="-867486" lat="69.1596999979" lon="18.2499777746">
		<tag k="fixme" v="consider natural=peak for the most distinct mountains in the district" />
		<tag k="name" v="Berrskallen - Stuorrasnulki" />
		<tag k="name:no" v="Berrskallen" />
		<tag k="name:se" v="Stuorrasnulki" />
		<tag k="natural" v="hill" />
		<tag k="place" v="locality" />
		<tag k="ssr:stedsnr" v="201498" />
	</node>
	<node id="-867484" lat="69.080369442" lon="18.3789805395">
		<tag k="alt_name" v="Fagerheimslia" />
		<tag k="name" v="Fagerheimlia" />
		<tag k="natural" v="slope" />
		<tag k="place" v="locality" />
		<tag k="ssr:stedsnr" v="200625" />
	</node>
	<node id="-867478" lat="69.1084861077" lon="18.305986094">
		<tag k="fixme" v="consider natural=peak for the most distinct mountains in the district" />
		<tag k="name" v="Bergsnaua" />
		<tag k="natural" v="hill" />
		<tag k="place" v="locality" />
		<tag k="ssr:stedsnr" v="200574" />
	</node>
	<node id="-867472" lat="69.1156666625" lon="18.2068333395">
		<tag k="name" v="Mosletta" />
		<tag k="place" v="locality" />
		<tag k="ssr:stedsnr" v="178340" />
	</node>
	<node id="-867469" lat="69.1195222234" lon="18.0856444533">
		<tag k="name" v="Friarmoen" />
		<tag k="place" v="locality" />
		<tag k="ssr:stedsnr" v="176842" />
	</node>
	<node id="-867468" lat="69.1208111068" lon="18.0595999964">
		<tag k="name" v="Jordbrumoen" />
		<tag k="place" v="locality" />
		<tag k="ssr:stedsnr" v="176839" />
	</node>
	<node id="-867466" lat="69.1691555589" lon="18.080372231">
		<tag k="fixme" v="consider natural=peak for the most distinct mountains in the district" />
		<tag k="name" v="Storvikfjellet" />
		<tag k="natural" v="hill" />
		<tag k="place" v="locality" />
		<tag k="ssr:stedsnr" v="176658" />
	</node>
	<node id="-867459" lat="69.0570583329" lon="18.3862055541">
		<tag k="name" v="Sørhusrabban" />
		<tag k="natural" v="hill" />
		<tag k="place" v="locality" />
		<tag k="ssr:stedsnr" v="176169" />
	</node>
	<node id="-867458" lat="69.1984416705" lon="18.2635888949">
		<tag k="name" v="Lyshaugen" />
		<tag k="natural" v="hill" />
		<tag k="place" v="locality" />
		<tag k="ssr:stedsnr" v="176155" />
	</node>
	<node id="-867456" lat="69.0928111137" lon="18.2866972188">
		<tag k="name" v="Svenskhola" />
		<tag k="natural" v="valley" />
		<tag k="place" v="locality" />
		<tag k="ssr:stedsnr" v="175354" />
	</node>
	<node id="-867455" lat="69.1540055597" lon="18.1734861174">
		<tag k="name" v="Sponlia" />
		<tag k="natural" v="slope" />
		<tag k="place" v="locality" />
		<tag k="ssr:stedsnr" v="173269" />
	</node>
	<node id="-867453" lat="69.0397527797" lon="17.9465222293">
		<tag k="name" v="Svartberget" />
		<tag k="natural" v="hill" />
		<tag k="place" v="locality" />
		<tag k="ssr:stedsnr" v="173049" />
	</node>
	<node id="-867452" lat="69.0450777762" lon="18.0348666505">
		<tag k="name" v="Svartberget" />
		<tag k="natural" v="hill" />
		<tag k="place" v="locality" />
		<tag k="ssr:stedsnr" v="172145" />
	</node>
	<node id="-867451" lat="69.0492222229" lon="18.0064111012">
		<tag k="name" v="Skjellrabben" />
		<tag k="natural" v="hill" />
		<tag k="place" v="locality" />
		<tag k="ssr:stedsnr" v="172144" />
	</node>
	<node id="-867449" lat="69.1341138848" lon="17.9206138865">
		<tag k="name" v="Grønnlia" />
		<tag k="natural" v="slope" />
		<tag k="place" v="locality" />
		<tag k="ssr:stedsnr" v="172113" />
	</node>
	<node id="-867448" lat="69.1369388916" lon="17.9356055515">
		<tag k="name" v="Aspemoen" />
		<tag k="place" v="locality" />
		<tag k="ssr:stedsnr" v="172095" />
	</node>
	<node id="-867445" lat="69.1400333327" lon="17.9238860976">
		<tag k="name" v="Kvasshaugen" />
		<tag k="natural" v="hill" />
		<tag k="place" v="locality" />
		<tag k="ssr:stedsnr" v="172068" />
	</node>
	<node id="-867442" lat="69.120747224" lon="18.4348194487">
		<tag k="name" v="Andreasberget" />
		<tag k="natural" v="hill" />
		<tag k="place" v="locality" />
		<tag k="ssr:stedsnr" v="158601" />
	</node>
	<node id="-867435" lat="69.1693555524" lon="18.1502083285">
		<tag k="name" v="Skreda" />
		<tag k="natural" v="slope" />
		<tag k="place" v="locality" />
		<tag k="ssr:stedsnr" v="139702" />
	</node>
	<node id="-867429" lat="69.0923361082" lon="18.0911749988">
		<tag k="name" v="Kvitkua" />
		<tag k="natural" v="slope" />
		<tag k="place" v="locality" />
		<tag k="ssr:stedsnr" v="139587" />
	</node>
	<node id="-867422" lat="69.1422972185" lon="18.2384361026">
		<tag k="name" v="Svartbergan" />
>>>>>>> e1d4bc35ff8a6074a6f2e91616a996b547c36f15
		<tag k="natural" v="hill" />
		<tag k="old_name:se" v="Gied´doai´vi" />
		<tag k="place" v="locality" />
<<<<<<< HEAD
		<tag k="ssr:stedsnr" v="933760" />
	</node>
	<node lat="69.13165277448225" lon="17.92466110719239" id="-41784">
		<tag k="name" v="Fossmoen" />
		<tag k="place" v="locality" />
		<tag k="ssr:stedsnr" v="900120" />
	</node>
	<node lat="69.08950833091542" lon="18.384036109943224" id="-41786">
		<tag k="name" v="Austtjønnlia" />
		<tag k="natural" v="slope" />
		<tag k="place" v="locality" />
		<tag k="ssr:stedsnr" v="904164" />
	</node>
	<node lat="69.13589722316422" lon="18.030169430910508" id="-41788">
		<tag k="name" v="Tverrskaret" />
		<tag k="natural" v="valley" />
		<tag k="place" v="locality" />
		<tag k="ssr:stedsnr" v="904903" />
	</node>
	<node lat="69.13031944646147" lon="18.038330546121" id="-41789">
		<tag k="name" v="Sandhamran" />
		<tag k="natural" v="hill" />
		<tag k="place" v="locality" />
		<tag k="ssr:stedsnr" v="904899" />
	</node>
	<node lat="69.11118055473362" lon="18.24051943413032" id="-41790">
		<tag k="name" v="Høgda" />
		<tag k="natural" v="ridge" />
		<tag k="place" v="locality" />
		<tag k="ssr:stedsnr" v="906359" />
	</node>
	<node lat="69.14698610709267" lon="18.233916673232756" id="-41791">
		<tag k="name" v="Liene" />
		<tag k="natural" v="slope" />
		<tag k="place" v="locality" />
		<tag k="ssr:stedsnr" v="906368" />
	</node>
	<node lat="69.1461111150617" lon="17.954122222421713" id="-41801">
		<tag k="name" v="Telgelia" />
		<tag k="natural" v="slope" />
		<tag k="place" v="locality" />
		<tag k="ssr:stedsnr" v="961118" />
	</node>
	<node lat="69.12434444771397" lon="17.974600005067984" id="-41803">
		<tag k="name" v="Storhaugen" />
		<tag k="natural" v="hill" />
		<tag k="place" v="locality" />
		<tag k="ssr:stedsnr" v="961100" />
	</node>
	<node lat="69.16292499638753" lon="18.185919428179417" id="-41804">
		<tag k="name" v="Storhundlia" />
		<tag k="natural" v="slope" />
		<tag k="place" v="locality" />
		<tag k="ssr:stedsnr" v="961298" />
	</node>
	<node lat="69.0504777759611" lon="17.99093888919054" id="-41805">
		<tag k="name" v="Ørnebergan" />
		<tag k="natural" v="hill" />
		<tag k="place" v="locality" />
		<tag k="ssr:stedsnr" v="962053" />
	</node>
	<node lat="69.1181861139648" lon="18.115966666687864" id="-41807">
		<tag k="name" v="Nonstuva" />
		<tag k="natural" v="hill" />
		<tag k="place" v="locality" />
		<tag k="ssr:stedsnr" v="965834" />
	</node>
	<node lat="69.13364444840256" lon="18.130091664833724" id="-41810">
		<tag k="name" v="Haugbakkan" />
		<tag k="natural" v="slope" />
		<tag k="place" v="locality" />
		<tag k="ssr:stedsnr" v="965876" />
	</node>
	<node lat="69.13573333645908" lon="18.054469434351308" id="-41813">
		<tag k="name" v="Fribakken" />
		<tag k="natural" v="slope" />
		<tag k="place" v="locality" />
		<tag k="ssr:stedsnr" v="965892" />
	</node>
	<node lat="69.20669721868225" lon="18.272788895350768" id="-41815">
		<tag k="name" v="Durmålslia" />
		<tag k="natural" v="slope" />
		<tag k="place" v="locality" />
		<tag k="ssr:stedsnr" v="967193" />
	</node>
	<node lat="69.14221666558103" lon="18.188436116399632" id="-41816">
		<tag k="name" v="Resset" />
		<tag k="natural" v="slope" />
		<tag k="place" v="locality" />
		<tag k="ssr:stedsnr" v="967337" />
	</node>
	<node lat="69.14462222167813" lon="18.042058319251474" id="-41825">
		<tag k="name" v="Lihornet" />
		<tag k="place" v="locality" />
		<tag k="ssr:stedsnr" v="11912" />
	</node>
	<node lat="69.07655833633848" lon="17.96703610506429" id="-41829">
		<tag k="name" v="Skøelvdalen" />
		<tag k="natural" v="valley" />
		<tag k="place" v="locality" />
		<tag k="ssr:stedsnr" v="18322" />
	</node>
	<node lat="69.11309166537019" lon="18.276611095652594" id="-41830">
		<tag k="fixme" v="consider natural=peak for the most distinct mountains in the district" />
		<tag k="name" v="Høgtuva" />
		<tag k="natural" v="hill" />
		<tag k="place" v="locality" />
		<tag k="ssr:stedsnr" v="18527" />
	</node>
	<node lat="69.17592777930585" lon="18.162694441470244" id="-41834">
		<tag k="fixme" v="consider natural=peak for the most distinct mountains in the district" />
		<tag k="name" v="Bukkhamran" />
		<tag k="natural" v="hill" />
		<tag k="place" v="locality" />
		<tag k="ssr:stedsnr" v="18675" />
	</node>
	<node lat="69.13890277805751" lon="17.910919437214776" id="-41843">
		<tag k="name" v="Småbergan" />
		<tag k="natural" v="hill" />
		<tag k="place" v="locality" />
		<tag k="ssr:stedsnr" v="51066" />
	</node>
	<node lat="69.13120277370945" lon="17.994599997866107" id="-41845">
		<tag k="name" v="Blåbergan" />
		<tag k="natural" v="hill" />
		<tag k="place" v="locality" />
		<tag k="ssr:stedsnr" v="51094" />
	</node>
	<node lat="69.1078944405548" lon="18.049769451572534" id="-41850">
=======
		<tag k="ssr:stedsnr" v="117387" />
	</node>
	<node id="-867421" lat="69.1440472252" lon="18.1826555412">
		<tag k="fixme" v="consider natural=peak for the most distinct mountains in the district" />
		<tag k="name" v="Kollen" />
		<tag k="natural" v="hill" />
		<tag k="place" v="locality" />
		<tag k="ssr:stedsnr" v="117385" />
	</node>
	<node id="-867418" lat="69.0802694466" lon="18.1600944345">
		<tag k="name" v="Middagselvdalen" />
		<tag k="natural" v="valley" />
		<tag k="place" v="locality" />
		<tag k="ssr:stedsnr" v="115892" />
	</node>
	<node id="-867416" lat="69.1336694428" lon="18.1389777742">
		<tag k="name" v="Kleivmyrbakkan" />
		<tag k="natural" v="slope" />
		<tag k="place" v="locality" />
		<tag k="ssr:stedsnr" v="115848" />
	</node>
	<node id="-867414" lat="69.0480222234" lon="18.1719444312">
		<tag k="name" v="Kvitebergan" />
		<tag k="natural" v="hill" />
		<tag k="place" v="locality" />
		<tag k="ssr:stedsnr" v="115585" />
	</node>
	<node id="-867412" lat="69.170024997" lon="18.1652277844">
		<tag k="name" v="Resmålstuva" />
		<tag k="natural" v="hill" />
		<tag k="place" v="locality" />
		<tag k="ssr:stedsnr" v="115631" />
	</node>
	<node id="-867411" lat="69.1026555544" lon="18.2860388741">
		<tag k="fixme" v="consider natural=peak for the most distinct mountains in the district" />
		<tag k="name" v="Hammaren" />
		<tag k="natural" v="hill" />
		<tag k="place" v="locality" />
		<tag k="ssr:stedsnr" v="115372" />
	</node>
	<node id="-867407" lat="69.0951055546" lon="18.3574444324">
		<tag k="name" v="Vesltjønnlia" />
		<tag k="natural" v="slope" />
		<tag k="place" v="locality" />
		<tag k="ssr:stedsnr" v="115181" />
	</node>
	<node id="-867406" lat="69.207980559" lon="18.305811118">
		<tag k="name" v="Myrfjellet" />
		<tag k="natural" v="hill" />
		<tag k="place" v="locality" />
		<tag k="ssr:stedsnr" v="115167" />
	</node>
	<node id="-867401" lat="69.1956249971" lon="18.1948944355">
		<tag k="name" v="Vågdalen" />
		<tag k="natural" v="valley" />
		<tag k="place" v="locality" />
		<tag k="ssr:stedsnr" v="79684" />
	</node>
	<node id="-867399" lat="69.0736138863" lon="18.1535000039">
		<tag k="alt_name" v="Grønliheia" />
		<tag k="name" v="Grønnliheia" />
		<tag k="natural" v="hill" />
		<tag k="place" v="locality" />
		<tag k="ssr:stedsnr" v="79568" />
	</node>
	<node id="-867397" lat="69.0915305547" lon="18.0058055534">
		<tag k="fixme" v="multiple name tags, choose one and add the other to alt_name" />
		<tag k="name" v="Lyshaugen;Storlyshaugen" />
		<tag k="natural" v="hill" />
		<tag k="place" v="locality" />
		<tag k="ssr:stedsnr" v="79557" />
	</node>
	<node id="-867396" lat="69.0946611126" lon="18.1397527743">
		<tag k="name" v="Farfarhaugen" />
		<tag k="natural" v="hill" />
		<tag k="place" v="locality" />
		<tag k="ssr:stedsnr" v="79555" />
	</node>
	<node id="-867395" lat="69.1175944437" lon="18.0537194454">
		<tag k="fixme" v="consider natural=peak for the most distinct mountains in the district" />
		<tag k="name" v="Storåsen" />
		<tag k="natural" v="hill" />
		<tag k="place" v="locality" />
		<tag k="ssr:stedsnr" v="79552" />
	</node>
	<node id="-867392" lat="69.1240055572" lon="18.4091944488">
		<tag k="fixme" v="consider natural=peak for the most distinct mountains in the district" />
		<tag k="name" v="Høgkampen" />
		<tag k="natural" v="hill" />
		<tag k="place" v="locality" />
		<tag k="ssr:stedsnr" v="79545" />
	</node>
	<node id="-867387" lat="69.165994441" lon="18.1881194416">
		<tag k="name" v="Storhunden" />
		<tag k="natural" v="hill" />
		<tag k="place" v="locality" />
		<tag k="ssr:stedsnr" v="79494" />
	</node>
	<node id="-867386" lat="69.1643500023" lon="18.2305222289">
		<tag k="alt_name:no" v="Leirbogskardet" />
		<tag k="name" v="Leirbogskaret - Šnjirggagorsa" />
		<tag k="name:no" v="Leirbogskaret" />
		<tag k="name:se" v="Šnjirggagorsa" />
		<tag k="natural" v="valley" />
		<tag k="old_name:se" v="Šnjirgagårsa" />
		<tag k="place" v="locality" />
		<tag k="ssr:stedsnr" v="79482" />
	</node>
	<node id="-867383" lat="69.1404305542" lon="18.2172499952">
		<tag k="name" v="Langbrekka" />
		<tag k="place" v="locality" />
		<tag k="ssr:stedsnr" v="57347" />
	</node>
	<node id="-867382" lat="69.1192888876" lon="18.2347500032">
		<tag k="name" v="Sandbakken" />
		<tag k="natural" v="slope" />
		<tag k="place" v="locality" />
		<tag k="ssr:stedsnr" v="57345" />
	</node>
	<node id="-867377" lat="69.1486277823" lon="18.017777774">
		<tag k="name" v="Vennesberget" />
		<tag k="natural" v="hill" />
		<tag k="place" v="locality" />
		<tag k="ssr:stedsnr" v="55910" />
	</node>
	<node id="-867375" lat="69.1233250022" lon="18.0527444306">
		<tag k="fixme" v="consider natural=peak for the most distinct mountains in the district" />
		<tag k="name" v="Litjeåsen" />
		<tag k="natural" v="hill" />
		<tag k="place" v="locality" />
		<tag k="ssr:stedsnr" v="55828" />
	</node>
	<node id="-867373" lat="69.1254305586" lon="18.1095999962">
		<tag k="name" v="Krokvasshaugen" />
		<tag k="natural" v="hill" />
		<tag k="place" v="locality" />
		<tag k="ssr:stedsnr" v="55820" />
	</node>
	<node id="-867370" lat="69.1859638905" lon="18.0558305549">
		<tag k="name" v="Bollhaugen" />
		<tag k="natural" v="hill" />
		<tag k="place" v="locality" />
		<tag k="ssr:stedsnr" v="55682" />
	</node>
	<node id="-867369" lat="69.1872972262" lon="18.0788472116">
		<tag k="name" v="Litjemoen" />
		<tag k="place" v="locality" />
		<tag k="ssr:stedsnr" v="55679" />
	</node>
	<node id="-867367" lat="69.1312861085" lon="18.0658194447">
		<tag k="name" v="Purkemoen" />
		<tag k="place" v="locality" />
		<tag k="ssr:stedsnr" v="55887" />
	</node>
	<node id="-867361" lat="69.1867166645" lon="18.095358327">
		<tag k="name" v="Vamashaugen" />
		<tag k="natural" v="hill" />
		<tag k="place" v="locality" />
		<tag k="ssr:stedsnr" v="55627" />
	</node>
	<node id="-867360" lat="69.1078944406" lon="18.0497694516">
>>>>>>> e1d4bc35ff8a6074a6f2e91616a996b547c36f15
		<tag k="name" v="Vendingselvlia" />
		<tag k="natural" v="slope" />
		<tag k="place" v="locality" />
		<tag k="ssr:stedsnr" v="54600" />
	</node>
<<<<<<< HEAD
	<node lat="69.08867777551538" lon="18.358694441924513" id="-41851">
		<tag k="name" v="Midtlia" />
		<tag k="natural" v="slope" />
		<tag k="place" v="locality" />
		<tag k="ssr:stedsnr" v="54152" />
	</node>
	<node lat="69.18671666451515" lon="18.09535832697422" id="-41858">
		<tag k="name" v="Vamashaugen" />
		<tag k="natural" v="hill" />
		<tag k="place" v="locality" />
		<tag k="ssr:stedsnr" v="55627" />
	</node>
	<node lat="69.12332500220589" lon="18.052744430597553" id="-41860">
		<tag k="fixme" v="consider natural=peak for the most distinct mountains in the district" />
		<tag k="name" v="Litjeåsen" />
		<tag k="natural" v="hill" />
		<tag k="place" v="locality" />
		<tag k="ssr:stedsnr" v="55828" />
	</node>
	<node lat="69.13128610850136" lon="18.065819444749494" id="-41865">
		<tag k="name" v="Purkemoen" />
		<tag k="place" v="locality" />
		<tag k="ssr:stedsnr" v="55887" />
	</node>
	<node lat="69.11928888759265" lon="18.234750003189887" id="-41868">
		<tag k="name" v="Sandbakken" />
		<tag k="natural" v="slope" />
		<tag k="place" v="locality" />
		<tag k="ssr:stedsnr" v="57345" />
	</node>
	<node lat="69.14043055420545" lon="18.217249995161456" id="-41869">
		<tag k="name" v="Langbrekka" />
		<tag k="place" v="locality" />
		<tag k="ssr:stedsnr" v="57347" />
	</node>
	<node lat="69.06412222453095" lon="18.293791661811163" id="-41870">
		<tag k="fixme" v="consider natural=peak for the most distinct mountains in the district" />
		<tag k="name" v="Grønnfjellet" />
		<tag k="natural" v="hill" />
		<tag k="place" v="locality" />
		<tag k="ssr:stedsnr" v="57351" />
	</node>
	<node lat="69.09190772900749" lon="17.94130240951634" id="-41872">
		<tag k="fixme" v="consider natural=peak for the most distinct mountains in the district" />
		<tag k="name" v="Reinaksla" />
		<tag k="natural" v="hill" />
		<tag k="place" v="locality" />
		<tag k="ssr:stedsnr" v="79240" />
	</node>
	<node lat="69.16435000227553" lon="18.230522228852372" id="-41874">
		<tag k="alt_name:no" v="Leirbogskardet" />
		<tag k="name" v="Leirbogskaret - Šnjirggagorsa" />
		<tag k="name:no" v="Leirbogskaret" />
		<tag k="name:se" v="Šnjirggagorsa" />
		<tag k="natural" v="valley" />
		<tag k="old_name:se" v="Šnjirgagårsa" />
		<tag k="place" v="locality" />
		<tag k="ssr:stedsnr" v="79482" />
	</node>
	<node lat="69.11759444371283" lon="18.053719445392577" id="-41878">
		<tag k="fixme" v="consider natural=peak for the most distinct mountains in the district" />
		<tag k="name" v="Storåsen" />
		<tag k="natural" v="hill" />
		<tag k="place" v="locality" />
		<tag k="ssr:stedsnr" v="79552" />
	</node>
	<node lat="69.09466111258187" lon="18.13975277429355" id="-41879">
		<tag k="name" v="Farfarhaugen" />
		<tag k="natural" v="hill" />
		<tag k="place" v="locality" />
		<tag k="ssr:stedsnr" v="79555" />
	</node>
	<node lat="69.09153055473253" lon="18.00580555337518" id="-41880">
		<tag k="fixme" v="multiple name tags, choose one and add the other to alt_name" />
		<tag k="name" v="Storlyshaugen;Lyshaugen" />
		<tag k="natural" v="hill" />
		<tag k="place" v="locality" />
		<tag k="ssr:stedsnr" v="79557" />
	</node>
	<node lat="69.07361388631334" lon="18.153500003930365" id="-41882">
		<tag k="alt_name" v="Grønliheia" />
		<tag k="name" v="Grønnliheia" />
		<tag k="natural" v="hill" />
		<tag k="place" v="locality" />
		<tag k="ssr:stedsnr" v="79568" />
	</node>
	<node lat="69.19562499705268" lon="18.194894435528603" id="-41884">
		<tag k="name" v="Vågdalen" />
		<tag k="natural" v="valley" />
		<tag k="place" v="locality" />
		<tag k="ssr:stedsnr" v="79684" />
	</node>
	<node lat="69.1424944437273" lon="17.99962223079297" id="-41890">
		<tag k="name" v="Sildevikdalen" />
		<tag k="natural" v="valley" />
		<tag k="place" v="locality" />
		<tag k="ssr:stedsnr" v="111124" />
	</node>
	<node lat="69.20798055898594" lon="18.305811118011565" id="-41893">
		<tag k="name" v="Myrfjellet" />
		<tag k="natural" v="hill" />
		<tag k="place" v="locality" />
		<tag k="ssr:stedsnr" v="115167" />
	</node>
	<node lat="69.09510555463852" lon="18.357444432419264" id="-41894">
		<tag k="name" v="Vesltjønnlia" />
		<tag k="natural" v="slope" />
		<tag k="place" v="locality" />
		<tag k="ssr:stedsnr" v="115181" />
	</node>
	<node lat="69.04802222337834" lon="18.171944431181007" id="-41895">
		<tag k="name" v="Kvitebergan" />
=======
	<node id="-867355" lat="69.1312027737" lon="17.9945999979">
		<tag k="name" v="Blåbergan" />
		<tag k="natural" v="hill" />
		<tag k="place" v="locality" />
		<tag k="ssr:stedsnr" v="51094" />
	</node>
	<node id="-867354" lat="69.1389027781" lon="17.9109194372">
		<tag k="name" v="Småbergan" />
		<tag k="natural" v="hill" />
		<tag k="place" v="locality" />
		<tag k="ssr:stedsnr" v="51066" />
	</node>
	<node id="-867352" lat="69.1955416672" lon="18.0916555595">
		<tag k="name" v="Litje Durmålshaugen" />
		<tag k="natural" v="hill" />
		<tag k="place" v="locality" />
		<tag k="ssr:stedsnr" v="50515" />
	</node>
	<node id="-867351" lat="69.1940055592" lon="18.140491654">
		<tag k="fixme" v="consider natural=peak for the most distinct mountains in the district" />
		<tag k="name" v="Gullhaugan" />
		<tag k="natural" v="hill" />
		<tag k="place" v="locality" />
		<tag k="ssr:stedsnr" v="50509" />
	</node>
	<node id="-867343" lat="69.1759277793" lon="18.1626944415">
		<tag k="fixme" v="consider natural=peak for the most distinct mountains in the district" />
		<tag k="name" v="Bukkhamran" />
		<tag k="natural" v="hill" />
		<tag k="place" v="locality" />
		<tag k="ssr:stedsnr" v="18675" />
	</node>
	<node id="-867334" lat="69.1130916654" lon="18.2766110957">
		<tag k="fixme" v="consider natural=peak for the most distinct mountains in the district" />
		<tag k="name" v="Høgtuva" />
		<tag k="natural" v="hill" />
		<tag k="place" v="locality" />
		<tag k="ssr:stedsnr" v="18527" />
	</node>
	<node id="-867332" lat="69.0765583363" lon="17.9670361051">
		<tag k="name" v="Skøelvdalen" />
		<tag k="natural" v="valley" />
		<tag k="place" v="locality" />
		<tag k="ssr:stedsnr" v="18322" />
	</node>
	<node id="-867331" lat="69.1071611102" lon="18.1978138841">
		<tag k="name" v="Påldalen" />
		<tag k="natural" v="valley" />
		<tag k="place" v="locality" />
		<tag k="ssr:stedsnr" v="967321" />
	</node>
	<node id="-867328" lat="69.1452111102" lon="18.1637916683">
		<tag k="name" v="Engslettbakken" />
		<tag k="natural" v="slope" />
		<tag k="place" v="locality" />
		<tag k="ssr:stedsnr" v="965869" />
	</node>
	<node id="-867327" lat="69.1415166642" lon="18.1375944424">
		<tag k="name" v="Langhaugen" />
		<tag k="natural" v="hill" />
		<tag k="place" v="locality" />
		<tag k="ssr:stedsnr" v="965866" />
	</node>
	<node id="-867326" lat="69.1343972201" lon="18.1434388939">
		<tag k="name" v="Kleiva" />
		<tag k="natural" v="slope" />
		<tag k="place" v="locality" />
		<tag k="ssr:stedsnr" v="965854" />
	</node>
	<node id="-867323" lat="69.0674833377" lon="18.2160527693">
		<tag k="name" v="Fugllia" />
		<tag k="natural" v="slope" />
		<tag k="place" v="locality" />
		<tag k="ssr:stedsnr" v="964363" />
	</node>
	<node id="-867322" lat="69.050477776" lon="17.9909388892">
		<tag k="name" v="Ørnebergan" />
		<tag k="natural" v="hill" />
		<tag k="place" v="locality" />
		<tag k="ssr:stedsnr" v="962053" />
	</node>
	<node id="-867321" lat="69.1461111151" lon="17.9541222224">
		<tag k="name" v="Telgelia" />
		<tag k="natural" v="slope" />
		<tag k="place" v="locality" />
		<tag k="ssr:stedsnr" v="961118" />
	</node>
	<node id="-867319" lat="69.0795111078" lon="18.4153388747">
		<tag k="name" v="Søkkmyrlia" />
		<tag k="natural" v="slope" />
		<tag k="place" v="locality" />
		<tag k="ssr:stedsnr" v="947558" />
	</node>
	<node id="-867315" lat="69.1358972232" lon="18.0301694309">
		<tag k="name" v="Tverrskaret" />
		<tag k="natural" v="valley" />
		<tag k="place" v="locality" />
		<tag k="ssr:stedsnr" v="904903" />
	</node>
	<node id="-867314" lat="69.1422111129" lon="18.1333750005">
		<tag k="name" v="Legda" />
		<tag k="natural" v="slope" />
		<tag k="place" v="locality" />
		<tag k="ssr:stedsnr" v="904870" />
	</node>
	<node id="-867313" lat="69.1407444463" lon="18.1445722069">
		<tag k="name" v="Brubakkan" />
		<tag k="natural" v="slope" />
		<tag k="place" v="locality" />
		<tag k="ssr:stedsnr" v="904868" />
	</node>
	<node id="-867311" lat="69.1316527745" lon="17.9246611072">
		<tag k="name" v="Fossmoen" />
		<tag k="place" v="locality" />
		<tag k="ssr:stedsnr" v="900120" />
	</node>
	<node id="-867307" lat="69.1371111116" lon="17.9608111182">
		<tag k="fixme" v="consider natural=peak for the most distinct mountains in the district" />
		<tag k="name" v="Storebjørga" />
		<tag k="natural" v="hill" />
		<tag k="place" v="locality" />
		<tag k="ssr:stedsnr" v="874256" />
	</node>
	<node id="-867306" lat="69.116713889" lon="18.0421110968">
		<tag k="name" v="Vargemoen" />
		<tag k="place" v="locality" />
		<tag k="ssr:stedsnr" v="844842" />
	</node>
	<node id="-867304" lat="69.1236777754" lon="18.1562416546">
		<tag k="name" v="Krøkemyrbakkan" />
		<tag k="natural" v="slope" />
		<tag k="place" v="locality" />
		<tag k="ssr:stedsnr" v="844834" />
	</node>
	<node id="-867302" lat="69.0745472214" lon="18.0629999858">
		<tag k="name" v="Skreddalen" />
		<tag k="natural" v="valley" />
		<tag k="place" v="locality" />
		<tag k="ssr:stedsnr" v="843905" />
	</node>
	<node id="-867297" lat="69.1785999983" lon="18.182733333">
		<tag k="fixme" v="consider natural=peak for the most distinct mountains in the district" />
		<tag k="name" v="Lysheia - Gieddoaivi" />
		<tag k="name:no" v="Lysheia" />
		<tag k="name:se" v="Gieddoaivi" />
>>>>>>> e1d4bc35ff8a6074a6f2e91616a996b547c36f15
		<tag k="natural" v="hill" />
		<tag k="old_name:se" v="Gied´doai´vi" />
		<tag k="place" v="locality" />
<<<<<<< HEAD
		<tag k="ssr:stedsnr" v="115585" />
	</node>
	<node lat="69.17002499696758" lon="18.165227784398347" id="-41896">
		<tag k="name" v="Resmålstuva" />
		<tag k="natural" v="hill" />
		<tag k="place" v="locality" />
		<tag k="ssr:stedsnr" v="115631" />
	</node>
	<node lat="69.12336110766638" lon="18.135569432945744" id="-41899">
		<tag k="name" v="Storelvhaugen" />
		<tag k="natural" v="hill" />
		<tag k="place" v="locality" />
		<tag k="ssr:stedsnr" v="115825" />
	</node>
	<node lat="69.12308332896569" lon="18.01962778340367" id="-41900">
		<tag k="name" v="Venneselvdalen" />
		<tag k="natural" v="valley" />
		<tag k="place" v="locality" />
		<tag k="ssr:stedsnr" v="115835" />
	</node>
	<node lat="69.12084444741066" lon="18.01983333552014" id="-41901">
		<tag k="name" v="Mellemhaugen" />
		<tag k="natural" v="hill" />
		<tag k="place" v="locality" />
		<tag k="ssr:stedsnr" v="115841" />
	</node>
	<node lat="69.13366944284897" lon="18.138977774173096" id="-41902">
		<tag k="name" v="Kleivmyrbakkan" />
=======
		<tag k="ssr:stedsnr" v="933760" />
	</node>
	<node id="-867295" lat="69.0821638849" lon="18.3925999923">
		<tag k="name" v="Myrhaugen" />
		<tag k="natural" v="hill" />
		<tag k="place" v="locality" />
		<tag k="ssr:stedsnr" v="929578" />
	</node>
	<node id="-867290" lat="69.0390555583" lon="17.9733055516">
		<tag k="name" v="Gumpedalen - Gumpevággi" />
		<tag k="name:no" v="Gumpedalen" />
		<tag k="name:se" v="Gumpevággi" />
		<tag k="natural" v="valley" />
		<tag k="place" v="locality" />
		<tag k="ssr:stedsnr" v="929280" />
	</node>
	<node id="-867288" lat="69.02125833" lon="18.1037305487">
		<tag k="name" v="Loktariehppi" />
		<tag k="name:se" v="Loktariehppi" />
		<tag k="natural" v="valley" />
		<tag k="old_name:se" v="Låktarieppi" />
		<tag k="place" v="locality" />
		<tag k="ssr:stedsnr" v="928883" />
	</node>
	<node id="-867287" lat="69.1974416672" lon="18.3266694441">
		<tag k="name" v="Falkebergan" />
		<tag k="natural" v="hill" />
		<tag k="place" v="locality" />
		<tag k="ssr:stedsnr" v="928694" />
	</node>
	<node id="-867286" lat="69.1871972232" lon="18.1581472118">
		<tag k="alt_name" v="Djupvågskardet" />
		<tag k="name" v="Djupvågskaret" />
		<tag k="natural" v="valley" />
		<tag k="place" v="locality" />
		<tag k="ssr:stedsnr" v="928686" />
	</node>
	<node id="-867274" lat="69.0503083304" lon="17.9569694301">
		<tag k="name" v="Tangenhaugen" />
		<tag k="natural" v="hill" />
		<tag k="place" v="locality" />
		<tag k="ssr:stedsnr" v="780054" />
	</node>
	<node id="-867271" lat="69.014202777" lon="18.1054805543">
		<tag k="fixme" v="consider natural=peak for the most distinct mountains in the district" />
		<tag k="name" v="Skredtinden - Juovvačohkka" />
		<tag k="name:no" v="Skredtinden" />
		<tag k="name:se" v="Juovvačohkka" />
		<tag k="natural" v="hill" />
		<tag k="old_name:se" v="Juovvačåkka" />
		<tag k="place" v="locality" />
		<tag k="ssr:stedsnr" v="746857" />
	</node>
	<node id="-867265" lat="69.1161194461" lon="18.2561999916">
		<tag k="name" v="Durmålsdalen" />
		<tag k="natural" v="valley" />
		<tag k="place" v="locality" />
		<tag k="ssr:stedsnr" v="906285" />
	</node>
	<node id="-867264" lat="69.1096611111" lon="18.2737055604">
		<tag k="name" v="Bergedalen" />
		<tag k="natural" v="valley" />
		<tag k="place" v="locality" />
		<tag k="ssr:stedsnr" v="906284" />
	</node>
	<node id="-867261" lat="69.1469861071" lon="18.2339166732">
		<tag k="name" v="Liene" />
>>>>>>> e1d4bc35ff8a6074a6f2e91616a996b547c36f15
		<tag k="natural" v="slope" />
		<tag k="place" v="locality" />
		<tag k="ssr:stedsnr" v="906368" />
	</node>
<<<<<<< HEAD
	<node lat="69.14404722518816" lon="18.182655541196127" id="-41905">
		<tag k="fixme" v="consider natural=peak for the most distinct mountains in the district" />
		<tag k="name" v="Kollen" />
		<tag k="natural" v="hill" />
		<tag k="place" v="locality" />
		<tag k="ssr:stedsnr" v="117385" />
	</node>
	<node lat="69.14447222061283" lon="17.967024998096598" id="-41907">
		<tag k="name" v="Håkjerringdalen" />
		<tag k="natural" v="valley" />
		<tag k="place" v="locality" />
		<tag k="ssr:stedsnr" v="139308" />
	</node>
	<node lat="69.04440555745677" lon="18.05720833300581" id="-41921">
		<tag k="alt_name" v="Svartberghumpen" />
		<tag k="fixme" v="consider natural=peak for the most distinct mountains in the district" />
		<tag k="name" v="Svartberghumpan" />
		<tag k="natural" v="hill" />
		<tag k="place" v="locality" />
		<tag k="ssr:stedsnr" v="140910" />
	</node>
	<node lat="69.1369388915628" lon="17.93560555146806" id="-41923">
		<tag k="name" v="Aspemoen" />
		<tag k="place" v="locality" />
		<tag k="ssr:stedsnr" v="172095" />
	</node>
	<node lat="69.04922222287162" lon="18.006411101237035" id="-41926">
		<tag k="name" v="Skjellrabben" />
		<tag k="natural" v="hill" />
		<tag k="place" v="locality" />
		<tag k="ssr:stedsnr" v="172144" />
	</node>
	<node lat="69.0450777762345" lon="18.034866650467823" id="-41927">
		<tag k="name" v="Svartberget" />
		<tag k="natural" v="hill" />
		<tag k="place" v="locality" />
		<tag k="ssr:stedsnr" v="172145" />
	</node>
	<node lat="69.03975277971001" lon="17.946522229332356" id="-41928">
		<tag k="name" v="Svartberget" />
		<tag k="natural" v="hill" />
		<tag k="place" v="locality" />
		<tag k="ssr:stedsnr" v="173049" />
	</node>
	<node lat="69.1691555589033" lon="18.080372230989745" id="-41934">
		<tag k="fixme" v="consider natural=peak for the most distinct mountains in the district" />
		<tag k="name" v="Storvikfjellet" />
		<tag k="natural" v="hill" />
		<tag k="place" v="locality" />
		<tag k="ssr:stedsnr" v="176658" />
	</node>
	<node lat="69.12081110676924" lon="18.05959999643265" id="-41936">
		<tag k="name" v="Jordbrumoen" />
		<tag k="place" v="locality" />
		<tag k="ssr:stedsnr" v="176839" />
	</node>
	<node lat="69.11952222337568" lon="18.085644453321787" id="-41937">
		<tag k="name" v="Friarmoen" />
		<tag k="place" v="locality" />
		<tag k="ssr:stedsnr" v="176842" />
	</node>
	<node lat="69.11566666252992" lon="18.206833339458797" id="-41938">
		<tag k="name" v="Mosletta" />
		<tag k="place" v="locality" />
		<tag k="ssr:stedsnr" v="178340" />
	</node>
	<node lat="69.07151110940106" lon="18.122055552978797" id="-41942">
		<tag k="name" v="Lurosariehppi" />
		<tag k="name:se" v="Lurosariehppi" />
		<tag k="natural" v="valley" />
		<tag k="old_name:se" v="Lurusarieppi" />
		<tag k="place" v="locality" />
		<tag k="ssr:stedsnr" v="200608" />
	</node>
	<node lat="69.08036944202976" lon="18.378980539471726" id="-41945">
		<tag k="alt_name" v="Fagerheimslia" />
		<tag k="name" v="Fagerheimlia" />
		<tag k="natural" v="slope" />
		<tag k="place" v="locality" />
		<tag k="ssr:stedsnr" v="200625" />
	</node>
	<node lat="69.10848610772402" lon="18.30598609404413" id="-41948">
		<tag k="fixme" v="consider natural=peak for the most distinct mountains in the district" />
		<tag k="name" v="Bergsnaua" />
		<tag k="natural" v="hill" />
		<tag k="place" v="locality" />
		<tag k="ssr:stedsnr" v="200574" />
	</node>
	<node lat="69.1373194473276" lon="17.960644453288815" id="-41953">
		<tag k="alt_name" v="Bjørga, store" />
		<tag k="name" v="Store Bjørga" />
=======
	<node id="-867260" lat="69.1111805547" lon="18.2405194341">
		<tag k="name" v="Høgda" />
		<tag k="natural" v="ridge" />
		<tag k="place" v="locality" />
		<tag k="ssr:stedsnr" v="906359" />
	</node>
	<node id="-867259" lat="69.1448500049" lon="18.013658322">
		<tag k="fixme" v="consider natural=peak for the most distinct mountains in the district" />
		<tag k="name" v="Rennelikollen" />
		<tag k="natural" v="hill" />
		<tag k="place" v="locality" />
		<tag k="ssr:stedsnr" v="739906" />
	</node>
	<node id="-867258" lat="69.1303194465" lon="18.0383305461">
		<tag k="name" v="Sandhamran" />
		<tag k="natural" v="hill" />
		<tag k="place" v="locality" />
		<tag k="ssr:stedsnr" v="904899" />
	</node>
	<node id="-867256" lat="69.1355361161" lon="18.1067999873">
		<tag k="name" v="Litjevasshaugen" />
		<tag k="natural" v="hill" />
		<tag k="place" v="locality" />
		<tag k="ssr:stedsnr" v="904885" />
	</node>
	<node id="-867254" lat="69.1231333325" lon="18.1021500027">
		<tag k="name" v="Finnkonghaugen" />
		<tag k="natural" v="hill" />
		<tag k="place" v="locality" />
		<tag k="ssr:stedsnr" v="904840" />
	</node>
	<node id="-867249" lat="69.0895083309" lon="18.3840361099">
		<tag k="name" v="Austtjønnlia" />
		<tag k="natural" v="slope" />
		<tag k="place" v="locality" />
		<tag k="ssr:stedsnr" v="904164" />
	</node>
	<node id="-867247" lat="69.0870305581" lon="18.2734388783">
		<tag k="name" v="Høglirabban" />
		<tag k="natural" v="hill" />
		<tag k="place" v="locality" />
		<tag k="ssr:stedsnr" v="904351" />
	</node>
	<node id="-867246" lat="69.0909777822" lon="18.0831110989">
		<tag k="name" v="Vendingselvdalen" />
		<tag k="natural" v="valley" />
		<tag k="place" v="locality" />
		<tag k="ssr:stedsnr" v="903892" />
	</node>
	<node id="-867245" lat="69.0880083325" lon="18.0657666714">
		<tag k="name" v="Kobbhola" />
		<tag k="natural" v="slope" />
		<tag k="place" v="locality" />
		<tag k="ssr:stedsnr" v="903890" />
	</node>
	<node id="-867244" lat="69.0938805518" lon="18.0403472256">
		<tag k="name" v="Liflata" />
		<tag k="place" v="locality" />
		<tag k="ssr:stedsnr" v="903888" />
	</node>
	<node id="-867242" lat="69.1667305537" lon="18.204641658">
		<tag k="name" v="Langlia" />
		<tag k="natural" v="slope" />
		<tag k="place" v="locality" />
		<tag k="ssr:stedsnr" v="901282" />
	</node>
	<node id="-867241" lat="69.0488277799" lon="17.9262694543">
		<tag k="name" v="Rundhaugen" />
		<tag k="natural" v="hill" />
		<tag k="place" v="locality" />
		<tag k="ssr:stedsnr" v="901043" />
	</node>
	<node id="-867240" lat="69.1435000014" lon="17.9439555498">
		<tag k="name" v="Reinsletta" />
		<tag k="place" v="locality" />
		<tag k="ssr:stedsnr" v="900135" />
	</node>
	<node id="-867239" lat="69.1450972237" lon="17.9591527741">
		<tag k="name" v="Svarteflåget" />
		<tag k="natural" v="hill" />
		<tag k="place" v="locality" />
		<tag k="ssr:stedsnr" v="900132" />
	</node>
	<node id="-867237" lat="69.1434972208" lon="17.9206749945">
		<tag k="name" v="Sildeberget" />
		<tag k="natural" v="hill" />
		<tag k="place" v="locality" />
		<tag k="ssr:stedsnr" v="900078" />
	</node>
	<node id="-867234" lat="69.1076972203" lon="18.2552249922">
		<tag k="name" v="Sauhaugen" />
		<tag k="natural" v="hill" />
		<tag k="place" v="locality" />
		<tag k="ssr:stedsnr" v="724220" />
	</node>
	<node id="-867228" lat="69.13783889" lon="18.0484944321">
		<tag k="name" v="Kjerringa" />
		<tag k="natural" v="hill" />
		<tag k="place" v="locality" />
		<tag k="ssr:stedsnr" v="661923" />
	</node>
	<node id="-867217" lat="69.1273388861" lon="17.9229027686">
		<tag k="name" v="Øvre mollbakken" />
		<tag k="natural" v="slope" />
		<tag k="place" v="locality" />
		<tag k="ssr:stedsnr" v="657113" />
	</node>
	<node id="-867215" lat="69.1201666699" lon="17.9687861142">
		<tag k="name" v="Baklia" />
		<tag k="natural" v="slope" />
		<tag k="place" v="locality" />
		<tag k="ssr:stedsnr" v="657105" />
	</node>
	<node id="-867213" lat="69.0763861125" lon="18.0883138787">
		<tag k="fixme" v="consider natural=peak for the most distinct mountains in the district" />
		<tag k="name" v="Middagsfjellet - Gaskavuomvárri" />
		<tag k="name:no" v="Middagsfjellet" />
		<tag k="name:se" v="Gaskavuomvárri" />
>>>>>>> e1d4bc35ff8a6074a6f2e91616a996b547c36f15
		<tag k="natural" v="hill" />
		<tag k="old_name:se" v="Gaskavuomvarri" />
		<tag k="place" v="locality" />
<<<<<<< HEAD
		<tag k="ssr:stedsnr" v="201274" />
	</node>
	<node lat="69.12720833609649" lon="18.133855548549064" id="-41957">
		<tag k="name" v="Dikemyrbakkan" />
		<tag k="natural" v="slope" />
		<tag k="place" v="locality" />
		<tag k="ssr:stedsnr" v="297839" />
	</node>
	<node lat="69.11017777346544" lon="18.063069441819916" id="-41958">
		<tag k="name" v="Torvhaugen" />
		<tag k="natural" v="hill" />
		<tag k="place" v="locality" />
		<tag k="ssr:stedsnr" v="297848" />
	</node>
	<node lat="69.20095833637009" lon="18.10156667298503" id="-41959">
		<tag k="name" v="Hemmingsjordskaret" />
		<tag k="natural" v="valley" />
		<tag k="place" v="locality" />
		<tag k="ssr:stedsnr" v="292547" />
	</node>
	<node lat="69.0718999971696" lon="17.9655722137302" id="-41960">
		<tag k="name" v="Stillelvhaugan" />
		<tag k="natural" v="hill" />
		<tag k="place" v="locality" />
		<tag k="ssr:stedsnr" v="293042" />
	</node>
	<node lat="69.13256110958976" lon="17.93425556386141" id="-41962">
		<tag k="name" v="Fjellenden" />
		<tag k="natural" v="hill" />
		<tag k="place" v="locality" />
		<tag k="ssr:stedsnr" v="293120" />
	</node>
	<node lat="69.13680555743778" lon="17.924063883048618" id="-41964">
		<tag k="name" v="Rypmoen" />
		<tag k="place" v="locality" />
		<tag k="ssr:stedsnr" v="293139" />
	</node>
	<node lat="69.1436888895494" lon="17.93551389878051" id="-41965">
		<tag k="name" v="Nonshaugen" />
		<tag k="natural" v="hill" />
		<tag k="place" v="locality" />
		<tag k="ssr:stedsnr" v="293147" />
	</node>
	<node lat="69.13997500210459" lon="17.94878055242803" id="-41966">
		<tag k="name" v="Bjørnskaret" />
		<tag k="natural" v="valley" />
		<tag k="place" v="locality" />
		<tag k="ssr:stedsnr" v="293148" />
	</node>
	<node lat="69.15550277791986" lon="18.189269446373203" id="-41967">
		<tag k="name" v="Høgda" />
		<tag k="natural" v="hill" />
		<tag k="place" v="locality" />
		<tag k="ssr:stedsnr" v="294283" />
	</node>
	<node lat="69.12759166710855" lon="18.348769429092425" id="-41968">
		<tag k="name" v="Vegavassheia" />
		<tag k="natural" v="hill" />
		<tag k="place" v="locality" />
		<tag k="ssr:stedsnr" v="294379" />
	</node>
	<node lat="69.09783333659468" lon="18.011024997885645" id="-41969">
		<tag k="name" v="Litjelyshaugen" />
		<tag k="natural" v="hill" />
		<tag k="place" v="locality" />
		<tag k="ssr:stedsnr" v="296583" />
	</node>
	<node lat="69.08370000298778" lon="18.232230545098112" id="-41973">
		<tag k="name" v="Sæterlibakkan" />
		<tag k="natural" v="slope" />
		<tag k="place" v="locality" />
		<tag k="ssr:stedsnr" v="297352" />
	</node>
	<node lat="69.12260555663333" lon="18.397369444299724" id="-41976">
		<tag k="name" v="Kamplia" />
		<tag k="natural" v="slope" />
		<tag k="place" v="locality" />
		<tag k="ssr:stedsnr" v="297914" />
	</node>
	<node lat="69.109377782082" lon="18.28392777412199" id="-41977">
		<tag k="name" v="Slåttdalen" />
		<tag k="natural" v="valley" />
		<tag k="place" v="locality" />
		<tag k="ssr:stedsnr" v="299303" />
	</node>
	<node lat="69.02162499938999" lon="18.254211111971742" id="-41981">
		<tag k="fixme" v="consider natural=peak for the most distinct mountains in the district" />
		<tag k="name" v="Veidfjellet - Bálggesnjunni" />
		<tag k="name:no" v="Veidfjellet" />
		<tag k="name:se" v="Bálggesnjunni" />
		<tag k="natural" v="hill" />
		<tag k="old_name:se" v="Balgesnjunni" />
		<tag k="place" v="locality" />
		<tag k="ssr:stedsnr" v="321875" />
	</node>
	<node lat="69.10828332859583" lon="17.958813893926997" id="-41982">
		<tag k="alt_name" v="Knuthola, l" />
		<tag k="name" v="Litje-Knuthola" />
		<tag k="natural" v="valley" />
		<tag k="place" v="locality" />
		<tag k="ssr:stedsnr" v="322238" />
	</node>
	<node lat="69.1340972229338" lon="18.01787500666673" id="-41985">
		<tag k="fixme" v="consider natural=peak for the most distinct mountains in the district" />
		<tag k="name" v="Svartåsen" />
		<tag k="natural" v="hill" />
		<tag k="place" v="locality" />
		<tag k="ssr:stedsnr" v="322542" />
	</node>
	<node lat="69.1487277780146" lon="17.964013888007884" id="-41988">
		<tag k="name" v="Klubben" />
		<tag k="place" v="locality" />
		<tag k="ssr:stedsnr" v="354134" />
	</node>
	<node lat="69.02321388517716" lon="18.060694433172433" id="-41989">
		<tag k="name" v="Storhaugen" />
		<tag k="natural" v="hill" />
		<tag k="place" v="locality" />
		<tag k="ssr:stedsnr" v="354170" />
	</node>
	<node lat="69.0522194439101" lon="17.930736116200165" id="-41992">
		<tag k="name" v="Vahaugen" />
		<tag k="natural" v="hill" />
		<tag k="place" v="locality" />
		<tag k="ssr:stedsnr" v="355047" />
	</node>
	<node lat="69.09610277922394" lon="18.37748609512121" id="-41993">
		<tag k="name" v="Austtjønnberget" />
		<tag k="natural" v="hill" />
		<tag k="place" v="locality" />
		<tag k="ssr:stedsnr" v="357144" />
	</node>
	<node lat="69.10203055612922" lon="18.3064666527269" id="-41995">
		<tag k="name" v="Solstadlia" />
		<tag k="natural" v="slope" />
		<tag k="place" v="locality" />
		<tag k="ssr:stedsnr" v="357342" />
	</node>
	<node lat="69.118613892976" lon="18.346002767830406" id="-41996">
		<tag k="name" v="Vegavasshaugen" />
		<tag k="natural" v="hill" />
		<tag k="place" v="locality" />
		<tag k="ssr:stedsnr" v="357898" />
	</node>
	<node lat="69.09218055373071" lon="18.049952780070466" id="-42000">
		<tag k="name" v="Humpen" />
		<tag k="place" v="locality" />
		<tag k="ssr:stedsnr" v="357880" />
	</node>
	<node lat="69.0774722234723" lon="18.03889720683066" id="-42001">
		<tag k="name" v="Grønnlia" />
		<tag k="natural" v="slope" />
		<tag k="place" v="locality" />
		<tag k="ssr:stedsnr" v="357896" />
	</node>
	<node lat="69.14580278049092" lon="18.164947220428726" id="-42003">
		<tag k="name" v="Engsletta" />
		<tag k="place" v="locality" />
		<tag k="ssr:stedsnr" v="358859" />
	</node>
	<node lat="69.12423055246175" lon="18.32541111706702" id="-42006">
		<tag k="name" v="Vegavasshumpen" />
		<tag k="natural" v="hill" />
		<tag k="place" v="locality" />
		<tag k="ssr:stedsnr" v="360232" />
	</node>
	<node lat="69.10089722376854" lon="17.943244447042627" id="-42009">
		<tag k="alt_name" v="Knuthola, store" />
		<tag k="name" v="Stor-Knuthola" />
		<tag k="natural" v="valley" />
		<tag k="place" v="locality" />
		<tag k="ssr:stedsnr" v="382247" />
	</node>
	<node lat="69.04563055500977" lon="18.096111115323545" id="-42010">
		<tag k="fixme" v="consider natural=peak for the most distinct mountains in the district" />
		<tag k="name" v="Tverrfjellet" />
		<tag k="natural" v="hill" />
		<tag k="place" v="locality" />
		<tag k="ssr:stedsnr" v="382096" />
	</node>
	<node lat="69.08757500182843" lon="18.06765000067753" id="-42014">
		<tag k="fixme" v="consider natural=peak for the most distinct mountains in the district" />
		<tag k="name" v="Kobben - Gobbá" />
		<tag k="name:no" v="Kobben" />
		<tag k="name:se" v="Gobbá" />
		<tag k="natural" v="hill" />
		<tag k="old_name:se" v="Gåbba" />
		<tag k="place" v="locality" />
		<tag k="ssr:stedsnr" v="382571" />
	</node>
	<node lat="69.09917499700862" lon="18.11453055051458" id="-42015">
		<tag k="name" v="Råtenhola - Guohcagohpi" />
		<tag k="name:no" v="Råtenhola" />
		<tag k="name:se" v="Guohcagohpi" />
		<tag k="natural" v="valley" />
		<tag k="old_name:se" v="Guoccagåppi" />
		<tag k="place" v="locality" />
		<tag k="ssr:stedsnr" v="382580" />
	</node>
	<node lat="69.06073333596434" lon="18.181097222795177" id="-42018">
		<tag k="name" v="Storsteinlia" />
		<tag k="natural" v="slope" />
		<tag k="place" v="locality" />
		<tag k="ssr:stedsnr" v="382595" />
	</node>
	<node lat="69.06080833207443" lon="18.063680557247547" id="-42019">
		<tag k="name" v="Reindalen" />
		<tag k="natural" v="valley" />
		<tag k="place" v="locality" />
		<tag k="ssr:stedsnr" v="382601" />
	</node>
	<node lat="69.02809999559695" lon="18.091225004149877" id="-42020">
		<tag k="fixme" v="consider natural=peak for the most distinct mountains in the district" />
		<tag k="name" v="Durmålstinden" />
		<tag k="natural" v="hill" />
		<tag k="place" v="locality" />
		<tag k="ssr:stedsnr" v="382877" />
	</node>
	<node lat="69.05152500273289" lon="18.026194431811795" id="-42021">
		<tag k="alt_name" v="Skardet" />
		<tag k="name" v="Skaret" />
		<tag k="natural" v="valley" />
		<tag k="place" v="locality" />
		<tag k="ssr:stedsnr" v="382892" />
	</node>
	<node lat="69.0139588122478" lon="18.125148571078675" id="-42022">
		<tag k="fixme" v="consider natural=peak for the most distinct mountains in the district" />
		<tag k="loc_name:no" v="Ortinden" />
		<tag k="name" v="Duolboalgi" />
		<tag k="name:se" v="Duolboalgi" />
		<tag k="natural" v="hill" />
		<tag k="place" v="locality" />
		<tag k="ssr:stedsnr" v="382936" />
	</node>
	<node lat="69.187733333236" lon="18.292283330053507" id="-42027">
		<tag k="name" v="Øverfosslia" />
		<tag k="natural" v="slope" />
		<tag k="place" v="locality" />
		<tag k="ssr:stedsnr" v="415328" />
	</node>
	<node lat="69.06835833404243" lon="18.186599987050027" id="-42030">
		<tag k="name" v="Storlia" />
		<tag k="natural" v="slope" />
		<tag k="place" v="locality" />
		<tag k="ssr:stedsnr" v="418331" />
	</node>
	<node lat="69.10196944231213" lon="18.01292499135651" id="-42031">
		<tag k="name" v="Storbakken" />
		<tag k="natural" v="slope" />
		<tag k="place" v="locality" />
		<tag k="ssr:stedsnr" v="418575" />
	</node>
	<node lat="69.10062499769805" lon="18.15466111338342" id="-42032">
		<tag k="name" v="Dalflatene" />
		<tag k="place" v="locality" />
		<tag k="ssr:stedsnr" v="418874" />
	</node>
	<node lat="69.06079444553203" lon="18.224502764393133" id="-42033">
		<tag k="name" v="Hesjelia" />
		<tag k="natural" v="slope" />
		<tag k="place" v="locality" />
		<tag k="ssr:stedsnr" v="419627" />
	</node>
	<node lat="69.1104722218095" lon="18.277827782469" id="-42035">
		<tag k="fixme" v="consider natural=peak for the most distinct mountains in the district" />
		<tag k="name" v="Bergedalskanten" />
		<tag k="natural" v="hill" />
		<tag k="place" v="locality" />
		<tag k="ssr:stedsnr" v="421257" />
	</node>
	<node lat="69.14713333416802" lon="18.02005000703962" id="-42040">
		<tag k="name" v="Gildran" />
		<tag k="natural" v="hill" />
		<tag k="place" v="locality" />
		<tag k="ssr:stedsnr" v="443522" />
	</node>
	<node lat="69.1095083307952" lon="18.284075000113095" id="-42043">
		<tag k="name" v="Slåttdalen" />
		<tag k="natural" v="valley" />
		<tag k="place" v="locality" />
		<tag k="ssr:stedsnr" v="443555" />
	</node>
	<node lat="69.04633333554415" lon="18.142774993683275" id="-42048">
		<tag k="name" v="Missarinriehppi" />
		<tag k="name:se" v="Missarinriehppi" />
		<tag k="natural" v="valley" />
		<tag k="old_name:se" v="Missarinrieppi" />
		<tag k="place" v="locality" />
		<tag k="ssr:stedsnr" v="443887" />
	</node>
	<node lat="68.9955666633213" lon="18.226888886143996" id="-42049">
		<tag k="fixme" v="consider natural=peak for the most distinct mountains in the district" />
		<tag k="name" v="Hjerttinden - Basečohkka" />
		<tag k="name:no" v="Hjerttinden" />
		<tag k="name:se" v="Basečohkka" />
		<tag k="natural" v="hill" />
		<tag k="old_name:se" v="Basečåkka" />
		<tag k="place" v="locality" />
		<tag k="ssr:stedsnr" v="448648" />
	</node>
	<node lat="69.10316667034488" lon="18.261641662122468" id="-42051">
		<tag k="fixme" v="consider natural=peak for the most distinct mountains in the district" />
		<tag k="name" v="Høgda" />
		<tag k="natural" v="hill" />
		<tag k="place" v="locality" />
		<tag k="ssr:stedsnr" v="503550" />
	</node>
	<node lat="69.20023055714711" lon="18.18428054636979" id="-42053">
		<tag k="name" v="Nils-Ånesahaugen" />
		<tag k="natural" v="hill" />
		<tag k="place" v="locality" />
		<tag k="ssr:stedsnr" v="503663" />
	</node>
	<node lat="69.18930555728741" lon="18.07340276980467" id="-42054">
		<tag k="name" v="Karbergmoan" />
		<tag k="place" v="locality" />
		<tag k="ssr:stedsnr" v="503666" />
	</node>
	<node lat="69.19422499648496" lon="18.1309194368301" id="-42055">
		<tag k="fixme" v="consider natural=peak for the most distinct mountains in the district" />
		<tag k="name" v="Svartfjellet" />
		<tag k="natural" v="hill" />
		<tag k="place" v="locality" />
		<tag k="ssr:stedsnr" v="503667" />
	</node>
	<node lat="69.02818888964514" lon="18.057194435130516" id="-42056">
		<tag k="name" v="Opphaugen" />
		<tag k="natural" v="slope" />
		<tag k="place" v="locality" />
		<tag k="ssr:stedsnr" v="503834" />
	</node>
	<node lat="69.058894446901" lon="17.96320555258308" id="-42058">
		<tag k="name" v="Gumpelia" />
		<tag k="natural" v="slope" />
		<tag k="place" v="locality" />
		<tag k="ssr:stedsnr" v="504335" />
	</node>
	<node lat="69.15643889163287" lon="18.193788881444615" id="-42061">
		<tag k="alt_name" v="Bolhaugen" />
		<tag k="name" v="Bollhaugen" />
		<tag k="natural" v="hill" />
		<tag k="place" v="locality" />
		<tag k="ssr:stedsnr" v="504541" />
	</node>
	<node lat="69.13579999879835" lon="18.01415000509957" id="-42063">
		<tag k="name" v="Vasskardet" />
		<tag k="natural" v="valley" />
		<tag k="place" v="locality" />
		<tag k="ssr:stedsnr" v="504556" />
	</node>
	<node lat="69.06888611528557" lon="18.15092498982637" id="-42064">
		<tag k="name" v="Jonsahaugen" />
		<tag k="natural" v="hill" />
		<tag k="place" v="locality" />
		<tag k="ssr:stedsnr" v="504621" />
	</node>
	<node lat="69.03970000456309" lon="18.19955832048097" id="-42066">
		<tag k="name" v="Rabbåsdalen - Skuhppi" />
		<tag k="name:no" v="Rabbåsdalen" />
		<tag k="name:se" v="Skuhppi" />
		<tag k="natural" v="valley" />
		<tag k="old_name:se" v="Skuppi" />
		<tag k="place" v="locality" />
		<tag k="ssr:stedsnr" v="504900" />
	</node>
	<node lat="69.19549721840718" lon="18.076938882750998" id="-42068">
		<tag k="name" v="Kirkhaugen" />
		<tag k="natural" v="hill" />
		<tag k="place" v="locality" />
		<tag k="ssr:stedsnr" v="535550" />
	</node>
	<node lat="69.04228056044627" lon="18.047030546567576" id="-42069">
		<tag k="name" v="Langbergan" />
		<tag k="natural" v="hill" />
		<tag k="place" v="locality" />
		<tag k="ssr:stedsnr" v="536152" />
	</node>
	<node lat="69.03083333180784" lon="18.050600005011898" id="-42070">
		<tag k="name" v="Hestesletta" />
		<tag k="place" v="locality" />
		<tag k="ssr:stedsnr" v="536153" />
	</node>
	<node lat="69.06376111119788" lon="18.189019435887218" id="-42072">
		<tag k="name" v="Bergedalen" />
=======
		<tag k="ssr:stedsnr" v="629608" />
	</node>
	<node id="-867210" lat="69.0782888856" lon="18.4255722242">
		<tag k="name" v="Trolldalen" />
		<tag k="natural" v="valley" />
		<tag k="place" v="locality" />
		<tag k="ssr:stedsnr" v="625610" />
	</node>
	<node id="-867209" lat="69.0652499968" lon="18.0678083255">
		<tag k="name" v="Josvadalen" />
		<tag k="natural" v="valley" />
		<tag k="place" v="locality" />
		<tag k="ssr:stedsnr" v="625605" />
	</node>
	<node id="-867206" lat="69.121855558" lon="18.2272250084">
		<tag k="name" v="Brattlia" />
		<tag k="natural" v="slope" />
		<tag k="place" v="locality" />
		<tag k="ssr:stedsnr" v="724336" />
	</node>
	<node id="-867205" lat="69.1236416661" lon="18.2320222125">
		<tag k="name" v="Storbekkdalen" />
		<tag k="natural" v="valley" />
		<tag k="place" v="locality" />
		<tag k="ssr:stedsnr" v="724335" />
	</node>
	<node id="-867201" lat="69.1391249978" lon="18.1286416518">
		<tag k="name" v="Trollhaugen" />
		<tag k="natural" v="hill" />
		<tag k="place" v="locality" />
		<tag k="ssr:stedsnr" v="722892" />
	</node>
	<node id="-867198" lat="69.1873972193" lon="18.0884527835">
		<tag k="name" v="Høglinsletta" />
		<tag k="place" v="locality" />
		<tag k="ssr:stedsnr" v="722735" />
	</node>
	<node id="-867196" lat="69.1668833343" lon="18.1048111058">
		<tag k="name" v="Øverland" />
		<tag k="place" v="locality" />
		<tag k="ssr:stedsnr" v="722682" />
	</node>
	<node id="-867193" lat="69.0561500047" lon="18.2276499927">
		<tag k="name" v="Berglia" />
		<tag k="natural" v="slope" />
		<tag k="place" v="locality" />
		<tag k="ssr:stedsnr" v="722642" />
	</node>
	<node id="-867192" lat="69.2080805578" lon="18.3169222097">
		<tag k="name" v="Svartåsdalen" />
		<tag k="natural" v="valley" />
		<tag k="place" v="locality" />
		<tag k="ssr:stedsnr" v="722158" />
	</node>
	<node id="-867191" lat="69.0750194471" lon="18.3942833189">
		<tag k="name" v="Brattbakken" />
		<tag k="natural" v="slope" />
		<tag k="place" v="locality" />
		<tag k="ssr:stedsnr" v="721906" />
	</node>
	<node id="-867190" lat="69.0837861101" lon="18.015708321">
		<tag k="name" v="Gumpnova" />
		<tag k="place" v="locality" />
		<tag k="ssr:stedsnr" v="721905" />
	</node>
	<node id="-867188" lat="69.1434638918" lon="18.2857861062">
		<tag k="fixme" v="consider natural=peak for the most distinct mountains in the district" />
		<tag k="name" v="Snaufjellbruna" />
		<tag k="natural" v="hill" />
		<tag k="place" v="locality" />
		<tag k="ssr:stedsnr" v="719276" />
	</node>
	<node id="-867185" lat="69.1467166648" lon="17.9639416666">
		<tag k="fixme" v="consider natural=peak for the most distinct mountains in the district" />
		<tag k="name" v="Brattbjørga" />
		<tag k="natural" v="hill" />
		<tag k="place" v="locality" />
		<tag k="ssr:stedsnr" v="718128" />
	</node>
	<node id="-867182" lat="69.1363166658" lon="17.9063249848">
		<tag k="name" v="Lia" />
		<tag k="natural" v="slope" />
		<tag k="place" v="locality" />
		<tag k="ssr:stedsnr" v="718080" />
	</node>
	<node id="-867181" lat="69.1948222181" lon="18.2839361159">
		<tag k="name" v="Nerfosslia" />
		<tag k="natural" v="slope" />
		<tag k="place" v="locality" />
		<tag k="ssr:stedsnr" v="600152" />
	</node>
	<node id="-867179" lat="69.0321749956" lon="17.970711111">
		<tag k="name" v="Kvilarhaugen" />
		<tag k="natural" v="hill" />
		<tag k="place" v="locality" />
		<tag k="ssr:stedsnr" v="597056" />
	</node>
	<node id="-867168" lat="69.1144305545" lon="18.068611111">
		<tag k="name" v="Svartdalen" />
		<tag k="natural" v="valley" />
		<tag k="place" v="locality" />
		<tag k="ssr:stedsnr" v="540837" />
	</node>
	<node id="-867167" lat="69.1158500041" lon="18.0161111086">
		<tag k="name" v="Fossdalen" />
		<tag k="natural" v="valley" />
		<tag k="place" v="locality" />
		<tag k="ssr:stedsnr" v="540831" />
	</node>
	<node id="-867166" lat="69.1258972186" lon="18.1509444348">
		<tag k="name" v="Grunnvabakkan" />
		<tag k="natural" v="slope" />
		<tag k="place" v="locality" />
		<tag k="ssr:stedsnr" v="540826" />
	</node>
	<node id="-867165" lat="69.1265638861" lon="18.118838891">
		<tag k="name" v="Kuskulen" />
		<tag k="natural" v="hill" />
		<tag k="place" v="locality" />
		<tag k="ssr:stedsnr" v="540818" />
	</node>
	<node id="-867164" lat="69.1153166641" lon="18.162511116">
		<tag k="name" v="Geitryggen" />
		<tag k="place" v="locality" />
		<tag k="ssr:stedsnr" v="540814" />
	</node>
	<node id="-867162" lat="69.0308333318" lon="18.050600005">
		<tag k="name" v="Hestesletta" />
		<tag k="place" v="locality" />
		<tag k="ssr:stedsnr" v="536153" />
	</node>
	<node id="-867161" lat="69.0422805604" lon="18.0470305466">
		<tag k="name" v="Langbergan" />
		<tag k="natural" v="hill" />
		<tag k="place" v="locality" />
		<tag k="ssr:stedsnr" v="536152" />
	</node>
	<node id="-867160" lat="69.0613277763" lon="18.0014972203">
		<tag k="fixme" v="consider natural=peak for the most distinct mountains in the district" />
		<tag k="name" v="Høggumpen - Gearsoaivi" />
		<tag k="name:no" v="Høggumpen" />
		<tag k="name:se" v="Gearsoaivi" />
		<tag k="natural" v="hill" />
		<tag k="place" v="locality" />
		<tag k="ssr:stedsnr" v="688376" />
	</node>
	<node id="-867154" lat="69.0813000001" lon="18.0187472094">
		<tag k="fixme" v="consider natural=peak for the most distinct mountains in the district" />
		<tag k="name" v="Flatgumpen" />
		<tag k="natural" v="hill" />
		<tag k="place" v="locality" />
		<tag k="ssr:stedsnr" v="686609" />
	</node>
	<node id="-867147" lat="69.1416305575" lon="17.9217444331">
		<tag k="alt_name" v="Bjørga, l" />
		<tag k="name" v="Litjebjørga" />
		<tag k="place" v="locality" />
		<tag k="ssr:stedsnr" v="686273" />
	</node>
	<node id="-867145" lat="69.1163722209" lon="17.9689361188">
		<tag k="fixme" v="consider natural=peak for the most distinct mountains in the district" />
		<tag k="name" v="Vardefjellet" />
		<tag k="natural" v="hill" />
		<tag k="place" v="locality" />
		<tag k="ssr:stedsnr" v="686257" />
	</node>
	<node id="-867134" lat="69.1402388885" lon="18.3333361033">
		<tag k="fixme" v="consider natural=peak for the most distinct mountains in the district" />
		<tag k="name" v="Vakkerhumpen - Čáppavárdu" />
		<tag k="name:no" v="Vakkerhumpen" />
		<tag k="name:se" v="Čáppavárdu" />
		<tag k="natural" v="hill" />
		<tag k="old_name:se" v="Čabbavardo" />
		<tag k="place" v="locality" />
		<tag k="ssr:stedsnr" v="685526" />
	</node>
	<node id="-867132" lat="69.1942249965" lon="18.1309194368">
		<tag k="fixme" v="consider natural=peak for the most distinct mountains in the district" />
		<tag k="name" v="Svartfjellet" />
		<tag k="natural" v="hill" />
		<tag k="place" v="locality" />
		<tag k="ssr:stedsnr" v="503667" />
	</node>
	<node id="-867131" lat="69.1893055573" lon="18.0734027698">
		<tag k="name" v="Karbergmoan" />
		<tag k="place" v="locality" />
		<tag k="ssr:stedsnr" v="503666" />
	</node>
	<node id="-867130" lat="69.2002305571" lon="18.1842805464">
		<tag k="name" v="Nils-Ånesahaugen" />
		<tag k="natural" v="hill" />
		<tag k="place" v="locality" />
		<tag k="ssr:stedsnr" v="503663" />
	</node>
	<node id="-867129" lat="69.129169448" lon="18.0987583437">
		<tag k="name" v="Kollen" />
		<tag k="natural" v="hill" />
		<tag k="place" v="locality" />
		<tag k="ssr:stedsnr" v="503531" />
	</node>
	<node id="-867124" lat="69.0953194433" lon="18.2225388909">
		<tag k="fixme" v="consider natural=peak for the most distinct mountains in the district" />
		<tag k="name" v="Svartåsen" />
		<tag k="natural" v="hill" />
		<tag k="place" v="locality" />
		<tag k="ssr:stedsnr" v="503080" />
	</node>
	<node id="-867122" lat="69.118891665" lon="18.2320749902">
		<tag k="name" v="Kalhaugen" />
		<tag k="natural" v="hill" />
		<tag k="place" v="locality" />
		<tag k="ssr:stedsnr" v="299381" />
	</node>
	<node id="-867120" lat="69.1191638886" lon="18.309211101">
		<tag k="name" v="Brattstien" />
		<tag k="natural" v="slope" />
		<tag k="place" v="locality" />
		<tag k="ssr:stedsnr" v="299301" />
	</node>
	<node id="-867116" lat="69.1904722201" lon="18.0796861071">
		<tag k="name" v="Wittenberg" />
		<tag k="natural" v="hill" />
		<tag k="place" v="locality" />
		<tag k="ssr:stedsnr" v="479704" />
	</node>
	<node id="-867114" lat="69.1083777796" lon="18.0832055587">
		<tag k="name" v="Bjørnlihaugen" />
		<tag k="natural" v="hill" />
		<tag k="place" v="locality" />
		<tag k="ssr:stedsnr" v="479859" />
	</node>
	<node id="-867112" lat="69.0940777733" lon="18.2781888945">
		<tag k="name" v="Rabban" />
		<tag k="natural" v="hill" />
		<tag k="place" v="locality" />
		<tag k="ssr:stedsnr" v="479353" />
	</node>
	<node id="-867111" lat="69.1348555579" lon="18.2783944309">
		<tag k="name" v="Stabbursvasslia" />
		<tag k="natural" v="slope" />
		<tag k="place" v="locality" />
		<tag k="ssr:stedsnr" v="476259" />
	</node>
	<node id="-867110" lat="69.1325833309" lon="18.3681777604">
		<tag k="name" v="Heimskaret" />
		<tag k="natural" v="valley" />
		<tag k="place" v="locality" />
		<tag k="ssr:stedsnr" v="476362" />
	</node>
	<node id="-867105" lat="69.1215416706" lon="18.1655027636">
		<tag k="name" v="Grønnlia" />
		<tag k="natural" v="slope" />
		<tag k="place" v="locality" />
		<tag k="ssr:stedsnr" v="661841" />
	</node>
	<node id="-867104" lat="69.1117972217" lon="18.1425416638">
		<tag k="name" v="Bukkhola" />
		<tag k="natural" v="valley" />
		<tag k="place" v="locality" />
		<tag k="ssr:stedsnr" v="661823" />
	</node>
	<node id="-867101" lat="69.0523333319" lon="18.3281333315">
		<tag k="fixme" v="consider natural=peak for the most distinct mountains in the district" />
		<tag k="name" v="Matfjellenden" />
		<tag k="natural" v="hill" />
		<tag k="place" v="locality" />
		<tag k="ssr:stedsnr" v="661134" />
	</node>
	<node id="-867100" lat="68.9955666633" lon="18.2268888861">
		<tag k="fixme" v="consider natural=peak for the most distinct mountains in the district" />
		<tag k="name" v="Hjerttinden - Basečohkka" />
		<tag k="name:no" v="Hjerttinden" />
		<tag k="name:se" v="Basečohkka" />
		<tag k="natural" v="hill" />
		<tag k="old_name:se" v="Basečåkka" />
		<tag k="place" v="locality" />
		<tag k="ssr:stedsnr" v="448648" />
	</node>
	<node id="-867099" lat="69.1088777812" lon="18.2860666646">
		<tag k="name" v="Slåttdalskanten" />
		<tag k="natural" v="slope" />
		<tag k="place" v="locality" />
		<tag k="ssr:stedsnr" v="299280" />
	</node>
	<node id="-867098" lat="69.1574083289" lon="18.2115083373">
		<tag k="name" v="Steinlia" />
		<tag k="natural" v="slope" />
		<tag k="place" v="locality" />
		<tag k="ssr:stedsnr" v="658289" />
	</node>
	<node id="-867097" lat="69.0589222233" lon="17.9274888889">
		<tag k="name" v="Svartberget" />
		<tag k="natural" v="hill" />
		<tag k="place" v="locality" />
		<tag k="ssr:stedsnr" v="658049" />
	</node>
	<node id="-867096" lat="69.0836972188" lon="17.9916499957">
		<tag k="name" v="Vedjehaugen" />
		<tag k="natural" v="hill" />
		<tag k="place" v="locality" />
		<tag k="ssr:stedsnr" v="657042" />
	</node>
	<node id="-867092" lat="69.1949861148" lon="18.0595583227">
		<tag k="name" v="Vikran" />
		<tag k="natural" v="hill" />
		<tag k="place" v="locality" />
		<tag k="ssr:stedsnr" v="656558" />
	</node>
	<node id="-867090" lat="69.0607944455" lon="18.2245027644">
		<tag k="name" v="Hesjelia" />
		<tag k="natural" v="slope" />
		<tag k="place" v="locality" />
		<tag k="ssr:stedsnr" v="419627" />
	</node>
	<node id="-867089" lat="69.068358334" lon="18.1865999871">
		<tag k="name" v="Storlia" />
		<tag k="natural" v="slope" />
		<tag k="place" v="locality" />
		<tag k="ssr:stedsnr" v="418331" />
	</node>
	<node id="-867088" lat="69.0494527793" lon="18.3621000032">
		<tag k="name" v="Gearbmahabeassi" />
		<tag k="name:se" v="Gearbmahabeassi" />
		<tag k="natural" v="slope" />
		<tag k="old_name:se" v="Gærbmahabæssi" />
		<tag k="place" v="locality" />
		<tag k="ssr:stedsnr" v="504907" />
	</node>
	<node id="-867087" lat="69.0397000046" lon="18.1995583205">
		<tag k="name" v="Rabbåsdalen - Skuhppi" />
		<tag k="name:no" v="Rabbåsdalen" />
		<tag k="name:se" v="Skuhppi" />
>>>>>>> e1d4bc35ff8a6074a6f2e91616a996b547c36f15
		<tag k="natural" v="valley" />
		<tag k="old_name:se" v="Skuppi" />
		<tag k="place" v="locality" />
<<<<<<< HEAD
		<tag k="ssr:stedsnr" v="539295" />
	</node>
	<node lat="69.0742805573258" lon="18.38946943214278" id="-42074">
		<tag k="name" v="Fiskeberget" />
		<tag k="natural" v="hill" />
		<tag k="place" v="locality" />
		<tag k="ssr:stedsnr" v="539899" />
	</node>
	<node lat="69.12656388612209" lon="18.11883889096119" id="-42075">
		<tag k="name" v="Kuskulen" />
		<tag k="natural" v="hill" />
		<tag k="place" v="locality" />
		<tag k="ssr:stedsnr" v="540818" />
	</node>
	<node lat="69.1258972185965" lon="18.15094443483955" id="-42076">
		<tag k="name" v="Grunnvabakkan" />
		<tag k="natural" v="slope" />
		<tag k="place" v="locality" />
		<tag k="ssr:stedsnr" v="540826" />
	</node>
	<node lat="69.11585000409038" lon="18.016111108644076" id="-42077">
		<tag k="name" v="Fossdalen" />
		<tag k="natural" v="valley" />
		<tag k="place" v="locality" />
		<tag k="ssr:stedsnr" v="540831" />
	</node>
	<node lat="69.11443055451096" lon="18.06861111099676" id="-42078">
		<tag k="name" v="Svartdalen" />
		<tag k="natural" v="valley" />
		<tag k="place" v="locality" />
		<tag k="ssr:stedsnr" v="540837" />
	</node>
	<node lat="69.12646389146529" lon="18.07726667030413" id="-42079">
		<tag k="name" v="Skavlia" />
		<tag k="natural" v="slope" />
		<tag k="place" v="locality" />
		<tag k="ssr:stedsnr" v="540844" />
	</node>
	<node lat="69.12324722704939" lon="18.07193332072974" id="-42080">
		<tag k="name" v="Storjorda" />
		<tag k="place" v="locality" />
		<tag k="ssr:stedsnr" v="540846" />
	</node>
	<node lat="69.11650278255482" lon="18.02726943410333" id="-42081">
		<tag k="name" v="Fossmoen" />
		<tag k="place" v="locality" />
		<tag k="ssr:stedsnr" v="540857" />
	</node>
	<node lat="69.14318888627726" lon="18.13289167222414" id="-42082">
		<tag k="name" v="Bonhaugen" />
		<tag k="natural" v="hill" />
		<tag k="place" v="locality" />
		<tag k="ssr:stedsnr" v="540862" />
	</node>
	<node lat="69.16128333007478" lon="18.093730546169166" id="-42084">
		<tag k="name" v="Simavikberget" />
		<tag k="natural" v="hill" />
		<tag k="place" v="locality" />
		<tag k="ssr:stedsnr" v="540655" />
	</node>
	<node lat="69.16736666639552" lon="18.118111109935604" id="-42085">
		<tag k="name" v="Vågstien" />
		<tag k="natural" v="hill" />
		<tag k="place" v="locality" />
		<tag k="ssr:stedsnr" v="540658" />
	</node>
	<node lat="69.16158888961834" lon="18.078788873822912" id="-42086">
		<tag k="name" v="Kjelvikberget" />
		<tag k="natural" v="hill" />
		<tag k="place" v="locality" />
		<tag k="ssr:stedsnr" v="540661" />
	</node>
	<node lat="69.13773610901644" lon="18.11386389565276" id="-42088">
		<tag k="name" v="Brekka" />
		<tag k="natural" v="slope" />
		<tag k="place" v="locality" />
		<tag k="ssr:stedsnr" v="540877" />
	</node>
	<node lat="69.1419916632418" lon="17.932905552638886" id="-42090">
		<tag k="name" v="Stormoen" />
		<tag k="place" v="locality" />
		<tag k="ssr:stedsnr" v="564094" />
	</node>
	<node lat="69.143447219211" lon="17.958827764469284" id="-42092">
		<tag k="fixme" v="consider natural=peak for the most distinct mountains in the district" />
		<tag k="name" v="Bjørgekollen" />
		<tag k="natural" v="hill" />
		<tag k="place" v="locality" />
		<tag k="ssr:stedsnr" v="564281" />
	</node>
	<node lat="69.14596667096026" lon="17.992238884711227" id="-42093">
		<tag k="name" v="Sildevikhøgda" />
		<tag k="natural" v="hill" />
		<tag k="place" v="locality" />
		<tag k="ssr:stedsnr" v="564284" />
	</node>
	<node lat="69.0764722250128" lon="18.046391651947456" id="-42095">
		<tag k="alt_name" v="Skarddalen" />
		<tag k="name" v="Skardalen" />
		<tag k="natural" v="valley" />
		<tag k="place" v="locality" />
		<tag k="ssr:stedsnr" v="564591" />
	</node>
	<node lat="69.13444166684815" lon="18.21875833554488" id="-42100">
		<tag k="name" v="Blomlia" />
		<tag k="natural" v="slope" />
		<tag k="place" v="locality" />
		<tag k="ssr:stedsnr" v="564552" />
	</node>
	<node lat="69.05901111418814" lon="18.35899443545539" id="-42105">
		<tag k="name" v="Kvannlia" />
		<tag k="natural" v="slope" />
		<tag k="place" v="locality" />
		<tag k="ssr:stedsnr" v="564886" />
	</node>
	<node lat="69.07624722173115" lon="18.420947229634113" id="-42108">
		<tag k="name" v="Søkkmyrrabban" />
		<tag k="natural" v="hill" />
		<tag k="place" v="locality" />
		<tag k="ssr:stedsnr" v="582593" />
	</node>
	<node lat="69.12163332975861" lon="17.976083322099573" id="-42110">
		<tag k="name" v="Ol-Gundersahaugen" />
		<tag k="natural" v="hill" />
		<tag k="place" v="locality" />
		<tag k="ssr:stedsnr" v="596111" />
	</node>
	<node lat="69.20529722277423" lon="18.08418888497117" id="-42113">
		<tag k="name" v="Jagarberget" />
		<tag k="natural" v="hill" />
		<tag k="place" v="locality" />
		<tag k="ssr:stedsnr" v="596519" />
	</node>
	<node lat="69.09226666317413" lon="18.00113054287808" id="-42115">
		<tag k="name" v="Kvitberget" />
		<tag k="natural" v="hill" />
		<tag k="place" v="locality" />
		<tag k="ssr:stedsnr" v="597035" />
	</node>
	<node lat="69.19482221809739" lon="18.2839361159031" id="-42119">
		<tag k="name" v="Nerfosslia" />
		<tag k="natural" v="slope" />
		<tag k="place" v="locality" />
		<tag k="ssr:stedsnr" v="600152" />
	</node>
	<node lat="69.09423889252565" lon="18.047058321937183" id="-42120">
		<tag k="name" v="Rundfjelldalen" />
		<tag k="natural" v="valley" />
		<tag k="place" v="locality" />
		<tag k="ssr:stedsnr" v="599894" />
	</node>
	<node lat="69.10198611560278" lon="18.119486099016928" id="-42121">
		<tag k="name" v="Heia" />
		<tag k="natural" v="hill" />
		<tag k="place" v="locality" />
		<tag k="ssr:stedsnr" v="599896" />
	</node>
	<node lat="69.04411388943512" lon="18.213800006788244" id="-42123">
		<tag k="name" v="Reingjerdan" />
		<tag k="natural" v="slope" />
		<tag k="place" v="locality" />
		<tag k="ssr:stedsnr" v="600596" />
	</node>
	<node lat="69.01262777458346" lon="18.1816333395904" id="-42126">
		<tag k="name" v="Hjerttindhola" />
		<tag k="natural" v="valley" />
		<tag k="place" v="locality" />
		<tag k="ssr:stedsnr" v="624923" />
	</node>
	<node lat="69.07828888564268" lon="18.425572224176538" id="-42127">
		<tag k="name" v="Trolldalen" />
		<tag k="natural" v="valley" />
		<tag k="place" v="locality" />
		<tag k="ssr:stedsnr" v="625610" />
	</node>
	<node lat="69.13807222199452" lon="18.243880563013224" id="-42132">
		<tag k="name" v="Bukkhollia" />
		<tag k="natural" v="slope" />
		<tag k="place" v="locality" />
		<tag k="ssr:stedsnr" v="625530" />
	</node>
	<node lat="69.05839444333617" lon="18.236474996425233" id="-42137">
		<tag k="alt_name" v="Slåttelien" />
		<tag k="name" v="Slåtteliene" />
		<tag k="natural" v="slope" />
		<tag k="place" v="locality" />
		<tag k="ssr:stedsnr" v="625893" />
	</node>
	<node lat="69.0763861124874" lon="18.088313878747478" id="-42140">
		<tag k="fixme" v="consider natural=peak for the most distinct mountains in the district" />
		<tag k="name" v="Middagsfjellet - Gaskavuomvárri" />
		<tag k="name:no" v="Middagsfjellet" />
		<tag k="name:se" v="Gaskavuomvárri" />
		<tag k="natural" v="hill" />
		<tag k="old_name:se" v="Gaskavuomvarri" />
		<tag k="place" v="locality" />
		<tag k="ssr:stedsnr" v="629608" />
	</node>
	<node lat="69.04565555356356" lon="18.436727778707386" id="-42143">
		<tag k="name" v="Koffertkrysset" />
		<tag k="place" v="locality" />
		<tag k="ssr:stedsnr" v="643636" />
	</node>
	<node lat="69.194986114786" lon="18.059558322728993" id="-42145">
		<tag k="name" v="Vikran" />
		<tag k="natural" v="hill" />
		<tag k="place" v="locality" />
		<tag k="ssr:stedsnr" v="656558" />
	</node>
	<node lat="69.05892222327448" lon="17.927488888851368" id="-42147">
		<tag k="name" v="Svartberget" />
		<tag k="natural" v="hill" />
		<tag k="place" v="locality" />
		<tag k="ssr:stedsnr" v="658049" />
	</node>
	<node lat="69.11179722166523" lon="18.142541663848405" id="-42153">
		<tag k="name" v="Bukkhola" />
=======
		<tag k="ssr:stedsnr" v="504900" />
	</node>
	<node id="-867086" lat="69.0688861153" lon="18.1509249898">
		<tag k="name" v="Jonsahaugen" />
		<tag k="natural" v="hill" />
		<tag k="place" v="locality" />
		<tag k="ssr:stedsnr" v="504621" />
	</node>
	<node id="-867084" lat="69.1357999988" lon="18.0141500051">
		<tag k="name" v="Vasskardet" />
		<tag k="natural" v="valley" />
		<tag k="place" v="locality" />
		<tag k="ssr:stedsnr" v="504556" />
	</node>
	<node id="-867082" lat="69.1564388916" lon="18.1937888814">
		<tag k="alt_name" v="Bolhaugen" />
		<tag k="name" v="Bollhaugen" />
		<tag k="natural" v="hill" />
		<tag k="place" v="locality" />
		<tag k="ssr:stedsnr" v="504541" />
	</node>
	<node id="-867079" lat="69.0588944469" lon="17.9632055526">
		<tag k="name" v="Gumpelia" />
		<tag k="natural" v="slope" />
		<tag k="place" v="locality" />
		<tag k="ssr:stedsnr" v="504335" />
	</node>
	<node id="-867077" lat="69.0281888896" lon="18.0571944351">
		<tag k="name" v="Opphaugen" />
		<tag k="natural" v="slope" />
		<tag k="place" v="locality" />
		<tag k="ssr:stedsnr" v="503834" />
	</node>
	<node id="-867075" lat="69.184877779" lon="18.1454527731">
		<tag k="name" v="Slettmoen" />
		<tag k="place" v="locality" />
		<tag k="ssr:stedsnr" v="503683" />
	</node>
	<node id="-867073" lat="69.1031666703" lon="18.2616416621">
		<tag k="fixme" v="consider natural=peak for the most distinct mountains in the district" />
		<tag k="name" v="Høgda" />
		<tag k="natural" v="hill" />
		<tag k="place" v="locality" />
		<tag k="ssr:stedsnr" v="503550" />
	</node>
	<node id="-867071" lat="69.1888611129" lon="18.1388194471">
		<tag k="name" v="Linabrekka" />
		<tag k="natural" v="hill" />
		<tag k="place" v="locality" />
		<tag k="ssr:stedsnr" v="503668" />
	</node>
	<node id="-867070" lat="69.1458027805" lon="18.1649472204">
		<tag k="name" v="Engsletta" />
		<tag k="place" v="locality" />
		<tag k="ssr:stedsnr" v="358859" />
	</node>
	<node id="-867067" lat="69.113575002" lon="18.2663166755">
		<tag k="fixme" v="consider natural=peak for the most distinct mountains in the district" />
		<tag k="name" v="Slettuva" />
		<tag k="natural" v="hill" />
		<tag k="place" v="locality" />
		<tag k="ssr:stedsnr" v="481291" />
	</node>
	<node id="-867066" lat="69.1449194429" lon="18.1839694311">
		<tag k="name" v="Brekkedalen" />
		<tag k="natural" v="valley" />
		<tag k="place" v="locality" />
		<tag k="ssr:stedsnr" v="481383" />
	</node>
	<node id="-867065" lat="69.1370777817" lon="18.2198277763">
		<tag k="name" v="Flatbrekka" />
		<tag k="natural" v="slope" />
		<tag k="place" v="locality" />
		<tag k="ssr:stedsnr" v="481377" />
	</node>
	<node id="-867061" lat="69.1044000014" lon="18.2046388853">
		<tag k="name" v="Langgrubba" />
		<tag k="place" v="locality" />
		<tag k="ssr:stedsnr" v="479497" />
	</node>
	<node id="-867059" lat="69.0695527774" lon="18.0559361014">
		<tag k="name" v="Reinhaugen" />
		<tag k="natural" v="hill" />
		<tag k="place" v="locality" />
		<tag k="ssr:stedsnr" v="478915" />
	</node>
	<node id="-867058" lat="69.0761777744" lon="18.0501722237">
		<tag k="name" v="Hestesletta" />
		<tag k="place" v="locality" />
		<tag k="ssr:stedsnr" v="478912" />
	</node>
	<node id="-867057" lat="69.1559916644" lon="18.2010777614">
		<tag k="name" v="Skjellbergan" />
		<tag k="natural" v="hill" />
		<tag k="place" v="locality" />
		<tag k="ssr:stedsnr" v="476292" />
	</node>
	<node id="-867056" lat="69.0393916642" lon="17.9655277648">
		<tag k="name" v="Finntjeldmoen" />
		<tag k="place" v="locality" />
		<tag k="ssr:stedsnr" v="476079" />
	</node>
	<node id="-867054" lat="69.0511388893" lon="17.9070277659">
		<tag k="name" v="Litjevassholtan" />
		<tag k="natural" v="hill" />
		<tag k="place" v="locality" />
		<tag k="ssr:stedsnr" v="476023" />
	</node>
	<node id="-867052" lat="69.1312805601" lon="18.0010860999">
		<tag k="name" v="Kvitfløya" />
		<tag k="natural" v="hill" />
		<tag k="place" v="locality" />
		<tag k="ssr:stedsnr" v="475100" />
	</node>
	<node id="-867051" lat="69.1429194432" lon="17.9250416596">
		<tag k="name" v="Ørnholla" />
		<tag k="natural" v="valley" />
		<tag k="place" v="locality" />
		<tag k="ssr:stedsnr" v="475077" />
	</node>
	<node id="-867050" lat="69.2035944437" lon="18.062666659">
		<tag k="name" v="Langhaugen" />
		<tag k="natural" v="hill" />
		<tag k="place" v="locality" />
		<tag k="ssr:stedsnr" v="474556" />
	</node>
	<node id="-867049" lat="69.1093777821" lon="18.2839277741">
		<tag k="name" v="Slåttdalen" />
		<tag k="natural" v="valley" />
		<tag k="place" v="locality" />
		<tag k="ssr:stedsnr" v="299303" />
	</node>
	<node id="-867048" lat="69.1226055566" lon="18.3973694443">
		<tag k="name" v="Kamplia" />
		<tag k="natural" v="slope" />
		<tag k="place" v="locality" />
		<tag k="ssr:stedsnr" v="297914" />
	</node>
	<node id="-867046" lat="69.0789611084" lon="18.3943416576">
		<tag k="name" v="Storbergan" />
		<tag k="natural" v="hill" />
		<tag k="place" v="locality" />
		<tag k="ssr:stedsnr" v="297908" />
	</node>
	<node id="-867045" lat="69.0498694495" lon="18.2178083193">
		<tag k="name" v="Veiddalen" />
		<tag k="natural" v="valley" />
		<tag k="place" v="locality" />
		<tag k="ssr:stedsnr" v="297613" />
	</node>
	<node id="-867043" lat="68.9877916651" lon="18.0442361093">
		<tag k="fixme" v="consider natural=peak for the most distinct mountains in the district" />
		<tag k="name" v="Geađgebatvárri" />
		<tag k="name:se" v="Geađgebatvárri" />
		<tag k="natural" v="hill" />
		<tag k="old_name:se" v="Gædgebatvarri" />
		<tag k="place" v="locality" />
		<tag k="ssr:stedsnr" v="270316" />
	</node>
	<node id="-867036" lat="69.0819194446" lon="18.407263883">
		<tag k="name" v="Lytterhaugen" />
		<tag k="natural" v="hill" />
		<tag k="place" v="locality" />
		<tag k="ssr:stedsnr" v="236912" />
	</node>
	<node id="-867035" lat="69.0463333355" lon="18.1427749937">
		<tag k="name" v="Missarinriehppi" />
		<tag k="name:se" v="Missarinriehppi" />
>>>>>>> e1d4bc35ff8a6074a6f2e91616a996b547c36f15
		<tag k="natural" v="valley" />
		<tag k="old_name:se" v="Missarinrieppi" />
		<tag k="place" v="locality" />
<<<<<<< HEAD
		<tag k="ssr:stedsnr" v="661823" />
	</node>
	<node lat="69.13783889000466" lon="18.048494432135247" id="-42158">
		<tag k="name" v="Kjerringa" />
		<tag k="natural" v="hill" />
		<tag k="place" v="locality" />
		<tag k="ssr:stedsnr" v="661923" />
	</node>
	<node lat="69.13631666575054" lon="17.906324984824764" id="-42163">
		<tag k="name" v="Lia" />
		<tag k="natural" v="slope" />
		<tag k="place" v="locality" />
		<tag k="ssr:stedsnr" v="718080" />
	</node>
	<node lat="69.2080805578435" lon="18.31692220967795" id="-42167">
		<tag k="name" v="Svartåsdalen" />
		<tag k="natural" v="valley" />
		<tag k="place" v="locality" />
		<tag k="ssr:stedsnr" v="722158" />
	</node>
	<node lat="69.16688333431297" lon="18.104811105783686" id="-42170">
		<tag k="name" v="Øverland" />
		<tag k="place" v="locality" />
		<tag k="ssr:stedsnr" v="722682" />
	</node>
	<node lat="69.05615000471552" lon="18.227649992690512" id="-42172">
		<tag k="name" v="Berglia" />
		<tag k="natural" v="slope" />
		<tag k="place" v="locality" />
		<tag k="ssr:stedsnr" v="722642" />
	</node>
	<node lat="69.18739721933349" lon="18.08845278351386" id="-42173">
		<tag k="name" v="Høglinsletta" />
		<tag k="place" v="locality" />
		<tag k="ssr:stedsnr" v="722735" />
	</node>
	<node lat="69.13912499784703" lon="18.128641651760994" id="-42174">
		<tag k="name" v="Trollhaugen" />
		<tag k="natural" v="hill" />
		<tag k="place" v="locality" />
		<tag k="ssr:stedsnr" v="722892" />
	</node>
	<node lat="69.1236416660972" lon="18.23202221248314" id="-42177">
		<tag k="name" v="Storbekkdalen" />
		<tag k="natural" v="valley" />
		<tag k="place" v="locality" />
		<tag k="ssr:stedsnr" v="724335" />
	</node>
	<node lat="69.12185555804297" lon="18.227225008384472" id="-42178">
		<tag k="name" v="Brattlia" />
		<tag k="natural" v="slope" />
		<tag k="place" v="locality" />
		<tag k="ssr:stedsnr" v="724336" />
	</node>
	<node lat="69.10769722033336" lon="18.255224992185507" id="-42179">
		<tag k="name" v="Sauhaugen" />
		<tag k="natural" v="hill" />
		<tag k="place" v="locality" />
		<tag k="ssr:stedsnr" v="724220" />
	</node>
	<node lat="69.14485000485723" lon="18.013658322031926" id="-42183">
		<tag k="fixme" v="consider natural=peak for the most distinct mountains in the district" />
		<tag k="name" v="Rennelikollen" />
		<tag k="natural" v="hill" />
		<tag k="place" v="locality" />
		<tag k="ssr:stedsnr" v="739906" />
	</node>
	<node lat="69.06729999862836" lon="18.230724996894306" id="-42187">
		<tag k="alt_name:se" v="Giegacåkka" />
		<tag k="fixme" v="consider natural=peak for the most distinct mountains in the district" />
		<tag k="name" v="Fuglåsen - Giegačohkka" />
		<tag k="name:no" v="Fuglåsen" />
		<tag k="name:se" v="Giegačohkka" />
		<tag k="natural" v="hill" />
		<tag k="place" v="locality" />
		<tag k="ssr:stedsnr" v="746595" />
	</node>
	<node lat="69.01420277703579" lon="18.105480554269548" id="-42190">
		<tag k="fixme" v="consider natural=peak for the most distinct mountains in the district" />
		<tag k="name" v="Skredtinden - Juovvačohkka" />
		<tag k="name:no" v="Skredtinden" />
		<tag k="name:se" v="Juovvačohkka" />
=======
		<tag k="ssr:stedsnr" v="443887" />
	</node>
	<node id="-867027" lat="69.1095083308" lon="18.2840750001">
		<tag k="name" v="Slåttdalen" />
		<tag k="natural" v="valley" />
		<tag k="place" v="locality" />
		<tag k="ssr:stedsnr" v="443555" />
	</node>
	<node id="-867021" lat="69.1471333342" lon="18.020050007">
		<tag k="name" v="Gildran" />
		<tag k="natural" v="hill" />
		<tag k="place" v="locality" />
		<tag k="ssr:stedsnr" v="443522" />
	</node>
	<node id="-867018" lat="69.1337499967" lon="18.0387972191">
		<tag k="name" v="Finnebrekka" />
		<tag k="natural" v="slope" />
		<tag k="place" v="locality" />
		<tag k="ssr:stedsnr" v="297887" />
	</node>
	<node id="-867015" lat="69.1101777735" lon="18.0630694418">
		<tag k="name" v="Torvhaugen" />
		<tag k="natural" v="hill" />
		<tag k="place" v="locality" />
		<tag k="ssr:stedsnr" v="297848" />
	</node>
	<node id="-867014" lat="69.1272083361" lon="18.1338555485">
		<tag k="name" v="Dikemyrbakkan" />
		<tag k="natural" v="slope" />
		<tag k="place" v="locality" />
		<tag k="ssr:stedsnr" v="297839" />
	</node>
	<node id="-867007" lat="69.083700003" lon="18.2322305451">
		<tag k="name" v="Sæterlibakkan" />
		<tag k="natural" v="slope" />
		<tag k="place" v="locality" />
		<tag k="ssr:stedsnr" v="297352" />
	</node>
	<node id="-867004" lat="69.0564305588" lon="18.3513944309">
		<tag k="name" v="Tverrelvdalen" />
		<tag k="natural" v="valley" />
		<tag k="place" v="locality" />
		<tag k="ssr:stedsnr" v="297171" />
	</node>
	<node id="-867002" lat="69.0978333366" lon="18.0110249979">
		<tag k="name" v="Litjelyshaugen" />
		<tag k="natural" v="hill" />
		<tag k="place" v="locality" />
		<tag k="ssr:stedsnr" v="296583" />
	</node>
	<node id="-867001" lat="69.1275916671" lon="18.3487694291">
		<tag k="name" v="Vegavassheia" />
		<tag k="natural" v="hill" />
		<tag k="place" v="locality" />
		<tag k="ssr:stedsnr" v="294379" />
	</node>
	<node id="-867000" lat="69.1555027779" lon="18.1892694464">
		<tag k="name" v="Høgda" />
>>>>>>> e1d4bc35ff8a6074a6f2e91616a996b547c36f15
		<tag k="natural" v="hill" />
		<tag k="old_name:se" v="Juovvačåkka" />
		<tag k="place" v="locality" />
<<<<<<< HEAD
		<tag k="ssr:stedsnr" v="746857" />
	</node>
	<node lat="69.02661110859293" lon="18.13219999252816" id="-42195">
		<tag k="name" v="Langdalen - Giepmestatvággi" />
		<tag k="name:no" v="Langdalen" />
		<tag k="name:se" v="Giepmestatvággi" />
		<tag k="natural" v="valley" />
		<tag k="old_name:se" v="Giebmestatvaggi" />
		<tag k="place" v="locality" />
		<tag k="ssr:stedsnr" v="751902" />
	</node>
	<node lat="69.11703610837988" lon="18.41538055543095" id="-42197">
		<tag k="name" v="Brannmoslåtten" />
		<tag k="place" v="locality" />
		<tag k="ssr:stedsnr" v="765572" />
	</node>
	<node lat="69.12875833751012" lon="17.96535277489321" id="-42200">
		<tag k="name" v="Espenesskaret" />
		<tag k="natural" v="valley" />
		<tag k="place" v="locality" />
		<tag k="ssr:stedsnr" v="779082" />
	</node>
	<node lat="69.12108611569049" lon="17.981847209633194" id="-42201">
		<tag k="name" v="Bjørnhiet" />
		<tag k="place" v="locality" />
		<tag k="ssr:stedsnr" v="779084" />
	</node>
	<node lat="69.11917777731247" lon="17.979394451749975" id="-42202">
		<tag k="name" v="Skøelvdalshøgda" />
		<tag k="place" v="locality" />
		<tag k="ssr:stedsnr" v="779085" />
	</node>
	<node lat="69.13056944084292" lon="17.916277765599567" id="-42203">
		<tag k="name" v="Mobakken" />
		<tag k="natural" v="hill" />
		<tag k="place" v="locality" />
		<tag k="ssr:stedsnr" v="779098" />
	</node>
	<node lat="69.102936106307" lon="17.9640833393851" id="-42204">
		<tag k="name" v="Steinfjellia" />
		<tag k="natural" v="slope" />
		<tag k="place" v="locality" />
		<tag k="ssr:stedsnr" v="780068" />
	</node>
	<node lat="69.10687500242152" lon="17.9503055655643" id="-42205">
		<tag k="fixme" v="consider natural=peak for the most distinct mountains in the district" />
		<tag k="name" v="Tunfjellet" />
		<tag k="natural" v="hill" />
		<tag k="place" v="locality" />
		<tag k="ssr:stedsnr" v="780070" />
	</node>
	<node lat="69.19586388502304" lon="18.28626388460862" id="-42206">
		<tag k="name" v="Nevermyrkråa" />
		<tag k="natural" v="slope" />
		<tag k="place" v="locality" />
		<tag k="ssr:stedsnr" v="782129" />
	</node>
	<node lat="69.1118472259025" lon="18.05414166784287" id="-42208">
		<tag k="name" v="Vidvarshaugen" />
		<tag k="natural" v="hill" />
		<tag k="place" v="locality" />
		<tag k="ssr:stedsnr" v="783844" />
	</node>
	<node lat="69.06168889384728" lon="18.1957055427472" id="-42209">
		<tag k="name" v="Finnheimen" />
		<tag k="place" v="locality" />
		<tag k="ssr:stedsnr" v="783630" />
	</node>
	<node lat="69.16566110852114" lon="18.103536100771688" id="-42212">
		<tag k="name" v="Ørnhola" />
		<tag k="natural" v="slope" />
		<tag k="place" v="locality" />
		<tag k="ssr:stedsnr" v="783657" />
	</node>
	<node lat="69.140375004184" lon="18.13631110641922" id="-42214">
		<tag k="name" v="Langhaugsletta" />
		<tag k="place" v="locality" />
		<tag k="ssr:stedsnr" v="783868" />
	</node>
	<node lat="69.12981111242229" lon="17.966894445109787" id="-42220">
		<tag k="alt_name" v="Espeneshaugen" />
		<tag k="name" v="Espeneshaugan" />
		<tag k="natural" v="hill" />
		<tag k="place" v="locality" />
		<tag k="ssr:stedsnr" v="807274" />
	</node>
	<node lat="69.02451667102912" lon="17.979347215182052" id="-42234">
		<tag k="fixme" v="consider natural=peak for the most distinct mountains in the district" />
		<tag k="name" v="Stortind" />
=======
		<tag k="ssr:stedsnr" v="294283" />
	</node>
	<node id="-866999" lat="69.1373194473" lon="17.9606444533">
		<tag k="alt_name" v="Bjørga, store" />
		<tag k="name" v="Store Bjørga" />
		<tag k="natural" v="hill" />
		<tag k="place" v="locality" />
		<tag k="ssr:stedsnr" v="201274" />
	</node>
	<node id="-866998" lat="69.0715111094" lon="18.122055553">
		<tag k="name" v="Lurosariehppi" />
		<tag k="name:se" v="Lurosariehppi" />
		<tag k="natural" v="valley" />
		<tag k="old_name:se" v="Lurusarieppi" />
		<tag k="place" v="locality" />
		<tag k="ssr:stedsnr" v="200608" />
	</node>
	<node id="-866996" lat="69.1399750021" lon="17.9487805524">
		<tag k="name" v="Bjørnskaret" />
		<tag k="natural" v="valley" />
		<tag k="place" v="locality" />
		<tag k="ssr:stedsnr" v="293148" />
	</node>
	<node id="-866995" lat="69.1436888895" lon="17.9355138988">
		<tag k="name" v="Nonshaugen" />
		<tag k="natural" v="hill" />
		<tag k="place" v="locality" />
		<tag k="ssr:stedsnr" v="293147" />
	</node>
	<node id="-866994" lat="69.1368055574" lon="17.924063883">
		<tag k="name" v="Rypmoen" />
		<tag k="place" v="locality" />
		<tag k="ssr:stedsnr" v="293139" />
	</node>
	<node id="-866991" lat="69.1325611096" lon="17.9342555639">
		<tag k="name" v="Fjellenden" />
		<tag k="natural" v="hill" />
		<tag k="place" v="locality" />
		<tag k="ssr:stedsnr" v="293120" />
	</node>
	<node id="-866989" lat="69.0718999972" lon="17.9655722137">
		<tag k="name" v="Stillelvhaugan" />
		<tag k="natural" v="hill" />
		<tag k="place" v="locality" />
		<tag k="ssr:stedsnr" v="293042" />
	</node>
	<node id="-866988" lat="69.2009583364" lon="18.101566673">
		<tag k="name" v="Hemmingsjordskaret" />
		<tag k="natural" v="valley" />
		<tag k="place" v="locality" />
		<tag k="ssr:stedsnr" v="292547" />
	</node>
	<node id="-866987" lat="69.1937027776" lon="18.0647833331">
		<tag k="name" v="Ellingmyrhaugen" />
		<tag k="natural" v="hill" />
		<tag k="place" v="locality" />
		<tag k="ssr:stedsnr" v="292531" />
	</node>
	<node id="-866986" lat="69.214991668" lon="18.3035972268">
		<tag k="name" v="Langmobergan" />
		<tag k="natural" v="hill" />
		<tag k="place" v="locality" />
		<tag k="ssr:stedsnr" v="172512" />
	</node>
	<node id="-866981" lat="69.0444055575" lon="18.057208333">
		<tag k="alt_name" v="Svartberghumpen" />
		<tag k="fixme" v="consider natural=peak for the most distinct mountains in the district" />
		<tag k="name" v="Svartberghumpan" />
		<tag k="natural" v="hill" />
		<tag k="place" v="locality" />
		<tag k="ssr:stedsnr" v="140910" />
	</node>
	<node id="-866979" lat="69.1444722206" lon="17.9670249981">
		<tag k="name" v="Håkjerringdalen" />
		<tag k="natural" v="valley" />
		<tag k="place" v="locality" />
		<tag k="ssr:stedsnr" v="139308" />
	</node>
	<node id="-866978" lat="69.0631388932" lon="18.1181249975">
		<tag k="fixme" v="consider natural=peak for the most distinct mountains in the district" />
		<tag k="name" v="Storlifjellet - Lurosavárri" />
		<tag k="name:no" v="Storlifjellet" />
		<tag k="name:se" v="Lurosavárri" />
>>>>>>> e1d4bc35ff8a6074a6f2e91616a996b547c36f15
		<tag k="natural" v="hill" />
		<tag k="old_name:se" v="Lurusavarri" />
		<tag k="place" v="locality" />
<<<<<<< HEAD
		<tag k="ssr:stedsnr" v="808624" />
	</node>
	<node lat="69.20111110707884" lon="18.084447226161128" id="-42237">
		<tag k="name" v="Litjeholtet" />
		<tag k="natural" v="hill" />
		<tag k="place" v="locality" />
		<tag k="ssr:stedsnr" v="839571" />
	</node>
	<node lat="69.09843610847554" lon="18.29724999035734" id="-42239">
		<tag k="name" v="Storvasslia" />
		<tag k="natural" v="slope" />
		<tag k="place" v="locality" />
		<tag k="ssr:stedsnr" v="843343" />
	</node>
	<node lat="69.0891500004099" lon="18.00919721281652" id="-42241">
		<tag k="name" v="Reingjerdan" />
		<tag k="natural" v="slope" />
		<tag k="place" v="locality" />
		<tag k="ssr:stedsnr" v="843886" />
	</node>
	<node lat="69.09736388641818" lon="18.054480559323927" id="-42242">
		<tag k="name" v="Oterlia" />
		<tag k="natural" v="slope" />
		<tag k="place" v="locality" />
		<tag k="ssr:stedsnr" v="843887" />
	</node>
	<node lat="69.07454722140547" lon="18.062999985795653" id="-42243">
		<tag k="name" v="Skreddalen" />
		<tag k="natural" v="valley" />
		<tag k="place" v="locality" />
		<tag k="ssr:stedsnr" v="843905" />
	</node>
	<node lat="69.12367777539579" lon="18.156241654587756" id="-42244">
		<tag k="name" v="Krøkemyrbakkan" />
		<tag k="natural" v="slope" />
		<tag k="place" v="locality" />
		<tag k="ssr:stedsnr" v="844834" />
	</node>
	<node lat="69.11671388899603" lon="18.042111096784513" id="-42246">
		<tag k="name" v="Vargemoen" />
		<tag k="place" v="locality" />
		<tag k="ssr:stedsnr" v="844842" />
	</node>
	<node lat="69.14403332993402" lon="18.026594441174364" id="-42250">
		<tag k="name" v="Falkefløya" />
		<tag k="natural" v="hill" />
		<tag k="place" v="locality" />
		<tag k="ssr:stedsnr" v="860934" />
	</node>
	<node lat="69.11092500054806" lon="17.957255565083273" id="-42251">
		<tag k="fixme" v="multiple name tags, choose one and add the other to alt_name" />
		<tag k="name" v="Småbergan;Brørne" />
		<tag k="natural" v="hill" />
		<tag k="place" v="locality" />
		<tag k="ssr:stedsnr" v="868247" />
	</node>
	<node lat="69.06916666765129" lon="18.25750832364957" id="-42255">
		<tag k="fixme" v="consider natural=peak for the most distinct mountains in the district" />
		<tag k="name" v="Holavassrabban - Gielas" />
		<tag k="name:no" v="Holavassrabban" />
		<tag k="name:se" v="Gielas" />
		<tag k="natural" v="hill" />
		<tag k="place" v="locality" />
		<tag k="ssr:stedsnr" v="868587" />
	</node>
	<node lat="68.99428333041529" lon="18.036672214066957" id="-42257">
		<tag k="fixme" v="consider natural=peak for the most distinct mountains in the district" />
		<tag k="name" v="Steinfjellet - Stuorageađgoaivi" />
		<tag k="name:no" v="Steinfjellet" />
		<tag k="name:se" v="Stuorageađgoaivi" />
		<tag k="natural" v="hill" />
		<tag k="place" v="locality" />
		<tag k="ssr:stedsnr" v="868596" />
	</node>
	<node lat="69.03070833328084" lon="18.01292220681455" id="-42259">
		<tag k="name" v="Fallbekkbergan" />
		<tag k="natural" v="hill" />
		<tag k="place" v="locality" />
		<tag k="ssr:stedsnr" v="868846" />
	</node>
	<node lat="69.05943055852204" lon="18.2676111208633" id="-42260">
		<tag k="fixme" v="consider natural=peak for the most distinct mountains in the district" />
		<tag k="name" v="Matfjellet - Máttavárri" />
		<tag k="name:no" v="Matfjellet" />
		<tag k="name:se" v="Máttavárri" />
=======
		<tag k="ssr:stedsnr" v="266601" />
	</node>
	<node id="-866977" lat="69.0063777782" lon="18.1397694292">
		<tag k="fixme" v="consider natural=peak for the most distinct mountains in the district" />
		<tag k="name" v="Gievdnečohkka" />
		<tag k="name:se" v="Gievdnečohkka" />
		<tag k="natural" v="hill" />
		<tag k="old_name:se" v="Gievdnečåkka" />
		<tag k="place" v="locality" />
		<tag k="ssr:stedsnr" v="261908" />
	</node>
	<node id="-866976" lat="69.0487333376" lon="18.3789472251">
		<tag k="fixme" v="consider natural=peak for the most distinct mountains in the district" />
		<tag k="name" v="Sørhusfjellet" />
		<tag k="natural" v="hill" />
		<tag k="place" v="locality" />
		<tag k="ssr:stedsnr" v="261869" />
	</node>
	<node id="-866973" lat="69.1208444474" lon="18.0198333355">
		<tag k="name" v="Mellemhaugen" />
		<tag k="natural" v="hill" />
		<tag k="place" v="locality" />
		<tag k="ssr:stedsnr" v="115841" />
	</node>
	<node id="-866972" lat="69.123083329" lon="18.0196277834">
		<tag k="name" v="Venneselvdalen" />
		<tag k="natural" v="valley" />
		<tag k="place" v="locality" />
		<tag k="ssr:stedsnr" v="115835" />
	</node>
	<node id="-866971" lat="69.1233611077" lon="18.1355694329">
		<tag k="name" v="Storelvhaugen" />
		<tag k="natural" v="hill" />
		<tag k="place" v="locality" />
		<tag k="ssr:stedsnr" v="115825" />
	</node>
	<node id="-866970" lat="69.120558329" lon="18.1440916728">
		<tag k="name" v="Hansemyrbakkan" />
		<tag k="natural" v="slope" />
		<tag k="place" v="locality" />
		<tag k="ssr:stedsnr" v="115823" />
	</node>
	<node id="-866966" lat="69.1930527823" lon="18.2193694367">
		<tag k="alt_name" v="Skjelfjellet" />
		<tag k="fixme" v="consider natural=peak for the most distinct mountains in the district" />
		<tag k="name" v="Skjellfjellet" />
		<tag k="natural" v="hill" />
		<tag k="place" v="locality" />
		<tag k="ssr:stedsnr" v="261702" />
	</node>
	<node id="-866959" lat="69.1361333366" lon="18.0673611018">
		<tag k="alt_name" v="Rambergan" />
		<tag k="name" v="Ramberg" />
		<tag k="natural" v="hill" />
		<tag k="place" v="locality" />
		<tag k="ssr:stedsnr" v="261557" />
	</node>
	<node id="-866954" lat="69.1424944437" lon="17.9996222308">
		<tag k="name" v="Sildevikdalen" />
		<tag k="natural" v="valley" />
		<tag k="place" v="locality" />
		<tag k="ssr:stedsnr" v="111124" />
	</node>
	<node id="-866949" lat="69.0993073618" lon="17.929405073">
		<tag k="fixme" v="consider natural=peak for the most distinct mountains in the district" />
		<tag k="name" v="Reinaksla" />
		<tag k="natural" v="hill" />
		<tag k="place" v="locality" />
		<tag k="ssr:stedsnr" v="79240" />
	</node>
	<node id="-866947" lat="69.1136333332" lon="18.2361527692">
		<tag k="name" v="Bekkedalen" />
		<tag k="natural" v="valley" />
		<tag k="place" v="locality" />
		<tag k="ssr:stedsnr" v="239338" />
	</node>
	<node id="-866946" lat="69.0641222245" lon="18.2937916618">
		<tag k="fixme" v="consider natural=peak for the most distinct mountains in the district" />
		<tag k="name" v="Grønnfjellet" />
>>>>>>> e1d4bc35ff8a6074a6f2e91616a996b547c36f15
		<tag k="natural" v="hill" />
		<tag k="old_name:se" v="Maddavarri" />
		<tag k="place" v="locality" />
<<<<<<< HEAD
		<tag k="ssr:stedsnr" v="873876" />
	</node>
	<node lat="69.13711111155354" lon="17.960811118188655" id="-42261">
		<tag k="fixme" v="consider natural=peak for the most distinct mountains in the district" />
		<tag k="name" v="Storebjørga" />
		<tag k="natural" v="hill" />
		<tag k="place" v="locality" />
		<tag k="ssr:stedsnr" v="874256" />
	</node>
	<node lat="69.07951110782048" lon="18.41533887472604" id="-42264">
		<tag k="name" v="Søkkmyrlia" />
		<tag k="natural" v="slope" />
		<tag k="place" v="locality" />
		<tag k="ssr:stedsnr" v="947558" />
	</node>
	<node lat="69.02281666737373" lon="18.06362777030756" id="-42266">
		<tag k="name" v="Rundhaugen" />
		<tag k="natural" v="hill" />
		<tag k="place" v="locality" />
		<tag k="ssr:stedsnr" v="961149" />
	</node>
	<node lat="69.08672222015375" lon="18.380966653535495" id="-42268">
		<tag k="name" v="Rundhaugen" />
		<tag k="natural" v="hill" />
		<tag k="place" v="locality" />
		<tag k="ssr:stedsnr" v="964185" />
	</node>
	<node lat="69.06748333766292" lon="18.216052769296898" id="-42271">
		<tag k="name" v="Fugllia" />
		<tag k="natural" v="slope" />
		<tag k="place" v="locality" />
		<tag k="ssr:stedsnr" v="964363" />
	</node>
	<node lat="69.12550833350969" lon="18.35801109488329" id="-42272">
		<tag k="name" v="Kampkråa" />
		<tag k="natural" v="hill" />
		<tag k="place" v="locality" />
		<tag k="ssr:stedsnr" v="964882" />
	</node>
	<node lat="69.12437222298577" lon="18.088494450594997" id="-42276">
		<tag k="name" v="Harhaugen" />
		<tag k="natural" v="hill" />
		<tag k="place" v="locality" />
		<tag k="ssr:stedsnr" v="965851" />
	</node>
	<node lat="69.13439722006689" lon="18.143438893875604" id="-42277">
		<tag k="name" v="Kleiva" />
		<tag k="natural" v="slope" />
		<tag k="place" v="locality" />
		<tag k="ssr:stedsnr" v="965854" />
	</node>
	<node lat="69.14151666424868" lon="18.137594442442367" id="-42278">
		<tag k="name" v="Langhaugen" />
		<tag k="natural" v="hill" />
		<tag k="place" v="locality" />
		<tag k="ssr:stedsnr" v="965866" />
	</node>
	<node lat="69.14521111021048" lon="18.163791668321398" id="-42279">
		<tag k="name" v="Engslettbakken" />
		<tag k="natural" v="slope" />
		<tag k="place" v="locality" />
		<tag k="ssr:stedsnr" v="965869" />
	</node>
	<node lat="69.107161110237" lon="18.19781388412081" id="-42281">
		<tag k="name" v="Påldalen" />
		<tag k="natural" v="valley" />
		<tag k="place" v="locality" />
		<tag k="ssr:stedsnr" v="967321" />
=======
		<tag k="ssr:stedsnr" v="57351" />
	</node>
	<node id="-866945" lat="69.1295638879" lon="18.1189972167">
		<tag k="name" v="Per-Svensaholene" />
		<tag k="natural" v="slope" />
		<tag k="place" v="locality" />
		<tag k="ssr:stedsnr" v="237867" />
	</node>
	<node id="-866944" lat="69.1226166689" lon="18.0780083348">
		<tag k="name" v="Grønnlidalen" />
		<tag k="natural" v="valley" />
		<tag k="place" v="locality" />
		<tag k="ssr:stedsnr" v="237840" />
	</node>
	<node id="-866942" lat="69.1150694447" lon="18.1260638816">
		<tag k="name" v="Botolvmyrliene" />
		<tag k="natural" v="slope" />
		<tag k="place" v="locality" />
		<tag k="ssr:stedsnr" v="237830" />
	</node>
	<node id="-866936" lat="69.0895861142" lon="18.0578138776">
		<tag k="name" v="Kvitfløya" />
		<tag k="place" v="locality" />
		<tag k="ssr:stedsnr" v="54903" />
	</node>
	<node id="-866935" lat="69.0886777755" lon="18.3586944419">
		<tag k="name" v="Midtlia" />
		<tag k="natural" v="slope" />
		<tag k="place" v="locality" />
		<tag k="ssr:stedsnr" v="54152" />
	</node>
	<node id="-866930" lat="69.1438777801" lon="18.3035916564">
		<tag k="fixme" v="consider natural=peak for the most distinct mountains in the district" />
		<tag k="name" v="Snaufjellet" />
		<tag k="natural" v="hill" />
		<tag k="place" v="locality" />
		<tag k="ssr:stedsnr" v="51303" />
	</node>
	<node id="-866929" lat="69.1441277747" lon="17.9319499982">
		<tag k="name" v="Stordalen" />
		<tag k="natural" v="valley" />
		<tag k="place" v="locality" />
		<tag k="ssr:stedsnr" v="51121" />
	</node>
	<node id="-866927" lat="69.0506083311" lon="17.9234860954">
		<tag k="name" v="Reingjerdhaugen" />
		<tag k="natural" v="hill" />
		<tag k="place" v="locality" />
		<tag k="ssr:stedsnr" v="51020" />
	</node>
	<node id="-866925" lat="69.0955861145" lon="18.0538416682">
		<tag k="fixme" v="consider natural=peak for the most distinct mountains in the district" />
		<tag k="name" v="Rundfjellet" />
		<tag k="natural" v="hill" />
		<tag k="place" v="locality" />
		<tag k="ssr:stedsnr" v="236888" />
	</node>
	<node id="-866924" lat="69.0999277762" lon="18.0752055445">
		<tag k="name" v="Durmålskaret" />
		<tag k="natural" v="valley" />
		<tag k="place" v="locality" />
		<tag k="ssr:stedsnr" v="236879" />
	</node>
	<node id="-866920" lat="69.1589166656" lon="18.1867138795">
		<tag k="name" v="Litjebollhaugen" />
		<tag k="natural" v="hill" />
		<tag k="place" v="locality" />
		<tag k="ssr:stedsnr" v="233331" />
	</node>
	<node id="-866917" lat="69.1331972215" lon="18.3219055417">
		<tag k="name" v="Vakkerhumplia" />
		<tag k="natural" v="slope" />
		<tag k="place" v="locality" />
		<tag k="ssr:stedsnr" v="233280" />
	</node>
	<node id="-866915" lat="69.0811333327" lon="17.9933583202">
		<tag k="name" v="Langranden" />
		<tag k="natural" v="slope" />
		<tag k="place" v="locality" />
		<tag k="ssr:stedsnr" v="233043" />
	</node>
	<node id="-866914" lat="69.1361944408" lon="18.0053222212">
		<tag k="name" v="Falkefjellnova" />
		<tag k="natural" v="ridge" />
		<tag k="place" v="locality" />
		<tag k="ssr:stedsnr" v="232098" />
	</node>
	<node id="-866911" lat="69.0282305576" lon="17.9579222087">
		<tag k="alt_name" v="Reinberget" />
		<tag k="name" v="Reinbergan" />
		<tag k="natural" v="hill" />
		<tag k="place" v="locality" />
		<tag k="ssr:stedsnr" v="19601" />
	</node>
	<node id="-866909" lat="69.1446222217" lon="18.0420583193">
		<tag k="name" v="Lihornet" />
		<tag k="place" v="locality" />
		<tag k="ssr:stedsnr" v="11912" />
>>>>>>> e1d4bc35ff8a6074a6f2e91616a996b547c36f15
	</node>
</osm>
