<?xml version="1.0" encoding="UTF-8"?>
<<<<<<< HEAD
<osm version="0.6" generator="osmapis">
	<node lat="69.13675833113714" lon="17.918477778854594" id="-41425">
		<tag k="name" v="Ol-Gundermyra" />
		<tag k="natural" v="wetland" />
		<tag k="ssr:stedsnr" v="232114" />
	</node>
	<node lat="69.04304721899233" lon="17.93038887819553" id="-41427">
		<tag k="name" v="Russetomta" />
		<tag k="place" v="locality" />
		<tag k="ssr:stedsnr" v="233056" />
	</node>
	<node lat="69.08201944290124" lon="18.221855548337544" id="-41435">
		<tag k="name" v="Sæterlimyrene" />
=======
<osm generator="osmapis" version="0.6">
	<node id="-867200" lat="69.107586115" lon="18.0726222103">
		<tag k="name" v="Langmyra" />
		<tag k="natural" v="wetland" />
		<tag k="ssr:stedsnr" v="722864" />
	</node>
	<node id="-867710" lat="69.1051055532" lon="18.2832888784">
		<tag k="name" v="Rundmyra" />
		<tag k="natural" v="wetland" />
		<tag k="ssr:stedsnr" v="843344" />
	</node>
	<node id="-867708" lat="69.0367944428" lon="18.0123694337">
		<tag k="name" v="Hans-Vilhelmslåtten" />
		<tag k="place" v="locality" />
		<tag k="ssr:stedsnr" v="840160" />
	</node>
	<node id="-867231" lat="69.0357472191" lon="18.0290083296">
		<tag k="name" v="Storjorda" />
		<tag k="place" v="locality" />
		<tag k="ssr:stedsnr" v="718164" />
	</node>
	<node id="-867320" lat="69.0546499994" lon="17.9577972177">
		<tag k="name" v="Steinølet" />
		<tag k="natural" v="stone" />
		<tag k="ssr:stedsnr" v="961056" />
	</node>
	<node id="-867574" lat="69.2006305527" lon="18.2806444323">
		<tag k="name" v="Stormyra" />
		<tag k="natural" v="wetland" />
		<tag k="ssr:stedsnr" v="540150" />
	</node>
	<node id="-867103" lat="69.187583337" lon="18.0691916572">
		<tag k="name" v="Galtnesmyra" />
		<tag k="natural" v="wetland" />
		<tag k="ssr:stedsnr" v="661683" />
	</node>
	<node id="-867571" lat="69.1009388851" lon="18.1014194515">
		<tag k="name" v="Råttenhola" />
		<tag k="natural" v="wetland" />
		<tag k="ssr:stedsnr" v="539876" />
	</node>
	<node id="-867184" lat="69.1404472263" lon="17.9536277704">
		<tag k="name" v="Bjørnskarmyra" />
>>>>>>> e1d4bc35ff8a6074a6f2e91616a996b547c36f15
		<tag k="natural" v="wetland" />
		<tag k="ssr:stedsnr" v="236340" />
	</node>
<<<<<<< HEAD
	<node lat="69.10088055381364" lon="18.043749985365306" id="-41436">
		<tag k="name" v="Brentemyra" />
		<tag k="natural" v="wetland" />
		<tag k="ssr:stedsnr" v="236571" />
	</node>
	<node lat="69.10501110824299" lon="18.15444443959962" id="-41473">
		<tag k="name" v="Stortuvmyra" />
=======
	<node id="-867183" lat="69.1317722219" lon="17.9373111099">
		<tag k="name" v="Fjellendmyra" />
		<tag k="natural" v="wetland" />
		<tag k="ssr:stedsnr" v="718101" />
	</node>
	<node id="-867310" lat="69.1275972225" lon="17.933313877">
		<tag k="name" v="Bjørgemyrene" />
>>>>>>> e1d4bc35ff8a6074a6f2e91616a996b547c36f15
		<tag k="natural" v="wetland" />
		<tag k="ssr:stedsnr" v="114909" />
	</node>
<<<<<<< HEAD
	<node lat="69.0816222213402" lon="18.204236113878306" id="-41474">
		<tag k="name" v="Rabbåsmyrene" />
=======
	<node id="-867693" lat="69.1365611093" lon="18.2435555608">
		<tag k="name" v="Bukkholmyra" />
>>>>>>> e1d4bc35ff8a6074a6f2e91616a996b547c36f15
		<tag k="natural" v="wetland" />
		<tag k="ssr:stedsnr" v="115367" />
	</node>
<<<<<<< HEAD
	<node lat="69.18397778100076" lon="18.06458054613408" id="-41478">
		<tag k="name" v="Vargemyra" />
=======
	<node id="-866923" lat="69.1008805538" lon="18.0437499854">
		<tag k="name" v="Brentemyra" />
>>>>>>> e1d4bc35ff8a6074a6f2e91616a996b547c36f15
		<tag k="natural" v="wetland" />
		<tag k="ssr:stedsnr" v="115680" />
	</node>
<<<<<<< HEAD
	<node lat="69.05626666461474" lon="18.217122221459604" id="-41488">
		<tag k="name" v="Gjerdemyra" />
=======
	<node id="-866921" lat="69.0820194429" lon="18.2218555483">
		<tag k="name" v="Sæterlimyrene" />
>>>>>>> e1d4bc35ff8a6074a6f2e91616a996b547c36f15
		<tag k="natural" v="wetland" />
		<tag k="ssr:stedsnr" v="140903" />
	</node>
<<<<<<< HEAD
	<node lat="69.13550555767986" lon="17.914147228698642" id="-41496">
		<tag k="name" v="Stormyra" />
=======
	<node id="-867303" lat="69.1231138873" lon="18.1418444431">
		<tag k="name" v="Hansemyra" />
>>>>>>> e1d4bc35ff8a6074a6f2e91616a996b547c36f15
		<tag k="natural" v="wetland" />
		<tag k="ssr:stedsnr" v="172074" />
	</node>
<<<<<<< HEAD
	<node lat="69.09216111465595" lon="18.037913883260373" id="-41502">
		<tag k="name" v="Gårdsmyra" />
		<tag k="natural" v="wetland" />
		<tag k="ssr:stedsnr" v="175876" />
	</node>
	<node lat="69.09193610851874" lon="18.028041664783654" id="-41536">
=======
	<node id="-867558" lat="69.116158333" lon="18.0572833412">
		<tag k="name" v="Storåsmyra" />
		<tag k="natural" v="wetland" />
		<tag k="ssr:stedsnr" v="419839" />
	</node>
	<node id="-866916" lat="69.043047219" lon="17.9303888782">
		<tag k="name" v="Russetomta" />
		<tag k="place" v="locality" />
		<tag k="ssr:stedsnr" v="233056" />
	</node>
	<node id="-867683" lat="69.1322472226" lon="18.1518527778">
		<tag k="name" v="Slåtten" />
		<tag k="place" v="locality" />
		<tag k="ssr:stedsnr" v="783858" />
	</node>
	<node id="-867324" lat="69.0902388891" lon="18.1855388937">
		<tag k="name" v="Dalmyrene" />
		<tag k="natural" v="wetland" />
		<tag k="ssr:stedsnr" v="965515" />
	</node>
	<node id="-867041" lat="69.0919361085" lon="18.0280416648">
>>>>>>> e1d4bc35ff8a6074a6f2e91616a996b547c36f15
		<tag k="name" v="Stormyra" />
		<tag k="natural" v="wetland" />
		<tag k="ssr:stedsnr" v="451892" />
	</node>
<<<<<<< HEAD
	<node lat="69.12237222453305" lon="18.15449999117994" id="-41548">
		<tag k="name" v="Krøkemyra" />
=======
	<node id="-867680" lat="69.1865222265" lon="18.0712027643">
		<tag k="name" v="Ausskjærmyra" />
		<tag k="natural" v="wetland" />
		<tag k="ssr:stedsnr" v="783720" />
	</node>
	<node id="-867551" lat="69.1360083367" lon="17.9700888939">
		<tag k="name" v="Kaggemyrene" />
>>>>>>> e1d4bc35ff8a6074a6f2e91616a996b547c36f15
		<tag k="natural" v="wetland" />
		<tag k="ssr:stedsnr" v="297837" />
	</node>
<<<<<<< HEAD
	<node lat="69.14036666403716" lon="18.1320555607359" id="-41549">
		<tag k="name" v="Tjuggelmyra" />
		<tag k="natural" v="wetland" />
		<tag k="ssr:stedsnr" v="297878" />
	</node>
	<node lat="69.11211944442233" lon="18.188977766273506" id="-41552">
		<tag k="name" v="Furumyra" />
=======
	<node id="-867291" lat="69.041816669" lon="17.937433322">
		<tag k="name" v="Flomyra" />
>>>>>>> e1d4bc35ff8a6074a6f2e91616a996b547c36f15
		<tag k="natural" v="wetland" />
		<tag k="ssr:stedsnr" v="299379" />
	</node>
<<<<<<< HEAD
	<node lat="69.13382222358847" lon="17.984116671431675" id="-41565">
		<tag k="name" v="Rustmyra" />
		<tag k="natural" v="wetland" />
		<tag k="ssr:stedsnr" v="354108" />
	</node>
	<node lat="69.06029444185958" lon="17.940047226844086" id="-41572">
		<tag k="name" v="Logan" />
=======
	<node id="-867417" lat="69.1411750008" lon="18.1559027838">
		<tag k="name" v="Gjerdhaugøyra" />
		<tag k="place" v="locality" />
		<tag k="ssr:stedsnr" v="115862" />
	</node>
	<node id="-867415" lat="69.183977781" lon="18.0645805461">
		<tag k="name" v="Vargemyra" />
>>>>>>> e1d4bc35ff8a6074a6f2e91616a996b547c36f15
		<tag k="natural" v="wetland" />
		<tag k="ssr:stedsnr" v="476069" />
	</node>
<<<<<<< HEAD
	<node lat="69.11615833299547" lon="18.0572833412039" id="-41594">
		<tag k="name" v="Storåsmyra" />
=======
	<node id="-867030" lat="69.0645444409" lon="18.3326999998">
		<tag k="name" v="Brantmyra" />
>>>>>>> e1d4bc35ff8a6074a6f2e91616a996b547c36f15
		<tag k="natural" v="wetland" />
		<tag k="ssr:stedsnr" v="419839" />
	</node>
<<<<<<< HEAD
	<node lat="69.12906944523715" lon="17.936394435402306" id="-41628">
		<tag k="name" v="Bjørgemyran" />
		<tag k="natural" v="wetland" />
		<tag k="ssr:stedsnr" v="686267" />
	</node>
	<node lat="69.10093888510981" lon="18.101419451465837" id="-41646">
		<tag k="name" v="Råttenhola" />
		<tag k="natural" v="wetland" />
		<tag k="ssr:stedsnr" v="539876" />
	</node>
	<node lat="69.13274722371004" lon="17.99305277867445" id="-41663">
		<tag k="name" v="Blåmyra" />
=======
	<node id="-867513" lat="69.1009361124" lon="18.0056472083">
		<tag k="name" v="Teolinesteinen" />
		<tag k="natural" v="stone" />
		<tag k="ssr:stedsnr" v="355038" />
	</node>
	<node id="-867026" lat="69.1140638869" lon="18.3773944315">
		<tag k="alt_name" v="Sætermyrene" />
		<tag k="name" v="Sætermyran" />
		<tag k="natural" v="wetland" />
		<tag k="ssr:stedsnr" v="443554" />
	</node>
	<node id="-867409" lat="69.0816222213" lon="18.2042361139">
		<tag k="name" v="Rabbåsmyrene" />
		<tag k="natural" v="wetland" />
		<tag k="ssr:stedsnr" v="115367" />
	</node>
	<node id="-867535" lat="69.124813886" lon="18.1279277719">
		<tag k="alt_name" v="Dikemyrene" />
		<tag k="name" v="Dikemyra" />
>>>>>>> e1d4bc35ff8a6074a6f2e91616a996b547c36f15
		<tag k="natural" v="wetland" />
		<tag k="ssr:stedsnr" v="596101" />
	</node>
<<<<<<< HEAD
	<node lat="69.03651389188123" lon="18.34220833819918" id="-41688">
		<tag k="name" v="Matvasskogan" />
		<tag k="place" v="locality" />
		<tag k="ssr:stedsnr" v="661138" />
	</node>
	<node lat="69.18758333703053" lon="18.06919165717507" id="-41691">
		<tag k="name" v="Galtnesmyra" />
=======
	<node id="-867662" lat="69.1367472217" lon="18.0597972169">
		<tag k="fixme" v="multiple name tags, choose one and add the other to alt_name" />
		<tag k="name" v="Elvøyra;Skøelvøyra" />
		<tag k="place" v="locality" />
		<tag k="ssr:stedsnr" v="757526" />
	</node>
	<node id="-867019" lat="69.1002166645" lon="17.9893000036">
		<tag k="name" v="Foremyra" />
		<tag k="natural" v="wetland" />
		<tag k="ssr:stedsnr" v="443256" />
	</node>
	<node id="-867146" lat="69.1290694452" lon="17.9363944354">
		<tag k="name" v="Bjørgemyran" />
		<tag k="natural" v="wetland" />
		<tag k="ssr:stedsnr" v="686267" />
	</node>
	<node id="-867529" lat="69.1157277784" lon="18.1823083365">
		<tag k="name" v="Sennemyra" />
>>>>>>> e1d4bc35ff8a6074a6f2e91616a996b547c36f15
		<tag k="natural" v="wetland" />
		<tag k="ssr:stedsnr" v="661683" />
	</node>
<<<<<<< HEAD
	<node lat="69.14044722633545" lon="17.95362777036092" id="-41700">
		<tag k="name" v="Bjørnskarmyra" />
=======
	<node id="-867016" lat="69.140366664" lon="18.1320555607">
		<tag k="name" v="Tjuggelmyra" />
>>>>>>> e1d4bc35ff8a6074a6f2e91616a996b547c36f15
		<tag k="natural" v="wetland" />
		<tag k="ssr:stedsnr" v="718126" />
	</node>
<<<<<<< HEAD
	<node lat="69.13520555197516" lon="18.033813883458052" id="-41709">
		<tag k="name" v="Småskogen" />
		<tag k="place" v="locality" />
		<tag k="ssr:stedsnr" v="722923" />
	</node>
	<node lat="69.13913889261514" lon="18.15979443853773" id="-41732">
		<tag k="name" v="Revnesøyra" />
		<tag k="place" v="locality" />
		<tag k="ssr:stedsnr" v="904874" />
	</node>
	<node lat="69.12762778166301" lon="18.06351666018315" id="-41734">
		<tag k="name" v="Forraholtan" />
		<tag k="place" v="locality" />
		<tag k="ssr:stedsnr" v="904897" />
	</node>
	<node lat="69.06340000017698" lon="17.935394436875644" id="-41742">
		<tag k="name" v="Skreda" />
		<tag k="natural" v="scree" />
=======
	<node id="-867270" lat="69.0107750022" lon="18.0707444398">
		<tag k="alt_name" v="Steinurda" />
		<tag k="name" v="Steinura" />
		<tag k="natural" v="scree" />
		<tag k="ssr:stedsnr" v="746914" />
	</node>
	<node id="-867525" lat="69.1855222247" lon="18.0751750051">
		<tag k="name" v="Hans-Nilsamyra" />
		<tag k="natural" v="wetland" />
		<tag k="ssr:stedsnr" v="358728" />
	</node>
	<node id="-867446" lat="69.1355055577" lon="17.9141472287">
		<tag k="name" v="Stormyra" />
		<tag k="natural" v="wetland" />
		<tag k="ssr:stedsnr" v="172074" />
	</node>
	<node id="-867008" lat="69.1875722203" lon="18.1401500009">
		<tag k="name" v="Araratsteinen" />
		<tag k="natural" v="stone" />
		<tag k="ssr:stedsnr" v="297643" />
	</node>
	<node id="-867552" lat="69.0326222201" lon="18.0460749912">
		<tag k="name" v="Storslåa" />
>>>>>>> e1d4bc35ff8a6074a6f2e91616a996b547c36f15
		<tag k="place" v="locality" />
		<tag k="ssr:stedsnr" v="415154" />
	</node>
<<<<<<< HEAD
	<node lat="69.13224722256783" lon="18.15185277781127" id="-41745">
		<tag k="name" v="Slåtten" />
		<tag k="place" v="locality" />
		<tag k="ssr:stedsnr" v="783858" />
	</node>
	<node lat="69.12311388725853" lon="18.141844443062485" id="-41754">
		<tag k="name" v="Hansemyra" />
		<tag k="natural" v="wetland" />
		<tag k="ssr:stedsnr" v="844829" />
	</node>
	<node lat="69.13763055988831" lon="18.12407776494995" id="-41756">
		<tag k="name" v="Lingrasmyra" />
		<tag k="natural" v="wetland" />
		<tag k="ssr:stedsnr" v="844887" />
	</node>
	<node lat="69.12759722253634" lon="17.933313877000348" id="-41783">
		<tag k="name" v="Bjørgemyrene" />
		<tag k="natural" v="wetland" />
		<tag k="ssr:stedsnr" v="900104" />
	</node>
	<node lat="69.041816669041" lon="17.93743332196698" id="-41797">
		<tag k="name" v="Flomyra" />
=======
	<node id="-867006" lat="69.0836527803" lon="18.3986361127">
		<tag k="name" v="Klokkarmyra" />
		<tag k="natural" v="wetland" />
		<tag k="ssr:stedsnr" v="297186" />
	</node>
	<node id="-867257" lat="69.1276277817" lon="18.0635166602">
		<tag k="name" v="Forraholtan" />
		<tag k="place" v="locality" />
		<tag k="ssr:stedsnr" v="904897" />
	</node>
	<node id="-867252" lat="69.1391388926" lon="18.1597944385">
		<tag k="name" v="Revnesøyra" />
		<tag k="place" v="locality" />
		<tag k="ssr:stedsnr" v="904874" />
	</node>
	<node id="-867273" lat="69.1940138927" lon="18.0678472094">
		<tag k="name" v="Ellingmyra" />
		<tag k="natural" v="wetland" />
		<tag k="ssr:stedsnr" v="778537" />
	</node>
	<node id="-867508" lat="69.1338222236" lon="17.9841166714">
		<tag k="name" v="Rustmyra" />
		<tag k="natural" v="wetland" />
		<tag k="ssr:stedsnr" v="354108" />
	</node>
	<node id="-867364" lat="69.1310944448" lon="18.1230249991">
		<tag k="name" v="Litjevassmyrene" />
		<tag k="natural" v="wetland" />
		<tag k="ssr:stedsnr" v="55872" />
	</node>
	<node id="-867121" lat="69.1121194444" lon="18.1889777663">
		<tag k="name" v="Furumyra" />
>>>>>>> e1d4bc35ff8a6074a6f2e91616a996b547c36f15
		<tag k="natural" v="wetland" />
		<tag k="ssr:stedsnr" v="929300" />
	</node>
<<<<<<< HEAD
	<node lat="69.07031111142574" lon="18.349297211511168" id="-41806">
		<tag k="name" v="Tverrelvmyra" />
=======
	<node id="-867760" lat="69.1227694425" lon="18.2420638859">
		<tag k="name" v="Limyrene" />
>>>>>>> e1d4bc35ff8a6074a6f2e91616a996b547c36f15
		<tag k="natural" v="wetland" />
		<tag k="ssr:stedsnr" v="964884" />
	</node>
<<<<<<< HEAD
	<node lat="69.11754999917882" lon="18.134847221811867" id="-41808">
=======
	<node id="-867013" lat="69.1223722245" lon="18.1544999912">
		<tag k="name" v="Krøkemyra" />
		<tag k="natural" v="wetland" />
		<tag k="ssr:stedsnr" v="297837" />
	</node>
	<node id="-867670" lat="69.0634000002" lon="17.9353944369">
		<tag k="name" v="Skreda" />
		<tag k="natural" v="scree" />
		<tag k="place" v="locality" />
		<tag k="ssr:stedsnr" v="780058" />
	</node>
	<node id="-867752" lat="69.1175499992" lon="18.1348472218">
>>>>>>> e1d4bc35ff8a6074a6f2e91616a996b547c36f15
		<tag k="name" v="Botolvmyrene" />
		<tag k="natural" v="wetland" />
		<tag k="ssr:stedsnr" v="965837" />
	</node>
<<<<<<< HEAD
	<node lat="69.10187778115213" lon="17.988069450735008" id="-41846">
		<tag k="name" v="Furumyra" />
=======
	<node id="-867750" lat="69.1503361098" lon="18.1535249992">
		<tag k="name" v="Storleira" />
		<tag k="place" v="locality" />
		<tag k="ssr:stedsnr" v="965681" />
	</node>
	<node id="-867749" lat="69.0703111114" lon="18.3492972115">
		<tag k="name" v="Tverrelvmyra" />
>>>>>>> e1d4bc35ff8a6074a6f2e91616a996b547c36f15
		<tag k="natural" v="wetland" />
		<tag k="ssr:stedsnr" v="52036" />
	</node>
<<<<<<< HEAD
	<node lat="69.04379999697157" lon="17.935900003225086" id="-41848">
		<tag k="name" v="Flomyra" />
=======
	<node id="-866980" lat="69.0562666646" lon="18.2171222215">
		<tag k="name" v="Gjerdemyra" />
>>>>>>> e1d4bc35ff8a6074a6f2e91616a996b547c36f15
		<tag k="natural" v="wetland" />
		<tag k="ssr:stedsnr" v="52047" />
	</node>
<<<<<<< HEAD
	<node lat="69.13109444482157" lon="18.12302499912214" id="-41855">
		<tag k="name" v="Litjevassmyrene" />
=======
	<node id="-867235" lat="69.1160972214" lon="18.3136805443">
		<tag k="name" v="Langmyrene" />
>>>>>>> e1d4bc35ff8a6074a6f2e91616a996b547c36f15
		<tag k="natural" v="wetland" />
		<tag k="ssr:stedsnr" v="55872" />
	</node>
<<<<<<< HEAD
	<node lat="69.14928889113817" lon="17.96630554403058" id="-41889">
		<tag k="name" v="Skjeggesteinen" />
		<tag k="natural" v="stone" />
		<tag k="ssr:stedsnr" v="111123" />
	</node>
	<node lat="69.04698611162584" lon="17.916316671108532" id="-41891">
		<tag k="name" v="Hundmyra" />
		<tag k="natural" v="wetland" />
		<tag k="ssr:stedsnr" v="112024" />
	</node>
	<node lat="69.14117500078123" lon="18.155902783769097" id="-41903">
		<tag k="name" v="Gjerdhaugøyra" />
		<tag k="place" v="locality" />
		<tag k="ssr:stedsnr" v="115862" />
	</node>
	<node lat="69.1220249982166" lon="18.27571111352328" id="-41930">
		<tag k="name" v="Hopslåtten" />
=======
	<node id="-867746" lat="69.1056444415" lon="18.3424583287">
		<tag k="name" v="Stormyra" />
		<tag k="natural" v="wetland" />
		<tag k="ssr:stedsnr" v="964181" />
	</node>
	<node id="-867163" lat="69.1424361083" lon="18.2550833301">
		<tag k="name" v="Kalvevassmyra" />
		<tag k="natural" v="wetland" />
		<tag k="ssr:stedsnr" v="537250" />
	</node>
	<node id="-867608" lat="69.1327472237" lon="17.9930527787">
		<tag k="name" v="Blåmyra" />
		<tag k="natural" v="wetland" />
		<tag k="ssr:stedsnr" v="596101" />
	</node>
	<node id="-867359" lat="69.043799997" lon="17.9359000032">
		<tag k="name" v="Flomyra" />
		<tag k="natural" v="wetland" />
		<tag k="ssr:stedsnr" v="52047" />
	</node>
	<node id="-867102" lat="69.0365138919" lon="18.3422083382">
		<tag k="name" v="Matvasskogan" />
>>>>>>> e1d4bc35ff8a6074a6f2e91616a996b547c36f15
		<tag k="place" v="locality" />
		<tag k="ssr:stedsnr" v="178261" />
	</node>
<<<<<<< HEAD
	<node lat="69.11243055182064" lon="18.152547226315843" id="-41949">
		<tag k="name" v="Kvannmyra" />
=======
	<node id="-867357" lat="69.1018777812" lon="17.9880694507">
		<tag k="name" v="Furumyra" />
>>>>>>> e1d4bc35ff8a6074a6f2e91616a996b547c36f15
		<tag k="natural" v="wetland" />
		<tag k="ssr:stedsnr" v="200577" />
	</node>
<<<<<<< HEAD
	<node lat="69.08365278025146" lon="18.39863611269845" id="-41972">
		<tag k="name" v="Klokkarmyra" />
		<tag k="natural" v="wetland" />
		<tag k="ssr:stedsnr" v="297186" />
	</node>
	<node lat="69.18757222031954" lon="18.140150000935158" id="-41974">
		<tag k="name" v="Araratsteinen" />
		<tag k="natural" v="stone" />
		<tag k="ssr:stedsnr" v="297643" />
	</node>
	<node lat="69.10093611239373" lon="18.00564720828583" id="-41991">
		<tag k="name" v="Teolinesteinen" />
		<tag k="natural" v="stone" />
		<tag k="ssr:stedsnr" v="355038" />
	</node>
	<node lat="69.18552222474524" lon="18.075175005111145" id="-42002">
		<tag k="name" v="Hans-Nilsamyra" />
=======
	<node id="-867055" lat="69.0602944419" lon="17.9400472268">
		<tag k="name" v="Logan" />
		<tag k="natural" v="wetland" />
		<tag k="ssr:stedsnr" v="476069" />
	</node>
	<node id="-866968" lat="69.1050111082" lon="18.1544444396">
		<tag k="name" v="Stortuvmyra" />
		<tag k="natural" v="wetland" />
		<tag k="ssr:stedsnr" v="114909" />
	</node>
	<node id="-867479" lat="69.1124305518" lon="18.1525472263">
		<tag k="name" v="Kvannmyra" />
>>>>>>> e1d4bc35ff8a6074a6f2e91616a996b547c36f15
		<tag k="natural" v="wetland" />
		<tag k="ssr:stedsnr" v="358728" />
	</node>
<<<<<<< HEAD
	<node lat="69.11572777837051" lon="18.18230833653052" id="-42007">
		<tag k="name" v="Sennemyra" />
		<tag k="natural" v="wetland" />
		<tag k="ssr:stedsnr" v="360329" />
	</node>
	<node lat="69.12481388604668" lon="18.127927771916056" id="-42012">
		<tag k="alt_name" v="Dikemyrene" />
		<tag k="name" v="Dikemyra" />
		<tag k="natural" v="wetland" />
		<tag k="ssr:stedsnr" v="382552" />
	</node>
	<node lat="69.13600833669426" lon="17.970088893942492" id="-42025">
		<tag k="name" v="Kaggemyrene" />
=======
	<node id="-867033" lat="69.1367583311" lon="17.9184777789">
		<tag k="name" v="Ol-Gundermyra" />
		<tag k="natural" v="wetland" />
		<tag k="ssr:stedsnr" v="232114" />
	</node>
	<node id="-867220" lat="69.0655694447" lon="18.2394749969">
		<tag k="name" v="Storsteinen" />
		<tag k="natural" v="stone" />
		<tag k="ssr:stedsnr" v="661329" />
	</node>
	<node id="-867730" lat="69.0605194424" lon="17.9460638785">
		<tag k="name" v="Stormyra" />
>>>>>>> e1d4bc35ff8a6074a6f2e91616a996b547c36f15
		<tag k="natural" v="wetland" />
		<tag k="ssr:stedsnr" v="415123" />
	</node>
<<<<<<< HEAD
	<node lat="69.03262222014675" lon="18.046074991221342" id="-42026">
		<tag k="name" v="Storslåa" />
		<tag k="place" v="locality" />
		<tag k="ssr:stedsnr" v="415154" />
	</node>
	<node lat="69.10021666453576" lon="17.989300003608417" id="-42036">
		<tag k="name" v="Foremyra" />
		<tag k="natural" v="wetland" />
		<tag k="ssr:stedsnr" v="443256" />
	</node>
	<node lat="69.06454444088178" lon="18.332699999800827" id="-42041">
		<tag k="name" v="Brantmyra" />
=======
	<node id="-867471" lat="69.1220249982" lon="18.2757111135">
		<tag k="name" v="Hopslåtten" />
		<tag k="place" v="locality" />
		<tag k="ssr:stedsnr" v="178261" />
	</node>
	<node id="-866957" lat="69.0469861116" lon="17.9163166711">
		<tag k="name" v="Hundmyra" />
>>>>>>> e1d4bc35ff8a6074a6f2e91616a996b547c36f15
		<tag k="natural" v="wetland" />
		<tag k="ssr:stedsnr" v="443592" />
	</node>
<<<<<<< HEAD
	<node lat="69.11406388691289" lon="18.377394431491787" id="-42042">
		<tag k="alt_name" v="Sætermyrene" />
		<tag k="name" v="Sætermyran" />
		<tag k="natural" v="wetland" />
		<tag k="ssr:stedsnr" v="443554" />
	</node>
	<node lat="69.14243610829742" lon="18.255083330108445" id="-42071">
		<tag k="name" v="Kalvevassmyra" />
=======
	<node id="-866953" lat="69.1492888911" lon="17.966305544">
		<tag k="name" v="Skjeggesteinen" />
		<tag k="natural" v="stone" />
		<tag k="ssr:stedsnr" v="111123" />
	</node>
	<node id="-867720" lat="69.1376305599" lon="18.1240777649">
		<tag k="name" v="Lingrasmyra" />
>>>>>>> e1d4bc35ff8a6074a6f2e91616a996b547c36f15
		<tag k="natural" v="wetland" />
		<tag k="ssr:stedsnr" v="537250" />
	</node>
<<<<<<< HEAD
	<node lat="69.20063055266124" lon="18.280644432265518" id="-42083">
		<tag k="name" v="Stormyra" />
=======
	<node id="-867718" lat="69.1311388914" lon="18.145552768">
		<tag k="name" v="Kleivmyrene" />
>>>>>>> e1d4bc35ff8a6074a6f2e91616a996b547c36f15
		<tag k="natural" v="wetland" />
		<tag k="ssr:stedsnr" v="540150" />
	</node>
<<<<<<< HEAD
	<node lat="69.057841667206" lon="17.940891662089875" id="-42094">
=======
	<node id="-867589" lat="69.0578416672" lon="17.9408916621">
>>>>>>> e1d4bc35ff8a6074a6f2e91616a996b547c36f15
		<tag k="alt_name" v="Haklooddmyra" />
		<tag k="name" v="Haktooddmyra" />
		<tag k="natural" v="wetland" />
		<tag k="ssr:stedsnr" v="564327" />
	</node>
<<<<<<< HEAD
	<node lat="69.0655694447456" lon="18.23947499694924" id="-42151">
		<tag k="name" v="Storsteinen" />
		<tag k="natural" v="stone" />
		<tag k="ssr:stedsnr" v="661329" />
	</node>
	<node lat="69.03574721909564" lon="18.029008329626308" id="-42162">
		<tag k="name" v="Storjorda" />
=======
	<node id="-867203" lat="69.135205552" lon="18.0338138835">
		<tag k="name" v="Småskogen" />
>>>>>>> e1d4bc35ff8a6074a6f2e91616a996b547c36f15
		<tag k="place" v="locality" />
		<tag k="ssr:stedsnr" v="718164" />
	</node>
<<<<<<< HEAD
	<node lat="69.13177222186415" lon="17.93731110989831" id="-42164">
		<tag k="name" v="Fjellendmyra" />
=======
	<node id="-867457" lat="69.0921611147" lon="18.0379138833">
		<tag k="name" v="Gårdsmyra" />
>>>>>>> e1d4bc35ff8a6074a6f2e91616a996b547c36f15
		<tag k="natural" v="wetland" />
		<tag k="ssr:stedsnr" v="718101" />
	</node>
<<<<<<< HEAD
	<node lat="69.10758611500295" lon="18.072622210326404" id="-42176">
		<tag k="name" v="Langmyra" />
		<tag k="natural" v="wetland" />
		<tag k="ssr:stedsnr" v="722864" />
	</node>
	<node lat="69.11609722141031" lon="18.313680544344002" id="-42180">
		<tag k="name" v="Langmyrene" />
		<tag k="natural" v="wetland" />
		<tag k="ssr:stedsnr" v="724223" />
	</node>
	<node lat="69.01077500215466" lon="18.070744439815005" id="-42191">
		<tag k="alt_name" v="Steinurda" />
		<tag k="name" v="Steinura" />
		<tag k="natural" v="scree" />
		<tag k="ssr:stedsnr" v="746914" />
	</node>
	<node lat="69.13674722168778" lon="18.05979721687767" id="-42196">
		<tag k="fixme" v="multiple name tags, choose one and add the other to alt_name" />
		<tag k="name" v="Skøelvøyra;Elvøyra" />
		<tag k="place" v="locality" />
		<tag k="ssr:stedsnr" v="757526" />
	</node>
	<node lat="69.19401389273574" lon="18.067847209444384" id="-42198">
		<tag k="name" v="Ellingmyra" />
		<tag k="natural" v="wetland" />
		<tag k="ssr:stedsnr" v="778537" />
	</node>
	<node lat="69.18652222648515" lon="18.07120276433048" id="-42211">
		<tag k="name" v="Ausskjærmyra" />
		<tag k="natural" v="wetland" />
		<tag k="ssr:stedsnr" v="783720" />
	</node>
	<node lat="69.13656110928375" lon="18.2435555607962" id="-42224">
		<tag k="name" v="Bukkholmyra" />
		<tag k="natural" v="wetland" />
		<tag k="ssr:stedsnr" v="807527" />
	</node>
	<node lat="69.03679444279058" lon="18.012369433662332" id="-42238">
		<tag k="name" v="Hans-Vilhelmslåtten" />
		<tag k="place" v="locality" />
		<tag k="ssr:stedsnr" v="840160" />
	</node>
	<node lat="69.1051055531648" lon="18.28328887844992" id="-42240">
		<tag k="name" v="Rundmyra" />
		<tag k="natural" v="wetland" />
		<tag k="ssr:stedsnr" v="843344" />
	</node>
	<node lat="69.13113889138651" lon="18.14555276804414" id="-42248">
		<tag k="name" v="Kleivmyrene" />
		<tag k="natural" v="wetland" />
		<tag k="ssr:stedsnr" v="844865" />
	</node>
	<node lat="69.06051944235809" lon="17.946063878463058" id="-42253">
		<tag k="name" v="Stormyra" />
		<tag k="natural" v="wetland" />
		<tag k="ssr:stedsnr" v="868344" />
	</node>
	<node lat="69.05464999943223" lon="17.957797217747725" id="-42265">
		<tag k="name" v="Steinølet" />
		<tag k="natural" v="stone" />
		<tag k="ssr:stedsnr" v="961056" />
	</node>
	<node lat="69.10564444147488" lon="18.34245832865119" id="-42270">
		<tag k="name" v="Stormyra" />
		<tag k="natural" v="wetland" />
		<tag k="ssr:stedsnr" v="964181" />
	</node>
	<node lat="69.09023888905645" lon="18.18553889369653" id="-42273">
		<tag k="name" v="Dalmyrene" />
		<tag k="natural" v="wetland" />
		<tag k="ssr:stedsnr" v="965515" />
	</node>
	<node lat="69.15033610984368" lon="18.15352499922901" id="-42274">
		<tag k="name" v="Storleira" />
		<tag k="place" v="locality" />
		<tag k="ssr:stedsnr" v="965681" />
	</node>
	<node lat="69.12276944252633" lon="18.24206388594371" id="-42282">
		<tag k="name" v="Limyrene" />
		<tag k="natural" v="wetland" />
		<tag k="ssr:stedsnr" v="967325" />
	</node>
=======
>>>>>>> e1d4bc35ff8a6074a6f2e91616a996b547c36f15
</osm>
