<?xml version="1.0" encoding="UTF-8"?>
<osm version="0.6" generator="osmapis">
	<node lat="69.12820278012363" lon="18.274944434155834" id="-41689">
		<tag k="ford" v="yes" />
		<tag k="name" v="Jordbru" />
		<tag k="place" v="locality" />
		<tag k="ssr:stedsnr" v="233288" />
	</node>
	<node lat="69.12175278008318" lon="18.064836101223374" id="-41744">
		<tag k="ford" v="yes" />
		<tag k="name" v="Jordbrua" />
		<tag k="place" v="locality" />
		<tag k="ssr:stedsnr" v="479872" />
	</node>
	<node lat="69.11154999997134" lon="18.226108335917484" id="-41854">
		<tag k="highway" v="path" />
		<tag k="name" v="Fjellveien" />
		<tag k="ssr:stedsnr" v="663336" />
	</node>
	<node lat="69.11613333533117" lon="18.164669452451005" id="-41868">
		<tag k="fixme" v="consider highway=path" />
		<tag k="highway" v="track" />
		<tag k="name" v="Tuvmyrveien" />
		<tag k="ssr:stedsnr" v="722849" />
	</node>
	<node lat="69.10369166325798" lon="18.24299721182975" id="-41885">
		<tag k="highway" v="path" />
		<tag k="name" v="Svartvassveien" />
		<tag k="ssr:stedsnr" v="904492" />
	</node>
</osm>
