<?xml version="1.0" encoding="UTF-8"?>
<osm version="0.6" generator="osmapis">
	<node lat="69.15988055844998" lon="18.1553250004741" id="-41589">
		<tag k="name" v="Tunvoll" />
		<tag k="place" v="farm" />
		<tag k="ssr:stedsnr" v="18469" />
	</node>
	<node lat="69.03992066613947" lon="18.016463564325743" id="-41592">
		<tag k="name" v="Nygård" />
		<tag k="place" v="farm" />
		<tag k="ssr:stedsnr" v="19902" />
	</node>
	<node lat="69.1800775225411" lon="18.065862176100985" id="-41593">
		<tag k="alt_name" v="Grunnreis" />
		<tag k="fixme" v="consider place=hamlet" />
		<tag k="name" v="Grunnreisa" />
		<tag k="place" v="farm" />
		<tag k="ssr:stedsnr" v="26901" />
	</node>
	<node lat="69.10993707391755" lon="18.003997410115936" id="-41608">
		<tag k="fixme" v="consider place=hamlet" />
		<tag k="name" v="Skøelvdalen" />
		<tag k="place" v="farm" />
		<tag k="ssr:stedsnr" v="51106" />
	</node>
	<node lat="69.14809167055662" lon="18.174225008493657" id="-41616">
		<tag k="name" v="Steinhaug" />
		<tag k="place" v="farm" />
		<tag k="ssr:stedsnr" v="239350" />
	</node>
	<node lat="69.11297499678335" lon="18.213408336588415" id="-41624">
		<tag k="name" v="Finnsete" />
		<tag k="place" v="locality" />
		<tag k="ssr:stedsnr" v="57330" />
	</node>
	<node lat="69.11943333691366" lon="18.183349991640277" id="-41630">
		<tag k="alt_name" v="Garmo" />
		<tag k="name" v="Gardmoen" />
		<tag k="place" v="farm" />
		<tag k="ssr:stedsnr" v="79549" />
	</node>
	<node lat="69.09642499654517" lon="18.026266674354595" id="-41644">
		<tag k="name" v="Skogstad" />
		<tag k="place" v="farm" />
		<tag k="ssr:stedsnr" v="139596" />
	</node>
	<node lat="69.16250278171518" lon="18.092002787969896" id="-41649">
		<tag k="name" v="Furøy" />
		<tag k="old_name" v="Forøya" />
		<tag k="place" v="hamlet" />
		<tag k="ssr:stedsnr" v="147910" />
	</node>
	<node lat="69.21388611498413" lon="18.2869472258071" id="-41653">
		<tag k="name" v="Fagerlund" />
		<tag k="place" v="farm" />
		<tag k="ssr:stedsnr" v="260741" />
	</node>
	<node lat="69.12607499888028" lon="18.0486833416482" id="-41670">
		<tag k="name" v="Åsland" />
		<tag k="place" v="farm" />
		<tag k="ssr:stedsnr" v="261569" />
	</node>
	<node lat="69.11653333150957" lon="18.201133318162956" id="-41672">
		<tag k="name" v="Nermoen" />
		<tag k="place" v="farm" />
		<tag k="ssr:stedsnr" v="261579" />
	</node>
	<node lat="69.11708055919684" lon="18.037222219703093" id="-41673">
		<tag k="name" v="Fossbakken" />
		<tag k="place" v="farm" />
		<tag k="ssr:stedsnr" v="261582" />
	</node>
	<node lat="69.07616388694103" lon="18.182058317971286" id="-41675">
		<tag k="name" v="Solheim" />
		<tag k="place" v="farm" />
		<tag k="ssr:stedsnr" v="261614" />
	</node>
	<node lat="69.04064444714595" lon="18.008233322865603" id="-41677">
		<tag k="alt_name" v="Austgård" />
		<tag k="name" v="Østgård" />
		<tag k="place" v="farm" />
		<tag k="ssr:stedsnr" v="261868" />
	</node>
	<node lat="69.09673611516656" lon="17.994836098903992" id="-41681">
		<tag k="alt_name" v="Solborg" />
		<tag k="name" v="Solborgtun" />
		<tag k="place" v="farm" />
		<tag k="ssr:stedsnr" v="200255" />
	</node>
	<node lat="69.1470749988726" lon="18.056263875110353" id="-41697">
		<tag k="fixme" v="consider place=hamlet" />
		<tag k="name" v="Smørsgård" />
		<tag k="place" v="village" />
		<tag k="ssr:stedsnr" v="451936" />
	</node>
	<node lat="69.13499999978434" lon="18.051472215311875" id="-41710">
		<tag k="alt_name" v="Skøelven" />
		<tag k="fixme" v="consider place=hamlet" />
		<tag k="name" v="Skøelva" />
		<tag k="place" v="farm" />
		<tag k="ssr:stedsnr" v="297884" />
	</node>
	<node lat="69.11899568184491" lon="18.220747117750854" id="-41714">
		<tag k="fixme" v="consider place=hamlet" />
		<tag k="name" v="Finnset" />
		<tag k="place" v="farm" />
		<tag k="ssr:stedsnr" v="299382" />
	</node>
	<node lat="69.1295805521288" lon="18.210380558256823" id="-41718">
		<tag k="name" v="Follstad" />
		<tag k="place" v="farm" />
		<tag k="ssr:stedsnr" v="321518" />
	</node>
	<node lat="69.09593333639815" lon="18.192322220251654" id="-41739">
		<tag k="name" v="Sørfossbogen" />
		<tag k="place" v="hamlet" />
		<tag k="ssr:stedsnr" v="479495" />
	</node>
	<node lat="69.11328333654839" lon="18.20744166514169" id="-41747">
		<tag k="name" v="Moen" />
		<tag k="place" v="farm" />
		<tag k="ssr:stedsnr" v="481294" />
	</node>
	<node lat="69.15209444561252" lon="17.985330543824034" id="-41749">
		<tag k="name" v="Yttervik" />
		<tag k="place" v="farm" />
		<tag k="ssr:stedsnr" v="382305" />
	</node>
	<node lat="69.04919665588845" lon="17.930406748860886" id="-41751">
		<tag k="alt_name" v="Slettli;Slettlien" />
		<tag k="fixme" v="consider place=hamlet" />
		<tag k="name" v="Slettlia" />
		<tag k="place" v="farm" />
		<tag k="ssr:stedsnr" v="384247" />
	</node>
	<node lat="69.1493750009113" lon="18.18005833068516" id="-41757">
		<tag k="name" v="Steinsland" />
		<tag k="place" v="farm" />
		<tag k="ssr:stedsnr" v="443533" />
	</node>
	<node lat="69.16113018411662" lon="18.11749692678408" id="-41760">
		<tag k="alt_name" v="Gottersjorden;Gottersjord" />
		<tag k="fixme" v="consider place=hamlet" />
		<tag k="name" v="Gottersjorda" />
		<tag k="place" v="farm" />
		<tag k="ssr:stedsnr" v="451930" />
	</node>
	<node lat="69.17908055307694" lon="18.06430555970969" id="-41764">
		<tag k="alt_name" v="Grunnreisen" />
		<tag k="name" v="Grunnreisa" />
		<tag k="place" v="farm" />
		<tag k="ssr:stedsnr" v="479703" />
	</node>
	<node lat="69.07754721911175" lon="18.37364444205629" id="-41766">
		<tag k="name" v="Fagerheim" />
		<tag k="place" v="farm" />
		<tag k="ssr:stedsnr" v="479913" />
	</node>
	<node lat="69.12638333086605" lon="18.210875007561157" id="-41773">
		<tag k="alt_name" v="Rørsletta" />
		<tag k="name" v="Røyrslett" />
		<tag k="place" v="farm" />
		<tag k="ssr:stedsnr" v="503521" />
	</node>
	<node lat="69.1218500018486" lon="18.03959999005765" id="-41774">
		<tag k="name" v="Rognlia" />
		<tag k="place" v="farm" />
		<tag k="ssr:stedsnr" v="503526" />
	</node>
	<node lat="69.0513527789584" lon="17.944986096280967" id="-41778">
		<tag k="name" v="Heimdal" />
		<tag k="place" v="farm" />
		<tag k="ssr:stedsnr" v="504311" />
	</node>
	<node lat="69.13341260124213" lon="18.07153398833499" id="-41782">
		<tag k="alt_name" v="Bakkejorden;Bakkejord" />
		<tag k="fixme" v="consider place=hamlet" />
		<tag k="name" v="Bakkejorda" />
		<tag k="place" v="farm" />
		<tag k="ssr:stedsnr" v="685554" />
	</node>
	<node lat="69.20782738818167" lon="18.250519967856214" id="-41785">
		<tag k="alt_name" v="Rensvold" />
		<tag k="fixme" v="consider place=hamlet" />
		<tag k="name" v="Reinsvoll" />
		<tag k="place" v="farm" />
		<tag k="ssr:stedsnr" v="685681" />
	</node>
	<node lat="69.21147525034563" lon="18.278593651581726" id="-41786">
		<tag k="alt_name" v="Grønvold Mellem;Grønvoll;Grønnvoll" />
		<tag k="fixme" v="consider place=hamlet" />
		<tag k="name" v="Midtre Grønvoll" />
		<tag k="place" v="farm" />
		<tag k="ssr:stedsnr" v="685683" />
	</node>
	<node lat="69.14565707873601" lon="18.05342381746788" id="-41793">
		<tag k="fixme" v="consider place=hamlet" />
		<tag k="name" v="Smørsgård" />
		<tag k="place" v="farm" />
		<tag k="ssr:stedsnr" v="686528" />
	</node>
	<node lat="69.11206111173227" lon="18.220200004969193" id="-41798">
		<tag k="fixme" v="multiple name tags, choose one and add the other to alt_name" />
		<tag k="name" v="Finnset;Øvre Finnset" />
		<tag k="place" v="farm" />
		<tag k="ssr:stedsnr" v="686577" />
	</node>
	<node lat="69.0813249966154" lon="18.36279721685428" id="-41802">
		<tag k="name" v="Nesvollen" />
		<tag k="place" v="farm" />
		<tag k="ssr:stedsnr" v="686622" />
	</node>
	<node lat="69.17863333744515" lon="18.07093888991602" id="-41804">
		<tag k="name" v="Grunnreisa" />
		<tag k="place" v="farm" />
		<tag k="ssr:stedsnr" v="686725" />
	</node>
	<node lat="69.17016916038581" lon="18.112642317699333" id="-41815">
		<tag k="fixme" v="consider place=hamlet" />
		<tag k="name" v="Djupvåg" />
		<tag k="place" v="farm" />
		<tag k="ssr:stedsnr" v="572921" />
	</node>
	<node lat="69.10816944455635" lon="18.014400005068424" id="-41818">
		<tag k="name" v="Lyshaugen" />
		<tag k="place" v="hamlet" />
		<tag k="ssr:stedsnr" v="696382" />
	</node>
	<node lat="69.10769440495714" lon="18.00985291274814" id="-41836">
		<tag k="fixme" v="consider place=hamlet" />
		<tag k="name" v="Lyshaugen" />
		<tag k="place" v="farm" />
		<tag k="ssr:stedsnr" v="625555" />
	</node>
	<node lat="69.07386944556701" lon="18.190441664146434" id="-41849">
		<tag k="name" v="Storforsli" />
		<tag k="place" v="farm" />
		<tag k="ssr:stedsnr" v="661330" />
	</node>
	<node lat="69.12643333307282" lon="18.217474995664908" id="-41855">
		<tag k="name" v="Lundberg" />
		<tag k="place" v="farm" />
		<tag k="ssr:stedsnr" v="685542" />
	</node>
	<node lat="69.12849999988211" lon="18.04474999638321" id="-41856">
		<tag k="name" v="Lavollen" />
		<tag k="place" v="farm" />
		<tag k="ssr:stedsnr" v="685552" />
	</node>
	<node lat="69.20500833241755" lon="18.26199721449139" id="-41857">
		<tag k="name" v="Reinelvmoen" />
		<tag k="place" v="farm" />
		<tag k="ssr:stedsnr" v="685692" />
	</node>
	<node lat="69.09783888649574" lon="18.270972220040374" id="-41858">
		<tag k="name" v="Rabban" />
		<tag k="place" v="isolated_dwelling" />
		<tag k="ssr:stedsnr" v="686587" />
	</node>
	<node lat="69.17004372523179" lon="18.116451464985598" id="-41859">
		<tag k="alt_name" v="Djupvåg" />
		<tag k="name" v="Djupvågen" />
		<tag k="place" v="farm" />
		<tag k="ssr:stedsnr" v="686736" />
	</node>
	<node lat="69.04379444914704" lon="17.98258887791978" id="-41876">
		<tag k="alt_name" v="Vestgård, øvre" />
		<tag k="name" v="Øvre Vestgård" />
		<tag k="place" v="farm" />
		<tag k="ssr:stedsnr" v="746316" />
	</node>
	<node lat="69.09687063735484" lon="17.998966769843797" id="-41895">
		<tag k="fixme" v="consider place=hamlet" />
		<tag k="name" v="Solberg" />
		<tag k="place" v="farm" />
		<tag k="ssr:stedsnr" v="756356" />
	</node>
	<node lat="69.12905833411197" lon="17.97968888616095" id="-41908">
		<tag k="name" v="Brakka" />
		<tag k="place" v="locality" />
		<tag k="ssr:stedsnr" v="840111" />
	</node>
	<node lat="69.15762222299153" lon="18.192652763211935" id="-41909">
		<tag k="leisure" v="pitch" />
		<tag k="name" v="Spika" />
		<tag k="ssr:stedsnr" v="841306" />
	</node>
	<node lat="69.21068774713062" lon="18.271956015314824" id="-41917">
		<tag k="alt_name" v="Grønvold Vestre;Grønnvoll;Grønvoll" />
		<tag k="fixme" v="consider place=hamlet" />
		<tag k="name" v="Vestre Grønvoll" />
		<tag k="place" v="farm" />
		<tag k="ssr:stedsnr" v="846209" />
	</node>
	<node lat="69.11973610759483" lon="18.207449984702176" id="-41922">
		<tag k="name" v="Finnset" />
		<tag k="place" v="farm" />
		<tag k="ssr:stedsnr" v="928544" />
	</node>
	<node lat="69.2052550910186" lon="18.237529649476915" id="-41924">
		<tag k="name" v="Seljemoen" />
		<tag k="place" v="farm" />
		<tag k="ssr:stedsnr" v="928676" />
	</node>
	<node lat="69.19866111076928" lon="18.07025276268254" id="-41925">
		<tag k="alt_name" v="Hemmingsjorden" />
		<tag k="name" v="Hemingjord" />
		<tag k="place" v="farm" />
		<tag k="ssr:stedsnr" v="928680" />
	</node>
	<node lat="69.1931211526631" lon="18.060411260984132" id="-41926">
		<tag k="name" v="Søvika" />
		<tag k="place" v="locality" />
		<tag k="ssr:stedsnr" v="928682" />
	</node>
	<node lat="69.15190833764996" lon="17.990769433996864" id="-41932">
		<tag k="name" v="Innervik" />
		<tag k="place" v="farm" />
		<tag k="ssr:stedsnr" v="929270" />
	</node>
	<node lat="69.08405277767608" lon="18.226661112283303" id="-41934">
		<tag k="name" v="Sæterlibakken" />
		<tag k="place" v="farm" />
		<tag k="ssr:stedsnr" v="929573" />
	</node>
	<node lat="69.14157778179388" lon="18.171574998638917" id="-41936">
		<tag k="fixme" v="consider place=hamlet" />
		<tag k="name" v="Nordstraumen" />
		<tag k="place" v="village" />
		<tag k="ssr:stedsnr" v="929520" />
	</node>
	<node lat="69.04559272903012" lon="17.961681163638108" id="-41937">
		<tag k="alt_name" v="Vestgård, nedre" />
		<tag k="name" v="Nedre Vestgård" />
		<tag k="old_name" v="Vestgård" />
		<tag k="place" v="farm" />
		<tag k="ssr:stedsnr" v="868315" />
	</node>
	<node lat="69.04500832934922" lon="17.968938878131805" id="-41938">
		<tag k="alt_name" v="Sandmoen" />
		<tag k="name" v="Sandmo" />
		<tag k="place" v="farm" />
		<tag k="ssr:stedsnr" v="868316" />
	</node>
	<node lat="69.13571111414439" lon="18.18680555145314" id="-41952">
		<tag k="name" v="Nordstraumen" />
		<tag k="place" v="farm" />
		<tag k="ssr:stedsnr" v="906370" />
	</node>
	<node lat="69.11812955060053" lon="18.40245747188223" id="-41953">
		<tag k="name" v="Nordhussætra" />
		<tag k="place" v="locality" />
		<tag k="ssr:stedsnr" v="928559" />
	</node>
	<node lat="69.04718855762937" lon="17.96081548487333" id="-41960">
		<tag k="fixme" v="consider place=hamlet" />
		<tag k="name" v="Gumpedalen" />
		<tag k="place" v="farm" />
		<tag k="ssr:stedsnr" v="939445" />
	</node>
	<node lat="69.1153444428629" lon="18.015449987428116" id="-41969">
		<tag k="name" v="Høgmoen" />
		<tag k="place" v="farm" />
		<tag k="ssr:stedsnr" v="965841" />
	</node>
</osm>
