<?xml version="1.0" encoding="UTF-8"?>
<osm generator="osmapis" version="0.6">
	<node id="-765184" lat="69.1509555556" lon="18.0370416661">
		<tag k="name" v="Hesthaugneset" />
		<tag k="natural" v="cape" />
		<tag k="ssr:stedsnr" v="564539" />
	</node>
	<node id="-764532" lat="69.1917305567" lon="18.038236118">
		<tag k="name" v="Klauvsundet" />
		<tag k="natural" v="strait" />
		<tag k="ssr:stedsnr" v="237733" />
	</node>
	<node id="-764531" lat="69.1620222229" lon="18.086369441">
		<tag k="name" v="Halsen" />
		<tag k="place" v="locality" />
		<tag k="ssr:stedsnr" v="237689" />
	</node>
	<node id="-765169" lat="69.181716668" lon="18.0490111171">
		<tag k="name" v="Strandkeila" />
		<tag k="natural" v="strait" />
		<tag k="ssr:stedsnr" v="540701" />
	</node>
	<node id="-764653" lat="69.1590444482" lon="18.0929944518">
		<tag k="fixme" v="consider seamark:type=rock or natural=shoal" />
		<tag k="name" v="Nesåkerspira" />
		<tag k="place" v="islet" />
		<tag k="ssr:stedsnr" v="479678" />
	</node>
	<node id="-764900" lat="69.142602775" lon="18.1219360983">
		<tag k="name" v="Raudbergsvika" />
		<tag k="natural" v="bay" />
		<tag k="ssr:stedsnr" v="879507" />
	</node>
	<node id="-764899" lat="69.152472224" lon="17.9956777738">
		<tag k="name" v="Skjellneset" />
		<tag k="natural" v="cape" />
		<tag k="ssr:stedsnr" v="879490" />
	</node>
	<node id="-764731" lat="69.1613972261" lon="18.0961611182">
		<tag k="name" v="Simavika" />
		<tag k="natural" v="bay" />
		<tag k="ssr:stedsnr" v="514475" />
	</node>
	<node id="-764768" lat="69.1816416663" lon="18.0441000012">
		<tag k="fixme" v="consider seamark:type=rock or natural=shoal" />
		<tag k="name" v="Grunnreisskjæran" />
		<tag k="place" v="islet" />
		<tag k="ssr:stedsnr" v="575474" />
	</node>
	<node id="-764767" lat="69.1385777784" lon="18.0955416571">
		<tag k="name" v="Fjettevika" />
		<tag k="natural" v="bay" />
		<tag k="ssr:stedsnr" v="575518" />
	</node>
	<node id="-764766" lat="69.1474944437" lon="18.1455805524">
		<tag k="name" v="Storneset" />
		<tag k="natural" v="cape" />
		<tag k="ssr:stedsnr" v="575104" />
	</node>
	<node id="-764581" lat="69.1378666634" lon="17.9040888922">
		<tag k="name" v="Vestervika" />
		<tag k="natural" v="bay" />
		<tag k="ssr:stedsnr" v="293094" />
	</node>
	<node id="-764602" lat="69.1512722195" lon="18.0498277641">
		<tag k="fixme" v="multiple name tags, choose one and add the other to alt_name" />
		<tag k="name" v="Smørsgårdflua;Smørsgårdgrunnen" />
		<tag k="natural" v="shoal" />
		<tag k="place" v="locality" />
		<tag k="ssr:stedsnr" v="211541" />
	</node>
	<node id="-764762" lat="69.1676611096" lon="18.0695500056">
		<tag k="alt_name" v="Ytre Furøyneset" />
		<tag k="name" v="Ytre Forøyneset" />
		<tag k="natural" v="cape" />
		<tag k="ssr:stedsnr" v="696492" />
	</node>
	<node id="-765017" lat="69.1594722232" lon="18.0484638946">
		<tag k="alt_name:no" v="Reisfjorden" />
		<tag k="bay" v="fjord" />
		<tag k="loc_name:se" v="Ráisavuotna" />
		<tag k="name" v="Reisafjorden" />
		<tag k="name:no" v="Reisafjorden" />
		<tag k="natural" v="bay" />
		<tag k="ssr:stedsnr" v="139546" />
	</node>
	<node id="-764887" lat="69.1620972233" lon="18.0765500006">
		<tag k="name" v="Kjelvika" />
		<tag k="natural" v="bay" />
		<tag k="ssr:stedsnr" v="818468" />
	</node>
	<node id="-765270" lat="69.1873527766" lon="18.0535722121">
		<tag k="name" v="Olavika" />
		<tag k="natural" v="bay" />
		<tag k="ssr:stedsnr" v="783718" />
	</node>
	<node id="-765269" lat="69.1626500048" lon="18.1071388764">
		<tag k="name" v="Åkervika" />
		<tag k="natural" v="bay" />
		<tag k="ssr:stedsnr" v="783661" />
	</node>
	<node id="-764883" lat="69.1583805547" lon="18.0871555504">
		<tag k="name" v="Storøyneset" />
		<tag k="natural" v="cape" />
		<tag k="ssr:stedsnr" v="929507" />
	</node>
	<node id="-764685" lat="69.1500083348" lon="18.0072583394">
		<tag k="name" v="Sildevika" />
		<tag k="natural" v="bay" />
		<tag k="ssr:stedsnr" v="657130" />
	</node>
	<node id="-765004" lat="69.1631222202" lon="18.1101750015">
		<tag k="fixme" v="consider seamark:type=rock or natural=shoal" />
		<tag k="name" v="Gammelheimskjæret" />
		<tag k="place" v="islet" />
		<tag k="ssr:stedsnr" v="115633" />
	</node>
	<node id="-765218" lat="69.1854527792" lon="18.0516083421">
		<tag k="name" v="Litjevika" />
		<tag k="natural" v="bay" />
		<tag k="ssr:stedsnr" v="600686" />
	</node>
	<node id="-765260" lat="69.1463527786" lon="17.9353916593">
		<tag k="name" v="Stordalsneset" />
		<tag k="natural" v="cape" />
		<tag k="ssr:stedsnr" v="779109" />
	</node>
	<node id="-764740" lat="69.1526472223" lon="17.9856472173">
		<tag k="name" v="Håkjerringneset" />
		<tag k="natural" v="cape" />
		<tag k="ssr:stedsnr" v="686282" />
	</node>
	<node id="-764995" lat="69.1700916631" lon="18.040163885">
		<tag k="name" v="Tømmervikgrunnen" />
		<tag k="natural" v="shoal" />
		<tag k="place" v="locality" />
		<tag k="ssr:stedsnr" v="90479" />
	</node>
	<node id="-764876" lat="69.1862542401" lon="18.0526603709">
		<tag k="alt_name" v="Galteneset;Galtnes" />
		<tag k="name" v="Galtnesodden" />
		<tag k="natural" v="cape" />
		<tag k="ssr:stedsnr" v="928683" />
	</node>
	<node id="-764734" lat="69.1762527784" lon="18.0801777718">
		<tag k="alt_name" v="Tømmervik" />
		<tag k="name" v="Tømmervika" />
		<tag k="natural" v="bay" />
		<tag k="ssr:stedsnr" v="514526" />
	</node>
	<node id="-764859" lat="69.1653611161" lon="18.1145694329">
		<tag k="name" v="Djupvågen" />
		<tag k="natural" v="bay" />
		<tag k="ssr:stedsnr" v="746517" />
	</node>
	<node id="-764730" lat="69.161288886" lon="18.041458339">
		<tag k="name" v="Steingrunnen" />
		<tag k="natural" v="shoal" />
		<tag k="place" v="locality" />
		<tag k="ssr:stedsnr" v="514474" />
	</node>
	<node id="-764601" lat="69.1487111147" lon="18.0147444382">
		<tag k="name" v="Sildvika" />
		<tag k="natural" v="bay" />
		<tag k="ssr:stedsnr" v="211538" />
	</node>
	<node id="-765240" lat="69.1475500026" lon="18.0964111054">
		<tag k="name" v="Bondhoggrunnen" />
		<tag k="natural" v="shoal" />
		<tag k="place" v="locality" />
		<tag k="ssr:stedsnr" v="635541" />
	</node>
	<node id="-764761" lat="69.1586916698" lon="18.1172916722">
		<tag k="name" v="Gottersjordneset" />
		<tag k="natural" v="cape" />
		<tag k="ssr:stedsnr" v="696485" />
	</node>
	<node id="-764979" lat="69.1396055511" lon="18.0869527774">
		<tag k="fixme" v="multiple name tags, choose one and add the other to alt_name; consider seamark:type=rock or natural=shoal" />
		<tag k="name" v="Bakkejordskjeret;Skjæret" />
		<tag k="place" v="islet" />
		<tag k="ssr:stedsnr" v="79504" />
	</node>
	<node id="-764575" lat="69.1587166682" lon="18.0835583428">
		<tag k="alt_name" v="Indre Furøyneset" />
		<tag k="name" v="Indre Forøyneset" />
		<tag k="natural" v="cape" />
		<tag k="ssr:stedsnr" v="150453" />
	</node>
	<node id="-764573" lat="69.1454833318" lon="18.1203472058">
		<tag k="name" v="Tørgrunnen" />
		<tag k="natural" v="shoal" />
		<tag k="place" v="locality" />
		<tag k="ssr:stedsnr" v="272500" />
	</node>
	<node id="-765228" lat="69.1557361124" lon="18.1462666576">
		<tag k="name" v="Øyjordneset" />
		<tag k="natural" v="cape" />
		<tag k="ssr:stedsnr" v="625516" />
	</node>
	<node id="-764842" lat="69.1784416692" lon="18.06156667">
		<tag k="name" v="Grunnreisneset" />
		<tag k="natural" v="cape" />
		<tag k="ssr:stedsnr" v="904697" />
	</node>
	<node id="-764841" lat="69.1825111095" lon="18.0534444508">
		<tag k="name" v="Holmhalsen" />
		<tag k="place" v="locality" />
		<tag k="ssr:stedsnr" v="904696" />
	</node>
	<node id="-764584" lat="69.1528499969" lon="17.9895277742">
		<tag k="name" v="Yttervika" />
		<tag k="natural" v="bay" />
		<tag k="ssr:stedsnr" v="293134" />
	</node>
	<node id="-764709" lat="69.1473305541" lon="18.0586249863">
		<tag k="name" v="Smørsgårdneset" />
		<tag k="natural" v="cape" />
		<tag k="ssr:stedsnr" v="479921" />
	</node>
	<node id="-765347" lat="69.1439444487" lon="18.1524166662">
		<tag k="name" v="Straumen" />
		<tag k="natural" v="strait" />
		<tag k="ssr:stedsnr" v="965883" />
	</node>
	<node id="-764962" lat="69.1716416633" lon="18.0735305502">
		<tag k="name" v="Oldervika" />
		<tag k="natural" v="bay" />
		<tag k="ssr:stedsnr" v="55684" />
	</node>
	<node id="-764704" lat="69.1519888933" lon="18.1454194424">
		<tag k="fixme" v="consider seamark:type=rock or natural=shoal" />
		<tag k="name" v="Kobbeskjæret" />
		<tag k="place" v="islet" />
		<tag k="ssr:stedsnr" v="479673" />
	</node>
	<node id="-764959" lat="69.1598277748" lon="18.0940749954">
		<tag k="name" v="Steinvika" />
		<tag k="natural" v="bay" />
		<tag k="ssr:stedsnr" v="55655" />
	</node>
	<node id="-764829" lat="69.1400111131" lon="17.9089999908">
		<tag k="name" v="Barbrovika" />
		<tag k="natural" v="bay" />
		<tag k="ssr:stedsnr" v="900083" />
	</node>
	<node id="-764956" lat="69.1444750001" lon="18.1487194319">
		<tag k="name" v="Kvervelen" />
		<tag k="natural" v="strait" />
		<tag k="ssr:stedsnr" v="55873" />
	</node>
	<node id="-764603" lat="69.1536138931" lon="18.1265333359">
		<tag k="name" v="Øyjordgrunnen" />
		<tag k="natural" v="shoal" />
		<tag k="place" v="locality" />
		<tag k="ssr:stedsnr" v="211546" />
	</node>
	<node id="-765252" lat="69.1706777819" lon="18.0759305436">
		<tag k="name" v="Storvika" />
		<tag k="natural" v="bay" />
		<tag k="ssr:stedsnr" v="757495" />
	</node>
	<node id="-765205" lat="69.2058694415" lon="18.0612972285">
		<tag k="name" v="Kobbevika" />
		<tag k="natural" v="bay" />
		<tag k="ssr:stedsnr" v="596518" />
	</node>
	<node id="-764996" lat="69.1553861084" lon="18.0645694397">
		<tag k="name" v="Revet" />
		<tag k="natural" v="shoal" />
		<tag k="place" v="locality" />
		<tag k="ssr:stedsnr" v="90500" />
	</node>
	<node id="-764944" lat="69.199030555" lon="18.060805559">
		<tag k="name" v="Hemmingsjordvika" />
		<tag k="natural" v="bay" />
		<tag k="ssr:stedsnr" v="50516" />
	</node>
	<node id="-764817" lat="69.1406611125" lon="18.0592194509">
		<tag k="name" v="Naustvika" />
		<tag k="natural" v="bay" />
		<tag k="ssr:stedsnr" v="661917" />
	</node>
	<node id="-765328" lat="69.166144441" lon="18.0849111098">
		<tag k="alt_name" v="Furøya" />
		<tag k="name" v="Forøya" />
		<tag k="natural" v="cape" />
		<tag k="ssr:stedsnr" v="868707" />
	</node>
	<node id="-764686" lat="69.1500027788" lon="17.9721527717">
		<tag k="name" v="Stompen" />
		<tag k="natural" v="bay" />
		<tag k="ssr:stedsnr" v="657132" />
	</node>
	<node id="-764941" lat="69.1719972251" lon="18.0748944341">
		<tag k="name" v="Oldervikneset" />
		<tag k="natural" v="cape" />
		<tag k="ssr:stedsnr" v="29510" />
	</node>
	<node id="-765196" lat="69.1585888901" lon="18.1461694507">
		<tag k="name" v="Leirbogen" />
		<tag k="natural" v="bay" />
		<tag k="ssr:stedsnr" v="575242" />
	</node>
	<node id="-764805" lat="69.1653833369" lon="18.0429749944">
		<tag k="name" v="Trolldalsgrunnen" />
		<tag k="natural" v="shoal" />
		<tag k="place" v="locality" />
		<tag k="ssr:stedsnr" v="635463" />
	</node>
	<node id="-764499" lat="69.1492083344" lon="18.0118527727">
		<tag k="name" v="Litjeneset" />
		<tag k="natural" v="cape" />
		<tag k="ssr:stedsnr" v="10922" />
	</node>
	<node id="-765061" lat="69.134805557" lon="18.0784666661">
		<tag k="name" v="Bakkejordvika" />
		<tag k="natural" v="bay" />
		<tag k="ssr:stedsnr" v="176869" />
	</node>
	<node id="-764547" lat="69.1400944442" lon="17.6598499977">
		<tag k="bay" v="fjord" />
		<tag k="name" v="Solbergfjorden" />
		<tag k="natural" v="bay" />
		<tag k="ssr:stedsnr" v="261296" />
	</node>
	<node id="-765058" lat="69.1599555578" lon="18.0968805425">
		<tag k="fixme" v="consider seamark:type=rock or natural=shoal" />
		<tag k="name" v="Kvænajordskjæret" />
		<tag k="place" v="islet" />
		<tag k="ssr:stedsnr" v="176671" />
	</node>
</osm>
