<?xml version="1.0" encoding="UTF-8"?>
<osm version="0.6" generator="osmapis">
	<node lat="69.1292527781442" lon="18.35765554917042" id="-58473">
		<tag k="name" v="Jonvatnet" />
		<tag k="natural" v="water" />
		<tag k="ssr:stedsnr" v="18509" />
	</node>
	<node lat="69.0874583335964" lon="18.20494165618218" id="-58482">
		<tag k="name" v="Sæterbekken" />
		<tag k="ssr:stedsnr" v="236474" />
		<tag k="waterway" v="stream" />
	</node>
	<node lat="69.06724444172688" lon="18.033047227555326" id="-58483">
		<tag k="name" v="Gumpeelva" />
		<tag k="ssr:stedsnr" v="236915" />
		<tag k="waterway" v="stream" />
	</node>
	<node lat="69.14472222446969" lon="18.019219447800282" id="-58485">
		<tag k="name" v="Svartevatnet" />
		<tag k="natural" v="water" />
		<tag k="ssr:stedsnr" v="237907" />
	</node>
	<node lat="69.12198610868633" lon="18.05267220822941" id="-58486">
		<tag k="name" v="Åselva" />
		<tag k="ssr:stedsnr" v="237832" />
		<tag k="waterway" v="stream" />
	</node>
	<node lat="69.10699166850102" lon="18.255472222249956" id="-58491">
		<tag k="name" v="Høgdtjønna" />
		<tag k="natural" v="water" />
		<tag k="ssr:stedsnr" v="239244" />
	</node>
	<node lat="69.12899722091778" lon="18.30527777567588" id="-58496">
		<tag k="name" v="Libekken" />
		<tag k="ssr:stedsnr" v="51306" />
		<tag k="waterway" v="stream" />
	</node>
	<node lat="69.13540833165955" lon="18.262891672920208" id="-58497">
		<tag k="name" v="Fremste Stabbursvatnet" />
		<tag k="natural" v="water" />
		<tag k="ssr:stedsnr" v="51308" />
	</node>
	<node lat="69.13043611209653" lon="18.282241671155607" id="-58498">
		<tag k="name" v="Innerste Stabbursvatnet" />
		<tag k="natural" v="water" />
		<tag k="ssr:stedsnr" v="51310" />
		<tag k="water" v="lake" />
	</node>
	<node lat="69.12710278185534" lon="18.380188878751646" id="-58499">
		<tag k="name" v="Fremste Kamplivatnet" />
		<tag k="natural" v="water" />
		<tag k="ssr:stedsnr" v="51419" />
	</node>
	<node lat="69.12450555900267" lon="18.149338874275816" id="-58507">
		<tag k="name" v="Sommerveita" />
		<tag k="ssr:stedsnr" v="55822" />
		<tag k="waterway" v="stream" />
	</node>
	<node lat="69.11056388998475" lon="18.20351945040246" id="-58510">
		<tag k="name" v="Holmen" />
		<tag k="place" v="islet" />
		<tag k="ssr:stedsnr" v="57333" />
	</node>
	<node lat="69.12515555892465" lon="18.274894451848947" id="-58514">
		<tag k="alt_name" v="Jordbruvatnet" />
		<tag k="name" v="Jordbrutjønna" />
		<tag k="natural" v="water" />
		<tag k="ssr:stedsnr" v="79547" />
	</node>
	<node lat="69.04618611103055" lon="18.16871388930334" id="-58516">
		<tag k="alt_name:no" v="Møsmørelva" />
		<tag k="name" v="Møssmørelva - Missarinjohka" />
		<tag k="name:no" v="Møssmørelva" />
		<tag k="name:se" v="Missarinjohka" />
		<tag k="old_name:se" v="Missarinjåkka" />
		<tag k="ssr:stedsnr" v="79892" />
		<tag k="waterway" v="stream" />
	</node>
	<node lat="69.1052416680654" lon="18.109677782462914" id="-58517">
		<tag k="name" v="Bjørnhauglivatnan" />
		<tag k="natural" v="water" />
		<tag k="ssr:stedsnr" v="114907" />
		<tag k="water" v="lake" />
	</node>
	<node lat="69.09735833637039" lon="18.272922228184317" id="-58520">
		<tag k="name" v="Rabbtjønna" />
		<tag k="natural" v="water" />
		<tag k="ssr:stedsnr" v="115371" />
	</node>
	<node lat="69.11681666639852" lon="18.330702780188037" id="-58522">
		<tag k="name" v="Øse" />
		<tag k="natural" v="bay" />
		<tag k="ssr:stedsnr" v="115905" />
	</node>
	<node lat="69.11797500362374" lon="18.188233340301387" id="-58524">
		<tag k="name" v="Pertelveita" />
		<tag k="ssr:stedsnr" v="115813" />
		<tag k="waterway" v="stream" />
	</node>
	<node lat="69.09526111302542" lon="18.354047209025182" id="-58531">
		<tag k="fixme" v="multiple name tags, choose one and add the other to alt_name" />
		<tag k="name" v="Vesttjørna;Vesltjønna" />
		<tag k="natural" v="water" />
		<tag k="ssr:stedsnr" v="139606" />
	</node>
	<node lat="69.18962222316397" lon="18.33039165828313" id="-58532">
		<tag k="name" v="Svartvatnet" />
		<tag k="natural" v="water" />
		<tag k="ssr:stedsnr" v="139695" />
	</node>
	<node lat="69.08329722194341" lon="18.429611094982405" id="-58537">
		<tag k="name" v="Trolldalstjønna" />
		<tag k="natural" v="water" />
		<tag k="ssr:stedsnr" v="158615" />
	</node>
	<node lat="69.2011777787507" lon="18.089775002549555" id="-58539">
		<tag k="alt_name" v="Kringlevatnet" />
		<tag k="name" v="Kringelvatnet" />
		<tag k="natural" v="water" />
		<tag k="ssr:stedsnr" v="260759" />
	</node>
	<node lat="69.13647222100502" lon="17.97863887809165" id="-58545">
		<tag k="name" v="Kaggevatnet" />
		<tag k="natural" v="water" />
		<tag k="ssr:stedsnr" v="261293" />
	</node>
	<node lat="69.10502222621984" lon="18.38472500071826" id="-58550">
		<tag k="name" v="Småvatnan" />
		<tag k="natural" v="water" />
		<tag k="ssr:stedsnr" v="176170" />
		<tag k="water" v="lake" />
	</node>
	<node lat="69.08655277752284" lon="18.406302773744112" id="-58551">
		<tag k="name" v="Skjelltjønna" />
		<tag k="natural" v="water" />
		<tag k="ssr:stedsnr" v="176173" />
	</node>
	<node lat="69.08941944332528" lon="18.19851110245338" id="-58552">
		<tag k="name" v="Killingodden" />
		<tag k="natural" v="cape" />
		<tag k="ssr:stedsnr" v="176470" />
	</node>
	<node lat="69.10598333722412" lon="18.050330545600218" id="-58556">
		<tag k="name" v="Vendingselva" />
		<tag k="ssr:stedsnr" v="261576" />
		<tag k="waterway" v="river" />
	</node>
	<node lat="69.1331861095496" lon="18.116630547830002" id="-58568">
		<tag k="alt_name" v="Litlevatnet" />
		<tag k="name" v="Litjevatnet" />
		<tag k="natural" v="water" />
		<tag k="ssr:stedsnr" v="201500" />
	</node>
	<node lat="69.01118610843115" lon="18.044172217457774" id="-58572">
		<tag k="name" v="Tverrelva" />
		<tag k="ssr:stedsnr" v="232111" />
		<tag k="waterway" v="stream" />
	</node>
	<node lat="69.1430777742391" lon="18.312608338910174" id="-58575">
		<tag k="name" v="Vakkerhumpvatnet" />
		<tag k="natural" v="water" />
		<tag k="ssr:stedsnr" v="233291" />
	</node>
	<node lat="69.1468000015238" lon="17.973633331174387" id="-58584">
		<tag k="name" v="Brennevinselva" />
		<tag k="ssr:stedsnr" v="261313" />
		<tag k="waterway" v="stream" />
	</node>
	<node lat="69.08592777771354" lon="18.293505540056792" id="-58585">
		<tag k="alt_name" v="Myrtjørna" />
		<tag k="name" v="Myrtjønna" />
		<tag k="natural" v="water" />
		<tag k="ssr:stedsnr" v="261595" />
	</node>
	<node lat="69.12669166559066" lon="17.939333341333587" id="-58587">
		<tag k="name" v="Bjelma" />
		<tag k="ssr:stedsnr" v="293129" />
		<tag k="waterway" v="stream" />
	</node>
	<node lat="69.0578194455354" lon="18.41009444008591" id="-58588">
		<tag k="name" v="Storbekken" />
		<tag k="ssr:stedsnr" v="462633" />
		<tag k="waterway" v="stream" />
	</node>
	<node lat="69.14021666850543" lon="18.3117000076109" id="-58602">
		<tag k="name" v="Rundvatnet" />
		<tag k="natural" v="water" />
		<tag k="ssr:stedsnr" v="321508" />
	</node>
	<node lat="69.0315444464715" lon="18.058575009154943" id="-58613">
		<tag k="name" v="Rustbekken" />
		<tag k="ssr:stedsnr" v="475147" />
		<tag k="waterway" v="stream" />
	</node>
	<node lat="69.18108333623326" lon="18.122858325962735" id="-58616">
		<tag k="name" v="Finngamelva" />
		<tag k="ssr:stedsnr" v="358670" />
		<tag k="waterway" v="stream" />
	</node>
	<node lat="69.21090555462143" lon="18.280500002847486" id="-58630">
		<tag k="name" v="Vasslausbekken" />
		<tag k="ssr:stedsnr" v="481285" />
		<tag k="waterway" v="stream" />
	</node>
	<node lat="69.03274444019297" lon="18.005627783147183" id="-58635">
		<tag k="name" v="Fallbekken" />
		<tag k="ssr:stedsnr" v="382615" />
		<tag k="waterway" v="stream" />
	</node>
	<node lat="69.13611944091012" lon="17.986116651788613" id="-58638">
		<tag k="name" v="Kaggebekken" />
		<tag k="ssr:stedsnr" v="415093" />
		<tag k="waterway" v="stream" />
	</node>
	<node lat="69.12686110983996" lon="18.17870276624272" id="-58643">
		<tag k="name" v="Vollneset" />
		<tag k="natural" v="cape" />
		<tag k="ssr:stedsnr" v="443539" />
	</node>
	<node lat="69.1061333295589" lon="18.301352773657452" id="-58653">
		<tag k="name" v="Grunnevatnet" />
		<tag k="natural" v="water" />
		<tag k="ssr:stedsnr" v="481272" />
	</node>
	<node lat="69.06000277664123" lon="18.051399991786244" id="-58656">
		<tag k="name" v="Tverrelva" />
		<tag k="ssr:stedsnr" v="503081" />
		<tag k="waterway" v="stream" />
	</node>
	<node lat="69.14283055835475" lon="18.29352223080956" id="-58657">
		<tag k="alt_name" v="Litlfjellvatnet" />
		<tag k="name" v="Litjefjellvatnet" />
		<tag k="natural" v="water" />
		<tag k="ssr:stedsnr" v="503511" />
	</node>
	<node lat="69.12165277388519" lon="18.112313893430905" id="-58668">
		<tag k="name" v="Krokvatnet" />
		<tag k="natural" v="water" />
		<tag k="ssr:stedsnr" v="685571" />
	</node>
	<node lat="69.13499166197093" lon="17.946683340874948" id="-58675">
		<tag k="name" v="Fiskevatnet" />
		<tag k="natural" v="water" />
		<tag k="ssr:stedsnr" v="686275" />
	</node>
	<node lat="69.14926110698937" lon="18.204286113281825" id="-58679">
		<tag k="name" v="Mølnelva - Millojohka" />
		<tag k="name:no" v="Mølnelva" />
		<tag k="name:se" v="Millojohka" />
		<tag k="old_name:se" v="Milljujåkka" />
		<tag k="ssr:stedsnr" v="686548" />
		<tag k="waterway" v="stream" />
	</node>
	<node lat="69.21622222255547" lon="18.294524991814512" id="-58682">
		<tag k="name" v="Litjebjelma" />
		<tag k="ssr:stedsnr" v="536480" />
		<tag k="waterway" v="stream" />
	</node>
	<node lat="69.06597500405958" lon="18.404308322321512" id="-58685">
		<tag k="name" v="Langodden" />
		<tag k="natural" v="cape" />
		<tag k="ssr:stedsnr" v="686616" />
	</node>
	<node lat="69.07933333108085" lon="18.337913887870045" id="-58688">
		<tag k="name" v="Risvær" />
		<tag k="natural" v="cape" />
		<tag k="ssr:stedsnr" v="686632" />
	</node>
	<node lat="69.11208819190239" lon="18.390044000145192" id="-58690">
		<tag k="name" v="Sæterbekken" />
		<tag k="ssr:stedsnr" v="539906" />
		<tag k="waterway" v="stream" />
	</node>
	<node lat="69.08361110872677" lon="17.963319450514746" id="-58694">
		<tag k="name" v="Tverrelva" />
		<tag k="ssr:stedsnr" v="564367" />
		<tag k="waterway" v="stream" />
	</node>
	<node lat="69.12652777686623" lon="18.145833331395853" id="-58695">
		<tag k="name" v="Storelva" />
		<tag k="ssr:stedsnr" v="564569" />
		<tag k="waterway" v="stream" />
	</node>
	<node lat="69.10863333074275" lon="18.34260555103192" id="-58696">
		<tag k="name" v="Tverrelva" />
		<tag k="ssr:stedsnr" v="564570" />
		<tag k="waterway" v="stream" />
	</node>
	<node lat="69.11952778072322" lon="18.125377774594273" id="-58697">
		<tag k="name" v="Kaggevatnet" />
		<tag k="natural" v="water" />
		<tag k="ssr:stedsnr" v="564580" />
	</node>
	<node lat="69.06821944755482" lon="18.277658320679656" id="-58698">
		<tag k="name" v="Holavatnet" />
		<tag k="natural" v="water" />
		<tag k="ssr:stedsnr" v="564605" />
	</node>
	<node lat="69.07880000518392" lon="18.351802764675494" id="-58699">
		<tag k="name" v="Bukkholmen" />
		<tag k="place" v="islet" />
		<tag k="ssr:stedsnr" v="564617" />
	</node>
	<node lat="69.12701389045567" lon="17.93420278196856" id="-58707">
		<tag k="name" v="Litjevatnet" />
		<tag k="natural" v="water" />
		<tag k="ssr:stedsnr" v="596106" />
	</node>
	<node lat="69.04188889063883" lon="18.008991663850907" id="-58709">
		<tag k="name" v="Vassbekken" />
		<tag k="ssr:stedsnr" v="596152" />
		<tag k="waterway" v="stream" />
	</node>
	<node lat="69.05648611495482" lon="17.943966653601017" id="-58711">
		<tag k="name" v="Litjeodden" />
		<tag k="natural" v="cape" />
		<tag k="ssr:stedsnr" v="597054" />
	</node>
	<node lat="69.15851111543321" lon="18.22470277457399" id="-58713">
		<tag k="name" v="Litje Berrskallvatnet" />
		<tag k="natural" v="water" />
		<tag k="ssr:stedsnr" v="597311" />
	</node>
	<node lat="69.07950277716402" lon="18.359097211578323" id="-58715">
		<tag k="name" v="Kalbukta" />
		<tag k="natural" v="bay" />
		<tag k="ssr:stedsnr" v="600911" />
	</node>
	<node lat="69.22333611295339" lon="18.202577780505646" id="-58717">
		<tag k="name" v="Finnfjordvatnet - Várevuoljávri" />
		<tag k="name:no" v="Finnfjordvatnet" />
		<tag k="name:se" v="Várevuoljávri" />
		<tag k="natural" v="water" />
		<tag k="old_name:se" v="Varevuoljavri" />
		<tag k="ssr:stedsnr" v="624672" />
		<tag k="water" v="lake" />
	</node>
	<node lat="69.19851666929745" lon="18.094113886507117" id="-58718">
		<tag k="alt_name" v="Litlvatnet" />
		<tag k="name" v="Litjevatnet" />
		<tag k="natural" v="water" />
		<tag k="ssr:stedsnr" v="624706" />
	</node>
	<node lat="69.18765555499076" lon="18.28676667078898" id="-58723">
		<tag k="name" v="Øverfossen" />
		<tag k="natural" v="waterfall" />
		<tag k="ssr:stedsnr" v="625759" />
	</node>
	<node lat="69.0487277752068" lon="18.249136104454145" id="-58725">
		<tag k="name" v="Brubekken" />
		<tag k="ssr:stedsnr" v="625902" />
		<tag k="waterway" v="stream" />
	</node>
	<node lat="69.12909166824083" lon="17.973491653185928" id="-58728">
		<tag k="name" v="Brakkevatnet" />
		<tag k="natural" v="water" />
		<tag k="ssr:stedsnr" v="657107" />
	</node>
	<node lat="69.09519166915597" lon="18.309130544124514" id="-58735">
		<tag k="name" v="Solstadbukta" />
		<tag k="natural" v="bay" />
		<tag k="ssr:stedsnr" v="661341" />
	</node>
	<node lat="69.06883055384985" lon="18.159419449426295" id="-58738">
		<tag k="name" v="Tverrelva" />
		<tag k="ssr:stedsnr" v="661909" />
		<tag k="waterway" v="stream" />
	</node>
	<node lat="69.12713333555504" lon="18.309005564867142" id="-58747">
		<tag k="name" v="Livatnet" />
		<tag k="natural" v="water" />
		<tag k="ssr:stedsnr" v="719266" />
	</node>
	<node lat="69.08658333495174" lon="18.312177786507892" id="-58751">
		<tag k="name" v="Myrbekken" />
		<tag k="ssr:stedsnr" v="722368" />
		<tag k="waterway" v="stream" />
	</node>
	<node lat="69.1836388856521" lon="18.138422213409488" id="-58752">
		<tag k="name" v="Forskoltelva" />
		<tag k="ssr:stedsnr" v="722674" />
		<tag k="waterway" v="stream" />
	</node>
	<node lat="69.2178472181236" lon="18.284869443274" id="-58762">
		<tag k="name" v="Tømmerneset" />
		<tag k="natural" v="cape" />
		<tag k="ssr:stedsnr" v="746669" />
	</node>
	<node lat="69.09138333037933" lon="18.02510277421457" id="-58764">
		<tag k="name" v="Kjeodden" />
		<tag k="natural" v="cape" />
		<tag k="ssr:stedsnr" v="903886" />
	</node>
	<node lat="69.06126110833159" lon="18.213477779746103" id="-58771">
		<tag k="name" v="Tverrelva" />
		<tag k="ssr:stedsnr" v="904590" />
		<tag k="waterway" v="stream" />
	</node>
	<node lat="69.1210694409638" lon="18.314208336756273" id="-58782">
		<tag k="name" v="Brattstibukta" />
		<tag k="natural" v="bay" />
		<tag k="ssr:stedsnr" v="906282" />
	</node>
	<node lat="69.12512222294227" lon="18.287402771499703" id="-58791">
		<tag k="name" v="Loken" />
		<tag k="ssr:stedsnr" v="785262" />
		<tag k="waterway" v="stream" />
	</node>
	<node lat="69.19060555678738" lon="18.137858333802225" id="-58797">
		<tag k="name" v="Linabrekkvatnet" />
		<tag k="natural" v="water" />
		<tag k="ssr:stedsnr" v="844684" />
	</node>
	<node lat="69.13755277456887" lon="18.1285944386058" id="-58800">
		<tag k="name" v="Litjeelva" />
		<tag k="ssr:stedsnr" v="844886" />
		<tag k="waterway" v="stream" />
	</node>
	<node lat="69.12347777656578" lon="18.30988888860556" id="-58804">
		<tag k="name" v="Fiskelausvatnet" />
		<tag k="natural" v="water" />
		<tag k="ssr:stedsnr" v="846231" />
	</node>
	<node lat="69.05848055991574" lon="18.35175832490194" id="-58805">
		<tag k="name" v="Tverrelva" />
		<tag k="ssr:stedsnr" v="928078" />
		<tag k="waterway" v="river" />
	</node>
	<node lat="69.12187499917866" lon="18.321708330386134" id="-58806">
		<tag k="name" v="Vegavatnet" />
		<tag k="natural" v="water" />
		<tag k="ssr:stedsnr" v="928539" />
		<tag k="water" v="lake" />
	</node>
	<node lat="69.12096110947519" lon="18.055774998200572" id="-58808">
		<tag k="name" v="Jordbruelva" />
		<tag k="ssr:stedsnr" v="928547" />
		<tag k="waterway" v="stream" />
	</node>
	<node lat="69.04310277789318" lon="17.926419432374093" id="-58830">
		<tag k="name" v="Leira" />
		<tag k="natural" v="bay" />
		<tag k="ssr:stedsnr" v="901053" />
	</node>
	<node lat="69.11292222050544" lon="18.020686104311118" id="-58832">
		<tag k="name" v="Storfossen" />
		<tag k="natural" v="waterfall" />
		<tag k="ssr:stedsnr" v="904849" />
	</node>
	<node lat="69.14199444113207" lon="18.257177778843946" id="-58839">
		<tag k="alt_name" v="Kalvevatnet" />
		<tag k="name" v="Nedste Kalvevatnet" />
		<tag k="natural" v="water" />
		<tag k="ssr:stedsnr" v="928502" />
	</node>
	<node lat="69.05111943986077" lon="17.91648889432645" id="-58840">
		<tag k="name" v="Tverrelva" />
		<tag k="ssr:stedsnr" v="929311" />
		<tag k="waterway" v="stream" />
	</node>
	<node lat="69.03762500430688" lon="18.294174985247405" id="-58843">
		<tag k="name" v="Matvatnet - Máttajávri" />
		<tag k="name:no" v="Matvatnet" />
		<tag k="name:se" v="Máttajávri" />
		<tag k="natural" v="water" />
		<tag k="old_name:se" v="Maddajavri" />
		<tag k="ssr:stedsnr" v="933897" />
		<tag k="water" v="lake" />
	</node>
	<node lat="69.12548610850013" lon="17.974719437195315" id="-58847">
		<tag k="name" v="Haugvatnet" />
		<tag k="natural" v="water" />
		<tag k="ssr:stedsnr" v="961095" />
	</node>
	<node lat="69.13844166866616" lon="18.05390278018042" id="-58857">
		<tag k="name" v="Gårdselva" />
		<tag k="ssr:stedsnr" v="965890" />
		<tag k="waterway" v="stream" />
	</node>
	<node lat="69.20005555302497" lon="18.252816664816034" id="-58859">
		<tag k="name" v="Vestre Skjellelva" />
		<tag k="ssr:stedsnr" v="967208" />
		<tag k="waterway" v="stream" />
	</node>
	<node lat="69.18068889259978" lon="18.306052771249078" id="-58878">
		<tag k="name" v="Klubbeneset" />
		<tag k="natural" v="cape" />
		<tag k="ssr:stedsnr" v="18669" />
	</node>
	<node lat="69.0299000008234" lon="18.16685000906096" id="-58882">
		<tag k="name" v="Kjeltindelva - Jiekŋačazajohka" />
		<tag k="name:no" v="Kjeltindelva" />
		<tag k="name:se" v="Jiekŋačazajohka" />
		<tag k="old_name:se" v="Jiegŋačazajåkka" />
		<tag k="ssr:stedsnr" v="18853" />
		<tag k="waterway" v="stream" />
	</node>
	<node lat="69.14087500218912" lon="17.93779722262649" id="-58883">
		<tag k="name" v="Bjørgelva" />
		<tag k="ssr:stedsnr" v="19275" />
		<tag k="waterway" v="river" />
	</node>
	<node lat="69.14529167009722" lon="17.988099998339973" id="-58884">
		<tag k="name" v="Sennevatnan" />
		<tag k="natural" v="water" />
		<tag k="ssr:stedsnr" v="19276" />
		<tag k="water" v="lake" />
	</node>
	<node lat="69.07347500220419" lon="18.381722207830762" id="-58885">
		<tag k="name" v="Andsvatnet - Áisajávri" />
		<tag k="name:no" v="Andsvatnet" />
		<tag k="name:se" v="Áisajávri" />
		<tag k="natural" v="water" />
		<tag k="old_name:se" v="Aisajavri" />
		<tag k="ssr:stedsnr" v="19584" />
		<tag k="water" v="lake" />
	</node>
	<node lat="69.05963610891068" lon="18.434024989912405" id="-58886">
		<tag k="name" v="Sandbukta" />
		<tag k="natural" v="bay" />
		<tag k="ssr:stedsnr" v="19889" />
	</node>
	<node lat="69.09721111500812" lon="18.203494446915506" id="-58897">
		<tag k="name" v="Bjørnbekken" />
		<tag k="ssr:stedsnr" v="55477" />
		<tag k="waterway" v="stream" />
	</node>
	<node lat="69.11740555924641" lon="18.02135833249907" id="-58906">
		<tag k="name" v="Storhølla" />
		<tag k="place" v="locality" />
		<tag k="ssr:stedsnr" v="55830" />
	</node>
	<node lat="69.20663611280276" lon="18.278416651872238" id="-58911">
		<tag k="name" v="Østre Skjellelva" />
		<tag k="ssr:stedsnr" v="57217" />
		<tag k="waterway" v="stream" />
	</node>
	<node lat="69.12487222222349" lon="18.202847222222168" id="-58912">
		<tag k="name" v="Vollen" />
		<tag k="natural" v="cape" />
		<tag k="ssr:stedsnr" v="57342" />
	</node>
	<node lat="69.10858055491188" lon="18.412280563245478" id="-58926">
		<tag k="alt_name" v="Krokbekktjørna, midtre" />
		<tag k="name" v="Midtre Krokbekktjønna" />
		<tag k="natural" v="water" />
		<tag k="old_name" v="Krokbekktjørna" />
		<tag k="ssr:stedsnr" v="79559" />
	</node>
	<node lat="69.22013610667676" lon="18.299799999252734" id="-58928">
		<tag k="name" v="Bjelma" />
		<tag k="ssr:stedsnr" v="79653" />
		<tag k="waterway" v="stream" />
	</node>
	<node lat="69.08313333740146" lon="18.193549996920794" id="-58937">
		<tag k="name" v="Rabbåsnesan" />
		<tag k="natural" v="cape" />
		<tag k="ssr:stedsnr" v="115365" />
	</node>
	<node lat="69.20669722140045" lon="18.257624998458464" id="-58943">
		<tag k="name" v="Monesen" />
		<tag k="natural" v="cape" />
		<tag k="ssr:stedsnr" v="117289" />
	</node>
	<node lat="69.12143611498816" lon="18.198316661201506" id="-58949">
		<tag k="name" v="Sørbogen" />
		<tag k="natural" v="bay" />
		<tag k="ssr:stedsnr" v="117384" />
	</node>
	<node lat="69.07715833379947" lon="18.357655555311954" id="-58953">
		<tag k="name" v="Storodden" />
		<tag k="natural" v="cape" />
		<tag k="ssr:stedsnr" v="139611" />
	</node>
	<node lat="69.09271944662473" lon="18.329172206804405" id="-58958">
		<tag k="name" v="Hestodden" />
		<tag k="natural" v="cape" />
		<tag k="ssr:stedsnr" v="139581" />
	</node>
	<node lat="69.0921499988666" lon="18.159674995190393" id="-58959">
		<tag k="name" v="Brebekken" />
		<tag k="ssr:stedsnr" v="139583" />
		<tag k="waterway" v="stream" />
	</node>
	<node lat="69.17303055472742" lon="18.10253054577238" id="-58960">
		<tag k="fixme" v="multiple name tags, choose one and add the other to alt_name" />
		<tag k="name" v="Tømmervikvatnet;Vågvatnet" />
		<tag k="natural" v="water" />
		<tag k="ssr:stedsnr" v="139712" />
	</node>
	<node lat="69.03250555307048" lon="18.159299998773836" id="-58961">
		<tag k="name" v="Tverrelva - Giepmestatjohka" />
		<tag k="name:no" v="Tverrelva" />
		<tag k="name:se" v="Giepmestatjohka" />
		<tag k="old_name:se" v="Giebmestatjåkka" />
		<tag k="ssr:stedsnr" v="139866" />
		<tag k="waterway" v="stream" />
	</node>
	<node lat="69.15136944228327" lon="18.281197218320877" id="-58964">
		<tag k="fixme" v="multiple name tags, choose one and add the other to alt_name" />
		<tag k="name" v="Olavatnet;Midtre Hamnelvvatnet" />
		<tag k="natural" v="water" />
		<tag k="ssr:stedsnr" v="140522" />
	</node>
	<node lat="69.14990000177838" lon="18.27392220929197" id="-58965">
		<tag k="name" v="Langvatnet" />
		<tag k="natural" v="water" />
		<tag k="ssr:stedsnr" v="140525" />
	</node>
	<node lat="69.1389194467117" lon="17.958627764198056" id="-58967">
		<tag k="name" v="Bjørnskarvatnet" />
		<tag k="natural" v="water" />
		<tag k="ssr:stedsnr" v="172093" />
	</node>
	<node lat="69.19219166302992" lon="18.129697225075535" id="-58969">
		<tag k="name" v="Galtnesvatnet" />
		<tag k="natural" v="water" />
		<tag k="ssr:stedsnr" v="171564" />
	</node>
	<node lat="69.03414444339307" lon="18.052663873790962" id="-58970">
		<tag k="name" v="Storbekken" />
		<tag k="ssr:stedsnr" v="172142" />
		<tag k="waterway" v="stream" />
	</node>
	<node lat="69.13270000009112" lon="18.27272221453001" id="-58974">
		<tag k="name" v="Stabburselva" />
		<tag k="ssr:stedsnr" v="173254" />
		<tag k="waterway" v="stream" />
	</node>
	<node lat="69.11900833554094" lon="18.222955563849673" id="-58984">
		<tag k="name" v="Finnsetbekken" />
		<tag k="ssr:stedsnr" v="178341" />
		<tag k="waterway" v="stream" />
	</node>
	<node lat="68.992058335049" lon="18.08136944792023" id="-58986">
		<tag k="alt_name:no" v="Gumpelva" />
		<tag k="name" v="Gumpeelva - Gumpejohka" />
		<tag k="name:no" v="Gumpeelva" />
		<tag k="name:se" v="Gumpejohka" />
		<tag k="ssr:stedsnr" v="199646" />
		<tag k="waterway" v="river" />
	</node>
	<node lat="69.09230277833584" lon="18.402191670585847" id="-58989">
		<tag k="alt_name" v="Austtjørna" />
		<tag k="name" v="Austtjønna" />
		<tag k="natural" v="water" />
		<tag k="ssr:stedsnr" v="200615" />
	</node>
	<node lat="69.13486110923347" lon="18.343077760239787" id="-58992">
		<tag k="alt_name" v="Myrtjørna" />
		<tag k="name" v="Myrtjønna" />
		<tag k="natural" v="water" />
		<tag k="ssr:stedsnr" v="200568" />
	</node>
	<node lat="69.1079944433446" lon="18.085569451475035" id="-58995">
		<tag k="alt_name" v="Bjørnlihaugvatnet" />
		<tag k="name" v="Bjørnhaugvatnet" />
		<tag k="natural" v="water" />
		<tag k="ssr:stedsnr" v="200578" />
	</node>
	<node lat="69.13222500250237" lon="18.1825472126109" id="-59000">
		<tag k="name" v="Reisvatnet - Ráissajávri" />
		<tag k="name:no" v="Reisvatnet" />
		<tag k="name:se" v="Ráissajávri" />
		<tag k="natural" v="water" />
		<tag k="old_name:se" v="Raisajavri" />
		<tag k="ssr:stedsnr" v="205576" />
		<tag k="water" v="lake" />
	</node>
	<node lat="69.05021389309321" lon="18.452799999669036" id="-59001">
		<tag k="name" v="Stomyrbekken" />
		<tag k="ssr:stedsnr" v="280647" />
		<tag k="waterway" v="stream" />
	</node>
	<node lat="69.09164166575766" lon="18.35273887741963" id="-59016">
		<tag k="name" v="Kvernbekken" />
		<tag k="ssr:stedsnr" v="297180" />
		<tag k="waterway" v="stream" />
	</node>
	<node lat="69.17003611436388" lon="18.154355548016138" id="-59020">
		<tag k="name" v="Resmålsvatnet" />
		<tag k="natural" v="water" />
		<tag k="ssr:stedsnr" v="297658" />
	</node>
	<node lat="69.11354721740054" lon="18.428697227849426" id="-59024">
		<tag k="name" v="Steinvatnet" />
		<tag k="natural" v="water" />
		<tag k="ssr:stedsnr" v="321559" />
	</node>
	<node lat="69.0398000019996" lon="18.37117499566765" id="-59025">
		<tag k="name" v="Svartvatnet" />
		<tag k="natural" v="water" />
		<tag k="ssr:stedsnr" v="321856" />
	</node>
	<node lat="69.09064722119324" lon="18.369127780040053" id="-59029">
		<tag k="alt_name" v="Midttjørna" />
		<tag k="name" v="Midttjønna" />
		<tag k="natural" v="water" />
		<tag k="ssr:stedsnr" v="322597" />
	</node>
	<node lat="69.08515278001806" lon="18.36727776684934" id="-59039">
		<tag k="name" v="Storbekken" />
		<tag k="ssr:stedsnr" v="357147" />
		<tag k="waterway" v="stream" />
	</node>
	<node lat="69.08814721967201" lon="18.030113888150396" id="-59043">
		<tag k="name" v="Storneset" />
		<tag k="natural" v="cape" />
		<tag k="ssr:stedsnr" v="357875" />
	</node>
	<node lat="69.11437221935472" lon="18.083161111564756" id="-59049">
		<tag k="name" v="Jordbruelvvatnan" />
		<tag k="natural" v="water" />
		<tag k="ssr:stedsnr" v="358839" />
		<tag k="water" v="lake" />
	</node>
	<node lat="69.10950277351496" lon="18.13998889177247" id="-59058">
		<tag k="fixme" v="multiple name tags, choose one and add the other to alt_name" />
		<tag k="name" v="Leidåselva;Leirraselva" />
		<tag k="ssr:stedsnr" v="382561" />
		<tag k="waterway" v="stream" />
	</node>
	<node lat="69.08516944751878" lon="18.41685556207284" id="-59062">
		<tag k="alt_name" v="Stortjørna" />
		<tag k="name" v="Stortjønna" />
		<tag k="natural" v="water" />
		<tag k="ssr:stedsnr" v="382590" />
	</node>
	<node lat="69.0991999967035" lon="17.993038873684988" id="-59073">
		<tag k="name" v="Slettneset" />
		<tag k="natural" v="cape" />
		<tag k="ssr:stedsnr" v="416056" />
	</node>
	<node lat="69.06620833708959" lon="18.33443331928075" id="-59074">
		<tag k="name" v="Holavassbekken" />
		<tag k="ssr:stedsnr" v="418901" />
		<tag k="waterway" v="stream" />
	</node>
	<node lat="69.13089999748556" lon="18.40513331688678" id="-59082">
		<tag k="name" v="Sætervatnet" />
		<tag k="natural" v="water" />
		<tag k="ssr:stedsnr" v="443541" />
	</node>
	<node lat="69.16020833682491" lon="18.188705558447637" id="-59084">
		<tag k="name" v="Leirbogelva - Šnjirggajohka" />
		<tag k="name:no" v="Leirbogelva" />
		<tag k="name:se" v="Šnjirggajohka" />
		<tag k="old_name:se" v="Snjirgajåkka" />
		<tag k="ssr:stedsnr" v="443509" />
		<tag k="waterway" v="stream" />
	</node>
	<node lat="69.09757777388864" lon="18.258016672993254" id="-59095">
		<tag k="name" v="Svartvatnet" />
		<tag k="natural" v="water" />
		<tag k="ssr:stedsnr" v="503548" />
	</node>
	<node lat="69.12240277834385" lon="17.96027221139267" id="-59102">
		<tag k="name" v="Krokvatnet" />
		<tag k="natural" v="water" />
		<tag k="ssr:stedsnr" v="504245" />
	</node>
	<node lat="69.15843611064376" lon="18.241802770382055" id="-59104">
		<tag k="alt_name" v="Berrskallvatnet" />
		<tag k="name" v="Store Berrskallvatnet" />
		<tag k="natural" v="water" />
		<tag k="ssr:stedsnr" v="504538" />
	</node>
	<node lat="69.14567777950255" lon="18.294805544075142" id="-59107">
		<tag k="name" v="Storfjellvatnet" />
		<tag k="natural" v="water" />
		<tag k="ssr:stedsnr" v="504554" />
		<tag k="water" v="lake" />
	</node>
	<node lat="69.10340000150656" lon="18.033199999073787" id="-59118">
		<tag k="name" v="Finnheimelva" />
		<tag k="ssr:stedsnr" v="539599" />
		<tag k="waterway" v="stream" />
	</node>
	<node lat="69.20132500458995" lon="18.26564999391295" id="-59134">
		<tag k="name" v="Reinelva - Boazojohka" />
		<tag k="name:no" v="Reinelva" />
		<tag k="name:se" v="Boazojohka" />
		<tag k="old_name:se" v="Boazujåkka" />
		<tag k="ssr:stedsnr" v="563746" />
		<tag k="waterway" v="river" />
	</node>
	<node lat="69.12565000097555" lon="17.957075009543733" id="-59136">
		<tag k="name" v="Kummevatnet" />
		<tag k="natural" v="water" />
		<tag k="ssr:stedsnr" v="564270" />
	</node>
	<node lat="69.19401944804187" lon="18.278436108876143" id="-59149">
		<tag k="name" v="Nerfossen" />
		<tag k="natural" v="waterfall" />
		<tag k="ssr:stedsnr" v="564710" />
	</node>
	<node lat="69.12169444855095" lon="18.41845276776685" id="-59154">
		<tag k="name" v="Kamplitjønnene" />
		<tag k="natural" v="water" />
		<tag k="ssr:stedsnr" v="582595" />
		<tag k="water" v="lake" />
	</node>
	<node lat="69.1977638906057" lon="18.10694165609755" id="-59159">
		<tag k="name" v="Svartvatnet" />
		<tag k="natural" v="water" />
		<tag k="ssr:stedsnr" v="596541" />
		<tag k="water" v="pond" />
	</node>
	<node lat="69.04010555168949" lon="17.93157777348239" id="-59162">
		<tag k="name" v="Steinodden" />
		<tag k="natural" v="cape" />
		<tag k="ssr:stedsnr" v="597064" />
	</node>
	<node lat="69.14374444765348" lon="18.26950278348406" id="-59163">
		<tag k="name" v="Øvste Kalvevatnet" />
		<tag k="natural" v="water" />
		<tag k="ssr:stedsnr" v="597288" />
	</node>
	<node lat="69.07991666248333" lon="18.18499166282265" id="-59167">
		<tag k="name" v="Tverrelva" />
		<tag k="ssr:stedsnr" v="600341" />
		<tag k="waterway" v="stream" />
	</node>
	<node lat="69.08447222392967" lon="18.498072219556008" id="-59173">
		<tag k="name" v="Krokbekken" />
		<tag k="ssr:stedsnr" v="625612" />
		<tag k="waterway" v="stream" />
	</node>
	<node lat="69.07245277835345" lon="17.962472214841398" id="-59175">
		<tag k="name" v="Skøelva - Skuoddojohka" />
		<tag k="name:no" v="Skøelva" />
		<tag k="name:se" v="Skuoddojohka" />
		<tag k="ssr:stedsnr" v="625366" />
		<tag k="waterway" v="river" />
	</node>
	<node lat="69.10363889050112" lon="18.130255558608493" id="-59176">
		<tag k="name" v="Lysvatnet" />
		<tag k="natural" v="water" />
		<tag k="ssr:stedsnr" v="625575" />
	</node>
	<node lat="69.08731388893767" lon="18.163377774316373" id="-59179">
		<tag k="name" v="Holbekken" />
		<tag k="ssr:stedsnr" v="625590" />
		<tag k="waterway" v="stream" />
	</node>
	<node lat="69.08027500343356" lon="18.042111109584866" id="-59180">
		<tag k="name" v="Middagselva" />
		<tag k="ssr:stedsnr" v="625592" />
		<tag k="waterway" v="river" />
	</node>
	<node lat="69.1893611073553" lon="18.11166666207141" id="-59181">
		<tag k="name" v="Galtneselva" />
		<tag k="ssr:stedsnr" v="625735" />
		<tag k="waterway" v="stream" />
	</node>
	<node lat="69.04999167137015" lon="18.023166655808765" id="-59183">
		<tag k="alt_name" v="Litlvatnet" />
		<tag k="name" v="Litjevatnet" />
		<tag k="natural" v="water" />
		<tag k="ssr:stedsnr" v="625898" />
	</node>
	<node lat="69.04838055685299" lon="17.917927783102073" id="-59184">
		<tag k="name" v="Storbekken" />
		<tag k="ssr:stedsnr" v="625330" />
		<tag k="waterway" v="stream" />
	</node>
	<node lat="69.19809166491373" lon="18.071061110274695" id="-59189">
		<tag k="name" v="Storelva" />
		<tag k="ssr:stedsnr" v="656555" />
		<tag k="waterway" v="stream" />
	</node>
	<node lat="69.20596111559536" lon="18.06618610091272" id="-59191">
		<tag k="name" v="Kobbålen" />
		<tag k="ssr:stedsnr" v="656573" />
		<tag k="waterway" v="stream" />
	</node>
	<node lat="69.12930277860227" lon="18.291647207816514" id="-59194">
		<tag k="name" v="Holtjønna" />
		<tag k="natural" v="water" />
		<tag k="ssr:stedsnr" v="658272" />
	</node>
	<node lat="69.13426111015661" lon="18.2708638863716" id="-59195">
		<tag k="name" v="Mitterste Stabbursvatnet" />
		<tag k="natural" v="water" />
		<tag k="ssr:stedsnr" v="658278" />
	</node>
	<node lat="69.10138611130883" lon="18.321761109377498" id="-59197">
		<tag k="name" v="Tverrelvfossen" />
		<tag k="natural" v="waterfall" />
		<tag k="ssr:stedsnr" v="661342" />
	</node>
	<node lat="69.14031944079807" lon="18.157424993935454" id="-59200">
		<tag k="name" v="Hølla" />
		<tag k="natural" v="bay" />
		<tag k="ssr:stedsnr" v="661893" />
	</node>
	<node lat="69.13647222222424" lon="18.02334167129232" id="-59202">
		<tag k="name" v="Vasskarvatnet" />
		<tag k="natural" v="water" />
		<tag k="ssr:stedsnr" v="661919" />
	</node>
	<node lat="69.20177500159613" lon="18.076072207616797" id="-59204">
		<tag k="name" v="Hestedalselva" />
		<tag k="ssr:stedsnr" v="661869" />
		<tag k="waterway" v="stream" />
	</node>
	<node lat="69.0660694432536" lon="18.311511097907804" id="-59206">
		<tag k="name" v="Holavassbekken" />
		<tag k="ssr:stedsnr" v="663350" />
		<tag k="waterway" v="stream" />
	</node>
	<node lat="69.04221944110328" lon="17.93426665150818" id="-59210">
		<tag k="name" v="Tjønna" />
		<tag k="natural" v="water" />
		<tag k="ssr:stedsnr" v="719053" />
	</node>
	<node lat="69.17065277718106" lon="18.168855539124205" id="-59214">
		<tag k="name" v="Skredvatnan" />
		<tag k="natural" v="water" />
		<tag k="ssr:stedsnr" v="722681" />
		<tag k="water" v="lake" />
	</node>
	<node lat="69.1261472217848" lon="18.296344438396606" id="-59226">
		<tag k="name" v="Holtjønna" />
		<tag k="natural" v="water" />
		<tag k="ssr:stedsnr" v="724239" />
	</node>
	<node lat="69.11066111436837" lon="18.219963890701315" id="-59227">
		<tag k="name" v="Finnsetbekken" />
		<tag k="ssr:stedsnr" v="724249" />
		<tag k="waterway" v="stream" />
	</node>
	<node lat="69.13048888745571" lon="17.93625832472195" id="-59229">
		<tag k="name" v="Steinvatnet" />
		<tag k="natural" v="water" />
		<tag k="ssr:stedsnr" v="746278" />
	</node>
	<node lat="69.09805278084865" lon="17.97524443168657" id="-59231">
		<tag k="name" v="Reinelva" />
		<tag k="ssr:stedsnr" v="746253" />
		<tag k="waterway" v="stream" />
	</node>
	<node lat="69.13464528677993" lon="18.269855552698274" id="-59233">
		<tag k="name" v="Stabbursvatnan" />
		<tag k="natural" v="water" />
		<tag k="ssr:stedsnr" v="746551" />
		<tag k="water" v="lake" />
	</node>
	<node lat="69.13025555479778" lon="18.390308319280297" id="-59234">
		<tag k="alt_name" v="Veltatjørna" />
		<tag k="name" v="Veltatjønna" />
		<tag k="natural" v="water" />
		<tag k="ssr:stedsnr" v="746554" />
	</node>
	<node lat="69.10439722318355" lon="17.980302776911884" id="-59237">
		<tag k="name" v="Steinfjellelva" />
		<tag k="ssr:stedsnr" v="747259" />
		<tag k="waterway" v="stream" />
	</node>
	<node lat="69.13246111274162" lon="17.95889722456105" id="-59244">
		<tag k="name" v="Rundvatnet" />
		<tag k="natural" v="water" />
		<tag k="ssr:stedsnr" v="779075" />
	</node>
	<node lat="69.11736944450165" lon="18.012633327906293" id="-59252">
		<tag k="name" v="Gårdselva" />
		<tag k="ssr:stedsnr" v="783842" />
		<tag k="waterway" v="stream" />
	</node>
	<node lat="69.06517777860809" lon="17.952041669058865" id="-59262">
		<tag k="name" v="Stormyrkroken" />
		<tag k="natural" v="bay" />
		<tag k="ssr:stedsnr" v="807345" />
	</node>
	<node lat="69.05619722278514" lon="17.941244450812498" id="-59263">
		<tag k="name" v="Tobiasodden" />
		<tag k="natural" v="cape" />
		<tag k="ssr:stedsnr" v="807324" />
	</node>
	<node lat="69.13261111436762" lon="17.942583319565614" id="-59264">
		<tag k="name" v="Mellavatnet" />
		<tag k="natural" v="water" />
		<tag k="ssr:stedsnr" v="807273" />
	</node>
	<node lat="69.0528555597244" lon="17.902194437831124" id="-59266">
		<tag k="alt_name" v="Litlevatnet" />
		<tag k="name" v="Litjevatnet" />
		<tag k="natural" v="water" />
		<tag k="ssr:stedsnr" v="807340" />
	</node>
	<node lat="69.07091944904377" lon="18.420469434298713" id="-59267">
		<tag k="name" v="Trolldalsodden" />
		<tag k="natural" v="cape" />
		<tag k="ssr:stedsnr" v="807598" />
	</node>
	<node lat="69.12220278013429" lon="18.099230544816766" id="-59270">
		<tag k="name" v="Finnkongvatnet" />
		<tag k="natural" v="water" />
		<tag k="ssr:stedsnr" v="807551" />
	</node>
	<node lat="69.12579999929847" lon="18.39156111308628" id="-59272">
		<tag k="name" v="Kamplitjørnan" />
		<tag k="natural" v="water" />
		<tag k="ssr:stedsnr" v="807559" />
	</node>
	<node lat="69.12400000339647" lon="18.232711103854506" id="-59273">
		<tag k="name" v="Storbekken" />
		<tag k="ssr:stedsnr" v="807562" />
		<tag k="waterway" v="stream" />
	</node>
	<node lat="69.09224999752334" lon="18.195566663256475" id="-59275">
		<tag k="name" v="Tømmerelva - Dimbbarjohka" />
		<tag k="name:no" v="Tømmerelva" />
		<tag k="name:se" v="Dimbbarjohka" />
		<tag k="old_name:se" v="Dimbarjåkka" />
		<tag k="ssr:stedsnr" v="807569" />
		<tag k="waterway" v="river" />
	</node>
	<node lat="69.11085833640782" lon="18.396097213214418" id="-59276">
		<tag k="alt_name" v="Krokbekktjørna, vestre" />
		<tag k="name" v="Vestre Krokbekktjønna" />
		<tag k="natural" v="water" />
		<tag k="ssr:stedsnr" v="807575" />
	</node>
	<node lat="69.1068861096376" lon="18.26674998792755" id="-59277">
		<tag k="name" v="Småvatnan" />
		<tag k="natural" v="water" />
		<tag k="ssr:stedsnr" v="807580" />
		<tag k="water" v="lake" />
	</node>
	<node lat="69.07760000174993" lon="18.145683336060365" id="-59278">
		<tag k="name" v="Middagselva - Lurosajohka" />
		<tag k="name:no" v="Middagselva" />
		<tag k="name:se" v="Lurosajohka" />
		<tag k="old_name:se" v="Lurusajåkka" />
		<tag k="ssr:stedsnr" v="807588" />
		<tag k="waterway" v="stream" />
	</node>
	<node lat="69.1098611098279" lon="18.112638887176466" id="-59290">
		<tag k="name" v="Åslivatnet" />
		<tag k="natural" v="water" />
		<tag k="ssr:stedsnr" v="844837" />
	</node>
	<node lat="69.12732222619452" lon="18.20043888228575" id="-59294">
		<tag k="name" v="Holmen" />
		<tag k="place" v="islet" />
		<tag k="ssr:stedsnr" v="846347" />
	</node>
	<node lat="69.12556388935812" lon="17.99338887327969" id="-59297">
		<tag k="name" v="Vendingselva" />
		<tag k="ssr:stedsnr" v="868269" />
		<tag k="waterway" v="stream" />
	</node>
	<node lat="69.1077249991594" lon="18.13463054669238" id="-59299">
		<tag k="fixme" v="multiple name tags, choose one and add the other to alt_name" />
		<tag k="name" v="Leidåsvatnet;Leirraselvvatnet" />
		<tag k="natural" v="water" />
		<tag k="ssr:stedsnr" v="868548" />
	</node>
	<node lat="69.07336111197753" lon="18.341549990703335" id="-59301">
		<tag k="alt_name" v="Skjelbekken" />
		<tag k="name" v="Skjellbekken" />
		<tag k="ssr:stedsnr" v="868589" />
		<tag k="waterway" v="stream" />
	</node>
	<node lat="69.18356389087104" lon="18.1493083245533" id="-59303">
		<tag k="name" v="Šnjirggajohka" />
		<tag k="name:se" v="Šnjirggajohka" />
		<tag k="old_name:se" v="Šnjirgajåkka" />
		<tag k="ssr:stedsnr" v="868694" />
		<tag k="waterway" v="stream" />
	</node>
	<node lat="69.12570555638997" lon="18.391530550761725" id="-59312">
		<tag k="name" v="Innerste Kamplitjønna" />
		<tag k="natural" v="water" />
		<tag k="ssr:stedsnr" v="961380" />
	</node>
	<node lat="69.09937500097593" lon="18.370497213261974" id="-59314">
		<tag k="name" v="Litjønna" />
		<tag k="natural" v="water" />
		<tag k="ssr:stedsnr" v="964177" />
	</node>
	<node lat="69.18937500183273" lon="18.070541676495797" id="-59320">
		<tag k="name" v="Litjeelva" />
		<tag k="ssr:stedsnr" v="965712" />
		<tag k="waterway" v="stream" />
	</node>
	<node lat="69.125652775632" lon="18.3158833362377" id="-59325">
		<tag k="name" v="Hytteodden" />
		<tag k="natural" v="cape" />
		<tag k="ssr:stedsnr" v="967223" />
	</node>
</osm>
