<?xml version="1.0" encoding="UTF-8"?>
<osm version="0.6" generator="osmapis">
	<node lat="69.13619444077736" lon="18.00532222118299" id="-41584">
		<tag k="name" v="Falkefjellnova" />
		<tag k="natural" v="ridge" />
		<tag k="place" v="locality" />
		<tag k="ssr:stedsnr" v="232098" />
	</node>
	<node lat="69.13675833113714" lon="17.918477778854594" id="-41585">
		<tag k="name" v="Ol-Gundermyra" />
		<tag k="natural" v="wetland" />
		<tag k="ssr:stedsnr" v="232114" />
	</node>
	<node lat="69.08113333274706" lon="17.99335832018706" id="-41586">
		<tag k="name" v="Langranden" />
		<tag k="natural" v="slope" />
		<tag k="place" v="locality" />
		<tag k="ssr:stedsnr" v="233043" />
	</node>
	<node lat="69.04304721899233" lon="17.93038887819553" id="-41587">
		<tag k="name" v="Russetomta" />
		<tag k="place" v="locality" />
		<tag k="ssr:stedsnr" v="233056" />
	</node>
	<node lat="69.1292527781442" lon="18.35765554917042" id="-41588">
		<tag k="name" v="Jonvatnet" />
		<tag k="natural" v="water" />
		<tag k="ssr:stedsnr" v="18509" />
	</node>
	<node lat="69.15988055844998" lon="18.1553250004741" id="-41589">
		<tag k="name" v="Tunvoll" />
		<tag k="place" v="farm" />
		<tag k="ssr:stedsnr" v="18469" />
	</node>
	<node lat="69.15891666556344" lon="18.186713879454825" id="-41590">
		<tag k="name" v="Litjebollhaugen" />
		<tag k="natural" v="hill" />
		<tag k="place" v="locality" />
		<tag k="ssr:stedsnr" v="233331" />
	</node>
	<node lat="69.02823055756261" lon="17.95792220869445" id="-41591">
		<tag k="alt_name" v="Reinberget" />
		<tag k="name" v="Reinbergan" />
		<tag k="natural" v="hill" />
		<tag k="place" v="locality" />
		<tag k="ssr:stedsnr" v="19601" />
	</node>
	<node lat="69.03992066613947" lon="18.016463564325743" id="-41592">
		<tag k="name" v="Nygård" />
		<tag k="place" v="farm" />
		<tag k="ssr:stedsnr" v="19902" />
	</node>
	<node lat="69.1800775225411" lon="18.065862176100985" id="-41593">
		<tag k="alt_name" v="Grunnreis" />
		<tag k="fixme" v="consider place=hamlet" />
		<tag k="name" v="Grunnreisa" />
		<tag k="place" v="farm" />
		<tag k="ssr:stedsnr" v="26901" />
	</node>
	<node lat="69.17199722514552" lon="18.074894434122722" id="-41594">
		<tag k="name" v="Oldervikneset" />
		<tag k="natural" v="cape" />
		<tag k="ssr:stedsnr" v="29510" />
	</node>
	<node lat="69.08201944290124" lon="18.221855548337544" id="-41595">
		<tag k="name" v="Sæterlimyrene" />
		<tag k="natural" v="wetland" />
		<tag k="ssr:stedsnr" v="236340" />
	</node>
	<node lat="69.10088055381364" lon="18.043749985365306" id="-41596">
		<tag k="name" v="Brentemyra" />
		<tag k="natural" v="wetland" />
		<tag k="ssr:stedsnr" v="236571" />
	</node>
	<node lat="69.0874583335964" lon="18.20494165618218" id="-41597">
		<tag k="name" v="Sæterbekken" />
		<tag k="ssr:stedsnr" v="236474" />
		<tag k="waterway" v="stream" />
	</node>
	<node lat="69.06724444172688" lon="18.033047227555326" id="-41598">
		<tag k="name" v="Gumpeelva" />
		<tag k="ssr:stedsnr" v="236915" />
		<tag k="waterway" v="stream" />
	</node>
	<node lat="69.16202222294739" lon="18.086369440998208" id="-41599">
		<tag k="name" v="Halsen" />
		<tag k="place" v="locality" />
		<tag k="ssr:stedsnr" v="237689" />
	</node>
	<node lat="69.14472222446969" lon="18.019219447800282" id="-41600">
		<tag k="name" v="Svartevatnet" />
		<tag k="natural" v="water" />
		<tag k="ssr:stedsnr" v="237907" />
	</node>
	<node lat="69.12198610868633" lon="18.05267220822941" id="-41601">
		<tag k="name" v="Åselva" />
		<tag k="ssr:stedsnr" v="237832" />
		<tag k="waterway" v="stream" />
	</node>
	<node lat="69.1226166688697" lon="18.078008334757794" id="-41602">
		<tag k="name" v="Grønnlidalen" />
		<tag k="natural" v="valley" />
		<tag k="place" v="locality" />
		<tag k="ssr:stedsnr" v="237840" />
	</node>
	<node lat="69.12956388791669" lon="18.11899721670865" id="-41603">
		<tag k="name" v="Per-Svensaholene" />
		<tag k="natural" v="slope" />
		<tag k="place" v="locality" />
		<tag k="ssr:stedsnr" v="237867" />
	</node>
	<node lat="69.19400555918678" lon="18.140491653994673" id="-41604">
		<tag k="fixme" v="consider natural=peak for the most distinct mountains in the district" />
		<tag k="name" v="Gullhaugan" />
		<tag k="natural" v="hill" />
		<tag k="place" v="locality" />
		<tag k="ssr:stedsnr" v="50509" />
	</node>
	<node lat="69.19554166723113" lon="18.0916555594514" id="-41605">
		<tag k="name" v="Litje Durmålshaugen" />
		<tag k="natural" v="hill" />
		<tag k="place" v="locality" />
		<tag k="ssr:stedsnr" v="50515" />
	</node>
	<node lat="69.10699166850102" lon="18.255472222249956" id="-41606">
		<tag k="name" v="Høgdtjønna" />
		<tag k="natural" v="water" />
		<tag k="ssr:stedsnr" v="239244" />
	</node>
	<node lat="69.05060833105627" lon="17.92348609536325" id="-41607">
		<tag k="name" v="Reingjerdhaugen" />
		<tag k="natural" v="hill" />
		<tag k="place" v="locality" />
		<tag k="ssr:stedsnr" v="51020" />
	</node>
	<node lat="69.10993707391755" lon="18.003997410115936" id="-41608">
		<tag k="fixme" v="consider place=hamlet" />
		<tag k="name" v="Skøelvdalen" />
		<tag k="place" v="farm" />
		<tag k="ssr:stedsnr" v="51106" />
	</node>
	<node lat="69.14412777472283" lon="17.931949998152966" id="-41609">
		<tag k="name" v="Stordalen" />
		<tag k="natural" v="valley" />
		<tag k="place" v="locality" />
		<tag k="ssr:stedsnr" v="51121" />
	</node>
	<node lat="69.14387778005648" lon="18.30359165641732" id="-41610">
		<tag k="fixme" v="consider natural=peak for the most distinct mountains in the district" />
		<tag k="name" v="Snaufjellet" />
		<tag k="natural" v="hill" />
		<tag k="place" v="locality" />
		<tag k="ssr:stedsnr" v="51303" />
	</node>
	<node lat="69.12899722091778" lon="18.30527777567588" id="-41611">
		<tag k="name" v="Libekken" />
		<tag k="ssr:stedsnr" v="51306" />
		<tag k="waterway" v="stream" />
	</node>
	<node lat="69.13540833165955" lon="18.262891672920208" id="-41612">
		<tag k="name" v="Fremste Stabbursvatnet" />
		<tag k="natural" v="water" />
		<tag k="ssr:stedsnr" v="51308" />
	</node>
	<node lat="69.13043611209653" lon="18.282241671155607" id="-41613">
		<tag k="name" v="Innerste Stabbursvatnet" />
		<tag k="natural" v="water" />
		<tag k="ssr:stedsnr" v="51310" />
		<tag k="water" v="lake" />
	</node>
	<node lat="69.12710278185534" lon="18.380188878751646" id="-41614">
		<tag k="name" v="Fremste Kamplivatnet" />
		<tag k="natural" v="water" />
		<tag k="ssr:stedsnr" v="51419" />
	</node>
	<node lat="69.11363333320168" lon="18.23615276918292" id="-41615">
		<tag k="name" v="Bekkedalen" />
		<tag k="natural" v="valley" />
		<tag k="place" v="locality" />
		<tag k="ssr:stedsnr" v="239338" />
	</node>
	<node lat="69.14809167055662" lon="18.174225008493657" id="-41616">
		<tag k="name" v="Steinhaug" />
		<tag k="place" v="farm" />
		<tag k="ssr:stedsnr" v="239350" />
	</node>
	<node lat="69.08958611422109" lon="18.05781387762119" id="-41617">
		<tag k="name" v="Kvitfløya" />
		<tag k="place" v="locality" />
		<tag k="ssr:stedsnr" v="54903" />
	</node>
	<node lat="69.18729722617309" lon="18.078847211557957" id="-41618">
		<tag k="name" v="Litjemoen" />
		<tag k="place" v="locality" />
		<tag k="ssr:stedsnr" v="55679" />
	</node>
	<node lat="69.18596389054166" lon="18.05583055487195" id="-41619">
		<tag k="name" v="Bollhaugen" />
		<tag k="natural" v="hill" />
		<tag k="place" v="locality" />
		<tag k="ssr:stedsnr" v="55682" />
	</node>
	<node lat="69.17164166332839" lon="18.073530550230192" id="-41620">
		<tag k="name" v="Oldervika" />
		<tag k="natural" v="bay" />
		<tag k="ssr:stedsnr" v="55684" />
	</node>
	<node lat="69.12543055858487" lon="18.109599996217643" id="-41621">
		<tag k="name" v="Krokvasshaugen" />
		<tag k="natural" v="hill" />
		<tag k="place" v="locality" />
		<tag k="ssr:stedsnr" v="55820" />
	</node>
	<node lat="69.12450555900267" lon="18.149338874275816" id="-41622">
		<tag k="name" v="Sommerveita" />
		<tag k="ssr:stedsnr" v="55822" />
		<tag k="waterway" v="stream" />
	</node>
	<node lat="69.14862778230186" lon="18.0177777739849" id="-41623">
		<tag k="name" v="Vennesberget" />
		<tag k="natural" v="hill" />
		<tag k="place" v="locality" />
		<tag k="ssr:stedsnr" v="55910" />
	</node>
	<node lat="69.11297499678335" lon="18.213408336588415" id="-41624">
		<tag k="name" v="Finnsete" />
		<tag k="place" v="locality" />
		<tag k="ssr:stedsnr" v="57330" />
	</node>
	<node lat="69.11056388998475" lon="18.20351945040246" id="-41625">
		<tag k="name" v="Holmen" />
		<tag k="place" v="islet" />
		<tag k="ssr:stedsnr" v="57333" />
	</node>
	<node lat="69.16599444100372" lon="18.18811944155222" id="-41626">
		<tag k="name" v="Storhunden" />
		<tag k="natural" v="hill" />
		<tag k="place" v="locality" />
		<tag k="ssr:stedsnr" v="79494" />
	</node>
	<node lat="69.1396055511192" lon="18.086952777399084" id="-41627">
		<tag k="fixme" v="multiple name tags, choose one and add the other to alt_name; consider seamark:type=rock or natural=shoal" />
		<tag k="name" v="Bakkejordskjeret;Skjæret" />
		<tag k="place" v="islet" />
		<tag k="ssr:stedsnr" v="79504" />
	</node>
	<node lat="69.1240055572088" lon="18.409194448838488" id="-41628">
		<tag k="fixme" v="consider natural=peak for the most distinct mountains in the district" />
		<tag k="name" v="Høgkampen" />
		<tag k="natural" v="hill" />
		<tag k="place" v="locality" />
		<tag k="ssr:stedsnr" v="79545" />
	</node>
	<node lat="69.12515555892465" lon="18.274894451848947" id="-41629">
		<tag k="alt_name" v="Jordbruvatnet" />
		<tag k="name" v="Jordbrutjønna" />
		<tag k="natural" v="water" />
		<tag k="ssr:stedsnr" v="79547" />
	</node>
	<node lat="69.11943333691366" lon="18.183349991640277" id="-41630">
		<tag k="alt_name" v="Garmo" />
		<tag k="name" v="Gardmoen" />
		<tag k="place" v="farm" />
		<tag k="ssr:stedsnr" v="79549" />
	</node>
	<node lat="69.04618611103055" lon="18.16871388930334" id="-41631">
		<tag k="alt_name:no" v="Møsmørelva" />
		<tag k="name" v="Møssmørelva - Missarinjohka" />
		<tag k="name:no" v="Møssmørelva" />
		<tag k="name:se" v="Missarinjohka" />
		<tag k="old_name:se" v="Missarinjåkka" />
		<tag k="ssr:stedsnr" v="79892" />
		<tag k="waterway" v="stream" />
	</node>
	<node lat="69.1052416680654" lon="18.109677782462914" id="-41632">
		<tag k="name" v="Bjørnhauglivatnan" />
		<tag k="natural" v="water" />
		<tag k="ssr:stedsnr" v="114907" />
		<tag k="water" v="lake" />
	</node>
	<node lat="69.10501110824299" lon="18.15444443959962" id="-41633">
		<tag k="name" v="Stortuvmyra" />
		<tag k="natural" v="wetland" />
		<tag k="ssr:stedsnr" v="114909" />
	</node>
	<node lat="69.0816222213402" lon="18.204236113878306" id="-41634">
		<tag k="name" v="Rabbåsmyrene" />
		<tag k="natural" v="wetland" />
		<tag k="ssr:stedsnr" v="115367" />
	</node>
	<node lat="69.09735833637039" lon="18.272922228184317" id="-41635">
		<tag k="name" v="Rabbtjønna" />
		<tag k="natural" v="water" />
		<tag k="ssr:stedsnr" v="115371" />
	</node>
	<node lat="69.10265555438167" lon="18.286038874085403" id="-41636">
		<tag k="fixme" v="consider natural=peak for the most distinct mountains in the district" />
		<tag k="name" v="Hammaren" />
		<tag k="natural" v="hill" />
		<tag k="place" v="locality" />
		<tag k="ssr:stedsnr" v="115372" />
	</node>
	<node lat="69.11681666639852" lon="18.330702780188037" id="-41637">
		<tag k="name" v="Øse" />
		<tag k="natural" v="bay" />
		<tag k="ssr:stedsnr" v="115905" />
	</node>
	<node lat="69.18397778100076" lon="18.06458054613408" id="-41638">
		<tag k="name" v="Vargemyra" />
		<tag k="natural" v="wetland" />
		<tag k="ssr:stedsnr" v="115680" />
	</node>
	<node lat="69.11797500362374" lon="18.188233340301387" id="-41639">
		<tag k="name" v="Pertelveita" />
		<tag k="ssr:stedsnr" v="115813" />
		<tag k="waterway" v="stream" />
	</node>
	<node lat="69.12055832895022" lon="18.14409167278967" id="-41640">
		<tag k="name" v="Hansemyrbakkan" />
		<tag k="natural" v="slope" />
		<tag k="place" v="locality" />
		<tag k="ssr:stedsnr" v="115823" />
	</node>
	<node lat="69.0802694466115" lon="18.16009443450302" id="-41641">
		<tag k="name" v="Middagselvdalen" />
		<tag k="natural" v="valley" />
		<tag k="place" v="locality" />
		<tag k="ssr:stedsnr" v="115892" />
	</node>
	<node lat="69.14229721852206" lon="18.23843610264224" id="-41642">
		<tag k="name" v="Svartbergan" />
		<tag k="natural" v="hill" />
		<tag k="place" v="locality" />
		<tag k="ssr:stedsnr" v="117387" />
	</node>
	<node lat="69.09233610822987" lon="18.091174998834433" id="-41643">
		<tag k="name" v="Kvitkua" />
		<tag k="natural" v="slope" />
		<tag k="place" v="locality" />
		<tag k="ssr:stedsnr" v="139587" />
	</node>
	<node lat="69.09642499654517" lon="18.026266674354595" id="-41644">
		<tag k="name" v="Skogstad" />
		<tag k="place" v="farm" />
		<tag k="ssr:stedsnr" v="139596" />
	</node>
	<node lat="69.16935555235673" lon="18.150208328496504" id="-41645">
		<tag k="name" v="Skreda" />
		<tag k="natural" v="slope" />
		<tag k="place" v="locality" />
		<tag k="ssr:stedsnr" v="139702" />
	</node>
	<node lat="69.09526111302542" lon="18.354047209025182" id="-41646">
		<tag k="fixme" v="multiple name tags, choose one and add the other to alt_name" />
		<tag k="name" v="Vesttjørna;Vesltjønna" />
		<tag k="natural" v="water" />
		<tag k="ssr:stedsnr" v="139606" />
	</node>
	<node lat="69.18962222316397" lon="18.33039165828313" id="-41647">
		<tag k="name" v="Svartvatnet" />
		<tag k="natural" v="water" />
		<tag k="ssr:stedsnr" v="139695" />
	</node>
	<node lat="69.05626666461474" lon="18.217122221459604" id="-41648">
		<tag k="name" v="Gjerdemyra" />
		<tag k="natural" v="wetland" />
		<tag k="ssr:stedsnr" v="140903" />
	</node>
	<node lat="69.16250278171518" lon="18.092002787969896" id="-41649">
		<tag k="name" v="Furøy" />
		<tag k="old_name" v="Forøya" />
		<tag k="place" v="hamlet" />
		<tag k="ssr:stedsnr" v="147910" />
	</node>
	<node lat="69.15871666817652" lon="18.0835583427783" id="-41650">
		<tag k="alt_name" v="Indre Furøyneset" />
		<tag k="name" v="Indre Forøyneset" />
		<tag k="natural" v="cape" />
		<tag k="ssr:stedsnr" v="150453" />
	</node>
	<node lat="69.1207472239897" lon="18.43481944866338" id="-41651">
		<tag k="name" v="Andreasberget" />
		<tag k="natural" v="hill" />
		<tag k="place" v="locality" />
		<tag k="ssr:stedsnr" v="158601" />
	</node>
	<node lat="69.08329722194341" lon="18.429611094982405" id="-41652">
		<tag k="name" v="Trolldalstjønna" />
		<tag k="natural" v="water" />
		<tag k="ssr:stedsnr" v="158615" />
	</node>
	<node lat="69.21388611498413" lon="18.2869472258071" id="-41653">
		<tag k="name" v="Fagerlund" />
		<tag k="place" v="farm" />
		<tag k="ssr:stedsnr" v="260741" />
	</node>
	<node lat="69.2011777787507" lon="18.089775002549555" id="-41654">
		<tag k="alt_name" v="Kringlevatnet" />
		<tag k="name" v="Kringelvatnet" />
		<tag k="natural" v="water" />
		<tag k="ssr:stedsnr" v="260759" />
	</node>
	<node lat="69.1400333327208" lon="17.923886097629165" id="-41655">
		<tag k="name" v="Kvasshaugen" />
		<tag k="natural" v="hill" />
		<tag k="place" v="locality" />
		<tag k="ssr:stedsnr" v="172068" />
	</node>
	<node lat="69.13550555767986" lon="17.914147228698642" id="-41656">
		<tag k="name" v="Stormyra" />
		<tag k="natural" v="wetland" />
		<tag k="ssr:stedsnr" v="172074" />
	</node>
	<node lat="69.13411388476594" lon="17.920613886501783" id="-41657">
		<tag k="name" v="Grønnlia" />
		<tag k="natural" v="slope" />
		<tag k="place" v="locality" />
		<tag k="ssr:stedsnr" v="172113" />
	</node>
	<node lat="69.21499166798722" lon="18.30359722680606" id="-41658">
		<tag k="name" v="Langmobergan" />
		<tag k="natural" v="hill" />
		<tag k="place" v="locality" />
		<tag k="ssr:stedsnr" v="172512" />
	</node>
	<node lat="69.15400555968536" lon="18.1734861173525" id="-41659">
		<tag k="name" v="Sponlia" />
		<tag k="natural" v="slope" />
		<tag k="place" v="locality" />
		<tag k="ssr:stedsnr" v="173269" />
	</node>
	<node lat="69.13647222100502" lon="17.97863887809165" id="-41660">
		<tag k="name" v="Kaggevatnet" />
		<tag k="natural" v="water" />
		<tag k="ssr:stedsnr" v="261293" />
	</node>
	<node lat="69.09281111374804" lon="18.286697218791648" id="-41661">
		<tag k="name" v="Svenskhola" />
		<tag k="natural" v="valley" />
		<tag k="place" v="locality" />
		<tag k="ssr:stedsnr" v="175354" />
	</node>
	<node lat="69.09216111465595" lon="18.037913883260373" id="-41662">
		<tag k="name" v="Gårdsmyra" />
		<tag k="natural" v="wetland" />
		<tag k="ssr:stedsnr" v="175876" />
	</node>
	<node lat="69.19844167052185" lon="18.26358889488065" id="-41663">
		<tag k="name" v="Lyshaugen" />
		<tag k="natural" v="hill" />
		<tag k="place" v="locality" />
		<tag k="ssr:stedsnr" v="176155" />
	</node>
	<node lat="69.05705833287597" lon="18.386205554126953" id="-41664">
		<tag k="name" v="Sørhusrabban" />
		<tag k="natural" v="hill" />
		<tag k="place" v="locality" />
		<tag k="ssr:stedsnr" v="176169" />
	</node>
	<node lat="69.10502222621984" lon="18.38472500071826" id="-41665">
		<tag k="name" v="Småvatnan" />
		<tag k="natural" v="water" />
		<tag k="ssr:stedsnr" v="176170" />
		<tag k="water" v="lake" />
	</node>
	<node lat="69.08655277752284" lon="18.406302773744112" id="-41666">
		<tag k="name" v="Skjelltjønna" />
		<tag k="natural" v="water" />
		<tag k="ssr:stedsnr" v="176173" />
	</node>
	<node lat="69.08941944332528" lon="18.19851110245338" id="-41667">
		<tag k="name" v="Killingodden" />
		<tag k="natural" v="cape" />
		<tag k="ssr:stedsnr" v="176470" />
	</node>
	<node lat="69.13613333662704" lon="18.067361101832073" id="-41668">
		<tag k="alt_name" v="Rambergan" />
		<tag k="name" v="Ramberg" />
		<tag k="natural" v="hill" />
		<tag k="place" v="locality" />
		<tag k="ssr:stedsnr" v="261557" />
	</node>
	<node lat="69.13480555703283" lon="18.07846666612527" id="-41669">
		<tag k="name" v="Bakkejordvika" />
		<tag k="natural" v="bay" />
		<tag k="ssr:stedsnr" v="176869" />
	</node>
	<node lat="69.12607499888028" lon="18.0486833416482" id="-41670">
		<tag k="name" v="Åsland" />
		<tag k="place" v="farm" />
		<tag k="ssr:stedsnr" v="261569" />
	</node>
	<node lat="69.10598333722412" lon="18.050330545600218" id="-41671">
		<tag k="name" v="Vendingselva" />
		<tag k="ssr:stedsnr" v="261576" />
		<tag k="waterway" v="river" />
	</node>
	<node lat="69.11653333150957" lon="18.201133318162956" id="-41672">
		<tag k="name" v="Nermoen" />
		<tag k="place" v="farm" />
		<tag k="ssr:stedsnr" v="261579" />
	</node>
	<node lat="69.11708055919684" lon="18.037222219703093" id="-41673">
		<tag k="name" v="Fossbakken" />
		<tag k="place" v="farm" />
		<tag k="ssr:stedsnr" v="261582" />
	</node>
	<node lat="69.14141568219708" lon="18.14747540425368" id="-41674">
		<tag k="alt_name" v="Straumen" />
		<tag k="amenity" v="place_of_worship" />
		<tag k="denomination" v="lutheran" />
		<tag k="name" v="Straumen kapell" />
		<tag k="religion" v="christian" />
		<tag k="ssr:stedsnr" v="261541" />
	</node>
	<node lat="69.07616388694103" lon="18.182058317971286" id="-41675">
		<tag k="name" v="Solheim" />
		<tag k="place" v="farm" />
		<tag k="ssr:stedsnr" v="261614" />
	</node>
	<node lat="69.1930527823247" lon="18.219369436705467" id="-41676">
		<tag k="alt_name" v="Skjelfjellet" />
		<tag k="fixme" v="consider natural=peak for the most distinct mountains in the district" />
		<tag k="name" v="Skjellfjellet" />
		<tag k="natural" v="hill" />
		<tag k="place" v="locality" />
		<tag k="ssr:stedsnr" v="261702" />
	</node>
	<node lat="69.04064444714595" lon="18.008233322865603" id="-41677">
		<tag k="alt_name" v="Austgård" />
		<tag k="name" v="Østgård" />
		<tag k="place" v="farm" />
		<tag k="ssr:stedsnr" v="261868" />
	</node>
	<node lat="69.04873333758228" lon="18.37894722505515" id="-41678">
		<tag k="fixme" v="consider natural=peak for the most distinct mountains in the district" />
		<tag k="name" v="Sørhusfjellet" />
		<tag k="natural" v="hill" />
		<tag k="place" v="locality" />
		<tag k="ssr:stedsnr" v="261869" />
	</node>
	<node lat="69.0063777781602" lon="18.13976942923191" id="-41679">
		<tag k="fixme" v="consider natural=peak for the most distinct mountains in the district" />
		<tag k="name" v="Gievdnečohkka" />
		<tag k="name:se" v="Gievdnečohkka" />
		<tag k="natural" v="hill" />
		<tag k="old_name:se" v="Gievdnečåkka" />
		<tag k="place" v="locality" />
		<tag k="ssr:stedsnr" v="261908" />
	</node>
	<node lat="69.06313889319952" lon="18.118124997494068" id="-41680">
		<tag k="fixme" v="consider natural=peak for the most distinct mountains in the district" />
		<tag k="name" v="Storlifjellet - Lurosavárri" />
		<tag k="name:no" v="Storlifjellet" />
		<tag k="name:se" v="Lurosavárri" />
		<tag k="natural" v="hill" />
		<tag k="old_name:se" v="Lurusavarri" />
		<tag k="place" v="locality" />
		<tag k="ssr:stedsnr" v="266601" />
	</node>
	<node lat="69.09673611516656" lon="17.994836098903992" id="-41681">
		<tag k="alt_name" v="Solborg" />
		<tag k="name" v="Solborgtun" />
		<tag k="place" v="farm" />
		<tag k="ssr:stedsnr" v="200255" />
	</node>
	<node lat="69.15969999787109" lon="18.2499777745887" id="-41682">
		<tag k="fixme" v="consider natural=peak for the most distinct mountains in the district" />
		<tag k="name" v="Berrskallen - Stuorrasnulki" />
		<tag k="name:no" v="Berrskallen" />
		<tag k="name:se" v="Stuorrasnulki" />
		<tag k="natural" v="hill" />
		<tag k="place" v="locality" />
		<tag k="ssr:stedsnr" v="201498" />
	</node>
	<node lat="69.1331861095496" lon="18.116630547830002" id="-41683">
		<tag k="alt_name" v="Litlevatnet" />
		<tag k="name" v="Litjevatnet" />
		<tag k="natural" v="water" />
		<tag k="ssr:stedsnr" v="201500" />
	</node>
	<node lat="69.1512722195009" lon="18.049827764142258" id="-41684">
		<tag k="fixme" v="multiple name tags, choose one and add the other to alt_name" />
		<tag k="name" v="Smørsgårdflua;Smørsgårdgrunnen" />
		<tag k="natural" v="shoal" />
		<tag k="place" v="locality" />
		<tag k="ssr:stedsnr" v="211541" />
	</node>
	<node lat="69.15361389306439" lon="18.126533335876847" id="-41685">
		<tag k="name" v="Øyjordgrunnen" />
		<tag k="natural" v="shoal" />
		<tag k="place" v="locality" />
		<tag k="ssr:stedsnr" v="211546" />
	</node>
	<node lat="68.98779166507394" lon="18.04423610929922" id="-41686">
		<tag k="fixme" v="consider natural=peak for the most distinct mountains in the district" />
		<tag k="name" v="Geađgebatvárri" />
		<tag k="name:se" v="Geađgebatvárri" />
		<tag k="natural" v="hill" />
		<tag k="old_name:se" v="Gædgebatvarri" />
		<tag k="place" v="locality" />
		<tag k="ssr:stedsnr" v="270316" />
	</node>
	<node lat="69.01118610843115" lon="18.044172217457774" id="-41687">
		<tag k="name" v="Tverrelva" />
		<tag k="ssr:stedsnr" v="232111" />
		<tag k="waterway" v="stream" />
	</node>
	<node lat="69.13319722147355" lon="18.321905541724387" id="-41688">
		<tag k="name" v="Vakkerhumplia" />
		<tag k="natural" v="slope" />
		<tag k="place" v="locality" />
		<tag k="ssr:stedsnr" v="233280" />
	</node>
	<node lat="69.12820278012363" lon="18.274944434155834" id="-41689">
		<tag k="ford" v="yes" />
		<tag k="name" v="Jordbru" />
		<tag k="place" v="locality" />
		<tag k="ssr:stedsnr" v="233288" />
	</node>
	<node lat="69.1430777742391" lon="18.312608338910174" id="-41690">
		<tag k="name" v="Vakkerhumpvatnet" />
		<tag k="natural" v="water" />
		<tag k="ssr:stedsnr" v="233291" />
	</node>
	<node lat="69.09992777623854" lon="18.07520554446608" id="-41691">
		<tag k="name" v="Durmålskaret" />
		<tag k="natural" v="valley" />
		<tag k="place" v="locality" />
		<tag k="ssr:stedsnr" v="236879" />
	</node>
	<node lat="69.0955861145056" lon="18.053841668243447" id="-41692">
		<tag k="fixme" v="consider natural=peak for the most distinct mountains in the district" />
		<tag k="name" v="Rundfjellet" />
		<tag k="natural" v="hill" />
		<tag k="place" v="locality" />
		<tag k="ssr:stedsnr" v="236888" />
	</node>
	<node lat="69.08191944461139" lon="18.407263883023457" id="-41693">
		<tag k="name" v="Lytterhaugen" />
		<tag k="natural" v="hill" />
		<tag k="place" v="locality" />
		<tag k="ssr:stedsnr" v="236912" />
	</node>
	<node lat="69.19173055672776" lon="18.03823611801572" id="-41694">
		<tag k="name" v="Klauvsundet" />
		<tag k="natural" v="strait" />
		<tag k="ssr:stedsnr" v="237733" />
	</node>
	<node lat="69.11506944474625" lon="18.126063881571277" id="-41695">
		<tag k="name" v="Botolvmyrliene" />
		<tag k="natural" v="slope" />
		<tag k="place" v="locality" />
		<tag k="ssr:stedsnr" v="237830" />
	</node>
	<node lat="69.09193610851874" lon="18.028041664783654" id="-41696">
		<tag k="name" v="Stormyra" />
		<tag k="natural" v="wetland" />
		<tag k="ssr:stedsnr" v="451892" />
	</node>
	<node lat="69.1470749988726" lon="18.056263875110353" id="-41697">
		<tag k="fixme" v="consider place=hamlet" />
		<tag k="name" v="Smørsgård" />
		<tag k="place" v="village" />
		<tag k="ssr:stedsnr" v="451936" />
	</node>
	<node lat="69.14009444419409" lon="17.659849997745248" id="-41698">
		<tag k="bay" v="fjord" />
		<tag k="name" v="Solbergfjorden" />
		<tag k="natural" v="bay" />
		<tag k="ssr:stedsnr" v="261296" />
	</node>
	<node lat="69.1468000015238" lon="17.973633331174387" id="-41699">
		<tag k="name" v="Brennevinselva" />
		<tag k="ssr:stedsnr" v="261313" />
		<tag k="waterway" v="stream" />
	</node>
	<node lat="69.08592777771354" lon="18.293505540056792" id="-41700">
		<tag k="alt_name" v="Myrtjørna" />
		<tag k="name" v="Myrtjønna" />
		<tag k="natural" v="water" />
		<tag k="ssr:stedsnr" v="261595" />
	</node>
	<node lat="69.19370277757058" lon="18.064783333057708" id="-41701">
		<tag k="name" v="Ellingmyrhaugen" />
		<tag k="natural" v="hill" />
		<tag k="place" v="locality" />
		<tag k="ssr:stedsnr" v="292531" />
	</node>
	<node lat="69.12669166559066" lon="17.939333341333587" id="-41702">
		<tag k="name" v="Bjelma" />
		<tag k="ssr:stedsnr" v="293129" />
		<tag k="waterway" v="stream" />
	</node>
	<node lat="69.0578194455354" lon="18.41009444008591" id="-41703">
		<tag k="name" v="Storbekken" />
		<tag k="ssr:stedsnr" v="462633" />
		<tag k="waterway" v="stream" />
	</node>
	<node lat="69.05643055879783" lon="18.351394430908194" id="-41704">
		<tag k="name" v="Tverrelvdalen" />
		<tag k="natural" v="valley" />
		<tag k="place" v="locality" />
		<tag k="ssr:stedsnr" v="297171" />
	</node>
	<node lat="69.04986944952246" lon="18.21780831934999" id="-41705">
		<tag k="name" v="Veiddalen" />
		<tag k="natural" v="valley" />
		<tag k="place" v="locality" />
		<tag k="ssr:stedsnr" v="297613" />
	</node>
	<node lat="69.0789611083902" lon="18.394341657616064" id="-41706">
		<tag k="name" v="Storbergan" />
		<tag k="natural" v="hill" />
		<tag k="place" v="locality" />
		<tag k="ssr:stedsnr" v="297908" />
	</node>
	<node lat="69.12494166698643" lon="18.37995556299374" id="-41707">
		<tag k="name" v="Pellestua" />
		<tag k="place" v="locality" />
		<tag k="ssr:stedsnr" v="297911" />
	</node>
	<node lat="69.12237222453305" lon="18.15449999117994" id="-41708">
		<tag k="name" v="Krøkemyra" />
		<tag k="natural" v="wetland" />
		<tag k="ssr:stedsnr" v="297837" />
	</node>
	<node lat="69.14036666403716" lon="18.1320555607359" id="-41709">
		<tag k="name" v="Tjuggelmyra" />
		<tag k="natural" v="wetland" />
		<tag k="ssr:stedsnr" v="297878" />
	</node>
	<node lat="69.13499999978434" lon="18.051472215311875" id="-41710">
		<tag k="alt_name" v="Skøelven" />
		<tag k="fixme" v="consider place=hamlet" />
		<tag k="name" v="Skøelva" />
		<tag k="place" v="farm" />
		<tag k="ssr:stedsnr" v="297884" />
	</node>
	<node lat="69.13374999665415" lon="18.038797219058605" id="-41711">
		<tag k="name" v="Finnebrekka" />
		<tag k="natural" v="slope" />
		<tag k="place" v="locality" />
		<tag k="ssr:stedsnr" v="297887" />
	</node>
	<node lat="69.11211944442233" lon="18.188977766273506" id="-41712">
		<tag k="name" v="Furumyra" />
		<tag k="natural" v="wetland" />
		<tag k="ssr:stedsnr" v="299379" />
	</node>
	<node lat="69.11889166497083" lon="18.232074990163227" id="-41713">
		<tag k="name" v="Kalhaugen" />
		<tag k="natural" v="hill" />
		<tag k="place" v="locality" />
		<tag k="ssr:stedsnr" v="299381" />
	</node>
	<node lat="69.11899568184491" lon="18.220747117750854" id="-41714">
		<tag k="fixme" v="consider place=hamlet" />
		<tag k="name" v="Finnset" />
		<tag k="place" v="farm" />
		<tag k="ssr:stedsnr" v="299382" />
	</node>
	<node lat="69.10887778115219" lon="18.286066664574662" id="-41715">
		<tag k="name" v="Slåttdalskanten" />
		<tag k="natural" v="slope" />
		<tag k="place" v="locality" />
		<tag k="ssr:stedsnr" v="299280" />
	</node>
	<node lat="69.11916388861559" lon="18.30921110102904" id="-41716">
		<tag k="name" v="Brattstien" />
		<tag k="natural" v="slope" />
		<tag k="place" v="locality" />
		<tag k="ssr:stedsnr" v="299301" />
	</node>
	<node lat="69.14021666850543" lon="18.3117000076109" id="-41717">
		<tag k="name" v="Rundvatnet" />
		<tag k="natural" v="water" />
		<tag k="ssr:stedsnr" v="321508" />
	</node>
	<node lat="69.1295805521288" lon="18.210380558256823" id="-41718">
		<tag k="name" v="Follstad" />
		<tag k="place" v="farm" />
		<tag k="ssr:stedsnr" v="321518" />
	</node>
	<node lat="69.11064999986839" lon="18.119574985217827" id="-41719">
		<tag k="fixme" v="consider natural=peak for the most distinct mountains in the district" />
		<tag k="name" v="Heia - Ráissavárdu" />
		<tag k="name:no" v="Heia" />
		<tag k="name:se" v="Ráissavárdu" />
		<tag k="natural" v="hill" />
		<tag k="old_name:se" v="Raisavardo" />
		<tag k="place" v="locality" />
		<tag k="ssr:stedsnr" v="321534" />
	</node>
	<node lat="69.09505833580036" lon="18.008238891558896" id="-41720">
		<tag k="name" v="Mellemlyshaugen" />
		<tag k="natural" v="hill" />
		<tag k="place" v="locality" />
		<tag k="ssr:stedsnr" v="329863" />
	</node>
	<node lat="69.09570832863731" lon="18.410938895015445" id="-41721">
		<tag k="name" v="Kolekvinthaugen" />
		<tag k="natural" v="hill" />
		<tag k="place" v="locality" />
		<tag k="ssr:stedsnr" v="340615" />
	</node>
	<node lat="69.19848333700604" lon="18.087399996769637" id="-41722">
		<tag k="name" v="Stengebergan" />
		<tag k="natural" v="hill" />
		<tag k="place" v="locality" />
		<tag k="ssr:stedsnr" v="353558" />
	</node>
	<node lat="69.2012333324759" lon="18.096502767398608" id="-41723">
		<tag k="name" v="Kringellia" />
		<tag k="natural" v="slope" />
		<tag k="place" v="locality" />
		<tag k="ssr:stedsnr" v="353565" />
	</node>
	<node lat="69.13727222047656" lon="17.956311103304976" id="-41724">
		<tag k="fixme" v="consider natural=peak for the most distinct mountains in the district" />
		<tag k="name" v="Tiefjellet" />
		<tag k="natural" v="hill" />
		<tag k="place" v="locality" />
		<tag k="ssr:stedsnr" v="354102" />
	</node>
	<node lat="69.13382222358847" lon="17.984116671431675" id="-41725">
		<tag k="name" v="Rustmyra" />
		<tag k="natural" v="wetland" />
		<tag k="ssr:stedsnr" v="354108" />
	</node>
	<node lat="69.12056944746679" lon="17.99938610716223" id="-41726">
		<tag k="name" v="Svartberget" />
		<tag k="natural" v="hill" />
		<tag k="place" v="locality" />
		<tag k="ssr:stedsnr" v="354114" />
	</node>
	<node lat="69.20359444369528" lon="18.062666659002733" id="-41727">
		<tag k="name" v="Langhaugen" />
		<tag k="natural" v="hill" />
		<tag k="place" v="locality" />
		<tag k="ssr:stedsnr" v="474556" />
	</node>
	<node lat="69.0315444464715" lon="18.058575009154943" id="-41728">
		<tag k="name" v="Rustbekken" />
		<tag k="ssr:stedsnr" v="475147" />
		<tag k="waterway" v="stream" />
	</node>
	<node lat="69.13128056011783" lon="18.00108609991137" id="-41729">
		<tag k="name" v="Kvitfløya" />
		<tag k="natural" v="hill" />
		<tag k="place" v="locality" />
		<tag k="ssr:stedsnr" v="475100" />
	</node>
	<node lat="69.09541666992477" lon="18.369033328818997" id="-41730">
		<tag k="name" v="Midttjønnlia" />
		<tag k="natural" v="slope" />
		<tag k="place" v="locality" />
		<tag k="ssr:stedsnr" v="358149" />
	</node>
	<node lat="69.18108333623326" lon="18.122858325962735" id="-41731">
		<tag k="name" v="Finngamelva" />
		<tag k="ssr:stedsnr" v="358670" />
		<tag k="waterway" v="stream" />
	</node>
	<node lat="69.06029444185958" lon="17.940047226844086" id="-41732">
		<tag k="name" v="Logan" />
		<tag k="natural" v="wetland" />
		<tag k="ssr:stedsnr" v="476069" />
	</node>
	<node lat="69.03939166416312" lon="17.965527764845476" id="-41733">
		<tag k="name" v="Finntjeldmoen" />
		<tag k="place" v="locality" />
		<tag k="ssr:stedsnr" v="476079" />
	</node>
	<node lat="69.05113888925624" lon="17.907027765930064" id="-41734">
		<tag k="name" v="Litjevassholtan" />
		<tag k="natural" v="hill" />
		<tag k="place" v="locality" />
		<tag k="ssr:stedsnr" v="476023" />
	</node>
	<node lat="69.15599166435159" lon="18.201077761445582" id="-41735">
		<tag k="name" v="Skjellbergan" />
		<tag k="natural" v="hill" />
		<tag k="place" v="locality" />
		<tag k="ssr:stedsnr" v="476292" />
	</node>
	<node lat="69.07617777444194" lon="18.050172223743665" id="-41736">
		<tag k="name" v="Hestesletta" />
		<tag k="place" v="locality" />
		<tag k="ssr:stedsnr" v="478912" />
	</node>
	<node lat="69.06955277740325" lon="18.055936101366086" id="-41737">
		<tag k="name" v="Reinhaugen" />
		<tag k="natural" v="hill" />
		<tag k="place" v="locality" />
		<tag k="ssr:stedsnr" v="478915" />
	</node>
	<node lat="69.09407777333746" lon="18.278188894529134" id="-41738">
		<tag k="name" v="Rabban" />
		<tag k="natural" v="hill" />
		<tag k="place" v="locality" />
		<tag k="ssr:stedsnr" v="479353" />
	</node>
	<node lat="69.09593333639815" lon="18.192322220251654" id="-41739">
		<tag k="name" v="Sørfossbogen" />
		<tag k="place" v="hamlet" />
		<tag k="ssr:stedsnr" v="479495" />
	</node>
	<node lat="69.10440000139978" lon="18.204638885333782" id="-41740">
		<tag k="name" v="Langgrubba" />
		<tag k="place" v="locality" />
		<tag k="ssr:stedsnr" v="479497" />
	</node>
	<node lat="69.15198889328815" lon="18.145419442351436" id="-41741">
		<tag k="fixme" v="consider seamark:type=rock or natural=shoal" />
		<tag k="name" v="Kobbeskjæret" />
		<tag k="place" v="islet" />
		<tag k="ssr:stedsnr" v="479673" />
	</node>
	<node lat="69.15904444823056" lon="18.09299445177798" id="-41742">
		<tag k="fixme" v="consider seamark:type=rock or natural=shoal" />
		<tag k="name" v="Nesåkerspira" />
		<tag k="place" v="islet" />
		<tag k="ssr:stedsnr" v="479678" />
	</node>
	<node lat="69.10837777957077" lon="18.083205558680145" id="-41743">
		<tag k="name" v="Bjørnlihaugen" />
		<tag k="natural" v="hill" />
		<tag k="place" v="locality" />
		<tag k="ssr:stedsnr" v="479859" />
	</node>
	<node lat="69.12175278008318" lon="18.064836101223374" id="-41744">
		<tag k="ford" v="yes" />
		<tag k="name" v="Jordbrua" />
		<tag k="place" v="locality" />
		<tag k="ssr:stedsnr" v="479872" />
	</node>
	<node lat="69.21090555462143" lon="18.280500002847486" id="-41745">
		<tag k="name" v="Vasslausbekken" />
		<tag k="ssr:stedsnr" v="481285" />
		<tag k="waterway" v="stream" />
	</node>
	<node lat="69.11357500197852" lon="18.266316675476695" id="-41746">
		<tag k="fixme" v="consider natural=peak for the most distinct mountains in the district" />
		<tag k="name" v="Slettuva" />
		<tag k="natural" v="hill" />
		<tag k="place" v="locality" />
		<tag k="ssr:stedsnr" v="481291" />
	</node>
	<node lat="69.11328333654839" lon="18.20744166514169" id="-41747">
		<tag k="name" v="Moen" />
		<tag k="place" v="farm" />
		<tag k="ssr:stedsnr" v="481294" />
	</node>
	<node lat="69.14491944288754" lon="18.18396943108518" id="-41748">
		<tag k="name" v="Brekkedalen" />
		<tag k="natural" v="valley" />
		<tag k="place" v="locality" />
		<tag k="ssr:stedsnr" v="481383" />
	</node>
	<node lat="69.15209444561252" lon="17.985330543824034" id="-41749">
		<tag k="name" v="Yttervik" />
		<tag k="place" v="farm" />
		<tag k="ssr:stedsnr" v="382305" />
	</node>
	<node lat="69.03274444019297" lon="18.005627783147183" id="-41750">
		<tag k="name" v="Fallbekken" />
		<tag k="ssr:stedsnr" v="382615" />
		<tag k="waterway" v="stream" />
	</node>
	<node lat="69.04919665588845" lon="17.930406748860886" id="-41751">
		<tag k="alt_name" v="Slettli;Slettlien" />
		<tag k="fixme" v="consider place=hamlet" />
		<tag k="name" v="Slettlia" />
		<tag k="place" v="farm" />
		<tag k="ssr:stedsnr" v="384247" />
	</node>
	<node lat="69.12365278063606" lon="18.4118805604727" id="-41752">
		<tag k="fixme" v="consider natural=peak for the most distinct mountains in the district" />
		<tag k="name" v="Høgkampen" />
		<tag k="natural" v="hill" />
		<tag k="place" v="locality" />
		<tag k="ssr:stedsnr" v="401595" />
	</node>
	<node lat="69.13611944091012" lon="17.986116651788613" id="-41753">
		<tag k="name" v="Kaggebekken" />
		<tag k="ssr:stedsnr" v="415093" />
		<tag k="waterway" v="stream" />
	</node>
	<node lat="69.11615833299547" lon="18.0572833412039" id="-41754">
		<tag k="name" v="Storåsmyra" />
		<tag k="natural" v="wetland" />
		<tag k="ssr:stedsnr" v="419839" />
	</node>
	<node lat="69.21349166268323" lon="18.19104999925197" id="-41755">
		<tag k="name" v="Langneshalsen" />
		<tag k="natural" v="valley" />
		<tag k="place" v="locality" />
		<tag k="ssr:stedsnr" v="421241" />
	</node>
	<node lat="69.13689167002751" lon="18.198088888573626" id="-41756">
		<tag k="name" v="Straumslia" />
		<tag k="natural" v="slope" />
		<tag k="place" v="locality" />
		<tag k="ssr:stedsnr" v="421350" />
	</node>
	<node lat="69.1493750009113" lon="18.18005833068516" id="-41757">
		<tag k="name" v="Steinsland" />
		<tag k="place" v="farm" />
		<tag k="ssr:stedsnr" v="443533" />
	</node>
	<node lat="69.12686110983996" lon="18.17870276624272" id="-41758">
		<tag k="name" v="Vollneset" />
		<tag k="natural" v="cape" />
		<tag k="ssr:stedsnr" v="443539" />
	</node>
	<node lat="69.14548333181997" lon="18.120347205790434" id="-41759">
		<tag k="name" v="Tørgrunnen" />
		<tag k="natural" v="shoal" />
		<tag k="place" v="locality" />
		<tag k="ssr:stedsnr" v="272500" />
	</node>
	<node lat="69.16113018411662" lon="18.11749692678408" id="-41760">
		<tag k="alt_name" v="Gottersjorden;Gottersjord" />
		<tag k="fixme" v="consider place=hamlet" />
		<tag k="name" v="Gottersjorda" />
		<tag k="place" v="farm" />
		<tag k="ssr:stedsnr" v="451930" />
	</node>
	<node lat="69.14291944321539" lon="17.92504165963547" id="-41761">
		<tag k="name" v="Ørnholla" />
		<tag k="natural" v="valley" />
		<tag k="place" v="locality" />
		<tag k="ssr:stedsnr" v="475077" />
	</node>
	<node lat="69.13485555791213" lon="18.278394430945095" id="-41762">
		<tag k="name" v="Stabbursvasslia" />
		<tag k="natural" v="slope" />
		<tag k="place" v="locality" />
		<tag k="ssr:stedsnr" v="476259" />
	</node>
	<node lat="69.13258333086993" lon="18.36817776038703" id="-41763">
		<tag k="name" v="Heimskaret" />
		<tag k="natural" v="valley" />
		<tag k="place" v="locality" />
		<tag k="ssr:stedsnr" v="476362" />
	</node>
	<node lat="69.17908055307694" lon="18.06430555970969" id="-41764">
		<tag k="alt_name" v="Grunnreisen" />
		<tag k="name" v="Grunnreisa" />
		<tag k="place" v="farm" />
		<tag k="ssr:stedsnr" v="479703" />
	</node>
	<node lat="69.19047222012435" lon="18.0796861071432" id="-41765">
		<tag k="name" v="Wittenberg" />
		<tag k="natural" v="hill" />
		<tag k="place" v="locality" />
		<tag k="ssr:stedsnr" v="479704" />
	</node>
	<node lat="69.07754721911175" lon="18.37364444205629" id="-41766">
		<tag k="name" v="Fagerheim" />
		<tag k="place" v="farm" />
		<tag k="ssr:stedsnr" v="479913" />
	</node>
	<node lat="69.14733055410308" lon="18.058624986329402" id="-41767">
		<tag k="name" v="Smørsgårdneset" />
		<tag k="natural" v="cape" />
		<tag k="ssr:stedsnr" v="479921" />
	</node>
	<node lat="69.1061333295589" lon="18.301352773657452" id="-41768">
		<tag k="name" v="Grunnevatnet" />
		<tag k="natural" v="water" />
		<tag k="ssr:stedsnr" v="481272" />
	</node>
	<node lat="69.13707778165144" lon="18.219827776261464" id="-41769">
		<tag k="name" v="Flatbrekka" />
		<tag k="natural" v="slope" />
		<tag k="place" v="locality" />
		<tag k="ssr:stedsnr" v="481377" />
	</node>
	<node lat="69.09531944334401" lon="18.222538890873164" id="-41770">
		<tag k="fixme" v="consider natural=peak for the most distinct mountains in the district" />
		<tag k="name" v="Svartåsen" />
		<tag k="natural" v="hill" />
		<tag k="place" v="locality" />
		<tag k="ssr:stedsnr" v="503080" />
	</node>
	<node lat="69.06000277664123" lon="18.051399991786244" id="-41771">
		<tag k="name" v="Tverrelva" />
		<tag k="ssr:stedsnr" v="503081" />
		<tag k="waterway" v="stream" />
	</node>
	<node lat="69.14283055835475" lon="18.29352223080956" id="-41772">
		<tag k="alt_name" v="Litlfjellvatnet" />
		<tag k="name" v="Litjefjellvatnet" />
		<tag k="natural" v="water" />
		<tag k="ssr:stedsnr" v="503511" />
	</node>
	<node lat="69.12638333086605" lon="18.210875007561157" id="-41773">
		<tag k="alt_name" v="Rørsletta" />
		<tag k="name" v="Røyrslett" />
		<tag k="place" v="farm" />
		<tag k="ssr:stedsnr" v="503521" />
	</node>
	<node lat="69.1218500018486" lon="18.03959999005765" id="-41774">
		<tag k="name" v="Rognlia" />
		<tag k="place" v="farm" />
		<tag k="ssr:stedsnr" v="503526" />
	</node>
	<node lat="69.12916944796396" lon="18.098758343733245" id="-41775">
		<tag k="name" v="Kollen" />
		<tag k="natural" v="hill" />
		<tag k="place" v="locality" />
		<tag k="ssr:stedsnr" v="503531" />
	</node>
	<node lat="69.18886111289787" lon="18.13881944709611" id="-41776">
		<tag k="name" v="Linabrekka" />
		<tag k="natural" v="hill" />
		<tag k="place" v="locality" />
		<tag k="ssr:stedsnr" v="503668" />
	</node>
	<node lat="69.18487777900921" lon="18.145452773136636" id="-41777">
		<tag k="name" v="Slettmoen" />
		<tag k="place" v="locality" />
		<tag k="ssr:stedsnr" v="503683" />
	</node>
	<node lat="69.0513527789584" lon="17.944986096280967" id="-41778">
		<tag k="name" v="Heimdal" />
		<tag k="place" v="farm" />
		<tag k="ssr:stedsnr" v="504311" />
	</node>
	<node lat="69.04945277929045" lon="18.362100003240684" id="-41779">
		<tag k="name" v="Gearbmahabeassi" />
		<tag k="name:se" v="Gearbmahabeassi" />
		<tag k="natural" v="slope" />
		<tag k="old_name:se" v="Gærbmahabæssi" />
		<tag k="place" v="locality" />
		<tag k="ssr:stedsnr" v="504907" />
	</node>
	<node lat="69.16128888601783" lon="18.04145833895372" id="-41780">
		<tag k="name" v="Steingrunnen" />
		<tag k="natural" v="shoal" />
		<tag k="place" v="locality" />
		<tag k="ssr:stedsnr" v="514474" />
	</node>
	<node lat="69.16139722612378" lon="18.096161118172496" id="-41781">
		<tag k="name" v="Simavika" />
		<tag k="natural" v="bay" />
		<tag k="ssr:stedsnr" v="514475" />
	</node>
	<node lat="69.13341260124213" lon="18.07153398833499" id="-41782">
		<tag k="alt_name" v="Bakkejorden;Bakkejord" />
		<tag k="fixme" v="consider place=hamlet" />
		<tag k="name" v="Bakkejorda" />
		<tag k="place" v="farm" />
		<tag k="ssr:stedsnr" v="685554" />
	</node>
	<node lat="69.12165277388519" lon="18.112313893430905" id="-41783">
		<tag k="name" v="Krokvatnet" />
		<tag k="natural" v="water" />
		<tag k="ssr:stedsnr" v="685571" />
	</node>
	<node lat="69.14023888852094" lon="18.333336103277407" id="-41784">
		<tag k="fixme" v="consider natural=peak for the most distinct mountains in the district" />
		<tag k="name" v="Vakkerhumpen - Čáppavárdu" />
		<tag k="name:no" v="Vakkerhumpen" />
		<tag k="name:se" v="Čáppavárdu" />
		<tag k="natural" v="hill" />
		<tag k="old_name:se" v="Čabbavardo" />
		<tag k="place" v="locality" />
		<tag k="ssr:stedsnr" v="685526" />
	</node>
	<node lat="69.20782738818167" lon="18.250519967856214" id="-41785">
		<tag k="alt_name" v="Rensvold" />
		<tag k="fixme" v="consider place=hamlet" />
		<tag k="name" v="Reinsvoll" />
		<tag k="place" v="farm" />
		<tag k="ssr:stedsnr" v="685681" />
	</node>
	<node lat="69.21147525034563" lon="18.278593651581726" id="-41786">
		<tag k="alt_name" v="Grønvold Mellem;Grønvoll;Grønnvoll" />
		<tag k="fixme" v="consider place=hamlet" />
		<tag k="name" v="Midtre Grønvoll" />
		<tag k="place" v="farm" />
		<tag k="ssr:stedsnr" v="685683" />
	</node>
	<node lat="69.11637222086785" lon="17.968936118844855" id="-41787">
		<tag k="fixme" v="consider natural=peak for the most distinct mountains in the district" />
		<tag k="name" v="Vardefjellet" />
		<tag k="natural" v="hill" />
		<tag k="place" v="locality" />
		<tag k="ssr:stedsnr" v="686257" />
	</node>
	<node lat="69.12906944523715" lon="17.936394435402306" id="-41788">
		<tag k="name" v="Bjørgemyran" />
		<tag k="natural" v="wetland" />
		<tag k="ssr:stedsnr" v="686267" />
	</node>
	<node lat="69.1416305575107" lon="17.9217444330536" id="-41789">
		<tag k="alt_name" v="Bjørga, l" />
		<tag k="name" v="Litjebjørga" />
		<tag k="place" v="locality" />
		<tag k="ssr:stedsnr" v="686273" />
	</node>
	<node lat="69.13499166197093" lon="17.946683340874948" id="-41790">
		<tag k="name" v="Fiskevatnet" />
		<tag k="natural" v="water" />
		<tag k="ssr:stedsnr" v="686275" />
	</node>
	<node lat="69.15264722230829" lon="17.985647217282988" id="-41791">
		<tag k="name" v="Håkjerringneset" />
		<tag k="natural" v="cape" />
		<tag k="ssr:stedsnr" v="686282" />
	</node>
	<node lat="69.19662222348845" lon="18.108508329089904" id="-41792">
		<tag k="name" v="Tiurhaugan" />
		<tag k="natural" v="hill" />
		<tag k="place" v="locality" />
		<tag k="ssr:stedsnr" v="535572" />
	</node>
	<node lat="69.14565707873601" lon="18.05342381746788" id="-41793">
		<tag k="fixme" v="consider place=hamlet" />
		<tag k="name" v="Smørsgård" />
		<tag k="place" v="farm" />
		<tag k="ssr:stedsnr" v="686528" />
	</node>
	<node lat="69.14926110698937" lon="18.204286113281825" id="-41794">
		<tag k="name" v="Mølnelva - Millojohka" />
		<tag k="name:no" v="Mølnelva" />
		<tag k="name:se" v="Millojohka" />
		<tag k="old_name:se" v="Milljujåkka" />
		<tag k="ssr:stedsnr" v="686548" />
		<tag k="waterway" v="stream" />
	</node>
	<node lat="69.11510833492233" lon="17.998172216570094" id="-41795">
		<tag k="name" v="Aksla" />
		<tag k="place" v="locality" />
		<tag k="ssr:stedsnr" v="536119" />
	</node>
	<node lat="69.04818888604657" lon="18.02022499591391" id="-41796">
		<tag k="name" v="Skarbakken" />
		<tag k="natural" v="slope" />
		<tag k="place" v="locality" />
		<tag k="ssr:stedsnr" v="536123" />
	</node>
	<node lat="69.21622222255547" lon="18.294524991814512" id="-41797">
		<tag k="name" v="Litjebjelma" />
		<tag k="ssr:stedsnr" v="536480" />
		<tag k="waterway" v="stream" />
	</node>
	<node lat="69.11206111173227" lon="18.220200004969193" id="-41798">
		<tag k="fixme" v="multiple name tags, choose one and add the other to alt_name" />
		<tag k="name" v="Finnset;Øvre Finnset" />
		<tag k="place" v="farm" />
		<tag k="ssr:stedsnr" v="686577" />
	</node>
	<node lat="69.08130000010486" lon="18.0187472093521" id="-41799">
		<tag k="fixme" v="consider natural=peak for the most distinct mountains in the district" />
		<tag k="name" v="Flatgumpen" />
		<tag k="natural" v="hill" />
		<tag k="place" v="locality" />
		<tag k="ssr:stedsnr" v="686609" />
	</node>
	<node lat="69.06597500405958" lon="18.404308322321512" id="-41800">
		<tag k="name" v="Langodden" />
		<tag k="natural" v="cape" />
		<tag k="ssr:stedsnr" v="686616" />
	</node>
	<node lat="69.13311388942729" lon="18.25801665165693" id="-41801">
		<tag k="name" v="Bukkhollia" />
		<tag k="natural" v="slope" />
		<tag k="place" v="locality" />
		<tag k="ssr:stedsnr" v="537325" />
	</node>
	<node lat="69.0813249966154" lon="18.36279721685428" id="-41802">
		<tag k="name" v="Nesvollen" />
		<tag k="place" v="farm" />
		<tag k="ssr:stedsnr" v="686622" />
	</node>
	<node lat="69.07933333108085" lon="18.337913887870045" id="-41803">
		<tag k="name" v="Risvær" />
		<tag k="natural" v="cape" />
		<tag k="ssr:stedsnr" v="686632" />
	</node>
	<node lat="69.17863333744515" lon="18.07093888991602" id="-41804">
		<tag k="name" v="Grunnreisa" />
		<tag k="place" v="farm" />
		<tag k="ssr:stedsnr" v="686725" />
	</node>
	<node lat="69.11208819190239" lon="18.390044000145192" id="-41805">
		<tag k="name" v="Sæterbekken" />
		<tag k="ssr:stedsnr" v="539906" />
		<tag k="waterway" v="stream" />
	</node>
	<node lat="69.10093888510981" lon="18.101419451465837" id="-41806">
		<tag k="name" v="Råttenhola" />
		<tag k="natural" v="wetland" />
		<tag k="ssr:stedsnr" v="539876" />
	</node>
	<node lat="69.11531666407329" lon="18.16251111597633" id="-41807">
		<tag k="name" v="Geitryggen" />
		<tag k="place" v="locality" />
		<tag k="ssr:stedsnr" v="540814" />
	</node>
	<node lat="69.0613277763146" lon="18.001497220336123" id="-41808">
		<tag k="fixme" v="consider natural=peak for the most distinct mountains in the district" />
		<tag k="name" v="Høggumpen - Gearsoaivi" />
		<tag k="name:no" v="Høggumpen" />
		<tag k="name:se" v="Gearsoaivi" />
		<tag k="natural" v="hill" />
		<tag k="place" v="locality" />
		<tag k="ssr:stedsnr" v="688376" />
	</node>
	<node lat="69.08361110872677" lon="17.963319450514746" id="-41809">
		<tag k="name" v="Tverrelva" />
		<tag k="ssr:stedsnr" v="564367" />
		<tag k="waterway" v="stream" />
	</node>
	<node lat="69.12652777686623" lon="18.145833331395853" id="-41810">
		<tag k="name" v="Storelva" />
		<tag k="ssr:stedsnr" v="564569" />
		<tag k="waterway" v="stream" />
	</node>
	<node lat="69.10863333074275" lon="18.34260555103192" id="-41811">
		<tag k="name" v="Tverrelva" />
		<tag k="ssr:stedsnr" v="564570" />
		<tag k="waterway" v="stream" />
	</node>
	<node lat="69.11952778072322" lon="18.125377774594273" id="-41812">
		<tag k="name" v="Kaggevatnet" />
		<tag k="natural" v="water" />
		<tag k="ssr:stedsnr" v="564580" />
	</node>
	<node lat="69.06821944755482" lon="18.277658320679656" id="-41813">
		<tag k="name" v="Holavatnet" />
		<tag k="natural" v="water" />
		<tag k="ssr:stedsnr" v="564605" />
	</node>
	<node lat="69.07880000518392" lon="18.351802764675494" id="-41814">
		<tag k="name" v="Bukkholmen" />
		<tag k="place" v="islet" />
		<tag k="ssr:stedsnr" v="564617" />
	</node>
	<node lat="69.17016916038581" lon="18.112642317699333" id="-41815">
		<tag k="fixme" v="consider place=hamlet" />
		<tag k="name" v="Djupvåg" />
		<tag k="place" v="farm" />
		<tag k="ssr:stedsnr" v="572921" />
	</node>
	<node lat="69.14749444365127" lon="18.145580552386658" id="-41816">
		<tag k="name" v="Storneset" />
		<tag k="natural" v="cape" />
		<tag k="ssr:stedsnr" v="575104" />
	</node>
	<node lat="69.13857777835935" lon="18.09554165712882" id="-41817">
		<tag k="name" v="Fjettevika" />
		<tag k="natural" v="bay" />
		<tag k="ssr:stedsnr" v="575518" />
	</node>
	<node lat="69.10816944455635" lon="18.014400005068424" id="-41818">
		<tag k="name" v="Lyshaugen" />
		<tag k="place" v="hamlet" />
		<tag k="ssr:stedsnr" v="696382" />
	</node>
	<node lat="69.1586916697991" lon="18.11729167217683" id="-41819">
		<tag k="name" v="Gottersjordneset" />
		<tag k="natural" v="cape" />
		<tag k="ssr:stedsnr" v="696485" />
	</node>
	<node lat="69.16766110959028" lon="18.069550005607862" id="-41820">
		<tag k="alt_name" v="Ytre Furøyneset" />
		<tag k="name" v="Ytre Forøyneset" />
		<tag k="natural" v="cape" />
		<tag k="ssr:stedsnr" v="696492" />
	</node>
	<node lat="69.12083888981684" lon="17.93333333035068" id="-41821">
		<tag k="fixme" v="consider natural=peak for the most distinct mountains in the district" />
		<tag k="name" v="Kvitfløya" />
		<tag k="natural" v="hill" />
		<tag k="place" v="locality" />
		<tag k="ssr:stedsnr" v="596104" />
	</node>
	<node lat="69.12701389045567" lon="17.93420278196856" id="-41822">
		<tag k="name" v="Litjevatnet" />
		<tag k="natural" v="water" />
		<tag k="ssr:stedsnr" v="596106" />
	</node>
	<node lat="69.13274722371004" lon="17.99305277867445" id="-41823">
		<tag k="name" v="Blåmyra" />
		<tag k="natural" v="wetland" />
		<tag k="ssr:stedsnr" v="596101" />
	</node>
	<node lat="69.04188889063883" lon="18.008991663850907" id="-41824">
		<tag k="name" v="Vassbekken" />
		<tag k="ssr:stedsnr" v="596152" />
		<tag k="waterway" v="stream" />
	</node>
	<node lat="69.04971388719957" lon="17.978699994902563" id="-41825">
		<tag k="name" v="Flatbergan" />
		<tag k="natural" v="hill" />
		<tag k="place" v="locality" />
		<tag k="ssr:stedsnr" v="597050" />
	</node>
	<node lat="69.05648611495482" lon="17.943966653601017" id="-41826">
		<tag k="name" v="Litjeodden" />
		<tag k="natural" v="cape" />
		<tag k="ssr:stedsnr" v="597054" />
	</node>
	<node lat="69.03217499564957" lon="17.970711111041332" id="-41827">
		<tag k="name" v="Kvilarhaugen" />
		<tag k="natural" v="hill" />
		<tag k="place" v="locality" />
		<tag k="ssr:stedsnr" v="597056" />
	</node>
	<node lat="69.15851111543321" lon="18.22470277457399" id="-41828">
		<tag k="name" v="Litje Berrskallvatnet" />
		<tag k="natural" v="water" />
		<tag k="ssr:stedsnr" v="597311" />
	</node>
	<node lat="69.10120277812982" lon="18.265699999115764" id="-41829">
		<tag k="name" v="Svartvassdalen" />
		<tag k="natural" v="valley" />
		<tag k="place" v="locality" />
		<tag k="ssr:stedsnr" v="600347" />
	</node>
	<node lat="69.07950277716402" lon="18.359097211578323" id="-41830">
		<tag k="name" v="Kalbukta" />
		<tag k="natural" v="bay" />
		<tag k="ssr:stedsnr" v="600911" />
	</node>
	<node lat="68.99381666263719" lon="18.303544444856698" id="-41831">
		<tag k="fixme" v="consider natural=peak for the most distinct mountains in the district" />
		<tag k="name" v="Hjerttindtuva" />
		<tag k="natural" v="hill" />
		<tag k="place" v="locality" />
		<tag k="ssr:stedsnr" v="624616" />
	</node>
	<node lat="69.22333611295339" lon="18.202577780505646" id="-41832">
		<tag k="name" v="Finnfjordvatnet - Várevuoljávri" />
		<tag k="name:no" v="Finnfjordvatnet" />
		<tag k="name:se" v="Várevuoljávri" />
		<tag k="natural" v="water" />
		<tag k="old_name:se" v="Varevuoljavri" />
		<tag k="ssr:stedsnr" v="624672" />
		<tag k="water" v="lake" />
	</node>
	<node lat="69.19851666929745" lon="18.094113886507117" id="-41833">
		<tag k="alt_name" v="Litlvatnet" />
		<tag k="name" v="Litjevatnet" />
		<tag k="natural" v="water" />
		<tag k="ssr:stedsnr" v="624706" />
	</node>
	<node lat="69.02472499889507" lon="18.17105556223522" id="-41834">
		<tag k="fixme" v="consider natural=peak for the most distinct mountains in the district" />
		<tag k="name" v="Kjeltinden - Giepmestat" />
		<tag k="name:no" v="Kjeltinden" />
		<tag k="name:se" v="Giepmestat" />
		<tag k="natural" v="hill" />
		<tag k="old_name:se" v="Giebmestat" />
		<tag k="place" v="locality" />
		<tag k="ssr:stedsnr" v="624878" />
	</node>
	<node lat="69.15573611235543" lon="18.14626665763459" id="-41835">
		<tag k="name" v="Øyjordneset" />
		<tag k="natural" v="cape" />
		<tag k="ssr:stedsnr" v="625516" />
	</node>
	<node lat="69.10769440495714" lon="18.00985291274814" id="-41836">
		<tag k="fixme" v="consider place=hamlet" />
		<tag k="name" v="Lyshaugen" />
		<tag k="place" v="farm" />
		<tag k="ssr:stedsnr" v="625555" />
	</node>
	<node lat="69.0652499967754" lon="18.06780832550419" id="-41837">
		<tag k="name" v="Josvadalen" />
		<tag k="natural" v="valley" />
		<tag k="place" v="locality" />
		<tag k="ssr:stedsnr" v="625605" />
	</node>
	<node lat="69.18765555499076" lon="18.28676667078898" id="-41838">
		<tag k="name" v="Øverfossen" />
		<tag k="natural" v="waterfall" />
		<tag k="ssr:stedsnr" v="625759" />
	</node>
	<node lat="69.03380833201543" lon="18.092774988022693" id="-41839">
		<tag k="alt_name" v="Durmålsskardet" />
		<tag k="name" v="Durmålsskaret" />
		<tag k="natural" v="valley" />
		<tag k="place" v="locality" />
		<tag k="ssr:stedsnr" v="625905" />
	</node>
	<node lat="69.0487277752068" lon="18.249136104454145" id="-41840">
		<tag k="name" v="Brubekken" />
		<tag k="ssr:stedsnr" v="625902" />
		<tag k="waterway" v="stream" />
	</node>
	<node lat="69.0836972187972" lon="17.991649995683026" id="-41841">
		<tag k="name" v="Vedjehaugen" />
		<tag k="natural" v="hill" />
		<tag k="place" v="locality" />
		<tag k="ssr:stedsnr" v="657042" />
	</node>
	<node lat="69.12016666993009" lon="17.968786114234796" id="-41842">
		<tag k="name" v="Baklia" />
		<tag k="natural" v="slope" />
		<tag k="place" v="locality" />
		<tag k="ssr:stedsnr" v="657105" />
	</node>
	<node lat="69.12909166824083" lon="17.973491653185928" id="-41843">
		<tag k="name" v="Brakkevatnet" />
		<tag k="natural" v="water" />
		<tag k="ssr:stedsnr" v="657107" />
	</node>
	<node lat="69.12733888607819" lon="17.922902768611902" id="-41844">
		<tag k="name" v="Øvre mollbakken" />
		<tag k="natural" v="slope" />
		<tag k="place" v="locality" />
		<tag k="ssr:stedsnr" v="657113" />
	</node>
	<node lat="69.15000277881951" lon="17.972152771724552" id="-41845">
		<tag k="name" v="Stompen" />
		<tag k="natural" v="bay" />
		<tag k="ssr:stedsnr" v="657132" />
	</node>
	<node lat="69.15740832885308" lon="18.21150833733683" id="-41846">
		<tag k="name" v="Steinlia" />
		<tag k="natural" v="slope" />
		<tag k="place" v="locality" />
		<tag k="ssr:stedsnr" v="658289" />
	</node>
	<node lat="69.05233333185132" lon="18.32813333146564" id="-41847">
		<tag k="fixme" v="consider natural=peak for the most distinct mountains in the district" />
		<tag k="name" v="Matfjellenden" />
		<tag k="natural" v="hill" />
		<tag k="place" v="locality" />
		<tag k="ssr:stedsnr" v="661134" />
	</node>
	<node lat="69.03651389188123" lon="18.34220833819918" id="-41848">
		<tag k="name" v="Matvasskogan" />
		<tag k="place" v="locality" />
		<tag k="ssr:stedsnr" v="661138" />
	</node>
	<node lat="69.07386944556701" lon="18.190441664146434" id="-41849">
		<tag k="name" v="Storforsli" />
		<tag k="place" v="farm" />
		<tag k="ssr:stedsnr" v="661330" />
	</node>
	<node lat="69.09519166915597" lon="18.309130544124514" id="-41850">
		<tag k="name" v="Solstadbukta" />
		<tag k="natural" v="bay" />
		<tag k="ssr:stedsnr" v="661341" />
	</node>
	<node lat="69.18758333703053" lon="18.06919165717507" id="-41851">
		<tag k="name" v="Galtnesmyra" />
		<tag k="natural" v="wetland" />
		<tag k="ssr:stedsnr" v="661683" />
	</node>
	<node lat="69.12154167062818" lon="18.165502763644263" id="-41852">
		<tag k="name" v="Grønnlia" />
		<tag k="natural" v="slope" />
		<tag k="place" v="locality" />
		<tag k="ssr:stedsnr" v="661841" />
	</node>
	<node lat="69.06883055384985" lon="18.159419449426295" id="-41853">
		<tag k="name" v="Tverrelva" />
		<tag k="ssr:stedsnr" v="661909" />
		<tag k="waterway" v="stream" />
	</node>
	<node lat="69.11154999997134" lon="18.226108335917484" id="-41854">
		<tag k="highway" v="path" />
		<tag k="name" v="Fjellveien" />
		<tag k="ssr:stedsnr" v="663336" />
	</node>
	<node lat="69.12643333307282" lon="18.217474995664908" id="-41855">
		<tag k="name" v="Lundberg" />
		<tag k="place" v="farm" />
		<tag k="ssr:stedsnr" v="685542" />
	</node>
	<node lat="69.12849999988211" lon="18.04474999638321" id="-41856">
		<tag k="name" v="Lavollen" />
		<tag k="place" v="farm" />
		<tag k="ssr:stedsnr" v="685552" />
	</node>
	<node lat="69.20500833241755" lon="18.26199721449139" id="-41857">
		<tag k="name" v="Reinelvmoen" />
		<tag k="place" v="farm" />
		<tag k="ssr:stedsnr" v="685692" />
	</node>
	<node lat="69.09783888649574" lon="18.270972220040374" id="-41858">
		<tag k="name" v="Rabban" />
		<tag k="place" v="isolated_dwelling" />
		<tag k="ssr:stedsnr" v="686587" />
	</node>
	<node lat="69.17004372523179" lon="18.116451464985598" id="-41859">
		<tag k="alt_name" v="Djupvåg" />
		<tag k="name" v="Djupvågen" />
		<tag k="place" v="farm" />
		<tag k="ssr:stedsnr" v="686736" />
	</node>
	<node lat="69.14044722633545" lon="17.95362777036092" id="-41860">
		<tag k="name" v="Bjørnskarmyra" />
		<tag k="natural" v="wetland" />
		<tag k="ssr:stedsnr" v="718126" />
	</node>
	<node lat="69.1467166648448" lon="17.963941666631552" id="-41861">
		<tag k="fixme" v="consider natural=peak for the most distinct mountains in the district" />
		<tag k="name" v="Brattbjørga" />
		<tag k="natural" v="hill" />
		<tag k="place" v="locality" />
		<tag k="ssr:stedsnr" v="718128" />
	</node>
	<node lat="69.12713333555504" lon="18.309005564867142" id="-41862">
		<tag k="name" v="Livatnet" />
		<tag k="natural" v="water" />
		<tag k="ssr:stedsnr" v="719266" />
	</node>
	<node lat="69.14346389180206" lon="18.28578610618641" id="-41863">
		<tag k="fixme" v="consider natural=peak for the most distinct mountains in the district" />
		<tag k="name" v="Snaufjellbruna" />
		<tag k="natural" v="hill" />
		<tag k="place" v="locality" />
		<tag k="ssr:stedsnr" v="719276" />
	</node>
	<node lat="69.08378611012544" lon="18.01570832103602" id="-41864">
		<tag k="name" v="Gumpnova" />
		<tag k="place" v="locality" />
		<tag k="ssr:stedsnr" v="721905" />
	</node>
	<node lat="69.0750194471481" lon="18.394283318913317" id="-41865">
		<tag k="name" v="Brattbakken" />
		<tag k="natural" v="slope" />
		<tag k="place" v="locality" />
		<tag k="ssr:stedsnr" v="721906" />
	</node>
	<node lat="69.08658333495174" lon="18.312177786507892" id="-41866">
		<tag k="name" v="Myrbekken" />
		<tag k="ssr:stedsnr" v="722368" />
		<tag k="waterway" v="stream" />
	</node>
	<node lat="69.1836388856521" lon="18.138422213409488" id="-41867">
		<tag k="name" v="Forskoltelva" />
		<tag k="ssr:stedsnr" v="722674" />
		<tag k="waterway" v="stream" />
	</node>
	<node lat="69.11613333533117" lon="18.164669452451005" id="-41868">
		<tag k="fixme" v="consider highway=path" />
		<tag k="highway" v="track" />
		<tag k="name" v="Tuvmyrveien" />
		<tag k="ssr:stedsnr" v="722849" />
	</node>
	<node lat="69.13520555197516" lon="18.033813883458052" id="-41869">
		<tag k="name" v="Småskogen" />
		<tag k="place" v="locality" />
		<tag k="ssr:stedsnr" v="722923" />
	</node>
	<node lat="69.14349722076733" lon="17.920674994466683" id="-41870">
		<tag k="name" v="Sildeberget" />
		<tag k="natural" v="hill" />
		<tag k="place" v="locality" />
		<tag k="ssr:stedsnr" v="900078" />
	</node>
	<node lat="69.14001111314144" lon="17.908999990771527" id="-41871">
		<tag k="name" v="Barbrovika" />
		<tag k="natural" v="bay" />
		<tag k="ssr:stedsnr" v="900083" />
	</node>
	<node lat="69.14509722369408" lon="17.959152774077268" id="-41872">
		<tag k="alt_name" v="Svarteflåget" />
		<tag k="name" v="Svartefloget" />
		<tag k="natural" v="hill" />
		<tag k="place" v="locality" />
		<tag k="ssr:stedsnr" v="900132" />
	</node>
	<node lat="69.14350000136477" lon="17.94395554982528" id="-41873">
		<tag k="name" v="Reinsletta" />
		<tag k="place" v="locality" />
		<tag k="ssr:stedsnr" v="900135" />
	</node>
	<node lat="69.04882777989879" lon="17.926269454321822" id="-41874">
		<tag k="name" v="Rundhaugen" />
		<tag k="natural" v="hill" />
		<tag k="place" v="locality" />
		<tag k="ssr:stedsnr" v="901043" />
	</node>
	<node lat="69.1667305536706" lon="18.204641658015586" id="-41875">
		<tag k="name" v="Langlia" />
		<tag k="natural" v="slope" />
		<tag k="place" v="locality" />
		<tag k="ssr:stedsnr" v="901282" />
	</node>
	<node lat="69.04379444914704" lon="17.98258887791978" id="-41876">
		<tag k="alt_name" v="Vestgård, øvre" />
		<tag k="name" v="Øvre Vestgård" />
		<tag k="place" v="farm" />
		<tag k="ssr:stedsnr" v="746316" />
	</node>
	<node lat="69.2178472181236" lon="18.284869443274" id="-41877">
		<tag k="name" v="Tømmerneset" />
		<tag k="natural" v="cape" />
		<tag k="ssr:stedsnr" v="746669" />
	</node>
	<node lat="69.16536111614258" lon="18.114569432900037" id="-41878">
		<tag k="name" v="Djupvågen" />
		<tag k="natural" v="bay" />
		<tag k="ssr:stedsnr" v="746517" />
	</node>
	<node lat="69.09138333037933" lon="18.02510277421457" id="-41879">
		<tag k="name" v="Kjeodden" />
		<tag k="natural" v="cape" />
		<tag k="ssr:stedsnr" v="903886" />
	</node>
	<node lat="69.09388055177413" lon="18.040347225568752" id="-41880">
		<tag k="name" v="Liflata" />
		<tag k="place" v="locality" />
		<tag k="ssr:stedsnr" v="903888" />
	</node>
	<node lat="69.0880083324986" lon="18.065766671434154" id="-41881">
		<tag k="name" v="Kobbhola" />
		<tag k="natural" v="slope" />
		<tag k="place" v="locality" />
		<tag k="ssr:stedsnr" v="903890" />
	</node>
	<node lat="69.0909777822449" lon="18.08311109888272" id="-41882">
		<tag k="name" v="Vendingselvdalen" />
		<tag k="natural" v="valley" />
		<tag k="place" v="locality" />
		<tag k="ssr:stedsnr" v="903892" />
	</node>
	<node lat="69.04002777580463" lon="18.151402766917773" id="-41883">
		<tag k="fixme" v="consider natural=peak for the most distinct mountains in the district" />
		<tag k="name" v="Møssmørtinden - Missarinčohkka" />
		<tag k="name:no" v="Møssmørtinden" />
		<tag k="name:se" v="Missarinčohkka" />
		<tag k="natural" v="hill" />
		<tag k="old_name:se" v="Missarinčåkka" />
		<tag k="place" v="locality" />
		<tag k="ssr:stedsnr" v="747903" />
	</node>
	<node lat="69.08703055814766" lon="18.273438878261253" id="-41884">
		<tag k="name" v="Høglirabban" />
		<tag k="natural" v="hill" />
		<tag k="place" v="locality" />
		<tag k="ssr:stedsnr" v="904351" />
	</node>
	<node lat="69.10369166325798" lon="18.24299721182975" id="-41885">
		<tag k="highway" v="path" />
		<tag k="name" v="Svartvassveien" />
		<tag k="ssr:stedsnr" v="904492" />
	</node>
	<node lat="69.06126110833159" lon="18.213477779746103" id="-41886">
		<tag k="name" v="Tverrelva" />
		<tag k="ssr:stedsnr" v="904590" />
		<tag k="waterway" v="stream" />
	</node>
	<node lat="69.1825111095467" lon="18.053444450810915" id="-41887">
		<tag k="name" v="Holmhalsen" />
		<tag k="place" v="locality" />
		<tag k="ssr:stedsnr" v="904696" />
	</node>
	<node lat="69.1784416692363" lon="18.061566669999007" id="-41888">
		<tag k="name" v="Grunnreisneset" />
		<tag k="natural" v="cape" />
		<tag k="ssr:stedsnr" v="904697" />
	</node>
	<node lat="69.12313333249611" lon="18.102150002748814" id="-41889">
		<tag k="name" v="Finnkonghaugen" />
		<tag k="natural" v="hill" />
		<tag k="place" v="locality" />
		<tag k="ssr:stedsnr" v="904840" />
	</node>
	<node lat="69.14074444631363" lon="18.144572206906957" id="-41890">
		<tag k="name" v="Brubakkan" />
		<tag k="natural" v="slope" />
		<tag k="place" v="locality" />
		<tag k="ssr:stedsnr" v="904868" />
	</node>
	<node lat="69.1422111129418" lon="18.133375000484772" id="-41891">
		<tag k="name" v="Legda" />
		<tag k="natural" v="slope" />
		<tag k="place" v="locality" />
		<tag k="ssr:stedsnr" v="904870" />
	</node>
	<node lat="69.13913889261514" lon="18.15979443853773" id="-41892">
		<tag k="name" v="Revnesøyra" />
		<tag k="place" v="locality" />
		<tag k="ssr:stedsnr" v="904874" />
	</node>
	<node lat="69.13553611605887" lon="18.10679998730775" id="-41893">
		<tag k="name" v="Litjevasshaugen" />
		<tag k="natural" v="hill" />
		<tag k="place" v="locality" />
		<tag k="ssr:stedsnr" v="904885" />
	</node>
	<node lat="69.12762778166301" lon="18.06351666018315" id="-41894">
		<tag k="name" v="Forraholtan" />
		<tag k="place" v="locality" />
		<tag k="ssr:stedsnr" v="904897" />
	</node>
	<node lat="69.09687063735484" lon="17.998966769843797" id="-41895">
		<tag k="fixme" v="consider place=hamlet" />
		<tag k="name" v="Solberg" />
		<tag k="place" v="farm" />
		<tag k="ssr:stedsnr" v="756356" />
	</node>
	<node lat="69.17067778190696" lon="18.075930543628182" id="-41896">
		<tag k="name" v="Storvika" />
		<tag k="natural" v="bay" />
		<tag k="ssr:stedsnr" v="757495" />
	</node>
	<node lat="69.1210694409638" lon="18.314208336756273" id="-41897">
		<tag k="name" v="Brattstibukta" />
		<tag k="natural" v="bay" />
		<tag k="ssr:stedsnr" v="906282" />
	</node>
	<node lat="69.10966111106359" lon="18.273705560410633" id="-41898">
		<tag k="name" v="Bergedalen" />
		<tag k="natural" v="valley" />
		<tag k="place" v="locality" />
		<tag k="ssr:stedsnr" v="906284" />
	</node>
	<node lat="69.11611944605504" lon="18.256199991628407" id="-41899">
		<tag k="name" v="Durmålsdalen" />
		<tag k="natural" v="valley" />
		<tag k="place" v="locality" />
		<tag k="ssr:stedsnr" v="906285" />
	</node>
	<node lat="69.14635277856094" lon="17.935391659301867" id="-41900">
		<tag k="name" v="Stordalsneset" />
		<tag k="natural" v="cape" />
		<tag k="ssr:stedsnr" v="779109" />
	</node>
	<node lat="69.05030833038435" lon="17.956969430124552" id="-41901">
		<tag k="name" v="Tangenhaugen" />
		<tag k="natural" v="hill" />
		<tag k="place" v="locality" />
		<tag k="ssr:stedsnr" v="780054" />
	</node>
	<node lat="69.06340000017698" lon="17.935394436875644" id="-41902">
		<tag k="name" v="Skreda" />
		<tag k="natural" v="scree" />
		<tag k="place" v="locality" />
		<tag k="ssr:stedsnr" v="780058" />
	</node>
	<node lat="69.05999166805546" lon="17.932633322650105" id="-41903">
		<tag k="name" v="Skredbekkhola" />
		<tag k="natural" v="valley" />
		<tag k="place" v="locality" />
		<tag k="ssr:stedsnr" v="780062" />
	</node>
	<node lat="69.10543055791979" lon="17.996180551008436" id="-41904">
		<tag k="name" v="Elvesletta" />
		<tag k="place" v="locality" />
		<tag k="ssr:stedsnr" v="780067" />
	</node>
	<node lat="69.13224722256783" lon="18.15185277781127" id="-41905">
		<tag k="name" v="Slåtten" />
		<tag k="place" v="locality" />
		<tag k="ssr:stedsnr" v="783858" />
	</node>
	<node lat="69.12512222294227" lon="18.287402771499703" id="-41906">
		<tag k="name" v="Loken" />
		<tag k="ssr:stedsnr" v="785262" />
		<tag k="waterway" v="stream" />
	</node>
	<node lat="69.1981333373291" lon="18.10229722373342" id="-41907">
		<tag k="name" v="Rambergan" />
		<tag k="natural" v="hill" />
		<tag k="place" v="locality" />
		<tag k="ssr:stedsnr" v="839595" />
	</node>
	<node lat="69.12905833411197" lon="17.97968888616095" id="-41908">
		<tag k="name" v="Brakka" />
		<tag k="place" v="locality" />
		<tag k="ssr:stedsnr" v="840111" />
	</node>
	<node lat="69.15762222299153" lon="18.192652763211935" id="-41909">
		<tag k="leisure" v="pitch" />
		<tag k="name" v="Spika" />
		<tag k="ssr:stedsnr" v="841306" />
	</node>
	<node lat="69.18828888943281" lon="18.089091671204375" id="-41910">
		<tag k="name" v="Durmålshaugen" />
		<tag k="natural" v="hill" />
		<tag k="place" v="locality" />
		<tag k="ssr:stedsnr" v="844729" />
	</node>
	<node lat="69.18185555843782" lon="18.136913877623282" id="-41911">
		<tag k="name" v="Broptkollen" />
		<tag k="natural" v="hill" />
		<tag k="place" v="locality" />
		<tag k="ssr:stedsnr" v="844678" />
	</node>
	<node lat="69.19060555678738" lon="18.137858333802225" id="-41912">
		<tag k="name" v="Linabrekkvatnet" />
		<tag k="natural" v="water" />
		<tag k="ssr:stedsnr" v="844684" />
	</node>
	<node lat="69.16716389204568" lon="18.085833338794725" id="-41913">
		<tag k="name" v="Vedheggen" />
		<tag k="natural" v="hill" />
		<tag k="place" v="locality" />
		<tag k="ssr:stedsnr" v="844692" />
	</node>
	<node lat="69.12311388725853" lon="18.141844443062485" id="-41914">
		<tag k="name" v="Hansemyra" />
		<tag k="natural" v="wetland" />
		<tag k="ssr:stedsnr" v="844829" />
	</node>
	<node lat="69.13755277456887" lon="18.1285944386058" id="-41915">
		<tag k="name" v="Litjeelva" />
		<tag k="ssr:stedsnr" v="844886" />
		<tag k="waterway" v="stream" />
	</node>
	<node lat="69.13763055988831" lon="18.12407776494995" id="-41916">
		<tag k="name" v="Lingrasmyra" />
		<tag k="natural" v="wetland" />
		<tag k="ssr:stedsnr" v="844887" />
	</node>
	<node lat="69.21068774713062" lon="18.271956015314824" id="-41917">
		<tag k="alt_name" v="Grønvold Vestre;Grønnvoll;Grønvoll" />
		<tag k="fixme" v="consider place=hamlet" />
		<tag k="name" v="Vestre Grønvoll" />
		<tag k="place" v="farm" />
		<tag k="ssr:stedsnr" v="846209" />
	</node>
	<node lat="69.19695277483581" lon="18.249650006397754" id="-41918">
		<tag k="name" v="Svartbergan" />
		<tag k="natural" v="hill" />
		<tag k="place" v="locality" />
		<tag k="ssr:stedsnr" v="846225" />
	</node>
	<node lat="69.12347777656578" lon="18.30988888860556" id="-41919">
		<tag k="name" v="Fiskelausvatnet" />
		<tag k="natural" v="water" />
		<tag k="ssr:stedsnr" v="846231" />
	</node>
	<node lat="69.05848055991574" lon="18.35175832490194" id="-41920">
		<tag k="name" v="Tverrelva" />
		<tag k="ssr:stedsnr" v="928078" />
		<tag k="waterway" v="river" />
	</node>
	<node lat="69.12187499917866" lon="18.321708330386134" id="-41921">
		<tag k="name" v="Vegavatnet" />
		<tag k="natural" v="water" />
		<tag k="ssr:stedsnr" v="928539" />
		<tag k="water" v="lake" />
	</node>
	<node lat="69.11973610759483" lon="18.207449984702176" id="-41922">
		<tag k="name" v="Finnset" />
		<tag k="place" v="farm" />
		<tag k="ssr:stedsnr" v="928544" />
	</node>
	<node lat="69.12096110947519" lon="18.055774998200572" id="-41923">
		<tag k="name" v="Jordbruelva" />
		<tag k="ssr:stedsnr" v="928547" />
		<tag k="waterway" v="stream" />
	</node>
	<node lat="69.2052550910186" lon="18.237529649476915" id="-41924">
		<tag k="name" v="Seljemoen" />
		<tag k="place" v="farm" />
		<tag k="ssr:stedsnr" v="928676" />
	</node>
	<node lat="69.19866111076928" lon="18.07025276268254" id="-41925">
		<tag k="alt_name" v="Hemmingsjorden" />
		<tag k="name" v="Hemingjord" />
		<tag k="place" v="farm" />
		<tag k="ssr:stedsnr" v="928680" />
	</node>
	<node lat="69.1931211526631" lon="18.060411260984132" id="-41926">
		<tag k="name" v="Søvika" />
		<tag k="place" v="locality" />
		<tag k="ssr:stedsnr" v="928682" />
	</node>
	<node lat="69.18625424005285" lon="18.052660370917813" id="-41927">
		<tag k="alt_name" v="Galteneset;Galtnes" />
		<tag k="name" v="Galtnesodden" />
		<tag k="natural" v="cape" />
		<tag k="ssr:stedsnr" v="928683" />
	</node>
	<node lat="69.18719722324813" lon="18.15814721175509" id="-41928">
		<tag k="alt_name" v="Djupvågskardet" />
		<tag k="name" v="Djupvågskaret" />
		<tag k="natural" v="valley" />
		<tag k="place" v="locality" />
		<tag k="ssr:stedsnr" v="928686" />
	</node>
	<node lat="69.19744166716117" lon="18.326669444085756" id="-41929">
		<tag k="name" v="Falkebergan" />
		<tag k="natural" v="hill" />
		<tag k="place" v="locality" />
		<tag k="ssr:stedsnr" v="928694" />
	</node>
	<node lat="69.17525747228365" lon="18.08598774853675" id="-41930">
		<tag k="alt_name" v="Tømmervik;Sørreisa" />
		<tag k="amenity" v="place_of_worship" />
		<tag k="denomination" v="lutheran" />
		<tag k="name" v="Tømmervik kirke" />
		<tag k="religion" v="christian" />
		<tag k="ssr:stedsnr" v="928718" />
	</node>
	<node lat="69.02125832999695" lon="18.10373054868861" id="-41931">
		<tag k="name" v="Loktariehppi" />
		<tag k="name:se" v="Loktariehppi" />
		<tag k="natural" v="valley" />
		<tag k="old_name:se" v="Låktarieppi" />
		<tag k="place" v="locality" />
		<tag k="ssr:stedsnr" v="928883" />
	</node>
	<node lat="69.15190833764996" lon="17.990769433996864" id="-41932">
		<tag k="name" v="Innervik" />
		<tag k="place" v="farm" />
		<tag k="ssr:stedsnr" v="929270" />
	</node>
	<node lat="69.03905555829681" lon="17.973305551622943" id="-41933">
		<tag k="name" v="Gumpedalen - Gumpevággi" />
		<tag k="name:no" v="Gumpedalen" />
		<tag k="name:se" v="Gumpevággi" />
		<tag k="natural" v="valley" />
		<tag k="place" v="locality" />
		<tag k="ssr:stedsnr" v="929280" />
	</node>
	<node lat="69.08405277767608" lon="18.226661112283303" id="-41934">
		<tag k="name" v="Sæterlibakken" />
		<tag k="place" v="farm" />
		<tag k="ssr:stedsnr" v="929573" />
	</node>
	<node lat="69.08216388490759" lon="18.392599992283746" id="-41935">
		<tag k="name" v="Myrhaugen" />
		<tag k="natural" v="hill" />
		<tag k="place" v="locality" />
		<tag k="ssr:stedsnr" v="929578" />
	</node>
	<node lat="69.14157778179388" lon="18.171574998638917" id="-41936">
		<tag k="fixme" v="consider place=hamlet" />
		<tag k="name" v="Nordstraumen" />
		<tag k="place" v="village" />
		<tag k="ssr:stedsnr" v="929520" />
	</node>
	<node lat="69.04559272903012" lon="17.961681163638108" id="-41937">
		<tag k="alt_name" v="Vestgård, nedre" />
		<tag k="name" v="Nedre Vestgård" />
		<tag k="old_name" v="Vestgård" />
		<tag k="place" v="farm" />
		<tag k="ssr:stedsnr" v="868315" />
	</node>
	<node lat="69.04500832934922" lon="17.968938878131805" id="-41938">
		<tag k="alt_name" v="Sandmoen" />
		<tag k="name" v="Sandmo" />
		<tag k="place" v="farm" />
		<tag k="ssr:stedsnr" v="868316" />
	</node>
	<node lat="69.15142499904097" lon="18.230475000357004" id="-41939">
		<tag k="name" v="Jølbakkan" />
		<tag k="natural" v="slope" />
		<tag k="place" v="locality" />
		<tag k="ssr:stedsnr" v="868523" />
	</node>
	<node lat="69.16614444098828" lon="18.084911109810488" id="-41940">
		<tag k="alt_name" v="Furøya" />
		<tag k="name" v="Forøya" />
		<tag k="natural" v="cape" />
		<tag k="ssr:stedsnr" v="868707" />
	</node>
	<node lat="69.14260277496562" lon="18.12193609831339" id="-41941">
		<tag k="name" v="Raudbergsvika" />
		<tag k="natural" v="bay" />
		<tag k="ssr:stedsnr" v="879507" />
	</node>
	<node lat="69.17859999828738" lon="18.182733333042375" id="-41942">
		<tag k="fixme" v="consider natural=peak for the most distinct mountains in the district" />
		<tag k="name" v="Lysheia - Gieddoaivi" />
		<tag k="name:no" v="Lysheia" />
		<tag k="name:se" v="Gieddoaivi" />
		<tag k="natural" v="hill" />
		<tag k="old_name:se" v="Gied´doai´vi" />
		<tag k="place" v="locality" />
		<tag k="ssr:stedsnr" v="933760" />
	</node>
	<node lat="69.12759722253634" lon="17.933313877000348" id="-41943">
		<tag k="name" v="Bjørgemyrene" />
		<tag k="natural" v="wetland" />
		<tag k="ssr:stedsnr" v="900104" />
	</node>
	<node lat="69.13165277448225" lon="17.92466110719239" id="-41944">
		<tag k="name" v="Fossmoen" />
		<tag k="place" v="locality" />
		<tag k="ssr:stedsnr" v="900120" />
	</node>
	<node lat="69.04310277789318" lon="17.926419432374093" id="-41945">
		<tag k="name" v="Leira" />
		<tag k="natural" v="bay" />
		<tag k="ssr:stedsnr" v="901053" />
	</node>
	<node lat="69.08950833091542" lon="18.384036109943224" id="-41946">
		<tag k="name" v="Austtjønnlia" />
		<tag k="natural" v="slope" />
		<tag k="place" v="locality" />
		<tag k="ssr:stedsnr" v="904164" />
	</node>
	<node lat="69.11292222050544" lon="18.020686104311118" id="-41947">
		<tag k="name" v="Storfossen" />
		<tag k="natural" v="waterfall" />
		<tag k="ssr:stedsnr" v="904849" />
	</node>
	<node lat="69.13589722316422" lon="18.030169430910508" id="-41948">
		<tag k="name" v="Tverrskaret" />
		<tag k="natural" v="valley" />
		<tag k="place" v="locality" />
		<tag k="ssr:stedsnr" v="904903" />
	</node>
	<node lat="69.13031944646147" lon="18.038330546121" id="-41949">
		<tag k="name" v="Sandhamran" />
		<tag k="natural" v="hill" />
		<tag k="place" v="locality" />
		<tag k="ssr:stedsnr" v="904899" />
	</node>
	<node lat="69.11118055473362" lon="18.24051943413032" id="-41950">
		<tag k="name" v="Høgda" />
		<tag k="natural" v="ridge" />
		<tag k="place" v="locality" />
		<tag k="ssr:stedsnr" v="906359" />
	</node>
	<node lat="69.14698610709267" lon="18.233916673232756" id="-41951">
		<tag k="name" v="Liene" />
		<tag k="natural" v="slope" />
		<tag k="place" v="locality" />
		<tag k="ssr:stedsnr" v="906368" />
	</node>
	<node lat="69.13571111414439" lon="18.18680555145314" id="-41952">
		<tag k="name" v="Nordstraumen" />
		<tag k="place" v="farm" />
		<tag k="ssr:stedsnr" v="906370" />
	</node>
	<node lat="69.11812955060053" lon="18.40245747188223" id="-41953">
		<tag k="name" v="Nordhussætra" />
		<tag k="place" v="locality" />
		<tag k="ssr:stedsnr" v="928559" />
	</node>
	<node lat="69.14199444113207" lon="18.257177778843946" id="-41954">
		<tag k="alt_name" v="Kalvevatnet" />
		<tag k="name" v="Nedste Kalvevatnet" />
		<tag k="natural" v="water" />
		<tag k="ssr:stedsnr" v="928502" />
	</node>
	<node lat="69.05111943986077" lon="17.91648889432645" id="-41955">
		<tag k="name" v="Tverrelva" />
		<tag k="ssr:stedsnr" v="929311" />
		<tag k="waterway" v="stream" />
	</node>
	<node lat="69.15838055469443" lon="18.087155550407587" id="-41956">
		<tag k="name" v="Storøyneset" />
		<tag k="natural" v="cape" />
		<tag k="ssr:stedsnr" v="929507" />
	</node>
	<node lat="69.041816669041" lon="17.93743332196698" id="-41957">
		<tag k="name" v="Flomyra" />
		<tag k="natural" v="wetland" />
		<tag k="ssr:stedsnr" v="929300" />
	</node>
	<node lat="69.03762500430688" lon="18.294174985247405" id="-41958">
		<tag k="name" v="Matvatnet - Máttajávri" />
		<tag k="name:no" v="Matvatnet" />
		<tag k="name:se" v="Máttajávri" />
		<tag k="natural" v="water" />
		<tag k="old_name:se" v="Maddajavri" />
		<tag k="ssr:stedsnr" v="933897" />
		<tag k="water" v="lake" />
	</node>
	<node lat="69.04718855762937" lon="17.96081548487333" id="-41960">
		<tag k="fixme" v="consider place=hamlet" />
		<tag k="name" v="Gumpedalen" />
		<tag k="place" v="farm" />
		<tag k="ssr:stedsnr" v="939445" />
	</node>
	<node lat="69.1461111150617" lon="17.954122222421713" id="-41961">
		<tag k="name" v="Telgelia" />
		<tag k="natural" v="slope" />
		<tag k="place" v="locality" />
		<tag k="ssr:stedsnr" v="961118" />
	</node>
	<node lat="69.12548610850013" lon="17.974719437195315" id="-41962">
		<tag k="name" v="Haugvatnet" />
		<tag k="natural" v="water" />
		<tag k="ssr:stedsnr" v="961095" />
	</node>
	<node lat="69.12434444771397" lon="17.974600005067984" id="-41963">
		<tag k="name" v="Storhaugen" />
		<tag k="natural" v="hill" />
		<tag k="place" v="locality" />
		<tag k="ssr:stedsnr" v="961100" />
	</node>
	<node lat="69.16292499638753" lon="18.185919428179417" id="-41964">
		<tag k="name" v="Storhundlia" />
		<tag k="natural" v="slope" />
		<tag k="place" v="locality" />
		<tag k="ssr:stedsnr" v="961298" />
	</node>
	<node lat="69.0504777759611" lon="17.99093888919054" id="-41965">
		<tag k="name" v="Ørnebergan" />
		<tag k="natural" v="hill" />
		<tag k="place" v="locality" />
		<tag k="ssr:stedsnr" v="962053" />
	</node>
	<node lat="69.07031111142574" lon="18.349297211511168" id="-41966">
		<tag k="name" v="Tverrelvmyra" />
		<tag k="natural" v="wetland" />
		<tag k="ssr:stedsnr" v="964884" />
	</node>
	<node lat="69.1181861139648" lon="18.115966666687864" id="-41967">
		<tag k="name" v="Nonstuva" />
		<tag k="natural" v="hill" />
		<tag k="place" v="locality" />
		<tag k="ssr:stedsnr" v="965834" />
	</node>
	<node lat="69.11754999917882" lon="18.134847221811867" id="-41968">
		<tag k="name" v="Botolvmyrene" />
		<tag k="natural" v="wetland" />
		<tag k="ssr:stedsnr" v="965837" />
	</node>
	<node lat="69.1153444428629" lon="18.015449987428116" id="-41969">
		<tag k="name" v="Høgmoen" />
		<tag k="place" v="farm" />
		<tag k="ssr:stedsnr" v="965841" />
	</node>
</osm>
