<?xml version="1.0" encoding="UTF-8"?>
<osm version="0.6" generator="osmapis">
	<node id="906319433" lat="68.7932416" lon="14.9342583" version="3" timestamp="2022-07-03T06:00:10Z" changeset="123139608" uid="3497659" user="NKA">
		<tag k="name" v="Sandset" />
		<tag k="place" v="hamlet" />
		<tag k="ssr:stedsnr" v="139977" />
	</node>
	<node id="906319629" lat="68.8283561" lon="14.7483211" version="2" timestamp="2022-07-03T06:00:10Z" changeset="123139608" uid="3497659" user="NKA">
		<tag k="alt_name" v="Skipnes" />
		<tag k="name" v="Skipneset" />
		<tag k="place" v="hamlet" />
		<tag k="ssr:stedsnr" v="382853" />
	</node>
	<node id="1259677548" lat="68.995763" lon="15.0134373" version="6" timestamp="2022-07-03T06:00:10Z" changeset="123139608" uid="3497659" user="NKA">
		<tag k="name" v="Nyksund" />
		<tag k="place" v="village" />
		<tag k="ssr:stedsnr" v="321153" />
		<tag k="website" v="https://nyksund.no/" />
		<tag k="wikidata" v="Q1011569" />
		<tag k="wikipedia" v="no:Nyksund" />
	</node>
	<node id="1259730506" lat="68.9824507" lon="15.1742994" version="3" timestamp="2022-07-03T06:00:10Z" changeset="123139608" uid="3497659" user="NKA">
		<tag k="name" v="Klo" />
		<tag k="place" v="village" />
		<tag k="ssr:stedsnr" v="138570" />
	</node>
	<node id="1259730520" lat="68.9596079" lon="15.1823448" version="3" timestamp="2022-07-03T06:00:10Z" changeset="123139608" uid="3497659" user="NKA">
		<tag k="name" v="Strengelvåg" />
		<tag k="name:ru" v="Стренгельвог" />
		<tag k="place" v="village" />
		<tag k="ssr:stedsnr" v="18600" />
	</node>
	<node id="1259730526" lat="68.9352868" lon="15.2721208" version="4" timestamp="2022-07-03T06:00:10Z" changeset="123139608" uid="3497659" user="NKA">
		<tag k="alt_name" v="Gisløy" />
		<tag k="name" v="Gisløya" />
		<tag k="place" v="village" />
		<tag k="ssr:stedsnr" v="624628" />
	</node>
	<node id="1510116966" lat="68.7840369" lon="14.8932171" version="3" timestamp="2022-07-03T06:00:10Z" changeset="123139608" uid="3497659" user="NKA">
		<tag k="name" v="Sigerland" />
		<tag k="place" v="farm" />
		<tag k="ssr:stedsnr" v="685984" />
	</node>
	<node id="1510118649" lat="68.8148007" lon="14.8996661" version="2" timestamp="2022-07-03T06:00:10Z" changeset="123139608" uid="3497659" user="NKA">
		<tag k="alt_name" v="Langøy" />
		<tag k="name" v="Langøya" />
		<tag k="place" v="hamlet" />
		<tag k="ssr:stedsnr" v="180878" />
	</node>
	<node id="1510128086" lat="68.8038567" lon="14.8394874" version="3" timestamp="2022-07-03T06:00:10Z" changeset="123139608" uid="3497659" user="NKA">
		<tag k="name" v="Austringen" />
		<tag k="place" v="hamlet" />
		<tag k="ssr:stedsnr" v="868920" />
	</node>
	<node id="1510132200" lat="68.8053823" lon="14.7747773" version="2" timestamp="2022-07-03T06:00:10Z" changeset="123139608" uid="3497659" user="NKA">
		<tag k="name" v="Finnvågan" />
		<tag k="old_name" v="Finnvågen" />
		<tag k="place" v="hamlet" />
		<tag k="ssr:stedsnr" v="18935" />
	</node>
	<node id="1510133409" lat="68.8176041" lon="14.8008713" version="3" timestamp="2022-07-03T06:00:10Z" changeset="123139608" uid="3497659" user="NKA">
		<tag k="name" v="Barkestad" />
		<tag k="place" v="hamlet" />
		<tag k="ssr:stedsnr" v="563922" />
	</node>
	<node id="1510136145" lat="68.841561" lon="14.7554547" version="3" timestamp="2022-07-03T06:00:10Z" changeset="123139608" uid="3497659" user="NKA">
		<tag k="name" v="Tinden" />
		<tag k="place" v="farm" />
		<tag k="ssr:stedsnr" v="746791" />
	</node>
	<node id="1510138422" lat="68.8750944" lon="14.9054717" version="3" timestamp="2022-07-03T06:00:10Z" changeset="123139608" uid="3497659" user="NKA">
		<tag k="name" v="Tunnstad" />
		<tag k="place" v="hamlet" />
		<tag k="ssr:stedsnr" v="1076778" />
	</node>
	<node id="1510139752" lat="68.8629816" lon="14.9790419" version="3" timestamp="2022-07-03T06:00:10Z" changeset="123139608" uid="3497659" user="NKA">
		<tag k="name" v="Smines" />
		<tag k="place" v="hamlet" />
		<tag k="ssr:stedsnr" v="503781" />
	</node>
	<node id="1510141945" lat="68.878095" lon="14.9661552" version="4" timestamp="2022-07-03T06:00:10Z" changeset="123139608" uid="3497659" user="NKA">
		<tag k="name" v="Øksnes" />
		<tag k="name:se" v="Ikšnášši" />
		<tag k="place" v="hamlet" />
		<tag k="ssr:stedsnr" v="767089" />
	</node>
	<node id="1510145398" lat="68.9148944" lon="15.0890843" version="8" timestamp="2022-07-03T06:00:10Z" changeset="123139608" uid="3497659" user="NKA">
		<tag k="name" v="Myre" />
		<tag k="name:ru" v="Мюре" />
		<tag k="place" v="village" />
		<tag k="population" v="2132" />
		<tag k="population:date" v="2021-01-01" />
		<tag k="ref:ssb_tettsted" v="7843" />
		<tag k="source:population" v="SSB - befolkning i tettstedet" />
		<tag k="ssr:stedsnr" v="443649" />
	</node>
	<node id="1597774149" lat="68.871938" lon="15.2889838" version="3" timestamp="2022-07-03T06:00:10Z" changeset="123139608" uid="3497659" user="NKA">
		<tag k="alt_name" v="Tofta" />
		<tag k="name" v="Toften" />
		<tag k="name:ru" v="Тофтен" />
		<tag k="place" v="hamlet" />
		<tag k="ssr:stedsnr" v="321708" />
	</node>
	<node id="1597774841" lat="68.9018016" lon="15.2800197" version="6" timestamp="2022-07-03T06:00:10Z" changeset="123139608" uid="3497659" user="NKA">
		<tag k="name" v="Alsvåg" />
		<tag k="name:ru" v="Алсвог" />
		<tag k="place" v="village" />
		<tag k="population" v="291" />
		<tag k="population:date" v="2021-01-01" />
		<tag k="ref:ssb_tettsted" v="7842" />
		<tag k="source:population" v="SSB - befolkning i tettstedet" />
		<tag k="ssr:stedsnr" v="624662" />
	</node>
	<node id="1597800990" lat="68.9158639" lon="15.2437806" version="2" timestamp="2022-07-03T06:00:10Z" changeset="123139608" uid="3497659" user="NKA">
		<tag k="name" v="Straumen" />
		<tag k="place" v="farm" />
		<tag k="ssr:stedsnr" v="704074" />
	</node>
	<node id="1597803730" lat="68.9197596" lon="15.2734798" version="2" timestamp="2022-07-03T06:00:10Z" changeset="123139608" uid="3497659" user="NKA">
		<tag k="name" v="Meløya" />
		<tag k="place" v="hamlet" />
		<tag k="ssr:stedsnr" v="563703" />
	</node>
	<node id="1597980743" lat="68.892775" lon="15.1265673" version="3" timestamp="2022-07-03T06:00:10Z" changeset="123139608" uid="3497659" user="NKA">
		<tag k="name" v="Skogli" />
		<tag k="name:ru" v="Скугли" />
		<tag k="place" v="hamlet" />
		<tag k="ssr:stedsnr" v="321678" />
	</node>
	<node id="1598162534" lat="68.8777921" lon="14.8820311" version="2" timestamp="2022-07-03T06:00:10Z" changeset="123139608" uid="3497659" user="NKA">
		<tag k="name" v="Hjellsand" />
		<tag k="place" v="hamlet" />
		<tag k="ssr:stedsnr" v="18754" />
	</node>
	<node id="1674670351" lat="68.7911528" lon="14.8611224" version="3" timestamp="2022-07-03T06:00:10Z" changeset="123139608" uid="3497659" user="NKA">
		<tag k="name" v="Grøtset" />
		<tag k="place" v="hamlet" />
		<tag k="ssr:stedsnr" v="321952" />
	</node>
	<node id="1674670354" lat="68.7714306" lon="14.9959668" version="5" timestamp="2022-07-03T06:00:10Z" changeset="123139608" uid="3497659" user="NKA">
		<tag k="name" v="Skjærfjordeidet" />
		<tag k="name:ru" v="Шерфьорд" />
		<tag k="place" v="hamlet" />
		<tag k="ssr:stedsnr" v="928468" />
	</node>
	<node id="1865485686" lat="68.9761447" lon="15.0207978" version="2" timestamp="2022-07-03T06:00:10Z" changeset="123139608" uid="3497659" user="NKA">
		<tag k="name" v="Vottestad" />
		<tag k="place" v="hamlet" />
		<tag k="ssr:stedsnr" v="138624" />
	</node>
	<node id="4690644435" lat="68.9314609" lon="15.0502339" version="3" timestamp="2022-07-03T06:00:10Z" changeset="123139608" uid="3497659" user="NKA">
		<tag k="alt_name" v="Høydal" />
		<tag k="name" v="Høydalen" />
		<tag k="name:ru" v="Хоздал" />
		<tag k="place" v="hamlet" />
		<tag k="ssr:stedsnr" v="139624" />
	</node>
	<node id="4692065831" lat="68.8514755" lon="15.1451736" version="2" timestamp="2022-07-03T06:00:10Z" changeset="123139608" uid="3497659" user="NKA">
		<tag k="name" v="Steinland" />
		<tag k="place" v="hamlet" />
		<tag k="ssr:stedsnr" v="443683" />
	</node>
	<node id="4692344775" lat="68.8607475" lon="15.1146415" version="2" timestamp="2022-07-03T06:00:10Z" changeset="123139608" uid="3497659" user="NKA">
		<tag k="alt_name" v="Bollevågen" />
		<tag k="name" v="Bollvågen" />
		<tag k="place" v="hamlet" />
		<tag k="ssr:stedsnr" v="139680" />
	</node>
	<node id="4692369764" lat="68.817285" lon="15.168128" version="2" timestamp="2022-07-03T06:00:10Z" changeset="123139608" uid="3497659" user="NKA">
		<tag k="name" v="Åsen" />
		<tag k="place" v="hamlet" />
		<tag k="ssr:stedsnr" v="806302" />
	</node>
	<node id="4756068889" lat="69.018831" lon="15.1239731" version="4" timestamp="2022-07-03T06:00:10Z" changeset="123139608" uid="3497659" user="NKA">
		<tag k="name" v="Stø" />
		<tag k="name:ru" v="Сто" />
		<tag k="place" v="village" />
		<tag k="ssr:stedsnr" v="199339" />
	</node>
	<node id="5294687608" lat="68.9224269" lon="14.9389333" version="2" timestamp="2022-07-03T06:00:10Z" changeset="123139608" uid="3497659" user="NKA">
		<tag k="name" v="Nordsand" />
		<tag k="place" v="hamlet" />
		<tag k="ssr:stedsnr" v="624156" />
	</node>
	<node id="5294687633" lat="68.9185344" lon="14.8566567" version="2" timestamp="2022-07-03T06:00:10Z" changeset="123139608" uid="3497659" user="NKA">
		<tag k="alt_name" v="Sørsanden" />
		<tag k="name" v="Sørsand" />
		<tag k="place" v="hamlet" />
		<tag k="ssr:stedsnr" v="321741" />
	</node>
	<node id="5294768192" lat="68.8739841" lon="14.9208908" version="2" timestamp="2022-07-03T06:00:10Z" changeset="123139608" uid="3497659" user="NKA">
		<tag k="alt_name" v="Breidstrand" />
		<tag k="name" v="Breistrand" />
		<tag k="place" v="isolated_dwelling" />
		<tag k="ssr:stedsnr" v="260841" />
	</node>
	<node id="6018577613" lat="68.9551405" lon="15.1621135" version="2" timestamp="2022-01-26T06:22:04Z" changeset="116610177" uid="3497659" user="NKA">
		<tag k="junction" v="yes" />
		<tag k="name" v="Strengelvågkrysset" />
		<tag k="ssr:stedsnr" v="646501" />
	</node>
	<node id="7575126572" lat="68.7803889" lon="14.7913119" version="2" timestamp="2022-07-03T06:00:10Z" changeset="123139608" uid="3497659" user="NKA">
		<tag k="alt_name" v="Skallan" />
		<tag k="name" v="Skålebøl" />
		<tag k="place" v="farm" />
		<tag k="ssr:stedsnr" v="17988" />
	</node>
	<node id="9863276936" lat="68.780432" lon="14.9296608" version="1" timestamp="2022-07-03T06:00:10Z" changeset="123139608" uid="3497659" user="NKA">
		<tag k="name" v="Dungan" />
		<tag k="place" v="farm" />
		<tag k="ssr:stedsnr" v="78999" />
	</node>
	<node id="9863276937" lat="69.0180626" lon="15.1335965" version="1" timestamp="2022-07-03T06:00:10Z" changeset="123139608" uid="3497659" user="NKA">
		<tag k="alt_name" v="Husjord" />
		<tag k="name" v="Husjorda" />
		<tag k="place" v="farm" />
		<tag k="ssr:stedsnr" v="685321" />
	</node>
	<node id="9863276938" lat="68.8409836" lon="14.8384872" version="1" timestamp="2022-07-03T06:00:10Z" changeset="123139608" uid="3497659" user="NKA">
		<tag k="name" v="Børøya" />
		<tag k="place" v="farm" />
		<tag k="ssr:stedsnr" v="787762" />
	</node>
	<node id="9863276939" lat="68.797223" lon="14.9261236" version="1" timestamp="2022-07-03T06:00:10Z" changeset="123139608" uid="3497659" user="NKA">
		<tag k="name" v="Skoltneset" />
		<tag k="place" v="farm" />
		<tag k="ssr:stedsnr" v="443985" />
	</node>
	<node id="9863276940" lat="68.8180068" lon="14.7669698" version="1" timestamp="2022-07-03T06:00:10Z" changeset="123139608" uid="3497659" user="NKA">
		<tag k="name" v="Vinje" />
		<tag k="place" v="farm" />
		<tag k="ssr:stedsnr" v="624885" />
	</node>
	<node id="9863276941" lat="68.8343055" lon="14.7270139" version="1" timestamp="2022-07-03T06:00:10Z" changeset="123139608" uid="3497659" user="NKA">
		<tag k="name" v="Sunderøy" />
		<tag k="place" v="farm" />
		<tag k="ssr:stedsnr" v="360649" />
	</node>
	<node id="9863276942" lat="68.7822444" lon="14.8224777" version="1" timestamp="2022-07-03T06:00:10Z" changeset="123139608" uid="3497659" user="NKA">
		<tag k="name" v="Sjurtindsbukta" />
		<tag k="place" v="farm" />
		<tag k="ssr:stedsnr" v="301703" />
	</node>
	<node id="9863276943" lat="68.9290306" lon="15.1004416" version="1" timestamp="2022-07-03T06:00:10Z" changeset="123139608" uid="3497659" user="NKA">
		<tag k="name" v="Øvre Høydal" />
		<tag k="place" v="farm" />
		<tag k="ssr:stedsnr" v="461135" />
	</node>
	<node id="9863276944" lat="68.8996889" lon="15.133064" version="1" timestamp="2022-07-03T06:00:10Z" changeset="123139608" uid="3497659" user="NKA">
		<tag k="name" v="Øvergård" />
		<tag k="place" v="farm" />
		<tag k="ssr:stedsnr" v="339078" />
	</node>
	<node id="9863276945" lat="68.9109" lon="15.1452833" version="1" timestamp="2022-07-03T06:00:10Z" changeset="123139608" uid="3497659" user="NKA">
		<tag k="name" v="Ny Jord" />
		<tag k="place" v="farm" />
		<tag k="ssr:stedsnr" v="400483" />
	</node>
	<node id="9863276946" lat="68.8279852" lon="15.0165635" version="1" timestamp="2022-07-03T06:00:10Z" changeset="123139608" uid="3497659" user="NKA">
		<tag k="name" v="Bakkejord" />
		<tag k="place" v="farm" />
		<tag k="ssr:stedsnr" v="159927" />
	</node>
	<node id="9863276947" lat="68.9065887" lon="15.2974057" version="1" timestamp="2022-07-03T06:00:10Z" changeset="123139608" uid="3497659" user="NKA">
		<tag k="name" v="Instøya" />
		<tag k="place" v="farm" />
		<tag k="ssr:stedsnr" v="381692" />
	</node>
	<node id="9863276948" lat="68.8125111" lon="14.8204527" version="1" timestamp="2022-07-03T06:00:10Z" changeset="123139608" uid="3497659" user="NKA">
		<tag k="name" v="Berge" />
		<tag k="place" v="farm" />
		<tag k="ssr:stedsnr" v="180882" />
	</node>
	<node id="9863276949" lat="68.8129936" lon="14.7552584" version="1" timestamp="2022-07-03T06:00:10Z" changeset="123139608" uid="3497659" user="NKA">
		<tag k="alt_name" v="Jarbakken" />
		<tag k="name" v="Jarbakkan" />
		<tag k="place" v="farm" />
		<tag k="ssr:stedsnr" v="200912" />
	</node>
	<node id="9863276950" lat="68.7696096" lon="14.9175388" version="1" timestamp="2022-07-03T06:00:10Z" changeset="123139608" uid="3497659" user="NKA">
		<tag k="name" v="Seljeholet" />
		<tag k="place" v="farm" />
		<tag k="ssr:stedsnr" v="36731" />
	</node>
	<node id="9863276951" lat="68.9128445" lon="15.1741362" version="1" timestamp="2022-07-03T06:00:10Z" changeset="123139608" uid="3497659" user="NKA">
		<tag k="name" v="Stakkelv" />
		<tag k="place" v="farm" />
		<tag k="ssr:stedsnr" v="97466" />
	</node>
	<node id="9863276952" lat="68.8768109" lon="14.9158567" version="1" timestamp="2022-07-03T06:00:10Z" changeset="123139608" uid="3497659" user="NKA">
		<tag k="name" v="Solbakken" />
		<tag k="place" v="farm" />
		<tag k="ssr:stedsnr" v="39057" />
	</node>
	<node id="9863276953" lat="68.8085" lon="14.7679583" version="1" timestamp="2022-07-03T06:00:10Z" changeset="123139608" uid="3497659" user="NKA">
		<tag k="name" v="Stranda" />
		<tag k="place" v="farm" />
		<tag k="ssr:stedsnr" v="830747" />
	</node>
	<node id="9863276954" lat="68.9143028" lon="15.1943221" version="1" timestamp="2022-07-03T06:00:10Z" changeset="123139608" uid="3497659" user="NKA">
		<tag k="alt_name" v="Buset" />
		<tag k="name" v="Buraet" />
		<tag k="place" v="farm" />
		<tag k="ssr:stedsnr" v="806664" />
	</node>
	<node id="9863276955" lat="68.9178398" lon="15.0626971" version="1" timestamp="2022-07-03T06:00:10Z" changeset="123139608" uid="3497659" user="NKA">
		<tag k="name" v="Sandvika" />
		<tag k="place" v="quarter" />
		<tag k="ssr:stedsnr" v="321664" />
	</node>
	<node id="9863276956" lat="68.8175163" lon="15.2505459" version="1" timestamp="2022-07-03T06:00:10Z" changeset="123139608" uid="3497659" user="NKA">
		<tag k="alt_name" v="Holmbakkan" />
		<tag k="name" v="Holmbakken" />
		<tag k="place" v="farm" />
		<tag k="ssr:stedsnr" v="928226" />
	</node>
	<node id="9863276957" lat="68.9178556" lon="15.2303749" version="1" timestamp="2022-07-03T06:00:10Z" changeset="123139608" uid="3497659" user="NKA">
		<tag k="name" v="Finneset" />
		<tag k="place" v="farm" />
		<tag k="ssr:stedsnr" v="825052" />
	</node>
	<node id="9863276958" lat="68.8096143" lon="14.7763191" version="1" timestamp="2022-07-03T06:00:10Z" changeset="123139608" uid="3497659" user="NKA">
		<tag k="alt_name" v="Bakken" />
		<tag k="name" v="Kjerkvika" />
		<tag k="place" v="farm" />
		<tag k="ssr:stedsnr" v="526736" />
	</node>
	<node id="9863276959" lat="68.79045" lon="14.8493611" version="1" timestamp="2022-07-03T06:00:10Z" changeset="123139608" uid="3497659" user="NKA">
		<tag k="name" v="Mellajorden" />
		<tag k="place" v="farm" />
		<tag k="ssr:stedsnr" v="726764" />
	</node>
	<node id="9863276960" lat="68.7774892" lon="14.9898528" version="1" timestamp="2022-07-03T06:00:10Z" changeset="123139608" uid="3497659" user="NKA">
		<tag k="name" v="Skjåjorda" />
		<tag k="old_name" v="Skjaajorden" />
		<tag k="place" v="farm" />
		<tag k="ssr:stedsnr" v="200531" />
	</node>
	<node id="9863276961" lat="68.8779333" lon="14.9294806" version="1" timestamp="2022-07-03T06:00:10Z" changeset="123139608" uid="3497659" user="NKA">
		<tag k="name" v="Vågen" />
		<tag k="place" v="farm" />
		<tag k="ssr:stedsnr" v="889105" />
	</node>
	<node id="9863276962" lat="68.7687375" lon="15.0022789" version="1" timestamp="2022-07-03T06:00:10Z" changeset="123139608" uid="3497659" user="NKA">
		<tag k="name" v="Granaunet" />
		<tag k="old_name" v="Skjelfjord grana" />
		<tag k="place" v="farm" />
		<tag k="ssr:stedsnr" v="1077784" />
	</node>
	<node id="9863276963" lat="68.8915147" lon="14.996558" version="1" timestamp="2022-07-03T06:00:10Z" changeset="123139608" uid="3497659" user="NKA">
		<tag k="name" v="Tilset" />
		<tag k="place" v="farm" />
		<tag k="ssr:stedsnr" v="867806" />
	</node>
	<node id="9863276964" lat="68.8775389" lon="14.9500694" version="1" timestamp="2022-07-03T06:00:10Z" changeset="123139608" uid="3497659" user="NKA">
		<tag k="name" v="Bjørkelia" />
		<tag k="place" v="farm" />
		<tag k="ssr:stedsnr" v="403067" />
	</node>
	<node id="9863276965" lat="68.874308" lon="14.9029819" version="1" timestamp="2022-07-03T06:00:10Z" changeset="123139608" uid="3497659" user="NKA">
		<tag k="alt_name" v="Inner-Tunstad" />
		<tag k="name" v="Inner-Tunnstad" />
		<tag k="place" v="farm" />
		<tag k="ssr:stedsnr" v="100087" />
	</node>
	<node id="9863276966" lat="68.9022111" lon="15.0899389" version="1" timestamp="2022-07-03T06:00:10Z" changeset="123139608" uid="3497659" user="NKA">
		<tag k="alt_name" v="Langrygg" />
		<tag k="name" v="Langryggen" />
		<tag k="place" v="hamlet" />
		<tag k="ssr:stedsnr" v="260689" />
	</node>
	<node id="9863276967" lat="68.7696652" lon="14.919321" version="1" timestamp="2022-07-03T06:00:10Z" changeset="123139608" uid="3497659" user="NKA">
		<tag k="alt_name" v="Urskarbukta" />
		<tag k="name" v="Bukta" />
		<tag k="place" v="farm" />
		<tag k="ssr:stedsnr" v="867558" />
	</node>
	<node id="9863276968" lat="68.7870583" lon="15.0291695" version="1" timestamp="2022-07-03T06:00:10Z" changeset="123139608" uid="3497659" user="NKA">
		<tag k="alt_name" v="Kavåsen, øvre" />
		<tag k="name" v="Øvre Kavåsen" />
		<tag k="place" v="farm" />
		<tag k="ssr:stedsnr" v="442350" />
	</node>
	<node id="9863276969" lat="68.8262916" lon="15.0443653" version="1" timestamp="2022-07-03T06:00:10Z" changeset="123139608" uid="3497659" user="NKA">
		<tag k="name" v="Navarsborra" />
		<tag k="old_name" v="Naversbor" />
		<tag k="place" v="farm" />
		<tag k="ssr:stedsnr" v="1080979" />
	</node>
	<node id="9863276970" lat="68.9224733" lon="14.851355" version="1" timestamp="2022-07-03T06:00:10Z" changeset="123139608" uid="3497659" user="NKA">
		<tag k="name" v="Våje" />
		<tag k="old_name" v="VAAJE" />
		<tag k="place" v="farm" />
		<tag k="ssr:stedsnr" v="1080975" />
	</node>
	<node id="9863276971" lat="68.8596698" lon="14.9467692" version="1" timestamp="2022-07-03T06:00:10Z" changeset="123139608" uid="3497659" user="NKA">
		<tag k="name" v="Rota" />
		<tag k="place" v="farm" />
		<tag k="ssr:stedsnr" v="563835" />
	</node>
	<node id="9863276972" lat="68.7885274" lon="14.8351582" version="1" timestamp="2022-07-03T06:00:10Z" changeset="123139608" uid="3497659" user="NKA">
		<tag k="name" v="Fagerneset" />
		<tag k="place" v="farm" />
		<tag k="ssr:stedsnr" v="483732" />
	</node>
	<node id="9863276973" lat="68.8746196" lon="15.0791459" version="1" timestamp="2022-07-03T06:00:10Z" changeset="123139608" uid="3497659" user="NKA">
		<tag k="alt_name" v="Pund-Staven" />
		<tag k="name" v="Pund Staven" />
		<tag k="place" v="farm" />
		<tag k="ssr:stedsnr" v="783431" />
	</node>
	<node id="9863276974" lat="68.8609722" lon="14.9881722" version="1" timestamp="2022-07-03T06:00:10Z" changeset="123139608" uid="3497659" user="NKA">
		<tag k="name" v="Kjellarbakken" />
		<tag k="place" v="farm" />
		<tag k="ssr:stedsnr" v="602387" />
	</node>
	<node id="9863276975" lat="68.8972112" lon="15.1246112" version="1" timestamp="2022-07-03T06:00:10Z" changeset="123139608" uid="3497659" user="NKA">
		<tag k="alt_name" v="Øvergård" />
		<tag k="name" v="Øvergården" />
		<tag k="place" v="hamlet" />
		<tag k="ssr:stedsnr" v="260691" />
	</node>
	<node id="9863276976" lat="68.8743417" lon="14.8871778" version="1" timestamp="2022-07-03T06:00:10Z" changeset="123139608" uid="3497659" user="NKA">
		<tag k="name" v="Solheim" />
		<tag k="place" v="farm" />
		<tag k="ssr:stedsnr" v="585091" />
	</node>
	<node id="9863276977" lat="69.022419" lon="15.1281899" version="1" timestamp="2022-07-03T06:00:10Z" changeset="123139608" uid="3497659" user="NKA">
		<tag k="name" v="Bårholmen" />
		<tag k="place" v="farm" />
		<tag k="ssr:stedsnr" v="1080970" />
	</node>
	<node id="9863276978" lat="68.8750068" lon="14.8984073" version="1" timestamp="2022-07-03T06:00:10Z" changeset="123139608" uid="3497659" user="NKA">
		<tag k="alt_name" v="Tunnstad;Tunstad;Ytter-Tunstad" />
		<tag k="name" v="Ytter-Tunnstad" />
		<tag k="place" v="farm" />
		<tag k="ssr:stedsnr" v="442825" />
	</node>
	<node id="9863276979" lat="68.9051813" lon="14.9869737" version="1" timestamp="2022-07-03T06:00:10Z" changeset="123139608" uid="3497659" user="NKA">
		<tag k="name" v="Fjellgrimstad" />
		<tag k="place" v="farm" />
		<tag k="ssr:stedsnr" v="381799" />
	</node>
	<node id="9863276980" lat="69.0098889" lon="15.1676249" version="1" timestamp="2022-07-03T06:00:10Z" changeset="123139608" uid="3497659" user="NKA">
		<tag k="name" v="Tussen" />
		<tag k="place" v="farm" />
		<tag k="ssr:stedsnr" v="17354" />
	</node>
	<node id="9863276981" lat="68.9360333" lon="15.115788" version="1" timestamp="2022-07-03T06:00:10Z" changeset="123139608" uid="3497659" user="NKA">
		<tag k="name" v="Skogly" />
		<tag k="place" v="hamlet" />
		<tag k="ssr:stedsnr" v="200630" />
	</node>
	<node id="9863276982" lat="68.7720505" lon="14.9147844" version="1" timestamp="2022-07-03T06:00:10Z" changeset="123139608" uid="3497659" user="NKA">
		<tag k="name" v="Myra" />
		<tag k="place" v="farm" />
		<tag k="ssr:stedsnr" v="362772" />
	</node>
	<node id="9863276983" lat="68.7587806" lon="14.9099473" version="1" timestamp="2022-07-03T06:00:10Z" changeset="123139608" uid="3497659" user="NKA">
		<tag k="name" v="Gammelgården" />
		<tag k="place" v="locality" />
		<tag k="ssr:stedsnr" v="362770" />
	</node>
	<node id="9863276984" lat="68.9154989" lon="15.2157726" version="1" timestamp="2022-07-03T06:00:10Z" changeset="123139608" uid="3497659" user="NKA">
		<tag k="name" v="Sørvågen" />
		<tag k="place" v="hamlet" />
		<tag k="ssr:stedsnr" v="199675" />
	</node>
	<node id="9863276985" lat="68.9057417" lon="15.2272145" version="1" timestamp="2022-07-03T06:00:10Z" changeset="123139608" uid="3497659" user="NKA">
		<tag k="name" v="Ryphaug" />
		<tag k="place" v="farm" />
		<tag k="ssr:stedsnr" v="1075985" />
	</node>
	<node id="9863276986" lat="68.8813167" lon="15.2954528" version="1" timestamp="2022-07-03T06:00:10Z" changeset="123139608" uid="3497659" user="NKA">
		<tag k="name" v="Trasthågen" />
		<tag k="place" v="isolated_dwelling" />
		<tag k="ssr:stedsnr" v="582004" />
	</node>
	<node id="9863276987" lat="69.0154611" lon="15.1649138" version="1" timestamp="2022-07-03T06:00:10Z" changeset="123139608" uid="3497659" user="NKA">
		<tag k="alt_name" v="Stagård" />
		<tag k="name" v="Staggarn" />
		<tag k="place" v="farm" />
		<tag k="ssr:stedsnr" v="825869" />
	</node>
	<node id="9863276988" lat="68.7802361" lon="14.9867054" version="1" timestamp="2022-07-03T06:00:10Z" changeset="123139608" uid="3497659" user="NKA">
		<tag k="name" v="Skjærfjorden - Skearavuotna" />
		<tag k="name:no" v="Skjærfjorden" />
		<tag k="name:se" v="Skearavuotna" />
		<tag k="old_name:no" v="Skjelfjorden" />
		<tag k="place" v="hamlet" />
		<tag k="ssr:stedsnr" v="101814" />
	</node>
	<node id="9863276989" lat="68.8857194" lon="15.0884777" version="1" timestamp="2022-07-03T06:00:10Z" changeset="123139608" uid="3497659" user="NKA">
		<tag k="name" v="Gamjorda" />
		<tag k="place" v="farm" />
		<tag k="ssr:stedsnr" v="642158" />
	</node>
	<node id="9863276990" lat="68.9077472" lon="15.1581946" version="1" timestamp="2022-07-03T06:00:10Z" changeset="123139608" uid="3497659" user="NKA">
		<tag k="name" v="Nergard" />
		<tag k="place" v="farm" />
		<tag k="ssr:stedsnr" v="260677" />
	</node>
	<node id="9863276991" lat="68.8285791" lon="14.8427945" version="1" timestamp="2022-07-03T06:00:10Z" changeset="123139608" uid="3497659" user="NKA">
		<tag k="name" v="Bergsenga" />
		<tag k="place" v="farm" />
		<tag k="ssr:stedsnr" v="443854" />
	</node>
	<node id="9863276992" lat="68.785525" lon="15.0400918" version="1" timestamp="2022-07-03T06:00:10Z" changeset="123139608" uid="3497659" user="NKA">
		<tag k="name" v="Ranheim" />
		<tag k="place" v="hamlet" />
		<tag k="ssr:stedsnr" v="928286" />
	</node>
	<node id="9863276993" lat="68.9097917" lon="15.1789667" version="1" timestamp="2022-07-03T06:00:10Z" changeset="123139608" uid="3497659" user="NKA">
		<tag k="name" v="Melvoll" />
		<tag k="place" v="farm" />
		<tag k="ssr:stedsnr" v="503611" />
	</node>
	<node id="9863276994" lat="68.9162166" lon="15.0662834" version="1" timestamp="2022-07-03T06:00:10Z" changeset="123139608" uid="3497659" user="NKA">
		<tag k="name" v="Eriksrud" />
		<tag k="place" v="farm" />
		<tag k="ssr:stedsnr" v="563698" />
	</node>
	<node id="9863276995" lat="68.9032139" lon="15.1662194" version="1" timestamp="2022-07-03T06:00:10Z" changeset="123139608" uid="3497659" user="NKA">
		<tag k="name" v="Melrabben" />
		<tag k="place" v="farm" />
		<tag k="ssr:stedsnr" v="768489" />
	</node>
	<node id="9863276996" lat="68.8407738" lon="14.7662176" version="1" timestamp="2022-07-03T06:00:10Z" changeset="123139608" uid="3497659" user="NKA">
		<tag k="name" v="Grindta" />
		<tag k="place" v="farm" />
		<tag k="ssr:stedsnr" v="928839" />
	</node>
	<node id="9863276997" lat="68.85319" lon="15.0456436" version="1" timestamp="2022-07-03T06:00:10Z" changeset="123139608" uid="3497659" user="NKA">
		<tag k="name" v="Hornet" />
		<tag k="place" v="farm" />
		<tag k="ssr:stedsnr" v="563752" />
	</node>
	<node id="9863276998" lat="68.8174138" lon="15.042339" version="1" timestamp="2022-07-03T06:00:10Z" changeset="123139608" uid="3497659" user="NKA">
		<tag k="name" v="Strandhaugen" />
		<tag k="place" v="isolated_dwelling" />
		<tag k="ssr:stedsnr" v="199303" />
	</node>
	<node id="9863276999" lat="68.9078583" lon="15.1340195" version="1" timestamp="2022-07-03T06:00:10Z" changeset="123139608" uid="3497659" user="NKA">
		<tag k="name" v="Heimoen" />
		<tag k="place" v="hamlet" />
		<tag k="ssr:stedsnr" v="563674" />
	</node>
	<node id="9863277000" lat="68.8261333" lon="14.7561139" version="1" timestamp="2022-07-03T06:00:10Z" changeset="123139608" uid="3497659" user="NKA">
		<tag k="alt_name" v="Lynghaug" />
		<tag k="name" v="Lønghågen" />
		<tag k="place" v="farm" />
		<tag k="ssr:stedsnr" v="482657" />
	</node>
	<node id="9863277001" lat="68.7984789" lon="15.0455618" version="1" timestamp="2022-07-03T06:00:10Z" changeset="123139608" uid="3497659" user="NKA">
		<tag k="name" v="Finnjorda" />
		<tag k="place" v="farm" />
		<tag k="ssr:stedsnr" v="260404" />
	</node>
	<node id="9863277002" lat="68.790592" lon="14.8631923" version="1" timestamp="2022-07-03T06:00:10Z" changeset="123139608" uid="3497659" user="NKA">
		<tag k="alt_name" v="Øverjorda" />
		<tag k="name" v="Øvre Grøtset" />
		<tag k="old_name" v="Grøset Øvrefjord" />
		<tag k="place" v="farm" />
		<tag k="ssr:stedsnr" v="1080974" />
	</node>
	<node id="9863277003" lat="68.8818694" lon="14.8935306" version="1" timestamp="2022-07-03T06:00:10Z" changeset="123139608" uid="3497659" user="NKA">
		<tag k="name" v="Rabban" />
		<tag k="place" v="farm" />
		<tag k="ssr:stedsnr" v="806835" />
	</node>
	<node id="9863277004" lat="68.8441833" lon="14.9921305" version="1" timestamp="2022-07-03T06:00:10Z" changeset="123139608" uid="3497659" user="NKA">
		<tag k="name" v="Sætran" />
		<tag k="place" v="locality" />
		<tag k="ssr:stedsnr" v="830327" />
	</node>
	<node id="9863277005" lat="68.875045" lon="14.9143332" version="1" timestamp="2022-07-03T06:00:10Z" changeset="123139608" uid="3497659" user="NKA">
		<tag k="name" v="Smedvika" />
		<tag k="place" v="farm" />
		<tag k="ssr:stedsnr" v="767084" />
	</node>
	<node id="9863277006" lat="68.8648789" lon="15.1033006" version="1" timestamp="2022-07-03T06:00:10Z" changeset="123139608" uid="3497659" user="NKA">
		<tag k="alt_name" v="Lønskogen" />
		<tag k="name" v="Lønnskogen" />
		<tag k="place" v="hamlet" />
		<tag k="ssr:stedsnr" v="321715" />
	</node>
	<node id="9863277007" lat="68.9055138" lon="15.0628639" version="1" timestamp="2022-07-03T06:00:10Z" changeset="123139608" uid="3497659" user="NKA">
		<tag k="name" v="Sommarøy" />
		<tag k="place" v="quarter" />
		<tag k="ssr:stedsnr" v="321627" />
	</node>
	<node id="9863277008" lat="68.7939344" lon="15.0289801" version="1" timestamp="2022-07-03T06:00:10Z" changeset="123139608" uid="3497659" user="NKA">
		<tag k="name" v="Kavåsen" />
		<tag k="place" v="hamlet" />
		<tag k="ssr:stedsnr" v="745399" />
	</node>
	<node id="9863277009" lat="69.0183584" lon="15.1564277" version="1" timestamp="2022-07-03T06:00:10Z" changeset="123139608" uid="3497659" user="NKA">
		<tag k="name" v="Langenes" />
		<tag k="place" v="hamlet" />
		<tag k="ssr:stedsnr" v="157853" />
	</node>
	<node id="9863277010" lat="68.8109352" lon="15.1552538" version="1" timestamp="2022-07-03T06:00:10Z" changeset="123139608" uid="3497659" user="NKA">
		<tag k="name" v="Tua" />
		<tag k="old_name" v="Tuva" />
		<tag k="place" v="hamlet" />
		<tag k="ssr:stedsnr" v="624288" />
	</node>
	<node id="9863277011" lat="68.925125" lon="14.9551667" version="1" timestamp="2022-07-03T06:00:10Z" changeset="123139608" uid="3497659" user="NKA">
		<tag k="name" v="Kvalvika" />
		<tag k="place" v="farm" />
		<tag k="ssr:stedsnr" v="443722" />
	</node>
	<node id="9863277012" lat="68.944076" lon="15.0125609" version="1" timestamp="2022-07-03T06:00:10Z" changeset="123139608" uid="3497659" user="NKA">
		<tag k="name" v="Kråknes" />
		<tag k="place" v="farm" />
		<tag k="ssr:stedsnr" v="200124" />
	</node>
	<node id="9863277013" lat="68.9550083" lon="15.170725" version="1" timestamp="2022-07-03T06:00:10Z" changeset="123139608" uid="3497659" user="NKA">
		<tag k="name" v="Melkeberget" />
		<tag k="place" v="farm" />
		<tag k="ssr:stedsnr" v="279224" />
	</node>
	<node id="9863277014" lat="68.8144939" lon="15.1632156" version="1" timestamp="2022-07-03T06:00:10Z" changeset="123139608" uid="3497659" user="NKA">
		<tag k="name" v="Høgda" />
		<tag k="place" v="farm" />
		<tag k="ssr:stedsnr" v="283538" />
	</node>
	<node id="9863277015" lat="68.8853722" lon="15.0313168" version="1" timestamp="2022-07-03T06:00:10Z" changeset="123139608" uid="3497659" user="NKA">
		<tag k="name" v="Reinøy" />
		<tag k="place" v="locality" />
		<tag k="ssr:stedsnr" v="461247" />
	</node>
	<node id="9863277016" lat="68.8921972" lon="15.2949834" version="1" timestamp="2022-07-03T06:00:10Z" changeset="123139608" uid="3497659" user="NKA">
		<tag k="name" v="Småsandan" />
		<tag k="old_name" v="Småsanden" />
		<tag k="place" v="hamlet" />
		<tag k="ssr:stedsnr" v="260756" />
	</node>
	<node id="9863305217" lat="68.9045167" lon="15.136562" version="1" timestamp="2022-07-03T06:00:10Z" changeset="123139608" uid="3497659" user="NKA">
		<tag k="name" v="Melrakken" />
		<tag k="place" v="farm" />
		<tag k="ssr:stedsnr" v="343714" />
	</node>
	<node id="9863305218" lat="68.8203146" lon="15.2511815" version="1" timestamp="2022-07-03T06:00:10Z" changeset="123139608" uid="3497659" user="NKA">
		<tag k="name" v="Anebakkan" />
		<tag k="place" v="farm" />
		<tag k="ssr:stedsnr" v="343578" />
	</node>
	<node id="9863305219" lat="68.9210578" lon="15.0869002" version="1" timestamp="2022-07-03T06:00:10Z" changeset="123139608" uid="3497659" user="NKA">
		<tag k="name" v="Svartbakken" />
		<tag k="place" v="quarter" />
		<tag k="ssr:stedsnr" v="339149" />
	</node>
	<node id="9863305220" lat="68.9105361" lon="15.1174389" version="1" timestamp="2022-07-03T06:00:10Z" changeset="123139608" uid="3497659" user="NKA">
		<tag k="name" v="Krysset" />
		<tag k="place" v="farm" />
		<tag k="ssr:stedsnr" v="461184" />
	</node>
	<node id="9863305221" lat="68.8110222" lon="15.1798834" version="1" timestamp="2022-07-03T06:00:10Z" changeset="123139608" uid="3497659" user="NKA">
		<tag k="name" v="Palmåsen" />
		<tag k="place" v="hamlet" />
		<tag k="ssr:stedsnr" v="138304" />
	</node>
	<node id="9863305222" lat="68.8879814" lon="15.2919425" version="1" timestamp="2022-07-03T06:00:10Z" changeset="123139608" uid="3497659" user="NKA">
		<tag k="name" v="Sandan" />
		<tag k="place" v="farm" />
		<tag k="ssr:stedsnr" v="522843" />
	</node>
	<node id="9863305223" lat="69.0064416" lon="15.0872389" version="1" timestamp="2022-07-03T06:00:10Z" changeset="123139608" uid="3497659" user="NKA">
		<tag k="name" v="Enge" />
		<tag k="place" v="locality" />
		<tag k="ssr:stedsnr" v="386110" />
	</node>
	<node id="9863305224" lat="68.9072194" lon="15.1378639" version="1" timestamp="2022-07-03T06:00:10Z" changeset="123139608" uid="3497659" user="NKA">
		<tag k="name" v="Øvergårdskrysset" />
		<tag k="place" v="farm" />
		<tag k="ssr:stedsnr" v="218075" />
	</node>
	<node id="9863305225" lat="68.8371695" lon="15.1123605" version="1" timestamp="2022-07-03T06:00:10Z" changeset="123139608" uid="3497659" user="NKA">
		<tag k="name" v="Gullvik" />
		<tag k="place" v="farm" />
		<tag k="ssr:stedsnr" v="78299" />
	</node>
	<node id="9863305226" lat="68.7850771" lon="14.7446074" version="1" timestamp="2022-07-03T06:00:10Z" changeset="123139608" uid="3497659" user="NKA">
		<tag k="name" v="Nærøya" />
		<tag k="place" v="farm" />
		<tag k="ssr:stedsnr" v="503987" />
	</node>
	<node id="9863305227" lat="68.8600439" lon="15.2739228" version="1" timestamp="2022-07-03T06:00:10Z" changeset="123139608" uid="3497659" user="NKA">
		<tag k="name" v="Lia" />
		<tag k="place" v="hamlet" />
		<tag k="ssr:stedsnr" v="746679" />
	</node>
	<node id="9863305228" lat="68.8558639" lon="15.1181944" version="1" timestamp="2022-07-03T06:00:10Z" changeset="123139608" uid="3497659" user="NKA">
		<tag k="alt_name" v="Ytterstranda" />
		<tag k="name" v="Stranda" />
		<tag k="place" v="farm" />
		<tag k="ssr:stedsnr" v="139681" />
	</node>
	<node id="9863305229" lat="68.9173195" lon="15.2094806" version="1" timestamp="2022-07-03T06:00:10Z" changeset="123139608" uid="3497659" user="NKA">
		<tag k="name" v="Bustad" />
		<tag k="place" v="hamlet" />
		<tag k="ssr:stedsnr" v="139653" />
	</node>
	<node id="9863305230" lat="68.7783075" lon="14.9735593" version="1" timestamp="2022-07-03T06:00:10Z" changeset="123139608" uid="3497659" user="NKA">
		<tag k="name" v="Skjellbogen" />
		<tag k="place" v="farm" />
		<tag k="ssr:stedsnr" v="972895" />
	</node>
	<node id="9863305231" lat="68.8156603" lon="14.8507123" version="1" timestamp="2022-07-03T06:00:10Z" changeset="123139608" uid="3497659" user="NKA">
		<tag k="name" v="Yttervika" />
		<tag k="place" v="farm" />
		<tag k="ssr:stedsnr" v="928899" />
	</node>
	<node id="9863305232" lat="68.8231284" lon="15.013529" version="1" timestamp="2022-07-03T06:00:10Z" changeset="123139608" uid="3497659" user="NKA">
		<tag k="name" v="Romset" />
		<tag k="place" v="hamlet" />
		<tag k="ssr:stedsnr" v="746876" />
	</node>
	<node id="9863305233" lat="68.9209084" lon="15.050475" version="1" timestamp="2022-07-03T06:00:10Z" changeset="123139608" uid="3497659" user="NKA">
		<tag k="name" v="Vornes" />
		<tag k="place" v="farm" />
		<tag k="ssr:stedsnr" v="36108" />
	</node>
	<node id="9863305234" lat="68.8965639" lon="15.2728084" version="1" timestamp="2022-07-03T06:00:10Z" changeset="123139608" uid="3497659" user="NKA">
		<tag k="name" v="Småjorden" />
		<tag k="place" v="farm" />
		<tag k="ssr:stedsnr" v="339165" />
	</node>
	<node id="9863305235" lat="68.849025" lon="15.098489" version="1" timestamp="2022-07-03T06:00:10Z" changeset="123139608" uid="3497659" user="NKA">
		<tag k="name" v="Elvestranda" />
		<tag k="place" v="locality" />
		<tag k="ssr:stedsnr" v="400432" />
	</node>
	<node id="9863305236" lat="68.8788611" lon="15.2889529" version="1" timestamp="2022-07-03T06:00:10Z" changeset="123139608" uid="3497659" user="NKA">
		<tag k="name" v="Rødsand" />
		<tag k="place" v="hamlet" />
		<tag k="ssr:stedsnr" v="321654" />
	</node>
	<node id="9863305237" lat="68.8472597" lon="14.7790073" version="1" timestamp="2022-07-03T06:00:10Z" changeset="123139608" uid="3497659" user="NKA">
		<tag k="name" v="Fagervoll" />
		<tag k="place" v="farm" />
		<tag k="ssr:stedsnr" v="1076753" />
	</node>
	<node id="9863305238" lat="68.8153278" lon="14.8506555" version="1" timestamp="2022-07-03T06:00:10Z" changeset="123139608" uid="3497659" user="NKA">
		<tag k="name" v="Purkvik" />
		<tag k="place" v="farm" />
		<tag k="ssr:stedsnr" v="969870" />
	</node>
	<node id="9863305239" lat="68.8114916" lon="15.1993723" version="1" timestamp="2022-07-03T06:00:10Z" changeset="123139608" uid="3497659" user="NKA">
		<tag k="name" v="Lifjordeidet" />
		<tag k="place" v="farm" />
		<tag k="ssr:stedsnr" v="890607" />
	</node>
	<node id="9863305240" lat="68.8340731" lon="14.811422" version="1" timestamp="2022-07-03T06:00:10Z" changeset="123139608" uid="3497659" user="NKA">
		<tag k="name" v="Brønvåg" />
		<tag k="place" v="locality" />
		<tag k="ssr:stedsnr" v="1076772" />
	</node>
	<node id="9863305241" lat="68.8732305" lon="14.8875305" version="1" timestamp="2022-07-03T06:00:10Z" changeset="123139608" uid="3497659" user="NKA">
		<tag k="alt_name" v="Engeland" />
		<tag k="name" v="England" />
		<tag k="place" v="farm" />
		<tag k="ssr:stedsnr" v="503762" />
	</node>
	<node id="9863305242" lat="68.827909" lon="14.7557718" version="1" timestamp="2022-07-03T06:00:10Z" changeset="123139608" uid="3497659" user="NKA">
		<tag k="name" v="Tøa" />
		<tag k="place" v="hamlet" />
		<tag k="ssr:stedsnr" v="685863" />
	</node>
	<node id="9863305243" lat="68.8279645" lon="14.7611642" version="1" timestamp="2022-07-03T06:00:10Z" changeset="123139608" uid="3497659" user="NKA">
		<tag k="alt_name" v="Dypeide" />
		<tag k="name" v="Djupeidet" />
		<tag k="place" v="farm" />
		<tag k="ssr:stedsnr" v="867876" />
	</node>
	<node id="9863305244" lat="68.8140428" lon="14.8224806" version="1" timestamp="2022-07-03T06:00:10Z" changeset="123139608" uid="3497659" user="NKA">
		<tag k="alt_name" v="Dyrøy" />
		<tag k="name" v="Dyrøya" />
		<tag k="place" v="farm" />
		<tag k="ssr:stedsnr" v="868896" />
	</node>
	<node id="9863305245" lat="68.8657139" lon="15.1015195" version="1" timestamp="2022-07-03T06:00:10Z" changeset="123139608" uid="3497659" user="NKA">
		<tag k="name" v="Lønskog" />
		<tag k="place" v="farm" />
		<tag k="ssr:stedsnr" v="905470" />
	</node>
	<node id="9863305246" lat="68.9252665" lon="14.972834" version="1" timestamp="2022-07-03T06:00:10Z" changeset="123139608" uid="3497659" user="NKA">
		<tag k="name" v="Frivågen" />
		<tag k="place" v="farm" />
		<tag k="ssr:stedsnr" v="321737" />
	</node>
	<node id="9863305247" lat="68.8237394" lon="14.9461605" version="1" timestamp="2022-07-03T06:00:10Z" changeset="123139608" uid="3497659" user="NKA">
		<tag k="alt_name" v="Godvik" />
		<tag k="name" v="Godvika" />
		<tag k="place" v="farm" />
		<tag k="ssr:stedsnr" v="928901" />
	</node>
	<node id="9863305248" lat="68.8216947" lon="15.0429491" version="1" timestamp="2022-07-03T06:00:10Z" changeset="123139608" uid="3497659" user="NKA">
		<tag k="name" v="Navarsborra" />
		<tag k="old_name" v="Naversbor" />
		<tag k="place" v="farm" />
		<tag k="ssr:stedsnr" v="867330" />
	</node>
	<node id="9863305249" lat="68.806" lon="14.9294327" version="1" timestamp="2022-07-03T06:00:10Z" changeset="123139608" uid="3497659" user="NKA">
		<tag k="name" v="Torset" />
		<tag k="place" v="hamlet" />
		<tag k="ssr:stedsnr" v="807939" />
	</node>
	<node id="9863305250" lat="68.7823418" lon="14.950973" version="1" timestamp="2022-07-03T06:00:10Z" changeset="123139608" uid="3497659" user="NKA">
		<tag k="name" v="Elverum" />
		<tag k="place" v="farm" />
		<tag k="ssr:stedsnr" v="260999" />
	</node>
	<node id="9863305251" lat="68.8159045" lon="14.8984227" version="1" timestamp="2022-07-03T06:00:10Z" changeset="123139608" uid="3497659" user="NKA">
		<tag k="name" v="Finngården" />
		<tag k="place" v="farm" />
		<tag k="ssr:stedsnr" v="928893" />
	</node>
	<node id="9863305252" lat="68.84305" lon="15.1000528" version="1" timestamp="2022-07-03T06:00:10Z" changeset="123139608" uid="3497659" user="NKA">
		<tag k="name" v="Øyjorda" />
		<tag k="place" v="locality" />
		<tag k="ssr:stedsnr" v="769277" />
	</node>
	<node id="9863305253" lat="68.9225903" lon="14.8534031" version="1" timestamp="2022-07-03T06:00:10Z" changeset="123139608" uid="3497659" user="NKA">
		<tag k="name" v="Vågje" />
		<tag k="place" v="farm" />
		<tag k="ssr:stedsnr" v="807740" />
	</node>
	<node id="9863305254" lat="68.8729139" lon="15.2846001" version="1" timestamp="2022-07-03T06:00:10Z" changeset="123139608" uid="3497659" user="NKA">
		<tag k="name" v="Grindta" />
		<tag k="place" v="farm" />
		<tag k="ssr:stedsnr" v="643800" />
	</node>
	<node id="9863305255" lat="68.8163559" lon="14.8098602" version="1" timestamp="2022-07-03T06:00:10Z" changeset="123139608" uid="3497659" user="NKA">
		<tag k="name" v="Skifte" />
		<tag k="place" v="farm" />
		<tag k="ssr:stedsnr" v="119898" />
	</node>
	<node id="9863305256" lat="68.8288836" lon="14.7951623" version="1" timestamp="2022-07-03T06:00:10Z" changeset="123139608" uid="3497659" user="NKA">
		<tag k="name" v="Gudmundsvik" />
		<tag k="place" v="locality" />
		<tag k="ssr:stedsnr" v="118627" />
	</node>
	<node id="9863305257" lat="68.8179027" lon="15.2289917" version="1" timestamp="2022-07-03T06:00:10Z" changeset="123139608" uid="3497659" user="NKA">
		<tag k="name" v="Haugen" />
		<tag k="place" v="farm" />
		<tag k="ssr:stedsnr" v="503234" />
	</node>
	<node id="9863305258" lat="68.7842316" lon="14.9657146" version="1" timestamp="2022-07-03T06:00:10Z" changeset="123139608" uid="3497659" user="NKA">
		<tag k="alt_name" v="Indre Ramsvik" />
		<tag k="name" v="Ramsvika" />
		<tag k="place" v="hamlet" />
		<tag k="ssr:stedsnr" v="563998" />
	</node>
	<node id="9863305259" lat="68.9740048" lon="15.1714495" version="1" timestamp="2022-07-03T06:00:10Z" changeset="123139608" uid="3497659" user="NKA">
		<tag k="name" v="Foldnaustan" />
		<tag k="place" v="locality" />
		<tag k="ssr:stedsnr" v="461844" />
	</node>
	<node id="9863305260" lat="68.8286611" lon="15.2358722" version="1" timestamp="2022-07-03T06:00:10Z" changeset="123139608" uid="3497659" user="NKA">
		<tag k="name" v="Lifjord" />
		<tag k="place" v="isolated_dwelling" />
		<tag k="ssr:stedsnr" v="442337" />
	</node>
	<node id="9863305261" lat="68.9181537" lon="14.8537523" version="1" timestamp="2022-07-03T06:00:10Z" changeset="123139608" uid="3497659" user="NKA">
		<tag k="name" v="Solbakken" />
		<tag k="place" v="farm" />
		<tag k="ssr:stedsnr" v="1082079" />
	</node>
	<node id="9863305262" lat="68.8149718" lon="14.7464427" version="1" timestamp="2022-07-03T06:00:10Z" changeset="123139608" uid="3497659" user="NKA">
		<tag k="alt_name" v="Ramsvik;Ytre Ramsvik" />
		<tag k="name" v="Ramsvika" />
		<tag k="place" v="farm" />
		<tag k="ssr:stedsnr" v="868887" />
	</node>
	<node id="9863305263" lat="68.8930938" lon="15.0919831" version="1" timestamp="2022-07-03T06:00:10Z" changeset="123139608" uid="3497659" user="NKA">
		<tag k="name" v="Oppmyre" />
		<tag k="place" v="farm" />
		<tag k="ssr:stedsnr" v="381747" />
	</node>
	<node id="9863305264" lat="68.8116056" lon="15.1752944" version="1" timestamp="2022-07-03T06:00:10Z" changeset="123139608" uid="3497659" user="NKA">
		<tag k="name" v="Moen" />
		<tag k="place" v="farm" />
		<tag k="ssr:stedsnr" v="321259" />
	</node>
	<node id="9863305265" lat="68.7848889" lon="14.9601833" version="1" timestamp="2022-07-03T06:00:10Z" changeset="123139608" uid="3497659" user="NKA">
		<tag k="name" v="Litjorda" />
		<tag k="place" v="farm" />
		<tag k="ssr:stedsnr" v="117180" />
	</node>
	<node id="9863305266" lat="68.7741401" lon="14.9898189" version="1" timestamp="2022-07-03T06:00:10Z" changeset="123139608" uid="3497659" user="NKA">
		<tag k="name" v="Strandgården" />
		<tag k="old_name" v="Skjelfjorden" />
		<tag k="place" v="farm" />
		<tag k="ssr:stedsnr" v="768162" />
	</node>
	<node id="9863305267" lat="68.7742268" lon="14.9929591" version="1" timestamp="2022-07-03T06:00:10Z" changeset="123139608" uid="3497659" user="NKA">
		<tag k="name" v="Eidet" />
		<tag k="place" v="farm" />
		<tag k="ssr:stedsnr" v="1080876" />
	</node>
	<node id="9863305268" lat="68.9621524" lon="14.9452245" version="1" timestamp="2022-07-03T06:00:10Z" changeset="123139608" uid="3497659" user="NKA">
		<tag k="name" v="Gåsøya" />
		<tag k="place" v="locality" />
		<tag k="ssr:stedsnr" v="1076799" />
	</node>
	<node id="9863305269" lat="68.7887727" lon="14.9529255" version="1" timestamp="2022-07-03T06:00:10Z" changeset="123139608" uid="3497659" user="NKA">
		<tag k="name" v="Fjellheim" />
		<tag k="place" v="farm" />
		<tag k="ssr:stedsnr" v="544765" />
	</node>
	<node id="9863305270" lat="68.849339" lon="14.9289586" version="1" timestamp="2022-07-03T06:00:10Z" changeset="123139608" uid="3497659" user="NKA">
		<tag k="name" v="Dalen" />
		<tag k="place" v="locality" />
		<tag k="ssr:stedsnr" v="1076777" />
	</node>
	<node id="9863305271" lat="68.7747034" lon="14.9665945" version="1" timestamp="2022-07-03T06:00:10Z" changeset="123139608" uid="3497659" user="NKA">
		<tag k="name" v="Haugen" />
		<tag k="old_name" v="Skjelfjord Hauge" />
		<tag k="place" v="farm" />
		<tag k="ssr:stedsnr" v="1077785" />
	</node>
	<node id="9863305272" lat="68.8085611" lon="14.7861528" version="1" timestamp="2022-07-03T06:00:10Z" changeset="123139608" uid="3497659" user="NKA">
		<tag k="name" v="Nessan" />
		<tag k="place" v="farm" />
		<tag k="ssr:stedsnr" v="830746" />
	</node>
	<node id="9863305273" lat="68.8673049" lon="15.2842038" version="1" timestamp="2022-07-03T06:00:10Z" changeset="123139608" uid="3497659" user="NKA">
		<tag k="alt_name" v="Steinsvik" />
		<tag k="name" v="Steinsvika" />
		<tag k="place" v="hamlet" />
		<tag k="ssr:stedsnr" v="18679" />
	</node>
	<node id="9863305274" lat="68.8763838" lon="15.2934472" version="1" timestamp="2022-07-03T06:00:10Z" changeset="123139608" uid="3497659" user="NKA">
		<tag k="name" v="Gammen" />
		<tag k="place" v="farm" />
		<tag k="ssr:stedsnr" v="97002" />
	</node>
	<node id="9863305275" lat="68.9492083" lon="15.1772168" version="1" timestamp="2022-07-03T06:00:10Z" changeset="123139608" uid="3497659" user="NKA">
		<tag k="name" v="Vangen" />
		<tag k="place" v="farm" />
		<tag k="ssr:stedsnr" v="36195" />
	</node>
	<node id="9863305276" lat="68.8137291" lon="15.1592734" version="1" timestamp="2022-07-03T06:00:10Z" changeset="123139608" uid="3497659" user="NKA">
		<tag k="name" v="Elvenes" />
		<tag k="place" v="hamlet" />
		<tag k="ssr:stedsnr" v="138301" />
	</node>
	<node id="9863305277" lat="68.7861833" lon="14.7486806" version="1" timestamp="2022-07-03T06:00:10Z" changeset="123139608" uid="3497659" user="NKA">
		<tag k="alt_name" v="Sletta" />
		<tag k="name" v="Sletten" />
		<tag k="place" v="farm" />
		<tag k="ssr:stedsnr" v="867993" />
	</node>
	<node id="9863305278" lat="68.8136107" lon="15.0188093" version="1" timestamp="2022-07-03T06:00:10Z" changeset="123139608" uid="3497659" user="NKA">
		<tag k="alt_name" v="Langstrand" />
		<tag k="name" v="Langstranda" />
		<tag k="place" v="farm" />
		<tag k="ssr:stedsnr" v="118116" />
	</node>
</osm>
