<?xml version="1.0" encoding="UTF-8"?>
<osm generator="osmapis" version="0.6">
	<node id="-64512" lat="60.0521277765" lon="11.8222694436">
		<tag k="historic" v="boundary_stone" />
		<tag k="man_made" v="cairn" />
		<tag k="name" v="Pålsbråtarøysa" />
		<tag k="place" v="locality" />
		<tag k="ssr:stedsnr" v="43511" />
	</node>
	<node id="-64633" lat="59.8415027775" lon="11.8396166715">
		<tag k="historic" v="boundary_stone" />
		<tag k="man_made" v="cairn" />
		<tag k="name" v="Lembruvatnet" />
		<tag k="place" v="locality" />
		<tag k="ssr:stedsnr" v="49408" />
	</node>
	<node id="-64632" lat="59.931550002" lon="12.2425444499">
		<tag k="historic" v="boundary_stone" />
		<tag k="man_made" v="cairn" />
		<tag k="name" v="Kongsvegsrøysa" />
		<tag k="old_name" v="Kongsvej Røset" />
		<tag k="place" v="locality" />
		<tag k="ssr:stedsnr" v="49348" />
	</node>
	<node id="-65900" lat="59.9007194437" lon="11.9851722268">
		<tag k="historic" v="boundary_stone" />
		<tag k="loc_name" v="Buåa nord" />
		<tag k="man_made" v="cairn" />
		<tag k="name" v="Buvasselva nord" />
		<tag k="old_name" v="Buvands Elven midt" />
		<tag k="place" v="locality" />
		<tag k="ssr:stedsnr" v="656267" />
	</node>
	<node id="-65899" lat="59.8727500035" lon="11.91610833">
		<tag k="historic" v="boundary_stone" />
		<tag k="man_made" v="cairn" />
		<tag k="name" v="Tannsjørøysa" />
		<tag k="old_name" v="Røsholms Røset" />
		<tag k="place" v="locality" />
		<tag k="ssr:stedsnr" v="656226" />
	</node>
	<node id="-66727" lat="59.8898083328" lon="12.1742916679">
		<tag k="historic" v="boundary_stone" />
		<tag k="man_made" v="cairn" />
		<tag k="name" v="Åsebakksrøysa" />
		<tag k="old_name" v="Orebakke Røset" />
		<tag k="place" v="locality" />
		<tag k="ssr:stedsnr" v="959268" />
	</node>
	<node id="-63970" lat="59.8903833348" lon="12.0265861163">
		<tag k="historic" v="boundary_stone" />
		<tag k="man_made" v="cairn" />
		<tag k="name" v="Vestre Helgesjørøysa" />
		<tag k="old_name" v="Vestre Helgesiøe Røset" />
		<tag k="place" v="locality" />
		<tag k="ssr:stedsnr" v="292256" />
	</node>
	<node id="-64983" lat="59.9316611092" lon="12.2428250001">
		<tag k="historic" v="boundary_stone" />
		<tag k="man_made" v="cairn" />
		<tag k="name" v="Fredsmonumentet" />
		<tag k="place" v="locality" />
		<tag k="ssr:stedsnr" v="170468" />
	</node>
	<node id="-65744" lat="60.0206472221" lon="12.3025555485">
		<tag k="fixme" v="specify shooting=range, clay_pigeon etc" />
		<tag k="leisure" v="pitch" />
		<tag k="name" v="Revlemoen" />
		<tag k="sport" v="shooting" />
		<tag k="ssr:stedsnr" v="612067" />
	</node>
	<node id="-66246" lat="59.8707361148" lon="11.883533335">
		<tag k="historic" v="boundary_stone" />
		<tag k="man_made" v="cairn" />
		<tag k="name" v="Fisketjernet" />
		<tag k="place" v="locality" />
		<tag k="ssr:stedsnr" v="777350" />
	</node>
	<node id="-64324" lat="59.8556277752" lon="11.8837249974">
		<tag k="historic" v="boundary_stone" />
		<tag k="man_made" v="cairn" />
		<tag k="name" v="Langebekken" />
		<tag k="place" v="locality" />
		<tag k="ssr:stedsnr" v="474357" />
	</node>
	<node id="-64323" lat="59.8408944433" lon="11.8386361051">
		<tag k="historic" v="boundary_stone" />
		<tag k="man_made" v="cairn" />
		<tag k="name" v="Lembruvatnet" />
		<tag k="old_name" v="Lindbroevandet" />
		<tag k="place" v="locality" />
		<tag k="ssr:stedsnr" v="474353" />
	</node>
	<node id="-64322" lat="59.8907861116" lon="12.1008333339">
		<tag k="historic" v="boundary_stone" />
		<tag k="man_made" v="cairn" />
		<tag k="name" v="Korpungstjernrøysa" />
		<tag k="old_name" v="Kiørpungskierns Røset" />
		<tag k="place" v="locality" />
		<tag k="ssr:stedsnr" v="474282" />
	</node>
	<node id="-64321" lat="59.8878194446" lon="12.0407472232">
		<tag k="historic" v="boundary_stone" />
		<tag k="man_made" v="cairn" />
		<tag k="name" v="Østre Helgesjørøysa" />
		<tag k="old_name" v="Østre Helgesiøe Røset" />
		<tag k="place" v="locality" />
		<tag k="ssr:stedsnr" v="474279" />
	</node>
	<node id="-64320" lat="59.9005361124" lon="11.9841888932">
		<tag k="historic" v="boundary_stone" />
		<tag k="man_made" v="cairn" />
		<tag k="name" v="Rødehallsrøysa" />
		<tag k="old_name" v="Rødehalds Røset" />
		<tag k="place" v="locality" />
		<tag k="ssr:stedsnr" v="474256" />
	</node>
	<node id="-65718" lat="59.9657000014" lon="12.341136111">
		<tag k="historic" v="boundary_stone" />
		<tag k="man_made" v="cairn" />
		<tag k="name" v="Klovsteinsrøysa" />
		<tag k="old_name" v="Klovsteens Røset" />
		<tag k="place" v="locality" />
		<tag k="ssr:stedsnr" v="595358" />
	</node>
	<node id="-65717" lat="59.901352779" lon="12.1907611145">
		<tag k="alt_name" v="Aborrtjernsrøysa" />
		<tag k="historic" v="boundary_stone" />
		<tag k="man_made" v="cairn" />
		<tag k="name" v="Abbortjennsrøysa" />
		<tag k="old_name" v="Abborkierns Røset" />
		<tag k="place" v="locality" />
		<tag k="ssr:stedsnr" v="595265" />
	</node>
	<node id="-66737" lat="60.0652825501" lon="11.8949780014">
		<tag k="fixme" v="consider boundary=protected_area and relevant protect_class if not nature reserve" />
		<tag k="leisure" v="nature_reserve" />
		<tag k="name" v="Nygardsmyrene naturreservat" />
		<tag k="ssr:stedsnr" v="976256" />
	</node>
	<node id="-66734" lat="59.8923941997" lon="12.0565091257">
		<tag k="fixme" v="consider boundary=protected_area and relevant protect_class if not nature reserve" />
		<tag k="leisure" v="nature_reserve" />
		<tag k="name" v="Bjellneset naturreservat" />
		<tag k="ssr:stedsnr" v="971438" />
	</node>
	<node id="-66733" lat="59.9445805557" lon="12.2800222204">
		<tag k="historic" v="boundary_stone" />
		<tag k="man_made" v="cairn" />
		<tag k="name" v="Steingrusrøysa" />
		<tag k="old_name" v="Steengruus Røset" />
		<tag k="place" v="locality" />
		<tag k="ssr:stedsnr" v="960499" />
	</node>
	<node id="-66732" lat="59.8706749977" lon="11.8842416739">
		<tag k="historic" v="boundary_stone" />
		<tag k="man_made" v="cairn" />
		<tag k="name" v="Fisketjernet" />
		<tag k="place" v="locality" />
		<tag k="ssr:stedsnr" v="959320" />
	</node>
	<node id="-66731" lat="59.8680888926" lon="11.8813388875">
		<tag k="historic" v="boundary_stone" />
		<tag k="man_made" v="cairn" />
		<tag k="name" v="Fisketjernet" />
		<tag k="old_name" v="Fiskvandet" />
		<tag k="place" v="locality" />
		<tag k="ssr:stedsnr" v="959319" />
	</node>
	<node id="-66730" lat="59.8413999998" lon="11.8401444387">
		<tag k="historic" v="boundary_stone" />
		<tag k="man_made" v="cairn" />
		<tag k="name" v="Lembruvatnet" />
		<tag k="place" v="locality" />
		<tag k="ssr:stedsnr" v="959317" />
	</node>
	<node id="-66728" lat="59.9029749975" lon="12.1932249994">
		<tag k="historic" v="boundary_stone" />
		<tag k="man_made" v="cairn" />
		<tag k="name" v="Vestre Lauvhaugen" />
		<tag k="place" v="locality" />
		<tag k="ssr:stedsnr" v="959269" />
	</node>
	<node id="-64423" lat="59.8618805558" lon="11.885802774">
		<tag k="historic" v="boundary_stone" />
		<tag k="man_made" v="cairn" />
		<tag k="name" v="Langebekken" />
		<tag k="place" v="locality" />
		<tag k="ssr:stedsnr" v="899372" />
	</node>
	<node id="-66726" lat="59.8901055566" lon="11.9420916714">
		<tag k="historic" v="boundary_stone" />
		<tag k="man_made" v="cairn" />
		<tag k="name" v="Lerviksrøysa" />
		<tag k="old_name" v="Leervigs Røset" />
		<tag k="place" v="locality" />
		<tag k="ssr:stedsnr" v="959236" />
	</node>
	<node id="-65181" lat="59.8912416641" lon="12.1044166708">
		<tag k="historic" v="boundary_stone" />
		<tag k="man_made" v="cairn" />
		<tag k="name" v="Knartberget" />
		<tag k="place" v="locality" />
		<tag k="ssr:stedsnr" v="231341" />
	</node>
	<node id="-65180" lat="59.899108332" lon="11.986527781">
		<tag k="historic" v="boundary_stone" />
		<tag k="loc_name" v="Buåa sør" />
		<tag k="man_made" v="cairn" />
		<tag k="name" v="Buvasselva sør" />
		<tag k="old_name" v="Buvands Elven midt" />
		<tag k="place" v="locality" />
		<tag k="ssr:stedsnr" v="231317" />
	</node>
	<node id="-66459" lat="59.8889333343" lon="12.0330888957">
		<tag k="historic" v="boundary_stone" />
		<tag k="loc_name" v="Kneggebergsholmene" />
		<tag k="man_made" v="cairn" />
		<tag k="name" v="Helgesjøen" />
		<tag k="place" v="locality" />
		<tag k="ssr:stedsnr" v="838312" />
	</node>
	<node id="-66458" lat="59.8721861125" lon="11.9013500035">
		<tag k="historic" v="boundary_stone" />
		<tag k="man_made" v="cairn" />
		<tag k="name" v="Lille Tannsjøen" />
		<tag k="old_name" v="Lille Tansiøen" />
		<tag k="place" v="locality" />
		<tag k="ssr:stedsnr" v="838278" />
	</node>
	<node id="-66074" lat="59.8428166687" lon="11.8453166632">
		<tag k="historic" v="boundary_stone" />
		<tag k="man_made" v="cairn" />
		<tag k="name" v="Østre Lembruvatnet" />
		<tag k="old_name" v="Østre Lindbroevandet" />
		<tag k="place" v="locality" />
		<tag k="ssr:stedsnr" v="717365" />
	</node>
	<node id="-64139" lat="59.8712638858" lon="11.8841138832">
		<tag k="historic" v="boundary_stone" />
		<tag k="man_made" v="cairn" />
		<tag k="name" v="Greinfossen" />
		<tag k="old_name" v="Grenerfors" />
		<tag k="place" v="locality" />
		<tag k="ssr:stedsnr" v="352347" />
	</node>
	<node id="-64138" lat="59.886744443" lon="12.1552777782">
		<tag k="historic" v="boundary_stone" />
		<tag k="man_made" v="cairn" />
		<tag k="name" v="Skårgårdsrøysa" />
		<tag k="old_name" v="Skaargaards Røset" />
		<tag k="place" v="locality" />
		<tag k="ssr:stedsnr" v="352280" />
	</node>
	<node id="-64137" lat="59.8987111103" lon="11.9881916724">
		<tag k="historic" v="boundary_stone" />
		<tag k="man_made" v="cairn" />
		<tag k="name" v="Buvassrøysa" />
		<tag k="old_name" v="Buvands Røset" />
		<tag k="place" v="locality" />
		<tag k="ssr:stedsnr" v="352261" />
	</node>
	<node id="-64136" lat="59.8721277748" lon="11.8917861081">
		<tag k="historic" v="boundary_stone" />
		<tag k="man_made" v="cairn" />
		<tag k="name" v="Krokfossen" />
		<tag k="old_name" v="Krokfors" />
		<tag k="place" v="locality" />
		<tag k="ssr:stedsnr" v="352227" />
	</node>
	<node id="-65543" lat="59.9794472248" lon="12.3561888869">
		<tag k="historic" v="boundary_stone" />
		<tag k="man_made" v="cairn" />
		<tag k="name" v="Klettebergrøysa" />
		<tag k="place" v="locality" />
		<tag k="ssr:stedsnr" v="535383" />
	</node>
</osm>
