<?xml version="1.0" encoding="UTF-8"?>
<osm generator="osmapis" version="0.6">
	<node id="-378560" lat="58.3794388845" lon="6.99034166918">
		<tag k="name" v="Basskårkverna" />
		<tag k="place" v="locality" />
		<tag k="ssr:stedsnr" v="884159" />
	</node>
	<node id="-381653" lat="58.6240222265" lon="6.96590277643">
		<tag k="name" v="Bubruna" />
		<tag k="place" v="locality" />
		<tag k="ssr:stedsnr" v="642986" />
	</node>
	<node id="-382457" lat="58.3172277781" lon="6.96110277401">
		<tag k="amenity" v="place_of_worship" />
		<tag k="denomination" v="lutheran" />
		<tag k="loc_name" v="Kvinesdal kirke" />
		<tag k="name" v="Kvinesdal" />
		<tag k="religion" v="christian" />
		<tag k="ssr:stedsnr" v="813524" />
	</node>
	<node id="-382933" lat="58.3418444445" lon="7.02800555959">
		<tag k="amenity" v="community_centre" />
		<tag k="name" v="Kvinaheim" />
		<tag k="ssr:stedsnr" v="941066" />
	</node>
	<node id="-382450" lat="58.6251527786" lon="6.91749443935">
		<tag k="alt_name" v="Netlandsnes" />
		<tag k="amenity" v="place_of_worship" />
		<tag k="denomination" v="lutheran" />
		<tag k="name" v="Netlandsnes kapell" />
		<tag k="religion" v="christian" />
		<tag k="ssr:stedsnr" v="789683" />
	</node>
	<node id="-379342" lat="58.5948916696" lon="7.07634722127">
		<tag k="name" v="Englefossbrua" />
		<tag k="place" v="locality" />
		<tag k="ssr:stedsnr" v="96601" />
	</node>
	<node id="-382923" lat="58.325624997" lon="6.98883611527">
		<tag k="amenity" v="community_centre" />
		<tag k="name" v="Sarons dal" />
		<tag k="ssr:stedsnr" v="934125" />
	</node>
	<node id="-382090" lat="58.5250305547" lon="6.99105833066">
		<tag k="alt_name" v="Fjotland" />
		<tag k="amenity" v="place_of_worship" />
		<tag k="denomination" v="lutheran" />
		<tag k="name" v="Fjotland kyrkje" />
		<tag k="religion" v="christian" />
		<tag k="ssr:stedsnr" v="752759" />
	</node>
	<node id="-382215" lat="58.5190444466" lon="6.93309722452">
		<tag k="amenity" v="community_centre" />
		<tag k="name" v="Kvinatun" />
		<tag k="ssr:stedsnr" v="763011" />
	</node>
	<node id="-378980" lat="58.4875472186" lon="6.96300277139">
		<tag k="name" v="Stemmen" />
		<tag k="place" v="locality" />
		<tag k="ssr:stedsnr" v="35612" />
	</node>
	<node id="-380035" lat="58.545675004" lon="7.02418332928">
		<tag k="name" v="Prestestølen" />
		<tag k="place" v="locality" />
		<tag k="ssr:stedsnr" v="217335" />
	</node>
	<node id="-379074" lat="58.2628833295" lon="6.81993334204">
		<tag k="alt_name" v="Feda" />
		<tag k="amenity" v="place_of_worship" />
		<tag k="denomination" v="lutheran" />
		<tag k="name" v="Feda kirke" />
		<tag k="religion" v="christian" />
		<tag k="ssr:stedsnr" v="60294" />
	</node>
</osm>
