<?xml version="1.0" encoding="UTF-8"?>
<<<<<<< HEAD
<osm version="0.6" generator="osmapis">
	<node lat="61.84599166597345" lon="9.2500416623188" id="-23021">
		<tag k="name" v="Yvju" />
		<tag k="natural" v="bay" />
		<tag k="ssr:stedsnr" v="230471" />
	</node>
	<node lat="61.907037106803514" lon="9.152974945419697" id="-23029">
		<tag k="alt_name" v="Jettjønne" />
		<tag k="name" v="Jettjørni" />
		<tag k="natural" v="water" />
		<tag k="ssr:stedsnr" v="10352" />
	</node>
	<node lat="61.61759444552365" lon="8.994213896862961" id="-23032">
		<tag k="name" v="Ormehølen" />
		<tag k="place" v="locality" />
		<tag k="ssr:stedsnr" v="10807" />
	</node>
	<node lat="61.57243889002246" lon="8.94925556309046" id="-23033">
		<tag k="name" v="Øvre Birisjøtjønne" />
		<tag k="natural" v="water" />
		<tag k="ssr:stedsnr" v="10829" />
	</node>
	<node lat="61.50625555927913" lon="8.853275007516318" id="-23035">
		<tag k="name" v="Tangen" />
		<tag k="natural" v="cape" />
		<tag k="ssr:stedsnr" v="10879" />
	</node>
	<node lat="61.820597220097376" lon="9.329886109048518" id="-23037">
		<tag k="name" v="Styggemannstjønnin" />
		<tag k="natural" v="water" />
		<tag k="ssr:stedsnr" v="10781" />
		<tag k="water" v="lake" />
	</node>
	<node lat="61.55458333501685" lon="8.803066675334012" id="-23038">
		<tag k="name" v="Russa" />
		<tag k="ssr:stedsnr" v="10937" />
		<tag k="waterway" v="river" />
	</node>
	<node lat="61.54126389026283" lon="8.663536114486885" id="-23040">
		<tag k="name" v="Sundodden" />
		<tag k="natural" v="cape" />
		<tag k="ssr:stedsnr" v="10940" />
	</node>
	<node lat="61.70722499751306" lon="8.991675007206652" id="-23043">
		<tag k="name" v="Jonsdalsbekken" />
		<tag k="ssr:stedsnr" v="10995" />
		<tag k="waterway" v="stream" />
	</node>
	<node lat="61.82434721821256" lon="8.889872229496802" id="-23054">
		<tag k="name" v="Lomtjønne" />
		<tag k="natural" v="water" />
		<tag k="ssr:stedsnr" v="236457" />
	</node>
	<node lat="61.85008611478266" lon="8.991786104397406" id="-23059">
		<tag k="name" v="Øygardsbekken" />
		<tag k="ssr:stedsnr" v="41105" />
		<tag k="waterway" v="stream" />
	</node>
	<node lat="61.77498333054808" lon="9.045086113056284" id="-23062">
		<tag k="name" v="Valdesæterbekken" />
		<tag k="ssr:stedsnr" v="41386" />
		<tag k="waterway" v="stream" />
	</node>
	<node lat="61.801469442248376" lon="9.163291662718626" id="-23063">
		<tag k="name" v="Rustbekken" />
		<tag k="ssr:stedsnr" v="49569" />
		<tag k="waterway" v="stream" />
	</node>
	<node lat="61.528638888739735" lon="8.89677499492765" id="-23065">
		<tag k="name" v="Breinnsvavika" />
		<tag k="natural" v="bay" />
		<tag k="ssr:stedsnr" v="53613" />
	</node>
	<node lat="61.47608055265652" lon="8.664675006454656" id="-23066">
		<tag k="name" v="Svarva" />
		<tag k="ssr:stedsnr" v="69781" />
		<tag k="waterway" v="stream" />
	</node>
	<node lat="61.472633330346504" lon="8.627347221133068" id="-23067">
		<tag k="name" v="Tjønnholåe" />
		<tag k="ssr:stedsnr" v="69787" />
		<tag k="waterway" v="stream" />
	</node>
	<node lat="61.49718910825636" lon="8.763886555675288" id="-23068">
		<tag k="name" v="Hamnhåmåren" />
		<tag k="natural" v="cape" />
		<tag k="ssr:stedsnr" v="69793" />
	</node>
	<node lat="61.82303333406589" lon="8.937225001606711" id="-23069">
		<tag k="alt_name" v="Tesskrokein" />
		<tag k="name" v="Tesskrokan" />
		<tag k="place" v="locality" />
		<tag k="ssr:stedsnr" v="70473" />
	</node>
	<node lat="61.5651916678048" lon="8.963800008307224" id="-23070">
		<tag k="name" v="Birisjøen" />
		<tag k="natural" v="water" />
		<tag k="ssr:stedsnr" v="70807" />
		<tag k="water" v="lake" />
	</node>
	<node lat="61.61744722631778" lon="8.794163885344604" id="-23072">
		<tag k="name" v="Hindtjønnin" />
		<tag k="natural" v="water" />
		<tag k="ssr:stedsnr" v="70885" />
		<tag k="water" v="lake" />
	</node>
	<node lat="61.719208330986206" lon="9.008733341888775" id="-23074">
		<tag k="alt_name" v="Tjønnbekken" />
		<tag k="name" v="Tjørnbekken" />
		<tag k="ssr:stedsnr" v="70984" />
		<tag k="waterway" v="stream" />
	</node>
	<node lat="61.75908888511774" lon="8.995472225476162" id="-23083">
		<tag k="alt_name" v="Dravtjønne" />
		<tag k="name" v="Dravtjørni" />
		<tag k="natural" v="water" />
		<tag k="ssr:stedsnr" v="71432" />
	</node>
	<node lat="61.75539647140204" lon="9.102619817915285" id="-23084">
		<tag k="alt_name" v="Dyrtjønne" />
		<tag k="name" v="Dyrtjørni" />
		<tag k="natural" v="water" />
		<tag k="ssr:stedsnr" v="71438" />
	</node>
	<node lat="61.757314905452944" lon="9.120940793996677" id="-23085">
		<tag k="alt_name" v="Slomtjørni" />
		<tag k="name" v="Slombtjønne" />
		<tag k="natural" v="water" />
		<tag k="ssr:stedsnr" v="71439" />
	</node>
	<node lat="61.558725002874255" lon="8.759338886634305" id="-23094">
		<tag k="name" v="Grotodden" />
		<tag k="natural" v="cape" />
		<tag k="ssr:stedsnr" v="71929" />
	</node>
	<node lat="61.52478888520468" lon="8.73884722958758" id="-23097">
		<tag k="name" v="Grotåe" />
		<tag k="ssr:stedsnr" v="71948" />
		<tag k="waterway" v="stream" />
	</node>
	<node lat="61.954113887344114" lon="9.032311111559022" id="-23102">
		<tag k="name" v="Porten" />
		<tag k="natural" v="water" />
		<tag k="ssr:stedsnr" v="72179" />
	</node>
	<node lat="61.861005556638354" lon="8.91091388981765" id="-23106">
		<tag k="name" v="Ulabekken" />
		<tag k="ssr:stedsnr" v="100064" />
		<tag k="waterway" v="stream" />
	</node>
	<node lat="61.81335000276075" lon="9.11055277142389" id="-23110">
		<tag k="name" v="Røta" />
		<tag k="ssr:stedsnr" v="102218" />
		<tag k="waterway" v="stream" />
	</node>
	<node lat="61.73635833005132" lon="8.948613893627863" id="-23112">
		<tag k="name" v="Flådammen" />
		<tag k="ssr:stedsnr" v="102344" />
		<tag k="waterway" v="dam" />
	</node>
	<node lat="61.872772225759995" lon="9.185544437363959" id="-23113">
		<tag k="name" v="Grønhølen" />
		<tag k="place" v="locality" />
		<tag k="ssr:stedsnr" v="102827" />
	</node>
	<node lat="61.79161666550971" lon="9.19726110234315" id="-23120">
		<tag k="name" v="Mela" />
		<tag k="ssr:stedsnr" v="110587" />
		<tag k="waterway" v="stream" />
	</node>
	<node lat="61.4647388844826" lon="8.800049998636123" id="-23134">
		<tag k="name" v="Varga" />
		<tag k="ssr:stedsnr" v="251781" />
		<tag k="waterway" v="stream" />
	</node>
	<node lat="61.851191669984416" lon="8.852783328609659" id="-23136">
		<tag k="name" v="Vågåvatnet" />
		<tag k="natural" v="water" />
		<tag k="ssr:stedsnr" v="252035" />
		<tag k="water" v="lake" />
	</node>
	<node lat="61.81232499757231" lon="8.942902776335066" id="-23139">
		<tag k="alt_name" v="Lonein" />
		<tag k="name" v="Lonin" />
=======
<osm generator="osmapis" version="0.6">
	<node id="-368639" lat="61.7817333366" lon="9.18950832457">
		<tag k="name" v="Vakkerslettbekken" />
		<tag k="ssr:stedsnr" v="799441" />
		<tag k="waterway" v="stream" />
	</node>
	<node id="-368635" lat="61.8545972188" lon="9.14528611843">
		<tag k="name" v="Sjårdalsbekken" />
		<tag k="ssr:stedsnr" v="799312" />
		<tag k="waterway" v="stream" />
	</node>
	<node id="-368627" lat="61.7087277774" lon="8.9466111191">
		<tag k="name" v="Nørdre Skridubekken" />
		<tag k="ssr:stedsnr" v="798993" />
		<tag k="waterway" v="stream" />
	</node>
	<node id="-368625" lat="61.5838027749" lon="8.93924999938">
		<tag k="name" v="Birisjøbekken" />
		<tag k="ssr:stedsnr" v="798762" />
		<tag k="waterway" v="stream" />
	</node>
	<node id="-368624" lat="61.5873500025" lon="8.93067500512">
		<tag k="name" v="Nausterøye" />
		<tag k="place" v="islet" />
		<tag k="ssr:stedsnr" v="798761" />
	</node>
	<node id="-368604" lat="61.7708361103" lon="9.0908222175">
		<tag k="name" v="Skaråbekken" />
		<tag k="ssr:stedsnr" v="769386" />
		<tag k="waterway" v="stream" />
	</node>
	<node id="-368601" lat="61.7140888853" lon="9.0259055605">
		<tag k="name" v="Holbekken" />
		<tag k="ssr:stedsnr" v="769476" />
		<tag k="waterway" v="stream" />
	</node>
	<node id="-368598" lat="61.8700250042" lon="9.06108888201">
		<tag k="name" v="Lindalen" />
		<tag k="ssr:stedsnr" v="769230" />
		<tag k="waterway" v="stream" />
	</node>
	<node id="-368593" lat="61.8644138894" lon="8.92311388973">
		<tag k="name" v="Nebbnesbekken" />
		<tag k="ssr:stedsnr" v="769062" />
		<tag k="waterway" v="stream" />
	</node>
	<node id="-368590" lat="61.8723638905" lon="9.14001388364">
		<tag k="name" v="Tonge" />
		<tag k="natural" v="cape" />
		<tag k="ssr:stedsnr" v="767941" />
	</node>
	<node id="-368574" lat="61.9436972257" lon="8.93036388878">
		<tag k="alt_name" v="Klomsrobekken, s" />
		<tag k="name" v="Søre Klomsrobekken" />
		<tag k="ssr:stedsnr" v="739180" />
		<tag k="waterway" v="stream" />
	</node>
	<node id="-368573" lat="61.9784722247" lon="9.01518610236">
		<tag k="alt_name" v="Lefinna, store;Nørdre Lefinna" />
		<tag k="name" v="Store Lefinna" />
		<tag k="ssr:stedsnr" v="739159" />
		<tag k="waterway" v="stream" />
	</node>
	<node id="-368572" lat="61.9874416693" lon="8.89123611332">
		<tag k="name" v="Gravdalsåi" />
		<tag k="ssr:stedsnr" v="739148" />
		<tag k="waterway" v="stream" />
	</node>
	<node id="-368568" lat="61.7271527777" lon="8.99878333058">
		<tag k="alt_name" v="Grjothovdtjørni, øvre;Øvre Grothovdtjønne" />
		<tag k="name" v="Øvre Grjothovdtjørni" />
		<tag k="natural" v="water" />
		<tag k="ssr:stedsnr" v="738984" />
	</node>
	<node id="-368561" lat="61.5262166676" lon="8.89178056289">
		<tag k="name" v="Brennsvanebban" />
		<tag k="natural" v="cape" />
		<tag k="ssr:stedsnr" v="738883" />
	</node>
	<node id="-368560" lat="61.5318191421" lon="9.03033275709">
		<tag k="name" v="Ingulsjøen" />
>>>>>>> e1d4bc35ff8a6074a6f2e91616a996b547c36f15
		<tag k="natural" v="water" />
		<tag k="ssr:stedsnr" v="252434" />
		<tag k="water" v="lake" />
	</node>
<<<<<<< HEAD
	<node lat="61.831369448088985" lon="8.926061119613449" id="-23141">
		<tag k="alt_name" v="Gjæsinggrove" />
		<tag k="name" v="Gjæsinggrovi" />
		<tag k="ssr:stedsnr" v="252438" />
		<tag k="waterway" v="river" />
	</node>
	<node lat="61.441974998974224" lon="9.111616661206115" id="-23142">
		<tag k="name" v="Guldbergs kjelde" />
		<tag k="place" v="locality" />
		<tag k="ssr:stedsnr" v="129003" />
	</node>
	<node lat="61.82858610768154" lon="9.329800004659466" id="-23152">
		<tag k="name" v="Svarttjønne" />
		<tag k="natural" v="water" />
		<tag k="ssr:stedsnr" v="131803" />
	</node>
	<node lat="61.626277780111906" lon="9.005236116253366" id="-23154">
		<tag k="name" v="Eldbuholmen" />
		<tag k="place" v="islet" />
		<tag k="ssr:stedsnr" v="131809" />
	</node>
	<node lat="61.57026666906786" lon="9.052974990734475" id="-23157">
		<tag k="name" v="Dyrtjørni" />
		<tag k="natural" v="water" />
		<tag k="ssr:stedsnr" v="131863" />
	</node>
	<node lat="61.80994166709747" lon="9.340680551256641" id="-23165">
		<tag k="name" v="Flåtåtjønne" />
=======
	<node id="-368558" lat="61.5440888897" lon="8.92615556299">
		<tag k="name" v="Gammelosen" />
		<tag k="natural" v="bay" />
		<tag k="ssr:stedsnr" v="738867" />
	</node>
	<node id="-368557" lat="61.5463749988" lon="8.94184721446">
		<tag k="name" v="Pulløye" />
		<tag k="place" v="islet" />
		<tag k="ssr:stedsnr" v="738864" />
	</node>
	<node id="-368554" lat="61.5581833324" lon="9.05797777279">
		<tag k="name" v="Dyrtjørnbekken" />
		<tag k="ssr:stedsnr" v="738850" />
		<tag k="waterway" v="stream" />
	</node>
	<node id="-368549" lat="61.6173222218" lon="8.92740276874">
		<tag k="name" v="Turr-Hinde" />
		<tag k="ssr:stedsnr" v="738816" />
		<tag k="waterway" v="stream" />
	</node>
	<node id="-368546" lat="61.8334805584" lon="9.30572777563">
		<tag k="name" v="Tolstadbekken" />
		<tag k="ssr:stedsnr" v="738798" />
		<tag k="waterway" v="stream" />
	</node>
	<node id="-368541" lat="61.8326879898" lon="9.07540668978">
		<tag k="alt_name" v="Klonessætertjønne" />
		<tag k="name" v="Klonestjørnin" />
		<tag k="natural" v="water" />
		<tag k="ssr:stedsnr" v="738477" />
		<tag k="water" v="lake" />
	</node>
	<node id="-368534" lat="61.780086109" lon="8.98599165867">
		<tag k="alt_name" v="Turrhaugtjern" />
		<tag k="name" v="Turrhaugtjørni" />
>>>>>>> e1d4bc35ff8a6074a6f2e91616a996b547c36f15
		<tag k="natural" v="water" />
		<tag k="ssr:stedsnr" v="131768" />
	</node>
<<<<<<< HEAD
	<node lat="61.65368055129552" lon="9.028236116488229" id="-23167">
		<tag k="alt_name" v="Veoøya" />
		<tag k="name" v="Veoøyi" />
		<tag k="place" v="islet" />
		<tag k="ssr:stedsnr" v="131785" />
	</node>
	<node lat="61.65218055181965" lon="8.894127784721158" id="-23169">
		<tag k="name" v="Nilsebekken" />
		<tag k="ssr:stedsnr" v="131788" />
		<tag k="waterway" v="stream" />
	</node>
	<node lat="61.526863892833546" lon="8.878855557477406" id="-23172">
		<tag k="name" v="Meneset" />
		<tag k="natural" v="cape" />
		<tag k="ssr:stedsnr" v="131906" />
	</node>
	<node lat="61.6731222207818" lon="8.819730559229395" id="-23175">
		<tag k="name" v="Veo" />
		<tag k="ssr:stedsnr" v="131922" />
		<tag k="waterway" v="river" />
	</node>
	<node lat="61.95164444704495" lon="9.080250005288619" id="-23178">
		<tag k="name" v="Birisjøen" />
=======
	<node id="-368521" lat="61.9393990946" lon="9.16886577893">
		<tag k="name" v="Øyadalsbekken" />
		<tag k="ssr:stedsnr" v="738145" />
		<tag k="waterway" v="river" />
	</node>
	<node id="-368505" lat="61.8672055598" lon="9.23254722806">
		<tag k="name" v="Vesl-Holungen" />
		<tag k="ssr:stedsnr" v="645790" />
		<tag k="waterway" v="stream" />
	</node>
	<node id="-368504" lat="61.8793305588" lon="9.22626389706">
		<tag k="name" v="Spitbekken" />
		<tag k="ssr:stedsnr" v="645901" />
		<tag k="waterway" v="stream" />
	</node>
	<node id="-368491" lat="61.5372435424" lon="8.91837054463">
		<tag k="name" v="Trollbottvikje" />
		<tag k="natural" v="bay" />
		<tag k="ssr:stedsnr" v="617857" />
	</node>
	<node id="-368486" lat="61.618249998" lon="8.97436666918">
		<tag k="name" v="Stuttgongfossen" />
		<tag k="natural" v="waterfall" />
		<tag k="ssr:stedsnr" v="617804" />
	</node>
	<node id="-368485" lat="61.6207305551" lon="9.0029000012">
		<tag k="alt_name" v="Eldbuhølene" />
		<tag k="name" v="Eldbuhølan" />
		<tag k="place" v="locality" />
		<tag k="ssr:stedsnr" v="617792" />
	</node>
	<node id="-368483" lat="61.9044333317" lon="9.10816111722">
		<tag k="name" v="Nugga" />
		<tag k="ssr:stedsnr" v="617399" />
		<tag k="waterway" v="river" />
	</node>
	<node id="-368478" lat="61.865452781" lon="9.10163610763">
		<tag k="alt_name" v="Sundoddin" />
		<tag k="name" v="Sundodden" />
		<tag k="natural" v="cape" />
		<tag k="ssr:stedsnr" v="617342" />
	</node>
	<node id="-368476" lat="61.8515138897" lon="9.21440834244">
		<tag k="name" v="Langløken" />
		<tag k="natural" v="bay" />
		<tag k="ssr:stedsnr" v="617303" />
	</node>
	<node id="-368475" lat="61.9773138869" lon="8.97743055783">
		<tag k="alt_name" v="Tverråe" />
		<tag k="name" v="Tverråi" />
		<tag k="ssr:stedsnr" v="617270" />
		<tag k="waterway" v="stream" />
	</node>
	<node id="-368474" lat="61.9557222196" lon="9.0213500081">
		<tag k="name" v="Langvatnet" />
>>>>>>> e1d4bc35ff8a6074a6f2e91616a996b547c36f15
		<tag k="natural" v="water" />
		<tag k="ssr:stedsnr" v="132106" />
		<tag k="water" v="lake" />
	</node>
<<<<<<< HEAD
	<node lat="61.96963055615723" lon="8.969444441469301" id="-23179">
		<tag k="name" v="Storbekken" />
		<tag k="ssr:stedsnr" v="132169" />
		<tag k="waterway" v="stream" />
	</node>
	<node lat="61.97323610819192" lon="9.02384721632861" id="-23180">
		<tag k="alt_name" v="Lefinna, vesle;Søre Lefinna" />
		<tag k="name" v="Vesle Lefinna" />
		<tag k="ssr:stedsnr" v="132172" />
		<tag k="waterway" v="stream" />
	</node>
	<node lat="61.9428944428345" lon="8.924744440278083" id="-23181">
		<tag k="alt_name" v="Klomsrobekken, nordre" />
		<tag k="name" v="Nørdre Klomsrobekken" />
		<tag k="ssr:stedsnr" v="132173" />
		<tag k="waterway" v="stream" />
	</node>
	<node lat="61.524788891445155" lon="9.124544449158764" id="-23192">
		<tag k="name" v="Gryta" />
		<tag k="ssr:stedsnr" v="252775" />
		<tag k="waterway" v="river" />
	</node>
	<node lat="61.79103611115355" lon="9.290761103355246" id="-23193">
		<tag k="alt_name" v="Søre Liabekken" />
		<tag k="name" v="Liabekken" />
		<tag k="ssr:stedsnr" v="252828" />
		<tag k="waterway" v="stream" />
	</node>
	<node lat="61.87942499644267" lon="9.165813894201802" id="-23201">
		<tag k="alt_name" v="Svarttjønne" />
		<tag k="name" v="Svarttjørni" />
=======
	<node id="-368471" lat="61.89143333" lon="8.9906388968">
		<tag k="alt_name" v="Tverråi, nordre;Nørdre Tverråe" />
		<tag k="name" v="Nørdre Tverråi" />
		<tag k="ssr:stedsnr" v="617387" />
		<tag k="waterway" v="stream" />
	</node>
	<node id="-368469" lat="61.569351739" lon="8.60333727571">
		<tag k="name" v="Blåtjønnin" />
		<tag k="natural" v="water" />
		<tag k="ssr:stedsnr" v="616935" />
		<tag k="water" v="lake" />
	</node>
	<node id="-368468" lat="61.5283833362" lon="8.8951749985">
		<tag k="name" v="Brennsvaodden" />
		<tag k="natural" v="cape" />
		<tag k="ssr:stedsnr" v="616868" />
	</node>
	<node id="-368467" lat="61.5366083345" lon="9.13568610602">
		<tag k="name" v="Skinnrevo" />
		<tag k="ssr:stedsnr" v="616866" />
		<tag k="waterway" v="stream" />
	</node>
	<node id="-368466" lat="61.565855554" lon="9.18338611509">
		<tag k="name" v="Holbekken" />
		<tag k="ssr:stedsnr" v="616847" />
		<tag k="waterway" v="stream" />
	</node>
	<node id="-368462" lat="61.8564944442" lon="9.08978610251">
		<tag k="name" v="Klonesbekken" />
		<tag k="ssr:stedsnr" v="616281" />
		<tag k="waterway" v="stream" />
	</node>
	<node id="-368458" lat="61.8069555513" lon="9.08131388425">
		<tag k="name" v="Surtningen" />
>>>>>>> e1d4bc35ff8a6074a6f2e91616a996b547c36f15
		<tag k="natural" v="water" />
		<tag k="ssr:stedsnr" v="253393" />
	</node>
<<<<<<< HEAD
	<node lat="61.75403333059369" lon="9.000338888655135" id="-23205">
		<tag k="alt_name" v="Dravtjønnbekken" />
		<tag k="name" v="Dravtjørnbekken" />
		<tag k="ssr:stedsnr" v="253444" />
		<tag k="waterway" v="stream" />
	</node>
	<node lat="61.7747194442614" lon="9.066180551249875" id="-23210">
		<tag k="name" v="Lemonsjøen" />
=======
	<node id="-368457" lat="61.8412055579" lon="9.19451110228">
		<tag k="alt_name" v="Lauvåe" />
		<tag k="name" v="Lauvåi" />
		<tag k="ssr:stedsnr" v="616237" />
		<tag k="waterway" v="river" />
	</node>
	<node id="-368454" lat="61.8101444484" lon="8.94267499682">
		<tag k="name" v="Ostjønnen" />
>>>>>>> e1d4bc35ff8a6074a6f2e91616a996b547c36f15
		<tag k="natural" v="water" />
		<tag k="ssr:stedsnr" v="253460" />
		<tag k="water" v="lake" />
	</node>
<<<<<<< HEAD
	<node lat="61.54961111501947" lon="8.974291663927758" id="-23216">
		<tag k="alt_name" v="Gammelolatjern" />
		<tag k="name" v="Gammelolatjørni" />
		<tag k="natural" v="water" />
		<tag k="ssr:stedsnr" v="253852" />
	</node>
	<node lat="61.87550833444164" lon="9.274991675788318" id="-23219">
		<tag k="name" v="Tronddalstjønne" />
		<tag k="natural" v="water" />
		<tag k="ssr:stedsnr" v="253959" />
	</node>
	<node lat="61.803927774534216" lon="9.01361945153695" id="-23234">
		<tag k="alt_name" v="Lomtjønne" />
		<tag k="name" v="Lomtjørni" />
=======
	<node id="-368449" lat="61.7990666697" lon="9.17220000568">
		<tag k="name" v="Sandånebben" />
		<tag k="natural" v="cape" />
		<tag k="ssr:stedsnr" v="595553" />
	</node>
	<node id="-368437" lat="61.8485305566" lon="8.94752500516">
		<tag k="name" v="Galtin" />
		<tag k="natural" v="shoal" />
		<tag k="place" v="locality" />
		<tag k="ssr:stedsnr" v="587125" />
	</node>
	<node id="-368427" lat="61.9707605644" lon="9.02073134385">
		<tag k="name" v="Hærabrekktjønne" />
>>>>>>> e1d4bc35ff8a6074a6f2e91616a996b547c36f15
		<tag k="natural" v="water" />
		<tag k="ssr:stedsnr" v="174505" />
	</node>
<<<<<<< HEAD
	<node lat="61.90343888821409" lon="8.974002787052626" id="-23235">
		<tag k="name" v="Feleseveite" />
		<tag k="ssr:stedsnr" v="175373" />
		<tag k="waterway" v="drain" />
	</node>
	<node lat="61.475044444251026" lon="8.835536103310417" id="-23239">
		<tag k="name" v="Brurskardbekken" />
		<tag k="ssr:stedsnr" v="190777" />
		<tag k="waterway" v="stream" />
	</node>
	<node lat="61.47433546362658" lon="8.797650035569722" id="-23240">
		<tag k="alt_name" v="Leirungen, nedre" />
		<tag k="name" v="Nedre Leirungen" />
=======
	<node id="-368426" lat="61.8691666682" lon="9.08037777413">
		<tag k="name" v="Vanglandet" />
		<tag k="natural" v="beach" />
		<tag k="ssr:stedsnr" v="586207" />
	</node>
	<node id="-368421" lat="61.7072305577" lon="8.97456945002">
		<tag k="name" v="Djupdalsbekken" />
		<tag k="ssr:stedsnr" v="585235" />
		<tag k="waterway" v="stream" />
	</node>
	<node id="-368411" lat="61.7431916708" lon="8.97592778691">
		<tag k="alt_name" v="Kojenebba;Kojenebben" />
		<tag k="name" v="Koienebben" />
		<tag k="natural" v="cape" />
		<tag k="ssr:stedsnr" v="556947" />
	</node>
	<node id="-368408" lat="61.5511527772" lon="9.03491666745">
		<tag k="name" v="Griningsdalsvatnet" />
>>>>>>> e1d4bc35ff8a6074a6f2e91616a996b547c36f15
		<tag k="natural" v="water" />
		<tag k="ssr:stedsnr" v="190778" />
		<tag k="water" v="lake" />
	</node>
<<<<<<< HEAD
	<node lat="61.83596434045244" lon="9.06967837092706" id="-23250">
		<tag k="name" v="Tvætjønnin" />
		<tag k="natural" v="water" />
		<tag k="ssr:stedsnr" v="223129" />
		<tag k="water" v="lake" />
	</node>
	<node lat="61.80837777819601" lon="9.070474992419898" id="-23255">
		<tag k="name" v="Kvitingsbekken" />
		<tag k="ssr:stedsnr" v="223182" />
		<tag k="waterway" v="stream" />
	</node>
	<node lat="61.97590278206525" lon="8.826127782945873" id="-23275">
		<tag k="alt_name" v="Gjerdingåi" />
		<tag k="loc_name" v="Gjerdingåa" />
		<tag k="name" v="Gjerdingåe" />
		<tag k="ssr:stedsnr" v="253896" />
		<tag k="waterway" v="river" />
	</node>
	<node lat="61.83553611333954" lon="9.398011103228617" id="-23286">
		<tag k="alt_name" v="Geitåa" />
		<tag k="name" v="Geitåe" />
		<tag k="ssr:stedsnr" v="292513" />
		<tag k="waterway" v="stream" />
	</node>
	<node lat="61.81881388463954" lon="9.30128333465564" id="-23287">
		<tag k="name" v="Sveahaugtjønne" />
=======
	<node id="-368404" lat="61.6332805582" lon="9.04649999501">
		<tag k="name" v="Vistesala" />
		<tag k="ssr:stedsnr" v="556780" />
		<tag k="waterway" v="stream" />
	</node>
	<node id="-368402" lat="61.8787111085" lon="8.97255832614">
		<tag k="name" v="Svarthåmårbekken" />
		<tag k="ssr:stedsnr" v="556401" />
		<tag k="waterway" v="stream" />
	</node>
	<node id="-368392" lat="61.9233944481" lon="9.18362500218">
		<tag k="name" v="Jettdalsbekken" />
		<tag k="ssr:stedsnr" v="556188" />
		<tag k="waterway" v="stream" />
	</node>
	<node id="-368391" lat="61.9173583324" lon="8.88975278383">
		<tag k="name" v="Visdalsæterbekken" />
		<tag k="ssr:stedsnr" v="556179" />
		<tag k="waterway" v="stream" />
	</node>
	<node id="-368390" lat="61.7083833313" lon="9.11838054676">
		<tag k="name" v="Sisseltjørni" />
>>>>>>> e1d4bc35ff8a6074a6f2e91616a996b547c36f15
		<tag k="natural" v="water" />
		<tag k="ssr:stedsnr" v="462287" />
	</node>
<<<<<<< HEAD
	<node lat="61.8132638850757" lon="9.27539722747526" id="-23289">
		<tag k="name" v="Aurderøya" />
		<tag k="natural" v="cape" />
		<tag k="ssr:stedsnr" v="462897" />
	</node>
	<node lat="61.87107777569527" lon="9.19595277334393" id="-23296">
		<tag k="name" v="Svartbekken" />
		<tag k="ssr:stedsnr" v="464748" />
		<tag k="waterway" v="stream" />
	</node>
	<node lat="61.82326666673295" lon="9.053366666218645" id="-23308">
		<tag k="name" v="Krossmyrbekken" />
		<tag k="ssr:stedsnr" v="465140" />
		<tag k="waterway" v="stream" />
	</node>
	<node lat="61.81378055632963" lon="9.060552781610031" id="-23325">
		<tag k="name" v="Reinskinna" />
		<tag k="ssr:stedsnr" v="313468" />
		<tag k="waterway" v="river" />
	</node>
	<node lat="61.87211944858707" lon="9.187922223720346" id="-23328">
		<tag k="name" v="Hårrholet" />
=======
	<node id="-368385" lat="61.5172555521" lon="8.86440277268">
		<tag k="name" v="Bessneset" />
		<tag k="natural" v="cape" />
		<tag k="ssr:stedsnr" v="555841" />
	</node>
	<node id="-368379" lat="61.4825388926" lon="8.85973055669">
		<tag k="name" v="Mola" />
		<tag k="ssr:stedsnr" v="553232" />
		<tag k="waterway" v="river" />
	</node>
	<node id="-368376" lat="61.4062583374" lon="8.62270554667">
		<tag k="name" v="Leirungstjønnin" />
		<tag k="natural" v="water" />
		<tag k="ssr:stedsnr" v="553116" />
		<tag k="water" v="lake" />
	</node>
	<node id="-368375" lat="61.9242388856" lon="8.96933611088">
		<tag k="name" v="Teigjebekken" />
		<tag k="ssr:stedsnr" v="539303" />
		<tag k="waterway" v="stream" />
	</node>
	<node id="-368345" lat="61.78131111" lon="8.95610276842">
		<tag k="name" v="Nørdre Neset" />
		<tag k="natural" v="cape" />
		<tag k="ssr:stedsnr" v="524312" />
	</node>
	<node id="-368339" lat="61.873208335" lon="8.92489721515">
		<tag k="name" v="Dipra" />
		<tag k="ssr:stedsnr" v="436327" />
		<tag k="waterway" v="river" />
	</node>
	<node id="-368336" lat="61.8781833353" lon="9.192958342">
		<tag k="name" v="Grøna" />
		<tag k="ssr:stedsnr" v="436300" />
		<tag k="waterway" v="stream" />
	</node>
	<node id="-368327" lat="61.5375361099" lon="8.92952499948">
		<tag k="name" v="Fluguvikje" />
>>>>>>> e1d4bc35ff8a6074a6f2e91616a996b547c36f15
		<tag k="natural" v="bay" />
		<tag k="ssr:stedsnr" v="466828" />
	</node>
<<<<<<< HEAD
	<node lat="61.83034999619899" lon="9.358575005060398" id="-23329">
		<tag k="name" v="Løytnantdammen" />
		<tag k="place" v="locality" />
		<tag k="ssr:stedsnr" v="313803" />
	</node>
	<node lat="61.83232499820332" lon="9.228624992245141" id="-23330">
		<tag k="alt_name" v="Storbekken" />
		<tag k="name" v="Svartbekken" />
		<tag k="ssr:stedsnr" v="313814" />
		<tag k="waterway" v="stream" />
	</node>
	<node lat="61.70614721784709" lon="8.9607583419137" id="-23331">
		<tag k="name" v="Søre Skridubekken" />
		<tag k="ssr:stedsnr" v="313823" />
		<tag k="waterway" v="stream" />
	</node>
	<node lat="61.58560833097317" lon="9.104450008751892" id="-23332">
		<tag k="name" v="Leirtjørnbekken" />
		<tag k="ssr:stedsnr" v="313829" />
		<tag k="waterway" v="stream" />
	</node>
	<node lat="61.91163611368163" lon="9.061641670678805" id="-23335">
		<tag k="name" v="Måla" />
		<tag k="ssr:stedsnr" v="314165" />
		<tag k="waterway" v="river" />
	</node>
	<node lat="61.92115833636301" lon="9.045322223801485" id="-23336">
		<tag k="name" v="Rishovdtjørni" />
=======
	<node id="-368322" lat="61.6712499994" lon="9.08465277023">
		<tag k="name" v="Sjolibekken" />
		<tag k="ssr:stedsnr" v="435782" />
		<tag k="waterway" v="stream" />
	</node>
	<node id="-368321" lat="61.6581916658" lon="8.99019999361">
		<tag k="name" v="Veolibekken" />
		<tag k="ssr:stedsnr" v="435777" />
		<tag k="waterway" v="stream" />
	</node>
	<node id="-368315" lat="61.8505694424" lon="9.12453889382">
		<tag k="name" v="Sundbekken" />
		<tag k="ssr:stedsnr" v="435294" />
		<tag k="waterway" v="stream" />
	</node>
	<node id="-368314" lat="61.8111472229" lon="9.20384722601">
		<tag k="alt_name" v="Rindtjønne" />
		<tag k="name" v="Rindtjørni" />
>>>>>>> e1d4bc35ff8a6074a6f2e91616a996b547c36f15
		<tag k="natural" v="water" />
		<tag k="ssr:stedsnr" v="314169" />
	</node>
<<<<<<< HEAD
	<node lat="61.77951388748861" lon="9.076847226965683" id="-23359">
		<tag k="name" v="Darthusvikje" />
		<tag k="natural" v="bay" />
		<tag k="ssr:stedsnr" v="344398" />
	</node>
	<node lat="61.83072221873947" lon="9.140552769485991" id="-23362">
		<tag k="name" v="Teppingstjønne" />
		<tag k="natural" v="water" />
		<tag k="ssr:stedsnr" v="474539" />
	</node>
	<node lat="61.815344440544195" lon="9.166072222097036" id="-23363">
		<tag k="fixme" v="multiple name tags, choose one and add the other to alt_name" />
		<tag k="name" v="Breinsæterbekken;Sandåe" />
		<tag k="ssr:stedsnr" v="474541" />
		<tag k="waterway" v="stream" />
	</node>
	<node lat="61.794361108373955" lon="9.135569446307056" id="-23364">
		<tag k="name" v="Svartvikje" />
		<tag k="natural" v="bay" />
		<tag k="ssr:stedsnr" v="474550" />
	</node>
	<node lat="61.793416670591924" lon="9.287452777235853" id="-23365">
		<tag k="name" v="Nørdre Liabekken" />
		<tag k="ssr:stedsnr" v="474685" />
		<tag k="waterway" v="stream" />
	</node>
	<node lat="61.78753055708623" lon="9.165216675130644" id="-23366">
		<tag k="name" v="Kolbottbekken" />
		<tag k="ssr:stedsnr" v="474956" />
		<tag k="waterway" v="stream" />
	</node>
	<node lat="61.93602222310927" lon="8.944991663387414" id="-23369">
		<tag k="name" v="Stulsbekken" />
		<tag k="ssr:stedsnr" v="478348" />
		<tag k="waterway" v="stream" />
	</node>
	<node lat="61.78062777938411" lon="8.955983333452648" id="-23381">
=======
	<node id="-368309" lat="61.7651749958" lon="9.05018889232">
		<tag k="name" v="Eitra" />
		<tag k="ssr:stedsnr" v="435463" />
		<tag k="waterway" v="stream" />
	</node>
	<node id="-368305" lat="61.5820611149" lon="8.92673055418">
		<tag k="name" v="Måsåøye" />
		<tag k="place" v="islet" />
		<tag k="ssr:stedsnr" v="434767" />
	</node>
	<node id="-368304" lat="61.5082249968" lon="8.89728610408">
		<tag k="name" v="Storskridubekken" />
		<tag k="ssr:stedsnr" v="434838" />
		<tag k="waterway" v="stream" />
	</node>
	<node id="-368302" lat="61.8335638909" lon="8.87317222597">
		<tag k="alt_name" v="Krosstjørni" />
		<tag k="name" v="Krosstjønne" />
		<tag k="natural" v="water" />
		<tag k="ssr:stedsnr" v="434450" />
	</node>
	<node id="-368300" lat="61.481833337" lon="8.82732778349">
		<tag k="name" v="Mågåhølen" />
		<tag k="place" v="locality" />
		<tag k="ssr:stedsnr" v="433770" />
	</node>
	<node id="-368299" lat="61.4278499999" lon="8.68449999915">
		<tag k="name" v="Tjørnholsbekken" />
		<tag k="ssr:stedsnr" v="432133" />
		<tag k="waterway" v="stream" />
	</node>
	<node id="-368295" lat="61.4713361103" lon="9.13296944315">
		<tag k="alt_name" v="Skiftesbekken" />
		<tag k="name" v="Nørdre Skiftesbekken" />
		<tag k="ssr:stedsnr" v="416588" />
		<tag k="waterway" v="stream" />
	</node>
	<node id="-368293" lat="61.8003944423" lon="9.25881388704">
		<tag k="name" v="Kleivtjønne" />
		<tag k="natural" v="water" />
		<tag k="ssr:stedsnr" v="413681" />
	</node>
	<node id="-368290" lat="61.8204055571" lon="9.39303611332">
		<tag k="name" v="Vibekken" />
		<tag k="ssr:stedsnr" v="413545" />
		<tag k="waterway" v="stream" />
	</node>
	<node id="-368285" lat="61.5345125802" lon="8.90414448701">
		<tag k="loc_name" v="Nørdre Trollbottvikje" />
		<tag k="name" v="Nørdre Trollbottvika" />
		<tag k="natural" v="bay" />
		<tag k="ssr:stedsnr" v="409713" />
	</node>
	<node id="-368280" lat="61.7803305598" lon="9.05122500353">
		<tag k="name" v="Kreta" />
		<tag k="place" v="islet" />
		<tag k="ssr:stedsnr" v="405390" />
	</node>
	<node id="-368274" lat="61.799852779" lon="9.10883332775">
		<tag k="name" v="Lomholmin" />
		<tag k="place" v="islet" />
		<tag k="ssr:stedsnr" v="405180" />
	</node>
	<node id="-368263" lat="61.8224861078" lon="9.33240276972">
		<tag k="name" v="Styggemannstjønne" />
		<tag k="natural" v="water" />
		<tag k="ssr:stedsnr" v="400560" />
	</node>
	<node id="-368260" lat="61.8757111153" lon="8.9663611105">
		<tag k="alt_name" v="Åi, nordre" />
		<tag k="name" v="Nørdre Åi" />
		<tag k="ssr:stedsnr" v="375300" />
		<tag k="waterway" v="stream" />
	</node>
	<node id="-368259" lat="61.8711861108" lon="9.21272500148">
		<tag k="alt_name" v="Holungen" />
		<tag k="name" v="Storholungen" />
		<tag k="ssr:stedsnr" v="375296" />
		<tag k="waterway" v="stream" />
	</node>
	<node id="-368252" lat="61.5747472179" lon="8.80320278398">
		<tag k="name" v="Hellertjønne" />
		<tag k="natural" v="water" />
		<tag k="ssr:stedsnr" v="374918" />
	</node>
	<node id="-368241" lat="61.7806277794" lon="8.95598333345">
>>>>>>> e1d4bc35ff8a6074a6f2e91616a996b547c36f15
		<tag k="alt_name" v="Degernes" />
		<tag k="name" v="Degerneset" />
		<tag k="natural" v="cape" />
		<tag k="ssr:stedsnr" v="374418" />
	</node>
<<<<<<< HEAD
	<node lat="61.6117111089378" lon="8.925566674678397" id="-23386">
		<tag k="name" v="Vesl-Hinde" />
		<tag k="ssr:stedsnr" v="374813" />
		<tag k="waterway" v="stream" />
	</node>
	<node lat="61.561855553425666" lon="8.733452782463273" id="-23387">
		<tag k="name" v="Tjønnholodden" />
		<tag k="natural" v="cape" />
		<tag k="ssr:stedsnr" v="374814" />
	</node>
	<node lat="61.78033055977652" lon="9.05122500352639" id="-23402">
		<tag k="name" v="Kreta" />
		<tag k="place" v="islet" />
		<tag k="ssr:stedsnr" v="405390" />
	</node>
	<node lat="61.534512580237035" lon="8.904144487010809" id="-23406">
		<tag k="loc_name" v="Nørdre Trollbottvikje" />
		<tag k="name" v="Nørdre Trollbottvika" />
=======
	<node id="-368226" lat="61.798819443" lon="9.15562223061">
		<tag k="name" v="Flokka" />
		<tag k="ssr:stedsnr" v="352548" />
		<tag k="waterway" v="stream" />
	</node>
	<node id="-368216" lat="61.7795138875" lon="9.07684722697">
		<tag k="name" v="Darthusvikje" />
>>>>>>> e1d4bc35ff8a6074a6f2e91616a996b547c36f15
		<tag k="natural" v="bay" />
		<tag k="ssr:stedsnr" v="409713" />
	</node>
<<<<<<< HEAD
	<node lat="61.82040555708974" lon="9.393036113324799" id="-23411">
		<tag k="name" v="Vibekken" />
		<tag k="ssr:stedsnr" v="413545" />
		<tag k="waterway" v="stream" />
	</node>
	<node lat="61.471336110306915" lon="9.132969443146665" id="-23412">
		<tag k="alt_name" v="Skiftesbekken" />
		<tag k="name" v="Nørdre Skiftesbekken" />
		<tag k="ssr:stedsnr" v="416588" />
		<tag k="waterway" v="stream" />
	</node>
	<node lat="61.427849999908" lon="8.684499999145844" id="-23413">
		<tag k="name" v="Tjørnholsbekken" />
		<tag k="ssr:stedsnr" v="432133" />
		<tag k="waterway" v="stream" />
	</node>
	<node lat="61.76517499578297" lon="9.050188892323469" id="-23419">
		<tag k="name" v="Eitra" />
		<tag k="ssr:stedsnr" v="435463" />
		<tag k="waterway" v="stream" />
	</node>
	<node lat="61.65819166576623" lon="8.990199993606291" id="-23425">
		<tag k="name" v="Veolibekken" />
		<tag k="ssr:stedsnr" v="435777" />
		<tag k="waterway" v="stream" />
	</node>
	<node lat="61.671249999420134" lon="9.084652770232697" id="-23426">
		<tag k="name" v="Sjolibekken" />
		<tag k="ssr:stedsnr" v="435782" />
		<tag k="waterway" v="stream" />
	</node>
	<node lat="61.53753610987421" lon="8.929524999475747" id="-23429">
		<tag k="name" v="Fluguvikje" />
		<tag k="natural" v="bay" />
		<tag k="ssr:stedsnr" v="435874" />
	</node>
	<node lat="61.447186115604985" lon="8.731424999715157" id="-23437">
		<tag k="name" v="Steinflybekken" />
		<tag k="ssr:stedsnr" v="493153" />
		<tag k="waterway" v="stream" />
	</node>
	<node lat="61.85207777689164" lon="9.218966663311186" id="-23442">
		<tag k="name" v="Svendstadhølen" />
		<tag k="place" v="locality" />
		<tag k="ssr:stedsnr" v="463858" />
	</node>
	<node lat="61.773494444767216" lon="8.9610166759182" id="-23447">
		<tag k="name" v="Utøyra" />
		<tag k="natural" v="cape" />
		<tag k="ssr:stedsnr" v="464356" />
	</node>
	<node lat="61.86381111425659" lon="9.206041671922831" id="-23449">
		<tag k="name" v="Vesløye" />
		<tag k="natural" v="cape" />
		<tag k="ssr:stedsnr" v="464763" />
	</node>
	<node lat="61.463394446967435" lon="8.712397227448442" id="-23460">
		<tag k="name" v="Bukkehåmårtjønne" />
		<tag k="natural" v="water" />
		<tag k="ssr:stedsnr" v="675780" />
	</node>
	<node lat="61.8276805537693" lon="8.876899992791596" id="-23470">
		<tag k="alt_name" v="Svarttjørni" />
		<tag k="name" v="Svarttjønne" />
=======
	<node id="-368196" lat="61.8636305532" lon="9.22743332878">
		<tag k="name" v="Serkvesbekken" />
		<tag k="ssr:stedsnr" v="342732" />
		<tag k="waterway" v="stream" />
	</node>
	<node id="-368180" lat="61.7512305595" lon="9.05758888985">
		<tag k="alt_name" v="Kalvtjønnbekken" />
		<tag k="name" v="Kalvtjørnbekken" />
		<tag k="ssr:stedsnr" v="314436" />
		<tag k="waterway" v="stream" />
	</node>
	<node id="-368174" lat="61.585608331" lon="9.10445000875">
		<tag k="name" v="Leirtjørnbekken" />
		<tag k="ssr:stedsnr" v="313829" />
		<tag k="waterway" v="stream" />
	</node>
	<node id="-368173" lat="61.7061472178" lon="8.96075834191">
		<tag k="name" v="Søre Skridubekken" />
		<tag k="ssr:stedsnr" v="313823" />
		<tag k="waterway" v="stream" />
	</node>
	<node id="-368170" lat="61.7976305552" lon="9.12648610836">
		<tag k="alt_name" v="Holmen" />
		<tag k="name" v="Holmin" />
		<tag k="place" v="islet" />
		<tag k="ssr:stedsnr" v="313436" />
	</node>
	<node id="-368158" lat="61.4666249967" lon="9.14495554707">
		<tag k="alt_name" v="Skiftesbekken" />
		<tag k="name" v="Søre Skiftesbekken" />
		<tag k="ssr:stedsnr" v="311301" />
		<tag k="waterway" v="stream" />
	</node>
	<node id="-368142" lat="61.8979958922" lon="9.1902848856">
		<tag k="alt_name" v="Sandmeltjønnin" />
		<tag k="name" v="Sandmeltjørnin" />
		<tag k="natural" v="water" />
		<tag k="ssr:stedsnr" v="193382" />
		<tag k="water" v="lake" />
	</node>
	<node id="-368140" lat="61.8919361128" lon="8.99588889138">
		<tag k="alt_name" v="Tverråi, s" />
		<tag k="name" v="Søre Tverråe" />
		<tag k="ssr:stedsnr" v="193375" />
		<tag k="waterway" v="stream" />
	</node>
	<node id="-368130" lat="61.6873027735" lon="9.1210249909">
		<tag k="name" v="Kvernbekken" />
		<tag k="ssr:stedsnr" v="192990" />
		<tag k="waterway" v="stream" />
	</node>
	<node id="-368127" lat="61.5405416643" lon="9.05805832685">
		<tag k="name" v="Ingulssjøbekken" />
		<tag k="ssr:stedsnr" v="192873" />
		<tag k="waterway" v="stream" />
	</node>
	<node id="-368125" lat="61.5601833339" lon="8.94483332594">
		<tag k="name" v="Langtjønne" />
		<tag k="natural" v="water" />
		<tag k="ssr:stedsnr" v="192858" />
	</node>
	<node id="-368123" lat="61.5602527784" lon="8.91813889669">
		<tag k="name" v="Heimsanden" />
		<tag k="natural" v="beach" />
		<tag k="ssr:stedsnr" v="192853" />
	</node>
	<node id="-368122" lat="61.5788055542" lon="8.95811389184">
		<tag k="name" v="Melistjønne" />
>>>>>>> e1d4bc35ff8a6074a6f2e91616a996b547c36f15
		<tag k="natural" v="water" />
		<tag k="ssr:stedsnr" v="677478" />
	</node>
<<<<<<< HEAD
	<node lat="61.829739027774814" lon="8.908747368207115" id="-23472">
		<tag k="name" v="Gjæsingvatnet" />
=======
	<node id="-368121" lat="61.5926583315" lon="9.01380278474">
		<tag k="name" v="Tjørnosen" />
>>>>>>> e1d4bc35ff8a6074a6f2e91616a996b547c36f15
		<tag k="natural" v="water" />
		<tag k="ssr:stedsnr" v="677481" />
		<tag k="water" v="lake" />
	</node>
<<<<<<< HEAD
	<node lat="61.80755781711888" lon="9.05639581396264" id="-23475">
		<tag k="name" v="Kvitingen" />
=======
	<node id="-368119" lat="61.7240083304" lon="9.00163332511">
		<tag k="alt_name" v="Grjothovdtjørni, nedre;Nedre Grothovdtjønne" />
		<tag k="name" v="Nedre Grjothovdtjørni" />
>>>>>>> e1d4bc35ff8a6074a6f2e91616a996b547c36f15
		<tag k="natural" v="water" />
		<tag k="ssr:stedsnr" v="677456" />
		<tag k="water" v="lake" />
	</node>
<<<<<<< HEAD
	<node lat="61.802380551996976" lon="9.077072219227116" id="-23476">
		<tag k="name" v="Tuvstulbekken" />
		<tag k="ssr:stedsnr" v="677461" />
		<tag k="waterway" v="stream" />
	</node>
	<node lat="61.67809999965091" lon="9.033036106842758" id="-23477">
		<tag k="name" v="Turrhaugbekken" />
		<tag k="ssr:stedsnr" v="677760" />
		<tag k="waterway" v="stream" />
	</node>
	<node lat="61.52238222058594" lon="8.759478815085766" id="-23478">
		<tag k="name" v="Bessvatnet" />
		<tag k="natural" v="water" />
		<tag k="ssr:stedsnr" v="677943" />
		<tag k="water" v="lake" />
	</node>
	<node lat="61.524866666595926" lon="8.884805551336328" id="-23479">
		<tag k="name" v="Mariholmen" />
=======
	<node id="-368117" lat="61.7104166658" lon="9.05741389254">
		<tag k="alt_name" v="Kvenngrov" />
		<tag k="name" v="Kverngrov" />
		<tag k="ssr:stedsnr" v="192977" />
		<tag k="waterway" v="stream" />
	</node>
	<node id="-368115" lat="61.7289611098" lon="8.94216110511">
		<tag k="name" v="Holbekken" />
		<tag k="ssr:stedsnr" v="192969" />
		<tag k="waterway" v="stream" />
	</node>
	<node id="-368111" lat="61.742463888" lon="8.97153611735">
		<tag k="name" v="Garmodammen" />
		<tag k="natural" v="water" />
		<tag k="ssr:stedsnr" v="192946" />
	</node>
	<node id="-368107" lat="61.6683027799" lon="9.03587778686">
		<tag k="alt_name" v="Tråsåfossen, øvre" />
		<tag k="name" v="Øvre Tråsåfossen" />
		<tag k="natural" v="waterfall" />
		<tag k="ssr:stedsnr" v="192787" />
	</node>
	<node id="-368106" lat="61.5968000043" lon="8.94384444719">
		<tag k="name" v="Lauvøye" />
>>>>>>> e1d4bc35ff8a6074a6f2e91616a996b547c36f15
		<tag k="place" v="islet" />
		<tag k="ssr:stedsnr" v="677862" />
	</node>
<<<<<<< HEAD
	<node lat="61.52089722578496" lon="8.886291672090877" id="-23480">
		<tag k="name" v="Hoskevikje" />
		<tag k="natural" v="bay" />
		<tag k="ssr:stedsnr" v="677864" />
	</node>
	<node lat="61.52041666505923" lon="8.878830552641716" id="-23481">
		<tag k="name" v="Hoskeodden" />
		<tag k="natural" v="cape" />
		<tag k="ssr:stedsnr" v="677874" />
	</node>
	<node lat="61.83119721867672" lon="8.908272228929436" id="-23485">
		<tag k="alt_name" v="Langøyddin" />
		<tag k="name" v="Langodden" />
		<tag k="natural" v="cape" />
		<tag k="ssr:stedsnr" v="678259" />
	</node>
	<node lat="61.765463884577635" lon="9.068566663960754" id="-23487">
		<tag k="alt_name" v="Langøyddin" />
		<tag k="name" v="Langodden" />
		<tag k="natural" v="cape" />
		<tag k="ssr:stedsnr" v="678263" />
	</node>
	<node lat="61.93301944472555" lon="8.781622214392922" id="-23488">
		<tag k="name" v="Finna" />
		<tag k="ssr:stedsnr" v="678268" />
		<tag k="waterway" v="river" />
	</node>
	<node lat="61.86356111052602" lon="9.084674994336577" id="-23490">
		<tag k="alt_name" v="Klonesoddin" />
		<tag k="name" v="Klonesodden" />
		<tag k="natural" v="cape" />
		<tag k="ssr:stedsnr" v="678335" />
	</node>
	<node lat="61.44548333183134" lon="9.037538881737268" id="-23499">
		<tag k="name" v="Holmbekkin" />
		<tag k="ssr:stedsnr" v="493004" />
		<tag k="waterway" v="stream" />
	</node>
	<node lat="61.842777775257424" lon="9.074799990981452" id="-23501">
		<tag k="alt_name" v="Svarttjønne" />
		<tag k="name" v="Svarttjørni" />
=======
	<node id="-368099" lat="61.8275750094" lon="9.03998164205">
		<tag k="alt_name" v="Strondsætertjønne" />
		<tag k="name" v="Strondsætertjørni" />
		<tag k="natural" v="water" />
		<tag k="ssr:stedsnr" v="192510" />
	</node>
	<node id="-368097" lat="61.7732194421" lon="9.00447221988">
		<tag k="alt_name" v="Sliungstjønne" />
		<tag k="name" v="Silungstjørni" />
		<tag k="natural" v="water" />
		<tag k="ssr:stedsnr" v="192444" />
	</node>
	<node id="-368096" lat="61.7757916661" lon="9.03121388169">
		<tag k="alt_name" v="Gutustjønne" />
		<tag k="name" v="Gutusjøtjørnin" />
		<tag k="natural" v="water" />
		<tag k="ssr:stedsnr" v="192441" />
		<tag k="water" v="lake" />
	</node>
	<node id="-368090" lat="61.9199166655" lon="8.91453610841">
		<tag k="alt_name" v="Grønlibekken, nordre" />
		<tag k="name" v="Nørdre Grønlibekken" />
		<tag k="ssr:stedsnr" v="192163" />
		<tag k="waterway" v="stream" />
	</node>
	<node id="-368086" lat="61.4743354636" lon="8.79765003557">
		<tag k="alt_name" v="Leirungen, nedre" />
		<tag k="name" v="Nedre Leirungen" />
>>>>>>> e1d4bc35ff8a6074a6f2e91616a996b547c36f15
		<tag k="natural" v="water" />
		<tag k="ssr:stedsnr" v="495262" />
	</node>
<<<<<<< HEAD
	<node lat="61.82048888858293" lon="9.009849996543014" id="-23506">
		<tag k="name" v="Ulvemyrbekken" />
		<tag k="ssr:stedsnr" v="495465" />
		<tag k="waterway" v="stream" />
	</node>
	<node lat="61.54558055973544" lon="9.165713896685963" id="-23509">
		<tag k="fixme" v="multiple name tags, choose one and add the other to alt_name" />
		<tag k="name" v="Vetlbekken;Nysæterbekken" />
		<tag k="ssr:stedsnr" v="495857" />
		<tag k="waterway" v="stream" />
	</node>
	<node lat="61.57026667040867" lon="8.829647228830648" id="-23513">
		<tag k="name" v="Nørdre Tverråe" />
		<tag k="ssr:stedsnr" v="495919" />
		<tag k="waterway" v="river" />
	</node>
	<node lat="61.78131111001836" lon="8.956102768418212" id="-23519">
		<tag k="name" v="Nørdre Neset" />
		<tag k="natural" v="cape" />
		<tag k="ssr:stedsnr" v="524312" />
	</node>
	<node lat="61.79019166300487" lon="9.045544437673609" id="-23532">
		<tag k="name" v="Sandnesøye" />
		<tag k="place" v="islet" />
		<tag k="ssr:stedsnr" v="526379" />
	</node>
	<node lat="61.44437777516141" lon="9.107274991822747" id="-23537">
		<tag k="name" v="Heimdalsoset" />
		<tag k="natural" v="bay" />
		<tag k="ssr:stedsnr" v="553002" />
	</node>
	<node lat="61.420236107829545" lon="9.098874998276335" id="-23539">
		<tag k="name" v="Austhøbekken" />
		<tag k="ssr:stedsnr" v="553012" />
		<tag k="waterway" v="stream" />
	</node>
	<node lat="61.482538892584735" lon="8.85973055668978" id="-23540">
		<tag k="name" v="Mola" />
		<tag k="ssr:stedsnr" v="553232" />
		<tag k="waterway" v="river" />
	</node>
	<node lat="61.936172224324416" lon="9.131497228289122" id="-23546">
		<tag k="name" v="Daldokkbekken" />
		<tag k="ssr:stedsnr" v="556167" />
		<tag k="waterway" v="stream" />
	</node>
	<node lat="61.84043055799564" lon="9.251780563142809" id="-23554">
		<tag k="name" v="Lalmsvatnet" />
=======
	<node id="-368085" lat="61.4750444443" lon="8.83553610331">
		<tag k="name" v="Brurskardbekken" />
		<tag k="ssr:stedsnr" v="190777" />
		<tag k="waterway" v="stream" />
	</node>
	<node id="-368080" lat="61.8233749979" lon="8.98270277745">
		<tag k="name" v="Veslbekken" />
		<tag k="ssr:stedsnr" v="175487" />
		<tag k="waterway" v="stream" />
	</node>
	<node id="-368079" lat="61.9034388882" lon="8.97400278705">
		<tag k="name" v="Feleseveite" />
		<tag k="ssr:stedsnr" v="175373" />
		<tag k="waterway" v="drain" />
	</node>
	<node id="-368043" lat="61.9428944428" lon="8.92474444028">
		<tag k="alt_name" v="Klomsrobekken, nordre" />
		<tag k="name" v="Nørdre Klomsrobekken" />
		<tag k="ssr:stedsnr" v="132173" />
		<tag k="waterway" v="stream" />
	</node>
	<node id="-368042" lat="61.9732361082" lon="9.02384721633">
		<tag k="alt_name" v="Lefinna, vesle;Søre Lefinna" />
		<tag k="name" v="Vesle Lefinna" />
		<tag k="ssr:stedsnr" v="132172" />
		<tag k="waterway" v="stream" />
	</node>
	<node id="-368041" lat="61.9696305562" lon="8.96944444147">
		<tag k="name" v="Storbekken" />
		<tag k="ssr:stedsnr" v="132169" />
		<tag k="waterway" v="stream" />
	</node>
	<node id="-368038" lat="61.5118833364" lon="8.83007499433">
		<tag k="alt_name" v="Veslebessa" />
		<tag k="name" v="Veslbessa" />
		<tag k="ssr:stedsnr" v="131960" />
		<tag k="waterway" v="stream" />
	</node>
	<node id="-368031" lat="61.5702666691" lon="9.05297499073">
		<tag k="name" v="Dyrtjørni" />
>>>>>>> e1d4bc35ff8a6074a6f2e91616a996b547c36f15
		<tag k="natural" v="water" />
		<tag k="ssr:stedsnr" v="556809" />
		<tag k="water" v="lake" />
	</node>
<<<<<<< HEAD
	<node lat="61.54107499576189" lon="9.01293332841098" id="-23556">
		<tag k="name" v="Tynna" />
		<tag k="natural" v="water" />
		<tag k="ssr:stedsnr" v="556856" />
	</node>
	<node lat="61.5575222178525" lon="8.696038886761936" id="-23558">
		<tag k="name" v="Blåtjønnodden" />
		<tag k="natural" v="cape" />
		<tag k="ssr:stedsnr" v="556904" />
	</node>
	<node lat="61.763525000977886" lon="8.982041667148172" id="-23571">
		<tag k="name" v="Heillern" />
		<tag k="natural" v="cape" />
		<tag k="ssr:stedsnr" v="585305" />
	</node>
	<node lat="61.869166668199796" lon="9.080377774131295" id="-23574">
		<tag k="name" v="Vanglandet" />
		<tag k="natural" v="beach" />
		<tag k="ssr:stedsnr" v="586207" />
	</node>
	<node lat="61.97076056437746" lon="9.020731343848125" id="-23577">
		<tag k="name" v="Hærabrekktjønne" />
=======
	<node id="-368029" lat="61.5774916697" lon="8.94674167436">
		<tag k="name" v="Nedre Birisjøtjønne" />
		<tag k="natural" v="water" />
		<tag k="ssr:stedsnr" v="131858" />
	</node>
	<node id="-368024" lat="61.7263888863" lon="9.13726389375">
		<tag k="name" v="Rinda" />
		<tag k="ssr:stedsnr" v="131834" />
		<tag k="waterway" v="river" />
	</node>
	<node id="-368023" lat="61.634449999" lon="8.98503054968">
		<tag k="name" v="Skobekken" />
		<tag k="ssr:stedsnr" v="131799" />
		<tag k="waterway" v="stream" />
	</node>
	<node id="-368020" lat="61.6521805518" lon="8.89412778472">
		<tag k="name" v="Nilsebekken" />
		<tag k="ssr:stedsnr" v="131788" />
		<tag k="waterway" v="stream" />
	</node>
	<node id="-368018" lat="61.6536805513" lon="9.02823611649">
		<tag k="alt_name" v="Veoøya" />
		<tag k="name" v="Veoøyi" />
		<tag k="place" v="islet" />
		<tag k="ssr:stedsnr" v="131785" />
	</node>
	<node id="-368016" lat="61.8099416671" lon="9.34068055126">
		<tag k="name" v="Flåtåtjønne" />
>>>>>>> e1d4bc35ff8a6074a6f2e91616a996b547c36f15
		<tag k="natural" v="water" />
		<tag k="ssr:stedsnr" v="586500" />
	</node>
<<<<<<< HEAD
	<node lat="61.799066669735524" lon="9.172200005680699" id="-23592">
		<tag k="name" v="Sandånebben" />
		<tag k="natural" v="cape" />
		<tag k="ssr:stedsnr" v="595553" />
	</node>
	<node lat="61.77071388979274" lon="8.987263883378693" id="-23595">
		<tag k="alt_name" v="Sliungsbekken" />
		<tag k="name" v="Silungsbekken" />
		<tag k="ssr:stedsnr" v="616405" />
		<tag k="waterway" v="stream" />
	</node>
	<node lat="61.8069555512663" lon="9.081313884246983" id="-23596">
		<tag k="name" v="Surtningen" />
		<tag k="natural" v="water" />
		<tag k="ssr:stedsnr" v="616452" />
	</node>
	<node lat="61.56585555404023" lon="9.18338611509281" id="-23597">
		<tag k="name" v="Holbekken" />
		<tag k="ssr:stedsnr" v="616847" />
		<tag k="waterway" v="stream" />
	</node>
	<node lat="61.85151388968754" lon="9.214408342436876" id="-23603">
		<tag k="name" v="Langløken" />
		<tag k="natural" v="bay" />
		<tag k="ssr:stedsnr" v="617303" />
	</node>
	<node lat="61.90481666808502" lon="9.050130553667913" id="-23605">
		<tag k="name" v="Svarebekken" />
		<tag k="ssr:stedsnr" v="617402" />
		<tag k="waterway" v="stream" />
	</node>
	<node lat="61.89143333001195" lon="8.990638896800887" id="-23607">
		<tag k="alt_name" v="Tverråi, nordre;Nørdre Tverråe" />
		<tag k="name" v="Nørdre Tverråi" />
		<tag k="ssr:stedsnr" v="617387" />
		<tag k="waterway" v="stream" />
	</node>
	<node lat="61.904433331669324" lon="9.108161117217245" id="-23611">
		<tag k="name" v="Nugga" />
		<tag k="ssr:stedsnr" v="617399" />
		<tag k="waterway" v="river" />
	</node>
	<node lat="61.61824999795293" lon="8.974366669182466" id="-23612">
		<tag k="name" v="Stuttgongfossen" />
=======
	<node id="-368010" lat="61.8137555546" lon="9.02611110556">
		<tag k="name" v="Skytningen" />
		<tag k="natural" v="water" />
		<tag k="ssr:stedsnr" v="131458" />
	</node>
	<node id="-368008" lat="61.8190000026" lon="9.09831388906">
		<tag k="alt_name" v="Stavåe" />
		<tag k="name" v="Stavåi" />
		<tag k="ssr:stedsnr" v="131448" />
		<tag k="waterway" v="stream" />
	</node>
	<node id="-368006" lat="61.8063904136" lon="9.02597770316">
		<tag k="name" v="Veslvatnet" />
		<tag k="natural" v="water" />
		<tag k="ssr:stedsnr" v="131439" />
		<tag k="water" v="lake" />
	</node>
	<node id="-367994" lat="61.4702666627" lon="8.75681389561">
		<tag k="name" v="Leirungsåe" />
		<tag k="ssr:stedsnr" v="129768" />
		<tag k="waterway" v="river" />
	</node>
	<node id="-367991" lat="61.4954194409" lon="8.80652500634">
		<tag k="name" v="Gjendeosen" />
		<tag k="natural" v="bay" />
		<tag k="ssr:stedsnr" v="114633" />
	</node>
	<node id="-367984" lat="61.7916166655" lon="9.19726110234">
		<tag k="name" v="Mela" />
		<tag k="ssr:stedsnr" v="110587" />
		<tag k="waterway" v="stream" />
	</node>
	<node id="-367981" lat="61.8055222267" lon="9.3635333353">
		<tag k="name" v="Skartjønne" />
		<tag k="natural" v="water" />
		<tag k="ssr:stedsnr" v="110554" />
	</node>
	<node id="-367970" lat="61.8727722258" lon="9.18554443736">
		<tag k="name" v="Grønhølen" />
		<tag k="place" v="locality" />
		<tag k="ssr:stedsnr" v="102827" />
	</node>
	<node id="-367968" lat="61.7894277759" lon="9.04019999156">
		<tag k="name" v="Vesløye" />
		<tag k="place" v="islet" />
		<tag k="ssr:stedsnr" v="102442" />
	</node>
	<node id="-367967" lat="61.7363583301" lon="8.94861389363">
		<tag k="name" v="Flådammen" />
		<tag k="ssr:stedsnr" v="102344" />
		<tag k="waterway" v="dam" />
	</node>
	<node id="-367962" lat="61.8133500028" lon="9.11055277142">
		<tag k="name" v="Røta" />
		<tag k="ssr:stedsnr" v="102218" />
		<tag k="waterway" v="stream" />
	</node>
	<node id="-367960" lat="61.8108694445" lon="9.02823056099">
		<tag k="name" v="Skytningsbekken" />
		<tag k="ssr:stedsnr" v="102200" />
		<tag k="waterway" v="stream" />
	</node>
	<node id="-367959" lat="61.8171583326" lon="9.039822226">
		<tag k="name" v="Jårtrutjønne" />
		<tag k="natural" v="water" />
		<tag k="ssr:stedsnr" v="102197" />
	</node>
	<node id="-367953" lat="61.9836944483" lon="8.97943056316">
		<tag k="name" v="Høgfoss" />
>>>>>>> e1d4bc35ff8a6074a6f2e91616a996b547c36f15
		<tag k="natural" v="waterfall" />
		<tag k="ssr:stedsnr" v="617804" />
	</node>
<<<<<<< HEAD
	<node lat="61.620730555071184" lon="9.002900001195155" id="-23616">
		<tag k="alt_name" v="Eldbuhølene" />
		<tag k="name" v="Eldbuhølan" />
		<tag k="place" v="locality" />
		<tag k="ssr:stedsnr" v="617792" />
	</node>
	<node lat="61.86720555983175" lon="9.23254722806429" id="-23624">
		<tag k="name" v="Vesl-Holungen" />
		<tag k="ssr:stedsnr" v="645790" />
		<tag k="waterway" v="stream" />
	</node>
	<node lat="61.87506666317794" lon="8.920544442636254" id="-23630">
		<tag k="name" v="Kvitfossen" />
		<tag k="natural" v="waterfall" />
		<tag k="ssr:stedsnr" v="647097" />
	</node>
	<node lat="61.83900277342521" lon="9.039011110115055" id="-23655">
		<tag k="name" v="Gorotjønne" />
=======
	<node id="-367947" lat="61.7594333306" lon="8.98612777561">
		<tag k="name" v="Veslsanden" />
		<tag k="natural" v="beach" />
		<tag k="ssr:stedsnr" v="100331" />
	</node>
	<node id="-367939" lat="62.0070527761" lon="8.95848055523">
		<tag k="name" v="Krokåi" />
		<tag k="ssr:stedsnr" v="72491" />
		<tag k="waterway" v="stream" />
	</node>
	<node id="-367937" lat="61.9541138873" lon="9.03231111156">
		<tag k="name" v="Porten" />
		<tag k="natural" v="water" />
		<tag k="ssr:stedsnr" v="72179" />
	</node>
	<node id="-367931" lat="61.5443777798" lon="9.1026861145">
		<tag k="name" v="Loni" />
>>>>>>> e1d4bc35ff8a6074a6f2e91616a996b547c36f15
		<tag k="natural" v="water" />
		<tag k="ssr:stedsnr" v="708165" />
	</node>
<<<<<<< HEAD
	<node lat="61.488927780411885" lon="8.819522224160343" id="-23669">
		<tag k="name" v="Veslehølen" />
		<tag k="place" v="locality" />
		<tag k="ssr:stedsnr" v="659607" />
	</node>
	<node lat="61.906791664107196" lon="8.978613888860057" id="-23671">
		<tag k="name" v="Liasæterbekken" />
		<tag k="ssr:stedsnr" v="660390" />
		<tag k="waterway" v="stream" />
	</node>
	<node lat="61.828116662579504" lon="8.962905556953547" id="-23672">
		<tag k="name" v="Inntaksdam Midtre Tesse" />
		<tag k="ssr:stedsnr" v="660499" />
		<tag k="waterway" v="dam" />
	</node>
	<node lat="61.83629722305031" lon="9.024908342308374" id="-23679">
		<tag k="name" v="Fiskevatnet" />
=======
	<node id="-367930" lat="61.5498166666" lon="8.96796945011">
		<tag k="name" v="Hestrebekken" />
		<tag k="ssr:stedsnr" v="71855" />
		<tag k="waterway" v="stream" />
	</node>
	<node id="-367927" lat="61.5247888852" lon="8.73884722959">
		<tag k="name" v="Grotåe" />
		<tag k="ssr:stedsnr" v="71948" />
		<tag k="waterway" v="stream" />
	</node>
	<node id="-367920" lat="61.66616111" lon="9.01933333042">
		<tag k="alt_name" v="Grotåa" />
		<tag k="name" v="Grjotåi" />
		<tag k="ssr:stedsnr" v="71769" />
		<tag k="waterway" v="stream" />
	</node>
	<node id="-367912" lat="61.7573149055" lon="9.120940794">
		<tag k="alt_name" v="Slomtjørni" />
		<tag k="name" v="Slombtjønne" />
>>>>>>> e1d4bc35ff8a6074a6f2e91616a996b547c36f15
		<tag k="natural" v="water" />
		<tag k="ssr:stedsnr" v="891157" />
	</node>
<<<<<<< HEAD
	<node lat="61.84321389023721" lon="9.019486119056864" id="-23680">
		<tag k="name" v="Rognstultjønne" />
=======
	<node id="-367911" lat="61.7553964714" lon="9.10261981792">
		<tag k="alt_name" v="Dyrtjønne" />
		<tag k="name" v="Dyrtjørni" />
>>>>>>> e1d4bc35ff8a6074a6f2e91616a996b547c36f15
		<tag k="natural" v="water" />
		<tag k="ssr:stedsnr" v="891159" />
	</node>
<<<<<<< HEAD
	<node lat="61.80765833751369" lon="9.08991666228505" id="-23683">
		<tag k="name" v="Grytosen" />
		<tag k="ssr:stedsnr" v="891211" />
		<tag k="waterway" v="stream" />
	</node>
	<node lat="61.477397220733785" lon="8.623702776011559" id="-23688">
		<tag k="name" v="Tjønnholodden" />
		<tag k="natural" v="cape" />
		<tag k="ssr:stedsnr" v="675797" />
	</node>
	<node lat="61.79727014932534" lon="9.174855848666775" id="-23692">
		<tag k="name" v="Melingen" />
		<tag k="natural" v="water" />
		<tag k="ssr:stedsnr" v="677431" />
		<tag k="water" v="lake" />
	</node>
	<node lat="61.816324995663564" lon="9.08401389130315" id="-23693">
		<tag k="name" v="Frøyna" />
		<tag k="ssr:stedsnr" v="677434" />
		<tag k="waterway" v="stream" />
	</node>
	<node lat="61.578313890506806" lon="8.929711104897303" id="-23696">
		<tag k="name" v="Russhølen" />
		<tag k="place" v="locality" />
		<tag k="ssr:stedsnr" v="677824" />
	</node>
	<node lat="61.57702500050515" lon="8.901736113830388" id="-23697">
		<tag k="name" v="Søre Tverråe" />
		<tag k="ssr:stedsnr" v="677827" />
		<tag k="waterway" v="river" />
	</node>
	<node lat="61.54714166292498" lon="8.974236117161443" id="-23716">
		<tag k="alt_name" v="Hestretjern" />
		<tag k="name" v="Hestretjørni" />
		<tag k="natural" v="water" />
		<tag k="ssr:stedsnr" v="678827" />
	</node>
	<node lat="61.84041388804334" lon="9.30825555875493" id="-23718">
		<tag k="name" v="Hansbergtjønne" />
=======
	<node id="-367894" lat="61.719208331" lon="9.00873334189">
		<tag k="alt_name" v="Tjønnbekken" />
		<tag k="name" v="Tjørnbekken" />
		<tag k="ssr:stedsnr" v="70984" />
		<tag k="waterway" v="stream" />
	</node>
	<node id="-367891" lat="61.6174472263" lon="8.79416388534">
		<tag k="name" v="Hindtjønnin" />
		<tag k="natural" v="water" />
		<tag k="ssr:stedsnr" v="70885" />
		<tag k="water" v="lake" />
	</node>
	<node id="-367890" lat="61.5157277823" lon="8.88262499905">
		<tag k="name" v="Hoska" />
		<tag k="ssr:stedsnr" v="70843" />
		<tag k="waterway" v="stream" />
	</node>
	<node id="-367889" lat="61.8230333341" lon="8.93722500161">
		<tag k="alt_name" v="Tesskrokein" />
		<tag k="name" v="Tesskrokan" />
		<tag k="place" v="locality" />
		<tag k="ssr:stedsnr" v="70473" />
	</node>
	<node id="-367888" lat="61.4971891083" lon="8.76388655568">
		<tag k="name" v="Hamnhåmåren" />
		<tag k="natural" v="cape" />
		<tag k="ssr:stedsnr" v="69793" />
	</node>
	<node id="-367887" lat="61.4726333303" lon="8.62734722113">
		<tag k="name" v="Tjønnholåe" />
		<tag k="ssr:stedsnr" v="69787" />
		<tag k="waterway" v="stream" />
	</node>
	<node id="-367886" lat="61.4760805527" lon="8.66467500645">
		<tag k="name" v="Svarva" />
		<tag k="ssr:stedsnr" v="69781" />
		<tag k="waterway" v="stream" />
	</node>
	<node id="-367885" lat="61.4526277772" lon="8.8420500041">
		<tag k="name" v="Brurskardstjønne" />
>>>>>>> e1d4bc35ff8a6074a6f2e91616a996b547c36f15
		<tag k="natural" v="water" />
		<tag k="ssr:stedsnr" v="678790" />
	</node>
<<<<<<< HEAD
	<node lat="61.845691666787914" lon="9.231183327212428" id="-23720">
		<tag k="name" v="Storøye" />
		<tag k="place" v="islet" />
		<tag k="ssr:stedsnr" v="678929" />
	</node>
	<node lat="61.84488888727051" lon="8.892030555970361" id="-23725">
		<tag k="name" v="Trolldalsbekken" />
		<tag k="ssr:stedsnr" v="696325" />
		<tag k="waterway" v="stream" />
	</node>
	<node lat="61.95698055248653" lon="9.006949994123636" id="-23733">
		<tag k="name" v="Dalbekken" />
		<tag k="ssr:stedsnr" v="708024" />
		<tag k="waterway" v="stream" />
	</node>
	<node lat="61.80454722133641" lon="9.301772218574026" id="-23744">
		<tag k="name" v="Eidefossen" />
		<tag k="natural" v="waterfall" />
		<tag k="ssr:stedsnr" v="716686" />
	</node>
	<node lat="61.8083416667703" lon="9.284227777668095" id="-23751">
		<tag k="name" v="Kleivøya" />
		<tag k="place" v="island" />
		<tag k="ssr:stedsnr" v="899682" />
	</node>
	<node lat="61.44460555424052" lon="9.077927773397178" id="-23752">
		<tag k="name" v="Munkerova" />
		<tag k="ssr:stedsnr" v="736004" />
		<tag k="waterway" v="stream" />
	</node>
	<node lat="61.78008610899745" lon="8.985991658672646" id="-23758">
		<tag k="alt_name" v="Turrhaugtjern" />
		<tag k="name" v="Turrhaugtjørni" />
=======
	<node id="-367881" lat="61.5167027811" lon="8.86206665896">
		<tag k="name" v="Bessneset" />
		<tag k="natural" v="cape" />
		<tag k="ssr:stedsnr" v="53599" />
	</node>
	<node id="-367879" lat="61.8014694422" lon="9.16329166272">
		<tag k="name" v="Rustbekken" />
		<tag k="ssr:stedsnr" v="49569" />
		<tag k="waterway" v="stream" />
	</node>
	<node id="-367871" lat="61.7749833305" lon="9.04508611306">
		<tag k="name" v="Valdesæterbekken" />
		<tag k="ssr:stedsnr" v="41386" />
		<tag k="waterway" v="stream" />
	</node>
	<node id="-367842" lat="61.5062555593" lon="8.85327500752">
		<tag k="name" v="Tangen" />
		<tag k="natural" v="cape" />
		<tag k="ssr:stedsnr" v="10879" />
	</node>
	<node id="-367839" lat="61.5366027743" lon="8.94682500451">
		<tag k="alt_name" v="Seterbekken" />
		<tag k="name" v="Sæterbekken" />
		<tag k="ssr:stedsnr" v="10857" />
		<tag k="waterway" v="stream" />
	</node>
	<node id="-367838" lat="61.8205972201" lon="9.32988610905">
		<tag k="name" v="Styggemannstjønnin" />
>>>>>>> e1d4bc35ff8a6074a6f2e91616a996b547c36f15
		<tag k="natural" v="water" />
		<tag k="ssr:stedsnr" v="738410" />
	</node>
<<<<<<< HEAD
	<node lat="61.61732222179781" lon="8.927402768744269" id="-23763">
		<tag k="name" v="Turr-Hinde" />
		<tag k="ssr:stedsnr" v="738816" />
		<tag k="waterway" v="stream" />
	</node>
	<node lat="61.558183332412625" lon="9.057977772793652" id="-23767">
		<tag k="name" v="Dyrtjørnbekken" />
		<tag k="ssr:stedsnr" v="738850" />
		<tag k="waterway" v="stream" />
	</node>
	<node lat="61.546374998789766" lon="8.941847214460756" id="-23770">
		<tag k="name" v="Pulløye" />
		<tag k="place" v="islet" />
		<tag k="ssr:stedsnr" v="738864" />
	</node>
	<node lat="61.54408888966391" lon="8.926155562992117" id="-23771">
		<tag k="name" v="Gammelosen" />
		<tag k="natural" v="bay" />
		<tag k="ssr:stedsnr" v="738867" />
	</node>
	<node lat="61.833480558404084" lon="9.305727775628817" id="-23772">
		<tag k="name" v="Tolstadbekken" />
		<tag k="ssr:stedsnr" v="738798" />
		<tag k="waterway" v="stream" />
	</node>
	<node lat="61.987441669322614" lon="8.891236113324299" id="-23779">
		<tag k="name" v="Gravdalsåi" />
		<tag k="ssr:stedsnr" v="739148" />
		<tag k="waterway" v="stream" />
	</node>
	<node lat="61.89964722032445" lon="9.067897213875176" id="-23780">
		<tag k="alt_name" v="Lauvåe" />
		<tag k="name" v="Lauvåi" />
		<tag k="ssr:stedsnr" v="739360" />
		<tag k="waterway" v="stream" />
	</node>
	<node lat="61.91327161535337" lon="8.988940853258434" id="-23782">
		<tag k="alt_name" v="Raubekken" />
		<tag k="name" v="Raudbekken" />
		<tag k="ssr:stedsnr" v="904369" />
		<tag k="waterway" v="stream" />
	</node>
	<node lat="61.82077222551968" lon="9.329919438607336" id="-23785">
		<tag k="name" v="Styggemannstjønne" />
=======
	<node id="-367835" lat="61.7072249975" lon="8.99167500721">
		<tag k="name" v="Jonsdalsbekken" />
		<tag k="ssr:stedsnr" v="10995" />
		<tag k="waterway" v="stream" />
	</node>
	<node id="-367832" lat="61.827263891" lon="8.92238888419">
		<tag k="alt_name" v="Slåttjørni" />
		<tag k="name" v="Søre Svarttjønne" />
		<tag k="natural" v="water" />
		<tag k="ssr:stedsnr" v="10472" />
	</node>
	<node id="-367830" lat="61.9070371068" lon="9.15297494542">
		<tag k="alt_name" v="Jettjønne" />
		<tag k="name" v="Jettjørni" />
		<tag k="natural" v="water" />
		<tag k="ssr:stedsnr" v="10352" />
	</node>
	<node id="-367824" lat="61.8494916626" lon="9.15861666436">
		<tag k="alt_name" v="Åe" />
		<tag k="name" v="Åi" />
		<tag k="ssr:stedsnr" v="10258" />
		<tag k="waterway" v="river" />
	</node>
	<node id="-367822" lat="61.9223861089" lon="9.00009443829">
		<tag k="name" v="Spjota" />
		<tag k="ssr:stedsnr" v="10166" />
		<tag k="waterway" v="stream" />
	</node>
	<node id="-367817" lat="61.3889999987" lon="9.04419444422">
		<tag k="name" v="Døradalsvatne" />
		<tag k="natural" v="water" />
		<tag k="ssr:stedsnr" v="7030" />
		<tag k="water" v="lake" />
	</node>
	<node id="-367794" lat="61.7394111069" lon="8.98218333872">
		<tag k="name" v="Kalvenebben" />
		<tag k="natural" v="cape" />
		<tag k="ssr:stedsnr" v="951277" />
	</node>
	<node id="-367783" lat="61.7707138891" lon="8.96928055221">
		<tag k="name" v="Veslkastet" />
		<tag k="natural" v="cape" />
		<tag k="ssr:stedsnr" v="949314" />
	</node>
	<node id="-367778" lat="61.8107111142" lon="9.18756388033">
		<tag k="alt_name" v="Nesetjønne" />
		<tag k="name" v="Nesetjørni" />
>>>>>>> e1d4bc35ff8a6074a6f2e91616a996b547c36f15
		<tag k="natural" v="water" />
		<tag k="ssr:stedsnr" v="764543" />
	</node>
<<<<<<< HEAD
	<node lat="61.87236389053359" lon="9.140013883636787" id="-23788">
		<tag k="name" v="Tonge" />
		<tag k="natural" v="cape" />
		<tag k="ssr:stedsnr" v="767941" />
	</node>
	<node lat="61.8644138893688" lon="8.923113889731884" id="-23792">
		<tag k="name" v="Nebbnesbekken" />
		<tag k="ssr:stedsnr" v="769062" />
		<tag k="waterway" v="stream" />
	</node>
	<node lat="61.84354722647875" lon="9.252005561643763" id="-23798">
		<tag k="name" v="Snerlefetten" />
		<tag k="place" v="islet" />
		<tag k="ssr:stedsnr" v="777518" />
	</node>
	<node lat="61.854597218823066" lon="9.145286118433216" id="-23810">
		<tag k="name" v="Sjårdalsbekken" />
		<tag k="ssr:stedsnr" v="799312" />
		<tag k="waterway" v="stream" />
	</node>
	<node lat="61.773147224818196" lon="9.086816658569607" id="-23816">
		<tag k="name" v="Galteneset" />
		<tag k="natural" v="cape" />
		<tag k="ssr:stedsnr" v="799407" />
	</node>
	<node lat="61.813774997216555" lon="8.989883332764329" id="-23817">
		<tag k="alt_name" v="Grove" />
		<tag k="name" v="Grovi" />
		<tag k="ssr:stedsnr" v="799487" />
		<tag k="waterway" v="river" />
	</node>
	<node lat="61.810697220206215" lon="9.001913894060161" id="-23818">
		<tag k="alt_name" v="Gårrklopptjønne" />
		<tag k="name" v="Gorrklopptjørni" />
=======
	<node id="-367777" lat="61.7968638865" lon="9.11134722159">
		<tag k="alt_name" v="Tuvvikje" />
		<tag k="name" v="Tuvviki" />
		<tag k="natural" v="bay" />
		<tag k="ssr:stedsnr" v="920427" />
	</node>
	<node id="-367776" lat="61.7967833312" lon="9.08418888501">
		<tag k="alt_name" v="Tuvstultjønne" />
		<tag k="name" v="Tuvstultjørni" />
>>>>>>> e1d4bc35ff8a6074a6f2e91616a996b547c36f15
		<tag k="natural" v="water" />
		<tag k="ssr:stedsnr" v="799488" />
	</node>
<<<<<<< HEAD
	<node lat="61.51296111067807" lon="8.59938889553472" id="-23822">
		<tag k="name" v="Glopåe" />
		<tag k="ssr:stedsnr" v="799936" />
		<tag k="waterway" v="stream" />
	</node>
	<node lat="61.52122499676211" lon="8.826111110532695" id="-23823">
		<tag k="name" v="Bessa" />
		<tag k="ssr:stedsnr" v="799938" />
		<tag k="waterway" v="river" />
	</node>
	<node lat="61.53045277779799" lon="8.82239999879186" id="-23824">
		<tag k="name" v="Besstjønnin" />
=======
	<node id="-367774" lat="61.8000484209" lon="9.11838471037">
		<tag k="name" v="Flatningen" />
>>>>>>> e1d4bc35ff8a6074a6f2e91616a996b547c36f15
		<tag k="natural" v="water" />
		<tag k="ssr:stedsnr" v="799939" />
		<tag k="water" v="lake" />
	</node>
<<<<<<< HEAD
	<node lat="61.6851750005312" lon="9.12739999303469" id="-23826">
		<tag k="name" v="Estenhølen" />
		<tag k="place" v="locality" />
		<tag k="ssr:stedsnr" v="799994" />
	</node>
	<node lat="61.80722500346717" lon="9.367630559085768" id="-23831">
		<tag k="name" v="Bergetjønne" />
=======
	<node id="-367771" lat="61.4799878071" lon="8.72779952773">
		<tag k="alt_name" v="Leirungen, øvre" />
		<tag k="name" v="Øvre Leirungen" />
>>>>>>> e1d4bc35ff8a6074a6f2e91616a996b547c36f15
		<tag k="natural" v="water" />
		<tag k="ssr:stedsnr" v="799902" />
	</node>
	<node lat="61.87164999978724" lon="9.163258336795202" id="-23832">
		<tag k="name" v="Kråksand" />
		<tag k="place" v="islet" />
		<tag k="ssr:stedsnr" v="800322" />
	</node>
	<node lat="62.01830000077349" lon="8.976005555138409" id="-23833">
		<tag k="name" v="Svarthåmårtjønne" />
		<tag k="natural" v="water" />
		<tag k="ssr:stedsnr" v="800525" />
	</node>
<<<<<<< HEAD
	<node lat="61.453216664818406" lon="8.991761115877361" id="-23834">
=======
	<node id="-367770" lat="61.4532166648" lon="8.99176111588">
>>>>>>> e1d4bc35ff8a6074a6f2e91616a996b547c36f15
		<tag k="loc_name" v="Neveråe" />
		<tag k="name" v="Neveråi" />
		<tag k="ssr:stedsnr" v="918271" />
		<tag k="waterway" v="stream" />
	</node>
<<<<<<< HEAD
	<node lat="61.81422500024743" lon="9.044594451247741" id="-23839">
		<tag k="alt_name" v="Skåltjønne" />
		<tag k="name" v="Skåltjørni" />
		<tag k="natural" v="water" />
		<tag k="ssr:stedsnr" v="920460" />
	</node>
	<node lat="61.47998780712007" lon="8.727799527728687" id="-23840">
		<tag k="alt_name" v="Leirungen, øvre" />
		<tag k="name" v="Øvre Leirungen" />
		<tag k="natural" v="water" />
		<tag k="ssr:stedsnr" v="918817" />
		<tag k="water" v="lake" />
	</node>
	<node lat="61.57655000081937" lon="8.728486109606324" id="-23844">
		<tag k="name" v="Tjønnholåe" />
		<tag k="ssr:stedsnr" v="920924" />
		<tag k="waterway" v="river" />
	</node>
	<node lat="61.79678333122597" lon="9.084188885014354" id="-23848">
		<tag k="alt_name" v="Tuvstultjønne" />
		<tag k="name" v="Tuvstultjørni" />
		<tag k="natural" v="water" />
		<tag k="ssr:stedsnr" v="920425" />
	</node>
	<node lat="61.79686388645614" lon="9.111347221588984" id="-23851">
		<tag k="alt_name" v="Tuvvikje" />
		<tag k="name" v="Tuvviki" />
		<tag k="natural" v="bay" />
		<tag k="ssr:stedsnr" v="920427" />
	</node>
	<node lat="61.81071111417616" lon="9.187563880329668" id="-23852">
		<tag k="alt_name" v="Nesetjønne" />
		<tag k="name" v="Nesetjørni" />
		<tag k="natural" v="water" />
		<tag k="ssr:stedsnr" v="920432" />
	</node>
	<node lat="61.55139444252952" lon="8.878183342628553" id="-23854">
		<tag k="name" v="Besstrondtjønnin" />
		<tag k="natural" v="water" />
		<tag k="ssr:stedsnr" v="920850" />
		<tag k="water" v="lake" />
	</node>
	<node lat="61.55276666573513" lon="8.967069441955442" id="-23855">
		<tag k="name" v="Vesltjønne" />
		<tag k="natural" v="water" />
		<tag k="ssr:stedsnr" v="920852" />
	</node>
	<node lat="61.536108329431634" lon="8.970033331662343" id="-23858">
		<tag k="name" v="Sleobekken" />
		<tag k="ssr:stedsnr" v="920871" />
		<tag k="waterway" v="stream" />
	</node>
	<node lat="61.82237221954306" lon="9.398183326445283" id="-23860">
		<tag k="name" v="Haugtjønne" />
		<tag k="natural" v="water" />
		<tag k="ssr:stedsnr" v="920762" />
	</node>
	<node lat="61.74736944151252" lon="9.09160834039527" id="-23865">
=======
	<node id="-367769" lat="61.4135277802" lon="9.05140000869">
		<tag k="name" v="Skjedøla" />
		<tag k="ssr:stedsnr" v="918013" />
		<tag k="waterway" v="river" />
	</node>
	<node id="-367768" lat="61.4419861073" lon="8.94037221503">
		<tag k="name" v="Krossnesåe" />
		<tag k="ssr:stedsnr" v="918004" />
		<tag k="waterway" v="stream" />
	</node>
	<node id="-367767" lat="61.9132716154" lon="8.98894085326">
		<tag k="alt_name" v="Raubekken" />
>>>>>>> e1d4bc35ff8a6074a6f2e91616a996b547c36f15
		<tag k="name" v="Raudbekken" />
		<tag k="ssr:stedsnr" v="920956" />
		<tag k="waterway" v="stream" />
	</node>
<<<<<<< HEAD
	<node lat="61.91976944327385" lon="8.921544449260773" id="-23869">
		<tag k="alt_name" v="Grønlibekken, s" />
		<tag k="name" v="Søre Grønlibekken" />
		<tag k="ssr:stedsnr" v="921144" />
		<tag k="waterway" v="stream" />
	</node>
	<node lat="61.871702778634166" lon="9.156186105074454" id="-23870">
		<tag k="alt_name" v="Søremsøye" />
		<tag k="name" v="Søremsøyi" />
=======
	<node id="-367765" lat="61.8076583375" lon="9.08991666229">
		<tag k="name" v="Grytosen" />
		<tag k="ssr:stedsnr" v="891211" />
		<tag k="waterway" v="stream" />
	</node>
	<node id="-367758" lat="61.8716111077" lon="9.12661666958">
		<tag k="name" v="Storøye" />
>>>>>>> e1d4bc35ff8a6074a6f2e91616a996b547c36f15
		<tag k="place" v="islet" />
		<tag k="ssr:stedsnr" v="921346" />
	</node>
<<<<<<< HEAD
	<node lat="61.804711107142886" lon="9.026358340551724" id="-23882">
		<tag k="name" v="Storvikje" />
		<tag k="natural" v="bay" />
		<tag k="ssr:stedsnr" v="830166" />
	</node>
	<node lat="61.43250833637601" lon="8.99551666421433" id="-23887">
		<tag k="alt_name" v="Heimdalsvatnet, nedre" />
		<tag k="name" v="Nedre Heimdalsvatnet" />
		<tag k="natural" v="water" />
		<tag k="ssr:stedsnr" v="841213" />
		<tag k="water" v="lake" />
	</node>
	<node lat="61.60063888698771" lon="8.704849993176357" id="-23893">
		<tag k="name" v="Tjønnholtjønne" />
		<tag k="natural" v="water" />
		<tag k="ssr:stedsnr" v="859907" />
	</node>
	<node lat="61.557161106973716" lon="8.958652774146989" id="-23894">
		<tag k="name" v="Danntjønne" />
=======
	<node id="-367751" lat="61.8840138928" lon="9.07225278375">
		<tag k="name" v="Håkåstadbekken" />
		<tag k="ssr:stedsnr" v="949038" />
		<tag k="waterway" v="stream" />
	</node>
	<node id="-367746" lat="61.6182000018" lon="9.0256000074">
		<tag k="alt_name" v="Storsala" />
		<tag k="name" v="Stor-Sala" />
		<tag k="ssr:stedsnr" v="860810" />
		<tag k="waterway" v="river" />
	</node>
	<node id="-367745" lat="61.6227722239" lon="8.92891666176">
		<tag k="name" v="Stor-Hinde" />
		<tag k="ssr:stedsnr" v="860809" />
		<tag k="waterway" v="river" />
	</node>
	<node id="-367742" lat="61.8882222187" lon="8.88154443901">
		<tag k="name" v="Diprtjørni" />
>>>>>>> e1d4bc35ff8a6074a6f2e91616a996b547c36f15
		<tag k="natural" v="water" />
		<tag k="ssr:stedsnr" v="859808" />
	</node>
<<<<<<< HEAD
	<node lat="61.98345278158126" lon="9.015149996007866" id="-23903">
=======
	<node id="-367740" lat="61.9834527816" lon="9.01514999601">
>>>>>>> e1d4bc35ff8a6074a6f2e91616a996b547c36f15
		<tag k="alt_name" v="Tverråe" />
		<tag k="name" v="Tverråi" />
		<tag k="ssr:stedsnr" v="860208" />
		<tag k="waterway" v="stream" />
	</node>
<<<<<<< HEAD
	<node lat="61.765607046865725" lon="9.026449856362582" id="-23906">
		<tag k="alt_name" v="Hesthaugtjønne" />
		<tag k="name" v="Hesthaugtjørni" />
=======
	<node id="-367735" lat="61.557161107" lon="8.95865277415">
		<tag k="name" v="Danntjønne" />
>>>>>>> e1d4bc35ff8a6074a6f2e91616a996b547c36f15
		<tag k="natural" v="water" />
		<tag k="ssr:stedsnr" v="860478" />
	</node>
<<<<<<< HEAD
	<node lat="61.622772223920045" lon="8.92891666176046" id="-23907">
		<tag k="name" v="Stor-Hinde" />
		<tag k="ssr:stedsnr" v="860809" />
		<tag k="waterway" v="river" />
	</node>
	<node lat="61.86906944582042" lon="8.877358338812451" id="-23914">
		<tag k="name" v="Teppingje" />
=======
	<node id="-367734" lat="61.600638887" lon="8.70484999318">
		<tag k="name" v="Tjønnholtjønne" />
>>>>>>> e1d4bc35ff8a6074a6f2e91616a996b547c36f15
		<tag k="natural" v="water" />
		<tag k="ssr:stedsnr" v="889097" />
	</node>
<<<<<<< HEAD
	<node lat="61.748336114789055" lon="9.040638883646466" id="-23918">
		<tag k="name" v="Kalvtjønne" />
=======
	<node id="-367733" lat="61.4325083364" lon="8.99551666421">
		<tag k="alt_name" v="Heimdalsvatnet, nedre" />
		<tag k="name" v="Nedre Heimdalsvatnet" />
>>>>>>> e1d4bc35ff8a6074a6f2e91616a996b547c36f15
		<tag k="natural" v="water" />
		<tag k="ssr:stedsnr" v="891415" />
	</node>
<<<<<<< HEAD
	<node lat="61.83439166981231" lon="9.25930277469908" id="-23923">
		<tag k="name" v="Stadevju" />
		<tag k="natural" v="bay" />
		<tag k="ssr:stedsnr" v="899523" />
	</node>
	<node lat="61.4419861073427" lon="8.940372215032847" id="-23926">
		<tag k="name" v="Krossnesåe" />
		<tag k="ssr:stedsnr" v="918004" />
		<tag k="waterway" v="stream" />
	</node>
	<node lat="61.41352778020399" lon="9.051400008691692" id="-23927">
		<tag k="name" v="Skjedøla" />
		<tag k="ssr:stedsnr" v="918013" />
		<tag k="waterway" v="river" />
	</node>
	<node lat="61.445836108123785" lon="9.104052781784503" id="-23928">
		<tag k="name" v="Nøsterviki" />
		<tag k="natural" v="bay" />
		<tag k="ssr:stedsnr" v="918001" />
	</node>
	<node lat="61.86524721826204" lon="8.987283341053033" id="-23930">
		<tag k="name" v="Senda" />
		<tag k="ssr:stedsnr" v="920311" />
		<tag k="waterway" v="stream" />
	</node>
	<node lat="61.86505555116291" lon="8.732669439203315" id="-23931">
		<tag k="name" v="Otta" />
		<tag k="ssr:stedsnr" v="920504" />
		<tag k="waterway" v="river" />
	</node>
	<node lat="61.800048420941636" lon="9.118384710366653" id="-23937">
		<tag k="name" v="Flatningen" />
		<tag k="natural" v="water" />
		<tag k="ssr:stedsnr" v="920412" />
		<tag k="water" v="lake" />
	</node>
	<node lat="61.615675002864364" lon="9.069511119469844" id="-23939">
		<tag k="name" v="Sjugurdsjøen" />
		<tag k="natural" v="water" />
		<tag k="ssr:stedsnr" v="920793" />
		<tag k="water" v="lake" />
	</node>
	<node lat="61.56677778127083" lon="8.68079167183829" id="-23943">
=======
	<node id="-367710" lat="61.7731472248" lon="9.08681665857">
		<tag k="name" v="Galteneset" />
		<tag k="natural" v="cape" />
		<tag k="ssr:stedsnr" v="799407" />
	</node>
	<node id="-367708" lat="61.7236833297" lon="8.93986110545">
		<tag k="name" v="Larsbubekken" />
		<tag k="ssr:stedsnr" v="798973" />
		<tag k="waterway" v="stream" />
	</node>
	<node id="-367698" lat="61.8717027786" lon="9.15618610507">
		<tag k="alt_name" v="Søremsøye" />
		<tag k="name" v="Søremsøyi" />
		<tag k="place" v="islet" />
		<tag k="ssr:stedsnr" v="921346" />
	</node>
	<node id="-367696" lat="61.9197694433" lon="8.92154444926">
		<tag k="alt_name" v="Grønlibekken, s" />
		<tag k="name" v="Søre Grønlibekken" />
		<tag k="ssr:stedsnr" v="921144" />
		<tag k="waterway" v="stream" />
	</node>
	<node id="-367693" lat="61.7473694415" lon="9.0916083404">
		<tag k="name" v="Raudbekken" />
		<tag k="ssr:stedsnr" v="920956" />
		<tag k="waterway" v="stream" />
	</node>
	<node id="-367689" lat="61.5765500008" lon="8.72848610961">
		<tag k="name" v="Tjønnholåe" />
		<tag k="ssr:stedsnr" v="920924" />
		<tag k="waterway" v="river" />
	</node>
	<node id="-367688" lat="61.5667777813" lon="8.68079167184">
>>>>>>> e1d4bc35ff8a6074a6f2e91616a996b547c36f15
		<tag k="name" v="Blåtjønnåe" />
		<tag k="ssr:stedsnr" v="920920" />
		<tag k="waterway" v="river" />
	</node>
<<<<<<< HEAD
	<node lat="61.59019999768807" lon="8.940383328282197" id="-23944">
		<tag k="name" v="Ormhølen" />
		<tag k="place" v="locality" />
		<tag k="ssr:stedsnr" v="920812" />
	</node>
	<node lat="61.506830555058116" lon="8.877022218447737" id="-23946">
=======
	<node id="-367684" lat="61.5068305551" lon="8.87702221845">
>>>>>>> e1d4bc35ff8a6074a6f2e91616a996b547c36f15
		<tag k="name" v="Hosketjønnin" />
		<tag k="natural" v="water" />
		<tag k="ssr:stedsnr" v="920886" />
		<tag k="water" v="lake" />
	</node>
<<<<<<< HEAD
	<node lat="61.87161110769137" lon="9.126616669581688" id="-23961">
		<tag k="name" v="Storøye" />
		<tag k="place" v="islet" />
		<tag k="ssr:stedsnr" v="949938" />
	</node>
	<node lat="61.739411106919206" lon="8.98218333871732" id="-23971">
		<tag k="name" v="Kalvenebben" />
		<tag k="natural" v="cape" />
		<tag k="ssr:stedsnr" v="951277" />
	</node>
	<node lat="61.79547778021929" lon="9.128505556747411" id="-23976">
		<tag k="name" v="Langøyddin" />
		<tag k="natural" v="cape" />
		<tag k="ssr:stedsnr" v="959510" />
	</node>
	<node lat="61.388999998726085" lon="9.04419444422121" id="-23997">
		<tag k="name" v="Døradalsvatne" />
=======
	<node id="-367681" lat="61.5361083294" lon="8.97003333166">
		<tag k="name" v="Sleobekken" />
		<tag k="ssr:stedsnr" v="920871" />
		<tag k="waterway" v="stream" />
	</node>
	<node id="-367678" lat="61.5527666657" lon="8.96706944196">
		<tag k="name" v="Vesltjønne" />
>>>>>>> e1d4bc35ff8a6074a6f2e91616a996b547c36f15
		<tag k="natural" v="water" />
		<tag k="ssr:stedsnr" v="7030" />
		<tag k="water" v="lake" />
	</node>
<<<<<<< HEAD
	<node lat="61.8494916625838" lon="9.158616664359164" id="-23998">
		<tag k="alt_name" v="Åe" />
		<tag k="name" v="Åi" />
		<tag k="ssr:stedsnr" v="10258" />
		<tag k="waterway" v="river" />
	</node>
	<node lat="61.92238610887238" lon="9.000094438292992" id="-24005">
		<tag k="name" v="Spjota" />
		<tag k="ssr:stedsnr" v="10166" />
		<tag k="waterway" v="stream" />
	</node>
	<node lat="61.76845555331139" lon="9.040794441082717" id="-24006">
		<tag k="alt_name" v="Hesthaugtjønnbekken" />
		<tag k="name" v="Hesthaugtjørnbekken" />
		<tag k="ssr:stedsnr" v="10405" />
		<tag k="waterway" v="stream" />
	</node>
	<node lat="61.82726389103458" lon="8.922388884189715" id="-24010">
		<tag k="alt_name" v="Slåttjørni" />
		<tag k="name" v="Søre Svarttjønne" />
		<tag k="natural" v="water" />
		<tag k="ssr:stedsnr" v="10472" />
	</node>
	<node lat="61.536602774259286" lon="8.946825004514126" id="-24016">
		<tag k="alt_name" v="Seterbekken" />
		<tag k="name" v="Sæterbekken" />
		<tag k="ssr:stedsnr" v="10857" />
		<tag k="waterway" v="stream" />
	</node>
	<node lat="61.503649999370104" lon="8.673116664249644" id="-24022">
		<tag k="name" v="Bjørnbøltjønne" />
=======
	<node id="-367677" lat="61.5513944425" lon="8.87818334263">
		<tag k="name" v="Besstrondtjønnin" />
		<tag k="natural" v="water" />
		<tag k="ssr:stedsnr" v="920850" />
		<tag k="water" v="lake" />
	</node>
	<node id="-367675" lat="61.5901999977" lon="8.94038332828">
		<tag k="name" v="Ormhølen" />
		<tag k="place" v="locality" />
		<tag k="ssr:stedsnr" v="920812" />
	</node>
	<node id="-367673" lat="61.6156750029" lon="9.06951111947">
		<tag k="name" v="Sjugurdsjøen" />
>>>>>>> e1d4bc35ff8a6074a6f2e91616a996b547c36f15
		<tag k="natural" v="water" />
		<tag k="ssr:stedsnr" v="10924" />
	</node>
<<<<<<< HEAD
	<node lat="61.95231268831642" lon="9.05431167164732" id="-24023">
		<tag k="alt_name" v="Buvatnet" />
		<tag k="name" v="Buavatnet" />
=======
	<node id="-367671" lat="61.8223722195" lon="9.39818332645">
		<tag k="name" v="Haugtjønne" />
>>>>>>> e1d4bc35ff8a6074a6f2e91616a996b547c36f15
		<tag k="natural" v="water" />
		<tag k="ssr:stedsnr" v="11117" />
		<tag k="water" v="lake" />
	</node>
<<<<<<< HEAD
	<node lat="61.79230555672647" lon="8.96262221509796" id="-24025">
		<tag k="alt_name" v="Langøyddin" />
		<tag k="name" v="Langodden" />
		<tag k="natural" v="cape" />
		<tag k="ssr:stedsnr" v="11236" />
	</node>
	<node lat="61.78774722469594" lon="9.179286107909633" id="-24063">
		<tag k="name" v="Svartbekken" />
		<tag k="ssr:stedsnr" v="50956" />
		<tag k="waterway" v="stream" />
	</node>
	<node lat="61.516702781064716" lon="8.86206665896179" id="-24066">
		<tag k="name" v="Bessneset" />
		<tag k="natural" v="cape" />
		<tag k="ssr:stedsnr" v="53599" />
	</node>
	<node lat="61.93280555683812" lon="8.959825005025762" id="-24067">
		<tag k="name" v="Einstubekken" />
		<tag k="ssr:stedsnr" v="54359" />
		<tag k="waterway" v="stream" />
	</node>
	<node lat="61.493283336242776" lon="8.680074994940984" id="-24070">
		<tag k="name" v="Gjende" />
=======
	<node id="-367669" lat="61.8650555512" lon="8.7326694392">
		<tag k="name" v="Otta" />
		<tag k="ssr:stedsnr" v="920504" />
		<tag k="waterway" v="river" />
	</node>
	<node id="-367667" lat="61.8652472183" lon="8.98728334105">
		<tag k="name" v="Senda" />
		<tag k="ssr:stedsnr" v="920311" />
		<tag k="waterway" v="stream" />
	</node>
	<node id="-367658" lat="61.8142250002" lon="9.04459445125">
		<tag k="alt_name" v="Skåltjønne" />
		<tag k="name" v="Skåltjørni" />
>>>>>>> e1d4bc35ff8a6074a6f2e91616a996b547c36f15
		<tag k="natural" v="water" />
		<tag k="ssr:stedsnr" v="69801" />
		<tag k="water" v="lake" />
	</node>
<<<<<<< HEAD
	<node lat="61.4526277771592" lon="8.842050004102292" id="-24071">
		<tag k="name" v="Brurskardstjønne" />
		<tag k="natural" v="water" />
		<tag k="ssr:stedsnr" v="69774" />
	</node>
	<node lat="61.51572778228328" lon="8.882624999054176" id="-24073">
		<tag k="name" v="Hoska" />
		<tag k="ssr:stedsnr" v="70843" />
		<tag k="waterway" v="stream" />
	</node>
	<node lat="61.66616111001291" lon="9.019333330418545" id="-24095">
		<tag k="alt_name" v="Grotåa" />
		<tag k="name" v="Grjotåi" />
		<tag k="ssr:stedsnr" v="71769" />
		<tag k="waterway" v="stream" />
	</node>
	<node lat="61.549816666635586" lon="8.967969450105747" id="-24103">
		<tag k="name" v="Hestrebekken" />
		<tag k="ssr:stedsnr" v="71855" />
		<tag k="waterway" v="stream" />
	</node>
	<node lat="61.544377779816024" lon="9.102686114501132" id="-24104">
		<tag k="name" v="Loni" />
=======
	<node id="-367652" lat="61.4458361081" lon="9.10405278178">
		<tag k="name" v="Nøsterviki" />
		<tag k="natural" v="bay" />
		<tag k="ssr:stedsnr" v="918001" />
	</node>
	<node id="-367649" lat="61.8044833356" lon="9.15068056469">
		<tag k="name" v="Heillbekken" />
		<tag k="ssr:stedsnr" v="777543" />
		<tag k="waterway" v="stream" />
	</node>
	<node id="-367648" lat="61.806411113" lon="9.12929999898">
		<tag k="name" v="Skrøgla" />
		<tag k="ssr:stedsnr" v="777539" />
		<tag k="waterway" v="stream" />
	</node>
	<node id="-367645" lat="61.8435472265" lon="9.25200556164">
		<tag k="name" v="Snerlefetten" />
		<tag k="place" v="islet" />
		<tag k="ssr:stedsnr" v="777518" />
	</node>
	<node id="-367640" lat="61.8506611149" lon="9.22485554827">
		<tag k="name" v="Storsvingen" />
		<tag k="natural" v="cape" />
		<tag k="ssr:stedsnr" v="767866" />
	</node>
	<node id="-367637" lat="61.8207722255" lon="9.32991943861">
		<tag k="name" v="Styggemannstjønne" />
>>>>>>> e1d4bc35ff8a6074a6f2e91616a996b547c36f15
		<tag k="natural" v="water" />
		<tag k="ssr:stedsnr" v="71864" />
		<tag k="water" v="lake" />
	</node>
<<<<<<< HEAD
	<node lat="62.007052776143716" lon="8.958480555229366" id="-24106">
		<tag k="name" v="Krokåi" />
		<tag k="ssr:stedsnr" v="72491" />
		<tag k="waterway" v="stream" />
	</node>
	<node lat="61.759433330632255" lon="8.986127775614078" id="-24113">
		<tag k="name" v="Veslsanden" />
		<tag k="natural" v="beach" />
		<tag k="ssr:stedsnr" v="100331" />
	</node>
	<node lat="61.98369444828323" lon="8.979430563158243" id="-24118">
		<tag k="name" v="Høgfoss" />
		<tag k="natural" v="waterfall" />
		<tag k="ssr:stedsnr" v="101532" />
	</node>
	<node lat="61.817158332629475" lon="9.039822225995998" id="-24119">
		<tag k="name" v="Jårtrutjønne" />
=======
	<node id="-367636" lat="61.8996472203" lon="9.06789721388">
		<tag k="alt_name" v="Lauvåe" />
		<tag k="name" v="Lauvåi" />
		<tag k="ssr:stedsnr" v="739360" />
		<tag k="waterway" v="stream" />
	</node>
	<node id="-367629" lat="61.8343916698" lon="9.2593027747">
		<tag k="name" v="Stadevju" />
		<tag k="natural" v="bay" />
		<tag k="ssr:stedsnr" v="899523" />
	</node>
	<node id="-367628" lat="61.8083416668" lon="9.28422777767">
		<tag k="name" v="Kleivøya" />
		<tag k="place" v="island" />
		<tag k="ssr:stedsnr" v="899682" />
	</node>
	<node id="-367608" lat="61.7483361148" lon="9.04063888365">
		<tag k="name" v="Kalvtjønne" />
>>>>>>> e1d4bc35ff8a6074a6f2e91616a996b547c36f15
		<tag k="natural" v="water" />
		<tag k="ssr:stedsnr" v="102197" />
	</node>
<<<<<<< HEAD
	<node lat="61.81086944450372" lon="9.028230560987087" id="-24120">
		<tag k="name" v="Skytningsbekken" />
		<tag k="ssr:stedsnr" v="102200" />
		<tag k="waterway" v="stream" />
	</node>
	<node lat="61.78942777591523" lon="9.040199991562442" id="-24128">
		<tag k="name" v="Vesløye" />
		<tag k="place" v="islet" />
		<tag k="ssr:stedsnr" v="102442" />
	</node>
	<node lat="61.805522226694414" lon="9.363533335298966" id="-24136">
		<tag k="name" v="Skartjønne" />
=======
	<node id="-367603" lat="61.8432138902" lon="9.01948611906">
		<tag k="name" v="Rognstultjønne" />
>>>>>>> e1d4bc35ff8a6074a6f2e91616a996b547c36f15
		<tag k="natural" v="water" />
		<tag k="ssr:stedsnr" v="110554" />
	</node>
<<<<<<< HEAD
	<node lat="61.4954194408523" lon="8.80652500633618" id="-24140">
		<tag k="name" v="Gjendeosen" />
		<tag k="natural" v="bay" />
		<tag k="ssr:stedsnr" v="114633" />
	</node>
	<node lat="61.554688891347126" lon="8.938138897718217" id="-24144">
		<tag k="alt_name" v="Sjodalsvatnet, nedre;Nedre Sjodalsvatn" />
		<tag k="name" v="Nedre Sjodalsvatnet" />
=======
	<node id="-367602" lat="61.8362972231" lon="9.02490834231">
		<tag k="name" v="Fiskevatnet" />
>>>>>>> e1d4bc35ff8a6074a6f2e91616a996b547c36f15
		<tag k="natural" v="water" />
		<tag k="ssr:stedsnr" v="114837" />
		<tag k="water" v="lake" />
	</node>
<<<<<<< HEAD
	<node lat="61.47026666274924" lon="8.75681389560868" id="-24148">
		<tag k="name" v="Leirungsåe" />
		<tag k="ssr:stedsnr" v="129768" />
		<tag k="waterway" v="river" />
	</node>
	<node lat="61.806390413605676" lon="9.025977703160013" id="-24161">
		<tag k="name" v="Veslvatnet" />
=======
	<node id="-367588" lat="61.8448888873" lon="8.89203055597">
		<tag k="name" v="Trolldalsbekken" />
		<tag k="ssr:stedsnr" v="696325" />
		<tag k="waterway" v="stream" />
	</node>
	<node id="-367585" lat="61.8690694458" lon="8.87735833881">
		<tag k="name" v="Teppingje" />
>>>>>>> e1d4bc35ff8a6074a6f2e91616a996b547c36f15
		<tag k="natural" v="water" />
		<tag k="ssr:stedsnr" v="131439" />
		<tag k="water" v="lake" />
	</node>
<<<<<<< HEAD
	<node lat="61.81900000261546" lon="9.098313889058828" id="-24163">
		<tag k="alt_name" v="Stavåe" />
		<tag k="name" v="Stavåi" />
		<tag k="ssr:stedsnr" v="131448" />
		<tag k="waterway" v="stream" />
	</node>
	<node lat="61.81375555460179" lon="9.026111105561608" id="-24165">
		<tag k="name" v="Skytningen" />
=======
	<node id="-367575" lat="61.8456916668" lon="9.23118332721">
		<tag k="name" v="Storøye" />
		<tag k="place" v="islet" />
		<tag k="ssr:stedsnr" v="678929" />
	</node>
	<node id="-367572" lat="61.5471416629" lon="8.97423611716">
		<tag k="alt_name" v="Hestretjern" />
		<tag k="name" v="Hestretjørni" />
>>>>>>> e1d4bc35ff8a6074a6f2e91616a996b547c36f15
		<tag k="natural" v="water" />
		<tag k="ssr:stedsnr" v="131458" />
	</node>
<<<<<<< HEAD
	<node lat="61.63444999896279" lon="8.985030549679276" id="-24168">
		<tag k="name" v="Skobekken" />
		<tag k="ssr:stedsnr" v="131799" />
		<tag k="waterway" v="stream" />
	</node>
	<node lat="61.72638888628432" lon="9.137263893745654" id="-24171">
		<tag k="name" v="Rinda" />
		<tag k="ssr:stedsnr" v="131834" />
		<tag k="waterway" v="river" />
	</node>
	<node lat="61.57749166967567" lon="8.946741674362421" id="-24176">
		<tag k="name" v="Nedre Birisjøtjønne" />
		<tag k="natural" v="water" />
		<tag k="ssr:stedsnr" v="131858" />
	</node>
	<node lat="61.51188333639044" lon="8.830074994328434" id="-24179">
		<tag k="alt_name" v="Veslebessa" />
		<tag k="name" v="Veslbessa" />
		<tag k="ssr:stedsnr" v="131960" />
		<tag k="waterway" v="stream" />
	</node>
	<node lat="61.99536667102013" lon="8.930322214567214" id="-24181">
		<tag k="name" v="Skråbekken" />
		<tag k="ssr:stedsnr" v="132150" />
		<tag k="waterway" v="stream" />
	</node>
	<node lat="61.90403333706269" lon="9.08656665971528" id="-24205">
		<tag k="name" v="Vista" />
		<tag k="ssr:stedsnr" v="162014" />
		<tag k="waterway" v="stream" />
	</node>
	<node lat="61.823374997914534" lon="8.982702777453122" id="-24221">
		<tag k="name" v="Veslbekken" />
		<tag k="ssr:stedsnr" v="175487" />
		<tag k="waterway" v="stream" />
	</node>
	<node lat="61.40811944820705" lon="9.04307499995206" id="-24222">
		<tag k="name" v="Skjedølavatnet" />
		<tag k="natural" v="water" />
		<tag k="ssr:stedsnr" v="189010" />
	</node>
	<node lat="61.919916665483235" lon="8.914536108413758" id="-24227">
		<tag k="alt_name" v="Grønlibekken, nordre" />
		<tag k="name" v="Nørdre Grønlibekken" />
		<tag k="ssr:stedsnr" v="192163" />
		<tag k="waterway" v="stream" />
	</node>
	<node lat="61.85318055201865" lon="9.058616673506263" id="-24234">
		<tag k="alt_name" v="Geite" />
		<tag k="name" v="Geiti" />
		<tag k="ssr:stedsnr" v="192324" />
		<tag k="waterway" v="stream" />
	</node>
	<node lat="61.77579166605111" lon="9.03121388168869" id="-24239">
		<tag k="alt_name" v="Gutustjønne" />
		<tag k="name" v="Gutusjøtjørnin" />
		<tag k="natural" v="water" />
		<tag k="ssr:stedsnr" v="192441" />
		<tag k="water" v="lake" />
	</node>
	<node lat="61.773219442087466" lon="9.004472219880014" id="-24240">
		<tag k="alt_name" v="Sliungstjønne" />
		<tag k="name" v="Silungstjørni" />
		<tag k="natural" v="water" />
		<tag k="ssr:stedsnr" v="192444" />
	</node>
	<node lat="61.8275750094421" lon="9.03998164205129" id="-24244">
		<tag k="alt_name" v="Strondsætertjønne" />
		<tag k="name" v="Strondsætertjørni" />
		<tag k="natural" v="water" />
		<tag k="ssr:stedsnr" v="192510" />
	</node>
	<node lat="61.578805554174586" lon="8.958113891842086" id="-24248">
		<tag k="name" v="Melistjønne" />
=======
	<node id="-367563" lat="61.9330194447" lon="8.78162221439">
		<tag k="name" v="Finna" />
		<tag k="ssr:stedsnr" v="678268" />
		<tag k="waterway" v="river" />
	</node>
	<node id="-367562" lat="61.7654638846" lon="9.06856666396">
		<tag k="alt_name" v="Langøyddin" />
		<tag k="name" v="Langodden" />
		<tag k="natural" v="cape" />
		<tag k="ssr:stedsnr" v="678263" />
	</node>
	<node id="-367560" lat="61.8311972187" lon="8.90827222893">
		<tag k="alt_name" v="Langøyddin" />
		<tag k="name" v="Langodden" />
		<tag k="natural" v="cape" />
		<tag k="ssr:stedsnr" v="678259" />
	</node>
	<node id="-367559" lat="61.5204166651" lon="8.87883055264">
		<tag k="name" v="Hoskeodden" />
		<tag k="natural" v="cape" />
		<tag k="ssr:stedsnr" v="677874" />
	</node>
	<node id="-367558" lat="61.5208972258" lon="8.88629167209">
		<tag k="name" v="Hoskevikje" />
		<tag k="natural" v="bay" />
		<tag k="ssr:stedsnr" v="677864" />
	</node>
	<node id="-367557" lat="61.5248666666" lon="8.88480555134">
		<tag k="name" v="Mariholmen" />
		<tag k="place" v="islet" />
		<tag k="ssr:stedsnr" v="677862" />
	</node>
	<node id="-367556" lat="61.6780999997" lon="9.03303610684">
		<tag k="name" v="Turrhaugbekken" />
		<tag k="ssr:stedsnr" v="677760" />
		<tag k="waterway" v="stream" />
	</node>
	<node id="-367555" lat="61.802380552" lon="9.07707221923">
		<tag k="name" v="Tuvstulbekken" />
		<tag k="ssr:stedsnr" v="677461" />
		<tag k="waterway" v="stream" />
	</node>
	<node id="-367554" lat="61.8075578171" lon="9.05639581396">
		<tag k="name" v="Kvitingen" />
>>>>>>> e1d4bc35ff8a6074a6f2e91616a996b547c36f15
		<tag k="natural" v="water" />
		<tag k="ssr:stedsnr" v="192849" />
	</node>
<<<<<<< HEAD
	<node lat="61.56025277841009" lon="8.918138896686148" id="-24249">
		<tag k="name" v="Heimsanden" />
		<tag k="natural" v="beach" />
		<tag k="ssr:stedsnr" v="192853" />
	</node>
	<node lat="61.560183333863954" lon="8.944833325941831" id="-24251">
		<tag k="name" v="Langtjønne" />
=======
	<node id="-367547" lat="61.8762055585" lon="8.86383333516">
		<tag k="alt_name" v="Teppingen, øvre;Øvre Teppingen" />
		<tag k="name" v="Øvre Teppingje" />
>>>>>>> e1d4bc35ff8a6074a6f2e91616a996b547c36f15
		<tag k="natural" v="water" />
		<tag k="ssr:stedsnr" v="192858" />
	</node>
<<<<<<< HEAD
	<node lat="61.66830277990341" lon="9.035877786855703" id="-24252">
		<tag k="alt_name" v="Tråsåfossen, øvre" />
		<tag k="name" v="Øvre Tråsåfossen" />
		<tag k="natural" v="waterfall" />
		<tag k="ssr:stedsnr" v="192787" />
	</node>
	<node lat="61.59680000427625" lon="8.943844447190935" id="-24254">
		<tag k="name" v="Lauvøye" />
		<tag k="place" v="islet" />
		<tag k="ssr:stedsnr" v="192826" />
	</node>
	<node lat="61.592658331511544" lon="9.013802784744959" id="-24255">
		<tag k="name" v="Tjørnosen" />
=======
	<node id="-367546" lat="61.5282111098" lon="8.89007500187">
		<tag k="alt_name" v="Sjodalsvatnet, øvre;Øvre Sjodalsvatn" />
		<tag k="name" v="Øvre Sjodalsvatnet" />
>>>>>>> e1d4bc35ff8a6074a6f2e91616a996b547c36f15
		<tag k="natural" v="water" />
		<tag k="ssr:stedsnr" v="192838" />
		<tag k="water" v="lake" />
	</node>
<<<<<<< HEAD
	<node lat="61.74246388802312" lon="8.971536117347021" id="-24256">
		<tag k="name" v="Garmodammen" />
		<tag k="natural" v="water" />
		<tag k="ssr:stedsnr" v="192946" />
	</node>
	<node lat="61.72896110980821" lon="8.942161105109502" id="-24260">
		<tag k="name" v="Holbekken" />
		<tag k="ssr:stedsnr" v="192969" />
		<tag k="waterway" v="stream" />
	</node>
	<node lat="61.71041666575604" lon="9.057413892542918" id="-24262">
		<tag k="alt_name" v="Kvenngrov" />
		<tag k="name" v="Kverngrov" />
		<tag k="ssr:stedsnr" v="192977" />
		<tag k="waterway" v="stream" />
	</node>
	<node lat="61.724008330379924" lon="9.001633325108534" id="-24264">
		<tag k="alt_name" v="Grjothovdtjørni, nedre;Nedre Grothovdtjønne" />
		<tag k="name" v="Nedre Grjothovdtjørni" />
		<tag k="natural" v="water" />
		<tag k="ssr:stedsnr" v="192983" />
	</node>
	<node lat="61.68730277351713" lon="9.12102499089666" id="-24266">
		<tag k="name" v="Kvernbekken" />
		<tag k="ssr:stedsnr" v="192990" />
		<tag k="waterway" v="stream" />
	</node>
	<node lat="61.54054166434079" lon="9.05805832685401" id="-24268">
		<tag k="name" v="Ingulssjøbekken" />
		<tag k="ssr:stedsnr" v="192873" />
		<tag k="waterway" v="stream" />
	</node>
	<node lat="61.94930555235394" lon="8.99001111107476" id="-24275">
		<tag k="name" v="Skjerva" />
		<tag k="ssr:stedsnr" v="193123" />
		<tag k="waterway" v="river" />
	</node>
	<node lat="61.89193611281088" lon="8.995888891377655" id="-24284">
		<tag k="alt_name" v="Tverråi, s" />
		<tag k="name" v="Søre Tverråe" />
		<tag k="ssr:stedsnr" v="193375" />
		<tag k="waterway" v="stream" />
	</node>
	<node lat="61.89799589220328" lon="9.190284885603186" id="-24286">
		<tag k="alt_name" v="Sandmeltjønnin" />
		<tag k="name" v="Sandmeltjørnin" />
		<tag k="natural" v="water" />
		<tag k="ssr:stedsnr" v="193382" />
		<tag k="water" v="lake" />
	</node>
	<node lat="62.00121389275019" lon="8.980502776632552" id="-24287">
		<tag k="loc_name" v="Breijordbekken" />
		<tag k="name" v="Breidjordbekken" />
		<tag k="ssr:stedsnr" v="193527" />
		<tag k="waterway" v="stream" />
	</node>
	<node lat="61.93494721881029" lon="9.003991660757343" id="-24313">
		<tag k="name" v="Tattelarsbekken" />
		<tag k="ssr:stedsnr" v="223545" />
		<tag k="waterway" v="stream" />
	</node>
	<node lat="61.82183611412238" lon="9.273841661427781" id="-24314">
		<tag k="name" v="Nauthåmåren" />
		<tag k="natural" v="cape" />
		<tag k="ssr:stedsnr" v="223899" />
	</node>
	<node lat="61.818749996385364" lon="9.27221666886594" id="-24315">
		<tag k="name" v="Holmen" />
		<tag k="place" v="islet" />
		<tag k="ssr:stedsnr" v="223918" />
	</node>
	<node lat="61.718183335720504" lon="8.96691111671009" id="-24329">
		<tag k="name" v="Gammelstugubekken" />
		<tag k="ssr:stedsnr" v="282243" />
		<tag k="waterway" v="stream" />
	</node>
	<node lat="61.87308888896052" lon="8.959186120506637" id="-24334">
		<tag k="name" v="Skardtjønne" />
=======
	<node id="-367540" lat="61.4446055542" lon="9.0779277734">
		<tag k="name" v="Munkerova" />
		<tag k="ssr:stedsnr" v="736004" />
		<tag k="waterway" v="stream" />
	</node>
	<node id="-367531" lat="61.8750666632" lon="8.92054444264">
		<tag k="name" v="Kvitfossen" />
		<tag k="natural" v="waterfall" />
		<tag k="ssr:stedsnr" v="647097" />
	</node>
	<node id="-367524" lat="61.868627777" lon="9.15525832745">
		<tag k="name" v="Jukulbekken" />
		<tag k="ssr:stedsnr" v="645941" />
		<tag k="waterway" v="stream" />
	</node>
	<node id="-367519" lat="61.9048166681" lon="9.05013055367">
		<tag k="name" v="Svarebekken" />
		<tag k="ssr:stedsnr" v="617402" />
		<tag k="waterway" v="stream" />
	</node>
	<node id="-367508" lat="61.7951027818" lon="9.02378056096">
		<tag k="alt_name" v="Grovi, øvre;Grove" />
		<tag k="name" v="Øvre Grovi" />
		<tag k="ssr:stedsnr" v="616433" />
		<tag k="waterway" v="river" />
	</node>
	<node id="-367507" lat="61.7707138898" lon="8.98726388338">
		<tag k="alt_name" v="Sliungsbekken" />
		<tag k="name" v="Silungsbekken" />
		<tag k="ssr:stedsnr" v="616405" />
		<tag k="waterway" v="stream" />
	</node>
	<node id="-367506" lat="61.9399111075" lon="8.98521389292">
		<tag k="name" v="Kvennhusbekken" />
		<tag k="ssr:stedsnr" v="721348" />
		<tag k="waterway" v="stream" />
	</node>
	<node id="-367504" lat="61.4920833367" lon="8.81476667015">
		<tag k="name" v="Sjoa" />
		<tag k="ssr:stedsnr" v="614796" />
		<tag k="waterway" v="river" />
	</node>
	<node id="-367503" lat="61.4633749996" lon="9.10471389408">
		<tag k="name" v="Holmbekken" />
		<tag k="ssr:stedsnr" v="614234" />
		<tag k="waterway" v="stream" />
	</node>
	<node id="-367499" lat="61.8045472213" lon="9.30177221857">
		<tag k="name" v="Eidefossen" />
		<tag k="natural" v="waterfall" />
		<tag k="ssr:stedsnr" v="716686" />
	</node>
	<node id="-367497" lat="61.7944861114" lon="9.12785555573">
		<tag k="name" v="Hølma" />
		<tag k="ssr:stedsnr" v="716541" />
		<tag k="waterway" v="stream" />
	</node>
	<node id="-367489" lat="61.8713638854" lon="9.05936944757">
		<tag k="name" v="Lindalsbekken" />
		<tag k="ssr:stedsnr" v="587269" />
		<tag k="waterway" v="stream" />
	</node>
	<node id="-367483" lat="61.8659055576" lon="9.1949055633">
		<tag k="name" v="Jårtrudnesset" />
		<tag k="natural" v="cape" />
		<tag k="ssr:stedsnr" v="585717" />
	</node>
	<node id="-367482" lat="61.763525001" lon="8.98204166715">
		<tag k="name" v="Heillern" />
		<tag k="natural" v="cape" />
		<tag k="ssr:stedsnr" v="585305" />
	</node>
	<node id="-367465" lat="61.8390027734" lon="9.03901111012">
		<tag k="name" v="Gorotjønne" />
		<tag k="natural" v="water" />
		<tag k="ssr:stedsnr" v="708165" />
	</node>
	<node id="-367459" lat="61.9569805525" lon="9.00694999412">
		<tag k="name" v="Dalbekken" />
		<tag k="ssr:stedsnr" v="708024" />
		<tag k="waterway" v="stream" />
	</node>
	<node id="-367441" lat="61.5575222179" lon="8.69603888676">
		<tag k="name" v="Blåtjønnodden" />
		<tag k="natural" v="cape" />
		<tag k="ssr:stedsnr" v="556904" />
	</node>
	<node id="-367440" lat="61.8143749969" lon="9.23298889225">
		<tag k="name" v="Rinda" />
		<tag k="ssr:stedsnr" v="556769" />
		<tag k="waterway" v="stream" />
	</node>
	<node id="-367437" lat="61.5410749958" lon="9.01293332841">
		<tag k="name" v="Tynna" />
>>>>>>> e1d4bc35ff8a6074a6f2e91616a996b547c36f15
		<tag k="natural" v="water" />
		<tag k="ssr:stedsnr" v="284063" />
	</node>
<<<<<<< HEAD
	<node lat="61.77944167115148" lon="9.053158336734345" id="-24339">
		<tag k="name" v="Vombe" />
		<tag k="place" v="islet" />
		<tag k="ssr:stedsnr" v="284385" />
	</node>
	<node lat="61.80448333627049" lon="9.144197229293633" id="-24345">
		<tag k="name" v="Holpøyta" />
		<tag k="ssr:stedsnr" v="292518" />
		<tag k="waterway" v="stream" />
	</node>
	<node lat="61.46662499672387" lon="9.144955547065738" id="-24357">
		<tag k="alt_name" v="Skiftesbekken" />
		<tag k="name" v="Søre Skiftesbekken" />
		<tag k="ssr:stedsnr" v="311301" />
		<tag k="waterway" v="stream" />
	</node>
	<node lat="61.79763055521403" lon="9.126486108361384" id="-24366">
		<tag k="alt_name" v="Holmen" />
		<tag k="name" v="Holmin" />
		<tag k="place" v="islet" />
		<tag k="ssr:stedsnr" v="313436" />
	</node>
	<node lat="61.54813333073271" lon="9.176208331481604" id="-24367">
		<tag k="name" v="Flybekken" />
		<tag k="ssr:stedsnr" v="313862" />
		<tag k="waterway" v="stream" />
	</node>
	<node lat="61.5448777794513" lon="8.94762499258736" id="-24368">
		<tag k="name" v="Pullen" />
=======
	<node id="-367435" lat="61.840430558" lon="9.25178056314">
		<tag k="name" v="Lalmsvatnet" />
		<tag k="natural" v="water" />
		<tag k="ssr:stedsnr" v="556809" />
		<tag k="water" v="lake" />
	</node>
	<node id="-367423" lat="61.9361722243" lon="9.13149722829">
		<tag k="name" v="Daldokkbekken" />
		<tag k="ssr:stedsnr" v="556167" />
		<tag k="waterway" v="stream" />
	</node>
	<node id="-367417" lat="61.832083329" lon="8.96097777602">
		<tag k="name" v="Tessa" />
		<tag k="ssr:stedsnr" v="555430" />
		<tag k="waterway" v="river" />
	</node>
	<node id="-367412" lat="61.4202361078" lon="9.09887499828">
		<tag k="name" v="Austhøbekken" />
		<tag k="ssr:stedsnr" v="553012" />
		<tag k="waterway" v="stream" />
	</node>
	<node id="-367410" lat="61.4443777752" lon="9.10727499182">
		<tag k="name" v="Heimdalsoset" />
>>>>>>> e1d4bc35ff8a6074a6f2e91616a996b547c36f15
		<tag k="natural" v="bay" />
		<tag k="ssr:stedsnr" v="313867" />
	</node>
<<<<<<< HEAD
	<node lat="61.751230559496086" lon="9.057588889853216" id="-24376">
		<tag k="alt_name" v="Kalvtjønnbekken" />
		<tag k="name" v="Kalvtjørnbekken" />
		<tag k="ssr:stedsnr" v="314436" />
		<tag k="waterway" v="stream" />
	</node>
	<node lat="61.86363055318853" lon="9.227433328784711" id="-24392">
		<tag k="name" v="Serkvesbekken" />
		<tag k="ssr:stedsnr" v="342732" />
		<tag k="waterway" v="stream" />
	</node>
	<node lat="61.86784444228921" lon="9.09562499880987" id="-24404">
		<tag k="name" v="Monsoddin" />
		<tag k="natural" v="cape" />
		<tag k="ssr:stedsnr" v="344240" />
	</node>
	<node lat="61.79881944298494" lon="9.155622230610094" id="-24414">
		<tag k="name" v="Flokka" />
		<tag k="ssr:stedsnr" v="352548" />
		<tag k="waterway" v="stream" />
	</node>
	<node lat="61.669649995580464" lon="9.134533338616402" id="-24427">
		<tag k="alt_name" v="Storskriubekken" />
		<tag k="name" v="Storskridubekken" />
		<tag k="ssr:stedsnr" v="374778" />
		<tag k="waterway" v="stream" />
	</node>
	<node lat="61.55485555685468" lon="8.9629444482941" id="-24436">
		<tag k="name" v="Butjønne" />
=======
	<node id="-367405" lat="61.7875333332" lon="9.17113054827">
		<tag k="alt_name" v="Lauvåa" />
		<tag k="name" v="Lauvåe" />
		<tag k="ssr:stedsnr" v="534564" />
		<tag k="waterway" v="stream" />
	</node>
	<node id="-367401" lat="61.790191663" lon="9.04554443767">
		<tag k="name" v="Sandnesøye" />
		<tag k="place" v="islet" />
		<tag k="ssr:stedsnr" v="526379" />
	</node>
	<node id="-367394" lat="61.5702666704" lon="8.82964722883">
		<tag k="name" v="Nørdre Tverråe" />
		<tag k="ssr:stedsnr" v="495919" />
		<tag k="waterway" v="river" />
	</node>
	<node id="-367389" lat="61.5455805597" lon="9.16571389669">
		<tag k="fixme" v="multiple name tags, choose one and add the other to alt_name" />
		<tag k="name" v="Nysæterbekken;Vetlbekken" />
		<tag k="ssr:stedsnr" v="495857" />
		<tag k="waterway" v="stream" />
	</node>
	<node id="-367387" lat="61.8204888886" lon="9.00984999654">
		<tag k="name" v="Ulvemyrbekken" />
		<tag k="ssr:stedsnr" v="495465" />
		<tag k="waterway" v="stream" />
	</node>
	<node id="-367380" lat="61.8427777753" lon="9.07479999098">
		<tag k="alt_name" v="Svarttjønne" />
		<tag k="name" v="Svarttjørni" />
		<tag k="natural" v="water" />
		<tag k="ssr:stedsnr" v="495262" />
	</node>
	<node id="-367375" lat="61.840413888" lon="9.30825555875">
		<tag k="name" v="Hansbergtjønne" />
>>>>>>> e1d4bc35ff8a6074a6f2e91616a996b547c36f15
		<tag k="natural" v="water" />
		<tag k="ssr:stedsnr" v="374854" />
	</node>
<<<<<<< HEAD
	<node lat="61.5590805572041" lon="9.07841944990638" id="-24437">
		<tag k="name" v="Tverråi" />
		<tag k="ssr:stedsnr" v="374856" />
		<tag k="waterway" v="stream" />
	</node>
	<node lat="61.73576110746908" lon="8.989261115056761" id="-24441">
		<tag k="alt_name" v="Kalvtjern" />
		<tag k="name" v="Kalvtjørni" />
=======
	<node id="-367373" lat="61.4471861156" lon="8.73142499972">
		<tag k="name" v="Steinflybekken" />
		<tag k="ssr:stedsnr" v="493153" />
		<tag k="waterway" v="stream" />
	</node>
	<node id="-367371" lat="61.8635611105" lon="9.08467499434">
		<tag k="alt_name" v="Klonesoddin" />
		<tag k="name" v="Klonesodden" />
		<tag k="natural" v="cape" />
		<tag k="ssr:stedsnr" v="678335" />
	</node>
	<node id="-367361" lat="61.5223822206" lon="8.75947881509">
		<tag k="name" v="Bessvatnet" />
>>>>>>> e1d4bc35ff8a6074a6f2e91616a996b547c36f15
		<tag k="natural" v="water" />
		<tag k="ssr:stedsnr" v="374969" />
	</node>
<<<<<<< HEAD
	<node lat="61.57474721792895" lon="8.80320278397714" id="-24445">
		<tag k="name" v="Hellertjønne" />
		<tag k="natural" v="water" />
		<tag k="ssr:stedsnr" v="374918" />
	</node>
	<node lat="61.956352779645044" lon="9.008558325367028" id="-24451">
		<tag k="alt_name" v="Raudtjønne" />
		<tag k="name" v="Raudtjørni" />
		<tag k="place" v="locality" />
		<tag k="ssr:stedsnr" v="375152" />
	</node>
	<node lat="61.87118611076207" lon="9.212725001477228" id="-24453">
		<tag k="alt_name" v="Holungen" />
		<tag k="name" v="Storholungen" />
		<tag k="ssr:stedsnr" v="375296" />
		<tag k="waterway" v="stream" />
	</node>
	<node lat="61.87571111529575" lon="8.966361110498614" id="-24454">
		<tag k="alt_name" v="Åi, nordre" />
		<tag k="name" v="Nørdre Åi" />
		<tag k="ssr:stedsnr" v="375300" />
		<tag k="waterway" v="stream" />
	</node>
	<node lat="61.822486107796074" lon="9.332402769715095" id="-24460">
		<tag k="name" v="Styggemannstjønne" />
=======
	<node id="-367358" lat="61.5770250005" lon="8.90173611383">
		<tag k="name" v="Søre Tverråe" />
		<tag k="ssr:stedsnr" v="677827" />
		<tag k="waterway" v="river" />
	</node>
	<node id="-367357" lat="61.5783138905" lon="8.9297111049">
		<tag k="name" v="Russhølen" />
		<tag k="place" v="locality" />
		<tag k="ssr:stedsnr" v="677824" />
	</node>
	<node id="-367348" lat="61.8297390278" lon="8.90874736821">
		<tag k="name" v="Gjæsingvatnet" />
		<tag k="natural" v="water" />
		<tag k="ssr:stedsnr" v="677481" />
		<tag k="water" v="lake" />
	</node>
	<node id="-367346" lat="61.8276805538" lon="8.87689999279">
		<tag k="alt_name" v="Svarttjørni" />
		<tag k="name" v="Svarttjønne" />
		<tag k="natural" v="water" />
		<tag k="ssr:stedsnr" v="677478" />
	</node>
	<node id="-367343" lat="61.8163249957" lon="9.0840138913">
		<tag k="name" v="Frøyna" />
		<tag k="ssr:stedsnr" v="677434" />
		<tag k="waterway" v="stream" />
	</node>
	<node id="-367342" lat="61.7972701493" lon="9.17485584867">
		<tag k="name" v="Melingen" />
>>>>>>> e1d4bc35ff8a6074a6f2e91616a996b547c36f15
		<tag k="natural" v="water" />
		<tag k="ssr:stedsnr" v="400560" />
	</node>
<<<<<<< HEAD
	<node lat="61.799852778999856" lon="9.108833327746444" id="-24477">
		<tag k="name" v="Lomholmin" />
		<tag k="place" v="islet" />
		<tag k="ssr:stedsnr" v="405180" />
	</node>
	<node lat="61.80039444233286" lon="9.258813887036773" id="-24486">
		<tag k="name" v="Kleivtjønne" />
		<tag k="natural" v="water" />
		<tag k="ssr:stedsnr" v="413681" />
	</node>
	<node lat="61.48183333702646" lon="8.827327783488242" id="-24493">
		<tag k="name" v="Mågåhølen" />
=======
	<node id="-367339" lat="61.4773972207" lon="8.62370277601">
		<tag k="name" v="Tjønnholodden" />
		<tag k="natural" v="cape" />
		<tag k="ssr:stedsnr" v="675797" />
	</node>
	<node id="-367337" lat="61.463394447" lon="8.71239722745">
		<tag k="name" v="Bukkehåmårtjønne" />
		<tag k="natural" v="water" />
		<tag k="ssr:stedsnr" v="675780" />
	</node>
	<node id="-367325" lat="61.8638111143" lon="9.20604167192">
		<tag k="name" v="Vesløye" />
		<tag k="natural" v="cape" />
		<tag k="ssr:stedsnr" v="464763" />
	</node>
	<node id="-367323" lat="61.7734944448" lon="8.96101667592">
		<tag k="name" v="Utøyra" />
		<tag k="natural" v="cape" />
		<tag k="ssr:stedsnr" v="464356" />
	</node>
	<node id="-367319" lat="61.8520777769" lon="9.21896666331">
		<tag k="name" v="Svendstadhølen" />
>>>>>>> e1d4bc35ff8a6074a6f2e91616a996b547c36f15
		<tag k="place" v="locality" />
		<tag k="ssr:stedsnr" v="433770" />
	</node>
<<<<<<< HEAD
	<node lat="61.83356389094096" lon="8.873172225970253" id="-24494">
		<tag k="alt_name" v="Krosstjørni" />
		<tag k="name" v="Krosstjønne" />
		<tag k="natural" v="water" />
		<tag k="ssr:stedsnr" v="434450" />
	</node>
	<node lat="61.58206111492852" lon="8.926730554183427" id="-24496">
		<tag k="name" v="Måsåøye" />
		<tag k="place" v="islet" />
		<tag k="ssr:stedsnr" v="434767" />
	</node>
	<node lat="61.50822499677675" lon="8.8972861040758" id="-24497">
		<tag k="name" v="Storskridubekken" />
		<tag k="ssr:stedsnr" v="434838" />
		<tag k="waterway" v="stream" />
	</node>
	<node lat="61.850569442359486" lon="9.124538893821484" id="-24501">
		<tag k="name" v="Sundbekken" />
		<tag k="ssr:stedsnr" v="435294" />
		<tag k="waterway" v="stream" />
	</node>
	<node lat="61.854272217768894" lon="9.064224995782999" id="-24502">
=======
	<node id="-367313" lat="61.9067916641" lon="8.97861388886">
		<tag k="name" v="Liasæterbekken" />
		<tag k="ssr:stedsnr" v="660390" />
		<tag k="waterway" v="stream" />
	</node>
	<node id="-367311" lat="61.8281166626" lon="8.96290555695">
		<tag k="name" v="Inntaksdam Midtre Tesse" />
		<tag k="ssr:stedsnr" v="660499" />
		<tag k="waterway" v="dam" />
	</node>
	<node id="-367310" lat="61.4889277804" lon="8.81952222416">
		<tag k="name" v="Veslehølen" />
		<tag k="place" v="locality" />
		<tag k="ssr:stedsnr" v="659607" />
	</node>
	<node id="-367305" lat="61.9896444451" lon="8.94024167245">
		<tag k="name" v="Rundhøholbekken" />
		<tag k="ssr:stedsnr" v="436137" />
		<tag k="waterway" v="stream" />
	</node>
	<node id="-367295" lat="61.8542722178" lon="9.06422499578">
>>>>>>> e1d4bc35ff8a6074a6f2e91616a996b547c36f15
		<tag k="name" v="Bukken" />
		<tag k="ssr:stedsnr" v="435330" />
		<tag k="waterway" v="stream" />
	</node>
<<<<<<< HEAD
	<node lat="61.81114722289212" lon="9.20384722600609" id="-24508">
		<tag k="alt_name" v="Rindtjønne" />
		<tag k="name" v="Rindtjørni" />
		<tag k="natural" v="water" />
		<tag k="ssr:stedsnr" v="435496" />
	</node>
	<node lat="61.98964444506468" lon="8.94024167244574" id="-24516">
		<tag k="name" v="Rundhøholbekken" />
		<tag k="ssr:stedsnr" v="436137" />
		<tag k="waterway" v="stream" />
	</node>
	<node lat="61.87818333533008" lon="9.192958342002138" id="-24521">
		<tag k="name" v="Grøna" />
		<tag k="ssr:stedsnr" v="436300" />
		<tag k="waterway" v="stream" />
	</node>
	<node lat="61.87320833502304" lon="8.924897215145114" id="-24525">
		<tag k="name" v="Dipra" />
		<tag k="ssr:stedsnr" v="436327" />
		<tag k="waterway" v="river" />
	</node>
	<node lat="61.56454999570656" lon="8.977327779613223" id="-24540">
=======
	<node id="-367272" lat="61.9563527796" lon="9.00855832537">
		<tag k="alt_name" v="Raudtjønne" />
		<tag k="name" v="Raudtjørni" />
		<tag k="place" v="locality" />
		<tag k="ssr:stedsnr" v="375152" />
	</node>
	<node id="-367270" lat="61.7357611075" lon="8.98926111506">
		<tag k="alt_name" v="Kalvtjern" />
		<tag k="name" v="Kalvtjørni" />
		<tag k="natural" v="water" />
		<tag k="ssr:stedsnr" v="374969" />
	</node>
	<node id="-367266" lat="61.5590805572" lon="9.07841944991">
		<tag k="name" v="Tverråi" />
		<tag k="ssr:stedsnr" v="374856" />
		<tag k="waterway" v="stream" />
	</node>
	<node id="-367265" lat="61.5548555569" lon="8.96294444829">
		<tag k="name" v="Butjønne" />
		<tag k="natural" v="water" />
		<tag k="ssr:stedsnr" v="374854" />
	</node>
	<node id="-367263" lat="61.5618555534" lon="8.73345278246">
		<tag k="name" v="Tjønnholodden" />
		<tag k="natural" v="cape" />
		<tag k="ssr:stedsnr" v="374814" />
	</node>
	<node id="-367262" lat="61.6117111089" lon="8.92556667468">
		<tag k="name" v="Vesl-Hinde" />
		<tag k="ssr:stedsnr" v="374813" />
		<tag k="waterway" v="stream" />
	</node>
	<node id="-367260" lat="61.6696499956" lon="9.13453333862">
		<tag k="alt_name" v="Storskriubekken" />
		<tag k="name" v="Storskridubekken" />
		<tag k="ssr:stedsnr" v="374778" />
		<tag k="waterway" v="stream" />
	</node>
	<node id="-367240" lat="61.8956138923" lon="9.15217777873">
		<tag k="name" v="Huskono" />
		<tag k="ssr:stedsnr" v="496377" />
		<tag k="waterway" v="river" />
	</node>
	<node id="-367231" lat="61.5645499957" lon="8.97732777961">
>>>>>>> e1d4bc35ff8a6074a6f2e91616a996b547c36f15
		<tag k="name" v="Styggemyrbekken" />
		<tag k="ssr:stedsnr" v="495847" />
		<tag k="waterway" v="stream" />
	</node>
<<<<<<< HEAD
	<node lat="61.55186666828382" lon="8.75011666224348" id="-24542">
=======
	<node id="-367224" lat="61.5518666683" lon="8.75011666224">
>>>>>>> e1d4bc35ff8a6074a6f2e91616a996b547c36f15
		<tag k="name" v="Grotåe" />
		<tag k="ssr:stedsnr" v="495942" />
		<tag k="waterway" v="river" />
	</node>
<<<<<<< HEAD
	<node lat="61.895613892302045" lon="9.152177778733572" id="-24544">
		<tag k="name" v="Huskono" />
		<tag k="ssr:stedsnr" v="496377" />
		<tag k="waterway" v="river" />
	</node>
	<node lat="61.787533333234705" lon="9.171130548265657" id="-24576">
		<tag k="alt_name" v="Lauvåa" />
		<tag k="name" v="Lauvåe" />
		<tag k="ssr:stedsnr" v="534564" />
		<tag k="waterway" v="stream" />
	</node>
	<node lat="61.92423888559084" lon="8.969336110883333" id="-24582">
		<tag k="name" v="Teigjebekken" />
		<tag k="ssr:stedsnr" v="539303" />
		<tag k="waterway" v="stream" />
	</node>
	<node lat="61.406258337437094" lon="8.622705546667147" id="-24583">
		<tag k="name" v="Leirungstjønnin" />
=======
	<node id="-367212" lat="61.4454833318" lon="9.03753888174">
		<tag k="name" v="Holmbekkin" />
		<tag k="ssr:stedsnr" v="493004" />
		<tag k="waterway" v="stream" />
	</node>
	<node id="-367208" lat="61.8678444423" lon="9.09562499881">
		<tag k="name" v="Monsoddin" />
		<tag k="natural" v="cape" />
		<tag k="ssr:stedsnr" v="344240" />
	</node>
	<node id="-367202" lat="61.9360222231" lon="8.94499166339">
		<tag k="name" v="Stulsbekken" />
		<tag k="ssr:stedsnr" v="478348" />
		<tag k="waterway" v="stream" />
	</node>
	<node id="-367198" lat="61.7875305571" lon="9.16521667513">
		<tag k="name" v="Kolbottbekken" />
		<tag k="ssr:stedsnr" v="474956" />
		<tag k="waterway" v="stream" />
	</node>
	<node id="-367197" lat="61.7934166706" lon="9.28745277724">
		<tag k="name" v="Nørdre Liabekken" />
		<tag k="ssr:stedsnr" v="474685" />
		<tag k="waterway" v="stream" />
	</node>
	<node id="-367196" lat="61.7943611084" lon="9.13556944631">
		<tag k="name" v="Svartvikje" />
		<tag k="natural" v="bay" />
		<tag k="ssr:stedsnr" v="474550" />
	</node>
	<node id="-367195" lat="61.8153444405" lon="9.1660722221">
		<tag k="fixme" v="multiple name tags, choose one and add the other to alt_name" />
		<tag k="name" v="Breinsæterbekken;Sandåe" />
		<tag k="ssr:stedsnr" v="474541" />
		<tag k="waterway" v="stream" />
	</node>
	<node id="-367194" lat="61.8307222187" lon="9.14055276949">
		<tag k="name" v="Teppingstjønne" />
		<tag k="natural" v="water" />
		<tag k="ssr:stedsnr" v="474539" />
	</node>
	<node id="-367188" lat="61.9211583364" lon="9.0453222238">
		<tag k="name" v="Rishovdtjørni" />
>>>>>>> e1d4bc35ff8a6074a6f2e91616a996b547c36f15
		<tag k="natural" v="water" />
		<tag k="ssr:stedsnr" v="553116" />
		<tag k="water" v="lake" />
	</node>
<<<<<<< HEAD
	<node lat="61.83208332897901" lon="8.960977776023048" id="-24587">
		<tag k="name" v="Tessa" />
		<tag k="ssr:stedsnr" v="555430" />
		<tag k="waterway" v="river" />
	</node>
	<node lat="61.814374996874704" lon="9.232988892246611" id="-24596">
		<tag k="name" v="Rinda" />
		<tag k="ssr:stedsnr" v="556769" />
		<tag k="waterway" v="stream" />
	</node>
	<node lat="61.63328055815055" lon="9.046499995013692" id="-24597">
		<tag k="name" v="Vistesala" />
		<tag k="ssr:stedsnr" v="556780" />
		<tag k="waterway" v="stream" />
	</node>
	<node lat="61.51725555205342" lon="8.864402772679068" id="-24598">
		<tag k="name" v="Bessneset" />
		<tag k="natural" v="cape" />
		<tag k="ssr:stedsnr" v="555841" />
	</node>
	<node lat="61.70838333126727" lon="9.118380546761799" id="-24603">
		<tag k="name" v="Sisseltjørni" />
		<tag k="natural" v="water" />
		<tag k="ssr:stedsnr" v="555999" />
	</node>
	<node lat="61.91735833239836" lon="8.889752783826037" id="-24604">
		<tag k="name" v="Visdalsæterbekken" />
		<tag k="ssr:stedsnr" v="556179" />
		<tag k="waterway" v="stream" />
	</node>
	<node lat="61.92339444806685" lon="9.183625002184824" id="-24605">
		<tag k="name" v="Jettdalsbekken" />
		<tag k="ssr:stedsnr" v="556188" />
		<tag k="waterway" v="stream" />
	</node>
	<node lat="61.8787111085303" lon="8.97255832613905" id="-24616">
		<tag k="name" v="Svarthåmårbekken" />
		<tag k="ssr:stedsnr" v="556401" />
		<tag k="waterway" v="stream" />
	</node>
	<node lat="61.55115277718084" lon="9.034916667454656" id="-24626">
		<tag k="name" v="Griningsdalsvatnet" />
=======
	<node id="-367187" lat="61.9116361137" lon="9.06164167068">
		<tag k="name" v="Måla" />
		<tag k="ssr:stedsnr" v="314165" />
		<tag k="waterway" v="river" />
	</node>
	<node id="-367184" lat="61.5448777795" lon="8.94762499259">
		<tag k="name" v="Pullen" />
		<tag k="natural" v="bay" />
		<tag k="ssr:stedsnr" v="313867" />
	</node>
	<node id="-367183" lat="61.5481333307" lon="9.17620833148">
		<tag k="name" v="Flybekken" />
		<tag k="ssr:stedsnr" v="313862" />
		<tag k="waterway" v="stream" />
	</node>
	<node id="-367182" lat="61.8323249982" lon="9.22862499225">
		<tag k="alt_name" v="Storbekken" />
		<tag k="name" v="Svartbekken" />
		<tag k="ssr:stedsnr" v="313814" />
		<tag k="waterway" v="stream" />
	</node>
	<node id="-367181" lat="61.8303499962" lon="9.35857500506">
		<tag k="name" v="Løytnantdammen" />
		<tag k="place" v="locality" />
		<tag k="ssr:stedsnr" v="313803" />
	</node>
	<node id="-367178" lat="61.8137805563" lon="9.06055278161">
		<tag k="name" v="Reinskinna" />
		<tag k="ssr:stedsnr" v="313468" />
		<tag k="waterway" v="river" />
	</node>
	<node id="-367163" lat="61.8721194486" lon="9.18792222372">
		<tag k="name" v="Hårrholet" />
		<tag k="natural" v="bay" />
		<tag k="ssr:stedsnr" v="466828" />
	</node>
	<node id="-367159" lat="61.8232666667" lon="9.05336666622">
		<tag k="name" v="Krossmyrbekken" />
		<tag k="ssr:stedsnr" v="465140" />
		<tag k="waterway" v="stream" />
	</node>
	<node id="-367147" lat="61.8710777757" lon="9.19595277334">
		<tag k="name" v="Svartbekken" />
		<tag k="ssr:stedsnr" v="464748" />
		<tag k="waterway" v="stream" />
	</node>
	<node id="-367142" lat="61.8132638851" lon="9.27539722748">
		<tag k="name" v="Aurderøya" />
		<tag k="natural" v="cape" />
		<tag k="ssr:stedsnr" v="462897" />
	</node>
	<node id="-367141" lat="61.8188138846" lon="9.30128333466">
		<tag k="name" v="Sveahaugtjønne" />
>>>>>>> e1d4bc35ff8a6074a6f2e91616a996b547c36f15
		<tag k="natural" v="water" />
		<tag k="ssr:stedsnr" v="556845" />
		<tag k="water" v="lake" />
	</node>
<<<<<<< HEAD
	<node lat="61.74319167084974" lon="8.975927786907926" id="-24627">
		<tag k="alt_name" v="Kojenebba;Kojenebben" />
		<tag k="name" v="Koienebben" />
		<tag k="natural" v="cape" />
		<tag k="ssr:stedsnr" v="556947" />
	</node>
	<node lat="61.86590555758367" lon="9.194905563298137" id="-24631">
		<tag k="name" v="Jårtrudnesset" />
		<tag k="natural" v="cape" />
		<tag k="ssr:stedsnr" v="585717" />
	</node>
	<node lat="61.70723055767966" lon="8.97456945002439" id="-24635">
		<tag k="name" v="Djupdalsbekken" />
		<tag k="ssr:stedsnr" v="585235" />
		<tag k="waterway" v="stream" />
	</node>
	<node lat="61.87136388544202" lon="9.059369447572632" id="-24639">
		<tag k="name" v="Lindalsbekken" />
		<tag k="ssr:stedsnr" v="587269" />
		<tag k="waterway" v="stream" />
	</node>
	<node lat="61.84853055657676" lon="8.947525005157628" id="-24640">
		<tag k="name" v="Galtin" />
		<tag k="natural" v="shoal" />
		<tag k="place" v="locality" />
		<tag k="ssr:stedsnr" v="587125" />
	</node>
	<node lat="61.81014444844673" lon="8.942674996818369" id="-24653">
		<tag k="name" v="Ostjønnen" />
		<tag k="natural" v="water" />
		<tag k="ssr:stedsnr" v="599431" />
	</node>
	<node lat="61.463374999625756" lon="9.104713894081483" id="-24656">
		<tag k="name" v="Holmbekken" />
		<tag k="ssr:stedsnr" v="614234" />
		<tag k="waterway" v="stream" />
	</node>
	<node lat="61.492083336709065" lon="8.814766670151277" id="-24657">
		<tag k="name" v="Sjoa" />
		<tag k="ssr:stedsnr" v="614796" />
		<tag k="waterway" v="river" />
	</node>
	<node lat="61.84120555788439" lon="9.1945111022776" id="-24659">
		<tag k="alt_name" v="Lauvåe" />
		<tag k="name" v="Lauvåi" />
		<tag k="ssr:stedsnr" v="616237" />
		<tag k="waterway" v="river" />
	</node>
	<node lat="61.85649444415157" lon="9.089786102507773" id="-24662">
		<tag k="name" v="Klonesbekken" />
		<tag k="ssr:stedsnr" v="616281" />
		<tag k="waterway" v="stream" />
	</node>
	<node lat="61.79510278183756" lon="9.023780560956927" id="-24665">
		<tag k="alt_name" v="Grovi, øvre;Grove" />
		<tag k="name" v="Øvre Grovi" />
		<tag k="ssr:stedsnr" v="616433" />
		<tag k="waterway" v="river" />
	</node>
	<node lat="61.5693517390012" lon="8.603337275707812" id="-24670">
		<tag k="name" v="Blåtjønnin" />
=======
	<node id="-367127" lat="61.845991666" lon="9.25004166232">
		<tag k="name" v="Yvju" />
		<tag k="natural" v="bay" />
		<tag k="ssr:stedsnr" v="230471" />
	</node>
	<node id="-367113" lat="61.8044833363" lon="9.14419722929">
		<tag k="name" v="Holpøyta" />
		<tag k="ssr:stedsnr" v="292518" />
		<tag k="waterway" v="stream" />
	</node>
	<node id="-367112" lat="61.8355361133" lon="9.39801110323">
		<tag k="alt_name" v="Geitåa" />
		<tag k="name" v="Geitåe" />
		<tag k="ssr:stedsnr" v="292513" />
		<tag k="waterway" v="stream" />
	</node>
	<node id="-367111" lat="62.0012138928" lon="8.98050277663">
		<tag k="loc_name" v="Breijordbekken" />
		<tag k="name" v="Breidjordbekken" />
		<tag k="ssr:stedsnr" v="193527" />
		<tag k="waterway" v="stream" />
	</node>
	<node id="-367110" lat="61.9493055524" lon="8.99001111107">
		<tag k="name" v="Skjerva" />
		<tag k="ssr:stedsnr" v="193123" />
		<tag k="waterway" v="river" />
	</node>
	<node id="-367108" lat="61.853180552" lon="9.05861667351">
		<tag k="alt_name" v="Geite" />
		<tag k="name" v="Geiti" />
		<tag k="ssr:stedsnr" v="192324" />
		<tag k="waterway" v="stream" />
	</node>
	<node id="-367103" lat="61.4081194482" lon="9.04307499995">
		<tag k="name" v="Skjedølavatnet" />
		<tag k="natural" v="water" />
		<tag k="ssr:stedsnr" v="189010" />
	</node>
	<node id="-367098" lat="61.7794416712" lon="9.05315833673">
		<tag k="name" v="Vombe" />
		<tag k="place" v="islet" />
		<tag k="ssr:stedsnr" v="284385" />
	</node>
	<node id="-367089" lat="61.873088889" lon="8.95918612051">
		<tag k="name" v="Skardtjønne" />
		<tag k="natural" v="water" />
		<tag k="ssr:stedsnr" v="284063" />
	</node>
	<node id="-367085" lat="61.8039277745" lon="9.01361945154">
		<tag k="alt_name" v="Lomtjønne" />
		<tag k="name" v="Lomtjørni" />
		<tag k="natural" v="water" />
		<tag k="ssr:stedsnr" v="174505" />
	</node>
	<node id="-367082" lat="61.7181833357" lon="8.96691111671">
		<tag k="name" v="Gammelstugubekken" />
		<tag k="ssr:stedsnr" v="282243" />
		<tag k="waterway" v="stream" />
	</node>
	<node id="-367068" lat="61.9040333371" lon="9.08656665972">
		<tag k="name" v="Vista" />
		<tag k="ssr:stedsnr" v="162014" />
		<tag k="waterway" v="stream" />
	</node>
	<node id="-367055" lat="61.995366671" lon="8.93032221457">
		<tag k="name" v="Skråbekken" />
		<tag k="ssr:stedsnr" v="132150" />
		<tag k="waterway" v="stream" />
	</node>
	<node id="-367053" lat="61.951644447" lon="9.08025000529">
		<tag k="name" v="Birisjøen" />
>>>>>>> e1d4bc35ff8a6074a6f2e91616a996b547c36f15
		<tag k="natural" v="water" />
		<tag k="ssr:stedsnr" v="616935" />
		<tag k="water" v="lake" />
	</node>
<<<<<<< HEAD
	<node lat="61.53660833448693" lon="9.135686106023966" id="-24671">
		<tag k="name" v="Skinnrevo" />
		<tag k="ssr:stedsnr" v="616866" />
		<tag k="waterway" v="stream" />
	</node>
	<node lat="61.52838333618736" lon="8.895174998500783" id="-24672">
		<tag k="name" v="Brennsvaodden" />
		<tag k="natural" v="cape" />
		<tag k="ssr:stedsnr" v="616868" />
	</node>
	<node lat="61.95572221964927" lon="9.021350008100889" id="-24676">
		<tag k="name" v="Langvatnet" />
=======
	<node id="-367050" lat="61.6731222208" lon="8.81973055923">
		<tag k="name" v="Veo" />
		<tag k="ssr:stedsnr" v="131922" />
		<tag k="waterway" v="river" />
	</node>
	<node id="-367047" lat="61.5268638928" lon="8.87885555748">
		<tag k="name" v="Meneset" />
		<tag k="natural" v="cape" />
		<tag k="ssr:stedsnr" v="131906" />
	</node>
	<node id="-367043" lat="61.6262777801" lon="9.00523611625">
		<tag k="name" v="Eldbuholmen" />
		<tag k="place" v="islet" />
		<tag k="ssr:stedsnr" v="131809" />
	</node>
	<node id="-367041" lat="61.8285861077" lon="9.32980000466">
		<tag k="name" v="Svarttjønne" />
		<tag k="natural" v="water" />
		<tag k="ssr:stedsnr" v="131803" />
	</node>
	<node id="-367033" lat="61.441974999" lon="9.11161666121">
		<tag k="name" v="Guldbergs kjelde" />
		<tag k="place" v="locality" />
		<tag k="ssr:stedsnr" v="129003" />
	</node>
	<node id="-367030" lat="61.5546888913" lon="8.93813889772">
		<tag k="alt_name" v="Sjodalsvatnet, nedre;Nedre Sjodalsvatn" />
		<tag k="name" v="Nedre Sjodalsvatnet" />
>>>>>>> e1d4bc35ff8a6074a6f2e91616a996b547c36f15
		<tag k="natural" v="water" />
		<tag k="ssr:stedsnr" v="617221" />
	</node>
<<<<<<< HEAD
	<node lat="61.977313886929" lon="8.977430557830226" id="-24678">
		<tag k="alt_name" v="Tverråe" />
		<tag k="name" v="Tverråi" />
		<tag k="ssr:stedsnr" v="617270" />
		<tag k="waterway" v="stream" />
	</node>
	<node lat="61.86545278095308" lon="9.101636107626948" id="-24679">
		<tag k="alt_name" v="Sundoddin" />
		<tag k="name" v="Sundodden" />
		<tag k="natural" v="cape" />
		<tag k="ssr:stedsnr" v="617342" />
	</node>
	<node lat="61.53724354241204" lon="8.918370544628656" id="-24687">
		<tag k="name" v="Trollbottvikje" />
		<tag k="natural" v="bay" />
		<tag k="ssr:stedsnr" v="617857" />
	</node>
	<node lat="61.879330558805506" lon="9.226263897063294" id="-24695">
		<tag k="name" v="Spitbekken" />
		<tag k="ssr:stedsnr" v="645901" />
		<tag k="waterway" v="stream" />
	</node>
	<node lat="61.868627777037226" lon="9.155258327446614" id="-24697">
		<tag k="name" v="Jukulbekken" />
		<tag k="ssr:stedsnr" v="645941" />
		<tag k="waterway" v="stream" />
	</node>
	<node lat="61.52821110978926" lon="8.890075001868974" id="-24715">
		<tag k="alt_name" v="Sjodalsvatnet, øvre;Øvre Sjodalsvatn" />
		<tag k="name" v="Øvre Sjodalsvatnet" />
=======
	<node id="-367026" lat="61.8610055566" lon="8.91091388982">
		<tag k="name" v="Ulabekken" />
		<tag k="ssr:stedsnr" v="100064" />
		<tag k="waterway" v="stream" />
	</node>
	<node id="-367023" lat="61.8755083344" lon="9.27499167579">
		<tag k="name" v="Tronddalstjønne" />
		<tag k="natural" v="water" />
		<tag k="ssr:stedsnr" v="253959" />
	</node>
	<node id="-367020" lat="61.9759027821" lon="8.82612778295">
		<tag k="alt_name" v="Gjerdingåi" />
		<tag k="loc_name" v="Gjerdingåa" />
		<tag k="name" v="Gjerdingåe" />
		<tag k="ssr:stedsnr" v="253896" />
		<tag k="waterway" v="river" />
	</node>
	<node id="-367019" lat="61.549611115" lon="8.97429166393">
		<tag k="alt_name" v="Gammelolatjern" />
		<tag k="name" v="Gammelolatjørni" />
		<tag k="natural" v="water" />
		<tag k="ssr:stedsnr" v="253852" />
	</node>
	<node id="-367004" lat="61.7747194443" lon="9.06618055125">
		<tag k="name" v="Lemonsjøen" />
>>>>>>> e1d4bc35ff8a6074a6f2e91616a996b547c36f15
		<tag k="natural" v="water" />
		<tag k="ssr:stedsnr" v="659867" />
		<tag k="water" v="lake" />
	</node>
<<<<<<< HEAD
	<node lat="61.87620555846479" lon="8.863833335164822" id="-24716">
		<tag k="alt_name" v="Teppingen, øvre;Øvre Teppingen" />
		<tag k="name" v="Øvre Teppingje" />
=======
	<node id="-367002" lat="61.7540333306" lon="9.00033888866">
		<tag k="alt_name" v="Dravtjønnbekken" />
		<tag k="name" v="Dravtjørnbekken" />
		<tag k="ssr:stedsnr" v="253444" />
		<tag k="waterway" v="stream" />
	</node>
	<node id="-366998" lat="61.8794249964" lon="9.1658138942">
		<tag k="alt_name" v="Svarttjønne" />
		<tag k="name" v="Svarttjørni" />
>>>>>>> e1d4bc35ff8a6074a6f2e91616a996b547c36f15
		<tag k="natural" v="water" />
		<tag k="ssr:stedsnr" v="660316" />
	</node>
<<<<<<< HEAD
	<node lat="61.79448611137537" lon="9.127855555726601" id="-24718">
		<tag k="name" v="Hølma" />
		<tag k="ssr:stedsnr" v="716541" />
		<tag k="waterway" v="stream" />
	</node>
	<node lat="61.93991110747207" lon="8.985213892916244" id="-24722">
		<tag k="name" v="Kvennhusbekken" />
		<tag k="ssr:stedsnr" v="721348" />
		<tag k="waterway" v="stream" />
	</node>
	<node lat="61.93939909463405" lon="9.168865778934899" id="-24729">
		<tag k="name" v="Øyadalsbekken" />
		<tag k="ssr:stedsnr" v="738145" />
		<tag k="waterway" v="river" />
	</node>
	<node lat="61.832687989839464" lon="9.075406689784721" id="-24737">
		<tag k="alt_name" v="Klonessætertjønne" />
		<tag k="name" v="Klonestjørnin" />
=======
	<node id="-366986" lat="61.7910361112" lon="9.29076110336">
		<tag k="alt_name" v="Søre Liabekken" />
		<tag k="name" v="Liabekken" />
		<tag k="ssr:stedsnr" v="252828" />
		<tag k="waterway" v="stream" />
	</node>
	<node id="-366981" lat="61.5247888914" lon="9.12454444916">
		<tag k="name" v="Gryta" />
		<tag k="ssr:stedsnr" v="252775" />
		<tag k="waterway" v="river" />
	</node>
	<node id="-366977" lat="61.8313694481" lon="8.92606111961">
		<tag k="alt_name" v="Gjæsinggrove" />
		<tag k="name" v="Gjæsinggrovi" />
		<tag k="ssr:stedsnr" v="252438" />
		<tag k="waterway" v="river" />
	</node>
	<node id="-366975" lat="61.8123249976" lon="8.94290277634">
		<tag k="alt_name" v="Lonein" />
		<tag k="name" v="Lonin" />
>>>>>>> e1d4bc35ff8a6074a6f2e91616a996b547c36f15
		<tag k="natural" v="water" />
		<tag k="ssr:stedsnr" v="738477" />
		<tag k="water" v="lake" />
	</node>
<<<<<<< HEAD
	<node lat="61.531819142089326" lon="9.0303327570911" id="-24746">
		<tag k="name" v="Ingulsjøen" />
=======
	<node id="-366973" lat="61.85119167" lon="8.85278332861">
		<tag k="name" v="Vågåvatnet" />
>>>>>>> e1d4bc35ff8a6074a6f2e91616a996b547c36f15
		<tag k="natural" v="water" />
		<tag k="ssr:stedsnr" v="738879" />
		<tag k="water" v="lake" />
	</node>
<<<<<<< HEAD
	<node lat="61.52621666761186" lon="8.8917805628855" id="-24747">
		<tag k="name" v="Brennsvanebban" />
=======
	<node id="-366969" lat="61.4647388845" lon="8.80004999864">
		<tag k="name" v="Varga" />
		<tag k="ssr:stedsnr" v="251781" />
		<tag k="waterway" v="stream" />
	</node>
	<node id="-366959" lat="61.5587250029" lon="8.75933888663">
		<tag k="name" v="Grotodden" />
>>>>>>> e1d4bc35ff8a6074a6f2e91616a996b547c36f15
		<tag k="natural" v="cape" />
		<tag k="ssr:stedsnr" v="738883" />
	</node>
<<<<<<< HEAD
	<node lat="61.72715277774222" lon="8.998783330584436" id="-24748">
		<tag k="alt_name" v="Grjothovdtjørni, øvre;Øvre Grothovdtjønne" />
		<tag k="name" v="Øvre Grjothovdtjørni" />
=======
	<node id="-366951" lat="61.7590888851" lon="8.99547222548">
		<tag k="alt_name" v="Dravtjønne" />
		<tag k="name" v="Dravtjørni" />
>>>>>>> e1d4bc35ff8a6074a6f2e91616a996b547c36f15
		<tag k="natural" v="water" />
		<tag k="ssr:stedsnr" v="738984" />
	</node>
<<<<<<< HEAD
	<node lat="61.97847222469791" lon="9.015186102358335" id="-24751">
		<tag k="alt_name" v="Lefinna, store;Nørdre Lefinna" />
		<tag k="name" v="Store Lefinna" />
		<tag k="ssr:stedsnr" v="739159" />
		<tag k="waterway" v="stream" />
	</node>
	<node lat="61.94369722573365" lon="8.930363888779839" id="-24755">
		<tag k="alt_name" v="Klomsrobekken, s" />
		<tag k="name" v="Søre Klomsrobekken" />
		<tag k="ssr:stedsnr" v="739180" />
		<tag k="waterway" v="stream" />
	</node>
	<node lat="61.85066111494002" lon="9.224855548274018" id="-24770">
		<tag k="name" v="Storsvingen" />
		<tag k="natural" v="cape" />
		<tag k="ssr:stedsnr" v="767866" />
	</node>
	<node lat="61.8700250041534" lon="9.061088882012177" id="-24775">
		<tag k="name" v="Lindalen" />
		<tag k="ssr:stedsnr" v="769230" />
		<tag k="waterway" v="stream" />
	</node>
	<node lat="61.77083611029998" lon="9.090822217495765" id="-24782">
		<tag k="name" v="Skaråbekken" />
		<tag k="ssr:stedsnr" v="769386" />
		<tag k="waterway" v="stream" />
	</node>
	<node lat="61.71408888534271" lon="9.025905560503586" id="-24784">
		<tag k="name" v="Holbekken" />
		<tag k="ssr:stedsnr" v="769476" />
		<tag k="waterway" v="stream" />
	</node>
	<node lat="61.806411112978424" lon="9.129299998979647" id="-24787">
		<tag k="name" v="Skrøgla" />
		<tag k="ssr:stedsnr" v="777539" />
		<tag k="waterway" v="stream" />
	</node>
	<node lat="61.804483335553975" lon="9.150680564688782" id="-24788">
		<tag k="name" v="Heillbekken" />
		<tag k="ssr:stedsnr" v="777543" />
		<tag k="waterway" v="stream" />
	</node>
	<node lat="61.58735000252497" lon="8.930675005118328" id="-24798">
		<tag k="name" v="Nausterøye" />
		<tag k="place" v="islet" />
		<tag k="ssr:stedsnr" v="798761" />
	</node>
	<node lat="61.58380277487537" lon="8.93924999938441" id="-24799">
		<tag k="name" v="Birisjøbekken" />
		<tag k="ssr:stedsnr" v="798762" />
		<tag k="waterway" v="stream" />
	</node>
	<node lat="61.70872777735545" lon="8.946611119097568" id="-24801">
		<tag k="name" v="Nørdre Skridubekken" />
		<tag k="ssr:stedsnr" v="798993" />
		<tag k="waterway" v="stream" />
	</node>
	<node lat="61.72368332971822" lon="8.939861105449246" id="-24803">
		<tag k="name" v="Larsbubekken" />
		<tag k="ssr:stedsnr" v="798973" />
		<tag k="waterway" v="stream" />
	</node>
	<node lat="61.781733336553046" lon="9.189508324573435" id="-24809">
		<tag k="name" v="Vakkerslettbekken" />
		<tag k="ssr:stedsnr" v="799441" />
		<tag k="waterway" v="stream" />
	</node>
	<node lat="61.783738891084106" lon="9.046313895646971" id="-24811">
		<tag k="name" v="Kolbeint" />
=======
	<node id="-366942" lat="61.5651916678" lon="8.96380000831">
		<tag k="name" v="Birisjøen" />
		<tag k="natural" v="water" />
		<tag k="ssr:stedsnr" v="70807" />
		<tag k="water" v="lake" />
	</node>
	<node id="-366941" lat="61.4932833362" lon="8.68007499494">
		<tag k="name" v="Gjende" />
		<tag k="natural" v="water" />
		<tag k="ssr:stedsnr" v="69801" />
		<tag k="water" v="lake" />
	</node>
	<node id="-366940" lat="61.9328055568" lon="8.95982500503">
		<tag k="name" v="Einstubekken" />
		<tag k="ssr:stedsnr" v="54359" />
		<tag k="waterway" v="stream" />
	</node>
	<node id="-366939" lat="61.5286388887" lon="8.89677499493">
		<tag k="name" v="Breinnsvavika" />
		<tag k="natural" v="bay" />
		<tag k="ssr:stedsnr" v="53613" />
	</node>
	<node id="-366937" lat="61.7877472247" lon="9.17928610791">
		<tag k="name" v="Svartbekken" />
		<tag k="ssr:stedsnr" v="50956" />
		<tag k="waterway" v="stream" />
	</node>
	<node id="-366936" lat="61.8243472182" lon="8.8898722295">
		<tag k="name" v="Lomtjønne" />
		<tag k="natural" v="water" />
		<tag k="ssr:stedsnr" v="236457" />
	</node>
	<node id="-366927" lat="61.8500861148" lon="8.9917861044">
		<tag k="name" v="Øygardsbekken" />
		<tag k="ssr:stedsnr" v="41105" />
		<tag k="waterway" v="stream" />
	</node>
	<node id="-366915" lat="61.8187499964" lon="9.27221666887">
		<tag k="name" v="Holmen" />
		<tag k="place" v="islet" />
		<tag k="ssr:stedsnr" v="223918" />
	</node>
	<node id="-366914" lat="61.8218361141" lon="9.27384166143">
		<tag k="name" v="Nauthåmåren" />
		<tag k="natural" v="cape" />
		<tag k="ssr:stedsnr" v="223899" />
	</node>
	<node id="-366910" lat="61.9349472188" lon="9.00399166076">
		<tag k="name" v="Tattelarsbekken" />
		<tag k="ssr:stedsnr" v="223545" />
		<tag k="waterway" v="stream" />
	</node>
	<node id="-366899" lat="61.8083777782" lon="9.07047499242">
		<tag k="name" v="Kvitingsbekken" />
		<tag k="ssr:stedsnr" v="223182" />
		<tag k="waterway" v="stream" />
	</node>
	<node id="-366894" lat="61.8359643405" lon="9.06967837093">
		<tag k="name" v="Tvætjønnin" />
		<tag k="natural" v="water" />
		<tag k="ssr:stedsnr" v="223129" />
		<tag k="water" v="lake" />
	</node>
	<node id="-366882" lat="61.9523126883" lon="9.05431167165">
		<tag k="alt_name" v="Buvatnet" />
		<tag k="name" v="Buavatnet" />
		<tag k="natural" v="water" />
		<tag k="ssr:stedsnr" v="11117" />
		<tag k="water" v="lake" />
	</node>
	<node id="-366881" lat="61.7923055567" lon="8.9626222151">
		<tag k="alt_name" v="Langøyddin" />
		<tag k="name" v="Langodden" />
>>>>>>> e1d4bc35ff8a6074a6f2e91616a996b547c36f15
		<tag k="natural" v="cape" />
		<tag k="ssr:stedsnr" v="799449" />
	</node>
<<<<<<< HEAD
	<node lat="61.80766666825813" lon="9.091466666590945" id="-24812">
		<tag k="name" v="Odden" />
		<tag k="natural" v="cape" />
		<tag k="ssr:stedsnr" v="799452" />
	</node>
	<node lat="61.81543888486053" lon="9.118533327213065" id="-24818">
		<tag k="alt_name" v="Kjøpangertjønne" />
		<tag k="name" v="Kjøpangertjørnin" />
=======
	<node id="-366880" lat="61.5412638903" lon="8.66353611449">
		<tag k="name" v="Sundodden" />
		<tag k="natural" v="cape" />
		<tag k="ssr:stedsnr" v="10940" />
	</node>
	<node id="-366878" lat="61.554583335" lon="8.80306667533">
		<tag k="name" v="Russa" />
		<tag k="ssr:stedsnr" v="10937" />
		<tag k="waterway" v="river" />
	</node>
	<node id="-366877" lat="61.5036499994" lon="8.67311666425">
		<tag k="name" v="Bjørnbøltjønne" />
>>>>>>> e1d4bc35ff8a6074a6f2e91616a996b547c36f15
		<tag k="natural" v="water" />
		<tag k="ssr:stedsnr" v="799464" />
		<tag k="water" v="lake" />
	</node>
<<<<<<< HEAD
	<node lat="61.8265416677169" lon="9.336536120220424" id="-24823">
		<tag k="name" v="Veslsvarttjønne" />
		<tag k="natural" v="water" />
		<tag k="ssr:stedsnr" v="799800" />
	</node>
	<node lat="61.606688885940166" lon="9.006402772489613" id="-24826">
		<tag k="alt_name" v="Veslesala" />
		<tag k="name" v="Vetl-Sala" />
		<tag k="ssr:stedsnr" v="799819" />
		<tag k="waterway" v="stream" />
	</node>
	<node lat="61.81616111273627" lon="9.051333328119034" id="-24854">
		<tag k="name" v="Stårrtjønne" />
		<tag k="natural" v="water" />
		<tag k="ssr:stedsnr" v="830162" />
	</node>
	<node lat="61.808691665967274" lon="9.339186102857816" id="-24862">
		<tag k="name" v="Jukulbekken" />
		<tag k="ssr:stedsnr" v="838661" />
		<tag k="waterway" v="stream" />
	</node>
	<node lat="61.909377775804025" lon="8.97211667326464" id="-24864">
		<tag k="name" v="Djupdalsbekken" />
		<tag k="ssr:stedsnr" v="843368" />
		<tag k="waterway" v="stream" />
	</node>
	<node lat="61.48751111010762" lon="8.82498334166672" id="-24869">
		<tag k="alt_name" v="Kråkehølen" />
		<tag k="name" v="Kråkåhølen" />
		<tag k="place" v="locality" />
		<tag k="ssr:stedsnr" v="858798" />
	</node>
	<node lat="61.81635833404498" lon="8.942116671225117" id="-24872">
		<tag k="name" v="Uksfossen" />
		<tag k="natural" v="waterfall" />
		<tag k="ssr:stedsnr" v="859439" />
	</node>
	<node lat="61.81086666917361" lon="9.014836109820953" id="-24873">
=======
	<node id="-366872" lat="61.57243889" lon="8.94925556309">
		<tag k="name" v="Øvre Birisjøtjønne" />
		<tag k="natural" v="water" />
		<tag k="ssr:stedsnr" v="10829" />
	</node>
	<node id="-366869" lat="61.6175944455" lon="8.99421389686">
		<tag k="name" v="Ormehølen" />
		<tag k="place" v="locality" />
		<tag k="ssr:stedsnr" v="10807" />
	</node>
	<node id="-366864" lat="61.7684555533" lon="9.04079444108">
		<tag k="alt_name" v="Hesthaugtjønnbekken" />
		<tag k="name" v="Hesthaugtjørnbekken" />
		<tag k="ssr:stedsnr" v="10405" />
		<tag k="waterway" v="stream" />
	</node>
	<node id="-368778" lat="61.7954777802" lon="9.12850555675">
		<tag k="name" v="Langøyddin" />
		<tag k="natural" v="cape" />
		<tag k="ssr:stedsnr" v="959510" />
	</node>
	<node id="-368757" lat="61.8921583299" lon="9.2510250089">
		<tag k="alt_name" v="Ådalsbekken" />
		<tag k="name" v="Holungen" />
		<tag k="ssr:stedsnr" v="860983" />
		<tag k="waterway" v="stream" />
	</node>
	<node id="-368756" lat="61.5452083364" lon="8.66975000056">
		<tag k="name" v="Russvatnet" />
		<tag k="natural" v="water" />
		<tag k="ssr:stedsnr" v="860952" />
		<tag k="water" v="lake" />
	</node>
	<node id="-368742" lat="61.7656070469" lon="9.02644985636">
		<tag k="alt_name" v="Hesthaugtjønne" />
		<tag k="name" v="Hesthaugtjørni" />
		<tag k="natural" v="water" />
		<tag k="ssr:stedsnr" v="860478" />
	</node>
	<node id="-368723" lat="61.8108666692" lon="9.01483610982">
>>>>>>> e1d4bc35ff8a6074a6f2e91616a996b547c36f15
		<tag k="alt_name" v="Hånåtjønne" />
		<tag k="name" v="Hånåtjørni" />
		<tag k="natural" v="water" />
		<tag k="ssr:stedsnr" v="859442" />
	</node>
<<<<<<< HEAD
	<node lat="61.88822221865072" lon="8.881544439013759" id="-24886">
		<tag k="name" v="Diprtjørni" />
		<tag k="natural" v="water" />
		<tag k="ssr:stedsnr" v="860420" />
	</node>
	<node lat="61.618200001836875" lon="9.025600007403565" id="-24893">
		<tag k="alt_name" v="Storsala" />
		<tag k="name" v="Stor-Sala" />
		<tag k="ssr:stedsnr" v="860810" />
		<tag k="waterway" v="river" />
	</node>
	<node lat="61.545208336418604" lon="8.669750000555227" id="-24900">
		<tag k="name" v="Russvatnet" />
		<tag k="natural" v="water" />
		<tag k="ssr:stedsnr" v="860952" />
		<tag k="water" v="lake" />
	</node>
	<node lat="61.8921583298752" lon="9.25102500890296" id="-24903">
		<tag k="alt_name" v="Ådalsbekken" />
		<tag k="name" v="Holungen" />
		<tag k="ssr:stedsnr" v="860983" />
		<tag k="waterway" v="stream" />
	</node>
	<node lat="61.88401389278538" lon="9.072252783749471" id="-24917">
		<tag k="name" v="Håkåstadbekken" />
		<tag k="ssr:stedsnr" v="949038" />
		<tag k="waterway" v="stream" />
	</node>
	<node lat="61.77071388913039" lon="8.969280552210403" id="-24920">
		<tag k="name" v="Veslkastet" />
		<tag k="natural" v="cape" />
		<tag k="ssr:stedsnr" v="949314" />
=======
	<node id="-368722" lat="61.816358334" lon="8.94211667123">
		<tag k="name" v="Uksfossen" />
		<tag k="natural" v="waterfall" />
		<tag k="ssr:stedsnr" v="859439" />
	</node>
	<node id="-368719" lat="61.4875111101" lon="8.82498334167">
		<tag k="alt_name" v="Kråkåhølen" />
		<tag k="name" v="Kråkehølen" />
		<tag k="place" v="locality" />
		<tag k="ssr:stedsnr" v="858798" />
	</node>
	<node id="-368710" lat="61.9093777758" lon="8.97211667326">
		<tag k="name" v="Djupdalsbekken" />
		<tag k="ssr:stedsnr" v="843368" />
		<tag k="waterway" v="stream" />
	</node>
	<node id="-368706" lat="61.808691666" lon="9.33918610286">
		<tag k="name" v="Jukulbekken" />
		<tag k="ssr:stedsnr" v="838661" />
		<tag k="waterway" v="stream" />
	</node>
	<node id="-368697" lat="61.8047111071" lon="9.02635834055">
		<tag k="name" v="Storvikje" />
		<tag k="natural" v="bay" />
		<tag k="ssr:stedsnr" v="830166" />
	</node>
	<node id="-368696" lat="61.8161611127" lon="9.05133332812">
		<tag k="name" v="Stårrtjønne" />
		<tag k="natural" v="water" />
		<tag k="ssr:stedsnr" v="830162" />
	</node>
	<node id="-368671" lat="62.0183000008" lon="8.97600555514">
		<tag k="name" v="Svarthåmårtjønne" />
		<tag k="natural" v="water" />
		<tag k="ssr:stedsnr" v="800525" />
	</node>
	<node id="-368669" lat="61.8716499998" lon="9.1632583368">
		<tag k="name" v="Kråksand" />
		<tag k="place" v="islet" />
		<tag k="ssr:stedsnr" v="800322" />
	</node>
	<node id="-368666" lat="61.5304527778" lon="8.82239999879">
		<tag k="name" v="Besstjønnin" />
		<tag k="natural" v="water" />
		<tag k="ssr:stedsnr" v="799939" />
		<tag k="water" v="lake" />
	</node>
	<node id="-368665" lat="61.5212249968" lon="8.82611111053">
		<tag k="name" v="Bessa" />
		<tag k="ssr:stedsnr" v="799938" />
		<tag k="waterway" v="river" />
	</node>
	<node id="-368664" lat="61.5129611107" lon="8.59938889553">
		<tag k="name" v="Glopåe" />
		<tag k="ssr:stedsnr" v="799936" />
		<tag k="waterway" v="stream" />
	</node>
	<node id="-368662" lat="61.8072250035" lon="9.36763055909">
		<tag k="name" v="Bergetjønne" />
		<tag k="natural" v="water" />
		<tag k="ssr:stedsnr" v="799902" />
	</node>
	<node id="-368659" lat="61.6851750005" lon="9.12739999303">
		<tag k="name" v="Estenhølen" />
		<tag k="place" v="locality" />
		<tag k="ssr:stedsnr" v="799994" />
	</node>
	<node id="-368655" lat="61.6066888859" lon="9.00640277249">
		<tag k="alt_name" v="Veslesala" />
		<tag k="name" v="Vetl-Sala" />
		<tag k="ssr:stedsnr" v="799819" />
		<tag k="waterway" v="stream" />
	</node>
	<node id="-368652" lat="61.8265416677" lon="9.33653612022">
		<tag k="name" v="Veslsvarttjønne" />
		<tag k="natural" v="water" />
		<tag k="ssr:stedsnr" v="799800" />
	</node>
	<node id="-368648" lat="61.8106972202" lon="9.00191389406">
		<tag k="alt_name" v="Gårrklopptjønne" />
		<tag k="name" v="Gorrklopptjørni" />
		<tag k="natural" v="water" />
		<tag k="ssr:stedsnr" v="799488" />
	</node>
	<node id="-368647" lat="61.8137749972" lon="8.98988333276">
		<tag k="alt_name" v="Grove" />
		<tag k="name" v="Grovi" />
		<tag k="ssr:stedsnr" v="799487" />
		<tag k="waterway" v="river" />
	</node>
	<node id="-368644" lat="61.8154388849" lon="9.11853332721">
		<tag k="alt_name" v="Kjøpangertjønne" />
		<tag k="name" v="Kjøpangertjørnin" />
		<tag k="natural" v="water" />
		<tag k="ssr:stedsnr" v="799464" />
		<tag k="water" v="lake" />
	</node>
	<node id="-368642" lat="61.8076666683" lon="9.09146666659">
		<tag k="name" v="Odden" />
		<tag k="natural" v="cape" />
		<tag k="ssr:stedsnr" v="799452" />
	</node>
	<node id="-368641" lat="61.7837388911" lon="9.04631389565">
		<tag k="name" v="Kolbeint" />
		<tag k="natural" v="cape" />
		<tag k="ssr:stedsnr" v="799449" />
>>>>>>> e1d4bc35ff8a6074a6f2e91616a996b547c36f15
	</node>
</osm>
