<?xml version="1.0" encoding="UTF-8"?>
<osm version="0.6" generator="osmapis">
	<node lat="61.857213888779036" lon="9.18691666584317" id="-37936">
		<tag k="fixme" v="consider place=hamlet" />
		<tag k="name" v="Sjårdalen" />
		<tag k="place" v="village" />
		<tag k="ssr:stedsnr" v="10296" />
	</node>
	<node lat="61.86267499925054" lon="9.114602772652779" id="-37937">
		<tag k="alt_name" v="Haugen" />
		<tag k="name" v="Hagen" />
		<tag k="place" v="farm" />
		<tag k="ssr:stedsnr" v="10302" />
	</node>
	<node lat="61.86598333749993" lon="9.123288893758627" id="-37938">
		<tag k="alt_name" v="Stein, øvre" />
		<tag k="name" v="Øvre Stein" />
		<tag k="place" v="farm" />
		<tag k="ssr:stedsnr" v="10304" />
	</node>
	<node lat="61.72601944852051" lon="8.959825003793343" id="-37952">
		<tag k="historic" v="shieling" />
		<tag k="name" v="Larsbusætre" />
		<tag k="place" v="isolated_dwelling" />
		<tag k="ssr:stedsnr" v="10978" />
	</node>
	<node lat="61.798005559497476" lon="9.303133331417646" id="-37958">
		<tag k="name" v="Sørhaugen" />
		<tag k="place" v="locality" />
		<tag k="ssr:stedsnr" v="231723" />
	</node>
	<node lat="61.82218333304793" lon="9.258463896938789" id="-37959">
		<tag k="name" v="Teigen" />
		<tag k="place" v="farm" />
		<tag k="ssr:stedsnr" v="231926" />
	</node>
	<node lat="61.836166662428106" lon="9.273858336491976" id="-37962">
		<tag k="name" v="Søre Enge" />
		<tag k="place" v="farm" />
		<tag k="ssr:stedsnr" v="36567" />
	</node>
	<node lat="61.86603842096202" lon="9.114864598314522" id="-37969">
		<tag k="name" v="Høystad" />
		<tag k="place" v="farm" />
		<tag k="ssr:stedsnr" v="39924" />
	</node>
	<node lat="61.883622226295806" lon="9.105344436022627" id="-37972">
		<tag k="name" v="Nørdre Øygarden" />
		<tag k="place" v="farm" />
		<tag k="ssr:stedsnr" v="41070" />
	</node>
	<node lat="61.79326110744508" lon="9.34350556159171" id="-37975">
		<tag k="name" v="Søre Sørlien" />
		<tag k="place" v="farm" />
		<tag k="ssr:stedsnr" v="49687" />
	</node>
	<node lat="61.722995965111" lon="9.049643080153633" id="-37986">
		<tag k="alt_name" v="Øyasætre" />
		<tag k="historic" v="shieling" />
		<tag k="name" v="Øyasætri" />
		<tag k="place" v="isolated_dwelling" />
		<tag k="ssr:stedsnr" v="70986" />
	</node>
	<node lat="61.92464721777415" lon="9.012683338893751" id="-37989">
		<tag k="alt_name" v="Borgasætre" />
		<tag k="historic" v="shieling" />
		<tag k="name" v="Borgasætri" />
		<tag k="place" v="isolated_dwelling" />
		<tag k="ssr:stedsnr" v="71169" />
	</node>
	<node lat="61.92387500368374" lon="9.18625555327685" id="-37990">
		<tag k="historic" v="shieling" />
		<tag k="name" v="Jettsætri" />
		<tag k="place" v="isolated_dwelling" />
		<tag k="ssr:stedsnr" v="71177" />
	</node>
	<node lat="61.779511110083284" lon="9.085088881551783" id="-37997">
		<tag k="alt_name" v="Voldheimsætre" />
		<tag k="historic" v="shieling" />
		<tag k="name" v="Vollheimsætri" />
		<tag k="place" v="isolated_dwelling" />
		<tag k="ssr:stedsnr" v="71443" />
	</node>
	<node lat="61.84099662826927" lon="9.276442781873094" id="-38001">
		<tag k="alt_name" v="Bjørnstad, øvre" />
		<tag k="fixme" v="consider place=hamlet" />
		<tag k="name" v="Øvre Bjørnstad" />
		<tag k="place" v="farm" />
		<tag k="ssr:stedsnr" v="71821" />
	</node>
	<node lat="61.86716388753372" lon="9.22031945264136" id="-38010">
		<tag k="name" v="Urdslette" />
		<tag k="place" v="farm" />
		<tag k="ssr:stedsnr" v="71984" />
	</node>
	<node lat="61.956861110598794" lon="9.034086115817477" id="-38012">
		<tag k="alt_name" v="Holesætrin" />
		<tag k="historic" v="shieling" />
		<tag k="name" v="Holesætri" />
		<tag k="place" v="isolated_dwelling" />
		<tag k="ssr:stedsnr" v="72178" />
	</node>
	<node lat="61.89278888782824" lon="9.042949993219562" id="-38015">
		<tag k="name" v="Nordpå Svare" />
		<tag k="place" v="farm" />
		<tag k="ssr:stedsnr" v="100015" />
	</node>
	<node lat="61.89261388476583" lon="9.0533499960273" id="-38016">
		<tag k="name" v="Hude" />
		<tag k="place" v="farm" />
		<tag k="ssr:stedsnr" v="100025" />
	</node>
	<node lat="61.86834444856321" lon="9.216538884520746" id="-38018">
		<tag k="name" v="Nørdre Ulsletten" />
		<tag k="place" v="isolated_dwelling" />
		<tag k="ssr:stedsnr" v="100712" />
	</node>
	<node lat="61.797824998806576" lon="9.021513889068787" id="-38022">
		<tag k="name" v="Pålstugusætre" />
		<tag k="place" v="isolated_dwelling" />
		<tag k="ssr:stedsnr" v="102224" />
	</node>
	<node lat="61.82107222483461" lon="9.276666672591503" id="-38025">
		<tag k="name" v="Veslfetlykkja" />
		<tag k="place" v="isolated_dwelling" />
		<tag k="ssr:stedsnr" v="102891" />
	</node>
	<node lat="61.81661020237409" lon="9.262801411959957" id="-38026">
		<tag k="name" v="Jesper" />
		<tag k="place" v="farm" />
		<tag k="ssr:stedsnr" v="102910" />
	</node>
	<node lat="61.545269442569676" lon="8.942444451877952" id="-38029">
		<tag k="historic" v="shieling" />
		<tag k="name" v="Pullen" />
		<tag k="place" v="isolated_dwelling" />
		<tag k="ssr:stedsnr" v="106725" />
	</node>
	<node lat="61.82797778161763" lon="9.261816657713506" id="-38030">
		<tag k="name" v="Dokken" />
		<tag k="place" v="farm" />
		<tag k="ssr:stedsnr" v="109909" />
	</node>
	<node lat="61.79873055464019" lon="9.337816664317064" id="-38033">
		<tag k="name" v="Furuheim" />
		<tag k="place" v="farm" />
		<tag k="ssr:stedsnr" v="110688" />
	</node>
	<node lat="61.79992777794819" lon="9.322966668064169" id="-38034">
		<tag k="name" v="Lauvrusten" />
		<tag k="place" v="farm" />
		<tag k="ssr:stedsnr" v="110691" />
	</node>
	<node lat="61.81686944030523" lon="9.043608333718854" id="-38049">
		<tag k="alt_name" v="Ripstrondsætre" />
		<tag k="historic" v="shieling" />
		<tag k="name" v="Ripstrondsætri" />
		<tag k="place" v="isolated_dwelling" />
		<tag k="ssr:stedsnr" v="252431" />
	</node>
	<node lat="61.85624267214331" lon="9.048319711329535" id="-38055">
		<tag k="alt_name" v="Strond, midtre;Strond;Me-Strond" />
		<tag k="name" v="Midtre Strond" />
		<tag k="place" v="farm" />
		<tag k="ssr:stedsnr" v="131284" />
	</node>
	<node lat="61.8532861106284" lon="9.026075007477624" id="-38056">
		<tag k="alt_name" v="Ringnes, nedre" />
		<tag k="name" v="Nørdre Ringneset" />
		<tag k="place" v="farm" />
		<tag k="ssr:stedsnr" v="131286" />
	</node>
	<node lat="61.86119262878487" lon="8.924340253748467" id="-38057">
		<tag k="alt_name" v="Heggjeruste" />
		<tag k="name" v="Heggerusti" />
		<tag k="place" v="farm" />
		<tag k="ssr:stedsnr" v="131289" />
	</node>
	<node lat="61.85812192057786" lon="8.888825589801298" id="-38058">
		<tag k="alt_name" v="Trælvikje" />
		<tag k="fixme" v="consider place=hamlet" />
		<tag k="name" v="Trælviki" />
		<tag k="place" v="farm" />
		<tag k="ssr:stedsnr" v="131291" />
	</node>
	<node lat="61.85883888687217" lon="8.879949991570092" id="-38059">
		<tag k="name" v="Trolldalen" />
		<tag k="place" v="farm" />
		<tag k="ssr:stedsnr" v="131293" />
	</node>
	<node lat="61.79941389010696" lon="9.171522222116922" id="-38060">
		<tag k="historic" v="shieling" />
		<tag k="name" v="Rottemsætri" />
		<tag k="place" v="isolated_dwelling" />
		<tag k="ssr:stedsnr" v="131418" />
	</node>
	<node lat="61.760227940316994" lon="9.123679435353267" id="-38061">
		<tag k="alt_name" v="Slomma" />
		<tag k="historic" v="shieling" />
		<tag k="name" v="Slomba" />
		<tag k="place" v="isolated_dwelling" />
		<tag k="ssr:stedsnr" v="131371" />
	</node>
	<node lat="61.831286110170325" lon="9.258019446574474" id="-38064">
		<tag k="name" v="Barhaugen" />
		<tag k="place" v="farm" />
		<tag k="ssr:stedsnr" v="131808" />
	</node>
	<node lat="61.6236000009284" lon="8.993727772455431" id="-38066">
		<tag k="name" v="Steinholhytta" />
		<tag k="place" v="isolated_dwelling" />
		<tag k="ssr:stedsnr" v="131810" />
	</node>
	<node lat="61.61926389263212" lon="8.958863883115646" id="-38067">
		<tag k="historic" v="shieling" />
		<tag k="name" v="Hindsætrin" />
		<tag k="place" v="isolated_dwelling" />
		<tag k="ssr:stedsnr" v="131818" />
	</node>
	<node lat="61.54989166586388" lon="8.990227768474696" id="-38073">
		<tag k="historic" v="shieling" />
		<tag k="name" v="Kampen" />
		<tag k="place" v="isolated_dwelling" />
		<tag k="ssr:stedsnr" v="131882" />
	</node>
	<node lat="61.679674997078884" lon="9.057808341264616" id="-38075">
		<tag k="name" v="Rusneslykkja" />
		<tag k="place" v="locality" />
		<tag k="ssr:stedsnr" v="131767" />
	</node>
	<node lat="61.8109694462087" lon="9.246272224201656" id="-38077">
		<tag k="historic" v="shieling" />
		<tag k="name" v="Rindsætre" />
		<tag k="place" v="isolated_dwelling" />
		<tag k="ssr:stedsnr" v="131770" />
	</node>
	<node lat="61.823374996584256" lon="9.288119445679511" id="-38081">
		<tag k="name" v="Kolstad" />
		<tag k="place" v="farm" />
		<tag k="ssr:stedsnr" v="131789" />
	</node>
	<node lat="61.79890481833975" lon="9.333772064102833" id="-38085">
		<tag k="fixme" v="consider place=hamlet" />
		<tag k="name" v="Nerlie" />
		<tag k="place" v="farm" />
		<tag k="ssr:stedsnr" v="131913" />
	</node>
	<node lat="61.73082500342025" lon="9.074255561255523" id="-38087">
		<tag k="name" v="Sæta" />
		<tag k="place" v="farm" />
		<tag k="ssr:stedsnr" v="131970" />
	</node>
	<node lat="61.86913888992366" lon="8.920324993612816" id="-38093">
		<tag k="alt_name" v="Nistingen, nordre" />
		<tag k="historic" v="shieling" />
		<tag k="name" v="Nørdre Nistingen" />
		<tag k="place" v="isolated_dwelling" />
		<tag k="ssr:stedsnr" v="132310" />
	</node>
	<node lat="61.87451720308616" lon="9.060704959694405" id="-38096">
		<tag k="alt_name" v="Kvarberg" />
		<tag k="name" v="Nigard Kvarberg" />
		<tag k="place" v="farm" />
		<tag k="ssr:stedsnr" v="132319" />
	</node>
	<node lat="61.57279166981071" lon="8.924863895084492" id="-38101">
		<tag k="name" v="Russtangen" />
		<tag k="place" v="isolated_dwelling" />
		<tag k="ssr:stedsnr" v="252801" />
	</node>
	<node lat="61.72545277671715" lon="8.95401666508754" id="-38106">
		<tag k="name" v="Larsbue" />
		<tag k="place" v="isolated_dwelling" />
		<tag k="ssr:stedsnr" v="252973" />
	</node>
	<node lat="61.9240361125312" lon="8.993905554526524" id="-38107">
		<tag k="alt_name" v="Brennslette" />
		<tag k="name" v="Brennsletta" />
		<tag k="place" v="farm" />
		<tag k="ssr:stedsnr" v="253176" />
	</node>
	<node lat="61.86144986902747" lon="9.005774077689445" id="-38109">
		<tag k="fixme" v="consider place=hamlet" />
		<tag k="name" v="Sande" />
		<tag k="place" v="farm" />
		<tag k="ssr:stedsnr" v="253348" />
	</node>
	<node lat="61.866722218845275" lon="9.142841660267283" id="-38111">
		<tag k="name" v="Nyheim" />
		<tag k="place" v="farm" />
		<tag k="ssr:stedsnr" v="253376" />
	</node>
	<node lat="61.8839338639212" lon="9.138153233647717" id="-38113">
		<tag k="alt_name" v="Søre Vassdokken" />
		<tag k="loc_name" v="Vassdokkje" />
		<tag k="name" v="Vassdokki" />
		<tag k="place" v="farm" />
		<tag k="ssr:stedsnr" v="253404" />
	</node>
	<node lat="61.86626666543522" lon="9.140777784301903" id="-38115">
		<tag k="name" v="Skoglund" />
		<tag k="place" v="farm" />
		<tag k="ssr:stedsnr" v="253374" />
	</node>
	<node lat="61.75808333710969" lon="9.070311114385023" id="-38117">
		<tag k="historic" v="shieling" />
		<tag k="name" v="Kalven" />
		<tag k="place" v="isolated_dwelling" />
		<tag k="ssr:stedsnr" v="253445" />
	</node>
	<node lat="61.891457527048246" lon="9.048351951452071" id="-38118">
		<tag k="name" v="Svare" />
		<tag k="place" v="hamlet" />
		<tag k="ssr:stedsnr" v="253421" />
	</node>
	<node lat="61.80527777562818" lon="9.190736108704987" id="-38119">
		<tag k="alt_name" v="Staesætre" />
		<tag k="historic" v="shieling" />
		<tag k="name" v="Staisætri" />
		<tag k="place" v="isolated_dwelling" />
		<tag k="ssr:stedsnr" v="253489" />
	</node>
	<node lat="61.80614166366297" lon="9.18770554931185" id="-38120">
		<tag k="historic" v="shieling" />
		<tag k="name" v="Veslbråtåsætri" />
		<tag k="place" v="isolated_dwelling" />
		<tag k="ssr:stedsnr" v="253490" />
	</node>
	<node lat="61.77321185742839" lon="9.051714224134681" id="-38122">
		<tag k="alt_name" v="Nordigard Valdesætre" />
		<tag k="historic" v="shieling" />
		<tag k="name" v="Nordigard Vellesætri" />
		<tag k="place" v="isolated_dwelling" />
		<tag k="ssr:stedsnr" v="253463" />
	</node>
	<node lat="61.77203392949812" lon="9.053997865269205" id="-38123">
		<tag k="historic" v="shieling" />
		<tag k="name" v="Vellesætri" />
		<tag k="place" v="isolated_dwelling" />
		<tag k="ssr:stedsnr" v="253468" />
	</node>
	<node lat="61.78026666900529" lon="9.170394443321639" id="-38124">
		<tag k="historic" v="shieling" />
		<tag k="loc_name" v="Staisætre" />
		<tag k="name" v="Staisætri" />
		<tag k="place" v="isolated_dwelling" />
		<tag k="ssr:stedsnr" v="253474" />
	</node>
	<node lat="61.61355277917588" lon="8.96617499871057" id="-38126">
		<tag k="historic" v="shieling" />
		<tag k="name" v="Løken" />
		<tag k="place" v="isolated_dwelling" />
		<tag k="ssr:stedsnr" v="253815" />
	</node>
	<node lat="61.84678333263691" lon="8.951330547197651" id="-38135">
		<tag k="fixme" v="consider place=hamlet" />
		<tag k="name" v="Sygard Storrvik" />
		<tag k="place" v="farm" />
		<tag k="ssr:stedsnr" v="162110" />
	</node>
	<node lat="61.84830277563926" lon="8.96206945162831" id="-38136">
		<tag k="name" v="Nørdre Tessand" />
		<tag k="place" v="farm" />
		<tag k="ssr:stedsnr" v="162112" />
	</node>
	<node lat="61.847402774121186" lon="8.981175007387419" id="-38137">
		<tag k="name" v="Nedre Runningen" />
		<tag k="place" v="farm" />
		<tag k="ssr:stedsnr" v="162120" />
	</node>
	<node lat="61.9043194457944" lon="9.00261389721722" id="-38138">
		<tag k="name" v="Synstenghaugen" />
		<tag k="place" v="farm" />
		<tag k="ssr:stedsnr" v="162003" />
	</node>
	<node lat="61.86724722347196" lon="8.988969441629598" id="-38140">
		<tag k="name" v="Bergjehaugen" />
		<tag k="place" v="farm" />
		<tag k="ssr:stedsnr" v="162063" />
	</node>
	<node lat="61.81593523492866" lon="9.265768161455075" id="-38141">
		<tag k="name" v="Jesperplassen" />
		<tag k="place" v="farm" />
		<tag k="ssr:stedsnr" v="162909" />
	</node>
	<node lat="61.61774444088352" lon="8.968000008061427" id="-38147">
		<tag k="name" v="Hindsæter" />
		<tag k="old_name" v="Hindsæter Fjellhotell;Hindsætri" />
		<tag k="ssr:stedsnr" v="181805" />
		<tag k="tourism" v="hotel" />
	</node>
	<node lat="61.79994689716582" lon="9.291825182788655" id="-38152">
		<tag k="fixme" v="consider place=hamlet" />
		<tag k="name" v="Øverlie" />
		<tag k="place" v="farm" />
		<tag k="ssr:stedsnr" v="204855" />
	</node>
	<node lat="61.895991670249" lon="9.022494436237476" id="-38157">
		<tag k="name" v="Søre Siem" />
		<tag k="place" v="farm" />
		<tag k="ssr:stedsnr" v="221022" />
	</node>
	<node lat="61.87617777612918" lon="9.136591663176812" id="-38158">
		<tag k="name" v="Voldheim" />
		<tag k="place" v="farm" />
		<tag k="ssr:stedsnr" v="221913" />
	</node>
	<node lat="61.860563888483455" lon="8.971816673987826" id="-38164">
		<tag k="name" v="Nedre Sveum" />
		<tag k="place" v="farm" />
		<tag k="ssr:stedsnr" v="223087" />
	</node>
	<node lat="61.8595222213582" lon="9.07290278186964" id="-38165">
		<tag k="name" v="Blankenborg" />
		<tag k="place" v="farm" />
		<tag k="ssr:stedsnr" v="223230" />
	</node>
	<node lat="61.810752774649366" lon="9.035741666462743" id="-38168">
		<tag k="historic" v="shieling" />
		<tag k="name" v="Gudsfredholet" />
		<tag k="place" v="isolated_dwelling" />
		<tag k="ssr:stedsnr" v="223186" />
	</node>
	<node lat="61.87318055815092" lon="9.204352775356233" id="-38170">
		<tag k="name" v="Søre Myrom" />
		<tag k="place" v="farm" />
		<tag k="ssr:stedsnr" v="223838" />
	</node>
	<node lat="61.89721388615896" lon="9.041200009034904" id="-38171">
		<tag k="alt_name" v="Galstad" />
		<tag k="name" v="Søre Galstad" />
		<tag k="place" v="farm" />
		<tag k="ssr:stedsnr" v="223842" />
	</node>
	<node lat="61.84541110832777" lon="8.924397222521153" id="-38172">
		<tag k="name" v="Granheim" />
		<tag k="place" v="farm" />
		<tag k="ssr:stedsnr" v="271353" />
	</node>
	<node lat="61.92810555579273" lon="8.950291675855006" id="-38173">
		<tag k="name" v="Einstulen" />
		<tag k="place" v="farm" />
		<tag k="ssr:stedsnr" v="236332" />
	</node>
	<node lat="61.92688928274633" lon="8.979585661022664" id="-38174">
		<tag k="name" v="Øygarden" />
		<tag k="place" v="hamlet" />
		<tag k="ssr:stedsnr" v="236336" />
	</node>
	<node lat="61.849025003827755" lon="8.89642778280941" id="-38175">
		<tag k="name" v="Nørdre Neset" />
		<tag k="place" v="farm" />
		<tag k="ssr:stedsnr" v="453330" />
	</node>
	<node lat="61.86068055145459" lon="9.164169453388654" id="-38177">
		<tag k="alt_name" v="Bråten, nedre;Ner-Bråtån" />
		<tag k="name" v="Nedre Bråten" />
		<tag k="place" v="farm" />
		<tag k="ssr:stedsnr" v="253331" />
	</node>
	<node lat="61.81623611373269" lon="9.237016660099792" id="-38180">
		<tag k="historic" v="shieling" />
		<tag k="name" v="Nysætre" />
		<tag k="place" v="isolated_dwelling" />
		<tag k="ssr:stedsnr" v="253780" />
	</node>
	<node lat="61.81107499588256" lon="9.267974996000598" id="-38181">
		<tag k="name" v="Hovda" />
		<tag k="place" v="farm" />
		<tag k="ssr:stedsnr" v="253783" />
	</node>
	<node lat="61.63610555540013" lon="9.018641658475039" id="-38183">
		<tag k="historic" v="shieling" />
		<tag k="name" v="Borkhus" />
		<tag k="place" v="isolated_dwelling" />
		<tag k="ssr:stedsnr" v="253793" />
	</node>
	<node lat="61.94215502824801" lon="9.00401154322483" id="-38192">
		<tag k="historic" v="shieling" />
		<tag k="name" v="Grønli" />
		<tag k="place" v="isolated_dwelling" />
		<tag k="ssr:stedsnr" v="284015" />
	</node>
	<node lat="61.85968416897219" lon="8.99150338453066" id="-38193">
		<tag k="alt_name" v="Nordigard Seinnes" />
		<tag k="name" v="Nordigard Sandnes" />
		<tag k="place" v="farm" />
		<tag k="ssr:stedsnr" v="284087" />
	</node>
	<node lat="61.82341408618641" lon="9.259997445973562" id="-38199">
		<tag k="name" v="Nedre Kjølstad" />
		<tag k="place" v="farm" />
		<tag k="ssr:stedsnr" v="292925" />
	</node>
	<node lat="61.87297222431007" lon="9.101408337390694" id="-38202">
		<tag k="name" v="Halland" />
		<tag k="place" v="isolated_dwelling" />
		<tag k="ssr:stedsnr" v="463166" />
	</node>
	<node lat="61.89331630153086" lon="9.03447483488507" id="-38205">
		<tag k="name" v="Holen" />
		<tag k="place" v="hamlet" />
		<tag k="ssr:stedsnr" v="464032" />
	</node>
	<node lat="61.866016664050015" lon="9.19897500666541" id="-38206">
		<tag k="name" v="Furumo" />
		<tag k="place" v="farm" />
		<tag k="ssr:stedsnr" v="464747" />
	</node>
	<node lat="61.883377780344055" lon="9.100433324642594" id="-38208">
		<tag k="name" v="Blessomlykkja" />
		<tag k="place" v="farm" />
		<tag k="ssr:stedsnr" v="465037" />
	</node>
	<node lat="61.87779166366464" lon="9.098213893369705" id="-38209">
		<tag k="name" v="Vågå Hotell" />
		<tag k="ssr:stedsnr" v="465040" />
		<tag k="tourism" v="hotel" />
	</node>
	<node lat="61.87926666882912" lon="9.081555556987036" id="-38210">
		<tag k="name" v="Nedre Langskåre" />
		<tag k="place" v="isolated_dwelling" />
		<tag k="ssr:stedsnr" v="465042" />
	</node>
	<node lat="61.88023333478362" lon="9.101083337479725" id="-38211">
		<tag k="name" v="Haugøy" />
		<tag k="place" v="farm" />
		<tag k="ssr:stedsnr" v="465050" />
	</node>
	<node lat="61.8500333377243" lon="9.011288895602364" id="-38213">
		<tag k="name" v="Lande" />
		<tag k="place" v="locality" />
		<tag k="ssr:stedsnr" v="465127" />
	</node>
	<node lat="61.88369999645718" lon="9.13126111119548" id="-38215">
		<tag k="name" v="Skjellum" />
		<tag k="place" v="farm" />
		<tag k="ssr:stedsnr" v="464983" />
	</node>
	<node lat="61.87844166437037" lon="9.152558330111711" id="-38216">
		<tag k="name" v="Søremshaugen" />
		<tag k="place" v="farm" />
		<tag k="ssr:stedsnr" v="464993" />
	</node>
	<node lat="61.857355552489565" lon="8.96841110251186" id="-38217">
		<tag k="name" v="Hansberget" />
		<tag k="place" v="isolated_dwelling" />
		<tag k="ssr:stedsnr" v="465085" />
	</node>
	<node lat="61.765704268192444" lon="9.05670332375732" id="-38220">
		<tag k="name" v="Lego" />
		<tag k="place" v="isolated_dwelling" />
		<tag k="ssr:stedsnr" v="465360" />
	</node>
	<node lat="61.96630000275538" lon="9.00394722008998" id="-38221">
		<tag k="historic" v="shieling" />
		<tag k="name" v="Storhaugen" />
		<tag k="place" v="isolated_dwelling" />
		<tag k="ssr:stedsnr" v="465546" />
	</node>
	<node lat="61.488258337271795" lon="8.84548889394168" id="-38226">
		<tag k="alt_name" v="Maurvangene" />
		<tag k="name" v="Maurvangen" />
		<tag k="place" v="isolated_dwelling" />
		<tag k="ssr:stedsnr" v="311281" />
	</node>
	<node lat="61.860572540851535" lon="8.938013263131761" id="-38227">
		<tag k="alt_name" v="Grevruste" />
		<tag k="fixme" v="consider place=hamlet" />
		<tag k="name" v="Grevrusti" />
		<tag k="place" v="farm" />
		<tag k="ssr:stedsnr" v="313304" />
	</node>
	<node lat="61.86391944158272" lon="9.101538880311871" id="-38229">
		<tag k="name" v="Skogstad" />
		<tag k="place" v="farm" />
		<tag k="ssr:stedsnr" v="313311" />
	</node>
	<node lat="61.86271111002798" lon="8.985783332018242" id="-38230">
		<tag k="alt_name" v="Hågån" />
		<tag k="name" v="Hagen" />
		<tag k="place" v="farm" />
		<tag k="ssr:stedsnr" v="313316" />
	</node>
	<node lat="61.843261108599314" lon="8.971772226123969" id="-38231">
		<tag k="alt_name" v="Åsgård" />
		<tag k="name" v="Åsgard" />
		<tag k="place" v="farm" />
		<tag k="ssr:stedsnr" v="313262" />
	</node>
	<node lat="61.849680553219436" lon="9.008358329271724" id="-38232">
		<tag k="name" v="Randen" />
		<tag k="place" v="farm" />
		<tag k="ssr:stedsnr" v="313275" />
	</node>
	<node lat="61.80681089332908" lon="9.172327614807534" id="-38234">
		<tag k="alt_name" v="Breinnsætre" />
		<tag k="historic" v="shieling" />
		<tag k="name" v="Brennsætrin" />
		<tag k="place" v="isolated_dwelling" />
		<tag k="ssr:stedsnr" v="313424" />
	</node>
	<node lat="61.8020166636046" lon="9.186258327069957" id="-38235">
		<tag k="historic" v="shieling" />
		<tag k="name" v="Bakkesætri" />
		<tag k="place" v="isolated_dwelling" />
		<tag k="ssr:stedsnr" v="313427" />
	</node>
	<node lat="61.81313333624489" lon="9.009708336644454" id="-38237">
		<tag k="name" v="Grov" />
		<tag k="place" v="farm" />
		<tag k="ssr:stedsnr" v="313470" />
	</node>
	<node lat="61.87420832888817" lon="9.202041668461597" id="-38238">
		<tag k="name" v="Midtre Myrom" />
		<tag k="place" v="farm" />
		<tag k="ssr:stedsnr" v="466820" />
	</node>
	<node lat="61.86225941597316" lon="8.96636711385675" id="-38250">
		<tag k="alt_name" v="Groven" />
		<tag k="fixme" v="consider place=hamlet" />
		<tag k="loc_name" v="Grove" />
		<tag k="name" v="Grovi" />
		<tag k="place" v="farm" />
		<tag k="ssr:stedsnr" v="314356" />
	</node>
	<node lat="61.83988889173098" lon="9.276680554031095" id="-38251">
		<tag k="name" v="Reinshus" />
		<tag k="place" v="farm" />
		<tag k="ssr:stedsnr" v="314803" />
	</node>
	<node lat="61.89186507269324" lon="9.054497603635479" id="-38255">
		<tag k="fixme" v="consider place=hamlet" />
		<tag k="name" v="Huset" />
		<tag k="place" v="farm" />
		<tag k="ssr:stedsnr" v="342016" />
	</node>
	<node lat="61.843238888658135" lon="9.224786104132155" id="-38258">
		<tag k="name" v="Storbråtein" />
		<tag k="place" v="farm" />
		<tag k="ssr:stedsnr" v="342814" />
	</node>
	<node lat="61.907816665291755" lon="8.999030559747313" id="-38262">
		<tag k="name" v="Midtre Skjedsvoll" />
		<tag k="place" v="farm" />
		<tag k="ssr:stedsnr" v="344004" />
	</node>
	<node lat="61.884111110201346" lon="9.10101945237514" id="-38263">
		<tag k="name" v="Steinstugu" />
		<tag k="place" v="farm" />
		<tag k="ssr:stedsnr" v="344052" />
	</node>
	<node lat="61.87064166501513" lon="9.087119441936538" id="-38264">
		<tag k="name" v="Vang" />
		<tag k="place" v="farm" />
		<tag k="ssr:stedsnr" v="344223" />
	</node>
	<node lat="61.87266110915961" lon="9.033947223793934" id="-38265">
		<tag k="name" v="Nedre Valbjørslykkja" />
		<tag k="place" v="farm" />
		<tag k="ssr:stedsnr" v="344249" />
	</node>
	<node lat="61.87491944240242" lon="9.04207500776255" id="-38266">
		<tag k="name" v="Resvoll" />
		<tag k="place" v="farm" />
		<tag k="ssr:stedsnr" v="344252" />
	</node>
	<node lat="61.731147226326" lon="9.07637222924438" id="-38269">
		<tag k="historic" v="shieling" />
		<tag k="name" v="Sætasætre" />
		<tag k="place" v="isolated_dwelling" />
		<tag k="ssr:stedsnr" v="344300" />
	</node>
	<node lat="61.82376944220075" lon="9.28143333176028" id="-38271">
		<tag k="name" v="Tolstadløkken" />
		<tag k="place" v="farm" />
		<tag k="ssr:stedsnr" v="344881" />
	</node>
	<node lat="61.9294444436655" lon="8.943138896311169" id="-38279">
		<tag k="name" v="Søre Øyagarden" />
		<tag k="place" v="farm" />
		<tag k="ssr:stedsnr" v="478344" />
	</node>
	<node lat="61.82555277809136" lon="8.978830547909201" id="-38284">
		<tag k="fixme" v="consider place=hamlet" />
		<tag k="name" v="Vesllykkja" />
		<tag k="place" v="farm" />
		<tag k="ssr:stedsnr" v="373505" />
	</node>
	<node lat="61.82887499838994" lon="9.000872228625916" id="-38286">
		<tag k="alt_name" v="Bakken, øvre" />
		<tag k="name" v="Øvre Bakken" />
		<tag k="place" v="farm" />
		<tag k="ssr:stedsnr" v="373495" />
	</node>
	<node lat="61.870754243041844" lon="8.999181220646472" id="-38289">
		<tag k="fixme" v="consider place=hamlet" />
		<tag k="name" v="Mo" />
		<tag k="place" v="farm" />
		<tag k="ssr:stedsnr" v="374351" />
	</node>
	<node lat="61.77203888706373" lon="9.090319435807421" id="-38291">
		<tag k="alt_name" v="Skarå" />
		<tag k="historic" v="shieling" />
		<tag k="name" v="Skardåi" />
		<tag k="place" v="isolated_dwelling" />
		<tag k="ssr:stedsnr" v="374411" />
	</node>
	<node lat="61.79261666673802" lon="9.172661102296718" id="-38293">
		<tag k="alt_name" v="Kleivsætre" />
		<tag k="historic" v="shieling" />
		<tag k="name" v="Kleivsætri" />
		<tag k="place" v="isolated_dwelling" />
		<tag k="ssr:stedsnr" v="374445" />
	</node>
	<node lat="61.83124721908497" lon="9.220744440469218" id="-38296">
		<tag k="historic" v="shieling" />
		<tag k="name" v="Skardsætrin" />
		<tag k="place" v="isolated_dwelling" />
		<tag k="ssr:stedsnr" v="374806" />
	</node>
	<node lat="61.820339937756195" lon="9.256516392907843" id="-38300">
		<tag k="fixme" v="consider place=hamlet" />
		<tag k="name" v="Øvre Skår" />
		<tag k="place" v="farm" />
		<tag k="ssr:stedsnr" v="374783" />
	</node>
	<node lat="61.86674444022407" lon="9.203363887955575" id="-38306">
		<tag k="name" v="Barli" />
		<tag k="place" v="farm" />
		<tag k="ssr:stedsnr" v="403729" />
	</node>
	<node lat="61.86080514382907" lon="9.224991484852607" id="-38307">
		<tag k="name" v="Nørdre Brekka" />
		<tag k="place" v="farm" />
		<tag k="ssr:stedsnr" v="403763" />
	</node>
	<node lat="61.86587500180796" lon="9.21989166163141" id="-38308">
		<tag k="name" v="Rundhaugen" />
		<tag k="place" v="farm" />
		<tag k="ssr:stedsnr" v="403764" />
	</node>
	<node lat="61.855627778524" lon="9.184663883058775" id="-38309">
		<tag k="name" v="Myrhaug" />
		<tag k="place" v="farm" />
		<tag k="ssr:stedsnr" v="403771" />
	</node>
	<node lat="61.90181596364822" lon="9.017664164620742" id="-38311">
		<tag k="fixme" v="consider place=hamlet" />
		<tag k="name" v="Lykkja" />
		<tag k="place" v="farm" />
		<tag k="ssr:stedsnr" v="405006" />
	</node>
	<node lat="61.47980277884169" lon="8.819491668382794" id="-38325">
		<tag k="name" v="Leirungsbuin" />
		<tag k="place" v="isolated_dwelling" />
		<tag k="ssr:stedsnr" v="433774" />
	</node>
	<node lat="61.84589622332606" lon="8.981274427098251" id="-38326">
		<tag k="name" v="Åsberg" />
		<tag k="place" v="farm" />
		<tag k="ssr:stedsnr" v="435304" />
	</node>
	<node lat="61.85746944758616" lon="9.202566670582987" id="-38327">
		<tag k="alt_name" v="Austrem, s;Søre Austrem" />
		<tag k="name" v="Systugu Austrem" />
		<tag k="place" v="farm" />
		<tag k="ssr:stedsnr" v="435314" />
	</node>
	<node lat="61.861619442154286" lon="9.112202786390831" id="-38328">
		<tag k="name" v="Plassen" />
		<tag k="place" v="farm" />
		<tag k="ssr:stedsnr" v="435325" />
	</node>
	<node lat="61.8952750678526" lon="9.028720314610378" id="-38329">
		<tag k="fixme" v="consider place=hamlet" />
		<tag k="name" v="Hågån" />
		<tag k="place" v="farm" />
		<tag k="ssr:stedsnr" v="435409" />
	</node>
	<node lat="61.797216663443216" lon="9.182530547183498" id="-38332">
		<tag k="historic" v="shieling" />
		<tag k="name" v="Barhaugsætri" />
		<tag k="place" v="isolated_dwelling" />
		<tag k="ssr:stedsnr" v="435471" />
	</node>
	<node lat="61.787980556660976" lon="9.189680550049447" id="-38333">
		<tag k="alt_name" v="Kjøllstadsætri, nedre" />
		<tag k="historic" v="shieling" />
		<tag k="name" v="Nedre Kjøllstadsætri" />
		<tag k="place" v="isolated_dwelling" />
		<tag k="ssr:stedsnr" v="435475" />
	</node>
	<node lat="61.67687777580996" lon="9.103411120541333" id="-38334">
		<tag k="historic" v="shieling" />
		<tag k="name" v="Vakkersletta" />
		<tag k="place" v="isolated_dwelling" />
		<tag k="ssr:stedsnr" v="435767" />
	</node>
	<node lat="61.83660277653449" lon="9.273352778673695" id="-38338">
		<tag k="alt_name" v="Midtre Enge" />
		<tag k="name" v="Enge" />
		<tag k="place" v="farm" />
		<tag k="ssr:stedsnr" v="435818" />
	</node>
	<node lat="61.79592777915113" lon="9.35864999385331" id="-38341">
		<tag k="name" v="Tolstadskridu" />
		<tag k="place" v="farm" />
		<tag k="ssr:stedsnr" v="435881" />
	</node>
	<node lat="61.73687499822531" lon="9.083602772085147" id="-38342">
		<tag k="historic" v="shieling" />
		<tag k="name" v="Pina" />
		<tag k="place" v="isolated_dwelling" />
		<tag k="ssr:stedsnr" v="435962" />
	</node>
	<node lat="61.93524535171901" lon="8.979952015092573" id="-38344">
		<tag k="fixme" v="consider place=hamlet" />
		<tag k="name" v="Skjerstulen" />
		<tag k="place" v="farm" />
		<tag k="ssr:stedsnr" v="436113" />
	</node>
	<node lat="61.94615632923182" lon="9.008056421562488" id="-38345">
		<tag k="historic" v="shieling" />
		<tag k="name" v="Nordsætrin" />
		<tag k="place" v="isolated_dwelling" />
		<tag k="ssr:stedsnr" v="436116" />
	</node>
	<node lat="61.85029722438837" lon="9.210733330852618" id="-38352">
		<tag k="name" v="Søre Løken" />
		<tag k="place" v="farm" />
		<tag k="ssr:stedsnr" v="463856" />
	</node>
	<node lat="61.89382777428065" lon="9.049019453606403" id="-38354">
		<tag k="name" v="Uppheim" />
		<tag k="place" v="farm" />
		<tag k="ssr:stedsnr" v="464015" />
	</node>
	<node lat="61.865572218997464" lon="9.207325003166366" id="-38359">
		<tag k="name" v="Nørdre Haugen" />
		<tag k="place" v="farm" />
		<tag k="ssr:stedsnr" v="464757" />
	</node>
	<node lat="61.86730832991132" lon="9.215561107744692" id="-38361">
		<tag k="name" v="Plassen" />
		<tag k="place" v="farm" />
		<tag k="ssr:stedsnr" v="464770" />
	</node>
	<node lat="61.87920637527854" lon="9.105592841936465" id="-38362">
		<tag k="name" v="Øy" />
		<tag k="place" v="hamlet" />
		<tag k="ssr:stedsnr" v="465056" />
	</node>
	<node lat="61.86913333487516" lon="8.990488882303813" id="-38363">
		<tag k="name" v="Huset" />
		<tag k="place" v="farm" />
		<tag k="ssr:stedsnr" v="465062" />
	</node>
	<node lat="61.876802776639884" lon="9.049433342287495" id="-38364">
		<tag k="name" v="Skogvang" />
		<tag k="place" v="farm" />
		<tag k="ssr:stedsnr" v="465222" />
	</node>
	<node lat="61.848774397187405" lon="8.969138023066641" id="-38365">
		<tag k="name" v="Neslykkja" />
		<tag k="place" v="locality" />
		<tag k="ssr:stedsnr" v="465119" />
	</node>
	<node lat="61.959813892033566" lon="8.995666669194685" id="-38368">
		<tag k="name" v="Hulderbu" />
		<tag k="place" v="isolated_dwelling" />
		<tag k="ssr:stedsnr" v="466016" />
	</node>
	<node lat="61.83807499681897" lon="9.293372223505937" id="-38369">
		<tag k="name" v="Svastugu" />
		<tag k="place" v="locality" />
		<tag k="ssr:stedsnr" v="466602" />
	</node>
	<node lat="61.86235303790538" lon="9.017754020701561" id="-38373">
		<tag k="fixme" v="consider place=hamlet" />
		<tag k="name" v="Sygard Valde" />
		<tag k="place" v="farm" />
		<tag k="ssr:stedsnr" v="471378" />
	</node>
	<node lat="61.8445888885878" lon="8.909572217829519" id="-38374">
		<tag k="alt_name" v="Breinna" />
		<tag k="name" v="Brenna" />
		<tag k="place" v="farm" />
		<tag k="ssr:stedsnr" v="677253" />
	</node>
	<node lat="61.84389166839323" lon="8.884458341725802" id="-38375">
		<tag k="alt_name" v="Storrvikøygarden" />
		<tag k="name" v="Storrviksøygarden" />
		<tag k="place" v="farm" />
		<tag k="ssr:stedsnr" v="677257" />
	</node>
	<node lat="61.85970000097239" lon="9.085711113507228" id="-38378">
		<tag k="name" v="Nystugu" />
		<tag k="place" v="farm" />
		<tag k="ssr:stedsnr" v="677270" />
	</node>
	<node lat="61.80356111273954" lon="8.966297223762012" id="-38379">
		<tag k="alt_name" v="Lykkjesætre" />
		<tag k="historic" v="shieling" />
		<tag k="name" v="Lykkjesætri" />
		<tag k="place" v="isolated_dwelling" />
		<tag k="ssr:stedsnr" v="677444" />
	</node>
	<node lat="61.93023055422122" lon="8.978816664629253" id="-38394">
		<tag k="name" v="Garden" />
		<tag k="place" v="farm" />
		<tag k="ssr:stedsnr" v="678151" />
	</node>
	<node lat="61.88919444003703" lon="9.066661102036301" id="-38395">
		<tag k="alt_name" v="Søre Råstad" />
		<tag k="name" v="Sygard Råstad" />
		<tag k="place" v="farm" />
		<tag k="ssr:stedsnr" v="678399" />
	</node>
	<node lat="61.9001138912889" lon="9.021616660315026" id="-38397">
		<tag k="alt_name" v="Skogbygde" />
		<tag k="fixme" v="consider place=hamlet" />
		<tag k="name" v="Skogbygdi" />
		<tag k="place" v="village" />
		<tag k="ssr:stedsnr" v="678261" />
	</node>
	<node lat="61.86970555124932" lon="9.20650277548728" id="-38400">
		<tag k="name" v="Lihaug" />
		<tag k="place" v="farm" />
		<tag k="ssr:stedsnr" v="678330" />
	</node>
	<node lat="61.86479722058976" lon="9.132191662233337" id="-38402">
		<tag k="name" v="Flatom" />
		<tag k="place" v="farm" />
		<tag k="ssr:stedsnr" v="678343" />
	</node>
	<node lat="61.902000000921916" lon="9.009377786770196" id="-38404">
		<tag k="alt_name" v="Synsteng" />
		<tag k="name" v="Søre Synsteng" />
		<tag k="place" v="farm" />
		<tag k="ssr:stedsnr" v="678402" />
	</node>
	<node lat="61.77891388515254" lon="9.1755972172309" id="-38406">
		<tag k="alt_name" v="Skardsætri, nedre" />
		<tag k="historic" v="shieling" />
		<tag k="name" v="Nedre Skardsætri" />
		<tag k="place" v="isolated_dwelling" />
		<tag k="ssr:stedsnr" v="678450" />
	</node>
	<node lat="61.875627843575124" lon="9.233840548217806" id="-38408">
		<tag k="historic" v="shieling" />
		<tag k="name" v="Søre Holungssætrin" />
		<tag k="place" v="isolated_dwelling" />
		<tag k="ssr:stedsnr" v="678936" />
	</node>
	<node lat="61.85226944623144" lon="9.198838895415516" id="-38414">
		<tag k="name" v="Sanden" />
		<tag k="place" v="farm" />
		<tag k="ssr:stedsnr" v="495275" />
	</node>
	<node lat="61.791680552993945" lon="8.965902777960794" id="-38415">
		<tag k="alt_name" v="Åsvangsætre" />
		<tag k="historic" v="shieling" />
		<tag k="name" v="Åsvangsætri" />
		<tag k="place" v="isolated_dwelling" />
		<tag k="ssr:stedsnr" v="495415" />
	</node>
	<node lat="61.7872972184697" lon="9.182755563542623" id="-38416">
		<tag k="historic" v="shieling" />
		<tag k="name" v="Liasætri" />
		<tag k="place" v="isolated_dwelling" />
		<tag k="ssr:stedsnr" v="495424" />
	</node>
	<node lat="61.83782777912163" lon="9.23804167024347" id="-38419">
		<tag k="name" v="Stadelykkja" />
		<tag k="old_name" v="Søre Stadeløkken" />
		<tag k="place" v="farm" />
		<tag k="ssr:stedsnr" v="495821" />
	</node>
	<node lat="61.814330707137465" lon="9.270201396105708" id="-38422">
		<tag k="fixme" v="consider place=hamlet" />
		<tag k="name" v="Pillarvike" />
		<tag k="place" v="farm" />
		<tag k="ssr:stedsnr" v="495768" />
	</node>
	<node lat="61.740975001110854" lon="9.102325002019457" id="-38426">
		<tag k="alt_name" v="Stormyre" />
		<tag k="name" v="Stormyri" />
		<tag k="place" v="isolated_dwelling" />
		<tag k="ssr:stedsnr" v="495962" />
	</node>
	<node lat="61.88392043207274" lon="9.138093241255124" id="-38431">
		<tag k="name" v="Søre Vassdokken" />
		<tag k="place" v="farm" />
		<tag k="ssr:stedsnr" v="524976" />
	</node>
	<node lat="61.868547222997975" lon="8.910016657304862" id="-38432">
		<tag k="historic" v="shieling" />
		<tag k="name" v="Trælviksætre" />
		<tag k="place" v="isolated_dwelling" />
		<tag k="ssr:stedsnr" v="525075" />
	</node>
	<node lat="61.84613611501497" lon="8.97731388736805" id="-38435">
		<tag k="name" v="Øvre Runningen" />
		<tag k="place" v="farm" />
		<tag k="ssr:stedsnr" v="526126" />
	</node>
	<node lat="61.88228333638181" lon="9.112633327310576" id="-38436">
		<tag k="name" v="Berget" />
		<tag k="place" v="farm" />
		<tag k="ssr:stedsnr" v="526059" />
	</node>
	<node lat="61.87065833598806" lon="9.089038892548706" id="-38437">
		<tag k="name" v="Haug" />
		<tag k="place" v="farm" />
		<tag k="ssr:stedsnr" v="526213" />
	</node>
	<node lat="61.86033888800929" lon="9.076738891864727" id="-38438">
		<tag k="name" v="Rundhaugen" />
		<tag k="place" v="farm" />
		<tag k="ssr:stedsnr" v="526216" />
	</node>
	<node lat="61.72969166709173" lon="9.07679445383367" id="-38441">
		<tag k="name" v="Søre Vangen" />
		<tag k="place" v="isolated_dwelling" />
		<tag k="ssr:stedsnr" v="526283" />
	</node>
	<node lat="61.761086115261755" lon="8.995933333768095" id="-38442">
		<tag k="name" v="Dravtjønnhytta" />
		<tag k="place" v="isolated_dwelling" />
		<tag k="ssr:stedsnr" v="526371" />
	</node>
	<node lat="61.79476110943306" lon="9.198044441253387" id="-38445">
		<tag k="name" v="Myrvang" />
		<tag k="place" v="farm" />
		<tag k="ssr:stedsnr" v="534568" />
	</node>
	<node lat="61.43418055714355" lon="9.105383342076259" id="-38449">
		<tag k="alt_name" v="Geitsætre" />
		<tag k="historic" v="shieling" />
		<tag k="name" v="Geitsætri" />
		<tag k="place" v="isolated_dwelling" />
		<tag k="ssr:stedsnr" v="553006" />
	</node>
	<node lat="61.80691944882839" lon="8.95194443870145" id="-38453">
		<tag k="alt_name" v="Endasætre;Einsætri" />
		<tag k="historic" v="shieling" />
		<tag k="loc_name" v="Endsætre" />
		<tag k="name" v="Endsætri" />
		<tag k="place" v="isolated_dwelling" />
		<tag k="ssr:stedsnr" v="555406" />
	</node>
	<node lat="61.932214016488814" lon="8.933399763185154" id="-38456">
		<tag k="alt_name" v="Brekkesætre" />
		<tag k="historic" v="shieling" />
		<tag k="name" v="Brekkesætri" />
		<tag k="place" v="isolated_dwelling" />
		<tag k="ssr:stedsnr" v="556158" />
	</node>
	<node lat="61.84472222377321" lon="8.914358330648112" id="-38458">
		<tag k="name" v="Lykkja" />
		<tag k="place" v="farm" />
		<tag k="ssr:stedsnr" v="556312" />
	</node>
	<node lat="61.841847225987514" lon="8.962783331192792" id="-38459">
		<tag k="name" v="Brun" />
		<tag k="place" v="farm" />
		<tag k="ssr:stedsnr" v="556316" />
	</node>
	<node lat="61.84342222212689" lon="8.883177784023914" id="-38460">
		<tag k="name" v="Lauvmo" />
		<tag k="place" v="farm" />
		<tag k="ssr:stedsnr" v="556324" />
	</node>
	<node lat="61.844180552012446" lon="8.899216659195911" id="-38461">
		<tag k="name" v="Bergli" />
		<tag k="place" v="farm" />
		<tag k="ssr:stedsnr" v="556328" />
	</node>
	<node lat="61.871327776656635" lon="9.031049994089253" id="-38463">
		<tag k="name" v="Byre" />
		<tag k="place" v="farm" />
		<tag k="ssr:stedsnr" v="556403" />
	</node>
	<node lat="61.87805808993021" lon="9.115030787694003" id="-38464">
		<tag k="fixme" v="consider place=hamlet" />
		<tag k="name" v="Sve" />
		<tag k="place" v="farm" />
		<tag k="ssr:stedsnr" v="556406" />
	</node>
	<node lat="61.836730261582076" lon="9.254810166083422" id="-38466">
		<tag k="alt_name" v="Stade" />
		<tag k="fixme" v="consider place=hamlet" />
		<tag k="name" v="Søre Stade" />
		<tag k="place" v="farm" />
		<tag k="ssr:stedsnr" v="556811" />
	</node>
	<node lat="61.800778594693" lon="9.304025300802104" id="-38468">
		<tag k="alt_name" v="Eide" />
		<tag k="name" v="Nørdre Eide" />
		<tag k="place" v="farm" />
		<tag k="ssr:stedsnr" v="556872" />
	</node>
	<node lat="61.5572722208736" lon="8.79236110851877" id="-38470">
		<tag k="name" v="Russvassbue" />
		<tag k="place" v="isolated_dwelling" />
		<tag k="ssr:stedsnr" v="556906" />
	</node>
	<node lat="61.74752064219593" lon="9.100184449034337" id="-38472">
		<tag k="alt_name" v="Slomhaugen" />
		<tag k="name" v="Slombhaugen" />
		<tag k="place" v="farm" />
		<tag k="ssr:stedsnr" v="556956" />
	</node>
	<node lat="61.869991666958576" lon="9.098222228611975" id="-38479">
		<tag k="name" v="Brumoen" />
		<tag k="place" v="farm" />
		<tag k="ssr:stedsnr" v="584216" />
	</node>
	<node lat="61.8846638879179" lon="9.077247225357413" id="-38481">
		<tag k="name" v="Pålstad" />
		<tag k="place" v="farm" />
		<tag k="ssr:stedsnr" v="585053" />
	</node>
	<node lat="61.87769722289956" lon="9.136097223545432" id="-38483">
		<tag k="name" v="Steindalen" />
		<tag k="place" v="isolated_dwelling" />
		<tag k="ssr:stedsnr" v="585990" />
	</node>
	<node lat="61.8774277768642" lon="9.084744445121991" id="-38494">
		<tag k="name" v="Øvre Langskåre" />
		<tag k="place" v="isolated_dwelling" />
		<tag k="ssr:stedsnr" v="587048" />
	</node>
	<node lat="61.86362499608065" lon="8.940922215765358" id="-38496">
		<tag k="name" v="Tassmyrhaugen" />
		<tag k="place" v="locality" />
		<tag k="ssr:stedsnr" v="587095" />
	</node>
	<node lat="61.86254444650552" lon="8.934841665164893" id="-38497">
		<tag k="name" v="Øvre Kleive" />
		<tag k="place" v="locality" />
		<tag k="ssr:stedsnr" v="587096" />
	</node>
	<node lat="61.819691668157056" lon="9.323777779933337" id="-38499">
		<tag k="name" v="Varpmyrhytta" />
		<tag k="place" v="isolated_dwelling" />
		<tag k="ssr:stedsnr" v="587613" />
	</node>
	<node lat="61.823905553134" lon="9.261680563224978" id="-38500">
		<tag k="name" v="Rotemshågen" />
		<tag k="place" v="farm" />
		<tag k="ssr:stedsnr" v="594912" />
	</node>
	<node lat="61.82547222175642" lon="9.255047220087716" id="-38501">
		<tag k="name" v="Øvre Bakkom" />
		<tag k="place" v="locality" />
		<tag k="ssr:stedsnr" v="594923" />
	</node>
	<node lat="61.80729444666169" lon="9.18640556337567" id="-38502">
		<tag k="name" v="Øvre Bringen" />
		<tag k="place" v="hamlet" />
		<tag k="ssr:stedsnr" v="595516" />
	</node>
	<node lat="61.82272500026705" lon="9.255480547187632" id="-38504">
		<tag k="name" v="Øvre Kjølstad" />
		<tag k="place" v="locality" />
		<tag k="ssr:stedsnr" v="595919" />
	</node>
	<node lat="61.55540277971467" lon="8.82274722132329" id="-38510">
		<tag k="name" v="Saubue" />
		<tag k="place" v="isolated_dwelling" />
		<tag k="ssr:stedsnr" v="616952" />
	</node>
	<node lat="61.72751111139301" lon="9.067936101787103" id="-38512">
		<tag k="fixme" v="consider place=hamlet" />
		<tag k="name" v="Randsverk" />
		<tag k="place" v="village" />
		<tag k="ssr:stedsnr" v="616992" />
	</node>
	<node lat="61.903500832799885" lon="9.014306145786598" id="-38517">
		<tag k="fixme" v="consider place=hamlet" />
		<tag k="name" v="Øvsteng" />
		<tag k="place" v="farm" />
		<tag k="ssr:stedsnr" v="617404" />
	</node>
	<node lat="61.89115555203508" lon="9.072772224572887" id="-38519">
		<tag k="name" v="Haugli" />
		<tag k="place" v="farm" />
		<tag k="ssr:stedsnr" v="617390" />
	</node>
	<node lat="61.89981246401873" lon="9.01087386696447" id="-38520">
		<tag k="fixme" v="consider place=hamlet" />
		<tag k="name" v="Haugen" />
		<tag k="place" v="farm" />
		<tag k="ssr:stedsnr" v="617394" />
	</node>
	<node lat="61.61662500019593" lon="8.9682777771807" id="-38524">
		<tag k="historic" v="shieling" />
		<tag k="name" v="Hindvangen" />
		<tag k="place" v="isolated_dwelling" />
		<tag k="ssr:stedsnr" v="617812" />
	</node>
	<node lat="61.856877775585254" lon="9.255572226946366" id="-38528">
		<tag k="name" v="Øvre Ruste" />
		<tag k="place" v="farm" />
		<tag k="ssr:stedsnr" v="617931" />
	</node>
	<node lat="61.86060555930727" lon="9.224669436015075" id="-38529">
		<tag k="name" v="Brekka" />
		<tag k="place" v="farm" />
		<tag k="ssr:stedsnr" v="617937" />
	</node>
	<node lat="61.888394448471786" lon="9.086269451964334" id="-38532">
		<tag k="name" v="Lundalykkja" />
		<tag k="place" v="farm" />
		<tag k="ssr:stedsnr" v="706035" />
	</node>
	<node lat="61.89050833598674" lon="9.063647226226237" id="-38533">
		<tag k="name" v="Øvre Råstad" />
		<tag k="place" v="farm" />
		<tag k="ssr:stedsnr" v="645031" />
	</node>
	<node lat="61.8807749956567" lon="9.149347223504616" id="-38537">
		<tag k="name" v="Sandbushaugen" />
		<tag k="place" v="farm" />
		<tag k="ssr:stedsnr" v="645995" />
	</node>
	<node lat="61.88309721925861" lon="9.109533335130713" id="-38540">
		<tag k="name" v="Søre Øygarden" />
		<tag k="place" v="farm" />
		<tag k="ssr:stedsnr" v="647090" />
	</node>
	<node lat="61.86921420425755" lon="9.085911965664287" id="-38542">
		<tag k="name" v="Kokkehaugen" />
		<tag k="place" v="farm" />
		<tag k="ssr:stedsnr" v="647233" />
	</node>
	<node lat="61.86031110837082" lon="8.988452786230257" id="-38544">
		<tag k="name" v="Heggjero" />
		<tag k="place" v="farm" />
		<tag k="ssr:stedsnr" v="647115" />
	</node>
	<node lat="61.814144443615724" lon="9.2653888970691" id="-38547">
		<tag k="name" v="Pillarvikhaugen" />
		<tag k="place" v="isolated_dwelling" />
		<tag k="ssr:stedsnr" v="647912" />
	</node>
	<node lat="61.84463333725428" lon="8.939744441443814" id="-38548">
		<tag k="fixme" v="consider place=hamlet" />
		<tag k="name" v="Nordigard Storrvik" />
		<tag k="place" v="farm" />
		<tag k="ssr:stedsnr" v="707128" />
	</node>
	<node lat="61.86054166863443" lon="9.113944439653554" id="-38553">
		<tag k="name" v="Vaberg" />
		<tag k="place" v="farm" />
		<tag k="ssr:stedsnr" v="708234" />
	</node>
	<node lat="61.54702222211884" lon="8.933202786796013" id="-38554">
		<tag k="historic" v="shieling" />
		<tag k="name" v="Gålen" />
		<tag k="place" v="isolated_dwelling" />
		<tag k="ssr:stedsnr" v="652714" />
	</node>
	<node lat="61.86648055433378" lon="9.12113333608563" id="-38555">
		<tag k="name" v="Runningen" />
		<tag k="place" v="farm" />
		<tag k="ssr:stedsnr" v="707932" />
	</node>
	<node lat="61.88247499793607" lon="9.135508337035436" id="-38556">
		<tag k="name" v="Rudistugu" />
		<tag k="place" v="isolated_dwelling" />
		<tag k="ssr:stedsnr" v="707984" />
	</node>
	<node lat="61.912308336677356" lon="8.99575277960772" id="-38557">
		<tag k="name" v="Skjedsvollhaugen" />
		<tag k="place" v="farm" />
		<tag k="ssr:stedsnr" v="708002" />
	</node>
	<node lat="61.877894444479615" lon="9.102586103929031" id="-38558">
		<tag k="building" v="industrial" />
		<tag k="name" v="Vågå Ysteri" />
		<tag k="ssr:stedsnr" v="708066" />
	</node>
	<node lat="61.88532777985766" lon="9.108636103842382" id="-38560">
		<tag k="name" v="Bakken" />
		<tag k="place" v="farm" />
		<tag k="ssr:stedsnr" v="708041" />
	</node>
	<node lat="61.858516670566665" lon="8.923011103120828" id="-38566">
		<tag k="alt_name" v="Nebbneset" />
		<tag k="fixme" v="consider place=hamlet" />
		<tag k="name" v="Næpneset" />
		<tag k="place" v="farm" />
		<tag k="ssr:stedsnr" v="708085" />
	</node>
	<node lat="61.81319721903665" lon="9.093344451666711" id="-38570">
		<tag k="historic" v="shieling" />
		<tag k="name" v="Nyheimsætre" />
		<tag k="place" v="isolated_dwelling" />
		<tag k="ssr:stedsnr" v="708190" />
	</node>
	<node lat="61.86256666854141" lon="9.239905556718718" id="-38574">
		<tag k="name" v="Knuthytta" />
		<tag k="place" v="isolated_dwelling" />
		<tag k="ssr:stedsnr" v="655483" />
	</node>
	<node lat="61.81631389005987" lon="9.267063887849782" id="-38580">
		<tag k="name" v="Bakken" />
		<tag k="place" v="farm" />
		<tag k="ssr:stedsnr" v="708888" />
	</node>
	<node lat="61.82448873895101" lon="9.278817950145356" id="-38583">
		<tag k="name" v="Stubrud" />
		<tag k="place" v="farm" />
		<tag k="ssr:stedsnr" v="708864" />
	</node>
	<node lat="61.84973333184927" lon="8.996205552669673" id="-38591">
		<tag k="name" v="Valdvik" />
		<tag k="place" v="farm" />
		<tag k="ssr:stedsnr" v="891152" />
	</node>
	<node lat="61.87490833337309" lon="9.038311104942908" id="-38598">
		<tag k="name" v="Fjellheim" />
		<tag k="place" v="farm" />
		<tag k="ssr:stedsnr" v="891282" />
	</node>
	<node lat="61.84362500367087" lon="8.95391111760544" id="-38602">
		<tag k="name" v="Upphaug" />
		<tag k="place" v="farm" />
		<tag k="ssr:stedsnr" v="891143" />
	</node>
	<node lat="61.83753333318267" lon="8.961716675462634" id="-38603">
		<tag k="name" v="Synnesonstugu" />
		<tag k="place" v="isolated_dwelling" />
		<tag k="ssr:stedsnr" v="891144" />
	</node>
	<node lat="61.794288890732524" lon="9.198024998079557" id="-38607">
		<tag k="name" v="Myrvang" />
		<tag k="place" v="farm" />
		<tag k="ssr:stedsnr" v="677402" />
	</node>
	<node lat="61.82545833468087" lon="9.288122231698415" id="-38613">
		<tag k="name" v="Åsli" />
		<tag k="place" v="farm" />
		<tag k="ssr:stedsnr" v="677792" />
	</node>
	<node lat="61.62450833515306" lon="9.007394443616791" id="-38614">
		<tag k="alt_name" v="Eldbua" />
		<tag k="name" v="Eldbui" />
		<tag k="place" v="isolated_dwelling" />
		<tag k="ssr:stedsnr" v="677794" />
	</node>
	<node lat="61.970377776747966" lon="8.992083334185489" id="-38617">
		<tag k="historic" v="shieling" />
		<tag k="name" v="Milthaug" />
		<tag k="old_name" v="Midthaugen" />
		<tag k="place" v="isolated_dwelling" />
		<tag k="ssr:stedsnr" v="678184" />
	</node>
	<node lat="61.84358889311886" lon="8.958219452540709" id="-38618">
		<tag k="name" v="Enden" />
		<tag k="place" v="farm" />
		<tag k="ssr:stedsnr" v="678276" />
	</node>
	<node lat="61.84187500242577" lon="8.966713891219065" id="-38619">
		<tag k="name" v="Skogly" />
		<tag k="place" v="farm" />
		<tag k="ssr:stedsnr" v="678278" />
	</node>
	<node lat="61.89960010976671" lon="9.111242485289411" id="-38621">
		<tag k="alt_name" v="Køyringje" />
		<tag k="historic" v="shieling" />
		<tag k="name" v="Køyring" />
		<tag k="place" v="isolated_dwelling" />
		<tag k="ssr:stedsnr" v="678406" />
	</node>
	<node lat="61.89839897043065" lon="9.036062483744235" id="-38622">
		<tag k="alt_name" v="Spakro" />
		<tag k="fixme" v="consider place=hamlet" />
		<tag k="name" v="Spakrud" />
		<tag k="place" v="farm" />
		<tag k="ssr:stedsnr" v="678407" />
	</node>
	<node lat="61.8827499339353" lon="9.10591157795816" id="-38624">
		<tag k="name" v="Øygarden" />
		<tag k="place" v="farm" />
		<tag k="ssr:stedsnr" v="678374" />
	</node>
	<node lat="61.85331111396129" lon="9.275286105376988" id="-38632">
		<tag k="name" v="Rusthaug" />
		<tag k="place" v="farm" />
		<tag k="ssr:stedsnr" v="678919" />
	</node>
	<node lat="61.823903716759865" lon="9.284308515413713" id="-38635">
		<tag k="fixme" v="consider place=hamlet" />
		<tag k="name" v="Løkken" />
		<tag k="place" v="farm" />
		<tag k="ssr:stedsnr" v="891890" />
	</node>
	<node lat="61.858262921427254" lon="9.175048188894856" id="-38636">
		<tag k="name" v="Midtre Stokstad" />
		<tag k="place" v="farm" />
		<tag k="ssr:stedsnr" v="891963" />
	</node>
	<node lat="61.848977776445224" lon="8.899980546166855" id="-38637">
		<tag k="name" v="Sør-Neset" />
		<tag k="place" v="farm" />
		<tag k="ssr:stedsnr" v="696320" />
	</node>
	<node lat="61.885819448363286" lon="9.110927779559661" id="-38640">
		<tag k="name" v="Karusbakken" />
		<tag k="place" v="farm" />
		<tag k="ssr:stedsnr" v="706029" />
	</node>
	<node lat="61.8713058061318" lon="9.102679454052538" id="-38641">
		<tag k="fixme" v="consider place=hamlet" />
		<tag k="name" v="Smedsmo" />
		<tag k="place" v="farm" />
		<tag k="ssr:stedsnr" v="706159" />
	</node>
	<node lat="61.87008333396456" lon="9.101322228902614" id="-38642">
		<tag k="name" v="Brustugu" />
		<tag k="place" v="farm" />
		<tag k="ssr:stedsnr" v="706161" />
	</node>
	<node lat="61.869619446972436" lon="9.092227778460318" id="-38643">
		<tag k="name" v="Slettnes" />
		<tag k="place" v="farm" />
		<tag k="ssr:stedsnr" v="706165" />
	</node>
	<node lat="61.906099999073824" lon="8.999491667194121" id="-38644">
		<tag k="name" v="Sør-Skjedsvoll" />
		<tag k="place" v="farm" />
		<tag k="ssr:stedsnr" v="708012" />
	</node>
	<node lat="61.86241944868916" lon="8.98860834113897" id="-38647">
		<tag k="name" v="Søre Veslhågån" />
		<tag k="place" v="farm" />
		<tag k="ssr:stedsnr" v="708107" />
	</node>
	<node lat="61.86702229396506" lon="8.985078118005566" id="-38648">
		<tag k="fixme" v="consider place=hamlet" />
		<tag k="name" v="Åbakken" />
		<tag k="place" v="farm" />
		<tag k="ssr:stedsnr" v="708117" />
	</node>
	<node lat="61.87033611517494" lon="9.090933328939256" id="-38649">
		<tag k="name" v="Moen" />
		<tag k="place" v="farm" />
		<tag k="ssr:stedsnr" v="708223" />
	</node>
	<node lat="61.873477781266125" lon="9.198183331277" id="-38651">
		<tag k="name" v="Myrhaug" />
		<tag k="place" v="isolated_dwelling" />
		<tag k="ssr:stedsnr" v="708811" />
	</node>
	<node lat="61.57106111035261" lon="8.964113886278275" id="-38653">
		<tag k="name" v="Birisjøbua" />
		<tag k="place" v="isolated_dwelling" />
		<tag k="ssr:stedsnr" v="713779" />
	</node>
	<node lat="61.82662141890944" lon="9.26056220263729" id="-38658">
		<tag k="name" v="Øverjordet" />
		<tag k="place" v="farm" />
		<tag k="ssr:stedsnr" v="716916" />
	</node>
	<node lat="61.821285895855745" lon="9.259137152223369" id="-38659">
		<tag k="name" v="Tamburplassen" />
		<tag k="place" v="farm" />
		<tag k="ssr:stedsnr" v="716921" />
	</node>
	<node lat="61.800652775528306" lon="9.211347220812877" id="-38660">
		<tag k="name" v="Stutarhaugen hyttegrend" />
		<tag k="place" v="neighbourhood" />
		<tag k="ssr:stedsnr" v="899577" />
	</node>
	<node lat="61.799986115591174" lon="9.306113888338128" id="-38662">
		<tag k="name" v="Søre Eide" />
		<tag k="place" v="farm" />
		<tag k="ssr:stedsnr" v="899677" />
	</node>
	<node lat="61.7993777752234" lon="9.300766659011305" id="-38663">
		<tag k="name" v="Haugen" />
		<tag k="place" v="farm" />
		<tag k="ssr:stedsnr" v="899678" />
	</node>
	<node lat="61.90902363746542" lon="8.98177875407665" id="-38666">
		<tag k="alt_name" v="Liasætrin, s;Liasætrin" />
		<tag k="historic" v="shieling" />
		<tag k="name" v="Søre Liasætrin" />
		<tag k="place" v="isolated_dwelling" />
		<tag k="ssr:stedsnr" v="738156" />
	</node>
	<node lat="61.864708336861106" lon="9.113377772029777" id="-38668">
		<tag k="alt_name" v="Nørdre Kveen" />
		<tag k="name" v="Kvein" />
		<tag k="place" v="farm" />
		<tag k="ssr:stedsnr" v="738326" />
	</node>
	<node lat="61.86698081697248" lon="9.122081924395626" id="-38669">
		<tag k="name" v="Stein" />
		<tag k="place" v="locality" />
		<tag k="ssr:stedsnr" v="738328" />
	</node>
	<node lat="61.82433333412496" lon="9.111105557028525" id="-38673">
		<tag k="alt_name" v="Sundesætre" />
		<tag k="historic" v="shieling" />
		<tag k="name" v="Sundesætri" />
		<tag k="place" v="isolated_dwelling" />
		<tag k="ssr:stedsnr" v="738453" />
	</node>
	<node lat="61.82508333165811" lon="9.087069440781638" id="-38674">
		<tag k="alt_name" v="Gudbrandstugusætre" />
		<tag k="historic" v="shieling" />
		<tag k="name" v="Gudbrandstugusætri" />
		<tag k="place" v="isolated_dwelling" />
		<tag k="ssr:stedsnr" v="738456" />
	</node>
	<node lat="61.60164722083684" lon="8.94228889208384" id="-38677">
		<tag k="historic" v="shieling" />
		<tag k="name" v="Bulego" />
		<tag k="place" v="isolated_dwelling" />
		<tag k="ssr:stedsnr" v="738818" />
	</node>
	<node lat="61.83677837908701" lon="9.283879242290379" id="-38679">
		<tag k="fixme" v="consider place=hamlet" />
		<tag k="name" v="Bolstad" />
		<tag k="place" v="farm" />
		<tag k="ssr:stedsnr" v="738823" />
	</node>
	<node lat="61.55066666693275" lon="9.060786115372288" id="-38681">
		<tag k="historic" v="shieling" />
		<tag k="name" v="Dyrtjørnbekken" />
		<tag k="place" v="isolated_dwelling" />
		<tag k="ssr:stedsnr" v="738857" />
	</node>
	<node lat="61.54312222354753" lon="8.895108338124485" id="-38682">
		<tag k="historic" v="shieling" />
		<tag k="name" v="Mosbesstronde" />
		<tag k="place" v="isolated_dwelling" />
		<tag k="ssr:stedsnr" v="738863" />
	</node>
	<node lat="61.830063889956975" lon="9.256827775540794" id="-38686">
		<tag k="name" v="Skogheim" />
		<tag k="place" v="farm" />
		<tag k="ssr:stedsnr" v="738800" />
	</node>
	<node lat="61.73421667017532" lon="9.070877769938253" id="-38688">
		<tag k="historic" v="shieling" />
		<tag k="name" v="Nessesætri" />
		<tag k="place" v="isolated_dwelling" />
		<tag k="ssr:stedsnr" v="738964" />
	</node>
	<node lat="61.926974998227365" lon="8.975747222837484" id="-38694">
		<tag k="name" v="Øvre Sandbusgarden" />
		<tag k="place" v="farm" />
		<tag k="ssr:stedsnr" v="903343" />
	</node>
	<node lat="61.91859166766059" lon="8.978516665653764" id="-38696">
		<tag k="name" v="Horten" />
		<tag k="place" v="farm" />
		<tag k="ssr:stedsnr" v="904385" />
	</node>
	<node lat="61.84420277901534" lon="8.948527774001391" id="-38699">
		<tag k="name" v="Nystugu" />
		<tag k="place" v="farm" />
		<tag k="ssr:stedsnr" v="767106" />
	</node>
	<node lat="61.864211107616626" lon="9.215838893027923" id="-38700">
		<tag k="name" v="Torstugu" />
		<tag k="place" v="farm" />
		<tag k="ssr:stedsnr" v="767739" />
	</node>
	<node lat="61.822970056355345" lon="8.992806222291048" id="-38703">
		<tag k="fixme" v="consider place=hamlet" />
		<tag k="name" v="Breidokken" />
		<tag k="place" v="farm" />
		<tag k="ssr:stedsnr" v="769136" />
	</node>
	<node lat="61.86933055481673" lon="8.918580551269919" id="-38704">
		<tag k="historic" v="shieling" />
		<tag k="name" v="Grevsætre" />
		<tag k="place" v="isolated_dwelling" />
		<tag k="ssr:stedsnr" v="769060" />
	</node>
	<node lat="61.62999108159068" lon="8.993305361747506" id="-38706">
		<tag k="name" v="Skobekkbua" />
		<tag k="place" v="locality" />
		<tag k="ssr:stedsnr" v="769396" />
	</node>
	<node lat="61.670182931169876" lon="9.072641350041664" id="-38708">
		<tag k="historic" v="shieling" />
		<tag k="name" v="Borstad" />
		<tag k="place" v="isolated_dwelling" />
		<tag k="ssr:stedsnr" v="769425" />
	</node>
	<node lat="61.82572222486934" lon="9.261030546346975" id="-38712">
		<tag k="name" v="Grindåkeren" />
		<tag k="place" v="farm" />
		<tag k="ssr:stedsnr" v="777913" />
	</node>
	<node lat="61.82224722040741" lon="9.252583324240492" id="-38713">
		<tag k="name" v="Einasplassen" />
		<tag k="place" v="isolated_dwelling" />
		<tag k="ssr:stedsnr" v="777920" />
	</node>
	<node lat="61.930027776247535" lon="8.940672221453779" id="-38715">
		<tag k="name" v="Nørdre Øyagarden" />
		<tag k="place" v="farm" />
		<tag k="ssr:stedsnr" v="782314" />
	</node>
	<node lat="61.92886667105546" lon="8.97833333617969" id="-38716">
		<tag k="name" v="Nilsøygarden" />
		<tag k="place" v="farm" />
		<tag k="ssr:stedsnr" v="782318" />
	</node>
	<node lat="61.93158023527523" lon="8.979546832559887" id="-38717">
		<tag k="fixme" v="consider place=hamlet" />
		<tag k="name" v="Uppistugu" />
		<tag k="place" v="farm" />
		<tag k="ssr:stedsnr" v="782319" />
	</node>
	<node lat="61.92959957558101" lon="8.941523158780402" id="-38721">
		<tag k="fixme" v="consider place=hamlet" />
		<tag k="name" v="Øyagarden" />
		<tag k="place" v="farm" />
		<tag k="ssr:stedsnr" v="799147" />
	</node>
	<node lat="61.927636112168294" lon="8.927980561855165" id="-38722">
		<tag k="alt_name" v="Grønlie" />
		<tag k="historic" v="shieling" />
		<tag k="name" v="Grønlii" />
		<tag k="place" v="isolated_dwelling" />
		<tag k="ssr:stedsnr" v="799153" />
	</node>
	<node lat="61.86097500274971" lon="8.979091659344784" id="-38724">
		<tag k="name" v="Midtli" />
		<tag k="place" v="farm" />
		<tag k="ssr:stedsnr" v="799318" />
	</node>
	<node lat="61.86568055424664" lon="9.019777778284698" id="-38725">
		<tag k="alt_name" v="Viste" />
		<tag k="name" v="Uppigard Viste" />
		<tag k="place" v="farm" />
		<tag k="ssr:stedsnr" v="799346" />
	</node>
	<node lat="61.8296058647832" lon="8.988880429573973" id="-38732">
		<tag k="alt_name" v="Synslie" />
		<tag k="fixme" v="consider place=hamlet" />
		<tag k="loc_name" v="Synstlie" />
		<tag k="name" v="Synstlii" />
		<tag k="place" v="farm" />
		<tag k="ssr:stedsnr" v="799494" />
	</node>
	<node lat="61.93777626434716" lon="8.926525569215183" id="-38741">
		<tag k="alt_name" v="Klomsroe" />
		<tag k="historic" v="shieling" />
		<tag k="name" v="Klomsroi" />
		<tag k="place" v="isolated_dwelling" />
		<tag k="ssr:stedsnr" v="800111" />
	</node>
	<node lat="61.79252778077157" lon="9.337388896974247" id="-38742">
		<tag k="name" v="Lego" />
		<tag k="place" v="farm" />
		<tag k="ssr:stedsnr" v="799883" />
	</node>
	<node lat="61.80199444159759" lon="9.282850005447283" id="-38743">
		<tag k="name" v="Randen" />
		<tag k="place" v="farm" />
		<tag k="ssr:stedsnr" v="799901" />
	</node>
	<node lat="61.82441111475422" lon="9.053911114070882" id="-38751">
		<tag k="alt_name" v="Brattlandsætre" />
		<tag k="historic" v="shieling" />
		<tag k="name" v="Brattlandsætri" />
		<tag k="place" v="isolated_dwelling" />
		<tag k="ssr:stedsnr" v="920455" />
	</node>
	<node lat="61.48816666810891" lon="8.841999996176972" id="-38754">
		<tag k="name" v="Maurvangen" />
		<tag k="ssr:stedsnr" v="918821" />
		<tag k="tourism" v="camp_site" />
	</node>
	<node lat="61.86624146334943" lon="9.054460925010124" id="-38760">
		<tag k="alt_name" v="Felese" />
		<tag k="fixme" v="consider place=hamlet" />
		<tag k="name" v="Fellese" />
		<tag k="place" v="farm" />
		<tag k="ssr:stedsnr" v="920315" />
	</node>
	<node lat="61.84959166420664" lon="8.99208056379486" id="-38763">
		<tag k="name" v="Øygarden" />
		<tag k="place" v="farm" />
		<tag k="ssr:stedsnr" v="920273" />
	</node>
	<node lat="61.81776666806058" lon="9.274891664455422" id="-38774">
		<tag k="name" v="Lalm" />
		<tag k="place" v="village" />
		<tag k="ssr:stedsnr" v="920769" />
	</node>
	<node lat="61.79345939318645" lon="9.347859371964047" id="-38775">
		<tag k="name" v="Hanslie" />
		<tag k="place" v="farm" />
		<tag k="ssr:stedsnr" v="920873" />
	</node>
	<node lat="61.72731944176486" lon="9.061172230665752" id="-38779">
		<tag k="alt_name" v="Søremsætre" />
		<tag k="historic" v="shieling" />
		<tag k="name" v="Sørumsætri" />
		<tag k="place" v="isolated_dwelling" />
		<tag k="ssr:stedsnr" v="920961" />
	</node>
	<node lat="61.72871388637889" lon="9.068063895317525" id="-38780">
		<tag k="name" v="Tronhus" />
		<tag k="place" v="farm" />
		<tag k="ssr:stedsnr" v="920962" />
	</node>
	<node lat="61.92769960220843" lon="8.956983781709996" id="-38781">
		<tag k="alt_name" v="Haugen" />
		<tag k="name" v="Søre Haugen" />
		<tag k="place" v="farm" />
		<tag k="ssr:stedsnr" v="921138" />
	</node>
	<node lat="61.87529166309392" lon="9.197947215158782" id="-38784">
		<tag k="alt_name" v="Nørdre Myrom" />
		<tag k="name" v="Myrin" />
		<tag k="place" v="farm" />
		<tag k="ssr:stedsnr" v="921350" />
	</node>
	<node lat="61.87158888908321" lon="9.047741668853734" id="-38785">
		<tag k="name" v="Rydland" />
		<tag k="place" v="farm" />
		<tag k="ssr:stedsnr" v="921356" />
	</node>
	<node lat="61.874983332891716" lon="9.060227784580603" id="-38786">
		<tag k="name" v="Uppigard Kvarberg" />
		<tag k="place" v="farm" />
		<tag k="ssr:stedsnr" v="828173" />
	</node>
	<node lat="61.89217778036258" lon="9.050827770990903" id="-38787">
		<tag k="name" v="Sygard Svare" />
		<tag k="place" v="farm" />
		<tag k="ssr:stedsnr" v="828010" />
	</node>
	<node lat="61.864797226712255" lon="8.98249999550066" id="-38794">
		<tag k="name" v="Gjelbakken" />
		<tag k="place" v="farm" />
		<tag k="ssr:stedsnr" v="830086" />
	</node>
	<node lat="61.92446666932864" lon="9.007719441157407" id="-38799">
		<tag k="historic" v="shieling" />
		<tag k="name" v="Friksætre" />
		<tag k="place" v="isolated_dwelling" />
		<tag k="ssr:stedsnr" v="837496" />
	</node>
	<node lat="61.78404444299597" lon="9.313416659984195" id="-38808">
		<tag k="historic" v="shieling" />
		<tag k="name" v="Hanslisætre" />
		<tag k="place" v="isolated_dwelling" />
		<tag k="ssr:stedsnr" v="859816" />
	</node>
	<node lat="61.785605554293866" lon="9.314322218285922" id="-38809">
		<tag k="historic" v="shieling" />
		<tag k="name" v="Lauvrustsætre" />
		<tag k="place" v="isolated_dwelling" />
		<tag k="ssr:stedsnr" v="859817" />
	</node>
	<node lat="61.84679166404104" lon="9.214816669824087" id="-38813">
		<tag k="alt_name" v="Kluftbakkin" />
		<tag k="name" v="Kluftbakken" />
		<tag k="place" v="farm" />
		<tag k="ssr:stedsnr" v="860306" />
	</node>
	<node lat="61.84772500446735" lon="8.983933341501858" id="-38814">
		<tag k="name" v="Åsvang" />
		<tag k="place" v="farm" />
		<tag k="ssr:stedsnr" v="860320" />
	</node>
	<node lat="61.845074672702935" lon="8.974687810180091" id="-38815">
		<tag k="name" v="Åsheim" />
		<tag k="place" v="farm" />
		<tag k="ssr:stedsnr" v="860323" />
	</node>
	<node lat="61.804125003203325" lon="9.009977778137998" id="-38817">
		<tag k="alt_name" v="Lykkjesætre" />
		<tag k="historic" v="shieling" />
		<tag k="name" v="Lykkjesætri" />
		<tag k="place" v="isolated_dwelling" />
		<tag k="ssr:stedsnr" v="860506" />
	</node>
	<node lat="61.77809166431063" lon="9.051705548759799" id="-38818">
		<tag k="name" v="Bergeenden" />
		<tag k="place" v="isolated_dwelling" />
		<tag k="ssr:stedsnr" v="860472" />
	</node>
	<node lat="61.85340278029655" lon="9.27973332583246" id="-38822">
		<tag k="name" v="Nedre Ruste" />
		<tag k="place" v="farm" />
		<tag k="ssr:stedsnr" v="860956" />
	</node>
	<node lat="61.73068333657866" lon="8.996013894318097" id="-38824">
		<tag k="alt_name" v="Grevrustbue" />
		<tag k="name" v="Grevrustbui" />
		<tag k="place" v="isolated_dwelling" />
		<tag k="ssr:stedsnr" v="860972" />
	</node>
	<node lat="61.845036111454405" lon="8.933333333881043" id="-38825">
		<tag k="name" v="Husehaugen" />
		<tag k="place" v="farm" />
		<tag k="ssr:stedsnr" v="889131" />
	</node>
	<node lat="61.881419440824" lon="9.095502784033965" id="-38829">
		<tag k="name" v="Nørdre Blessom" />
		<tag k="place" v="farm" />
		<tag k="ssr:stedsnr" v="891060" />
	</node>
	<node lat="61.86223611137163" lon="9.08645277874617" id="-38830">
		<tag k="amenity" v="school" />
		<tag k="name" v="Klones vidaregåande skule" />
		<tag k="ssr:stedsnr" v="891278" />
	</node>
	<node lat="61.86727221870361" lon="9.11571666632242" id="-38842">
		<tag k="alt_name" v="Hågån" />
		<tag k="name" v="Hagen" />
		<tag k="place" v="farm" />
		<tag k="ssr:stedsnr" v="920303" />
	</node>
	<node lat="61.85618123675807" lon="8.875324891840084" id="-38846">
		<tag k="alt_name" v="Sandvikje" />
		<tag k="fixme" v="consider place=hamlet" />
		<tag k="name" v="Sandviki" />
		<tag k="place" v="farm" />
		<tag k="ssr:stedsnr" v="920293" />
	</node>
	<node lat="61.86793055392854" lon="9.190738893249385" id="-38847">
		<tag k="name" v="Åsstad" />
		<tag k="place" v="farm" />
		<tag k="ssr:stedsnr" v="920296" />
	</node>
	<node lat="61.78332500204266" lon="9.074333328536381" id="-38849">
		<tag k="historic" v="shieling" />
		<tag k="name" v="Åsrud" />
		<tag k="place" v="isolated_dwelling" />
		<tag k="ssr:stedsnr" v="920408" />
	</node>
	<node lat="61.56317777457626" lon="9.014655560154743" id="-38858">
		<tag k="historic" v="shieling" />
		<tag k="name" v="Griningsdalen" />
		<tag k="place" v="isolated_dwelling" />
		<tag k="ssr:stedsnr" v="920844" />
	</node>
	<node lat="61.87076111329701" lon="8.948325001443552" id="-38864">
		<tag k="alt_name" v="Nistingen, s" />
		<tag k="historic" v="shieling" />
		<tag k="name" v="Søre Nistingen" />
		<tag k="old_name" v="Nistingens" />
		<tag k="place" v="isolated_dwelling" />
		<tag k="ssr:stedsnr" v="921374" />
	</node>
	<node lat="61.84442499923037" lon="8.942608340039715" id="-38871">
		<tag k="alt_name" v="Megarde Storrvik" />
		<tag k="fixme" v="consider place=hamlet" />
		<tag k="name" v="Megarden Storrvik" />
		<tag k="place" v="farm" />
		<tag k="ssr:stedsnr" v="949106" />
	</node>
	<node lat="61.86876389053784" lon="9.213661112036108" id="-38872">
		<tag k="name" v="Sagsletten" />
		<tag k="place" v="farm" />
		<tag k="ssr:stedsnr" v="949731" />
	</node>
	<node lat="61.877633334307326" lon="9.121133325646307" id="-38873">
		<tag k="name" v="Krokom" />
		<tag k="place" v="farm" />
		<tag k="ssr:stedsnr" v="949936" />
	</node>
	<node lat="61.88514167058729" lon="9.11530554697483" id="-38875">
		<tag k="name" v="Bjørge" />
		<tag k="place" v="farm" />
		<tag k="ssr:stedsnr" v="949979" />
	</node>
	<node lat="61.90329444025294" lon="9.006816673041186" id="-38881">
		<tag k="name" v="Nørdre Synsteng" />
		<tag k="place" v="farm" />
		<tag k="ssr:stedsnr" v="951013" />
	</node>
	<node lat="61.86397222464437" lon="8.988752773329486" id="-38882">
		<tag k="alt_name" v="Seinneshågån" />
		<tag k="name" v="Sandneshågån" />
		<tag k="place" v="farm" />
		<tag k="ssr:stedsnr" v="951090" />
	</node>
	<node lat="61.80233872091696" lon="9.017222225647165" id="-38883">
		<tag k="historic" v="shieling" />
		<tag k="name" v="Husehaugsætre" />
		<tag k="place" v="isolated_dwelling" />
		<tag k="ssr:stedsnr" v="951192" />
	</node>
	<node lat="61.83715011949495" lon="9.290467875796518" id="-38885">
		<tag k="name" v="Steinstugu" />
		<tag k="place" v="farm" />
		<tag k="ssr:stedsnr" v="951605" />
	</node>
	<node lat="61.80342222641373" lon="8.962730554204581" id="-38892">
		<tag k="historic" v="shieling" />
		<tag k="name" v="Nebbenessætre" />
		<tag k="place" v="isolated_dwelling" />
		<tag k="ssr:stedsnr" v="963483" />
	</node>
	<node lat="61.8865172177002" lon="9.104718550646362" id="-38904">
		<tag k="name" v="Øvre" />
		<tag k="place" v="farm" />
		<tag k="ssr:stedsnr" v="974629" />
	</node>
	<node lat="61.88194681806883" lon="9.09582194403297" id="-38905">
		<tag k="name" v="Blessom" />
		<tag k="place" v="hamlet" />
		<tag k="ssr:stedsnr" v="984504" />
	</node>
	<node lat="61.883594539619274" lon="9.082512216317095" id="-38906">
		<tag k="fixme" v="consider place=hamlet" />
		<tag k="name" v="Sundhågån" />
		<tag k="place" v="farm" />
		<tag k="ssr:stedsnr" v="984506" />
	</node>
	<node lat="61.86514958296308" lon="9.153248294261344" id="-38907">
		<tag k="name" v="Kleppe" />
		<tag k="place" v="hamlet" />
		<tag k="ssr:stedsnr" v="984599" />
	</node>
	<node lat="61.85859628925882" lon="9.18867798267718" id="-38908">
		<tag k="name" v="Holdbø" />
		<tag k="place" v="hamlet" />
		<tag k="ssr:stedsnr" v="984601" />
	</node>
	<node lat="61.85682074712581" lon="9.20059497004618" id="-38909">
		<tag k="fixme" v="consider place=hamlet" />
		<tag k="name" v="Austrem" />
		<tag k="place" v="farm" />
		<tag k="ssr:stedsnr" v="984602" />
	</node>
	<node lat="61.80026937249001" lon="9.304632149562984" id="-38910">
		<tag k="fixme" v="consider place=hamlet" />
		<tag k="name" v="Eide" />
		<tag k="place" v="farm" />
		<tag k="ssr:stedsnr" v="984612" />
	</node>
	<node lat="61.86013583157491" lon="9.157481263088238" id="-38957">
		<tag k="alt_name" v="Bråten, øvre;Øver-Bråtån" />
		<tag k="name" v="Øvre Bråten" />
		<tag k="place" v="farm" />
		<tag k="ssr:stedsnr" v="10280" />
	</node>
	<node lat="61.85928214110684" lon="9.068979593033642" id="-38958">
		<tag k="fixme" v="consider place=hamlet" />
		<tag k="name" v="Ripstrond" />
		<tag k="place" v="farm" />
		<tag k="ssr:stedsnr" v="10282" />
	</node>
	<node lat="61.91246389235964" lon="8.971327779723651" id="-38960">
		<tag k="alt_name" v="Liasætrin, nordre" />
		<tag k="historic" v="shieling" />
		<tag k="name" v="Nørdre Liasætrin" />
		<tag k="place" v="isolated_dwelling" />
		<tag k="ssr:stedsnr" v="10160" />
	</node>
	<node lat="61.921472535849695" lon="9.007507172719903" id="-38961">
		<tag k="fixme" v="consider place=hamlet" />
		<tag k="name" v="Preststulen" />
		<tag k="place" v="farm" />
		<tag k="ssr:stedsnr" v="10165" />
	</node>
	<node lat="61.82361389297221" lon="9.112224999778872" id="-38966">
		<tag k="alt_name" v="Hølmosætre" />
		<tag k="historic" v="shieling" />
		<tag k="name" v="Hølmosætri" />
		<tag k="place" v="isolated_dwelling" />
		<tag k="ssr:stedsnr" v="10462" />
	</node>
	<node lat="61.78210277578825" lon="9.167769442442989" id="-38968">
		<tag k="alt_name" v="Øversætrene" />
		<tag k="historic" v="shieling" />
		<tag k="name" v="Øversætrin" />
		<tag k="place" v="isolated_dwelling" />
		<tag k="ssr:stedsnr" v="10425" />
	</node>
	<node lat="61.58915761945185" lon="8.92851495042566" id="-38970">
		<tag k="historic" v="shieling" />
		<tag k="name" v="Russlie" />
		<tag k="place" v="isolated_dwelling" />
		<tag k="ssr:stedsnr" v="10823" />
	</node>
	<node lat="61.88488888493015" lon="9.064513889799867" id="-38984">
		<tag k="alt_name" v="Sælatunga" />
		<tag k="name" v="Selatunga" />
		<tag k="place" v="farm" />
		<tag k="ssr:stedsnr" v="11341" />
	</node>
	<node lat="61.89386139431456" lon="9.031636108237041" id="-38986">
		<tag k="alt_name" v="Nørdre Holen" />
		<tag k="name" v="Holen" />
		<tag k="place" v="farm" />
		<tag k="ssr:stedsnr" v="11349" />
	</node>
	<node lat="61.858869447765194" lon="9.24181110430191" id="-38988">
		<tag k="name" v="Nørdre Ruste" />
		<tag k="place" v="farm" />
		<tag k="ssr:stedsnr" v="11943" />
	</node>
	<node lat="61.84559166996196" lon="9.220980557254979" id="-38989">
		<tag k="name" v="Rugsvee" />
		<tag k="place" v="farm" />
		<tag k="ssr:stedsnr" v="11949" />
	</node>
	<node lat="61.84384999744857" lon="9.257097222179329" id="-38990">
		<tag k="name" v="Rudilykkja" />
		<tag k="place" v="farm" />
		<tag k="ssr:stedsnr" v="11954" />
	</node>
	<node lat="61.836548899560185" lon="9.288328792648839" id="-38992">
		<tag k="fixme" v="consider place=hamlet" />
		<tag k="name" v="Bårstad" />
		<tag k="place" v="farm" />
		<tag k="ssr:stedsnr" v="22851" />
	</node>
	<node lat="61.75898610975141" lon="9.074444443822632" id="-38993">
		<tag k="name" v="Lemonsjø fjellstue" />
		<tag k="ssr:stedsnr" v="25149" />
		<tag k="tourism" v="hotel" />
	</node>
	<node lat="61.895066665510775" lon="9.035733336523577" id="-38996">
		<tag k="name" v="Holslykkja" />
		<tag k="place" v="isolated_dwelling" />
		<tag k="ssr:stedsnr" v="39018" />
	</node>
	<node lat="61.89313333107961" lon="9.040561102729686" id="-38997">
		<tag k="name" v="Sør-Holen" />
		<tag k="place" v="farm" />
		<tag k="ssr:stedsnr" v="39021" />
	</node>
	<node lat="61.84316497051697" lon="8.945698242155515" id="-38998">
		<tag k="name" v="Ramen" />
		<tag k="place" v="farm" />
		<tag k="ssr:stedsnr" v="39096" />
	</node>
	<node lat="61.86827777900139" lon="8.919113882783009" id="-39003">
		<tag k="historic" v="shieling" />
		<tag k="name" v="Ulsandsætre" />
		<tag k="place" v="isolated_dwelling" />
		<tag k="ssr:stedsnr" v="41080" />
	</node>
	<node lat="61.865841668857634" lon="8.9923999932453" id="-39004">
		<tag k="name" v="Uppigard Bergje" />
		<tag k="place" v="farm" />
		<tag k="ssr:stedsnr" v="41099" />
	</node>
	<node lat="61.866072844781385" lon="8.985035334603893" id="-39005">
		<tag k="name" v="Gammel Gjelbakken" />
		<tag k="place" v="farm" />
		<tag k="ssr:stedsnr" v="41100" />
	</node>
	<node lat="61.82910277709034" lon="9.047002787114575" id="-39010">
		<tag k="historic" v="shieling" />
		<tag k="name" v="Rusnessætre" />
		<tag k="place" v="isolated_dwelling" />
		<tag k="ssr:stedsnr" v="41151" />
	</node>
	<node lat="61.865138892911354" lon="9.103391662455776" id="-39011">
		<tag k="name" v="Heggeli" />
		<tag k="place" v="farm" />
		<tag k="ssr:stedsnr" v="41232" />
	</node>
	<node lat="61.721938886624535" lon="9.058388892076088" id="-39012">
		<tag k="building" v="industrial" />
		<tag k="name" v="Randsverk sag og høvleri" />
		<tag k="ssr:stedsnr" v="41460" />
	</node>
	<node lat="61.729374997096585" lon="9.07549999856329" id="-39014">
		<tag k="name" v="Stykkjusætre" />
		<tag k="place" v="farm" />
		<tag k="ssr:stedsnr" v="41300" />
	</node>
	<node lat="61.860583336036235" lon="9.147761109028897" id="-39018">
		<tag k="name" v="Persøygarden" />
		<tag k="place" v="isolated_dwelling" />
		<tag k="ssr:stedsnr" v="41942" />
	</node>
	<node lat="61.864802780942" lon="9.131127783957094" id="-39019">
		<tag k="name" v="Myrvold" />
		<tag k="place" v="farm" />
		<tag k="ssr:stedsnr" v="41946" />
	</node>
	<node lat="61.82908333476775" lon="9.268605551985798" id="-39020">
		<tag k="name" v="Tangsæter" />
		<tag k="place" v="farm" />
		<tag k="ssr:stedsnr" v="48935" />
	</node>
	<node lat="61.825638892874025" lon="8.973827770814339" id="-39023">
		<tag k="fixme" v="consider place=hamlet" />
		<tag k="name" v="Bondesonplassen" />
		<tag k="place" v="farm" />
		<tag k="ssr:stedsnr" v="54497" />
	</node>
	<node lat="61.871893882885146" lon="9.025713939309808" id="-39030">
		<tag k="fixme" v="consider place=hamlet" />
		<tag k="name" v="Valbjør" />
		<tag k="place" v="farm" />
		<tag k="ssr:stedsnr" v="71377" />
	</node>
	<node lat="61.73106666957946" lon="9.068011115731572" id="-39032">
		<tag k="alt_name" v="Villasætre" />
		<tag k="historic" v="shieling" />
		<tag k="name" v="Villasætri" />
		<tag k="place" v="isolated_dwelling" />
		<tag k="ssr:stedsnr" v="70960" />
	</node>
	<node lat="61.852425879249026" lon="9.040580803307149" id="-39034">
		<tag k="alt_name" v="Vistekleivi, nedre;Vistekleive nedre" />
		<tag k="name" v="Nedre Vistekleivi" />
		<tag k="place" v="farm" />
		<tag k="ssr:stedsnr" v="71291" />
	</node>
	<node lat="61.850505744720664" lon="8.989797571977933" id="-39035">
		<tag k="fixme" v="consider place=hamlet" />
		<tag k="name" v="Kviten" />
		<tag k="place" v="farm" />
		<tag k="ssr:stedsnr" v="71296" />
	</node>
	<node lat="61.84514444745811" lon="8.928361109593327" id="-39036">
		<tag k="name" v="Randen" />
		<tag k="place" v="farm" />
		<tag k="ssr:stedsnr" v="71302" />
	</node>
	<node lat="61.85800555717643" lon="9.1878027746253" id="-39037">
		<tag k="alt_name" v="Holdbø" />
		<tag k="name" v="Nordigard Holdbø" />
		<tag k="place" v="farm" />
		<tag k="ssr:stedsnr" v="71313" />
	</node>
	<node lat="61.86827500277869" lon="9.190141659627844" id="-39038">
		<tag k="alt_name" v="Neset, s;Sør-Nesset" />
		<tag k="name" v="Søre Neset" />
		<tag k="place" v="farm" />
		<tag k="ssr:stedsnr" v="71339" />
	</node>
	<node lat="61.86762777559678" lon="9.154475003326198" id="-39039">
		<tag k="name" v="Dammen" />
		<tag k="place" v="farm" />
		<tag k="ssr:stedsnr" v="71344" />
	</node>
	<node lat="61.86584999671665" lon="8.984152773430123" id="-39040">
		<tag k="name" v="Stordalen" />
		<tag k="place" v="farm" />
		<tag k="ssr:stedsnr" v="71357" />
	</node>
	<node lat="61.86550137244532" lon="8.994333774485975" id="-39041">
		<tag k="alt_name" v="Berge" />
		<tag k="name" v="Nigard Bergje" />
		<tag k="place" v="farm" />
		<tag k="ssr:stedsnr" v="71358" />
	</node>
	<node lat="61.79379721797768" lon="9.145813886657326" id="-39042">
		<tag k="alt_name" v="Vikje" />
		<tag k="historic" v="shieling" />
		<tag k="name" v="Vikasætri" />
		<tag k="place" v="isolated_dwelling" />
		<tag k="ssr:stedsnr" v="71474" />
	</node>
	<node lat="61.80972500194145" lon="9.08855000893012" id="-39043">
		<tag k="historic" v="shieling" />
		<tag k="name" v="Kvilarholet" />
		<tag k="place" v="isolated_dwelling" />
		<tag k="ssr:stedsnr" v="71477" />
	</node>
	<node lat="61.81812222493271" lon="9.04478889016523" id="-39044">
		<tag k="alt_name" v="Nessesætre" />
		<tag k="historic" v="shieling" />
		<tag k="name" v="Nesesætri" />
		<tag k="place" v="isolated_dwelling" />
		<tag k="ssr:stedsnr" v="71492" />
	</node>
	<node lat="61.91631388648338" lon="8.988808340041947" id="-39047">
		<tag k="name" v="Skogen" />
		<tag k="place" v="farm" />
		<tag k="ssr:stedsnr" v="71163" />
	</node>
	<node lat="61.883169444815955" lon="9.139766673804402" id="-39049">
		<tag k="name" v="Rudi" />
		<tag k="place" v="farm" />
		<tag k="ssr:stedsnr" v="71381" />
	</node>
	<node lat="61.80324999754196" lon="9.176002772642981" id="-39051">
		<tag k="historic" v="shieling" />
		<tag k="name" v="Holdbøssætri" />
		<tag k="place" v="isolated_dwelling" />
		<tag k="ssr:stedsnr" v="71462" />
	</node>
	<node lat="61.8003833350984" lon="9.191388890879251" id="-39052">
		<tag k="historic" v="shieling" />
		<tag k="name" v="Granrudsætri" />
		<tag k="place" v="isolated_dwelling" />
		<tag k="ssr:stedsnr" v="71463" />
	</node>
	<node lat="61.820774997320505" lon="9.37215833278946" id="-39057">
		<tag k="historic" v="shieling" />
		<tag k="name" v="Tjorsætre" />
		<tag k="place" v="isolated_dwelling" />
		<tag k="ssr:stedsnr" v="71797" />
	</node>
	<node lat="61.821486109339055" lon="9.258563893808336" id="-39058">
		<tag k="fixme" v="consider place=hamlet" />
		<tag k="name" v="Skårsroe" />
		<tag k="place" v="village" />
		<tag k="ssr:stedsnr" v="71800" />
	</node>
	<node lat="61.82531636843674" lon="9.256266714765156" id="-39059">
		<tag k="name" v="Bakkom" />
		<tag k="place" v="locality" />
		<tag k="ssr:stedsnr" v="71801" />
	</node>
	<node lat="61.832699999652945" lon="9.258363881048732" id="-39060">
		<tag k="name" v="Skogstad" />
		<tag k="place" v="farm" />
		<tag k="ssr:stedsnr" v="71811" />
	</node>
	<node lat="61.84638327716648" lon="9.24418850928168" id="-39065">
		<tag k="alt_name" v="Snerle, søre;Søre Snerle" />
		<tag k="fixme" v="consider place=hamlet" />
		<tag k="name" v="Sygard Snerle" />
		<tag k="place" v="farm" />
		<tag k="ssr:stedsnr" v="72943" />
	</node>
	<node lat="61.88824166763748" lon="9.074172219252873" id="-39068">
		<tag k="name" v="Systugu Lunde" />
		<tag k="place" v="farm" />
		<tag k="ssr:stedsnr" v="100033" />
	</node>
	<node lat="61.88424208955938" lon="9.087449207862768" id="-39070">
		<tag k="name" v="Furusæta" />
		<tag k="place" v="farm" />
		<tag k="ssr:stedsnr" v="100039" />
	</node>
	<node lat="61.8792888887889" lon="9.151666669083042" id="-39072">
		<tag k="name" v="Solheim" />
		<tag k="place" v="isolated_dwelling" />
		<tag k="ssr:stedsnr" v="100996" />
	</node>
	<node lat="61.879841667630885" lon="9.142555548913641" id="-39073">
		<tag k="name" v="Uppigard Sandbu" />
		<tag k="place" v="farm" />
		<tag k="ssr:stedsnr" v="100997" />
	</node>
	<node lat="61.851383330374944" lon="9.207799991921698" id="-39074">
		<tag k="name" v="Nørdre Løken" />
		<tag k="place" v="farm" />
		<tag k="ssr:stedsnr" v="100821" />
	</node>
	<node lat="61.88014444888325" lon="9.104541660543646" id="-39079">
		<tag k="name" v="Gardsøy" />
		<tag k="place" v="farm" />
		<tag k="ssr:stedsnr" v="102065" />
	</node>
	<node lat="61.853599441959425" lon="9.028445114010001" id="-39081">
		<tag k="fixme" v="consider place=hamlet" />
		<tag k="name" v="Søre Ringneset" />
		<tag k="place" v="farm" />
		<tag k="ssr:stedsnr" v="102141" />
	</node>
	<node lat="61.87954166668165" lon="9.05844444109787" id="-39087">
		<tag k="name" v="Dalhytta" />
		<tag k="place" v="isolated_dwelling" />
		<tag k="ssr:stedsnr" v="102236" />
	</node>
	<node lat="61.86600555695912" lon="9.137844452771764" id="-39089">
		<tag k="name" v="Myhre" />
		<tag k="place" v="farm" />
		<tag k="ssr:stedsnr" v="102950" />
	</node>
	<node lat="61.86679444300598" lon="9.127697222847019" id="-39090">
		<tag k="name" v="Søre Gjeilin" />
		<tag k="place" v="farm" />
		<tag k="ssr:stedsnr" v="102952" />
	</node>
	<node lat="61.8626027743592" lon="9.170155554642603" id="-39091">
		<tag k="name" v="Nistugu Stokstad" />
		<tag k="place" v="farm" />
		<tag k="ssr:stedsnr" v="102962" />
	</node>
	<node lat="61.82667777909553" lon="9.08410833256563" id="-39093">
		<tag k="historic" v="shieling" />
		<tag k="name" v="Randsætre" />
		<tag k="place" v="isolated_dwelling" />
		<tag k="ssr:stedsnr" v="109460" />
	</node>
	<node lat="61.82070555670619" lon="9.114313888594248" id="-39095">
		<tag k="historic" v="shieling" />
		<tag k="name" v="Prestsætre" />
		<tag k="place" v="isolated_dwelling" />
		<tag k="ssr:stedsnr" v="110560" />
	</node>
	<node lat="61.80318333356197" lon="8.964280558838752" id="-39101">
		<tag k="historic" v="shieling" />
		<tag k="name" v="Randsætre" />
		<tag k="place" v="isolated_dwelling" />
		<tag k="ssr:stedsnr" v="114462" />
	</node>
	<node lat="61.92866111275981" lon="8.95121944535027" id="-39107">
		<tag k="fixme" v="consider place=hamlet" />
		<tag k="name" v="Skårvangen" />
		<tag k="place" v="village" />
		<tag k="ssr:stedsnr" v="131136" />
	</node>
	<node lat="61.835499999022716" lon="9.21067221580159" id="-39109">
		<tag k="historic" v="shieling" />
		<tag k="name" v="Svarthåmårsætrin" />
		<tag k="place" v="isolated_dwelling" />
		<tag k="ssr:stedsnr" v="131236" />
	</node>
	<node lat="61.79182500303028" lon="9.199224999238997" id="-39110">
		<tag k="historic" v="shieling" />
		<tag k="name" v="Melsætri" />
		<tag k="place" v="isolated_dwelling" />
		<tag k="ssr:stedsnr" v="131407" />
	</node>
	<node lat="61.78625466918904" lon="9.167950494561454" id="-39111">
		<tag k="historic" v="shieling" />
		<tag k="name" v="Stulen" />
		<tag k="place" v="isolated_dwelling" />
		<tag k="ssr:stedsnr" v="131411" />
	</node>
	<node lat="61.83665833026516" lon="8.962933338750796" id="-39112">
		<tag k="name" v="Skultbakken" />
		<tag k="place" v="farm" />
		<tag k="ssr:stedsnr" v="131242" />
	</node>
	<node lat="61.84789999716226" lon="9.168963889568154" id="-39114">
		<tag k="alt_name" v="Veslsætre" />
		<tag k="historic" v="shieling" />
		<tag k="name" v="Veslsætri" />
		<tag k="place" v="isolated_dwelling" />
		<tag k="ssr:stedsnr" v="131261" />
	</node>
	<node lat="61.84556389140708" lon="9.156413884028934" id="-39115">
		<tag k="alt_name" v="Nysætre" />
		<tag k="historic" v="shieling" />
		<tag k="name" v="Nysætri" />
		<tag k="place" v="isolated_dwelling" />
		<tag k="ssr:stedsnr" v="131263" />
	</node>
	<node lat="61.8010861117005" lon="8.960297215645115" id="-39117">
		<tag k="alt_name" v="Tungsætre" />
		<tag k="historic" v="shieling" />
		<tag k="name" v="Tungsætri" />
		<tag k="place" v="isolated_dwelling" />
		<tag k="ssr:stedsnr" v="131430" />
	</node>
	<node lat="61.80197777683466" lon="9.017811113432177" id="-39118">
		<tag k="alt_name" v="Nystugusætre" />
		<tag k="historic" v="shieling" />
		<tag k="name" v="Nystugusætri" />
		<tag k="place" v="isolated_dwelling" />
		<tag k="ssr:stedsnr" v="131437" />
	</node>
	<node lat="61.82930000046702" lon="9.061666669553528" id="-39124">
		<tag k="alt_name" v="Landesætre" />
		<tag k="historic" v="shieling" />
		<tag k="name" v="Landesætri" />
		<tag k="place" v="isolated_dwelling" />
		<tag k="ssr:stedsnr" v="131462" />
	</node>
	<node lat="61.5404472222576" lon="8.938472220819436" id="-39127">
		<tag k="historic" v="shieling" />
		<tag k="name" v="Grasvikje" />
		<tag k="place" v="isolated_dwelling" />
		<tag k="ssr:stedsnr" v="131890" />
	</node>
	<node lat="61.839274995800416" lon="9.231949994497366" id="-39130">
		<tag k="name" v="Lauvstad" />
		<tag k="place" v="farm" />
		<tag k="ssr:stedsnr" v="131842" />
	</node>
	<node lat="61.8411004597801" lon="9.229301633981851" id="-39131">
		<tag k="fixme" v="consider place=hamlet" />
		<tag k="name" v="Teigen" />
		<tag k="place" v="farm" />
		<tag k="ssr:stedsnr" v="131843" />
	</node>
	<node lat="61.84024228230118" lon="9.239383792472346" id="-39132">
		<tag k="fixme" v="consider place=hamlet" />
		<tag k="name" v="Nørdre Stade" />
		<tag k="place" v="farm" />
		<tag k="ssr:stedsnr" v="131846" />
	</node>
	<node lat="61.89308055428749" lon="9.118433338128108" id="-39142">
		<tag k="historic" v="shieling" />
		<tag k="name" v="Veslsætrin" />
		<tag k="place" v="isolated_dwelling" />
		<tag k="ssr:stedsnr" v="132341" />
	</node>
	<node lat="61.89431111163385" lon="9.10567222326866" id="-39143">
		<tag k="alt_name" v="Blessomøygardein" />
		<tag k="historic" v="shieling" />
		<tag k="name" v="Blesomøygarden" />
		<tag k="place" v="isolated_dwelling" />
		<tag k="ssr:stedsnr" v="132342" />
	</node>
	<node lat="61.85502222046901" lon="9.268783339062885" id="-39145">
		<tag k="name" v="Ruste" />
		<tag k="place" v="farm" />
		<tag k="ssr:stedsnr" v="132935" />
	</node>
	<node lat="61.84997715161581" lon="9.235843859680255" id="-39146">
		<tag k="alt_name" v="Snerle, nørdre;Nørdre Snerle" />
		<tag k="fixme" v="consider place=hamlet" />
		<tag k="name" v="Nordigard Snerle" />
		<tag k="place" v="farm" />
		<tag k="ssr:stedsnr" v="132944" />
	</node>
	<node lat="61.83553333431789" lon="9.275888883135408" id="-39148">
		<tag k="name" v="Solstad" />
		<tag k="place" v="farm" />
		<tag k="ssr:stedsnr" v="157450" />
	</node>
	<node lat="61.84443055937703" lon="8.934330561725357" id="-39150">
		<tag k="name" v="Pålstugu" />
		<tag k="place" v="farm" />
		<tag k="ssr:stedsnr" v="160086" />
	</node>
	<node lat="61.871347219751534" lon="9.09308332895007" id="-39151">
		<tag k="name" v="Gudbrandstugu" />
		<tag k="place" v="farm" />
		<tag k="ssr:stedsnr" v="160148" />
	</node>
	<node lat="61.888191662594565" lon="9.075272231137692" id="-39154">
		<tag k="name" v="Nordigard Lunde" />
		<tag k="place" v="farm" />
		<tag k="ssr:stedsnr" v="160031" />
	</node>
	<node lat="61.87529289081625" lon="9.197942431394791" id="-39155">
		<tag k="name" v="Myrmo" />
		<tag k="place" v="farm" />
		<tag k="ssr:stedsnr" v="160494" />
	</node>
	<node lat="61.86499170642208" lon="9.210471224120152" id="-39156">
		<tag k="name" v="Nedre Haugen" />
		<tag k="place" v="farm" />
		<tag k="ssr:stedsnr" v="160718" />
	</node>
	<node lat="61.870422221969164" lon="9.21433333503563" id="-39157">
		<tag k="name" v="Øvre Randen" />
		<tag k="place" v="locality" />
		<tag k="ssr:stedsnr" v="160723" />
	</node>
	<node lat="61.847508158529074" lon="9.216190922588174" id="-39158">
		<tag k="name" v="Kluften" />
		<tag k="place" v="farm" />
		<tag k="ssr:stedsnr" v="160842" />
	</node>
	<node lat="61.88392689289949" lon="9.138059871312944" id="-39159">
		<tag k="name" v="Nørdre Vassdokken" />
		<tag k="place" v="farm" />
		<tag k="ssr:stedsnr" v="160986" />
	</node>
	<node lat="61.88345277570429" lon="9.128897221643523" id="-39160">
		<tag k="name" v="Steinset" />
		<tag k="place" v="farm" />
		<tag k="ssr:stedsnr" v="160989" />
	</node>
	<node lat="61.84791111319975" lon="8.9591361147737" id="-39161">
		<tag k="name" v="Nedre Storrvik" />
		<tag k="place" v="farm" />
		<tag k="ssr:stedsnr" v="161020" />
	</node>
	<node lat="61.730836106776934" lon="9.066452773849106" id="-39171">
		<tag k="historic" v="shieling" />
		<tag k="loc_name" v="Randsroe" />
		<tag k="name" v="Randsro" />
		<tag k="place" v="isolated_dwelling" />
		<tag k="ssr:stedsnr" v="162477" />
	</node>
	<node lat="61.85676429601916" lon="9.255521018621948" id="-39177">
		<tag k="name" v="Bergheim" />
		<tag k="place" v="farm" />
		<tag k="ssr:stedsnr" v="170505" />
	</node>
	<node lat="61.49405833198073" lon="8.812947221667798" id="-39185">
		<tag k="fixme" v="consider tourism=alpine_hut or tourism=chalet" />
		<tag k="name" v="Gjendesheim" />
		<tag k="ssr:stedsnr" v="190799" />
		<tag k="tourism" v="wilderness_hut" />
	</node>
	<node lat="61.927133335801194" lon="8.998416660899448" id="-39187">
		<tag k="alt_name" v="Siemsætre" />
		<tag k="historic" v="shieling" />
		<tag k="name" v="Siemssætri" />
		<tag k="place" v="isolated_dwelling" />
		<tag k="ssr:stedsnr" v="192173" />
	</node>
	<node lat="61.84509444441113" lon="8.92955555407956" id="-39189">
		<tag k="alt_name" v="Bjorviki" />
		<tag k="name" v="Bjørvikje" />
		<tag k="place" v="farm" />
		<tag k="ssr:stedsnr" v="192302" />
	</node>
	<node lat="61.855635180276295" lon="9.208058704541543" id="-39190">
		<tag k="fixme" v="consider place=hamlet" />
		<tag k="name" v="Svenstad" />
		<tag k="place" v="farm" />
		<tag k="ssr:stedsnr" v="192309" />
	</node>
	<node lat="61.85969763447523" lon="9.17415173594305" id="-39191">
		<tag k="name" v="Stokkstad" />
		<tag k="place" v="hamlet" />
		<tag k="ssr:stedsnr" v="192313" />
	</node>
	<node lat="61.85976944035236" lon="9.160375002764345" id="-39192">
		<tag k="name" v="Bråtåhaugen" />
		<tag k="place" v="farm" />
		<tag k="ssr:stedsnr" v="192318" />
	</node>
	<node lat="61.87073333283645" lon="9.181252777467991" id="-39194">
		<tag k="alt_name" v="Neset, nordre;Nørder-Nesset" />
		<tag k="name" v="Nørdre Neset" />
		<tag k="place" v="farm" />
		<tag k="ssr:stedsnr" v="192333" />
	</node>
	<node lat="61.84352778073737" lon="8.890813891756938" id="-39195">
		<tag k="name" v="Viem" />
		<tag k="place" v="farm" />
		<tag k="ssr:stedsnr" v="192283" />
	</node>
	<node lat="61.8621611120145" lon="9.015472225285926" id="-39196">
		<tag k="alt_name" v="Velle" />
		<tag k="fixme" v="consider place=hamlet" />
		<tag k="name" v="Nordigard Valde" />
		<tag k="place" v="farm" />
		<tag k="ssr:stedsnr" v="192351" />
	</node>
	<node lat="61.870261607285606" lon="9.054567548748002" id="-39197">
		<tag k="fixme" v="consider place=hamlet" />
		<tag k="name" v="Brattland" />
		<tag k="place" v="farm" />
		<tag k="ssr:stedsnr" v="192355" />
	</node>
	<node lat="61.79603418104584" lon="9.0819405320883" id="-39200">
		<tag k="historic" v="shieling" />
		<tag k="name" v="Tuvstulen" />
		<tag k="place" v="isolated_dwelling" />
		<tag k="ssr:stedsnr" v="192474" />
	</node>
	<node lat="61.829725000658584" lon="8.995138882113523" id="-39204">
		<tag k="alt_name" v="Bakken, nedre" />
		<tag k="name" v="Nedre Bakken" />
		<tag k="place" v="farm" />
		<tag k="ssr:stedsnr" v="192515" />
	</node>
	<node lat="61.82731111055095" lon="9.074211117847565" id="-39205">
		<tag k="alt_name" v="Klonessætre" />
		<tag k="historic" v="shieling" />
		<tag k="name" v="Klonesætri" />
		<tag k="place" v="isolated_dwelling" />
		<tag k="ssr:stedsnr" v="192520" />
	</node>
	<node lat="61.823555555407246" lon="8.960933325516834" id="-39206">
		<tag k="alt_name" v="Keillbakk" />
		<tag k="name" v="Kaldbakken" />
		<tag k="place" v="locality" />
		<tag k="ssr:stedsnr" v="192524" />
	</node>
	<node lat="61.831850003422616" lon="9.252491672577744" id="-39212">
		<tag k="name" v="Drogje" />
		<tag k="place" v="farm" />
		<tag k="ssr:stedsnr" v="192812" />
	</node>
	<node lat="61.730075003762515" lon="8.988505562904049" id="-39216">
		<tag k="name" v="Bandet" />
		<tag k="place" v="locality" />
		<tag k="ssr:stedsnr" v="192960" />
	</node>
	<node lat="61.73250833010669" lon="9.074886118231687" id="-39218">
		<tag k="alt_name" v="Nørdre Blessomsætre" />
		<tag k="historic" v="shieling" />
		<tag k="name" v="Blessomsætri" />
		<tag k="place" v="isolated_dwelling" />
		<tag k="ssr:stedsnr" v="192962" />
	</node>
	<node lat="61.724597222686015" lon="9.054208333121489" id="-39224">
		<tag k="alt_name" v="Sandbusætre" />
		<tag k="historic" v="shieling" />
		<tag k="name" v="Sandbusætri" />
		<tag k="place" v="isolated_dwelling" />
		<tag k="ssr:stedsnr" v="192985" />
	</node>
	<node lat="61.79742221784032" lon="9.226119441110432" id="-39228">
		<tag k="name" v="Reiregrende" />
		<tag k="place" v="hamlet" />
		<tag k="ssr:stedsnr" v="192882" />
	</node>
	<node lat="61.79099865680879" lon="9.281520157634267" id="-39229">
		<tag k="fixme" v="multiple name tags, choose one and add the other to alt_name" />
		<tag k="historic" v="shieling" />
		<tag k="name" v="Brennhaugsætre;Liasætre" />
		<tag k="place" v="isolated_dwelling" />
		<tag k="ssr:stedsnr" v="192883" />
	</node>
	<node lat="61.878794441694794" lon="9.062649997007854" id="-39240">
		<tag k="name" v="Dalen" />
		<tag k="place" v="farm" />
		<tag k="ssr:stedsnr" v="193348" />
	</node>
	<node lat="61.87658946017581" lon="9.149352739990585" id="-39241">
		<tag k="fixme" v="consider place=hamlet" />
		<tag k="name" v="Sørem" />
		<tag k="place" v="farm" />
		<tag k="ssr:stedsnr" v="193332" />
	</node>
	<node lat="61.86226913376761" lon="8.921115825151617" id="-39242">
		<tag k="alt_name" v="Flåten" />
		<tag k="fixme" v="consider place=hamlet" />
		<tag k="name" v="Floten" />
		<tag k="place" v="farm" />
		<tag k="ssr:stedsnr" v="193338" />
	</node>
	<node lat="61.89680726518487" lon="9.019573678376375" id="-39244">
		<tag k="alt_name" v="Siem" />
		<tag k="name" v="Megarden Siem" />
		<tag k="place" v="farm" />
		<tag k="ssr:stedsnr" v="193376" />
	</node>
	<node lat="61.857172219928124" lon="9.220911120102834" id="-39247">
		<tag k="name" v="Snerlbakken" />
		<tag k="place" v="farm" />
		<tag k="ssr:stedsnr" v="193934" />
	</node>
	<node lat="61.84344444187792" lon="9.219247224882745" id="-39251">
		<tag k="name" v="Flate" />
		<tag k="place" v="farm" />
		<tag k="ssr:stedsnr" v="221832" />
	</node>
	<node lat="61.88894444787837" lon="9.07188611304597" id="-39253">
		<tag k="name" v="Skålen" />
		<tag k="place" v="farm" />
		<tag k="ssr:stedsnr" v="221032" />
	</node>
	<node lat="61.87222800249469" lon="9.091285614567937" id="-39254">
		<tag k="name" v="Torestugu" />
		<tag k="place" v="isolated_dwelling" />
		<tag k="ssr:stedsnr" v="221159" />
	</node>
	<node lat="61.874486114146976" lon="9.091636109754907" id="-39255">
		<tag k="name" v="Brenna" />
		<tag k="place" v="isolated_dwelling" />
		<tag k="ssr:stedsnr" v="221160" />
	</node>
	<node lat="61.87364166291875" lon="9.09020833043771" id="-39256">
		<tag k="name" v="Grindstugu" />
		<tag k="place" v="isolated_dwelling" />
		<tag k="ssr:stedsnr" v="221161" />
	</node>
	<node lat="61.88210695961421" lon="9.141039838806025" id="-39258">
		<tag k="name" v="Lykkja" />
		<tag k="place" v="farm" />
		<tag k="ssr:stedsnr" v="221995" />
	</node>
	<node lat="61.624047201998536" lon="9.013217343783841" id="-39260">
		<tag k="name" v="Sallisaga" />
		<tag k="place" v="locality" />
		<tag k="ssr:stedsnr" v="223649" />
	</node>
	<node lat="61.84855277552278" lon="8.964027780803622" id="-39261">
		<tag k="name" v="Søre Tessand" />
		<tag k="place" v="farm" />
		<tag k="ssr:stedsnr" v="223120" />
	</node>
	<node lat="61.84713610800994" lon="8.995355561938755" id="-39263">
		<tag k="name" v="Larsflåten" />
		<tag k="place" v="locality" />
		<tag k="ssr:stedsnr" v="223136" />
	</node>
	<node lat="61.86055277587776" lon="9.153422217409702" id="-39267">
		<tag k="name" v="Granheim" />
		<tag k="place" v="isolated_dwelling" />
		<tag k="ssr:stedsnr" v="223234" />
	</node>
	<node lat="61.872416666719694" lon="9.03052221754797" id="-39269">
		<tag k="name" v="Jordet" />
		<tag k="place" v="farm" />
		<tag k="ssr:stedsnr" v="223242" />
	</node>
	<node lat="61.874582147622235" lon="9.034573850119601" id="-39270">
		<tag k="name" v="Uppstad" />
		<tag k="place" v="farm" />
		<tag k="ssr:stedsnr" v="223248" />
	</node>
	<node lat="61.858408336622894" lon="9.117141661378968" id="-39276">
		<tag k="alt_name" v="Bergendin" />
		<tag k="name" v="Bergenden" />
		<tag k="place" v="farm" />
		<tag k="ssr:stedsnr" v="223969" />
	</node>
	<node lat="61.83746388612607" lon="9.273097222122255" id="-39279">
		<tag k="name" v="Nørdre Enge" />
		<tag k="place" v="farm" />
		<tag k="ssr:stedsnr" v="279633" />
	</node>
	<node lat="61.81279999819947" lon="9.28858888196325" id="-39280">
		<tag k="leisure" v="pitch" />
		<tag k="name" v="Lalm idrettsplass" />
		<tag k="ssr:stedsnr" v="280891" />
	</node>
	<node lat="61.87098889217549" lon="9.098263882721792" id="-39281">
		<tag k="name" v="Postmo" />
		<tag k="place" v="farm" />
		<tag k="ssr:stedsnr" v="282176" />
	</node>
	<node lat="61.871791665675005" lon="9.098852778183147" id="-39282">
		<tag k="amenity" v="school" />
		<tag k="name" v="Vågå ungdomsskule" />
		<tag k="ssr:stedsnr" v="282178" />
	</node>
	<node lat="61.88893610751346" lon="9.063994442155524" id="-39284">
		<tag k="alt_name" v="Nedre Råstad" />
		<tag k="name" v="Nordigard Råstad" />
		<tag k="place" v="farm" />
		<tag k="ssr:stedsnr" v="282028" />
	</node>
	<node lat="61.897030559371" lon="9.039216658065941" id="-39285">
		<tag k="alt_name" v="Galstad" />
		<tag k="name" v="Nørdre Galstad" />
		<tag k="place" v="farm" />
		<tag k="ssr:stedsnr" v="282035" />
	</node>
	<node lat="61.88484444800259" lon="9.08194722851431" id="-39286">
		<tag k="name" v="Fagerli" />
		<tag k="place" v="farm" />
		<tag k="ssr:stedsnr" v="282045" />
	</node>
	<node lat="61.88448610713146" lon="9.08576111187828" id="-39287">
		<tag k="name" v="Sæta" />
		<tag k="place" v="farm" />
		<tag k="ssr:stedsnr" v="282054" />
	</node>
	<node lat="61.84321120025876" lon="9.224843379699083" id="-39289">
		<tag k="name" v="Kongsrud" />
		<tag k="place" v="farm" />
		<tag k="ssr:stedsnr" v="282843" />
	</node>
	<node lat="61.85727777620408" lon="9.180450005169241" id="-39290">
		<tag k="name" v="Barlunn" />
		<tag k="place" v="farm" />
		<tag k="ssr:stedsnr" v="282759" />
	</node>
	<node lat="61.86497222210929" lon="8.979405554838133" id="-39291">
		<tag k="name" v="Ulvsbustugu" />
		<tag k="place" v="farm" />
		<tag k="ssr:stedsnr" v="284101" />
	</node>
	<node lat="61.87773264917744" lon="9.086783394629245" id="-39292">
		<tag k="fixme" v="consider place=hamlet" />
		<tag k="name" v="Ullinsvin" />
		<tag k="place" v="farm" />
		<tag k="ssr:stedsnr" v="284053" />
	</node>
	<node lat="61.84189082116758" lon="8.964356637301332" id="-39294">
		<tag k="fixme" v="consider place=hamlet" />
		<tag k="name" v="Perstugu" />
		<tag k="place" v="farm" />
		<tag k="ssr:stedsnr" v="284132" />
	</node>
	<node lat="61.66899166558666" lon="9.066002770857947" id="-39299">
		<tag k="historic" v="shieling" />
		<tag k="name" v="Bjørnstad seter" />
		<tag k="place" v="isolated_dwelling" />
		<tag k="ssr:stedsnr" v="284394" />
	</node>
	<node lat="61.87570555552275" lon="9.044827779214605" id="-39300">
		<tag k="name" v="Brennhaug" />
		<tag k="place" v="farm" />
		<tag k="ssr:stedsnr" v="284263" />
	</node>
	<node lat="61.821902775155245" lon="9.270277785128293" id="-39301">
		<tag k="name" v="Blekahaugen" />
		<tag k="place" v="locality" />
		<tag k="ssr:stedsnr" v="284952" />
	</node>
	<node lat="61.85822222641888" lon="9.170613895655743" id="-39302">
		<tag k="name" v="Nørdre Stokstad" />
		<tag k="place" v="farm" />
		<tag k="ssr:stedsnr" v="284959" />
	</node>
	<node lat="61.83249166265891" lon="9.254713891540472" id="-39303">
		<tag k="alt_name" v="Olderløkken" />
		<tag k="name" v="Olderlykkja" />
		<tag k="place" v="farm" />
		<tag k="ssr:stedsnr" v="291922" />
	</node>
	<node lat="61.800717349881" lon="9.218138344453639" id="-39306">
		<tag k="alt_name" v="Breinstad" />
		<tag k="name" v="Brennstad" />
		<tag k="place" v="farm" />
		<tag k="ssr:stedsnr" v="292967" />
	</node>
	<node lat="61.92772778091278" lon="8.954608334552148" id="-39307">
		<tag k="name" v="Nørdre Haugen" />
		<tag k="place" v="farm" />
		<tag k="ssr:stedsnr" v="296310" />
	</node>
	<node lat="61.914313892833555" lon="8.98673332805718" id="-39310">
		<tag k="name" v="Gjelet" />
		<tag k="place" v="isolated_dwelling" />
		<tag k="ssr:stedsnr" v="297395" />
	</node>
	<node lat="61.87503611403375" lon="9.096669445393589" id="-39320">
		<tag k="name" v="Vågåmo" />
		<tag k="place" v="village" />
		<tag k="ssr:stedsnr" v="314370" />
	</node>
	<node lat="61.780422221394275" lon="9.167644446102146" id="-39321">
		<tag k="historic" v="shieling" />
		<tag k="name" v="Kjøllstadsætri" />
		<tag k="place" v="isolated_dwelling" />
		<tag k="ssr:stedsnr" v="313400" />
	</node>
	<node lat="61.84328333290035" lon="8.940500004223656" id="-39323">
		<tag k="name" v="Ramstugu" />
		<tag k="place" v="farm" />
		<tag k="ssr:stedsnr" v="313260" />
	</node>
	<node lat="61.853138889149285" lon="9.186897231382082" id="-39324">
		<tag k="alt_name" v="Svei, midtre;Me-Svee" />
		<tag k="name" v="Midtre Svei" />
		<tag k="place" v="farm" />
		<tag k="ssr:stedsnr" v="313288" />
	</node>
	<node lat="61.82150066815248" lon="9.263105657276329" id="-39329">
		<tag k="fixme" v="consider place=hamlet" />
		<tag k="name" v="Ner-Skår" />
		<tag k="place" v="farm" />
		<tag k="ssr:stedsnr" v="313789" />
	</node>
	<node lat="61.73396666513398" lon="9.068433324733547" id="-39331">
		<tag k="historic" v="shieling" />
		<tag k="name" v="Krokumsætri" />
		<tag k="place" v="isolated_dwelling" />
		<tag k="ssr:stedsnr" v="313972" />
	</node>
	<node lat="61.94800923316947" lon="9.127206994379925" id="-39332">
		<tag k="historic" v="shieling" />
		<tag k="loc_name" v="Øyasætre" />
		<tag k="name" v="Øyasætri" />
		<tag k="place" v="isolated_dwelling" />
		<tag k="ssr:stedsnr" v="314141" />
	</node>
	<node lat="61.93063611360024" lon="8.90363056364562" id="-39333">
		<tag k="alt_name" v="Finndalsætre" />
		<tag k="historic" v="shieling" />
		<tag k="name" v="Finndalen" />
		<tag k="place" v="isolated_dwelling" />
		<tag k="ssr:stedsnr" v="314150" />
	</node>
	<node lat="61.91750866814152" lon="8.980650088680973" id="-39334">
		<tag k="alt_name" v="Bakkjin" />
		<tag k="fixme" v="consider place=hamlet" />
		<tag k="name" v="Bakken" />
		<tag k="place" v="farm" />
		<tag k="ssr:stedsnr" v="314155" />
	</node>
	<node lat="61.760719441834624" lon="9.127594453114785" id="-39336">
		<tag k="alt_name" v="Vistesætri;Nordigard Vistesætre" />
		<tag k="historic" v="shieling" />
		<tag k="name" v="Nordigard Vistesætri" />
		<tag k="place" v="isolated_dwelling" />
		<tag k="ssr:stedsnr" v="314440" />
	</node>
	<node lat="61.841277287059185" lon="9.26875076117527" id="-39339">
		<tag k="alt_name" v="Bjørnstad, nedre" />
		<tag k="fixme" v="consider place=hamlet" />
		<tag k="name" v="Nedre Bjørnstad" />
		<tag k="place" v="farm" />
		<tag k="ssr:stedsnr" v="314798" />
	</node>
	<node lat="61.80514999819148" lon="9.305199993571799" id="-39340">
		<tag k="name" v="Fossen" />
		<tag k="place" v="farm" />
		<tag k="ssr:stedsnr" v="314854" />
	</node>
	<node lat="61.84438610931057" lon="9.223469450239364" id="-39342">
		<tag k="name" v="Veslbråtån" />
		<tag k="place" v="farm" />
		<tag k="ssr:stedsnr" v="314925" />
	</node>
	<node lat="61.839417454618406" lon="9.28323642576281" id="-39347">
		<tag k="fixme" v="consider place=hamlet" />
		<tag k="name" v="Runningen" />
		<tag k="place" v="farm" />
		<tag k="ssr:stedsnr" v="339579" />
	</node>
	<node lat="61.88759444303148" lon="9.104163890342456" id="-39348">
		<tag k="name" v="Lykkja" />
		<tag k="place" v="farm" />
		<tag k="ssr:stedsnr" v="342030" />
	</node>
	<node lat="61.8701527751587" lon="9.20811111310313" id="-39350">
		<tag k="name" v="Lie" />
		<tag k="place" v="isolated_dwelling" />
		<tag k="ssr:stedsnr" v="342689" />
	</node>
	<node lat="61.8794166674223" lon="9.141708336491075" id="-39353">
		<tag k="name" v="Gammel-Sandbu" />
		<tag k="place" v="farm" />
		<tag k="ssr:stedsnr" v="342984" />
	</node>
	<node lat="61.8796194445958" lon="9.134147221742795" id="-39354">
		<tag k="name" v="Nordigard Sandbu" />
		<tag k="place" v="farm" />
		<tag k="ssr:stedsnr" v="342988" />
	</node>
	<node lat="61.90262222017894" lon="9.016544452589578" id="-39357">
		<tag k="name" v="Nystugu" />
		<tag k="place" v="farm" />
		<tag k="ssr:stedsnr" v="344009" />
	</node>
	<node lat="61.87085555544057" lon="9.04179722245249" id="-39362">
		<tag k="name" v="Hellelykkja" />
		<tag k="place" v="farm" />
		<tag k="ssr:stedsnr" v="344233" />
	</node>
	<node lat="61.86864444034525" lon="8.919291671438772" id="-39364">
		<tag k="historic" v="shieling" />
		<tag k="name" v="Grevrustsætre" />
		<tag k="place" v="isolated_dwelling" />
		<tag k="ssr:stedsnr" v="344066" />
	</node>
	<node lat="61.82825555134919" lon="9.281486109349622" id="-39371">
		<tag k="name" v="Håmårlykkja" />
		<tag k="place" v="isolated_dwelling" />
		<tag k="ssr:stedsnr" v="351929" />
	</node>
	<node lat="61.825136110161665" lon="9.385505563160624" id="-39372">
		<tag k="historic" v="shieling" />
		<tag k="name" v="Tjorsætre" />
		<tag k="place" v="isolated_dwelling" />
		<tag k="ssr:stedsnr" v="352519" />
	</node>
	<node lat="61.924441669753556" lon="8.978838897386645" id="-39377">
		<tag k="name" v="Megarden" />
		<tag k="place" v="farm" />
		<tag k="ssr:stedsnr" v="357343" />
	</node>
	<node lat="61.48751389333839" lon="8.711516659712006" id="-39379">
		<tag k="name" v="Leirungsbue" />
		<tag k="place" v="isolated_dwelling" />
		<tag k="ssr:stedsnr" v="372786" />
	</node>
	<node lat="61.82014184220131" lon="9.005118078227845" id="-39382">
		<tag k="fixme" v="consider place=hamlet" />
		<tag k="name" v="Dalen" />
		<tag k="place" v="farm" />
		<tag k="ssr:stedsnr" v="373475" />
	</node>
	<node lat="61.881511106990665" lon="9.097366667607197" id="-39385">
		<tag k="alt_name" v="Blesom" />
		<tag k="name" v="Søre Blessom" />
		<tag k="place" v="farm" />
		<tag k="ssr:stedsnr" v="374368" />
	</node>
	<node lat="61.655099998348845" lon="8.989652777812966" id="-39387">
		<tag k="historic" v="shieling" />
		<tag k="name" v="Veolie" />
		<tag k="place" v="isolated_dwelling" />
		<tag k="ssr:stedsnr" v="374780" />
	</node>
	<node lat="61.840697225766995" lon="8.964963884975079" id="-39388">
		<tag k="name" v="Bruhaugen" />
		<tag k="place" v="farm" />
		<tag k="ssr:stedsnr" v="374275" />
	</node>
	<node lat="61.85827398203918" lon="9.06003136875482" id="-39389">
		<tag k="fixme" v="consider place=hamlet" />
		<tag k="name" v="Rusnes" />
		<tag k="place" v="farm" />
		<tag k="ssr:stedsnr" v="374323" />
	</node>
	<node lat="61.856718923818015" lon="8.969380590956277" id="-39390">
		<tag k="alt_name" v="Nørdre Ulsand" />
		<tag k="fixme" v="consider place=hamlet" />
		<tag k="name" v="Urdsand" />
		<tag k="place" v="farm" />
		<tag k="ssr:stedsnr" v="374325" />
	</node>
	<node lat="61.8876277768802" lon="9.078113890109002" id="-39391">
		<tag k="alt_name" v="Lunde" />
		<tag k="name" v="Nigard Lunde" />
		<tag k="place" v="farm" />
		<tag k="ssr:stedsnr" v="374373" />
	</node>
	<node lat="61.79880833320906" lon="9.022891658709314" id="-39393">
		<tag k="alt_name" v="Øygardsnessætre" />
		<tag k="historic" v="shieling" />
		<tag k="name" v="Øygardsætri" />
		<tag k="place" v="isolated_dwelling" />
		<tag k="ssr:stedsnr" v="374456" />
	</node>
	<node lat="61.82114999658685" lon="9.116105553314297" id="-39394">
		<tag k="historic" v="shieling" />
		<tag k="name" v="Moasætrin" />
		<tag k="place" v="isolated_dwelling" />
		<tag k="ssr:stedsnr" v="374464" />
	</node>
	<node lat="61.83319448430517" lon="9.28174579512747" id="-39402">
		<tag k="fixme" v="consider place=hamlet" />
		<tag k="name" v="Tolstad" />
		<tag k="place" v="farm" />
		<tag k="ssr:stedsnr" v="374798" />
	</node>
	<node lat="61.800199997058165" lon="9.31129999541918" id="-39403">
		<tag k="name" v="Turtum" />
		<tag k="place" v="farm" />
		<tag k="ssr:stedsnr" v="374889" />
	</node>
	<node lat="61.9606444460345" lon="8.985108333573406" id="-39409">
		<tag k="alt_name" v="Skarvangssætrin" />
		<tag k="name" v="Skårvangssætrin" />
		<tag k="place" v="hamlet" />
		<tag k="ssr:stedsnr" v="375150" />
	</node>
	<node lat="61.847972226224854" lon="8.962669444861186" id="-39416">
		<tag k="fixme" v="consider place=hamlet" />
		<tag k="name" v="Tessand" />
		<tag k="place" v="village" />
		<tag k="ssr:stedsnr" v="495284" />
	</node>
	<node lat="61.840652549050205" lon="9.23112629142823" id="-39420">
		<tag k="name" v="Stadelykkja" />
		<tag k="place" v="farm" />
		<tag k="ssr:stedsnr" v="403864" />
	</node>
	<node lat="61.89804444678838" lon="9.016772227945605" id="-39421">
		<tag k="name" v="Nørdre Siem" />
		<tag k="place" v="locality" />
		<tag k="ssr:stedsnr" v="403025" />
	</node>
	<node lat="61.88443382838206" lon="9.090469828466839" id="-39422">
		<tag k="name" v="Øver-Sæta" />
		<tag k="place" v="farm" />
		<tag k="ssr:stedsnr" v="403038" />
	</node>
	<node lat="61.85947258911215" lon="8.894041293319777" id="-39423">
		<tag k="fixme" v="consider place=hamlet" />
		<tag k="name" v="Storsteinruste" />
		<tag k="place" v="farm" />
		<tag k="ssr:stedsnr" v="403066" />
	</node>
	<node lat="61.85957048183971" lon="8.90973806377151" id="-39425">
		<tag k="fixme" v="consider place=hamlet" />
		<tag k="name" v="Hestule" />
		<tag k="place" v="farm" />
		<tag k="ssr:stedsnr" v="403069" />
	</node>
	<node lat="61.865155558407224" lon="9.201802769668602" id="-39426">
		<tag k="name" v="Rokkemoen" />
		<tag k="place" v="farm" />
		<tag k="ssr:stedsnr" v="403741" />
	</node>
	<node lat="61.88343333020326" lon="9.117527786705002" id="-39428">
		<tag k="name" v="Midtre Skjellom" />
		<tag k="place" v="farm" />
		<tag k="ssr:stedsnr" v="403989" />
	</node>
	<node lat="61.87796666493554" lon="9.119524992632925" id="-39429">
		<tag k="name" v="Sveaholen" />
		<tag k="place" v="farm" />
		<tag k="ssr:stedsnr" v="403993" />
	</node>
	<node lat="61.88241011938204" lon="9.09511925152306" id="-39431">
		<tag k="name" v="Vesl-Blessom" />
		<tag k="place" v="farm" />
		<tag k="ssr:stedsnr" v="405045" />
	</node>
	<node lat="61.84114166614882" lon="8.961858332492843" id="-39432">
		<tag k="name" v="Nils-Brun" />
		<tag k="place" v="farm" />
		<tag k="ssr:stedsnr" v="405105" />
	</node>
	<node lat="61.849872218301286" lon="8.999549993811478" id="-39434">
		<tag k="name" v="Arnøygarden" />
		<tag k="place" v="locality" />
		<tag k="ssr:stedsnr" v="405117" />
	</node>
	<node lat="61.838119079724905" lon="9.288490374270406" id="-39440">
		<tag k="name" v="Bolstadhagan" />
		<tag k="place" v="farm" />
		<tag k="ssr:stedsnr" v="405613" />
	</node>
	<node lat="61.8651333362917" lon="9.168530557150875" id="-39441">
		<tag k="name" v="Øver-Åsen" />
		<tag k="place" v="farm" />
		<tag k="ssr:stedsnr" v="405963" />
	</node>
	<node lat="61.85621944487354" lon="9.17402222265995" id="-39442">
		<tag k="name" v="Berget" />
		<tag k="place" v="isolated_dwelling" />
		<tag k="ssr:stedsnr" v="405965" />
	</node>
	<node lat="61.799472222501045" lon="9.151258324995588" id="-39443">
		<tag k="historic" v="shieling" />
		<tag k="name" v="Buhaugen" />
		<tag k="place" v="isolated_dwelling" />
		<tag k="ssr:stedsnr" v="413557" />
	</node>
	<node lat="61.90753055613314" lon="9.082094449237328" id="-39458">
		<tag k="alt_name" v="Hesthovdan" />
		<tag k="name" v="Hesthovda" />
		<tag k="place" v="locality" />
		<tag k="ssr:stedsnr" v="435188" />
	</node>
	<node lat="61.91023869406967" lon="8.995975162723608" id="-39459">
		<tag k="alt_name" v="Skjesvoll" />
		<tag k="name" v="Nistugun Skjedsvoll" />
		<tag k="place" v="farm" />
		<tag k="ssr:stedsnr" v="435193" />
	</node>
	<node lat="61.85942780442756" lon="8.993537646945914" id="-39462">
		<tag k="name" v="Sandnes" />
		<tag k="place" v="hamlet" />
		<tag k="ssr:stedsnr" v="435336" />
	</node>
	<node lat="61.86126111038557" lon="8.97009999301759" id="-39463">
		<tag k="alt_name" v="Sveom" />
		<tag k="name" v="Øvre Sveum" />
		<tag k="place" v="farm" />
		<tag k="ssr:stedsnr" v="435339" />
	</node>
	<node lat="61.85833636065805" lon="8.94681584673309" id="-39464">
		<tag k="fixme" v="consider place=hamlet" />
		<tag k="name" v="Grev" />
		<tag k="place" v="farm" />
		<tag k="ssr:stedsnr" v="435342" />
	</node>
	<node lat="61.807888889599276" lon="9.191036116994058" id="-39467">
		<tag k="historic" v="shieling" />
		<tag k="name" v="Svenstadsætri" />
		<tag k="place" v="isolated_dwelling" />
		<tag k="ssr:stedsnr" v="435494" />
	</node>
	<node lat="61.635116668373236" lon="9.026066660405565" id="-39471">
		<tag k="historic" v="shieling" />
		<tag k="name" v="Sallii" />
		<tag k="place" v="isolated_dwelling" />
		<tag k="ssr:stedsnr" v="435790" />
	</node>
	<node lat="61.829875003338934" lon="9.294516671707317" id="-39472">
		<tag k="name" v="Tolstadkleive" />
		<tag k="place" v="farm" />
		<tag k="ssr:stedsnr" v="435797" />
	</node>
	<node lat="61.806347226512976" lon="9.288088889464905" id="-39473">
		<tag k="name" v="Søre Kleive" />
		<tag k="place" v="farm" />
		<tag k="ssr:stedsnr" v="435889" />
	</node>
	<node lat="61.84147222123124" lon="9.233661111927907" id="-39474">
		<tag k="name" v="Fonstad" />
		<tag k="place" v="farm" />
		<tag k="ssr:stedsnr" v="435828" />
	</node>
	<node lat="61.5493750005835" lon="8.912936113714933" id="-39475">
		<tag k="fixme" v="consider tourism=alpine_hut or tourism=chalet" />
		<tag k="name" v="Besstrond" />
		<tag k="ssr:stedsnr" v="435855" />
		<tag k="tourism" v="wilderness_hut" />
	</node>
	<node lat="61.86198355550536" lon="8.936598888939429" id="-39477">
		<tag k="alt_name" v="Kleivi" />
		<tag k="fixme" v="consider place=hamlet" />
		<tag k="name" v="Nedre Kleive" />
		<tag k="place" v="farm" />
		<tag k="ssr:stedsnr" v="436291" />
	</node>
	<node lat="61.86285277549757" lon="8.971516658279468" id="-39478">
		<tag k="alt_name" v="Veslsætre" />
		<tag k="name" v="Veslsætri" />
		<tag k="place" v="farm" />
		<tag k="ssr:stedsnr" v="436292" />
	</node>
	<node lat="61.874484036239814" lon="9.176157272122115" id="-39479">
		<tag k="alt_name" v="Uleberg" />
		<tag k="fixme" v="consider place=hamlet" />
		<tag k="name" v="Urdeberg" />
		<tag k="place" v="farm" />
		<tag k="ssr:stedsnr" v="436296" />
	</node>
	<node lat="61.87883244984107" lon="9.136170170671665" id="-39480">
		<tag k="name" v="Sandbu" />
		<tag k="place" v="hamlet" />
		<tag k="ssr:stedsnr" v="436297" />
	</node>
	<node lat="61.877376968391395" lon="9.215606945801124" id="-39482">
		<tag k="alt_name" v="Holungsætrin, nordre;Holungsætrin" />
		<tag k="historic" v="shieling" />
		<tag k="name" v="Nørdre Holungssætrin" />
		<tag k="place" v="isolated_dwelling" />
		<tag k="ssr:stedsnr" v="436302" />
	</node>
	<node lat="61.88309773408189" lon="9.116769051389" id="-39484">
		<tag k="name" v="Skjellom" />
		<tag k="place" v="locality" />
		<tag k="ssr:stedsnr" v="436318" />
	</node>
	<node lat="61.85319166307744" lon="9.228427776078693" id="-39486">
		<tag k="name" v="Kjeldlykkja" />
		<tag k="place" v="farm" />
		<tag k="ssr:stedsnr" v="436931" />
	</node>
	<node lat="61.8474472230522" lon="9.218824996190493" id="-39487">
		<tag k="name" v="Elvestad" />
		<tag k="place" v="farm" />
		<tag k="ssr:stedsnr" v="436942" />
	</node>
	<node lat="61.86120278136421" lon="9.155852783711106" id="-39488">
		<tag k="name" v="Lykkja" />
		<tag k="place" v="farm" />
		<tag k="ssr:stedsnr" v="495291" />
	</node>
	<node lat="61.79738085730116" lon="9.155525642075808" id="-39489">
		<tag k="historic" v="shieling" />
		<tag k="name" v="Saghaugen" />
		<tag k="place" v="isolated_dwelling" />
		<tag k="ssr:stedsnr" v="495445" />
	</node>
	<node lat="61.80097604703814" lon="8.964357781990767" id="-39490">
		<tag k="alt_name" v="Åbakksætre" />
		<tag k="historic" v="shieling" />
		<tag k="name" v="Åbakksætri" />
		<tag k="place" v="isolated_dwelling" />
		<tag k="ssr:stedsnr" v="495452" />
	</node>
	<node lat="61.82957778006176" lon="9.278927784825667" id="-39491">
		<tag k="name" v="Ekra" />
		<tag k="place" v="farm" />
		<tag k="ssr:stedsnr" v="495793" />
	</node>
	<node lat="61.82863598441111" lon="9.261230724652986" id="-39492">
		<tag k="fixme" v="consider place=hamlet" />
		<tag k="name" v="Rotem" />
		<tag k="place" v="farm" />
		<tag k="ssr:stedsnr" v="495796" />
	</node>
	<node lat="61.83119836580815" lon="9.281187395383212" id="-39493">
		<tag k="fixme" v="consider place=hamlet" />
		<tag k="name" v="Håmår" />
		<tag k="place" v="farm" />
		<tag k="ssr:stedsnr" v="495797" />
	</node>
	<node lat="61.618441825181776" lon="9.03207872253001" id="-39494">
		<tag k="historic" v="shieling" />
		<tag k="loc_name" v="Sallie" />
		<tag k="name" v="Sallii" />
		<tag k="place" v="isolated_dwelling" />
		<tag k="ssr:stedsnr" v="495801" />
	</node>
	<node lat="61.793566992852156" lon="9.342270136364796" id="-39495">
		<tag k="name" v="Sørlie" />
		<tag k="place" v="locality" />
		<tag k="ssr:stedsnr" v="495871" />
	</node>
	<node lat="61.50833744901915" lon="8.864964493423964" id="-39497">
		<tag k="name" v="Bamfordnaustet" />
		<tag k="place" v="locality" />
		<tag k="ssr:stedsnr" v="495891" />
	</node>
	<node lat="61.79998610857291" lon="9.263597228871555" id="-39498">
		<tag k="historic" v="shieling" />
		<tag k="name" v="Hovdasætrin" />
		<tag k="place" v="isolated_dwelling" />
		<tag k="ssr:stedsnr" v="495893" />
	</node>
	<node lat="61.68656110924902" lon="9.09459444809369" id="-39499">
		<tag k="alt_name" v="Storbua" />
		<tag k="loc_name" v="Storbue" />
		<tag k="name" v="Storbui" />
		<tag k="place" v="isolated_dwelling" />
		<tag k="ssr:stedsnr" v="495989" />
	</node>
	<node lat="61.897611471745925" lon="9.04060291798003" id="-39505">
		<tag k="alt_name" v="Gallstad" />
		<tag k="fixme" v="consider place=hamlet" />
		<tag k="name" v="Galstad" />
		<tag k="place" v="farm" />
		<tag k="ssr:stedsnr" v="496396" />
	</node>
	<node lat="61.80047890989403" lon="9.28590581240199" id="-39512">
		<tag k="name" v="Øvre Lykkja" />
		<tag k="place" v="farm" />
		<tag k="ssr:stedsnr" v="507871" />
	</node>
	<node lat="61.844311915533396" lon="8.90219639768255" id="-39513">
		<tag k="name" v="Honslåkje" />
		<tag k="place" v="isolated_dwelling" />
		<tag k="ssr:stedsnr" v="514353" />
	</node>
	<node lat="61.8897444418925" lon="9.060341669480081" id="-39516">
		<tag k="name" v="Steinli" />
		<tag k="place" v="farm" />
		<tag k="ssr:stedsnr" v="524022" />
	</node>
	<node lat="61.884058331940594" lon="9.083449991149601" id="-39517">
		<tag k="name" v="Øvre Sundhågån" />
		<tag k="place" v="farm" />
		<tag k="ssr:stedsnr" v="524035" />
	</node>
	<node lat="61.86190974333713" lon="8.988231027652908" id="-39519">
		<tag k="name" v="Nørdre Veslhågån" />
		<tag k="place" v="farm" />
		<tag k="ssr:stedsnr" v="526086" />
	</node>
	<node lat="61.88013055182958" lon="9.086386114277772" id="-39520">
		<tag k="alt_name" v="Blessomvolden" />
		<tag k="name" v="Blessomvollen" />
		<tag k="place" v="farm" />
		<tag k="ssr:stedsnr" v="526046" />
	</node>
	<node lat="61.850176101539596" lon="9.002182739706331" id="-39523">
		<tag k="name" v="Odnes" />
		<tag k="old_name" v="Øygardsneset" />
		<tag k="place" v="farm" />
		<tag k="ssr:stedsnr" v="526134" />
	</node>
	<node lat="61.593950002996294" lon="8.93735554973577" id="-39526">
		<tag k="name" v="Russlibua" />
		<tag k="place" v="isolated_dwelling" />
		<tag k="ssr:stedsnr" v="526635" />
	</node>
	<node lat="61.54895833663753" lon="8.915180557764753" id="-39531">
		<tag k="historic" v="shieling" />
		<tag k="name" v="Storviksbesstrond" />
		<tag k="place" v="isolated_dwelling" />
		<tag k="ssr:stedsnr" v="531769" />
	</node>
	<node lat="61.79821111049659" lon="9.185194440124938" id="-39535">
		<tag k="name" v="Nedre Bringen" />
		<tag k="place" v="hamlet" />
		<tag k="ssr:stedsnr" v="534562" />
	</node>
	<node lat="61.80661388965025" lon="9.35399166957893" id="-39537">
		<tag k="name" v="Skarhytta" />
		<tag k="place" v="locality" />
		<tag k="ssr:stedsnr" v="534654" />
	</node>
	<node lat="61.85726944542599" lon="8.974069436173462" id="-39538">
		<tag k="name" v="Søre Ulsand" />
		<tag k="place" v="farm" />
		<tag k="ssr:stedsnr" v="534505" />
	</node>
	<node lat="61.82052500280747" lon="9.252591665874393" id="-39540">
		<tag k="name" v="Lauvrud" />
		<tag k="place" v="farm" />
		<tag k="ssr:stedsnr" v="534934" />
	</node>
	<node lat="61.82091944736409" lon="9.258486107485679" id="-39541">
		<tag k="name" v="Skårshaugen" />
		<tag k="place" v="farm" />
		<tag k="ssr:stedsnr" v="534938" />
	</node>
	<node lat="61.814372225390294" lon="9.091580547883355" id="-39547">
		<tag k="alt_name" v="Plasssætre" />
		<tag k="historic" v="shieling" />
		<tag k="name" v="Plassætri" />
		<tag k="place" v="isolated_dwelling" />
		<tag k="ssr:stedsnr" v="555397" />
	</node>
	<node lat="61.827355552592444" lon="9.052263889595263" id="-39549">
		<tag k="alt_name" v="Uppstrondsætre" />
		<tag k="historic" v="shieling" />
		<tag k="name" v="Uppåstrondsætri" />
		<tag k="place" v="isolated_dwelling" />
		<tag k="ssr:stedsnr" v="555433" />
	</node>
	<node lat="61.82826111024106" lon="9.033924993847508" id="-39550">
		<tag k="alt_name" v="Strondsætri, nordre;Nordpåstrondsætre" />
		<tag k="historic" v="shieling" />
		<tag k="name" v="Nørdre Strondsætri" />
		<tag k="place" v="isolated_dwelling" />
		<tag k="ssr:stedsnr" v="555435" />
	</node>
	<node lat="61.80943030586613" lon="9.278288817120341" id="-39556">
		<tag k="fixme" v="consider place=hamlet" />
		<tag k="name" v="Nørdre Kleive" />
		<tag k="place" v="farm" />
		<tag k="ssr:stedsnr" v="556766" />
	</node>
	<node lat="61.514633331279406" lon="8.853036108991219" id="-39560">
		<tag k="name" v="Bessheim fjellstue" />
		<tag k="ssr:stedsnr" v="555843" />
		<tag k="tourism" v="hotel" />
	</node>
	<node lat="61.71417499915934" lon="8.964677771766233" id="-39561">
		<tag k="alt_name" v="Fuglesetrene" />
		<tag k="historic" v="shieling" />
		<tag k="loc_name" v="Fugelsætrin" />
		<tag k="name" v="Fuglesætrin" />
		<tag k="place" v="isolated_dwelling" />
		<tag k="ssr:stedsnr" v="555963" />
	</node>
	<node lat="61.84929939029343" lon="8.897991838721964" id="-39567">
		<tag k="name" v="Neset" />
		<tag k="place" v="locality" />
		<tag k="ssr:stedsnr" v="556343" />
	</node>
	<node lat="61.853036111841305" lon="9.190730557378583" id="-39568">
		<tag k="alt_name" v="Svei, s;Sør-Svee" />
		<tag k="name" v="Søre Svei" />
		<tag k="place" v="farm" />
		<tag k="ssr:stedsnr" v="556345" />
	</node>
	<node lat="61.86630900497738" lon="9.210999056020535" id="-39571">
		<tag k="alt_name" v="Haugen" />
		<tag k="name" v="Øvre Haugen" />
		<tag k="place" v="farm" />
		<tag k="ssr:stedsnr" v="556364" />
	</node>
	<node lat="61.86347819930691" lon="9.15452221676087" id="-39572">
		<tag k="alt_name" v="Kleppe, s;Kleppe;Søre Kleppe" />
		<tag k="name" v="Sygard Kleppe" />
		<tag k="place" v="farm" />
		<tag k="ssr:stedsnr" v="556367" />
	</node>
	<node lat="61.86565277385131" lon="9.156116663297444" id="-39574">
		<tag k="alt_name" v="Kleppe, nordre;Nørdre Kleppe" />
		<tag k="name" v="Nordigard Kleppe" />
		<tag k="place" v="farm" />
		<tag k="ssr:stedsnr" v="556372" />
	</node>
	<node lat="61.864667918091584" lon="9.105402509871658" id="-39575">
		<tag k="fixme" v="consider place=hamlet" />
		<tag k="name" v="Sunde" />
		<tag k="place" v="farm" />
		<tag k="ssr:stedsnr" v="556376" />
	</node>
	<node lat="61.86399721838514" lon="9.115905549210703" id="-39576">
		<tag k="name" v="Høystad" />
		<tag k="place" v="farm" />
		<tag k="ssr:stedsnr" v="556378" />
	</node>
	<node lat="61.795080553657925" lon="9.196097230937923" id="-39579">
		<tag k="name" v="Bakkesætri" />
		<tag k="place" v="farm" />
		<tag k="ssr:stedsnr" v="556468" />
	</node>
	<node lat="61.8032166625208" lon="9.181388883109982" id="-39581">
		<tag k="historic" v="shieling" />
		<tag k="name" v="Bjørnstadsætri" />
		<tag k="place" v="isolated_dwelling" />
		<tag k="ssr:stedsnr" v="556481" />
	</node>
	<node lat="61.76536110880997" lon="9.057027779756872" id="-39582">
		<tag k="historic" v="shieling" />
		<tag k="name" v="Sandesætri" />
		<tag k="place" v="isolated_dwelling" />
		<tag k="ssr:stedsnr" v="556454" />
	</node>
	<node lat="61.73710555289535" lon="9.020038883659854" id="-39589">
		<tag k="alt_name" v="Stulein" />
		<tag k="name" v="Stulan" />
		<tag k="place" v="locality" />
		<tag k="ssr:stedsnr" v="556949" />
	</node>
	<node lat="61.851166671054536" lon="9.23286666006119" id="-39590">
		<tag k="name" v="Solheim" />
		<tag k="place" v="farm" />
		<tag k="ssr:stedsnr" v="556951" />
	</node>
	<node lat="61.85432777576912" lon="9.202674998314976" id="-39593">
		<tag k="name" v="Saghaugen" />
		<tag k="place" v="farm" />
		<tag k="ssr:stedsnr" v="584864" />
	</node>
	<node lat="61.85215521613413" lon="9.202017666297145" id="-39594">
		<tag k="name" v="Granlund" />
		<tag k="place" v="farm" />
		<tag k="ssr:stedsnr" v="584867" />
	</node>
	<node lat="61.8432361143372" lon="9.229933333651111" id="-39597">
		<tag k="name" v="Teigplassen" />
		<tag k="place" v="locality" />
		<tag k="ssr:stedsnr" v="585835" />
	</node>
	<node lat="61.88379999672518" lon="9.109016660559451" id="-39602">
		<tag k="name" v="Øvergård" />
		<tag k="place" v="farm" />
		<tag k="ssr:stedsnr" v="587066" />
	</node>
	<node lat="61.860344446711" lon="8.976788892524777" id="-39604">
		<tag k="name" v="Høgberget" />
		<tag k="place" v="farm" />
		<tag k="ssr:stedsnr" v="587092" />
	</node>
	<node lat="61.80872472942316" lon="9.026130797914838" id="-39605">
		<tag k="historic" v="shieling" />
		<tag k="name" v="Gammelsætre" />
		<tag k="place" v="isolated_dwelling" />
		<tag k="ssr:stedsnr" v="587163" />
	</node>
	<node lat="61.79974166297131" lon="9.331816660147759" id="-39613">
		<tag k="alt_name" v="Nerlien Nordre" />
		<tag k="name" v="Nørdre Nerlie" />
		<tag k="place" v="farm" />
		<tag k="ssr:stedsnr" v="595644" />
	</node>
	<node lat="61.85604166698823" lon="9.196830554075692" id="-39621">
		<tag k="alt_name" v="Austrem, nordre;Nørdre Austrem" />
		<tag k="name" v="Nordistugu Austrem" />
		<tag k="place" v="farm" />
		<tag k="ssr:stedsnr" v="616269" />
	</node>
	<node lat="61.86024103410844" lon="9.08295296633055" id="-39622">
		<tag k="name" v="Melum" />
		<tag k="place" v="farm" />
		<tag k="ssr:stedsnr" v="616280" />
	</node>
	<node lat="61.85580000416238" lon="9.045275004323644" id="-39624">
		<tag k="alt_name" v="Strond, nordre;Nordpå Strond" />
		<tag k="name" v="Nørdre Strond" />
		<tag k="place" v="farm" />
		<tag k="ssr:stedsnr" v="616286" />
	</node>
	<node lat="61.82821111403984" lon="9.046172215411453" id="-39625">
		<tag k="alt_name" v="Mestrondsætre" />
		<tag k="historic" v="shieling" />
		<tag k="name" v="Mestrondsætri" />
		<tag k="place" v="isolated_dwelling" />
		<tag k="ssr:stedsnr" v="616475" />
	</node>
	<node lat="61.791154750598174" lon="9.144804428057329" id="-39627">
		<tag k="historic" v="shieling" />
		<tag k="name" v="Bønes" />
		<tag k="place" v="isolated_dwelling" />
		<tag k="ssr:stedsnr" v="616435" />
	</node>
	<node lat="61.668822317713015" lon="9.072663049114741" id="-39628">
		<tag k="alt_name" v="Sjolisætrin;Sjolisætrene" />
		<tag k="historic" v="shieling" />
		<tag k="name" v="Sjolii" />
		<tag k="place" v="isolated_dwelling" />
		<tag k="ssr:stedsnr" v="616771" />
	</node>
	<node lat="61.92506784296087" lon="8.972287369086658" id="-39636">
		<tag k="alt_name" v="Sandbugarden" />
		<tag k="fixme" v="consider place=hamlet" />
		<tag k="name" v="Sandbusgarden" />
		<tag k="place" v="farm" />
		<tag k="ssr:stedsnr" v="617173" />
	</node>
	<node lat="61.867431309983004" lon="9.045855234774777" id="-39641">
		<tag k="fixme" v="consider place=hamlet" />
		<tag k="name" v="Helle" />
		<tag k="place" v="farm" />
		<tag k="ssr:stedsnr" v="617349" />
	</node>
	<node lat="61.87644999933166" lon="9.170224997497415" id="-39642">
		<tag k="name" v="Bråten" />
		<tag k="place" v="farm" />
		<tag k="ssr:stedsnr" v="617355" />
	</node>
	<node lat="61.871891972337885" lon="9.003326990810288" id="-39643">
		<tag k="alt_name" v="Vistdal" />
		<tag k="name" v="Uppigard Visdal" />
		<tag k="place" v="farm" />
		<tag k="ssr:stedsnr" v="617362" />
	</node>
	<node lat="61.88628026352233" lon="9.107748136110658" id="-39644">
		<tag k="name" v="Sandbakken" />
		<tag k="old_name" v="Øvre Sandbakken" />
		<tag k="place" v="farm" />
		<tag k="ssr:stedsnr" v="617371" />
	</node>
	<node lat="61.78848889121223" lon="9.070780553668161" id="-39645">
		<tag k="alt_name" v="Nylykkjesætre" />
		<tag k="historic" v="shieling" />
		<tag k="name" v="Nylykkjesætri" />
		<tag k="place" v="isolated_dwelling" />
		<tag k="ssr:stedsnr" v="617458" />
	</node>
	<node lat="61.5594527740964" lon="9.203924996912951" id="-39646">
		<tag k="alt_name" v="Kaggerudsætre" />
		<tag k="historic" v="shieling" />
		<tag k="name" v="Kaggerudsætri" />
		<tag k="place" v="isolated_dwelling" />
		<tag k="ssr:stedsnr" v="617845" />
	</node>
	<node lat="61.801422219806604" lon="9.28867500891208" id="-39649">
		<tag k="name" v="Nedre Lykkja" />
		<tag k="place" v="farm" />
		<tag k="ssr:stedsnr" v="628837" />
	</node>
	<node lat="61.87315889954282" lon="9.092443972945878" id="-39652">
		<tag k="name" v="Kjøpanger" />
		<tag k="place" v="farm" />
		<tag k="ssr:stedsnr" v="645162" />
	</node>
	<node lat="61.86381944301391" lon="9.218391663328347" id="-39653">
		<tag k="name" v="Øyen" />
		<tag k="place" v="farm" />
		<tag k="ssr:stedsnr" v="645734" />
	</node>
	<node lat="61.865180553906164" lon="9.214572227100904" id="-39654">
		<tag k="name" v="Randen" />
		<tag k="place" v="farm" />
		<tag k="ssr:stedsnr" v="645748" />
	</node>
	<node lat="61.9110305595892" lon="8.996450006681977" id="-39659">
		<tag k="name" v="Uppistugun Skjedsvoll" />
		<tag k="place" v="farm" />
		<tag k="ssr:stedsnr" v="647002" />
	</node>
	<node lat="61.84729721854598" lon="8.933052774966253" id="-39661">
		<tag k="name" v="Skoglund" />
		<tag k="place" v="isolated_dwelling" />
		<tag k="ssr:stedsnr" v="647144" />
	</node>
	<node lat="61.84713816677318" lon="8.961949840452162" id="-39662">
		<tag k="name" v="Tessneset" />
		<tag k="place" v="farm" />
		<tag k="ssr:stedsnr" v="647148" />
	</node>
	<node lat="61.87566110831731" lon="9.046594436574829" id="-39664">
		<tag k="name" v="Stafseng" />
		<tag k="place" v="farm" />
		<tag k="ssr:stedsnr" v="647250" />
	</node>
	<node lat="61.88236389048868" lon="9.082708337426483" id="-39665">
		<tag k="name" v="Trolltun" />
		<tag k="place" v="farm" />
		<tag k="ssr:stedsnr" v="647064" />
	</node>
	<node lat="61.88117500355822" lon="9.067852769948965" id="-39666">
		<tag k="name" v="Holtop" />
		<tag k="place" v="isolated_dwelling" />
		<tag k="ssr:stedsnr" v="647069" />
	</node>
	<node lat="61.72363889323514" lon="9.05237221300105" id="-39669">
		<tag k="name" v="Nørdre Vangen" />
		<tag k="place" v="isolated_dwelling" />
		<tag k="ssr:stedsnr" v="647466" />
	</node>
	<node lat="61.86746388586333" lon="9.12189722793101" id="-39671">
		<tag k="name" v="Nedre Stein" />
		<tag k="place" v="farm" />
		<tag k="ssr:stedsnr" v="647951" />
	</node>
	<node lat="61.866769446069846" lon="9.123913885222239" id="-39672">
		<tag k="loc_name" v="Nørdre Geilen" />
		<tag k="name" v="Nørdre Gjeilin" />
		<tag k="place" v="farm" />
		<tag k="ssr:stedsnr" v="647953" />
	</node>
	<node lat="61.8026611112676" lon="9.281538891539793" id="-39673">
		<tag k="name" v="Nørdre Randen" />
		<tag k="place" v="isolated_dwelling" />
		<tag k="ssr:stedsnr" v="655667" />
	</node>
	<node lat="61.934444442587676" lon="8.962424997322739" id="-39678">
		<tag k="name" v="Skrivarøygarden" />
		<tag k="place" v="locality" />
		<tag k="ssr:stedsnr" v="660366" />
	</node>
	<node lat="61.92436667043527" lon="8.975086102884536" id="-39682">
		<tag k="name" v="Jota" />
		<tag k="place" v="farm" />
		<tag k="ssr:stedsnr" v="721339" />
	</node>
	<node lat="61.92606972634267" lon="8.96328719319011" id="-39684">
		<tag k="fixme" v="consider place=hamlet" />
		<tag k="name" v="Keigro" />
		<tag k="place" v="farm" />
		<tag k="ssr:stedsnr" v="721353" />
	</node>
	<node lat="61.81402222086386" lon="9.143899998442803" id="-39688">
		<tag k="historic" v="shieling" />
		<tag k="name" v="Siplaus" />
		<tag k="place" v="isolated_dwelling" />
		<tag k="ssr:stedsnr" v="738444" />
	</node>
	<node lat="61.7994916701618" lon="9.016936116383544" id="-39689">
		<tag k="alt_name" v="Storviksætre" />
		<tag k="historic" v="shieling" />
		<tag k="name" v="Storrviksætri" />
		<tag k="place" v="isolated_dwelling" />
		<tag k="ssr:stedsnr" v="738448" />
	</node>
	<node lat="61.84593610718237" lon="9.174936106923472" id="-39691">
		<tag k="historic" v="shieling" />
		<tag k="name" v="Stulsætrin" />
		<tag k="place" v="isolated_dwelling" />
		<tag k="ssr:stedsnr" v="738277" />
	</node>
	<node lat="61.85158610770519" lon="9.036827785251733" id="-39692">
		<tag k="alt_name" v="Vistekleivi, øvre;Vistekleive øvre" />
		<tag k="name" v="Øvre Vistekleivi" />
		<tag k="place" v="farm" />
		<tag k="ssr:stedsnr" v="738278" />
	</node>
	<node lat="61.844751299134515" lon="8.978522939262835" id="-39693">
		<tag k="fixme" v="consider place=hamlet" />
		<tag k="name" v="Sandrunningen" />
		<tag k="place" v="farm" />
		<tag k="ssr:stedsnr" v="738290" />
	</node>
	<node lat="61.85683888868798" lon="9.167750008854727" id="-39694">
		<tag k="name" v="Nylykkja" />
		<tag k="place" v="farm" />
		<tag k="ssr:stedsnr" v="738297" />
	</node>
	<node lat="61.85852088781082" lon="9.063159370453086" id="-39695">
		<tag k="alt_name" v="Strond, øvre;Uppåstrond" />
		<tag k="name" v="Øvre Strond" />
		<tag k="place" v="farm" />
		<tag k="ssr:stedsnr" v="738302" />
	</node>
	<node lat="61.87057216914718" lon="9.131717851662447" id="-39696">
		<tag k="alt_name" v="Skottlie" />
		<tag k="fixme" v="consider place=hamlet" />
		<tag k="name" v="Skotlii" />
		<tag k="place" v="farm" />
		<tag k="ssr:stedsnr" v="738331" />
	</node>
	<node lat="61.86742198654991" lon="9.068415131727223" id="-39697">
		<tag k="fixme" v="consider place=hamlet" />
		<tag k="name" v="Lye" />
		<tag k="place" v="farm" />
		<tag k="ssr:stedsnr" v="738337" />
	</node>
	<node lat="61.654949999619454" lon="8.931216659174332" id="-39703">
		<tag k="name" v="Himmerik" />
		<tag k="place" v="locality" />
		<tag k="ssr:stedsnr" v="738782" />
	</node>
	<node lat="61.7985000030804" lon="9.286905547537181" id="-39706">
		<tag k="name" v="Orrhaugen" />
		<tag k="place" v="farm" />
		<tag k="ssr:stedsnr" v="738877" />
	</node>
	<node lat="61.698666667204165" lon="9.123713892110652" id="-39710">
		<tag k="historic" v="shieling" />
		<tag k="loc_name" v="Gramsætre" />
		<tag k="name" v="Gramsætri" />
		<tag k="place" v="isolated_dwelling" />
		<tag k="ssr:stedsnr" v="738986" />
	</node>
	<node lat="61.53263055867646" lon="8.648572216985482" id="-39713">
		<tag k="name" v="Blackwellbue" />
		<tag k="place" v="isolated_dwelling" />
		<tag k="ssr:stedsnr" v="738943" />
	</node>
	<node lat="61.876611110734395" lon="9.12126110298023" id="-39714">
		<tag k="alt_name" v="Sandbu" />
		<tag k="name" v="Kræmar-Sandbu" />
		<tag k="place" v="farm" />
		<tag k="ssr:stedsnr" v="739316" />
	</node>
	<node lat="61.88043888523977" lon="9.07127778177456" id="-39715">
		<tag k="name" v="Hølen" />
		<tag k="place" v="farm" />
		<tag k="ssr:stedsnr" v="739339" />
	</node>
	<node lat="61.84385380728656" lon="8.901172993983712" id="-39720">
		<tag k="name" v="Storrviksroe" />
		<tag k="place" v="hamlet" />
		<tag k="ssr:stedsnr" v="756201" />
	</node>
	<node lat="61.854513892013586" lon="9.172230551091856" id="-39722">
		<tag k="name" v="Nørder-Svee" />
		<tag k="place" v="farm" />
		<tag k="ssr:stedsnr" v="889774" />
	</node>
	<node lat="61.890928406514085" lon="9.055616753341717" id="-39723">
		<tag k="name" v="Nigard Svare" />
		<tag k="place" v="farm" />
		<tag k="ssr:stedsnr" v="767018" />
	</node>
	<node lat="61.87525278170253" lon="9.089219444219315" id="-39726">
		<tag k="name" v="Rugsvee" />
		<tag k="place" v="isolated_dwelling" />
		<tag k="ssr:stedsnr" v="767177" />
	</node>
	<node lat="61.86816389240947" lon="9.22721388909728" id="-39727">
		<tag k="name" v="Øyhuslykkja" />
		<tag k="place" v="locality" />
		<tag k="ssr:stedsnr" v="767800" />
	</node>
	<node lat="61.856094441586194" lon="9.212219447689337" id="-39728">
		<tag k="name" v="Kåppårslette" />
		<tag k="place" v="farm" />
		<tag k="ssr:stedsnr" v="767763" />
	</node>
	<node lat="61.85472499691714" lon="9.200822218938267" id="-39729">
		<tag k="name" v="Solhaug" />
		<tag k="place" v="isolated_dwelling" />
		<tag k="ssr:stedsnr" v="767767" />
	</node>
	<node lat="61.85744167112199" lon="9.187749991150401" id="-39730">
		<tag k="name" v="Sygard Holdbø" />
		<tag k="place" v="farm" />
		<tag k="ssr:stedsnr" v="767768" />
	</node>
	<node lat="61.881752781483414" lon="9.134502769660235" id="-39732">
		<tag k="name" v="Hestlykkja" />
		<tag k="place" v="isolated_dwelling" />
		<tag k="ssr:stedsnr" v="767986" />
	</node>
	<node lat="61.86029820022159" lon="8.988457998533693" id="-39733">
		<tag k="name" v="Bjørkheim" />
		<tag k="place" v="farm" />
		<tag k="ssr:stedsnr" v="769075" />
	</node>
	<node lat="61.85934036840572" lon="9.080381553017405" id="-39735">
		<tag k="alt_name" v="Klonesbakkin" />
		<tag k="name" v="Klonesbakken" />
		<tag k="place" v="farm" />
		<tag k="ssr:stedsnr" v="769225" />
	</node>
	<node lat="61.88501111535815" lon="9.107677769222779" id="-39737">
		<tag k="name" v="Syvergard" />
		<tag k="place" v="farm" />
		<tag k="ssr:stedsnr" v="769028" />
	</node>
	<node lat="61.86440277746304" lon="9.167502780929931" id="-39738">
		<tag k="name" v="Ner-Åsen" />
		<tag k="place" v="farm" />
		<tag k="ssr:stedsnr" v="769956" />
	</node>
	<node lat="61.728680556850925" lon="9.072611113020649" id="-39739">
		<tag k="name" v="Skjellhaug" />
		<tag k="place" v="farm" />
		<tag k="ssr:stedsnr" v="769290" />
	</node>
	<node lat="61.447308335790645" lon="9.106858325298742" id="-39752">
		<tag k="alt_name" v="Heimdalen, nedre" />
		<tag k="name" v="Nedre Heimdalen" />
		<tag k="place" v="isolated_dwelling" />
		<tag k="ssr:stedsnr" v="780001" />
	</node>
	<node lat="61.79624722465807" lon="8.96847221857595" id="-39753">
		<tag k="historic" v="shieling" />
		<tag k="name" v="Morksætre" />
		<tag k="place" v="isolated_dwelling" />
		<tag k="ssr:stedsnr" v="781440" />
	</node>
	<node lat="61.92682499775636" lon="8.969308340181652" id="-39754">
		<tag k="name" v="Teigen" />
		<tag k="place" v="farm" />
		<tag k="ssr:stedsnr" v="782324" />
	</node>
	<node lat="61.926283973865004" lon="8.967055845288586" id="-39755">
		<tag k="fixme" v="consider place=hamlet" />
		<tag k="name" v="Plassen" />
		<tag k="place" v="farm" />
		<tag k="ssr:stedsnr" v="782325" />
	</node>
	<node lat="61.43683595117264" lon="8.752550332912321" id="-39758">
		<tag k="name" v="Svarthåmårbue" />
		<tag k="place" v="locality" />
		<tag k="ssr:stedsnr" v="797135" />
	</node>
	<node lat="61.921791663243" lon="8.981452785907486" id="-39765">
		<tag k="alt_name" v="Nygård" />
		<tag k="name" v="Nygard" />
		<tag k="place" v="farm" />
		<tag k="ssr:stedsnr" v="799160" />
	</node>
	<node lat="61.88487564020262" lon="9.075336044161588" id="-39768">
		<tag k="fixme" v="consider place=hamlet" />
		<tag k="name" v="Håkåstad" />
		<tag k="place" v="farm" />
		<tag k="ssr:stedsnr" v="799358" />
	</node>
	<node lat="61.88279722655559" lon="9.067833327607675" id="-39769">
		<tag k="name" v="Hølmo" />
		<tag k="place" v="farm" />
		<tag k="ssr:stedsnr" v="799366" />
	</node>
	<node lat="61.79033055282177" lon="9.145911103841437" id="-39771">
		<tag k="historic" v="shieling" />
		<tag k="name" v="Stokkstadsætri" />
		<tag k="place" v="isolated_dwelling" />
		<tag k="ssr:stedsnr" v="799444" />
	</node>
	<node lat="61.75447222134302" lon="9.074469453149064" id="-39774">
		<tag k="alt_name" v="Sandnes" />
		<tag k="historic" v="shieling" />
		<tag k="name" v="Sandnessætre" />
		<tag k="place" v="isolated_dwelling" />
		<tag k="ssr:stedsnr" v="799391" />
	</node>
	<node lat="61.7978583378537" lon="9.052480548465535" id="-39778">
		<tag k="historic" v="shieling" />
		<tag k="name" v="Megardsåsen" />
		<tag k="place" v="isolated_dwelling" />
		<tag k="ssr:stedsnr" v="799461" />
	</node>
	<node lat="61.609138218623684" lon="8.985192521765226" id="-39786">
		<tag k="historic" v="shieling" />
		<tag k="name" v="Gamelsætre" />
		<tag k="place" v="isolated_dwelling" />
		<tag k="ssr:stedsnr" v="799817" />
	</node>
	<node lat="61.83717777862797" lon="9.24369166061817" id="-39788">
		<tag k="name" v="Granrud" />
		<tag k="place" v="farm" />
		<tag k="ssr:stedsnr" v="799822" />
	</node>
	<node lat="61.48571944150008" lon="8.712416668718022" id="-39796">
		<tag k="name" v="Rathbonebue" />
		<tag k="place" v="isolated_dwelling" />
		<tag k="ssr:stedsnr" v="815262" />
	</node>
	<node lat="61.843666667752395" lon="8.92765277628492" id="-39798">
		<tag k="building" v="industrial" />
		<tag k="name" v="Skiferbrot" />
		<tag k="ssr:stedsnr" v="817301" />
	</node>
	<node lat="61.872113888541335" lon="9.097452776941912" id="-39800">
		<tag k="amenity" v="school" />
		<tag k="name" v="Vågå barneskule" />
		<tag k="ssr:stedsnr" v="828159" />
	</node>
	<node lat="61.88221388546781" lon="9.135349991915213" id="-39801">
		<tag k="name" v="Steine" />
		<tag k="place" v="isolated_dwelling" />
		<tag k="ssr:stedsnr" v="828985" />
	</node>
	<node lat="61.88011666350409" lon="9.1530361127593" id="-39804">
		<tag k="name" v="Furuhaug" />
		<tag k="place" v="isolated_dwelling" />
		<tag k="ssr:stedsnr" v="828999" />
	</node>
	<node lat="61.86789166620832" lon="9.200469437255546" id="-39805">
		<tag k="name" v="Bjørgen" />
		<tag k="place" v="farm" />
		<tag k="ssr:stedsnr" v="828724" />
	</node>
	<node lat="61.85478889190506" lon="9.175922228369206" id="-39806">
		<tag k="alt_name" v="Hågein" />
		<tag k="name" v="Hagen" />
		<tag k="place" v="farm" />
		<tag k="ssr:stedsnr" v="828746" />
	</node>
	<node lat="61.88089722085369" lon="9.106705553853425" id="-39809">
		<tag k="name" v="Solbu" />
		<tag k="place" v="farm" />
		<tag k="ssr:stedsnr" v="830059" />
	</node>
	<node lat="61.82771944386397" lon="9.076655548158515" id="-39811">
		<tag k="historic" v="shieling" />
		<tag k="name" v="Hågåsætre" />
		<tag k="place" v="isolated_dwelling" />
		<tag k="ssr:stedsnr" v="830124" />
	</node>
	<node lat="61.87428049161224" lon="9.03682841186255" id="-39812">
		<tag k="name" v="Nyheim" />
		<tag k="place" v="farm" />
		<tag k="ssr:stedsnr" v="830211" />
	</node>
	<node lat="61.873055552389694" lon="9.032016662205756" id="-39813">
		<tag k="name" v="Øvre Valbjørslykkja" />
		<tag k="place" v="farm" />
		<tag k="ssr:stedsnr" v="830214" />
	</node>
	<node lat="61.86474166851533" lon="9.172794446070988" id="-39817">
		<tag k="name" v="Steinalykkja" />
		<tag k="place" v="isolated_dwelling" />
		<tag k="ssr:stedsnr" v="830951" />
	</node>
	<node lat="61.84661676265393" lon="9.219707068801727" id="-39818">
		<tag k="name" v="Vestheim" />
		<tag k="place" v="farm" />
		<tag k="ssr:stedsnr" v="889855" />
	</node>
	<node lat="61.88324999640215" lon="9.119613887518488" id="-39819">
		<tag k="name" v="Søre Skjellom" />
		<tag k="place" v="locality" />
		<tag k="ssr:stedsnr" v="889985" />
	</node>
	<node lat="61.798646025701096" lon="9.321435901773537" id="-39820">
		<tag k="name" v="Omundgård" />
		<tag k="place" v="farm" />
		<tag k="ssr:stedsnr" v="838688" />
	</node>
	<node lat="61.799605555790265" lon="9.296088892239526" id="-39821">
		<tag k="name" v="Brennhaugen" />
		<tag k="place" v="farm" />
		<tag k="ssr:stedsnr" v="838695" />
	</node>
	<node lat="61.84184722149369" lon="9.186024997820098" id="-39831">
		<tag k="historic" v="shieling" />
		<tag k="name" v="Lauvsætrin" />
		<tag k="place" v="isolated_dwelling" />
		<tag k="ssr:stedsnr" v="859229" />
	</node>
	<node lat="61.82629166523003" lon="9.083966659498113" id="-39835">
		<tag k="historic" v="shieling" />
		<tag k="name" v="Randsætri" />
		<tag k="place" v="isolated_dwelling" />
		<tag k="ssr:stedsnr" v="859451" />
	</node>
	<node lat="61.79495000265543" lon="9.330113893431484" id="-39836">
		<tag k="name" v="Brenna" />
		<tag k="place" v="farm" />
		<tag k="ssr:stedsnr" v="859838" />
	</node>
	<node lat="61.84371388845983" lon="8.949261117340248" id="-39842">
		<tag k="name" v="Lykkja" />
		<tag k="place" v="farm" />
		<tag k="ssr:stedsnr" v="860329" />
	</node>
	<node lat="61.84369334907181" lon="8.94407517220864" id="-39843">
		<tag k="name" v="Nyhus" />
		<tag k="place" v="farm" />
		<tag k="ssr:stedsnr" v="860330" />
	</node>
	<node lat="61.8450619136772" lon="8.946603383697605" id="-39844">
		<tag k="name" v="Storrvik" />
		<tag k="place" v="hamlet" />
		<tag k="ssr:stedsnr" v="860332" />
	</node>
	<node lat="61.85541944328441" lon="9.178863884183194" id="-39845">
		<tag k="alt_name" v="Svei, nordre;Sveen" />
		<tag k="name" v="Nørdre Svei" />
		<tag k="place" v="farm" />
		<tag k="ssr:stedsnr" v="860342" />
	</node>
	<node lat="61.87538333084735" lon="9.107527787115073" id="-39846">
		<tag k="name" v="Vollen" />
		<tag k="place" v="farm" />
		<tag k="ssr:stedsnr" v="860413" />
	</node>
	<node lat="61.890749999621825" lon="9.059697227002589" id="-39849">
		<tag k="name" v="Finntryu" />
		<tag k="place" v="hamlet" />
		<tag k="ssr:stedsnr" v="860430" />
	</node>
	<node lat="61.86498055871961" lon="9.016708342314438" id="-39850">
		<tag k="fixme" v="consider place=hamlet" />
		<tag k="name" v="Nordherad" />
		<tag k="place" v="village" />
		<tag k="ssr:stedsnr" v="860398" />
	</node>
	<node lat="61.78139721894109" lon="9.082686115720351" id="-39851">
		<tag k="historic" v="shieling" />
		<tag k="name" v="Darthus" />
		<tag k="place" v="isolated_dwelling" />
		<tag k="ssr:stedsnr" v="860493" />
	</node>
	<node lat="61.81283611411227" lon="9.093322216332814" id="-39852">
		<tag k="historic" v="shieling" />
		<tag k="name" v="Stadelykkjesætri" />
		<tag k="place" v="isolated_dwelling" />
		<tag k="ssr:stedsnr" v="860502" />
	</node>
	<node lat="61.60873055437536" lon="8.972061111505308" id="-39856">
		<tag k="historic" v="shieling" />
		<tag k="name" v="Stuttgongje" />
		<tag k="place" v="isolated_dwelling" />
		<tag k="ssr:stedsnr" v="860824" />
	</node>
	<node lat="61.81806944710881" lon="9.25689999926793" id="-39862">
		<tag k="name" v="Lauvrud" />
		<tag k="place" v="farm" />
		<tag k="ssr:stedsnr" v="860798" />
	</node>
	<node lat="61.82685555279263" lon="8.988361113853838" id="-39866">
		<tag k="loc_name" v="Synstlie" />
		<tag k="name" v="Synslie" />
		<tag k="place" v="hamlet" />
		<tag k="ssr:stedsnr" v="874506" />
	</node>
	<node lat="61.87070555218364" lon="9.095597224666434" id="-39870">
		<tag k="name" v="Pressmoen" />
		<tag k="place" v="farm" />
		<tag k="ssr:stedsnr" v="888175" />
	</node>
	<node lat="61.848311110974294" lon="9.211250008147658" id="-39872">
		<tag k="name" v="Løkjerandin" />
		<tag k="place" v="farm" />
		<tag k="ssr:stedsnr" v="888835" />
	</node>
	<node lat="61.892455552985375" lon="9.047258339092592" id="-39873">
		<tag k="name" v="Nordigard Svare" />
		<tag k="place" v="farm" />
		<tag k="ssr:stedsnr" v="889018" />
	</node>
	<node lat="61.81429166274983" lon="9.280397221608196" id="-39876">
		<tag k="amenity" v="school" />
		<tag k="name" v="Lalm skule" />
		<tag k="ssr:stedsnr" v="947883" />
	</node>
	<node lat="61.89619166591792" lon="9.027291672767602" id="-39877">
		<tag k="name" v="Hågålykkja" />
		<tag k="place" v="farm" />
		<tag k="ssr:stedsnr" v="949028" />
	</node>
	<node lat="61.88478889168388" lon="9.084133330989422" id="-39879">
		<tag k="name" v="Lundhaug" />
		<tag k="place" v="farm" />
		<tag k="ssr:stedsnr" v="949045" />
	</node>
	<node lat="61.866027776392755" lon="9.221169451722645" id="-39883">
		<tag k="name" v="Bjørklund" />
		<tag k="place" v="farm" />
		<tag k="ssr:stedsnr" v="949727" />
	</node>
	<node lat="61.86366202662722" lon="9.212382215912443" id="-39884">
		<tag k="name" v="Bersveinstugu" />
		<tag k="place" v="farm" />
		<tag k="ssr:stedsnr" v="949750" />
	</node>
	<node lat="61.86300833316668" lon="9.112405556305866" id="-39885">
		<tag k="name" v="Hågån" />
		<tag k="place" v="farm" />
		<tag k="ssr:stedsnr" v="951224" />
	</node>
	<node lat="61.883625002156656" lon="9.090952768801062" id="-39886">
		<tag k="name" v="Ner-Sæta" />
		<tag k="place" v="farm" />
		<tag k="ssr:stedsnr" v="951050" />
	</node>
	<node lat="61.88271161141402" lon="9.088303672979585" id="-39887">
		<tag k="name" v="Flaten" />
		<tag k="place" v="farm" />
		<tag k="ssr:stedsnr" v="951052" />
	</node>
	<node lat="61.88377500317644" lon="9.114113891730039" id="-39888">
		<tag k="name" v="Haugøyøygarden" />
		<tag k="place" v="farm" />
		<tag k="ssr:stedsnr" v="951055" />
	</node>
	<node lat="61.884383336881996" lon="9.10401110857015" id="-39889">
		<tag k="name" v="Runningen" />
		<tag k="place" v="farm" />
		<tag k="ssr:stedsnr" v="951058" />
	</node>
	<node lat="61.85921944341026" lon="8.91808334224118" id="-39890">
		<tag k="name" v="Veslberget" />
		<tag k="place" v="isolated_dwelling" />
		<tag k="ssr:stedsnr" v="951067" />
	</node>
	<node lat="61.8747833314459" lon="9.045911118695695" id="-39893">
		<tag k="name" v="Feleselykkja" />
		<tag k="place" v="farm" />
		<tag k="ssr:stedsnr" v="951236" />
	</node>
	<node lat="61.86465122733783" lon="8.99941136100321" id="-39894">
		<tag k="fixme" v="consider place=hamlet" />
		<tag k="name" v="Ulvsbu" />
		<tag k="place" v="farm" />
		<tag k="ssr:stedsnr" v="951244" />
	</node>
	<node lat="61.755066662913336" lon="9.07007221394411" id="-39896">
		<tag k="leisure" v="pitch" />
		<tag k="name" v="Lemonsjøen skisenter" />
		<tag k="ssr:stedsnr" v="951371" />
	</node>
	<node lat="61.921311113332486" lon="9.013083329068689" id="-39898">
		<tag k="historic" v="shieling" />
		<tag k="name" v="Hersætre" />
		<tag k="place" v="isolated_dwelling" />
		<tag k="ssr:stedsnr" v="951539" />
	</node>
	<node lat="61.759627900111695" lon="9.120629938669795" id="-39906">
		<tag k="alt_name" v="Valviksætre" />
		<tag k="historic" v="shieling" />
		<tag k="name" v="Valviksætri" />
		<tag k="place" v="isolated_dwelling" />
		<tag k="ssr:stedsnr" v="963439" />
	</node>
	<node lat="61.55196111057222" lon="9.158397219533244" id="-39908">
		<tag k="alt_name" v="Nysætrin, søre;Nysætrin" />
		<tag k="historic" v="shieling" />
		<tag k="name" v="Søre Nysætrin" />
		<tag k="place" v="isolated_dwelling" />
		<tag k="ssr:stedsnr" v="963871" />
	</node>
	<node lat="61.93214722413387" lon="8.933666664320695" id="-39909">
		<tag k="historic" v="shieling" />
		<tag k="name" v="Sveinsætre" />
		<tag k="place" v="isolated_dwelling" />
		<tag k="ssr:stedsnr" v="964358" />
	</node>
	<node lat="61.92982499850053" lon="8.97665833714798" id="-39910">
		<tag k="loc_name" v="Geilen" />
		<tag k="name" v="Jeilen" />
		<tag k="place" v="farm" />
		<tag k="ssr:stedsnr" v="964364" />
	</node>
	<node lat="61.88966905631463" lon="9.065031173887736" id="-39911">
		<tag k="name" v="Råstad" />
		<tag k="place" v="hamlet" />
		<tag k="ssr:stedsnr" v="972216" />
	</node>
	<node lat="61.86008996933702" lon="8.993996614946294" id="-39912">
		<tag k="name" v="Sygard Sandnes" />
		<tag k="place" v="farm" />
		<tag k="ssr:stedsnr" v="972219" />
	</node>
	<node lat="61.82592160628269" lon="8.964080469561734" id="-39913">
		<tag k="fixme" v="consider place=hamlet" />
		<tag k="name" v="Fluguhaugen" />
		<tag k="place" v="farm" />
		<tag k="ssr:stedsnr" v="972225" />
	</node>
	<node lat="61.877899414111404" lon="9.137955681959905" id="-39914">
		<tag k="name" v="Nigard Sandbu" />
		<tag k="place" v="farm" />
		<tag k="ssr:stedsnr" v="975408" />
	</node>
	<node lat="61.92747902580383" lon="8.95581597794375" id="-39921">
		<tag k="name" v="Haugen" />
		<tag k="place" v="hamlet" />
		<tag k="ssr:stedsnr" v="984550" />
	</node>
	<node lat="61.87477226929699" lon="9.061471358668618" id="-39922">
		<tag k="name" v="Kvarberg" />
		<tag k="place" v="hamlet" />
		<tag k="ssr:stedsnr" v="984573" />
	</node>
	<node lat="61.87246070215145" lon="9.007304533400482" id="-39923">
		<tag k="name" v="Visdal" />
		<tag k="place" v="hamlet" />
		<tag k="ssr:stedsnr" v="984575" />
	</node>
	<node lat="61.86088623329049" lon="8.970564951253804" id="-39924">
		<tag k="fixme" v="consider place=hamlet" />
		<tag k="name" v="Sveom" />
		<tag k="place" v="farm" />
		<tag k="ssr:stedsnr" v="984580" />
	</node>
	<node lat="61.86588040375755" lon="8.99404385926236" id="-39925">
		<tag k="alt_name" v="Bergje" />
		<tag k="name" v="Berge" />
		<tag k="place" v="hamlet" />
		<tag k="ssr:stedsnr" v="984581" />
	</node>
	<node lat="61.86609749774933" lon="9.017666237354977" id="-39926">
		<tag k="name" v="Viste" />
		<tag k="place" v="hamlet" />
		<tag k="ssr:stedsnr" v="984582" />
	</node>
	<node lat="61.86192740694216" lon="9.016880853608399" id="-39927">
		<tag k="alt_name" v="Valle" />
		<tag k="loc_name" v="Valde" />
		<tag k="name" v="Velle" />
		<tag k="place" v="hamlet" />
		<tag k="ssr:stedsnr" v="984583" />
	</node>
	<node lat="61.865498334543624" lon="9.210901764908023" id="-39928">
		<tag k="fixme" v="consider place=hamlet" />
		<tag k="name" v="Haugen" />
		<tag k="place" v="farm" />
		<tag k="ssr:stedsnr" v="984408" />
	</node>
	<node lat="61.887536448461155" lon="9.074683464838913" id="-39929">
		<tag k="name" v="Lunde" />
		<tag k="place" v="hamlet" />
		<tag k="ssr:stedsnr" v="984545" />
	</node>
	<node lat="61.89729630797843" lon="9.021726425379926" id="-39930">
		<tag k="name" v="Siem" />
		<tag k="place" v="hamlet" />
		<tag k="ssr:stedsnr" v="984546" />
	</node>
	<node lat="61.90238876566621" lon="9.00776874498532" id="-39931">
		<tag k="name" v="Synsteng" />
		<tag k="place" v="hamlet" />
		<tag k="ssr:stedsnr" v="984547" />
	</node>
	<node lat="61.90944301836062" lon="8.997539112847853" id="-39932">
		<tag k="alt_name" v="Skjesvoll" />
		<tag k="name" v="Skjedsvoll" />
		<tag k="place" v="hamlet" />
		<tag k="ssr:stedsnr" v="984548" />
	</node>
	<node lat="61.829374692519146" lon="8.999173532803464" id="-39933">
		<tag k="fixme" v="consider place=hamlet" />
		<tag k="name" v="Bakken" />
		<tag k="place" v="farm" />
		<tag k="ssr:stedsnr" v="984589" />
	</node>
	<node lat="61.825947671051836" lon="8.992263834897882" id="-39934">
		<tag k="name" v="Flatåsen" />
		<tag k="place" v="locality" />
		<tag k="ssr:stedsnr" v="984590" />
	</node>
	<node lat="61.82429411259604" lon="8.98598506876266" id="-39935">
		<tag k="name" v="Haugen" />
		<tag k="place" v="locality" />
		<tag k="ssr:stedsnr" v="984591" />
	</node>
	<node lat="61.8262048198736" lon="8.982982701460566" id="-39936">
		<tag k="name" v="Stordalen" />
		<tag k="place" v="locality" />
		<tag k="ssr:stedsnr" v="984592" />
	</node>
	<node lat="61.85680125847666" lon="9.047004795755134" id="-39937">
		<tag k="name" v="Strond" />
		<tag k="place" v="hamlet" />
		<tag k="ssr:stedsnr" v="984597" />
	</node>
	<node lat="61.86158191392488" lon="9.08340992396336" id="-39938">
		<tag k="fixme" v="consider place=hamlet" />
		<tag k="name" v="Klones" />
		<tag k="place" v="farm" />
		<tag k="ssr:stedsnr" v="984598" />
	</node>
	<node lat="61.826665199182955" lon="9.394780080138707" id="-39939">
		<tag k="leisure" v="pitch" />
		<tag k="name" v="Tolstadåsen skistadion" />
		<tag k="ssr:stedsnr" v="987174" />
	</node>
	<node lat="61.826353341755414" lon="9.398100741305601" id="-39940">
		<tag k="name" v="Åsen" />
		<tag k="place" v="hamlet" />
		<tag k="ssr:stedsnr" v="987558" />
	</node>
	<node lat="61.849902455110495" lon="8.897081936536416" id="-39955">
		<tag k="name" v="Midtre Neset" />
		<tag k="place" v="locality" />
		<tag k="ssr:stedsnr" v="989447" />
	</node>
	<node lat="61.82501675825804" lon="9.257888184780422" id="-39956">
		<tag k="alt_name" v="Bakkom nedre" />
		<tag k="name" v="Nedre Bakkom" />
		<tag k="place" v="farm" />
		<tag k="ssr:stedsnr" v="989448" />
	</node>
	<node lat="61.770124061690225" lon="9.053400996254018" id="-39978">
		<tag k="alt_name" v="Sygard Valdesætre" />
		<tag k="historic" v="shieling" />
		<tag k="name" v="Sygard Vellesætri" />
		<tag k="place" v="isolated_dwelling" />
		<tag k="ssr:stedsnr" v="989668" />
	</node>
	<node lat="61.84847342836516" lon="9.239911571157572" id="-40063">
		<tag k="name" v="Snerle" />
		<tag k="place" v="hamlet" />
		<tag k="ssr:stedsnr" v="1072157" />
	</node>
	<node lat="61.85197475595" lon="9.038727979383177" id="-40065">
		<tag k="name" v="Vistekleivi" />
		<tag k="place" v="locality" />
		<tag k="ssr:stedsnr" v="1073400" />
	</node>
	<node lat="61.876523878717705" lon="9.227016204888308" id="-40067">
		<tag k="alt_name" v="Holungsætrin" />
		<tag k="historic" v="shieling" />
		<tag k="name" v="Holungssætrin" />
		<tag k="place" v="isolated_dwelling" />
		<tag k="ssr:stedsnr" v="1075159" />
	</node>
	<node lat="61.8592968931693" lon="9.179480055083719" id="-40068">
		<tag k="fixme" v="consider place=hamlet" />
		<tag k="name" v="Nedre Stokstad" />
		<tag k="place" v="farm" />
		<tag k="ssr:stedsnr" v="1075214" />
	</node>
	<node lat="61.88286997446937" lon="9.081636901067888" id="-40069">
		<tag k="name" v="Nedre Sundhågån" />
		<tag k="place" v="locality" />
		<tag k="ssr:stedsnr" v="1075172" />
	</node>
	<node lat="61.867395996306364" lon="9.124313205216954" id="-40070">
		<tag k="name" v="Søre Stein" />
		<tag k="place" v="farm" />
		<tag k="ssr:stedsnr" v="1075173" />
	</node>
	<node lat="61.88348692045702" lon="9.11587725559763" id="-40071">
		<tag k="name" v="Nørdre Skjellom" />
		<tag k="place" v="farm" />
		<tag k="ssr:stedsnr" v="1079878" />
	</node>
	<node lat="61.86930351582087" lon="9.18562647819626" id="-40072">
		<tag k="name" v="Neset" />
		<tag k="place" v="locality" />
		<tag k="ssr:stedsnr" v="1080341" />
	</node>
	<node lat="61.84154799039303" lon="9.272496635697985" id="-40073">
		<tag k="name" v="Bjørnstad" />
		<tag k="place" v="hamlet" />
		<tag k="ssr:stedsnr" v="1080342" />
	</node>
	<node lat="61.79934936718666" lon="9.335352314098653" id="-40074">
		<tag k="name" v="Søre Nerlie" />
		<tag k="place" v="locality" />
		<tag k="ssr:stedsnr" v="1081436" />
	</node>
	<node lat="61.79409447221436" lon="9.341976874605988" id="-40075">
		<tag k="name" v="Nørdre Sørlie" />
		<tag k="place" v="farm" />
		<tag k="ssr:stedsnr" v="1081437" />
	</node>
	<node lat="61.72294835949161" lon="9.051183750924467" id="-40076">
		<tag k="fixme" v="consider tourism=alpine_hut or tourism=chalet" />
		<tag k="name" v="Forsthytta" />
		<tag k="ssr:stedsnr" v="1082369" />
		<tag k="tourism" v="wilderness_hut" />
	</node>
</osm>
