<?xml version="1.0" encoding="UTF-8"?>
<osm version="0.6" generator="osmapis">
	<node lat="61.42762777908162" lon="8.917405548175674" id="-41388">
		<tag k="name" v="Veslkvelven" />
		<tag k="natural" v="valley" />
		<tag k="place" v="locality" />
		<tag k="ssr:stedsnr" v="7008" />
	</node>
	<node lat="61.83536388555047" lon="9.003361109063572" id="-41391">
		<tag k="alt_name" v="Rognhøi" />
		<tag k="name" v="Rognhøe" />
		<tag k="natural" v="hill" />
		<tag k="place" v="locality" />
		<tag k="ssr:stedsnr" v="10251" />
	</node>
	<node lat="61.77652222441198" lon="8.993155546544136" id="-41394">
		<tag k="name" v="Djupdalen" />
		<tag k="natural" v="valley" />
		<tag k="place" v="locality" />
		<tag k="ssr:stedsnr" v="10406" />
	</node>
	<node lat="61.79472778127901" lon="9.069655555238324" id="-41395">
		<tag k="fixme" v="consider natural=peak for the most distinct mountains in the district" />
		<tag k="name" v="Megardsåsen" />
		<tag k="natural" v="hill" />
		<tag k="place" v="locality" />
		<tag k="ssr:stedsnr" v="10435" />
	</node>
	<node lat="61.594200003199816" lon="8.93395277957985" id="-41397">
		<tag k="name" v="Kalvbakken" />
		<tag k="natural" v="slope" />
		<tag k="place" v="locality" />
		<tag k="ssr:stedsnr" v="10813" />
	</node>
	<node lat="61.55894999790995" lon="9.004358338116816" id="-41399">
		<tag k="name" v="Griningsdalen" />
		<tag k="natural" v="valley" />
		<tag k="place" v="locality" />
		<tag k="ssr:stedsnr" v="10841" />
	</node>
	<node lat="61.63331666231918" lon="8.68416389297063" id="-41403">
		<tag k="name" v="Veodalen" />
		<tag k="natural" v="valley" />
		<tag k="place" v="locality" />
		<tag k="ssr:stedsnr" v="10912" />
	</node>
	<node lat="61.53610833010422" lon="8.697824995595106" id="-41405">
		<tag k="fixme" v="consider natural=peak for the most distinct mountains in the district" />
		<tag k="name" v="Kollhøin" />
		<tag k="natural" v="hill" />
		<tag k="place" v="locality" />
		<tag k="ssr:stedsnr" v="10939" />
	</node>
	<node lat="61.80571389258321" lon="9.354822215987696" id="-41409">
		<tag k="fixme" v="consider natural=saddle" />
		<tag k="name" v="Skriduskardet" />
		<tag k="natural" v="valley" />
		<tag k="place" v="locality" />
		<tag k="ssr:stedsnr" v="10886" />
	</node>
	<node lat="61.87155000205839" lon="8.877558336108914" id="-41410">
		<tag k="fixme" v="consider natural=saddle" />
		<tag k="name" v="Tronget" />
		<tag k="natural" v="valley" />
		<tag k="place" v="locality" />
		<tag k="ssr:stedsnr" v="11328" />
	</node>
	<node lat="61.87895000145225" lon="9.284483325542027" id="-41411">
		<tag k="name" v="Horgeslettin" />
		<tag k="natural" v="hill" />
		<tag k="place" v="locality" />
		<tag k="ssr:stedsnr" v="11983" />
	</node>
	<node lat="61.43467500157345" lon="8.541733324382152" id="-41421">
		<tag k="name" v="Knutseggen" />
		<tag k="natural" v="ridge" />
		<tag k="place" v="locality" />
		<tag k="ssr:stedsnr" v="26275" />
	</node>
	<node lat="61.48017200831785" lon="8.713498223663018" id="-41422">
		<tag k="fixme" v="consider natural=saddle" />
		<tag k="name" v="Veslløyfte" />
		<tag k="natural" v="valley" />
		<tag k="place" v="locality" />
		<tag k="ssr:stedsnr" v="26289" />
	</node>
	<node lat="61.89293611394627" lon="8.995424991261695" id="-41423">
		<tag k="name" v="Handklæe" />
		<tag k="place" v="locality" />
		<tag k="ssr:stedsnr" v="223022" />
	</node>
	<node lat="61.83478333442478" lon="8.958911118880721" id="-41425">
		<tag k="name" v="Flatmoen" />
		<tag k="place" v="locality" />
		<tag k="ssr:stedsnr" v="223125" />
	</node>
	<node lat="61.81911666345214" lon="9.069213896411329" id="-41432">
		<tag k="fixme" v="consider natural=saddle" />
		<tag k="name" v="Stordalsmunnin" />
		<tag k="natural" v="valley" />
		<tag k="place" v="locality" />
		<tag k="ssr:stedsnr" v="223184" />
	</node>
	<node lat="61.93346667051401" lon="9.00186666520698" id="-41434">
		<tag k="name" v="Hulderberget" />
		<tag k="natural" v="hill" />
		<tag k="place" v="locality" />
		<tag k="ssr:stedsnr" v="223543" />
	</node>
	<node lat="61.708980553117875" lon="9.036044441263176" id="-41436">
		<tag k="name" v="Kolbottmoen" />
		<tag k="place" v="locality" />
		<tag k="ssr:stedsnr" v="223484" />
	</node>
	<node lat="61.89478611191583" lon="9.221666674976772" id="-41440">
		<tag k="name" v="Skurvehøe" />
		<tag k="natural" v="hill" />
		<tag k="place" v="locality" />
		<tag k="ssr:stedsnr" v="223926" />
	</node>
	<node lat="61.95201944536453" lon="9.030591672785084" id="-41452">
		<tag k="name" v="Grårandin" />
		<tag k="place" v="locality" />
		<tag k="ssr:stedsnr" v="41118" />
	</node>
	<node lat="61.9738472244782" lon="8.983955550000243" id="-41464">
		<tag k="name" v="Milthaugen" />
		<tag k="natural" v="hill" />
		<tag k="place" v="locality" />
		<tag k="ssr:stedsnr" v="71208" />
	</node>
	<node lat="61.710333332361394" lon="9.063636112051737" id="-41465">
		<tag k="name" v="Storkverngrovdalen" />
		<tag k="natural" v="valley" />
		<tag k="place" v="locality" />
		<tag k="ssr:stedsnr" v="70976" />
	</node>
	<node lat="61.992480558977775" lon="9.024888894606432" id="-41471">
		<tag k="fixme" v="consider natural=peak for the most distinct mountains in the district" />
		<tag k="name" v="Oksli" />
		<tag k="natural" v="hill" />
		<tag k="place" v="locality" />
		<tag k="ssr:stedsnr" v="71184" />
	</node>
	<node lat="61.87460277781123" lon="9.082705547712267" id="-41474">
		<tag k="name" v="Prestberget" />
		<tag k="natural" v="hill" />
		<tag k="place" v="locality" />
		<tag k="ssr:stedsnr" v="71379" />
	</node>
	<node lat="61.88549722168509" lon="8.923002778041297" id="-41476">
		<tag k="name" v="Storhaugen" />
		<tag k="natural" v="hill" />
		<tag k="place" v="locality" />
		<tag k="ssr:stedsnr" v="71388" />
	</node>
	<node lat="61.8167111070915" lon="9.069819450820159" id="-41477">
		<tag k="fixme" v="consider natural=peak for the most distinct mountains in the district" />
		<tag k="name" v="Surtningsåsen" />
		<tag k="natural" v="hill" />
		<tag k="place" v="locality" />
		<tag k="ssr:stedsnr" v="71503" />
	</node>
	<node lat="61.90223055574556" lon="8.909105559181842" id="-41478">
		<tag k="fixme" v="consider natural=peak for the most distinct mountains in the district" />
		<tag k="name" v="Knutshøe" />
		<tag k="natural" v="hill" />
		<tag k="place" v="locality" />
		<tag k="ssr:stedsnr" v="71405" />
	</node>
	<node lat="61.75373333223348" lon="9.03307222322088" id="-41479">
		<tag k="alt_name" v="Trollhøi" />
		<tag k="fixme" v="consider natural=peak for the most distinct mountains in the district" />
		<tag k="name" v="Trollhøe" />
		<tag k="natural" v="hill" />
		<tag k="place" v="locality" />
		<tag k="ssr:stedsnr" v="71425" />
	</node>
	<node lat="61.80038333041458" lon="9.237613884236236" id="-41483">
		<tag k="name" v="Rinddalen" />
		<tag k="natural" v="valley" />
		<tag k="place" v="locality" />
		<tag k="ssr:stedsnr" v="71773" />
	</node>
	<node lat="61.658599995769215" lon="9.086205559946217" id="-41484">
		<tag k="fixme" v="multiple name tags, choose one and add the other to alt_name; consider natural=peak for the most distinct mountains in the district" />
		<tag k="name" v="Steinbrukampen;Sjolikampen" />
		<tag k="natural" v="hill" />
		<tag k="place" v="locality" />
		<tag k="ssr:stedsnr" v="71776" />
	</node>
	<node lat="61.61365555368759" lon="8.899030560954595" id="-41487">
		<tag k="name" v="Hindkluftin" />
		<tag k="natural" v="valley" />
		<tag k="place" v="locality" />
		<tag k="ssr:stedsnr" v="71818" />
	</node>
	<node lat="61.59780278079468" lon="9.083775006133097" id="-41489">
		<tag k="name" v="Leirdalen" />
		<tag k="natural" v="valley" />
		<tag k="place" v="locality" />
		<tag k="ssr:stedsnr" v="71822" />
	</node>
	<node lat="61.838147223183185" lon="9.304500008372244" id="-41490">
		<tag k="name" v="Hansberg" />
		<tag k="natural" v="hill" />
		<tag k="place" v="locality" />
		<tag k="ssr:stedsnr" v="71823" />
	</node>
	<node lat="61.538969445789654" lon="8.981097229385396" id="-41491">
		<tag k="fixme" v="consider natural=peak for the most distinct mountains in the district" />
		<tag k="name" v="Rundhøe" />
		<tag k="natural" v="hill" />
		<tag k="place" v="locality" />
		<tag k="ssr:stedsnr" v="71872" />
	</node>
	<node lat="61.50538611088005" lon="8.752911109546949" id="-41492">
		<tag k="alt_name" v="Veslfjell;Veslefjell" />
		<tag k="fixme" v="consider natural=peak for the most distinct mountains in the district" />
		<tag k="name" v="Veslfjellet" />
		<tag k="natural" v="hill" />
		<tag k="place" v="locality" />
		<tag k="ssr:stedsnr" v="71966" />
	</node>
	<node lat="61.96339999561326" lon="8.92783888600298" id="-41493">
		<tag k="fixme" v="consider natural=peak for the most distinct mountains in the district" />
		<tag k="name" v="Gjerdingdalspiggen" />
		<tag k="natural" v="hill" />
		<tag k="place" v="locality" />
		<tag k="ssr:stedsnr" v="72166" />
	</node>
	<node lat="61.95399999727797" lon="9.006519453397408" id="-41496">
		<tag k="fixme" v="consider natural=peak for the most distinct mountains in the district" />
		<tag k="name" v="Dalseggi" />
		<tag k="natural" v="hill" />
		<tag k="place" v="locality" />
		<tag k="ssr:stedsnr" v="72187" />
	</node>
	<node lat="61.865947221147096" lon="8.93254722596143" id="-41497">
		<tag k="name" v="Svarthåmåren" />
		<tag k="natural" v="hill" />
		<tag k="place" v="locality" />
		<tag k="ssr:stedsnr" v="230468" />
	</node>
	<node lat="61.66526944020574" lon="9.03435556399344" id="-41503">
		<tag k="name" v="Riarmoene" />
		<tag k="place" v="locality" />
		<tag k="ssr:stedsnr" v="101463" />
	</node>
	<node lat="61.81941666891795" lon="9.093241673313926" id="-41505">
		<tag k="name" v="Synningsbakken" />
		<tag k="natural" v="slope" />
		<tag k="place" v="locality" />
		<tag k="ssr:stedsnr" v="102217" />
	</node>
	<node lat="61.86738055270439" lon="9.007461104121429" id="-41507">
		<tag k="name" v="Dalestugu" />
		<tag k="natural" v="hill" />
		<tag k="place" v="locality" />
		<tag k="ssr:stedsnr" v="102288" />
	</node>
	<node lat="61.87210277575891" lon="9.008638885049747" id="-41508">
		<tag k="name" v="Nigard Visdal" />
		<tag k="natural" v="hill" />
		<tag k="place" v="locality" />
		<tag k="ssr:stedsnr" v="102291" />
	</node>
	<node lat="61.87520555922256" lon="9.208036120315008" id="-41509">
		<tag k="loc_name" v="Aurderbakkein;Olderbakkan" />
		<tag k="name" v="Olderbakkene" />
		<tag k="natural" v="slope" />
		<tag k="place" v="locality" />
		<tag k="ssr:stedsnr" v="102820" />
	</node>
	<node lat="61.921116665462016" lon="8.882358334014501" id="-41512">
		<tag k="name" v="Svartberget" />
		<tag k="natural" v="hill" />
		<tag k="place" v="locality" />
		<tag k="ssr:stedsnr" v="235374" />
	</node>
	<node lat="61.545924997030795" lon="8.92919721303661" id="-41513">
		<tag k="name" v="Nedre Gålhaugen" />
		<tag k="natural" v="hill" />
		<tag k="place" v="locality" />
		<tag k="ssr:stedsnr" v="106722" />
	</node>
	<node lat="61.454380559342965" lon="8.902122221665593" id="-41521">
		<tag k="fixme" v="consider natural=peak for the most distinct mountains in the district" />
		<tag k="name" v="Heimdalshøe" />
		<tag k="natural" v="hill" />
		<tag k="place" v="locality" />
		<tag k="ssr:stedsnr" v="128207" />
	</node>
	<node lat="61.79231110889577" lon="8.996830552508959" id="-41531">
		<tag k="alt_name" v="Saghøi" />
		<tag k="name" v="Saghøe" />
		<tag k="natural" v="hill" />
		<tag k="place" v="locality" />
		<tag k="ssr:stedsnr" v="131423" />
	</node>
	<node lat="61.53629166809286" lon="9.042666671485065" id="-41537">
		<tag k="alt_name" v="Sleøkampen" />
		<tag k="name" v="Sleokampen" />
		<tag k="natural" v="hill" />
		<tag k="place" v="locality" />
		<tag k="ssr:stedsnr" v="131903" />
	</node>
	<node lat="61.80234999600683" lon="9.256477769214513" id="-41539">
		<tag k="name" v="Brennhaugen" />
		<tag k="natural" v="hill" />
		<tag k="place" v="locality" />
		<tag k="ssr:stedsnr" v="131911" />
	</node>
	<node lat="61.93887222099863" lon="8.970769438536653" id="-41544">
		<tag k="fixme" v="consider natural=peak for the most distinct mountains in the district" />
		<tag k="name" v="Veslfjellet" />
		<tag k="natural" v="hill" />
		<tag k="place" v="locality" />
		<tag k="ssr:stedsnr" v="132103" />
	</node>
	<node lat="61.93947500297734" lon="9.052322226740547" id="-41546">
		<tag k="fixme" v="consider natural=peak for the most distinct mountains in the district" />
		<tag k="name" v="Vardhøe" />
		<tag k="natural" v="hill" />
		<tag k="place" v="locality" />
		<tag k="ssr:stedsnr" v="132126" />
	</node>
	<node lat="61.5681638914343" lon="8.873988883687725" id="-41547">
		<tag k="name" v="Russhaugan" />
		<tag k="natural" v="slope" />
		<tag k="place" v="locality" />
		<tag k="ssr:stedsnr" v="131860" />
	</node>
	<node lat="61.55641111121542" lon="8.893175007279899" id="-41549">
		<tag k="name" v="Bakliberget" />
		<tag k="natural" v="hill" />
		<tag k="place" v="locality" />
		<tag k="ssr:stedsnr" v="131866" />
	</node>
	<node lat="61.87016944057842" lon="8.870911103985284" id="-41551">
		<tag k="name" v="Trolldalkampen" />
		<tag k="natural" v="hill" />
		<tag k="place" v="locality" />
		<tag k="ssr:stedsnr" v="132312" />
	</node>
	<node lat="61.86890277782176" lon="8.965875003434945" id="-41552">
		<tag k="name" v="Hovdkinn" />
		<tag k="natural" v="ridge" />
		<tag k="place" v="locality" />
		<tag k="ssr:stedsnr" v="132314" />
	</node>
	<node lat="61.3915083367431" lon="8.646580551855546" id="-41554">
		<tag k="fixme" v="multiple name tags, choose one and add the other to alt_name; consider natural=peak for the most distinct mountains in the district" />
		<tag k="name" v="Austre Kalvehøgde;Øystre Kalvehøgde" />
		<tag k="natural" v="hill" />
		<tag k="place" v="locality" />
		<tag k="ssr:stedsnr" v="147255" />
	</node>
	<node lat="61.41721111506365" lon="8.513099999914138" id="-41555">
		<tag k="fixme" v="consider natural=peak for the most distinct mountains in the district" />
		<tag k="name" v="Store Svartdalspiggen" />
		<tag k="natural" v="hill" />
		<tag k="place" v="locality" />
		<tag k="ssr:stedsnr" v="147256" />
	</node>
	<node lat="61.87893889001727" lon="9.051397231211201" id="-41568">
		<tag k="name" v="Bronsdalen" />
		<tag k="natural" v="valley" />
		<tag k="place" v="locality" />
		<tag k="ssr:stedsnr" v="162194" />
	</node>
	<node lat="61.546402779989435" lon="8.91231665912282" id="-41573">
		<tag k="name" v="Fjøsranden" />
		<tag k="place" v="locality" />
		<tag k="ssr:stedsnr" v="167765" />
	</node>
	<node lat="61.7897944484253" lon="9.267424999235077" id="-41574">
		<tag k="fixme" v="consider natural=peak for the most distinct mountains in the district" />
		<tag k="name" v="Veslfjellet" />
		<tag k="natural" v="hill" />
		<tag k="place" v="locality" />
		<tag k="ssr:stedsnr" v="170658" />
	</node>
	<node lat="61.42171666385873" lon="8.60059444063416" id="-41578">
		<tag k="fixme" v="consider natural=peak for the most distinct mountains in the district" />
		<tag k="name" v="Austre Leirungstinden" />
		<tag k="natural" v="hill" />
		<tag k="place" v="locality" />
		<tag k="ssr:stedsnr" v="250134" />
	</node>
	<node lat="61.49330555764835" lon="8.891330564903901" id="-41579">
		<tag k="name" v="Hoskelie" />
		<tag k="natural" v="slope" />
		<tag k="place" v="locality" />
		<tag k="ssr:stedsnr" v="250238" />
	</node>
	<node lat="61.485852779509784" lon="8.76035000256409" id="-41580">
		<tag k="name" v="Leirungsholet" />
		<tag k="natural" v="valley" />
		<tag k="place" v="locality" />
		<tag k="ssr:stedsnr" v="250759" />
	</node>
	<node lat="61.48693611196012" lon="8.79915555162696" id="-41581">
		<tag k="fixme" v="consider natural=peak for the most distinct mountains in the district" />
		<tag k="name" v="Gjendehøe" />
		<tag k="natural" v="hill" />
		<tag k="place" v="locality" />
		<tag k="ssr:stedsnr" v="250760" />
	</node>
	<node lat="61.498763891277406" lon="8.829380555867138" id="-41582">
		<tag k="fixme" v="consider natural=peak for the most distinct mountains in the district" />
		<tag k="name" v="Gjendehalsen" />
		<tag k="natural" v="hill" />
		<tag k="place" v="locality" />
		<tag k="ssr:stedsnr" v="250767" />
	</node>
	<node lat="61.498925003156295" lon="8.872149991507357" id="-41584">
		<tag k="name" v="Storhaugen" />
		<tag k="natural" v="hill" />
		<tag k="place" v="locality" />
		<tag k="ssr:stedsnr" v="189204" />
	</node>
	<node lat="61.44080277863673" lon="8.857222220743921" id="-41585">
		<tag k="fixme" v="consider natural=peak for the most distinct mountains in the district" />
		<tag k="name" v="Rundhøe" />
		<tag k="natural" v="hill" />
		<tag k="place" v="locality" />
		<tag k="ssr:stedsnr" v="189215" />
	</node>
	<node lat="61.4521249988351" lon="8.629336107204027" id="-41586">
		<tag k="name" v="Nørdre Tjønnholet" />
		<tag k="natural" v="valley" />
		<tag k="place" v="locality" />
		<tag k="ssr:stedsnr" v="190770" />
	</node>
	<node lat="61.824538889264744" lon="9.045499991023478" id="-41600">
		<tag k="alt_name" v="Ripstrondhøi" />
		<tag k="name" v="Ripstrondhøe" />
		<tag k="natural" v="hill" />
		<tag k="place" v="locality" />
		<tag k="ssr:stedsnr" v="192495" />
	</node>
	<node lat="61.817958333465285" lon="9.085347215127968" id="-41601">
		<tag k="name" v="Stordalen" />
		<tag k="natural" v="valley" />
		<tag k="place" v="locality" />
		<tag k="ssr:stedsnr" v="192498" />
	</node>
	<node lat="61.45986389216594" lon="8.832363887507539" id="-41602">
		<tag k="alt_name" v="Brurskardknappen, nordre" />
		<tag k="fixme" v="consider natural=peak for the most distinct mountains in the district" />
		<tag k="name" v="Nørdre Brurskardknappen" />
		<tag k="natural" v="hill" />
		<tag k="place" v="locality" />
		<tag k="ssr:stedsnr" v="251779" />
	</node>
	<node lat="61.46296944490165" lon="8.652922224857106" id="-41604">
		<tag k="fixme" v="consider natural=peak for the most distinct mountains in the district" />
		<tag k="name" v="Eggen" />
		<tag k="natural" v="hill" />
		<tag k="place" v="locality" />
		<tag k="ssr:stedsnr" v="251782" />
	</node>
	<node lat="61.45227499647351" lon="8.723622213882479" id="-41605">
		<tag k="name" v="Steinflye" />
		<tag k="place" v="locality" />
		<tag k="ssr:stedsnr" v="251785" />
	</node>
	<node lat="61.452841670094244" lon="8.669330558935908" id="-41606">
		<tag k="fixme" v="consider natural=peak for the most distinct mountains in the district" />
		<tag k="name" v="Høgdebrotet" />
		<tag k="natural" v="hill" />
		<tag k="place" v="locality" />
		<tag k="ssr:stedsnr" v="251787" />
	</node>
	<node lat="61.72376388688539" lon="8.899736113931274" id="-41611">
		<tag k="fixme" v="consider natural=peak for the most distinct mountains in the district" />
		<tag k="name" v="Grønhøe" />
		<tag k="natural" v="hill" />
		<tag k="place" v="locality" />
		<tag k="ssr:stedsnr" v="192982" />
	</node>
	<node lat="61.70488332937015" lon="8.9757944359331" id="-41614">
		<tag k="name" v="Svartlie" />
		<tag k="natural" v="slope" />
		<tag k="place" v="locality" />
		<tag k="ssr:stedsnr" v="192996" />
	</node>
	<node lat="61.56389166354971" lon="8.927602774136934" id="-41618">
		<tag k="name" v="Sjodalshaugan" />
		<tag k="natural" v="hill" />
		<tag k="place" v="locality" />
		<tag k="ssr:stedsnr" v="192854" />
	</node>
	<node lat="61.87454722023954" lon="8.974330553930505" id="-41622">
		<tag k="name" v="Tunga" />
		<tag k="natural" v="slope" />
		<tag k="place" v="locality" />
		<tag k="ssr:stedsnr" v="193342" />
	</node>
	<node lat="61.824191663580415" lon="9.136886108087788" id="-41627">
		<tag k="alt_name" v="Elihøi" />
		<tag k="name" v="Elihøe" />
		<tag k="natural" v="hill" />
		<tag k="place" v="locality" />
		<tag k="ssr:stedsnr" v="252436" />
	</node>
	<node lat="61.83025000389308" lon="8.952474994778717" id="-41629">
		<tag k="alt_name" v="Vistekvernhusberget" />
		<tag k="name" v="Vistekvennhusberget" />
		<tag k="natural" v="hill" />
		<tag k="place" v="locality" />
		<tag k="ssr:stedsnr" v="252440" />
	</node>
	<node lat="61.580408330224635" lon="9.034574993497968" id="-41632">
		<tag k="name" v="Tjørnosdalen" />
		<tag k="natural" v="valley" />
		<tag k="place" v="locality" />
		<tag k="ssr:stedsnr" v="252798" />
	</node>
	<node lat="61.56768333269001" lon="9.109750007768834" id="-41633">
		<tag k="fixme" v="consider natural=peak for the most distinct mountains in the district" />
		<tag k="name" v="Buvasshøe" />
		<tag k="natural" v="hill" />
		<tag k="place" v="locality" />
		<tag k="ssr:stedsnr" v="252799" />
	</node>
	<node lat="61.93684166444883" lon="9.126261107518848" id="-41637">
		<tag k="loc_name" v="Daldokkje" />
		<tag k="name" v="Daldokki" />
		<tag k="natural" v="valley" />
		<tag k="place" v="locality" />
		<tag k="ssr:stedsnr" v="253167" />
	</node>
	<node lat="61.832058331226776" lon="9.023600006652684" id="-41639">
		<tag k="alt_name" v="Oksle" />
		<tag k="fixme" v="consider natural=peak for the most distinct mountains in the district" />
		<tag k="name" v="Oksli" />
		<tag k="natural" v="hill" />
		<tag k="place" v="locality" />
		<tag k="ssr:stedsnr" v="253275" />
	</node>
	<node lat="61.848683330388354" lon="9.077338882443497" id="-41640">
		<tag k="alt_name" v="Kjuklinghøi" />
		<tag k="fixme" v="consider natural=peak for the most distinct mountains in the district" />
		<tag k="name" v="Kjuklinghøe" />
		<tag k="natural" v="hill" />
		<tag k="place" v="locality" />
		<tag k="ssr:stedsnr" v="253316" />
	</node>
	<node lat="61.859075001703836" lon="9.138674991138089" id="-41642">
		<tag k="name" v="Vetahaugen" />
		<tag k="natural" v="hill" />
		<tag k="place" v="locality" />
		<tag k="ssr:stedsnr" v="253339" />
	</node>
	<node lat="61.65756111247867" lon="9.008980555370304" id="-41650">
		<tag k="name" v="Veolihaugen" />
		<tag k="natural" v="hill" />
		<tag k="place" v="locality" />
		<tag k="ssr:stedsnr" v="253778" />
	</node>
	<node lat="61.873349996804635" lon="9.277758334026924" id="-41653">
		<tag k="name" v="Trondalshaugen" />
		<tag k="natural" v="hill" />
		<tag k="place" v="locality" />
		<tag k="ssr:stedsnr" v="253956" />
	</node>
	<node lat="61.92589298134426" lon="8.964893764064362" id="-41656">
		<tag k="name" v="Slådalen" />
		<tag k="natural" v="valley" />
		<tag k="place" v="locality" />
		<tag k="ssr:stedsnr" v="207551" />
	</node>
	<node lat="61.417649995938284" lon="8.575861105720445" id="-41657">
		<tag k="fixme" v="consider natural=peak for the most distinct mountains in the district" />
		<tag k="name" v="Søre Knutsholstinden" />
		<tag k="natural" v="hill" />
		<tag k="place" v="locality" />
		<tag k="ssr:stedsnr" v="208256" />
	</node>
	<node lat="61.61065277512112" lon="8.771191670420377" id="-41658">
		<tag k="fixme" v="consider natural=peak for the most distinct mountains in the district" />
		<tag k="name" v="Austre Nautgardstinden" />
		<tag k="natural" v="hill" />
		<tag k="place" v="locality" />
		<tag k="ssr:stedsnr" v="208351" />
	</node>
	<node lat="61.84417221864824" lon="8.873961116620249" id="-41659">
		<tag k="name" v="Snålteigen" />
		<tag k="natural" v="slope" />
		<tag k="place" v="locality" />
		<tag k="ssr:stedsnr" v="210239" />
	</node>
	<node lat="61.84794444421386" lon="9.115450008120916" id="-41660">
		<tag k="name" v="Timberrandin" />
		<tag k="natural" v="hill" />
		<tag k="place" v="locality" />
		<tag k="ssr:stedsnr" v="221851" />
	</node>
	<node lat="61.95997222300779" lon="9.037677772719762" id="-41663">
		<tag k="name" v="Bretten" />
		<tag k="place" v="locality" />
		<tag k="ssr:stedsnr" v="223009" />
	</node>
	<node lat="61.84793055432876" lon="9.016147220991428" id="-41667">
		<tag k="name" v="Haugabergje" />
		<tag k="natural" v="hill" />
		<tag k="place" v="locality" />
		<tag k="ssr:stedsnr" v="223140" />
	</node>
	<node lat="61.816388885630836" lon="9.024058332579639" id="-41668">
		<tag k="name" v="Grønslette" />
		<tag k="place" v="locality" />
		<tag k="ssr:stedsnr" v="223151" />
	</node>
	<node lat="61.81416111181872" lon="9.000508330411385" id="-41669">
		<tag k="name" v="Heillsleo" />
		<tag k="place" v="locality" />
		<tag k="ssr:stedsnr" v="223153" />
	</node>
	<node lat="61.792394442512865" lon="9.019544448344993" id="-41670">
		<tag k="name" v="Fagerlie" />
		<tag k="natural" v="slope" />
		<tag k="place" v="locality" />
		<tag k="ssr:stedsnr" v="223189" />
	</node>
	<node lat="61.80245555480181" lon="9.237727772409734" id="-41675">
		<tag k="fixme" v="consider natural=peak for the most distinct mountains in the district" />
		<tag k="name" v="Kvernberget" />
		<tag k="natural" v="hill" />
		<tag k="place" v="locality" />
		<tag k="ssr:stedsnr" v="231713" />
	</node>
	<node lat="61.82602221872726" lon="8.957533330103368" id="-41678">
		<tag k="name" v="Gammelsagslette" />
		<tag k="place" v="locality" />
		<tag k="ssr:stedsnr" v="236453" />
	</node>
	<node lat="61.42343611078018" lon="9.09387776966779" id="-41680">
		<tag k="name" v="Festningen" />
		<tag k="natural" v="hill" />
		<tag k="place" v="locality" />
		<tag k="ssr:stedsnr" v="250008" />
	</node>
	<node lat="61.41520833377857" lon="9.016875000211543" id="-41681">
		<tag k="fixme" v="consider natural=peak for the most distinct mountains in the district" />
		<tag k="loc_name" v="Veslhøa" />
		<tag k="name" v="Veslhøe" />
		<tag k="natural" v="hill" />
		<tag k="place" v="locality" />
		<tag k="ssr:stedsnr" v="250013" />
	</node>
	<node lat="61.671124997045595" lon="9.105355548717178" id="-41682">
		<tag k="name" v="Skridulii" />
		<tag k="natural" v="slope" />
		<tag k="place" v="locality" />
		<tag k="ssr:stedsnr" v="252742" />
	</node>
	<node lat="61.5624861085915" lon="8.894647213586484" id="-41683">
		<tag k="name" v="Baklie" />
		<tag k="natural" v="slope" />
		<tag k="place" v="locality" />
		<tag k="ssr:stedsnr" v="252803" />
	</node>
	<node lat="61.70367499817058" lon="8.991050005229715" id="-41684">
		<tag k="name" v="Jonsdalen" />
		<tag k="natural" v="valley" />
		<tag k="place" v="locality" />
		<tag k="ssr:stedsnr" v="252995" />
	</node>
	<node lat="61.885713885341744" lon="9.200213896576841" id="-41686">
		<tag k="alt_name" v="Grøngjelet" />
		<tag k="name" v="Gjelet" />
		<tag k="natural" v="valley" />
		<tag k="place" v="locality" />
		<tag k="ssr:stedsnr" v="253408" />
	</node>
	<node lat="61.611463886260054" lon="9.020636117287797" id="-41693">
		<tag k="alt_name" v="Holbøsallia" />
		<tag k="name" v="Holbøsallii" />
		<tag k="natural" v="slope" />
		<tag k="place" v="locality" />
		<tag k="ssr:stedsnr" v="253809" />
	</node>
	<node lat="61.834805559166924" lon="9.360875009043157" id="-41694">
		<tag k="name" v="Øvre Geithornet" />
		<tag k="natural" v="hill" />
		<tag k="place" v="locality" />
		<tag k="ssr:stedsnr" v="253812" />
	</node>
	<node lat="61.65060277592684" lon="8.926413882092156" id="-41697">
		<tag k="name" v="Veogjelet" />
		<tag k="natural" v="valley" />
		<tag k="place" v="locality" />
		<tag k="ssr:stedsnr" v="253789" />
	</node>
	<node lat="61.62989999924938" lon="8.874566657382255" id="-41699">
		<tag k="name" v="Hindflyin" />
		<tag k="place" v="locality" />
		<tag k="ssr:stedsnr" v="253796" />
	</node>
	<node lat="61.94729444085849" lon="9.074711113641497" id="-41701">
		<tag k="name" v="Klukkampen" />
		<tag k="natural" v="hill" />
		<tag k="place" v="locality" />
		<tag k="ssr:stedsnr" v="254099" />
	</node>
	<node lat="61.74628611529878" lon="9.03860277370683" id="-41702">
		<tag k="fixme" v="consider natural=peak for the most distinct mountains in the district" />
		<tag k="name" v="Kalvfjellet" />
		<tag k="natural" v="hill" />
		<tag k="place" v="locality" />
		<tag k="ssr:stedsnr" v="253941" />
	</node>
	<node lat="61.87367499899137" lon="9.079794443916326" id="-41708">
		<tag k="name" v="Klypekampen" />
		<tag k="natural" v="hill" />
		<tag k="place" v="locality" />
		<tag k="ssr:stedsnr" v="282186" />
	</node>
	<node lat="61.86900278079487" lon="9.089741665293275" id="-41712">
		<tag k="name" v="Haugamoen" />
		<tag k="place" v="locality" />
		<tag k="ssr:stedsnr" v="284244" />
	</node>
	<node lat="61.84296389074711" lon="9.0498444436002" id="-41713">
		<tag k="name" v="Bleikstulhaugen" />
		<tag k="natural" v="hill" />
		<tag k="place" v="locality" />
		<tag k="ssr:stedsnr" v="284148" />
	</node>
	<node lat="61.675113886992044" lon="9.035997222145907" id="-41715">
		<tag k="name" v="Turrhaugene" />
		<tag k="natural" v="hill" />
		<tag k="place" v="locality" />
		<tag k="ssr:stedsnr" v="284489" />
	</node>
	<node lat="61.4159249967422" lon="8.560213887235644" id="-41724">
		<tag k="name" v="Svartdalen" />
		<tag k="natural" v="valley" />
		<tag k="place" v="locality" />
		<tag k="ssr:stedsnr" v="310122" />
	</node>
	<node lat="61.46088611374825" lon="9.065305556896192" id="-41725">
		<tag k="fixme" v="consider natural=peak for the most distinct mountains in the district" />
		<tag k="name" v="Vangstulkampen" />
		<tag k="natural" v="hill" />
		<tag k="place" v="locality" />
		<tag k="ssr:stedsnr" v="311296" />
	</node>
	<node lat="61.44246944887388" lon="8.876616663515305" id="-41726">
		<tag k="fixme" v="consider natural=peak for the most distinct mountains in the district" />
		<tag k="name" v="Veslfjellet" />
		<tag k="natural" v="hill" />
		<tag k="place" v="locality" />
		<tag k="ssr:stedsnr" v="311299" />
	</node>
	<node lat="61.46350277907833" lon="8.857847221774655" id="-41728">
		<tag k="name" v="Molflyhalsen" />
		<tag k="place" v="locality" />
		<tag k="ssr:stedsnr" v="311303" />
	</node>
	<node lat="61.46052500219445" lon="8.974986120375204" id="-41729">
		<tag k="name" v="Neverådalen" />
		<tag k="natural" v="valley" />
		<tag k="place" v="locality" />
		<tag k="ssr:stedsnr" v="311305" />
	</node>
	<node lat="61.459080555970765" lon="8.680725004230233" id="-41730">
		<tag k="fixme" v="consider natural=peak for the most distinct mountains in the district" />
		<tag k="name" v="Kvassryggen" />
		<tag k="natural" v="hill" />
		<tag k="place" v="locality" />
		<tag k="ssr:stedsnr" v="311798" />
	</node>
	<node lat="61.45513889299081" lon="8.766572221898612" id="-41731">
		<tag k="fixme" v="consider natural=peak for the most distinct mountains in the district" />
		<tag k="name" v="Semelhøe" />
		<tag k="natural" v="hill" />
		<tag k="place" v="locality" />
		<tag k="ssr:stedsnr" v="311799" />
	</node>
	<node lat="61.79850000275035" lon="9.204702783015872" id="-41737">
		<tag k="alt_name" v="Breinnun" />
		<tag k="name" v="Brennum" />
		<tag k="natural" v="slope" />
		<tag k="place" v="locality" />
		<tag k="ssr:stedsnr" v="313409" />
	</node>
	<node lat="61.67332499790662" lon="9.031652770732546" id="-41740">
		<tag k="alt_name" v="Turrhauglia" />
		<tag k="name" v="Turrhauglii" />
		<tag k="natural" v="slope" />
		<tag k="place" v="locality" />
		<tag k="ssr:stedsnr" v="313774" />
	</node>
	<node lat="61.583900002872866" lon="8.914911110888955" id="-41743">
		<tag k="name" v="Ormhaugen" />
		<tag k="natural" v="hill" />
		<tag k="place" v="locality" />
		<tag k="ssr:stedsnr" v="313834" />
	</node>
	<node lat="61.90409866374048" lon="8.868111996667574" id="-41745">
		<tag k="fixme" v="consider natural=peak for the most distinct mountains in the district" />
		<tag k="loc_name" v="Skaihøa" />
		<tag k="name" v="Skaihøe" />
		<tag k="natural" v="hill" />
		<tag k="place" v="locality" />
		<tag k="ssr:stedsnr" v="314402" />
	</node>
	<node lat="61.83792499786751" lon="9.330272214720328" id="-41748">
		<tag k="fixme" v="consider natural=peak for the most distinct mountains in the district" />
		<tag k="name" v="Tolstadkampen" />
		<tag k="natural" v="hill" />
		<tag k="place" v="locality" />
		<tag k="ssr:stedsnr" v="314790" />
	</node>
	<node lat="61.610399998238194" lon="8.960641673406851" id="-41751">
		<tag k="name" v="Hindvangene" />
		<tag k="place" v="locality" />
		<tag k="ssr:stedsnr" v="342055" />
	</node>
	<node lat="61.86212222388791" lon="8.893016669338722" id="-41752">
		<tag k="name" v="Gråpåruste" />
		<tag k="natural" v="slope" />
		<tag k="place" v="locality" />
		<tag k="ssr:stedsnr" v="342058" />
	</node>
	<node lat="61.87518333569227" lon="9.160649999576094" id="-41754">
		<tag k="name" v="Søremskleive" />
		<tag k="natural" v="slope" />
		<tag k="place" v="locality" />
		<tag k="ssr:stedsnr" v="342907" />
	</node>
	<node lat="61.955672226659416" lon="9.045744443168278" id="-41757">
		<tag k="name" v="Lokkarbakkjin" />
		<tag k="natural" v="slope" />
		<tag k="place" v="locality" />
		<tag k="ssr:stedsnr" v="344010" />
	</node>
	<node lat="61.94377777427935" lon="9.02538889063993" id="-41758">
		<tag k="name" v="Høgloft" />
		<tag k="natural" v="hill" />
		<tag k="place" v="locality" />
		<tag k="ssr:stedsnr" v="344014" />
	</node>
	<node lat="61.844986106775934" lon="9.08173055924818" id="-41759">
		<tag k="name" v="Svarttjønnmoen" />
		<tag k="place" v="locality" />
		<tag k="ssr:stedsnr" v="344117" />
	</node>
	<node lat="61.85145277551276" lon="9.227516675416869" id="-41769">
		<tag k="name" v="Langhaugen" />
		<tag k="natural" v="hill" />
		<tag k="place" v="locality" />
		<tag k="ssr:stedsnr" v="463852" />
	</node>
	<node lat="61.86665555900513" lon="8.936663884128746" id="-41777">
		<tag k="name" v="Kvennhushaugen" />
		<tag k="natural" v="hill" />
		<tag k="place" v="locality" />
		<tag k="ssr:stedsnr" v="465091" />
	</node>
	<node lat="61.43626111393891" lon="9.139733329169129" id="-41794">
		<tag k="fixme" v="consider natural=peak for the most distinct mountains in the district" />
		<tag k="name" v="Oskampen" />
		<tag k="natural" v="hill" />
		<tag k="place" v="locality" />
		<tag k="ssr:stedsnr" v="371006" />
	</node>
	<node lat="61.48000555701166" lon="8.755386110633056" id="-41795">
		<tag k="fixme" v="consider natural=peak for the most distinct mountains in the district" />
		<tag k="name" v="Knutshøe" />
		<tag k="natural" v="hill" />
		<tag k="place" v="locality" />
		<tag k="ssr:stedsnr" v="372777" />
	</node>
	<node lat="61.567213885916686" lon="9.033388895963709" id="-41798">
		<tag k="fixme" v="consider natural=peak for the most distinct mountains in the district" />
		<tag k="name" v="Griningsdalshøe" />
		<tag k="natural" v="hill" />
		<tag k="place" v="locality" />
		<tag k="ssr:stedsnr" v="373813" />
	</node>
	<node lat="61.5269583307953" lon="9.079691671531036" id="-41799">
		<tag k="fixme" v="consider natural=peak for the most distinct mountains in the district" />
		<tag k="name" v="Lassekampen" />
		<tag k="natural" v="hill" />
		<tag k="place" v="locality" />
		<tag k="ssr:stedsnr" v="373861" />
	</node>
	<node lat="61.522055559080194" lon="8.936474999598289" id="-41800">
		<tag k="fixme" v="consider natural=peak for the most distinct mountains in the district" />
		<tag k="name" v="Blessomfjellet" />
		<tag k="natural" v="hill" />
		<tag k="place" v="locality" />
		<tag k="ssr:stedsnr" v="373865" />
	</node>
	<node lat="61.81352500127664" lon="9.209724998484672" id="-41808">
		<tag k="name" v="Nysæterdalen" />
		<tag k="natural" v="valley" />
		<tag k="place" v="locality" />
		<tag k="ssr:stedsnr" v="374448" />
	</node>
	<node lat="61.79968055184539" lon="8.983136103971484" id="-41809">
		<tag k="name" v="Hakkmettberget" />
		<tag k="natural" v="hill" />
		<tag k="place" v="locality" />
		<tag k="ssr:stedsnr" v="374453" />
	</node>
	<node lat="61.897088887448284" lon="9.285077773377326" id="-41813">
		<tag k="fixme" v="consider natural=peak for the most distinct mountains in the district" />
		<tag k="name" v="Blåhøe" />
		<tag k="natural" v="hill" />
		<tag k="place" v="locality" />
		<tag k="ssr:stedsnr" v="374995" />
	</node>
	<node lat="61.70755278014036" lon="9.101358339491252" id="-41814">
		<tag k="fixme" v="consider natural=peak for the most distinct mountains in the district" />
		<tag k="name" v="Rindhovda" />
		<tag k="natural" v="hill" />
		<tag k="place" v="locality" />
		<tag k="ssr:stedsnr" v="374996" />
	</node>
	<node lat="61.527771579088764" lon="8.581064354584486" id="-41819">
		<tag k="fixme" v="consider natural=peak for the most distinct mountains in the district" />
		<tag k="name" v="Sørtoppen" />
		<tag k="natural" v="hill" />
		<tag k="place" v="locality" />
		<tag k="ssr:stedsnr" v="390101" />
	</node>
	<node lat="61.41841111532055" lon="8.573730554572116" id="-41820">
		<tag k="fixme" v="consider natural=peak for the most distinct mountains in the district" />
		<tag k="name" v="Vesle Knutsholstinden" />
		<tag k="natural" v="hill" />
		<tag k="place" v="locality" />
		<tag k="ssr:stedsnr" v="390253" />
	</node>
	<node lat="61.888427781807955" lon="9.157466667263607" id="-41830">
		<tag k="name" v="Hyttlie" />
		<tag k="natural" v="slope" />
		<tag k="place" v="locality" />
		<tag k="ssr:stedsnr" v="403999" />
	</node>
	<node lat="61.78536110873306" lon="9.030772226385093" id="-41840">
		<tag k="name" v="Klåvådalen" />
		<tag k="natural" v="valley" />
		<tag k="place" v="locality" />
		<tag k="ssr:stedsnr" v="405396" />
	</node>
	<node lat="61.820383332057474" lon="9.242416658563782" id="-41847">
		<tag k="name" v="Einasplassbergje" />
		<tag k="natural" v="hill" />
		<tag k="place" v="locality" />
		<tag k="ssr:stedsnr" v="412903" />
	</node>
	<node lat="61.52078889038014" lon="9.141097221640745" id="-41850">
		<tag k="name" v="Grytlia" />
		<tag k="natural" v="slope" />
		<tag k="place" v="locality" />
		<tag k="ssr:stedsnr" v="417754" />
	</node>
	<node lat="61.82674444821838" lon="8.94538333348202" id="-41851">
		<tag k="alt_name" v="Øybakkein" />
		<tag k="name" v="Øybakkan" />
		<tag k="natural" v="slope" />
		<tag k="place" v="locality" />
		<tag k="ssr:stedsnr" v="418473" />
	</node>
	<node lat="61.50089722412831" lon="8.83694445357654" id="-41852">
		<tag k="name" v="Veslelia" />
		<tag k="natural" v="slope" />
		<tag k="place" v="locality" />
		<tag k="ssr:stedsnr" v="477626" />
	</node>
	<node lat="61.9294472241247" lon="9.144041673866925" id="-41853">
		<tag k="fixme" v="consider natural=peak for the most distinct mountains in the district" />
		<tag k="loc_name" v="Brånåhøa" />
		<tag k="name" v="Brånåhøe" />
		<tag k="natural" v="hill" />
		<tag k="place" v="locality" />
		<tag k="ssr:stedsnr" v="435179" />
	</node>
	<node lat="61.538925002411" lon="8.997550007307874" id="-41867">
		<tag k="name" v="Rolegholberget" />
		<tag k="natural" v="hill" />
		<tag k="place" v="locality" />
		<tag k="ssr:stedsnr" v="435869" />
	</node>
	<node lat="61.934530551204844" lon="8.948161104165683" id="-41873">
		<tag k="alt_name" v="Einstulhovdan" />
		<tag k="name" v="Hovda" />
		<tag k="natural" v="hill" />
		<tag k="place" v="locality" />
		<tag k="ssr:stedsnr" v="436112" />
	</node>
	<node lat="61.42910833007848" lon="8.611783335156625" id="-41882">
		<tag k="fixme" v="consider natural=peak for the most distinct mountains in the district" />
		<tag k="name" v="Skarvflyløyfttinden" />
		<tag k="natural" v="hill" />
		<tag k="place" v="locality" />
		<tag k="ssr:stedsnr" v="451307" />
	</node>
	<node lat="61.889975003898314" lon="9.038438883782446" id="-41885">
		<tag k="name" v="Hummelgjelet" />
		<tag k="natural" v="gorge" />
		<tag k="ssr:stedsnr" v="464018" />
	</node>
	<node lat="61.88114166460571" lon="9.022072215947341" id="-41886">
		<tag k="name" v="Liaberget" />
		<tag k="natural" v="hill" />
		<tag k="place" v="locality" />
		<tag k="ssr:stedsnr" v="464026" />
	</node>
	<node lat="61.87751110885092" lon="9.188574992797442" id="-41887">
		<tag k="name" v="Grønnslette" />
		<tag k="place" v="locality" />
		<tag k="ssr:stedsnr" v="463909" />
	</node>
	<node lat="61.84842777652293" lon="8.985277780421237" id="-41892">
		<tag k="name" v="Kvithovdan" />
		<tag k="natural" v="hill" />
		<tag k="place" v="locality" />
		<tag k="ssr:stedsnr" v="465120" />
	</node>
	<node lat="61.848072224884035" lon="9.008419444058784" id="-41893">
		<tag k="name" v="Kvitberget" />
		<tag k="natural" v="hill" />
		<tag k="place" v="locality" />
		<tag k="ssr:stedsnr" v="465125" />
	</node>
	<node lat="61.39890277368538" lon="9.09049167193465" id="-41901">
		<tag k="fixme" v="consider natural=peak for the most distinct mountains in the district" />
		<tag k="loc_name" v="Austhøe;Austhøa" />
		<tag k="name" v="Austhøi" />
		<tag k="natural" v="hill" />
		<tag k="place" v="locality" />
		<tag k="ssr:stedsnr" v="493030" />
	</node>
	<node lat="61.46606111109193" lon="8.749058334465566" id="-41902">
		<tag k="name" v="Leirungsdalen" />
		<tag k="natural" v="valley" />
		<tag k="place" v="locality" />
		<tag k="ssr:stedsnr" v="493781" />
	</node>
	<node lat="61.84661110913908" lon="9.12399166956132" id="-41903">
		<tag k="alt_name" v="Kleppelie" />
		<tag k="name" v="Kleppelii" />
		<tag k="natural" v="slope" />
		<tag k="place" v="locality" />
		<tag k="ssr:stedsnr" v="495273" />
	</node>
	<node lat="61.8458388893823" lon="8.89941388874166" id="-41905">
		<tag k="name" v="Mjølkehaugen" />
		<tag k="natural" v="hill" />
		<tag k="place" v="locality" />
		<tag k="ssr:stedsnr" v="495283" />
	</node>
	<node lat="61.863419444283785" lon="9.184483329567728" id="-41910">
		<tag k="name" v="Stompehaugen" />
		<tag k="natural" v="hill" />
		<tag k="place" v="locality" />
		<tag k="ssr:stedsnr" v="495310" />
	</node>
	<node lat="61.81172222592848" lon="9.046619447606501" id="-41912">
		<tag k="fixme" v="consider natural=peak for the most distinct mountains in the district" />
		<tag k="name" v="Veslåsen" />
		<tag k="natural" v="hill" />
		<tag k="place" v="locality" />
		<tag k="ssr:stedsnr" v="495472" />
	</node>
	<node lat="61.66004999950525" lon="8.948444451730257" id="-41915">
		<tag k="fixme" v="consider natural=peak for the most distinct mountains in the district" />
		<tag k="name" v="Veoknappen" />
		<tag k="natural" v="hill" />
		<tag k="place" v="locality" />
		<tag k="ssr:stedsnr" v="495769" />
	</node>
	<node lat="61.95920832968638" lon="9.048658332130453" id="-41917">
		<tag k="alt_name" v="Smålåsgrove" />
		<tag k="name" v="Smålågrovi" />
		<tag k="natural" v="valley" />
		<tag k="place" v="locality" />
		<tag k="ssr:stedsnr" v="496185" />
	</node>
	<node lat="61.94536388954194" lon="9.053000003796058" id="-41918">
		<tag k="name" v="Suluberget" />
		<tag k="natural" v="hill" />
		<tag k="place" v="locality" />
		<tag k="ssr:stedsnr" v="496125" />
	</node>
	<node lat="61.88438055582415" lon="8.87075556256123" id="-41919">
		<tag k="fixme" v="consider natural=peak for the most distinct mountains in the district" />
		<tag k="name" v="Kampan" />
		<tag k="natural" v="hill" />
		<tag k="place" v="locality" />
		<tag k="ssr:stedsnr" v="496375" />
	</node>
	<node lat="61.90307222180367" lon="9.169438881227787" id="-41922">
		<tag k="fixme" v="consider natural=peak for the most distinct mountains in the district" />
		<tag k="name" v="Derikhøe" />
		<tag k="natural" v="hill" />
		<tag k="place" v="locality" />
		<tag k="ssr:stedsnr" v="496402" />
	</node>
	<node lat="61.86951944676273" lon="9.204711118159437" id="-41923">
		<tag k="name" v="Lihaugberget" />
		<tag k="natural" v="hill" />
		<tag k="place" v="locality" />
		<tag k="ssr:stedsnr" v="497762" />
	</node>
	<node lat="61.89651666507297" lon="9.098494453669712" id="-41926">
		<tag k="name" v="Blessomlie" />
		<tag k="natural" v="slope" />
		<tag k="place" v="locality" />
		<tag k="ssr:stedsnr" v="524020" />
	</node>
	<node lat="61.9077527761815" lon="9.009113880505863" id="-41931">
		<tag k="name" v="Øvstengbakkjin" />
		<tag k="natural" v="slope" />
		<tag k="place" v="locality" />
		<tag k="ssr:stedsnr" v="526007" />
	</node>
	<node lat="61.95165832983749" lon="9.013205558848137" id="-41932">
		<tag k="name" v="Dalsegghaugen" />
		<tag k="natural" v="hill" />
		<tag k="place" v="locality" />
		<tag k="ssr:stedsnr" v="526014" />
	</node>
	<node lat="61.88123055146075" lon="9.124849995233973" id="-41933">
		<tag k="name" v="Skjellberga" />
		<tag k="natural" v="hill" />
		<tag k="place" v="locality" />
		<tag k="ssr:stedsnr" v="525992" />
	</node>
	<node lat="61.819594442241566" lon="9.027066664619607" id="-41934">
		<tag k="name" v="Vakkerslette" />
		<tag k="place" v="locality" />
		<tag k="ssr:stedsnr" v="526176" />
	</node>
	<node lat="61.87098333732418" lon="9.06715277466581" id="-41937">
		<tag k="name" v="Tingsvaslettin" />
		<tag k="place" v="locality" />
		<tag k="ssr:stedsnr" v="526221" />
	</node>
	<node lat="61.86951110668684" lon="9.004519443907675" id="-41938">
		<tag k="name" v="Gjerdemellombekken" />
		<tag k="place" v="locality" />
		<tag k="ssr:stedsnr" v="526223" />
	</node>
	<node lat="61.86337500445311" lon="9.00378889232569" id="-41939">
		<tag k="name" v="Sandebergje" />
		<tag k="natural" v="hill" />
		<tag k="place" v="locality" />
		<tag k="ssr:stedsnr" v="526231" />
	</node>
	<node lat="61.96472778019696" lon="8.981883326705166" id="-41941">
		<tag k="name" v="Langstulein" />
		<tag k="natural" v="hill" />
		<tag k="place" v="locality" />
		<tag k="ssr:stedsnr" v="526529" />
	</node>
	<node lat="61.480433334722335" lon="8.691947219145923" id="-41944">
		<tag k="fixme" v="consider natural=peak for the most distinct mountains in the district" />
		<tag k="name" v="Veslløyfttinden" />
		<tag k="natural" v="hill" />
		<tag k="place" v="locality" />
		<tag k="ssr:stedsnr" v="675790" />
	</node>
	<node lat="61.814116663677645" lon="9.17216666257748" id="-41947">
		<tag k="name" v="Stighøe" />
		<tag k="natural" v="hill" />
		<tag k="place" v="locality" />
		<tag k="ssr:stedsnr" v="534529" />
	</node>
	<node lat="61.79314444584671" lon="9.118591673426941" id="-41948">
		<tag k="name" v="Flatningslie" />
		<tag k="natural" v="slope" />
		<tag k="place" v="locality" />
		<tag k="ssr:stedsnr" v="534531" />
	</node>
	<node lat="61.856991668599505" lon="9.129866669595334" id="-41950">
		<tag k="fixme" v="consider natural=peak for the most distinct mountains in the district" />
		<tag k="name" v="Flatomhovda" />
		<tag k="natural" v="hill" />
		<tag k="place" v="locality" />
		<tag k="ssr:stedsnr" v="677267" />
	</node>
	<node lat="61.807897219298724" lon="9.208822215467439" id="-41955">
		<tag k="alt_name" v="Elgshovda" />
		<tag k="name" v="Elghovda" />
		<tag k="natural" v="hill" />
		<tag k="place" v="locality" />
		<tag k="ssr:stedsnr" v="677420" />
	</node>
	<node lat="61.83440555116553" lon="8.914244442348657" id="-41959">
		<tag k="name" v="Lyberget" />
		<tag k="natural" v="hill" />
		<tag k="place" v="locality" />
		<tag k="ssr:stedsnr" v="677479" />
	</node>
	<node lat="61.83126111076802" lon="9.133061118248433" id="-41961">
		<tag k="alt_name" v="Heimrandin" />
		<tag k="fixme" v="consider natural=peak for the most distinct mountains in the district" />
		<tag k="name" v="Heimranden" />
		<tag k="natural" v="hill" />
		<tag k="place" v="locality" />
		<tag k="ssr:stedsnr" v="677483" />
	</node>
	<node lat="61.881791663850365" lon="8.897716661623365" id="-41976">
		<tag k="fixme" v="consider natural=peak for the most distinct mountains in the district" />
		<tag k="name" v="Langfonnhøe" />
		<tag k="natural" v="hill" />
		<tag k="place" v="locality" />
		<tag k="ssr:stedsnr" v="678381" />
	</node>
	<node lat="61.89036944064085" lon="9.217211120520082" id="-41977">
		<tag k="alt_name" v="Gråhøi" />
		<tag k="fixme" v="consider natural=peak for the most distinct mountains in the district" />
		<tag k="name" v="Gråhøe" />
		<tag k="natural" v="hill" />
		<tag k="place" v="locality" />
		<tag k="ssr:stedsnr" v="678384" />
	</node>
	<node lat="61.87610277635313" lon="8.951036108298755" id="-41978">
		<tag k="alt_name" v="Sæterhøe, s;Sæterhøe" />
		<tag k="fixme" v="consider natural=peak for the most distinct mountains in the district" />
		<tag k="name" v="Søre Sæterhøe" />
		<tag k="natural" v="hill" />
		<tag k="place" v="locality" />
		<tag k="ssr:stedsnr" v="678389" />
	</node>
	<node lat="61.54671667014169" lon="8.964286112989262" id="-41982">
		<tag k="name" v="Rundhaugen" />
		<tag k="natural" v="hill" />
		<tag k="place" v="locality" />
		<tag k="ssr:stedsnr" v="678823" />
	</node>
	<node lat="61.910449997626316" lon="9.243486106227508" id="-41984">
		<tag k="fixme" v="consider natural=peak for the most distinct mountains in the district" />
		<tag k="name" v="Jetta" />
		<tag k="natural" v="hill" />
		<tag k="place" v="locality" />
		<tag k="ssr:stedsnr" v="678867" />
	</node>
	<node lat="61.86551388777188" lon="9.304127775897072" id="-41985">
		<tag k="fixme" v="consider natural=peak for the most distinct mountains in the district" />
		<tag k="name" v="Sjugurdshøpiggen" />
		<tag k="natural" v="hill" />
		<tag k="place" v="locality" />
		<tag k="ssr:stedsnr" v="678948" />
	</node>
	<node lat="61.416211110440614" lon="8.581874993455889" id="-41991">
		<tag k="fixme" v="consider natural=peak for the most distinct mountains in the district" />
		<tag k="name" v="Vestre Leirungstinden" />
		<tag k="natural" v="hill" />
		<tag k="place" v="locality" />
		<tag k="ssr:stedsnr" v="553118" />
	</node>
	<node lat="61.82490584681046" lon="9.151952408627487" id="-41994">
		<tag k="alt_name" v="Storhøi" />
		<tag k="fixme" v="consider natural=peak for the most distinct mountains in the district" />
		<tag k="name" v="Storhøe" />
		<tag k="natural" v="hill" />
		<tag k="place" v="locality" />
		<tag k="ssr:stedsnr" v="555427" />
	</node>
	<node lat="61.69010000081546" lon="8.98107499494299" id="-41996">
		<tag k="alt_name" v="Veoflya" />
		<tag k="name" v="Veoflyin" />
		<tag k="natural" v="hill" />
		<tag k="place" v="locality" />
		<tag k="ssr:stedsnr" v="555982" />
	</node>
	<node lat="61.627425003866136" lon="8.795150007314177" id="-41997">
		<tag k="fixme" v="consider natural=peak for the most distinct mountains in the district" />
		<tag k="name" v="Stornubben" />
		<tag k="natural" v="hill" />
		<tag k="place" v="locality" />
		<tag k="ssr:stedsnr" v="555877" />
	</node>
	<node lat="61.97376111017754" lon="8.88167221841116" id="-41998">
		<tag k="fixme" v="consider natural=peak for the most distinct mountains in the district" />
		<tag k="name" v="Klommern" />
		<tag k="natural" v="hill" />
		<tag k="place" v="locality" />
		<tag k="ssr:stedsnr" v="556203" />
	</node>
	<node lat="61.881911113505275" lon="9.209241663113026" id="-42001">
		<tag k="alt_name" v="Sæterlie" />
		<tag k="name" v="Sæterlii" />
		<tag k="natural" v="slope" />
		<tag k="place" v="locality" />
		<tag k="ssr:stedsnr" v="556414" />
	</node>
	<node lat="61.76165555471327" lon="9.019719453270293" id="-42002">
		<tag k="alt_name" v="Veslknatten" />
		<tag k="name" v="Veslknarten" />
		<tag k="natural" v="hill" />
		<tag k="place" v="locality" />
		<tag k="ssr:stedsnr" v="556439" />
	</node>
	<node lat="61.784280557229025" lon="9.095738891754008" id="-42005">
		<tag k="name" v="Darthushaugen" />
		<tag k="natural" v="hill" />
		<tag k="place" v="locality" />
		<tag k="ssr:stedsnr" v="556474" />
	</node>
	<node lat="61.8668444401315" lon="9.16629165963592" id="-42013">
		<tag k="fixme" v="consider natural=peak for the most distinct mountains in the district" />
		<tag k="name" v="Åsen" />
		<tag k="natural" v="hill" />
		<tag k="place" v="locality" />
		<tag k="ssr:stedsnr" v="556369" />
	</node>
	<node lat="61.65466111255577" lon="9.073827786721646" id="-42022">
		<tag k="name" v="Steinbrudalen" />
		<tag k="natural" v="valley" />
		<tag k="place" v="locality" />
		<tag k="ssr:stedsnr" v="556784" />
	</node>
	<node lat="61.973766668122934" lon="9.015336102447465" id="-42026">
		<tag k="name" v="Ådalen" />
		<tag k="natural" v="valley" />
		<tag k="place" v="locality" />
		<tag k="ssr:stedsnr" v="557173" />
	</node>
	<node lat="61.869819448901595" lon="9.07045277405675" id="-42030">
		<tag k="name" v="Lyebergje" />
		<tag k="natural" v="hill" />
		<tag k="place" v="locality" />
		<tag k="ssr:stedsnr" v="586205" />
	</node>
	<node lat="61.685477775963406" lon="9.057013883521412" id="-42031">
		<tag k="name" v="Hovdasrampa" />
		<tag k="place" v="locality" />
		<tag k="ssr:stedsnr" v="586456" />
	</node>
	<node lat="61.74192777444479" lon="9.027330554737615" id="-42032">
		<tag k="name" v="Vesllie" />
		<tag k="natural" v="slope" />
		<tag k="place" v="locality" />
		<tag k="ssr:stedsnr" v="586458" />
	</node>
	<node lat="61.89906944465211" lon="9.027980547677231" id="-42035">
		<tag k="alt_name" v="Haugein" />
		<tag k="name" v="Haugan" />
		<tag k="natural" v="hill" />
		<tag k="place" v="locality" />
		<tag k="ssr:stedsnr" v="587010" />
	</node>
	<node lat="61.872286113816465" lon="8.957955564327127" id="-42037">
		<tag k="fixme" v="consider natural=saddle" />
		<tag k="name" v="Søre Skardet" />
		<tag k="natural" v="valley" />
		<tag k="place" v="locality" />
		<tag k="ssr:stedsnr" v="587073" />
	</node>
	<node lat="61.863294447722716" lon="8.958072214888583" id="-42038">
		<tag k="name" v="Grovdalen" />
		<tag k="natural" v="valley" />
		<tag k="place" v="locality" />
		<tag k="ssr:stedsnr" v="587108" />
	</node>
	<node lat="61.83296666607921" lon="9.030855553936146" id="-42040">
		<tag k="name" v="Gråbeindokkje" />
		<tag k="natural" v="valley" />
		<tag k="place" v="locality" />
		<tag k="ssr:stedsnr" v="587159" />
	</node>
	<node lat="61.91672221866568" lon="8.970638893503256" id="-42047">
		<tag k="name" v="Ørnberget" />
		<tag k="natural" v="hill" />
		<tag k="place" v="locality" />
		<tag k="ssr:stedsnr" v="600373" />
	</node>
	<node lat="61.445494442372095" lon="8.973949999651815" id="-42048">
		<tag k="fixme" v="consider natural=peak for the most distinct mountains in the district" />
		<tag k="name" v="Neveråtunga" />
		<tag k="natural" v="hill" />
		<tag k="place" v="locality" />
		<tag k="ssr:stedsnr" v="614004" />
	</node>
	<node lat="61.97004722013014" lon="9.09248610462198" id="-42052">
		<tag k="fixme" v="consider natural=peak for the most distinct mountains in the district" />
		<tag k="loc_name" v="Skardshøa" />
		<tag k="name" v="Skardshøe" />
		<tag k="natural" v="hill" />
		<tag k="place" v="locality" />
		<tag k="ssr:stedsnr" v="617215" />
	</node>
	<node lat="61.86284722353051" lon="9.195447222353499" id="-42055">
		<tag k="alt_name" v="Ottlie" />
		<tag k="name" v="Ottlii" />
		<tag k="natural" v="slope" />
		<tag k="place" v="locality" />
		<tag k="ssr:stedsnr" v="617332" />
	</node>
	<node lat="61.909150002089625" lon="9.135361102769917" id="-42064">
		<tag k="fixme" v="consider natural=peak for the most distinct mountains in the district" />
		<tag k="name" v="Veslhøe" />
		<tag k="natural" v="hill" />
		<tag k="place" v="locality" />
		<tag k="ssr:stedsnr" v="617396" />
	</node>
	<node lat="61.6017999983026" lon="8.970063888720501" id="-42068">
		<tag k="name" v="Sjodalen" />
		<tag k="natural" v="valley" />
		<tag k="place" v="locality" />
		<tag k="ssr:stedsnr" v="617815" />
	</node>
	<node lat="61.5562055548914" lon="9.078374991286635" id="-42070">
		<tag k="alt_name" v="Dyrtjønnlia" />
		<tag k="name" v="Dyrtjørnlii" />
		<tag k="natural" v="slope" />
		<tag k="place" v="locality" />
		<tag k="ssr:stedsnr" v="617847" />
	</node>
	<node lat="61.92167778066918" lon="8.790825000626093" id="-42071">
		<tag k="name" v="Finndalen" />
		<tag k="natural" v="valley" />
		<tag k="place" v="locality" />
		<tag k="ssr:stedsnr" v="617894" />
	</node>
	<node lat="61.836188891416974" lon="8.912294451131087" id="-42074">
		<tag k="name" v="Småje" />
		<tag k="natural" v="valley" />
		<tag k="place" v="locality" />
		<tag k="ssr:stedsnr" v="635200" />
	</node>
	<node lat="61.846216665024194" lon="8.92004443496705" id="-42075">
		<tag k="name" v="Randhaugen" />
		<tag k="natural" v="hill" />
		<tag k="place" v="locality" />
		<tag k="ssr:stedsnr" v="635296" />
	</node>
	<node lat="61.88158611126423" lon="9.221572212767198" id="-42081">
		<tag k="name" v="Brattfonne" />
		<tag k="natural" v="slope" />
		<tag k="place" v="locality" />
		<tag k="ssr:stedsnr" v="645903" />
	</node>
	<node lat="61.80936388903726" lon="9.042805554105609" id="-42085">
		<tag k="name" v="Kvitingsbandet" />
		<tag k="place" v="locality" />
		<tag k="ssr:stedsnr" v="647203" />
	</node>
	<node lat="61.87058888981455" lon="9.081358338920598" id="-42087">
		<tag k="name" v="Vangsbergje" />
		<tag k="natural" v="hill" />
		<tag k="place" v="locality" />
		<tag k="ssr:stedsnr" v="647238" />
	</node>
	<node lat="61.97359722183207" lon="8.995441661229226" id="-42088">
		<tag k="name" v="Baklehaugen" />
		<tag k="natural" v="hill" />
		<tag k="place" v="locality" />
		<tag k="ssr:stedsnr" v="647508" />
	</node>
	<node lat="61.96651666302368" lon="8.989299998374598" id="-42089">
		<tag k="name" v="Holet" />
		<tag k="place" v="locality" />
		<tag k="ssr:stedsnr" v="647535" />
	</node>
	<node lat="61.81184444396603" lon="9.257336119323945" id="-42091">
		<tag k="name" v="Osperanden" />
		<tag k="natural" v="ridge" />
		<tag k="place" v="locality" />
		<tag k="ssr:stedsnr" v="647915" />
	</node>
	<node lat="61.56601667008764" lon="8.550325009130862" id="-42092">
		<tag k="fixme" v="consider natural=peak for the most distinct mountains in the district" />
		<tag k="name" v="Sørvestre Styggehøbreatinden" />
		<tag k="natural" v="hill" />
		<tag k="place" v="locality" />
		<tag k="ssr:stedsnr" v="694342" />
	</node>
	<node lat="61.848763884559" lon="9.272566657165838" id="-42097">
		<tag k="fixme" v="consider natural=peak for the most distinct mountains in the district" />
		<tag k="name" v="Bjørnstadhøe" />
		<tag k="natural" v="hill" />
		<tag k="place" v="locality" />
		<tag k="ssr:stedsnr" v="655487" />
	</node>
	<node lat="61.81425833615345" lon="9.391716664647133" id="-42098">
		<tag k="name" v="Nysætermoane" />
		<tag k="place" v="locality" />
		<tag k="ssr:stedsnr" v="655507" />
	</node>
	<node lat="61.83354999714457" lon="9.354477776028192" id="-42099">
		<tag k="name" v="Svartdalen" />
		<tag k="natural" v="valley" />
		<tag k="place" v="locality" />
		<tag k="ssr:stedsnr" v="656943" />
	</node>
	<node lat="61.392827779765184" lon="8.620636118864121" id="-42104">
		<tag k="fixme" v="consider natural=peak for the most distinct mountains in the district" />
		<tag k="name" v="Vestre Kalvehøgde" />
		<tag k="natural" v="hill" />
		<tag k="place" v="locality" />
		<tag k="ssr:stedsnr" v="675177" />
	</node>
	<node lat="61.85341667034105" lon="9.156947217724097" id="-42108">
		<tag k="name" v="Storhovda" />
		<tag k="natural" v="hill" />
		<tag k="place" v="locality" />
		<tag k="ssr:stedsnr" v="677262" />
	</node>
	<node lat="61.80680000015342" lon="8.995691675301124" id="-42112">
		<tag k="alt_name" v="Skåtålie" />
		<tag k="name" v="Skåtålii" />
		<tag k="natural" v="slope" />
		<tag k="place" v="locality" />
		<tag k="ssr:stedsnr" v="677448" />
	</node>
	<node lat="61.8271055515959" lon="9.158349995248356" id="-42113">
		<tag k="fixme" v="consider natural=peak for the most distinct mountains in the district" />
		<tag k="name" v="Bringsfjellet" />
		<tag k="natural" v="hill" />
		<tag k="place" v="locality" />
		<tag k="ssr:stedsnr" v="677484" />
	</node>
	<node lat="61.61352500034903" lon="8.92624166323851" id="-42114">
		<tag k="name" v="Hindkjørre" />
		<tag k="natural" v="slope" />
		<tag k="place" v="locality" />
		<tag k="ssr:stedsnr" v="677806" />
	</node>
	<node lat="61.7808555530231" lon="9.298875008455978" id="-42115">
		<tag k="fixme" v="consider natural=peak for the most distinct mountains in the district" />
		<tag k="name" v="Liaskarven" />
		<tag k="natural" v="hill" />
		<tag k="place" v="locality" />
		<tag k="ssr:stedsnr" v="677841" />
	</node>
	<node lat="61.82309166637234" lon="9.218502785241004" id="-42116">
		<tag k="name" v="Einarsplassbergje" />
		<tag k="natural" v="hill" />
		<tag k="place" v="locality" />
		<tag k="ssr:stedsnr" v="677785" />
	</node>
	<node lat="61.62791389072299" lon="9.11778887979459" id="-42119">
		<tag k="name" v="Panna" />
		<tag k="natural" v="hill" />
		<tag k="place" v="locality" />
		<tag k="ssr:stedsnr" v="677797" />
	</node>
	<node lat="61.63129999644183" lon="9.095505555775038" id="-42120">
		<tag k="fixme" v="consider natural=peak for the most distinct mountains in the district" />
		<tag k="name" v="Sjugurdsjøpiggen" />
		<tag k="natural" v="hill" />
		<tag k="place" v="locality" />
		<tag k="ssr:stedsnr" v="677799" />
	</node>
	<node lat="61.927944440973285" lon="9.081997227554249" id="-42122">
		<tag k="name" v="Kvitsteinvollan" />
		<tag k="natural" v="ridge" />
		<tag k="place" v="locality" />
		<tag k="ssr:stedsnr" v="678149" />
	</node>
	<node lat="61.88352777655725" lon="9.15293055661577" id="-42126">
		<tag k="alt_name" v="Tjønndalshaugen" />
		<tag k="name" v="Tjørndalshaugen" />
		<tag k="natural" v="hill" />
		<tag k="place" v="locality" />
		<tag k="ssr:stedsnr" v="678372" />
	</node>
	<node lat="61.84246111225507" lon="9.037416662297" id="-42129">
		<tag k="alt_name" v="Kleivhøi" />
		<tag k="name" v="Kleivhøe" />
		<tag k="natural" v="hill" />
		<tag k="place" v="locality" />
		<tag k="ssr:stedsnr" v="678289" />
	</node>
	<node lat="61.755444443146395" lon="9.007252772714605" id="-42132">
		<tag k="alt_name" v="Dravtjønnlie" />
		<tag k="name" v="Dravtjørnlii" />
		<tag k="natural" v="slope" />
		<tag k="place" v="locality" />
		<tag k="ssr:stedsnr" v="678419" />
	</node>
	<node lat="61.53408333497055" lon="8.879449992271862" id="-42134">
		<tag k="name" v="Mosbakken" />
		<tag k="natural" v="slope" />
		<tag k="place" v="locality" />
		<tag k="ssr:stedsnr" v="678829" />
	</node>
	<node lat="61.421666670337785" lon="8.508663894911212" id="-42137">
		<tag k="fixme" v="consider natural=peak for the most distinct mountains in the district" />
		<tag k="name" v="Nørdre Svartdalspiggen" />
		<tag k="natural" v="hill" />
		<tag k="place" v="locality" />
		<tag k="ssr:stedsnr" v="694230" />
	</node>
	<node lat="61.838763891467444" lon="9.011061104567206" id="-42140">
		<tag k="name" v="Rognstuldalen" />
		<tag k="natural" v="valley" />
		<tag k="place" v="locality" />
		<tag k="ssr:stedsnr" v="886120" />
	</node>
	<node lat="61.822655554678214" lon="9.303277781915273" id="-42141">
		<tag k="name" v="Kolbotten" />
		<tag k="place" v="locality" />
		<tag k="ssr:stedsnr" v="886536" />
	</node>
	<node lat="61.96236944355479" lon="9.043125004279942" id="-42149">
		<tag k="name" v="Rondhøe" />
		<tag k="natural" v="hill" />
		<tag k="place" v="locality" />
		<tag k="ssr:stedsnr" v="708017" />
	</node>
	<node lat="61.85888610909541" lon="8.927691666810667" id="-42153">
		<tag k="name" v="Langruste" />
		<tag k="natural" v="slope" />
		<tag k="place" v="locality" />
		<tag k="ssr:stedsnr" v="708084" />
	</node>
	<node lat="61.82794444836613" lon="9.094177776294208" id="-42159">
		<tag k="name" v="Ormhaugen" />
		<tag k="natural" v="hill" />
		<tag k="place" v="locality" />
		<tag k="ssr:stedsnr" v="708167" />
	</node>
	<node lat="61.761516669290266" lon="9.063205556293125" id="-42161">
		<tag k="name" v="Legorandin" />
		<tag k="natural" v="slope" />
		<tag k="place" v="locality" />
		<tag k="ssr:stedsnr" v="708369" />
	</node>
	<node lat="61.88109444608806" lon="9.056900006022797" id="-42162">
		<tag k="name" v="Dalbergje" />
		<tag k="natural" v="hill" />
		<tag k="place" v="locality" />
		<tag k="ssr:stedsnr" v="708203" />
	</node>
	<node lat="61.71609444159435" lon="9.047691665351097" id="-42163">
		<tag k="name" v="Grønslette" />
		<tag k="place" v="locality" />
		<tag k="ssr:stedsnr" v="708476" />
	</node>
	<node lat="61.80380833605487" lon="9.261072227736618" id="-42168">
		<tag k="name" v="Lalmshaugen" />
		<tag k="natural" v="hill" />
		<tag k="place" v="locality" />
		<tag k="ssr:stedsnr" v="716678" />
	</node>
	<node lat="61.86774166239959" lon="8.87520834036164" id="-42170">
		<tag k="fixme" v="consider natural=peak for the most distinct mountains in the district" />
		<tag k="name" v="Trælvikkampen" />
		<tag k="natural" v="hill" />
		<tag k="place" v="locality" />
		<tag k="ssr:stedsnr" v="889096" />
	</node>
	<node lat="61.858349997063684" lon="9.232511106096524" id="-42175">
		<tag k="name" v="Ristigdalen" />
		<tag k="natural" v="valley" />
		<tag k="place" v="locality" />
		<tag k="ssr:stedsnr" v="889770" />
	</node>
	<node lat="61.721025002218155" lon="9.048647224222321" id="-42179">
		<tag k="alt_name" v="Storvangein" />
		<tag k="name" v="Storvangan" />
		<tag k="place" v="locality" />
		<tag k="ssr:stedsnr" v="890473" />
	</node>
	<node lat="61.98033055704777" lon="8.996986112649742" id="-42180">
		<tag k="name" v="Liabakkjin" />
		<tag k="natural" v="slope" />
		<tag k="place" v="locality" />
		<tag k="ssr:stedsnr" v="890535" />
	</node>
	<node lat="61.96458610972714" lon="8.997405549144528" id="-42181">
		<tag k="alt_name" v="Haugein" />
		<tag k="name" v="Haugan" />
		<tag k="natural" v="hill" />
		<tag k="place" v="locality" />
		<tag k="ssr:stedsnr" v="890544" />
	</node>
	<node lat="61.97432500092526" lon="8.993438895580892" id="-42182">
		<tag k="fixme" v="consider natural=saddle" />
		<tag k="name" v="Skardet" />
		<tag k="natural" v="valley" />
		<tag k="place" v="locality" />
		<tag k="ssr:stedsnr" v="890564" />
	</node>
	<node lat="61.395494440925795" lon="9.056183342621372" id="-42190">
		<tag k="name" v="Storkvelven" />
		<tag k="natural" v="slope" />
		<tag k="place" v="locality" />
		<tag k="ssr:stedsnr" v="736031" />
	</node>
	<node lat="61.779344446885474" lon="9.037872215040423" id="-42196">
		<tag k="alt_name" v="Bjønnberget" />
		<tag k="name" v="Bjørneberget" />
		<tag k="natural" v="hill" />
		<tag k="place" v="locality" />
		<tag k="ssr:stedsnr" v="738408" />
	</node>
	<node lat="61.78396110744996" lon="8.979069453511155" id="-42198">
		<tag k="alt_name" v="Turrhaugene" />
		<tag k="name" v="Turrhaugan" />
		<tag k="natural" v="hill" />
		<tag k="place" v="locality" />
		<tag k="ssr:stedsnr" v="738420" />
	</node>
	<node lat="61.82387499986146" lon="8.994797225548918" id="-42201">
		<tag k="alt_name" v="Synstliene" />
		<tag k="name" v="Synstlii" />
		<tag k="natural" v="slope" />
		<tag k="place" v="locality" />
		<tag k="ssr:stedsnr" v="738479" />
	</node>
	<node lat="61.62319999856929" lon="8.987055559605029" id="-42202">
		<tag k="name" v="Steinholet" />
		<tag k="natural" v="valley" />
		<tag k="place" v="locality" />
		<tag k="ssr:stedsnr" v="738807" />
	</node>
	<node lat="61.58853333687671" lon="8.619455552613791" id="-42205">
		<tag k="fixme" v="consider natural=peak for the most distinct mountains in the district" />
		<tag k="name" v="Styggehøe" />
		<tag k="natural" v="hill" />
		<tag k="place" v="locality" />
		<tag k="ssr:stedsnr" v="738819" />
	</node>
	<node lat="61.66431667083276" lon="9.094266660088962" id="-42211">
		<tag k="alt_name" v="Storskriulia" />
		<tag k="name" v="Storskridulii" />
		<tag k="natural" v="slope" />
		<tag k="place" v="locality" />
		<tag k="ssr:stedsnr" v="738769" />
	</node>
	<node lat="61.499905552337474" lon="8.81719999078905" id="-42212">
		<tag k="fixme" v="consider natural=saddle" />
		<tag k="name" v="Gjendehalsen" />
		<tag k="natural" v="valley" />
		<tag k="place" v="locality" />
		<tag k="ssr:stedsnr" v="738956" />
	</node>
	<node lat="61.73535555182058" lon="9.055888891434089" id="-42214">
		<tag k="alt_name" v="Hellarein" />
		<tag k="fixme" v="consider natural=peak for the most distinct mountains in the district" />
		<tag k="name" v="Helleran" />
		<tag k="natural" v="hill" />
		<tag k="place" v="locality" />
		<tag k="ssr:stedsnr" v="738965" />
	</node>
	<node lat="61.93586666936869" lon="9.019563894378436" id="-42215">
		<tag k="alt_name" v="Borgahøi" />
		<tag k="fixme" v="consider natural=peak for the most distinct mountains in the district" />
		<tag k="name" v="Borgahøe" />
		<tag k="natural" v="hill" />
		<tag k="place" v="locality" />
		<tag k="ssr:stedsnr" v="739123" />
	</node>
	<node lat="61.8455638905844" lon="8.896219442541252" id="-42221">
		<tag k="name" v="Mjølkehaugdalen" />
		<tag k="natural" v="valley" />
		<tag k="place" v="locality" />
		<tag k="ssr:stedsnr" v="756318" />
	</node>
	<node lat="61.45816111093269" lon="8.910005547187868" id="-42222">
		<tag k="fixme" v="consider natural=saddle" />
		<tag k="name" v="Neveråskardet" />
		<tag k="natural" v="valley" />
		<tag k="place" v="locality" />
		<tag k="ssr:stedsnr" v="918281" />
	</node>
	<node lat="61.94755555506637" lon="9.041091675195121" id="-42225">
		<tag k="name" v="Urdnebb" />
		<tag k="natural" v="hill" />
		<tag k="place" v="locality" />
		<tag k="ssr:stedsnr" v="769112" />
	</node>
	<node lat="61.467644444927444" lon="9.111388886701203" id="-42229">
		<tag k="alt_name" v="Sleobulia" />
		<tag k="name" v="Sliubulii" />
		<tag k="natural" v="slope" />
		<tag k="place" v="locality" />
		<tag k="ssr:stedsnr" v="918287" />
	</node>
	<node lat="61.79441944080792" lon="9.165505564169246" id="-42232">
		<tag k="alt_name" v="Bøneslia" />
		<tag k="name" v="Bøneslie" />
		<tag k="natural" v="slope" />
		<tag k="place" v="locality" />
		<tag k="ssr:stedsnr" v="778954" />
	</node>
	<node lat="61.77807500235082" lon="9.323269449797543" id="-42233">
		<tag k="name" v="Ulveflya" />
		<tag k="natural" v="slope" />
		<tag k="place" v="locality" />
		<tag k="ssr:stedsnr" v="899595" />
	</node>
	<node lat="61.40377778017889" lon="8.534036117105634" id="-42237">
		<tag k="fixme" v="consider natural=peak for the most distinct mountains in the district" />
		<tag k="name" v="Mesmogtinden" />
		<tag k="natural" v="hill" />
		<tag k="place" v="locality" />
		<tag k="ssr:stedsnr" v="796115" />
	</node>
	<node lat="61.39642499843032" lon="8.55389999233888" id="-42238">
		<tag k="fixme" v="consider natural=peak for the most distinct mountains in the district" />
		<tag k="name" v="Kvitskardtinden" />
		<tag k="natural" v="hill" />
		<tag k="place" v="locality" />
		<tag k="ssr:stedsnr" v="796124" />
	</node>
	<node lat="61.52144999963802" lon="9.102161105248525" id="-42242">
		<tag k="name" v="Grytdalen" />
		<tag k="natural" v="valley" />
		<tag k="place" v="locality" />
		<tag k="ssr:stedsnr" v="798828" />
	</node>
	<node lat="61.852022220361306" lon="9.105505564079188" id="-42250">
		<tag k="fixme" v="consider natural=peak for the most distinct mountains in the district" />
		<tag k="name" v="Sundsteinen" />
		<tag k="natural" v="hill" />
		<tag k="place" v="locality" />
		<tag k="ssr:stedsnr" v="799292" />
	</node>
	<node lat="61.77448888853696" lon="9.100983341993148" id="-42251">
		<tag k="name" v="Skardåknappen" />
		<tag k="natural" v="hill" />
		<tag k="old_name" v="Skardakappen" />
		<tag k="place" v="locality" />
		<tag k="ssr:stedsnr" v="799404" />
	</node>
	<node lat="61.78466944567608" lon="9.008686118711111" id="-42253">
		<tag k="alt_name" v="Buforhøi" />
		<tag k="fixme" v="consider natural=peak for the most distinct mountains in the district" />
		<tag k="name" v="Buforhøe" />
		<tag k="natural" v="hill" />
		<tag k="place" v="locality" />
		<tag k="ssr:stedsnr" v="799424" />
	</node>
	<node lat="61.78380833248561" lon="9.01938612005751" id="-42254">
		<tag k="name" v="Buforholet" />
		<tag k="natural" v="valley" />
		<tag k="old_name" v="Burforholet" />
		<tag k="place" v="locality" />
		<tag k="ssr:stedsnr" v="799426" />
	</node>
	<node lat="61.780024997609225" lon="8.961822215817984" id="-42255">
		<tag k="name" v="Degernesberget" />
		<tag k="natural" v="hill" />
		<tag k="place" v="locality" />
		<tag k="ssr:stedsnr" v="799429" />
	</node>
	<node lat="61.62657777507071" lon="8.966927780383992" id="-42263">
		<tag k="fixme" v="consider natural=peak for the most distinct mountains in the district" />
		<tag k="name" v="Hindsæterkampen" />
		<tag k="natural" v="hill" />
		<tag k="place" v="locality" />
		<tag k="ssr:stedsnr" v="799806" />
	</node>
	<node lat="61.55881666547786" lon="9.044411117505959" id="-42267">
		<tag k="name" v="Bjørnberget" />
		<tag k="natural" v="hill" />
		<tag k="place" v="locality" />
		<tag k="ssr:stedsnr" v="799850" />
	</node>
	<node lat="61.51788333468943" lon="8.687197229868321" id="-42268">
		<tag k="fixme" v="consider natural=peak for the most distinct mountains in the district" />
		<tag k="name" v="Besshøe" />
		<tag k="natural" v="hill" />
		<tag k="place" v="locality" />
		<tag k="ssr:stedsnr" v="799935" />
	</node>
	<node lat="61.700263888005246" lon="9.027841667577322" id="-42271">
		<tag k="alt_name" v="Gråhø" />
		<tag k="fixme" v="consider natural=peak for the most distinct mountains in the district" />
		<tag k="loc_name" v="Gråhøa" />
		<tag k="name" v="Gråhøe" />
		<tag k="natural" v="hill" />
		<tag k="place" v="locality" />
		<tag k="ssr:stedsnr" v="800000" />
	</node>
	<node lat="61.89344166454283" lon="9.172274999222719" id="-42278">
		<tag k="name" v="Sagrenna" />
		<tag k="natural" v="valley" />
		<tag k="place" v="locality" />
		<tag k="ssr:stedsnr" v="828989" />
	</node>
	<node lat="61.96169999934225" lon="9.02490556239676" id="-42280">
		<tag k="fixme" v="consider natural=saddle" />
		<tag k="name" v="Øvre Holet" />
		<tag k="natural" v="valley" />
		<tag k="place" v="locality" />
		<tag k="ssr:stedsnr" v="830011" />
	</node>
	<node lat="61.85854722180004" lon="8.958194435632086" id="-42283">
		<tag k="name" v="Ulsandbergje" />
		<tag k="natural" v="hill" />
		<tag k="place" v="locality" />
		<tag k="ssr:stedsnr" v="830083" />
	</node>
	<node lat="61.851366665240725" lon="8.98846945030266" id="-42285">
		<tag k="name" v="Kvithåmåren" />
		<tag k="natural" v="hill" />
		<tag k="place" v="locality" />
		<tag k="ssr:stedsnr" v="830114" />
	</node>
	<node lat="61.968383337081136" lon="9.01018333333511" id="-42287">
		<tag k="name" v="Grønli" />
		<tag k="natural" v="slope" />
		<tag k="place" v="locality" />
		<tag k="ssr:stedsnr" v="830509" />
	</node>
	<node lat="61.82085000069267" lon="9.322522216483202" id="-42288">
		<tag k="name" v="Rundhaugen" />
		<tag k="natural" v="hill" />
		<tag k="place" v="locality" />
		<tag k="ssr:stedsnr" v="830584" />
	</node>
	<node lat="61.93322500167892" lon="8.991633335186767" id="-42290">
		<tag k="name" v="Langrandin" />
		<tag k="natural" v="hill" />
		<tag k="place" v="locality" />
		<tag k="ssr:stedsnr" v="843340" />
	</node>
	<node lat="61.43671111010207" lon="8.903111116989242" id="-42292">
		<tag k="name" v="Skrymtan" />
		<tag k="natural" v="hill" />
		<tag k="place" v="locality" />
		<tag k="ssr:stedsnr" v="857005" />
	</node>
	<node lat="61.48627499857158" lon="8.899674990907007" id="-42293">
		<tag k="fixme" v="consider natural=peak for the most distinct mountains in the district" />
		<tag k="name" v="Nørdre Gåpåpiggen" />
		<tag k="natural" v="hill" />
		<tag k="place" v="locality" />
		<tag k="ssr:stedsnr" v="857249" />
	</node>
	<node lat="61.41412222276105" lon="8.509813882637205" id="-42294">
		<tag k="fixme" v="consider natural=peak for the most distinct mountains in the district" />
		<tag k="name" v="Midtre Svartdalspiggen" />
		<tag k="natural" v="hill" />
		<tag k="place" v="locality" />
		<tag k="ssr:stedsnr" v="857137" />
	</node>
	<node lat="61.84495000056769" lon="9.192938883030298" id="-42300">
		<tag k="alt_name" v="Skarslette" />
		<tag k="name" v="Skardsletti" />
		<tag k="place" v="locality" />
		<tag k="ssr:stedsnr" v="860305" />
	</node>
	<node lat="61.88946110965233" lon="9.184619441582637" id="-42305">
		<tag k="fixme" v="consider natural=peak for the most distinct mountains in the district" />
		<tag k="name" v="Skagsnebb" />
		<tag k="natural" v="hill" />
		<tag k="place" v="locality" />
		<tag k="ssr:stedsnr" v="860423" />
	</node>
	<node lat="61.81053611058386" lon="9.354588884771339" id="-42308">
		<tag k="alt_name" v="Kvilingje" />
		<tag k="fixme" v="consider natural=peak for the most distinct mountains in the district" />
		<tag k="name" v="Kvilingen" />
		<tag k="natural" v="hill" />
		<tag k="place" v="locality" />
		<tag k="ssr:stedsnr" v="860784" />
	</node>
	<node lat="61.60112499562793" lon="9.104588879752958" id="-42311">
		<tag k="fixme" v="consider natural=peak for the most distinct mountains in the district" />
		<tag k="loc_name" v="Grønhøa" />
		<tag k="name" v="Grønhøe" />
		<tag k="natural" v="hill" />
		<tag k="place" v="locality" />
		<tag k="ssr:stedsnr" v="860822" />
	</node>
	<node lat="61.59573055722912" lon="8.873391657276615" id="-42313">
		<tag k="fixme" v="consider natural=peak for the most distinct mountains in the district" />
		<tag k="name" v="Steinhøe" />
		<tag k="natural" v="hill" />
		<tag k="place" v="locality" />
		<tag k="ssr:stedsnr" v="860827" />
	</node>
	<node lat="61.53808611295188" lon="8.907763896346966" id="-42314">
		<tag k="name" v="Trollbotthaugen" />
		<tag k="natural" v="hill" />
		<tag k="place" v="locality" />
		<tag k="ssr:stedsnr" v="860872" />
	</node>
	<node lat="61.80984722444409" lon="9.348344452444488" id="-42315">
		<tag k="fixme" v="consider natural=peak for the most distinct mountains in the district" />
		<tag k="name" v="Tolstadåsen" />
		<tag k="natural" v="hill" />
		<tag k="place" v="locality" />
		<tag k="ssr:stedsnr" v="872870" />
	</node>
	<node lat="61.85903055162401" lon="8.938522220246064" id="-42321">
		<tag k="name" v="Kattholet" />
		<tag k="natural" v="valley" />
		<tag k="place" v="locality" />
		<tag k="ssr:stedsnr" v="891116" />
	</node>
	<node lat="61.81817777743615" lon="9.032708324589457" id="-42325">
		<tag k="alt_name" v="Springarbakkein" />
		<tag k="name" v="Springarbakkan" />
		<tag k="natural" v="slope" />
		<tag k="place" v="locality" />
		<tag k="ssr:stedsnr" v="891214" />
	</node>
	<node lat="61.88731111304551" lon="9.177613882328755" id="-42329">
		<tag k="name" v="Skriu" />
		<tag k="natural" v="slope" />
		<tag k="place" v="locality" />
		<tag k="ssr:stedsnr" v="891907" />
	</node>
	<node lat="61.867875002064245" lon="9.280036114786398" id="-42333">
		<tag k="fixme" v="consider natural=saddle" />
		<tag k="name" v="Skardet" />
		<tag k="natural" v="valley" />
		<tag k="place" v="locality" />
		<tag k="ssr:stedsnr" v="898474" />
	</node>
	<node lat="61.71971944104706" lon="9.115341665554936" id="-42334">
		<tag k="name" v="Ørnberget" />
		<tag k="natural" v="hill" />
		<tag k="place" v="locality" />
		<tag k="ssr:stedsnr" v="899174" />
	</node>
	<node lat="61.4982416638299" lon="8.902383334039623" id="-42337">
		<tag k="name" v="Sikilsdalsmunnin" />
		<tag k="natural" v="slope" />
		<tag k="place" v="locality" />
		<tag k="ssr:stedsnr" v="903602" />
	</node>
	<node lat="61.45880277406306" lon="8.844025006063399" id="-42342">
		<tag k="fixme" v="consider natural=saddle" />
		<tag k="name" v="Brurskardet" />
		<tag k="natural" v="valley" />
		<tag k="place" v="locality" />
		<tag k="ssr:stedsnr" v="918278" />
	</node>
	<node lat="61.838969447977505" lon="8.962197227615048" id="-42345">
		<tag k="alt_name" v="Heggjeholet" />
		<tag k="name" v="Heggeholet" />
		<tag k="natural" v="gorge" />
		<tag k="ssr:stedsnr" v="920251" />
	</node>
	<node lat="61.86840555368606" lon="9.166774999703142" id="-42350">
		<tag k="alt_name" v="Jukullie" />
		<tag k="name" v="Jukullii" />
		<tag k="natural" v="slope" />
		<tag k="place" v="locality" />
		<tag k="ssr:stedsnr" v="920298" />
	</node>
	<node lat="61.61457778014956" lon="9.115288883222693" id="-42355">
		<tag k="name" v="Bessknarten" />
		<tag k="natural" v="hill" />
		<tag k="place" v="locality" />
		<tag k="ssr:stedsnr" v="920794" />
	</node>
	<node lat="61.61232499865818" lon="8.792986115027979" id="-42356">
		<tag k="name" v="Hindholet" />
		<tag k="natural" v="valley" />
		<tag k="place" v="locality" />
		<tag k="ssr:stedsnr" v="920903" />
	</node>
	<node lat="61.59306110989061" lon="8.657555561281177" id="-42360">
		<tag k="fixme" v="consider natural=peak for the most distinct mountains in the district" />
		<tag k="name" v="Vestre Hestlægerhøe" />
		<tag k="natural" v="hill" />
		<tag k="place" v="locality" />
		<tag k="ssr:stedsnr" v="920927" />
	</node>
	<node lat="61.596144440199424" lon="8.713691662354167" id="-42361">
		<tag k="name" v="Tjønnholet" />
		<tag k="natural" v="valley" />
		<tag k="place" v="locality" />
		<tag k="ssr:stedsnr" v="920929" />
	</node>
	<node lat="61.53407500219979" lon="8.572655560492011" id="-42362">
		<tag k="fixme" v="consider natural=peak for the most distinct mountains in the district" />
		<tag k="name" v="Surtningssue" />
		<tag k="natural" v="hill" />
		<tag k="place" v="locality" />
		<tag k="ssr:stedsnr" v="920936" />
	</node>
	<node lat="61.88081111031854" lon="8.943419451561395" id="-42367">
		<tag k="alt_name" v="Sæterhøe, nordre" />
		<tag k="fixme" v="consider natural=peak for the most distinct mountains in the district" />
		<tag k="name" v="Nørdre Sæterhøe" />
		<tag k="natural" v="hill" />
		<tag k="place" v="locality" />
		<tag k="ssr:stedsnr" v="921386" />
	</node>
	<node lat="62.002400001772685" lon="9.033638888043802" id="-42368">
		<tag k="fixme" v="consider natural=peak for the most distinct mountains in the district" />
		<tag k="name" v="Ståkåhøe" />
		<tag k="natural" v="hill" />
		<tag k="place" v="locality" />
		<tag k="ssr:stedsnr" v="921538" />
	</node>
	<node lat="61.81040000254062" lon="9.288758326585649" id="-42369">
		<tag k="name" v="Tolstadkvernberget" />
		<tag k="natural" v="hill" />
		<tag k="place" v="locality" />
		<tag k="ssr:stedsnr" v="932850" />
	</node>
	<node lat="61.5268500032729" lon="8.587458341900238" id="-42370">
		<tag k="fixme" v="consider natural=peak for the most distinct mountains in the district" />
		<tag k="name" v="Midtre Surtningssue" />
		<tag k="natural" v="hill" />
		<tag k="place" v="locality" />
		<tag k="ssr:stedsnr" v="936335" />
	</node>
	<node lat="61.56120278223167" lon="8.551900009060004" id="-42371">
		<tag k="fixme" v="consider natural=peak for the most distinct mountains in the district" />
		<tag k="name" v="Nørdre Blåbreahøe" />
		<tag k="natural" v="hill" />
		<tag k="place" v="locality" />
		<tag k="ssr:stedsnr" v="936337" />
	</node>
	<node lat="61.880005556367294" lon="9.188508328829387" id="-42379">
		<tag k="name" v="Skjellen" />
		<tag k="natural" v="slope" />
		<tag k="place" v="locality" />
		<tag k="ssr:stedsnr" v="949893" />
	</node>
	<node lat="61.905136108247135" lon="9.045136106729105" id="-42381">
		<tag k="name" v="Pipøygardsslettin" />
		<tag k="natural" v="slope" />
		<tag k="place" v="locality" />
		<tag k="ssr:stedsnr" v="951006" />
	</node>
	<node lat="61.84793333538444" lon="8.989483332069979" id="-42386">
		<tag k="name" v="Åsdalen" />
		<tag k="natural" v="valley" />
		<tag k="place" v="locality" />
		<tag k="ssr:stedsnr" v="951130" />
	</node>
	<node lat="61.96393055970076" lon="9.019794449115869" id="-42389">
		<tag k="name" v="Steinkjørkja" />
		<tag k="natural" v="cliff" />
		<tag k="ssr:stedsnr" v="951538" />
	</node>
	<node lat="61.94117777561074" lon="9.019297217640114" id="-42391">
		<tag k="name" v="Djupdal" />
		<tag k="natural" v="valley" />
		<tag k="place" v="locality" />
		<tag k="ssr:stedsnr" v="951542" />
	</node>
	<node lat="61.81413333366194" lon="9.156366666691088" id="-42396">
		<tag k="name" v="Brennhaug" />
		<tag k="natural" v="hill" />
		<tag k="place" v="locality" />
		<tag k="ssr:stedsnr" v="959503" />
	</node>
	<node lat="61.80566388755074" lon="9.201441659507173" id="-42398">
		<tag k="name" v="Stutarhaugen" />
		<tag k="natural" v="hill" />
		<tag k="place" v="locality" />
		<tag k="ssr:stedsnr" v="959499" />
	</node>
	<node lat="61.91773055346779" lon="8.986894437991067" id="-42400">
		<tag k="name" v="Pikothaugen" />
		<tag k="natural" v="hill" />
		<tag k="place" v="locality" />
		<tag k="ssr:stedsnr" v="964406" />
	</node>
	<node lat="61.459958330285815" lon="8.76788055832416" id="-42492">
		<tag k="name" v="Semmellægret" />
		<tag k="natural" v="slope" />
		<tag k="place" v="locality" />
		<tag k="ssr:stedsnr" v="8781" />
	</node>
	<node lat="61.46770555382462" lon="8.811122228528886" id="-42493">
		<tag k="name" v="Vargebakkan" />
		<tag k="natural" v="slope" />
		<tag k="place" v="locality" />
		<tag k="ssr:stedsnr" v="8786" />
	</node>
	<node lat="61.908797219195236" lon="9.19077221582925" id="-42502">
		<tag k="fixme" v="consider natural=peak for the most distinct mountains in the district" />
		<tag k="name" v="Tverrhøe" />
		<tag k="natural" v="hill" />
		<tag k="place" v="locality" />
		<tag k="ssr:stedsnr" v="10350" />
	</node>
	<node lat="61.60062778181873" lon="8.808975008508533" id="-42509">
		<tag k="fixme" v="consider natural=saddle" />
		<tag k="name" v="Russkvelven" />
		<tag k="natural" v="valley" />
		<tag k="place" v="locality" />
		<tag k="ssr:stedsnr" v="10920" />
	</node>
	<node lat="61.675558333892404" lon="8.939538896541261" id="-42511">
		<tag k="fixme" v="consider natural=peak for the most distinct mountains in the district" />
		<tag k="name" v="Veofjellet" />
		<tag k="natural" v="hill" />
		<tag k="place" v="locality" />
		<tag k="ssr:stedsnr" v="10990" />
	</node>
	<node lat="61.888897219068284" lon="8.983200000635911" id="-42516">
		<tag k="name" v="Bukkehaugen" />
		<tag k="natural" v="hill" />
		<tag k="place" v="locality" />
		<tag k="ssr:stedsnr" v="11345" />
	</node>
	<node lat="61.6808361136741" lon="9.07472499245077" id="-42518">
		<tag k="alt_name" v="Ridderspranget" />
		<tag k="name" v="Riddarspranget" />
		<tag k="natural" v="gorge" />
		<tag k="ssr:stedsnr" v="10763" />
	</node>
	<node lat="61.53095555623919" lon="8.979050000660337" id="-42520">
		<tag k="name" v="Storkvølven" />
		<tag k="natural" v="valley" />
		<tag k="place" v="locality" />
		<tag k="ssr:stedsnr" v="10860" />
	</node>
	<node lat="61.53288889106991" lon="9.111111119709678" id="-42521">
		<tag k="alt_name" v="Lasselia" />
		<tag k="name" v="Lasselii" />
		<tag k="natural" v="slope" />
		<tag k="place" v="locality" />
		<tag k="ssr:stedsnr" v="10862" />
	</node>
	<node lat="61.976680552223044" lon="8.922161107807632" id="-42522">
		<tag k="fixme" v="consider natural=peak for the most distinct mountains in the district" />
		<tag k="name" v="Rundhøe" />
		<tag k="natural" v="hill" />
		<tag k="place" v="locality" />
		<tag k="ssr:stedsnr" v="11156" />
	</node>
	<node lat="61.866433336612744" lon="8.869786105687977" id="-42523">
		<tag k="name" v="Trolldalen" />
		<tag k="natural" v="valley" />
		<tag k="place" v="locality" />
		<tag k="ssr:stedsnr" v="11318" />
	</node>
	<node lat="62.006755559305745" lon="8.9339027795026" id="-42524">
		<tag k="name" v="Grønhøkollan" />
		<tag k="natural" v="hill" />
		<tag k="place" v="locality" />
		<tag k="ssr:stedsnr" v="11516" />
	</node>
	<node lat="61.85359166433082" lon="9.248449999773213" id="-42528">
		<tag k="fixme" v="consider natural=peak for the most distinct mountains in the district" />
		<tag k="name" v="Snerlehøe" />
		<tag k="natural" v="hill" />
		<tag k="place" v="locality" />
		<tag k="ssr:stedsnr" v="11956" />
	</node>
	<node lat="61.83807499771293" lon="9.19692778632884" id="-42532">
		<tag k="name" v="Kleppe-Skaret" />
		<tag k="natural" v="slope" />
		<tag k="place" v="locality" />
		<tag k="ssr:stedsnr" v="39833" />
	</node>
	<node lat="61.87774722138543" lon="9.164325005976847" id="-42534">
		<tag k="name" v="Søremsåsen" />
		<tag k="natural" v="hill" />
		<tag k="place" v="locality" />
		<tag k="ssr:stedsnr" v="39999" />
	</node>
	<node lat="61.845702777203485" lon="8.967355557723163" id="-42538">
		<tag k="alt_name" v="Nesehaugein" />
		<tag k="name" v="Nesehaugan" />
		<tag k="natural" v="hill" />
		<tag k="place" v="locality" />
		<tag k="ssr:stedsnr" v="41131" />
	</node>
	<node lat="61.853716664285095" lon="9.056816667444044" id="-42539">
		<tag k="name" v="Kjøyllberget" />
		<tag k="natural" v="hill" />
		<tag k="place" v="locality" />
		<tag k="ssr:stedsnr" v="41136" />
	</node>
	<node lat="61.850855559557395" lon="9.017936112144504" id="-42540">
		<tag k="name" v="Høgkleive" />
		<tag k="natural" v="slope" />
		<tag k="place" v="locality" />
		<tag k="ssr:stedsnr" v="41143" />
	</node>
	<node lat="61.840861108599455" lon="9.05025278597218" id="-42541">
		<tag k="name" v="Kleivhødalen" />
		<tag k="natural" v="valley" />
		<tag k="place" v="locality" />
		<tag k="ssr:stedsnr" v="41146" />
	</node>
	<node lat="61.76395555620248" lon="9.018052782452505" id="-42544">
		<tag k="fixme" v="consider natural=saddle" />
		<tag k="name" v="Klåvån" />
		<tag k="natural" v="valley" />
		<tag k="place" v="locality" />
		<tag k="ssr:stedsnr" v="41389" />
	</node>
	<node lat="61.782152780641304" lon="9.10104722406808" id="-42545">
		<tag k="fixme" v="consider natural=saddle" />
		<tag k="name" v="Reiggeskardet" />
		<tag k="natural" v="valley" />
		<tag k="place" v="locality" />
		<tag k="ssr:stedsnr" v="41396" />
	</node>
	<node lat="61.71580277473478" lon="9.01024445140293" id="-42547">
		<tag k="name" v="Vakkervangen" />
		<tag k="place" v="locality" />
		<tag k="ssr:stedsnr" v="41462" />
	</node>
	<node lat="61.89253055416506" lon="9.301102781659099" id="-42553">
		<tag k="name" v="Jettsalen" />
		<tag k="natural" v="slope" />
		<tag k="place" v="locality" />
		<tag k="ssr:stedsnr" v="50957" />
	</node>
	<node lat="61.39988889278955" lon="8.663802774248461" id="-42557">
		<tag k="fixme" v="consider natural=peak for the most distinct mountains in the district" />
		<tag k="name" v="Munken" />
		<tag k="natural" v="hill" />
		<tag k="place" v="locality" />
		<tag k="ssr:stedsnr" v="68131" />
	</node>
	<node lat="61.395724995985596" lon="8.601277773754632" id="-42558">
		<tag k="fixme" v="consider natural=peak for the most distinct mountains in the district" />
		<tag k="name" v="Leirungskampen" />
		<tag k="natural" v="hill" />
		<tag k="place" v="locality" />
		<tag k="ssr:stedsnr" v="68133" />
	</node>
	<node lat="61.93745555942681" lon="9.088386111936341" id="-42563">
		<tag k="fixme" v="consider natural=peak for the most distinct mountains in the district" />
		<tag k="name" v="Kvitsteinhøe" />
		<tag k="natural" v="hill" />
		<tag k="place" v="locality" />
		<tag k="ssr:stedsnr" v="71155" />
	</node>
	<node lat="61.97325555213752" lon="8.92650000183865" id="-42566">
		<tag k="name" v="Trongdalen" />
		<tag k="natural" v="valley" />
		<tag k="place" v="locality" />
		<tag k="ssr:stedsnr" v="71194" />
	</node>
	<node lat="61.76500277883808" lon="9.016880552268818" id="-42577">
		<tag k="name" v="Kariskriuhaugen" />
		<tag k="natural" v="hill" />
		<tag k="place" v="locality" />
		<tag k="ssr:stedsnr" v="71449" />
	</node>
	<node lat="61.57532500169895" lon="8.771600000613292" id="-42586">
		<tag k="fixme" v="consider natural=peak for the most distinct mountains in the district" />
		<tag k="name" v="Russfjellet" />
		<tag k="natural" v="hill" />
		<tag k="place" v="locality" />
		<tag k="ssr:stedsnr" v="71931" />
	</node>
	<node lat="61.80460000026959" lon="9.268450003613875" id="-42589">
		<tag k="fixme" v="consider natural=peak for the most distinct mountains in the district" />
		<tag k="name" v="Hovdaspiggen" />
		<tag k="natural" v="hill" />
		<tag k="place" v="locality" />
		<tag k="ssr:stedsnr" v="71893" />
	</node>
	<node lat="61.646986112187285" lon="9.020094445957346" id="-42590">
		<tag k="alt_name" v="Sallivangene" />
		<tag k="name" v="Sallivangan" />
		<tag k="place" v="locality" />
		<tag k="ssr:stedsnr" v="71793" />
	</node>
	<node lat="61.53325000206478" lon="8.833722219338783" id="-42594">
		<tag k="alt_name" v="Besstrandfjell" />
		<tag k="fixme" v="consider natural=peak for the most distinct mountains in the district" />
		<tag k="name" v="Besstrondfjellet" />
		<tag k="natural" v="hill" />
		<tag k="place" v="locality" />
		<tag k="ssr:stedsnr" v="71952" />
	</node>
	<node lat="61.432950002512925" lon="8.637116670223378" id="-42597">
		<tag k="fixme" v="consider natural=peak for the most distinct mountains in the district" />
		<tag k="name" v="Tjønnholsoksle" />
		<tag k="natural" v="hill" />
		<tag k="place" v="locality" />
		<tag k="ssr:stedsnr" v="87264" />
	</node>
	<node lat="61.43656111127352" lon="8.599636117798928" id="-42598">
		<tag k="fixme" v="consider natural=peak for the most distinct mountains in the district" />
		<tag k="name" v="Midtre Skarvflytinden" />
		<tag k="natural" v="hill" />
		<tag k="place" v="locality" />
		<tag k="ssr:stedsnr" v="87268" />
	</node>
	<node lat="61.884691669046134" lon="9.060800006846348" id="-42603">
		<tag k="name" v="Putten" />
		<tag k="natural" v="gorge" />
		<tag k="ssr:stedsnr" v="100036" />
	</node>
	<node lat="61.843738887997134" lon="9.184277776857053" id="-42605">
		<tag k="name" v="Løkjestein" />
		<tag k="natural" v="hill" />
		<tag k="place" v="locality" />
		<tag k="ssr:stedsnr" v="100854" />
	</node>
	<node lat="61.816613889310354" lon="9.374869449528815" id="-42628">
		<tag k="name" v="Helvete" />
		<tag k="natural" v="slope" />
		<tag k="place" v="locality" />
		<tag k="ssr:stedsnr" v="110563" />
	</node>
	<node lat="61.832644448739416" lon="9.300538891793515" id="-42632">
		<tag k="name" v="Estinhovdan" />
		<tag k="place" v="locality" />
		<tag k="ssr:stedsnr" v="111945" />
	</node>
	<node lat="61.93739722565738" lon="8.96878611800673" id="-42633">
		<tag k="name" v="Øygardshaugen" />
		<tag k="natural" v="hill" />
		<tag k="place" v="locality" />
		<tag k="ssr:stedsnr" v="114382" />
	</node>
	<node lat="61.91903055542183" lon="8.97034166612872" id="-42636">
		<tag k="name" v="Påtet" />
		<tag k="place" v="locality" />
		<tag k="ssr:stedsnr" v="115398" />
	</node>
	<node lat="61.47025000161006" lon="9.095708342186702" id="-42637">
		<tag k="fixme" v="multiple name tags, choose one and add the other to alt_name; consider natural=peak for the most distinct mountains in the district" />
		<tag k="name" v="Holmbekkampen;Sleobufjell" />
		<tag k="natural" v="hill" />
		<tag k="place" v="locality" />
		<tag k="ssr:stedsnr" v="128219" />
	</node>
	<node lat="61.436263888678276" lon="8.640752772792034" id="-42638">
		<tag k="name" v="Søre Tjønnholet" />
		<tag k="natural" v="valley" />
		<tag k="place" v="locality" />
		<tag k="ssr:stedsnr" v="129157" />
	</node>
	<node lat="61.92184999575262" lon="9.196319437075243" id="-42642">
		<tag k="name" v="Jettdalen" />
		<tag k="natural" v="valley" />
		<tag k="place" v="locality" />
		<tag k="ssr:stedsnr" v="131151" />
	</node>
	<node lat="61.83829722615357" lon="8.914819452589494" id="-42645">
		<tag k="alt_name" v="Breinnbergje" />
		<tag k="name" v="Brennberget" />
		<tag k="natural" v="hill" />
		<tag k="place" v="locality" />
		<tag k="ssr:stedsnr" v="131248" />
	</node>
	<node lat="61.767124997661256" lon="9.046022229812204" id="-42648">
		<tag k="name" v="Kreklinghaugen" />
		<tag k="natural" v="hill" />
		<tag k="place" v="locality" />
		<tag k="ssr:stedsnr" v="131387" />
	</node>
	<node lat="61.811102778554115" lon="8.960416672474095" id="-42654">
		<tag k="fixme" v="consider natural=peak for the most distinct mountains in the district" />
		<tag k="name" v="Tristeinan" />
		<tag k="natural" v="hill" />
		<tag k="place" v="locality" />
		<tag k="ssr:stedsnr" v="131452" />
	</node>
	<node lat="61.822275001390686" lon="9.360930561349441" id="-42663">
		<tag k="name" v="Tjorsæterhaugen" />
		<tag k="natural" v="hill" />
		<tag k="place" v="locality" />
		<tag k="ssr:stedsnr" v="131786" />
	</node>
	<node lat="61.64402500359821" lon="8.853700007981649" id="-42666">
		<tag k="fixme" v="consider natural=peak for the most distinct mountains in the district" />
		<tag k="name" v="Hindnubban" />
		<tag k="natural" v="hill" />
		<tag k="place" v="locality" />
		<tag k="ssr:stedsnr" v="131792" />
	</node>
	<node lat="61.565208328881425" lon="8.870899994608564" id="-42668">
		<tag k="name" v="Russdalen" />
		<tag k="natural" v="valley" />
		<tag k="place" v="locality" />
		<tag k="ssr:stedsnr" v="131868" />
	</node>
	<node lat="61.56733611008831" lon="9.138438881580145" id="-42669">
		<tag k="name" v="Skurvehaug" />
		<tag k="natural" v="hill" />
		<tag k="place" v="locality" />
		<tag k="ssr:stedsnr" v="131871" />
	</node>
	<node lat="61.55374166323702" lon="9.001236108602455" id="-42670">
		<tag k="fixme" v="consider natural=peak for the most distinct mountains in the district" />
		<tag k="name" v="Griningsdalskampen" />
		<tag k="natural" v="hill" />
		<tag k="place" v="locality" />
		<tag k="ssr:stedsnr" v="131880" />
	</node>
	<node lat="61.689738887314455" lon="8.945055554777813" id="-42673">
		<tag k="fixme" v="consider natural=peak for the most distinct mountains in the district" />
		<tag k="name" v="Fuglhøe" />
		<tag k="natural" v="hill" />
		<tag k="place" v="locality" />
		<tag k="ssr:stedsnr" v="131992" />
	</node>
	<node lat="61.58596666824629" lon="9.060969449086242" id="-42678">
		<tag k="fixme" v="consider natural=peak for the most distinct mountains in the district" />
		<tag k="loc_name" v="Dyrtjønnhøa" />
		<tag k="name" v="Dyrtjørnhøe" />
		<tag k="natural" v="hill" />
		<tag k="place" v="locality" />
		<tag k="ssr:stedsnr" v="131849" />
	</node>
	<node lat="61.551063891913834" lon="8.635852777267035" id="-42680">
		<tag k="fixme" v="consider natural=peak for the most distinct mountains in the district" />
		<tag k="name" v="Surtningssuoksle" />
		<tag k="natural" v="hill" />
		<tag k="place" v="locality" />
		<tag k="ssr:stedsnr" v="131937" />
	</node>
	<node lat="61.89693888872926" lon="9.184152771436539" id="-42684">
		<tag k="alt_name" v="Rundhøi" />
		<tag k="fixme" v="consider natural=peak for the most distinct mountains in the district" />
		<tag k="name" v="Rundhøe" />
		<tag k="natural" v="hill" />
		<tag k="place" v="locality" />
		<tag k="ssr:stedsnr" v="132330" />
	</node>
	<node lat="61.88629722012472" lon="9.052136108797752" id="-42685">
		<tag k="name" v="Finngjelet" />
		<tag k="natural" v="valley" />
		<tag k="place" v="locality" />
		<tag k="ssr:stedsnr" v="132332" />
	</node>
	<node lat="61.436252775675875" lon="8.554908339666566" id="-42691">
		<tag k="fixme" v="consider natural=peak for the most distinct mountains in the district" />
		<tag k="name" v="Nørdre Knutsholstinden" />
		<tag k="natural" v="hill" />
		<tag k="place" v="locality" />
		<tag k="ssr:stedsnr" v="147251" />
	</node>
	<node lat="61.87658055241512" lon="8.971550002936437" id="-42700">
		<tag k="alt_name" v="Rupslekkein" />
		<tag k="name" v="Rupslekkene" />
		<tag k="natural" v="ridge" />
		<tag k="place" v="locality" />
		<tag k="ssr:stedsnr" v="162061" />
	</node>
	<node lat="61.733488889346056" lon="9.079774991206131" id="-42702">
		<tag k="name" v="Blessomkalvkvee" />
		<tag k="natural" v="slope" />
		<tag k="place" v="locality" />
		<tag k="ssr:stedsnr" v="162290" />
	</node>
	<node lat="61.734424995760875" lon="9.088063885946005" id="-42703">
		<tag k="name" v="Keilie" />
		<tag k="natural" v="slope" />
		<tag k="place" v="locality" />
		<tag k="ssr:stedsnr" v="162293" />
	</node>
	<node lat="61.80983611236505" lon="9.065555561719586" id="-42705">
		<tag k="name" v="Legohaugen" />
		<tag k="natural" v="hill" />
		<tag k="place" v="locality" />
		<tag k="ssr:stedsnr" v="162175" />
	</node>
	<node lat="61.87357778087988" lon="9.195144449145356" id="-42707">
		<tag k="name" v="Lurvåthaugen" />
		<tag k="natural" v="hill" />
		<tag k="place" v="locality" />
		<tag k="ssr:stedsnr" v="162832" />
	</node>
	<node lat="61.812263887586916" lon="9.286922223001131" id="-42708">
		<tag k="name" v="Kolbotten" />
		<tag k="place" v="locality" />
		<tag k="ssr:stedsnr" v="162895" />
	</node>
	<node lat="61.833066669839965" lon="9.336372223846418" id="-42713">
		<tag k="name" v="Veslesæterlia" />
		<tag k="natural" v="slope" />
		<tag k="place" v="locality" />
		<tag k="ssr:stedsnr" v="171949" />
	</node>
	<node lat="61.46963333210981" lon="8.708230553285496" id="-42717">
		<tag k="fixme" v="consider natural=peak for the most distinct mountains in the district" />
		<tag k="name" v="Bukkehåmåren" />
		<tag k="natural" v="hill" />
		<tag k="place" v="locality" />
		<tag k="ssr:stedsnr" v="190785" />
	</node>
	<node lat="61.47980000442258" lon="8.649094439163157" id="-42718">
		<tag k="fixme" v="consider natural=peak for the most distinct mountains in the district" />
		<tag k="name" v="Memuruhåmåren" />
		<tag k="natural" v="hill" />
		<tag k="place" v="locality" />
		<tag k="ssr:stedsnr" v="190794" />
	</node>
	<node lat="61.911711108583056" lon="8.950616659098852" id="-42721">
		<tag k="alt_name" v="Nordheringslie" />
		<tag k="name" v="Nordheringslii" />
		<tag k="natural" v="slope" />
		<tag k="place" v="locality" />
		<tag k="ssr:stedsnr" v="192178" />
	</node>
	<node lat="61.603300001041816" lon="8.759425003181498" id="-42727">
		<tag k="fixme" v="consider natural=peak for the most distinct mountains in the district" />
		<tag k="name" v="Nautgardstinden" />
		<tag k="natural" v="hill" />
		<tag k="place" v="locality" />
		<tag k="ssr:stedsnr" v="192925" />
	</node>
	<node lat="61.54270277440312" lon="8.749055556778197" id="-42728">
		<tag k="fixme" v="consider natural=peak for the most distinct mountains in the district" />
		<tag k="name" v="Bessfjellet" />
		<tag k="natural" v="hill" />
		<tag k="place" v="locality" />
		<tag k="ssr:stedsnr" v="192933" />
	</node>
	<node lat="61.5471833305151" lon="8.920999996603793" id="-42733">
		<tag k="alt_name" v="Gålhaugen, øvre" />
		<tag k="name" v="Øvre Gålhaugen" />
		<tag k="natural" v="hill" />
		<tag k="place" v="locality" />
		<tag k="ssr:stedsnr" v="192866" />
	</node>
	<node lat="61.541280552345356" lon="8.64226110380055" id="-42737">
		<tag k="name" v="Russbakkan" />
		<tag k="natural" v="slope" />
		<tag k="place" v="locality" />
		<tag k="ssr:stedsnr" v="192942" />
	</node>
	<node lat="61.72732500348148" lon="8.981088883358119" id="-42740">
		<tag k="name" v="Fuglesætermoen" />
		<tag k="place" v="locality" />
		<tag k="ssr:stedsnr" v="192961" />
	</node>
	<node lat="61.98430555863954" lon="8.926894435752637" id="-42747">
		<tag k="name" v="Rundhøholet" />
		<tag k="natural" v="valley" />
		<tag k="place" v="locality" />
		<tag k="ssr:stedsnr" v="193162" />
	</node>
	<node lat="61.95149166776745" lon="8.929913886850061" id="-42748">
		<tag k="loc_name" v="Stordokkje" />
		<tag k="name" v="Stordokki" />
		<tag k="natural" v="valley" />
		<tag k="place" v="locality" />
		<tag k="ssr:stedsnr" v="193163" />
	</node>
	<node lat="61.96478611395078" lon="9.031788887430215" id="-42749">
		<tag k="alt_name" v="Raubershøe" />
		<tag k="fixme" v="consider natural=peak for the most distinct mountains in the district" />
		<tag k="name" v="Raudbergshøe" />
		<tag k="natural" v="hill" />
		<tag k="place" v="locality" />
		<tag k="ssr:stedsnr" v="193169" />
	</node>
	<node lat="61.95805277630388" lon="9.064955556578182" id="-42750">
		<tag k="fixme" v="consider natural=peak for the most distinct mountains in the district" />
		<tag k="name" v="Veslhamnfjellet" />
		<tag k="natural" v="hill" />
		<tag k="place" v="locality" />
		<tag k="ssr:stedsnr" v="193176" />
	</node>
	<node lat="61.44547500073498" lon="8.650527769939984" id="-42752">
		<tag k="fixme" v="consider natural=peak for the most distinct mountains in the district" />
		<tag k="name" v="Steinflytinden" />
		<tag k="natural" v="hill" />
		<tag k="place" v="locality" />
		<tag k="ssr:stedsnr" v="208279" />
	</node>
	<node lat="61.84590277829492" lon="8.876458327598922" id="-42753">
		<tag k="name" v="Byrbergje" />
		<tag k="natural" v="cliff" />
		<tag k="ssr:stedsnr" v="210235" />
	</node>
	<node lat="61.84695833266542" lon="8.899908324227525" id="-42754">
		<tag k="name" v="Neselie" />
		<tag k="natural" v="slope" />
		<tag k="place" v="locality" />
		<tag k="ssr:stedsnr" v="211330" />
	</node>
	<node lat="61.40307500276416" lon="8.511675000509708" id="-42755">
		<tag k="fixme" v="consider natural=peak for the most distinct mountains in the district" />
		<tag k="name" v="Søre Svartdalspiggen" />
		<tag k="natural" v="hill" />
		<tag k="place" v="locality" />
		<tag k="ssr:stedsnr" v="269275" />
	</node>
	<node lat="61.901763889201725" lon="9.068594443106774" id="-42758">
		<tag k="name" v="Råstadlie" />
		<tag k="natural" v="slope" />
		<tag k="place" v="locality" />
		<tag k="ssr:stedsnr" v="282024" />
	</node>
	<node lat="61.964475001991076" lon="8.968133325328948" id="-42766">
		<tag k="name" v="Kleberflye" />
		<tag k="natural" v="hill" />
		<tag k="place" v="locality" />
		<tag k="ssr:stedsnr" v="283470" />
	</node>
	<node lat="61.94510833460571" lon="9.04235555116773" id="-42769">
		<tag k="fixme" v="consider natural=peak for the most distinct mountains in the district" />
		<tag k="name" v="Dalbråte" />
		<tag k="natural" v="hill" />
		<tag k="place" v="locality" />
		<tag k="ssr:stedsnr" v="284123" />
	</node>
	<node lat="61.77899166959815" lon="9.05352777173501" id="-42772">
		<tag k="name" v="Navlin" />
		<tag k="place" v="locality" />
		<tag k="ssr:stedsnr" v="284380" />
	</node>
	<node lat="61.82065833126326" lon="8.979899992344652" id="-42780">
		<tag k="alt_name" v="Grovbakkin" />
		<tag k="name" v="Grovbakken" />
		<tag k="natural" v="slope" />
		<tag k="place" v="locality" />
		<tag k="ssr:stedsnr" v="296453" />
	</node>
	<node lat="61.82948333243369" lon="8.87395833321165" id="-42781">
		<tag k="name" v="Svarttjønnknausen" />
		<tag k="natural" v="hill" />
		<tag k="place" v="locality" />
		<tag k="ssr:stedsnr" v="297449" />
	</node>
	<node lat="61.444719446004264" lon="8.646450003127342" id="-42783">
		<tag k="fixme" v="consider natural=peak for the most distinct mountains in the district" />
		<tag k="name" v="Tjønnholstinden" />
		<tag k="natural" v="hill" />
		<tag k="place" v="locality" />
		<tag k="ssr:stedsnr" v="311166" />
	</node>
	<node lat="61.477738886187126" lon="8.85551110337311" id="-42784">
		<tag k="alt_name" v="Målflya" />
		<tag k="name" v="Molflyin" />
		<tag k="natural" v="slope" />
		<tag k="place" v="locality" />
		<tag k="ssr:stedsnr" v="311314" />
	</node>
	<node lat="61.78825555881973" lon="9.098594445289399" id="-42787">
		<tag k="alt_name" v="Reiggehaugen" />
		<tag k="name" v="Raggehaugen" />
		<tag k="natural" v="hill" />
		<tag k="place" v="locality" />
		<tag k="ssr:stedsnr" v="313419" />
	</node>
	<node lat="61.83444722618306" lon="8.978408326342022" id="-42792">
		<tag k="fixme" v="consider natural=peak for the most distinct mountains in the district" />
		<tag k="name" v="Kampen" />
		<tag k="natural" v="hill" />
		<tag k="place" v="locality" />
		<tag k="ssr:stedsnr" v="313252" />
	</node>
	<node lat="61.987152773366205" lon="8.891541669687497" id="-42795">
		<tag k="name" v="Gravdalen" />
		<tag k="natural" v="valley" />
		<tag k="place" v="locality" />
		<tag k="ssr:stedsnr" v="314179" />
	</node>
	<node lat="61.6496666653334" lon="9.040652773730331" id="-42796">
		<tag k="fixme" v="consider natural=peak for the most distinct mountains in the district" />
		<tag k="name" v="Beggil" />
		<tag k="natural" v="hill" />
		<tag k="place" v="locality" />
		<tag k="ssr:stedsnr" v="313786" />
	</node>
	<node lat="61.93266667017998" lon="9.006363896233694" id="-42805">
		<tag k="name" v="Jønnås" />
		<tag k="natural" v="hill" />
		<tag k="place" v="locality" />
		<tag k="ssr:stedsnr" v="314162" />
	</node>
	<node lat="61.96222500164671" lon="9.082166672895966" id="-42810">
		<tag k="fixme" v="consider natural=peak for the most distinct mountains in the district" />
		<tag k="name" v="Storhamnfjellet" />
		<tag k="natural" v="hill" />
		<tag k="place" v="locality" />
		<tag k="ssr:stedsnr" v="314191" />
	</node>
	<node lat="61.89897499927088" lon="9.256980548711768" id="-42813">
		<tag k="name" v="Ådalen" />
		<tag k="natural" v="valley" />
		<tag k="place" v="locality" />
		<tag k="ssr:stedsnr" v="314991" />
	</node>
	<node lat="61.8088083318386" lon="9.327647227532465" id="-42815">
		<tag k="name" v="Jukulbergje" />
		<tag k="natural" v="hill" />
		<tag k="place" v="locality" />
		<tag k="ssr:stedsnr" v="314856" />
	</node>
	<node lat="61.84483055769989" lon="9.292713889824451" id="-42816">
		<tag k="name" v="Svartdalen" />
		<tag k="natural" v="valley" />
		<tag k="place" v="locality" />
		<tag k="ssr:stedsnr" v="314933" />
	</node>
	<node lat="61.8033305588292" lon="9.317269451909164" id="-42817">
		<tag k="name" v="Tolstadmoan" />
		<tag k="place" v="locality" />
		<tag k="ssr:stedsnr" v="325849" />
	</node>
	<node lat="61.605002778559296" lon="8.477502784998814" id="-42818">
		<tag k="name" v="Jotunheimen" />
		<tag k="natural" v="mountain_range" />
		<tag k="ssr:stedsnr" v="328584" />
	</node>
	<node lat="61.538061111906586" lon="8.624324999159242" id="-42819">
		<tag k="fixme" v="consider natural=peak for the most distinct mountains in the district" />
		<tag k="name" v="Austre Surtningssue" />
		<tag k="natural" v="hill" />
		<tag k="place" v="locality" />
		<tag k="ssr:stedsnr" v="329358" />
	</node>
	<node lat="61.83357500101022" lon="9.00176944744848" id="-42831">
		<tag k="name" v="Bakkehøe" />
		<tag k="natural" v="hill" />
		<tag k="place" v="locality" />
		<tag k="ssr:stedsnr" v="344143" />
	</node>
	<node lat="61.85848610691623" lon="8.933552771630506" id="-42832">
		<tag k="name" v="Skreppholet" />
		<tag k="natural" v="valley" />
		<tag k="place" v="locality" />
		<tag k="ssr:stedsnr" v="344077" />
	</node>
	<node lat="61.80529444823592" lon="9.016527785942973" id="-42833">
		<tag k="alt_name" v="Sandrandin" />
		<tag k="name" v="Sandranden" />
		<tag k="place" v="locality" />
		<tag k="ssr:stedsnr" v="344184" />
	</node>
	<node lat="61.969286111548875" lon="8.96931110298036" id="-42836">
		<tag k="name" v="Grøndekkje" />
		<tag k="place" v="locality" />
		<tag k="ssr:stedsnr" v="344557" />
	</node>
	<node lat="61.81927777791427" lon="9.265194440970472" id="-42843">
		<tag k="name" v="Djupdalane" />
		<tag k="natural" v="valley" />
		<tag k="place" v="locality" />
		<tag k="ssr:stedsnr" v="344937" />
	</node>
	<node lat="61.813555553763685" lon="9.25364721499976" id="-42844">
		<tag k="name" v="Flatbrekka" />
		<tag k="place" v="locality" />
		<tag k="ssr:stedsnr" v="344899" />
	</node>
	<node lat="61.881388892070156" lon="8.997163888441163" id="-42846">
		<tag k="name" v="Hovdan" />
		<tag k="natural" v="ridge" />
		<tag k="place" v="locality" />
		<tag k="ssr:stedsnr" v="349794" />
	</node>
	<node lat="61.798952775591886" lon="9.204222220247294" id="-42849">
		<tag k="name" v="Breinnun" />
		<tag k="natural" v="slope" />
		<tag k="place" v="locality" />
		<tag k="ssr:stedsnr" v="352550" />
	</node>
	<node lat="61.94068055623943" lon="8.901227781128464" id="-42850">
		<tag k="name" v="Gjerdingslie" />
		<tag k="natural" v="slope" />
		<tag k="place" v="locality" />
		<tag k="ssr:stedsnr" v="357327" />
	</node>
	<node lat="61.444361107161484" lon="8.825677770308074" id="-42853">
		<tag k="alt_name" v="Brurskardknappen, s" />
		<tag k="fixme" v="consider natural=peak for the most distinct mountains in the district" />
		<tag k="name" v="Søre Brurskardknappen" />
		<tag k="natural" v="hill" />
		<tag k="place" v="locality" />
		<tag k="ssr:stedsnr" v="372142" />
	</node>
	<node lat="61.838777776977835" lon="9.109944438792404" id="-42854">
		<tag k="alt_name" v="Bakselabakkjin" />
		<tag k="name" v="Bakselabakken" />
		<tag k="natural" v="slope" />
		<tag k="place" v="locality" />
		<tag k="ssr:stedsnr" v="373243" />
	</node>
	<node lat="61.834755557751194" lon="9.040186103090027" id="-42855">
		<tag k="alt_name" v="Strondsæterhøi" />
		<tag k="fixme" v="consider natural=peak for the most distinct mountains in the district" />
		<tag k="name" v="Strondsæterhøe" />
		<tag k="natural" v="hill" />
		<tag k="place" v="locality" />
		<tag k="ssr:stedsnr" v="373249" />
	</node>
	<node lat="61.81819166879282" lon="8.889216662871528" id="-42858">
		<tag k="alt_name" v="Bjørnskardryggen" />
		<tag k="fixme" v="consider natural=peak for the most distinct mountains in the district" />
		<tag k="name" v="Bjønnskardryggen" />
		<tag k="natural" v="hill" />
		<tag k="place" v="locality" />
		<tag k="ssr:stedsnr" v="373506" />
	</node>
	<node lat="61.58694166275914" lon="8.970780563112564" id="-42859">
		<tag k="name" v="Stuttgonglie" />
		<tag k="natural" v="slope" />
		<tag k="place" v="locality" />
		<tag k="ssr:stedsnr" v="373798" />
	</node>
	<node lat="61.850502777242994" lon="9.063533328574886" id="-42861">
		<tag k="alt_name" v="Strondlie" />
		<tag k="name" v="Strondlii" />
		<tag k="natural" v="slope" />
		<tag k="place" v="locality" />
		<tag k="ssr:stedsnr" v="374294" />
	</node>
	<node lat="61.89771944379771" lon="9.146386115796055" id="-42862">
		<tag k="fixme" v="consider natural=peak for the most distinct mountains in the district" />
		<tag k="name" v="Vole" />
		<tag k="natural" v="hill" />
		<tag k="place" v="locality" />
		<tag k="ssr:stedsnr" v="374375" />
	</node>
	<node lat="61.59535000089465" lon="8.983958339638434" id="-42870">
		<tag k="fixme" v="consider natural=peak for the most distinct mountains in the district" />
		<tag k="name" v="Stuttgongkampen" />
		<tag k="natural" v="hill" />
		<tag k="place" v="locality" />
		<tag k="ssr:stedsnr" v="374818" />
	</node>
	<node lat="61.55984999662224" lon="9.17281110507946" id="-42873">
		<tag k="alt_name" v="Flya" />
		<tag k="name" v="Flyi" />
		<tag k="natural" v="slope" />
		<tag k="place" v="locality" />
		<tag k="ssr:stedsnr" v="374857" />
	</node>
	<node lat="61.53796666375573" lon="8.861627780879106" id="-42874">
		<tag k="fixme" v="consider natural=peak for the most distinct mountains in the district" />
		<tag k="name" v="Besstrondrundhøe" />
		<tag k="natural" v="hill" />
		<tag k="place" v="locality" />
		<tag k="ssr:stedsnr" v="374868" />
	</node>
	<node lat="61.50066389003524" lon="8.709586110727857" id="-42875">
		<tag k="name" v="Bandet" />
		<tag k="natural" v="slope" />
		<tag k="place" v="locality" />
		<tag k="ssr:stedsnr" v="374966" />
	</node>
	<node lat="61.86126110977625" lon="9.24905277003267" id="-42877">
		<tag k="name" v="Vågåruste" />
		<tag k="natural" v="valley" />
		<tag k="place" v="locality" />
		<tag k="ssr:stedsnr" v="374975" />
	</node>
	<node lat="61.693505557609704" lon="9.086699993877424" id="-42878">
		<tag k="alt_name" v="Hovdamoan;Hovdasmoene" />
		<tag k="name" v="Hovdasmoan" />
		<tag k="place" v="locality" />
		<tag k="ssr:stedsnr" v="374989" />
	</node>
	<node lat="61.89981111305721" lon="9.232597228821104" id="-42879">
		<tag k="name" v="Salknappan" />
		<tag k="natural" v="hill" />
		<tag k="place" v="locality" />
		<tag k="ssr:stedsnr" v="374992" />
	</node>
	<node lat="61.58512500224016" lon="8.779905561487187" id="-42881">
		<tag k="name" v="Holet" />
		<tag k="natural" v="valley" />
		<tag k="place" v="locality" />
		<tag k="ssr:stedsnr" v="374919" />
	</node>
	<node lat="61.59506111443165" lon="8.822124994715308" id="-42882">
		<tag k="fixme" v="consider natural=peak for the most distinct mountains in the district" />
		<tag k="name" v="Russlirundhøe" />
		<tag k="natural" v="hill" />
		<tag k="place" v="locality" />
		<tag k="ssr:stedsnr" v="374927" />
	</node>
	<node lat="61.51503610849794" lon="8.64805277486051" id="-42883">
		<tag k="alt_name" v="Russglopet, nedre" />
		<tag k="name" v="Nedre Russglopet" />
		<tag k="natural" v="valley" />
		<tag k="place" v="locality" />
		<tag k="ssr:stedsnr" v="374928" />
	</node>
	<node lat="61.95510833781939" lon="9.063825007078234" id="-42884">
		<tag k="name" v="Jønndalen" />
		<tag k="natural" v="valley" />
		<tag k="place" v="locality" />
		<tag k="ssr:stedsnr" v="375149" />
	</node>
	<node lat="61.863911112523" lon="8.950027769639519" id="-42887">
		<tag k="name" v="Tassmyrhaugen" />
		<tag k="natural" v="hill" />
		<tag k="place" v="locality" />
		<tag k="ssr:stedsnr" v="375282" />
	</node>
	<node lat="61.82863889129069" lon="9.317236105346572" id="-42889">
		<tag k="name" v="Trongdalen" />
		<tag k="natural" v="valley" />
		<tag k="place" v="locality" />
		<tag k="ssr:stedsnr" v="400558" />
	</node>
	<node lat="61.86734722483901" lon="8.906366672257478" id="-42893">
		<tag k="fixme" v="consider natural=saddle" />
		<tag k="name" v="Styggeholet" />
		<tag k="natural" v="valley" />
		<tag k="place" v="locality" />
		<tag k="ssr:stedsnr" v="403068" />
	</node>
	<node lat="61.82747500416612" lon="9.05541111946202" id="-42898">
		<tag k="name" v="Stålhaugen" />
		<tag k="natural" v="hill" />
		<tag k="place" v="locality" />
		<tag k="ssr:stedsnr" v="405131" />
	</node>
	<node lat="61.7110972200579" lon="9.054844448186913" id="-42902">
		<tag k="name" v="Brattbakken" />
		<tag k="natural" v="slope" />
		<tag k="place" v="locality" />
		<tag k="ssr:stedsnr" v="405481" />
	</node>
	<node lat="61.746116664577386" lon="9.048786115706736" id="-42903">
		<tag k="name" v="Mjølkedalen" />
		<tag k="natural" v="valley" />
		<tag k="place" v="locality" />
		<tag k="ssr:stedsnr" v="405487" />
	</node>
	<node lat="61.80749999689287" lon="9.389541675471193" id="-42906">
		<tag k="name" v="Gråranden" />
		<tag k="natural" v="slope" />
		<tag k="place" v="locality" />
		<tag k="ssr:stedsnr" v="413543" />
	</node>
	<node lat="61.841672221219376" lon="9.312541665102975" id="-42910">
		<tag k="fixme" v="consider natural=saddle" />
		<tag k="name" v="Kampan" />
		<tag k="natural" v="valley" />
		<tag k="place" v="locality" />
		<tag k="ssr:stedsnr" v="414934" />
	</node>
	<node lat="61.93075555707455" lon="8.95384445355037" id="-42914">
		<tag k="name" v="Skålberget" />
		<tag k="natural" v="hill" />
		<tag k="place" v="locality" />
		<tag k="ssr:stedsnr" v="418326" />
	</node>
	<node lat="61.81984999900147" lon="8.908361112035942" id="-42919">
		<tag k="alt_name" v="Bjørnskardet" />
		<tag k="fixme" v="consider natural=saddle" />
		<tag k="name" v="Bjønnskardet" />
		<tag k="natural" v="valley" />
		<tag k="place" v="locality" />
		<tag k="ssr:stedsnr" v="434460" />
	</node>
	<node lat="61.75685278047206" lon="9.086883330049588" id="-42926">
		<tag k="name" v="Blæsterhaugen" />
		<tag k="natural" v="hill" />
		<tag k="place" v="locality" />
		<tag k="ssr:stedsnr" v="435446" />
	</node>
	<node lat="61.76772221915079" lon="9.030466671382861" id="-42928">
		<tag k="name" v="Hesthaugen" />
		<tag k="natural" v="hill" />
		<tag k="place" v="locality" />
		<tag k="ssr:stedsnr" v="435465" />
	</node>
	<node lat="61.81876944602735" lon="9.29786665877765" id="-42930">
		<tag k="name" v="Sveahaugen" />
		<tag k="natural" v="hill" />
		<tag k="place" v="locality" />
		<tag k="ssr:stedsnr" v="435787" />
	</node>
	<node lat="61.65088611327455" lon="8.871274995285416" id="-42931">
		<tag k="fixme" v="consider natural=peak for the most distinct mountains in the district" />
		<tag k="name" v="Svartnubben" />
		<tag k="natural" v="hill" />
		<tag k="place" v="locality" />
		<tag k="ssr:stedsnr" v="435788" />
	</node>
	<node lat="61.95721388612356" lon="9.000436104568765" id="-42944">
		<tag k="alt_name" v="Dalgrove" />
		<tag k="name" v="Dalgrovi" />
		<tag k="natural" v="valley" />
		<tag k="place" v="locality" />
		<tag k="ssr:stedsnr" v="436175" />
	</node>
	<node lat="61.45442777725882" lon="8.940200002410291" id="-42949">
		<tag k="name" v="Leirflye" />
		<tag k="place" v="locality" />
		<tag k="ssr:stedsnr" v="493244" />
	</node>
	<node lat="61.794350000858266" lon="9.297950004647465" id="-42957">
		<tag k="name" v="Ottadalen" />
		<tag k="natural" v="valley" />
		<tag k="place" v="locality" />
		<tag k="ssr:stedsnr" v="495867" />
	</node>
	<node lat="61.52762500097834" lon="8.93115832686897" id="-42959">
		<tag k="name" v="Svartberget" />
		<tag k="natural" v="hill" />
		<tag k="place" v="locality" />
		<tag k="ssr:stedsnr" v="495880" />
	</node>
	<node lat="61.71500277869608" lon="8.929272228711174" id="-42962">
		<tag k="name" v="Larsbulie" />
		<tag k="natural" v="slope" />
		<tag k="place" v="locality" />
		<tag k="ssr:stedsnr" v="495972" />
	</node>
	<node lat="61.937561114508725" lon="9.0352277721516" id="-42964">
		<tag k="alt_name" v="Fjelltithøi" />
		<tag k="fixme" v="consider natural=peak for the most distinct mountains in the district" />
		<tag k="name" v="Fjelltithøe" />
		<tag k="natural" v="hill" />
		<tag k="place" v="locality" />
		<tag k="ssr:stedsnr" v="496131" />
	</node>
	<node lat="61.57725555828438" lon="8.545358332582856" id="-42968">
		<tag k="fixme" v="consider natural=peak for the most distinct mountains in the district" />
		<tag k="name" v="Nørdre Styggehøbreatinden" />
		<tag k="natural" v="hill" />
		<tag k="place" v="locality" />
		<tag k="ssr:stedsnr" v="495930" />
	</node>
	<node lat="61.73631666513962" lon="9.008813881146633" id="-42970">
		<tag k="alt_name" v="Grothovda" />
		<tag k="fixme" v="consider natural=peak for the most distinct mountains in the district" />
		<tag k="name" v="Grjothovda" />
		<tag k="natural" v="hill" />
		<tag k="place" v="locality" />
		<tag k="ssr:stedsnr" v="495952" />
	</node>
	<node lat="61.95795277372713" lon="8.951819439171599" id="-42971">
		<tag k="fixme" v="consider natural=peak for the most distinct mountains in the district" />
		<tag k="name" v="Svarthovda" />
		<tag k="natural" v="hill" />
		<tag k="place" v="locality" />
		<tag k="ssr:stedsnr" v="496194" />
	</node>
	<node lat="61.902111110943785" lon="8.935997222330629" id="-42972">
		<tag k="fixme" v="consider natural=peak for the most distinct mountains in the district" />
		<tag k="name" v="Ruphøe" />
		<tag k="natural" v="hill" />
		<tag k="place" v="locality" />
		<tag k="ssr:stedsnr" v="496399" />
	</node>
	<node lat="62.00813611364671" lon="8.983075002812758" id="-42973">
		<tag k="loc_name" v="Breijordet" />
		<tag k="name" v="Breidjordet" />
		<tag k="place" v="locality" />
		<tag k="ssr:stedsnr" v="496547" />
	</node>
	<node lat="61.86784444075355" lon="9.01784722951614" id="-42978">
		<tag k="name" v="Vistebergje" />
		<tag k="natural" v="hill" />
		<tag k="place" v="locality" />
		<tag k="ssr:stedsnr" v="526232" />
	</node>
	<node lat="61.83494444451658" lon="9.054663886401238" id="-42981">
		<tag k="fixme" v="consider natural=peak for the most distinct mountains in the district" />
		<tag k="name" v="Grothøe" />
		<tag k="natural" v="hill" />
		<tag k="place" v="locality" />
		<tag k="ssr:stedsnr" v="526131" />
	</node>
	<node lat="61.857791668277095" lon="9.121477769073854" id="-42987">
		<tag k="name" v="Bergendberget" />
		<tag k="natural" v="hill" />
		<tag k="place" v="locality" />
		<tag k="ssr:stedsnr" v="526958" />
	</node>
	<node lat="61.42592499699133" lon="8.580858333805145" id="-42998">
		<tag k="name" v="Knutsholet" />
		<tag k="natural" v="valley" />
		<tag k="place" v="locality" />
		<tag k="ssr:stedsnr" v="553128" />
	</node>
	<node lat="61.82583055954172" lon="9.171994445458267" id="-43001">
		<tag k="fixme" v="consider natural=peak for the most distinct mountains in the district" />
		<tag k="name" v="Olashovda" />
		<tag k="natural" v="hill" />
		<tag k="place" v="locality" />
		<tag k="ssr:stedsnr" v="555440" />
	</node>
	<node lat="61.81629722604409" lon="9.011138897185988" id="-43003">
		<tag k="name" v="Brennhaug" />
		<tag k="natural" v="hill" />
		<tag k="place" v="locality" />
		<tag k="ssr:stedsnr" v="555421" />
	</node>
	<node lat="61.58075555319803" lon="9.067950007690841" id="-43006">
		<tag k="fixme" v="consider natural=peak for the most distinct mountains in the district" />
		<tag k="name" v="Refjellet" />
		<tag k="natural" v="hill" />
		<tag k="place" v="locality" />
		<tag k="ssr:stedsnr" v="555801" />
	</node>
	<node lat="61.706950001857244" lon="8.912308331615021" id="-43007">
		<tag k="name" v="Rindtjønngjelet" />
		<tag k="natural" v="valley" />
		<tag k="place" v="locality" />
		<tag k="ssr:stedsnr" v="555994" />
	</node>
	<node lat="61.52973055169313" lon="8.960505546540022" id="-43009">
		<tag k="name" v="Grauthaugen" />
		<tag k="natural" v="hill" />
		<tag k="place" v="locality" />
		<tag k="ssr:stedsnr" v="555837" />
	</node>
	<node lat="61.784902775611165" lon="9.034977779889578" id="-43017">
		<tag k="alt_name" v="Heimlie" />
		<tag k="name" v="Heimlii" />
		<tag k="natural" v="slope" />
		<tag k="place" v="locality" />
		<tag k="ssr:stedsnr" v="556461" />
	</node>
	<node lat="61.62224999598718" lon="9.093308337853658" id="-43022">
		<tag k="name" v="Sjugurdsjødalen" />
		<tag k="natural" v="valley" />
		<tag k="place" v="locality" />
		<tag k="ssr:stedsnr" v="556791" />
	</node>
	<node lat="61.7440166693314" lon="9.060541668147145" id="-43023">
		<tag k="name" v="Kalvdalen" />
		<tag k="natural" v="valley" />
		<tag k="place" v="locality" />
		<tag k="ssr:stedsnr" v="556942" />
	</node>
	<node lat="61.73237778182269" lon="9.007999997875551" id="-43028">
		<tag k="name" v="Ørnberget" />
		<tag k="natural" v="hill" />
		<tag k="place" v="locality" />
		<tag k="ssr:stedsnr" v="556957" />
	</node>
	<node lat="61.876108331026124" lon="9.315625005480163" id="-43029">
		<tag k="name" v="Tronddalen" />
		<tag k="natural" v="valley" />
		<tag k="place" v="locality" />
		<tag k="ssr:stedsnr" v="556958" />
	</node>
	<node lat="61.56656111052442" lon="8.803838883102339" id="-43031">
		<tag k="fixme" v="consider natural=peak for the most distinct mountains in the district" />
		<tag k="name" v="Russhellaren" />
		<tag k="natural" v="hill" />
		<tag k="place" v="locality" />
		<tag k="ssr:stedsnr" v="556901" />
	</node>
	<node lat="61.56750833186423" lon="8.555949992228987" id="-43032">
		<tag k="fixme" v="consider natural=peak for the most distinct mountains in the district" />
		<tag k="name" v="Søraustre Styggehøbreatinden" />
		<tag k="natural" v="hill" />
		<tag k="place" v="locality" />
		<tag k="ssr:stedsnr" v="572380" />
	</node>
	<node lat="61.8296500043125" lon="9.329241676018318" id="-43033">
		<tag k="name" v="Svarttjønnbergje" />
		<tag k="natural" v="hill" />
		<tag k="place" v="locality" />
		<tag k="ssr:stedsnr" v="582545" />
	</node>
	<node lat="61.88686111140474" lon="9.02726944184709" id="-43038">
		<tag k="name" v="Kleivbakkein" />
		<tag k="natural" v="slope" />
		<tag k="place" v="locality" />
		<tag k="ssr:stedsnr" v="585036" />
	</node>
	<node lat="61.86037777496242" lon="8.898669447929018" id="-43039">
		<tag k="name" v="Turrslette" />
		<tag k="place" v="locality" />
		<tag k="ssr:stedsnr" v="585086" />
	</node>
	<node lat="61.87013332890276" lon="9.152161117516716" id="-43042">
		<tag k="name" v="Jukulen" />
		<tag k="place" v="locality" />
		<tag k="ssr:stedsnr" v="585927" />
	</node>
	<node lat="61.84585555668015" lon="9.050969446541693" id="-43047">
		<tag k="name" v="Risbrothaugen" />
		<tag k="natural" v="hill" />
		<tag k="place" v="locality" />
		<tag k="ssr:stedsnr" v="587148" />
	</node>
	<node lat="61.810291670904874" lon="9.32821388039718" id="-43060">
		<tag k="fixme" v="consider natural=peak for the most distinct mountains in the district" />
		<tag k="name" v="Jukulberget" />
		<tag k="natural" v="hill" />
		<tag k="place" v="locality" />
		<tag k="ssr:stedsnr" v="595624" />
	</node>
	<node lat="61.83606944099522" lon="9.175752773463998" id="-43071">
		<tag k="fixme" v="consider natural=peak for the most distinct mountains in the district" />
		<tag k="name" v="Steinhøe" />
		<tag k="natural" v="hill" />
		<tag k="place" v="locality" />
		<tag k="ssr:stedsnr" v="616235" />
	</node>
	<node lat="61.58996110784252" lon="9.07863055653303" id="-43074">
		<tag k="fixme" v="consider natural=peak for the most distinct mountains in the district" />
		<tag k="name" v="Semelhøe" />
		<tag k="natural" v="hill" />
		<tag k="place" v="locality" />
		<tag k="ssr:stedsnr" v="616823" />
	</node>
	<node lat="61.522455555550465" lon="8.628905548799656" id="-43075">
		<tag k="alt_name" v="Russglopet, øvre" />
		<tag k="name" v="Øvre Russglopet" />
		<tag k="natural" v="valley" />
		<tag k="place" v="locality" />
		<tag k="ssr:stedsnr" v="616948" />
	</node>
	<node lat="61.50421667070351" lon="8.731955546574657" id="-43077">
		<tag k="name" v="Besseggen" />
		<tag k="natural" v="ridge" />
		<tag k="place" v="locality" />
		<tag k="ssr:stedsnr" v="616966" />
	</node>
	<node lat="61.726827773664205" lon="9.021963892552982" id="-43078">
		<tag k="alt_name" v="Grothovdlie" />
		<tag k="name" v="Grjothovdlii" />
		<tag k="natural" v="slope" />
		<tag k="place" v="locality" />
		<tag k="ssr:stedsnr" v="616969" />
	</node>
	<node lat="61.65187777908207" lon="9.017227775288301" id="-43080">
		<tag k="name" v="Veomoan" />
		<tag k="place" v="locality" />
		<tag k="ssr:stedsnr" v="616772" />
	</node>
	<node lat="61.91482222127099" lon="8.981222217277619" id="-43087">
		<tag k="name" v="Åmothaugen" />
		<tag k="natural" v="hill" />
		<tag k="place" v="locality" />
		<tag k="ssr:stedsnr" v="617183" />
	</node>
	<node lat="61.760188891600386" lon="9.057586116767496" id="-43092">
		<tag k="alt_name" v="Geithøi" />
		<tag k="fixme" v="consider natural=peak for the most distinct mountains in the district" />
		<tag k="name" v="Geithøe" />
		<tag k="natural" v="hill" />
		<tag k="place" v="locality" />
		<tag k="ssr:stedsnr" v="617422" />
	</node>
	<node lat="61.403050004338894" lon="8.584561104556855" id="-43096">
		<tag k="fixme" v="consider natural=peak for the most distinct mountains in the district" />
		<tag k="name" v="Svartdalsbandet" />
		<tag k="natural" v="hill" />
		<tag k="place" v="locality" />
		<tag k="ssr:stedsnr" v="632270" />
	</node>
	<node lat="61.96123610962539" lon="9.000327779321886" id="-43102">
		<tag k="name" v="Spelmannshaugen" />
		<tag k="natural" v="hill" />
		<tag k="place" v="locality" />
		<tag k="ssr:stedsnr" v="647017" />
	</node>
	<node lat="61.867933330100676" lon="9.002094446781758" id="-43107">
		<tag k="name" v="Mork" />
		<tag k="natural" v="hill" />
		<tag k="place" v="locality" />
		<tag k="ssr:stedsnr" v="647247" />
	</node>
	<node lat="61.977877774351064" lon="8.979586116373046" id="-43112">
		<tag k="name" v="Sjåhaugen" />
		<tag k="natural" v="hill" />
		<tag k="place" v="locality" />
		<tag k="ssr:stedsnr" v="647542" />
	</node>
	<node lat="61.87000277946081" lon="8.901927773044196" id="-43117">
		<tag k="name" v="Reset" />
		<tag k="natural" v="slope" />
		<tag k="place" v="locality" />
		<tag k="ssr:stedsnr" v="655485" />
	</node>
	<node lat="61.79567500201138" lon="9.254377772351027" id="-43119">
		<tag k="name" v="Steinhaugen" />
		<tag k="natural" v="hill" />
		<tag k="place" v="locality" />
		<tag k="ssr:stedsnr" v="656679" />
	</node>
	<node lat="61.88677500358516" lon="9.094141668615995" id="-43124">
		<tag k="name" v="Fjølingsmoen" />
		<tag k="place" v="locality" />
		<tag k="ssr:stedsnr" v="706034" />
	</node>
	<node lat="61.8678833339033" lon="8.999147231383734" id="-43135">
		<tag k="name" v="Nermo" />
		<tag k="natural" v="hill" />
		<tag k="place" v="locality" />
		<tag k="ssr:stedsnr" v="708237" />
	</node>
	<node lat="61.86673055964019" lon="8.99992221409152" id="-43136">
		<tag k="name" v="Tjønnflate" />
		<tag k="place" v="locality" />
		<tag k="ssr:stedsnr" v="708239" />
	</node>
	<node lat="61.8386750032431" lon="8.978424992323141" id="-43139">
		<tag k="fixme" v="consider natural=peak for the most distinct mountains in the district" />
		<tag k="name" v="Valdeåsen" />
		<tag k="natural" v="hill" />
		<tag k="place" v="locality" />
		<tag k="ssr:stedsnr" v="708149" />
	</node>
	<node lat="61.854500000759124" lon="9.035580551622033" id="-43140">
		<tag k="name" v="Ringnesbergje" />
		<tag k="natural" v="hill" />
		<tag k="place" v="locality" />
		<tag k="ssr:stedsnr" v="708153" />
	</node>
	<node lat="61.864713890391755" lon="9.240913883607101" id="-43145">
		<tag k="name" v="Dekken" />
		<tag k="natural" v="slope" />
		<tag k="place" v="locality" />
		<tag k="ssr:stedsnr" v="716524" />
	</node>
	<node lat="61.809608330091095" lon="9.296497215834066" id="-43150">
		<tag k="name" v="Måne" />
		<tag k="natural" v="slope" />
		<tag k="place" v="locality" />
		<tag k="ssr:stedsnr" v="716663" />
	</node>
	<node lat="61.79955278139205" lon="9.343663888817149" id="-43151">
		<tag k="name" v="Moen" />
		<tag k="place" v="locality" />
		<tag k="ssr:stedsnr" v="716666" />
	</node>
	<node lat="61.42438611050305" lon="8.56204444641836" id="-43155">
		<tag k="fixme" v="consider natural=peak for the most distinct mountains in the district" />
		<tag k="name" v="Knutsholstinden" />
		<tag k="natural" v="hill" />
		<tag k="place" v="locality" />
		<tag k="ssr:stedsnr" v="735131" />
	</node>
	<node lat="61.922024996896155" lon="9.025783330857447" id="-43157">
		<tag k="alt_name" v="Botnein" />
		<tag k="name" v="Botnan" />
		<tag k="natural" v="valley" />
		<tag k="place" v="locality" />
		<tag k="ssr:stedsnr" v="738159" />
	</node>
	<node lat="61.791588892770804" lon="9.002338895570217" id="-43160">
		<tag k="fixme" v="consider natural=peak for the most distinct mountains in the district" />
		<tag k="name" v="Veslvassfjellet" />
		<tag k="natural" v="hill" />
		<tag k="place" v="locality" />
		<tag k="ssr:stedsnr" v="738438" />
	</node>
	<node lat="61.910463884763445" lon="9.216261105472354" id="-43169">
		<tag k="fixme" v="consider natural=peak for the most distinct mountains in the district" />
		<tag k="name" v="Storhøe" />
		<tag k="natural" v="hill" />
		<tag k="place" v="locality" />
		<tag k="ssr:stedsnr" v="739229" />
	</node>
	<node lat="61.64232777613827" lon="9.073552774885403" id="-43171">
		<tag k="fixme" v="consider natural=peak for the most distinct mountains in the district" />
		<tag k="name" v="Steinbruhøe" />
		<tag k="natural" v="hill" />
		<tag k="place" v="locality" />
		<tag k="ssr:stedsnr" v="738796" />
	</node>
	<node lat="61.70859444165487" lon="8.95606665940659" id="-43179">
		<tag k="name" v="Breiranden" />
		<tag k="natural" v="slope" />
		<tag k="place" v="locality" />
		<tag k="ssr:stedsnr" v="738996" />
	</node>
	<node lat="61.568755553478354" lon="8.94798055519639" id="-43180">
		<tag k="name" v="Pikåthøgde" />
		<tag k="natural" v="hill" />
		<tag k="place" v="locality" />
		<tag k="ssr:stedsnr" v="738841" />
	</node>
	<node lat="61.56862499702554" lon="8.540638888801672" id="-43182">
		<tag k="fixme" v="consider natural=saddle" />
		<tag k="name" v="Styggehøbreskardet" />
		<tag k="natural" v="valley" />
		<tag k="place" v="locality" />
		<tag k="ssr:stedsnr" v="738925" />
	</node>
	<node lat="61.575794443456516" lon="8.642133342284666" id="-43183">
		<tag k="name" v="Blåtjønnholet" />
		<tag k="natural" v="valley" />
		<tag k="place" v="locality" />
		<tag k="ssr:stedsnr" v="738929" />
	</node>
	<node lat="61.889124998912806" lon="9.31566944721105" id="-43187">
		<tag k="fixme" v="consider natural=peak for the most distinct mountains in the district" />
		<tag k="name" v="Horgenose" />
		<tag k="natural" v="hill" />
		<tag k="place" v="locality" />
		<tag k="ssr:stedsnr" v="739968" />
	</node>
	<node lat="61.87608611272211" lon="9.085930549117796" id="-43191">
		<tag k="name" v="Jutulporten" />
		<tag k="natural" v="hill" />
		<tag k="place" v="locality" />
		<tag k="ssr:stedsnr" v="767176" />
	</node>
	<node lat="61.81320000411301" lon="9.062444435545837" id="-43203">
		<tag k="name" v="Reinskinndalen" />
		<tag k="natural" v="valley" />
		<tag k="place" v="locality" />
		<tag k="ssr:stedsnr" v="769166" />
	</node>
	<node lat="61.77717500223622" lon="9.042688896406833" id="-43207">
		<tag k="name" v="Bergeenden" />
		<tag k="natural" v="ridge" />
		<tag k="place" v="locality" />
		<tag k="ssr:stedsnr" v="769379" />
	</node>
	<node lat="61.77672777926948" lon="9.055658326112736" id="-43208">
		<tag k="name" v="Febothaugen" />
		<tag k="natural" v="hill" />
		<tag k="place" v="locality" />
		<tag k="ssr:stedsnr" v="769381" />
	</node>
	<node lat="61.790152777365925" lon="9.079263885464375" id="-43210">
		<tag k="name" v="Randsverksletta" />
		<tag k="place" v="locality" />
		<tag k="ssr:stedsnr" v="769390" />
	</node>
	<node lat="61.64285833134905" lon="8.99765000013729" id="-43212">
		<tag k="name" v="Høgste Steinholet" />
		<tag k="natural" v="slope" />
		<tag k="place" v="locality" />
		<tag k="ssr:stedsnr" v="769397" />
	</node>
	<node lat="61.86530000078019" lon="9.014622213699264" id="-43214">
		<tag k="name" v="Nordigard Viste" />
		<tag k="natural" v="hill" />
		<tag k="place" v="locality" />
		<tag k="ssr:stedsnr" v="769237" />
	</node>
	<node lat="61.797697223711424" lon="9.367608330576749" id="-43217">
		<tag k="name" v="Skriu-Berget" />
		<tag k="natural" v="slope" />
		<tag k="place" v="locality" />
		<tag k="ssr:stedsnr" v="777528" />
	</node>
	<node lat="61.83868333164286" lon="9.311425002820863" id="-43225">
		<tag k="name" v="Hansberghaugen" />
		<tag k="natural" v="hill" />
		<tag k="place" v="locality" />
		<tag k="ssr:stedsnr" v="778948" />
	</node>
	<node lat="61.9225999971759" lon="8.987827773023726" id="-43233">
		<tag k="name" v="Skjervegjelet" />
		<tag k="natural" v="gorge" />
		<tag k="ssr:stedsnr" v="782333" />
	</node>
	<node lat="61.4437416705488" lon="8.586624992786493" id="-43235">
		<tag k="fixme" v="consider natural=peak for the most distinct mountains in the district" />
		<tag k="name" v="Nørdre Skarvflytinden" />
		<tag k="natural" v="hill" />
		<tag k="place" v="locality" />
		<tag k="ssr:stedsnr" v="797763" />
	</node>
	<node lat="61.4979361145439" lon="8.689288898027172" id="-43236">
		<tag k="name" v="Bjørnbølet" />
		<tag k="natural" v="cliff" />
		<tag k="ssr:stedsnr" v="797780" />
	</node>
	<node lat="61.71577500157132" lon="9.095633324335472" id="-43237">
		<tag k="fixme" v="consider natural=peak for the most distinct mountains in the district" />
		<tag k="name" v="Ørnkampen" />
		<tag k="natural" v="hill" />
		<tag k="place" v="locality" />
		<tag k="ssr:stedsnr" v="798968" />
	</node>
	<node lat="61.80013889276649" lon="9.052161107907233" id="-43241">
		<tag k="alt_name" v="Kvitingslie" />
		<tag k="name" v="Kvitingslii" />
		<tag k="natural" v="slope" />
		<tag k="place" v="locality" />
		<tag k="ssr:stedsnr" v="799472" />
	</node>
	<node lat="61.82393333619593" lon="9.028511108389973" id="-43242">
		<tag k="alt_name" v="Kringlåthaugen" />
		<tag k="name" v="Kringluthaugen" />
		<tag k="natural" v="hill" />
		<tag k="place" v="locality" />
		<tag k="ssr:stedsnr" v="799478" />
	</node>
	<node lat="61.91706666484663" lon="9.03830832538851" id="-43243">
		<tag k="alt_name" v="Rishovda, øvre;Rishovdan" />
		<tag k="fixme" v="consider natural=peak for the most distinct mountains in the district" />
		<tag k="name" v="Øvre Rishovda" />
		<tag k="natural" v="hill" />
		<tag k="place" v="locality" />
		<tag k="ssr:stedsnr" v="799169" />
	</node>
	<node lat="61.83996388754278" lon="9.040758329635858" id="-43246">
		<tag k="alt_name" v="Goroberget" />
		<tag k="name" v="Gorobergi" />
		<tag k="natural" v="hill" />
		<tag k="place" v="locality" />
		<tag k="ssr:stedsnr" v="799275" />
	</node>
	<node lat="61.829549999764524" lon="9.084488894331615" id="-43249">
		<tag k="alt_name" v="Kloneshøi" />
		<tag k="fixme" v="consider natural=peak for the most distinct mountains in the district" />
		<tag k="name" v="Kloneshøe" />
		<tag k="natural" v="hill" />
		<tag k="place" v="locality" />
		<tag k="ssr:stedsnr" v="799501" />
	</node>
	<node lat="61.633058333067254" lon="9.066349993212791" id="-43250">
		<tag k="name" v="Stordokki" />
		<tag k="natural" v="valley" />
		<tag k="place" v="locality" />
		<tag k="ssr:stedsnr" v="799797" />
	</node>
	<node lat="61.44593610708791" lon="9.003988882422039" id="-43251">
		<tag k="name" v="Heimdalen" />
		<tag k="natural" v="valley" />
		<tag k="place" v="locality" />
		<tag k="ssr:stedsnr" v="799798" />
	</node>
	<node lat="61.53460277492493" lon="8.803363883468009" id="-43258">
		<tag k="fixme" v="consider natural=peak for the most distinct mountains in the district" />
		<tag k="name" v="Bessheimrundhøe" />
		<tag k="natural" v="hill" />
		<tag k="place" v="locality" />
		<tag k="ssr:stedsnr" v="799940" />
	</node>
	<node lat="61.743566664681154" lon="9.08518610949098" id="-43259">
		<tag k="name" v="Mysuholet" />
		<tag k="natural" v="valley" />
		<tag k="place" v="locality" />
		<tag k="ssr:stedsnr" v="799954" />
	</node>
	<node lat="62.011438888642765" lon="8.982213887456671" id="-43262">
		<tag k="name" v="Svarthamran" />
		<tag k="natural" v="hill" />
		<tag k="place" v="locality" />
		<tag k="ssr:stedsnr" v="800522" />
	</node>
	<node lat="61.98081110922277" lon="8.908927768894817" id="-43264">
		<tag k="fixme" v="consider natural=peak for the most distinct mountains in the district" />
		<tag k="name" v="Gravdalshalsen" />
		<tag k="natural" v="hill" />
		<tag k="place" v="locality" />
		<tag k="ssr:stedsnr" v="800173" />
	</node>
	<node lat="61.97675833461163" lon="9.007955559455318" id="-43265">
		<tag k="alt_name" v="Lefinnlie" />
		<tag k="name" v="Lefinnlii" />
		<tag k="natural" v="slope" />
		<tag k="place" v="locality" />
		<tag k="ssr:stedsnr" v="800179" />
	</node>
	<node lat="61.433269441439876" lon="8.609686115408907" id="-43266">
		<tag k="fixme" v="consider natural=peak for the most distinct mountains in the district" />
		<tag k="name" v="Søre Skarvflytinden" />
		<tag k="natural" v="hill" />
		<tag k="place" v="locality" />
		<tag k="ssr:stedsnr" v="815274" />
	</node>
	<node lat="61.396144440521816" lon="8.658155562052128" id="-43267">
		<tag k="fixme" v="consider natural=peak for the most distinct mountains in the district" />
		<tag k="name" v="Mugna" />
		<tag k="natural" v="hill" />
		<tag k="place" v="locality" />
		<tag k="ssr:stedsnr" v="815245" />
	</node>
	<node lat="61.52996388804057" lon="8.605299999171812" id="-43269">
		<tag k="fixme" v="consider natural=peak for the most distinct mountains in the district" />
		<tag k="name" v="Nestaustre Surtningssue" />
		<tag k="natural" v="hill" />
		<tag k="place" v="locality" />
		<tag k="ssr:stedsnr" v="815356" />
	</node>
	<node lat="61.83876111512688" lon="8.881319445622127" id="-43270">
		<tag k="name" v="Øygardslie" />
		<tag k="natural" v="slope" />
		<tag k="place" v="locality" />
		<tag k="ssr:stedsnr" v="817220" />
	</node>
	<node lat="61.85671944615417" lon="8.890497220934176" id="-43273">
		<tag k="name" v="Trælvikhaugen" />
		<tag k="natural" v="hill" />
		<tag k="place" v="locality" />
		<tag k="ssr:stedsnr" v="828053" />
	</node>
	<node lat="61.83714721985115" lon="9.16969722018264" id="-43276">
		<tag k="name" v="Steinhøe" />
		<tag k="natural" v="hill" />
		<tag k="place" v="locality" />
		<tag k="ssr:stedsnr" v="828863" />
	</node>
	<node lat="61.87631667116339" lon="9.21414999506694" id="-43279">
		<tag k="name" v="Spranget" />
		<tag k="natural" v="slope" />
		<tag k="place" v="locality" />
		<tag k="ssr:stedsnr" v="828893" />
	</node>
	<node lat="61.879258331665746" lon="9.197994442157503" id="-43280">
		<tag k="name" v="Stamprandin" />
		<tag k="natural" v="ridge" />
		<tag k="place" v="locality" />
		<tag k="ssr:stedsnr" v="828894" />
	</node>
	<node lat="61.700819442716075" lon="9.05588889604693" id="-43286">
		<tag k="name" v="Jespriksletta" />
		<tag k="place" v="locality" />
		<tag k="ssr:stedsnr" v="830451" />
	</node>
	<node lat="61.86915555719767" lon="9.253752770364265" id="-43288">
		<tag k="name" v="Krokane" />
		<tag k="natural" v="slope" />
		<tag k="place" v="locality" />
		<tag k="ssr:stedsnr" v="837478" />
	</node>
	<node lat="61.799749995692515" lon="9.272599990791925" id="-43292">
		<tag k="name" v="Guttormslådalen" />
		<tag k="natural" v="valley" />
		<tag k="place" v="locality" />
		<tag k="ssr:stedsnr" v="838675" />
	</node>
	<node lat="61.81830555286063" lon="9.358058326132605" id="-43293">
		<tag k="name" v="Tjorsætersletta" />
		<tag k="place" v="locality" />
		<tag k="ssr:stedsnr" v="838567" />
	</node>
	<node lat="61.392225003911655" lon="9.078358329093858" id="-43297">
		<tag k="fixme" v="consider natural=peak for the most distinct mountains in the district" />
		<tag k="name" v="Mølfjell" />
		<tag k="natural" v="hill" />
		<tag k="place" v="locality" />
		<tag k="ssr:stedsnr" v="857021" />
	</node>
	<node lat="61.42708055326992" lon="8.753680563855124" id="-43298">
		<tag k="fixme" v="consider natural=peak for the most distinct mountains in the district" />
		<tag k="name" v="Raudhamran" />
		<tag k="natural" v="hill" />
		<tag k="place" v="locality" />
		<tag k="ssr:stedsnr" v="857151" />
	</node>
	<node lat="61.83317500335044" lon="9.007422225011293" id="-43303">
		<tag k="name" v="Krossdalen" />
		<tag k="natural" v="valley" />
		<tag k="place" v="locality" />
		<tag k="ssr:stedsnr" v="859236" />
	</node>
	<node lat="61.5218777744027" lon="8.854794443640492" id="-43308">
		<tag k="name" v="Menesbakken" />
		<tag k="natural" v="slope" />
		<tag k="place" v="locality" />
		<tag k="ssr:stedsnr" v="859842" />
	</node>
	<node lat="61.77405833255114" lon="9.123819435313342" id="-43310">
		<tag k="alt_name" v="Gråhøi" />
		<tag k="fixme" v="consider natural=peak for the most distinct mountains in the district" />
		<tag k="name" v="Gråhøe" />
		<tag k="natural" v="hill" />
		<tag k="place" v="locality" />
		<tag k="ssr:stedsnr" v="860283" />
	</node>
	<node lat="61.58101111492474" lon="8.77278334161919" id="-43311">
		<tag k="fixme" v="consider natural=peak for the most distinct mountains in the district" />
		<tag k="name" v="Semelhøe" />
		<tag k="natural" v="hill" />
		<tag k="place" v="locality" />
		<tag k="ssr:stedsnr" v="859890" />
	</node>
	<node lat="61.71271666644361" lon="8.872913882365014" id="-43312">
		<tag k="fixme" v="consider natural=peak for the most distinct mountains in the district" />
		<tag k="name" v="Rundhøe" />
		<tag k="natural" v="hill" />
		<tag k="place" v="locality" />
		<tag k="ssr:stedsnr" v="859959" />
	</node>
	<node lat="61.94171572934813" lon="9.110733996986145" id="-43313">
		<tag k="fixme" v="consider natural=peak for the most distinct mountains in the district" />
		<tag k="loc_name" v="Storhøa" />
		<tag k="name" v="Storhøe" />
		<tag k="natural" v="hill" />
		<tag k="place" v="locality" />
		<tag k="ssr:stedsnr" v="860162" />
	</node>
	<node lat="61.90806388735918" lon="9.035194449838148" id="-43314">
		<tag k="alt_name" v="Rishovda, nedre;Nedre Hovdan" />
		<tag k="fixme" v="consider natural=peak for the most distinct mountains in the district" />
		<tag k="name" v="Nedre Rishovda" />
		<tag k="natural" v="hill" />
		<tag k="place" v="locality" />
		<tag k="ssr:stedsnr" v="860185" />
	</node>
	<node lat="61.74910000281046" lon="9.117102781445235" id="-43326">
		<tag k="alt_name" v="Slomhaugen" />
		<tag k="name" v="Slombhaugen" />
		<tag k="natural" v="hill" />
		<tag k="place" v="locality" />
		<tag k="ssr:stedsnr" v="860970" />
	</node>
	<node lat="61.641758336283964" lon="9.036641675560842" id="-43329">
		<tag k="alt_name" v="Vistesallia" />
		<tag k="name" v="Vistesalli" />
		<tag k="natural" v="slope" />
		<tag k="place" v="locality" />
		<tag k="ssr:stedsnr" v="860801" />
	</node>
	<node lat="61.51872221926285" lon="8.70450000310942" id="-43330">
		<tag k="name" v="Brue" />
		<tag k="natural" v="slope" />
		<tag k="place" v="locality" />
		<tag k="ssr:stedsnr" v="860937" />
	</node>
	<node lat="61.52285277536714" lon="8.640880552763054" id="-43331">
		<tag k="fixme" v="consider natural=peak for the most distinct mountains in the district" />
		<tag k="name" v="Gloptinden" />
		<tag k="natural" v="hill" />
		<tag k="place" v="locality" />
		<tag k="ssr:stedsnr" v="860941" />
	</node>
	<node lat="61.533216670584075" lon="8.733847214896585" id="-43332">
		<tag k="fixme" v="consider natural=peak for the most distinct mountains in the district" />
		<tag k="name" v="Bukkehøe" />
		<tag k="natural" v="hill" />
		<tag k="place" v="locality" />
		<tag k="ssr:stedsnr" v="860947" />
	</node>
	<node lat="61.86011488308317" lon="9.103402940491288" id="-43338">
		<tag k="alt_name" v="Sundlie" />
		<tag k="name" v="Sundlii" />
		<tag k="natural" v="slope" />
		<tag k="place" v="locality" />
		<tag k="ssr:stedsnr" v="920287" />
	</node>
	<node lat="61.82062778062204" lon="8.917925002481507" id="-43341">
		<tag k="alt_name" v="Baklie" />
		<tag k="name" v="Baklii" />
		<tag k="natural" v="slope" />
		<tag k="place" v="locality" />
		<tag k="ssr:stedsnr" v="920484" />
	</node>
	<node lat="61.534655558081965" lon="9.001047214555403" id="-43346">
		<tag k="name" v="Rolegholet" />
		<tag k="natural" v="valley" />
		<tag k="place" v="locality" />
		<tag k="ssr:stedsnr" v="920870" />
	</node>
	<node lat="61.51848889273296" lon="8.986366665115225" id="-43349">
		<tag k="alt_name" v="Gravdalen, austre" />
		<tag k="fixme" v="multiple name tags, choose one and add the other to alt_name" />
		<tag k="name" v="Søre Gravdalen;Austre Gravdalen" />
		<tag k="natural" v="valley" />
		<tag k="place" v="locality" />
		<tag k="ssr:stedsnr" v="920883" />
	</node>
	<node lat="61.80892271526715" lon="9.216343690538938" id="-43350">
		<tag k="fixme" v="consider natural=peak for the most distinct mountains in the district" />
		<tag k="name" v="Flathovda" />
		<tag k="natural" v="hill" />
		<tag k="place" v="locality" />
		<tag k="ssr:stedsnr" v="920758" />
	</node>
	<node lat="61.50596110907137" lon="9.078250004767868" id="-43354">
		<tag k="fixme" v="consider natural=peak for the most distinct mountains in the district" />
		<tag k="name" v="Åkrekampen" />
		<tag k="natural" v="hill" />
		<tag k="place" v="locality" />
		<tag k="ssr:stedsnr" v="920888" />
	</node>
	<node lat="61.96127778003761" lon="8.959672217788302" id="-43360">
		<tag k="name" v="Krossdalan" />
		<tag k="natural" v="valley" />
		<tag k="place" v="locality" />
		<tag k="ssr:stedsnr" v="921181" />
	</node>
	<node lat="61.877061109942936" lon="8.88727499095265" id="-43364">
		<tag k="name" v="Grønlidalen" />
		<tag k="natural" v="valley" />
		<tag k="place" v="locality" />
		<tag k="ssr:stedsnr" v="921372" />
	</node>
	<node lat="61.88418610913696" lon="9.244997228212316" id="-43366">
		<tag k="name" v="Kvannslåberget" />
		<tag k="natural" v="hill" />
		<tag k="place" v="locality" />
		<tag k="ssr:stedsnr" v="921977" />
	</node>
	<node lat="61.43422499628867" lon="8.555388892062009" id="-43367">
		<tag k="fixme" v="consider natural=peak for the most distinct mountains in the district" />
		<tag k="name" v="Nestnørdre Knutsholstinden" />
		<tag k="natural" v="hill" />
		<tag k="place" v="locality" />
		<tag k="ssr:stedsnr" v="936219" />
	</node>
	<node lat="61.4494611155802" lon="8.749097220473951" id="-43368">
		<tag k="name" v="Steinflybakkan" />
		<tag k="natural" v="slope" />
		<tag k="place" v="locality" />
		<tag k="ssr:stedsnr" v="936250" />
	</node>
	<node lat="61.71404722007567" lon="8.962183342779149" id="-43372">
		<tag k="name" v="Skriu" />
		<tag k="natural" v="slope" />
		<tag k="place" v="locality" />
		<tag k="ssr:stedsnr" v="949255" />
	</node>
	<node lat="61.87608055562724" lon="8.915752775578484" id="-43381">
		<tag k="fixme" v="consider natural=saddle" />
		<tag k="name" v="Skaret" />
		<tag k="natural" v="valley" />
		<tag k="place" v="locality" />
		<tag k="ssr:stedsnr" v="951069" />
	</node>
	<node lat="61.86657777857502" lon="8.92510832792188" id="-43382">
		<tag k="fixme" v="consider natural=peak for the most distinct mountains in the district" />
		<tag k="name" v="Ulsandhøe" />
		<tag k="natural" v="hill" />
		<tag k="place" v="locality" />
		<tag k="ssr:stedsnr" v="951074" />
	</node>
	<node lat="61.86473611488038" lon="9.043661120573045" id="-43384">
		<tag k="name" v="Strinde" />
		<tag k="natural" v="slope" />
		<tag k="place" v="locality" />
		<tag k="ssr:stedsnr" v="951247" />
	</node>
	<node lat="61.678588889734904" lon="9.092013880832587" id="-43387">
		<tag k="name" v="Vakkersletta" />
		<tag k="place" v="locality" />
		<tag k="ssr:stedsnr" v="951422" />
	</node>
	<node lat="61.82228889265128" lon="9.278411107112252" id="-43388">
		<tag k="name" v="Veslfethaugen" />
		<tag k="natural" v="hill" />
		<tag k="place" v="locality" />
		<tag k="ssr:stedsnr" v="951875" />
	</node>
	<node lat="61.87151388518499" lon="9.25993889126388" id="-43391">
		<tag k="name" v="Randen" />
		<tag k="natural" v="hill" />
		<tag k="place" v="locality" />
		<tag k="ssr:stedsnr" v="959472" />
	</node>
	<node lat="61.920811109803566" lon="8.93017222634397" id="-43392">
		<tag k="name" v="Gauklehaugen" />
		<tag k="natural" v="hill" />
		<tag k="place" v="locality" />
		<tag k="ssr:stedsnr" v="963384" />
	</node>
</osm>
