<?xml version="1.0" encoding="UTF-8"?>
<osm version="0.6" generator="osmapis">
	<node lat="61.821652781044705" lon="8.974383333129087" id="-28303">
		<tag k="bridge" v="yes" />
		<tag k="layer" v="1" />
		<tag k="name" v="Grovbekk" />
		<tag k="ssr:stedsnr" v="106480" />
	</node>
	<node lat="61.54249722151548" lon="9.092655554829708" id="-28420">
		<tag k="highway" v="path" />
		<tag k="name" v="Griningsdalsvegen" />
		<tag k="ssr:stedsnr" v="173725" />
	</node>
	<node lat="61.865455556934705" lon="9.099558336753377" id="-28529">
		<tag k="bridge" v="yes" />
		<tag k="layer" v="1" />
		<tag k="name" v="Sundjordet" />
		<tag k="ssr:stedsnr" v="470436" />
	</node>
	<node lat="61.48796667045219" lon="8.839080556625834" id="-28530">
		<tag k="bridge" v="yes" />
		<tag k="layer" v="1" />
		<tag k="name" v="Maurvangen" />
		<tag k="ssr:stedsnr" v="470473" />
	</node>
	<node lat="61.88838888496035" lon="9.143430546086256" id="-28537">
		<tag k="highway" v="path" />
		<tag k="name" v="Gravskaftbana" />
		<tag k="ssr:stedsnr" v="342999" />
	</node>
	<node lat="61.57700000225848" lon="8.92147777593653" id="-28548">
		<tag k="bridge" v="yes" />
		<tag k="layer" v="1" />
		<tag k="name" v="Tverråi" />
		<tag k="ssr:stedsnr" v="349519" />
	</node>
	<node lat="61.48457499934907" lon="8.837361107484671" id="-28594">
		<tag k="bridge" v="yes" />
		<tag k="layer" v="1" />
		<tag k="name" v="Moflybekk" />
		<tag k="ssr:stedsnr" v="410494" />
	</node>
	<node lat="61.81717222050643" lon="9.275016657575394" id="-28595">
		<tag k="bridge" v="yes" />
		<tag k="layer" v="1" />
		<tag k="name" v="Lalm undergang" />
		<tag k="ssr:stedsnr" v="410497" />
	</node>
	<node lat="61.86732499904342" lon="8.98693055453455" id="-28648">
		<tag k="bridge" v="yes" />
		<tag k="layer" v="1" />
		<tag k="name" v="Åbakken" />
		<tag k="ssr:stedsnr" v="471468" />
	</node>
	<node lat="61.52160833388754" lon="9.091769448166415" id="-28723">
		<tag k="highway" v="path" />
		<tag k="name" v="Ingulsjøråket" />
		<tag k="ssr:stedsnr" v="538602" />
	</node>
	<node lat="61.908338891351846" lon="9.020541672098593" id="-28765">
		<tag k="highway" v="path" />
		<tag k="name" v="Varpedrågje" />
		<tag k="ssr:stedsnr" v="587003" />
	</node>
	<node lat="61.87578055915491" lon="9.077180564743658" id="-28810">
		<tag k="highway" v="path" />
		<tag k="name" v="Likvegen" />
		<tag k="ssr:stedsnr" v="645178" />
	</node>
	<node lat="61.86942777757927" lon="9.193455557785649" id="-28825">
		<tag k="bridge" v="yes" />
		<tag k="layer" v="1" />
		<tag k="name" v="Svartbekk" />
		<tag k="ssr:stedsnr" v="652438" />
	</node>
	<node lat="61.81380000060606" lon="9.261983335761672" id="-28826">
		<tag k="bridge" v="yes" />
		<tag k="layer" v="1" />
		<tag k="name" v="Rinna" />
		<tag k="ssr:stedsnr" v="652444" />
	</node>
	<node lat="61.92273055684478" lon="8.986975005507754" id="-28827">
		<tag k="bridge" v="yes" />
		<tag k="layer" v="1" />
		<tag k="name" v="Skjerva" />
		<tag k="ssr:stedsnr" v="652446" />
	</node>
	<node lat="61.84602777436324" lon="8.96101944046368" id="-28835">
		<tag k="landuse" v="industrial" />
		<tag k="name" v="Nedre Tesse kraftstasjon" />
		<tag k="power" v="plant" />
		<tag k="ssr:stedsnr" v="708143" />
	</node>
	<node lat="61.84228888445067" lon="8.960188880678926" id="-28836">
		<tag k="landuse" v="industrial" />
		<tag k="name" v="Midtre Tesse kraftstasjon" />
		<tag k="power" v="plant" />
		<tag k="ssr:stedsnr" v="708146" />
	</node>
	<node lat="61.98539999694319" lon="8.978111114267827" id="-28853">
		<tag k="ford" v="yes" />
		<tag k="name" v="Vangsvadet" />
		<tag k="place" v="locality" />
		<tag k="ssr:stedsnr" v="708542" />
	</node>
	<node lat="61.85226944451745" lon="9.082427784678167" id="-28873">
		<tag k="highway" v="path" />
		<tag k="name" v="Kvilarsteindrågje" />
		<tag k="ssr:stedsnr" v="891289" />
	</node>
	<node lat="61.8772833345936" lon="9.10366389219391" id="-28926">
		<tag k="bridge" v="yes" />
		<tag k="layer" v="1" />
		<tag k="name" v="Nugga" />
		<tag k="ssr:stedsnr" v="713477" />
	</node>
	<node lat="61.86256944284593" lon="9.082480557700903" id="-28983">
		<tag k="bridge" v="yes" />
		<tag k="layer" v="1" />
		<tag k="name" v="Klonesbekken" />
		<tag k="ssr:stedsnr" v="774527" />
	</node>
	<node lat="61.91143889285521" lon="9.013794445923489" id="-29063">
		<tag k="highway" v="path" />
		<tag k="name" v="Skjepulvegen" />
		<tag k="ssr:stedsnr" v="830003" />
	</node>
	<node lat="61.866836111768016" lon="9.277080547347845" id="-29072">
		<tag k="highway" v="path" />
		<tag k="name" v="Reistbakkane" />
		<tag k="ssr:stedsnr" v="837487" />
	</node>
	<node lat="61.94276111043689" lon="9.016566657336096" id="-29102">
		<tag k="highway" v="path" />
		<tag k="name" v="Djupdalsråket" />
		<tag k="ssr:stedsnr" v="891022" />
	</node>
	<node lat="61.86412777499572" lon="9.211580557458149" id="-29106">
		<tag k="bridge" v="yes" />
		<tag k="layer" v="1" />
		<tag k="name" v="Nordre Hollungen" />
		<tag k="ssr:stedsnr" v="895461" />
	</node>
	<node lat="61.87097222409317" lon="9.264597223278797" id="-29107">
		<tag k="highway" v="path" />
		<tag k="name" v="Brødsleivråket" />
		<tag k="ssr:stedsnr" v="898472" />
	</node>
	<node lat="61.91094722644704" lon="9.046097229964795" id="-29154">
		<tag k="highway" v="path" />
		<tag k="name" v="Måsådrågje" />
		<tag k="ssr:stedsnr" v="951007" />
	</node>
	<node lat="61.89135833659023" lon="9.057841673628168" id="-29160">
		<tag k="bridge" v="yes" />
		<tag k="layer" v="1" />
		<tag k="name" v="Måla" />
		<tag k="ssr:stedsnr" v="956520" />
	</node>
	<node lat="61.84833611449159" lon="8.978988881524874" id="-29309">
		<tag k="highway" v="path" />
		<tag k="name" v="Tjuvdrågje" />
		<tag k="ssr:stedsnr" v="102134" />
	</node>
	<node lat="61.848983330389586" lon="9.032994439608236" id="-29311">
		<tag k="highway" v="path" />
		<tag k="name" v="Sætervegen" />
		<tag k="ssr:stedsnr" v="102147" />
	</node>
	<node lat="61.868497225191035" lon="9.13369166942505" id="-29321">
		<tag k="bridge" v="yes" />
		<tag k="layer" v="1" />
		<tag k="name" v="Ulvehusbekken" />
		<tag k="ssr:stedsnr" v="107467" />
	</node>
	<node lat="61.730049997274385" lon="9.080094449988989" id="-29398">
		<tag k="barrier" v="lift_gate" />
		<tag k="name" v="Bommen" />
		<tag k="place" v="locality" />
		<tag k="ssr:stedsnr" v="162297" />
	</node>
	<node lat="61.860302773384205" lon="8.992713887787003" id="-29402">
		<tag k="bridge" v="yes" />
		<tag k="layer" v="1" />
		<tag k="name" v="Nedre Senda" />
		<tag k="ssr:stedsnr" v="167496" />
	</node>
	<node lat="61.72720000398461" lon="9.067322227260588" id="-29403">
		<tag k="bridge" v="yes" />
		<tag k="layer" v="1" />
		<tag k="name" v="Rinda" />
		<tag k="ssr:stedsnr" v="167498" />
	</node>
	<node lat="61.817230552419716" lon="9.272302778425772" id="-29404">
		<tag k="bridge" v="yes" />
		<tag k="layer" v="1" />
		<tag k="name" v="Lalm" />
		<tag k="ssr:stedsnr" v="167528" />
	</node>
	<node lat="61.93610000188776" lon="8.974036117891814" id="-29407">
		<tag k="highway" v="path" />
		<tag k="name" v="Måsådrågje" />
		<tag k="ssr:stedsnr" v="175351" />
	</node>
	<node lat="61.605827778021265" lon="8.947269437660523" id="-29505">
		<tag k="bridge" v="yes" />
		<tag k="layer" v="1" />
		<tag k="name" v="Vesle Hindå" />
		<tag k="ssr:stedsnr" v="228545" />
	</node>
	<node lat="61.85790833761821" lon="9.0553055474624" id="-29506">
		<tag k="bridge" v="yes" />
		<tag k="layer" v="1" />
		<tag k="name" v="Gjeitklopp" />
		<tag k="ssr:stedsnr" v="228553" />
	</node>
	<node lat="61.803719448394546" lon="9.303777775095353" id="-29533">
		<tag k="landuse" v="industrial" />
		<tag k="name" v="Eidefoss kraftstasjon" />
		<tag k="power" v="plant" />
		<tag k="ssr:stedsnr" v="292657" />
	</node>
	<node lat="61.82112500320916" lon="8.956855562585954" id="-29537">
		<tag k="landuse" v="industrial" />
		<tag k="name" v="Øvre Tesse kraftstasjon" />
		<tag k="power" v="plant" />
		<tag k="ssr:stedsnr" v="296412" />
	</node>
	<node lat="61.970599218142645" lon="9.008988083277853" id="-29595">
		<tag k="highway" v="path" />
		<tag k="name" v="Hærabrekka" />
		<tag k="ssr:stedsnr" v="344525" />
	</node>
	<node lat="61.87619166433094" lon="9.132486105442949" id="-29655">
		<tag k="name" v="Kjerringvelta" />
		<tag k="place" v="locality" />
		<tag k="ssr:stedsnr" v="403944" />
	</node>
	<node lat="61.853236115049334" lon="9.091908324011515" id="-29665">
		<tag k="highway" v="path" />
		<tag k="name" v="Fåkjøylldrågje" />
		<tag k="ssr:stedsnr" v="405257" />
	</node>
	<node lat="61.90129166696375" lon="8.980580555130626" id="-29677">
		<tag k="highway" v="path" />
		<tag k="name" v="Visdalssætervegen" />
		<tag k="ssr:stedsnr" v="418366" />
	</node>
	<node lat="61.58397777661331" lon="8.937363880201564" id="-29754">
		<tag k="highway" v="path" />
		<tag k="name" v="Hulderstigen" />
		<tag k="ssr:stedsnr" v="526636" />
	</node>
	<node lat="61.51165000343077" lon="8.844613887601463" id="-29757">
		<tag k="bridge" v="yes" />
		<tag k="layer" v="1" />
		<tag k="name" v="Bessa" />
		<tag k="ssr:stedsnr" v="531521" />
	</node>
	<node lat="61.65132222353515" lon="9.010163892184568" id="-29759">
		<tag k="bridge" v="yes" />
		<tag k="layer" v="1" />
		<tag k="name" v="Veo" />
		<tag k="ssr:stedsnr" v="532432" />
	</node>
	<node lat="61.84889444122969" lon="8.96074722332018" id="-29832">
		<tag k="bridge" v="yes" />
		<tag k="layer" v="1" />
		<tag k="name" v="Tessa" />
		<tag k="ssr:stedsnr" v="591438" />
	</node>
	<node lat="61.616216663293265" lon="8.957736105949598" id="-29833">
		<tag k="bridge" v="yes" />
		<tag k="layer" v="1" />
		<tag k="name" v="Stor-Hinde" />
		<tag k="ssr:stedsnr" v="591439" />
	</node>
	<node lat="61.81561389213726" lon="9.273899996656786" id="-29834">
		<tag k="bridge" v="yes" />
		<tag k="layer" v="1" />
		<tag k="name" v="Rikke" />
		<tag k="ssr:stedsnr" v="591443" />
	</node>
	<node lat="61.862077781578876" lon="8.990724999666956" id="-29835">
		<tag k="bridge" v="yes" />
		<tag k="layer" v="1" />
		<tag k="name" v="Øvre Senda" />
		<tag k="ssr:stedsnr" v="592495" />
	</node>
	<node lat="61.87256388769043" lon="8.869052782732403" id="-29841">
		<tag k="highway" v="path" />
		<tag k="name" v="Vippertjønnråket" />
		<tag k="ssr:stedsnr" v="599278" />
	</node>
	<node lat="61.77741944008279" lon="8.97309999840705" id="-29881">
		<tag k="highway" v="path" />
		<tag k="name" v="Gammel Fugleseterveg" />
		<tag k="ssr:stedsnr" v="645333" />
	</node>
	<node lat="61.85785555328161" lon="8.940830548591334" id="-30128">
		<tag k="bridge" v="yes" />
		<tag k="layer" v="1" />
		<tag k="name" v="Dipra" />
		<tag k="ssr:stedsnr" v="956526" />
	</node>
	<node lat="61.873941662980435" lon="9.185466672007614" id="-30129">
		<tag k="bridge" v="yes" />
		<tag k="layer" v="1" />
		<tag k="name" v="Grøna" />
		<tag k="ssr:stedsnr" v="956532" />
	</node>
	<node lat="61.877108336400035" lon="9.097708340137045" id="-30130">
		<tag k="bridge" v="yes" />
		<tag k="layer" v="1" />
		<tag k="name" v="Finna" />
		<tag k="ssr:stedsnr" v="956533" />
	</node>
</osm>
