<?xml version="1.0" encoding="UTF-8"?>
<<<<<<< HEAD
<osm version="0.6" generator="osmapis">
	<node lat="61.89138055865824" lon="9.0595777823864" id="-23279">
=======
<osm generator="osmapis" version="0.6">
	<node id="-367136" lat="61.8913805587" lon="9.05957778239">
>>>>>>> e1d4bc35ff8a6074a6f2e91616a996b547c36f15
		<tag k="amenity" v="community_centre" />
		<tag k="name" v="Skulmesterstugu" />
		<tag k="ssr:stedsnr" v="282025" />
	</node>
<<<<<<< HEAD
	<node lat="61.831525000933276" lon="9.276722221183748" id="-23535">
		<tag k="name" v="Flåmsteinen" />
		<tag k="ssr:stedsnr" v="534918" />
		<tag k="tourism" v="attraction" />
	</node>
	<node lat="61.87345833231666" lon="9.101019446278286" id="-24390">
=======
	<node id="-368373" lat="61.8315250009" lon="9.27672222118">
		<tag k="name" v="Flåmsteinen" />
		<tag k="ssr:stedsnr" v="534918" />
		<tag k="tourism" v="attraction" />
	</node>
	<node id="-367580" lat="61.8747916655" lon="9.08601666986">
		<tag k="name" v="Jutulheimen" />
		<tag k="ssr:stedsnr" v="888184" />
		<tag k="tourism" v="museum" />
	</node>
	<node id="-368194" lat="61.8734583323" lon="9.10101944628">
>>>>>>> e1d4bc35ff8a6074a6f2e91616a996b547c36f15
		<tag k="amenity" v="community_centre" />
		<tag k="name" v="Vågåhallen" />
		<tag k="ssr:stedsnr" v="342183" />
	</node>
<<<<<<< HEAD
	<node lat="61.87595277429518" lon="9.097700000039344" id="-24523">
=======
	<node id="-368337" lat="61.8759527743" lon="9.09770000004">
>>>>>>> e1d4bc35ff8a6074a6f2e91616a996b547c36f15
		<tag k="alt_name" v="Vågå kirke" />
		<tag k="amenity" v="place_of_worship" />
		<tag k="denomination" v="lutheran" />
		<tag k="name" v="Vågå kyrkje" />
		<tag k="religion" v="christian" />
		<tag k="ssr:stedsnr" v="436314" />
	</node>
<<<<<<< HEAD
	<node lat="61.87479166548541" lon="9.086016669862659" id="-24910">
		<tag k="name" v="Jutulheimen" />
		<tag k="ssr:stedsnr" v="888184" />
		<tag k="tourism" v="museum" />
	</node>
=======
>>>>>>> e1d4bc35ff8a6074a6f2e91616a996b547c36f15
</osm>
