<?xml version="1.0" encoding="UTF-8"?>
<<<<<<< HEAD
<osm version="0.6" generator="osmapis">
	<node lat="61.821363884757" lon="9.206488889683465" id="-23031">
		<tag k="name" v="Tæppingsmyre" />
		<tag k="natural" v="wetland" />
		<tag k="ssr:stedsnr" v="231599" />
	</node>
	<node lat="61.83110277903565" lon="8.930049990563568" id="-23052">
		<tag k="name" v="Galtmyre" />
		<tag k="natural" v="wetland" />
		<tag k="ssr:stedsnr" v="236452" />
	</node>
	<node lat="61.88332778077673" lon="9.051416665761142" id="-23055">
		<tag k="name" v="Øvre Svenskelykkja" />
		<tag k="place" v="locality" />
		<tag k="ssr:stedsnr" v="39008" />
	</node>
	<node lat="61.887966663369504" lon="9.058533340151472" id="-23056">
		<tag k="alt_name" v="Åssårhågein" />
		<tag k="name" v="Åssårhagen" />
		<tag k="place" v="locality" />
		<tag k="ssr:stedsnr" v="39011" />
	</node>
	<node lat="61.839555559686616" lon="9.131997231180275" id="-23057">
		<tag k="name" v="Ljosmyre" />
		<tag k="natural" v="wetland" />
		<tag k="ssr:stedsnr" v="39861" />
	</node>
	<node lat="61.559675003032645" lon="9.010813897984933" id="-23071">
		<tag k="name" v="Griningsdalsmyrin" />
		<tag k="natural" v="wetland" />
		<tag k="ssr:stedsnr" v="70813" />
	</node>
	<node lat="61.69408889187429" lon="9.073205551988671" id="-23076">
		<tag k="alt_name" v="Kverngrovmyrene" />
		<tag k="name" v="Kverngrovmyrin" />
		<tag k="natural" v="wetland" />
		<tag k="ssr:stedsnr" v="70990" />
	</node>
	<node lat="61.52367222299083" lon="8.702213890374741" id="-23096">
		<tag k="name" v="Besshøbrean" />
		<tag k="natural" v="glacier" />
		<tag k="ssr:stedsnr" v="71947" />
	</node>
	<node lat="61.79826389325227" lon="9.250583325666335" id="-23121">
		<tag k="name" v="Vassboldokkje" />
		<tag k="place" v="locality" />
		<tag k="ssr:stedsnr" v="110684" />
	</node>
	<node lat="61.81489166229977" lon="9.320736116225548" id="-23163">
		<tag k="name" v="Strypmyre" />
		<tag k="natural" v="wetland" />
		<tag k="ssr:stedsnr" v="131766" />
	</node>
	<node lat="61.67960833195633" lon="9.131799992979735" id="-23186">
		<tag k="name" v="Stormyri" />
		<tag k="natural" v="wetland" />
		<tag k="ssr:stedsnr" v="252732" />
	</node>
	<node lat="61.82565833164309" lon="9.30245833334998" id="-23223">
		<tag k="name" v="Skjælingmyre" />
		<tag k="place" v="locality" />
		<tag k="ssr:stedsnr" v="158553" />
	</node>
	<node lat="61.87333888530674" lon="9.144030559117738" id="-23248">
		<tag k="name" v="Fåbrunnet" />
		<tag k="place" v="locality" />
		<tag k="ssr:stedsnr" v="221917" />
	</node>
	<node lat="61.93845833071382" lon="9.062400001117094" id="-23276">
		<tag k="name" v="Målmyrin" />
		<tag k="natural" v="wetland" />
		<tag k="ssr:stedsnr" v="254108" />
	</node>
	<node lat="61.79505278105234" lon="9.089858341743236" id="-23284">
=======
<osm generator="osmapis" version="0.6">
	<node id="-368633" lat="61.8454749995" lon="9.1470277793">
		<tag k="alt_name" v="Røvsgrenmyre" />
		<tag k="name" v="Røvsgrenmyri" />
		<tag k="natural" v="wetland" />
		<tag k="ssr:stedsnr" v="799285" />
	</node>
	<node id="-367095" lat="61.7950527811" lon="9.08985834174">
>>>>>>> e1d4bc35ff8a6074a6f2e91616a996b547c36f15
		<tag k="name" v="Tuvstulmyre" />
		<tag k="natural" v="wetland" />
		<tag k="ssr:stedsnr" v="284190" />
	</node>
<<<<<<< HEAD
	<node lat="61.85173333079757" lon="9.020477777025125" id="-23303">
		<tag k="name" v="Bukkestein" />
		<tag k="natural" v="stone" />
		<tag k="ssr:stedsnr" v="465128" />
	</node>
	<node lat="61.426386108695375" lon="8.623344437077085" id="-23311">
		<tag k="name" v="Skarvflyløyftbrean" />
		<tag k="natural" v="glacier" />
		<tag k="ssr:stedsnr" v="310129" />
	</node>
	<node lat="61.8806138909632" lon="9.171661105429394" id="-23349">
		<tag k="name" v="Svarttjønnurde" />
		<tag k="natural" v="scree" />
		<tag k="ssr:stedsnr" v="342993" />
	</node>
	<node lat="61.82055000031019" lon="8.988608333318576" id="-23370">
		<tag k="name" v="Ulvemyre" />
		<tag k="natural" v="wetland" />
		<tag k="ssr:stedsnr" v="478498" />
	</node>
	<node lat="61.91860277446064" lon="9.022752779503875" id="-23399">
		<tag k="name" v="Stålein" />
		<tag k="place" v="locality" />
		<tag k="ssr:stedsnr" v="405003" />
	</node>
	<node lat="61.739802779723384" lon="9.10502777488108" id="-23401">
		<tag k="name" v="Stormyre" />
		<tag k="natural" v="wetland" />
		<tag k="ssr:stedsnr" v="405300" />
	</node>
	<node lat="61.68335277944541" lon="9.054605564652984" id="-23404">
		<tag k="name" v="Ståkåmyra" />
		<tag k="natural" v="wetland" />
		<tag k="ssr:stedsnr" v="405499" />
	</node>
	<node lat="61.81649770771208" lon="9.348218285133719" id="-23424">
		<tag k="name" v="Ljosmyre" />
=======
	<node id="-368116" lat="61.7145805577" lon="8.95038333127">
		<tag k="name" v="Vesllimyre" />
		<tag k="natural" v="wetland" />
		<tag k="ssr:stedsnr" v="192976" />
	</node>
	<node id="-367592" lat="61.8835638917" lon="9.13496389786">
		<tag k="name" v="Sandbuslykkja" />
		<tag k="place" v="locality" />
		<tag k="ssr:stedsnr" v="889979" />
	</node>
	<node id="-367583" lat="61.8886361078" lon="9.01163610435">
		<tag k="name" v="Langmyrin" />
		<tag k="natural" v="wetland" />
		<tag k="ssr:stedsnr" v="889035" />
	</node>
	<node id="-367067" lat="61.9542250017" lon="9.05329722257">
		<tag k="historic" v="shieling" />
		<tag k="name" v="Solbu" />
		<tag k="place" v="locality" />
		<tag k="ssr:stedsnr" v="162008" />
	</node>
	<node id="-367578" lat="61.8295333298" lon="9.30395833036">
		<tag k="name" v="Torvmyre" />
		<tag k="natural" v="wetland" />
		<tag k="ssr:stedsnr" v="886538" />
	</node>
	<node id="-367062" lat="61.8761944439" lon="9.07471945005">
		<tag k="alt_name" v="Kvarbergmorkje;Kvarbergsmorka" />
		<tag k="name" v="Kvarbergsmorkje" />
		<tag k="place" v="locality" />
		<tag k="ssr:stedsnr" v="160161" />
	</node>
	<node id="-367061" lat="61.8592916686" lon="8.91090278672">
		<tag k="name" v="Kvitule" />
		<tag k="natural" v="scree" />
		<tag k="ssr:stedsnr" v="160054" />
	</node>
	<node id="-367060" lat="61.8979055568" lon="9.04861389353">
		<tag k="name" v="Åslykkjun" />
		<tag k="place" v="locality" />
		<tag k="ssr:stedsnr" v="160028" />
	</node>
	<node id="-368579" lat="61.4973452255" lon="8.77220339203">
		<tag k="name" v="Hamnsanden" />
		<tag k="natural" v="beach" />
		<tag k="ssr:stedsnr" v="754323" />
		<tag k="surface" v="sand" />
	</node>
	<node id="-368063" lat="61.8831638884" lon="9.05527222432">
		<tag k="name" v="Nedre Svenskelykkja" />
		<tag k="place" v="locality" />
		<tag k="ssr:stedsnr" v="162045" />
	</node>
	<node id="-368055" lat="61.8256583316" lon="9.30245833335">
		<tag k="name" v="Skjælingmyre" />
		<tag k="place" v="locality" />
		<tag k="ssr:stedsnr" v="158553" />
	</node>
	<node id="-368052" lat="61.9004249959" lon="9.15227777637">
		<tag k="name" v="Volemyrin" />
>>>>>>> e1d4bc35ff8a6074a6f2e91616a996b547c36f15
		<tag k="natural" v="wetland" />
		<tag k="ssr:stedsnr" v="435772" />
	</node>
<<<<<<< HEAD
	<node lat="61.8639638910864" lon="8.909463881716457" id="-23446">
		<tag k="name" v="Flatflåten" />
		<tag k="place" v="locality" />
		<tag k="ssr:stedsnr" v="464076" />
	</node>
	<node lat="61.589333332098654" lon="8.933761103671598" id="-23456">
		<tag k="landuse" v="meadow" />
		<tag k="name" v="Russlivangene" />
		<tag k="ssr:stedsnr" v="465591" />
	</node>
	<node lat="61.834297224535966" lon="9.084499992850654" id="-23541">
		<tag k="name" v="Langmyrin" />
=======
	<node id="-368711" lat="61.8000611136" lon="8.98289722027">
		<tag k="alt_name" v="Tristeinein" />
		<tag k="name" v="Tristeinan" />
		<tag k="natural" v="stone" />
		<tag k="ssr:stedsnr" v="843437" />
	</node>
	<node id="-368014" lat="61.8148916623" lon="9.32073611623">
		<tag k="name" v="Strypmyre" />
		<tag k="natural" v="wetland" />
		<tag k="ssr:stedsnr" v="131766" />
	</node>
	<node id="-367656" lat="61.8370388914" lon="9.3128777831">
		<tag k="name" v="Jælkemyra" />
		<tag k="natural" v="wetland" />
		<tag k="ssr:stedsnr" v="778946" />
	</node>
	<node id="-368007" lat="61.8204249976" lon="9.05853611838">
		<tag k="alt_name" v="Krossmyre" />
		<tag k="name" v="Krossmyri" />
>>>>>>> e1d4bc35ff8a6074a6f2e91616a996b547c36f15
		<tag k="natural" v="wetland" />
		<tag k="ssr:stedsnr" v="555209" />
	</node>
<<<<<<< HEAD
	<node lat="61.86513333174499" lon="8.942850001681089" id="-23584">
		<tag k="name" v="Tassmyre" />
=======
	<node id="-366979" lat="61.679608332" lon="9.13179999298">
		<tag k="name" v="Stormyri" />
>>>>>>> e1d4bc35ff8a6074a6f2e91616a996b547c36f15
		<tag k="natural" v="wetland" />
		<tag k="ssr:stedsnr" v="587094" />
	</node>
<<<<<<< HEAD
	<node lat="61.86791666482722" lon="9.112463897214214" id="-23587">
=======
	<node id="-367488" lat="61.8679166648" lon="9.11246389721">
>>>>>>> e1d4bc35ff8a6074a6f2e91616a996b547c36f15
		<tag k="name" v="Prestrunningen" />
		<tag k="place" v="locality" />
		<tag k="ssr:stedsnr" v="587264" />
	</node>
<<<<<<< HEAD
	<node lat="61.84150833581022" lon="9.171347213584696" id="-23627">
		<tag k="name" v="Hestdokkje" />
=======
	<node id="-368507" lat="61.8842250015" lon="9.15325277406">
		<tag k="name" v="Tjønndalen" />
>>>>>>> e1d4bc35ff8a6074a6f2e91616a996b547c36f15
		<tag k="place" v="locality" />
		<tag k="ssr:stedsnr" v="706883" />
	</node>
<<<<<<< HEAD
	<node lat="61.842977780005334" lon="9.182683341849833" id="-23628">
		<tag k="name" v="Lauvsætermyre" />
		<tag k="natural" v="wetland" />
		<tag k="ssr:stedsnr" v="706887" />
	</node>
	<node lat="61.85096666985272" lon="9.051611109019769" id="-23654">
=======
	<node id="-367479" lat="61.8904944403" lon="9.22636110472">
		<tag k="name" v="Spitbekkmyrin" />
		<tag k="natural" v="wetland" />
		<tag k="ssr:stedsnr" v="708892" />
	</node>
	<node id="-367989" lat="61.9205527768" lon="8.97530000933">
		<tag k="name" v="Hortmorkje" />
		<tag k="place" v="locality" />
		<tag k="ssr:stedsnr" v="114367" />
	</node>
	<node id="-367604" lat="61.813294448" lon="9.03486389606">
		<tag k="name" v="Ljosmyre" />
		<tag k="natural" v="wetland" />
		<tag k="ssr:stedsnr" v="891200" />
	</node>
	<node id="-367985" lat="61.7982638933" lon="9.25058332567">
		<tag k="name" v="Vassboldokkje" />
		<tag k="place" v="locality" />
		<tag k="ssr:stedsnr" v="110684" />
	</node>
	<node id="-367464" lat="61.8509666699" lon="9.05161110902">
>>>>>>> e1d4bc35ff8a6074a6f2e91616a996b547c36f15
		<tag k="name" v="Stakstoein" />
		<tag k="place" v="locality" />
		<tag k="ssr:stedsnr" v="708164" />
	</node>
<<<<<<< HEAD
	<node lat="61.89049444032874" lon="9.226361104719954" id="-23668">
		<tag k="name" v="Spitbekkmyrin" />
=======
	<node id="-366943" lat="61.559675003" lon="9.01081389798">
		<tag k="name" v="Griningsdalsmyrin" />
>>>>>>> e1d4bc35ff8a6074a6f2e91616a996b547c36f15
		<tag k="natural" v="wetland" />
		<tag k="ssr:stedsnr" v="708892" />
	</node>
<<<<<<< HEAD
	<node lat="61.399113889275455" lon="8.640411114347813" id="-23681">
		<tag k="name" v="Leirungsbrean" />
		<tag k="natural" v="glacier" />
		<tag k="ssr:stedsnr" v="675152" />
	</node>
	<node lat="61.81329444800174" lon="9.034863896063872" id="-23682">
		<tag k="name" v="Ljosmyre" />
=======
	<node id="-367454" lat="61.84297778" lon="9.18268334185">
		<tag k="name" v="Lauvsætermyre" />
>>>>>>> e1d4bc35ff8a6074a6f2e91616a996b547c36f15
		<tag k="natural" v="wetland" />
		<tag k="ssr:stedsnr" v="891200" />
	</node>
<<<<<<< HEAD
	<node lat="61.64102500116906" lon="8.971638892437072" id="-23710">
		<tag k="name" v="Veomyrene" />
		<tag k="natural" v="wetland" />
		<tag k="ssr:stedsnr" v="891640" />
	</node>
	<node lat="61.88458889105072" lon="9.033097230242719" id="-23726">
=======
	<node id="-367453" lat="61.8415083358" lon="9.17134721358">
		<tag k="name" v="Hestdokkje" />
		<tag k="place" v="locality" />
		<tag k="ssr:stedsnr" v="706883" />
	</node>
	<node id="-367446" lat="61.8845888911" lon="9.03309723024">
>>>>>>> e1d4bc35ff8a6074a6f2e91616a996b547c36f15
		<tag k="name" v="Tvibyttnemyrin" />
		<tag k="natural" v="wetland" />
		<tag k="ssr:stedsnr" v="706017" />
	</node>
<<<<<<< HEAD
	<node lat="61.8290138923051" lon="9.279288888588747" id="-23741">
		<tag k="name" v="Posthus-Ekra" />
=======
	<node id="-366923" lat="61.8879666634" lon="9.05853334015">
		<tag k="alt_name" v="Åssårhågein" />
		<tag k="name" v="Åssårhagen" />
>>>>>>> e1d4bc35ff8a6074a6f2e91616a996b547c36f15
		<tag k="place" v="locality" />
		<tag k="ssr:stedsnr" v="898936" />
	</node>
<<<<<<< HEAD
	<node lat="61.49734522551213" lon="8.772203392030793" id="-23784">
		<tag k="name" v="Hamnsanden" />
		<tag k="natural" v="beach" />
		<tag k="ssr:stedsnr" v="754323" />
		<tag k="surface" v="sand" />
	</node>
	<node lat="61.845474999487095" lon="9.147027779295652" id="-23813">
		<tag k="alt_name" v="Røvsgrenmyre" />
		<tag k="name" v="Røvsgrenmyri" />
=======
	<node id="-366922" lat="61.8833277808" lon="9.05141666576">
		<tag k="name" v="Øvre Svenskelykkja" />
		<tag k="place" v="locality" />
		<tag k="ssr:stedsnr" v="39008" />
	</node>
	<node id="-366920" lat="61.8213638848" lon="9.20648888968">
		<tag k="name" v="Tæppingsmyre" />
>>>>>>> e1d4bc35ff8a6074a6f2e91616a996b547c36f15
		<tag k="natural" v="wetland" />
		<tag k="ssr:stedsnr" v="799285" />
	</node>
<<<<<<< HEAD
	<node lat="61.54375833022543" lon="8.954022222327607" id="-23856">
		<tag k="name" v="Sleomyre" />
=======
	<node id="-368450" lat="61.6787000019" lon="9.13235833879">
		<tag k="name" v="Stormyra" />
>>>>>>> e1d4bc35ff8a6074a6f2e91616a996b547c36f15
		<tag k="natural" v="wetland" />
		<tag k="ssr:stedsnr" v="920861" />
	</node>
<<<<<<< HEAD
	<node lat="61.94991944827672" lon="9.00322500095918" id="-23877">
		<tag k="name" v="Tjyruskjellmyre" />
=======
	<node id="-368446" lat="61.8197305554" lon="9.32850278217">
		<tag k="name" v="Varpmyre" />
>>>>>>> e1d4bc35ff8a6074a6f2e91616a996b547c36f15
		<tag k="natural" v="wetland" />
		<tag k="ssr:stedsnr" v="830015" />
	</node>
<<<<<<< HEAD
	<node lat="61.96197222621652" lon="9.00481944459365" id="-23878">
		<tag k="historic" v="shieling" />
		<tag k="name" v="Stulein" />
		<tag k="place" v="locality" />
		<tag k="ssr:stedsnr" v="830016" />
	</node>
	<node lat="61.800061113552935" lon="8.982897220271587" id="-23889">
		<tag k="alt_name" v="Tristeinein" />
		<tag k="name" v="Tristeinan" />
		<tag k="natural" v="stone" />
		<tag k="ssr:stedsnr" v="843437" />
	</node>
	<node lat="61.44775555668077" lon="8.670827775445867" id="-23892">
		<tag k="name" v="Steinflybrean" />
		<tag k="natural" v="glacier" />
		<tag k="ssr:stedsnr" v="858788" />
	</node>
	<node lat="61.80018610677229" lon="9.095561104422874" id="-23938">
		<tag k="alt_name" v="Grånmyre" />
		<tag k="name" v="Granmyri" />
=======
	<node id="-366905" lat="61.8659750024" lon="9.11316111388">
		<tag k="loc_name" v="Breigeilen" />
		<tag k="name" v="Breigjeilin" />
		<tag k="place" v="locality" />
		<tag k="ssr:stedsnr" v="223237" />
	</node>
	<node id="-367926" lat="61.523672223" lon="8.70221389037">
		<tag k="name" v="Besshøbrean" />
		<tag k="natural" v="glacier" />
		<tag k="ssr:stedsnr" v="71947" />
	</node>
	<node id="-367413" lat="61.8342972245" lon="9.08449999285">
		<tag k="name" v="Langmyrin" />
		<tag k="natural" v="wetland" />
		<tag k="ssr:stedsnr" v="555209" />
	</node>
	<node id="-368431" lat="61.8651333317" lon="8.94285000168">
		<tag k="name" v="Tassmyre" />
		<tag k="natural" v="wetland" />
		<tag k="ssr:stedsnr" v="587094" />
	</node>
	<node id="-368425" lat="61.751355553" lon="9.07985278718">
		<tag k="name" v="Kalvmyre" />
>>>>>>> e1d4bc35ff8a6074a6f2e91616a996b547c36f15
		<tag k="natural" v="wetland" />
		<tag k="ssr:stedsnr" v="920413" />
	</node>
<<<<<<< HEAD
	<node lat="61.55151944480764" lon="8.572886113470393" id="-23942">
		<tag k="name" v="Blåbrean" />
=======
	<node id="-366875" lat="61.5788555543" lon="8.55650277947">
		<tag k="name" v="Styggehøbrean" />
>>>>>>> e1d4bc35ff8a6074a6f2e91616a996b547c36f15
		<tag k="natural" v="glacier" />
		<tag k="ssr:stedsnr" v="920915" />
	</node>
<<<<<<< HEAD
	<node lat="61.90309166669155" lon="9.077852785986869" id="-23964">
		<tag k="name" v="Broneslettin" />
		<tag k="place" v="locality" />
		<tag k="ssr:stedsnr" v="951002" />
	</node>
	<node lat="61.849605554363706" lon="9.105936110237133" id="-23999">
		<tag k="alt_name" v="Sundsteinmyre" />
		<tag k="name" v="Sundsteinmyri" />
=======
	<node id="-367896" lat="61.6940888919" lon="9.07320555199">
		<tag k="alt_name" v="Kverngrovmyrene" />
		<tag k="name" v="Kverngrovmyrin" />
		<tag k="natural" v="wetland" />
		<tag k="ssr:stedsnr" v="70990" />
	</node>
	<node id="-368406" lat="61.6383249993" lon="8.96201110454">
		<tag k="name" v="Veomyrin" />
>>>>>>> e1d4bc35ff8a6074a6f2e91616a996b547c36f15
		<tag k="natural" v="wetland" />
		<tag k="ssr:stedsnr" v="10263" />
	</node>
<<<<<<< HEAD
	<node lat="61.80593889321894" lon="8.983380557069221" id="-24008">
=======
	<node id="-366868" lat="61.8059388932" lon="8.98338055707">
>>>>>>> e1d4bc35ff8a6074a6f2e91616a996b547c36f15
		<tag k="alt_name" v="Skåtåmyre" />
		<tag k="name" v="Skåtåmyri" />
		<tag k="natural" v="wetland" />
		<tag k="ssr:stedsnr" v="10454" />
	</node>
<<<<<<< HEAD
	<node lat="61.81939722450383" lon="9.396722223830464" id="-24015">
		<tag k="name" v="Nysætermyrin" />
		<tag k="natural" v="wetland" />
		<tag k="ssr:stedsnr" v="10774" />
	</node>
	<node lat="61.57885555430821" lon="8.556502779467683" id="-24020">
		<tag k="name" v="Styggehøbrean" />
		<tag k="natural" v="glacier" />
		<tag k="ssr:stedsnr" v="10918" />
	</node>
	<node lat="61.88425555141261" lon="9.117888897819856" id="-24041">
		<tag k="name" v="Skjellmyre" />
		<tag k="natural" v="wetland" />
		<tag k="ssr:stedsnr" v="39985" />
	</node>
	<node lat="61.84967500435921" lon="9.180825003494451" id="-24043">
		<tag k="name" v="Krok" />
=======
	<node id="-366860" lat="61.8825499996" lon="9.12330555882">
		<tag k="name" v="Holane" />
		<tag k="place" v="locality" />
		<tag k="ssr:stedsnr" v="221983" />
	</node>
	<node id="-366857" lat="61.8709222261" lon="9.21769167484">
		<tag k="name" v="Holungsmorkje" />
>>>>>>> e1d4bc35ff8a6074a6f2e91616a996b547c36f15
		<tag k="place" v="locality" />
		<tag k="ssr:stedsnr" v="39830" />
	</node>
<<<<<<< HEAD
	<node lat="61.63637778004617" lon="8.990091669404773" id="-24059">
=======
	<node id="-367874" lat="61.63637778" lon="8.9900916694">
>>>>>>> e1d4bc35ff8a6074a6f2e91616a996b547c36f15
		<tag k="name" v="Fugleleikmyra" />
		<tag k="natural" v="wetland" />
		<tag k="ssr:stedsnr" v="41400" />
	</node>
<<<<<<< HEAD
	<node lat="61.82333610853268" lon="9.112572218476009" id="-24125">
		<tag k="historic" v="shieling" />
		<tag k="name" v="Myresætre" />
		<tag k="place" v="locality" />
		<tag k="ssr:stedsnr" v="102152" />
	</node>
	<node lat="61.9205527768104" lon="8.975300009334132" id="-24141">
		<tag k="name" v="Hortmorkje" />
		<tag k="place" v="locality" />
		<tag k="ssr:stedsnr" v="114367" />
	</node>
	<node lat="61.820424997610424" lon="9.058536118380824" id="-24162">
		<tag k="alt_name" v="Krossmyre" />
		<tag k="name" v="Krossmyri" />
=======
	<node id="-368381" lat="61.6803833319" lon="8.99825555529">
		<tag k="name" v="Veomyrin" />
		<tag k="natural" v="wetland" />
		<tag k="ssr:stedsnr" v="555731" />
	</node>
	<node id="-367958" lat="61.8233361085" lon="9.11257221848">
		<tag k="historic" v="shieling" />
		<tag k="name" v="Myresætre" />
		<tag k="place" v="locality" />
		<tag k="ssr:stedsnr" v="102152" />
	</node>
	<node id="-367858" lat="61.8842555514" lon="9.11788889782">
		<tag k="name" v="Skjellmyre" />
>>>>>>> e1d4bc35ff8a6074a6f2e91616a996b547c36f15
		<tag k="natural" v="wetland" />
		<tag k="ssr:stedsnr" v="131443" />
	</node>
<<<<<<< HEAD
	<node lat="61.90042499586938" lon="9.152277776370715" id="-24186">
		<tag k="name" v="Volemyrin" />
=======
	<node id="-367857" lat="61.8395555597" lon="9.13199723118">
		<tag k="name" v="Ljosmyre" />
>>>>>>> e1d4bc35ff8a6074a6f2e91616a996b547c36f15
		<tag k="natural" v="wetland" />
		<tag k="ssr:stedsnr" v="132349" />
	</node>
<<<<<<< HEAD
	<node lat="61.859291668587865" lon="8.910902786717608" id="-24191">
		<tag k="name" v="Kvitule" />
		<tag k="natural" v="scree" />
		<tag k="ssr:stedsnr" v="160054" />
	</node>
	<node lat="61.8761944438867" lon="9.074719450051333" id="-24194">
		<tag k="alt_name" v="Kvarbergmorkje;Kvarbergsmorka" />
		<tag k="name" v="Kvarbergsmorkje" />
=======
	<node id="-368368" lat="61.7946027805" lon="9.26066110855">
		<tag k="name" v="Langdokkje" />
>>>>>>> e1d4bc35ff8a6074a6f2e91616a996b547c36f15
		<tag k="place" v="locality" />
		<tag k="ssr:stedsnr" v="160161" />
	</node>
<<<<<<< HEAD
	<node lat="61.89790555675663" lon="9.048613893525822" id="-24195">
		<tag k="name" v="Åslykkjun" />
=======
	<node id="-367855" lat="61.8496750044" lon="9.18082500349">
		<tag k="name" v="Krok" />
>>>>>>> e1d4bc35ff8a6074a6f2e91616a996b547c36f15
		<tag k="place" v="locality" />
		<tag k="ssr:stedsnr" v="160028" />
	</node>
<<<<<<< HEAD
	<node lat="61.95422500166652" lon="9.053297222570373" id="-24204">
		<tag k="historic" v="shieling" />
		<tag k="name" v="Solbu" />
=======
	<node id="-368362" lat="61.8227861144" lon="9.34876665999">
		<tag k="name" v="Beitkostan" />
>>>>>>> e1d4bc35ff8a6074a6f2e91616a996b547c36f15
		<tag k="place" v="locality" />
		<tag k="ssr:stedsnr" v="162008" />
	</node>
<<<<<<< HEAD
	<node lat="61.88316388835243" lon="9.055272224323677" id="-24206">
		<tag k="name" v="Nedre Svenskelykkja" />
		<tag k="place" v="locality" />
		<tag k="ssr:stedsnr" v="162045" />
	</node>
	<node lat="61.71458055774894" lon="8.95038333126531" id="-24261">
		<tag k="name" v="Vesllimyre" />
=======
	<node id="-367336" lat="61.3991138893" lon="8.64041111435">
		<tag k="name" v="Leirungsbrean" />
		<tag k="natural" v="glacier" />
		<tag k="ssr:stedsnr" v="675152" />
	</node>
	<node id="-367837" lat="61.8193972245" lon="9.39672222383">
		<tag k="name" v="Nysætermyrin" />
>>>>>>> e1d4bc35ff8a6074a6f2e91616a996b547c36f15
		<tag k="natural" v="wetland" />
		<tag k="ssr:stedsnr" v="192976" />
	</node>
<<<<<<< HEAD
	<node lat="61.882549999570486" lon="9.123305558816558" id="-24298">
		<tag k="name" v="Holane" />
		<tag k="place" v="locality" />
		<tag k="ssr:stedsnr" v="221983" />
	</node>
	<node lat="61.87092222608782" lon="9.217691674841213" id="-24300">
		<tag k="name" v="Holungsmorkje" />
		<tag k="place" v="locality" />
		<tag k="ssr:stedsnr" v="221713" />
	</node>
	<node lat="61.865975002408184" lon="9.113161113884434" id="-24309">
		<tag k="loc_name" v="Breigeilen" />
		<tag k="name" v="Breigjeilin" />
		<tag k="place" v="locality" />
		<tag k="ssr:stedsnr" v="223237" />
	</node>
	<node lat="61.931466670999136" lon="8.961855550759536" id="-24349">
=======
	<node id="-368341" lat="61.9071972207" lon="9.06770834015">
		<tag k="name" v="Vinesmyrin" />
		<tag k="natural" v="wetland" />
		<tag k="ssr:stedsnr" v="524015" />
	</node>
	<node id="-367825" lat="61.8496055544" lon="9.10593611024">
		<tag k="alt_name" v="Sundsteinmyre" />
		<tag k="name" v="Sundsteinmyri" />
		<tag k="natural" v="wetland" />
		<tag k="ssr:stedsnr" v="10263" />
	</node>
	<node id="-368320" lat="61.8164977077" lon="9.34821828513">
>>>>>>> e1d4bc35ff8a6074a6f2e91616a996b547c36f15
		<tag k="name" v="Ljosmyre" />
		<tag k="natural" v="wetland" />
		<tag k="ssr:stedsnr" v="296317" />
	</node>
<<<<<<< HEAD
	<node lat="61.861733756548645" lon="9.215980494074392" id="-24393">
		<tag k="name" v="Øyasand" />
		<tag k="natural" v="beach" />
		<tag k="ssr:stedsnr" v="342733" />
		<tag k="surface" v="sand" />
	</node>
	<node lat="61.7281055592967" lon="9.068774997884384" id="-24396">
		<tag k="historic" v="shieling" />
		<tag k="name" v="Omonsætre" />
=======
	<node id="-367284" lat="61.8403861067" lon="8.9727222181">
		<tag k="name" v="Flåten" />
>>>>>>> e1d4bc35ff8a6074a6f2e91616a996b547c36f15
		<tag k="place" v="locality" />
		<tag k="ssr:stedsnr" v="344482" />
	</node>
<<<<<<< HEAD
	<node lat="61.88501111247325" lon="9.001713888998914" id="-24401">
		<tag k="name" v="Tromyre" />
		<tag k="natural" v="wetland" />
		<tag k="ssr:stedsnr" v="344022" />
	</node>
	<node lat="61.84415555207114" lon="9.01931667070558" id="-24402">
		<tag k="alt_name" v="Ikøynsteinein" />
		<tag k="name" v="Ikornsteinan" />
		<tag k="natural" v="stone" />
		<tag k="ssr:stedsnr" v="344133" />
	</node>
	<node lat="61.9390750032192" lon="8.971236110976893" id="-24417">
		<tag k="name" v="Klovningsstein" />
		<tag k="natural" v="stone" />
		<tag k="ssr:stedsnr" v="357333" />
	</node>
	<node lat="61.84038610669856" lon="8.972722218100504" id="-24474">
		<tag k="name" v="Flåten" />
=======
	<node id="-367281" lat="61.9186027745" lon="9.0227527795">
		<tag k="name" v="Stålein" />
>>>>>>> e1d4bc35ff8a6074a6f2e91616a996b547c36f15
		<tag k="place" v="locality" />
		<tag k="ssr:stedsnr" v="405108" />
	</node>
<<<<<<< HEAD
	<node lat="61.807602775764735" lon="9.248416667637494" id="-24485">
		<tag k="name" v="Pillarvikflata" />
=======
	<node id="-367792" lat="61.9030916667" lon="9.07785278599">
		<tag k="name" v="Broneslettin" />
>>>>>>> e1d4bc35ff8a6074a6f2e91616a996b547c36f15
		<tag k="place" v="locality" />
		<tag k="ssr:stedsnr" v="413679" />
	</node>
<<<<<<< HEAD
	<node lat="61.90719722074627" lon="9.067708340154802" id="-24554">
		<tag k="name" v="Vinesmyrin" />
		<tag k="natural" v="wetland" />
		<tag k="ssr:stedsnr" v="524015" />
	</node>
	<node lat="61.82278611438656" lon="9.348766659990684" id="-24568">
		<tag k="name" v="Beitkostan" />
=======
	<node id="-368292" lat="61.8076027758" lon="9.24841666764">
		<tag k="name" v="Pillarvikflata" />
>>>>>>> e1d4bc35ff8a6074a6f2e91616a996b547c36f15
		<tag k="place" v="locality" />
		<tag k="ssr:stedsnr" v="526595" />
	</node>
<<<<<<< HEAD
	<node lat="61.79460278052217" lon="9.260661108553723" id="-24579">
		<tag k="name" v="Langdokkje" />
		<tag k="place" v="locality" />
		<tag k="ssr:stedsnr" v="534665" />
	</node>
	<node lat="61.680383331878254" lon="8.99825555529075" id="-24591">
		<tag k="name" v="Veomyrin" />
=======
	<node id="-367775" lat="61.8001861068" lon="9.09556110442">
		<tag k="alt_name" v="Grånmyre" />
		<tag k="name" v="Granmyri" />
>>>>>>> e1d4bc35ff8a6074a6f2e91616a996b547c36f15
		<tag k="natural" v="wetland" />
		<tag k="ssr:stedsnr" v="555731" />
	</node>
<<<<<<< HEAD
	<node lat="61.638324999342984" lon="8.962011104543926" id="-24623">
		<tag k="name" v="Veomyrin" />
=======
	<node id="-368284" lat="61.6833527794" lon="9.05460556465">
		<tag k="name" v="Ståkåmyra" />
>>>>>>> e1d4bc35ff8a6074a6f2e91616a996b547c36f15
		<tag k="natural" v="wetland" />
		<tag k="ssr:stedsnr" v="556785" />
	</node>
<<<<<<< HEAD
	<node lat="61.7513555530441" lon="9.079852787183679" id="-24638">
		<tag k="name" v="Kalvmyre" />
=======
	<node id="-368275" lat="61.7398027797" lon="9.10502777488">
		<tag k="name" v="Stormyre" />
>>>>>>> e1d4bc35ff8a6074a6f2e91616a996b547c36f15
		<tag k="natural" v="wetland" />
		<tag k="ssr:stedsnr" v="586366" />
	</node>
<<<<<<< HEAD
	<node lat="61.819730555372935" lon="9.328502782168949" id="-24649">
		<tag k="name" v="Varpmyre" />
		<tag k="natural" v="wetland" />
		<tag k="ssr:stedsnr" v="594532" />
	</node>
	<node lat="61.678700001867306" lon="9.132358338786549" id="-24650">
		<tag k="name" v="Stormyra" />
		<tag k="natural" v="wetland" />
		<tag k="ssr:stedsnr" v="595608" />
	</node>
	<node lat="61.884225001465126" lon="9.153252774063253" id="-24696">
		<tag k="name" v="Tjønndalen" />
=======
	<node id="-368779" lat="61.8045111098" lon="8.94877222203">
		<tag k="name" v="Storstein" />
		<tag k="natural" v="stone" />
		<tag k="ssr:stedsnr" v="963479" />
	</node>
	<node id="-367753" lat="61.860647219" lon="8.87910555371">
		<tag k="name" v="Kolbotten" />
>>>>>>> e1d4bc35ff8a6074a6f2e91616a996b547c36f15
		<tag k="place" v="locality" />
		<tag k="ssr:stedsnr" v="645998" />
	</node>
<<<<<<< HEAD
	<node lat="61.883563891747116" lon="9.134963897864749" id="-24763">
		<tag k="name" v="Sandbuslykkja" />
		<tag k="place" v="locality" />
		<tag k="ssr:stedsnr" v="889979" />
	</node>
	<node lat="61.837038891445424" lon="9.31287778309777" id="-24789">
		<tag k="name" v="Jælkemyra" />
		<tag k="natural" v="wetland" />
		<tag k="ssr:stedsnr" v="778946" />
	</node>
	<node lat="61.7313388891356" lon="8.960891663355255" id="-24831">
=======
	<node id="-367718" lat="61.7313388891" lon="8.96089166336">
>>>>>>> e1d4bc35ff8a6074a6f2e91616a996b547c36f15
		<tag k="alt_name" v="Fuglesætermyrene" />
		<tag k="name" v="Fuglesætermyrin" />
		<tag k="natural" v="wetland" />
		<tag k="ssr:stedsnr" v="799978" />
	</node>
<<<<<<< HEAD
	<node lat="61.884425000734424" lon="9.16264999849577" id="-24842">
		<tag k="name" v="Øvre Tjønndalshaugen" />
=======
	<node id="-368229" lat="61.9390750032" lon="8.97123611098">
		<tag k="name" v="Klovningsstein" />
		<tag k="natural" v="stone" />
		<tag k="ssr:stedsnr" v="357333" />
	</node>
	<node id="-367203" lat="61.8205500003" lon="8.98860833332">
		<tag k="name" v="Ulvemyre" />
		<tag k="natural" v="wetland" />
		<tag k="ssr:stedsnr" v="478498" />
	</node>
	<node id="-368217" lat="61.7281055593" lon="9.06877499788">
		<tag k="historic" v="shieling" />
		<tag k="name" v="Omonsætre" />
>>>>>>> e1d4bc35ff8a6074a6f2e91616a996b547c36f15
		<tag k="place" v="locality" />
		<tag k="ssr:stedsnr" v="828997" />
	</node>
	<node lat="61.441827776206196" lon="8.600824993321684" id="-24868">
		<tag k="name" v="Skarvflybrean" />
		<tag k="natural" v="glacier" />
		<tag k="ssr:stedsnr" v="858144" />
	</node>
<<<<<<< HEAD
	<node lat="61.5682250020114" lon="8.96886110437221" id="-24877">
=======
	<node id="-368725" lat="61.568225002" lon="8.96886110437">
>>>>>>> e1d4bc35ff8a6074a6f2e91616a996b547c36f15
		<tag k="name" v="Styggemyre" />
		<tag k="natural" v="wetland" />
		<tag k="ssr:stedsnr" v="859798" />
	</node>
<<<<<<< HEAD
	<node lat="61.82953332983098" lon="9.303958330364226" id="-24908">
		<tag k="name" v="Torvmyre" />
		<tag k="natural" v="wetland" />
		<tag k="ssr:stedsnr" v="886538" />
	</node>
	<node lat="61.8886361077779" lon="9.0116361043506" id="-24913">
		<tag k="name" v="Langmyrin" />
		<tag k="natural" v="wetland" />
		<tag k="ssr:stedsnr" v="889035" />
	</node>
	<node lat="61.860647218988056" lon="8.87910555371398" id="-24919">
		<tag k="name" v="Kolbotten" />
		<tag k="place" v="locality" />
		<tag k="ssr:stedsnr" v="949067" />
	</node>
	<node lat="61.8045111097715" lon="8.948772222034558" id="-24946">
		<tag k="name" v="Storstein" />
		<tag k="natural" v="stone" />
		<tag k="ssr:stedsnr" v="963479" />
=======
	<node id="-368212" lat="61.8441555521" lon="9.01931667071">
		<tag k="alt_name" v="Ikøynsteinein" />
		<tag k="name" v="Ikornsteinan" />
		<tag k="natural" v="stone" />
		<tag k="ssr:stedsnr" v="344133" />
	</node>
	<node id="-368207" lat="61.8850111125" lon="9.001713889">
		<tag k="name" v="Tromyre" />
		<tag k="natural" v="wetland" />
		<tag k="ssr:stedsnr" v="344022" />
	</node>
	<node id="-368718" lat="61.4477555567" lon="8.67082777545">
		<tag k="name" v="Steinflybrean" />
		<tag k="natural" v="glacier" />
		<tag k="ssr:stedsnr" v="858788" />
	</node>
	<node id="-368717" lat="61.4418277762" lon="8.60082499332">
		<tag k="name" v="Skarvflybrean" />
		<tag k="natural" v="glacier" />
		<tag k="ssr:stedsnr" v="858144" />
	</node>
	<node id="-368201" lat="61.880613891" lon="9.17166110543">
		<tag k="name" v="Svarttjønnurde" />
		<tag k="natural" v="scree" />
		<tag k="ssr:stedsnr" v="342993" />
	</node>
	<node id="-367687" lat="61.5515194448" lon="8.57288611347">
		<tag k="name" v="Blåbrean" />
		<tag k="natural" v="glacier" />
		<tag k="ssr:stedsnr" v="920915" />
	</node>
	<node id="-368197" lat="61.8617337565" lon="9.21598049407">
		<tag k="name" v="Øyasand" />
		<tag k="natural" v="beach" />
		<tag k="ssr:stedsnr" v="342733" />
		<tag k="surface" v="sand" />
>>>>>>> e1d4bc35ff8a6074a6f2e91616a996b547c36f15
	</node>
	<node id="-367679" lat="61.5437583302" lon="8.95402222233">
		<tag k="name" v="Sleomyre" />
		<tag k="natural" v="wetland" />
		<tag k="ssr:stedsnr" v="920861" />
	</node>
	<node id="-367160" lat="61.5893333321" lon="8.93376110367">
		<tag k="landuse" v="meadow" />
		<tag k="name" v="Russlivangene" />
		<tag k="ssr:stedsnr" v="465591" />
	</node>
	<node id="-367158" lat="61.8517333308" lon="9.02047777703">
		<tag k="name" v="Bukkestein" />
		<tag k="natural" v="stone" />
		<tag k="ssr:stedsnr" v="465128" />
	</node>
	<node id="-368690" lat="61.9619722262" lon="9.00481944459">
		<tag k="historic" v="shieling" />
		<tag k="name" v="Stulein" />
		<tag k="place" v="locality" />
		<tag k="ssr:stedsnr" v="830016" />
	</node>
	<node id="-368689" lat="61.9499194483" lon="9.00322500096">
		<tag k="name" v="Tjyruskjellmyre" />
		<tag k="natural" v="wetland" />
		<tag k="ssr:stedsnr" v="830015" />
	</node>
	<node id="-367624" lat="61.8290138923" lon="9.27928888859">
		<tag k="name" v="Posthus-Ekra" />
		<tag k="place" v="locality" />
		<tag k="ssr:stedsnr" v="898936" />
	</node>
	<node id="-368685" lat="61.8844250007" lon="9.1626499985">
		<tag k="name" v="Øvre Tjønndalshaugen" />
		<tag k="place" v="locality" />
		<tag k="ssr:stedsnr" v="828997" />
	</node>
	<node id="-367144" lat="61.8639638911" lon="8.90946388172">
		<tag k="name" v="Flatflåten" />
		<tag k="place" v="locality" />
		<tag k="ssr:stedsnr" v="464076" />
	</node>
	<node id="-367130" lat="61.9384583307" lon="9.06240000112">
		<tag k="name" v="Målmyrin" />
		<tag k="natural" v="wetland" />
		<tag k="ssr:stedsnr" v="254108" />
	</node>
	<node id="-368153" lat="61.4263861087" lon="8.62334443708">
		<tag k="name" v="Skarvflyløyftbrean" />
		<tag k="natural" v="glacier" />
		<tag k="ssr:stedsnr" v="310129" />
	</node>
	<node id="-367124" lat="61.8733388853" lon="9.14403055912">
		<tag k="name" v="Fåbrunnet" />
		<tag k="place" v="locality" />
		<tag k="ssr:stedsnr" v="221917" />
	</node>
	<node id="-367117" lat="61.931466671" lon="8.96185555076">
		<tag k="name" v="Ljosmyre" />
		<tag k="natural" v="wetland" />
		<tag k="ssr:stedsnr" v="296317" />
	</node>
	<node id="-367609" lat="61.6410250012" lon="8.97163889244">
		<tag k="name" v="Veomyrene" />
		<tag k="natural" v="wetland" />
		<tag k="ssr:stedsnr" v="891640" />
	</node>
	<node id="-366934" lat="61.831102779" lon="8.93004999056">
		<tag k="name" v="Galtmyre" />
		<tag k="natural" v="wetland" />
		<tag k="ssr:stedsnr" v="236452" />
	</node>
</osm>
