<?xml version="1.0" encoding="UTF-8"?>
<<<<<<< HEAD
<osm version="0.6" generator="osmapis">
	<node lat="59.741716664845065" lon="11.833724994472673" id="-21991">
		<tag k="name" v="Høgemoen" />
		<tag k="place" v="locality" />
		<tag k="ssr:stedsnr" v="232148" />
	</node>
	<node lat="59.70805833586911" lon="11.884386113727391" id="-21992">
		<tag k="name" v="Kjørestuhaget" />
		<tag k="place" v="locality" />
		<tag k="ssr:stedsnr" v="232124" />
	</node>
	<node lat="59.67899444306246" lon="11.801327785281247" id="-21995">
		<tag k="name" v="Bakkenga" />
		<tag k="place" v="locality" />
		<tag k="ssr:stedsnr" v="232220" />
	</node>
	<node lat="59.7444583352456" lon="11.86058888506038" id="-21998">
		<tag k="name" v="Kleiva" />
		<tag k="place" v="locality" />
		<tag k="ssr:stedsnr" v="232177" />
	</node>
	<node lat="59.68455555493758" lon="11.760336104422615" id="-22003">
		<tag k="name" v="Slavassbakken" />
		<tag k="place" v="locality" />
		<tag k="ssr:stedsnr" v="233022" />
	</node>
	<node lat="59.65868055964216" lon="11.810161119190038" id="-22009">
		<tag k="name" v="Røgdebråtan" />
		<tag k="place" v="locality" />
		<tag k="ssr:stedsnr" v="233063" />
	</node>
	<node lat="59.63802499716823" lon="11.720702774522499" id="-22010">
		<tag k="name" v="Torvehauga" />
		<tag k="place" v="locality" />
		<tag k="ssr:stedsnr" v="233068" />
	</node>
	<node lat="59.955830551675874" lon="11.521050000506564" id="-22054">
		<tag k="name" v="Jakobsmoen" />
		<tag k="place" v="locality" />
		<tag k="ssr:stedsnr" v="238327" />
	</node>
	<node lat="59.71270278024043" lon="11.877102770056204" id="-22061">
		<tag k="name" v="Ringsbysetra" />
		<tag k="place" v="locality" />
		<tag k="ssr:stedsnr" v="50116" />
	</node>
	<node lat="59.64244166248669" lon="11.77061111083078" id="-22068">
		<tag k="name" v="Seterneset" />
		<tag k="place" v="locality" />
		<tag k="ssr:stedsnr" v="51115" />
	</node>
	<node lat="59.70746111275728" lon="11.891108336968854" id="-22069">
		<tag k="name" v="Hagesetra" />
		<tag k="place" v="locality" />
		<tag k="ssr:stedsnr" v="51171" />
	</node>
	<node lat="59.76298611076218" lon="11.931052783553476" id="-22070">
		<tag k="name" v="Fløytestua" />
		<tag k="place" v="locality" />
		<tag k="ssr:stedsnr" v="51174" />
	</node>
	<node lat="59.715674996980546" lon="11.780863896836774" id="-22076">
		<tag k="name" v="Haugenesfjella" />
		<tag k="place" v="locality" />
		<tag k="ssr:stedsnr" v="51270" />
	</node>
	<node lat="59.68338611207629" lon="11.690744445486793" id="-22078">
		<tag k="name" v="Tangemannsposten" />
		<tag k="place" v="locality" />
		<tag k="ssr:stedsnr" v="51282" />
	</node>
	<node lat="59.93364166323041" lon="11.66891388990864" id="-22093">
=======
<osm generator="osmapis" version="0.6">
	<node id="-253945" lat="59.8266416665" lon="11.7222833329">
		<tag k="alt_name" v="Setskog" />
		<tag k="amenity" v="place_of_worship" />
		<tag k="denomination" v="lutheran" />
		<tag k="name" v="Setskog kirke" />
		<tag k="religion" v="christian" />
		<tag k="ssr:stedsnr" v="65286" />
	</node>
	<node id="-253935" lat="59.7269055595" lon="11.8163861108">
		<tag k="amenity" v="place_of_worship" />
		<tag k="denomination" v="lutheran" />
		<tag k="name" v="Rømskog kirke" />
		<tag k="religion" v="christian" />
		<tag k="ssr:stedsnr" v="64649" />
	</node>
	<node id="-251644" lat="59.6619138886" lon="11.8612222229">
		<tag k="name" v="Gravene" />
		<tag k="place" v="locality" />
		<tag k="ssr:stedsnr" v="293152" />
	</node>
	<node id="-251872" lat="59.6897055588" lon="11.6707611058">
		<tag k="name" v="Løkensetra" />
		<tag k="place" v="locality" />
		<tag k="ssr:stedsnr" v="475252" />
	</node>
	<node id="-252377" lat="59.8572250032" lon="11.5253138947">
		<tag k="alt_name" v="Hornåseng st" />
		<tag k="name" v="Hornåseng" />
		<tag k="place" v="locality" />
		<tag k="ssr:stedsnr" v="672133" />
	</node>
	<node id="-251863" lat="59.6389055584" lon="11.7601694504">
		<tag k="name" v="Pølsekleivsleppa" />
		<tag k="place" v="locality" />
		<tag k="ssr:stedsnr" v="475204" />
	</node>
	<node id="-251862" lat="59.6423444427" lon="11.7423499947">
		<tag k="name" v="Kasthalla" />
		<tag k="place" v="locality" />
		<tag k="ssr:stedsnr" v="475196" />
	</node>
	<node id="-252921" lat="59.7741361131" lon="11.459886107">
		<tag k="name" v="Sjøberg" />
		<tag k="place" v="locality" />
		<tag k="ssr:stedsnr" v="648481" />
	</node>
	<node id="-251857" lat="59.7239638908" lon="11.9361944407">
		<tag k="name" v="Svartebergslusa" />
		<tag k="place" v="locality" />
		<tag k="ssr:stedsnr" v="475163" />
	</node>
	<node id="-251855" lat="59.749422225" lon="11.7774916583">
		<tag k="name" v="Kollen" />
		<tag k="place" v="locality" />
		<tag k="ssr:stedsnr" v="475143" />
	</node>
	<node id="-251852" lat="59.6471722263" lon="11.7721361057">
		<tag k="name" v="Bråtasetra" />
		<tag k="place" v="locality" />
		<tag k="ssr:stedsnr" v="475111" />
	</node>
	<node id="-251849" lat="59.7729611147" lon="11.7856472278">
		<tag k="name" v="Hjulemyrbakken" />
		<tag k="place" v="locality" />
		<tag k="ssr:stedsnr" v="475088" />
	</node>
	<node id="-251848" lat="59.723808333" lon="11.8857250008">
		<tag k="name" v="Bøsetrene" />
		<tag k="place" v="locality" />
		<tag k="ssr:stedsnr" v="475063" />
	</node>
	<node id="-254391" lat="59.8202999989" lon="11.4924222244">
		<tag k="name" v="Møllebak" />
		<tag k="place" v="locality" />
		<tag k="ssr:stedsnr" v="176175" />
	</node>
	<node id="-254387" lat="59.6786333325" lon="11.7930722137">
		<tag k="name" v="Lenkeberga" />
		<tag k="place" v="locality" />
		<tag k="ssr:stedsnr" v="172241" />
	</node>
	<node id="-254383" lat="59.6562694467" lon="11.8514722256">
		<tag k="name" v="Nord-Flaten" />
		<tag k="place" v="locality" />
		<tag k="ssr:stedsnr" v="172205" />
	</node>
	<node id="-254381" lat="59.6539833361" lon="11.836274996">
		<tag k="name" v="Kornbråtan" />
		<tag k="place" v="locality" />
		<tag k="ssr:stedsnr" v="172182" />
	</node>
	<node id="-251300" lat="59.9336416632" lon="11.6689138899">
>>>>>>> e1d4bc35ff8a6074a6f2e91616a996b547c36f15
		<tag k="name" v="Sterkerudsaga" />
		<tag k="place" v="locality" />
		<tag k="ssr:stedsnr" v="239752" />
	</node>
<<<<<<< HEAD
	<node lat="59.71740555280621" lon="11.448741659161884" id="-22278">
		<tag k="alt_name" v="Søndre Høland" />
		<tag k="amenity" v="place_of_worship" />
		<tag k="denomination" v="lutheran" />
		<tag k="name" v="Søndre Høland kirke" />
		<tag k="religion" v="christian" />
		<tag k="ssr:stedsnr" v="247832" />
	</node>
	<node lat="59.76976389169845" lon="11.905030564435803" id="-22330">
		<tag k="name" v="Flavelta" />
		<tag k="place" v="locality" />
		<tag k="ssr:stedsnr" v="111021" />
	</node>
	<node lat="59.70466110721133" lon="11.773174996483286" id="-22331">
		<tag k="name" v="Framsetrene" />
		<tag k="place" v="locality" />
		<tag k="ssr:stedsnr" v="111082" />
	</node>
	<node lat="59.722550001399576" lon="11.906538896381722" id="-22334">
		<tag k="name" v="Østtukusetra" />
		<tag k="place" v="locality" />
		<tag k="ssr:stedsnr" v="111172" />
	</node>
	<node lat="59.7001194448122" lon="11.866616662388006" id="-22449">
		<tag k="name" v="Innleggen" />
		<tag k="place" v="locality" />
		<tag k="ssr:stedsnr" v="171108" />
	</node>
	<node lat="59.758819440581796" lon="11.803791665644788" id="-22455">
		<tag k="name" v="Sandbekkekrene" />
		<tag k="place" v="locality" />
		<tag k="ssr:stedsnr" v="172024" />
	</node>
	<node lat="59.65741111013335" lon="11.840719444467492" id="-22458">
		<tag k="name" v="Tyrihjellen" />
		<tag k="place" v="locality" />
		<tag k="ssr:stedsnr" v="172075" />
	</node>
	<node lat="59.65626944671615" lon="11.85147222563976" id="-22459">
		<tag k="name" v="Nord-Flaten" />
		<tag k="place" v="locality" />
		<tag k="ssr:stedsnr" v="172205" />
	</node>
	<node lat="59.78303333374339" lon="11.80923055563323" id="-22584">
		<tag k="name" v="Engene" />
		<tag k="place" v="locality" />
		<tag k="ssr:stedsnr" v="232138" />
	</node>
	<node lat="59.752024999980854" lon="11.899377771420966" id="-22585">
		<tag k="name" v="Jørnesetra" />
		<tag k="place" v="locality" />
		<tag k="ssr:stedsnr" v="232180" />
	</node>
	<node lat="59.665827776985026" lon="11.762097218136832" id="-22590">
		<tag k="name" v="Hagasetra" />
=======
	<node id="-254370" lat="59.6574111101" lon="11.8407194445">
		<tag k="name" v="Tyrihjellen" />
		<tag k="place" v="locality" />
		<tag k="ssr:stedsnr" v="172075" />
	</node>
	<node id="-251808" lat="59.9436444472" lon="11.4435722158">
		<tag k="name" v="Korsbekken" />
		<tag k="place" v="locality" />
		<tag k="ssr:stedsnr" v="300305" />
	</node>
	<node id="-254363" lat="59.7588194406" lon="11.8037916656">
		<tag k="name" v="Sandbekkekrene" />
		<tag k="place" v="locality" />
		<tag k="ssr:stedsnr" v="172024" />
	</node>
	<node id="-252228" lat="59.7333888886" lon="11.8072861152">
		<tag k="name" v="Bøhaget" />
		<tag k="place" v="locality" />
		<tag k="ssr:stedsnr" v="657012" />
	</node>
	<node id="-254865" lat="59.7015416692" lon="11.770766661">
		<tag k="name" v="Brochmannsbjørka" />
		<tag k="place" v="locality" />
		<tag k="ssr:stedsnr" v="354261" />
	</node>
	<node id="-254864" lat="59.7110444434" lon="11.7802138848">
		<tag k="name" v="Rugbråtene" />
		<tag k="place" v="locality" />
		<tag k="ssr:stedsnr" v="354258" />
	</node>
	<node id="-254861" lat="59.6454611087" lon="11.7342611047">
		<tag k="name" v="Pengegravhalsen" />
		<tag k="place" v="locality" />
		<tag k="ssr:stedsnr" v="354227" />
	</node>
	<node id="-254860" lat="59.6643138931" lon="11.807597229">
		<tag k="name" v="Nessetra" />
		<tag k="place" v="locality" />
		<tag k="ssr:stedsnr" v="354224" />
	</node>
	<node id="-254859" lat="59.6629333375" lon="11.7839333283">
		<tag k="name" v="Maisetra" />
		<tag k="place" v="locality" />
		<tag k="ssr:stedsnr" v="354221" />
	</node>
	<node id="-251274" lat="59.9558305517" lon="11.5210500005">
		<tag k="name" v="Jakobsmoen" />
		<tag k="place" v="locality" />
		<tag k="ssr:stedsnr" v="238327" />
	</node>
	<node id="-253833" lat="59.6833861121" lon="11.6907444455">
		<tag k="name" v="Tangemannsposten" />
>>>>>>> e1d4bc35ff8a6074a6f2e91616a996b547c36f15
		<tag k="place" v="locality" />
		<tag k="ssr:stedsnr" v="232209" />
	</node>
<<<<<<< HEAD
	<node lat="59.774047224516075" lon="11.888102780004514" id="-22601">
		<tag k="name" v="Gammelsetra" />
		<tag k="place" v="locality" />
		<tag k="ssr:stedsnr" v="233184" />
	</node>
	<node lat="59.78170000011417" lon="11.381736110752184" id="-22692">
		<tag k="name" v="Tjennsmo" />
=======
	<node id="-253831" lat="59.7629861108" lon="11.9310527836">
		<tag k="name" v="Fløytestua" />
>>>>>>> e1d4bc35ff8a6074a6f2e91616a996b547c36f15
		<tag k="place" v="locality" />
		<tag k="ssr:stedsnr" v="283293" />
	</node>
<<<<<<< HEAD
	<node lat="59.734649999984796" lon="11.80844167376822" id="-22707">
		<tag k="amenity" v="place_of_worship" />
		<tag k="fixme" v="specify religion=*, denomination=*, building=* etc" />
		<tag k="name" v="Bedehuset" />
		<tag k="ssr:stedsnr" v="293175" />
	</node>
	<node lat="59.67391666574099" lon="11.854305563850573" id="-22708">
		<tag k="name" v="Springarmoen" />
		<tag k="place" v="locality" />
		<tag k="ssr:stedsnr" v="293226" />
	</node>
	<node lat="59.64794999939446" lon="11.789169449269226" id="-22710">
		<tag k="name" v="Styggekleiva" />
		<tag k="place" v="locality" />
		<tag k="ssr:stedsnr" v="293233" />
	</node>
	<node lat="59.64758889057532" lon="11.762602777845265" id="-22712">
		<tag k="name" v="Nybrusetra" />
		<tag k="place" v="locality" />
		<tag k="ssr:stedsnr" v="293243" />
	</node>
	<node lat="59.66108056006222" lon="11.778933331245918" id="-22713">
		<tag k="name" v="Mørkegangen" />
		<tag k="place" v="locality" />
		<tag k="ssr:stedsnr" v="293248" />
	</node>
	<node lat="59.672727778675" lon="11.754886113994873" id="-22714">
		<tag k="name" v="Mastuhuken" />
		<tag k="place" v="locality" />
		<tag k="ssr:stedsnr" v="293252" />
	</node>
	<node lat="59.70486944249775" lon="11.853205556714776" id="-22715">
		<tag k="name" v="Ringsbysetra" />
		<tag k="place" v="locality" />
		<tag k="ssr:stedsnr" v="293273" />
	</node>
	<node lat="59.94269166414338" lon="11.378722229774473" id="-22742">
		<tag k="name" v="Harkerudbakkene" />
		<tag k="place" v="locality" />
		<tag k="ssr:stedsnr" v="300278" />
	</node>
	<node lat="59.844466662750825" lon="11.366316674276733" id="-22753">
		<tag k="name" v="Svenskeslora" />
		<tag k="place" v="locality" />
		<tag k="ssr:stedsnr" v="300692" />
	</node>
	<node lat="59.97570833502918" lon="11.427852769781577" id="-22875">
		<tag k="name" v="Sekkehytta" />
		<tag k="place" v="locality" />
		<tag k="ssr:stedsnr" v="343003" />
	</node>
	<node lat="59.75979167065121" lon="11.924005560715633" id="-22903">
		<tag k="name" v="Røvassfallet" />
		<tag k="place" v="locality" />
		<tag k="ssr:stedsnr" v="353215" />
	</node>
	<node lat="59.66591944288046" lon="11.833180553638307" id="-22906">
		<tag k="name" v="Kjørketangen" />
		<tag k="place" v="locality" />
		<tag k="ssr:stedsnr" v="354208" />
	</node>
	<node lat="59.66293333746251" lon="11.783933328323316" id="-22908">
		<tag k="name" v="Maisetra" />
		<tag k="place" v="locality" />
		<tag k="ssr:stedsnr" v="354221" />
	</node>
	<node lat="59.66431389309486" lon="11.80759722899301" id="-22909">
		<tag k="name" v="Nessetra" />
		<tag k="place" v="locality" />
		<tag k="ssr:stedsnr" v="354224" />
	</node>
	<node lat="59.645461108683925" lon="11.734261104654564" id="-22910">
		<tag k="name" v="Pengegravhalsen" />
		<tag k="place" v="locality" />
		<tag k="ssr:stedsnr" v="354227" />
	</node>
	<node lat="59.775144442033735" lon="11.790694437256098" id="-22913">
		<tag k="name" v="Bjørneholtet" />
		<tag k="place" v="locality" />
		<tag k="ssr:stedsnr" v="354155" />
	</node>
	<node lat="59.772961114694546" lon="11.785647227805606" id="-22918">
		<tag k="name" v="Hjulemyrbakken" />
		<tag k="place" v="locality" />
		<tag k="ssr:stedsnr" v="475088" />
	</node>
	<node lat="59.74942222502705" lon="11.777491658339976" id="-22923">
		<tag k="name" v="Kollen" />
		<tag k="place" v="locality" />
		<tag k="ssr:stedsnr" v="475143" />
	</node>
	<node lat="59.64234444267931" lon="11.74234999471951" id="-22930">
		<tag k="name" v="Kasthalla" />
		<tag k="place" v="locality" />
		<tag k="ssr:stedsnr" v="475196" />
	</node>
	<node lat="59.638905558399436" lon="11.760169450419196" id="-22931">
		<tag k="name" v="Pølsekleivsleppa" />
		<tag k="place" v="locality" />
		<tag k="ssr:stedsnr" v="475204" />
	</node>
	<node lat="59.68970555880217" lon="11.67076110584965" id="-22932">
		<tag k="name" v="Løkensetra" />
		<tag k="place" v="locality" />
		<tag k="ssr:stedsnr" v="475252" />
	</node>
	<node lat="59.62222777542671" lon="11.508777784730144" id="-23052">
		<tag k="name" v="Høyendal" />
=======
	<node id="-253830" lat="59.7074611128" lon="11.891108337">
		<tag k="name" v="Hagesetra" />
		<tag k="place" v="locality" />
		<tag k="ssr:stedsnr" v="51171" />
	</node>
	<node id="-254853" lat="59.775144442" lon="11.7906944373">
		<tag k="name" v="Bjørneholtet" />
		<tag k="place" v="locality" />
		<tag k="ssr:stedsnr" v="354155" />
	</node>
	<node id="-254851" lat="59.7133999979" lon="11.7894611132">
		<tag k="name" v="Berg" />
		<tag k="place" v="locality" />
		<tag k="ssr:stedsnr" v="354119" />
	</node>
	<node id="-253824" lat="59.6587166667" lon="11.8570611097">
		<tag k="name" v="Skolestua" />
		<tag k="place" v="locality" />
		<tag k="ssr:stedsnr" v="51086" />
	</node>
	<node id="-251200" lat="59.752025" lon="11.8993777714">
		<tag k="name" v="Jørnesetra" />
		<tag k="place" v="locality" />
		<tag k="ssr:stedsnr" v="232180" />
	</node>
	<node id="-252798" lat="59.8769138904" lon="11.5594944504">
		<tag k="alt_name" v="Bjørkelangen" />
		<tag k="amenity" v="place_of_worship" />
		<tag k="denomination" v="lutheran" />
		<tag k="name" v="Bjørkelangen kirke" />
		<tag k="religion" v="christian" />
		<tag k="ssr:stedsnr" v="732184" />
	</node>
	<node id="-253821" lat="59.6702333352" lon="11.7340944394">
		<tag k="name" v="Langvassaga" />
		<tag k="place" v="locality" />
		<tag k="ssr:stedsnr" v="51243" />
	</node>
	<node id="-253820" lat="59.6755888933" lon="11.73627222">
		<tag k="name" v="Djuptjennbakkene" />
		<tag k="place" v="locality" />
		<tag k="ssr:stedsnr" v="51239" />
	</node>
	<node id="-253819" lat="59.6583416644" lon="11.7373888808">
		<tag k="name" v="Nessetra" />
		<tag k="place" v="locality" />
		<tag k="ssr:stedsnr" v="51237" />
	</node>
	<node id="-253818" lat="59.7751833341" lon="11.7808083258">
		<tag k="name" v="Tukuseterhaget" />
		<tag k="place" v="locality" />
		<tag k="ssr:stedsnr" v="51146" />
	</node>
	<node id="-251254" lat="59.715674997" lon="11.7808638968">
		<tag k="name" v="Haugenesfjella" />
		<tag k="place" v="locality" />
		<tag k="ssr:stedsnr" v="51270" />
	</node>
	<node id="-254836" lat="59.7372000029" lon="11.821861104">
		<tag k="name" v="Bøengene" />
		<tag k="place" v="locality" />
		<tag k="ssr:stedsnr" v="354009" />
	</node>
	<node id="-253810" lat="59.7127027802" lon="11.8771027701">
		<tag k="name" v="Ringsbysetra" />
		<tag k="place" v="locality" />
		<tag k="ssr:stedsnr" v="50116" />
	</node>
	<node id="-251248" lat="59.7575694416" lon="11.8167777801">
		<tag k="name" v="Brennemoen" />
		<tag k="place" v="locality" />
		<tag k="ssr:stedsnr" v="51161" />
	</node>
	<node id="-251246" lat="59.6424416625" lon="11.7706111108">
		<tag k="name" v="Seterneset" />
		<tag k="place" v="locality" />
		<tag k="ssr:stedsnr" v="51115" />
	</node>
	<node id="-251196" lat="59.7417166648" lon="11.8337249945">
		<tag k="name" v="Høgemoen" />
		<tag k="place" v="locality" />
		<tag k="ssr:stedsnr" v="232148" />
	</node>
	<node id="-254097" lat="59.7448138909" lon="11.7591638841">
		<tag k="name" v="Damjordet" />
		<tag k="place" v="locality" />
		<tag k="ssr:stedsnr" v="111146" />
	</node>
	<node id="-251236" lat="59.7740472245" lon="11.88810278">
		<tag k="name" v="Gammelsetra" />
		<tag k="place" v="locality" />
		<tag k="ssr:stedsnr" v="233184" />
	</node>
	<node id="-251230" lat="59.6380249972" lon="11.7207027745">
		<tag k="name" v="Torvehauga" />
		<tag k="place" v="locality" />
		<tag k="ssr:stedsnr" v="233068" />
	</node>
	<node id="-251229" lat="59.6586805596" lon="11.8101611192">
		<tag k="name" v="Røgdebråtan" />
		<tag k="place" v="locality" />
		<tag k="ssr:stedsnr" v="233063" />
	</node>
	<node id="-254603" lat="59.8444666628" lon="11.3663166743">
		<tag k="name" v="Svenskeslora" />
		<tag k="place" v="locality" />
		<tag k="ssr:stedsnr" v="300692" />
	</node>
	<node id="-254803" lat="59.9308916685" lon="11.495563893">
		<tag k="name" v="Sagneset" />
		<tag k="place" v="locality" />
		<tag k="ssr:stedsnr" v="343661" />
	</node>
	<node id="-254330" lat="59.7954777769" lon="11.6663833364">
		<tag k="name" v="Kaffeberget" />
		<tag k="place" v="locality" />
		<tag k="ssr:stedsnr" v="161175" />
	</node>
	<node id="-252750" lat="59.8882388912" lon="11.4292249946">
		<tag k="name" v="Sætra" />
		<tag k="place" v="locality" />
		<tag k="ssr:stedsnr" v="725339" />
	</node>
	<node id="-252237" lat="59.7067333327" lon="11.917897218">
		<tag k="name" v="Oksehølet" />
>>>>>>> e1d4bc35ff8a6074a6f2e91616a996b547c36f15
		<tag k="place" v="locality" />
		<tag k="ssr:stedsnr" v="483746" />
	</node>
<<<<<<< HEAD
	<node lat="59.73901111309258" lon="11.771483337071768" id="-23088">
		<tag k="name" v="Lyshea" />
		<tag k="place" v="locality" />
		<tag k="ssr:stedsnr" v="415003" />
	</node>
	<node lat="59.71629444566248" lon="11.735594452764321" id="-23095">
		<tag k="name" v="Torvetjennsetra" />
		<tag k="place" v="locality" />
		<tag k="ssr:stedsnr" v="415188" />
	</node>
	<node lat="59.624391662926705" lon="11.51905000509112" id="-23163">
		<tag k="name" v="Stenersby sag" />
		<tag k="place" v="locality" />
		<tag k="ssr:stedsnr" v="423748" />
	</node>
	<node lat="59.992641665058734" lon="11.774708324287978" id="-23172">
		<tag k="alt_name" v="Mangen" />
		<tag k="amenity" v="place_of_worship" />
		<tag k="denomination" v="lutheran" />
		<tag k="name" v="Mangen kapell" />
		<tag k="religion" v="christian" />
		<tag k="ssr:stedsnr" v="489937" />
	</node>
	<node lat="59.8572250032112" lon="11.525313894668201" id="-23309">
		<tag k="alt_name" v="Hornåseng st" />
		<tag k="name" v="Hornåseng" />
		<tag k="place" v="locality" />
		<tag k="ssr:stedsnr" v="672133" />
	</node>
	<node lat="59.723808333000584" lon="11.885725000813075" id="-23376">
		<tag k="name" v="Bøsetrene" />
		<tag k="place" v="locality" />
		<tag k="ssr:stedsnr" v="475063" />
	</node>
	<node lat="59.64717222634396" lon="11.772136105744428" id="-23377">
		<tag k="name" v="Bråtasetra" />
		<tag k="place" v="locality" />
		<tag k="ssr:stedsnr" v="475111" />
	</node>
	<node lat="59.72396389079756" lon="11.936194440709466" id="-23379">
		<tag k="name" v="Svartebergslusa" />
		<tag k="place" v="locality" />
		<tag k="ssr:stedsnr" v="475163" />
	</node>
	<node lat="59.67657499839771" lon="11.719086119648725" id="-23385">
		<tag k="name" v="Engemåsasetra" />
		<tag k="place" v="locality" />
		<tag k="ssr:stedsnr" v="475216" />
	</node>
	<node lat="59.931300003597784" lon="11.35171944272369" id="-23486">
		<tag k="name" v="Liasaga" />
		<tag k="place" v="locality" />
		<tag k="ssr:stedsnr" v="525983" />
	</node>
	<node lat="59.712038886861826" lon="11.877488893331511" id="-23494">
		<tag k="name" v="Pekestikka" />
		<tag k="place" v="locality" />
		<tag k="ssr:stedsnr" v="535120" />
	</node>
	<node lat="59.701763885038375" lon="11.805452785629498" id="-23502">
		<tag k="name" v="Sundet" />
		<tag k="place" v="locality" />
		<tag k="ssr:stedsnr" v="536212" />
	</node>
	<node lat="59.7415527782365" lon="11.681041659566361" id="-23507">
		<tag k="name" v="Verpet" />
		<tag k="place" v="locality" />
		<tag k="ssr:stedsnr" v="536114" />
	</node>
	<node lat="59.719577778544235" lon="11.79431666436487" id="-23508">
		<tag k="name" v="Haugerud" />
		<tag k="place" v="locality" />
		<tag k="ssr:stedsnr" v="536117" />
	</node>
	<node lat="59.64200555962513" lon="11.765730552391036" id="-23509">
		<tag k="name" v="Kudalsetra" />
		<tag k="place" v="locality" />
		<tag k="ssr:stedsnr" v="536126" />
	</node>
	<node lat="59.632813891024085" lon="11.740561118950444" id="-23510">
		<tag k="name" v="Persetra" />
=======
	<node id="-252236" lat="59.7720944416" lon="11.8980166646">
		<tag k="name" v="Kulevelta" />
		<tag k="place" v="locality" />
		<tag k="ssr:stedsnr" v="657166" />
	</node>
	<node id="-252234" lat="59.7505611137" lon="11.8818722266">
		<tag k="name" v="Veststusetra" />
		<tag k="place" v="locality" />
		<tag k="ssr:stedsnr" v="657154" />
	</node>
	<node id="-252232" lat="59.7453027766" lon="11.7547194506">
		<tag k="name" v="Sagsleppa" />
		<tag k="place" v="locality" />
		<tag k="ssr:stedsnr" v="657028" />
	</node>
	<node id="-251716" lat="59.6845555549" lon="11.7603361044">
		<tag k="name" v="Slavassbakken" />
		<tag k="place" v="locality" />
		<tag k="ssr:stedsnr" v="233022" />
	</node>
	<node id="-253067" lat="59.7059972217" lon="11.8956055616">
		<tag k="name" v="Dypilvadet" />
		<tag k="place" v="locality" />
		<tag k="ssr:stedsnr" v="718176" />
	</node>
	<node id="-252224" lat="59.7155083301" lon="11.8986166693">
		<tag k="name" v="Verphaugen" />
		<tag k="place" v="locality" />
		<tag k="ssr:stedsnr" v="657139" />
	</node>
	<node id="-251199" lat="59.7444583352" lon="11.8605888851">
		<tag k="name" v="Kleiva" />
		<tag k="place" v="locality" />
		<tag k="ssr:stedsnr" v="232177" />
	</node>
	<node id="-251709" lat="59.6789944431" lon="11.8013277853">
		<tag k="name" v="Bakkenga" />
		<tag k="place" v="locality" />
		<tag k="ssr:stedsnr" v="232220" />
	</node>
	<node id="-252220" lat="59.659499996" lon="11.852952779">
		<tag k="name" v="Sandbakken" />
		<tag k="place" v="locality" />
		<tag k="ssr:stedsnr" v="657073" />
	</node>
	<node id="-251195" lat="59.7830333337" lon="11.8092305556">
		<tag k="name" v="Engene" />
		<tag k="place" v="locality" />
		<tag k="ssr:stedsnr" v="232138" />
	</node>
	<node id="-251706" lat="59.665827777" lon="11.7620972181">
		<tag k="name" v="Hagasetra" />
		<tag k="place" v="locality" />
		<tag k="ssr:stedsnr" v="232209" />
	</node>
	<node id="-251703" lat="59.7080583359" lon="11.8843861137">
		<tag k="name" v="Kjørestuhaget" />
		<tag k="place" v="locality" />
		<tag k="ssr:stedsnr" v="232124" />
	</node>
	<node id="-254857" lat="59.6659194429" lon="11.8331805536">
		<tag k="name" v="Kjørketangen" />
		<tag k="place" v="locality" />
		<tag k="ssr:stedsnr" v="354208" />
	</node>
	<node id="-254855" lat="59.7275638924" lon="11.7650194458">
		<tag k="name" v="Kopperudbakkene" />
		<tag k="place" v="locality" />
		<tag k="ssr:stedsnr" v="354164" />
	</node>
	<node id="-254759" lat="59.7230861123" lon="11.4524138878">
		<tag k="name" v="Bygdetunet" />
		<tag k="ssr:stedsnr" v="326065" />
		<tag k="tourism" v="attraction" />
	</node>
	<node id="-253222" lat="59.7964972194" lon="11.335072215">
		<tag k="name" v="Brattbakk" />
		<tag k="place" v="locality" />
		<tag k="ssr:stedsnr" v="909834" />
	</node>
	<node id="-251674" lat="59.7319583292" lon="11.8407638849">
		<tag k="name" v="Banen" />
>>>>>>> e1d4bc35ff8a6074a6f2e91616a996b547c36f15
		<tag k="place" v="locality" />
		<tag k="ssr:stedsnr" v="293785" />
	</node>
<<<<<<< HEAD
	<node lat="59.724061108410595" lon="11.807305551225491" id="-23513">
		<tag k="name" v="Tørkehusgrunna" />
		<tag k="place" v="locality" />
		<tag k="ssr:stedsnr" v="536769" />
	</node>
	<node lat="59.82421666567695" lon="11.6322083332629" id="-23529">
		<tag k="name" v="Lensmannsvelta" />
		<tag k="place" v="locality" />
		<tag k="ssr:stedsnr" v="542467" />
	</node>
	<node lat="59.742591670296314" lon="11.736091659136546" id="-23635">
		<tag k="name" v="Bottsetra" />
		<tag k="place" v="locality" />
		<tag k="ssr:stedsnr" v="596102" />
	</node>
	<node lat="59.650322224651184" lon="11.750952774221401" id="-23636">
		<tag k="name" v="Spettfuruvadet" />
=======
	<node id="-251865" lat="59.6765749984" lon="11.7190861196">
		<tag k="name" v="Engemåsasetra" />
		<tag k="place" v="locality" />
		<tag k="ssr:stedsnr" v="475216" />
	</node>
	<node id="-253571" lat="59.7602305544" lon="11.7605083368">
		<tag k="name" v="Karissetra" />
		<tag k="place" v="locality" />
		<tag k="ssr:stedsnr" v="961219" />
	</node>
	<node id="-251661" lat="59.7048694425" lon="11.8532055567">
		<tag k="name" v="Ringsbysetra" />
		<tag k="place" v="locality" />
		<tag k="ssr:stedsnr" v="293273" />
	</node>
	<node id="-251660" lat="59.6727277787" lon="11.754886114">
		<tag k="name" v="Mastuhuken" />
>>>>>>> e1d4bc35ff8a6074a6f2e91616a996b547c36f15
		<tag k="place" v="locality" />
		<tag k="ssr:stedsnr" v="293252" />
	</node>
<<<<<<< HEAD
	<node lat="59.675319446705146" lon="11.746144451107273" id="-23638">
		<tag k="name" v="Løftingsteindrågene" />
		<tag k="place" v="locality" />
		<tag k="ssr:stedsnr" v="596205" />
	</node>
	<node lat="59.95753332911581" lon="11.45851667123952" id="-23648">
		<tag k="name" v="Ringmuren" />
		<tag k="place" v="locality" />
		<tag k="ssr:stedsnr" v="602451" />
	</node>
	<node lat="59.78725555940282" lon="11.526866672487849" id="-23735">
		<tag k="name" v="Nerbyfurua" />
		<tag k="place" v="locality" />
		<tag k="ssr:stedsnr" v="646236" />
	</node>
	<node lat="59.73338888860842" lon="11.80728611517574" id="-23782">
		<tag k="name" v="Bøhaget" />
		<tag k="place" v="locality" />
		<tag k="ssr:stedsnr" v="657012" />
	</node>
	<node lat="59.715508330107426" lon="11.898616669326016" id="-23789">
		<tag k="name" v="Verphaugen" />
		<tag k="place" v="locality" />
		<tag k="ssr:stedsnr" v="657139" />
	</node>
	<node lat="59.73649167022094" lon="11.692577769887077" id="-23792">
		<tag k="name" v="Vortungsteinen" />
		<tag k="place" v="locality" />
		<tag k="ssr:stedsnr" v="657725" />
	</node>
	<node lat="59.89868333592678" lon="11.496669441762327" id="-23811">
		<tag k="name" v="Gamlevangen" />
		<tag k="place" v="locality" />
		<tag k="ssr:stedsnr" v="709439" />
	</node>
	<node lat="59.77059444156681" lon="11.720138894506649" id="-23827">
		<tag k="name" v="Rasmusbråten" />
		<tag k="place" v="locality" />
		<tag k="ssr:stedsnr" v="664904" />
	</node>
	<node lat="59.90991944464523" lon="11.653144452006849" id="-23964">
		<tag k="name" v="Gryta" />
		<tag k="place" v="locality" />
		<tag k="ssr:stedsnr" v="709780" />
	</node>
	<node lat="59.69464722241585" lon="11.932080555049195" id="-23972">
		<tag k="name" v="Styggestellet" />
		<tag k="place" v="locality" />
		<tag k="ssr:stedsnr" v="717176" />
	</node>
	<node lat="59.69114999812526" lon="11.848980551122542" id="-23975">
		<tag k="name" v="Tverrdalsvelta" />
		<tag k="place" v="locality" />
		<tag k="ssr:stedsnr" v="718028" />
	</node>
	<node lat="59.724025001589844" lon="11.785899994282232" id="-23980">
		<tag k="name" v="Solberg" />
		<tag k="place" v="locality" />
		<tag k="ssr:stedsnr" v="718171" />
	</node>
	<node lat="59.69674721973132" lon="11.785800002150102" id="-23986">
		<tag k="name" v="Renneslora" />
		<tag k="place" v="locality" />
		<tag k="ssr:stedsnr" v="900030" />
	</node>
	<node lat="59.69415555597378" lon="11.852063881992938" id="-23987">
		<tag k="name" v="Bikkjevelta" />
		<tag k="place" v="locality" />
		<tag k="ssr:stedsnr" v="900031" />
	</node>
	<node lat="59.66526944279239" lon="11.762674993253675" id="-24003">
		<tag k="name" v="Bunessetra" />
		<tag k="place" v="locality" />
		<tag k="ssr:stedsnr" v="900229" />
	</node>
	<node lat="59.72027221892471" lon="11.885880555531006" id="-24005">
		<tag k="name" v="Dronninga" />
		<tag k="place" v="locality" />
		<tag k="ssr:stedsnr" v="900191" />
	</node>
	<node lat="59.70207777455203" lon="11.937369439919616" id="-24047">
		<tag k="name" v="Tjærommen" />
		<tag k="place" v="locality" />
		<tag k="ssr:stedsnr" v="900793" />
	</node>
	<node lat="59.8092388898178" lon="11.389888890318899" id="-24120">
		<tag k="amenity" v="community_centre" />
		<tag k="name" v="Betel" />
		<tag k="ssr:stedsnr" v="905736" />
	</node>
	<node lat="59.942599995811136" lon="11.550861105031181" id="-24159">
		<tag k="name" v="Kisteberget" />
		<tag k="place" v="locality" />
		<tag k="ssr:stedsnr" v="770363" />
	</node>
	<node lat="59.742880552835466" lon="11.835602775301279" id="-24199">
		<tag k="name" v="Grytebekksaga" />
		<tag k="place" v="locality" />
		<tag k="ssr:stedsnr" v="779150" />
	</node>
	<node lat="59.69818055977611" lon="11.788958328964364" id="-24202">
		<tag k="name" v="Stinta" />
		<tag k="place" v="locality" />
		<tag k="ssr:stedsnr" v="779024" />
	</node>
	<node lat="59.66486666293362" lon="11.757011102568544" id="-24207">
		<tag k="name" v="Strandsetra" />
		<tag k="place" v="locality" />
		<tag k="ssr:stedsnr" v="779208" />
	</node>
	<node lat="59.662755557397816" lon="11.731247221235698" id="-24208">
		<tag k="name" v="Helleren" />
		<tag k="place" v="locality" />
		<tag k="ssr:stedsnr" v="779209" />
	</node>
	<node lat="59.796497219369584" lon="11.335072214965042" id="-24216">
		<tag k="name" v="Brattbakk" />
		<tag k="place" v="locality" />
		<tag k="ssr:stedsnr" v="909834" />
	</node>
	<node lat="59.904513889720334" lon="11.499502779779107" id="-24418">
		<tag k="name" v="Snekkermoen" />
		<tag k="place" v="locality" />
		<tag k="ssr:stedsnr" v="831415" />
	</node>
	<node lat="59.769866666814586" lon="11.902047216300758" id="-24433">
		<tag k="name" v="Kørresetra" />
		<tag k="place" v="locality" />
		<tag k="ssr:stedsnr" v="840030" />
	</node>
	<node lat="59.65000832899182" lon="11.789997225137611" id="-24437">
		<tag k="name" v="Rømungbråtan" />
		<tag k="place" v="locality" />
		<tag k="ssr:stedsnr" v="840197" />
	</node>
	<node lat="59.79783333733032" lon="11.474308341617473" id="-24542">
		<tag k="name" v="Prestegårdshagen" />
		<tag k="place" v="locality" />
		<tag k="ssr:stedsnr" v="890021" />
	</node>
	<node lat="59.735802775635015" lon="11.776166666808981" id="-24555">
		<tag k="name" v="Kopperud mølle" />
		<tag k="place" v="locality" />
		<tag k="ssr:stedsnr" v="900006" />
	</node>
	<node lat="59.745822226551255" lon="11.741019437251063" id="-24558">
		<tag k="name" v="Steinbysetra" />
		<tag k="place" v="locality" />
		<tag k="ssr:stedsnr" v="900106" />
	</node>
	<node lat="59.73565277435354" lon="11.826091667590557" id="-24562">
		<tag k="name" v="Korpeberga" />
		<tag k="place" v="locality" />
		<tag k="ssr:stedsnr" v="900152" />
	</node>
	<node lat="59.76242777794673" lon="11.778980555371607" id="-24563">
		<tag k="name" v="Seterbrenna" />
		<tag k="place" v="locality" />
		<tag k="ssr:stedsnr" v="900169" />
	</node>
	<node lat="59.651555554713426" lon="11.794102785399774" id="-24565">
		<tag k="name" v="Brynildsbråtadråga" />
		<tag k="place" v="locality" />
		<tag k="ssr:stedsnr" v="900219" />
	</node>
	<node lat="59.93389444754602" lon="11.539736107327572" id="-24662">
		<tag k="alt_name" v="Dingsrud;Dingsrud fort" />
		<tag k="name" v="Urskog fort" />
		<tag k="place" v="locality" />
		<tag k="ssr:stedsnr" v="950584" />
	</node>
	<node lat="59.76985278207949" lon="11.830605557632474" id="-24690">
		<tag k="name" v="Stormyrbrenna" />
		<tag k="place" v="locality" />
		<tag k="ssr:stedsnr" v="961140" />
	</node>
	<node lat="59.654747219668494" lon="11.766461108961739" id="-24696">
		<tag k="name" v="Skavholta" />
		<tag k="place" v="locality" />
		<tag k="ssr:stedsnr" v="961188" />
	</node>
	<node lat="59.65871666671953" lon="11.857061109685317" id="-24893">
		<tag k="name" v="Skolestua" />
		<tag k="place" v="locality" />
		<tag k="ssr:stedsnr" v="51086" />
	</node>
	<node lat="59.77518333413621" lon="11.780808325841855" id="-24898">
		<tag k="name" v="Tukuseterhaget" />
		<tag k="place" v="locality" />
		<tag k="ssr:stedsnr" v="51146" />
	</node>
	<node lat="59.75756944163188" lon="11.816777780142605" id="-24900">
		<tag k="name" v="Brennemoen" />
		<tag k="place" v="locality" />
		<tag k="ssr:stedsnr" v="51161" />
	</node>
	<node lat="59.6583416643611" lon="11.737388880784609" id="-24903">
		<tag k="name" v="Nessetra" />
		<tag k="place" v="locality" />
		<tag k="ssr:stedsnr" v="51237" />
	</node>
	<node lat="59.675588893286964" lon="11.736272220013705" id="-24904">
		<tag k="name" v="Djuptjennbakkene" />
		<tag k="place" v="locality" />
		<tag k="ssr:stedsnr" v="51239" />
	</node>
	<node lat="59.670233335175105" lon="11.734094439432054" id="-24905">
		<tag k="name" v="Langvassaga" />
		<tag k="place" v="locality" />
		<tag k="ssr:stedsnr" v="51243" />
	</node>
	<node lat="59.72690555949766" lon="11.816386110848091" id="-24985">
		<tag k="amenity" v="place_of_worship" />
		<tag k="denomination" v="lutheran" />
		<tag k="name" v="Rømskog kirke" />
		<tag k="religion" v="christian" />
		<tag k="ssr:stedsnr" v="64649" />
	</node>
	<node lat="59.826641666548014" lon="11.722283332892966" id="-24993">
		<tag k="alt_name" v="Setskog" />
		<tag k="amenity" v="place_of_worship" />
		<tag k="denomination" v="lutheran" />
		<tag k="name" v="Setskog kirke" />
		<tag k="religion" v="christian" />
		<tag k="ssr:stedsnr" v="65286" />
	</node>
	<node lat="59.667608331275176" lon="11.820786105182842" id="-25100">
		<tag k="name" v="Kudalen" />
		<tag k="place" v="locality" />
		<tag k="ssr:stedsnr" v="111199" />
	</node>
	<node lat="59.66252222044305" lon="11.79894166189784" id="-25105">
		<tag k="name" v="Bottefallet" />
		<tag k="place" v="locality" />
		<tag k="ssr:stedsnr" v="111058" />
	</node>
	<node lat="59.7122194461435" lon="11.87000000633403" id="-25108">
		<tag k="name" v="Svingbakken" />
=======
	<node id="-251659" lat="59.6610805601" lon="11.7789333312">
		<tag k="name" v="Mørkegangen" />
		<tag k="place" v="locality" />
		<tag k="ssr:stedsnr" v="293248" />
	</node>
	<node id="-251658" lat="59.6475888906" lon="11.7626027778">
		<tag k="name" v="Nybrusetra" />
		<tag k="place" v="locality" />
		<tag k="ssr:stedsnr" v="293243" />
	</node>
	<node id="-251656" lat="59.6479499994" lon="11.7891694493">
		<tag k="name" v="Styggekleiva" />
		<tag k="place" v="locality" />
		<tag k="ssr:stedsnr" v="293233" />
	</node>
	<node id="-251654" lat="59.6739166657" lon="11.8543055639">
		<tag k="name" v="Springarmoen" />
		<tag k="place" v="locality" />
		<tag k="ssr:stedsnr" v="293226" />
	</node>
	<node id="-251651" lat="59.7199111085" lon="11.9321916718">
		<tag k="name" v="Høymyrklomma" />
		<tag k="place" v="locality" />
		<tag k="ssr:stedsnr" v="293214" />
	</node>
	<node id="-251650" lat="59.7048833324" lon="11.9235166707">
		<tag k="name" v="Skallebakkene" />
		<tag k="place" v="locality" />
		<tag k="ssr:stedsnr" v="293210" />
	</node>
	<node id="-251647" lat="59.73465" lon="11.8084416738">
		<tag k="amenity" v="place_of_worship" />
		<tag k="fixme" v="specify religion=*, denomination=*, building=* etc" />
		<tag k="name" v="Bedehuset" />
		<tag k="ssr:stedsnr" v="293175" />
	</node>
	<node id="-251646" lat="59.7219444453" lon="11.8251111046">
		<tag k="name" v="Engene" />
		<tag k="place" v="locality" />
		<tag k="ssr:stedsnr" v="293171" />
	</node>
	<node id="-251645" lat="59.7788500023" lon="11.7960638845">
		<tag k="name" v="Trandumseterhaget" />
		<tag k="place" v="locality" />
		<tag k="ssr:stedsnr" v="293167" />
	</node>
	<node id="-252668" lat="59.6585444457" lon="11.8384888891">
		<tag k="name" v="Klomma" />
		<tag k="place" v="locality" />
		<tag k="ssr:stedsnr" v="718071" />
	</node>
	<node id="-251643" lat="59.6512916677" lon="11.8199277787">
		<tag k="name" v="Kjerringhelvete" />
		<tag k="place" v="locality" />
		<tag k="ssr:stedsnr" v="293138" />
	</node>
	<node id="-251642" lat="59.7402361095" lon="11.7318583326">
		<tag k="name" v="Stemningen" />
		<tag k="place" v="locality" />
		<tag k="ssr:stedsnr" v="293119" />
	</node>
	<node id="-254847" lat="59.6681972235" lon="11.8125944513">
		<tag k="name" v="Stasholtet" />
		<tag k="place" v="locality" />
		<tag k="ssr:stedsnr" v="354078" />
	</node>
	<node id="-252149" lat="59.8782777743" lon="11.5784194418">
		<tag k="name" v="Leiren" />
		<tag k="place" v="locality" />
		<tag k="ssr:stedsnr" v="420632" />
	</node>
	<node id="-252659" lat="59.6911499981" lon="11.8489805511">
		<tag k="name" v="Tverrdalsvelta" />
		<tag k="place" v="locality" />
		<tag k="ssr:stedsnr" v="718028" />
	</node>
	<node id="-254845" lat="59.6586277808" lon="11.8459555544">
		<tag k="name" v="Svarteberget" />
		<tag k="place" v="locality" />
		<tag k="ssr:stedsnr" v="354072" />
	</node>
	<node id="-252647" lat="59.7407833305" lon="11.7154555576">
		<tag k="name" v="Stemningen" />
		<tag k="place" v="locality" />
		<tag k="ssr:stedsnr" v="718245" />
	</node>
	<node id="-252646" lat="59.6488527772" lon="11.8187833274">
		<tag k="name" v="Nøttakjerrbakka" />
		<tag k="place" v="locality" />
		<tag k="ssr:stedsnr" v="718192" />
	</node>
	<node id="-253152" lat="59.8092388898" lon="11.3898888903">
		<tag k="amenity" v="community_centre" />
		<tag k="name" v="Betel" />
		<tag k="ssr:stedsnr" v="905736" />
	</node>
	<node id="-254174" lat="59.8340305548" lon="11.730402776">
		<tag k="name" v="Kolstadbråten" />
		<tag k="place" v="locality" />
		<tag k="ssr:stedsnr" v="120198" />
	</node>
	<node id="-254842" lat="59.6637833296" lon="11.8034861101">
		<tag k="name" v="Larsnebben" />
		<tag k="place" v="locality" />
		<tag k="ssr:stedsnr" v="354064" />
	</node>
	<node id="-252632" lat="59.6946472224" lon="11.932080555">
		<tag k="name" v="Styggestellet" />
		<tag k="place" v="locality" />
		<tag k="ssr:stedsnr" v="717176" />
	</node>
	<node id="-252631" lat="59.7746833309" lon="11.8958361095">
		<tag k="name" v="Gamle Promstø" />
		<tag k="place" v="locality" />
		<tag k="ssr:stedsnr" v="717170" />
	</node>
	<node id="-253133" lat="59.7020777746" lon="11.9373694399">
		<tag k="name" v="Tjærommen" />
		<tag k="place" v="locality" />
		<tag k="ssr:stedsnr" v="900793" />
	</node>
	<node id="-252613" lat="59.799399996" lon="11.4524416729">
		<tag k="name" v="Skattumlia" />
		<tag k="place" v="locality" />
		<tag k="ssr:stedsnr" v="586067" />
	</node>
	<node id="-253124" lat="59.6652694428" lon="11.7626749933">
		<tag k="name" v="Bunessetra" />
		<tag k="place" v="locality" />
		<tag k="ssr:stedsnr" v="900229" />
	</node>
	<node id="-253121" lat="59.7356527744" lon="11.8260916676">
		<tag k="name" v="Korpeberga" />
		<tag k="place" v="locality" />
		<tag k="ssr:stedsnr" v="900152" />
	</node>
	<node id="-252960" lat="59.7705944416" lon="11.7201388945">
		<tag k="name" v="Rasmusbråten" />
		<tag k="place" v="locality" />
		<tag k="ssr:stedsnr" v="664904" />
	</node>
	<node id="-253113" lat="59.7202722189" lon="11.8858805555">
		<tag k="name" v="Dronninga" />
		<tag k="place" v="locality" />
		<tag k="ssr:stedsnr" v="900191" />
	</node>
	<node id="-253109" lat="59.694155556" lon="11.852063882">
		<tag k="name" v="Bikkjevelta" />
		<tag k="place" v="locality" />
		<tag k="ssr:stedsnr" v="900031" />
	</node>
	<node id="-253108" lat="59.6967472197" lon="11.7858000022">
		<tag k="name" v="Renneslora" />
		<tag k="place" v="locality" />
		<tag k="ssr:stedsnr" v="900030" />
	</node>
	<node id="-252592" lat="59.9099194446" lon="11.653144452">
		<tag k="name" v="Gryta" />
		<tag k="place" v="locality" />
		<tag k="ssr:stedsnr" v="709780" />
	</node>
	<node id="-254834" lat="59.7597916707" lon="11.9240055607">
		<tag k="name" v="Røvassfallet" />
>>>>>>> e1d4bc35ff8a6074a6f2e91616a996b547c36f15
		<tag k="place" v="locality" />
		<tag k="ssr:stedsnr" v="111130" />
	</node>
<<<<<<< HEAD
	<node lat="59.744813890942126" lon="11.759163884083758" id="-25111">
		<tag k="name" v="Damjordet" />
		<tag k="place" v="locality" />
		<tag k="ssr:stedsnr" v="111146" />
	</node>
	<node lat="59.70900555901795" lon="11.777677771061724" id="-25113">
		<tag k="name" v="Gubberud" />
		<tag k="place" v="locality" />
		<tag k="ssr:stedsnr" v="111227" />
	</node>
	<node lat="59.834030554797025" lon="11.730402776019876" id="-25168">
		<tag k="name" v="Kolstadbråten" />
		<tag k="place" v="locality" />
		<tag k="ssr:stedsnr" v="120198" />
	</node>
	<node lat="59.79547777690881" lon="11.666383336441097" id="-25250">
		<tag k="name" v="Kaffeberget" />
		<tag k="place" v="locality" />
		<tag k="ssr:stedsnr" v="161175" />
	</node>
	<node lat="59.65398333612004" lon="11.836274996025704" id="-25293">
		<tag k="name" v="Kornbråtan" />
		<tag k="place" v="locality" />
		<tag k="ssr:stedsnr" v="172182" />
	</node>
	<node lat="59.67863333250436" lon="11.793072213719038" id="-25306">
		<tag k="name" v="Lenkeberga" />
		<tag k="place" v="locality" />
		<tag k="ssr:stedsnr" v="172241" />
	</node>
	<node lat="59.820299998931155" lon="11.492422224396355" id="-25308">
		<tag k="name" v="Møllebak" />
		<tag k="place" v="locality" />
		<tag k="ssr:stedsnr" v="176175" />
	</node>
	<node lat="59.79754721874371" lon="11.46791944115954" id="-25441">
		<tag k="alt_name" v="Løken" />
		<tag k="amenity" v="place_of_worship" />
		<tag k="denomination" v="lutheran" />
		<tag k="name" v="Løken kirke" />
		<tag k="religion" v="christian" />
		<tag k="ssr:stedsnr" v="187800" />
	</node>
	<node lat="59.74023610945169" lon="11.731858332622444" id="-25545">
		<tag k="name" v="Stemningen" />
=======
	<node id="-252585" lat="59.8986833359" lon="11.4966694418">
		<tag k="name" v="Gamlevangen" />
		<tag k="place" v="locality" />
		<tag k="ssr:stedsnr" v="709439" />
	</node>
	<node id="-254320" lat="59.9426916641" lon="11.3787222298">
		<tag k="name" v="Harkerudbakkene" />
		<tag k="place" v="locality" />
		<tag k="ssr:stedsnr" v="300278" />
	</node>
	<node id="-254110" lat="59.6676083313" lon="11.8207861052">
		<tag k="name" v="Kudalen" />
		<tag k="place" v="locality" />
		<tag k="ssr:stedsnr" v="111199" />
	</node>
	<node id="-254103" lat="59.7046611072" lon="11.7731749965">
		<tag k="name" v="Framsetrene" />
>>>>>>> e1d4bc35ff8a6074a6f2e91616a996b547c36f15
		<tag k="place" v="locality" />
		<tag k="ssr:stedsnr" v="293119" />
	</node>
<<<<<<< HEAD
	<node lat="59.651291667657404" lon="11.819927778721965" id="-25546">
		<tag k="name" v="Kjerringhelvete" />
		<tag k="place" v="locality" />
		<tag k="ssr:stedsnr" v="293138" />
	</node>
	<node lat="59.66191388864077" lon="11.86122222292013" id="-25547">
		<tag k="name" v="Gravene" />
		<tag k="place" v="locality" />
		<tag k="ssr:stedsnr" v="293152" />
	</node>
	<node lat="59.778850002305255" lon="11.796063884469984" id="-25548">
		<tag k="name" v="Trandumseterhaget" />
		<tag k="place" v="locality" />
		<tag k="ssr:stedsnr" v="293167" />
	</node>
	<node lat="59.721944445316865" lon="11.825111104585378" id="-25549">
		<tag k="name" v="Engene" />
		<tag k="place" v="locality" />
		<tag k="ssr:stedsnr" v="293171" />
	</node>
	<node lat="59.70488333242796" lon="11.923516670730674" id="-25551">
		<tag k="name" v="Skallebakkene" />
		<tag k="place" v="locality" />
		<tag k="ssr:stedsnr" v="293210" />
	</node>
	<node lat="59.71991110849046" lon="11.932191671775554" id="-25552">
		<tag k="name" v="Høymyrklomma" />
		<tag k="place" v="locality" />
		<tag k="ssr:stedsnr" v="293214" />
	</node>
	<node lat="59.731958329194796" lon="11.840763884929293" id="-25559">
		<tag k="name" v="Banen" />
		<tag k="place" v="locality" />
		<tag k="ssr:stedsnr" v="293785" />
	</node>
	<node lat="59.94364444723612" lon="11.443572215787732" id="-25580">
		<tag k="name" v="Korsbekken" />
=======
	<node id="-251541" lat="59.7001194448" lon="11.8666166624">
		<tag k="name" v="Innleggen" />
		<tag k="place" v="locality" />
		<tag k="ssr:stedsnr" v="171108" />
	</node>
	<node id="-254100" lat="59.7225500014" lon="11.9065388964">
		<tag k="name" v="Østtukusetra" />
>>>>>>> e1d4bc35ff8a6074a6f2e91616a996b547c36f15
		<tag k="place" v="locality" />
		<tag k="ssr:stedsnr" v="111172" />
	</node>
<<<<<<< HEAD
	<node lat="59.92693055771725" lon="11.456841671105831" id="-25642">
		<tag k="alt_name" v="Aurskog" />
		<tag k="amenity" v="place_of_worship" />
		<tag k="denomination" v="lutheran" />
		<tag k="name" v="Aurskog kirke" />
		<tag k="religion" v="christian" />
		<tag k="ssr:stedsnr" v="308568" />
	</node>
	<node lat="59.72308611230671" lon="11.452413887824981" id="-25695">
		<tag k="name" v="Bygdetunet" />
		<tag k="ssr:stedsnr" v="326065" />
		<tag k="tourism" v="attraction" />
	</node>
	<node lat="59.6637833296262" lon="11.803486110142758" id="-25703">
		<tag k="name" v="Larsnebben" />
		<tag k="place" v="locality" />
		<tag k="ssr:stedsnr" v="354064" />
	</node>
	<node lat="59.930891668498965" lon="11.495563893009432" id="-25721">
		<tag k="name" v="Sagneset" />
		<tag k="place" v="locality" />
		<tag k="ssr:stedsnr" v="343661" />
	</node>
	<node lat="59.737200002852916" lon="11.821861104045976" id="-25747">
		<tag k="name" v="Bøengene" />
		<tag k="place" v="locality" />
		<tag k="ssr:stedsnr" v="354009" />
	</node>
	<node lat="59.713399997939824" lon="11.789461113229267" id="-25751">
		<tag k="name" v="Berg" />
		<tag k="place" v="locality" />
		<tag k="ssr:stedsnr" v="354119" />
	</node>
	<node lat="59.65862778082219" lon="11.845955554409947" id="-25754">
		<tag k="name" v="Svarteberget" />
		<tag k="place" v="locality" />
		<tag k="ssr:stedsnr" v="354072" />
	</node>
	<node lat="59.66819722353671" lon="11.812594451318015" id="-25756">
		<tag k="name" v="Stasholtet" />
		<tag k="place" v="locality" />
		<tag k="ssr:stedsnr" v="354078" />
	</node>
	<node lat="59.72208333555482" lon="11.784988882469321" id="-25757">
		<tag k="name" v="Mojordet" />
		<tag k="place" v="locality" />
		<tag k="ssr:stedsnr" v="354086" />
	</node>
	<node lat="59.72756389241373" lon="11.765019445813513" id="-25760">
		<tag k="name" v="Kopperudbakkene" />
		<tag k="place" v="locality" />
		<tag k="ssr:stedsnr" v="354164" />
	</node>
	<node lat="59.71104444343645" lon="11.780213884830893" id="-25762">
		<tag k="name" v="Rugbråtene" />
		<tag k="place" v="locality" />
		<tag k="ssr:stedsnr" v="354258" />
	</node>
	<node lat="59.701541669226074" lon="11.770766661003567" id="-25763">
		<tag k="name" v="Brochmannsbjørka" />
		<tag k="place" v="locality" />
		<tag k="ssr:stedsnr" v="354261" />
	</node>
	<node lat="59.65929166693388" lon="11.832197215840859" id="-25960">
		<tag k="name" v="Fjøsdalsvelta" />
		<tag k="place" v="locality" />
		<tag k="ssr:stedsnr" v="415055" />
	</node>
	<node lat="59.67944999849056" lon="11.873786106551076" id="-25961">
		<tag k="name" v="Fagerlisetra" />
		<tag k="place" v="locality" />
		<tag k="ssr:stedsnr" v="415067" />
	</node>
	<node lat="59.75900833100178" lon="11.783061110083116" id="-25964">
		<tag k="name" v="Lindeberga" />
		<tag k="place" v="locality" />
		<tag k="ssr:stedsnr" v="415152" />
	</node>
	<node lat="59.712636113966795" lon="11.721424999175193" id="-25970">
		<tag k="name" v="Vortungskoia" />
		<tag k="place" v="locality" />
		<tag k="ssr:stedsnr" v="415263" />
	</node>
	<node lat="59.70714167080298" lon="11.741141661505349" id="-25971">
		<tag k="name" v="Høgmobrenna" />
		<tag k="place" v="locality" />
		<tag k="ssr:stedsnr" v="415264" />
	</node>
	<node lat="59.751716669530246" lon="11.854461112751821" id="-25972">
		<tag k="name" v="Hellingstjennsetra" />
		<tag k="place" v="locality" />
		<tag k="ssr:stedsnr" v="415134" />
	</node>
	<node lat="59.66191111333225" lon="11.842449998567805" id="-25973">
		<tag k="name" v="Oshagan" />
		<tag k="place" v="locality" />
		<tag k="ssr:stedsnr" v="415207" />
	</node>
	<node lat="59.64725000378062" lon="11.720827786457482" id="-25974">
		<tag k="name" v="Lindedråga" />
		<tag k="place" v="locality" />
		<tag k="ssr:stedsnr" v="415230" />
	</node>
	<node lat="59.87827777433689" lon="11.578419441774702" id="-25987">
		<tag k="name" v="Leiren" />
=======
	<node id="-253073" lat="59.7075166683" lon="11.8529527723">
		<tag k="name" v="Flesabekkvelta" />
		<tag k="place" v="locality" />
		<tag k="ssr:stedsnr" v="718239" />
	</node>
	<node id="-254091" lat="59.7697638917" lon="11.9050305644">
		<tag k="name" v="Flavelta" />
		<tag k="place" v="locality" />
		<tag k="ssr:stedsnr" v="111021" />
	</node>
	<node id="-253064" lat="59.7240250016" lon="11.7858999943">
		<tag k="name" v="Solberg" />
		<tag k="place" v="locality" />
		<tag k="ssr:stedsnr" v="718171" />
	</node>
	<node id="-253061" lat="59.7630111068" lon="11.7958972255">
		<tag k="name" v="Hestein" />
		<tag k="place" v="locality" />
		<tag k="ssr:stedsnr" v="718161" />
	</node>
	<node id="-253060" lat="59.7620611101" lon="11.7788972283">
		<tag k="name" v="Torgersetra" />
		<tag k="place" v="locality" />
		<tag k="ssr:stedsnr" v="718160" />
	</node>
	<node id="-253059" lat="59.7258055581" lon="11.8198333326">
		<tag k="name" v="Kjørkesanden" />
		<tag k="place" v="locality" />
		<tag k="ssr:stedsnr" v="718157" />
	</node>
	<node id="-253564" lat="59.7660444459" lon="11.8665138935">
		<tag k="name" v="Hvilarberget" />
		<tag k="place" v="locality" />
		<tag k="ssr:stedsnr" v="960156" />
	</node>
	<node id="-254582" lat="59.7975472187" lon="11.4679194412">
		<tag k="alt_name" v="Løken" />
		<tag k="amenity" v="place_of_worship" />
		<tag k="denomination" v="lutheran" />
		<tag k="name" v="Løken kirke" />
		<tag k="religion" v="christian" />
		<tag k="ssr:stedsnr" v="187800" />
	</node>
	<node id="-254101" lat="59.6625222204" lon="11.7989416619">
		<tag k="name" v="Bottefallet" />
		<tag k="place" v="locality" />
		<tag k="ssr:stedsnr" v="111058" />
	</node>
	<node id="-251491" lat="59.709005559" lon="11.7776777711">
		<tag k="name" v="Gubberud" />
		<tag k="place" v="locality" />
		<tag k="ssr:stedsnr" v="111227" />
	</node>
	<node id="-251486" lat="59.7122194461" lon="11.8700000063">
		<tag k="name" v="Svingbakken" />
		<tag k="place" v="locality" />
		<tag k="ssr:stedsnr" v="111130" />
	</node>
	<node id="-252507" lat="59.7240611084" lon="11.8073055512">
		<tag k="name" v="Tørkehusgrunna" />
		<tag k="place" v="locality" />
		<tag k="ssr:stedsnr" v="536769" />
	</node>
	<node id="-252504" lat="59.632813891" lon="11.740561119">
		<tag k="name" v="Persetra" />
		<tag k="place" v="locality" />
		<tag k="ssr:stedsnr" v="536173" />
	</node>
	<node id="-252503" lat="59.7482555537" lon="11.8511916692">
		<tag k="name" v="Gryttjennsetra" />
		<tag k="place" v="locality" />
		<tag k="ssr:stedsnr" v="536158" />
	</node>
	<node id="-253007" lat="59.7978333373" lon="11.4743083416">
		<tag k="name" v="Prestegårdshagen" />
		<tag k="place" v="locality" />
		<tag k="ssr:stedsnr" v="890021" />
	</node>
	<node id="-251981" lat="59.9926416651" lon="11.7747083243">
		<tag k="alt_name" v="Mangen" />
		<tag k="amenity" v="place_of_worship" />
		<tag k="denomination" v="lutheran" />
		<tag k="name" v="Mangen kapell" />
		<tag k="religion" v="christian" />
		<tag k="ssr:stedsnr" v="489937" />
	</node>
	<node id="-254731" lat="59.9269305577" lon="11.4568416711">
		<tag k="alt_name" v="Aurskog" />
		<tag k="amenity" v="place_of_worship" />
		<tag k="denomination" v="lutheran" />
		<tag k="name" v="Aurskog kirke" />
		<tag k="religion" v="christian" />
		<tag k="ssr:stedsnr" v="308568" />
	</node>
	<node id="-251448" lat="59.7174055528" lon="11.4487416592">
		<tag k="alt_name" v="Søndre Høland" />
		<tag k="amenity" v="place_of_worship" />
		<tag k="denomination" v="lutheran" />
		<tag k="name" v="Søndre Høland kirke" />
		<tag k="religion" v="christian" />
		<tag k="ssr:stedsnr" v="247832" />
	</node>
	<node id="-253482" lat="59.7624277779" lon="11.7789805554">
		<tag k="name" v="Seterbrenna" />
		<tag k="place" v="locality" />
		<tag k="ssr:stedsnr" v="900169" />
	</node>
	<node id="-253477" lat="59.7458222266" lon="11.7410194373">
		<tag k="name" v="Steinbysetra" />
		<tag k="place" v="locality" />
		<tag k="ssr:stedsnr" v="900106" />
	</node>
	<node id="-253475" lat="59.6515555547" lon="11.7941027854">
		<tag k="name" v="Brynildsbråtadråga" />
		<tag k="place" v="locality" />
		<tag k="ssr:stedsnr" v="900219" />
	</node>
	<node id="-251936" lat="59.6222277754" lon="11.5087777847">
		<tag k="name" v="Høyendal" />
		<tag k="place" v="locality" />
		<tag k="ssr:stedsnr" v="483746" />
	</node>
	<node id="-251568" lat="59.7817000001" lon="11.3817361108">
		<tag k="name" v="Tjennsmo" />
		<tag k="place" v="locality" />
		<tag k="ssr:stedsnr" v="283293" />
	</node>
	<node id="-253470" lat="59.7358027756" lon="11.7761666668">
		<tag k="name" v="Kopperud mølle" />
>>>>>>> e1d4bc35ff8a6074a6f2e91616a996b547c36f15
		<tag k="place" v="locality" />
		<tag k="ssr:stedsnr" v="900006" />
	</node>
<<<<<<< HEAD
=======
	<node id="-254780" lat="59.975708335" lon="11.4278527698">
		<tag k="name" v="Sekkehytta" />
		<tag k="place" v="locality" />
		<tag k="ssr:stedsnr" v="343003" />
	</node>
	<node id="-254848" lat="59.7220833356" lon="11.7849888825">
		<tag k="name" v="Mojordet" />
		<tag k="place" v="locality" />
		<tag k="ssr:stedsnr" v="354086" />
	</node>
	<node id="-252938" lat="59.7364916702" lon="11.6925777699">
		<tag k="name" v="Vortungsteinen" />
		<tag k="place" v="locality" />
		<tag k="ssr:stedsnr" v="657725" />
	</node>
	<node id="-252933" lat="59.7061722198" lon="11.751766671">
		<tag k="name" v="Skanseberga" />
		<tag k="place" v="locality" />
		<tag k="ssr:stedsnr" v="657114" />
	</node>
>>>>>>> e1d4bc35ff8a6074a6f2e91616a996b547c36f15
</osm>
