<?xml version="1.0" encoding="UTF-8"?>
<osm version="0.6" generator="osmapis">
	<node lat="59.70286666949919" lon="11.794186110458309" id="-22004">
		<tag k="highway" v="path" />
		<tag k="name" v="Moveien" />
		<tag k="ssr:stedsnr" v="233120" />
	</node>
	<node lat="59.92709444330298" lon="11.538750005482498" id="-22032">
		<tag k="junction" v="yes" />
		<tag k="name" v="Auten" />
		<tag k="place" v="locality" />
		<tag k="ssr:stedsnr" v="40616" />
	</node>
	<node lat="59.8188972183472" lon="11.521788896970588" id="-22036">
		<tag k="junction" v="yes" />
		<tag k="name" v="Øsken" />
		<tag k="place" v="locality" />
		<tag k="ssr:stedsnr" v="237135" />
	</node>
	<node lat="59.9395722230918" lon="11.435069445850791" id="-22053">
		<tag k="bridge" v="yes" />
		<tag k="layer" v="1" />
		<tag k="name" v="Finstad" />
		<tag k="ssr:stedsnr" v="46070" />
	</node>
	<node lat="59.66094166341035" lon="11.835266657989553" id="-22074">
		<tag k="landuse" v="industrial" />
		<tag k="name" v="Kraftverk" />
		<tag k="power" v="plant" />
		<tag k="ssr:stedsnr" v="51224" />
	</node>
	<node lat="59.845225003294814" lon="11.390452781294686" id="-22090">
		<tag k="highway" v="path" />
		<tag k="name" v="Maristien" />
		<tag k="ssr:stedsnr" v="239680" />
	</node>
	<node lat="59.80874722399586" lon="11.669155562298892" id="-22108">
		<tag k="highway" v="path" />
		<tag k="name" v="Fjellvegen" />
		<tag k="ssr:stedsnr" v="57469" />
	</node>
	<node lat="59.8444222251316" lon="11.717880548644025" id="-22118">
		<tag k="junction" v="yes" />
		<tag k="name" v="Tangen" />
		<tag k="place" v="locality" />
		<tag k="ssr:stedsnr" v="59189" />
	</node>
	<node lat="59.98707222186864" lon="11.76402221700516" id="-22308">
		<tag k="highway" v="path" />
		<tag k="name" v="Stormyrvegen" />
		<tag k="ssr:stedsnr" v="101974" />
	</node>
	<node lat="59.91968611487609" lon="11.532569444887088" id="-22323">
		<tag k="bridge" v="yes" />
		<tag k="layer" v="1" />
		<tag k="name" v="Våler" />
		<tag k="ssr:stedsnr" v="107045" />
	</node>
	<node lat="59.94850555523931" lon="11.61218889545845" id="-22349">
		<tag k="highway" v="path" />
		<tag k="name" v="Svingbakken" />
		<tag k="ssr:stedsnr" v="116325" />
	</node>
	<node lat="59.73702222521097" lon="11.807536112758822" id="-22447">
		<tag k="bridge" v="yes" />
		<tag k="layer" v="1" />
		<tag k="name" v="Bøsund" />
		<tag k="ssr:stedsnr" v="167610" />
	</node>
	<node lat="59.743163888136905" lon="11.657974994907578" id="-22520">
		<tag k="ford" v="yes" />
		<tag k="name" v="Vadet" />
		<tag k="place" v="locality" />
		<tag k="ssr:stedsnr" v="186703" />
	</node>
	<node lat="59.918631018179205" lon="11.531724119907427" id="-22695">
		<tag k="junction" v="yes" />
		<tag k="name" v="Lierfoss" />
		<tag k="place" v="locality" />
		<tag k="ssr:stedsnr" v="283604" />
	</node>
	<node lat="59.92261110714184" lon="11.788597216879122" id="-22764">
		<tag k="alt_name" v="Gravdalsvaet" />
		<tag k="ford" v="yes" />
		<tag k="name" v="Gravdalsvadet" />
		<tag k="place" v="locality" />
		<tag k="ssr:stedsnr" v="301412" />
	</node>
	<node lat="59.93342222630212" lon="11.439152781217327" id="-22842">
		<tag k="junction" v="yes" />
		<tag k="name" v="Finstad" />
		<tag k="place" v="locality" />
		<tag k="ssr:stedsnr" v="465965" />
	</node>
	<node lat="59.71940000050022" lon="11.432861106533663" id="-22859">
		<tag k="junction" v="yes" />
		<tag k="name" v="Torper" />
		<tag k="place" v="locality" />
		<tag k="ssr:stedsnr" v="326117" />
	</node>
	<node lat="59.891413889033785" lon="11.816630560981327" id="-22863">
		<tag k="bridge" v="yes" />
		<tag k="layer" v="1" />
		<tag k="name" v="Vangen" />
		<tag k="ssr:stedsnr" v="471049" />
	</node>
	<node lat="59.90209444719543" lon="11.519977781692816" id="-22897">
		<tag k="highway" v="path" />
		<tag k="name" v="Stigen" />
		<tag k="ssr:stedsnr" v="345422" />
	</node>
	<node lat="60.00306111145463" lon="11.596380563674161" id="-22933">
		<tag k="fixme" v="consider highway=path" />
		<tag k="highway" v="track" />
		<tag k="name" v="Bukkevegen" />
		<tag k="ssr:stedsnr" v="358053" />
	</node>
	<node lat="59.738811112547445" lon="11.804144450873597" id="-22950">
		<tag k="junction" v="yes" />
		<tag k="name" v="Eidet" />
		<tag k="place" v="locality" />
		<tag k="ssr:stedsnr" v="475757" />
	</node>
	<node lat="59.887000001875826" lon="11.560933337639666" id="-23011">
		<tag k="junction" v="yes" />
		<tag k="name" v="Bliksrud" />
		<tag k="place" v="locality" />
		<tag k="ssr:stedsnr" v="480637" />
	</node>
	<node lat="59.70635555469179" lon="11.535324997690466" id="-23059">
		<tag k="junction" v="yes" />
		<tag k="name" v="Skogheim" />
		<tag k="place" v="locality" />
		<tag k="ssr:stedsnr" v="403773" />
	</node>
	<node lat="59.92234444280333" lon="11.457813886426296" id="-23085">
		<tag k="bridge" v="yes" />
		<tag k="layer" v="1" />
		<tag k="name" v="Riiser" />
		<tag k="ssr:stedsnr" v="410045" />
	</node>
	<node lat="59.74118055462559" lon="11.690444451644744" id="-23092">
		<tag k="highway" v="path" />
		<tag k="name" v="Stemningen" />
		<tag k="ssr:stedsnr" v="415091" />
	</node>
	<node lat="59.85292500381574" lon="11.739416659145123" id="-23311">
		<tag k="alt_name" v="Soot" />
		<tag k="bridge" v="yes" />
		<tag k="layer" v="1" />
		<tag k="name" v="Sootbrua" />
		<tag k="ssr:stedsnr" v="672332" />
	</node>
	<node lat="59.96503333332442" lon="11.619586106703728" id="-23372">
		<tag k="bridge" v="yes" />
		<tag k="layer" v="1" />
		<tag k="name" v="Kvisla" />
		<tag k="ssr:stedsnr" v="471066" />
	</node>
	<node lat="59.933538891101435" lon="11.446625001080418" id="-23373">
		<tag k="bridge" v="yes" />
		<tag k="layer" v="1" />
		<tag k="name" v="Finstad" />
		<tag k="ssr:stedsnr" v="471074" />
	</node>
	<node lat="59.6661861069984" lon="11.741241668892007" id="-23384">
		<tag k="highway" v="path" />
		<tag k="name" v="Hesteveien" />
		<tag k="ssr:stedsnr" v="475212" />
	</node>
	<node lat="59.62853889286391" lon="11.516025007905665" id="-23408">
		<tag k="junction" v="yes" />
		<tag k="name" v="Ydersbotn" />
		<tag k="place" v="locality" />
		<tag k="ssr:stedsnr" v="483304" />
	</node>
	<node lat="59.701488892273744" lon="11.53655555634848" id="-23473">
		<tag k="landuse" v="industrial" />
		<tag k="name" v="Lundsfoss kraftstasjon" />
		<tag k="power" v="plant" />
		<tag k="ssr:stedsnr" v="524120" />
	</node>
	<node lat="59.8834555542997" lon="11.792447217660202" id="-23517">
		<tag k="bridge" v="yes" />
		<tag k="layer" v="1" />
		<tag k="name" v="Jordbrua" />
		<tag k="ssr:stedsnr" v="541015" />
	</node>
	<node lat="59.928752777628446" lon="11.54643056030523" id="-23619">
		<tag k="junction" v="yes" />
		<tag k="name" v="Nordby" />
		<tag k="place" v="locality" />
		<tag k="ssr:stedsnr" v="586605" />
	</node>
	<node lat="59.93143333558654" lon="11.45691388390256" id="-23633">
		<tag k="bridge" v="yes" />
		<tag k="layer" v="1" />
		<tag k="name" v="Lund" />
		<tag k="ssr:stedsnr" v="592063" />
	</node>
	<node lat="59.81316388881464" lon="11.694338892580692" id="-23650">
		<tag k="man_made" v="quay" />
		<tag k="name" v="Gjensted" />
		<tag k="place" v="locality" />
		<tag k="ssr:stedsnr" v="602466" />
	</node>
	<node lat="59.94822500118503" lon="11.647450001606991" id="-23732">
		<tag k="highway" v="path" />
		<tag k="name" v="Køddebakken" />
		<tag k="ssr:stedsnr" v="646095" />
	</node>
	<node lat="59.712025001944866" lon="11.580886116222239" id="-23738">
		<tag k="fixme" v="verify maritime location" />
		<tag k="mooring" v="yes" />
		<tag k="name" v="Båtstø" />
		<tag k="place" v="locality" />
		<tag k="ssr:stedsnr" v="706749" />
	</node>
	<node lat="59.70685278001823" lon="11.617044443214144" id="-23753">
		<tag k="junction" v="yes" />
		<tag k="name" v="Kølabonnkrysset" />
		<tag k="place" v="locality" />
		<tag k="ssr:stedsnr" v="706799" />
	</node>
	<node lat="59.9079111126249" lon="11.580986112639337" id="-23773">
		<tag k="bridge" v="yes" />
		<tag k="layer" v="1" />
		<tag k="name" v="Østre Stein" />
		<tag k="ssr:stedsnr" v="652035" />
	</node>
	<node lat="59.75496666373049" lon="11.817825004111517" id="-23774">
		<tag k="bridge" v="yes" />
		<tag k="layer" v="1" />
		<tag k="name" v="Lokalbrua" />
		<tag k="ssr:stedsnr" v="652553" />
	</node>
	<node lat="59.66356944480221" lon="11.854116674910683" id="-23787">
		<tag k="highway" v="path" />
		<tag k="name" v="Strandveien" />
		<tag k="ssr:stedsnr" v="657134" />
	</node>
	<node lat="59.89633611025857" lon="11.494452770687284" id="-23810">
		<tag k="highway" v="path" />
		<tag k="name" v="Kukleiva" />
		<tag k="ssr:stedsnr" v="709436" />
	</node>
	<node lat="59.906833334393745" lon="11.513969452206043" id="-23916">
		<tag k="highway" v="path" />
		<tag k="name" v="Kongevegen" />
		<tag k="ssr:stedsnr" v="891453" />
	</node>
	<node lat="59.947147219200914" lon="11.50108610693173" id="-23931">
		<tag k="bridge" v="yes" />
		<tag k="layer" v="1" />
		<tag k="name" v="Åsnes" />
		<tag k="ssr:stedsnr" v="896037" />
	</node>
	<node lat="59.71329999848822" lon="11.554944448406028" id="-23932">
		<tag k="bridge" v="yes" />
		<tag k="layer" v="1" />
		<tag k="name" v="Verket" />
		<tag k="ssr:stedsnr" v="896039" />
	</node>
	<node lat="59.92746666724756" lon="11.672558339361645" id="-23933">
		<tag k="alt_name" v="Setta" />
		<tag k="bridge" v="yes" />
		<tag k="layer" v="1" />
		<tag k="name" v="Settebrua" />
		<tag k="ssr:stedsnr" v="896044" />
	</node>
	<node lat="59.922286109984874" lon="11.50169999831137" id="-23945">
		<tag k="alt_name" v="Steinvaet" />
		<tag k="ford" v="yes" />
		<tag k="name" v="Steinvadet" />
		<tag k="place" v="locality" />
		<tag k="ssr:stedsnr" v="707627" />
	</node>
	<node lat="59.664833330776446" lon="11.83680277534399" id="-23970">
		<tag k="bridge" v="yes" />
		<tag k="layer" v="1" />
		<tag k="name" v="Ous" />
		<tag k="ssr:stedsnr" v="713587" />
	</node>
	<node lat="59.6555916655528" lon="11.860563883333231" id="-23971">
		<tag k="bridge" v="yes" />
		<tag k="layer" v="1" />
		<tag k="name" v="Trosterud" />
		<tag k="ssr:stedsnr" v="713591" />
	</node>
	<node lat="59.74608333489703" lon="11.4358027865049" id="-24112">
		<tag k="junction" v="yes" />
		<tag k="name" v="Holsjaren" />
		<tag k="place" v="locality" />
		<tag k="ssr:stedsnr" v="750120" />
	</node>
	<node lat="59.94130277817756" lon="11.807841658719342" id="-24172">
		<tag k="junction" v="yes" />
		<tag k="name" v="Øysetvegskillet" />
		<tag k="place" v="locality" />
		<tag k="ssr:stedsnr" v="908413" />
	</node>
	<node lat="59.77726944416217" lon="11.494052774874532" id="-24175">
		<tag k="alt_name" v="Tøien" />
		<tag k="bridge" v="yes" />
		<tag k="layer" v="1" />
		<tag k="name" v="Tøyen" />
		<tag k="ssr:stedsnr" v="774052" />
	</node>
	<node lat="59.869469465665304" lon="11.56557546535241" id="-24176">
		<tag k="alt_name" v="Skrepstad" />
		<tag k="bridge" v="yes" />
		<tag k="layer" v="1" />
		<tag k="name" v="Skrepstad bru" />
		<tag k="ssr:stedsnr" v="774054" />
	</node>
	<node lat="59.66848611428202" lon="11.514313893389142" id="-24185">
		<tag k="highway" v="path" />
		<tag k="name" v="Smørkleiv" />
		<tag k="ssr:stedsnr" v="908678" />
	</node>
	<node lat="59.8166833311321" lon="11.703347225890516" id="-24230">
		<tag k="man_made" v="quay" />
		<tag k="name" v="Lolykkja" />
		<tag k="place" v="locality" />
		<tag k="ssr:stedsnr" v="785706" />
	</node>
	<node lat="59.96281389172993" lon="11.490172219676952" id="-24393">
		<tag k="bridge" v="yes" />
		<tag k="layer" v="1" />
		<tag k="name" v="Svensjøbrua" />
		<tag k="ssr:stedsnr" v="829033" />
	</node>
	<node lat="59.65368888865226" lon="11.765572217568142" id="-24436">
		<tag k="highway" v="path" />
		<tag k="name" v="Sundsrudveien" />
		<tag k="ssr:stedsnr" v="840193" />
	</node>
	<node lat="59.77718055649611" lon="11.675149998202448" id="-24468">
		<tag k="junction" v="yes" />
		<tag k="name" v="Kolstadvika" />
		<tag k="place" v="locality" />
		<tag k="ssr:stedsnr" v="846884" />
	</node>
	<node lat="59.819824998440986" lon="11.486608338887208" id="-24577">
		<tag k="junction" v="yes" />
		<tag k="name" v="Fosser" />
		<tag k="place" v="locality" />
		<tag k="ssr:stedsnr" v="905152" />
	</node>
	<node lat="59.80465833599084" lon="11.393361114240477" id="-24706">
		<tag k="junction" v="yes" />
		<tag k="name" v="Mo" />
		<tag k="place" v="locality" />
		<tag k="ssr:stedsnr" v="965940" />
	</node>
	<node lat="59.66997778095304" lon="11.546891665294412" id="-24735">
		<tag k="man_made" v="quay" />
		<tag k="name" v="Skulerud brygge" />
		<tag k="place" v="locality" />
		<tag k="ssr:stedsnr" v="968701" />
	</node>
	<node lat="59.71109722311828" lon="11.374122215558042" id="-24850">
		<tag k="highway" v="path" />
		<tag k="name" v="Tårnvegen" />
		<tag k="ssr:stedsnr" v="23257" />
	</node>
	<node lat="59.68207222627503" lon="11.858605548354388" id="-24889">
		<tag k="highway" v="path" />
		<tag k="name" v="Strandveien" />
		<tag k="ssr:stedsnr" v="51043" />
	</node>
	<node lat="59.928166667899156" lon="11.677566667571375" id="-24947">
		<tag k="highway" v="path" />
		<tag k="name" v="Lensmannskleiva" />
		<tag k="ssr:stedsnr" v="57747" />
	</node>
	<node lat="59.98259444405163" lon="11.62331944675735" id="-25058">
		<tag k="highway" v="path" />
		<tag k="name" v="Barbrua" />
		<tag k="ssr:stedsnr" v="100630" />
	</node>
	<node lat="59.935102779540834" lon="11.558769437811868" id="-25067">
		<tag k="alt_name" v="Nautbrua" />
		<tag k="bridge" v="yes" />
		<tag k="layer" v="1" />
		<tag k="name" v="Nordby" />
		<tag k="ssr:stedsnr" v="101058" />
	</node>
	<node lat="59.8436833343535" lon="11.75427777088583" id="-25080">
		<tag k="highway" v="path" />
		<tag k="name" v="Fjellvegen" />
		<tag k="ssr:stedsnr" v="102282" />
	</node>
	<node lat="59.75514722278468" lon="11.816399996790958" id="-25094">
		<tag k="bridge" v="yes" />
		<tag k="fixme" v="multiple name tags, choose one and add the other to alt_name" />
		<tag k="layer" v="1" />
		<tag k="name" v="Tukken;Kvernebrua" />
		<tag k="ssr:stedsnr" v="106548" />
	</node>
	<node lat="59.7934388865322" lon="11.479922230686707" id="-25095">
		<tag k="bridge" v="yes" />
		<tag k="layer" v="1" />
		<tag k="loc_name" v="Naddbrua" />
		<tag k="name" v="Nadden" />
		<tag k="ssr:stedsnr" v="107053" />
	</node>
	<node lat="59.6694444432209" lon="11.528486106479281" id="-25160">
		<tag k="bridge" v="yes" />
		<tag k="layer" v="1" />
		<tag k="name" v="Kloppene" />
		<tag k="ssr:stedsnr" v="119664" />
	</node>
	<node lat="59.940694448369925" lon="11.571230557764025" id="-25284">
		<tag k="bridge" v="yes" />
		<tag k="layer" v="1" />
		<tag k="name" v="Børtnes" />
		<tag k="ssr:stedsnr" v="167066" />
	</node>
	<node lat="59.83240555587863" lon="11.355997215698608" id="-25285">
		<tag k="bridge" v="yes" />
		<tag k="layer" v="1" />
		<tag k="name" v="Åmotneset" />
		<tag k="old_name" v="Aamodtneset" />
		<tag k="ssr:stedsnr" v="167042" />
	</node>
	<node lat="59.80301666461209" lon="11.440450007490467" id="-25286">
		<tag k="bridge" v="yes" />
		<tag k="layer" v="1" />
		<tag k="name" v="Skattum" />
		<tag k="ssr:stedsnr" v="167046" />
	</node>
	<node lat="59.98419721943433" lon="11.714424990838083" id="-25287">
		<tag k="bridge" v="yes" />
		<tag k="layer" v="1" />
		<tag k="name" v="Ovlien" />
		<tag k="ssr:stedsnr" v="167049" />
	</node>
	<node lat="59.78658333167676" lon="11.75218332742881" id="-25288">
		<tag k="bridge" v="yes" />
		<tag k="layer" v="1" />
		<tag k="name" v="Hauketjern" />
		<tag k="ssr:stedsnr" v="167053" />
	</node>
	<node lat="59.70135555748826" lon="11.8904749921402" id="-25297">
		<tag k="junction" v="yes" />
		<tag k="name" v="Kubrua" />
		<tag k="place" v="locality" />
		<tag k="ssr:stedsnr" v="172038" />
	</node>
	<node lat="59.68943610746931" lon="11.857988880387987" id="-25298">
		<tag k="highway" v="path" />
		<tag k="name" v="Strandveien" />
		<tag k="ssr:stedsnr" v="172045" />
	</node>
	<node lat="59.87892778183246" lon="11.563063897256113" id="-25321">
		<tag k="junction" v="yes" />
		<tag k="name" v="Trandumsvingen" />
		<tag k="place" v="locality" />
		<tag k="ssr:stedsnr" v="177634" />
	</node>
	<node lat="59.89022499945078" lon="11.386447222063472" id="-25327">
		<tag k="bridge" v="yes" />
		<tag k="layer" v="1" />
		<tag k="name" v="Tverrtjennbruene" />
		<tag k="ssr:stedsnr" v="178254" />
	</node>
	<node lat="59.908250002791576" lon="11.507136106953908" id="-25490">
		<tag k="highway" v="path" />
		<tag k="name" v="Sætervegen" />
		<tag k="ssr:stedsnr" v="223454" />
	</node>
	<node lat="59.7883416655266" lon="11.406227785582487" id="-25499">
		<tag k="bridge" v="yes" />
		<tag k="layer" v="1" />
		<tag k="name" v="Solberg" />
		<tag k="ssr:stedsnr" v="228057" />
	</node>
	<node lat="59.76855555676203" lon="11.485433333602046" id="-25500">
		<tag k="bridge" v="yes" />
		<tag k="layer" v="1" />
		<tag k="name" v="Nes" />
		<tag k="ssr:stedsnr" v="228058" />
	</node>
	<node lat="59.92704444261831" lon="11.494324992166733" id="-25501">
		<tag k="bridge" v="yes" />
		<tag k="layer" v="1" />
		<tag k="loc_name" v="Brubakkbrua" />
		<tag k="name" v="Brubekk" />
		<tag k="ssr:stedsnr" v="228076" />
	</node>
	<node lat="59.92905277809513" lon="11.418372225422315" id="-25520">
		<tag k="junction" v="yes" />
		<tag k="name" v="Stubbjarbotnen" />
		<tag k="place" v="locality" />
		<tag k="ssr:stedsnr" v="283970" />
	</node>
	<node lat="59.78226110671494" lon="11.78140834170997" id="-25533">
		<tag k="bridge" v="yes" />
		<tag k="layer" v="1" />
		<tag k="name" v="Mortegropa" />
		<tag k="ssr:stedsnr" v="289050" />
	</node>
	<node lat="59.92894722015336" lon="11.698211110161536" id="-25534">
		<tag k="bridge" v="yes" />
		<tag k="layer" v="1" />
		<tag k="name" v="Garsjø" />
		<tag k="ssr:stedsnr" v="289051" />
	</node>
	<node lat="59.884291668542275" lon="11.58098333604145" id="-25535">
		<tag k="bridge" v="yes" />
		<tag k="layer" v="1" />
		<tag k="name" v="Eidsbekken" />
		<tag k="ssr:stedsnr" v="289065" />
	</node>
	<node lat="59.68116666615072" lon="11.86801667202666" id="-25554">
		<tag k="junction" v="yes" />
		<tag k="name" v="Grevlingdråga" />
		<tag k="place" v="locality" />
		<tag k="ssr:stedsnr" v="293219" />
	</node>
	<node lat="59.78745277360283" lon="11.522230560346093" id="-25716">
		<tag k="junction" v="yes" />
		<tag k="name" v="Nerby" />
		<tag k="place" v="locality" />
		<tag k="ssr:stedsnr" v="343220" />
	</node>
	<node lat="59.920450003765545" lon="11.644555559948795" id="-25795">
		<tag k="junction" v="yes" />
		<tag k="name" v="Postilltoppen" />
		<tag k="place" v="locality" />
		<tag k="ssr:stedsnr" v="360621" />
	</node>
	<node lat="59.78683333586379" lon="11.491119439716064" id="-25801">
		<tag k="junction" v="yes" />
		<tag k="name" v="Sandum" />
		<tag k="place" v="locality" />
		<tag k="ssr:stedsnr" v="360774" />
	</node>
	<node lat="59.97579166822691" lon="11.610322215190148" id="-25830">
		<tag k="fixme" v="consider highway=path" />
		<tag k="highway" v="track" />
		<tag k="name" v="Firhørningsvegen" />
		<tag k="ssr:stedsnr" v="362137" />
	</node>
	<node lat="59.85024722036345" lon="11.580713897082386" id="-25835">
		<tag k="junction" v="yes" />
		<tag k="name" v="Lang" />
		<tag k="place" v="locality" />
		<tag k="ssr:stedsnr" v="362278" />
	</node>
	<node lat="59.69440555507951" lon="11.52900833575974" id="-25950">
		<tag k="bridge" v="yes" />
		<tag k="layer" v="1" />
		<tag k="name" v="Pavestad" />
		<tag k="ssr:stedsnr" v="410049" />
	</node>
	<node lat="59.78919722471931" lon="11.465250008380675" id="-25951">
		<tag k="bridge" v="yes" />
		<tag k="layer" v="1" />
		<tag k="name" v="Løkkeberg" />
		<tag k="ssr:stedsnr" v="410050" />
	</node>
	<node lat="59.79274166240325" lon="11.484044446926923" id="-25952">
		<tag k="bridge" v="yes" />
		<tag k="layer" v="1" />
		<tag k="name" v="Naddum" />
		<tag k="ssr:stedsnr" v="410051" />
	</node>
	<node lat="59.91789444586314" lon="11.502844440933488" id="-25953">
		<tag k="bridge" v="yes" />
		<tag k="layer" v="1" />
		<tag k="name" v="Aurskog meieri" />
		<tag k="ssr:stedsnr" v="410064" />
	</node>
	<node lat="59.74401388677369" lon="11.750980560193538" id="-25957">
		<tag k="highway" v="path" />
		<tag k="name" v="Stemningen" />
		<tag k="ssr:stedsnr" v="415030" />
	</node>
</osm>
