<?xml version="1.0" encoding="UTF-8"?>
<osm generator="osmapis" version="0.6">
	<node id="-253951" lat="59.8876999965" lon="11.6231249998">
		<tag k="name" v="Åremåsahøgda" />
		<tag k="natural" v="hill" />
		<tag k="place" v="locality" />
		<tag k="ssr:stedsnr" v="65199" />
	</node>
	<node id="-251902" lat="59.8229166656" lon="11.3346194357">
		<tag k="name" v="Lauvdråga" />
		<tag k="natural" v="valley" />
		<tag k="place" v="locality" />
		<tag k="ssr:stedsnr" v="480748" />
	</node>
	<node id="-253946" lat="59.8342567089" lon="11.8390286405">
		<tag k="name" v="Høneheia" />
		<tag k="natural" v="hill" />
		<tag k="place" v="locality" />
		<tag k="ssr:stedsnr" v="65298" />
	</node>
	<node id="-253483" lat="59.7012583337" lon="11.7071861052">
		<tag k="fixme" v="consider natural=peak for the most distinct mountains in the district" />
		<tag k="name" v="Stintehøgda" />
		<tag k="natural" v="hill" />
		<tag k="place" v="locality" />
		<tag k="ssr:stedsnr" v="900173" />
	</node>
	<node id="-251219" lat="59.9222666675" lon="11.4092194512">
		<tag k="fixme" v="consider natural=peak for the most distinct mountains in the district" />
		<tag k="name" v="Stubbjaråsen" />
		<tag k="natural" v="hill" />
		<tag k="place" v="locality" />
		<tag k="ssr:stedsnr" v="40956" />
	</node>
	<node id="-253934" lat="59.7265694474" lon="11.8330416641">
		<tag k="name" v="Venemoen" />
		<tag k="place" v="locality" />
		<tag k="ssr:stedsnr" v="64648" />
	</node>
	<node id="-251882" lat="59.6989083336" lon="11.4013472309">
		<tag k="fixme" v="consider natural=peak for the most distinct mountains in the district" />
		<tag k="name" v="Pengeåsen" />
		<tag k="natural" v="hill" />
		<tag k="place" v="locality" />
		<tag k="ssr:stedsnr" v="326138" />
	</node>
	<node id="-253926" lat="59.7410027759" lon="11.3607888921">
		<tag k="fixme" v="consider natural=peak for the most distinct mountains in the district" />
		<tag k="name" v="Gaupeknatten" />
		<tag k="natural" v="hill" />
		<tag k="place" v="locality" />
		<tag k="ssr:stedsnr" v="64060" />
	</node>
	<node id="-251217" lat="59.9505194475" lon="11.6373861152">
		<tag k="fixme" v="consider natural=peak for the most distinct mountains in the district" />
		<tag k="name" v="Gamlevanghøgda" />
		<tag k="natural" v="hill" />
		<tag k="place" v="locality" />
		<tag k="ssr:stedsnr" v="40113" />
	</node>
	<node id="-253923" lat="59.7960472202" lon="11.3753444466">
		<tag k="fixme" v="consider natural=peak for the most distinct mountains in the district" />
		<tag k="name" v="Midtåsen" />
		<tag k="natural" v="hill" />
		<tag k="place" v="locality" />
		<tag k="ssr:stedsnr" v="59859" />
	</node>
	<node id="-253922" lat="59.8704472239" lon="11.3778111142">
		<tag k="name" v="Bergtrongdalen" />
		<tag k="natural" v="valley" />
		<tag k="place" v="locality" />
		<tag k="ssr:stedsnr" v="59718" />
	</node>
	<node id="-253921" lat="59.920700001" lon="11.6208111182">
		<tag k="name" v="Steindalen" />
		<tag k="natural" v="valley" />
		<tag k="place" v="locality" />
		<tag k="ssr:stedsnr" v="59613" />
	</node>
	<node id="-253919" lat="59.8744972196" lon="11.8190388921">
		<tag k="name" v="Skjærtjennlia" />
		<tag k="natural" v="slope" />
		<tag k="place" v="locality" />
		<tag k="ssr:stedsnr" v="59509" />
	</node>
	<node id="-253917" lat="59.9127361129" lon="11.7843333293">
		<tag k="name" v="Langlia" />
		<tag k="natural" v="slope" />
		<tag k="place" v="locality" />
		<tag k="ssr:stedsnr" v="59422" />
	</node>
	<node id="-253916" lat="59.915130554" lon="11.7989388947">
		<tag k="fixme" v="consider natural=peak for the most distinct mountains in the district" />
		<tag k="name" v="Sagåsen" />
		<tag k="natural" v="hill" />
		<tag k="place" v="locality" />
		<tag k="ssr:stedsnr" v="59415" />
	</node>
	<node id="-253915" lat="59.9211000042" lon="11.7823333421">
		<tag k="fixme" v="consider natural=peak for the most distinct mountains in the district" />
		<tag k="name" v="Saumyråsen" />
		<tag k="natural" v="hill" />
		<tag k="place" v="locality" />
		<tag k="ssr:stedsnr" v="59413" />
	</node>
	<node id="-253914" lat="59.8022083344" lon="11.3052500017">
		<tag k="name" v="Korsdalen" />
		<tag k="natural" v="valley" />
		<tag k="place" v="locality" />
		<tag k="ssr:stedsnr" v="59406" />
	</node>
	<node id="-253912" lat="59.9342111079" lon="11.8105361163">
		<tag k="name" v="Øysjøliene" />
		<tag k="natural" v="slope" />
		<tag k="place" v="locality" />
		<tag k="ssr:stedsnr" v="59366" />
	</node>
	<node id="-254627" lat="59.9643027762" lon="11.6578694517">
		<tag k="name" v="Igletjenndalen" />
		<tag k="natural" v="valley" />
		<tag k="place" v="locality" />
		<tag k="ssr:stedsnr" v="302188" />
	</node>
	<node id="-251856" lat="59.6827694477" lon="11.7853138978">
		<tag k="fixme" v="consider natural=peak for the most distinct mountains in the district" />
		<tag k="name" v="Søndre Buhøgda" />
		<tag k="natural" v="hill" />
		<tag k="place" v="locality" />
		<tag k="ssr:stedsnr" v="475148" />
	</node>
	<node id="-251847" lat="59.7187694429" lon="11.85979723">
		<tag k="fixme" v="consider natural=peak for the most distinct mountains in the district" />
		<tag k="name" v="Veslehøgda" />
		<tag k="natural" v="hill" />
		<tag k="place" v="locality" />
		<tag k="ssr:stedsnr" v="475054" />
	</node>
	<node id="-253893" lat="59.674625004" lon="11.5352527852">
		<tag k="name" v="Tangenåsen" />
		<tag k="natural" v="hill" />
		<tag k="place" v="locality" />
		<tag k="ssr:stedsnr" v="58434" />
	</node>
	<node id="-251838" lat="59.8382222198" lon="11.3564305608">
		<tag k="fixme" v="consider natural=peak for the most distinct mountains in the district" />
		<tag k="name" v="Sakaliåsen" />
		<tag k="natural" v="hill" />
		<tag k="place" v="locality" />
		<tag k="ssr:stedsnr" v="308725" />
	</node>
	<node id="-253885" lat="59.9294666689" lon="11.6357138968">
		<tag k="name" v="Sommerfjøstoppen" />
		<tag k="natural" v="hill" />
		<tag k="place" v="locality" />
		<tag k="ssr:stedsnr" v="57741" />
	</node>
	<node id="-251832" lat="60.0070583332" lon="11.7667861041">
		<tag k="name" v="Svartkollia" />
		<tag k="natural" v="slope" />
		<tag k="place" v="locality" />
		<tag k="ssr:stedsnr" v="302919" />
	</node>
	<node id="-254964" lat="59.7866638884" lon="11.6616166702">
		<tag k="fixme" v="consider natural=peak for the most distinct mountains in the district" />
		<tag k="name" v="Abbortjennåsen" />
		<tag k="natural" v="hill" />
		<tag k="place" v="locality" />
		<tag k="ssr:stedsnr" v="368513" />
	</node>
	<node id="-251829" lat="59.9695638849" lon="11.6276277778">
		<tag k="fixme" v="consider natural=peak for the most distinct mountains in the district" />
		<tag k="name" v="Jenrupen" />
		<tag k="natural" v="hill" />
		<tag k="place" v="locality" />
		<tag k="ssr:stedsnr" v="302153" />
	</node>
	<node id="-253876" lat="59.8492666692" lon="11.3536055506">
		<tag k="fixme" v="consider natural=peak for the most distinct mountains in the district" />
		<tag k="name" v="Vikeåsen" />
		<tag k="natural" v="hill" />
		<tag k="place" v="locality" />
		<tag k="ssr:stedsnr" v="57605" />
	</node>
	<node id="-251827" lat="59.8041805549" lon="11.8398833319">
		<tag k="name" v="Østre Bukkedal" />
		<tag k="natural" v="valley" />
		<tag k="place" v="locality" />
		<tag k="ssr:stedsnr" v="301707" />
	</node>
	<node id="-253874" lat="59.8158416685" lon="11.6648694387">
		<tag k="name" v="Bjønndalen" />
		<tag k="natural" v="valley" />
		<tag k="place" v="locality" />
		<tag k="ssr:stedsnr" v="57458" />
	</node>
	<node id="-253870" lat="59.8840416692" lon="11.4043055563">
		<tag k="name" v="Svarttjennlia" />
		<tag k="natural" v="slope" />
		<tag k="place" v="locality" />
		<tag k="ssr:stedsnr" v="57343" />
	</node>
	<node id="-251821" lat="59.747402776" lon="11.5184444448">
		<tag k="fixme" v="consider natural=peak for the most distinct mountains in the district" />
		<tag k="name" v="Skjertjennåsen" />
		<tag k="natural" v="hill" />
		<tag k="place" v="locality" />
		<tag k="ssr:stedsnr" v="301454" />
	</node>
	<node id="-253867" lat="59.905813891" lon="11.4005666685">
		<tag k="fixme" v="consider natural=peak for the most distinct mountains in the district" />
		<tag k="name" v="Einerudåsene" />
		<tag k="natural" v="hill" />
		<tag k="place" v="locality" />
		<tag k="ssr:stedsnr" v="57256" />
	</node>
	<node id="-251817" lat="59.6725083378" lon="11.5276499935">
		<tag k="fixme" v="consider natural=peak for the most distinct mountains in the district" />
		<tag k="name" v="Torvmyrtoppen" />
		<tag k="natural" v="hill" />
		<tag k="place" v="locality" />
		<tag k="ssr:stedsnr" v="301407" />
	</node>
	<node id="-251816" lat="59.9284583317" lon="11.7924361121">
		<tag k="name" v="Lauvtjennlia" />
		<tag k="natural" v="slope" />
		<tag k="place" v="locality" />
		<tag k="ssr:stedsnr" v="301406" />
	</node>
	<node id="-253863" lat="59.8899722189" lon="11.6136861127">
		<tag k="name" v="Grasmoen" />
		<tag k="place" v="locality" />
		<tag k="ssr:stedsnr" v="56597" />
	</node>
	<node id="-251814" lat="59.933599998" lon="11.8042000054">
		<tag k="fixme" v="consider natural=peak for the most distinct mountains in the district" />
		<tag k="name" v="Øysjøhøgda" />
		<tag k="natural" v="hill" />
		<tag k="place" v="locality" />
		<tag k="ssr:stedsnr" v="301404" />
	</node>
	<node id="-251811" lat="59.923072218" lon="11.6762611065">
		<tag k="name" v="Stygghølet" />
		<tag k="natural" v="valley" />
		<tag k="place" v="locality" />
		<tag k="ssr:stedsnr" v="300761" />
	</node>
	<node id="-253857" lat="59.9382083353" lon="11.5899111189">
		<tag k="name" v="Tranget" />
		<tag k="place" v="locality" />
		<tag k="ssr:stedsnr" v="56243" />
	</node>
	<node id="-253856" lat="59.9518722221" lon="11.582650002">
		<tag k="fixme" v="consider natural=peak for the most distinct mountains in the district" />
		<tag k="name" v="Lindalsåsen" />
		<tag k="natural" v="hill" />
		<tag k="place" v="locality" />
		<tag k="ssr:stedsnr" v="56226" />
	</node>
	<node id="-251807" lat="59.8838416694" lon="11.5934361169">
		<tag k="fixme" v="consider natural=peak for the most distinct mountains in the district" />
		<tag k="name" v="Fabrikkåsen" />
		<tag k="natural" v="hill" />
		<tag k="place" v="locality" />
		<tag k="ssr:stedsnr" v="299604" />
	</node>
	<node id="-253854" lat="59.793930558" lon="11.4149972222">
		<tag k="name" v="Tjuvdalen" />
		<tag k="natural" v="valley" />
		<tag k="place" v="locality" />
		<tag k="ssr:stedsnr" v="55965" />
	</node>
	<node id="-251805" lat="59.8375750011" lon="11.5846388821">
		<tag k="fixme" v="consider natural=peak for the most distinct mountains in the district" />
		<tag k="name" v="Holeåsen" />
		<tag k="natural" v="hill" />
		<tag k="place" v="locality" />
		<tag k="ssr:stedsnr" v="466800" />
	</node>
	<node id="-251804" lat="59.8447611098" lon="11.4504749995">
		<tag k="fixme" v="consider natural=peak for the most distinct mountains in the district" />
		<tag k="name" v="Tyrihjellåsen" />
		<tag k="natural" v="hill" />
		<tag k="place" v="locality" />
		<tag k="ssr:stedsnr" v="466848" />
	</node>
	<node id="-251803" lat="59.8585527808" lon="11.3748361055">
		<tag k="name" v="Larsbråtalia" />
		<tag k="natural" v="slope" />
		<tag k="place" v="locality" />
		<tag k="ssr:stedsnr" v="466729" />
	</node>
	<node id="-251802" lat="59.978688889" lon="11.6971194479">
		<tag k="name" v="Daltjennliene" />
		<tag k="natural" v="slope" />
		<tag k="place" v="locality" />
		<tag k="ssr:stedsnr" v="466386" />
	</node>
	<node id="-254617" lat="59.6136694461" lon="11.4920416731">
		<tag k="name" v="Ormedalen" />
		<tag k="natural" v="valley" />
		<tag k="place" v="locality" />
		<tag k="ssr:stedsnr" v="301531" />
	</node>
	<node id="-253844" lat="60.0054444472" lon="11.7142611164">
		<tag k="fixme" v="consider natural=peak for the most distinct mountains in the district" />
		<tag k="name" v="Alishøgda" />
		<tag k="natural" v="hill" />
		<tag k="place" v="locality" />
		<tag k="ssr:stedsnr" v="55190" />
	</node>
	<node id="-251792" lat="59.7510749994" lon="11.7710944359">
		<tag k="name" v="Store Bjørndalen" />
		<tag k="natural" v="valley" />
		<tag k="place" v="locality" />
		<tag k="ssr:stedsnr" v="293036" />
	</node>
	<node id="-251789" lat="59.938424998" lon="11.7004722138">
		<tag k="name" v="Sautjenndalen" />
		<tag k="natural" v="valley" />
		<tag k="place" v="locality" />
		<tag k="ssr:stedsnr" v="465024" />
	</node>
	<node id="-251783" lat="59.9848388845" lon="11.6691111182">
		<tag k="name" v="Slåttemyrlia" />
		<tag k="natural" v="slope" />
		<tag k="place" v="locality" />
		<tag k="ssr:stedsnr" v="464621" />
	</node>
	<node id="-251542" lat="59.9842750003" lon="11.5928305613">
		<tag k="name" v="Rogndalstorget" />
		<tag k="place" v="locality" />
		<tag k="ssr:stedsnr" v="282566" />
	</node>
	<node id="-253823" lat="59.6507222254" lon="11.7270388918">
		<tag k="fixme" v="consider natural=peak for the most distinct mountains in the district" />
		<tag k="name" v="Kjørestuhøgda" />
		<tag k="natural" v="hill" />
		<tag k="place" v="locality" />
		<tag k="ssr:stedsnr" v="51081" />
	</node>
	<node id="-251772" lat="59.842108329" lon="11.6076833375">
		<tag k="name" v="Deledalen" />
		<tag k="natural" v="valley" />
		<tag k="place" v="locality" />
		<tag k="ssr:stedsnr" v="285766" />
	</node>
	<node id="-253817" lat="59.736872224" lon="11.8313194498">
		<tag k="name" v="Saubakkdalen" />
		<tag k="natural" v="valley" />
		<tag k="place" v="locality" />
		<tag k="ssr:stedsnr" v="51141" />
	</node>
	<node id="-251768" lat="59.943019445" lon="11.553308325">
		<tag k="name" v="Rodalen" />
		<tag k="natural" v="valley" />
		<tag k="place" v="locality" />
		<tag k="ssr:stedsnr" v="284403" />
	</node>
	<node id="-251767" lat="59.9683222226" lon="11.5227333293">
		<tag k="fixme" v="consider natural=peak for the most distinct mountains in the district" />
		<tag k="name" v="Åsnesåsen" />
		<tag k="natural" v="hill" />
		<tag k="place" v="locality" />
		<tag k="ssr:stedsnr" v="283005" />
	</node>
	<node id="-253814" lat="59.6878694415" lon="11.8555805518">
		<tag k="name" v="Tverrdalen" />
		<tag k="natural" v="valley" />
		<tag k="place" v="locality" />
		<tag k="ssr:stedsnr" v="51045" />
	</node>
	<node id="-253811" lat="59.7814861156" lon="11.8286499968">
		<tag k="fixme" v="consider natural=peak for the most distinct mountains in the district" />
		<tag k="name" v="Buhøgda" />
		<tag k="natural" v="hill" />
		<tag k="place" v="locality" />
		<tag k="ssr:stedsnr" v="50118" />
	</node>
	<node id="-253806" lat="59.9993222203" lon="11.7671972285">
		<tag k="fixme" v="consider natural=peak for the most distinct mountains in the district" />
		<tag k="name" v="Grasberget" />
		<tag k="natural" v="hill" />
		<tag k="place" v="locality" />
		<tag k="ssr:stedsnr" v="42891" />
	</node>
	<node id="-251755" lat="59.8348222208" lon="11.7906916595">
		<tag k="fixme" v="consider natural=peak for the most distinct mountains in the district" />
		<tag k="name" v="Lembruheia" />
		<tag k="natural" v="hill" />
		<tag k="place" v="locality" />
		<tag k="ssr:stedsnr" v="247294" />
	</node>
	<node id="-253797" lat="59.7775749963" lon="11.4060638814">
		<tag k="name" v="Verkdalen" />
		<tag k="natural" v="valley" />
		<tag k="place" v="locality" />
		<tag k="ssr:stedsnr" v="42422" />
	</node>
	<node id="-253795" lat="59.7777083345" lon="11.4354194492">
		<tag k="fixme" v="consider natural=peak for the most distinct mountains in the district" />
		<tag k="name" v="Revjaåsen" />
		<tag k="natural" v="hill" />
		<tag k="place" v="locality" />
		<tag k="ssr:stedsnr" v="42391" />
	</node>
	<node id="-253791" lat="59.9469750002" lon="11.4739749951">
		<tag k="fixme" v="consider natural=peak for the most distinct mountains in the district" />
		<tag k="name" v="Engaåsen" />
		<tag k="natural" v="hill" />
		<tag k="place" v="locality" />
		<tag k="ssr:stedsnr" v="41481" />
	</node>
	<node id="-253789" lat="59.8984527748" lon="11.4946138857">
		<tag k="name" v="Vannskillet" />
		<tag k="place" v="locality" />
		<tag k="ssr:stedsnr" v="41428" />
	</node>
	<node id="-251739" lat="59.8978611136" lon="11.755172225">
		<tag k="name" v="Merraskolldalen" />
		<tag k="natural" v="valley" />
		<tag k="place" v="locality" />
		<tag k="ssr:stedsnr" v="241425" />
	</node>
	<node id="-253786" lat="59.975277776" lon="11.7800861138">
		<tag k="name" v="Kulphella" />
		<tag k="place" v="locality" />
		<tag k="ssr:stedsnr" v="40995" />
	</node>
	<node id="-251736" lat="59.8404111119" lon="11.6396111023">
		<tag k="name" v="Butjenndalen" />
		<tag k="natural" v="valley" />
		<tag k="place" v="locality" />
		<tag k="ssr:stedsnr" v="241206" />
	</node>
	<node id="-251733" lat="59.7597388915" lon="11.3867000075">
		<tag k="name" v="Bjørktjennhøgda" />
		<tag k="natural" v="hill" />
		<tag k="place" v="locality" />
		<tag k="ssr:stedsnr" v="447197" />
	</node>
	<node id="-251727" lat="59.8986194411" lon="11.3360166684">
		<tag k="name" v="Brattbakkene" />
		<tag k="natural" v="slope" />
		<tag k="place" v="locality" />
		<tag k="ssr:stedsnr" v="239238" />
	</node>
	<node id="-253773" lat="59.977833335" lon="11.4777666627">
		<tag k="name" v="Tangedalen" />
		<tag k="natural" v="valley" />
		<tag k="place" v="locality" />
		<tag k="ssr:stedsnr" v="40127" />
	</node>
	<node id="-253772" lat="59.9617999998" lon="11.5963222209">
		<tag k="name" v="Æresporten" />
		<tag k="natural" v="gorge" />
		<tag k="ssr:stedsnr" v="40032" />
	</node>
	<node id="-254432" lat="59.8655083366" lon="11.7998388855">
		<tag k="fixme" v="consider natural=peak for the most distinct mountains in the district" />
		<tag k="name" v="Orremåsahøgda" />
		<tag k="natural" v="hill" />
		<tag k="place" v="locality" />
		<tag k="ssr:stedsnr" v="180195" />
	</node>
	<node id="-251708" lat="59.6538638919" lon="11.7250027868">
		<tag k="name" v="Graverdalen" />
		<tag k="natural" v="valley" />
		<tag k="place" v="locality" />
		<tag k="ssr:stedsnr" v="232216" />
	</node>
	<node id="-251707" lat="59.6485583365" lon="11.720988883">
		<tag k="name" v="Bjørndalen" />
		<tag k="natural" v="valley" />
		<tag k="place" v="locality" />
		<tag k="ssr:stedsnr" v="232214" />
	</node>
	<node id="-253754" lat="60.0014444481" lon="11.8134250027">
		<tag k="fixme" v="consider natural=peak for the most distinct mountains in the district" />
		<tag k="name" v="Tørrhalåsen" />
		<tag k="natural" v="hill" />
		<tag k="place" v="locality" />
		<tag k="ssr:stedsnr" v="5947" />
	</node>
	<node id="-253752" lat="59.7924361096" lon="11.3577444376">
		<tag k="fixme" v="consider natural=peak for the most distinct mountains in the district" />
		<tag k="name" v="Hølands varde" />
		<tag k="natural" v="hill" />
		<tag k="place" v="locality" />
		<tag k="ssr:stedsnr" v="5841" />
	</node>
	<node id="-253749" lat="59.8387944443" lon="11.3434416742">
		<tag k="fixme" v="consider natural=peak for the most distinct mountains in the district" />
		<tag k="name" v="Åmothøgda" />
		<tag k="natural" v="hill" />
		<tag k="place" v="locality" />
		<tag k="ssr:stedsnr" v="5763" />
	</node>
	<node id="-253748" lat="59.8368916646" lon="11.4576083276">
		<tag k="name" v="Trondsdalen" />
		<tag k="natural" v="valley" />
		<tag k="place" v="locality" />
		<tag k="ssr:stedsnr" v="5733" />
	</node>
	<node id="-253743" lat="59.8230638859" lon="11.5180361052">
		<tag k="fixme" v="consider natural=peak for the most distinct mountains in the district" />
		<tag k="name" v="Høgåsen" />
		<tag k="natural" v="hill" />
		<tag k="place" v="locality" />
		<tag k="ssr:stedsnr" v="5527" />
	</node>
	<node id="-253741" lat="59.7835972205" lon="11.7627777722">
		<tag k="name" v="Østre Hauketjennkollen" />
		<tag k="natural" v="hill" />
		<tag k="place" v="locality" />
		<tag k="ssr:stedsnr" v="5435" />
	</node>
	<node id="-253734" lat="59.8518027753" lon="11.7549083321">
		<tag k="alt_name" v="Bjørnebassheia" />
		<tag k="fixme" v="consider natural=peak for the most distinct mountains in the district" />
		<tag k="name" v="Bjørnbassheia" />
		<tag k="natural" v="hill" />
		<tag k="place" v="locality" />
		<tag k="ssr:stedsnr" v="5343" />
	</node>
	<node id="-251526" lat="59.7887305519" lon="11.6040999925">
		<tag k="name" v="Brudalen" />
		<tag k="natural" v="valley" />
		<tag k="place" v="locality" />
		<tag k="ssr:stedsnr" v="161206" />
	</node>
	<node id="-251682" lat="60.0078138889" lon="11.6845444403">
		<tag k="fixme" v="consider natural=peak for the most distinct mountains in the district" />
		<tag k="name" v="Strømsæterhøgda" />
		<tag k="natural" v="hill" />
		<tag k="place" v="locality" />
		<tag k="ssr:stedsnr" v="298055" />
	</node>
	<node id="-253722" lat="59.8626444448" lon="11.7831611047">
		<tag k="fixme" v="consider natural=peak for the most distinct mountains in the district" />
		<tag k="name" v="Østbyhøgda" />
		<tag k="natural" v="hill" />
		<tag k="place" v="locality" />
		<tag k="ssr:stedsnr" v="5121" />
	</node>
	<node id="-253717" lat="59.9672472191" lon="11.6011916667">
		<tag k="name" v="Fotiltjennhøgda" />
		<tag k="natural" v="hill" />
		<tag k="place" v="locality" />
		<tag k="ssr:stedsnr" v="5094" />
	</node>
	<node id="-251667" lat="59.6865611085" lon="11.6760555558">
		<tag k="fixme" v="consider natural=peak for the most distinct mountains in the district" />
		<tag k="name" v="Veslerishøgda" />
		<tag k="natural" v="hill" />
		<tag k="place" v="locality" />
		<tag k="ssr:stedsnr" v="293298" />
	</node>
	<node id="-253713" lat="59.9410138863" lon="11.522591663">
		<tag k="fixme" v="consider natural=peak for the most distinct mountains in the district" />
		<tag k="name" v="Nygardsåsen" />
		<tag k="natural" v="hill" />
		<tag k="place" v="locality" />
		<tag k="ssr:stedsnr" v="5077" />
	</node>
	<node id="-251664" lat="59.7532222223" lon="11.7368527822">
		<tag k="name" v="Svarteberga" />
		<tag k="natural" v="cliff" />
		<tag k="ssr:stedsnr" v="293288" />
	</node>
	<node id="-253707" lat="59.9181555551" lon="11.6580777807">
		<tag k="alt_name" v="Storsæteråsen" />
		<tag k="fixme" v="consider natural=peak for the most distinct mountains in the district" />
		<tag k="name" v="Storsæterhøgda" />
		<tag k="natural" v="hill" />
		<tag k="place" v="locality" />
		<tag k="ssr:stedsnr" v="5009" />
	</node>
	<node id="-253705" lat="59.9951555514" lon="11.6676277734">
		<tag k="fixme" v="consider natural=peak for the most distinct mountains in the district" />
		<tag k="name" v="Knollen" />
		<tag k="natural" v="hill" />
		<tag k="place" v="locality" />
		<tag k="ssr:stedsnr" v="4949" />
	</node>
	<node id="-253700" lat="59.8122833377" lon="11.3044111182">
		<tag k="name" v="Sæterbudalen" />
		<tag k="natural" v="valley" />
		<tag k="place" v="locality" />
		<tag k="ssr:stedsnr" v="4837" />
	</node>
	<node id="-253695" lat="59.8820750035" lon="11.3410027824">
		<tag k="alt_name" v="Ringkollen, søndre" />
		<tag k="fixme" v="consider natural=peak for the most distinct mountains in the district" />
		<tag k="name" v="Søndre Ringkollen" />
		<tag k="natural" v="hill" />
		<tag k="place" v="locality" />
		<tag k="ssr:stedsnr" v="4675" />
	</node>
	<node id="-251638" lat="59.6640583314" lon="11.7761611149">
		<tag k="fixme" v="consider natural=peak for the most distinct mountains in the district" />
		<tag k="name" v="Skavholtåsen" />
		<tag k="natural" v="hill" />
		<tag k="place" v="locality" />
		<tag k="ssr:stedsnr" v="293080" />
	</node>
	<node id="-253681" lat="59.7897888889" lon="11.5672694447">
		<tag k="fixme" v="consider natural=peak for the most distinct mountains in the district" />
		<tag k="name" v="Lintjennåsen" />
		<tag k="natural" v="hill" />
		<tag k="place" v="locality" />
		<tag k="ssr:stedsnr" v="4450" />
	</node>
	<node id="-253680" lat="59.9832333332" lon="11.4627305524">
		<tag k="name" v="Sæterdalen" />
		<tag k="natural" v="valley" />
		<tag k="place" v="locality" />
		<tag k="ssr:stedsnr" v="4449" />
	</node>
	<node id="-254589" lat="59.7991166684" lon="11.8998472232">
		<tag k="fixme" v="consider natural=peak for the most distinct mountains in the district" />
		<tag k="name" v="Hellehøgda" />
		<tag k="natural" v="hill" />
		<tag k="place" v="locality" />
		<tag k="ssr:stedsnr" v="188188" />
	</node>
	<node id="-253676" lat="59.7666250039" lon="11.752397215">
		<tag k="fixme" v="consider natural=peak for the most distinct mountains in the district" />
		<tag k="name" v="Stordalshøgda" />
		<tag k="natural" v="hill" />
		<tag k="place" v="locality" />
		<tag k="ssr:stedsnr" v="4400" />
	</node>
	<node id="-253674" lat="59.7571166642" lon="11.5356833391">
		<tag k="name" v="Hanseberget" />
		<tag k="natural" v="hill" />
		<tag k="place" v="locality" />
		<tag k="ssr:stedsnr" v="4388" />
	</node>
	<node id="-253672" lat="59.7549750012" lon="11.7471472211">
		<tag k="name" v="Svarteberga" />
		<tag k="natural" v="hill" />
		<tag k="place" v="locality" />
		<tag k="ssr:stedsnr" v="4371" />
	</node>
	<node id="-253668" lat="59.8458472199" lon="11.5802472219">
		<tag k="fixme" v="consider natural=peak for the most distinct mountains in the district" />
		<tag k="name" v="Jonsrudåsen" />
		<tag k="natural" v="hill" />
		<tag k="place" v="locality" />
		<tag k="ssr:stedsnr" v="4324" />
	</node>
	<node id="-251616" lat="59.6622444447" lon="11.5302000046">
		<tag k="name" v="Torkildsdalen" />
		<tag k="natural" v="valley" />
		<tag k="place" v="locality" />
		<tag k="ssr:stedsnr" v="180678" />
	</node>
	<node id="-253662" lat="59.6125666642" lon="11.4971166577">
		<tag k="alt_name" v="Årberget" />
		<tag k="fixme" v="consider natural=peak for the most distinct mountains in the district" />
		<tag k="name" v="Orreberget" />
		<tag k="natural" v="hill" />
		<tag k="place" v="locality" />
		<tag k="ssr:stedsnr" v="4285" />
	</node>
	<node id="-253658" lat="59.8972555599" lon="11.5032666676">
		<tag k="name" v="Halvorsrudhøgda" />
		<tag k="natural" v="hill" />
		<tag k="place" v="locality" />
		<tag k="ssr:stedsnr" v="4225" />
	</node>
	<node id="-253652" lat="59.8599249968" lon="11.5764972244">
		<tag k="fixme" v="consider natural=peak for the most distinct mountains in the district" />
		<tag k="name" v="Djupdalshøgda" />
		<tag k="natural" v="hill" />
		<tag k="place" v="locality" />
		<tag k="ssr:stedsnr" v="4139" />
	</node>
	<node id="-251603" lat="59.8661777752" lon="11.6622527815">
		<tag k="name" v="Brenndalen" />
		<tag k="natural" v="valley" />
		<tag k="place" v="locality" />
		<tag k="ssr:stedsnr" v="180260" />
	</node>
	<node id="-253641" lat="59.6750416687" lon="11.5915777845">
		<tag k="name" v="Sæteråsen" />
		<tag k="natural" v="hill" />
		<tag k="place" v="locality" />
		<tag k="ssr:stedsnr" v="3254" />
	</node>
	<node id="-253640" lat="59.6655916636" lon="11.7455805532">
		<tag k="alt_name" v="Venås" />
		<tag k="name" v="Store Venås" />
		<tag k="natural" v="hill" />
		<tag k="place" v="locality" />
		<tag k="ssr:stedsnr" v="3248" />
	</node>
	<node id="-251584" lat="59.8747000007" lon="11.6606638915">
		<tag k="fixme" v="consider natural=peak for the most distinct mountains in the district" />
		<tag k="name" v="Høltjennåsen" />
		<tag k="natural" v="hill" />
		<tag k="place" v="locality" />
		<tag k="ssr:stedsnr" v="177608" />
	</node>
	<node id="-251583" lat="59.9555666704" lon="11.6307666739">
		<tag k="fixme" v="consider natural=peak for the most distinct mountains in the district" />
		<tag k="name" v="Gamlevanghøgda" />
		<tag k="natural" v="hill" />
		<tag k="place" v="locality" />
		<tag k="ssr:stedsnr" v="177254" />
	</node>
	<node id="-251582" lat="59.9495138908" lon="11.5787750023">
		<tag k="name" v="Lindalen" />
		<tag k="natural" v="valley" />
		<tag k="place" v="locality" />
		<tag k="ssr:stedsnr" v="284435" />
	</node>
	<node id="-251579" lat="59.9114777814" lon="11.6254666654">
		<tag k="name" v="Tyttebærlia" />
		<tag k="natural" v="slope" />
		<tag k="place" v="locality" />
		<tag k="ssr:stedsnr" v="284115" />
	</node>
	<node id="-251563" lat="59.952777779" lon="11.6689138817">
		<tag k="name" v="Oppsjøholma" />
		<tag k="natural" v="hill" />
		<tag k="place" v="locality" />
		<tag k="ssr:stedsnr" v="283093" />
	</node>
	<node id="-251561" lat="59.8222194483" lon="11.8280000067">
		<tag k="name" v="Råbukkdalen" />
		<tag k="natural" v="valley" />
		<tag k="place" v="locality" />
		<tag k="ssr:stedsnr" v="282903" />
	</node>
	<node id="-251560" lat="59.8250222183" lon="11.8057722271">
		<tag k="fixme" v="consider natural=peak for the most distinct mountains in the district" />
		<tag k="name" v="Børresmyråsen" />
		<tag k="natural" v="hill" />
		<tag k="place" v="locality" />
		<tag k="ssr:stedsnr" v="282902" />
	</node>
	<node id="-251553" lat="59.9968750028" lon="11.6732555641">
		<tag k="name" v="Knolleliene" />
		<tag k="natural" v="slope" />
		<tag k="place" v="locality" />
		<tag k="ssr:stedsnr" v="282696" />
	</node>
	<node id="-251549" lat="59.9939555565" lon="11.7041194405">
		<tag k="name" v="Blekketjenntangen" />
		<tag k="natural" v="hill" />
		<tag k="place" v="locality" />
		<tag k="ssr:stedsnr" v="282665" />
	</node>
	<node id="-251545" lat="59.9891805548" lon="11.6146777852">
		<tag k="name" v="Vidalen" />
		<tag k="natural" v="valley" />
		<tag k="place" v="locality" />
		<tag k="ssr:stedsnr" v="282630" />
	</node>
	<node id="-251543" lat="59.810999997" lon="11.8207694493">
		<tag k="name" v="Brattfossbrenna" />
		<tag k="natural" v="slope" />
		<tag k="place" v="locality" />
		<tag k="ssr:stedsnr" v="282586" />
	</node>
	<node id="-253590" lat="59.968091667" lon="11.6753611146">
		<tag k="name" v="Østre Ormemyrholen" />
		<tag k="natural" v="ridge" />
		<tag k="place" v="locality" />
		<tag k="ssr:stedsnr" v="969172" />
	</node>
	<node id="-253588" lat="59.9766611094" lon="11.5838638887">
		<tag k="name" v="Knølldalslia" />
		<tag k="natural" v="slope" />
		<tag k="place" v="locality" />
		<tag k="ssr:stedsnr" v="969158" />
	</node>
	<node id="-253586" lat="59.8918444429" lon="11.3360944476">
		<tag k="name" v="Steinkjerringa" />
		<tag k="place" v="locality" />
		<tag k="ssr:stedsnr" v="969053" />
	</node>
	<node id="-253580" lat="59.8823944426" lon="11.7038055598">
		<tag k="fixme" v="consider natural=peak for the most distinct mountains in the district" />
		<tag k="name" v="Sætermohøgda" />
		<tag k="natural" v="hill" />
		<tag k="place" v="locality" />
		<tag k="ssr:stedsnr" v="967658" />
	</node>
	<node id="-253579" lat="59.9554694468" lon="11.4224111161">
		<tag k="name" v="Moen" />
		<tag k="place" v="locality" />
		<tag k="ssr:stedsnr" v="967427" />
	</node>
	<node id="-254572" lat="59.8272277744" lon="11.3240361165">
		<tag k="fixme" v="consider natural=peak for the most distinct mountains in the district" />
		<tag k="name" v="Tjuvdalshøgda" />
		<tag k="natural" v="hill" />
		<tag k="place" v="locality" />
		<tag k="ssr:stedsnr" v="187503" />
	</node>
	<node id="-253574" lat="59.9582166703" lon="11.5645833295">
		<tag k="fixme" v="consider natural=peak for the most distinct mountains in the district" />
		<tag k="name" v="Strømstadåsen" />
		<tag k="natural" v="hill" />
		<tag k="place" v="locality" />
		<tag k="ssr:stedsnr" v="966374" />
	</node>
	<node id="-251523" lat="59.9640222222" lon="11.4680083376">
		<tag k="fixme" v="consider natural=peak for the most distinct mountains in the district" />
		<tag k="name" v="Korpåsen" />
		<tag k="natural" v="hill" />
		<tag k="place" v="locality" />
		<tag k="ssr:stedsnr" v="161009" />
	</node>
	<node id="-253570" lat="59.7649583345" lon="11.9211444496">
		<tag k="name" v="Røvassfalldalen" />
		<tag k="natural" v="valley" />
		<tag k="place" v="locality" />
		<tag k="ssr:stedsnr" v="961162" />
	</node>
	<node id="-251516" lat="59.6943027743" lon="11.3929388883">
		<tag k="fixme" v="consider natural=peak for the most distinct mountains in the district" />
		<tag k="name" v="Kløvsåsen" />
		<tag k="natural" v="hill" />
		<tag k="place" v="locality" />
		<tag k="ssr:stedsnr" v="265226" />
	</node>
	<node id="-253563" lat="59.8294972261" lon="11.7482527718">
		<tag k="fixme" v="consider natural=peak for the most distinct mountains in the district" />
		<tag k="name" v="Damtjennhøgda" />
		<tag k="natural" v="hill" />
		<tag k="place" v="locality" />
		<tag k="ssr:stedsnr" v="952834" />
	</node>
	<node id="-253559" lat="59.975411111" lon="11.7587999983">
		<tag k="name" v="Sotknollen" />
		<tag k="natural" v="hill" />
		<tag k="place" v="locality" />
		<tag k="ssr:stedsnr" v="950995" />
	</node>
	<node id="-253551" lat="59.9550777762" lon="11.6345611175">
		<tag k="name" v="Bokseruddalen" />
		<tag k="natural" v="valley" />
		<tag k="place" v="locality" />
		<tag k="ssr:stedsnr" v="950013" />
	</node>
	<node id="-251497" lat="59.8039805526" lon="11.7696361083">
		<tag k="fixme" v="consider natural=peak for the most distinct mountains in the district" />
		<tag k="name" v="Øvresæteråsen" />
		<tag k="natural" v="hill" />
		<tag k="place" v="locality" />
		<tag k="ssr:stedsnr" v="116408" />
	</node>
	<node id="-251496" lat="59.8048250041" lon="11.7568305558">
		<tag k="name" v="Elgdråga" />
		<tag k="natural" v="valley" />
		<tag k="place" v="locality" />
		<tag k="ssr:stedsnr" v="116407" />
	</node>
	<node id="-251494" lat="59.9491194476" lon="11.6255611152">
		<tag k="fixme" v="consider natural=peak for the most distinct mountains in the district" />
		<tag k="name" v="Bjønnhøgda" />
		<tag k="natural" v="hill" />
		<tag k="place" v="locality" />
		<tag k="ssr:stedsnr" v="116323" />
	</node>
	<node id="-251493" lat="59.950724996" lon="11.610786106">
		<tag k="name" v="Nisseskåpet" />
		<tag k="natural" v="valley" />
		<tag k="place" v="locality" />
		<tag k="ssr:stedsnr" v="116321" />
	</node>
	<node id="-253542" lat="59.9943583376" lon="11.629552774">
		<tag k="fixme" v="consider natural=peak for the most distinct mountains in the district" />
		<tag k="name" v="Kjølen" />
		<tag k="natural" v="hill" />
		<tag k="place" v="locality" />
		<tag k="ssr:stedsnr" v="915954" />
	</node>
	<node id="-253538" lat="59.7956416698" lon="11.3817694375">
		<tag k="fixme" v="consider natural=peak for the most distinct mountains in the district" />
		<tag k="name" v="Nygardsåsen" />
		<tag k="natural" v="hill" />
		<tag k="place" v="locality" />
		<tag k="ssr:stedsnr" v="915815" />
	</node>
	<node id="-251487" lat="59.7562916654" lon="11.7576361131">
		<tag k="fixme" v="consider natural=peak for the most distinct mountains in the district" />
		<tag k="name" v="Eikelihøgda" />
		<tag k="natural" v="hill" />
		<tag k="place" v="locality" />
		<tag k="ssr:stedsnr" v="111206" />
	</node>
	<node id="-254015" lat="59.9062555565" lon="11.3746666694">
		<tag k="name" v="Vasletta" />
		<tag k="place" v="locality" />
		<tag k="ssr:stedsnr" v="300324" />
	</node>
	<node id="-253531" lat="59.8026611104" lon="11.6102166653">
		<tag k="alt_name" v="Tromsåshøgda" />
		<tag k="fixme" v="consider natural=peak for the most distinct mountains in the district" />
		<tag k="name" v="Tromåsen" />
		<tag k="natural" v="hill" />
		<tag k="place" v="locality" />
		<tag k="ssr:stedsnr" v="915479" />
	</node>
	<node id="-253529" lat="59.9908361123" lon="11.4157583303">
		<tag k="alt_name" v="Hurdalen" />
		<tag k="name" v="Hudalen" />
		<tag k="natural" v="valley" />
		<tag k="place" v="locality" />
		<tag k="ssr:stedsnr" v="915456" />
	</node>
	<node id="-251480" lat="59.9553777761" lon="11.4738666667">
		<tag k="fixme" v="consider natural=peak for the most distinct mountains in the district" />
		<tag k="name" v="Balterudåsen" />
		<tag k="natural" v="hill" />
		<tag k="place" v="locality" />
		<tag k="ssr:stedsnr" v="102556" />
	</node>
	<node id="-251479" lat="59.9091499995" lon="11.4641305484">
		<tag k="fixme" v="consider natural=peak for the most distinct mountains in the district" />
		<tag k="name" v="Kantåsen" />
		<tag k="natural" v="hill" />
		<tag k="place" v="locality" />
		<tag k="ssr:stedsnr" v="102520" />
	</node>
	<node id="-253524" lat="59.7541750044" lon="11.7970416613">
		<tag k="name" v="Trantedalen" />
		<tag k="natural" v="valley" />
		<tag k="place" v="locality" />
		<tag k="ssr:stedsnr" v="915367" />
	</node>
	<node id="-253522" lat="59.8343666635" lon="11.623319446">
		<tag k="fixme" v="consider natural=peak for the most distinct mountains in the district" />
		<tag k="name" v="Ilebekkhøgda" />
		<tag k="natural" v="hill" />
		<tag k="place" v="locality" />
		<tag k="ssr:stedsnr" v="915319" />
	</node>
	<node id="-253539" lat="59.7964527801" lon="11.4269277823">
		<tag k="fixme" v="consider natural=peak for the most distinct mountains in the district" />
		<tag k="name" v="Skredderåsen" />
		<tag k="natural" v="hill" />
		<tag k="place" v="locality" />
		<tag k="ssr:stedsnr" v="915816" />
	</node>
	<node id="-251472" lat="59.9692277752" lon="11.5293611075">
		<tag k="name" v="Teigpynten" />
		<tag k="natural" v="hill" />
		<tag k="place" v="locality" />
		<tag k="ssr:stedsnr" v="100006" />
	</node>
	<node id="-251471" lat="59.9660250028" lon="11.5764944421">
		<tag k="name" v="Skartnordalen" />
		<tag k="natural" v="valley" />
		<tag k="place" v="locality" />
		<tag k="ssr:stedsnr" v="100113" />
	</node>
	<node id="-253516" lat="59.8167166684" lon="11.5982388855">
		<tag k="fixme" v="consider natural=peak for the most distinct mountains in the district" />
		<tag k="name" v="Lysåsen" />
		<tag k="natural" v="hill" />
		<tag k="place" v="locality" />
		<tag k="ssr:stedsnr" v="915263" />
	</node>
	<node id="-251461" lat="59.8428111116" lon="11.6350166697">
		<tag k="fixme" v="consider natural=peak for the most distinct mountains in the district" />
		<tag k="name" v="Butjennåsen" />
		<tag k="natural" v="hill" />
		<tag k="place" v="locality" />
		<tag k="ssr:stedsnr" v="248325" />
	</node>
	<node id="-251455" lat="59.7674777819" lon="11.8909361199">
		<tag k="fixme" v="consider natural=peak for the most distinct mountains in the district" />
		<tag k="name" v="Kula" />
		<tag k="natural" v="hill" />
		<tag k="place" v="locality" />
		<tag k="ssr:stedsnr" v="248232" />
	</node>
	<node id="-253496" lat="59.8814888907" lon="11.5398472137">
		<tag k="name" v="Skakkhøldalen" />
		<tag k="natural" v="valley" />
		<tag k="place" v="locality" />
		<tag k="ssr:stedsnr" v="906910" />
	</node>
	<node id="-251828" lat="59.8395805572" lon="11.7368916638">
		<tag k="name" v="Maridalen" />
		<tag k="natural" v="valley" />
		<tag k="place" v="locality" />
		<tag k="ssr:stedsnr" v="302224" />
	</node>
	<node id="-251437" lat="59.872088891" lon="11.3388527803">
		<tag k="alt_name" v="Bjønndalen" />
		<tag k="name" v="Bjørndalen" />
		<tag k="natural" v="valley" />
		<tag k="place" v="locality" />
		<tag k="ssr:stedsnr" v="247674" />
	</node>
	<node id="-251435" lat="59.8835611069" lon="11.4686333348">
		<tag k="fixme" v="consider natural=peak for the most distinct mountains in the district" />
		<tag k="name" v="Elgheia" />
		<tag k="natural" v="hill" />
		<tag k="place" v="locality" />
		<tag k="ssr:stedsnr" v="247646" />
	</node>
	<node id="-253481" lat="59.752902782" lon="11.7812166731">
		<tag k="fixme" v="consider natural=peak for the most distinct mountains in the district" />
		<tag k="name" v="Orremåsåhøgda" />
		<tag k="natural" v="hill" />
		<tag k="place" v="locality" />
		<tag k="ssr:stedsnr" v="900166" />
	</node>
	<node id="-251426" lat="59.8009388919" lon="11.7506249985">
		<tag k="fixme" v="consider natural=peak for the most distinct mountains in the district" />
		<tag k="name" v="Trundtjennåsen" />
		<tag k="natural" v="hill" />
		<tag k="place" v="locality" />
		<tag k="ssr:stedsnr" v="247457" />
	</node>
	<node id="-251425" lat="59.7910249968" lon="11.813638889">
		<tag k="fixme" v="consider natural=peak for the most distinct mountains in the district" />
		<tag k="name" v="Nybrenna" />
		<tag k="natural" v="hill" />
		<tag k="place" v="locality" />
		<tag k="ssr:stedsnr" v="247439" />
	</node>
	<node id="-253471" lat="59.7408666647" lon="11.7754277808">
		<tag k="name" v="Vesle Bjørndalen" />
		<tag k="natural" v="valley" />
		<tag k="place" v="locality" />
		<tag k="ssr:stedsnr" v="900007" />
	</node>
	<node id="-251419" lat="59.7646500043" lon="11.7805194419">
		<tag k="fixme" v="consider natural=peak for the most distinct mountains in the district" />
		<tag k="name" v="Svarvestolåsen" />
		<tag k="natural" v="hill" />
		<tag k="place" v="locality" />
		<tag k="ssr:stedsnr" v="247389" />
	</node>
	<node id="-251417" lat="59.7543972235" lon="11.8310055476">
		<tag k="fixme" v="consider natural=peak for the most distinct mountains in the district" />
		<tag k="name" v="Klinten" />
		<tag k="natural" v="hill" />
		<tag k="place" v="locality" />
		<tag k="ssr:stedsnr" v="247363" />
	</node>
	<node id="-253463" lat="59.7025305584" lon="11.664425008">
		<tag k="name" v="Lyserkula" />
		<tag k="natural" v="hill" />
		<tag k="place" v="locality" />
		<tag k="ssr:stedsnr" v="889813" />
	</node>
	<node id="-253461" lat="59.8014138908" lon="11.4939722207">
		<tag k="name" v="Ringhaug" />
		<tag k="natural" v="hill" />
		<tag k="place" v="locality" />
		<tag k="ssr:stedsnr" v="950233" />
	</node>
	<node id="-253457" lat="59.8040138931" lon="11.4186861158">
		<tag k="name" v="Steindalen" />
		<tag k="natural" v="valley" />
		<tag k="place" v="locality" />
		<tag k="ssr:stedsnr" v="950070" />
	</node>
	<node id="-253454" lat="59.7611805538" lon="11.4324194513">
		<tag k="name" v="Ulveflaen" />
		<tag k="place" v="locality" />
		<tag k="ssr:stedsnr" v="872160" />
	</node>
	<node id="-253453" lat="59.9629250002" lon="11.5898333258">
		<tag k="name" v="Svarvestolen" />
		<tag k="natural" v="gorge" />
		<tag k="ssr:stedsnr" v="950033" />
	</node>
	<node id="-253452" lat="59.7172694443" lon="11.3744583408">
		<tag k="fixme" v="consider natural=peak for the most distinct mountains in the district" />
		<tag k="name" v="Gangnesåsen" />
		<tag k="natural" v="hill" />
		<tag k="place" v="locality" />
		<tag k="ssr:stedsnr" v="872212" />
	</node>
	<node id="-251402" lat="59.9040500023" lon="11.747036108">
		<tag k="fixme" v="consider natural=peak for the most distinct mountains in the district" />
		<tag k="name" v="Midtfjella" />
		<tag k="natural" v="hill" />
		<tag k="place" v="locality" />
		<tag k="ssr:stedsnr" v="247230" />
	</node>
	<node id="-253449" lat="59.9781805549" lon="11.5259222151">
		<tag k="name" v="Flomyrlia" />
		<tag k="natural" v="slope" />
		<tag k="place" v="locality" />
		<tag k="ssr:stedsnr" v="950002" />
	</node>
	<node id="-253441" lat="59.848400004" lon="11.4845361027">
		<tag k="fixme" v="consider natural=peak for the most distinct mountains in the district" />
		<tag k="name" v="Revehiåsen" />
		<tag k="natural" v="hill" />
		<tag k="place" v="locality" />
		<tag k="ssr:stedsnr" v="855364" />
	</node>
	<node id="-253439" lat="59.8488777809" lon="11.4920888956">
		<tag k="name" v="Djupedalen" />
		<tag k="natural" v="valley" />
		<tag k="place" v="locality" />
		<tag k="ssr:stedsnr" v="855360" />
	</node>
	<node id="-253438" lat="59.84988611" lon="11.7976333276">
		<tag k="alt_name" v="Tangsæteråsen" />
		<tag k="fixme" v="consider natural=peak for the most distinct mountains in the district" />
		<tag k="name" v="Tangesæteråsen" />
		<tag k="natural" v="hill" />
		<tag k="place" v="locality" />
		<tag k="ssr:stedsnr" v="855355" />
	</node>
	<node id="-251388" lat="59.8683472231" lon="11.6510277823">
		<tag k="fixme" v="consider natural=peak for the most distinct mountains in the district" />
		<tag k="name" v="Ørnekollen" />
		<tag k="natural" v="hill" />
		<tag k="place" v="locality" />
		<tag k="ssr:stedsnr" v="247130" />
	</node>
	<node id="-251380" lat="59.9221611155" lon="11.7617861059">
		<tag k="alt_name" v="Gaupliåsen" />
		<tag k="fixme" v="consider natural=peak for the most distinct mountains in the district" />
		<tag k="name" v="Gaupeliåsen" />
		<tag k="natural" v="hill" />
		<tag k="place" v="locality" />
		<tag k="ssr:stedsnr" v="247042" />
	</node>
	<node id="-251377" lat="59.931219448" lon="11.5936250032">
		<tag k="fixme" v="consider natural=peak for the most distinct mountains in the district" />
		<tag k="name" v="Trongåsen" />
		<tag k="natural" v="hill" />
		<tag k="place" v="locality" />
		<tag k="ssr:stedsnr" v="247035" />
	</node>
	<node id="-251373" lat="59.7411361083" lon="11.5313555567">
		<tag k="fixme" v="consider natural=peak for the most distinct mountains in the district" />
		<tag k="name" v="Stangshøgda" />
		<tag k="natural" v="hill" />
		<tag k="place" v="locality" />
		<tag k="ssr:stedsnr" v="246604" />
	</node>
	<node id="-251474" lat="59.7796055515" lon="11.3987277692">
		<tag k="fixme" v="consider natural=peak for the most distinct mountains in the district" />
		<tag k="name" v="Engaåsen" />
		<tag k="natural" v="hill" />
		<tag k="place" v="locality" />
		<tag k="ssr:stedsnr" v="100324" />
	</node>
	<node id="-251815" lat="59.9327916642" lon="11.7757916624">
		<tag k="fixme" v="consider natural=peak for the most distinct mountains in the district" />
		<tag k="name" v="Lustjennknatten" />
		<tag k="natural" v="hill" />
		<tag k="place" v="locality" />
		<tag k="ssr:stedsnr" v="301405" />
	</node>
	<node id="-253416" lat="59.9061833337" lon="11.5307611049">
		<tag k="name" v="Kudalshøgda" />
		<tag k="natural" v="hill" />
		<tag k="place" v="locality" />
		<tag k="ssr:stedsnr" v="854218" />
	</node>
	<node id="-251366" lat="59.6757666628" lon="11.8006333321">
		<tag k="name" v="Bekkenga" />
		<tag k="place" v="locality" />
		<tag k="ssr:stedsnr" v="246265" />
	</node>
	<node id="-251361" lat="59.9760888865" lon="11.5700333403">
		<tag k="fixme" v="consider natural=peak for the most distinct mountains in the district" />
		<tag k="name" v="Revtjennhøgda" />
		<tag k="natural" v="hill" />
		<tag k="place" v="locality" />
		<tag k="ssr:stedsnr" v="247969" />
	</node>
	<node id="-251360" lat="59.9764401442" lon="11.5791301457">
		<tag k="fixme" v="consider natural=peak for the most distinct mountains in the district" />
		<tag k="name" v="Busåsen" />
		<tag k="natural" v="hill" />
		<tag k="place" v="locality" />
		<tag k="ssr:stedsnr" v="247967" />
	</node>
	<node id="-253406" lat="59.6845555537" lon="11.7319583353">
		<tag k="fixme" v="consider natural=peak for the most distinct mountains in the district" />
		<tag k="name" v="Slavasshøgda" />
		<tag k="natural" v="hill" />
		<tag k="place" v="locality" />
		<tag k="ssr:stedsnr" v="854318" />
	</node>
	<node id="-251357" lat="59.7473361107" lon="11.405047218">
		<tag k="fixme" v="consider natural=peak for the most distinct mountains in the district" />
		<tag k="name" v="Okstjennhøgda" />
		<tag k="natural" v="hill" />
		<tag k="place" v="locality" />
		<tag k="ssr:stedsnr" v="246092" />
	</node>
	<node id="-253404" lat="59.8732805582" lon="11.7490249948">
		<tag k="fixme" v="consider natural=peak for the most distinct mountains in the district" />
		<tag k="name" v="Harahøgda" />
		<tag k="natural" v="hill" />
		<tag k="place" v="locality" />
		<tag k="ssr:stedsnr" v="854174" />
	</node>
	<node id="-251355" lat="59.8123638898" lon="11.6701583307">
		<tag k="fixme" v="consider natural=peak for the most distinct mountains in the district" />
		<tag k="name" v="Høgåsen" />
		<tag k="natural" v="hill" />
		<tag k="place" v="locality" />
		<tag k="ssr:stedsnr" v="66513" />
	</node>
	<node id="-251345" lat="59.8958111076" lon="11.4119111166">
		<tag k="fixme" v="consider natural=peak for the most distinct mountains in the district" />
		<tag k="name" v="Tjuvdalshøgda" />
		<tag k="natural" v="hill" />
		<tag k="place" v="locality" />
		<tag k="ssr:stedsnr" v="65631" />
	</node>
	<node id="-253392" lat="59.7725138894" lon="11.5450638845">
		<tag k="name" v="Steinbrotdalen" />
		<tag k="natural" v="valley" />
		<tag k="place" v="locality" />
		<tag k="ssr:stedsnr" v="846804" />
	</node>
	<node id="-251468" lat="59.7394583312" lon="11.4150277691">
		<tag k="fixme" v="consider natural=peak for the most distinct mountains in the district" />
		<tag k="name" v="Høgåsen" />
		<tag k="natural" v="hill" />
		<tag k="place" v="locality" />
		<tag k="ssr:stedsnr" v="83155" />
	</node>
	<node id="-251328" lat="59.8692000044" lon="11.7166166594">
		<tag k="name" v="Karltjennhøgda" />
		<tag k="natural" v="hill" />
		<tag k="place" v="locality" />
		<tag k="ssr:stedsnr" v="65120" />
	</node>
	<node id="-253368" lat="59.7083333379" lon="11.3831999964">
		<tag k="name" v="Korpeflaue" />
		<tag k="place" v="locality" />
		<tag k="ssr:stedsnr" v="933210" />
	</node>
	<node id="-253367" lat="59.7373638907" lon="11.4276694373">
		<tag k="name" v="Allergottronga" />
		<tag k="natural" v="valley" />
		<tag k="place" v="locality" />
		<tag k="ssr:stedsnr" v="933076" />
	</node>
	<node id="-253366" lat="59.834894445" lon="11.3104722309">
		<tag k="fixme" v="consider natural=peak for the most distinct mountains in the district" />
		<tag k="name" v="Svarttjennhøgda" />
		<tag k="natural" v="hill" />
		<tag k="place" v="locality" />
		<tag k="ssr:stedsnr" v="794770" />
	</node>
	<node id="-251317" lat="59.8618583376" lon="11.4144027862">
		<tag k="name" v="Grønmyrdalen" />
		<tag k="natural" v="valley" />
		<tag k="place" v="locality" />
		<tag k="ssr:stedsnr" v="241495" />
	</node>
	<node id="-253363" lat="59.7664944434" lon="11.7864083278">
		<tag k="fixme" v="consider natural=peak for the most distinct mountains in the district" />
		<tag k="name" v="Lysheia" />
		<tag k="natural" v="hill" />
		<tag k="place" v="locality" />
		<tag k="ssr:stedsnr" v="794408" />
	</node>
	<node id="-251312" lat="59.9709694475" lon="11.68806667">
		<tag k="fixme" v="consider natural=peak for the most distinct mountains in the district" />
		<tag k="name" v="Bergerudhøgda" />
		<tag k="natural" v="hill" />
		<tag k="place" v="locality" />
		<tag k="ssr:stedsnr" v="241149" />
	</node>
	<node id="-251311" lat="59.8806472251" lon="11.3459583272">
		<tag k="name" v="Helvetesberget" />
		<tag k="natural" v="cliff" />
		<tag k="ssr:stedsnr" v="241050" />
	</node>
	<node id="-251309" lat="59.7325527806" lon="11.5110277845">
		<tag k="name" v="Bergsjøbrenna" />
		<tag k="natural" v="slope" />
		<tag k="place" v="locality" />
		<tag k="ssr:stedsnr" v="240601" />
	</node>
	<node id="-251307" lat="59.5989944441" lon="11.4908472194">
		<tag k="fixme" v="consider natural=peak for the most distinct mountains in the district" />
		<tag k="name" v="Langfosstjennhøgda" />
		<tag k="natural" v="hill" />
		<tag k="place" v="locality" />
		<tag k="ssr:stedsnr" v="240582" />
	</node>
	<node id="-251301" lat="59.9262833324" lon="11.6493694393">
		<tag k="name" v="Breifalla" />
		<tag k="natural" v="slope" />
		<tag k="place" v="locality" />
		<tag k="ssr:stedsnr" v="239783" />
	</node>
	<node id="-251296" lat="59.8161083376" lon="11.6605222236">
		<tag k="fixme" v="consider natural=peak for the most distinct mountains in the district" />
		<tag k="name" v="Skjellåsen" />
		<tag k="natural" v="hill" />
		<tag k="place" v="locality" />
		<tag k="ssr:stedsnr" v="239491" />
	</node>
	<node id="-251293" lat="59.8775444478" lon="11.5103444387">
		<tag k="name" v="Vingårdsdalen" />
		<tag k="natural" v="valley" />
		<tag k="place" v="locality" />
		<tag k="ssr:stedsnr" v="239358" />
	</node>
	<node id="-251292" lat="59.8846944428" lon="11.4103388801">
		<tag k="fixme" v="consider natural=peak for the most distinct mountains in the district" />
		<tag k="name" v="Korstjennhøgda" />
		<tag k="natural" v="hill" />
		<tag k="place" v="locality" />
		<tag k="ssr:stedsnr" v="239349" />
	</node>
	<node id="-251290" lat="59.8863638918" lon="11.4085833418">
		<tag k="name" v="Jammerdalen" />
		<tag k="natural" v="valley" />
		<tag k="place" v="locality" />
		<tag k="ssr:stedsnr" v="239344" />
	</node>
	<node id="-254191" lat="59.874613888" lon="11.4782083319">
		<tag k="name" v="Knollsæterdalen" />
		<tag k="natural" v="valley" />
		<tag k="place" v="locality" />
		<tag k="ssr:stedsnr" v="125230" />
	</node>
	<node id="-251287" lat="59.7935583305" lon="11.3281805528">
		<tag k="name" v="Spondalen" />
		<tag k="natural" v="valley" />
		<tag k="place" v="locality" />
		<tag k="ssr:stedsnr" v="59826" />
	</node>
	<node id="-253334" lat="59.8105777777" lon="11.757216671">
		<tag k="name" v="Aurtjenndalen" />
		<tag k="natural" v="valley" />
		<tag k="place" v="locality" />
		<tag k="ssr:stedsnr" v="787589" />
	</node>
	<node id="-251281" lat="59.7666944417" lon="11.5643555582">
		<tag k="fixme" v="consider natural=peak for the most distinct mountains in the district" />
		<tag k="name" v="Bjørntjennåsen" />
		<tag k="natural" v="hill" />
		<tag k="place" v="locality" />
		<tag k="ssr:stedsnr" v="58055" />
	</node>
	<node id="-253328" lat="59.9671777818" lon="11.7879722289">
		<tag k="name" v="Roparhella" />
		<tag k="place" v="locality" />
		<tag k="ssr:stedsnr" v="787367" />
	</node>
	<node id="-253325" lat="59.8631638918" lon="11.6947583311">
		<tag k="fixme" v="consider natural=peak for the most distinct mountains in the district" />
		<tag k="name" v="Igletjennknatten" />
		<tag k="natural" v="hill" />
		<tag k="place" v="locality" />
		<tag k="ssr:stedsnr" v="787240" />
	</node>
	<node id="-251275" lat="59.9500583341" lon="11.5976416691">
		<tag k="name" v="Stygghølet" />
		<tag k="natural" v="valley" />
		<tag k="place" v="locality" />
		<tag k="ssr:stedsnr" v="238374" />
	</node>
	<node id="-253320" lat="59.6080027759" lon="11.5201972285">
		<tag k="fixme" v="consider natural=peak for the most distinct mountains in the district" />
		<tag k="name" v="Korpeskallen" />
		<tag k="natural" v="hill" />
		<tag k="place" v="locality" />
		<tag k="ssr:stedsnr" v="786569" />
	</node>
	<node id="-253315" lat="59.7922888875" lon="11.820580547">
		<tag k="name" v="Langliene" />
		<tag k="natural" v="slope" />
		<tag k="place" v="locality" />
		<tag k="ssr:stedsnr" v="783416" />
	</node>
	<node id="-253314" lat="59.7882555557" lon="11.8133055535">
		<tag k="name" v="Delingsdalen" />
		<tag k="natural" v="valley" />
		<tag k="place" v="locality" />
		<tag k="ssr:stedsnr" v="783412" />
	</node>
	<node id="-251264" lat="59.7980222217" lon="11.732002773">
		<tag k="fixme" v="consider natural=peak for the most distinct mountains in the district" />
		<tag k="name" v="Matsekkåsen" />
		<tag k="natural" v="hill" />
		<tag k="place" v="locality" />
		<tag k="ssr:stedsnr" v="237725" />
	</node>
	<node id="-253310" lat="59.7639583321" lon="11.8323138936">
		<tag k="fixme" v="consider natural=peak for the most distinct mountains in the district" />
		<tag k="name" v="Igletjennåsen" />
		<tag k="natural" v="hill" />
		<tag k="place" v="locality" />
		<tag k="ssr:stedsnr" v="778119" />
	</node>
	<node id="-254212" lat="59.7109999996" lon="11.9055583259">
		<tag k="name" v="Bjørkedalen" />
		<tag k="natural" v="valley" />
		<tag k="place" v="locality" />
		<tag k="ssr:stedsnr" v="125438" />
	</node>
	<node id="-253303" lat="59.9834416635" lon="11.692808337">
		<tag k="fixme" v="consider natural=peak for the most distinct mountains in the district" />
		<tag k="name" v="Leikåsen" />
		<tag k="natural" v="hill" />
		<tag k="place" v="locality" />
		<tag k="ssr:stedsnr" v="915992" />
	</node>
	<node id="-251252" lat="59.6821472262" lon="11.7704777866">
		<tag k="name" v="Trytjenndalen" />
		<tag k="natural" v="valley" />
		<tag k="place" v="locality" />
		<tag k="ssr:stedsnr" v="51261" />
	</node>
	<node id="-251247" lat="59.7473805585" lon="11.8340083401">
		<tag k="fixme" v="consider natural=peak for the most distinct mountains in the district" />
		<tag k="name" v="Myrvollhøgda" />
		<tag k="natural" v="hill" />
		<tag k="place" v="locality" />
		<tag k="ssr:stedsnr" v="51151" />
	</node>
	<node id="-253289" lat="59.8355472254" lon="11.6298722275">
		<tag k="name" v="Dyntjenndalen" />
		<tag k="natural" v="valley" />
		<tag k="place" v="locality" />
		<tag k="ssr:stedsnr" v="915288" />
	</node>
	<node id="-251233" lat="59.668847225" lon="11.7889166676">
		<tag k="fixme" v="consider natural=peak for the most distinct mountains in the district" />
		<tag k="name" v="Brennebrannshøgda" />
		<tag k="natural" v="hill" />
		<tag k="place" v="locality" />
		<tag k="ssr:stedsnr" v="233083" />
	</node>
	<node id="-253277" lat="59.9293888921" lon="11.7240277778">
		<tag k="name" v="Jomfrubakken" />
		<tag k="natural" v="slope" />
		<tag k="place" v="locality" />
		<tag k="ssr:stedsnr" v="915089" />
	</node>
	<node id="-251227" lat="59.9777805546" lon="11.7282555476">
		<tag k="fixme" v="consider natural=peak for the most distinct mountains in the district" />
		<tag k="name" v="Utgravlitjennåsen" />
		<tag k="natural" v="hill" />
		<tag k="place" v="locality" />
		<tag k="ssr:stedsnr" v="41362" />
	</node>
	<node id="-253271" lat="59.7823722225" lon="11.3752611075">
		<tag k="name" v="Trolltjennmoa" />
		<tag k="place" v="locality" />
		<tag k="ssr:stedsnr" v="914863" />
	</node>
	<node id="-253267" lat="59.7408527738" lon="11.590602786">
		<tag k="fixme" v="consider natural=peak for the most distinct mountains in the district" />
		<tag k="name" v="Knotten" />
		<tag k="natural" v="hill" />
		<tag k="place" v="locality" />
		<tag k="ssr:stedsnr" v="914696" />
	</node>
	<node id="-253265" lat="59.7279388894" lon="11.4784249952">
		<tag k="fixme" v="consider natural=peak for the most distinct mountains in the district" />
		<tag k="name" v="Engeråsen" />
		<tag k="natural" v="hill" />
		<tag k="place" v="locality" />
		<tag k="ssr:stedsnr" v="914663" />
	</node>
	<node id="-251216" lat="59.7959444427" lon="11.7681138951">
		<tag k="fixme" v="consider natural=peak for the most distinct mountains in the district" />
		<tag k="name" v="Sagåsen" />
		<tag k="natural" v="hill" />
		<tag k="place" v="locality" />
		<tag k="ssr:stedsnr" v="40104" />
	</node>
	<node id="-251215" lat="59.967524996" lon="11.4356583241">
		<tag k="name" v="Tverrdalen" />
		<tag k="natural" v="valley" />
		<tag k="place" v="locality" />
		<tag k="ssr:stedsnr" v="40022" />
	</node>
	<node id="-251214" lat="59.9558750003" lon="11.6490444524">
		<tag k="name" v="Østre Svarvestoldalen" />
		<tag k="natural" v="valley" />
		<tag k="place" v="locality" />
		<tag k="ssr:stedsnr" v="40021" />
	</node>
	<node id="-251213" lat="59.9697777771" lon="11.5604777807">
		<tag k="name" v="Djupdalen" />
		<tag k="natural" v="valley" />
		<tag k="place" v="locality" />
		<tag k="ssr:stedsnr" v="40016" />
	</node>
	<node id="-251211" lat="59.6999888901" lon="11.6488611101">
		<tag k="fixme" v="consider natural=peak for the most distinct mountains in the district" />
		<tag k="name" v="Tresjøhøgda" />
		<tag k="natural" v="hill" />
		<tag k="place" v="locality" />
		<tag k="ssr:stedsnr" v="39777" />
	</node>
	<node id="-251209" lat="59.9883055579" lon="11.5846999954">
		<tag k="name" v="Neverfurua" />
		<tag k="place" v="locality" />
		<tag k="ssr:stedsnr" v="39611" />
	</node>
	<node id="-251208" lat="59.9903555575" lon="11.5777222173">
		<tag k="name" v="Orremåsahøgda" />
		<tag k="natural" v="ridge" />
		<tag k="place" v="locality" />
		<tag k="ssr:stedsnr" v="39513" />
	</node>
	<node id="-251201" lat="59.644086113" lon="11.7543999996">
		<tag k="fixme" v="consider natural=peak for the most distinct mountains in the district" />
		<tag k="name" v="Fallsåsen" />
		<tag k="natural" v="hill" />
		<tag k="place" v="locality" />
		<tag k="ssr:stedsnr" v="232198" />
	</node>
	<node id="-253248" lat="59.6454638907" lon="11.730180559">
		<tag k="alt_name" v="Langvasshøgd" />
		<tag k="fixme" v="consider natural=peak for the most distinct mountains in the district" />
		<tag k="name" v="Langvasshøgda" />
		<tag k="natural" v="hill" />
		<tag k="place" v="locality" />
		<tag k="ssr:stedsnr" v="914314" />
	</node>
	<node id="-251194" lat="59.7256416654" lon="11.8437333416">
		<tag k="fixme" v="consider natural=peak for the most distinct mountains in the district" />
		<tag k="name" v="Ufredshøgda" />
		<tag k="natural" v="hill" />
		<tag k="place" v="locality" />
		<tag k="ssr:stedsnr" v="232131" />
	</node>
	<node id="-253240" lat="59.8960750042" lon="11.7017333294">
		<tag k="fixme" v="consider natural=peak for the most distinct mountains in the district" />
		<tag k="name" v="Grønkollen" />
		<tag k="natural" v="hill" />
		<tag k="place" v="locality" />
		<tag k="ssr:stedsnr" v="914246" />
	</node>
	<node id="-253235" lat="59.8928444451" lon="11.7341222151">
		<tag k="fixme" v="multiple name tags, choose one and add the other to alt_name" />
		<tag k="name" v="Urvassåsen;Korstjennhøgda" />
		<tag k="natural" v="hill" />
		<tag k="place" v="locality" />
		<tag k="ssr:stedsnr" v="914213" />
	</node>
	<node id="-251186" lat="59.8472888867" lon="11.4545194502">
		<tag k="name" v="Langvannsdalen" />
		<tag k="natural" v="valley" />
		<tag k="place" v="locality" />
		<tag k="ssr:stedsnr" v="224822" />
	</node>
	<node id="-251185" lat="59.9113111125" lon="11.7101277737">
		<tag k="name" v="Linlia" />
		<tag k="natural" v="slope" />
		<tag k="place" v="locality" />
		<tag k="ssr:stedsnr" v="224803" />
	</node>
	<node id="-251182" lat="59.8429583289" lon="11.5694000057">
		<tag k="name" v="Skjønhaugberga" />
		<tag k="natural" v="cliff" />
		<tag k="ssr:stedsnr" v="224750" />
	</node>
	<node id="-253227" lat="59.9842777817" lon="11.7229444385">
		<tag k="fixme" v="consider natural=peak for the most distinct mountains in the district" />
		<tag k="name" v="Klemetsrudåsen" />
		<tag k="natural" v="hill" />
		<tag k="place" v="locality" />
		<tag k="ssr:stedsnr" v="767666" />
	</node>
	<node id="-253225" lat="59.9957249961" lon="11.6248444387">
		<tag k="name" v="Kjølholmen" />
		<tag k="natural" v="ridge" />
		<tag k="place" v="locality" />
		<tag k="ssr:stedsnr" v="767658" />
	</node>
	<node id="-253221" lat="59.9011388867" lon="11.4213861074">
		<tag k="name" v="Tyrihjelldalen" />
		<tag k="natural" v="valley" />
		<tag k="place" v="locality" />
		<tag k="ssr:stedsnr" v="909493" />
	</node>
	<node id="-251172" lat="59.95895278" lon="11.7001722272">
		<tag k="name" v="Pineholmene" />
		<tag k="natural" v="hill" />
		<tag k="place" v="locality" />
		<tag k="ssr:stedsnr" v="223298" />
	</node>
	<node id="-253217" lat="59.9728194427" lon="11.6529805607">
		<tag k="name" v="Heggemyrlia" />
		<tag k="natural" v="slope" />
		<tag k="place" v="locality" />
		<tag k="ssr:stedsnr" v="909187" />
	</node>
	<node id="-253212" lat="59.9663833374" lon="11.5806972279">
		<tag k="name" v="Torget" />
		<tag k="place" v="locality" />
		<tag k="ssr:stedsnr" v="909138" />
	</node>
	<node id="-253210" lat="59.861000003" lon="11.6091249955">
		<tag k="name" v="Østre Opptjennhøgda" />
		<tag k="natural" v="hill" />
		<tag k="place" v="locality" />
		<tag k="ssr:stedsnr" v="915138" />
	</node>
	<node id="-253208" lat="59.925777778" lon="11.7913861075">
		<tag k="fixme" v="consider natural=peak for the most distinct mountains in the district" />
		<tag k="name" v="Gravdalshøgda" />
		<tag k="natural" v="hill" />
		<tag k="place" v="locality" />
		<tag k="ssr:stedsnr" v="915049" />
	</node>
	<node id="-253207" lat="59.9212638858" lon="11.7754499931">
		<tag k="alt_name" v="Gauplidalen" />
		<tag k="name" v="Gaupelidalen" />
		<tag k="natural" v="valley" />
		<tag k="place" v="locality" />
		<tag k="ssr:stedsnr" v="915048" />
	</node>
	<node id="-251154" lat="59.7754499978" lon="11.3400861092">
		<tag k="fixme" v="consider natural=peak for the most distinct mountains in the district" />
		<tag k="name" v="Rundåsen" />
		<tag k="natural" v="hill" />
		<tag k="place" v="locality" />
		<tag k="ssr:stedsnr" v="222142" />
	</node>
	<node id="-253199" lat="59.6607805563" lon="11.5222055581">
		<tag k="fixme" v="consider natural=peak for the most distinct mountains in the district" />
		<tag k="name" v="Stomperudhøgda" />
		<tag k="natural" v="hill" />
		<tag k="place" v="locality" />
		<tag k="ssr:stedsnr" v="908686" />
	</node>
	<node id="-251148" lat="59.9393750012" lon="11.7467638846">
		<tag k="name" v="Kopptjenndalen" />
		<tag k="natural" v="valley" />
		<tag k="place" v="locality" />
		<tag k="ssr:stedsnr" v="222048" />
	</node>
	<node id="-251146" lat="59.9538638845" lon="11.6381722258">
		<tag k="name" v="Tømmermyrdalen" />
		<tag k="natural" v="valley" />
		<tag k="place" v="locality" />
		<tag k="ssr:stedsnr" v="222013" />
	</node>
	<node id="-251145" lat="59.9756638927" lon="11.5510916648">
		<tag k="fixme" v="consider natural=peak for the most distinct mountains in the district" />
		<tag k="name" v="Revtjennhøgda" />
		<tag k="natural" v="hill" />
		<tag k="place" v="locality" />
		<tag k="ssr:stedsnr" v="222005" />
	</node>
	<node id="-251144" lat="59.9706472214" lon="11.4216222284">
		<tag k="name" v="Askhøla" />
		<tag k="place" v="locality" />
		<tag k="ssr:stedsnr" v="222003" />
	</node>
	<node id="-253185" lat="59.6734666639" lon="11.5513999935">
		<tag k="fixme" v="consider natural=peak for the most distinct mountains in the district" />
		<tag k="name" v="Korpåsen" />
		<tag k="natural" v="hill" />
		<tag k="place" v="locality" />
		<tag k="ssr:stedsnr" v="908448" />
	</node>
	<node id="-253182" lat="59.9377527763" lon="11.7520722211">
		<tag k="name" v="Høymyrdalen" />
		<tag k="natural" v="valley" />
		<tag k="place" v="locality" />
		<tag k="ssr:stedsnr" v="908392" />
	</node>
	<node id="-253181" lat="59.9384805545" lon="11.7902166581">
		<tag k="name" v="Kulkuslia" />
		<tag k="natural" v="slope" />
		<tag k="place" v="locality" />
		<tag k="ssr:stedsnr" v="908391" />
	</node>
	<node id="-253179" lat="59.8831749987" lon="11.3843499921">
		<tag k="fixme" v="consider natural=peak for the most distinct mountains in the district" />
		<tag k="name" v="Svanmosåsen" />
		<tag k="natural" v="hill" />
		<tag k="place" v="locality" />
		<tag k="ssr:stedsnr" v="908046" />
	</node>
	<node id="-251775" lat="59.7974361156" lon="11.7613027803">
		<tag k="name" v="Hyttlidal" />
		<tag k="natural" v="valley" />
		<tag k="place" v="locality" />
		<tag k="ssr:stedsnr" v="464099" />
	</node>
	<node id="-253168" lat="59.9098388925" lon="11.3497888941">
		<tag k="name" v="Matmyradråga" />
		<tag k="natural" v="valley" />
		<tag k="place" v="locality" />
		<tag k="ssr:stedsnr" v="907263" />
	</node>
	<node id="-253165" lat="59.9523027767" lon="11.3726944407">
		<tag k="fixme" v="consider natural=peak for the most distinct mountains in the district" />
		<tag k="name" v="Harkerudåsen" />
		<tag k="natural" v="hill" />
		<tag k="place" v="locality" />
		<tag k="ssr:stedsnr" v="907232" />
	</node>
	<node id="-253163" lat="59.9294999954" lon="11.6950027848">
		<tag k="name" v="Brenngangen" />
		<tag k="natural" v="valley" />
		<tag k="place" v="locality" />
		<tag k="ssr:stedsnr" v="907222" />
	</node>
	<node id="-253162" lat="59.9303333293" lon="11.6954999996">
		<tag k="name" v="Sagåsen" />
		<tag k="natural" v="hill" />
		<tag k="place" v="locality" />
		<tag k="ssr:stedsnr" v="907217" />
	</node>
	<node id="-253161" lat="60.0016027761" lon="11.6341722215">
		<tag k="name" v="Kjølkampen" />
		<tag k="natural" v="hill" />
		<tag k="place" v="locality" />
		<tag k="ssr:stedsnr" v="907144" />
	</node>
	<node id="-253157" lat="59.8744999999" lon="11.7023416611">
		<tag k="name" v="Stordalen" />
		<tag k="natural" v="valley" />
		<tag k="place" v="locality" />
		<tag k="ssr:stedsnr" v="906583" />
	</node>
	<node id="-253153" lat="59.8681666679" lon="11.4756750036">
		<tag k="name" v="Sæterlia" />
		<tag k="natural" v="slope" />
		<tag k="place" v="locality" />
		<tag k="ssr:stedsnr" v="905882" />
	</node>
	<node id="-253150" lat="59.8605861083" lon="11.4913833283">
		<tag k="fixme" v="consider natural=peak for the most distinct mountains in the district" />
		<tag k="name" v="Abbortjennhøgda" />
		<tag k="natural" v="hill" />
		<tag k="place" v="locality" />
		<tag k="ssr:stedsnr" v="905661" />
	</node>
	<node id="-253148" lat="59.7916222228" lon="11.8422722209">
		<tag k="name" v="Graverdalen" />
		<tag k="natural" v="valley" />
		<tag k="place" v="locality" />
		<tag k="ssr:stedsnr" v="905434" />
	</node>
	<node id="-253145" lat="59.9564444421" lon="11.5807833335">
		<tag k="name" v="Jubellia" />
		<tag k="natural" v="slope" />
		<tag k="place" v="locality" />
		<tag k="ssr:stedsnr" v="905249" />
	</node>
	<node id="-253135" lat="59.9492555536" lon="11.731730556">
		<tag k="fixme" v="multiple name tags, choose one and add the other to alt_name; consider natural=peak for the most distinct mountains in the district" />
		<tag k="name" v="Gjøkåsen;Vålåsbrenna" />
		<tag k="natural" v="hill" />
		<tag k="place" v="locality" />
		<tag k="ssr:stedsnr" v="733138" />
	</node>
	<node id="-253126" lat="59.8007944457" lon="11.5487000086">
		<tag k="name" v="Lauvfallmoen" />
		<tag k="place" v="locality" />
		<tag k="ssr:stedsnr" v="732504" />
	</node>
	<node id="-254497" lat="59.7528250039" lon="11.7809250046">
		<tag k="name" v="Øremåsåhøgda" />
		<tag k="natural" v="hill" />
		<tag k="place" v="locality" />
		<tag k="ssr:stedsnr" v="186413" />
	</node>
	<node id="-253123" lat="59.658774999" lon="11.8241277785">
		<tag k="name" v="Djupedalen" />
		<tag k="natural" v="valley" />
		<tag k="place" v="locality" />
		<tag k="ssr:stedsnr" v="900226" />
	</node>
	<node id="-253122" lat="59.6358805566" lon="11.7450861119">
		<tag k="fixme" v="consider natural=peak for the most distinct mountains in the district" />
		<tag k="name" v="Vestrekollen" />
		<tag k="natural" v="hill" />
		<tag k="place" v="locality" />
		<tag k="ssr:stedsnr" v="900225" />
	</node>
	<node id="-253115" lat="59.6673361087" lon="11.7476416724">
		<tag k="name" v="Vålerdalen" />
		<tag k="natural" v="valley" />
		<tag k="place" v="locality" />
		<tag k="ssr:stedsnr" v="900075" />
	</node>
	<node id="-253088" lat="59.9089722218" lon="11.3383722217">
		<tag k="fixme" v="consider natural=peak for the most distinct mountains in the district" />
		<tag k="name" v="Morttjennåsen" />
		<tag k="natural" v="hill" />
		<tag k="place" v="locality" />
		<tag k="ssr:stedsnr" v="725238" />
	</node>
	<node id="-254832" lat="59.8322944438" lon="11.5305305628">
		<tag k="fixme" v="consider natural=peak for the most distinct mountains in the district" />
		<tag k="name" v="Stubbengåsen" />
		<tag k="natural" v="hill" />
		<tag k="place" v="locality" />
		<tag k="ssr:stedsnr" v="345848" />
	</node>
	<node id="-253086" lat="59.8501805581" lon="11.376255549">
		<tag k="fixme" v="consider natural=peak for the most distinct mountains in the district" />
		<tag k="name" v="Slorahøgda" />
		<tag k="natural" v="hill" />
		<tag k="place" v="locality" />
		<tag k="ssr:stedsnr" v="724626" />
	</node>
	<node id="-253083" lat="59.958388887" lon="11.4594027856">
		<tag k="fixme" v="consider natural=peak for the most distinct mountains in the district" />
		<tag k="name" v="Ringmuren" />
		<tag k="natural" v="hill" />
		<tag k="place" v="locality" />
		<tag k="ssr:stedsnr" v="724415" />
	</node>
	<node id="-254147" lat="59.9228361123" lon="11.7830138881">
		<tag k="name" v="Bråtabrenndalen" />
		<tag k="natural" v="valley" />
		<tag k="place" v="locality" />
		<tag k="ssr:stedsnr" v="119441" />
	</node>
	<node id="-253071" lat="59.6876527738" lon="11.8511722244">
		<tag k="name" v="Stokkedalshølet" />
		<tag k="natural" v="valley" />
		<tag k="place" v="locality" />
		<tag k="ssr:stedsnr" v="718225" />
	</node>
	<node id="-253066" lat="59.748597226" lon="11.9154777722">
		<tag k="name" v="Søndre Røvassdalen" />
		<tag k="natural" v="valley" />
		<tag k="place" v="locality" />
		<tag k="ssr:stedsnr" v="718174" />
	</node>
	<node id="-253062" lat="59.6826583313" lon="11.7134666578">
		<tag k="name" v="Kudrågene" />
		<tag k="natural" v="valley" />
		<tag k="place" v="locality" />
		<tag k="ssr:stedsnr" v="718168" />
	</node>
	<node id="-254485" lat="59.6810750044" lon="11.6268250083">
		<tag k="name" v="Kløvhøgda" />
		<tag k="natural" v="hill" />
		<tag k="place" v="locality" />
		<tag k="ssr:stedsnr" v="186353" />
	</node>
	<node id="-253051" lat="59.9093833378" lon="11.681402774">
		<tag k="name" v="Grasmyrlia" />
		<tag k="natural" v="slope" />
		<tag k="place" v="locality" />
		<tag k="ssr:stedsnr" v="892783" />
	</node>
	<node id="-253050" lat="59.9139972186" lon="11.6876972255">
		<tag k="name" v="Gråmerråsen" />
		<tag k="natural" v="hill" />
		<tag k="place" v="locality" />
		<tag k="ssr:stedsnr" v="892777" />
	</node>
	<node id="-253048" lat="59.8336888897" lon="11.616250005">
		<tag k="name" v="Lensmannsdalen" />
		<tag k="natural" v="valley" />
		<tag k="place" v="locality" />
		<tag k="ssr:stedsnr" v="892737" />
	</node>
	<node id="-253046" lat="59.9664027797" lon="11.5548222301">
		<tag k="name" v="Østre Gørrtjenndalen" />
		<tag k="natural" v="valley" />
		<tag k="place" v="locality" />
		<tag k="ssr:stedsnr" v="707126" />
	</node>
	<node id="-253044" lat="59.8672999996" lon="11.6093861072">
		<tag k="name" v="Mærradalen" />
		<tag k="natural" v="valley" />
		<tag k="place" v="locality" />
		<tag k="ssr:stedsnr" v="891882" />
	</node>
	<node id="-253031" lat="59.9083583342" lon="11.6283166709">
		<tag k="fixme" v="consider natural=peak for the most distinct mountains in the district" />
		<tag k="name" v="Morttjennhøgda" />
		<tag k="natural" v="hill" />
		<tag k="place" v="locality" />
		<tag k="ssr:stedsnr" v="891132" />
	</node>
	<node id="-251409" lat="59.6816805543" lon="11.5089583303">
		<tag k="alt_name" v="Kragtorpbrenna" />
		<tag k="fixme" v="consider natural=peak for the most distinct mountains in the district" />
		<tag k="name" v="Kragtorpåsen" />
		<tag k="natural" v="hill" />
		<tag k="place" v="locality" />
		<tag k="ssr:stedsnr" v="247331" />
	</node>
	<node id="-253017" lat="59.7942083294" lon="11.5627250064">
		<tag k="name" v="Vinterberget" />
		<tag k="natural" v="hill" />
		<tag k="place" v="locality" />
		<tag k="ssr:stedsnr" v="890258" />
	</node>
	<node id="-253006" lat="59.9555111112" lon="11.6523833384">
		<tag k="fixme" v="consider natural=peak for the most distinct mountains in the district" />
		<tag k="name" v="Østre Ringkollhøgda" />
		<tag k="natural" v="hill" />
		<tag k="place" v="locality" />
		<tag k="ssr:stedsnr" v="890019" />
	</node>
	<node id="-253004" lat="59.9709611089" lon="11.5401388974">
		<tag k="fixme" v="consider natural=peak for the most distinct mountains in the district" />
		<tag k="name" v="Bukkåsen" />
		<tag k="natural" v="hill" />
		<tag k="place" v="locality" />
		<tag k="ssr:stedsnr" v="890006" />
	</node>
	<node id="-251133" lat="59.738713885" lon="11.5170972292">
		<tag k="fixme" v="consider natural=peak for the most distinct mountains in the district" />
		<tag k="name" v="Lystjennhøgda" />
		<tag k="natural" v="hill" />
		<tag k="place" v="locality" />
		<tag k="ssr:stedsnr" v="221357" />
	</node>
	<node id="-251404" lat="59.8897250045" lon="11.7837055478">
		<tag k="fixme" v="consider natural=peak for the most distinct mountains in the district" />
		<tag k="name" v="Langsrudåsen" />
		<tag k="natural" v="hill" />
		<tag k="place" v="locality" />
		<tag k="ssr:stedsnr" v="247236" />
	</node>
	<node id="-252993" lat="59.7279111143" lon="11.4610250026">
		<tag k="name" v="Maurtipp" />
		<tag k="natural" v="hill" />
		<tag k="place" v="locality" />
		<tag k="ssr:stedsnr" v="889577" />
	</node>
	<node id="-252979" lat="59.6784194431" lon="11.5177750005">
		<tag k="fixme" v="consider natural=peak for the most distinct mountains in the district" />
		<tag k="name" v="Leinahøgda" />
		<tag k="natural" v="hill" />
		<tag k="place" v="locality" />
		<tag k="ssr:stedsnr" v="671351" />
	</node>
	<node id="-252978" lat="59.8492527743" lon="11.6670777721">
		<tag k="fixme" v="consider natural=peak for the most distinct mountains in the district" />
		<tag k="name" v="Anderskollen" />
		<tag k="natural" v="hill" />
		<tag k="place" v="locality" />
		<tag k="ssr:stedsnr" v="671349" />
	</node>
	<node id="-252975" lat="59.7035916682" lon="11.6128250004">
		<tag k="alt_name" v="Gunnarsvikdalen" />
		<tag k="name" v="Gunnarsdalen" />
		<tag k="natural" v="valley" />
		<tag k="place" v="locality" />
		<tag k="ssr:stedsnr" v="671315" />
	</node>
	<node id="-252973" lat="59.7999611126" lon="11.3590416695">
		<tag k="name" v="Galteryggen" />
		<tag k="natural" v="ridge" />
		<tag k="place" v="locality" />
		<tag k="ssr:stedsnr" v="666855" />
	</node>
	<node id="-252971" lat="59.9201722205" lon="11.6174583252">
		<tag k="name" v="Jensbråtedalen" />
		<tag k="natural" v="valley" />
		<tag k="place" v="locality" />
		<tag k="ssr:stedsnr" v="665668" />
	</node>
	<node id="-252968" lat="59.6705194417" lon="11.5583166629">
		<tag k="name" v="Lindalen" />
		<tag k="natural" v="valley" />
		<tag k="place" v="locality" />
		<tag k="ssr:stedsnr" v="665469" />
	</node>
	<node id="-252965" lat="59.8900861151" lon="11.3330388854">
		<tag k="name" v="Brannberg" />
		<tag k="natural" v="cliff" />
		<tag k="ssr:stedsnr" v="665055" />
	</node>
	<node id="-252963" lat="59.9759249959" lon="11.5802222176">
		<tag k="name" v="Busåsknatten" />
		<tag k="natural" v="hill" />
		<tag k="place" v="locality" />
		<tag k="ssr:stedsnr" v="665119" />
	</node>
	<node id="-252962" lat="59.9630305512" lon="11.6140861042">
		<tag k="fixme" v="consider natural=peak for the most distinct mountains in the district" />
		<tag k="name" v="Skalabergåsen" />
		<tag k="natural" v="hill" />
		<tag k="place" v="locality" />
		<tag k="ssr:stedsnr" v="665118" />
	</node>
	<node id="-252961" lat="59.9620000001" lon="11.6003333284">
		<tag k="name" v="Tiurdalen" />
		<tag k="natural" v="valley" />
		<tag k="place" v="locality" />
		<tag k="ssr:stedsnr" v="665108" />
	</node>
	<node id="-252958" lat="59.8416916672" lon="11.3906805559">
		<tag k="fixme" v="consider natural=peak for the most distinct mountains in the district" />
		<tag k="name" v="Tiurleiken" />
		<tag k="natural" v="hill" />
		<tag k="place" v="locality" />
		<tag k="ssr:stedsnr" v="664665" />
	</node>
	<node id="-252946" lat="59.8927388932" lon="11.4988333288">
		<tag k="name" v="Strupen" />
		<tag k="natural" v="valley" />
		<tag k="place" v="locality" />
		<tag k="ssr:stedsnr" v="662860" />
	</node>
	<node id="-252944" lat="59.821852775" lon="11.3166333326">
		<tag k="name" v="Elgedalen" />
		<tag k="natural" v="valley" />
		<tag k="place" v="locality" />
		<tag k="ssr:stedsnr" v="662740" />
	</node>
	<node id="-252290" lat="59.6452555564" lon="11.5376333312">
		<tag k="fixme" v="consider natural=peak for the most distinct mountains in the district" />
		<tag k="name" v="Lofothøgda" />
		<tag k="natural" v="hill" />
		<tag k="place" v="locality" />
		<tag k="ssr:stedsnr" v="665726" />
	</node>
	<node id="-252923" lat="59.8137583329" lon="11.8758416613">
		<tag k="fixme" v="consider natural=peak for the most distinct mountains in the district" />
		<tag k="name" v="Ulvehihøgda" />
		<tag k="natural" v="hill" />
		<tag k="place" v="locality" />
		<tag k="ssr:stedsnr" v="648869" />
	</node>
	<node id="-254968" lat="59.873388886" lon="11.409216665">
		<tag k="fixme" v="multiple name tags, choose one and add the other to alt_name" />
		<tag k="name" v="Gravdalen;Rudsdalen" />
		<tag k="natural" v="valley" />
		<tag k="place" v="locality" />
		<tag k="ssr:stedsnr" v="368726" />
	</node>
	<node id="-254967" lat="59.7454944433" lon="11.7698499923">
		<tag k="fixme" v="consider natural=peak for the most distinct mountains in the district" />
		<tag k="name" v="Grevlingkulåsen" />
		<tag k="natural" v="hill" />
		<tag k="place" v="locality" />
		<tag k="ssr:stedsnr" v="368721" />
	</node>
	<node id="-252916" lat="59.9536472236" lon="11.7187277761">
		<tag k="name" v="Puttedalen" />
		<tag k="natural" v="valley" />
		<tag k="place" v="locality" />
		<tag k="ssr:stedsnr" v="646909" />
	</node>
	<node id="-252914" lat="59.9562861109" lon="11.7470166678">
		<tag k="name" v="Ospedalen" />
		<tag k="natural" v="valley" />
		<tag k="place" v="locality" />
		<tag k="ssr:stedsnr" v="646905" />
	</node>
	<node id="-252911" lat="59.992572219" lon="11.6957027783">
		<tag k="name" v="Blekketjennliene" />
		<tag k="natural" v="slope" />
		<tag k="place" v="locality" />
		<tag k="ssr:stedsnr" v="646688" />
	</node>
	<node id="-254954" lat="59.6917305593" lon="11.7269805558">
		<tag k="name" v="Røytjenndalen" />
		<tag k="natural" v="valley" />
		<tag k="place" v="locality" />
		<tag k="ssr:stedsnr" v="368387" />
	</node>
	<node id="-252903" lat="59.9800944413" lon="11.4746194503">
		<tag k="fixme" v="consider natural=peak for the most distinct mountains in the district" />
		<tag k="name" v="Bjørnmyråsen" />
		<tag k="natural" v="hill" />
		<tag k="place" v="locality" />
		<tag k="ssr:stedsnr" v="646105" />
	</node>
	<node id="-254948" lat="59.7063750004" lon="11.7514250001">
		<tag k="fixme" v="consider natural=peak for the most distinct mountains in the district" />
		<tag k="name" v="Skansen" />
		<tag k="natural" v="hill" />
		<tag k="place" v="locality" />
		<tag k="ssr:stedsnr" v="368350" />
	</node>
	<node id="-254947" lat="59.8316194443" lon="11.5768444393">
		<tag k="fixme" v="consider natural=peak for the most distinct mountains in the district" />
		<tag k="name" v="Grasåsen" />
		<tag k="natural" v="hill" />
		<tag k="place" v="locality" />
		<tag k="ssr:stedsnr" v="368342" />
	</node>
	<node id="-252894" lat="59.8381138915" lon="11.3717166727">
		<tag k="name" v="Larsbråtahøgda" />
		<tag k="natural" v="hill" />
		<tag k="place" v="locality" />
		<tag k="ssr:stedsnr" v="733734" />
	</node>
	<node id="-252893" lat="59.856850003" lon="11.405536113">
		<tag k="fixme" v="consider natural=peak for the most distinct mountains in the district" />
		<tag k="name" v="Langfosshøgda" />
		<tag k="natural" v="hill" />
		<tag k="place" v="locality" />
		<tag k="ssr:stedsnr" v="733704" />
	</node>
	<node id="-252889" lat="59.894641669" lon="11.6101027748">
		<tag k="fixme" v="multiple name tags, choose one and add the other to alt_name; consider natural=peak for the most distinct mountains in the district" />
		<tag k="name" v="Bergerudåsen;Høgåsen" />
		<tag k="natural" v="hill" />
		<tag k="place" v="locality" />
		<tag k="ssr:stedsnr" v="733511" />
	</node>
	<node id="-254935" lat="59.8653750006" lon="11.7326333304">
		<tag k="fixme" v="consider natural=peak for the most distinct mountains in the district" />
		<tag k="name" v="Skremtjennhøgda" />
		<tag k="natural" v="hill" />
		<tag k="place" v="locality" />
		<tag k="ssr:stedsnr" v="368149" />
	</node>
	<node id="-252878" lat="59.9747916681" lon="11.4280499931">
		<tag k="fixme" v="multiple name tags, choose one and add the other to alt_name; consider natural=peak for the most distinct mountains in the district" />
		<tag k="name" v="Gunhildrudhøgda;Fjuktjennhøgda" />
		<tag k="natural" v="hill" />
		<tag k="place" v="locality" />
		<tag k="ssr:stedsnr" v="733416" />
	</node>
	<node id="-254924" lat="59.8035055553" lon="11.3421222246">
		<tag k="fixme" v="consider natural=peak for the most distinct mountains in the district" />
		<tag k="name" v="Grimskollen" />
		<tag k="natural" v="hill" />
		<tag k="place" v="locality" />
		<tag k="ssr:stedsnr" v="362835" />
	</node>
	<node id="-252871" lat="59.7698138932" lon="11.5632222208">
		<tag k="name" v="Vardehøgda" />
		<tag k="natural" v="hill" />
		<tag k="place" v="locality" />
		<tag k="ssr:stedsnr" v="733392" />
	</node>
	<node id="-254914" lat="59.951469443" lon="11.7813666665">
		<tag k="name" v="Knattedalen" />
		<tag k="natural" v="valley" />
		<tag k="place" v="locality" />
		<tag k="ssr:stedsnr" v="362396" />
	</node>
	<node id="-254911" lat="59.8461805586" lon="11.7413972276">
		<tag k="fixme" v="consider natural=peak for the most distinct mountains in the district" />
		<tag k="name" v="Vesle Bjønnvassheia" />
		<tag k="natural" v="hill" />
		<tag k="place" v="locality" />
		<tag k="ssr:stedsnr" v="362184" />
	</node>
	<node id="-254910" lat="59.9339611143" lon="11.784180561">
		<tag k="name" v="Mangtjennlia" />
		<tag k="natural" v="slope" />
		<tag k="place" v="locality" />
		<tag k="ssr:stedsnr" v="362427" />
	</node>
	<node id="-254907" lat="59.9662055554" lon="11.6165750065">
		<tag k="name" v="Kaprialbakken" />
		<tag k="natural" v="slope" />
		<tag k="place" v="locality" />
		<tag k="ssr:stedsnr" v="362130" />
	</node>
	<node id="-252843" lat="59.9177749985" lon="11.6178749994">
		<tag k="name" v="Framlia" />
		<tag k="natural" v="slope" />
		<tag k="place" v="locality" />
		<tag k="ssr:stedsnr" v="733004" />
	</node>
	<node id="-252841" lat="59.9855722229" lon="11.578461104">
		<tag k="name" v="Flaenshaugen" />
		<tag k="natural" v="hill" />
		<tag k="place" v="locality" />
		<tag k="ssr:stedsnr" v="732990" />
	</node>
	<node id="-254887" lat="59.8993750041" lon="11.4631916644">
		<tag k="name" v="Stordalen" />
		<tag k="natural" v="valley" />
		<tag k="place" v="locality" />
		<tag k="ssr:stedsnr" v="360336" />
	</node>
	<node id="-254790" lat="59.9750694407" lon="11.4980999939">
		<tag k="name" v="Engeråsen" />
		<tag k="natural" v="hill" />
		<tag k="place" v="locality" />
		<tag k="ssr:stedsnr" v="343119" />
	</node>
	<node id="-254881" lat="59.8350416703" lon="11.3184777775">
		<tag k="name" v="Tjuvdalen" />
		<tag k="natural" v="valley" />
		<tag k="place" v="locality" />
		<tag k="ssr:stedsnr" v="359730" />
	</node>
	<node id="-252831" lat="59.8963527737" lon="11.3548444368">
		<tag k="alt_name" v="Søljedalen" />
		<tag k="name" v="Søljudalen" />
		<tag k="natural" v="valley" />
		<tag k="place" v="locality" />
		<tag k="ssr:stedsnr" v="732683" />
	</node>
	<node id="-252829" lat="59.7168027765" lon="11.7756388916">
		<tag k="alt_name" v="Gjerpedalen" />
		<tag k="name" v="Jerpedalen" />
		<tag k="natural" v="valley" />
		<tag k="place" v="locality" />
		<tag k="ssr:stedsnr" v="732678" />
	</node>
	<node id="-254872" lat="60.0026555512" lon="11.7078444393">
		<tag k="name" v="Deledalen" />
		<tag k="natural" v="valley" />
		<tag k="place" v="locality" />
		<tag k="ssr:stedsnr" v="358183" />
	</node>
	<node id="-254862" lat="59.6912083325" lon="11.7775361036">
		<tag k="name" v="Trettebråtadalen" />
		<tag k="natural" v="valley" />
		<tag k="place" v="locality" />
		<tag k="ssr:stedsnr" v="354249" />
	</node>
	<node id="-252813" lat="59.6849583368" lon="11.7121055588">
		<tag k="fixme" v="consider natural=peak for the most distinct mountains in the district" />
		<tag k="name" v="Kuåsen" />
		<tag k="natural" v="hill" />
		<tag k="place" v="locality" />
		<tag k="ssr:stedsnr" v="732347" />
	</node>
	<node id="-254858" lat="59.6582750015" lon="11.8272972233">
		<tag k="name" v="Fjøsdalen" />
		<tag k="natural" v="valley" />
		<tag k="place" v="locality" />
		<tag k="ssr:stedsnr" v="354211" />
	</node>
	<node id="-252809" lat="59.6334083295" lon="11.7270527723">
		<tag k="alt_name" v="Slafallet" />
		<tag k="name" v="Slafalla" />
		<tag k="natural" v="slope" />
		<tag k="place" v="locality" />
		<tag k="ssr:stedsnr" v="732313" />
	</node>
	<node id="-254444" lat="59.9337138874" lon="11.6241277696">
		<tag k="name" v="Gammelsæterdalen" />
		<tag k="natural" v="valley" />
		<tag k="place" v="locality" />
		<tag k="ssr:stedsnr" v="180582" />
	</node>
	<node id="-254854" lat="59.7570777771" lon="11.8367888955">
		<tag k="name" v="Nordre Gryttjenndalen" />
		<tag k="natural" v="valley" />
		<tag k="place" v="locality" />
		<tag k="ssr:stedsnr" v="354161" />
	</node>
	<node id="-252805" lat="59.6534999983" lon="11.7984499983">
		<tag k="name" v="Bergtrangdalen" />
		<tag k="natural" v="valley" />
		<tag k="place" v="locality" />
		<tag k="ssr:stedsnr" v="732265" />
	</node>
	<node id="-252802" lat="59.8817944469" lon="11.7741277732">
		<tag k="alt_name" v="Røytjennkollen" />
		<tag k="fixme" v="consider natural=peak for the most distinct mountains in the district" />
		<tag k="name" v="Røytjennskollen" />
		<tag k="natural" v="hill" />
		<tag k="place" v="locality" />
		<tag k="ssr:stedsnr" v="732226" />
	</node>
	<node id="-254443" lat="59.8189166638" lon="11.7614749961">
		<tag k="name" v="Nisseåsen" />
		<tag k="natural" v="hill" />
		<tag k="place" v="locality" />
		<tag k="ssr:stedsnr" v="180578" />
	</node>
	<node id="-254877" lat="59.9387972257" lon="11.6408777808">
		<tag k="name" v="Butjennlia" />
		<tag k="natural" v="slope" />
		<tag k="place" v="locality" />
		<tag k="ssr:stedsnr" v="359268" />
	</node>
	<node id="-252642" lat="59.7642527743" lon="11.5747111075">
		<tag k="name" v="Den hvite knatten" />
		<tag k="natural" v="hill" />
		<tag k="place" v="locality" />
		<tag k="ssr:stedsnr" v="603035" />
	</node>
	<node id="-252794" lat="59.8828694478" lon="11.6672888856">
		<tag k="name" v="Langvikdalen" />
		<tag k="natural" v="valley" />
		<tag k="place" v="locality" />
		<tag k="ssr:stedsnr" v="299586" />
	</node>
	<node id="-252792" lat="59.7405055519" lon="11.3711166658">
		<tag k="name" v="Ingridmåsahøgda" />
		<tag k="natural" v="hill" />
		<tag k="place" v="locality" />
		<tag k="ssr:stedsnr" v="629229" />
	</node>
	<node id="-254838" lat="59.7410361087" lon="11.8720805607">
		<tag k="name" v="Skåbomkollene" />
		<tag k="natural" v="hill" />
		<tag k="place" v="locality" />
		<tag k="ssr:stedsnr" v="354038" />
	</node>
	<node id="-252784" lat="59.913683337" lon="11.3657500039">
		<tag k="name" v="Nauttjennåsen" />
		<tag k="natural" v="hill" />
		<tag k="place" v="locality" />
		<tag k="ssr:stedsnr" v="727472" />
	</node>
	<node id="-254829" lat="59.9072305529" lon="11.693088896">
		<tag k="name" v="Svarvestoldalen" />
		<tag k="natural" v="valley" />
		<tag k="place" v="locality" />
		<tag k="ssr:stedsnr" v="345798" />
	</node>
	<node id="-252780" lat="59.8314333363" lon="11.719124993">
		<tag k="name" v="Ringstadlia" />
		<tag k="natural" v="slope" />
		<tag k="place" v="locality" />
		<tag k="ssr:stedsnr" v="727221" />
	</node>
	<node id="-254827" lat="59.9161083313" lon="11.6487527803">
		<tag k="name" v="Stavtjenndalen" />
		<tag k="natural" v="valley" />
		<tag k="place" v="locality" />
		<tag k="ssr:stedsnr" v="345789" />
	</node>
	<node id="-252778" lat="59.8437638857" lon="11.7444833293">
		<tag k="name" v="Bukkelihøgda" />
		<tag k="natural" v="hill" />
		<tag k="place" v="locality" />
		<tag k="ssr:stedsnr" v="727188" />
	</node>
	<node id="-254824" lat="59.8997388872" lon="11.5204250027">
		<tag k="name" v="Delingsdalen" />
		<tag k="natural" v="valley" />
		<tag k="place" v="locality" />
		<tag k="ssr:stedsnr" v="345399" />
	</node>
	<node id="-254819" lat="59.8953138904" lon="11.4981666664">
		<tag k="name" v="Deledalen" />
		<tag k="natural" v="valley" />
		<tag k="place" v="locality" />
		<tag k="ssr:stedsnr" v="344442" />
	</node>
	<node id="-254818" lat="59.9912277796" lon="11.4639749936">
		<tag k="fixme" v="consider natural=peak for the most distinct mountains in the district" />
		<tag k="name" v="Kalvelihøgda" />
		<tag k="natural" v="hill" />
		<tag k="place" v="locality" />
		<tag k="ssr:stedsnr" v="344362" />
	</node>
	<node id="-254808" lat="60.0121166679" lon="11.5739444358">
		<tag k="name" v="Trappa" />
		<tag k="place" v="locality" />
		<tag k="ssr:stedsnr" v="343835" />
	</node>
	<node id="-252759" lat="59.8256388888" lon="11.6203111121">
		<tag k="fixme" v="consider natural=peak for the most distinct mountains in the district" />
		<tag k="name" v="Lintjennåsen" />
		<tag k="natural" v="hill" />
		<tag k="place" v="locality" />
		<tag k="ssr:stedsnr" v="726415" />
	</node>
	<node id="-252757" lat="59.9711944415" lon="11.609280563">
		<tag k="name" v="Trandumtjenndalen" />
		<tag k="natural" v="valley" />
		<tag k="place" v="locality" />
		<tag k="ssr:stedsnr" v="726122" />
	</node>
	<node id="-252755" lat="59.7831722195" lon="11.6525694428">
		<tag k="fixme" v="consider natural=peak for the most distinct mountains in the district" />
		<tag k="name" v="Vikaåsen" />
		<tag k="natural" v="hill" />
		<tag k="place" v="locality" />
		<tag k="ssr:stedsnr" v="725889" />
	</node>
	<node id="-254796" lat="59.769124996" lon="11.4039250047">
		<tag k="name" v="Svarttjenndalen" />
		<tag k="natural" v="valley" />
		<tag k="place" v="locality" />
		<tag k="ssr:stedsnr" v="343301" />
	</node>
	<node id="-252746" lat="59.9010750041" lon="11.3490277715">
		<tag k="fixme" v="consider natural=peak for the most distinct mountains in the district" />
		<tag k="name" v="Sloraåsen" />
		<tag k="natural" v="hill" />
		<tag k="place" v="locality" />
		<tag k="ssr:stedsnr" v="725280" />
	</node>
	<node id="-254792" lat="59.7968972211" lon="11.5813305562">
		<tag k="name" v="Delingsdalen" />
		<tag k="natural" v="valley" />
		<tag k="place" v="locality" />
		<tag k="ssr:stedsnr" v="343201" />
	</node>
	<node id="-252742" lat="59.8850361157" lon="11.4358166582">
		<tag k="name" v="Lammedalen" />
		<tag k="natural" v="valley" />
		<tag k="place" v="locality" />
		<tag k="ssr:stedsnr" v="725254" />
	</node>
	<node id="-252741" lat="59.9011861072" lon="11.366436106">
		<tag k="name" v="Mærradalen" />
		<tag k="natural" v="valley" />
		<tag k="place" v="locality" />
		<tag k="ssr:stedsnr" v="725253" />
	</node>
	<node id="-254788" lat="59.9525138866" lon="11.67747222">
		<tag k="name" v="Langtjennbrenna" />
		<tag k="natural" v="ridge" />
		<tag k="place" v="locality" />
		<tag k="ssr:stedsnr" v="343114" />
	</node>
	<node id="-252736" lat="59.7757833335" lon="11.5909777816">
		<tag k="name" v="Midtfjelldalen" />
		<tag k="natural" v="valley" />
		<tag k="place" v="locality" />
		<tag k="ssr:stedsnr" v="724671" />
	</node>
	<node id="-254783" lat="59.8004666711" lon="11.5054555543">
		<tag k="name" v="Trolldalen" />
		<tag k="natural" v="valley" />
		<tag k="place" v="locality" />
		<tag k="ssr:stedsnr" v="343015" />
	</node>
	<node id="-254782" lat="59.96563889" lon="11.4258777788">
		<tag k="name" v="Grønlandslia" />
		<tag k="natural" v="slope" />
		<tag k="place" v="locality" />
		<tag k="ssr:stedsnr" v="343009" />
	</node>
	<node id="-254777" lat="59.827475003" lon="11.8330333282">
		<tag k="fixme" v="consider natural=peak for the most distinct mountains in the district" />
		<tag k="name" v="Hvitfjellet" />
		<tag k="natural" v="hill" />
		<tag k="place" v="locality" />
		<tag k="ssr:stedsnr" v="342862" />
	</node>
	<node id="-254775" lat="59.7128833337" lon="11.5326166667">
		<tag k="fixme" v="consider natural=peak for the most distinct mountains in the district" />
		<tag k="name" v="Kolbergåsen" />
		<tag k="natural" v="hill" />
		<tag k="place" v="locality" />
		<tag k="ssr:stedsnr" v="342722" />
	</node>
	<node id="-254774" lat="59.7419222239" lon="11.6677555569">
		<tag k="name" v="Vadalen" />
		<tag k="natural" v="valley" />
		<tag k="place" v="locality" />
		<tag k="ssr:stedsnr" v="342352" />
	</node>
	<node id="-254768" lat="59.6424138905" lon="11.5017499926">
		<tag k="fixme" v="consider natural=peak for the most distinct mountains in the district" />
		<tag k="name" v="Hønmokollen" />
		<tag k="natural" v="hill" />
		<tag k="place" v="locality" />
		<tag k="ssr:stedsnr" v="340116" />
	</node>
	<node id="-252719" lat="60.0132805582" lon="11.5874388833">
		<tag k="name" v="Badstuovnen" />
		<tag k="place" v="locality" />
		<tag k="ssr:stedsnr" v="722075" />
	</node>
	<node id="-254765" lat="59.7034083311" lon="11.3842777853">
		<tag k="name" v="Haukedalen" />
		<tag k="natural" v="valley" />
		<tag k="place" v="locality" />
		<tag k="ssr:stedsnr" v="326198" />
	</node>
	<node id="-252712" lat="59.9951805598" lon="11.5049777818">
		<tag k="alt_name" v="Høldalen" />
		<tag k="name" v="Holdalen" />
		<tag k="natural" v="valley" />
		<tag k="place" v="locality" />
		<tag k="ssr:stedsnr" v="611969" />
	</node>
	<node id="-252707" lat="59.8415166671" lon="11.4601277704">
		<tag k="fixme" v="consider natural=peak for the most distinct mountains in the district" />
		<tag k="name" v="Basteheia" />
		<tag k="natural" v="hill" />
		<tag k="place" v="locality" />
		<tag k="ssr:stedsnr" v="611758" />
	</node>
	<node id="-254752" lat="59.9703166645" lon="11.6542138947">
		<tag k="alt_name" v="Bjønnmyrhøgda" />
		<tag k="name" v="Bjørnemyrhøgda" />
		<tag k="natural" v="hill" />
		<tag k="place" v="locality" />
		<tag k="ssr:stedsnr" v="308972" />
	</node>
	<node id="-254426" lat="59.8842277764" lon="11.3748444449">
		<tag k="name" v="Tverrtjennlia" />
		<tag k="natural" v="slope" />
		<tag k="place" v="locality" />
		<tag k="ssr:stedsnr" v="180037" />
	</node>
	<node id="-251695" lat="59.6447250025" lon="11.5021527845">
		<tag k="name" v="Krokdalen" />
		<tag k="natural" v="valley" />
		<tag k="place" v="locality" />
		<tag k="ssr:stedsnr" v="219105" />
	</node>
	<node id="-254741" lat="59.8544111128" lon="11.3897361117">
		<tag k="fixme" v="consider natural=peak for the most distinct mountains in the district" />
		<tag k="name" v="Ørnekollen" />
		<tag k="natural" v="hill" />
		<tag k="place" v="locality" />
		<tag k="ssr:stedsnr" v="308699" />
	</node>
	<node id="-254737" lat="59.8749166623" lon="11.4328583332">
		<tag k="fixme" v="consider natural=peak for the most distinct mountains in the district" />
		<tag k="name" v="Blåkollen" />
		<tag k="natural" v="hill" />
		<tag k="place" v="locality" />
		<tag k="ssr:stedsnr" v="308657" />
	</node>
	<node id="-252688" lat="59.6988888933" lon="11.7343694373">
		<tag k="alt_name" v="Slommetjennshøgda" />
		<tag k="fixme" v="consider natural=peak for the most distinct mountains in the district" />
		<tag k="name" v="Slomtjennhøgda" />
		<tag k="natural" v="hill" />
		<tag k="place" v="locality" />
		<tag k="ssr:stedsnr" v="610361" />
	</node>
	<node id="-251693" lat="59.8023611146" lon="11.7376361113">
		<tag k="name" v="Morttjennlia" />
		<tag k="natural" v="slope" />
		<tag k="place" v="locality" />
		<tag k="ssr:stedsnr" v="298699" />
	</node>
	<node id="-252677" lat="59.9766222229" lon="11.6259472291">
		<tag k="name" v="Ospedalen" />
		<tag k="natural" v="valley" />
		<tag k="place" v="locality" />
		<tag k="ssr:stedsnr" v="605156" />
	</node>
	<node id="-252676" lat="59.7693249985" lon="11.3726972243">
		<tag k="name" v="Stokkåsen" />
		<tag k="natural" v="hill" />
		<tag k="place" v="locality" />
		<tag k="ssr:stedsnr" v="604975" />
	</node>
	<node id="-252673" lat="59.8730999963" lon="11.349555559">
		<tag k="fixme" v="consider natural=peak for the most distinct mountains in the district" />
		<tag k="name" v="Røyskollen" />
		<tag k="natural" v="hill" />
		<tag k="place" v="locality" />
		<tag k="ssr:stedsnr" v="604557" />
	</node>
	<node id="-252672" lat="59.7055194455" lon="11.7936583358">
		<tag k="fixme" v="consider natural=peak for the most distinct mountains in the district" />
		<tag k="name" v="Høgåsen" />
		<tag k="natural" v="hill" />
		<tag k="place" v="locality" />
		<tag k="ssr:stedsnr" v="718114" />
	</node>
	<node id="-254719" lat="59.9733638899" lon="11.4631472299">
		<tag k="alt_name" v="Slettnerknollen" />
		<tag k="fixme" v="consider natural=peak for the most distinct mountains in the district" />
		<tag k="name" v="Sletnerknatten" />
		<tag k="natural" v="hill" />
		<tag k="place" v="locality" />
		<tag k="ssr:stedsnr" v="308399" />
	</node>
	<node id="-252670" lat="59.7417638905" lon="11.6324305594">
		<tag k="name" v="Klemmedalen" />
		<tag k="natural" v="valley" />
		<tag k="place" v="locality" />
		<tag k="ssr:stedsnr" v="604611" />
	</node>
	<node id="-254715" lat="59.7546250037" lon="11.5959249995">
		<tag k="fixme" v="multiple name tags, choose one and add the other to alt_name" />
		<tag k="name" v="Mørkomdalen;Østre Mørkomdalen" />
		<tag k="natural" v="valley" />
		<tag k="place" v="locality" />
		<tag k="ssr:stedsnr" v="308359" />
	</node>
	<node id="-252665" lat="59.696566667" lon="11.8671472225">
		<tag k="name" v="Fjellsdalen" />
		<tag k="natural" v="valley" />
		<tag k="place" v="locality" />
		<tag k="ssr:stedsnr" v="718058" />
	</node>
	<node id="-254710" lat="59.8534000037" lon="11.7164500012">
		<tag k="fixme" v="consider natural=peak for the most distinct mountains in the district" />
		<tag k="name" v="Ørnekollen" />
		<tag k="natural" v="hill" />
		<tag k="place" v="locality" />
		<tag k="ssr:stedsnr" v="308329" />
	</node>
	<node id="-252649" lat="59.6931361117" lon="11.6989388859">
		<tag k="fixme" v="consider natural=peak for the most distinct mountains in the district" />
		<tag k="name" v="Risåsen" />
		<tag k="natural" v="hill" />
		<tag k="place" v="locality" />
		<tag k="ssr:stedsnr" v="718250" />
	</node>
	<node id="-252644" lat="59.846125003" lon="11.3495083274">
		<tag k="name" v="Stigemoen" />
		<tag k="place" v="locality" />
		<tag k="ssr:stedsnr" v="603602" />
	</node>
	<node id="-251686" lat="59.9583166708" lon="11.5866444443">
		<tag k="name" v="Hattmyråsen" />
		<tag k="natural" v="ridge" />
		<tag k="place" v="locality" />
		<tag k="ssr:stedsnr" v="298234" />
	</node>
	<node id="-254690" lat="59.8628555518" lon="11.6353888951">
		<tag k="name" v="Guluhøgda" />
		<tag k="natural" v="hill" />
		<tag k="place" v="locality" />
		<tag k="ssr:stedsnr" v="308112" />
	</node>
	<node id="-254689" lat="59.8622638869" lon="11.7066527762">
		<tag k="alt_name" v="Aurkytejennhøgda" />
		<tag k="name" v="Aurekyttjennhøgda" />
		<tag k="natural" v="hill" />
		<tag k="place" v="locality" />
		<tag k="ssr:stedsnr" v="308106" />
	</node>
	<node id="-254688" lat="59.9595333333" lon="11.7382305538">
		<tag k="name" v="Sotsjøliene" />
		<tag k="natural" v="slope" />
		<tag k="place" v="locality" />
		<tag k="ssr:stedsnr" v="308091" />
	</node>
	<node id="-252637" lat="59.8738500023" lon="11.5894222308">
		<tag k="name" v="Festningsåsen" />
		<tag k="natural" v="hill" />
		<tag k="place" v="locality" />
		<tag k="ssr:stedsnr" v="601582" />
	</node>
	<node id="-252635" lat="59.8817583363" lon="11.5919694438">
		<tag k="fixme" v="consider natural=peak for the most distinct mountains in the district" />
		<tag k="name" v="Skanseåsen" />
		<tag k="natural" v="hill" />
		<tag k="place" v="locality" />
		<tag k="ssr:stedsnr" v="601577" />
	</node>
	<node id="-254679" lat="59.9289649511" lon="11.614150504">
		<tag k="name" v="Djupdalshøgda" />
		<tag k="natural" v="hill" />
		<tag k="place" v="locality" />
		<tag k="ssr:stedsnr" v="308036" />
	</node>
	<node id="-254677" lat="59.9780027744" lon="11.6165555502">
		<tag k="fixme" v="consider natural=peak for the most distinct mountains in the district" />
		<tag k="name" v="Firhørningen" />
		<tag k="natural" v="hill" />
		<tag k="place" v="locality" />
		<tag k="ssr:stedsnr" v="307991" />
	</node>
	<node id="-254670" lat="59.7047944427" lon="11.4606611181">
		<tag k="fixme" v="consider natural=peak for the most distinct mountains in the district" />
		<tag k="name" v="Skjønnebergåsen" />
		<tag k="natural" v="hill" />
		<tag k="place" v="locality" />
		<tag k="ssr:stedsnr" v="307856" />
	</node>
	<node id="-252621" lat="59.8686055513" lon="11.3960444387">
		<tag k="name" v="Korpedalen" />
		<tag k="natural" v="valley" />
		<tag k="place" v="locality" />
		<tag k="ssr:stedsnr" v="588743" />
	</node>
	<node id="-252616" lat="59.9809972224" lon="11.5409416741">
		<tag k="name" v="Skjepptjennberga" />
		<tag k="natural" v="cliff" />
		<tag k="ssr:stedsnr" v="586480" />
	</node>
	<node id="-254663" lat="59.7407666702" lon="11.5444999931">
		<tag k="name" v="Merradalen" />
		<tag k="natural" v="valley" />
		<tag k="place" v="locality" />
		<tag k="ssr:stedsnr" v="307683" />
	</node>
	<node id="-252614" lat="59.7891194437" lon="11.5036777705">
		<tag k="name" v="Bjørnefjell" />
		<tag k="natural" v="hill" />
		<tag k="place" v="locality" />
		<tag k="ssr:stedsnr" v="586071" />
	</node>
	<node id="-252609" lat="59.9985000044" lon="11.7128499932">
		<tag k="name" v="Paddetjennlia" />
		<tag k="natural" v="slope" />
		<tag k="place" v="locality" />
		<tag k="ssr:stedsnr" v="585665" />
	</node>
	<node id="-252607" lat="59.7916472235" lon="11.7912527702">
		<tag k="fixme" v="consider natural=peak for the most distinct mountains in the district" />
		<tag k="name" v="Skytteråsen" />
		<tag k="natural" v="hill" />
		<tag k="place" v="locality" />
		<tag k="ssr:stedsnr" v="585094" />
	</node>
	<node id="-254654" lat="59.7155750015" lon="11.9127083361">
		<tag k="fixme" v="consider natural=peak for the most distinct mountains in the district" />
		<tag k="loc_name" v="Elgseterhøgda" />
		<tag k="name" v="Elgsæterhøgda" />
		<tag k="natural" v="hill" />
		<tag k="place" v="locality" />
		<tag k="ssr:stedsnr" v="307427" />
	</node>
	<node id="-252605" lat="59.7571166674" lon="11.6171305591">
		<tag k="name" v="Korsdalen" />
		<tag k="natural" v="valley" />
		<tag k="place" v="locality" />
		<tag k="ssr:stedsnr" v="585057" />
	</node>
	<node id="-252594" lat="59.9109444438" lon="11.6735138952">
		<tag k="name" v="Furuliene" />
		<tag k="natural" v="slope" />
		<tag k="place" v="locality" />
		<tag k="ssr:stedsnr" v="709787" />
	</node>
	<node id="-254639" lat="59.7843416656" lon="11.7231833298">
		<tag k="name" v="Åsmyrdalen" />
		<tag k="natural" v="valley" />
		<tag k="place" v="locality" />
		<tag k="ssr:stedsnr" v="302678" />
	</node>
	<node id="-254638" lat="59.9192916661" lon="11.6408833351">
		<tag k="fixme" v="consider natural=peak for the most distinct mountains in the district" />
		<tag k="name" v="Stavtjennåsen" />
		<tag k="natural" v="hill" />
		<tag k="place" v="locality" />
		<tag k="ssr:stedsnr" v="302589" />
	</node>
	<node id="-254637" lat="59.9209222191" lon="11.6348750042">
		<tag k="name" v="Skavlia" />
		<tag k="natural" v="slope" />
		<tag k="place" v="locality" />
		<tag k="ssr:stedsnr" v="302582" />
	</node>
	<node id="-252587" lat="59.8664333352" lon="11.3617500009">
		<tag k="name" v="Jarsfallet" />
		<tag k="place" v="locality" />
		<tag k="ssr:stedsnr" v="709693" />
	</node>
	<node id="-252583" lat="59.9496638894" lon="11.5752583404">
		<tag k="fixme" v="consider natural=peak for the most distinct mountains in the district" />
		<tag k="name" v="Sagåsen" />
		<tag k="natural" v="hill" />
		<tag k="place" v="locality" />
		<tag k="ssr:stedsnr" v="709427" />
	</node>
	<node id="-252579" lat="59.9071277738" lon="11.6147666575">
		<tag k="name" v="Morttjenndalen" />
		<tag k="natural" v="valley" />
		<tag k="place" v="locality" />
		<tag k="ssr:stedsnr" v="709120" />
	</node>
	<node id="-254625" lat="59.7750555558" lon="11.3606861101">
		<tag k="name" v="Skogsberg" />
		<tag k="place" v="locality" />
		<tag k="ssr:stedsnr" v="301960" />
	</node>
	<node id="-252576" lat="59.954858332" lon="11.7197222194">
		<tag k="name" v="Puttelia" />
		<tag k="natural" v="slope" />
		<tag k="place" v="locality" />
		<tag k="ssr:stedsnr" v="708918" />
	</node>
	<node id="-252575" lat="59.9522804067" lon="11.6424911205">
		<tag k="fixme" v="consider natural=peak for the most distinct mountains in the district" />
		<tag k="name" v="Vestre Ringkollhøgda" />
		<tag k="natural" v="hill" />
		<tag k="place" v="locality" />
		<tag k="ssr:stedsnr" v="708025" />
	</node>
	<node id="-254622" lat="59.8725638878" lon="11.3549833319">
		<tag k="fixme" v="consider natural=peak for the most distinct mountains in the district" />
		<tag k="name" v="Halstjennåsen" />
		<tag k="natural" v="hill" />
		<tag k="place" v="locality" />
		<tag k="ssr:stedsnr" v="301545" />
	</node>
	<node id="-252573" lat="59.982269446" lon="11.7948888889">
		<tag k="name" v="Hestevadet" />
		<tag k="place" v="locality" />
		<tag k="ssr:stedsnr" v="707981" />
	</node>
	<node id="-252569" lat="60.0053888873" lon="11.5119222253">
		<tag k="name" v="Syltemyrliene" />
		<tag k="natural" v="slope" />
		<tag k="place" v="locality" />
		<tag k="ssr:stedsnr" v="707821" />
	</node>
	<node id="-252697" lat="59.8821361132" lon="11.678991671">
		<tag k="fixme" v="consider natural=peak for the most distinct mountains in the district" />
		<tag k="name" v="Tukuhøgda" />
		<tag k="natural" v="hill" />
		<tag k="place" v="locality" />
		<tag k="ssr:stedsnr" v="611211" />
	</node>
	<node id="-254607" lat="59.7841638923" lon="11.5883305613">
		<tag k="name" v="Haukedalen" />
		<tag k="natural" v="valley" />
		<tag k="place" v="locality" />
		<tag k="ssr:stedsnr" v="300987" />
	</node>
	<node id="-252558" lat="59.9209972228" lon="11.567311113">
		<tag k="name" v="Skanseberget" />
		<tag k="natural" v="hill" />
		<tag k="place" v="locality" />
		<tag k="ssr:stedsnr" v="707612" />
	</node>
	<node id="-254601" lat="59.9286833306" lon="11.6878277802">
		<tag k="name" v="Langmyråsen" />
		<tag k="natural" v="slope" />
		<tag k="place" v="locality" />
		<tag k="ssr:stedsnr" v="300739" />
	</node>
	<node id="-254599" lat="59.919169444" lon="11.6617555538">
		<tag k="name" v="Kjøldalen" />
		<tag k="natural" v="valley" />
		<tag k="place" v="locality" />
		<tag k="ssr:stedsnr" v="300649" />
	</node>
	<node id="-252547" lat="59.9660166701" lon="11.5524277866">
		<tag k="name" v="Vestre Gørrtjenndalen" />
		<tag k="natural" v="valley" />
		<tag k="place" v="locality" />
		<tag k="ssr:stedsnr" v="707016" />
	</node>
	<node id="-252546" lat="59.9655749964" lon="11.4317694409">
		<tag k="name" v="Gunhildrudhøgda" />
		<tag k="natural" v="hill" />
		<tag k="place" v="locality" />
		<tag k="ssr:stedsnr" v="707013" />
	</node>
	<node id="-254590" lat="59.7782416701" lon="11.8564583307">
		<tag k="fixme" v="consider natural=peak for the most distinct mountains in the district" />
		<tag k="name" v="Slottet" />
		<tag k="natural" v="hill" />
		<tag k="place" v="locality" />
		<tag k="ssr:stedsnr" v="188247" />
	</node>
	<node id="-252541" lat="59.7159388852" lon="11.4660333305">
		<tag k="fixme" v="consider natural=peak for the most distinct mountains in the district" />
		<tag k="name" v="Slottåsen" />
		<tag k="natural" v="hill" />
		<tag k="place" v="locality" />
		<tag k="ssr:stedsnr" v="706768" />
	</node>
	<node id="-252536" lat="59.6920472264" lon="11.5402305531">
		<tag k="name" v="Åbogdalen" />
		<tag k="natural" v="valley" />
		<tag k="place" v="locality" />
		<tag k="ssr:stedsnr" v="706125" />
	</node>
	<node id="-252533" lat="59.903102777" lon="11.4216194393">
		<tag k="fixme" v="consider natural=peak for the most distinct mountains in the district" />
		<tag k="name" v="Morttjennåsen" />
		<tag k="natural" v="hill" />
		<tag k="place" v="locality" />
		<tag k="ssr:stedsnr" v="544510" />
	</node>
	<node id="-252532" lat="59.902163893" lon="11.4350388955">
		<tag k="name" v="Langbråtedalen" />
		<tag k="natural" v="valley" />
		<tag k="place" v="locality" />
		<tag k="ssr:stedsnr" v="544507" />
	</node>
	<node id="-252531" lat="59.9076249963" lon="11.7625805576">
		<tag k="fixme" v="consider natural=peak for the most distinct mountains in the district" />
		<tag k="name" v="Mærliåsen" />
		<tag k="natural" v="hill" />
		<tag k="place" v="locality" />
		<tag k="ssr:stedsnr" v="544430" />
	</node>
	<node id="-252528" lat="59.6749416681" lon="11.5540527812">
		<tag k="name" v="Stordalen" />
		<tag k="natural" v="valley" />
		<tag k="place" v="locality" />
		<tag k="ssr:stedsnr" v="544414" />
	</node>
	<node id="-252524" lat="59.9603027765" lon="11.59247778">
		<tag k="name" v="Bukkåsen" />
		<tag k="natural" v="slope" />
		<tag k="place" v="locality" />
		<tag k="ssr:stedsnr" v="544108" />
	</node>
	<node id="-254569" lat="59.7854472251" lon="11.7933722226">
		<tag k="fixme" v="consider natural=peak for the most distinct mountains in the district" />
		<tag k="name" v="Rognliheia" />
		<tag k="natural" v="hill" />
		<tag k="place" v="locality" />
		<tag k="ssr:stedsnr" v="187411" />
	</node>
	<node id="-252518" lat="59.9124388877" lon="11.3959666719">
		<tag k="fixme" v="consider natural=peak for the most distinct mountains in the district" />
		<tag k="name" v="Bråtaåsen" />
		<tag k="natural" v="hill" />
		<tag k="place" v="locality" />
		<tag k="ssr:stedsnr" v="543317" />
	</node>
	<node id="-252516" lat="59.796313889" lon="11.8720027864">
		<tag k="name" v="Holmene" />
		<tag k="natural" v="hill" />
		<tag k="place" v="locality" />
		<tag k="ssr:stedsnr" v="541755" />
	</node>
	<node id="-254559" lat="59.8266361095" lon="11.4694249963">
		<tag k="name" v="Gravtjennhøgda" />
		<tag k="natural" v="hill" />
		<tag k="place" v="locality" />
		<tag k="ssr:stedsnr" v="187298" />
	</node>
	<node id="-254553" lat="59.8055611147" lon="11.7543249981">
		<tag k="name" v="Fuglekollen" />
		<tag k="natural" v="hill" />
		<tag k="place" v="locality" />
		<tag k="ssr:stedsnr" v="187239" />
	</node>
	<node id="-254551" lat="59.8836888922" lon="11.612888885">
		<tag k="fixme" v="consider natural=peak for the most distinct mountains in the district" />
		<tag k="name" v="Langfallåsen" />
		<tag k="natural" v="hill" />
		<tag k="place" v="locality" />
		<tag k="ssr:stedsnr" v="187212" />
	</node>
	<node id="-254546" lat="59.9525837719" lon="11.6433061439">
		<tag k="name" v="Ringkollen" />
		<tag k="natural" v="hill" />
		<tag k="place" v="locality" />
		<tag k="ssr:stedsnr" v="187117" />
	</node>
	<node id="-252491" lat="59.8427944405" lon="11.7821111037">
		<tag k="name" v="Lembrukleiva" />
		<tag k="natural" v="slope" />
		<tag k="place" v="locality" />
		<tag k="ssr:stedsnr" v="527246" />
	</node>
	<node id="-252490" lat="59.8395027745" lon="11.7545055493">
		<tag k="name" v="Skaratjennlia" />
		<tag k="natural" v="slope" />
		<tag k="place" v="locality" />
		<tag k="ssr:stedsnr" v="527241" />
	</node>
	<node id="-251319" lat="59.8557583366" lon="11.5147027693">
		<tag k="fixme" v="consider natural=peak for the most distinct mountains in the district" />
		<tag k="name" v="Røysåsen" />
		<tag k="natural" v="hill" />
		<tag k="place" v="locality" />
		<tag k="ssr:stedsnr" v="241529" />
	</node>
	<node id="-252486" lat="60.0048416668" lon="11.5766249944">
		<tag k="name" v="Djupdalen" />
		<tag k="natural" v="valley" />
		<tag k="place" v="locality" />
		<tag k="ssr:stedsnr" v="525780" />
	</node>
	<node id="-252485" lat="60.0164861097" lon="11.5286638961">
		<tag k="name" v="Kalddalen" />
		<tag k="natural" v="valley" />
		<tag k="place" v="locality" />
		<tag k="ssr:stedsnr" v="525769" />
	</node>
	<node id="-251318" lat="59.9318694419" lon="11.6111472177">
		<tag k="name" v="Rosdalen" />
		<tag k="natural" v="valley" />
		<tag k="place" v="locality" />
		<tag k="ssr:stedsnr" v="241592" />
	</node>
	<node id="-254530" lat="59.9215277748" lon="11.641524998">
		<tag k="name" v="Postillen" />
		<tag k="natural" v="slope" />
		<tag k="place" v="locality" />
		<tag k="ssr:stedsnr" v="187001" />
	</node>
	<node id="-252480" lat="59.8019499993" lon="11.6057388884">
		<tag k="name" v="Røydalen" />
		<tag k="natural" v="valley" />
		<tag k="place" v="locality" />
		<tag k="ssr:stedsnr" v="525225" />
	</node>
	<node id="-252479" lat="59.800444442" lon="11.5905722265">
		<tag k="name" v="Stangslia" />
		<tag k="natural" v="slope" />
		<tag k="place" v="locality" />
		<tag k="ssr:stedsnr" v="525224" />
	</node>
	<node id="-252478" lat="59.9690277783" lon="11.4447277712">
		<tag k="name" v="Hæslibrauta" />
		<tag k="place" v="locality" />
		<tag k="ssr:stedsnr" v="525019" />
	</node>
	<node id="-252477" lat="59.9802666695" lon="11.5592805597">
		<tag k="name" v="Rundtjennholene" />
		<tag k="place" v="locality" />
		<tag k="ssr:stedsnr" v="525005" />
	</node>
	<node id="-252471" lat="59.9961500005" lon="11.6093249916">
		<tag k="name" v="Jogelia" />
		<tag k="natural" v="slope" />
		<tag k="place" v="locality" />
		<tag k="ssr:stedsnr" v="490960" />
	</node>
	<node id="-251657" lat="59.651986115" lon="11.7904277833">
		<tag k="fixme" v="consider natural=peak for the most distinct mountains in the district" />
		<tag k="name" v="Kuvtjennhøgda" />
		<tag k="natural" v="hill" />
		<tag k="place" v="locality" />
		<tag k="ssr:stedsnr" v="293240" />
	</node>
	<node id="-254508" lat="59.7994749985" lon="11.7810416678">
		<tag k="alt_name" v="Knatten, vestre" />
		<tag k="fixme" v="multiple name tags, choose one and add the other to alt_name; consider natural=peak for the most distinct mountains in the district" />
		<tag k="name" v="Vestre Sjurtjennknatten;Vestre Knatten" />
		<tag k="natural" v="hill" />
		<tag k="place" v="locality" />
		<tag k="ssr:stedsnr" v="186542" />
	</node>
	<node id="-252459" lat="59.9024583298" lon="11.6556555585">
		<tag k="fixme" v="consider natural=peak for the most distinct mountains in the district" />
		<tag k="name" v="Rossheia" />
		<tag k="natural" v="hill" />
		<tag k="place" v="locality" />
		<tag k="ssr:stedsnr" v="489254" />
	</node>
	<node id="-252455" lat="60.0180861088" lon="11.5249111175">
		<tag k="fixme" v="consider natural=peak for the most distinct mountains in the district" />
		<tag k="name" v="Tyvknattane" />
		<tag k="natural" v="hill" />
		<tag k="place" v="locality" />
		<tag k="ssr:stedsnr" v="673583" />
	</node>
	<node id="-254498" lat="59.7571138932" lon="11.5185805595">
		<tag k="name" v="Masbrudalen" />
		<tag k="natural" v="valley" />
		<tag k="place" v="locality" />
		<tag k="ssr:stedsnr" v="186431" />
	</node>
	<node id="-252449" lat="59.9729194479" lon="11.6394916611">
		<tag k="fixme" v="consider natural=peak for the most distinct mountains in the district" />
		<tag k="name" v="Høgåsen" />
		<tag k="natural" v="hill" />
		<tag k="place" v="locality" />
		<tag k="ssr:stedsnr" v="484152" />
	</node>
	<node id="-251652" lat="59.6943750034" lon="11.9063527728">
		<tag k="fixme" v="consider natural=peak for the most distinct mountains in the district" />
		<tag k="name" v="Furukollfinnen" />
		<tag k="natural" v="hill" />
		<tag k="place" v="locality" />
		<tag k="ssr:stedsnr" v="293217" />
	</node>
	<node id="-252437" lat="59.885216664" lon="11.3842111096">
		<tag k="name" v="Stintelia" />
		<tag k="natural" v="slope" />
		<tag k="place" v="locality" />
		<tag k="ssr:stedsnr" v="483056" />
	</node>
	<node id="-252432" lat="59.7612444472" lon="11.565933334">
		<tag k="name" v="Bollekleivdalen" />
		<tag k="natural" v="valley" />
		<tag k="place" v="locality" />
		<tag k="ssr:stedsnr" v="482052" />
	</node>
	<node id="-251796" lat="59.9221666628" lon="11.3964527746">
		<tag k="name" v="Neseråsen" />
		<tag k="natural" v="hill" />
		<tag k="place" v="locality" />
		<tag k="ssr:stedsnr" v="465979" />
	</node>
	<node id="-252428" lat="59.972669446" lon="11.5526000006">
		<tag k="fixme" v="consider natural=peak for the most distinct mountains in the district" />
		<tag k="name" v="Gørrtjennteigen" />
		<tag k="natural" v="hill" />
		<tag k="place" v="locality" />
		<tag k="ssr:stedsnr" v="672974" />
	</node>
	<node id="-252426" lat="59.7634972219" lon="11.4408638809">
		<tag k="fixme" v="consider natural=peak for the most distinct mountains in the district" />
		<tag k="name" v="Vardåsen" />
		<tag k="natural" v="hill" />
		<tag k="place" v="locality" />
		<tag k="ssr:stedsnr" v="672925" />
	</node>
	<node id="-252425" lat="59.8854027803" lon="11.71736666">
		<tag k="name" v="Aursetberga" />
		<tag k="natural" v="cliff" />
		<tag k="ssr:stedsnr" v="481671" />
	</node>
	<node id="-254471" lat="59.9032416707" lon="11.6304138915">
		<tag k="alt_name" v="Sleppehøgda" />
		<tag k="name" v="Slepphøgda" />
		<tag k="natural" v="hill" />
		<tag k="place" v="locality" />
		<tag k="ssr:stedsnr" v="186217" />
	</node>
	<node id="-254468" lat="59.8870027744" lon="11.6551777699">
		<tag k="name" v="Svartsæterhøgda" />
		<tag k="natural" v="hill" />
		<tag k="place" v="locality" />
		<tag k="ssr:stedsnr" v="186190" />
	</node>
	<node id="-254379" lat="59.6892222208" lon="11.7079555604">
		<tag k="fixme" v="consider natural=peak for the most distinct mountains in the district" />
		<tag k="name" v="Hauga" />
		<tag k="natural" v="hill" />
		<tag k="place" v="locality" />
		<tag k="ssr:stedsnr" v="172148" />
	</node>
	<node id="-252410" lat="59.9576305541" lon="11.5670638877">
		<tag k="name" v="Fjøsdråga" />
		<tag k="natural" v="valley" />
		<tag k="place" v="locality" />
		<tag k="ssr:stedsnr" v="480319" />
	</node>
	<node id="-252408" lat="59.8531944428" lon="11.380772225">
		<tag k="fixme" v="consider natural=peak for the most distinct mountains in the district" />
		<tag k="name" v="Trettåsen" />
		<tag k="natural" v="hill" />
		<tag k="place" v="locality" />
		<tag k="ssr:stedsnr" v="672711" />
	</node>
	<node id="-254453" lat="59.847363893" lon="11.7247277704">
		<tag k="name" v="Tangemoen" />
		<tag k="place" v="locality" />
		<tag k="ssr:stedsnr" v="181185" />
	</node>
	<node id="-254451" lat="59.8409666652" lon="11.7290055548">
		<tag k="name" v="Morttjenndalen" />
		<tag k="natural" v="valley" />
		<tag k="place" v="locality" />
		<tag k="ssr:stedsnr" v="181180" />
	</node>
	<node id="-252400" lat="59.8027249959" lon="11.8190000013">
		<tag k="alt_name" v="Abbortjennkollen" />
		<tag k="fixme" v="consider natural=peak for the most distinct mountains in the district" />
		<tag k="name" v="Abbortjennskollen" />
		<tag k="natural" v="hill" />
		<tag k="place" v="locality" />
		<tag k="ssr:stedsnr" v="672452" />
	</node>
	<node id="-252396" lat="59.7756999992" lon="11.7424888963">
		<tag k="name" v="Stordalen" />
		<tag k="natural" v="valley" />
		<tag k="place" v="locality" />
		<tag k="ssr:stedsnr" v="672407" />
	</node>
	<node id="-251522" lat="59.9720222196" lon="11.4594999958">
		<tag k="name" v="Vardalen" />
		<tag k="natural" v="valley" />
		<tag k="place" v="locality" />
		<tag k="ssr:stedsnr" v="161002" />
	</node>
	<node id="-252394" lat="59.7646888911" lon="11.5528388813">
		<tag k="fixme" v="consider natural=peak for the most distinct mountains in the district" />
		<tag k="name" v="Skjemtefjellåsen" />
		<tag k="natural" v="hill" />
		<tag k="place" v="locality" />
		<tag k="ssr:stedsnr" v="672397" />
	</node>
	<node id="-252393" lat="59.7626499982" lon="11.6167444411">
		<tag k="alt_name" v="Tryndalen" />
		<tag k="name" v="Trundalen" />
		<tag k="natural" v="valley" />
		<tag k="place" v="locality" />
		<tag k="ssr:stedsnr" v="672393" />
	</node>
	<node id="-254438" lat="59.8995055557" lon="11.4364833271">
		<tag k="fixme" v="consider natural=peak for the most distinct mountains in the district" />
		<tag k="name" v="Hjerterudåsen" />
		<tag k="natural" v="hill" />
		<tag k="place" v="locality" />
		<tag k="ssr:stedsnr" v="180485" />
	</node>
	<node id="-252384" lat="59.7608166655" lon="11.9077277759">
		<tag k="fixme" v="consider natural=peak for the most distinct mountains in the district" />
		<tag k="name" v="Røvasshøgda" />
		<tag k="natural" v="hill" />
		<tag k="place" v="locality" />
		<tag k="ssr:stedsnr" v="672220" />
	</node>
	<node id="-252378" lat="59.8723861082" lon="11.5124027835">
		<tag k="fixme" v="consider natural=peak for the most distinct mountains in the district" />
		<tag k="name" v="Lemmeheia" />
		<tag k="natural" v="hill" />
		<tag k="place" v="locality" />
		<tag k="ssr:stedsnr" v="672151" />
	</node>
	<node id="-254425" lat="59.8790944487" lon="11.3923861123">
		<tag k="name" v="Hvileberget" />
		<tag k="natural" v="hill" />
		<tag k="place" v="locality" />
		<tag k="ssr:stedsnr" v="180032" />
	</node>
	<node id="-252374" lat="59.8638249968" lon="11.7202500052">
		<tag k="name" v="Trolldalen" />
		<tag k="natural" v="valley" />
		<tag k="place" v="locality" />
		<tag k="ssr:stedsnr" v="672116" />
	</node>
	<node id="-252370" lat="59.9465388874" lon="11.7590611079">
		<tag k="alt_name" v="Fagerlihøgda" />
		<tag k="fixme" v="consider natural=peak for the most distinct mountains in the district" />
		<tag k="name" v="Fagerliåsen" />
		<tag k="natural" v="hill" />
		<tag k="place" v="locality" />
		<tag k="ssr:stedsnr" v="672081" />
	</node>
	<node id="-254417" lat="59.7492805577" lon="11.5562027693">
		<tag k="name" v="Delingsdalen" />
		<tag k="natural" v="valley" />
		<tag k="place" v="locality" />
		<tag k="ssr:stedsnr" v="179442" />
	</node>
	<node id="-252366" lat="59.9298166648" lon="11.6253972218">
		<tag k="alt_name" v="Djupdalshøgda" />
		<tag k="fixme" v="consider natural=peak for the most distinct mountains in the district" />
		<tag k="name" v="Morttjennbrenna" />
		<tag k="natural" v="hill" />
		<tag k="place" v="locality" />
		<tag k="ssr:stedsnr" v="672042" />
	</node>
	<node id="-254409" lat="59.8046138867" lon="11.7025833405">
		<tag k="fixme" v="consider natural=peak for the most distinct mountains in the district" />
		<tag k="name" v="Sæteråsen" />
		<tag k="natural" v="hill" />
		<tag k="place" v="locality" />
		<tag k="ssr:stedsnr" v="177750" />
	</node>
	<node id="-254408" lat="59.794449999" lon="11.7395194428">
		<tag k="fixme" v="consider natural=peak for the most distinct mountains in the district" />
		<tag k="name" v="Hanskebrenna" />
		<tag k="natural" v="hill" />
		<tag k="place" v="locality" />
		<tag k="ssr:stedsnr" v="177736" />
	</node>
	<node id="-252359" lat="59.91378889" lon="11.6361694403">
		<tag k="name" v="Svarttjennhøgda" />
		<tag k="natural" v="hill" />
		<tag k="place" v="locality" />
		<tag k="ssr:stedsnr" v="672012" />
	</node>
	<node id="-252354" lat="59.7818638886" lon="11.3485861177">
		<tag k="name" v="Folkedalen" />
		<tag k="natural" v="valley" />
		<tag k="place" v="locality" />
		<tag k="ssr:stedsnr" v="671857" />
	</node>
	<node id="-254401" lat="59.954272225" lon="11.6177111041">
		<tag k="fixme" v="consider natural=peak for the most distinct mountains in the district" />
		<tag k="name" v="Roligheta" />
		<tag k="natural" v="hill" />
		<tag k="place" v="locality" />
		<tag k="ssr:stedsnr" v="177249" />
	</node>
	<node id="-252346" lat="59.7362277773" lon="11.565794447">
		<tag k="fixme" v="consider natural=peak for the most distinct mountains in the district" />
		<tag k="name" v="Åstjennhøgda" />
		<tag k="natural" v="hill" />
		<tag k="place" v="locality" />
		<tag k="ssr:stedsnr" v="671681" />
	</node>
	<node id="-252341" lat="59.6958805575" lon="11.7118166742">
		<tag k="fixme" v="consider natural=peak for the most distinct mountains in the district" />
		<tag k="name" v="Stintehøgda" />
		<tag k="natural" v="hill" />
		<tag k="place" v="locality" />
		<tag k="ssr:stedsnr" v="671361" />
	</node>
	<node id="-252340" lat="59.6746999978" lon="11.7453305525">
		<tag k="alt_name" v="Skillberga" />
		<tag k="fixme" v="consider natural=peak for the most distinct mountains in the district" />
		<tag k="name" v="Skjellberga" />
		<tag k="natural" v="hill" />
		<tag k="place" v="locality" />
		<tag k="ssr:stedsnr" v="671272" />
	</node>
	<node id="-254384" lat="59.6685999958" lon="11.763161114">
		<tag k="name" v="Trytjenndalen" />
		<tag k="natural" v="valley" />
		<tag k="place" v="locality" />
		<tag k="ssr:stedsnr" v="172208" />
	</node>
	<node id="-254382" lat="59.6526916696" lon="11.7766749918">
		<tag k="fixme" v="consider natural=peak for the most distinct mountains in the district" />
		<tag k="name" v="Morttjennåsen" />
		<tag k="natural" v="hill" />
		<tag k="place" v="locality" />
		<tag k="ssr:stedsnr" v="172185" />
	</node>
	<node id="-252333" lat="59.6742222231" lon="11.8663222193">
		<tag k="alt_name" v="Haglebråtehøgda" />
		<tag k="fixme" v="consider natural=peak for the most distinct mountains in the district" />
		<tag k="name" v="Haglebråtahøgda" />
		<tag k="natural" v="hill" />
		<tag k="place" v="locality" />
		<tag k="ssr:stedsnr" v="671067" />
	</node>
	<node id="-252332" lat="59.9958861073" lon="11.8018499939">
		<tag k="name" v="Kudalen" />
		<tag k="natural" v="valley" />
		<tag k="place" v="locality" />
		<tag k="ssr:stedsnr" v="466923" />
	</node>
	<node id="-252331" lat="59.9906222202" lon="11.8027499928">
		<tag k="fixme" v="consider natural=peak for the most distinct mountains in the district" />
		<tag k="name" v="Damåsen" />
		<tag k="natural" v="hill" />
		<tag k="place" v="locality" />
		<tag k="ssr:stedsnr" v="466921" />
	</node>
	<node id="-254377" lat="59.7290472182" lon="11.8233083272">
		<tag k="fixme" v="consider natural=peak for the most distinct mountains in the district" />
		<tag k="name" v="Kjørkerudåsen" />
		<tag k="natural" v="hill" />
		<tag k="place" v="locality" />
		<tag k="ssr:stedsnr" v="172141" />
	</node>
	<node id="-254375" lat="59.688227779" lon="11.6863722172">
		<tag k="name" v="Bjørndalen" />
		<tag k="natural" v="valley" />
		<tag k="place" v="locality" />
		<tag k="ssr:stedsnr" v="172120" />
	</node>
	<node id="-252326" lat="59.9494083321" lon="11.5537111033">
		<tag k="name" v="Svartehølet" />
		<tag k="natural" v="valley" />
		<tag k="place" v="locality" />
		<tag k="ssr:stedsnr" v="466423" />
	</node>
	<node id="-252325" lat="59.972452777" lon="11.6791722289">
		<tag k="fixme" v="consider natural=peak for the most distinct mountains in the district" />
		<tag k="name" v="Stallåsen" />
		<tag k="natural" v="hill" />
		<tag k="place" v="locality" />
		<tag k="ssr:stedsnr" v="466323" />
	</node>
	<node id="-254372" lat="59.6496888892" lon="11.7327055575">
		<tag k="fixme" v="consider natural=peak for the most distinct mountains in the district" />
		<tag k="name" v="Kasthalla" />
		<tag k="natural" v="hill" />
		<tag k="place" v="locality" />
		<tag k="ssr:stedsnr" v="172090" />
	</node>
	<node id="-254371" lat="59.6574055566" lon="11.7244749939">
		<tag k="name" v="Storlia" />
		<tag k="natural" v="slope" />
		<tag k="place" v="locality" />
		<tag k="ssr:stedsnr" v="172086" />
	</node>
	<node id="-254369" lat="59.6690611106" lon="11.7506416675">
		<tag k="fixme" v="consider natural=peak for the most distinct mountains in the district" />
		<tag k="name" v="Vesle Venås" />
		<tag k="natural" v="hill" />
		<tag k="place" v="locality" />
		<tag k="ssr:stedsnr" v="172064" />
	</node>
	<node id="-252314" lat="59.968688885" lon="11.449863884">
		<tag k="name" v="Grandalen" />
		<tag k="natural" v="valley" />
		<tag k="place" v="locality" />
		<tag k="ssr:stedsnr" v="465008" />
	</node>
	<node id="-252311" lat="59.972625" lon="11.4171416581">
		<tag k="name" v="Fjuktjennlia" />
		<tag k="natural" v="slope" />
		<tag k="place" v="locality" />
		<tag k="ssr:stedsnr" v="465002" />
	</node>
	<node id="-252304" lat="59.9886444442" lon="11.6189944448">
		<tag k="name" v="Asakdalen" />
		<tag k="natural" v="valley" />
		<tag k="place" v="locality" />
		<tag k="ssr:stedsnr" v="464666" />
	</node>
	<node id="-254349" lat="59.7871333351" lon="11.4201916613">
		<tag k="fixme" v="consider natural=peak for the most distinct mountains in the district" />
		<tag k="name" v="Sersjantåsen" />
		<tag k="natural" v="hill" />
		<tag k="place" v="locality" />
		<tag k="ssr:stedsnr" v="163396" />
	</node>
	<node id="-254348" lat="59.9067194444" lon="11.4958583297">
		<tag k="name" v="Smaldalen" />
		<tag k="natural" v="valley" />
		<tag k="place" v="locality" />
		<tag k="ssr:stedsnr" v="163392" />
	</node>
	<node id="-254346" lat="59.9063305547" lon="11.547700007">
		<tag k="name" v="Kvennesdalen" />
		<tag k="natural" v="valley" />
		<tag k="place" v="locality" />
		<tag k="ssr:stedsnr" v="163089" />
	</node>
	<node id="-254345" lat="59.8667305536" lon="11.5972833262">
		<tag k="name" v="Adventdalen" />
		<tag k="natural" v="valley" />
		<tag k="place" v="locality" />
		<tag k="ssr:stedsnr" v="162883" />
	</node>
	<node id="-252296" lat="59.8114944401" lon="11.3419166642">
		<tag k="name" v="Snipptjenndalen" />
		<tag k="natural" v="valley" />
		<tag k="place" v="locality" />
		<tag k="ssr:stedsnr" v="666802" />
	</node>
	<node id="-254342" lat="59.962877779" lon="11.718122219">
		<tag k="name" v="Langmyrliene" />
		<tag k="natural" v="slope" />
		<tag k="place" v="locality" />
		<tag k="ssr:stedsnr" v="162286" />
	</node>
	<node id="-252293" lat="59.845925004" lon="11.7034138914">
		<tag k="fixme" v="consider natural=peak for the most distinct mountains in the district" />
		<tag k="name" v="Oddevaldåsen" />
		<tag k="natural" v="hill" />
		<tag k="place" v="locality" />
		<tag k="ssr:stedsnr" v="666191" />
	</node>
	<node id="-252292" lat="59.8216416645" lon="11.4573416651">
		<tag k="name" v="Fjellsdalen" />
		<tag k="natural" v="valley" />
		<tag k="place" v="locality" />
		<tag k="ssr:stedsnr" v="665900" />
	</node>
	<node id="-251286" lat="59.770605554" lon="11.7532583279">
		<tag k="name" v="Lauvhauga" />
		<tag k="natural" v="hill" />
		<tag k="place" v="locality" />
		<tag k="ssr:stedsnr" v="239104" />
	</node>
	<node id="-254338" lat="60.0181916705" lon="11.5451444447">
		<tag k="fixme" v="consider natural=peak for the most distinct mountains in the district" />
		<tag k="name" v="Djuptjennhøgda" />
		<tag k="natural" v="hill" />
		<tag k="place" v="locality" />
		<tag k="ssr:stedsnr" v="161780" />
	</node>
	<node id="-254336" lat="60.0019888889" lon="11.5300499912">
		<tag k="name" v="Ulvikdalen" />
		<tag k="natural" v="valley" />
		<tag k="place" v="locality" />
		<tag k="ssr:stedsnr" v="161541" />
	</node>
	<node id="-254335" lat="59.9869694463" lon="11.5611055543">
		<tag k="fixme" v="consider natural=peak for the most distinct mountains in the district" />
		<tag k="name" v="Rundtjennhøgda" />
		<tag k="natural" v="hill" />
		<tag k="place" v="locality" />
		<tag k="ssr:stedsnr" v="161603" />
	</node>
	<node id="-251626" lat="59.8955583297" lon="11.6979194513">
		<tag k="name" v="Grønkollia" />
		<tag k="natural" v="slope" />
		<tag k="place" v="locality" />
		<tag k="ssr:stedsnr" v="285799" />
	</node>
	<node id="-252282" lat="59.8552749981" lon="11.4685722138">
		<tag k="fixme" v="consider natural=peak for the most distinct mountains in the district" />
		<tag k="name" v="Signalen" />
		<tag k="natural" v="hill" />
		<tag k="place" v="locality" />
		<tag k="ssr:stedsnr" v="665609" />
	</node>
	<node id="-252281" lat="59.6211027802" lon="11.5116916727">
		<tag k="fixme" v="consider natural=peak for the most distinct mountains in the district" />
		<tag k="name" v="Marikollen" />
		<tag k="natural" v="hill" />
		<tag k="place" v="locality" />
		<tag k="ssr:stedsnr" v="665563" />
	</node>
	<node id="-254328" lat="59.7993138908" lon="11.7548416628">
		<tag k="name" v="Langedal" />
		<tag k="natural" v="valley" />
		<tag k="place" v="locality" />
		<tag k="ssr:stedsnr" v="161095" />
	</node>
	<node id="-252279" lat="59.896758335" lon="11.7772194438">
		<tag k="name" v="Maikollen" />
		<tag k="natural" v="hill" />
		<tag k="place" v="locality" />
		<tag k="ssr:stedsnr" v="665494" />
	</node>
	<node id="-254323" lat="59.8998916701" lon="11.3773777746">
		<tag k="name" v="Deledalen" />
		<tag k="natural" v="valley" />
		<tag k="place" v="locality" />
		<tag k="ssr:stedsnr" v="300288" />
	</node>
	<node id="-254321" lat="59.8912555574" lon="11.3890944364">
		<tag k="name" v="Putthøgda" />
		<tag k="natural" v="hill" />
		<tag k="place" v="locality" />
		<tag k="ssr:stedsnr" v="300282" />
	</node>
	<node id="-251624" lat="59.848144449" lon="11.5848694392">
		<tag k="fixme" v="consider natural=peak for the most distinct mountains in the district" />
		<tag k="name" v="Langåsen" />
		<tag k="natural" v="hill" />
		<tag k="place" v="locality" />
		<tag k="ssr:stedsnr" v="285772" />
	</node>
	<node id="-254318" lat="59.9309055552" lon="11.7279999972">
		<tag k="fixme" v="consider natural=peak for the most distinct mountains in the district" />
		<tag k="name" v="Tommeltjennåsen" />
		<tag k="natural" v="hill" />
		<tag k="place" v="locality" />
		<tag k="ssr:stedsnr" v="300273" />
	</node>
	<node id="-254317" lat="59.9247166688" lon="11.7096638966">
		<tag k="name" v="Garsjølia" />
		<tag k="natural" v="slope" />
		<tag k="place" v="locality" />
		<tag k="ssr:stedsnr" v="300267" />
	</node>
	<node id="-252268" lat="59.919908333" lon="11.6665583305">
		<tag k="fixme" v="consider natural=peak for the most distinct mountains in the district" />
		<tag k="name" v="Røyåsen" />
		<tag k="natural" v="hill" />
		<tag k="place" v="locality" />
		<tag k="ssr:stedsnr" v="664612" />
	</node>
	<node id="-252267" lat="59.8855888859" lon="11.4218638806">
		<tag k="name" v="Svarttjenndalen" />
		<tag k="natural" v="valley" />
		<tag k="place" v="locality" />
		<tag k="ssr:stedsnr" v="664240" />
	</node>
	<node id="-252266" lat="59.8871583299" lon="11.3979333325">
		<tag k="name" v="Stenstjenndalen" />
		<tag k="natural" v="valley" />
		<tag k="place" v="locality" />
		<tag k="ssr:stedsnr" v="664236" />
	</node>
	<node id="-254311" lat="59.7117305519" lon="11.3820555465">
		<tag k="name" v="Stordalen" />
		<tag k="natural" v="valley" />
		<tag k="place" v="locality" />
		<tag k="ssr:stedsnr" v="143179" />
	</node>
	<node id="-252260" lat="59.8272555536" lon="11.6117500016">
		<tag k="name" v="Hovrøysa" />
		<tag k="natural" v="valley" />
		<tag k="place" v="locality" />
		<tag k="ssr:stedsnr" v="663364" />
	</node>
	<node id="-254307" lat="59.9755166706" lon="11.7680361118">
		<tag k="alt_name" v="Mangknollen" />
		<tag k="fixme" v="multiple name tags, choose one and add the other to alt_name; consider natural=peak for the most distinct mountains in the district" />
		<tag k="name" v="Knollen;Mangeknatten" />
		<tag k="natural" v="hill" />
		<tag k="place" v="locality" />
		<tag k="ssr:stedsnr" v="126993" />
	</node>
	<node id="-252252" lat="59.8204916662" lon="11.4737222211">
		<tag k="fixme" v="consider natural=peak for the most distinct mountains in the district" />
		<tag k="name" v="Ormåsen" />
		<tag k="natural" v="hill" />
		<tag k="place" v="locality" />
		<tag k="ssr:stedsnr" v="662149" />
	</node>
	<node id="-252248" lat="60.0010750009" lon="11.7213111165">
		<tag k="alt_name" v="Tallholen" />
		<tag k="fixme" v="consider natural=peak for the most distinct mountains in the district" />
		<tag k="name" v="Tallhorn" />
		<tag k="natural" v="hill" />
		<tag k="place" v="locality" />
		<tag k="ssr:stedsnr" v="661183" />
	</node>
	<node id="-252235" lat="59.7227861099" lon="11.8281888847">
		<tag k="fixme" v="consider natural=peak for the most distinct mountains in the district" />
		<tag k="name" v="Kørråsen" />
		<tag k="natural" v="hill" />
		<tag k="place" v="locality" />
		<tag k="ssr:stedsnr" v="657155" />
	</node>
	<node id="-254280" lat="59.9765194459" lon="11.4543861076">
		<tag k="fixme" v="consider natural=peak for the most distinct mountains in the district" />
		<tag k="name" v="Gåsebrenna" />
		<tag k="natural" v="hill" />
		<tag k="place" v="locality" />
		<tag k="ssr:stedsnr" v="126450" />
	</node>
	<node id="-252231" lat="59.7687388847" lon="11.8247027843">
		<tag k="fixme" v="consider natural=peak for the most distinct mountains in the district" />
		<tag k="name" v="Libakkåsen" />
		<tag k="natural" v="hill" />
		<tag k="place" v="locality" />
		<tag k="ssr:stedsnr" v="657018" />
	</node>
	<node id="-254276" lat="59.7701138913" lon="11.6575722276">
		<tag k="fixme" v="consider natural=peak for the most distinct mountains in the district" />
		<tag k="name" v="Piperhjell" />
		<tag k="natural" v="hill" />
		<tag k="place" v="locality" />
		<tag k="ssr:stedsnr" v="126428" />
	</node>
	<node id="-254275" lat="59.7708277811" lon="11.6975166687">
		<tag k="name" v="Gaupetjennhøgda" />
		<tag k="natural" v="hill" />
		<tag k="place" v="locality" />
		<tag k="ssr:stedsnr" v="126427" />
	</node>
	<node id="-252213" lat="59.842555552" lon="11.4112027754">
		<tag k="alt_name" v="Aurtjennåsen" />
		<tag k="fixme" v="consider natural=peak for the most distinct mountains in the district" />
		<tag k="name" v="Auretjennåsen" />
		<tag k="natural" v="hill" />
		<tag k="place" v="locality" />
		<tag k="ssr:stedsnr" v="430735" />
	</node>
	<node id="-252211" lat="59.7762444483" lon="11.7102472207">
		<tag k="name" v="Bolstadhøgda" />
		<tag k="natural" v="hill" />
		<tag k="place" v="locality" />
		<tag k="ssr:stedsnr" v="430429" />
	</node>
	<node id="-254257" lat="59.8876277797" lon="11.5139305487">
		<tag k="alt_name" v="Oredalen" />
		<tag k="name" v="Åredalen" />
		<tag k="natural" v="valley" />
		<tag k="place" v="locality" />
		<tag k="ssr:stedsnr" v="126186" />
	</node>
	<node id="-252208" lat="59.7695277769" lon="11.727391669">
		<tag k="fixme" v="consider natural=peak for the most distinct mountains in the district" />
		<tag k="name" v="Hallangsberga" />
		<tag k="natural" v="hill" />
		<tag k="place" v="locality" />
		<tag k="ssr:stedsnr" v="430412" />
	</node>
	<node id="-254039" lat="59.8058444475" lon="11.5131694488">
		<tag k="fixme" v="consider natural=peak for the most distinct mountains in the district" />
		<tag k="name" v="Surkaåsen" />
		<tag k="natural" v="hill" />
		<tag k="place" v="locality" />
		<tag k="ssr:stedsnr" v="101013" />
	</node>
	<node id="-252206" lat="59.8610277768" lon="11.8165749916">
		<tag k="fixme" v="consider natural=peak for the most distinct mountains in the district" />
		<tag k="name" v="Bruremyråsen" />
		<tag k="natural" v="hill" />
		<tag k="place" v="locality" />
		<tag k="ssr:stedsnr" v="430140" />
	</node>
	<node id="-254252" lat="59.8610416644" lon="11.697991662">
		<tag k="name" v="Lidalen" />
		<tag k="natural" v="valley" />
		<tag k="place" v="locality" />
		<tag k="ssr:stedsnr" v="126126" />
	</node>
	<node id="-254789" lat="59.9780333328" lon="11.4638361121">
		<tag k="name" v="Rugholet" />
		<tag k="place" v="locality" />
		<tag k="ssr:stedsnr" v="343115" />
	</node>
	<node id="-254448" lat="59.7904000033" lon="11.3820000028">
		<tag k="fixme" v="consider natural=peak for the most distinct mountains in the district" />
		<tag k="name" v="Skårerhøgda" />
		<tag k="natural" v="hill" />
		<tag k="place" v="locality" />
		<tag k="ssr:stedsnr" v="180873" />
	</node>
	<node id="-254247" lat="59.936091664" lon="11.771824992">
		<tag k="fixme" v="consider natural=peak for the most distinct mountains in the district" />
		<tag k="name" v="Lustjennåsen" />
		<tag k="natural" v="hill" />
		<tag k="place" v="locality" />
		<tag k="ssr:stedsnr" v="126086" />
	</node>
	<node id="-254246" lat="59.9359250013" lon="11.5347999966">
		<tag k="fixme" v="consider natural=peak for the most distinct mountains in the district" />
		<tag k="name" v="Dingsrudåsen" />
		<tag k="natural" v="hill" />
		<tag k="place" v="locality" />
		<tag k="ssr:stedsnr" v="126079" />
	</node>
	<node id="-254243" lat="59.9290638856" lon="11.7774333281">
		<tag k="name" v="Gravdalen" />
		<tag k="natural" v="valley" />
		<tag k="place" v="locality" />
		<tag k="ssr:stedsnr" v="126032" />
	</node>
	<node id="-254234" lat="59.81558056" lon="11.3844027795">
		<tag k="fixme" v="consider natural=peak for the most distinct mountains in the district" />
		<tag k="name" v="Moåsen" />
		<tag k="natural" v="hill" />
		<tag k="place" v="locality" />
		<tag k="ssr:stedsnr" v="125823" />
	</node>
	<node id="-252184" lat="59.8642972238" lon="11.5977722218">
		<tag k="name" v="Vestre Opptjennhøgda" />
		<tag k="natural" v="hill" />
		<tag k="place" v="locality" />
		<tag k="ssr:stedsnr" v="429130" />
	</node>
	<node id="-254226" lat="59.819480556" lon="11.4132388828">
		<tag k="fixme" v="consider natural=peak for the most distinct mountains in the district" />
		<tag k="name" v="Lunderåsen" />
		<tag k="natural" v="hill" />
		<tag k="place" v="locality" />
		<tag k="ssr:stedsnr" v="125777" />
	</node>
	<node id="-251267" lat="59.9508333298" lon="11.6311055541">
		<tag k="name" v="Ormetjenndalen" />
		<tag k="natural" v="valley" />
		<tag k="place" v="locality" />
		<tag k="ssr:stedsnr" v="56259" />
	</node>
	<node id="-254224" lat="59.8596499988" lon="11.3598222203">
		<tag k="name" v="Stordalen" />
		<tag k="natural" v="valley" />
		<tag k="place" v="locality" />
		<tag k="ssr:stedsnr" v="125727" />
	</node>
	<node id="-252175" lat="59.6317666651" lon="11.530830549">
		<tag k="name" v="Revedråga" />
		<tag k="natural" v="valley" />
		<tag k="place" v="locality" />
		<tag k="ssr:stedsnr" v="423726" />
	</node>
	<node id="-254221" lat="59.73423056" lon="11.7565833315">
		<tag k="alt_name" v="Kattebuhea" />
		<tag k="fixme" v="consider natural=peak for the most distinct mountains in the district" />
		<tag k="name" v="Kattebuheia" />
		<tag k="natural" v="hill" />
		<tag k="place" v="locality" />
		<tag k="ssr:stedsnr" v="125697" />
	</node>
	<node id="-252172" lat="59.6451944417" lon="11.5272638862">
		<tag k="fixme" v="consider natural=peak for the most distinct mountains in the district" />
		<tag k="name" v="Vesletjennhøgda" />
		<tag k="natural" v="hill" />
		<tag k="place" v="locality" />
		<tag k="ssr:stedsnr" v="423714" />
	</node>
	<node id="-251266" lat="59.8308833313" lon="11.3041638949">
		<tag k="fixme" v="consider natural=peak for the most distinct mountains in the district" />
		<tag k="name" v="Vestre Svarttjennhøgda" />
		<tag k="natural" v="hill" />
		<tag k="place" v="locality" />
		<tag k="ssr:stedsnr" v="237739" />
	</node>
	<node id="-252167" lat="59.887625002" lon="11.7808555601">
		<tag k="name" v="Langsruddalen" />
		<tag k="natural" v="valley" />
		<tag k="place" v="locality" />
		<tag k="ssr:stedsnr" v="423547" />
	</node>
	<node id="-252164" lat="59.8985166681" lon="11.4500916597">
		<tag k="fixme" v="consider natural=peak for the most distinct mountains in the district" />
		<tag k="name" v="Fossåsen" />
		<tag k="natural" v="hill" />
		<tag k="place" v="locality" />
		<tag k="ssr:stedsnr" v="423525" />
	</node>
	<node id="-252163" lat="59.8651555566" lon="11.8298055579">
		<tag k="fixme" v="consider natural=peak for the most distinct mountains in the district" />
		<tag k="name" v="Skjærtjennhøgda" />
		<tag k="natural" v="hill" />
		<tag k="place" v="locality" />
		<tag k="ssr:stedsnr" v="423241" />
	</node>
	<node id="-252162" lat="59.8557694487" lon="11.7498833335">
		<tag k="name" v="Rennelia" />
		<tag k="natural" v="slope" />
		<tag k="place" v="locality" />
		<tag k="ssr:stedsnr" v="423235" />
	</node>
	<node id="-254204" lat="59.704255551" lon="11.7851083415">
		<tag k="fixme" v="consider natural=peak for the most distinct mountains in the district" />
		<tag k="name" v="Damtjennåsen" />
		<tag k="natural" v="hill" />
		<tag k="place" v="locality" />
		<tag k="ssr:stedsnr" v="125358" />
	</node>
	<node id="-254201" lat="59.839627778" lon="11.7260222144">
		<tag k="fixme" v="consider natural=peak for the most distinct mountains in the district" />
		<tag k="name" v="Morttjennåsen" />
		<tag k="natural" v="hill" />
		<tag k="place" v="locality" />
		<tag k="ssr:stedsnr" v="125335" />
	</node>
	<node id="-252152" lat="59.8805833372" lon="11.736652773">
		<tag k="name" v="Åsvasslia" />
		<tag k="natural" v="slope" />
		<tag k="place" v="locality" />
		<tag k="ssr:stedsnr" v="421707" />
	</node>
	<node id="-254199" lat="59.6403027807" lon="11.7600361077">
		<tag k="fixme" v="consider natural=peak for the most distinct mountains in the district" />
		<tag k="name" v="Oksetjennhøgda" />
		<tag k="natural" v="hill" />
		<tag k="place" v="locality" />
		<tag k="ssr:stedsnr" v="125330" />
	</node>
	<node id="-252148" lat="59.8796555533" lon="11.6631527835">
		<tag k="fixme" v="consider natural=peak for the most distinct mountains in the district" />
		<tag k="name" v="Grubeåsen" />
		<tag k="natural" v="hill" />
		<tag k="place" v="locality" />
		<tag k="ssr:stedsnr" v="420613" />
	</node>
	<node id="-252146" lat="59.8854194419" lon="11.6748944438">
		<tag k="name" v="Breisjølia" />
		<tag k="natural" v="slope" />
		<tag k="place" v="locality" />
		<tag k="ssr:stedsnr" v="420608" />
	</node>
	<node id="-252145" lat="59.8016499962" lon="11.3724611032">
		<tag k="name" v="Holeåsen" />
		<tag k="natural" v="hill" />
		<tag k="place" v="locality" />
		<tag k="ssr:stedsnr" v="419929" />
	</node>
	<node id="-252144" lat="59.8063833307" lon="11.3530416716">
		<tag k="name" v="Eriksdalen" />
		<tag k="natural" v="valley" />
		<tag k="place" v="locality" />
		<tag k="ssr:stedsnr" v="419924" />
	</node>
	<node id="-252143" lat="59.8630944458" lon="11.5280111131">
		<tag k="fixme" v="consider natural=peak for the most distinct mountains in the district" />
		<tag k="name" v="Mannåsen" />
		<tag k="natural" v="hill" />
		<tag k="place" v="locality" />
		<tag k="ssr:stedsnr" v="419910" />
	</node>
	<node id="-252137" lat="59.9468888923" lon="11.5774972223">
		<tag k="fixme" v="consider natural=peak for the most distinct mountains in the district" />
		<tag k="name" v="Børtåsen" />
		<tag k="natural" v="hill" />
		<tag k="place" v="locality" />
		<tag k="ssr:stedsnr" v="406469" />
	</node>
	<node id="-252132" lat="59.9841361102" lon="11.4808194482">
		<tag k="name" v="Tangedalen" />
		<tag k="natural" v="valley" />
		<tag k="place" v="locality" />
		<tag k="ssr:stedsnr" v="405358" />
	</node>
	<node id="-254176" lat="59.9250500008" lon="11.6261833423">
		<tag k="name" v="Promlia" />
		<tag k="natural" v="slope" />
		<tag k="place" v="locality" />
		<tag k="ssr:stedsnr" v="120574" />
	</node>
	<node id="-252127" lat="59.7961499956" lon="11.6330805566">
		<tag k="fixme" v="consider natural=peak for the most distinct mountains in the district" />
		<tag k="name" v="Lystjennhøgda" />
		<tag k="natural" v="hill" />
		<tag k="place" v="locality" />
		<tag k="ssr:stedsnr" v="404215" />
	</node>
	<node id="-254170" lat="59.9677722187" lon="11.670727781">
		<tag k="name" v="Vestre Ormemyrholen" />
		<tag k="natural" v="ridge" />
		<tag k="place" v="locality" />
		<tag k="ssr:stedsnr" v="120155" />
	</node>
	<node id="-254167" lat="59.9665722239" lon="11.59119445">
		<tag k="fixme" v="consider natural=peak for the most distinct mountains in the district" />
		<tag k="name" v="Vivangen" />
		<tag k="natural" v="hill" />
		<tag k="place" v="locality" />
		<tag k="ssr:stedsnr" v="120113" />
	</node>
	<node id="-254165" lat="59.8090166645" lon="11.5074888969">
		<tag k="fixme" v="consider natural=peak for the most distinct mountains in the district" />
		<tag k="name" v="Lemåsen" />
		<tag k="natural" v="hill" />
		<tag k="place" v="locality" />
		<tag k="ssr:stedsnr" v="119942" />
	</node>
	<node id="-252114" lat="59.7737361135" lon="11.7487972188">
		<tag k="name" v="Trollkjerka" />
		<tag k="place" v="locality" />
		<tag k="ssr:stedsnr" v="299090" />
	</node>
	<node id="-254158" lat="59.7354055595" lon="11.624188897">
		<tag k="name" v="Djupedal" />
		<tag k="natural" v="valley" />
		<tag k="place" v="locality" />
		<tag k="ssr:stedsnr" v="119623" />
	</node>
	<node id="-252109" lat="59.998841671" lon="11.6465444438">
		<tag k="name" v="Sinkerudlia" />
		<tag k="natural" v="slope" />
		<tag k="place" v="locality" />
		<tag k="ssr:stedsnr" v="403706" />
	</node>
	<node id="-252105" lat="59.8957722261" lon="11.5098972195">
		<tag k="fixme" v="consider natural=peak for the most distinct mountains in the district" />
		<tag k="name" v="Svarttjennhøgda" />
		<tag k="natural" v="hill" />
		<tag k="place" v="locality" />
		<tag k="ssr:stedsnr" v="368249" />
	</node>
	<node id="-252102" lat="59.6529027812" lon="11.8350249996">
		<tag k="name" v="Kornbråtdalen" />
		<tag k="natural" v="valley" />
		<tag k="place" v="locality" />
		<tag k="ssr:stedsnr" v="367195" />
	</node>
	<node id="-252099" lat="59.7725916691" lon="11.3702916588">
		<tag k="fixme" v="consider natural=peak for the most distinct mountains in the district" />
		<tag k="name" v="Brannsberga" />
		<tag k="natural" v="hill" />
		<tag k="place" v="locality" />
		<tag k="ssr:stedsnr" v="362962" />
	</node>
	<node id="-254144" lat="59.9513388881" lon="11.7768444474">
		<tag k="name" v="Knatteliene" />
		<tag k="natural" v="slope" />
		<tag k="place" v="locality" />
		<tag k="ssr:stedsnr" v="119402" />
	</node>
	<node id="-252095" lat="59.9289861105" lon="11.7951111141">
		<tag k="name" v="Lauvtjenntangen" />
		<tag k="natural" v="ridge" />
		<tag k="place" v="locality" />
		<tag k="ssr:stedsnr" v="362422" />
	</node>
	<node id="-252092" lat="59.9675277794" lon="11.5791722284">
		<tag k="name" v="Harekleiva" />
		<tag k="natural" v="slope" />
		<tag k="place" v="locality" />
		<tag k="ssr:stedsnr" v="362115" />
	</node>
	<node id="-252089" lat="59.6187472258" lon="11.4801805471">
		<tag k="fixme" v="consider natural=peak for the most distinct mountains in the district" />
		<tag k="name" v="Kastås" />
		<tag k="natural" v="hill" />
		<tag k="place" v="locality" />
		<tag k="ssr:stedsnr" v="361759" />
	</node>
	<node id="-251593" lat="59.9089166697" lon="11.3983777851">
		<tag k="name" v="Persbråtadalen" />
		<tag k="natural" v="valley" />
		<tag k="place" v="locality" />
		<tag k="ssr:stedsnr" v="179305" />
	</node>
	<node id="-254130" lat="59.8936333362" lon="11.4560611053">
		<tag k="fixme" v="consider natural=peak for the most distinct mountains in the district" />
		<tag k="name" v="Budikken" />
		<tag k="natural" v="hill" />
		<tag k="place" v="locality" />
		<tag k="ssr:stedsnr" v="118350" />
	</node>
	<node id="-252081" lat="59.7952111095" lon="11.4073888906">
		<tag k="fixme" v="consider natural=peak for the most distinct mountains in the district" />
		<tag k="name" v="Haugåsen" />
		<tag k="natural" v="hill" />
		<tag k="place" v="locality" />
		<tag k="ssr:stedsnr" v="298965" />
	</node>
	<node id="-254128" lat="59.954183336" lon="11.373672223">
		<tag k="name" v="Hekkendalskleiva" />
		<tag k="natural" v="slope" />
		<tag k="place" v="locality" />
		<tag k="ssr:stedsnr" v="118267" />
	</node>
	<node id="-254126" lat="59.7619527814" lon="11.5711500055">
		<tag k="name" v="Grofsa" />
		<tag k="natural" v="valley" />
		<tag k="place" v="locality" />
		<tag k="ssr:stedsnr" v="118047" />
	</node>
	<node id="-252077" lat="59.8776249995" lon="11.4696055636">
		<tag k="name" v="Kvekula" />
		<tag k="natural" v="hill" />
		<tag k="place" v="locality" />
		<tag k="ssr:stedsnr" v="360324" />
	</node>
	<node id="-254122" lat="59.9582222192" lon="11.413441667">
		<tag k="fixme" v="consider natural=peak for the most distinct mountains in the district" />
		<tag k="name" v="Øståsen" />
		<tag k="natural" v="hill" />
		<tag k="place" v="locality" />
		<tag k="ssr:stedsnr" v="117474" />
	</node>
	<node id="-254121" lat="59.9591083325" lon="11.4370638872">
		<tag k="name" v="Bråtaåsen" />
		<tag k="natural" v="slope" />
		<tag k="place" v="locality" />
		<tag k="ssr:stedsnr" v="117473" />
	</node>
	<node id="-254120" lat="59.9382888912" lon="11.5015444383">
		<tag k="name" v="Badstuåsen" />
		<tag k="natural" v="hill" />
		<tag k="place" v="locality" />
		<tag k="ssr:stedsnr" v="117471" />
	</node>
	<node id="-252064" lat="59.8700000027" lon="11.5168861157">
		<tag k="name" v="Gøranåsen" />
		<tag k="natural" v="hill" />
		<tag k="place" v="locality" />
		<tag k="ssr:stedsnr" v="358867" />
	</node>
	<node id="-254109" lat="59.6378555529" lon="11.7571194473">
		<tag k="fixme" v="consider natural=peak for the most distinct mountains in the district" />
		<tag k="name" v="Østrekollen" />
		<tag k="natural" v="hill" />
		<tag k="place" v="locality" />
		<tag k="ssr:stedsnr" v="111198" />
	</node>
	<node id="-254106" lat="59.6751555584" lon="11.8654611145">
		<tag k="name" v="Kukleiva" />
		<tag k="place" v="locality" />
		<tag k="ssr:stedsnr" v="111186" />
	</node>
	<node id="-254102" lat="59.6610999976" lon="11.8116611089">
		<tag k="fixme" v="consider natural=peak for the most distinct mountains in the district" />
		<tag k="name" v="Nybruhøgda" />
		<tag k="natural" v="hill" />
		<tag k="place" v="locality" />
		<tag k="ssr:stedsnr" v="111060" />
	</node>
	<node id="-253977" lat="59.74235556" lon="11.5122611081">
		<tag k="alt_name" v="Kinnarlundsfjella" />
		<tag k="name" v="Kinnerlundsfjella" />
		<tag k="natural" v="hill" />
		<tag k="place" v="locality" />
		<tag k="ssr:stedsnr" v="65685" />
	</node>
	<node id="-254098" lat="59.6848805523" lon="11.8459249937">
		<tag k="fixme" v="consider natural=peak for the most distinct mountains in the district" />
		<tag k="name" v="Kisteholmhøgda" />
		<tag k="natural" v="hill" />
		<tag k="place" v="locality" />
		<tag k="ssr:stedsnr" v="111153" />
	</node>
	<node id="-252048" lat="59.7934944411" lon="11.3390111055">
		<tag k="name" v="Knektedalen" />
		<tag k="natural" v="valley" />
		<tag k="place" v="locality" />
		<tag k="ssr:stedsnr" v="490817" />
	</node>
	<node id="-252045" lat="59.9080611095" lon="11.3429527852">
		<tag k="name" v="Vinterdalen" />
		<tag k="natural" v="valley" />
		<tag k="place" v="locality" />
		<tag k="ssr:stedsnr" v="490608" />
	</node>
	<node id="-254090" lat="59.7540638893" lon="11.760247225">
		<tag k="name" v="Karisdalen" />
		<tag k="natural" v="valley" />
		<tag k="place" v="locality" />
		<tag k="ssr:stedsnr" v="111016" />
	</node>
	<node id="-252041" lat="59.9189472226" lon="11.3371944435">
		<tag k="name" v="Sjødalen" />
		<tag k="natural" v="valley" />
		<tag k="place" v="locality" />
		<tag k="ssr:stedsnr" v="490576" />
	</node>
	<node id="-254657" lat="59.7371111144" lon="11.8435138854">
		<tag k="fixme" v="consider natural=peak for the most distinct mountains in the district" />
		<tag k="name" v="Lommetjennsåsen" />
		<tag k="natural" v="hill" />
		<tag k="place" v="locality" />
		<tag k="ssr:stedsnr" v="307656" />
	</node>
	<node id="-252030" lat="59.7883694436" lon="11.7497861111">
		<tag k="fixme" v="consider natural=peak for the most distinct mountains in the district" />
		<tag k="name" v="Vestre Hauketjennkollen" />
		<tag k="natural" v="hill" />
		<tag k="place" v="locality" />
		<tag k="ssr:stedsnr" v="490442" />
	</node>
	<node id="-252029" lat="59.7837583364" lon="11.6283249935">
		<tag k="alt_name" v="Bråtehøgda" />
		<tag k="name" v="Bråtåhøgda" />
		<tag k="natural" v="hill" />
		<tag k="place" v="locality" />
		<tag k="ssr:stedsnr" v="490440" />
	</node>
	<node id="-254314" lat="59.6725388919" lon="11.4382138936">
		<tag k="name" v="Gukilhøgda" />
		<tag k="natural" v="hill" />
		<tag k="place" v="locality" />
		<tag k="ssr:stedsnr" v="144260" />
	</node>
	<node id="-254072" lat="59.900716664" lon="11.4837305503">
		<tag k="fixme" v="consider natural=peak for the most distinct mountains in the district" />
		<tag k="name" v="Signalåsen" />
		<tag k="natural" v="hill" />
		<tag k="place" v="locality" />
		<tag k="ssr:stedsnr" v="102498" />
	</node>
	<node id="-251241" lat="59.7896499999" lon="11.888686109">
		<tag k="fixme" v="consider natural=peak for the most distinct mountains in the district" />
		<tag k="name" v="Bjønnehihøgda" />
		<tag k="natural" v="hill" />
		<tag k="place" v="locality" />
		<tag k="ssr:stedsnr" v="240726" />
	</node>
	<node id="-254068" lat="59.9848555555" lon="11.4669083389">
		<tag k="name" v="Javelsbrudalen" />
		<tag k="natural" v="valley" />
		<tag k="place" v="locality" />
		<tag k="ssr:stedsnr" v="102408" />
	</node>
	<node id="-254067" lat="59.9977999978" lon="11.5102888828">
		<tag k="fixme" v="consider natural=peak for the most distinct mountains in the district" />
		<tag k="name" v="Høldalsåsen" />
		<tag k="natural" v="hill" />
		<tag k="place" v="locality" />
		<tag k="ssr:stedsnr" v="102402" />
	</node>
	<node id="-254066" lat="59.9851638918" lon="11.5289638898">
		<tag k="name" v="Petterberget" />
		<tag k="place" v="locality" />
		<tag k="ssr:stedsnr" v="102388" />
	</node>
	<node id="-252014" lat="59.8566944421" lon="11.8183361055">
		<tag k="name" v="Eikeheihøgda" />
		<tag k="natural" v="hill" />
		<tag k="place" v="locality" />
		<tag k="ssr:stedsnr" v="490349" />
	</node>
	<node id="-254653" lat="59.7189500031" lon="11.8741055642">
		<tag k="fixme" v="consider natural=peak for the most distinct mountains in the district" />
		<tag k="name" v="Svartebotthøgda" />
		<tag k="natural" v="hill" />
		<tag k="place" v="locality" />
		<tag k="ssr:stedsnr" v="307425" />
	</node>
	<node id="-254056" lat="59.9146305543" lon="11.624697215">
		<tag k="name" v="Steindalen" />
		<tag k="natural" v="valley" />
		<tag k="place" v="locality" />
		<tag k="ssr:stedsnr" v="102107" />
	</node>
	<node id="-254050" lat="59.9291194483" lon="11.5151722244">
		<tag k="alt_name" v="Østbergåsen" />
		<tag k="fixme" v="consider natural=peak for the most distinct mountains in the district" />
		<tag k="name" v="Østbergeråsen" />
		<tag k="natural" v="hill" />
		<tag k="place" v="locality" />
		<tag k="ssr:stedsnr" v="101631" />
	</node>
	<node id="-254045" lat="59.9471444481" lon="11.6608833258">
		<tag k="fixme" v="consider natural=peak for the most distinct mountains in the district" />
		<tag k="name" v="Larstjennåsen" />
		<tag k="natural" v="hill" />
		<tag k="place" v="locality" />
		<tag k="ssr:stedsnr" v="101099" />
	</node>
	<node id="-254044" lat="59.9394583303" lon="11.6855138867">
		<tag k="name" v="Halvorsrudtangen" />
		<tag k="natural" v="hill" />
		<tag k="place" v="locality" />
		<tag k="ssr:stedsnr" v="101090" />
	</node>
	<node id="-254041" lat="59.9461027784" lon="11.73687777">
		<tag k="name" v="Revberget" />
		<tag k="natural" v="hill" />
		<tag k="place" v="locality" />
		<tag k="ssr:stedsnr" v="101052" />
	</node>
	<node id="-251991" lat="59.9369500036" lon="11.629505558">
		<tag k="fixme" v="consider natural=peak for the most distinct mountains in the district" />
		<tag k="name" v="Holtemyråsen" />
		<tag k="natural" v="hill" />
		<tag k="place" v="locality" />
		<tag k="ssr:stedsnr" v="490086" />
	</node>
	<node id="-254036" lat="60.0123638874" lon="11.5760444396">
		<tag k="name" v="Sælaputtronget" />
		<tag k="place" v="locality" />
		<tag k="ssr:stedsnr" v="100764" />
	</node>
	<node id="-251986" lat="59.9909500007" lon="11.4826499973">
		<tag k="name" v="Delingsdalen" />
		<tag k="natural" v="valley" />
		<tag k="place" v="locality" />
		<tag k="ssr:stedsnr" v="490966" />
	</node>
	<node id="-251983" lat="59.9915833359" lon="11.7788722232">
		<tag k="fixme" v="consider natural=peak for the most distinct mountains in the district" />
		<tag k="name" v="Sagåsen" />
		<tag k="natural" v="hill" />
		<tag k="place" v="locality" />
		<tag k="ssr:stedsnr" v="489949" />
	</node>
	<node id="-254029" lat="60.0178145856" lon="11.5248553493">
		<tag k="fixme" v="consider natural=peak for the most distinct mountains in the district" />
		<tag k="name" v="Søndre Tjuvknatten" />
		<tag k="natural" v="hill" />
		<tag k="place" v="locality" />
		<tag k="ssr:stedsnr" v="100755" />
	</node>
	<node id="-254023" lat="59.7567416699" lon="11.5934527692">
		<tag k="name" v="Vestre Mørkomdalen" />
		<tag k="natural" v="valley" />
		<tag k="place" v="locality" />
		<tag k="ssr:stedsnr" v="100038" />
	</node>
	<node id="-254020" lat="59.7583083352" lon="11.3936638854">
		<tag k="name" v="Lintjennhøgda" />
		<tag k="natural" v="hill" />
		<tag k="place" v="locality" />
		<tag k="ssr:stedsnr" v="83212" />
	</node>
	<node id="-251968" lat="59.7193361146" lon="11.9249555488">
		<tag k="fixme" v="consider natural=peak for the most distinct mountains in the district" />
		<tag k="name" v="Grasås" />
		<tag k="natural" v="hill" />
		<tag k="place" v="locality" />
		<tag k="ssr:stedsnr" v="489433" />
	</node>
	<node id="-251967" lat="59.6981472195" lon="11.878286105">
		<tag k="fixme" v="consider natural=peak for the most distinct mountains in the district" />
		<tag k="name" v="Vardekollen" />
		<tag k="natural" v="hill" />
		<tag k="place" v="locality" />
		<tag k="ssr:stedsnr" v="489425" />
	</node>
	<node id="-251964" lat="59.6933527817" lon="11.5537999937">
		<tag k="fixme" v="consider natural=peak for the most distinct mountains in the district" />
		<tag k="name" v="Vaktåsen" />
		<tag k="natural" v="hill" />
		<tag k="place" v="locality" />
		<tag k="ssr:stedsnr" v="489371" />
	</node>
	<node id="-254011" lat="59.7872249994" lon="11.4331861136">
		<tag k="fixme" v="consider natural=peak for the most distinct mountains in the district" />
		<tag k="name" v="Bergåsen" />
		<tag k="natural" v="hill" />
		<tag k="place" v="locality" />
		<tag k="ssr:stedsnr" v="66863" />
	</node>
	<node id="-251958" lat="59.898213886" lon="11.4877111148">
		<tag k="fixme" v="consider natural=peak for the most distinct mountains in the district" />
		<tag k="name" v="Toverudåsen" />
		<tag k="natural" v="hill" />
		<tag k="place" v="locality" />
		<tag k="ssr:stedsnr" v="489265" />
	</node>
	<node id="-254005" lat="59.8516055599" lon="11.4701944467">
		<tag k="fixme" v="consider natural=peak for the most distinct mountains in the district" />
		<tag k="name" v="Maltjennåsen" />
		<tag k="natural" v="hill" />
		<tag k="place" v="locality" />
		<tag k="ssr:stedsnr" v="66358" />
	</node>
	<node id="-254003" lat="59.8560833358" lon="11.7773805476">
		<tag k="name" v="Skåltjenndalen" />
		<tag k="natural" v="valley" />
		<tag k="place" v="locality" />
		<tag k="ssr:stedsnr" v="66354" />
	</node>
	<node id="-251953" lat="60.0026861086" lon="11.8314888906">
		<tag k="name" v="Havsjølia" />
		<tag k="natural" v="slope" />
		<tag k="place" v="locality" />
		<tag k="ssr:stedsnr" v="345910" />
	</node>
	<node id="-253994" lat="59.9919277734" lon="11.662436109">
		<tag k="name" v="Maurlia" />
		<tag k="natural" v="slope" />
		<tag k="place" v="locality" />
		<tag k="ssr:stedsnr" v="65992" />
	</node>
	<node id="-253993" lat="59.9847138927" lon="11.6025583414">
		<tag k="alt_name" v="Bjønnehøgda" />
		<tag k="fixme" v="consider natural=peak for the most distinct mountains in the district" />
		<tag k="name" v="Bjørnhøgda" />
		<tag k="natural" v="hill" />
		<tag k="place" v="locality" />
		<tag k="ssr:stedsnr" v="65990" />
	</node>
	<node id="-253981" lat="59.7727916657" lon="11.3749888839">
		<tag k="name" v="Styggedalen" />
		<tag k="natural" v="valley" />
		<tag k="place" v="locality" />
		<tag k="ssr:stedsnr" v="65850" />
	</node>
	<node id="-253978" lat="59.8805166636" lon="11.4206722259">
		<tag k="fixme" v="consider natural=peak for the most distinct mountains in the district" />
		<tag k="name" v="Prestehesten" />
		<tag k="natural" v="hill" />
		<tag k="place" v="locality" />
		<tag k="ssr:stedsnr" v="65686" />
	</node>
	<node id="-252591" lat="59.9102444438" lon="11.6431527764">
		<tag k="name" v="Lauvdalen" />
		<tag k="natural" v="valley" />
		<tag k="place" v="locality" />
		<tag k="ssr:stedsnr" v="709778" />
	</node>
	<node id="-251928" lat="59.9321138874" lon="11.7647972262">
		<tag k="name" v="Mortensmyrlia" />
		<tag k="natural" v="slope" />
		<tag k="place" v="locality" />
		<tag k="ssr:stedsnr" v="483448" />
	</node>
	<node id="-254507" lat="59.9919388915" lon="11.4501999934">
		<tag k="alt_name" v="Borhøgda" />
		<tag k="fixme" v="consider natural=peak for the most distinct mountains in the district" />
		<tag k="name" v="Bårhøgda" />
		<tag k="natural" v="hill" />
		<tag k="place" v="locality" />
		<tag k="ssr:stedsnr" v="186526" />
	</node>
	<node id="-251924" lat="59.9274555558" lon="11.7495527754">
		<tag k="name" v="Bjørkelia" />
		<tag k="natural" v="slope" />
		<tag k="place" v="locality" />
		<tag k="ssr:stedsnr" v="483397" />
	</node>
	<node id="-251923" lat="59.8551944421" lon="11.7551416633">
		<tag k="name" v="Styggedalen" />
		<tag k="natural" v="valley" />
		<tag k="place" v="locality" />
		<tag k="ssr:stedsnr" v="483246" />
	</node>
	<node id="-253970" lat="59.8899333317" lon="11.3586444413">
		<tag k="fixme" v="consider natural=peak for the most distinct mountains in the district" />
		<tag k="name" v="Trøkkpå" />
		<tag k="natural" v="hill" />
		<tag k="place" v="locality" />
		<tag k="ssr:stedsnr" v="65657" />
	</node>
	<node id="-253965" lat="59.7987861122" lon="11.5369749986">
		<tag k="fixme" v="consider natural=peak for the most distinct mountains in the district" />
		<tag k="name" v="Rambergåsen" />
		<tag k="natural" v="hill" />
		<tag k="place" v="locality" />
		<tag k="ssr:stedsnr" v="65468" />
	</node>
	<node id="-251915" lat="59.9342027766" lon="11.7271611143">
		<tag k="name" v="Gullgruvelia" />
		<tag k="natural" v="slope" />
		<tag k="place" v="locality" />
		<tag k="ssr:stedsnr" v="482241" />
	</node>
	<node id="-251914" lat="59.6919361071" lon="11.6171416592">
		<tag k="name" v="Gunnarsdalen" />
		<tag k="natural" v="valley" />
		<tag k="place" v="locality" />
		<tag k="ssr:stedsnr" v="482338" />
	</node>
	<node id="-254180" lat="59.797533336" lon="11.3636833404">
		<tag k="name" v="Bikkjedalen" />
		<tag k="natural" v="valley" />
		<tag k="place" v="locality" />
		<tag k="ssr:stedsnr" v="120862" />
	</node>
	<node id="-251912" lat="59.8786944408" lon="11.4411444473">
		<tag k="name" v="Sølaterdalen" />
		<tag k="natural" v="valley" />
		<tag k="place" v="locality" />
		<tag k="ssr:stedsnr" v="482265" />
	</node>
	<node id="-253959" lat="59.6929888924" lon="11.8696694447">
		<tag k="alt_name" v="Venåsene" />
		<tag k="fixme" v="consider natural=peak for the most distinct mountains in the district" />
		<tag k="name" v="Veneås" />
		<tag k="natural" v="hill" />
		<tag k="place" v="locality" />
		<tag k="ssr:stedsnr" v="65400" />
	</node>
	<node id="-253958" lat="59.767174997" lon="11.7613666635">
		<tag k="fixme" v="multiple name tags, choose one and add the other to alt_name; consider natural=peak for the most distinct mountains in the district" />
		<tag k="name" v="Isberget;Isberghøgda" />
		<tag k="natural" v="hill" />
		<tag k="place" v="locality" />
		<tag k="ssr:stedsnr" v="65395" />
	</node>
	<node id="-251907" lat="59.943622224" lon="11.5159500019">
		<tag k="name" v="Korpedalen" />
		<tag k="natural" v="valley" />
		<tag k="place" v="locality" />
		<tag k="ssr:stedsnr" v="481487" />
	</node>
</osm>
