<?xml version="1.0" encoding="UTF-8"?>
<osm version="0.6" generator="osmapis">
	<node lat="59.71784722464657" lon="11.5749138923016" id="-14621">
		<tag k="name" v="Fossheim" />
		<tag k="place" v="farm" />
		<tag k="ssr:stedsnr" v="3614" />
	</node>
	<node lat="59.8787804309881" lon="11.546326286457194" id="-14622">
		<tag k="fixme" v="consider place=hamlet" />
		<tag k="name" v="Burhol" />
		<tag k="place" v="farm" />
		<tag k="ssr:stedsnr" v="4177" />
	</node>
	<node lat="59.747525141081475" lon="11.448004280434372" id="-14623">
		<tag k="fixme" v="consider place=hamlet" />
		<tag k="name" v="Blakkestad" />
		<tag k="place" v="farm" />
		<tag k="ssr:stedsnr" v="4075" />
	</node>
	<node lat="59.74219136945149" lon="11.442815143955455" id="-14624">
		<tag k="alt_name" v="Østby" />
		<tag k="fixme" v="consider place=hamlet" />
		<tag k="name" v="Søndre Østby" />
		<tag k="place" v="farm" />
		<tag k="ssr:stedsnr" v="4079" />
	</node>
	<node lat="59.836589266542354" lon="11.526147678364469" id="-14625">
		<tag k="fixme" v="consider place=hamlet" />
		<tag k="name" v="Ringstad" />
		<tag k="place" v="farm" />
		<tag k="ssr:stedsnr" v="4317" />
	</node>
	<node lat="59.70019444299963" lon="11.495075003300478" id="-14626">
		<tag k="name" v="Fjell" />
		<tag k="place" v="farm" />
		<tag k="ssr:stedsnr" v="4318" />
	</node>
	<node lat="59.9557383693261" lon="11.429516813629231" id="-14628">
		<tag k="alt_name" v="Gunnildrud;Gunhildrud" />
		<tag k="fixme" v="consider place=hamlet" />
		<tag k="name" v="Gunhildsrud" />
		<tag k="place" v="farm" />
		<tag k="ssr:stedsnr" v="4525" />
	</node>
	<node lat="59.947108947923574" lon="11.406835988555983" id="-14629">
		<tag k="loc_name" v="Killingmo" />
		<tag k="name" v="Kjellingmo" />
		<tag k="place" v="hamlet" />
		<tag k="ssr:stedsnr" v="4526" />
	</node>
	<node lat="59.94008888953829" lon="11.434233325112872" id="-14630">
		<tag k="fixme" v="consider place=suburb, village or hamlet" />
		<tag k="name" v="Finstadbru" />
		<tag k="place" v="quarter" />
		<tag k="ssr:stedsnr" v="4538" />
	</node>
	<node lat="59.78207777770935" lon="11.493116664666816" id="-14634">
		<tag k="name" v="Vestre Tøyen" />
		<tag k="place" v="farm" />
		<tag k="ssr:stedsnr" v="4462" />
	</node>
	<node lat="59.79564573898449" lon="11.487971582651536" id="-14635">
		<tag k="fixme" v="consider place=hamlet" />
		<tag k="name" v="Nordre Naddum" />
		<tag k="place" v="farm" />
		<tag k="ssr:stedsnr" v="4474" />
	</node>
	<node lat="59.79997500174191" lon="11.730605560720369" id="-14637">
		<tag k="name" v="Åserud" />
		<tag k="place" v="farm" />
		<tag k="ssr:stedsnr" v="4484" />
	</node>
	<node lat="59.8092805525419" lon="11.37573333681763" id="-14639">
		<tag k="name" v="Fossen" />
		<tag k="place" v="farm" />
		<tag k="ssr:stedsnr" v="4810" />
	</node>
	<node lat="59.81198332975122" lon="11.43856110619347" id="-14640">
		<tag k="name" v="Nordby" />
		<tag k="place" v="farm" />
		<tag k="ssr:stedsnr" v="4823" />
	</node>
	<node lat="59.773569443976555" lon="11.352297227854338" id="-14641">
		<tag k="name" v="Bråten" />
		<tag k="place" v="farm" />
		<tag k="ssr:stedsnr" v="4915" />
	</node>
	<node lat="59.927243240966725" lon="11.47905643660947" id="-14643">
		<tag k="name" v="Bokstad" />
		<tag k="place" v="hamlet" />
		<tag k="ssr:stedsnr" v="5023" />
	</node>
	<node lat="59.93859444423527" lon="11.544250007022566" id="-14645">
		<tag k="alt_name" v="Stykket, nordre" />
		<tag k="name" v="Nordre Stykket" />
		<tag k="place" v="farm" />
		<tag k="ssr:stedsnr" v="5078" />
	</node>
	<node lat="59.93721111210406" lon="11.609574991926303" id="-14646">
		<tag k="name" v="Morttjernet" />
		<tag k="place" v="farm" />
		<tag k="ssr:stedsnr" v="5080" />
	</node>
	<node lat="59.95376666403209" lon="11.48835833585917" id="-14649">
		<tag k="name" v="Tolerud" />
		<tag k="place" v="farm" />
		<tag k="ssr:stedsnr" v="5103" />
	</node>
	<node lat="59.95698055324152" lon="11.556225000106343" id="-14650">
		<tag k="name" v="Strømstad" />
		<tag k="place" v="locality" />
		<tag k="ssr:stedsnr" v="5105" />
	</node>
	<node lat="59.86268333379759" lon="11.777163887766989" id="-14654">
		<tag k="name" v="Østby" />
		<tag k="place" v="farm" />
		<tag k="ssr:stedsnr" v="5124" />
	</node>
	<node lat="59.78081944335841" lon="11.78623332646947" id="-14655">
		<tag k="name" v="Mortegropa" />
		<tag k="place" v="farm" />
		<tag k="ssr:stedsnr" v="5417" />
	</node>
	<node lat="59.776583336088" lon="11.523725002588455" id="-14656">
		<tag k="name" v="Steinby" />
		<tag k="place" v="farm" />
		<tag k="ssr:stedsnr" v="5426" />
	</node>
	<node lat="59.85174722265295" lon="11.562347231041686" id="-14657">
		<tag k="name" v="Myrvang" />
		<tag k="place" v="farm" />
		<tag k="ssr:stedsnr" v="5359" />
	</node>
	<node lat="59.847569447203405" lon="11.465983331157254" id="-14659">
		<tag k="name" v="Botnersætra" />
		<tag k="place" v="isolated_dwelling" />
		<tag k="ssr:stedsnr" v="5710" />
	</node>
	<node lat="59.97050000328951" lon="11.756774996437667" id="-14664">
		<tag k="name" v="Sotholtet" />
		<tag k="place" v="farm" />
		<tag k="ssr:stedsnr" v="5977" />
	</node>
	<node lat="59.7169611154126" lon="11.511672214061656" id="-14666">
		<tag k="name" v="Nordre Evenby" />
		<tag k="place" v="farm" />
		<tag k="ssr:stedsnr" v="231403" />
	</node>
	<node lat="59.677358333993" lon="11.49272221364977" id="-14667">
		<tag k="name" v="Nedre Kragtorp" />
		<tag k="place" v="farm" />
		<tag k="ssr:stedsnr" v="231568" />
	</node>
	<node lat="59.69896111475569" lon="11.861574993599808" id="-14684">
		<tag k="name" v="Øvre Ringsby" />
		<tag k="place" v="farm" />
		<tag k="ssr:stedsnr" v="233050" />
	</node>
	<node lat="59.80668333350211" lon="11.71332500628502" id="-14694">
		<tag k="name" v="Kaldåker" />
		<tag k="place" v="farm" />
		<tag k="ssr:stedsnr" v="237738" />
	</node>
	<node lat="59.928250002839995" lon="11.368041660783314" id="-14710">
		<tag k="alt_name" v="Eikeberg vestre" />
		<tag k="name" v="Vestre Eikeberg" />
		<tag k="place" v="farm" />
		<tag k="ssr:stedsnr" v="40982" />
	</node>
	<node lat="59.91909444072325" lon="11.38710555576683" id="-14711">
		<tag k="name" v="Lomsnes" />
		<tag k="place" v="farm" />
		<tag k="ssr:stedsnr" v="40986" />
	</node>
	<node lat="59.81645833154384" lon="11.486016670347798" id="-14714">
		<tag k="name" v="Holtehagen" />
		<tag k="place" v="quarter" />
		<tag k="ssr:stedsnr" v="237166" />
	</node>
	<node lat="59.910436113816246" lon="11.60787222296493" id="-14717">
		<tag k="name" v="Søndre Moen" />
		<tag k="place" v="farm" />
		<tag k="ssr:stedsnr" v="42181" />
	</node>
	<node lat="59.784224996512684" lon="11.41076666049963" id="-14719">
		<tag k="name" v="Solberg" />
		<tag k="place" v="farm" />
		<tag k="ssr:stedsnr" v="42401" />
	</node>
	<node lat="59.78582500104539" lon="11.407425005887035" id="-14721">
		<tag k="name" v="Solberg" />
		<tag k="place" v="farm" />
		<tag k="ssr:stedsnr" v="42429" />
	</node>
	<node lat="59.84009166866471" lon="11.48815554703792" id="-14723">
		<tag k="name" v="Gunhildrud" />
		<tag k="place" v="locality" />
		<tag k="ssr:stedsnr" v="42805" />
	</node>
	<node lat="59.85736388880553" lon="11.512877785194961" id="-14728">
		<tag k="name" v="Leirdalen" />
		<tag k="place" v="locality" />
		<tag k="ssr:stedsnr" v="237642" />
	</node>
	<node lat="59.86321388695518" lon="11.517927783972299" id="-14729">
		<tag k="name" v="Hellebakken" />
		<tag k="place" v="farm" />
		<tag k="ssr:stedsnr" v="237920" />
	</node>
	<node lat="59.889186111024834" lon="11.54742499820103" id="-14735">
		<tag k="name" v="Damslora" />
		<tag k="place" v="isolated_dwelling" />
		<tag k="ssr:stedsnr" v="238621" />
	</node>
	<node lat="59.73684167063109" lon="11.813449991888316" id="-14742">
		<tag k="alt_name" v="Mellem Bøen" />
		<tag k="name" v="Mellom-Bøen" />
		<tag k="place" v="farm" />
		<tag k="ssr:stedsnr" v="51009" />
	</node>
	<node lat="59.766127780977826" lon="11.881219437396002" id="-14748">
		<tag k="name" v="Langemåsåstua" />
		<tag k="place" v="isolated_dwelling" />
		<tag k="ssr:stedsnr" v="51075" />
	</node>
	<node lat="59.71686944080381" lon="11.797808332310915" id="-14752">
		<tag k="name" v="Nord-Sandum" />
		<tag k="place" v="farm" />
		<tag k="ssr:stedsnr" v="51269" />
	</node>
	<node lat="59.8098111103849" lon="11.69053611733642" id="-14758">
		<tag k="name" v="Vinterstad" />
		<tag k="place" v="hamlet" />
		<tag k="ssr:stedsnr" v="239445" />
	</node>
	<node lat="59.92342221914297" lon="11.535750001586514" id="-14768">
		<tag k="name" v="Våler" />
		<tag k="place" v="farm" />
		<tag k="ssr:stedsnr" v="239660" />
	</node>
	<node lat="59.82897500430047" lon="11.507666666046848" id="-14771">
		<tag k="name" v="Kingsrud" />
		<tag k="place" v="farm" />
		<tag k="ssr:stedsnr" v="55168" />
	</node>
	<node lat="59.949644446742205" lon="11.389213890649678" id="-14779">
		<tag k="building" v="industrial" />
		<tag k="industrial" v="factory" />
		<tag k="name" v="Verket" />
		<tag k="ssr:stedsnr" v="57212" />
	</node>
	<node lat="59.950113886307015" lon="11.457983333401542" id="-14782">
		<tag k="name" v="Stubberud" />
		<tag k="place" v="farm" />
		<tag k="ssr:stedsnr" v="57410" />
	</node>
	<node lat="59.67518717776632" lon="11.490731154681226" id="-14783">
		<tag k="fixme" v="consider place=hamlet" />
		<tag k="name" v="Nedre Kragtorp" />
		<tag k="place" v="farm" />
		<tag k="ssr:stedsnr" v="57421" />
	</node>
	<node lat="59.94846944238475" lon="11.417691663348934" id="-14784">
		<tag k="name" v="Øverby" />
		<tag k="place" v="farm" />
		<tag k="ssr:stedsnr" v="57423" />
	</node>
	<node lat="59.91602777954469" lon="11.706219442571918" id="-14788">
		<tag k="name" v="Myrlia" />
		<tag k="place" v="isolated_dwelling" />
		<tag k="ssr:stedsnr" v="57681" />
	</node>
	<node lat="59.722772221953555" lon="11.508533341775044" id="-14791">
		<tag k="name" v="Haraldstad" />
		<tag k="place" v="farm" />
		<tag k="ssr:stedsnr" v="58646" />
	</node>
	<node lat="59.93308333284235" lon="11.600627786193732" id="-14804">
		<tag k="alt_name" v="S. Hemingby" />
		<tag k="name" v="Søndre Hemingby" />
		<tag k="place" v="farm" />
		<tag k="ssr:stedsnr" v="59578" />
	</node>
	<node lat="59.81180555133812" lon="11.419608339293191" id="-14809">
		<tag k="name" v="Ødegården" />
		<tag k="place" v="locality" />
		<tag k="ssr:stedsnr" v="59886" />
	</node>
	<node lat="59.643022226455244" lon="11.513630562049313" id="-14811">
		<tag k="name" v="Tuverud" />
		<tag k="place" v="farm" />
		<tag k="ssr:stedsnr" v="240708" />
	</node>
	<node lat="59.63117777402655" lon="11.515636114517603" id="-14813">
		<tag k="alt_name" v="Ø. Ydersbond" />
		<tag k="name" v="Østre Ydersbotn" />
		<tag k="place" v="farm" />
		<tag k="ssr:stedsnr" v="240720" />
	</node>
	<node lat="59.9424361084242" lon="11.534650006555502" id="-14824">
		<tag k="fixme" v="multiple name tags, choose one and add the other to alt_name" />
		<tag k="name" v="Bråten;Dingsrudbråten" />
		<tag k="place" v="locality" />
		<tag k="ssr:stedsnr" v="65070" />
	</node>
	<node lat="59.94114166650711" lon="11.578249993712362" id="-14825">
		<tag k="name" v="Haug" />
		<tag k="place" v="farm" />
		<tag k="ssr:stedsnr" v="65072" />
	</node>
	<node lat="59.965047223625845" lon="11.505102770660335" id="-14826">
		<tag k="name" v="Langsrud" />
		<tag k="place" v="farm" />
		<tag k="ssr:stedsnr" v="65080" />
	</node>
	<node lat="59.82290833715745" lon="11.523322220898402" id="-14829">
		<tag k="name" v="Mansås" />
		<tag k="place" v="locality" />
		<tag k="ssr:stedsnr" v="65267" />
	</node>
	<node lat="59.95058333417743" lon="11.752180548777327" id="-14831">
		<tag k="name" v="Dalbakk" />
		<tag k="place" v="farm" />
		<tag k="ssr:stedsnr" v="65106" />
	</node>
	<node lat="59.95192778024124" lon="11.481091675691989" id="-14832">
		<tag k="name" v="Titterud" />
		<tag k="place" v="farm" />
		<tag k="ssr:stedsnr" v="65113" />
	</node>
	<node lat="59.842034496437925" lon="11.524518505864528" id="-14836">
		<tag k="alt_name" v="Maurtua" />
		<tag k="fixme" v="consider place=hamlet" />
		<tag k="name" v="Maurtuen" />
		<tag k="place" v="farm" />
		<tag k="ssr:stedsnr" v="65307" />
	</node>
	<node lat="59.94517778208987" lon="11.753224995177833" id="-14840">
		<tag k="name" v="Fagerlia" />
		<tag k="place" v="farm" />
		<tag k="ssr:stedsnr" v="241362" />
	</node>
	<node lat="59.827799997789434" lon="11.50095833807579" id="-14843">
		<tag k="name" v="Vinsnes" />
		<tag k="place" v="farm" />
		<tag k="ssr:stedsnr" v="65300" />
	</node>
	<node lat="59.734377777527" lon="11.903863884924032" id="-14845">
		<tag k="alt_name" v="Fallet" />
		<tag k="historic" v="shieling" />
		<tag k="name" v="Ertevassfallet" />
		<tag k="place" v="isolated_dwelling" />
		<tag k="ssr:stedsnr" v="65414" />
	</node>
	<node lat="59.72591388493982" lon="11.851458339260548" id="-14846">
		<tag k="alt_name" v="Enga" />
		<tag k="name" v="Kurøenga" />
		<tag k="place" v="farm" />
		<tag k="ssr:stedsnr" v="65416" />
	</node>
	<node lat="59.738302781431116" lon="11.763327786311258" id="-14848">
		<tag k="name" v="Sørsaga" />
		<tag k="place" v="farm" />
		<tag k="ssr:stedsnr" v="65617" />
	</node>
	<node lat="59.68634877163339" lon="11.46168641468882" id="-14854">
		<tag k="fixme" v="consider place=hamlet" />
		<tag k="name" v="Nordre Bjørkenes" />
		<tag k="place" v="farm" />
		<tag k="ssr:stedsnr" v="65805" />
	</node>
	<node lat="59.816562147475324" lon="11.427632877380205" id="-14855">
		<tag k="fixme" v="consider place=hamlet" />
		<tag k="name" v="Logn" />
		<tag k="place" v="farm" />
		<tag k="ssr:stedsnr" v="65807" />
	</node>
	<node lat="59.72511111122623" lon="11.452419442680117" id="-14856">
		<tag k="name" v="Østenby" />
		<tag k="place" v="farm" />
		<tag k="ssr:stedsnr" v="65879" />
	</node>
	<node lat="59.909502781236014" lon="11.406736111907037" id="-14862">
		<tag k="name" v="Hamborg" />
		<tag k="place" v="locality" />
		<tag k="ssr:stedsnr" v="241492" />
	</node>
	<node lat="59.825572222759156" lon="11.445925005030418" id="-14865">
		<tag k="name" v="Nitteberg" />
		<tag k="place" v="farm" />
		<tag k="ssr:stedsnr" v="65767" />
	</node>
	<node lat="59.80744644010629" lon="11.386519800206758" id="-14866">
		<tag k="fixme" v="consider place=hamlet" />
		<tag k="name" v="Mo" />
		<tag k="place" v="farm" />
		<tag k="ssr:stedsnr" v="65799" />
	</node>
	<node lat="59.98524166528933" lon="11.777011106478644" id="-14868">
		<tag k="alt_name" v="Mangen, nordre" />
		<tag k="fixme" v="consider place=hamlet" />
		<tag k="name" v="Nordre Mangen" />
		<tag k="place" v="farm" />
		<tag k="ssr:stedsnr" v="65955" />
	</node>
	<node lat="59.97747500390693" lon="11.494750001772655" id="-14869">
		<tag k="name" v="Olberg" />
		<tag k="place" v="farm" />
		<tag k="ssr:stedsnr" v="66000" />
	</node>
	<node lat="59.84939444129713" lon="11.50633055506409" id="-14871">
		<tag k="name" v="Sørli" />
		<tag k="place" v="farm" />
		<tag k="ssr:stedsnr" v="66357" />
	</node>
	<node lat="59.81556388915607" lon="11.50545832815724" id="-14877">
		<tag k="name" v="Fosstås" />
		<tag k="place" v="farm" />
		<tag k="ssr:stedsnr" v="66260" />
	</node>
	<node lat="59.77665277396817" lon="11.641299991511497" id="-14879">
		<tag k="name" v="Bråten" />
		<tag k="place" v="farm" />
		<tag k="ssr:stedsnr" v="66403" />
	</node>
	<node lat="59.77270555715159" lon="11.809466659710994" id="-14880">
		<tag k="fixme" v="multiple name tags, choose one and add the other to alt_name" />
		<tag k="name" v="Nedgropa;Tjernmoen" />
		<tag k="place" v="quarter" />
		<tag k="ssr:stedsnr" v="66398" />
	</node>
	<node lat="59.69028055829157" lon="11.414555548091375" id="-14886">
		<tag k="name" v="Sagastrand" />
		<tag k="place" v="farm" />
		<tag k="ssr:stedsnr" v="83134" />
	</node>
	<node lat="59.68958610805551" lon="11.407852775091577" id="-14887">
		<tag k="name" v="Ødegården" />
		<tag k="place" v="farm" />
		<tag k="ssr:stedsnr" v="83135" />
	</node>
	<node lat="59.74723610891757" lon="11.426413886105742" id="-14891">
		<tag k="name" v="Ås" />
		<tag k="place" v="farm" />
		<tag k="ssr:stedsnr" v="246074" />
	</node>
	<node lat="59.67352459586093" lon="11.530681555908437" id="-14894">
		<tag k="name" v="Høylund" />
		<tag k="place" v="locality" />
		<tag k="ssr:stedsnr" v="246261" />
	</node>
	<node lat="59.71110687224085" lon="11.551725895531217" id="-14895">
		<tag k="alt_name" v="Skarabol" />
		<tag k="fixme" v="consider place=hamlet" />
		<tag k="name" v="Skarrabol" />
		<tag k="place" v="farm" />
		<tag k="ssr:stedsnr" v="246325" />
	</node>
	<node lat="59.92461389143229" lon="11.55966110888868" id="-14905">
		<tag k="name" v="Holmen" />
		<tag k="place" v="farm" />
		<tag k="ssr:stedsnr" v="247041" />
	</node>
	<node lat="59.92124166822723" lon="11.469999996674742" id="-14907">
		<tag k="name" v="Nordtveit" />
		<tag k="place" v="farm" />
		<tag k="ssr:stedsnr" v="247053" />
	</node>
	<node lat="59.65945555488059" lon="11.86065554903705" id="-14908">
		<tag k="name" v="Enger" />
		<tag k="place" v="farm" />
		<tag k="ssr:stedsnr" v="247057" />
	</node>
	<node lat="59.94811666666672" lon="11.48503333274496" id="-14909">
		<tag k="name" v="Høybråten" />
		<tag k="place" v="farm" />
		<tag k="ssr:stedsnr" v="247058" />
	</node>
	<node lat="59.85024444232444" lon="11.695247223547007" id="-14910">
		<tag k="name" v="By" />
		<tag k="place" v="farm" />
		<tag k="ssr:stedsnr" v="247137" />
	</node>
	<node lat="59.86614721845389" lon="11.53831944498474" id="-14913">
		<tag k="alt_name" v="Sonderud" />
		<tag k="name" v="Sannerud" />
		<tag k="place" v="farm" />
		<tag k="ssr:stedsnr" v="247174" />
	</node>
	<node lat="59.868900002942276" lon="11.535366667807171" id="-14915">
		<tag k="name" v="Hagen" />
		<tag k="place" v="farm" />
		<tag k="ssr:stedsnr" v="247180" />
	</node>
	<node lat="59.88610555562286" lon="11.684988894248281" id="-14920">
		<tag k="name" v="Sjøberg" />
		<tag k="place" v="farm" />
		<tag k="ssr:stedsnr" v="247210" />
	</node>
	<node lat="59.892450000857814" lon="11.541236105705362" id="-14921">
		<tag k="name" v="Norum" />
		<tag k="place" v="locality" />
		<tag k="ssr:stedsnr" v="247225" />
	</node>
	<node lat="59.8903120700942" lon="11.593912973614128" id="-14922">
		<tag k="name" v="Fallet" />
		<tag k="place" v="locality" />
		<tag k="ssr:stedsnr" v="247227" />
	</node>
	<node lat="59.81347999147135" lon="11.486926752213147" id="-14926">
		<tag k="fixme" v="consider place=hamlet" />
		<tag k="name" v="Holtet" />
		<tag k="place" v="farm" />
		<tag k="ssr:stedsnr" v="247246" />
	</node>
	<node lat="59.816855558154" lon="11.637436109086277" id="-14927">
		<tag k="name" v="Rakkestadsætra" />
		<tag k="place" v="farm" />
		<tag k="ssr:stedsnr" v="247257" />
	</node>
	<node lat="59.83585132667561" lon="11.481925294853793" id="-14929">
		<tag k="fixme" v="consider place=hamlet" />
		<tag k="name" v="Grepperud" />
		<tag k="place" v="farm" />
		<tag k="ssr:stedsnr" v="247297" />
	</node>
	<node lat="59.84536666533315" lon="11.491333329667249" id="-14933">
		<tag k="name" v="Havnås" />
		<tag k="place" v="farm" />
		<tag k="ssr:stedsnr" v="248344" />
	</node>
	<node lat="59.73430277897467" lon="11.40965833233115" id="-14934">
		<tag k="name" v="Haugen" />
		<tag k="place" v="farm" />
		<tag k="ssr:stedsnr" v="247107" />
	</node>
	<node lat="59.73581667083629" lon="11.424536107889642" id="-14935">
		<tag k="name" v="Vang" />
		<tag k="place" v="farm" />
		<tag k="ssr:stedsnr" v="247108" />
	</node>
	<node lat="59.69603888818302" lon="11.54245278376791" id="-14939">
		<tag k="name" v="Narvestad" />
		<tag k="place" v="farm" />
		<tag k="ssr:stedsnr" v="247344" />
	</node>
	<node lat="59.60220555394135" lon="11.480238888756952" id="-14943">
		<tag k="alt_name" v="Fjellenga" />
		<tag k="name" v="Fjellengen" />
		<tag k="place" v="farm" />
		<tag k="ssr:stedsnr" v="247430" />
	</node>
	<node lat="59.922975000925945" lon="11.353563887819833" id="-14945">
		<tag k="name" v="Hagen" />
		<tag k="place" v="farm" />
		<tag k="ssr:stedsnr" v="247590" />
	</node>
	<node lat="59.887813887656854" lon="11.457419442436361" id="-14947">
		<tag k="historic" v="shieling" />
		<tag k="name" v="Hogstadsætra" />
		<tag k="old_name" v="Hogsetsætra" />
		<tag k="place" v="isolated_dwelling" />
		<tag k="ssr:stedsnr" v="247645" />
	</node>
	<node lat="59.804440849862715" lon="11.371878424145953" id="-14950">
		<tag k="name" v="Fosskaug" />
		<tag k="place" v="locality" />
		<tag k="ssr:stedsnr" v="247782" />
	</node>
	<node lat="59.814360683685926" lon="11.376171461050312" id="-14952">
		<tag k="fixme" v="consider place=hamlet" />
		<tag k="name" v="Halabekk" />
		<tag k="place" v="farm" />
		<tag k="ssr:stedsnr" v="247796" />
	</node>
	<node lat="59.68043949437549" lon="11.460406023690785" id="-14953">
		<tag k="fixme" v="consider place=hamlet" />
		<tag k="name" v="Søndre Bjørkenes" />
		<tag k="place" v="farm" />
		<tag k="ssr:stedsnr" v="247797" />
	</node>
	<node lat="59.77742777866996" lon="11.459575003684954" id="-14954">
		<tag k="name" v="Didriksborg" />
		<tag k="place" v="farm" />
		<tag k="ssr:stedsnr" v="247831" />
	</node>
	<node lat="59.8435916655742" lon="11.553177784621681" id="-14975">
		<tag k="name" v="Lier" />
		<tag k="place" v="farm" />
		<tag k="ssr:stedsnr" v="248346" />
	</node>
	<node lat="59.800300000756295" lon="11.470158327765168" id="-14976">
		<tag k="name" v="Klokkerud" />
		<tag k="place" v="farm" />
		<tag k="ssr:stedsnr" v="101011" />
	</node>
	<node lat="59.960211108039914" lon="11.48440556037145" id="-14978">
		<tag k="name" v="Balterud" />
		<tag k="place" v="farm" />
		<tag k="ssr:stedsnr" v="101019" />
	</node>
	<node lat="59.80735182368611" lon="11.42882887851127" id="-14979">
		<tag k="alt_name" v="Vestreng østre" />
		<tag k="fixme" v="consider place=hamlet" />
		<tag k="name" v="Østre Vestreng" />
		<tag k="place" v="farm" />
		<tag k="ssr:stedsnr" v="101081" />
	</node>
	<node lat="59.79652777497912" lon="11.613213894169798" id="-14981">
		<tag k="name" v="Sørsætra" />
		<tag k="place" v="locality" />
		<tag k="ssr:stedsnr" v="101183" />
	</node>
	<node lat="59.96026667092178" lon="11.42679445275372" id="-14983">
		<tag k="alt_name" v="Ødegarden" />
		<tag k="name" v="Øgarden" />
		<tag k="place" v="farm" />
		<tag k="ssr:stedsnr" v="248527" />
	</node>
	<node lat="59.768405558338884" lon="11.82020278592461" id="-15009">
		<tag k="name" v="Libakk" />
		<tag k="place" v="farm" />
		<tag k="ssr:stedsnr" v="111088" />
	</node>
	<node lat="59.74507614626396" lon="11.46162570039147" id="-15023">
		<tag k="name" v="Hellesjø" />
		<tag k="place" v="farm" />
		<tag k="ssr:stedsnr" v="115085" />
	</node>
	<node lat="59.80776944427812" lon="11.365941675146532" id="-15028">
		<tag k="name" v="Fossbråten" />
		<tag k="place" v="farm" />
		<tag k="ssr:stedsnr" v="116718" />
	</node>
	<node lat="59.81297778090956" lon="11.402197231145474" id="-15029">
		<tag k="name" v="Flateby" />
		<tag k="place" v="farm" />
		<tag k="ssr:stedsnr" v="116721" />
	</node>
	<node lat="59.94627499607389" lon="11.411444451125087" id="-15031">
		<tag k="name" v="Østby" />
		<tag k="place" v="farm" />
		<tag k="ssr:stedsnr" v="118279" />
	</node>
	<node lat="59.657733331424915" lon="11.545230560378284" id="-15048">
		<tag k="alt_name" v="Løvbråten" />
		<tag k="name" v="Lauvbråten" />
		<tag k="place" v="farm" />
		<tag k="ssr:stedsnr" v="124208" />
	</node>
	<node lat="59.73811944034623" lon="11.799424996248582" id="-15049">
		<tag k="name" v="Sand" />
		<tag k="place" v="farm" />
		<tag k="ssr:stedsnr" v="124562" />
	</node>
	<node lat="59.8978437075148" lon="11.59020974101513" id="-15051">
		<tag k="name" v="Rishaga" />
		<tag k="place" v="locality" />
		<tag k="ssr:stedsnr" v="125249" />
	</node>
	<node lat="59.62809286411757" lon="11.507887398555075" id="-15052">
		<tag k="fixme" v="consider place=hamlet" />
		<tag k="name" v="Kopperud" />
		<tag k="place" v="farm" />
		<tag k="ssr:stedsnr" v="125301" />
	</node>
	<node lat="59.8398779833633" lon="11.556808873271333" id="-15063">
		<tag k="name" v="Holen" />
		<tag k="place" v="farm" />
		<tag k="ssr:stedsnr" v="125355" />
	</node>
	<node lat="59.846583336821574" lon="11.674722224198186" id="-15066">
		<tag k="alt_name" v="Bunes, vestre" />
		<tag k="name" v="Vestre Bunes" />
		<tag k="place" v="farm" />
		<tag k="ssr:stedsnr" v="125370" />
	</node>
	<node lat="59.79363333274596" lon="11.525049992527794" id="-15067">
		<tag k="name" v="Leikebekk" />
		<tag k="place" v="farm" />
		<tag k="ssr:stedsnr" v="125502" />
	</node>
	<node lat="59.9522640049026" lon="11.443977633602685" id="-15068">
		<tag k="alt_name" v="Borstad" />
		<tag k="fixme" v="consider place=hamlet" />
		<tag k="name" v="Nordre Borstad" />
		<tag k="place" v="farm" />
		<tag k="ssr:stedsnr" v="125565" />
	</node>
	<node lat="59.81563611331954" lon="11.452830562254452" id="-15073">
		<tag k="name" v="Monsrud" />
		<tag k="place" v="farm" />
		<tag k="ssr:stedsnr" v="125811" />
	</node>
	<node lat="59.81531111397519" lon="11.394336118719668" id="-15074">
		<tag k="name" v="Østmo" />
		<tag k="place" v="farm" />
		<tag k="ssr:stedsnr" v="125819" />
	</node>
	<node lat="59.68013055890828" lon="11.431205562219228" id="-15075">
		<tag k="name" v="Gukil" />
		<tag k="place" v="farm" />
		<tag k="ssr:stedsnr" v="125820" />
	</node>
	<node lat="59.85834999700247" lon="11.670574993896576" id="-15081">
		<tag k="alt_name" v="Ødegården" />
		<tag k="name" v="Øgarden" />
		<tag k="place" v="farm" />
		<tag k="ssr:stedsnr" v="126136" />
	</node>
	<node lat="59.86338611263779" lon="11.549666665914202" id="-15082">
		<tag k="alt_name" v="Randsberg" />
		<tag k="name" v="Ransberg" />
		<tag k="place" v="farm" />
		<tag k="ssr:stedsnr" v="126161" />
	</node>
	<node lat="59.91504040627346" lon="11.509616613952433" id="-15083">
		<tag k="fixme" v="consider place=hamlet" />
		<tag k="name" v="Halvorsrud" />
		<tag k="place" v="farm" />
		<tag k="ssr:stedsnr" v="126050" />
	</node>
	<node lat="59.967916671029485" lon="11.503438888811573" id="-15087">
		<tag k="name" v="Årnes" />
		<tag k="place" v="farm" />
		<tag k="ssr:stedsnr" v="126094" />
	</node>
	<node lat="59.81243055506319" lon="11.479636118069807" id="-15092">
		<tag k="name" v="Krokstad" />
		<tag k="place" v="farm" />
		<tag k="ssr:stedsnr" v="126247" />
	</node>
	<node lat="59.837038884796314" lon="11.360808338699062" id="-15099">
		<tag k="name" v="Åserud" />
		<tag k="place" v="farm" />
		<tag k="ssr:stedsnr" v="126747" />
	</node>
	<node lat="59.8055177709939" lon="11.391552771086715" id="-15101">
		<tag k="name" v="Momoen" />
		<tag k="place" v="village" />
		<tag k="ssr:stedsnr" v="126756" />
	</node>
	<node lat="59.80450555172033" lon="11.435358333432067" id="-15102">
		<tag k="name" v="Delingsby" />
		<tag k="place" v="farm" />
		<tag k="ssr:stedsnr" v="126758" />
	</node>
	<node lat="59.753502782240595" lon="11.45512499367892" id="-15103">
		<tag k="alt_name" v="Steinhaugen, s;Stenhaugen" />
		<tag k="name" v="Søndre Steinhaugen" />
		<tag k="place" v="farm" />
		<tag k="ssr:stedsnr" v="126919" />
	</node>
	<node lat="59.7950896082627" lon="11.410408718664137" id="-15104">
		<tag k="alt_name" v="Hafstein, søndre" />
		<tag k="fixme" v="consider place=hamlet" />
		<tag k="name" v="Søndre Hafstein" />
		<tag k="place" v="farm" />
		<tag k="ssr:stedsnr" v="126812" />
	</node>
	<node lat="59.971958333323634" lon="11.475838889914678" id="-15110">
		<tag k="name" v="Svensjøen" />
		<tag k="place" v="farm" />
		<tag k="ssr:stedsnr" v="126997" />
	</node>
	<node lat="59.91708055463204" lon="11.463358324547531" id="-15114">
		<tag k="alt_name" v="Teigen søndre" />
		<tag k="name" v="Søndre Teigen" />
		<tag k="place" v="farm" />
		<tag k="ssr:stedsnr" v="161580" />
	</node>
	<node lat="59.91892499891261" lon="11.515991673494733" id="-15115">
		<tag k="name" v="Halvorsrud" />
		<tag k="place" v="farm" />
		<tag k="ssr:stedsnr" v="161586" />
	</node>
	<node lat="59.936972222814624" lon="11.390019441587974" id="-15119">
		<tag k="name" v="Kolstad" />
		<tag k="place" v="locality" />
		<tag k="ssr:stedsnr" v="161963" />
	</node>
	<node lat="59.72091388806814" lon="11.459069444651272" id="-15120">
		<tag k="fixme" v="multiple name tags, choose one and add the other to alt_name" />
		<tag k="loc_name" v="Bråta" />
		<tag k="name" v="Østre Bråte;Bråte" />
		<tag k="place" v="farm" />
		<tag k="ssr:stedsnr" v="162216" />
	</node>
	<node lat="59.94718282370285" lon="11.515931139430519" id="-15121">
		<tag k="alt_name" v="Røsholm søndre" />
		<tag k="fixme" v="consider place=hamlet" />
		<tag k="name" v="Søndre Røsholm" />
		<tag k="place" v="farm" />
		<tag k="ssr:stedsnr" v="163458" />
	</node>
	<node lat="59.947405551975535" lon="11.492702781884454" id="-15122">
		<tag k="name" v="Asphaug" />
		<tag k="place" v="farm" />
		<tag k="ssr:stedsnr" v="163461" />
	</node>
	<node lat="59.72697499635162" lon="11.784452784080722" id="-15130">
		<tag k="name" v="Nord-Ramberg" />
		<tag k="place" v="farm" />
		<tag k="ssr:stedsnr" v="172004" />
	</node>
	<node lat="59.73229722278752" lon="11.774575006751787" id="-15131">
		<tag k="name" v="Kopperudsetra" />
		<tag k="place" v="farm" />
		<tag k="ssr:stedsnr" v="172006" />
	</node>
	<node lat="59.87910278186795" lon="11.483152773477913" id="-15152">
		<tag k="name" v="Hornåssætra" />
		<tag k="place" v="locality" />
		<tag k="ssr:stedsnr" v="178371" />
	</node>
	<node lat="59.67790833764612" lon="11.55116944377056" id="-15156">
		<tag k="name" v="Sandem" />
		<tag k="place" v="farm" />
		<tag k="ssr:stedsnr" v="179325" />
	</node>
	<node lat="59.92107221791933" lon="11.586927771703216" id="-15167">
		<tag k="alt_name" v="N. Skjønhaug" />
		<tag k="name" v="Nordre Skjønhaug" />
		<tag k="place" v="farm" />
		<tag k="ssr:stedsnr" v="180611" />
	</node>
	<node lat="59.91796110719649" lon="11.631097228579197" id="-15168">
		<tag k="name" v="Høgset" />
		<tag k="place" v="locality" />
		<tag k="ssr:stedsnr" v="180616" />
	</node>
	<node lat="59.72748668101081" lon="11.491624684176276" id="-15181">
		<tag k="fixme" v="consider place=hamlet" />
		<tag k="name" v="Bergsjø" />
		<tag k="place" v="farm" />
		<tag k="ssr:stedsnr" v="185582" />
	</node>
	<node lat="59.745738892892184" lon="11.46909722265903" id="-15182">
		<tag k="name" v="Hellesjø" />
		<tag k="place" v="farm" />
		<tag k="ssr:stedsnr" v="186045" />
	</node>
	<node lat="59.90045277704099" lon="11.557050005102594" id="-15183">
		<tag k="alt_name" v="Torvstrø" />
		<tag k="building" v="industrial" />
		<tag k="industrial" v="factory" />
		<tag k="name" v="Torvstrøfabrikk" />
		<tag k="ssr:stedsnr" v="186213" />
	</node>
	<node lat="59.86846944494009" lon="11.779611119566146" id="-15184">
		<tag k="name" v="Tjernsmo" />
		<tag k="place" v="farm" />
		<tag k="ssr:stedsnr" v="186176" />
	</node>
	<node lat="59.8261249984943" lon="11.70708610715409" id="-15187">
		<tag k="name" v="Åsnes" />
		<tag k="place" v="farm" />
		<tag k="ssr:stedsnr" v="186302" />
	</node>
	<node lat="59.64004505882621" lon="11.51406389943139" id="-15190">
		<tag k="name" v="Tuverud" />
		<tag k="place" v="locality" />
		<tag k="ssr:stedsnr" v="186312" />
	</node>
	<node lat="59.8195805546417" lon="11.392769444751005" id="-15192">
		<tag k="name" v="Nybråten" />
		<tag k="place" v="farm" />
		<tag k="ssr:stedsnr" v="186816" />
	</node>
	<node lat="59.94738333211668" lon="11.398380562845723" id="-15194">
		<tag k="name" v="Tomter" />
		<tag k="place" v="farm" />
		<tag k="ssr:stedsnr" v="186577" />
	</node>
	<node lat="59.95213333267803" lon="11.388458335103437" id="-15195">
		<tag k="name" v="Lemoen" />
		<tag k="place" v="locality" />
		<tag k="ssr:stedsnr" v="186578" />
	</node>
	<node lat="59.74653888968917" lon="11.825427774390176" id="-15198">
		<tag k="name" v="Myrvoll" />
		<tag k="place" v="farm" />
		<tag k="ssr:stedsnr" v="186705" />
	</node>
	<node lat="59.74002500100302" lon="11.483199998158284" id="-15199">
		<tag k="name" v="Åseby" />
		<tag k="place" v="farm" />
		<tag k="ssr:stedsnr" v="186710" />
	</node>
	<node lat="59.95337500288016" lon="11.525925007321954" id="-15204">
		<tag k="fixme" v="multiple name tags, choose one and add the other to alt_name" />
		<tag k="name" v="Moen;Åsnesmoen" />
		<tag k="place" v="farm" />
		<tag k="ssr:stedsnr" v="187112" />
	</node>
	<node lat="59.82939999997085" lon="11.78495555617516" id="-15207">
		<tag k="historic" v="shieling" />
		<tag k="name" v="Nordsæter" />
		<tag k="place" v="isolated_dwelling" />
		<tag k="ssr:stedsnr" v="187305" />
	</node>
	<node lat="59.77380555759779" lon="11.519524993773244" id="-15219">
		<tag k="name" v="Foss" />
		<tag k="place" v="farm" />
		<tag k="ssr:stedsnr" v="187416" />
	</node>
	<node lat="59.80256388754521" lon="11.373525004082314" id="-15220">
		<tag k="name" v="Holen" />
		<tag k="place" v="farm" />
		<tag k="ssr:stedsnr" v="187803" />
	</node>
	<node lat="59.91707777417433" lon="11.36538334194934" id="-15221">
		<tag k="alt_name" v="Viggernesbråten" />
		<tag k="name" v="Viggenesbråten" />
		<tag k="place" v="farm" />
		<tag k="ssr:stedsnr" v="187574" />
	</node>
	<node lat="59.752950004150875" lon="11.447338897298316" id="-15223">
		<tag k="alt_name" v="Myrvold" />
		<tag k="name" v="Myrvoll" />
		<tag k="place" v="farm" />
		<tag k="ssr:stedsnr" v="187902" />
	</node>
	<node lat="59.75676389272474" lon="11.450913881812264" id="-15224">
		<tag k="alt_name" v="Skogen" />
		<tag k="name" v="Skaugen" />
		<tag k="place" v="farm" />
		<tag k="ssr:stedsnr" v="187909" />
	</node>
	<node lat="59.71722499608655" lon="11.455402769654363" id="-15228">
		<tag k="name" v="Nattravnlia" />
		<tag k="place" v="quarter" />
		<tag k="ssr:stedsnr" v="265126" />
	</node>
	<node lat="59.93085277477092" lon="11.507516665892307" id="-15230">
		<tag k="alt_name" v="Berger, ø;Berger mellem" />
		<tag k="name" v="Øst-Berger" />
		<tag k="place" v="farm" />
		<tag k="ssr:stedsnr" v="218409" />
	</node>
	<node lat="59.97808055469342" lon="11.489525005870405" id="-15238">
		<tag k="name" v="Nysætra" />
		<tag k="place" v="locality" />
		<tag k="ssr:stedsnr" v="222111" />
	</node>
	<node lat="59.918794448256946" lon="11.50490833196439" id="-15243">
		<tag k="alt_name" v="Gromsrud nedre" />
		<tag k="name" v="Nedre Gromsrud" />
		<tag k="place" v="farm" />
		<tag k="ssr:stedsnr" v="222581" />
	</node>
	<node lat="59.987134567486336" lon="11.718792460680364" id="-15247">
		<tag k="fixme" v="consider place=hamlet" />
		<tag k="name" v="Ovlien" />
		<tag k="place" v="farm" />
		<tag k="ssr:stedsnr" v="222694" />
	</node>
	<node lat="59.909155558861734" lon="11.549741666191954" id="-15250">
		<tag k="name" v="Torkildsrud" />
		<tag k="place" v="locality" />
		<tag k="ssr:stedsnr" v="223114" />
	</node>
	<node lat="59.77821388795399" lon="11.412900007288618" id="-15254">
		<tag k="name" v="Ovrum" />
		<tag k="place" v="farm" />
		<tag k="ssr:stedsnr" v="224414" />
	</node>
	<node lat="59.73658055978106" lon="11.813000004263158" id="-15277">
		<tag k="name" v="Vestre Bøen" />
		<tag k="place" v="farm" />
		<tag k="ssr:stedsnr" v="233180" />
	</node>
	<node lat="59.92409722123885" lon="11.424974997530018" id="-15282">
		<tag k="alt_name" v="Romhus søndre" />
		<tag k="name" v="Søndre Romhus" />
		<tag k="place" v="farm" />
		<tag k="ssr:stedsnr" v="233604" />
	</node>
	<node lat="59.795147222818606" lon="11.461416664861469" id="-15284">
		<tag k="leisure" v="park" />
		<tag k="name" v="Gamle Løken kirkegård" />
		<tag k="ssr:stedsnr" v="237037" />
	</node>
	<node lat="59.85418888797047" lon="11.630755557682987" id="-15286">
		<tag k="name" v="Fiskehytta" />
		<tag k="place" v="isolated_dwelling" />
		<tag k="ssr:stedsnr" v="237934" />
	</node>
	<node lat="59.886411110063854" lon="11.558902768839856" id="-15290">
		<tag k="name" v="Bliksrud" />
		<tag k="place" v="quarter" />
		<tag k="ssr:stedsnr" v="238635" />
	</node>
	<node lat="59.68169722218983" lon="11.457774995801602" id="-15301">
		<tag k="fixme" v="multiple name tags, choose one and add the other to alt_name" />
		<tag k="name" v="Vestre Bjørkenes;Søndre Bjørkenes" />
		<tag k="place" v="farm" />
		<tag k="ssr:stedsnr" v="240318" />
	</node>
	<node lat="59.91642500373597" lon="11.422536118192793" id="-15304">
		<tag k="alt_name" v="Engen vestre" />
		<tag k="name" v="Vestre Engen" />
		<tag k="place" v="farm" />
		<tag k="ssr:stedsnr" v="241402" />
	</node>
	<node lat="59.72478055337223" lon="11.50700834132848" id="-15310">
		<tag k="name" v="Åsheim" />
		<tag k="place" v="farm" />
		<tag k="ssr:stedsnr" v="246618" />
	</node>
	<node lat="59.7263051448064" lon="11.612458186759902" id="-15311">
		<tag k="fixme" v="consider place=hamlet" />
		<tag k="name" v="Basnes" />
		<tag k="place" v="farm" />
		<tag k="ssr:stedsnr" v="246623" />
	</node>
	<node lat="59.83145555329116" lon="11.548830559968582" id="-15315">
		<tag k="name" v="Stadsenga" />
		<tag k="place" v="farm" />
		<tag k="ssr:stedsnr" v="247305" />
	</node>
	<node lat="59.6950873842988" lon="11.53232341618965" id="-15317">
		<tag k="fixme" v="consider place=hamlet" />
		<tag k="name" v="Lund" />
		<tag k="place" v="farm" />
		<tag k="ssr:stedsnr" v="247308" />
	</node>
	<node lat="59.629846630386126" lon="11.514421518731945" id="-15319">
		<tag k="fixme" v="consider place=hamlet" />
		<tag k="name" v="Ydersbotn" />
		<tag k="place" v="farm" />
		<tag k="ssr:stedsnr" v="247258" />
	</node>
	<node lat="59.81506666341756" lon="11.655658331146016" id="-15320">
		<tag k="name" v="Lysaker" />
		<tag k="place" v="farm" />
		<tag k="ssr:stedsnr" v="247272" />
	</node>
	<node lat="59.82653254697628" lon="11.487340984392363" id="-15321">
		<tag k="fixme" v="consider place=hamlet" />
		<tag k="name" v="Botner" />
		<tag k="place" v="farm" />
		<tag k="ssr:stedsnr" v="247283" />
	</node>
	<node lat="59.93418052502355" lon="11.445349027057956" id="-15332">
		<tag k="fixme" v="multiple name tags, choose one and add the other to alt_name" />
		<tag k="name" v="Finstadbråtan;Bråtan" />
		<tag k="place" v="farm" />
		<tag k="ssr:stedsnr" v="247567" />
	</node>
	<node lat="59.920243805190424" lon="11.4593695939533" id="-15333">
		<tag k="name" v="Riser" />
		<tag k="place" v="locality" />
		<tag k="ssr:stedsnr" v="247570" />
	</node>
	<node lat="59.92639445500565" lon="11.42642992837371" id="-15334">
		<tag k="name" v="Romhus" />
		<tag k="place" v="locality" />
		<tag k="ssr:stedsnr" v="247572" />
	</node>
	<node lat="59.77966075096524" lon="11.413432889750947" id="-15338">
		<tag k="fixme" v="consider place=hamlet" />
		<tag k="name" v="Ovrum" />
		<tag k="place" v="farm" />
		<tag k="ssr:stedsnr" v="247827" />
	</node>
	<node lat="59.831938888930694" lon="11.443858325442989" id="-15339">
		<tag k="alt_name" v="Tyrihjellen, nordre;Tyrihjell nordre;Nordre Tyrihjell" />
		<tag k="name" v="Nordre Tyrihjellen" />
		<tag k="place" v="farm" />
		<tag k="ssr:stedsnr" v="247766" />
	</node>
	<node lat="59.80921971071592" lon="11.424754647788536" id="-15340">
		<tag k="alt_name" v="Vestereng" />
		<tag k="name" v="Vestreng" />
		<tag k="place" v="hamlet" />
		<tag k="ssr:stedsnr" v="247778" />
	</node>
	<node lat="59.75191944032051" lon="11.392519442986297" id="-15341">
		<tag k="name" v="Hagen" />
		<tag k="place" v="farm" />
		<tag k="ssr:stedsnr" v="247916" />
	</node>
	<node lat="59.97106057985797" lon="11.50593009508872" id="-15342">
		<tag k="name" v="Trandem" />
		<tag k="place" v="locality" />
		<tag k="ssr:stedsnr" v="247966" />
	</node>
	<node lat="59.80618534603573" lon="11.716096232717339" id="-15350">
		<tag k="fixme" v="consider place=hamlet" />
		<tag k="name" v="Kaldåker" />
		<tag k="place" v="farm" />
		<tag k="ssr:stedsnr" v="248257" />
	</node>
	<node lat="59.770983332963624" lon="11.819777769163123" id="-15351">
		<tag k="alt_name" v="Sørklubben" />
		<tag k="name" v="Sør-Klubben" />
		<tag k="place" v="farm" />
		<tag k="ssr:stedsnr" v="248407" />
	</node>
	<node lat="60.00579166755664" lon="11.552750004195259" id="-15352">
		<tag k="name" v="Sundet" />
		<tag k="place" v="farm" />
		<tag k="ssr:stedsnr" v="248602" />
	</node>
	<node lat="59.73065833202427" lon="11.403847224542567" id="-15353">
		<tag k="name" v="Hellegård" />
		<tag k="place" v="farm" />
		<tag k="ssr:stedsnr" v="265186" />
	</node>
	<node lat="59.71248333310566" lon="11.6225694414318" id="-15365">
		<tag k="name" v="Brobekk" />
		<tag k="place" v="farm" />
		<tag k="ssr:stedsnr" v="282867" />
	</node>
	<node lat="59.92451944832695" lon="11.575080549202928" id="-15370">
		<tag k="name" v="Sommerfjøshaugen" />
		<tag k="place" v="hamlet" />
		<tag k="ssr:stedsnr" v="283570" />
	</node>
	<node lat="59.91666111251173" lon="11.520222215943532" id="-15371">
		<tag k="name" v="Høyly" />
		<tag k="place" v="farm" />
		<tag k="ssr:stedsnr" v="283602" />
	</node>
	<node lat="59.898155555207445" lon="11.557927782765185" id="-15373">
		<tag k="name" v="Tangen" />
		<tag k="place" v="farm" />
		<tag k="ssr:stedsnr" v="284094" />
	</node>
	<node lat="59.8588638884995" lon="11.6597222250208" id="-15374">
		<tag k="name" v="Sagstua" />
		<tag k="place" v="locality" />
		<tag k="ssr:stedsnr" v="284172" />
	</node>
	<node lat="59.91156944563768" lon="11.59511666826129" id="-15376">
		<tag k="alt_name" v="Nygård mellom" />
		<tag k="name" v="Mellom-Nygård" />
		<tag k="place" v="farm" />
		<tag k="ssr:stedsnr" v="285180" />
	</node>
	<node lat="59.845080553417844" lon="11.43411110986603" id="-15380">
		<tag k="historic" v="shieling" />
		<tag k="name" v="Hansesætra" />
		<tag k="place" v="isolated_dwelling" />
		<tag k="ssr:stedsnr" v="285827" />
	</node>
	<node lat="59.70998645628877" lon="11.800959508934612" id="-15393">
		<tag k="fixme" v="consider place=hamlet" />
		<tag k="name" v="Sundsrud" />
		<tag k="place" v="farm" />
		<tag k="ssr:stedsnr" v="293279" />
	</node>
	<node lat="59.853766664798826" lon="11.626347221245053" id="-15408">
		<tag k="name" v="Kjellehytta" />
		<tag k="place" v="isolated_dwelling" />
		<tag k="ssr:stedsnr" v="298917" />
	</node>
	<node lat="59.807600003247494" lon="11.361366668711321" id="-15409">
		<tag k="alt_name" v="Bjørnebråte" />
		<tag k="name" v="Bjørnebråten" />
		<tag k="place" v="farm" />
		<tag k="ssr:stedsnr" v="298925" />
	</node>
	<node lat="59.790277776684654" lon="11.443019445688016" id="-15410">
		<tag k="name" v="Kongen" />
		<tag k="place" v="isolated_dwelling" />
		<tag k="ssr:stedsnr" v="298975" />
	</node>
	<node lat="59.884261113090936" lon="11.702149996856578" id="-15424">
		<tag k="historic" v="shieling" />
		<tag k="name" v="Høgdesætra" />
		<tag k="place" v="isolated_dwelling" />
		<tag k="ssr:stedsnr" v="300706" />
	</node>
	<node lat="59.784022219381924" lon="11.462949995669884" id="-15426">
		<tag k="name" v="Skedsmo" />
		<tag k="place" v="farm" />
		<tag k="ssr:stedsnr" v="300778" />
	</node>
	<node lat="59.784211114492365" lon="11.509438893081356" id="-15428">
		<tag k="name" v="Goro" />
		<tag k="place" v="farm" />
		<tag k="ssr:stedsnr" v="300786" />
	</node>
	<node lat="59.87074722229653" lon="11.675341661455318" id="-15433">
		<tag k="name" v="Bådalen" />
		<tag k="place" v="farm" />
		<tag k="ssr:stedsnr" v="301217" />
	</node>
	<node lat="59.66288055838806" lon="11.498427782561887" id="-15444">
		<tag k="name" v="Stomperud" />
		<tag k="place" v="farm" />
		<tag k="ssr:stedsnr" v="301647" />
	</node>
	<node lat="59.658527777784364" lon="11.501938882452228" id="-15445">
		<tag k="name" v="Lund" />
		<tag k="place" v="locality" />
		<tag k="ssr:stedsnr" v="301649" />
	</node>
	<node lat="59.6179723862385" lon="11.521041166282126" id="-15447">
		<tag k="alt_name" v="Nedre Krok" />
		<tag k="fixme" v="consider place=hamlet" />
		<tag k="name" v="Nedre Kroken" />
		<tag k="place" v="farm" />
		<tag k="ssr:stedsnr" v="301516" />
	</node>
	<node lat="59.97308055873606" lon="11.509708334868323" id="-15452">
		<tag k="name" v="Nordre Trandem" />
		<tag k="place" v="farm" />
		<tag k="ssr:stedsnr" v="464111" />
	</node>
	<node lat="59.90332222564216" lon="11.43547777333891" id="-15456">
		<tag k="name" v="Langbråten" />
		<tag k="place" v="locality" />
		<tag k="ssr:stedsnr" v="302503" />
	</node>
	<node lat="59.72801389268087" lon="11.50643611345079" id="-15464">
		<tag k="name" v="Fagerås" />
		<tag k="place" v="locality" />
		<tag k="ssr:stedsnr" v="464616" />
	</node>
	<node lat="59.714761113827265" lon="11.565572219602638" id="-15471">
		<tag k="name" v="Bakker" />
		<tag k="place" v="farm" />
		<tag k="ssr:stedsnr" v="464750" />
	</node>
	<node lat="59.937686106810325" lon="11.727197218908575" id="-15475">
		<tag k="name" v="Nedre Molidalen" />
		<tag k="place" v="farm" />
		<tag k="ssr:stedsnr" v="465053" />
	</node>
	<node lat="59.90298149524276" lon="11.596687059750515" id="-15480">
		<tag k="fixme" v="consider place=hamlet" />
		<tag k="name" v="Haugrim" />
		<tag k="place" v="farm" />
		<tag k="ssr:stedsnr" v="307251" />
	</node>
	<node lat="59.89605833052949" lon="11.639211111401092" id="-15481">
		<tag k="name" v="Jeriko" />
		<tag k="place" v="locality" />
		<tag k="ssr:stedsnr" v="307258" />
	</node>
	<node lat="59.71785277651621" lon="11.794669441451148" id="-15483">
		<tag k="name" v="Skjønhaug" />
		<tag k="place" v="farm" />
		<tag k="ssr:stedsnr" v="307659" />
	</node>
	<node lat="59.71889999709581" lon="11.611541666346753" id="-15484">
		<tag k="name" v="Nordtangen" />
		<tag k="place" v="farm" />
		<tag k="ssr:stedsnr" v="307665" />
	</node>
	<node lat="59.72007222093898" lon="11.548405556309339" id="-15485">
		<tag k="name" v="Falkenås" />
		<tag k="place" v="farm" />
		<tag k="ssr:stedsnr" v="307667" />
	</node>
	<node lat="59.94138610919722" lon="11.735641667625591" id="-15487">
		<tag k="name" v="Bråten" />
		<tag k="place" v="farm" />
		<tag k="ssr:stedsnr" v="308059" />
	</node>
	<node lat="59.98033611457775" lon="11.51697778641402" id="-15488">
		<tag k="name" v="Skjønneberg" />
		<tag k="place" v="farm" />
		<tag k="ssr:stedsnr" v="307947" />
	</node>
	<node lat="59.983333328964015" lon="11.523158337493713" id="-15489">
		<tag k="alt_name" v="Strand, østre;Strand;Strand østre" />
		<tag k="name" v="Østre Strand" />
		<tag k="place" v="farm" />
		<tag k="ssr:stedsnr" v="307950" />
	</node>
	<node lat="59.83814722433242" lon="11.562708335865084" id="-15495">
		<tag k="alt_name" v="Enga, nordre" />
		<tag k="name" v="Nordre Enga" />
		<tag k="place" v="farm" />
		<tag k="ssr:stedsnr" v="308293" />
	</node>
	<node lat="59.835691668770515" lon="11.55198610275764" id="-15496">
		<tag k="name" v="Smedsrud" />
		<tag k="place" v="farm" />
		<tag k="ssr:stedsnr" v="308299" />
	</node>
	<node lat="59.864955554673706" lon="11.515730547346477" id="-15499">
		<tag k="name" v="Nordli" />
		<tag k="place" v="farm" />
		<tag k="ssr:stedsnr" v="308153" />
	</node>
	<node lat="59.86703611059385" lon="11.523016669878967" id="-15500">
		<tag k="name" v="Halvorsrud" />
		<tag k="place" v="farm" />
		<tag k="ssr:stedsnr" v="308158" />
	</node>
	<node lat="59.84040555309914" lon="11.717927778551795" id="-15502">
		<tag k="name" v="Enger" />
		<tag k="place" v="farm" />
		<tag k="ssr:stedsnr" v="308307" />
	</node>
	<node lat="59.83128055442207" lon="11.710877771709717" id="-15503">
		<tag k="name" v="Olberg" />
		<tag k="place" v="farm" />
		<tag k="ssr:stedsnr" v="308309" />
	</node>
	<node lat="59.850755558624826" lon="11.510841664151734" id="-15505">
		<tag k="alt_name" v="Gromsrud, nordre;Gromsrud nordre" />
		<tag k="name" v="Nordre Gromsrud" />
		<tag k="place" v="farm" />
		<tag k="ssr:stedsnr" v="308346" />
	</node>
	<node lat="59.75328889157624" lon="11.489725008839557" id="-15506">
		<tag k="alt_name" v="Skovreng" />
		<tag k="name" v="Skovereng" />
		<tag k="place" v="farm" />
		<tag k="ssr:stedsnr" v="308351" />
	</node>
	<node lat="59.755277777845265" lon="11.48675000445594" id="-15507">
		<tag k="name" v="Huset" />
		<tag k="place" v="farm" />
		<tag k="ssr:stedsnr" v="308352" />
	</node>
	<node lat="59.76115277865636" lon="11.69093055835714" id="-15508">
		<tag k="name" v="Fagersand" />
		<tag k="place" v="farm" />
		<tag k="ssr:stedsnr" v="308354" />
	</node>
	<node lat="59.753474999882776" lon="11.647980557766516" id="-15510">
		<tag k="alt_name" v="Røyrvikengen" />
		<tag k="name" v="Røyrvikenga" />
		<tag k="place" v="farm" />
		<tag k="ssr:stedsnr" v="308362" />
	</node>
	<node lat="59.91739888716304" lon="11.371877077034524" id="-15512">
		<tag k="alt_name" v="Tonsberg" />
		<tag k="fixme" v="consider place=hamlet" />
		<tag k="name" v="Tønsberg" />
		<tag k="place" v="farm" />
		<tag k="ssr:stedsnr" v="308589" />
	</node>
	<node lat="59.85055833642755" lon="11.416261105242704" id="-15513">
		<tag k="name" v="Langfoss" />
		<tag k="place" v="isolated_dwelling" />
		<tag k="ssr:stedsnr" v="308707" />
	</node>
	<node lat="59.76983600305434" lon="11.354244425961053" id="-15516">
		<tag k="alt_name" v="Logn" />
		<tag k="fixme" v="consider place=hamlet" />
		<tag k="name" v="Ytre Logn" />
		<tag k="place" v="farm" />
		<tag k="ssr:stedsnr" v="308897" />
	</node>
	<node lat="59.92708333284283" lon="11.44808332616131" id="-15517">
		<tag k="name" v="Preståsen" />
		<tag k="place" v="quarter" />
		<tag k="ssr:stedsnr" v="465964" />
	</node>
	<node lat="59.91629722603171" lon="11.44997221967625" id="-15518">
		<tag k="name" v="Klokkerstua" />
		<tag k="place" v="farm" />
		<tag k="ssr:stedsnr" v="465939" />
	</node>
	<node lat="59.77745000128612" lon="11.455622225933423" id="-15524">
		<tag k="name" v="Sannerud" />
		<tag k="place" v="farm" />
		<tag k="ssr:stedsnr" v="466446" />
	</node>
	<node lat="59.913280554373905" lon="11.605716668599898" id="-15532">
		<tag k="name" v="Vestmo" />
		<tag k="place" v="farm" />
		<tag k="ssr:stedsnr" v="467179" />
	</node>
	<node lat="59.70749444116739" lon="11.398477782974435" id="-15533">
		<tag k="name" v="Åsesrud" />
		<tag k="place" v="farm" />
		<tag k="ssr:stedsnr" v="326215" />
	</node>
	<node lat="59.720850004548694" lon="11.455241660330703" id="-15535">
		<tag k="name" v="Hemnes" />
		<tag k="place" v="village" />
		<tag k="ssr:stedsnr" v="326112" />
	</node>
	<node lat="59.73134722646245" lon="11.430536111501603" id="-15537">
		<tag k="name" v="Bergslien" />
		<tag k="place" v="farm" />
		<tag k="ssr:stedsnr" v="326174" />
	</node>
	<node lat="59.728230552714656" lon="11.408424991175998" id="-15538">
		<tag k="name" v="Solum" />
		<tag k="place" v="hamlet" />
		<tag k="ssr:stedsnr" v="326176" />
	</node>
	<node lat="59.729800001356786" lon="11.420072226275657" id="-15539">
		<tag k="alt_name" v="Ø Hemnes;Hemnes østre" />
		<tag k="name" v="Østre Hemnes" />
		<tag k="place" v="farm" />
		<tag k="ssr:stedsnr" v="326177" />
	</node>
	<node lat="59.92506944312501" lon="11.567313881432913" id="-15541">
		<tag k="alt_name" v="Dyrerud søndre" />
		<tag k="name" v="Søndre Dyrerud" />
		<tag k="place" v="farm" />
		<tag k="ssr:stedsnr" v="339304" />
	</node>
	<node lat="59.693638886020004" lon="11.540175007060286" id="-15546">
		<tag k="name" v="Åbogen" />
		<tag k="place" v="locality" />
		<tag k="ssr:stedsnr" v="342148" />
	</node>
	<node lat="59.91556944392711" lon="11.574369452065538" id="-15570">
		<tag k="name" v="Hunaborg" />
		<tag k="place" v="farm" />
		<tag k="ssr:stedsnr" v="345103" />
	</node>
	<node lat="59.85487499835047" lon="11.77115277923618" id="-15571">
		<tag k="historic" v="shieling" />
		<tag k="name" v="Gammelsætra" />
		<tag k="place" v="isolated_dwelling" />
		<tag k="ssr:stedsnr" v="345265" />
	</node>
	<node lat="59.91597777628137" lon="11.468930556445521" id="-15573">
		<tag k="name" v="Liberg" />
		<tag k="place" v="farm" />
		<tag k="ssr:stedsnr" v="345420" />
	</node>
	<node lat="59.9114999964266" lon="11.607202784843961" id="-15575">
		<tag k="name" v="Vestre Moen" />
		<tag k="place" v="farm" />
		<tag k="ssr:stedsnr" v="345182" />
	</node>
	<node lat="59.751863888607616" lon="11.815211104362259" id="-15596">
		<tag k="name" v="Sør-Tukun" />
		<tag k="place" v="farm" />
		<tag k="ssr:stedsnr" v="475037" />
	</node>
	<node lat="59.75249722463461" lon="11.81579721737754" id="-15597">
		<tag k="name" v="Nord-Tukun" />
		<tag k="place" v="farm" />
		<tag k="ssr:stedsnr" v="475041" />
	</node>
	<node lat="59.71579722222423" lon="11.801363889740458" id="-15605">
		<tag k="name" v="Sletten" />
		<tag k="place" v="farm" />
		<tag k="ssr:stedsnr" v="475240" />
	</node>
	<node lat="59.87234721884267" lon="11.526069448886005" id="-15614">
		<tag k="name" v="Bergerud" />
		<tag k="place" v="locality" />
		<tag k="ssr:stedsnr" v="358913" />
	</node>
	<node lat="59.87127777555914" lon="11.548500008719637" id="-15615">
		<tag k="name" v="Furulund" />
		<tag k="place" v="farm" />
		<tag k="ssr:stedsnr" v="358919" />
	</node>
	<node lat="59.8879228637197" lon="11.578696387199896" id="-15617">
		<tag k="amenity" v="school" />
		<tag k="name" v="Kjelle videregående skole" />
		<tag k="old_name" v="Kjelle yrkesskole" />
		<tag k="ssr:stedsnr" v="359603" />
	</node>
	<node lat="59.9503333316672" lon="11.422719452769362" id="-15624">
		<tag k="name" v="Nordre Kvaksrud" />
		<tag k="place" v="farm" />
		<tag k="ssr:stedsnr" v="360402" />
	</node>
	<node lat="59.927024997496986" lon="11.425097214389142" id="-15628">
		<tag k="alt_name" v="Romhus vestre" />
		<tag k="name" v="Vestre Romhus" />
		<tag k="place" v="farm" />
		<tag k="ssr:stedsnr" v="476540" />
	</node>
	<node lat="59.74483904409315" lon="11.460851702386424" id="-15629">
		<tag k="fixme" v="consider place=hamlet" />
		<tag k="name" v="Hellesjø" />
		<tag k="place" v="farm" />
		<tag k="ssr:stedsnr" v="478145" />
	</node>
	<node lat="59.64770277681523" lon="11.489186113213245" id="-15630">
		<tag k="alt_name" v="Skjønhaug" />
		<tag k="name" v="Skjønnhaug" />
		<tag k="place" v="isolated_dwelling" />
		<tag k="ssr:stedsnr" v="367214" />
	</node>
	<node lat="59.717963887334946" lon="11.47990833337391" id="-15632">
		<tag k="name" v="Fossen" />
		<tag k="place" v="farm" />
		<tag k="ssr:stedsnr" v="367618" />
	</node>
	<node lat="59.72942500060325" lon="11.815263896818081" id="-15633">
		<tag k="name" v="Kirkerud" />
		<tag k="place" v="farm" />
		<tag k="ssr:stedsnr" v="367627" />
	</node>
	<node lat="59.80021666355764" lon="11.51863056093151" id="-15634">
		<tag k="name" v="Gaukelund" />
		<tag k="place" v="farm" />
		<tag k="ssr:stedsnr" v="368280" />
	</node>
	<node lat="59.87485833417611" lon="11.596022228521973" id="-15635">
		<tag k="name" v="Bråten" />
		<tag k="place" v="farm" />
		<tag k="ssr:stedsnr" v="368186" />
	</node>
	<node lat="59.81971716776433" lon="11.486874889102621" id="-15638">
		<tag k="name" v="Fosser" />
		<tag k="place" v="village" />
		<tag k="ssr:stedsnr" v="368325" />
	</node>
	<node lat="59.788169169757445" lon="11.494306604401167" id="-15643">
		<tag k="alt_name" v="Sandeim;Sandem" />
		<tag k="fixme" v="consider place=hamlet" />
		<tag k="name" v="Sandum" />
		<tag k="place" v="farm" />
		<tag k="ssr:stedsnr" v="368506" />
	</node>
	<node lat="59.75621944216558" lon="11.455894442434161" id="-15647">
		<tag k="alt_name" v="Steinhaugen, nordre;Stenhaugen" />
		<tag k="name" v="Nordre Steinhaugen" />
		<tag k="place" v="farm" />
		<tag k="ssr:stedsnr" v="368926" />
	</node>
	<node lat="59.75756666556261" lon="11.375811119741538" id="-15648">
		<tag k="name" v="Budalen" />
		<tag k="place" v="farm" />
		<tag k="ssr:stedsnr" v="368929" />
	</node>
	<node lat="59.69396388846782" lon="11.420477778885648" id="-15649">
		<tag k="name" v="Slenga" />
		<tag k="place" v="isolated_dwelling" />
		<tag k="ssr:stedsnr" v="368862" />
	</node>
	<node lat="59.77792777608822" lon="11.3402750045525" id="-15650">
		<tag k="name" v="Fallet" />
		<tag k="place" v="farm" />
		<tag k="ssr:stedsnr" v="368876" />
	</node>
	<node lat="59.71919373990515" lon="11.422990200649354" id="-15652">
		<tag k="alt_name" v="Hemnes, søndre;Hemnes" />
		<tag k="fixme" v="consider place=hamlet" />
		<tag k="name" v="Søndre Hemnes" />
		<tag k="place" v="farm" />
		<tag k="ssr:stedsnr" v="368882" />
	</node>
	<node lat="59.79542221857321" lon="11.480172219771694" id="-15659">
		<tag k="name" v="Ringnes" />
		<tag k="place" v="farm" />
		<tag k="ssr:stedsnr" v="479036" />
	</node>
	<node lat="59.94332777994731" lon="11.502150006210803" id="-15660">
		<tag k="name" v="Haugen" />
		<tag k="place" v="locality" />
		<tag k="ssr:stedsnr" v="369065" />
	</node>
	<node lat="59.81414999786008" lon="11.527452773496835" id="-15662">
		<tag k="name" v="Dalmo" />
		<tag k="place" v="farm" />
		<tag k="ssr:stedsnr" v="369265" />
	</node>
	<node lat="59.771205558226995" lon="11.516008329578408" id="-15666">
		<tag k="alt_name" v="Hallebakken" />
		<tag k="name" v="Hellebakken" />
		<tag k="place" v="farm" />
		<tag k="ssr:stedsnr" v="369371" />
	</node>
	<node lat="59.7668083349921" lon="11.501233340588007" id="-15667">
		<tag k="name" v="Lillebekk" />
		<tag k="place" v="farm" />
		<tag k="ssr:stedsnr" v="369372" />
	</node>
	<node lat="59.768969442015695" lon="11.507402773205593" id="-15668">
		<tag k="name" v="Vestby" />
		<tag k="place" v="farm" />
		<tag k="ssr:stedsnr" v="369374" />
	</node>
	<node lat="59.798083334013086" lon="11.442038892489958" id="-15673">
		<tag k="alt_name" v="Brattveit" />
		<tag k="name" v="Brattvet" />
		<tag k="place" v="farm" />
		<tag k="ssr:stedsnr" v="369806" />
	</node>
	<node lat="59.97897500323628" lon="11.5115861049853" id="-15674">
		<tag k="alt_name" v="Storsrud" />
		<tag k="name" v="Størsrud" />
		<tag k="place" v="farm" />
		<tag k="ssr:stedsnr" v="369962" />
	</node>
	<node lat="59.77701666394778" lon="11.927686117034394" id="-15677">
		<tag k="name" v="Lukashytta" />
		<tag k="place" v="isolated_dwelling" />
		<tag k="ssr:stedsnr" v="370263" />
	</node>
	<node lat="59.80641667007432" lon="11.395874994334653" id="-15680">
		<tag k="name" v="Sandli" />
		<tag k="place" v="farm" />
		<tag k="ssr:stedsnr" v="479942" />
	</node>
	<node lat="59.81537499694546" lon="11.49070000704692" id="-15682">
		<tag k="name" v="Fossheim" />
		<tag k="place" v="farm" />
		<tag k="ssr:stedsnr" v="480133" />
	</node>
	<node lat="59.94586944168631" lon="11.610119438745544" id="-15683">
		<tag k="name" v="Oppsætra" />
		<tag k="place" v="farm" />
		<tag k="ssr:stedsnr" v="480299" />
	</node>
	<node lat="59.95188611420983" lon="11.458794451899001" id="-15695">
		<tag k="name" v="Kjelle" />
		<tag k="place" v="isolated_dwelling" />
		<tag k="ssr:stedsnr" v="481456" />
	</node>
	<node lat="59.88335833758941" lon="11.740563893555423" id="-15699">
		<tag k="name" v="Åsvassæter" />
		<tag k="place" v="locality" />
		<tag k="ssr:stedsnr" v="481698" />
	</node>
	<node lat="59.68446270241513" lon="11.463413159774072" id="-15705">
		<tag k="name" v="Bjørkenes" />
		<tag k="place" v="hamlet" />
		<tag k="ssr:stedsnr" v="482296" />
	</node>
	<node lat="59.876063888962214" lon="11.479497214596803" id="-15709">
		<tag k="name" v="Knollsætra" />
		<tag k="place" v="locality" />
		<tag k="ssr:stedsnr" v="482391" />
	</node>
	<node lat="59.71392222150391" lon="11.39553611958323" id="-15712">
		<tag k="name" v="Sjølyst" />
		<tag k="place" v="hamlet" />
		<tag k="ssr:stedsnr" v="386215" />
	</node>
	<node lat="59.815305559986975" lon="11.633413883738406" id="-15718">
		<tag k="name" v="Nupperud" />
		<tag k="place" v="locality" />
		<tag k="ssr:stedsnr" v="483428" />
	</node>
	<node lat="59.858033331489416" lon="11.44725554847832" id="-15723">
		<tag k="name" v="Tuesætra" />
		<tag k="place" v="locality" />
		<tag k="ssr:stedsnr" v="483594" />
	</node>
	<node lat="59.62096666503709" lon="11.53090555869184" id="-15725">
		<tag k="name" v="Åsly" />
		<tag k="place" v="farm" />
		<tag k="ssr:stedsnr" v="483546" />
	</node>
	<node lat="59.904155554880354" lon="11.451580558571623" id="-15733">
		<tag k="name" v="Øgarden" />
		<tag k="place" v="locality" />
		<tag k="ssr:stedsnr" v="484484" />
	</node>
	<node lat="59.64951587740979" lon="11.495190139942324" id="-15734">
		<tag k="fixme" v="consider place=hamlet" />
		<tag k="name" v="Søndre Bunes" />
		<tag k="place" v="farm" />
		<tag k="ssr:stedsnr" v="401112" />
	</node>
	<node lat="59.70822777479401" lon="11.539680549538549" id="-15737">
		<tag k="name" v="Skogstad" />
		<tag k="old_name" v="Skagstad" />
		<tag k="place" v="locality" />
		<tag k="ssr:stedsnr" v="403775" />
	</node>
	<node lat="59.8054615350881" lon="11.496389922359121" id="-15743">
		<tag k="fixme" v="consider place=hamlet" />
		<tag k="name" v="Auten" />
		<tag k="place" v="farm" />
		<tag k="ssr:stedsnr" v="404024" />
	</node>
	<node lat="59.806305553545734" lon="11.519197215805853" id="-15745">
		<tag k="name" v="Moseby" />
		<tag k="place" v="farm" />
		<tag k="ssr:stedsnr" v="404193" />
	</node>
	<node lat="59.80178333701933" lon="11.446055559217603" id="-15746">
		<tag k="alt_name" v="Skattum vestre" />
		<tag k="name" v="Vestre Skattum" />
		<tag k="place" v="farm" />
		<tag k="ssr:stedsnr" v="404073" />
	</node>
	<node lat="59.96962222386136" lon="11.505466662583373" id="-15748">
		<tag k="name" v="Søndre Trandem" />
		<tag k="place" v="farm" />
		<tag k="ssr:stedsnr" v="404091" />
	</node>
	<node lat="59.93270387733105" lon="11.557265614020292" id="-15751">
		<tag k="fixme" v="consider place=hamlet" />
		<tag k="name" v="Nordby" />
		<tag k="place" v="farm" />
		<tag k="ssr:stedsnr" v="404590" />
	</node>
	<node lat="59.933816669575826" lon="11.45366111014367" id="-15752">
		<tag k="alt_name" v="Haug østre" />
		<tag k="name" v="Østre Haug" />
		<tag k="place" v="farm" />
		<tag k="ssr:stedsnr" v="404488" />
	</node>
	<node lat="59.7207500000049" lon="11.804552769216222" id="-15767">
		<tag k="name" v="Nordre Haukenes" />
		<tag k="place" v="farm" />
		<tag k="ssr:stedsnr" v="415008" />
	</node>
	<node lat="59.645258332233475" lon="11.7632111064588" id="-15773">
		<tag k="name" v="Haugerberget" />
		<tag k="place" v="isolated_dwelling" />
		<tag k="ssr:stedsnr" v="415197" />
	</node>
	<node lat="59.85242974755459" lon="11.527941565417292" id="-15782">
		<tag k="name" v="Komnes" />
		<tag k="place" v="hamlet" />
		<tag k="ssr:stedsnr" v="419885" />
	</node>
	<node lat="59.85930000287236" lon="11.521061106228109" id="-15783">
		<tag k="name" v="Haugen" />
		<tag k="place" v="farm" />
		<tag k="ssr:stedsnr" v="419894" />
	</node>
	<node lat="59.90501111084269" lon="11.600936104607237" id="-15795">
		<tag k="name" v="Bråten" />
		<tag k="place" v="farm" />
		<tag k="ssr:stedsnr" v="489251" />
	</node>
	<node lat="59.8164666662852" lon="11.723736110972546" id="-15800">
		<tag k="name" v="Lund" />
		<tag k="place" v="farm" />
		<tag k="ssr:stedsnr" v="421719" />
	</node>
	<node lat="59.905280557192675" lon="11.469380554739146" id="-15803">
		<tag k="name" v="Holtsmark" />
		<tag k="place" v="farm" />
		<tag k="ssr:stedsnr" v="489260" />
	</node>
	<node lat="59.90820833778641" lon="11.474766668942205" id="-15804">
		<tag k="alt_name" v="Ødegården" />
		<tag k="name" v="Øgarden" />
		<tag k="place" v="farm" />
		<tag k="ssr:stedsnr" v="489263" />
	</node>
	<node lat="59.67351482449849" lon="11.548909774821412" id="-15808">
		<tag k="fixme" v="consider place=hamlet" />
		<tag k="name" v="Skulerud" />
		<tag k="place" v="farm" />
		<tag k="ssr:stedsnr" v="489363" />
	</node>
	<node lat="59.91128888443542" lon="11.378550002013514" id="-15809">
		<tag k="alt_name" v="Tønsberg østre" />
		<tag k="name" v="Østre Tønsberg" />
		<tag k="place" v="farm" />
		<tag k="ssr:stedsnr" v="422294" />
	</node>
	<node lat="59.705380554282414" lon="11.517966658300894" id="-15810">
		<tag k="alt_name" v="Leirdal" />
		<tag k="name" v="Leirdalen" />
		<tag k="place" v="farm" />
		<tag k="ssr:stedsnr" v="489327" />
	</node>
	<node lat="59.784441667298516" lon="11.529380561940977" id="-15817">
		<tag k="alt_name" v="Kongtorp østre" />
		<tag k="name" v="Østre Kongtorp" />
		<tag k="place" v="farm" />
		<tag k="ssr:stedsnr" v="422812" />
	</node>
	<node lat="59.779786110826684" lon="11.524305559667669" id="-15822">
		<tag k="name" v="Sørli" />
		<tag k="place" v="locality" />
		<tag k="ssr:stedsnr" v="422792" />
	</node>
	<node lat="59.88622499662038" lon="11.344958332600108" id="-15824">
		<tag k="name" v="Ringkollsætra" />
		<tag k="place" v="locality" />
		<tag k="ssr:stedsnr" v="423055" />
	</node>
	<node lat="59.837191665222555" lon="11.484724992050051" id="-15830">
		<tag k="name" v="Jordet" />
		<tag k="place" v="farm" />
		<tag k="ssr:stedsnr" v="490342" />
	</node>
	<node lat="59.638552780938426" lon="11.51849722393583" id="-15836">
		<tag k="name" v="Nordli" />
		<tag k="place" v="farm" />
		<tag k="ssr:stedsnr" v="423717" />
	</node>
	<node lat="59.722636114049976" lon="11.795744452317344" id="-15841">
		<tag k="alt_name" v="Engen" />
		<tag k="name" v="Enga" />
		<tag k="place" v="farm" />
		<tag k="ssr:stedsnr" v="489663" />
	</node>
	<node lat="59.73923889303106" lon="11.763636106122195" id="-15842">
		<tag k="name" v="Mellomsaga" />
		<tag k="place" v="isolated_dwelling" />
		<tag k="ssr:stedsnr" v="489668" />
	</node>
	<node lat="59.73920555299094" lon="11.489013896684533" id="-15845">
		<tag k="alt_name" v="Ødegård" />
		<tag k="name" v="Ødegården" />
		<tag k="place" v="farm" />
		<tag k="ssr:stedsnr" v="489719" />
	</node>
	<node lat="59.7474589132226" lon="11.488201196011726" id="-15846">
		<tag k="fixme" v="consider place=hamlet" />
		<tag k="name" v="Kinnarslund" />
		<tag k="place" v="farm" />
		<tag k="ssr:stedsnr" v="489721" />
	</node>
	<node lat="59.988277778103416" lon="11.717569446643587" id="-15849">
		<tag k="name" v="Øvre Ovlien" />
		<tag k="place" v="farm" />
		<tag k="ssr:stedsnr" v="489943" />
	</node>
	<node lat="59.98735000347946" lon="11.514677782534372" id="-15851">
		<tag k="alt_name" v="Strand, vestre;Strand" />
		<tag k="name" v="Vestre Strand" />
		<tag k="place" v="farm" />
		<tag k="ssr:stedsnr" v="489952" />
	</node>
	<node lat="59.98639167126353" lon="11.509836104300767" id="-15852">
		<tag k="name" v="Tyrihjell" />
		<tag k="place" v="farm" />
		<tag k="ssr:stedsnr" v="489953" />
	</node>
	<node lat="59.917493392574485" lon="11.575145904947053" id="-15853">
		<tag k="alt_name" v="Midtre Haneborg;Haneborg, midtre;Haneborg mellom" />
		<tag k="fixme" v="consider place=hamlet" />
		<tag k="name" v="Mellom-Haneborg" />
		<tag k="place" v="farm" />
		<tag k="ssr:stedsnr" v="490009" />
	</node>
	<node lat="59.923111108114206" lon="11.560400002637797" id="-15854">
		<tag k="name" v="Grantun" />
		<tag k="place" v="farm" />
		<tag k="ssr:stedsnr" v="490011" />
	</node>
	<node lat="59.87245555302966" lon="11.682286116369088" id="-15860">
		<tag k="name" v="Sætra" />
		<tag k="place" v="farm" />
		<tag k="ssr:stedsnr" v="490154" />
	</node>
	<node lat="59.87398611421886" lon="11.55292500827238" id="-15861">
		<tag k="alt_name" v="Jonsrud" />
		<tag k="name" v="Jensrud" />
		<tag k="place" v="farm" />
		<tag k="ssr:stedsnr" v="490162" />
	</node>
	<node lat="59.87144429810804" lon="11.545855882747347" id="-15862">
		<tag k="fixme" v="consider place=hamlet" />
		<tag k="name" v="Skamo" />
		<tag k="place" v="farm" />
		<tag k="ssr:stedsnr" v="490167" />
	</node>
	<node lat="59.868747217696246" lon="11.482594449205079" id="-15863">
		<tag k="historic" v="shieling" />
		<tag k="name" v="Gromsrudsætra" />
		<tag k="place" v="isolated_dwelling" />
		<tag k="ssr:stedsnr" v="490177" />
	</node>
	<node lat="59.81308610747444" lon="11.706099996252176" id="-15864">
		<tag k="alt_name" v="Løkka;Løkken" />
		<tag k="name" v="Lykkja" />
		<tag k="place" v="farm" />
		<tag k="ssr:stedsnr" v="490246" />
	</node>
	<node lat="59.825325004160135" lon="11.506761112402923" id="-15866">
		<tag k="name" v="Grønlund" />
		<tag k="place" v="farm" />
		<tag k="ssr:stedsnr" v="490272" />
	</node>
	<node lat="59.81429444141973" lon="11.71760278204596" id="-15867">
		<tag k="name" v="Furunes" />
		<tag k="place" v="farm" />
		<tag k="ssr:stedsnr" v="490273" />
	</node>
	<node lat="59.82688610686711" lon="11.779475007006095" id="-15868">
		<tag k="name" v="Vangen" />
		<tag k="place" v="farm" />
		<tag k="ssr:stedsnr" v="490297" />
	</node>
	<node lat="59.8476388904972" lon="11.507375000875376" id="-15874">
		<tag k="alt_name" v="Gromsrud, søndre;Gromsrud søndre" />
		<tag k="name" v="Søndre Gromsrud" />
		<tag k="place" v="farm" />
		<tag k="ssr:stedsnr" v="490352" />
	</node>
	<node lat="59.75619999817742" lon="11.813652784842631" id="-15875">
		<tag k="name" v="Nordby" />
		<tag k="place" v="farm" />
		<tag k="ssr:stedsnr" v="490370" />
	</node>
	<node lat="59.79298889136785" lon="11.547800000122974" id="-15881">
		<tag k="alt_name" v="Dalen, nordre;Dalen nordre" />
		<tag k="name" v="Nordre Dalen" />
		<tag k="place" v="farm" />
		<tag k="ssr:stedsnr" v="490464" />
	</node>
	<node lat="59.71245000097931" lon="11.497869445688872" id="-15883">
		<tag k="name" v="Sandby" />
		<tag k="place" v="farm" />
		<tag k="ssr:stedsnr" v="428308" />
	</node>
	<node lat="59.71865033488157" lon="11.49306487248431" id="-15884">
		<tag k="fixme" v="consider place=hamlet" />
		<tag k="name" v="Ydersnes" />
		<tag k="place" v="farm" />
		<tag k="ssr:stedsnr" v="428309" />
	</node>
	<node lat="59.70621388592735" lon="11.476766662768286" id="-15885">
		<tag k="name" v="Østre Vennemo" />
		<tag k="old_name" v="Hveinemo;Vennemo" />
		<tag k="place" v="farm" />
		<tag k="ssr:stedsnr" v="428319" />
	</node>
	<node lat="59.93548369095941" lon="11.451661025322878" id="-15886">
		<tag k="fixme" v="consider place=hamlet" />
		<tag k="name" v="Haug" />
		<tag k="place" v="farm" />
		<tag k="ssr:stedsnr" v="490557" />
	</node>
	<node lat="59.72065502919184" lon="11.835817454435828" id="-15888">
		<tag k="alt_name" v="Kurøen" />
		<tag k="fixme" v="consider place=hamlet" />
		<tag k="name" v="Kurøy" />
		<tag k="place" v="farm" />
		<tag k="ssr:stedsnr" v="428614" />
	</node>
	<node lat="59.92392966806999" lon="11.416188275657225" id="-15890">
		<tag k="fixme" v="consider place=hamlet" />
		<tag k="name" v="Stubbjar" />
		<tag k="old_name" v="Stubjar" />
		<tag k="place" v="farm" />
		<tag k="ssr:stedsnr" v="490574" />
	</node>
	<node lat="59.745704560711914" lon="11.431609811953512" id="-15893">
		<tag k="fixme" v="consider place=hamlet" />
		<tag k="name" v="Hol" />
		<tag k="place" v="farm" />
		<tag k="ssr:stedsnr" v="429066" />
	</node>
	<node lat="59.7463888935195" lon="11.424147213866435" id="-15894">
		<tag k="name" v="Nordberg" />
		<tag k="place" v="farm" />
		<tag k="ssr:stedsnr" v="429070" />
	</node>
	<node lat="59.73496288684103" lon="11.400553264967574" id="-15895">
		<tag k="alt_name" v="Hellegård, nordre;Hellegård" />
		<tag k="name" v="Nordre Hellegård" />
		<tag k="place" v="farm" />
		<tag k="ssr:stedsnr" v="429118" />
	</node>
	<node lat="59.83641389111371" lon="11.570627782640722" id="-15900">
		<tag k="alt_name" v="Langebrekke" />
		<tag k="name" v="Langbrekke" />
		<tag k="place" v="locality" />
		<tag k="ssr:stedsnr" v="429304" />
	</node>
	<node lat="59.84548055230325" lon="11.677649997927334" id="-15901">
		<tag k="alt_name" v="Bunes, østre" />
		<tag k="name" v="Østre Bunes" />
		<tag k="place" v="farm" />
		<tag k="ssr:stedsnr" v="429314" />
	</node>
	<node lat="59.80251298973636" lon="11.383734041784088" id="-15902">
		<tag k="alt_name" v="Nygard;Nygaard" />
		<tag k="fixme" v="consider place=hamlet" />
		<tag k="name" v="Nygård" />
		<tag k="place" v="farm" />
		<tag k="ssr:stedsnr" v="490785" />
	</node>
	<node lat="59.78770278163518" lon="11.484144451094533" id="-15908">
		<tag k="name" v="Kopperud" />
		<tag k="place" v="farm" />
		<tag k="ssr:stedsnr" v="429452" />
	</node>
	<node lat="59.78035833277411" lon="11.492383335310084" id="-15909">
		<tag k="name" v="Søndre Tøyen" />
		<tag k="place" v="farm" />
		<tag k="ssr:stedsnr" v="429453" />
	</node>
	<node lat="59.94662057847401" lon="11.376032489602949" id="-15910">
		<tag k="fixme" v="consider place=hamlet" />
		<tag k="name" v="Harkerud" />
		<tag k="place" v="farm" />
		<tag k="ssr:stedsnr" v="429506" />
	</node>
	<node lat="59.8159640421545" lon="11.35589746492982" id="-15914">
		<tag k="fixme" v="consider place=hamlet" />
		<tag k="name" v="Ensrud" />
		<tag k="place" v="farm" />
		<tag k="ssr:stedsnr" v="429816" />
	</node>
	<node lat="59.77891666377293" lon="11.421002782380839" id="-15915">
		<tag k="alt_name" v="Olbergmoen" />
		<tag k="name" v="Moen" />
		<tag k="place" v="farm" />
		<tag k="ssr:stedsnr" v="429848" />
	</node>
	<node lat="59.98012777415766" lon="11.496652774518557" id="-15918">
		<tag k="name" v="Sørli" />
		<tag k="place" v="isolated_dwelling" />
		<tag k="ssr:stedsnr" v="429948" />
	</node>
	<node lat="59.783623194125774" lon="11.412848417018546" id="-15921">
		<tag k="fixme" v="consider place=hamlet" />
		<tag k="name" v="Solberg" />
		<tag k="place" v="farm" />
		<tag k="ssr:stedsnr" v="490873" />
	</node>
	<node lat="59.91841111455742" lon="11.587955556341718" id="-15925">
		<tag k="name" v="Høybråten" />
		<tag k="place" v="farm" />
		<tag k="ssr:stedsnr" v="430003" />
	</node>
	<node lat="59.91288622223856" lon="11.593535672445329" id="-15926">
		<tag k="name" v="Nygard" />
		<tag k="place" v="locality" />
		<tag k="ssr:stedsnr" v="430019" />
	</node>
	<node lat="59.91154721823197" lon="11.607994446957544" id="-15927">
		<tag k="name" v="Moen" />
		<tag k="place" v="hamlet" />
		<tag k="ssr:stedsnr" v="430021" />
	</node>
	<node lat="59.944774998280415" lon="11.579300006481347" id="-15929">
		<tag k="name" v="Morralia" />
		<tag k="place" v="farm" />
		<tag k="ssr:stedsnr" v="430061" />
	</node>
	<node lat="60.00120833458349" lon="11.590138887587758" id="-15938">
		<tag k="alt_name" v="Åsnessæter" />
		<tag k="historic" v="shieling" />
		<tag k="name" v="Åsnessætra" />
		<tag k="place" v="isolated_dwelling" />
		<tag k="ssr:stedsnr" v="430595" />
	</node>
	<node lat="60.01221388796067" lon="11.599772218701434" id="-15939">
		<tag k="alt_name" v="Bergesæter" />
		<tag k="name" v="Bergersæter" />
		<tag k="place" v="locality" />
		<tag k="ssr:stedsnr" v="430600" />
	</node>
	<node lat="59.75033055835045" lon="11.455727771221154" id="-15943">
		<tag k="name" v="Gulliksrud" />
		<tag k="place" v="farm" />
		<tag k="ssr:stedsnr" v="430920" />
	</node>
	<node lat="59.9988444192911" lon="11.536808804069947" id="-15946">
		<tag k="fixme" v="consider place=hamlet" />
		<tag k="name" v="Ulviken" />
		<tag k="place" v="farm" />
		<tag k="ssr:stedsnr" v="430960" />
	</node>
	<node lat="60.004016667379766" lon="11.64920000532364" id="-15953">
		<tag k="name" v="Sinkerud" />
		<tag k="place" v="farm" />
		<tag k="ssr:stedsnr" v="491600" />
	</node>
	<node lat="59.73688723243582" lon="11.43971505746465" id="-15956">
		<tag k="fixme" v="consider place=hamlet" />
		<tag k="name" v="Tønneberg" />
		<tag k="place" v="farm" />
		<tag k="ssr:stedsnr" v="671124" />
	</node>
	<node lat="59.8998991885292" lon="11.554861803542927" id="-15960">
		<tag k="name" v="Moseby" />
		<tag k="place" v="locality" />
		<tag k="ssr:stedsnr" v="671234" />
	</node>
	<node lat="59.67934722641732" lon="11.53488332693748" id="-15967">
		<tag k="alt_name" v="Viken" />
		<tag k="name" v="Vika" />
		<tag k="place" v="farm" />
		<tag k="ssr:stedsnr" v="671352" />
	</node>
	<node lat="59.6907999963157" lon="11.511166672513006" id="-15970">
		<tag k="alt_name" v="Slorebakk" />
		<tag k="name" v="Slorbakk" />
		<tag k="place" v="farm" />
		<tag k="ssr:stedsnr" v="671364" />
	</node>
	<node lat="59.742471268476166" lon="11.818134611684572" id="-15972">
		<tag k="alt_name" v="Torneby;Østre Torneby;Østre Torneby2;Torneby østre" />
		<tag k="fixme" v="consider place=hamlet" />
		<tag k="name" v="Tårnby" />
		<tag k="place" v="farm" />
		<tag k="ssr:stedsnr" v="671691" />
	</node>
	<node lat="59.82752208522504" lon="11.361454520142027" id="-15975">
		<tag k="alt_name" v="Larsbråten" />
		<tag k="fixme" v="consider place=hamlet" />
		<tag k="name" v="Larsbråta" />
		<tag k="place" v="farm" />
		<tag k="ssr:stedsnr" v="671758" />
	</node>
	<node lat="59.931332548691394" lon="11.527679692798037" id="-15979">
		<tag k="fixme" v="consider place=hamlet" />
		<tag k="name" v="Dingsrud" />
		<tag k="place" v="farm" />
		<tag k="ssr:stedsnr" v="672037" />
	</node>
	<node lat="59.92810000458486" lon="11.522355551712321" id="-15981">
		<tag k="name" v="Linderud" />
		<tag k="place" v="farm" />
		<tag k="ssr:stedsnr" v="672040" />
	</node>
	<node lat="59.93664444149049" lon="11.815272220312533" id="-15982">
		<tag k="name" v="Øysjøtangen" />
		<tag k="place" v="isolated_dwelling" />
		<tag k="ssr:stedsnr" v="672041" />
	</node>
	<node lat="59.917577395509795" lon="11.526800111274614" id="-15984">
		<tag k="alt_name" v="Lier, lille" />
		<tag k="fixme" v="consider place=hamlet" />
		<tag k="name" v="Lille Lier" />
		<tag k="place" v="farm" />
		<tag k="ssr:stedsnr" v="672057" />
	</node>
	<node lat="59.76114444385826" lon="11.819447219664246" id="-15990">
		<tag k="alt_name" v="Øgarden" />
		<tag k="name" v="Ødegården" />
		<tag k="place" v="farm" />
		<tag k="ssr:stedsnr" v="672381" />
	</node>
	<node lat="59.84828333426758" lon="11.57229444502157" id="-15991">
		<tag k="name" v="Ilemyra" />
		<tag k="place" v="farm" />
		<tag k="ssr:stedsnr" v="672342" />
	</node>
	<node lat="59.771936109134494" lon="11.519149991655027" id="-15994">
		<tag k="name" v="Lillefoss" />
		<tag k="place" v="farm" />
		<tag k="ssr:stedsnr" v="672401" />
	</node>
	<node lat="59.80072500446772" lon="11.489549992430257" id="-15995">
		<tag k="name" v="Elverum" />
		<tag k="place" v="farm" />
		<tag k="ssr:stedsnr" v="672451" />
	</node>
	<node lat="59.80372500156601" lon="11.68804722987968" id="-15997">
		<tag k="name" v="Østli" />
		<tag k="place" v="farm" />
		<tag k="ssr:stedsnr" v="672456" />
	</node>
	<node lat="59.96062461924184" lon="11.4529274331557" id="-15998">
		<tag k="fixme" v="consider place=hamlet" />
		<tag k="name" v="Grøtli" />
		<tag k="place" v="farm" />
		<tag k="ssr:stedsnr" v="672478" />
	</node>
	<node lat="59.936714849888325" lon="11.43797061131965" id="-16000">
		<tag k="fixme" v="multiple name tags, choose one and add the other to alt_name; consider place=hamlet" />
		<tag k="name" v="Store Finstad;Finstad, søndre;Søndre Finstad" />
		<tag k="place" v="farm" />
		<tag k="ssr:stedsnr" v="672534" />
	</node>
	<node lat="59.93551105994295" lon="11.36738778441183" id="-16001">
		<tag k="alt_name" v="Dælen" />
		<tag k="fixme" v="consider place=hamlet" />
		<tag k="name" v="Dæli" />
		<tag k="place" v="farm" />
		<tag k="ssr:stedsnr" v="672557" />
	</node>
	<node lat="59.93171307404697" lon="11.375493277887175" id="-16002">
		<tag k="fixme" v="consider place=hamlet" />
		<tag k="name" v="Eikeberg" />
		<tag k="place" v="farm" />
		<tag k="ssr:stedsnr" v="672559" />
	</node>
	<node lat="59.90809722506527" lon="11.393541666758008" id="-16003">
		<tag k="alt_name" v="Einerud" />
		<tag k="name" v="Enerud" />
		<tag k="place" v="farm" />
		<tag k="ssr:stedsnr" v="672609" />
	</node>
	<node lat="59.83274722119781" lon="11.360630563666176" id="-16007">
		<tag k="name" v="Frogner" />
		<tag k="place" v="farm" />
		<tag k="ssr:stedsnr" v="672771" />
	</node>
	<node lat="59.76868055777659" lon="11.354466664608994" id="-16010">
		<tag k="name" v="Dreierstad" />
		<tag k="place" v="farm" />
		<tag k="ssr:stedsnr" v="672910" />
	</node>
	<node lat="59.97467500042492" lon="11.668463889164729" id="-16011">
		<tag k="alt_name" v="Mikkelrud" />
		<tag k="name" v="Mikkelsrud" />
		<tag k="place" v="farm" />
		<tag k="ssr:stedsnr" v="672981" />
	</node>
	<node lat="59.97165555892005" lon="11.752752781684809" id="-16013">
		<tag k="name" v="Nordre Sot" />
		<tag k="place" v="farm" />
		<tag k="ssr:stedsnr" v="672987" />
	</node>
	<node lat="59.758980558225716" lon="11.418505549268831" id="-16015">
		<tag k="name" v="Hagen" />
		<tag k="place" v="farm" />
		<tag k="ssr:stedsnr" v="672932" />
	</node>
	<node lat="59.81038332992411" lon="11.818916675174446" id="-16023">
		<tag k="name" v="Brattfosshytta" />
		<tag k="place" v="isolated_dwelling" />
		<tag k="ssr:stedsnr" v="464607" />
	</node>
	<node lat="59.920602775540615" lon="11.500963889858774" id="-16037">
		<tag k="alt_name" v="Gromsrud øvre" />
		<tag k="name" v="Øvre Gromsrud" />
		<tag k="place" v="farm" />
		<tag k="ssr:stedsnr" v="465615" />
	</node>
	<node lat="59.92571944205339" lon="11.497894449397076" id="-16038">
		<tag k="name" v="Mork" />
		<tag k="place" v="farm" />
		<tag k="ssr:stedsnr" v="465616" />
	</node>
	<node lat="59.923391670707076" lon="11.397774992781995" id="-16041">
		<tag k="name" v="Neset" />
		<tag k="place" v="locality" />
		<tag k="ssr:stedsnr" v="465982" />
	</node>
	<node lat="59.93046388919804" lon="11.378274995699167" id="-16042">
		<tag k="alt_name" v="Eikeberg nedre" />
		<tag k="name" v="Nedre Eikeberg" />
		<tag k="place" v="farm" />
		<tag k="ssr:stedsnr" v="465985" />
	</node>
	<node lat="59.91319166460098" lon="11.539030554020286" id="-16044">
		<tag k="leisure" v="pitch" />
		<tag k="name" v="Lierbakken" />
		<tag k="ssr:stedsnr" v="466118" />
	</node>
	<node lat="59.72186389145023" lon="11.791552782054943" id="-16051">
		<tag k="name" v="Haukebølenga" />
		<tag k="place" v="farm" />
		<tag k="ssr:stedsnr" v="475005" />
	</node>
	<node lat="59.73241254163573" lon="11.399800779732884" id="-16065">
		<tag k="fixme" v="consider place=hamlet" />
		<tag k="name" v="Hellegård" />
		<tag k="place" v="farm" />
		<tag k="ssr:stedsnr" v="478122" />
	</node>
	<node lat="59.76990553692481" lon="11.450279835579764" id="-16068">
		<tag k="fixme" v="multiple name tags, choose one and add the other to alt_name" />
		<tag k="name" v="Veststua Borgersrud;Borgersrud" />
		<tag k="place" v="farm" />
		<tag k="ssr:stedsnr" v="480324" />
	</node>
	<node lat="59.86959444694456" lon="11.52964722563626" id="-16077">
		<tag k="name" v="Kvernhaugen" />
		<tag k="place" v="farm" />
		<tag k="ssr:stedsnr" v="480920" />
	</node>
	<node lat="59.778469448660374" lon="11.480730563243174" id="-16083">
		<tag k="fixme" v="multiple name tags, choose one and add the other to alt_name" />
		<tag k="name" v="Vestre Løren;Løren" />
		<tag k="place" v="farm" />
		<tag k="ssr:stedsnr" v="482762" />
	</node>
	<node lat="59.91257777850249" lon="11.44706667233839" id="-16091">
		<tag k="alt_name" v="Finholt søndre" />
		<tag k="name" v="Søndre Finholt" />
		<tag k="place" v="farm" />
		<tag k="ssr:stedsnr" v="484381" />
	</node>
	<node lat="59.930983330927596" lon="11.589077778445247" id="-16094">
		<tag k="alt_name" v="Fallet nordre" />
		<tag k="name" v="Nordre Fallet" />
		<tag k="place" v="farm" />
		<tag k="ssr:stedsnr" v="484566" />
	</node>
	<node lat="59.66262222501827" lon="11.724719441974527" id="-16098">
		<tag k="name" v="Galgebakken" />
		<tag k="place" v="isolated_dwelling" />
		<tag k="ssr:stedsnr" v="489307" />
	</node>
	<node lat="59.709377774845976" lon="11.497319451049913" id="-16100">
		<tag k="name" v="Bjerke" />
		<tag k="place" v="farm" />
		<tag k="ssr:stedsnr" v="489347" />
	</node>
	<node lat="59.69690340225196" lon="11.413826464045705" id="-16106">
		<tag k="alt_name" v="Strand;Strand vestre" />
		<tag k="name" v="Vestre Strand" />
		<tag k="place" v="farm" />
		<tag k="ssr:stedsnr" v="489842" />
	</node>
	<node lat="59.908377777974295" lon="11.602916663245546" id="-16107">
		<tag k="name" v="Mangbakken" />
		<tag k="place" v="farm" />
		<tag k="ssr:stedsnr" v="490041" />
	</node>
	<node lat="59.94591302550405" lon="11.488140276507934" id="-16108">
		<tag k="fixme" v="consider place=hamlet" />
		<tag k="name" v="Lokshaug" />
		<tag k="place" v="farm" />
		<tag k="ssr:stedsnr" v="490081" />
	</node>
	<node lat="59.88517222588701" lon="11.585155554794197" id="-16112">
		<tag k="building" v="industrial" />
		<tag k="industrial" v="factory" />
		<tag k="name" v="Eidsverket" />
		<tag k="ssr:stedsnr" v="490207" />
	</node>
	<node lat="59.88018611209047" lon="11.554777783516528" id="-16113">
		<tag k="name" v="Volla" />
		<tag k="place" v="locality" />
		<tag k="ssr:stedsnr" v="490208" />
	</node>
	<node lat="59.80828055687448" lon="11.723955559173168" id="-16114">
		<tag k="name" v="Bjørknes" />
		<tag k="place" v="farm" />
		<tag k="ssr:stedsnr" v="490238" />
	</node>
	<node lat="59.95661944076875" lon="11.570066661708653" id="-16115">
		<tag k="name" v="Dalen" />
		<tag k="place" v="farm" />
		<tag k="ssr:stedsnr" v="490113" />
	</node>
	<node lat="59.856611113376594" lon="11.518480555084258" id="-16117">
		<tag k="alt_name" v="Knoll, øvre;Knoll" />
		<tag k="name" v="Øvre Knoll" />
		<tag k="old_name" v="Øvre Knold" />
		<tag k="place" v="farm" />
		<tag k="ssr:stedsnr" v="490145" />
	</node>
	<node lat="59.83662222165368" lon="11.558488883114858" id="-16118">
		<tag k="alt_name" v="Enga, søndre" />
		<tag k="name" v="Søndre Enga" />
		<tag k="place" v="farm" />
		<tag k="ssr:stedsnr" v="490317" />
	</node>
	<node lat="59.772700003481766" lon="11.4801888960866" id="-16119">
		<tag k="name" v="Salerud" />
		<tag k="place" v="farm" />
		<tag k="ssr:stedsnr" v="490403" />
	</node>
	<node lat="59.91415278009752" lon="11.370449999406414" id="-16126">
		<tag k="fixme" v="multiple name tags, choose one and add the other to alt_name" />
		<tag k="name" v="Smedhagen;Hestehagen" />
		<tag k="place" v="farm" />
		<tag k="ssr:stedsnr" v="490602" />
	</node>
	<node lat="59.93832500117334" lon="11.359180552530423" id="-16133">
		<tag k="name" v="Jepperud" />
		<tag k="place" v="farm" />
		<tag k="ssr:stedsnr" v="490530" />
	</node>
	<node lat="59.92661667073423" lon="11.370394440216979" id="-16134">
		<tag k="name" v="Svensrud" />
		<tag k="place" v="farm" />
		<tag k="ssr:stedsnr" v="490582" />
	</node>
	<node lat="59.91320507582608" lon="11.42045677219492" id="-16135">
		<tag k="fixme" v="consider place=hamlet" />
		<tag k="name" v="Hognerud" />
		<tag k="place" v="farm" />
		<tag k="ssr:stedsnr" v="490590" />
	</node>
	<node lat="59.80705759381088" lon="11.450778375955665" id="-16137">
		<tag k="name" v="Bøler" />
		<tag k="place" v="farm" />
		<tag k="ssr:stedsnr" v="490834" />
	</node>
	<node lat="59.97726111132296" lon="11.63713054901889" id="-16139">
		<tag k="name" v="Bergmyra" />
		<tag k="place" v="isolated_dwelling" />
		<tag k="ssr:stedsnr" v="490975" />
	</node>
	<node lat="59.70714444550493" lon="11.39446389605342" id="-16143">
		<tag k="name" v="Lindalen" />
		<tag k="place" v="farm" />
		<tag k="ssr:stedsnr" v="508218" />
	</node>
	<node lat="59.70230283135284" lon="11.405602882946475" id="-16145">
		<tag k="fixme" v="consider place=hamlet" />
		<tag k="name" v="Grepperud" />
		<tag k="place" v="farm" />
		<tag k="ssr:stedsnr" v="508121" />
	</node>
	<node lat="59.691797219609334" lon="11.456597220451473" id="-16148">
		<tag k="name" v="Dalheim" />
		<tag k="place" v="farm" />
		<tag k="ssr:stedsnr" v="524114" />
	</node>
	<node lat="59.71324722448601" lon="11.571733332592355" id="-16150">
		<tag k="name" v="Sagbråten" />
		<tag k="place" v="farm" />
		<tag k="ssr:stedsnr" v="524720" />
	</node>
	<node lat="59.698150147293056" lon="11.860026170780355" id="-16156">
		<tag k="alt_name" v="Ringsbu" />
		<tag k="fixme" v="consider place=hamlet" />
		<tag k="name" v="Ringsby" />
		<tag k="place" v="farm" />
		<tag k="ssr:stedsnr" v="525419" />
	</node>
	<node lat="59.92135555509405" lon="11.467236106087524" id="-16157">
		<tag k="alt_name" v="Nordre Teigen" />
		<tag k="name" v="Norde Teigen" />
		<tag k="place" v="farm" />
		<tag k="ssr:stedsnr" v="525615" />
	</node>
	<node lat="59.83508611319032" lon="11.482961113761325" id="-16168">
		<tag k="alt_name" v="Grepperud østre" />
		<tag k="name" v="Østre Grepperud" />
		<tag k="place" v="farm" />
		<tag k="ssr:stedsnr" v="527823" />
	</node>
	<node lat="59.989088889300966" lon="11.774913893544804" id="-16169">
		<tag k="name" v="Skarpnor" />
		<tag k="place" v="farm" />
		<tag k="ssr:stedsnr" v="527904" />
	</node>
	<node lat="59.71401111060414" lon="11.800805552808338" id="-16179">
		<tag k="name" v="Lønnberg" />
		<tag k="place" v="farm" />
		<tag k="ssr:stedsnr" v="536217" />
	</node>
	<node lat="59.80305555749858" lon="11.379641658935766" id="-16194">
		<tag k="name" v="Lauvås" />
		<tag k="place" v="locality" />
		<tag k="ssr:stedsnr" v="540929" />
	</node>
	<node lat="59.87529722316656" lon="11.545522217191053" id="-16198">
		<tag k="name" v="Langset" />
		<tag k="place" v="farm" />
		<tag k="ssr:stedsnr" v="541902" />
	</node>
	<node lat="59.6759580275117" lon="11.484551249935068" id="-16199">
		<tag k="name" v="Kragtorp" />
		<tag k="place" v="hamlet" />
		<tag k="ssr:stedsnr" v="542369" />
	</node>
	<node lat="59.7376194479368" lon="11.63742499235623" id="-16209">
		<tag k="name" v="Eiet" />
		<tag k="place" v="isolated_dwelling" />
		<tag k="ssr:stedsnr" v="543589" />
	</node>
	<node lat="59.77795833230837" lon="11.529211112232113" id="-16211">
		<tag k="name" v="Nybakk" />
		<tag k="place" v="locality" />
		<tag k="ssr:stedsnr" v="543773" />
	</node>
	<node lat="59.77657499782607" lon="11.527716662506194" id="-16212">
		<tag k="name" v="Ellingsby" />
		<tag k="place" v="locality" />
		<tag k="ssr:stedsnr" v="543774" />
	</node>
	<node lat="59.90854444457131" lon="11.41291111223615" id="-16215">
		<tag k="name" v="Åserud" />
		<tag k="place" v="farm" />
		<tag k="ssr:stedsnr" v="544415" />
	</node>
	<node lat="59.66968610793704" lon="11.499502781846621" id="-16219">
		<tag k="name" v="Trollhaugen" />
		<tag k="place" v="isolated_dwelling" />
		<tag k="ssr:stedsnr" v="544670" />
	</node>
	<node lat="59.70525277663684" lon="11.804944437415301" id="-16225">
		<tag k="alt_name" v="Hagan" />
		<tag k="name" v="Haga" />
		<tag k="place" v="farm" />
		<tag k="ssr:stedsnr" v="549349" />
	</node>
	<node lat="59.71316297116387" lon="11.785486304848655" id="-16226">
		<tag k="fixme" v="multiple name tags, choose one and add the other to alt_name" />
		<tag k="name" v="Vestli;Vestby" />
		<tag k="place" v="farm" />
		<tag k="ssr:stedsnr" v="549351" />
	</node>
	<node lat="59.72901110724073" lon="11.40481111259637" id="-16230">
		<tag k="alt_name" v="Hellegård, søndre;N Ødegaard" />
		<tag k="name" v="Søndre Hellegård" />
		<tag k="place" v="farm" />
		<tag k="ssr:stedsnr" v="550129" />
	</node>
	<node lat="59.78360555966885" lon="11.80690834000141" id="-16235">
		<tag k="name" v="Delingsby" />
		<tag k="place" v="isolated_dwelling" />
		<tag k="ssr:stedsnr" v="550454" />
	</node>
	<node lat="59.839313830268175" lon="11.510727292126326" id="-16239">
		<tag k="fixme" v="consider place=hamlet" />
		<tag k="name" v="Klava" />
		<tag k="place" v="farm" />
		<tag k="ssr:stedsnr" v="550311" />
	</node>
	<node lat="59.84027778084698" lon="11.535811113600715" id="-16240">
		<tag k="alt_name" v="Ilebekk, vestre;Ilebekk vestre" />
		<tag k="name" v="Vestre Ilebekk" />
		<tag k="place" v="farm" />
		<tag k="ssr:stedsnr" v="550315" />
	</node>
	<node lat="59.84361666463862" lon="11.567397219900963" id="-16241">
		<tag k="name" v="Skjønhaug" />
		<tag k="place" v="farm" />
		<tag k="ssr:stedsnr" v="550318" />
	</node>
	<node lat="59.94705513817416" lon="11.43922750080382" id="-16244">
		<tag k="name" v="Øgard" />
		<tag k="place" v="farm" />
		<tag k="ssr:stedsnr" v="550509" />
	</node>
	<node lat="59.95197500231387" lon="11.379405558572165" id="-16245">
		<tag k="name" v="Lemoen" />
		<tag k="place" v="farm" />
		<tag k="ssr:stedsnr" v="550513" />
	</node>
	<node lat="59.682369440511636" lon="11.46660000680431" id="-16248">
		<tag k="fixme" v="multiple name tags, choose one and add the other to alt_name" />
		<tag k="name" v="Østre Bjørkenes;Søndre Bjørkenes" />
		<tag k="place" v="farm" />
		<tag k="ssr:stedsnr" v="550806" />
	</node>
	<node lat="59.98536388490252" lon="11.716488894153125" id="-16250">
		<tag k="name" v="Nedre Ovlien" />
		<tag k="place" v="farm" />
		<tag k="ssr:stedsnr" v="550951" />
	</node>
	<node lat="59.916761100686784" lon="11.568024341535994" id="-16254">
		<tag k="alt_name" v="Haneborg, vestre;Nordre Haneborg;Haneborg nordre" />
		<tag k="name" v="Vestre Haneborg" />
		<tag k="place" v="farm" />
		<tag k="ssr:stedsnr" v="551005" />
	</node>
	<node lat="59.913552774383895" lon="11.543136110312021" id="-16255">
		<tag k="alt_name" v="Lier, vestre" />
		<tag k="name" v="Vestre Lier" />
		<tag k="place" v="farm" />
		<tag k="ssr:stedsnr" v="551008" />
	</node>
	<node lat="59.909280551248514" lon="11.476925001511487" id="-16256">
		<tag k="name" v="Bjørnstad" />
		<tag k="place" v="farm" />
		<tag k="ssr:stedsnr" v="551014" />
	</node>
	<node lat="59.9208833340335" lon="11.486080564058508" id="-16257">
		<tag k="name" v="Flatby" />
		<tag k="place" v="farm" />
		<tag k="ssr:stedsnr" v="551054" />
	</node>
	<node lat="59.94495555684556" lon="11.511000002175358" id="-16258">
		<tag k="alt_name" v="Nygård" />
		<tag k="name" v="Nygard" />
		<tag k="place" v="farm" />
		<tag k="ssr:stedsnr" v="551059" />
	</node>
	<node lat="59.94730722474341" lon="11.60856694757006" id="-16259">
		<tag k="name" v="Sætra" />
		<tag k="place" v="farm" />
		<tag k="ssr:stedsnr" v="551060" />
	</node>
	<node lat="59.935536111137594" lon="11.576330553806859" id="-16260">
		<tag k="name" v="Bråten" />
		<tag k="place" v="farm" />
		<tag k="ssr:stedsnr" v="551095" />
	</node>
	<node lat="59.89049999838049" lon="11.76309999538265" id="-16263">
		<tag k="alt_name" v="Iversbråten" />
		<tag k="name" v="Bråten" />
		<tag k="place" v="locality" />
		<tag k="ssr:stedsnr" v="551203" />
	</node>
	<node lat="59.81886666987591" lon="11.530900009114454" id="-16268">
		<tag k="alt_name" v="Fallet" />
		<tag k="name" v="Nordre Fallet" />
		<tag k="place" v="locality" />
		<tag k="ssr:stedsnr" v="551297" />
	</node>
	<node lat="59.77096388975311" lon="11.511100005476305" id="-16269">
		<tag k="name" v="Haugen" />
		<tag k="place" v="farm" />
		<tag k="ssr:stedsnr" v="551406" />
	</node>
	<node lat="59.76908333529135" lon="11.49013333433245" id="-16270">
		<tag k="alt_name" v="Nes, østre;Nes østre" />
		<tag k="name" v="Østre Nes" />
		<tag k="place" v="farm" />
		<tag k="ssr:stedsnr" v="551407" />
	</node>
	<node lat="59.77783611493633" lon="11.51633611529939" id="-16272">
		<tag k="alt_name" v="Østreng, nordre" />
		<tag k="name" v="Nordre Østreng" />
		<tag k="place" v="farm" />
		<tag k="ssr:stedsnr" v="551422" />
	</node>
	<node lat="59.776918052479516" lon="11.502661317839943" id="-16273">
		<tag k="fixme" v="consider place=hamlet" />
		<tag k="name" v="Titterud" />
		<tag k="place" v="farm" />
		<tag k="ssr:stedsnr" v="551423" />
	</node>
	<node lat="59.721936113873106" lon="11.453466673362088" id="-16279">
		<tag k="amenity" v="school" />
		<tag k="name" v="Bråte skole" />
		<tag k="ssr:stedsnr" v="568124" />
	</node>
	<node lat="59.71549444242884" lon="11.45566666375951" id="-16280">
		<tag k="leisure" v="pitch" />
		<tag k="name" v="Mokollen" />
		<tag k="ssr:stedsnr" v="568125" />
	</node>
	<node lat="59.96510277861643" lon="11.540638880459014" id="-16285">
		<tag k="name" v="Mortjernenga" />
		<tag k="place" v="locality" />
		<tag k="ssr:stedsnr" v="585020" />
	</node>
	<node lat="59.68658333217917" lon="11.516541661208244" id="-16287">
		<tag k="name" v="Langstad" />
		<tag k="place" v="farm" />
		<tag k="ssr:stedsnr" v="585150" />
	</node>
	<node lat="59.72144444340233" lon="11.465672214844231" id="-16290">
		<tag k="name" v="Bergerud" />
		<tag k="place" v="isolated_dwelling" />
		<tag k="ssr:stedsnr" v="585848" />
	</node>
	<node lat="59.80832777583331" lon="11.41479166769048" id="-16292">
		<tag k="name" v="Byerstuen" />
		<tag k="place" v="farm" />
		<tag k="ssr:stedsnr" v="586055" />
	</node>
	<node lat="59.92191111291141" lon="11.417352776052097" id="-16296">
		<tag k="alt_name" v="Stubbjar søndre" />
		<tag k="name" v="Søndre Stubbjar" />
		<tag k="place" v="farm" />
		<tag k="ssr:stedsnr" v="586950" />
	</node>
	<node lat="59.917072226442365" lon="11.424586103612945" id="-16297">
		<tag k="alt_name" v="Engen søndre" />
		<tag k="name" v="Søndre Engen" />
		<tag k="place" v="farm" />
		<tag k="ssr:stedsnr" v="586954" />
	</node>
	<node lat="60.00018611233248" lon="11.491583328161363" id="-16300">
		<tag k="historic" v="shieling" />
		<tag k="name" v="Haretonsetra" />
		<tag k="place" v="isolated_dwelling" />
		<tag k="ssr:stedsnr" v="587363" />
	</node>
	<node lat="59.95203333639575" lon="11.467313892141435" id="-16301">
		<tag k="name" v="Åserud" />
		<tag k="place" v="farm" />
		<tag k="ssr:stedsnr" v="587512" />
	</node>
	<node lat="59.76807222593394" lon="11.478036104544131" id="-16302">
		<tag k="name" v="Brautmet" />
		<tag k="place" v="farm" />
		<tag k="ssr:stedsnr" v="587448" />
	</node>
	<node lat="59.8098562697991" lon="11.359460403681291" id="-16321">
		<tag k="alt_name" v="Bjørnebråten" />
		<tag k="name" v="Bjørnebråte" />
		<tag k="place" v="farm" />
		<tag k="ssr:stedsnr" v="600957" />
	</node>
	<node lat="59.94856944387443" lon="11.423502773625126" id="-16325">
		<tag k="name" v="Kvaksrudødegården" />
		<tag k="place" v="farm" />
		<tag k="ssr:stedsnr" v="602458" />
	</node>
	<node lat="59.95751388771335" lon="11.385677770488767" id="-16330">
		<tag k="name" v="Grannerud" />
		<tag k="place" v="farm" />
		<tag k="ssr:stedsnr" v="603259" />
	</node>
	<node lat="59.78301388858522" lon="11.53584721565361" id="-16333">
		<tag k="name" v="Hamburg" />
		<tag k="place" v="locality" />
		<tag k="ssr:stedsnr" v="603781" />
	</node>
	<node lat="59.95942777933809" lon="11.671991673566765" id="-16346">
		<tag k="name" v="Oppsjøtangen" />
		<tag k="place" v="isolated_dwelling" />
		<tag k="ssr:stedsnr" v="605172" />
	</node>
	<node lat="59.90641111268752" lon="11.449172223323822" id="-16347">
		<tag k="alt_name" v="Hagen østre" />
		<tag k="name" v="Østre Hagen" />
		<tag k="place" v="farm" />
		<tag k="ssr:stedsnr" v="605504" />
	</node>
	<node lat="59.74132115163025" lon="11.424977957053859" id="-16350">
		<tag k="fixme" v="consider place=hamlet" />
		<tag k="name" v="Ås" />
		<tag k="place" v="farm" />
		<tag k="ssr:stedsnr" v="610038" />
	</node>
	<node lat="59.74321110936191" lon="11.762663892581937" id="-16354">
		<tag k="alt_name" v="Nord-saga;Saga nordre" />
		<tag k="name" v="Nordsaga" />
		<tag k="place" v="farm" />
		<tag k="ssr:stedsnr" v="610704" />
	</node>
	<node lat="59.67458332890828" lon="11.449991670662891" id="-16355">
		<tag k="name" v="Maurnes" />
		<tag k="place" v="farm" />
		<tag k="ssr:stedsnr" v="610802" />
	</node>
	<node lat="59.91952499571234" lon="11.596838883089786" id="-16356">
		<tag k="name" v="Haslerud" />
		<tag k="place" v="farm" />
		<tag k="ssr:stedsnr" v="611003" />
	</node>
	<node lat="59.924155553844905" lon="11.591375003306544" id="-16357">
		<tag k="fixme" v="multiple name tags, choose one and add the other to alt_name" />
		<tag k="name" v="Spelhaug;Nordre Haneborg" />
		<tag k="place" v="farm" />
		<tag k="ssr:stedsnr" v="611006" />
	</node>
	<node lat="59.91574999612471" lon="11.773127774861642" id="-16358">
		<tag k="name" v="Myrås" />
		<tag k="place" v="isolated_dwelling" />
		<tag k="ssr:stedsnr" v="611010" />
	</node>
	<node lat="59.95953610950419" lon="11.496338884343212" id="-16360">
		<tag k="name" v="Sagbråten" />
		<tag k="place" v="farm" />
		<tag k="ssr:stedsnr" v="611102" />
	</node>
	<node lat="59.947341667118046" lon="11.80408332572196" id="-16363">
		<tag k="name" v="Øysjøfoss" />
		<tag k="place" v="farm" />
		<tag k="ssr:stedsnr" v="611110" />
	</node>
	<node lat="59.949005552471455" lon="11.468825007352574" id="-16364">
		<tag k="name" v="Enga" />
		<tag k="place" v="farm" />
		<tag k="ssr:stedsnr" v="611115" />
	</node>
	<node lat="59.882891669254434" lon="11.561699998826153" id="-16370">
		<tag k="name" v="Eng" />
		<tag k="place" v="isolated_dwelling" />
		<tag k="ssr:stedsnr" v="611208" />
	</node>
	<node lat="59.82058055838427" lon="11.770883329659094" id="-16373">
		<tag k="name" v="Gran" />
		<tag k="place" v="locality" />
		<tag k="ssr:stedsnr" v="611282" />
	</node>
	<node lat="59.83119722010065" lon="11.702186102371183" id="-16375">
		<tag k="name" v="Neset" />
		<tag k="place" v="farm" />
		<tag k="ssr:stedsnr" v="611291" />
	</node>
	<node lat="59.82245833593929" lon="11.491816663716593" id="-16376">
		<tag k="alt_name" v="Engen" />
		<tag k="name" v="Enga" />
		<tag k="place" v="farm" />
		<tag k="ssr:stedsnr" v="611296" />
	</node>
	<node lat="59.82609999634151" lon="11.779522221467813" id="-16379">
		<tag k="name" v="Måsaby" />
		<tag k="place" v="locality" />
		<tag k="ssr:stedsnr" v="611303" />
	</node>
	<node lat="59.83577499847984" lon="11.810008327910973" id="-16380">
		<tag k="alt_name" v="Myrvold" />
		<tag k="name" v="Myrvoll" />
		<tag k="place" v="locality" />
		<tag k="ssr:stedsnr" v="611310" />
	</node>
	<node lat="59.83241666597631" lon="11.47642777705751" id="-16381">
		<tag k="name" v="Jorud" />
		<tag k="place" v="farm" />
		<tag k="ssr:stedsnr" v="611314" />
	</node>
	<node lat="59.831750012223026" lon="11.48505373055311" id="-16382">
		<tag k="fixme" v="consider place=hamlet" />
		<tag k="name" v="Brangerud" />
		<tag k="place" v="farm" />
		<tag k="ssr:stedsnr" v="611317" />
	</node>
	<node lat="59.82947119227014" lon="11.508763320062117" id="-16384">
		<tag k="fixme" v="consider place=hamlet" />
		<tag k="name" v="Kingsrud" />
		<tag k="place" v="farm" />
		<tag k="ssr:stedsnr" v="611323" />
	</node>
	<node lat="59.827308332707275" lon="11.5076249980802" id="-16385">
		<tag k="name" v="Bjørklund" />
		<tag k="place" v="farm" />
		<tag k="ssr:stedsnr" v="611324" />
	</node>
	<node lat="59.75153611563983" lon="11.819527771234718" id="-16387">
		<tag k="alt_name" v="Moen, nedre;Nedre Moen" />
		<tag k="name" v="Ned-Moen" />
		<tag k="place" v="farm" />
		<tag k="ssr:stedsnr" v="611395" />
	</node>
	<node lat="59.92521110980946" lon="11.40429444435583" id="-16388">
		<tag k="alt_name" v="Finsrud, nordre;Finsrud;Finsrud, n" />
		<tag k="name" v="Nordre Finsrud" />
		<tag k="place" v="farm" />
		<tag k="ssr:stedsnr" v="611612" />
	</node>
	<node lat="59.91696125169534" lon="11.422748512152138" id="-16389">
		<tag k="name" v="Enga" />
		<tag k="place" v="locality" />
		<tag k="ssr:stedsnr" v="611617" />
	</node>
	<node lat="59.91858354634808" lon="11.382734648903348" id="-16390">
		<tag k="fixme" v="consider place=hamlet" />
		<tag k="name" v="Lomsnes" />
		<tag k="place" v="farm" />
		<tag k="ssr:stedsnr" v="611619" />
	</node>
	<node lat="59.827080557990406" lon="11.396788880292455" id="-16392">
		<tag k="alt_name" v="Mærli" />
		<tag k="name" v="Mæli" />
		<tag k="place" v="farm" />
		<tag k="ssr:stedsnr" v="611777" />
	</node>
	<node lat="59.81247222168433" lon="11.407208327392269" id="-16394">
		<tag k="name" v="Vestli" />
		<tag k="place" v="farm" />
		<tag k="ssr:stedsnr" v="611819" />
	</node>
	<node lat="59.78350555683864" lon="11.32714167240899" id="-16395">
		<tag k="name" v="Sollia" />
		<tag k="place" v="farm" />
		<tag k="ssr:stedsnr" v="611873" />
	</node>
	<node lat="59.79012777868303" lon="11.39208611122464" id="-16397">
		<tag k="name" v="Skårer" />
		<tag k="place" v="farm" />
		<tag k="ssr:stedsnr" v="611887" />
	</node>
	<node lat="59.989186113362955" lon="11.520124997702164" id="-16399">
		<tag k="alt_name" v="Snaten" />
		<tag k="name" v="Snatan" />
		<tag k="place" v="farm" />
		<tag k="ssr:stedsnr" v="611970" />
	</node>
	<node lat="59.718102343137105" lon="11.394450110978314" id="-16400">
		<tag k="alt_name" v="Gangnes" />
		<tag k="fixme" v="consider place=hamlet" />
		<tag k="name" v="Søndre Gangnes" />
		<tag k="place" v="farm" />
		<tag k="ssr:stedsnr" v="629212" />
	</node>
	<node lat="59.70566944465087" lon="11.398277773164962" id="-16401">
		<tag k="name" v="Grepperud" />
		<tag k="place" v="farm" />
		<tag k="ssr:stedsnr" v="629109" />
	</node>
	<node lat="59.70751944692349" lon="11.401072227885583" id="-16402">
		<tag k="building" v="commercial" />
		<tag k="name" v="Fredheim" />
		<tag k="ssr:stedsnr" v="629120" />
	</node>
	<node lat="59.74555000086057" lon="11.405730556752655" id="-16403">
		<tag k="name" v="Haukeli" />
		<tag k="place" v="isolated_dwelling" />
		<tag k="ssr:stedsnr" v="629145" />
	</node>
	<node lat="59.72647222092836" lon="11.502441660823813" id="-16405">
		<tag k="name" v="Myrvoll" />
		<tag k="place" v="locality" />
		<tag k="ssr:stedsnr" v="706584" />
	</node>
	<node lat="59.92401389072886" lon="11.500683327611373" id="-16416">
		<tag k="name" v="Neset" />
		<tag k="place" v="farm" />
		<tag k="ssr:stedsnr" v="646615" />
	</node>
	<node lat="59.98295000051653" lon="11.71935554816531" id="-16418">
		<tag k="name" v="Klemetsrud" />
		<tag k="place" v="farm" />
		<tag k="ssr:stedsnr" v="646683" />
	</node>
	<node lat="59.71124722431853" lon="11.563205552810995" id="-16420">
		<tag k="name" v="Nordre Soprum" />
		<tag k="place" v="farm" />
		<tag k="ssr:stedsnr" v="706754" />
	</node>
	<node lat="59.97261388466111" lon="11.6756000021877" id="-16430">
		<tag k="name" v="Bergerudvangen" />
		<tag k="place" v="isolated_dwelling" />
		<tag k="ssr:stedsnr" v="647309" />
	</node>
	<node lat="59.94018611351596" lon="11.5692249971995" id="-16436">
		<tag k="name" v="Børtneset" />
		<tag k="place" v="locality" />
		<tag k="ssr:stedsnr" v="648398" />
	</node>
	<node lat="59.84609999808773" lon="11.49578055143188" id="-16442">
		<tag k="name" v="Stensrud" />
		<tag k="place" v="farm" />
		<tag k="ssr:stedsnr" v="648849" />
	</node>
	<node lat="59.96204444345501" lon="11.42536388438915" id="-16445">
		<tag k="name" v="Grønland" />
		<tag k="place" v="locality" />
		<tag k="ssr:stedsnr" v="707270" />
	</node>
	<node lat="59.78510555468943" lon="11.379236113157594" id="-16446">
		<tag k="name" v="Solbergsætra" />
		<tag k="place" v="locality" />
		<tag k="ssr:stedsnr" v="707350" />
	</node>
	<node lat="59.91940833084574" lon="11.423058325870468" id="-16453">
		<tag k="alt_name" v="Engen nordre" />
		<tag k="name" v="Nordre Engen" />
		<tag k="place" v="farm" />
		<tag k="ssr:stedsnr" v="707943" />
	</node>
	<node lat="59.92910277729813" lon="11.459363881113779" id="-16454">
		<tag k="name" v="Kirkeby" />
		<tag k="place" v="quarter" />
		<tag k="ssr:stedsnr" v="707952" />
	</node>
	<node lat="59.7368166676476" lon="11.818430564114772" id="-16459">
		<tag k="name" v="Østre Bøen" />
		<tag k="place" v="farm" />
		<tag k="ssr:stedsnr" v="657013" />
	</node>
	<node lat="59.71872499966241" lon="11.79214722856922" id="-16462">
		<tag k="name" v="Dalheim" />
		<tag k="place" v="farm" />
		<tag k="ssr:stedsnr" v="657112" />
	</node>
	<node lat="59.79051111432301" lon="11.40551667224137" id="-16474">
		<tag k="name" v="Hagan" />
		<tag k="place" v="isolated_dwelling" />
		<tag k="ssr:stedsnr" v="661981" />
	</node>
	<node lat="59.79301666985015" lon="11.436286116357623" id="-16475">
		<tag k="name" v="Helleren" />
		<tag k="place" v="isolated_dwelling" />
		<tag k="ssr:stedsnr" v="661985" />
	</node>
	<node lat="59.95060278055349" lon="11.540727771627266" id="-16482">
		<tag k="name" v="Nordre Hedum" />
		<tag k="place" v="farm" />
		<tag k="ssr:stedsnr" v="709387" />
	</node>
	<node lat="59.958186109395754" lon="11.44313889154194" id="-16490">
		<tag k="name" v="Bråten" />
		<tag k="place" v="farm" />
		<tag k="ssr:stedsnr" v="663439" />
	</node>
	<node lat="59.94613889045988" lon="11.3718611190073" id="-16497">
		<tag k="name" v="Mærli" />
		<tag k="place" v="farm" />
		<tag k="ssr:stedsnr" v="664234" />
	</node>
	<node lat="59.76592499827239" lon="11.649311105434794" id="-16507">
		<tag k="name" v="Østøya" />
		<tag k="place" v="farm" />
		<tag k="ssr:stedsnr" v="665000" />
	</node>
	<node lat="59.847669447150885" lon="11.558158329463037" id="-16517">
		<tag k="name" v="Einerud" />
		<tag k="place" v="locality" />
		<tag k="ssr:stedsnr" v="709749" />
	</node>
	<node lat="59.65409444586284" lon="11.522713881583176" id="-16520">
		<tag k="name" v="Tilflukt" />
		<tag k="place" v="isolated_dwelling" />
		<tag k="ssr:stedsnr" v="665735" />
	</node>
	<node lat="59.83701944168949" lon="11.47718055109837" id="-16521">
		<tag k="alt_name" v="Grepperud nordre" />
		<tag k="name" v="Nordre Grepperud" />
		<tag k="place" v="farm" />
		<tag k="ssr:stedsnr" v="709817" />
	</node>
	<node lat="59.80613333088245" lon="11.413419447321264" id="-16524">
		<tag k="name" v="Lilleby" />
		<tag k="place" v="farm" />
		<tag k="ssr:stedsnr" v="890074" />
	</node>
	<node lat="59.74685281029076" lon="11.439812869909913" id="-16528">
		<tag k="alt_name" v="Østby;Østby nordre" />
		<tag k="fixme" v="consider place=hamlet" />
		<tag k="name" v="Nordre Østby" />
		<tag k="place" v="farm" />
		<tag k="ssr:stedsnr" v="671071" />
	</node>
	<node lat="59.79007222011742" lon="11.707608334027974" id="-16533">
		<tag k="name" v="Nygård" />
		<tag k="place" v="locality" />
		<tag k="ssr:stedsnr" v="890192" />
	</node>
	<node lat="59.700713888908375" lon="11.504586104035043" id="-16534">
		<tag k="name" v="Haugerud" />
		<tag k="place" v="farm" />
		<tag k="ssr:stedsnr" v="671312" />
	</node>
	<node lat="59.74061053428658" lon="11.6386966658345" id="-16537">
		<tag k="fixme" v="consider place=hamlet" />
		<tag k="name" v="Snarholt" />
		<tag k="place" v="farm" />
		<tag k="ssr:stedsnr" v="671683" />
	</node>
	<node lat="59.81344444154854" lon="11.281038881920665" id="-16538">
		<tag k="name" v="Steffarud" />
		<tag k="place" v="farm" />
		<tag k="ssr:stedsnr" v="671810" />
	</node>
	<node lat="59.68494604234922" lon="11.45646223592732" id="-16539">
		<tag k="fixme" v="multiple name tags, choose one and add the other to alt_name" />
		<tag k="name" v="Nedre Bjørkenes;Nordre Bjørkenes" />
		<tag k="place" v="farm" />
		<tag k="ssr:stedsnr" v="671801" />
	</node>
	<node lat="59.99237222466922" lon="11.71951943965065" id="-16540">
		<tag k="name" v="Nordre Ovlien" />
		<tag k="place" v="farm" />
		<tag k="ssr:stedsnr" v="671934" />
	</node>
	<node lat="59.9151722262384" lon="11.500572224628755" id="-16545">
		<tag k="alt_name" v="Halvorsrud, vestre;Halvorsrud vestre" />
		<tag k="name" v="Vestre Halvorsrud" />
		<tag k="place" v="farm" />
		<tag k="ssr:stedsnr" v="672018" />
	</node>
	<node lat="59.90992222202965" lon="11.660102769771786" id="-16546">
		<tag k="fixme" v="multiple name tags, choose one and add the other to alt_name" />
		<tag k="name" v="Settasaga;Settestua" />
		<tag k="place" v="isolated_dwelling" />
		<tag k="ssr:stedsnr" v="672029" />
	</node>
	<node lat="59.94792777617049" lon="11.499827770653852" id="-16548">
		<tag k="fixme" v="multiple name tags, choose one and add the other to alt_name" />
		<tag k="name" v="Fossen;Lokshaugfossen" />
		<tag k="place" v="farm" />
		<tag k="ssr:stedsnr" v="672066" />
	</node>
	<node lat="59.9400500045687" lon="11.8111666626525" id="-16550">
		<tag k="name" v="Øysjøen" />
		<tag k="place" v="farm" />
		<tag k="ssr:stedsnr" v="672082" />
	</node>
	<node lat="59.861305560130184" lon="11.660702773339956" id="-16555">
		<tag k="name" v="Gadderud" />
		<tag k="place" v="farm" />
		<tag k="ssr:stedsnr" v="672121" />
	</node>
	<node lat="59.85441227912237" lon="11.690589912921908" id="-16556">
		<tag k="fixme" v="consider place=hamlet" />
		<tag k="name" v="Fagermoen" />
		<tag k="place" v="farm" />
		<tag k="ssr:stedsnr" v="672128" />
	</node>
	<node lat="59.86634999774529" lon="11.524250003446724" id="-16557">
		<tag k="name" v="Melby" />
		<tag k="place" v="farm" />
		<tag k="ssr:stedsnr" v="672163" />
	</node>
	<node lat="59.88927499560588" lon="11.799491673720972" id="-16558">
		<tag k="name" v="Langsrud" />
		<tag k="place" v="farm" />
		<tag k="ssr:stedsnr" v="672182" />
	</node>
	<node lat="59.88796666863165" lon="11.545024995902141" id="-16559">
		<tag k="name" v="Dalby" />
		<tag k="place" v="farm" />
		<tag k="ssr:stedsnr" v="672183" />
	</node>
	<node lat="59.887836113606326" lon="11.510130557581592" id="-16560">
		<tag k="name" v="Burholsætra" />
		<tag k="place" v="locality" />
		<tag k="ssr:stedsnr" v="672185" />
	</node>
	<node lat="59.77431111357408" lon="11.63698889314646" id="-16563">
		<tag k="name" v="Vangen" />
		<tag k="place" v="farm" />
		<tag k="ssr:stedsnr" v="672409" />
	</node>
	<node lat="59.91662499722375" lon="11.538005548379797" id="-16565">
		<tag k="name" v="Lierjordet" />
		<tag k="place" v="farm" />
		<tag k="ssr:stedsnr" v="890629" />
	</node>
	<node lat="59.92595000294718" lon="11.49370555609303" id="-16566">
		<tag k="name" v="Hagen" />
		<tag k="place" v="farm" />
		<tag k="ssr:stedsnr" v="890652" />
	</node>
	<node lat="59.92878410065526" lon="11.480556350470543" id="-16567">
		<tag k="alt_name" v="Bogstad nordre;Nordre Bogstad" />
		<tag k="fixme" v="consider place=hamlet" />
		<tag k="name" v="Nordre Bokstad" />
		<tag k="place" v="farm" />
		<tag k="ssr:stedsnr" v="890653" />
	</node>
	<node lat="59.92575314797756" lon="11.483067109107582" id="-16568">
		<tag k="alt_name" v="Bogstad søndre;Søndre Bogstad" />
		<tag k="fixme" v="consider place=hamlet" />
		<tag k="name" v="Søndre Bokstad" />
		<tag k="place" v="farm" />
		<tag k="ssr:stedsnr" v="890657" />
	</node>
	<node lat="59.931233330804034" lon="11.46456945288779" id="-16569">
		<tag k="name" v="Fossnes" />
		<tag k="place" v="quarter" />
		<tag k="ssr:stedsnr" v="890658" />
	</node>
	<node lat="59.75861111156423" lon="11.821833326243604" id="-16570">
		<tag k="alt_name" v="Trandem søndre" />
		<tag k="name" v="Sør-Trandum" />
		<tag k="place" v="farm" />
		<tag k="ssr:stedsnr" v="672372" />
	</node>
	<node lat="59.95841666583764" lon="11.425113892429978" id="-16571">
		<tag k="name" v="Haugen" />
		<tag k="place" v="farm" />
		<tag k="ssr:stedsnr" v="672487" />
	</node>
	<node lat="59.93407777347123" lon="11.475683341299153" id="-16573">
		<tag k="name" v="Stenerud" />
		<tag k="place" v="locality" />
		<tag k="ssr:stedsnr" v="890663" />
	</node>
	<node lat="59.76906944693589" lon="11.36275555301027" id="-16574">
		<tag k="alt_name" v="Sandem" />
		<tag k="name" v="Sandum" />
		<tag k="place" v="farm" />
		<tag k="ssr:stedsnr" v="672906" />
	</node>
	<node lat="59.81014166800895" lon="11.401511104837782" id="-16576">
		<tag k="name" v="Holter" />
		<tag k="place" v="farm" />
		<tag k="ssr:stedsnr" v="672810" />
	</node>
	<node lat="59.78942222339099" lon="11.417808326243474" id="-16577">
		<tag k="name" v="Støvin" />
		<tag k="place" v="farm" />
		<tag k="ssr:stedsnr" v="672871" />
	</node>
	<node lat="59.93693888838255" lon="11.452013891619062" id="-16578">
		<tag k="alt_name" v="Haug nordre" />
		<tag k="name" v="Nordre Haug" />
		<tag k="place" v="farm" />
		<tag k="ssr:stedsnr" v="890553" />
	</node>
	<node lat="59.809986108482136" lon="11.872655547627508" id="-16579">
		<tag k="name" v="Krokvassheia" />
		<tag k="place" v="isolated_dwelling" />
		<tag k="ssr:stedsnr" v="673171" />
	</node>
	<node lat="59.93239722292289" lon="11.394541659509818" id="-16582">
		<tag k="name" v="Korsmo" />
		<tag k="place" v="farm" />
		<tag k="ssr:stedsnr" v="890983" />
	</node>
	<node lat="59.934874998894074" lon="11.378824996599054" id="-16583">
		<tag k="name" v="Eikeberg" />
		<tag k="place" v="farm" />
		<tag k="ssr:stedsnr" v="890992" />
	</node>
	<node lat="59.911002775354746" lon="11.47845278531007" id="-16594">
		<tag k="name" v="Hellebakken" />
		<tag k="place" v="locality" />
		<tag k="ssr:stedsnr" v="891461" />
	</node>
	<node lat="59.84882986540577" lon="11.509936020331553" id="-16601">
		<tag k="fixme" v="consider place=hamlet" />
		<tag k="name" v="Gromsrud" />
		<tag k="place" v="farm" />
		<tag k="ssr:stedsnr" v="892838" />
	</node>
	<node lat="59.99747222325183" lon="11.827383337090126" id="-16604">
		<tag k="name" v="Jutulbo" />
		<tag k="place" v="isolated_dwelling" />
		<tag k="ssr:stedsnr" v="892891" />
	</node>
	<node lat="59.83489444825475" lon="11.533636105412022" id="-16605">
		<tag k="name" v="Keiserud" />
		<tag k="place" v="locality" />
		<tag k="ssr:stedsnr" v="892851" />
	</node>
	<node lat="59.718997218738174" lon="11.466774997046395" id="-16612">
		<tag k="name" v="Løkka" />
		<tag k="place" v="farm" />
		<tag k="ssr:stedsnr" v="706858" />
	</node>
	<node lat="59.77860555352155" lon="11.383991675173405" id="-16617">
		<tag k="name" v="Mørksætra" />
		<tag k="place" v="locality" />
		<tag k="ssr:stedsnr" v="707365" />
	</node>
	<node lat="59.81908055282327" lon="11.749250000578847" id="-16619">
		<tag k="name" v="Berger" />
		<tag k="place" v="locality" />
		<tag k="ssr:stedsnr" v="707616" />
	</node>
	<node lat="59.92191944011181" lon="11.462088888848992" id="-16620">
		<tag k="name" v="Presterud" />
		<tag k="place" v="farm" />
		<tag k="ssr:stedsnr" v="707619" />
	</node>
	<node lat="59.93764999754288" lon="11.448055557184288" id="-16624">
		<tag k="name" v="Løkken" />
		<tag k="place" v="farm" />
		<tag k="ssr:stedsnr" v="707510" />
	</node>
	<node lat="59.99986388965501" lon="11.551180553971365" id="-16625">
		<tag k="name" v="Vårli" />
		<tag k="place" v="isolated_dwelling" />
		<tag k="ssr:stedsnr" v="707581" />
	</node>
	<node lat="60.01290277476506" lon="11.553352771050811" id="-16627">
		<tag k="name" v="Korperud" />
		<tag k="place" v="locality" />
		<tag k="ssr:stedsnr" v="707803" />
	</node>
	<node lat="59.83661110996986" lon="11.520844452896588" id="-16638">
		<tag k="name" v="Ballerud" />
		<tag k="place" v="farm" />
		<tag k="ssr:stedsnr" v="709882" />
	</node>
	<node lat="59.746452773330425" lon="11.81142778581531" id="-16652">
		<tag k="name" v="Nord-Steinby" />
		<tag k="place" v="farm" />
		<tag k="ssr:stedsnr" v="718038" />
	</node>
	<node lat="59.74351669900062" lon="11.80792075288117" id="-16653">
		<tag k="name" v="Østre Tørnby" />
		<tag k="place" v="farm" />
		<tag k="ssr:stedsnr" v="718040" />
	</node>
	<node lat="59.8148194440665" lon="11.464399997356214" id="-16660">
		<tag k="name" v="Brostad" />
		<tag k="place" v="farm" />
		<tag k="ssr:stedsnr" v="722185" />
	</node>
	<node lat="59.65360833473001" lon="11.860141667852751" id="-16672">
		<tag k="name" v="Husa" />
		<tag k="place" v="farm" />
		<tag k="ssr:stedsnr" v="900139" />
	</node>
	<node lat="59.69807222466845" lon="11.93966945098349" id="-16676">
		<tag k="name" v="Nedstua" />
		<tag k="place" v="farm" />
		<tag k="ssr:stedsnr" v="900183" />
	</node>
	<node lat="59.882700001610246" lon="11.549769453494857" id="-16683">
		<tag k="name" v="Haget" />
		<tag k="place" v="quarter" />
		<tag k="ssr:stedsnr" v="723868" />
	</node>
	<node lat="59.80872500203276" lon="11.664444452707933" id="-16685">
		<tag k="name" v="Lystad" />
		<tag k="place" v="locality" />
		<tag k="ssr:stedsnr" v="724470" />
	</node>
	<node lat="59.84051666738347" lon="11.362233339298955" id="-16687">
		<tag k="building" v="industrial" />
		<tag k="industrial" v="factory" />
		<tag k="name" v="Tunnsjø bruk" />
		<tag k="ssr:stedsnr" v="724623" />
	</node>
	<node lat="59.88269444765463" lon="11.442955560893003" id="-16691">
		<tag k="name" v="Rudsætra" />
		<tag k="place" v="locality" />
		<tag k="ssr:stedsnr" v="725269" />
	</node>
	<node lat="59.97918888738025" lon="11.63731944625402" id="-16697">
		<tag k="name" v="Kloppmyra" />
		<tag k="place" v="locality" />
		<tag k="ssr:stedsnr" v="726179" />
	</node>
	<node lat="59.63966111504959" lon="11.515066673296344" id="-16705">
		<tag k="name" v="Tuverud" />
		<tag k="place" v="farm" />
		<tag k="ssr:stedsnr" v="726705" />
	</node>
	<node lat="59.639519444980984" lon="11.513049993431256" id="-16706">
		<tag k="alt_name" v="V. Tuverud" />
		<tag k="name" v="Vestre Tuverud" />
		<tag k="place" v="farm" />
		<tag k="ssr:stedsnr" v="726707" />
	</node>
	<node lat="59.84611388843214" lon="11.70562778401578" id="-16718">
		<tag k="name" v="Engen" />
		<tag k="place" v="farm" />
		<tag k="ssr:stedsnr" v="727198" />
	</node>
	<node lat="59.9156472216612" lon="11.385497229680995" id="-16720">
		<tag k="name" v="Lomsnes" />
		<tag k="place" v="farm" />
		<tag k="ssr:stedsnr" v="727483" />
	</node>
	<node lat="59.893483332945266" lon="11.595063893023381" id="-16726">
		<tag k="name" v="Hvitmyra" />
		<tag k="place" v="farm" />
		<tag k="ssr:stedsnr" v="732258" />
	</node>
	<node lat="59.66309444810714" lon="11.835927784686346" id="-16728">
		<tag k="name" v="Os" />
		<tag k="place" v="farm" />
		<tag k="ssr:stedsnr" v="732271" />
	</node>
	<node lat="59.68262999539527" lon="11.483117457430962" id="-16734">
		<tag k="alt_name" v="Vettelrud" />
		<tag k="name" v="Vetlerud" />
		<tag k="place" v="locality" />
		<tag k="ssr:stedsnr" v="732353" />
	</node>
	<node lat="59.687909318732004" lon="11.533958393325618" id="-16736">
		<tag k="alt_name" v="Påvestad" />
		<tag k="fixme" v="consider place=hamlet" />
		<tag k="name" v="Pavestad" />
		<tag k="old_name" v="Paavestad" />
		<tag k="place" v="farm" />
		<tag k="ssr:stedsnr" v="732362" />
	</node>
	<node lat="59.75210552815701" lon="11.815718741754058" id="-16737">
		<tag k="fixme" v="consider place=hamlet" />
		<tag k="name" v="Tukun" />
		<tag k="place" v="farm" />
		<tag k="ssr:stedsnr" v="732399" />
	</node>
	<node lat="59.79863333498527" lon="11.517280556886085" id="-16739">
		<tag k="name" v="Bergerud" />
		<tag k="place" v="farm" />
		<tag k="ssr:stedsnr" v="732507" />
	</node>
	<node lat="59.72752222207114" lon="11.748219440447194" id="-16742">
		<tag k="alt_name" v="Eikestaden" />
		<tag k="name" v="Eikestad" />
		<tag k="place" v="isolated_dwelling" />
		<tag k="ssr:stedsnr" v="732658" />
	</node>
	<node lat="59.81559721809407" lon="11.446263880442535" id="-16744">
		<tag k="alt_name" v="Lognsli" />
		<tag k="name" v="Lognslia" />
		<tag k="place" v="farm" />
		<tag k="ssr:stedsnr" v="732796" />
	</node>
	<node lat="59.81340000233239" lon="11.46764999781015" id="-16745">
		<tag k="name" v="Sveits" />
		<tag k="place" v="farm" />
		<tag k="ssr:stedsnr" v="732801" />
	</node>
	<node lat="59.915386112979306" lon="11.593874994223464" id="-16748">
		<tag k="name" v="Vestli" />
		<tag k="place" v="farm" />
		<tag k="ssr:stedsnr" v="733007" />
	</node>
	<node lat="59.91300000385898" lon="11.616241659634603" id="-16750">
		<tag k="name" v="Lia" />
		<tag k="place" v="farm" />
		<tag k="ssr:stedsnr" v="733041" />
	</node>
	<node lat="59.93422904087172" lon="11.482588893490453" id="-16753">
		<tag k="fixme" v="consider place=hamlet" />
		<tag k="name" v="Åmot" />
		<tag k="place" v="farm" />
		<tag k="ssr:stedsnr" v="733048" />
	</node>
	<node lat="59.93050531148331" lon="11.589423242881915" id="-16754">
		<tag k="name" v="Fallet" />
		<tag k="place" v="locality" />
		<tag k="ssr:stedsnr" v="733056" />
	</node>
	<node lat="59.92280277391072" lon="11.793241658863936" id="-16755">
		<tag k="name" v="Gravdalen" />
		<tag k="place" v="isolated_dwelling" />
		<tag k="ssr:stedsnr" v="733060" />
	</node>
	<node lat="59.940375002031274" lon="11.488427781423471" id="-16756">
		<tag k="name" v="Årud" />
		<tag k="place" v="farm" />
		<tag k="ssr:stedsnr" v="733090" />
	</node>
	<node lat="59.934630556043714" lon="11.60010555838108" id="-16757">
		<tag k="name" v="Hemmingby" />
		<tag k="place" v="farm" />
		<tag k="ssr:stedsnr" v="733099" />
	</node>
	<node lat="59.9153638885338" lon="11.618938892333535" id="-16758">
		<tag k="name" v="Høgmoen" />
		<tag k="place" v="isolated_dwelling" />
		<tag k="ssr:stedsnr" v="733001" />
	</node>
	<node lat="59.85189954659151" lon="11.530147626304911" id="-16759">
		<tag k="alt_name" v="Komnes, østre" />
		<tag k="fixme" v="consider place=hamlet" />
		<tag k="name" v="Østre Komnes" />
		<tag k="place" v="farm" />
		<tag k="ssr:stedsnr" v="733158" />
	</node>
	<node lat="59.8026994326448" lon="11.471643952199077" id="-16762">
		<tag k="alt_name" v="Rakkestad, søndre;Rakkestad søndre" />
		<tag k="fixme" v="consider place=hamlet" />
		<tag k="name" v="Søndre Rakkestad" />
		<tag k="place" v="farm" />
		<tag k="ssr:stedsnr" v="733249" />
	</node>
	<node lat="59.7767527804233" lon="11.470769449042487" id="-16767">
		<tag k="name" v="Karlstad" />
		<tag k="place" v="farm" />
		<tag k="ssr:stedsnr" v="733411" />
	</node>
	<node lat="59.7754333335457" lon="11.511824991308345" id="-16768">
		<tag k="alt_name" v="Østreng, søndre;Østreng" />
		<tag k="name" v="Søndre Østreng" />
		<tag k="place" v="farm" />
		<tag k="ssr:stedsnr" v="733414" />
	</node>
	<node lat="59.788825001694924" lon="11.531297219160855" id="-16770">
		<tag k="name" v="Skogly" />
		<tag k="place" v="farm" />
		<tag k="ssr:stedsnr" v="733418" />
	</node>
	<node lat="59.79331150756252" lon="11.681182226556828" id="-16772">
		<tag k="fixme" v="consider place=hamlet" />
		<tag k="name" v="Kolstad" />
		<tag k="place" v="farm" />
		<tag k="ssr:stedsnr" v="733437" />
	</node>
	<node lat="59.76838046513186" lon="11.480642959310245" id="-16775">
		<tag k="fixme" v="consider place=hamlet" />
		<tag k="name" v="Brautmet" />
		<tag k="place" v="farm" />
		<tag k="ssr:stedsnr" v="733399" />
	</node>
	<node lat="59.91217756372714" lon="11.456009673169135" id="-16778">
		<tag k="fixme" v="consider place=hamlet" />
		<tag k="name" v="Rud" />
		<tag k="place" v="farm" />
		<tag k="ssr:stedsnr" v="733573" />
	</node>
	<node lat="59.9117916694759" lon="11.38201945235076" id="-16779">
		<tag k="name" v="Hauger" />
		<tag k="place" v="farm" />
		<tag k="ssr:stedsnr" v="733587" />
	</node>
	<node lat="59.793918030968534" lon="11.45403754772136" id="-16780">
		<tag k="fixme" v="consider place=hamlet" />
		<tag k="name" v="Riser" />
		<tag k="place" v="farm" />
		<tag k="ssr:stedsnr" v="733806" />
	</node>
	<node lat="59.74973031214536" lon="11.431662364347206" id="-16781">
		<tag k="alt_name" v="Vestby, søndre;Vestby" />
		<tag k="name" v="Søndre Vestby" />
		<tag k="place" v="farm" />
		<tag k="ssr:stedsnr" v="733906" />
	</node>
	<node lat="59.74955833253784" lon="11.44686666231771" id="-16789">
		<tag k="name" v="Skogmoen" />
		<tag k="place" v="farm" />
		<tag k="ssr:stedsnr" v="750123" />
	</node>
	<node lat="59.679228556589784" lon="11.431807338338112" id="-16790">
		<tag k="fixme" v="consider place=hamlet" />
		<tag k="name" v="Gukil" />
		<tag k="place" v="farm" />
		<tag k="ssr:stedsnr" v="750208" />
	</node>
	<node lat="59.817369443887216" lon="11.474025007470473" id="-16791">
		<tag k="name" v="Bjørkholt" />
		<tag k="place" v="farm" />
		<tag k="ssr:stedsnr" v="905165" />
	</node>
	<node lat="59.7984477842781" lon="11.405116202780658" id="-16798">
		<tag k="alt_name" v="Hafstein, nordre" />
		<tag k="fixme" v="consider place=hamlet" />
		<tag k="name" v="Nordre Hafstein" />
		<tag k="place" v="farm" />
		<tag k="ssr:stedsnr" v="905977" />
	</node>
	<node lat="60.02034722230873" lon="11.54428889674817" id="-16814">
		<tag k="name" v="Djuptjennsæter" />
		<tag k="place" v="locality" />
		<tag k="ssr:stedsnr" v="767793" />
	</node>
	<node lat="59.81000555402044" lon="11.42757500043109" id="-16816">
		<tag k="alt_name" v="Vestreng Østre" />
		<tag k="name" v="Østre Vestreng" />
		<tag k="place" v="farm" />
		<tag k="ssr:stedsnr" v="768091" />
	</node>
	<node lat="59.851501992084735" lon="11.667369881742609" id="-16817">
		<tag k="name" v="Fossen" />
		<tag k="place" v="locality" />
		<tag k="ssr:stedsnr" v="768297" />
	</node>
	<node lat="59.936005558809974" lon="11.45341111227917" id="-16820">
		<tag k="alt_name" v="Haug mellem" />
		<tag k="name" v="Mellom-Haug" />
		<tag k="place" v="farm" />
		<tag k="ssr:stedsnr" v="768494" />
	</node>
	<node lat="59.931438885168" lon="11.459374994316832" id="-16821">
		<tag k="name" v="Haugestad" />
		<tag k="place" v="farm" />
		<tag k="ssr:stedsnr" v="768499" />
	</node>
	<node lat="59.92545196852725" lon="11.451942135316198" id="-16822">
		<tag k="fixme" v="consider place=hamlet" />
		<tag k="name" v="Aurskog prestegård" />
		<tag k="place" v="farm" />
		<tag k="ssr:stedsnr" v="768946" />
	</node>
	<node lat="59.949743339850485" lon="11.39945924565017" id="-16823">
		<tag k="alt_name" v="Killingmo øvre;Øvre Killingmo" />
		<tag k="fixme" v="consider place=hamlet" />
		<tag k="name" v="Øvre Kjellingmo" />
		<tag k="place" v="farm" />
		<tag k="ssr:stedsnr" v="907230" />
	</node>
	<node lat="59.94787778028395" lon="11.368547225066921" id="-16825">
		<tag k="name" v="Vestli" />
		<tag k="place" v="farm" />
		<tag k="ssr:stedsnr" v="907236" />
	</node>
	<node lat="59.951916669126305" lon="11.39505555089746" id="-16826">
		<tag k="name" v="Kambu" />
		<tag k="place" v="locality" />
		<tag k="ssr:stedsnr" v="907242" />
	</node>
	<node lat="59.84894444883348" lon="11.367686116733461" id="-16833">
		<tag k="name" v="Slora" />
		<tag k="place" v="locality" />
		<tag k="ssr:stedsnr" v="907642" />
	</node>
	<node lat="59.89859721875262" lon="11.658500007486849" id="-16839">
		<tag k="name" v="Ertetjennstua" />
		<tag k="place" v="isolated_dwelling" />
		<tag k="ssr:stedsnr" v="770769" />
	</node>
	<node lat="59.78194166945305" lon="11.529047215450815" id="-16843">
		<tag k="name" v="Kvebekk" />
		<tag k="place" v="locality" />
		<tag k="ssr:stedsnr" v="907761" />
	</node>
	<node lat="59.72801111072432" lon="11.63850000305076" id="-16856">
		<tag k="name" v="Bjurbekk" />
		<tag k="place" v="locality" />
		<tag k="ssr:stedsnr" v="908610" />
	</node>
	<node lat="59.72476944278545" lon="11.624191673628777" id="-16857">
		<tag k="name" v="Østre Sundby" />
		<tag k="place" v="farm" />
		<tag k="ssr:stedsnr" v="908611" />
	</node>
	<node lat="59.67601388624145" lon="11.532605550210315" id="-16859">
		<tag k="name" v="Haugen" />
		<tag k="place" v="farm" />
		<tag k="ssr:stedsnr" v="908444" />
	</node>
	<node lat="59.741802660046496" lon="11.639546613171657" id="-16862">
		<tag k="name" v="Snarholt" />
		<tag k="place" v="farm" />
		<tag k="ssr:stedsnr" v="908636" />
	</node>
	<node lat="59.63501389296945" lon="11.515233324867296" id="-16864">
		<tag k="alt_name" v="N. Ydersbond" />
		<tag k="name" v="Nordre Ydersbotn" />
		<tag k="place" v="farm" />
		<tag k="ssr:stedsnr" v="908732" />
	</node>
	<node lat="59.67801255250575" lon="11.483058228173338" id="-16867">
		<tag k="fixme" v="consider place=hamlet" />
		<tag k="name" v="Øvre Kragtorp" />
		<tag k="place" v="farm" />
		<tag k="ssr:stedsnr" v="777506" />
	</node>
	<node lat="59.83597222619444" lon="11.718602769921382" id="-16870">
		<tag k="name" v="Velta" />
		<tag k="place" v="farm" />
		<tag k="ssr:stedsnr" v="909179" />
	</node>
	<node lat="59.73039444334621" lon="11.771391660776443" id="-16876">
		<tag k="name" v="Kopperud" />
		<tag k="place" v="farm" />
		<tag k="ssr:stedsnr" v="779004" />
	</node>
	<node lat="59.790177779823125" lon="11.324736116846278" id="-16893">
		<tag k="alt_name" v="Vangen" />
		<tag k="name" v="Svenskevangen" />
		<tag k="place" v="locality" />
		<tag k="ssr:stedsnr" v="909841" />
	</node>
	<node lat="59.81152499746823" lon="11.393691664760818" id="-16902">
		<tag k="name" v="Mosserud" />
		<tag k="place" v="farm" />
		<tag k="ssr:stedsnr" v="784750" />
	</node>
	<node lat="59.87386388596926" lon="11.572161108741" id="-16903">
		<tag k="alt_name" v="Bernhus nordre" />
		<tag k="name" v="Nordre Bernhus" />
		<tag k="place" v="farm" />
		<tag k="ssr:stedsnr" v="784904" />
	</node>
	<node lat="59.754111114061416" lon="11.680266663253803" id="-16912">
		<tag k="name" v="Torsbråten" />
		<tag k="place" v="locality" />
		<tag k="ssr:stedsnr" v="786055" />
	</node>
	<node lat="59.85370833096013" lon="11.815491669274989" id="-16914">
		<tag k="alt_name" v="Eikeheia vestre" />
		<tag k="name" v="Vestre Eikeheia" />
		<tag k="place" v="farm" />
		<tag k="ssr:stedsnr" v="786211" />
	</node>
	<node lat="59.67101837263657" lon="11.495124722992951" id="-16915">
		<tag k="name" v="Salstrokken" />
		<tag k="place" v="farm" />
		<tag k="ssr:stedsnr" v="786427" />
	</node>
	<node lat="59.845680138927634" lon="11.671493791907599" id="-16919">
		<tag k="fixme" v="consider place=hamlet" />
		<tag k="name" v="Bunes" />
		<tag k="place" v="farm" />
		<tag k="ssr:stedsnr" v="787218" />
	</node>
	<node lat="59.9270944410195" lon="11.58949166439225" id="-16920">
		<tag k="name" v="Søndre Melby" />
		<tag k="place" v="farm" />
		<tag k="ssr:stedsnr" v="787611" />
	</node>
	<node lat="59.88576944526099" lon="11.554008338045076" id="-16921">
		<tag k="name" v="Bakken" />
		<tag k="place" v="farm" />
		<tag k="ssr:stedsnr" v="787400" />
	</node>
	<node lat="59.873866663668586" lon="11.3690138824471" id="-16923">
		<tag k="name" v="Tunsbergsæter" />
		<tag k="place" v="locality" />
		<tag k="ssr:stedsnr" v="787561" />
	</node>
	<node lat="60.011094446238864" lon="11.751205556394195" id="-16925">
		<tag k="name" v="Tangen" />
		<tag k="place" v="locality" />
		<tag k="ssr:stedsnr" v="787915" />
	</node>
	<node lat="59.717498892208376" lon="11.513096760287672" id="-16927">
		<tag k="alt_name" v="Evenby, nordre" />
		<tag k="fixme" v="consider place=hamlet" />
		<tag k="name" v="Nordre Evenby" />
		<tag k="place" v="farm" />
		<tag k="ssr:stedsnr" v="792309" />
	</node>
	<node lat="59.73537777880338" lon="11.813361103123201" id="-16932">
		<tag k="name" v="Søndre Bøen" />
		<tag k="place" v="farm" />
		<tag k="ssr:stedsnr" v="792613" />
	</node>
	<node lat="59.69379747329249" lon="11.397729779452918" id="-16933">
		<tag k="fixme" v="consider place=hamlet" />
		<tag k="name" v="Kløv" />
		<tag k="place" v="farm" />
		<tag k="ssr:stedsnr" v="792812" />
	</node>
	<node lat="59.95398333325566" lon="11.594116665994106" id="-16934">
		<tag k="alt_name" v="Harafallet, nordre;Harefallet nordre;Nordre Harefallet" />
		<tag k="name" v="Nordre Harafallet" />
		<tag k="place" v="isolated_dwelling" />
		<tag k="ssr:stedsnr" v="793109" />
	</node>
	<node lat="59.86639444013866" lon="11.777024997152727" id="-16937">
		<tag k="name" v="Pynten" />
		<tag k="place" v="farm" />
		<tag k="ssr:stedsnr" v="793127" />
	</node>
	<node lat="59.86689722204156" lon="11.674280559651123" id="-16938">
		<tag k="name" v="Fallet" />
		<tag k="place" v="farm" />
		<tag k="ssr:stedsnr" v="793138" />
	</node>
	<node lat="59.86261388531544" lon="11.50946944997597" id="-16941">
		<tag k="name" v="Sandbakken" />
		<tag k="place" v="farm" />
		<tag k="ssr:stedsnr" v="793185" />
	</node>
	<node lat="59.86651517064718" lon="11.53496777588" id="-16942">
		<tag k="fixme" v="consider place=hamlet" />
		<tag k="name" v="Rud" />
		<tag k="place" v="farm" />
		<tag k="ssr:stedsnr" v="793186" />
	</node>
	<node lat="59.82223610825317" lon="11.724102771914236" id="-16943">
		<tag k="alt_name" v="Kinnestad, søndre;Kinnestad søndre" />
		<tag k="name" v="Søndre Kinnestad" />
		<tag k="place" v="farm" />
		<tag k="ssr:stedsnr" v="793310" />
	</node>
	<node lat="59.82691666223073" lon="11.5415888907246" id="-16953">
		<tag k="name" v="Nordby" />
		<tag k="place" v="farm" />
		<tag k="ssr:stedsnr" v="793288" />
	</node>
	<node lat="59.75938333119775" lon="11.64317777750284" id="-16956">
		<tag k="name" v="Fallet" />
		<tag k="place" v="farm" />
		<tag k="ssr:stedsnr" v="793415" />
	</node>
	<node lat="59.776158332907954" lon="11.505450004297137" id="-16957">
		<tag k="alt_name" v="Østreng, vestre;Østreng" />
		<tag k="name" v="Vestre Østreng" />
		<tag k="place" v="farm" />
		<tag k="ssr:stedsnr" v="793475" />
	</node>
	<node lat="59.81624999957736" lon="11.40599999455269" id="-16959">
		<tag k="name" v="Stokkebekk" />
		<tag k="place" v="farm" />
		<tag k="ssr:stedsnr" v="793814" />
	</node>
	<node lat="59.81621110717383" lon="11.400183326462486" id="-16960">
		<tag k="alt_name" v="Ton;Toen søndre" />
		<tag k="name" v="Søndre Toen" />
		<tag k="place" v="locality" />
		<tag k="ssr:stedsnr" v="793815" />
	</node>
	<node lat="59.8105416679063" lon="11.381047221020431" id="-16962">
		<tag k="name" v="Bakker" />
		<tag k="place" v="farm" />
		<tag k="ssr:stedsnr" v="793820" />
	</node>
	<node lat="59.72725351451477" lon="11.427683714101992" id="-16963">
		<tag k="name" v="Torp" />
		<tag k="place" v="farm" />
		<tag k="ssr:stedsnr" v="793873" />
	</node>
	<node lat="59.74307600545395" lon="11.807096279196186" id="-16964">
		<tag k="name" v="Tørnby" />
		<tag k="place" v="hamlet" />
		<tag k="ssr:stedsnr" v="793706" />
	</node>
	<node lat="59.91488055384723" lon="11.784494436994104" id="-16965">
		<tag k="alt_name" v="Langli, nordre;Nordre Langlia" />
		<tag k="name" v="Nordre Langli" />
		<tag k="place" v="locality" />
		<tag k="ssr:stedsnr" v="794007" />
	</node>
	<node lat="59.91513889132083" lon="11.512269446081692" id="-16967">
		<tag k="alt_name" v="Halvorsrud, østre;Halvorsrud østre" />
		<tag k="name" v="Østre Halvorsrud" />
		<tag k="place" v="farm" />
		<tag k="ssr:stedsnr" v="794015" />
	</node>
	<node lat="59.912774999432784" lon="11.49179999852919" id="-16968">
		<tag k="alt_name" v="Bråten" />
		<tag k="name" v="Toverudbråten" />
		<tag k="place" v="farm" />
		<tag k="ssr:stedsnr" v="794021" />
	</node>
	<node lat="59.917952203540885" lon="11.489520703899938" id="-16969">
		<tag k="fixme" v="consider place=hamlet" />
		<tag k="name" v="Toverud" />
		<tag k="place" v="farm" />
		<tag k="ssr:stedsnr" v="794022" />
	</node>
	<node lat="59.90992499577827" lon="11.469941658652324" id="-16970">
		<tag k="name" v="Enga" />
		<tag k="place" v="farm" />
		<tag k="ssr:stedsnr" v="794024" />
	</node>
	<node lat="59.93679999716379" lon="11.65935555743458" id="-16971">
		<tag k="fixme" v="consider tourism=alpine_hut or tourism=chalet" />
		<tag k="name" v="Sterkerud" />
		<tag k="ssr:stedsnr" v="794091" />
		<tag k="tourism" v="wilderness_hut" />
	</node>
	<node lat="59.81263003756805" lon="11.687315264314845" id="-16973">
		<tag k="fixme" v="consider place=hamlet" />
		<tag k="name" v="Skjeggenes" />
		<tag k="place" v="farm" />
		<tag k="ssr:stedsnr" v="794232" />
	</node>
	<node lat="59.77184999771602" lon="11.514186109924132" id="-16979">
		<tag k="name" v="Høye" />
		<tag k="place" v="farm" />
		<tag k="ssr:stedsnr" v="794404" />
	</node>
	<node lat="59.77116629475444" lon="11.63837642493638" id="-16982">
		<tag k="fixme" v="consider place=hamlet" />
		<tag k="name" v="Stakebu" />
		<tag k="place" v="farm" />
		<tag k="ssr:stedsnr" v="794419" />
	</node>
	<node lat="59.6154037720005" lon="11.515513153410126" id="-16984">
		<tag k="alt_name" v="Krok" />
		<tag k="fixme" v="consider place=hamlet" />
		<tag k="name" v="Øvre Kroken" />
		<tag k="place" v="farm" />
		<tag k="ssr:stedsnr" v="914300" />
	</node>
	<node lat="59.723308334740494" lon="11.851788897857565" id="-16985">
		<tag k="name" v="Sandvika" />
		<tag k="place" v="farm" />
		<tag k="ssr:stedsnr" v="914422" />
	</node>
	<node lat="59.8872166638269" lon="11.549436119472247" id="-16989">
		<tag k="name" v="Nordby" />
		<tag k="place" v="farm" />
		<tag k="ssr:stedsnr" v="914263" />
	</node>
	<node lat="59.6601833288088" lon="11.601491671596202" id="-16990">
		<tag k="name" v="Tjernsbu" />
		<tag k="place" v="isolated_dwelling" />
		<tag k="ssr:stedsnr" v="914272" />
	</node>
	<node lat="59.80452500418335" lon="11.51609999846995" id="-16991">
		<tag k="name" v="Halvorsrud" />
		<tag k="place" v="farm" />
		<tag k="ssr:stedsnr" v="914274" />
	</node>
	<node lat="59.70447499894388" lon="11.493969446634978" id="-16992">
		<tag k="name" v="Langsrud" />
		<tag k="place" v="farm" />
		<tag k="ssr:stedsnr" v="914333" />
	</node>
	<node lat="59.68213888462991" lon="11.546461105046292" id="-16997">
		<tag k="name" v="Åser" />
		<tag k="place" v="farm" />
		<tag k="ssr:stedsnr" v="914369" />
	</node>
	<node lat="59.72838055961919" lon="11.785725007814037" id="-16999">
		<tag k="name" v="Odden" />
		<tag k="place" v="isolated_dwelling" />
		<tag k="ssr:stedsnr" v="914649" />
	</node>
	<node lat="59.91921702012043" lon="11.568619474131715" id="-17006">
		<tag k="alt_name" v="Haneborg, nordre;Haneborg" />
		<tag k="fixme" v="consider place=hamlet" />
		<tag k="name" v="Nordre Haneborg" />
		<tag k="place" v="farm" />
		<tag k="ssr:stedsnr" v="915002" />
	</node>
	<node lat="59.91055982784466" lon="11.575380460547446" id="-17009">
		<tag k="alt_name" v="Haneborg, søndre" />
		<tag k="fixme" v="consider place=hamlet" />
		<tag k="name" v="Søndre Haneborg" />
		<tag k="place" v="farm" />
		<tag k="ssr:stedsnr" v="915016" />
	</node>
	<node lat="59.90806666786275" lon="11.60902499835398" id="-17011">
		<tag k="alt_name" v="Fossum, søndre" />
		<tag k="name" v="Søndre Fossum" />
		<tag k="place" v="farm" />
		<tag k="ssr:stedsnr" v="915028" />
	</node>
	<node lat="59.93118055406536" lon="11.5531694416094" id="-17012">
		<tag k="alt_name" v="Nordby, vestre;Nordby" />
		<tag k="name" v="Vestre Nordby" />
		<tag k="place" v="farm" />
		<tag k="ssr:stedsnr" v="915040" />
	</node>
	<node lat="59.94999999568994" lon="11.592502778898385" id="-17015">
		<tag k="alt_name" v="Harefallet" />
		<tag k="name" v="Harafallet" />
		<tag k="place" v="locality" />
		<tag k="ssr:stedsnr" v="915065" />
	</node>
	<node lat="59.95227777986525" lon="11.540100004558266" id="-17016">
		<tag k="name" v="Ekerstua" />
		<tag k="place" v="farm" />
		<tag k="ssr:stedsnr" v="915108" />
	</node>
	<node lat="59.95340960150604" lon="11.763291210788752" id="-17019">
		<tag k="alt_name" v="Mangen, søndre" />
		<tag k="fixme" v="consider place=hamlet" />
		<tag k="name" v="Søndre Mangen" />
		<tag k="place" v="farm" />
		<tag k="ssr:stedsnr" v="915117" />
	</node>
	<node lat="59.7516611075298" lon="11.90085833636094" id="-17020">
		<tag k="name" v="Karistua" />
		<tag k="place" v="isolated_dwelling" />
		<tag k="ssr:stedsnr" v="915210" />
	</node>
	<node lat="59.76043888966889" lon="11.490202779151685" id="-17021">
		<tag k="name" v="Sydnes" />
		<tag k="place" v="farm" />
		<tag k="ssr:stedsnr" v="915381" />
	</node>
	<node lat="59.86308055676057" lon="11.646188897751355" id="-17029">
		<tag k="name" v="Settemoen" />
		<tag k="place" v="farm" />
		<tag k="ssr:stedsnr" v="915136" />
	</node>
	<node lat="59.872999997607074" lon="11.569227774695142" id="-17033">
		<tag k="name" v="Pettersborg" />
		<tag k="place" v="farm" />
		<tag k="ssr:stedsnr" v="915159" />
	</node>
	<node lat="59.81204722056131" lon="11.722394442947284" id="-17037">
		<tag k="name" v="Buer" />
		<tag k="place" v="farm" />
		<tag k="ssr:stedsnr" v="915239" />
	</node>
	<node lat="59.79241944487049" lon="11.648811115935532" id="-17041">
		<tag k="name" v="Kolstadsætra" />
		<tag k="place" v="isolated_dwelling" />
		<tag k="ssr:stedsnr" v="915454" />
	</node>
	<node lat="59.80318333049184" lon="11.404147214375449" id="-17044">
		<tag k="alt_name" v="Lunder, nedre;Lunder" />
		<tag k="name" v="Nedre Lunder" />
		<tag k="place" v="farm" />
		<tag k="ssr:stedsnr" v="915774" />
	</node>
	<node lat="59.806702779087324" lon="11.371697222398906" id="-17045">
		<tag k="name" v="Foss" />
		<tag k="place" v="farm" />
		<tag k="ssr:stedsnr" v="915777" />
	</node>
	<node lat="59.927633331207524" lon="11.44275277428229" id="-17047">
		<tag k="name" v="Aursmoen" />
		<tag k="place" v="village" />
		<tag k="ssr:stedsnr" v="915564" />
	</node>
	<node lat="59.85902500368235" lon="11.42319722751488" id="-17049">
		<tag k="name" v="Holmestrand" />
		<tag k="place" v="isolated_dwelling" />
		<tag k="ssr:stedsnr" v="915698" />
	</node>
	<node lat="59.80734166575264" lon="11.392963890928263" id="-17052">
		<tag k="name" v="Lykkja" />
		<tag k="place" v="farm" />
		<tag k="ssr:stedsnr" v="915781" />
	</node>
	<node lat="59.81999167047651" lon="11.35255556367095" id="-17053">
		<tag k="name" v="Sagbråten" />
		<tag k="place" v="farm" />
		<tag k="ssr:stedsnr" v="915798" />
	</node>
	<node lat="59.97352778191882" lon="11.502716672504544" id="-17055">
		<tag k="name" v="Nordenga" />
		<tag k="place" v="farm" />
		<tag k="ssr:stedsnr" v="915999" />
	</node>
	<node lat="59.82670277620014" lon="11.856391666308124" id="-17056">
		<tag k="name" v="Galgeholtet" />
		<tag k="place" v="farm" />
		<tag k="ssr:stedsnr" v="916153" />
	</node>
	<node lat="59.72802222165432" lon="11.440933335948458" id="-17059">
		<tag k="name" v="Slora" />
		<tag k="place" v="farm" />
		<tag k="ssr:stedsnr" v="811071" />
	</node>
	<node lat="59.74657777896896" lon="11.472063884689568" id="-17061">
		<tag k="name" v="Oppheim" />
		<tag k="place" v="farm" />
		<tag k="ssr:stedsnr" v="828363" />
	</node>
	<node lat="59.78069722625515" lon="11.49493888355209" id="-17063">
		<tag k="name" v="Tøyen" />
		<tag k="old_name" v="Tøien" />
		<tag k="place" v="hamlet" />
		<tag k="ssr:stedsnr" v="828938" />
	</node>
	<node lat="59.792566663763346" lon="11.686294451282434" id="-17071">
		<tag k="alt_name" v="Kolstad søndre" />
		<tag k="name" v="Søndre Kolstad" />
		<tag k="place" v="farm" />
		<tag k="ssr:stedsnr" v="829163" />
	</node>
	<node lat="59.805155560199594" lon="11.520641658368358" id="-17072">
		<tag k="name" v="Bekkevad" />
		<tag k="place" v="farm" />
		<tag k="ssr:stedsnr" v="829179" />
	</node>
	<node lat="59.938925001390686" lon="11.72894445039058" id="-17074">
		<tag k="name" v="Øvre Molidalen" />
		<tag k="place" v="farm" />
		<tag k="ssr:stedsnr" v="829068" />
	</node>
	<node lat="59.9969277745523" lon="11.720288896646371" id="-17075">
		<tag k="historic" v="shieling" />
		<tag k="name" v="Himsætra" />
		<tag k="place" v="isolated_dwelling" />
		<tag k="ssr:stedsnr" v="829712" />
	</node>
	<node lat="59.923800002409834" lon="11.554802778382461" id="-17076">
		<tag k="name" v="Holmen" />
		<tag k="place" v="quarter" />
		<tag k="ssr:stedsnr" v="829612" />
	</node>
	<node lat="59.9240805557943" lon="11.54038334156737" id="-17077">
		<tag k="name" v="Våler" />
		<tag k="place" v="farm" />
		<tag k="ssr:stedsnr" v="829614" />
	</node>
	<node lat="59.92303332935417" lon="11.536400003389453" id="-17078">
		<tag k="name" v="Våler" />
		<tag k="place" v="farm" />
		<tag k="ssr:stedsnr" v="829615" />
	</node>
	<node lat="59.927669446171855" lon="11.541533327189496" id="-17079">
		<tag k="name" v="Auten" />
		<tag k="place" v="hamlet" />
		<tag k="ssr:stedsnr" v="829616" />
	</node>
	<node lat="59.93308333177997" lon="11.37792777203809" id="-17085">
		<tag k="name" v="Eikeberg" />
		<tag k="place" v="farm" />
		<tag k="ssr:stedsnr" v="829983" />
	</node>
	<node lat="59.90885277801755" lon="11.597944437205243" id="-17089">
		<tag k="name" v="Nygård" />
		<tag k="place" v="farm" />
		<tag k="ssr:stedsnr" v="831133" />
	</node>
	<node lat="59.76944721934405" lon="11.477477778194249" id="-17093">
		<tag k="name" v="Brautmet" />
		<tag k="place" v="farm" />
		<tag k="ssr:stedsnr" v="831413" />
	</node>
	<node lat="59.91427222219155" lon="11.507694449645253" id="-17095">
		<tag k="name" v="Halvorsrud" />
		<tag k="place" v="farm" />
		<tag k="ssr:stedsnr" v="831431" />
	</node>
	<node lat="59.831424998548606" lon="11.508852783622155" id="-17096">
		<tag k="name" v="Kingsrud" />
		<tag k="place" v="farm" />
		<tag k="ssr:stedsnr" v="831788" />
	</node>
	<node lat="59.716116666932415" lon="11.756105549965257" id="-17103">
		<tag k="building" v="civic" />
		<tag k="name" v="Branntårnet" />
		<tag k="ssr:stedsnr" v="840105" />
	</node>
	<node lat="59.85944832675432" lon="11.523068380050129" id="-17118">
		<tag k="fixme" v="consider place=hamlet" />
		<tag k="name" v="Hornås" />
		<tag k="place" v="farm" />
		<tag k="ssr:stedsnr" v="844907" />
	</node>
	<node lat="59.86103055166233" lon="11.567811103059302" id="-17119">
		<tag k="name" v="Holtermoen industriområde" />
		<tag k="place" v="quarter" />
		<tag k="ssr:stedsnr" v="844908" />
	</node>
	<node lat="59.89042221929131" lon="11.592786109866843" id="-17126">
		<tag k="alt_name" v="Fallet nedre" />
		<tag k="name" v="Nedre Fallet" />
		<tag k="place" v="farm" />
		<tag k="ssr:stedsnr" v="845629" />
	</node>
	<node lat="59.94944444712826" lon="11.59368888622911" id="-17129">
		<tag k="name" v="Øvre Harefallet" />
		<tag k="place" v="farm" />
		<tag k="ssr:stedsnr" v="845374" />
	</node>
</osm>
