<?xml version="1.0" encoding="UTF-8"?>
<osm version="0.6" generator="osmapis">
	<node lat="59.76683055193321" lon="11.718455561430348" id="-14631">
		<tag k="name" v="Grøvika" />
		<tag k="natural" v="bay" />
		<tag k="ssr:stedsnr" v="4401" />
	</node>
	<node lat="59.727844445424395" lon="11.89450555562212" id="-14632">
		<tag k="alt_name" v="Syltongen" />
		<tag k="name" v="Syltungen" />
		<tag k="natural" v="water" />
		<tag k="ssr:stedsnr" v="4413" />
	</node>
	<node lat="59.726394400508845" lon="11.861748930797987" id="-14633">
		<tag k="name" v="Søndre Sandtjenn" />
		<tag k="natural" v="water" />
		<tag k="ssr:stedsnr" v="4414" />
		<tag k="water" v="lake" />
	</node>
	<node lat="59.79343889040371" lon="11.574483337486086" id="-14636">
		<tag k="name" v="Kutjenn" />
		<tag k="natural" v="water" />
		<tag k="ssr:stedsnr" v="4476" />
	</node>
	<node lat="59.891127781012166" lon="11.768166668859548" id="-14647">
		<tag k="name" v="Legangstjenn" />
		<tag k="natural" v="water" />
		<tag k="ssr:stedsnr" v="5206" />
	</node>
	<node lat="59.88457500095343" lon="11.749083333087142" id="-14648">
		<tag k="name" v="Øytjenn" />
		<tag k="natural" v="water" />
		<tag k="ssr:stedsnr" v="5207" />
	</node>
	<node lat="59.953249997880974" lon="11.681472221610761" id="-14651">
		<tag k="name" v="Langtjenn" />
		<tag k="natural" v="water" />
		<tag k="ssr:stedsnr" v="5110" />
	</node>
	<node lat="59.95456871074775" lon="11.68662647158724" id="-14652">
		<tag k="name" v="Tvillingtjenna" />
		<tag k="natural" v="water" />
		<tag k="ssr:stedsnr" v="5112" />
		<tag k="water" v="lake" />
	</node>
	<node lat="59.84792500071612" lon="11.46136943651535" id="-14658">
		<tag k="name" v="Øvre Igletjenn" />
		<tag k="natural" v="water" />
		<tag k="ssr:stedsnr" v="5707" />
	</node>
	<node lat="59.87866389124246" lon="11.45809999538099" id="-14660">
		<tag k="alt_name" v="Hornåsdryplene" />
		<tag k="name" v="Hornåsdryplane" />
		<tag k="natural" v="water" />
		<tag k="ssr:stedsnr" v="5664" />
	</node>
	<node lat="59.97103888540787" lon="11.791177774424552" id="-14662">
		<tag k="name" v="Furuøyene" />
		<tag k="place" v="islet" />
		<tag k="ssr:stedsnr" v="5971" />
	</node>
	<node lat="59.96801110786137" lon="11.775711119545933" id="-14663">
		<tag k="name" v="Lystjenn" />
		<tag k="natural" v="water" />
		<tag k="ssr:stedsnr" v="5976" />
	</node>
	<node lat="59.793088887825576" lon="11.869924997986343" id="-14665">
		<tag k="name" v="Hillertjenna" />
		<tag k="natural" v="water" />
		<tag k="ssr:stedsnr" v="6158" />
		<tag k="water" v="lake" />
	</node>
	<node lat="59.73957777477306" lon="11.863536108231674" id="-14673">
		<tag k="name" v="Torvetjenn" />
		<tag k="natural" v="water" />
		<tag k="ssr:stedsnr" v="232166" />
	</node>
	<node lat="59.72280555569636" lon="11.722305547091217" id="-14676">
		<tag k="name" v="Smalsund" />
		<tag k="natural" v="strait" />
		<tag k="ssr:stedsnr" v="232755" />
	</node>
	<node lat="59.635830556041086" lon="11.752622223295978" id="-14677">
		<tag k="name" v="Hølsetertjenna" />
		<tag k="natural" v="water" />
		<tag k="ssr:stedsnr" v="232756" />
		<tag k="water" v="lake" />
	</node>
	<node lat="59.737166662882416" lon="11.76734444904196" id="-14678">
		<tag k="name" v="Kopperudelva" />
		<tag k="ssr:stedsnr" v="232771" />
		<tag k="waterway" v="river" />
	</node>
	<node lat="59.70646666577996" lon="11.850355550315898" id="-14679">
		<tag k="name" v="Olasholmen" />
		<tag k="place" v="islet" />
		<tag k="ssr:stedsnr" v="233019" />
	</node>
	<node lat="59.744752777987564" lon="11.868108341547446" id="-14685">
		<tag k="name" v="Øvre Kleivetjenn" />
		<tag k="natural" v="water" />
		<tag k="ssr:stedsnr" v="233058" />
	</node>
	<node lat="59.65043610735176" lon="11.75582499122606" id="-14688">
		<tag k="name" v="Fallsbekken" />
		<tag k="ssr:stedsnr" v="233071" />
		<tag k="waterway" v="stream" />
	</node>
	<node lat="59.65161111404285" lon="11.762241666389766" id="-14689">
		<tag k="name" v="Korsbybekken" />
		<tag k="ssr:stedsnr" v="233072" />
		<tag k="waterway" v="stream" />
	</node>
	<node lat="59.691833329563046" lon="11.514483325570032" id="-14693">
		<tag k="name" v="Lundselva" />
		<tag k="ssr:stedsnr" v="39123" />
		<tag k="waterway" v="river" />
	</node>
	<node lat="59.816969441857914" lon="11.820116667790016" id="-14697">
		<tag k="name" v="Brattfossvannet" />
		<tag k="natural" v="water" />
		<tag k="ssr:stedsnr" v="39542" />
	</node>
	<node lat="59.97885277481217" lon="11.731066670528572" id="-14715">
		<tag k="name" v="Utgravlitjenn" />
		<tag k="natural" v="water" />
		<tag k="ssr:stedsnr" v="41363" />
	</node>
	<node lat="59.89753823040073" lon="11.657567749346216" id="-14718">
		<tag k="name" v="Nordre Ertetjenn" />
		<tag k="natural" v="water" />
		<tag k="ssr:stedsnr" v="42186" />
	</node>
	<node lat="59.79610277689015" lon="11.7114499924119" id="-14726">
		<tag k="name" v="Hestesund" />
		<tag k="natural" v="strait" />
		<tag k="ssr:stedsnr" v="237723" />
	</node>
	<node lat="59.89180277557283" lon="11.683041669749544" id="-14734">
		<tag k="name" v="Måsavika" />
		<tag k="natural" v="bay" />
		<tag k="ssr:stedsnr" v="238597" />
	</node>
	<node lat="59.89240000376467" lon="11.483591668546813" id="-14736">
		<tag k="name" v="Korstjenntangen" />
		<tag k="natural" v="cape" />
		<tag k="ssr:stedsnr" v="238875" />
	</node>
	<node lat="59.62529834144991" lon="11.720279001339165" id="-14741">
		<tag k="name" v="Langvassdammen" />
		<tag k="ssr:stedsnr" v="50873" />
		<tag k="waterway" v="dam" />
	</node>
	<node lat="59.7405888843689" lon="11.848863893063212" id="-14743">
		<tag k="name" v="Frøtjenn" />
		<tag k="natural" v="water" />
		<tag k="ssr:stedsnr" v="51012" />
	</node>
	<node lat="59.70966944874586" lon="11.813549995482774" id="-14744">
		<tag k="name" v="Tysken" />
		<tag k="place" v="island" />
		<tag k="ssr:stedsnr" v="51104" />
	</node>
	<node lat="59.69831388851211" lon="11.719783341395337" id="-14754">
		<tag k="name" v="Nordgardslundtjenn" />
		<tag k="natural" v="water" />
		<tag k="ssr:stedsnr" v="51281" />
	</node>
	<node lat="59.67846111176469" lon="11.695663892340129" id="-14756">
		<tag k="name" v="Østre Fallstjenna" />
		<tag k="natural" v="water" />
		<tag k="ssr:stedsnr" v="51283" />
		<tag k="water" v="lake" />
	</node>
	<node lat="59.70099444839601" lon="11.739038887790269" id="-14757">
		<tag k="loc_name" v="Det utgravde tjennet" />
		<tag k="name" v="Gubbetjenn" />
		<tag k="natural" v="water" />
		<tag k="ssr:stedsnr" v="51288" />
	</node>
	<node lat="59.629016668726834" lon="11.719619442826065" id="-14759">
		<tag k="name" v="Slavika" />
		<tag k="natural" v="bay" />
		<tag k="ssr:stedsnr" v="51823" />
	</node>
	<node lat="59.73258055292067" lon="11.697066666756305" id="-14760">
		<tag k="name" v="Gånsunda" />
		<tag k="natural" v="strait" />
		<tag k="ssr:stedsnr" v="51824" />
	</node>
	<node lat="59.88565277718768" lon="11.449000007603342" id="-14763">
		<tag k="name" v="Rudsætervika" />
		<tag k="natural" v="bay" />
		<tag k="ssr:stedsnr" v="239348" />
	</node>
	<node lat="59.8272250041972" lon="11.667922227403562" id="-14766">
		<tag k="name" v="Vestneset" />
		<tag k="natural" v="cape" />
		<tag k="ssr:stedsnr" v="239456" />
	</node>
	<node lat="59.841438885829064" lon="11.39423333326202" id="-14769">
		<tag k="name" v="Søndre Lystjenn" />
		<tag k="natural" v="water" />
		<tag k="ssr:stedsnr" v="239676" />
	</node>
	<node lat="59.79185277790934" lon="11.901605556577438" id="-14773">
		<tag k="name" v="Køytjenn" />
		<tag k="natural" v="water" />
		<tag k="ssr:stedsnr" v="55714" />
	</node>
	<node lat="59.933752779710815" lon="11.664338888923654" id="-14786">
		<tag k="name" v="Butjennbekken" />
		<tag k="ssr:stedsnr" v="57725" />
		<tag k="waterway" v="stream" />
	</node>
	<node lat="59.779883334325895" lon="11.684863897749349" id="-14789">
		<tag k="name" v="Buvika" />
		<tag k="natural" v="bay" />
		<tag k="ssr:stedsnr" v="57880" />
	</node>
	<node lat="59.78481666296894" lon="11.685297225033533" id="-14790">
		<tag k="name" v="Hvilartangen" />
		<tag k="natural" v="cape" />
		<tag k="ssr:stedsnr" v="57882" />
	</node>
	<node lat="59.687499998098374" lon="11.60355555143044" id="-14793">
		<tag k="name" v="Henriksbentjenn" />
		<tag k="natural" v="water" />
		<tag k="ssr:stedsnr" v="240360" />
	</node>
	<node lat="59.724505551231296" lon="11.593163883358974" id="-14807">
		<tag k="name" v="Holmbruvika" />
		<tag k="natural" v="bay" />
		<tag k="ssr:stedsnr" v="240597" />
	</node>
	<node lat="59.65992777691937" lon="11.556036104991117" id="-14810">
		<tag k="name" v="Stusrudvika" />
		<tag k="natural" v="bay" />
		<tag k="ssr:stedsnr" v="240683" />
	</node>
	<node lat="59.83377756833122" lon="11.71284756928833" id="-14820">
		<tag k="name" v="Kirkevika" />
		<tag k="natural" v="bay" />
		<tag k="ssr:stedsnr" v="241219" />
	</node>
	<node lat="59.647869446604936" lon="11.538358328334004" id="-14821">
		<tag k="name" v="Svartkulp" />
		<tag k="natural" v="water" />
		<tag k="ssr:stedsnr" v="64257" />
	</node>
	<node lat="59.66933888701714" lon="11.79222499466063" id="-14822">
		<tag k="name" v="Eplegranbekken" />
		<tag k="ssr:stedsnr" v="64270" />
		<tag k="waterway" v="stream" />
	</node>
	<node lat="59.93847222053194" lon="11.57095277667162" id="-14823">
		<tag k="name" v="Børta" />
		<tag k="ssr:stedsnr" v="65067" />
		<tag k="waterway" v="river" />
	</node>
	<node lat="59.95918333130586" lon="11.705530547407117" id="-14827">
		<tag k="name" v="Tittjenn" />
		<tag k="natural" v="water" />
		<tag k="ssr:stedsnr" v="65081" />
	</node>
	<node lat="59.9568249986788" lon="11.786491668522753" id="-14828">
		<tag k="fixme" v="multiple name tags, choose one and add the other to alt_name" />
		<tag k="name" v="Neset;Ljønerneset" />
		<tag k="natural" v="cape" />
		<tag k="ssr:stedsnr" v="65084" />
	</node>
	<node lat="59.70351110760805" lon="11.72948610947608" id="-14835">
		<tag k="name" v="Kuletjenn" />
		<tag k="natural" v="water" />
		<tag k="ssr:stedsnr" v="65301" />
	</node>
	<node lat="59.838169442828935" lon="11.591022217654446" id="-14837">
		<tag k="name" v="Gjeddetjenn" />
		<tag k="natural" v="water" />
		<tag k="ssr:stedsnr" v="65314" />
	</node>
	<node lat="59.83408055132816" lon="11.637216665286747" id="-14838">
		<tag k="name" v="Butjenn" />
		<tag k="natural" v="water" />
		<tag k="ssr:stedsnr" v="65318" />
	</node>
	<node lat="59.834352774936306" lon="11.650583329929336" id="-14839">
		<tag k="alt_name" v="Gørrvika" />
		<tag k="name" v="Gorvika" />
		<tag k="natural" v="bay" />
		<tag k="ssr:stedsnr" v="65319" />
	</node>
	<node lat="59.954627776062495" lon="11.775649993535188" id="-14842">
		<tag k="name" v="Fiskenabben" />
		<tag k="natural" v="cape" />
		<tag k="ssr:stedsnr" v="241375" />
	</node>
	<node lat="59.714452774004414" lon="11.877197221479765" id="-14844">
		<tag k="alt_name" v="Sætertjennet" />
		<tag k="name" v="Setertjenn" />
		<tag k="natural" v="water" />
		<tag k="ssr:stedsnr" v="65404" />
	</node>
	<node lat="59.74531389227485" lon="11.621566659826932" id="-14850">
		<tag k="alt_name" v="Nordre Lombergtjenn" />
		<tag k="name" v="Nordre Lambergtjenn" />
		<tag k="natural" v="water" />
		<tag k="ssr:stedsnr" v="65641" />
	</node>
	<node lat="59.79211111074533" lon="11.354833329193289" id="-14857">
		<tag k="name" v="Vardetjenn" />
		<tag k="natural" v="water" />
		<tag k="ssr:stedsnr" v="65882" />
	</node>
	<node lat="59.914425001842346" lon="11.738491673536858" id="-14858">
		<tag k="alt_name" v="Nevertjenn" />
		<tag k="name" v="Nevertjenna" />
		<tag k="natural" v="water" />
		<tag k="ssr:stedsnr" v="66006" />
	</node>
	<node lat="59.91656666819445" lon="11.71920000558278" id="-14859">
		<tag k="fixme" v="multiple name tags, choose one and add the other to alt_name" />
		<tag k="name" v="Blekketjenn;Vestre Storfelttjenn" />
		<tag k="natural" v="water" />
		<tag k="ssr:stedsnr" v="66009" />
	</node>
	<node lat="59.912513888087275" lon="11.701352770997818" id="-14860">
		<tag k="name" v="Langtjenn" />
		<tag k="natural" v="water" />
		<tag k="ssr:stedsnr" v="66011" />
	</node>
	<node lat="59.87048888719315" lon="11.35042500853836" id="-14864">
		<tag k="name" v="Vestre Halstjenn" />
		<tag k="natural" v="water" />
		<tag k="ssr:stedsnr" v="241512" />
	</node>
	<node lat="59.98421944095293" lon="11.746605560294189" id="-14867">
		<tag k="name" v="Store Nauttjenn" />
		<tag k="natural" v="water" />
		<tag k="ssr:stedsnr" v="65952" />
	</node>
	<node lat="59.8673749996318" lon="11.355349992219319" id="-14873">
		<tag k="name" v="Søndre Halstjenn" />
		<tag k="natural" v="water" />
		<tag k="ssr:stedsnr" v="241517" />
	</node>
	<node lat="59.808324995535415" lon="11.820205555963849" id="-14875">
		<tag k="name" v="Graverbekken" />
		<tag k="ssr:stedsnr" v="66249" />
		<tag k="waterway" v="stream" />
	</node>
	<node lat="59.80710555765866" lon="11.487994452316526" id="-14876">
		<tag k="alt_name" v="Engavannet" />
		<tag k="name" v="Autenvannet" />
		<tag k="natural" v="water" />
		<tag k="ssr:stedsnr" v="66254" />
	</node>
	<node lat="59.69321388950388" lon="11.380633338174396" id="-14888">
		<tag k="name" v="Blekktjenn" />
		<tag k="natural" v="water" />
		<tag k="ssr:stedsnr" v="83209" />
	</node>
	<node lat="59.70670277668348" lon="11.370250004206852" id="-14890">
		<tag k="name" v="Svartebøtta" />
		<tag k="natural" v="water" />
		<tag k="ssr:stedsnr" v="83193" />
	</node>
	<node lat="59.67131388674814" lon="11.826669437608434" id="-14892">
		<tag k="name" v="Otnestangen" />
		<tag k="natural" v="cape" />
		<tag k="ssr:stedsnr" v="246262" />
	</node>
	<node lat="59.71565000380459" lon="11.590944439619122" id="-14896">
		<tag k="alt_name" v="Kjonesundet" />
		<tag k="name" v="Kjonesund" />
		<tag k="natural" v="strait" />
		<tag k="ssr:stedsnr" v="246337" />
	</node>
	<node lat="59.7232250019836" lon="11.656213886186068" id="-14897">
		<tag k="name" v="Søndre Halsnestjennet" />
		<tag k="natural" v="water" />
		<tag k="old_name" v="Søndre Halsnestjern;Halsnestjernet, søndre" />
		<tag k="ssr:stedsnr" v="246591" />
	</node>
	<node lat="59.73003889186151" lon="11.79650277909735" id="-14898">
		<tag k="name" v="Lonkøya" />
		<tag k="place" v="islet" />
		<tag k="ssr:stedsnr" v="246596" />
	</node>
	<node lat="59.733922218897085" lon="11.486127773244473" id="-14899">
		<tag k="name" v="Hølandselva" />
		<tag k="ssr:stedsnr" v="246602" />
		<tag k="waterway" v="river" />
	</node>
	<node lat="59.69858055806568" lon="11.378138892309597" id="-14901">
		<tag k="name" v="Grepperudtjenn" />
		<tag k="natural" v="water" />
		<tag k="ssr:stedsnr" v="246817" />
	</node>
	<node lat="59.96006454108027" lon="11.688172141808273" id="-14902">
		<tag k="name" v="Badstutjenna" />
		<tag k="natural" v="water" />
		<tag k="ssr:stedsnr" v="247090" />
		<tag k="water" v="lake" />
	</node>
	<node lat="59.92779166453561" lon="11.561249992563983" id="-14904">
		<tag k="alt_name" v="Dyrudtjenn" />
		<tag k="name" v="Dyrudtjennet" />
		<tag k="natural" v="water" />
		<tag k="ssr:stedsnr" v="247037" />
	</node>
	<node lat="59.85549444330434" lon="11.587888882783878" id="-14911">
		<tag k="alt_name" v="Langsjøen, store;Langsjøen" />
		<tag k="name" v="Store Langsjøen" />
		<tag k="natural" v="water" />
		<tag k="ssr:stedsnr" v="247148" />
		<tag k="water" v="lake" />
	</node>
	<node lat="59.87616110824302" lon="11.63274166719656" id="-14912">
		<tag k="name" v="Djuptjenn" />
		<tag k="natural" v="water" />
		<tag k="ssr:stedsnr" v="247166" />
	</node>
	<node lat="59.8653388849683" lon="11.557008335733276" id="-14914">
		<tag k="alt_name" v="Heidetangen" />
		<tag k="name" v="Tangen" />
		<tag k="natural" v="cape" />
		<tag k="ssr:stedsnr" v="247176" />
	</node>
	<node lat="59.896274995907405" lon="11.61157223031731" id="-14916">
		<tag k="name" v="Lindtjenn" />
		<tag k="natural" v="water" />
		<tag k="ssr:stedsnr" v="247190" />
	</node>
	<node lat="59.893652779357794" lon="11.643586105766586" id="-14917">
		<tag k="name" v="Bogtjenn" />
		<tag k="natural" v="water" />
		<tag k="ssr:stedsnr" v="247192" />
	</node>
	<node lat="59.89104444142389" lon="11.72741111673486" id="-14918">
		<tag k="name" v="Korstjenn" />
		<tag k="natural" v="water" />
		<tag k="ssr:stedsnr" v="247196" />
	</node>
	<node lat="59.8890170281625" lon="11.713944153997147" id="-14919">
		<tag k="name" v="Aurset" />
		<tag k="natural" v="water" />
		<tag k="ssr:stedsnr" v="247199" />
		<tag k="water" v="lake" />
	</node>
	<node lat="59.895363888441565" lon="11.710044437552613" id="-14924">
		<tag k="alt_name" v="Korsen, vestre" />
		<tag k="name" v="Vestre Korsen" />
		<tag k="natural" v="bay" />
		<tag k="ssr:stedsnr" v="247233" />
	</node>
	<node lat="59.760483330856296" lon="11.75139166442686" id="-14931">
		<tag k="fixme" v="multiple name tags, choose one and add the other to alt_name" />
		<tag k="name" v="Hellingstjenn;Store Hellingstjenn" />
		<tag k="natural" v="water" />
		<tag k="ssr:stedsnr" v="247393" />
	</node>
	<node lat="59.7240833301186" lon="11.878844448756924" id="-14932">
		<tag k="name" v="Hestesprengen" />
		<tag k="natural" v="water" />
		<tag k="ssr:stedsnr" v="247399" />
	</node>
	<node lat="59.67944166512082" lon="11.726441660238478" id="-14936">
		<tag k="name" v="Eikelitjenn" />
		<tag k="natural" v="water" />
		<tag k="ssr:stedsnr" v="247321" />
	</node>
	<node lat="59.698736107031536" lon="11.578227775300101" id="-14938">
		<tag k="name" v="Haugtjenn" />
		<tag k="natural" v="water" />
		<tag k="ssr:stedsnr" v="247342" />
	</node>
	<node lat="59.69643889101586" lon="11.647830562063195" id="-14940">
		<tag k="alt_name" v="Trysjøen" />
		<tag k="name" v="Tresjøen" />
		<tag k="natural" v="water" />
		<tag k="ssr:stedsnr" v="247347" />
	</node>
	<node lat="59.6942888863512" lon="11.580072218985313" id="-14941">
		<tag k="name" v="Kråketjennet" />
		<tag k="natural" v="water" />
		<tag k="old_name" v="Kråketjern;Kråketjernet" />
		<tag k="ssr:stedsnr" v="247349" />
	</node>
	<node lat="59.6913916699159" lon="11.842599997595011" id="-14942">
		<tag k="name" v="Kisteholmen" />
		<tag k="place" v="islet" />
		<tag k="ssr:stedsnr" v="247354" />
	</node>
	<node lat="59.89808791335137" lon="11.425077495232895" id="-14946">
		<tag k="name" v="Karusstjenn" />
		<tag k="natural" v="water" />
		<tag k="ssr:stedsnr" v="247636" />
	</node>
	<node lat="59.73935277927058" lon="11.617736102503093" id="-14949">
		<tag k="fixme" v="multiple name tags, choose one and add the other to alt_name" />
		<tag k="name" v="Søndre Lambergtjenn;Lombergtjenn" />
		<tag k="natural" v="water" />
		<tag k="ssr:stedsnr" v="247652" />
	</node>
	<node lat="59.80926389301531" lon="11.322927782765152" id="-14951">
		<tag k="fixme" v="multiple name tags, choose one and add the other to alt_name" />
		<tag k="name" v="Brillene;Brilletjenn" />
		<tag k="natural" v="water" />
		<tag k="ssr:stedsnr" v="247785" />
	</node>
	<node lat="59.774130555429814" lon="11.336266665157556" id="-14956">
		<tag k="name" v="Sloretjern" />
		<tag k="natural" v="water" />
		<tag k="ssr:stedsnr" v="247892" />
	</node>
	<node lat="59.985467509776214" lon="11.612746566307322" id="-14957">
		<tag k="name" v="Tranumtjenna" />
		<tag k="natural" v="water" />
		<tag k="ssr:stedsnr" v="247988" />
		<tag k="water" v="lake" />
	</node>
	<node lat="59.97983889200365" lon="11.738661120299302" id="-14958">
		<tag k="name" v="Kroktjenn" />
		<tag k="natural" v="water" />
		<tag k="ssr:stedsnr" v="247995" />
	</node>
	<node lat="59.98780277656316" lon="11.731913888069714" id="-14959">
		<tag k="name" v="Dryulen" />
		<tag k="natural" v="water" />
		<tag k="ssr:stedsnr" v="247945" />
	</node>
	<node lat="59.98638888729059" lon="11.795202772974632" id="-14960">
		<tag k="name" v="Vintertjenn" />
		<tag k="natural" v="water" />
		<tag k="ssr:stedsnr" v="247949" />
	</node>
	<node lat="59.82204167038509" lon="11.883388888912933" id="-14961">
		<tag k="alt_name" v="Ormtjenn" />
		<tag k="name" v="Ormetjenn" />
		<tag k="natural" v="water" />
		<tag k="ssr:stedsnr" v="248143" />
	</node>
	<node lat="59.809530557080926" lon="11.568075006176528" id="-14966">
		<tag k="alt_name" v="Silingskåla" />
		<tag k="name" v="Sillingskåla" />
		<tag k="natural" v="water" />
		<tag k="ssr:stedsnr" v="248269" />
	</node>
	<node lat="59.76767387950449" lon="11.88746977236733" id="-14968">
		<tag k="name" v="Søndre Kuletjenn" />
		<tag k="natural" v="water" />
		<tag k="ssr:stedsnr" v="248231" />
	</node>
	<node lat="59.80872499642524" lon="11.79463888522414" id="-14970">
		<tag k="name" v="Sagvika" />
		<tag k="natural" v="bay" />
		<tag k="ssr:stedsnr" v="248249" />
	</node>
	<node lat="59.711016669550546" lon="11.614097216127886" id="-14972">
		<tag k="name" v="Pungvika" />
		<tag k="natural" v="bay" />
		<tag k="ssr:stedsnr" v="100703" />
	</node>
	<node lat="60.00601352401447" lon="11.501909512434416" id="-14982">
		<tag k="name" v="Småtjenna" />
		<tag k="natural" v="water" />
		<tag k="ssr:stedsnr" v="248593" />
		<tag k="water" v="lake" />
	</node>
	<node lat="59.96842222201801" lon="11.705333339176583" id="-14992">
		<tag k="name" v="Store Piltjenn" />
		<tag k="natural" v="water" />
		<tag k="ssr:stedsnr" v="102419" />
	</node>
	<node lat="59.9783583336008" lon="11.703275003134925" id="-14993">
		<tag k="name" v="Daltjennbekken" />
		<tag k="ssr:stedsnr" v="102422" />
		<tag k="waterway" v="stream" />
	</node>
	<node lat="59.74828333293945" lon="11.568416663817255" id="-14995">
		<tag k="name" v="Mosebyøya" />
		<tag k="place" v="islet" />
		<tag k="ssr:stedsnr" v="102504" />
	</node>
	<node lat="59.86320833347768" lon="11.59138056050198" id="-14997">
		<tag k="name" v="Sandvika" />
		<tag k="natural" v="bay" />
		<tag k="ssr:stedsnr" v="102871" />
	</node>
	<node lat="59.717241666942016" lon="11.76454167217424" id="-15003">
		<tag k="name" v="Tjernet i fjella" />
		<tag k="natural" v="water" />
		<tag k="ssr:stedsnr" v="111107" />
	</node>
	<node lat="59.680241664762185" lon="11.809375004222916" id="-15004">
		<tag k="name" v="Lauvøya" />
		<tag k="place" v="island" />
		<tag k="ssr:stedsnr" v="111013" />
	</node>
	<node lat="59.75452778008747" lon="11.762033328586675" id="-15005">
		<tag k="name" v="Kuristjenn" />
		<tag k="natural" v="water" />
		<tag k="ssr:stedsnr" v="111014" />
	</node>
	<node lat="59.73542499971607" lon="11.896747223752783" id="-15010">
		<tag k="name" v="Glavertjenn" />
		<tag k="natural" v="water" />
		<tag k="ssr:stedsnr" v="111170" />
	</node>
	<node lat="59.71799722233331" lon="11.733600007662014" id="-15013">
		<tag k="name" v="Torvetjenn" />
		<tag k="natural" v="water" />
		<tag k="ssr:stedsnr" v="111188" />
	</node>
	<node lat="59.69130278057075" lon="11.761194446186616" id="-15015">
		<tag k="name" v="Abborvika" />
		<tag k="natural" v="bay" />
		<tag k="ssr:stedsnr" v="111219" />
	</node>
	<node lat="59.71754166362619" lon="11.810527785810645" id="-15016">
		<tag k="name" v="Langtangen" />
		<tag k="natural" v="cape" />
		<tag k="ssr:stedsnr" v="111222" />
	</node>
	<node lat="59.7121388901563" lon="11.850624998795746" id="-15017">
		<tag k="name" v="Setervika" />
		<tag k="natural" v="bay" />
		<tag k="ssr:stedsnr" v="111709" />
	</node>
	<node lat="59.715124999050765" lon="11.936041666516513" id="-15018">
		<tag k="name" v="Laksehølen" />
		<tag k="place" v="locality" />
		<tag k="ssr:stedsnr" v="111720" />
	</node>
	<node lat="59.70810998955709" lon="11.937568064694709" id="-15019">
		<tag k="name" v="Systumodammen" />
		<tag k="ssr:stedsnr" v="111724" />
		<tag k="waterway" v="dam" />
	</node>
	<node lat="59.72712467985117" lon="11.825665571085965" id="-15020">
		<tag k="name" v="Venemotjenna" />
		<tag k="natural" v="water" />
		<tag k="ssr:stedsnr" v="111769" />
		<tag k="water" v="lake" />
	</node>
	<node lat="59.70021944347423" lon="11.937580560004847" id="-15021">
		<tag k="name" v="Kulpedammen" />
		<tag k="ssr:stedsnr" v="111771" />
		<tag k="waterway" v="dam" />
	</node>
	<node lat="59.769541668253716" lon="11.931966667186476" id="-15022">
		<tag k="name" v="Vesle Strøtjenn" />
		<tag k="natural" v="water" />
		<tag k="ssr:stedsnr" v="111776" />
	</node>
	<node lat="59.88996944601681" lon="11.663566665845824" id="-15030">
		<tag k="name" v="Breisjødammen" />
		<tag k="natural" v="bay" />
		<tag k="ssr:stedsnr" v="117583" />
	</node>
	<node lat="59.88549722025716" lon="11.69136388474352" id="-15032">
		<tag k="name" v="Skarptjenn" />
		<tag k="natural" v="water" />
		<tag k="ssr:stedsnr" v="118652" />
	</node>
	<node lat="59.950702777935916" lon="11.754561111067554" id="-15035">
		<tag k="name" v="Mangbekken" />
		<tag k="ssr:stedsnr" v="119410" />
		<tag k="waterway" v="stream" />
	</node>
	<node lat="59.72560555653378" lon="11.689388882759298" id="-15036">
		<tag k="name" v="Østre Spontjenn" />
		<tag k="natural" v="water" />
		<tag k="ssr:stedsnr" v="119606" />
	</node>
	<node lat="59.73966944535497" lon="11.575383334554807" id="-15037">
		<tag k="name" v="Lillobekken" />
		<tag k="ssr:stedsnr" v="119617" />
		<tag k="waterway" v="stream" />
	</node>
	<node lat="59.74222777909032" lon="11.575952782812598" id="-15038">
		<tag k="name" v="Lillo" />
		<tag k="natural" v="bay" />
		<tag k="ssr:stedsnr" v="119618" />
	</node>
	<node lat="60.001974997940394" lon="11.794813894919285" id="-15040">
		<tag k="name" v="Hyttebråtevika" />
		<tag k="natural" v="bay" />
		<tag k="ssr:stedsnr" v="119927" />
	</node>
	<node lat="59.67486389174397" lon="11.619061116173068" id="-15041">
		<tag k="name" v="Grevlingkultjenn" />
		<tag k="natural" v="water" />
		<tag k="ssr:stedsnr" v="119675" />
	</node>
	<node lat="59.84457777445939" lon="11.71518054830012" id="-15045">
		<tag k="name" v="Tangevika" />
		<tag k="natural" v="bay" />
		<tag k="ssr:stedsnr" v="120190" />
	</node>
	<node lat="59.79455277809858" lon="11.383402773721027" id="-15047">
		<tag k="name" v="Nygårdstjenn" />
		<tag k="natural" v="water" />
		<tag k="ssr:stedsnr" v="120868" />
	</node>
	<node lat="59.73902500242633" lon="11.812827784533225" id="-15050">
		<tag k="name" v="Bøvika" />
		<tag k="natural" v="bay" />
		<tag k="ssr:stedsnr" v="124564" />
	</node>
	<node lat="59.761402776630014" lon="11.829158333522155" id="-15053">
		<tag k="name" v="Igletjenn" />
		<tag k="natural" v="water" />
		<tag k="ssr:stedsnr" v="125418" />
	</node>
	<node lat="59.76281666917743" lon="11.760472219835071" id="-15054">
		<tag k="name" v="Vesle Hellingstjenn" />
		<tag k="natural" v="water" />
		<tag k="ssr:stedsnr" v="125423" />
	</node>
	<node lat="59.70951944504303" lon="11.855808327676275" id="-15056">
		<tag k="name" v="Flesabekken" />
		<tag k="ssr:stedsnr" v="125435" />
		<tag k="waterway" v="stream" />
	</node>
	<node lat="59.870347217987764" lon="11.78650555002323" id="-15059">
		<tag k="name" v="Tvillingtjenn" />
		<tag k="natural" v="water" />
		<tag k="ssr:stedsnr" v="125196" />
	</node>
	<node lat="59.837616662559036" lon="11.728483326411734" id="-15061">
		<tag k="name" v="Morttjenn" />
		<tag k="natural" v="water" />
		<tag k="ssr:stedsnr" v="125334" />
	</node>
	<node lat="59.83926944798963" lon="11.580291658104828" id="-15064">
		<tag k="alt_name" v="Opptjenn" />
		<tag k="name" v="Store Opptjenn" />
		<tag k="natural" v="water" />
		<tag k="ssr:stedsnr" v="125356" />
	</node>
	<node lat="59.73912500019476" lon="11.716138897282876" id="-15070">
		<tag k="name" v="Store Abbortjenn" />
		<tag k="natural" v="water" />
		<tag k="old_name" v="Abbortjern;Abbortjenn" />
		<tag k="ssr:stedsnr" v="125699" />
	</node>
	<node lat="59.70475277873635" lon="11.602888885792558" id="-15071">
		<tag k="name" v="Rundtjenn" />
		<tag k="natural" v="water" />
		<tag k="ssr:stedsnr" v="125804" />
	</node>
	<node lat="59.86096388782593" lon="11.746883340804118" id="-15078">
		<tag k="name" v="Damtjenn" />
		<tag k="natural" v="water" />
		<tag k="ssr:stedsnr" v="126122" />
	</node>
	<node lat="59.86859721919508" lon="11.588261102299379" id="-15080">
		<tag k="alt_name" v="Langsjøen, lille;Langsjøen" />
		<tag k="name" v="Lille Langsjøen" />
		<tag k="natural" v="water" />
		<tag k="ssr:stedsnr" v="126134" />
	</node>
	<node lat="59.94591110816628" lon="11.656147217728154" id="-15084">
		<tag k="name" v="Tangtjenn" />
		<tag k="natural" v="water" />
		<tag k="ssr:stedsnr" v="126071" />
	</node>
	<node lat="59.88061944615845" lon="11.61772499840293" id="-15089">
		<tag k="name" v="Igletjenn" />
		<tag k="natural" v="water" />
		<tag k="ssr:stedsnr" v="126202" />
	</node>
	<node lat="59.90932499918057" lon="11.690877781357608" id="-15091">
		<tag k="name" v="Blekketjenn" />
		<tag k="natural" v="water" />
		<tag k="ssr:stedsnr" v="126544" />
	</node>
	<node lat="59.816033336804246" lon="11.795755563997488" id="-15093">
		<tag k="name" v="Østervik" />
		<tag k="natural" v="bay" />
		<tag k="ssr:stedsnr" v="126249" />
	</node>
	<node lat="59.78893333125542" lon="11.774305547174931" id="-15096">
		<tag k="name" v="Gropelva" />
		<tag k="ssr:stedsnr" v="126461" />
		<tag k="waterway" v="river" />
	</node>
	<node lat="59.792252778945816" lon="11.799077769102045" id="-15097">
		<tag k="name" v="Rundtjenn" />
		<tag k="natural" v="water" />
		<tag k="ssr:stedsnr" v="126463" />
	</node>
	<node lat="59.91248333326428" lon="11.3681694466377" id="-15098">
		<tag k="name" v="Nauttjenn" />
		<tag k="natural" v="water" />
		<tag k="ssr:stedsnr" v="126607" />
	</node>
	<node lat="59.836386747615016" lon="11.325303510610729" id="-15100">
		<tag k="name" v="Røytjenna" />
		<tag k="natural" v="water" />
		<tag k="ssr:stedsnr" v="126749" />
		<tag k="water" v="lake" />
	</node>
	<node lat="59.7893166672657" lon="11.912786115094352" id="-15105">
		<tag k="name" v="Damvika" />
		<tag k="natural" v="bay" />
		<tag k="ssr:stedsnr" v="127244" />
	</node>
	<node lat="59.7805166687378" lon="11.848936115836203" id="-15106">
		<tag k="name" v="Gjesstjenn" />
		<tag k="natural" v="water" />
		<tag k="ssr:stedsnr" v="127245" />
	</node>
	<node lat="59.77757500438214" lon="11.867338881547944" id="-15107">
		<tag k="name" v="Mauretjern" />
		<tag k="natural" v="water" />
		<tag k="ssr:stedsnr" v="127247" />
	</node>
	<node lat="59.761519442683394" lon="11.847708334162208" id="-15108">
		<tag k="name" v="Nordre Hellingstjenn" />
		<tag k="natural" v="water" />
		<tag k="old_name" v="Hellingstjernet, nordre;Nordre Hellingstjennet" />
		<tag k="ssr:stedsnr" v="127252" />
	</node>
	<node lat="59.818016670293765" lon="11.891533329601318" id="-15111">
		<tag k="name" v="Grindtjenn" />
		<tag k="natural" v="water" />
		<tag k="ssr:stedsnr" v="127146" />
	</node>
	<node lat="59.81867138003213" lon="11.866848663462642" id="-15112">
		<tag k="name" v="Toståstjenna" />
		<tag k="natural" v="water" />
		<tag k="ssr:stedsnr" v="127148" />
		<tag k="water" v="lake" />
	</node>
	<node lat="59.73449999633537" lon="11.370269441416298" id="-15113">
		<tag k="name" v="Rundtjenn" />
		<tag k="natural" v="water" />
		<tag k="ssr:stedsnr" v="143211" />
	</node>
	<node lat="59.994488886808114" lon="11.610650001030425" id="-15117">
		<tag k="name" v="Nordre Svarttjenn" />
		<tag k="natural" v="water" />
		<tag k="ssr:stedsnr" v="161659" />
	</node>
	<node lat="59.980086107754296" lon="11.734486114518583" id="-15118">
		<tag k="name" v="Kariputten" />
		<tag k="natural" v="water" />
		<tag k="ssr:stedsnr" v="161666" />
	</node>
	<node lat="59.81099722599381" lon="11.898525004363536" id="-15123">
		<tag k="name" v="Vesle Krokvannet" />
		<tag k="natural" v="water" />
		<tag k="ssr:stedsnr" v="163859" />
	</node>
	<node lat="59.74343888784188" lon="11.884516661051194" id="-15129">
		<tag k="name" v="Roskifttjenn" />
		<tag k="natural" v="water" />
		<tag k="ssr:stedsnr" v="171165" />
	</node>
	<node lat="59.74383332916259" lon="11.890691665118089" id="-15141">
		<tag k="name" v="Øvre Statjenndammen" />
		<tag k="ssr:stedsnr" v="172812" />
		<tag k="waterway" v="dam" />
	</node>
	<node lat="59.825677774139095" lon="11.67115277837402" id="-15150">
		<tag k="name" v="Røyrvika" />
		<tag k="natural" v="bay" />
		<tag k="ssr:stedsnr" v="178470" />
	</node>
	<node lat="59.61111666704679" lon="11.48739999476789" id="-15160">
		<tag k="name" v="Nedre Kroktjenn" />
		<tag k="natural" v="water" />
		<tag k="ssr:stedsnr" v="179517" />
	</node>
	<node lat="59.608219441804096" lon="11.500341669533018" id="-15161">
		<tag k="name" v="Nedre Morttjenn" />
		<tag k="natural" v="water" />
		<tag k="ssr:stedsnr" v="179520" />
	</node>
	<node lat="59.96381388619936" lon="11.683794443678348" id="-15164">
		<tag k="name" v="Søndre Neverskotjenn" />
		<tag k="natural" v="water" />
		<tag k="ssr:stedsnr" v="180160" />
	</node>
	<node lat="59.96693304504708" lon="11.663240047685468" id="-15165">
		<tag k="name" v="Store Igletjenn" />
		<tag k="natural" v="water" />
		<tag k="ssr:stedsnr" v="180169" />
	</node>
	<node lat="59.72706388805648" lon="11.678722230999245" id="-15171">
		<tag k="name" v="Midtfjelltjenn" />
		<tag k="natural" v="water" />
		<tag k="ssr:stedsnr" v="180557" />
	</node>
	<node lat="59.72766944523143" lon="11.69296943934606" id="-15172">
		<tag k="name" v="Blekketjenn" />
		<tag k="natural" v="water" />
		<tag k="ssr:stedsnr" v="180561" />
	</node>
	<node lat="59.79833333211275" lon="11.85639445205859" id="-15176">
		<tag k="name" v="Storengtjenn" />
		<tag k="natural" v="water" />
		<tag k="ssr:stedsnr" v="180704" />
	</node>
	<node lat="59.85054444056997" lon="11.583949996891901" id="-15179">
		<tag k="name" v="Lentangen" />
		<tag k="natural" v="cape" />
		<tag k="ssr:stedsnr" v="181256" />
	</node>
	<node lat="59.721366668170475" lon="11.582119452306179" id="-15180">
		<tag k="alt_name" v="Katisavika" />
		<tag k="name" v="Kattisvika" />
		<tag k="natural" v="bay" />
		<tag k="ssr:stedsnr" v="185606" />
	</node>
	<node lat="59.88225277645388" lon="11.739291672815522" id="-15186">
		<tag k="name" v="Store Åsvann" />
		<tag k="natural" v="water" />
		<tag k="ssr:stedsnr" v="186198" />
	</node>
	<node lat="59.64450833100965" lon="11.782313892178072" id="-15188">
		<tag k="name" v="Østre Rømungen" />
		<tag k="natural" v="water" />
		<tag k="ssr:stedsnr" v="186306" />
		<tag k="water" v="lake" />
	</node>
	<node lat="59.73689722090162" lon="11.861241669748656" id="-15191">
		<tag k="alt_name" v="Bastetjenn" />
		<tag k="name" v="Bastetjennet" />
		<tag k="natural" v="water" />
		<tag k="ssr:stedsnr" v="186477" />
	</node>
	<node lat="59.8608972181236" lon="11.392702782776446" id="-15200">
		<tag k="name" v="Halstjenna" />
		<tag k="natural" v="water" />
		<tag k="ssr:stedsnr" v="186745" />
		<tag k="water" v="lake" />
	</node>
	<node lat="59.964411109395584" lon="11.78343333810939" id="-15202">
		<tag k="fixme" v="multiple name tags, choose one and add the other to alt_name" />
		<tag k="name" v="Akselodden;Kjerringneset" />
		<tag k="natural" v="cape" />
		<tag k="ssr:stedsnr" v="187102" />
	</node>
	<node lat="59.93573333292133" lon="11.755844451298756" id="-15205">
		<tag k="name" v="Svarttjenn" />
		<tag k="natural" v="water" />
		<tag k="ssr:stedsnr" v="187088" />
	</node>
	<node lat="59.96492612932632" lon="11.6882053751948" id="-15206">
		<tag k="name" v="Neverskotjennet" />
		<tag k="natural" v="water" />
		<tag k="ssr:stedsnr" v="187099" />
	</node>
	<node lat="59.84731111474877" lon="11.656530552981575" id="-15208">
		<tag k="name" v="Strøtjenn" />
		<tag k="natural" v="water" />
		<tag k="ssr:stedsnr" v="187326" />
	</node>
	<node lat="59.769325004126436" lon="11.61006945075217" id="-15209">
		<tag k="name" v="Vesle Auretjenn" />
		<tag k="natural" v="water" />
		<tag k="ssr:stedsnr" v="187382" />
	</node>
	<node lat="59.81820278160789" lon="11.595336103901442" id="-15211">
		<tag k="alt_name" v="Dryplene" />
		<tag k="name" v="Dryplane" />
		<tag k="natural" v="water" />
		<tag k="ssr:stedsnr" v="187510" />
	</node>
	<node lat="59.75786388554545" lon="11.695294439362417" id="-15212">
		<tag k="name" v="Motjenn" />
		<tag k="natural" v="water" />
		<tag k="ssr:stedsnr" v="187517" />
	</node>
	<node lat="59.82643889016993" lon="11.574836107772613" id="-15213">
		<tag k="name" v="Svarttjenn" />
		<tag k="natural" v="water" />
		<tag k="ssr:stedsnr" v="187278" />
	</node>
	<node lat="59.8226583362856" lon="11.747919446476878" id="-15214">
		<tag k="name" v="Damtjenn" />
		<tag k="natural" v="water" />
		<tag k="ssr:stedsnr" v="187292" />
	</node>
	<node lat="59.778359523931634" lon="11.582562494262769" id="-15216">
		<tag k="name" v="Åsvanna" />
		<tag k="natural" v="water" />
		<tag k="ssr:stedsnr" v="187406" />
		<tag k="water" v="lake" />
	</node>
	<node lat="60.02153888666532" lon="11.81829444819358" id="-15227">
		<tag k="name" v="Besseputten" />
		<tag k="place" v="locality" />
		<tag k="ssr:stedsnr" v="188615" />
	</node>
	<node lat="59.7526722260196" lon="11.703372741267508" id="-15231">
		<tag k="name" v="Søndre Lønnedalstjenn" />
		<tag k="natural" v="water" />
		<tag k="ssr:stedsnr" v="221002" />
	</node>
	<node lat="59.99315277885749" lon="11.61145833188934" id="-15232">
		<tag k="name" v="Søndre Svarttjenn" />
		<tag k="natural" v="water" />
		<tag k="ssr:stedsnr" v="221623" />
	</node>
	<node lat="59.91678055655239" lon="11.498744445485919" id="-15242">
		<tag k="name" v="Toverudbekken" />
		<tag k="ssr:stedsnr" v="222575" />
		<tag k="waterway" v="stream" />
	</node>
	<node lat="59.998777152012266" lon="11.6828537150201" id="-15245">
		<tag k="alt_name" v="Steintjennsbekken" />
		<tag k="name" v="Steinstjennbekken" />
		<tag k="ssr:stedsnr" v="222728" />
		<tag k="waterway" v="stream" />
	</node>
	<node lat="59.984525001275266" lon="11.787658329317367" id="-15249">
		<tag k="name" v="Åmen" />
		<tag k="natural" v="bay" />
		<tag k="ssr:stedsnr" v="222979" />
	</node>
	<node lat="59.897694439846084" lon="11.574111118517447" id="-15258">
		<tag k="name" v="Lierelva" />
		<tag k="ssr:stedsnr" v="225797" />
		<tag k="waterway" v="river" />
	</node>
	<node lat="59.64048333301009" lon="11.76890554988966" id="-15264">
		<tag k="name" v="Dyvlene" />
		<tag k="natural" v="water" />
		<tag k="ssr:stedsnr" v="232200" />
	</node>
	<node lat="59.67502222622072" lon="11.777741673014539" id="-15265">
		<tag k="name" v="Gørrtjenn" />
		<tag k="natural" v="water" />
		<tag k="ssr:stedsnr" v="232205" />
	</node>
	<node lat="59.65868333355163" lon="11.760569450705118" id="-15266">
		<tag k="name" v="Vestre Slorebekk" />
		<tag k="ssr:stedsnr" v="232208" />
		<tag k="waterway" v="stream" />
	</node>
	<node lat="59.74420555824616" lon="11.880736115859932" id="-15268">
		<tag k="name" v="Langevik" />
		<tag k="natural" v="bay" />
		<tag k="ssr:stedsnr" v="232715" />
	</node>
	<node lat="59.737847223691496" lon="11.933425005913415" id="-15269">
		<tag k="name" v="Sotebrufossen" />
		<tag k="natural" v="waterfall" />
		<tag k="ssr:stedsnr" v="232718" />
	</node>
	<node lat="59.71056111189838" lon="11.93359722583187" id="-15270">
		<tag k="name" v="Hellehøldammen" />
		<tag k="ssr:stedsnr" v="232721" />
		<tag k="waterway" v="dam" />
	</node>
	<node lat="59.69022778118326" lon="11.67028888171981" id="-15271">
		<tag k="name" v="Vesle Løken" />
		<tag k="natural" v="water" />
		<tag k="ssr:stedsnr" v="232722" />
	</node>
	<node lat="59.67486388454377" lon="11.680825000167623" id="-15272">
		<tag k="name" v="Nordre Bleiketjenn" />
		<tag k="natural" v="water" />
		<tag k="ssr:stedsnr" v="232734" />
	</node>
	<node lat="59.724088884610126" lon="11.733669448260821" id="-15273">
		<tag k="name" v="Furusund" />
		<tag k="natural" v="strait" />
		<tag k="ssr:stedsnr" v="232740" />
	</node>
	<node lat="59.71675555844031" lon="11.812366669216198" id="-15275">
		<tag k="name" v="Kjeldsholmen" />
		<tag k="place" v="island" />
		<tag k="ssr:stedsnr" v="233112" />
	</node>
	<node lat="59.6968833331736" lon="11.72592222417756" id="-15276">
		<tag k="name" v="Svarttjenn" />
		<tag k="natural" v="water" />
		<tag k="ssr:stedsnr" v="233129" />
	</node>
	<node lat="59.809144448401135" lon="11.610419450312916" id="-15285">
		<tag k="name" v="Renna" />
		<tag k="place" v="locality" />
		<tag k="ssr:stedsnr" v="237231" />
	</node>
	<node lat="59.7962739746548" lon="11.445533113230846" id="-15287">
		<tag k="name" v="Lognselva" />
		<tag k="ssr:stedsnr" v="237878" />
		<tag k="waterway" v="river" />
	</node>
	<node lat="59.775180556519196" lon="11.757486103611981" id="-15291">
		<tag k="name" v="Bjønnøya" />
		<tag k="place" v="islet" />
		<tag k="ssr:stedsnr" v="239093" />
	</node>
	<node lat="59.89476944226509" lon="11.418936104103997" id="-15297">
		<tag k="name" v="Vesle Morttjenn" />
		<tag k="natural" v="water" />
		<tag k="ssr:stedsnr" v="239335" />
	</node>
	<node lat="59.784100000403946" lon="11.643447226804163" id="-15300">
		<tag k="name" v="Pungviknabben" />
		<tag k="natural" v="cape" />
		<tag k="ssr:stedsnr" v="239907" />
	</node>
	<node lat="59.88628055376219" lon="11.377994440479277" id="-15303">
		<tag k="name" v="Store Tverrtjenn" />
		<tag k="natural" v="water" />
		<tag k="ssr:stedsnr" v="241038" />
	</node>
	<node lat="59.66547222094106" lon="11.604830551002973" id="-15309">
		<tag k="name" v="Bergtjenn" />
		<tag k="natural" v="water" />
		<tag k="ssr:stedsnr" v="246281" />
	</node>
	<node lat="59.92986110902263" lon="11.739333324262578" id="-15312">
		<tag k="alt_name" v="Sakkhustjenn" />
		<tag k="name" v="Sakkustjenn" />
		<tag k="natural" v="water" />
		<tag k="ssr:stedsnr" v="247044" />
	</node>
	<node lat="59.697066666977484" lon="11.737422214204198" id="-15314">
		<tag k="alt_name" v="Slommetjenn" />
		<tag k="name" v="Slomtjenn" />
		<tag k="natural" v="water" />
		<tag k="ssr:stedsnr" v="247302" />
	</node>
	<node lat="59.83148055366454" lon="11.565625004408284" id="-15318">
		<tag k="alt_name" v="Kvernhustjenn" />
		<tag k="name" v="Kvernhustjennet" />
		<tag k="natural" v="water" />
		<tag k="ssr:stedsnr" v="247309" />
	</node>
	<node lat="59.73694205788998" lon="11.909713551436624" id="-15322">
		<tag k="name" v="Ertevannet" />
		<tag k="natural" v="water" />
		<tag k="ssr:stedsnr" v="247402" />
		<tag k="water" v="lake" />
	</node>
	<node lat="59.805116666144144" lon="11.598691669957724" id="-15327">
		<tag k="name" v="Langtjenn" />
		<tag k="natural" v="water" />
		<tag k="ssr:stedsnr" v="247465" />
	</node>
	<node lat="59.68506103290976" lon="11.621038436469266" id="-15328">
		<tag k="alt_name" v="Nordre Røytjenn" />
		<tag k="name" v="Østre Røytjenn" />
		<tag k="natural" v="water" />
		<tag k="ssr:stedsnr" v="247357" />
		<tag k="water" v="lake" />
	</node>
	<node lat="59.748777240325076" lon="11.886278738016738" id="-15329">
		<tag k="alt_name" v="Stangebrøt" />
		<tag k="name" v="Stangebrot" />
		<tag k="natural" v="water" />
		<tag k="ssr:stedsnr" v="247359" />
		<tag k="water" v="lake" />
	</node>
	<node lat="59.756505551718945" lon="11.609533332248862" id="-15331">
		<tag k="name" v="Langmyrtjenn" />
		<tag k="natural" v="water" />
		<tag k="ssr:stedsnr" v="247377" />
	</node>
	<node lat="59.870463890754834" lon="11.404091670360044" id="-15336">
		<tag k="alt_name" v="Aurkytetjenn" />
		<tag k="name" v="Aurekytetjennet" />
		<tag k="natural" v="water" />
		<tag k="ssr:stedsnr" v="247676" />
	</node>
	<node lat="59.77861944655361" lon="11.398105552670096" id="-15337">
		<tag k="alt_name" v="Ovrumdamtjenn" />
		<tag k="name" v="Ovrumdamtjennet" />
		<tag k="natural" v="water" />
		<tag k="ssr:stedsnr" v="247825" />
	</node>
	<node lat="59.90518611515791" lon="11.729144443347504" id="-15345">
		<tag k="name" v="Kroktjennbekken" />
		<tag k="ssr:stedsnr" v="248021" />
		<tag k="waterway" v="stream" />
	</node>
	<node lat="59.7900305523161" lon="11.921002781494527" id="-15346">
		<tag k="alt_name" v="Abbortjenn" />
		<tag k="name" v="Åbbortjenn" />
		<tag k="natural" v="water" />
		<tag k="ssr:stedsnr" v="248222" />
		<tag k="water" v="lake" />
	</node>
	<node lat="59.80596944081108" lon="11.659874996364564" id="-15349">
		<tag k="name" v="Lommetjenn" />
		<tag k="natural" v="water" />
		<tag k="ssr:stedsnr" v="248252" />
	</node>
	<node lat="59.763608335917084" lon="11.557136109248434" id="-15354">
		<tag k="name" v="Østrengvangtjenn" />
		<tag k="natural" v="water" />
		<tag k="ssr:stedsnr" v="267910" />
		<tag k="water" v="pond" />
	</node>
	<node lat="60.00568611336883" lon="11.499961105502324" id="-15356">
		<tag k="name" v="Øvre Småtjenn" />
		<tag k="natural" v="water" />
		<tag k="ssr:stedsnr" v="282677" />
	</node>
	<node lat="60.00708888758062" lon="11.503333340342307" id="-15357">
		<tag k="name" v="Nedre Småtjenn" />
		<tag k="natural" v="water" />
		<tag k="ssr:stedsnr" v="282679" />
	</node>
	<node lat="60.00506388519441" lon="11.548063891739202" id="-15360">
		<tag k="name" v="Uglevika" />
		<tag k="natural" v="bay" />
		<tag k="ssr:stedsnr" v="282779" />
	</node>
	<node lat="60.002700002306305" lon="11.5490305468956" id="-15361">
		<tag k="name" v="Geitholmen" />
		<tag k="place" v="islet" />
		<tag k="ssr:stedsnr" v="282789" />
	</node>
	<node lat="59.71956944504088" lon="11.69023611926718" id="-15364">
		<tag k="name" v="Størrtjenn" />
		<tag k="natural" v="water" />
		<tag k="ssr:stedsnr" v="282861" />
	</node>
	<node lat="59.78001944333857" lon="11.351950000651767" id="-15368">
		<tag k="name" v="Grytetjenn" />
		<tag k="natural" v="water" />
		<tag k="ssr:stedsnr" v="283124" />
	</node>
	<node lat="59.8936552304189" lon="11.675971885213393" id="-15378">
		<tag k="name" v="Vintervika" />
		<tag k="natural" v="bay" />
		<tag k="ssr:stedsnr" v="285784" />
	</node>
	<node lat="59.993397219007875" lon="11.796402777721557" id="-15381">
		<tag k="name" v="Kudalsbekken" />
		<tag k="ssr:stedsnr" v="285879" />
		<tag k="waterway" v="stream" />
	</node>
	<node lat="59.738333334946425" lon="11.855525002804448" id="-15382">
		<tag k="name" v="Dropletjenn" />
		<tag k="natural" v="water" />
		<tag k="ssr:stedsnr" v="293019" />
	</node>
	<node lat="59.78108889271506" lon="11.844958337200149" id="-15383">
		<tag k="name" v="Vesle Gjesstjenn" />
		<tag k="natural" v="water" />
		<tag k="ssr:stedsnr" v="293020" />
	</node>
	<node lat="59.70768333414593" lon="11.699399998368799" id="-15386">
		<tag k="name" v="Østre Hestetjenn" />
		<tag k="natural" v="water" />
		<tag k="ssr:stedsnr" v="293231" />
	</node>
	<node lat="59.749858334540626" lon="11.733105560420466" id="-15394">
		<tag k="name" v="Vesle Bjørtjenn" />
		<tag k="natural" v="water" />
		<tag k="ssr:stedsnr" v="293287" />
	</node>
	<node lat="59.69091111533204" lon="11.723608329031153" id="-15396">
		<tag k="name" v="Øvre Aurekulp" />
		<tag k="natural" v="water" />
		<tag k="ssr:stedsnr" v="293291" />
	</node>
	<node lat="59.69883888546665" lon="11.690297221000153" id="-15397">
		<tag k="name" v="Setertjenn" />
		<tag k="natural" v="water" />
		<tag k="ssr:stedsnr" v="293297" />
	</node>
	<node lat="59.70078889257925" lon="11.721316663901549" id="-15399">
		<tag k="name" v="Gjeddetjenn" />
		<tag k="natural" v="water" />
		<tag k="ssr:stedsnr" v="293299" />
	</node>
	<node lat="59.73201110980585" lon="11.916258325276937" id="-15400">
		<tag k="name" v="Ertevassdammen" />
		<tag k="ssr:stedsnr" v="293773" />
		<tag k="waterway" v="dam" />
	</node>
	<node lat="59.7400842463608" lon="11.459132216568397" id="-15401">
		<tag k="name" v="Hellesjøvannet" />
		<tag k="natural" v="water" />
		<tag k="ssr:stedsnr" v="297095" />
	</node>
	<node lat="59.96166667019706" lon="11.617186119993246" id="-15406">
		<tag k="name" v="Kvisla" />
		<tag k="ssr:stedsnr" v="298235" />
		<tag k="waterway" v="river" />
	</node>
	<node lat="59.85738611526138" lon="11.547277779836188" id="-15407">
		<tag k="name" v="Hesteskjærvika" />
		<tag k="natural" v="bay" />
		<tag k="ssr:stedsnr" v="298879" />
	</node>
	<node lat="59.8843027781179" lon="11.460788889049189" id="-15414">
		<tag k="name" v="Dryplebekken" />
		<tag k="ssr:stedsnr" v="300391" />
		<tag k="waterway" v="stream" />
	</node>
	<node lat="59.69046111256871" lon="11.472227780486863" id="-15418">
		<tag k="name" v="Storrenna" />
		<tag k="ssr:stedsnr" v="300277" />
		<tag k="waterway" v="drain" />
	</node>
	<node lat="59.823091671047" lon="11.68036665966312" id="-15423">
		<tag k="name" v="Skraveltangen" />
		<tag k="natural" v="cape" />
		<tag k="ssr:stedsnr" v="300494" />
	</node>
	<node lat="59.770700003332756" lon="11.520288889403385" id="-15427">
		<tag k="name" v="Lillefossbekken" />
		<tag k="ssr:stedsnr" v="300782" />
		<tag k="waterway" v="stream" />
	</node>
	<node lat="59.78416110789388" lon="11.520966661280713" id="-15431">
		<tag k="name" v="Nærbybekken" />
		<tag k="ssr:stedsnr" v="300813" />
		<tag k="waterway" v="stream" />
	</node>
	<node lat="59.67606388915216" lon="11.603041666899248" id="-15442">
		<tag k="name" v="Vestre Lakentjenn" />
		<tag k="natural" v="water" />
		<tag k="ssr:stedsnr" v="301427" />
	</node>
	<node lat="59.73697499955681" lon="11.592705558596437" id="-15449">
		<tag k="name" v="Trollkjørketjenn" />
		<tag k="natural" v="water" />
		<tag k="ssr:stedsnr" v="301593" />
	</node>
	<node lat="59.959066665563185" lon="11.766613886655358" id="-15453">
		<tag k="name" v="Vaskeberget" />
		<tag k="natural" v="beach" />
		<tag k="ssr:stedsnr" v="302372" />
	</node>
	<node lat="59.96623332904503" lon="11.76153055896173" id="-15454">
		<tag k="name" v="Hesjenabben" />
		<tag k="natural" v="cape" />
		<tag k="ssr:stedsnr" v="302375" />
	</node>
	<node lat="59.970097218370434" lon="11.76493611654732" id="-15455">
		<tag k="name" v="Steinbekken" />
		<tag k="ssr:stedsnr" v="302377" />
		<tag k="waterway" v="stream" />
	</node>
	<node lat="59.78603611030702" lon="11.68316667441858" id="-15458">
		<tag k="name" v="Ninilla" />
		<tag k="place" v="islet" />
		<tag k="ssr:stedsnr" v="464179" />
	</node>
	<node lat="59.66425555846926" lon="11.546883339070078" id="-15476">
		<tag k="fixme" v="multiple name tags, choose one and add the other to alt_name" />
		<tag k="name" v="Skulerudsjøen;Skulerudvannet" />
		<tag k="natural" v="water" />
		<tag k="ssr:stedsnr" v="307311" />
		<tag k="water" v="lake" />
	</node>
	<node lat="59.69660833609987" lon="11.76184443810302" id="-15477">
		<tag k="name" v="Ertevann" />
		<tag k="natural" v="water" />
		<tag k="ssr:stedsnr" v="307336" />
		<tag k="water" v="lake" />
	</node>
	<node lat="59.88330833661465" lon="11.763188897619402" id="-15479">
		<tag k="alt_name" v="Teinlagstjenn" />
		<tag k="name" v="Teinelagtjennet" />
		<tag k="natural" v="water" />
		<tag k="ssr:stedsnr" v="307227" />
	</node>
	<node lat="59.92846111265788" lon="11.727961115003742" id="-15486">
		<tag k="name" v="Tommeltjenn" />
		<tag k="natural" v="water" />
		<tag k="ssr:stedsnr" v="308046" />
	</node>
	<node lat="59.76287500157233" lon="11.89269444272958" id="-15492">
		<tag k="name" v="Delingstjenn" />
		<tag k="natural" v="water" />
		<tag k="ssr:stedsnr" v="308214" />
	</node>
	<node lat="59.75731111478076" lon="11.901824994953687" id="-15493">
		<tag k="alt_name" v="Hornfisktjerna" />
		<tag k="name" v="Søndre Hornfisktjenn" />
		<tag k="natural" v="water" />
		<tag k="ssr:stedsnr" v="308216" />
	</node>
	<node lat="59.83111944419936" lon="11.833644440168008" id="-15494">
		<tag k="name" v="Høneheitjenna" />
		<tag k="natural" v="water" />
		<tag k="ssr:stedsnr" v="308278" />
		<tag k="water" v="lake" />
	</node>
	<node lat="59.78690555430812" lon="11.55198889257872" id="-15497">
		<tag k="name" v="Lintjenn" />
		<tag k="natural" v="water" />
		<tag k="ssr:stedsnr" v="308409" />
	</node>
	<node lat="59.78584444559572" lon="11.60879445254019" id="-15498">
		<tag k="name" v="Klyftetjenn" />
		<tag k="natural" v="water" />
		<tag k="ssr:stedsnr" v="308411" />
	</node>
	<node lat="59.88349166751234" lon="11.647550000566287" id="-15501">
		<tag k="name" v="Årtjenn" />
		<tag k="natural" v="water" />
		<tag k="ssr:stedsnr" v="308196" />
	</node>
	<node lat="59.83379999899747" lon="11.701211116131757" id="-15504">
		<tag k="alt_name" v="Elgnabben" />
		<tag k="name" v="Elgen" />
		<tag k="natural" v="cape" />
		<tag k="ssr:stedsnr" v="308311" />
	</node>
	<node lat="59.83589166603" lon="11.362366659715427" id="-15514">
		<tag k="name" v="Mølledammen" />
		<tag k="natural" v="water" />
		<tag k="ssr:stedsnr" v="308768" />
	</node>
	<node lat="59.89340721224646" lon="11.373542257696494" id="-15515">
		<tag k="name" v="Gunnarstjenna" />
		<tag k="natural" v="water" />
		<tag k="ssr:stedsnr" v="308623" />
		<tag k="water" v="lake" />
	</node>
	<node lat="59.85942500003482" lon="11.63672499548788" id="-15520">
		<tag k="name" v="Nordre Rotjenn" />
		<tag k="natural" v="water" />
		<tag k="ssr:stedsnr" v="466173" />
	</node>
	<node lat="59.8430027749744" lon="11.513702777377322" id="-15528">
		<tag k="name" v="Langusen" />
		<tag k="natural" v="cape" />
		<tag k="ssr:stedsnr" v="466858" />
	</node>
	<node lat="59.69037777482775" lon="11.389800001585384" id="-15534">
		<tag k="name" v="Haratjenn" />
		<tag k="natural" v="water" />
		<tag k="ssr:stedsnr" v="326221" />
	</node>
	<node lat="59.69963888925216" lon="11.663944443361638" id="-15544">
		<tag k="name" v="Lyseraue" />
		<tag k="natural" v="water" />
		<tag k="ssr:stedsnr" v="342115" />
		<tag k="water" v="pond" />
	</node>
	<node lat="59.94637221984418" lon="11.678266675397037" id="-15548">
		<tag k="name" v="Sælaputtjenn" />
		<tag k="natural" v="water" />
		<tag k="ssr:stedsnr" v="343103" />
	</node>
	<node lat="59.982050000029794" lon="11.714172226378254" id="-15561">
		<tag k="name" v="Daltjennbekken" />
		<tag k="ssr:stedsnr" v="343770" />
		<tag k="waterway" v="stream" />
	</node>
	<node lat="59.92210833349872" lon="11.374313896645525" id="-15564">
		<tag k="name" v="Lomsnesbekken" />
		<tag k="ssr:stedsnr" v="343990" />
		<tag k="waterway" v="stream" />
	</node>
	<node lat="59.99757222075657" lon="11.474866657595024" id="-15566">
		<tag k="name" v="Letjenn" />
		<tag k="natural" v="water" />
		<tag k="ssr:stedsnr" v="344345" />
	</node>
	<node lat="59.85523888908676" lon="11.632713890434363" id="-15568">
		<tag k="name" v="Søndre Rotjenn" />
		<tag k="natural" v="water" />
		<tag k="ssr:stedsnr" v="344869" />
	</node>
	<node lat="59.86799444615661" lon="11.600133334259926" id="-15569">
		<tag k="name" v="Svartputten" />
		<tag k="natural" v="water" />
		<tag k="ssr:stedsnr" v="344879" />
	</node>
	<node lat="59.76694999755134" lon="11.468922229437835" id="-15572">
		<tag k="name" v="Storrenna" />
		<tag k="ssr:stedsnr" v="345409" />
		<tag k="waterway" v="drain" />
	</node>
	<node lat="59.993202775679904" lon="11.788980555175707" id="-15578">
		<tag k="name" v="Mastevika" />
		<tag k="natural" v="bay" />
		<tag k="ssr:stedsnr" v="345906" />
	</node>
	<node lat="59.71127778180995" lon="11.823963888184634" id="-15588">
		<tag k="name" v="Slomøya" />
		<tag k="place" v="island" />
		<tag k="ssr:stedsnr" v="354253" />
	</node>
	<node lat="59.73878557545956" lon="11.699546745594542" id="-15589">
		<tag k="name" v="Steinstjenn" />
		<tag k="natural" v="water" />
		<tag k="ssr:stedsnr" v="354106" />
	</node>
	<node lat="59.74734722139178" lon="11.884141670827539" id="-15591">
		<tag k="name" v="Roskiftvika" />
		<tag k="natural" v="bay" />
		<tag k="ssr:stedsnr" v="354810" />
	</node>
	<node lat="59.638083334147034" lon="11.762958336271556" id="-15592">
		<tag k="name" v="Okstjenn" />
		<tag k="natural" v="water" />
		<tag k="ssr:stedsnr" v="354819" />
	</node>
	<node lat="59.71560851791119" lon="11.69881084938838" id="-15593">
		<tag k="name" v="Søndre Nipetjenn" />
		<tag k="natural" v="water" />
		<tag k="ssr:stedsnr" v="354778" />
		<tag k="water" v="lake" />
	</node>
	<node lat="59.76620555827759" lon="11.91879443693201" id="-15594">
		<tag k="name" v="Røvassfallvika" />
		<tag k="natural" v="bay" />
		<tag k="ssr:stedsnr" v="354779" />
	</node>
	<node lat="59.70596944388389" lon="11.899302783784139" id="-15599">
		<tag k="name" v="Søndre dypil" />
		<tag k="natural" v="water" />
		<tag k="ssr:stedsnr" v="475129" />
	</node>
	<node lat="59.65070833168265" lon="11.80560833438864" id="-15603">
		<tag k="name" v="Tobakksteintjenn" />
		<tag k="natural" v="water" />
		<tag k="ssr:stedsnr" v="475107" />
	</node>
	<node lat="59.71045277973385" lon="11.808438885009707" id="-15604">
		<tag k="name" v="Neverneset" />
		<tag k="natural" v="cape" />
		<tag k="ssr:stedsnr" v="475235" />
	</node>
	<node lat="59.68835277908185" lon="11.71399722517649" id="-15606">
		<tag k="name" v="Nedre Aurekulp" />
		<tag k="natural" v="water" />
		<tag k="ssr:stedsnr" v="475245" />
	</node>
	<node lat="59.819211112404176" lon="11.581041666712048" id="-15611">
		<tag k="name" v="Søndre Skjebergtjenn" />
		<tag k="natural" v="water" />
		<tag k="ssr:stedsnr" v="358218" />
	</node>
	<node lat="59.80541111172484" lon="11.706997225594963" id="-15618">
		<tag k="name" v="Kaldåkersund" />
		<tag k="natural" v="strait" />
		<tag k="ssr:stedsnr" v="359725" />
	</node>
	<node lat="59.92031388615522" lon="11.716124996511825" id="-15620">
		<tag k="name" v="Kutjennbekken" />
		<tag k="ssr:stedsnr" v="360217" />
		<tag k="waterway" v="stream" />
	</node>
	<node lat="59.735897223584196" lon="11.932613885939046" id="-15625">
		<tag k="name" v="Sanddrevslora" />
		<tag k="natural" v="water" />
		<tag k="ssr:stedsnr" v="475770" />
		<tag k="water" v="pond" />
	</node>
	<node lat="59.69710277832053" lon="11.669288885895076" id="-15626">
		<tag k="name" v="Svarttjenn" />
		<tag k="natural" v="water" />
		<tag k="ssr:stedsnr" v="475791" />
	</node>
	<node lat="59.653472218568446" lon="11.524230547189855" id="-15631">
		<tag k="name" v="Stomperud-Damtjenn" />
		<tag k="natural" v="water" />
		<tag k="ssr:stedsnr" v="367215" />
	</node>
	<node lat="59.876430559898886" lon="11.6439333307229" id="-15636">
		<tag k="alt_name" v="Drylane" />
		<tag k="name" v="Dryplene" />
		<tag k="natural" v="water" />
		<tag k="ssr:stedsnr" v="368192" />
	</node>
	<node lat="59.82778888526696" lon="11.619766665298581" id="-15637">
		<tag k="alt_name" v="Lintjenna" />
		<tag k="name" v="Lintjenn" />
		<tag k="natural" v="water" />
		<tag k="ssr:stedsnr" v="368320" />
	</node>
	<node lat="59.84468888798876" lon="11.79698055485811" id="-15641">
		<tag k="name" v="Graslitjenn" />
		<tag k="natural" v="water" />
		<tag k="ssr:stedsnr" v="368381" />
	</node>
	<node lat="59.73904999697568" lon="11.736994451045268" id="-15644">
		<tag k="alt_name" v="Botnen" />
		<tag k="name" v="Bottfjorden" />
		<tag k="natural" v="bay" />
		<tag k="ssr:stedsnr" v="368717" />
	</node>
	<node lat="59.778816662661654" lon="11.38080000365002" id="-15651">
		<tag k="name" v="Motjenn" />
		<tag k="natural" v="water" />
		<tag k="ssr:stedsnr" v="368878" />
	</node>
	<node lat="59.92569166605704" lon="11.744913880889717" id="-15653">
		<tag k="alt_name" v="Folatjenn" />
		<tag k="name" v="Folungtjenn" />
		<tag k="natural" v="water" />
		<tag k="ssr:stedsnr" v="369032" />
	</node>
	<node lat="59.92193610966002" lon="11.751386117094162" id="-15654">
		<tag k="name" v="Klavatjenn" />
		<tag k="natural" v="water" />
		<tag k="ssr:stedsnr" v="369033" />
	</node>
	<node lat="59.95653610815903" lon="11.680769443355503" id="-15655">
		<tag k="name" v="Anderstjenn" />
		<tag k="natural" v="water" />
		<tag k="ssr:stedsnr" v="369110" />
	</node>
	<node lat="59.86270832946394" lon="11.773716657551436" id="-15656">
		<tag k="name" v="Lille Skåltjenn" />
		<tag k="natural" v="water" />
		<tag k="ssr:stedsnr" v="369116" />
	</node>
	<node lat="59.75789444845539" lon="11.928950007639306" id="-15661">
		<tag k="name" v="Røvannet" />
		<tag k="natural" v="water" />
		<tag k="ssr:stedsnr" v="369223" />
		<tag k="water" v="lake" />
	</node>
	<node lat="59.76185833688741" lon="11.661136117333022" id="-15665">
		<tag k="name" v="Sætertjenn" />
		<tag k="natural" v="water" />
		<tag k="ssr:stedsnr" v="369366" />
	</node>
	<node lat="60.00544166967242" lon="11.786438882671261" id="-15670">
		<tag k="name" v="Sundet" />
		<tag k="natural" v="strait" />
		<tag k="ssr:stedsnr" v="369520" />
	</node>
	<node lat="59.77750277645934" lon="11.911133331087067" id="-15676">
		<tag k="name" v="Storøya" />
		<tag k="place" v="islet" />
		<tag k="ssr:stedsnr" v="370262" />
	</node>
	<node lat="59.76898055304136" lon="11.86788889481255" id="-15678">
		<tag k="fixme" v="multiple name tags, choose one and add the other to alt_name" />
		<tag k="name" v="Veslesundvannet;Lille Sundvannet" />
		<tag k="natural" v="water" />
		<tag k="ssr:stedsnr" v="370266" />
	</node>
	<node lat="59.892650003014666" lon="11.615433341484074" id="-15686">
		<tag k="name" v="Skjortebøtta" />
		<tag k="natural" v="water" />
		<tag k="ssr:stedsnr" v="480595" />
	</node>
	<node lat="59.88566944210589" lon="11.60723611573201" id="-15687">
		<tag k="name" v="Jørnsbekken" />
		<tag k="ssr:stedsnr" v="480597" />
		<tag k="waterway" v="stream" />
	</node>
	<node lat="59.813913891990936" lon="11.323002781955923" id="-15689">
		<tag k="name" v="Trynetjenn" />
		<tag k="natural" v="water" />
		<tag k="ssr:stedsnr" v="480726" />
	</node>
	<node lat="59.87080000325834" lon="11.526630564130487" id="-15692">
		<tag k="name" v="Bergerudbekken" />
		<tag k="ssr:stedsnr" v="480930" />
		<tag k="waterway" v="stream" />
	</node>
	<node lat="59.85436666277221" lon="11.59106944898106" id="-15693">
		<tag k="name" v="Langsjøholmen" />
		<tag k="place" v="islet" />
		<tag k="ssr:stedsnr" v="480932" />
	</node>
	<node lat="59.85824166996595" lon="11.584938887800773" id="-15694">
		<tag k="name" v="Sauevika" />
		<tag k="natural" v="bay" />
		<tag k="ssr:stedsnr" v="480938" />
	</node>
	<node lat="59.826033336462245" lon="11.673963894807912" id="-15697">
		<tag k="name" v="Østneset" />
		<tag k="natural" v="cape" />
		<tag k="ssr:stedsnr" v="481495" />
	</node>
	<node lat="59.75733611383434" lon="11.575230556176493" id="-15701">
		<tag k="name" v="Hagmyrtjenn" />
		<tag k="natural" v="water" />
		<tag k="ssr:stedsnr" v="482053" />
	</node>
	<node lat="59.95148611202942" lon="11.76902777598522" id="-15716">
		<tag k="name" v="Steinbekken" />
		<tag k="ssr:stedsnr" v="483407" />
		<tag k="waterway" v="stream" />
	</node>
	<node lat="59.86494444272097" lon="11.432705546867991" id="-15722">
		<tag k="name" v="Korsbekken" />
		<tag k="ssr:stedsnr" v="483592" />
		<tag k="waterway" v="stream" />
	</node>
	<node lat="59.734502779464606" lon="11.681827769768137" id="-15727">
		<tag k="name" v="Knivtjenn" />
		<tag k="natural" v="water" />
		<tag k="ssr:stedsnr" v="483627" />
	</node>
	<node lat="59.733511114139425" lon="11.675752784246008" id="-15728">
		<tag k="name" v="Bringebærtjenn" />
		<tag k="natural" v="water" />
		<tag k="ssr:stedsnr" v="483628" />
	</node>
	<node lat="59.98862222266985" lon="11.522861113941731" id="-15735">
		<tag k="name" v="Snatetangen" />
		<tag k="natural" v="cape" />
		<tag k="ssr:stedsnr" v="403582" />
	</node>
	<node lat="59.71657222447099" lon="11.679911113646654" id="-15740">
		<tag k="name" v="Tretjenna" />
		<tag k="natural" v="water" />
		<tag k="ssr:stedsnr" v="403884" />
		<tag k="water" v="lake" />
	</node>
	<node lat="59.95386468696068" lon="11.684973081973189" id="-15742">
		<tag k="name" v="Torvtjenn" />
		<tag k="natural" v="water" />
		<tag k="ssr:stedsnr" v="404020" />
	</node>
	<node lat="59.93580000228035" lon="11.416322213978658" id="-15753">
		<tag k="name" v="Breivollbekken" />
		<tag k="ssr:stedsnr" v="404498" />
		<tag k="waterway" v="stream" />
	</node>
	<node lat="59.74697777432704" lon="11.889074995812162" id="-15764">
		<tag k="alt_name" v="Stangebrøtdammen" />
		<tag k="name" v="Stangebrotdammen" />
		<tag k="ssr:stedsnr" v="414192" />
		<tag k="waterway" v="dam" />
	</node>
	<node lat="59.733250000758744" lon="11.712974991784504" id="-15770">
		<tag k="name" v="Tjennet i Abbormåsån" />
		<tag k="natural" v="water" />
		<tag k="ssr:stedsnr" v="415092" />
	</node>
	<node lat="59.759336115033264" lon="11.816552784545827" id="-15774">
		<tag k="name" v="Storhølen" />
		<tag k="place" v="locality" />
		<tag k="ssr:stedsnr" v="415802" />
	</node>
	<node lat="59.749236109069635" lon="11.873461113313063" id="-15775">
		<tag k="name" v="Abborvik" />
		<tag k="natural" v="bay" />
		<tag k="ssr:stedsnr" v="415803" />
	</node>
	<node lat="59.70443084070621" lon="11.937897730014043" id="-15776">
		<tag k="name" v="Klommedammen" />
		<tag k="ssr:stedsnr" v="415806" />
		<tag k="waterway" v="dam" />
	</node>
	<node lat="59.724605556968164" lon="11.718716661246264" id="-15777">
		<tag k="name" v="Elgesund" />
		<tag k="natural" v="strait" />
		<tag k="ssr:stedsnr" v="415797" />
	</node>
	<node lat="59.78980277787139" lon="11.921161105395624" id="-15778">
		<tag k="name" v="Abbortjenn" />
		<tag k="natural" v="water" />
		<tag k="ssr:stedsnr" v="415800" />
	</node>
	<node lat="60.006913892355904" lon="11.703419438396805" id="-15779">
		<tag k="name" v="Delebekken" />
		<tag k="ssr:stedsnr" v="419184" />
		<tag k="waterway" v="stream" />
	</node>
	<node lat="59.794127778199844" lon="11.368094447989998" id="-15787">
		<tag k="name" v="Nordre Fosstjenn" />
		<tag k="natural" v="water" />
		<tag k="ssr:stedsnr" v="419995" />
	</node>
	<node lat="59.88612092002623" lon="11.668841988670508" id="-15789">
		<tag k="name" v="Langvik" />
		<tag k="natural" v="bay" />
		<tag k="ssr:stedsnr" v="420610" />
	</node>
	<node lat="59.89029166391122" lon="11.466683335378214" id="-15794">
		<tag k="name" v="Posttjennbekken" />
		<tag k="ssr:stedsnr" v="421347" />
		<tag k="waterway" v="stream" />
	</node>
	<node lat="59.67815833439203" lon="11.816927782680027" id="-15807">
		<tag k="name" v="Myrgangen" />
		<tag k="natural" v="strait" />
		<tag k="ssr:stedsnr" v="489355" />
	</node>
	<node lat="59.74031666294336" lon="11.569416668523568" id="-15811">
		<tag k="name" v="Bønsætertjenn" />
		<tag k="natural" v="water" />
		<tag k="ssr:stedsnr" v="422589" />
		<tag k="water" v="pond" />
	</node>
	<node lat="59.722327779695824" lon="11.692327786620984" id="-15813">
		<tag k="name" v="Hølandstjenn" />
		<tag k="natural" v="water" />
		<tag k="ssr:stedsnr" v="422596" />
	</node>
	<node lat="59.84225833042224" lon="11.770852782211481" id="-15814">
		<tag k="name" v="Blekketjenn" />
		<tag k="natural" v="water" />
		<tag k="ssr:stedsnr" v="489364" />
	</node>
	<node lat="59.6868361100833" lon="11.612122214539705" id="-15816">
		<tag k="name" v="Vasstjenn" />
		<tag k="natural" v="water" />
		<tag k="ssr:stedsnr" v="489382" />
	</node>
	<node lat="59.89722222594843" lon="11.77366389342359" id="-15831">
		<tag k="name" v="Sørlibekken" />
		<tag k="ssr:stedsnr" v="423493" />
		<tag k="waterway" v="stream" />
	</node>
	<node lat="59.64816667111568" lon="11.528677781456048" id="-15835">
		<tag k="name" v="Vesletjenn" />
		<tag k="natural" v="water" />
		<tag k="ssr:stedsnr" v="423715" />
	</node>
	<node lat="59.73077222270872" lon="11.562224991875095" id="-15840">
		<tag k="alt_name" v="Åstjennet" />
		<tag k="name" v="Åstjenn" />
		<tag k="natural" v="water" />
		<tag k="ssr:stedsnr" v="489660" />
	</node>
	<node lat="59.72146389067593" lon="11.82428611983144" id="-15843">
		<tag k="name" v="Rattodden" />
		<tag k="natural" v="cape" />
		<tag k="ssr:stedsnr" v="489677" />
	</node>
	<node lat="59.82277499685151" lon="11.408736112122877" id="-15844">
		<tag k="name" v="Lintjenn" />
		<tag k="natural" v="water" />
		<tag k="ssr:stedsnr" v="489767" />
	</node>
	<node lat="59.68499756455509" lon="11.441082437295755" id="-15847">
		<tag k="fixme" v="multiple name tags, choose one and add the other to alt_name" />
		<tag k="name" v="Hemnessjøen;Øgderen" />
		<tag k="natural" v="water" />
		<tag k="ssr:stedsnr" v="489844" />
		<tag k="water" v="lake" />
	</node>
	<node lat="59.91651321238974" lon="11.727244964663392" id="-15855">
		<tag k="name" v="Storfelttjenn" />
		<tag k="natural" v="water" />
		<tag k="ssr:stedsnr" v="490017" />
	</node>
	<node lat="59.75735555670585" lon="11.870786115215047" id="-15856">
		<tag k="alt_name" v="Dypilen, store;Store Dypilen" />
		<tag k="name" v="Storedypil" />
		<tag k="natural" v="water" />
		<tag k="ssr:stedsnr" v="490220" />
	</node>
	<node lat="59.92489443995794" lon="11.703988891097477" id="-15857">
		<tag k="alt_name" v="Garsjøen, store;Garsjøen" />
		<tag k="name" v="Store Garsjøen" />
		<tag k="natural" v="water" />
		<tag k="ssr:stedsnr" v="490059" />
		<tag k="water" v="lake" />
	</node>
	<node lat="59.94647016718097" lon="11.730275227756232" id="-15858">
		<tag k="name" v="Damtjenna" />
		<tag k="natural" v="water" />
		<tag k="ssr:stedsnr" v="490080" />
		<tag k="water" v="lake" />
	</node>
	<node lat="59.82184160118489" lon="11.582290583397942" id="-15865">
		<tag k="name" v="Skjebergtjenna" />
		<tag k="natural" v="water" />
		<tag k="ssr:stedsnr" v="490269" />
		<tag k="water" v="lake" />
	</node>
	<node lat="59.78490833695491" lon="11.659069441601698" id="-15870">
		<tag k="name" v="Rundtjenn" />
		<tag k="natural" v="water" />
		<tag k="ssr:stedsnr" v="490424" />
	</node>
	<node lat="59.78714999741913" lon="11.685263895441604" id="-15871">
		<tag k="alt_name" v="Bjønnøya" />
		<tag k="name" v="Bjørnøya" />
		<tag k="place" v="islet" />
		<tag k="ssr:stedsnr" v="490427" />
	</node>
	<node lat="59.850263888182454" lon="11.731749996276989" id="-15872">
		<tag k="name" v="Hvervselva" />
		<tag k="ssr:stedsnr" v="490346" />
		<tag k="waterway" v="stream" />
	</node>
	<node lat="59.754631780516085" lon="11.667611149020097" id="-15876">
		<tag k="name" v="Gåsefjorden" />
		<tag k="natural" v="water" />
		<tag k="ssr:stedsnr" v="490373" />
		<tag k="water" v="lake" />
	</node>
	<node lat="59.791216663995506" lon="11.630408326368267" id="-15878">
		<tag k="name" v="Lystjenn" />
		<tag k="natural" v="water" />
		<tag k="ssr:stedsnr" v="490450" />
	</node>
	<node lat="59.79522499665872" lon="11.65541665802356" id="-15879">
		<tag k="name" v="Elgtjenn" />
		<tag k="natural" v="water" />
		<tag k="ssr:stedsnr" v="490458" />
	</node>
	<node lat="59.815430558616484" lon="11.755072215914428" id="-15882">
		<tag k="name" v="Auretjenn" />
		<tag k="natural" v="water" />
		<tag k="ssr:stedsnr" v="490523" />
	</node>
	<node lat="59.723133333917694" lon="11.640713886389905" id="-15887">
		<tag k="name" v="Bjurbekken" />
		<tag k="ssr:stedsnr" v="428607" />
		<tag k="waterway" v="stream" />
	</node>
	<node lat="59.72341667044064" lon="11.525908332095554" id="-15889">
		<tag k="alt_name" v="Damtjennet" />
		<tag k="name" v="Damtjenn" />
		<tag k="natural" v="water" />
		<tag k="ssr:stedsnr" v="428621" />
	</node>
	<node lat="59.67002462349908" lon="11.873044829153852" id="-15892">
		<tag k="fixme" v="multiple name tags, choose one and add the other to alt_name" />
		<tag k="name" v="Søndre Porstjenn;Porstjennet" />
		<tag k="natural" v="water" />
		<tag k="ssr:stedsnr" v="429058" />
	</node>
	<node lat="59.72713888884031" lon="11.93609999248931" id="-15903">
		<tag k="alt_name" v="Fjørbekktjennet" />
		<tag k="name" v="Fjørbekktjenn" />
		<tag k="natural" v="water" />
		<tag k="ssr:stedsnr" v="429409" />
	</node>
	<node lat="59.987541662986295" lon="11.462086110252953" id="-15906">
		<tag k="name" v="Sætertjenn" />
		<tag k="natural" v="water" />
		<tag k="ssr:stedsnr" v="429440" />
	</node>
	<node lat="59.78599166944691" lon="11.583641668824727" id="-15907">
		<tag k="name" v="Fjølatjenn" />
		<tag k="natural" v="water" />
		<tag k="ssr:stedsnr" v="429443" />
	</node>
	<node lat="59.74378055861888" lon="11.752261115653022" id="-15912">
		<tag k="alt_name" v="Damtjenn" />
		<tag k="name" v="Sagtjenn" />
		<tag k="natural" v="water" />
		<tag k="ssr:stedsnr" v="429663" />
	</node>
	<node lat="59.74823610960267" lon="11.775738887132206" id="-15913">
		<tag k="name" v="Trangkleivtjenn" />
		<tag k="natural" v="water" />
		<tag k="ssr:stedsnr" v="429668" />
	</node>
	<node lat="59.7886611138386" lon="11.316200002787433" id="-15916">
		<tag k="alt_name" v="Bjørnebraate Tj" />
		<tag k="fixme" v="multiple name tags, choose one and add the other to alt_name" />
		<tag k="name" v="Dalatjern;Bjørnebråtetjern" />
		<tag k="natural" v="water" />
		<tag k="ssr:stedsnr" v="490866" />
	</node>
	<node lat="59.981611110446984" lon="11.539466674063648" id="-15920">
		<tag k="alt_name" v="Skjepptjenn" />
		<tag k="name" v="Skiptjenn" />
		<tag k="natural" v="water" />
		<tag k="ssr:stedsnr" v="429956" />
	</node>
	<node lat="59.92750833282028" lon="11.802522227502223" id="-15928">
		<tag k="name" v="Lauvtjenn" />
		<tag k="natural" v="water" />
		<tag k="ssr:stedsnr" v="430048" />
	</node>
	<node lat="59.76163332927844" lon="11.868658337191684" id="-15932">
		<tag k="alt_name" v="Dypilen, lille;Lille Dypilen" />
		<tag k="name" v="Vesledypil" />
		<tag k="natural" v="water" />
		<tag k="ssr:stedsnr" v="430226" />
	</node>
	<node lat="59.849013887894685" lon="11.777719446613977" id="-15933">
		<tag k="name" v="Gammelsætertjenn" />
		<tag k="natural" v="water" />
		<tag k="ssr:stedsnr" v="430354" />
	</node>
	<node lat="59.84890833000237" lon="11.53638056244556" id="-15934">
		<tag k="name" v="Bjørkelangen" />
		<tag k="natural" v="water" />
		<tag k="ssr:stedsnr" v="430364" />
		<tag k="water" v="lake" />
	</node>
	<node lat="59.97573889248898" lon="11.699494442729232" id="-15935">
		<tag k="name" v="Daltjenn" />
		<tag k="natural" v="water" />
		<tag k="ssr:stedsnr" v="490992" />
	</node>
	<node lat="59.77421389285361" lon="11.702350007565466" id="-15937">
		<tag k="name" v="Gaupetjenn" />
		<tag k="natural" v="water" />
		<tag k="ssr:stedsnr" v="430415" />
	</node>
	<node lat="59.77284856322488" lon="11.931129607238956" id="-15942">
		<tag k="alt_name" v="Strøtjern" />
		<tag k="name" v="Store Strøtjenn" />
		<tag k="natural" v="water" />
		<tag k="ssr:stedsnr" v="491235" />
	</node>
	<node lat="59.99763055598793" lon="11.700113885022294" id="-15944">
		<tag k="alt_name" v="Blekketjenn" />
		<tag k="name" v="Blekketjennet" />
		<tag k="natural" v="water" />
		<tag k="ssr:stedsnr" v="430958" />
	</node>
	<node lat="59.99789059344475" lon="11.474571519624826" id="-15945">
		<tag k="name" v="Letjenna" />
		<tag k="natural" v="water" />
		<tag k="ssr:stedsnr" v="430959" />
		<tag k="water" v="lake" />
	</node>
	<node lat="59.82662777338803" lon="11.86588610848623" id="-15947">
		<tag k="name" v="Tønnestjenn" />
		<tag k="natural" v="water" />
		<tag k="ssr:stedsnr" v="491158" />
	</node>
	<node lat="59.78331389028776" lon="11.895711109644969" id="-15948">
		<tag k="name" v="Brennoppvika" />
		<tag k="natural" v="bay" />
		<tag k="ssr:stedsnr" v="431246" />
	</node>
	<node lat="59.791519445579006" lon="11.925644441886728" id="-15949">
		<tag k="name" v="Hornsjøen" />
		<tag k="natural" v="water" />
		<tag k="ssr:stedsnr" v="431248" />
	</node>
	<node lat="60.02128055571083" lon="11.542402773451135" id="-15952">
		<tag k="alt_name" v="Djuptjennet" />
		<tag k="name" v="Djuptjenn" />
		<tag k="natural" v="water" />
		<tag k="ssr:stedsnr" v="431594" />
	</node>
	<node lat="59.87372499848835" lon="11.353333341560358" id="-15954">
		<tag k="name" v="Halstjenna" />
		<tag k="natural" v="water" />
		<tag k="ssr:stedsnr" v="446103" />
		<tag k="water" v="lake" />
	</node>
	<node lat="59.88734277034537" lon="11.691336389089862" id="-15957">
		<tag k="name" v="Skarptjenna" />
		<tag k="natural" v="water" />
		<tag k="ssr:stedsnr" v="671199" />
		<tag k="water" v="lake" />
	</node>
	<node lat="59.89119979860149" lon="11.69919743952822" id="-15958">
		<tag k="name" v="Grønkolltjenna" />
		<tag k="natural" v="water" />
		<tag k="ssr:stedsnr" v="671202" />
		<tag k="water" v="lake" />
	</node>
	<node lat="59.89620933270289" lon="11.654182941478162" id="-15959">
		<tag k="name" v="Ertetjenna" />
		<tag k="natural" v="water" />
		<tag k="ssr:stedsnr" v="671222" />
		<tag k="water" v="lake" />
	</node>
	<node lat="59.80813610894203" lon="11.555216658715196" id="-15961">
		<tag k="name" v="Kroktjenn" />
		<tag k="natural" v="water" />
		<tag k="ssr:stedsnr" v="671262" />
	</node>
	<node lat="59.694930559921545" lon="11.818919451342676" id="-15963">
		<tag k="name" v="Leirholmen" />
		<tag k="place" v="islet" />
		<tag k="ssr:stedsnr" v="671322" />
	</node>
	<node lat="59.71237499597308" lon="11.81928610516874" id="-15964">
		<tag k="name" v="Storøya" />
		<tag k="place" v="island" />
		<tag k="ssr:stedsnr" v="671345" />
	</node>
	<node lat="59.83283333170946" lon="11.811924997050879" id="-15971">
		<tag k="alt_name" v="Bjørnetjenn" />
		<tag k="name" v="Bjørntjenn" />
		<tag k="natural" v="water" />
		<tag k="ssr:stedsnr" v="672283" />
	</node>
	<node lat="59.72188610753699" lon="11.602294440002929" id="-15973">
		<tag k="name" v="Steinarsodden" />
		<tag k="natural" v="cape" />
		<tag k="ssr:stedsnr" v="671662" />
	</node>
	<node lat="59.820722222670504" lon="11.330647217888203" id="-15974">
		<tag k="name" v="Damtjenn" />
		<tag k="natural" v="water" />
		<tag k="ssr:stedsnr" v="671798" />
	</node>
	<node lat="59.82290833745358" lon="11.313691670694224" id="-15976">
		<tag k="alt_name" v="Mosetjenn" />
		<tag k="name" v="Mosatjenn" />
		<tag k="natural" v="water" />
		<tag k="ssr:stedsnr" v="671760" />
	</node>
	<node lat="59.78048333701248" lon="11.35602777730613" id="-15978">
		<tag k="name" v="Hansketjenn" />
		<tag k="natural" v="water" />
		<tag k="ssr:stedsnr" v="671861" />
	</node>
	<node lat="59.837194445664494" lon="11.683963889832597" id="-15988">
		<tag k="name" v="Munkeskjæra" />
		<tag k="place" v="islet" />
		<tag k="ssr:stedsnr" v="672301" />
	</node>
	<node lat="59.76005277429893" lon="11.765036114154544" id="-15989">
		<tag k="alt_name" v="Grautelitjenn" />
		<tag k="name" v="Grautlitjenn" />
		<tag k="natural" v="water" />
		<tag k="ssr:stedsnr" v="672376" />
	</node>
	<node lat="59.88878611316102" lon="11.391847223587629" id="-16004">
		<tag k="fixme" v="multiple name tags, choose one and add the other to alt_name" />
		<tag k="name" v="Putten;Puttjenn" />
		<tag k="natural" v="water" />
		<tag k="ssr:stedsnr" v="672645" />
	</node>
	<node lat="59.89022222355401" lon="11.399836119912184" id="-16005">
		<tag k="alt_name" v="Stenstjenn" />
		<tag k="name" v="Steinstjenn" />
		<tag k="natural" v="water" />
		<tag k="ssr:stedsnr" v="672647" />
	</node>
	<node lat="59.8372500028583" lon="11.404194442650256" id="-16006">
		<tag k="alt_name" v="Aurtjenn" />
		<tag k="name" v="Auretjenn" />
		<tag k="natural" v="water" />
		<tag k="ssr:stedsnr" v="672769" />
	</node>
	<node lat="59.80355833535689" lon="11.332016659141694" id="-16009">
		<tag k="name" v="Snipptjenn" />
		<tag k="natural" v="water" />
		<tag k="ssr:stedsnr" v="672785" />
	</node>
	<node lat="59.969303511034" lon="11.702144333133099" id="-16012">
		<tag k="name" v="Piltjenna" />
		<tag k="natural" v="water" />
		<tag k="ssr:stedsnr" v="672984" />
		<tag k="water" v="lake" />
	</node>
	<node lat="59.78435000047173" lon="11.902549993963293" id="-16016">
		<tag k="name" v="Merravika" />
		<tag k="natural" v="bay" />
		<tag k="ssr:stedsnr" v="673244" />
	</node>
	<node lat="59.754783330664196" lon="11.852727770422169" id="-16017">
		<tag k="name" v="Søndre Hellingstjennet" />
		<tag k="natural" v="water" />
		<tag k="ssr:stedsnr" v="673254" />
	</node>
	<node lat="59.69741944590158" lon="11.615258325295951" id="-16019">
		<tag k="name" v="Gunnardalstjenn" />
		<tag k="natural" v="water" />
		<tag k="ssr:stedsnr" v="464177" />
	</node>
	<node lat="59.999577773981976" lon="11.546583329729026" id="-16020">
		<tag k="name" v="Saueholmen" />
		<tag k="place" v="islet" />
		<tag k="ssr:stedsnr" v="464572" />
	</node>
	<node lat="59.99662778216144" lon="11.532727778050957" id="-16021">
		<tag k="name" v="Gørrvika" />
		<tag k="natural" v="bay" />
		<tag k="ssr:stedsnr" v="464574" />
	</node>
	<node lat="59.81591944408266" lon="11.790555550833352" id="-16024">
		<tag k="name" v="Gravervik" />
		<tag k="natural" v="bay" />
		<tag k="ssr:stedsnr" v="464610" />
	</node>
	<node lat="59.986500002935294" lon="11.614877786886593" id="-16027">
		<tag k="name" v="Store Trandumtjenn" />
		<tag k="natural" v="water" />
		<tag k="ssr:stedsnr" v="464675" />
	</node>
	<node lat="59.81614444237011" lon="11.812108339185139" id="-16029">
		<tag k="name" v="Svartebøtta" />
		<tag k="natural" v="water" />
		<tag k="ssr:stedsnr" v="464909" />
		<tag k="water" v="pond" />
	</node>
	<node lat="59.96740833163873" lon="11.410597226471744" id="-16032">
		<tag k="name" v="Sætertjenn" />
		<tag k="natural" v="water" />
		<tag k="ssr:stedsnr" v="465007" />
	</node>
	<node lat="59.954680555793715" lon="11.689397226360501" id="-16034">
		<tag k="name" v="Vintertjenn" />
		<tag k="natural" v="water" />
		<tag k="ssr:stedsnr" v="465014" />
	</node>
	<node lat="59.7869305582978" lon="11.71621111472919" id="-16036">
		<tag k="name" v="Fuglevik" />
		<tag k="natural" v="bay" />
		<tag k="ssr:stedsnr" v="465169" />
	</node>
	<node lat="59.76022222496475" lon="11.855419436819165" id="-16050">
		<tag k="name" v="Røyrtjenn" />
		<tag k="natural" v="water" />
		<tag k="ssr:stedsnr" v="475002" />
	</node>
	<node lat="59.71812777462651" lon="11.87675000537434" id="-16054">
		<tag k="name" v="Svartebøtta" />
		<tag k="natural" v="water" />
		<tag k="ssr:stedsnr" v="475122" />
	</node>
	<node lat="59.72472499732571" lon="11.895944449547326" id="-16057">
		<tag k="name" v="Hornfisktjenn" />
		<tag k="natural" v="water" />
		<tag k="ssr:stedsnr" v="475172" />
	</node>
	<node lat="59.67803611142957" lon="11.87515833253392" id="-16058">
		<tag k="name" v="Myrtjenn" />
		<tag k="natural" v="water" />
		<tag k="ssr:stedsnr" v="475179" />
	</node>
	<node lat="59.75824444606019" lon="11.894430555149324" id="-16059">
		<tag k="name" v="Jegertjenn" />
		<tag k="natural" v="water" />
		<tag k="ssr:stedsnr" v="475181" />
	</node>
	<node lat="59.68252499730053" lon="11.823177785538915" id="-16062">
		<tag k="name" v="Sandøya" />
		<tag k="place" v="island" />
		<tag k="ssr:stedsnr" v="475220" />
	</node>
	<node lat="59.69065555359136" lon="11.765033331369741" id="-16063">
		<tag k="name" v="Skvettebruvika" />
		<tag k="natural" v="bay" />
		<tag k="ssr:stedsnr" v="475227" />
	</node>
	<node lat="59.6941472197925" lon="11.744222230004851" id="-16064">
		<tag k="name" v="De runde tjenna" />
		<tag k="natural" v="water" />
		<tag k="ssr:stedsnr" v="475228" />
		<tag k="water" v="lake" />
	</node>
	<node lat="59.80321111285722" lon="11.710849998503424" id="-16071">
		<tag k="name" v="Morttangen" />
		<tag k="natural" v="cape" />
		<tag k="ssr:stedsnr" v="480704" />
	</node>
	<node lat="59.79344722043334" lon="11.87861944729862" id="-16075">
		<tag k="name" v="Blekketjenn" />
		<tag k="natural" v="water" />
		<tag k="ssr:stedsnr" v="480762" />
	</node>
	<node lat="59.854397222002795" lon="11.541030563336024" id="-16076">
		<tag k="name" v="Skorsteinen" />
		<tag k="natural" v="cape" />
		<tag k="ssr:stedsnr" v="480902" />
	</node>
	<node lat="59.889022222729906" lon="11.451358336996487" id="-16080">
		<tag k="name" v="Lysthusholmene" />
		<tag k="natural" v="water" />
		<tag k="ssr:stedsnr" v="482361" />
	</node>
	<node lat="59.954658333461815" lon="11.784000005587211" id="-16087">
		<tag k="name" v="Eplevika" />
		<tag k="natural" v="bay" />
		<tag k="ssr:stedsnr" v="483409" />
	</node>
	<node lat="59.62846111115067" lon="11.528949996739012" id="-16089">
		<tag k="name" v="Østre Damtjenn" />
		<tag k="natural" v="water" />
		<tag k="ssr:stedsnr" v="483779" />
	</node>
	<node lat="59.767005553717645" lon="11.38617499472907" id="-16090">
		<tag k="name" v="Blekketjenn" />
		<tag k="natural" v="water" />
		<tag k="ssr:stedsnr" v="483970" />
	</node>
	<node lat="59.84161666658946" lon="11.656024993678328" id="-16092">
		<tag k="name" v="Skålvikene" />
		<tag k="natural" v="bay" />
		<tag k="ssr:stedsnr" v="484205" />
	</node>
	<node lat="59.84003333083861" lon="11.654719446147508" id="-16093">
		<tag k="name" v="Skålviknabben" />
		<tag k="natural" v="cape" />
		<tag k="ssr:stedsnr" v="484206" />
	</node>
	<node lat="59.80443888673216" lon="11.327549993638408" id="-16095">
		<tag k="name" v="Silingskåla" />
		<tag k="natural" v="water" />
		<tag k="ssr:stedsnr" v="484813" />
	</node>
	<node lat="59.788674998998964" lon="11.37316389295094" id="-16096">
		<tag k="loc_name" v="Karihølen" />
		<tag k="name" v="Kariholen" />
		<tag k="place" v="locality" />
		<tag k="ssr:stedsnr" v="484865" />
	</node>
	<node lat="59.66595000376748" lon="11.779352775073262" id="-16097">
		<tag k="name" v="Bjørntjenn" />
		<tag k="natural" v="water" />
		<tag k="ssr:stedsnr" v="489303" />
	</node>
	<node lat="59.70765277933707" lon="11.633163886299911" id="-16099">
		<tag k="name" v="Morttjenn" />
		<tag k="natural" v="water" />
		<tag k="ssr:stedsnr" v="489339" />
	</node>
	<node lat="59.65958610941858" lon="11.723155557375625" id="-16101">
		<tag k="alt_name" v="Hellersund" />
		<tag k="name" v="Hellersundet" />
		<tag k="natural" v="strait" />
		<tag k="ssr:stedsnr" v="489287" />
	</node>
	<node lat="59.73827222337413" lon="11.888199994524872" id="-16103">
		<tag k="name" v="Langtjenn" />
		<tag k="natural" v="water" />
		<tag k="ssr:stedsnr" v="489444" />
	</node>
	<node lat="59.73285025786751" lon="11.845471281046603" id="-16104">
		<tag k="name" v="Vestre Lommetjenn" />
		<tag k="natural" v="water" />
		<tag k="ssr:stedsnr" v="489451" />
	</node>
	<node lat="59.987419444547086" lon="11.651152779805102" id="-16105">
		<tag k="name" v="Vasketjenn" />
		<tag k="natural" v="water" />
		<tag k="ssr:stedsnr" v="489935" />
	</node>
	<node lat="59.96855555932264" lon="11.552102779835499" id="-16110">
		<tag k="name" v="Gørrtjenn" />
		<tag k="natural" v="water" />
		<tag k="ssr:stedsnr" v="490098" />
	</node>
	<node lat="59.95835833480588" lon="11.652341667736792" id="-16111">
		<tag k="alt_name" v="Svartlitjenn" />
		<tag k="name" v="Svartlitjennet" />
		<tag k="natural" v="water" />
		<tag k="ssr:stedsnr" v="490100" />
	</node>
	<node lat="59.95658902264249" lon="11.66741113290814" id="-16116">
		<tag k="name" v="Oppsjøen" />
		<tag k="natural" v="water" />
		<tag k="ssr:stedsnr" v="490116" />
		<tag k="water" v="lake" />
	</node>
	<node lat="59.771547218744374" lon="11.72930278008669" id="-16120">
		<tag k="name" v="Motjenn" />
		<tag k="natural" v="water" />
		<tag k="ssr:stedsnr" v="490410" />
	</node>
	<node lat="59.77543610766998" lon="11.626636107460273" id="-16122">
		<tag k="name" v="Store Auretjenn" />
		<tag k="natural" v="water" />
		<tag k="ssr:stedsnr" v="490414" />
	</node>
	<node lat="59.78404166458594" lon="11.676624992931568" id="-16123">
		<tag k="name" v="Reven" />
		<tag k="natural" v="cape" />
		<tag k="ssr:stedsnr" v="490428" />
	</node>
	<node lat="59.782958335122736" lon="11.697616661787265" id="-16124">
		<tag k="name" v="Gaupevika" />
		<tag k="natural" v="bay" />
		<tag k="ssr:stedsnr" v="490431" />
	</node>
	<node lat="59.90419999975888" lon="11.339519443717336" id="-16128">
		<tag k="name" v="Morttjenn" />
		<tag k="natural" v="water" />
		<tag k="ssr:stedsnr" v="490619" />
	</node>
	<node lat="59.84871111420211" lon="11.637411110847397" id="-16130">
		<tag k="name" v="Store Tasketjenn" />
		<tag k="natural" v="water" />
		<tag k="ssr:stedsnr" v="490330" />
	</node>
	<node lat="59.75583477213092" lon="11.567838748731909" id="-16131">
		<tag k="name" v="Tollporttjenn" />
		<tag k="natural" v="water" />
		<tag k="old_name" v="Trollporttjenn" />
		<tag k="ssr:stedsnr" v="490382" />
	</node>
	<node lat="59.76471111546826" lon="11.402963897312725" id="-16138">
		<tag k="name" v="Kjerringtjenn" />
		<tag k="natural" v="water" />
		<tag k="ssr:stedsnr" v="490920" />
	</node>
	<node lat="59.7735249968639" lon="11.871250003485656" id="-16140">
		<tag k="name" v="Sundvasstjern" />
		<tag k="natural" v="water" />
		<tag k="ssr:stedsnr" v="491230" />
	</node>
	<node lat="59.77226944574704" lon="11.887611119250245" id="-16141">
		<tag k="alt_name" v="Setertjenn" />
		<tag k="name" v="Sætertjenn" />
		<tag k="natural" v="water" />
		<tag k="ssr:stedsnr" v="491231" />
	</node>
	<node lat="59.70387543350158" lon="11.367020731832895" id="-16147">
		<tag k="name" v="Djupedaltjern" />
		<tag k="natural" v="water" />
		<tag k="ssr:stedsnr" v="509555" />
	</node>
	<node lat="59.72039111642862" lon="11.486559266710293" id="-16151">
		<tag k="alt_name" v="Slora foss" />
		<tag k="name" v="Slorafossen" />
		<tag k="natural" v="waterfall" />
		<tag k="ssr:stedsnr" v="524825" />
	</node>
	<node lat="59.77378889341956" lon="11.343069438452934" id="-16155">
		<tag k="name" v="Bjorbekken" />
		<tag k="ssr:stedsnr" v="525180" />
		<tag k="waterway" v="stream" />
	</node>
	<node lat="59.81765555393932" lon="11.855036103988969" id="-16158">
		<tag k="name" v="Abbortjenna" />
		<tag k="natural" v="water" />
		<tag k="ssr:stedsnr" v="525618" />
		<tag k="water" v="lake" />
	</node>
	<node lat="59.981905553681756" lon="11.771283328370473" id="-16163">
		<tag k="name" v="Huldertjennvika" />
		<tag k="natural" v="bay" />
		<tag k="ssr:stedsnr" v="525986" />
	</node>
	<node lat="59.85570833099183" lon="11.362149993613713" id="-16166">
		<tag k="name" v="Midtbekken" />
		<tag k="ssr:stedsnr" v="527721" />
		<tag k="waterway" v="stream" />
	</node>
	<node lat="59.69236666501277" lon="11.74510833870817" id="-16172">
		<tag k="name" v="Høgdemåsatjenn" />
		<tag k="natural" v="water" />
		<tag k="ssr:stedsnr" v="536019" />
	</node>
	<node lat="59.722577775361266" lon="11.893802771976306" id="-16173">
		<tag k="name" v="Stutaue" />
		<tag k="natural" v="water" />
		<tag k="ssr:stedsnr" v="536067" />
	</node>
	<node lat="59.73022777593866" lon="11.8797638925644" id="-16174">
		<tag k="name" v="Gullskåltjenn" />
		<tag k="natural" v="water" />
		<tag k="ssr:stedsnr" v="536069" />
	</node>
	<node lat="59.64205628745886" lon="11.733247719430434" id="-16176">
		<tag k="name" v="Storemåsatjenn" />
		<tag k="natural" v="water" />
		<tag k="ssr:stedsnr" v="536076" />
	</node>
	<node lat="59.67847500094907" lon="11.785702773526133" id="-16177">
		<tag k="name" v="Butjennbekken" />
		<tag k="ssr:stedsnr" v="536208" />
		<tag k="waterway" v="stream" />
	</node>
	<node lat="59.69976389008357" lon="11.743347220286642" id="-16180">
		<tag k="name" v="Hølbekktjenn" />
		<tag k="natural" v="water" />
		<tag k="ssr:stedsnr" v="536219" />
	</node>
	<node lat="59.73469999842407" lon="11.711116672517496" id="-16182">
		<tag k="name" v="Vesle Abbortjenn" />
		<tag k="natural" v="water" />
		<tag k="ssr:stedsnr" v="536223" />
	</node>
	<node lat="59.77540555143836" lon="11.922930552207532" id="-16188">
		<tag k="name" v="Hyttevika" />
		<tag k="natural" v="bay" />
		<tag k="ssr:stedsnr" v="536809" />
	</node>
	<node lat="59.63592777789623" lon="11.718244451822963" id="-16190">
		<tag k="name" v="Søndre Torvehaugsund" />
		<tag k="natural" v="strait" />
		<tag k="ssr:stedsnr" v="536777" />
	</node>
	<node lat="59.9560583361952" lon="11.622688884516483" id="-16196">
		<tag k="name" v="Vesle Ormtjenn" />
		<tag k="natural" v="water" />
		<tag k="ssr:stedsnr" v="541280" />
	</node>
	<node lat="59.88692221964511" lon="11.427519440926089" id="-16201">
		<tag k="name" v="Tverråa" />
		<tag k="natural" v="bay" />
		<tag k="ssr:stedsnr" v="542371" />
	</node>
	<node lat="59.61726944392803" lon="11.486527774033364" id="-16207">
		<tag k="name" v="Fuglemåsatjenn" />
		<tag k="natural" v="water" />
		<tag k="ssr:stedsnr" v="543507" />
	</node>
	<node lat="59.72693055874033" lon="11.686025000784857" id="-16208">
		<tag k="name" v="Vestre Spontjenn" />
		<tag k="natural" v="water" />
		<tag k="ssr:stedsnr" v="543566" />
	</node>
	<node lat="59.80234166893476" lon="11.854277769856134" id="-16216">
		<tag k="name" v="Kattetjenn" />
		<tag k="natural" v="water" />
		<tag k="ssr:stedsnr" v="544706" />
	</node>
	<node lat="59.66034722533726" lon="11.602338890537983" id="-16220">
		<tag k="name" v="Fuglemåsatjenn" />
		<tag k="natural" v="water" />
		<tag k="ssr:stedsnr" v="544682" />
	</node>
	<node lat="59.8071222232254" lon="11.302199994260661" id="-16221">
		<tag k="name" v="Lomtjenn" />
		<tag k="natural" v="water" />
		<tag k="ssr:stedsnr" v="544821" />
	</node>
	<node lat="59.662694448679495" lon="11.576169445201511" id="-16227">
		<tag k="name" v="Honnkyttjenn" />
		<tag k="natural" v="water" />
		<tag k="ssr:stedsnr" v="549256" />
	</node>
	<node lat="59.95018610818519" lon="11.665588888752726" id="-16229">
		<tag k="name" v="Larstjenn" />
		<tag k="natural" v="water" />
		<tag k="ssr:stedsnr" v="550125" />
	</node>
	<node lat="59.9016527783796" lon="11.805900005879215" id="-16231">
		<tag k="name" v="Sandnabben" />
		<tag k="natural" v="cape" />
		<tag k="ssr:stedsnr" v="550245" />
	</node>
	<node lat="59.704041669767896" lon="11.573355559871352" id="-16232">
		<tag k="name" v="Skjertjennet" />
		<tag k="natural" v="water" />
		<tag k="ssr:stedsnr" v="550297" />
	</node>
	<node lat="59.8011602181803" lon="11.568209408232578" id="-16234">
		<tag k="name" v="Småtjenna" />
		<tag k="natural" v="water" />
		<tag k="ssr:stedsnr" v="550255" />
		<tag k="water" v="lake" />
	</node>
	<node lat="59.79353332988746" lon="11.690061117186625" id="-16237">
		<tag k="name" v="Kolstadvika" />
		<tag k="natural" v="bay" />
		<tag k="ssr:stedsnr" v="550459" />
	</node>
	<node lat="59.70101388554519" lon="11.814738891546604" id="-16238">
		<tag k="name" v="Granøya" />
		<tag k="place" v="islet" />
		<tag k="ssr:stedsnr" v="550306" />
	</node>
	<node lat="59.83514166370598" lon="11.583683338087093" id="-16242">
		<tag k="alt_name" v="Dryplene" />
		<tag k="name" v="Dryplane" />
		<tag k="natural" v="water" />
		<tag k="ssr:stedsnr" v="550322" />
	</node>
	<node lat="59.88569140587449" lon="11.373586199008514" id="-16246">
		<tag k="name" v="Tverrtjenna" />
		<tag k="natural" v="water" />
		<tag k="ssr:stedsnr" v="550648" />
		<tag k="water" v="lake" />
	</node>
	<node lat="59.86145277542122" lon="11.372452782925807" id="-16247">
		<tag k="name" v="Tunnsjøen" />
		<tag k="natural" v="water" />
		<tag k="ssr:stedsnr" v="550699" />
		<tag k="water" v="lake" />
	</node>
	<node lat="59.68718055656455" lon="11.431716661524801" id="-16249">
		<tag k="name" v="Geitøya" />
		<tag k="place" v="islet" />
		<tag k="ssr:stedsnr" v="550823" />
	</node>
	<node lat="59.98332500069607" lon="11.551233328972328" id="-16251">
		<tag k="name" v="Posttjenn" />
		<tag k="natural" v="water" />
		<tag k="ssr:stedsnr" v="550958" />
	</node>
	<node lat="59.856672454053516" lon="11.635994419278983" id="-16252">
		<tag k="name" v="Rotjenna" />
		<tag k="natural" v="water" />
		<tag k="ssr:stedsnr" v="551156" />
		<tag k="water" v="lake" />
	</node>
	<node lat="59.85431944818496" lon="11.602941665733022" id="-16253">
		<tag k="name" v="Tryntjenn" />
		<tag k="natural" v="water" />
		<tag k="ssr:stedsnr" v="551159" />
	</node>
	<node lat="59.93709721995359" lon="11.741380563238346" id="-16261">
		<tag k="name" v="Kopptjenn" />
		<tag k="natural" v="water" />
		<tag k="ssr:stedsnr" v="551097" />
	</node>
	<node lat="59.89334645099595" lon="11.826678852528595" id="-16264">
		<tag k="loc_name" v="Krokskjølungen" />
		<tag k="name" v="Kroksjølungen" />
		<tag k="natural" v="water" />
		<tag k="ssr:stedsnr" v="551204" />
		<tag k="water" v="lake" />
	</node>
	<node lat="59.85777500360639" lon="11.713880554629265" id="-16265">
		<tag k="name" v="Karltjenn" />
		<tag k="natural" v="water" />
		<tag k="ssr:stedsnr" v="551351" />
	</node>
	<node lat="59.982322219174854" lon="11.635561116957748" id="-16266">
		<tag k="name" v="Vasketjenn" />
		<tag k="natural" v="water" />
		<tag k="ssr:stedsnr" v="551524" />
	</node>
	<node lat="59.830502777772196" lon="11.613049994019953" id="-16267">
		<tag k="name" v="Geitvilla" />
		<tag k="natural" v="water" />
		<tag k="ssr:stedsnr" v="551535" />
	</node>
	<node lat="59.76762778211578" lon="11.816199991937108" id="-16271">
		<tag k="name" v="Klubbetjenn" />
		<tag k="natural" v="water" />
		<tag k="ssr:stedsnr" v="551412" />
	</node>
	<node lat="59.684341663057516" lon="11.43733611414197" id="-16275">
		<tag k="name" v="Brudeholmen" />
		<tag k="place" v="islet" />
		<tag k="ssr:stedsnr" v="690136" />
	</node>
	<node lat="59.687650001497374" lon="11.429055553428736" id="-16276">
		<tag k="name" v="Skredderøya" />
		<tag k="place" v="island" />
		<tag k="ssr:stedsnr" v="690140" />
	</node>
	<node lat="59.690047219132616" lon="11.42942222789917" id="-16277">
		<tag k="name" v="Haraøya" />
		<tag k="place" v="island" />
		<tag k="ssr:stedsnr" v="690142" />
	</node>
	<node lat="59.704436113661714" lon="11.371533332494547" id="-16278">
		<tag k="name" v="Stokktjenn" />
		<tag k="natural" v="water" />
		<tag k="ssr:stedsnr" v="690239" />
	</node>
	<node lat="59.724094440515465" lon="11.454911115670448" id="-16281">
		<tag k="name" v="Korselva" />
		<tag k="ssr:stedsnr" v="568171" />
		<tag k="waterway" v="river" />
	</node>
	<node lat="59.75726110829104" lon="11.388900000749345" id="-16283">
		<tag k="name" v="Holtjenn" />
		<tag k="natural" v="water" />
		<tag k="ssr:stedsnr" v="568230" />
		<tag k="water" v="pond" />
	</node>
	<node lat="59.967525002695346" lon="11.497119452936682" id="-16286">
		<tag k="name" v="Haretondammen" />
		<tag k="ssr:stedsnr" v="585106" />
		<tag k="waterway" v="dam" />
	</node>
	<node lat="59.719730552364744" lon="11.47605833562212" id="-16289">
		<tag k="name" v="Krokelva" />
		<tag k="ssr:stedsnr" v="585826" />
		<tag k="waterway" v="river" />
	</node>
	<node lat="59.948808336688934" lon="11.634922219288994" id="-16293">
		<tag k="name" v="Nysætertjennet" />
		<tag k="natural" v="water" />
		<tag k="ssr:stedsnr" v="586088" />
	</node>
	<node lat="59.950661107367175" lon="11.677161117069192" id="-16294">
		<tag k="name" v="Paddeputten" />
		<tag k="natural" v="water" />
		<tag k="ssr:stedsnr" v="586099" />
		<tag k="water" v="pond" />
	</node>
	<node lat="59.82280555626514" lon="11.877925007971955" id="-16303">
		<tag k="name" v="Ormtjennsvika" />
		<tag k="natural" v="bay" />
		<tag k="ssr:stedsnr" v="587859" />
	</node>
	<node lat="59.83971666576307" lon="11.566116674697543" id="-16306">
		<tag k="name" v="Kvernbekken" />
		<tag k="ssr:stedsnr" v="588763" />
		<tag k="waterway" v="stream" />
	</node>
	<node lat="60.00003610942118" lon="11.781588889459783" id="-16308">
		<tag k="name" v="Vikodden" />
		<tag k="natural" v="cape" />
		<tag k="ssr:stedsnr" v="588922" />
	</node>
	<node lat="59.72201666842529" lon="11.748497229523894" id="-16310">
		<tag k="name" v="Stutaue" />
		<tag k="natural" v="water" />
		<tag k="ssr:stedsnr" v="596001" />
	</node>
	<node lat="59.736650004121536" lon="11.732294449637056" id="-16313">
		<tag k="name" v="Trollbergtjenn" />
		<tag k="natural" v="water" />
		<tag k="ssr:stedsnr" v="596100" />
	</node>
	<node lat="59.69421111158282" lon="11.750127777568668" id="-16316">
		<tag k="name" v="Røytjenndalsvika" />
		<tag k="natural" v="bay" />
		<tag k="ssr:stedsnr" v="596157" />
	</node>
	<node lat="59.69699166808707" lon="11.853069440697308" id="-16317">
		<tag k="name" v="Ringsbyvika" />
		<tag k="natural" v="bay" />
		<tag k="ssr:stedsnr" v="596714" />
	</node>
	<node lat="59.814241669798385" lon="11.652827778832465" id="-16327">
		<tag k="name" v="Molvika" />
		<tag k="natural" v="bay" />
		<tag k="ssr:stedsnr" v="602511" />
	</node>
	<node lat="59.84967777567482" lon="11.378238897226483" id="-16332">
		<tag k="name" v="Svarttjenn" />
		<tag k="natural" v="water" />
		<tag k="ssr:stedsnr" v="603603" />
	</node>
	<node lat="59.76784444366988" lon="11.6534000056155" id="-16336">
		<tag k="name" v="Morteskjæra" />
		<tag k="place" v="islet" />
		<tag k="ssr:stedsnr" v="603998" />
	</node>
	<node lat="59.914522225242564" lon="11.755352770994085" id="-16339">
		<tag k="name" v="Vesle Kroktjenn" />
		<tag k="natural" v="water" />
		<tag k="ssr:stedsnr" v="604425" />
	</node>
	<node lat="59.74260555817696" lon="11.580077778235639" id="-16343">
		<tag k="name" v="Dypilen" />
		<tag k="natural" v="water" />
		<tag k="ssr:stedsnr" v="604601" />
	</node>
	<node lat="59.730419440057226" lon="11.380436116965125" id="-16351">
		<tag k="name" v="Igletjenn" />
		<tag k="natural" v="water" />
		<tag k="ssr:stedsnr" v="610137" />
	</node>
	<node lat="59.64255000152198" lon="11.540374995858246" id="-16352">
		<tag k="name" v="Abbortjenn" />
		<tag k="natural" v="water" />
		<tag k="ssr:stedsnr" v="610337" />
	</node>
	<node lat="59.92238889191439" lon="11.657630552861988" id="-16359">
		<tag k="name" v="Kjøltjenn" />
		<tag k="natural" v="water" />
		<tag k="ssr:stedsnr" v="611012" />
	</node>
	<node lat="59.955212679672435" lon="11.624306626566565" id="-16361">
		<tag k="name" v="Ormtjenna" />
		<tag k="natural" v="water" />
		<tag k="ssr:stedsnr" v="611103" />
		<tag k="water" v="lake" />
	</node>
	<node lat="59.95853889273685" lon="11.633097224370132" id="-16362">
		<tag k="name" v="Damtjenn" />
		<tag k="natural" v="water" />
		<tag k="ssr:stedsnr" v="611105" />
	</node>
	<node lat="59.86054722572266" lon="11.777841672590917" id="-16365">
		<tag k="alt_name" v="Skåltjenn" />
		<tag k="name" v="Store Skåltjenn" />
		<tag k="natural" v="water" />
		<tag k="ssr:stedsnr" v="611117" />
	</node>
	<node lat="59.939630558670295" lon="11.774449997879724" id="-16368">
		<tag k="alt_name" v="Leikåstjenn" />
		<tag k="name" v="Leikåstjennet" />
		<tag k="natural" v="water" />
		<tag k="ssr:stedsnr" v="611078" />
	</node>
	<node lat="59.87657777605617" lon="11.745222226816342" id="-16369">
		<tag k="alt_name" v="Vesle Åsvann" />
		<tag k="name" v="Lille Åsvann" />
		<tag k="natural" v="water" />
		<tag k="ssr:stedsnr" v="611203" />
	</node>
	<node lat="59.82383888591635" lon="11.603755547874657" id="-16372">
		<tag k="alt_name" v="Abbortjenn" />
		<tag k="name" v="Abbortjenna" />
		<tag k="natural" v="water" />
		<tag k="ssr:stedsnr" v="611275" />
		<tag k="water" v="lake" />
	</node>
	<node lat="59.827844442795" lon="11.710533341183536" id="-16374">
		<tag k="name" v="Lakabekken" />
		<tag k="ssr:stedsnr" v="611289" />
		<tag k="waterway" v="stream" />
	</node>
	<node lat="59.755819441109786" lon="11.584194449726159" id="-16377">
		<tag k="name" v="Åstjenn" />
		<tag k="natural" v="water" />
		<tag k="ssr:stedsnr" v="611412" />
	</node>
	<node lat="59.829108329623075" lon="11.497000006176371" id="-16383">
		<tag k="name" v="Botnersjøen" />
		<tag k="natural" v="water" />
		<tag k="ssr:stedsnr" v="611322" />
		<tag k="water" v="lake" />
	</node>
	<node lat="59.75076944040155" lon="11.637588889532799" id="-16386">
		<tag k="name" v="Røyrviktjenn" />
		<tag k="natural" v="water" />
		<tag k="ssr:stedsnr" v="611392" />
	</node>
	<node lat="59.82195833248099" lon="11.38648334041756" id="-16393">
		<tag k="name" v="Damtjenn" />
		<tag k="natural" v="water" />
		<tag k="ssr:stedsnr" v="611782" />
	</node>
	<node lat="59.94974444623833" lon="11.67941666528865" id="-16407">
		<tag k="name" v="Nattbettjenn" />
		<tag k="natural" v="water" />
		<tag k="ssr:stedsnr" v="646092" />
	</node>
	<node lat="59.80670277408788" lon="11.535899999467947" id="-16410">
		<tag k="name" v="Vesle Damtjenn" />
		<tag k="natural" v="water" />
		<tag k="ssr:stedsnr" v="646188" />
	</node>
	<node lat="59.8032638931333" lon="11.77858333437276" id="-16412">
		<tag k="name" v="Bergsund" />
		<tag k="natural" v="strait" />
		<tag k="ssr:stedsnr" v="646405" />
	</node>
	<node lat="59.80817777975042" lon="11.790497226624124" id="-16413">
		<tag k="name" v="Ulvesundnabben" />
		<tag k="natural" v="cape" />
		<tag k="ssr:stedsnr" v="646407" />
	</node>
	<node lat="59.93715277610128" lon="11.425283333983424" id="-16415">
		<tag k="name" v="Finstadbekken" />
		<tag k="ssr:stedsnr" v="646611" />
		<tag k="waterway" v="stream" />
	</node>
	<node lat="60.00582221952283" lon="11.551066665023981" id="-16423">
		<tag k="name" v="Sundet" />
		<tag k="natural" v="strait" />
		<tag k="ssr:stedsnr" v="646781" />
	</node>
	<node lat="59.917258337530335" lon="11.453727785325189" id="-16428">
		<tag k="name" v="Riserelva" />
		<tag k="ssr:stedsnr" v="646929" />
		<tag k="waterway" v="river" />
	</node>
	<node lat="59.7701277734574" lon="11.5050333363385" id="-16431">
		<tag k="alt_name" v="Østerengbekken" />
		<tag k="name" v="Østrengbekken" />
		<tag k="ssr:stedsnr" v="706935" />
		<tag k="waterway" v="stream" />
	</node>
	<node lat="59.947858331057084" lon="11.50192499803774" id="-16437">
		<tag k="name" v="Lokshaugfossen" />
		<tag k="natural" v="waterfall" />
		<tag k="ssr:stedsnr" v="648498" />
	</node>
	<node lat="59.8640999993585" lon="11.601775005526582" id="-16441">
		<tag k="name" v="Stutaue" />
		<tag k="natural" v="water" />
		<tag k="ssr:stedsnr" v="648848" />
		<tag k="water" v="pond" />
	</node>
	<node lat="59.83861110783885" lon="11.539327776430682" id="-16443">
		<tag k="name" v="Storrenna" />
		<tag k="ssr:stedsnr" v="648893" />
		<tag k="waterway" v="drain" />
	</node>
	<node lat="59.79172500296539" lon="11.658274999210791" id="-16444">
		<tag k="name" v="Stubbhosetjenn" />
		<tag k="natural" v="water" />
		<tag k="ssr:stedsnr" v="707231" />
	</node>
	<node lat="59.92324722224439" lon="11.434986117066806" id="-16452">
		<tag k="name" v="Kupusbekken" />
		<tag k="ssr:stedsnr" v="707933" />
		<tag k="waterway" v="stream" />
	</node>
	<node lat="59.73614722072252" lon="11.80511389031272" id="-16457">
		<tag k="name" v="Bikkjeholmen" />
		<tag k="place" v="islet" />
		<tag k="ssr:stedsnr" v="657008" />
	</node>
	<node lat="59.740741664838865" lon="11.813047225355715" id="-16460">
		<tag k="alt_name" v="Tornebyholmen" />
		<tag k="name" v="Tårnbyholmen" />
		<tag k="place" v="islet" />
		<tag k="ssr:stedsnr" v="657014" />
	</node>
	<node lat="59.763222224384165" lon="11.915258326127207" id="-16461">
		<tag k="name" v="Fløttjenn" />
		<tag k="natural" v="water" />
		<tag k="ssr:stedsnr" v="657034" />
	</node>
	<node lat="59.78321388689309" lon="11.851697220482981" id="-16464">
		<tag k="name" v="Mørkholttjenn" />
		<tag k="natural" v="water" />
		<tag k="ssr:stedsnr" v="657135" />
	</node>
	<node lat="59.7381388894216" lon="11.804944450540894" id="-16466">
		<tag k="name" v="Sundtangen" />
		<tag k="natural" v="cape" />
		<tag k="ssr:stedsnr" v="657142" />
	</node>
	<node lat="59.702891667723065" lon="11.806116675601007" id="-16467">
		<tag k="name" v="Hagasund" />
		<tag k="natural" v="strait" />
		<tag k="ssr:stedsnr" v="657715" />
	</node>
	<node lat="59.74591111248118" lon="11.925141673790542" id="-16469">
		<tag k="name" v="Røvasslora" />
		<tag k="natural" v="water" />
		<tag k="ssr:stedsnr" v="657785" />
		<tag k="water" v="pond" />
	</node>
	<node lat="59.94336666248037" lon="11.586177771911021" id="-16477">
		<tag k="name" v="Atthaldsdammen" />
		<tag k="natural" v="water" />
		<tag k="ssr:stedsnr" v="662334" />
	</node>
	<node lat="59.78803333632594" lon="11.728422214167214" id="-16479">
		<tag k="name" v="Kvernhusdammen" />
		<tag k="ssr:stedsnr" v="662717" />
		<tag k="waterway" v="dam" />
	</node>
	<node lat="59.811516666214374" lon="11.325083338543667" id="-16480">
		<tag k="name" v="Trynetjenn" />
		<tag k="natural" v="water" />
		<tag k="ssr:stedsnr" v="662724" />
	</node>
	<node lat="59.811838886176815" lon="11.696852776457188" id="-16489">
		<tag k="name" v="Tjuven" />
		<tag k="natural" v="strait" />
		<tag k="ssr:stedsnr" v="663433" />
	</node>
	<node lat="59.95758333776355" lon="11.493611109281307" id="-16491">
		<tag k="name" v="Haretonelva" />
		<tag k="ssr:stedsnr" v="709400" />
		<tag k="waterway" v="river" />
	</node>
	<node lat="59.83021944831574" lon="11.726966659121095" id="-16494">
		<tag k="name" v="Kinnestadelva" />
		<tag k="ssr:stedsnr" v="663712" />
		<tag k="waterway" v="river" />
	</node>
	<node lat="59.820933332600276" lon="11.700674995426684" id="-16495">
		<tag k="name" v="Kvetangen" />
		<tag k="natural" v="cape" />
		<tag k="ssr:stedsnr" v="663717" />
	</node>
	<node lat="59.81324166927399" lon="11.743238893781507" id="-16496">
		<tag k="name" v="Vesletjenn" />
		<tag k="natural" v="water" />
		<tag k="ssr:stedsnr" v="663723" />
	</node>
	<node lat="59.76513332940617" lon="11.71103888106188" id="-16504">
		<tag k="name" v="Storevik" />
		<tag k="natural" v="bay" />
		<tag k="ssr:stedsnr" v="664896" />
	</node>
	<node lat="59.883261108226144" lon="11.354133331593827" id="-16505">
		<tag k="name" v="Abbortjenn" />
		<tag k="natural" v="water" />
		<tag k="ssr:stedsnr" v="665045" />
	</node>
	<node lat="59.96167500150945" lon="11.77538056396533" id="-16509">
		<tag k="name" v="Den runde øya" />
		<tag k="place" v="islet" />
		<tag k="ssr:stedsnr" v="665405" />
	</node>
	<node lat="59.664213888124" lon="11.542155551814991" id="-16514">
		<tag k="name" v="Sandviknabben" />
		<tag k="natural" v="cape" />
		<tag k="ssr:stedsnr" v="665701" />
	</node>
	<node lat="59.84502777840297" lon="11.53785276990559" id="-16516">
		<tag k="name" v="Geitungøya" />
		<tag k="natural" v="cape" />
		<tag k="ssr:stedsnr" v="709745" />
	</node>
	<node lat="59.83891667076279" lon="11.50365000589974" id="-16519">
		<tag k="name" v="Tolvmilsroa" />
		<tag k="natural" v="bay" />
		<tag k="ssr:stedsnr" v="709835" />
	</node>
	<node lat="59.94373055789577" lon="11.737775004662664" id="-16523">
		<tag k="name" v="Damtjennbekken" />
		<tag k="ssr:stedsnr" v="890064" />
		<tag k="waterway" v="stream" />
	</node>
	<node lat="59.95191111300527" lon="11.658847225175935" id="-16525">
		<tag k="name" v="Larstjennvika" />
		<tag k="natural" v="bay" />
		<tag k="ssr:stedsnr" v="890123" />
	</node>
	<node lat="59.80733889177167" lon="11.595833341163917" id="-16526">
		<tag k="name" v="Bukkehalsen" />
		<tag k="natural" v="bay" />
		<tag k="ssr:stedsnr" v="890222" />
	</node>
	<node lat="59.71247222092048" lon="11.891238885589887" id="-16530">
		<tag k="name" v="Langtjenn" />
		<tag k="natural" v="water" />
		<tag k="ssr:stedsnr" v="671405" />
	</node>
	<node lat="59.80609722374465" lon="11.63295555234555" id="-16531">
		<tag k="name" v="Treskyttelbekken" />
		<tag k="ssr:stedsnr" v="890183" />
		<tag k="waterway" v="stream" />
	</node>
	<node lat="59.79754722380279" lon="11.670255547472635" id="-16532">
		<tag k="name" v="Dulpene" />
		<tag k="natural" v="water" />
		<tag k="ssr:stedsnr" v="890184" />
		<tag k="water" v="pond" />
	</node>
	<node lat="59.99021110826728" lon="11.645494441369124" id="-16541">
		<tag k="name" v="Storrtjenn" />
		<tag k="natural" v="water" />
		<tag k="ssr:stedsnr" v="671939" />
	</node>
	<node lat="59.94780555605922" lon="11.544633328617488" id="-16547">
		<tag k="name" v="Nauttjenn" />
		<tag k="natural" v="water" />
		<tag k="ssr:stedsnr" v="672064" />
	</node>
	<node lat="59.758641669427966" lon="11.918058336633731" id="-16551">
		<tag k="alt_name" v="Åbbortjern" />
		<tag k="name" v="Abbortjenn" />
		<tag k="natural" v="water" />
		<tag k="ssr:stedsnr" v="672219" />
	</node>
	<node lat="59.95096111025017" lon="11.724436115446045" id="-16553">
		<tag k="name" v="Sætertjenn" />
		<tag k="natural" v="water" />
		<tag k="ssr:stedsnr" v="672114" />
	</node>
	<node lat="59.8426948304787" lon="11.827685478444602" id="-16561">
		<tag k="alt_name" v="Lembruvann" />
		<tag k="name" v="Lembruvanna" />
		<tag k="natural" v="water" />
		<tag k="ssr:stedsnr" v="672315" />
		<tag k="water" v="lake" />
	</node>
	<node lat="59.97329722044864" lon="11.434897224037474" id="-16564">
		<tag k="name" v="Hudalstjenn" />
		<tag k="natural" v="water" />
		<tag k="old_name" v="Hudals Tj" />
		<tag k="ssr:stedsnr" v="672425" />
	</node>
	<node lat="59.98737777337661" lon="11.777638889139622" id="-16581">
		<tag k="name" v="Mangenelva" />
		<tag k="ssr:stedsnr" v="890981" />
		<tag k="waterway" v="river" />
	</node>
	<node lat="59.90309166322786" lon="11.538097216951734" id="-16584">
		<tag k="name" v="Store Liertjenn" />
		<tag k="natural" v="water" />
		<tag k="ssr:stedsnr" v="891119" />
	</node>
	<node lat="59.904161111247376" lon="11.539986115690194" id="-16585">
		<tag k="name" v="Vesle Liertjenn" />
		<tag k="natural" v="water" />
		<tag k="ssr:stedsnr" v="891124" />
	</node>
	<node lat="59.96183610699457" lon="11.744180560113588" id="-16595">
		<tag k="name" v="Vålåsbekken" />
		<tag k="ssr:stedsnr" v="891336" />
		<tag k="waterway" v="stream" />
	</node>
	<node lat="59.844016669072765" lon="11.529133327616348" id="-16602">
		<tag k="name" v="Maurtunabben" />
		<tag k="natural" v="cape" />
		<tag k="ssr:stedsnr" v="892729" />
	</node>
	<node lat="59.67838333161772" lon="11.43858610864203" id="-16606">
		<tag k="name" v="Bakkertangen" />
		<tag k="natural" v="cape" />
		<tag k="ssr:stedsnr" v="690281" />
	</node>
	<node lat="59.64710832988509" lon="11.484527780149369" id="-16610">
		<tag k="name" v="Kaninøya" />
		<tag k="natural" v="cape" />
		<tag k="ssr:stedsnr" v="704106" />
	</node>
	<node lat="59.79123610902288" lon="11.701677774591335" id="-16614">
		<tag k="name" v="Svartvik" />
		<tag k="natural" v="bay" />
		<tag k="ssr:stedsnr" v="707178" />
	</node>
	<node lat="59.97081944804581" lon="11.413766665473723" id="-16630">
		<tag k="name" v="Fjuktjennbekken" />
		<tag k="ssr:stedsnr" v="708007" />
		<tag k="waterway" v="stream" />
	</node>
	<node lat="59.89733055954697" lon="11.740105559078755" id="-16643">
		<tag k="name" v="Lustjenn" />
		<tag k="natural" v="water" />
		<tag k="ssr:stedsnr" v="709795" />
	</node>
	<node lat="59.697369445847244" lon="11.741747221677231" id="-16650">
		<tag k="name" v="Jakopstjenn" />
		<tag k="natural" v="water" />
		<tag k="ssr:stedsnr" v="718020" />
	</node>
	<node lat="59.725533330576674" lon="11.936350000982285" id="-16657">
		<tag k="name" v="Fjørbekktjenndammen" />
		<tag k="ssr:stedsnr" v="718762" />
		<tag k="waterway" v="dam" />
	</node>
	<node lat="59.73233889057874" lon="11.736550007746715" id="-16658">
		<tag k="name" v="Bottfjorden" />
		<tag k="natural" v="water" />
		<tag k="ssr:stedsnr" v="718785" />
	</node>
	<node lat="59.6968388861033" lon="11.783247225153747" id="-16661">
		<tag k="name" v="Damtjennbekken" />
		<tag k="ssr:stedsnr" v="900026" />
		<tag k="waterway" v="stream" />
	</node>
	<node lat="59.81163610816267" lon="11.454463893723405" id="-16664">
		<tag k="name" v="Bølerbekken" />
		<tag k="ssr:stedsnr" v="722904" />
		<tag k="waterway" v="stream" />
	</node>
	<node lat="59.75190555673229" lon="11.868080556679356" id="-16666">
		<tag k="name" v="Frøkentjenn" />
		<tag k="natural" v="water" />
		<tag k="ssr:stedsnr" v="900063" />
	</node>
	<node lat="59.773161110321894" lon="11.858680561596259" id="-16667">
		<tag k="name" v="Stusstjenn" />
		<tag k="natural" v="water" />
		<tag k="ssr:stedsnr" v="900068" />
	</node>
	<node lat="59.77208888988318" lon="11.906319436726355" id="-16670">
		<tag k="name" v="Trandumsholmen" />
		<tag k="place" v="islet" />
		<tag k="ssr:stedsnr" v="900049" />
	</node>
	<node lat="59.70023332956058" lon="11.677450003630625" id="-16671">
		<tag k="name" v="Tvillingtjenn" />
		<tag k="natural" v="water" />
		<tag k="ssr:stedsnr" v="900136" />
	</node>
	<node lat="59.72214722153724" lon="11.729438880141837" id="-16674">
		<tag k="name" v="Gråtarneset" />
		<tag k="natural" v="cape" />
		<tag k="ssr:stedsnr" v="900100" />
	</node>
	<node lat="59.77728889050947" lon="11.917766661992776" id="-16675">
		<tag k="name" v="Kuholmen" />
		<tag k="place" v="islet" />
		<tag k="ssr:stedsnr" v="900180" />
	</node>
	<node lat="59.75984722618401" lon="11.929141658285133" id="-16682">
		<tag k="name" v="Den brente holmen" />
		<tag k="place" v="islet" />
		<tag k="ssr:stedsnr" v="900194" />
	</node>
	<node lat="59.68917777623351" lon="11.80914443629474" id="-16684">
		<tag k="name" v="Vesle-Per" />
		<tag k="place" v="islet" />
		<tag k="ssr:stedsnr" v="900250" />
	</node>
	<node lat="59.81084722182544" lon="11.652344442018716" id="-16686">
		<tag k="name" v="Spikerbekken" />
		<tag k="ssr:stedsnr" v="724473" />
		<tag k="waterway" v="stream" />
	</node>
	<node lat="59.6773916707261" lon="11.607213888155822" id="-16692">
		<tag k="name" v="Østre Lakentjenn" />
		<tag k="natural" v="water" />
		<tag k="ssr:stedsnr" v="725304" />
	</node>
	<node lat="59.785602774233915" lon="11.518419449299156" id="-16693">
		<tag k="name" v="Syltbekken" />
		<tag k="ssr:stedsnr" v="725772" />
		<tag k="waterway" v="stream" />
	</node>
	<node lat="59.86979444658381" lon="11.742197224546711" id="-16694">
		<tag k="name" v="Vesle Abbortjenn" />
		<tag k="natural" v="water" />
		<tag k="ssr:stedsnr" v="726221" />
	</node>
	<node lat="59.96356944520158" lon="11.606369449506053" id="-16695">
		<tag k="name" v="Hosebandbekken" />
		<tag k="ssr:stedsnr" v="726109" />
		<tag k="waterway" v="stream" />
	</node>
	<node lat="59.73141666325804" lon="11.630013880124718" id="-16701">
		<tag k="name" v="Kråka" />
		<tag k="place" v="islet" />
		<tag k="ssr:stedsnr" v="726608" />
	</node>
	<node lat="59.966622219380056" lon="11.77905555816716" id="-16702">
		<tag k="name" v="Lystjennbekken" />
		<tag k="ssr:stedsnr" v="726383" />
		<tag k="waterway" v="stream" />
	</node>
	<node lat="59.66438611343798" lon="11.536416672650134" id="-16707">
		<tag k="name" v="Sandvikbekken" />
		<tag k="ssr:stedsnr" v="726672" />
		<tag k="waterway" v="stream" />
	</node>
	<node lat="59.66171110905569" lon="11.499369438013446" id="-16708">
		<tag k="name" v="Stomperudbekken" />
		<tag k="ssr:stedsnr" v="726674" />
		<tag k="waterway" v="stream" />
	</node>
	<node lat="60.00240555897377" lon="11.770163881370385" id="-16712">
		<tag k="name" v="Kvennbekken" />
		<tag k="ssr:stedsnr" v="726917" />
		<tag k="waterway" v="stream" />
	</node>
	<node lat="59.84159166460453" lon="11.65941388758281" id="-16714">
		<tag k="name" v="Strøvikene" />
		<tag k="natural" v="bay" />
		<tag k="ssr:stedsnr" v="727228" />
	</node>
	<node lat="59.846491667488515" lon="11.68450000678705" id="-16715">
		<tag k="name" v="Sandvika" />
		<tag k="natural" v="bay" />
		<tag k="ssr:stedsnr" v="727230" />
	</node>
	<node lat="59.74713849165192" lon="11.924894235596904" id="-16716">
		<tag k="name" v="Røvassdammen" />
		<tag k="ssr:stedsnr" v="900770" />
		<tag k="waterway" v="dam" />
	</node>
	<node lat="59.695994447593215" lon="11.874441667890025" id="-16722">
		<tag k="name" v="Nordre Kløvtjenn" />
		<tag k="natural" v="water" />
		<tag k="ssr:stedsnr" v="900790" />
	</node>
	<node lat="59.71995832921977" lon="11.801286106174429" id="-16724">
		<tag k="name" v="Haukenesvika" />
		<tag k="natural" v="bay" />
		<tag k="ssr:stedsnr" v="900797" />
	</node>
	<node lat="59.89562946629103" lon="11.56464328391646" id="-16725">
		<tag k="name" v="Bliksrudmåsan" />
		<tag k="natural" v="water" />
		<tag k="ssr:stedsnr" v="732257" />
		<tag k="water" v="lake" />
	</node>
	<node lat="59.75599444131402" lon="11.70630833004074" id="-16729">
		<tag k="name" v="Grønmyrtjenn" />
		<tag k="natural" v="water" />
		<tag k="ssr:stedsnr" v="732403" />
	</node>
	<node lat="59.761025004604114" lon="11.646761105044456" id="-16730">
		<tag k="name" v="Skoøya" />
		<tag k="place" v="islet" />
		<tag k="ssr:stedsnr" v="732411" />
	</node>
	<node lat="59.645086111131484" lon="11.768361105667573" id="-16731">
		<tag k="name" v="Vestre Rømungen" />
		<tag k="natural" v="water" />
		<tag k="ssr:stedsnr" v="732307" />
		<tag k="water" v="lake" />
	</node>
	<node lat="59.8463334537549" lon="11.757963858603645" id="-16733">
		<tag k="name" v="Abbortjenna" />
		<tag k="natural" v="water" />
		<tag k="ssr:stedsnr" v="732352" />
		<tag k="water" v="lake" />
	</node>
	<node lat="59.800461110474174" lon="11.736500003717529" id="-16740">
		<tag k="name" v="Morttjenn" />
		<tag k="natural" v="water" />
		<tag k="ssr:stedsnr" v="732520" />
	</node>
	<node lat="59.73184166497208" lon="11.70575833688876" id="-16741">
		<tag k="name" v="Hakabrueidet" />
		<tag k="place" v="locality" />
		<tag k="ssr:stedsnr" v="732654" />
	</node>
	<node lat="59.67931388919887" lon="11.457136110735807" id="-16746">
		<tag k="name" v="Vasketangen" />
		<tag k="natural" v="cape" />
		<tag k="ssr:stedsnr" v="732802" />
	</node>
	<node lat="59.91792499554818" lon="11.643708334765764" id="-16749">
		<tag k="name" v="Stavtjenn" />
		<tag k="natural" v="water" />
		<tag k="ssr:stedsnr" v="733022" />
	</node>
	<node lat="59.93798055971438" lon="11.795583339249365" id="-16751">
		<tag k="name" v="Kulkustjenn" />
		<tag k="natural" v="water" />
		<tag k="ssr:stedsnr" v="733045" />
	</node>
	<node lat="59.934350000888344" lon="11.786699996475301" id="-16752">
		<tag k="name" v="Mangtjenn" />
		<tag k="natural" v="water" />
		<tag k="ssr:stedsnr" v="733046" />
	</node>
	<node lat="59.89002471474611" lon="11.749120430808189" id="-16760">
		<tag k="alt_name" v="Urvanna" />
		<tag k="name" v="Urdvanna" />
		<tag k="natural" v="water" />
		<tag k="old_name" v="Urvdne" />
		<tag k="ssr:stedsnr" v="733198" />
		<tag k="water" v="lake" />
	</node>
	<node lat="59.83621111213767" lon="11.499530554381925" id="-16761">
		<tag k="name" v="Kingsrudholmen" />
		<tag k="place" v="islet" />
		<tag k="ssr:stedsnr" v="733304" />
	</node>
	<node lat="59.825430558019136" lon="11.596005547725557" id="-16763">
		<tag k="name" v="Geitvilla" />
		<tag k="natural" v="water" />
		<tag k="ssr:stedsnr" v="733292" />
		<tag k="water" v="pond" />
	</node>
	<node lat="59.82686110908169" lon="11.754477776702881" id="-16764">
		<tag k="name" v="Damtjennfløyta" />
		<tag k="natural" v="water" />
		<tag k="ssr:stedsnr" v="733297" />
	</node>
	<node lat="59.77658055914894" lon="11.776055552432544" id="-16765">
		<tag k="name" v="Vesle Lyseren" />
		<tag k="natural" v="water" />
		<tag k="ssr:stedsnr" v="733403" />
	</node>
	<node lat="59.78706666347335" lon="11.621455550027676" id="-16771">
		<tag k="name" v="Svarttjenn" />
		<tag k="natural" v="water" />
		<tag k="ssr:stedsnr" v="733422" />
	</node>
	<node lat="59.792085588898324" lon="11.670157174397009" id="-16773">
		<tag k="name" v="Abbortjenn" />
		<tag k="natural" v="water" />
		<tag k="ssr:stedsnr" v="733438" />
	</node>
	<node lat="59.768319406700726" lon="11.757479076318436" id="-16776">
		<tag k="name" v="Isbergtjenn" />
		<tag k="natural" v="water" />
		<tag k="ssr:stedsnr" v="733402" />
	</node>
	<node lat="59.96883524045577" lon="11.666706239320687" id="-16782">
		<tag k="name" v="Igletjenna" />
		<tag k="natural" v="water" />
		<tag k="ssr:stedsnr" v="733967" />
		<tag k="water" v="lake" />
	</node>
	<node lat="59.76622499557304" lon="11.85746388864777" id="-16783">
		<tag k="name" v="Gørrtjenn" />
		<tag k="natural" v="water" />
		<tag k="old_name" v="Gorrtjern;Gorrtjenn" />
		<tag k="ssr:stedsnr" v="734250" />
	</node>
	<node lat="60.00863889056084" lon="11.604697214723885" id="-16785">
		<tag k="name" v="Sætertjenn" />
		<tag k="natural" v="water" />
		<tag k="ssr:stedsnr" v="734630" />
	</node>
	<node lat="60.008055559922916" lon="11.819441671247287" id="-16786">
		<tag k="alt_name" v="Sætertjenn" />
		<tag k="name" v="Sætertjennet" />
		<tag k="natural" v="water" />
		<tag k="ssr:stedsnr" v="734633" />
	</node>
	<node lat="59.681947225176266" lon="11.42690277763465" id="-16787">
		<tag k="name" v="Gukiløyene" />
		<tag k="place" v="island" />
		<tag k="ssr:stedsnr" v="750109" />
	</node>
	<node lat="59.82914444047247" lon="11.615288879913242" id="-16800">
		<tag k="name" v="Engersætertjenn" />
		<tag k="natural" v="water" />
		<tag k="ssr:stedsnr" v="906406" />
	</node>
	<node lat="59.88889166392802" lon="11.674261116050973" id="-16803">
		<tag k="name" v="Lommenabben" />
		<tag k="natural" v="cape" />
		<tag k="ssr:stedsnr" v="906596" />
	</node>
	<node lat="59.958058333617686" lon="11.665861110551095" id="-16809">
		<tag k="name" v="Oset" />
		<tag k="natural" v="bay" />
		<tag k="ssr:stedsnr" v="768006" />
	</node>
	<node lat="59.96831111329058" lon="11.456233336503036" id="-16813">
		<tag k="name" v="Sprutbekken" />
		<tag k="ssr:stedsnr" v="768022" />
		<tag k="waterway" v="stream" />
	</node>
	<node lat="59.89336110986492" lon="11.446172225473326" id="-16827">
		<tag k="name" v="Istervika" />
		<tag k="natural" v="bay" />
		<tag k="ssr:stedsnr" v="907329" />
	</node>
	<node lat="59.92101389315512" lon="11.730999999265013" id="-16836">
		<tag k="name" v="Østre Kutjenn" />
		<tag k="natural" v="water" />
		<tag k="ssr:stedsnr" v="907648" />
	</node>
	<node lat="59.99530278172831" lon="11.790841661757419" id="-16841">
		<tag k="name" v="Grønnvika" />
		<tag k="natural" v="bay" />
		<tag k="ssr:stedsnr" v="770914" />
	</node>
	<node lat="59.77308333319984" lon="11.717633334588907" id="-16844">
		<tag k="name" v="Hellemosøya" />
		<tag k="place" v="islet" />
		<tag k="ssr:stedsnr" v="907860" />
	</node>
	<node lat="59.775005555873065" lon="11.586730556554745" id="-16845">
		<tag k="name" v="Østre Åsvann" />
		<tag k="natural" v="water" />
		<tag k="ssr:stedsnr" v="907937" />
	</node>
	<node lat="59.76751667048303" lon="11.597852776966938" id="-16846">
		<tag k="name" v="Vesle Amundtjenn" />
		<tag k="natural" v="water" />
		<tag k="ssr:stedsnr" v="907940" />
	</node>
	<node lat="59.7459138843439" lon="11.515963896191774" id="-16853">
		<tag k="name" v="Svarttjenn" />
		<tag k="natural" v="water" />
		<tag k="ssr:stedsnr" v="908500" />
	</node>
	<node lat="59.89020277517958" lon="11.820655555959807" id="-16854">
		<tag k="name" v="Sagelva" />
		<tag k="ssr:stedsnr" v="908543" />
		<tag k="waterway" v="river" />
	</node>
	<node lat="59.73818888623305" lon="11.55320000519936" id="-16858">
		<tag k="name" v="Lomtjenn" />
		<tag k="natural" v="water" />
		<tag k="ssr:stedsnr" v="908631" />
	</node>
	<node lat="59.79886944356022" lon="11.84533333411061" id="-16865">
		<tag k="name" v="Storengbekken" />
		<tag k="ssr:stedsnr" v="908736" />
		<tag k="waterway" v="stream" />
	</node>
	<node lat="59.69455833511017" lon="11.770402778147943" id="-16877">
		<tag k="name" v="Ertevassbekken" />
		<tag k="ssr:stedsnr" v="779021" />
		<tag k="waterway" v="stream" />
	</node>
	<node lat="59.672741984643565" lon="11.688718922817669" id="-16881">
		<tag k="name" v="Vestre Fallstjenna" />
		<tag k="natural" v="water" />
		<tag k="ssr:stedsnr" v="779070" />
		<tag k="water" v="lake" />
	</node>
	<node lat="59.678222225062036" lon="11.829797216710835" id="-16886">
		<tag k="name" v="Måka" />
		<tag k="place" v="islet" />
		<tag k="ssr:stedsnr" v="779755" />
	</node>
	<node lat="59.7750416707127" lon="11.87011945062321" id="-16887">
		<tag k="name" v="Sundvasstjenn" />
		<tag k="natural" v="water" />
		<tag k="ssr:stedsnr" v="779760" />
		<tag k="water" v="lake" />
	</node>
	<node lat="59.761622220521836" lon="11.876466671892677" id="-16888">
		<tag k="name" v="Hundejegertjenn" />
		<tag k="natural" v="water" />
		<tag k="ssr:stedsnr" v="779799" />
	</node>
	<node lat="59.70017777602402" lon="11.83035277364606" id="-16889">
		<tag k="name" v="Ringsbyfjorden" />
		<tag k="natural" v="water" />
		<tag k="ssr:stedsnr" v="779805" />
	</node>
	<node lat="59.770261113490804" lon="11.91831111593333" id="-16890">
		<tag k="name" v="Abborvika" />
		<tag k="natural" v="bay" />
		<tag k="ssr:stedsnr" v="779813" />
	</node>
	<node lat="59.86508055202955" lon="11.49028889465216" id="-16900">
		<tag k="name" v="Dypil" />
		<tag k="natural" v="water" />
		<tag k="ssr:stedsnr" v="783601" />
		<tag k="water" v="pond" />
	</node>
	<node lat="59.86588610735328" lon="11.833388891580773" id="-16911">
		<tag k="name" v="Store Skjærtjennet" />
		<tag k="natural" v="water" />
		<tag k="ssr:stedsnr" v="786170" />
	</node>
	<node lat="59.758838887139824" lon="11.672274993269198" id="-16913">
		<tag k="name" v="Tresodden" />
		<tag k="natural" v="cape" />
		<tag k="ssr:stedsnr" v="786060" />
	</node>
	<node lat="60.00676944507259" lon="11.791200000665302" id="-16924">
		<tag k="name" v="Langvika" />
		<tag k="natural" v="bay" />
		<tag k="ssr:stedsnr" v="787899" />
	</node>
	<node lat="59.768809515353944" lon="11.888871023284977" id="-16926">
		<tag k="name" v="Kuletjenna" />
		<tag k="natural" v="water" />
		<tag k="ssr:stedsnr" v="788957" />
		<tag k="water" v="lake" />
	</node>
	<node lat="59.707270777773346" lon="11.670647651292713" id="-16928">
		<tag k="name" v="Torvtjennet" />
		<tag k="natural" v="water" />
		<tag k="ssr:stedsnr" v="792318" />
	</node>
	<node lat="59.706733328819936" lon="11.743883340325329" id="-16930">
		<tag k="name" v="Hornfisktjenn" />
		<tag k="natural" v="water" />
		<tag k="old_name" v="Hornfisktjernet;Hornfisktjennet" />
		<tag k="ssr:stedsnr" v="792329" />
	</node>
	<node lat="59.72910000433528" lon="11.726802769531588" id="-16931">
		<tag k="name" v="Tørnbytjenn" />
		<tag k="natural" v="water" />
		<tag k="ssr:stedsnr" v="792611" />
	</node>
	<node lat="59.955213892168565" lon="11.60281110528949" id="-16935">
		<tag k="name" v="Tørrmodammen" />
		<tag k="natural" v="water" />
		<tag k="old_name" v="Tormoddammen" />
		<tag k="ssr:stedsnr" v="793111" />
	</node>
	<node lat="59.95314721816292" lon="11.705949997560966" id="-16936">
		<tag k="name" v="Steinstjenn" />
		<tag k="natural" v="water" />
		<tag k="ssr:stedsnr" v="793118" />
	</node>
	<node lat="59.865677781684006" lon="11.644399998289304" id="-16939">
		<tag k="alt_name" v="Settetjenn" />
		<tag k="name" v="Settetjennet" />
		<tag k="natural" v="water" />
		<tag k="ssr:stedsnr" v="793141" />
	</node>
	<node lat="59.86283611233729" lon="11.617969448516968" id="-16940">
		<tag k="name" v="Holmetjenn" />
		<tag k="natural" v="water" />
		<tag k="ssr:stedsnr" v="793143" />
	</node>
	<node lat="59.82441111290649" lon="11.670177769492483" id="-16944">
		<tag k="name" v="Skjeggenesneset" />
		<tag k="natural" v="cape" />
		<tag k="ssr:stedsnr" v="793313" />
	</node>
	<node lat="59.82118611028361" lon="11.816188889911713" id="-16945">
		<tag k="name" v="Lomtjenn" />
		<tag k="natural" v="water" />
		<tag k="ssr:stedsnr" v="793324" />
	</node>
	<node lat="59.83231666916073" lon="11.818022216809096" id="-16946">
		<tag k="name" v="Igletjenn" />
		<tag k="natural" v="water" />
		<tag k="ssr:stedsnr" v="793329" />
	</node>
	<node lat="59.9976638854923" lon="11.459141663612236" id="-16949">
		<tag k="alt_name" v="Steinstjenn;Stenstjenn" />
		<tag k="name" v="Steinstjennet" />
		<tag k="natural" v="water" />
		<tag k="ssr:stedsnr" v="793514" />
	</node>
	<node lat="59.7876250019024" lon="11.733449997644588" id="-16950">
		<tag k="alt_name" v="Langbruslora" />
		<tag k="name" v="Langebruslora" />
		<tag k="natural" v="water" />
		<tag k="ssr:stedsnr" v="793515" />
	</node>
	<node lat="59.622761111336466" lon="11.489166663931702" id="-16952">
		<tag k="alt_name" v="Damtjern, m" />
		<tag k="name" v="Mellom-Nesdamtjern" />
		<tag k="natural" v="water" />
		<tag k="ssr:stedsnr" v="793284" />
	</node>
	<node lat="59.752063024493616" lon="11.705800685138586" id="-16954">
		<tag k="name" v="Lønnedalstjenna" />
		<tag k="natural" v="water" />
		<tag k="ssr:stedsnr" v="793405" />
		<tag k="water" v="lake" />
	</node>
	<node lat="59.755508733276635" lon="11.721804796720622" id="-16955">
		<tag k="name" v="Evertsætertjenn" />
		<tag k="natural" v="water" />
		<tag k="ssr:stedsnr" v="793407" />
	</node>
	<node lat="59.88259308842587" lon="11.354488308711115" id="-16958">
		<tag k="name" v="Abbortjenna" />
		<tag k="natural" v="water" />
		<tag k="ssr:stedsnr" v="793694" />
	</node>
	<node lat="59.81294066899321" lon="11.324593988440245" id="-16961">
		<tag k="name" v="Tryntjenna" />
		<tag k="natural" v="water" />
		<tag k="ssr:stedsnr" v="793819" />
		<tag k="water" v="lake" />
	</node>
	<node lat="59.91552499620645" lon="11.693008333664462" id="-16966">
		<tag k="name" v="Elgtjenn" />
		<tag k="natural" v="water" />
		<tag k="ssr:stedsnr" v="794011" />
	</node>
	<node lat="59.80946110752108" lon="11.7298000015821" id="-16974">
		<tag k="name" v="Butjenn" />
		<tag k="natural" v="water" />
		<tag k="ssr:stedsnr" v="794233" />
	</node>
	<node lat="59.81365230806398" lon="11.49292853243226" id="-16975">
		<tag k="name" v="Fossersjøen" />
		<tag k="natural" v="water" />
		<tag k="ssr:stedsnr" v="794244" />
		<tag k="water" v="lake" />
	</node>
	<node lat="59.972052779320215" lon="11.59491945017731" id="-16977">
		<tag k="name" v="Busåstjenn" />
		<tag k="natural" v="water" />
		<tag k="ssr:stedsnr" v="793979" />
	</node>
	<node lat="59.97610277674386" lon="11.663888885965294" id="-16978">
		<tag k="name" v="Tjennsmyra" />
		<tag k="natural" v="water" />
		<tag k="ssr:stedsnr" v="793982" />
	</node>
	<node lat="59.87755833130858" lon="11.723911115398595" id="-16986">
		<tag k="name" v="Rognetjenn" />
		<tag k="natural" v="water" />
		<tag k="ssr:stedsnr" v="914222" />
	</node>
	<node lat="59.89452222410119" lon="11.519366664534438" id="-16988">
		<tag k="name" v="Svarttjenn" />
		<tag k="natural" v="water" />
		<tag k="ssr:stedsnr" v="914259" />
	</node>
	<node lat="59.689569442327986" lon="11.6433666639898" id="-16993">
		<tag k="name" v="Smørtjenn" />
		<tag k="natural" v="water" />
		<tag k="ssr:stedsnr" v="914339" />
	</node>
	<node lat="59.681252774376205" lon="11.679950000705766" id="-16994">
		<tag k="name" v="Svarttjenn" />
		<tag k="natural" v="water" />
		<tag k="ssr:stedsnr" v="914342" />
	</node>
	<node lat="59.681261109522644" lon="11.825288897577853" id="-16996">
		<tag k="alt_name" v="Vemøya" />
		<tag k="name" v="Vemmeøya" />
		<tag k="place" v="islet" />
		<tag k="ssr:stedsnr" v="914350" />
	</node>
	<node lat="59.72746110900186" lon="11.699569435655492" id="-16998">
		<tag k="name" v="Vortungen" />
		<tag k="natural" v="water" />
		<tag k="ssr:stedsnr" v="914645" />
		<tag k="water" v="lake" />
	</node>
	<node lat="59.73191666930604" lon="11.818088883266725" id="-17000">
		<tag k="alt_name" v="Kirkerudtjenn" />
		<tag k="name" v="Kjørkerudtjenn" />
		<tag k="natural" v="water" />
		<tag k="ssr:stedsnr" v="914660" />
	</node>
	<node lat="59.74432499825351" lon="11.722686115766196" id="-17004">
		<tag k="alt_name" v="Store Unyttutjenn" />
		<tag k="name" v="Unyttigtjennet" />
		<tag k="natural" v="water" />
		<tag k="ssr:stedsnr" v="914701" />
	</node>
	<node lat="59.979206985399784" lon="11.574251273661213" id="-17005">
		<tag k="name" v="Knølltjenna" />
		<tag k="natural" v="water" />
		<tag k="ssr:stedsnr" v="914983" />
		<tag k="water" v="lake" />
	</node>
	<node lat="59.91994934736755" lon="11.55789186232915" id="-17007">
		<tag k="name" v="Vålermåsan" />
		<tag k="natural" v="water" />
		<tag k="ssr:stedsnr" v="915003" />
		<tag k="water" v="lake" />
	</node>
	<node lat="59.912744441435684" lon="11.757119437142013" id="-17008">
		<tag k="name" v="Kroktjenn" />
		<tag k="natural" v="water" />
		<tag k="ssr:stedsnr" v="915006" />
	</node>
	<node lat="59.90746666391474" lon="11.742158328290579" id="-17010">
		<tag k="name" v="Langtjenn" />
		<tag k="natural" v="water" />
		<tag k="ssr:stedsnr" v="915022" />
	</node>
	<node lat="59.95686389216037" lon="11.545883326289543" id="-17017">
		<tag k="alt_name" v="Langvannet" />
		<tag k="name" v="Langvann" />
		<tag k="natural" v="water" />
		<tag k="ssr:stedsnr" v="915109" />
	</node>
	<node lat="59.95544999862451" lon="11.71485554981702" id="-17018">
		<tag k="name" v="Putten" />
		<tag k="natural" v="water" />
		<tag k="ssr:stedsnr" v="915115" />
	</node>
	<node lat="59.75959999569867" lon="11.769894448580242" id="-17022">
		<tag k="name" v="Tjuvvannet" />
		<tag k="natural" v="water" />
		<tag k="ssr:stedsnr" v="915385" />
	</node>
	<node lat="59.783505554314004" lon="11.386783336426387" id="-17023">
		<tag k="alt_name" v="Skårertjenn" />
		<tag k="name" v="Skårertjennet" />
		<tag k="natural" v="water" />
		<tag k="ssr:stedsnr" v="914838" />
	</node>
	<node lat="59.7546613276345" lon="11.755048249462735" id="-17027">
		<tag k="name" v="Eikelitjenna" />
		<tag k="natural" v="water" />
		<tag k="ssr:stedsnr" v="915362" />
		<tag k="water" v="lake" />
	</node>
	<node lat="59.86501111317748" lon="11.604705551658133" id="-17031">
		<tag k="name" v="Gåsetjenn" />
		<tag k="natural" v="water" />
		<tag k="ssr:stedsnr" v="915141" />
	</node>
	<node lat="59.81014999894386" lon="11.788691665744892" id="-17035">
		<tag k="name" v="Ulvesund" />
		<tag k="natural" v="strait" />
		<tag k="ssr:stedsnr" v="915233" />
	</node>
	<node lat="59.80537777407115" lon="11.695236110412065" id="-17036">
		<tag k="name" v="Landøya" />
		<tag k="place" v="islet" />
		<tag k="ssr:stedsnr" v="915237" />
	</node>
	<node lat="59.781227782103535" lon="11.716033337015247" id="-17039">
		<tag k="name" v="Fugletjenn" />
		<tag k="natural" v="water" />
		<tag k="ssr:stedsnr" v="915429" />
	</node>
	<node lat="59.788252777310156" lon="11.755338896971752" id="-17040">
		<tag k="name" v="Hauketjenn" />
		<tag k="natural" v="water" />
		<tag k="ssr:stedsnr" v="915445" />
	</node>
	<node lat="59.83137222574035" lon="11.317152772144455" id="-17043">
		<tag k="name" v="Langtjenn" />
		<tag k="natural" v="water" />
		<tag k="ssr:stedsnr" v="915769" />
	</node>
	<node lat="59.751828402930364" lon="11.784855199781076" id="-17046">
		<tag k="fixme" v="multiple name tags, choose one and add the other to alt_name" />
		<tag k="name" v="Orremåsåtjenn;Trangkleivtjenn" />
		<tag k="natural" v="water" />
		<tag k="ssr:stedsnr" v="915522" />
	</node>
	<node lat="59.979022224820994" lon="11.743719450959944" id="-17054">
		<tag k="alt_name" v="Vesle Nauttjenn" />
		<tag k="name" v="Lille Nauttjenn" />
		<tag k="natural" v="water" />
		<tag k="old_name" v="L Naut Tj" />
		<tag k="ssr:stedsnr" v="915997" />
	</node>
	<node lat="59.7969972241352" lon="11.876125008708115" id="-17057">
		<tag k="name" v="Holmtjenn" />
		<tag k="natural" v="water" />
		<tag k="ssr:stedsnr" v="916157" />
	</node>
	<node lat="59.831077780963476" lon="11.772227777866414" id="-17058">
		<tag k="name" v="Auretjenn" />
		<tag k="natural" v="water" />
		<tag k="ssr:stedsnr" v="811134" />
	</node>
	<node lat="59.83778889023096" lon="11.327236109023666" id="-17081">
		<tag k="name" v="Østre Røytjenn" />
		<tag k="natural" v="water" />
		<tag k="ssr:stedsnr" v="829674" />
	</node>
	<node lat="59.83530277412761" lon="11.323100007320555" id="-17082">
		<tag k="name" v="Vestre Røytjenn" />
		<tag k="natural" v="water" />
		<tag k="ssr:stedsnr" v="829677" />
	</node>
	<node lat="59.98208055480408" lon="11.67803055302679" id="-17087">
		<tag k="name" v="Delebekken" />
		<tag k="ssr:stedsnr" v="830271" />
		<tag k="waterway" v="stream" />
	</node>
	<node lat="59.870011107297316" lon="11.591358337321841" id="-17088">
		<tag k="name" v="Gørrvika" />
		<tag k="natural" v="bay" />
		<tag k="ssr:stedsnr" v="830877" />
	</node>
	<node lat="59.84113610835486" lon="11.498461106022715" id="-17097">
		<tag k="name" v="Garsvikskjæra" />
		<tag k="place" v="islet" />
		<tag k="ssr:stedsnr" v="831802" />
	</node>
	<node lat="59.70390000299549" lon="11.744397216862362" id="-17102">
		<tag k="loc_name" v="Tjennet uten navn" />
		<tag k="name" v="Det utgravde tjennet" />
		<tag k="natural" v="water" />
		<tag k="ssr:stedsnr" v="840103" />
	</node>
	<node lat="59.71528333293091" lon="11.814430563431332" id="-17104">
		<tag k="name" v="Bjørkholmen" />
		<tag k="place" v="island" />
		<tag k="ssr:stedsnr" v="840109" />
	</node>
	<node lat="59.73406388927911" lon="11.787802770361084" id="-17105">
		<tag k="name" v="Fantekulen" />
		<tag k="natural" v="cape" />
		<tag k="ssr:stedsnr" v="840005" />
	</node>
	<node lat="59.771491664533315" lon="11.853638886385905" id="-17106">
		<tag k="name" v="Grastjenn" />
		<tag k="natural" v="water" />
		<tag k="ssr:stedsnr" v="840010" />
	</node>
	<node lat="59.68282499602682" lon="11.810016670830288" id="-17108">
		<tag k="name" v="Bjørkøya" />
		<tag k="place" v="island" />
		<tag k="ssr:stedsnr" v="840015" />
	</node>
	<node lat="59.68117221955643" lon="11.697105556150326" id="-17111">
		<tag k="name" v="Nordre Fallstjenn" />
		<tag k="natural" v="water" />
		<tag k="ssr:stedsnr" v="840125" />
	</node>
	<node lat="59.720149998332154" lon="11.73000554731047" id="-17115">
		<tag k="name" v="Torvesund" />
		<tag k="natural" v="strait" />
		<tag k="ssr:stedsnr" v="840810" />
	</node>
	<node lat="59.75116666377897" lon="11.816255547777754" id="-17116">
		<tag k="name" v="Tukufossen" />
		<tag k="natural" v="waterfall" />
		<tag k="ssr:stedsnr" v="840777" />
	</node>
	<node lat="59.74177500367903" lon="11.744283341693768" id="-17117">
		<tag k="name" v="Vortungsbekken" />
		<tag k="ssr:stedsnr" v="840786" />
		<tag k="waterway" v="stream" />
	</node>
	<node lat="59.953891665657125" lon="11.626888881011388" id="-17122">
		<tag k="name" v="Store Ormtjenn" />
		<tag k="natural" v="water" />
		<tag k="ssr:stedsnr" v="845275" />
	</node>
	<node lat="59.88968610654476" lon="11.677613896313549" id="-17124">
		<tag k="name" v="Den grønne øya" />
		<tag k="place" v="islet" />
		<tag k="ssr:stedsnr" v="845615" />
	</node>
</osm>
