<?xml version="1.0" encoding="UTF-8"?>
<osm generator="osmapis" version="0.6">
	<node id="-253950" lat="59.8806305578" lon="11.5167749965">
		<tag k="alt_name" v="Stølbumyra" />
		<tag k="fixme" v="multiple name tags, choose one and add the other to alt_name" />
		<tag k="name" v="Stolpemyra;Stølbumyra" />
		<tag k="natural" v="wetland" />
		<tag k="ssr:stedsnr" v="65171" />
	</node>
	<node id="-251899" lat="59.89228333" lon="11.5133861066">
		<tag k="name" v="Runde mose" />
		<tag k="natural" v="wetland" />
		<tag k="ssr:stedsnr" v="480876" />
	</node>
	<node id="-251895" lat="59.8836749998" lon="11.6798305562">
		<tag k="name" v="Moltehølet" />
		<tag k="natural" v="wetland" />
		<tag k="ssr:stedsnr" v="480585" />
	</node>
	<node id="-251894" lat="59.884616664" lon="11.6829805622">
		<tag k="name" v="Breisjømåsan" />
		<tag k="natural" v="wetland" />
		<tag k="ssr:stedsnr" v="480584" />
	</node>
	<node id="-251890" lat="59.7970027773" lon="11.4248638891">
		<tag k="name" v="Åsermåsan" />
		<tag k="natural" v="wetland" />
		<tag k="ssr:stedsnr" v="479983" />
	</node>
	<node id="-251888" lat="59.9450472203" lon="11.6526027848">
		<tag k="name" v="Tangemåsan" />
		<tag k="natural" v="wetland" />
		<tag k="ssr:stedsnr" v="479235" />
	</node>
	<node id="-251887" lat="60.0013611126" lon="11.7461277749">
		<tag k="name" v="Rundemyra" />
		<tag k="natural" v="wetland" />
		<tag k="ssr:stedsnr" v="479200" />
	</node>
	<node id="-251886" lat="60.0040527823" lon="11.586663891">
		<tag k="name" v="Bjørnemyra" />
		<tag k="natural" v="wetland" />
		<tag k="ssr:stedsnr" v="479044" />
	</node>
	<node id="-251218" lat="59.7863361123" lon="11.3271249981">
		<tag k="name" v="Hoffmyrene" />
		<tag k="natural" v="wetland" />
		<tag k="ssr:stedsnr" v="40167" />
	</node>
	<node id="-253918" lat="59.8945250028" lon="11.8055194406">
		<tag k="name" v="Langsrudhagen" />
		<tag k="place" v="locality" />
		<tag k="ssr:stedsnr" v="59506" />
	</node>
	<node id="-253913" lat="59.9294333343" lon="11.8138722185">
		<tag k="name" v="Bjønnåsmyra" />
		<tag k="natural" v="wetland" />
		<tag k="ssr:stedsnr" v="59368" />
	</node>
	<node id="-253911" lat="59.9697138932" lon="11.772108337">
		<tag k="name" v="Lystjennmåsan" />
		<tag k="natural" v="wetland" />
		<tag k="ssr:stedsnr" v="59355" />
	</node>
	<node id="-253907" lat="59.8589138846" lon="11.7395861078">
		<tag k="name" v="Damtjennmåsan" />
		<tag k="natural" v="wetland" />
		<tag k="ssr:stedsnr" v="59210" />
	</node>
	<node id="-251858" lat="59.7366638878" lon="11.883788891">
		<tag k="name" v="Høgabbortjennmåsån" />
		<tag k="natural" v="wetland" />
		<tag k="ssr:stedsnr" v="475166" />
	</node>
	<node id="-253903" lat="59.9689583331" lon="11.622741671">
		<tag k="name" v="Burholmåsan" />
		<tag k="natural" v="wetland" />
		<tag k="ssr:stedsnr" v="59105" />
	</node>
	<node id="-251850" lat="59.7339555551" lon="11.8658999989">
		<tag k="name" v="Sandtjennmåsån" />
		<tag k="natural" v="wetland" />
		<tag k="ssr:stedsnr" v="475098" />
	</node>
	<node id="-253897" lat="59.6661666663" lon="11.5209944392">
		<tag k="name" v="Vintermyrene" />
		<tag k="natural" v="wetland" />
		<tag k="ssr:stedsnr" v="58670" />
	</node>
	<node id="-253882" lat="59.8852472199" lon="11.7070916682">
		<tag k="name" v="Høgdesætermåsan" />
		<tag k="natural" v="wetland" />
		<tag k="ssr:stedsnr" v="57671" />
	</node>
	<node id="-253880" lat="59.8866250024" lon="11.721702784">
		<tag k="name" v="Sneisemyrene" />
		<tag k="natural" v="wetland" />
		<tag k="ssr:stedsnr" v="57648" />
	</node>
	<node id="-251830" lat="59.9361333344" lon="11.6276861049">
		<tag k="name" v="Holtemyr" />
		<tag k="natural" v="wetland" />
		<tag k="ssr:stedsnr" v="302610" />
	</node>
	<node id="-253877" lat="59.8329638927" lon="11.3850416617">
		<tag k="name" v="Fuglemåsan" />
		<tag k="natural" v="wetland" />
		<tag k="ssr:stedsnr" v="57612" />
	</node>
	<node id="-253869" lat="59.8862416691" lon="11.4473472248">
		<tag k="name" v="Rudskiftet" />
		<tag k="place" v="locality" />
		<tag k="ssr:stedsnr" v="57340" />
	</node>
	<node id="-253868" lat="59.8953888887" lon="11.4253472141">
		<tag k="name" v="Karusstjennmåsan" />
		<tag k="natural" v="wetland" />
		<tag k="ssr:stedsnr" v="57332" />
	</node>
	<node id="-253865" lat="59.934488886" lon="11.7102111128">
		<tag k="name" v="Hestebrumyr" />
		<tag k="natural" v="wetland" />
		<tag k="ssr:stedsnr" v="57208" />
	</node>
	<node id="-253864" lat="59.9038083292" lon="11.3448222243">
		<tag k="name" v="Kumåsan" />
		<tag k="natural" v="wetland" />
		<tag k="ssr:stedsnr" v="57200" />
	</node>
	<node id="-253861" lat="59.8924555568" lon="11.636927769">
		<tag k="name" v="Brennsæterholta" />
		<tag k="place" v="locality" />
		<tag k="ssr:stedsnr" v="56589" />
	</node>
	<node id="-253860" lat="59.9438111145" lon="11.6201472224">
		<tag k="name" v="Bjønndalsmyra" />
		<tag k="natural" v="wetland" />
		<tag k="ssr:stedsnr" v="56373" />
	</node>
	<node id="-253853" lat="59.7979138864" lon="11.8608722249">
		<tag k="name" v="Storenga" />
		<tag k="natural" v="wetland" />
		<tag k="ssr:stedsnr" v="55718" />
	</node>
	<node id="-253850" lat="59.8103805584" lon="11.2950611059">
		<tag k="name" v="Kleppmyr" />
		<tag k="natural" v="wetland" />
		<tag k="ssr:stedsnr" v="55676" />
	</node>
	<node id="-251801" lat="59.9846111125" lon="11.4506638803">
		<tag k="name" v="Eftasmyra" />
		<tag k="natural" v="wetland" />
		<tag k="ssr:stedsnr" v="466372" />
	</node>
	<node id="-253845" lat="59.8828749968" lon="11.7939361026">
		<tag k="name" v="Langsjølungmyra" />
		<tag k="natural" v="wetland" />
		<tag k="ssr:stedsnr" v="55470" />
	</node>
	<node id="-251793" lat="59.8706027777" lon="11.5153416743">
		<tag k="name" v="Stutemyra" />
		<tag k="natural" v="wetland" />
		<tag k="ssr:stedsnr" v="298853" />
	</node>
	<node id="-254616" lat="59.7488555544" lon="11.6083833337">
		<tag k="name" v="Fuglemåsan" />
		<tag k="natural" v="wetland" />
		<tag k="ssr:stedsnr" v="301446" />
	</node>
	<node id="-253837" lat="59.658374997" lon="11.7349222217">
		<tag k="name" v="Kristofferhølet" />
		<tag k="natural" v="wetland" />
		<tag k="ssr:stedsnr" v="51798" />
	</node>
	<node id="-253836" lat="59.6338916698" lon="11.7362111194">
		<tag k="name" v="Seljehølet" />
		<tag k="natural" v="wetland" />
		<tag k="ssr:stedsnr" v="51796" />
	</node>
	<node id="-251786" lat="59.9836666635" lon="11.6407944364">
		<tag k="name" v="Tyrihjellholtet" />
		<tag k="place" v="locality" />
		<tag k="ssr:stedsnr" v="464739" />
	</node>
	<node id="-251784" lat="59.7152027735" lon="11.4636666695">
		<tag k="name" v="Ulrikmyra" />
		<tag k="natural" v="wetland" />
		<tag k="ssr:stedsnr" v="464798" />
	</node>
	<node id="-251777" lat="59.7381555538" lon="11.5312194381">
		<tag k="name" v="Eikmåsan" />
		<tag k="natural" v="wetland" />
		<tag k="ssr:stedsnr" v="464394" />
	</node>
	<node id="-251774" lat="59.9617694446" lon="11.5569555524">
		<tag k="name" v="Saumyra" />
		<tag k="natural" v="wetland" />
		<tag k="ssr:stedsnr" v="464130" />
	</node>
	<node id="-254612" lat="59.6738583368" lon="11.5659249918">
		<tag k="name" v="Dryplemyra" />
		<tag k="natural" v="wetland" />
		<tag k="ssr:stedsnr" v="301428" />
	</node>
	<node id="-251765" lat="59.7581500006" lon="11.5388777757">
		<tag k="name" v="Hansemyrene" />
		<tag k="natural" v="wetland" />
		<tag k="ssr:stedsnr" v="449876" />
	</node>
	<node id="-251759" lat="59.7011416649" lon="11.5069305471">
		<tag k="name" v="Bekkemåsan" />
		<tag k="natural" v="wetland" />
		<tag k="ssr:stedsnr" v="247307" />
	</node>
	<node id="-253804" lat="59.9128027753" lon="11.6687249916">
		<tag k="name" v="Olaslora" />
		<tag k="natural" v="wetland" />
		<tag k="ssr:stedsnr" v="42774" />
	</node>
	<node id="-253803" lat="59.9142000018" lon="11.685208327">
		<tag k="name" v="Gråmerrmåsan" />
		<tag k="natural" v="wetland" />
		<tag k="ssr:stedsnr" v="42772" />
	</node>
	<node id="-253802" lat="59.9012777819" lon="11.6800861095">
		<tag k="name" v="Storrmyra" />
		<tag k="natural" v="wetland" />
		<tag k="ssr:stedsnr" v="42769" />
	</node>
	<node id="-253800" lat="59.8646444461" lon="11.3687694522">
		<tag k="name" v="Almefossmyra" />
		<tag k="natural" v="wetland" />
		<tag k="ssr:stedsnr" v="42695" />
	</node>
	<node id="-253794" lat="59.8473861151" lon="11.8137083277">
		<tag k="name" v="Eikeheimyrene" />
		<tag k="natural" v="wetland" />
		<tag k="ssr:stedsnr" v="42260" />
	</node>
	<node id="-251745" lat="59.807405555" lon="11.7610027765">
		<tag k="name" v="Droplemåsan" />
		<tag k="natural" v="wetland" />
		<tag k="ssr:stedsnr" v="241556" />
	</node>
	<node id="-251742" lat="59.9418055545" lon="11.7803083384">
		<tag k="name" v="Knattemyra" />
		<tag k="natural" v="wetland" />
		<tag k="ssr:stedsnr" v="241363" />
	</node>
	<node id="-251740" lat="59.9647500025" lon="11.6472638852">
		<tag k="name" v="Haukelundmarka" />
		<tag k="place" v="locality" />
		<tag k="ssr:stedsnr" v="241154" />
	</node>
	<node id="-251735" lat="59.6538361087" lon="11.5315166599">
		<tag k="name" v="Olavsmåsan" />
		<tag k="natural" v="wetland" />
		<tag k="ssr:stedsnr" v="240716" />
	</node>
	<node id="-253782" lat="59.968400003" lon="11.404524993">
		<tag k="name" v="Storrkilen" />
		<tag k="natural" v="wetland" />
		<tag k="ssr:stedsnr" v="40848" />
	</node>
	<node id="-251731" lat="59.6966361105" lon="11.3828166688">
		<tag k="name" v="Høgmåsan" />
		<tag k="natural" v="wetland" />
		<tag k="ssr:stedsnr" v="447195" />
	</node>
	<node id="-251729" lat="59.8928694471" lon="11.3812916677">
		<tag k="name" v="Gunnartjennmåsan" />
		<tag k="natural" v="wetland" />
		<tag k="ssr:stedsnr" v="239249" />
	</node>
	<node id="-251728" lat="59.8738000015" lon="11.4361027797">
		<tag k="name" v="Vestre Blåkollmåsan" />
		<tag k="natural" v="wetland" />
		<tag k="ssr:stedsnr" v="239240" />
	</node>
	<node id="-251726" lat="59.8945111071" lon="11.3768666661">
		<tag k="name" v="Gunnartjennmyra" />
		<tag k="natural" v="wetland" />
		<tag k="ssr:stedsnr" v="239237" />
	</node>
	<node id="-251725" lat="59.9240388861" lon="11.6913555615">
		<tag k="name" v="Korpedalsmyra" />
		<tag k="natural" v="wetland" />
		<tag k="ssr:stedsnr" v="239235" />
	</node>
	<node id="-253769" lat="59.7131527821" lon="11.6585472149">
		<tag k="name" v="Bjørkmyrene" />
		<tag k="natural" v="wetland" />
		<tag k="ssr:stedsnr" v="39862" />
	</node>
	<node id="-253767" lat="59.9893250011" lon="11.6689166611">
		<tag k="name" v="Øvre Slåttemyra" />
		<tag k="natural" v="wetland" />
		<tag k="ssr:stedsnr" v="39645" />
	</node>
	<node id="-251718" lat="59.7066777745" lon="11.7490527855">
		<tag k="name" v="Merraskrottmyra" />
		<tag k="natural" v="wetland" />
		<tag k="ssr:stedsnr" v="233102" />
	</node>
	<node id="-251697" lat="59.9881055554" lon="11.6808138816">
		<tag k="name" v="Kjelketjennmåsan" />
		<tag k="natural" v="wetland" />
		<tag k="ssr:stedsnr" v="222720" />
	</node>
	<node id="-251696" lat="60.0001499994" lon="11.7043555624">
		<tag k="name" v="Deledalsmyra" />
		<tag k="natural" v="wetland" />
		<tag k="ssr:stedsnr" v="222708" />
	</node>
	<node id="-251691" lat="59.9443083376" lon="11.6190916634">
		<tag k="name" v="Bjønnesteinen" />
		<tag k="natural" v="stone" />
		<tag k="ssr:stedsnr" v="298332" />
	</node>
	<node id="-251684" lat="60.0018083335" lon="11.7366916666">
		<tag k="name" v="Ternebråtamyra" />
		<tag k="natural" v="wetland" />
		<tag k="ssr:stedsnr" v="298183" />
	</node>
	<node id="-251683" lat="59.8777638868" lon="11.7969027842">
		<tag k="name" v="Elgtjennsmåsan" />
		<tag k="natural" v="wetland" />
		<tag k="ssr:stedsnr" v="298056" />
	</node>
	<node id="-253725" lat="59.8590662111" lon="11.6500962013">
		<tag k="name" v="Settemåsan" />
		<tag k="natural" v="wetland" />
		<tag k="ssr:stedsnr" v="5143" />
	</node>
	<node id="-253724" lat="59.8515555549" lon="11.689461108">
		<tag k="name" v="Fagermomyra" />
		<tag k="natural" v="wetland" />
		<tag k="ssr:stedsnr" v="5141" />
	</node>
	<node id="-253699" lat="59.8174613518" lon="11.3069629356">
		<tag k="name" v="Andersmåsane" />
		<tag k="natural" v="wetland" />
		<tag k="ssr:stedsnr" v="4830" />
	</node>
	<node id="-251648" lat="59.7741361103" lon="11.9230861092">
		<tag k="name" v="Fjøsmåsan" />
		<tag k="natural" v="wetland" />
		<tag k="ssr:stedsnr" v="293197" />
	</node>
	<node id="-253694" lat="59.892774999" lon="11.3524833253">
		<tag k="alt_name" v="Tjennsmyra" />
		<tag k="name" v="Tjennshaugmyra" />
		<tag k="natural" v="wetland" />
		<tag k="ssr:stedsnr" v="4650" />
	</node>
	<node id="-254634" lat="59.9218861094" lon="11.6307277862">
		<tag k="name" v="Skavlivangen" />
		<tag k="place" v="locality" />
		<tag k="ssr:stedsnr" v="302629" />
	</node>
	<node id="-251635" lat="59.7652305524" lon="11.6821555489">
		<tag k="name" v="Ertåkermåsan" />
		<tag k="natural" v="wetland" />
		<tag k="ssr:stedsnr" v="300997" />
	</node>
	<node id="-251620" lat="59.7720388887" lon="11.4924749954">
		<tag k="name" v="Neshagen" />
		<tag k="place" v="locality" />
		<tag k="ssr:stedsnr" v="285381" />
	</node>
	<node id="-253664" lat="59.8236361104" lon="11.7749805544">
		<tag k="name" v="Måsabymåsan" />
		<tag k="natural" v="wetland" />
		<tag k="ssr:stedsnr" v="4306" />
	</node>
	<node id="-251615" lat="59.6725750043" lon="11.5982416748">
		<tag k="name" v="Østre Fuglemåsan" />
		<tag k="natural" v="wetland" />
		<tag k="ssr:stedsnr" v="180658" />
	</node>
	<node id="-251612" lat="59.9249249997" lon="11.5796583383">
		<tag k="name" v="Fallemyra" />
		<tag k="natural" v="wetland" />
		<tag k="ssr:stedsnr" v="180610" />
	</node>
	<node id="-253659" lat="59.8968500044" lon="11.534288883">
		<tag k="name" v="Håmannsmyra" />
		<tag k="natural" v="wetland" />
		<tag k="ssr:stedsnr" v="4229" />
	</node>
	<node id="-251610" lat="59.8001861071" lon="11.812955556">
		<tag k="name" v="Skoklemyra" />
		<tag k="natural" v="wetland" />
		<tag k="ssr:stedsnr" v="180703" />
	</node>
	<node id="-251609" lat="59.7996388857" lon="11.8271916647">
		<tag k="name" v="Graverbekkmåsan" />
		<tag k="natural" v="wetland" />
		<tag k="ssr:stedsnr" v="180702" />
	</node>
	<node id="-253654" lat="59.8763805596" lon="11.5234250025">
		<tag k="name" v="Fløyta" />
		<tag k="natural" v="wetland" />
		<tag k="ssr:stedsnr" v="4183" />
	</node>
	<node id="-253650" lat="59.8591722181" lon="11.69130833">
		<tag k="name" v="Fagermåsan" />
		<tag k="natural" v="wetland" />
		<tag k="ssr:stedsnr" v="4127" />
	</node>
	<node id="-251599" lat="59.9674805588" lon="11.5852444509">
		<tag k="name" v="Stutauemyr" />
		<tag k="natural" v="wetland" />
		<tag k="ssr:stedsnr" v="180113" />
	</node>
	<node id="-251598" lat="59.9158472188" lon="11.6652472166">
		<tag k="name" v="Nysætermåsan" />
		<tag k="natural" v="wetland" />
		<tag k="ssr:stedsnr" v="179626" />
	</node>
	<node id="-251595" lat="59.6819472263" lon="11.5885749963">
		<tag k="name" v="Kråkedalsmyrene" />
		<tag k="natural" v="wetland" />
		<tag k="ssr:stedsnr" v="179359" />
	</node>
	<node id="-251594" lat="59.685513891" lon="11.5894361087">
		<tag k="name" v="Orremyrskiftet" />
		<tag k="place" v="locality" />
		<tag k="ssr:stedsnr" v="179358" />
	</node>
	<node id="-251591" lat="59.836486111" lon="11.384952781">
		<tag k="name" v="Bikkjemyrene" />
		<tag k="natural" v="wetland" />
		<tag k="ssr:stedsnr" v="178611" />
	</node>
	<node id="-251588" lat="59.8769916635" lon="11.5012249928">
		<tag k="name" v="Væringsmyra" />
		<tag k="natural" v="wetland" />
		<tag k="ssr:stedsnr" v="178367" />
	</node>
	<node id="-251585" lat="59.8850555516" lon="11.5648583341">
		<tag k="name" v="Bliksrudmåsan" />
		<tag k="natural" v="wetland" />
		<tag k="ssr:stedsnr" v="177657" />
	</node>
	<node id="-251168" lat="59.9889499963" lon="11.7891222273">
		<tag k="name" v="Mangenmyra" />
		<tag k="natural" v="wetland" />
		<tag k="ssr:stedsnr" v="222967" />
	</node>
	<node id="-251565" lat="59.7784277773" lon="11.3599444457">
		<tag k="name" v="Skogsbergmåsan" />
		<tag k="natural" v="wetland" />
		<tag k="ssr:stedsnr" v="283123" />
	</node>
	<node id="-251564" lat="59.9534361066" lon="11.6590055625">
		<tag k="name" v="Haneborgsteinen" />
		<tag k="natural" v="stone" />
		<tag k="ssr:stedsnr" v="283094" />
	</node>
	<node id="-251505" lat="59.9064833294" lon="11.3328111181">
		<tag k="name" v="Stutemåsan" />
		<tag k="natural" v="wetland" />
		<tag k="ssr:stedsnr" v="118229" />
	</node>
	<node id="-251552" lat="59.993372218" lon="11.6539805566">
		<tag k="name" v="Spettdalsmyra" />
		<tag k="natural" v="wetland" />
		<tag k="ssr:stedsnr" v="282694" />
	</node>
	<node id="-251548" lat="59.9933805593" lon="11.7384888942">
		<tag k="name" v="Hyttebråten" />
		<tag k="place" v="locality" />
		<tag k="ssr:stedsnr" v="282657" />
	</node>
	<node id="-251546" lat="59.98715" lon="11.5846083361">
		<tag k="name" v="Flaenshaugmyra" />
		<tag k="natural" v="wetland" />
		<tag k="ssr:stedsnr" v="282636" />
	</node>
	<node id="-253589" lat="59.9603277784" lon="11.6780666652">
		<tag k="name" v="Badstumyra" />
		<tag k="natural" v="wetland" />
		<tag k="ssr:stedsnr" v="969162" />
	</node>
	<node id="-251528" lat="60.0011499972" lon="11.6519472132">
		<tag k="name" v="Sinkerudmyra" />
		<tag k="natural" v="wetland" />
		<tag k="ssr:stedsnr" v="161708" />
	</node>
	<node id="-251524" lat="59.937774997" lon="11.683444442">
		<tag k="name" v="Helgemåsan" />
		<tag k="natural" v="wetland" />
		<tag k="ssr:stedsnr" v="161114" />
	</node>
	<node id="-253561" lat="59.9049888931" lon="11.4957833395">
		<tag k="name" v="Dammyr" />
		<tag k="natural" v="wetland" />
		<tag k="ssr:stedsnr" v="952439" />
	</node>
	<node id="-251509" lat="59.6918027751" lon="11.6130611127">
		<tag k="name" v="Morassmåsan" />
		<tag k="natural" v="wetland" />
		<tag k="ssr:stedsnr" v="118325" />
	</node>
	<node id="-251506" lat="59.8939666624" lon="11.3671555556">
		<tag k="name" v="Bakhonmyrene" />
		<tag k="natural" v="wetland" />
		<tag k="ssr:stedsnr" v="118231" />
	</node>
	<node id="-253553" lat="59.9680722233" lon="11.4155750054">
		<tag k="name" v="Torvet" />
		<tag k="natural" v="wetland" />
		<tag k="ssr:stedsnr" v="950016" />
	</node>
	<node id="-251503" lat="59.818080555" lon="11.3479083303">
		<tag k="name" v="Kassmyrene" />
		<tag k="natural" v="wetland" />
		<tag k="ssr:stedsnr" v="116725" />
	</node>
	<node id="-253549" lat="59.7122444487" lon="11.6855416726">
		<tag k="name" v="Østre Skarabolsætermåsan" />
		<tag k="natural" v="wetland" />
		<tag k="ssr:stedsnr" v="949854" />
	</node>
	<node id="-251500" lat="59.8153833334" lon="11.3167194438">
		<tag k="name" v="Høymyra" />
		<tag k="natural" v="wetland" />
		<tag k="ssr:stedsnr" v="116709" />
	</node>
	<node id="-251498" lat="59.7855138864" lon="11.8455861094">
		<tag k="name" v="Geitelorten" />
		<tag k="natural" v="wetland" />
		<tag k="ssr:stedsnr" v="116416" />
	</node>
	<node id="-253543" lat="59.9962138912" lon="11.5234888908">
		<tag k="name" v="Hattmyra" />
		<tag k="natural" v="wetland" />
		<tag k="ssr:stedsnr" v="915961" />
	</node>
	<node id="-251485" lat="59.7652472239" lon="11.8086611072">
		<tag k="name" v="Fugleleiken" />
		<tag k="natural" v="wetland" />
		<tag k="ssr:stedsnr" v="111129" />
	</node>
	<node id="-251481" lat="59.8997138918" lon="11.5015749949">
		<tag k="name" v="Sætermyrene" />
		<tag k="natural" v="wetland" />
		<tag k="ssr:stedsnr" v="102491" />
	</node>
	<node id="-251473" lat="59.9714249965" lon="11.541266659">
		<tag k="name" v="Bukkemåsan" />
		<tag k="natural" v="wetland" />
		<tag k="ssr:stedsnr" v="100008" />
	</node>
	<node id="-251467" lat="59.74230556" lon="11.4143333254">
		<tag k="name" v="Høgmåsan" />
		<tag k="natural" v="wetland" />
		<tag k="ssr:stedsnr" v="83152" />
	</node>
	<node id="-251459" lat="59.8123361108" lon="11.6354444484">
		<tag k="fixme" v="multiple name tags, choose one and add the other to alt_name" />
		<tag k="name" v="Lyvemyra;Sætermåsan" />
		<tag k="natural" v="wetland" />
		<tag k="ssr:stedsnr" v="248268" />
	</node>
	<node id="-253501" lat="60.0026055524" lon="11.7550555559">
		<tag k="name" v="Hettismyra" />
		<tag k="natural" v="wetland" />
		<tag k="ssr:stedsnr" v="908951" />
	</node>
	<node id="-253499" lat="59.8926721771" lon="11.4091491612">
		<tag k="name" v="Hyttemyra" />
		<tag k="natural" v="wetland" />
		<tag k="ssr:stedsnr" v="907332" />
	</node>
	<node id="-253497" lat="59.6793666709" lon="11.6462388854">
		<tag k="name" v="Risenmyrene" />
		<tag k="natural" v="wetland" />
		<tag k="ssr:stedsnr" v="907313" />
	</node>
	<node id="-253495" lat="59.8865305552" lon="11.523874995">
		<tag k="name" v="Kjerkeholta" />
		<tag k="place" v="locality" />
		<tag k="ssr:stedsnr" v="906621" />
	</node>
	<node id="-253493" lat="59.8640138895" lon="11.471561108">
		<tag k="name" v="Steina" />
		<tag k="natural" v="stone" />
		<tag k="ssr:stedsnr" v="905618" />
	</node>
	<node id="-253489" lat="60.0057194447" lon="11.6078583369">
		<tag k="name" v="Bergersætermyra" />
		<tag k="natural" v="wetland" />
		<tag k="ssr:stedsnr" v="905059" />
	</node>
	<node id="-253488" lat="60.0090166699" lon="11.6110222285">
		<tag k="name" v="Stokkholmsmyrene" />
		<tag k="natural" v="wetland" />
		<tag k="ssr:stedsnr" v="905058" />
	</node>
	<node id="-253476" lat="59.655819447" lon="11.7756916645">
		<tag k="name" v="Tømmerholtmyra" />
		<tag k="natural" v="wetland" />
		<tag k="ssr:stedsnr" v="900220" />
	</node>
	<node id="-251427" lat="59.8037638866" lon="11.6427194396">
		<tag k="alt_name" v="Fossmyr, store" />
		<tag k="name" v="Store Fossmyr" />
		<tag k="natural" v="wetland" />
		<tag k="ssr:stedsnr" v="247461" />
	</node>
	<node id="-253472" lat="59.7049166705" lon="11.8588305577">
		<tag k="name" v="Hemyrene" />
		<tag k="natural" v="wetland" />
		<tag k="ssr:stedsnr" v="900062" />
	</node>
	<node id="-251423" lat="59.7813833343" lon="11.7676027835">
		<tag k="name" v="Lysermåsan" />
		<tag k="natural" v="wetland" />
		<tag k="ssr:stedsnr" v="247426" />
	</node>
	<node id="-251422" lat="59.779888893" lon="11.836974995">
		<tag k="alt_name" v="Bumosen" />
		<tag k="name" v="Bumåsan" />
		<tag k="natural" v="wetland" />
		<tag k="ssr:stedsnr" v="247414" />
	</node>
	<node id="-254213" lat="59.7379888875" lon="11.9261583287">
		<tag k="name" v="Orremåsan" />
		<tag k="natural" v="wetland" />
		<tag k="ssr:stedsnr" v="125449" />
	</node>
	<node id="-253466" lat="59.8505972255" lon="11.4964749915">
		<tag k="name" v="Ulvemyra" />
		<tag k="natural" v="wetland" />
		<tag k="ssr:stedsnr" v="892834" />
	</node>
	<node id="-253460" lat="59.9501111089" lon="11.6403444446">
		<tag k="name" v="Tømmermyra" />
		<tag k="natural" v="wetland" />
		<tag k="ssr:stedsnr" v="950133" />
	</node>
	<node id="-253450" lat="59.9480638877" lon="11.6939833251">
		<tag k="name" v="Bekka" />
		<tag k="natural" v="wetland" />
		<tag k="ssr:stedsnr" v="950058" />
	</node>
	<node id="-253445" lat="59.6940999978" lon="11.4861083265">
		<tag k="name" v="Rudskogen" />
		<tag k="place" v="locality" />
		<tag k="ssr:stedsnr" v="949152" />
	</node>
	<node id="-254550" lat="59.8557638846" lon="11.5035750027">
		<tag k="name" v="Jøssmyra" />
		<tag k="natural" v="wetland" />
		<tag k="ssr:stedsnr" v="187163" />
	</node>
	<node id="-253421" lat="59.7161638928" lon="11.8921972219">
		<tag k="fixme" v="multiple name tags, choose one and add the other to alt_name" />
		<tag k="name" v="Småtjennmåsån;Gåsemåsan" />
		<tag k="natural" v="wetland" />
		<tag k="ssr:stedsnr" v="854405" />
	</node>
	<node id="-253419" lat="59.8136805546" lon="11.7699249974">
		<tag k="name" v="Høgmåsan" />
		<tag k="natural" v="wetland" />
		<tag k="ssr:stedsnr" v="854254" />
	</node>
	<node id="-251812" lat="59.782016668" lon="11.465544453">
		<tag k="name" v="Gravhaugåkeren" />
		<tag k="place" v="locality" />
		<tag k="ssr:stedsnr" v="300774" />
	</node>
	<node id="-254119" lat="59.8593722263" lon="11.5022416753">
		<tag k="name" v="Granerudmyra" />
		<tag k="natural" v="wetland" />
		<tag k="ssr:stedsnr" v="116640" />
	</node>
	<node id="-251343" lat="59.9099583319" lon="11.3348805519">
		<tag k="alt_name" v="Leikmyrene" />
		<tag k="name" v="Leikmyrane" />
		<tag k="natural" v="wetland" />
		<tag k="ssr:stedsnr" v="65606" />
	</node>
	<node id="-253388" lat="59.6361666622" lon="11.7284305626">
		<tag k="name" v="Seljehølmåsan" />
		<tag k="natural" v="wetland" />
		<tag k="ssr:stedsnr" v="840212" />
	</node>
	<node id="-253386" lat="59.6419972267" lon="11.7686583253">
		<tag k="historic" v="shieling" />
		<tag k="name" v="Andreassetra" />
		<tag k="place" v="locality" />
		<tag k="ssr:stedsnr" v="840121" />
	</node>
	<node id="-253385" lat="59.648666667" lon="11.7672361099">
		<tag k="name" v="Ferjene" />
		<tag k="natural" v="wetland" />
		<tag k="ssr:stedsnr" v="840120" />
	</node>
	<node id="-253380" lat="59.7717027764" lon="11.8406138945">
		<tag k="name" v="Erttjennmåsån" />
		<tag k="natural" v="wetland" />
		<tag k="ssr:stedsnr" v="840011" />
	</node>
	<node id="-253375" lat="59.733080557" lon="11.4332138943">
		<tag k="name" v="Holshagen" />
		<tag k="place" v="locality" />
		<tag k="ssr:stedsnr" v="933171" />
	</node>
	<node id="-251325" lat="59.7925638853" lon="11.368144449">
		<tag k="name" v="Leggmyra" />
		<tag k="natural" v="wetland" />
		<tag k="ssr:stedsnr" v="241875" />
	</node>
	<node id="-251323" lat="59.7076083299" lon="11.6477361064">
		<tag k="alt_name" v="Sauemyra" />
		<tag k="name" v="Sauemyrene" />
		<tag k="natural" v="wetland" />
		<tag k="ssr:stedsnr" v="64341" />
	</node>
	<node id="-251322" lat="59.7133194459" lon="11.6847555555">
		<tag k="name" v="Skarrabolsmåsan" />
		<tag k="natural" v="wetland" />
		<tag k="ssr:stedsnr" v="64338" />
	</node>
	<node id="-251320" lat="59.7922805548" lon="11.3312833266">
		<tag k="name" v="Meitetjenn" />
		<tag k="natural" v="wetland" />
		<tag k="ssr:stedsnr" v="241686" />
	</node>
	<node id="-253364" lat="59.7750583371" lon="11.6760305484">
		<tag k="name" v="Orremåsan" />
		<tag k="natural" v="wetland" />
		<tag k="ssr:stedsnr" v="794414" />
	</node>
	<node id="-251315" lat="59.9047083325" lon="11.427063893">
		<tag k="name" v="Gråmåsan" />
		<tag k="natural" v="wetland" />
		<tag k="ssr:stedsnr" v="241490" />
	</node>
	<node id="-251313" lat="59.9677555574" lon="11.7687194432">
		<tag k="name" v="Manghagan" />
		<tag k="place" v="locality" />
		<tag k="ssr:stedsnr" v="241349" />
	</node>
	<node id="-253355" lat="59.9061500038" lon="11.787888896">
		<tag k="name" v="Lauvskogmyra" />
		<tag k="natural" v="wetland" />
		<tag k="ssr:stedsnr" v="793240" />
	</node>
	<node id="-253354" lat="59.8967888911" lon="11.6241638807">
		<tag k="alt_name" v="Orremåsan" />
		<tag k="name" v="Åremåsan" />
		<tag k="natural" v="wetland" />
		<tag k="ssr:stedsnr" v="793235" />
	</node>
	<node id="-251305" lat="59.693355556" lon="11.5981833404">
		<tag k="name" v="Sjekta" />
		<tag k="place" v="locality" />
		<tag k="ssr:stedsnr" v="240361" />
	</node>
	<node id="-253347" lat="59.8624500039" lon="11.5441277816">
		<tag k="name" v="Komnesmåsan" />
		<tag k="natural" v="wetland" />
		<tag k="ssr:stedsnr" v="793181" />
	</node>
	<node id="-253340" lat="59.727930558" lon="11.541330551">
		<tag k="alt_name" v="Langmyr" />
		<tag k="name" v="Vestre Langmyr" />
		<tag k="natural" v="wetland" />
		<tag k="ssr:stedsnr" v="792617" />
	</node>
	<node id="-251289" lat="59.8784722196" lon="11.469436113">
		<tag k="name" v="Kvea" />
		<tag k="natural" v="wetland" />
		<tag k="ssr:stedsnr" v="239339" />
	</node>
	<node id="-253335" lat="59.8525583327" lon="11.4580861169">
		<tag k="name" v="Sleppmyra" />
		<tag k="natural" v="wetland" />
		<tag k="ssr:stedsnr" v="787590" />
	</node>
	<node id="-253333" lat="59.8128805562" lon="11.7966861083">
		<tag k="name" v="Lamungmyr" />
		<tag k="natural" v="wetland" />
		<tag k="ssr:stedsnr" v="787583" />
	</node>
	<node id="-253329" lat="59.854202782" lon="11.7705972261">
		<tag k="name" v="Gammelsætermåsan" />
		<tag k="natural" v="wetland" />
		<tag k="ssr:stedsnr" v="787403" />
	</node>
	<node id="-251278" lat="59.8768111088" lon="11.7074249951">
		<tag k="name" v="Torsmyr" />
		<tag k="natural" v="wetland" />
		<tag k="ssr:stedsnr" v="238596" />
	</node>
	<node id="-253323" lat="59.8682138877" lon="11.7305083287">
		<tag k="name" v="Skremtjennmåsan" />
		<tag k="natural" v="wetland" />
		<tag k="ssr:stedsnr" v="787213" />
	</node>
	<node id="-253322" lat="59.7384305538" lon="11.545886108">
		<tag k="name" v="Nordre Skovreimyr" />
		<tag k="natural" v="wetland" />
		<tag k="ssr:stedsnr" v="786596" />
	</node>
	<node id="-253313" lat="59.7973777808" lon="11.784905547">
		<tag k="name" v="Sjurtjenndråga" />
		<tag k="natural" v="wetland" />
		<tag k="ssr:stedsnr" v="783405" />
	</node>
	<node id="-253312" lat="59.7975333307" lon="11.7966500017">
		<tag k="name" v="Høymyrene" />
		<tag k="natural" v="wetland" />
		<tag k="ssr:stedsnr" v="783404" />
	</node>
	<node id="-251261" lat="60.001641664" lon="11.6880805625">
		<tag k="name" v="Gråbeinmyra" />
		<tag k="natural" v="wetland" />
		<tag k="ssr:stedsnr" v="55061" />
	</node>
	<node id="-251255" lat="60.0144805596" lon="11.5831194361">
		<tag k="name" v="Sørbergmåsan" />
		<tag k="natural" v="wetland" />
		<tag k="ssr:stedsnr" v="237054" />
	</node>
	<node id="-253297" lat="59.864905559" lon="11.4092111075">
		<tag k="name" v="Grønmyra" />
		<tag k="natural" v="wetland" />
		<tag k="ssr:stedsnr" v="915675" />
	</node>
	<node id="-251453" lat="59.7822388854" lon="11.9182888816">
		<tag k="alt_name" v="Finnemåsan" />
		<tag k="name" v="Finnmåsan" />
		<tag k="natural" v="wetland" />
		<tag k="ssr:stedsnr" v="248228" />
	</node>
	<node id="-253288" lat="59.8546527794" lon="11.8021333424">
		<tag k="name" v="Eikeheimyra" />
		<tag k="natural" v="wetland" />
		<tag k="ssr:stedsnr" v="915343" />
	</node>
	<node id="-251239" lat="59.6388500008" lon="11.5319861083">
		<tag k="name" v="Kalestein" />
		<tag k="natural" v="stone" />
		<tag k="ssr:stedsnr" v="234071" />
	</node>
	<node id="-251237" lat="59.696633337" lon="11.8109972239">
		<tag k="name" v="Nesmåsan" />
		<tag k="natural" v="wetland" />
		<tag k="ssr:stedsnr" v="233185" />
	</node>
	<node id="-253284" lat="59.8176499971" lon="11.7381777757">
		<tag k="name" v="Ufsemåsan" />
		<tag k="natural" v="wetland" />
		<tag k="ssr:stedsnr" v="915231" />
	</node>
	<node id="-253283" lat="59.8587972248" lon="11.8263361134">
		<tag k="alt_name" v="Gastemyrene" />
		<tag k="name" v="Gastemyra" />
		<tag k="natural" v="wetland" />
		<tag k="ssr:stedsnr" v="915151" />
	</node>
	<node id="-251234" lat="59.6906416641" lon="11.7724611095">
		<tag k="name" v="Trytjennmåsan" />
		<tag k="natural" v="wetland" />
		<tag k="ssr:stedsnr" v="233174" />
	</node>
	<node id="-251451" lat="59.8037250003" lon="11.8527666681">
		<tag k="name" v="Veslemyra" />
		<tag k="natural" v="wetland" />
		<tag k="ssr:stedsnr" v="248149" />
	</node>
	<node id="-253276" lat="59.9998416702" lon="11.7962305577">
		<tag k="name" v="Hyttebråten" />
		<tag k="place" v="locality" />
		<tag k="ssr:stedsnr" v="770920" />
	</node>
	<node id="-251226" lat="59.969916671" lon="11.7239500049">
		<tag k="name" v="Ovliensmyra" />
		<tag k="natural" v="wetland" />
		<tag k="ssr:stedsnr" v="41359" />
	</node>
	<node id="-251225" lat="59.989888888" lon="11.4759249986">
		<tag k="name" v="Stakamyra" />
		<tag k="natural" v="wetland" />
		<tag k="ssr:stedsnr" v="41358" />
	</node>
	<node id="-251224" lat="59.9923833347" lon="11.4965555627">
		<tag k="name" v="Kutjennmåsan" />
		<tag k="natural" v="wetland" />
		<tag k="ssr:stedsnr" v="41353" />
	</node>
	<node id="-253266" lat="59.7178777763" lon="11.7136500078">
		<tag k="alt_name" v="Kumosen" />
		<tag k="name" v="Kumåsan" />
		<tag k="natural" v="wetland" />
		<tag k="ssr:stedsnr" v="914664" />
	</node>
	<node id="-253261" lat="59.9957000042" lon="11.4945444369">
		<tag k="name" v="Sætermyrene" />
		<tag k="natural" v="wetland" />
		<tag k="ssr:stedsnr" v="769335" />
	</node>
	<node id="-251212" lat="59.9739333364" lon="11.4402333261">
		<tag k="name" v="Folungmyra" />
		<tag k="natural" v="wetland" />
		<tag k="ssr:stedsnr" v="40005" />
	</node>
	<node id="-251210" lat="59.9925972222" lon="11.5880833353">
		<tag k="name" v="Tjennsmåsan" />
		<tag k="natural" v="wetland" />
		<tag k="ssr:stedsnr" v="39617" />
	</node>
	<node id="-253256" lat="59.8374083331" lon="11.3380083261">
		<tag k="name" v="Korsmåsan" />
		<tag k="natural" v="wetland" />
		<tag k="ssr:stedsnr" v="768658" />
	</node>
	<node id="-253254" lat="59.6852249958" lon="11.7770361023">
		<tag k="alt_name" v="Blaremyra" />
		<tag k="name" v="Blaramyr" />
		<tag k="natural" v="wetland" />
		<tag k="ssr:stedsnr" v="914346" />
	</node>
	<node id="-251198" lat="59.7640361074" lon="11.8745722172">
		<tag k="name" v="Dypilmåsån" />
		<tag k="natural" v="wetland" />
		<tag k="ssr:stedsnr" v="232174" />
	</node>
	<node id="-253245" lat="59.6758111126" lon="11.7138888933">
		<tag k="alt_name" v="Engemosen" />
		<tag k="name" v="Engemåsan" />
		<tag k="natural" v="wetland" />
		<tag k="ssr:stedsnr" v="914279" />
	</node>
	<node id="-251189" lat="60.0171472189" lon="11.8249722252">
		<tag k="name" v="Kailandsholtet" />
		<tag k="place" v="locality" />
		<tag k="ssr:stedsnr" v="224903" />
	</node>
	<node id="-251188" lat="59.8178805561" lon="11.8772305567">
		<tag k="name" v="Storemyr" />
		<tag k="natural" v="wetland" />
		<tag k="ssr:stedsnr" v="224844" />
	</node>
	<node id="-251187" lat="59.8367583378" lon="11.5028444379">
		<tag k="name" v="Torva" />
		<tag k="natural" v="wetland" />
		<tag k="ssr:stedsnr" v="224831" />
	</node>
	<node id="-253234" lat="59.8070166678" lon="11.8760805559">
		<tag k="name" v="Olafsmyr" />
		<tag k="natural" v="wetland" />
		<tag k="ssr:stedsnr" v="767906" />
	</node>
	<node id="-251180" lat="59.9493027777" lon="11.4643361139">
		<tag k="name" v="Lokshaugmåsan" />
		<tag k="natural" v="wetland" />
		<tag k="ssr:stedsnr" v="224466" />
	</node>
	<node id="-251179" lat="59.9478583356" lon="11.4714277704">
		<tag k="name" v="Kavlebrumyra" />
		<tag k="natural" v="wetland" />
		<tag k="ssr:stedsnr" v="224465" />
	</node>
	<node id="-253224" lat="59.998738893" lon="11.6009944463">
		<tag k="name" v="Høymyra" />
		<tag k="natural" v="wetland" />
		<tag k="ssr:stedsnr" v="767657" />
	</node>
	<node id="-254172" lat="59.9748944422" lon="11.6400250033">
		<tag k="name" v="Skolemyra" />
		<tag k="natural" v="wetland" />
		<tag k="ssr:stedsnr" v="120175" />
	</node>
	<node id="-251174" lat="59.9790138856" lon="11.6892222258">
		<tag k="name" v="Blautmyra" />
		<tag k="natural" v="wetland" />
		<tag k="ssr:stedsnr" v="223303" />
	</node>
	<node id="-251173" lat="59.9769944478" lon="11.6868333301">
		<tag k="name" v="Bråtaholtet" />
		<tag k="place" v="locality" />
		<tag k="ssr:stedsnr" v="223302" />
	</node>
	<node id="-253219" lat="59.8332722234" lon="11.7274666694">
		<tag k="name" v="Haramyra" />
		<tag k="natural" v="wetland" />
		<tag k="ssr:stedsnr" v="909236" />
	</node>
	<node id="-254171" lat="59.9657666654" lon="11.6485083253">
		<tag k="name" v="Trettemyra" />
		<tag k="natural" v="wetland" />
		<tag k="ssr:stedsnr" v="120163" />
	</node>
	<node id="-253216" lat="59.9718083314" lon="11.6532027842">
		<tag k="name" v="Bjønnmyra" />
		<tag k="natural" v="wetland" />
		<tag k="ssr:stedsnr" v="909186" />
	</node>
	<node id="-253214" lat="59.9682999963" lon="11.6898944464">
		<tag k="name" v="Gampemyra" />
		<tag k="natural" v="wetland" />
		<tag k="ssr:stedsnr" v="909171" />
	</node>
	<node id="-253213" lat="59.9604055542" lon="11.6573777713">
		<tag k="name" v="Fjerdingsmyra" />
		<tag k="natural" v="wetland" />
		<tag k="ssr:stedsnr" v="909167" />
	</node>
	<node id="-251164" lat="59.9608388889" lon="11.4009111087">
		<tag k="name" v="Loppen" />
		<tag k="natural" v="wetland" />
		<tag k="ssr:stedsnr" v="222820" />
	</node>
	<node id="-251163" lat="60.0174083343" lon="11.5670166718">
		<tag k="name" v="Haramyra" />
		<tag k="natural" v="wetland" />
		<tag k="ssr:stedsnr" v="222781" />
	</node>
	<node id="-251161" lat="59.9967749961" lon="11.578508332">
		<tag k="name" v="Orremåsan" />
		<tag k="natural" v="wetland" />
		<tag k="ssr:stedsnr" v="222683" />
	</node>
	<node id="-251160" lat="59.9837333291" lon="11.6744194458">
		<tag k="name" v="Nedre Slåttemyra" />
		<tag k="natural" v="wetland" />
		<tag k="ssr:stedsnr" v="222599" />
	</node>
	<node id="-251155" lat="59.7902333318" lon="11.7123638897">
		<tag k="name" v="Leikerholen" />
		<tag k="place" v="locality" />
		<tag k="ssr:stedsnr" v="222151" />
	</node>
	<node id="-251153" lat="59.7860805522" lon="11.3359833398">
		<tag k="name" v="Dammyrene" />
		<tag k="natural" v="wetland" />
		<tag k="ssr:stedsnr" v="222124" />
	</node>
	<node id="-253200" lat="59.6504416663" lon="11.5848666602">
		<tag k="name" v="Eikemyr" />
		<tag k="natural" v="wetland" />
		<tag k="ssr:stedsnr" v="908701" />
	</node>
	<node id="-251151" lat="59.7966722207" lon="11.7788722262">
		<tag k="name" v="Røsfallmåsan" />
		<tag k="natural" v="wetland" />
		<tag k="ssr:stedsnr" v="222075" />
	</node>
	<node id="-253197" lat="59.7289666641" lon="11.569524996">
		<tag k="name" v="Fuglemåsan" />
		<tag k="natural" v="wetland" />
		<tag k="ssr:stedsnr" v="908655" />
	</node>
	<node id="-251147" lat="59.9433666673" lon="11.705688884">
		<tag k="name" v="Sautjennmyra" />
		<tag k="natural" v="wetland" />
		<tag k="ssr:stedsnr" v="222046" />
	</node>
	<node id="-253192" lat="59.8122222226" lon="11.7878916698">
		<tag k="name" v="Ulvesundmyra" />
		<tag k="natural" v="wetland" />
		<tag k="ssr:stedsnr" v="908609" />
	</node>
	<node id="-253190" lat="59.6196194454" lon="11.5056027713">
		<tag k="name" v="Magnesmyrene" />
		<tag k="natural" v="wetland" />
		<tag k="ssr:stedsnr" v="908559" />
	</node>
	<node id="-251139" lat="59.8208750005" lon="11.8046916643">
		<tag k="name" v="Slenga" />
		<tag k="natural" v="wetland" />
		<tag k="ssr:stedsnr" v="221576" />
	</node>
	<node id="-251134" lat="60.0012250007" lon="11.5778694528">
		<tag k="name" v="Grønnmyra" />
		<tag k="natural" v="wetland" />
		<tag k="ssr:stedsnr" v="221528" />
	</node>
	<node id="-251131" lat="59.7586083369" lon="11.6068472157">
		<tag k="name" v="Langmyr" />
		<tag k="natural" v="wetland" />
		<tag k="ssr:stedsnr" v="221039" />
	</node>
	<node id="-254505" lat="59.729794445" lon="11.9148166587">
		<tag k="name" v="Ertevassmåsan" />
		<tag k="natural" v="wetland" />
		<tag k="ssr:stedsnr" v="186472" />
	</node>
	<node id="-253171" lat="59.8796888906" lon="11.4883277855">
		<tag k="name" v="Vassmåsan" />
		<tag k="natural" v="wetland" />
		<tag k="ssr:stedsnr" v="907352" />
	</node>
	<node id="-253170" lat="59.8854861076" lon="11.4742805615">
		<tag k="name" v="Vardemyrene" />
		<tag k="natural" v="wetland" />
		<tag k="ssr:stedsnr" v="907348" />
	</node>
	<node id="-253160" lat="59.8841083375" lon="11.5330388916">
		<tag k="name" v="Høgåsmyra" />
		<tag k="natural" v="wetland" />
		<tag k="ssr:stedsnr" v="906646" />
	</node>
	<node id="-253159" lat="59.8885583345" lon="11.649866675">
		<tag k="name" v="Svartsætermyr" />
		<tag k="natural" v="wetland" />
		<tag k="ssr:stedsnr" v="906600" />
	</node>
	<node id="-253151" lat="59.8686861142" lon="11.4642777854">
		<tag k="name" v="Mellomleiken" />
		<tag k="natural" v="wetland" />
		<tag k="ssr:stedsnr" v="905633" />
	</node>
	<node id="-253149" lat="59.8869777739" lon="11.7587222232">
		<tag k="name" v="Bekkemyr" />
		<tag k="natural" v="wetland" />
		<tag k="ssr:stedsnr" v="905529" />
	</node>
	<node id="-253144" lat="60.0016222261" lon="11.7413416695">
		<tag k="name" v="Krokmyra" />
		<tag k="natural" v="wetland" />
		<tag k="ssr:stedsnr" v="905186" />
	</node>
	<node id="-253120" lat="59.772066669" lon="11.8332694447">
		<tag k="name" v="Stormyra" />
		<tag k="natural" v="wetland" />
		<tag k="ssr:stedsnr" v="900141" />
	</node>
	<node id="-253116" lat="59.6497305589" lon="11.7427388864">
		<tag k="name" v="Høydemyra" />
		<tag k="natural" v="wetland" />
		<tag k="ssr:stedsnr" v="900076" />
	</node>
	<node id="-253096" lat="59.8665361094" lon="11.8182222201">
		<tag k="name" v="Søndre Skjærtjennmyr" />
		<tag k="natural" v="wetland" />
		<tag k="ssr:stedsnr" v="726184" />
	</node>
	<node id="-254492" lat="59.6874222205" lon="11.7632916597">
		<tag k="alt_name" v="Kavlebrumosen" />
		<tag k="name" v="Kavlebrumåsan" />
		<tag k="natural" v="wetland" />
		<tag k="ssr:stedsnr" v="186380" />
	</node>
	<node id="-253094" lat="59.8848888879" lon="11.3650250033">
		<tag k="name" v="Tverrtjennslorene" />
		<tag k="natural" v="wetland" />
		<tag k="ssr:stedsnr" v="726038" />
	</node>
	<node id="-253091" lat="59.8762944403" lon="11.4628416627">
		<tag k="name" v="Hestemåsan" />
		<tag k="natural" v="wetland" />
		<tag k="ssr:stedsnr" v="725356" />
	</node>
	<node id="-253079" lat="59.8820944455" lon="11.6744111104">
		<tag k="name" v="Hvitlandsmåsan" />
		<tag k="natural" v="wetland" />
		<tag k="ssr:stedsnr" v="723567" />
	</node>
	<node id="-253078" lat="59.7858750018" lon="11.8158305595">
		<tag k="name" v="Stokkemåsan" />
		<tag k="natural" v="wetland" />
		<tag k="ssr:stedsnr" v="723427" />
	</node>
	<node id="-253056" lat="59.9885611154" lon="11.4920888855">
		<tag k="name" v="Småmyra" />
		<tag k="natural" v="wetland" />
		<tag k="ssr:stedsnr" v="709352" />
	</node>
	<node id="-253055" lat="59.9952500035" lon="11.4774361055">
		<tag k="name" v="Dammyr" />
		<tag k="natural" v="wetland" />
		<tag k="ssr:stedsnr" v="709343" />
	</node>
	<node id="-253053" lat="59.7960333378" lon="11.4935166586">
		<tag k="landuse" v="meadow" />
		<tag k="name" v="Kalvehagan" />
		<tag k="ssr:stedsnr" v="708108" />
	</node>
	<node id="-253052" lat="59.8999277816" lon="11.7136166706">
		<tag k="name" v="Slafossmyra" />
		<tag k="natural" v="wetland" />
		<tag k="ssr:stedsnr" v="892801" />
	</node>
	<node id="-253049" lat="59.9071361135" lon="11.6512416722">
		<tag k="name" v="Knattemåsan" />
		<tag k="natural" v="wetland" />
		<tag k="ssr:stedsnr" v="892770" />
	</node>
	<node id="-254135" lat="59.8460333316" lon="11.3840472178">
		<tag k="name" v="Svarttjenn" />
		<tag k="natural" v="wetland" />
		<tag k="ssr:stedsnr" v="118586" />
	</node>
	<node id="-253041" lat="59.9102111134" lon="11.5074083357">
		<tag k="name" v="Jordmyra" />
		<tag k="natural" v="wetland" />
		<tag k="ssr:stedsnr" v="891454" />
	</node>
	<node id="-253039" lat="59.9013194477" lon="11.5087777809">
		<tag k="name" v="Storsteinen" />
		<tag k="natural" v="stone" />
		<tag k="ssr:stedsnr" v="891449" />
	</node>
	<node id="-253038" lat="59.8965333321" lon="11.5057694463">
		<tag k="name" v="Tuemyra" />
		<tag k="natural" v="wetland" />
		<tag k="ssr:stedsnr" v="891444" />
	</node>
	<node id="-253035" lat="59.8508027774" lon="11.7490111137">
		<tag k="name" v="Vestre Bjørnbassmåsan" />
		<tag k="natural" v="wetland" />
		<tag k="ssr:stedsnr" v="891293" />
	</node>
	<node id="-253034" lat="59.8318527778" lon="11.8403666676">
		<tag k="name" v="Høneheimåsan" />
		<tag k="natural" v="wetland" />
		<tag k="ssr:stedsnr" v="891291" />
	</node>
	<node id="-253032" lat="59.9005222215" lon="11.5866166755">
		<tag k="name" v="Hestehagen" />
		<tag k="place" v="locality" />
		<tag k="ssr:stedsnr" v="891141" />
	</node>
	<node id="-253026" lat="59.9261583348" lon="11.4568722253">
		<tag k="landuse" v="meadow" />
		<tag k="name" v="Kjørkesanden" />
		<tag k="ssr:stedsnr" v="890950" />
	</node>
	<node id="-253010" lat="59.9592888848" lon="11.5505138876">
		<tag k="name" v="Syltemåsan" />
		<tag k="natural" v="wetland" />
		<tag k="ssr:stedsnr" v="890120" />
	</node>
	<node id="-253005" lat="59.9730138906" lon="11.5562472159">
		<tag k="name" v="Revtjennmyra" />
		<tag k="natural" v="wetland" />
		<tag k="ssr:stedsnr" v="890009" />
	</node>
	<node id="-251746" lat="59.8708722205" lon="11.3641722251">
		<tag k="name" v="Sætermyra" />
		<tag k="natural" v="wetland" />
		<tag k="ssr:stedsnr" v="241720" />
	</node>
	<node id="-253001" lat="60.0134833312" lon="11.5712166709">
		<tag k="name" v="Snissemyra" />
		<tag k="natural" v="wetland" />
		<tag k="ssr:stedsnr" v="889787" />
	</node>
	<node id="-252997" lat="59.9806750006" lon="11.7277222169">
		<tag k="name" v="Totjennmyr" />
		<tag k="natural" v="wetland" />
		<tag k="ssr:stedsnr" v="889667" />
	</node>
	<node id="-252996" lat="59.9927194483" lon="11.6250888862">
		<tag k="name" v="Langmyrene" />
		<tag k="natural" v="wetland" />
		<tag k="ssr:stedsnr" v="889657" />
	</node>
	<node id="-252995" lat="59.8247722249" lon="11.7580694413">
		<tag k="name" v="Fiskemyr" />
		<tag k="natural" v="wetland" />
		<tag k="ssr:stedsnr" v="889587" />
	</node>
	<node id="-252994" lat="59.8217749974" lon="11.7608722151">
		<tag k="name" v="Bumåsan" />
		<tag k="natural" v="wetland" />
		<tag k="ssr:stedsnr" v="889584" />
	</node>
	<node id="-252991" lat="59.7399166684" lon="11.6757666691">
		<tag k="name" v="Langmyr" />
		<tag k="natural" v="wetland" />
		<tag k="ssr:stedsnr" v="889372" />
	</node>
	<node id="-252987" lat="59.7763027792" lon="11.5723611144">
		<tag k="name" v="Høgmåsan" />
		<tag k="natural" v="wetland" />
		<tag k="ssr:stedsnr" v="672512" />
	</node>
	<node id="-252985" lat="59.9622277733" lon="11.4597222284">
		<tag k="alt_name" v="Sletnermåsan" />
		<tag k="name" v="Slettnermåsan" />
		<tag k="natural" v="wetland" />
		<tag k="ssr:stedsnr" v="672480" />
	</node>
	<node id="-252981" lat="59.8475777821" lon="11.7857361149">
		<tag k="name" v="Tuven" />
		<tag k="natural" v="wetland" />
		<tag k="ssr:stedsnr" v="671353" />
	</node>
	<node id="-252967" lat="59.9139388929" lon="11.7966916718">
		<tag k="name" v="Nordre Bikkjemyra" />
		<tag k="natural" v="wetland" />
		<tag k="ssr:stedsnr" v="665467" />
	</node>
	<node id="-252966" lat="59.9338722261" lon="11.7615416637">
		<tag k="name" v="Mortensmyra" />
		<tag k="natural" v="wetland" />
		<tag k="ssr:stedsnr" v="665455" />
	</node>
	<node id="-252959" lat="59.9225861148" lon="11.7439416735">
		<tag k="name" v="Jeinstigtjenn" />
		<tag k="natural" v="wetland" />
		<tag k="ssr:stedsnr" v="664694" />
	</node>
	<node id="-252957" lat="59.6852583328" lon="11.5567583352">
		<tag k="name" v="Langmyr" />
		<tag k="natural" v="wetland" />
		<tag k="ssr:stedsnr" v="664335" />
	</node>
	<node id="-254810" lat="59.9638777765" lon="11.4170250069">
		<tag k="name" v="Grønlandsmyra" />
		<tag k="natural" v="wetland" />
		<tag k="ssr:stedsnr" v="343870" />
	</node>
	<node id="-252952" lat="59.8783944409" lon="11.7325944427">
		<tag k="name" v="Nordre Høgfagra" />
		<tag k="natural" v="wetland" />
		<tag k="ssr:stedsnr" v="663706" />
	</node>
	<node id="-252951" lat="59.8801972255" lon="11.7210694377">
		<tag k="name" v="Langemyr" />
		<tag k="natural" v="wetland" />
		<tag k="ssr:stedsnr" v="663705" />
	</node>
	<node id="-252949" lat="59.8586361117" lon="11.6068138907">
		<tag k="name" v="Goromyr" />
		<tag k="natural" v="wetland" />
		<tag k="ssr:stedsnr" v="662924" />
	</node>
	<node id="-252945" lat="59.7946333299" lon="11.9120805468">
		<tag k="name" v="Dammåsan" />
		<tag k="natural" v="wetland" />
		<tag k="ssr:stedsnr" v="662749" />
	</node>
	<node id="-252915" lat="59.9568666626" lon="11.7442166692">
		<tag k="name" v="Viermyra" />
		<tag k="natural" v="wetland" />
		<tag k="ssr:stedsnr" v="646906" />
	</node>
	<node id="-252912" lat="59.8146777759" lon="11.8514250024">
		<tag k="alt_name" v="Rekket, store;Store Rekke;Langerække" />
		<tag k="name" v="Store Rekket" />
		<tag k="natural" v="wetland" />
		<tag k="ssr:stedsnr" v="734151" />
	</node>
	<node id="-252909" lat="59.980038887" lon="11.7137388923">
		<tag k="name" v="Bikkjemyra" />
		<tag k="natural" v="wetland" />
		<tag k="ssr:stedsnr" v="646710" />
	</node>
	<node id="-252908" lat="59.9870638909" lon="11.6393277868">
		<tag k="name" v="Øvre Snortemyr" />
		<tag k="natural" v="wetland" />
		<tag k="ssr:stedsnr" v="646709" />
	</node>
	<node id="-254953" lat="59.6978083308" lon="11.5954305585">
		<tag k="alt_name" v="Bleksen" />
		<tag k="name" v="Bliksen" />
		<tag k="natural" v="wetland" />
		<tag k="ssr:stedsnr" v="368384" />
	</node>
	<node id="-254951" lat="59.673519449" lon="11.6785499972">
		<tag k="name" v="Bleiken" />
		<tag k="natural" v="wetland" />
		<tag k="ssr:stedsnr" v="368380" />
	</node>
	<node id="-254950" lat="59.8392361117" lon="11.8096249946">
		<tag k="name" v="Lange rekka" />
		<tag k="natural" v="wetland" />
		<tag k="ssr:stedsnr" v="368376" />
	</node>
	<node id="-253776" lat="59.8083555587" lon="11.7812555575">
		<tag k="name" v="Bringebærmyr" />
		<tag k="natural" v="wetland" />
		<tag k="ssr:stedsnr" v="40443" />
	</node>
	<node id="-254799" lat="59.9923083377" lon="11.5587388918">
		<tag k="name" v="Hokshaugmyra" />
		<tag k="natural" v="wetland" />
		<tag k="ssr:stedsnr" v="343597" />
	</node>
	<node id="-252888" lat="59.9648611091" lon="11.4119722297">
		<tag k="name" v="Lindåsmåsane" />
		<tag k="natural" v="wetland" />
		<tag k="ssr:stedsnr" v="733463" />
	</node>
	<node id="-252885" lat="59.7908277778" lon="11.5957972189">
		<tag k="name" v="Fuglemåsan" />
		<tag k="natural" v="wetland" />
		<tag k="ssr:stedsnr" v="733433" />
	</node>
	<node id="-254797" lat="59.7870222253" lon="11.3820638848">
		<tag k="name" v="Tyrihjellen" />
		<tag k="place" v="locality" />
		<tag k="ssr:stedsnr" v="343305" />
	</node>
	<node id="-252875" lat="59.7776249985" lon="11.5914222204">
		<tag k="alt_name" v="Sandemmåsane" />
		<tag k="name" v="Sandummåsane" />
		<tag k="natural" v="wetland" />
		<tag k="ssr:stedsnr" v="733406" />
	</node>
	<node id="-254920" lat="59.9122083303" lon="11.7705666694">
		<tag k="name" v="Kroktjennmåsan" />
		<tag k="natural" v="wetland" />
		<tag k="ssr:stedsnr" v="362431" />
	</node>
	<node id="-254917" lat="59.9269416697" lon="11.6073250059">
		<tag k="name" v="Askedalsmyra" />
		<tag k="natural" v="wetland" />
		<tag k="ssr:stedsnr" v="362598" />
	</node>
	<node id="-254916" lat="59.9014055524" lon="11.4112305498">
		<tag k="name" v="Storkilmåsan" />
		<tag k="natural" v="wetland" />
		<tag k="ssr:stedsnr" v="362492" />
	</node>
	<node id="-254904" lat="59.6695805547" lon="11.5571611033">
		<tag k="name" v="Søgardshagen" />
		<tag k="place" v="locality" />
		<tag k="ssr:stedsnr" v="361682" />
	</node>
	<node id="-251721" lat="59.6510583379" lon="11.8228749916">
		<tag k="name" v="Moltemåsamyr" />
		<tag k="natural" v="wetland" />
		<tag k="ssr:stedsnr" v="233121" />
	</node>
	<node id="-254895" lat="59.7763083314" lon="11.5675166693">
		<tag k="name" v="Nordre Høgmåsan" />
		<tag k="natural" v="wetland" />
		<tag k="ssr:stedsnr" v="360795" />
	</node>
	<node id="-254893" lat="59.9411611121" lon="11.6287472298">
		<tag k="name" v="Fittsprettmyra" />
		<tag k="natural" v="wetland" />
		<tag k="ssr:stedsnr" v="360730" />
	</node>
	<node id="-254892" lat="59.8379555529" lon="11.4361777698">
		<tag k="name" v="Orremåsan" />
		<tag k="natural" v="wetland" />
		<tag k="ssr:stedsnr" v="360639" />
	</node>
	<node id="-254891" lat="59.8763444414" lon="11.737447217">
		<tag k="name" v="Søndre Høgfagra" />
		<tag k="natural" v="wetland" />
		<tag k="ssr:stedsnr" v="360679" />
	</node>
	<node id="-254890" lat="59.8833722206" lon="11.7455166626">
		<tag k="name" v="Øytjennmåsan" />
		<tag k="natural" v="wetland" />
		<tag k="ssr:stedsnr" v="360678" />
	</node>
	<node id="-254889" lat="59.9534055525" lon="11.4345499943">
		<tag k="name" v="Hestehagen" />
		<tag k="place" v="locality" />
		<tag k="ssr:stedsnr" v="360398" />
	</node>
	<node id="-254888" lat="59.8846388908" lon="11.4944000032">
		<tag k="name" v="Burholtangen" />
		<tag k="place" v="locality" />
		<tag k="ssr:stedsnr" v="360351" />
	</node>
	<node id="-252837" lat="59.6807722232" lon="11.414200002">
		<tag k="name" v="Strandmåsan" />
		<tag k="natural" v="wetland" />
		<tag k="ssr:stedsnr" v="732804" />
	</node>
	<node id="-254884" lat="59.8926916662" lon="11.5051749998">
		<tag k="name" v="Dålimyrene" />
		<tag k="natural" v="wetland" />
		<tag k="ssr:stedsnr" v="359881" />
	</node>
	<node id="-254883" lat="59.8765055577" lon="11.6704611086">
		<tag k="name" v="Bjørnemyra" />
		<tag k="natural" v="wetland" />
		<tag k="ssr:stedsnr" v="359594" />
	</node>
	<node id="-254882" lat="59.8299999975" lon="11.3317944365">
		<tag k="name" v="Ensrudmåsan" />
		<tag k="natural" v="wetland" />
		<tag k="ssr:stedsnr" v="359733" />
	</node>
	<node id="-254876" lat="59.8721138868" lon="11.4707694504">
		<tag k="name" v="Molteholet" />
		<tag k="natural" v="wetland" />
		<tag k="ssr:stedsnr" v="358880" />
	</node>
	<node id="-254875" lat="59.7891611091" lon="11.8514027729">
		<tag k="name" v="Abbortjennmåsan" />
		<tag k="natural" v="wetland" />
		<tag k="ssr:stedsnr" v="358401" />
	</node>
	<node id="-254871" lat="59.6765833296" lon="11.7009305611">
		<tag k="name" v="Fallsmåsan" />
		<tag k="natural" v="wetland" />
		<tag k="ssr:stedsnr" v="354796" />
	</node>
	<node id="-252818" lat="59.683780552" lon="11.4943527784">
		<tag k="alt_name" v="Langmyra" />
		<tag k="name" v="Langmyr" />
		<tag k="natural" v="wetland" />
		<tag k="ssr:stedsnr" v="732373" />
	</node>
	<node id="-252816" lat="59.6791333317" lon="11.5570888837">
		<tag k="landuse" v="quarry" />
		<tag k="name" v="Stormoen" />
		<tag k="ssr:stedsnr" v="732355" />
	</node>
	<node id="-254849" lat="59.7670111082" lon="11.8791222185">
		<tag k="name" v="Langemåså" />
		<tag k="natural" v="wetland" />
		<tag k="ssr:stedsnr" v="354099" />
	</node>
	<node id="-254846" lat="59.6558861113" lon="11.8451000077">
		<tag k="name" v="Storemyra" />
		<tag k="natural" v="wetland" />
		<tag k="ssr:stedsnr" v="354073" />
	</node>
	<node id="-254844" lat="59.6496583298" lon="11.7645305536">
		<tag k="name" v="Lerretsmåsan" />
		<tag k="natural" v="wetland" />
		<tag k="ssr:stedsnr" v="354070" />
	</node>
	<node id="-254843" lat="59.6517499961" lon="11.7624499998">
		<tag k="name" v="Gulbrandslora" />
		<tag k="natural" v="wetland" />
		<tag k="ssr:stedsnr" v="354069" />
	</node>
	<node id="-252786" lat="59.8978944455" lon="11.4303416614">
		<tag k="name" v="Østre Saugmyr" />
		<tag k="natural" v="wetland" />
		<tag k="ssr:stedsnr" v="727490" />
	</node>
	<node id="-254828" lat="59.911655558" lon="11.6408499925">
		<tag k="name" v="Rundmåsan" />
		<tag k="natural" v="wetland" />
		<tag k="ssr:stedsnr" v="345792" />
	</node>
	<node id="-252776" lat="60.0069388891" lon="11.7527444503">
		<tag k="name" v="Svartkollmyra" />
		<tag k="natural" v="wetland" />
		<tag k="ssr:stedsnr" v="726933" />
	</node>
	<node id="-252774" lat="59.8164999973" lon="11.8269611171">
		<tag k="name" v="Lessemyr" />
		<tag k="natural" v="wetland" />
		<tag k="ssr:stedsnr" v="726880" />
	</node>
	<node id="-252773" lat="59.6544916633" lon="11.5748833346">
		<tag k="name" v="Langbråtemyr" />
		<tag k="natural" v="wetland" />
		<tag k="ssr:stedsnr" v="726689" />
	</node>
	<node id="-252772" lat="59.6655388858" lon="11.5737055516">
		<tag k="name" v="Engemyr" />
		<tag k="natural" v="wetland" />
		<tag k="ssr:stedsnr" v="726682" />
	</node>
	<node id="-254816" lat="59.9777888867" lon="11.6556527777">
		<tag k="name" v="Liervanglia" />
		<tag k="natural" v="wetland" />
		<tag k="ssr:stedsnr" v="344298" />
	</node>
	<node id="-252767" lat="59.6706138914" lon="11.5645222214">
		<tag k="name" v="Sletthellene" />
		<tag k="place" v="locality" />
		<tag k="ssr:stedsnr" v="726450" />
	</node>
	<node id="-254814" lat="59.9307027804" lon="11.3600722206">
		<tag k="name" v="Jegerhagen" />
		<tag k="place" v="locality" />
		<tag k="ssr:stedsnr" v="343989" />
	</node>
	<node id="-252763" lat="59.8541555563" lon="11.4649527777">
		<tag k="name" v="Øgardsmåsan" />
		<tag k="natural" v="wetland" />
		<tag k="ssr:stedsnr" v="726580" />
	</node>
	<node id="-252762" lat="59.8022944446" lon="11.9093249977">
		<tag k="name" v="Bøslorene" />
		<tag k="natural" v="wetland" />
		<tag k="ssr:stedsnr" v="726573" />
	</node>
	<node id="-254806" lat="60.0009527758" lon="11.6117333266">
		<tag k="name" v="Kjøltjennsnippen" />
		<tag k="place" v="locality" />
		<tag k="ssr:stedsnr" v="343736" />
	</node>
	<node id="-254805" lat="59.9857694404" lon="11.6240722141">
		<tag k="name" v="Svullmyra" />
		<tag k="natural" v="wetland" />
		<tag k="ssr:stedsnr" v="343711" />
	</node>
	<node id="-254804" lat="59.833958329" lon="11.3049277815">
		<tag k="name" v="Torsmyra" />
		<tag k="natural" v="wetland" />
		<tag k="ssr:stedsnr" v="343690" />
	</node>
	<node id="-252751" lat="59.9364527807" lon="11.6568944449">
		<tag k="name" v="Langmyra" />
		<tag k="natural" v="wetland" />
		<tag k="ssr:stedsnr" v="725697" />
	</node>
	<node id="-254798" lat="59.799477777" lon="11.7926583356">
		<tag k="name" v="Kvernhusmåsan" />
		<tag k="natural" v="wetland" />
		<tag k="ssr:stedsnr" v="343407" />
	</node>
	<node id="-252749" lat="59.894630552" lon="11.4609805603">
		<tag k="name" v="Stordalsmåsan" />
		<tag k="natural" v="wetland" />
		<tag k="ssr:stedsnr" v="725336" />
	</node>
	<node id="-254793" lat="59.8058500043" lon="11.5101749961">
		<tag k="name" v="Surka" />
		<tag k="place" v="locality" />
		<tag k="ssr:stedsnr" v="343210" />
	</node>
	<node id="-252743" lat="59.9549416705" lon="11.394216666">
		<tag k="name" v="Kambuholta" />
		<tag k="place" v="locality" />
		<tag k="ssr:stedsnr" v="725259" />
	</node>
	<node id="-254787" lat="59.9472722266" lon="11.6367166602">
		<tag k="name" v="Butjennmåsan" />
		<tag k="natural" v="wetland" />
		<tag k="ssr:stedsnr" v="343107" />
	</node>
	<node id="-254784" lat="59.7816305555" lon="11.761350007">
		<tag k="name" v="Vesle Lysermåsan" />
		<tag k="natural" v="wetland" />
		<tag k="ssr:stedsnr" v="343083" />
	</node>
	<node id="-252735" lat="59.847450004" lon="11.406449999">
		<tag k="name" v="Sætermyra" />
		<tag k="natural" v="wetland" />
		<tag k="ssr:stedsnr" v="724579" />
	</node>
	<node id="-254781" lat="59.9789166688" lon="11.5226611124">
		<tag k="name" v="Flomyra" />
		<tag k="natural" v="wetland" />
		<tag k="ssr:stedsnr" v="343007" />
	</node>
	<node id="-254779" lat="59.8220972181" lon="11.8215305479">
		<tag k="name" v="Geitemyra" />
		<tag k="natural" v="wetland" />
		<tag k="ssr:stedsnr" v="342864" />
	</node>
	<node id="-254778" lat="59.823483331" lon="11.8125999963">
		<tag k="name" v="Børresmyra" />
		<tag k="natural" v="wetland" />
		<tag k="ssr:stedsnr" v="342863" />
	</node>
	<node id="-252729" lat="59.8004805513" lon="11.8769972221">
		<tag k="name" v="Pipemåsan" />
		<tag k="natural" v="wetland" />
		<tag k="ssr:stedsnr" v="723732" />
	</node>
	<node id="-254772" lat="59.6965527782" lon="11.5115472225">
		<tag k="name" v="Stormåsan" />
		<tag k="natural" v="wetland" />
		<tag k="ssr:stedsnr" v="342143" />
	</node>
	<node id="-252724" lat="59.8572916631" lon="11.6121916671">
		<tag k="historic" v="shieling" />
		<tag k="name" v="Hyttesætra" />
		<tag k="place" v="locality" />
		<tag k="ssr:stedsnr" v="722943" />
	</node>
	<node id="-254771" lat="59.6991305568" lon="11.515794448">
		<tag k="name" v="Stormåsan" />
		<tag k="natural" v="wetland" />
		<tag k="ssr:stedsnr" v="342137" />
	</node>
	<node id="-254769" lat="59.7544861122" lon="11.6935805503">
		<tag k="name" v="Tiurleikmyra" />
		<tag k="natural" v="wetland" />
		<tag k="ssr:stedsnr" v="342009" />
	</node>
	<node id="-252720" lat="59.812630554" lon="11.5586805468">
		<tag k="name" v="Munken" />
		<tag k="natural" v="wetland" />
		<tag k="ssr:stedsnr" v="722152" />
	</node>
	<node id="-254739" lat="59.8650055511" lon="11.4500166699">
		<tag k="name" v="Breidmåsane" />
		<tag k="natural" v="wetland" />
		<tag k="ssr:stedsnr" v="308684" />
	</node>
	<node id="-254736" lat="59.877011109" lon="11.3749722219">
		<tag k="alt_name" v="Svanmåsan" />
		<tag k="name" v="Svanemåsan" />
		<tag k="natural" v="wetland" />
		<tag k="ssr:stedsnr" v="308640" />
	</node>
	<node id="-252682" lat="59.838019445" lon="11.7441694424">
		<tag k="name" v="Skaratjennmåsan" />
		<tag k="natural" v="wetland" />
		<tag k="ssr:stedsnr" v="605227" />
	</node>
	<node id="-254729" lat="59.9405002952" lon="11.3868049543">
		<tag k="name" v="Store Jarsmåsan" />
		<tag k="natural" v="wetland" />
		<tag k="ssr:stedsnr" v="308518" />
	</node>
	<node id="-254081" lat="59.9132166676" lon="11.737891671">
		<tag k="name" v="Tatermyra" />
		<tag k="natural" v="wetland" />
		<tag k="ssr:stedsnr" v="103734" />
	</node>
	<node id="-252671" lat="59.8155444461" lon="11.7499916658">
		<tag k="name" v="Aurtjennmåsan" />
		<tag k="natural" v="wetland" />
		<tag k="ssr:stedsnr" v="604612" />
	</node>
	<node id="-254718" lat="59.7727250002" lon="11.5399777707">
		<tag k="alt_name" v="Sameismyra" />
		<tag k="name" v="Sameiemyra" />
		<tag k="natural" v="wetland" />
		<tag k="ssr:stedsnr" v="308392" />
	</node>
	<node id="-252664" lat="59.9447944431" lon="11.7650833269">
		<tag k="name" v="Lappemyra" />
		<tag k="natural" v="wetland" />
		<tag k="ssr:stedsnr" v="604377" />
	</node>
	<node id="-252663" lat="59.9467749986" lon="11.7683472286">
		<tag k="name" v="Høymyra" />
		<tag k="natural" v="wetland" />
		<tag k="ssr:stedsnr" v="604374" />
	</node>
	<node id="-252657" lat="59.7772583347" lon="11.8104555595">
		<tag k="name" v="Setermåsån" />
		<tag k="natural" v="wetland" />
		<tag k="ssr:stedsnr" v="718017" />
	</node>
	<node id="-252655" lat="59.9201722259" lon="11.7803222251">
		<tag k="name" v="Saumyra" />
		<tag k="natural" v="wetland" />
		<tag k="ssr:stedsnr" v="604421" />
	</node>
	<node id="-252652" lat="59.8841138873" lon="11.389083332">
		<tag k="name" v="Sameiemyrene" />
		<tag k="natural" v="wetland" />
		<tag k="ssr:stedsnr" v="604042" />
	</node>
	<node id="-252651" lat="59.8824166678" lon="11.3968249917">
		<tag k="name" v="Lomsnesmyra" />
		<tag k="natural" v="wetland" />
		<tag k="ssr:stedsnr" v="604038" />
	</node>
	<node id="-252640" lat="59.8126916634" lon="11.7433527802">
		<tag k="name" v="Vesletjennmåsan" />
		<tag k="natural" v="wetland" />
		<tag k="ssr:stedsnr" v="602733" />
	</node>
	<node id="-252625" lat="59.8382555576" lon="11.5682888965">
		<tag k="name" v="Dammyra" />
		<tag k="natural" v="wetland" />
		<tag k="ssr:stedsnr" v="588885" />
	</node>
	<node id="-252619" lat="59.8516250025" lon="11.7646861202">
		<tag k="name" v="Gammelsæterholta" />
		<tag k="place" v="locality" />
		<tag k="ssr:stedsnr" v="587290" />
	</node>
	<node id="-252618" lat="59.8286166643" lon="11.8358611073">
		<tag k="name" v="Grønnemyr" />
		<tag k="natural" v="wetland" />
		<tag k="ssr:stedsnr" v="587285" />
	</node>
	<node id="-252608" lat="59.9937305582" lon="11.5660055489">
		<tag k="name" v="Lognemyra" />
		<tag k="natural" v="wetland" />
		<tag k="ssr:stedsnr" v="585537" />
	</node>
	<node id="-254652" lat="59.7066083331" lon="11.8980583259">
		<tag k="name" v="Dyvelmyra" />
		<tag k="natural" v="wetland" />
		<tag k="ssr:stedsnr" v="307416" />
	</node>
	<node id="-254648" lat="59.6835111075" lon="11.6434916702">
		<tag k="name" v="Risemåsan" />
		<tag k="natural" v="wetland" />
		<tag k="ssr:stedsnr" v="307352" />
	</node>
	<node id="-252599" lat="59.841472219" lon="11.5511833315">
		<tag k="name" v="Ilebekkmåsan" />
		<tag k="natural" v="wetland" />
		<tag k="ssr:stedsnr" v="709880" />
	</node>
	<node id="-252598" lat="59.8369472226" lon="11.4934000072">
		<tag k="name" v="Jutulen" />
		<tag k="natural" v="wetland" />
		<tag k="ssr:stedsnr" v="709858" />
	</node>
	<node id="-252593" lat="59.9112722235" lon="11.6866000012">
		<tag k="name" v="Blekketjennmåsan" />
		<tag k="natural" v="wetland" />
		<tag k="ssr:stedsnr" v="709783" />
	</node>
	<node id="-252590" lat="59.8425361102" lon="11.5932361147">
		<tag k="name" v="Husmannsmyra" />
		<tag k="natural" v="wetland" />
		<tag k="ssr:stedsnr" v="709764" />
	</node>
	<node id="-254636" lat="59.9358500033" lon="11.5828166682">
		<tag k="name" v="Badstumyra" />
		<tag k="natural" v="wetland" />
		<tag k="ssr:stedsnr" v="302581" />
	</node>
	<node id="-252586" lat="59.9475333328" lon="11.5734111055">
		<tag k="name" v="Trillemåsan" />
		<tag k="natural" v="wetland" />
		<tag k="ssr:stedsnr" v="709445" />
	</node>
	<node id="-254633" lat="59.9105027744" lon="11.4416916624">
		<tag k="name" v="Finholtmåsan" />
		<tag k="natural" v="wetland" />
		<tag k="ssr:stedsnr" v="302424" />
	</node>
	<node id="-252580" lat="59.867847219" lon="11.6557388842">
		<tag k="name" v="Langemyr" />
		<tag k="natural" v="wetland" />
		<tag k="ssr:stedsnr" v="709170" />
	</node>
	<node id="-254406" lat="59.8736638874" lon="11.7175694489">
		<tag k="name" v="Svarttjennbanken" />
		<tag k="place" v="locality" />
		<tag k="ssr:stedsnr" v="177595" />
	</node>
	<node id="-252578" lat="59.9489916644" lon="11.7374750048">
		<tag k="name" v="Gjøgåsmyra" />
		<tag k="natural" v="wetland" />
		<tag k="ssr:stedsnr" v="708925" />
	</node>
	<node id="-252577" lat="59.9518249992" lon="11.7420249974">
		<tag k="name" v="Vållangmyra" />
		<tag k="natural" v="wetland" />
		<tag k="ssr:stedsnr" v="708923" />
	</node>
	<node id="-252574" lat="59.980261115" lon="11.8014611137">
		<tag k="name" v="Haveråtangen" />
		<tag k="place" v="locality" />
		<tag k="ssr:stedsnr" v="707985" />
	</node>
	<node id="-254620" lat="59.7346083297" lon="11.5469305533">
		<tag k="name" v="Søndre Skovreimyr" />
		<tag k="natural" v="wetland" />
		<tag k="ssr:stedsnr" v="301577" />
	</node>
	<node id="-254619" lat="59.7224916699" lon="11.6777888948">
		<tag k="name" v="Skjærtjennmåsan" />
		<tag k="natural" v="wetland" />
		<tag k="ssr:stedsnr" v="301567" />
	</node>
	<node id="-254618" lat="59.8861027741" lon="11.8089722263">
		<tag k="name" v="Storemyr" />
		<tag k="natural" v="wetland" />
		<tag k="ssr:stedsnr" v="301501" />
	</node>
	<node id="-252568" lat="60.0114916711" lon="11.5385111047">
		<tag k="name" v="Ulvikmåsan" />
		<tag k="natural" v="wetland" />
		<tag k="ssr:stedsnr" v="707804" />
	</node>
	<node id="-254615" lat="59.9007166635" lon="11.7694111141">
		<tag k="name" v="Sørlimyra" />
		<tag k="natural" v="wetland" />
		<tag k="ssr:stedsnr" v="301436" />
	</node>
	<node id="-252566" lat="59.991325" lon="11.6767166588">
		<tag k="name" v="Presterudmåsan" />
		<tag k="natural" v="wetland" />
		<tag k="ssr:stedsnr" v="707713" />
	</node>
	<node id="-252565" lat="59.9939694477" lon="11.6014805561">
		<tag k="historic" v="shieling" />
		<tag k="name" v="Sæter" />
		<tag k="place" v="locality" />
		<tag k="ssr:stedsnr" v="707685" />
	</node>
	<node id="-252564" lat="59.984863888" lon="11.6330027823">
		<tag k="name" v="Snortemyra" />
		<tag k="natural" v="wetland" />
		<tag k="ssr:stedsnr" v="707673" />
	</node>
	<node id="-252563" lat="59.8405749962" lon="11.332730562">
		<tag k="name" v="Åmotmåsan" />
		<tag k="natural" v="wetland" />
		<tag k="ssr:stedsnr" v="707646" />
	</node>
	<node id="-252562" lat="59.984402782" lon="11.679922218">
		<tag k="name" v="Haugmyrene" />
		<tag k="natural" v="wetland" />
		<tag k="ssr:stedsnr" v="707635" />
	</node>
	<node id="-254609" lat="59.8597583363" lon="11.7687722231">
		<tag k="name" v="Perlemyra" />
		<tag k="natural" v="wetland" />
		<tag k="ssr:stedsnr" v="301191" />
	</node>
	<node id="-254608" lat="59.8624472199" lon="11.720477769">
		<tag k="name" v="Torebrennmyra" />
		<tag k="natural" v="wetland" />
		<tag k="ssr:stedsnr" v="301187" />
	</node>
	<node id="-254602" lat="59.8891055581" lon="11.7441666647">
		<tag k="name" v="Urvassmåsan" />
		<tag k="natural" v="wetland" />
		<tag k="ssr:stedsnr" v="300680" />
	</node>
	<node id="-252550" lat="59.7995972229" lon="11.6560666642">
		<tag k="name" v="Fuglemåsan" />
		<tag k="natural" v="wetland" />
		<tag k="ssr:stedsnr" v="707181" />
	</node>
	<node id="-252549" lat="59.8032777806" lon="11.6481222246">
		<tag k="name" v="Vesle Fossmyr" />
		<tag k="natural" v="wetland" />
		<tag k="ssr:stedsnr" v="707180" />
	</node>
	<node id="-252545" lat="59.9757666681" lon="11.5541833265">
		<tag k="name" v="Revtjennmyra" />
		<tag k="natural" v="wetland" />
		<tag k="ssr:stedsnr" v="707002" />
	</node>
	<node id="-254588" lat="59.9715499963" lon="11.6315083413">
		<tag k="name" v="Saumyra" />
		<tag k="natural" v="wetland" />
		<tag k="ssr:stedsnr" v="187971" />
	</node>
	<node id="-252537" lat="59.724825003" lon="11.4903111156">
		<tag k="name" v="Vesleslora" />
		<tag k="natural" v="wetland" />
		<tag k="ssr:stedsnr" v="706559" />
	</node>
	<node id="-252535" lat="59.8271333343" lon="11.6301361143">
		<tag k="name" v="Røysmyrene" />
		<tag k="natural" v="wetland" />
		<tag k="ssr:stedsnr" v="299439" />
	</node>
	<node id="-252534" lat="59.9029805529" lon="11.4184611045">
		<tag k="name" v="Morttjennmyra" />
		<tag k="natural" v="wetland" />
		<tag k="ssr:stedsnr" v="544514" />
	</node>
	<node id="-254578" lat="59.9186805576" lon="11.3479805587">
		<tag k="name" v="Spondalsmyra" />
		<tag k="natural" v="wetland" />
		<tag k="ssr:stedsnr" v="187576" />
	</node>
	<node id="-252527" lat="59.9639500026" lon="11.6522166683">
		<tag k="name" v="Syltehølet" />
		<tag k="natural" v="wetland" />
		<tag k="ssr:stedsnr" v="544137" />
	</node>
	<node id="-252525" lat="59.9708527816" lon="11.5846638808">
		<tag k="name" v="Brønnsmyra" />
		<tag k="natural" v="wetland" />
		<tag k="ssr:stedsnr" v="544128" />
	</node>
	<node id="-252523" lat="59.8705555531" lon="11.7448694495">
		<tag k="name" v="Abbortjennmåsan" />
		<tag k="natural" v="wetland" />
		<tag k="ssr:stedsnr" v="544055" />
	</node>
	<node id="-252522" lat="59.8836472207" lon="11.3915138958">
		<tag k="name" v="Sameia" />
		<tag k="place" v="locality" />
		<tag k="ssr:stedsnr" v="544040" />
	</node>
	<node id="-254568" lat="59.7840805518" lon="11.8404305505">
		<tag k="alt_name" v="Sæterøremosen" />
		<tag k="name" v="Seterøremåsan" />
		<tag k="natural" v="wetland" />
		<tag k="ssr:stedsnr" v="187409" />
	</node>
	<node id="-252519" lat="59.6915638875" lon="11.5939027737">
		<tag k="name" v="Kumyrholtet" />
		<tag k="place" v="locality" />
		<tag k="ssr:stedsnr" v="543359" />
	</node>
	<node id="-252517" lat="59.7919222263" lon="11.8619972139">
		<tag k="name" v="Hillertjennmåsan" />
		<tag k="natural" v="wetland" />
		<tag k="ssr:stedsnr" v="541757" />
	</node>
	<node id="-252515" lat="59.8859916698" lon="11.5430499942">
		<tag k="name" v="Dalhaug" />
		<tag k="place" v="locality" />
		<tag k="ssr:stedsnr" v="541644" />
	</node>
	<node id="-252514" lat="59.9485305553" lon="11.5868111057">
		<tag k="landuse" v="meadow" />
		<tag k="name" v="Engene" />
		<tag k="ssr:stedsnr" v="541371" />
	</node>
	<node id="-252510" lat="60.0124083341" lon="11.7302472256">
		<tag k="name" v="Lauvtjennmyra" />
		<tag k="natural" v="wetland" />
		<tag k="ssr:stedsnr" v="540199" />
	</node>
	<node id="-252505" lat="59.650669443" lon="11.8267111169">
		<tag k="name" v="Johannesmyra" />
		<tag k="natural" v="wetland" />
		<tag k="ssr:stedsnr" v="536179" />
	</node>
	<node id="-252502" lat="59.7792611146" lon="11.8871638889">
		<tag k="name" v="Nedre Flinttjennmåsan" />
		<tag k="natural" v="wetland" />
		<tag k="ssr:stedsnr" v="536040" />
	</node>
	<node id="-254544" lat="59.9599888869" lon="11.7574388868">
		<tag k="alt_name" v="Linnemyra" />
		<tag k="name" v="Lindemyra" />
		<tag k="natural" v="wetland" />
		<tag k="ssr:stedsnr" v="187103" />
	</node>
	<node id="-252493" lat="59.9503777805" lon="11.4926777798">
		<tag k="name" v="Fosserholta" />
		<tag k="place" v="locality" />
		<tag k="ssr:stedsnr" v="527405" />
	</node>
	<node id="-252492" lat="59.8457416665" lon="11.7679472303">
		<tag k="name" v="Abbortjennmåsan" />
		<tag k="natural" v="wetland" />
		<tag k="ssr:stedsnr" v="527248" />
	</node>
	<node id="-252489" lat="59.8606416643" lon="11.6783499992">
		<tag k="name" v="Fagermohagen" />
		<tag k="place" v="locality" />
		<tag k="ssr:stedsnr" v="527205" />
	</node>
	<node id="-252487" lat="60.0075777804" lon="11.5215083321">
		<tag k="name" v="Kalvemåsan" />
		<tag k="natural" v="wetland" />
		<tag k="ssr:stedsnr" v="525795" />
	</node>
	<node id="-254521" lat="59.776244447" lon="11.3907333277">
		<tag k="name" v="Fuglemåsan" />
		<tag k="natural" v="wetland" />
		<tag k="ssr:stedsnr" v="186846" />
	</node>
	<node id="-254512" lat="59.9408833302" lon="11.3763555508">
		<tag k="name" v="Vesle Jarsmåsan" />
		<tag k="natural" v="wetland" />
		<tag k="ssr:stedsnr" v="186589" />
	</node>
	<node id="-252457" lat="59.8777416644" lon="11.7325333275">
		<tag k="name" v="Høyfagra" />
		<tag k="natural" v="wetland" />
		<tag k="ssr:stedsnr" v="489231" />
	</node>
	<node id="-252456" lat="59.888055559" lon="11.7320583333">
		<tag k="name" v="Bjørnemyra" />
		<tag k="natural" v="wetland" />
		<tag k="ssr:stedsnr" v="489229" />
	</node>
	<node id="-254494" lat="59.7539500017" lon="11.5511249921">
		<tag k="alt_name" v="Høymyrane" />
		<tag k="name" v="Høymyrene" />
		<tag k="natural" v="wetland" />
		<tag k="ssr:stedsnr" v="186400" />
	</node>
	<node id="-252445" lat="59.7332444411" lon="11.5310277743">
		<tag k="name" v="Ulvemåsan" />
		<tag k="natural" v="wetland" />
		<tag k="ssr:stedsnr" v="483613" />
	</node>
	<node id="-252444" lat="59.9548250021" lon="11.7503000069">
		<tag k="name" v="Linnemyrholta" />
		<tag k="place" v="locality" />
		<tag k="ssr:stedsnr" v="483420" />
	</node>
	<node id="-252443" lat="59.6927277743" lon="11.567511117">
		<tag k="name" v="Svensmåsan" />
		<tag k="natural" v="wetland" />
		<tag k="ssr:stedsnr" v="483411" />
	</node>
	<node id="-252438" lat="59.8685000031" lon="11.8204944503">
		<tag k="name" v="Nordre Skjærtjennmyr" />
		<tag k="natural" v="wetland" />
		<tag k="ssr:stedsnr" v="483205" />
	</node>
	<node id="-252436" lat="59.9324444413" lon="11.6739555553">
		<tag k="name" v="Helgemåsan" />
		<tag k="natural" v="wetland" />
		<tag k="ssr:stedsnr" v="482720" />
	</node>
	<node id="-252435" lat="59.8366694455" lon="11.3523055531">
		<tag k="landuse" v="meadow" />
		<tag k="name" v="Åmotengene" />
		<tag k="ssr:stedsnr" v="482624" />
	</node>
	<node id="-254476" lat="59.8266861087" lon="11.592022228">
		<tag k="fixme" v="multiple name tags, choose one and add the other to alt_name" />
		<tag k="name" v="Ormemåsan;Åremåsane" />
		<tag k="natural" v="wetland" />
		<tag k="ssr:stedsnr" v="186311" />
	</node>
	<node id="-254472" lat="59.9020777811" lon="11.7012194445">
		<tag k="name" v="Korsmåsan" />
		<tag k="natural" v="wetland" />
		<tag k="ssr:stedsnr" v="186223" />
	</node>
	<node id="-252418" lat="59.7922999954" lon="11.9162194529">
		<tag k="name" v="Dammåsan" />
		<tag k="natural" v="wetland" />
		<tag k="ssr:stedsnr" v="480759" />
	</node>
	<node id="-252416" lat="59.8656833342" lon="11.4634499938">
		<tag k="name" v="Hesjemyrene" />
		<tag k="natural" v="wetland" />
		<tag k="ssr:stedsnr" v="480617" />
	</node>
	<node id="-252415" lat="59.8642388893" lon="11.4957111059">
		<tag k="name" v="Langmyra" />
		<tag k="natural" v="wetland" />
		<tag k="ssr:stedsnr" v="480611" />
	</node>
	<node id="-251306" lat="59.6717527807" lon="11.5843777865">
		<tag k="name" v="Vestre Fuglemåsan" />
		<tag k="natural" v="wetland" />
		<tag k="ssr:stedsnr" v="240454" />
	</node>
	<node id="-254458" lat="59.8809027737" lon="11.4686500072">
		<tag k="name" v="Ekornmyr" />
		<tag k="natural" v="wetland" />
		<tag k="ssr:stedsnr" v="300401" />
	</node>
	<node id="-254457" lat="59.8790138875" lon="11.5125277781">
		<tag k="name" v="Riveskaftmyra" />
		<tag k="natural" v="wetland" />
		<tag k="ssr:stedsnr" v="300397" />
	</node>
	<node id="-252404" lat="60.001924998" lon="11.701038882">
		<tag k="name" v="Sagmyra" />
		<tag k="natural" v="wetland" />
		<tag k="ssr:stedsnr" v="479059" />
	</node>
	<node id="-254450" lat="59.8018305552" lon="11.3352833382">
		<tag k="name" v="Bjørnebråtemåsan" />
		<tag k="natural" v="wetland" />
		<tag k="ssr:stedsnr" v="180829" />
	</node>
	<node id="-254447" lat="59.7937555594" lon="11.3478194386">
		<tag k="name" v="Posttjennmyrene" />
		<tag k="natural" v="wetland" />
		<tag k="ssr:stedsnr" v="180870" />
	</node>
	<node id="-254445" lat="59.6449388851" lon="11.5227916658">
		<tag k="name" v="Grindmyrene" />
		<tag k="natural" v="wetland" />
		<tag k="ssr:stedsnr" v="180685" />
	</node>
	<node id="-254441" lat="59.9061638896" lon="11.7602777854">
		<tag k="name" v="Bestefarmåsan" />
		<tag k="natural" v="wetland" />
		<tag k="ssr:stedsnr" v="180436" />
	</node>
	<node id="-254434" lat="59.9438194404" lon="11.7807444399">
		<tag k="name" v="Eriksmyra" />
		<tag k="natural" v="wetland" />
		<tag k="ssr:stedsnr" v="180381" />
	</node>
	<node id="-254429" lat="59.958577781" lon="11.6606555642">
		<tag k="name" v="Dammyra" />
		<tag k="natural" v="wetland" />
		<tag k="ssr:stedsnr" v="180148" />
	</node>
	<node id="-254427" lat="59.8717861091" lon="11.6918638828">
		<tag k="name" v="Blåpølmyr" />
		<tag k="natural" v="wetland" />
		<tag k="ssr:stedsnr" v="180048" />
	</node>
	<node id="-254424" lat="59.920466669" lon="11.6824027768">
		<tag k="name" v="Lisætermyra" />
		<tag k="natural" v="wetland" />
		<tag k="ssr:stedsnr" v="179746" />
	</node>
	<node id="-254423" lat="59.9269611078" lon="11.6842527694">
		<tag k="name" v="Milesteinsmyra" />
		<tag k="natural" v="wetland" />
		<tag k="ssr:stedsnr" v="179742" />
	</node>
	<node id="-254416" lat="59.6903000026" lon="11.6379138947">
		<tag k="name" v="Langrasta" />
		<tag k="natural" v="wetland" />
		<tag k="ssr:stedsnr" v="179348" />
	</node>
	<node id="-254414" lat="59.677663886" lon="11.5383444495">
		<tag k="name" v="Vikehagan" />
		<tag k="place" v="locality" />
		<tag k="ssr:stedsnr" v="179324" />
	</node>
	<node id="-254411" lat="59.9939305595" lon="11.6043472203">
		<tag k="name" v="Sjuvintertjennmåsan" />
		<tag k="natural" v="wetland" />
		<tag k="ssr:stedsnr" v="178149" />
	</node>
	<node id="-254410" lat="59.8844194418" lon="11.5098444362">
		<tag k="name" v="Vesle Oremåsan" />
		<tag k="natural" v="wetland" />
		<tag k="ssr:stedsnr" v="177885" />
	</node>
	<node id="-252360" lat="59.9062583366" lon="11.5620583283">
		<tag k="name" v="Liermåsan" />
		<tag k="natural" v="wetland" />
		<tag k="ssr:stedsnr" v="672013" />
	</node>
	<node id="-252358" lat="59.917463887" lon="11.7246166691">
		<tag k="name" v="Storfelten" />
		<tag k="natural" v="wetland" />
		<tag k="ssr:stedsnr" v="672009" />
	</node>
	<node id="-254403" lat="59.8824027742" lon="11.596647223">
		<tag k="landuse" v="meadow" />
		<tag k="name" v="Nyenga" />
		<tag k="ssr:stedsnr" v="177621" />
	</node>
	<node id="-254402" lat="59.7861888882" lon="11.8297444483">
		<tag k="name" v="Krokmyra" />
		<tag k="natural" v="wetland" />
		<tag k="ssr:stedsnr" v="177442" />
	</node>
	<node id="-254397" lat="59.880238885" lon="11.802544449">
		<tag k="name" v="Gardsmyr" />
		<tag k="natural" v="wetland" />
		<tag k="ssr:stedsnr" v="177009" />
	</node>
	<node id="-254396" lat="59.8695444429" lon="11.5031111075">
		<tag k="name" v="Årnesmåsan" />
		<tag k="natural" v="wetland" />
		<tag k="ssr:stedsnr" v="176865" />
	</node>
	<node id="-252345" lat="59.7433083375" lon="11.5560305516">
		<tag k="name" v="Bønsmåsan" />
		<tag k="natural" v="wetland" />
		<tag k="ssr:stedsnr" v="671680" />
	</node>
	<node id="-254390" lat="60.0005472192" lon="11.6254583344">
		<tag k="name" v="Kjøltjennmyrene" />
		<tag k="natural" v="wetland" />
		<tag k="ssr:stedsnr" v="176070" />
	</node>
	<node id="-254385" lat="59.6615833373" lon="11.7881722271">
		<tag k="name" v="Myrtaumyra" />
		<tag k="natural" v="wetland" />
		<tag k="ssr:stedsnr" v="172213" />
	</node>
	<node id="-252330" lat="60.0115972257" lon="11.8142361085">
		<tag k="name" v="Mortensmyr" />
		<tag k="natural" v="wetland" />
		<tag k="ssr:stedsnr" v="466909" />
	</node>
	<node id="-252329" lat="59.8451944448" lon="11.4829111176">
		<tag k="name" v="Jordmyra" />
		<tag k="natural" v="wetland" />
		<tag k="ssr:stedsnr" v="466865" />
	</node>
	<node id="-252327" lat="59.9017611114" lon="11.5039444482">
		<tag k="name" v="Moltemyra" />
		<tag k="natural" v="wetland" />
		<tag k="ssr:stedsnr" v="466458" />
	</node>
	<node id="-254374" lat="59.6819916697" lon="11.7174111125">
		<tag k="name" v="Tollefsetermåsan" />
		<tag k="natural" v="wetland" />
		<tag k="ssr:stedsnr" v="172119" />
	</node>
	<node id="-252323" lat="59.9135416691" lon="11.5641055604">
		<tag k="name" v="Bånnhølen" />
		<tag k="place" v="locality" />
		<tag k="ssr:stedsnr" v="466116" />
	</node>
	<node id="-254368" lat="59.6525583364" lon="11.7342722306">
		<tag k="name" v="Kollemyra" />
		<tag k="natural" v="wetland" />
		<tag k="ssr:stedsnr" v="172063" />
	</node>
	<node id="-252316" lat="59.8024166695" lon="11.4157361106">
		<tag k="name" v="Bjønnemyra" />
		<tag k="natural" v="wetland" />
		<tag k="ssr:stedsnr" v="465114" />
	</node>
	<node id="-252312" lat="59.9785027807" lon="11.4433111115">
		<tag k="name" v="Borstadmåsan" />
		<tag k="natural" v="wetland" />
		<tag k="ssr:stedsnr" v="465004" />
	</node>
	<node id="-254358" lat="59.7583777747" lon="11.8646638872">
		<tag k="name" v="Vestre Dypilmåsan" />
		<tag k="natural" v="wetland" />
		<tag k="ssr:stedsnr" v="171157" />
	</node>
	<node id="-252309" lat="59.9972277806" lon="11.6432388959">
		<tag k="name" v="Lessemyra" />
		<tag k="natural" v="wetland" />
		<tag k="ssr:stedsnr" v="464722" />
	</node>
	<node id="-252308" lat="60.0001027771" lon="11.7366416605">
		<tag k="name" v="Tvelessmyra" />
		<tag k="natural" v="wetland" />
		<tag k="ssr:stedsnr" v="464717" />
	</node>
	<node id="-252307" lat="59.8676305593" lon="11.7485416721">
		<tag k="name" v="Harahøgdmåsan" />
		<tag k="natural" v="wetland" />
		<tag k="ssr:stedsnr" v="464873" />
	</node>
	<node id="-252306" lat="60.0089722206" lon="11.561480555">
		<tag k="historic" v="shieling" />
		<tag k="name" v="Gamlevangen" />
		<tag k="place" v="locality" />
		<tag k="ssr:stedsnr" v="464826" />
	</node>
	<node id="-254352" lat="59.8143277742" lon="11.8658999991">
		<tag k="name" v="Rasmusmyr" />
		<tag k="natural" v="wetland" />
		<tag k="ssr:stedsnr" v="163845" />
	</node>
	<node id="-252303" lat="59.9878694443" lon="11.6291527863">
		<tag k="name" v="Skavreinmyra" />
		<tag k="natural" v="wetland" />
		<tag k="ssr:stedsnr" v="464660" />
	</node>
	<node id="-252299" lat="59.9671638845" lon="11.5405111184">
		<tag k="name" v="Morttjennmyra" />
		<tag k="natural" v="wetland" />
		<tag k="ssr:stedsnr" v="464013" />
	</node>
	<node id="-254344" lat="59.8976805585" lon="11.4745805532">
		<tag k="name" v="Posttjennmåsan" />
		<tag k="natural" v="wetland" />
		<tag k="ssr:stedsnr" v="162436" />
	</node>
	<node id="-254337" lat="59.9917472213" lon="11.6409722183">
		<tag k="name" v="Høltjennmyrene" />
		<tag k="natural" v="wetland" />
		<tag k="ssr:stedsnr" v="161693" />
	</node>
	<node id="-252286" lat="59.7333694462" lon="11.5441333325">
		<tag k="name" v="Froskemyr" />
		<tag k="natural" v="wetland" />
		<tag k="ssr:stedsnr" v="665639" />
	</node>
	<node id="-254357" lat="59.717527775" lon="11.9088777696">
		<tag k="name" v="Løftingstein" />
		<tag k="natural" v="stone" />
		<tag k="ssr:stedsnr" v="171111" />
	</node>
	<node id="-254329" lat="59.9552472205" lon="11.6574138924">
		<tag k="name" v="Haresteinen" />
		<tag k="natural" v="stone" />
		<tag k="ssr:stedsnr" v="161036" />
	</node>
	<node id="-252278" lat="59.8979750027" lon="11.7945777847">
		<tag k="name" v="Søndre Bikkjemyra" />
		<tag k="natural" v="wetland" />
		<tag k="ssr:stedsnr" v="665492" />
	</node>
	<node id="-252277" lat="59.9017277735" lon="11.7785111116">
		<tag k="name" v="Stormyra" />
		<tag k="natural" v="wetland" />
		<tag k="ssr:stedsnr" v="665491" />
	</node>
	<node id="-252275" lat="59.8800750026" lon="11.3488666732">
		<tag k="name" v="Helvetesmyra" />
		<tag k="natural" v="wetland" />
		<tag k="ssr:stedsnr" v="665047" />
	</node>
	<node id="-254322" lat="59.8929944481" lon="11.3976388832">
		<tag k="name" v="Orremyrene" />
		<tag k="natural" v="wetland" />
		<tag k="ssr:stedsnr" v="300283" />
	</node>
	<node id="-252272" lat="59.7744277738" lon="11.5936694462">
		<tag k="name" v="Geisteinsmyra" />
		<tag k="natural" v="wetland" />
		<tag k="ssr:stedsnr" v="664961" />
	</node>
	<node id="-252270" lat="59.7745916645" lon="11.5770944395">
		<tag k="name" v="Eikedalsmåsane" />
		<tag k="natural" v="wetland" />
		<tag k="ssr:stedsnr" v="664951" />
	</node>
	<node id="-254315" lat="59.8784055558" lon="11.4128166605">
		<tag k="name" v="Hestemyrene" />
		<tag k="natural" v="wetland" />
		<tag k="ssr:stedsnr" v="300264" />
	</node>
	<node id="-252259" lat="59.8812388907" lon="11.5234555601">
		<tag k="name" v="Rolighetsmyra" />
		<tag k="natural" v="wetland" />
		<tag k="ssr:stedsnr" v="662892" />
	</node>
	<node id="-252257" lat="59.8601249957" lon="11.4633222241">
		<tag k="name" v="Breimåsan" />
		<tag k="natural" v="wetland" />
		<tag k="ssr:stedsnr" v="662642" />
	</node>
	<node id="-252255" lat="59.8850305562" lon="11.6272055622">
		<tag k="name" v="Orremåsan" />
		<tag k="natural" v="wetland" />
		<tag k="ssr:stedsnr" v="662599" />
	</node>
	<node id="-254297" lat="59.7886222223" lon="11.4271611155">
		<tag k="name" v="Bergmåsan" />
		<tag k="natural" v="wetland" />
		<tag k="ssr:stedsnr" v="126871" />
	</node>
	<node id="-252247" lat="60.0106861077" lon="11.5851361109">
		<tag k="name" v="Dingsrudmåsan" />
		<tag k="natural" v="wetland" />
		<tag k="ssr:stedsnr" v="661048" />
	</node>
	<node id="-252239" lat="59.6526305578" lon="11.7518888933">
		<tag k="name" v="Bjuren" />
		<tag k="natural" v="wetland" />
		<tag k="ssr:stedsnr" v="657197" />
	</node>
	<node id="-254281" lat="59.7840249999" lon="11.5567500052">
		<tag k="alt_name" v="Sørlimyrene" />
		<tag k="name" v="Sørlimyrane" />
		<tag k="natural" v="wetland" />
		<tag k="ssr:stedsnr" v="126457" />
	</node>
	<node id="-253766" lat="60.0039805528" lon="11.5009638801">
		<tag k="name" v="Olamyrholta" />
		<tag k="place" v="locality" />
		<tag k="ssr:stedsnr" v="39639" />
	</node>
	<node id="-254277" lat="59.7732222224" lon="11.668686119">
		<tag k="name" v="Kvernmåsan" />
		<tag k="natural" v="wetland" />
		<tag k="ssr:stedsnr" v="126429" />
	</node>
	<node id="-254347" lat="59.9056583316" lon="11.5144166659">
		<tag k="name" v="Mærraholet" />
		<tag k="natural" v="wetland" />
		<tag k="ssr:stedsnr" v="163390" />
	</node>
	<node id="-254271" lat="59.8522722257" lon="11.7939750048">
		<tag k="name" v="Skåltjennmåsan" />
		<tag k="natural" v="wetland" />
		<tag k="ssr:stedsnr" v="126366" />
	</node>
	<node id="-252219" lat="59.6589361102" lon="11.8494777815">
		<tag k="name" v="Årnesmåsan" />
		<tag k="natural" v="wetland" />
		<tag k="ssr:stedsnr" v="657070" />
	</node>
	<node id="-252218" lat="59.6582888858" lon="11.8416833385">
		<tag k="name" v="Hundemyra" />
		<tag k="natural" v="wetland" />
		<tag k="ssr:stedsnr" v="657068" />
	</node>
	<node id="-254265" lat="59.8139222214" lon="11.6415805499">
		<tag k="name" v="Slorene" />
		<tag k="natural" v="wetland" />
		<tag k="ssr:stedsnr" v="126256" />
	</node>
	<node id="-254260" lat="59.80226944" lon="11.8092444462">
		<tag k="name" v="Abbortjennmyra" />
		<tag k="natural" v="wetland" />
		<tag k="ssr:stedsnr" v="126237" />
	</node>
	<node id="-254250" lat="59.9556111079" lon="11.694883335">
		<tag k="name" v="Midtfjellmåsan" />
		<tag k="natural" v="wetland" />
		<tag k="ssr:stedsnr" v="126116" />
	</node>
	<node id="-254249" lat="59.9625388923" lon="11.6432888963">
		<tag k="alt_name" v="Haukelundmåsan" />
		<tag k="name" v="Hauklundmåsan" />
		<tag k="natural" v="wetland" />
		<tag k="ssr:stedsnr" v="126098" />
	</node>
	<node id="-252198" lat="59.7424749997" lon="11.6798138955">
		<tag k="name" v="Stutemåsan" />
		<tag k="natural" v="wetland" />
		<tag k="ssr:stedsnr" v="429647" />
	</node>
	<node id="-252197" lat="59.8891694404" lon="11.3294888957">
		<tag k="name" v="Slorene" />
		<tag k="natural" v="wetland" />
		<tag k="ssr:stedsnr" v="429638" />
	</node>
	<node id="-254230" lat="59.8088027734" lon="11.3035277762">
		<tag k="alt_name" v="Langemyr" />
		<tag k="name" v="Langmyr" />
		<tag k="natural" v="wetland" />
		<tag k="ssr:stedsnr" v="125807" />
	</node>
	<node id="-252176" lat="59.6303444426" lon="11.5258111163">
		<tag k="name" v="Hestemyra" />
		<tag k="natural" v="wetland" />
		<tag k="ssr:stedsnr" v="423727" />
	</node>
	<node id="-252171" lat="59.7827833304" lon="11.728547216">
		<tag k="name" v="Kjøttbergmåsan" />
		<tag k="natural" v="wetland" />
		<tag k="ssr:stedsnr" v="423704" />
	</node>
	<node id="-252169" lat="59.9468666646" lon="11.8018999996">
		<tag k="name" v="Øysjøfossmyra" />
		<tag k="natural" v="wetland" />
		<tag k="ssr:stedsnr" v="423418" />
	</node>
	<node id="-252289" lat="59.6598833309" lon="11.577497216">
		<tag k="name" v="Kloppmåsan" />
		<tag k="natural" v="wetland" />
		<tag k="ssr:stedsnr" v="665718" />
	</node>
	<node id="-254210" lat="59.7171111139" lon="11.9139277863">
		<tag k="name" v="Korsmåsan" />
		<tag k="natural" v="wetland" />
		<tag k="ssr:stedsnr" v="125432" />
	</node>
	<node id="-252161" lat="59.972083331" lon="11.5891694379">
		<tag k="name" v="Kroktjennmyra" />
		<tag k="natural" v="wetland" />
		<tag k="ssr:stedsnr" v="423141" />
	</node>
	<node id="-252160" lat="59.9672749986" lon="11.6283249999">
		<tag k="name" v="Folemyra" />
		<tag k="natural" v="wetland" />
		<tag k="ssr:stedsnr" v="423131" />
	</node>
	<node id="-252157" lat="59.9325555567" lon="11.6344750062">
		<tag k="name" v="Åsmyra" />
		<tag k="natural" v="wetland" />
		<tag k="ssr:stedsnr" v="422747" />
	</node>
	<node id="-252156" lat="59.9223472218" lon="11.6971777829">
		<tag k="name" v="Åkermyra" />
		<tag k="natural" v="wetland" />
		<tag k="ssr:stedsnr" v="422739" />
	</node>
	<node id="-252153" lat="59.8350666664" lon="11.3953277836">
		<tag k="name" v="Høymyr" />
		<tag k="natural" v="wetland" />
		<tag k="ssr:stedsnr" v="421630" />
	</node>
	<node id="-252151" lat="59.8838888916" lon="11.7314888883">
		<tag k="landuse" v="quarry" />
		<tag k="name" v="Klebersteinsbruddet" />
		<tag k="ssr:stedsnr" v="421705" />
	</node>
	<node id="-252140" lat="59.8487166623" lon="11.4851750072">
		<tag k="name" v="Garsvikmyra" />
		<tag k="natural" v="wetland" />
		<tag k="ssr:stedsnr" v="406854" />
	</node>
	<node id="-252139" lat="59.8958416631" lon="11.7252111164">
		<tag k="name" v="Langemyr" />
		<tag k="natural" v="wetland" />
		<tag k="ssr:stedsnr" v="406802" />
	</node>
	<node id="-252138" lat="59.8492694446" lon="11.7608999979">
		<tag k="name" v="Den lange måsan" />
		<tag k="natural" v="wetland" />
		<tag k="ssr:stedsnr" v="406255" />
	</node>
	<node id="-252136" lat="59.9570499996" lon="11.4717722216">
		<tag k="name" v="Balterudmyra" />
		<tag k="natural" v="wetland" />
		<tag k="ssr:stedsnr" v="406410" />
	</node>
	<node id="-252135" lat="59.9025527756" lon="11.5020388811">
		<tag k="name" v="Kumyra" />
		<tag k="natural" v="wetland" />
		<tag k="ssr:stedsnr" v="405456" />
	</node>
	<node id="-254923" lat="59.7816888898" lon="11.7752194423">
		<tag k="name" v="Kubråteholtet" />
		<tag k="place" v="locality" />
		<tag k="ssr:stedsnr" v="362831" />
	</node>
	<node id="-252128" lat="59.7031861155" lon="11.3718527716">
		<tag k="name" v="Setemåsan" />
		<tag k="natural" v="wetland" />
		<tag k="ssr:stedsnr" v="508208" />
	</node>
	<node id="-252126" lat="59.793366665" lon="11.6446805634">
		<tag k="name" v="Stolpevikmyra" />
		<tag k="natural" v="wetland" />
		<tag k="ssr:stedsnr" v="404160" />
	</node>
	<node id="-252125" lat="59.7433999985" lon="11.4543805545">
		<tag k="name" v="Ankerløkka" />
		<tag k="place" v="locality" />
		<tag k="ssr:stedsnr" v="508168" />
	</node>
	<node id="-252124" lat="59.7573583321" lon="11.4567638884">
		<tag k="name" v="Hjellebølmåsan" />
		<tag k="natural" v="wetland" />
		<tag k="ssr:stedsnr" v="508156" />
	</node>
	<node id="-252123" lat="59.9492916701" lon="11.649719437">
		<tag k="name" v="Køddebakkmyra" />
		<tag k="natural" v="wetland" />
		<tag k="ssr:stedsnr" v="404104" />
	</node>
	<node id="-252118" lat="59.9558638867" lon="11.6584305485">
		<tag k="name" v="Svartlitjennmyra" />
		<tag k="natural" v="wetland" />
		<tag k="ssr:stedsnr" v="404010" />
	</node>
	<node id="-252117" lat="59.7075194475" lon="11.4075944487">
		<tag k="name" v="Øygarden" />
		<tag k="place" v="locality" />
		<tag k="ssr:stedsnr" v="508126" />
	</node>
	<node id="-252115" lat="59.7186222248" lon="11.4443694472">
		<tag k="name" v="Vormsund" />
		<tag k="place" v="locality" />
		<tag k="ssr:stedsnr" v="508119" />
	</node>
	<node id="-254162" lat="59.6328972194" lon="11.5359888922">
		<tag k="name" v="Veslemåsan" />
		<tag k="natural" v="wetland" />
		<tag k="ssr:stedsnr" v="119738" />
	</node>
	<node id="-254153" lat="59.6061083295" lon="11.4962138944">
		<tag k="name" v="Fuglemåsan" />
		<tag k="natural" v="wetland" />
		<tag k="ssr:stedsnr" v="119565" />
	</node>
	<node id="-254149" lat="59.6711555557" lon="11.5277972232">
		<tag k="name" v="Høylundmåsan" />
		<tag k="natural" v="wetland" />
		<tag k="ssr:stedsnr" v="119444" />
	</node>
	<node id="-254326" lat="59.7114861152" lon="11.6795222233">
		<tag k="name" v="Vestre Skarabolsætermåsan" />
		<tag k="natural" v="wetland" />
		<tag k="ssr:stedsnr" v="160880" />
	</node>
	<node id="-252098" lat="59.8649222197" lon="11.4474055508">
		<tag k="name" v="Blåkollmåsan" />
		<tag k="natural" v="wetland" />
		<tag k="ssr:stedsnr" v="362565" />
	</node>
	<node id="-252094" lat="59.8164166637" lon="11.3221944431">
		<tag k="name" v="Elgedalsmåsan" />
		<tag k="natural" v="wetland" />
		<tag k="ssr:stedsnr" v="362406" />
	</node>
	<node id="-252093" lat="59.9666111116" lon="11.6721944395">
		<tag k="name" v="Ormemyra" />
		<tag k="natural" v="wetland" />
		<tag k="ssr:stedsnr" v="362160" />
	</node>
	<node id="-254140" lat="59.7707111114" lon="11.5693305533">
		<tag k="name" v="Eikedalsmåsan" />
		<tag k="natural" v="wetland" />
		<tag k="ssr:stedsnr" v="118786" />
	</node>
	<node id="-252091" lat="59.9654305559" lon="11.5999583275">
		<tag k="name" v="Skytterstumåsan" />
		<tag k="natural" v="wetland" />
		<tag k="ssr:stedsnr" v="362112" />
	</node>
	<node id="-252090" lat="59.8641111154" lon="11.7095000009">
		<tag k="name" v="Aurkytetjenn" />
		<tag k="natural" v="wetland" />
		<tag k="ssr:stedsnr" v="362208" />
	</node>
	<node id="-254137" lat="59.9284777766" lon="11.6635416746">
		<tag k="name" v="Orremåsan" />
		<tag k="natural" v="wetland" />
		<tag k="ssr:stedsnr" v="118737" />
	</node>
	<node id="-254136" lat="59.8451305551" lon="11.3763777771">
		<tag k="name" v="Dammåsan" />
		<tag k="natural" v="wetland" />
		<tag k="ssr:stedsnr" v="118587" />
	</node>
	<node id="-252087" lat="59.6552750003" lon="11.5337749938">
		<tag k="name" v="Fuglemåsan" />
		<tag k="natural" v="wetland" />
		<tag k="ssr:stedsnr" v="361715" />
	</node>
	<node id="-252074" lat="59.9340250027" lon="11.7461055482">
		<tag k="name" v="Kinnemyra" />
		<tag k="natural" v="wetland" />
		<tag k="ssr:stedsnr" v="360218" />
	</node>
	<node id="-252072" lat="60.0005484437" lon="11.8158067452">
		<tag k="name" v="Tørrhalåsmyra" />
		<tag k="natural" v="wetland" />
		<tag k="ssr:stedsnr" v="360119" />
	</node>
	<node id="-252071" lat="59.8908277817" lon="11.5683944492">
		<tag k="name" v="Lemmeholen" />
		<tag k="natural" v="wetland" />
		<tag k="ssr:stedsnr" v="359618" />
	</node>
	<node id="-251249" lat="59.6508222237" lon="11.7706444423">
		<tag k="name" v="Halvorslora" />
		<tag k="natural" v="wetland" />
		<tag k="ssr:stedsnr" v="51208" />
	</node>
	<node id="-252063" lat="59.8708416679" lon="11.488200007">
		<tag k="name" v="Huldermyra" />
		<tag k="natural" v="wetland" />
		<tag k="ssr:stedsnr" v="358860" />
	</node>
	<node id="-252061" lat="59.7956361126" lon="11.8223972225">
		<tag k="name" v="Ellefsmyr" />
		<tag k="natural" v="wetland" />
		<tag k="ssr:stedsnr" v="358403" />
	</node>
	<node id="-254108" lat="59.6526999977" lon="11.825444447">
		<tag k="name" v="Kleivmyr" />
		<tag k="natural" v="wetland" />
		<tag k="ssr:stedsnr" v="111191" />
	</node>
	<node id="-252054" lat="59.7884083355" lon="11.8805027852">
		<tag k="alt_name" v="Bjønnehimåsan" />
		<tag k="name" v="Bjørnhimåsan" />
		<tag k="natural" v="wetland" />
		<tag k="ssr:stedsnr" v="491161" />
	</node>
	<node id="-252033" lat="59.7953722252" lon="11.5945277749">
		<tag k="name" v="Høgmåsan" />
		<tag k="natural" v="wetland" />
		<tag k="ssr:stedsnr" v="490462" />
	</node>
	<node id="-254079" lat="59.8522888931" lon="11.3953527837">
		<tag k="name" v="Vaskemyra" />
		<tag k="natural" v="wetland" />
		<tag k="ssr:stedsnr" v="103676" />
	</node>
	<node id="-254073" lat="59.9040833364" lon="11.4804777803">
		<tag k="name" v="Hellebakkmyra" />
		<tag k="natural" v="wetland" />
		<tag k="ssr:stedsnr" v="102500" />
	</node>
	<node id="-252024" lat="59.7758861092" lon="11.8409277757">
		<tag k="alt_name" v="Bronsmosen" />
		<tag k="name" v="Bronsmåså" />
		<tag k="natural" v="wetland" />
		<tag k="ssr:stedsnr" v="490417" />
	</node>
	<node id="-252022" lat="59.7799083288" lon="11.6118611191">
		<tag k="alt_name" v="Gjershaugmåsan" />
		<tag k="name" v="Store Gjershaugmåsan" />
		<tag k="natural" v="wetland" />
		<tag k="ssr:stedsnr" v="490413" />
	</node>
	<node id="-254069" lat="59.9718027748" lon="11.7418666709">
		<tag k="name" v="Sjømyra" />
		<tag k="natural" v="wetland" />
		<tag k="ssr:stedsnr" v="102417" />
	</node>
	<node id="-252019" lat="59.7633999989" lon="11.5167805616">
		<tag k="alt_name" v="Småmyra" />
		<tag k="name" v="Småmyrene" />
		<tag k="natural" v="wetland" />
		<tag k="ssr:stedsnr" v="490399" />
	</node>
	<node id="-254065" lat="59.9753249996" lon="11.6779694488">
		<tag k="name" v="Brann" />
		<tag k="place" v="locality" />
		<tag k="ssr:stedsnr" v="102356" />
	</node>
	<node id="-254064" lat="59.979097221" lon="11.6513500031">
		<tag k="name" v="Liervangen" />
		<tag k="place" v="locality" />
		<tag k="ssr:stedsnr" v="102349" />
	</node>
	<node id="-254063" lat="59.8511916703" lon="11.7514000023">
		<tag k="name" v="Østre Bjørnbassmåsan" />
		<tag k="natural" v="wetland" />
		<tag k="ssr:stedsnr" v="102310" />
	</node>
	<node id="-254062" lat="59.8345527799" lon="11.7813333326">
		<tag k="name" v="Lembrumåsan" />
		<tag k="natural" v="wetland" />
		<tag k="ssr:stedsnr" v="102296" />
	</node>
	<node id="-254061" lat="59.8359999984" lon="11.7638194363">
		<tag k="name" v="Smådalsmåsan" />
		<tag k="natural" v="wetland" />
		<tag k="ssr:stedsnr" v="102295" />
	</node>
	<node id="-252010" lat="59.8438861084" lon="11.6158361121">
		<tag k="name" v="Grasmåsan" />
		<tag k="natural" v="wetland" />
		<tag k="ssr:stedsnr" v="490328" />
	</node>
	<node id="-254052" lat="59.9542694418" lon="11.7299027761">
		<tag k="name" v="Vålåsmyrene" />
		<tag k="natural" v="wetland" />
		<tag k="ssr:stedsnr" v="101932" />
	</node>
	<node id="-254051" lat="59.9192000005" lon="11.3369972151">
		<tag k="name" v="Attholdsdammen" />
		<tag k="natural" v="wetland" />
		<tag k="ssr:stedsnr" v="101910" />
	</node>
	<node id="-254046" lat="59.7894388861" lon="11.5874361055">
		<tag k="name" v="Råneholet" />
		<tag k="natural" v="wetland" />
		<tag k="ssr:stedsnr" v="101175" />
	</node>
	<node id="-251995" lat="59.8576277787" lon="11.4906750038">
		<tag k="name" v="Delingsmyra" />
		<tag k="natural" v="wetland" />
		<tag k="ssr:stedsnr" v="490149" />
	</node>
	<node id="-254037" lat="60.0060527778" lon="11.5293027796">
		<tag k="name" v="Persmyra" />
		<tag k="natural" v="wetland" />
		<tag k="ssr:stedsnr" v="100770" />
	</node>
	<node id="-254027" lat="59.7075000025" lon="11.478605557">
		<tag k="name" v="Torget" />
		<tag k="place" v="locality" />
		<tag k="ssr:stedsnr" v="100740" />
	</node>
	<node id="-254024" lat="59.9998583359" lon="11.5709638899">
		<tag k="name" v="Brennbergsmåsan" />
		<tag k="natural" v="wetland" />
		<tag k="ssr:stedsnr" v="100549" />
	</node>
	<node id="-254019" lat="59.6954666681" lon="11.3885833263">
		<tag k="name" v="Saltmyra" />
		<tag k="natural" v="wetland" />
		<tag k="ssr:stedsnr" v="83210" />
	</node>
	<node id="-251966" lat="59.6972222187" lon="11.9042694358">
		<tag k="name" v="Furukollmåsan" />
		<tag k="natural" v="wetland" />
		<tag k="ssr:stedsnr" v="489420" />
	</node>
	<node id="-254008" lat="59.810683329" lon="11.8363999997">
		<tag k="name" v="Veslerekka" />
		<tag k="natural" v="wetland" />
		<tag k="old_name" v="Vesle-Rekka" />
		<tag k="ssr:stedsnr" v="66266" />
	</node>
	<node id="-251959" lat="59.8939055569" lon="11.8001000012">
		<tag k="name" v="Grønsetmyra" />
		<tag k="natural" v="wetland" />
		<tag k="ssr:stedsnr" v="489282" />
	</node>
	<node id="-253999" lat="59.7706611108" lon="11.8776166619">
		<tag k="name" v="Gatemåsan" />
		<tag k="natural" v="wetland" />
		<tag k="ssr:stedsnr" v="66223" />
	</node>
	<node id="-251943" lat="59.9980972265" lon="11.5013444497">
		<tag k="name" v="Høldalsmyra" />
		<tag k="natural" v="wetland" />
		<tag k="ssr:stedsnr" v="344352" />
	</node>
	<node id="-251942" lat="59.9998444488" lon="11.5033944432">
		<tag k="name" v="Olamyra" />
		<tag k="natural" v="wetland" />
		<tag k="ssr:stedsnr" v="344348" />
	</node>
	<node id="-254641" lat="59.681844447" lon="11.8504472274">
		<tag k="name" v="Høymyra" />
		<tag k="natural" v="wetland" />
		<tag k="ssr:stedsnr" v="307068" />
	</node>
	<node id="-251938" lat="59.9653083318" lon="11.6566083371">
		<tag k="name" v="Rømmegrautmyra" />
		<tag k="natural" v="wetland" />
		<tag k="ssr:stedsnr" v="484138" />
	</node>
	<node id="-251934" lat="59.8812499989" lon="11.813694444">
		<tag k="name" v="Ulvemyr" />
		<tag k="natural" v="wetland" />
		<tag k="ssr:stedsnr" v="483537" />
	</node>
	<node id="-254166" lat="59.9688500023" lon="11.5868555592">
		<tag k="name" v="Vivangmyra" />
		<tag k="natural" v="wetland" />
		<tag k="ssr:stedsnr" v="120110" />
	</node>
	<node id="-251922" lat="59.7678805515" lon="11.5545416615">
		<tag k="name" v="Sætermyrene" />
		<tag k="natural" v="wetland" />
		<tag k="ssr:stedsnr" v="482788" />
	</node>
	<node id="-251920" lat="59.9323194471" lon="11.6889472192">
		<tag k="name" v="Langmyra" />
		<tag k="natural" v="wetland" />
		<tag k="ssr:stedsnr" v="482739" />
	</node>
	<node id="-251918" lat="59.873663888" lon="11.467094441">
		<tag k="name" v="Knollsmåsan" />
		<tag k="natural" v="wetland" />
		<tag k="ssr:stedsnr" v="482390" />
	</node>
	<node id="-251917" lat="59.8893472216" lon="11.5048694408">
		<tag k="name" v="Burhosætermåsan" />
		<tag k="natural" v="wetland" />
		<tag k="ssr:stedsnr" v="482388" />
	</node>
	<node id="-251916" lat="59.8875861123" lon="11.3558861113">
		<tag k="name" v="Viggernesabbortjenn" />
		<tag k="natural" v="wetland" />
		<tag k="ssr:stedsnr" v="482248" />
	</node>
	<node id="-253960" lat="59.7792083295" lon="11.551516667">
		<tag k="name" v="Valtronsmyrane" />
		<tag k="natural" v="wetland" />
		<tag k="ssr:stedsnr" v="65431" />
	</node>
	<node id="-251909" lat="59.8091611116" lon="11.6575611041">
		<tag k="name" v="Kallemyr" />
		<tag k="natural" v="wetland" />
		<tag k="ssr:stedsnr" v="481523" />
	</node>
</osm>
