<?xml version="1.0" encoding="UTF-8"?>
<osm generator="osmapis" version="0.6">
	<node id="-29056" lat="59.6996412574" lon="11.9453906696">
		<tag k="historic" v="boundary_stone" />
		<tag k="man_made" v="cairn" />
		<tag k="name" v="Langebekk" />
		<tag k="place" v="locality" />
		<tag k="ssr:stedsnr" v="171637" />
	</node>
	<node id="-29053" lat="59.6254906327" lon="11.7205433754">
		<tag k="alt_name" v="Langvassrøys" />
		<tag k="historic" v="boundary_stone" />
		<tag k="man_made" v="cairn" />
		<tag k="name" v="Nordre Langvassrøysa" />
		<tag k="old_name" v="Nordre Langeva(n)ds Røset;Nordre Langvatnrøset;N. Langvands Rös" />
		<tag k="place" v="locality" />
		<tag k="ssr:stedsnr" v="535567" />
	</node>
	<node id="-29051" lat="59.6945853108" lon="11.9398678018">
		<tag k="alt_name" v="Tua" />
		<tag k="historic" v="boundary_stone" />
		<tag k="man_made" v="cairn" />
		<tag k="name" v="Tua i Hvitsjøen" />
		<tag k="old_name" v="Hjertat i Holmesjøn;Hjertet i Hvitesiøen;Tufwan i Tåken;Tuven i Taaken" />
		<tag k="place" v="locality" />
		<tag k="ssr:stedsnr" v="595589" />
	</node>
	<node id="-29050" lat="59.8286068006" lon="11.8724849637">
		<tag k="historic" v="boundary_stone" />
		<tag k="man_made" v="cairn" />
		<tag k="name" v="Fjellbusteinen" />
		<tag k="old_name" v="Fieldboe Steenen" />
		<tag k="place" v="locality" />
		<tag k="ssr:stedsnr" v="595327" />
	</node>
	<node id="-29049" lat="59.7725760332" lon="11.9310024982">
		<tag k="alt_name" v="Store Strøtjernet" />
		<tag k="historic" v="boundary_stone" />
		<tag k="man_made" v="cairn" />
		<tag k="name" v="Strøtjern" />
		<tag k="old_name" v="Strøe Kiernet;Strøekiærnet" />
		<tag k="place" v="locality" />
		<tag k="ssr:stedsnr" v="292550" />
	</node>
	<node id="-29048" lat="59.8346324665" lon="11.8475087397">
		<tag k="historic" v="boundary_stone" />
		<tag k="man_made" v="cairn" />
		<tag k="name" v="Høneheirøysa" />
		<tag k="old_name" v="Hyneheds Røset" />
		<tag k="place" v="locality" />
		<tag k="ssr:stedsnr" v="838385" />
	</node>
	<node id="-29046" lat="59.6943649787" lon="11.9313762466">
		<tag k="alt_name" v="Tukusjø røys" />
		<tag k="historic" v="boundary_stone" />
		<tag k="man_made" v="cairn" />
		<tag k="name" v="Tukusjørøysa" />
		<tag k="old_name" v="Tuksiøe Røset" />
		<tag k="place" v="locality" />
		<tag k="ssr:stedsnr" v="170608" />
	</node>
	<node id="-29044" lat="59.6932154829" lon="11.8892205239">
		<tag k="historic" v="boundary_stone" />
		<tag k="loc_name" v="Blekketjennsrøysa" />
		<tag k="man_made" v="cairn" />
		<tag k="name" v="Blekketjern røys" />
		<tag k="old_name" v="Blekerkiærns Røset" />
		<tag k="place" v="locality" />
		<tag k="ssr:stedsnr" v="899615" />
	</node>
	<node id="-29043" lat="59.7814840246" lon="11.9272721072">
		<tag k="historic" v="boundary_stone" />
		<tag k="man_made" v="cairn" />
		<tag k="name" v="Hornsjødammen" />
		<tag k="place" v="locality" />
		<tag k="ssr:stedsnr" v="413585" />
	</node>
	<node id="-24305" lat="59.6373194489" lon="11.7612972188">
		<tag k="fixme" v="multiple name tags, choose one and add the other to alt_name" />
		<tag k="historic" v="boundary_stone" />
		<tag k="loc_name" v="Okserøysa" />
		<tag k="man_made" v="cairn" />
		<tag k="name" v="Oksen;Oksen røys" />
		<tag k="old_name" v="Oxen i Oxekiærnet;Oksen Rös" />
		<tag k="place" v="locality" />
		<tag k="ssr:stedsnr" v="474577" />
	</node>
	<node id="-24304" lat="59.8301527809" lon="11.8537138831">
		<tag k="historic" v="boundary_stone" />
		<tag k="man_made" v="cairn" />
		<tag k="name" v="Holmetjern" />
		<tag k="old_name" v="Holmsiøen" />
		<tag k="place" v="locality" />
		<tag k="ssr:stedsnr" v="474354" />
	</node>
	<node id="-24303" lat="59.8164575497" lon="11.8942499756">
		<tag k="fixme" v="multiple name tags, choose one and add the other to alt_name" />
		<tag k="historic" v="boundary_stone" />
		<tag k="man_made" v="cairn" />
		<tag k="name" v="Grindtjern;Grindtjernsvaet" />
		<tag k="place" v="locality" />
		<tag k="ssr:stedsnr" v="474351" />
	</node>
	<node id="-29033" lat="59.9027831835" lon="11.0418645935">
		<tag k="fixme" v="consider boundary=protected_area and relevant protect_class if not nature reserve" />
		<tag k="leisure" v="nature_reserve" />
		<tag k="name" v="Ramstadslottet naturreservat" />
		<tag k="ssr:stedsnr" v="972730" />
	</node>
	<node id="-23656" lat="59.7938749958" lon="11.9259750032">
		<tag k="historic" v="boundary_stone" />
		<tag k="man_made" v="cairn" />
		<tag k="name" v="Langebekk" />
		<tag k="place" v="locality" />
		<tag k="ssr:stedsnr" v="231639" />
	</node>
	<node id="-28325" lat="59.8598805548" lon="11.6914722197">
		<tag k="fixme" v="consider boundary=protected_area and relevant protect_class if not nature reserve" />
		<tag k="leisure" v="nature_reserve" />
		<tag k="name" v="Fagermåsan naturreservat" />
		<tag k="ssr:stedsnr" v="769180" />
	</node>
	<node id="-29015" lat="60.0021934256" lon="11.8149641549">
		<tag k="fixme" v="consider boundary=protected_area and relevant protect_class if not nature reserve" />
		<tag k="leisure" v="nature_reserve" />
		<tag k="name" v="Tørrhardåsen naturreservat" />
		<tag k="ssr:stedsnr" v="1074744" />
	</node>
	<node id="-28244" lat="59.8135361123" lon="11.847297227">
		<tag k="fixme" v="consider boundary=protected_area and relevant protect_class if not nature reserve" />
		<tag k="leisure" v="nature_reserve" />
		<tag k="name" v="Store Rekke naturreservat" />
		<tag k="ssr:stedsnr" v="646610" />
	</node>
	<node id="-24400" lat="59.7862583375" lon="11.9100138947">
		<tag k="fixme" v="consider boundary=protected_area and relevant protect_class if not nature reserve" />
		<tag k="leisure" v="nature_reserve" />
		<tag k="name" v="Hølvannet naturreservat" />
		<tag k="ssr:stedsnr" v="483751" />
	</node>
	<node id="-26488" lat="59.7566638854" lon="11.9316916644">
		<tag k="alt_name" v="Røvann" />
		<tag k="historic" v="boundary_stone" />
		<tag k="man_made" v="cairn" />
		<tag k="name" v="Røvannet" />
		<tag k="old_name" v="Røvandet" />
		<tag k="place" v="locality" />
		<tag k="ssr:stedsnr" v="100550" />
	</node>
	<node id="-26062" lat="59.8814890674" lon="11.4025137347">
		<tag k="fixme" v="consider boundary=protected_area and relevant protect_class if not nature reserve" />
		<tag k="leisure" v="nature_reserve" />
		<tag k="name" v="Prestehesten naturreservat" />
		<tag k="ssr:stedsnr" v="971491" />
	</node>
	<node id="-25932" lat="59.6527416689" lon="11.8624444509">
		<tag k="alt_name" v="Mosehals" />
		<tag k="historic" v="boundary_stone" />
		<tag k="loc_name" v="Myrhalsrøysa" />
		<tag k="man_made" v="cairn" />
		<tag k="name" v="Mosehalsrøysa" />
		<tag k="old_name" v="Moosehals Røset;Mosehals Rös" />
		<tag k="place" v="locality" />
		<tag k="ssr:stedsnr" v="899611" />
	</node>
	<node id="-28874" lat="59.6435527747" lon="11.786836112">
		<tag k="alt_name" v="Romungs røys" />
		<tag k="historic" v="boundary_stone" />
		<tag k="man_made" v="cairn" />
		<tag k="name" v="Rømungsrøysa" />
		<tag k="old_name" v="Romungs Røset" />
		<tag k="place" v="locality" />
		<tag k="ssr:stedsnr" v="959485" />
	</node>
	<node id="-28873" lat="59.6409027783" lon="11.7723638881">
		<tag k="historic" v="boundary_stone" />
		<tag k="loc_name" v="Dyvelrøysa" />
		<tag k="man_made" v="cairn" />
		<tag k="name" v="Dyvlene røys" />
		<tag k="old_name" v="Gaase Røset;Dyflings Røset;Dyvlinge Rös" />
		<tag k="place" v="locality" />
		<tag k="ssr:stedsnr" v="959481" />
	</node>
	<node id="-28872" lat="59.6478777779" lon="11.8495138883">
		<tag k="alt_name" v="Vestre Grindfoss røys" />
		<tag k="historic" v="boundary_stone" />
		<tag k="man_made" v="cairn" />
		<tag k="name" v="Vestre Grindfossrøysa" />
		<tag k="old_name" v="Vestre Grindefors Røset;V. Grindefors Røs" />
		<tag k="place" v="locality" />
		<tag k="ssr:stedsnr" v="959479" />
	</node>
	<node id="-28231" lat="59.9562277769" lon="11.6905972226">
		<tag k="fixme" v="consider boundary=protected_area and relevant protect_class if not nature reserve" />
		<tag k="leisure" v="nature_reserve" />
		<tag k="name" v="Midtfjellmosen naturreservat" />
		<tag k="ssr:stedsnr" v="646021" />
	</node>
	<node id="-24390" lat="59.7299305535" lon="11.4872916656">
		<tag k="fixme" v="consider boundary=protected_area and relevant protect_class if not nature reserve" />
		<tag k="leisure" v="nature_reserve" />
		<tag k="name" v="Bergsjø-Hølandselva naturreservat" />
		<tag k="ssr:stedsnr" v="483439" />
	</node>
	<node id="-24389" lat="59.7386930332" lon="11.4597720563">
		<tag k="fixme" v="consider boundary=protected_area and relevant protect_class if not nature reserve" />
		<tag k="leisure" v="nature_reserve" />
		<tag k="name" v="Hellesjøvann naturreservat" />
		<tag k="ssr:stedsnr" v="483436" />
	</node>
	<node id="-24765" lat="59.7274944466" lon="11.9371083265">
		<tag k="historic" v="boundary_stone" />
		<tag k="man_made" v="cairn" />
		<tag k="name" v="Fjørbekktjenn" />
		<tag k="old_name" v="Fierebekskiærn" />
		<tag k="place" v="locality" />
		<tag k="ssr:stedsnr" v="464602" />
	</node>
	<node id="-24180" lat="59.7463416701" lon="11.8044555516">
		<tag k="fixme" v="specify shooting=range, clay_pigeon etc" />
		<tag k="leisure" v="pitch" />
		<tag k="name" v="Skytterhuset" />
		<tag k="sport" v="shooting" />
		<tag k="ssr:stedsnr" v="233035" />
	</node>
	<node id="-26550" lat="59.7904750021" lon="11.9269611136">
		<tag k="historic" v="boundary_stone" />
		<tag k="man_made" v="cairn" />
		<tag k="name" v="Hornsjøen" />
		<tag k="old_name" v="Hornsiøen" />
		<tag k="place" v="locality" />
		<tag k="ssr:stedsnr" v="110594" />
	</node>
	<node id="-26543" lat="59.9169666673" lon="11.7268194433">
		<tag k="fixme" v="consider boundary=protected_area and relevant protect_class if not nature reserve" />
		<tag k="leisure" v="nature_reserve" />
		<tag k="name" v="Storfelten naturreservat" />
		<tag k="ssr:stedsnr" v="103732" />
	</node>
	<node id="-24680" lat="59.8115583369" lon="11.8983944466">
		<tag k="historic" v="boundary_stone" />
		<tag k="man_made" v="cairn" />
		<tag k="name" v="Lille Krokvatnet" />
		<tag k="old_name" v="Lille Krogvand" />
		<tag k="place" v="locality" />
		<tag k="ssr:stedsnr" v="656599" />
	</node>
	<node id="-25772" lat="59.6430277748" lon="11.7789833342">
		<tag k="historic" v="boundary_stone" />
		<tag k="man_made" v="cairn" />
		<tag k="name" v="Rømungsøyet" />
		<tag k="old_name" v="Romungs Øyet" />
		<tag k="place" v="locality" />
		<tag k="ssr:stedsnr" v="777521" />
	</node>
	<node id="-26551" lat="59.7113416707" lon="11.9332916587">
		<tag k="historic" v="boundary_stone" />
		<tag k="man_made" v="cairn" />
		<tag k="name" v="Nedre Langebekk" />
		<tag k="place" v="locality" />
		<tag k="ssr:stedsnr" v="110628" />
	</node>
	<node id="-26823" lat="59.7472055545" lon="11.9235277728">
		<tag k="fixme" v="multiple name tags, choose one and add the other to alt_name" />
		<tag k="historic" v="boundary_stone" />
		<tag k="man_made" v="cairn" />
		<tag k="name" v="Røvassdammen;Øvre Langebekk" />
		<tag k="place" v="locality" />
		<tag k="ssr:stedsnr" v="171642" />
	</node>
	<node id="-29041" lat="59.6724923505" lon="11.8752399902">
		<tag k="alt_name" v="Porstjernrøysa" />
		<tag k="historic" v="boundary_stone" />
		<tag k="loc_name" v="Porstjennsrøysa" />
		<tag k="man_made" v="cairn" />
		<tag k="name" v="Porstjenn røys" />
		<tag k="old_name" v="Porskiærns Røset;Porstjern Rös" />
		<tag k="place" v="locality" />
		<tag k="ssr:stedsnr" v="777604" />
	</node>
	<node id="-25506" lat="59.6828333308" lon="11.8780388834">
		<tag k="alt_name" v="Tverrbekk røys" />
		<tag k="historic" v="boundary_stone" />
		<tag k="man_made" v="cairn" />
		<tag k="name" v="Tverrbekkrøysa" />
		<tag k="old_name" v="Twerbeks Røset;Tverbæk Rös" />
		<tag k="place" v="locality" />
		<tag k="ssr:stedsnr" v="891634" />
	</node>
	<node id="-26272" lat="59.8145738271" lon="11.8968677669">
		<tag k="historic" v="boundary_stone" />
		<tag k="man_made" v="cairn" />
		<tag k="name" v="Krokvatnet" />
		<tag k="old_name" v="Krogvandet" />
		<tag k="place" v="locality" />
		<tag k="ssr:stedsnr" v="49605" />
	</node>
	<node id="-29040" lat="59.6982510503" lon="11.9448882193">
		<tag k="historic" v="boundary_stone" />
		<tag k="man_made" v="cairn" />
		<tag k="name" v="Langebekk" />
		<tag k="place" v="locality" />
		<tag k="ssr:stedsnr" v="656631" />
	</node>
	<node id="-23705" lat="59.6727972188" lon="11.6796305606">
		<tag k="fixme" v="consider boundary=protected_area and relevant protect_class if not nature reserve" />
		<tag k="leisure" v="nature_reserve" />
		<tag k="name" v="Bleiken naturreservat" />
		<tag k="ssr:stedsnr" v="235099" />
	</node>
	<node id="-28429" lat="59.6678888913" lon="11.4783055561">
		<tag k="fixme" v="consider boundary=protected_area and relevant protect_class if not nature reserve" />
		<tag k="leisure" v="nature_reserve" />
		<tag k="name" v="Kragtorpvika naturreservat" />
		<tag k="ssr:stedsnr" v="787287" />
	</node>
	<node id="-23945" lat="59.6486305558" lon="11.8561916729">
		<tag k="alt_name" v="Østre Grindefoss røys" />
		<tag k="historic" v="boundary_stone" />
		<tag k="man_made" v="cairn" />
		<tag k="name" v="Østre Grindfossrøysa" />
		<tag k="old_name" v="Østre Grindefors Røset" />
		<tag k="place" v="locality" />
		<tag k="ssr:stedsnr" v="110538" />
	</node>
	<node id="-25223" lat="59.6722166676" lon="11.5849805639">
		<tag k="fixme" v="consider boundary=protected_area and relevant protect_class if not nature reserve" />
		<tag k="leisure" v="nature_reserve" />
		<tag k="name" v="Vestre Fuglemosen naturreservat" />
		<tag k="ssr:stedsnr" v="726310" />
	</node>
	<node id="-26372" lat="59.7102694475" lon="11.4334500022">
		<tag k="fixme" v="consider boundary=protected_area and relevant protect_class if not nature reserve" />
		<tag k="leisure" v="nature_reserve" />
		<tag k="name" v="Kollerudvika naturreservat" />
		<tag k="ssr:stedsnr" v="59280" />
	</node>
	<node id="-29057" lat="59.6625420758" lon="11.8702962721">
		<tag k="alt_name" v="Furumo røys" />
		<tag k="historic" v="boundary_stone" />
		<tag k="man_made" v="cairn" />
		<tag k="name" v="Furumorøysa" />
		<tag k="old_name" v="Furemoe Røset" />
		<tag k="place" v="locality" />
		<tag k="ssr:stedsnr" v="403569" />
	</node>
</osm>
