<?xml version="1.0" encoding="UTF-8"?>
<osm generator="osmapis" version="0.6">
	<node id="-116736" lat="61.9352453517" lon="8.97995201509">
		<tag k="fixme" v="consider place=hamlet" />
		<tag k="name" v="Skjerstulen" />
		<tag k="place" v="farm" />
		<tag k="ssr:stedsnr" v="436113" />
	</node>
	<node id="-116734" lat="61.7368749982" lon="9.08360277209">
		<tag k="historic" v="shieling" />
		<tag k="name" v="Pina" />
		<tag k="place" v="locality" />
		<tag k="ssr:stedsnr" v="435962" />
	</node>
	<node id="-116733" lat="61.8063472265" lon="9.28808888946">
		<tag k="name" v="Søre Kleive" />
		<tag k="place" v="farm" />
		<tag k="ssr:stedsnr" v="435889" />
	</node>
	<node id="-116732" lat="61.7959277792" lon="9.35864999385">
		<tag k="name" v="Tolstadskridu" />
		<tag k="place" v="farm" />
		<tag k="ssr:stedsnr" v="435881" />
	</node>
	<node id="-116729" lat="61.5493750006" lon="8.91293611371">
		<tag k="fixme" v="consider tourism=alpine_hut or tourism=chalet" />
		<tag k="name" v="Besstrond" />
		<tag k="ssr:stedsnr" v="435855" />
		<tag k="tourism" v="wilderness_hut" />
	</node>
	<node id="-116728" lat="61.8414722212" lon="9.23366111193">
		<tag k="name" v="Fonstad" />
		<tag k="place" v="farm" />
		<tag k="ssr:stedsnr" v="435828" />
	</node>
	<node id="-116727" lat="61.8366027765" lon="9.27335277867">
		<tag k="alt_name" v="Midtre Enge" />
		<tag k="name" v="Enge" />
		<tag k="place" v="farm" />
		<tag k="ssr:stedsnr" v="435818" />
	</node>
	<node id="-116726" lat="61.8298750033" lon="9.29451667171">
		<tag k="name" v="Tolstadkleive" />
		<tag k="place" v="farm" />
		<tag k="ssr:stedsnr" v="435797" />
	</node>
	<node id="-116725" lat="61.6351166684" lon="9.02606666041">
		<tag k="historic" v="shieling" />
		<tag k="name" v="Sallii" />
		<tag k="place" v="locality" />
		<tag k="ssr:stedsnr" v="435790" />
	</node>
	<node id="-116720" lat="61.6768777758" lon="9.10341112054">
		<tag k="historic" v="shieling" />
		<tag k="name" v="Vakkersletta" />
		<tag k="place" v="locality" />
		<tag k="ssr:stedsnr" v="435767" />
	</node>
	<node id="-116718" lat="61.8078888896" lon="9.19103611699">
		<tag k="historic" v="shieling" />
		<tag k="name" v="Svenstadsætri" />
		<tag k="place" v="locality" />
		<tag k="ssr:stedsnr" v="435494" />
	</node>
	<node id="-116717" lat="61.7879805567" lon="9.18968055005">
		<tag k="alt_name" v="Kjøllstadsætri, nedre" />
		<tag k="historic" v="shieling" />
		<tag k="name" v="Nedre Kjøllstadsætri" />
		<tag k="place" v="locality" />
		<tag k="ssr:stedsnr" v="435475" />
	</node>
	<node id="-116716" lat="61.7972166634" lon="9.18253054718">
		<tag k="historic" v="shieling" />
		<tag k="name" v="Barhaugsætri" />
		<tag k="place" v="locality" />
		<tag k="ssr:stedsnr" v="435471" />
	</node>
	<node id="-116712" lat="61.8952750679" lon="9.02872031461">
		<tag k="fixme" v="consider place=hamlet" />
		<tag k="name" v="Hågån" />
		<tag k="place" v="farm" />
		<tag k="ssr:stedsnr" v="435409" />
	</node>
	<node id="-116711" lat="61.8583363607" lon="8.94681584673">
		<tag k="fixme" v="consider place=hamlet" />
		<tag k="name" v="Grev" />
		<tag k="place" v="farm" />
		<tag k="ssr:stedsnr" v="435342" />
	</node>
	<node id="-116710" lat="61.8612611104" lon="8.97009999302">
		<tag k="alt_name" v="Sveom" />
		<tag k="name" v="Øvre Sveum" />
		<tag k="place" v="farm" />
		<tag k="ssr:stedsnr" v="435339" />
	</node>
	<node id="-116709" lat="61.8594278044" lon="8.99353764695">
		<tag k="name" v="Sandnes" />
		<tag k="place" v="hamlet" />
		<tag k="ssr:stedsnr" v="435336" />
	</node>
	<node id="-116707" lat="61.8616194422" lon="9.11220278639">
		<tag k="name" v="Plassen" />
		<tag k="place" v="farm" />
		<tag k="ssr:stedsnr" v="435325" />
	</node>
	<node id="-116706" lat="61.8574694476" lon="9.20256667058">
		<tag k="alt_name" v="Austrem, s;Søre Austrem" />
		<tag k="name" v="Systugu Austrem" />
		<tag k="place" v="farm" />
		<tag k="ssr:stedsnr" v="435314" />
	</node>
	<node id="-116705" lat="61.8458962233" lon="8.9812744271">
		<tag k="name" v="Åsberg" />
		<tag k="place" v="farm" />
		<tag k="ssr:stedsnr" v="435304" />
	</node>
	<node id="-116703" lat="61.9102386941" lon="8.99597516272">
		<tag k="alt_name" v="Skjesvoll" />
		<tag k="name" v="Nistugun Skjedsvoll" />
		<tag k="place" v="farm" />
		<tag k="ssr:stedsnr" v="435193" />
	</node>
	<node id="-116702" lat="61.9075305561" lon="9.08209444924">
		<tag k="alt_name" v="Hesthovdan" />
		<tag k="name" v="Hesthovda" />
		<tag k="place" v="locality" />
		<tag k="ssr:stedsnr" v="435188" />
	</node>
	<node id="-116695" lat="61.4798027788" lon="8.81949166838">
		<tag k="name" v="Leirungsbuin" />
		<tag k="place" v="isolated_dwelling" />
		<tag k="ssr:stedsnr" v="433774" />
	</node>
	<node id="-116680" lat="61.6135527792" lon="8.96617499871">
		<tag k="historic" v="shieling" />
		<tag k="name" v="Løken" />
		<tag k="place" v="locality" />
		<tag k="ssr:stedsnr" v="253815" />
	</node>
	<node id="-116676" lat="61.6361055554" lon="9.01864165848">
		<tag k="historic" v="shieling" />
		<tag k="name" v="Borkhus" />
		<tag k="place" v="locality" />
		<tag k="ssr:stedsnr" v="253793" />
	</node>
	<node id="-116674" lat="61.8110749959" lon="9.267974996">
		<tag k="name" v="Hovda" />
		<tag k="place" v="farm" />
		<tag k="ssr:stedsnr" v="253783" />
	</node>
	<node id="-116673" lat="61.8162361137" lon="9.2370166601">
		<tag k="historic" v="shieling" />
		<tag k="name" v="Nysætre" />
		<tag k="place" v="locality" />
		<tag k="ssr:stedsnr" v="253780" />
	</node>
	<node id="-116671" lat="61.8052777756" lon="9.1907361087">
		<tag k="alt_name" v="Staesætre" />
		<tag k="historic" v="shieling" />
		<tag k="name" v="Staisætri" />
		<tag k="place" v="locality" />
		<tag k="ssr:stedsnr" v="253489" />
	</node>
	<node id="-116670" lat="61.8061416637" lon="9.18770554931">
		<tag k="historic" v="shieling" />
		<tag k="name" v="Veslbråtåsætri" />
		<tag k="place" v="locality" />
		<tag k="ssr:stedsnr" v="253490" />
	</node>
	<node id="-116669" lat="61.780266669" lon="9.17039444332">
		<tag k="historic" v="shieling" />
		<tag k="loc_name" v="Staisætre" />
		<tag k="name" v="Staisætri" />
		<tag k="place" v="locality" />
		<tag k="ssr:stedsnr" v="253474" />
	</node>
	<node id="-116668" lat="61.77208758" lon="9.05355058688">
		<tag k="historic" v="shieling" />
		<tag k="name" v="Vellesætri" />
		<tag k="place" v="locality" />
		<tag k="ssr:stedsnr" v="253468" />
	</node>
	<node id="-116667" lat="61.7732118574" lon="9.05171422413">
		<tag k="alt_name" v="Nordigard" />
		<tag k="historic" v="shieling" />
		<tag k="name" v="Nordigard Valdesætre" />
		<tag k="place" v="locality" />
		<tag k="ssr:stedsnr" v="253463" />
	</node>
	<node id="-116664" lat="61.7580833371" lon="9.07031111439">
		<tag k="historic" v="shieling" />
		<tag k="name" v="Kalven" />
		<tag k="place" v="locality" />
		<tag k="ssr:stedsnr" v="253445" />
	</node>
	<node id="-116663" lat="61.891457527" lon="9.04835195145">
		<tag k="name" v="Svare" />
		<tag k="place" v="hamlet" />
		<tag k="ssr:stedsnr" v="253421" />
	</node>
	<node id="-116661" lat="61.8839338639" lon="9.13815323365">
		<tag k="alt_name" v="Søre Vassdokken" />
		<tag k="loc_name" v="Vassdokkje" />
		<tag k="name" v="Vassdokki" />
		<tag k="place" v="farm" />
		<tag k="ssr:stedsnr" v="253404" />
	</node>
	<node id="-116659" lat="61.8667222188" lon="9.14284166027">
		<tag k="name" v="Nyheim" />
		<tag k="place" v="farm" />
		<tag k="ssr:stedsnr" v="253376" />
	</node>
	<node id="-116658" lat="61.8662666654" lon="9.1407777843">
		<tag k="name" v="Skoglund" />
		<tag k="place" v="farm" />
		<tag k="ssr:stedsnr" v="253374" />
	</node>
	<node id="-116657" lat="61.861449869" lon="9.00577407769">
		<tag k="fixme" v="consider place=hamlet" />
		<tag k="name" v="Sande" />
		<tag k="place" v="farm" />
		<tag k="ssr:stedsnr" v="253348" />
	</node>
	<node id="-116655" lat="61.8606805515" lon="9.16416945339">
		<tag k="alt_name" v="Bråten, nedre;Ner-Bråtån" />
		<tag k="name" v="Nedre Bråten" />
		<tag k="place" v="farm" />
		<tag k="ssr:stedsnr" v="253331" />
	</node>
	<node id="-116652" lat="61.9240361125" lon="8.99390555453">
		<tag k="alt_name" v="Brennslette" />
		<tag k="name" v="Brennsletta" />
		<tag k="place" v="farm" />
		<tag k="ssr:stedsnr" v="253176" />
	</node>
	<node id="-116649" lat="61.7254527767" lon="8.95401666509">
		<tag k="name" v="Larsbue" />
		<tag k="place" v="isolated_dwelling" />
		<tag k="ssr:stedsnr" v="252973" />
	</node>
	<node id="-116646" lat="61.5727916698" lon="8.92486389508">
		<tag k="name" v="Russtangen" />
		<tag k="place" v="isolated_dwelling" />
		<tag k="ssr:stedsnr" v="252801" />
	</node>
	<node id="-116637" lat="61.8168694403" lon="9.04360833372">
		<tag k="alt_name" v="Ripstrondsætre" />
		<tag k="historic" v="shieling" />
		<tag k="name" v="Ripstrondsætri" />
		<tag k="place" v="locality" />
		<tag k="ssr:stedsnr" v="252431" />
	</node>
	<node id="-116620" lat="61.9268892827" lon="8.97958566102">
		<tag k="name" v="Øygarden" />
		<tag k="place" v="hamlet" />
		<tag k="ssr:stedsnr" v="236336" />
	</node>
	<node id="-116619" lat="61.9281055558" lon="8.95029167586">
		<tag k="name" v="Einstulen" />
		<tag k="place" v="farm" />
		<tag k="ssr:stedsnr" v="236332" />
	</node>
	<node id="-116617" lat="61.822183333" lon="9.25846389694">
		<tag k="name" v="Teigen" />
		<tag k="place" v="farm" />
		<tag k="ssr:stedsnr" v="231926" />
	</node>
	<node id="-116616" lat="61.7980055595" lon="9.30313333142">
		<tag k="name" v="Sørhaugen" />
		<tag k="place" v="locality" />
		<tag k="ssr:stedsnr" v="231723" />
	</node>
	<node id="-116609" lat="61.8584083366" lon="9.11714166138">
		<tag k="name" v="Bergendin" />
		<tag k="place" v="farm" />
		<tag k="ssr:stedsnr" v="223969" />
	</node>
	<node id="-116605" lat="61.8972138862" lon="9.04120000903">
		<tag k="alt_name" v="Galstad" />
		<tag k="name" v="Søre Galstad" />
		<tag k="place" v="farm" />
		<tag k="ssr:stedsnr" v="223842" />
	</node>
	<node id="-116604" lat="61.8731805582" lon="9.20435277536">
		<tag k="name" v="Søre Myrom" />
		<tag k="place" v="farm" />
		<tag k="ssr:stedsnr" v="223838" />
	</node>
	<node id="-116603" lat="61.6240055524" lon="9.01336111643">
		<tag k="name" v="Sallisaga" />
		<tag k="place" v="locality" />
		<tag k="ssr:stedsnr" v="223649" />
	</node>
	<node id="-116601" lat="61.8745472245" lon="9.03501389234">
		<tag k="name" v="Uppstad" />
		<tag k="place" v="isolated_dwelling" />
		<tag k="ssr:stedsnr" v="223248" />
	</node>
	<node id="-116600" lat="61.8724166667" lon="9.03052221755">
		<tag k="name" v="Jordet" />
		<tag k="place" v="farm" />
		<tag k="ssr:stedsnr" v="223242" />
	</node>
	<node id="-116598" lat="61.8605527759" lon="9.15342221741">
		<tag k="name" v="Granheim" />
		<tag k="place" v="isolated_dwelling" />
		<tag k="ssr:stedsnr" v="223234" />
	</node>
	<node id="-116597" lat="61.8595222214" lon="9.07290278187">
		<tag k="name" v="Blankenborg" />
		<tag k="place" v="farm" />
		<tag k="ssr:stedsnr" v="223230" />
	</node>
	<node id="-116595" lat="61.8107527746" lon="9.03574166646">
		<tag k="historic" v="shieling" />
		<tag k="name" v="Gudsfredholet" />
		<tag k="place" v="locality" />
		<tag k="ssr:stedsnr" v="223186" />
	</node>
	<node id="-116589" lat="61.847136108" lon="8.99535556194">
		<tag k="name" v="Larsflåten" />
		<tag k="place" v="locality" />
		<tag k="ssr:stedsnr" v="223136" />
	</node>
	<node id="-116586" lat="61.8485527755" lon="8.9640277808">
		<tag k="name" v="Søre Tessand" />
		<tag k="place" v="farm" />
		<tag k="ssr:stedsnr" v="223120" />
	</node>
	<node id="-116585" lat="61.8605638885" lon="8.97181667399">
		<tag k="name" v="Nedre Sveum" />
		<tag k="place" v="farm" />
		<tag k="ssr:stedsnr" v="223087" />
	</node>
	<node id="-116580" lat="61.881983334" lon="9.14165833051">
		<tag k="name" v="Lykkja" />
		<tag k="place" v="isolated_dwelling" />
		<tag k="ssr:stedsnr" v="221995" />
	</node>
	<node id="-116577" lat="61.8761777761" lon="9.13659166318">
		<tag k="name" v="Voldheim" />
		<tag k="place" v="isolated_dwelling" />
		<tag k="ssr:stedsnr" v="221913" />
	</node>
	<node id="-116575" lat="61.8434444419" lon="9.21924722488">
		<tag k="name" v="Flate" />
		<tag k="place" v="farm" />
		<tag k="ssr:stedsnr" v="221832" />
	</node>
	<node id="-116573" lat="61.8736416629" lon="9.09020833044">
		<tag k="name" v="Grindstugu" />
		<tag k="place" v="isolated_dwelling" />
		<tag k="ssr:stedsnr" v="221161" />
	</node>
	<node id="-116572" lat="61.8744861141" lon="9.09163610975">
		<tag k="name" v="Brenna" />
		<tag k="place" v="isolated_dwelling" />
		<tag k="ssr:stedsnr" v="221160" />
	</node>
	<node id="-116571" lat="61.8720222188" lon="9.08931667024">
		<tag k="name" v="Torestugu" />
		<tag k="place" v="isolated_dwelling" />
		<tag k="ssr:stedsnr" v="221159" />
	</node>
	<node id="-116570" lat="61.8889444479" lon="9.07188611305">
		<tag k="name" v="Skålen" />
		<tag k="place" v="farm" />
		<tag k="ssr:stedsnr" v="221032" />
	</node>
	<node id="-116569" lat="61.8959916702" lon="9.02249443624">
		<tag k="name" v="Søre Siem" />
		<tag k="place" v="farm" />
		<tag k="ssr:stedsnr" v="221022" />
	</node>
	<node id="-116562" lat="61.8094302797" lon="9.27830173815">
		<tag k="fixme" v="consider place=hamlet" />
		<tag k="name" v="Øverlie" />
		<tag k="place" v="farm" />
		<tag k="ssr:stedsnr" v="204855" />
	</node>
	<node id="-116561" lat="61.8571722199" lon="9.2209111201">
		<tag k="name" v="Snerlbakken" />
		<tag k="place" v="farm" />
		<tag k="ssr:stedsnr" v="193934" />
	</node>
	<node id="-116558" lat="61.8968072652" lon="9.01957367838">
		<tag k="alt_name" v="Siem" />
		<tag k="name" v="Megarden Siem" />
		<tag k="place" v="farm" />
		<tag k="ssr:stedsnr" v="193376" />
	</node>
	<node id="-116556" lat="61.8787944417" lon="9.06264999701">
		<tag k="name" v="Dalen" />
		<tag k="place" v="farm" />
		<tag k="ssr:stedsnr" v="193348" />
	</node>
	<node id="-116554" lat="61.8622691338" lon="8.92111582515">
		<tag k="alt_name" v="Flåten" />
		<tag k="fixme" v="consider place=hamlet" />
		<tag k="name" v="Floten" />
		<tag k="place" v="farm" />
		<tag k="ssr:stedsnr" v="193338" />
	</node>
	<node id="-116553" lat="61.8765894602" lon="9.14935273999">
		<tag k="fixme" v="consider place=hamlet" />
		<tag k="name" v="Sørem" />
		<tag k="place" v="farm" />
		<tag k="ssr:stedsnr" v="193332" />
	</node>
	<node id="-116545" lat="61.7245972227" lon="9.05420833312">
		<tag k="alt_name" v="Sandbusætre" />
		<tag k="historic" v="shieling" />
		<tag k="name" v="Sandbusætri" />
		<tag k="place" v="locality" />
		<tag k="ssr:stedsnr" v="192985" />
	</node>
	<node id="-116540" lat="61.7325083301" lon="9.07488611823">
		<tag k="alt_name" v="Nørdre Blessomsætre" />
		<tag k="historic" v="shieling" />
		<tag k="name" v="Blessomsætri" />
		<tag k="place" v="locality" />
		<tag k="ssr:stedsnr" v="192962" />
	</node>
	<node id="-116538" lat="61.7300750038" lon="8.9885055629">
		<tag k="name" v="Bandet" />
		<tag k="place" v="locality" />
		<tag k="ssr:stedsnr" v="192960" />
	</node>
	<node id="-116534" lat="61.7909111109" lon="9.28124999391">
		<tag k="alt_name" v="Liasætre" />
		<tag k="name" v="Brennhaugsætre" />
		<tag k="place" v="locality" />
		<tag k="ssr:stedsnr" v="192883" />
	</node>
	<node id="-116533" lat="61.7974222178" lon="9.22611944111">
		<tag k="name" v="Reiregrende" />
		<tag k="place" v="hamlet" />
		<tag k="ssr:stedsnr" v="192882" />
	</node>
	<node id="-116524" lat="61.8318500034" lon="9.25249167258">
		<tag k="name" v="Drogje" />
		<tag k="place" v="farm" />
		<tag k="ssr:stedsnr" v="192812" />
	</node>
	<node id="-116522" lat="61.8235555554" lon="8.96093332552">
		<tag k="alt_name" v="Keillbakk" />
		<tag k="name" v="Kaldbakken" />
		<tag k="place" v="locality" />
		<tag k="ssr:stedsnr" v="192524" />
	</node>
	<node id="-116521" lat="61.8273111106" lon="9.07421111785">
		<tag k="alt_name" v="Klonessætre" />
		<tag k="historic" v="shieling" />
		<tag k="name" v="Klonesætri" />
		<tag k="place" v="locality" />
		<tag k="ssr:stedsnr" v="192520" />
	</node>
	<node id="-116520" lat="61.8297250007" lon="8.99513888211">
		<tag k="alt_name" v="Bakken, nedre" />
		<tag k="name" v="Nedre Bakken" />
		<tag k="place" v="farm" />
		<tag k="ssr:stedsnr" v="192515" />
	</node>
	<node id="-116516" lat="61.796034181" lon="9.08194053209">
		<tag k="historic" v="shieling" />
		<tag k="name" v="Tuvstulen" />
		<tag k="place" v="locality" />
		<tag k="ssr:stedsnr" v="192474" />
	</node>
	<node id="-116513" lat="61.8702616073" lon="9.05456754875">
		<tag k="fixme" v="consider place=hamlet" />
		<tag k="name" v="Brattland" />
		<tag k="place" v="farm" />
		<tag k="ssr:stedsnr" v="192355" />
	</node>
	<node id="-116512" lat="61.862161112" lon="9.01547222529">
		<tag k="alt_name" v="Velle" />
		<tag k="name" v="Nordigard Valde" />
		<tag k="place" v="farm" />
		<tag k="ssr:stedsnr" v="192351" />
	</node>
	<node id="-116511" lat="61.8707333328" lon="9.18125277747">
		<tag k="alt_name" v="Neset, nordre;Neset;Nørder-Nesset" />
		<tag k="name" v="Nørdre Neset" />
		<tag k="place" v="farm" />
		<tag k="ssr:stedsnr" v="192333" />
	</node>
	<node id="-116509" lat="61.8597694404" lon="9.16037500276">
		<tag k="name" v="Bråtåhaugen" />
		<tag k="place" v="farm" />
		<tag k="ssr:stedsnr" v="192318" />
	</node>
	<node id="-116508" lat="61.8594436715" lon="9.17820356269">
		<tag k="name" v="Stokkstad" />
		<tag k="place" v="hamlet" />
		<tag k="ssr:stedsnr" v="192313" />
	</node>
	<node id="-116507" lat="61.8556351803" lon="9.20805870454">
		<tag k="fixme" v="consider place=hamlet" />
		<tag k="name" v="Svenstad" />
		<tag k="place" v="farm" />
		<tag k="ssr:stedsnr" v="192309" />
	</node>
	<node id="-116506" lat="61.8450944444" lon="8.92955555408">
		<tag k="alt_name" v="Bjorviki" />
		<tag k="name" v="Bjørvikje" />
		<tag k="place" v="farm" />
		<tag k="ssr:stedsnr" v="192302" />
	</node>
	<node id="-116505" lat="61.8435277807" lon="8.89081389176">
		<tag k="name" v="Viem" />
		<tag k="place" v="farm" />
		<tag k="ssr:stedsnr" v="192283" />
	</node>
	<node id="-116503" lat="61.9271333358" lon="8.9984166609">
		<tag k="alt_name" v="Siemsætre" />
		<tag k="historic" v="shieling" />
		<tag k="name" v="Siemssætri" />
		<tag k="place" v="locality" />
		<tag k="ssr:stedsnr" v="192173" />
	</node>
	<node id="-116501" lat="61.494058332" lon="8.81294722167">
		<tag k="fixme" v="consider tourism=alpine_hut or tourism=chalet" />
		<tag k="name" v="Gjendesheim" />
		<tag k="ssr:stedsnr" v="190799" />
		<tag k="tourism" v="wilderness_hut" />
	</node>
	<node id="-116492" lat="61.6177444409" lon="8.96800000806">
		<tag k="name" v="Hindsæter" />
		<tag k="old_name" v="Hindsæter Fjellhotell;Hindsætri" />
		<tag k="ssr:stedsnr" v="181805" />
		<tag k="tourism" v="hotel" />
	</node>
	<node id="-116485" lat="61.8567444489" lon="9.25549166451">
		<tag k="name" v="Bergheim" />
		<tag k="place" v="isolated_dwelling" />
		<tag k="ssr:stedsnr" v="170505" />
	</node>
	<node id="-116479" lat="61.8158416673" lon="9.26534165924">
		<tag k="name" v="Jesperplassen" />
		<tag k="place" v="isolated_dwelling" />
		<tag k="ssr:stedsnr" v="162909" />
	</node>
	<node id="-116476" lat="61.7308361068" lon="9.06645277385">
		<tag k="historic" v="shieling" />
		<tag k="loc_name" v="Randsroe" />
		<tag k="name" v="Randsro" />
		<tag k="place" v="locality" />
		<tag k="ssr:stedsnr" v="162477" />
	</node>
	<node id="-116470" lat="61.8474027741" lon="8.98117500739">
		<tag k="name" v="Nedre Runningen" />
		<tag k="place" v="farm" />
		<tag k="ssr:stedsnr" v="162120" />
	</node>
	<node id="-116469" lat="61.8483027756" lon="8.96206945163">
		<tag k="name" v="Nørdre Tessand" />
		<tag k="place" v="farm" />
		<tag k="ssr:stedsnr" v="162112" />
	</node>
	<node id="-116468" lat="61.8467833326" lon="8.9513305472">
		<tag k="fixme" v="consider place=hamlet" />
		<tag k="name" v="Sygard Storrvik" />
		<tag k="place" v="farm" />
		<tag k="ssr:stedsnr" v="162110" />
	</node>
	<node id="-116464" lat="61.9043194458" lon="9.00261389722">
		<tag k="name" v="Synstenghaugen" />
		<tag k="place" v="farm" />
		<tag k="ssr:stedsnr" v="162003" />
	</node>
	<node id="-116463" lat="61.8672472235" lon="8.98896944163">
		<tag k="name" v="Bergjehaugen" />
		<tag k="place" v="isolated_dwelling" />
		<tag k="ssr:stedsnr" v="162063" />
	</node>
	<node id="-116461" lat="61.8479111132" lon="8.95913611477">
		<tag k="name" v="Nedre Storrvik" />
		<tag k="place" v="farm" />
		<tag k="ssr:stedsnr" v="161020" />
	</node>
	<node id="-116460" lat="61.8834527757" lon="9.12889722164">
		<tag k="name" v="Steinset" />
		<tag k="place" v="farm" />
		<tag k="ssr:stedsnr" v="160989" />
	</node>
	<node id="-116459" lat="61.8843777784" lon="9.13373055682">
		<tag k="name" v="Nørdre Vassdokken" />
		<tag k="place" v="isolated_dwelling" />
		<tag k="ssr:stedsnr" v="160986" />
	</node>
	<node id="-116458" lat="61.8483499983" lon="9.21497499611">
		<tag k="name" v="Kluften" />
		<tag k="place" v="isolated_dwelling" />
		<tag k="ssr:stedsnr" v="160842" />
	</node>
	<node id="-116457" lat="61.8754555554" lon="9.19608889815">
		<tag k="name" v="Myrmo" />
		<tag k="place" v="isolated_dwelling" />
		<tag k="ssr:stedsnr" v="160494" />
	</node>
	<node id="-116456" lat="61.870422222" lon="9.21433333504">
		<tag k="name" v="Øvre Randen" />
		<tag k="place" v="locality" />
		<tag k="ssr:stedsnr" v="160723" />
	</node>
	<node id="-116455" lat="61.865113889" lon="9.21069444071">
		<tag k="name" v="Nedre Haugen" />
		<tag k="place" v="farm" />
		<tag k="ssr:stedsnr" v="160718" />
	</node>
	<node id="-116453" lat="61.8713472198" lon="9.09308332895">
		<tag k="name" v="Gudbrandstugu" />
		<tag k="place" v="farm" />
		<tag k="ssr:stedsnr" v="160148" />
	</node>
	<node id="-116452" lat="61.8444305594" lon="8.93433056173">
		<tag k="name" v="Pålstugu" />
		<tag k="place" v="farm" />
		<tag k="ssr:stedsnr" v="160086" />
	</node>
	<node id="-116450" lat="61.8881916626" lon="9.07527223114">
		<tag k="name" v="Nordigard Lunde" />
		<tag k="place" v="farm" />
		<tag k="ssr:stedsnr" v="160031" />
	</node>
	<node id="-116448" lat="61.8355333343" lon="9.27588888314">
		<tag k="name" v="Solstad" />
		<tag k="place" v="farm" />
		<tag k="ssr:stedsnr" v="157450" />
	</node>
	<node id="-116443" lat="61.8499771516" lon="9.23584385968">
		<tag k="alt_name" v="Snerle, nørdre;Nørdre Snerle" />
		<tag k="fixme" v="consider place=hamlet" />
		<tag k="name" v="Nordigard Snerle" />
		<tag k="place" v="farm" />
		<tag k="ssr:stedsnr" v="132944" />
	</node>
	<node id="-116442" lat="61.8550222205" lon="9.26878333906">
		<tag k="name" v="Ruste" />
		<tag k="place" v="farm" />
		<tag k="ssr:stedsnr" v="132935" />
	</node>
	<node id="-116440" lat="61.8943111116" lon="9.10567222327">
		<tag k="alt_name" v="Blessomøygardein" />
		<tag k="historic" v="shieling" />
		<tag k="name" v="Blesomøygarden" />
		<tag k="place" v="locality" />
		<tag k="ssr:stedsnr" v="132342" />
	</node>
	<node id="-116439" lat="61.8930805543" lon="9.11843333813">
		<tag k="historic" v="shieling" />
		<tag k="name" v="Veslsætrin" />
		<tag k="place" v="locality" />
		<tag k="ssr:stedsnr" v="132341" />
	</node>
	<node id="-116436" lat="61.8745172031" lon="9.06070495969">
		<tag k="alt_name" v="Kvarberg" />
		<tag k="name" v="Nigard Kvarberg" />
		<tag k="place" v="farm" />
		<tag k="ssr:stedsnr" v="132319" />
	</node>
	<node id="-116433" lat="61.8691388899" lon="8.92032499361">
		<tag k="alt_name" v="Nistingen, nordre" />
		<tag k="historic" v="shieling" />
		<tag k="name" v="Nørdre Nistingen" />
		<tag k="place" v="locality" />
		<tag k="ssr:stedsnr" v="132310" />
	</node>
	<node id="-116424" lat="61.7308250034" lon="9.07425556126">
		<tag k="name" v="Sæta" />
		<tag k="place" v="farm" />
		<tag k="ssr:stedsnr" v="131970" />
	</node>
	<node id="-116421" lat="61.799795327" lon="9.33653268345">
		<tag k="fixme" v="consider place=hamlet" />
		<tag k="name" v="Nerlie" />
		<tag k="place" v="farm" />
		<tag k="ssr:stedsnr" v="131913" />
	</node>
	<node id="-116417" lat="61.5404472223" lon="8.93847222082">
		<tag k="historic" v="shieling" />
		<tag k="name" v="Grasvikje" />
		<tag k="place" v="locality" />
		<tag k="ssr:stedsnr" v="131890" />
	</node>
	<node id="-116416" lat="61.5498916659" lon="8.99022776847">
		<tag k="historic" v="shieling" />
		<tag k="name" v="Kampen" />
		<tag k="place" v="locality" />
		<tag k="ssr:stedsnr" v="131882" />
	</node>
	<node id="-116407" lat="61.8402422823" lon="9.23938379247">
		<tag k="fixme" v="consider place=hamlet" />
		<tag k="name" v="Nørdre Stade" />
		<tag k="place" v="farm" />
		<tag k="ssr:stedsnr" v="131846" />
	</node>
	<node id="-116406" lat="61.8411004598" lon="9.22930163398">
		<tag k="fixme" v="consider place=hamlet" />
		<tag k="name" v="Teigen" />
		<tag k="place" v="farm" />
		<tag k="ssr:stedsnr" v="131843" />
	</node>
	<node id="-116405" lat="61.8392749958" lon="9.2319499945">
		<tag k="name" v="Lauvstad" />
		<tag k="place" v="farm" />
		<tag k="ssr:stedsnr" v="131842" />
	</node>
	<node id="-116404" lat="61.6192638926" lon="8.95886388312">
		<tag k="historic" v="shieling" />
		<tag k="name" v="Hindsætrin" />
		<tag k="place" v="locality" />
		<tag k="ssr:stedsnr" v="131818" />
	</node>
	<node id="-116403" lat="61.6236000009" lon="8.99372777246">
		<tag k="name" v="Steinholhytta" />
		<tag k="place" v="isolated_dwelling" />
		<tag k="ssr:stedsnr" v="131810" />
	</node>
	<node id="-116401" lat="61.8312861102" lon="9.25801944657">
		<tag k="name" v="Barhaugen" />
		<tag k="place" v="farm" />
		<tag k="ssr:stedsnr" v="131808" />
	</node>
	<node id="-116397" lat="61.8233749966" lon="9.28811944568">
		<tag k="name" v="Kolstad" />
		<tag k="place" v="farm" />
		<tag k="ssr:stedsnr" v="131789" />
	</node>
	<node id="-116393" lat="61.8109694462" lon="9.2462722242">
		<tag k="historic" v="shieling" />
		<tag k="name" v="Rindsætre" />
		<tag k="place" v="locality" />
		<tag k="ssr:stedsnr" v="131770" />
	</node>
	<node id="-116391" lat="61.6796749971" lon="9.05780834126">
		<tag k="name" v="Rusneslykkja" />
		<tag k="place" v="locality" />
		<tag k="ssr:stedsnr" v="131767" />
	</node>
	<node id="-116389" lat="61.8293000005" lon="9.06166666955">
		<tag k="alt_name" v="Landesætre" />
		<tag k="historic" v="shieling" />
		<tag k="name" v="Landesætri" />
		<tag k="place" v="locality" />
		<tag k="ssr:stedsnr" v="131462" />
	</node>
	<node id="-116383" lat="61.8019777768" lon="9.01781111343">
		<tag k="alt_name" v="Nystugusætre" />
		<tag k="historic" v="shieling" />
		<tag k="name" v="Nystugusætri" />
		<tag k="place" v="locality" />
		<tag k="ssr:stedsnr" v="131437" />
	</node>
	<node id="-116382" lat="61.8010861117" lon="8.96029721565">
		<tag k="alt_name" v="Tungsætre" />
		<tag k="historic" v="shieling" />
		<tag k="name" v="Tungsætri" />
		<tag k="place" v="locality" />
		<tag k="ssr:stedsnr" v="131430" />
	</node>
	<node id="-116380" lat="61.7994138901" lon="9.17152222212">
		<tag k="historic" v="shieling" />
		<tag k="name" v="Rottemsætri" />
		<tag k="place" v="locality" />
		<tag k="ssr:stedsnr" v="131418" />
	</node>
	<node id="-116379" lat="61.7858972229" lon="9.16845276922">
		<tag k="historic" v="shieling" />
		<tag k="name" v="Stulen" />
		<tag k="place" v="locality" />
		<tag k="ssr:stedsnr" v="131411" />
	</node>
	<node id="-116378" lat="61.791825003" lon="9.19922499924">
		<tag k="historic" v="shieling" />
		<tag k="name" v="Melsætri" />
		<tag k="place" v="locality" />
		<tag k="ssr:stedsnr" v="131407" />
	</node>
	<node id="-116376" lat="61.7727388896" lon="9.05571388495">
		<tag k="name" v="Vellesætri" />
		<tag k="place" v="locality" />
		<tag k="ssr:stedsnr" v="131379" />
	</node>
	<node id="-116375" lat="61.7602279403" lon="9.12367943535">
		<tag k="alt_name" v="Slomma" />
		<tag k="historic" v="shieling" />
		<tag k="name" v="Slomba" />
		<tag k="place" v="locality" />
		<tag k="ssr:stedsnr" v="131371" />
	</node>
	<node id="-116374" lat="61.8588388869" lon="8.87994999157">
		<tag k="name" v="Trolldalen" />
		<tag k="place" v="farm" />
		<tag k="ssr:stedsnr" v="131293" />
	</node>
	<node id="-116373" lat="61.8581219206" lon="8.8888255898">
		<tag k="alt_name" v="Trælvikje" />
		<tag k="fixme" v="consider place=hamlet" />
		<tag k="name" v="Trælviki" />
		<tag k="place" v="farm" />
		<tag k="ssr:stedsnr" v="131291" />
	</node>
	<node id="-116372" lat="61.8611777776" lon="8.92435000234">
		<tag k="alt_name" v="Heggjeruste" />
		<tag k="name" v="Heggerusti" />
		<tag k="place" v="isolated_dwelling" />
		<tag k="ssr:stedsnr" v="131289" />
	</node>
	<node id="-116371" lat="61.8532861106" lon="9.02607500748">
		<tag k="alt_name" v="Ringnes, nedre" />
		<tag k="name" v="Nørdre Ringneset" />
		<tag k="place" v="farm" />
		<tag k="ssr:stedsnr" v="131286" />
	</node>
	<node id="-116370" lat="61.8562426721" lon="9.04831971133">
		<tag k="alt_name" v="Strond, midtre;Strond;Me-Strond" />
		<tag k="name" v="Midtre Strond" />
		<tag k="place" v="farm" />
		<tag k="ssr:stedsnr" v="131284" />
	</node>
	<node id="-116369" lat="61.8455638914" lon="9.15641388403">
		<tag k="alt_name" v="Nysætre" />
		<tag k="historic" v="shieling" />
		<tag k="name" v="Nysætri" />
		<tag k="place" v="locality" />
		<tag k="ssr:stedsnr" v="131263" />
	</node>
	<node id="-116368" lat="61.8478999972" lon="9.16896388957">
		<tag k="alt_name" v="Veslsætre" />
		<tag k="historic" v="shieling" />
		<tag k="name" v="Veslsætri" />
		<tag k="place" v="locality" />
		<tag k="ssr:stedsnr" v="131261" />
	</node>
	<node id="-116366" lat="61.8366583303" lon="8.96293333875">
		<tag k="name" v="Skultbakken" />
		<tag k="place" v="farm" />
		<tag k="ssr:stedsnr" v="131242" />
	</node>
	<node id="-116365" lat="61.835499999" lon="9.2106722158">
		<tag k="historic" v="shieling" />
		<tag k="name" v="Svarthåmårsætrin" />
		<tag k="place" v="locality" />
		<tag k="ssr:stedsnr" v="131236" />
	</node>
	<node id="-116363" lat="61.9286611128" lon="8.95121944535">
		<tag k="fixme" v="consider place=hamlet" />
		<tag k="name" v="Skårvangen" />
		<tag k="place" v="village" />
		<tag k="ssr:stedsnr" v="131136" />
	</node>
	<node id="-116354" lat="61.8031833336" lon="8.96428055884">
		<tag k="historic" v="shieling" />
		<tag k="name" v="Randsætre" />
		<tag k="place" v="locality" />
		<tag k="ssr:stedsnr" v="114462" />
	</node>
	<node id="-116350" lat="61.7999277779" lon="9.32296666806">
		<tag k="name" v="Lauvrusten" />
		<tag k="place" v="farm" />
		<tag k="ssr:stedsnr" v="110691" />
	</node>
	<node id="-116349" lat="61.7987305546" lon="9.33781666432">
		<tag k="name" v="Furuheim" />
		<tag k="place" v="farm" />
		<tag k="ssr:stedsnr" v="110688" />
	</node>
	<node id="-116345" lat="61.8207055567" lon="9.11431388859">
		<tag k="historic" v="shieling" />
		<tag k="name" v="Prestsætre" />
		<tag k="place" v="locality" />
		<tag k="ssr:stedsnr" v="110560" />
	</node>
	<node id="-116343" lat="61.8279777816" lon="9.26181665771">
		<tag k="name" v="Dokken" />
		<tag k="place" v="farm" />
		<tag k="ssr:stedsnr" v="109909" />
	</node>
	<node id="-116342" lat="61.8266777791" lon="9.08410833257">
		<tag k="historic" v="shieling" />
		<tag k="name" v="Randsætre" />
		<tag k="place" v="locality" />
		<tag k="ssr:stedsnr" v="109460" />
	</node>
	<node id="-116340" lat="61.5452694426" lon="8.94244445188">
		<tag k="historic" v="shieling" />
		<tag k="name" v="Pullen" />
		<tag k="place" v="locality" />
		<tag k="ssr:stedsnr" v="106725" />
	</node>
	<node id="-116337" lat="61.8626027744" lon="9.17015555464">
		<tag k="name" v="Nistugu Stokstad" />
		<tag k="place" v="farm" />
		<tag k="ssr:stedsnr" v="102962" />
	</node>
	<node id="-116336" lat="61.866794443" lon="9.12769722285">
		<tag k="name" v="Søre Gjeilin" />
		<tag k="place" v="farm" />
		<tag k="ssr:stedsnr" v="102952" />
	</node>
	<node id="-116335" lat="61.866005557" lon="9.13784445277">
		<tag k="name" v="Myhre" />
		<tag k="place" v="farm" />
		<tag k="ssr:stedsnr" v="102950" />
	</node>
	<node id="-116334" lat="61.8166388911" lon="9.26278332404">
		<tag k="name" v="Jesper" />
		<tag k="place" v="isolated_dwelling" />
		<tag k="ssr:stedsnr" v="102910" />
	</node>
	<node id="-116333" lat="61.8210722248" lon="9.27666667259">
		<tag k="name" v="Veslfetlykkja" />
		<tag k="place" v="isolated_dwelling" />
		<tag k="ssr:stedsnr" v="102891" />
	</node>
	<node id="-116326" lat="61.8795416667" lon="9.0584444411">
		<tag k="name" v="Dalhytta" />
		<tag k="place" v="isolated_dwelling" />
		<tag k="ssr:stedsnr" v="102236" />
	</node>
	<node id="-116325" lat="61.7978249988" lon="9.02151388907">
		<tag k="name" v="Pålstugusætre" />
		<tag k="place" v="isolated_dwelling" />
		<tag k="ssr:stedsnr" v="102224" />
	</node>
	<node id="-116318" lat="61.853599442" lon="9.02844511401">
		<tag k="fixme" v="consider place=hamlet" />
		<tag k="name" v="Søre Ringneset" />
		<tag k="place" v="farm" />
		<tag k="ssr:stedsnr" v="102141" />
	</node>
	<node id="-116316" lat="61.8801444489" lon="9.10454166054">
		<tag k="name" v="Gardsøy" />
		<tag k="place" v="farm" />
		<tag k="ssr:stedsnr" v="102065" />
	</node>
	<node id="-116313" lat="61.8798416676" lon="9.14255554891">
		<tag k="name" v="Uppigard Sandbu" />
		<tag k="place" v="farm" />
		<tag k="ssr:stedsnr" v="100997" />
	</node>
	<node id="-116312" lat="61.8792888888" lon="9.15166666908">
		<tag k="name" v="Solheim" />
		<tag k="place" v="isolated_dwelling" />
		<tag k="ssr:stedsnr" v="100996" />
	</node>
	<node id="-116310" lat="61.8513833304" lon="9.20779999192">
		<tag k="name" v="Nørdre Løken" />
		<tag k="place" v="farm" />
		<tag k="ssr:stedsnr" v="100821" />
	</node>
	<node id="-116309" lat="61.8683444486" lon="9.21653888452">
		<tag k="name" v="Nørdre Ulsletten" />
		<tag k="place" v="isolated_dwelling" />
		<tag k="ssr:stedsnr" v="100712" />
	</node>
	<node id="-116306" lat="61.8845611093" lon="9.09015555071">
		<tag k="name" v="Furusæta" />
		<tag k="place" v="farm" />
		<tag k="ssr:stedsnr" v="100039" />
	</node>
	<node id="-116304" lat="61.8882416676" lon="9.07417221925">
		<tag k="name" v="Systugu Lunde" />
		<tag k="place" v="farm" />
		<tag k="ssr:stedsnr" v="100033" />
	</node>
	<node id="-116303" lat="61.8926138848" lon="9.05334999603">
		<tag k="name" v="Hude" />
		<tag k="place" v="farm" />
		<tag k="ssr:stedsnr" v="100025" />
	</node>
	<node id="-116302" lat="61.8927888878" lon="9.04294999322">
		<tag k="name" v="Nordpå Svare" />
		<tag k="place" v="farm" />
		<tag k="ssr:stedsnr" v="100015" />
	</node>
	<node id="-116299" lat="61.8463832772" lon="9.24418850928">
		<tag k="alt_name" v="Snerle, søre;Søre Snerle" />
		<tag k="fixme" v="consider place=hamlet" />
		<tag k="name" v="Sygard Snerle" />
		<tag k="place" v="farm" />
		<tag k="ssr:stedsnr" v="72943" />
	</node>
	<node id="-116296" lat="61.9568611106" lon="9.03408611582">
		<tag k="alt_name" v="Holesætrin" />
		<tag k="historic" v="shieling" />
		<tag k="name" v="Holesætri" />
		<tag k="place" v="locality" />
		<tag k="ssr:stedsnr" v="72178" />
	</node>
	<node id="-116293" lat="61.8671638875" lon="9.22031945264">
		<tag k="name" v="Urdslette" />
		<tag k="place" v="farm" />
		<tag k="ssr:stedsnr" v="71984" />
	</node>
	<node id="-116281" lat="61.8409966283" lon="9.27644278187">
		<tag k="alt_name" v="Bjørnstad;Bjørnstad, øvre" />
		<tag k="fixme" v="consider place=hamlet" />
		<tag k="name" v="Øvre Bjørnstad" />
		<tag k="place" v="farm" />
		<tag k="ssr:stedsnr" v="71821" />
	</node>
	<node id="-116278" lat="61.8326999997" lon="9.25836388105">
		<tag k="name" v="Skogstad" />
		<tag k="place" v="farm" />
		<tag k="ssr:stedsnr" v="71811" />
	</node>
	<node id="-116277" lat="61.8253163684" lon="9.25626671477">
		<tag k="name" v="Bakkom" />
		<tag k="place" v="locality" />
		<tag k="ssr:stedsnr" v="71801" />
	</node>
	<node id="-116276" lat="61.8214861093" lon="9.25856389381">
		<tag k="fixme" v="consider place=hamlet" />
		<tag k="name" v="Skårsroe" />
		<tag k="place" v="village" />
		<tag k="ssr:stedsnr" v="71800" />
	</node>
	<node id="-116275" lat="61.8207749973" lon="9.37215833279">
		<tag k="name" v="Tjorsætre" />
		<tag k="place" v="isolated_dwelling" />
		<tag k="ssr:stedsnr" v="71797" />
	</node>
	<node id="-116269" lat="61.7795111101" lon="9.08508888155">
		<tag k="alt_name" v="Voldheimsætre" />
		<tag k="historic" v="shieling" />
		<tag k="name" v="Vollheimsætri" />
		<tag k="place" v="locality" />
		<tag k="ssr:stedsnr" v="71443" />
	</node>
	<node id="-116265" lat="61.8181222249" lon="9.04478889017">
		<tag k="alt_name" v="Nessesætre" />
		<tag k="historic" v="shieling" />
		<tag k="name" v="Nesesætri" />
		<tag k="place" v="locality" />
		<tag k="ssr:stedsnr" v="71492" />
	</node>
	<node id="-116264" lat="61.8097250019" lon="9.08855000893">
		<tag k="historic" v="shieling" />
		<tag k="name" v="Kvilarholet" />
		<tag k="place" v="locality" />
		<tag k="ssr:stedsnr" v="71477" />
	</node>
	<node id="-116263" lat="61.793797218" lon="9.14581388666">
		<tag k="alt_name" v="Vikje" />
		<tag k="historic" v="shieling" />
		<tag k="name" v="Vikasætri" />
		<tag k="place" v="locality" />
		<tag k="ssr:stedsnr" v="71474" />
	</node>
	<node id="-116262" lat="61.8003833351" lon="9.19138889088">
		<tag k="historic" v="shieling" />
		<tag k="name" v="Granrudsætri" />
		<tag k="place" v="locality" />
		<tag k="ssr:stedsnr" v="71463" />
	</node>
	<node id="-116261" lat="61.8032499975" lon="9.17600277264">
		<tag k="historic" v="shieling" />
		<tag k="name" v="Holdbøssætri" />
		<tag k="place" v="locality" />
		<tag k="ssr:stedsnr" v="71462" />
	</node>
	<node id="-116259" lat="61.8831694448" lon="9.1397666738">
		<tag k="name" v="Rudi" />
		<tag k="place" v="farm" />
		<tag k="ssr:stedsnr" v="71381" />
	</node>
	<node id="-116257" lat="61.8718938829" lon="9.02571393931">
		<tag k="fixme" v="consider place=hamlet" />
		<tag k="name" v="Valbjør" />
		<tag k="place" v="farm" />
		<tag k="ssr:stedsnr" v="71377" />
	</node>
	<node id="-116256" lat="61.8655013724" lon="8.99433377449">
		<tag k="alt_name" v="Berge" />
		<tag k="name" v="Nigard Bergje" />
		<tag k="place" v="farm" />
		<tag k="ssr:stedsnr" v="71358" />
	</node>
	<node id="-116255" lat="61.8658499967" lon="8.98415277343">
		<tag k="name" v="Stordalen" />
		<tag k="place" v="farm" />
		<tag k="ssr:stedsnr" v="71357" />
	</node>
	<node id="-116254" lat="61.8676277756" lon="9.15447500333">
		<tag k="name" v="Dammen" />
		<tag k="place" v="farm" />
		<tag k="ssr:stedsnr" v="71344" />
	</node>
	<node id="-116253" lat="61.8682750028" lon="9.19014165963">
		<tag k="alt_name" v="Neset, s;Sør-Nesset" />
		<tag k="name" v="Søre Neset" />
		<tag k="place" v="farm" />
		<tag k="ssr:stedsnr" v="71339" />
	</node>
	<node id="-116252" lat="61.8580055572" lon="9.18780277463">
		<tag k="alt_name" v="Holdbø" />
		<tag k="name" v="Nordigard Holdbø" />
		<tag k="place" v="farm" />
		<tag k="ssr:stedsnr" v="71313" />
	</node>
	<node id="-116251" lat="61.8451444475" lon="8.92836110959">
		<tag k="name" v="Randen" />
		<tag k="place" v="farm" />
		<tag k="ssr:stedsnr" v="71302" />
	</node>
	<node id="-116250" lat="61.8505057447" lon="8.98979757198">
		<tag k="fixme" v="consider place=hamlet" />
		<tag k="name" v="Kviten" />
		<tag k="place" v="farm" />
		<tag k="ssr:stedsnr" v="71296" />
	</node>
	<node id="-116249" lat="61.8524258792" lon="9.04058080331">
		<tag k="alt_name" v="Vistekleivi, nedre;Vistekleive nedre" />
		<tag k="name" v="Nedre Vistekleivi" />
		<tag k="place" v="farm" />
		<tag k="ssr:stedsnr" v="71291" />
	</node>
	<node id="-116243" lat="61.9238750037" lon="9.18625555328">
		<tag k="historic" v="shieling" />
		<tag k="name" v="Jettsætri" />
		<tag k="place" v="locality" />
		<tag k="ssr:stedsnr" v="71177" />
	</node>
	<node id="-116242" lat="61.9246472178" lon="9.01268333889">
		<tag k="alt_name" v="Borgasætre" />
		<tag k="historic" v="shieling" />
		<tag k="name" v="Borgasætri" />
		<tag k="place" v="locality" />
		<tag k="ssr:stedsnr" v="71169" />
	</node>
	<node id="-116241" lat="61.9163138865" lon="8.98880834004">
		<tag k="name" v="Skogen" />
		<tag k="place" v="farm" />
		<tag k="ssr:stedsnr" v="71163" />
	</node>
	<node id="-116237" lat="61.7229959651" lon="9.04964308015">
		<tag k="alt_name" v="Øyasætre" />
		<tag k="historic" v="shieling" />
		<tag k="name" v="Øyasætri" />
		<tag k="place" v="locality" />
		<tag k="ssr:stedsnr" v="70986" />
	</node>
	<node id="-116230" lat="61.7310666696" lon="9.06801111573">
		<tag k="alt_name" v="Villasætre" />
		<tag k="historic" v="shieling" />
		<tag k="name" v="Villasætri" />
		<tag k="place" v="locality" />
		<tag k="ssr:stedsnr" v="70960" />
	</node>
	<node id="-116220" lat="61.8256388929" lon="8.97382777081">
		<tag k="fixme" v="consider place=hamlet" />
		<tag k="name" v="Bondesonplassen" />
		<tag k="place" v="farm" />
		<tag k="ssr:stedsnr" v="54497" />
	</node>
	<node id="-116214" lat="61.7590472229" lon="9.2832111169">
		<tag k="name" v="Kjørrmyra" />
		<tag k="place" v="farm" />
		<tag k="ssr:stedsnr" v="50679" />
	</node>
	<node id="-116213" lat="61.7932611074" lon="9.34350556159">
		<tag k="name" v="Søre Sørlien" />
		<tag k="place" v="farm" />
		<tag k="ssr:stedsnr" v="49687" />
	</node>
	<node id="-116211" lat="61.8290833348" lon="9.26860555199">
		<tag k="name" v="Tangsæter" />
		<tag k="place" v="farm" />
		<tag k="ssr:stedsnr" v="48935" />
	</node>
	<node id="-116210" lat="61.8648027809" lon="9.13112778396">
		<tag k="name" v="Myrvold" />
		<tag k="place" v="farm" />
		<tag k="ssr:stedsnr" v="41946" />
	</node>
	<node id="-116209" lat="61.860583336" lon="9.14776110903">
		<tag k="name" v="Persøygarden" />
		<tag k="place" v="isolated_dwelling" />
		<tag k="ssr:stedsnr" v="41942" />
	</node>
	<node id="-116207" lat="61.7219388866" lon="9.05838889208">
		<tag k="building" v="industrial" />
		<tag k="name" v="Randsverk sag og høvleri" />
		<tag k="ssr:stedsnr" v="41460" />
	</node>
	<node id="-116206" lat="61.5897916662" lon="8.93036111255">
		<tag k="name" v="Russlia" />
		<tag k="place" v="isolated_dwelling" />
		<tag k="ssr:stedsnr" v="41616" />
	</node>
	<node id="-116201" lat="61.8651388929" lon="9.10339166246">
		<tag k="name" v="Heggeli" />
		<tag k="place" v="farm" />
		<tag k="ssr:stedsnr" v="41232" />
	</node>
	<node id="-116200" lat="61.7293749971" lon="9.07549999856">
		<tag k="name" v="Stykkjusætre" />
		<tag k="place" v="farm" />
		<tag k="ssr:stedsnr" v="41300" />
	</node>
	<node id="-116193" lat="61.8661666694" lon="8.98528056087">
		<tag k="name" v="Gammel Gjelbakken" />
		<tag k="place" v="isolated_dwelling" />
		<tag k="ssr:stedsnr" v="41100" />
	</node>
	<node id="-116192" lat="61.8658416689" lon="8.99239999325">
		<tag k="name" v="Uppigard Bergje" />
		<tag k="place" v="farm" />
		<tag k="ssr:stedsnr" v="41099" />
	</node>
	<node id="-116191" lat="61.868277779" lon="8.91911388278">
		<tag k="historic" v="shieling" />
		<tag k="name" v="Ulsandsætre" />
		<tag k="place" v="locality" />
		<tag k="ssr:stedsnr" v="41080" />
	</node>
	<node id="-116190" lat="61.8836222263" lon="9.10534443602">
		<tag k="name" v="Nørdre Øygarden" />
		<tag k="place" v="farm" />
		<tag k="ssr:stedsnr" v="41070" />
	</node>
	<node id="-116189" lat="61.8291027771" lon="9.04700278711">
		<tag k="historic" v="shieling" />
		<tag k="name" v="Rusnessætre" />
		<tag k="place" v="locality" />
		<tag k="ssr:stedsnr" v="41151" />
	</node>
	<node id="-116186" lat="61.8662027764" lon="9.11571111225">
		<tag k="name" v="Høystad" />
		<tag k="place" v="isolated_dwelling" />
		<tag k="ssr:stedsnr" v="39924" />
	</node>
	<node id="-116182" lat="61.8431649705" lon="8.94569824216">
		<tag k="name" v="Ramen" />
		<tag k="place" v="farm" />
		<tag k="ssr:stedsnr" v="39096" />
	</node>
	<node id="-116181" lat="61.8931333311" lon="9.04056110273">
		<tag k="name" v="Sør-Holen" />
		<tag k="place" v="farm" />
		<tag k="ssr:stedsnr" v="39021" />
	</node>
	<node id="-116180" lat="61.8950666655" lon="9.03573333652">
		<tag k="name" v="Holslykkja" />
		<tag k="place" v="isolated_dwelling" />
		<tag k="ssr:stedsnr" v="39018" />
	</node>
	<node id="-116177" lat="61.8361666624" lon="9.27385833649">
		<tag k="name" v="Søre Enge" />
		<tag k="place" v="isolated_dwelling" />
		<tag k="ssr:stedsnr" v="36567" />
	</node>
	<node id="-116174" lat="61.7589861098" lon="9.07444444382">
		<tag k="name" v="Lemonsjø fjellstue" />
		<tag k="ssr:stedsnr" v="25149" />
		<tag k="tourism" v="hotel" />
	</node>
	<node id="-116173" lat="61.8365488996" lon="9.28832879265">
		<tag k="fixme" v="consider place=hamlet" />
		<tag k="name" v="Bårstad" />
		<tag k="place" v="farm" />
		<tag k="ssr:stedsnr" v="22851" />
	</node>
	<node id="-116170" lat="61.8438499974" lon="9.25709722218">
		<tag k="name" v="Rudilykkja" />
		<tag k="place" v="farm" />
		<tag k="ssr:stedsnr" v="11954" />
	</node>
	<node id="-116169" lat="61.84559167" lon="9.22098055725">
		<tag k="name" v="Rugsvee" />
		<tag k="place" v="farm" />
		<tag k="ssr:stedsnr" v="11949" />
	</node>
	<node id="-116168" lat="61.8588694478" lon="9.2418111043">
		<tag k="name" v="Nørdre Ruste" />
		<tag k="place" v="farm" />
		<tag k="ssr:stedsnr" v="11943" />
	</node>
	<node id="-116167" lat="61.8938613943" lon="9.03163610824">
		<tag k="alt_name" v="Nørdre Holen" />
		<tag k="name" v="Holen" />
		<tag k="place" v="farm" />
		<tag k="ssr:stedsnr" v="11349" />
	</node>
	<node id="-116165" lat="61.8848888849" lon="9.0645138898">
		<tag k="alt_name" v="Sælatunga" />
		<tag k="name" v="Selatunga" />
		<tag k="place" v="farm" />
		<tag k="ssr:stedsnr" v="11341" />
	</node>
	<node id="-116157" lat="61.7260194485" lon="8.95982500379">
		<tag k="historic" v="shieling" />
		<tag k="name" v="Larsbusætre" />
		<tag k="place" v="locality" />
		<tag k="ssr:stedsnr" v="10978" />
	</node>
	<node id="-116140" lat="61.5878944463" lon="8.92639721338">
		<tag k="historic" v="shieling" />
		<tag k="name" v="Russlie" />
		<tag k="place" v="locality" />
		<tag k="ssr:stedsnr" v="10823" />
	</node>
	<node id="-116136" lat="61.823613893" lon="9.11222499978">
		<tag k="alt_name" v="Hølmosætre" />
		<tag k="historic" v="shieling" />
		<tag k="name" v="Hølmosætri" />
		<tag k="place" v="locality" />
		<tag k="ssr:stedsnr" v="10462" />
	</node>
	<node id="-116133" lat="61.7821027758" lon="9.16776944244">
		<tag k="alt_name" v="Øversætrene" />
		<tag k="historic" v="shieling" />
		<tag k="name" v="Øversætrin" />
		<tag k="place" v="locality" />
		<tag k="ssr:stedsnr" v="10425" />
	</node>
	<node id="-116128" lat="61.8659833375" lon="9.12328889376">
		<tag k="alt_name" v="Stein, øvre" />
		<tag k="name" v="Øvre Stein" />
		<tag k="place" v="farm" />
		<tag k="ssr:stedsnr" v="10304" />
	</node>
	<node id="-116127" lat="61.8626749993" lon="9.11460277265">
		<tag k="alt_name" v="Haugen" />
		<tag k="name" v="Hagen" />
		<tag k="place" v="farm" />
		<tag k="ssr:stedsnr" v="10302" />
	</node>
	<node id="-116126" lat="61.8572138888" lon="9.18691666584">
		<tag k="fixme" v="consider place=hamlet" />
		<tag k="name" v="Sjårdalen" />
		<tag k="place" v="village" />
		<tag k="ssr:stedsnr" v="10296" />
	</node>
	<node id="-116125" lat="61.8592821411" lon="9.06897959303">
		<tag k="fixme" v="consider place=hamlet" />
		<tag k="name" v="Ripstrond" />
		<tag k="place" v="farm" />
		<tag k="ssr:stedsnr" v="10282" />
	</node>
	<node id="-116124" lat="61.8601358316" lon="9.15748126309">
		<tag k="alt_name" v="Bråten, øvre;Øver-Bråtån" />
		<tag k="name" v="Øvre Bråten" />
		<tag k="place" v="farm" />
		<tag k="ssr:stedsnr" v="10280" />
	</node>
	<node id="-116119" lat="61.9214725358" lon="9.00750717272">
		<tag k="fixme" v="consider place=hamlet" />
		<tag k="name" v="Preststulen" />
		<tag k="place" v="farm" />
		<tag k="ssr:stedsnr" v="10165" />
	</node>
	<node id="-116118" lat="61.9124638924" lon="8.97132777972">
		<tag k="alt_name" v="Liasætrin, nordre" />
		<tag k="historic" v="shieling" />
		<tag k="name" v="Nørdre Liasætrin" />
		<tag k="place" v="locality" />
		<tag k="ssr:stedsnr" v="10160" />
	</node>
	<node id="-116097" lat="61.7701240617" lon="9.05340099625">
		<tag k="historic" v="shieling" />
		<tag k="name" v="Sygard Valdesætre" />
		<tag k="place" v="locality" />
		<tag k="ssr:stedsnr" v="989668" />
	</node>
	<node id="-116096" lat="61.8250167583" lon="9.25788818478">
		<tag k="alt_name" v="Bakkom nedre" />
		<tag k="name" v="Nedre Bakkom" />
		<tag k="place" v="farm" />
		<tag k="ssr:stedsnr" v="989448" />
	</node>
	<node id="-116095" lat="61.8499024551" lon="8.89708193654">
		<tag k="name" v="Midtre Neset" />
		<tag k="place" v="locality" />
		<tag k="ssr:stedsnr" v="989447" />
	</node>
	<node id="-116094" lat="61.8263533418" lon="9.39810074131">
		<tag k="name" v="Åsen" />
		<tag k="place" v="hamlet" />
		<tag k="ssr:stedsnr" v="987558" />
	</node>
	<node id="-116093" lat="61.8266651992" lon="9.39478008014">
		<tag k="leisure" v="pitch" />
		<tag k="name" v="Tolstadåsen skistadion" />
		<tag k="ssr:stedsnr" v="987174" />
	</node>
	<node id="-116090" lat="61.8000501687" lon="9.3047479804">
		<tag k="fixme" v="consider place=hamlet" />
		<tag k="name" v="Eide" />
		<tag k="place" v="farm" />
		<tag k="ssr:stedsnr" v="984612" />
	</node>
	<node id="-116089" lat="61.8568207471" lon="9.20059497005">
		<tag k="fixme" v="consider place=hamlet" />
		<tag k="name" v="Austrem" />
		<tag k="place" v="farm" />
		<tag k="ssr:stedsnr" v="984602" />
	</node>
	<node id="-116088" lat="61.8585962893" lon="9.18867798268">
		<tag k="name" v="Holdbø" />
		<tag k="place" v="hamlet" />
		<tag k="ssr:stedsnr" v="984601" />
	</node>
	<node id="-116087" lat="61.865149583" lon="9.15324829426">
		<tag k="name" v="Kleppe" />
		<tag k="place" v="hamlet" />
		<tag k="ssr:stedsnr" v="984599" />
	</node>
	<node id="-116086" lat="61.8615819139" lon="9.08340992396">
		<tag k="fixme" v="consider place=hamlet" />
		<tag k="name" v="Klones" />
		<tag k="place" v="farm" />
		<tag k="ssr:stedsnr" v="984598" />
	</node>
	<node id="-116085" lat="61.8568012585" lon="9.04700479576">
		<tag k="name" v="Strond" />
		<tag k="place" v="hamlet" />
		<tag k="ssr:stedsnr" v="984597" />
	</node>
	<node id="-116084" lat="61.8262048199" lon="8.98298270146">
		<tag k="name" v="Stordalen" />
		<tag k="place" v="locality" />
		<tag k="ssr:stedsnr" v="984592" />
	</node>
	<node id="-116083" lat="61.8242941126" lon="8.98598506876">
		<tag k="name" v="Haugen" />
		<tag k="place" v="locality" />
		<tag k="ssr:stedsnr" v="984591" />
	</node>
	<node id="-116082" lat="61.8259476711" lon="8.9922638349">
		<tag k="name" v="Flatåsen" />
		<tag k="place" v="locality" />
		<tag k="ssr:stedsnr" v="984590" />
	</node>
	<node id="-116081" lat="61.8293746925" lon="8.9991735328">
		<tag k="fixme" v="consider place=hamlet" />
		<tag k="name" v="Bakken" />
		<tag k="place" v="farm" />
		<tag k="ssr:stedsnr" v="984589" />
	</node>
	<node id="-116080" lat="61.861941182" lon="9.01586086921">
		<tag k="alt_name" v="Valle" />
		<tag k="name" v="Velle" />
		<tag k="place" v="hamlet" />
		<tag k="ssr:stedsnr" v="984583" />
	</node>
	<node id="-116079" lat="61.8660974977" lon="9.01766623735">
		<tag k="name" v="Viste" />
		<tag k="place" v="hamlet" />
		<tag k="ssr:stedsnr" v="984582" />
	</node>
	<node id="-116078" lat="61.8658804038" lon="8.99404385926">
		<tag k="alt_name" v="Bergje" />
		<tag k="name" v="Berge" />
		<tag k="place" v="hamlet" />
		<tag k="ssr:stedsnr" v="984581" />
	</node>
	<node id="-116077" lat="61.860712684" lon="8.97018287833">
		<tag k="fixme" v="consider place=hamlet" />
		<tag k="name" v="Sveom" />
		<tag k="place" v="farm" />
		<tag k="ssr:stedsnr" v="984580" />
	</node>
	<node id="-116076" lat="61.8724607022" lon="9.0073045334">
		<tag k="name" v="Visdal" />
		<tag k="place" v="hamlet" />
		<tag k="ssr:stedsnr" v="984575" />
	</node>
	<node id="-116075" lat="61.8747722693" lon="9.06147135867">
		<tag k="name" v="Kvarberg" />
		<tag k="place" v="hamlet" />
		<tag k="ssr:stedsnr" v="984573" />
	</node>
	<node id="-116074" lat="61.9274790258" lon="8.95581597794">
		<tag k="name" v="Haugen" />
		<tag k="place" v="hamlet" />
		<tag k="ssr:stedsnr" v="984550" />
	</node>
	<node id="-116073" lat="61.9094430184" lon="8.99753911285">
		<tag k="loc_name" v="Skjedsvoll" />
		<tag k="name" v="Skjesvoll" />
		<tag k="place" v="hamlet" />
		<tag k="ssr:stedsnr" v="984548" />
	</node>
	<node id="-116072" lat="61.9023887657" lon="9.00776874499">
		<tag k="name" v="Synsteng" />
		<tag k="place" v="hamlet" />
		<tag k="ssr:stedsnr" v="984547" />
	</node>
	<node id="-116071" lat="61.897296308" lon="9.02172642538">
		<tag k="name" v="Siem" />
		<tag k="place" v="hamlet" />
		<tag k="ssr:stedsnr" v="984546" />
	</node>
	<node id="-116070" lat="61.8875364485" lon="9.07468346484">
		<tag k="name" v="Lunde" />
		<tag k="place" v="hamlet" />
		<tag k="ssr:stedsnr" v="984545" />
	</node>
	<node id="-116069" lat="61.8828642505" lon="9.08042699357">
		<tag k="fixme" v="consider place=hamlet" />
		<tag k="name" v="Sundhågån" />
		<tag k="place" v="farm" />
		<tag k="ssr:stedsnr" v="984506" />
	</node>
	<node id="-116068" lat="61.8819468181" lon="9.09582194403">
		<tag k="name" v="Blessom" />
		<tag k="place" v="hamlet" />
		<tag k="ssr:stedsnr" v="984504" />
	</node>
	<node id="-116067" lat="61.864742937" lon="9.21106601105">
		<tag k="fixme" v="consider place=hamlet" />
		<tag k="name" v="Haugen" />
		<tag k="place" v="farm" />
		<tag k="ssr:stedsnr" v="984408" />
	</node>
	<node id="-116064" lat="61.851974756" lon="9.03872797938">
		<tag k="name" v="Vistekleivi" />
		<tag k="place" v="locality" />
		<tag k="ssr:stedsnr" v="1073400" />
	</node>
	<node id="-116062" lat="61.8484734284" lon="9.23991157116">
		<tag k="name" v="Snerle" />
		<tag k="place" v="hamlet" />
		<tag k="ssr:stedsnr" v="1072157" />
	</node>
	<node id="-116057" lat="61.858447223" lon="9.174858324">
		<tag k="name" v="Midtre Stokstad" />
		<tag k="place" v="farm" />
		<tag k="ssr:stedsnr" v="891963" />
	</node>
	<node id="-116055" lat="61.8239037168" lon="9.28430851541">
		<tag k="fixme" v="consider place=hamlet" />
		<tag k="name" v="Løkken" />
		<tag k="place" v="farm" />
		<tag k="ssr:stedsnr" v="891890" />
	</node>
	<node id="-116051" lat="61.8749083334" lon="9.03831110494">
		<tag k="name" v="Fjellheim" />
		<tag k="place" v="farm" />
		<tag k="ssr:stedsnr" v="891282" />
	</node>
	<node id="-116050" lat="61.8622361114" lon="9.08645277875">
		<tag k="amenity" v="school" />
		<tag k="name" v="Klones vidaregåande skule" />
		<tag k="ssr:stedsnr" v="891278" />
	</node>
	<node id="-116044" lat="61.8497333318" lon="8.99620555267">
		<tag k="name" v="Valdvik" />
		<tag k="place" v="farm" />
		<tag k="ssr:stedsnr" v="891152" />
	</node>
	<node id="-116043" lat="61.8436250037" lon="8.95391111761">
		<tag k="name" v="Upphaug" />
		<tag k="place" v="farm" />
		<tag k="ssr:stedsnr" v="891143" />
	</node>
	<node id="-116042" lat="61.8375333332" lon="8.96171667546">
		<tag k="name" v="Synnesonstugu" />
		<tag k="place" v="isolated_dwelling" />
		<tag k="ssr:stedsnr" v="891144" />
	</node>
	<node id="-116040" lat="61.8814194408" lon="9.09550278403">
		<tag k="name" v="Nørdre Blessom" />
		<tag k="place" v="farm" />
		<tag k="ssr:stedsnr" v="891060" />
	</node>
	<node id="-116034" lat="61.8832499964" lon="9.11961388752">
		<tag k="name" v="Søre Skjellom" />
		<tag k="place" v="isolated_dwelling" />
		<tag k="ssr:stedsnr" v="889985" />
	</node>
	<node id="-116032" lat="61.8470083293" lon="9.21748333074">
		<tag k="name" v="Vestheim" />
		<tag k="place" v="isolated_dwelling" />
		<tag k="ssr:stedsnr" v="889855" />
	</node>
	<node id="-116031" lat="61.854513892" lon="9.17223055109">
		<tag k="name" v="Nørder-Svee" />
		<tag k="place" v="farm" />
		<tag k="ssr:stedsnr" v="889774" />
	</node>
	<node id="-116029" lat="61.8450361115" lon="8.93333333388">
		<tag k="name" v="Husehaugen" />
		<tag k="place" v="farm" />
		<tag k="ssr:stedsnr" v="889131" />
	</node>
	<node id="-116025" lat="61.892455553" lon="9.04725833909">
		<tag k="name" v="Nordigard Svare" />
		<tag k="place" v="farm" />
		<tag k="ssr:stedsnr" v="889018" />
	</node>
	<node id="-116024" lat="61.848311111" lon="9.21125000815">
		<tag k="name" v="Løkjerandin" />
		<tag k="place" v="farm" />
		<tag k="ssr:stedsnr" v="888835" />
	</node>
	<node id="-116022" lat="61.8707055522" lon="9.09559722467">
		<tag k="name" v="Pressmoen" />
		<tag k="place" v="farm" />
		<tag k="ssr:stedsnr" v="888175" />
	</node>
	<node id="-116016" lat="61.9294444437" lon="8.94313889631">
		<tag k="name" v="Søre Øyagarden" />
		<tag k="place" v="farm" />
		<tag k="ssr:stedsnr" v="478344" />
	</node>
	<node id="-116009" lat="61.7994722225" lon="9.151258325">
		<tag k="historic" v="shieling" />
		<tag k="name" v="Buhaugen" />
		<tag k="place" v="locality" />
		<tag k="ssr:stedsnr" v="413557" />
	</node>
	<node id="-116001" lat="61.8562194449" lon="9.17402222266">
		<tag k="name" v="Berget" />
		<tag k="place" v="isolated_dwelling" />
		<tag k="ssr:stedsnr" v="405965" />
	</node>
	<node id="-116000" lat="61.8651333363" lon="9.16853055715">
		<tag k="name" v="Øver-Åsen" />
		<tag k="place" v="farm" />
		<tag k="ssr:stedsnr" v="405963" />
	</node>
	<node id="-115998" lat="61.8381190797" lon="9.28849037427">
		<tag k="name" v="Bolstadhagan" />
		<tag k="place" v="farm" />
		<tag k="ssr:stedsnr" v="405613" />
	</node>
	<node id="-115988" lat="61.8498722183" lon="8.99954999381">
		<tag k="name" v="Arnøygarden" />
		<tag k="place" v="locality" />
		<tag k="ssr:stedsnr" v="405117" />
	</node>
	<node id="-115986" lat="61.8411416661" lon="8.96185833249">
		<tag k="name" v="Nils-Brun" />
		<tag k="place" v="farm" />
		<tag k="ssr:stedsnr" v="405105" />
	</node>
	<node id="-115985" lat="61.8824305598" lon="9.09257778547">
		<tag k="name" v="Vesl-Blessom" />
		<tag k="place" v="isolated_dwelling" />
		<tag k="ssr:stedsnr" v="405045" />
	</node>
	<node id="-115984" lat="61.9018159636" lon="9.01766416462">
		<tag k="fixme" v="consider place=hamlet" />
		<tag k="name" v="Lykkja" />
		<tag k="place" v="farm" />
		<tag k="ssr:stedsnr" v="405006" />
	</node>
	<node id="-115981" lat="61.8779666649" lon="9.11952499263">
		<tag k="name" v="Sveaholen" />
		<tag k="place" v="isolated_dwelling" />
		<tag k="ssr:stedsnr" v="403993" />
	</node>
	<node id="-115980" lat="61.8834333302" lon="9.11752778671">
		<tag k="name" v="Midtre Skjellom" />
		<tag k="place" v="isolated_dwelling" />
		<tag k="ssr:stedsnr" v="403989" />
	</node>
	<node id="-115978" lat="61.8407277742" lon="9.23052777224">
		<tag k="name" v="Stadelykkja" />
		<tag k="place" v="isolated_dwelling" />
		<tag k="ssr:stedsnr" v="403864" />
	</node>
	<node id="-115977" lat="61.8556277785" lon="9.18466388306">
		<tag k="name" v="Myrhaug" />
		<tag k="place" v="farm" />
		<tag k="ssr:stedsnr" v="403771" />
	</node>
	<node id="-115976" lat="61.8658750018" lon="9.21989166163">
		<tag k="name" v="Rundhaugen" />
		<tag k="place" v="farm" />
		<tag k="ssr:stedsnr" v="403764" />
	</node>
	<node id="-115975" lat="61.8619666656" lon="9.22330278672">
		<tag k="name" v="Nørdre Brekka" />
		<tag k="place" v="isolated_dwelling" />
		<tag k="ssr:stedsnr" v="403763" />
	</node>
	<node id="-115974" lat="61.8651555584" lon="9.20180276967">
		<tag k="name" v="Rokkemoen" />
		<tag k="place" v="isolated_dwelling" />
		<tag k="ssr:stedsnr" v="403741" />
	</node>
	<node id="-115973" lat="61.8667444402" lon="9.20336388796">
		<tag k="name" v="Barli" />
		<tag k="place" v="isolated_dwelling" />
		<tag k="ssr:stedsnr" v="403729" />
	</node>
	<node id="-115972" lat="61.8595704818" lon="8.90973806377">
		<tag k="fixme" v="consider place=hamlet" />
		<tag k="name" v="Hestule" />
		<tag k="place" v="farm" />
		<tag k="ssr:stedsnr" v="403069" />
	</node>
	<node id="-115970" lat="61.8594725891" lon="8.89404129332">
		<tag k="fixme" v="consider place=hamlet" />
		<tag k="name" v="Storsteinruste" />
		<tag k="place" v="farm" />
		<tag k="ssr:stedsnr" v="403066" />
	</node>
	<node id="-115969" lat="61.8852999958" lon="9.0912555465">
		<tag k="name" v="Øver-sæta" />
		<tag k="place" v="isolated_dwelling" />
		<tag k="ssr:stedsnr" v="403038" />
	</node>
	<node id="-115968" lat="61.8980444468" lon="9.01677222795">
		<tag k="name" v="Nørdre Siem" />
		<tag k="place" v="locality" />
		<tag k="ssr:stedsnr" v="403025" />
	</node>
	<node id="-115957" lat="61.960644446" lon="8.98510833357">
		<tag k="alt_name" v="Skarvangssætrin" />
		<tag k="name" v="Skårvangssætrin" />
		<tag k="place" v="hamlet" />
		<tag k="ssr:stedsnr" v="375150" />
	</node>
	<node id="-115945" lat="61.8001999971" lon="9.31129999542">
		<tag k="name" v="Turtum" />
		<tag k="place" v="farm" />
		<tag k="ssr:stedsnr" v="374889" />
	</node>
	<node id="-115937" lat="61.8312472191" lon="9.22074444047">
		<tag k="name" v="Skardsætrin" />
		<tag k="place" v="isolated_dwelling" />
		<tag k="ssr:stedsnr" v="374806" />
	</node>
	<node id="-115936" lat="61.8331944843" lon="9.28174579513">
		<tag k="fixme" v="consider place=hamlet" />
		<tag k="name" v="Tolstad" />
		<tag k="place" v="farm" />
		<tag k="ssr:stedsnr" v="374798" />
	</node>
	<node id="-115935" lat="61.8203399378" lon="9.25651639291">
		<tag k="fixme" v="consider place=hamlet" />
		<tag k="name" v="Øvre Skår" />
		<tag k="place" v="farm" />
		<tag k="ssr:stedsnr" v="374783" />
	</node>
	<node id="-115934" lat="61.6550999983" lon="8.98965277781">
		<tag k="historic" v="shieling" />
		<tag k="name" v="Veolie" />
		<tag k="place" v="locality" />
		<tag k="ssr:stedsnr" v="374780" />
	</node>
	<node id="-115932" lat="61.8211499966" lon="9.11610555331">
		<tag k="historic" v="shieling" />
		<tag k="name" v="Moasætrin" />
		<tag k="place" v="locality" />
		<tag k="ssr:stedsnr" v="374464" />
	</node>
	<node id="-115931" lat="61.7988083332" lon="9.02289165871">
		<tag k="alt_name" v="Øygardsnessætre" />
		<tag k="historic" v="shieling" />
		<tag k="name" v="Øygardsætri" />
		<tag k="place" v="locality" />
		<tag k="ssr:stedsnr" v="374456" />
	</node>
	<node id="-115928" lat="61.7926166667" lon="9.1726611023">
		<tag k="alt_name" v="Kleivsætre" />
		<tag k="historic" v="shieling" />
		<tag k="name" v="Kleivsætri" />
		<tag k="place" v="locality" />
		<tag k="ssr:stedsnr" v="374445" />
	</node>
	<node id="-115926" lat="61.7720388871" lon="9.09031943581">
		<tag k="alt_name" v="Skarå" />
		<tag k="historic" v="shieling" />
		<tag k="name" v="Skardåi" />
		<tag k="place" v="locality" />
		<tag k="ssr:stedsnr" v="374411" />
	</node>
	<node id="-115924" lat="61.8876277769" lon="9.07811389011">
		<tag k="alt_name" v="Lunde" />
		<tag k="name" v="Nigard Lunde" />
		<tag k="place" v="farm" />
		<tag k="ssr:stedsnr" v="374373" />
	</node>
	<node id="-115923" lat="61.881511107" lon="9.09736666761">
		<tag k="alt_name" v="Blesom" />
		<tag k="name" v="Søre Blessom" />
		<tag k="place" v="farm" />
		<tag k="ssr:stedsnr" v="374368" />
	</node>
	<node id="-115922" lat="61.870754243" lon="8.99918122065">
		<tag k="fixme" v="consider place=hamlet" />
		<tag k="name" v="Mo" />
		<tag k="place" v="farm" />
		<tag k="ssr:stedsnr" v="374351" />
	</node>
	<node id="-115921" lat="61.8567189238" lon="8.96938059096">
		<tag k="alt_name" v="Nørdre Ulsand" />
		<tag k="fixme" v="consider place=hamlet" />
		<tag k="name" v="Urdsand" />
		<tag k="place" v="farm" />
		<tag k="ssr:stedsnr" v="374325" />
	</node>
	<node id="-115920" lat="61.858273982" lon="9.06003136875">
		<tag k="fixme" v="consider place=hamlet" />
		<tag k="name" v="Rusnes" />
		<tag k="place" v="farm" />
		<tag k="ssr:stedsnr" v="374323" />
	</node>
	<node id="-115918" lat="61.8406972258" lon="8.96496388498">
		<tag k="name" v="Bruhaugen" />
		<tag k="place" v="farm" />
		<tag k="ssr:stedsnr" v="374275" />
	</node>
	<node id="-115913" lat="61.8255527781" lon="8.97883054791">
		<tag k="fixme" v="consider place=hamlet" />
		<tag k="name" v="Vesllykkja" />
		<tag k="place" v="farm" />
		<tag k="ssr:stedsnr" v="373505" />
	</node>
	<node id="-115912" lat="61.8288749984" lon="9.00087222863">
		<tag k="alt_name" v="Bakken, øvre" />
		<tag k="name" v="Øvre Bakken" />
		<tag k="place" v="farm" />
		<tag k="ssr:stedsnr" v="373495" />
	</node>
	<node id="-115911" lat="61.8201418422" lon="9.00511807823">
		<tag k="fixme" v="consider place=hamlet" />
		<tag k="name" v="Dalen" />
		<tag k="place" v="farm" />
		<tag k="ssr:stedsnr" v="373475" />
	</node>
	<node id="-115908" lat="61.4875138933" lon="8.71151665971">
		<tag k="name" v="Leirungsbue" />
		<tag k="place" v="isolated_dwelling" />
		<tag k="ssr:stedsnr" v="372786" />
	</node>
	<node id="-115904" lat="61.9244416698" lon="8.97883889739">
		<tag k="name" v="Megarden" />
		<tag k="place" v="farm" />
		<tag k="ssr:stedsnr" v="357343" />
	</node>
	<node id="-115899" lat="61.8251361102" lon="9.38550556316">
		<tag k="historic" v="shieling" />
		<tag k="name" v="Tjorsætre" />
		<tag k="place" v="locality" />
		<tag k="ssr:stedsnr" v="352519" />
	</node>
	<node id="-115898" lat="61.8282555513" lon="9.28148610935">
		<tag k="name" v="Håmårlykkja" />
		<tag k="place" v="isolated_dwelling" />
		<tag k="ssr:stedsnr" v="351929" />
	</node>
	<node id="-115894" lat="61.8237694422" lon="9.28143333176">
		<tag k="name" v="Tolstadløkken" />
		<tag k="place" v="farm" />
		<tag k="ssr:stedsnr" v="344881" />
	</node>
	<node id="-115889" lat="61.7311472263" lon="9.07637222924">
		<tag k="historic" v="shieling" />
		<tag k="name" v="Sætasætre" />
		<tag k="place" v="locality" />
		<tag k="ssr:stedsnr" v="344300" />
	</node>
	<node id="-115888" lat="61.8749194424" lon="9.04207500776">
		<tag k="name" v="Resvoll" />
		<tag k="place" v="farm" />
		<tag k="ssr:stedsnr" v="344252" />
	</node>
	<node id="-115887" lat="61.8726611092" lon="9.03394722379">
		<tag k="name" v="Nedre Valbjørslykkja" />
		<tag k="place" v="farm" />
		<tag k="ssr:stedsnr" v="344249" />
	</node>
	<node id="-115885" lat="61.8708555554" lon="9.04179722245">
		<tag k="name" v="Hellelykkja" />
		<tag k="place" v="farm" />
		<tag k="ssr:stedsnr" v="344233" />
	</node>
	<node id="-115884" lat="61.870641665" lon="9.08711944194">
		<tag k="name" v="Vang" />
		<tag k="place" v="farm" />
		<tag k="ssr:stedsnr" v="344223" />
	</node>
	<node id="-115878" lat="61.8686444403" lon="8.91929167144">
		<tag k="historic" v="shieling" />
		<tag k="name" v="Grevrustsætre" />
		<tag k="place" v="locality" />
		<tag k="ssr:stedsnr" v="344066" />
	</node>
	<node id="-115877" lat="61.8841111102" lon="9.10101945238">
		<tag k="name" v="Steinstugu" />
		<tag k="place" v="isolated_dwelling" />
		<tag k="ssr:stedsnr" v="344052" />
	</node>
	<node id="-115874" lat="61.9026222202" lon="9.01654445259">
		<tag k="name" v="Nystugu" />
		<tag k="place" v="farm" />
		<tag k="ssr:stedsnr" v="344009" />
	</node>
	<node id="-115872" lat="61.9078166653" lon="8.99903055975">
		<tag k="name" v="Midtre Skjedsvoll" />
		<tag k="place" v="farm" />
		<tag k="ssr:stedsnr" v="344004" />
	</node>
	<node id="-115868" lat="61.8796194446" lon="9.13414722174">
		<tag k="name" v="Nordigard Sandbu" />
		<tag k="place" v="farm" />
		<tag k="ssr:stedsnr" v="342988" />
	</node>
	<node id="-115867" lat="61.8794166674" lon="9.14170833649">
		<tag k="name" v="Gammel-Sandbu" />
		<tag k="place" v="farm" />
		<tag k="ssr:stedsnr" v="342984" />
	</node>
	<node id="-115866" lat="61.8432388887" lon="9.22478610413">
		<tag k="name" v="Storbråtein" />
		<tag k="place" v="farm" />
		<tag k="ssr:stedsnr" v="342814" />
	</node>
	<node id="-115863" lat="61.8701527752" lon="9.2081111131">
		<tag k="name" v="Lie" />
		<tag k="place" v="isolated_dwelling" />
		<tag k="ssr:stedsnr" v="342689" />
	</node>
	<node id="-115859" lat="61.887594443" lon="9.10416389034">
		<tag k="name" v="Lykkja" />
		<tag k="place" v="farm" />
		<tag k="ssr:stedsnr" v="342030" />
	</node>
	<node id="-115858" lat="61.8918650727" lon="9.05449760364">
		<tag k="fixme" v="consider place=hamlet" />
		<tag k="name" v="Huset" />
		<tag k="place" v="farm" />
		<tag k="ssr:stedsnr" v="342016" />
	</node>
	<node id="-115857" lat="61.8394174546" lon="9.28323642576">
		<tag k="fixme" v="consider place=hamlet" />
		<tag k="name" v="Runningen" />
		<tag k="place" v="farm" />
		<tag k="ssr:stedsnr" v="339579" />
	</node>
	<node id="-115851" lat="61.8443861093" lon="9.22346945024">
		<tag k="name" v="Veslbråtån" />
		<tag k="place" v="farm" />
		<tag k="ssr:stedsnr" v="314925" />
	</node>
	<node id="-115849" lat="61.8051499982" lon="9.30519999357">
		<tag k="name" v="Fossen" />
		<tag k="place" v="farm" />
		<tag k="ssr:stedsnr" v="314854" />
	</node>
	<node id="-115848" lat="61.8398888917" lon="9.27668055403">
		<tag k="name" v="Reinshus" />
		<tag k="place" v="farm" />
		<tag k="ssr:stedsnr" v="314803" />
	</node>
	<node id="-115847" lat="61.8412772871" lon="9.26875076118">
		<tag k="alt_name" v="Bjørnstad, nedre" />
		<tag k="fixme" v="consider place=hamlet" />
		<tag k="name" v="Nedre Bjørnstad" />
		<tag k="place" v="farm" />
		<tag k="ssr:stedsnr" v="314798" />
	</node>
	<node id="-115845" lat="61.7607194418" lon="9.12759445311">
		<tag k="alt_name" v="Vistesætri;Nordigard Vistesætre" />
		<tag k="historic" v="shieling" />
		<tag k="name" v="Nordigard Vistesætri" />
		<tag k="place" v="locality" />
		<tag k="ssr:stedsnr" v="314440" />
	</node>
	<node id="-115842" lat="61.875036114" lon="9.09666944539">
		<tag k="name" v="Vågåmo" />
		<tag k="place" v="village" />
		<tag k="ssr:stedsnr" v="314370" />
	</node>
	<node id="-115841" lat="61.862259416" lon="8.96636711386">
		<tag k="alt_name" v="Groven" />
		<tag k="fixme" v="consider place=hamlet" />
		<tag k="name" v="Grovi" />
		<tag k="place" v="farm" />
		<tag k="ssr:stedsnr" v="314356" />
	</node>
	<node id="-115835" lat="61.9175086681" lon="8.98065008868">
		<tag k="alt_name" v="Bakkjin" />
		<tag k="fixme" v="consider place=hamlet" />
		<tag k="name" v="Bakken" />
		<tag k="place" v="farm" />
		<tag k="ssr:stedsnr" v="314155" />
	</node>
	<node id="-115834" lat="61.9306361136" lon="8.90363056365">
		<tag k="alt_name" v="Finndalsætre" />
		<tag k="historic" v="shieling" />
		<tag k="name" v="Finndalen" />
		<tag k="place" v="locality" />
		<tag k="ssr:stedsnr" v="314150" />
	</node>
	<node id="-115833" lat="61.9480092332" lon="9.12720699438">
		<tag k="historic" v="shieling" />
		<tag k="loc_name" v="Øyasætre" />
		<tag k="name" v="Øyasætri" />
		<tag k="place" v="locality" />
		<tag k="ssr:stedsnr" v="314141" />
	</node>
	<node id="-115832" lat="61.7339666651" lon="9.06843332473">
		<tag k="historic" v="shieling" />
		<tag k="name" v="Krokumsætri" />
		<tag k="place" v="locality" />
		<tag k="ssr:stedsnr" v="313972" />
	</node>
	<node id="-115823" lat="61.8215006682" lon="9.26310565728">
		<tag k="fixme" v="consider place=hamlet" />
		<tag k="name" v="Ner-Skår" />
		<tag k="place" v="farm" />
		<tag k="ssr:stedsnr" v="313789" />
	</node>
	<node id="-115820" lat="61.8131333362" lon="9.00970833664">
		<tag k="name" v="Grov" />
		<tag k="place" v="farm" />
		<tag k="ssr:stedsnr" v="313470" />
	</node>
	<node id="-115817" lat="61.8020166636" lon="9.18625832707">
		<tag k="historic" v="shieling" />
		<tag k="name" v="Bakkesætri" />
		<tag k="place" v="locality" />
		<tag k="ssr:stedsnr" v="313427" />
	</node>
	<node id="-115816" lat="61.8068108933" lon="9.17232761481">
		<tag k="alt_name" v="Breinnsætre" />
		<tag k="historic" v="shieling" />
		<tag k="name" v="Brennsætrin" />
		<tag k="place" v="locality" />
		<tag k="ssr:stedsnr" v="313424" />
	</node>
	<node id="-115813" lat="61.7804222214" lon="9.1676444461">
		<tag k="historic" v="shieling" />
		<tag k="name" v="Kjøllstadsætri" />
		<tag k="place" v="locality" />
		<tag k="ssr:stedsnr" v="313400" />
	</node>
	<node id="-115812" lat="61.86271111" lon="8.98578333202">
		<tag k="alt_name" v="Hågån" />
		<tag k="name" v="Hagen" />
		<tag k="place" v="farm" />
		<tag k="ssr:stedsnr" v="313316" />
	</node>
	<node id="-115811" lat="61.8639194416" lon="9.10153888031">
		<tag k="name" v="Skogstad" />
		<tag k="place" v="farm" />
		<tag k="ssr:stedsnr" v="313311" />
	</node>
	<node id="-115809" lat="61.8605725409" lon="8.93801326313">
		<tag k="alt_name" v="Grevruste" />
		<tag k="fixme" v="consider place=hamlet" />
		<tag k="name" v="Grevrusti" />
		<tag k="place" v="farm" />
		<tag k="ssr:stedsnr" v="313304" />
	</node>
	<node id="-115808" lat="61.8531388891" lon="9.18689723138">
		<tag k="alt_name" v="Svei, midtre;Me-Svee" />
		<tag k="name" v="Midtre Svei" />
		<tag k="place" v="farm" />
		<tag k="ssr:stedsnr" v="313288" />
	</node>
	<node id="-115807" lat="61.8496805532" lon="9.00835832927">
		<tag k="name" v="Randen" />
		<tag k="place" v="farm" />
		<tag k="ssr:stedsnr" v="313275" />
	</node>
	<node id="-115806" lat="61.8432611086" lon="8.97177222612">
		<tag k="alt_name" v="Åsgård" />
		<tag k="name" v="Åsgard" />
		<tag k="place" v="farm" />
		<tag k="ssr:stedsnr" v="313262" />
	</node>
	<node id="-115805" lat="61.8432833329" lon="8.94050000422">
		<tag k="name" v="Ramstugu" />
		<tag k="place" v="farm" />
		<tag k="ssr:stedsnr" v="313260" />
	</node>
	<node id="-115795" lat="61.4882583373" lon="8.84548889394">
		<tag k="alt_name" v="Maurvangene" />
		<tag k="name" v="Maurvangen" />
		<tag k="place" v="isolated_dwelling" />
		<tag k="ssr:stedsnr" v="311281" />
	</node>
	<node id="-115790" lat="61.9143138928" lon="8.98673332806">
		<tag k="name" v="Gjelet" />
		<tag k="place" v="isolated_dwelling" />
		<tag k="ssr:stedsnr" v="297395" />
	</node>
	<node id="-115786" lat="61.9277277809" lon="8.95460833455">
		<tag k="name" v="Nørdre Haugen" />
		<tag k="place" v="farm" />
		<tag k="ssr:stedsnr" v="296310" />
	</node>
	<node id="-115785" lat="61.7975514519" lon="9.21638119756">
		<tag k="alt_name" v="Breinstad" />
		<tag k="name" v="Brennstad" />
		<tag k="place" v="isolated_dwelling" />
		<tag k="ssr:stedsnr" v="292967" />
	</node>
	<node id="-115784" lat="61.8228750021" lon="9.25871111006">
		<tag k="name" v="Nedre Kjølstad" />
		<tag k="place" v="isolated_dwelling" />
		<tag k="ssr:stedsnr" v="292925" />
	</node>
	<node id="-115781" lat="61.8324916627" lon="9.25471389154">
		<tag k="alt_name" v="Olderløkken" />
		<tag k="name" v="Olderlykkja" />
		<tag k="place" v="farm" />
		<tag k="ssr:stedsnr" v="291922" />
	</node>
	<node id="-115780" lat="61.8582222264" lon="9.17061389566">
		<tag k="name" v="Nørdre Stokstad" />
		<tag k="place" v="farm" />
		<tag k="ssr:stedsnr" v="284959" />
	</node>
	<node id="-115779" lat="61.8219027752" lon="9.27027778513">
		<tag k="name" v="Blekahaugen" />
		<tag k="place" v="locality" />
		<tag k="ssr:stedsnr" v="284952" />
	</node>
	<node id="-115777" lat="61.6689916656" lon="9.06600277086">
		<tag k="historic" v="shieling" />
		<tag k="name" v="Bjørnstad seter" />
		<tag k="place" v="locality" />
		<tag k="ssr:stedsnr" v="284394" />
	</node>
	<node id="-115774" lat="61.8757055555" lon="9.04482777921">
		<tag k="name" v="Brennhaug" />
		<tag k="place" v="isolated_dwelling" />
		<tag k="ssr:stedsnr" v="284263" />
	</node>
	<node id="-115771" lat="61.8418908212" lon="8.9643566373">
		<tag k="fixme" v="consider place=hamlet" />
		<tag k="name" v="Perstugu" />
		<tag k="place" v="farm" />
		<tag k="ssr:stedsnr" v="284132" />
	</node>
	<node id="-115769" lat="61.8649722221" lon="8.97940555484">
		<tag k="name" v="Ulvsbustugu" />
		<tag k="place" v="farm" />
		<tag k="ssr:stedsnr" v="284101" />
	</node>
	<node id="-115768" lat="61.859684169" lon="8.99150338453">
		<tag k="alt_name" v="Nordigard Seinnes" />
		<tag k="name" v="Nordigard Sandnes" />
		<tag k="place" v="farm" />
		<tag k="ssr:stedsnr" v="284087" />
	</node>
	<node id="-115766" lat="61.8777326492" lon="9.08678339463">
		<tag k="fixme" v="consider place=hamlet" />
		<tag k="name" v="Ullinsvin" />
		<tag k="place" v="farm" />
		<tag k="ssr:stedsnr" v="284053" />
	</node>
	<node id="-115765" lat="61.9421550282" lon="9.00401154322">
		<tag k="historic" v="shieling" />
		<tag k="name" v="Grønli" />
		<tag k="place" v="locality" />
		<tag k="ssr:stedsnr" v="284015" />
	</node>
	<node id="-115763" lat="61.8426388876" lon="9.22638334228">
		<tag k="name" v="Kongsrud" />
		<tag k="place" v="isolated_dwelling" />
		<tag k="ssr:stedsnr" v="282843" />
	</node>
	<node id="-115762" lat="61.8572777762" lon="9.18045000517">
		<tag k="name" v="Barlunn" />
		<tag k="place" v="farm" />
		<tag k="ssr:stedsnr" v="282759" />
	</node>
	<node id="-115759" lat="61.8717916657" lon="9.09885277818">
		<tag k="amenity" v="school" />
		<tag k="name" v="Vågå ungdomsskule" />
		<tag k="ssr:stedsnr" v="282178" />
	</node>
	<node id="-115758" lat="61.8709888922" lon="9.09826388272">
		<tag k="name" v="Postmo" />
		<tag k="place" v="farm" />
		<tag k="ssr:stedsnr" v="282176" />
	</node>
	<node id="-115757" lat="61.8844861071" lon="9.08576111188">
		<tag k="name" v="Sæta" />
		<tag k="place" v="farm" />
		<tag k="ssr:stedsnr" v="282054" />
	</node>
	<node id="-115756" lat="61.884844448" lon="9.08194722851">
		<tag k="name" v="Fagerli" />
		<tag k="place" v="farm" />
		<tag k="ssr:stedsnr" v="282045" />
	</node>
	<node id="-115755" lat="61.8970305594" lon="9.03921665807">
		<tag k="alt_name" v="Galstad" />
		<tag k="name" v="Nørdre Galstad" />
		<tag k="place" v="farm" />
		<tag k="ssr:stedsnr" v="282035" />
	</node>
	<node id="-115754" lat="61.8889361075" lon="9.06399444216">
		<tag k="alt_name" v="Nedre Råstad" />
		<tag k="name" v="Nordigard Råstad" />
		<tag k="place" v="farm" />
		<tag k="ssr:stedsnr" v="282028" />
	</node>
	<node id="-115751" lat="61.8127999982" lon="9.28858888196">
		<tag k="leisure" v="pitch" />
		<tag k="name" v="Lalm idrettsplass" />
		<tag k="ssr:stedsnr" v="280891" />
	</node>
	<node id="-115749" lat="61.8374638861" lon="9.27309722212">
		<tag k="name" v="Nørdre Enge" />
		<tag k="place" v="farm" />
		<tag k="ssr:stedsnr" v="279633" />
	</node>
	<node id="-115748" lat="61.8454111083" lon="8.92439722252">
		<tag k="name" v="Granheim" />
		<tag k="place" v="isolated_dwelling" />
		<tag k="ssr:stedsnr" v="271353" />
	</node>
	<node id="-117703" lat="61.8778994141" lon="9.13795568196">
		<tag k="name" v="Nigard Sandbu" />
		<tag k="place" v="farm" />
		<tag k="ssr:stedsnr" v="975408" />
	</node>
	<node id="-117701" lat="61.8865172177" lon="9.10471855065">
		<tag k="name" v="Øvre" />
		<tag k="place" v="farm" />
		<tag k="ssr:stedsnr" v="974629" />
	</node>
	<node id="-117698" lat="61.8259216063" lon="8.96408046956">
		<tag k="fixme" v="consider place=hamlet" />
		<tag k="name" v="Fluguhaugen" />
		<tag k="place" v="farm" />
		<tag k="ssr:stedsnr" v="972225" />
	</node>
	<node id="-117697" lat="61.8600899693" lon="8.99399661495">
		<tag k="name" v="Sygard Sandnes" />
		<tag k="place" v="farm" />
		<tag k="ssr:stedsnr" v="972219" />
	</node>
	<node id="-117696" lat="61.8896690563" lon="9.06503117389">
		<tag k="name" v="Råstad" />
		<tag k="place" v="hamlet" />
		<tag k="ssr:stedsnr" v="972216" />
	</node>
	<node id="-117690" lat="61.9298249985" lon="8.97665833715">
		<tag k="name" v="Jeilen" />
		<tag k="place" v="farm" />
		<tag k="ssr:stedsnr" v="964364" />
	</node>
	<node id="-117689" lat="61.9321472241" lon="8.93366666432">
		<tag k="historic" v="shieling" />
		<tag k="name" v="Sveinsætre" />
		<tag k="place" v="locality" />
		<tag k="ssr:stedsnr" v="964358" />
	</node>
	<node id="-117688" lat="61.5519611106" lon="9.15839721953">
		<tag k="alt_name" v="Nysætrin, søre;Nysætrin" />
		<tag k="historic" v="shieling" />
		<tag k="name" v="Søre Nysætrin" />
		<tag k="place" v="locality" />
		<tag k="ssr:stedsnr" v="963871" />
	</node>
	<node id="-117687" lat="61.8034222264" lon="8.9627305542">
		<tag k="historic" v="shieling" />
		<tag k="name" v="Nebbenessætre" />
		<tag k="place" v="locality" />
		<tag k="ssr:stedsnr" v="963483" />
	</node>
	<node id="-117685" lat="61.7596279001" lon="9.12062993867">
		<tag k="alt_name" v="Valviksætre" />
		<tag k="historic" v="shieling" />
		<tag k="name" v="Valviksætri" />
		<tag k="place" v="locality" />
		<tag k="ssr:stedsnr" v="963439" />
	</node>
	<node id="-117673" lat="61.8371888907" lon="9.29048054864">
		<tag k="name" v="Steinstugu" />
		<tag k="place" v="isolated_dwelling" />
		<tag k="ssr:stedsnr" v="951605" />
	</node>
	<node id="-117671" lat="61.9213111133" lon="9.01308332907">
		<tag k="name" v="Hersætre" />
		<tag k="place" v="isolated_dwelling" />
		<tag k="ssr:stedsnr" v="951539" />
	</node>
	<node id="-117668" lat="61.7550666629" lon="9.07007221394">
		<tag k="leisure" v="pitch" />
		<tag k="name" v="Lemonsjøen skisenter" />
		<tag k="ssr:stedsnr" v="951371" />
	</node>
	<node id="-117665" lat="61.8646512273" lon="8.999411361">
		<tag k="fixme" v="consider place=hamlet" />
		<tag k="name" v="Ulvsbu" />
		<tag k="place" v="farm" />
		<tag k="ssr:stedsnr" v="951244" />
	</node>
	<node id="-117664" lat="61.8747833314" lon="9.0459111187">
		<tag k="name" v="Feleselykkja" />
		<tag k="place" v="farm" />
		<tag k="ssr:stedsnr" v="951236" />
	</node>
	<node id="-117663" lat="61.8630083332" lon="9.11240555631">
		<tag k="name" v="Hågån" />
		<tag k="place" v="farm" />
		<tag k="ssr:stedsnr" v="951224" />
	</node>
	<node id="-117662" lat="61.8023387209" lon="9.01722222565">
		<tag k="historic" v="shieling" />
		<tag k="name" v="Husehaugsætre" />
		<tag k="place" v="locality" />
		<tag k="ssr:stedsnr" v="951192" />
	</node>
	<node id="-117660" lat="61.8639722246" lon="8.98875277333">
		<tag k="alt_name" v="Seinneshågån" />
		<tag k="name" v="Sandneshågån" />
		<tag k="place" v="farm" />
		<tag k="ssr:stedsnr" v="951090" />
	</node>
	<node id="-117657" lat="61.8592194434" lon="8.91808334224">
		<tag k="name" v="Veslberget" />
		<tag k="place" v="isolated_dwelling" />
		<tag k="ssr:stedsnr" v="951067" />
	</node>
	<node id="-117656" lat="61.8843833369" lon="9.10401110857">
		<tag k="name" v="Runningen" />
		<tag k="place" v="farm" />
		<tag k="ssr:stedsnr" v="951058" />
	</node>
	<node id="-117655" lat="61.8837750032" lon="9.11411389173">
		<tag k="name" v="Haugøyøygarden" />
		<tag k="place" v="farm" />
		<tag k="ssr:stedsnr" v="951055" />
	</node>
	<node id="-117654" lat="61.8831805589" lon="9.08835555831">
		<tag k="name" v="Flaten" />
		<tag k="place" v="isolated_dwelling" />
		<tag k="ssr:stedsnr" v="951052" />
	</node>
	<node id="-117653" lat="61.8836250022" lon="9.0909527688">
		<tag k="name" v="Ner-sæta" />
		<tag k="place" v="farm" />
		<tag k="ssr:stedsnr" v="951050" />
	</node>
	<node id="-117652" lat="61.9032944403" lon="9.00681667304">
		<tag k="name" v="Nørdre Synsteng" />
		<tag k="place" v="farm" />
		<tag k="ssr:stedsnr" v="951013" />
	</node>
	<node id="-117648" lat="61.8851416706" lon="9.11530554697">
		<tag k="name" v="Bjørge" />
		<tag k="place" v="isolated_dwelling" />
		<tag k="ssr:stedsnr" v="949979" />
	</node>
	<node id="-117646" lat="61.8776333343" lon="9.12113332565">
		<tag k="name" v="Krokom" />
		<tag k="place" v="farm" />
		<tag k="ssr:stedsnr" v="949936" />
	</node>
	<node id="-117644" lat="61.8637027786" lon="9.21230833085">
		<tag k="name" v="Bersveinstugu" />
		<tag k="place" v="isolated_dwelling" />
		<tag k="ssr:stedsnr" v="949750" />
	</node>
	<node id="-117643" lat="61.8687638905" lon="9.21366111204">
		<tag k="name" v="Sagsletten" />
		<tag k="place" v="farm" />
		<tag k="ssr:stedsnr" v="949731" />
	</node>
	<node id="-117642" lat="61.8660277764" lon="9.22116945172">
		<tag k="name" v="Bjørklund" />
		<tag k="place" v="isolated_dwelling" />
		<tag k="ssr:stedsnr" v="949727" />
	</node>
	<node id="-117639" lat="61.8444249992" lon="8.94260834004">
		<tag k="alt_name" v="Megarde Storrvik" />
		<tag k="fixme" v="consider place=hamlet" />
		<tag k="name" v="Megarden Storrvik" />
		<tag k="place" v="farm" />
		<tag k="ssr:stedsnr" v="949106" />
	</node>
	<node id="-117637" lat="61.8847888917" lon="9.08413333099">
		<tag k="name" v="Lundhaug" />
		<tag k="place" v="farm" />
		<tag k="ssr:stedsnr" v="949045" />
	</node>
	<node id="-117635" lat="61.8961916659" lon="9.02729167277">
		<tag k="name" v="Hågålykkja" />
		<tag k="place" v="farm" />
		<tag k="ssr:stedsnr" v="949028" />
	</node>
	<node id="-117634" lat="61.8142916627" lon="9.28039722161">
		<tag k="amenity" v="school" />
		<tag k="name" v="Lalm skule" />
		<tag k="ssr:stedsnr" v="947883" />
	</node>
	<node id="-117626" lat="61.8707611133" lon="8.94832500144">
		<tag k="alt_name" v="Nistingen, s" />
		<tag k="historic" v="shieling" />
		<tag k="name" v="Søre Nistingen" />
		<tag k="old_name" v="Nistingens" />
		<tag k="place" v="locality" />
		<tag k="ssr:stedsnr" v="921374" />
	</node>
	<node id="-117624" lat="61.8715888891" lon="9.04774166885">
		<tag k="name" v="Rydland" />
		<tag k="place" v="farm" />
		<tag k="ssr:stedsnr" v="921356" />
	</node>
	<node id="-117623" lat="61.8752916631" lon="9.19794721516">
		<tag k="alt_name" v="Nørdre Myrom" />
		<tag k="name" v="Myrin" />
		<tag k="place" v="farm" />
		<tag k="ssr:stedsnr" v="921350" />
	</node>
	<node id="-117619" lat="61.9276996022" lon="8.95698378171">
		<tag k="alt_name" v="Haugen" />
		<tag k="name" v="Søre Haugen" />
		<tag k="place" v="farm" />
		<tag k="ssr:stedsnr" v="921138" />
	</node>
	<node id="-117618" lat="61.7287138864" lon="9.06806389532">
		<tag k="name" v="Tronhus" />
		<tag k="place" v="farm" />
		<tag k="ssr:stedsnr" v="920962" />
	</node>
	<node id="-117617" lat="61.7273194418" lon="9.06117223067">
		<tag k="alt_name" v="Søremsætre" />
		<tag k="historic" v="shieling" />
		<tag k="name" v="Sørumsætri" />
		<tag k="place" v="locality" />
		<tag k="ssr:stedsnr" v="920961" />
	</node>
	<node id="-117606" lat="61.793380552" lon="9.34700278108">
		<tag k="name" v="Hanslie" />
		<tag k="place" v="farm" />
		<tag k="ssr:stedsnr" v="920873" />
	</node>
	<node id="-117600" lat="61.5631777746" lon="9.01465556015">
		<tag k="historic" v="shieling" />
		<tag k="name" v="Griningsdalen" />
		<tag k="place" v="locality" />
		<tag k="ssr:stedsnr" v="920844" />
	</node>
	<node id="-117595" lat="61.8177666681" lon="9.27489166446">
		<tag k="name" v="Lalm" />
		<tag k="place" v="village" />
		<tag k="ssr:stedsnr" v="920769" />
	</node>
	<node id="-117590" lat="61.8244111148" lon="9.05391111407">
		<tag k="alt_name" v="Brattlandsætre" />
		<tag k="historic" v="shieling" />
		<tag k="name" v="Brattlandsætri" />
		<tag k="place" v="locality" />
		<tag k="ssr:stedsnr" v="920455" />
	</node>
	<node id="-117584" lat="61.783325002" lon="9.07433332854">
		<tag k="historic" v="shieling" />
		<tag k="name" v="Åsrud" />
		<tag k="place" v="locality" />
		<tag k="ssr:stedsnr" v="920408" />
	</node>
	<node id="-117583" lat="61.8662414633" lon="9.05446092501">
		<tag k="alt_name" v="Felese" />
		<tag k="fixme" v="consider place=hamlet" />
		<tag k="name" v="Fellese" />
		<tag k="place" v="farm" />
		<tag k="ssr:stedsnr" v="920315" />
	</node>
	<node id="-117581" lat="61.8672722187" lon="9.11571666632">
		<tag k="alt_name" v="Hågån" />
		<tag k="name" v="Hagen" />
		<tag k="place" v="farm" />
		<tag k="ssr:stedsnr" v="920303" />
	</node>
	<node id="-117579" lat="61.8679305539" lon="9.19073889325">
		<tag k="name" v="Åsstad" />
		<tag k="place" v="farm" />
		<tag k="ssr:stedsnr" v="920296" />
	</node>
	<node id="-117578" lat="61.8561812368" lon="8.87532489184">
		<tag k="alt_name" v="Sandvikje" />
		<tag k="fixme" v="consider place=hamlet" />
		<tag k="name" v="Sandviki" />
		<tag k="place" v="farm" />
		<tag k="ssr:stedsnr" v="920293" />
	</node>
	<node id="-117576" lat="61.8495916642" lon="8.99208056379">
		<tag k="name" v="Øygarden" />
		<tag k="place" v="farm" />
		<tag k="ssr:stedsnr" v="920273" />
	</node>
	<node id="-117574" lat="61.4881666681" lon="8.84199999618">
		<tag k="name" v="Maurvangen" />
		<tag k="ssr:stedsnr" v="918821" />
		<tag k="tourism" v="camp_site" />
	</node>
	<node id="-117565" lat="61.9185916677" lon="8.97851666565">
		<tag k="name" v="Horten" />
		<tag k="place" v="farm" />
		<tag k="ssr:stedsnr" v="904385" />
	</node>
	<node id="-117562" lat="61.9269749982" lon="8.97574722284">
		<tag k="name" v="Øvre Sandbusgarden" />
		<tag k="place" v="farm" />
		<tag k="ssr:stedsnr" v="903343" />
	</node>
	<node id="-117559" lat="61.7999861156" lon="9.30611388834">
		<tag k="name" v="Søre Eide" />
		<tag k="place" v="farm" />
		<tag k="ssr:stedsnr" v="899677" />
	</node>
	<node id="-117558" lat="61.7993777752" lon="9.30076665901">
		<tag k="name" v="Haugen" />
		<tag k="place" v="farm" />
		<tag k="ssr:stedsnr" v="899678" />
	</node>
	<node id="-117556" lat="61.8006527755" lon="9.21134722081">
		<tag k="name" v="Stutarhaugen hyttegrend" />
		<tag k="place" v="neighbourhood" />
		<tag k="ssr:stedsnr" v="899577" />
	</node>
	<node id="-117554" lat="61.8268555528" lon="8.98836111385">
		<tag k="loc_name" v="Synstlie" />
		<tag k="name" v="Synslie" />
		<tag k="place" v="hamlet" />
		<tag k="ssr:stedsnr" v="874506" />
	</node>
	<node id="-117551" lat="61.7306833366" lon="8.99601389432">
		<tag k="alt_name" v="Grevrustbue" />
		<tag k="name" v="Grevrustbui" />
		<tag k="place" v="isolated_dwelling" />
		<tag k="ssr:stedsnr" v="860972" />
	</node>
	<node id="-117549" lat="61.8534027803" lon="9.27973332583">
		<tag k="name" v="Nedre Ruste" />
		<tag k="place" v="farm" />
		<tag k="ssr:stedsnr" v="860956" />
	</node>
	<node id="-117541" lat="61.6087305544" lon="8.97206111151">
		<tag k="historic" v="shieling" />
		<tag k="name" v="Stuttgongje" />
		<tag k="place" v="locality" />
		<tag k="ssr:stedsnr" v="860824" />
	</node>
	<node id="-117536" lat="61.8180694471" lon="9.25689999927">
		<tag k="name" v="Lauvrud" />
		<tag k="place" v="farm" />
		<tag k="ssr:stedsnr" v="860798" />
	</node>
	<node id="-117534" lat="61.8041250032" lon="9.00997777814">
		<tag k="alt_name" v="Lykkjesætre" />
		<tag k="historic" v="shieling" />
		<tag k="name" v="Lykkjesætri" />
		<tag k="place" v="locality" />
		<tag k="ssr:stedsnr" v="860506" />
	</node>
	<node id="-117533" lat="61.8128361141" lon="9.09332221633">
		<tag k="historic" v="shieling" />
		<tag k="name" v="Stadelykkjesætri" />
		<tag k="place" v="locality" />
		<tag k="ssr:stedsnr" v="860502" />
	</node>
	<node id="-117532" lat="61.7813972189" lon="9.08268611572">
		<tag k="historic" v="shieling" />
		<tag k="name" v="Darthus" />
		<tag k="place" v="locality" />
		<tag k="ssr:stedsnr" v="860493" />
	</node>
	<node id="-117530" lat="61.7780916643" lon="9.05170554876">
		<tag k="name" v="Bergeenden" />
		<tag k="place" v="isolated_dwelling" />
		<tag k="ssr:stedsnr" v="860472" />
	</node>
	<node id="-117529" lat="61.8907499996" lon="9.059697227">
		<tag k="name" v="Finntryu" />
		<tag k="place" v="hamlet" />
		<tag k="ssr:stedsnr" v="860430" />
	</node>
	<node id="-117526" lat="61.8753833308" lon="9.10752778712">
		<tag k="name" v="Vollen" />
		<tag k="place" v="farm" />
		<tag k="ssr:stedsnr" v="860413" />
	</node>
	<node id="-117525" lat="61.8649805587" lon="9.01670834231">
		<tag k="fixme" v="consider place=hamlet" />
		<tag k="name" v="Nordherad" />
		<tag k="place" v="village" />
		<tag k="ssr:stedsnr" v="860398" />
	</node>
	<node id="-117524" lat="61.8554194433" lon="9.17886388418">
		<tag k="alt_name" v="Svei, nordre;Sveen" />
		<tag k="name" v="Nørdre Svei" />
		<tag k="place" v="farm" />
		<tag k="ssr:stedsnr" v="860342" />
	</node>
	<node id="-117523" lat="61.8460286783" lon="8.94512294282">
		<tag k="name" v="Storrvik" />
		<tag k="place" v="hamlet" />
		<tag k="ssr:stedsnr" v="860332" />
	</node>
	<node id="-117522" lat="61.8436933491" lon="8.94407517221">
		<tag k="name" v="Nyhus" />
		<tag k="place" v="farm" />
		<tag k="ssr:stedsnr" v="860330" />
	</node>
	<node id="-117521" lat="61.8437138885" lon="8.94926111734">
		<tag k="name" v="Lykkja" />
		<tag k="place" v="farm" />
		<tag k="ssr:stedsnr" v="860329" />
	</node>
	<node id="-117520" lat="61.8450746727" lon="8.97468781018">
		<tag k="name" v="Åsheim" />
		<tag k="place" v="farm" />
		<tag k="ssr:stedsnr" v="860323" />
	</node>
	<node id="-117519" lat="61.8477250045" lon="8.9839333415">
		<tag k="name" v="Åsvang" />
		<tag k="place" v="farm" />
		<tag k="ssr:stedsnr" v="860320" />
	</node>
	<node id="-117518" lat="61.846791664" lon="9.21481666982">
		<tag k="alt_name" v="Kluftbakkin" />
		<tag k="name" v="Kluftbakken" />
		<tag k="place" v="farm" />
		<tag k="ssr:stedsnr" v="860306" />
	</node>
	<node id="-117508" lat="61.7949500027" lon="9.33011389343">
		<tag k="name" v="Brenna" />
		<tag k="place" v="farm" />
		<tag k="ssr:stedsnr" v="859838" />
	</node>
	<node id="-117507" lat="61.7856055543" lon="9.31432221829">
		<tag k="name" v="Lauvrustsætre" />
		<tag k="place" v="isolated_dwelling" />
		<tag k="ssr:stedsnr" v="859817" />
	</node>
	<node id="-117506" lat="61.784044443" lon="9.31341665998">
		<tag k="name" v="Hanslisætre" />
		<tag k="place" v="isolated_dwelling" />
		<tag k="ssr:stedsnr" v="859816" />
	</node>
	<node id="-117503" lat="61.8262916652" lon="9.0839666595">
		<tag k="historic" v="shieling" />
		<tag k="name" v="Randsætri" />
		<tag k="place" v="locality" />
		<tag k="ssr:stedsnr" v="859451" />
	</node>
	<node id="-117499" lat="61.8418472215" lon="9.18602499782">
		<tag k="historic" v="shieling" />
		<tag k="name" v="Lauvsætrin" />
		<tag k="place" v="locality" />
		<tag k="ssr:stedsnr" v="859229" />
	</node>
	<node id="-117486" lat="61.7996055558" lon="9.29608889224">
		<tag k="name" v="Brennhaugen" />
		<tag k="place" v="farm" />
		<tag k="ssr:stedsnr" v="838695" />
	</node>
	<node id="-117485" lat="61.7987249995" lon="9.32040833324">
		<tag k="name" v="Omundgård" />
		<tag k="place" v="isolated_dwelling" />
		<tag k="ssr:stedsnr" v="838688" />
	</node>
	<node id="-117481" lat="61.9244666693" lon="9.00771944116">
		<tag k="name" v="Friksætre" />
		<tag k="place" v="isolated_dwelling" />
		<tag k="ssr:stedsnr" v="837496" />
	</node>
	<node id="-117478" lat="61.8647416685" lon="9.17279444607">
		<tag k="name" v="Steinalykkja" />
		<tag k="place" v="isolated_dwelling" />
		<tag k="ssr:stedsnr" v="830951" />
	</node>
	<node id="-117474" lat="61.8730555524" lon="9.03201666221">
		<tag k="name" v="Øvre Valbjørslykkja" />
		<tag k="place" v="farm" />
		<tag k="ssr:stedsnr" v="830214" />
	</node>
	<node id="-117473" lat="61.8745499956" lon="9.03661111895">
		<tag k="name" v="Nyheim" />
		<tag k="place" v="isolated_dwelling" />
		<tag k="ssr:stedsnr" v="830211" />
	</node>
	<node id="-117470" lat="61.8277194439" lon="9.07665554816">
		<tag k="historic" v="shieling" />
		<tag k="name" v="Hågåsætre" />
		<tag k="place" v="locality" />
		<tag k="ssr:stedsnr" v="830124" />
	</node>
	<node id="-117468" lat="61.8647972267" lon="8.9824999955">
		<tag k="name" v="Gjelbakken" />
		<tag k="place" v="farm" />
		<tag k="ssr:stedsnr" v="830086" />
	</node>
	<node id="-117466" lat="61.8808972209" lon="9.10670555385">
		<tag k="name" v="Solbu" />
		<tag k="place" v="farm" />
		<tag k="ssr:stedsnr" v="830059" />
	</node>
	<node id="-117461" lat="61.8801166635" lon="9.15303611276">
		<tag k="name" v="Furuhaug" />
		<tag k="place" v="isolated_dwelling" />
		<tag k="ssr:stedsnr" v="828999" />
	</node>
	<node id="-117458" lat="61.8822138855" lon="9.13534999192">
		<tag k="name" v="Steine" />
		<tag k="place" v="isolated_dwelling" />
		<tag k="ssr:stedsnr" v="828985" />
	</node>
	<node id="-117454" lat="61.8547888919" lon="9.17592222837">
		<tag k="alt_name" v="Hågein" />
		<tag k="name" v="Hagen" />
		<tag k="place" v="farm" />
		<tag k="ssr:stedsnr" v="828746" />
	</node>
	<node id="-117453" lat="61.8678916662" lon="9.20046943726">
		<tag k="name" v="Bjørgen" />
		<tag k="place" v="farm" />
		<tag k="ssr:stedsnr" v="828724" />
	</node>
	<node id="-117452" lat="61.8749833329" lon="9.06022778458">
		<tag k="name" v="Uppigard Kvarberg" />
		<tag k="place" v="farm" />
		<tag k="ssr:stedsnr" v="828173" />
	</node>
	<node id="-117451" lat="61.8721138885" lon="9.09745277694">
		<tag k="amenity" v="school" />
		<tag k="name" v="Vågå barneskule" />
		<tag k="ssr:stedsnr" v="828159" />
	</node>
	<node id="-117449" lat="61.8921777804" lon="9.05082777099">
		<tag k="name" v="Sygard Svare" />
		<tag k="place" v="farm" />
		<tag k="ssr:stedsnr" v="828010" />
	</node>
	<node id="-117448" lat="61.8436666678" lon="8.92765277628">
		<tag k="building" v="industrial" />
		<tag k="name" v="Skiferbrot" />
		<tag k="ssr:stedsnr" v="817301" />
	</node>
	<node id="-117444" lat="61.4857194415" lon="8.71241666872">
		<tag k="name" v="Rathbonebue" />
		<tag k="place" v="isolated_dwelling" />
		<tag k="ssr:stedsnr" v="815262" />
	</node>
	<node id="-117438" lat="61.9377762643" lon="8.92652556922">
		<tag k="alt_name" v="Klomsroe" />
		<tag k="historic" v="shieling" />
		<tag k="name" v="Klomsroi" />
		<tag k="place" v="locality" />
		<tag k="ssr:stedsnr" v="800111" />
	</node>
	<node id="-117428" lat="61.8019944416" lon="9.28285000545">
		<tag k="name" v="Randen" />
		<tag k="place" v="farm" />
		<tag k="ssr:stedsnr" v="799901" />
	</node>
	<node id="-117427" lat="61.7925277808" lon="9.33738889697">
		<tag k="name" v="Lego" />
		<tag k="place" v="farm" />
		<tag k="ssr:stedsnr" v="799883" />
	</node>
	<node id="-117425" lat="61.8371777786" lon="9.24369166062">
		<tag k="name" v="Granrud" />
		<tag k="place" v="farm" />
		<tag k="ssr:stedsnr" v="799822" />
	</node>
	<node id="-117423" lat="61.6091382186" lon="8.98519252177">
		<tag k="name" v="Gamelsætre" />
		<tag k="place" v="isolated_dwelling" />
		<tag k="ssr:stedsnr" v="799817" />
	</node>
	<node id="-117417" lat="61.8296058648" lon="8.98888042957">
		<tag k="alt_name" v="Synslie" />
		<tag k="fixme" v="consider place=hamlet" />
		<tag k="loc_name" v="Synstlie" />
		<tag k="name" v="Synstlii" />
		<tag k="place" v="farm" />
		<tag k="ssr:stedsnr" v="799494" />
	</node>
	<node id="-117411" lat="61.7978583379" lon="9.05248054847">
		<tag k="historic" v="shieling" />
		<tag k="name" v="Megardsåsen" />
		<tag k="place" v="locality" />
		<tag k="ssr:stedsnr" v="799461" />
	</node>
	<node id="-117408" lat="61.7903305528" lon="9.14591110384">
		<tag k="historic" v="shieling" />
		<tag k="name" v="Stokkstadsætri" />
		<tag k="place" v="locality" />
		<tag k="ssr:stedsnr" v="799444" />
	</node>
	<node id="-117401" lat="61.7544722213" lon="9.07446945315">
		<tag k="alt_name" v="Sandnes" />
		<tag k="historic" v="shieling" />
		<tag k="name" v="Sandnessætre" />
		<tag k="place" v="locality" />
		<tag k="ssr:stedsnr" v="799391" />
	</node>
	<node id="-117400" lat="61.8827972266" lon="9.06783332761">
		<tag k="name" v="Hølmo" />
		<tag k="place" v="farm" />
		<tag k="ssr:stedsnr" v="799366" />
	</node>
	<node id="-117399" lat="61.8848756402" lon="9.07533604416">
		<tag k="fixme" v="consider place=hamlet" />
		<tag k="name" v="Håkåstad" />
		<tag k="place" v="farm" />
		<tag k="ssr:stedsnr" v="799358" />
	</node>
	<node id="-117398" lat="61.8656805542" lon="9.01977777828">
		<tag k="alt_name" v="Viste" />
		<tag k="name" v="Uppigard Viste" />
		<tag k="place" v="farm" />
		<tag k="ssr:stedsnr" v="799346" />
	</node>
	<node id="-117397" lat="61.8609750027" lon="8.97909165934">
		<tag k="name" v="Midtli" />
		<tag k="place" v="farm" />
		<tag k="ssr:stedsnr" v="799318" />
	</node>
	<node id="-117391" lat="61.9217916632" lon="8.98145278591">
		<tag k="alt_name" v="Nygård" />
		<tag k="name" v="Nygard" />
		<tag k="place" v="farm" />
		<tag k="ssr:stedsnr" v="799160" />
	</node>
	<node id="-117390" lat="61.9276361122" lon="8.92798056186">
		<tag k="alt_name" v="Grønlie" />
		<tag k="historic" v="shieling" />
		<tag k="name" v="Grønlii" />
		<tag k="place" v="locality" />
		<tag k="ssr:stedsnr" v="799153" />
	</node>
	<node id="-117389" lat="61.9295995756" lon="8.94152315878">
		<tag k="fixme" v="consider place=hamlet" />
		<tag k="name" v="Øyagarden" />
		<tag k="place" v="farm" />
		<tag k="ssr:stedsnr" v="799147" />
	</node>
	<node id="-117380" lat="61.4365222239" lon="8.75208888512">
		<tag k="name" v="Svarthåmårbue" />
		<tag k="place" v="locality" />
		<tag k="ssr:stedsnr" v="797135" />
	</node>
	<node id="-117376" lat="61.9268249978" lon="8.96930834018">
		<tag k="name" v="Teigen" />
		<tag k="place" v="farm" />
		<tag k="ssr:stedsnr" v="782324" />
	</node>
	<node id="-117375" lat="61.9262839739" lon="8.96705584529">
		<tag k="fixme" v="consider place=hamlet" />
		<tag k="name" v="Plassen" />
		<tag k="place" v="farm" />
		<tag k="ssr:stedsnr" v="782325" />
	</node>
	<node id="-117374" lat="61.9315802353" lon="8.97954683256">
		<tag k="fixme" v="consider place=hamlet" />
		<tag k="name" v="Uppistugu" />
		<tag k="place" v="farm" />
		<tag k="ssr:stedsnr" v="782319" />
	</node>
	<node id="-117373" lat="61.9288666711" lon="8.97833333618">
		<tag k="name" v="Nilsøygarden" />
		<tag k="place" v="farm" />
		<tag k="ssr:stedsnr" v="782318" />
	</node>
	<node id="-117372" lat="61.9300277762" lon="8.94067222145">
		<tag k="name" v="Nørdre Øyagarden" />
		<tag k="place" v="farm" />
		<tag k="ssr:stedsnr" v="782314" />
	</node>
	<node id="-117371" lat="61.7962472247" lon="8.96847221858">
		<tag k="historic" v="shieling" />
		<tag k="name" v="Morksætre" />
		<tag k="place" v="locality" />
		<tag k="ssr:stedsnr" v="781440" />
	</node>
	<node id="-117370" lat="61.4473083358" lon="9.1068583253">
		<tag k="alt_name" v="Heimdalen, nedre" />
		<tag k="name" v="Nedre Heimdalen" />
		<tag k="place" v="isolated_dwelling" />
		<tag k="ssr:stedsnr" v="780001" />
	</node>
	<node id="-117366" lat="61.8222472204" lon="9.25258332424">
		<tag k="name" v="Einasplassen" />
		<tag k="place" v="isolated_dwelling" />
		<tag k="ssr:stedsnr" v="777920" />
	</node>
	<node id="-117365" lat="61.8257222249" lon="9.26103054635">
		<tag k="name" v="Grindåkeren" />
		<tag k="place" v="farm" />
		<tag k="ssr:stedsnr" v="777913" />
	</node>
	<node id="-117358" lat="61.8644027775" lon="9.16750278093">
		<tag k="name" v="Ner-Åsen" />
		<tag k="place" v="farm" />
		<tag k="ssr:stedsnr" v="769956" />
	</node>
	<node id="-117356" lat="61.7420999982" lon="9.00929723098">
		<tag k="name" v="Milorghytta" />
		<tag k="place" v="locality" />
		<tag k="ssr:stedsnr" v="769475" />
	</node>
	<node id="-117355" lat="61.6701829312" lon="9.07264135004">
		<tag k="historic" v="shieling" />
		<tag k="name" v="Borstad" />
		<tag k="place" v="locality" />
		<tag k="ssr:stedsnr" v="769425" />
	</node>
	<node id="-117353" lat="61.6291499987" lon="8.99489166931">
		<tag k="name" v="Skobekkbua" />
		<tag k="place" v="locality" />
		<tag k="ssr:stedsnr" v="769396" />
	</node>
	<node id="-117348" lat="61.7286805569" lon="9.07261111302">
		<tag k="name" v="Skjellhaug" />
		<tag k="place" v="farm" />
		<tag k="ssr:stedsnr" v="769290" />
	</node>
	<node id="-117345" lat="61.8593403684" lon="9.08038155302">
		<tag k="alt_name" v="Klonesbakkin" />
		<tag k="name" v="Klonesbakken" />
		<tag k="place" v="farm" />
		<tag k="ssr:stedsnr" v="769225" />
	</node>
	<node id="-117343" lat="61.8229700564" lon="8.99280622229">
		<tag k="fixme" v="consider place=hamlet" />
		<tag k="name" v="Breidokken" />
		<tag k="place" v="farm" />
		<tag k="ssr:stedsnr" v="769136" />
	</node>
	<node id="-117341" lat="61.8590666691" lon="8.98586388893">
		<tag k="name" v="Bjørkheim" />
		<tag k="place" v="isolated_dwelling" />
		<tag k="ssr:stedsnr" v="769075" />
	</node>
	<node id="-117339" lat="61.8693305548" lon="8.91858055127">
		<tag k="historic" v="shieling" />
		<tag k="name" v="Grevsætre" />
		<tag k="place" v="locality" />
		<tag k="ssr:stedsnr" v="769060" />
	</node>
	<node id="-117338" lat="61.8850111154" lon="9.10767776922">
		<tag k="name" v="Syvergard" />
		<tag k="place" v="farm" />
		<tag k="ssr:stedsnr" v="769028" />
	</node>
	<node id="-117337" lat="61.8817527815" lon="9.13450276966">
		<tag k="name" v="Hestlykkja" />
		<tag k="place" v="isolated_dwelling" />
		<tag k="ssr:stedsnr" v="767986" />
	</node>
	<node id="-117334" lat="61.8681638924" lon="9.2272138891">
		<tag k="name" v="Øyhuslykkja" />
		<tag k="place" v="locality" />
		<tag k="ssr:stedsnr" v="767800" />
	</node>
	<node id="-117333" lat="61.8574416711" lon="9.18774999115">
		<tag k="name" v="Sygard Holdbø" />
		<tag k="place" v="farm" />
		<tag k="ssr:stedsnr" v="767768" />
	</node>
	<node id="-117332" lat="61.8547249969" lon="9.20082221894">
		<tag k="name" v="Solhaug" />
		<tag k="place" v="isolated_dwelling" />
		<tag k="ssr:stedsnr" v="767767" />
	</node>
	<node id="-117331" lat="61.8560944416" lon="9.21221944769">
		<tag k="name" v="Kåppårslette" />
		<tag k="place" v="farm" />
		<tag k="ssr:stedsnr" v="767763" />
	</node>
	<node id="-117330" lat="61.8642111076" lon="9.21583889303">
		<tag k="name" v="Torstugu" />
		<tag k="place" v="farm" />
		<tag k="ssr:stedsnr" v="767739" />
	</node>
	<node id="-117329" lat="61.8752527817" lon="9.08921944422">
		<tag k="name" v="Rugsvee" />
		<tag k="place" v="isolated_dwelling" />
		<tag k="ssr:stedsnr" v="767177" />
	</node>
	<node id="-117327" lat="61.844202779" lon="8.948527774">
		<tag k="name" v="Nystugu" />
		<tag k="place" v="farm" />
		<tag k="ssr:stedsnr" v="767106" />
	</node>
	<node id="-117326" lat="61.8909284065" lon="9.05561675334">
		<tag k="name" v="Nigard Svare" />
		<tag k="place" v="farm" />
		<tag k="ssr:stedsnr" v="767018" />
	</node>
	<node id="-117323" lat="61.8438538073" lon="8.90117299398">
		<tag k="name" v="Storrviksroe" />
		<tag k="place" v="hamlet" />
		<tag k="ssr:stedsnr" v="756201" />
	</node>
	<node id="-117319" lat="61.8804388852" lon="9.07127778177">
		<tag k="name" v="Hølen" />
		<tag k="place" v="farm" />
		<tag k="ssr:stedsnr" v="739339" />
	</node>
	<node id="-117318" lat="61.8766111107" lon="9.12126110298">
		<tag k="alt_name" v="Sandbu" />
		<tag k="name" v="Kræmar-Sandbu" />
		<tag k="place" v="farm" />
		<tag k="ssr:stedsnr" v="739316" />
	</node>
	<node id="-117312" lat="61.6986666672" lon="9.12371389211">
		<tag k="loc_name" v="Gramsætre" />
		<tag k="name" v="Gramsætri" />
		<tag k="place" v="isolated_dwelling" />
		<tag k="ssr:stedsnr" v="738986" />
	</node>
	<node id="-117309" lat="61.7342166702" lon="9.07087776994">
		<tag k="historic" v="shieling" />
		<tag k="name" v="Nessesætri" />
		<tag k="place" v="locality" />
		<tag k="ssr:stedsnr" v="738964" />
	</node>
	<node id="-117307" lat="61.5326305587" lon="8.64857221699">
		<tag k="name" v="Blackwellbue" />
		<tag k="place" v="isolated_dwelling" />
		<tag k="ssr:stedsnr" v="738943" />
	</node>
	<node id="-117302" lat="61.7985000031" lon="9.28690554754">
		<tag k="name" v="Orrhaugen" />
		<tag k="place" v="farm" />
		<tag k="ssr:stedsnr" v="738877" />
	</node>
	<node id="-117300" lat="61.5431222235" lon="8.89510833812">
		<tag k="historic" v="shieling" />
		<tag k="name" v="Mosbesstronde" />
		<tag k="place" v="locality" />
		<tag k="ssr:stedsnr" v="738863" />
	</node>
	<node id="-117298" lat="61.5506666669" lon="9.06078611537">
		<tag k="historic" v="shieling" />
		<tag k="name" v="Dyrtjørnbekken" />
		<tag k="place" v="locality" />
		<tag k="ssr:stedsnr" v="738857" />
	</node>
	<node id="-117295" lat="61.8367783791" lon="9.28387924229">
		<tag k="fixme" v="consider place=hamlet" />
		<tag k="name" v="Bolstad" />
		<tag k="place" v="farm" />
		<tag k="ssr:stedsnr" v="738823" />
	</node>
	<node id="-117294" lat="61.6016472208" lon="8.94228889208">
		<tag k="historic" v="shieling" />
		<tag k="name" v="Bulego" />
		<tag k="place" v="locality" />
		<tag k="ssr:stedsnr" v="738818" />
	</node>
	<node id="-117290" lat="61.83006389" lon="9.25682777554">
		<tag k="name" v="Skogheim" />
		<tag k="place" v="farm" />
		<tag k="ssr:stedsnr" v="738800" />
	</node>
	<node id="-117287" lat="61.6549499996" lon="8.93121665917">
		<tag k="name" v="Himmerik" />
		<tag k="place" v="locality" />
		<tag k="ssr:stedsnr" v="738782" />
	</node>
	<node id="-117283" lat="61.8250833317" lon="9.08706944078">
		<tag k="alt_name" v="Gudbrandstugusætre" />
		<tag k="historic" v="shieling" />
		<tag k="name" v="Gudbrandstugusætri" />
		<tag k="place" v="locality" />
		<tag k="ssr:stedsnr" v="738456" />
	</node>
	<node id="-117282" lat="61.8243333341" lon="9.11110555703">
		<tag k="alt_name" v="Sundesætre" />
		<tag k="historic" v="shieling" />
		<tag k="name" v="Sundesætri" />
		<tag k="place" v="locality" />
		<tag k="ssr:stedsnr" v="738453" />
	</node>
	<node id="-117281" lat="61.7994916702" lon="9.01693611638">
		<tag k="alt_name" v="Storviksætre" />
		<tag k="historic" v="shieling" />
		<tag k="name" v="Storrviksætri" />
		<tag k="place" v="locality" />
		<tag k="ssr:stedsnr" v="738448" />
	</node>
	<node id="-117280" lat="61.8140222209" lon="9.14389999844">
		<tag k="historic" v="shieling" />
		<tag k="name" v="Siplaus" />
		<tag k="place" v="locality" />
		<tag k="ssr:stedsnr" v="738444" />
	</node>
	<node id="-117278" lat="61.8674219865" lon="9.06841513173">
		<tag k="fixme" v="consider place=hamlet" />
		<tag k="name" v="Lye" />
		<tag k="place" v="farm" />
		<tag k="ssr:stedsnr" v="738337" />
	</node>
	<node id="-117277" lat="61.8705721691" lon="9.13171785166">
		<tag k="alt_name" v="Skottlie" />
		<tag k="fixme" v="consider place=hamlet" />
		<tag k="name" v="Skotlii" />
		<tag k="place" v="farm" />
		<tag k="ssr:stedsnr" v="738331" />
	</node>
	<node id="-117276" lat="61.867422223" lon="9.12436667176">
		<tag k="alt_name" v="Søre Stein" />
		<tag k="name" v="Stein" />
		<tag k="place" v="farm" />
		<tag k="ssr:stedsnr" v="738328" />
	</node>
	<node id="-117275" lat="61.8647083369" lon="9.11337777203">
		<tag k="alt_name" v="Nørdre Kveen" />
		<tag k="name" v="Kvein" />
		<tag k="place" v="farm" />
		<tag k="ssr:stedsnr" v="738326" />
	</node>
	<node id="-117274" lat="61.8585208878" lon="9.06315937045">
		<tag k="alt_name" v="Strond, øvre;Uppåstrond" />
		<tag k="name" v="Øvre Strond" />
		<tag k="place" v="farm" />
		<tag k="ssr:stedsnr" v="738302" />
	</node>
	<node id="-117273" lat="61.8568388887" lon="9.16775000885">
		<tag k="name" v="Nylykkja" />
		<tag k="place" v="farm" />
		<tag k="ssr:stedsnr" v="738297" />
	</node>
	<node id="-117272" lat="61.8447512991" lon="8.97852293926">
		<tag k="fixme" v="consider place=hamlet" />
		<tag k="name" v="Sandrunningen" />
		<tag k="place" v="farm" />
		<tag k="ssr:stedsnr" v="738290" />
	</node>
	<node id="-117271" lat="61.8515861077" lon="9.03682778525">
		<tag k="alt_name" v="Vistekleivi, øvre;Vistekleive øvre" />
		<tag k="name" v="Øvre Vistekleivi" />
		<tag k="place" v="farm" />
		<tag k="ssr:stedsnr" v="738278" />
	</node>
	<node id="-117270" lat="61.8459361072" lon="9.17493610692">
		<tag k="historic" v="shieling" />
		<tag k="name" v="Stulsætrin" />
		<tag k="place" v="locality" />
		<tag k="ssr:stedsnr" v="738277" />
	</node>
	<node id="-117268" lat="61.9090236375" lon="8.98177875408">
		<tag k="alt_name" v="Liasætrin, s;Liasætrin" />
		<tag k="historic" v="shieling" />
		<tag k="name" v="Søre Liasætrin" />
		<tag k="place" v="locality" />
		<tag k="ssr:stedsnr" v="738156" />
	</node>
	<node id="-117260" lat="61.9260697263" lon="8.96328719319">
		<tag k="fixme" v="consider place=hamlet" />
		<tag k="name" v="Keigro" />
		<tag k="place" v="farm" />
		<tag k="ssr:stedsnr" v="721353" />
	</node>
	<node id="-117258" lat="61.9243666704" lon="8.97508610288">
		<tag k="name" v="Jota" />
		<tag k="place" v="farm" />
		<tag k="ssr:stedsnr" v="721339" />
	</node>
	<node id="-117257" lat="61.8213194413" lon="9.25918056049">
		<tag k="name" v="Tamburplassen" />
		<tag k="place" v="isolated_dwelling" />
		<tag k="ssr:stedsnr" v="716921" />
	</node>
	<node id="-117256" lat="61.8265944427" lon="9.26061944014">
		<tag k="name" v="Øverjordet" />
		<tag k="place" v="isolated_dwelling" />
		<tag k="ssr:stedsnr" v="716916" />
	</node>
	<node id="-117249" lat="61.5710611104" lon="8.96411388628">
		<tag k="name" v="Birisjøbua" />
		<tag k="place" v="isolated_dwelling" />
		<tag k="ssr:stedsnr" v="713779" />
	</node>
	<node id="-117246" lat="61.8163138901" lon="9.26706388785">
		<tag k="name" v="Bakken" />
		<tag k="place" v="farm" />
		<tag k="ssr:stedsnr" v="708888" />
	</node>
	<node id="-117245" lat="61.8245222253" lon="9.27881665932">
		<tag k="name" v="Stubrud" />
		<tag k="place" v="isolated_dwelling" />
		<tag k="ssr:stedsnr" v="708864" />
	</node>
	<node id="-117244" lat="61.8734777813" lon="9.19818333128">
		<tag k="name" v="Myrhaug" />
		<tag k="place" v="isolated_dwelling" />
		<tag k="ssr:stedsnr" v="708811" />
	</node>
	<node id="-117238" lat="61.8605416686" lon="9.11394443965">
		<tag k="name" v="Vaberg" />
		<tag k="place" v="farm" />
		<tag k="ssr:stedsnr" v="708234" />
	</node>
	<node id="-117237" lat="61.8703361152" lon="9.09093332894">
		<tag k="name" v="Moen" />
		<tag k="place" v="farm" />
		<tag k="ssr:stedsnr" v="708223" />
	</node>
	<node id="-117235" lat="61.813197219" lon="9.09334445167">
		<tag k="historic" v="shieling" />
		<tag k="name" v="Nyheimsætre" />
		<tag k="place" v="locality" />
		<tag k="ssr:stedsnr" v="708190" />
	</node>
	<node id="-117227" lat="61.867022294" lon="8.98507811801">
		<tag k="fixme" v="consider place=hamlet" />
		<tag k="name" v="Åbakken" />
		<tag k="place" v="farm" />
		<tag k="ssr:stedsnr" v="708117" />
	</node>
	<node id="-117226" lat="61.8624194487" lon="8.98860834114">
		<tag k="name" v="Søre Veslhågån" />
		<tag k="place" v="farm" />
		<tag k="ssr:stedsnr" v="708107" />
	</node>
	<node id="-117225" lat="61.8585166706" lon="8.92301110312">
		<tag k="alt_name" v="Nebbneset" />
		<tag k="fixme" v="consider place=hamlet" />
		<tag k="name" v="Næpneset" />
		<tag k="place" v="farm" />
		<tag k="ssr:stedsnr" v="708085" />
	</node>
	<node id="-117223" lat="61.8778944445" lon="9.10258610393">
		<tag k="building" v="industrial" />
		<tag k="name" v="Vågå Ysteri" />
		<tag k="ssr:stedsnr" v="708066" />
	</node>
	<node id="-117222" lat="61.8853277799" lon="9.10863610384">
		<tag k="name" v="Bakken" />
		<tag k="place" v="farm" />
		<tag k="ssr:stedsnr" v="708041" />
	</node>
	<node id="-117219" lat="61.9060999991" lon="8.99949166719">
		<tag k="name" v="Sør-Skjedsvoll" />
		<tag k="place" v="farm" />
		<tag k="ssr:stedsnr" v="708012" />
	</node>
	<node id="-117218" lat="61.9123083367" lon="8.99575277961">
		<tag k="name" v="Skjedsvollhaugen" />
		<tag k="place" v="farm" />
		<tag k="ssr:stedsnr" v="708002" />
	</node>
	<node id="-117217" lat="61.8824749979" lon="9.13550833704">
		<tag k="name" v="Rudistugu" />
		<tag k="place" v="isolated_dwelling" />
		<tag k="ssr:stedsnr" v="707984" />
	</node>
	<node id="-117216" lat="61.8664805543" lon="9.12113333609">
		<tag k="name" v="Runningen" />
		<tag k="place" v="farm" />
		<tag k="ssr:stedsnr" v="707932" />
	</node>
	<node id="-117215" lat="61.8446333373" lon="8.93974444144">
		<tag k="fixme" v="consider place=hamlet" />
		<tag k="name" v="Nordigard Storrvik" />
		<tag k="place" v="farm" />
		<tag k="ssr:stedsnr" v="707128" />
	</node>
	<node id="-117212" lat="61.869619447" lon="9.09222777846">
		<tag k="name" v="Slettnes" />
		<tag k="place" v="farm" />
		<tag k="ssr:stedsnr" v="706165" />
	</node>
	<node id="-117211" lat="61.870083334" lon="9.1013222289">
		<tag k="name" v="Brustugu" />
		<tag k="place" v="farm" />
		<tag k="ssr:stedsnr" v="706161" />
	</node>
	<node id="-117210" lat="61.8713058061" lon="9.10267945405">
		<tag k="fixme" v="consider place=hamlet" />
		<tag k="name" v="Smedsmo" />
		<tag k="place" v="farm" />
		<tag k="ssr:stedsnr" v="706159" />
	</node>
	<node id="-117208" lat="61.8883944485" lon="9.08626945196">
		<tag k="name" v="Lundalykkja" />
		<tag k="place" v="farm" />
		<tag k="ssr:stedsnr" v="706035" />
	</node>
	<node id="-117207" lat="61.8858194484" lon="9.11092777956">
		<tag k="name" v="Karusbakken" />
		<tag k="place" v="farm" />
		<tag k="ssr:stedsnr" v="706029" />
	</node>
	<node id="-117204" lat="61.8489777764" lon="8.89998054617">
		<tag k="name" v="Sør-Neset" />
		<tag k="place" v="farm" />
		<tag k="ssr:stedsnr" v="696320" />
	</node>
	<node id="-117200" lat="61.876927776" lon="9.23797499755">
		<tag k="alt_name" v="Holungsætrin" />
		<tag k="historic" v="shieling" />
		<tag k="name" v="Søre Holungssætrin" />
		<tag k="place" v="locality" />
		<tag k="ssr:stedsnr" v="678936" />
	</node>
	<node id="-117198" lat="61.853311114" lon="9.27528610538">
		<tag k="name" v="Rusthaug" />
		<tag k="place" v="farm" />
		<tag k="ssr:stedsnr" v="678919" />
	</node>
	<node id="-117193" lat="61.7789138852" lon="9.17559721723">
		<tag k="alt_name" v="Skardsætri, nedre" />
		<tag k="historic" v="shieling" />
		<tag k="name" v="Nedre Skardsætri" />
		<tag k="place" v="locality" />
		<tag k="ssr:stedsnr" v="678450" />
	</node>
	<node id="-117192" lat="61.8647972206" lon="9.13219166223">
		<tag k="name" v="Flatom" />
		<tag k="place" v="farm" />
		<tag k="ssr:stedsnr" v="678343" />
	</node>
	<node id="-117190" lat="61.8697055512" lon="9.20650277549">
		<tag k="name" v="Lihaug" />
		<tag k="place" v="farm" />
		<tag k="ssr:stedsnr" v="678330" />
	</node>
	<node id="-117188" lat="61.8418750024" lon="8.96671389122">
		<tag k="name" v="Skogly" />
		<tag k="place" v="farm" />
		<tag k="ssr:stedsnr" v="678278" />
	</node>
	<node id="-117187" lat="61.8435888931" lon="8.95821945254">
		<tag k="name" v="Enden" />
		<tag k="place" v="farm" />
		<tag k="ssr:stedsnr" v="678276" />
	</node>
	<node id="-117185" lat="61.9001138913" lon="9.02161666032">
		<tag k="alt_name" v="Skogbygde" />
		<tag k="fixme" v="consider place=hamlet" />
		<tag k="name" v="Skogbygdi" />
		<tag k="place" v="village" />
		<tag k="ssr:stedsnr" v="678261" />
	</node>
	<node id="-117183" lat="61.9703777767" lon="8.99208333419">
		<tag k="historic" v="shieling" />
		<tag k="name" v="Milthaug" />
		<tag k="old_name" v="Midthaugen" />
		<tag k="place" v="locality" />
		<tag k="ssr:stedsnr" v="678184" />
	</node>
	<node id="-117182" lat="61.9302305542" lon="8.97881666463">
		<tag k="name" v="Garden" />
		<tag k="place" v="farm" />
		<tag k="ssr:stedsnr" v="678151" />
	</node>
	<node id="-117169" lat="61.6245083352" lon="9.00739444362">
		<tag k="alt_name" v="Eldbua" />
		<tag k="name" v="Eldbui" />
		<tag k="place" v="isolated_dwelling" />
		<tag k="ssr:stedsnr" v="677794" />
	</node>
	<node id="-117168" lat="61.8254583347" lon="9.2881222317">
		<tag k="name" v="Åsli" />
		<tag k="place" v="farm" />
		<tag k="ssr:stedsnr" v="677792" />
	</node>
	<node id="-117164" lat="61.8996001098" lon="9.11124248529">
		<tag k="alt_name" v="Køyringje" />
		<tag k="historic" v="shieling" />
		<tag k="name" v="Køyring" />
		<tag k="place" v="locality" />
		<tag k="ssr:stedsnr" v="678406" />
	</node>
	<node id="-117163" lat="61.8983989704" lon="9.03606248374">
		<tag k="alt_name" v="Spakro" />
		<tag k="fixme" v="consider place=hamlet" />
		<tag k="name" v="Spakrud" />
		<tag k="place" v="farm" />
		<tag k="ssr:stedsnr" v="678407" />
	</node>
	<node id="-117162" lat="61.9020000009" lon="9.00937778677">
		<tag k="alt_name" v="Synsteng" />
		<tag k="name" v="Søre Synsteng" />
		<tag k="place" v="farm" />
		<tag k="ssr:stedsnr" v="678402" />
	</node>
	<node id="-117161" lat="61.88919444" lon="9.06666110204">
		<tag k="alt_name" v="Søre Råstad" />
		<tag k="name" v="Sygard Råstad" />
		<tag k="place" v="farm" />
		<tag k="ssr:stedsnr" v="678399" />
	</node>
	<node id="-117157" lat="61.8827499339" lon="9.10591157796">
		<tag k="name" v="Øygarden" />
		<tag k="place" v="farm" />
		<tag k="ssr:stedsnr" v="678374" />
	</node>
	<node id="-117147" lat="61.8035611127" lon="8.96629722376">
		<tag k="alt_name" v="Lykkjesætre" />
		<tag k="historic" v="shieling" />
		<tag k="name" v="Lykkjesætri" />
		<tag k="place" v="locality" />
		<tag k="ssr:stedsnr" v="677444" />
	</node>
	<node id="-117143" lat="61.7942888907" lon="9.19802499808">
		<tag k="name" v="Myrvang" />
		<tag k="place" v="farm" />
		<tag k="ssr:stedsnr" v="677402" />
	</node>
	<node id="-117142" lat="61.859700001" lon="9.08571111351">
		<tag k="name" v="Nystugu" />
		<tag k="place" v="farm" />
		<tag k="ssr:stedsnr" v="677270" />
	</node>
	<node id="-117139" lat="61.8438916684" lon="8.88445834173">
		<tag k="alt_name" v="Storrvikøygarden" />
		<tag k="name" v="Storrviksøygarden" />
		<tag k="place" v="farm" />
		<tag k="ssr:stedsnr" v="677257" />
	</node>
	<node id="-117138" lat="61.8445888886" lon="8.90957221783">
		<tag k="alt_name" v="Breinna" />
		<tag k="name" v="Brenna" />
		<tag k="place" v="farm" />
		<tag k="ssr:stedsnr" v="677253" />
	</node>
	<node id="-117130" lat="61.9344444426" lon="8.96242499732">
		<tag k="name" v="Skrivarøygarden" />
		<tag k="place" v="locality" />
		<tag k="ssr:stedsnr" v="660366" />
	</node>
	<node id="-117124" lat="61.8026611113" lon="9.28153889154">
		<tag k="name" v="Nørdre Randen" />
		<tag k="place" v="isolated_dwelling" />
		<tag k="ssr:stedsnr" v="655667" />
	</node>
	<node id="-117120" lat="61.8625666685" lon="9.23990555672">
		<tag k="name" v="Knuthytta" />
		<tag k="place" v="isolated_dwelling" />
		<tag k="ssr:stedsnr" v="655483" />
	</node>
	<node id="-117119" lat="61.5470222221" lon="8.9332027868">
		<tag k="historic" v="shieling" />
		<tag k="name" v="Gålen" />
		<tag k="place" v="locality" />
		<tag k="ssr:stedsnr" v="652714" />
	</node>
	<node id="-117115" lat="61.8667694461" lon="9.12391388522">
		<tag k="name" v="Nørdre Gjeilin" />
		<tag k="place" v="farm" />
		<tag k="ssr:stedsnr" v="647953" />
	</node>
	<node id="-117114" lat="61.8674638859" lon="9.12189722793">
		<tag k="name" v="Nedre Stein" />
		<tag k="place" v="farm" />
		<tag k="ssr:stedsnr" v="647951" />
	</node>
	<node id="-117112" lat="61.8141444436" lon="9.26538889707">
		<tag k="name" v="Pillarvikhaugen" />
		<tag k="place" v="isolated_dwelling" />
		<tag k="ssr:stedsnr" v="647912" />
	</node>
	<node id="-117108" lat="61.7236388932" lon="9.052372213">
		<tag k="name" v="Nørdre Vangen" />
		<tag k="place" v="isolated_dwelling" />
		<tag k="ssr:stedsnr" v="647466" />
	</node>
	<node id="-117107" lat="61.8756611083" lon="9.04659443657">
		<tag k="name" v="Stafseng" />
		<tag k="place" v="farm" />
		<tag k="ssr:stedsnr" v="647250" />
	</node>
	<node id="-117104" lat="61.8699583302" lon="9.0871999913">
		<tag k="name" v="Kokkehaugen" />
		<tag k="place" v="isolated_dwelling" />
		<tag k="ssr:stedsnr" v="647233" />
	</node>
	<node id="-117102" lat="61.8466555511" lon="8.96084166902">
		<tag k="name" v="Tessneset" />
		<tag k="place" v="isolated_dwelling" />
		<tag k="ssr:stedsnr" v="647148" />
	</node>
	<node id="-117101" lat="61.8472972185" lon="8.93305277497">
		<tag k="name" v="Skoglund" />
		<tag k="place" v="isolated_dwelling" />
		<tag k="ssr:stedsnr" v="647144" />
	</node>
	<node id="-117100" lat="61.8603111084" lon="8.98845278623">
		<tag k="name" v="Heggjero" />
		<tag k="place" v="farm" />
		<tag k="ssr:stedsnr" v="647115" />
	</node>
	<node id="-117098" lat="61.8830972193" lon="9.10953333513">
		<tag k="name" v="Søre Øygarden" />
		<tag k="place" v="farm" />
		<tag k="ssr:stedsnr" v="647090" />
	</node>
	<node id="-117097" lat="61.8811750036" lon="9.06785276995">
		<tag k="name" v="Holtop" />
		<tag k="place" v="isolated_dwelling" />
		<tag k="ssr:stedsnr" v="647069" />
	</node>
	<node id="-117096" lat="61.8823638905" lon="9.08270833743">
		<tag k="name" v="Trolltun" />
		<tag k="place" v="farm" />
		<tag k="ssr:stedsnr" v="647064" />
	</node>
	<node id="-117094" lat="61.9110305596" lon="8.99645000668">
		<tag k="name" v="Uppistugun Skjedsvoll" />
		<tag k="place" v="farm" />
		<tag k="ssr:stedsnr" v="647002" />
	</node>
	<node id="-117092" lat="61.8807749957" lon="9.1493472235">
		<tag k="name" v="Sandbushaugen" />
		<tag k="place" v="farm" />
		<tag k="ssr:stedsnr" v="645995" />
	</node>
	<node id="-117087" lat="61.8651805539" lon="9.2145722271">
		<tag k="name" v="Randen" />
		<tag k="place" v="farm" />
		<tag k="ssr:stedsnr" v="645748" />
	</node>
	<node id="-117086" lat="61.863819443" lon="9.21839166333">
		<tag k="name" v="Øyen" />
		<tag k="place" v="farm" />
		<tag k="ssr:stedsnr" v="645734" />
	</node>
	<node id="-117083" lat="61.890508336" lon="9.06364722623">
		<tag k="name" v="Øvre Råstad" />
		<tag k="place" v="farm" />
		<tag k="ssr:stedsnr" v="645031" />
	</node>
	<node id="-117082" lat="61.8731588995" lon="9.09244397295">
		<tag k="name" v="Kjøpanger" />
		<tag k="place" v="farm" />
		<tag k="ssr:stedsnr" v="645162" />
	</node>
	<node id="-117078" lat="61.8014222198" lon="9.28867500891">
		<tag k="name" v="Nedre Lykkja" />
		<tag k="place" v="farm" />
		<tag k="ssr:stedsnr" v="628837" />
	</node>
	<node id="-117077" lat="61.8606055593" lon="9.22466943602">
		<tag k="name" v="Brekka" />
		<tag k="place" v="farm" />
		<tag k="ssr:stedsnr" v="617937" />
	</node>
	<node id="-117076" lat="61.8568777756" lon="9.25557222695">
		<tag k="name" v="Øvre Ruste" />
		<tag k="place" v="farm" />
		<tag k="ssr:stedsnr" v="617931" />
	</node>
	<node id="-117073" lat="61.5594527741" lon="9.20392499691">
		<tag k="alt_name" v="Kaggerudsætre" />
		<tag k="historic" v="shieling" />
		<tag k="name" v="Kaggerudsætri" />
		<tag k="place" v="locality" />
		<tag k="ssr:stedsnr" v="617845" />
	</node>
	<node id="-117071" lat="61.6166250002" lon="8.96827777718">
		<tag k="historic" v="shieling" />
		<tag k="name" v="Hindvangen" />
		<tag k="place" v="locality" />
		<tag k="ssr:stedsnr" v="617812" />
	</node>
	<node id="-117068" lat="61.7884888912" lon="9.07078055367">
		<tag k="alt_name" v="Nylykkjesætre" />
		<tag k="historic" v="shieling" />
		<tag k="name" v="Nylykkjesætri" />
		<tag k="place" v="locality" />
		<tag k="ssr:stedsnr" v="617458" />
	</node>
	<node id="-117066" lat="61.9035008328" lon="9.01430614579">
		<tag k="fixme" v="consider place=hamlet" />
		<tag k="name" v="Øvsteng" />
		<tag k="place" v="farm" />
		<tag k="ssr:stedsnr" v="617404" />
	</node>
	<node id="-117062" lat="61.899812464" lon="9.01087386696">
		<tag k="fixme" v="consider place=hamlet" />
		<tag k="name" v="Haugen" />
		<tag k="place" v="farm" />
		<tag k="ssr:stedsnr" v="617394" />
	</node>
	<node id="-117061" lat="61.891155552" lon="9.07277222457">
		<tag k="name" v="Haugli" />
		<tag k="place" v="farm" />
		<tag k="ssr:stedsnr" v="617390" />
	</node>
	<node id="-117059" lat="61.8862802635" lon="9.10774813611">
		<tag k="name" v="Sandbakken" />
		<tag k="old_name" v="Øvre Sandbakken" />
		<tag k="place" v="farm" />
		<tag k="ssr:stedsnr" v="617371" />
	</node>
	<node id="-117058" lat="61.8718919723" lon="9.00332699081">
		<tag k="alt_name" v="Vistdal" />
		<tag k="name" v="Uppigard Visdal" />
		<tag k="place" v="farm" />
		<tag k="ssr:stedsnr" v="617362" />
	</node>
	<node id="-117057" lat="61.8764499993" lon="9.1702249975">
		<tag k="name" v="Bråten" />
		<tag k="place" v="farm" />
		<tag k="ssr:stedsnr" v="617355" />
	</node>
	<node id="-117056" lat="61.86743131" lon="9.04585523477">
		<tag k="fixme" v="consider place=hamlet" />
		<tag k="name" v="Helle" />
		<tag k="place" v="farm" />
		<tag k="ssr:stedsnr" v="617349" />
	</node>
	<node id="-117049" lat="61.925067843" lon="8.97228736909">
		<tag k="alt_name" v="Sandbugarden" />
		<tag k="fixme" v="consider place=hamlet" />
		<tag k="name" v="Sandbusgarden" />
		<tag k="place" v="farm" />
		<tag k="ssr:stedsnr" v="617173" />
	</node>
	<node id="-117048" lat="61.7275111114" lon="9.06793610179">
		<tag k="fixme" v="consider place=hamlet" />
		<tag k="name" v="Randsverk" />
		<tag k="place" v="village" />
		<tag k="ssr:stedsnr" v="616992" />
	</node>
	<node id="-117045" lat="61.5554027797" lon="8.82274722132">
		<tag k="name" v="Saubue" />
		<tag k="place" v="isolated_dwelling" />
		<tag k="ssr:stedsnr" v="616952" />
	</node>
	<node id="-117037" lat="61.6688223177" lon="9.07266304911">
		<tag k="alt_name" v="Sjolisætrin;Sjolisætrene" />
		<tag k="historic" v="shieling" />
		<tag k="name" v="Sjolii" />
		<tag k="place" v="locality" />
		<tag k="ssr:stedsnr" v="616771" />
	</node>
	<node id="-117036" lat="61.828211114" lon="9.04617221541">
		<tag k="alt_name" v="Mestrondsætre" />
		<tag k="historic" v="shieling" />
		<tag k="name" v="Mestrondsætri" />
		<tag k="place" v="locality" />
		<tag k="ssr:stedsnr" v="616475" />
	</node>
	<node id="-117034" lat="61.7907111145" lon="9.14329722484">
		<tag k="historic" v="shieling" />
		<tag k="name" v="Bønes" />
		<tag k="place" v="locality" />
		<tag k="ssr:stedsnr" v="616435" />
	</node>
	<node id="-117031" lat="61.8558000042" lon="9.04527500432">
		<tag k="alt_name" v="Strond, nordre;Nordpå Strond" />
		<tag k="name" v="Nørdre Strond" />
		<tag k="place" v="farm" />
		<tag k="ssr:stedsnr" v="616286" />
	</node>
	<node id="-117029" lat="61.8602410341" lon="9.08295296633">
		<tag k="name" v="Melum" />
		<tag k="place" v="farm" />
		<tag k="ssr:stedsnr" v="616280" />
	</node>
	<node id="-117028" lat="61.856041667" lon="9.19683055408">
		<tag k="alt_name" v="Austrem, nordre;Nørdre Austrem" />
		<tag k="name" v="Nordistugu Austrem" />
		<tag k="place" v="farm" />
		<tag k="ssr:stedsnr" v="616269" />
	</node>
	<node id="-117019" lat="61.8227250003" lon="9.25548054719">
		<tag k="name" v="Øvre Kjølstad" />
		<tag k="place" v="locality" />
		<tag k="ssr:stedsnr" v="595919" />
	</node>
	<node id="-117018" lat="61.799741663" lon="9.33181666015">
		<tag k="alt_name" v="Nerlien Nordre" />
		<tag k="name" v="Nørdre Nerlie" />
		<tag k="place" v="farm" />
		<tag k="ssr:stedsnr" v="595644" />
	</node>
	<node id="-117014" lat="61.8072944467" lon="9.18640556338">
		<tag k="name" v="Øvre Bringen" />
		<tag k="place" v="hamlet" />
		<tag k="ssr:stedsnr" v="595516" />
	</node>
	<node id="-117013" lat="61.8254722218" lon="9.25504722009">
		<tag k="name" v="Øvre Bakkom" />
		<tag k="place" v="locality" />
		<tag k="ssr:stedsnr" v="594923" />
	</node>
	<node id="-117012" lat="61.8239055531" lon="9.26168056322">
		<tag k="name" v="Rotemshågen" />
		<tag k="place" v="farm" />
		<tag k="ssr:stedsnr" v="594912" />
	</node>
	<node id="-117006" lat="61.8196916682" lon="9.32377777993">
		<tag k="name" v="Varpmyrhytta" />
		<tag k="place" v="isolated_dwelling" />
		<tag k="ssr:stedsnr" v="587613" />
	</node>
	<node id="-117003" lat="61.8087247294" lon="9.02613079791">
		<tag k="historic" v="shieling" />
		<tag k="name" v="Gammelsætre" />
		<tag k="place" v="locality" />
		<tag k="ssr:stedsnr" v="587163" />
	</node>
	<node id="-116998" lat="61.8625444465" lon="8.93484166516">
		<tag k="name" v="Øvre Kleive" />
		<tag k="place" v="locality" />
		<tag k="ssr:stedsnr" v="587096" />
	</node>
	<node id="-116997" lat="61.8636249961" lon="8.94092221577">
		<tag k="name" v="Tassmyrhaugen" />
		<tag k="place" v="locality" />
		<tag k="ssr:stedsnr" v="587095" />
	</node>
	<node id="-116995" lat="61.8603444467" lon="8.97678889252">
		<tag k="name" v="Høgberget" />
		<tag k="place" v="farm" />
		<tag k="ssr:stedsnr" v="587092" />
	</node>
	<node id="-116993" lat="61.8837999967" lon="9.10901666056">
		<tag k="name" v="Øvergård" />
		<tag k="place" v="farm" />
		<tag k="ssr:stedsnr" v="587066" />
	</node>
	<node id="-116992" lat="61.8774277769" lon="9.08474444512">
		<tag k="name" v="Øvre Langskåre" />
		<tag k="place" v="isolated_dwelling" />
		<tag k="ssr:stedsnr" v="587048" />
	</node>
	<node id="-116983" lat="61.8776972229" lon="9.13609722355">
		<tag k="name" v="Steindalen" />
		<tag k="place" v="isolated_dwelling" />
		<tag k="ssr:stedsnr" v="585990" />
	</node>
	<node id="-116981" lat="61.8432361143" lon="9.22993333365">
		<tag k="name" v="Teigplassen" />
		<tag k="place" v="locality" />
		<tag k="ssr:stedsnr" v="585835" />
	</node>
	<node id="-116976" lat="61.8846638879" lon="9.07724722536">
		<tag k="name" v="Pålstad" />
		<tag k="place" v="farm" />
		<tag k="ssr:stedsnr" v="585053" />
	</node>
	<node id="-116974" lat="61.8524611069" lon="9.20118056039">
		<tag k="name" v="Granlund" />
		<tag k="place" v="isolated_dwelling" />
		<tag k="ssr:stedsnr" v="584867" />
	</node>
	<node id="-116973" lat="61.8543277758" lon="9.20267499831">
		<tag k="name" v="Saghaugen" />
		<tag k="place" v="farm" />
		<tag k="ssr:stedsnr" v="584864" />
	</node>
	<node id="-116972" lat="61.869991667" lon="9.09822222861">
		<tag k="name" v="Brumoen" />
		<tag k="place" v="farm" />
		<tag k="ssr:stedsnr" v="584216" />
	</node>
	<node id="-116967" lat="61.7475206422" lon="9.10018444903">
		<tag k="alt_name" v="Slomhaugen" />
		<tag k="name" v="Slombhaugen" />
		<tag k="place" v="farm" />
		<tag k="ssr:stedsnr" v="556956" />
	</node>
	<node id="-116966" lat="61.8511666711" lon="9.23286666006">
		<tag k="name" v="Solheim" />
		<tag k="place" v="farm" />
		<tag k="ssr:stedsnr" v="556951" />
	</node>
	<node id="-116965" lat="61.7371055529" lon="9.02003888366">
		<tag k="alt_name" v="Stulein" />
		<tag k="name" v="Stulan" />
		<tag k="place" v="locality" />
		<tag k="ssr:stedsnr" v="556949" />
	</node>
	<node id="-116963" lat="61.5572722209" lon="8.79236110852">
		<tag k="name" v="Russvassbue" />
		<tag k="place" v="isolated_dwelling" />
		<tag k="ssr:stedsnr" v="556906" />
	</node>
	<node id="-116960" lat="61.8003777821" lon="9.30437500606">
		<tag k="alt_name" v="Eide" />
		<tag k="name" v="Nørdre Eide" />
		<tag k="place" v="farm" />
		<tag k="ssr:stedsnr" v="556872" />
	</node>
	<node id="-116957" lat="61.8367302616" lon="9.25481016608">
		<tag k="alt_name" v="Stade" />
		<tag k="fixme" v="consider place=hamlet" />
		<tag k="name" v="Søre Stade" />
		<tag k="place" v="farm" />
		<tag k="ssr:stedsnr" v="556811" />
	</node>
	<node id="-116950" lat="61.8094303059" lon="9.27828881712">
		<tag k="fixme" v="consider place=hamlet" />
		<tag k="name" v="Nørdre Kleive" />
		<tag k="place" v="farm" />
		<tag k="ssr:stedsnr" v="556766" />
	</node>
	<node id="-116949" lat="61.8032166625" lon="9.18138888311">
		<tag k="historic" v="shieling" />
		<tag k="name" v="Bjørnstadsætri" />
		<tag k="place" v="locality" />
		<tag k="ssr:stedsnr" v="556481" />
	</node>
	<node id="-116947" lat="61.7950805537" lon="9.19609723094">
		<tag k="name" v="Bakkesætri" />
		<tag k="place" v="farm" />
		<tag k="ssr:stedsnr" v="556468" />
	</node>
	<node id="-116945" lat="61.7653611088" lon="9.05702777976">
		<tag k="historic" v="shieling" />
		<tag k="name" v="Sandesætri" />
		<tag k="place" v="locality" />
		<tag k="ssr:stedsnr" v="556454" />
	</node>
	<node id="-116942" lat="61.8780580899" lon="9.11503078769">
		<tag k="fixme" v="consider place=hamlet" />
		<tag k="name" v="Sve" />
		<tag k="place" v="farm" />
		<tag k="ssr:stedsnr" v="556406" />
	</node>
	<node id="-116941" lat="61.8713277767" lon="9.03104999409">
		<tag k="name" v="Byre" />
		<tag k="place" v="farm" />
		<tag k="ssr:stedsnr" v="556403" />
	</node>
	<node id="-116939" lat="61.8639972184" lon="9.11590554921">
		<tag k="name" v="Høystad" />
		<tag k="place" v="farm" />
		<tag k="ssr:stedsnr" v="556378" />
	</node>
	<node id="-116938" lat="61.8646679181" lon="9.10540250987">
		<tag k="fixme" v="consider place=hamlet" />
		<tag k="name" v="Sunde" />
		<tag k="place" v="farm" />
		<tag k="ssr:stedsnr" v="556376" />
	</node>
	<node id="-116937" lat="61.8656527739" lon="9.1561166633">
		<tag k="alt_name" v="Kleppe, nordre;Nørdre Kleppe" />
		<tag k="name" v="Nordigard Kleppe" />
		<tag k="place" v="farm" />
		<tag k="ssr:stedsnr" v="556372" />
	</node>
	<node id="-116935" lat="61.8634781993" lon="9.15452221676">
		<tag k="alt_name" v="Kleppe, s;Kleppe;Søre Kleppe" />
		<tag k="name" v="Sygard Kleppe" />
		<tag k="place" v="farm" />
		<tag k="ssr:stedsnr" v="556367" />
	</node>
	<node id="-116934" lat="61.866309005" lon="9.21099905602">
		<tag k="alt_name" v="Haugen" />
		<tag k="name" v="Øvre Haugen" />
		<tag k="place" v="farm" />
		<tag k="ssr:stedsnr" v="556364" />
	</node>
	<node id="-116933" lat="61.8530361118" lon="9.19073055738">
		<tag k="alt_name" v="Svei, s;Sør-Svee" />
		<tag k="name" v="Søre Svei" />
		<tag k="place" v="farm" />
		<tag k="ssr:stedsnr" v="556345" />
	</node>
	<node id="-116932" lat="61.8492993903" lon="8.89799183872">
		<tag k="name" v="Neset" />
		<tag k="place" v="locality" />
		<tag k="ssr:stedsnr" v="556343" />
	</node>
	<node id="-116931" lat="61.844180552" lon="8.8992166592">
		<tag k="name" v="Bergli" />
		<tag k="place" v="farm" />
		<tag k="ssr:stedsnr" v="556328" />
	</node>
	<node id="-116930" lat="61.8434222221" lon="8.88317778402">
		<tag k="name" v="Lauvmo" />
		<tag k="place" v="farm" />
		<tag k="ssr:stedsnr" v="556324" />
	</node>
	<node id="-116929" lat="61.841847226" lon="8.96278333119">
		<tag k="name" v="Brun" />
		<tag k="place" v="farm" />
		<tag k="ssr:stedsnr" v="556316" />
	</node>
	<node id="-116928" lat="61.8447222238" lon="8.91435833065">
		<tag k="name" v="Lykkja" />
		<tag k="place" v="farm" />
		<tag k="ssr:stedsnr" v="556312" />
	</node>
	<node id="-116923" lat="61.9322140165" lon="8.93339976319">
		<tag k="alt_name" v="Brekkesætre" />
		<tag k="historic" v="shieling" />
		<tag k="name" v="Brekkesætri" />
		<tag k="place" v="locality" />
		<tag k="ssr:stedsnr" v="556158" />
	</node>
	<node id="-116919" lat="61.7141749992" lon="8.96467777177">
		<tag k="alt_name" v="Fuglesetrene" />
		<tag k="historic" v="shieling" />
		<tag k="loc_name" v="Fugelsætrin" />
		<tag k="name" v="Fuglesætrin" />
		<tag k="place" v="locality" />
		<tag k="ssr:stedsnr" v="555963" />
	</node>
	<node id="-116918" lat="61.5146333313" lon="8.85303610899">
		<tag k="name" v="Bessheim fjellstue" />
		<tag k="ssr:stedsnr" v="555843" />
		<tag k="tourism" v="hotel" />
	</node>
	<node id="-116912" lat="61.8282611102" lon="9.03392499385">
		<tag k="alt_name" v="Strondsætri, nordre;Nordpåstrondsætre" />
		<tag k="historic" v="shieling" />
		<tag k="name" v="Nørdre Strondsætri" />
		<tag k="place" v="locality" />
		<tag k="ssr:stedsnr" v="555435" />
	</node>
	<node id="-116911" lat="61.8273555526" lon="9.0522638896">
		<tag k="alt_name" v="Uppstrondsætre" />
		<tag k="historic" v="shieling" />
		<tag k="name" v="Uppåstrondsætri" />
		<tag k="place" v="locality" />
		<tag k="ssr:stedsnr" v="555433" />
	</node>
	<node id="-116907" lat="61.8069194488" lon="8.9519444387">
		<tag k="alt_name" v="Endasætre;Einsætri" />
		<tag k="historic" v="shieling" />
		<tag k="loc_name" v="Endsætre" />
		<tag k="name" v="Endsætri" />
		<tag k="place" v="locality" />
		<tag k="ssr:stedsnr" v="555406" />
	</node>
	<node id="-116906" lat="61.8143722254" lon="9.09158054788">
		<tag k="alt_name" v="Plasssætre" />
		<tag k="historic" v="shieling" />
		<tag k="name" v="Plassætri" />
		<tag k="place" v="locality" />
		<tag k="ssr:stedsnr" v="555397" />
	</node>
	<node id="-116899" lat="61.4341805571" lon="9.10538334208">
		<tag k="alt_name" v="Geitsætre" />
		<tag k="name" v="Geitsætri" />
		<tag k="place" v="isolated_dwelling" />
		<tag k="ssr:stedsnr" v="553006" />
	</node>
	<node id="-116895" lat="61.8209194474" lon="9.25848610749">
		<tag k="name" v="Skårshaugen" />
		<tag k="place" v="farm" />
		<tag k="ssr:stedsnr" v="534938" />
	</node>
	<node id="-116894" lat="61.8205250028" lon="9.25259166587">
		<tag k="name" v="Lauvrud" />
		<tag k="place" v="farm" />
		<tag k="ssr:stedsnr" v="534934" />
	</node>
	<node id="-116891" lat="61.8066138897" lon="9.35399166958">
		<tag k="name" v="Skarhytta" />
		<tag k="place" v="locality" />
		<tag k="ssr:stedsnr" v="534654" />
	</node>
	<node id="-116890" lat="61.7947611094" lon="9.19804444125">
		<tag k="name" v="Myrvang" />
		<tag k="place" v="farm" />
		<tag k="ssr:stedsnr" v="534568" />
	</node>
	<node id="-116888" lat="61.7982111105" lon="9.18519444012">
		<tag k="name" v="Nedre Bringen" />
		<tag k="place" v="hamlet" />
		<tag k="ssr:stedsnr" v="534562" />
	</node>
	<node id="-116885" lat="61.8572694454" lon="8.97406943617">
		<tag k="name" v="Søre Ulsand" />
		<tag k="place" v="isolated_dwelling" />
		<tag k="ssr:stedsnr" v="534505" />
	</node>
	<node id="-116883" lat="61.5489583366" lon="8.91518055776">
		<tag k="historic" v="shieling" />
		<tag k="name" v="Storviksbesstrond" />
		<tag k="place" v="locality" />
		<tag k="ssr:stedsnr" v="531769" />
	</node>
	<node id="-116879" lat="61.593950003" lon="8.93735554974">
		<tag k="name" v="Russlibua" />
		<tag k="place" v="isolated_dwelling" />
		<tag k="ssr:stedsnr" v="526635" />
	</node>
	<node id="-116875" lat="61.7610861153" lon="8.99593333377">
		<tag k="name" v="Dravtjønnhytta" />
		<tag k="place" v="isolated_dwelling" />
		<tag k="ssr:stedsnr" v="526371" />
	</node>
	<node id="-116874" lat="61.7296916671" lon="9.07679445383">
		<tag k="name" v="Søre Vangen" />
		<tag k="place" v="isolated_dwelling" />
		<tag k="ssr:stedsnr" v="526283" />
	</node>
	<node id="-116869" lat="61.860338888" lon="9.07673889186">
		<tag k="name" v="Rundhaugen" />
		<tag k="place" v="farm" />
		<tag k="ssr:stedsnr" v="526216" />
	</node>
	<node id="-116868" lat="61.870658336" lon="9.08903889255">
		<tag k="name" v="Haug" />
		<tag k="place" v="isolated_dwelling" />
		<tag k="ssr:stedsnr" v="526213" />
	</node>
	<node id="-116866" lat="61.8501761015" lon="9.00218273971">
		<tag k="name" v="Odnes" />
		<tag k="old_name" v="Øygardsneset" />
		<tag k="place" v="farm" />
		<tag k="ssr:stedsnr" v="526134" />
	</node>
	<node id="-116864" lat="61.846136115" lon="8.97731388737">
		<tag k="name" v="Øvre Runningen" />
		<tag k="place" v="farm" />
		<tag k="ssr:stedsnr" v="526126" />
	</node>
	<node id="-116863" lat="61.8619111141" lon="8.98820000888">
		<tag k="name" v="Nørdre Veslhågån" />
		<tag k="place" v="isolated_dwelling" />
		<tag k="ssr:stedsnr" v="526086" />
	</node>
	<node id="-116862" lat="61.8822833364" lon="9.11263332731">
		<tag k="name" v="Berget" />
		<tag k="place" v="farm" />
		<tag k="ssr:stedsnr" v="526059" />
	</node>
	<node id="-116861" lat="61.8801305518" lon="9.08638611428">
		<tag k="alt_name" v="Blessomvolden" />
		<tag k="name" v="Blessomvollen" />
		<tag k="place" v="farm" />
		<tag k="ssr:stedsnr" v="526046" />
	</node>
	<node id="-116857" lat="61.868547223" lon="8.9100166573">
		<tag k="historic" v="shieling" />
		<tag k="name" v="Trælviksætre" />
		<tag k="place" v="locality" />
		<tag k="ssr:stedsnr" v="525075" />
	</node>
	<node id="-116856" lat="61.8837277796" lon="9.13791666833">
		<tag k="name" v="Søre Vassdokken" />
		<tag k="place" v="isolated_dwelling" />
		<tag k="ssr:stedsnr" v="524976" />
	</node>
	<node id="-116854" lat="61.8897444419" lon="9.06034166948">
		<tag k="name" v="Steinli" />
		<tag k="place" v="farm" />
		<tag k="ssr:stedsnr" v="524022" />
	</node>
	<node id="-116851" lat="61.8840583319" lon="9.08344999115">
		<tag k="name" v="Øvre Sundhågån" />
		<tag k="place" v="farm" />
		<tag k="ssr:stedsnr" v="524035" />
	</node>
	<node id="-116850" lat="61.8443119155" lon="8.90219639768">
		<tag k="name" v="Honslåkje" />
		<tag k="place" v="isolated_dwelling" />
		<tag k="ssr:stedsnr" v="514353" />
	</node>
	<node id="-116849" lat="61.8005305582" lon="9.28676945308">
		<tag k="name" v="Øvre Lykkja" />
		<tag k="place" v="farm" />
		<tag k="ssr:stedsnr" v="507871" />
	</node>
	<node id="-116844" lat="61.8976114717" lon="9.04060291798">
		<tag k="alt_name" v="Gallstad" />
		<tag k="fixme" v="consider place=hamlet" />
		<tag k="name" v="Galstad" />
		<tag k="place" v="farm" />
		<tag k="ssr:stedsnr" v="496396" />
	</node>
	<node id="-116837" lat="61.6865611092" lon="9.09459444809">
		<tag k="alt_name" v="Storbua" />
		<tag k="loc_name" v="Storbue" />
		<tag k="name" v="Storbui" />
		<tag k="place" v="isolated_dwelling" />
		<tag k="ssr:stedsnr" v="495989" />
	</node>
	<node id="-116835" lat="61.7409750011" lon="9.10232500202">
		<tag k="alt_name" v="Stormyre" />
		<tag k="name" v="Stormyri" />
		<tag k="place" v="isolated_dwelling" />
		<tag k="ssr:stedsnr" v="495962" />
	</node>
	<node id="-116830" lat="61.7999861086" lon="9.26359722887">
		<tag k="historic" v="shieling" />
		<tag k="name" v="Hovdasætrin" />
		<tag k="place" v="locality" />
		<tag k="ssr:stedsnr" v="495893" />
	</node>
	<node id="-116829" lat="61.5083027816" lon="8.86499444492">
		<tag k="name" v="Bamfordnaustet" />
		<tag k="place" v="locality" />
		<tag k="ssr:stedsnr" v="495891" />
	</node>
	<node id="-116827" lat="61.7938527813" lon="9.3415638937">
		<tag k="name" v="Sørlie" />
		<tag k="place" v="farm" />
		<tag k="ssr:stedsnr" v="495871" />
	</node>
	<node id="-116823" lat="61.8378277791" lon="9.23804167024">
		<tag k="name" v="Stadelykkja" />
		<tag k="old_name" v="Søre Stadeløkken" />
		<tag k="place" v="farm" />
		<tag k="ssr:stedsnr" v="495821" />
	</node>
	<node id="-116822" lat="61.6184418252" lon="9.03207872253">
		<tag k="historic" v="shieling" />
		<tag k="loc_name" v="Sallie" />
		<tag k="name" v="Sallii" />
		<tag k="place" v="locality" />
		<tag k="ssr:stedsnr" v="495801" />
	</node>
	<node id="-116821" lat="61.8311983658" lon="9.28118739538">
		<tag k="fixme" v="consider place=hamlet" />
		<tag k="name" v="Håmår" />
		<tag k="place" v="farm" />
		<tag k="ssr:stedsnr" v="495797" />
	</node>
	<node id="-116820" lat="61.8286359844" lon="9.26123072465">
		<tag k="fixme" v="consider place=hamlet" />
		<tag k="name" v="Rotem" />
		<tag k="place" v="farm" />
		<tag k="ssr:stedsnr" v="495796" />
	</node>
	<node id="-116819" lat="61.8295777801" lon="9.27892778483">
		<tag k="name" v="Ekra" />
		<tag k="place" v="farm" />
		<tag k="ssr:stedsnr" v="495793" />
	</node>
	<node id="-116817" lat="61.8143307071" lon="9.27020139611">
		<tag k="fixme" v="consider place=hamlet" />
		<tag k="name" v="Pillarvike" />
		<tag k="place" v="farm" />
		<tag k="ssr:stedsnr" v="495768" />
	</node>
	<node id="-116814" lat="61.800976047" lon="8.96435778199">
		<tag k="alt_name" v="Åbakksætre" />
		<tag k="historic" v="shieling" />
		<tag k="name" v="Åbakksætri" />
		<tag k="place" v="locality" />
		<tag k="ssr:stedsnr" v="495452" />
	</node>
	<node id="-116813" lat="61.7973808573" lon="9.15552564208">
		<tag k="historic" v="shieling" />
		<tag k="name" v="Saghaugen" />
		<tag k="place" v="locality" />
		<tag k="ssr:stedsnr" v="495445" />
	</node>
	<node id="-116812" lat="61.7872972185" lon="9.18275556354">
		<tag k="historic" v="shieling" />
		<tag k="name" v="Liasætri" />
		<tag k="place" v="locality" />
		<tag k="ssr:stedsnr" v="495424" />
	</node>
	<node id="-116811" lat="61.791680553" lon="8.96590277796">
		<tag k="alt_name" v="Åsvangsætre" />
		<tag k="historic" v="shieling" />
		<tag k="name" v="Åsvangsætri" />
		<tag k="place" v="locality" />
		<tag k="ssr:stedsnr" v="495415" />
	</node>
	<node id="-116809" lat="61.8612027814" lon="9.15585278371">
		<tag k="name" v="Lykkja" />
		<tag k="place" v="farm" />
		<tag k="ssr:stedsnr" v="495291" />
	</node>
	<node id="-116807" lat="61.8479722262" lon="8.96266944486">
		<tag k="fixme" v="consider place=hamlet" />
		<tag k="name" v="Tessand" />
		<tag k="place" v="village" />
		<tag k="ssr:stedsnr" v="495284" />
	</node>
	<node id="-116806" lat="61.8522694462" lon="9.19883889542">
		<tag k="name" v="Sanden" />
		<tag k="place" v="farm" />
		<tag k="ssr:stedsnr" v="495275" />
	</node>
	<node id="-116797" lat="61.8624916654" lon="9.01761943887">
		<tag k="name" v="Sygard Valde" />
		<tag k="place" v="farm" />
		<tag k="ssr:stedsnr" v="471378" />
	</node>
	<node id="-116793" lat="61.8742083289" lon="9.20204166846">
		<tag k="name" v="Midtre Myrom" />
		<tag k="place" v="farm" />
		<tag k="ssr:stedsnr" v="466820" />
	</node>
	<node id="-116792" lat="61.8380749968" lon="9.29337222351">
		<tag k="name" v="Svastugu" />
		<tag k="place" v="locality" />
		<tag k="ssr:stedsnr" v="466602" />
	</node>
	<node id="-116791" lat="61.959813892" lon="8.99566666919">
		<tag k="name" v="Hulderbu" />
		<tag k="place" v="isolated_dwelling" />
		<tag k="ssr:stedsnr" v="466016" />
	</node>
	<node id="-116789" lat="61.9663000028" lon="9.00394722009">
		<tag k="historic" v="shieling" />
		<tag k="name" v="Storhaugen" />
		<tag k="place" v="locality" />
		<tag k="ssr:stedsnr" v="465546" />
	</node>
	<node id="-116788" lat="61.7657042682" lon="9.05670332376">
		<tag k="name" v="Lego" />
		<tag k="place" v="isolated_dwelling" />
		<tag k="ssr:stedsnr" v="465360" />
	</node>
	<node id="-116787" lat="61.8768027766" lon="9.04943334229">
		<tag k="name" v="Skogvang" />
		<tag k="place" v="farm" />
		<tag k="ssr:stedsnr" v="465222" />
	</node>
	<node id="-116785" lat="61.8500333377" lon="9.0112888956">
		<tag k="name" v="Lande" />
		<tag k="place" v="locality" />
		<tag k="ssr:stedsnr" v="465127" />
	</node>
	<node id="-116782" lat="61.8487743972" lon="8.96913802307">
		<tag k="name" v="Neslykkja" />
		<tag k="place" v="locality" />
		<tag k="ssr:stedsnr" v="465119" />
	</node>
	<node id="-116779" lat="61.8573555525" lon="8.96841110251">
		<tag k="name" v="Hansberget" />
		<tag k="place" v="isolated_dwelling" />
		<tag k="ssr:stedsnr" v="465085" />
	</node>
	<node id="-116778" lat="61.8691333349" lon="8.9904888823">
		<tag k="name" v="Huset" />
		<tag k="place" v="farm" />
		<tag k="ssr:stedsnr" v="465062" />
	</node>
	<node id="-116777" lat="61.8792063753" lon="9.10559284194">
		<tag k="name" v="Øy" />
		<tag k="place" v="hamlet" />
		<tag k="ssr:stedsnr" v="465056" />
	</node>
	<node id="-116776" lat="61.8802333348" lon="9.10108333748">
		<tag k="name" v="Haugøy" />
		<tag k="place" v="farm" />
		<tag k="ssr:stedsnr" v="465050" />
	</node>
	<node id="-116775" lat="61.8792666688" lon="9.08155555699">
		<tag k="name" v="Nedre Langskåre" />
		<tag k="place" v="isolated_dwelling" />
		<tag k="ssr:stedsnr" v="465042" />
	</node>
	<node id="-116774" lat="61.8777916637" lon="9.09821389337">
		<tag k="name" v="Vågå Hotell" />
		<tag k="ssr:stedsnr" v="465040" />
		<tag k="tourism" v="hotel" />
	</node>
	<node id="-116773" lat="61.8833777803" lon="9.10043332464">
		<tag k="name" v="Blessomlykkja" />
		<tag k="place" v="farm" />
		<tag k="ssr:stedsnr" v="465037" />
	</node>
	<node id="-116772" lat="61.8784416644" lon="9.15255833011">
		<tag k="name" v="Søremshaugen" />
		<tag k="place" v="farm" />
		<tag k="ssr:stedsnr" v="464993" />
	</node>
	<node id="-116771" lat="61.8836999965" lon="9.1312611112">
		<tag k="name" v="Skjellum" />
		<tag k="place" v="farm" />
		<tag k="ssr:stedsnr" v="464983" />
	</node>
	<node id="-116770" lat="61.8673083299" lon="9.21556110774">
		<tag k="name" v="Plassen" />
		<tag k="place" v="farm" />
		<tag k="ssr:stedsnr" v="464770" />
	</node>
	<node id="-116768" lat="61.865572219" lon="9.20732500317">
		<tag k="name" v="Nørdre Haugen" />
		<tag k="place" v="farm" />
		<tag k="ssr:stedsnr" v="464757" />
	</node>
	<node id="-116767" lat="61.8660166641" lon="9.19897500667">
		<tag k="name" v="Furumo" />
		<tag k="place" v="farm" />
		<tag k="ssr:stedsnr" v="464747" />
	</node>
	<node id="-116763" lat="61.8933163015" lon="9.03447483489">
		<tag k="name" v="Holen" />
		<tag k="place" v="hamlet" />
		<tag k="ssr:stedsnr" v="464032" />
	</node>
	<node id="-116760" lat="61.8938277743" lon="9.04901945361">
		<tag k="name" v="Uppheim" />
		<tag k="place" v="farm" />
		<tag k="ssr:stedsnr" v="464015" />
	</node>
	<node id="-116757" lat="61.8502972244" lon="9.21073333085">
		<tag k="name" v="Søre Løken" />
		<tag k="place" v="farm" />
		<tag k="ssr:stedsnr" v="463856" />
	</node>
	<node id="-116755" lat="61.8729722243" lon="9.10140833739">
		<tag k="name" v="Halland" />
		<tag k="place" v="isolated_dwelling" />
		<tag k="ssr:stedsnr" v="463166" />
	</node>
	<node id="-116752" lat="61.8490250038" lon="8.89642778281">
		<tag k="name" v="Nørdre Neset" />
		<tag k="place" v="farm" />
		<tag k="ssr:stedsnr" v="453330" />
	</node>
	<node id="-116750" lat="61.8474472231" lon="9.21882499619">
		<tag k="name" v="Elvestad" />
		<tag k="place" v="farm" />
		<tag k="ssr:stedsnr" v="436942" />
	</node>
	<node id="-116749" lat="61.8531916631" lon="9.22842777608">
		<tag k="name" v="Kjeldlykkja" />
		<tag k="place" v="farm" />
		<tag k="ssr:stedsnr" v="436931" />
	</node>
	<node id="-116747" lat="61.8835222237" lon="9.11593332595">
		<tag k="alt_name" v="Nørdre Skjellom" />
		<tag k="name" v="Skjellom" />
		<tag k="place" v="farm" />
		<tag k="ssr:stedsnr" v="436318" />
	</node>
	<node id="-116745" lat="61.878113887" lon="9.21587221399">
		<tag k="alt_name" v="Holungsætrin, nordre;Holungsætrin" />
		<tag k="historic" v="shieling" />
		<tag k="name" v="Nørdre Holungssætrin" />
		<tag k="place" v="locality" />
		<tag k="ssr:stedsnr" v="436302" />
	</node>
	<node id="-116743" lat="61.8788324498" lon="9.13617017067">
		<tag k="name" v="Sandbu" />
		<tag k="place" v="hamlet" />
		<tag k="ssr:stedsnr" v="436297" />
	</node>
	<node id="-116742" lat="61.8744840362" lon="9.17615727212">
		<tag k="alt_name" v="Uleberg" />
		<tag k="fixme" v="consider place=hamlet" />
		<tag k="name" v="Urdeberg" />
		<tag k="place" v="farm" />
		<tag k="ssr:stedsnr" v="436296" />
	</node>
	<node id="-116741" lat="61.8628527755" lon="8.97151665828">
		<tag k="alt_name" v="Veslsætre" />
		<tag k="name" v="Veslsætri" />
		<tag k="place" v="farm" />
		<tag k="ssr:stedsnr" v="436292" />
	</node>
	<node id="-116740" lat="61.8619835555" lon="8.93659888894">
		<tag k="alt_name" v="Kleivi" />
		<tag k="fixme" v="consider place=hamlet" />
		<tag k="name" v="Nedre Kleive" />
		<tag k="place" v="farm" />
		<tag k="ssr:stedsnr" v="436291" />
	</node>
	<node id="-116737" lat="61.9461563292" lon="9.00805642156">
		<tag k="historic" v="shieling" />
		<tag k="name" v="Nordsætrin" />
		<tag k="place" v="locality" />
		<tag k="ssr:stedsnr" v="436116" />
	</node>
</osm>
