<?xml version="1.0" encoding="UTF-8"?>
<osm generator="osmapis" version="0.6">
	<node id="-117695" lat="61.6413131382" lon="8.96722013183">
		<tag k="fixme" v="consider boundary=protected_area and relevant protect_class if not nature reserve" />
		<tag k="leisure" v="nature_reserve" />
		<tag k="name" v="Veogjelet naturreservat" />
		<tag k="ssr:stedsnr" v="971444" />
	</node>
	<node id="-117694" lat="61.6812727208" lon="9.07482092015">
		<tag k="fixme" v="consider boundary=protected_area and relevant protect_class if not nature reserve" />
		<tag k="leisure" v="nature_reserve" />
		<tag k="name" v="Ridderspranget naturreservat" />
		<tag k="ssr:stedsnr" v="971445" />
	</node>
	<node id="-117693" lat="61.5618990324" lon="8.90577475781">
		<tag k="fixme" v="consider boundary=protected_area and relevant protect_class if not nature reserve" />
		<tag k="leisure" v="nature_reserve" />
		<tag k="name" v="Baklie naturreservat" />
		<tag k="ssr:stedsnr" v="971443" />
	</node>
	<node id="-117692" lat="61.5747387182" lon="8.95953302432">
		<tag k="fixme" v="consider boundary=protected_area and relevant protect_class if not nature reserve" />
		<tag k="leisure" v="nature_reserve" />
		<tag k="name" v="Stuttgonglie naturreservat" />
		<tag k="ssr:stedsnr" v="971442" />
	</node>
	<node id="-117561" lat="61.5735388853" lon="8.97008888907">
		<tag k="fixme" v="consider boundary=protected_area and relevant protect_class if not nature reserve" />
		<tag k="leisure" v="nature_reserve" />
		<tag k="name" v="Birisjølia landskapsvernområde" />
		<tag k="ssr:stedsnr" v="902776" />
	</node>
	<node id="-117360" lat="61.5591694445" lon="9.1813305648">
		<tag k="name" v="Langmorkje statsallmenning" />
		<tag k="place" v="locality" />
		<tag k="ssr:stedsnr" v="777066" />
	</node>
	<node id="-116688" lat="61.5640833296" lon="8.97391944046">
		<tag k="fixme" v="consider boundary=protected_area and relevant protect_class if not nature reserve" />
		<tag k="leisure" v="nature_reserve" />
		<tag k="name" v="Styggemyra naturreservat" />
		<tag k="ssr:stedsnr" v="416724" />
	</node>
	<node id="-115999" lat="61.5884722183" lon="8.95366389646">
		<tag k="fixme" v="consider boundary=protected_area and relevant protect_class if not nature reserve" />
		<tag k="leisure" v="nature_reserve" />
		<tag k="name" v="Stuttgonglia naturreservat" />
		<tag k="ssr:stedsnr" v="405640" />
	</node>
</osm>
