<?xml version="1.0" encoding="UTF-8"?>
<osm version="0.6" generator="osmapis">
	<node lat="64.81300833468768" lon="13.656708338020453" id="-48373">
		<tag k="name" v="Finnkrulia" />
		<tag k="name:no" v="Finnkrulia" />
		<tag k="natural" v="slope" />
		<tag k="place" v="locality" />
		<tag k="ssr:date" v="2018-01-09" />
		<tag k="ssr:gruppe" v="skråninger" />
		<tag k="ssr:hovedgruppe" v="terreng" />
		<tag k="ssr:stedsnr" v="229615" />
		<tag k="ssr:type" v="li" />
	</node>
	<node lat="65.04462777735264" lon="13.674469442842815" id="-48374">
		<tag k="name" v="Jillie Giedtie-njuana - Vester Krutangen" />
		<tag k="name:no" v="Vester Krutangen" />
		<tag k="name:sma" v="Jillie Giedtie-njuana" />
		<tag k="natural" v="cape" />
		<tag k="ssr:date" v="2018-01-09" />
		<tag k="ssr:gruppe" v="ferskvannskontur" />
		<tag k="ssr:hovedgruppe" v="ferskvann" />
		<tag k="ssr:stedsnr" v="229668" />
		<tag k="ssr:type" v="nes" />
	</node>
	<node lat="64.87057777383986" lon="13.488094444828617" id="-48375">
		<tag k="name" v="Litlfjellet" />
		<tag k="name:no" v="Litlfjellet" />
		<tag k="natural" v="hill" />
		<tag k="place" v="locality" />
		<tag k="ssr:date" v="2018-01-09" />
		<tag k="ssr:gruppe" v="høyder" />
		<tag k="ssr:hovedgruppe" v="terreng" />
		<tag k="ssr:stedsnr" v="229848" />
		<tag k="ssr:type" v="berg" />
	</node>
	<node lat="64.84428055288431" lon="13.557908342177402" id="-48376">
		<tag k="name" v="Stormyra" />
		<tag k="name:no" v="Stormyra" />
		<tag k="natural" v="wetland" />
		<tag k="ssr:date" v="2018-01-09" />
		<tag k="ssr:gruppe" v="våtmark" />
		<tag k="ssr:hovedgruppe" v="markslag" />
		<tag k="ssr:stedsnr" v="229868" />
		<tag k="ssr:type" v="myr" />
	</node>
	<node lat="64.80823333290002" lon="13.369155549430376" id="-48377">
		<tag k="name" v="Lykkrosrommet" />
		<tag k="name:no" v="Lykkrosrommet" />
		<tag k="natural" v="beach" />
		<tag k="ssr:date" v="2018-01-09" />
		<tag k="ssr:gruppe" v="ferskvannskontur" />
		<tag k="ssr:hovedgruppe" v="ferskvann" />
		<tag k="ssr:stedsnr" v="230165" />
		<tag k="ssr:type" v="strand" />
	</node>
	<node lat="64.82673055261658" lon="13.358811109824964" id="-48378">
		<tag k="name" v="Reajnoe-sjåellie" />
		<tag k="name:no" v="Reajnoe-sjåellie" />
		<tag k="natural" v="slope" />
		<tag k="place" v="locality" />
		<tag k="ssr:date" v="2018-01-09" />
		<tag k="ssr:gruppe" v="skråninger" />
		<tag k="ssr:hovedgruppe" v="terreng" />
		<tag k="ssr:stedsnr" v="230171" />
		<tag k="ssr:type" v="li" />
	</node>
	<node lat="64.90995278252053" lon="13.467799992805356" id="-48379">
		<tag k="name" v="Femstakkmyra" />
		<tag k="name:no" v="Femstakkmyra" />
		<tag k="natural" v="wetland" />
		<tag k="ssr:date" v="2018-01-09" />
		<tag k="ssr:gruppe" v="våtmark" />
		<tag k="ssr:hovedgruppe" v="markslag" />
		<tag k="ssr:stedsnr" v="230175" />
		<tag k="ssr:type" v="myr" />
	</node>
	<node lat="64.9626055532" lon="14.101838889730011" id="-48380">
		<tag k="name" v="Buhtjeme-njuana" />
		<tag k="name:sma" v="Buhtjeme-njuana" />
		<tag k="natural" v="cape" />
		<tag k="ssr:date" v="2018-01-09" />
		<tag k="ssr:gruppe" v="ferskvannskontur" />
		<tag k="ssr:hovedgruppe" v="ferskvann" />
		<tag k="ssr:stedsnr" v="230383" />
		<tag k="ssr:type" v="nes" />
	</node>
	<node lat="64.99027500304935" lon="13.671494441384" id="-48381">
		<tag k="name" v="Litlflyen" />
		<tag k="name:no" v="Litlflyen" />
		<tag k="natural" v="water" />
		<tag k="ssr:date" v="2018-01-09" />
		<tag k="ssr:gruppe" v="rennendeVann" />
		<tag k="ssr:hovedgruppe" v="ferskvann" />
		<tag k="ssr:stedsnr" v="230547" />
		<tag k="ssr:type" v="lon" />
		<tag k="water" v="lake" />
	</node>
	<node lat="64.95779722467816" lon="13.558291676122808" id="-48382">
		<tag k="name" v="Knulen" />
		<tag k="name:no" v="Knulen" />
		<tag k="natural" v="hill" />
		<tag k="place" v="locality" />
		<tag k="ssr:date" v="2021-06-08" />
		<tag k="ssr:gruppe" v="høyder" />
		<tag k="ssr:hovedgruppe" v="terreng" />
		<tag k="ssr:stedsnr" v="14017" />
		<tag k="ssr:type" v="haug" />
	</node>
	<node lat="64.95623888955039" lon="13.565083342195168" id="-48383">
		<tag k="name" v="Storsteinbekken" />
		<tag k="name:no" v="Storsteinbekken" />
		<tag k="ssr:date" v="2021-06-08" />
		<tag k="ssr:gruppe" v="rennendeVann" />
		<tag k="ssr:hovedgruppe" v="ferskvann" />
		<tag k="ssr:stedsnr" v="14018" />
		<tag k="ssr:type" v="bekk" />
		<tag k="waterway" v="stream" />
	</node>
	<node lat="64.74432778025586" lon="13.352280545555608" id="-48384">
		<tag k="name" v="Holmen" />
		<tag k="name:no" v="Holmen" />
		<tag k="place" v="islet" />
		<tag k="ssr:date" v="2021-06-08" />
		<tag k="ssr:gruppe" v="ferskvannskontur" />
		<tag k="ssr:hovedgruppe" v="ferskvann" />
		<tag k="ssr:stedsnr" v="14206" />
		<tag k="ssr:type" v="holme" />
	</node>
	<node lat="64.58564166779254" lon="13.13216387919833" id="-48385">
		<tag k="name" v="Bukktjønna" />
		<tag k="name:no" v="Bukktjønna" />
		<tag k="natural" v="water" />
		<tag k="ssr:date" v="2021-06-08" />
		<tag k="ssr:gruppe" v="stilleståendeVann" />
		<tag k="ssr:hovedgruppe" v="ferskvann" />
		<tag k="ssr:stedsnr" v="14223" />
		<tag k="ssr:type" v="tjern" />
	</node>
	<node lat="64.70989166644998" lon="13.063777772295238" id="-48386">
		<tag k="name" v="Tjørrudalen" />
		<tag k="name:no" v="Tjørrudalen" />
		<tag k="natural" v="valley" />
		<tag k="place" v="locality" />
		<tag k="ssr:date" v="2021-06-08" />
		<tag k="ssr:gruppe" v="senkninger" />
		<tag k="ssr:hovedgruppe" v="terreng" />
		<tag k="ssr:stedsnr" v="14268" />
		<tag k="ssr:type" v="dal" />
	</node>
	<node lat="64.86868611116067" lon="13.554763880179577" id="-48387">
		<tag k="name" v="Sagvika" />
		<tag k="name:no" v="Sagvika" />
		<tag k="place" v="farm" />
		<tag k="ssr:date" v="2021-06-08" />
		<tag k="ssr:gruppe" v="gardsbebyggelse" />
		<tag k="ssr:hovedgruppe" v="bebyggelse" />
		<tag k="ssr:stedsnr" v="14304" />
		<tag k="ssr:type" v="bruk" />
	</node>
	<node lat="64.8538527740267" lon="13.573908333501018" id="-48388">
		<tag k="name" v="Litlklumpen" />
		<tag k="name:no" v="Litlklumpen" />
		<tag k="natural" v="hill" />
		<tag k="place" v="locality" />
		<tag k="ssr:date" v="2021-06-08" />
		<tag k="ssr:gruppe" v="høyder" />
		<tag k="ssr:hovedgruppe" v="terreng" />
		<tag k="ssr:stedsnr" v="14316" />
		<tag k="ssr:type" v="haug" />
	</node>
	<node lat="64.85338333268871" lon="13.406450003230672" id="-48389">
		<tag k="historic" v="shieling" />
		<tag k="name" v="Austre Gjersviksætra" />
		<tag k="name:no" v="Austre Gjersviksætra" />
		<tag k="place" v="isolated_dwelling" />
		<tag k="ssr:date" v="2021-06-08" />
		<tag k="ssr:gruppe" v="gardsbebyggelse" />
		<tag k="ssr:hovedgruppe" v="bebyggelse" />
		<tag k="ssr:stedsnr" v="14317" />
		<tag k="ssr:type" v="seterStøl" />
	</node>
	<node lat="64.8487527796174" lon="13.665550009678446" id="-48390">
		<tag k="fixme" v="consider natural=peak for the most distinct mountains in the district" />
		<tag k="name" v="Njueniesjaevriennjuenie" />
		<tag k="name:sma" v="Njueniesjaevriennjuenie" />
		<tag k="natural" v="hill" />
		<tag k="place" v="locality" />
		<tag k="ssr:date" v="2021-06-08" />
		<tag k="ssr:gruppe" v="høyder" />
		<tag k="ssr:hovedgruppe" v="terreng" />
		<tag k="ssr:stedsnr" v="14318" />
		<tag k="ssr:type" v="ås" />
	</node>
	<node lat="64.9403250030027" lon="13.397958334767896" id="-48391">
		<tag k="name" v="Saksvasskardet" />
		<tag k="name:no" v="Saksvasskardet" />
		<tag k="natural" v="valley" />
		<tag k="place" v="locality" />
		<tag k="ssr:date" v="2021-06-08" />
		<tag k="ssr:gruppe" v="senkninger" />
		<tag k="ssr:hovedgruppe" v="terreng" />
		<tag k="ssr:stedsnr" v="14366" />
		<tag k="ssr:type" v="skar" />
	</node>
	<node lat="65.0112500010202" lon="13.871027769280234" id="-48392">
		<tag k="name" v="Lomtjønnin" />
		<tag k="name:no" v="Lomtjønnin" />
		<tag k="natural" v="water" />
		<tag k="ssr:date" v="2021-06-08" />
		<tag k="ssr:gruppe" v="stilleståendeVann" />
		<tag k="ssr:hovedgruppe" v="ferskvann" />
		<tag k="ssr:stedsnr" v="14760" />
		<tag k="ssr:type" v="tjern" />
	</node>
	<node lat="65.09416944526275" lon="14.183750002328921" id="-48393">
		<tag k="fixme" v="consider natural=peak for the most distinct mountains in the district" />
		<tag k="name" v="Vuepertjahke" />
		<tag k="name:sma" v="Vuepertjahke" />
		<tag k="natural" v="hill" />
		<tag k="place" v="locality" />
		<tag k="ssr:date" v="2021-06-08" />
		<tag k="ssr:gruppe" v="høyder" />
		<tag k="ssr:hovedgruppe" v="terreng" />
		<tag k="ssr:stedsnr" v="14771" />
		<tag k="ssr:type" v="fjell" />
	</node>
	<node lat="64.68296388834658" lon="13.187472231198038" id="-48394">
		<tag k="name" v="Lia" />
		<tag k="name:no" v="Lia" />
		<tag k="natural" v="hill" />
		<tag k="place" v="locality" />
		<tag k="ssr:date" v="2021-06-08" />
		<tag k="ssr:gruppe" v="høyder" />
		<tag k="ssr:hovedgruppe" v="terreng" />
		<tag k="ssr:stedsnr" v="15409" />
		<tag k="ssr:type" v="haug" />
	</node>
	<node lat="64.86890277510527" lon="13.853733327497707" id="-48395">
		<tag k="landuse" v="quarry" />
		<tag k="name" v="Grong Gruber" />
		<tag k="name:no" v="Grong Gruber" />
		<tag k="ssr:date" v="2021-06-08" />
		<tag k="ssr:gruppe" v="uttakOgDeponi" />
		<tag k="ssr:hovedgruppe" v="markslag" />
		<tag k="ssr:stedsnr" v="15302" />
		<tag k="ssr:type" v="bergverk" />
	</node>
	<node lat="64.72356944464852" lon="13.34313611261077" id="-48396">
		<tag k="name" v="Øyheim" />
		<tag k="name:no" v="Øyheim" />
		<tag k="place" v="farm" />
		<tag k="ssr:date" v="2018-01-09" />
		<tag k="ssr:gruppe" v="gardsbebyggelse" />
		<tag k="ssr:hovedgruppe" v="bebyggelse" />
		<tag k="ssr:stedsnr" v="15303" />
		<tag k="ssr:type" v="bruk" />
	</node>
	<node lat="64.60759443988252" lon="13.20705556187592" id="-48397">
		<tag k="name" v="Tjirrehtse" />
		<tag k="name:sma" v="Tjirrehtse" />
		<tag k="natural" v="valley" />
		<tag k="place" v="locality" />
		<tag k="ssr:date" v="2021-06-08" />
		<tag k="ssr:gruppe" v="senkninger" />
		<tag k="ssr:hovedgruppe" v="terreng" />
		<tag k="ssr:stedsnr" v="15371" />
		<tag k="ssr:type" v="skar" />
	</node>
	<node lat="64.60736388606426" lon="13.147627777101999" id="-48398">
		<tag k="name" v="Blindtarmen" />
		<tag k="name:no" v="Blindtarmen" />
		<tag k="natural" v="water" />
		<tag k="ssr:date" v="2021-06-08" />
		<tag k="ssr:gruppe" v="stilleståendeVann" />
		<tag k="ssr:hovedgruppe" v="ferskvann" />
		<tag k="ssr:stedsnr" v="15372" />
		<tag k="ssr:type" v="tjern" />
	</node>
	<node lat="64.91202499877788" lon="13.594063880729443" id="-48399">
		<tag k="name" v="Nytjønna" />
		<tag k="name:no" v="Nytjønna" />
		<tag k="natural" v="water" />
		<tag k="ssr:date" v="2021-06-08" />
		<tag k="ssr:gruppe" v="stilleståendeVann" />
		<tag k="ssr:hovedgruppe" v="ferskvann" />
		<tag k="ssr:stedsnr" v="15503" />
		<tag k="ssr:type" v="tjern" />
	</node>
	<node lat="64.88871666339635" lon="13.549427770665828" id="-48400">
		<tag k="name" v="Røset" />
		<tag k="name:no" v="Røset" />
		<tag k="place" v="farm" />
		<tag k="ssr:date" v="2021-06-08" />
		<tag k="ssr:gruppe" v="gardsbebyggelse" />
		<tag k="ssr:hovedgruppe" v="bebyggelse" />
		<tag k="ssr:stedsnr" v="15516" />
		<tag k="ssr:type" v="bruk" />
	</node>
	<node lat="64.8430305528658" lon="13.8030611148433" id="-48401">
		<tag k="name" v="Govre" />
		<tag k="name:sma" v="Govre" />
		<tag k="ssr:date" v="2021-06-08" />
		<tag k="ssr:gruppe" v="rennendeVann" />
		<tag k="ssr:hovedgruppe" v="ferskvann" />
		<tag k="ssr:stedsnr" v="20258" />
		<tag k="ssr:type" v="bekk" />
		<tag k="waterway" v="stream" />
	</node>
	<node lat="64.8437861092824" lon="13.772147226749697" id="-48402">
		<tag k="name" v="Govrenjohke" />
		<tag k="name:sma" v="Govrenjohke" />
		<tag k="ssr:date" v="2021-06-08" />
		<tag k="ssr:gruppe" v="rennendeVann" />
		<tag k="ssr:hovedgruppe" v="ferskvann" />
		<tag k="ssr:stedsnr" v="21948" />
		<tag k="ssr:type" v="elv" />
		<tag k="waterway" v="river" />
	</node>
	<node lat="64.66021944771465" lon="13.245008343333144" id="-48403">
		<tag k="name" v="Stallvik-Reinøya" />
		<tag k="name:no" v="Stallvik-Reinøya" />
		<tag k="place" v="farm" />
		<tag k="ssr:date" v="2021-06-08" />
		<tag k="ssr:gruppe" v="gardsbebyggelse" />
		<tag k="ssr:hovedgruppe" v="bebyggelse" />
		<tag k="ssr:stedsnr" v="40446" />
		<tag k="ssr:type" v="bruk" />
	</node>
	<node lat="64.89969722055135" lon="13.662969443680613" id="-48404">
		<tag k="name" v="Femstakkmyra" />
		<tag k="name:no" v="Femstakkmyra" />
		<tag k="natural" v="cape" />
		<tag k="ssr:date" v="2018-01-09" />
		<tag k="ssr:gruppe" v="ferskvannskontur" />
		<tag k="ssr:hovedgruppe" v="ferskvann" />
		<tag k="ssr:stedsnr" v="45180" />
		<tag k="ssr:type" v="nes" />
	</node>
	<node lat="64.87675000277073" lon="13.744611120264404" id="-48405">
		<tag k="name" v="Mursteinholmen" />
		<tag k="name:no" v="Mursteinholmen" />
		<tag k="place" v="islet" />
		<tag k="ssr:date" v="2018-01-09" />
		<tag k="ssr:gruppe" v="ferskvannskontur" />
		<tag k="ssr:hovedgruppe" v="ferskvann" />
		<tag k="ssr:stedsnr" v="45184" />
		<tag k="ssr:type" v="holme" />
	</node>
	<node lat="64.88147500030051" lon="13.697238882367172" id="-48406">
		<tag k="name" v="Vestertjønna" />
		<tag k="name:no" v="Vestertjønna" />
		<tag k="natural" v="water" />
		<tag k="ssr:date" v="2018-01-09" />
		<tag k="ssr:gruppe" v="stilleståendeVann" />
		<tag k="ssr:hovedgruppe" v="ferskvann" />
		<tag k="ssr:stedsnr" v="45210" />
		<tag k="ssr:type" v="tjern" />
	</node>
	<node lat="64.88581111082735" lon="13.707088881243678" id="-48407">
		<tag k="name" v="Gappaloddobekken" />
		<tag k="name:no" v="Gappaloddobekken" />
		<tag k="ssr:date" v="2018-01-09" />
		<tag k="ssr:gruppe" v="rennendeVann" />
		<tag k="ssr:hovedgruppe" v="ferskvann" />
		<tag k="ssr:stedsnr" v="45214" />
		<tag k="ssr:type" v="bekk" />
		<tag k="waterway" v="stream" />
	</node>
	<node lat="64.88774999856415" lon="13.504474994940706" id="-48408">
		<tag k="name" v="Hølbekkmyra" />
		<tag k="name:no" v="Hølbekkmyra" />
		<tag k="natural" v="wetland" />
		<tag k="ssr:date" v="2018-01-09" />
		<tag k="ssr:gruppe" v="våtmark" />
		<tag k="ssr:hovedgruppe" v="markslag" />
		<tag k="ssr:stedsnr" v="46089" />
		<tag k="ssr:type" v="myr" />
	</node>
	<node lat="64.63547221757696" lon="13.150913897090406" id="-48409">
		<tag k="name" v="Finnburhaugen" />
		<tag k="name:no" v="Finnburhaugen" />
		<tag k="natural" v="hill" />
		<tag k="place" v="locality" />
		<tag k="ssr:date" v="2018-01-09" />
		<tag k="ssr:gruppe" v="høyder" />
		<tag k="ssr:hovedgruppe" v="terreng" />
		<tag k="ssr:stedsnr" v="46271" />
		<tag k="ssr:type" v="høyde" />
	</node>
	<node lat="64.66734444463056" lon="13.184727771380626" id="-48410">
		<tag k="name" v="Geitkløyvtangen" />
		<tag k="name:no" v="Geitkløyvtangen" />
		<tag k="natural" v="cape" />
		<tag k="ssr:date" v="2018-01-09" />
		<tag k="ssr:gruppe" v="ferskvannskontur" />
		<tag k="ssr:hovedgruppe" v="ferskvann" />
		<tag k="ssr:stedsnr" v="46278" />
		<tag k="ssr:type" v="nes" />
	</node>
	<node lat="64.79539166473776" lon="13.435202787712823" id="-48411">
		<tag k="name" v="Flatmyra" />
		<tag k="name:no" v="Flatmyra" />
		<tag k="natural" v="wetland" />
		<tag k="ssr:date" v="2018-01-09" />
		<tag k="ssr:gruppe" v="våtmark" />
		<tag k="ssr:hovedgruppe" v="markslag" />
		<tag k="ssr:stedsnr" v="47119" />
		<tag k="ssr:type" v="myr" />
	</node>
	<node lat="64.79190555632717" lon="13.425100008610867" id="-48412">
		<tag k="name" v="Nybua" />
		<tag k="name:no" v="Nybua" />
		<tag k="place" v="locality" />
		<tag k="ssr:date" v="2018-01-09" />
		<tag k="ssr:gruppe" v="gardsbebyggelse" />
		<tag k="ssr:hovedgruppe" v="bebyggelse" />
		<tag k="ssr:stedsnr" v="47121" />
		<tag k="ssr:type" v="eiendom" />
	</node>
	<node lat="64.78067499760935" lon="13.445388887408026" id="-48413">
		<tag k="name" v="Seterdalen" />
		<tag k="name:no" v="Seterdalen" />
		<tag k="natural" v="valley" />
		<tag k="place" v="locality" />
		<tag k="ssr:date" v="2018-01-09" />
		<tag k="ssr:gruppe" v="senkninger" />
		<tag k="ssr:hovedgruppe" v="terreng" />
		<tag k="ssr:stedsnr" v="47122" />
		<tag k="ssr:type" v="dal" />
	</node>
	<node lat="64.80338610724205" lon="13.363763896648985" id="-48414">
		<tag k="name" v="Spiltangen" />
		<tag k="name:no" v="Spiltangen" />
		<tag k="natural" v="cape" />
		<tag k="ssr:date" v="2018-01-09" />
		<tag k="ssr:gruppe" v="ferskvannskontur" />
		<tag k="ssr:hovedgruppe" v="ferskvann" />
		<tag k="ssr:stedsnr" v="47125" />
		<tag k="ssr:type" v="nes" />
	</node>
	<node lat="64.96396666258771" lon="13.644252777065267" id="-48415">
		<tag k="name" v="Skånalivika" />
		<tag k="name:no" v="Skånalivika" />
		<tag k="natural" v="bay" />
		<tag k="ssr:date" v="2018-01-09" />
		<tag k="ssr:gruppe" v="ferskvannskontur" />
		<tag k="ssr:hovedgruppe" v="ferskvann" />
		<tag k="ssr:stedsnr" v="48514" />
		<tag k="ssr:type" v="vik" />
	</node>
	<node lat="65.03446111492619" lon="13.707238889748016" id="-48416">
		<tag k="name" v="Ræjhkere-jallah" />
		<tag k="name:sma" v="Ræjhkere-jallah" />
		<tag k="natural" v="valley" />
		<tag k="place" v="locality" />
		<tag k="ssr:date" v="2018-01-09" />
		<tag k="ssr:gruppe" v="senkninger" />
		<tag k="ssr:hovedgruppe" v="terreng" />
		<tag k="ssr:stedsnr" v="48630" />
		<tag k="ssr:type" v="senkning" />
	</node>
	<node lat="64.99738055209299" lon="13.575861110883887" id="-48417">
		<tag k="name" v="Nååmesjenjaevrie - Namsvatnet" />
		<tag k="name:no" v="Namsvatnet" />
		<tag k="name:sma" v="Nååmesjenjaevrie" />
		<tag k="natural" v="water" />
		<tag k="ssr:date" v="2021-06-08" />
		<tag k="ssr:gruppe" v="stilleståendeVann" />
		<tag k="ssr:hovedgruppe" v="ferskvann" />
		<tag k="ssr:stedsnr" v="75002" />
		<tag k="ssr:type" v="innsjø" />
		<tag k="water" v="lake" />
	</node>
	<node lat="64.5770000012582" lon="13.164330553930249" id="-48418">
		<tag k="name" v="Langtarmen" />
		<tag k="name:no" v="Langtarmen" />
		<tag k="natural" v="water" />
		<tag k="ssr:date" v="2021-06-08" />
		<tag k="ssr:gruppe" v="stilleståendeVann" />
		<tag k="ssr:hovedgruppe" v="ferskvann" />
		<tag k="ssr:stedsnr" v="75301" />
		<tag k="ssr:type" v="tjern" />
	</node>
	<node lat="64.8885888854687" lon="13.824233330443862" id="-48419">
		<tag k="name" v="Styggbekken" />
		<tag k="name:no" v="Styggbekken" />
		<tag k="ssr:date" v="2021-06-08" />
		<tag k="ssr:gruppe" v="rennendeVann" />
		<tag k="ssr:hovedgruppe" v="ferskvann" />
		<tag k="ssr:stedsnr" v="75252" />
		<tag k="ssr:type" v="bekk" />
		<tag k="waterway" v="stream" />
	</node>
	<node lat="64.74859722606494" lon="13.349638889128787" id="-48420">
		<tag k="name" v="Heimly" />
		<tag k="name:no" v="Heimly" />
		<tag k="place" v="farm" />
		<tag k="ssr:date" v="2021-06-08" />
		<tag k="ssr:gruppe" v="gardsbebyggelse" />
		<tag k="ssr:hovedgruppe" v="bebyggelse" />
		<tag k="ssr:stedsnr" v="75255" />
		<tag k="ssr:type" v="bruk" />
	</node>
	<node lat="64.87424166544506" lon="13.534172222174648" id="-48421">
		<tag k="name" v="Rørviktangen" />
		<tag k="name:no" v="Rørviktangen" />
		<tag k="natural" v="cape" />
		<tag k="ssr:date" v="2021-06-08" />
		<tag k="ssr:gruppe" v="ferskvannskontur" />
		<tag k="ssr:hovedgruppe" v="ferskvann" />
		<tag k="ssr:stedsnr" v="75408" />
		<tag k="ssr:type" v="nes" />
	</node>
	<node lat="64.79919722290887" lon="13.620944442675292" id="-48422">
		<tag k="name" v="Slåttvika" />
		<tag k="name:no" v="Slåttvika" />
		<tag k="place" v="farm" />
		<tag k="ssr:date" v="2021-06-08" />
		<tag k="ssr:gruppe" v="gardsbebyggelse" />
		<tag k="ssr:hovedgruppe" v="bebyggelse" />
		<tag k="ssr:stedsnr" v="75452" />
		<tag k="ssr:type" v="bruk" />
	</node>
	<node lat="64.80315000020605" lon="13.396833343466788" id="-48423">
		<tag k="name" v="Kvernbekken" />
		<tag k="name:no" v="Kvernbekken" />
		<tag k="ssr:date" v="2021-06-08" />
		<tag k="ssr:gruppe" v="rennendeVann" />
		<tag k="ssr:hovedgruppe" v="ferskvann" />
		<tag k="ssr:stedsnr" v="75456" />
		<tag k="ssr:type" v="bekk" />
		<tag k="waterway" v="stream" />
	</node>
	<node lat="64.80391111445869" lon="13.373502774008177" id="-48424">
		<tag k="name" v="Oskarstakken" />
		<tag k="name:no" v="Oskarstakken" />
		<tag k="place" v="locality" />
		<tag k="ssr:date" v="2021-06-08" />
		<tag k="ssr:gruppe" v="gardsbebyggelse" />
		<tag k="ssr:hovedgruppe" v="bebyggelse" />
		<tag k="ssr:stedsnr" v="75457" />
		<tag k="ssr:type" v="eiendom" />
	</node>
	<node lat="65.01476666518693" lon="13.480491657841458" id="-48425">
		<tag k="name" v="Eallanjohke" />
		<tag k="name:sma" v="Eallanjohke" />
		<tag k="ssr:date" v="2021-06-08" />
		<tag k="ssr:gruppe" v="rennendeVann" />
		<tag k="ssr:hovedgruppe" v="ferskvann" />
		<tag k="ssr:stedsnr" v="75906" />
		<tag k="ssr:type" v="bekk" />
		<tag k="waterway" v="stream" />
	</node>
	<node lat="64.77357499774159" lon="13.432755547543533" id="-48426">
		<tag k="name" v="Leikhaugen" />
		<tag k="name:no" v="Leikhaugen" />
		<tag k="natural" v="hill" />
		<tag k="place" v="locality" />
		<tag k="ssr:date" v="2021-06-08" />
		<tag k="ssr:gruppe" v="høyder" />
		<tag k="ssr:hovedgruppe" v="terreng" />
		<tag k="ssr:stedsnr" v="76348" />
		<tag k="ssr:type" v="haug" />
	</node>
	<node lat="64.77671388823393" lon="13.330997222562738" id="-48427">
		<tag k="fixme" v="consider natural=peak for the most distinct mountains in the district" />
		<tag k="name" v="Austre Mykkelvikfjellet" />
		<tag k="name:no" v="Austre Mykkelvikfjellet" />
		<tag k="natural" v="hill" />
		<tag k="place" v="locality" />
		<tag k="ssr:date" v="2021-06-08" />
		<tag k="ssr:gruppe" v="høyder" />
		<tag k="ssr:hovedgruppe" v="terreng" />
		<tag k="ssr:stedsnr" v="76349" />
		<tag k="ssr:type" v="fjell" />
	</node>
	<node lat="64.59432500319733" lon="13.120969448905962" id="-48428">
		<tag k="name" v="Åarjel-Balhkohkejaevrie - Nesåflyan" />
		<tag k="name:no" v="Nesåflyan" />
		<tag k="name:sma" v="Åarjel-Balhkohkejaevrie" />
		<tag k="natural" v="water" />
		<tag k="ssr:date" v="2021-06-08" />
		<tag k="ssr:gruppe" v="stilleståendeVann" />
		<tag k="ssr:hovedgruppe" v="ferskvann" />
		<tag k="ssr:stedsnr" v="76350" />
		<tag k="ssr:type" v="tjern" />
	</node>
	<node lat="64.68183055140791" lon="13.312780561011742" id="-48429">
		<tag k="name" v="Sparfelttangen" />
		<tag k="name:no" v="Sparfelttangen" />
		<tag k="natural" v="cape" />
		<tag k="ssr:date" v="2021-06-08" />
		<tag k="ssr:gruppe" v="ferskvannskontur" />
		<tag k="ssr:hovedgruppe" v="ferskvann" />
		<tag k="ssr:stedsnr" v="76497" />
		<tag k="ssr:type" v="nes" />
	</node>
	<node lat="64.95670277460265" lon="13.964313898442052" id="-48430">
		<tag k="fixme" v="consider natural=peak for the most distinct mountains in the district" />
		<tag k="name" v="Noeresfiellie - Nursfjellet" />
		<tag k="name:no" v="Nursfjellet" />
		<tag k="name:sma" v="Noeresfiellie" />
		<tag k="natural" v="hill" />
		<tag k="place" v="locality" />
		<tag k="ssr:date" v="2021-06-08" />
		<tag k="ssr:gruppe" v="høyder" />
		<tag k="ssr:hovedgruppe" v="terreng" />
		<tag k="ssr:stedsnr" v="81391" />
		<tag k="ssr:type" v="fjell" />
	</node>
	<node lat="64.8448916650136" lon="13.811413888424875" id="-48431">
		<tag k="fixme" v="consider natural=peak for the most distinct mountains in the district" />
		<tag k="name" v="Snuhkie" />
		<tag k="name:sma" v="Snuhkie" />
		<tag k="natural" v="hill" />
		<tag k="place" v="locality" />
		<tag k="ssr:date" v="2021-06-08" />
		<tag k="ssr:gruppe" v="høyder" />
		<tag k="ssr:hovedgruppe" v="terreng" />
		<tag k="ssr:stedsnr" v="81906" />
		<tag k="ssr:type" v="fjell" />
	</node>
	<node lat="64.96386111457545" lon="13.473588893213597" id="-48432">
		<tag k="name" v="Goeblenbaahkoe" />
		<tag k="name:sma" v="Goeblenbaahkoe" />
		<tag k="natural" v="slope" />
		<tag k="place" v="locality" />
		<tag k="ssr:date" v="2021-06-08" />
		<tag k="ssr:gruppe" v="skråninger" />
		<tag k="ssr:hovedgruppe" v="terreng" />
		<tag k="ssr:stedsnr" v="82907" />
		<tag k="ssr:type" v="li" />
	</node>
	<node lat="64.93407499910849" lon="13.605272219182256" id="-48433">
		<tag k="name" v="Austre Storbekken" />
		<tag k="name:no" v="Austre Storbekken" />
		<tag k="ssr:date" v="2021-06-08" />
		<tag k="ssr:gruppe" v="rennendeVann" />
		<tag k="ssr:hovedgruppe" v="ferskvann" />
		<tag k="ssr:stedsnr" v="105084" />
		<tag k="ssr:type" v="bekk" />
		<tag k="waterway" v="stream" />
	</node>
	<node lat="64.88245833034225" lon="13.759094437167978" id="-48434">
		<tag k="name" v="Kvennbekken" />
		<tag k="name:no" v="Kvennbekken" />
		<tag k="ssr:date" v="2018-01-09" />
		<tag k="ssr:gruppe" v="rennendeVann" />
		<tag k="ssr:hovedgruppe" v="ferskvann" />
		<tag k="ssr:stedsnr" v="105230" />
		<tag k="ssr:type" v="bekk" />
		<tag k="waterway" v="stream" />
	</node>
	<node lat="64.6374083339645" lon="13.196900000135882" id="-48435">
		<tag k="name" v="Litlskavhaugen" />
		<tag k="name:no" v="Litlskavhaugen" />
		<tag k="natural" v="hill" />
		<tag k="place" v="locality" />
		<tag k="ssr:date" v="2018-01-09" />
		<tag k="ssr:gruppe" v="høyder" />
		<tag k="ssr:hovedgruppe" v="terreng" />
		<tag k="ssr:stedsnr" v="105174" />
		<tag k="ssr:type" v="høyde" />
	</node>
	<node lat="64.8995833298471" lon="13.637583339303683" id="-48436">
		<tag k="name" v="Vester Lomtjønna" />
		<tag k="name:no" v="Vester Lomtjønna" />
		<tag k="natural" v="water" />
		<tag k="ssr:date" v="2018-01-09" />
		<tag k="ssr:gruppe" v="stilleståendeVann" />
		<tag k="ssr:hovedgruppe" v="ferskvann" />
		<tag k="ssr:stedsnr" v="106104" />
		<tag k="ssr:type" v="tjern" />
	</node>
	<node lat="64.69157777700347" lon="13.213174994986572" id="-48437">
		<tag k="name" v="Damhaugan" />
		<tag k="name:no" v="Damhaugan" />
		<tag k="natural" v="hill" />
		<tag k="place" v="locality" />
		<tag k="ssr:date" v="2018-01-09" />
		<tag k="ssr:gruppe" v="høyder" />
		<tag k="ssr:hovedgruppe" v="terreng" />
		<tag k="ssr:stedsnr" v="106300" />
		<tag k="ssr:type" v="haug" />
	</node>
	<node lat="64.87833332952144" lon="13.866761113424433" id="-48438">
		<tag k="name" v="Midtimoan" />
		<tag k="name:no" v="Midtimoan" />
		<tag k="place" v="locality" />
		<tag k="ssr:date" v="2018-01-09" />
		<tag k="ssr:gruppe" v="flater" />
		<tag k="ssr:hovedgruppe" v="terreng" />
		<tag k="ssr:stedsnr" v="107198" />
		<tag k="ssr:type" v="mo" />
	</node>
	<node lat="64.87278611467931" lon="13.905994449239984" id="-48439">
		<tag k="name" v="Elgskaret" />
		<tag k="name:no" v="Elgskaret" />
		<tag k="natural" v="valley" />
		<tag k="place" v="locality" />
		<tag k="ssr:date" v="2018-01-09" />
		<tag k="ssr:gruppe" v="senkninger" />
		<tag k="ssr:hovedgruppe" v="terreng" />
		<tag k="ssr:stedsnr" v="107207" />
		<tag k="ssr:type" v="skar" />
	</node>
	<node lat="64.8732472259161" lon="13.856680555105113" id="-48440">
		<tag k="name" v="Nordtjønnbekken" />
		<tag k="name:no" v="Nordtjønnbekken" />
		<tag k="ssr:date" v="2018-01-09" />
		<tag k="ssr:gruppe" v="rennendeVann" />
		<tag k="ssr:hovedgruppe" v="ferskvann" />
		<tag k="ssr:stedsnr" v="107223" />
		<tag k="ssr:type" v="bekk" />
		<tag k="waterway" v="stream" />
	</node>
	<node lat="64.78699722428094" lon="13.440205554213025" id="-48441">
		<tag k="name" v="Gamseterlia" />
		<tag k="name:no" v="Gamseterlia" />
		<tag k="natural" v="slope" />
		<tag k="place" v="locality" />
		<tag k="ssr:date" v="2018-01-09" />
		<tag k="ssr:gruppe" v="skråninger" />
		<tag k="ssr:hovedgruppe" v="terreng" />
		<tag k="ssr:stedsnr" v="108120" />
		<tag k="ssr:type" v="li" />
	</node>
	<node lat="64.7946749979784" lon="13.356627776835133" id="-48442">
		<tag k="name" v="Storlihøgda" />
		<tag k="name:no" v="Storlihøgda" />
		<tag k="place" v="locality" />
		<tag k="ssr:date" v="2018-01-09" />
		<tag k="ssr:gruppe" v="høyder" />
		<tag k="ssr:hovedgruppe" v="terreng" />
		<tag k="ssr:stedsnr" v="108122" />
		<tag k="ssr:type" v="fjellkant" />
	</node>
	<node lat="64.75382499827235" lon="13.43596944831789" id="-48443">
		<tag k="name" v="Litlsandvika" />
		<tag k="name:no" v="Litlsandvika" />
		<tag k="natural" v="bay" />
		<tag k="ssr:date" v="2018-01-09" />
		<tag k="ssr:gruppe" v="ferskvannskontur" />
		<tag k="ssr:hovedgruppe" v="ferskvann" />
		<tag k="ssr:stedsnr" v="108126" />
		<tag k="ssr:type" v="vik" />
	</node>
	<node lat="64.73734721968019" lon="13.313836101735868" id="-48444">
		<tag k="name" v="Åsli" />
		<tag k="name:no" v="Åsli" />
		<tag k="place" v="farm" />
		<tag k="ssr:date" v="2018-01-09" />
		<tag k="ssr:gruppe" v="gardsbebyggelse" />
		<tag k="ssr:hovedgruppe" v="bebyggelse" />
		<tag k="ssr:stedsnr" v="108102" />
		<tag k="ssr:type" v="bruk" />
	</node>
	<node lat="64.7449722244839" lon="13.216708337012074" id="-48445">
		<tag k="name" v="Høghaugen" />
		<tag k="name:no" v="Høghaugen" />
		<tag k="natural" v="hill" />
		<tag k="place" v="locality" />
		<tag k="ssr:date" v="2018-01-09" />
		<tag k="ssr:gruppe" v="høyder" />
		<tag k="ssr:hovedgruppe" v="terreng" />
		<tag k="ssr:stedsnr" v="109112" />
		<tag k="ssr:type" v="haug" />
	</node>
	<node lat="64.73781110802992" lon="13.371502781060679" id="-48446">
		<tag k="name" v="Skankmyrbekken" />
		<tag k="name:no" v="Skankmyrbekken" />
		<tag k="ssr:date" v="2018-01-09" />
		<tag k="ssr:gruppe" v="rennendeVann" />
		<tag k="ssr:hovedgruppe" v="ferskvann" />
		<tag k="ssr:stedsnr" v="109139" />
		<tag k="ssr:type" v="bekk" />
		<tag k="waterway" v="stream" />
	</node>
	<node lat="64.72636389221496" lon="13.069891656952" id="-48447">
		<tag k="name" v="Småvatnan statsallmenning" />
		<tag k="place" v="locality" />
		<tag k="ssr:date" v="2019-12-27" />
		<tag k="ssr:gruppe" v="verne-OgBruksområder" />
		<tag k="ssr:hovedgruppe" v="offentligAdministrasjon" />
		<tag k="ssr:stedsnr" v="109824" />
		<tag k="ssr:type" v="allmenning" />
	</node>
	<node lat="65.04867915726481" lon="14.2269741548989" id="-48448">
		<tag k="historic" v="boundary_stone" />
		<tag k="man_made" v="cairn" />
		<tag k="name" v="Sipmekrøysa" />
		<tag k="name:no" v="Sipmekrøysa" />
		<tag k="place" v="locality" />
		<tag k="ssr:date" v="2021-06-08" />
		<tag k="ssr:gruppe" v="administrativeIndelinger" />
		<tag k="ssr:hovedgruppe" v="offentligAdministrasjon" />
		<tag k="ssr:stedsnr" v="110878" />
		<tag k="ssr:type" v="grensemerke" />
	</node>
	<node lat="64.66027221863206" lon="13.218500006064259" id="-48449">
		<tag k="name" v="Båstangen" />
		<tag k="name:no" v="Båstangen" />
		<tag k="natural" v="cape" />
		<tag k="ssr:date" v="2018-01-09" />
		<tag k="ssr:gruppe" v="ferskvannskontur" />
		<tag k="ssr:hovedgruppe" v="ferskvann" />
		<tag k="ssr:stedsnr" v="122018" />
		<tag k="ssr:type" v="nes" />
	</node>
	<node lat="64.75404166533315" lon="13.284186113397716" id="-48450">
		<tag k="name" v="Litlfisktjønna" />
		<tag k="name:no" v="Litlfisktjønna" />
		<tag k="natural" v="water" />
		<tag k="ssr:date" v="2021-06-08" />
		<tag k="ssr:gruppe" v="stilleståendeVann" />
		<tag k="ssr:hovedgruppe" v="ferskvann" />
		<tag k="ssr:stedsnr" v="135319" />
		<tag k="ssr:type" v="tjern" />
	</node>
	<node lat="64.7150277780302" lon="13.088152774924223" id="-48451">
		<tag k="fixme" v="multiple name tags, choose one and add the other to alt_name; consider natural=peak for the most distinct mountains in the district" />
		<tag k="name" v="Småvasshøgda;Litlfjellet" />
		<tag k="name:no" v="Småvasshøgda;Litlfjellet" />
		<tag k="natural" v="hill" />
		<tag k="place" v="locality" />
		<tag k="ssr:date" v="2021-06-08" />
		<tag k="ssr:gruppe" v="høyder" />
		<tag k="ssr:hovedgruppe" v="terreng" />
		<tag k="ssr:stedsnr" v="135322" />
		<tag k="ssr:type" v="ås" />
	</node>
	<node lat="64.7687805544316" lon="13.428238896782897" id="-48452">
		<tag k="name" v="Lauvnes" />
		<tag k="name:no" v="Lauvnes" />
		<tag k="place" v="farm" />
		<tag k="ssr:date" v="2021-06-08" />
		<tag k="ssr:gruppe" v="gardsbebyggelse" />
		<tag k="ssr:hovedgruppe" v="bebyggelse" />
		<tag k="ssr:stedsnr" v="135327" />
		<tag k="ssr:type" v="bruk" />
	</node>
	<node lat="64.91769999840704" lon="13.725675006423511" id="-48453">
		<tag k="name" v="Gåetbielesdurrie" />
		<tag k="name:sma" v="Gåetbielesdurrie" />
		<tag k="natural" v="valley" />
		<tag k="place" v="locality" />
		<tag k="ssr:date" v="2021-06-08" />
		<tag k="ssr:gruppe" v="senkninger" />
		<tag k="ssr:hovedgruppe" v="terreng" />
		<tag k="ssr:stedsnr" v="135255" />
		<tag k="ssr:type" v="dal" />
	</node>
	<node lat="64.73647500191245" lon="13.225911112902859" id="-48454">
		<tag k="name" v="Seterviktjønna" />
		<tag k="name:no" v="Seterviktjønna" />
		<tag k="natural" v="water" />
		<tag k="ssr:date" v="2021-06-08" />
		<tag k="ssr:gruppe" v="stilleståendeVann" />
		<tag k="ssr:hovedgruppe" v="ferskvann" />
		<tag k="ssr:stedsnr" v="135256" />
		<tag k="ssr:type" v="tjern" />
	</node>
	<node lat="64.83154444692865" lon="13.378141657607717" id="-48455">
		<tag k="name" v="Båskrubba" />
		<tag k="name:no" v="Båskrubba" />
		<tag k="natural" v="hill" />
		<tag k="place" v="locality" />
		<tag k="ssr:date" v="2021-06-08" />
		<tag k="ssr:gruppe" v="høyder" />
		<tag k="ssr:hovedgruppe" v="terreng" />
		<tag k="ssr:stedsnr" v="135405" />
		<tag k="ssr:type" v="haug" />
	</node>
	<node lat="64.82743055376109" lon="13.67589722341575" id="-48456">
		<tag k="name" v="Gåasajaevrie - Gåsvatnet" />
		<tag k="name:no" v="Gåsvatnet" />
		<tag k="name:sma" v="Gåasajaevrie" />
		<tag k="natural" v="water" />
		<tag k="ssr:date" v="2021-06-08" />
		<tag k="ssr:gruppe" v="stilleståendeVann" />
		<tag k="ssr:hovedgruppe" v="ferskvann" />
		<tag k="ssr:stedsnr" v="135409" />
		<tag k="ssr:type" v="vann" />
		<tag k="water" v="lake" />
	</node>
	<node lat="64.73837985926458" lon="13.316335871432" id="-48457">
		<tag k="fixme" v="consider place=hamlet" />
		<tag k="name" v="Mykkelvika" />
		<tag k="name:no" v="Mykkelvika" />
		<tag k="place" v="farm" />
		<tag k="ssr:date" v="2021-06-08" />
		<tag k="ssr:gruppe" v="gardsbebyggelse" />
		<tag k="ssr:hovedgruppe" v="bebyggelse" />
		<tag k="ssr:stedsnr" v="136300" />
		<tag k="ssr:type" v="gard" />
	</node>
	<node lat="64.80046944703388" lon="13.406816673596673" id="-48458">
		<tag k="name" v="Brennstakkslætta" />
		<tag k="name:no" v="Brennstakkslætta" />
		<tag k="natural" v="wetland" />
		<tag k="ssr:date" v="2021-06-08" />
		<tag k="ssr:gruppe" v="våtmark" />
		<tag k="ssr:hovedgruppe" v="markslag" />
		<tag k="ssr:stedsnr" v="136459" />
		<tag k="ssr:type" v="myr" />
	</node>
	<node lat="64.86969166840322" lon="13.856858325674835" id="-48459">
		<tag k="name" v="Ornes" />
		<tag k="name:no" v="Ornes" />
		<tag k="place" v="farm" />
		<tag k="ssr:date" v="2021-06-08" />
		<tag k="ssr:gruppe" v="gardsbebyggelse" />
		<tag k="ssr:hovedgruppe" v="bebyggelse" />
		<tag k="ssr:stedsnr" v="136316" />
		<tag k="ssr:type" v="bruk" />
	</node>
	<node lat="64.6586416641286" lon="13.198280563282092" id="-48460">
		<tag k="name" v="Stallheim" />
		<tag k="name:no" v="Stallheim" />
		<tag k="place" v="farm" />
		<tag k="ssr:date" v="2021-06-08" />
		<tag k="ssr:gruppe" v="gardsbebyggelse" />
		<tag k="ssr:hovedgruppe" v="bebyggelse" />
		<tag k="ssr:stedsnr" v="136358" />
		<tag k="ssr:type" v="bruk" />
	</node>
	<node lat="64.64583611294506" lon="13.18640278616639" id="-48461">
		<tag k="name" v="Tverrelva" />
		<tag k="name:no" v="Tverrelva" />
		<tag k="ssr:date" v="2021-06-08" />
		<tag k="ssr:gruppe" v="rennendeVann" />
		<tag k="ssr:hovedgruppe" v="ferskvann" />
		<tag k="ssr:stedsnr" v="136363" />
		<tag k="ssr:type" v="bekk" />
		<tag k="waterway" v="stream" />
	</node>
	<node lat="64.8032055533397" lon="13.700947228414542" id="-48462">
		<tag k="name" v="Nyvikmoseteren" />
		<tag k="name:no" v="Nyvikmoseteren" />
		<tag k="place" v="locality" />
		<tag k="ssr:date" v="2021-06-08" />
		<tag k="ssr:gruppe" v="gardsbebyggelse" />
		<tag k="ssr:hovedgruppe" v="bebyggelse" />
		<tag k="ssr:stedsnr" v="136367" />
		<tag k="ssr:type" v="eiendom" />
	</node>
	<node lat="64.79190277901068" lon="13.472327769342835" id="-48463">
		<tag k="name" v="Stortjønna" />
		<tag k="name:no" v="Stortjønna" />
		<tag k="natural" v="water" />
		<tag k="ssr:date" v="2021-06-08" />
		<tag k="ssr:gruppe" v="stilleståendeVann" />
		<tag k="ssr:hovedgruppe" v="ferskvann" />
		<tag k="ssr:stedsnr" v="136369" />
		<tag k="ssr:type" v="tjern" />
	</node>
	<node lat="64.7898833355478" lon="13.384950000466786" id="-48464">
		<tag k="name" v="Tunnsjørørvika" />
		<tag k="name:no" v="Tunnsjørørvika" />
		<tag k="natural" v="bay" />
		<tag k="ssr:date" v="2021-06-08" />
		<tag k="ssr:gruppe" v="ferskvannskontur" />
		<tag k="ssr:hovedgruppe" v="ferskvann" />
		<tag k="ssr:stedsnr" v="136370" />
		<tag k="ssr:type" v="vik" />
	</node>
	<node lat="65.04267499928326" lon="14.11852221169685" id="-48465">
		<tag k="fixme" v="consider natural=peak for the most distinct mountains in the district" />
		<tag k="name" v="Skaanjehtahke" />
		<tag k="name:sma" v="Skaanjehtahke" />
		<tag k="natural" v="hill" />
		<tag k="place" v="locality" />
		<tag k="ssr:date" v="2021-06-08" />
		<tag k="ssr:gruppe" v="høyder" />
		<tag k="ssr:hovedgruppe" v="terreng" />
		<tag k="ssr:stedsnr" v="145510" />
		<tag k="ssr:type" v="fjell" />
	</node>
	<node lat="64.95696389059844" lon="13.450227781539635" id="-48466">
		<tag k="name" v="Saaksenbaarmoenjaevrie" />
		<tag k="name:sma" v="Saaksenbaarmoenjaevrie" />
		<tag k="natural" v="water" />
		<tag k="ssr:date" v="2021-06-08" />
		<tag k="ssr:gruppe" v="stilleståendeVann" />
		<tag k="ssr:hovedgruppe" v="ferskvann" />
		<tag k="ssr:stedsnr" v="257032" />
		<tag k="ssr:type" v="tjern" />
	</node>
	<node lat="64.97674166697571" lon="13.587480557021827" id="-48467">
		<tag k="name" v="Heggvoll" />
		<tag k="name:no" v="Heggvoll" />
		<tag k="place" v="farm" />
		<tag k="ssr:date" v="2021-06-08" />
		<tag k="ssr:gruppe" v="gardsbebyggelse" />
		<tag k="ssr:hovedgruppe" v="bebyggelse" />
		<tag k="ssr:stedsnr" v="257041" />
		<tag k="ssr:type" v="bruk" />
	</node>
	<node lat="64.980291664844" lon="13.603613888620394" id="-48468">
		<tag k="name" v="Trolltjønna" />
		<tag k="name:no" v="Trolltjønna" />
		<tag k="natural" v="water" />
		<tag k="ssr:date" v="2021-06-08" />
		<tag k="ssr:gruppe" v="stilleståendeVann" />
		<tag k="ssr:hovedgruppe" v="ferskvann" />
		<tag k="ssr:stedsnr" v="257049" />
		<tag k="ssr:type" v="tjern" />
	</node>
	<node lat="64.98435555658745" lon="13.584624997145376" id="-48469">
		<tag k="name" v="Norheim" />
		<tag k="name:no" v="Norheim" />
		<tag k="place" v="farm" />
		<tag k="ssr:date" v="2021-06-08" />
		<tag k="ssr:gruppe" v="gardsbebyggelse" />
		<tag k="ssr:hovedgruppe" v="bebyggelse" />
		<tag k="ssr:stedsnr" v="257050" />
		<tag k="ssr:type" v="bruk" />
	</node>
	<node lat="64.99286000785304" lon="13.695828793243392" id="-48470">
		<tag k="name" v="Lomtjønna" />
		<tag k="name:no" v="Lomtjønna" />
		<tag k="natural" v="water" />
		<tag k="ssr:date" v="2021-06-08" />
		<tag k="ssr:gruppe" v="stilleståendeVann" />
		<tag k="ssr:hovedgruppe" v="ferskvann" />
		<tag k="ssr:stedsnr" v="257052" />
		<tag k="ssr:type" v="tjern" />
	</node>
	<node lat="64.99228889190209" lon="13.503122230009739" id="-48471">
		<tag k="name" v="Savjenjohke - Merkesbekken" />
		<tag k="name:no" v="Merkesbekken" />
		<tag k="name:sma" v="Savjenjohke" />
		<tag k="ssr:date" v="2021-06-08" />
		<tag k="ssr:gruppe" v="rennendeVann" />
		<tag k="ssr:hovedgruppe" v="ferskvann" />
		<tag k="ssr:stedsnr" v="257053" />
		<tag k="ssr:type" v="bekk" />
		<tag k="waterway" v="stream" />
	</node>
	<node lat="64.90685833316623" lon="14.012463897793163" id="-48472">
		<tag k="name" v="Bjørkhaugen" />
		<tag k="name:no" v="Bjørkhaugen" />
		<tag k="natural" v="hill" />
		<tag k="place" v="locality" />
		<tag k="ssr:date" v="2021-06-08" />
		<tag k="ssr:gruppe" v="høyder" />
		<tag k="ssr:hovedgruppe" v="terreng" />
		<tag k="ssr:stedsnr" v="257286" />
		<tag k="ssr:type" v="haug" />
	</node>
	<node lat="64.84304722606554" lon="13.879766677540548" id="-48473">
		<tag k="name" v="Sjapmenjohke" />
		<tag k="name:sma" v="Sjapmenjohke" />
		<tag k="ssr:date" v="2021-06-08" />
		<tag k="ssr:gruppe" v="rennendeVann" />
		<tag k="ssr:hovedgruppe" v="ferskvann" />
		<tag k="ssr:stedsnr" v="257298" />
		<tag k="ssr:type" v="bekk" />
		<tag k="waterway" v="stream" />
	</node>
	<node lat="64.8606694414133" lon="13.881824992139817" id="-48474">
		<tag k="alt_name:sma" v="Ovre-jaevrie" />
		<tag k="name" v="Ovrejaevrie - Orvatnet" />
		<tag k="name:no" v="Orvatnet" />
		<tag k="name:sma" v="Ovrejaevrie" />
		<tag k="natural" v="water" />
		<tag k="ssr:date" v="2018-01-09" />
		<tag k="ssr:gruppe" v="stilleståendeVann" />
		<tag k="ssr:hovedgruppe" v="ferskvann" />
		<tag k="ssr:stedsnr" v="257299" />
		<tag k="ssr:type" v="vann" />
		<tag k="water" v="lake" />
	</node>
	<node lat="64.75069999625077" lon="13.355480565352014" id="-48475">
		<tag k="loc_name:no" v="Holmo" />
		<tag k="name" v="Holmmo" />
		<tag k="name:no" v="Holmmo" />
		<tag k="place" v="farm" />
		<tag k="ssr:date" v="2021-06-08" />
		<tag k="ssr:gruppe" v="gardsbebyggelse" />
		<tag k="ssr:hovedgruppe" v="bebyggelse" />
		<tag k="ssr:stedsnr" v="257383" />
		<tag k="ssr:type" v="bruk" />
	</node>
	<node lat="64.7064749993156" lon="13.178716659848144" id="-48476">
		<tag k="name" v="Brattmyrdalen" />
		<tag k="name:no" v="Brattmyrdalen" />
		<tag k="natural" v="valley" />
		<tag k="place" v="locality" />
		<tag k="ssr:date" v="2021-06-08" />
		<tag k="ssr:gruppe" v="senkninger" />
		<tag k="ssr:hovedgruppe" v="terreng" />
		<tag k="ssr:stedsnr" v="257388" />
		<tag k="ssr:type" v="dal" />
	</node>
	<node lat="64.79603055689371" lon="13.390777785502971" id="-48477">
		<tag k="name" v="Åsheim" />
		<tag k="name:no" v="Åsheim" />
		<tag k="place" v="farm" />
		<tag k="ssr:date" v="2021-06-08" />
		<tag k="ssr:gruppe" v="gardsbebyggelse" />
		<tag k="ssr:hovedgruppe" v="bebyggelse" />
		<tag k="ssr:stedsnr" v="257342" />
		<tag k="ssr:type" v="bruk" />
	</node>
	<node lat="64.67054722212318" lon="13.199152787030929" id="-48478">
		<tag k="name" v="Bustadtangen" />
		<tag k="name:no" v="Bustadtangen" />
		<tag k="natural" v="cape" />
		<tag k="ssr:date" v="2021-06-08" />
		<tag k="ssr:gruppe" v="ferskvannskontur" />
		<tag k="ssr:hovedgruppe" v="ferskvann" />
		<tag k="ssr:stedsnr" v="257419" />
		<tag k="ssr:type" v="nes" />
	</node>
	<node lat="64.77077222647503" lon="13.550399998991551" id="-48479">
		<tag k="name" v="Myrvoll" />
		<tag k="name:no" v="Myrvoll" />
		<tag k="place" v="farm" />
		<tag k="ssr:date" v="2021-06-08" />
		<tag k="ssr:gruppe" v="gardsbebyggelse" />
		<tag k="ssr:hovedgruppe" v="bebyggelse" />
		<tag k="ssr:stedsnr" v="257398" />
		<tag k="ssr:type" v="bruk" />
	</node>
	<node lat="64.85931111392112" lon="13.405772213031975" id="-48480">
		<tag k="name" v="Austre Gjersvika" />
		<tag k="name:no" v="Austre Gjersvika" />
		<tag k="place" v="farm" />
		<tag k="ssr:date" v="2021-06-08" />
		<tag k="ssr:gruppe" v="gardsbebyggelse" />
		<tag k="ssr:hovedgruppe" v="bebyggelse" />
		<tag k="ssr:stedsnr" v="257440" />
		<tag k="ssr:type" v="bruk" />
	</node>
	<node lat="64.63161388778768" lon="13.244619450872104" id="-48481">
		<tag k="name" v="Setertjønna" />
		<tag k="name:no" v="Setertjønna" />
		<tag k="natural" v="water" />
		<tag k="ssr:date" v="2021-06-08" />
		<tag k="ssr:gruppe" v="stilleståendeVann" />
		<tag k="ssr:hovedgruppe" v="ferskvann" />
		<tag k="ssr:stedsnr" v="257443" />
		<tag k="ssr:type" v="tjern" />
	</node>
	<node lat="64.85953889170733" lon="13.412402785733747" id="-48482">
		<tag k="name" v="Gjersvika" />
		<tag k="name:no" v="Gjersvika" />
		<tag k="place" v="hamlet" />
		<tag k="ssr:date" v="2021-06-08" />
		<tag k="ssr:gruppe" v="bebyggelsesområder" />
		<tag k="ssr:hovedgruppe" v="bebyggelse" />
		<tag k="ssr:stedsnr" v="257450" />
		<tag k="ssr:type" v="grend" />
	</node>
	<node lat="64.67704166840655" lon="13.316344444971634" id="-48483">
		<tag k="name" v="Bukta" />
		<tag k="name:no" v="Bukta" />
		<tag k="place" v="farm" />
		<tag k="ssr:date" v="2021-06-08" />
		<tag k="ssr:gruppe" v="gardsbebyggelse" />
		<tag k="ssr:hovedgruppe" v="bebyggelse" />
		<tag k="ssr:stedsnr" v="257501" />
		<tag k="ssr:type" v="bruk" />
	</node>
	<node lat="64.90043055775587" lon="13.64915554952873" id="-48484">
		<tag k="name" v="Lomtjønnin" />
		<tag k="name:no" v="Lomtjønnin" />
		<tag k="natural" v="water" />
		<tag k="ssr:date" v="2021-06-08" />
		<tag k="ssr:gruppe" v="stilleståendeVann" />
		<tag k="ssr:hovedgruppe" v="ferskvann" />
		<tag k="ssr:stedsnr" v="257538" />
		<tag k="ssr:type" v="tjern" />
	</node>
	<node lat="64.88278439627392" lon="13.379045226038832" id="-48485">
		<tag k="name" v="Tjiermejaevrieh - Tjermavatna" />
		<tag k="name:no" v="Tjermavatna" />
		<tag k="name:sma" v="Tjiermejaevrieh" />
		<tag k="natural" v="water" />
		<tag k="ssr:date" v="2021-06-08" />
		<tag k="ssr:gruppe" v="stilleståendeVann" />
		<tag k="ssr:hovedgruppe" v="ferskvann" />
		<tag k="ssr:stedsnr" v="257542" />
		<tag k="ssr:type" v="vann" />
		<tag k="water" v="lake" />
	</node>
	<node lat="64.88569167068555" lon="13.5114833442798" id="-48486">
		<tag k="name" v="Småtjønnin" />
		<tag k="name:no" v="Småtjønnin" />
		<tag k="natural" v="water" />
		<tag k="ssr:date" v="2021-06-08" />
		<tag k="ssr:gruppe" v="stilleståendeVann" />
		<tag k="ssr:hovedgruppe" v="ferskvann" />
		<tag k="ssr:stedsnr" v="257547" />
		<tag k="ssr:type" v="tjern" />
	</node>
	<node lat="64.88394444023139" lon="13.562561113288602" id="-48487">
		<tag k="name" v="Raarvihke - Røyrvik" />
		<tag k="name:no" v="Røyrvik" />
		<tag k="name:sma" v="Raarvihke" />
		<tag k="place" v="village" />
		<tag k="ssr:date" v="2021-06-08" />
		<tag k="ssr:gruppe" v="bebyggelsesområder" />
		<tag k="ssr:hovedgruppe" v="bebyggelse" />
		<tag k="ssr:stedsnr" v="257548" />
		<tag k="ssr:type" v="tettsted" />
	</node>
	<node lat="64.78582777664812" lon="13.377038891892393" id="-48488">
		<tag k="alt_name:no" v="Sandtangen" />
		<tag k="name" v="Bjørktangen" />
		<tag k="name:no" v="Bjørktangen" />
		<tag k="natural" v="cape" />
		<tag k="ssr:date" v="2021-06-08" />
		<tag k="ssr:gruppe" v="ferskvannskontur" />
		<tag k="ssr:hovedgruppe" v="ferskvann" />
		<tag k="ssr:stedsnr" v="257599" />
		<tag k="ssr:type" v="nes" />
	</node>
	<node lat="64.83519999639475" lon="13.658383330234457" id="-48489">
		<tag k="name" v="Storbekken" />
		<tag k="name:no" v="Storbekken" />
		<tag k="ssr:date" v="2021-06-08" />
		<tag k="ssr:gruppe" v="rennendeVann" />
		<tag k="ssr:hovedgruppe" v="ferskvann" />
		<tag k="ssr:stedsnr" v="257601" />
		<tag k="ssr:type" v="bekk" />
		<tag k="waterway" v="stream" />
	</node>
	<node lat="65.08080555684313" lon="13.634863881179689" id="-48490">
		<tag k="name" v="Ruffie" />
		<tag k="name:sma" v="Ruffie" />
		<tag k="natural" v="slope" />
		<tag k="place" v="locality" />
		<tag k="ssr:date" v="2021-06-08" />
		<tag k="ssr:gruppe" v="skråninger" />
		<tag k="ssr:hovedgruppe" v="terreng" />
		<tag k="ssr:stedsnr" v="257692" />
		<tag k="ssr:type" v="li" />
	</node>
	<node lat="65.02802777643372" lon="13.618494446639518" id="-48491">
		<tag k="name" v="Jonastjønna" />
		<tag k="name:no" v="Jonastjønna" />
		<tag k="natural" v="water" />
		<tag k="ssr:date" v="2021-06-08" />
		<tag k="ssr:gruppe" v="stilleståendeVann" />
		<tag k="ssr:hovedgruppe" v="ferskvann" />
		<tag k="ssr:stedsnr" v="257881" />
		<tag k="ssr:type" v="tjern" />
	</node>
	<node lat="65.03878611285568" lon="13.527641666702674" id="-48492">
		<tag k="fixme" v="consider natural=peak for the most distinct mountains in the district" />
		<tag k="name" v="Kaajjenaesie" />
		<tag k="name:sma" v="Kaajjenaesie" />
		<tag k="natural" v="hill" />
		<tag k="place" v="locality" />
		<tag k="ssr:date" v="2021-06-08" />
		<tag k="ssr:gruppe" v="høyder" />
		<tag k="ssr:hovedgruppe" v="terreng" />
		<tag k="ssr:stedsnr" v="257893" />
		<tag k="ssr:type" v="ås" />
	</node>
	<node lat="64.87674722169442" lon="13.727013880475974" id="-48493">
		<tag k="name" v="Elvekjeften" />
		<tag k="name:no" v="Elvekjeften" />
		<tag k="natural" v="bay" />
		<tag k="ssr:date" v="2018-01-09" />
		<tag k="ssr:gruppe" v="rennendeVann" />
		<tag k="ssr:hovedgruppe" v="ferskvann" />
		<tag k="ssr:stedsnr" v="166213" />
		<tag k="ssr:type" v="os" />
	</node>
	<node lat="64.88491388752429" lon="13.940413894083989" id="-48494">
		<tag k="name" v="Sandtangen" />
		<tag k="name:no" v="Sandtangen" />
		<tag k="natural" v="cape" />
		<tag k="ssr:date" v="2018-01-09" />
		<tag k="ssr:gruppe" v="ferskvannskontur" />
		<tag k="ssr:hovedgruppe" v="ferskvann" />
		<tag k="ssr:stedsnr" v="166302" />
		<tag k="ssr:type" v="nes" />
	</node>
	<node lat="64.97540277752005" lon="13.5709444371255" id="-48495">
		<tag k="name" v="Låvhaugmyrin" />
		<tag k="name:no" v="Låvhaugmyrin" />
		<tag k="natural" v="wetland" />
		<tag k="ssr:date" v="2018-01-09" />
		<tag k="ssr:gruppe" v="våtmark" />
		<tag k="ssr:hovedgruppe" v="markslag" />
		<tag k="ssr:stedsnr" v="167111" />
		<tag k="ssr:type" v="myr" />
	</node>
	<node lat="64.98071944265764" lon="13.575397227246567" id="-48496">
		<tag k="name" v="Storholmen" />
		<tag k="name:no" v="Storholmen" />
		<tag k="natural" v="bay" />
		<tag k="ssr:date" v="2018-01-09" />
		<tag k="ssr:gruppe" v="ferskvannskontur" />
		<tag k="ssr:hovedgruppe" v="ferskvann" />
		<tag k="ssr:stedsnr" v="167116" />
		<tag k="ssr:type" v="vik" />
	</node>
	<node lat="64.97587222097498" lon="13.595791658175623" id="-48497">
		<tag k="fixme" v="consider natural=peak for the most distinct mountains in the district" />
		<tag k="name" v="Båatskjas-loebpelen jallah" />
		<tag k="name:sma" v="Båatskjas-loebpelen jallah" />
		<tag k="natural" v="hill" />
		<tag k="place" v="locality" />
		<tag k="ssr:date" v="2018-01-09" />
		<tag k="ssr:gruppe" v="høyder" />
		<tag k="ssr:hovedgruppe" v="terreng" />
		<tag k="ssr:stedsnr" v="167117" />
		<tag k="ssr:type" v="ås" />
	</node>
	<node lat="64.9773388855236" lon="13.559680565345996" id="-48498">
		<tag k="name" v="Grubbmyrlia" />
		<tag k="name:no" v="Grubbmyrlia" />
		<tag k="natural" v="slope" />
		<tag k="place" v="locality" />
		<tag k="ssr:date" v="2018-01-09" />
		<tag k="ssr:gruppe" v="skråninger" />
		<tag k="ssr:hovedgruppe" v="terreng" />
		<tag k="ssr:stedsnr" v="167118" />
		<tag k="ssr:type" v="li" />
	</node>
	<node lat="64.8764166704483" lon="13.606966664148166" id="-48499">
		<tag k="name" v="Seterbekkplutten" />
		<tag k="name:no" v="Seterbekkplutten" />
		<tag k="natural" v="water" />
		<tag k="ssr:date" v="2018-01-09" />
		<tag k="ssr:gruppe" v="stilleståendeVann" />
		<tag k="ssr:hovedgruppe" v="ferskvann" />
		<tag k="ssr:stedsnr" v="167212" />
		<tag k="ssr:type" v="tjern" />
	</node>
	<node lat="64.88492499921823" lon="13.62566110945519" id="-48500">
		<tag k="name" v="Halvvegesmyra" />
		<tag k="name:no" v="Halvvegesmyra" />
		<tag k="natural" v="wetland" />
		<tag k="ssr:date" v="2018-01-09" />
		<tag k="ssr:gruppe" v="våtmark" />
		<tag k="ssr:hovedgruppe" v="markslag" />
		<tag k="ssr:stedsnr" v="167214" />
		<tag k="ssr:type" v="myr" />
	</node>
	<node lat="64.890522225517" lon="13.628850003082562" id="-48501">
		<tag k="name" v="Fossmyra" />
		<tag k="name:no" v="Fossmyra" />
		<tag k="natural" v="wetland" />
		<tag k="ssr:date" v="2018-01-09" />
		<tag k="ssr:gruppe" v="våtmark" />
		<tag k="ssr:hovedgruppe" v="markslag" />
		<tag k="ssr:stedsnr" v="167221" />
		<tag k="ssr:type" v="myr" />
	</node>
	<node lat="64.88766667055869" lon="13.684513896228667" id="-48502">
		<tag k="name" v="Sandbakken" />
		<tag k="name:no" v="Sandbakken" />
		<tag k="place" v="locality" />
		<tag k="ssr:date" v="2018-01-09" />
		<tag k="ssr:gruppe" v="gardsbebyggelse" />
		<tag k="ssr:hovedgruppe" v="bebyggelse" />
		<tag k="ssr:stedsnr" v="167222" />
		<tag k="ssr:type" v="eiendom" />
	</node>
	<node lat="64.83966389038486" lon="13.591291666380899" id="-48503">
		<tag k="name" v="Høgda" />
		<tag k="name:no" v="Høgda" />
		<tag k="natural" v="hill" />
		<tag k="place" v="locality" />
		<tag k="ssr:date" v="2018-01-09" />
		<tag k="ssr:gruppe" v="høyder" />
		<tag k="ssr:hovedgruppe" v="terreng" />
		<tag k="ssr:stedsnr" v="168865" />
		<tag k="ssr:type" v="haug" />
	</node>
	<node lat="64.83910277496595" lon="13.599963883273562" id="-48504">
		<tag k="name" v="Litlklompen" />
		<tag k="name:no" v="Litlklompen" />
		<tag k="natural" v="hill" />
		<tag k="place" v="locality" />
		<tag k="ssr:date" v="2018-01-09" />
		<tag k="ssr:gruppe" v="høyder" />
		<tag k="ssr:hovedgruppe" v="terreng" />
		<tag k="ssr:stedsnr" v="168866" />
		<tag k="ssr:type" v="haug" />
	</node>
	<node lat="64.84608055826652" lon="13.748083336496226" id="-48505">
		<tag k="name" v="Tjuahpa-joke" />
		<tag k="name:sma" v="Tjuahpa-joke" />
		<tag k="ssr:date" v="2018-01-09" />
		<tag k="ssr:gruppe" v="rennendeVann" />
		<tag k="ssr:hovedgruppe" v="ferskvann" />
		<tag k="ssr:stedsnr" v="169590" />
		<tag k="ssr:type" v="bekk" />
		<tag k="waterway" v="stream" />
	</node>
	<node lat="65.01081110976212" lon="13.527041657754152" id="-48506">
		<tag k="name" v="Smådamman" />
		<tag k="name:no" v="Smådamman" />
		<tag k="ssr:date" v="2018-01-09" />
		<tag k="ssr:gruppe" v="stilleståendeVann" />
		<tag k="ssr:hovedgruppe" v="ferskvann" />
		<tag k="ssr:stedsnr" v="169969" />
		<tag k="ssr:type" v="dam" />
		<tag k="waterway" v="dam" />
	</node>
	<node lat="64.92437222279202" lon="13.763480564001066" id="-48507">
		<tag k="name" v="Sjielejaevrie" />
		<tag k="name:sma" v="Sjielejaevrie" />
		<tag k="natural" v="water" />
		<tag k="ssr:date" v="2021-06-08" />
		<tag k="ssr:gruppe" v="stilleståendeVann" />
		<tag k="ssr:hovedgruppe" v="ferskvann" />
		<tag k="ssr:stedsnr" v="263953" />
		<tag k="ssr:type" v="vann" />
		<tag k="water" v="lake" />
	</node>
	<node lat="64.98886388953697" lon="13.566922225289913" id="-48508">
		<tag k="name" v="Rundvika" />
		<tag k="name:no" v="Rundvika" />
		<tag k="natural" v="bay" />
		<tag k="ssr:date" v="2021-06-08" />
		<tag k="ssr:gruppe" v="ferskvannskontur" />
		<tag k="ssr:hovedgruppe" v="ferskvann" />
		<tag k="ssr:stedsnr" v="196055" />
		<tag k="ssr:type" v="vik" />
	</node>
	<node lat="65.11002777597567" lon="13.085422216082504" id="-48509">
		<tag k="fixme" v="consider natural=peak for the most distinct mountains in the district" />
		<tag k="name" v="Kløftfjellet - Sloeptjenguevtele" />
		<tag k="name:no" v="Kløftfjellet" />
		<tag k="name:sma" v="Sloeptjenguevtele" />
		<tag k="natural" v="hill" />
		<tag k="place" v="locality" />
		<tag k="ssr:date" v="2021-10-07" />
		<tag k="ssr:gruppe" v="høyder" />
		<tag k="ssr:hovedgruppe" v="terreng" />
		<tag k="ssr:stedsnr" v="196523" />
		<tag k="ssr:type" v="fjell" />
	</node>
	<node lat="65.01718611318594" lon="13.81119999448951" id="-48510">
		<tag k="name" v="Litlvasstangen" />
		<tag k="name:no" v="Litlvasstangen" />
		<tag k="natural" v="cape" />
		<tag k="ssr:date" v="2021-06-08" />
		<tag k="ssr:gruppe" v="ferskvannskontur" />
		<tag k="ssr:hovedgruppe" v="ferskvann" />
		<tag k="ssr:stedsnr" v="196802" />
		<tag k="ssr:type" v="nes" />
	</node>
	<node lat="65.07877777751008" lon="13.815125008650268" id="-48511">
		<tag k="name" v="Viermevuemie - Virmadalen" />
		<tag k="name:no" v="Virmadalen" />
		<tag k="name:sma" v="Viermevuemie" />
		<tag k="natural" v="valley" />
		<tag k="place" v="locality" />
		<tag k="ssr:date" v="2021-06-08" />
		<tag k="ssr:gruppe" v="senkninger" />
		<tag k="ssr:hovedgruppe" v="terreng" />
		<tag k="ssr:stedsnr" v="196806" />
		<tag k="ssr:type" v="dal" />
	</node>
	<node lat="64.87317499566315" lon="13.98730000692964" id="-48512">
		<tag k="name" v="Luvlie-Vuallerejaevrie - Auster-Vallervatnet" />
		<tag k="name:no" v="Auster-Vallervatnet" />
		<tag k="name:sma" v="Luvlie-Vuallerejaevrie" />
		<tag k="natural" v="water" />
		<tag k="ssr:date" v="2021-06-08" />
		<tag k="ssr:gruppe" v="stilleståendeVann" />
		<tag k="ssr:hovedgruppe" v="ferskvann" />
		<tag k="ssr:stedsnr" v="197307" />
		<tag k="ssr:type" v="tjern" />
	</node>
	<node lat="64.65931944700436" lon="13.161825004243507" id="-48513">
		<tag k="name" v="Leirbekken" />
		<tag k="name:no" v="Leirbekken" />
		<tag k="ssr:date" v="2021-06-08" />
		<tag k="ssr:gruppe" v="rennendeVann" />
		<tag k="ssr:hovedgruppe" v="ferskvann" />
		<tag k="ssr:stedsnr" v="197358" />
		<tag k="ssr:type" v="bekk" />
		<tag k="waterway" v="stream" />
	</node>
	<node lat="64.62705833090357" lon="13.174624999529057" id="-48514">
		<tag k="fixme" v="consider natural=peak for the most distinct mountains in the district" />
		<tag k="name" v="Høa" />
		<tag k="name:no" v="Høa" />
		<tag k="natural" v="hill" />
		<tag k="place" v="locality" />
		<tag k="ssr:date" v="2021-06-08" />
		<tag k="ssr:gruppe" v="høyder" />
		<tag k="ssr:hovedgruppe" v="terreng" />
		<tag k="ssr:stedsnr" v="197368" />
		<tag k="ssr:type" v="fjell" />
	</node>
	<node lat="64.79088888594485" lon="13.434191663375849" id="-48515">
		<tag k="name" v="Blauthalsen" />
		<tag k="name:no" v="Blauthalsen" />
		<tag k="natural" v="wetland" />
		<tag k="ssr:date" v="2021-06-08" />
		<tag k="ssr:gruppe" v="våtmark" />
		<tag k="ssr:hovedgruppe" v="markslag" />
		<tag k="ssr:stedsnr" v="197369" />
		<tag k="ssr:type" v="myr" />
	</node>
	<node lat="64.77762499613252" lon="13.4716888790024" id="-48516">
		<tag k="name" v="Stormyrplutten" />
		<tag k="name:no" v="Stormyrplutten" />
		<tag k="natural" v="water" />
		<tag k="ssr:date" v="2021-06-08" />
		<tag k="ssr:gruppe" v="stilleståendeVann" />
		<tag k="ssr:hovedgruppe" v="ferskvann" />
		<tag k="ssr:stedsnr" v="197374" />
		<tag k="ssr:type" v="tjern" />
	</node>
	<node lat="64.69803333171008" lon="13.224886101785726" id="-48517">
		<tag k="name" v="Storholmen" />
		<tag k="name:no" v="Storholmen" />
		<tag k="place" v="islet" />
		<tag k="ssr:date" v="2021-06-08" />
		<tag k="ssr:gruppe" v="ferskvannskontur" />
		<tag k="ssr:hovedgruppe" v="ferskvann" />
		<tag k="ssr:stedsnr" v="197511" />
		<tag k="ssr:type" v="holme" />
	</node>
	<node lat="64.90777777421691" lon="13.476575008091295" id="-48518">
		<tag k="name" v="Tomastjønna" />
		<tag k="name:no" v="Tomastjønna" />
		<tag k="natural" v="water" />
		<tag k="ssr:date" v="2021-06-08" />
		<tag k="ssr:gruppe" v="stilleståendeVann" />
		<tag k="ssr:hovedgruppe" v="ferskvann" />
		<tag k="ssr:stedsnr" v="197512" />
		<tag k="ssr:type" v="tjern" />
	</node>
	<node lat="64.81762499952357" lon="13.369122221256552" id="-48519">
		<tag k="name" v="Gamsetervollen" />
		<tag k="name:no" v="Gamsetervollen" />
		<tag k="place" v="locality" />
		<tag k="ssr:date" v="2021-06-08" />
		<tag k="ssr:gruppe" v="gardsbebyggelse" />
		<tag k="ssr:hovedgruppe" v="bebyggelse" />
		<tag k="ssr:stedsnr" v="197458" />
		<tag k="ssr:type" v="eiendom" />
	</node>
	<node lat="64.82282500319742" lon="13.705347222750655" id="-48520">
		<tag k="name" v="Guertiesjaevrienjohke" />
		<tag k="name:sma" v="Guertiesjaevrienjohke" />
		<tag k="ssr:date" v="2021-06-08" />
		<tag k="ssr:gruppe" v="rennendeVann" />
		<tag k="ssr:hovedgruppe" v="ferskvann" />
		<tag k="ssr:stedsnr" v="197469" />
		<tag k="ssr:type" v="bekk" />
		<tag k="waterway" v="stream" />
	</node>
	<node lat="64.81059999605694" lon="13.610152785585514" id="-48521">
		<tag k="name" v="Storplutten" />
		<tag k="name:no" v="Storplutten" />
		<tag k="natural" v="water" />
		<tag k="ssr:date" v="2021-06-08" />
		<tag k="ssr:gruppe" v="stilleståendeVann" />
		<tag k="ssr:hovedgruppe" v="ferskvann" />
		<tag k="ssr:stedsnr" v="197476" />
		<tag k="ssr:type" v="tjern" />
	</node>
	<node lat="65.02007777336561" lon="13.578286120882678" id="-48522">
		<tag k="name" v="Guhkiesjaavretje - Langtjønna" />
		<tag k="name:no" v="Langtjønna" />
		<tag k="name:sma" v="Guhkiesjaavretje" />
		<tag k="natural" v="water" />
		<tag k="ssr:date" v="2021-06-08" />
		<tag k="ssr:gruppe" v="stilleståendeVann" />
		<tag k="ssr:hovedgruppe" v="ferskvann" />
		<tag k="ssr:stedsnr" v="197863" />
		<tag k="ssr:type" v="vann" />
		<tag k="water" v="lake" />
	</node>
	<node lat="65.04353055797118" lon="13.520677774156859" id="-48523">
		<tag k="name" v="Langtjønna" />
		<tag k="name:no" v="Langtjønna" />
		<tag k="natural" v="water" />
		<tag k="ssr:date" v="2021-06-08" />
		<tag k="ssr:gruppe" v="stilleståendeVann" />
		<tag k="ssr:hovedgruppe" v="ferskvann" />
		<tag k="ssr:stedsnr" v="197871" />
		<tag k="ssr:type" v="tjern" />
	</node>
	<node lat="64.59323333424969" lon="13.339133327927396" id="-48524">
		<tag k="fixme" v="consider natural=peak for the most distinct mountains in the district" />
		<tag k="name" v="Havdalsfjellet - Vaellie" />
		<tag k="name:no" v="Havdalsfjellet" />
		<tag k="name:sma" v="Vaellie" />
		<tag k="natural" v="hill" />
		<tag k="place" v="locality" />
		<tag k="ssr:date" v="2021-06-08" />
		<tag k="ssr:gruppe" v="høyder" />
		<tag k="ssr:hovedgruppe" v="terreng" />
		<tag k="ssr:stedsnr" v="202395" />
		<tag k="ssr:type" v="fjell" />
	</node>
	<node lat="64.84675555452453" lon="13.3813777672409" id="-48525">
		<tag k="name" v="Moan" />
		<tag k="name:no" v="Moan" />
		<tag k="place" v="locality" />
		<tag k="ssr:date" v="2018-01-09" />
		<tag k="ssr:gruppe" v="flater" />
		<tag k="ssr:hovedgruppe" v="terreng" />
		<tag k="ssr:stedsnr" v="227204" />
		<tag k="ssr:type" v="slette" />
	</node>
	<node lat="64.87869444498192" lon="13.70820554737511" id="-48526">
		<tag k="name" v="Blautmyra" />
		<tag k="name:no" v="Blautmyra" />
		<tag k="natural" v="wetland" />
		<tag k="ssr:date" v="2018-01-09" />
		<tag k="ssr:gruppe" v="våtmark" />
		<tag k="ssr:hovedgruppe" v="markslag" />
		<tag k="ssr:stedsnr" v="228206" />
		<tag k="ssr:type" v="myr" />
	</node>
	<node lat="64.88797222422683" lon="13.632272220372078" id="-48527">
		<tag k="name" v="Kalkdalen" />
		<tag k="name:no" v="Kalkdalen" />
		<tag k="natural" v="valley" />
		<tag k="place" v="locality" />
		<tag k="ssr:date" v="2018-01-09" />
		<tag k="ssr:gruppe" v="senkninger" />
		<tag k="ssr:hovedgruppe" v="terreng" />
		<tag k="ssr:stedsnr" v="228212" />
		<tag k="ssr:type" v="dal" />
	</node>
	<node lat="64.88994722129941" lon="13.632177784504838" id="-48528">
		<tag k="name" v="Fossbakk" />
		<tag k="name:no" v="Fossbakk" />
		<tag k="place" v="locality" />
		<tag k="ssr:date" v="2018-01-09" />
		<tag k="ssr:gruppe" v="gardsbebyggelse" />
		<tag k="ssr:hovedgruppe" v="bebyggelse" />
		<tag k="ssr:stedsnr" v="228213" />
		<tag k="ssr:type" v="eiendom" />
	</node>
	<node lat="64.8866944480232" lon="13.680211112852062" id="-48529">
		<tag k="landuse" v="meadow" />
		<tag k="name" v="Teltstakkslettet" />
		<tag k="name:no" v="Teltstakkslettet" />
		<tag k="ssr:date" v="2018-01-09" />
		<tag k="ssr:gruppe" v="dyrkamark" />
		<tag k="ssr:hovedgruppe" v="markslag" />
		<tag k="ssr:stedsnr" v="228214" />
		<tag k="ssr:type" v="eng" />
	</node>
	<node lat="64.87335833444432" lon="13.851491666101241" id="-48530">
		<tag k="name" v="Stranda" />
		<tag k="name:no" v="Stranda" />
		<tag k="natural" v="beach" />
		<tag k="ssr:date" v="2018-01-09" />
		<tag k="ssr:gruppe" v="ferskvannskontur" />
		<tag k="ssr:hovedgruppe" v="ferskvann" />
		<tag k="ssr:stedsnr" v="228240" />
		<tag k="ssr:type" v="strand" />
	</node>
	<node lat="64.79950000398162" lon="13.631074995563202" id="-48531">
		<tag k="name" v="Nergård" />
		<tag k="name:no" v="Nergård" />
		<tag k="place" v="farm" />
		<tag k="ssr:date" v="2018-01-09" />
		<tag k="ssr:gruppe" v="gardsbebyggelse" />
		<tag k="ssr:hovedgruppe" v="bebyggelse" />
		<tag k="ssr:stedsnr" v="229595" />
		<tag k="ssr:type" v="bruk" />
	</node>
	<node lat="64.86224999694379" lon="13.575447222286494" id="-48532">
		<tag k="bridge" v="yes" />
		<tag k="layer" v="1" />
		<tag k="name" v="Sagvikmarkbrua" />
		<tag k="name:no" v="Sagvikmarkbrua" />
		<tag k="ssr:date" v="2021-06-08" />
		<tag k="ssr:gruppe" v="samferdselsanlegg" />
		<tag k="ssr:hovedgruppe" v="infrastruktur" />
		<tag k="ssr:stedsnr" v="229933" />
		<tag k="ssr:type" v="bru" />
	</node>
	<node lat="64.7306666628816" lon="13.209008328408137" id="-48533">
		<tag k="name" v="Domma" />
		<tag k="name:no" v="Domma" />
		<tag k="natural" v="slope" />
		<tag k="place" v="locality" />
		<tag k="ssr:date" v="2018-01-09" />
		<tag k="ssr:gruppe" v="skråninger" />
		<tag k="ssr:hovedgruppe" v="terreng" />
		<tag k="ssr:stedsnr" v="230120" />
		<tag k="ssr:type" v="li" />
	</node>
	<node lat="64.92377831477194" lon="14.058098279002113" id="-48534">
		<tag k="historic" v="boundary_stone" />
		<tag k="man_made" v="cairn" />
		<tag k="name" v="Gåetievartoerøysa" />
		<tag k="name:no" v="Gåetievartoerøysa" />
		<tag k="place" v="locality" />
		<tag k="ssr:date" v="2021-06-08" />
		<tag k="ssr:gruppe" v="administrativeIndelinger" />
		<tag k="ssr:hovedgruppe" v="offentligAdministrasjon" />
		<tag k="ssr:stedsnr" v="231934" />
		<tag k="ssr:type" v="grensemerke" />
	</node>
	<node lat="64.95424444343735" lon="13.516791665464696" id="-48535">
		<tag k="name" v="Litl-Langtjønna" />
		<tag k="name:no" v="Litl-Langtjønna" />
		<tag k="natural" v="water" />
		<tag k="ssr:date" v="2018-01-09" />
		<tag k="ssr:gruppe" v="stilleståendeVann" />
		<tag k="ssr:hovedgruppe" v="ferskvann" />
		<tag k="ssr:stedsnr" v="471929" />
		<tag k="ssr:type" v="tjern" />
	</node>
	<node lat="64.67330833368109" lon="13.2803416593897" id="-48536">
		<tag k="name" v="Lauvtangen" />
		<tag k="name:no" v="Lauvtangen" />
		<tag k="natural" v="cape" />
		<tag k="ssr:date" v="2018-01-09" />
		<tag k="ssr:gruppe" v="ferskvannskontur" />
		<tag k="ssr:hovedgruppe" v="ferskvann" />
		<tag k="ssr:stedsnr" v="257203" />
		<tag k="ssr:type" v="nes" />
	</node>
	<node lat="64.97076110977626" lon="13.786069451172587" id="-48537">
		<tag k="name" v="Tjuenjerenjaevrie - Sultifiskflyen" />
		<tag k="name:no" v="Sultifiskflyen" />
		<tag k="name:sma" v="Tjuenjerenjaevrie" />
		<tag k="natural" v="water" />
		<tag k="ssr:date" v="2021-06-08" />
		<tag k="ssr:gruppe" v="stilleståendeVann" />
		<tag k="ssr:hovedgruppe" v="ferskvann" />
		<tag k="ssr:stedsnr" v="257403" />
		<tag k="ssr:type" v="tjern" />
	</node>
	<node lat="64.96608888520228" lon="14.110944438244246" id="-48538">
		<tag k="name" v="Grensebekken" />
		<tag k="name:no" v="Grensebekken" />
		<tag k="ssr:date" v="2021-06-08" />
		<tag k="ssr:gruppe" v="rennendeVann" />
		<tag k="ssr:hovedgruppe" v="ferskvann" />
		<tag k="ssr:stedsnr" v="257410" />
		<tag k="ssr:type" v="bekk" />
		<tag k="waterway" v="stream" />
	</node>
	<node lat="64.87071944070077" lon="13.779691675045665" id="-48539">
		<tag k="name" v="Sørsundet" />
		<tag k="name:no" v="Sørsundet" />
		<tag k="natural" v="strait" />
		<tag k="ssr:date" v="2021-06-08" />
		<tag k="ssr:gruppe" v="ferskvannskontur" />
		<tag k="ssr:hovedgruppe" v="ferskvann" />
		<tag k="ssr:stedsnr" v="257305" />
		<tag k="ssr:type" v="sund" />
	</node>
	<node lat="64.75441666441617" lon="13.222524997343434" id="-48540">
		<tag k="name" v="Styggdalsbekken" />
		<tag k="name:no" v="Styggdalsbekken" />
		<tag k="ssr:date" v="2021-06-08" />
		<tag k="ssr:gruppe" v="rennendeVann" />
		<tag k="ssr:hovedgruppe" v="ferskvann" />
		<tag k="ssr:stedsnr" v="257363" />
		<tag k="ssr:type" v="bekk" />
		<tag k="waterway" v="stream" />
	</node>
	<node lat="64.60139999865714" lon="13.199361113690442" id="-48541">
		<tag k="name" v="Luvlie-Balhkohke - Svartberget" />
		<tag k="name:no" v="Svartberget" />
		<tag k="name:sma" v="Luvlie-Balhkohke" />
		<tag k="natural" v="hill" />
		<tag k="place" v="locality" />
		<tag k="ssr:date" v="2021-06-08" />
		<tag k="ssr:gruppe" v="høyder" />
		<tag k="ssr:hovedgruppe" v="terreng" />
		<tag k="ssr:stedsnr" v="257365" />
		<tag k="ssr:type" v="berg" />
	</node>
	<node lat="64.77171111517073" lon="13.34902778663281" id="-48542">
		<tag k="fixme" v="consider natural=peak for the most distinct mountains in the district" />
		<tag k="name" v="Toklumpen" />
		<tag k="name:no" v="Toklumpen" />
		<tag k="natural" v="hill" />
		<tag k="place" v="locality" />
		<tag k="ssr:date" v="2021-06-08" />
		<tag k="ssr:gruppe" v="høyder" />
		<tag k="ssr:hovedgruppe" v="terreng" />
		<tag k="ssr:stedsnr" v="257371" />
		<tag k="ssr:type" v="ås" />
	</node>
	<node lat="64.58989999595349" lon="13.124675003039302" id="-48543">
		<tag k="name" v="Grastjønna" />
		<tag k="name:no" v="Grastjønna" />
		<tag k="natural" v="water" />
		<tag k="ssr:date" v="2021-06-08" />
		<tag k="ssr:gruppe" v="stilleståendeVann" />
		<tag k="ssr:hovedgruppe" v="ferskvann" />
		<tag k="ssr:stedsnr" v="257375" />
		<tag k="ssr:type" v="tjern" />
	</node>
	<node lat="64.92642499564775" lon="13.596047231681796" id="-48544">
		<tag k="name" v="Loddotjønna" />
		<tag k="name:no" v="Loddotjønna" />
		<tag k="natural" v="water" />
		<tag k="ssr:date" v="2021-06-08" />
		<tag k="ssr:gruppe" v="stilleståendeVann" />
		<tag k="ssr:hovedgruppe" v="ferskvann" />
		<tag k="ssr:stedsnr" v="257512" />
		<tag k="ssr:type" v="tjern" />
	</node>
	<node lat="64.9179583333858" lon="13.490158328829045" id="-48545">
		<tag k="name" v="Saaksenjohke - Saksvasselva" />
		<tag k="name:no" v="Saksvasselva" />
		<tag k="name:sma" v="Saaksenjohke" />
		<tag k="ssr:date" v="2021-06-08" />
		<tag k="ssr:gruppe" v="rennendeVann" />
		<tag k="ssr:hovedgruppe" v="ferskvann" />
		<tag k="ssr:stedsnr" v="257514" />
		<tag k="ssr:type" v="bekk" />
		<tag k="waterway" v="stream" />
	</node>
	<node lat="64.90636388949113" lon="13.50052500918809" id="-48546">
		<tag k="name" v="Tomasseteren" />
		<tag k="name:no" v="Tomasseteren" />
		<tag k="place" v="isolated_dwelling" />
		<tag k="ssr:date" v="2021-06-08" />
		<tag k="ssr:gruppe" v="bolighus" />
		<tag k="ssr:hovedgruppe" v="bebyggelse" />
		<tag k="ssr:stedsnr" v="257523" />
		<tag k="ssr:type" v="fritidsbolig" />
	</node>
	<node lat="64.84775000400546" lon="13.609975002487003" id="-48547">
		<tag k="name" v="Gourre - Djupdalen" />
		<tag k="name:no" v="Djupdalen" />
		<tag k="name:sma" v="Gourre" />
		<tag k="natural" v="valley" />
		<tag k="place" v="locality" />
		<tag k="ssr:date" v="2021-06-08" />
		<tag k="ssr:gruppe" v="senkninger" />
		<tag k="ssr:hovedgruppe" v="terreng" />
		<tag k="ssr:stedsnr" v="257458" />
		<tag k="ssr:type" v="dal" />
	</node>
	<node lat="64.85704166490632" lon="13.632641675976998" id="-48548">
		<tag k="fixme" v="consider natural=peak for the most distinct mountains in the district" />
		<tag k="name" v="Faavrehtjahke - Seterklumpen" />
		<tag k="name:no" v="Seterklumpen" />
		<tag k="name:sma" v="Faavrehtjahke" />
		<tag k="natural" v="hill" />
		<tag k="place" v="locality" />
		<tag k="ssr:date" v="2021-06-08" />
		<tag k="ssr:gruppe" v="høyder" />
		<tag k="ssr:hovedgruppe" v="terreng" />
		<tag k="ssr:stedsnr" v="257460" />
		<tag k="ssr:type" v="fjell" />
	</node>
	<node lat="64.81135833154558" lon="13.373066667170576" id="-48549">
		<tag k="name" v="Flatmyra" />
		<tag k="name:no" v="Flatmyra" />
		<tag k="natural" v="wetland" />
		<tag k="ssr:date" v="2021-06-08" />
		<tag k="ssr:gruppe" v="våtmark" />
		<tag k="ssr:hovedgruppe" v="markslag" />
		<tag k="ssr:stedsnr" v="257474" />
		<tag k="ssr:type" v="myr" />
	</node>
	<node lat="65.05253888834739" lon="13.687730564854832" id="-48550">
		<tag k="name" v="Finnbursdalen" />
		<tag k="name:no" v="Finnbursdalen" />
		<tag k="natural" v="valley" />
		<tag k="place" v="locality" />
		<tag k="ssr:date" v="2021-06-08" />
		<tag k="ssr:gruppe" v="senkninger" />
		<tag k="ssr:hovedgruppe" v="terreng" />
		<tag k="ssr:stedsnr" v="257909" />
		<tag k="ssr:type" v="dal" />
	</node>
	<node lat="65.0923999979886" lon="13.907552772404774" id="-48551">
		<tag k="name" v="Saapmanlåemie - Sapmandalen" />
		<tag k="name:no" v="Sapmandalen" />
		<tag k="name:sma" v="Saapmanlåemie" />
		<tag k="natural" v="valley" />
		<tag k="place" v="locality" />
		<tag k="ssr:date" v="2021-06-08" />
		<tag k="ssr:gruppe" v="senkninger" />
		<tag k="ssr:hovedgruppe" v="terreng" />
		<tag k="ssr:stedsnr" v="263803" />
		<tag k="ssr:type" v="dal" />
	</node>
	<node lat="65.09508889207359" lon="14.033780562255345" id="-48552">
		<tag k="name" v="Nåebrienjaevrie" />
		<tag k="name:sma" v="Nåebrienjaevrie" />
		<tag k="natural" v="water" />
		<tag k="ssr:date" v="2021-06-08" />
		<tag k="ssr:gruppe" v="stilleståendeVann" />
		<tag k="ssr:hovedgruppe" v="ferskvann" />
		<tag k="ssr:stedsnr" v="264887" />
		<tag k="ssr:type" v="vann" />
		<tag k="water" v="lake" />
	</node>
	<node lat="64.95173888581148" lon="14.089994433345797" id="-48553">
		<tag k="fixme" v="consider natural=peak for the most distinct mountains in the district" />
		<tag k="name" v="Vaellie" />
		<tag k="name:sma" v="Vaellie" />
		<tag k="natural" v="hill" />
		<tag k="place" v="locality" />
		<tag k="ssr:date" v="2018-01-09" />
		<tag k="ssr:gruppe" v="høyder" />
		<tag k="ssr:hovedgruppe" v="terreng" />
		<tag k="ssr:stedsnr" v="282775" />
		<tag k="ssr:type" v="fjell" />
	</node>
	<node lat="65.01895833003915" lon="13.564466673096769" id="-48554">
		<tag k="name" v="Bergtjønna" />
		<tag k="name:no" v="Bergtjønna" />
		<tag k="natural" v="water" />
		<tag k="ssr:date" v="2018-01-09" />
		<tag k="ssr:gruppe" v="stilleståendeVann" />
		<tag k="ssr:hovedgruppe" v="ferskvann" />
		<tag k="ssr:stedsnr" v="283805" />
		<tag k="ssr:type" v="tjern" />
	</node>
	<node lat="65.06202032158382" lon="14.245706828239397" id="-48555">
		<tag k="historic" v="boundary_stone" />
		<tag k="man_made" v="cairn" />
		<tag k="name" v="Sipmektindrøysa" />
		<tag k="name:no" v="Sipmektindrøysa" />
		<tag k="place" v="locality" />
		<tag k="ssr:date" v="2021-06-08" />
		<tag k="ssr:gruppe" v="administrativeIndelinger" />
		<tag k="ssr:hovedgruppe" v="offentligAdministrasjon" />
		<tag k="ssr:stedsnr" v="284677" />
		<tag k="ssr:type" v="grensemerke" />
	</node>
	<node lat="64.73774444468604" lon="13.234194436467243" id="-48556">
		<tag k="name" v="Tjønnbekken" />
		<tag k="name:no" v="Tjønnbekken" />
		<tag k="ssr:date" v="2018-01-09" />
		<tag k="ssr:gruppe" v="rennendeVann" />
		<tag k="ssr:hovedgruppe" v="ferskvann" />
		<tag k="ssr:stedsnr" v="287135" />
		<tag k="ssr:type" v="bekk" />
		<tag k="waterway" v="stream" />
	</node>
	<node lat="64.644950000641" lon="13.197394453651922" id="-48557">
		<tag k="name" v="Grubba" />
		<tag k="name:no" v="Grubba" />
		<tag k="natural" v="wetland" />
		<tag k="ssr:date" v="2018-01-09" />
		<tag k="ssr:gruppe" v="våtmark" />
		<tag k="ssr:hovedgruppe" v="markslag" />
		<tag k="ssr:stedsnr" v="287189" />
		<tag k="ssr:type" v="myr" />
	</node>
	<node lat="64.8815583331686" lon="13.702347230625188" id="-48558">
		<tag k="name" v="Austertjønna" />
		<tag k="name:no" v="Austertjønna" />
		<tag k="natural" v="water" />
		<tag k="ssr:date" v="2018-01-09" />
		<tag k="ssr:gruppe" v="stilleståendeVann" />
		<tag k="ssr:hovedgruppe" v="ferskvann" />
		<tag k="ssr:stedsnr" v="288210" />
		<tag k="ssr:type" v="tjern" />
	</node>
	<node lat="64.85010277363602" lon="13.395963885423171" id="-48559">
		<tag k="name" v="Myrtangen" />
		<tag k="name:no" v="Myrtangen" />
		<tag k="natural" v="cape" />
		<tag k="ssr:date" v="2018-01-09" />
		<tag k="ssr:gruppe" v="ferskvannskontur" />
		<tag k="ssr:hovedgruppe" v="ferskvann" />
		<tag k="ssr:stedsnr" v="288177" />
		<tag k="ssr:type" v="nes" />
	</node>
	<node lat="64.85309444388487" lon="13.406736114272665" id="-48560">
		<tag k="historic" v="shieling" />
		<tag k="name" v="Danmark Austgårdseter" />
		<tag k="name:no" v="Danmark Austgårdseter" />
		<tag k="place" v="locality" />
		<tag k="ssr:date" v="2018-01-09" />
		<tag k="ssr:gruppe" v="dyrkamark" />
		<tag k="ssr:hovedgruppe" v="markslag" />
		<tag k="ssr:stedsnr" v="288178" />
		<tag k="ssr:type" v="setervoll" />
	</node>
	<node lat="64.89177777477529" lon="13.72279721624524" id="-48561">
		<tag k="name" v="Fjellrevberget" />
		<tag k="name:no" v="Fjellrevberget" />
		<tag k="place" v="locality" />
		<tag k="ssr:date" v="2018-01-09" />
		<tag k="ssr:gruppe" v="høyder" />
		<tag k="ssr:hovedgruppe" v="terreng" />
		<tag k="ssr:stedsnr" v="288189" />
		<tag k="ssr:type" v="fjellkant" />
	</node>
	<node lat="64.94926389051678" lon="13.56042777304145" id="-48562">
		<tag k="name" v="Rirhke" />
		<tag k="name:sma" v="Rirhke" />
		<tag k="natural" v="slope" />
		<tag k="place" v="locality" />
		<tag k="ssr:date" v="2018-01-09" />
		<tag k="ssr:gruppe" v="skråninger" />
		<tag k="ssr:hovedgruppe" v="terreng" />
		<tag k="ssr:stedsnr" v="289086" />
		<tag k="ssr:type" v="li" />
	</node>
	<node lat="64.96390277600193" lon="13.59035555140101" id="-48563">
		<tag k="name" v="Luvlie-jaevrie" />
		<tag k="name:sma" v="Luvlie-jaevrie" />
		<tag k="natural" v="water" />
		<tag k="ssr:date" v="2018-01-09" />
		<tag k="ssr:gruppe" v="stilleståendeVann" />
		<tag k="ssr:hovedgruppe" v="ferskvann" />
		<tag k="ssr:stedsnr" v="289087" />
		<tag k="ssr:type" v="vann" />
		<tag k="water" v="lake" />
	</node>
	<node lat="64.94976667088537" lon="13.607574998642566" id="-48564">
		<tag k="name" v="Skånalidalbekken" />
		<tag k="name:no" v="Skånalidalbekken" />
		<tag k="ssr:date" v="2018-01-09" />
		<tag k="ssr:gruppe" v="rennendeVann" />
		<tag k="ssr:hovedgruppe" v="ferskvann" />
		<tag k="ssr:stedsnr" v="289090" />
		<tag k="ssr:type" v="bekk" />
		<tag k="waterway" v="stream" />
	</node>
	<node lat="64.9623944404067" lon="13.564466674853815" id="-48565">
		<tag k="name" v="Litltjønnbekken" />
		<tag k="name:no" v="Litltjønnbekken" />
		<tag k="ssr:date" v="2018-01-09" />
		<tag k="ssr:gruppe" v="rennendeVann" />
		<tag k="ssr:hovedgruppe" v="ferskvann" />
		<tag k="ssr:stedsnr" v="289094" />
		<tag k="ssr:type" v="bekk" />
		<tag k="waterway" v="stream" />
	</node>
	<node lat="64.88564166639078" lon="13.983200006795604" id="-48566">
		<tag k="landuse" v="meadow" />
		<tag k="name" v="Oksstakkslettet" />
		<tag k="name:no" v="Oksstakkslettet" />
		<tag k="ssr:date" v="2018-01-09" />
		<tag k="ssr:gruppe" v="dyrkamark" />
		<tag k="ssr:hovedgruppe" v="markslag" />
		<tag k="ssr:stedsnr" v="289234" />
		<tag k="ssr:type" v="eng" />
	</node>
	<node lat="64.88962222465473" lon="13.986986109212074" id="-48567">
		<tag k="name" v="Leipikmodalen" />
		<tag k="name:no" v="Leipikmodalen" />
		<tag k="natural" v="valley" />
		<tag k="place" v="locality" />
		<tag k="ssr:date" v="2018-01-09" />
		<tag k="ssr:gruppe" v="senkninger" />
		<tag k="ssr:hovedgruppe" v="terreng" />
		<tag k="ssr:stedsnr" v="289235" />
		<tag k="ssr:type" v="dal" />
	</node>
	<node lat="65.01941388603245" lon="13.865708327000146" id="-48568">
		<tag k="name" v="Jaassegen-åårke" />
		<tag k="name:sma" v="Jaassegen-åårke" />
		<tag k="place" v="locality" />
		<tag k="ssr:date" v="2018-01-09" />
		<tag k="ssr:gruppe" v="flater" />
		<tag k="ssr:hovedgruppe" v="terreng" />
		<tag k="ssr:stedsnr" v="289503" />
		<tag k="ssr:type" v="slette" />
	</node>
	<node lat="64.74136389049018" lon="13.30389999824573" id="-48569">
		<tag k="name" v="Setermyra" />
		<tag k="name:no" v="Setermyra" />
		<tag k="natural" v="wetland" />
		<tag k="ssr:date" v="2018-01-09" />
		<tag k="ssr:gruppe" v="våtmark" />
		<tag k="ssr:hovedgruppe" v="markslag" />
		<tag k="ssr:stedsnr" v="290108" />
		<tag k="ssr:type" v="myr" />
	</node>
	<node lat="64.71631389034526" lon="13.21463611265519" id="-48570">
		<tag k="name" v="Storbekken" />
		<tag k="name:no" v="Storbekken" />
		<tag k="ssr:date" v="2018-01-09" />
		<tag k="ssr:gruppe" v="rennendeVann" />
		<tag k="ssr:hovedgruppe" v="ferskvann" />
		<tag k="ssr:stedsnr" v="290127" />
		<tag k="ssr:type" v="bekk" />
		<tag k="waterway" v="stream" />
	</node>
	<node lat="65.03799999624057" lon="13.47260554757777" id="-48571">
		<tag k="name" v="Væjroe-johke" />
		<tag k="name:sma" v="Væjroe-johke" />
		<tag k="ssr:date" v="2018-01-09" />
		<tag k="ssr:gruppe" v="rennendeVann" />
		<tag k="ssr:hovedgruppe" v="ferskvann" />
		<tag k="ssr:stedsnr" v="290313" />
		<tag k="ssr:type" v="bekk" />
		<tag k="waterway" v="stream" />
	</node>
	<node lat="65.01132777982222" lon="13.636369442269862" id="-48572">
		<tag k="name" v="Sandvika" />
		<tag k="name:no" v="Sandvika" />
		<tag k="place" v="isolated_dwelling" />
		<tag k="ssr:date" v="2018-01-09" />
		<tag k="ssr:gruppe" v="bolighus" />
		<tag k="ssr:hovedgruppe" v="bebyggelse" />
		<tag k="ssr:stedsnr" v="290593" />
		<tag k="ssr:type" v="fritidsbolig" />
	</node>
	<node lat="65.01371389119602" lon="13.667477778359059" id="-48573">
		<tag k="name" v="Litlflyen" />
		<tag k="name:no" v="Litlflyen" />
		<tag k="natural" v="water" />
		<tag k="ssr:date" v="2018-01-09" />
		<tag k="ssr:gruppe" v="rennendeVann" />
		<tag k="ssr:hovedgruppe" v="ferskvann" />
		<tag k="ssr:stedsnr" v="290594" />
		<tag k="ssr:type" v="lon" />
		<tag k="water" v="lake" />
	</node>
	<node lat="65.00196388622761" lon="13.506441671243948" id="-48574">
		<tag k="name" v="Grønmyrbekken" />
		<tag k="name:no" v="Grønmyrbekken" />
		<tag k="ssr:date" v="2018-01-09" />
		<tag k="ssr:gruppe" v="rennendeVann" />
		<tag k="ssr:hovedgruppe" v="ferskvann" />
		<tag k="ssr:stedsnr" v="290980" />
		<tag k="ssr:type" v="bekk" />
		<tag k="waterway" v="stream" />
	</node>
	<node lat="64.99529444381206" lon="13.526102787029883" id="-48575">
		<tag k="name" v="Giedtie-njuana - Krutangen" />
		<tag k="name:no" v="Krutangen" />
		<tag k="name:sma" v="Giedtie-njuana" />
		<tag k="place" v="islet" />
		<tag k="ssr:date" v="2018-01-09" />
		<tag k="ssr:gruppe" v="ferskvannskontur" />
		<tag k="ssr:hovedgruppe" v="ferskvann" />
		<tag k="ssr:stedsnr" v="290990" />
		<tag k="ssr:type" v="holme" />
	</node>
	<node lat="64.70299722039498" lon="13.108827770070993" id="-48576">
		<tag k="name" v="Litltjønna" />
		<tag k="name:no" v="Litltjønna" />
		<tag k="natural" v="water" />
		<tag k="ssr:date" v="2018-01-09" />
		<tag k="ssr:gruppe" v="stilleståendeVann" />
		<tag k="ssr:hovedgruppe" v="ferskvann" />
		<tag k="ssr:stedsnr" v="309046" />
		<tag k="ssr:type" v="tjern" />
	</node>
	<node lat="64.888463892147" lon="13.603530548870662" id="-48577">
		<tag k="name" v="Kvilåsen" />
		<tag k="name:no" v="Kvilåsen" />
		<tag k="place" v="locality" />
		<tag k="ssr:date" v="2021-06-08" />
		<tag k="ssr:gruppe" v="gardsbebyggelse" />
		<tag k="ssr:hovedgruppe" v="bebyggelse" />
		<tag k="ssr:stedsnr" v="317344" />
		<tag k="ssr:type" v="eiendom" />
	</node>
	<node lat="64.88200277878413" lon="13.564161114537091" id="-48578">
		<tag k="name" v="Heggli" />
		<tag k="name:no" v="Heggli" />
		<tag k="place" v="farm" />
		<tag k="ssr:date" v="2021-06-08" />
		<tag k="ssr:gruppe" v="gardsbebyggelse" />
		<tag k="ssr:hovedgruppe" v="bebyggelse" />
		<tag k="ssr:stedsnr" v="317441" />
		<tag k="ssr:type" v="bruk" />
	</node>
	<node lat="64.90920278050179" lon="13.950025000689543" id="-48579">
		<tag k="name" v="Elgdalen" />
		<tag k="name:no" v="Elgdalen" />
		<tag k="natural" v="valley" />
		<tag k="place" v="locality" />
		<tag k="ssr:date" v="2021-06-08" />
		<tag k="ssr:gruppe" v="senkninger" />
		<tag k="ssr:hovedgruppe" v="terreng" />
		<tag k="ssr:stedsnr" v="318253" />
		<tag k="ssr:type" v="dal" />
	</node>
	<node lat="64.54938055302695" lon="13.121986103794328" id="-48580">
		<tag k="name" v="Gaajsjaevrie" />
		<tag k="name:sma" v="Gaajsjaevrie" />
		<tag k="natural" v="water" />
		<tag k="ssr:date" v="2021-06-08" />
		<tag k="ssr:gruppe" v="stilleståendeVann" />
		<tag k="ssr:hovedgruppe" v="ferskvann" />
		<tag k="ssr:stedsnr" v="318303" />
		<tag k="ssr:type" v="vann" />
		<tag k="water" v="lake" />
	</node>
	<node lat="64.51827499697008" lon="13.122002775181873" id="-48581">
		<tag k="name" v="Bergtjønnin, Vestre" />
		<tag k="name:no" v="Bergtjønnin, Vestre" />
		<tag k="natural" v="water" />
		<tag k="ssr:date" v="2021-06-08" />
		<tag k="ssr:gruppe" v="stilleståendeVann" />
		<tag k="ssr:hovedgruppe" v="ferskvann" />
		<tag k="ssr:stedsnr" v="318311" />
		<tag k="ssr:type" v="tjern" />
	</node>
	<node lat="64.76802777808554" lon="13.368886120674096" id="-48582">
		<tag k="name" v="Nordre Mursteinsberget" />
		<tag k="name:no" v="Nordre Mursteinsberget" />
		<tag k="natural" v="hill" />
		<tag k="place" v="locality" />
		<tag k="ssr:date" v="2021-06-08" />
		<tag k="ssr:gruppe" v="høyder" />
		<tag k="ssr:hovedgruppe" v="terreng" />
		<tag k="ssr:stedsnr" v="318340" />
		<tag k="ssr:type" v="berg" />
	</node>
	<node lat="64.7755750002842" lon="13.378458328228609" id="-48583">
		<tag k="name" v="Brattbakken" />
		<tag k="name:no" v="Brattbakken" />
		<tag k="natural" v="slope" />
		<tag k="place" v="locality" />
		<tag k="ssr:date" v="2021-06-08" />
		<tag k="ssr:gruppe" v="skråninger" />
		<tag k="ssr:hovedgruppe" v="terreng" />
		<tag k="ssr:stedsnr" v="318344" />
		<tag k="ssr:type" v="bakke" />
	</node>
	<node lat="64.84803055886832" lon="13.377616668742306" id="-48584">
		<tag k="name" v="Bjørkvassfossen" />
		<tag k="name:no" v="Bjørkvassfossen" />
		<tag k="natural" v="waterfall" />
		<tag k="ssr:date" v="2021-06-08" />
		<tag k="ssr:gruppe" v="rennendeVann" />
		<tag k="ssr:hovedgruppe" v="ferskvann" />
		<tag k="ssr:stedsnr" v="318406" />
		<tag k="ssr:type" v="foss" />
	</node>
	<node lat="64.80357500330861" lon="13.49143333882107" id="-48585">
		<tag k="name" v="Digertangen" />
		<tag k="name:no" v="Digertangen" />
		<tag k="natural" v="cape" />
		<tag k="ssr:date" v="2021-06-08" />
		<tag k="ssr:gruppe" v="ferskvannskontur" />
		<tag k="ssr:hovedgruppe" v="ferskvann" />
		<tag k="ssr:stedsnr" v="318442" />
		<tag k="ssr:type" v="nes" />
	</node>
	<node lat="64.80120833464292" lon="13.363669437040253" id="-48586">
		<tag k="name" v="Raavrenjaevrie luspie - Hovden" />
		<tag k="name:no" v="Hovden" />
		<tag k="name:sma" v="Raavrenjaevrie luspie" />
		<tag k="natural" v="bay" />
		<tag k="ssr:date" v="2021-06-08" />
		<tag k="ssr:gruppe" v="ferskvannskontur" />
		<tag k="ssr:hovedgruppe" v="ferskvann" />
		<tag k="ssr:stedsnr" v="318445" />
		<tag k="ssr:type" v="vik" />
	</node>
	<node lat="64.93863889299982" lon="13.490424993178078" id="-48587">
		<tag k="fixme" v="consider natural=peak for the most distinct mountains in the district" />
		<tag k="name" v="Saaksen-båvne - Saksvassruet" />
		<tag k="name:no" v="Saksvassruet" />
		<tag k="name:sma" v="Saaksen-båvne" />
		<tag k="natural" v="hill" />
		<tag k="place" v="locality" />
		<tag k="ssr:date" v="2021-06-08" />
		<tag k="ssr:gruppe" v="høyder" />
		<tag k="ssr:hovedgruppe" v="terreng" />
		<tag k="ssr:stedsnr" v="318453" />
		<tag k="ssr:type" v="ås" />
	</node>
	<node lat="64.90545277565683" lon="13.37989722628114" id="-48588">
		<tag k="name" v="Presttjønnbekken" />
		<tag k="name:no" v="Presttjønnbekken" />
		<tag k="ssr:date" v="2021-06-08" />
		<tag k="ssr:gruppe" v="rennendeVann" />
		<tag k="ssr:hovedgruppe" v="ferskvann" />
		<tag k="ssr:stedsnr" v="318487" />
		<tag k="ssr:type" v="bekk" />
		<tag k="waterway" v="stream" />
	</node>
	<node lat="64.90987778174143" lon="13.478175005786843" id="-48589">
		<tag k="name" v="Tomashaugen" />
		<tag k="name:no" v="Tomashaugen" />
		<tag k="natural" v="hill" />
		<tag k="place" v="locality" />
		<tag k="ssr:date" v="2021-06-08" />
		<tag k="ssr:gruppe" v="høyder" />
		<tag k="ssr:hovedgruppe" v="terreng" />
		<tag k="ssr:stedsnr" v="318488" />
		<tag k="ssr:type" v="haug" />
	</node>
	<node lat="64.90790833466008" lon="13.568666674964613" id="-48590">
		<tag k="name" v="Speerregejaevrie - Vektarbotn" />
		<tag k="name:no" v="Vektarbotn" />
		<tag k="name:sma" v="Speerregejaevrie" />
		<tag k="natural" v="bay" />
		<tag k="ssr:date" v="2021-06-08" />
		<tag k="ssr:gruppe" v="ferskvannskontur" />
		<tag k="ssr:hovedgruppe" v="ferskvann" />
		<tag k="ssr:stedsnr" v="318495" />
		<tag k="ssr:type" v="vik" />
	</node>
	<node lat="64.90940277819931" lon="13.584105560964549" id="-48591">
		<tag k="name" v="Rotangen" />
		<tag k="name:no" v="Rotangen" />
		<tag k="place" v="islet" />
		<tag k="ssr:date" v="2021-06-08" />
		<tag k="ssr:gruppe" v="ferskvannskontur" />
		<tag k="ssr:hovedgruppe" v="ferskvann" />
		<tag k="ssr:stedsnr" v="318496" />
		<tag k="ssr:type" v="holme" />
	</node>
	<node lat="64.91845000177051" lon="13.686455545522467" id="-48592">
		<tag k="name" v="Gåetbielesdurrienjaevrieh - Husviktjønnin" />
		<tag k="name:no" v="Husviktjønnin" />
		<tag k="name:sma" v="Gåetbielesdurrienjaevrieh" />
		<tag k="natural" v="water" />
		<tag k="ssr:date" v="2021-06-08" />
		<tag k="ssr:gruppe" v="stilleståendeVann" />
		<tag k="ssr:hovedgruppe" v="ferskvann" />
		<tag k="ssr:stedsnr" v="318499" />
		<tag k="ssr:type" v="tjern" />
	</node>
	<node lat="64.90097777410607" lon="13.57358333105092" id="-48593">
		<tag k="name" v="Sjuevnjiesvaegkie - Storfloen" />
		<tag k="name:no" v="Storfloen" />
		<tag k="name:sma" v="Sjuevnjiesvaegkie" />
		<tag k="natural" v="wetland" />
		<tag k="ssr:date" v="2021-06-08" />
		<tag k="ssr:gruppe" v="våtmark" />
		<tag k="ssr:hovedgruppe" v="markslag" />
		<tag k="ssr:stedsnr" v="318508" />
		<tag k="ssr:type" v="myr" />
	</node>
	<node lat="64.6866055593133" lon="13.259702773754244" id="-48594">
		<tag k="name" v="Litlfjelltangen" />
		<tag k="name:no" v="Litlfjelltangen" />
		<tag k="place" v="islet" />
		<tag k="ssr:date" v="2021-06-08" />
		<tag k="ssr:gruppe" v="ferskvannskontur" />
		<tag k="ssr:hovedgruppe" v="ferskvann" />
		<tag k="ssr:stedsnr" v="318510" />
		<tag k="ssr:type" v="holme" />
	</node>
	<node lat="64.68747500175948" lon="13.341313881120982" id="-48595">
		<tag k="name" v="Tjurudalen" />
		<tag k="name:no" v="Tjurudalen" />
		<tag k="natural" v="valley" />
		<tag k="place" v="locality" />
		<tag k="ssr:date" v="2021-06-08" />
		<tag k="ssr:gruppe" v="senkninger" />
		<tag k="ssr:hovedgruppe" v="terreng" />
		<tag k="ssr:stedsnr" v="318513" />
		<tag k="ssr:type" v="dal" />
	</node>
	<node lat="65.00826389277229" lon="14.002483327492266" id="-48596">
		<tag k="name" v="Gaajhtjaevrie - Getsvatnet" />
		<tag k="name:no" v="Getsvatnet" />
		<tag k="name:sma" v="Gaajhtjaevrie" />
		<tag k="natural" v="water" />
		<tag k="ssr:date" v="2021-06-08" />
		<tag k="ssr:gruppe" v="stilleståendeVann" />
		<tag k="ssr:hovedgruppe" v="ferskvann" />
		<tag k="ssr:stedsnr" v="318806" />
		<tag k="ssr:type" v="vann" />
		<tag k="water" v="lake" />
	</node>
	<node lat="64.86317778078725" lon="13.827652785515006" id="-48597">
		<tag k="name" v="Finnhushaugan" />
		<tag k="name:no" v="Finnhushaugan" />
		<tag k="natural" v="hill" />
		<tag k="place" v="locality" />
		<tag k="ssr:date" v="2018-01-09" />
		<tag k="ssr:gruppe" v="høyder" />
		<tag k="ssr:hovedgruppe" v="terreng" />
		<tag k="ssr:stedsnr" v="469230" />
		<tag k="ssr:type" v="høyde" />
	</node>
	<node lat="64.87267028345515" lon="13.816377893109976" id="-48598">
		<tag k="alt_name:no" v="Auster Huddingsvatnet;Auster-Huddingsvatnet" />
		<tag k="name" v="Otnege-jaevrie - Auster Hudningsvatnet" />
		<tag k="name:no" v="Auster Hudningsvatnet" />
		<tag k="name:sma" v="Otnege-jaevrie" />
		<tag k="natural" v="water" />
		<tag k="ssr:date" v="2018-02-20" />
		<tag k="ssr:gruppe" v="stilleståendeVann" />
		<tag k="ssr:hovedgruppe" v="ferskvann" />
		<tag k="ssr:stedsnr" v="469231" />
		<tag k="ssr:type" v="delAvInnsjø" />
	</node>
	<node lat="64.72949166699063" lon="13.234611111207766" id="-48599">
		<tag k="name" v="Hestbottarmyra" />
		<tag k="name:no" v="Hestbottarmyra" />
		<tag k="natural" v="wetland" />
		<tag k="ssr:date" v="2018-01-09" />
		<tag k="ssr:gruppe" v="våtmark" />
		<tag k="ssr:hovedgruppe" v="markslag" />
		<tag k="ssr:stedsnr" v="469110" />
		<tag k="ssr:type" v="myr" />
	</node>
	<node lat="65.06081944620719" lon="13.901386103667553" id="-48600">
		<tag k="fixme" v="consider natural=peak for the most distinct mountains in the district" />
		<tag k="name" v="Lohtere - Lotterfjellet" />
		<tag k="name:no" v="Lotterfjellet" />
		<tag k="name:sma" v="Lohtere" />
		<tag k="natural" v="hill" />
		<tag k="place" v="locality" />
		<tag k="ssr:date" v="2021-06-08" />
		<tag k="ssr:gruppe" v="høyder" />
		<tag k="ssr:hovedgruppe" v="terreng" />
		<tag k="ssr:stedsnr" v="324803" />
		<tag k="ssr:type" v="fjell" />
	</node>
	<node lat="64.8859083332383" lon="13.707280564820076" id="-48601">
		<tag k="name" v="Gabpen-johke" />
		<tag k="name:sma" v="Gabpen-johke" />
		<tag k="ssr:date" v="2018-01-09" />
		<tag k="ssr:gruppe" v="rennendeVann" />
		<tag k="ssr:hovedgruppe" v="ferskvann" />
		<tag k="ssr:stedsnr" v="470131" />
		<tag k="ssr:type" v="bekk" />
		<tag k="waterway" v="stream" />
	</node>
	<node lat="64.68603333552703" lon="13.211794437760192" id="-48602">
		<tag k="name" v="Litlfossen" />
		<tag k="name:no" v="Litlfossen" />
		<tag k="natural" v="waterfall" />
		<tag k="ssr:date" v="2018-01-09" />
		<tag k="ssr:gruppe" v="rennendeVann" />
		<tag k="ssr:hovedgruppe" v="ferskvann" />
		<tag k="ssr:stedsnr" v="470139" />
		<tag k="ssr:type" v="foss" />
	</node>
	<node lat="64.89261110791158" lon="13.475011104735513" id="-48603">
		<tag k="name" v="Klumpen" />
		<tag k="name:no" v="Klumpen" />
		<tag k="natural" v="hill" />
		<tag k="place" v="locality" />
		<tag k="ssr:date" v="2018-01-09" />
		<tag k="ssr:gruppe" v="høyder" />
		<tag k="ssr:hovedgruppe" v="terreng" />
		<tag k="ssr:stedsnr" v="470155" />
		<tag k="ssr:type" v="høyde" />
	</node>
	<node lat="64.86425555758996" lon="13.465380560604396" id="-48604">
		<tag k="name" v="Brattbekken" />
		<tag k="name:no" v="Brattbekken" />
		<tag k="ssr:date" v="2018-01-09" />
		<tag k="ssr:gruppe" v="rennendeVann" />
		<tag k="ssr:hovedgruppe" v="ferskvann" />
		<tag k="ssr:stedsnr" v="470157" />
		<tag k="ssr:type" v="bekk" />
		<tag k="waterway" v="stream" />
	</node>
	<node lat="64.65901666903889" lon="13.199119437200974" id="-48605">
		<tag k="name" v="Gamstalltangen" />
		<tag k="name:no" v="Gamstalltangen" />
		<tag k="natural" v="cape" />
		<tag k="ssr:date" v="2018-01-09" />
		<tag k="ssr:gruppe" v="ferskvannskontur" />
		<tag k="ssr:hovedgruppe" v="ferskvann" />
		<tag k="ssr:stedsnr" v="470228" />
		<tag k="ssr:type" v="nes" />
	</node>
	<node lat="64.64749166835229" lon="13.207391671138767" id="-48606">
		<tag k="name" v="Storbakken" />
		<tag k="name:no" v="Storbakken" />
		<tag k="natural" v="slope" />
		<tag k="place" v="locality" />
		<tag k="ssr:date" v="2018-01-09" />
		<tag k="ssr:gruppe" v="skråninger" />
		<tag k="ssr:hovedgruppe" v="terreng" />
		<tag k="ssr:stedsnr" v="470231" />
		<tag k="ssr:type" v="li" />
	</node>
	<node lat="64.65713055203643" lon="13.195688896195405" id="-48607">
		<tag k="name" v="Gamstallmyra" />
		<tag k="name:no" v="Gamstallmyra" />
		<tag k="natural" v="wetland" />
		<tag k="ssr:date" v="2018-01-09" />
		<tag k="ssr:gruppe" v="våtmark" />
		<tag k="ssr:hovedgruppe" v="markslag" />
		<tag k="ssr:stedsnr" v="470232" />
		<tag k="ssr:type" v="myr" />
	</node>
	<node lat="64.73314999892933" lon="13.280555556273042" id="-48608">
		<tag k="name" v="Brentberget" />
		<tag k="name:no" v="Brentberget" />
		<tag k="natural" v="hill" />
		<tag k="place" v="locality" />
		<tag k="ssr:date" v="2018-01-09" />
		<tag k="ssr:gruppe" v="høyder" />
		<tag k="ssr:hovedgruppe" v="terreng" />
		<tag k="ssr:stedsnr" v="470091" />
		<tag k="ssr:type" v="berg" />
	</node>
	<node lat="64.9813305592095" lon="13.593686108065878" id="-48609">
		<tag k="fixme" v="consider natural=peak for the most distinct mountains in the district" />
		<tag k="name" v="Båvne" />
		<tag k="name:sma" v="Båvne" />
		<tag k="natural" v="hill" />
		<tag k="place" v="locality" />
		<tag k="ssr:date" v="2018-01-09" />
		<tag k="ssr:gruppe" v="høyder" />
		<tag k="ssr:hovedgruppe" v="terreng" />
		<tag k="ssr:stedsnr" v="470100" />
		<tag k="ssr:type" v="ås" />
	</node>
	<node lat="64.89584444217986" lon="13.659463884228753" id="-48610">
		<tag k="name" v="Kustakkslettet" />
		<tag k="name:no" v="Kustakkslettet" />
		<tag k="natural" v="cape" />
		<tag k="ssr:date" v="2018-01-09" />
		<tag k="ssr:gruppe" v="ferskvannskontur" />
		<tag k="ssr:hovedgruppe" v="ferskvann" />
		<tag k="ssr:stedsnr" v="470165" />
		<tag k="ssr:type" v="nes" />
	</node>
	<node lat="64.88101111206484" lon="13.70993610942799" id="-48611">
		<tag k="name" v="Buheim" />
		<tag k="name:no" v="Buheim" />
		<tag k="place" v="farm" />
		<tag k="ssr:date" v="2018-01-09" />
		<tag k="ssr:gruppe" v="gardsbebyggelse" />
		<tag k="ssr:hovedgruppe" v="bebyggelse" />
		<tag k="ssr:stedsnr" v="470170" />
		<tag k="ssr:type" v="bruk" />
	</node>
	<node lat="64.8850777745942" lon="13.768941655783513" id="-48612">
		<tag k="name" v="Stormyra" />
		<tag k="name:no" v="Stormyra" />
		<tag k="natural" v="wetland" />
		<tag k="ssr:date" v="2018-01-09" />
		<tag k="ssr:gruppe" v="våtmark" />
		<tag k="ssr:hovedgruppe" v="markslag" />
		<tag k="ssr:stedsnr" v="470173" />
		<tag k="ssr:type" v="myr" />
	</node>
	<node lat="64.8882777769365" lon="13.779097214512447" id="-48613">
		<tag k="name" v="Svartberga" />
		<tag k="name:no" v="Svartberga" />
		<tag k="natural" v="cliff" />
		<tag k="ssr:date" v="2018-01-09" />
		<tag k="ssr:gruppe" v="terrengdetaljer" />
		<tag k="ssr:hovedgruppe" v="terreng" />
		<tag k="ssr:stedsnr" v="470176" />
		<tag k="ssr:type" v="stup" />
	</node>
	<node lat="64.88160585043332" lon="13.746509410276223" id="-48614">
		<tag k="name" v="Matbekken" />
		<tag k="name:no" v="Matbekken" />
		<tag k="ssr:date" v="2019-01-24" />
		<tag k="ssr:gruppe" v="rennendeVann" />
		<tag k="ssr:hovedgruppe" v="ferskvann" />
		<tag k="ssr:stedsnr" v="470180" />
		<tag k="ssr:type" v="bekk" />
		<tag k="waterway" v="stream" />
	</node>
	<node lat="64.88546388541889" lon="13.644161105158387" id="-48615">
		<tag k="name" v="Tjuahpa-johke" />
		<tag k="name:sma" v="Tjuahpa-johke" />
		<tag k="ssr:date" v="2018-01-09" />
		<tag k="ssr:gruppe" v="rennendeVann" />
		<tag k="ssr:hovedgruppe" v="ferskvann" />
		<tag k="ssr:stedsnr" v="470194" />
		<tag k="ssr:type" v="bekk" />
		<tag k="waterway" v="stream" />
	</node>
	<node lat="64.88969408420395" lon="13.94449709708216" id="-48616">
		<tag k="name" v="Langmyra" />
		<tag k="name:no" v="Langmyra" />
		<tag k="natural" v="wetland" />
		<tag k="ssr:date" v="2019-02-15" />
		<tag k="ssr:gruppe" v="våtmark" />
		<tag k="ssr:hovedgruppe" v="markslag" />
		<tag k="ssr:stedsnr" v="470235" />
		<tag k="ssr:type" v="myr" />
	</node>
	<node lat="64.65743889208" lon="13.151630554146593" id="-48617">
		<tag k="name" v="Mariahuslia" />
		<tag k="name:no" v="Mariahuslia" />
		<tag k="natural" v="slope" />
		<tag k="place" v="locality" />
		<tag k="ssr:date" v="2018-01-09" />
		<tag k="ssr:gruppe" v="skråninger" />
		<tag k="ssr:hovedgruppe" v="terreng" />
		<tag k="ssr:stedsnr" v="470238" />
		<tag k="ssr:type" v="li" />
	</node>
	<node lat="64.64608611505828" lon="13.152724999042691" id="-48618">
		<tag k="name" v="Skavhauglodo" />
		<tag k="name:no" v="Skavhauglodo" />
		<tag k="natural" v="wetland" />
		<tag k="ssr:date" v="2018-01-09" />
		<tag k="ssr:gruppe" v="våtmark" />
		<tag k="ssr:hovedgruppe" v="markslag" />
		<tag k="ssr:stedsnr" v="470239" />
		<tag k="ssr:type" v="myr" />
	</node>
	<node lat="65.05238611141014" lon="13.837725002640015" id="-48619">
		<tag k="name" v="Lohtere-johke - Norddalsbekken" />
		<tag k="name:no" v="Norddalsbekken" />
		<tag k="name:sma" v="Lohtere-johke" />
		<tag k="ssr:date" v="2018-01-09" />
		<tag k="ssr:gruppe" v="rennendeVann" />
		<tag k="ssr:hovedgruppe" v="ferskvann" />
		<tag k="ssr:stedsnr" v="471497" />
		<tag k="ssr:type" v="bekk" />
		<tag k="waterway" v="stream" />
	</node>
	<node lat="64.79464999766981" lon="13.685213879249282" id="-48620">
		<tag k="name" v="Syvfisketjønn" />
		<tag k="name:no" v="Syvfisketjønn" />
		<tag k="natural" v="water" />
		<tag k="ssr:date" v="2018-01-09" />
		<tag k="ssr:gruppe" v="stilleståendeVann" />
		<tag k="ssr:hovedgruppe" v="ferskvann" />
		<tag k="ssr:stedsnr" v="471616" />
		<tag k="ssr:type" v="tjern" />
	</node>
	<node lat="64.96367222634208" lon="13.516261115660965" id="-48621">
		<tag k="name" v="Sandåmomyra" />
		<tag k="name:no" v="Sandåmomyra" />
		<tag k="natural" v="wetland" />
		<tag k="ssr:date" v="2018-01-09" />
		<tag k="ssr:gruppe" v="våtmark" />
		<tag k="ssr:hovedgruppe" v="markslag" />
		<tag k="ssr:stedsnr" v="471888" />
		<tag k="ssr:type" v="myr" />
	</node>
	<node lat="64.74375555557452" lon="13.308252774306393" id="-48622">
		<tag k="name" v="Bergstakkslettet" />
		<tag k="name:no" v="Bergstakkslettet" />
		<tag k="place" v="locality" />
		<tag k="ssr:date" v="2018-01-09" />
		<tag k="ssr:gruppe" v="flater" />
		<tag k="ssr:hovedgruppe" v="terreng" />
		<tag k="ssr:stedsnr" v="472119" />
		<tag k="ssr:type" v="slette" />
	</node>
	<node lat="64.79138611407495" lon="13.380886107478004" id="-48623">
		<tag k="name" v="Bustatangen" />
		<tag k="name:no" v="Bustatangen" />
		<tag k="natural" v="cape" />
		<tag k="ssr:date" v="2018-01-09" />
		<tag k="ssr:gruppe" v="ferskvannskontur" />
		<tag k="ssr:hovedgruppe" v="ferskvann" />
		<tag k="ssr:stedsnr" v="472124" />
		<tag k="ssr:type" v="nes" />
	</node>
	<node lat="64.97270000433309" lon="14.093680557318166" id="-48624">
		<tag k="name" v="Giedtie-njuana" />
		<tag k="name:sma" v="Giedtie-njuana" />
		<tag k="natural" v="cape" />
		<tag k="ssr:date" v="2018-01-09" />
		<tag k="ssr:gruppe" v="ferskvannskontur" />
		<tag k="ssr:hovedgruppe" v="ferskvann" />
		<tag k="ssr:stedsnr" v="472379" />
		<tag k="ssr:type" v="nes" />
	</node>
	<node lat="64.90151111290658" lon="14.017441669758908" id="-48625">
		<tag k="name" v="Seterbekken" />
		<tag k="name:no" v="Seterbekken" />
		<tag k="ssr:date" v="2018-01-09" />
		<tag k="ssr:gruppe" v="rennendeVann" />
		<tag k="ssr:hovedgruppe" v="ferskvann" />
		<tag k="ssr:stedsnr" v="472358" />
		<tag k="ssr:type" v="bekk" />
		<tag k="waterway" v="stream" />
	</node>
	<node lat="64.86409444155713" lon="13.723611117004742" id="-48626">
		<tag k="name" v="Toklumpen" />
		<tag k="name:no" v="Toklumpen" />
		<tag k="natural" v="hill" />
		<tag k="place" v="locality" />
		<tag k="ssr:date" v="2018-01-09" />
		<tag k="ssr:gruppe" v="høyder" />
		<tag k="ssr:hovedgruppe" v="terreng" />
		<tag k="ssr:stedsnr" v="472584" />
		<tag k="ssr:type" v="haug" />
	</node>
	<node lat="64.83029166243001" lon="13.647319448267059" id="-48627">
		<tag k="name" v="Stormyra" />
		<tag k="name:no" v="Stormyra" />
		<tag k="natural" v="wetland" />
		<tag k="ssr:date" v="2018-01-09" />
		<tag k="ssr:gruppe" v="våtmark" />
		<tag k="ssr:hovedgruppe" v="markslag" />
		<tag k="ssr:stedsnr" v="472587" />
		<tag k="ssr:type" v="myr" />
	</node>
	<node lat="64.83194999955721" lon="13.645280559564133" id="-48628">
		<tag k="name" v="Vester-Skoforplutten" />
		<tag k="name:no" v="Vester-Skoforplutten" />
		<tag k="natural" v="water" />
		<tag k="ssr:date" v="2018-01-09" />
		<tag k="ssr:gruppe" v="stilleståendeVann" />
		<tag k="ssr:hovedgruppe" v="ferskvann" />
		<tag k="ssr:stedsnr" v="472592" />
		<tag k="ssr:type" v="tjern" />
	</node>
	<node lat="64.68714722133006" lon="13.07859722659747" id="-48629">
		<tag k="name" v="Flyan" />
		<tag k="place" v="locality" />
		<tag k="ssr:date" v="2019-12-27" />
		<tag k="ssr:gruppe" v="rennendeVann" />
		<tag k="ssr:hovedgruppe" v="ferskvann" />
		<tag k="ssr:stedsnr" v="472764" />
		<tag k="ssr:type" v="høl" />
	</node>
	<node lat="64.82425833544661" lon="13.60685278583152" id="-48630">
		<tag k="name" v="Kuholmen" />
		<tag k="name:no" v="Kuholmen" />
		<tag k="natural" v="cape" />
		<tag k="ssr:date" v="2018-01-09" />
		<tag k="ssr:gruppe" v="ferskvannskontur" />
		<tag k="ssr:hovedgruppe" v="ferskvann" />
		<tag k="ssr:stedsnr" v="472748" />
		<tag k="ssr:type" v="nes" />
	</node>
	<node lat="65.04103889229458" lon="13.5470250070056" id="-48631">
		<tag k="name" v="Luvlie Kaajien-jaevrie - Auster Karivatnet" />
		<tag k="name:no" v="Auster Karivatnet" />
		<tag k="name:sma" v="Luvlie Kaajien-jaevrie" />
		<tag k="natural" v="water" />
		<tag k="ssr:date" v="2018-01-09" />
		<tag k="ssr:gruppe" v="stilleståendeVann" />
		<tag k="ssr:hovedgruppe" v="ferskvann" />
		<tag k="ssr:stedsnr" v="472937" />
		<tag k="ssr:type" v="vann" />
		<tag k="water" v="lake" />
	</node>
	<node lat="64.91473333500005" lon="13.478197214006764" id="-48632">
		<tag k="name" v="Tomashaugen" />
		<tag k="name:no" v="Tomashaugen" />
		<tag k="natural" v="hill" />
		<tag k="place" v="locality" />
		<tag k="ssr:date" v="2018-01-09" />
		<tag k="ssr:gruppe" v="høyder" />
		<tag k="ssr:hovedgruppe" v="terreng" />
		<tag k="ssr:stedsnr" v="473194" />
		<tag k="ssr:type" v="haug" />
	</node>
	<node lat="64.74408333006839" lon="13.239824992028938" id="-48633">
		<tag k="fixme" v="consider natural=peak for the most distinct mountains in the district" />
		<tag k="name" v="Vesterruet" />
		<tag k="name:no" v="Vesterruet" />
		<tag k="natural" v="hill" />
		<tag k="place" v="locality" />
		<tag k="ssr:date" v="2018-01-09" />
		<tag k="ssr:gruppe" v="høyder" />
		<tag k="ssr:hovedgruppe" v="terreng" />
		<tag k="ssr:stedsnr" v="347104" />
		<tag k="ssr:type" v="ås" />
	</node>
	<node lat="64.74870000396419" lon="13.25847778515441" id="-48634">
		<tag k="name" v="Pluttmyra" />
		<tag k="name:no" v="Pluttmyra" />
		<tag k="natural" v="wetland" />
		<tag k="ssr:date" v="2018-01-09" />
		<tag k="ssr:gruppe" v="våtmark" />
		<tag k="ssr:hovedgruppe" v="markslag" />
		<tag k="ssr:stedsnr" v="347114" />
		<tag k="ssr:type" v="myr" />
	</node>
	<node lat="64.65112222458602" lon="13.20245278401852" id="-48635">
		<tag k="name" v="Finnhusa" />
		<tag k="name:no" v="Finnhusa" />
		<tag k="natural" v="wetland" />
		<tag k="ssr:date" v="2018-01-09" />
		<tag k="ssr:gruppe" v="våtmark" />
		<tag k="ssr:hovedgruppe" v="markslag" />
		<tag k="ssr:stedsnr" v="348166" />
		<tag k="ssr:type" v="myr" />
	</node>
	<node lat="64.85867778237993" lon="13.430094439594615" id="-48636">
		<tag k="name" v="Revåsbekken" />
		<tag k="name:no" v="Revåsbekken" />
		<tag k="ssr:date" v="2018-01-09" />
		<tag k="ssr:gruppe" v="rennendeVann" />
		<tag k="ssr:hovedgruppe" v="ferskvann" />
		<tag k="ssr:stedsnr" v="348174" />
		<tag k="ssr:type" v="bekk" />
		<tag k="waterway" v="stream" />
	</node>
	<node lat="64.8727916706064" lon="13.963172220852448" id="-48637">
		<tag k="landuse" v="meadow" />
		<tag k="name" v="Femstakkmyra" />
		<tag k="name:no" v="Femstakkmyra" />
		<tag k="ssr:date" v="2018-01-09" />
		<tag k="ssr:gruppe" v="dyrkamark" />
		<tag k="ssr:hovedgruppe" v="markslag" />
		<tag k="ssr:stedsnr" v="348304" />
		<tag k="ssr:type" v="eng" />
	</node>
	<node lat="64.87229167100647" lon="13.742266671797447" id="-48638">
		<tag k="name" v="Auribekkvika" />
		<tag k="name:no" v="Auribekkvika" />
		<tag k="natural" v="bay" />
		<tag k="ssr:date" v="2018-01-09" />
		<tag k="ssr:gruppe" v="ferskvannskontur" />
		<tag k="ssr:hovedgruppe" v="ferskvann" />
		<tag k="ssr:stedsnr" v="348203" />
		<tag k="ssr:type" v="vik" />
	</node>
	<node lat="64.88162222585062" lon="13.761505549510167" id="-48639">
		<tag k="name" v="Huddingsvatn" />
		<tag k="name:no" v="Huddingsvatn" />
		<tag k="place" v="farm" />
		<tag k="ssr:date" v="2018-01-09" />
		<tag k="ssr:gruppe" v="gardsbebyggelse" />
		<tag k="ssr:hovedgruppe" v="bebyggelse" />
		<tag k="ssr:stedsnr" v="348212" />
		<tag k="ssr:type" v="bruk" />
	</node>
	<node lat="64.8788194430697" lon="13.483111115266928" id="-48640">
		<tag k="name" v="Pe-Bengtsamyra" />
		<tag k="name:no" v="Pe-Bengtsamyra" />
		<tag k="natural" v="wetland" />
		<tag k="ssr:date" v="2018-01-09" />
		<tag k="ssr:gruppe" v="våtmark" />
		<tag k="ssr:hovedgruppe" v="markslag" />
		<tag k="ssr:stedsnr" v="349102" />
		<tag k="ssr:type" v="myr" />
	</node>
	<node lat="64.98610277326051" lon="13.586105558325233" id="-48641">
		<tag k="name" v="Setemnstakkslettet" />
		<tag k="name:no" v="Setemnstakkslettet" />
		<tag k="natural" v="cape" />
		<tag k="ssr:date" v="2018-01-09" />
		<tag k="ssr:gruppe" v="ferskvannskontur" />
		<tag k="ssr:hovedgruppe" v="ferskvann" />
		<tag k="ssr:stedsnr" v="349106" />
		<tag k="ssr:type" v="nes" />
	</node>
	<node lat="64.98502222536462" lon="13.573083323489367" id="-48642">
		<tag k="name" v="Kumerkesmyra" />
		<tag k="name:no" v="Kumerkesmyra" />
		<tag k="natural" v="wetland" />
		<tag k="ssr:date" v="2018-01-09" />
		<tag k="ssr:gruppe" v="våtmark" />
		<tag k="ssr:hovedgruppe" v="markslag" />
		<tag k="ssr:stedsnr" v="349124" />
		<tag k="ssr:type" v="myr" />
	</node>
	<node lat="64.86805555651156" lon="13.852252772530507" id="-48643">
		<tag k="landuse" v="quarry" />
		<tag k="name" v="Joma" />
		<tag k="name:sma" v="Joma" />
		<tag k="ssr:date" v="2018-01-09" />
		<tag k="ssr:gruppe" v="uttakOgDeponi" />
		<tag k="ssr:hovedgruppe" v="markslag" />
		<tag k="ssr:stedsnr" v="349273" />
		<tag k="ssr:type" v="bergverk" />
	</node>
	<node lat="64.63884999947338" lon="13.157575002075733" id="-48644">
		<tag k="landuse" v="meadow" />
		<tag k="name" v="Storstakkslettet" />
		<tag k="name:no" v="Storstakkslettet" />
		<tag k="ssr:date" v="2018-01-09" />
		<tag k="ssr:gruppe" v="dyrkamark" />
		<tag k="ssr:hovedgruppe" v="markslag" />
		<tag k="ssr:stedsnr" v="349306" />
		<tag k="ssr:type" v="eng" />
	</node>
	<node lat="64.6638027748527" lon="13.18600834036089" id="-48645">
		<tag k="name" v="Blautmyra" />
		<tag k="name:no" v="Blautmyra" />
		<tag k="natural" v="wetland" />
		<tag k="ssr:date" v="2018-01-09" />
		<tag k="ssr:gruppe" v="våtmark" />
		<tag k="ssr:hovedgruppe" v="markslag" />
		<tag k="ssr:stedsnr" v="349318" />
		<tag k="ssr:type" v="myr" />
	</node>
	<node lat="64.66884167098864" lon="13.181397226711216" id="-48646">
		<tag k="name" v="Bjørknestangen" />
		<tag k="name:no" v="Bjørknestangen" />
		<tag k="natural" v="cape" />
		<tag k="ssr:date" v="2018-01-09" />
		<tag k="ssr:gruppe" v="ferskvannskontur" />
		<tag k="ssr:hovedgruppe" v="ferskvann" />
		<tag k="ssr:stedsnr" v="349320" />
		<tag k="ssr:type" v="nes" />
	</node>
	<node lat="64.67166666294291" lon="13.174105558681848" id="-48647">
		<tag k="name" v="Finnhusbekken" />
		<tag k="name:no" v="Finnhusbekken" />
		<tag k="ssr:date" v="2018-01-09" />
		<tag k="ssr:gruppe" v="rennendeVann" />
		<tag k="ssr:hovedgruppe" v="ferskvann" />
		<tag k="ssr:stedsnr" v="349323" />
		<tag k="ssr:type" v="bekk" />
		<tag k="waterway" v="stream" />
	</node>
	<node lat="64.78871666289669" lon="13.409702786254481" id="-48648">
		<tag k="name" v="Bjønnbekken" />
		<tag k="name:no" v="Bjønnbekken" />
		<tag k="ssr:date" v="2018-01-09" />
		<tag k="ssr:gruppe" v="rennendeVann" />
		<tag k="ssr:hovedgruppe" v="ferskvann" />
		<tag k="ssr:stedsnr" v="350115" />
		<tag k="ssr:type" v="bekk" />
		<tag k="waterway" v="stream" />
	</node>
	<node lat="65.00104444805086" lon="13.797491662833378" id="-48649">
		<tag k="name" v="Solodden" />
		<tag k="name:no" v="Solodden" />
		<tag k="natural" v="cape" />
		<tag k="ssr:date" v="2018-01-09" />
		<tag k="ssr:gruppe" v="ferskvannskontur" />
		<tag k="ssr:hovedgruppe" v="ferskvann" />
		<tag k="ssr:stedsnr" v="350402" />
		<tag k="ssr:type" v="nes" />
	</node>
	<node lat="64.8092527809426" lon="13.630572220686325" id="-48650">
		<tag k="name" v="Reinstakkslettet" />
		<tag k="name:no" v="Reinstakkslettet" />
		<tag k="natural" v="wetland" />
		<tag k="ssr:date" v="2018-01-09" />
		<tag k="ssr:gruppe" v="våtmark" />
		<tag k="ssr:hovedgruppe" v="markslag" />
		<tag k="ssr:stedsnr" v="350589" />
		<tag k="ssr:type" v="myr" />
	</node>
	<node lat="64.8562666657104" lon="13.422044454775094" id="-48651">
		<tag k="bridge" v="yes" />
		<tag k="layer" v="1" />
		<tag k="name" v="Gjersvikbrua" />
		<tag k="name:no" v="Gjersvikbrua" />
		<tag k="ssr:date" v="2021-06-08" />
		<tag k="ssr:gruppe" v="samferdselsanlegg" />
		<tag k="ssr:hovedgruppe" v="infrastruktur" />
		<tag k="ssr:stedsnr" v="350904" />
		<tag k="ssr:type" v="bru" />
	</node>
	<node lat="64.90456111466048" lon="13.494299996094469" id="-48652">
		<tag k="name" v="Seterbekken" />
		<tag k="name:no" v="Seterbekken" />
		<tag k="ssr:date" v="2018-01-09" />
		<tag k="ssr:gruppe" v="rennendeVann" />
		<tag k="ssr:hovedgruppe" v="ferskvann" />
		<tag k="ssr:stedsnr" v="350809" />
		<tag k="ssr:type" v="bekk" />
		<tag k="waterway" v="stream" />
	</node>
	<node lat="64.81487777768456" lon="13.373066676475261" id="-48653">
		<tag k="name" v="Gamseterlia" />
		<tag k="name:no" v="Gamseterlia" />
		<tag k="natural" v="slope" />
		<tag k="place" v="locality" />
		<tag k="ssr:date" v="2018-01-09" />
		<tag k="ssr:gruppe" v="skråninger" />
		<tag k="ssr:hovedgruppe" v="terreng" />
		<tag k="ssr:stedsnr" v="351156" />
		<tag k="ssr:type" v="li" />
	</node>
	<node lat="64.71723333645271" lon="13.374177776698373" id="-48654">
		<tag k="name" v="Røddurda" />
		<tag k="name:no" v="Røddurda" />
		<tag k="natural" v="scree" />
		<tag k="ssr:date" v="2018-01-09" />
		<tag k="ssr:gruppe" v="løsmasseavsetninger" />
		<tag k="ssr:hovedgruppe" v="markslag" />
		<tag k="ssr:stedsnr" v="351163" />
		<tag k="ssr:type" v="ur" />
	</node>
	<node lat="64.83739722629305" lon="13.406355553611757" id="-48655">
		<tag k="name" v="Vakkerdalsbekken" />
		<tag k="name:no" v="Vakkerdalsbekken" />
		<tag k="ssr:date" v="2018-01-09" />
		<tag k="ssr:gruppe" v="rennendeVann" />
		<tag k="ssr:hovedgruppe" v="ferskvann" />
		<tag k="ssr:stedsnr" v="351169" />
		<tag k="ssr:type" v="bekk" />
		<tag k="waterway" v="stream" />
	</node>
	<node lat="65.05243611508091" lon="13.690447224632434" id="-48656">
		<tag k="name" v="Buvrie-johke - Finnburselva" />
		<tag k="name:no" v="Finnburselva" />
		<tag k="name:sma" v="Buvrie-johke" />
		<tag k="ssr:date" v="2018-01-09" />
		<tag k="ssr:gruppe" v="rennendeVann" />
		<tag k="ssr:hovedgruppe" v="ferskvann" />
		<tag k="ssr:stedsnr" v="351654" />
		<tag k="ssr:type" v="elv" />
		<tag k="waterway" v="river" />
	</node>
	<node lat="64.9875583348188" lon="13.633544447051559" id="-48657">
		<tag k="name" v="Storplutten" />
		<tag k="name:no" v="Storplutten" />
		<tag k="natural" v="water" />
		<tag k="ssr:date" v="2018-01-09" />
		<tag k="ssr:gruppe" v="stilleståendeVann" />
		<tag k="ssr:hovedgruppe" v="ferskvann" />
		<tag k="ssr:stedsnr" v="351553" />
		<tag k="ssr:type" v="pytt" />
		<tag k="water" v="pond" />
	</node>
	<node lat="64.98834999964748" lon="13.663475006927731" id="-48658">
		<tag k="name" v="Naustervika" />
		<tag k="name:no" v="Naustervika" />
		<tag k="natural" v="bay" />
		<tag k="ssr:date" v="2018-01-09" />
		<tag k="ssr:gruppe" v="ferskvannskontur" />
		<tag k="ssr:hovedgruppe" v="ferskvann" />
		<tag k="ssr:stedsnr" v="351555" />
		<tag k="ssr:type" v="vik" />
	</node>
	<node lat="64.98246595187383" lon="13.670616442800448" id="-48659">
		<tag k="name" v="Strohke - Strokken" />
		<tag k="name:no" v="Strokken" />
		<tag k="name:sma" v="Strohke" />
		<tag k="place" v="locality" />
		<tag k="ssr:date" v="2019-04-17" />
		<tag k="ssr:gruppe" v="ferskvannskontur" />
		<tag k="ssr:hovedgruppe" v="ferskvann" />
		<tag k="ssr:stedsnr" v="351557" />
		<tag k="ssr:type" v="eid" />
	</node>
	<node lat="64.99841666379578" lon="13.756566666782115" id="-48660">
		<tag k="name" v="Rokstad" />
		<tag k="name:no" v="Rokstad" />
		<tag k="place" v="isolated_dwelling" />
		<tag k="ssr:date" v="2018-01-09" />
		<tag k="ssr:gruppe" v="bolighus" />
		<tag k="ssr:hovedgruppe" v="bebyggelse" />
		<tag k="ssr:stedsnr" v="351559" />
		<tag k="ssr:type" v="fritidsbolig" />
	</node>
	<node lat="64.95132406724537" lon="14.093677271747252" id="-48661">
		<tag k="historic" v="boundary_stone" />
		<tag k="man_made" v="cairn" />
		<tag k="name" v="Vaellierøysa" />
		<tag k="name:no" v="Vaellierøysa" />
		<tag k="place" v="locality" />
		<tag k="ssr:date" v="2021-06-08" />
		<tag k="ssr:gruppe" v="administrativeIndelinger" />
		<tag k="ssr:hovedgruppe" v="offentligAdministrasjon" />
		<tag k="ssr:stedsnr" v="480384" />
		<tag k="ssr:type" v="grensemerke" />
	</node>
	<node lat="64.68933055781004" lon="13.188238891162474" id="-48662">
		<tag k="name" v="Jakopsundet" />
		<tag k="name:no" v="Jakopsundet" />
		<tag k="natural" v="strait" />
		<tag k="ssr:date" v="2021-06-08" />
		<tag k="ssr:gruppe" v="ferskvannskontur" />
		<tag k="ssr:hovedgruppe" v="ferskvann" />
		<tag k="ssr:stedsnr" v="378368" />
		<tag k="ssr:type" v="sund" />
	</node>
	<node lat="64.68683888823595" lon="13.198969433937814" id="-48663">
		<tag k="name" v="Sandtangen" />
		<tag k="name:no" v="Sandtangen" />
		<tag k="natural" v="cape" />
		<tag k="ssr:date" v="2021-06-08" />
		<tag k="ssr:gruppe" v="ferskvannskontur" />
		<tag k="ssr:hovedgruppe" v="ferskvann" />
		<tag k="ssr:stedsnr" v="378369" />
		<tag k="ssr:type" v="nes" />
	</node>
	<node lat="64.67618611506502" lon="13.174286117704002" id="-48664">
		<tag k="name" v="Naustbukta" />
		<tag k="name:no" v="Naustbukta" />
		<tag k="natural" v="bay" />
		<tag k="ssr:date" v="2021-06-08" />
		<tag k="ssr:gruppe" v="ferskvannskontur" />
		<tag k="ssr:hovedgruppe" v="ferskvann" />
		<tag k="ssr:stedsnr" v="378373" />
		<tag k="ssr:type" v="vik" />
	</node>
	<node lat="64.72783055392253" lon="13.243044447704133" id="-48665">
		<tag k="name" v="Setervika" />
		<tag k="name:no" v="Setervika" />
		<tag k="natural" v="bay" />
		<tag k="ssr:date" v="2021-06-08" />
		<tag k="ssr:gruppe" v="ferskvannskontur" />
		<tag k="ssr:hovedgruppe" v="ferskvann" />
		<tag k="ssr:stedsnr" v="378267" />
		<tag k="ssr:type" v="vik" />
	</node>
	<node lat="64.85295277521838" lon="13.7375750007293" id="-48666">
		<tag k="name" v="Laagkoenjuenientjonne" />
		<tag k="name:sma" v="Laagkoenjuenientjonne" />
		<tag k="natural" v="water" />
		<tag k="ssr:date" v="2021-06-08" />
		<tag k="ssr:gruppe" v="stilleståendeVann" />
		<tag k="ssr:hovedgruppe" v="ferskvann" />
		<tag k="ssr:stedsnr" v="378272" />
		<tag k="ssr:type" v="tjern" />
	</node>
	<node lat="64.8625249974417" lon="13.561750003255678" id="-48667">
		<tag k="name" v="Storbekken" />
		<tag k="name:no" v="Storbekken" />
		<tag k="ssr:date" v="2021-06-08" />
		<tag k="ssr:gruppe" v="rennendeVann" />
		<tag k="ssr:hovedgruppe" v="ferskvann" />
		<tag k="ssr:stedsnr" v="378417" />
		<tag k="ssr:type" v="bekk" />
		<tag k="waterway" v="stream" />
	</node>
	<node lat="64.92295555510461" lon="13.547927784650488" id="-48668">
		<tag k="name" v="Rørtangen" />
		<tag k="name:no" v="Rørtangen" />
		<tag k="natural" v="cape" />
		<tag k="ssr:date" v="2021-06-08" />
		<tag k="ssr:gruppe" v="ferskvannskontur" />
		<tag k="ssr:hovedgruppe" v="ferskvann" />
		<tag k="ssr:stedsnr" v="378481" />
		<tag k="ssr:type" v="nes" />
	</node>
	<node lat="64.73584166523136" lon="13.060652776325337" id="-48669">
		<tag k="name" v="Stordomma" />
		<tag k="name:no" v="Stordomma" />
		<tag k="natural" v="slope" />
		<tag k="place" v="locality" />
		<tag k="ssr:date" v="2021-06-08" />
		<tag k="ssr:gruppe" v="skråninger" />
		<tag k="ssr:hovedgruppe" v="terreng" />
		<tag k="ssr:stedsnr" v="378684" />
		<tag k="ssr:type" v="li" />
	</node>
	<node lat="65.04406389232913" lon="14.053733327749404" id="-48670">
		<tag k="fixme" v="consider natural=peak for the most distinct mountains in the district" />
		<tag k="name" v="Lijkietjåalhte" />
		<tag k="name:sma" v="Lijkietjåalhte" />
		<tag k="natural" v="hill" />
		<tag k="place" v="locality" />
		<tag k="ssr:date" v="2021-06-08" />
		<tag k="ssr:gruppe" v="høyder" />
		<tag k="ssr:hovedgruppe" v="terreng" />
		<tag k="ssr:stedsnr" v="378817" />
		<tag k="ssr:type" v="ås" />
	</node>
	<node lat="64.82292500018266" lon="13.281816658845965" id="-48671">
		<tag k="fixme" v="consider natural=peak for the most distinct mountains in the district" />
		<tag k="name" v="Lievkiesåajja - Bjørkvassklumpen" />
		<tag k="name:no" v="Bjørkvassklumpen" />
		<tag k="name:sma" v="Lievkiesåajja" />
		<tag k="natural" v="hill" />
		<tag k="place" v="locality" />
		<tag k="ssr:date" v="2021-06-08" />
		<tag k="ssr:gruppe" v="høyder" />
		<tag k="ssr:hovedgruppe" v="terreng" />
		<tag k="ssr:stedsnr" v="384415" />
		<tag k="ssr:type" v="fjell" />
	</node>
	<node lat="64.63025555959258" lon="13.288663892558285" id="-48672">
		<tag k="name" v="Skardtjønnin" />
		<tag k="name:no" v="Skardtjønnin" />
		<tag k="natural" v="water" />
		<tag k="ssr:date" v="2021-06-08" />
		<tag k="ssr:gruppe" v="stilleståendeVann" />
		<tag k="ssr:hovedgruppe" v="ferskvann" />
		<tag k="ssr:stedsnr" v="389390" />
		<tag k="ssr:type" v="tjern" />
	</node>
	<node lat="64.71943333521709" lon="13.37653332617771" id="-48673">
		<tag k="fixme" v="consider boundary=protected_area and relevant protect_class if not nature reserve" />
		<tag k="leisure" v="nature_reserve" />
		<tag k="name" v="Gudfjelløya naturreservat - Tjåehkere eatnemedajve" />
		<tag k="name:no" v="Gudfjelløya naturreservat" />
		<tag k="name:sma" v="Tjåehkere eatnemedajve" />
		<tag k="ssr:date" v="2021-06-08" />
		<tag k="ssr:gruppe" v="verne-OgBruksområder" />
		<tag k="ssr:hovedgruppe" v="offentligAdministrasjon" />
		<tag k="ssr:stedsnr" v="406298" />
		<tag k="ssr:type" v="verneområde" />
	</node>
	<node lat="64.88945277898628" lon="13.514880564712582" id="-48674">
		<tag k="name" v="Tjønndalen" />
		<tag k="name:no" v="Tjønndalen" />
		<tag k="natural" v="valley" />
		<tag k="place" v="locality" />
		<tag k="ssr:date" v="2018-01-09" />
		<tag k="ssr:gruppe" v="senkninger" />
		<tag k="ssr:hovedgruppe" v="terreng" />
		<tag k="ssr:stedsnr" v="409202" />
		<tag k="ssr:type" v="dal" />
	</node>
	<node lat="64.86824722370623" lon="13.460775006657702" id="-48675">
		<tag k="name" v="Merkesmyra" />
		<tag k="name:no" v="Merkesmyra" />
		<tag k="natural" v="wetland" />
		<tag k="ssr:date" v="2018-01-09" />
		<tag k="ssr:gruppe" v="våtmark" />
		<tag k="ssr:hovedgruppe" v="markslag" />
		<tag k="ssr:stedsnr" v="409197" />
		<tag k="ssr:type" v="myr" />
	</node>
	<node lat="64.89080833432895" lon="13.56412500791431" id="-48676">
		<tag k="name" v="Ravren-johke" />
		<tag k="name:sma" v="Ravren-johke" />
		<tag k="ssr:date" v="2018-01-09" />
		<tag k="ssr:gruppe" v="rennendeVann" />
		<tag k="ssr:hovedgruppe" v="ferskvann" />
		<tag k="ssr:stedsnr" v="409201" />
		<tag k="ssr:type" v="elv" />
		<tag k="waterway" v="river" />
	</node>
	<node lat="64.93923610975118" lon="13.579630548834265" id="-48677">
		<tag k="name" v="Blautmyrhaugen" />
		<tag k="name:no" v="Blautmyrhaugen" />
		<tag k="natural" v="hill" />
		<tag k="place" v="locality" />
		<tag k="ssr:date" v="2018-01-09" />
		<tag k="ssr:gruppe" v="høyder" />
		<tag k="ssr:hovedgruppe" v="terreng" />
		<tag k="ssr:stedsnr" v="410103" />
		<tag k="ssr:type" v="haug" />
	</node>
	<node lat="64.90801666393098" lon="13.633972225694063" id="-48678">
		<tag k="name" v="Fremmer Husvikdalen" />
		<tag k="name:no" v="Fremmer Husvikdalen" />
		<tag k="natural" v="valley" />
		<tag k="place" v="locality" />
		<tag k="ssr:date" v="2018-01-09" />
		<tag k="ssr:gruppe" v="senkninger" />
		<tag k="ssr:hovedgruppe" v="terreng" />
		<tag k="ssr:stedsnr" v="410093" />
		<tag k="ssr:type" v="dal" />
	</node>
	<node lat="64.88184444118579" lon="13.884613883150053" id="-48679">
		<tag k="name" v="Øvermoan" />
		<tag k="name:no" v="Øvermoan" />
		<tag k="natural" v="hill" />
		<tag k="place" v="locality" />
		<tag k="ssr:date" v="2018-01-09" />
		<tag k="ssr:gruppe" v="høyder" />
		<tag k="ssr:hovedgruppe" v="terreng" />
		<tag k="ssr:stedsnr" v="410210" />
		<tag k="ssr:type" v="høyde" />
	</node>
	<node lat="64.69641110858913" lon="13.205230552570002" id="-48680">
		<tag k="name" v="Damsvika" />
		<tag k="name:no" v="Damsvika" />
		<tag k="natural" v="bay" />
		<tag k="ssr:date" v="2018-01-09" />
		<tag k="ssr:gruppe" v="ferskvannskontur" />
		<tag k="ssr:hovedgruppe" v="ferskvann" />
		<tag k="ssr:stedsnr" v="410244" />
		<tag k="ssr:type" v="vik" />
	</node>
	<node lat="64.8806388931423" lon="13.956255547274527" id="-48681">
		<tag k="name" v="Luvlie Våelleren-johke" />
		<tag k="name:sma" v="Luvlie Våelleren-johke" />
		<tag k="ssr:date" v="2018-01-09" />
		<tag k="ssr:gruppe" v="rennendeVann" />
		<tag k="ssr:hovedgruppe" v="ferskvann" />
		<tag k="ssr:stedsnr" v="410142" />
		<tag k="ssr:type" v="elv" />
		<tag k="waterway" v="river" />
	</node>
	<node lat="64.93384444353835" lon="13.597850006566546" id="-48682">
		<tag k="bridge" v="yes" />
		<tag k="layer" v="1" />
		<tag k="name" v="Øystre Skånalibrua" />
		<tag k="name:no" v="Øystre Skånalibrua" />
		<tag k="ssr:date" v="2021-06-08" />
		<tag k="ssr:gruppe" v="samferdselsanlegg" />
		<tag k="ssr:hovedgruppe" v="infrastruktur" />
		<tag k="ssr:stedsnr" v="411914" />
		<tag k="ssr:type" v="bru" />
	</node>
	<node lat="64.82206944288949" lon="13.39005554871425" id="-48683">
		<tag k="name" v="Gjersvikruet" />
		<tag k="name:no" v="Gjersvikruet" />
		<tag k="natural" v="hill" />
		<tag k="place" v="locality" />
		<tag k="ssr:date" v="2018-01-09" />
		<tag k="ssr:gruppe" v="høyder" />
		<tag k="ssr:hovedgruppe" v="terreng" />
		<tag k="ssr:stedsnr" v="412143" />
		<tag k="ssr:type" v="haug" />
	</node>
	<node lat="64.86402222217096" lon="13.328902773832613" id="-48684">
		<tag k="name" v="Fiskbekken" />
		<tag k="name:no" v="Fiskbekken" />
		<tag k="ssr:date" v="2018-01-09" />
		<tag k="ssr:gruppe" v="rennendeVann" />
		<tag k="ssr:hovedgruppe" v="ferskvann" />
		<tag k="ssr:stedsnr" v="412144" />
		<tag k="ssr:type" v="bekk" />
		<tag k="waterway" v="stream" />
	</node>
	<node lat="64.98632500410741" lon="13.695752771572593" id="-48685">
		<tag k="name" v="Storvika" />
		<tag k="name:no" v="Storvika" />
		<tag k="natural" v="bay" />
		<tag k="ssr:date" v="2018-01-09" />
		<tag k="ssr:gruppe" v="ferskvannskontur" />
		<tag k="ssr:hovedgruppe" v="ferskvann" />
		<tag k="ssr:stedsnr" v="412537" />
		<tag k="ssr:type" v="vik" />
	</node>
	<node lat="64.98080277374405" lon="13.52131944955661" id="-48686">
		<tag k="name" v="Midtibekkholmen" />
		<tag k="name:no" v="Midtibekkholmen" />
		<tag k="place" v="islet" />
		<tag k="ssr:date" v="2018-01-09" />
		<tag k="ssr:gruppe" v="ferskvannskontur" />
		<tag k="ssr:hovedgruppe" v="ferskvann" />
		<tag k="ssr:stedsnr" v="412987" />
		<tag k="ssr:type" v="holme" />
	</node>
	<node lat="64.91834721784366" lon="13.928169449625187" id="-48687">
		<tag k="name" v="Nordre Arnolsa-bekken" />
		<tag k="name:no" v="Nordre Arnolsa-bekken" />
		<tag k="ssr:date" v="2021-06-08" />
		<tag k="ssr:gruppe" v="rennendeVann" />
		<tag k="ssr:hovedgruppe" v="ferskvann" />
		<tag k="ssr:stedsnr" v="439245" />
		<tag k="ssr:type" v="bekk" />
		<tag k="waterway" v="stream" />
	</node>
	<node lat="64.93077777821343" lon="14.058374993941067" id="-48688">
		<tag k="name" v="Giedtie-johke - Litlelva" />
		<tag k="name:no" v="Litlelva" />
		<tag k="name:sma" v="Giedtie-johke" />
		<tag k="ssr:date" v="2021-06-08" />
		<tag k="ssr:gruppe" v="rennendeVann" />
		<tag k="ssr:hovedgruppe" v="ferskvann" />
		<tag k="ssr:stedsnr" v="439247" />
		<tag k="ssr:type" v="bekk" />
		<tag k="waterway" v="stream" />
	</node>
	<node lat="64.93635833591956" lon="13.981024991684837" id="-48689">
		<tag k="name" v="Guevtelejaevrie - Henrikvatnet" />
		<tag k="name:no" v="Henrikvatnet" />
		<tag k="name:sma" v="Guevtelejaevrie" />
		<tag k="natural" v="water" />
		<tag k="ssr:date" v="2021-06-08" />
		<tag k="ssr:gruppe" v="stilleståendeVann" />
		<tag k="ssr:hovedgruppe" v="ferskvann" />
		<tag k="ssr:stedsnr" v="439249" />
		<tag k="ssr:type" v="vann" />
		<tag k="water" v="lake" />
	</node>
	<node lat="64.72278055199726" lon="13.345530556107528" id="-48690">
		<tag k="name" v="Fredøy" />
		<tag k="name:no" v="Fredøy" />
		<tag k="place" v="farm" />
		<tag k="ssr:date" v="2021-06-08" />
		<tag k="ssr:gruppe" v="gardsbebyggelse" />
		<tag k="ssr:hovedgruppe" v="bebyggelse" />
		<tag k="ssr:stedsnr" v="439253" />
		<tag k="ssr:type" v="bruk" />
	</node>
	<node lat="64.87743332925211" lon="13.783763883594096" id="-48691">
		<tag k="name" v="Hutnegejaevrie - Hudningsvatnet" />
		<tag k="name:no" v="Hudningsvatnet" />
		<tag k="name:sma" v="Hutnegejaevrie" />
		<tag k="natural" v="water" />
		<tag k="ssr:date" v="2021-06-08" />
		<tag k="ssr:gruppe" v="stilleståendeVann" />
		<tag k="ssr:hovedgruppe" v="ferskvann" />
		<tag k="ssr:stedsnr" v="439256" />
		<tag k="ssr:type" v="innsjø" />
		<tag k="water" v="lake" />
	</node>
	<node lat="64.78103055241232" lon="13.355275009892551" id="-48692">
		<tag k="name" v="Styggbekken" />
		<tag k="name:no" v="Styggbekken" />
		<tag k="ssr:date" v="2021-06-08" />
		<tag k="ssr:gruppe" v="rennendeVann" />
		<tag k="ssr:hovedgruppe" v="ferskvann" />
		<tag k="ssr:stedsnr" v="439303" />
		<tag k="ssr:type" v="bekk" />
		<tag k="waterway" v="stream" />
	</node>
	<node lat="64.7898527771882" lon="13.493855552509222" id="-48693">
		<tag k="name" v="Nedsttjønna" />
		<tag k="name:no" v="Nedsttjønna" />
		<tag k="natural" v="water" />
		<tag k="ssr:date" v="2021-06-08" />
		<tag k="ssr:gruppe" v="stilleståendeVann" />
		<tag k="ssr:hovedgruppe" v="ferskvann" />
		<tag k="ssr:stedsnr" v="439307" />
		<tag k="ssr:type" v="tjern" />
	</node>
	<node lat="64.64001666817437" lon="13.149577767868177" id="-48694">
		<tag k="name" v="Hitertjønna" />
		<tag k="name:no" v="Hitertjønna" />
		<tag k="natural" v="water" />
		<tag k="ssr:date" v="2021-06-08" />
		<tag k="ssr:gruppe" v="stilleståendeVann" />
		<tag k="ssr:hovedgruppe" v="ferskvann" />
		<tag k="ssr:stedsnr" v="439309" />
		<tag k="ssr:type" v="tjern" />
	</node>
	<node lat="64.6827305571774" lon="13.16831665678042" id="-48695">
		<tag k="name" v="Vertangen" />
		<tag k="name:no" v="Vertangen" />
		<tag k="place" v="islet" />
		<tag k="ssr:date" v="2021-06-08" />
		<tag k="ssr:gruppe" v="ferskvannskontur" />
		<tag k="ssr:hovedgruppe" v="ferskvann" />
		<tag k="ssr:stedsnr" v="439344" />
		<tag k="ssr:type" v="holme" />
	</node>
	<node lat="64.9822694461516" lon="13.730063884866006" id="-48696">
		<tag k="name" v="Berettjønna" />
		<tag k="name:no" v="Berettjønna" />
		<tag k="natural" v="water" />
		<tag k="ssr:date" v="2021-06-08" />
		<tag k="ssr:gruppe" v="stilleståendeVann" />
		<tag k="ssr:hovedgruppe" v="ferskvann" />
		<tag k="ssr:stedsnr" v="439354" />
		<tag k="ssr:type" v="tjern" />
	</node>
	<node lat="64.83101111316583" lon="13.316008335083687" id="-48697">
		<tag k="name" v="Åarjeljaevrie - Sørvatnet" />
		<tag k="name:no" v="Sørvatnet" />
		<tag k="name:sma" v="Åarjeljaevrie" />
		<tag k="natural" v="water" />
		<tag k="ssr:date" v="2021-06-08" />
		<tag k="ssr:gruppe" v="stilleståendeVann" />
		<tag k="ssr:hovedgruppe" v="ferskvann" />
		<tag k="ssr:stedsnr" v="439394" />
		<tag k="ssr:type" v="tjern" />
	</node>
	<node lat="64.64738055207283" lon="13.307133326973842" id="-48698">
		<tag k="name" v="Midtre Havdalstjønna" />
		<tag k="name:no" v="Midtre Havdalstjønna" />
		<tag k="natural" v="water" />
		<tag k="ssr:date" v="2021-06-08" />
		<tag k="ssr:gruppe" v="stilleståendeVann" />
		<tag k="ssr:hovedgruppe" v="ferskvann" />
		<tag k="ssr:stedsnr" v="439396" />
		<tag k="ssr:type" v="tjern" />
	</node>
	<node lat="64.8321166635746" lon="13.37525833998153" id="-48699">
		<tag k="name" v="Nesbekken" />
		<tag k="name:no" v="Nesbekken" />
		<tag k="ssr:date" v="2021-06-08" />
		<tag k="ssr:gruppe" v="rennendeVann" />
		<tag k="ssr:hovedgruppe" v="ferskvann" />
		<tag k="ssr:stedsnr" v="439397" />
		<tag k="ssr:type" v="bekk" />
		<tag k="waterway" v="stream" />
	</node>
	<node lat="64.64342499801037" lon="13.306947228025498" id="-48700">
		<tag k="name" v="Nedre Havdalstjønna" />
		<tag k="name:no" v="Nedre Havdalstjønna" />
		<tag k="natural" v="water" />
		<tag k="ssr:date" v="2021-06-08" />
		<tag k="ssr:gruppe" v="stilleståendeVann" />
		<tag k="ssr:hovedgruppe" v="ferskvann" />
		<tag k="ssr:stedsnr" v="439399" />
		<tag k="ssr:type" v="tjern" />
	</node>
	<node lat="64.72728333579914" lon="13.107033324035982" id="-48701">
		<tag k="name" v="Litltjønna" />
		<tag k="name:no" v="Litltjønna" />
		<tag k="natural" v="water" />
		<tag k="ssr:date" v="2021-06-08" />
		<tag k="ssr:gruppe" v="stilleståendeVann" />
		<tag k="ssr:hovedgruppe" v="ferskvann" />
		<tag k="ssr:stedsnr" v="439655" />
		<tag k="ssr:type" v="tjern" />
	</node>
	<node lat="64.72529999945742" lon="13.121891675706374" id="-48702">
		<tag k="name" v="Finnhustjønna" />
		<tag k="name:no" v="Finnhustjønna" />
		<tag k="natural" v="water" />
		<tag k="ssr:date" v="2021-06-08" />
		<tag k="ssr:gruppe" v="stilleståendeVann" />
		<tag k="ssr:hovedgruppe" v="ferskvann" />
		<tag k="ssr:stedsnr" v="439656" />
		<tag k="ssr:type" v="tjern" />
	</node>
	<node lat="65.0100305559208" lon="13.771955549632072" id="-48703">
		<tag k="name" v="Stoerresååle - Storøya" />
		<tag k="name:no" v="Storøya" />
		<tag k="name:sma" v="Stoerresååle" />
		<tag k="place" v="islet" />
		<tag k="ssr:date" v="2021-06-08" />
		<tag k="ssr:gruppe" v="ferskvannskontur" />
		<tag k="ssr:hovedgruppe" v="ferskvann" />
		<tag k="ssr:stedsnr" v="439806" />
		<tag k="ssr:type" v="holme" />
	</node>
	<node lat="65.00785555916532" lon="13.61105000555428" id="-48704">
		<tag k="name" v="Jonasmotangen" />
		<tag k="name:no" v="Jonasmotangen" />
		<tag k="natural" v="cape" />
		<tag k="ssr:date" v="2021-06-08" />
		<tag k="ssr:gruppe" v="ferskvannskontur" />
		<tag k="ssr:hovedgruppe" v="ferskvann" />
		<tag k="ssr:stedsnr" v="439851" />
		<tag k="ssr:type" v="nes" />
	</node>
	<node lat="64.95207222586944" lon="13.746794435817622" id="-48705">
		<tag k="name" v="Tjaeksienjælla" />
		<tag k="name:sma" v="Tjaeksienjælla" />
		<tag k="natural" v="hill" />
		<tag k="place" v="locality" />
		<tag k="ssr:date" v="2021-06-08" />
		<tag k="ssr:gruppe" v="høyder" />
		<tag k="ssr:hovedgruppe" v="terreng" />
		<tag k="ssr:stedsnr" v="445284" />
		<tag k="ssr:type" v="haug" />
	</node>
	<node lat="65.0131305595514" lon="13.416669440866453" id="-48706">
		<tag k="fixme" v="consider natural=peak for the most distinct mountains in the district" />
		<tag k="name" v="Jijse - Gisen" />
		<tag k="name:no" v="Gisen" />
		<tag k="name:sma" v="Jijse" />
		<tag k="natural" v="hill" />
		<tag k="place" v="locality" />
		<tag k="ssr:date" v="2021-06-08" />
		<tag k="ssr:gruppe" v="høyder" />
		<tag k="ssr:hovedgruppe" v="terreng" />
		<tag k="ssr:stedsnr" v="445879" />
		<tag k="ssr:type" v="fjell" />
	</node>
	<node lat="64.9038658295405" lon="13.682433197976406" id="-48707">
		<tag k="fixme" v="consider natural=peak for the most distinct mountains in the district" />
		<tag k="name" v="Svaalenjunie - Søluberget" />
		<tag k="name:no" v="Søluberget" />
		<tag k="name:sma" v="Svaalenjunie" />
		<tag k="natural" v="hill" />
		<tag k="place" v="locality" />
		<tag k="ssr:date" v="2021-06-08" />
		<tag k="ssr:gruppe" v="høyder" />
		<tag k="ssr:hovedgruppe" v="terreng" />
		<tag k="ssr:stedsnr" v="446907" />
		<tag k="ssr:type" v="fjell" />
	</node>
	<node lat="64.84957777999468" lon="13.444213892096286" id="-48708">
		<tag k="name" v="Geitbergtangen" />
		<tag k="name:no" v="Geitbergtangen" />
		<tag k="natural" v="cape" />
		<tag k="ssr:date" v="2021-06-08" />
		<tag k="ssr:gruppe" v="ferskvannskontur" />
		<tag k="ssr:hovedgruppe" v="ferskvann" />
		<tag k="ssr:stedsnr" v="446896" />
		<tag k="ssr:type" v="nes" />
	</node>
	<node lat="64.69219999772393" lon="13.137711106159328" id="-48709">
		<tag k="fixme" v="consider natural=peak for the most distinct mountains in the district" />
		<tag k="name" v="Langvassåsen" />
		<tag k="name:no" v="Langvassåsen" />
		<tag k="natural" v="hill" />
		<tag k="place" v="locality" />
		<tag k="ssr:date" v="2018-01-09" />
		<tag k="ssr:gruppe" v="høyder" />
		<tag k="ssr:hovedgruppe" v="terreng" />
		<tag k="ssr:stedsnr" v="673020" />
		<tag k="ssr:type" v="ås" />
	</node>
	<node lat="64.88603611030601" lon="13.84630000157331" id="-48710">
		<tag k="name" v="Finnbursbekken" />
		<tag k="name:no" v="Finnbursbekken" />
		<tag k="ssr:date" v="2018-01-09" />
		<tag k="ssr:gruppe" v="rennendeVann" />
		<tag k="ssr:hovedgruppe" v="ferskvann" />
		<tag k="ssr:stedsnr" v="469224" />
		<tag k="ssr:type" v="bekk" />
		<tag k="waterway" v="stream" />
	</node>
	<node lat="64.87986111481352" lon="13.830266675930694" id="-48711">
		<tag k="name" v="Storfloen" />
		<tag k="name:no" v="Storfloen" />
		<tag k="natural" v="wetland" />
		<tag k="ssr:date" v="2018-01-09" />
		<tag k="ssr:gruppe" v="våtmark" />
		<tag k="ssr:hovedgruppe" v="markslag" />
		<tag k="ssr:stedsnr" v="469227" />
		<tag k="ssr:type" v="myr" />
	</node>
	<node lat="64.92334722231281" lon="13.622877778208537" id="-48712">
		<tag k="fixme" v="consider natural=peak for the most distinct mountains in the district" />
		<tag k="name" v="Flatfjellet" />
		<tag k="name:no" v="Flatfjellet" />
		<tag k="natural" v="hill" />
		<tag k="place" v="locality" />
		<tag k="ssr:date" v="2018-01-09" />
		<tag k="ssr:gruppe" v="høyder" />
		<tag k="ssr:hovedgruppe" v="terreng" />
		<tag k="ssr:stedsnr" v="470119" />
		<tag k="ssr:type" v="fjell" />
	</node>
	<node lat="64.88007777839495" lon="13.476833323528243" id="-48713">
		<tag k="name" v="Tjønnbekken" />
		<tag k="name:no" v="Tjønnbekken" />
		<tag k="ssr:date" v="2018-01-09" />
		<tag k="ssr:gruppe" v="rennendeVann" />
		<tag k="ssr:hovedgruppe" v="ferskvann" />
		<tag k="ssr:stedsnr" v="470148" />
		<tag k="ssr:type" v="bekk" />
		<tag k="waterway" v="stream" />
	</node>
	<node lat="64.89316111405905" lon="13.659758333408906" id="-48714">
		<tag k="name" v="Setermyrbekken" />
		<tag k="name:no" v="Setermyrbekken" />
		<tag k="ssr:date" v="2018-01-09" />
		<tag k="ssr:gruppe" v="rennendeVann" />
		<tag k="ssr:hovedgruppe" v="ferskvann" />
		<tag k="ssr:stedsnr" v="470160" />
		<tag k="ssr:type" v="bekk" />
		<tag k="waterway" v="stream" />
	</node>
	<node lat="64.73658333504673" lon="13.252183339222782" id="-48715">
		<tag k="name" v="Krubua" />
		<tag k="name:no" v="Krubua" />
		<tag k="place" v="locality" />
		<tag k="ssr:date" v="2018-01-09" />
		<tag k="ssr:gruppe" v="flater" />
		<tag k="ssr:hovedgruppe" v="terreng" />
		<tag k="ssr:stedsnr" v="471184" />
		<tag k="ssr:type" v="slette" />
	</node>
	<node lat="64.73184999845975" lon="13.350377784274547" id="-48716">
		<tag k="name" v="Skavikfloen" />
		<tag k="name:no" v="Skavikfloen" />
		<tag k="natural" v="wetland" />
		<tag k="ssr:date" v="2018-01-09" />
		<tag k="ssr:gruppe" v="våtmark" />
		<tag k="ssr:hovedgruppe" v="markslag" />
		<tag k="ssr:stedsnr" v="472079" />
		<tag k="ssr:type" v="myr" />
	</node>
	<node lat="64.80096388710618" lon="13.374249990526609" id="-48717">
		<tag k="name" v="Litlklumpen" />
		<tag k="name:no" v="Litlklumpen" />
		<tag k="natural" v="hill" />
		<tag k="place" v="locality" />
		<tag k="ssr:date" v="2018-01-09" />
		<tag k="ssr:gruppe" v="høyder" />
		<tag k="ssr:hovedgruppe" v="terreng" />
		<tag k="ssr:stedsnr" v="472110" />
		<tag k="ssr:type" v="haug" />
	</node>
	<node lat="64.9875944402792" lon="13.742408335726925" id="-48718">
		<tag k="name" v="Tjuenjeren-johke - Sultifiskelva" />
		<tag k="name:no" v="Sultifiskelva" />
		<tag k="name:sma" v="Tjuenjeren-johke" />
		<tag k="ssr:date" v="2018-01-09" />
		<tag k="ssr:gruppe" v="rennendeVann" />
		<tag k="ssr:hovedgruppe" v="ferskvann" />
		<tag k="ssr:stedsnr" v="472562" />
		<tag k="ssr:type" v="elv" />
		<tag k="waterway" v="river" />
	</node>
	<node lat="64.85935277379056" lon="13.415002768278201" id="-48719">
		<tag k="bridge" v="yes" />
		<tag k="layer" v="1" />
		<tag k="name" v="Sagbekkbrua" />
		<tag k="name:no" v="Sagbekkbrua" />
		<tag k="ssr:date" v="2021-06-08" />
		<tag k="ssr:gruppe" v="samferdselsanlegg" />
		<tag k="ssr:hovedgruppe" v="infrastruktur" />
		<tag k="ssr:stedsnr" v="472920" />
		<tag k="ssr:type" v="bru" />
	</node>
	<node lat="64.70021389118287" lon="13.10448055609064" id="-48720">
		<tag k="name" v="Heimvatnet" />
		<tag k="name:no" v="Heimvatnet" />
		<tag k="natural" v="water" />
		<tag k="ssr:date" v="2018-01-09" />
		<tag k="ssr:gruppe" v="stilleståendeVann" />
		<tag k="ssr:hovedgruppe" v="ferskvann" />
		<tag k="ssr:stedsnr" v="491023" />
		<tag k="ssr:type" v="tjern" />
	</node>
	<node lat="64.99400833405787" lon="13.712638897052786" id="-48721">
		<tag k="name" v="Godfisktjønna" />
		<tag k="name:no" v="Godfisktjønna" />
		<tag k="natural" v="water" />
		<tag k="ssr:date" v="2021-06-08" />
		<tag k="ssr:gruppe" v="stilleståendeVann" />
		<tag k="ssr:hovedgruppe" v="ferskvann" />
		<tag k="ssr:stedsnr" v="681055" />
		<tag k="ssr:type" v="vann" />
		<tag k="water" v="lake" />
	</node>
	<node lat="64.66355000324032" lon="13.244036101223635" id="-48722">
		<tag k="name" v="Dåeriesjohke - Brattbekken" />
		<tag k="name:no" v="Brattbekken" />
		<tag k="name:sma" v="Dåeriesjohke" />
		<tag k="ssr:date" v="2021-06-08" />
		<tag k="ssr:gruppe" v="rennendeVann" />
		<tag k="ssr:hovedgruppe" v="ferskvann" />
		<tag k="ssr:stedsnr" v="681436" />
		<tag k="ssr:type" v="bekk" />
		<tag k="waterway" v="stream" />
	</node>
	<node lat="64.66623611299597" lon="13.232183327706718" id="-48723">
		<tag k="name" v="Brattbekktangen" />
		<tag k="name:no" v="Brattbekktangen" />
		<tag k="natural" v="cape" />
		<tag k="ssr:date" v="2021-06-08" />
		<tag k="ssr:gruppe" v="ferskvannskontur" />
		<tag k="ssr:hovedgruppe" v="ferskvann" />
		<tag k="ssr:stedsnr" v="681437" />
		<tag k="ssr:type" v="nes" />
	</node>
	<node lat="64.98500000067365" lon="13.653313882863873" id="-48724">
		<tag k="name" v="Naustertjønna" />
		<tag k="name:no" v="Naustertjønna" />
		<tag k="natural" v="water" />
		<tag k="ssr:date" v="2021-06-08" />
		<tag k="ssr:gruppe" v="stilleståendeVann" />
		<tag k="ssr:hovedgruppe" v="ferskvann" />
		<tag k="ssr:stedsnr" v="499036" />
		<tag k="ssr:type" v="tjern" />
	</node>
	<node lat="64.99357777794651" lon="13.655236114415084" id="-48725">
		<tag k="name" v="Golmesjohke - Gollomselva" />
		<tag k="name:no" v="Gollomselva" />
		<tag k="name:sma" v="Golmesjohke" />
		<tag k="ssr:date" v="2021-06-08" />
		<tag k="ssr:gruppe" v="rennendeVann" />
		<tag k="ssr:hovedgruppe" v="ferskvann" />
		<tag k="ssr:stedsnr" v="499040" />
		<tag k="ssr:type" v="bekk" />
		<tag k="waterway" v="stream" />
	</node>
	<node lat="64.76815000221431" lon="13.378680563502803" id="-48726">
		<tag k="name" v="Setertangen" />
		<tag k="name:no" v="Setertangen" />
		<tag k="natural" v="cape" />
		<tag k="ssr:date" v="2021-06-08" />
		<tag k="ssr:gruppe" v="ferskvannskontur" />
		<tag k="ssr:hovedgruppe" v="ferskvann" />
		<tag k="ssr:stedsnr" v="499290" />
		<tag k="ssr:type" v="nes" />
	</node>
	<node lat="64.76123055731178" lon="13.489377788071302" id="-48727">
		<tag k="name" v="Steinhusa" />
		<tag k="name:no" v="Steinhusa" />
		<tag k="natural" v="hill" />
		<tag k="place" v="locality" />
		<tag k="ssr:date" v="2021-06-08" />
		<tag k="ssr:gruppe" v="høyder" />
		<tag k="ssr:hovedgruppe" v="terreng" />
		<tag k="ssr:stedsnr" v="681348" />
		<tag k="ssr:type" v="haug" />
	</node>
	<node lat="64.98163333294335" lon="13.84373054503828" id="-48728">
		<tag k="fixme" v="consider natural=peak for the most distinct mountains in the district" />
		<tag k="name" v="Tjuenjere - Grønklumpen" />
		<tag k="name:no" v="Grønklumpen" />
		<tag k="name:sma" v="Tjuenjere" />
		<tag k="natural" v="hill" />
		<tag k="place" v="locality" />
		<tag k="ssr:date" v="2021-06-08" />
		<tag k="ssr:gruppe" v="høyder" />
		<tag k="ssr:hovedgruppe" v="terreng" />
		<tag k="ssr:stedsnr" v="499307" />
		<tag k="ssr:type" v="ås" />
	</node>
	<node lat="65.00648332926951" lon="14.077530549121688" id="-48729">
		<tag k="fixme" v="consider natural=peak for the most distinct mountains in the district" />
		<tag k="name" v="Gaske-Seavrije" />
		<tag k="name:sma" v="Gaske-Seavrije" />
		<tag k="natural" v="hill" />
		<tag k="place" v="locality" />
		<tag k="ssr:date" v="2021-06-08" />
		<tag k="ssr:gruppe" v="høyder" />
		<tag k="ssr:hovedgruppe" v="terreng" />
		<tag k="ssr:stedsnr" v="499741" />
		<tag k="ssr:type" v="fjell" />
	</node>
	<node lat="65.12669999919464" lon="13.949199995685783" id="-48730">
		<tag k="fixme" v="consider natural=peak for the most distinct mountains in the district" />
		<tag k="name" v="Viermetjahke - Virmafjellet" />
		<tag k="name:no" v="Virmafjellet" />
		<tag k="name:sma" v="Viermetjahke" />
		<tag k="natural" v="hill" />
		<tag k="place" v="locality" />
		<tag k="ssr:date" v="2021-06-08" />
		<tag k="ssr:gruppe" v="høyder" />
		<tag k="ssr:hovedgruppe" v="terreng" />
		<tag k="ssr:stedsnr" v="499794" />
		<tag k="ssr:type" v="fjell" />
	</node>
	<node lat="64.90205277521736" lon="13.764566663517872" id="-48731">
		<tag k="fixme" v="consider natural=peak for the most distinct mountains in the district" />
		<tag k="name" v="Mealhkoe" />
		<tag k="name:sma" v="Mealhkoe" />
		<tag k="natural" v="hill" />
		<tag k="place" v="locality" />
		<tag k="ssr:date" v="2021-06-08" />
		<tag k="ssr:gruppe" v="høyder" />
		<tag k="ssr:hovedgruppe" v="terreng" />
		<tag k="ssr:stedsnr" v="500302" />
		<tag k="ssr:type" v="fjell" />
	</node>
	<node lat="64.90806389017065" lon="13.804397218147844" id="-48732">
		<tag k="fixme" v="multiple name tags, choose one and add the other to alt_name" />
		<tag k="name" v="Guelehtsjaevrie;Såålejaevrie - Fiskløystjønna" />
		<tag k="name:no" v="Fiskløystjønna" />
		<tag k="name:sma" v="Guelehtsjaevrie;Såålejaevrie" />
		<tag k="natural" v="water" />
		<tag k="ssr:date" v="2021-06-08" />
		<tag k="ssr:gruppe" v="stilleståendeVann" />
		<tag k="ssr:hovedgruppe" v="ferskvann" />
		<tag k="ssr:stedsnr" v="500306" />
		<tag k="ssr:type" v="tjern" />
	</node>
	<node lat="64.89121944451531" lon="13.887111117932735" id="-48733">
		<tag k="name" v="Stormyrbekken" />
		<tag k="name:no" v="Stormyrbekken" />
		<tag k="ssr:date" v="2021-06-08" />
		<tag k="ssr:gruppe" v="rennendeVann" />
		<tag k="ssr:hovedgruppe" v="ferskvann" />
		<tag k="ssr:stedsnr" v="500295" />
		<tag k="ssr:type" v="bekk" />
		<tag k="waterway" v="stream" />
	</node>
	<node lat="64.74145832906416" lon="13.260541667888413" id="-48734">
		<tag k="name" v="Setermyra" />
		<tag k="name:no" v="Setermyra" />
		<tag k="natural" v="wetland" />
		<tag k="ssr:date" v="2021-06-08" />
		<tag k="ssr:gruppe" v="våtmark" />
		<tag k="ssr:hovedgruppe" v="markslag" />
		<tag k="ssr:stedsnr" v="500296" />
		<tag k="ssr:type" v="myr" />
	</node>
	<node lat="64.78825555668088" lon="13.480222224229008" id="-48735">
		<tag k="name" v="Djuptjønna" />
		<tag k="name:no" v="Djuptjønna" />
		<tag k="natural" v="water" />
		<tag k="ssr:date" v="2021-06-08" />
		<tag k="ssr:gruppe" v="stilleståendeVann" />
		<tag k="ssr:hovedgruppe" v="ferskvann" />
		<tag k="ssr:stedsnr" v="500410" />
		<tag k="ssr:type" v="tjern" />
	</node>
	<node lat="64.83618889010074" lon="13.60809999634391" id="-48736">
		<tag k="name" v="Vesterås" />
		<tag k="name:no" v="Vesterås" />
		<tag k="place" v="farm" />
		<tag k="ssr:date" v="2021-06-08" />
		<tag k="ssr:gruppe" v="gardsbebyggelse" />
		<tag k="ssr:hovedgruppe" v="bebyggelse" />
		<tag k="ssr:stedsnr" v="500482" />
		<tag k="ssr:type" v="bruk" />
	</node>
	<node lat="64.83412499923507" lon="13.706816667046052" id="-48737">
		<tag k="name" v="Njueniesjaevrienjohke" />
		<tag k="name:sma" v="Njueniesjaevrienjohke" />
		<tag k="ssr:date" v="2021-06-08" />
		<tag k="ssr:gruppe" v="rennendeVann" />
		<tag k="ssr:hovedgruppe" v="ferskvann" />
		<tag k="ssr:stedsnr" v="500485" />
		<tag k="ssr:type" v="bekk" />
		<tag k="waterway" v="stream" />
	</node>
	<node lat="64.88741388977387" lon="13.899688892064441" id="-48738">
		<tag k="name" v="Stormyra" />
		<tag k="name:no" v="Stormyra" />
		<tag k="natural" v="wetland" />
		<tag k="ssr:date" v="2021-06-08" />
		<tag k="ssr:gruppe" v="våtmark" />
		<tag k="ssr:hovedgruppe" v="markslag" />
		<tag k="ssr:stedsnr" v="500330" />
		<tag k="ssr:type" v="myr" />
	</node>
	<node lat="64.62292500195771" lon="13.194516672121825" id="-48739">
		<tag k="name" v="Olatjønna" />
		<tag k="name:no" v="Olatjønna" />
		<tag k="natural" v="water" />
		<tag k="ssr:date" v="2021-06-08" />
		<tag k="ssr:gruppe" v="stilleståendeVann" />
		<tag k="ssr:hovedgruppe" v="ferskvann" />
		<tag k="ssr:stedsnr" v="500401" />
		<tag k="ssr:type" v="tjern" />
	</node>
	<node lat="64.83066111459786" lon="13.611672230241329" id="-48740">
		<tag k="fixme" v="multiple name tags, choose one and add the other to alt_name" />
		<tag k="name" v="Vestre Nyvika;Vestergården" />
		<tag k="name:no" v="Vestre Nyvika;Vestergården" />
		<tag k="place" v="farm" />
		<tag k="ssr:date" v="2021-06-08" />
		<tag k="ssr:gruppe" v="gardsbebyggelse" />
		<tag k="ssr:hovedgruppe" v="bebyggelse" />
		<tag k="ssr:stedsnr" v="500503" />
		<tag k="ssr:type" v="bruk" />
	</node>
	<node lat="64.8291401502888" lon="13.641063496861305" id="-48741">
		<tag k="fixme" v="consider natural=peak for the most distinct mountains in the district" />
		<tag k="name" v="Båvne - Ruet" />
		<tag k="name:no" v="Ruet" />
		<tag k="name:sma" v="Båvne" />
		<tag k="natural" v="hill" />
		<tag k="place" v="locality" />
		<tag k="ssr:date" v="2021-06-08" />
		<tag k="ssr:gruppe" v="høyder" />
		<tag k="ssr:hovedgruppe" v="terreng" />
		<tag k="ssr:stedsnr" v="500506" />
		<tag k="ssr:type" v="ås" />
	</node>
	<node lat="64.81335555937899" lon="13.608788879153137" id="-48742">
		<tag k="name" v="Litlplutten" />
		<tag k="name:no" v="Litlplutten" />
		<tag k="natural" v="water" />
		<tag k="ssr:date" v="2021-06-08" />
		<tag k="ssr:gruppe" v="stilleståendeVann" />
		<tag k="ssr:hovedgruppe" v="ferskvann" />
		<tag k="ssr:stedsnr" v="500509" />
		<tag k="ssr:type" v="tjern" />
	</node>
	<node lat="64.93566666687256" lon="13.502241668014612" id="-48743">
		<tag k="name" v="Limyra" />
		<tag k="name:no" v="Limyra" />
		<tag k="natural" v="wetland" />
		<tag k="ssr:date" v="2021-06-08" />
		<tag k="ssr:gruppe" v="våtmark" />
		<tag k="ssr:hovedgruppe" v="markslag" />
		<tag k="ssr:stedsnr" v="500531" />
		<tag k="ssr:type" v="myr" />
	</node>
	<node lat="64.67183888908333" lon="13.245925004482315" id="-48744">
		<tag k="alt_name:no" v="Halvmiltangen, austre" />
		<tag k="name" v="Auster Halvmiltangen" />
		<tag k="name:no" v="Auster Halvmiltangen" />
		<tag k="natural" v="cape" />
		<tag k="ssr:date" v="2018-01-09" />
		<tag k="ssr:gruppe" v="ferskvannskontur" />
		<tag k="ssr:hovedgruppe" v="ferskvann" />
		<tag k="ssr:stedsnr" v="500533" />
		<tag k="ssr:type" v="nes" />
	</node>
	<node lat="64.93207778199051" lon="13.556002783617148" id="-48745">
		<tag k="name" v="Sundet" />
		<tag k="name:no" v="Sundet" />
		<tag k="natural" v="strait" />
		<tag k="ssr:date" v="2021-06-08" />
		<tag k="ssr:gruppe" v="ferskvannskontur" />
		<tag k="ssr:hovedgruppe" v="ferskvann" />
		<tag k="ssr:stedsnr" v="500536" />
		<tag k="ssr:type" v="sund" />
	</node>
	<node lat="64.92584444410069" lon="13.355341665754755" id="-48746">
		<tag k="name" v="Stoerrebaertie - Steinfjellet" />
		<tag k="name:no" v="Steinfjellet" />
		<tag k="name:sma" v="Stoerrebaertie" />
		<tag k="natural" v="mountain_range" />
		<tag k="ssr:date" v="2021-06-08" />
		<tag k="ssr:gruppe" v="terrengområder" />
		<tag k="ssr:hovedgruppe" v="terreng" />
		<tag k="ssr:stedsnr" v="500632" />
		<tag k="ssr:type" v="fjellområde" />
	</node>
	<node lat="64.79599166413927" lon="13.705572212396389" id="-48747">
		<tag k="fixme" v="multiple name tags, choose one and add the other to alt_name" />
		<tag k="name" v="Dievienjaevrie;Duvvienjaevrie - Devikvatnet" />
		<tag k="name:no" v="Devikvatnet" />
		<tag k="name:sma" v="Dievienjaevrie;Duvvienjaevrie" />
		<tag k="natural" v="water" />
		<tag k="ssr:date" v="2021-06-08" />
		<tag k="ssr:gruppe" v="stilleståendeVann" />
		<tag k="ssr:hovedgruppe" v="ferskvann" />
		<tag k="ssr:stedsnr" v="682353" />
		<tag k="ssr:type" v="vann" />
		<tag k="water" v="lake" />
	</node>
</osm>
