<?xml version="1.0" encoding="UTF-8"?>
<osm version="0.6" generator="osmapis">
	<node lat="64.88379999727854" lon="13.563108327844263" id="-32106">
		<tag k="name" v="Raarvihken tjïelte - Røyrvik kommune" />
		<tag k="name:no" v="Røyrvik kommune" />
		<tag k="name:sma" v="Raarvihken tjïelte" />
		<tag k="ssr:date" v="2021-06-08" />
		<tag k="ssr:gruppe" v="administrativeIndelinger" />
		<tag k="ssr:hovedgruppe" v="offentligAdministrasjon" />
		<tag k="ssr:stedsnr" v="632417" />
		<tag k="ssr:type" v="kommune" />
	</node>
	<node lat="64.75780277607994" lon="13.43634166506566" id="-32923">
		<tag k="name" v="Myrvikveien" />
		<tag k="name:no" v="Myrvikveien" />
		<tag k="ssr:date" v="2019-05-31" />
		<tag k="ssr:gruppe" v="veg" />
		<tag k="ssr:hovedgruppe" v="infrastruktur" />
		<tag k="ssr:stedsnr" v="603753" />
		<tag k="ssr:type" v="adressenavn" />
	</node>
	<node lat="64.014446801577" lon="11.48188662926966" id="-33231">
		<tag k="name" v="Trøndelag fylke - Trööndelagen fylhke" />
		<tag k="name:no" v="Trøndelag fylke" />
		<tag k="name:sma" v="Trööndelagen fylhke" />
		<tag k="ssr:date" v="2021-06-08" />
		<tag k="ssr:gruppe" v="administrativeIndelinger" />
		<tag k="ssr:hovedgruppe" v="offentligAdministrasjon" />
		<tag k="ssr:stedsnr" v="980645" />
		<tag k="ssr:type" v="fylke" />
	</node>
	<node lat="64.906516184061" lon="13.458668278995047" id="-33232">
		<tag k="name" v="Sturjenhytta" />
		<tag k="ssr:date" v="2019-05-31" />
		<tag k="ssr:gruppe" v="veg" />
		<tag k="ssr:hovedgruppe" v="infrastruktur" />
		<tag k="ssr:stedsnr" v="1041086" />
		<tag k="ssr:type" v="adressenavn" />
	</node>
	<node lat="64.89817800503687" lon="13.424299497460634" id="-33233">
		<tag k="name" v="Austvatnet" />
		<tag k="ssr:date" v="2019-05-31" />
		<tag k="ssr:gruppe" v="veg" />
		<tag k="ssr:hovedgruppe" v="infrastruktur" />
		<tag k="ssr:stedsnr" v="1041087" />
		<tag k="ssr:type" v="adressenavn" />
	</node>
	<node lat="64.8469648269161" lon="13.738788738474838" id="-33234">
		<tag k="name" v="Pehytta" />
		<tag k="ssr:date" v="2019-05-31" />
		<tag k="ssr:gruppe" v="veg" />
		<tag k="ssr:hovedgruppe" v="infrastruktur" />
		<tag k="ssr:stedsnr" v="1041088" />
		<tag k="ssr:type" v="adressenavn" />
	</node>
	<node lat="64.86219392816803" lon="13.88149073408392" id="-33235">
		<tag k="name" v="Jomalia" />
		<tag k="ssr:date" v="2019-05-31" />
		<tag k="ssr:gruppe" v="veg" />
		<tag k="ssr:hovedgruppe" v="infrastruktur" />
		<tag k="ssr:stedsnr" v="1041089" />
		<tag k="ssr:type" v="adressenavn" />
	</node>
	<node lat="64.84888974596745" lon="13.664896052700378" id="-33236">
		<tag k="name" v="Sauhytta" />
		<tag k="ssr:date" v="2019-05-31" />
		<tag k="ssr:gruppe" v="veg" />
		<tag k="ssr:hovedgruppe" v="infrastruktur" />
		<tag k="ssr:stedsnr" v="1041090" />
		<tag k="ssr:type" v="adressenavn" />
	</node>
	<node lat="64.8434475157264" lon="13.69231292466879" id="-33237">
		<tag k="name" v="Halvvegesvatnet" />
		<tag k="ssr:date" v="2019-05-31" />
		<tag k="ssr:gruppe" v="veg" />
		<tag k="ssr:hovedgruppe" v="infrastruktur" />
		<tag k="ssr:stedsnr" v="1041091" />
		<tag k="ssr:type" v="adressenavn" />
	</node>
	<node lat="64.80957801816234" lon="13.423075909019067" id="-33238">
		<tag k="name" v="Kvernbekktjønnin" />
		<tag k="ssr:date" v="2019-05-31" />
		<tag k="ssr:gruppe" v="veg" />
		<tag k="ssr:hovedgruppe" v="infrastruktur" />
		<tag k="ssr:stedsnr" v="1041092" />
		<tag k="ssr:type" v="adressenavn" />
	</node>
	<node lat="64.79369344970775" lon="13.462157237048695" id="-33239">
		<tag k="name" v="Merkestjønna" />
		<tag k="ssr:date" v="2019-05-31" />
		<tag k="ssr:gruppe" v="veg" />
		<tag k="ssr:hovedgruppe" v="infrastruktur" />
		<tag k="ssr:stedsnr" v="1041093" />
		<tag k="ssr:type" v="adressenavn" />
	</node>
	<node lat="64.81691652288914" lon="13.242646772902035" id="-33240">
		<tag k="name" v="Litltromsvatnet" />
		<tag k="ssr:date" v="2019-05-31" />
		<tag k="ssr:gruppe" v="veg" />
		<tag k="ssr:hovedgruppe" v="infrastruktur" />
		<tag k="ssr:stedsnr" v="1041094" />
		<tag k="ssr:type" v="adressenavn" />
	</node>
	<node lat="64.75418717820905" lon="13.282557034980456" id="-33241">
		<tag k="name" v="Litlfisktjønna" />
		<tag k="ssr:date" v="2019-05-31" />
		<tag k="ssr:gruppe" v="veg" />
		<tag k="ssr:hovedgruppe" v="infrastruktur" />
		<tag k="ssr:stedsnr" v="1041096" />
		<tag k="ssr:type" v="adressenavn" />
	</node>
	<node lat="64.74358042381454" lon="13.184862350367798" id="-33242">
		<tag k="name" v="Postskardet" />
		<tag k="ssr:date" v="2019-05-31" />
		<tag k="ssr:gruppe" v="veg" />
		<tag k="ssr:hovedgruppe" v="infrastruktur" />
		<tag k="ssr:stedsnr" v="1041097" />
		<tag k="ssr:type" v="adressenavn" />
	</node>
	<node lat="64.77121476924451" lon="13.550642342626615" id="-33243">
		<tag k="name" v="Myrvoll" />
		<tag k="ssr:date" v="2019-05-31" />
		<tag k="ssr:gruppe" v="veg" />
		<tag k="ssr:hovedgruppe" v="infrastruktur" />
		<tag k="ssr:stedsnr" v="1041098" />
		<tag k="ssr:type" v="adressenavn" />
	</node>
	<node lat="64.78098129089568" lon="13.236160517761439" id="-33244">
		<tag k="name" v="Styggdalen" />
		<tag k="ssr:date" v="2019-05-31" />
		<tag k="ssr:gruppe" v="veg" />
		<tag k="ssr:hovedgruppe" v="infrastruktur" />
		<tag k="ssr:stedsnr" v="1041099" />
		<tag k="ssr:type" v="adressenavn" />
	</node>
	<node lat="64.6785057386826" lon="13.169430802589067" id="-33245">
		<tag k="name" v="Tunnsjøflyan" />
		<tag k="ssr:date" v="2019-05-31" />
		<tag k="ssr:gruppe" v="veg" />
		<tag k="ssr:hovedgruppe" v="infrastruktur" />
		<tag k="ssr:stedsnr" v="1041100" />
		<tag k="ssr:type" v="adressenavn" />
	</node>
	<node lat="64.7236238024778" lon="13.34358808827979" id="-33246">
		<tag k="name" v="Gudfjellet" />
		<tag k="ssr:date" v="2019-05-31" />
		<tag k="ssr:gruppe" v="veg" />
		<tag k="ssr:hovedgruppe" v="infrastruktur" />
		<tag k="ssr:stedsnr" v="1041101" />
		<tag k="ssr:type" v="adressenavn" />
	</node>
	<node lat="64.70183508752059" lon="13.15191126547199" id="-33247">
		<tag k="name" v="Langvasshytta" />
		<tag k="ssr:date" v="2019-05-31" />
		<tag k="ssr:gruppe" v="veg" />
		<tag k="ssr:hovedgruppe" v="infrastruktur" />
		<tag k="ssr:stedsnr" v="1041102" />
		<tag k="ssr:type" v="adressenavn" />
	</node>
	<node lat="64.6771591668586" lon="13.31680507025595" id="-33248">
		<tag k="name" v="Bukta" />
		<tag k="ssr:date" v="2019-05-31" />
		<tag k="ssr:gruppe" v="veg" />
		<tag k="ssr:hovedgruppe" v="infrastruktur" />
		<tag k="ssr:stedsnr" v="1041104" />
		<tag k="ssr:type" v="adressenavn" />
	</node>
	<node lat="64.66993013375873" lon="13.209208836518675" id="-33249">
		<tag k="name" v="Bustadtangen" />
		<tag k="ssr:date" v="2019-05-31" />
		<tag k="ssr:gruppe" v="veg" />
		<tag k="ssr:hovedgruppe" v="infrastruktur" />
		<tag k="ssr:stedsnr" v="1041106" />
		<tag k="ssr:type" v="adressenavn" />
	</node>
	<node lat="64.69473596230968" lon="13.222737076870391" id="-33250">
		<tag k="name" v="Storholmen" />
		<tag k="ssr:date" v="2019-05-31" />
		<tag k="ssr:gruppe" v="veg" />
		<tag k="ssr:hovedgruppe" v="infrastruktur" />
		<tag k="ssr:stedsnr" v="1041108" />
		<tag k="ssr:type" v="adressenavn" />
	</node>
	<node lat="64.69538732486689" lon="13.287233262575386" id="-33251">
		<tag k="name" v="Litlfjelløya" />
		<tag k="ssr:date" v="2019-05-31" />
		<tag k="ssr:gruppe" v="veg" />
		<tag k="ssr:hovedgruppe" v="infrastruktur" />
		<tag k="ssr:stedsnr" v="1041110" />
		<tag k="ssr:type" v="adressenavn" />
	</node>
	<node lat="64.99953063807176" lon="13.758334501996485" id="-33252">
		<tag k="name" v="Rokstad" />
		<tag k="ssr:date" v="2019-05-31" />
		<tag k="ssr:gruppe" v="veg" />
		<tag k="ssr:hovedgruppe" v="infrastruktur" />
		<tag k="ssr:stedsnr" v="1041073" />
		<tag k="ssr:type" v="adressenavn" />
	</node>
	<node lat="64.9894474455368" lon="13.73078379109853" id="-33253">
		<tag k="name" v="Sultifisktjønna" />
		<tag k="ssr:date" v="2019-05-31" />
		<tag k="ssr:gruppe" v="veg" />
		<tag k="ssr:hovedgruppe" v="infrastruktur" />
		<tag k="ssr:stedsnr" v="1041074" />
		<tag k="ssr:type" v="adressenavn" />
	</node>
	<node lat="64.96716403006984" lon="14.078551114253393" id="-33254">
		<tag k="name" v="Orvatnet" />
		<tag k="ssr:date" v="2019-05-31" />
		<tag k="ssr:gruppe" v="veg" />
		<tag k="ssr:hovedgruppe" v="infrastruktur" />
		<tag k="ssr:stedsnr" v="1041075" />
		<tag k="ssr:type" v="adressenavn" />
	</node>
	<node lat="65.00139953308194" lon="13.808805460728077" id="-33255">
		<tag k="name" v="Storvika" />
		<tag k="ssr:date" v="2019-05-31" />
		<tag k="ssr:gruppe" v="veg" />
		<tag k="ssr:hovedgruppe" v="infrastruktur" />
		<tag k="ssr:stedsnr" v="1041076" />
		<tag k="ssr:type" v="adressenavn" />
	</node>
	<node lat="64.97555400920552" lon="13.617791181175457" id="-33256">
		<tag k="name" v="Harratangen" />
		<tag k="ssr:date" v="2019-05-31" />
		<tag k="ssr:gruppe" v="veg" />
		<tag k="ssr:hovedgruppe" v="infrastruktur" />
		<tag k="ssr:stedsnr" v="1041077" />
		<tag k="ssr:type" v="adressenavn" />
	</node>
	<node lat="64.99318764637445" lon="13.645187938207659" id="-33257">
		<tag k="name" v="Litlgollomsvatnet" />
		<tag k="ssr:date" v="2019-05-31" />
		<tag k="ssr:gruppe" v="veg" />
		<tag k="ssr:hovedgruppe" v="infrastruktur" />
		<tag k="ssr:stedsnr" v="1041079" />
		<tag k="ssr:type" v="adressenavn" />
	</node>
	<node lat="64.96966330573352" lon="13.646108633776503" id="-33258">
		<tag k="name" v="Storgollomsvatnet" />
		<tag k="ssr:date" v="2019-05-31" />
		<tag k="ssr:gruppe" v="veg" />
		<tag k="ssr:hovedgruppe" v="infrastruktur" />
		<tag k="ssr:stedsnr" v="1041080" />
		<tag k="ssr:type" v="adressenavn" />
	</node>
	<node lat="64.91085574091218" lon="13.885715157305771" id="-33259">
		<tag k="name" v="Renselvatnet" />
		<tag k="ssr:date" v="2019-05-31" />
		<tag k="ssr:gruppe" v="veg" />
		<tag k="ssr:hovedgruppe" v="infrastruktur" />
		<tag k="ssr:stedsnr" v="1041081" />
		<tag k="ssr:type" v="adressenavn" />
	</node>
	<node lat="64.89981864045966" lon="13.970330182446405" id="-33260">
		<tag k="name" v="Lybekkdalen" />
		<tag k="ssr:date" v="2019-05-31" />
		<tag k="ssr:gruppe" v="veg" />
		<tag k="ssr:hovedgruppe" v="infrastruktur" />
		<tag k="ssr:stedsnr" v="1041082" />
		<tag k="ssr:type" v="adressenavn" />
	</node>
	<node lat="64.90612765276582" lon="13.65815448189688" id="-33261">
		<tag k="name" v="Husviktjønnin" />
		<tag k="ssr:date" v="2019-05-31" />
		<tag k="ssr:gruppe" v="veg" />
		<tag k="ssr:hovedgruppe" v="infrastruktur" />
		<tag k="ssr:stedsnr" v="1041083" />
		<tag k="ssr:type" v="adressenavn" />
	</node>
	<node lat="64.88436627119974" lon="13.593885928625816" id="-33262">
		<tag k="name" v="Nordgårdsseteren" />
		<tag k="ssr:date" v="2019-05-31" />
		<tag k="ssr:gruppe" v="veg" />
		<tag k="ssr:hovedgruppe" v="infrastruktur" />
		<tag k="ssr:stedsnr" v="1041084" />
		<tag k="ssr:type" v="adressenavn" />
	</node>
	<node lat="64.87082397511621" lon="13.610455574057445" id="-33263">
		<tag k="name" v="Storlia" />
		<tag k="ssr:date" v="2019-05-31" />
		<tag k="ssr:gruppe" v="veg" />
		<tag k="ssr:hovedgruppe" v="infrastruktur" />
		<tag k="ssr:stedsnr" v="1041085" />
		<tag k="ssr:type" v="adressenavn" />
	</node>
	<node lat="64.65034367519434" lon="13.307852089930108" id="-33264">
		<tag k="name" v="Øvre Havdalstjønnin" />
		<tag k="ssr:date" v="2019-05-31" />
		<tag k="ssr:gruppe" v="veg" />
		<tag k="ssr:hovedgruppe" v="infrastruktur" />
		<tag k="ssr:stedsnr" v="1041111" />
		<tag k="ssr:type" v="adressenavn" />
	</node>
	<node lat="64.63065704510713" lon="13.246545802096508" id="-33265">
		<tag k="name" v="Setertjønna" />
		<tag k="ssr:date" v="2019-05-31" />
		<tag k="ssr:gruppe" v="veg" />
		<tag k="ssr:hovedgruppe" v="infrastruktur" />
		<tag k="ssr:stedsnr" v="1041114" />
		<tag k="ssr:type" v="adressenavn" />
	</node>
	<node lat="64.66474043612796" lon="13.194357475181166" id="-33266">
		<tag k="name" v="Tangan" />
		<tag k="ssr:date" v="2019-05-31" />
		<tag k="ssr:gruppe" v="veg" />
		<tag k="ssr:hovedgruppe" v="infrastruktur" />
		<tag k="ssr:stedsnr" v="1041116" />
		<tag k="ssr:type" v="adressenavn" />
	</node>
	<node lat="64.6648604215661" lon="13.205528601564398" id="-33267">
		<tag k="name" v="Stallvikholmen" />
		<tag k="ssr:date" v="2019-05-31" />
		<tag k="ssr:gruppe" v="veg" />
		<tag k="ssr:hovedgruppe" v="infrastruktur" />
		<tag k="ssr:stedsnr" v="1041118" />
		<tag k="ssr:type" v="adressenavn" />
	</node>
	<node lat="64.59976829550932" lon="13.117448711086938" id="-33268">
		<tag k="name" v="Øverste Nessåvatn" />
		<tag k="ssr:date" v="2019-05-31" />
		<tag k="ssr:gruppe" v="veg" />
		<tag k="ssr:hovedgruppe" v="infrastruktur" />
		<tag k="ssr:stedsnr" v="1041120" />
		<tag k="ssr:type" v="adressenavn" />
	</node>
	<node lat="64.55847300373392" lon="13.127104873946942" id="-33269">
		<tag k="name" v="Gaiseren" />
		<tag k="ssr:date" v="2019-05-31" />
		<tag k="ssr:gruppe" v="veg" />
		<tag k="ssr:hovedgruppe" v="infrastruktur" />
		<tag k="ssr:stedsnr" v="1041122" />
		<tag k="ssr:type" v="adressenavn" />
	</node>
	<node lat="64.62230756438431" lon="13.192134333005113" id="-33270">
		<tag k="name" v="Olatjønna" />
		<tag k="ssr:date" v="2019-05-31" />
		<tag k="ssr:gruppe" v="veg" />
		<tag k="ssr:hovedgruppe" v="infrastruktur" />
		<tag k="ssr:stedsnr" v="1041124" />
		<tag k="ssr:type" v="adressenavn" />
	</node>
	<node lat="64.62438595254072" lon="13.16666377314283" id="-33271">
		<tag k="name" v="Nappholet" />
		<tag k="ssr:date" v="2019-05-31" />
		<tag k="ssr:gruppe" v="veg" />
		<tag k="ssr:hovedgruppe" v="infrastruktur" />
		<tag k="ssr:stedsnr" v="1041126" />
		<tag k="ssr:type" v="adressenavn" />
	</node>
	<node lat="64.80249215730795" lon="13.407439523629654" id="-33272">
		<tag k="name" v="Brennstakkslætta" />
		<tag k="ssr:date" v="2019-05-31" />
		<tag k="ssr:gruppe" v="veg" />
		<tag k="ssr:hovedgruppe" v="infrastruktur" />
		<tag k="ssr:stedsnr" v="1041128" />
		<tag k="ssr:type" v="adressenavn" />
	</node>
	<node lat="64.89358859641085" lon="13.745776946651425" id="-33273">
		<tag k="name" v="Storbekktjønnin" />
		<tag k="ssr:date" v="2019-05-31" />
		<tag k="ssr:gruppe" v="veg" />
		<tag k="ssr:hovedgruppe" v="infrastruktur" />
		<tag k="ssr:stedsnr" v="1041130" />
		<tag k="ssr:type" v="adressenavn" />
	</node>
	<node lat="64.99222940376319" lon="13.710956056906285" id="-33274">
		<tag k="name" v="Godfisktjønna" />
		<tag k="ssr:date" v="2019-05-31" />
		<tag k="ssr:gruppe" v="veg" />
		<tag k="ssr:hovedgruppe" v="infrastruktur" />
		<tag k="ssr:stedsnr" v="1041131" />
		<tag k="ssr:type" v="adressenavn" />
	</node>
	<node lat="64.96831410058569" lon="13.54794320232989" id="-33275">
		<tag k="name" v="Høgda" />
		<tag k="ssr:date" v="2019-05-31" />
		<tag k="ssr:gruppe" v="veg" />
		<tag k="ssr:hovedgruppe" v="infrastruktur" />
		<tag k="ssr:stedsnr" v="1041133" />
		<tag k="ssr:type" v="adressenavn" />
	</node>
	<node lat="64.74194151666096" lon="13.340915749903871" id="-33276">
		<tag k="name" v="Mykkelviktangen" />
		<tag k="ssr:date" v="2019-05-31" />
		<tag k="ssr:gruppe" v="veg" />
		<tag k="ssr:hovedgruppe" v="infrastruktur" />
		<tag k="ssr:stedsnr" v="1041134" />
		<tag k="ssr:type" v="adressenavn" />
	</node>
	<node lat="64.6206749833858" lon="13.274103131993932" id="-33277">
		<tag k="name" v="Blåhammartjønna" />
		<tag k="ssr:date" v="2019-05-31" />
		<tag k="ssr:gruppe" v="veg" />
		<tag k="ssr:hovedgruppe" v="infrastruktur" />
		<tag k="ssr:stedsnr" v="1041135" />
		<tag k="ssr:type" v="adressenavn" />
	</node>
	<node lat="65.03586659212198" lon="13.7769491356445" id="-33278">
		<tag k="name" v="Reiret" />
		<tag k="ssr:date" v="2019-05-31" />
		<tag k="ssr:gruppe" v="veg" />
		<tag k="ssr:hovedgruppe" v="infrastruktur" />
		<tag k="ssr:stedsnr" v="1041228" />
		<tag k="ssr:type" v="adressenavn" />
	</node>
	<node lat="65.05209950411093" lon="13.797930533593128" id="-33279">
		<tag k="name" v="Storelva" />
		<tag k="ssr:date" v="2019-05-31" />
		<tag k="ssr:gruppe" v="veg" />
		<tag k="ssr:hovedgruppe" v="infrastruktur" />
		<tag k="ssr:stedsnr" v="1041229" />
		<tag k="ssr:type" v="adressenavn" />
	</node>
	<node lat="65.00303883064426" lon="13.530472443195064" id="-33280">
		<tag k="name" v="Namslian" />
		<tag k="ssr:date" v="2019-05-31" />
		<tag k="ssr:gruppe" v="veg" />
		<tag k="ssr:hovedgruppe" v="infrastruktur" />
		<tag k="ssr:stedsnr" v="1041230" />
		<tag k="ssr:type" v="adressenavn" />
	</node>
	<node lat="65.03258688457427" lon="13.660592440716494" id="-33281">
		<tag k="name" v="Rekaren" />
		<tag k="ssr:date" v="2019-05-31" />
		<tag k="ssr:gruppe" v="veg" />
		<tag k="ssr:hovedgruppe" v="infrastruktur" />
		<tag k="ssr:stedsnr" v="1041231" />
		<tag k="ssr:type" v="adressenavn" />
	</node>
	<node lat="65.01337659164305" lon="13.687931735904842" id="-33282">
		<tag k="name" v="Rekervasselva" />
		<tag k="ssr:date" v="2019-05-31" />
		<tag k="ssr:gruppe" v="veg" />
		<tag k="ssr:hovedgruppe" v="infrastruktur" />
		<tag k="ssr:stedsnr" v="1041232" />
		<tag k="ssr:type" v="adressenavn" />
	</node>
	<node lat="65.01727574236821" lon="13.577744577356432" id="-33283">
		<tag k="name" v="Langtjønna" />
		<tag k="ssr:date" v="2019-05-31" />
		<tag k="ssr:gruppe" v="veg" />
		<tag k="ssr:hovedgruppe" v="infrastruktur" />
		<tag k="ssr:stedsnr" v="1041233" />
		<tag k="ssr:type" v="adressenavn" />
	</node>
	<node lat="65.05046744646181" lon="13.807037845024944" id="-33284">
		<tag k="name" v="Johkegaske" />
		<tag k="ssr:date" v="2019-05-31" />
		<tag k="ssr:gruppe" v="veg" />
		<tag k="ssr:hovedgruppe" v="infrastruktur" />
		<tag k="ssr:stedsnr" v="1041234" />
		<tag k="ssr:type" v="adressenavn" />
	</node>
	<node lat="65.02792588827778" lon="13.73922169948406" id="-33285">
		<tag k="name" v="Bustadslåtten" />
		<tag k="ssr:date" v="2019-05-31" />
		<tag k="ssr:gruppe" v="veg" />
		<tag k="ssr:hovedgruppe" v="infrastruktur" />
		<tag k="ssr:stedsnr" v="1041235" />
		<tag k="ssr:type" v="adressenavn" />
	</node>
	<node lat="65.01120348220162" lon="13.636929503350798" id="-33286">
		<tag k="name" v="Sandviktangen" />
		<tag k="ssr:date" v="2019-05-31" />
		<tag k="ssr:gruppe" v="veg" />
		<tag k="ssr:hovedgruppe" v="infrastruktur" />
		<tag k="ssr:stedsnr" v="1041236" />
		<tag k="ssr:type" v="adressenavn" />
	</node>
	<node lat="65.11595738698023" lon="14.146966233976437" id="-33287">
		<tag k="name" v="Jetnamsvatnet" />
		<tag k="ssr:date" v="2019-05-31" />
		<tag k="ssr:gruppe" v="veg" />
		<tag k="ssr:hovedgruppe" v="infrastruktur" />
		<tag k="ssr:stedsnr" v="1041237" />
		<tag k="ssr:type" v="adressenavn" />
	</node>
	<node lat="65.00432161172897" lon="13.587383750112046" id="-33288">
		<tag k="name" v="Hopbekktangen" />
		<tag k="ssr:date" v="2019-05-31" />
		<tag k="ssr:gruppe" v="veg" />
		<tag k="ssr:hovedgruppe" v="infrastruktur" />
		<tag k="ssr:stedsnr" v="1041238" />
		<tag k="ssr:type" v="adressenavn" />
	</node>
	<node lat="65.0094334377866" lon="13.62095468011686" id="-33289">
		<tag k="name" v="Jonasmoen" />
		<tag k="ssr:date" v="2019-05-31" />
		<tag k="ssr:gruppe" v="veg" />
		<tag k="ssr:hovedgruppe" v="infrastruktur" />
		<tag k="ssr:stedsnr" v="1041239" />
		<tag k="ssr:type" v="adressenavn" />
	</node>
</osm>
