<?xml version="1.0" encoding="UTF-8"?>
<osm version="0.6" generator="osmapis">
	<node id="736819737" lat="64.9289165" lon="13.1593686" version="7" timestamp="2022-06-16T11:52:57Z" changeset="122460851" uid="3497659" user="NKA">
		<tag k="name" v="Namsskogan" />
		<tag k="place" v="village" />
		<tag k="population" v="226" />
		<tag k="population:date" v="2021-01-01" />
		<tag k="ref:ssb_tettsted" v="7132" />
		<tag k="source:population" v="SSB - befolkning i tettstedet" />
		<tag k="ssr:stedsnr" v="257196" />
	</node>
	<node id="736822487" lat="65.0783359" lon="13.3146346" version="3" timestamp="2022-06-16T11:52:57Z" changeset="122460851" uid="3497659" user="NKA">
		<tag k="name" v="Smalåsen - Smeelehaesie" />
		<tag k="name:no" v="Smalåsen" />
		<tag k="name:sma" v="Smeelehaesie" />
		<tag k="place" v="quarter" />
		<tag k="ssr:stedsnr" v="14575" />
	</node>
	<node id="736829403" lat="64.7425868" lon="12.8457458" version="3" timestamp="2022-06-16T11:52:57Z" changeset="122460851" uid="3497659" user="NKA">
		<tag k="name" v="Trones" />
		<tag k="place" v="village" />
		<tag k="ssr:stedsnr" v="925726" />
	</node>
	<node id="1721802891" lat="64.8464933" lon="13.0155114" version="2" timestamp="2022-06-16T11:52:57Z" changeset="122460851" uid="3497659" user="NKA">
		<tag k="name" v="Brekkvasselv" />
		<tag k="place" v="village" />
		<tag k="ssr:stedsnr" v="439092" />
	</node>
	<node id="2354940782" lat="64.850581" lon="13.043322" version="2" timestamp="2018-05-02T17:04:08Z" changeset="58620907" uid="3497659" user="NKA">
		<tag k="name" v="Elglia" />
		<tag k="natural" v="hillside" />
		<tag k="source" v="Kartverket" />
		<tag k="ssr:stedsnr" v="955347" />
	</node>
	<node id="6211163279" lat="64.6437293" lon="13.1134849" version="2" timestamp="2022-06-16T11:52:57Z" changeset="122460851" uid="3497659" user="NKA">
		<tag k="name" v="Skorovatn" />
		<tag k="place" v="village" />
		<tag k="ssr:stedsnr" v="15357" />
	</node>
	<node id="9822463713" lat="65.0106638" lon="13.2523225" version="1" timestamp="2022-06-16T11:52:57Z" changeset="122460851" uid="3497659" user="NKA">
		<tag k="name" v="Vang" />
		<tag k="place" v="farm" />
		<tag k="ssr:stedsnr" v="75884" />
	</node>
	<node id="9822463714" lat="64.9114431" lon="13.1667609" version="1" timestamp="2022-06-16T11:52:57Z" changeset="122460851" uid="3497659" user="NKA">
		<tag k="name" v="Heggli" />
		<tag k="place" v="farm" />
		<tag k="ssr:stedsnr" v="925172" />
	</node>
	<node id="9822463715" lat="64.9768445" lon="13.0473445" version="1" timestamp="2022-06-16T11:52:57Z" changeset="122460851" uid="3497659" user="NKA">
		<tag k="alt_name" v="Holasætran" />
		<tag k="historic" v="shieling" />
		<tag k="name" v="Holosætran" />
		<tag k="place" v="isolated_dwelling" />
		<tag k="ssr:stedsnr" v="925170" />
	</node>
	<node id="9822463716" lat="64.8899627" lon="13.1467172" version="1" timestamp="2022-06-16T11:52:57Z" changeset="122460851" uid="3497659" user="NKA">
		<tag k="name" v="Nystad" />
		<tag k="place" v="farm" />
		<tag k="ssr:stedsnr" v="15090" />
	</node>
	<node id="9822524217" lat="64.9422445" lon="13.1914277" version="1" timestamp="2022-06-16T11:52:57Z" changeset="122460851" uid="3497659" user="NKA">
		<tag k="name" v="Moholt" />
		<tag k="place" v="farm" />
		<tag k="ssr:stedsnr" v="75173" />
	</node>
	<node id="9822524218" lat="64.9334798" lon="13.1816083" version="1" timestamp="2022-06-16T11:52:57Z" changeset="122460851" uid="3497659" user="NKA">
		<tag k="name" v="Haugland" />
		<tag k="place" v="farm" />
		<tag k="ssr:stedsnr" v="197210" />
	</node>
	<node id="9822524219" lat="64.9057444" lon="13.1690805" version="1" timestamp="2022-06-16T11:52:57Z" changeset="122460851" uid="3497659" user="NKA">
		<tag k="name" v="Solhaug" />
		<tag k="place" v="farm" />
		<tag k="ssr:stedsnr" v="197180" />
	</node>
	<node id="9822524220" lat="64.63805" lon="13.1085168" version="1" timestamp="2022-06-16T11:52:57Z" changeset="122460851" uid="3497659" user="NKA">
		<tag k="name" v="Gruvbyen" />
		<tag k="place" v="neighbourhood" />
		<tag k="ssr:stedsnr" v="889198" />
	</node>
	<node id="9822524221" lat="64.9212169" lon="13.1726986" version="1" timestamp="2022-06-16T11:52:57Z" changeset="122460851" uid="3497659" user="NKA">
		<tag k="name" v="Skogstad" />
		<tag k="place" v="farm" />
		<tag k="ssr:stedsnr" v="804219" />
	</node>
	<node id="9822524222" lat="64.8458391" lon="13.060177" version="1" timestamp="2022-06-16T11:52:57Z" changeset="122460851" uid="3497659" user="NKA">
		<tag k="name" v="Brekkvassmoen" />
		<tag k="place" v="farm" />
		<tag k="ssr:stedsnr" v="652471" />
	</node>
	<node id="9822524223" lat="64.8638334" lon="13.1155389" version="1" timestamp="2022-06-16T11:52:57Z" changeset="122460851" uid="3497659" user="NKA">
		<tag k="name" v="Solvang" />
		<tag k="place" v="farm" />
		<tag k="ssr:stedsnr" v="743086" />
	</node>
	<node id="9822524224" lat="64.6740132" lon="12.9632046" version="1" timestamp="2022-06-16T11:52:57Z" changeset="122460851" uid="3497659" user="NKA">
		<tag k="name" v="Grøndalen" />
		<tag k="place" v="hamlet" />
		<tag k="ssr:stedsnr" v="197412" />
	</node>
	<node id="9822524225" lat="64.9012894" lon="13.1637427" version="1" timestamp="2022-06-16T11:52:57Z" changeset="122460851" uid="3497659" user="NKA">
		<tag k="name" v="Orheim" />
		<tag k="place" v="farm" />
		<tag k="ssr:stedsnr" v="500096" />
	</node>
	<node id="9822524226" lat="64.8651047" lon="13.1182034" version="1" timestamp="2022-06-16T11:52:57Z" changeset="122460851" uid="3497659" user="NKA">
		<tag k="name" v="Skogeng" />
		<tag k="place" v="farm" />
		<tag k="ssr:stedsnr" v="197094" />
	</node>
	<node id="9822524227" lat="64.9456758" lon="13.1929051" version="1" timestamp="2022-06-16T11:52:57Z" changeset="122460851" uid="3497659" user="NKA">
		<tag k="name" v="Bergli" />
		<tag k="place" v="farm" />
		<tag k="ssr:stedsnr" v="621174" />
	</node>
	<node id="9822524228" lat="64.9278609" lon="13.1585204" version="1" timestamp="2022-06-16T11:52:57Z" changeset="122460851" uid="3497659" user="NKA">
		<tag k="name" v="Holmen" />
		<tag k="place" v="neighbourhood" />
		<tag k="ssr:stedsnr" v="525212" />
	</node>
	<node id="9822524229" lat="64.952083" lon="13.1990916" version="1" timestamp="2022-06-16T11:52:57Z" changeset="122460851" uid="3497659" user="NKA">
		<tag k="name" v="Nyrud" />
		<tag k="place" v="farm" />
		<tag k="ssr:stedsnr" v="621138" />
	</node>
	<node id="9822524230" lat="65.0155836" lon="13.2521895" version="1" timestamp="2022-06-16T11:52:57Z" changeset="122460851" uid="3497659" user="NKA">
		<tag k="name" v="Fjellheim" />
		<tag k="place" v="farm" />
		<tag k="ssr:stedsnr" v="257875" />
	</node>
	<node id="9822524231" lat="64.9564099" lon="13.1913407" version="1" timestamp="2022-06-16T11:52:57Z" changeset="122460851" uid="3497659" user="NKA">
		<tag k="name" v="Aunet" />
		<tag k="place" v="farm" />
		<tag k="ssr:stedsnr" v="621140" />
	</node>
	<node id="9822524232" lat="64.9114491" lon="13.0817303" version="1" timestamp="2022-06-16T11:52:57Z" changeset="122460851" uid="3497659" user="NKA">
		<tag k="name" v="Syrstad" />
		<tag k="place" v="farm" />
		<tag k="ssr:stedsnr" v="410466" />
	</node>
	<node id="9822524233" lat="64.8250806" lon="12.9191666" version="1" timestamp="2022-06-16T11:52:57Z" changeset="122460851" uid="3497659" user="NKA">
		<tag k="name" v="Domåsen" />
		<tag k="place" v="farm" />
		<tag k="ssr:stedsnr" v="864098" />
	</node>
	<node id="9822524234" lat="64.8973806" lon="13.1529278" version="1" timestamp="2022-06-16T11:52:57Z" changeset="122460851" uid="3497659" user="NKA">
		<tag k="alt_name" v="Finnvollen, nordre;Nordre Finnvollen;Finnvollan nordre" />
		<tag k="name" v="Nordre Finnvollan" />
		<tag k="place" v="farm" />
		<tag k="ssr:stedsnr" v="682092" />
	</node>
	<node id="9822524235" lat="64.686364" lon="12.8216363" version="1" timestamp="2022-06-16T11:52:57Z" changeset="122460851" uid="3497659" user="NKA">
		<tag k="name" v="Borhaugen" />
		<tag k="place" v="farm" />
		<tag k="ssr:stedsnr" v="533770" />
	</node>
	<node id="9822524236" lat="64.8257083" lon="13.0707862" version="1" timestamp="2022-06-16T11:52:57Z" changeset="122460851" uid="3497659" user="NKA">
		<tag k="name" v="Lundemo" />
		<tag k="place" v="farm" />
		<tag k="ssr:stedsnr" v="621097" />
	</node>
	<node id="9822524237" lat="64.8471203" lon="13.0687375" version="1" timestamp="2022-06-16T11:52:57Z" changeset="122460851" uid="3497659" user="NKA">
		<tag k="alt_name" v="Østjord" />
		<tag k="name" v="Austjord" />
		<tag k="place" v="farm" />
		<tag k="ssr:stedsnr" v="621119" />
	</node>
	<node id="9822524238" lat="64.8869837" lon="13.0742596" version="1" timestamp="2022-06-16T11:52:57Z" changeset="122460851" uid="3497659" user="NKA">
		<tag k="name" v="Namstad" />
		<tag k="place" v="farm" />
		<tag k="ssr:stedsnr" v="621076" />
	</node>
	<node id="9822524239" lat="64.7584139" lon="12.8477999" version="1" timestamp="2022-06-16T11:52:57Z" changeset="122460851" uid="3497659" user="NKA">
		<tag k="alt_name" v="Skarvåssetran" />
		<tag k="name" v="Skarvåssætra" />
		<tag k="place" v="locality" />
		<tag k="ssr:stedsnr" v="682011" />
	</node>
	<node id="9822524240" lat="64.6828857" lon="12.8290013" version="1" timestamp="2022-06-16T11:52:57Z" changeset="122460851" uid="3497659" user="NKA">
		<tag k="name" v="Åsen" />
		<tag k="place" v="farm" />
		<tag k="ssr:stedsnr" v="351747" />
	</node>
	<node id="9822524241" lat="64.9378517" lon="13.1880756" version="1" timestamp="2022-06-16T11:52:57Z" changeset="122460851" uid="3497659" user="NKA">
		<tag k="name" v="Heimstad" />
		<tag k="place" v="farm" />
		<tag k="ssr:stedsnr" v="135173" />
	</node>
	<node id="9822524242" lat="64.7242733" lon="12.7910738" version="1" timestamp="2022-06-16T11:52:57Z" changeset="122460851" uid="3497659" user="NKA">
		<tag k="name" v="Lindsetmoen" />
		<tag k="place" v="farm" />
		<tag k="ssr:stedsnr" v="560663" />
	</node>
	<node id="9822524243" lat="64.8426306" lon="13.0651668" version="1" timestamp="2022-06-16T11:52:57Z" changeset="122460851" uid="3497659" user="NKA">
		<tag k="name" v="Gammelheimen" />
		<tag k="place" v="locality" />
		<tag k="ssr:stedsnr" v="652473" />
	</node>
	<node id="9822524244" lat="64.7825849" lon="12.890236" version="1" timestamp="2022-06-16T11:52:57Z" changeset="122460851" uid="3497659" user="NKA">
		<tag k="name" v="Elvset" />
		<tag k="place" v="farm" />
		<tag k="ssr:stedsnr" v="713640" />
	</node>
	<node id="9822524245" lat="64.8914347" lon="13.146793" version="1" timestamp="2022-06-16T11:52:57Z" changeset="122460851" uid="3497659" user="NKA">
		<tag k="name" v="Kløvermoen" />
		<tag k="place" v="farm" />
		<tag k="ssr:stedsnr" v="288296" />
	</node>
	<node id="9822524246" lat="65.100375" lon="13.3463361" version="1" timestamp="2022-06-16T11:52:57Z" changeset="122460851" uid="3497659" user="NKA">
		<tag k="name" v="Engstrømplassen" />
		<tag k="place" v="locality" />
		<tag k="ssr:stedsnr" v="773364" />
	</node>
	<node id="9822524247" lat="64.9297139" lon="13.1554194" version="1" timestamp="2022-06-16T11:52:57Z" changeset="122460851" uid="3497659" user="NKA">
		<tag k="name" v="Håpnestunet" />
		<tag k="place" v="neighbourhood" />
		<tag k="ssr:stedsnr" v="282180" />
	</node>
	<node id="9822524248" lat="64.9119595" lon="13.0832727" version="1" timestamp="2022-06-16T11:52:57Z" changeset="122460851" uid="3497659" user="NKA">
		<tag k="name" v="Åsli" />
		<tag k="place" v="farm" />
		<tag k="ssr:stedsnr" v="349517" />
	</node>
	<node id="9822524249" lat="65.0746514" lon="13.3442481" version="1" timestamp="2022-06-16T11:52:57Z" changeset="122460851" uid="3497659" user="NKA">
		<tag k="name" v="Åsheim" />
		<tag k="place" v="isolated_dwelling" />
		<tag k="ssr:stedsnr" v="196585" />
	</node>
	<node id="9822524250" lat="64.7735639" lon="12.6909138" version="1" timestamp="2022-06-16T11:52:57Z" changeset="122460851" uid="3497659" user="NKA">
		<tag k="name" v="Finnhusmoen" />
		<tag k="place" v="isolated_dwelling" />
		<tag k="ssr:stedsnr" v="560212" />
	</node>
	<node id="9822524251" lat="64.8408166" lon="12.8737916" version="1" timestamp="2022-06-16T11:52:57Z" changeset="122460851" uid="3497659" user="NKA">
		<tag k="alt_name" v="Setran" />
		<tag k="name" v="Sætran" />
		<tag k="place" v="isolated_dwelling" />
		<tag k="ssr:stedsnr" v="135109" />
	</node>
	<node id="9822524252" lat="65.0192516" lon="13.2623994" version="1" timestamp="2022-06-16T11:52:57Z" changeset="122460851" uid="3497659" user="NKA">
		<tag k="name" v="Bjørnstad" />
		<tag k="place" v="farm" />
		<tag k="ssr:stedsnr" v="197853" />
	</node>
	<node id="9822524253" lat="64.9972872" lon="13.1805322" version="1" timestamp="2022-06-16T11:52:57Z" changeset="122460851" uid="3497659" user="NKA">
		<tag k="name" v="Bernehytta" />
		<tag k="place" v="locality" />
		<tag k="ssr:stedsnr" v="975858" />
	</node>
	<node id="9822524254" lat="64.872553" lon="13.1196593" version="1" timestamp="2022-06-16T11:52:57Z" changeset="122460851" uid="3497659" user="NKA">
		<tag k="name" v="Myreng" />
		<tag k="place" v="farm" />
		<tag k="ssr:stedsnr" v="660957" />
	</node>
	<node id="9822524255" lat="64.9968735" lon="13.1813514" version="1" timestamp="2022-06-16T11:52:57Z" changeset="122460851" uid="3497659" user="NKA">
		<tag k="name" v="Frøyningsheimen" />
		<tag k="place" v="locality" />
		<tag k="ssr:stedsnr" v="975857" />
	</node>
	<node id="9822524256" lat="64.7961824" lon="12.9269509" version="1" timestamp="2022-06-16T11:52:57Z" changeset="122460851" uid="3497659" user="NKA">
		<tag k="name" v="Lindmoen" />
		<tag k="place" v="farm" />
		<tag k="ssr:stedsnr" v="682042" />
	</node>
	<node id="9822524257" lat="64.8511299" lon="13.013587" version="1" timestamp="2022-06-16T11:52:57Z" changeset="122460851" uid="3497659" user="NKA">
		<tag k="name" v="Fossmoen" />
		<tag k="place" v="farm" />
		<tag k="ssr:stedsnr" v="135049" />
	</node>
	<node id="9822524258" lat="64.7775556" lon="13.0454667" version="1" timestamp="2022-06-16T11:52:57Z" changeset="122460851" uid="3497659" user="NKA">
		<tag k="name" v="Kvilåsen" />
		<tag k="place" v="isolated_dwelling" />
		<tag k="ssr:stedsnr" v="318015" />
	</node>
	<node id="9822524259" lat="64.9298306" lon="13.1509029" version="1" timestamp="2022-06-16T11:52:57Z" changeset="122460851" uid="3497659" user="NKA">
		<tag k="name" v="Håpnes II" />
		<tag k="place" v="neighbourhood" />
		<tag k="ssr:stedsnr" v="222170" />
	</node>
	<node id="9822524260" lat="64.8964683" lon="13.1522583" version="1" timestamp="2022-06-16T11:52:57Z" changeset="122460851" uid="3497659" user="NKA">
		<tag k="name" v="Finnvollan" />
		<tag k="place" v="hamlet" />
		<tag k="ssr:stedsnr" v="106307" />
	</node>
	<node id="9822524261" lat="65.0782445" lon="13.3126584" version="1" timestamp="2022-06-16T11:52:57Z" changeset="122460851" uid="3497659" user="NKA">
		<tag k="name" v="Vestre Smalåsen" />
		<tag k="place" v="farm" />
		<tag k="ssr:stedsnr" v="14573" />
	</node>
	<node id="9822524262" lat="64.8853476" lon="13.0690513" version="1" timestamp="2022-06-16T11:52:57Z" changeset="122460851" uid="3497659" user="NKA">
		<tag k="name" v="Fredvang" />
		<tag k="place" v="farm" />
		<tag k="ssr:stedsnr" v="15102" />
	</node>
	<node id="9822524263" lat="64.8651206" lon="12.881902" version="1" timestamp="2022-06-16T11:52:57Z" changeset="122460851" uid="3497659" user="NKA">
		<tag k="name" v="Nessan" />
		<tag k="place" v="hamlet" />
		<tag k="ssr:stedsnr" v="743093" />
	</node>
	<node id="9822524264" lat="65.08895" lon="13.3272862" version="1" timestamp="2022-06-16T11:52:57Z" changeset="122460851" uid="3497659" user="NKA">
		<tag k="name" v="Utheim" />
		<tag k="place" v="farm" />
		<tag k="ssr:stedsnr" v="560636" />
	</node>
	<node id="9822524265" lat="64.7378583" lon="12.98015" version="1" timestamp="2022-06-16T11:52:57Z" changeset="122460851" uid="3497659" user="NKA">
		<tag k="alt_name" v="Tunnsjøplass" />
		<tag k="name" v="Tunnsjødalsplassen" />
		<tag k="place" v="locality" />
		<tag k="ssr:stedsnr" v="14617" />
	</node>
	<node id="9822524266" lat="64.8452722" lon="13.0502888" version="1" timestamp="2022-06-16T11:52:57Z" changeset="122460851" uid="3497659" user="NKA">
		<tag k="name" v="Granheim" />
		<tag k="place" v="farm" />
		<tag k="ssr:stedsnr" v="75125" />
	</node>
	<node id="9822524267" lat="64.9205485" lon="13.1801232" version="1" timestamp="2022-06-16T11:52:57Z" changeset="122460851" uid="3497659" user="NKA">
		<tag k="name" v="Sandåmoen" />
		<tag k="place" v="hamlet" />
		<tag k="ssr:stedsnr" v="743204" />
	</node>
	<node id="9822524268" lat="64.9393028" lon="13.1718917" version="1" timestamp="2022-06-16T11:52:57Z" changeset="122460851" uid="3497659" user="NKA">
		<tag k="name" v="Nyheim" />
		<tag k="place" v="farm" />
		<tag k="ssr:stedsnr" v="363386" />
	</node>
	<node id="9822524269" lat="64.905843" lon="13.0776052" version="1" timestamp="2022-06-16T11:52:57Z" changeset="122460851" uid="3497659" user="NKA">
		<tag k="name" v="Bjørtun" />
		<tag k="place" v="farm" />
		<tag k="ssr:stedsnr" v="743191" />
	</node>
	<node id="9822524270" lat="64.9028716" lon="13.1656732" version="1" timestamp="2022-06-16T11:52:57Z" changeset="122460851" uid="3497659" user="NKA">
		<tag k="alt_name" v="Løvås" />
		<tag k="name" v="Lauvås" />
		<tag k="place" v="farm" />
		<tag k="ssr:stedsnr" v="318145" />
	</node>
	<node id="9822524271" lat="65.0693326" lon="13.3337883" version="1" timestamp="2022-06-16T11:52:57Z" changeset="122460851" uid="3497659" user="NKA">
		<tag k="name" v="Sandnes" />
		<tag k="place" v="isolated_dwelling" />
		<tag k="ssr:stedsnr" v="318676" />
	</node>
	<node id="9822524272" lat="65.0777917" lon="13.3182499" version="1" timestamp="2022-06-16T11:52:57Z" changeset="122460851" uid="3497659" user="NKA">
		<tag k="name" v="Alfheim" />
		<tag k="place" v="farm" />
		<tag k="ssr:stedsnr" v="925677" />
	</node>
	<node id="9822524273" lat="64.6435139" lon="13.1008334" version="1" timestamp="2022-06-16T11:52:57Z" changeset="122460851" uid="3497659" user="NKA">
		<tag k="name" v="Myra" />
		<tag k="place" v="neighbourhood" />
		<tag k="ssr:stedsnr" v="707210" />
	</node>
	<node id="9822524274" lat="65.076975" lon="13.3316029" version="1" timestamp="2022-06-16T11:52:57Z" changeset="122460851" uid="3497659" user="NKA">
		<tag k="name" v="Solhaug" />
		<tag k="place" v="farm" />
		<tag k="ssr:stedsnr" v="317583" />
	</node>
	<node id="9822524275" lat="64.6446694" lon="13.1163944" version="1" timestamp="2022-06-16T11:52:57Z" changeset="122460851" uid="3497659" user="NKA">
		<tag k="name" v="Lia" />
		<tag k="place" v="neighbourhood" />
		<tag k="ssr:stedsnr" v="889202" />
	</node>
	<node id="9822524276" lat="65.0768054" lon="13.3318933" version="1" timestamp="2022-06-16T11:52:57Z" changeset="122460851" uid="3497659" user="NKA">
		<tag k="name" v="Solstad" />
		<tag k="place" v="farm" />
		<tag k="ssr:stedsnr" v="45373" />
	</node>
	<node id="9822524277" lat="64.6442361" lon="13.1116973" version="1" timestamp="2022-06-16T11:52:57Z" changeset="122460851" uid="3497659" user="NKA">
		<tag k="name" v="Kleiva" />
		<tag k="place" v="neighbourhood" />
		<tag k="ssr:stedsnr" v="889200" />
	</node>
	<node id="9822524278" lat="65.0649444" lon="13.3407334" version="1" timestamp="2022-06-16T11:52:57Z" changeset="122460851" uid="3497659" user="NKA">
		<tag k="name" v="Oddoenget" />
		<tag k="place" v="locality" />
		<tag k="ssr:stedsnr" v="500719" />
	</node>
	<node id="9822524279" lat="65.0931795" lon="13.3308152" version="1" timestamp="2022-06-16T11:52:57Z" changeset="122460851" uid="3497659" user="NKA">
		<tag k="name" v="Smalvatnet" />
		<tag k="place" v="farm" />
		<tag k="ssr:stedsnr" v="621723" />
	</node>
	<node id="9822524280" lat="65.08045" lon="13.3154027" version="1" timestamp="2022-06-16T11:52:57Z" changeset="122460851" uid="3497659" user="NKA">
		<tag k="name" v="Austre Smalåsen" />
		<tag k="place" v="farm" />
		<tag k="ssr:stedsnr" v="621667" />
	</node>
	<node id="9822524281" lat="64.8711417" lon="12.88575" version="1" timestamp="2022-06-16T11:52:57Z" changeset="122460851" uid="3497659" user="NKA">
		<tag k="alt_name" v="Moen" />
		<tag k="name" v="Moan" />
		<tag k="place" v="isolated_dwelling" />
		<tag k="ssr:stedsnr" v="257085" />
	</node>
	<node id="9822524282" lat="65.0808084" lon="13.2692611" version="1" timestamp="2022-06-16T11:52:57Z" changeset="122460851" uid="3497659" user="NKA">
		<tag k="name" v="Dale" />
		<tag k="place" v="farm" />
		<tag k="ssr:stedsnr" v="75679" />
	</node>
	<node id="9822524283" lat="65.0403337" lon="13.2860764" version="1" timestamp="2022-06-16T11:52:57Z" changeset="122460851" uid="3497659" user="NKA">
		<tag k="name" v="Mellingsmoen" />
		<tag k="place" v="farm" />
		<tag k="ssr:stedsnr" v="803869" />
	</node>
	<node id="9822524284" lat="64.7857683" lon="12.8882654" version="1" timestamp="2022-06-16T11:52:57Z" changeset="122460851" uid="3497659" user="NKA">
		<tag k="name" v="Flåttedal" />
		<tag k="place" v="farm" />
		<tag k="ssr:stedsnr" v="167656" />
	</node>
	<node id="9822524285" lat="65.0333861" lon="13.2754694" version="1" timestamp="2022-06-16T11:52:57Z" changeset="122460851" uid="3497659" user="NKA">
		<tag k="alt_name" v="Løvmo" />
		<tag k="name" v="Løvmoen" />
		<tag k="place" v="farm" />
		<tag k="ssr:stedsnr" v="500897" />
	</node>
	<node id="9822524286" lat="65.0361639" lon="13.2770417" version="1" timestamp="2022-06-16T11:52:57Z" changeset="122460851" uid="3497659" user="NKA">
		<tag k="name" v="Voll" />
		<tag k="place" v="isolated_dwelling" />
		<tag k="ssr:stedsnr" v="925906" />
	</node>
	<node id="9822524287" lat="65.082575" lon="13.3217528" version="1" timestamp="2022-06-16T11:52:57Z" changeset="122460851" uid="3497659" user="NKA">
		<tag k="name" v="Åsly" />
		<tag k="place" v="farm" />
		<tag k="ssr:stedsnr" v="196586" />
	</node>
	<node id="9822524288" lat="64.7762961" lon="12.6982715" version="1" timestamp="2022-06-16T11:52:57Z" changeset="122460851" uid="3497659" user="NKA">
		<tag k="alt_name" v="Strompdalen, vestre" />
		<tag k="name" v="Vestre Strompdalen" />
		<tag k="place" v="farm" />
		<tag k="ssr:stedsnr" v="804277" />
	</node>
	<node id="9822524289" lat="65.0446889" lon="13.286286" version="1" timestamp="2022-06-16T11:52:57Z" changeset="122460851" uid="3497659" user="NKA">
		<tag k="name" v="Granly" />
		<tag k="place" v="farm" />
		<tag k="ssr:stedsnr" v="378889" />
	</node>
	<node id="9822524290" lat="64.8495284" lon="13.0757368" version="1" timestamp="2022-06-16T11:52:57Z" changeset="122460851" uid="3497659" user="NKA">
		<tag k="name" v="Myrmo" />
		<tag k="place" v="farm" />
		<tag k="ssr:stedsnr" v="75122" />
	</node>
	<node id="9822524291" lat="65.0535745" lon="13.3251606" version="1" timestamp="2022-06-16T11:52:57Z" changeset="122460851" uid="3497659" user="NKA">
		<tag k="name" v="Snåsamoen" />
		<tag k="place" v="isolated_dwelling" />
		<tag k="ssr:stedsnr" v="257897" />
	</node>
	<node id="9822524292" lat="64.6787516" lon="12.8316068" version="1" timestamp="2022-06-16T11:52:57Z" changeset="122460851" uid="3497659" user="NKA">
		<tag k="name" v="Setervollen" />
		<tag k="place" v="farm" />
		<tag k="ssr:stedsnr" v="776733" />
	</node>
	<node id="9822524293" lat="64.8310342" lon="12.9874849" version="1" timestamp="2022-06-16T11:52:57Z" changeset="122460851" uid="3497659" user="NKA">
		<tag k="name" v="Breifossmoen" />
		<tag k="place" v="farm" />
		<tag k="ssr:stedsnr" v="257103" />
	</node>
	<node id="9822524294" lat="65.0081674" lon="13.2561618" version="1" timestamp="2022-06-16T11:52:57Z" changeset="122460851" uid="3497659" user="NKA">
		<tag k="name" v="Kvilheim" />
		<tag k="place" v="farm" />
		<tag k="ssr:stedsnr" v="136853" />
	</node>
	<node id="9822524295" lat="65.0616167" lon="13.3027861" version="1" timestamp="2022-06-16T11:52:57Z" changeset="122460851" uid="3497659" user="NKA">
		<tag k="name" v="Åsnes" />
		<tag k="place" v="farm" />
		<tag k="ssr:stedsnr" v="135636" />
	</node>
	<node id="9822524296" lat="65.0801667" lon="13.2621694" version="1" timestamp="2022-06-16T11:52:57Z" changeset="122460851" uid="3497659" user="NKA">
		<tag k="name" v="Fløan" />
		<tag k="place" v="farm" />
		<tag k="ssr:stedsnr" v="135616" />
	</node>
	<node id="9822524297" lat="64.8175876" lon="13.0623099" version="1" timestamp="2022-06-16T11:52:57Z" changeset="122460851" uid="3497659" user="NKA">
		<tag k="name" v="Brekka" />
		<tag k="place" v="hamlet" />
		<tag k="ssr:stedsnr" v="196090" />
	</node>
	<node id="9822524298" lat="64.7102556" lon="12.7773779" version="1" timestamp="2022-06-16T11:52:57Z" changeset="122460851" uid="3497659" user="NKA">
		<tag k="name" v="Bjerkan" />
		<tag k="place" v="farm" />
		<tag k="ssr:stedsnr" v="742644" />
	</node>
	<node id="9822524299" lat="64.9627805" lon="13.0211777" version="1" timestamp="2022-06-16T11:52:57Z" changeset="122460851" uid="3497659" user="NKA">
		<tag k="alt_name" v="Bertilsetran" />
		<tag k="historic" v="shieling" />
		<tag k="name" v="Bertilsætran" />
		<tag k="place" v="isolated_dwelling" />
		<tag k="ssr:stedsnr" v="75152" />
	</node>
	<node id="9822524300" lat="64.7209917" lon="12.8651527" version="1" timestamp="2022-06-16T11:52:57Z" changeset="122460851" uid="3497659" user="NKA">
		<tag k="name" v="Hestmyrhytta" />
		<tag k="place" v="locality" />
		<tag k="ssr:stedsnr" v="682721" />
	</node>
	<node id="9822524301" lat="64.9179498" lon="13.0771111" version="1" timestamp="2022-06-16T11:52:57Z" changeset="122460851" uid="3497659" user="NKA">
		<tag k="name" v="Bjørhusdalen" />
		<tag k="place" v="hamlet" />
		<tag k="ssr:stedsnr" v="208422" />
	</node>
	<node id="9822524302" lat="64.9055018" lon="13.0592814" version="1" timestamp="2022-06-16T11:52:57Z" changeset="122460851" uid="3497659" user="NKA">
		<tag k="name" v="Neset" />
		<tag k="place" v="farm" />
		<tag k="ssr:stedsnr" v="500191" />
	</node>
	<node id="9822524303" lat="65.0577139" lon="13.3032328" version="1" timestamp="2022-06-16T11:52:57Z" changeset="122460851" uid="3497659" user="NKA">
		<tag k="name" v="Myran" />
		<tag k="place" v="farm" />
		<tag k="ssr:stedsnr" v="288304" />
	</node>
	<node id="9822524304" lat="64.694275" lon="12.760591" version="1" timestamp="2022-06-16T11:52:57Z" changeset="122460851" uid="3497659" user="NKA">
		<tag k="name" v="Heimly" />
		<tag k="place" v="hamlet" />
		<tag k="ssr:stedsnr" v="500417" />
	</node>
	<node id="9822524305" lat="64.9713704" lon="13.2176773" version="1" timestamp="2022-06-16T11:52:57Z" changeset="122460851" uid="3497659" user="NKA">
		<tag k="name" v="Stormoen" />
		<tag k="place" v="farm" />
		<tag k="ssr:stedsnr" v="439026" />
	</node>
	<node id="9822524306" lat="64.77965" lon="12.7021112" version="1" timestamp="2022-06-16T11:52:57Z" changeset="122460851" uid="3497659" user="NKA">
		<tag k="alt_name" v="Strompdalen, austre" />
		<tag k="name" v="Austre Strompdalen" />
		<tag k="place" v="farm" />
		<tag k="ssr:stedsnr" v="318240" />
	</node>
	<node id="9822524307" lat="64.9072444" lon="13.1652055" version="1" timestamp="2022-06-16T11:52:57Z" changeset="122460851" uid="3497659" user="NKA">
		<tag k="name" v="Vollan" />
		<tag k="place" v="farm" />
		<tag k="ssr:stedsnr" v="743189" />
	</node>
	<node id="9822524308" lat="64.8824194" lon="13.1316028" version="1" timestamp="2022-06-16T11:52:57Z" changeset="122460851" uid="3497659" user="NKA">
		<tag k="name" v="Sollia" />
		<tag k="place" v="farm" />
		<tag k="ssr:stedsnr" v="743089" />
	</node>
	<node id="9822524309" lat="64.9528685" lon="13.1871518" version="1" timestamp="2022-06-16T11:52:57Z" changeset="122460851" uid="3497659" user="NKA">
		<tag k="name" v="Håpnes" />
		<tag k="place" v="hamlet" />
		<tag k="ssr:stedsnr" v="75141" />
	</node>
	<node id="9822524310" lat="64.7355167" lon="12.743225" version="1" timestamp="2022-06-16T11:52:57Z" changeset="122460851" uid="3497659" user="NKA">
		<tag k="historic" v="shieling" />
		<tag k="name" v="Lindsetmosetran" />
		<tag k="place" v="isolated_dwelling" />
		<tag k="ssr:stedsnr" v="409353" />
	</node>
	<node id="9822524311" lat="64.89969" lon="13.1603985" version="1" timestamp="2022-06-16T11:52:57Z" changeset="122460851" uid="3497659" user="NKA">
		<tag k="alt_name" v="Østvang" />
		<tag k="name" v="Austvang" />
		<tag k="place" v="farm" />
		<tag k="ssr:stedsnr" v="682094" />
	</node>
	<node id="9822524312" lat="64.7658994" lon="12.700008" version="1" timestamp="2022-06-16T11:52:57Z" changeset="122460851" uid="3497659" user="NKA">
		<tag k="name" v="Fossbakk" />
		<tag k="place" v="farm" />
		<tag k="ssr:stedsnr" v="136265" />
	</node>
	<node id="9822524313" lat="65.0146306" lon="13.2472408" version="1" timestamp="2022-06-16T11:52:57Z" changeset="122460851" uid="3497659" user="NKA">
		<tag k="name" v="Hovland" />
		<tag k="place" v="farm" />
		<tag k="ssr:stedsnr" v="804845" />
	</node>
	<node id="9822524314" lat="64.922525" lon="13.1746056" version="1" timestamp="2022-06-16T11:52:57Z" changeset="122460851" uid="3497659" user="NKA">
		<tag k="name" v="Sandstad" />
		<tag k="place" v="locality" />
		<tag k="ssr:stedsnr" v="591285" />
	</node>
	<node id="9822524315" lat="64.8850904" lon="13.138942" version="1" timestamp="2022-06-16T11:52:57Z" changeset="122460851" uid="3497659" user="NKA">
		<tag k="name" v="Heggstad" />
		<tag k="place" v="farm" />
		<tag k="ssr:stedsnr" v="379090" />
	</node>
	<node id="9822524316" lat="64.952408" lon="13.2321673" version="1" timestamp="2022-06-16T11:52:57Z" changeset="122460851" uid="3497659" user="NKA">
		<tag k="name" v="Bergliloddo" />
		<tag k="place" v="locality" />
		<tag k="ssr:stedsnr" v="925053" />
	</node>
	<node id="9822524317" lat="64.7143658" lon="12.7921399" version="1" timestamp="2022-06-16T11:52:57Z" changeset="122460851" uid="3497659" user="NKA">
		<tag k="name" v="Kjelmoen" />
		<tag k="place" v="hamlet" />
		<tag k="ssr:stedsnr" v="864699" />
	</node>
	<node id="9822524318" lat="64.9312035" lon="13.157649" version="1" timestamp="2022-06-16T11:52:57Z" changeset="122460851" uid="3497659" user="NKA">
		<tag k="name" v="Håpnes I" />
		<tag k="place" v="neighbourhood" />
		<tag k="ssr:stedsnr" v="950212" />
	</node>
	<node id="9822524319" lat="64.9996105" lon="13.2605621" version="1" timestamp="2022-06-16T11:52:57Z" changeset="122460851" uid="3497659" user="NKA">
		<tag k="name" v="Steinåmoen" />
		<tag k="place" v="farm" />
		<tag k="ssr:stedsnr" v="257011" />
	</node>
	<node id="9822524320" lat="64.9055805" lon="13.1719555" version="1" timestamp="2022-06-16T11:52:57Z" changeset="122460851" uid="3497659" user="NKA">
		<tag k="name" v="Velte" />
		<tag k="place" v="locality" />
		<tag k="ssr:stedsnr" v="773417" />
	</node>
	<node id="9822524321" lat="64.9360186" lon="13.1856909" version="1" timestamp="2022-06-16T11:52:57Z" changeset="122460851" uid="3497659" user="NKA">
		<tag k="alt_name" v="Myrvold" />
		<tag k="name" v="Myrvoll" />
		<tag k="place" v="farm" />
		<tag k="ssr:stedsnr" v="803189" />
	</node>
	<node id="9822524322" lat="64.8763051" lon="13.1208883" version="1" timestamp="2022-06-16T11:52:57Z" changeset="122460851" uid="3497659" user="NKA">
		<tag k="alt_name" v="Finnvollan, vestre;Finnvollan vestre" />
		<tag k="name" v="Vestre Finnvollan" />
		<tag k="place" v="hamlet" />
		<tag k="ssr:stedsnr" v="379094" />
	</node>
	<node id="9822524323" lat="64.659299" lon="12.856838" version="1" timestamp="2022-06-16T11:52:57Z" changeset="122460851" uid="3497659" user="NKA">
		<tag k="name" v="Litlfjellet" />
		<tag k="place" v="farm" />
		<tag k="ssr:stedsnr" v="378381" />
	</node>
	<node id="9822524324" lat="64.6929861" lon="12.7731638" version="1" timestamp="2022-06-16T11:52:57Z" changeset="122460851" uid="3497659" user="NKA">
		<tag k="name" v="Bekkaheimen" />
		<tag k="place" v="farm" />
		<tag k="ssr:stedsnr" v="743382" />
	</node>
	<node id="9822524325" lat="64.8733139" lon="13.1255889" version="1" timestamp="2022-06-16T11:52:57Z" changeset="122460851" uid="3497659" user="NKA">
		<tag k="name" v="Grantun" />
		<tag k="place" v="farm" />
		<tag k="ssr:stedsnr" v="318073" />
	</node>
	<node id="9822524326" lat="64.6911096" lon="12.7212907" version="1" timestamp="2022-06-16T11:52:57Z" changeset="122460851" uid="3497659" user="NKA">
		<tag k="name" v="Lassemoen" />
		<tag k="place" v="farm" />
		<tag k="ssr:stedsnr" v="693653" />
	</node>
	<node id="9822524327" lat="64.9163224" lon="13.1576446" version="1" timestamp="2022-06-16T11:52:57Z" changeset="122460851" uid="3497659" user="NKA">
		<tag k="name" v="Skogmo" />
		<tag k="place" v="farm" />
		<tag k="ssr:stedsnr" v="257177" />
	</node>
	<node id="9822524328" lat="64.7785383" lon="12.7011134" version="1" timestamp="2022-06-16T11:52:57Z" changeset="122460851" uid="3497659" user="NKA">
		<tag k="name" v="Strompdalen" />
		<tag k="place" v="hamlet" />
		<tag k="ssr:stedsnr" v="649283" />
	</node>
	<node id="9822524329" lat="64.8610614" lon="13.1009234" version="1" timestamp="2022-06-16T11:52:57Z" changeset="122460851" uid="3497659" user="NKA">
		<tag k="alt_name" v="Stornesset" />
		<tag k="name" v="Storneset" />
		<tag k="place" v="farm" />
		<tag k="ssr:stedsnr" v="500081" />
	</node>
	<node id="9822524330" lat="64.8968848" lon="13.1497375" version="1" timestamp="2022-06-16T11:52:57Z" changeset="122460851" uid="3497659" user="NKA">
		<tag k="alt_name" v="Finnvollan østre" />
		<tag k="name" v="Østre Finnvollan" />
		<tag k="place" v="farm" />
		<tag k="ssr:stedsnr" v="712412" />
	</node>
	<node id="9822524331" lat="64.7287472" lon="12.8161667" version="1" timestamp="2022-06-16T11:52:57Z" changeset="122460851" uid="3497659" user="NKA">
		<tag k="name" v="Tromsstad" />
		<tag k="place" v="farm" />
		<tag k="ssr:stedsnr" v="303413" />
	</node>
	<node id="9822524332" lat="64.9965283" lon="13.2513437" version="1" timestamp="2022-06-16T11:52:57Z" changeset="122460851" uid="3497659" user="NKA">
		<tag k="alt_name" v="Sommervoll" />
		<tag k="name" v="Håpnessetran" />
		<tag k="place" v="farm" />
		<tag k="ssr:stedsnr" v="500010" />
	</node>
	<node id="9822524333" lat="64.7461611" lon="12.8272862" version="1" timestamp="2022-06-16T11:52:57Z" changeset="122460851" uid="3497659" user="NKA">
		<tag k="historic" v="shieling" />
		<tag k="name" v="Brannansetran" />
		<tag k="place" v="isolated_dwelling" />
		<tag k="ssr:stedsnr" v="167670" />
	</node>
	<node id="9822524334" lat="64.8752659" lon="13.0641971" version="1" timestamp="2022-06-16T11:52:57Z" changeset="122460851" uid="3497659" user="NKA">
		<tag k="name" v="Fossheim" />
		<tag k="place" v="farm" />
		<tag k="ssr:stedsnr" v="76114" />
	</node>
	<node id="9822524335" lat="64.7361473" lon="12.8281945" version="1" timestamp="2022-06-16T11:52:57Z" changeset="122460851" uid="3497659" user="NKA">
		<tag k="name" v="Vestmoen" />
		<tag k="place" v="farm" />
		<tag k="ssr:stedsnr" v="363383" />
	</node>
	<node id="9822524336" lat="64.9450944" lon="12.848475" version="1" timestamp="2022-06-16T11:52:57Z" changeset="122460851" uid="3497659" user="NKA">
		<tag k="name" v="Grønlihytta" />
		<tag k="place" v="isolated_dwelling" />
		<tag k="ssr:stedsnr" v="318127" />
	</node>
	<node id="9822524337" lat="64.8805485" lon="13.1271484" version="1" timestamp="2022-06-16T11:52:57Z" changeset="122460851" uid="3497659" user="NKA">
		<tag k="name" v="Finnvollan" />
		<tag k="place" v="farm" />
		<tag k="ssr:stedsnr" v="955448" />
	</node>
	<node id="9822524338" lat="64.906175" lon="13.0576389" version="1" timestamp="2022-06-16T11:52:57Z" changeset="122460851" uid="3497659" user="NKA">
		<tag k="name" v="Litldal" />
		<tag k="place" v="farm" />
		<tag k="ssr:stedsnr" v="75169" />
	</node>
	<node id="9822524339" lat="64.8891719" lon="13.1462387" version="1" timestamp="2022-06-16T11:52:57Z" changeset="122460851" uid="3497659" user="NKA">
		<tag k="name" v="Nygården" />
		<tag k="place" v="farm" />
		<tag k="ssr:stedsnr" v="955445" />
	</node>
	<node id="9822524340" lat="64.8946063" lon="13.1722151" version="1" timestamp="2022-06-16T11:52:57Z" changeset="122460851" uid="3497659" user="NKA">
		<tag k="alt_name" v="Østli" />
		<tag k="name" v="Austli" />
		<tag k="place" v="farm" />
		<tag k="ssr:stedsnr" v="136100" />
	</node>
	<node id="310694846" lat="64.6929847" lon="12.7318015" version="6" timestamp="2018-07-10T07:10:44Z" changeset="60562439" uid="8524080" user="Entur AS | Bjørn Lie Rapp" />
	<node id="5197139448" lat="64.6924717" lon="12.7323464" version="2" timestamp="2018-07-10T07:12:11Z" changeset="60562439" uid="8524080" user="Entur AS | Bjørn Lie Rapp" />
	<node id="5750979047" lat="64.6934655" lon="12.731287" version="1" timestamp="2018-07-10T07:07:29Z" changeset="60562439" uid="8524080" user="Entur AS | Bjørn Lie Rapp" />
	<node id="4005894986" lat="64.6929878" lon="12.7582658" version="3" timestamp="2018-07-10T07:12:05Z" changeset="60562439" uid="8524080" user="Entur AS | Bjørn Lie Rapp" />
	<node id="5197138835" lat="64.6928333" lon="12.7579267" version="2" timestamp="2018-07-10T07:12:11Z" changeset="60562439" uid="8524080" user="Entur AS | Bjørn Lie Rapp" />
	<node id="5750970066" lat="64.69311" lon="12.7585342" version="1" timestamp="2018-07-10T07:03:50Z" changeset="60562303" uid="8524080" user="Entur AS | Bjørn Lie Rapp" />
	<node id="5197140660" lat="64.6893231" lon="12.7964468" version="1" timestamp="2017-10-28T23:32:51Z" changeset="53329889" uid="2114448" user="FredrikLindseth_import" />
	<node id="5750987463" lat="64.6893656" lon="12.7968528" version="2" timestamp="2022-01-24T21:00:15Z" changeset="116559033" uid="3497659" user="NKA" />
	<node id="5750962049" lat="64.7319258" lon="12.8130878" version="1" timestamp="2018-07-10T07:02:41Z" changeset="60562303" uid="8524080" user="Entur AS | Bjørn Lie Rapp" />
	<node id="5750972681" lat="64.7321694" lon="12.8135197" version="1" timestamp="2018-07-10T07:04:35Z" changeset="60562303" uid="8524080" user="Entur AS | Bjørn Lie Rapp" />
	<node id="5750981168" lat="64.7680716" lon="12.8710312" version="1" timestamp="2018-07-10T07:08:07Z" changeset="60562439" uid="8524080" user="Entur AS | Bjørn Lie Rapp" />
	<node id="5750978719" lat="64.7675744" lon="12.8712765" version="1" timestamp="2018-07-10T07:07:40Z" changeset="60562439" uid="8524080" user="Entur AS | Bjørn Lie Rapp" />
	<node id="5750951759" lat="64.8496648" lon="13.0273369" version="1" timestamp="2018-07-10T07:02:34Z" changeset="60562303" uid="8524080" user="Entur AS | Bjørn Lie Rapp" />
	<node id="5750963671" lat="64.8498713" lon="13.0279449" version="1" timestamp="2018-07-10T07:03:02Z" changeset="60562303" uid="8524080" user="Entur AS | Bjørn Lie Rapp" />
	<node id="5750968503" lat="64.8484427" lon="13.0220317" version="1" timestamp="2018-07-10T07:03:25Z" changeset="60562303" uid="8524080" user="Entur AS | Bjørn Lie Rapp" />
	<node id="5750974912" lat="64.8484914" lon="13.0224566" version="1" timestamp="2018-07-10T07:05:18Z" changeset="60562303" uid="8524080" user="Entur AS | Bjørn Lie Rapp" />
	<node id="5750969048" lat="64.881441" lon="13.170351" version="1" timestamp="2018-07-10T07:03:44Z" changeset="60562303" uid="8524080" user="Entur AS | Bjørn Lie Rapp" />
	<node id="5750975392" lat="64.8814343" lon="13.1706099" version="1" timestamp="2018-07-10T07:05:31Z" changeset="60562303" uid="8524080" user="Entur AS | Bjørn Lie Rapp" />
	<node id="5750980783" lat="64.8839164" lon="13.192656" version="1" timestamp="2018-07-10T07:07:58Z" changeset="60562439" uid="8524080" user="Entur AS | Bjørn Lie Rapp" />
	<node id="5750982450" lat="64.8838809" lon="13.192835" version="1" timestamp="2018-07-10T07:08:25Z" changeset="60562439" uid="8524080" user="Entur AS | Bjørn Lie Rapp" />
	<node id="5750962291" lat="64.9267977" lon="13.1579983" version="1" timestamp="2018-07-10T07:02:57Z" changeset="60562303" uid="8524080" user="Entur AS | Bjørn Lie Rapp" />
	<node id="5750971809" lat="64.9262005" lon="13.1575115" version="1" timestamp="2018-07-10T07:04:22Z" changeset="60562303" uid="8524080" user="Entur AS | Bjørn Lie Rapp" />
	<node id="5750972368" lat="64.9268844" lon="13.1580649" version="1" timestamp="2018-07-10T07:04:50Z" changeset="60562303" uid="8524080" user="Entur AS | Bjørn Lie Rapp" />
	<node id="5750977683" lat="64.9263117" lon="13.1576145" version="1" timestamp="2018-07-10T07:06:05Z" changeset="60562303" uid="8524080" user="Entur AS | Bjørn Lie Rapp" />
	<node id="5750969392" lat="64.9270384" lon="13.1606209" version="1" timestamp="2018-07-10T07:04:13Z" changeset="60562303" uid="8524080" user="Entur AS | Bjørn Lie Rapp" />
	<node id="5750987128" lat="64.926827" lon="13.1609081" version="1" timestamp="2018-07-10T07:09:22Z" changeset="60562439" uid="8524080" user="Entur AS | Bjørn Lie Rapp" />
	<node id="4005674755" lat="64.9310799" lon="13.1613061" version="3" timestamp="2019-02-09T21:34:01Z" changeset="67059585" uid="715936" user="Gazer75" />
	<node id="5750975748" lat="64.9314779" lon="13.1616118" version="1" timestamp="2018-07-10T07:05:33Z" changeset="60562303" uid="8524080" user="Entur AS | Bjørn Lie Rapp" />
	<way id="198971518" version="6" timestamp="2022-01-24T21:00:15Z" changeset="116559033" uid="3497659" user="NKA">
		<tag k="bridge" v="yes" />
		<tag k="highway" v="trunk" />
		<tag k="layer" v="1" />
		<tag k="lit" v="yes" />
		<tag k="maxspeed" v="40" />
		<tag k="name" v="Håpnesbrua" />
		<tag k="ref" v="E 6" />
		<tag k="sidewalk" v="none" />
		<tag k="source:maxspeed" v="sign" />
		<tag k="ssr:stedsnr" v="169873" />
		<tag k="surface" v="asphalt" />
		<tag k="width" v="6" />
		<nd ref="4005674755" />
		<nd ref="5750975748" />
	</way>
	<way id="199666378" version="4" timestamp="2022-01-24T21:00:15Z" changeset="116559033" uid="3497659" user="NKA">
		<tag k="bridge" v="yes" />
		<tag k="destination:backward" v="Trondheim" />
		<tag k="destination:forward" v="Narvik" />
		<tag k="highway" v="trunk" />
		<tag k="lanes" v="2" />
		<tag k="layer" v="1" />
		<tag k="lit" v="no" />
		<tag k="maxspeed" v="80" />
		<tag k="name" v="Flåttådalsovergangen" />
		<tag k="ref" v="E 6" />
		<tag k="sidewalk" v="none" />
		<tag k="source:maxspeed" v="NO:rural" />
		<tag k="ssr:stedsnr" v="472983" />
		<tag k="surface" v="asphalt" />
		<tag k="width" v="7" />
		<nd ref="5750978719" />
		<nd ref="5750981168" />
	</way>
	<way id="199666567" version="3" timestamp="2022-01-24T21:00:15Z" changeset="116559033" uid="3497659" user="NKA">
		<tag k="bridge" v="yes" />
		<tag k="highway" v="primary" />
		<tag k="layer" v="1" />
		<tag k="maxheight" v="4.0" />
		<tag k="maxspeed" v="80" />
		<tag k="name" v="Lassemobrua" />
		<tag k="ref" v="764" />
		<tag k="ssr:stedsnr" v="716885" />
		<nd ref="310694846" />
		<nd ref="5750979047" />
	</way>
	<way id="299954002" version="5" timestamp="2022-01-24T21:00:15Z" changeset="116559033" uid="3497659" user="NKA">
		<tag k="bridge" v="yes" />
		<tag k="highway" v="trunk" />
		<tag k="lanes" v="2" />
		<tag k="layer" v="1" />
		<tag k="lit" v="no" />
		<tag k="maxspeed" v="80" />
		<tag k="name" v="Tromselvbrua" />
		<tag k="ref" v="E 6" />
		<tag k="sidewalk" v="none" />
		<tag k="source:maxspeed" v="NO:rural" />
		<tag k="ssr:stedsnr" v="958903" />
		<tag k="surface" v="asphalt" />
		<tag k="width" v="7" />
		<nd ref="5750962049" />
		<nd ref="5750972681" />
	</way>
	<way id="397791711" version="3" timestamp="2022-01-24T21:00:15Z" changeset="116559033" uid="3497659" user="NKA">
		<tag k="bridge" v="yes" />
		<tag k="highway" v="trunk" />
		<tag k="lanes" v="2" />
		<tag k="layer" v="1" />
		<tag k="lit" v="no" />
		<tag k="maxspeed" v="50" />
		<tag k="name" v="Brekkvasselvbrua" />
		<tag k="ref" v="E 6" />
		<tag k="sidewalk" v="none" />
		<tag k="source:maxspeed" v="sign" />
		<tag k="ssr:stedsnr" v="593853" />
		<tag k="surface" v="asphalt" />
		<tag k="width" v="7" />
		<nd ref="5750951759" />
		<nd ref="5750963671" />
	</way>
	<way id="536511100" version="3" timestamp="2022-01-24T21:00:15Z" changeset="116559033" uid="3497659" user="NKA">
		<tag k="bridge" v="yes" />
		<tag k="highway" v="trunk" />
		<tag k="layer" v="1" />
		<tag k="maxspeed" v="80" />
		<tag k="name" v="Grøndalselvbrua" />
		<tag k="ref" v="E 6" />
		<tag k="ssr:stedsnr" v="777877" />
		<nd ref="5197138835" />
		<nd ref="4005894986" />
	</way>
	<way id="536511135" version="3" timestamp="2022-01-24T21:00:15Z" changeset="116559033" uid="3497659" user="NKA">
		<tag k="bridge" v="yes" />
		<tag k="highway" v="primary" />
		<tag k="layer" v="1" />
		<tag k="maxheight" v="4.0" />
		<tag k="maxspeed" v="80" />
		<tag k="name" v="Lassemobrua" />
		<tag k="ref" v="764" />
		<tag k="ssr:stedsnr" v="716885" />
		<nd ref="5197139448" />
		<nd ref="310694846" />
	</way>
	<way id="606603114" version="2" timestamp="2022-01-24T21:00:15Z" changeset="116559033" uid="3497659" user="NKA">
		<tag k="bridge" v="yes" />
		<tag k="destination:backward" v="Trondheim" />
		<tag k="destination:forward" v="Narvik" />
		<tag k="highway" v="trunk" />
		<tag k="lanes" v="2" />
		<tag k="layer" v="1" />
		<tag k="lit" v="no" />
		<tag k="maxspeed" v="80" />
		<tag k="name" v="Brekkvasselvovergangen" />
		<tag k="ref" v="E 6" />
		<tag k="sidewalk" v="none" />
		<tag k="source:maxspeed" v="NO:rural" />
		<tag k="ssr:stedsnr" v="291982" />
		<tag k="surface" v="asphalt" />
		<tag k="width" v="7" />
		<nd ref="5750968503" />
		<nd ref="5750974912" />
	</way>
	<way id="606603212" version="3" timestamp="2022-01-24T21:00:15Z" changeset="116559033" uid="3497659" user="NKA">
		<tag k="bridge" v="yes" />
		<tag k="highway" v="trunk" />
		<tag k="layer" v="1" />
		<tag k="maxspeed" v="40" />
		<tag k="name" v="Nordre Fosserudbrua" />
		<tag k="ref" v="E 6" />
		<tag k="ssr:stedsnr" v="837898" />
		<nd ref="5750962291" />
		<nd ref="5750972368" />
	</way>
	<way id="606603216" version="2" timestamp="2022-01-24T21:00:15Z" changeset="116559033" uid="3497659" user="NKA">
		<tag k="bridge" v="yes" />
		<tag k="highway" v="trunk" />
		<tag k="layer" v="1" />
		<tag k="maxspeed" v="80" />
		<tag k="name" v="Grøndalselvbrua" />
		<tag k="ref" v="E 6" />
		<tag k="ssr:stedsnr" v="777877" />
		<nd ref="4005894986" />
		<nd ref="5750970066" />
	</way>
	<way id="606603271" version="2" timestamp="2022-01-24T21:00:15Z" changeset="116559033" uid="3497659" user="NKA">
		<tag k="bridge" v="yes" />
		<tag k="highway" v="trunk" />
		<tag k="lanes" v="2" />
		<tag k="layer" v="1" />
		<tag k="lit" v="yes" />
		<tag k="maxspeed" v="40" />
		<tag k="name" v="Søre Fosserudbrua" />
		<tag k="ref" v="E 6" />
		<tag k="sidewalk" v="none" />
		<tag k="source:maxspeed" v="sign" />
		<tag k="ssr:stedsnr" v="48888" />
		<tag k="surface" v="asphalt" />
		<tag k="width" v="7" />
		<nd ref="5750971809" />
		<nd ref="5750977683" />
	</way>
	<way id="606603520" version="2" timestamp="2022-01-24T21:00:15Z" changeset="116559033" uid="3497659" user="NKA">
		<tag k="bridge" v="yes" />
		<tag k="highway" v="primary" />
		<tag k="layer" v="1" />
		<tag k="maxspeed" v="80" />
		<tag k="name" v="Finnfossbrua" />
		<tag k="ref" v="764" />
		<tag k="ssr:stedsnr" v="743391" />
		<nd ref="5197140660" />
		<nd ref="5750987463" />
	</way>
	<way id="606603568" version="2" timestamp="2022-01-24T21:00:15Z" changeset="116559033" uid="3497659" user="NKA">
		<tag k="bridge" v="yes" />
		<tag k="highway" v="primary" />
		<tag k="layer" v="1" />
		<tag k="maxspeed" v="80" />
		<tag k="name" v="Langtjønnbrua" />
		<tag k="ref" v="773" />
		<tag k="ssr:stedsnr" v="472987" />
		<nd ref="5750969048" />
		<nd ref="5750975392" />
	</way>
	<way id="606603749" version="2" timestamp="2022-01-24T21:00:15Z" changeset="116559033" uid="3497659" user="NKA">
		<tag k="bicycle" v="designated" />
		<tag k="bridge" v="yes" />
		<tag k="foot" v="designated" />
		<tag k="highway" v="cycleway" />
		<tag k="layer" v="1" />
		<tag k="name" v="Holmbrua" />
		<tag k="segregated" v="no" />
		<tag k="ssr:stedsnr" v="412865" />
		<tag k="surface" v="asphalt" />
		<nd ref="5750969392" />
		<nd ref="5750987128" />
	</way>
	<way id="606603876" version="2" timestamp="2022-01-24T21:00:15Z" changeset="116559033" uid="3497659" user="NKA">
		<tag k="bridge" v="yes" />
		<tag k="highway" v="primary" />
		<tag k="layer" v="1" />
		<tag k="maxspeed" v="80" />
		<tag k="name" v="Øvre Sponsbekkbrua" />
		<tag k="ref" v="773" />
		<tag k="ssr:stedsnr" v="776993" />
		<nd ref="5750980783" />
		<nd ref="5750982450" />
	</way>
</osm>
