<?xml version="1.0" encoding="UTF-8"?>
<osm generator="osmapis" version="0.6">
	<node id="-401663" lat="61.121219448" lon="8.99566110406">
		<tag k="name" v="Dragmyr" />
		<tag k="natural" v="wetland" />
		<tag k="ssr:stedsnr" v="964367" />
	</node>
	<node id="-402173" lat="61.1004555564" lon="8.84643610753">
		<tag k="name" v="Liastølsmyradn" />
		<tag k="natural" v="wetland" />
		<tag k="ssr:stedsnr" v="830286" />
	</node>
	<node id="-401659" lat="61.0424916708" lon="9.08898889351">
		<tag k="historic" v="shieling" />
		<tag k="name" v="Helgesletta" />
		<tag k="place" v="locality" />
		<tag k="ssr:stedsnr" v="951908" />
	</node>
	<node id="-401657" lat="61.0923222261" lon="8.97316110696">
		<tag k="name" v="Gåsestein" />
		<tag k="natural" v="stone" />
		<tag k="ssr:stedsnr" v="951413" />
	</node>
	<node id="-402040" lat="61.0858055511" lon="8.92381945142">
		<tag k="name" v="Storemyre" />
		<tag k="natural" v="wetland" />
		<tag k="ssr:stedsnr" v="587431" />
	</node>
	<node id="-401911" lat="61.1054361122" lon="9.00036667212">
		<tag k="alt_name" v="Slidremyre" />
		<tag k="name" v="Slidremyri" />
		<tag k="natural" v="wetland" />
		<tag k="ssr:stedsnr" v="370217" />
	</node>
	<node id="-401257" lat="61.1975777761" lon="8.91090833093">
		<tag k="name" v="Skjelsanden" />
		<tag k="natural" v="beach" />
		<tag k="ssr:stedsnr" v="479975" />
		<tag k="surface" v="sand" />
	</node>
	<node id="-402161" lat="61.1444694431" lon="8.97613056289">
		<tag k="name" v="Kvednahusmyre" />
		<tag k="natural" v="wetland" />
		<tag k="ssr:stedsnr" v="828070" />
	</node>
	<node id="-402216" lat="61.0361250032" lon="9.17150278538">
		<tag k="name" v="Føssamyre" />
		<tag k="natural" v="wetland" />
		<tag k="ssr:stedsnr" v="950978" />
	</node>
	<node id="-401429" lat="61.0815611101" lon="8.96481110252">
		<tag k="name" v="Nyjordet" />
		<tag k="place" v="locality" />
		<tag k="ssr:stedsnr" v="708412" />
	</node>
	<node id="-401426" lat="60.9571277748" lon="8.90502778248">
		<tag k="name" v="Grønlimyrane" />
		<tag k="natural" v="wetland" />
		<tag k="ssr:stedsnr" v="708277" />
	</node>
	<node id="-401897" lat="61.0148055544" lon="8.80705833962">
		<tag k="name" v="Nesjamyre" />
		<tag k="natural" v="wetland" />
		<tag k="ssr:stedsnr" v="344649" />
	</node>
	<node id="-401635" lat="61.1717138903" lon="8.9062999934">
		<tag k="name" v="Hølomyr" />
		<tag k="natural" v="wetland" />
		<tag k="ssr:stedsnr" v="903958" />
	</node>
	<node id="-401634" lat="61.1081388899" lon="9.01794444226">
		<tag k="name" v="Rundemyre" />
		<tag k="natural" v="wetland" />
		<tag k="ssr:stedsnr" v="903356" />
	</node>
	<node id="-401886" lat="61.1267194442" lon="8.93905833357">
		<tag k="name" v="Kalvehagin" />
		<tag k="place" v="locality" />
		<tag k="ssr:stedsnr" v="342074" />
	</node>
	<node id="-401373" lat="61.1091444487" lon="9.00047500787">
		<tag k="name" v="Plantejorde" />
		<tag k="place" v="locality" />
		<tag k="ssr:stedsnr" v="478354" />
	</node>
	<node id="-401500" lat="61.076913888" lon="8.91485000432">
		<tag k="name" v="Høgmyri" />
		<tag k="natural" v="wetland" />
		<tag k="ssr:stedsnr" v="735224" />
	</node>
	<node id="-401499" lat="61.072061109" lon="8.90511667507">
		<tag k="name" v="Torvhusmyri" />
		<tag k="natural" v="wetland" />
		<tag k="ssr:stedsnr" v="735223" />
	</node>
	<node id="-401240" lat="61.0034722259" lon="8.84280555764">
		<tag k="name" v="Elgstein" />
		<tag k="natural" v="stone" />
		<tag k="ssr:stedsnr" v="465640" />
	</node>
	<node id="-402135" lat="61.0715499959" lon="9.06647500762">
		<tag k="name" v="Langemyr" />
		<tag k="natural" v="wetland" />
		<tag k="ssr:stedsnr" v="782613" />
	</node>
	<node id="-401833" lat="61.1614444424" lon="8.89119443588">
		<tag k="historic" v="shieling" />
		<tag k="loc_name" v="Stesstølen" />
		<tag k="name" v="Steesstølen" />
		<tag k="place" v="locality" />
		<tag k="ssr:stedsnr" v="189035" />
	</node>
	<node id="-401547" lat="60.9221434871" lon="8.78914513094">
		<tag k="name" v="Skruvlekyrkja" />
		<tag k="natural" v="scree" />
		<tag k="ssr:stedsnr" v="891760" />
	</node>
	<node id="-401492" lat="61.1007277785" lon="8.85632500493">
		<tag k="name" v="Glemyr" />
		<tag k="natural" v="wetland" />
		<tag k="ssr:stedsnr" v="735156" />
	</node>
	<node id="-401234" lat="61.06074167" lon="8.96058055754">
		<tag k="name" v="Bjødnaslette" />
		<tag k="natural" v="wetland" />
		<tag k="ssr:stedsnr" v="284419" />
	</node>
	<node id="-402000" lat="61.0941916702" lon="9.03572223138">
		<tag k="name" v="Nesjamyre" />
		<tag k="natural" v="wetland" />
		<tag k="ssr:stedsnr" v="526995" />
	</node>
	<node id="-402232" lat="61.0902805544" lon="9.02370555046">
		<tag k="name" v="Syndsmyre" />
		<tag k="natural" v="wetland" />
		<tag k="ssr:stedsnr" v="951951" />
	</node>
	<node id="-401358" lat="61.1305722235" lon="8.96224999924">
		<tag k="name" v="Sikt" />
		<tag k="place" v="locality" />
		<tag k="ssr:stedsnr" v="464105" />
	</node>
	<node id="-401869" lat="61.095577782" lon="8.86866111823">
		<tag k="name" v="Kvannegrødi" />
		<tag k="natural" v="wetland" />
		<tag k="ssr:stedsnr" v="310184" />
	</node>
	<node id="-401228" lat="61.1462333345" lon="9.0031055583">
		<tag k="name" v="Mytemyre" />
		<tag k="natural" v="wetland" />
		<tag k="ssr:stedsnr" v="297199" />
	</node>
	<node id="-401227" lat="61.1050666649" lon="9.01866110422">
		<tag k="name" v="Rekobrennmyre" />
		<tag k="natural" v="wetland" />
		<tag k="ssr:stedsnr" v="296320" />
	</node>
	<node id="-401433" lat="60.975644445" lon="8.94510833821">
		<tag k="name" v="Langemyre" />
		<tag k="natural" v="wetland" />
		<tag k="ssr:stedsnr" v="708503" />
	</node>
	<node id="-401996" lat="61.1153277812" lon="8.97195276878">
		<tag k="name" v="Blåflat" />
		<tag k="place" v="locality" />
		<tag k="ssr:stedsnr" v="526387" />
	</node>
	<node id="-401990" lat="61.1411194401" lon="8.86469721628">
		<tag k="name" v="Gullringmyr" />
		<tag k="natural" v="wetland" />
		<tag k="ssr:stedsnr" v="524063" />
	</node>
	<node id="-401346" lat="61.0700166678" lon="9.02574444684">
		<tag k="name" v="Haslejorde" />
		<tag k="place" v="locality" />
		<tag k="ssr:stedsnr" v="405974" />
	</node>
	<node id="-401473" lat="61.0077861131" lon="8.96168055112">
		<tag k="historic" v="shieling" />
		<tag k="name" v="Engiland" />
		<tag k="place" v="locality" />
		<tag k="ssr:stedsnr" v="647469" />
	</node>
	<node id="-401343" lat="60.9863222198" lon="8.79475000191">
		<tag k="name" v="Storemyrane" />
		<tag k="natural" v="wetland" />
		<tag k="ssr:stedsnr" v="405667" />
	</node>
	<node id="-402237" lat="61.1434361121" lon="9.00026388428">
		<tag k="name" v="Myte" />
		<tag k="place" v="locality" />
		<tag k="ssr:stedsnr" v="964297" />
	</node>
	<node id="-401474" lat="61.0116833325" lon="8.91931943812">
		<tag k="name" v="Brakamyre" />
		<tag k="natural" v="wetland" />
		<tag k="ssr:stedsnr" v="647471" />
	</node>
	<node id="-401336" lat="61.119780556" lon="8.95897500346">
		<tag k="name" v="Hønsåkeren" />
		<tag k="place" v="locality" />
		<tag k="ssr:stedsnr" v="405414" />
	</node>
	<node id="-401751" lat="61.1259444415" lon="8.94637500488">
		<tag k="name" v="Leirparten" />
		<tag k="place" v="locality" />
		<tag k="ssr:stedsnr" v="100091" />
	</node>
	<node id="-401078" lat="61.0695388878" lon="9.02197499828">
		<tag k="name" v="Bjødnsjorde" />
		<tag k="place" v="locality" />
		<tag k="ssr:stedsnr" v="223982" />
	</node>
	<node id="-401077" lat="61.085919442" lon="9.0119055569">
		<tag k="name" v="Einangsteinen" />
		<tag k="natural" v="stone" />
		<tag k="ssr:stedsnr" v="223975" />
	</node>
	<node id="-401716" lat="61.0950527758" lon="9.02406111523">
		<tag k="name" v="Tvengimyre" />
		<tag k="natural" v="wetland" />
		<tag k="ssr:stedsnr" v="41992" />
	</node>
	<node id="-401822" lat="61.1494944461" lon="9.0101694426">
		<tag k="name" v="Størrlåvin" />
		<tag k="natural" v="wetland" />
		<tag k="ssr:stedsnr" v="175160" />
	</node>
	<node id="-401074" lat="61.09116944" lon="9.02159167032">
		<tag k="historic" v="shieling" />
		<tag k="name" v="Marnslette" />
		<tag k="place" v="locality" />
		<tag k="ssr:stedsnr" v="223966" />
	</node>
	<node id="-402225" lat="61.0477027795" lon="9.11984722731">
		<tag k="historic" v="shieling" />
		<tag k="name" v="Fauskestølane" />
		<tag k="place" v="locality" />
		<tag k="ssr:stedsnr" v="951582" />
	</node>
	<node id="-401328" lat="60.9115861121" lon="8.88702221859">
		<tag k="name" v="Urdene" />
		<tag k="natural" v="scree" />
		<tag k="ssr:stedsnr" v="403255" />
	</node>
	<node id="-402222" lat="61.0618388899" lon="8.95995278476">
		<tag k="historic" v="shieling" />
		<tag k="name" v="Storstølen" />
		<tag k="place" v="locality" />
		<tag k="ssr:stedsnr" v="951429" />
	</node>
	<node id="-401757" lat="61.0215722235" lon="9.04964999558">
		<tag k="name" v="Nyhagen" />
		<tag k="place" v="locality" />
		<tag k="ssr:stedsnr" v="102238" />
	</node>
	<node id="-401202" lat="61.0266583347" lon="9.10617500715">
		<tag k="historic" v="shieling" />
		<tag k="name" v="Andersonstølen" />
		<tag k="place" v="locality" />
		<tag k="ssr:stedsnr" v="284553" />
	</node>
	<node id="-401706" lat="61.0278250012" lon="9.12789999168">
		<tag k="name" v="Solsteinsmyradn" />
		<tag k="natural" v="wetland" />
		<tag k="ssr:stedsnr" v="41569" />
	</node>
	<node id="-402089" lat="61.0540416695" lon="9.14691389211">
		<tag k="historic" v="shieling" />
		<tag k="name" v="Bergastølen" />
		<tag k="place" v="locality" />
		<tag k="ssr:stedsnr" v="647561" />
	</node>
	<node id="-401192" lat="61.0373750035" lon="8.79271944995">
		<tag k="name" v="Svultamyrane" />
		<tag k="natural" v="wetland" />
		<tag k="ssr:stedsnr" v="282312" />
	</node>
	<node id="-402087" lat="61.0185805598" lon="8.7659972165">
		<tag k="name" v="Nøsamyrane" />
		<tag k="natural" v="wetland" />
		<tag k="ssr:stedsnr" v="645345" />
	</node>
	<node id="-402086" lat="61.0581999977" lon="8.75656110863">
		<tag k="landuse" v="meadow" />
		<tag k="name" v="Ristegilen" />
		<tag k="ssr:stedsnr" v="645324" />
	</node>
	<node id="-401555" lat="61.0620888924" lon="8.9826222131">
		<tag k="name" v="Velta" />
		<tag k="place" v="locality" />
		<tag k="ssr:stedsnr" v="891983" />
	</node>
	<node id="-401187" lat="61.0935194473" lon="9.01461389694">
		<tag k="historic" v="shieling" />
		<tag k="name" v="Engelsstølen" />
		<tag k="place" v="locality" />
		<tag k="ssr:stedsnr" v="162966" />
	</node>
	<node id="-401698" lat="60.9218666645" lon="8.8836805554">
		<tag k="historic" v="shieling" />
		<tag k="name" v="Leikvoll" />
		<tag k="place" v="locality" />
		<tag k="ssr:stedsnr" v="39195" />
	</node>
	<node id="-401441" lat="61.0616444446" lon="8.99426388812">
		<tag k="name" v="Mosjordet" />
		<tag k="place" v="locality" />
		<tag k="ssr:stedsnr" v="708970" />
	</node>
	<node id="-401824" lat="61.1107611068" lon="8.98646665883">
		<tag k="name" v="Kølbrøtmyre" />
		<tag k="natural" v="wetland" />
		<tag k="ssr:stedsnr" v="175349" />
	</node>
	<node id="-401055" lat="61.0631972262" lon="8.96975555788">
		<tag k="historic" v="shieling" />
		<tag k="name" v="Varpet" />
		<tag k="place" v="locality" />
		<tag k="ssr:stedsnr" v="223440" />
	</node>
	<node id="-401950" lat="60.9217055521" lon="8.82875556077">
		<tag k="name" v="Tildheimsmyre" />
		<tag k="natural" v="wetland" />
		<tag k="ssr:stedsnr" v="405789" />
	</node>
	<node id="-401693" lat="60.9737277806" lon="8.75382500146">
		<tag k="name" v="Langefonn" />
		<tag k="place" v="locality" />
		<tag k="ssr:stedsnr" v="9764" />
	</node>
	<node id="-402204" lat="61.0736000042" lon="8.78686388502">
		<tag k="alt_name" v="Sleddudn" />
		<tag k="name" v="Sleddun" />
		<tag k="natural" v="wetland" />
		<tag k="ssr:stedsnr" v="856443" />
	</node>
	<node id="-401435" lat="60.9252861145" lon="8.78302222443">
		<tag k="historic" v="shieling" />
		<tag k="name" v="Bergestølen" />
		<tag k="place" v="locality" />
		<tag k="ssr:stedsnr" v="708735" />
	</node>
	<node id="-401689" lat="61.0657638903" lon="9.06914167451">
		<tag k="alt_name" v="Tøgmyre" />
		<tag k="name" v="Tøgmyr" />
		<tag k="natural" v="wetland" />
		<tag k="ssr:stedsnr" v="7867" />
	</node>
	<node id="-401816" lat="61.055536111" lon="8.92527222981">
		<tag k="name" v="Titresteinen" />
		<tag k="natural" v="stone" />
		<tag k="ssr:stedsnr" v="162438" />
	</node>
	<node id="-401942" lat="61.0830277742" lon="8.88745276997">
		<tag k="historic" v="shieling" />
		<tag k="name" v="Gamlestølen" />
		<tag k="place" v="locality" />
		<tag k="ssr:stedsnr" v="405432" />
	</node>
	<node id="-402132" lat="61.0856166686" lon="9.03100555803">
		<tag k="name" v="Tyriheimdokki" />
		<tag k="place" v="locality" />
		<tag k="ssr:stedsnr" v="769957" />
	</node>
	<node id="-401171" lat="61.1319388896" lon="8.95765277254">
		<tag k="name" v="Sjå" />
		<tag k="place" v="locality" />
		<tag k="ssr:stedsnr" v="160063" />
	</node>
	<node id="-401170" lat="60.9896000028" lon="8.7927388918">
		<tag k="alt_name" v="Fiksusmyre" />
		<tag k="name" v="Fiksusmyri" />
		<tag k="natural" v="wetland" />
		<tag k="ssr:stedsnr" v="130737" />
	</node>
	<node id="-401427" lat="61.0957861086" lon="8.96656944971">
		<tag k="name" v="Skarvestein" />
		<tag k="natural" v="stone" />
		<tag k="ssr:stedsnr" v="708407" />
	</node>
	<node id="-401936" lat="61.1424333294" lon="8.93023610516">
		<tag k="historic" v="shieling" />
		<tag k="name" v="Breiset" />
		<tag k="place" v="locality" />
		<tag k="ssr:stedsnr" v="403076" />
	</node>
	<node id="-402062" lat="61.0925277811" lon="8.91432778519">
		<tag k="name" v="Langemyri" />
		<tag k="natural" v="wetland" />
		<tag k="ssr:stedsnr" v="613189" />
	</node>
	<node id="-401903" lat="61.025649999" lon="8.75117500618">
		<tag k="name" v="Nøsaurde" />
		<tag k="natural" v="scree" />
		<tag k="ssr:stedsnr" v="355956" />
	</node>
	<node id="-401090" lat="61.0726111101" lon="8.89364166495">
		<tag k="name" v="Tjuvesteinadn" />
		<tag k="natural" v="stone" />
		<tag k="ssr:stedsnr" v="41422" />
	</node>
	<node id="-401162" lat="61.0758500012" lon="8.89382499419">
		<tag k="landuse" v="meadow" />
		<tag k="name" v="Fetidn" />
		<tag k="ssr:stedsnr" v="102486" />
	</node>
	<node id="-402007" lat="61.1373527747" lon="8.99439166196">
		<tag k="name" v="Kvålsmørke" />
		<tag k="place" v="locality" />
		<tag k="ssr:stedsnr" v="540272" />
	</node>
	<node id="-401413" lat="60.9221111101" lon="8.81998610668">
		<tag k="name" v="Augunslappen" />
		<tag k="natural" v="wetland" />
		<tag k="ssr:stedsnr" v="526779" />
	</node>
	<node id="-402051" lat="61.085352776" lon="8.98237221835">
		<tag k="name" v="Tingsteinen" />
		<tag k="natural" v="stone" />
		<tag k="ssr:stedsnr" v="587942" />
	</node>
</osm>
