<?xml version="1.0" encoding="UTF-8"?>
<osm version="0.6" generator="osmapis">
	<node lat="61.08933611262909" lon="8.963524998220578" id="-45570">
		<tag k="name" v="Sløtet" />
		<tag k="natural" v="cape" />
		<tag k="ssr:stedsnr" v="7213" />
	</node>
	<node lat="61.077250000401115" lon="8.726394449371151" id="-45573">
		<tag k="name" v="Pyttingen" />
		<tag k="natural" v="strait" />
		<tag k="ssr:stedsnr" v="7401" />
	</node>
	<node lat="60.95920277685515" lon="8.959725002008351" id="-45577">
		<tag k="name" v="Rundtjernet" />
		<tag k="natural" v="water" />
		<tag k="old_name" v="Rundtjednet" />
		<tag k="ssr:stedsnr" v="9092" />
	</node>
	<node lat="61.085958333637834" lon="8.97117222856838" id="-45586">
		<tag k="name" v="Tobba" />
		<tag k="place" v="islet" />
		<tag k="ssr:stedsnr" v="41411" />
	</node>
	<node lat="61.08154444407794" lon="8.924811115148023" id="-45603">
		<tag k="name" v="Skardstølbekken" />
		<tag k="ssr:stedsnr" v="67243" />
		<tag k="waterway" v="stream" />
	</node>
	<node lat="61.05677499862694" lon="8.787491662998901" id="-45610">
		<tag k="name" v="Hulja" />
		<tag k="ssr:stedsnr" v="68403" />
		<tag k="waterway" v="river" />
	</node>
	<node lat="60.93951388801069" lon="8.769800001973431" id="-45611">
		<tag k="alt_name" v="Bukonofjorden" />
		<tag k="name" v="Bukonefjorden" />
		<tag k="natural" v="water" />
		<tag k="ssr:stedsnr" v="69887" />
	</node>
	<node lat="60.97191666250868" lon="9.1736611159012" id="-45612">
		<tag k="alt_name" v="Strøndafjorden;Strandefjorden" />
		<tag k="name" v="Strondafjorden" />
		<tag k="natural" v="water" />
		<tag k="old_name" v="Stondafjorden" />
		<tag k="ssr:stedsnr" v="70076" />
		<tag k="water" v="lake" />
	</node>
	<node lat="61.030661113689256" lon="8.827430559348208" id="-45616">
		<tag k="name" v="Kringeltjern" />
		<tag k="natural" v="water" />
		<tag k="ssr:stedsnr" v="100319" />
	</node>
	<node lat="61.046211112407555" lon="8.86057222698397" id="-45621">
		<tag k="name" v="Syndinosen" />
		<tag k="natural" v="bay" />
		<tag k="ssr:stedsnr" v="102477" />
	</node>
	<node lat="61.06055277784818" lon="8.966725003748568" id="-45637">
		<tag k="name" v="Trillefossen" />
		<tag k="natural" v="waterfall" />
		<tag k="ssr:stedsnr" v="249851" />
	</node>
	<node lat="61.106758333916815" lon="8.89156389252608" id="-45644">
		<tag k="name" v="Havtjernbekken" />
		<tag k="old_name" v="Havtjednbekken" />
		<tag k="ssr:stedsnr" v="250156" />
		<tag k="waterway" v="stream" />
	</node>
	<node lat="61.1271416686549" lon="8.909163887394321" id="-45646">
		<tag k="fixme" v="multiple name tags, choose one and add the other to alt_name" />
		<tag k="name" v="Gardvikodden;Neset" />
		<tag k="natural" v="cape" />
		<tag k="ssr:stedsnr" v="250452" />
	</node>
	<node lat="61.106988887912465" lon="8.789286104130422" id="-45647">
		<tag k="alt_name" v="Høymisåne" />
		<tag k="name" v="Høymeåni" />
		<tag k="ssr:stedsnr" v="250457" />
		<tag k="waterway" v="stream" />
	</node>
	<node lat="61.06183611463506" lon="8.905888890434241" id="-45649">
		<tag k="alt_name" v="Hamristjernet, nordre" />
		<tag k="name" v="Nørdre Hamristjernet" />
		<tag k="natural" v="water" />
		<tag k="old_name" v="Hamristjedn" />
		<tag k="ssr:stedsnr" v="250854" />
	</node>
	<node lat="60.98679999882288" lon="8.740849996588343" id="-45652">
		<tag k="alt_name" v="Åni, s;Søre Åne" />
		<tag k="name" v="Søre Åni" />
		<tag k="ssr:stedsnr" v="251800" />
		<tag k="waterway" v="stream" />
	</node>
	<node lat="60.925474996441146" lon="8.688805552751795" id="-45654">
		<tag k="name" v="Trolltjerne" />
		<tag k="natural" v="water" />
		<tag k="ssr:stedsnr" v="251891" />
	</node>
	<node lat="60.94107500094548" lon="8.817305564392246" id="-45655">
		<tag k="alt_name" v="Storøye" />
		<tag k="name" v="Storøyi" />
		<tag k="place" v="islet" />
		<tag k="ssr:stedsnr" v="251897" />
	</node>
	<node lat="61.11679999591348" lon="8.812549992172453" id="-45664">
		<tag k="alt_name" v="Høymeåne" />
		<tag k="name" v="Høymeåni" />
		<tag k="ssr:stedsnr" v="128290" />
		<tag k="waterway" v="stream" />
	</node>
	<node lat="60.902041478162374" lon="8.874400323533155" id="-45667">
		<tag k="name" v="Veslevatnet" />
		<tag k="natural" v="water" />
		<tag k="ssr:stedsnr" v="252352" />
		<tag k="water" v="lake" />
	</node>
	<node lat="60.94986388877985" lon="8.690505555849779" id="-45676">
		<tag k="name" v="Haugsetøyne" />
		<tag k="place" v="islet" />
		<tag k="ssr:stedsnr" v="162753" />
	</node>
	<node lat="61.135111113494425" lon="9.015305549687323" id="-45684">
		<tag k="name" v="Søre Kvitjørdsbekken" />
		<tag k="ssr:stedsnr" v="175467" />
		<tag k="waterway" v="stream" />
	</node>
	<node lat="61.16224166323488" lon="8.867913896583335" id="-45685">
		<tag k="name" v="Anglibekken" />
		<tag k="ssr:stedsnr" v="175958" />
		<tag k="waterway" v="stream" />
	</node>
	<node lat="61.08062563648387" lon="8.715032942495283" id="-45686">
		<tag k="name" v="Vergesteinøyne" />
		<tag k="place" v="islet" />
		<tag k="ssr:stedsnr" v="179814" />
	</node>
	<node lat="61.06835555388234" lon="8.74904444422507" id="-45696">
		<tag k="alt_name" v="Syndin, midtre" />
		<tag k="name" v="Midtre Syndin" />
		<tag k="natural" v="water" />
		<tag k="ssr:stedsnr" v="189370" />
		<tag k="water" v="lake" />
	</node>
	<node lat="61.00785555131363" lon="8.740772221857277" id="-45697">
		<tag k="alt_name" v="Strøsstjernet;Strøssetjern" />
		<tag k="name" v="Strøstjernet" />
		<tag k="natural" v="water" />
		<tag k="ssr:stedsnr" v="189396" />
	</node>
	<node lat="61.03320277507547" lon="8.90360277889696" id="-45702">
		<tag k="alt_name" v="Krokåne" />
		<tag k="name" v="Krokåni" />
		<tag k="ssr:stedsnr" v="189775" />
		<tag k="waterway" v="river" />
	</node>
	<node lat="60.96010253543081" lon="8.805217986322114" id="-45706">
		<tag k="alt_name" v="Svenskefjorden" />
		<tag k="name" v="Svensken" />
		<tag k="natural" v="water" />
		<tag k="ssr:stedsnr" v="191715" />
	</node>
	<node lat="61.05760833721503" lon="8.875666674366872" id="-45716">
		<tag k="name" v="Lortetjernet" />
		<tag k="natural" v="water" />
		<tag k="old_name" v="Lortetjednet" />
		<tag k="ssr:stedsnr" v="223435" />
	</node>
	<node lat="61.04875833247928" lon="9.024966672433642" id="-45720">
		<tag k="name" v="Fløytehagelandet" />
		<tag k="natural" v="beach" />
		<tag k="ssr:stedsnr" v="223904" />
	</node>
	<node lat="61.05156111055959" lon="8.759372226331756" id="-45731">
		<tag k="name" v="Hølbekken" />
		<tag k="ssr:stedsnr" v="282319" />
		<tag k="waterway" v="stream" />
	</node>
	<node lat="61.04672500212558" lon="8.836424996227507" id="-45732">
		<tag k="name" v="Bergaøddin" />
		<tag k="natural" v="cape" />
		<tag k="ssr:stedsnr" v="282323" />
	</node>
	<node lat="61.00265277806708" lon="9.008186116067277" id="-45734">
		<tag k="name" v="Vatninge" />
		<tag k="ssr:stedsnr" v="284212" />
		<tag k="waterway" v="stream" />
	</node>
	<node lat="60.96259167088335" lon="8.697049998371124" id="-45740">
		<tag k="name" v="Høllabekkadn" />
		<tag k="ssr:stedsnr" v="284776" />
		<tag k="waterway" v="stream" />
	</node>
	<node lat="61.121458329653635" lon="8.915330553995222" id="-45744">
		<tag k="name" v="Viken" />
		<tag k="natural" v="bay" />
		<tag k="ssr:stedsnr" v="463363" />
	</node>
	<node lat="61.12802777500057" lon="8.932938898007777" id="-45749">
		<tag k="name" v="Juvike" />
		<tag k="natural" v="bay" />
		<tag k="ssr:stedsnr" v="464096" />
	</node>
	<node lat="60.61495833306978" lon="9.93317776970039" id="-45753">
		<tag k="name" v="Begna" />
		<tag k="old_name" v="Bægna;Bejna;Bejnaelven" />
		<tag k="ssr:stedsnr" v="309000" />
		<tag k="waterway" v="river" />
	</node>
	<node lat="61.130538892005404" lon="8.861200003548698" id="-45754">
		<tag k="alt_name" v="Kårstadøyne" />
		<tag k="name" v="Kårstadøyni" />
		<tag k="place" v="islet" />
		<tag k="ssr:stedsnr" v="310103" />
	</node>
	<node lat="61.123141666228896" lon="8.929686110684399" id="-45757">
		<tag k="alt_name" v="Augeimsøyne" />
		<tag k="name" v="Augeimsøyni" />
		<tag k="place" v="island" />
		<tag k="ssr:stedsnr" v="310131" />
	</node>
	<node lat="61.07916388784991" lon="8.820000004191316" id="-45761">
		<tag k="name" v="Duratjernet" />
		<tag k="natural" v="water" />
		<tag k="old_name" v="Duratjedn" />
		<tag k="ssr:stedsnr" v="310402" />
	</node>
	<node lat="61.059255556835396" lon="8.888449996663894" id="-45766">
		<tag k="name" v="Preststøltjernet" />
		<tag k="natural" v="water" />
		<tag k="old_name" v="Preststølstjedn" />
		<tag k="ssr:stedsnr" v="310840" />
	</node>
	<node lat="60.97350832915197" lon="8.794525008572444" id="-45772">
		<tag k="alt_name" v="Buaråne" />
		<tag k="name" v="Buaråni" />
		<tag k="ssr:stedsnr" v="312736" />
		<tag k="waterway" v="stream" />
	</node>
	<node lat="60.99009734192832" lon="8.773763671091407" id="-45773">
		<tag k="alt_name" v="Movatn" />
		<tag k="name" v="Mosvatnet" />
		<tag k="natural" v="water" />
		<tag k="ssr:stedsnr" v="312745" />
		<tag k="water" v="lake" />
	</node>
	<node lat="61.058019448911296" lon="9.149766671531228" id="-45792">
		<tag k="name" v="Ungulshølen" />
		<tag k="place" v="locality" />
		<tag k="ssr:stedsnr" v="478553" />
	</node>
	<node lat="61.001991667361054" lon="9.028749993203864" id="-45801">
		<tag k="alt_name" v="Syndeiselve" />
		<tag k="fixme" v="multiple name tags, choose one and add the other to alt_name" />
		<tag k="name" v="Sundheimselvi;Vasetåne" />
		<tag k="ssr:stedsnr" v="371770" />
		<tag k="waterway" v="river" />
	</node>
	<node lat="61.06554444746992" lon="8.899272228952698" id="-45820">
		<tag k="name" v="Grokinnåne" />
		<tag k="ssr:stedsnr" v="405435" />
		<tag k="waterway" v="stream" />
	</node>
	<node lat="61.12707499575479" lon="8.805033328346752" id="-45828">
		<tag k="name" v="Robølsbekken" />
		<tag k="ssr:stedsnr" v="422218" />
		<tag k="waterway" v="stream" />
	</node>
	<node lat="61.026519441663105" lon="8.76793055613698" id="-45837">
		<tag k="name" v="Lengja" />
		<tag k="ssr:stedsnr" v="432402" />
		<tag k="waterway" v="stream" />
	</node>
	<node lat="61.006750002062" lon="8.79379722322838" id="-45838">
		<tag k="name" v="Kjempebekken" />
		<tag k="ssr:stedsnr" v="432389" />
		<tag k="waterway" v="stream" />
	</node>
	<node lat="61.036675000645054" lon="8.850136107676336" id="-45839">
		<tag k="name" v="Lomtjernet" />
		<tag k="natural" v="water" />
		<tag k="ssr:stedsnr" v="432787" />
	</node>
	<node lat="61.036711108100164" lon="8.99942500847157" id="-45841">
		<tag k="alt_name" v="Øyebekken;Øyejili" />
		<tag k="name" v="Øyegili" />
		<tag k="ssr:stedsnr" v="432799" />
		<tag k="waterway" v="stream" />
	</node>
	<node lat="60.955383329481485" lon="8.730224992504311" id="-45863">
		<tag k="name" v="Reinebekken" />
		<tag k="ssr:stedsnr" v="494730" />
		<tag k="waterway" v="stream" />
	</node>
	<node lat="60.989250001022825" lon="8.736238890706112" id="-45864">
		<tag k="alt_name" v="Åni, midtre;Midtre Åne" />
		<tag k="name" v="Midtre Åni" />
		<tag k="ssr:stedsnr" v="494749" />
		<tag k="waterway" v="stream" />
	</node>
	<node lat="61.0940305589441" lon="8.746238890909549" id="-45878">
		<tag k="name" v="Åstadtjernet" />
		<tag k="natural" v="water" />
		<tag k="old_name" v="Åstadtjedn" />
		<tag k="ssr:stedsnr" v="674327" />
	</node>
	<node lat="61.04944166688962" lon="9.148638882896003" id="-45888">
		<tag k="name" v="Lomtjernet" />
		<tag k="natural" v="water" />
		<tag k="old_name" v="Lomtjedn" />
		<tag k="ssr:stedsnr" v="674807" />
	</node>
	<node lat="61.13143888936979" lon="8.9051583388709" id="-45891">
		<tag k="name" v="Nøbben" />
		<tag k="natural" v="cape" />
		<tag k="ssr:stedsnr" v="466077" />
	</node>
	<node lat="60.984027779799206" lon="8.814763882630627" id="-45894">
		<tag k="name" v="Mosbekken" />
		<tag k="ssr:stedsnr" v="466659" />
		<tag k="waterway" v="stream" />
	</node>
	<node lat="60.920400002470785" lon="8.77937500163272" id="-45902">
		<tag k="alt_name" v="Skruvleåne" />
		<tag k="name" v="Skruvleåni" />
		<tag k="ssr:stedsnr" v="676846" />
		<tag k="waterway" v="stream" />
	</node>
	<node lat="60.94118892028748" lon="8.800261079462722" id="-45903">
		<tag k="name" v="Hanafjorden" />
		<tag k="natural" v="bay" />
		<tag k="ssr:stedsnr" v="676848" />
	</node>
	<node lat="60.936945123254276" lon="8.80677070976366" id="-45904">
		<tag k="fixme" v="multiple name tags, choose one and add the other to alt_name" />
		<tag k="name" v="Flyvatnet;Storfjorden" />
		<tag k="natural" v="water" />
		<tag k="ssr:stedsnr" v="676854" />
		<tag k="water" v="lake" />
	</node>
	<node lat="60.983886113294496" lon="8.909705557038126" id="-45905">
		<tag k="alt_name" v="Søre Bjødnhøvdåne;Bjørnhovdåni" />
		<tag k="loc_name" v="Søre Bjørnhovdåne;Bjørnhovdåne" />
		<tag k="name" v="Søre Bjørnhovdåni" />
		<tag k="old_name" v="Bjørnhovdaani" />
		<tag k="ssr:stedsnr" v="677080" />
		<tag k="waterway" v="stream" />
	</node>
	<node lat="61.06722778105363" lon="8.722216675851598" id="-45907">
		<tag k="name" v="Bakkeåne" />
		<tag k="ssr:stedsnr" v="482809" />
		<tag k="waterway" v="stream" />
	</node>
	<node lat="61.07825555767143" lon="8.792813885516091" id="-45916">
		<tag k="alt_name" v="Kårstadåne" />
		<tag k="name" v="Kårstadåni" />
		<tag k="ssr:stedsnr" v="492385" />
		<tag k="waterway" v="stream" />
	</node>
	<node lat="61.001624997577345" lon="8.763469442152775" id="-45917">
		<tag k="alt_name" v="Nestevatnet" />
		<tag k="name" v="Nestesvatnet" />
		<tag k="natural" v="water" />
		<tag k="ssr:stedsnr" v="492393" />
		<tag k="water" v="lake" />
	</node>
	<node lat="61.06635833360405" lon="8.891886109010269" id="-45924">
		<tag k="name" v="Grokinntjernet" />
		<tag k="natural" v="water" />
		<tag k="old_name" v="Grokinntjedn" />
		<tag k="ssr:stedsnr" v="492866" />
	</node>
	<node lat="61.06003055371653" lon="8.920286107501745" id="-45925">
		<tag k="alt_name" v="Hamristjernet, søre" />
		<tag k="name" v="Søre Hamristjernet" />
		<tag k="natural" v="water" />
		<tag k="old_name" v="Hamristjedn" />
		<tag k="ssr:stedsnr" v="492871" />
	</node>
	<node lat="60.975719448227075" lon="8.998205557388545" id="-45927">
		<tag k="alt_name" v="Vesleåne;Vesle Åne" />
		<tag k="name" v="Vesleåni" />
		<tag k="ssr:stedsnr" v="495123" />
		<tag k="waterway" v="stream" />
	</node>
	<node lat="61.0922611148703" lon="8.860052776413818" id="-45935">
		<tag k="name" v="Liastølsåne" />
		<tag k="ssr:stedsnr" v="526410" />
		<tag k="waterway" v="stream" />
	</node>
	<node lat="61.09815000296784" lon="8.870338882696423" id="-45950">
		<tag k="name" v="Havtjernet" />
		<tag k="natural" v="water" />
		<tag k="old_name" v="Havtjedn" />
		<tag k="ssr:stedsnr" v="553139" />
	</node>
	<node lat="61.008580620304436" lon="8.791344915538398" id="-45954">
		<tag k="name" v="Pollen" />
		<tag k="natural" v="bay" />
		<tag k="ssr:stedsnr" v="553406" />
	</node>
	<node lat="60.94979722188066" lon="8.69975000782926" id="-45966">
		<tag k="name" v="Stubbetjern" />
		<tag k="natural" v="water" />
		<tag k="old_name" v="Stubbetjedn" />
		<tag k="ssr:stedsnr" v="587752" />
	</node>
	<node lat="61.00700000219177" lon="8.824699992331034" id="-45979">
		<tag k="name" v="Fletjernet" />
		<tag k="natural" v="water" />
		<tag k="ssr:stedsnr" v="613419" />
	</node>
	<node lat="61.011355552116456" lon="8.777769449043031" id="-45980">
		<tag k="alt_name" v="Grønsennvatnet" />
		<tag k="name" v="Grønsenn" />
		<tag k="natural" v="water" />
		<tag k="ssr:stedsnr" v="613427" />
		<tag k="water" v="lake" />
	</node>
	<node lat="61.059133337403445" lon="8.937516662938581" id="-45985">
		<tag k="name" v="Titra" />
		<tag k="ssr:stedsnr" v="613842" />
		<tag k="waterway" v="stream" />
	</node>
	<node lat="60.95829166882952" lon="8.913452781160965" id="-45990">
		<tag k="name" v="Grønlibekken" />
		<tag k="ssr:stedsnr" v="615116" />
		<tag k="waterway" v="stream" />
	</node>
	<node lat="60.95216944533166" lon="8.688205551988025" id="-45991">
		<tag k="name" v="Larsgardtjernet" />
		<tag k="natural" v="water" />
		<tag k="old_name" v="Larsgardtjednet" />
		<tag k="ssr:stedsnr" v="615852" />
	</node>
	<node lat="60.90771666533735" lon="8.875388885375255" id="-45993">
		<tag k="name" v="Flisa" />
		<tag k="natural" v="bay" />
		<tag k="ssr:stedsnr" v="706265" />
	</node>
	<node lat="60.910461112480945" lon="8.8684833323722" id="-45994">
		<tag k="name" v="Osbakken" />
		<tag k="natural" v="cape" />
		<tag k="ssr:stedsnr" v="706267" />
	</node>
	<node lat="61.06073333251305" lon="8.91156388780201" id="-45999">
		<tag k="name" v="Meåne" />
		<tag k="ssr:stedsnr" v="647425" />
		<tag k="waterway" v="stream" />
	</node>
	<node lat="61.00466389214951" lon="8.898905560513546" id="-46002">
		<tag k="name" v="Gilhusbekken" />
		<tag k="ssr:stedsnr" v="647478" />
		<tag k="waterway" v="stream" />
	</node>
	<node lat="61.10056110878802" lon="8.96053888101185" id="-46014">
		<tag k="name" v="Hausåkervike" />
		<tag k="natural" v="bay" />
		<tag k="ssr:stedsnr" v="708408" />
	</node>
	<node lat="60.934261110956975" lon="8.770847224724523" id="-46022">
		<tag k="name" v="Bekkesanden" />
		<tag k="natural" v="beach" />
		<tag k="ssr:stedsnr" v="708750" />
	</node>
	<node lat="61.09329444070856" lon="8.944705550960046" id="-46036">
		<tag k="name" v="Kvednahusbekken" />
		<tag k="ssr:stedsnr" v="891429" />
		<tag k="waterway" v="stream" />
	</node>
	<node lat="61.08890833548367" lon="8.948152777375213" id="-46037">
		<tag k="name" v="Skolandsbekken" />
		<tag k="ssr:stedsnr" v="891437" />
		<tag k="waterway" v="stream" />
	</node>
	<node lat="61.075036114286355" lon="8.88365833821086" id="-46038">
		<tag k="name" v="Markatjern" />
		<tag k="natural" v="water" />
		<tag k="old_name" v="Markatjedn" />
		<tag k="ssr:stedsnr" v="891440" />
	</node>
	<node lat="61.024588886304684" lon="9.071094440726633" id="-46043">
		<tag k="name" v="Katten" />
		<tag k="place" v="islet" />
		<tag k="ssr:stedsnr" v="891838" />
	</node>
	<node lat="61.00120555488796" lon="8.74962222553797" id="-46069">
		<tag k="name" v="Koltjernet" />
		<tag k="natural" v="water" />
		<tag k="ssr:stedsnr" v="735404" />
	</node>
	<node lat="60.930652780640386" lon="8.697777779730611" id="-46074">
		<tag k="alt_name" v="Trølla" />
		<tag k="name" v="Trolla" />
		<tag k="ssr:stedsnr" v="737869" />
		<tag k="waterway" v="stream" />
	</node>
	<node lat="61.14233055882701" lon="8.985113884393158" id="-46078">
		<tag k="name" v="Bjersetbekken" />
		<tag k="ssr:stedsnr" v="904285" />
		<tag k="waterway" v="stream" />
	</node>
	<node lat="61.094783335150794" lon="8.911050005367581" id="-46083">
		<tag k="name" v="Langemyrbekken" />
		<tag k="ssr:stedsnr" v="769424" />
		<tag k="waterway" v="stream" />
	</node>
	<node lat="61.05990277353884" lon="8.898497216919584" id="-46084">
		<tag k="name" v="Ulastølsbekken" />
		<tag k="ssr:stedsnr" v="769428" />
		<tag k="waterway" v="stream" />
	</node>
	<node lat="60.929819442366" lon="8.809338880125354" id="-46085">
		<tag k="name" v="Albogen" />
		<tag k="natural" v="cape" />
		<tag k="ssr:stedsnr" v="769752" />
	</node>
	<node lat="61.076575001218835" lon="8.738191669696906" id="-46091">
		<tag k="name" v="Veslefjorden" />
		<tag k="natural" v="bay" />
		<tag k="ssr:stedsnr" v="786825" />
	</node>
	<node lat="61.08701944171663" lon="9.048641666429628" id="-46092">
		<tag k="name" v="Bergstjernet" />
		<tag k="natural" v="water" />
		<tag k="old_name" v="Bergstjedn" />
		<tag k="ssr:stedsnr" v="796207" />
	</node>
	<node lat="61.12555555308367" lon="8.784819453131437" id="-46097">
		<tag k="alt_name" v="Brekkeåne" />
		<tag k="name" v="Brekkåni" />
		<tag k="ssr:stedsnr" v="796319" />
		<tag k="waterway" v="stream" />
	</node>
	<node lat="61.12203333716369" lon="8.788277769359436" id="-46108">
		<tag k="name" v="Åstadbekken" />
		<tag k="ssr:stedsnr" v="917286" />
		<tag k="waterway" v="stream" />
	</node>
	<node lat="61.064724999053915" lon="8.760516673481405" id="-46110">
		<tag k="alt_name" v="Skjeret" />
		<tag k="name" v="Skjæret" />
		<tag k="place" v="islet" />
		<tag k="ssr:stedsnr" v="917369" />
	</node>
	<node lat="61.059952775847364" lon="8.971750004642626" id="-46118">
		<tag k="alt_name" v="Mosåne" />
		<tag k="name" v="Mosåni" />
		<tag k="ssr:stedsnr" v="917853" />
		<tag k="waterway" v="river" />
	</node>
	<node lat="60.93035555402833" lon="8.872572222693963" id="-46121">
		<tag k="fixme" v="multiple name tags, choose one and add the other to alt_name" />
		<tag k="name" v="Flisa;Reina" />
		<tag k="ssr:stedsnr" v="919625" />
		<tag k="waterway" v="river" />
	</node>
	<node lat="60.93830263504361" lon="8.734268121108359" id="-46123">
		<tag k="name" v="Kvavlin" />
		<tag k="natural" v="water" />
		<tag k="ssr:stedsnr" v="919866" />
	</node>
	<node lat="60.98338332999997" lon="8.784533336688808" id="-46135">
		<tag k="name" v="Geitøyne" />
		<tag k="place" v="island" />
		<tag k="ssr:stedsnr" v="830654" />
	</node>
	<node lat="61.103308330594224" lon="8.989236115661036" id="-46138">
		<tag k="name" v="Fulkjisbekken" />
		<tag k="ssr:stedsnr" v="843337" />
		<tag k="waterway" v="stream" />
	</node>
	<node lat="61.1260277774347" lon="8.892761118358067" id="-46144">
		<tag k="name" v="Slidrefjorden" />
		<tag k="natural" v="water" />
		<tag k="ssr:stedsnr" v="856100" />
		<tag k="water" v="lake" />
	</node>
	<node lat="61.034116665855905" lon="9.044269438206529" id="-46151">
		<tag k="name" v="Ferisfjorden" />
		<tag k="natural" v="water" />
		<tag k="ssr:stedsnr" v="856804" />
		<tag k="water" v="lake" />
	</node>
	<node lat="61.05154722131796" lon="8.829197219454505" id="-46153">
		<tag k="alt_name" v="Syndin, søre" />
		<tag k="name" v="Søre Syndin" />
		<tag k="natural" v="water" />
		<tag k="ssr:stedsnr" v="857410" />
		<tag k="water" v="lake" />
	</node>
	<node lat="61.05788888466738" lon="8.820563889717588" id="-46154">
		<tag k="alt_name" v="Myreøddin" />
		<tag k="name" v="Myrodden" />
		<tag k="natural" v="cape" />
		<tag k="ssr:stedsnr" v="857412" />
	</node>
	<node lat="61.063058334236196" lon="8.766925004467115" id="-46156">
		<tag k="alt_name" v="Sandøddin" />
		<tag k="name" v="Sandodden" />
		<tag k="natural" v="cape" />
		<tag k="ssr:stedsnr" v="857414" />
	</node>
	<node lat="61.06510277962708" lon="8.954274992772863" id="-46157">
		<tag k="name" v="Geitebekk" />
		<tag k="ssr:stedsnr" v="857872" />
		<tag k="waterway" v="stream" />
	</node>
	<node lat="60.92969722641843" lon="8.685425001029575" id="-46158">
		<tag k="name" v="Ytretjern" />
		<tag k="natural" v="water" />
		<tag k="ssr:stedsnr" v="858871" />
	</node>
	<node lat="60.97785277522733" lon="8.972580554330742" id="-46162">
		<tag k="name" v="Saubekken" />
		<tag k="ssr:stedsnr" v="859077" />
		<tag k="waterway" v="stream" />
	</node>
	<node lat="60.93986388843525" lon="8.759827779695632" id="-46169">
		<tag k="name" v="Kjelhaugen" />
		<tag k="place" v="islet" />
		<tag k="ssr:stedsnr" v="891769" />
	</node>
	<node lat="60.96791666818042" lon="8.859844438359332" id="-46185">
		<tag k="name" v="Svartbekken" />
		<tag k="ssr:stedsnr" v="920120" />
		<tag k="waterway" v="stream" />
	</node>
	<node lat="61.015119441241474" lon="9.033758338961162" id="-46187">
		<tag k="name" v="Soltjern" />
		<tag k="natural" v="water" />
		<tag k="old_name" v="Soltjedn" />
		<tag k="ssr:stedsnr" v="949235" />
	</node>
	<node lat="61.12955833478011" lon="8.916263889517804" id="-46189">
		<tag k="name" v="Lomisøyne" />
		<tag k="place" v="islet" />
		<tag k="ssr:stedsnr" v="951076" />
	</node>
	<node lat="61.05223055242669" lon="8.912091662631909" id="-46195">
		<tag k="name" v="Fiviltjern" />
		<tag k="natural" v="water" />
		<tag k="old_name" v="Fiviltjedn" />
		<tag k="ssr:stedsnr" v="951435" />
	</node>
	<node lat="60.9787111132345" lon="8.888774993138439" id="-46196">
		<tag k="name" v="Bjødnhøvdtjernet" />
		<tag k="natural" v="water" />
		<tag k="ssr:stedsnr" v="951500" />
	</node>
	<node lat="61.07551111320185" lon="8.826302784974814" id="-46222">
		<tag k="name" v="Tistruptjernet" />
		<tag k="natural" v="water" />
		<tag k="old_name" v="Tistruptjedn" />
		<tag k="ssr:stedsnr" v="7396" />
	</node>
	<node lat="61.07074444777935" lon="8.833277770873115" id="-46223">
		<tag k="name" v="Rundetjern" />
		<tag k="natural" v="water" />
		<tag k="old_name" v="Rundelitjernet;Rundetjedn" />
		<tag k="ssr:stedsnr" v="7398" />
	</node>
	<node lat="60.94206110801901" lon="8.670244451673442" id="-46231">
		<tag k="alt_name" v="Lægeråne" />
		<tag k="name" v="Lægeråni" />
		<tag k="ssr:stedsnr" v="9860" />
		<tag k="waterway" v="stream" />
	</node>
	<node lat="60.9042777749455" lon="8.888013889512704" id="-46235">
		<tag k="name" v="Ulebekken" />
		<tag k="ssr:stedsnr" v="39221" />
		<tag k="waterway" v="stream" />
	</node>
	<node lat="61.088838886243266" lon="8.825991661253754" id="-46241">
		<tag k="name" v="Svarthamarbekken" />
		<tag k="ssr:stedsnr" v="41312" />
		<tag k="waterway" v="stream" />
	</node>
	<node lat="61.11417777769493" lon="8.951547225088804" id="-46242">
		<tag k="name" v="Fivenesøddin" />
		<tag k="natural" v="cape" />
		<tag k="ssr:stedsnr" v="41398" />
	</node>
	<node lat="61.06257221890807" lon="9.120469440281104" id="-46253">
		<tag k="name" v="Høvdatjernet" />
		<tag k="natural" v="water" />
		<tag k="old_name" v="Høvdatjednet" />
		<tag k="ssr:stedsnr" v="54553" />
	</node>
	<node lat="61.1367015673214" lon="8.82502563549271" id="-46254">
		<tag k="name" v="Ryfossen" />
		<tag k="natural" v="waterfall" />
		<tag k="ssr:stedsnr" v="58264" />
	</node>
	<node lat="61.08665277929278" lon="8.97581945150171" id="-46259">
		<tag k="alt_name" v="Prestøyne" />
		<tag k="name" v="Prestøyni" />
		<tag k="place" v="islet" />
		<tag k="ssr:stedsnr" v="67234" />
	</node>
	<node lat="61.0112583350559" lon="8.877258336476414" id="-46261">
		<tag k="name" v="Svartebekk" />
		<tag k="ssr:stedsnr" v="67779" />
		<tag k="waterway" v="stream" />
	</node>
	<node lat="61.00381388878678" lon="8.742725001964956" id="-46262">
		<tag k="alt_name" v="Strøssosen" />
		<tag k="name" v="Strøsosen" />
		<tag k="natural" v="bay" />
		<tag k="ssr:stedsnr" v="68423" />
	</node>
	<node lat="61.072849998852035" lon="8.99182499514029" id="-46269">
		<tag k="name" v="Einangsundet" />
		<tag k="natural" v="strait" />
		<tag k="ssr:stedsnr" v="68247" />
	</node>
	<node lat="60.95935833715053" lon="8.668680563477444" id="-46274">
		<tag k="name" v="Grunka" />
		<tag k="ssr:stedsnr" v="69776" />
		<tag k="waterway" v="river" />
	</node>
	<node lat="60.92552222232225" lon="8.815041668120218" id="-46276">
		<tag k="name" v="Lomtjernet" />
		<tag k="natural" v="water" />
		<tag k="ssr:stedsnr" v="69873" />
	</node>
	<node lat="60.99721149826926" lon="8.959203760686885" id="-46279">
		<tag k="name" v="Vasetvatnet" />
		<tag k="natural" v="water" />
		<tag k="ssr:stedsnr" v="70057" />
		<tag k="water" v="lake" />
	</node>
	<node lat="60.9232861127637" lon="8.850061113114105" id="-46280">
		<tag k="alt_name" v="Flisøye" />
		<tag k="name" v="Flisøy" />
		<tag k="place" v="islet" />
		<tag k="ssr:stedsnr" v="70346" />
	</node>
	<node lat="61.05872222641172" lon="8.92540000289755" id="-46290">
		<tag k="name" v="Pyttinge" />
		<tag k="natural" v="bay" />
		<tag k="ssr:stedsnr" v="102494" />
	</node>
	<node lat="61.01506111378291" lon="8.943227774975501" id="-46296">
		<tag k="name" v="Ulsetbekken" />
		<tag k="ssr:stedsnr" v="102550" />
		<tag k="waterway" v="stream" />
	</node>
	<node lat="60.92768888645267" lon="8.830422217573522" id="-46300">
		<tag k="name" v="Væløye" />
		<tag k="place" v="island" />
		<tag k="ssr:stedsnr" v="102791" />
	</node>
	<node lat="61.027672226397954" lon="9.061208329396235" id="-46303">
		<tag k="name" v="Hammarsnesnøbbe" />
		<tag k="natural" v="cape" />
		<tag k="ssr:stedsnr" v="102837" />
	</node>
	<node lat="61.069433334406206" lon="9.007969446417373" id="-46304">
		<tag k="name" v="Kråkenøbbe" />
		<tag k="natural" v="cape" />
		<tag k="ssr:stedsnr" v="102955" />
	</node>
	<node lat="61.06799166558463" lon="8.993311103950937" id="-46305">
		<tag k="name" v="Tørstadøddin" />
		<tag k="natural" v="cape" />
		<tag k="ssr:stedsnr" v="102957" />
	</node>
	<node lat="61.05529166675835" lon="8.826727782773062" id="-46319">
		<tag k="alt_name" v="Garvikøddin" />
		<tag k="name" v="Gardvikodden" />
		<tag k="natural" v="cape" />
		<tag k="ssr:stedsnr" v="128353" />
	</node>
	<node lat="61.06921110868684" lon="8.862702772906085" id="-46322">
		<tag k="loc_name" v="Fiskeløyset" />
		<tag k="name" v="Fiskeløyse" />
		<tag k="natural" v="water" />
		<tag k="old_name" v="Fiskeløysa" />
		<tag k="ssr:stedsnr" v="128868" />
		<tag k="water" v="lake" />
	</node>
	<node lat="61.03464444403282" lon="9.043311114677673" id="-46334">
		<tag k="name" v="Ferisøyne" />
		<tag k="place" v="island" />
		<tag k="ssr:stedsnr" v="160068" />
	</node>
	<node lat="61.064941671075715" lon="8.750213884135482" id="-46337">
		<tag k="name" v="Audgangsøyne" />
		<tag k="place" v="islet" />
		<tag k="ssr:stedsnr" v="160310" />
	</node>
	<node lat="61.041800000804194" lon="8.762127772637648" id="-46338">
		<tag k="name" v="Sandbubekken" />
		<tag k="ssr:stedsnr" v="160314" />
		<tag k="waterway" v="stream" />
	</node>
	<node lat="61.0665916635912" lon="8.87865556178883" id="-46344">
		<tag k="name" v="Fiskeløysåne" />
		<tag k="ssr:stedsnr" v="162424" />
		<tag k="waterway" v="stream" />
	</node>
	<node lat="60.99968888763694" lon="8.957911108596997" id="-46347">
		<tag k="name" v="Langenes" />
		<tag k="natural" v="cape" />
		<tag k="ssr:stedsnr" v="162484" />
	</node>
	<node lat="60.99471666762019" lon="8.772625003381226" id="-46350">
		<tag k="name" v="Kjeslaråne" />
		<tag k="ssr:stedsnr" v="162678" />
		<tag k="waterway" v="stream" />
	</node>
	<node lat="61.13515555569783" lon="9.011575003553485" id="-46357">
		<tag k="name" v="Nørdre Kvitjørdsbekken" />
		<tag k="ssr:stedsnr" v="175273" />
		<tag k="waterway" v="stream" />
	</node>
	<node lat="61.05856111543055" lon="8.80628055678598" id="-46369">
		<tag k="alt_name" v="Kuøddin" />
		<tag k="name" v="Kuodden" />
		<tag k="natural" v="cape" />
		<tag k="ssr:stedsnr" v="189351" />
	</node>
	<node lat="60.981917023703474" lon="8.773655021158284" id="-46374">
		<tag k="name" v="Matkista" />
		<tag k="natural" v="water" />
		<tag k="ssr:stedsnr" v="190796" />
	</node>
	<node lat="60.99789444648936" lon="8.970133342492117" id="-46381">
		<tag k="name" v="Styttenes" />
		<tag k="natural" v="cape" />
		<tag k="ssr:stedsnr" v="223494" />
	</node>
	<node lat="60.99916819281387" lon="8.9506684070839" id="-46382">
		<tag k="name" v="Langeøddin" />
		<tag k="natural" v="cape" />
		<tag k="ssr:stedsnr" v="223495" />
	</node>
	<node lat="60.93571388746147" lon="8.903097220883556" id="-46385">
		<tag k="name" v="Lomtjern" />
		<tag k="natural" v="water" />
		<tag k="ssr:stedsnr" v="223266" />
	</node>
	<node lat="60.963711115018235" lon="8.896624997342887" id="-46389">
		<tag k="name" v="Grisebekken" />
		<tag k="ssr:stedsnr" v="223526" />
		<tag k="waterway" v="stream" />
	</node>
	<node lat="60.93837499952096" lon="8.793880560127938" id="-46395">
		<tag k="name" v="Trugan" />
		<tag k="natural" v="cape" />
		<tag k="ssr:stedsnr" v="223775" />
	</node>
	<node lat="61.03030555534223" lon="9.056955550432114" id="-46396">
		<tag k="name" v="Bryggjenøbbe" />
		<tag k="natural" v="cape" />
		<tag k="ssr:stedsnr" v="223853" />
	</node>
	<node lat="60.91189721798669" lon="8.803572213243394" id="-46404">
		<tag k="name" v="Klauvhaugbekken" />
		<tag k="ssr:stedsnr" v="284801" />
		<tag k="waterway" v="stream" />
	</node>
	<node lat="61.02557778110787" lon="9.068861108872566" id="-46412">
		<tag k="name" v="Kvitøyne" />
		<tag k="place" v="islet" />
		<tag k="ssr:stedsnr" v="284860" />
	</node>
	<node lat="61.092608335129434" lon="8.985788890815634" id="-46414">
		<tag k="name" v="Prestegårdsbekken" />
		<tag k="ssr:stedsnr" v="284958" />
		<tag k="waterway" v="stream" />
	</node>
	<node lat="61.061099996154724" lon="9.003213891071555" id="-46415">
		<tag k="name" v="Dalbøbekken" />
		<tag k="ssr:stedsnr" v="284973" />
		<tag k="waterway" v="stream" />
	</node>
	<node lat="60.94917710257953" lon="8.888642957095465" id="-46427">
		<tag k="alt_name" v="Rensennvatnet" />
		<tag k="name" v="Reinsennvatnet" />
		<tag k="natural" v="water" />
		<tag k="ssr:stedsnr" v="312096" />
		<tag k="water" v="lake" />
	</node>
	<node lat="61.114177774718634" lon="8.942847220308488" id="-46434">
		<tag k="name" v="Nøbben" />
		<tag k="natural" v="cape" />
		<tag k="ssr:stedsnr" v="344410" />
	</node>
	<node lat="61.103377774662576" lon="8.95246665977529" id="-46435">
		<tag k="name" v="Kremmarvike" />
		<tag k="natural" v="bay" />
		<tag k="ssr:stedsnr" v="344411" />
	</node>
	<node lat="61.09467778140614" lon="8.955150005720565" id="-46447">
		<tag k="name" v="Nøbbe" />
		<tag k="natural" v="cape" />
		<tag k="ssr:stedsnr" v="344428" />
	</node>
	<node lat="60.93634166974513" lon="8.754713880523305" id="-46451">
		<tag k="name" v="Kyrhaugen" />
		<tag k="place" v="islet" />
		<tag k="ssr:stedsnr" v="344775" />
	</node>
	<node lat="61.04375555632721" lon="9.02416388911985" id="-46453">
		<tag k="name" v="Ulvisbekken" />
		<tag k="ssr:stedsnr" v="344884" />
		<tag k="waterway" v="stream" />
	</node>
	<node lat="61.1362694451679" lon="8.826163896371353" id="-46457">
		<tag k="name" v="Lofoss" />
		<tag k="natural" v="waterfall" />
		<tag k="ssr:stedsnr" v="361247" />
	</node>
	<node lat="61.07727777778697" lon="8.978086102177706" id="-46466">
		<tag k="alt_name" v="Slidreøyi;Øyne" />
		<tag k="name" v="Slidreøyne" />
		<tag k="place" v="island" />
		<tag k="ssr:stedsnr" v="371233" />
	</node>
	<node lat="61.01705555511514" lon="8.89625277206938" id="-46475">
		<tag k="name" v="Rassvæta" />
		<tag k="ssr:stedsnr" v="371783" />
		<tag k="waterway" v="stream" />
	</node>
	<node lat="60.927536108737456" lon="8.730549996257132" id="-46480">
		<tag k="name" v="Raudbekken" />
		<tag k="ssr:stedsnr" v="372873" />
		<tag k="waterway" v="stream" />
	</node>
	<node lat="61.02183888512745" lon="8.84376943907104" id="-46486">
		<tag k="name" v="Svartebekk" />
		<tag k="ssr:stedsnr" v="403321" />
		<tag k="waterway" v="stream" />
	</node>
	<node lat="61.1329388858271" lon="8.898352771798322" id="-46488">
		<tag k="name" v="Høvsvike" />
		<tag k="natural" v="bay" />
		<tag k="ssr:stedsnr" v="405068" />
	</node>
	<node lat="60.94189444712934" lon="8.717475003737993" id="-46499">
		<tag k="name" v="Lomøyne" />
		<tag k="place" v="islet" />
		<tag k="ssr:stedsnr" v="405759" />
	</node>
	<node lat="60.905536111179124" lon="8.82547500132018" id="-46500">
		<tag k="name" v="Fossheimstølbekken" />
		<tag k="ssr:stedsnr" v="405771" />
		<tag k="waterway" v="stream" />
	</node>
	<node lat="61.046027774392634" lon="9.004163880236273" id="-46510">
		<tag k="name" v="Semelengsbekken" />
		<tag k="ssr:stedsnr" v="405900" />
		<tag k="waterway" v="stream" />
	</node>
	<node lat="61.162516665077746" lon="8.912408341746632" id="-46517">
		<tag k="name" v="Hyggjande" />
		<tag k="ssr:stedsnr" v="432033" />
		<tag k="waterway" v="river" />
	</node>
	<node lat="61.15779167050663" lon="8.980411107802706" id="-46519">
		<tag k="name" v="Dalsåne" />
		<tag k="ssr:stedsnr" v="432057" />
		<tag k="waterway" v="river" />
	</node>
	<node lat="61.01347500399731" lon="8.746680552029613" id="-46522">
		<tag k="name" v="Skardtjernet" />
		<tag k="natural" v="water" />
		<tag k="ssr:stedsnr" v="432400" />
	</node>
	<node lat="60.93792499844755" lon="8.763991660613808" id="-46530">
		<tag k="alt_name" v="Geitøye" />
		<tag k="name" v="Geitøyi" />
		<tag k="place" v="islet" />
		<tag k="ssr:stedsnr" v="433866" />
	</node>
	<node lat="60.93490555981245" lon="8.74475276922813" id="-46532">
		<tag k="name" v="Feodden" />
		<tag k="natural" v="cape" />
		<tag k="ssr:stedsnr" v="433878" />
	</node>
	<node lat="60.94646388492586" lon="8.905936108320896" id="-46533">
		<tag k="alt_name" v="Hølbekken" />
		<tag k="name" v="Holbekken" />
		<tag k="ssr:stedsnr" v="434355" />
		<tag k="waterway" v="stream" />
	</node>
	<node lat="61.04637499882404" lon="8.844619444598724" id="-46536">
		<tag k="name" v="Langøddin" />
		<tag k="place" v="islet" />
		<tag k="ssr:stedsnr" v="525351" />
	</node>
	<node lat="60.944133329668176" lon="8.718827781343652" id="-46538">
		<tag k="name" v="Geitøyne" />
		<tag k="place" v="islet" />
		<tag k="ssr:stedsnr" v="526748" />
	</node>
	<node lat="60.91041388712658" lon="8.773441673947623" id="-46554">
		<tag k="name" v="Skruvletjern" />
		<tag k="natural" v="water" />
		<tag k="ssr:stedsnr" v="554871" />
	</node>
	<node lat="60.927966664840696" lon="8.81890278355399" id="-46568">
		<tag k="name" v="Timbervike" />
		<tag k="natural" v="bay" />
		<tag k="ssr:stedsnr" v="587782" />
	</node>
	<node lat="61.08429722667416" lon="9.003941664000417" id="-46571">
		<tag k="name" v="Einangsbekken" />
		<tag k="ssr:stedsnr" v="587938" />
		<tag k="waterway" v="stream" />
	</node>
	<node lat="61.071769444822216" lon="8.98359999479673" id="-46574">
		<tag k="name" v="Olvike" />
		<tag k="natural" v="bay" />
		<tag k="ssr:stedsnr" v="587943" />
	</node>
	<node lat="61.10589444624289" lon="8.912213888752463" id="-46582">
		<tag k="alt_name" v="Jomsåne" />
		<tag k="name" v="Jomsåni" />
		<tag k="ssr:stedsnr" v="613150" />
		<tag k="waterway" v="stream" />
	</node>
	<node lat="61.08590000086614" lon="8.97361389626112" id="-46585">
		<tag k="alt_name" v="Raukøyne" />
		<tag k="name" v="Raukøyni" />
		<tag k="place" v="islet" />
		<tag k="ssr:stedsnr" v="613195" />
	</node>
	<node lat="60.9442749959294" lon="8.922238882925551" id="-46596">
		<tag k="alt_name" v="Kinnholtåne" />
		<tag k="name" v="Kinnholtåni" />
		<tag k="ssr:stedsnr" v="615383" />
		<tag k="waterway" v="stream" />
	</node>
	<node lat="60.99439444384515" lon="8.989536109213446" id="-46597">
		<tag k="alt_name" v="Båtåni" />
		<tag k="name" v="Båtåne" />
		<tag k="ssr:stedsnr" v="616061" />
		<tag k="waterway" v="stream" />
	</node>
	<node lat="61.00730277548295" lon="8.7771027695326" id="-46605">
		<tag k="name" v="Killingøyne" />
		<tag k="place" v="islet" />
		<tag k="ssr:stedsnr" v="647647" />
	</node>
	<node lat="61.10551944606986" lon="8.759486103750294" id="-46623">
		<tag k="name" v="Vierdokkbekken" />
		<tag k="ssr:stedsnr" v="735361" />
		<tag k="waterway" v="stream" />
	</node>
	<node lat="61.055091663004966" lon="8.72608610498811" id="-46632">
		<tag k="alt_name" v="Riståne;Risteåne" />
		<tag k="name" v="Riståni" />
		<tag k="ssr:stedsnr" v="735375" />
		<tag k="waterway" v="stream" />
	</node>
	<node lat="60.99309722430575" lon="8.89755278451496" id="-46637">
		<tag k="alt_name" v="Nørdre Bjødnhøvdåne;Røvshalinåe;Revsalinåne" />
		<tag k="fixme" v="multiple name tags, choose one and add the other to alt_name" />
		<tag k="loc_name" v="Nørdre Bjørnhovdåne" />
		<tag k="name" v="Revshalåni;Nørdre Bjørnhovdåni" />
		<tag k="old_name" v="Revshalinaani" />
		<tag k="ssr:stedsnr" v="737050" />
		<tag k="waterway" v="stream" />
	</node>
	<node lat="60.96453611530569" lon="8.678830559889702" id="-46638">
		<tag k="name" v="Larsgardsbekken" />
		<tag k="ssr:stedsnr" v="737754" />
		<tag k="waterway" v="stream" />
	</node>
	<node lat="60.897030554220116" lon="8.889136110632943" id="-46639">
		<tag k="name" v="Osen" />
		<tag k="natural" v="bay" />
		<tag k="ssr:stedsnr" v="767265" />
	</node>
	<node lat="60.941780559122115" lon="8.945994440895324" id="-46647">
		<tag k="name" v="Fløto" />
		<tag k="place" v="locality" />
		<tag k="ssr:stedsnr" v="769257" />
	</node>
	<node lat="61.00933611150047" lon="8.781491662290678" id="-46650">
		<tag k="name" v="Torgardøyne" />
		<tag k="place" v="islet" />
		<tag k="ssr:stedsnr" v="769633" />
	</node>
	<node lat="61.0080334873349" lon="8.772528791093688" id="-46651">
		<tag k="name" v="Dyrlegervike" />
		<tag k="natural" v="bay" />
		<tag k="ssr:stedsnr" v="769634" />
	</node>
	<node lat="60.99766666971175" lon="8.893175006981938" id="-46654">
		<tag k="name" v="Barbrotjerne" />
		<tag k="natural" v="water" />
		<tag k="ssr:stedsnr" v="769489" />
		<tag k="water" v="lake" />
	</node>
	<node lat="61.01127222490165" lon="8.743927785906845" id="-46660">
		<tag k="name" v="Skardtjernbekken" />
		<tag k="ssr:stedsnr" v="769671" />
		<tag k="waterway" v="stream" />
	</node>
	<node lat="61.04292221898034" lon="9.042338897877785" id="-46662">
		<tag k="name" v="Skuteøddin" />
		<tag k="natural" v="cape" />
		<tag k="ssr:stedsnr" v="769893" />
	</node>
	<node lat="60.994224996650445" lon="8.718302777528406" id="-46674">
		<tag k="name" v="Oksleåne" />
		<tag k="ssr:stedsnr" v="797790" />
		<tag k="waterway" v="stream" />
	</node>
	<node lat="61.11621944225966" lon="8.984111116469327" id="-46680">
		<tag k="name" v="Hjellebekken" />
		<tag k="ssr:stedsnr" v="796142" />
		<tag k="waterway" v="stream" />
	</node>
	<node lat="60.93359999640221" lon="8.886397230149461" id="-46693">
		<tag k="name" v="Flåbekken" />
		<tag k="ssr:stedsnr" v="798372" />
		<tag k="waterway" v="stream" />
	</node>
	<node lat="61.02763055619516" lon="8.788986111351246" id="-46695">
		<tag k="name" v="Kroktjern" />
		<tag k="natural" v="water" />
		<tag k="ssr:stedsnr" v="828356" />
	</node>
	<node lat="61.016974999674304" lon="9.085763887195446" id="-46700">
		<tag k="name" v="Jutulhatten" />
		<tag k="place" v="islet" />
		<tag k="ssr:stedsnr" v="828816" />
	</node>
	<node lat="60.93379444063593" lon="8.700552785518628" id="-46704">
		<tag k="name" v="Nedre Trølltjern" />
		<tag k="natural" v="water" />
		<tag k="old_name" v="Nedre Trølltjedn" />
		<tag k="ssr:stedsnr" v="830764" />
	</node>
	<node lat="61.19993055614474" lon="8.886749998492787" id="-46714">
		<tag k="name" v="Røynisvike" />
		<tag k="natural" v="bay" />
		<tag k="ssr:stedsnr" v="843955" />
	</node>
	<node lat="61.06858610817621" lon="9.116569443889608" id="-46715">
		<tag k="name" v="Isøddin" />
		<tag k="natural" v="cape" />
		<tag k="ssr:stedsnr" v="843556" />
	</node>
	<node lat="61.06143888923896" lon="9.134108332551303" id="-46716">
		<tag k="name" v="Syndet" />
		<tag k="natural" v="strait" />
		<tag k="ssr:stedsnr" v="843557" />
	</node>
	<node lat="61.106924996601876" lon="8.946252771297706" id="-46728">
		<tag k="name" v="Viksundet" />
		<tag k="natural" v="strait" />
		<tag k="ssr:stedsnr" v="857196" />
	</node>
	<node lat="61.03752500246689" lon="8.77118055981914" id="-46730">
		<tag k="loc_name" v="Svultatjernet" />
		<tag k="name" v="Svulttjernet" />
		<tag k="natural" v="water" />
		<tag k="ssr:stedsnr" v="857447" />
	</node>
	<node lat="60.96899444123476" lon="8.948022223696181" id="-46732">
		<tag k="name" v="Langebergsvatnet" />
		<tag k="natural" v="water" />
		<tag k="ssr:stedsnr" v="859093" />
	</node>
	<node lat="61.05756944472266" lon="8.843541664708555" id="-46734">
		<tag k="name" v="Gravabekken" />
		<tag k="ssr:stedsnr" v="889333" />
		<tag k="waterway" v="stream" />
	</node>
	<node lat="61.01958610785604" lon="9.079125005191015" id="-46741">
		<tag k="name" v="Geitøyne" />
		<tag k="place" v="island" />
		<tag k="ssr:stedsnr" v="949821" />
	</node>
	<node lat="61.15118055680417" lon="9.010536110127147" id="-46752">
		<tag k="name" v="Kvålsvike" />
		<tag k="natural" v="bay" />
		<tag k="ssr:stedsnr" v="964213" />
	</node>
	<node lat="61.15290555924639" lon="9.010069435811204" id="-46753">
		<tag k="name" v="Flakadammen" />
		<tag k="natural" v="water" />
		<tag k="ssr:stedsnr" v="964215" />
	</node>
	<node lat="61.1250944414097" lon="8.839852771920793" id="-46757">
		<tag k="name" v="Ristebekken" />
		<tag k="ssr:stedsnr" v="968249" />
		<tag k="waterway" v="stream" />
	</node>
	<node lat="61.03827046982791" lon="9.045245392388086" id="-47025">
		<tag k="name" v="Pjåten" />
		<tag k="ssr:stedsnr" v="1080525" />
		<tag k="waterway" v="rapids" />
	</node>
</osm>
