<?xml version="1.0" encoding="UTF-8"?>
<osm version="0.6" generator="osmapis">
	<node lat="61.01135000358325" lon="9.024225003488917" id="-44580">
		<tag k="name" v="Svedalen" />
		<tag k="natural" v="valley" />
		<tag k="place" v="locality" />
		<tag k="ssr:stedsnr" v="7764" />
	</node>
	<node lat="60.99837222350385" lon="8.993527786227384" id="-44582">
		<tag k="name" v="Brennudn" />
		<tag k="natural" v="hill" />
		<tag k="place" v="locality" />
		<tag k="ssr:stedsnr" v="221222" />
	</node>
	<node lat="61.11062222508256" lon="8.854836113501582" id="-44587">
		<tag k="fixme" v="consider natural=saddle" />
		<tag k="name" v="Faraskar" />
		<tag k="natural" v="valley" />
		<tag k="place" v="locality" />
		<tag k="ssr:stedsnr" v="223331" />
	</node>
	<node lat="61.08777778132289" lon="8.965183331598071" id="-44589">
		<tag k="name" v="Gråbeindalen" />
		<tag k="natural" v="valley" />
		<tag k="place" v="locality" />
		<tag k="ssr:stedsnr" v="223429" />
	</node>
	<node lat="60.954413891639696" lon="8.851980553493048" id="-44595">
		<tag k="name" v="Sletteberg" />
		<tag k="natural" v="hill" />
		<tag k="place" v="locality" />
		<tag k="ssr:stedsnr" v="223682" />
	</node>
	<node lat="61.08199722260219" lon="8.961352775898073" id="-44613">
		<tag k="name" v="Sodoma" />
		<tag k="place" v="locality" />
		<tag k="ssr:stedsnr" v="41412" />
	</node>
	<node lat="60.988625003068385" lon="8.814086113405828" id="-44614">
		<tag k="name" v="Heimhovda" />
		<tag k="natural" v="hill" />
		<tag k="place" v="locality" />
		<tag k="ssr:stedsnr" v="41644" />
	</node>
	<node lat="61.055941670981404" lon="8.993044449251805" id="-44621">
		<tag k="name" v="Bolodalen" />
		<tag k="natural" v="valley" />
		<tag k="place" v="locality" />
		<tag k="ssr:stedsnr" v="41884" />
	</node>
	<node lat="61.02880555227806" lon="9.083524998104368" id="-44638">
		<tag k="name" v="Visteberge" />
		<tag k="natural" v="hill" />
		<tag k="place" v="locality" />
		<tag k="ssr:stedsnr" v="99861" />
	</node>
	<node lat="61.00627500228005" lon="8.814894450799367" id="-44647">
		<tag k="name" v="Handehaug" />
		<tag k="natural" v="hill" />
		<tag k="place" v="locality" />
		<tag k="ssr:stedsnr" v="102690" />
	</node>
	<node lat="61.06087777879308" lon="9.033802769315754" id="-44649">
		<tag k="name" v="Reiskleive" />
		<tag k="natural" v="slope" />
		<tag k="place" v="locality" />
		<tag k="ssr:stedsnr" v="102978" />
	</node>
	<node lat="61.164713893400226" lon="8.86926944432337" id="-44650">
		<tag k="name" v="Anglibakken" />
		<tag k="natural" v="slope" />
		<tag k="place" v="locality" />
		<tag k="ssr:stedsnr" v="235977" />
	</node>
	<node lat="61.158313890090945" lon="8.884886117498638" id="-44651">
		<tag k="fixme" v="consider natural=peak for the most distinct mountains in the district" />
		<tag k="name" v="Tunhøvda" />
		<tag k="natural" v="hill" />
		<tag k="place" v="locality" />
		<tag k="ssr:stedsnr" v="235979" />
	</node>
	<node lat="61.11968332891955" lon="8.926558341976087" id="-44655">
		<tag k="fixme" v="consider natural=peak for the most distinct mountains in the district" />
		<tag k="name" v="Augeimsåsen" />
		<tag k="natural" v="hill" />
		<tag k="place" v="locality" />
		<tag k="ssr:stedsnr" v="128089" />
	</node>
	<node lat="61.08411666504108" lon="8.933350002173949" id="-44657">
		<tag k="name" v="Bjørnadalen" />
		<tag k="natural" v="valley" />
		<tag k="place" v="locality" />
		<tag k="ssr:stedsnr" v="128187" />
	</node>
	<node lat="61.07411111370712" lon="8.925291658865197" id="-44658">
		<tag k="name" v="Marsteinfeti" />
		<tag k="natural" v="hill" />
		<tag k="place" v="locality" />
		<tag k="ssr:stedsnr" v="128191" />
	</node>
	<node lat="61.05257500232347" lon="8.969252775422214" id="-44670">
		<tag k="alt_name" v="Skålelie" />
		<tag k="name" v="Skålelii" />
		<tag k="natural" v="slope" />
		<tag k="place" v="locality" />
		<tag k="ssr:stedsnr" v="128831" />
	</node>
	<node lat="61.021211114556394" lon="8.879511106820157" id="-44681">
		<tag k="name" v="Øyahaugadn" />
		<tag k="natural" v="hill" />
		<tag k="place" v="locality" />
		<tag k="ssr:stedsnr" v="162482" />
	</node>
	<node lat="61.01284166494929" lon="8.740766674503952" id="-44683">
		<tag k="name" v="Klanten" />
		<tag k="natural" v="hill" />
		<tag k="place" v="locality" />
		<tag k="ssr:stedsnr" v="162667" />
	</node>
	<node lat="60.945169445417186" lon="8.686697228172443" id="-44686">
		<tag k="name" v="Hesjastølklanten" />
		<tag k="natural" v="hill" />
		<tag k="place" v="locality" />
		<tag k="ssr:stedsnr" v="162754" />
	</node>
	<node lat="61.0647583378353" lon="9.12240833513419" id="-44695">
		<tag k="name" v="Vågenhøvda" />
		<tag k="natural" v="hill" />
		<tag k="place" v="locality" />
		<tag k="ssr:stedsnr" v="175536" />
	</node>
	<node lat="61.08296666608209" lon="8.902338889679566" id="-44700">
		<tag k="alt_name" v="Skjerdalshøvda" />
		<tag k="name" v="Skjerdalshovda" />
		<tag k="natural" v="hill" />
		<tag k="place" v="locality" />
		<tag k="ssr:stedsnr" v="249194" />
	</node>
	<node lat="61.059436111026706" lon="8.856497220572145" id="-44703">
		<tag k="name" v="Syndisfjellet" />
		<tag k="natural" v="hill" />
		<tag k="place" v="locality" />
		<tag k="ssr:stedsnr" v="249849" />
	</node>
	<node lat="61.02966389212724" lon="8.74280277147967" id="-44721">
		<tag k="name" v="Nøsakampen" />
		<tag k="place" v="locality" />
		<tag k="ssr:stedsnr" v="189408" />
	</node>
	<node lat="60.98886666944552" lon="8.89413054780918" id="-44730">
		<tag k="alt_name" v="Bjødnhøvda;Bjørnhovda" />
		<tag k="fixme" v="consider natural=peak for the most distinct mountains in the district" />
		<tag k="name" v="Bjørnahovda" />
		<tag k="natural" v="hill" />
		<tag k="place" v="locality" />
		<tag k="ssr:stedsnr" v="252069" />
	</node>
	<node lat="60.94452222118262" lon="8.9512722135655" id="-44762">
		<tag k="alt_name" v="Gullberghøvda" />
		<tag k="name" v="Gullberghøgda" />
		<tag k="natural" v="hill" />
		<tag k="place" v="locality" />
		<tag k="ssr:stedsnr" v="252360" />
	</node>
	<node lat="61.09459999767905" lon="8.943766673805145" id="-44767">
		<tag k="name" v="Kinnberge" />
		<tag k="natural" v="hill" />
		<tag k="place" v="locality" />
		<tag k="ssr:stedsnr" v="284405" />
	</node>
	<node lat="61.12085277925045" lon="8.9689194521689" id="-44770">
		<tag k="name" v="Grønhovda" />
		<tag k="natural" v="slope" />
		<tag k="place" v="locality" />
		<tag k="ssr:stedsnr" v="284395" />
	</node>
	<node lat="60.919502773979474" lon="8.81381111925852" id="-44772">
		<tag k="name" v="Steinhovda" />
		<tag k="natural" v="hill" />
		<tag k="place" v="locality" />
		<tag k="ssr:stedsnr" v="284806" />
	</node>
	<node lat="61.10110555246051" lon="8.987841675134067" id="-44778">
		<tag k="name" v="Fulkjisbrøtadn" />
		<tag k="natural" v="slope" />
		<tag k="place" v="locality" />
		<tag k="ssr:stedsnr" v="284992" />
	</node>
	<node lat="61.05257777404679" lon="8.917138890958372" id="-44789">
		<tag k="alt_name" v="Dingladn" />
		<tag k="name" v="Dinglane" />
		<tag k="place" v="locality" />
		<tag k="ssr:stedsnr" v="310838" />
	</node>
	<node lat="61.138588885241255" lon="8.974552773526987" id="-44794">
		<tag k="name" v="Bjersethøvda" />
		<tag k="natural" v="hill" />
		<tag k="place" v="locality" />
		<tag k="ssr:stedsnr" v="342068" />
	</node>
	<node lat="60.96509444064826" lon="8.901077769791264" id="-44798">
		<tag k="name" v="Ørneberg" />
		<tag k="natural" v="hill" />
		<tag k="place" v="locality" />
		<tag k="ssr:stedsnr" v="344520" />
	</node>
	<node lat="60.921900003349414" lon="8.838288890690972" id="-44801">
		<tag k="name" v="Rundehaugen" />
		<tag k="natural" v="hill" />
		<tag k="place" v="locality" />
		<tag k="ssr:stedsnr" v="344785" />
	</node>
	<node lat="61.13764444759834" lon="8.927313887228447" id="-44804">
		<tag k="name" v="Trøbakkin" />
		<tag k="natural" v="slope" />
		<tag k="place" v="locality" />
		<tag k="ssr:stedsnr" v="464092" />
	</node>
	<node lat="61.001669446166986" lon="8.797922218122839" id="-44810">
		<tag k="name" v="Marihaug" />
		<tag k="natural" v="hill" />
		<tag k="place" v="locality" />
		<tag k="ssr:stedsnr" v="465633" />
	</node>
	<node lat="61.13676944548691" lon="8.860319452926108" id="-44813">
		<tag k="name" v="Moaberg" />
		<tag k="natural" v="hill" />
		<tag k="place" v="locality" />
		<tag k="ssr:stedsnr" v="370117" />
	</node>
	<node lat="61.096233334374546" lon="8.75970833714956" id="-44815">
		<tag k="fixme" v="consider natural=peak for the most distinct mountains in the district" />
		<tag k="name" v="Syndinfjellet" />
		<tag k="natural" v="hill" />
		<tag k="place" v="locality" />
		<tag k="ssr:stedsnr" v="370403" />
	</node>
	<node lat="60.93715000361052" lon="8.68116388001064" id="-44831">
		<tag k="name" v="Bjørnesletten" />
		<tag k="place" v="locality" />
		<tag k="ssr:stedsnr" v="466763" />
	</node>
	<node lat="61.079655554833465" lon="9.03290555503173" id="-44836">
		<tag k="fixme" v="consider natural=peak for the most distinct mountains in the district" />
		<tag k="name" v="Ringhøvd" />
		<tag k="natural" v="hill" />
		<tag k="place" v="locality" />
		<tag k="ssr:stedsnr" v="466946" />
	</node>
	<node lat="61.04609166434847" lon="8.917208330568124" id="-44843">
		<tag k="name" v="Knippesethøgde" />
		<tag k="natural" v="hill" />
		<tag k="place" v="locality" />
		<tag k="ssr:stedsnr" v="405449" />
	</node>
	<node lat="60.999522225530285" lon="8.90070833253063" id="-44844">
		<tag k="name" v="Storhaug" />
		<tag k="natural" v="hill" />
		<tag k="place" v="locality" />
		<tag k="ssr:stedsnr" v="405504" />
	</node>
	<node lat="60.98275833694808" lon="8.958699991287329" id="-44847">
		<tag k="name" v="Hallestøllie" />
		<tag k="natural" v="slope" />
		<tag k="place" v="locality" />
		<tag k="ssr:stedsnr" v="405517" />
	</node>
	<node lat="61.0503583364365" lon="8.675366667572428" id="-44865">
		<tag k="fixme" v="consider natural=peak for the most distinct mountains in the district" />
		<tag k="name" v="Kruk" />
		<tag k="natural" v="hill" />
		<tag k="place" v="locality" />
		<tag k="ssr:stedsnr" v="432353" />
	</node>
	<node lat="61.178130555566156" lon="8.877002773192" id="-44872">
		<tag k="fixme" v="consider natural=peak for the most distinct mountains in the district" />
		<tag k="name" v="Einebuåsen" />
		<tag k="natural" v="hill" />
		<tag k="place" v="locality" />
		<tag k="ssr:stedsnr" v="478963" />
	</node>
	<node lat="61.059325000106355" lon="8.738816661293347" id="-44875">
		<tag k="name" v="Valhaug" />
		<tag k="natural" v="hill" />
		<tag k="place" v="locality" />
		<tag k="ssr:stedsnr" v="464805" />
	</node>
	<node lat="60.965188892485095" lon="8.914186116372798" id="-44880">
		<tag k="name" v="Mariberg" />
		<tag k="natural" v="hill" />
		<tag k="place" v="locality" />
		<tag k="ssr:stedsnr" v="466517" />
	</node>
	<node lat="61.09744166601227" lon="9.010594439561707" id="-44883">
		<tag k="name" v="Laukebakke" />
		<tag k="natural" v="slope" />
		<tag k="place" v="locality" />
		<tag k="ssr:stedsnr" v="466993" />
	</node>
	<node lat="61.07281944842281" lon="8.71462500714721" id="-44887">
		<tag k="name" v="Skjenebakk" />
		<tag k="natural" v="slope" />
		<tag k="place" v="locality" />
		<tag k="ssr:stedsnr" v="482812" />
	</node>
	<node lat="61.07904444464566" lon="8.942022224606061" id="-44893">
		<tag k="name" v="Olberg" />
		<tag k="natural" v="hill" />
		<tag k="place" v="locality" />
		<tag k="ssr:stedsnr" v="492180" />
	</node>
	<node lat="61.008977776199266" lon="8.827719451105043" id="-44920">
		<tag k="name" v="Grønsennkampen" />
		<tag k="natural" v="hill" />
		<tag k="place" v="locality" />
		<tag k="ssr:stedsnr" v="674388" />
	</node>
	<node lat="60.97792221821547" lon="8.962861106247363" id="-44933">
		<tag k="fixme" v="consider natural=peak for the most distinct mountains in the district" />
		<tag k="name" v="Saukollen" />
		<tag k="natural" v="hill" />
		<tag k="place" v="locality" />
		<tag k="ssr:stedsnr" v="526493" />
	</node>
	<node lat="61.1459916626145" lon="8.957849992033758" id="-44940">
		<tag k="name" v="Kviteberg" />
		<tag k="natural" v="hill" />
		<tag k="place" v="locality" />
		<tag k="ssr:stedsnr" v="539808" />
	</node>
	<node lat="61.093830557559656" lon="9.043725000292321" id="-44943">
		<tag k="alt_name" v="Tvengihøvda" />
		<tag k="name" v="Tvengehovda" />
		<tag k="natural" v="hill" />
		<tag k="place" v="locality" />
		<tag k="ssr:stedsnr" v="552204" />
	</node>
	<node lat="61.0806694428983" lon="8.916119450932152" id="-44946">
		<tag k="name" v="Nystølbakkane" />
		<tag k="natural" v="slope" />
		<tag k="place" v="locality" />
		<tag k="ssr:stedsnr" v="553203" />
	</node>
	<node lat="61.01863889240373" lon="8.741480561795575" id="-44950">
		<tag k="alt_name" v="Kyrskardet" />
		<tag k="fixme" v="consider natural=saddle" />
		<tag k="name" v="Kyrskard" />
		<tag k="natural" v="valley" />
		<tag k="old_name" v="Biskeskardet" />
		<tag k="place" v="locality" />
		<tag k="ssr:stedsnr" v="553415" />
	</node>
	<node lat="61.09989444201248" lon="8.937405548832414" id="-44956">
		<tag k="name" v="Hagaberge" />
		<tag k="natural" v="hill" />
		<tag k="place" v="locality" />
		<tag k="ssr:stedsnr" v="587414" />
	</node>
	<node lat="61.00083889236102" lon="8.931613887545675" id="-44957">
		<tag k="name" v="Synet" />
		<tag k="natural" v="hill" />
		<tag k="place" v="locality" />
		<tag k="ssr:stedsnr" v="587504" />
	</node>
	<node lat="61.047249999292696" lon="9.09359167565828" id="-44961">
		<tag k="fixme" v="consider natural=peak for the most distinct mountains in the district" />
		<tag k="name" v="Fystroåsen" />
		<tag k="natural" v="hill" />
		<tag k="place" v="locality" />
		<tag k="ssr:stedsnr" v="587913" />
	</node>
	<node lat="61.08194999696993" lon="8.996986103301463" id="-44963">
		<tag k="name" v="Dokke" />
		<tag k="place" v="locality" />
		<tag k="ssr:stedsnr" v="587939" />
	</node>
	<node lat="61.096638891694816" lon="8.822366659482517" id="-44978">
		<tag k="alt_name" v="Svarthammaren" />
		<tag k="fixme" v="consider natural=peak for the most distinct mountains in the district" />
		<tag k="name" v="Svarthamar" />
		<tag k="natural" v="hill" />
		<tag k="place" v="locality" />
		<tag k="ssr:stedsnr" v="613364" />
	</node>
	<node lat="61.06900833064003" lon="9.066238897904823" id="-44980">
		<tag k="fixme" v="consider natural=peak for the most distinct mountains in the district" />
		<tag k="name" v="Reiesåsen" />
		<tag k="natural" v="hill" />
		<tag k="place" v="locality" />
		<tag k="ssr:stedsnr" v="613861" />
	</node>
	<node lat="61.04672499644897" lon="8.891991672380996" id="-44990">
		<tag k="name" v="Langehaugen" />
		<tag k="natural" v="hill" />
		<tag k="place" v="locality" />
		<tag k="ssr:stedsnr" v="647435" />
	</node>
	<node lat="60.970136108084425" lon="8.910761119111232" id="-44991">
		<tag k="name" v="Grønlihøgda" />
		<tag k="natural" v="hill" />
		<tag k="place" v="locality" />
		<tag k="ssr:stedsnr" v="647506" />
	</node>
	<node lat="60.922436109718106" lon="8.745983331445357" id="-44993">
		<tag k="name" v="Langeranden" />
		<tag k="natural" v="hill" />
		<tag k="place" v="locality" />
		<tag k="ssr:stedsnr" v="647747" />
	</node>
	<node lat="60.958397637568225" lon="8.85355061209898" id="-45006">
		<tag k="alt_name" v="Noseknipa" />
		<tag k="fixme" v="multiple name tags, choose one and add the other to alt_name; consider natural=peak for the most distinct mountains in the district" />
		<tag k="name" v="Nøsakampen;Noseknippa" />
		<tag k="natural" v="hill" />
		<tag k="place" v="locality" />
		<tag k="ssr:stedsnr" v="676096" />
	</node>
	<node lat="60.96878055155262" lon="8.903561109746668" id="-45007">
		<tag k="fixme" v="consider natural=peak for the most distinct mountains in the district" />
		<tag k="name" v="Grønlihovda" />
		<tag k="natural" v="hill" />
		<tag k="place" v="locality" />
		<tag k="ssr:stedsnr" v="677110" />
	</node>
	<node lat="61.05150277709875" lon="8.771036118421472" id="-45032">
		<tag k="name" v="Synhaug" />
		<tag k="natural" v="hill" />
		<tag k="place" v="locality" />
		<tag k="ssr:stedsnr" v="889344" />
	</node>
	<node lat="61.130300000146015" lon="9.005969443885403" id="-45033">
		<tag k="name" v="Julsonlie" />
		<tag k="natural" v="slope" />
		<tag k="place" v="locality" />
		<tag k="ssr:stedsnr" v="722280" />
	</node>
	<node lat="61.07261944247356" lon="8.986488886367136" id="-45047">
		<tag k="loc_name" v="Geiteskallin;Geiteskallen" />
		<tag k="name" v="Geitskallin" />
		<tag k="natural" v="hill" />
		<tag k="place" v="locality" />
		<tag k="ssr:stedsnr" v="891951" />
	</node>
	<node lat="61.025102774615625" lon="8.771977786529117" id="-45054">
		<tag k="name" v="Lengjehovda" />
		<tag k="natural" v="hill" />
		<tag k="place" v="locality" />
		<tag k="ssr:stedsnr" v="735413" />
	</node>
	<node lat="60.97165277772603" lon="8.843369446522933" id="-45063">
		<tag k="name" v="Svenskekampen" />
		<tag k="natural" v="hill" />
		<tag k="place" v="locality" />
		<tag k="ssr:stedsnr" v="768449" />
	</node>
	<node lat="60.93700278143559" lon="8.903891675358206" id="-45065">
		<tag k="name" v="Lomtjernhaugane" />
		<tag k="natural" v="hill" />
		<tag k="place" v="locality" />
		<tag k="ssr:stedsnr" v="769258" />
	</node>
	<node lat="60.92224167018056" lon="8.838183337489912" id="-45066">
		<tag k="name" v="Fauskehaugen" />
		<tag k="natural" v="hill" />
		<tag k="place" v="locality" />
		<tag k="ssr:stedsnr" v="769563" />
	</node>
	<node lat="61.112888887129955" lon="8.941783338334258" id="-45070">
		<tag k="alt_name" v="Raunberge" />
		<tag k="name" v="Raunberget" />
		<tag k="natural" v="cliff" />
		<tag k="old_name" v="Ravnberget" />
		<tag k="ssr:stedsnr" v="780170" />
	</node>
	<node lat="61.14821111072438" lon="8.903352768758054" id="-45072">
		<tag k="fixme" v="consider natural=peak for the most distinct mountains in the district" />
		<tag k="name" v="Eggeåsen" />
		<tag k="natural" v="hill" />
		<tag k="place" v="locality" />
		<tag k="ssr:stedsnr" v="782960" />
	</node>
	<node lat="60.964933337302824" lon="8.945258330376" id="-45087">
		<tag k="name" v="Langeberget" />
		<tag k="natural" v="hill" />
		<tag k="place" v="locality" />
		<tag k="ssr:stedsnr" v="798105" />
	</node>
	<node lat="61.149219445820414" lon="9.001566672301351" id="-45089">
		<tag k="name" v="Furuhaugadn" />
		<tag k="natural" v="hill" />
		<tag k="place" v="locality" />
		<tag k="ssr:stedsnr" v="904183" />
	</node>
	<node lat="61.149497224352864" lon="8.953411107587858" id="-45103">
		<tag k="name" v="Rengistadlie" />
		<tag k="natural" v="slope" />
		<tag k="old_name" v="Ringestadlii;Ringestadlie" />
		<tag k="place" v="locality" />
		<tag k="ssr:stedsnr" v="855644" />
	</node>
	<node lat="61.09983055543228" lon="8.74816389705367" id="-45112">
		<tag k="name" v="Gamlestølhaugen" />
		<tag k="natural" v="hill" />
		<tag k="place" v="locality" />
		<tag k="ssr:stedsnr" v="856414" />
	</node>
	<node lat="61.02598610731755" lon="8.958341662766447" id="-45115">
		<tag k="alt_name" v="Storhøvda" />
		<tag k="name" v="Storhovd" />
		<tag k="natural" v="hill" />
		<tag k="place" v="locality" />
		<tag k="ssr:stedsnr" v="856808" />
	</node>
	<node lat="61.051188886692636" lon="8.88536388303185" id="-45117">
		<tag k="alt_name" v="Knivhaugadn" />
		<tag k="name" v="Knivhaugane" />
		<tag k="natural" v="hill" />
		<tag k="place" v="locality" />
		<tag k="ssr:stedsnr" v="856844" />
	</node>
	<node lat="60.93510833370864" lon="8.719700008667598" id="-45125">
		<tag k="alt_name" v="Trøllklantadn" />
		<tag k="name" v="Trollklantane" />
		<tag k="natural" v="hill" />
		<tag k="place" v="locality" />
		<tag k="ssr:stedsnr" v="858874" />
	</node>
	<node lat="60.93721111425432" lon="8.944127769833512" id="-45127">
		<tag k="alt_name" v="Mælhaugane" />
		<tag k="name" v="Melhaug" />
		<tag k="natural" v="hill" />
		<tag k="place" v="locality" />
		<tag k="ssr:stedsnr" v="859365" />
	</node>
	<node lat="61.03524820605072" lon="8.83364971454099" id="-45133">
		<tag k="alt_name" v="Kringelhovda" />
		<tag k="fixme" v="consider natural=peak for the most distinct mountains in the district" />
		<tag k="loc_name" v="Klingerhovda" />
		<tag k="name" v="Kringlehovda" />
		<tag k="natural" v="hill" />
		<tag k="place" v="locality" />
		<tag k="ssr:stedsnr" v="917394" />
	</node>
	<node lat="61.129599997660584" lon="8.9347305610985" id="-45148">
		<tag k="name" v="Løkjisberget" />
		<tag k="natural" v="hill" />
		<tag k="place" v="locality" />
		<tag k="ssr:stedsnr" v="889102" />
	</node>
	<node lat="60.919836111279636" lon="8.838038881985767" id="-45153">
		<tag k="name" v="Langehaugen" />
		<tag k="natural" v="hill" />
		<tag k="place" v="locality" />
		<tag k="ssr:stedsnr" v="891778" />
	</node>
	<node lat="61.04793333627026" lon="9.149911109802487" id="-45164">
		<tag k="name" v="Brendemoen" />
		<tag k="place" v="locality" />
		<tag k="ssr:stedsnr" v="917805" />
	</node>
	<node lat="60.975747224260495" lon="8.901583335470281" id="-45175">
		<tag k="name" v="Storhaug" />
		<tag k="natural" v="hill" />
		<tag k="place" v="locality" />
		<tag k="ssr:stedsnr" v="920097" />
	</node>
	<node lat="61.027675004023706" lon="8.882033325636197" id="-45180">
		<tag k="name" v="Brendehaugen" />
		<tag k="natural" v="hill" />
		<tag k="place" v="locality" />
		<tag k="ssr:stedsnr" v="951433" />
	</node>
	<node lat="61.03307499690726" lon="8.948061104167644" id="-45304">
		<tag k="alt_name" v="Landsrudfeten" />
		<tag k="name" v="Landrudfeti" />
		<tag k="place" v="locality" />
		<tag k="ssr:stedsnr" v="7792" />
	</node>
	<node lat="61.0601499993209" lon="8.978863887702424" id="-45308">
		<tag k="name" v="Gile" />
		<tag k="natural" v="valley" />
		<tag k="place" v="locality" />
		<tag k="ssr:stedsnr" v="14939" />
	</node>
	<node lat="61.10905278098682" lon="8.911211112642853" id="-45311">
		<tag k="name" v="Hesteberget" />
		<tag k="natural" v="hill" />
		<tag k="place" v="locality" />
		<tag k="ssr:stedsnr" v="39316" />
	</node>
	<node lat="60.91584999615688" lon="8.787513881044969" id="-45317">
		<tag k="name" v="Skruvlehovda" />
		<tag k="natural" v="hill" />
		<tag k="place" v="locality" />
		<tag k="ssr:stedsnr" v="41737" />
	</node>
	<node lat="61.02483333158439" lon="8.740966670452515" id="-45328">
		<tag k="alt_name" v="Geiteskardet" />
		<tag k="fixme" v="consider natural=saddle" />
		<tag k="name" v="Geiteskard" />
		<tag k="natural" v="valley" />
		<tag k="place" v="locality" />
		<tag k="ssr:stedsnr" v="51882" />
	</node>
	<node lat="60.92187499557387" lon="8.772355560311246" id="-45355">
		<tag k="alt_name" v="Baklie" />
		<tag k="name" v="Baklii" />
		<tag k="natural" v="slope" />
		<tag k="place" v="locality" />
		<tag k="ssr:stedsnr" v="69871" />
	</node>
	<node lat="60.90613611142302" lon="8.89770277354511" id="-45359">
		<tag k="alt_name" v="Kvithøvda" />
		<tag k="name" v="Kvithovda" />
		<tag k="natural" v="hill" />
		<tag k="place" v="locality" />
		<tag k="ssr:stedsnr" v="70357" />
	</node>
	<node lat="61.00218610838538" lon="9.003958332391273" id="-45360">
		<tag k="name" v="Svedalen" />
		<tag k="natural" v="valley" />
		<tag k="place" v="locality" />
		<tag k="ssr:stedsnr" v="100230" />
	</node>
	<node lat="60.9452861122684" lon="8.933197213591749" id="-45367">
		<tag k="name" v="Langehaugen" />
		<tag k="natural" v="hill" />
		<tag k="place" v="locality" />
		<tag k="ssr:stedsnr" v="102324" />
	</node>
	<node lat="61.09901388569103" lon="8.91938888689011" id="-45379">
		<tag k="name" v="Risgarden" />
		<tag k="natural" v="slope" />
		<tag k="place" v="locality" />
		<tag k="ssr:stedsnr" v="102631" />
	</node>
	<node lat="61.081386114829286" lon="8.812408335837523" id="-45391">
		<tag k="name" v="Rennefjellet" />
		<tag k="natural" v="hill" />
		<tag k="place" v="locality" />
		<tag k="ssr:stedsnr" v="128328" />
	</node>
	<node lat="61.037955557491756" lon="9.114905557511985" id="-45400">
		<tag k="alt_name" v="Fuglehaugadn" />
		<tag k="name" v="Fuglehaugane" />
		<tag k="natural" v="hill" />
		<tag k="place" v="locality" />
		<tag k="ssr:stedsnr" v="128819" />
	</node>
	<node lat="61.01676388935807" lon="8.74450833228731" id="-45406">
		<tag k="name" v="Kattugleberget" />
		<tag k="natural" v="hill" />
		<tag k="place" v="locality" />
		<tag k="ssr:stedsnr" v="160325" />
	</node>
	<node lat="60.90919444514898" lon="8.809913896380845" id="-45415">
		<tag k="name" v="Grønehovda" />
		<tag k="natural" v="hill" />
		<tag k="place" v="locality" />
		<tag k="ssr:stedsnr" v="162791" />
	</node>
	<node lat="61.07221111198384" lon="8.880655560070188" id="-45432">
		<tag k="alt_name" v="Fiskeløyshøgdi" />
		<tag k="name" v="Fiskeløyshøgde" />
		<tag k="natural" v="hill" />
		<tag k="place" v="locality" />
		<tag k="ssr:stedsnr" v="189198" />
	</node>
	<node lat="60.95036666441768" lon="8.934649991091353" id="-45444">
		<tag k="alt_name" v="Synhovda" />
		<tag k="name" v="Synnhovda" />
		<tag k="natural" v="hill" />
		<tag k="place" v="locality" />
		<tag k="ssr:stedsnr" v="191086" />
	</node>
	<node lat="60.95456944544709" lon="8.837605560628203" id="-45455">
		<tag k="name" v="Synhaug" />
		<tag k="natural" v="hill" />
		<tag k="place" v="locality" />
		<tag k="ssr:stedsnr" v="284663" />
	</node>
	<node lat="61.072794445325236" lon="8.707011103070453" id="-45462">
		<tag k="name" v="Grønebakk" />
		<tag k="natural" v="slope" />
		<tag k="place" v="locality" />
		<tag k="ssr:stedsnr" v="300821" />
	</node>
	<node lat="61.062316663356974" lon="9.069094443667915" id="-45473">
		<tag k="fixme" v="multiple name tags, choose one and add the other to alt_name; consider natural=peak for the most distinct mountains in the district" />
		<tag k="name" v="Snortheimsåsen;Magistadåsen" />
		<tag k="natural" v="hill" />
		<tag k="place" v="locality" />
		<tag k="ssr:stedsnr" v="310833" />
	</node>
	<node lat="60.95907500112279" lon="8.758249994782943" id="-45474">
		<tag k="alt_name" v="Bukonofjellet" />
		<tag k="fixme" v="consider natural=peak for the most distinct mountains in the district" />
		<tag k="name" v="Bukonefjellet" />
		<tag k="natural" v="hill" />
		<tag k="place" v="locality" />
		<tag k="ssr:stedsnr" v="312729" />
	</node>
	<node lat="61.10701110874389" lon="8.928219453345354" id="-45488">
		<tag k="name" v="Istaddalen" />
		<tag k="natural" v="valley" />
		<tag k="place" v="locality" />
		<tag k="ssr:stedsnr" v="344421" />
	</node>
	<node lat="61.06567777362678" lon="8.877827769311855" id="-45491">
		<tag k="name" v="Preststølhalladn" />
		<tag k="natural" v="slope" />
		<tag k="place" v="locality" />
		<tag k="ssr:stedsnr" v="344438" />
	</node>
	<node lat="60.9768500004614" lon="8.819597213118511" id="-45495">
		<tag k="name" v="Rundeklanten" />
		<tag k="natural" v="hill" />
		<tag k="place" v="locality" />
		<tag k="ssr:stedsnr" v="344652" />
	</node>
	<node lat="61.04874722143468" lon="9.0925694409669" id="-45499">
		<tag k="name" v="Brendahaugen" />
		<tag k="natural" v="hill" />
		<tag k="place" v="locality" />
		<tag k="ssr:stedsnr" v="344905" />
	</node>
	<node lat="61.0090111100082" lon="8.733808325200796" id="-45511">
		<tag k="name" v="Helehovda" />
		<tag k="natural" v="hill" />
		<tag k="place" v="locality" />
		<tag k="ssr:stedsnr" v="371399" />
	</node>
	<node lat="60.89859722068901" lon="8.851191666564855" id="-45529">
		<tag k="name" v="Rishovda" />
		<tag k="natural" v="hill" />
		<tag k="place" v="locality" />
		<tag k="ssr:stedsnr" v="373430" />
	</node>
	<node lat="60.92230555306987" lon="8.866613883500937" id="-45530">
		<tag k="name" v="Flisøyne" />
		<tag k="natural" v="hill" />
		<tag k="place" v="locality" />
		<tag k="ssr:stedsnr" v="403231" />
	</node>
	<node lat="61.087647218513226" lon="8.960547228918934" id="-45545">
		<tag k="name" v="Prekestolberget" />
		<tag k="natural" v="hill" />
		<tag k="place" v="locality" />
		<tag k="ssr:stedsnr" v="405423" />
	</node>
	<node lat="61.07159444704042" lon="8.970277773887695" id="-45546">
		<tag k="name" v="Kampen" />
		<tag k="natural" v="hill" />
		<tag k="place" v="locality" />
		<tag k="ssr:stedsnr" v="405426" />
	</node>
	<node lat="61.07017500291138" lon="8.960138882029176" id="-45547">
		<tag k="name" v="Hamnsbakkadn" />
		<tag k="natural" v="slope" />
		<tag k="place" v="locality" />
		<tag k="ssr:stedsnr" v="405427" />
	</node>
	<node lat="61.05283333084887" lon="9.003408327792222" id="-45551">
		<tag k="fixme" v="consider natural=peak for the most distinct mountains in the district" />
		<tag k="name" v="Bakkeberget" />
		<tag k="natural" v="hill" />
		<tag k="place" v="locality" />
		<tag k="ssr:stedsnr" v="405889" />
	</node>
	<node lat="61.00188611313439" lon="8.940705557269794" id="-45555">
		<tag k="name" v="Steggelhaugen" />
		<tag k="natural" v="hill" />
		<tag k="place" v="locality" />
		<tag k="ssr:stedsnr" v="405490" />
	</node>
	<node lat="60.92625832942715" lon="8.816794442174322" id="-45557">
		<tag k="name" v="Snortheimshaugane" />
		<tag k="natural" v="hill" />
		<tag k="place" v="locality" />
		<tag k="ssr:stedsnr" v="405780" />
	</node>
	<node lat="61.15007499864598" lon="8.940727772298832" id="-45561">
		<tag k="name" v="Haugslie" />
		<tag k="natural" v="slope" />
		<tag k="place" v="locality" />
		<tag k="ssr:stedsnr" v="418805" />
	</node>
	<node lat="61.15795000349981" lon="8.90772778231944" id="-45562">
		<tag k="name" v="Høvslie" />
		<tag k="natural" v="slope" />
		<tag k="place" v="locality" />
		<tag k="ssr:stedsnr" v="418966" />
	</node>
	<node lat="61.12285277934524" lon="9.00482500596098" id="-45567">
		<tag k="alt_name" v="Gråbeinhøvda" />
		<tag k="name" v="Gråbeinhovda" />
		<tag k="natural" v="hill" />
		<tag k="place" v="locality" />
		<tag k="ssr:stedsnr" v="432128" />
	</node>
	<node lat="61.03580277461053" lon="9.118169446672187" id="-45577">
		<tag k="alt_name" v="Rebnesåsen" />
		<tag k="fixme" v="consider natural=peak for the most distinct mountains in the district" />
		<tag k="name" v="Revnesåsen" />
		<tag k="natural" v="hill" />
		<tag k="place" v="locality" />
		<tag k="ssr:stedsnr" v="432797" />
	</node>
	<node lat="60.97711111048794" lon="8.843805564353248" id="-45579">
		<tag k="alt_name" v="Svenskeknipa" />
		<tag k="name" v="Svenskeknippa" />
		<tag k="natural" v="hill" />
		<tag k="place" v="locality" />
		<tag k="ssr:stedsnr" v="433773" />
	</node>
	<node lat="60.972191663309765" lon="8.725194452514794" id="-45580">
		<tag k="fixme" v="consider natural=peak for the most distinct mountains in the district" />
		<tag k="name" v="Gråkampen" />
		<tag k="natural" v="hill" />
		<tag k="place" v="locality" />
		<tag k="ssr:stedsnr" v="433777" />
	</node>
	<node lat="61.01772500336433" lon="8.975080553091791" id="-45595">
		<tag k="fixme" v="consider natural=peak for the most distinct mountains in the district" />
		<tag k="name" v="Ålfjell" />
		<tag k="natural" v="hill" />
		<tag k="place" v="locality" />
		<tag k="ssr:stedsnr" v="492764" />
	</node>
	<node lat="61.13900555318021" lon="8.91653332999534" id="-45606">
		<tag k="name" v="Lomisberget" />
		<tag k="natural" v="hill" />
		<tag k="place" v="locality" />
		<tag k="ssr:stedsnr" v="525095" />
	</node>
	<node lat="61.09053333010724" lon="8.831836112599593" id="-45610">
		<tag k="name" v="Svarthamardækkadn" />
		<tag k="natural" v="valley" />
		<tag k="place" v="locality" />
		<tag k="ssr:stedsnr" v="526299" />
	</node>
	<node lat="60.91999722412519" lon="8.829891674853739" id="-45613">
		<tag k="name" v="Handehaugen" />
		<tag k="natural" v="hill" />
		<tag k="place" v="locality" />
		<tag k="ssr:stedsnr" v="526773" />
	</node>
	<node lat="61.10121111115996" lon="8.956424994519576" id="-45625">
		<tag k="name" v="Hausåkerkollen" />
		<tag k="natural" v="hill" />
		<tag k="place" v="locality" />
		<tag k="ssr:stedsnr" v="553166" />
	</node>
	<node lat="61.12236944678444" lon="8.986836117818271" id="-45627">
		<tag k="alt_name" v="Kvålshøvda" />
		<tag k="name" v="Kvålshovd" />
		<tag k="natural" v="hill" />
		<tag k="place" v="locality" />
		<tag k="ssr:stedsnr" v="553127" />
	</node>
	<node lat="61.04723055186033" lon="8.813755556091182" id="-45630">
		<tag k="name" v="Soleikrohovda" />
		<tag k="natural" v="hill" />
		<tag k="place" v="locality" />
		<tag k="ssr:stedsnr" v="553370" />
	</node>
	<node lat="61.10655278115304" lon="8.910169452892816" id="-45635">
		<tag k="name" v="Fosseberget" />
		<tag k="natural" v="hill" />
		<tag k="place" v="locality" />
		<tag k="ssr:stedsnr" v="585332" />
	</node>
	<node lat="61.08914999654172" lon="8.980424994992834" id="-45648">
		<tag k="name" v="Stupuldalen" />
		<tag k="natural" v="valley" />
		<tag k="place" v="locality" />
		<tag k="ssr:stedsnr" v="587948" />
	</node>
	<node lat="60.960441668389734" lon="8.732802768854844" id="-45651">
		<tag k="name" v="Reinejuve" />
		<tag k="natural" v="gorge" />
		<tag k="ssr:stedsnr" v="587756" />
	</node>
	<node lat="61.06404444462384" lon="8.71077777438562" id="-45666">
		<tag k="name" v="Hågensgil" />
		<tag k="natural" v="valley" />
		<tag k="place" v="locality" />
		<tag k="ssr:stedsnr" v="613397" />
	</node>
	<node lat="61.00190000362105" lon="8.988980560273252" id="-45667">
		<tag k="alt_name" v="Vasetbakkadn" />
		<tag k="name" v="Vasetbakkane" />
		<tag k="natural" v="slope" />
		<tag k="place" v="locality" />
		<tag k="ssr:stedsnr" v="613760" />
	</node>
	<node lat="60.957813892672924" lon="8.839163897713247" id="-45684">
		<tag k="name" v="Storhaug" />
		<tag k="natural" v="hill" />
		<tag k="place" v="locality" />
		<tag k="ssr:stedsnr" v="647656" />
	</node>
	<node lat="60.96978333028205" lon="8.800411110034949" id="-45685">
		<tag k="name" v="Langehaugen" />
		<tag k="natural" v="hill" />
		<tag k="place" v="locality" />
		<tag k="ssr:stedsnr" v="647659" />
	</node>
	<node lat="61.10900277602607" lon="8.90325555499425" id="-45690">
		<tag k="fixme" v="consider natural=peak for the most distinct mountains in the district" />
		<tag k="name" v="Øyberget" />
		<tag k="natural" v="hill" />
		<tag k="place" v="locality" />
		<tag k="ssr:stedsnr" v="706351" />
	</node>
	<node lat="61.01702222261686" lon="8.82751944413075" id="-45691">
		<tag k="name" v="Grønsennhøgde" />
		<tag k="natural" v="hill" />
		<tag k="place" v="locality" />
		<tag k="ssr:stedsnr" v="707353" />
	</node>
	<node lat="61.131699999439086" lon="8.903233332489748" id="-45692">
		<tag k="name" v="Larseberget" />
		<tag k="natural" v="hill" />
		<tag k="place" v="locality" />
		<tag k="ssr:stedsnr" v="708095" />
	</node>
	<node lat="60.998072224686794" lon="8.74714444804519" id="-45694">
		<tag k="name" v="Kvitehaugen" />
		<tag k="natural" v="hill" />
		<tag k="place" v="locality" />
		<tag k="ssr:stedsnr" v="708666" />
	</node>
	<node lat="61.14681110975786" lon="8.928674993610235" id="-45705">
		<tag k="fixme" v="consider natural=peak for the most distinct mountains in the district" />
		<tag k="name" v="Lomisåsen" />
		<tag k="natural" v="hill" />
		<tag k="place" v="locality" />
		<tag k="ssr:stedsnr" v="721775" />
	</node>
	<node lat="61.15026944697462" lon="8.973155561853094" id="-45706">
		<tag k="name" v="Løkjislie" />
		<tag k="natural" v="slope" />
		<tag k="place" v="locality" />
		<tag k="ssr:stedsnr" v="721776" />
	</node>
	<node lat="61.13931389135916" lon="8.957988885492338" id="-45711">
		<tag k="alt_name" v="Reinshøvda" />
		<tag k="name" v="Reinshovd" />
		<tag k="natural" v="hill" />
		<tag k="place" v="locality" />
		<tag k="ssr:stedsnr" v="735093" />
	</node>
	<node lat="61.08754444564501" lon="8.928577781729123" id="-45722">
		<tag k="name" v="Frikstadhovda" />
		<tag k="natural" v="hill" />
		<tag k="place" v="locality" />
		<tag k="ssr:stedsnr" v="735220" />
	</node>
	<node lat="61.12698333753968" lon="8.839574990908613" id="-45726">
		<tag k="name" v="Risteberget" />
		<tag k="natural" v="hill" />
		<tag k="place" v="locality" />
		<tag k="ssr:stedsnr" v="735345" />
	</node>
	<node lat="60.969980551921495" lon="8.934152778634065" id="-45736">
		<tag k="fixme" v="consider natural=peak for the most distinct mountains in the district" />
		<tag k="name" v="Skurvehovda" />
		<tag k="natural" v="hill" />
		<tag k="place" v="locality" />
		<tag k="ssr:stedsnr" v="767476" />
	</node>
	<node lat="60.989055555793826" lon="8.942166666630385" id="-45740">
		<tag k="name" v="Ringhaug" />
		<tag k="natural" v="hill" />
		<tag k="place" v="locality" />
		<tag k="ssr:stedsnr" v="769494" />
	</node>
	<node lat="60.952438888337646" lon="8.766027773266337" id="-45746">
		<tag k="name" v="Brendehaugen" />
		<tag k="natural" v="hill" />
		<tag k="place" v="locality" />
		<tag k="ssr:stedsnr" v="769652" />
	</node>
	<node lat="61.07766666879994" lon="8.943191670004202" id="-45747">
		<tag k="fixme" v="consider natural=saddle" />
		<tag k="name" v="Bergastigen" />
		<tag k="natural" v="valley" />
		<tag k="place" v="locality" />
		<tag k="ssr:stedsnr" v="769415" />
	</node>
	<node lat="61.00425555966416" lon="8.749708332781553" id="-45751">
		<tag k="name" v="Strøshovda" />
		<tag k="natural" v="hill" />
		<tag k="place" v="locality" />
		<tag k="ssr:stedsnr" v="769670" />
	</node>
	<node lat="60.94235833469166" lon="8.695933334961415" id="-45755">
		<tag k="name" v="Stubbedalen" />
		<tag k="natural" v="valley" />
		<tag k="place" v="locality" />
		<tag k="ssr:stedsnr" v="769739" />
	</node>
	<node lat="60.939938884837716" lon="8.706277782527428" id="-45756">
		<tag k="name" v="Breiedokke" />
		<tag k="natural" v="valley" />
		<tag k="place" v="locality" />
		<tag k="ssr:stedsnr" v="769740" />
	</node>
	<node lat="60.91750277352924" lon="8.85105833388351" id="-45758">
		<tag k="name" v="Klauvehaugen" />
		<tag k="natural" v="hill" />
		<tag k="place" v="locality" />
		<tag k="ssr:stedsnr" v="769746" />
	</node>
	<node lat="61.15375277999551" lon="8.9232222209388" id="-45765">
		<tag k="name" v="Lomislie" />
		<tag k="natural" v="slope" />
		<tag k="place" v="locality" />
		<tag k="ssr:stedsnr" v="782778" />
	</node>
	<node lat="61.04735832969207" lon="8.710325002081637" id="-45778">
		<tag k="fixme" v="consider natural=peak for the most distinct mountains in the district" />
		<tag k="name" v="Gilafjellet" />
		<tag k="natural" v="hill" />
		<tag k="place" v="locality" />
		<tag k="ssr:stedsnr" v="796389" />
	</node>
	<node lat="60.98827777541244" lon="8.842394453451268" id="-45781">
		<tag k="alt_name" v="Grønsennknipa" />
		<tag k="fixme" v="consider natural=peak for the most distinct mountains in the district" />
		<tag k="name" v="Grønsennknippa" />
		<tag k="natural" v="hill" />
		<tag k="place" v="locality" />
		<tag k="ssr:stedsnr" v="797779" />
	</node>
	<node lat="60.9518861153329" lon="8.938780564090317" id="-45783">
		<tag k="fixme" v="consider natural=peak for the most distinct mountains in the district" />
		<tag k="name" v="Storhaug" />
		<tag k="natural" v="hill" />
		<tag k="place" v="locality" />
		<tag k="ssr:stedsnr" v="798115" />
	</node>
	<node lat="61.02102221993877" lon="8.78472500238314" id="-45789">
		<tag k="name" v="Fuglehaugane" />
		<tag k="natural" v="hill" />
		<tag k="place" v="locality" />
		<tag k="ssr:stedsnr" v="828357" />
	</node>
	<node lat="60.91677500286283" lon="8.89398055070214" id="-45790">
		<tag k="fixme" v="consider natural=peak for the most distinct mountains in the district" />
		<tag k="name" v="Lokkarberge" />
		<tag k="natural" v="hill" />
		<tag k="place" v="locality" />
		<tag k="ssr:stedsnr" v="828252" />
	</node>
	<node lat="61.056880552432865" lon="9.007336111115048" id="-45798">
		<tag k="fixme" v="consider natural=saddle" />
		<tag k="name" v="Skorta" />
		<tag k="natural" v="valley" />
		<tag k="place" v="locality" />
		<tag k="ssr:stedsnr" v="830894" />
	</node>
	<node lat="61.00536388649814" lon="8.853755547587086" id="-45800">
		<tag k="name" v="Djupdalen" />
		<tag k="natural" v="valley" />
		<tag k="place" v="locality" />
		<tag k="ssr:stedsnr" v="830652" />
	</node>
	<node lat="60.98962777721561" lon="8.756213898021333" id="-45801">
		<tag k="name" v="Kvitehaug" />
		<tag k="natural" v="hill" />
		<tag k="place" v="locality" />
		<tag k="ssr:stedsnr" v="830653" />
	</node>
	<node lat="61.069936109915716" lon="9.04634166363795" id="-45810">
		<tag k="name" v="Kvetohaugen" />
		<tag k="natural" v="slope" />
		<tag k="place" v="locality" />
		<tag k="ssr:stedsnr" v="843662" />
	</node>
	<node lat="60.95223610742867" lon="8.898547221704241" id="-45835">
		<tag k="name" v="Pikhaug" />
		<tag k="natural" v="hill" />
		<tag k="place" v="locality" />
		<tag k="ssr:stedsnr" v="951264" />
	</node>
	<node lat="60.982897224359306" lon="8.947102783847082" id="-45837">
		<tag k="name" v="Hallestølhøgde" />
		<tag k="natural" v="hill" />
		<tag k="place" v="locality" />
		<tag k="ssr:stedsnr" v="951501" />
	</node>
	<node lat="60.95076666536059" lon="8.839675003855085" id="-45838">
		<tag k="name" v="Dansarsletthaugane" />
		<tag k="natural" v="hill" />
		<tag k="place" v="locality" />
		<tag k="ssr:stedsnr" v="951773" />
	</node>
	<node lat="61.10569444140375" lon="8.985405547691721" id="-45849">
		<tag k="name" v="Klukkargardberget" />
		<tag k="natural" v="hill" />
		<tag k="place" v="locality" />
		<tag k="ssr:stedsnr" v="964362" />
	</node>
	<node lat="61.11011944078183" lon="9.008988895866194" id="-45850">
		<tag k="fixme" v="consider natural=peak for the most distinct mountains in the district" />
		<tag k="name" v="Slidreåsen" />
		<tag k="natural" v="hill" />
		<tag k="place" v="locality" />
		<tag k="ssr:stedsnr" v="964365" />
	</node>
</osm>
