<?xml version="1.0" encoding="UTF-8"?>
<osm version="0.6" generator="osmapis">
	<node lat="61.03339166303645" lon="9.057205563295481" id="-32152">
		<tag k="amenity" v="community_centre" />
		<tag k="name" v="Furulund" />
		<tag k="ssr:stedsnr" v="41812" />
	</node>
	<node lat="61.03468888832912" lon="9.048849996875376" id="-32187">
		<tag k="name" v="Lundeskogen" />
		<tag k="place" v="locality" />
		<tag k="ssr:stedsnr" v="102830" />
	</node>
	<node lat="61.13283333251798" lon="8.890736110608623" id="-32533">
		<tag k="amenity" v="place_of_worship" />
		<tag k="denomination" v="lutheran" />
		<tag k="name" v="Lomen kyrkje" />
		<tag k="religion" v="christian" />
		<tag k="ssr:stedsnr" v="613110" />
	</node>
	<node lat="61.043252781517836" lon="9.0141444508288" id="-32547">
		<tag k="alt_name" v="Øyar" />
		<tag k="amenity" v="place_of_worship" />
		<tag k="denomination" v="lutheran" />
		<tag k="name" v="Øyjar kapell" />
		<tag k="religion" v="christian" />
		<tag k="ssr:stedsnr" v="613801" />
	</node>
	<node lat="61.12971944440175" lon="8.849475008536231" id="-32587">
		<tag k="amenity" v="community_centre" />
		<tag k="name" v="Ristetun" />
		<tag k="ssr:stedsnr" v="664203" />
	</node>
	<node lat="61.12936388663036" lon="8.931327770569515" id="-32841">
		<tag k="amenity" v="community_centre" />
		<tag k="name" v="Kvamshall" />
		<tag k="ssr:stedsnr" v="100075" />
	</node>
	<node lat="61.1101277814011" lon="8.927808332406293" id="-32851">
		<tag k="amenity" v="community_centre" />
		<tag k="name" v="Jomsborg" />
		<tag k="ssr:stedsnr" v="102450" />
	</node>
	<node lat="61.09037500423396" lon="8.979919436951437" id="-32875">
		<tag k="alt_name" v="Slidre;Slidredomen" />
		<tag k="amenity" v="place_of_worship" />
		<tag k="denomination" v="lutheran" />
		<tag k="name" v="Slidre kyrkje" />
		<tag k="religion" v="christian" />
		<tag k="ssr:stedsnr" v="128174" />
	</node>
	<node lat="61.049977775647484" lon="9.137338883174342" id="-32943">
		<tag k="amenity" v="community_centre" />
		<tag k="name" v="Rogndokken grendehus" />
		<tag k="ssr:stedsnr" v="223586" />
	</node>
	<node lat="61.06407222492682" lon="9.00304999216726" id="-33038">
		<tag k="alt_name" v="Kyrkjeruin" />
		<tag k="name" v="Mo kyrkjeruin" />
		<tag k="ssr:stedsnr" v="371853" />
		<tag k="tourism" v="attraction" />
	</node>
	<node lat="61.134850003066504" lon="8.923947225841149" id="-33093">
		<tag k="amenity" v="place_of_worship" />
		<tag k="denomination" v="lutheran" />
		<tag k="name" v="Lomen stavkyrkje" />
		<tag k="old_name" v="Lomen gamle kyrkje" />
		<tag k="religion" v="christian" />
		<tag k="ssr:stedsnr" v="525092" />
	</node>
	<node lat="61.0560083339327" lon="9.008041662255906" id="-33103">
		<tag k="amenity" v="community_centre" />
		<tag k="name" v="Skrøvik grendahus" />
		<tag k="ssr:stedsnr" v="526896" />
	</node>
	<node lat="61.047300002062556" lon="9.049847228710142" id="-33234">
		<tag k="amenity" v="place_of_worship" />
		<tag k="denomination" v="lutheran" />
		<tag k="name" v="Røn kyrkje" />
		<tag k="religion" v="christian" />
		<tag k="ssr:stedsnr" v="795828" />
	</node>
</osm>
