<?xml version="1.0" encoding="UTF-8"?>
<osm version="0.6" generator="osmapis">
	<node lat="61.08845000415875" lon="8.981949992515807" id="-39089">
		<tag k="name" v="Slidretun" />
		<tag k="place" v="farm" />
		<tag k="ssr:stedsnr" v="7208" />
	</node>
	<node lat="61.08046389138862" lon="8.957141663165562" id="-39090">
		<tag k="alt_name" v="Hansegarden, midtre" />
		<tag k="name" v="Midtre Hansegarden" />
		<tag k="place" v="farm" />
		<tag k="ssr:stedsnr" v="7210" />
	</node>
	<node lat="61.08609831166055" lon="8.960964975521645" id="-39092">
		<tag k="fixme" v="consider place=hamlet" />
		<tag k="name" v="Hamre" />
		<tag k="place" v="farm" />
		<tag k="ssr:stedsnr" v="7214" />
	</node>
	<node lat="61.07947777547415" lon="9.021433329609208" id="-39093">
		<tag k="name" v="Granbø" />
		<tag k="place" v="farm" />
		<tag k="ssr:stedsnr" v="7262" />
	</node>
	<node lat="61.12219166967247" lon="8.852038882122926" id="-39095">
		<tag k="name" v="Kårstad" />
		<tag k="place" v="farm" />
		<tag k="ssr:stedsnr" v="7448" />
	</node>
	<node lat="61.046476824404664" lon="9.022163545388128" id="-39096">
		<tag k="alt_name" v="Hølli, øvre;Hølli;Øvre Holden" />
		<tag k="name" v="Øvre Hølli" />
		<tag k="place" v="farm" />
		<tag k="ssr:stedsnr" v="7807" />
	</node>
	<node lat="61.04786389216586" lon="8.994052784607238" id="-39097">
		<tag k="name" v="Bakken" />
		<tag k="place" v="farm" />
		<tag k="ssr:stedsnr" v="7809" />
	</node>
	<node lat="61.03422777515002" lon="8.757636118993512" id="-39099">
		<tag k="historic" v="shieling" />
		<tag k="name" v="Haugstølen" />
		<tag k="place" v="isolated_dwelling" />
		<tag k="ssr:stedsnr" v="39308" />
	</node>
	<node lat="61.13284502641104" lon="8.861273194608268" id="-39101">
		<tag k="building" v="industrial" />
		<tag k="name" v="Slidre Bruk" />
		<tag k="ssr:stedsnr" v="39065" />
	</node>
	<node lat="61.13495277816052" lon="8.892055564412852" id="-39102">
		<tag k="name" v="Høve" />
		<tag k="place" v="farm" />
		<tag k="ssr:stedsnr" v="39069" />
	</node>
	<node lat="61.03448610924255" lon="9.157994444727569" id="-39103">
		<tag k="alt_name" v="Rogndokken" />
		<tag k="name" v="Raundokken" />
		<tag k="place" v="farm" />
		<tag k="ssr:stedsnr" v="40992" />
	</node>
	<node lat="60.99602777700771" lon="8.988855552795899" id="-39104">
		<tag k="building" v="commercial" />
		<tag k="name" v="Vasetsenteret" />
		<tag k="ssr:stedsnr" v="41204" />
	</node>
	<node lat="61.10219721922785" lon="8.94058055216336" id="-39105">
		<tag k="name" v="Hagalund" />
		<tag k="place" v="isolated_dwelling" />
		<tag k="ssr:stedsnr" v="41401" />
	</node>
	<node lat="61.1131194440918" lon="8.920330554850123" id="-39106">
		<tag k="name" v="Hagen" />
		<tag k="place" v="farm" />
		<tag k="ssr:stedsnr" v="41408" />
	</node>
	<node lat="60.99918889216034" lon="8.941972214245393" id="-39110">
		<tag k="historic" v="shieling" />
		<tag k="name" v="Svingastølen" />
		<tag k="place" v="isolated_dwelling" />
		<tag k="ssr:stedsnr" v="41471" />
	</node>
	<node lat="60.98272778014127" lon="8.903911114592324" id="-39111">
		<tag k="historic" v="shieling" />
		<tag k="name" v="Magistadstølen" />
		<tag k="place" v="isolated_dwelling" />
		<tag k="ssr:stedsnr" v="41483" />
	</node>
	<node lat="61.046352774305554" lon="9.0564027813893" id="-39113">
		<tag k="amenity" v="school" />
		<tag k="name" v="Røn skule" />
		<tag k="ssr:stedsnr" v="41877" />
	</node>
	<node lat="61.04232777920639" lon="9.03161111482917" id="-39114">
		<tag k="name" v="Bergtun" />
		<tag k="place" v="isolated_dwelling" />
		<tag k="ssr:stedsnr" v="41879" />
	</node>
	<node lat="61.03807499680333" lon="9.027861103447867" id="-39115">
		<tag k="name" v="Hole" />
		<tag k="place" v="isolated_dwelling" />
		<tag k="ssr:stedsnr" v="41882" />
	</node>
	<node lat="61.05732777394134" lon="8.998291667982116" id="-39117">
		<tag k="name" v="Skogtun" />
		<tag k="place" v="farm" />
		<tag k="ssr:stedsnr" v="41885" />
	</node>
	<node lat="61.134811112572685" lon="8.931477783172351" id="-39119">
		<tag k="alt_name" v="Hauge, øvre" />
		<tag k="name" v="Øvre Hauge" />
		<tag k="place" v="farm" />
		<tag k="ssr:stedsnr" v="67114" />
	</node>
	<node lat="61.13297222097041" lon="8.924766674187552" id="-39120">
		<tag k="name" v="Lome" />
		<tag k="place" v="hamlet" />
		<tag k="ssr:stedsnr" v="67122" />
	</node>
	<node lat="61.12863610983822" lon="8.957891659396626" id="-39121">
		<tag k="name" v="Yrstad" />
		<tag k="place" v="isolated_dwelling" />
		<tag k="ssr:stedsnr" v="67127" />
	</node>
	<node lat="61.1743138907092" lon="8.877219444437328" id="-39122">
		<tag k="historic" v="shieling" />
		<tag k="name" v="Einebu" />
		<tag k="place" v="isolated_dwelling" />
		<tag k="ssr:stedsnr" v="67043" />
	</node>
	<node lat="61.1919944436396" lon="8.881336118364885" id="-39123">
		<tag k="historic" v="shieling" />
		<tag k="name" v="Ulvildsete" />
		<tag k="place" v="isolated_dwelling" />
		<tag k="ssr:stedsnr" v="67007" />
	</node>
	<node lat="61.037330552881926" lon="9.165261107689314" id="-39125">
		<tag k="fixme" v="multiple name tags, choose one and add the other to alt_name" />
		<tag k="name" v="Ålund;Sælsbrøtadn" />
		<tag k="place" v="farm" />
		<tag k="ssr:stedsnr" v="67803" />
	</node>
	<node lat="61.04729721846719" lon="9.068583338326372" id="-39126">
		<tag k="alt_name" v="Tuvmarken" />
		<tag k="name" v="Tuvmarki" />
		<tag k="place" v="farm" />
		<tag k="ssr:stedsnr" v="67821" />
	</node>
	<node lat="61.05164522790096" lon="9.059363610193625" id="-39127">
		<tag k="fixme" v="consider place=hamlet" />
		<tag k="name" v="Snortheim" />
		<tag k="place" v="farm" />
		<tag k="ssr:stedsnr" v="67822" />
	</node>
	<node lat="61.02652500146941" lon="8.86760000333759" id="-39128">
		<tag k="alt_name" v="Trollhovd, nordre;Trollhovd" />
		<tag k="name" v="Nørdre Trollhovd" />
		<tag k="place" v="hamlet" />
		<tag k="ssr:stedsnr" v="67797" />
	</node>
	<node lat="61.129144377370025" lon="8.805244076339662" id="-39129">
		<tag k="name" v="Robøle" />
		<tag k="place" v="farm" />
		<tag k="ssr:stedsnr" v="68350" />
	</node>
	<node lat="61.128517280152586" lon="8.811422400571333" id="-39130">
		<tag k="name" v="Gryte" />
		<tag k="place" v="hamlet" />
		<tag k="ssr:stedsnr" v="68353" />
	</node>
	<node lat="61.107961109286435" lon="8.932797228487324" id="-39134">
		<tag k="name" v="Dokkehaugen" />
		<tag k="place" v="isolated_dwelling" />
		<tag k="ssr:stedsnr" v="91422" />
	</node>
	<node lat="60.92259999659354" lon="8.891766661030559" id="-39136">
		<tag k="historic" v="shieling" />
		<tag k="name" v="Fystrostølen" />
		<tag k="place" v="isolated_dwelling" />
		<tag k="ssr:stedsnr" v="100220" />
	</node>
	<node lat="61.067686113787886" lon="8.811827777440834" id="-39138">
		<tag k="historic" v="shieling" />
		<tag k="name" v="Førstølen" />
		<tag k="place" v="isolated_dwelling" />
		<tag k="ssr:stedsnr" v="100321" />
	</node>
	<node lat="60.946174996407336" lon="8.864758326880208" id="-39140">
		<tag k="historic" v="shieling" />
		<tag k="name" v="Hagabergstølen" />
		<tag k="place" v="isolated_dwelling" />
		<tag k="ssr:stedsnr" v="102327" />
	</node>
	<node lat="60.96383055561394" lon="8.907758335971847" id="-39141">
		<tag k="historic" v="shieling" />
		<tag k="name" v="Vistestølen" />
		<tag k="place" v="isolated_dwelling" />
		<tag k="ssr:stedsnr" v="102333" />
	</node>
	<node lat="61.02776388777093" lon="8.876799991527168" id="-39145">
		<tag k="historic" v="shieling" />
		<tag k="name" v="Klukkergardstølen" />
		<tag k="place" v="isolated_dwelling" />
		<tag k="ssr:stedsnr" v="102490" />
	</node>
	<node lat="61.023702780077805" lon="8.873186106455995" id="-39146">
		<tag k="historic" v="shieling" />
		<tag k="name" v="Brøtastølen" />
		<tag k="place" v="isolated_dwelling" />
		<tag k="ssr:stedsnr" v="102510" />
	</node>
	<node lat="61.03769444248851" lon="9.065197213569096" id="-39149">
		<tag k="name" v="Grefsrud" />
		<tag k="place" v="farm" />
		<tag k="ssr:stedsnr" v="249794" />
	</node>
	<node lat="61.13622036539857" lon="8.876030091343162" id="-39150">
		<tag k="fixme" v="consider place=hamlet" />
		<tag k="name" v="Rødvang" />
		<tag k="place" v="farm" />
		<tag k="ssr:stedsnr" v="249093" />
	</node>
	<node lat="61.092186108952305" lon="8.902999995832605" id="-39151">
		<tag k="alt_name" v="Flaten" />
		<tag k="historic" v="shieling" />
		<tag k="name" v="Flati" />
		<tag k="place" v="isolated_dwelling" />
		<tag k="ssr:stedsnr" v="249179" />
	</node>
	<node lat="61.077061108474815" lon="8.729311112981419" id="-39153">
		<tag k="name" v="Pyttingen" />
		<tag k="place" v="hamlet" />
		<tag k="ssr:stedsnr" v="249409" />
	</node>
	<node lat="61.03015592151751" lon="9.042814420480473" id="-39154">
		<tag k="fixme" v="consider place=hamlet" />
		<tag k="name" v="Fossheim" />
		<tag k="place" v="farm" />
		<tag k="ssr:stedsnr" v="249776" />
	</node>
	<node lat="61.03027499937641" lon="8.929391666408216" id="-39155">
		<tag k="historic" v="shieling" />
		<tag k="name" v="Steinsrudstølen" />
		<tag k="place" v="isolated_dwelling" />
		<tag k="ssr:stedsnr" v="249784" />
	</node>
	<node lat="61.05140000409182" lon="8.864700007801156" id="-39156">
		<tag k="fixme" v="consider place=hamlet" />
		<tag k="name" v="Viksyndin" />
		<tag k="place" v="village" />
		<tag k="ssr:stedsnr" v="249848" />
	</node>
	<node lat="61.05612221795034" lon="8.986455551278876" id="-39159">
		<tag k="name" v="Åsheim" />
		<tag k="place" v="farm" />
		<tag k="ssr:stedsnr" v="249852" />
	</node>
	<node lat="61.06187777680622" lon="8.996994438376563" id="-39160">
		<tag k="name" v="Bradden" />
		<tag k="place" v="farm" />
		<tag k="ssr:stedsnr" v="249853" />
	</node>
	<node lat="61.1556027806106" lon="8.926177777514948" id="-39161">
		<tag k="historic" v="shieling" />
		<tag k="name" v="Flisejordet" />
		<tag k="place" v="isolated_dwelling" />
		<tag k="ssr:stedsnr" v="250068" />
	</node>
	<node lat="61.14633587238476" lon="8.869492475496413" id="-39162">
		<tag k="alt_name" v="Ødegård;Ødegården" />
		<tag k="fixme" v="consider place=hamlet" />
		<tag k="name" v="Øygarden" />
		<tag k="place" v="farm" />
		<tag k="ssr:stedsnr" v="250077" />
	</node>
	<node lat="61.11591388655333" lon="8.962966662338474" id="-39163">
		<tag k="name" v="Delebekk" />
		<tag k="place" v="farm" />
		<tag k="ssr:stedsnr" v="250148" />
	</node>
	<node lat="61.114766261810686" lon="8.933233938802763" id="-39164">
		<tag k="fixme" v="consider place=hamlet" />
		<tag k="name" v="Steine" />
		<tag k="place" v="farm" />
		<tag k="ssr:stedsnr" v="250154" />
	</node>
	<node lat="61.12942739349879" lon="8.801110150328293" id="-39166">
		<tag k="fixme" v="consider place=hamlet" />
		<tag k="name" v="Åstad" />
		<tag k="place" v="farm" />
		<tag k="ssr:stedsnr" v="250342" />
	</node>
	<node lat="61.063483335818724" lon="9.099211106899821" id="-39169">
		<tag k="alt_name" v="Sletten" />
		<tag k="name" v="Sletti" />
		<tag k="place" v="farm" />
		<tag k="ssr:stedsnr" v="250848" />
	</node>
	<node lat="61.066425000102065" lon="8.958308338101515" id="-39171">
		<tag k="historic" v="shieling" />
		<tag k="name" v="Vikruststølen" />
		<tag k="place" v="isolated_dwelling" />
		<tag k="ssr:stedsnr" v="250858" />
	</node>
	<node lat="60.95898888855037" lon="8.690408340807746" id="-39172">
		<tag k="alt_name" v="Grunke" />
		<tag k="historic" v="shieling" />
		<tag k="name" v="Nørdre Grunke" />
		<tag k="place" v="isolated_dwelling" />
		<tag k="ssr:stedsnr" v="251788" />
	</node>
	<node lat="60.95816111111936" lon="8.819150006782664" id="-39174">
		<tag k="alt_name" v="Svensken" />
		<tag k="historic" v="shieling" />
		<tag k="name" v="Svenskestølen" />
		<tag k="place" v="isolated_dwelling" />
		<tag k="ssr:stedsnr" v="251783" />
	</node>
	<node lat="60.99559722496697" lon="8.98783611376911" id="-39177">
		<tag k="fixme" v="consider place=hamlet" />
		<tag k="name" v="Vaset" />
		<tag k="place" v="village" />
		<tag k="ssr:stedsnr" v="252057" />
	</node>
	<node lat="61.10595000182068" lon="8.97115000783008" id="-39179">
		<tag k="name" v="Hakkestad" />
		<tag k="place" v="farm" />
		<tag k="ssr:stedsnr" v="128153" />
	</node>
	<node lat="61.11283055265614" lon="8.819049997218139" id="-39182">
		<tag k="name" v="Haugen" />
		<tag k="place" v="isolated_dwelling" />
		<tag k="ssr:stedsnr" v="128333" />
	</node>
	<node lat="61.123751462719866" lon="8.880173082424575" id="-39183">
		<tag k="alt_name" v="Trøsvik" />
		<tag k="fixme" v="consider place=hamlet" />
		<tag k="name" v="Trosvik" />
		<tag k="place" v="farm" />
		<tag k="ssr:stedsnr" v="128087" />
	</node>
	<node lat="61.12368333295666" lon="8.829813897357695" id="-39186">
		<tag k="alt_name" v="Kildeskogen" />
		<tag k="name" v="Kjeldeskogen" />
		<tag k="place" v="farm" />
		<tag k="ssr:stedsnr" v="128296" />
	</node>
	<node lat="61.036019442881724" lon="8.805108331002" id="-39187">
		<tag k="historic" v="shieling" />
		<tag k="name" v="Ormestadstølen" />
		<tag k="place" v="isolated_dwelling" />
		<tag k="ssr:stedsnr" v="128414" />
	</node>
	<node lat="61.04566110856541" lon="8.87666389395085" id="-39189">
		<tag k="historic" v="shieling" />
		<tag k="name" v="Liastølen" />
		<tag k="place" v="isolated_dwelling" />
		<tag k="ssr:stedsnr" v="128810" />
	</node>
	<node lat="61.02741667064749" lon="9.098977781770905" id="-39191">
		<tag k="alt_name" v="Ødegarden" />
		<tag k="name" v="Øygarden" />
		<tag k="place" v="farm" />
		<tag k="ssr:stedsnr" v="128789" />
	</node>
	<node lat="60.93323611381863" lon="8.775355549471168" id="-39192">
		<tag k="historic" v="shieling" />
		<tag k="name" v="Lisetstølen" />
		<tag k="place" v="isolated_dwelling" />
		<tag k="ssr:stedsnr" v="130840" />
	</node>
	<node lat="61.03407222539042" lon="9.164624992613813" id="-39193">
		<tag k="name" v="Voll" />
		<tag k="place" v="farm" />
		<tag k="ssr:stedsnr" v="161969" />
	</node>
	<node lat="60.95315833145832" lon="8.858938889604358" id="-39194">
		<tag k="historic" v="shieling" />
		<tag k="name" v="Tuvstølen" />
		<tag k="place" v="isolated_dwelling" />
		<tag k="ssr:stedsnr" v="162266" />
	</node>
	<node lat="61.11066666371235" lon="8.925313891920739" id="-39195">
		<tag k="name" v="Sandaker" />
		<tag k="place" v="isolated_dwelling" />
		<tag k="ssr:stedsnr" v="162410" />
	</node>
	<node lat="60.98688610670126" lon="8.940952769324024" id="-39196">
		<tag k="historic" v="shieling" />
		<tag k="name" v="Kvålsstølen" />
		<tag k="place" v="isolated_dwelling" />
		<tag k="ssr:stedsnr" v="162502" />
	</node>
	<node lat="61.08721110702749" lon="8.998419448085864" id="-39199">
		<tag k="name" v="Torsgarden" />
		<tag k="place" v="locality" />
		<tag k="ssr:stedsnr" v="162958" />
	</node>
	<node lat="61.071061115460715" lon="9.01731943936069" id="-39200">
		<tag k="name" v="Hamro" />
		<tag k="place" v="isolated_dwelling" />
		<tag k="ssr:stedsnr" v="162961" />
	</node>
	<node lat="61.080569441863425" lon="9.002258326828803" id="-39202">
		<tag k="name" v="Rødningen" />
		<tag k="place" v="farm" />
		<tag k="ssr:stedsnr" v="162967" />
	</node>
	<node lat="61.08556111225344" lon="9.014047216303664" id="-39203">
		<tag k="name" v="Nesjabråten" />
		<tag k="place" v="isolated_dwelling" />
		<tag k="ssr:stedsnr" v="162968" />
	</node>
	<node lat="61.100497222677014" lon="8.974999998230121" id="-39208">
		<tag k="alt_name" v="Ule" />
		<tag k="name" v="Urdi" />
		<tag k="place" v="farm" />
		<tag k="ssr:stedsnr" v="188211" />
	</node>
	<node lat="61.09742499617597" lon="9.000247217615703" id="-39209">
		<tag k="name" v="Finneberg" />
		<tag k="place" v="farm" />
		<tag k="ssr:stedsnr" v="188222" />
	</node>
	<node lat="61.0940694475937" lon="8.900413887425984" id="-39210">
		<tag k="historic" v="shieling" />
		<tag k="name" v="Haugerudstølen" />
		<tag k="place" v="isolated_dwelling" />
		<tag k="ssr:stedsnr" v="188229" />
	</node>
	<node lat="61.147891663880316" lon="8.898350007122017" id="-39211">
		<tag k="historic" v="shieling" />
		<tag k="name" v="Eggestølen" />
		<tag k="place" v="isolated_dwelling" />
		<tag k="ssr:stedsnr" v="189073" />
	</node>
	<node lat="61.109983330446134" lon="8.918683340537797" id="-39212">
		<tag k="name" v="Moen" />
		<tag k="place" v="farm" />
		<tag k="ssr:stedsnr" v="189133" />
	</node>
	<node lat="61.112713886930756" lon="8.925033336753144" id="-39213">
		<tag k="name" v="Sandhaugo" />
		<tag k="place" v="farm" />
		<tag k="ssr:stedsnr" v="189134" />
	</node>
	<node lat="61.107574996242896" lon="8.877663888939065" id="-39214">
		<tag k="historic" v="shieling" />
		<tag k="name" v="Lykkjestølen" />
		<tag k="place" v="isolated_dwelling" />
		<tag k="ssr:stedsnr" v="189136" />
	</node>
	<node lat="61.10800555756376" lon="8.997788880117477" id="-39215">
		<tag k="alt_name" v="Slidrestøladn" />
		<tag k="historic" v="shieling" />
		<tag k="name" v="Slidrestølen" />
		<tag k="place" v="isolated_dwelling" />
		<tag k="ssr:stedsnr" v="189146" />
	</node>
	<node lat="61.12921111080027" lon="8.824841666726181" id="-39216">
		<tag k="name" v="Gilabu" />
		<tag k="place" v="farm" />
		<tag k="ssr:stedsnr" v="189317" />
	</node>
	<node lat="61.06079360207561" lon="9.052380483665704" id="-39220">
		<tag k="alt_name" v="Magistad, øvre" />
		<tag k="fixme" v="consider place=hamlet" />
		<tag k="name" v="Øvre Magistad" />
		<tag k="place" v="farm" />
		<tag k="ssr:stedsnr" v="189813" />
	</node>
	<node lat="61.068161108339794" lon="8.949819435925427" id="-39221">
		<tag k="alt_name" v="Håvrudstølen;Hoverudstølen" />
		<tag k="historic" v="shieling" />
		<tag k="name" v="Håverudstølen" />
		<tag k="place" v="isolated_dwelling" />
		<tag k="ssr:stedsnr" v="189867" />
	</node>
	<node lat="61.02975833694305" lon="9.036286105622208" id="-39222">
		<tag k="name" v="Reina" />
		<tag k="place" v="farm" />
		<tag k="ssr:stedsnr" v="189769" />
	</node>
	<node lat="61.040849999405616" lon="9.079716670390514" id="-39224">
		<tag k="name" v="Nordåker" />
		<tag k="place" v="farm" />
		<tag k="ssr:stedsnr" v="189778" />
	</node>
	<node lat="61.04071944575598" lon="9.014830555821376" id="-39225">
		<tag k="name" v="Enger" />
		<tag k="place" v="farm" />
		<tag k="ssr:stedsnr" v="189783" />
	</node>
	<node lat="60.91734166644793" lon="8.888172220707457" id="-39226">
		<tag k="alt_name" v="Flyin" />
		<tag k="historic" v="shieling" />
		<tag k="name" v="Flyi" />
		<tag k="place" v="isolated_dwelling" />
		<tag k="ssr:stedsnr" v="191352" />
	</node>
	<node lat="60.97752472714769" lon="8.805446920371514" id="-39228">
		<tag k="alt_name" v="Gjeslangen" />
		<tag k="historic" v="shieling" />
		<tag k="name" v="Jaslangen" />
		<tag k="place" v="isolated_dwelling" />
		<tag k="ssr:stedsnr" v="191721" />
	</node>
	<node lat="60.9211750033082" lon="8.86595278107945" id="-39229">
		<tag k="historic" v="shieling" />
		<tag k="name" v="Bergastølen" />
		<tag k="place" v="isolated_dwelling" />
		<tag k="ssr:stedsnr" v="221208" />
	</node>
	<node lat="61.03718333195691" lon="8.852611102579264" id="-39231">
		<tag k="historic" v="shieling" />
		<tag k="name" v="Lomtjernstølane" />
		<tag k="place" v="isolated_dwelling" />
		<tag k="ssr:stedsnr" v="221325" />
	</node>
	<node lat="61.03361111271936" lon="9.088069451811172" id="-39232">
		<tag k="alt_name" v="Kirkeengen" />
		<tag k="loc_name" v="Kyrkjeenge" />
		<tag k="name" v="Kyrkengi" />
		<tag k="place" v="farm" />
		<tag k="ssr:stedsnr" v="221788" />
	</node>
	<node lat="60.94834999755394" lon="8.866099998493087" id="-39234">
		<tag k="historic" v="shieling" />
		<tag k="name" v="Holtestølen" />
		<tag k="place" v="isolated_dwelling" />
		<tag k="ssr:stedsnr" v="223275" />
	</node>
	<node lat="61.08882777411384" lon="8.954580549059607" id="-39235">
		<tag k="name" v="Skoland" />
		<tag k="place" v="isolated_dwelling" />
		<tag k="ssr:stedsnr" v="223428" />
	</node>
	<node lat="60.94740832916978" lon="8.855586105352396" id="-39239">
		<tag k="historic" v="shieling" />
		<tag k="name" v="Fystrostølen" />
		<tag k="place" v="isolated_dwelling" />
		<tag k="ssr:stedsnr" v="223780" />
	</node>
	<node lat="60.95132499643616" lon="8.831211109229189" id="-39240">
		<tag k="historic" v="shieling" />
		<tag k="name" v="Rønsstølane" />
		<tag k="place" v="isolated_dwelling" />
		<tag k="ssr:stedsnr" v="223786" />
	</node>
	<node lat="61.048380553396086" lon="9.00563611044549" id="-39242">
		<tag k="name" v="Skarsbakken" />
		<tag k="place" v="farm" />
		<tag k="ssr:stedsnr" v="223907" />
	</node>
	<node lat="61.124734052623836" lon="8.851064184878666" id="-39246">
		<tag k="fixme" v="consider place=hamlet" />
		<tag k="name" v="Kårstad" />
		<tag k="place" v="farm" />
		<tag k="ssr:stedsnr" v="240246" />
	</node>
	<node lat="61.12806666344848" lon="8.94969722715736" id="-39247">
		<tag k="alt_name" v="Ørmestadmarke" />
		<tag k="name" v="Marki" />
		<tag k="place" v="farm" />
		<tag k="ssr:stedsnr" v="249107" />
	</node>
	<node lat="61.12075364723904" lon="8.886888045907721" id="-39248">
		<tag k="alt_name" v="Lykkja, nordre;Lykkja" />
		<tag k="name" v="Nørdre Lykkja" />
		<tag k="place" v="farm" />
		<tag k="ssr:stedsnr" v="249117" />
	</node>
	<node lat="61.119147592209615" lon="8.89536837484911" id="-39249">
		<tag k="fixme" v="consider place=hamlet" />
		<tag k="name" v="Vestli" />
		<tag k="place" v="farm" />
		<tag k="ssr:stedsnr" v="249119" />
	</node>
	<node lat="61.05187777985109" lon="8.816191664410928" id="-39250">
		<tag k="historic" v="shieling" />
		<tag k="name" v="Haugostølen" />
		<tag k="place" v="isolated_dwelling" />
		<tag k="ssr:stedsnr" v="282306" />
	</node>
	<node lat="60.913155556883545" lon="8.881144449997466" id="-39254">
		<tag k="name" v="Bjole" />
		<tag k="place" v="isolated_dwelling" />
		<tag k="ssr:stedsnr" v="282917" />
	</node>
	<node lat="61.006213886100355" lon="8.913644444510929" id="-39257">
		<tag k="historic" v="shieling" />
		<tag k="name" v="Raundokkstølen" />
		<tag k="place" v="isolated_dwelling" />
		<tag k="ssr:stedsnr" v="284490" />
	</node>
	<node lat="60.987566665584694" lon="8.969980560437742" id="-39258">
		<tag k="historic" v="shieling" />
		<tag k="name" v="Røynestølen" />
		<tag k="old_name" v="Røinestølen" />
		<tag k="place" v="isolated_dwelling" />
		<tag k="ssr:stedsnr" v="284495" />
	</node>
	<node lat="61.046389025710184" lon="9.048749605821401" id="-39260">
		<tag k="name" v="Røn" />
		<tag k="place" v="hamlet" />
		<tag k="ssr:stedsnr" v="284899" />
	</node>
	<node lat="60.956413887991324" lon="8.70352499693848" id="-39262">
		<tag k="historic" v="shieling" />
		<tag k="name" v="Nystøl" />
		<tag k="place" v="isolated_dwelling" />
		<tag k="ssr:stedsnr" v="284779" />
	</node>
	<node lat="61.12011388896837" lon="8.797669447053954" id="-39267">
		<tag k="historic" v="shieling" />
		<tag k="name" v="Gullhaugstølen" />
		<tag k="place" v="isolated_dwelling" />
		<tag k="ssr:stedsnr" v="464033" />
	</node>
	<node lat="61.02653888923521" lon="8.857988897951254" id="-39271">
		<tag k="historic" v="shieling" />
		<tag k="name" v="Hausåkerstølen" />
		<tag k="place" v="isolated_dwelling" />
		<tag k="ssr:stedsnr" v="464344" />
	</node>
	<node lat="61.13403094746418" lon="8.892104534389276" id="-39276">
		<tag k="alt_name" v="Hove" />
		<tag k="name" v="Høve" />
		<tag k="place" v="hamlet" />
		<tag k="ssr:stedsnr" v="310106" />
	</node>
	<node lat="61.12070139563504" lon="8.874470049143808" id="-39277">
		<tag k="alt_name" v="Kvisl, nedre;Kvissel" />
		<tag k="name" v="Nedre Kvisl" />
		<tag k="old_name" v="Kvistøl, nedre" />
		<tag k="place" v="farm" />
		<tag k="ssr:stedsnr" v="310116" />
	</node>
	<node lat="61.11232222580591" lon="8.917144437832707" id="-39279">
		<tag k="alt_name" v="Haugtun" />
		<tag k="name" v="Hagen" />
		<tag k="place" v="farm" />
		<tag k="ssr:stedsnr" v="310137" />
	</node>
	<node lat="61.1355944421558" lon="8.834488893512098" id="-39281">
		<tag k="name" v="Lo" />
		<tag k="place" v="farm" />
		<tag k="ssr:stedsnr" v="310278" />
	</node>
	<node lat="61.0717305600316" lon="8.766505554522134" id="-39283">
		<tag k="historic" v="shieling" />
		<tag k="name" v="Hagastølen" />
		<tag k="place" v="isolated_dwelling" />
		<tag k="ssr:stedsnr" v="310399" />
	</node>
	<node lat="61.04176997928316" lon="8.905967341744423" id="-39284">
		<tag k="historic" v="shieling" />
		<tag k="name" v="Trillestølen" />
		<tag k="place" v="isolated_dwelling" />
		<tag k="ssr:stedsnr" v="310816" />
	</node>
	<node lat="61.05920000128428" lon="9.099152776397466" id="-39285">
		<tag k="name" v="Stølen" />
		<tag k="place" v="isolated_dwelling" />
		<tag k="ssr:stedsnr" v="310832" />
	</node>
	<node lat="61.11877574310723" lon="8.860117347184298" id="-39288">
		<tag k="name" v="Rusiskallen" />
		<tag k="place" v="locality" />
		<tag k="ssr:stedsnr" v="466351" />
	</node>
	<node lat="60.938727776889735" lon="8.849455557139441" id="-39289">
		<tag k="name" v="Nøsen Fjellhotell" />
		<tag k="ssr:stedsnr" v="312373" />
		<tag k="tourism" v="hotel" />
	</node>
	<node lat="60.96620833000818" lon="8.912911115410859" id="-39290">
		<tag k="historic" v="shieling" />
		<tag k="name" v="Fauskestølen" />
		<tag k="place" v="isolated_dwelling" />
		<tag k="ssr:stedsnr" v="466515" />
	</node>
	<node lat="61.12192777548887" lon="8.954466666259874" id="-39295">
		<tag k="name" v="Nygård" />
		<tag k="place" v="farm" />
		<tag k="ssr:stedsnr" v="466424" />
	</node>
	<node lat="61.1081361133296" lon="8.9228249920801" id="-39296">
		<tag k="name" v="Jordet" />
		<tag k="place" v="farm" />
		<tag k="ssr:stedsnr" v="466430" />
	</node>
	<node lat="60.98288333362207" lon="8.899491658266372" id="-39297">
		<tag k="alt_name" v="Bjørnahovd;Bjødnhøvd" />
		<tag k="name" v="Bjørnhovd" />
		<tag k="place" v="hamlet" />
		<tag k="ssr:stedsnr" v="313073" />
	</node>
	<node lat="61.04182777437353" lon="9.064433335616659" id="-39298">
		<tag k="name" v="Rønheim" />
		<tag k="place" v="farm" />
		<tag k="ssr:stedsnr" v="466918" />
	</node>
	<node lat="61.017008337475524" lon="9.059947231295155" id="-39301">
		<tag k="name" v="Asplund" />
		<tag k="place" v="farm" />
		<tag k="ssr:stedsnr" v="344209" />
	</node>
	<node lat="61.044975002690364" lon="9.073755557686244" id="-39303">
		<tag k="name" v="Hagaberg" />
		<tag k="place" v="farm" />
		<tag k="ssr:stedsnr" v="344903" />
	</node>
	<node lat="61.03764722211188" lon="9.053166657903773" id="-39305">
		<tag k="name" v="Røn" />
		<tag k="place" v="isolated_dwelling" />
		<tag k="ssr:stedsnr" v="344908" />
	</node>
	<node lat="61.063397226700644" lon="9.028630549392398" id="-39306">
		<tag k="name" v="Vangen" />
		<tag k="place" v="isolated_dwelling" />
		<tag k="ssr:stedsnr" v="344971" />
	</node>
	<node lat="61.02778333713308" lon="8.756052770392792" id="-39309">
		<tag k="historic" v="shieling" />
		<tag k="name" v="Høvsstølen" />
		<tag k="place" v="isolated_dwelling" />
		<tag k="ssr:stedsnr" v="476054" />
	</node>
	<node lat="61.02861944306398" lon="8.757538886185605" id="-39310">
		<tag k="alt_name" v="Ringestadstølen" />
		<tag k="historic" v="shieling" />
		<tag k="name" v="Rengistadstølen" />
		<tag k="place" v="isolated_dwelling" />
		<tag k="ssr:stedsnr" v="476057" />
	</node>
	<node lat="61.15180278057041" lon="8.961780563143794" id="-39311">
		<tag k="alt_name" v="Ringstadstøl" />
		<tag k="historic" v="shieling" />
		<tag k="loc_name" v="Rengistadstølen;Ringestadstølen" />
		<tag k="name" v="Rengistadstøl" />
		<tag k="place" v="isolated_dwelling" />
		<tag k="ssr:stedsnr" v="477082" />
	</node>
	<node lat="61.142379499365205" lon="8.884436896816771" id="-39314">
		<tag k="alt_name" v="Egge, øvre;Egge" />
		<tag k="name" v="Øvre Egge" />
		<tag k="place" v="farm" />
		<tag k="ssr:stedsnr" v="370113" />
	</node>
	<node lat="61.14366388596628" lon="8.983502785747238" id="-39316">
		<tag k="historic" v="shieling" />
		<tag k="name" v="Nedre Bjerset" />
		<tag k="place" v="isolated_dwelling" />
		<tag k="ssr:stedsnr" v="479272" />
	</node>
	<node lat="61.11860833092261" lon="8.855602773104293" id="-39317">
		<tag k="name" v="Haugen" />
		<tag k="place" v="farm" />
		<tag k="ssr:stedsnr" v="371115" />
	</node>
	<node lat="61.121380558028825" lon="8.892880559189816" id="-39318">
		<tag k="name" v="Haugen" />
		<tag k="place" v="farm" />
		<tag k="ssr:stedsnr" v="371118" />
	</node>
	<node lat="61.06465278153482" lon="8.801375003798642" id="-39319">
		<tag k="alt_name" v="Kårstadstøladn" />
		<tag k="historic" v="shieling" />
		<tag k="name" v="Kårstadstølane" />
		<tag k="place" v="isolated_dwelling" />
		<tag k="ssr:stedsnr" v="371370" />
	</node>
	<node lat="61.07272778200375" lon="8.720261116373859" id="-39320">
		<tag k="alt_name" v="Gilen" />
		<tag k="historic" v="shieling" />
		<tag k="name" v="Gilastølane" />
		<tag k="place" v="isolated_dwelling" />
		<tag k="ssr:stedsnr" v="371384" />
	</node>
	<node lat="61.006852780412544" lon="8.911880555215113" id="-39322">
		<tag k="alt_name" v="Murkelie" />
		<tag k="name" v="Murkelii" />
		<tag k="place" v="hamlet" />
		<tag k="ssr:stedsnr" v="371775" />
	</node>
	<node lat="61.06626666663163" lon="9.047538883300676" id="-39323">
		<tag k="name" v="Reieshaugen" />
		<tag k="place" v="farm" />
		<tag k="ssr:stedsnr" v="371856" />
	</node>
	<node lat="61.065480553437474" lon="8.920013883671173" id="-39324">
		<tag k="historic" v="shieling" />
		<tag k="name" v="Tjernstølen" />
		<tag k="place" v="isolated_dwelling" />
		<tag k="ssr:stedsnr" v="371870" />
	</node>
	<node lat="60.904950002864645" lon="8.833105559557513" id="-39325">
		<tag k="alt_name" v="Lykkjastølen" />
		<tag k="historic" v="shieling" />
		<tag k="name" v="Lykkjestølen" />
		<tag k="place" v="isolated_dwelling" />
		<tag k="ssr:stedsnr" v="372862" />
	</node>
	<node lat="60.99717764263855" lon="8.946671207007936" id="-39326">
		<tag k="alt_name" v="Røvshalin;Revsalin" />
		<tag k="historic" v="shieling" />
		<tag k="name" v="Revshalen" />
		<tag k="place" v="isolated_dwelling" />
		<tag k="ssr:stedsnr" v="373051" />
	</node>
	<node lat="60.9887972185051" lon="8.97828055491507" id="-39327">
		<tag k="historic" v="shieling" />
		<tag k="name" v="Stubbeset" />
		<tag k="place" v="isolated_dwelling" />
		<tag k="ssr:stedsnr" v="373058" />
	</node>
	<node lat="60.95863611407843" lon="8.890797227040144" id="-39328">
		<tag k="alt_name" v="Rensenn" />
		<tag k="historic" v="shieling" />
		<tag k="name" v="Reinsenn" />
		<tag k="place" v="isolated_dwelling" />
		<tag k="ssr:stedsnr" v="373103" />
	</node>
	<node lat="61.13524189285464" lon="8.884325457825481" id="-39329">
		<tag k="fixme" v="consider place=hamlet" />
		<tag k="name" v="Stee" />
		<tag k="place" v="farm" />
		<tag k="ssr:stedsnr" v="483342" />
	</node>
	<node lat="61.06851111200302" lon="8.805686117900626" id="-39334">
		<tag k="fixme" v="consider place=hamlet" />
		<tag k="name" v="Kvislasyndin" />
		<tag k="place" v="village" />
		<tag k="ssr:stedsnr" v="403305" />
	</node>
	<node lat="61.0746222241618" lon="8.757197228127124" id="-39335">
		<tag k="historic" v="shieling" />
		<tag k="name" v="Høymissyndin" />
		<tag k="place" v="isolated_dwelling" />
		<tag k="ssr:stedsnr" v="403327" />
	</node>
	<node lat="61.05308333315483" lon="9.052952770281134" id="-39336">
		<tag k="name" v="Bratvold" />
		<tag k="place" v="isolated_dwelling" />
		<tag k="ssr:stedsnr" v="403893" />
	</node>
	<node lat="61.022530558687734" lon="9.052055562759845" id="-39337">
		<tag k="name" v="Haugen" />
		<tag k="place" v="isolated_dwelling" />
		<tag k="ssr:stedsnr" v="405205" />
	</node>
	<node lat="61.12163333057867" lon="8.844238887131285" id="-39338">
		<tag k="name" v="Bråten" />
		<tag k="place" v="farm" />
		<tag k="ssr:stedsnr" v="405324" />
	</node>
	<node lat="61.031402774696765" lon="9.048800007825264" id="-39345">
		<tag k="alt_name" v="Lunden" />
		<tag k="name" v="Lundin" />
		<tag k="place" v="farm" />
		<tag k="ssr:stedsnr" v="405845" />
	</node>
	<node lat="61.02829444300035" lon="9.07633611583166" id="-39346">
		<tag k="name" v="Solvang" />
		<tag k="place" v="isolated_dwelling" />
		<tag k="ssr:stedsnr" v="405851" />
	</node>
	<node lat="61.07160000367514" lon="8.722002782919795" id="-39349">
		<tag k="historic" v="shieling" />
		<tag k="name" v="Langhaug" />
		<tag k="place" v="isolated_dwelling" />
		<tag k="ssr:stedsnr" v="422842" />
	</node>
	<node lat="61.13351415844338" lon="8.93753404838989" id="-39350">
		<tag k="alt_name" v="Ringestad" />
		<tag k="fixme" v="consider place=hamlet" />
		<tag k="name" v="Rengistad" />
		<tag k="place" v="farm" />
		<tag k="ssr:stedsnr" v="431114" />
	</node>
	<node lat="61.134124999091064" lon="8.865947222235434" id="-39351">
		<tag k="name" v="Moen" />
		<tag k="place" v="farm" />
		<tag k="ssr:stedsnr" v="431122" />
	</node>
	<node lat="61.11194586840295" lon="8.82271359439838" id="-39352">
		<tag k="fixme" v="multiple name tags, choose one and add the other to alt_name" />
		<tag k="name" v="Ystad;Ristestøl" />
		<tag k="place" v="isolated_dwelling" />
		<tag k="ssr:stedsnr" v="431396" />
	</node>
	<node lat="61.051919443713444" lon="9.00329722459405" id="-39353">
		<tag k="name" v="Bakke" />
		<tag k="place" v="farm" />
		<tag k="ssr:stedsnr" v="431839" />
	</node>
	<node lat="61.03327499748682" lon="9.05643332672127" id="-39354">
		<tag k="name" v="Røn" />
		<tag k="place" v="village" />
		<tag k="ssr:stedsnr" v="431845" />
	</node>
	<node lat="61.05730278033293" lon="9.049375001329766" id="-39355">
		<tag k="name" v="Rå" />
		<tag k="place" v="farm" />
		<tag k="ssr:stedsnr" v="431853" />
	</node>
	<node lat="61.12717778008443" lon="8.96587500612681" id="-39356">
		<tag k="alt_name" v="Kvålsbrøtadn" />
		<tag k="name" v="Kvålsbråten" />
		<tag k="place" v="farm" />
		<tag k="ssr:stedsnr" v="432103" />
	</node>
	<node lat="61.07153055195986" lon="8.933858328474571" id="-39362">
		<tag k="alt_name" v="Gamlestøladn" />
		<tag k="historic" v="shieling" />
		<tag k="name" v="Gamlestølane" />
		<tag k="place" v="isolated_dwelling" />
		<tag k="ssr:stedsnr" v="432878" />
	</node>
	<node lat="60.99617500218098" lon="8.750174996974188" id="-39365">
		<tag k="name" v="Kvithaug" />
		<tag k="place" v="isolated_dwelling" />
		<tag k="ssr:stedsnr" v="433792" />
	</node>
	<node lat="61.10776110766109" lon="8.935744436726658" id="-39366">
		<tag k="alt_name" v="Vikbakken" />
		<tag k="name" v="Bakken" />
		<tag k="place" v="farm" />
		<tag k="ssr:stedsnr" v="492119" />
	</node>
	<node lat="61.15489999747245" lon="8.922202772582661" id="-39367">
		<tag k="historic" v="shieling" />
		<tag k="name" v="Lomeslii" />
		<tag k="place" v="isolated_dwelling" />
		<tag k="ssr:stedsnr" v="492041" />
	</node>
	<node lat="61.15912499639343" lon="8.913311117736558" id="-39368">
		<tag k="alt_name" v="Høvsstøl" />
		<tag k="historic" v="shieling" />
		<tag k="name" v="Hovsstølane" />
		<tag k="place" v="isolated_dwelling" />
		<tag k="ssr:stedsnr" v="492043" />
	</node>
	<node lat="61.141102781708064" lon="8.893788882335274" id="-39369">
		<tag k="alt_name" v="Eggebakkan" />
		<tag k="name" v="Eggebakken" />
		<tag k="place" v="farm" />
		<tag k="ssr:stedsnr" v="492068" />
	</node>
	<node lat="61.10079166618158" lon="8.979955550028139" id="-39370">
		<tag k="alt_name" v="Skori, nordre;Nørdre Skøre" />
		<tag k="name" v="Nørdre Skori" />
		<tag k="place" v="farm" />
		<tag k="ssr:stedsnr" v="492142" />
	</node>
	<node lat="61.0896388844478" lon="8.917244445561867" id="-39371">
		<tag k="historic" v="shieling" />
		<tag k="name" v="Hagastølen" />
		<tag k="place" v="isolated_dwelling" />
		<tag k="ssr:stedsnr" v="492163" />
	</node>
	<node lat="61.11278611481726" lon="8.812144449068548" id="-39372">
		<tag k="name" v="Bakkestølen" />
		<tag k="place" v="isolated_dwelling" />
		<tag k="ssr:stedsnr" v="492343" />
	</node>
	<node lat="61.00548610969711" lon="9.00056945246107" id="-39373">
		<tag k="name" v="Fossheimsæter" />
		<tag k="place" v="farm" />
		<tag k="ssr:stedsnr" v="492756" />
	</node>
	<node lat="61.060391671142064" lon="8.998980551731467" id="-39375">
		<tag k="name" v="Dalbø" />
		<tag k="place" v="farm" />
		<tag k="ssr:stedsnr" v="492831" />
	</node>
	<node lat="61.05677499639571" lon="9.014741668777924" id="-39376">
		<tag k="alt_name" v="Viken" />
		<tag k="name" v="Viki" />
		<tag k="place" v="farm" />
		<tag k="ssr:stedsnr" v="492832" />
	</node>
	<node lat="61.062591669960916" lon="9.099597226775678" id="-39377">
		<tag k="name" v="Holte" />
		<tag k="place" v="farm" />
		<tag k="ssr:stedsnr" v="492835" />
	</node>
	<node lat="61.05592777802955" lon="8.843600007551686" id="-39378">
		<tag k="historic" v="shieling" />
		<tag k="name" v="Haugsstølen" />
		<tag k="place" v="isolated_dwelling" />
		<tag k="ssr:stedsnr" v="492837" />
	</node>
	<node lat="61.06802499756073" lon="8.976963888944113" id="-39379">
		<tag k="name" v="Vikabråten" />
		<tag k="place" v="farm" />
		<tag k="ssr:stedsnr" v="492877" />
	</node>
	<node lat="61.066158330775096" lon="8.99196111939221" id="-39380">
		<tag k="name" v="Nerstad" />
		<tag k="place" v="farm" />
		<tag k="ssr:stedsnr" v="492855" />
	</node>
	<node lat="60.92304444882258" lon="8.868508333430604" id="-39381">
		<tag k="historic" v="shieling" />
		<tag k="name" v="Flisøystølan" />
		<tag k="place" v="isolated_dwelling" />
		<tag k="ssr:stedsnr" v="494347" />
	</node>
	<node lat="60.89728055284051" lon="8.873166673030745" id="-39382">
		<tag k="historic" v="shieling" />
		<tag k="name" v="Kvålestølen" />
		<tag k="place" v="isolated_dwelling" />
		<tag k="ssr:stedsnr" v="494401" />
	</node>
	<node lat="61.1571805527854" lon="8.89603611458539" id="-39385">
		<tag k="historic" v="shieling" />
		<tag k="name" v="Røvangstølen" />
		<tag k="place" v="isolated_dwelling" />
		<tag k="ssr:stedsnr" v="674056" />
	</node>
	<node lat="61.15944999565178" lon="8.894188882837764" id="-39386">
		<tag k="alt_name" v="Krøssengstøl" />
		<tag k="historic" v="shieling" />
		<tag k="name" v="Krossengstølen" />
		<tag k="place" v="isolated_dwelling" />
		<tag k="ssr:stedsnr" v="674057" />
	</node>
	<node lat="61.1445444485761" lon="8.8743499967776" id="-39387">
		<tag k="name" v="Ellestad" />
		<tag k="place" v="farm" />
		<tag k="ssr:stedsnr" v="674076" />
	</node>
	<node lat="61.150874636072906" lon="8.975534280913811" id="-39388">
		<tag k="name" v="Løkjesjordet" />
		<tag k="place" v="locality" />
		<tag k="ssr:stedsnr" v="674080" />
	</node>
	<node lat="61.15077499865912" lon="8.885708324999488" id="-39389">
		<tag k="alt_name" v="Rødvangstøl" />
		<tag k="historic" v="shieling" />
		<tag k="name" v="Rødvangstølen" />
		<tag k="place" v="isolated_dwelling" />
		<tag k="ssr:stedsnr" v="674085" />
	</node>
	<node lat="61.14995277739305" lon="8.882069448824687" id="-39390">
		<tag k="alt_name" v="Høynestøl" />
		<tag k="historic" v="shieling" />
		<tag k="name" v="Høynesstølen" />
		<tag k="place" v="isolated_dwelling" />
		<tag k="ssr:stedsnr" v="674086" />
	</node>
	<node lat="61.102686107615874" lon="8.865999996566115" id="-39391">
		<tag k="historic" v="shieling" />
		<tag k="name" v="Kinn" />
		<tag k="place" v="isolated_dwelling" />
		<tag k="ssr:stedsnr" v="674160" />
	</node>
	<node lat="61.12557500082108" lon="8.971152778061207" id="-39392">
		<tag k="alt_name" v="Kvålsstøladn" />
		<tag k="historic" v="shieling" />
		<tag k="name" v="Kvålsstølane" />
		<tag k="place" v="isolated_dwelling" />
		<tag k="ssr:stedsnr" v="674140" />
	</node>
	<node lat="61.11013055621105" lon="8.95717777047703" id="-39393">
		<tag k="alt_name" v="Haugo, nordre;Haugadn;Haugene" />
		<tag k="name" v="Nørdre Haugo" />
		<tag k="place" v="farm" />
		<tag k="ssr:stedsnr" v="674147" />
	</node>
	<node lat="61.11299166567404" lon="8.9229055613384" id="-39394">
		<tag k="name" v="Dalen" />
		<tag k="place" v="farm" />
		<tag k="ssr:stedsnr" v="674150" />
	</node>
	<node lat="61.087072221034816" lon="8.902747225667772" id="-39395">
		<tag k="historic" v="shieling" />
		<tag k="name" v="Vikstølen" />
		<tag k="place" v="isolated_dwelling" />
		<tag k="ssr:stedsnr" v="674211" />
	</node>
	<node lat="61.073080553297075" lon="8.971233340663874" id="-39396">
		<tag k="alt_name" v="Dokken" />
		<tag k="name" v="Dokki" />
		<tag k="place" v="farm" />
		<tag k="ssr:stedsnr" v="674232" />
	</node>
	<node lat="61.090263890874105" lon="8.946947217311184" id="-39397">
		<tag k="alt_name" v="Nedre Frigstadplassen" />
		<tag k="name" v="Frikstadplassen" />
		<tag k="place" v="isolated_dwelling" />
		<tag k="ssr:stedsnr" v="674198" />
	</node>
	<node lat="61.01073333096723" lon="8.805424991583237" id="-39399">
		<tag k="alt_name" v="Grønsenn" />
		<tag k="historic" v="shieling" />
		<tag k="name" v="Grønsennstølane" />
		<tag k="place" v="isolated_dwelling" />
		<tag k="ssr:stedsnr" v="674387" />
	</node>
	<node lat="61.005011115196204" lon="9.000727772823756" id="-39401">
		<tag k="historic" v="shieling" />
		<tag k="name" v="Nystøl" />
		<tag k="place" v="isolated_dwelling" />
		<tag k="ssr:stedsnr" v="464257" />
	</node>
	<node lat="61.00399444743097" lon="9.012869439984248" id="-39402">
		<tag k="historic" v="shieling" />
		<tag k="name" v="Solli" />
		<tag k="place" v="isolated_dwelling" />
		<tag k="ssr:stedsnr" v="464258" />
	</node>
	<node lat="61.02482589851221" lon="9.058309719970525" id="-39404">
		<tag k="alt_name" v="Hammarsnes" />
		<tag k="name" v="Nørdre Hamarsnes" />
		<tag k="place" v="farm" />
		<tag k="ssr:stedsnr" v="674779" />
	</node>
	<node lat="61.0329444404459" lon="9.165799998727303" id="-39405">
		<tag k="name" v="Rognstad" />
		<tag k="place" v="farm" />
		<tag k="ssr:stedsnr" v="465980" />
	</node>
	<node lat="61.0362630213466" lon="9.157285621777891" id="-39406">
		<tag k="alt_name" v="Sælid" />
		<tag k="name" v="Sæli" />
		<tag k="place" v="farm" />
		<tag k="ssr:stedsnr" v="674799" />
	</node>
	<node lat="61.044330557323576" lon="9.000633340467319" id="-39407">
		<tag k="name" v="Hylla" />
		<tag k="place" v="farm" />
		<tag k="ssr:stedsnr" v="674801" />
	</node>
	<node lat="61.054461531507734" lon="9.04582804251957" id="-39409">
		<tag k="fixme" v="consider place=hamlet" />
		<tag k="name" v="Ulvestad" />
		<tag k="place" v="farm" />
		<tag k="ssr:stedsnr" v="674835" />
	</node>
	<node lat="61.06027499784871" lon="8.892591660206701" id="-39410">
		<tag k="alt_name" v="Ulastølen" />
		<tag k="historic" v="shieling" />
		<tag k="name" v="Olastølen" />
		<tag k="place" v="isolated_dwelling" />
		<tag k="ssr:stedsnr" v="674842" />
	</node>
	<node lat="61.02126388961219" lon="9.051863884679081" id="-39412">
		<tag k="name" v="Nygård" />
		<tag k="place" v="isolated_dwelling" />
		<tag k="ssr:stedsnr" v="466226" />
	</node>
	<node lat="61.04418611204917" lon="9.071616665849856" id="-39413">
		<tag k="name" v="Fystro" />
		<tag k="place" v="farm" />
		<tag k="ssr:stedsnr" v="674796" />
	</node>
	<node lat="60.960294440936266" lon="8.815794438312501" id="-39415">
		<tag k="historic" v="shieling" />
		<tag k="name" v="Ulvestadstølane" />
		<tag k="place" v="isolated_dwelling" />
		<tag k="ssr:stedsnr" v="466663" />
	</node>
	<node lat="61.03600278082007" lon="9.025786119324547" id="-39417">
		<tag k="name" v="Linjordet" />
		<tag k="place" v="isolated_dwelling" />
		<tag k="ssr:stedsnr" v="466902" />
	</node>
	<node lat="61.04392777575074" lon="9.011766667528898" id="-39418">
		<tag k="name" v="Nedre Semeleng" />
		<tag k="place" v="farm" />
		<tag k="ssr:stedsnr" v="466904" />
	</node>
	<node lat="61.058855552488055" lon="8.995375000459147" id="-39419">
		<tag k="name" v="Løten" />
		<tag k="place" v="farm" />
		<tag k="ssr:stedsnr" v="466970" />
	</node>
	<node lat="60.91615555671203" lon="8.819511102777346" id="-39421">
		<tag k="historic" v="shieling" />
		<tag k="name" v="Handestølen" />
		<tag k="place" v="isolated_dwelling" />
		<tag k="ssr:stedsnr" v="676836" />
	</node>
	<node lat="61.12508333751904" lon="8.963505558102643" id="-39429">
		<tag k="alt_name" v="Thune" />
		<tag k="name" v="Tune" />
		<tag k="place" v="farm" />
		<tag k="ssr:stedsnr" v="492104" />
	</node>
	<node lat="61.12326038990897" lon="8.817133770060023" id="-39430">
		<tag k="alt_name" v="Høyme" />
		<tag k="fixme" v="consider place=hamlet" />
		<tag k="name" v="Øvre Høyme" />
		<tag k="place" v="farm" />
		<tag k="ssr:stedsnr" v="492297" />
	</node>
	<node lat="61.127238448603634" lon="8.812660725035082" id="-39432">
		<tag k="name" v="Gullhaug" />
		<tag k="place" v="farm" />
		<tag k="ssr:stedsnr" v="492315" />
	</node>
	<node lat="61.12873333753394" lon="8.821724999071284" id="-39433">
		<tag k="name" v="Neståker" />
		<tag k="place" v="isolated_dwelling" />
		<tag k="ssr:stedsnr" v="492317" />
	</node>
	<node lat="61.0638166688875" lon="8.813255563583544" id="-39434">
		<tag k="historic" v="shieling" />
		<tag k="name" v="Trøsvikstølen" />
		<tag k="old_name" v="Trøstvikstølen" />
		<tag k="place" v="isolated_dwelling" />
		<tag k="ssr:stedsnr" v="492373" />
	</node>
	<node lat="61.06831110700111" lon="8.77749999308417" id="-39435">
		<tag k="historic" v="shieling" />
		<tag k="name" v="Holostølen" />
		<tag k="place" v="isolated_dwelling" />
		<tag k="ssr:stedsnr" v="492378" />
	</node>
	<node lat="61.04953888916191" lon="9.1671888868315" id="-39438">
		<tag k="alt_name" v="Rebnisberge" />
		<tag k="name" v="Bergo" />
		<tag k="place" v="locality" />
		<tag k="ssr:stedsnr" v="492803" />
	</node>
	<node lat="61.036322220831174" lon="8.918238886568128" id="-39439">
		<tag k="alt_name" v="Mostølen" />
		<tag k="historic" v="shieling" />
		<tag k="name" v="Mosstølen" />
		<tag k="place" v="isolated_dwelling" />
		<tag k="ssr:stedsnr" v="492806" />
	</node>
	<node lat="61.0460844273168" lon="9.00776209423853" id="-39440">
		<tag k="alt_name" v="Semelenge" />
		<tag k="name" v="Øvre Semeleng" />
		<tag k="place" v="farm" />
		<tag k="ssr:stedsnr" v="492812" />
	</node>
	<node lat="61.04662231010049" lon="9.06391383348053" id="-39441">
		<tag k="fixme" v="consider place=hamlet" />
		<tag k="name" v="Tuv" />
		<tag k="place" v="farm" />
		<tag k="ssr:stedsnr" v="492818" />
	</node>
	<node lat="61.02039769176483" lon="9.094350836858796" id="-39442">
		<tag k="name" v="Kvåle" />
		<tag k="place" v="hamlet" />
		<tag k="ssr:stedsnr" v="492773" />
	</node>
	<node lat="61.04317222321586" lon="9.1491166593341" id="-39443">
		<tag k="name" v="Brenna" />
		<tag k="place" v="farm" />
		<tag k="ssr:stedsnr" v="492792" />
	</node>
	<node lat="60.99165555676947" lon="8.964458331535647" id="-39446">
		<tag k="historic" v="shieling" />
		<tag k="name" v="Vistestølen" />
		<tag k="place" v="isolated_dwelling" />
		<tag k="ssr:stedsnr" v="494076" />
	</node>
	<node lat="61.01841944199851" lon="9.08956667407816" id="-39450">
		<tag k="name" v="Bergsgård" />
		<tag k="place" v="farm" />
		<tag k="ssr:stedsnr" v="524815" />
	</node>
	<node lat="61.01797777762282" lon="9.063483332498638" id="-39451">
		<tag k="name" v="Haugen" />
		<tag k="place" v="isolated_dwelling" />
		<tag k="ssr:stedsnr" v="524817" />
	</node>
	<node lat="61.12481560318464" lon="8.955964233584524" id="-39452">
		<tag k="name" v="Kvåle" />
		<tag k="place" v="hamlet" />
		<tag k="ssr:stedsnr" v="525105" />
	</node>
	<node lat="61.089505554661145" lon="8.859641664017815" id="-39453">
		<tag k="name" v="Bekkestua" />
		<tag k="place" v="isolated_dwelling" />
		<tag k="ssr:stedsnr" v="526228" />
	</node>
	<node lat="61.10034999633822" lon="8.944311116719073" id="-39454">
		<tag k="name" v="Kollvik" />
		<tag k="place" v="isolated_dwelling" />
		<tag k="ssr:stedsnr" v="526403" />
	</node>
	<node lat="61.02615277473298" lon="8.868505548335046" id="-39456">
		<tag k="historic" v="shieling" />
		<tag k="name" v="Trønastølen" />
		<tag k="place" v="isolated_dwelling" />
		<tag k="ssr:stedsnr" v="526419" />
	</node>
	<node lat="61.00187500007402" lon="8.934663896972184" id="-39458">
		<tag k="historic" v="shieling" />
		<tag k="name" v="Dalastølen" />
		<tag k="place" v="isolated_dwelling" />
		<tag k="ssr:stedsnr" v="526465" />
	</node>
	<node lat="60.942863891441384" lon="8.846702784171544" id="-39459">
		<tag k="historic" v="shieling" />
		<tag k="name" v="Tuvmarkstølen" />
		<tag k="place" v="isolated_dwelling" />
		<tag k="ssr:stedsnr" v="526771" />
	</node>
	<node lat="61.07946110710067" lon="8.958202783138367" id="-39465">
		<tag k="alt_name" v="Hansegarden, søre;Hansegarden" />
		<tag k="name" v="Søre Hansegarden" />
		<tag k="place" v="farm" />
		<tag k="ssr:stedsnr" v="552225" />
	</node>
	<node lat="61.12547222387499" lon="8.952100002679886" id="-39466">
		<tag k="name" v="Skjølde" />
		<tag k="place" v="farm" />
		<tag k="ssr:stedsnr" v="552118" />
	</node>
	<node lat="61.11631019762695" lon="8.916048562638489" id="-39467">
		<tag k="alt_name" v="Øyråker, nedre;Øyråker" />
		<tag k="name" v="Nedre Øyråker" />
		<tag k="place" v="farm" />
		<tag k="ssr:stedsnr" v="552135" />
	</node>
	<node lat="61.034816663549115" lon="9.091002777385853" id="-39468">
		<tag k="name" v="Myrvoll" />
		<tag k="place" v="farm" />
		<tag k="ssr:stedsnr" v="552820" />
	</node>
	<node lat="61.04944999674275" lon="9.017113894482192" id="-39469">
		<tag k="name" v="Steinsrud" />
		<tag k="place" v="farm" />
		<tag k="ssr:stedsnr" v="552846" />
	</node>
	<node lat="61.12621086477291" lon="8.814577968219613" id="-39471">
		<tag k="fixme" v="consider place=hamlet" />
		<tag k="name" v="Bakke" />
		<tag k="place" v="farm" />
		<tag k="ssr:stedsnr" v="553329" />
	</node>
	<node lat="61.07841000050147" lon="8.994102104461435" id="-39473">
		<tag k="fixme" v="consider place=hamlet" />
		<tag k="name" v="Einang" />
		<tag k="place" v="farm" />
		<tag k="ssr:stedsnr" v="553230" />
	</node>
	<node lat="60.963413891406766" lon="8.9071611083944" id="-39476">
		<tag k="alt_name" v="Grønlie" />
		<tag k="historic" v="shieling" />
		<tag k="name" v="Grønlii" />
		<tag k="place" v="isolated_dwelling" />
		<tag k="ssr:stedsnr" v="554126" />
	</node>
	<node lat="61.06979999809271" lon="8.94044166849811" id="-39477">
		<tag k="alt_name" v="Tørgarstølen" />
		<tag k="historic" v="shieling" />
		<tag k="name" v="Torgarstølen" />
		<tag k="place" v="isolated_dwelling" />
		<tag k="ssr:stedsnr" v="553878" />
	</node>
	<node lat="61.02963611348127" lon="9.094588892321719" id="-39478">
		<tag k="name" v="Ødegården" />
		<tag k="place" v="farm" />
		<tag k="ssr:stedsnr" v="584840" />
	</node>
	<node lat="61.01903055573606" lon="9.057272215770782" id="-39479">
		<tag k="name" v="Mostad" />
		<tag k="place" v="isolated_dwelling" />
		<tag k="ssr:stedsnr" v="587220" />
	</node>
	<node lat="61.09632500060998" lon="8.949747222000765" id="-39480">
		<tag k="name" v="Fredstad" />
		<tag k="place" v="isolated_dwelling" />
		<tag k="ssr:stedsnr" v="587413" />
	</node>
	<node lat="60.94970277353318" lon="8.859736109558257" id="-39482">
		<tag k="historic" v="shieling" />
		<tag k="name" v="Hagabekkstølen" />
		<tag k="place" v="isolated_dwelling" />
		<tag k="ssr:stedsnr" v="587302" />
	</node>
	<node lat="61.00709999731914" lon="8.907391664667868" id="-39484">
		<tag k="historic" v="shieling" />
		<tag k="name" v="Wiknesstølen" />
		<tag k="place" v="isolated_dwelling" />
		<tag k="ssr:stedsnr" v="587510" />
	</node>
	<node lat="60.98908333732717" lon="8.953141660308539" id="-39485">
		<tag k="historic" v="shieling" />
		<tag k="name" v="Lahaugstølen" />
		<tag k="place" v="isolated_dwelling" />
		<tag k="ssr:stedsnr" v="587516" />
	</node>
	<node lat="61.04241666432946" lon="9.050399994753647" id="-39488">
		<tag k="name" v="Røn" />
		<tag k="place" v="isolated_dwelling" />
		<tag k="ssr:stedsnr" v="587910" />
	</node>
	<node lat="61.08802221990987" lon="8.981408335694717" id="-39490">
		<tag k="name" v="Slidre" />
		<tag k="place" v="village" />
		<tag k="ssr:stedsnr" v="698147" />
	</node>
	<node lat="61.089433334247" lon="8.738494440515172" id="-39491">
		<tag k="historic" v="shieling" />
		<tag k="name" v="Åstadvollstølen" />
		<tag k="place" v="isolated_dwelling" />
		<tag k="ssr:stedsnr" v="598422" />
	</node>
	<node lat="61.08110555694302" lon="9.00478888161421" id="-39492">
		<tag k="name" v="Ringen" />
		<tag k="place" v="farm" />
		<tag k="ssr:stedsnr" v="613203" />
	</node>
	<node lat="61.085030554308084" lon="8.868741658357902" id="-39493">
		<tag k="historic" v="shieling" />
		<tag k="name" v="Haugstølen" />
		<tag k="place" v="isolated_dwelling" />
		<tag k="ssr:stedsnr" v="613208" />
	</node>
	<node lat="61.13118332922893" lon="8.949288893893764" id="-39495">
		<tag k="name" v="Haslebrekk" />
		<tag k="place" v="farm" />
		<tag k="ssr:stedsnr" v="613112" />
	</node>
	<node lat="61.12004985519841" lon="8.905027994363591" id="-39496">
		<tag k="alt_name" v="Garvik" />
		<tag k="fixme" v="consider place=hamlet" />
		<tag k="name" v="Gardvik" />
		<tag k="place" v="farm" />
		<tag k="ssr:stedsnr" v="613124" />
	</node>
	<node lat="61.107230558538014" lon="8.978902784271897" id="-39497">
		<tag k="alt_name" v="Klukkargarden" />
		<tag k="name" v="Klokkargarden" />
		<tag k="place" v="farm" />
		<tag k="ssr:stedsnr" v="613173" />
	</node>
	<node lat="61.07655277957746" lon="8.75192500711961" id="-39498">
		<tag k="alt_name" v="Grytestøl" />
		<tag k="historic" v="shieling" />
		<tag k="name" v="Grytestølane" />
		<tag k="place" v="isolated_dwelling" />
		<tag k="ssr:stedsnr" v="613409" />
	</node>
	<node lat="61.048452775435344" lon="9.073563890739273" id="-39502">
		<tag k="name" v="Haugen" />
		<tag k="place" v="farm" />
		<tag k="ssr:stedsnr" v="613815" />
	</node>
	<node lat="61.06204532740579" lon="9.03387285311118" id="-39503">
		<tag k="fixme" v="consider place=hamlet" />
		<tag k="name" v="Reie" />
		<tag k="place" v="farm" />
		<tag k="ssr:stedsnr" v="613836" />
	</node>
	<node lat="61.06032777484672" lon="8.88331110865134" id="-39504">
		<tag k="historic" v="shieling" />
		<tag k="name" v="Preststølen" />
		<tag k="place" v="isolated_dwelling" />
		<tag k="ssr:stedsnr" v="613840" />
	</node>
	<node lat="61.03733055486291" lon="9.078363892369838" id="-39507">
		<tag k="name" v="Oldrum" />
		<tag k="place" v="farm" />
		<tag k="ssr:stedsnr" v="613796" />
	</node>
	<node lat="60.947994447312674" lon="8.927086105972363" id="-39509">
		<tag k="historic" v="shieling" />
		<tag k="name" v="Kinnholt" />
		<tag k="place" v="isolated_dwelling" />
		<tag k="ssr:stedsnr" v="615102" />
	</node>
	<node lat="60.93475833232977" lon="8.672808337796228" id="-39512">
		<tag k="name" v="Bjørneslettstølen" />
		<tag k="place" v="locality" />
		<tag k="ssr:stedsnr" v="615859" />
	</node>
	<node lat="61.02695819279135" lon="9.0828552265991" id="-39517">
		<tag k="name" v="Viste" />
		<tag k="place" v="hamlet" />
		<tag k="ssr:stedsnr" v="645816" />
	</node>
	<node lat="61.13502222417066" lon="8.91637221654552" id="-39518">
		<tag k="name" v="Lomur" />
		<tag k="place" v="farm" />
		<tag k="ssr:stedsnr" v="647103" />
	</node>
	<node lat="61.06547222080935" lon="8.95790554737796" id="-39520">
		<tag k="historic" v="shieling" />
		<tag k="name" v="Egge" />
		<tag k="place" v="isolated_dwelling" />
		<tag k="ssr:stedsnr" v="647432" />
	</node>
	<node lat="61.036883336510826" lon="9.058641666399089" id="-39524">
		<tag k="name" v="Røneberg" />
		<tag k="place" v="farm" />
		<tag k="ssr:stedsnr" v="647839" />
	</node>
	<node lat="61.03386111147136" lon="9.05456943582403" id="-39525">
		<tag k="building" v="commercial" />
		<tag k="name" v="Røn Butikksenter" />
		<tag k="ssr:stedsnr" v="647843" />
	</node>
	<node lat="61.045155558073226" lon="9.042849994669774" id="-39526">
		<tag k="name" v="Bergsund" />
		<tag k="place" v="isolated_dwelling" />
		<tag k="ssr:stedsnr" v="647895" />
	</node>
	<node lat="61.12914444567488" lon="8.941327783460782" id="-39527">
		<tag k="name" v="Midtre Løkje" />
		<tag k="place" v="farm" />
		<tag k="ssr:stedsnr" v="707110" />
	</node>
	<node lat="61.04646111443363" lon="8.829222230880939" id="-39528">
		<tag k="historic" v="shieling" />
		<tag k="name" v="Kvålsstølen" />
		<tag k="place" v="isolated_dwelling" />
		<tag k="ssr:stedsnr" v="707370" />
	</node>
	<node lat="61.12409722419153" lon="8.861491664589483" id="-39531">
		<tag k="name" v="Førshaugen" />
		<tag k="place" v="farm" />
		<tag k="ssr:stedsnr" v="708103" />
	</node>
	<node lat="61.02071111547622" lon="9.055272213722425" id="-39532">
		<tag k="name" v="Nordeng" />
		<tag k="place" v="farm" />
		<tag k="ssr:stedsnr" v="708206" />
	</node>
	<node lat="61.021991670978956" lon="8.899108326017677" id="-39536">
		<tag k="historic" v="shieling" />
		<tag k="name" v="Kvålstølen" />
		<tag k="place" v="isolated_dwelling" />
		<tag k="ssr:stedsnr" v="708450" />
	</node>
	<node lat="61.008630559130395" lon="8.946333327871821" id="-39537">
		<tag k="historic" v="shieling" />
		<tag k="name" v="Ødestøladn" />
		<tag k="place" v="isolated_dwelling" />
		<tag k="ssr:stedsnr" v="708481" />
	</node>
	<node lat="60.95896944513282" lon="8.69219722323124" id="-39541">
		<tag k="historic" v="shieling" />
		<tag k="name" v="Høllastølen" />
		<tag k="place" v="isolated_dwelling" />
		<tag k="ssr:stedsnr" v="708737" />
	</node>
	<node lat="60.94469444669324" lon="8.80206111147006" id="-39543">
		<tag k="historic" v="shieling" />
		<tag k="name" v="Ulvenstølen" />
		<tag k="place" v="isolated_dwelling" />
		<tag k="ssr:stedsnr" v="708755" />
	</node>
	<node lat="61.0619027793238" lon="8.980249997573546" id="-39544">
		<tag k="name" v="Bratteng" />
		<tag k="place" v="locality" />
		<tag k="ssr:stedsnr" v="708972" />
	</node>
	<node lat="61.03917222506544" lon="9.074888895573546" id="-39545">
		<tag k="name" v="Hagabekk" />
		<tag k="place" v="farm" />
		<tag k="ssr:stedsnr" v="708898" />
	</node>
	<node lat="61.03851944747647" lon="9.035811112402023" id="-39546">
		<tag k="name" v="Haugen" />
		<tag k="place" v="farm" />
		<tag k="ssr:stedsnr" v="708868" />
	</node>
	<node lat="61.12959298891813" lon="8.956294257576731" id="-39550">
		<tag k="alt_name" v="Ørmestad" />
		<tag k="fixme" v="consider place=hamlet" />
		<tag k="name" v="Ormestad" />
		<tag k="place" v="farm" />
		<tag k="ssr:stedsnr" v="674114" />
	</node>
	<node lat="61.12115305359121" lon="8.889148640845752" id="-39551">
		<tag k="alt_name" v="Lykkja, søre" />
		<tag k="name" v="Søre Lykkja" />
		<tag k="place" v="farm" />
		<tag k="ssr:stedsnr" v="674120" />
	</node>
	<node lat="61.030008335757074" lon="8.757619450559417" id="-39552">
		<tag k="alt_name" v="Nosastølen" />
		<tag k="name" v="Nørdre Nøsen" />
		<tag k="place" v="hamlet" />
		<tag k="ssr:stedsnr" v="674406" />
	</node>
	<node lat="61.08638610820082" lon="8.991005562347727" id="-39553">
		<tag k="alt_name" v="Tvenge, øvre;Øvre Plassen" />
		<tag k="name" v="Øvre Tvenge" />
		<tag k="place" v="farm" />
		<tag k="ssr:stedsnr" v="674202" />
	</node>
	<node lat="60.988819441455924" lon="8.980719452681607" id="-39554">
		<tag k="historic" v="shieling" />
		<tag k="name" v="Kvålsstølen" />
		<tag k="place" v="isolated_dwelling" />
		<tag k="ssr:stedsnr" v="891238" />
	</node>
	<node lat="61.026375001442226" lon="8.863572216951415" id="-39559">
		<tag k="historic" v="shieling" />
		<tag k="name" v="Øygardstølen" />
		<tag k="place" v="isolated_dwelling" />
		<tag k="ssr:stedsnr" v="891442" />
	</node>
	<node lat="61.015733330797744" lon="8.925338880054769" id="-39560">
		<tag k="historic" v="shieling" />
		<tag k="name" v="Duntestølen" />
		<tag k="place" v="isolated_dwelling" />
		<tag k="ssr:stedsnr" v="891488" />
	</node>
	<node lat="60.94837222280209" lon="8.92710277811262" id="-39561">
		<tag k="historic" v="shieling" />
		<tag k="name" v="Snortheimstølane" />
		<tag k="place" v="isolated_dwelling" />
		<tag k="ssr:stedsnr" v="891318" />
	</node>
	<node lat="60.985319446244596" lon="8.955899998402147" id="-39562">
		<tag k="historic" v="shieling" />
		<tag k="name" v="Dalastølen" />
		<tag k="place" v="isolated_dwelling" />
		<tag k="ssr:stedsnr" v="891516" />
	</node>
	<node lat="61.04174166572456" lon="9.03992778234345" id="-39564">
		<tag k="name" v="Bergstrøm" />
		<tag k="place" v="farm" />
		<tag k="ssr:stedsnr" v="891908" />
	</node>
	<node lat="61.068824995712006" lon="9.013791660510309" id="-39565">
		<tag k="name" v="Nørdre Hande" />
		<tag k="place" v="isolated_dwelling" />
		<tag k="ssr:stedsnr" v="891972" />
	</node>
	<node lat="61.06561944207134" lon="9.027250006085268" id="-39566">
		<tag k="name" v="Søre Hande" />
		<tag k="place" v="isolated_dwelling" />
		<tag k="ssr:stedsnr" v="891977" />
	</node>
	<node lat="61.06997222544662" lon="8.989975007147871" id="-39568">
		<tag k="name" v="Bondeby" />
		<tag k="place" v="locality" />
		<tag k="ssr:stedsnr" v="891950" />
	</node>
	<node lat="60.95690833754984" lon="8.885072229573334" id="-39570">
		<tag k="historic" v="shieling" />
		<tag k="name" v="Lisjordstølen" />
		<tag k="place" v="isolated_dwelling" />
		<tag k="ssr:stedsnr" v="708271" />
	</node>
	<node lat="60.962188888742595" lon="8.907861112939944" id="-39571">
		<tag k="historic" v="shieling" />
		<tag k="name" v="Nordåkerstølen" />
		<tag k="place" v="isolated_dwelling" />
		<tag k="ssr:stedsnr" v="708274" />
	</node>
	<node lat="61.0758694429129" lon="8.969577784081306" id="-39573">
		<tag k="name" v="Varnes" />
		<tag k="place" v="locality" />
		<tag k="ssr:stedsnr" v="708414" />
	</node>
	<node lat="61.03864722316577" lon="8.916938882351083" id="-39575">
		<tag k="name" v="Sisselset" />
		<tag k="place" v="hamlet" />
		<tag k="ssr:stedsnr" v="718273" />
	</node>
	<node lat="61.041172220818986" lon="8.911802777391193" id="-39576">
		<tag k="alt_name" v="Karistua" />
		<tag k="name" v="Bestebo" />
		<tag k="place" v="farm" />
		<tag k="ssr:stedsnr" v="718284" />
	</node>
	<node lat="61.132772222813564" lon="8.796624991639613" id="-39577">
		<tag k="name" v="Vollheim" />
		<tag k="place" v="isolated_dwelling" />
		<tag k="ssr:stedsnr" v="725211" />
	</node>
	<node lat="61.11752339392291" lon="8.91154898979231" id="-39578">
		<tag k="alt_name" v="Øyråker, øvre;Øyråker" />
		<tag k="name" v="Øvre Øyråker" />
		<tag k="place" v="farm" />
		<tag k="ssr:stedsnr" v="735114" />
	</node>
	<node lat="61.1404898724103" lon="8.887641191163853" id="-39579">
		<tag k="alt_name" v="Egge, nedre;Egge" />
		<tag k="name" v="Nedre Egge" />
		<tag k="place" v="farm" />
		<tag k="ssr:stedsnr" v="735087" />
	</node>
	<node lat="61.14033611561952" lon="8.934086105360738" id="-39580">
		<tag k="historic" v="shieling" />
		<tag k="name" v="Haugsstølen" />
		<tag k="place" v="isolated_dwelling" />
		<tag k="ssr:stedsnr" v="735091" />
	</node>
	<node lat="61.12879166701379" lon="8.853508336791663" id="-39582">
		<tag k="alt_name" v="Feet" />
		<tag k="name" v="Fet" />
		<tag k="place" v="farm" />
		<tag k="ssr:stedsnr" v="735098" />
	</node>
	<node lat="61.098055555142665" lon="8.974661117676492" id="-39583">
		<tag k="name" v="Ølken" />
		<tag k="old_name" v="Ølke" />
		<tag k="ssr:stedsnr" v="735203" />
		<tag k="tourism" v="hotel" />
	</node>
	<node lat="61.09443181322374" lon="8.953386836701798" id="-39584">
		<tag k="alt_name" v="Frigstad" />
		<tag k="fixme" v="consider place=hamlet" />
		<tag k="name" v="Frikstad" />
		<tag k="place" v="farm" />
		<tag k="ssr:stedsnr" v="735205" />
	</node>
	<node lat="61.08215000170016" lon="9.02393333359086" id="-39585">
		<tag k="name" v="Solvoll" />
		<tag k="place" v="farm" />
		<tag k="ssr:stedsnr" v="735213" />
	</node>
	<node lat="61.12483553546989" lon="8.83629309966291" id="-39586">
		<tag k="alt_name" v="Riste" />
		<tag k="name" v="Øvre Riste" />
		<tag k="place" v="farm" />
		<tag k="ssr:stedsnr" v="735325" />
	</node>
	<node lat="61.07308611150717" lon="8.762030557939495" id="-39588">
		<tag k="historic" v="shieling" />
		<tag k="name" v="Høymestølen" />
		<tag k="place" v="isolated_dwelling" />
		<tag k="ssr:stedsnr" v="735394" />
	</node>
	<node lat="61.028683335256495" lon="9.098691667270623" id="-39590">
		<tag k="name" v="Solheim" />
		<tag k="place" v="farm" />
		<tag k="ssr:stedsnr" v="735783" />
	</node>
	<node lat="61.03479051375401" lon="9.032203761690837" id="-39591">
		<tag k="fixme" v="consider place=hamlet" />
		<tag k="name" v="Fere" />
		<tag k="old_name" v="Færden" />
		<tag k="place" v="farm" />
		<tag k="ssr:stedsnr" v="735787" />
	</node>
	<node lat="61.031825246762075" lon="9.08692946309493" id="-39592">
		<tag k="alt_name" v="Rebne" />
		<tag k="fixme" v="consider place=hamlet" />
		<tag k="name" v="Revne" />
		<tag k="place" v="farm" />
		<tag k="ssr:stedsnr" v="735789" />
	</node>
	<node lat="61.041361109246566" lon="9.007922226733678" id="-39593">
		<tag k="name" v="Braka" />
		<tag k="place" v="farm" />
		<tag k="ssr:stedsnr" v="735796" />
	</node>
	<node lat="61.06121666222289" lon="9.110550000385752" id="-39596">
		<tag k="name" v="Ruud" />
		<tag k="place" v="farm" />
		<tag k="ssr:stedsnr" v="903524" />
	</node>
	<node lat="61.02002778007684" lon="9.071199997502267" id="-39599">
		<tag k="name" v="Viken" />
		<tag k="place" v="isolated_dwelling" />
		<tag k="ssr:stedsnr" v="767842" />
	</node>
	<node lat="60.992608333377845" lon="8.980680556935328" id="-39601">
		<tag k="historic" v="shieling" />
		<tag k="name" v="Vistestølen" />
		<tag k="place" v="isolated_dwelling" />
		<tag k="ssr:stedsnr" v="769198" />
	</node>
	<node lat="60.91868333645821" lon="8.820400007820492" id="-39606">
		<tag k="historic" v="shieling" />
		<tag k="name" v="Tildheimstølen" />
		<tag k="place" v="isolated_dwelling" />
		<tag k="ssr:stedsnr" v="769757" />
	</node>
	<node lat="61.024861109207215" lon="9.052399994690594" id="-39607">
		<tag k="name" v="Svingen" />
		<tag k="place" v="farm" />
		<tag k="ssr:stedsnr" v="769809" />
	</node>
	<node lat="61.04850833619899" lon="8.861152768881235" id="-39608">
		<tag k="historic" v="shieling" />
		<tag k="name" v="Dokkestølen" />
		<tag k="place" v="isolated_dwelling" />
		<tag k="ssr:stedsnr" v="780156" />
	</node>
	<node lat="61.13533055314534" lon="8.816416671216471" id="-39610">
		<tag k="name" v="Lomen industriområde" />
		<tag k="place" v="quarter" />
		<tag k="ssr:stedsnr" v="786226" />
	</node>
	<node lat="61.08885555808468" lon="9.052374997046376" id="-39613">
		<tag k="name" v="Handesletti" />
		<tag k="place" v="isolated_dwelling" />
		<tag k="ssr:stedsnr" v="796208" />
	</node>
	<node lat="61.081791669863094" lon="8.955197228559486" id="-39614">
		<tag k="alt_name" v="Hansegarden, nordre;Hansegarden" />
		<tag k="name" v="Nørdre Hansegarden" />
		<tag k="place" v="farm" />
		<tag k="ssr:stedsnr" v="796215" />
	</node>
	<node lat="61.08954722214895" lon="8.898488893745931" id="-39615">
		<tag k="alt_name" v="Dokkstølen" />
		<tag k="historic" v="shieling" />
		<tag k="name" v="Dokkestølen" />
		<tag k="place" v="isolated_dwelling" />
		<tag k="ssr:stedsnr" v="796216" />
	</node>
	<node lat="61.047097219526776" lon="8.760044439956216" id="-39616">
		<tag k="historic" v="shieling" />
		<tag k="name" v="Haslebrekkstølen" />
		<tag k="old_name" v="Haslebrekk" />
		<tag k="place" v="isolated_dwelling" />
		<tag k="ssr:stedsnr" v="796429" />
	</node>
	<node lat="61.11906667093254" lon="8.782883333223122" id="-39618">
		<tag k="alt_name" v="Åstadstølen" />
		<tag k="historic" v="shieling" />
		<tag k="name" v="Åstadsholmen" />
		<tag k="place" v="isolated_dwelling" />
		<tag k="ssr:stedsnr" v="796323" />
	</node>
	<node lat="60.94642569282441" lon="8.745624459908763" id="-39619">
		<tag k="alt_name" v="Feristølen" />
		<tag k="historic" v="shieling" />
		<tag k="name" v="Ferisstølen" />
		<tag k="old_name" v="Feriestølen" />
		<tag k="place" v="isolated_dwelling" />
		<tag k="ssr:stedsnr" v="796776" />
	</node>
	<node lat="60.95972499876019" lon="8.689858327980222" id="-39620">
		<tag k="name" v="Larsgarden" />
		<tag k="place" v="isolated_dwelling" />
		<tag k="ssr:stedsnr" v="797766" />
	</node>
	<node lat="61.09211944198177" lon="8.926558333161697" id="-39623">
		<tag k="name" v="Øygarden" />
		<tag k="place" v="isolated_dwelling" />
		<tag k="ssr:stedsnr" v="917156" />
	</node>
	<node lat="61.08258888618578" lon="8.992450007782265" id="-39624">
		<tag k="fixme" v="multiple name tags, choose one and add the other to alt_name" />
		<tag k="name" v="Marenplassen;Tun" />
		<tag k="place" v="farm" />
		<tag k="ssr:stedsnr" v="917171" />
	</node>
	<node lat="61.076689141590144" lon="9.001236021027065" id="-39625">
		<tag k="fixme" v="consider place=hamlet" />
		<tag k="name" v="Nesja" />
		<tag k="place" v="farm" />
		<tag k="ssr:stedsnr" v="917193" />
	</node>
	<node lat="61.074822219903155" lon="9.014875005270328" id="-39626">
		<tag k="name" v="Bergheim" />
		<tag k="place" v="farm" />
		<tag k="ssr:stedsnr" v="917194" />
	</node>
	<node lat="61.073816662854725" lon="9.030322230127348" id="-39627">
		<tag k="name" v="Ringerud" />
		<tag k="place" v="farm" />
		<tag k="ssr:stedsnr" v="917198" />
	</node>
	<node lat="61.064711114498515" lon="8.782841666344781" id="-39629">
		<tag k="historic" v="shieling" />
		<tag k="name" v="Ristestølen" />
		<tag k="place" v="isolated_dwelling" />
		<tag k="ssr:stedsnr" v="917367" />
	</node>
	<node lat="61.108299997279964" lon="8.84259722856706" id="-39632">
		<tag k="historic" v="shieling" />
		<tag k="name" v="Hovdastølen" />
		<tag k="place" v="isolated_dwelling" />
		<tag k="ssr:stedsnr" v="917348" />
	</node>
	<node lat="61.03325555401632" lon="9.095908331277274" id="-39633">
		<tag k="alt_name" v="Rebnesmyren" />
		<tag k="name" v="Revnesmyri" />
		<tag k="place" v="farm" />
		<tag k="ssr:stedsnr" v="917786" />
	</node>
	<node lat="61.03378200505184" lon="9.076540480069154" id="-39634">
		<tag k="fixme" v="consider place=hamlet" />
		<tag k="name" v="Fauske" />
		<tag k="place" v="farm" />
		<tag k="ssr:stedsnr" v="917788" />
	</node>
	<node lat="61.05549999745921" lon="9.041525007478937" id="-39635">
		<tag k="name" v="Hagali" />
		<tag k="place" v="farm" />
		<tag k="ssr:stedsnr" v="917837" />
	</node>
	<node lat="61.06007434076638" lon="9.047199320617656" id="-39636">
		<tag k="alt_name" v="Magistad, nedre" />
		<tag k="fixme" v="consider place=hamlet" />
		<tag k="name" v="Nedre Magistad" />
		<tag k="place" v="farm" />
		<tag k="ssr:stedsnr" v="917838" />
	</node>
	<node lat="61.05371111507081" lon="9.059574995320016" id="-39637">
		<tag k="name" v="Snortheimsmarki" />
		<tag k="place" v="farm" />
		<tag k="ssr:stedsnr" v="917845" />
	</node>
	<node lat="61.03262499629185" lon="8.92686944954947" id="-39639">
		<tag k="historic" v="shieling" />
		<tag k="name" v="Skrøvikstølen" />
		<tag k="place" v="isolated_dwelling" />
		<tag k="ssr:stedsnr" v="917792" />
	</node>
	<node lat="61.03906388835707" lon="9.010247225504195" id="-39640">
		<tag k="name" v="Gilhus" />
		<tag k="place" v="farm" />
		<tag k="ssr:stedsnr" v="917798" />
	</node>
	<node lat="60.94785356719437" lon="8.723842100129" id="-39642">
		<tag k="alt_name" v="Grunkestølen" />
		<tag k="historic" v="shieling" />
		<tag k="name" v="Søre Grunke" />
		<tag k="place" v="isolated_dwelling" />
		<tag k="ssr:stedsnr" v="919859" />
	</node>
	<node lat="61.13515555669397" lon="8.939169440197057" id="-39644">
		<tag k="name" v="Rengistadtunet" />
		<tag k="place" v="farm" />
		<tag k="ssr:stedsnr" v="828064" />
	</node>
	<node lat="61.13089444781048" lon="8.932524991729405" id="-39645">
		<tag k="name" v="Bergo" />
		<tag k="place" v="isolated_dwelling" />
		<tag k="ssr:stedsnr" v="828067" />
	</node>
	<node lat="60.91698888503786" lon="8.874702770460502" id="-39647">
		<tag k="historic" v="shieling" />
		<tag k="name" v="Hagastølen" />
		<tag k="place" v="isolated_dwelling" />
		<tag k="ssr:stedsnr" v="828207" />
	</node>
	<node lat="60.91863610774332" lon="8.87645832635045" id="-39648">
		<tag k="historic" v="shieling" />
		<tag k="name" v="Haugastølen" />
		<tag k="place" v="isolated_dwelling" />
		<tag k="ssr:stedsnr" v="828209" />
	</node>
	<node lat="61.05216944480171" lon="9.041641675301795" id="-39649">
		<tag k="name" v="Viker" />
		<tag k="place" v="farm" />
		<tag k="ssr:stedsnr" v="828869" />
	</node>
	<node lat="61.00481944123175" lon="8.921127777264266" id="-39651">
		<tag k="historic" v="shieling" />
		<tag k="name" v="Sælistølen" />
		<tag k="place" v="isolated_dwelling" />
		<tag k="ssr:stedsnr" v="830465" />
	</node>
	<node lat="61.11498610667422" lon="8.927058325810696" id="-39652">
		<tag k="name" v="Haugrud" />
		<tag k="place" v="farm" />
		<tag k="ssr:stedsnr" v="830373" />
	</node>
	<node lat="61.03802221944024" lon="9.086927783317758" id="-39656">
		<tag k="name" v="Sjåheim" />
		<tag k="place" v="locality" />
		<tag k="ssr:stedsnr" v="830907" />
	</node>
	<node lat="61.09344722365748" lon="8.982394436926432" id="-39657">
		<tag k="name" v="Søre Fulkji" />
		<tag k="place" v="farm" />
		<tag k="ssr:stedsnr" v="830993" />
	</node>
	<node lat="61.12114682472151" lon="8.868578694147045" id="-39659">
		<tag k="alt_name" v="Kvisl søndre;Øvre Kvisl;Kvisl, øvre;Kvissel" />
		<tag k="name" v="Søre Kvisl" />
		<tag k="old_name" v="Kvistøl, øvre" />
		<tag k="place" v="farm" />
		<tag k="ssr:stedsnr" v="856114" />
	</node>
	<node lat="61.12384444611237" lon="8.958641662044258" id="-39660">
		<tag k="name" v="Jordet" />
		<tag k="place" v="farm" />
		<tag k="ssr:stedsnr" v="856137" />
	</node>
	<node lat="61.1177583357825" lon="8.955783331994542" id="-39661">
		<tag k="name" v="Bråten" />
		<tag k="place" v="farm" />
		<tag k="ssr:stedsnr" v="856139" />
	</node>
	<node lat="61.14089169870201" lon="8.878339081973332" id="-39662">
		<tag k="fixme" v="consider place=hamlet" />
		<tag k="name" v="Høyne" />
		<tag k="place" v="farm" />
		<tag k="ssr:stedsnr" v="856087" />
	</node>
	<node lat="61.136186112280726" lon="8.883388890557411" id="-39663">
		<tag k="loc_name" v="Øvre Stee" />
		<tag k="name" v="Stee" />
		<tag k="place" v="farm" />
		<tag k="ssr:stedsnr" v="856089" />
	</node>
	<node lat="61.08472222358938" lon="9.016830552473692" id="-39665">
		<tag k="name" v="Bekkevoll" />
		<tag k="place" v="farm" />
		<tag k="ssr:stedsnr" v="856211" />
	</node>
	<node lat="61.026333335408296" lon="8.932066658604203" id="-39667">
		<tag k="historic" v="shieling" />
		<tag k="name" v="Haugrudstølen" />
		<tag k="place" v="isolated_dwelling" />
		<tag k="ssr:stedsnr" v="856793" />
	</node>
	<node lat="61.0248027760149" lon="9.049533326595723" id="-39668">
		<tag k="alt_name" v="Sørengen" />
		<tag k="name" v="Sørengi" />
		<tag k="place" v="farm" />
		<tag k="ssr:stedsnr" v="856795" />
	</node>
	<node lat="61.02690278107429" lon="8.935388882582808" id="-39669">
		<tag k="historic" v="shieling" />
		<tag k="name" v="Høyset" />
		<tag k="place" v="isolated_dwelling" />
		<tag k="ssr:stedsnr" v="856796" />
	</node>
	<node lat="61.034407977454286" lon="9.150148436561597" id="-39670">
		<tag k="alt_name" v="Rogndokken;Raundokken" />
		<tag k="fixme" v="consider place=hamlet" />
		<tag k="name" v="Raundokki" />
		<tag k="place" v="farm" />
		<tag k="ssr:stedsnr" v="856799" />
	</node>
	<node lat="61.057624995790746" lon="8.840627783788747" id="-39675">
		<tag k="alt_name" v="Øråkerstølen" />
		<tag k="historic" v="shieling" />
		<tag k="name" v="Øyråkerstølen" />
		<tag k="place" v="isolated_dwelling" />
		<tag k="ssr:stedsnr" v="857413" />
	</node>
	<node lat="60.934475000510425" lon="8.735788896549936" id="-39680">
		<tag k="historic" v="shieling" />
		<tag k="name" v="Raudbekkstølen" />
		<tag k="place" v="isolated_dwelling" />
		<tag k="ssr:stedsnr" v="858876" />
	</node>
	<node lat="60.970352776265926" lon="8.77596388097687" id="-39681">
		<tag k="historic" v="shieling" />
		<tag k="name" v="Halvorstølen" />
		<tag k="place" v="isolated_dwelling" />
		<tag k="ssr:stedsnr" v="858791" />
	</node>
	<node lat="61.137322222302245" lon="8.947391663116148" id="-39684">
		<tag k="name" v="Tørisgarden" />
		<tag k="place" v="locality" />
		<tag k="ssr:stedsnr" v="889098" />
	</node>
	<node lat="61.123549995574265" lon="8.854005560500932" id="-39687">
		<tag k="name" v="Korsmo" />
		<tag k="place" v="isolated_dwelling" />
		<tag k="ssr:stedsnr" v="891354" />
	</node>
	<node lat="61.139627774651586" lon="8.882738891034833" id="-39691">
		<tag k="alt_name" v="Krøssengen" />
		<tag k="name" v="Krossengi" />
		<tag k="place" v="farm" />
		<tag k="ssr:stedsnr" v="917077" />
	</node>
	<node lat="61.10608333598348" lon="8.851141660201117" id="-39692">
		<tag k="historic" v="shieling" />
		<tag k="name" v="Førstølen" />
		<tag k="place" v="isolated_dwelling" />
		<tag k="ssr:stedsnr" v="917128" />
	</node>
	<node lat="61.02040277653031" lon="9.101558327933843" id="-39693">
		<tag k="name" v="Lagrud" />
		<tag k="place" v="farm" />
		<tag k="ssr:stedsnr" v="917769" />
	</node>
	<node lat="61.025383985748505" lon="9.084648239933207" id="-39694">
		<tag k="name" v="Viste" />
		<tag k="place" v="farm" />
		<tag k="ssr:stedsnr" v="917774" />
	</node>
	<node lat="61.02260833520085" lon="8.929686105434719" id="-39695">
		<tag k="historic" v="shieling" />
		<tag k="name" v="Haraldset" />
		<tag k="place" v="isolated_dwelling" />
		<tag k="ssr:stedsnr" v="917777" />
	</node>
	<node lat="61.04834166690816" lon="9.137447223469419" id="-39697">
		<tag k="name" v="Grunkeøygarden" />
		<tag k="place" v="isolated_dwelling" />
		<tag k="ssr:stedsnr" v="917807" />
	</node>
	<node lat="61.04241666827336" lon="8.913874999342408" id="-39698">
		<tag k="historic" v="shieling" />
		<tag k="name" v="Nestestølen" />
		<tag k="place" v="isolated_dwelling" />
		<tag k="ssr:stedsnr" v="917811" />
	</node>
	<node lat="61.05376666554132" lon="9.011644449982441" id="-39699">
		<tag k="alt_name" v="Skrøviken" />
		<tag k="name" v="Skrøviki" />
		<tag k="place" v="farm" />
		<tag k="ssr:stedsnr" v="917818" />
	</node>
	<node lat="61.04899999689141" lon="8.985544447265944" id="-39700">
		<tag k="name" v="Lyngstad" />
		<tag k="place" v="farm" />
		<tag k="ssr:stedsnr" v="917831" />
	</node>
	<node lat="61.059455556688505" lon="8.956113889800154" id="-39701">
		<tag k="historic" v="shieling" />
		<tag k="name" v="Hauglandstølen" />
		<tag k="place" v="isolated_dwelling" />
		<tag k="ssr:stedsnr" v="917855" />
	</node>
	<node lat="61.05983888782968" lon="8.992136104927406" id="-39702">
		<tag k="name" v="Jordheim" />
		<tag k="place" v="farm" />
		<tag k="ssr:stedsnr" v="917856" />
	</node>
	<node lat="61.068649918829074" lon="9.03647731962413" id="-39703">
		<tag k="fixme" v="consider place=hamlet" />
		<tag k="name" v="Berge" />
		<tag k="place" v="farm" />
		<tag k="ssr:stedsnr" v="917865" />
	</node>
	<node lat="61.067361112112316" lon="8.901183333850856" id="-39704">
		<tag k="historic" v="shieling" />
		<tag k="name" v="Grokinn" />
		<tag k="place" v="isolated_dwelling" />
		<tag k="ssr:stedsnr" v="917871" />
	</node>
	<node lat="61.122147219939485" lon="8.959797225968497" id="-39710">
		<tag k="name" v="Søre Bakkadn" />
		<tag k="place" v="farm" />
		<tag k="ssr:stedsnr" v="951394" />
	</node>
	<node lat="61.10536944890919" lon="8.932772230471214" id="-39711">
		<tag k="name" v="Viklund" />
		<tag k="place" v="farm" />
		<tag k="ssr:stedsnr" v="951401" />
	</node>
	<node lat="61.04163273728297" lon="9.072878092022295" id="-39720">
		<tag k="name" v="Fystro" />
		<tag k="place" v="hamlet" />
		<tag k="ssr:stedsnr" v="951910" />
	</node>
	<node lat="61.02418889042127" lon="9.059341659143564" id="-39721">
		<tag k="name" v="Søre Hamarsnes" />
		<tag k="place" v="farm" />
		<tag k="ssr:stedsnr" v="951839" />
	</node>
	<node lat="61.05605000028083" lon="8.989027775004221" id="-39722">
		<tag k="name" v="Skogsbakke" />
		<tag k="place" v="farm" />
		<tag k="ssr:stedsnr" v="951886" />
	</node>
	<node lat="61.04870555258374" lon="9.157688894593516" id="-39725">
		<tag k="building" v="industrial" />
		<tag k="name" v="Valdres kommunale renovasjon" />
		<tag k="ssr:stedsnr" v="964783" />
	</node>
	<node lat="61.13384665058238" lon="8.932473074995803" id="-39726">
		<tag k="fixme" v="consider place=hamlet" />
		<tag k="name" v="Hauge" />
		<tag k="place" v="farm" />
		<tag k="ssr:stedsnr" v="986850" />
	</node>
	<node lat="61.10480347978287" lon="8.961338121154853" id="-39727">
		<tag k="fixme" v="consider place=hamlet" />
		<tag k="name" v="Hausåker" />
		<tag k="place" v="farm" />
		<tag k="ssr:stedsnr" v="986851" />
	</node>
	<node lat="61.06693302612587" lon="9.026828656072496" id="-39728">
		<tag k="name" v="Hande" />
		<tag k="place" v="hamlet" />
		<tag k="ssr:stedsnr" v="986855" />
	</node>
	<node lat="61.12415005414905" lon="8.841699609612192" id="-39729">
		<tag k="name" v="Riste" />
		<tag k="place" v="hamlet" />
		<tag k="ssr:stedsnr" v="986820" />
	</node>
	<node lat="61.12168653332222" lon="8.871751453356055" id="-39730">
		<tag k="alt_name" v="Kvissel" />
		<tag k="name" v="Kvisl" />
		<tag k="place" v="hamlet" />
		<tag k="ssr:stedsnr" v="986826" />
	</node>
	<node lat="61.116828575315324" lon="8.91420620752533" id="-39731">
		<tag k="fixme" v="consider place=hamlet" />
		<tag k="name" v="Øyråker" />
		<tag k="place" v="farm" />
		<tag k="ssr:stedsnr" v="986828" />
	</node>
	<node lat="61.14116948667875" lon="8.888216131253712" id="-39732">
		<tag k="name" v="Egge" />
		<tag k="place" v="hamlet" />
		<tag k="ssr:stedsnr" v="986829" />
	</node>
	<node lat="61.132350001587156" lon="8.932530557828212" id="-39733">
		<tag k="alt_name" v="Hauge, nedre" />
		<tag k="name" v="Nedre Hauge" />
		<tag k="place" v="farm" />
		<tag k="ssr:stedsnr" v="6108" />
	</node>
	<node lat="61.09140278087408" lon="9.006063894844246" id="-39734">
		<tag k="alt_name" v="Brøtin" />
		<tag k="name" v="Bråten" />
		<tag k="place" v="farm" />
		<tag k="ssr:stedsnr" v="6209" />
	</node>
	<node lat="61.09796111044286" lon="8.84580276856646" id="-39735">
		<tag k="alt_name" v="Liastøladn" />
		<tag k="historic" v="shieling" />
		<tag k="name" v="Liastølane" />
		<tag k="place" v="isolated_dwelling" />
		<tag k="ssr:stedsnr" v="6214" />
	</node>
	<node lat="61.09428872528051" lon="8.979324175327895" id="-39736">
		<tag k="alt_name" v="Fylki" />
		<tag k="fixme" v="consider place=hamlet" />
		<tag k="name" v="Fulkji" />
		<tag k="place" v="farm" />
		<tag k="ssr:stedsnr" v="6215" />
	</node>
	<node lat="61.12100832953293" lon="8.854338888684886" id="-39737">
		<tag k="name" v="Hovda" />
		<tag k="place" v="farm" />
		<tag k="ssr:stedsnr" v="7131" />
	</node>
	<node lat="61.068140448341374" lon="9.026117780931973" id="-39738">
		<tag k="alt_name" v="Hande;Hande, øvre" />
		<tag k="fixme" v="consider place=hamlet" />
		<tag k="name" v="Øvre Hande" />
		<tag k="place" v="farm" />
		<tag k="ssr:stedsnr" v="7860" />
	</node>
	<node lat="61.07874444441132" lon="8.966480546466748" id="-39740">
		<tag k="name" v="Eng" />
		<tag k="place" v="farm" />
		<tag k="ssr:stedsnr" v="7237" />
	</node>
	<node lat="61.127927780620325" lon="8.82449165744015" id="-39741">
		<tag k="name" v="Eikra" />
		<tag k="place" v="farm" />
		<tag k="ssr:stedsnr" v="7339" />
	</node>
	<node lat="61.060367271231144" lon="8.741727100730001" id="-39744">
		<tag k="alt_name" v="Teigstølen" />
		<tag k="historic" v="shieling" />
		<tag k="name" v="Teigstolstølen" />
		<tag k="place" v="isolated_dwelling" />
		<tag k="ssr:stedsnr" v="7377" />
	</node>
	<node lat="61.012566668853275" lon="8.942063883024552" id="-39746">
		<tag k="historic" v="shieling" />
		<tag k="name" v="Ulset" />
		<tag k="place" v="isolated_dwelling" />
		<tag k="ssr:stedsnr" v="7768" />
	</node>
	<node lat="61.01988611238456" lon="9.053349999288669" id="-39747">
		<tag k="name" v="Oppheim" />
		<tag k="place" v="farm" />
		<tag k="ssr:stedsnr" v="7777" />
	</node>
	<node lat="60.95747500041453" lon="8.684211116166226" id="-39749">
		<tag k="historic" v="shieling" />
		<tag k="name" v="Tjørnstølen" />
		<tag k="place" v="isolated_dwelling" />
		<tag k="ssr:stedsnr" v="9756" />
	</node>
	<node lat="61.134758332217864" lon="8.886336120140454" id="-39754">
		<tag k="building" v="industrial" />
		<tag k="name" v="Lomen Auto" />
		<tag k="ssr:stedsnr" v="39052" />
	</node>
	<node lat="60.96782777782119" lon="8.927211117603282" id="-39756">
		<tag k="historic" v="shieling" />
		<tag k="name" v="Raundokkstølen" />
		<tag k="place" v="isolated_dwelling" />
		<tag k="ssr:stedsnr" v="39430" />
	</node>
	<node lat="61.02766666710753" lon="9.078152783974689" id="-39757">
		<tag k="name" v="Vistehagen" />
		<tag k="place" v="farm" />
		<tag k="ssr:stedsnr" v="39811" />
	</node>
	<node lat="61.133362464248535" lon="8.915215421947888" id="-39758">
		<tag k="name" v="Lome" />
		<tag k="place" v="hamlet" />
		<tag k="ssr:stedsnr" v="41082" />
	</node>
	<node lat="61.02936944116224" lon="8.859563897156066" id="-39759">
		<tag k="historic" v="shieling" />
		<tag k="name" v="Hakkestadstølen" />
		<tag k="place" v="isolated_dwelling" />
		<tag k="ssr:stedsnr" v="41426" />
	</node>
	<node lat="61.02435833711544" lon="8.936491672144433" id="-39760">
		<tag k="historic" v="shieling" />
		<tag k="name" v="Hyllestølen" />
		<tag k="place" v="isolated_dwelling" />
		<tag k="ssr:stedsnr" v="41434" />
	</node>
	<node lat="60.967413886036844" lon="8.776563891090245" id="-39765">
		<tag k="historic" v="shieling" />
		<tag k="name" v="Vikastølen" />
		<tag k="place" v="isolated_dwelling" />
		<tag k="ssr:stedsnr" v="41647" />
	</node>
	<node lat="60.95009444102645" lon="8.855147228201957" id="-39767">
		<tag k="historic" v="shieling" />
		<tag k="name" v="Magistadstølen" />
		<tag k="place" v="isolated_dwelling" />
		<tag k="ssr:stedsnr" v="41754" />
	</node>
	<node lat="61.08257500226488" lon="9.017344451998762" id="-39768">
		<tag k="name" v="Jarstadbråten" />
		<tag k="place" v="locality" />
		<tag k="ssr:stedsnr" v="41944" />
	</node>
	<node lat="61.115992231772665" lon="8.918917013510576" id="-39772">
		<tag k="fixme" v="consider place=hamlet" />
		<tag k="name" v="Hauge" />
		<tag k="place" v="farm" />
		<tag k="ssr:stedsnr" v="50648" />
	</node>
	<node lat="61.07785833587876" lon="8.721161119391589" id="-39775">
		<tag k="name" v="Storøyne" />
		<tag k="place" v="isolated_dwelling" />
		<tag k="ssr:stedsnr" v="58831" />
	</node>
	<node lat="61.12121666612889" lon="8.956680549004973" id="-39776">
		<tag k="fixme" v="consider place=hamlet" />
		<tag k="name" v="Kvåle" />
		<tag k="place" v="village" />
		<tag k="ssr:stedsnr" v="67157" />
	</node>
	<node lat="61.097880552296445" lon="8.986294451418173" id="-39777">
		<tag k="alt_name" v="Skori, søre;Søre Skøre" />
		<tag k="name" v="Søre Skori" />
		<tag k="place" v="farm" />
		<tag k="ssr:stedsnr" v="67207" />
	</node>
	<node lat="61.096005557918524" lon="8.992897216423986" id="-39778">
		<tag k="name" v="Oppslidre" />
		<tag k="place" v="farm" />
		<tag k="ssr:stedsnr" v="67227" />
	</node>
	<node lat="61.0075999987187" lon="8.947899991470997" id="-39780">
		<tag k="historic" v="shieling" />
		<tag k="name" v="Pålset" />
		<tag k="place" v="isolated_dwelling" />
		<tag k="ssr:stedsnr" v="67769" />
	</node>
	<node lat="61.051230551556856" lon="8.898238886439174" id="-39783">
		<tag k="name" v="Lehovd" />
		<tag k="place" v="hamlet" />
		<tag k="ssr:stedsnr" v="67835" />
	</node>
	<node lat="61.15257777510105" lon="8.873147221724782" id="-39784">
		<tag k="historic" v="shieling" />
		<tag k="name" v="Ellestadstølen" />
		<tag k="place" v="isolated_dwelling" />
		<tag k="ssr:stedsnr" v="68070" />
	</node>
	<node lat="61.15147777491254" lon="8.959125000399416" id="-39785">
		<tag k="alt_name" v="Haslebrekkstøl" />
		<tag k="historic" v="shieling" />
		<tag k="name" v="Haslebrekklii" />
		<tag k="place" v="isolated_dwelling" />
		<tag k="ssr:stedsnr" v="68076" />
	</node>
	<node lat="61.11770277358751" lon="8.78556111076825" id="-39786">
		<tag k="historic" v="shieling" />
		<tag k="name" v="Robølsstølen" />
		<tag k="place" v="isolated_dwelling" />
		<tag k="ssr:stedsnr" v="68332" />
	</node>
	<node lat="61.11689166656588" lon="8.957030558172063" id="-39787">
		<tag k="name" v="Olstad" />
		<tag k="place" v="farm" />
		<tag k="ssr:stedsnr" v="68151" />
	</node>
	<node lat="61.10450833044839" lon="8.848588883705034" id="-39788">
		<tag k="historic" v="shieling" />
		<tag k="name" v="Lykkjestølen" />
		<tag k="place" v="isolated_dwelling" />
		<tag k="ssr:stedsnr" v="68167" />
	</node>
	<node lat="61.07217222528864" lon="9.013655559043368" id="-39790">
		<tag k="alt_name" v="Jarstadmarken" />
		<tag k="name" v="Jarstadmarki" />
		<tag k="place" v="farm" />
		<tag k="ssr:stedsnr" v="68251" />
	</node>
	<node lat="61.13395278227604" lon="8.887016668505233" id="-39791">
		<tag k="loc_name" v="Ned-Stee;Nedre Stee" />
		<tag k="name" v="Stee" />
		<tag k="place" v="farm" />
		<tag k="ssr:stedsnr" v="68479" />
	</node>
	<node lat="61.06342190093495" lon="8.997060559878335" id="-39792">
		<tag k="fixme" v="consider place=hamlet" />
		<tag k="name" v="Mo" />
		<tag k="place" v="farm" />
		<tag k="ssr:stedsnr" v="68850" />
	</node>
	<node lat="61.065057825555755" lon="9.022683443522038" id="-39793">
		<tag k="alt_name" v="Hande, nedre" />
		<tag k="fixme" v="consider place=hamlet" />
		<tag k="name" v="Nedre Hande" />
		<tag k="place" v="farm" />
		<tag k="ssr:stedsnr" v="68854" />
	</node>
	<node lat="60.91903333216326" lon="8.816138891646027" id="-39797">
		<tag k="historic" v="shieling" />
		<tag k="name" v="Haugastølen" />
		<tag k="place" v="isolated_dwelling" />
		<tag k="ssr:stedsnr" v="69875" />
	</node>
	<node lat="60.94480000255957" lon="8.79781111758268" id="-39798">
		<tag k="alt_name" v="Hanafjorden" />
		<tag k="historic" v="shieling" />
		<tag k="name" v="Hanafjordsstølen" />
		<tag k="place" v="isolated_dwelling" />
		<tag k="ssr:stedsnr" v="69876" />
	</node>
	<node lat="61.12497777554657" lon="8.950383329335148" id="-39803">
		<tag k="name" v="Forohaugen" />
		<tag k="place" v="farm" />
		<tag k="ssr:stedsnr" v="100089" />
	</node>
	<node lat="61.128013890387564" lon="8.947263882402584" id="-39805">
		<tag k="name" v="Teigstolen" />
		<tag k="place" v="farm" />
		<tag k="ssr:stedsnr" v="100093" />
	</node>
	<node lat="61.128742342371915" lon="8.939294084212206" id="-39806">
		<tag k="alt_name" v="Løken" />
		<tag k="fixme" v="consider place=hamlet" />
		<tag k="name" v="Løkje" />
		<tag k="place" v="farm" />
		<tag k="ssr:stedsnr" v="100096" />
	</node>
	<node lat="61.129125000721686" lon="8.943330562155218" id="-39807">
		<tag k="name" v="Søre Løkje" />
		<tag k="place" v="farm" />
		<tag k="ssr:stedsnr" v="100097" />
	</node>
	<node lat="61.0557166647342" lon="9.04893610961876" id="-39809">
		<tag k="name" v="Ulvestad" />
		<tag k="place" v="farm" />
		<tag k="ssr:stedsnr" v="100857" />
	</node>
	<node lat="61.09536667072088" lon="8.976425001113238" id="-39813">
		<tag k="name" v="Nørdre Fulkji" />
		<tag k="place" v="farm" />
		<tag k="ssr:stedsnr" v="102457" />
	</node>
	<node lat="61.08620833673635" lon="8.965005557098637" id="-39815">
		<tag k="name" v="Borgnes" />
		<tag k="place" v="isolated_dwelling" />
		<tag k="ssr:stedsnr" v="102468" />
	</node>
	<node lat="60.985608330746295" lon="8.931336118317454" id="-39817">
		<tag k="historic" v="shieling" />
		<tag k="name" v="Opheimstølen" />
		<tag k="place" v="isolated_dwelling" />
		<tag k="ssr:stedsnr" v="102559" />
	</node>
	<node lat="60.98406666719798" lon="8.917158333499232" id="-39818">
		<tag k="historic" v="shieling" />
		<tag k="name" v="Sørengstølen" />
		<tag k="place" v="isolated_dwelling" />
		<tag k="ssr:stedsnr" v="102560" />
	</node>
	<node lat="61.032530551856226" lon="9.058833333082909" id="-39821">
		<tag k="name" v="Storhaug" />
		<tag k="place" v="farm" />
		<tag k="ssr:stedsnr" v="102831" />
	</node>
	<node lat="61.12500555246362" lon="8.842652784818446" id="-39826">
		<tag k="name" v="Nedre Riste" />
		<tag k="place" v="farm" />
		<tag k="ssr:stedsnr" v="118197" />
	</node>
	<node lat="61.14376132530673" lon="8.97928832495225" id="-39827">
		<tag k="alt_name" v="Øvre Bjerset" />
		<tag k="name" v="Bjerset" />
		<tag k="place" v="locality" />
		<tag k="ssr:stedsnr" v="128058" />
	</node>
	<node lat="61.15213611378726" lon="8.941938893696351" id="-39828">
		<tag k="fixme" v="multiple name tags, choose one and add the other to alt_name" />
		<tag k="historic" v="shieling" />
		<tag k="name" v="Haugslii;Haugsstøl" />
		<tag k="place" v="isolated_dwelling" />
		<tag k="ssr:stedsnr" v="128060" />
	</node>
	<node lat="61.12646111464915" lon="8.868355549470222" id="-39829">
		<tag k="alt_name" v="Haugene" />
		<tag k="name" v="Haugane" />
		<tag k="place" v="farm" />
		<tag k="ssr:stedsnr" v="128078" />
	</node>
	<node lat="61.10978766055212" lon="8.92236583830752" id="-39830">
		<tag k="fixme" v="consider place=hamlet" />
		<tag k="name" v="Jome" />
		<tag k="place" v="farm" />
		<tag k="ssr:stedsnr" v="128115" />
	</node>
	<node lat="61.108266670906666" lon="8.91716944555038" id="-39831">
		<tag k="name" v="Bakken" />
		<tag k="place" v="farm" />
		<tag k="ssr:stedsnr" v="128117" />
	</node>
	<node lat="61.1035974148643" lon="8.883399872383379" id="-39832">
		<tag k="historic" v="shieling" />
		<tag k="name" v="Haldorset" />
		<tag k="place" v="isolated_dwelling" />
		<tag k="ssr:stedsnr" v="128127" />
	</node>
	<node lat="61.072916666866085" lon="8.97348888074332" id="-39833">
		<tag k="name" v="Vikrust" />
		<tag k="place" v="farm" />
		<tag k="ssr:stedsnr" v="128217" />
	</node>
	<node lat="61.07839722105369" lon="8.715786102108627" id="-39835">
		<tag k="historic" v="shieling" />
		<tag k="name" v="Tjednstølen" />
		<tag k="place" v="isolated_dwelling" />
		<tag k="ssr:stedsnr" v="128387" />
	</node>
	<node lat="61.08664340077933" lon="8.987978187125664" id="-39837">
		<tag k="alt_name" v="Tvenge, midtre;Nedre Plassen" />
		<tag k="name" v="Midtre Tvenge" />
		<tag k="place" v="farm" />
		<tag k="ssr:stedsnr" v="128178" />
	</node>
	<node lat="61.08552499682879" lon="8.858988882208788" id="-39838">
		<tag k="historic" v="shieling" />
		<tag k="name" v="Øyråkerstølane" />
		<tag k="place" v="isolated_dwelling" />
		<tag k="ssr:stedsnr" v="128181" />
	</node>
	<node lat="61.070116666506266" lon="8.807544443790004" id="-39840">
		<tag k="historic" v="shieling" />
		<tag k="name" v="Mohaugen" />
		<tag k="place" v="isolated_dwelling" />
		<tag k="ssr:stedsnr" v="128365" />
	</node>
	<node lat="61.0640833369432" lon="9.046441660861692" id="-39841">
		<tag k="name" v="Hodne" />
		<tag k="place" v="farm" />
		<tag k="ssr:stedsnr" v="128866" />
	</node>
	<node lat="61.00131666426482" lon="8.963163894375198" id="-39843">
		<tag k="name" v="Dalastølen" />
		<tag k="place" v="isolated_dwelling" />
		<tag k="ssr:stedsnr" v="128759" />
	</node>
	<node lat="61.01141666578014" lon="8.93698054718361" id="-39844">
		<tag k="alt_name" v="Øyestøladn" />
		<tag k="historic" v="shieling" />
		<tag k="name" v="Øyestølen" />
		<tag k="place" v="isolated_dwelling" />
		<tag k="ssr:stedsnr" v="128774" />
	</node>
	<node lat="61.0206972143837" lon="9.064430936587232" id="-39845">
		<tag k="alt_name" v="Tildheim" />
		<tag k="name" v="Søre Tildheim" />
		<tag k="place" v="farm" />
		<tag k="ssr:stedsnr" v="128782" />
	</node>
	<node lat="61.0495270333026" lon="9.011014820862131" id="-39846">
		<tag k="fixme" v="consider place=hamlet" />
		<tag k="name" v="Landsrud" />
		<tag k="place" v="farm" />
		<tag k="ssr:stedsnr" v="128816" />
	</node>
	<node lat="61.049727774448435" lon="8.99155554937451" id="-39847">
		<tag k="name" v="Haugrud" />
		<tag k="place" v="farm" />
		<tag k="ssr:stedsnr" v="128818" />
	</node>
	<node lat="61.0593500038106" lon="9.133458342466687" id="-39849">
		<tag k="name" v="Kotaplassen" />
		<tag k="place" v="locality" />
		<tag k="ssr:stedsnr" v="128829" />
	</node>
	<node lat="60.92222777950067" lon="8.86268611760262" id="-39855">
		<tag k="historic" v="shieling" />
		<tag k="name" v="Hamarsnesstølen" />
		<tag k="place" v="isolated_dwelling" />
		<tag k="ssr:stedsnr" v="160195" />
	</node>
	<node lat="61.02660278161593" lon="8.85227221508034" id="-39856">
		<tag k="historic" v="shieling" />
		<tag k="name" v="Haugostølen" />
		<tag k="place" v="isolated_dwelling" />
		<tag k="ssr:stedsnr" v="160304" />
	</node>
	<node lat="60.96618888742431" lon="8.929233339799778" id="-39860">
		<tag k="historic" v="shieling" />
		<tag k="name" v="Øyestølen" />
		<tag k="place" v="isolated_dwelling" />
		<tag k="ssr:stedsnr" v="160423" />
	</node>
	<node lat="61.035297224895444" lon="9.074063889637355" id="-39861">
		<tag k="name" v="Forset" />
		<tag k="place" v="farm" />
		<tag k="ssr:stedsnr" v="160789" />
	</node>
	<node lat="61.023025003944404" lon="9.085302774490495" id="-39862">
		<tag k="name" v="Solvik" />
		<tag k="place" v="isolated_dwelling" />
		<tag k="ssr:stedsnr" v="160816" />
	</node>
	<node lat="61.088625002172535" lon="8.95190833002531" id="-39863">
		<tag k="name" v="Fosslund" />
		<tag k="place" v="locality" />
		<tag k="ssr:stedsnr" v="162421" />
	</node>
	<node lat="61.03576389127088" lon="9.062066661191547" id="-39868">
		<tag k="name" v="Væla" />
		<tag k="place" v="isolated_dwelling" />
		<tag k="ssr:stedsnr" v="162838" />
	</node>
	<node lat="61.036308332926765" lon="9.060269452685208" id="-39871">
		<tag k="name" v="Røneberg" />
		<tag k="place" v="quarter" />
		<tag k="ssr:stedsnr" v="162685" />
	</node>
	<node lat="61.048613885714005" lon="9.049619453280389" id="-39873">
		<tag k="name" v="Røn" />
		<tag k="place" v="farm" />
		<tag k="ssr:stedsnr" v="162890" />
	</node>
	<node lat="61.04419894184369" lon="8.910979937974885" id="-39875">
		<tag k="historic" v="shieling" />
		<tag k="name" v="Knippeset" />
		<tag k="place" v="isolated_dwelling" />
		<tag k="ssr:stedsnr" v="172276" />
	</node>
	<node lat="61.089988885970094" lon="8.7388583357337" id="-39876">
		<tag k="amenity" v="cafe" />
		<tag k="name" v="Syndinstøga" />
		<tag k="ssr:stedsnr" v="172525" />
	</node>
	<node lat="61.0924944482752" lon="8.896038885691198" id="-39880">
		<tag k="alt_name" v="Jomsstølane" />
		<tag k="historic" v="shieling" />
		<tag k="name" v="Jomsstølen" />
		<tag k="place" v="isolated_dwelling" />
		<tag k="ssr:stedsnr" v="188230" />
	</node>
	<node lat="61.0782333365911" lon="8.966619448568364" id="-39883">
		<tag k="name" v="Brattli" />
		<tag k="place" v="farm" />
		<tag k="ssr:stedsnr" v="189203" />
	</node>
	<node lat="61.13037027930282" lon="8.938963914874813" id="-39884">
		<tag k="alt_name" v="Løkje" />
		<tag k="name" v="Øvre Løkje" />
		<tag k="place" v="farm" />
		<tag k="ssr:stedsnr" v="189098" />
	</node>
	<node lat="61.125502774917734" lon="8.846630546652264" id="-39885">
		<tag k="name" v="Kårstad" />
		<tag k="place" v="farm" />
		<tag k="ssr:stedsnr" v="189106" />
	</node>
	<node lat="61.12183970324497" lon="8.859280916624277" id="-39886">
		<tag k="fixme" v="consider place=hamlet" />
		<tag k="name" v="Før" />
		<tag k="place" v="farm" />
		<tag k="ssr:stedsnr" v="189108" />
	</node>
	<node lat="61.11973889154329" lon="8.796827776597114" id="-39887">
		<tag k="historic" v="shieling" />
		<tag k="name" v="Grytestølen" />
		<tag k="place" v="isolated_dwelling" />
		<tag k="ssr:stedsnr" v="189294" />
	</node>
	<node lat="61.132111107158615" lon="8.794786104282808" id="-39888">
		<tag k="name" v="Åstadvollen" />
		<tag k="place" v="farm" />
		<tag k="ssr:stedsnr" v="189310" />
	</node>
	<node lat="61.04571389297534" lon="9.027147229202928" id="-39890">
		<tag k="alt_name" v="Hølli, nedre;Nedre Holden" />
		<tag k="name" v="Nedre Hølli" />
		<tag k="place" v="farm" />
		<tag k="ssr:stedsnr" v="189800" />
	</node>
	<node lat="61.025708333669584" lon="8.933222224574838" id="-39891">
		<tag k="historic" v="shieling" />
		<tag k="name" v="Semelengstølen" />
		<tag k="place" v="isolated_dwelling" />
		<tag k="ssr:stedsnr" v="189761" />
	</node>
	<node lat="61.06843213711414" lon="8.988743926577959" id="-39892">
		<tag k="fixme" v="consider place=hamlet" />
		<tag k="name" v="Neste" />
		<tag k="place" v="farm" />
		<tag k="ssr:stedsnr" v="189847" />
	</node>
	<node lat="61.07078239365796" lon="8.978234367302951" id="-39893">
		<tag k="fixme" v="consider place=hamlet" />
		<tag k="name" v="Vika" />
		<tag k="place" v="farm" />
		<tag k="ssr:stedsnr" v="189869" />
	</node>
	<node lat="61.04295555505842" lon="8.762011104177782" id="-39896">
		<tag k="name" v="Sandbu" />
		<tag k="place" v="isolated_dwelling" />
		<tag k="ssr:stedsnr" v="221338" />
	</node>
	<node lat="60.99581388689969" lon="8.767983340761191" id="-39897">
		<tag k="historic" v="shieling" />
		<tag k="name" v="Flikja" />
		<tag k="place" v="isolated_dwelling" />
		<tag k="ssr:stedsnr" v="223673" />
	</node>
	<node lat="60.98005833246264" lon="8.979633327041446" id="-39898">
		<tag k="historic" v="shieling" />
		<tag k="name" v="Prøvastølen" />
		<tag k="place" v="isolated_dwelling" />
		<tag k="ssr:stedsnr" v="223209" />
	</node>
	<node lat="61.12255000346861" lon="8.956036116110647" id="-39899">
		<tag k="name" v="Nørdre Bakkadn" />
		<tag k="place" v="farm" />
		<tag k="ssr:stedsnr" v="223416" />
	</node>
	<node lat="60.99495833700246" lon="8.947147230925335" id="-39900">
		<tag k="historic" v="shieling" />
		<tag k="name" v="Ringsrudstølen" />
		<tag k="place" v="isolated_dwelling" />
		<tag k="ssr:stedsnr" v="223492" />
	</node>
	<node lat="60.98202500416851" lon="8.900019440652711" id="-39903">
		<tag k="historic" v="shieling" />
		<tag k="name" v="Reiestølen" />
		<tag k="place" v="isolated_dwelling" />
		<tag k="ssr:stedsnr" v="223500" />
	</node>
	<node lat="61.028111115467944" lon="8.867408338828355" id="-39907">
		<tag k="historic" v="shieling" />
		<tag k="name" v="Vøllastølen" />
		<tag k="place" v="isolated_dwelling" />
		<tag k="ssr:stedsnr" v="223446" />
	</node>
	<node lat="61.0343055531979" lon="8.894477773124134" id="-39908">
		<tag k="historic" v="shieling" />
		<tag k="name" v="Bakkastølen" />
		<tag k="place" v="isolated_dwelling" />
		<tag k="ssr:stedsnr" v="223450" />
	</node>
	<node lat="61.08750833545594" lon="8.985897227241496" id="-39911">
		<tag k="name" v="Skogen" />
		<tag k="place" v="isolated_dwelling" />
		<tag k="ssr:stedsnr" v="223968" />
	</node>
	<node lat="60.98012222572511" lon="8.794836114021235" id="-39912">
		<tag k="historic" v="shieling" />
		<tag k="name" v="Søre Jarstadstølen" />
		<tag k="place" v="isolated_dwelling" />
		<tag k="ssr:stedsnr" v="223679" />
	</node>
	<node lat="60.96413888760677" lon="8.788800003064802" id="-39914">
		<tag k="historic" v="shieling" />
		<tag k="name" v="Hjartrudslett" />
		<tag k="place" v="isolated_dwelling" />
		<tag k="ssr:stedsnr" v="223684" />
	</node>
	<node lat="61.08370555915285" lon="9.0171250067902" id="-39918">
		<tag k="historic" v="shieling" />
		<tag k="name" v="Trøenstølen" />
		<tag k="place" v="isolated_dwelling" />
		<tag k="ssr:stedsnr" v="223973" />
	</node>
	<node lat="61.09541944262621" lon="8.988994449689232" id="-39920">
		<tag k="name" v="Solheim" />
		<tag k="place" v="farm" />
		<tag k="ssr:stedsnr" v="223997" />
	</node>
	<node lat="60.91644444471398" lon="8.878988892764044" id="-39921">
		<tag k="historic" v="shieling" />
		<tag k="name" v="Vistestølen" />
		<tag k="place" v="isolated_dwelling" />
		<tag k="ssr:stedsnr" v="282216" />
	</node>
	<node lat="61.11743611435143" lon="8.903855548147778" id="-39922">
		<tag k="name" v="Nordli" />
		<tag k="place" v="farm" />
		<tag k="ssr:stedsnr" v="282356" />
	</node>
	<node lat="61.03174167003245" lon="9.043941671791893" id="-39930">
		<tag k="name" v="Tølshaug" />
		<tag k="place" v="isolated_dwelling" />
		<tag k="ssr:stedsnr" v="284852" />
	</node>
	<node lat="61.02478611151917" lon="9.053194450598363" id="-39931">
		<tag k="name" v="Fuglei" />
		<tag k="place" v="isolated_dwelling" />
		<tag k="ssr:stedsnr" v="284858" />
	</node>
	<node lat="61.087361115257806" lon="8.983133339255192" id="-39933">
		<tag k="amenity" v="school" />
		<tag k="name" v="Vestre Slidre ungdomsskule" />
		<tag k="ssr:stedsnr" v="284954" />
	</node>
	<node lat="61.14529586644449" lon="9.01587368114396" id="-39936">
		<tag k="name" v="Kvålsnaustet" />
		<tag k="place" v="locality" />
		<tag k="ssr:stedsnr" v="296140" />
	</node>
	<node lat="61.12832603017726" lon="8.804486591943027" id="-39939">
		<tag k="fixme" v="consider place=hamlet" />
		<tag k="name" v="Robøle" />
		<tag k="place" v="farm" />
		<tag k="ssr:stedsnr" v="300228" />
	</node>
	<node lat="61.118838888380395" lon="8.891411104257795" id="-39940">
		<tag k="alt_name" v="Mørken" />
		<tag k="name" v="Morki" />
		<tag k="place" v="farm" />
		<tag k="ssr:stedsnr" v="310118" />
	</node>
	<node lat="61.11859722192925" lon="8.883727780368229" id="-39941">
		<tag k="name" v="Listad" />
		<tag k="place" v="farm" />
		<tag k="ssr:stedsnr" v="310120" />
	</node>
	<node lat="61.101316669956404" lon="8.942511109694083" id="-39942">
		<tag k="name" v="Hagen" />
		<tag k="place" v="isolated_dwelling" />
		<tag k="ssr:stedsnr" v="310171" />
	</node>
	<node lat="61.10554329099172" lon="8.96202925242768" id="-39943">
		<tag k="alt_name" v="Hausåker, nordre" />
		<tag k="name" v="Nørdre Hausåker" />
		<tag k="place" v="farm" />
		<tag k="ssr:stedsnr" v="310172" />
	</node>
	<node lat="61.11200000302029" lon="8.83489722158024" id="-39944">
		<tag k="historic" v="shieling" />
		<tag k="name" v="Ristestølane" />
		<tag k="place" v="isolated_dwelling" />
		<tag k="ssr:stedsnr" v="310367" />
	</node>
	<node lat="60.92595278008541" lon="8.785055561566388" id="-39946">
		<tag k="historic" v="shieling" />
		<tag k="name" v="Skruvla" />
		<tag k="place" v="isolated_dwelling" />
		<tag k="ssr:stedsnr" v="312839" />
	</node>
	<node lat="60.94630833382006" lon="8.859627781726733" id="-39948">
		<tag k="alt_name" v="Nosi" />
		<tag k="fixme" v="consider place=hamlet" />
		<tag k="name" v="Nøsen" />
		<tag k="place" v="village" />
		<tag k="ssr:stedsnr" v="312097" />
	</node>
	<node lat="60.965694442197055" lon="8.922300002375167" id="-39949">
		<tag k="historic" v="shieling" />
		<tag k="name" v="Krististølen" />
		<tag k="place" v="isolated_dwelling" />
		<tag k="ssr:stedsnr" v="313119" />
	</node>
	<node lat="61.07086389014979" lon="9.04152499691336" id="-39950">
		<tag k="name" v="Bergseng" />
		<tag k="place" v="farm" />
		<tag k="ssr:stedsnr" v="327047" />
	</node>
	<node lat="61.00488056342354" lon="8.954709491474011" id="-39953">
		<tag k="historic" v="shieling" />
		<tag k="name" v="Pålset" />
		<tag k="place" v="isolated_dwelling" />
		<tag k="ssr:stedsnr" v="344485" />
	</node>
	<node lat="61.138272222769054" lon="8.89465277119048" id="-39956">
		<tag k="name" v="Solbu" />
		<tag k="place" v="farm" />
		<tag k="ssr:stedsnr" v="344071" />
	</node>
	<node lat="60.98209722566062" lon="8.806111117007099" id="-39959">
		<tag k="alt_name" v="Mostølen" />
		<tag k="historic" v="shieling" />
		<tag k="name" v="Mosstølen" />
		<tag k="place" v="isolated_dwelling" />
		<tag k="ssr:stedsnr" v="344654" />
	</node>
	<node lat="61.00911944093837" lon="8.806316665962028" id="-39960">
		<tag k="historic" v="shieling" />
		<tag k="name" v="Hjellestølen" />
		<tag k="place" v="isolated_dwelling" />
		<tag k="ssr:stedsnr" v="344655" />
	</node>
	<node lat="61.125319445045285" lon="8.97198610579577" id="-39961">
		<tag k="historic" v="shieling" />
		<tag k="name" v="Kvålsstøladn" />
		<tag k="place" v="isolated_dwelling" />
		<tag k="ssr:stedsnr" v="344674" />
	</node>
	<node lat="61.11310833492826" lon="8.958094449453567" id="-39962">
		<tag k="name" v="Bjerke" />
		<tag k="place" v="farm" />
		<tag k="ssr:stedsnr" v="344413" />
	</node>
	<node lat="61.122416666858314" lon="8.953566664532158" id="-39963">
		<tag k="name" v="Kvåletun" />
		<tag k="place" v="farm" />
		<tag k="ssr:stedsnr" v="344414" />
	</node>
	<node lat="61.09712221887801" lon="8.96898611312908" id="-39964">
		<tag k="alt_name" v="Slidrebrennudn" />
		<tag k="leisure" v="pitch" />
		<tag k="name" v="Slidrebrenno" />
		<tag k="ssr:stedsnr" v="344415" />
	</node>
	<node lat="61.103372219903086" lon="8.920147226333766" id="-39965">
		<tag k="name" v="Fredheim" />
		<tag k="place" v="isolated_dwelling" />
		<tag k="ssr:stedsnr" v="344419" />
	</node>
	<node lat="61.08648055939734" lon="8.868197227298548" id="-39968">
		<tag k="historic" v="shieling" />
		<tag k="name" v="Fjellstøladn" />
		<tag k="place" v="isolated_dwelling" />
		<tag k="ssr:stedsnr" v="344431" />
	</node>
	<node lat="61.03194444628984" lon="9.053602779462958" id="-39970">
		<tag k="building" v="industrial" />
		<tag k="name" v="Falken" />
		<tag k="ssr:stedsnr" v="344838" />
	</node>
	<node lat="61.15679166969077" lon="8.921919441343782" id="-39975">
		<tag k="historic" v="shieling" />
		<tag k="name" v="Lomisstøl" />
		<tag k="place" v="isolated_dwelling" />
		<tag k="ssr:stedsnr" v="357791" />
	</node>
	<node lat="61.14650277390502" lon="8.865852785885348" id="-39976">
		<tag k="fixme" v="consider place=hamlet" />
		<tag k="name" v="Ellestadbygde" />
		<tag k="place" v="village" />
		<tag k="ssr:stedsnr" v="357966" />
	</node>
	<node lat="61.14288055736511" lon="8.958155553850354" id="-39979">
		<tag k="name" v="Perstølen" />
		<tag k="place" v="locality" />
		<tag k="ssr:stedsnr" v="370122" />
	</node>
	<node lat="61.16426111226642" lon="8.885402769855295" id="-39981">
		<tag k="name" v="Ellestadstølen" />
		<tag k="place" v="locality" />
		<tag k="ssr:stedsnr" v="371032" />
	</node>
	<node lat="61.15422499730995" lon="8.873377775668269" id="-39982">
		<tag k="historic" v="shieling" />
		<tag k="name" v="Nystølen" />
		<tag k="place" v="isolated_dwelling" />
		<tag k="ssr:stedsnr" v="371045" />
	</node>
	<node lat="61.12004166874195" lon="8.95705000066469" id="-39983">
		<tag k="alt_name" v="Bygselen" />
		<tag k="name" v="Bygslet" />
		<tag k="place" v="farm" />
		<tag k="ssr:stedsnr" v="371138" />
	</node>
	<node lat="61.110280881606656" lon="8.96903087167606" id="-39984">
		<tag k="fixme" v="consider place=hamlet" />
		<tag k="name" v="Hjelle" />
		<tag k="place" v="farm" />
		<tag k="ssr:stedsnr" v="371148" />
	</node>
	<node lat="61.11216110688408" lon="8.961655549809775" id="-39985">
		<tag k="name" v="Bråten" />
		<tag k="place" v="farm" />
		<tag k="ssr:stedsnr" v="371149" />
	</node>
	<node lat="61.05122778117569" lon="8.987197212974813" id="-39987">
		<tag k="alt_name" v="Mørken" />
		<tag k="name" v="Morki" />
		<tag k="place" v="farm" />
		<tag k="ssr:stedsnr" v="370846" />
	</node>
	<node lat="61.05619999895297" lon="8.991474998236308" id="-39988">
		<tag k="name" v="Mosbråten" />
		<tag k="place" v="farm" />
		<tag k="ssr:stedsnr" v="370848" />
	</node>
	<node lat="61.05817895799259" lon="9.113601090344183" id="-39989">
		<tag k="fixme" v="multiple name tags, choose one and add the other to alt_name" />
		<tag k="name" v="Midislette;Sørmo" />
		<tag k="place" v="farm" />
		<tag k="ssr:stedsnr" v="370849" />
	</node>
	<node lat="61.08734444094821" lon="8.899174997469423" id="-39990">
		<tag k="historic" v="shieling" />
		<tag k="name" v="Bakkestølen" />
		<tag k="place" v="isolated_dwelling" />
		<tag k="ssr:stedsnr" v="371193" />
	</node>
	<node lat="61.04536389180572" lon="8.830933325278588" id="-39991">
		<tag k="fixme" v="consider place=hamlet" />
		<tag k="name" v="Jomssyndin" />
		<tag k="place" v="village" />
		<tag k="ssr:stedsnr" v="371415" />
	</node>
	<node lat="61.040825001526045" lon="8.7788999980646" id="-39992">
		<tag k="alt_name" v="Svultstølen" />
		<tag k="historic" v="shieling" />
		<tag k="name" v="Svult" />
		<tag k="place" v="isolated_dwelling" />
		<tag k="ssr:stedsnr" v="371416" />
	</node>
	<node lat="61.00798055498375" lon="8.746152770304736" id="-39993">
		<tag k="alt_name" v="Strøsstølane;Strø" />
		<tag k="name" v="Strøstølane" />
		<tag k="place" v="hamlet" />
		<tag k="ssr:stedsnr" v="371393" />
	</node>
	<node lat="61.0211944452754" lon="8.901849999831917" id="-39996">
		<tag k="alt_name" v="Trollhovd, søre" />
		<tag k="name" v="Søre Trollhovd" />
		<tag k="place" v="hamlet" />
		<tag k="ssr:stedsnr" v="371793" />
	</node>
	<node lat="61.0373368861779" lon="9.019306661017534" id="-39997">
		<tag k="fixme" v="consider place=hamlet" />
		<tag k="name" v="Øde" />
		<tag k="place" v="farm" />
		<tag k="ssr:stedsnr" v="371811" />
	</node>
	<node lat="61.06913055554802" lon="8.981347219151573" id="-39998">
		<tag k="name" v="Olvik" />
		<tag k="place" v="farm" />
		<tag k="ssr:stedsnr" v="371851" />
	</node>
	<node lat="60.949124998669944" lon="8.680425006270276" id="-40001">
		<tag k="historic" v="shieling" />
		<tag k="name" v="Pikhaugstølen" />
		<tag k="place" v="isolated_dwelling" />
		<tag k="ssr:stedsnr" v="372884" />
	</node>
	<node lat="60.908583332149014" lon="8.847052770915072" id="-40003">
		<tag k="historic" v="shieling" />
		<tag k="name" v="Fossheimstølen" />
		<tag k="place" v="isolated_dwelling" />
		<tag k="ssr:stedsnr" v="373373" />
	</node>
	<node lat="61.02071666704877" lon="9.062875007799812" id="-40004">
		<tag k="name" v="Øvre Tildheim" />
		<tag k="place" v="farm" />
		<tag k="ssr:stedsnr" v="403842" />
	</node>
	<node lat="61.05418889276526" lon="8.848066662760633" id="-40005">
		<tag k="historic" v="shieling" />
		<tag k="name" v="Hagenstølen" />
		<tag k="place" v="isolated_dwelling" />
		<tag k="ssr:stedsnr" v="403317" />
	</node>
	<node lat="61.05888055607563" lon="8.751458326916184" id="-40007">
		<tag k="historic" v="shieling" />
		<tag k="name" v="Løkjistølen" />
		<tag k="place" v="isolated_dwelling" />
		<tag k="ssr:stedsnr" v="403330" />
	</node>
	<node lat="60.947016667759165" lon="8.92737500129552" id="-40009">
		<tag k="historic" v="shieling" />
		<tag k="name" v="Hodnestølen" />
		<tag k="place" v="isolated_dwelling" />
		<tag k="ssr:stedsnr" v="405271" />
	</node>
	<node lat="60.93716944300535" lon="8.907030550483743" id="-40010">
		<tag k="historic" v="shieling" />
		<tag k="name" v="Lomtjernstølen" />
		<tag k="place" v="isolated_dwelling" />
		<tag k="ssr:stedsnr" v="405276" />
	</node>
	<node lat="60.95092500421767" lon="8.858922226948806" id="-40011">
		<tag k="alt_name" v="Tuvmarkenstølen" />
		<tag k="historic" v="shieling" />
		<tag k="name" v="Tuvmarkstølen" />
		<tag k="place" v="isolated_dwelling" />
		<tag k="ssr:stedsnr" v="405277" />
	</node>
	<node lat="61.111819441685554" lon="8.929061109058416" id="-40012">
		<tag k="name" v="Rud" />
		<tag k="place" v="farm" />
		<tag k="ssr:stedsnr" v="405409" />
	</node>
	<node lat="61.104652779884105" lon="8.923227782897003" id="-40014">
		<tag k="name" v="Nygård" />
		<tag k="place" v="farm" />
		<tag k="ssr:stedsnr" v="405418" />
	</node>
	<node lat="60.989613891917344" lon="8.971552779127993" id="-40021">
		<tag k="amenity" v="school" />
		<tag k="name" v="Brennabu Leirskole" />
		<tag k="ssr:stedsnr" v="405511" />
	</node>
	<node lat="60.98605277826201" lon="8.939380563024924" id="-40022">
		<tag k="historic" v="shieling" />
		<tag k="name" v="Lagrudstølen" />
		<tag k="place" v="isolated_dwelling" />
		<tag k="ssr:stedsnr" v="405515" />
	</node>
	<node lat="61.06175555560349" lon="8.985191661027454" id="-40025">
		<tag k="name" v="Bradden" />
		<tag k="place" v="isolated_dwelling" />
		<tag k="ssr:stedsnr" v="405966" />
	</node>
	<node lat="61.067647224905585" lon="9.019713890747381" id="-40026">
		<tag k="name" v="Hande-Myre" />
		<tag k="place" v="isolated_dwelling" />
		<tag k="ssr:stedsnr" v="405972" />
	</node>
	<node lat="61.04643611415396" lon="8.993194438952596" id="-40029">
		<tag k="name" v="Anfinnplassen" />
		<tag k="place" v="isolated_dwelling" />
		<tag k="ssr:stedsnr" v="405898" />
	</node>
	<node lat="61.091377568740725" lon="8.979014858745124" id="-40031">
		<tag k="fixme" v="consider place=hamlet" />
		<tag k="name" v="Slidre prestegard" />
		<tag k="place" v="farm" />
		<tag k="ssr:stedsnr" v="405997" />
	</node>
	<node lat="61.088786107213394" lon="8.854652778168846" id="-40034">
		<tag k="historic" v="shieling" />
		<tag k="name" v="Fjellstølane" />
		<tag k="place" v="isolated_dwelling" />
		<tag k="ssr:stedsnr" v="432187" />
	</node>
	<node lat="61.060538888358586" lon="9.104366672620873" id="-40035">
		<tag k="name" v="Moen" />
		<tag k="place" v="farm" />
		<tag k="ssr:stedsnr" v="431857" />
	</node>
	<node lat="61.165841670452906" lon="8.872050002478925" id="-40036">
		<tag k="alt_name" v="Moavolden" />
		<tag k="historic" v="shieling" />
		<tag k="name" v="Moastølen" />
		<tag k="place" v="isolated_dwelling" />
		<tag k="ssr:stedsnr" v="432029" />
	</node>
	<node lat="61.10628333372209" lon="8.905458334435501" id="-40040">
		<tag k="name" v="Øyane" />
		<tag k="place" v="isolated_dwelling" />
		<tag k="ssr:stedsnr" v="432154" />
	</node>
	<node lat="61.10319722050735" lon="8.9280055600084" id="-40041">
		<tag k="name" v="Trøyflat" />
		<tag k="place" v="farm" />
		<tag k="ssr:stedsnr" v="432155" />
	</node>
	<node lat="61.05185833301726" lon="8.808488881231426" id="-40043">
		<tag k="alt_name" v="Soleikro" />
		<tag k="historic" v="shieling" />
		<tag k="name" v="Soleikrostølen" />
		<tag k="place" v="isolated_dwelling" />
		<tag k="ssr:stedsnr" v="432346" />
	</node>
	<node lat="61.060095025077985" lon="8.748420251015089" id="-40045">
		<tag k="alt_name" v="Ristestølen" />
		<tag k="historic" v="shieling" />
		<tag k="name" v="Ristegili" />
		<tag k="place" v="isolated_dwelling" />
		<tag k="ssr:stedsnr" v="432354" />
	</node>
	<node lat="61.01651666238296" lon="9.060991667909366" id="-40046">
		<tag k="name" v="Lyseng" />
		<tag k="place" v="farm" />
		<tag k="ssr:stedsnr" v="432760" />
	</node>
	<node lat="61.022293270702" lon="9.062492654118655" id="-40047">
		<tag k="fixme" v="consider place=hamlet" />
		<tag k="name" v="Kåta" />
		<tag k="place" v="farm" />
		<tag k="ssr:stedsnr" v="432769" />
	</node>
	<node lat="61.070308333743924" lon="9.014675005352807" id="-40048">
		<tag k="name" v="Hagajordet" />
		<tag k="place" v="farm" />
		<tag k="ssr:stedsnr" v="432864" />
	</node>
	<node lat="60.92452777583912" lon="8.838186113294928" id="-40049">
		<tag k="historic" v="shieling" />
		<tag k="name" v="Fauskehaugen" />
		<tag k="place" v="isolated_dwelling" />
		<tag k="ssr:stedsnr" v="433861" />
	</node>
	<node lat="60.94802500364058" lon="8.770213882433087" id="-40051">
		<tag k="alt_name" v="Bukono" />
		<tag k="historic" v="shieling" />
		<tag k="name" v="Bukonestølen" />
		<tag k="place" v="isolated_dwelling" />
		<tag k="ssr:stedsnr" v="433873" />
	</node>
	<node lat="61.068463888629545" lon="8.777388895618897" id="-40057">
		<tag k="historic" v="shieling" />
		<tag k="name" v="Lostøl" />
		<tag k="place" v="isolated_dwelling" />
		<tag k="ssr:stedsnr" v="525356" />
	</node>
	<node lat="61.027019444708415" lon="9.045861107694293" id="-40059">
		<tag k="name" v="Reina" />
		<tag k="place" v="isolated_dwelling" />
		<tag k="ssr:stedsnr" v="526836" />
	</node>
	<node lat="61.102108332131436" lon="8.969986107236027" id="-40062">
		<tag k="name" v="Fjellberg" />
		<tag k="place" v="farm" />
		<tag k="ssr:stedsnr" v="526589" />
	</node>
	<node lat="61.0185916699634" lon="8.899127776279988" id="-40063">
		<tag k="historic" v="shieling" />
		<tag k="name" v="Handestølen" />
		<tag k="place" v="isolated_dwelling" />
		<tag k="ssr:stedsnr" v="526427" />
	</node>
	<node lat="61.047336113803716" lon="8.99639722608623" id="-40065">
		<tag k="name" v="Dalheim" />
		<tag k="place" v="isolated_dwelling" />
		<tag k="ssr:stedsnr" v="526901" />
	</node>
	<node lat="61.089525000306104" lon="8.740124996823242" id="-40068">
		<tag k="alt_name" v="Åstadstølen" />
		<tag k="historic" v="shieling" />
		<tag k="name" v="Åstadstølane" />
		<tag k="place" v="isolated_dwelling" />
		<tag k="ssr:stedsnr" v="552389" />
	</node>
	<node lat="61.059769441886324" lon="9.112294435581411" id="-40069">
		<tag k="name" v="Tuv" />
		<tag k="place" v="farm" />
		<tag k="ssr:stedsnr" v="552869" />
	</node>
	<node lat="61.11874999808851" lon="8.772691660164895" id="-40072">
		<tag k="historic" v="shieling" />
		<tag k="name" v="Myrestølen" />
		<tag k="place" v="isolated_dwelling" />
		<tag k="ssr:stedsnr" v="553300" />
	</node>
	<node lat="61.03087499686572" lon="9.089749992546004" id="-40078">
		<tag k="name" v="Ringbu" />
		<tag k="place" v="farm" />
		<tag k="ssr:stedsnr" v="585777" />
	</node>
	<node lat="61.03475555281949" lon="9.069333336104208" id="-40079">
		<tag k="name" v="Grefsrud" />
		<tag k="place" v="farm" />
		<tag k="ssr:stedsnr" v="585782" />
	</node>
	<node lat="61.069963890506735" lon="9.036655550406513" id="-40080">
		<tag k="name" v="Nørdre Berge" />
		<tag k="place" v="farm" />
		<tag k="ssr:stedsnr" v="587963" />
	</node>
	<node lat="61.13395833281826" lon="8.901691662922131" id="-40081">
		<tag k="name" v="Høve" />
		<tag k="place" v="farm" />
		<tag k="ssr:stedsnr" v="587082" />
	</node>
	<node lat="61.12757222337964" lon="8.863824997248171" id="-40082">
		<tag k="name" v="Haugen" />
		<tag k="place" v="farm" />
		<tag k="ssr:stedsnr" v="587086" />
	</node>
	<node lat="61.07326111434585" lon="8.875424997671121" id="-40085">
		<tag k="historic" v="shieling" />
		<tag k="name" v="Fjellbakkadn" />
		<tag k="place" v="isolated_dwelling" />
		<tag k="ssr:stedsnr" v="587440" />
	</node>
	<node lat="61.14418065814428" lon="8.87580456926176" id="-40086">
		<tag k="fixme" v="consider place=hamlet" />
		<tag k="name" v="Ellestad" />
		<tag k="place" v="farm" />
		<tag k="ssr:stedsnr" v="587687" />
	</node>
	<node lat="60.92410833584539" lon="8.837675003202758" id="-40087">
		<tag k="historic" v="shieling" />
		<tag k="name" v="Vistemyrstølen" />
		<tag k="place" v="isolated_dwelling" />
		<tag k="ssr:stedsnr" v="587779" />
	</node>
	<node lat="61.02599444493947" lon="9.04650555638739" id="-40089">
		<tag k="name" v="Paulsrud" />
		<tag k="place" v="farm" />
		<tag k="ssr:stedsnr" v="587830" />
	</node>
	<node lat="61.029355551693406" lon="9.07602500341265" id="-40090">
		<tag k="name" v="Nordviste" />
		<tag k="place" v="farm" />
		<tag k="ssr:stedsnr" v="587836" />
	</node>
	<node lat="61.0393972238959" lon="9.034736107034297" id="-40096">
		<tag k="name" v="Myrtun" />
		<tag k="place" v="farm" />
		<tag k="ssr:stedsnr" v="587893" />
	</node>
	<node lat="61.08833333315554" lon="8.988472228877317" id="-40097">
		<tag k="amenity" v="nursing_home" />
		<tag k="name" v="Vestre Slidre sjukeheim" />
		<tag k="ssr:stedsnr" v="587951" />
	</node>
	<node lat="61.053108335325426" lon="8.852044450330965" id="-40098">
		<tag k="name" v="Grumbua" />
		<tag k="place" v="isolated_dwelling" />
		<tag k="ssr:stedsnr" v="589579" />
	</node>
	<node lat="61.0490749966406" lon="8.85989721392545" id="-40099">
		<tag k="historic" v="shieling" />
		<tag k="name" v="Bakkestølen" />
		<tag k="place" v="isolated_dwelling" />
		<tag k="ssr:stedsnr" v="597147" />
	</node>
	<node lat="61.06566111086373" lon="8.814930554752038" id="-40100">
		<tag k="name" v="Geiteberg" />
		<tag k="place" v="isolated_dwelling" />
		<tag k="ssr:stedsnr" v="597488" />
	</node>
	<node lat="61.16275833697276" lon="8.899063897769805" id="-40101">
		<tag k="historic" v="shieling" />
		<tag k="name" v="Eggestølane" />
		<tag k="place" v="isolated_dwelling" />
		<tag k="ssr:stedsnr" v="613045" />
	</node>
	<node lat="61.10737222082205" lon="8.92533333050202" id="-40103">
		<tag k="name" v="Istad" />
		<tag k="place" v="farm" />
		<tag k="ssr:stedsnr" v="613154" />
	</node>
	<node lat="61.08466666455784" lon="8.987133340532775" id="-40106">
		<tag k="alt_name" v="Tvenge, nedre;Tvenge" />
		<tag k="name" v="Nedre Tvenge" />
		<tag k="place" v="farm" />
		<tag k="ssr:stedsnr" v="613199" />
	</node>
	<node lat="61.077672218001055" lon="9.006202778979878" id="-40107">
		<tag k="name" v="Trøen" />
		<tag k="place" v="farm" />
		<tag k="ssr:stedsnr" v="613241" />
	</node>
	<node lat="61.059894444427904" lon="8.834616665446827" id="-40108">
		<tag k="alt_name" v="Garvikstølen" />
		<tag k="historic" v="shieling" />
		<tag k="name" v="Gardvikstølen" />
		<tag k="place" v="isolated_dwelling" />
		<tag k="ssr:stedsnr" v="613388" />
	</node>
	<node lat="61.05614999596165" lon="8.842894451652164" id="-40109">
		<tag k="historic" v="shieling" />
		<tag k="name" v="Haugstølen" />
		<tag k="place" v="isolated_dwelling" />
		<tag k="ssr:stedsnr" v="613389" />
	</node>
	<node lat="61.064477778057054" lon="8.810194443814854" id="-40110">
		<tag k="alt_name" v="Kvislastøl" />
		<tag k="historic" v="shieling" />
		<tag k="name" v="Kvislastølane" />
		<tag k="place" v="isolated_dwelling" />
		<tag k="ssr:stedsnr" v="613394" />
	</node>
	<node lat="61.12661342135954" lon="8.820173148842219" id="-40112">
		<tag k="name" v="Høyme" />
		<tag k="place" v="hamlet" />
		<tag k="ssr:stedsnr" v="613339" />
	</node>
	<node lat="61.01727222595894" lon="8.934252777863332" id="-40114">
		<tag k="name" v="Brakastølen" />
		<tag k="place" v="hamlet" />
		<tag k="ssr:stedsnr" v="613771" />
	</node>
	<node lat="61.02334972189306" lon="9.102639034949744" id="-40115">
		<tag k="fixme" v="consider place=hamlet" />
		<tag k="name" v="Solstein" />
		<tag k="place" v="farm" />
		<tag k="ssr:stedsnr" v="613778" />
	</node>
	<node lat="61.029047225723744" lon="8.884774991280397" id="-40121">
		<tag k="historic" v="shieling" />
		<tag k="name" v="Solvollstølen" />
		<tag k="place" v="isolated_dwelling" />
		<tag k="ssr:stedsnr" v="647446" />
	</node>
	<node lat="61.02236389067491" lon="8.895841662133593" id="-40122">
		<tag k="historic" v="shieling" />
		<tag k="name" v="Ulastølen" />
		<tag k="place" v="isolated_dwelling" />
		<tag k="ssr:stedsnr" v="647448" />
	</node>
	<node lat="61.09225277956884" lon="8.99414165777528" id="-40128">
		<tag k="name" v="Sponbakkadn" />
		<tag k="place" v="quarter" />
		<tag k="ssr:stedsnr" v="647958" />
	</node>
	<node lat="61.064402773796594" lon="8.989500002273548" id="-40129">
		<tag k="name" v="Nordli" />
		<tag k="place" v="isolated_dwelling" />
		<tag k="ssr:stedsnr" v="647969" />
	</node>
	<node lat="61.07859444096923" lon="8.736822214582922" id="-40131">
		<tag k="name" v="Gammelstogo" />
		<tag k="place" v="isolated_dwelling" />
		<tag k="ssr:stedsnr" v="718530" />
	</node>
	<node lat="61.04033610799588" lon="9.08069721563174" id="-40132">
		<tag k="name" v="Fystro" />
		<tag k="place" v="farm" />
		<tag k="ssr:stedsnr" v="718697" />
	</node>
	<node lat="61.06745277667258" lon="8.736238884738691" id="-40136">
		<tag k="historic" v="shieling" />
		<tag k="name" v="Båthaugen" />
		<tag k="place" v="isolated_dwelling" />
		<tag k="ssr:stedsnr" v="725801" />
	</node>
	<node lat="61.104569445806625" lon="8.93840100439396" id="-40138">
		<tag k="name" v="Vik" />
		<tag k="place" v="hamlet" />
		<tag k="ssr:stedsnr" v="735181" />
	</node>
	<node lat="61.10405062890283" lon="8.963962914871718" id="-40139">
		<tag k="alt_name" v="Hausåker, søre" />
		<tag k="name" v="Søre Hausåker" />
		<tag k="place" v="farm" />
		<tag k="ssr:stedsnr" v="735184" />
	</node>
	<node lat="61.173544446273546" lon="8.87080834057546" id="-40144">
		<tag k="historic" v="shieling" />
		<tag k="name" v="Haldorsøygarden" />
		<tag k="place" v="isolated_dwelling" />
		<tag k="ssr:stedsnr" v="735026" />
	</node>
	<node lat="61.16461111034784" lon="8.881977771604555" id="-40145">
		<tag k="historic" v="shieling" />
		<tag k="name" v="Høynesstølen" />
		<tag k="place" v="isolated_dwelling" />
		<tag k="ssr:stedsnr" v="735036" />
	</node>
	<node lat="61.114188887648844" lon="8.983055551015218" id="-40146">
		<tag k="alt_name" v="Hjellestøladn" />
		<tag k="name" v="Hjellestølen" />
		<tag k="place" v="isolated_dwelling" />
		<tag k="ssr:stedsnr" v="735132" />
	</node>
	<node lat="61.11344722039162" lon="8.9393666652374" id="-40147">
		<tag k="name" v="Steinsrud" />
		<tag k="place" v="farm" />
		<tag k="ssr:stedsnr" v="735134" />
	</node>
	<node lat="61.108024999298756" lon="8.960074996998008" id="-40148">
		<tag k="alt_name" v="Haugo, søre;Hjellehaugen" />
		<tag k="name" v="Søre Haugo" />
		<tag k="place" v="farm" />
		<tag k="ssr:stedsnr" v="735136" />
	</node>
	<node lat="61.11033055112945" lon="8.870713885397924" id="-40149">
		<tag k="historic" v="shieling" />
		<tag k="name" v="Veslestølen" />
		<tag k="place" v="isolated_dwelling" />
		<tag k="ssr:stedsnr" v="735141" />
	</node>
	<node lat="61.10232221800406" lon="8.924544444542812" id="-40150">
		<tag k="name" v="Skogstad" />
		<tag k="place" v="farm" />
		<tag k="ssr:stedsnr" v="735152" />
	</node>
	<node lat="61.00421111160662" lon="9.015511104995184" id="-40154">
		<tag k="name" v="Nordeng" />
		<tag k="place" v="farm" />
		<tag k="ssr:stedsnr" v="735759" />
	</node>
	<node lat="61.01670832982482" lon="9.055677778009466" id="-40155">
		<tag k="fixme" v="multiple name tags, choose one and add the other to alt_name" />
		<tag k="name" v="Bråten;Prøven" />
		<tag k="place" v="farm" />
		<tag k="ssr:stedsnr" v="735770" />
	</node>
	<node lat="61.06379166529239" lon="9.11708332897965" id="-40156">
		<tag k="name" v="Hovda" />
		<tag k="place" v="farm" />
		<tag k="ssr:stedsnr" v="735847" />
	</node>
	<node lat="60.918502780978706" lon="8.887702770699578" id="-40160">
		<tag k="historic" v="shieling" />
		<tag k="name" v="Fauskestølen" />
		<tag k="place" v="isolated_dwelling" />
		<tag k="ssr:stedsnr" v="767268" />
	</node>
	<node lat="61.030841663490044" lon="9.067808342433672" id="-40162">
		<tag k="name" v="Fjordheim" />
		<tag k="place" v="farm" />
		<tag k="ssr:stedsnr" v="767817" />
	</node>
	<node lat="61.027677775535" lon="9.088366669284182" id="-40163">
		<tag k="name" v="Hagalund" />
		<tag k="place" v="farm" />
		<tag k="ssr:stedsnr" v="767834" />
	</node>
	<node lat="61.091516662671985" lon="8.988950005133555" id="-40164">
		<tag k="name" v="Prestegårdsskogen" />
		<tag k="place" v="quarter" />
		<tag k="ssr:stedsnr" v="769953" />
	</node>
	<node lat="61.0877833367646" lon="9.012813879656997" id="-40165">
		<tag k="name" v="Garberg" />
		<tag k="place" v="isolated_dwelling" />
		<tag k="ssr:stedsnr" v="769955" />
	</node>
	<node lat="60.98530833029136" lon="8.934822225357411" id="-40169">
		<tag k="historic" v="shieling" />
		<tag k="name" v="Storhaugstølen" />
		<tag k="place" v="isolated_dwelling" />
		<tag k="ssr:stedsnr" v="769497" />
	</node>
	<node lat="60.97485833342147" lon="8.802102776798838" id="-40172">
		<tag k="historic" v="shieling" />
		<tag k="name" v="Nørdre Jarstadstølen" />
		<tag k="place" v="isolated_dwelling" />
		<tag k="ssr:stedsnr" v="769637" />
	</node>
	<node lat="61.00403055165337" lon="8.916066673347116" id="-40173">
		<tag k="historic" v="shieling" />
		<tag k="name" v="Solsteinstølen" />
		<tag k="place" v="isolated_dwelling" />
		<tag k="ssr:stedsnr" v="769487" />
	</node>
	<node lat="60.98416944428907" lon="8.949858338273518" id="-40176">
		<tag k="historic" v="shieling" />
		<tag k="name" v="Snortheimstølen" />
		<tag k="place" v="isolated_dwelling" />
		<tag k="ssr:stedsnr" v="769495" />
	</node>
	<node lat="61.05000555601098" lon="8.987580552164623" id="-40181">
		<tag k="name" v="Skoglund" />
		<tag k="place" v="farm" />
		<tag k="ssr:stedsnr" v="769878" />
	</node>
	<node lat="60.947069442880256" lon="8.77570554720223" id="-40185">
		<tag k="historic" v="shieling" />
		<tag k="name" v="Semelengstølen" />
		<tag k="place" v="isolated_dwelling" />
		<tag k="ssr:stedsnr" v="769745" />
	</node>
	<node lat="61.08655000429057" lon="8.98185833945832" id="-40187">
		<tag k="building" v="commercial" />
		<tag k="name" v="Haugo" />
		<tag k="ssr:stedsnr" v="769947" />
	</node>
	<node lat="61.072322222415856" lon="8.996763883176495" id="-40188">
		<tag k="name" v="Ådnestøe" />
		<tag k="place" v="isolated_dwelling" />
		<tag k="ssr:stedsnr" v="769949" />
	</node>
	<node lat="60.950349996332626" lon="8.830911103915097" id="-40195">
		<tag k="alt_name" v="Buodden" />
		<tag k="historic" v="shieling" />
		<tag k="name" v="Buoddestølen" />
		<tag k="place" v="isolated_dwelling" />
		<tag k="ssr:stedsnr" v="797866" />
	</node>
	<node lat="61.11860833166221" lon="8.79121110462263" id="-40196">
		<tag k="historic" v="shieling" />
		<tag k="name" v="Robølestøl" />
		<tag k="place" v="isolated_dwelling" />
		<tag k="ssr:stedsnr" v="786037" />
	</node>
	<node lat="61.11714444078168" lon="8.930469438949835" id="-40198">
		<tag k="alt_name" v="Henrud" />
		<tag k="name" v="Henderud" />
		<tag k="place" v="farm" />
		<tag k="ssr:stedsnr" v="796137" />
	</node>
	<node lat="61.11092500332421" lon="8.994930564805742" id="-40199">
		<tag k="alt_name" v="Krosshaugstøladn" />
		<tag k="historic" v="shieling" />
		<tag k="name" v="Krosshaugstølen" />
		<tag k="place" v="isolated_dwelling" />
		<tag k="ssr:stedsnr" v="796141" />
	</node>
	<node lat="61.113033331266216" lon="8.965066665351545" id="-40201">
		<tag k="name" v="Øygarden" />
		<tag k="place" v="farm" />
		<tag k="ssr:stedsnr" v="796143" />
	</node>
	<node lat="61.111206245194" lon="8.928452407566596" id="-40202">
		<tag k="alt_name" v="Myren" />
		<tag k="name" v="Myri" />
		<tag k="place" v="farm" />
		<tag k="ssr:stedsnr" v="796151" />
	</node>
	<node lat="61.135255554722775" lon="8.904719438535706" id="-40203">
		<tag k="alt_name" v="Bakko" />
		<tag k="name" v="Bakkane" />
		<tag k="place" v="farm" />
		<tag k="ssr:stedsnr" v="795131" />
	</node>
	<node lat="61.094369445513614" lon="8.975169449721024" id="-40204">
		<tag k="name" v="Vollen" />
		<tag k="place" v="hamlet" />
		<tag k="ssr:stedsnr" v="795237" />
	</node>
	<node lat="61.107163893406785" lon="8.839691668513698" id="-40205">
		<tag k="historic" v="shieling" />
		<tag k="name" v="Kårstadstølane" />
		<tag k="place" v="isolated_dwelling" />
		<tag k="ssr:stedsnr" v="795426" />
	</node>
	<node lat="61.07273834640058" lon="9.005624056789367" id="-40206">
		<tag k="fixme" v="consider place=hamlet" />
		<tag k="name" v="Jarstad" />
		<tag k="place" v="farm" />
		<tag k="ssr:stedsnr" v="796880" />
	</node>
	<node lat="61.06528610769184" lon="9.044430555810626" id="-40207">
		<tag k="name" v="Hagen" />
		<tag k="place" v="farm" />
		<tag k="ssr:stedsnr" v="796886" />
	</node>
	<node lat="61.06390000181975" lon="8.960999997756167" id="-40208">
		<tag k="historic" v="shieling" />
		<tag k="name" v="Vikastølen" />
		<tag k="place" v="isolated_dwelling" />
		<tag k="ssr:stedsnr" v="796892" />
	</node>
	<node lat="61.09987273751532" lon="8.94712804379152" id="-40209">
		<tag k="alt_name" v="Kølljordet" />
		<tag k="fixme" v="consider place=hamlet" />
		<tag k="name" v="Kolljordet" />
		<tag k="place" v="farm" />
		<tag k="ssr:stedsnr" v="796182" />
	</node>
	<node lat="61.07576111122794" lon="9.024680555182162" id="-40211">
		<tag k="name" v="Handestølen" />
		<tag k="place" v="farm" />
		<tag k="ssr:stedsnr" v="796245" />
	</node>
	<node lat="61.07120000246617" lon="9.038299996688314" id="-40212">
		<tag k="name" v="Lahaug" />
		<tag k="place" v="farm" />
		<tag k="ssr:stedsnr" v="796248" />
	</node>
	<node lat="61.0448805528886" lon="8.832216657854202" id="-40214">
		<tag k="historic" v="shieling" />
		<tag k="name" v="Jomsstølen" />
		<tag k="place" v="isolated_dwelling" />
		<tag k="ssr:stedsnr" v="828338" />
	</node>
	<node lat="61.036330551795906" lon="9.079155553313846" id="-40218">
		<tag k="name" v="Rudvang" />
		<tag k="place" v="farm" />
		<tag k="ssr:stedsnr" v="828787" />
	</node>
	<node lat="61.024561108884114" lon="9.092108333098349" id="-40219">
		<tag k="name" v="Kvenene" />
		<tag k="place" v="farm" />
		<tag k="ssr:stedsnr" v="828813" />
	</node>
	<node lat="61.113458335855455" lon="8.805688895147812" id="-40221">
		<tag k="historic" v="shieling" />
		<tag k="name" v="Nystøl" />
		<tag k="place" v="isolated_dwelling" />
		<tag k="ssr:stedsnr" v="830298" />
	</node>
	<node lat="60.947249995883844" lon="8.920441665034904" id="-40222">
		<tag k="historic" v="shieling" />
		<tag k="name" v="Råstølen" />
		<tag k="place" v="isolated_dwelling" />
		<tag k="ssr:stedsnr" v="830237" />
	</node>
	<node lat="61.007580556466394" lon="8.801341663954648" id="-40223">
		<tag k="historic" v="shieling" />
		<tag k="name" v="Einangstølen" />
		<tag k="place" v="isolated_dwelling" />
		<tag k="ssr:stedsnr" v="830650" />
	</node>
	<node lat="61.02364166963058" lon="9.057666662546735" id="-40225">
		<tag k="name" v="Hagen" />
		<tag k="place" v="farm" />
		<tag k="ssr:stedsnr" v="830838" />
	</node>
	<node lat="61.06700555636976" lon="8.979344443159613" id="-40226">
		<tag k="name" v="Haugland" />
		<tag k="place" v="farm" />
		<tag k="ssr:stedsnr" v="830949" />
	</node>
	<node lat="61.0478277735439" lon="9.0012750049718" id="-40227">
		<tag k="name" v="Dokken" />
		<tag k="place" v="farm" />
		<tag k="ssr:stedsnr" v="830892" />
	</node>
	<node lat="61.04519166918695" lon="9.010088896454658" id="-40228">
		<tag k="name" v="Midtre Semeleng" />
		<tag k="place" v="farm" />
		<tag k="ssr:stedsnr" v="830893" />
	</node>
	<node lat="61.06614444189272" lon="9.026186116599648" id="-40230">
		<tag k="name" v="Midtre Hande" />
		<tag k="place" v="isolated_dwelling" />
		<tag k="ssr:stedsnr" v="830964" />
	</node>
	<node lat="61.07402500185428" lon="9.026477779620688" id="-40231">
		<tag k="name" v="Skogheim" />
		<tag k="place" v="farm" />
		<tag k="ssr:stedsnr" v="834068" />
	</node>
	<node lat="61.037733334201945" lon="8.956925002651795" id="-40233">
		<tag k="name" v="Arvebu" />
		<tag k="place" v="isolated_dwelling" />
		<tag k="ssr:stedsnr" v="840186" />
	</node>
	<node lat="61.089433328934774" lon="8.95361110308799" id="-40239">
		<tag k="alt_name" v="Heggeland" />
		<tag k="name" v="Heggland" />
		<tag k="place" v="farm" />
		<tag k="ssr:stedsnr" v="856219" />
	</node>
	<node lat="61.11607499951522" lon="8.81431667422656" id="-40240">
		<tag k="alt_name" v="Høymisstøl" />
		<tag k="historic" v="shieling" />
		<tag k="name" v="Høymestølane" />
		<tag k="place" v="isolated_dwelling" />
		<tag k="ssr:stedsnr" v="856406" />
	</node>
	<node lat="61.04104892769539" lon="9.02225617281788" id="-40242">
		<tag k="fixme" v="consider place=hamlet" />
		<tag k="name" v="Ulve" />
		<tag k="place" v="farm" />
		<tag k="ssr:stedsnr" v="856817" />
	</node>
	<node lat="61.054952774386486" lon="8.982752786604504" id="-40244">
		<tag k="name" v="Granli" />
		<tag k="place" v="farm" />
		<tag k="ssr:stedsnr" v="856865" />
	</node>
	<node lat="61.10693333247119" lon="8.970963893610001" id="-40245">
		<tag k="alt_name" v="Hjellemarken" />
		<tag k="name" v="Hjellemarki" />
		<tag k="place" v="farm" />
		<tag k="ssr:stedsnr" v="857156" />
	</node>
	<node lat="61.108867142743094" lon="8.929168408044072" id="-40246">
		<tag k="alt_name" v="Dokken" />
		<tag k="name" v="Dokki" />
		<tag k="place" v="farm" />
		<tag k="ssr:stedsnr" v="857161" />
	</node>
	<node lat="61.107144447520525" lon="8.860750004987931" id="-40247">
		<tag k="historic" v="shieling" />
		<tag k="name" v="Holte" />
		<tag k="place" v="isolated_dwelling" />
		<tag k="ssr:stedsnr" v="857167" />
	</node>
	<node lat="61.07637500071874" lon="8.965713886298268" id="-40249">
		<tag k="alt_name" v="Hovrud;Hoverud" />
		<tag k="name" v="Håverud" />
		<tag k="old_name" v="Haaverud" />
		<tag k="place" v="farm" />
		<tag k="ssr:stedsnr" v="857248" />
	</node>
	<node lat="60.98517221795619" lon="8.942044451480811" id="-40251">
		<tag k="alt_name" v="Kvålsstølen" />
		<tag k="name" v="Kvålestølen" />
		<tag k="place" v="hamlet" />
		<tag k="ssr:stedsnr" v="859062" />
	</node>
	<node lat="61.02287777582735" lon="9.058111111267069" id="-40253">
		<tag k="name" v="Hamarstad" />
		<tag k="place" v="isolated_dwelling" />
		<tag k="ssr:stedsnr" v="888823" />
	</node>
	<node lat="61.04198333513213" lon="8.842613897968748" id="-40255">
		<tag k="historic" v="shieling" />
		<tag k="name" v="Myhrestølen" />
		<tag k="place" v="isolated_dwelling" />
		<tag k="ssr:stedsnr" v="889336" />
	</node>
	<node lat="61.05916169775197" lon="8.746410236048904" id="-40256">
		<tag k="historic" v="shieling" />
		<tag k="name" v="Lomurstølen" />
		<tag k="place" v="isolated_dwelling" />
		<tag k="ssr:stedsnr" v="889343" />
	</node>
	<node lat="60.917127781510416" lon="8.883386115097593" id="-40257">
		<tag k="historic" v="shieling" />
		<tag k="name" v="Tildheimstølen" />
		<tag k="place" v="isolated_dwelling" />
		<tag k="ssr:stedsnr" v="949259" />
	</node>
	<node lat="61.02731666952962" lon="9.080180555735577" id="-40259">
		<tag k="name" v="Vistemyren" />
		<tag k="place" v="farm" />
		<tag k="ssr:stedsnr" v="949814" />
	</node>
	<node lat="61.02781388931161" lon="9.089902786174077" id="-40260">
		<tag k="name" v="Hagene" />
		<tag k="place" v="isolated_dwelling" />
		<tag k="ssr:stedsnr" v="949817" />
	</node>
	<node lat="61.05838611073624" lon="9.042361102875924" id="-40262">
		<tag k="name" v="Reistad" />
		<tag k="place" v="farm" />
		<tag k="ssr:stedsnr" v="949860" />
	</node>
	<node lat="60.950861107647576" lon="8.921663883462589" id="-40263">
		<tag k="historic" v="shieling" />
		<tag k="name" v="Snortheimstølen" />
		<tag k="place" v="isolated_dwelling" />
		<tag k="ssr:stedsnr" v="951258" />
	</node>
	<node lat="60.95567500006441" lon="8.89044443854174" id="-40264">
		<tag k="historic" v="shieling" />
		<tag k="name" v="Øygardstølen" />
		<tag k="place" v="isolated_dwelling" />
		<tag k="ssr:stedsnr" v="951262" />
	</node>
	<node lat="61.090761106726426" lon="8.943124995697053" id="-40266">
		<tag k="name" v="Øvre Frigstadplassen" />
		<tag k="place" v="locality" />
		<tag k="ssr:stedsnr" v="951424" />
	</node>
	<node lat="61.03809127700078" lon="9.043730968051129" id="-40267">
		<tag k="name" v="Pjåten" />
		<tag k="place" v="locality" />
		<tag k="ssr:stedsnr" v="951902" />
	</node>
	<node lat="61.03843055337124" lon="9.026352783730056" id="-40268">
		<tag k="name" v="Øystad" />
		<tag k="place" v="isolated_dwelling" />
		<tag k="ssr:stedsnr" v="951883" />
	</node>
	<node lat="61.0778499994007" lon="8.998869450670023" id="-40269">
		<tag k="name" v="Solberg" />
		<tag k="place" v="farm" />
		<tag k="ssr:stedsnr" v="951947" />
	</node>
	<node lat="61.061863885741204" lon="9.030119441534554" id="-40271">
		<tag k="name" v="Reitun" />
		<tag k="place" v="isolated_dwelling" />
		<tag k="ssr:stedsnr" v="951964" />
	</node>
	<node lat="61.12887221812203" lon="8.847961119113956" id="-40278">
		<tag k="name" v="Birkelund" />
		<tag k="place" v="farm" />
		<tag k="ssr:stedsnr" v="968250" />
	</node>
	<node lat="61.04585173972573" lon="9.024165317811745" id="-40279">
		<tag k="fixme" v="consider place=hamlet" />
		<tag k="name" v="Hølli" />
		<tag k="place" v="farm" />
		<tag k="ssr:stedsnr" v="986874" />
	</node>
	<node lat="61.04595834110223" lon="9.011228885494397" id="-40280">
		<tag k="name" v="Semeleng" />
		<tag k="place" v="hamlet" />
		<tag k="ssr:stedsnr" v="986876" />
	</node>
	<node lat="61.0420658876317" lon="9.013210928403687" id="-40281">
		<tag k="fixme" v="consider place=hamlet" />
		<tag k="name" v="Øye" />
		<tag k="place" v="farm" />
		<tag k="ssr:stedsnr" v="986877" />
	</node>
	<node lat="61.024544932160985" lon="9.05947062668647" id="-40282">
		<tag k="fixme" v="consider place=hamlet" />
		<tag k="name" v="Hamarsnes" />
		<tag k="place" v="farm" />
		<tag k="ssr:stedsnr" v="986878" />
	</node>
	<node lat="61.02102929583379" lon="9.06452787241886" id="-40283">
		<tag k="fixme" v="consider place=hamlet" />
		<tag k="name" v="Tildheim" />
		<tag k="place" v="farm" />
		<tag k="ssr:stedsnr" v="986880" />
	</node>
	<node lat="61.06193870261519" lon="8.74220095060804" id="-40285">
		<tag k="historic" v="shieling" />
		<tag k="name" v="Forohaugstølen" />
		<tag k="place" v="isolated_dwelling" />
		<tag k="ssr:stedsnr" v="990991" />
	</node>
	<node lat="60.994803071002465" lon="8.77113824437754" id="-40539">
		<tag k="fixme" v="consider tourism=alpine_hut or tourism=chalet" />
		<tag k="name" v="Mjølke-Lars bua" />
		<tag k="ssr:stedsnr" v="1072409" />
		<tag k="tourism" v="wilderness_hut" />
	</node>
	<node lat="61.108792009504576" lon="8.958654272420537" id="-40542">
		<tag k="name" v="Haugo" />
		<tag k="place" v="locality" />
		<tag k="ssr:stedsnr" v="1079706" />
	</node>
	<node lat="61.00061979785488" lon="8.96426049958003" id="-40543">
		<tag k="name" v="Pålset hyttegrend" />
		<tag k="place" v="neighbourhood" />
		<tag k="ssr:stedsnr" v="1079893" />
	</node>
	<node lat="61.06029974933917" lon="9.049964086558035" id="-40544">
		<tag k="name" v="Magistad" />
		<tag k="place" v="hamlet" />
		<tag k="ssr:stedsnr" v="1080340" />
	</node>
	<node lat="60.98030827419719" lon="8.771644344528825" id="-40547">
		<tag k="fixme" v="consider tourism=alpine_hut or tourism=chalet" />
		<tag k="name" v="Matkista" />
		<tag k="ssr:stedsnr" v="1083281" />
		<tag k="tourism" v="wilderness_hut" />
	</node>
</osm>
