<?xml version="1.0" encoding="UTF-8"?>
<osm generator="osmapis" version="0.6">
	<node id="-511934" lat="61.1901990385" lon="6.52855714166">
		<tag k="name" v="Bruhjell" />
		<tag k="ssr:date" v="2019-05-31" />
		<tag k="ssr:gruppe" v="veg" />
		<tag k="ssr:hovedgruppe" v="infrastruktur" />
		<tag k="ssr:stedsnr" v="1052540" />
		<tag k="ssr:type" v="adressenavn" />
	</node>
	<node id="-511973" lat="61.2198442979" lon="6.50380441316">
		<tag k="name" v="Skrenes" />
		<tag k="ssr:date" v="2019-05-31" />
		<tag k="ssr:gruppe" v="veg" />
		<tag k="ssr:hovedgruppe" v="infrastruktur" />
		<tag k="ssr:stedsnr" v="1053206" />
		<tag k="ssr:type" v="adressenavn" />
	</node>
	<node id="-511972" lat="61.221780579" lon="6.49629267664">
		<tag k="name" v="Kvalheim" />
		<tag k="ssr:date" v="2019-05-31" />
		<tag k="ssr:gruppe" v="veg" />
		<tag k="ssr:hovedgruppe" v="infrastruktur" />
		<tag k="ssr:stedsnr" v="1053205" />
		<tag k="ssr:type" v="adressenavn" />
	</node>
	<node id="-511971" lat="61.2176328872" lon="6.53214215254">
		<tag k="name" v="Gjerde" />
		<tag k="ssr:date" v="2019-05-31" />
		<tag k="ssr:gruppe" v="veg" />
		<tag k="ssr:hovedgruppe" v="infrastruktur" />
		<tag k="ssr:stedsnr" v="1053204" />
		<tag k="ssr:type" v="adressenavn" />
	</node>
	<node id="-511970" lat="61.219070404" lon="6.51349585619">
		<tag k="name" v="Grøneng" />
		<tag k="ssr:date" v="2019-05-31" />
		<tag k="ssr:gruppe" v="veg" />
		<tag k="ssr:hovedgruppe" v="infrastruktur" />
		<tag k="ssr:stedsnr" v="1053203" />
		<tag k="ssr:type" v="adressenavn" />
	</node>
	<node id="-511969" lat="61.2187024219" lon="6.48964538782">
		<tag k="name" v="Indre Ese" />
		<tag k="ssr:date" v="2019-05-31" />
		<tag k="ssr:gruppe" v="veg" />
		<tag k="ssr:hovedgruppe" v="infrastruktur" />
		<tag k="ssr:stedsnr" v="1053201" />
		<tag k="ssr:type" v="adressenavn" />
	</node>
	<node id="-511968" lat="61.2128779516" lon="6.51182421267">
		<tag k="name" v="Ytre Ese" />
		<tag k="ssr:date" v="2019-05-31" />
		<tag k="ssr:gruppe" v="veg" />
		<tag k="ssr:hovedgruppe" v="infrastruktur" />
		<tag k="ssr:stedsnr" v="1053199" />
		<tag k="ssr:type" v="adressenavn" />
	</node>
	<node id="-511967" lat="61.2253432384" lon="6.49077422135">
		<tag k="name" v="Hjelsengi" />
		<tag k="ssr:date" v="2019-05-31" />
		<tag k="ssr:gruppe" v="veg" />
		<tag k="ssr:hovedgruppe" v="infrastruktur" />
		<tag k="ssr:stedsnr" v="1053197" />
		<tag k="ssr:type" v="adressenavn" />
	</node>
	<node id="-511966" lat="61.2293520543" lon="6.48607599124">
		<tag k="name" v="Esebotn" />
		<tag k="ssr:date" v="2019-05-31" />
		<tag k="ssr:gruppe" v="veg" />
		<tag k="ssr:hovedgruppe" v="infrastruktur" />
		<tag k="ssr:stedsnr" v="1053195" />
		<tag k="ssr:type" v="adressenavn" />
	</node>
	<node id="-511965" lat="61.2640973468" lon="6.52969014152">
		<tag k="name" v="Dale" />
		<tag k="ssr:date" v="2019-05-31" />
		<tag k="ssr:gruppe" v="veg" />
		<tag k="ssr:hovedgruppe" v="infrastruktur" />
		<tag k="ssr:stedsnr" v="1053193" />
		<tag k="ssr:type" v="adressenavn" />
	</node>
	<node id="-511964" lat="61.2518517866" lon="6.54435662779">
		<tag k="name" v="Farnes" />
		<tag k="ssr:date" v="2019-05-31" />
		<tag k="ssr:gruppe" v="veg" />
		<tag k="ssr:hovedgruppe" v="infrastruktur" />
		<tag k="ssr:stedsnr" v="1053191" />
		<tag k="ssr:type" v="adressenavn" />
	</node>
	<node id="-511963" lat="61.271563455" lon="6.52930867524">
		<tag k="name" v="Torsnes" />
		<tag k="ssr:date" v="2019-05-31" />
		<tag k="ssr:gruppe" v="veg" />
		<tag k="ssr:hovedgruppe" v="infrastruktur" />
		<tag k="ssr:stedsnr" v="1053190" />
		<tag k="ssr:type" v="adressenavn" />
	</node>
	<node id="-511962" lat="61.2767165001" lon="6.50072540345">
		<tag k="name" v="Sværen" />
		<tag k="ssr:date" v="2019-05-31" />
		<tag k="ssr:gruppe" v="veg" />
		<tag k="ssr:hovedgruppe" v="infrastruktur" />
		<tag k="ssr:stedsnr" v="1053189" />
		<tag k="ssr:type" v="adressenavn" />
	</node>
	<node id="-511961" lat="61.2153169347" lon="6.55003541413">
		<tag k="name" v="Lunde" />
		<tag k="ssr:date" v="2019-05-31" />
		<tag k="ssr:gruppe" v="veg" />
		<tag k="ssr:hovedgruppe" v="infrastruktur" />
		<tag k="ssr:stedsnr" v="1053188" />
		<tag k="ssr:type" v="adressenavn" />
	</node>
	<node id="-511960" lat="61.2151741727" lon="6.54363974267">
		<tag k="name" v="Tjugum" />
		<tag k="ssr:date" v="2019-05-31" />
		<tag k="ssr:gruppe" v="veg" />
		<tag k="ssr:hovedgruppe" v="infrastruktur" />
		<tag k="ssr:stedsnr" v="1053187" />
		<tag k="ssr:type" v="adressenavn" />
	</node>
	<node id="-511959" lat="61.2224572405" lon="6.55598145336">
		<tag k="name" v="Vikane" />
		<tag k="ssr:date" v="2019-05-31" />
		<tag k="ssr:gruppe" v="veg" />
		<tag k="ssr:hovedgruppe" v="infrastruktur" />
		<tag k="ssr:stedsnr" v="1053186" />
		<tag k="ssr:type" v="adressenavn" />
	</node>
	<node id="-511958" lat="61.2161424179" lon="6.55844553524">
		<tag k="name" v="Dragsvik" />
		<tag k="ssr:date" v="2019-05-31" />
		<tag k="ssr:gruppe" v="veg" />
		<tag k="ssr:hovedgruppe" v="infrastruktur" />
		<tag k="ssr:stedsnr" v="1053185" />
		<tag k="ssr:type" v="adressenavn" />
	</node>
	<node id="-511957" lat="61.3394413568" lon="6.5636752552">
		<tag k="name" v="Mel" />
		<tag k="ssr:date" v="2019-05-31" />
		<tag k="ssr:gruppe" v="veg" />
		<tag k="ssr:hovedgruppe" v="infrastruktur" />
		<tag k="ssr:stedsnr" v="1053106" />
		<tag k="ssr:type" v="adressenavn" />
	</node>
	<node id="-511956" lat="61.3295253295" lon="6.57119349926">
		<tag k="name" v="Langateig" />
		<tag k="ssr:date" v="2019-05-31" />
		<tag k="ssr:gruppe" v="veg" />
		<tag k="ssr:hovedgruppe" v="infrastruktur" />
		<tag k="ssr:stedsnr" v="1053104" />
		<tag k="ssr:type" v="adressenavn" />
	</node>
	<node id="-511955" lat="61.297735805" lon="6.56452154295">
		<tag k="name" v="Ulvastad" />
		<tag k="ssr:date" v="2019-05-31" />
		<tag k="ssr:gruppe" v="veg" />
		<tag k="ssr:hovedgruppe" v="infrastruktur" />
		<tag k="ssr:stedsnr" v="1053103" />
		<tag k="ssr:type" v="adressenavn" />
	</node>
	<node id="-511954" lat="61.3044799147" lon="6.56495087745">
		<tag k="name" v="Feten" />
		<tag k="ssr:date" v="2019-05-31" />
		<tag k="ssr:gruppe" v="veg" />
		<tag k="ssr:hovedgruppe" v="infrastruktur" />
		<tag k="ssr:stedsnr" v="1053102" />
		<tag k="ssr:type" v="adressenavn" />
	</node>
	<node id="-511953" lat="61.3025979543" lon="6.55469426381">
		<tag k="name" v="Eiki" />
		<tag k="ssr:date" v="2019-05-31" />
		<tag k="ssr:gruppe" v="veg" />
		<tag k="ssr:hovedgruppe" v="infrastruktur" />
		<tag k="ssr:stedsnr" v="1053101" />
		<tag k="ssr:type" v="adressenavn" />
	</node>
	<node id="-511952" lat="61.3283928486" lon="6.57115036591">
		<tag k="name" v="Renndalen" />
		<tag k="ssr:date" v="2019-05-31" />
		<tag k="ssr:gruppe" v="veg" />
		<tag k="ssr:hovedgruppe" v="infrastruktur" />
		<tag k="ssr:stedsnr" v="1053100" />
		<tag k="ssr:type" v="adressenavn" />
	</node>
	<node id="-513231" lat="61.1099277803" lon="6.37806389576">
		<tag k="alt_name" v="Sæleneset lykt" />
		<tag k="name" v="Sæleneset" />
		<tag k="ssr:date" v="2016-05-11" />
		<tag k="ssr:gruppe" v="navigasjon" />
		<tag k="ssr:hovedgruppe" v="infrastruktur" />
		<tag k="ssr:stedsnr" v="919634" />
		<tag k="ssr:type" v="fyrlykt" />
	</node>
	<node id="-511950" lat="61.2548044601" lon="6.57627104308">
		<tag k="name" v="Menes" />
		<tag k="ssr:date" v="2019-05-31" />
		<tag k="ssr:gruppe" v="veg" />
		<tag k="ssr:hovedgruppe" v="infrastruktur" />
		<tag k="ssr:stedsnr" v="1053098" />
		<tag k="ssr:type" v="adressenavn" />
	</node>
	<node id="-511949" lat="61.1317979777" lon="6.31022823254">
		<tag k="name" v="Indre Nesse" />
		<tag k="ssr:date" v="2019-05-31" />
		<tag k="ssr:gruppe" v="veg" />
		<tag k="ssr:hovedgruppe" v="infrastruktur" />
		<tag k="ssr:stedsnr" v="1052571" />
		<tag k="ssr:type" v="adressenavn" />
	</node>
	<node id="-511948" lat="61.1286264167" lon="6.32877593543">
		<tag k="name" v="Nokken" />
		<tag k="ssr:date" v="2019-05-31" />
		<tag k="ssr:gruppe" v="veg" />
		<tag k="ssr:hovedgruppe" v="infrastruktur" />
		<tag k="ssr:stedsnr" v="1052569" />
		<tag k="ssr:type" v="adressenavn" />
	</node>
	<node id="-511947" lat="61.1583934122" lon="6.22643277654">
		<tag k="name" v="Kvist" />
		<tag k="ssr:date" v="2019-05-31" />
		<tag k="ssr:gruppe" v="veg" />
		<tag k="ssr:hovedgruppe" v="infrastruktur" />
		<tag k="ssr:stedsnr" v="1052568" />
		<tag k="ssr:type" v="adressenavn" />
	</node>
	<node id="-511946" lat="61.1361361855" lon="6.27119462187">
		<tag k="name" v="Ytre Nesse" />
		<tag k="ssr:date" v="2019-05-31" />
		<tag k="ssr:gruppe" v="veg" />
		<tag k="ssr:hovedgruppe" v="infrastruktur" />
		<tag k="ssr:stedsnr" v="1052567" />
		<tag k="ssr:type" v="adressenavn" />
	</node>
	<node id="-511945" lat="61.1120005695" lon="6.3855888542">
		<tag k="name" v="Sæle" />
		<tag k="ssr:date" v="2019-05-31" />
		<tag k="ssr:gruppe" v="veg" />
		<tag k="ssr:hovedgruppe" v="infrastruktur" />
		<tag k="ssr:stedsnr" v="1052566" />
		<tag k="ssr:type" v="adressenavn" />
	</node>
	<node id="-511944" lat="61.1161136891" lon="6.4189556344">
		<tag k="name" v="Lindane" />
		<tag k="ssr:date" v="2019-05-31" />
		<tag k="ssr:gruppe" v="veg" />
		<tag k="ssr:hovedgruppe" v="infrastruktur" />
		<tag k="ssr:stedsnr" v="1052563" />
		<tag k="ssr:type" v="adressenavn" />
	</node>
	<node id="-511943" lat="61.1271331981" lon="6.33632058042">
		<tag k="name" v="Sagi" />
		<tag k="ssr:date" v="2019-05-31" />
		<tag k="ssr:gruppe" v="veg" />
		<tag k="ssr:hovedgruppe" v="infrastruktur" />
		<tag k="ssr:stedsnr" v="1052562" />
		<tag k="ssr:type" v="adressenavn" />
	</node>
	<node id="-511942" lat="61.1210957758" lon="6.35122302902">
		<tag k="name" v="Tussviki" />
		<tag k="ssr:date" v="2019-05-31" />
		<tag k="ssr:gruppe" v="veg" />
		<tag k="ssr:hovedgruppe" v="infrastruktur" />
		<tag k="ssr:stedsnr" v="1052559" />
		<tag k="ssr:type" v="adressenavn" />
	</node>
	<node id="-511941" lat="61.1669712278" lon="6.18807276367">
		<tag k="name" v="Koldingsnes" />
		<tag k="ssr:date" v="2019-05-31" />
		<tag k="ssr:gruppe" v="veg" />
		<tag k="ssr:hovedgruppe" v="infrastruktur" />
		<tag k="ssr:stedsnr" v="1052556" />
		<tag k="ssr:type" v="adressenavn" />
	</node>
	<node id="-511940" lat="61.1883913302" lon="6.22827288737">
		<tag k="name" v="Lånefjorden" />
		<tag k="ssr:date" v="2019-05-31" />
		<tag k="ssr:gruppe" v="veg" />
		<tag k="ssr:hovedgruppe" v="infrastruktur" />
		<tag k="ssr:stedsnr" v="1052555" />
		<tag k="ssr:type" v="adressenavn" />
	</node>
	<node id="-511939" lat="61.1562056469" lon="6.53961994164">
		<tag k="name" v="Hanaviki" />
		<tag k="ssr:date" v="2019-05-31" />
		<tag k="ssr:gruppe" v="veg" />
		<tag k="ssr:hovedgruppe" v="infrastruktur" />
		<tag k="ssr:stedsnr" v="1052552" />
		<tag k="ssr:type" v="adressenavn" />
	</node>
	<node id="-511938" lat="61.1664426284" lon="6.54194629513">
		<tag k="name" v="Stokkabø" />
		<tag k="ssr:date" v="2019-05-31" />
		<tag k="ssr:gruppe" v="veg" />
		<tag k="ssr:hovedgruppe" v="infrastruktur" />
		<tag k="ssr:stedsnr" v="1052550" />
		<tag k="ssr:type" v="adressenavn" />
	</node>
	<node id="-511937" lat="61.1319885357" lon="6.4940627906">
		<tag k="name" v="Kvamsøy" />
		<tag k="ssr:date" v="2019-05-31" />
		<tag k="ssr:gruppe" v="veg" />
		<tag k="ssr:hovedgruppe" v="infrastruktur" />
		<tag k="ssr:stedsnr" v="1052547" />
		<tag k="ssr:type" v="adressenavn" />
	</node>
	<node id="-511936" lat="61.1510457634" lon="6.53840476525">
		<tag k="name" v="Målsnes" />
		<tag k="ssr:date" v="2019-05-31" />
		<tag k="ssr:gruppe" v="veg" />
		<tag k="ssr:hovedgruppe" v="infrastruktur" />
		<tag k="ssr:stedsnr" v="1052544" />
		<tag k="ssr:type" v="adressenavn" />
	</node>
	<node id="-511935" lat="61.1839891412" lon="6.53231827867">
		<tag k="name" v="Tue" />
		<tag k="ssr:date" v="2019-05-31" />
		<tag k="ssr:gruppe" v="veg" />
		<tag k="ssr:hovedgruppe" v="infrastruktur" />
		<tag k="ssr:stedsnr" v="1052542" />
		<tag k="ssr:type" v="adressenavn" />
	</node>
	<node id="-512356" lat="61.2122337645" lon="6.5678906341">
		<tag k="alt_name" v="Veganes;Veganes lykt;Veganeset" />
		<tag k="name" v="Veganeset lykt" />
		<tag k="ssr:date" v="2017-09-20" />
		<tag k="ssr:gruppe" v="navigasjon" />
		<tag k="ssr:hovedgruppe" v="infrastruktur" />
		<tag k="ssr:stedsnr" v="191650" />
		<tag k="ssr:type" v="fyrlykt" />
	</node>
	<node id="-511933" lat="61.1690897974" lon="6.52898248655">
		<tag k="name" v="Tuftadalen" />
		<tag k="ssr:date" v="2019-05-31" />
		<tag k="ssr:gruppe" v="veg" />
		<tag k="ssr:hovedgruppe" v="infrastruktur" />
		<tag k="ssr:stedsnr" v="1052538" />
		<tag k="ssr:type" v="adressenavn" />
	</node>
	<node id="-511932" lat="61.170972521" lon="6.54161216212">
		<tag k="name" v="Flesjane" />
		<tag k="ssr:date" v="2019-05-31" />
		<tag k="ssr:gruppe" v="veg" />
		<tag k="ssr:hovedgruppe" v="infrastruktur" />
		<tag k="ssr:stedsnr" v="1052537" />
		<tag k="ssr:type" v="adressenavn" />
	</node>
	<node id="-511951" lat="61.319051567" lon="6.57465775488">
		<tag k="name" v="Meland" />
		<tag k="ssr:date" v="2019-05-31" />
		<tag k="ssr:gruppe" v="veg" />
		<tag k="ssr:hovedgruppe" v="infrastruktur" />
		<tag k="ssr:stedsnr" v="1053099" />
		<tag k="ssr:type" v="adressenavn" />
	</node>
	<node id="-511930" lat="61.2101255946" lon="6.53569085822">
		<tag k="name" v="Holmen" />
		<tag k="ssr:date" v="2019-05-31" />
		<tag k="ssr:gruppe" v="veg" />
		<tag k="ssr:hovedgruppe" v="infrastruktur" />
		<tag k="ssr:stedsnr" v="1052156" />
		<tag k="ssr:type" v="adressenavn" />
	</node>
	<node id="-512279" lat="61.2081083364" lon="6.53554721611">
		<tag k="alt_name" v="Balestrand" />
		<tag k="name" v="Balestrand kommune" />
		<tag k="ssr:date" v="2019-08-14" />
		<tag k="ssr:gruppe" v="administrativeIndelinger" />
		<tag k="ssr:hovedgruppe" v="offentligAdministrasjon" />
		<tag k="ssr:stedsnr" v="147223" />
		<tag k="ssr:type" v="kommune" />
	</node>
	<node id="-513301" lat="60.8816104596" lon="6.30047518531">
		<tag k="name" v="Vestlandet" />
		<tag k="ssr:date" v="2019-01-06" />
		<tag k="ssr:gruppe" v="administrativeIndelinger" />
		<tag k="ssr:hovedgruppe" v="offentligAdministrasjon" />
		<tag k="ssr:stedsnr" v="974777" />
		<tag k="ssr:type" v="annenAdministrativInndeling" />
	</node>
	<node id="-511931" lat="61.2089388812" lon="6.53168522151">
		<tag k="name" v="Holmamyrane" />
		<tag k="ssr:date" v="2019-05-31" />
		<tag k="ssr:gruppe" v="veg" />
		<tag k="ssr:hovedgruppe" v="infrastruktur" />
		<tag k="ssr:stedsnr" v="1052161" />
		<tag k="ssr:type" v="adressenavn" />
	</node>
</osm>
