<?xml version="1.0" encoding="UTF-8"?>
<osm version="0.6" generator="osmapis">
	<node lat="61.27980278168399" lon="10.43949166993762" id="-41982">
		<tag k="name" v="Minnefeltvegen" />
		<tag k="ssr:date" v="2019-12-27" />
		<tag k="ssr:gruppe" v="veg" />
		<tag k="ssr:hovedgruppe" v="infrastruktur" />
		<tag k="ssr:stedsnr" v="39470" />
		<tag k="ssr:type" v="vegstrekning" />
	</node>
	<node lat="61.30873560947532" lon="10.434675087557322" id="-42036">
		<tag k="name" v="Rotvegen" />
		<tag k="ssr:date" v="2021-09-30" />
		<tag k="ssr:gruppe" v="veg" />
		<tag k="ssr:hovedgruppe" v="infrastruktur" />
		<tag k="ssr:stedsnr" v="99820" />
		<tag k="ssr:type" v="vegstrekning" />
	</node>
	<node lat="61.36236128450641" lon="10.374220334865523" id="-42240">
		<tag k="name" v="Glømmesætervegen" />
		<tag k="ssr:date" v="2021-09-29" />
		<tag k="ssr:gruppe" v="veg" />
		<tag k="ssr:hovedgruppe" v="infrastruktur" />
		<tag k="ssr:stedsnr" v="342606" />
		<tag k="ssr:type" v="vegstrekning" />
	</node>
	<node lat="61.22533055712862" lon="10.613136109110249" id="-42384">
		<tag k="name" v="Pellevegen" />
		<tag k="ssr:date" v="2019-12-27" />
		<tag k="ssr:gruppe" v="veg" />
		<tag k="ssr:hovedgruppe" v="infrastruktur" />
		<tag k="ssr:stedsnr" v="525466" />
		<tag k="ssr:type" v="vegstrekning" />
	</node>
	<node lat="61.26350277682805" lon="10.571644446158755" id="-42544">
		<tag k="name" v="Hornsjøvegen" />
		<tag k="ssr:date" v="2019-12-27" />
		<tag k="ssr:gruppe" v="veg" />
		<tag k="ssr:hovedgruppe" v="infrastruktur" />
		<tag k="ssr:stedsnr" v="706608" />
		<tag k="ssr:type" v="vegstrekning" />
	</node>
	<node lat="61.32498055413953" lon="10.225775005852057" id="-42565">
		<tag k="alt_name" v="Djupedalsætervegen" />
		<tag k="name" v="Djupdalsætervegen" />
		<tag k="ssr:date" v="2019-12-27" />
		<tag k="ssr:gruppe" v="veg" />
		<tag k="ssr:hovedgruppe" v="infrastruktur" />
		<tag k="ssr:stedsnr" v="725876" />
		<tag k="ssr:type" v="vegstrekning" />
	</node>
	<node lat="61.31213610983861" lon="10.236291675942168" id="-42600">
		<tag k="name" v="Musdalssætervegen" />
		<tag k="ssr:date" v="2019-12-27" />
		<tag k="ssr:gruppe" v="veg" />
		<tag k="ssr:hovedgruppe" v="infrastruktur" />
		<tag k="ssr:stedsnr" v="907867" />
		<tag k="ssr:type" v="vegstrekning" />
	</node>
	<node lat="61.29429722174686" lon="10.433491666027962" id="-42641">
		<tag k="name" v="Akksjøsætervegen" />
		<tag k="ssr:date" v="2019-12-27" />
		<tag k="ssr:gruppe" v="veg" />
		<tag k="ssr:hovedgruppe" v="infrastruktur" />
		<tag k="ssr:stedsnr" v="828512" />
		<tag k="ssr:type" v="vegstrekning" />
	</node>
	<node lat="61.24631340130524" lon="10.58023789719528" id="-42645">
		<tag k="name" v="Hitvegen" />
		<tag k="ssr:date" v="2021-09-29" />
		<tag k="ssr:gruppe" v="veg" />
		<tag k="ssr:hovedgruppe" v="infrastruktur" />
		<tag k="ssr:stedsnr" v="828629" />
		<tag k="ssr:type" v="vegstrekning" />
	</node>
	<node lat="61.3457250011068" lon="10.36840833295979" id="-42646">
		<tag k="name" v="Østfjellvegen" />
		<tag k="ssr:date" v="2019-12-27" />
		<tag k="ssr:gruppe" v="veg" />
		<tag k="ssr:hovedgruppe" v="infrastruktur" />
		<tag k="ssr:stedsnr" v="828630" />
		<tag k="ssr:type" v="vegstrekning" />
	</node>
	<node lat="61.37764999763432" lon="10.336305553381827" id="-42648">
		<tag k="name" v="Nørdre Veslesætervegen" />
		<tag k="ssr:date" v="2019-12-27" />
		<tag k="ssr:gruppe" v="veg" />
		<tag k="ssr:hovedgruppe" v="infrastruktur" />
		<tag k="ssr:stedsnr" v="830283" />
		<tag k="ssr:type" v="vegstrekning" />
	</node>
	<node lat="61.23608889297122" lon="10.484908332652623" id="-42716">
		<tag k="name" v="Doldaveien" />
		<tag k="ssr:date" v="2019-12-27" />
		<tag k="ssr:gruppe" v="veg" />
		<tag k="ssr:hovedgruppe" v="infrastruktur" />
		<tag k="ssr:stedsnr" v="949630" />
		<tag k="ssr:type" v="vegstrekning" />
	</node>
	<node lat="61.268200002186795" lon="10.32715833639133" id="-42729">
		<tag k="name" v="Svartbergvegen" />
		<tag k="ssr:date" v="2019-12-27" />
		<tag k="ssr:gruppe" v="veg" />
		<tag k="ssr:hovedgruppe" v="infrastruktur" />
		<tag k="ssr:stedsnr" v="965046" />
		<tag k="ssr:type" v="vegstrekning" />
	</node>
	<node lat="61.28988055258746" lon="10.493422224988167" id="-42762">
		<tag k="name" v="Augsætervegen" />
		<tag k="ssr:date" v="2019-12-27" />
		<tag k="ssr:gruppe" v="veg" />
		<tag k="ssr:hovedgruppe" v="infrastruktur" />
		<tag k="ssr:stedsnr" v="39635" />
		<tag k="ssr:type" v="vegstrekning" />
	</node>
	<node lat="61.28074444067604" lon="10.551405557525948" id="-42765">
		<tag k="name" v="Rognhaugvegen" />
		<tag k="ssr:date" v="2019-12-27" />
		<tag k="ssr:gruppe" v="veg" />
		<tag k="ssr:hovedgruppe" v="infrastruktur" />
		<tag k="ssr:stedsnr" v="39823" />
		<tag k="ssr:type" v="vegstrekning" />
	</node>
	<node lat="61.27148055636791" lon="10.291411116565774" id="-42818">
		<tag k="name" v="Krokhaugvegen" />
		<tag k="ssr:date" v="2019-12-27" />
		<tag k="ssr:gruppe" v="veg" />
		<tag k="ssr:hovedgruppe" v="infrastruktur" />
		<tag k="ssr:stedsnr" v="116399" />
		<tag k="ssr:type" v="vegstrekning" />
	</node>
	<node lat="61.22599166718281" lon="10.579813882167636" id="-42846">
		<tag k="name" v="Pellevegen" />
		<tag k="ssr:date" v="2019-12-27" />
		<tag k="ssr:gruppe" v="veg" />
		<tag k="ssr:hovedgruppe" v="infrastruktur" />
		<tag k="ssr:stedsnr" v="160291" />
		<tag k="ssr:type" v="vegstrekning" />
	</node>
	<node lat="61.36167933241026" lon="10.846250955027797" id="-42854">
		<tag k="name" v="Birkebeinervegen" />
		<tag k="ssr:date" v="2021-09-29" />
		<tag k="ssr:gruppe" v="veg" />
		<tag k="ssr:hovedgruppe" v="infrastruktur" />
		<tag k="ssr:stedsnr" v="160732" />
		<tag k="ssr:type" v="vegstrekning" />
	</node>
	<node lat="61.26966111070776" lon="10.520700007522011" id="-42861">
		<tag k="name" v="Rognhaugvegen" />
		<tag k="ssr:date" v="2019-12-27" />
		<tag k="ssr:gruppe" v="veg" />
		<tag k="ssr:hovedgruppe" v="infrastruktur" />
		<tag k="ssr:stedsnr" v="160811" />
		<tag k="ssr:type" v="vegstrekning" />
	</node>
	<node lat="61.207427774898356" lon="10.457686103520293" id="-42866">
		<tag k="name" v="Bagstadvegen" />
		<tag k="ssr:date" v="2019-12-27" />
		<tag k="ssr:gruppe" v="veg" />
		<tag k="ssr:hovedgruppe" v="infrastruktur" />
		<tag k="ssr:stedsnr" v="162578" />
		<tag k="ssr:type" v="vegstrekning" />
	</node>
	<node lat="61.265833329995516" lon="10.418936104253687" id="-42961">
		<tag k="name" v="Krøplingen" />
		<tag k="ssr:date" v="2019-12-27" />
		<tag k="ssr:gruppe" v="veg" />
		<tag k="ssr:hovedgruppe" v="infrastruktur" />
		<tag k="ssr:stedsnr" v="342370" />
		<tag k="ssr:type" v="vegstrekning" />
	</node>
	<node lat="61.35892777955552" lon="10.213991666062759" id="-42991">
		<tag k="name" v="Roåkervegen" />
		<tag k="ssr:date" v="2019-12-27" />
		<tag k="ssr:gruppe" v="veg" />
		<tag k="ssr:hovedgruppe" v="infrastruktur" />
		<tag k="ssr:stedsnr" v="361843" />
		<tag k="ssr:type" v="vegstrekning" />
	</node>
	<node lat="61.233347222717526" lon="10.50873611675795" id="-43028">
		<tag k="name" v="Nysætervegen" />
		<tag k="ssr:date" v="2019-12-27" />
		<tag k="ssr:gruppe" v="veg" />
		<tag k="ssr:hovedgruppe" v="infrastruktur" />
		<tag k="ssr:stedsnr" v="403652" />
		<tag k="ssr:type" v="vegstrekning" />
	</node>
	<node lat="61.32103332929311" lon="10.449788879848002" id="-43099">
		<tag k="name" v="Pølvegen" />
		<tag k="ssr:date" v="2019-12-27" />
		<tag k="ssr:gruppe" v="veg" />
		<tag k="ssr:hovedgruppe" v="infrastruktur" />
		<tag k="ssr:stedsnr" v="526242" />
		<tag k="ssr:type" v="vegstrekning" />
	</node>
	<node lat="61.26867778011798" lon="10.348716658900235" id="-43196">
		<tag k="name" v="Rognstadvegen" />
		<tag k="ssr:date" v="2019-12-27" />
		<tag k="ssr:gruppe" v="veg" />
		<tag k="ssr:hovedgruppe" v="infrastruktur" />
		<tag k="ssr:stedsnr" v="722045" />
		<tag k="ssr:type" v="vegstrekning" />
	</node>
	<node lat="61.26494166239648" lon="10.412963887859375" id="-43216">
		<tag k="name" v="Øyer kommune" />
		<tag k="ssr:date" v="2019-12-27" />
		<tag k="ssr:gruppe" v="administrativeIndelinger" />
		<tag k="ssr:hovedgruppe" v="offentligAdministrasjon" />
		<tag k="ssr:stedsnr" v="754886" />
		<tag k="ssr:type" v="kommune" />
	</node>
	<node lat="61.31323333557226" lon="10.35113611293542" id="-43229">
		<tag k="name" v="Smørkampvegen" />
		<tag k="ssr:date" v="2019-12-27" />
		<tag k="ssr:gruppe" v="veg" />
		<tag k="ssr:hovedgruppe" v="infrastruktur" />
		<tag k="ssr:stedsnr" v="767415" />
		<tag k="ssr:type" v="vegstrekning" />
	</node>
	<node lat="61.3289444468476" lon="10.351419439386797" id="-43307">
		<tag k="name" v="Holmsætervegen" />
		<tag k="ssr:date" v="2019-12-27" />
		<tag k="ssr:gruppe" v="veg" />
		<tag k="ssr:hovedgruppe" v="infrastruktur" />
		<tag k="ssr:stedsnr" v="830312" />
		<tag k="ssr:type" v="vegstrekning" />
	</node>
	<node lat="61.24164328378178" lon="10.442050877120597" id="-43409">
		<tag k="name" v="Elgvegen" />
		<tag k="ssr:date" v="2019-12-27" />
		<tag k="ssr:gruppe" v="veg" />
		<tag k="ssr:hovedgruppe" v="infrastruktur" />
		<tag k="ssr:stedsnr" v="1013357" />
		<tag k="ssr:type" v="adressenavn" />
	</node>
	<node lat="61.241267264477415" lon="10.442234192862609" id="-43410">
		<tag k="name" v="Ekornvegen" />
		<tag k="ssr:date" v="2019-12-27" />
		<tag k="ssr:gruppe" v="veg" />
		<tag k="ssr:hovedgruppe" v="infrastruktur" />
		<tag k="ssr:stedsnr" v="1013365" />
		<tag k="ssr:type" v="adressenavn" />
	</node>
	<node lat="61.24757923262353" lon="10.445944045128403" id="-43411">
		<tag k="name" v="Einervegen" />
		<tag k="ssr:date" v="2019-12-27" />
		<tag k="ssr:gruppe" v="veg" />
		<tag k="ssr:hovedgruppe" v="infrastruktur" />
		<tag k="ssr:stedsnr" v="1013366" />
		<tag k="ssr:type" v="adressenavn" />
	</node>
	<node lat="61.23584216489955" lon="10.444754236332153" id="-43412">
		<tag k="name" v="Gamlevegen" />
		<tag k="ssr:date" v="2019-12-27" />
		<tag k="ssr:gruppe" v="veg" />
		<tag k="ssr:hovedgruppe" v="infrastruktur" />
		<tag k="ssr:stedsnr" v="1013539" />
		<tag k="ssr:type" v="adressenavn" />
	</node>
	<node lat="61.238824319066914" lon="10.443999011168678" id="-43413">
		<tag k="name" v="Harevegen" />
		<tag k="ssr:date" v="2019-12-27" />
		<tag k="ssr:gruppe" v="veg" />
		<tag k="ssr:hovedgruppe" v="infrastruktur" />
		<tag k="ssr:stedsnr" v="1013549" />
		<tag k="ssr:type" v="adressenavn" />
	</node>
	<node lat="61.24156010604154" lon="10.439053227415249" id="-43414">
		<tag k="name" v="Granrudvegen" />
		<tag k="ssr:date" v="2019-12-27" />
		<tag k="ssr:gruppe" v="veg" />
		<tag k="ssr:hovedgruppe" v="infrastruktur" />
		<tag k="ssr:stedsnr" v="1013556" />
		<tag k="ssr:type" v="adressenavn" />
	</node>
	<node lat="61.2452203781759" lon="10.44837634932192" id="-43415">
		<tag k="name" v="Furuvegen" />
		<tag k="ssr:date" v="2019-12-27" />
		<tag k="ssr:gruppe" v="veg" />
		<tag k="ssr:hovedgruppe" v="infrastruktur" />
		<tag k="ssr:stedsnr" v="1013583" />
		<tag k="ssr:type" v="adressenavn" />
	</node>
	<node lat="61.242883922808254" lon="10.443642083014879" id="-43416">
		<tag k="name" v="Bakkevegen" />
		<tag k="ssr:date" v="2019-12-27" />
		<tag k="ssr:gruppe" v="veg" />
		<tag k="ssr:hovedgruppe" v="infrastruktur" />
		<tag k="ssr:stedsnr" v="1013716" />
		<tag k="ssr:type" v="adressenavn" />
	</node>
	<node lat="61.26798186123781" lon="10.412096001739252" id="-43417">
		<tag k="name" v="Bokfinkvegen" />
		<tag k="ssr:date" v="2019-12-27" />
		<tag k="ssr:gruppe" v="veg" />
		<tag k="ssr:hovedgruppe" v="infrastruktur" />
		<tag k="ssr:stedsnr" v="1013816" />
		<tag k="ssr:type" v="adressenavn" />
	</node>
	<node lat="61.24250305499303" lon="10.438928893771223" id="-43418">
		<tag k="name" v="Kongsvegen" />
		<tag k="ssr:date" v="2019-12-27" />
		<tag k="ssr:gruppe" v="veg" />
		<tag k="ssr:hovedgruppe" v="infrastruktur" />
		<tag k="ssr:stedsnr" v="1014464" />
		<tag k="ssr:type" v="adressenavn" />
	</node>
	<node lat="61.25047897160988" lon="10.442189613668612" id="-43419">
		<tag k="name" v="Kroken" />
		<tag k="ssr:date" v="2019-12-27" />
		<tag k="ssr:gruppe" v="veg" />
		<tag k="ssr:hovedgruppe" v="infrastruktur" />
		<tag k="ssr:stedsnr" v="1014539" />
		<tag k="ssr:type" v="adressenavn" />
	</node>
	<node lat="61.25000622922384" lon="10.443576517085548" id="-43420">
		<tag k="name" v="Konglevegen" />
		<tag k="ssr:date" v="2019-12-27" />
		<tag k="ssr:gruppe" v="veg" />
		<tag k="ssr:hovedgruppe" v="infrastruktur" />
		<tag k="ssr:stedsnr" v="1014560" />
		<tag k="ssr:type" v="adressenavn" />
	</node>
	<node lat="61.25345237926768" lon="10.437047826203491" id="-43421">
		<tag k="name" v="Måsåvegen" />
		<tag k="ssr:date" v="2019-12-27" />
		<tag k="ssr:gruppe" v="veg" />
		<tag k="ssr:hovedgruppe" v="infrastruktur" />
		<tag k="ssr:stedsnr" v="1014046" />
		<tag k="ssr:type" v="adressenavn" />
	</node>
	<node lat="61.26343932921086" lon="10.42107243288982" id="-43422">
		<tag k="name" v="Moshusvegen" />
		<tag k="ssr:date" v="2019-12-27" />
		<tag k="ssr:gruppe" v="veg" />
		<tag k="ssr:hovedgruppe" v="infrastruktur" />
		<tag k="ssr:stedsnr" v="1014080" />
		<tag k="ssr:type" v="adressenavn" />
	</node>
	<node lat="61.24390634981237" lon="10.44998681989207" id="-43423">
		<tag k="name" v="Nermoshågån" />
		<tag k="ssr:date" v="2019-12-27" />
		<tag k="ssr:gruppe" v="veg" />
		<tag k="ssr:hovedgruppe" v="infrastruktur" />
		<tag k="ssr:stedsnr" v="1014183" />
		<tag k="ssr:type" v="adressenavn" />
	</node>
	<node lat="61.262934954161665" lon="10.401137027532448" id="-43424">
		<tag k="name" v="Rabbevegen" />
		<tag k="ssr:date" v="2019-12-27" />
		<tag k="ssr:gruppe" v="veg" />
		<tag k="ssr:hovedgruppe" v="infrastruktur" />
		<tag k="ssr:stedsnr" v="1014230" />
		<tag k="ssr:type" v="adressenavn" />
	</node>
	<node lat="61.238254500042785" lon="10.449498950186157" id="-43425">
		<tag k="name" v="Nordlia" />
		<tag k="ssr:date" v="2019-12-27" />
		<tag k="ssr:gruppe" v="veg" />
		<tag k="ssr:hovedgruppe" v="infrastruktur" />
		<tag k="ssr:stedsnr" v="1014120" />
		<tag k="ssr:type" v="adressenavn" />
	</node>
	<node lat="61.242109097054005" lon="10.443770296500709" id="-43426">
		<tag k="name" v="Hjortevegen" />
		<tag k="ssr:date" v="2019-12-27" />
		<tag k="ssr:gruppe" v="veg" />
		<tag k="ssr:hovedgruppe" v="infrastruktur" />
		<tag k="ssr:stedsnr" v="1014338" />
		<tag k="ssr:type" v="adressenavn" />
	</node>
	<node lat="61.24501979573802" lon="10.441320344716255" id="-43427">
		<tag k="name" v="Lyngvegen" />
		<tag k="ssr:date" v="2019-12-27" />
		<tag k="ssr:gruppe" v="veg" />
		<tag k="ssr:hovedgruppe" v="infrastruktur" />
		<tag k="ssr:stedsnr" v="1014359" />
		<tag k="ssr:type" v="adressenavn" />
	</node>
	<node lat="61.26748221859325" lon="10.41423111198311" id="-43428">
		<tag k="name" v="Lerkevegen" />
		<tag k="ssr:date" v="2019-12-27" />
		<tag k="ssr:gruppe" v="veg" />
		<tag k="ssr:hovedgruppe" v="infrastruktur" />
		<tag k="ssr:stedsnr" v="1014396" />
		<tag k="ssr:type" v="adressenavn" />
	</node>
	<node lat="61.25260897929599" lon="10.43926690061406" id="-43429">
		<tag k="name" v="Kneiken" />
		<tag k="ssr:date" v="2019-12-27" />
		<tag k="ssr:gruppe" v="veg" />
		<tag k="ssr:hovedgruppe" v="infrastruktur" />
		<tag k="ssr:stedsnr" v="1014504" />
		<tag k="ssr:type" v="adressenavn" />
	</node>
	<node lat="61.26477297050254" lon="10.414852824660853" id="-43430">
		<tag k="name" v="Klokkerstien" />
		<tag k="ssr:date" v="2019-12-27" />
		<tag k="ssr:gruppe" v="veg" />
		<tag k="ssr:hovedgruppe" v="infrastruktur" />
		<tag k="ssr:stedsnr" v="1014514" />
		<tag k="ssr:type" v="adressenavn" />
	</node>
	<node lat="61.26155149835937" lon="10.432942795180448" id="-43431">
		<tag k="name" v="Kirkevegen" />
		<tag k="ssr:date" v="2019-12-27" />
		<tag k="ssr:gruppe" v="veg" />
		<tag k="ssr:hovedgruppe" v="infrastruktur" />
		<tag k="ssr:stedsnr" v="1014517" />
		<tag k="ssr:type" v="adressenavn" />
	</node>
	<node lat="61.267665698301705" lon="10.392440169812533" id="-43432">
		<tag k="name" v="Nymogutua" />
		<tag k="ssr:date" v="2019-12-27" />
		<tag k="ssr:gruppe" v="veg" />
		<tag k="ssr:hovedgruppe" v="infrastruktur" />
		<tag k="ssr:stedsnr" v="1014798" />
		<tag k="ssr:type" v="adressenavn" />
	</node>
	<node lat="61.27332930173187" lon="10.419407273615674" id="-43433">
		<tag k="name" v="Vedumsvegen" />
		<tag k="ssr:date" v="2019-12-27" />
		<tag k="ssr:gruppe" v="veg" />
		<tag k="ssr:hovedgruppe" v="infrastruktur" />
		<tag k="ssr:stedsnr" v="1014915" />
		<tag k="ssr:type" v="adressenavn" />
	</node>
	<node lat="61.23923424701874" lon="10.426841793727528" id="-43434">
		<tag k="name" v="Viksvevegen" />
		<tag k="ssr:date" v="2019-12-27" />
		<tag k="ssr:gruppe" v="veg" />
		<tag k="ssr:hovedgruppe" v="infrastruktur" />
		<tag k="ssr:stedsnr" v="1014852" />
		<tag k="ssr:type" v="adressenavn" />
	</node>
	<node lat="61.28829954905233" lon="10.36537025343084" id="-43435">
		<tag k="name" v="Veltevegen" />
		<tag k="ssr:date" v="2019-12-27" />
		<tag k="ssr:gruppe" v="veg" />
		<tag k="ssr:hovedgruppe" v="infrastruktur" />
		<tag k="ssr:stedsnr" v="1014876" />
		<tag k="ssr:type" v="adressenavn" />
	</node>
	<node lat="61.23846556544385" lon="10.427851775903195" id="-43436">
		<tag k="name" v="Vestsidevegen" />
		<tag k="ssr:date" v="2019-12-27" />
		<tag k="ssr:gruppe" v="veg" />
		<tag k="ssr:hovedgruppe" v="infrastruktur" />
		<tag k="ssr:stedsnr" v="1014932" />
		<tag k="ssr:type" v="adressenavn" />
	</node>
	<node lat="61.20645598517302" lon="10.431720837477549" id="-43437">
		<tag k="name" v="Tyttebærskogen" />
		<tag k="ssr:date" v="2019-12-27" />
		<tag k="ssr:gruppe" v="veg" />
		<tag k="ssr:hovedgruppe" v="infrastruktur" />
		<tag k="ssr:stedsnr" v="1014980" />
		<tag k="ssr:type" v="adressenavn" />
	</node>
	<node lat="61.262934954161665" lon="10.401137027532448" id="-43438">
		<tag k="name" v="Øygardsvegen" />
		<tag k="ssr:date" v="2019-12-27" />
		<tag k="ssr:gruppe" v="veg" />
		<tag k="ssr:hovedgruppe" v="infrastruktur" />
		<tag k="ssr:stedsnr" v="1014990" />
		<tag k="ssr:type" v="adressenavn" />
	</node>
	<node lat="61.26808161561081" lon="10.410979364201518" id="-43439">
		<tag k="name" v="Sisikvegen" />
		<tag k="ssr:date" v="2019-12-27" />
		<tag k="ssr:gruppe" v="veg" />
		<tag k="ssr:hovedgruppe" v="infrastruktur" />
		<tag k="ssr:stedsnr" v="1016050" />
		<tag k="ssr:type" v="adressenavn" />
	</node>
	<node lat="61.267869828665894" lon="10.41289052777862" id="-43440">
		<tag k="name" v="Moshushågån" />
		<tag k="ssr:date" v="2019-12-27" />
		<tag k="ssr:gruppe" v="veg" />
		<tag k="ssr:hovedgruppe" v="infrastruktur" />
		<tag k="ssr:stedsnr" v="1016054" />
		<tag k="ssr:type" v="adressenavn" />
	</node>
	<node lat="61.24120661786689" lon="10.468353385519121" id="-43441">
		<tag k="name" v="Lysengvegen" />
		<tag k="ssr:date" v="2019-12-27" />
		<tag k="ssr:gruppe" v="veg" />
		<tag k="ssr:hovedgruppe" v="infrastruktur" />
		<tag k="ssr:stedsnr" v="1016139" />
		<tag k="ssr:type" v="adressenavn" />
	</node>
	<node lat="61.261646642025575" lon="10.409229175259037" id="-43442">
		<tag k="name" v="Sundgårdsvegen" />
		<tag k="ssr:date" v="2019-12-27" />
		<tag k="ssr:gruppe" v="veg" />
		<tag k="ssr:hovedgruppe" v="infrastruktur" />
		<tag k="ssr:stedsnr" v="1015645" />
		<tag k="ssr:type" v="adressenavn" />
	</node>
	<node lat="61.23117431641119" lon="10.452116955822211" id="-43443">
		<tag k="name" v="Sørlia" />
		<tag k="ssr:date" v="2019-12-27" />
		<tag k="ssr:gruppe" v="veg" />
		<tag k="ssr:hovedgruppe" v="infrastruktur" />
		<tag k="ssr:stedsnr" v="1015627" />
		<tag k="ssr:type" v="adressenavn" />
	</node>
	<node lat="61.26664164712847" lon="10.410002887420012" id="-43444">
		<tag k="name" v="Tunfaret" />
		<tag k="ssr:date" v="2019-12-27" />
		<tag k="ssr:gruppe" v="veg" />
		<tag k="ssr:hovedgruppe" v="infrastruktur" />
		<tag k="ssr:stedsnr" v="1015777" />
		<tag k="ssr:type" v="adressenavn" />
	</node>
	<node lat="61.26478806969727" lon="10.412388461562252" id="-43445">
		<tag k="name" v="Tingbergvegen" />
		<tag k="ssr:date" v="2019-12-27" />
		<tag k="ssr:gruppe" v="veg" />
		<tag k="ssr:hovedgruppe" v="infrastruktur" />
		<tag k="ssr:stedsnr" v="1015919" />
		<tag k="ssr:type" v="adressenavn" />
	</node>
	<node lat="61.26235290019446" lon="10.406546459671404" id="-43446">
		<tag k="name" v="Stasjonsvegen" />
		<tag k="ssr:date" v="2019-12-27" />
		<tag k="ssr:gruppe" v="veg" />
		<tag k="ssr:hovedgruppe" v="infrastruktur" />
		<tag k="ssr:stedsnr" v="1015991" />
		<tag k="ssr:type" v="adressenavn" />
	</node>
	<node lat="61.24220894902729" lon="10.43354586671428" id="-43447">
		<tag k="name" v="Strømshuguvegen" />
		<tag k="ssr:date" v="2019-12-27" />
		<tag k="ssr:gruppe" v="veg" />
		<tag k="ssr:hovedgruppe" v="infrastruktur" />
		<tag k="ssr:stedsnr" v="1015998" />
		<tag k="ssr:type" v="adressenavn" />
	</node>
	<node lat="61.244114371948314" lon="10.440524083859072" id="-43448">
		<tag k="name" v="Sportsvegen" />
		<tag k="ssr:date" v="2019-12-27" />
		<tag k="ssr:gruppe" v="veg" />
		<tag k="ssr:hovedgruppe" v="infrastruktur" />
		<tag k="ssr:stedsnr" v="1016010" />
		<tag k="ssr:type" v="adressenavn" />
	</node>
	<node lat="61.24293001049269" lon="10.445895909697851" id="-43449">
		<tag k="name" v="Slettmoringen" />
		<tag k="ssr:date" v="2019-12-27" />
		<tag k="ssr:gruppe" v="veg" />
		<tag k="ssr:hovedgruppe" v="infrastruktur" />
		<tag k="ssr:stedsnr" v="1016018" />
		<tag k="ssr:type" v="adressenavn" />
	</node>
	<node lat="61.24504766325972" lon="10.439558095676487" id="-43450">
		<tag k="name" v="Skogvegen" />
		<tag k="ssr:date" v="2019-12-27" />
		<tag k="ssr:gruppe" v="veg" />
		<tag k="ssr:hovedgruppe" v="infrastruktur" />
		<tag k="ssr:stedsnr" v="1016020" />
		<tag k="ssr:type" v="adressenavn" />
	</node>
	<node lat="61.239797591278744" lon="10.442654465855433" id="-43451">
		<tag k="name" v="Rådyrvegen" />
		<tag k="ssr:date" v="2019-12-27" />
		<tag k="ssr:gruppe" v="veg" />
		<tag k="ssr:hovedgruppe" v="infrastruktur" />
		<tag k="ssr:stedsnr" v="1015957" />
		<tag k="ssr:type" v="adressenavn" />
	</node>
	<node lat="61.263280419745726" lon="10.406291242541677" id="-43452">
		<tag k="name" v="Strømsvegen" />
		<tag k="ssr:date" v="2019-12-27" />
		<tag k="ssr:gruppe" v="veg" />
		<tag k="ssr:hovedgruppe" v="infrastruktur" />
		<tag k="ssr:stedsnr" v="1015963" />
		<tag k="ssr:type" v="adressenavn" />
	</node>
	<node lat="61.26514586894023" lon="10.436140352913924" id="-43453">
		<tag k="name" v="Midtbygdsvegen" />
		<tag k="ssr:date" v="2019-12-27" />
		<tag k="ssr:gruppe" v="veg" />
		<tag k="ssr:hovedgruppe" v="infrastruktur" />
		<tag k="ssr:stedsnr" v="1016115" />
		<tag k="ssr:type" v="adressenavn" />
	</node>
	<node lat="61.31195132281603" lon="10.302329511502387" id="-43454">
		<tag k="name" v="Doktorbakken" />
		<tag k="ssr:date" v="2019-12-27" />
		<tag k="ssr:gruppe" v="veg" />
		<tag k="ssr:hovedgruppe" v="infrastruktur" />
		<tag k="ssr:stedsnr" v="1017429" />
		<tag k="ssr:type" v="adressenavn" />
	</node>
	<node lat="61.27479600224742" lon="10.39330572141491" id="-43455">
		<tag k="name" v="Kramprudvegen" />
		<tag k="ssr:date" v="2019-12-27" />
		<tag k="ssr:gruppe" v="veg" />
		<tag k="ssr:hovedgruppe" v="infrastruktur" />
		<tag k="ssr:stedsnr" v="1016195" />
		<tag k="ssr:type" v="adressenavn" />
	</node>
	<node lat="61.2889304269333" lon="10.348103600679318" id="-43456">
		<tag k="name" v="Kananvegen" />
		<tag k="ssr:date" v="2019-12-27" />
		<tag k="ssr:gruppe" v="veg" />
		<tag k="ssr:hovedgruppe" v="infrastruktur" />
		<tag k="ssr:stedsnr" v="1016220" />
		<tag k="ssr:type" v="adressenavn" />
	</node>
	<node lat="61.190951309223216" lon="10.415513776715327" id="-43457">
		<tag k="name" v="Hundervegen" />
		<tag k="ssr:date" v="2019-12-27" />
		<tag k="ssr:gruppe" v="veg" />
		<tag k="ssr:hovedgruppe" v="infrastruktur" />
		<tag k="ssr:stedsnr" v="1016235" />
		<tag k="ssr:type" v="adressenavn" />
	</node>
	<node lat="61.183055804919846" lon="10.418653628258035" id="-43458">
		<tag k="name" v="Gudbrandsdalsvegen" />
		<tag k="ssr:date" v="2019-12-27" />
		<tag k="ssr:gruppe" v="veg" />
		<tag k="ssr:hovedgruppe" v="infrastruktur" />
		<tag k="ssr:stedsnr" v="1016295" />
		<tag k="ssr:type" v="adressenavn" />
	</node>
	<node lat="61.22040653064828" lon="10.463793986170074" id="-43459">
		<tag k="name" v="Gamle Hundersætervegen" />
		<tag k="ssr:date" v="2019-12-27" />
		<tag k="ssr:gruppe" v="veg" />
		<tag k="ssr:hovedgruppe" v="infrastruktur" />
		<tag k="ssr:stedsnr" v="1016304" />
		<tag k="ssr:type" v="adressenavn" />
	</node>
	<node lat="61.221134853062004" lon="10.465784482349637" id="-43460">
		<tag k="name" v="Fjellstadvegen" />
		<tag k="ssr:date" v="2019-12-27" />
		<tag k="ssr:gruppe" v="veg" />
		<tag k="ssr:hovedgruppe" v="infrastruktur" />
		<tag k="ssr:stedsnr" v="1016311" />
		<tag k="ssr:type" v="adressenavn" />
	</node>
	<node lat="61.26187408002745" lon="10.407866246694883" id="-43461">
		<tag k="name" v="Industrivegen" />
		<tag k="ssr:date" v="2019-12-27" />
		<tag k="ssr:gruppe" v="veg" />
		<tag k="ssr:hovedgruppe" v="infrastruktur" />
		<tag k="ssr:stedsnr" v="1016241" />
		<tag k="ssr:type" v="adressenavn" />
	</node>
	<node lat="61.234287338023435" lon="10.42871416549631" id="-43462">
		<tag k="name" v="Hunderfossvegen" />
		<tag k="ssr:date" v="2019-12-27" />
		<tag k="ssr:gruppe" v="veg" />
		<tag k="ssr:hovedgruppe" v="infrastruktur" />
		<tag k="ssr:stedsnr" v="1016258" />
		<tag k="ssr:type" v="adressenavn" />
	</node>
	<node lat="61.25874484702695" lon="10.42809453797483" id="-43463">
		<tag k="name" v="Haugsgutua" />
		<tag k="ssr:date" v="2019-12-27" />
		<tag k="ssr:gruppe" v="veg" />
		<tag k="ssr:hovedgruppe" v="infrastruktur" />
		<tag k="ssr:stedsnr" v="1016270" />
		<tag k="ssr:type" v="adressenavn" />
	</node>
	<node lat="61.24852843465109" lon="10.458619163508448" id="-43464">
		<tag k="name" v="Hornsjøvegen" />
		<tag k="ssr:date" v="2019-12-27" />
		<tag k="ssr:gruppe" v="veg" />
		<tag k="ssr:hovedgruppe" v="infrastruktur" />
		<tag k="ssr:stedsnr" v="1016276" />
		<tag k="ssr:type" v="adressenavn" />
	</node>
	<node lat="61.25812643807303" lon="10.44769355304284" id="-43465">
		<tag k="name" v="Trovegen" />
		<tag k="ssr:date" v="2019-12-27" />
		<tag k="ssr:gruppe" v="veg" />
		<tag k="ssr:hovedgruppe" v="infrastruktur" />
		<tag k="ssr:stedsnr" v="1016347" />
		<tag k="ssr:type" v="adressenavn" />
	</node>
	<node lat="61.206743994723965" lon="10.432412034947339" id="-43466">
		<tag k="name" v="Sørbygdsvegen" />
		<tag k="ssr:date" v="2019-12-27" />
		<tag k="ssr:gruppe" v="veg" />
		<tag k="ssr:hovedgruppe" v="infrastruktur" />
		<tag k="ssr:stedsnr" v="1016402" />
		<tag k="ssr:type" v="adressenavn" />
	</node>
	<node lat="61.27922286229357" lon="10.41442308559948" id="-43467">
		<tag k="name" v="Skåevegen" />
		<tag k="ssr:date" v="2019-12-27" />
		<tag k="ssr:gruppe" v="veg" />
		<tag k="ssr:hovedgruppe" v="infrastruktur" />
		<tag k="ssr:stedsnr" v="1016428" />
		<tag k="ssr:type" v="adressenavn" />
	</node>
	<node lat="61.268351267002245" lon="10.4111966821245" id="-43468">
		<tag k="name" v="Prestgardshågån" />
		<tag k="ssr:date" v="2019-12-27" />
		<tag k="ssr:gruppe" v="veg" />
		<tag k="ssr:hovedgruppe" v="infrastruktur" />
		<tag k="ssr:stedsnr" v="1016493" />
		<tag k="ssr:type" v="adressenavn" />
	</node>
	<node lat="61.26401295747868" lon="10.318758777655786" id="-43469">
		<tag k="name" v="Rognstadvegen" />
		<tag k="ssr:date" v="2019-12-27" />
		<tag k="ssr:gruppe" v="veg" />
		<tag k="ssr:hovedgruppe" v="infrastruktur" />
		<tag k="ssr:stedsnr" v="1016450" />
		<tag k="ssr:type" v="adressenavn" />
	</node>
	<node lat="61.2291545207564" lon="10.447300603345319" id="-43470">
		<tag k="name" v="Måkrudgutua" />
		<tag k="ssr:date" v="2019-12-27" />
		<tag k="ssr:gruppe" v="veg" />
		<tag k="ssr:hovedgruppe" v="infrastruktur" />
		<tag k="ssr:stedsnr" v="1016543" />
		<tag k="ssr:type" v="adressenavn" />
	</node>
	<node lat="61.243620511940996" lon="10.448548920480672" id="-43471">
		<tag k="name" v="Nermosvegen" />
		<tag k="ssr:date" v="2019-12-27" />
		<tag k="ssr:gruppe" v="veg" />
		<tag k="ssr:hovedgruppe" v="infrastruktur" />
		<tag k="ssr:stedsnr" v="1016552" />
		<tag k="ssr:type" v="adressenavn" />
	</node>
	<node lat="61.237992953292434" lon="10.459704788678076" id="-43472">
		<tag k="name" v="Mosætervegen" />
		<tag k="ssr:date" v="2019-12-27" />
		<tag k="ssr:gruppe" v="veg" />
		<tag k="ssr:hovedgruppe" v="infrastruktur" />
		<tag k="ssr:stedsnr" v="1016576" />
		<tag k="ssr:type" v="adressenavn" />
	</node>
	<node lat="61.25443833545669" lon="10.43719709207593" id="-43473">
		<tag k="name" v="Ole Stenens veg" />
		<tag k="ssr:date" v="2019-12-27" />
		<tag k="ssr:gruppe" v="veg" />
		<tag k="ssr:hovedgruppe" v="infrastruktur" />
		<tag k="ssr:stedsnr" v="1016519" />
		<tag k="ssr:type" v="adressenavn" />
	</node>
	<node lat="61.296022535261194" lon="10.413166653002909" id="-43474">
		<tag k="name" v="Nordbygdsvegen" />
		<tag k="ssr:date" v="2019-12-27" />
		<tag k="ssr:gruppe" v="veg" />
		<tag k="ssr:hovedgruppe" v="infrastruktur" />
		<tag k="ssr:stedsnr" v="1016522" />
		<tag k="ssr:type" v="adressenavn" />
	</node>
	<node lat="61.2435436355236" lon="10.446116423189698" id="-43475">
		<tag k="name" v="Utsikten" />
		<tag k="ssr:date" v="2019-12-27" />
		<tag k="ssr:gruppe" v="veg" />
		<tag k="ssr:hovedgruppe" v="infrastruktur" />
		<tag k="ssr:stedsnr" v="1016629" />
		<tag k="ssr:type" v="adressenavn" />
	</node>
	<node lat="61.24236116684005" lon="10.43406179530261" id="-43476">
		<tag k="name" v="Fiskehusvegen" />
		<tag k="ssr:date" v="2019-12-27" />
		<tag k="ssr:gruppe" v="veg" />
		<tag k="ssr:hovedgruppe" v="infrastruktur" />
		<tag k="ssr:stedsnr" v="1016945" />
		<tag k="ssr:type" v="adressenavn" />
	</node>
	<node lat="61.26109588931366" lon="10.43364586140375" id="-43477">
		<tag k="name" v="Brynsgutua" />
		<tag k="ssr:date" v="2019-12-27" />
		<tag k="ssr:gruppe" v="veg" />
		<tag k="ssr:hovedgruppe" v="infrastruktur" />
		<tag k="ssr:stedsnr" v="1017043" />
		<tag k="ssr:type" v="adressenavn" />
	</node>
	<node lat="61.240885246823034" lon="10.425034271379612" id="-43478">
		<tag k="name" v="Buttvegen" />
		<tag k="ssr:date" v="2019-12-27" />
		<tag k="ssr:gruppe" v="veg" />
		<tag k="ssr:hovedgruppe" v="infrastruktur" />
		<tag k="ssr:stedsnr" v="1017002" />
		<tag k="ssr:type" v="adressenavn" />
	</node>
	<node lat="61.19552550555273" lon="10.417371953252786" id="-43479">
		<tag k="name" v="Andersstuguvegen" />
		<tag k="ssr:date" v="2019-12-27" />
		<tag k="ssr:gruppe" v="veg" />
		<tag k="ssr:hovedgruppe" v="infrastruktur" />
		<tag k="ssr:stedsnr" v="1017164" />
		<tag k="ssr:type" v="adressenavn" />
	</node>
	<node lat="61.22020435427137" lon="10.457026481089414" id="-43480">
		<tag k="name" v="Bagstadvegen" />
		<tag k="ssr:date" v="2019-12-27" />
		<tag k="ssr:gruppe" v="veg" />
		<tag k="ssr:hovedgruppe" v="infrastruktur" />
		<tag k="ssr:stedsnr" v="1017128" />
		<tag k="ssr:type" v="adressenavn" />
	</node>
	<node lat="61.322606709910275" lon="10.291139018585357" id="-43481">
		<tag k="name" v="Bådstølykkja" />
		<tag k="ssr:date" v="2019-12-27" />
		<tag k="ssr:gruppe" v="veg" />
		<tag k="ssr:hovedgruppe" v="infrastruktur" />
		<tag k="ssr:stedsnr" v="1017911" />
		<tag k="ssr:type" v="adressenavn" />
	</node>
	<node lat="61.310071935715975" lon="10.313470822740664" id="-43482">
		<tag k="name" v="Fonstadvegen" />
		<tag k="ssr:date" v="2019-12-27" />
		<tag k="ssr:gruppe" v="veg" />
		<tag k="ssr:hovedgruppe" v="infrastruktur" />
		<tag k="ssr:stedsnr" v="1017474" />
		<tag k="ssr:type" v="adressenavn" />
	</node>
	<node lat="61.357877113800946" lon="10.287147323424364" id="-43483">
		<tag k="name" v="Flåtåmovegen" />
		<tag k="ssr:date" v="2019-12-27" />
		<tag k="ssr:gruppe" v="veg" />
		<tag k="ssr:hovedgruppe" v="infrastruktur" />
		<tag k="ssr:stedsnr" v="1017480" />
		<tag k="ssr:type" v="adressenavn" />
	</node>
	<node lat="61.31872726413033" lon="10.327629806053773" id="-43484">
		<tag k="name" v="Holmsætervegen" />
		<tag k="ssr:date" v="2019-12-27" />
		<tag k="ssr:gruppe" v="veg" />
		<tag k="ssr:hovedgruppe" v="infrastruktur" />
		<tag k="ssr:stedsnr" v="1017566" />
		<tag k="ssr:type" v="adressenavn" />
	</node>
	<node lat="61.31519744847796" lon="10.30545478678754" id="-43485">
		<tag k="name" v="Furumoen" />
		<tag k="ssr:date" v="2019-12-27" />
		<tag k="ssr:gruppe" v="veg" />
		<tag k="ssr:hovedgruppe" v="infrastruktur" />
		<tag k="ssr:stedsnr" v="1017570" />
		<tag k="ssr:type" v="adressenavn" />
	</node>
	<node lat="61.29744724823177" lon="10.267056607869849" id="-43486">
		<tag k="name" v="Bjørnstadvegen" />
		<tag k="ssr:date" v="2019-12-27" />
		<tag k="ssr:gruppe" v="veg" />
		<tag k="ssr:hovedgruppe" v="infrastruktur" />
		<tag k="ssr:stedsnr" v="1018261" />
		<tag k="ssr:type" v="adressenavn" />
	</node>
	<node lat="61.31380587027187" lon="10.304123667619917" id="-43487">
		<tag k="name" v="Bekkevegen" />
		<tag k="ssr:date" v="2019-12-27" />
		<tag k="ssr:gruppe" v="veg" />
		<tag k="ssr:hovedgruppe" v="infrastruktur" />
		<tag k="ssr:stedsnr" v="1018296" />
		<tag k="ssr:type" v="adressenavn" />
	</node>
	<node lat="61.373133563350855" lon="10.249317232853524" id="-43488">
		<tag k="name" v="Roåkervegen" />
		<tag k="ssr:date" v="2019-12-27" />
		<tag k="ssr:gruppe" v="veg" />
		<tag k="ssr:hovedgruppe" v="infrastruktur" />
		<tag k="ssr:stedsnr" v="1018471" />
		<tag k="ssr:type" v="adressenavn" />
	</node>
	<node lat="61.3496310657624" lon="10.309381079463172" id="-43489">
		<tag k="name" v="Krukhaugvegen" />
		<tag k="ssr:date" v="2019-12-27" />
		<tag k="ssr:gruppe" v="veg" />
		<tag k="ssr:hovedgruppe" v="infrastruktur" />
		<tag k="ssr:stedsnr" v="1018543" />
		<tag k="ssr:type" v="adressenavn" />
	</node>
	<node lat="61.30851340026243" lon="10.296817575450184" id="-43490">
		<tag k="name" v="Kolhusvegen" />
		<tag k="ssr:date" v="2019-12-27" />
		<tag k="ssr:gruppe" v="veg" />
		<tag k="ssr:hovedgruppe" v="infrastruktur" />
		<tag k="ssr:stedsnr" v="1018546" />
		<tag k="ssr:type" v="adressenavn" />
	</node>
	<node lat="61.31696824183612" lon="10.32815316585049" id="-43491">
		<tag k="name" v="Kråbølstuguvegen" />
		<tag k="ssr:date" v="2019-12-27" />
		<tag k="ssr:gruppe" v="veg" />
		<tag k="ssr:hovedgruppe" v="infrastruktur" />
		<tag k="ssr:stedsnr" v="1018549" />
		<tag k="ssr:type" v="adressenavn" />
	</node>
	<node lat="61.2829774733618" lon="10.264639764697018" id="-43492">
		<tag k="name" v="Korketrekkeren" />
		<tag k="ssr:date" v="2019-12-27" />
		<tag k="ssr:gruppe" v="veg" />
		<tag k="ssr:hovedgruppe" v="infrastruktur" />
		<tag k="ssr:stedsnr" v="1018553" />
		<tag k="ssr:type" v="adressenavn" />
	</node>
	<node lat="61.319921395162226" lon="10.30146852785261" id="-43493">
		<tag k="name" v="Kneika" />
		<tag k="ssr:date" v="2019-12-27" />
		<tag k="ssr:gruppe" v="veg" />
		<tag k="ssr:hovedgruppe" v="infrastruktur" />
		<tag k="ssr:stedsnr" v="1018562" />
		<tag k="ssr:type" v="adressenavn" />
	</node>
	<node lat="61.297444755530854" lon="10.267201526299997" id="-43494">
		<tag k="name" v="Polavegen" />
		<tag k="ssr:date" v="2019-12-27" />
		<tag k="ssr:gruppe" v="veg" />
		<tag k="ssr:hovedgruppe" v="infrastruktur" />
		<tag k="ssr:stedsnr" v="1018491" />
		<tag k="ssr:type" v="adressenavn" />
	</node>
	<node lat="61.2955792960443" lon="10.30538257408665" id="-43495">
		<tag k="name" v="Nygardsbakkan" />
		<tag k="ssr:date" v="2019-12-27" />
		<tag k="ssr:gruppe" v="veg" />
		<tag k="ssr:hovedgruppe" v="infrastruktur" />
		<tag k="ssr:stedsnr" v="1018506" />
		<tag k="ssr:type" v="adressenavn" />
	</node>
	<node lat="61.319145474056235" lon="10.298570056518306" id="-43496">
		<tag k="name" v="Nord-Trettenvegen" />
		<tag k="ssr:date" v="2019-12-27" />
		<tag k="ssr:gruppe" v="veg" />
		<tag k="ssr:hovedgruppe" v="infrastruktur" />
		<tag k="ssr:stedsnr" v="1018513" />
		<tag k="ssr:type" v="adressenavn" />
	</node>
	<node lat="61.31689194378633" lon="10.304963215734709" id="-43497">
		<tag k="name" v="Kjørkjevegen" />
		<tag k="ssr:date" v="2019-12-27" />
		<tag k="ssr:gruppe" v="veg" />
		<tag k="ssr:hovedgruppe" v="infrastruktur" />
		<tag k="ssr:stedsnr" v="1018602" />
		<tag k="ssr:type" v="adressenavn" />
	</node>
	<node lat="61.31634854598655" lon="10.305996964651078" id="-43498">
		<tag k="name" v="Kjørkjebakken" />
		<tag k="ssr:date" v="2019-12-27" />
		<tag k="ssr:gruppe" v="veg" />
		<tag k="ssr:hovedgruppe" v="infrastruktur" />
		<tag k="ssr:stedsnr" v="1018608" />
		<tag k="ssr:type" v="adressenavn" />
	</node>
	<node lat="61.308284027823596" lon="10.321075831389162" id="-43499">
		<tag k="name" v="Kløvsvegen" />
		<tag k="ssr:date" v="2019-12-27" />
		<tag k="ssr:gruppe" v="veg" />
		<tag k="ssr:hovedgruppe" v="infrastruktur" />
		<tag k="ssr:stedsnr" v="1018571" />
		<tag k="ssr:type" v="adressenavn" />
	</node>
	<node lat="61.30755424759645" lon="10.30738671361154" id="-43500">
		<tag k="name" v="Klukkerjordet" />
		<tag k="ssr:date" v="2019-12-27" />
		<tag k="ssr:gruppe" v="veg" />
		<tag k="ssr:hovedgruppe" v="infrastruktur" />
		<tag k="ssr:stedsnr" v="1018574" />
		<tag k="ssr:type" v="adressenavn" />
	</node>
	<node lat="61.31860228243838" lon="10.299769549593545" id="-43501">
		<tag k="name" v="Moksavegen" />
		<tag k="ssr:date" v="2019-12-27" />
		<tag k="ssr:gruppe" v="veg" />
		<tag k="ssr:hovedgruppe" v="infrastruktur" />
		<tag k="ssr:stedsnr" v="1018646" />
		<tag k="ssr:type" v="adressenavn" />
	</node>
	<node lat="61.30346054096928" lon="10.243810020050747" id="-43502">
		<tag k="name" v="Musdalssætervegen" />
		<tag k="ssr:date" v="2019-12-27" />
		<tag k="ssr:gruppe" v="veg" />
		<tag k="ssr:hovedgruppe" v="infrastruktur" />
		<tag k="ssr:stedsnr" v="1018871" />
		<tag k="ssr:type" v="adressenavn" />
	</node>
	<node lat="61.30934924539282" lon="10.29548192401742" id="-43503">
		<tag k="name" v="Nordmedlia" />
		<tag k="ssr:date" v="2019-12-27" />
		<tag k="ssr:gruppe" v="veg" />
		<tag k="ssr:hovedgruppe" v="infrastruktur" />
		<tag k="ssr:stedsnr" v="1018790" />
		<tag k="ssr:type" v="adressenavn" />
	</node>
	<node lat="61.35734481216763" lon="10.288842220291134" id="-43504">
		<tag k="name" v="Mågålivegen" />
		<tag k="ssr:date" v="2019-12-27" />
		<tag k="ssr:gruppe" v="veg" />
		<tag k="ssr:hovedgruppe" v="infrastruktur" />
		<tag k="ssr:stedsnr" v="1018821" />
		<tag k="ssr:type" v="adressenavn" />
	</node>
	<node lat="61.29972379537766" lon="10.212152736360524" id="-43505">
		<tag k="name" v="Musdalsvegen" />
		<tag k="ssr:date" v="2019-12-27" />
		<tag k="ssr:gruppe" v="veg" />
		<tag k="ssr:hovedgruppe" v="infrastruktur" />
		<tag k="ssr:stedsnr" v="1018834" />
		<tag k="ssr:type" v="adressenavn" />
	</node>
	<node lat="61.31182034301006" lon="10.297312632164276" id="-43506">
		<tag k="name" v="Lågenvegen" />
		<tag k="ssr:date" v="2019-12-27" />
		<tag k="ssr:gruppe" v="veg" />
		<tag k="ssr:hovedgruppe" v="infrastruktur" />
		<tag k="ssr:stedsnr" v="1018758" />
		<tag k="ssr:type" v="adressenavn" />
	</node>
	<node lat="61.323878853649155" lon="10.215515864938633" id="-43507">
		<tag k="name" v="Søre Grønåsvegen" />
		<tag k="ssr:date" v="2019-12-27" />
		<tag k="ssr:gruppe" v="veg" />
		<tag k="ssr:hovedgruppe" v="infrastruktur" />
		<tag k="ssr:stedsnr" v="1019590" />
		<tag k="ssr:type" v="adressenavn" />
	</node>
	<node lat="61.31918623435569" lon="10.226196786315278" id="-43508">
		<tag k="name" v="Vassrudgutua" />
		<tag k="ssr:date" v="2019-12-27" />
		<tag k="ssr:gruppe" v="veg" />
		<tag k="ssr:hovedgruppe" v="infrastruktur" />
		<tag k="ssr:stedsnr" v="1019591" />
		<tag k="ssr:type" v="adressenavn" />
	</node>
	<node lat="61.3225869177387" lon="10.219458543064592" id="-43509">
		<tag k="name" v="Skybergsgutua" />
		<tag k="ssr:date" v="2019-12-27" />
		<tag k="ssr:gruppe" v="veg" />
		<tag k="ssr:hovedgruppe" v="infrastruktur" />
		<tag k="ssr:stedsnr" v="1019592" />
		<tag k="ssr:type" v="adressenavn" />
	</node>
	<node lat="61.32003083414364" lon="10.226049337574004" id="-43510">
		<tag k="name" v="Auromsgutua" />
		<tag k="ssr:date" v="2019-12-27" />
		<tag k="ssr:gruppe" v="veg" />
		<tag k="ssr:hovedgruppe" v="infrastruktur" />
		<tag k="ssr:stedsnr" v="1019593" />
		<tag k="ssr:type" v="adressenavn" />
	</node>
	<node lat="61.3485314475285" lon="10.210173469011595" id="-43511">
		<tag k="name" v="Djupdalsvegen" />
		<tag k="ssr:date" v="2019-12-27" />
		<tag k="ssr:gruppe" v="veg" />
		<tag k="ssr:hovedgruppe" v="infrastruktur" />
		<tag k="ssr:stedsnr" v="1019595" />
		<tag k="ssr:type" v="adressenavn" />
	</node>
	<node lat="61.3549296044448" lon="10.197273867738616" id="-43512">
		<tag k="name" v="Åbbortjønnvegen" />
		<tag k="ssr:date" v="2019-12-27" />
		<tag k="ssr:gruppe" v="veg" />
		<tag k="ssr:hovedgruppe" v="infrastruktur" />
		<tag k="ssr:stedsnr" v="1019597" />
		<tag k="ssr:type" v="adressenavn" />
	</node>
	<node lat="61.257222801105684" lon="10.508745482355613" id="-43513">
		<tag k="name" v="Jutulstadlykkja" />
		<tag k="ssr:date" v="2019-12-27" />
		<tag k="ssr:gruppe" v="veg" />
		<tag k="ssr:hovedgruppe" v="infrastruktur" />
		<tag k="ssr:stedsnr" v="1019599" />
		<tag k="ssr:type" v="adressenavn" />
	</node>
	<node lat="61.257716079996655" lon="10.506292864409955" id="-43514">
		<tag k="name" v="Kolgropa" />
		<tag k="ssr:date" v="2019-12-27" />
		<tag k="ssr:gruppe" v="veg" />
		<tag k="ssr:hovedgruppe" v="infrastruktur" />
		<tag k="ssr:stedsnr" v="1019602" />
		<tag k="ssr:type" v="adressenavn" />
	</node>
	<node lat="61.25628949144823" lon="10.502930552278936" id="-43515">
		<tag k="name" v="Hauganlia" />
		<tag k="ssr:date" v="2019-12-27" />
		<tag k="ssr:gruppe" v="veg" />
		<tag k="ssr:hovedgruppe" v="infrastruktur" />
		<tag k="ssr:stedsnr" v="1019603" />
		<tag k="ssr:type" v="adressenavn" />
	</node>
	<node lat="61.256460082747935" lon="10.50141556388329" id="-43516">
		<tag k="name" v="Hauganbrinken" />
		<tag k="ssr:date" v="2019-12-27" />
		<tag k="ssr:gruppe" v="veg" />
		<tag k="ssr:hovedgruppe" v="infrastruktur" />
		<tag k="ssr:stedsnr" v="1019604" />
		<tag k="ssr:type" v="adressenavn" />
	</node>
	<node lat="61.25590837087435" lon="10.506463601740508" id="-43517">
		<tag k="name" v="Blæsterfalla" />
		<tag k="ssr:date" v="2019-12-27" />
		<tag k="ssr:gruppe" v="veg" />
		<tag k="ssr:hovedgruppe" v="infrastruktur" />
		<tag k="ssr:stedsnr" v="1019606" />
		<tag k="ssr:type" v="adressenavn" />
	</node>
	<node lat="61.219751161279774" lon="10.493111614393685" id="-43518">
		<tag k="name" v="Hemsætervegen" />
		<tag k="ssr:date" v="2019-12-27" />
		<tag k="ssr:gruppe" v="veg" />
		<tag k="ssr:hovedgruppe" v="infrastruktur" />
		<tag k="ssr:stedsnr" v="1019610" />
		<tag k="ssr:type" v="adressenavn" />
	</node>
	<node lat="61.220009406224214" lon="10.498407478396915" id="-43519">
		<tag k="name" v="Gruvevegen" />
		<tag k="ssr:date" v="2019-12-27" />
		<tag k="ssr:gruppe" v="veg" />
		<tag k="ssr:hovedgruppe" v="infrastruktur" />
		<tag k="ssr:stedsnr" v="1019611" />
		<tag k="ssr:type" v="adressenavn" />
	</node>
	<node lat="61.22020602130389" lon="10.498127578021293" id="-43520">
		<tag k="name" v="Bjørgefallet" />
		<tag k="ssr:date" v="2019-12-27" />
		<tag k="ssr:gruppe" v="veg" />
		<tag k="ssr:hovedgruppe" v="infrastruktur" />
		<tag k="ssr:stedsnr" v="1019613" />
		<tag k="ssr:type" v="adressenavn" />
	</node>
	<node lat="61.31212269082791" lon="10.31282848647606" id="-43521">
		<tag k="name" v="Landgårdsvegen" />
		<tag k="ssr:date" v="2019-12-27" />
		<tag k="ssr:gruppe" v="veg" />
		<tag k="ssr:hovedgruppe" v="infrastruktur" />
		<tag k="ssr:stedsnr" v="1019040" />
		<tag k="ssr:type" v="adressenavn" />
	</node>
	<node lat="61.32300072754535" lon="10.298506467012059" id="-43522">
		<tag k="name" v="Kveinnvegen" />
		<tag k="ssr:date" v="2019-12-27" />
		<tag k="ssr:gruppe" v="veg" />
		<tag k="ssr:hovedgruppe" v="infrastruktur" />
		<tag k="ssr:stedsnr" v="1019048" />
		<tag k="ssr:type" v="adressenavn" />
	</node>
	<node lat="61.28436658967181" lon="10.263005820103453" id="-43523">
		<tag k="name" v="Lassesætervegen" />
		<tag k="ssr:date" v="2019-12-27" />
		<tag k="ssr:gruppe" v="veg" />
		<tag k="ssr:hovedgruppe" v="infrastruktur" />
		<tag k="ssr:stedsnr" v="1019018" />
		<tag k="ssr:type" v="adressenavn" />
	</node>
	<node lat="61.31180592140373" lon="10.306647612752306" id="-43524">
		<tag k="name" v="Øvre gate" />
		<tag k="ssr:date" v="2019-12-27" />
		<tag k="ssr:gruppe" v="veg" />
		<tag k="ssr:hovedgruppe" v="infrastruktur" />
		<tag k="ssr:stedsnr" v="1019313" />
		<tag k="ssr:type" v="adressenavn" />
	</node>
	<node lat="61.324320588199235" lon="10.323276208155155" id="-43525">
		<tag k="name" v="Tårstadvegen" />
		<tag k="ssr:date" v="2019-12-27" />
		<tag k="ssr:gruppe" v="veg" />
		<tag k="ssr:hovedgruppe" v="infrastruktur" />
		<tag k="ssr:stedsnr" v="1019334" />
		<tag k="ssr:type" v="adressenavn" />
	</node>
	<node lat="61.32567175159723" lon="10.293698852637709" id="-43526">
		<tag k="name" v="Tuterudvegen" />
		<tag k="ssr:date" v="2019-12-27" />
		<tag k="ssr:gruppe" v="veg" />
		<tag k="ssr:hovedgruppe" v="infrastruktur" />
		<tag k="ssr:stedsnr" v="1019336" />
		<tag k="ssr:type" v="adressenavn" />
	</node>
	<node lat="61.32240977921895" lon="10.29811614163078" id="-43527">
		<tag k="name" v="Tyttebærvegen" />
		<tag k="ssr:date" v="2019-12-27" />
		<tag k="ssr:gruppe" v="veg" />
		<tag k="ssr:hovedgruppe" v="infrastruktur" />
		<tag k="ssr:stedsnr" v="1019337" />
		<tag k="ssr:type" v="adressenavn" />
	</node>
	<node lat="61.32063897446696" lon="10.307946445156471" id="-43528">
		<tag k="name" v="Tutterudbakken" />
		<tag k="ssr:date" v="2019-12-27" />
		<tag k="ssr:gruppe" v="veg" />
		<tag k="ssr:hovedgruppe" v="infrastruktur" />
		<tag k="ssr:stedsnr" v="1019339" />
		<tag k="ssr:type" v="adressenavn" />
	</node>
	<node lat="61.341191594881856" lon="10.297246722413623" id="-43529">
		<tag k="name" v="Turrmoen" />
		<tag k="ssr:date" v="2019-12-27" />
		<tag k="ssr:gruppe" v="veg" />
		<tag k="ssr:hovedgruppe" v="infrastruktur" />
		<tag k="ssr:stedsnr" v="1019340" />
		<tag k="ssr:type" v="adressenavn" />
	</node>
	<node lat="61.30028791708148" lon="10.213784419993333" id="-43530">
		<tag k="name" v="Tunevegen" />
		<tag k="ssr:date" v="2019-12-27" />
		<tag k="ssr:gruppe" v="veg" />
		<tag k="ssr:hovedgruppe" v="infrastruktur" />
		<tag k="ssr:stedsnr" v="1019341" />
		<tag k="ssr:type" v="adressenavn" />
	</node>
	<node lat="61.31429063766457" lon="10.300646179496553" id="-43531">
		<tag k="name" v="Sør-Trettenvegen" />
		<tag k="ssr:date" v="2019-12-27" />
		<tag k="ssr:gruppe" v="veg" />
		<tag k="ssr:hovedgruppe" v="infrastruktur" />
		<tag k="ssr:stedsnr" v="1019375" />
		<tag k="ssr:type" v="adressenavn" />
	</node>
	<node lat="61.306359505710226" lon="10.321194080238062" id="-43532">
		<tag k="name" v="Sveavegen" />
		<tag k="ssr:date" v="2019-12-27" />
		<tag k="ssr:gruppe" v="veg" />
		<tag k="ssr:hovedgruppe" v="infrastruktur" />
		<tag k="ssr:stedsnr" v="1019380" />
		<tag k="ssr:type" v="adressenavn" />
	</node>
	<node lat="61.32048999877992" lon="10.297609110341348" id="-43533">
		<tag k="name" v="Stavsvegen" />
		<tag k="ssr:date" v="2019-12-27" />
		<tag k="ssr:gruppe" v="veg" />
		<tag k="ssr:hovedgruppe" v="infrastruktur" />
		<tag k="ssr:stedsnr" v="1019381" />
		<tag k="ssr:type" v="adressenavn" />
	</node>
	<node lat="61.32130157188734" lon="10.29987491281136" id="-43534">
		<tag k="name" v="Solåsvegen" />
		<tag k="ssr:date" v="2019-12-27" />
		<tag k="ssr:gruppe" v="veg" />
		<tag k="ssr:hovedgruppe" v="infrastruktur" />
		<tag k="ssr:stedsnr" v="1019385" />
		<tag k="ssr:type" v="adressenavn" />
	</node>
	<node lat="61.31153647580148" lon="10.33207035105936" id="-43535">
		<tag k="name" v="Smørkampvegen" />
		<tag k="ssr:date" v="2019-12-27" />
		<tag k="ssr:gruppe" v="veg" />
		<tag k="ssr:hovedgruppe" v="infrastruktur" />
		<tag k="ssr:stedsnr" v="1019390" />
		<tag k="ssr:type" v="adressenavn" />
	</node>
	<node lat="61.319788777427426" lon="10.299899848446303" id="-43536">
		<tag k="name" v="Skålbakken" />
		<tag k="ssr:date" v="2019-12-27" />
		<tag k="ssr:gruppe" v="veg" />
		<tag k="ssr:hovedgruppe" v="infrastruktur" />
		<tag k="ssr:stedsnr" v="1019396" />
		<tag k="ssr:type" v="adressenavn" />
	</node>
	<node lat="61.315669416957704" lon="10.301814439512116" id="-43537">
		<tag k="name" v="Toppavegen" />
		<tag k="ssr:date" v="2019-12-27" />
		<tag k="ssr:gruppe" v="veg" />
		<tag k="ssr:hovedgruppe" v="infrastruktur" />
		<tag k="ssr:stedsnr" v="1019401" />
		<tag k="ssr:type" v="adressenavn" />
	</node>
	<node lat="61.324320588199235" lon="10.323276208155155" id="-43538">
		<tag k="name" v="Torsheimsvegen" />
		<tag k="ssr:date" v="2019-12-27" />
		<tag k="ssr:gruppe" v="veg" />
		<tag k="ssr:hovedgruppe" v="infrastruktur" />
		<tag k="ssr:stedsnr" v="1019404" />
		<tag k="ssr:type" v="adressenavn" />
	</node>
	<node lat="61.311619775568175" lon="10.304059605387229" id="-43539">
		<tag k="name" v="Tautervegen" />
		<tag k="ssr:date" v="2019-12-27" />
		<tag k="ssr:gruppe" v="veg" />
		<tag k="ssr:hovedgruppe" v="infrastruktur" />
		<tag k="ssr:stedsnr" v="1019406" />
		<tag k="ssr:type" v="adressenavn" />
	</node>
	<node lat="61.22056455875592" lon="10.50642366890492" id="-43540">
		<tag k="name" v="Vardvegen" />
		<tag k="ssr:date" v="2019-12-27" />
		<tag k="ssr:gruppe" v="veg" />
		<tag k="ssr:hovedgruppe" v="infrastruktur" />
		<tag k="ssr:stedsnr" v="1019687" />
		<tag k="ssr:type" v="adressenavn" />
	</node>
	<node lat="61.22009300824771" lon="10.512454938844476" id="-43541">
		<tag k="name" v="Lunnstadmyrvegen" />
		<tag k="ssr:date" v="2019-12-27" />
		<tag k="ssr:gruppe" v="veg" />
		<tag k="ssr:hovedgruppe" v="infrastruktur" />
		<tag k="ssr:stedsnr" v="1019695" />
		<tag k="ssr:type" v="adressenavn" />
	</node>
	<node lat="61.22538481504884" lon="10.508517843043192" id="-43542">
		<tag k="name" v="Kringelåsvegen" />
		<tag k="ssr:date" v="2019-12-27" />
		<tag k="ssr:gruppe" v="veg" />
		<tag k="ssr:hovedgruppe" v="infrastruktur" />
		<tag k="ssr:stedsnr" v="1019702" />
		<tag k="ssr:type" v="adressenavn" />
	</node>
	<node lat="61.2161408424137" lon="10.492914818720976" id="-43543">
		<tag k="name" v="Stulsvegen" />
		<tag k="ssr:date" v="2019-12-27" />
		<tag k="ssr:gruppe" v="veg" />
		<tag k="ssr:hovedgruppe" v="infrastruktur" />
		<tag k="ssr:stedsnr" v="1019704" />
		<tag k="ssr:type" v="adressenavn" />
	</node>
	<node lat="61.21588884688023" lon="10.491675482134264" id="-43544">
		<tag k="name" v="Landåsvegen" />
		<tag k="ssr:date" v="2019-12-27" />
		<tag k="ssr:gruppe" v="veg" />
		<tag k="ssr:hovedgruppe" v="infrastruktur" />
		<tag k="ssr:stedsnr" v="1019706" />
		<tag k="ssr:type" v="adressenavn" />
	</node>
	<node lat="61.21470073966484" lon="10.491079010973513" id="-43545">
		<tag k="name" v="Slåsætervegen" />
		<tag k="ssr:date" v="2019-12-27" />
		<tag k="ssr:gruppe" v="veg" />
		<tag k="ssr:hovedgruppe" v="infrastruktur" />
		<tag k="ssr:stedsnr" v="1019708" />
		<tag k="ssr:type" v="adressenavn" />
	</node>
	<node lat="61.29081944767069" lon="10.429387945585066" id="-43546">
		<tag k="name" v="Augsætervegen" />
		<tag k="ssr:date" v="2019-12-27" />
		<tag k="ssr:gruppe" v="veg" />
		<tag k="ssr:hovedgruppe" v="infrastruktur" />
		<tag k="ssr:stedsnr" v="1019729" />
		<tag k="ssr:type" v="adressenavn" />
	</node>
	<node lat="61.29085665862404" lon="10.42937582756852" id="-43547">
		<tag k="name" v="Akksjøsætervegen" />
		<tag k="ssr:date" v="2019-12-27" />
		<tag k="ssr:gruppe" v="veg" />
		<tag k="ssr:hovedgruppe" v="infrastruktur" />
		<tag k="ssr:stedsnr" v="1019730" />
		<tag k="ssr:type" v="adressenavn" />
	</node>
	<node lat="61.37626191835823" lon="10.446582066115782" id="-43548">
		<tag k="name" v="Sundråket" />
		<tag k="ssr:date" v="2019-12-27" />
		<tag k="ssr:gruppe" v="veg" />
		<tag k="ssr:hovedgruppe" v="infrastruktur" />
		<tag k="ssr:stedsnr" v="1019733" />
		<tag k="ssr:type" v="adressenavn" />
	</node>
	<node lat="61.369184211334876" lon="10.434796700783128" id="-43549">
		<tag k="name" v="Steinåsen" />
		<tag k="ssr:date" v="2019-12-27" />
		<tag k="ssr:gruppe" v="veg" />
		<tag k="ssr:hovedgruppe" v="infrastruktur" />
		<tag k="ssr:stedsnr" v="1019734" />
		<tag k="ssr:type" v="adressenavn" />
	</node>
	<node lat="61.37234219033813" lon="10.4357072545255" id="-43550">
		<tag k="name" v="Skjennfjellvegen" />
		<tag k="ssr:date" v="2019-12-27" />
		<tag k="ssr:gruppe" v="veg" />
		<tag k="ssr:hovedgruppe" v="infrastruktur" />
		<tag k="ssr:stedsnr" v="1019735" />
		<tag k="ssr:type" v="adressenavn" />
	</node>
	<node lat="61.3625127425614" lon="10.30594593821153" id="-43551">
		<tag k="name" v="Veslesætervegen" />
		<tag k="ssr:date" v="2019-12-27" />
		<tag k="ssr:gruppe" v="veg" />
		<tag k="ssr:hovedgruppe" v="infrastruktur" />
		<tag k="ssr:stedsnr" v="1019541" />
		<tag k="ssr:type" v="adressenavn" />
	</node>
	<node lat="61.3286203473826" lon="10.369878873403987" id="-43552">
		<tag k="name" v="Gamle Holmsætervegen" />
		<tag k="ssr:date" v="2019-12-27" />
		<tag k="ssr:gruppe" v="veg" />
		<tag k="ssr:hovedgruppe" v="infrastruktur" />
		<tag k="ssr:stedsnr" v="1019548" />
		<tag k="ssr:type" v="adressenavn" />
	</node>
	<node lat="61.35820970408163" lon="10.207553921410888" id="-43553">
		<tag k="name" v="Slåa" />
		<tag k="ssr:date" v="2019-12-27" />
		<tag k="ssr:gruppe" v="veg" />
		<tag k="ssr:hovedgruppe" v="infrastruktur" />
		<tag k="ssr:stedsnr" v="1019551" />
		<tag k="ssr:type" v="adressenavn" />
	</node>
	<node lat="61.36313026691052" lon="10.200762395826544" id="-43554">
		<tag k="name" v="Slåttvegen" />
		<tag k="ssr:date" v="2019-12-27" />
		<tag k="ssr:gruppe" v="veg" />
		<tag k="ssr:hovedgruppe" v="infrastruktur" />
		<tag k="ssr:stedsnr" v="1019552" />
		<tag k="ssr:type" v="adressenavn" />
	</node>
	<node lat="61.348674445824045" lon="10.206529405653004" id="-43555">
		<tag k="name" v="Nordre Grønåsvegen" />
		<tag k="ssr:date" v="2019-12-27" />
		<tag k="ssr:gruppe" v="veg" />
		<tag k="ssr:hovedgruppe" v="infrastruktur" />
		<tag k="ssr:stedsnr" v="1019553" />
		<tag k="ssr:type" v="adressenavn" />
	</node>
	<node lat="61.35820970408163" lon="10.207553921410888" id="-43556">
		<tag k="name" v="Midtgrenda" />
		<tag k="ssr:date" v="2019-12-27" />
		<tag k="ssr:gruppe" v="veg" />
		<tag k="ssr:hovedgruppe" v="infrastruktur" />
		<tag k="ssr:stedsnr" v="1019554" />
		<tag k="ssr:type" v="adressenavn" />
	</node>
	<node lat="61.35820941951625" lon="10.207647627786384" id="-43557">
		<tag k="name" v="Langmyrvegen" />
		<tag k="ssr:date" v="2019-12-27" />
		<tag k="ssr:gruppe" v="veg" />
		<tag k="ssr:hovedgruppe" v="infrastruktur" />
		<tag k="ssr:stedsnr" v="1019555" />
		<tag k="ssr:type" v="adressenavn" />
	</node>
	<node lat="61.38301188380195" lon="10.354674196815015" id="-43558">
		<tag k="name" v="Tretteslævegen" />
		<tag k="ssr:date" v="2019-12-27" />
		<tag k="ssr:gruppe" v="veg" />
		<tag k="ssr:hovedgruppe" v="infrastruktur" />
		<tag k="ssr:stedsnr" v="1019558" />
		<tag k="ssr:type" v="adressenavn" />
	</node>
	<node lat="61.38926636906362" lon="10.348592758220601" id="-43559">
		<tag k="name" v="Blårysjåsvegen" />
		<tag k="ssr:date" v="2019-12-27" />
		<tag k="ssr:gruppe" v="veg" />
		<tag k="ssr:hovedgruppe" v="infrastruktur" />
		<tag k="ssr:stedsnr" v="1019559" />
		<tag k="ssr:type" v="adressenavn" />
	</node>
	<node lat="61.38681681152347" lon="10.353485819014805" id="-43560">
		<tag k="name" v="Avlingsvegen" />
		<tag k="ssr:date" v="2019-12-27" />
		<tag k="ssr:gruppe" v="veg" />
		<tag k="ssr:hovedgruppe" v="infrastruktur" />
		<tag k="ssr:stedsnr" v="1019560" />
		<tag k="ssr:type" v="adressenavn" />
	</node>
	<node lat="61.324750986739346" lon="10.383702992789368" id="-43561">
		<tag k="name" v="Nisteinsråket" />
		<tag k="ssr:date" v="2019-12-27" />
		<tag k="ssr:gruppe" v="veg" />
		<tag k="ssr:hovedgruppe" v="infrastruktur" />
		<tag k="ssr:stedsnr" v="1019562" />
		<tag k="ssr:type" v="adressenavn" />
	</node>
	<node lat="61.32475777617858" lon="10.384325121256419" id="-43562">
		<tag k="name" v="Hundtjønnvegen" />
		<tag k="ssr:date" v="2019-12-27" />
		<tag k="ssr:gruppe" v="veg" />
		<tag k="ssr:hovedgruppe" v="infrastruktur" />
		<tag k="ssr:stedsnr" v="1019563" />
		<tag k="ssr:type" v="adressenavn" />
	</node>
	<node lat="61.32708056059681" lon="10.381203673918927" id="-43563">
		<tag k="name" v="Hundbergslivegen" />
		<tag k="ssr:date" v="2019-12-27" />
		<tag k="ssr:gruppe" v="veg" />
		<tag k="ssr:hovedgruppe" v="infrastruktur" />
		<tag k="ssr:stedsnr" v="1019564" />
		<tag k="ssr:type" v="adressenavn" />
	</node>
	<node lat="61.24932006722679" lon="10.506682274992004" id="-43564">
		<tag k="name" v="Skåklevegen" />
		<tag k="ssr:date" v="2019-12-27" />
		<tag k="ssr:gruppe" v="veg" />
		<tag k="ssr:hovedgruppe" v="infrastruktur" />
		<tag k="ssr:stedsnr" v="1019566" />
		<tag k="ssr:type" v="adressenavn" />
	</node>
	<node lat="61.249608875295515" lon="10.49972392653587" id="-43565">
		<tag k="name" v="Pjeksen" />
		<tag k="ssr:date" v="2019-12-27" />
		<tag k="ssr:gruppe" v="veg" />
		<tag k="ssr:hovedgruppe" v="infrastruktur" />
		<tag k="ssr:stedsnr" v="1019567" />
		<tag k="ssr:type" v="adressenavn" />
	</node>
	<node lat="61.2491003983519" lon="10.508733946309807" id="-43566">
		<tag k="name" v="Måsåbergvegen" />
		<tag k="ssr:date" v="2019-12-27" />
		<tag k="ssr:gruppe" v="veg" />
		<tag k="ssr:hovedgruppe" v="infrastruktur" />
		<tag k="ssr:stedsnr" v="1019568" />
		<tag k="ssr:type" v="adressenavn" />
	</node>
	<node lat="61.24777197484942" lon="10.495789721069192" id="-43567">
		<tag k="name" v="Moltmyrvegen" />
		<tag k="ssr:date" v="2019-12-27" />
		<tag k="ssr:gruppe" v="veg" />
		<tag k="ssr:hovedgruppe" v="infrastruktur" />
		<tag k="ssr:stedsnr" v="1019570" />
		<tag k="ssr:type" v="adressenavn" />
	</node>
	<node lat="61.2605041410183" lon="10.48436249516615" id="-43568">
		<tag k="name" v="Sæterberget" />
		<tag k="ssr:date" v="2019-12-27" />
		<tag k="ssr:gruppe" v="veg" />
		<tag k="ssr:hovedgruppe" v="infrastruktur" />
		<tag k="ssr:stedsnr" v="1019573" />
		<tag k="ssr:type" v="adressenavn" />
	</node>
	<node lat="61.259779364210985" lon="10.48641877059435" id="-43569">
		<tag k="name" v="Lyusveknappen" />
		<tag k="ssr:date" v="2019-12-27" />
		<tag k="ssr:gruppe" v="veg" />
		<tag k="ssr:hovedgruppe" v="infrastruktur" />
		<tag k="ssr:stedsnr" v="1019574" />
		<tag k="ssr:type" v="adressenavn" />
	</node>
	<node lat="61.26436478292953" lon="10.497049607314349" id="-43570">
		<tag k="name" v="Høghaugvegen" />
		<tag k="ssr:date" v="2019-12-27" />
		<tag k="ssr:gruppe" v="veg" />
		<tag k="ssr:hovedgruppe" v="infrastruktur" />
		<tag k="ssr:stedsnr" v="1019575" />
		<tag k="ssr:type" v="adressenavn" />
	</node>
	<node lat="61.26122014565664" lon="10.490667602814693" id="-43571">
		<tag k="name" v="Gammellykkja" />
		<tag k="ssr:date" v="2019-12-27" />
		<tag k="ssr:gruppe" v="veg" />
		<tag k="ssr:hovedgruppe" v="infrastruktur" />
		<tag k="ssr:stedsnr" v="1019576" />
		<tag k="ssr:type" v="adressenavn" />
	</node>
	<node lat="61.26007830948186" lon="10.485596474494596" id="-43572">
		<tag k="name" v="Furtholoa" />
		<tag k="ssr:date" v="2019-12-27" />
		<tag k="ssr:gruppe" v="veg" />
		<tag k="ssr:hovedgruppe" v="infrastruktur" />
		<tag k="ssr:stedsnr" v="1019577" />
		<tag k="ssr:type" v="adressenavn" />
	</node>
	<node lat="61.24736406151417" lon="10.494711106299" id="-43573">
		<tag k="name" v="Stuttingen" />
		<tag k="ssr:date" v="2019-12-27" />
		<tag k="ssr:gruppe" v="veg" />
		<tag k="ssr:hovedgruppe" v="infrastruktur" />
		<tag k="ssr:stedsnr" v="1019580" />
		<tag k="ssr:type" v="adressenavn" />
	</node>
	<node lat="61.24925325307048" lon="10.489378812519359" id="-43574">
		<tag k="name" v="Storslåvegen" />
		<tag k="ssr:date" v="2019-12-27" />
		<tag k="ssr:gruppe" v="veg" />
		<tag k="ssr:hovedgruppe" v="infrastruktur" />
		<tag k="ssr:stedsnr" v="1019582" />
		<tag k="ssr:type" v="adressenavn" />
	</node>
	<node lat="61.209350128860144" lon="10.505159644966609" id="-43575">
		<tag k="name" v="Rundmyrvegen" />
		<tag k="ssr:date" v="2019-12-27" />
		<tag k="ssr:gruppe" v="veg" />
		<tag k="ssr:hovedgruppe" v="infrastruktur" />
		<tag k="ssr:stedsnr" v="1019639" />
		<tag k="ssr:type" v="adressenavn" />
	</node>
	<node lat="61.216557812424405" lon="10.503041892335652" id="-43576">
		<tag k="name" v="Nedre Vesleslåa" />
		<tag k="ssr:date" v="2019-12-27" />
		<tag k="ssr:gruppe" v="veg" />
		<tag k="ssr:hovedgruppe" v="infrastruktur" />
		<tag k="ssr:stedsnr" v="1019640" />
		<tag k="ssr:type" v="adressenavn" />
	</node>
	<node lat="61.21617057166031" lon="10.505768754529056" id="-43577">
		<tag k="name" v="Øvre Vesleslåa" />
		<tag k="ssr:date" v="2019-12-27" />
		<tag k="ssr:gruppe" v="veg" />
		<tag k="ssr:hovedgruppe" v="infrastruktur" />
		<tag k="ssr:stedsnr" v="1019641" />
		<tag k="ssr:type" v="adressenavn" />
	</node>
	<node lat="61.21819561722836" lon="10.503923860206196" id="-43578">
		<tag k="name" v="Sæterråket" />
		<tag k="ssr:date" v="2019-12-27" />
		<tag k="ssr:gruppe" v="veg" />
		<tag k="ssr:hovedgruppe" v="infrastruktur" />
		<tag k="ssr:stedsnr" v="1019643" />
		<tag k="ssr:type" v="adressenavn" />
	</node>
	<node lat="61.21788746362618" lon="10.5024960301271" id="-43579">
		<tag k="name" v="Hortgutua" />
		<tag k="ssr:date" v="2019-12-27" />
		<tag k="ssr:gruppe" v="veg" />
		<tag k="ssr:hovedgruppe" v="infrastruktur" />
		<tag k="ssr:stedsnr" v="1019644" />
		<tag k="ssr:type" v="adressenavn" />
	</node>
	<node lat="61.21908294219975" lon="10.497346560884957" id="-43580">
		<tag k="name" v="Rekstet" />
		<tag k="ssr:date" v="2019-12-27" />
		<tag k="ssr:gruppe" v="veg" />
		<tag k="ssr:hovedgruppe" v="infrastruktur" />
		<tag k="ssr:stedsnr" v="1019645" />
		<tag k="ssr:type" v="adressenavn" />
	</node>
	<node lat="61.21590300820223" lon="10.495031892434769" id="-43581">
		<tag k="name" v="Haugaringen" />
		<tag k="ssr:date" v="2019-12-27" />
		<tag k="ssr:gruppe" v="veg" />
		<tag k="ssr:hovedgruppe" v="infrastruktur" />
		<tag k="ssr:stedsnr" v="1019646" />
		<tag k="ssr:type" v="adressenavn" />
	</node>
	<node lat="61.24421511331548" lon="10.475648743302642" id="-43582">
		<tag k="name" v="Tettgrasvegen" />
		<tag k="ssr:date" v="2019-12-27" />
		<tag k="ssr:gruppe" v="veg" />
		<tag k="ssr:hovedgruppe" v="infrastruktur" />
		<tag k="ssr:stedsnr" v="1019650" />
		<tag k="ssr:type" v="adressenavn" />
	</node>
	<node lat="61.21252353957854" lon="10.489697694207937" id="-43583">
		<tag k="name" v="Storsteinvegen" />
		<tag k="ssr:date" v="2019-12-27" />
		<tag k="ssr:gruppe" v="veg" />
		<tag k="ssr:hovedgruppe" v="infrastruktur" />
		<tag k="ssr:stedsnr" v="1019651" />
		<tag k="ssr:type" v="adressenavn" />
	</node>
	<node lat="61.240203831269625" lon="10.473440238788983" id="-43584">
		<tag k="name" v="Kaldsvekroken" />
		<tag k="ssr:date" v="2019-12-27" />
		<tag k="ssr:gruppe" v="veg" />
		<tag k="ssr:hovedgruppe" v="infrastruktur" />
		<tag k="ssr:stedsnr" v="1019652" />
		<tag k="ssr:type" v="adressenavn" />
	</node>
	<node lat="61.229078133349574" lon="10.492562824403663" id="-43585">
		<tag k="name" v="Geitryggen" />
		<tag k="ssr:date" v="2019-12-27" />
		<tag k="ssr:gruppe" v="veg" />
		<tag k="ssr:hovedgruppe" v="infrastruktur" />
		<tag k="ssr:stedsnr" v="1019653" />
		<tag k="ssr:type" v="adressenavn" />
	</node>
	<node lat="61.21638162687186" lon="10.51084143958709" id="-43586">
		<tag k="name" v="Lunnstadbrinken" />
		<tag k="ssr:date" v="2019-12-27" />
		<tag k="ssr:gruppe" v="veg" />
		<tag k="ssr:hovedgruppe" v="infrastruktur" />
		<tag k="ssr:stedsnr" v="1019655" />
		<tag k="ssr:type" v="adressenavn" />
	</node>
	<node lat="61.21694391568145" lon="10.513874507017878" id="-43587">
		<tag k="name" v="Lunnstadlia" />
		<tag k="ssr:date" v="2019-12-27" />
		<tag k="ssr:gruppe" v="veg" />
		<tag k="ssr:hovedgruppe" v="infrastruktur" />
		<tag k="ssr:stedsnr" v="1019656" />
		<tag k="ssr:type" v="adressenavn" />
	</node>
	<node lat="61.22269233159813" lon="10.526482092709353" id="-43588">
		<tag k="name" v="Nysætervegen" />
		<tag k="ssr:date" v="2019-12-27" />
		<tag k="ssr:gruppe" v="veg" />
		<tag k="ssr:hovedgruppe" v="infrastruktur" />
		<tag k="ssr:stedsnr" v="1019666" />
		<tag k="ssr:type" v="adressenavn" />
	</node>
	<node lat="61.22411432584428" lon="10.511286215723793" id="-43589">
		<tag k="name" v="Midtåsvegen" />
		<tag k="ssr:date" v="2019-12-27" />
		<tag k="ssr:gruppe" v="veg" />
		<tag k="ssr:hovedgruppe" v="infrastruktur" />
		<tag k="ssr:stedsnr" v="1019674" />
		<tag k="ssr:type" v="adressenavn" />
	</node>
	<node lat="61.213782474031376" lon="10.490320095595235" id="-43590">
		<tag k="name" v="Hundersætervegen" />
		<tag k="ssr:date" v="2019-12-27" />
		<tag k="ssr:gruppe" v="veg" />
		<tag k="ssr:hovedgruppe" v="infrastruktur" />
		<tag k="ssr:stedsnr" v="1019615" />
		<tag k="ssr:type" v="adressenavn" />
	</node>
	<node lat="61.377093481670926" lon="10.444374736649168" id="-43591">
		<tag k="name" v="Kjøllåsvegen" />
		<tag k="ssr:date" v="2019-12-27" />
		<tag k="ssr:gruppe" v="veg" />
		<tag k="ssr:hovedgruppe" v="infrastruktur" />
		<tag k="ssr:stedsnr" v="1019737" />
		<tag k="ssr:type" v="adressenavn" />
	</node>
	<node lat="61.374099910945986" lon="10.443020324144468" id="-43592">
		<tag k="name" v="Baullstulvegen" />
		<tag k="ssr:date" v="2019-12-27" />
		<tag k="ssr:gruppe" v="veg" />
		<tag k="ssr:hovedgruppe" v="infrastruktur" />
		<tag k="ssr:stedsnr" v="1019738" />
		<tag k="ssr:type" v="adressenavn" />
	</node>
	<node lat="61.33828766187088" lon="10.339908458642515" id="-43593">
		<tag k="name" v="Østfjellvegen" />
		<tag k="ssr:date" v="2019-12-27" />
		<tag k="ssr:gruppe" v="veg" />
		<tag k="ssr:hovedgruppe" v="infrastruktur" />
		<tag k="ssr:stedsnr" v="1019760" />
		<tag k="ssr:type" v="adressenavn" />
	</node>
	<node lat="61.26125451411668" lon="10.482721828158024" id="-43594">
		<tag k="name" v="Bekkjedalen" />
		<tag k="ssr:date" v="2019-12-27" />
		<tag k="ssr:gruppe" v="veg" />
		<tag k="ssr:hovedgruppe" v="infrastruktur" />
		<tag k="ssr:stedsnr" v="1073412" />
		<tag k="ssr:type" v="adressenavn" />
	</node>
	<node lat="61.248956403887036" lon="10.506857218109952" id="-43595">
		<tag k="name" v="Kronrøysa" />
		<tag k="ssr:date" v="2019-12-27" />
		<tag k="ssr:gruppe" v="veg" />
		<tag k="ssr:hovedgruppe" v="infrastruktur" />
		<tag k="ssr:stedsnr" v="1073414" />
		<tag k="ssr:type" v="adressenavn" />
	</node>
	<node lat="61.24753015719198" lon="10.50753445493815" id="-43596">
		<tag k="name" v="Mellomrøysa" />
		<tag k="ssr:date" v="2019-12-27" />
		<tag k="ssr:gruppe" v="veg" />
		<tag k="ssr:hovedgruppe" v="infrastruktur" />
		<tag k="ssr:stedsnr" v="1073413" />
		<tag k="ssr:type" v="adressenavn" />
	</node>
	<node lat="60.795248707246294" lon="11.082591224285064" id="-43597">
		<tag k="name" v="Innlandet fylke" />
		<tag k="ssr:date" v="2022-01-03" />
		<tag k="ssr:gruppe" v="administrativeIndelinger" />
		<tag k="ssr:hovedgruppe" v="offentligAdministrasjon" />
		<tag k="ssr:stedsnr" v="1074406" />
		<tag k="ssr:type" v="fylke" />
	</node>
	<node lat="61.26406181008484" lon="10.400912620360288" id="-43598">
		<tag k="name" v="Flatstulsrabben" />
		<tag k="ssr:date" v="2020-06-25" />
		<tag k="ssr:gruppe" v="veg" />
		<tag k="ssr:hovedgruppe" v="infrastruktur" />
		<tag k="ssr:stedsnr" v="1077475" />
		<tag k="ssr:type" v="adressenavn" />
	</node>
	<node lat="61.21997871046818" lon="10.459387316537835" id="-43599">
		<tag k="name" v="Smørlykkja" />
		<tag k="ssr:date" v="2020-06-25" />
		<tag k="ssr:gruppe" v="veg" />
		<tag k="ssr:hovedgruppe" v="infrastruktur" />
		<tag k="ssr:stedsnr" v="1077476" />
		<tag k="ssr:type" v="adressenavn" />
	</node>
	<node lat="61.250446772335785" lon="10.512804861597436" id="-43602">
		<tag k="name" v="Vintervegen" />
		<tag k="ssr:date" v="2021-09-16" />
		<tag k="ssr:gruppe" v="veg" />
		<tag k="ssr:hovedgruppe" v="infrastruktur" />
		<tag k="ssr:stedsnr" v="1082362" />
		<tag k="ssr:type" v="adressenavn" />
	</node>
	<node lat="61.25293996365317" lon="10.50322047277652" id="-43603">
		<tag k="name" v="Kvimsen" />
		<tag k="ssr:date" v="2021-09-16" />
		<tag k="ssr:gruppe" v="veg" />
		<tag k="ssr:hovedgruppe" v="infrastruktur" />
		<tag k="ssr:stedsnr" v="1082364" />
		<tag k="ssr:type" v="adressenavn" />
	</node>
	<node lat="61.252975007137984" lon="10.506628581771063" id="-43604">
		<tag k="name" v="Skåka" />
		<tag k="ssr:date" v="2021-09-16" />
		<tag k="ssr:gruppe" v="veg" />
		<tag k="ssr:hovedgruppe" v="infrastruktur" />
		<tag k="ssr:stedsnr" v="1082363" />
		<tag k="ssr:type" v="adressenavn" />
	</node>
	<node lat="61.24529472323869" lon="10.682289486655332" id="-43605">
		<tag k="name" v="Døblervegen" />
		<tag k="ssr:date" v="2021-09-29" />
		<tag k="ssr:gruppe" v="veg" />
		<tag k="ssr:hovedgruppe" v="infrastruktur" />
		<tag k="ssr:stedsnr" v="1082466" />
		<tag k="ssr:type" v="adressenavn" />
	</node>
	<node lat="61.28946067509303" lon="10.808178231892446" id="-43606">
		<tag k="name" v="Birkebeinervegen" />
		<tag k="ssr:date" v="2021-09-29" />
		<tag k="ssr:gruppe" v="veg" />
		<tag k="ssr:hovedgruppe" v="infrastruktur" />
		<tag k="ssr:stedsnr" v="1082468" />
		<tag k="ssr:type" v="adressenavn" />
	</node>
	<node lat="61.36238109036523" lon="10.374227582174832" id="-43607">
		<tag k="name" v="Glømmesætervegen" />
		<tag k="ssr:date" v="2021-09-29" />
		<tag k="ssr:gruppe" v="veg" />
		<tag k="ssr:hovedgruppe" v="infrastruktur" />
		<tag k="ssr:stedsnr" v="1082472" />
		<tag k="ssr:type" v="adressenavn" />
	</node>
	<node lat="61.24633010445902" lon="10.580257037611855" id="-43608">
		<tag k="name" v="Hitvegen" />
		<tag k="ssr:date" v="2021-09-29" />
		<tag k="ssr:gruppe" v="veg" />
		<tag k="ssr:hovedgruppe" v="infrastruktur" />
		<tag k="ssr:stedsnr" v="1082474" />
		<tag k="ssr:type" v="adressenavn" />
	</node>
	<node lat="61.40099566143049" lon="10.521253468058282" id="-43609">
		<tag k="name" v="Raubergvegen" />
		<tag k="ssr:date" v="2021-09-30" />
		<tag k="ssr:gruppe" v="veg" />
		<tag k="ssr:hovedgruppe" v="infrastruktur" />
		<tag k="ssr:stedsnr" v="1082479" />
		<tag k="ssr:type" v="adressenavn" />
	</node>
	<node lat="61.31007215052813" lon="10.443736523495923" id="-43610">
		<tag k="name" v="Rotvegen" />
		<tag k="ssr:date" v="2021-09-30" />
		<tag k="ssr:gruppe" v="veg" />
		<tag k="ssr:hovedgruppe" v="infrastruktur" />
		<tag k="ssr:stedsnr" v="1082480" />
		<tag k="ssr:type" v="adressenavn" />
	</node>
	<node lat="61.33716330254772" lon="10.419485056347066" id="-43611">
		<tag k="name" v="Sydda" />
		<tag k="ssr:date" v="2021-09-30" />
		<tag k="ssr:gruppe" v="veg" />
		<tag k="ssr:hovedgruppe" v="infrastruktur" />
		<tag k="ssr:stedsnr" v="1082482" />
		<tag k="ssr:type" v="adressenavn" />
	</node>
	<node lat="61.40555059954271" lon="10.543495466012295" id="-43612">
		<tag k="name" v="Uksbåsen" />
		<tag k="ssr:date" v="2021-09-30" />
		<tag k="ssr:gruppe" v="veg" />
		<tag k="ssr:hovedgruppe" v="infrastruktur" />
		<tag k="ssr:stedsnr" v="1082484" />
		<tag k="ssr:type" v="adressenavn" />
	</node>
	<node lat="61.277386253340225" lon="10.470967249715107" id="-43613">
		<tag k="name" v="Brynssætervegen" />
		<tag k="ssr:date" v="2021-09-30" />
		<tag k="ssr:gruppe" v="veg" />
		<tag k="ssr:hovedgruppe" v="infrastruktur" />
		<tag k="ssr:stedsnr" v="1082488" />
		<tag k="ssr:type" v="adressenavn" />
	</node>
	<node lat="61.299602778538386" lon="10.479431071774984" id="-43614">
		<tag k="name" v="Stormyra" />
		<tag k="ssr:date" v="2021-09-30" />
		<tag k="ssr:gruppe" v="veg" />
		<tag k="ssr:hovedgruppe" v="infrastruktur" />
		<tag k="ssr:stedsnr" v="1082485" />
		<tag k="ssr:type" v="adressenavn" />
	</node>
	<node lat="61.340506194801144" lon="10.495071943517758" id="-43615">
		<tag k="name" v="Svartsætervegen" />
		<tag k="ssr:date" v="2021-09-30" />
		<tag k="ssr:gruppe" v="veg" />
		<tag k="ssr:hovedgruppe" v="infrastruktur" />
		<tag k="ssr:stedsnr" v="1082486" />
		<tag k="ssr:type" v="adressenavn" />
	</node>
	<node lat="61.31323445039229" lon="10.564215877118007" id="-43616">
		<tag k="name" v="Vedemslia" />
		<tag k="ssr:date" v="2021-09-30" />
		<tag k="ssr:gruppe" v="veg" />
		<tag k="ssr:hovedgruppe" v="infrastruktur" />
		<tag k="ssr:stedsnr" v="1082487" />
		<tag k="ssr:type" v="adressenavn" />
	</node>
	<node lat="61.32412353276784" lon="10.713509594139456" id="-43617">
		<tag k="name" v="Allmenningsvegen" />
		<tag k="ssr:date" v="2021-09-30" />
		<tag k="ssr:gruppe" v="veg" />
		<tag k="ssr:hovedgruppe" v="infrastruktur" />
		<tag k="ssr:stedsnr" v="1082447" />
		<tag k="ssr:type" v="adressenavn" />
	</node>
	<node lat="61.30479890907033" lon="10.463600658602857" id="-43618">
		<tag k="name" v="Gammelbakkvegen" />
		<tag k="ssr:date" v="2021-09-29" />
		<tag k="ssr:gruppe" v="veg" />
		<tag k="ssr:hovedgruppe" v="infrastruktur" />
		<tag k="ssr:stedsnr" v="1082463" />
		<tag k="ssr:type" v="adressenavn" />
	</node>
	<node lat="61.267721360138765" lon="10.583453686500633" id="-43619">
		<tag k="name" v="Lienden" />
		<tag k="ssr:date" v="2021-09-29" />
		<tag k="ssr:gruppe" v="veg" />
		<tag k="ssr:hovedgruppe" v="infrastruktur" />
		<tag k="ssr:stedsnr" v="1082467" />
		<tag k="ssr:type" v="adressenavn" />
	</node>
	<node lat="61.260218826378654" lon="10.490893555050887" id="-43621">
		<tag k="name" v="Hauganvegen" />
		<tag k="ssr:date" v="2021-12-13" />
		<tag k="ssr:gruppe" v="veg" />
		<tag k="ssr:hovedgruppe" v="infrastruktur" />
		<tag k="ssr:stedsnr" v="1083210" />
		<tag k="ssr:type" v="adressenavn" />
	</node>
</osm>
