<?xml version="1.0" encoding="UTF-8"?>
<osm version="0.6" generator="osmapis">
	<node lat="59.504119440600626" lon="8.584875005235306" id="-23572">
		<tag k="name" v="Nystaul" />
		<tag k="place" v="isolated_dwelling" />
		<tag k="ssr:stedsnr" v="3025" />
	</node>
	<node lat="59.506475001463606" lon="8.550522216691798" id="-23573">
		<tag k="alt_name" v="Trasimot" />
		<tag k="name" v="Trassimot" />
		<tag k="place" v="isolated_dwelling" />
		<tag k="ssr:stedsnr" v="3027" />
	</node>
	<node lat="59.51701944704406" lon="8.65771666084314" id="-23576">
		<tag k="name" v="Århusmoen" />
		<tag k="place" v="farm" />
		<tag k="ssr:stedsnr" v="3042" />
	</node>
	<node lat="59.51543888872344" lon="8.653952784819996" id="-23578">
		<tag k="name" v="Brukås" />
		<tag k="place" v="locality" />
		<tag k="ssr:stedsnr" v="3045" />
	</node>
	<node lat="59.41023611353933" lon="8.662424992493127" id="-23580">
		<tag k="name" v="Pålbu" />
		<tag k="place" v="isolated_dwelling" />
		<tag k="ssr:stedsnr" v="2974" />
	</node>
	<node lat="59.39942221972579" lon="8.757149992656583" id="-23581">
		<tag k="name" v="Gullbekk" />
		<tag k="place" v="farm" />
		<tag k="ssr:stedsnr" v="2992" />
	</node>
	<node lat="59.67908055208188" lon="8.304952781844749" id="-23582">
		<tag k="alt_name" v="Dakkeroe" />
		<tag k="historic" v="shieling" />
		<tag k="name" v="Dakkeroi" />
		<tag k="place" v="isolated_dwelling" />
		<tag k="ssr:stedsnr" v="3127" />
	</node>
	<node lat="59.679825003621694" lon="8.313097220398046" id="-23583">
		<tag k="historic" v="shieling" />
		<tag k="name" v="Svenkestaul" />
		<tag k="place" v="isolated_dwelling" />
		<tag k="ssr:stedsnr" v="3128" />
	</node>
	<node lat="59.58714444295356" lon="8.432447225270014" id="-23584">
		<tag k="alt_name" v="Vitjingdalen" />
		<tag k="historic" v="shieling" />
		<tag k="name" v="Vikingdalen" />
		<tag k="place" v="isolated_dwelling" />
		<tag k="ssr:stedsnr" v="3434" />
	</node>
	<node lat="59.547974999628465" lon="8.414427784534764" id="-23586">
		<tag k="alt_name" v="Sælid øvre" />
		<tag k="fixme" v="consider place=hamlet" />
		<tag k="name" v="Sæli" />
		<tag k="place" v="farm" />
		<tag k="ssr:stedsnr" v="3373" />
	</node>
	<node lat="59.54929444728356" lon="8.60064444148912" id="-23589">
		<tag k="name" v="Granheim" />
		<tag k="place" v="farm" />
		<tag k="ssr:stedsnr" v="3970" />
	</node>
	<node lat="59.54728889043268" lon="8.612430549415182" id="-23590">
		<tag k="fixme" v="consider place=hamlet" />
		<tag k="name" v="Rui" />
		<tag k="place" v="farm" />
		<tag k="ssr:stedsnr" v="3973" />
	</node>
	<node lat="59.53965555674865" lon="8.627019451431812" id="-23591">
		<tag k="name" v="Vassmoen" />
		<tag k="place" v="farm" />
		<tag k="ssr:stedsnr" v="3980" />
	</node>
	<node lat="59.590375004005" lon="8.557374997169198" id="-23592">
		<tag k="name" v="Blika" />
		<tag k="place" v="hamlet" />
		<tag k="ssr:stedsnr" v="3868" />
	</node>
	<node lat="59.48081388600769" lon="8.605791675428124" id="-23606">
		<tag k="amenity" v="university" />
		<tag k="name" v="Seljord folkehøgskule" />
		<tag k="ssr:stedsnr" v="36109" />
	</node>
	<node lat="59.50049722558192" lon="8.584552783166354" id="-23611">
		<tag k="name" v="Saulid" />
		<tag k="place" v="locality" />
		<tag k="ssr:stedsnr" v="36061" />
	</node>
	<node lat="59.50993055336386" lon="8.565480550815629" id="-23613">
		<tag k="historic" v="shieling" />
		<tag k="name" v="Skriustøl" />
		<tag k="place" v="isolated_dwelling" />
		<tag k="ssr:stedsnr" v="36207" />
	</node>
	<node lat="59.6393194478544" lon="8.43209722644589" id="-23616">
		<tag k="historic" v="shieling" />
		<tag k="name" v="Løyning" />
		<tag k="place" v="isolated_dwelling" />
		<tag k="ssr:stedsnr" v="36466" />
	</node>
	<node lat="59.63889999579763" lon="8.425305564438709" id="-23617">
		<tag k="historic" v="shieling" />
		<tag k="name" v="Augondalen" />
		<tag k="place" v="isolated_dwelling" />
		<tag k="ssr:stedsnr" v="36467" />
	</node>
	<node lat="59.59176110811603" lon="8.5697527849359" id="-23618">
		<tag k="name" v="Teigen" />
		<tag k="place" v="farm" />
		<tag k="ssr:stedsnr" v="36805" />
	</node>
	<node lat="59.651008337529454" lon="8.447663892202138" id="-23621">
		<tag k="historic" v="shieling" />
		<tag k="name" v="Nystaul" />
		<tag k="place" v="isolated_dwelling" />
		<tag k="ssr:stedsnr" v="36971" />
	</node>
	<node lat="59.6594333365572" lon="8.394072214727425" id="-23622">
		<tag k="historic" v="shieling" />
		<tag k="name" v="Brattstaul" />
		<tag k="place" v="isolated_dwelling" />
		<tag k="ssr:stedsnr" v="36973" />
	</node>
	<node lat="59.567575003208134" lon="8.423194447792405" id="-23623">
		<tag k="name" v="Kosi" />
		<tag k="place" v="locality" />
		<tag k="ssr:stedsnr" v="37109" />
	</node>
	<node lat="59.56512500067361" lon="8.419369452731377" id="-23624">
		<tag k="name" v="Damstogo" />
		<tag k="place" v="isolated_dwelling" />
		<tag k="ssr:stedsnr" v="37110" />
	</node>
	<node lat="59.57469444372928" lon="8.412266666933728" id="-23626">
		<tag k="name" v="Berrstaul" />
		<tag k="place" v="locality" />
		<tag k="ssr:stedsnr" v="37023" />
	</node>
	<node lat="59.58026667020289" lon="8.491661113630416" id="-23628">
		<tag k="name" v="Nystog" />
		<tag k="place" v="locality" />
		<tag k="ssr:stedsnr" v="37078" />
	</node>
	<node lat="59.48783888451002" lon="8.634780548388745" id="-23630">
		<tag k="name" v="Klokkarstogomoen" />
		<tag k="place" v="quarter" />
		<tag k="ssr:stedsnr" v="37672" />
	</node>
	<node lat="59.49002778018199" lon="8.633733327245274" id="-23631">
		<tag k="name" v="Tremerrhaugen" />
		<tag k="place" v="quarter" />
		<tag k="ssr:stedsnr" v="37677" />
	</node>
	<node lat="59.536225001562336" lon="8.485852778748887" id="-23633">
		<tag k="name" v="Gullmostaul" />
		<tag k="place" v="locality" />
		<tag k="ssr:stedsnr" v="38106" />
	</node>
	<node lat="59.68020555751934" lon="8.348741673288973" id="-23635">
		<tag k="historic" v="shieling" />
		<tag k="name" v="Holtar" />
		<tag k="place" v="isolated_dwelling" />
		<tag k="ssr:stedsnr" v="38515" />
	</node>
	<node lat="59.69983610864946" lon="8.346372229166493" id="-23636">
		<tag k="name" v="Kolabotn" />
		<tag k="place" v="locality" />
		<tag k="ssr:stedsnr" v="38711" />
	</node>
	<node lat="59.600391664296886" lon="8.424449998764443" id="-23637">
		<tag k="name" v="Brennupp" />
		<tag k="place" v="locality" />
		<tag k="ssr:stedsnr" v="38917" />
	</node>
	<node lat="59.620002780235204" lon="8.449683342053975" id="-23638">
		<tag k="name" v="Otterstaul N" />
		<tag k="place" v="locality" />
		<tag k="ssr:stedsnr" v="38807" />
	</node>
	<node lat="59.61708611289353" lon="8.466952778354054" id="-23639">
		<tag k="name" v="Brekke" />
		<tag k="place" v="locality" />
		<tag k="ssr:stedsnr" v="38809" />
	</node>
	<node lat="59.48031388949623" lon="8.767624994551257" id="-23649">
		<tag k="name" v="Skålbustaulen" />
		<tag k="place" v="isolated_dwelling" />
		<tag k="ssr:stedsnr" v="63006" />
	</node>
	<node lat="59.48174721984653" lon="8.638799991534496" id="-23650">
		<tag k="alt_name" v="Øvre Nes" />
		<tag k="fixme" v="consider place=hamlet" />
		<tag k="name" v="Nes" />
		<tag k="place" v="farm" />
		<tag k="ssr:stedsnr" v="63017" />
	</node>
	<node lat="59.50411666936324" lon="8.556469443688869" id="-23663">
		<tag k="name" v="Åsan" />
		<tag k="place" v="farm" />
		<tag k="ssr:stedsnr" v="64020" />
	</node>
	<node lat="59.511049996854375" lon="8.657319443638807" id="-23666">
		<tag k="name" v="Tveithaugen" />
		<tag k="place" v="farm" />
		<tag k="ssr:stedsnr" v="64042" />
	</node>
	<node lat="59.66093333195368" lon="8.367666668187905" id="-23668">
		<tag k="name" v="Feten" />
		<tag k="place" v="isolated_dwelling" />
		<tag k="ssr:stedsnr" v="64357" />
	</node>
	<node lat="59.604947217989775" lon="8.452488891102062" id="-23669">
		<tag k="fixme" v="consider place=hamlet" />
		<tag k="name" v="Nasgrav" />
		<tag k="place" v="farm" />
		<tag k="ssr:stedsnr" v="64269" />
	</node>
	<node lat="59.59332778070812" lon="8.332413883551569" id="-23671">
		<tag k="historic" v="shieling" />
		<tag k="name" v="Velte" />
		<tag k="place" v="isolated_dwelling" />
		<tag k="ssr:stedsnr" v="64471" />
	</node>
	<node lat="59.67155409413212" lon="8.471429340409042" id="-23672">
		<tag k="alt_name" v="Jønntjørn" />
		<tag k="name" v="Jønntjønn" />
		<tag k="place" v="locality" />
		<tag k="ssr:stedsnr" v="64720" />
	</node>
	<node lat="59.582191666306905" lon="8.481380556957102" id="-23673">
		<tag k="name" v="Moland" />
		<tag k="place" v="farm" />
		<tag k="ssr:stedsnr" v="64901" />
	</node>
	<node lat="59.58137777750654" lon="8.561083336668323" id="-23676">
		<tag k="name" v="Blengsdalen" />
		<tag k="place" v="farm" />
		<tag k="ssr:stedsnr" v="64909" />
	</node>
	<node lat="59.57136110904666" lon="8.549266658364093" id="-23677">
		<tag k="name" v="Li" />
		<tag k="place" v="farm" />
		<tag k="ssr:stedsnr" v="64912" />
	</node>
	<node lat="59.48020555843601" lon="8.609138887758778" id="-23679">
		<tag k="alt_name" v="Oppebøen" />
		<tag k="fixme" v="consider place=hamlet" />
		<tag k="name" v="Uppebøen" />
		<tag k="place" v="farm" />
		<tag k="ssr:stedsnr" v="245019" />
	</node>
	<node lat="59.48764167016106" lon="8.65066666845705" id="-23680">
		<tag k="name" v="Bjørge" />
		<tag k="place" v="farm" />
		<tag k="ssr:stedsnr" v="245032" />
	</node>
	<node lat="59.4842152643621" lon="8.630460988177074" id="-23681">
		<tag k="fixme" v="consider place=suburb, village or hamlet" />
		<tag k="name" v="Brødlaus" />
		<tag k="place" v="quarter" />
		<tag k="ssr:stedsnr" v="245034" />
	</node>
	<node lat="59.48836667101043" lon="8.594125008244056" id="-23682">
		<tag k="name" v="Åsheimgrendi" />
		<tag k="place" v="hamlet" />
		<tag k="ssr:stedsnr" v="245037" />
	</node>
	<node lat="59.45366388995448" lon="8.749405563404054" id="-23687">
		<tag k="alt_name" v="Strand" />
		<tag k="fixme" v="consider place=hamlet" />
		<tag k="name" v="Strond" />
		<tag k="place" v="farm" />
		<tag k="ssr:stedsnr" v="245068" />
	</node>
	<node lat="59.46364166408624" lon="8.587883334254665" id="-23688">
		<tag k="fixme" v="consider place=hamlet" />
		<tag k="name" v="Hartoll" />
		<tag k="place" v="farm" />
		<tag k="ssr:stedsnr" v="245100" />
	</node>
	<node lat="59.734833337107105" lon="8.24741945088228" id="-23691">
		<tag k="alt_name" v="Kråkero" />
		<tag k="historic" v="shieling" />
		<tag k="name" v="Kråkeroi" />
		<tag k="place" v="isolated_dwelling" />
		<tag k="ssr:stedsnr" v="245216" />
	</node>
	<node lat="59.60019166312439" lon="8.300052779336667" id="-23694">
		<tag k="name" v="Grasbekk" />
		<tag k="place" v="farm" />
		<tag k="ssr:stedsnr" v="245242" />
	</node>
	<node lat="59.609926060688295" lon="8.469208264596965" id="-23698">
		<tag k="alt_name" v="Damstaulli" />
		<tag k="historic" v="shieling" />
		<tag k="name" v="Damstaul" />
		<tag k="place" v="isolated_dwelling" />
		<tag k="ssr:stedsnr" v="245753" />
	</node>
	<node lat="59.616827777859946" lon="8.47740833149575" id="-23699">
		<tag k="name" v="Bitustaul" />
		<tag k="place" v="locality" />
		<tag k="ssr:stedsnr" v="245755" />
	</node>
	<node lat="59.61967452067571" lon="8.49679223865469" id="-23700">
		<tag k="name" v="Plassen" />
		<tag k="place" v="locality" />
		<tag k="ssr:stedsnr" v="245759" />
	</node>
	<node lat="59.619803149508705" lon="8.496506899167084" id="-23701">
		<tag k="name" v="Løkestaul" />
		<tag k="place" v="locality" />
		<tag k="ssr:stedsnr" v="245760" />
	</node>
	<node lat="59.607555558293384" lon="8.505652779616145" id="-23704">
		<tag k="name" v="Haugen" />
		<tag k="place" v="isolated_dwelling" />
		<tag k="ssr:stedsnr" v="245856" />
	</node>
	<node lat="59.510080555528475" lon="8.562594444861162" id="-23708">
		<tag k="name" v="Skridustaul" />
		<tag k="place" v="locality" />
		<tag k="ssr:stedsnr" v="246030" />
	</node>
	<node lat="59.41749788688721" lon="8.743247731421098" id="-23710">
		<tag k="alt_name" v="Svintokslid" />
		<tag k="historic" v="shieling" />
		<tag k="name" v="Svintoksstaulen" />
		<tag k="place" v="isolated_dwelling" />
		<tag k="ssr:stedsnr" v="245949" />
	</node>
	<node lat="59.56731944478158" lon="8.530933338941589" id="-23722">
		<tag k="fixme" v="consider place=hamlet" />
		<tag k="name" v="Siljudale" />
		<tag k="place" v="farm" />
		<tag k="ssr:stedsnr" v="246936" />
	</node>
	<node lat="59.565830555311166" lon="8.51730833813168" id="-23723">
		<tag k="name" v="Dale" />
		<tag k="place" v="hamlet" />
		<tag k="ssr:stedsnr" v="246937" />
	</node>
	<node lat="59.55931388649595" lon="8.469238886944884" id="-23724">
		<tag k="name" v="Tjørnstaul" />
		<tag k="place" v="isolated_dwelling" />
		<tag k="ssr:stedsnr" v="246941" />
	</node>
	<node lat="59.430461114317374" lon="8.64666110477904" id="-23738">
		<tag k="historic" v="shieling" />
		<tag k="name" v="Åslistaulen" />
		<tag k="place" v="isolated_dwelling" />
		<tag k="ssr:stedsnr" v="97275" />
	</node>
	<node lat="59.414955558305095" lon="8.708941662421154" id="-23740">
		<tag k="name" v="Svartorkåsi" />
		<tag k="place" v="locality" />
		<tag k="ssr:stedsnr" v="97320" />
	</node>
	<node lat="59.49668888644565" lon="8.633519445585376" id="-23743">
		<tag k="name" v="Åkre" />
		<tag k="place" v="farm" />
		<tag k="ssr:stedsnr" v="97672" />
	</node>
	<node lat="59.48245000043965" lon="8.620130550877258" id="-23745">
		<tag k="amenity" v="school" />
		<tag k="name" v="Vesttelemark vidaregåande skule, avd. Seljord" />
		<tag k="old_name" v="Seljord husmorskule" />
		<tag k="ssr:stedsnr" v="97776" />
	</node>
	<node lat="59.4902888887815" lon="8.647277783441671" id="-23746">
		<tag k="name" v="Bjørge nordre" />
		<tag k="place" v="farm" />
		<tag k="ssr:stedsnr" v="97910" />
	</node>
	<node lat="59.61788055644123" lon="8.403950006462473" id="-23749">
		<tag k="historic" v="shieling" />
		<tag k="name" v="Lislestaul" />
		<tag k="place" v="isolated_dwelling" />
		<tag k="ssr:stedsnr" v="98025" />
	</node>
	<node lat="59.590016670200676" lon="8.477883339038689" id="-23753">
		<tag k="name" v="Pilebakk" />
		<tag k="place" v="locality" />
		<tag k="ssr:stedsnr" v="98082" />
	</node>
	<node lat="59.55774166839865" lon="8.575847221680439" id="-23757">
		<tag k="name" v="Nymoen" />
		<tag k="place" v="farm" />
		<tag k="ssr:stedsnr" v="98671" />
	</node>
	<node lat="59.48643055286677" lon="8.654572225883197" id="-23759">
		<tag k="name" v="Lyngstad" />
		<tag k="place" v="isolated_dwelling" />
		<tag k="ssr:stedsnr" v="98924" />
	</node>
	<node lat="59.673633334722496" lon="8.281541661866854" id="-23760">
		<tag k="name" v="Myrstaul nedre" />
		<tag k="place" v="locality" />
		<tag k="ssr:stedsnr" v="99166" />
	</node>
	<node lat="59.656555554496016" lon="8.285994443733632" id="-23763">
		<tag k="name" v="Myrvoll" />
		<tag k="place" v="farm" />
		<tag k="ssr:stedsnr" v="99376" />
	</node>
	<node lat="59.639033330047376" lon="8.327036113533097" id="-23764">
		<tag k="historic" v="shieling" />
		<tag k="name" v="Reinsvitt" />
		<tag k="place" v="isolated_dwelling" />
		<tag k="ssr:stedsnr" v="99263" />
	</node>
	<node lat="59.65548055417283" lon="8.361558338811568" id="-23767">
		<tag k="name" v="Århus" />
		<tag k="place" v="farm" />
		<tag k="ssr:stedsnr" v="103011" />
	</node>
	<node lat="59.352888892421134" lon="8.83055833406018" id="-23785">
		<tag k="name" v="Grånastaul" />
		<tag k="place" v="isolated_dwelling" />
		<tag k="ssr:stedsnr" v="123869" />
	</node>
	<node lat="59.723750000431316" lon="8.312550002362025" id="-23786">
		<tag k="alt_name" v="Skardbustaulen" />
		<tag k="historic" v="shieling" />
		<tag k="name" v="Skarbu" />
		<tag k="place" v="isolated_dwelling" />
		<tag k="ssr:stedsnr" v="124177" />
	</node>
	<node lat="59.61158611348553" lon="8.4529638947126" id="-23790">
		<tag k="alt_name" v="Kvistaul" />
		<tag k="fixme" v="consider place=hamlet" />
		<tag k="name" v="Kvisstaul" />
		<tag k="place" v="farm" />
		<tag k="ssr:stedsnr" v="124204" />
	</node>
	<node lat="59.5895750017785" lon="8.325527777904457" id="-23792">
		<tag k="historic" v="shieling" />
		<tag k="name" v="Busanden" />
		<tag k="place" v="isolated_dwelling" />
		<tag k="ssr:stedsnr" v="124413" />
	</node>
	<node lat="59.60171111080415" lon="8.474133331315834" id="-23795">
		<tag k="fixme" v="consider place=hamlet" />
		<tag k="name" v="Heddejord" />
		<tag k="place" v="farm" />
		<tag k="ssr:stedsnr" v="124856" />
	</node>
	<node lat="59.58789166477381" lon="8.478550004016297" id="-23797">
		<tag k="alt_name" v="Kleiven" />
		<tag k="fixme" v="consider place=hamlet" />
		<tag k="name" v="Kleivi" />
		<tag k="place" v="farm" />
		<tag k="ssr:stedsnr" v="124870" />
	</node>
	<node lat="59.454277774148224" lon="8.760711105112046" id="-23803">
		<tag k="name" v="Rugtveit sudigard" />
		<tag k="place" v="farm" />
		<tag k="ssr:stedsnr" v="156016" />
	</node>
	<node lat="59.45234444173277" lon="8.749616659374839" id="-23804">
		<tag k="name" v="Strand nedre" />
		<tag k="place" v="farm" />
		<tag k="ssr:stedsnr" v="156100" />
	</node>
	<node lat="59.504388891298426" lon="8.573397213756325" id="-23806">
		<tag k="name" v="Tresland nordre" />
		<tag k="place" v="farm" />
		<tag k="ssr:stedsnr" v="157057" />
	</node>
	<node lat="59.50936667089904" lon="8.570211116017225" id="-23807">
		<tag k="historic" v="shieling" />
		<tag k="name" v="Kulten" />
		<tag k="place" v="isolated_dwelling" />
		<tag k="ssr:stedsnr" v="157208" />
	</node>
	<node lat="59.47724166804561" lon="8.594191663410404" id="-23808">
		<tag k="fixme" v="consider place=hamlet" />
		<tag k="name" v="Klomset øvre" />
		<tag k="place" v="farm" />
		<tag k="ssr:stedsnr" v="157210" />
	</node>
	<node lat="59.46625833431178" lon="8.718880559367804" id="-23809">
		<tag k="name" v="Svink" />
		<tag k="place" v="locality" />
		<tag k="ssr:stedsnr" v="157498" />
	</node>
	<node lat="59.4888361088188" lon="8.688283329752487" id="-23812">
		<tag k="historic" v="shieling" />
		<tag k="name" v="Rognestaul" />
		<tag k="place" v="isolated_dwelling" />
		<tag k="ssr:stedsnr" v="157565" />
	</node>
	<node lat="59.59825278165535" lon="8.525252777232744" id="-23814">
		<tag k="name" v="Ingersmoen" />
		<tag k="place" v="locality" />
		<tag k="ssr:stedsnr" v="158009" />
	</node>
	<node lat="59.60092923486062" lon="8.52299065839433" id="-23815">
		<tag k="historic" v="shieling" />
		<tag k="name" v="Hegni" />
		<tag k="place" v="isolated_dwelling" />
		<tag k="ssr:stedsnr" v="158012" />
	</node>
	<node lat="59.7081277783509" lon="8.441688896071854" id="-23817">
		<tag k="historic" v="shieling" />
		<tag k="name" v="Svain Robekk" />
		<tag k="place" v="isolated_dwelling" />
		<tag k="ssr:stedsnr" v="157959" />
	</node>
	<node lat="59.48888610839924" lon="8.63932500826311" id="-23820">
		<tag k="leisure" v="pitch" />
		<tag k="name" v="Kyrkjejordet" />
		<tag k="ssr:stedsnr" v="158749" />
	</node>
	<node lat="59.639291669929" lon="8.323986114121066" id="-23826">
		<tag k="historic" v="shieling" />
		<tag k="name" v="Mostaul" />
		<tag k="place" v="isolated_dwelling" />
		<tag k="ssr:stedsnr" v="159269" />
	</node>
	<node lat="59.614586109635766" lon="8.371547226386744" id="-23829">
		<tag k="historic" v="shieling" />
		<tag k="name" v="Bratsberg" />
		<tag k="place" v="isolated_dwelling" />
		<tag k="ssr:stedsnr" v="163278" />
	</node>
	<node lat="59.673169447713846" lon="8.308925003427271" id="-23831">
		<tag k="historic" v="shieling" />
		<tag k="name" v="Bekkjestaul nedre" />
		<tag k="place" v="isolated_dwelling" />
		<tag k="ssr:stedsnr" v="163316" />
	</node>
	<node lat="59.65285277381512" lon="8.34054444521076" id="-23838">
		<tag k="name" v="Nystaul" />
		<tag k="place" v="locality" />
		<tag k="ssr:stedsnr" v="164120" />
	</node>
	<node lat="59.60646389266596" lon="8.367938893533983" id="-23840">
		<tag k="historic" v="shieling" />
		<tag k="name" v="Valemoen" />
		<tag k="place" v="isolated_dwelling" />
		<tag k="ssr:stedsnr" v="164230" />
	</node>
	<node lat="59.494447719689035" lon="8.539642621346337" id="-23846">
		<tag k="alt_name" v="Tjønnstaul" />
		<tag k="historic" v="shieling" />
		<tag k="name" v="Tjørnstaul" />
		<tag k="place" v="isolated_dwelling" />
		<tag k="ssr:stedsnr" v="184039" />
	</node>
	<node lat="59.44882499875282" lon="8.738124995299675" id="-23847">
		<tag k="name" v="Stodi" />
		<tag k="place" v="isolated_dwelling" />
		<tag k="ssr:stedsnr" v="184051" />
	</node>
	<node lat="59.457774997159966" lon="8.556249993088665" id="-23848">
		<tag k="name" v="Staulen" />
		<tag k="place" v="isolated_dwelling" />
		<tag k="ssr:stedsnr" v="184083" />
	</node>
	<node lat="59.463016663191205" lon="8.582658329672386" id="-23849">
		<tag k="name" v="Lisland" />
		<tag k="place" v="farm" />
		<tag k="ssr:stedsnr" v="184086" />
	</node>
	<node lat="59.467181814639886" lon="8.791994395532305" id="-23850">
		<tag k="name" v="Svanadalen" />
		<tag k="place" v="locality" />
		<tag k="ssr:stedsnr" v="184103" />
	</node>
	<node lat="59.47140555277908" lon="8.624152776264498" id="-23851">
		<tag k="name" v="Åsen" />
		<tag k="place" v="farm" />
		<tag k="ssr:stedsnr" v="184108" />
	</node>
	<node lat="59.390133332996044" lon="8.733361108476522" id="-23853">
		<tag k="alt_name" v="Tjønnstaul" />
		<tag k="name" v="Tjørnstaul" />
		<tag k="place" v="locality" />
		<tag k="ssr:stedsnr" v="184742" />
	</node>
	<node lat="59.424700000891754" lon="8.674472223617773" id="-23854">
		<tag k="name" v="Langkasin" />
		<tag k="place" v="isolated_dwelling" />
		<tag k="ssr:stedsnr" v="184909" />
	</node>
	<node lat="59.426505556840446" lon="8.752675007369636" id="-23855">
		<tag k="alt_name" v="Ytre Nes" />
		<tag k="fixme" v="consider place=hamlet" />
		<tag k="name" v="Nes" />
		<tag k="place" v="farm" />
		<tag k="ssr:stedsnr" v="184911" />
	</node>
	<node lat="59.42240278100659" lon="8.72244721651119" id="-23856">
		<tag k="name" v="Tjørnås" />
		<tag k="place" v="farm" />
		<tag k="ssr:stedsnr" v="184914" />
	</node>
	<node lat="59.43314166347551" lon="8.713125003338673" id="-23857">
		<tag k="name" v="Berge" />
		<tag k="place" v="farm" />
		<tag k="ssr:stedsnr" v="184885" />
	</node>
	<node lat="59.72142500445485" lon="8.372088897018976" id="-23861">
		<tag k="alt_name" v="Bleikaroe" />
		<tag k="name" v="Bleikaroi" />
		<tag k="place" v="isolated_dwelling" />
		<tag k="ssr:stedsnr" v="185184" />
	</node>
	<node lat="59.58929166569216" lon="8.375119440345426" id="-23872">
		<tag k="fixme" v="consider place=hamlet" />
		<tag k="name" v="Bakken" />
		<tag k="place" v="farm" />
		<tag k="ssr:stedsnr" v="185439" />
	</node>
	<node lat="59.58705555213059" lon="8.432572222024781" id="-23874">
		<tag k="name" v="Skåli" />
		<tag k="place" v="isolated_dwelling" />
		<tag k="ssr:stedsnr" v="185442" />
	</node>
	<node lat="59.57174999796579" lon="8.591086108946067" id="-23876">
		<tag k="name" v="Høgkasin" />
		<tag k="place" v="farm" />
		<tag k="ssr:stedsnr" v="185931" />
	</node>
	<node lat="59.644236112026555" lon="8.396800008123913" id="-23888">
		<tag k="historic" v="shieling" />
		<tag k="name" v="Kjærstaul" />
		<tag k="place" v="isolated_dwelling" />
		<tag k="ssr:stedsnr" v="218488" />
	</node>
	<node lat="59.47448333765632" lon="8.646149999090712" id="-23889">
		<tag k="name" v="Fiskarbekk" />
		<tag k="place" v="isolated_dwelling" />
		<tag k="ssr:stedsnr" v="218497" />
	</node>
	<node lat="59.48020555302201" lon="8.701936117613815" id="-23894">
		<tag k="historic" v="shieling" />
		<tag k="name" v="Nystaul" />
		<tag k="place" v="isolated_dwelling" />
		<tag k="ssr:stedsnr" v="218510" />
	</node>
	<node lat="59.634522219039276" lon="8.440705549697443" id="-23898">
		<tag k="historic" v="shieling" />
		<tag k="name" v="Grinddalen" />
		<tag k="place" v="isolated_dwelling" />
		<tag k="ssr:stedsnr" v="219028" />
	</node>
	<node lat="59.653433330496476" lon="8.444600008612294" id="-23900">
		<tag k="historic" v="shieling" />
		<tag k="name" v="Nyrjord" />
		<tag k="place" v="isolated_dwelling" />
		<tag k="ssr:stedsnr" v="218992" />
	</node>
	<node lat="59.657547226296366" lon="8.457894448327915" id="-23901">
		<tag k="historic" v="shieling" />
		<tag k="name" v="Veslesmåtjønn" />
		<tag k="place" v="isolated_dwelling" />
		<tag k="ssr:stedsnr" v="218996" />
	</node>
	<node lat="59.434391669434895" lon="8.729213883350884" id="-23902">
		<tag k="name" v="Garvik vestre" />
		<tag k="place" v="farm" />
		<tag k="ssr:stedsnr" v="219172" />
	</node>
	<node lat="59.585747218750456" lon="8.455727771002023" id="-23904">
		<tag k="historic" v="shieling" />
		<tag k="name" v="Vetthaug" />
		<tag k="place" v="isolated_dwelling" />
		<tag k="ssr:stedsnr" v="219073" />
	</node>
	<node lat="59.58877221988624" lon="8.457344448812778" id="-23905">
		<tag k="historic" v="shieling" />
		<tag k="name" v="Hengjuv" />
		<tag k="place" v="isolated_dwelling" />
		<tag k="ssr:stedsnr" v="219076" />
	</node>
	<node lat="59.499150004098794" lon="8.663447224313508" id="-23908">
		<tag k="name" v="Vårstaulen" />
		<tag k="place" v="locality" />
		<tag k="ssr:stedsnr" v="219671" />
	</node>
	<node lat="59.59118888844823" lon="8.56188888234839" id="-23910">
		<tag k="name" v="Bleka øvre" />
		<tag k="place" v="farm" />
		<tag k="ssr:stedsnr" v="219820" />
	</node>
	<node lat="59.76627500330315" lon="8.320555554813863" id="-23916">
		<tag k="name" v="Fløytingsroe" />
		<tag k="place" v="locality" />
		<tag k="ssr:stedsnr" v="220176" />
	</node>
	<node lat="59.75274722496853" lon="8.378805548369547" id="-23917">
		<tag k="historic" v="shieling" />
		<tag k="name" v="Mefjell" />
		<tag k="place" v="isolated_dwelling" />
		<tag k="ssr:stedsnr" v="220178" />
	</node>
	<node lat="59.64305277521889" lon="8.32108889506664" id="-23918">
		<tag k="name" v="Esplidbakken" />
		<tag k="place" v="locality" />
		<tag k="ssr:stedsnr" v="220308" />
	</node>
	<node lat="59.65057500449666" lon="8.292449998963505" id="-23920">
		<tag k="name" v="Kvevestaul" />
		<tag k="place" v="locality" />
		<tag k="ssr:stedsnr" v="220325" />
	</node>
	<node lat="59.648080552384954" lon="8.272755554615054" id="-23922">
		<tag k="alt_name" v="Kvanbekk" />
		<tag k="fixme" v="consider place=hamlet" />
		<tag k="name" v="Kvambekk" />
		<tag k="place" v="farm" />
		<tag k="ssr:stedsnr" v="220409" />
	</node>
	<node lat="59.62768333727458" lon="8.442130559170186" id="-23924">
		<tag k="historic" v="shieling" />
		<tag k="name" v="Nedre Jombrekkdalen" />
		<tag k="place" v="isolated_dwelling" />
		<tag k="ssr:stedsnr" v="220817" />
	</node>
	<node lat="59.660838888158885" lon="8.367852771765383" id="-23926">
		<tag k="historic" v="shieling" />
		<tag k="name" v="Fiten" />
		<tag k="place" v="isolated_dwelling" />
		<tag k="ssr:stedsnr" v="220571" />
	</node>
	<node lat="59.54287222046025" lon="8.416255555103103" id="-23931">
		<tag k="historic" v="shieling" />
		<tag k="name" v="Moen" />
		<tag k="place" v="isolated_dwelling" />
		<tag k="ssr:stedsnr" v="221106" />
	</node>
	<node lat="59.634022222103816" lon="8.482875000387638" id="-23932">
		<tag k="historic" v="shieling" />
		<tag k="name" v="Listaul" />
		<tag k="place" v="isolated_dwelling" />
		<tag k="ssr:stedsnr" v="221777" />
	</node>
	<node lat="59.593861113090036" lon="8.378338890651579" id="-23934">
		<tag k="name" v="Tussehaugen" />
		<tag k="place" v="isolated_dwelling" />
		<tag k="ssr:stedsnr" v="224146" />
	</node>
	<node lat="59.6073777750385" lon="8.27751945042415" id="-23935">
		<tag k="historic" v="shieling" />
		<tag k="name" v="Kobbersroe" />
		<tag k="place" v="isolated_dwelling" />
		<tag k="ssr:stedsnr" v="224438" />
	</node>
	<node lat="59.62772500186828" lon="8.287572224844771" id="-23937">
		<tag k="name" v="Listaul" />
		<tag k="place" v="locality" />
		<tag k="ssr:stedsnr" v="224341" />
	</node>
	<node lat="59.61863333603721" lon="8.3645111079418" id="-23940">
		<tag k="historic" v="shieling" />
		<tag k="name" v="Gåsevasstaulen" />
		<tag k="place" v="isolated_dwelling" />
		<tag k="ssr:stedsnr" v="225195" />
	</node>
	<node lat="59.437230553519974" lon="8.85891389729926" id="-23942">
		<tag k="name" v="Skarkevje nedre" />
		<tag k="place" v="farm" />
		<tag k="ssr:stedsnr" v="225985" />
	</node>
	<node lat="59.4375722178432" lon="8.861000004000406" id="-23943">
		<tag k="name" v="Åbø" />
		<tag k="place" v="farm" />
		<tag k="ssr:stedsnr" v="225987" />
	</node>
	<node lat="59.46522778083321" lon="8.574922230708673" id="-23945">
		<tag k="alt_name" v="Li, nedre" />
		<tag k="loc_name" v="Li" />
		<tag k="name" v="Nedre Li" />
		<tag k="place" v="farm" />
		<tag k="ssr:stedsnr" v="245002" />
	</node>
	<node lat="59.461283334910156" lon="8.733524992532615" id="-23947">
		<tag k="fixme" v="consider place=hamlet" />
		<tag k="name" v="Igletveit" />
		<tag k="place" v="farm" />
		<tag k="ssr:stedsnr" v="245084" />
	</node>
	<node lat="59.46394999607811" lon="8.757163895519556" id="-23949">
		<tag k="name" v="Veslestaul" />
		<tag k="place" v="isolated_dwelling" />
		<tag k="ssr:stedsnr" v="245092" />
	</node>
	<node lat="59.40535555510993" lon="8.70845833306393" id="-23956">
		<tag k="name" v="Trollebotn" />
		<tag k="place" v="farm" />
		<tag k="ssr:stedsnr" v="245965" />
	</node>
	<node lat="59.57586110812426" lon="8.442241659412732" id="-23961">
		<tag k="alt_name" v="Nord-Kvåle" />
		<tag k="name" v="Kvåle" />
		<tag k="place" v="farm" />
		<tag k="ssr:stedsnr" v="246409" />
	</node>
	<node lat="59.55733055898303" lon="8.56702223034802" id="-23967">
		<tag k="name" v="Rinde" />
		<tag k="place" v="farm" />
		<tag k="ssr:stedsnr" v="246922" />
	</node>
	<node lat="59.57876944627837" lon="8.539041659255016" id="-23969">
		<tag k="historic" v="shieling" />
		<tag k="name" v="Myrstaul" />
		<tag k="place" v="isolated_dwelling" />
		<tag k="ssr:stedsnr" v="246869" />
	</node>
	<node lat="59.551930555941524" lon="8.59686388706732" id="-23972">
		<tag k="fixme" v="consider place=hamlet" />
		<tag k="name" v="Sundbø" />
		<tag k="place" v="farm" />
		<tag k="ssr:stedsnr" v="246964" />
	</node>
	<node lat="59.55062621329748" lon="8.61953688796056" id="-23973">
		<tag k="alt_name" v="Sitje, vesle" />
		<tag k="name" v="Sitje" />
		<tag k="place" v="locality" />
		<tag k="ssr:stedsnr" v="246972" />
	</node>
	<node lat="59.4486250011148" lon="8.85535277743448" id="-23975">
		<tag k="historic" v="shieling" />
		<tag k="name" v="Månekåsa" />
		<tag k="place" v="isolated_dwelling" />
		<tag k="ssr:stedsnr" v="459154" />
	</node>
	<node lat="59.46707499907301" lon="8.879138883165757" id="-23980">
		<tag k="historic" v="shieling" />
		<tag k="name" v="Mostaul" />
		<tag k="place" v="isolated_dwelling" />
		<tag k="ssr:stedsnr" v="277197" />
	</node>
	<node lat="59.52579444087127" lon="8.644880555537345" id="-23982">
		<tag k="name" v="Vinkelen" />
		<tag k="place" v="locality" />
		<tag k="ssr:stedsnr" v="278725" />
	</node>
	<node lat="59.46620833134833" lon="8.766980559801057" id="-23987">
		<tag k="name" v="Nystaul" />
		<tag k="place" v="locality" />
		<tag k="ssr:stedsnr" v="279126" />
	</node>
	<node lat="59.45189166689942" lon="8.734186118815533" id="-23994">
		<tag k="name" v="Geirsand" />
		<tag k="place" v="isolated_dwelling" />
		<tag k="ssr:stedsnr" v="279388" />
	</node>
	<node lat="59.64848610718277" lon="8.42247777756094" id="-23995">
		<tag k="historic" v="shieling" />
		<tag k="name" v="Langelitjønni" />
		<tag k="place" v="isolated_dwelling" />
		<tag k="ssr:stedsnr" v="279519" />
	</node>
	<node lat="59.473900003060514" lon="8.659713896564881" id="-23996">
		<tag k="name" v="Hovet" />
		<tag k="place" v="isolated_dwelling" />
		<tag k="ssr:stedsnr" v="279521" />
	</node>
	<node lat="59.58031111188053" lon="8.560947216726706" id="-23997">
		<tag k="name" v="Haugerud" />
		<tag k="place" v="farm" />
		<tag k="ssr:stedsnr" v="279810" />
	</node>
	<node lat="59.58670833084605" lon="8.548130554211893" id="-24000">
		<tag k="name" v="Kasin" />
		<tag k="place" v="farm" />
		<tag k="ssr:stedsnr" v="279821" />
	</node>
	<node lat="59.58928611436885" lon="8.540494437089153" id="-24001">
		<tag k="historic" v="shieling" />
		<tag k="name" v="Midtbøendalen" />
		<tag k="place" v="isolated_dwelling" />
		<tag k="ssr:stedsnr" v="279828" />
	</node>
	<node lat="59.5865500008338" lon="8.573883338735717" id="-24004">
		<tag k="name" v="Brekka søndre" />
		<tag k="place" v="isolated_dwelling" />
		<tag k="ssr:stedsnr" v="279787" />
	</node>
	<node lat="59.5781416682078" lon="8.571608336049163" id="-24005">
		<tag k="name" v="Høystaul" />
		<tag k="place" v="locality" />
		<tag k="ssr:stedsnr" v="279790" />
	</node>
	<node lat="59.48910555948411" lon="8.650108332822379" id="-24006">
		<tag k="name" v="Bjørge midtre" />
		<tag k="place" v="farm" />
		<tag k="ssr:stedsnr" v="279908" />
	</node>
	<node lat="59.57504999851803" lon="8.426191667326174" id="-24008">
		<tag k="name" v="Ekre Nigard" />
		<tag k="place" v="farm" />
		<tag k="ssr:stedsnr" v="280016" />
	</node>
	<node lat="59.57328610827931" lon="8.565036110727076" id="-24010">
		<tag k="name" v="Åsheim" />
		<tag k="place" v="farm" />
		<tag k="ssr:stedsnr" v="280925" />
	</node>
	<node lat="59.44492777968752" lon="8.834625007387173" id="-24023">
		<tag k="name" v="Dalen øvre" />
		<tag k="place" v="farm" />
		<tag k="ssr:stedsnr" v="461078" />
	</node>
	<node lat="59.68095833713302" lon="8.322983334277717" id="-24031">
		<tag k="historic" v="shieling" />
		<tag k="name" v="Kvannufs" />
		<tag k="place" v="isolated_dwelling" />
		<tag k="ssr:stedsnr" v="285330" />
	</node>
	<node lat="59.58514444679957" lon="8.37949165868685" id="-24035">
		<tag k="name" v="Rue" />
		<tag k="place" v="farm" />
		<tag k="ssr:stedsnr" v="285914" />
	</node>
	<node lat="59.386386112008225" lon="8.6641166648171" id="-24038">
		<tag k="historic" v="shieling" />
		<tag k="name" v="Nystaul" />
		<tag k="place" v="isolated_dwelling" />
		<tag k="ssr:stedsnr" v="461324" />
	</node>
	<node lat="59.415594441869466" lon="8.677616672458432" id="-24044">
		<tag k="name" v="Åsland" />
		<tag k="place" v="locality" />
		<tag k="ssr:stedsnr" v="461382" />
	</node>
	<node lat="59.65140555408326" lon="8.40596943567818" id="-24047">
		<tag k="historic" v="shieling" />
		<tag k="name" v="Tjønnestaul" />
		<tag k="place" v="isolated_dwelling" />
		<tag k="ssr:stedsnr" v="461498" />
	</node>
	<node lat="59.58286388898795" lon="8.558022221025219" id="-24049">
		<tag k="name" v="Skogstad" />
		<tag k="place" v="farm" />
		<tag k="ssr:stedsnr" v="461790" />
	</node>
	<node lat="59.56719444528309" lon="8.394163886413535" id="-24056">
		<tag k="name" v="Ekre-Nystaul" />
		<tag k="place" v="locality" />
		<tag k="ssr:stedsnr" v="462083" />
	</node>
	<node lat="59.420497220801735" lon="8.770733334662584" id="-24059">
		<tag k="name" v="Skaret" />
		<tag k="place" v="locality" />
		<tag k="ssr:stedsnr" v="462943" />
	</node>
	<node lat="59.56563611461637" lon="8.418522224365667" id="-24060">
		<tag k="historic" v="shieling" />
		<tag k="name" v="Osen" />
		<tag k="place" v="isolated_dwelling" />
		<tag k="ssr:stedsnr" v="463068" />
	</node>
	<node lat="59.65161110899873" lon="8.314688893169054" id="-24061">
		<tag k="name" v="Breidal" />
		<tag k="place" v="locality" />
		<tag k="ssr:stedsnr" v="463241" />
	</node>
	<node lat="59.66805277598425" lon="8.350652772663576" id="-24063">
		<tag k="name" v="Klypa" />
		<tag k="place" v="locality" />
		<tag k="ssr:stedsnr" v="463490" />
	</node>
	<node lat="59.47063888759613" lon="8.695561109242037" id="-24065">
		<tag k="name" v="Fjostuft" />
		<tag k="place" v="farm" />
		<tag k="ssr:stedsnr" v="305120" />
	</node>
	<node lat="59.38875833491483" lon="8.775658338794717" id="-24066">
		<tag k="name" v="Strandstaul" />
		<tag k="place" v="isolated_dwelling" />
		<tag k="ssr:stedsnr" v="305771" />
	</node>
	<node lat="59.43605555313257" lon="8.729477775266055" id="-24067">
		<tag k="alt_name" v="Gardvik" />
		<tag k="fixme" v="consider place=hamlet" />
		<tag k="name" v="Garvik" />
		<tag k="place" v="farm" />
		<tag k="ssr:stedsnr" v="305907" />
	</node>
	<node lat="59.43406110777248" lon="8.714530546983154" id="-24068">
		<tag k="name" v="Åse" />
		<tag k="place" v="locality" />
		<tag k="ssr:stedsnr" v="305908" />
	</node>
	<node lat="59.47258055159" lon="8.588225004392635" id="-24069">
		<tag k="name" v="Hegnin" />
		<tag k="place" v="farm" />
		<tag k="ssr:stedsnr" v="306014" />
	</node>
	<node lat="59.47928055597006" lon="8.621347219753993" id="-24070">
		<tag k="fixme" v="consider place=hamlet" />
		<tag k="name" v="Utgarden" />
		<tag k="place" v="farm" />
		<tag k="ssr:stedsnr" v="306020" />
	</node>
	<node lat="59.498291665594884" lon="8.621911111176379" id="-24073">
		<tag k="fixme" v="consider place=hamlet" />
		<tag k="name" v="Venås" />
		<tag k="place" v="farm" />
		<tag k="ssr:stedsnr" v="306066" />
	</node>
	<node lat="59.54251944265985" lon="8.552658327407372" id="-24076">
		<tag k="name" v="Viheim" />
		<tag k="place" v="isolated_dwelling" />
		<tag k="ssr:stedsnr" v="306963" />
	</node>
	<node lat="59.59055555812165" lon="8.545450007591763" id="-24077">
		<tag k="fixme" v="consider place=hamlet" />
		<tag k="name" v="Luten" />
		<tag k="place" v="farm" />
		<tag k="ssr:stedsnr" v="306859" />
	</node>
	<node lat="59.59285000210393" lon="8.548575005968267" id="-24078">
		<tag k="name" v="Haugstaul" />
		<tag k="place" v="isolated_dwelling" />
		<tag k="ssr:stedsnr" v="306860" />
	</node>
	<node lat="59.60342499785666" lon="8.522758338633103" id="-24079">
		<tag k="alt_name" v="Bøle søndre;Bøle, s" />
		<tag k="name" v="Søndre Bøle" />
		<tag k="place" v="farm" />
		<tag k="ssr:stedsnr" v="306861" />
	</node>
	<node lat="59.5979074535481" lon="8.500932244369041" id="-24080">
		<tag k="historic" v="shieling" />
		<tag k="name" v="Høystaul" />
		<tag k="place" v="isolated_dwelling" />
		<tag k="ssr:stedsnr" v="306873" />
	</node>
	<node lat="59.52923611349375" lon="8.63940277428319" id="-24082">
		<tag k="name" v="Strond" />
		<tag k="place" v="locality" />
		<tag k="ssr:stedsnr" v="307998" />
	</node>
	<node lat="59.64490555136148" lon="8.356761119427194" id="-24085">
		<tag k="name" v="Sneiet" />
		<tag k="place" v="farm" />
		<tag k="ssr:stedsnr" v="467127" />
	</node>
	<node lat="59.637791667160364" lon="8.32150832676557" id="-24091">
		<tag k="historic" v="shieling" />
		<tag k="name" v="Kvigarden" />
		<tag k="place" v="isolated_dwelling" />
		<tag k="ssr:stedsnr" v="467156" />
	</node>
	<node lat="59.61253889118617" lon="8.27567778301236" id="-24093">
		<tag k="historic" v="shieling" />
		<tag k="name" v="Mastedalen" />
		<tag k="place" v="isolated_dwelling" />
		<tag k="ssr:stedsnr" v="467391" />
	</node>
	<node lat="59.675013889422615" lon="8.317155549365015" id="-24096">
		<tag k="historic" v="shieling" />
		<tag k="name" v="Mjølteli" />
		<tag k="place" v="isolated_dwelling" />
		<tag k="ssr:stedsnr" v="467351" />
	</node>
	<node lat="59.677791670748306" lon="8.274180552862221" id="-24097">
		<tag k="historic" v="shieling" />
		<tag k="name" v="Grovi" />
		<tag k="place" v="isolated_dwelling" />
		<tag k="ssr:stedsnr" v="467359" />
	</node>
	<node lat="59.58494722445965" lon="8.383722229616117" id="-24101">
		<tag k="name" v="Ruslid" />
		<tag k="place" v="locality" />
		<tag k="ssr:stedsnr" v="467935" />
	</node>
	<node lat="59.50371110818713" lon="8.509897225921396" id="-24110">
		<tag k="name" v="Kveldro" />
		<tag k="place" v="isolated_dwelling" />
		<tag k="ssr:stedsnr" v="339007" />
	</node>
	<node lat="59.51100833671668" lon="8.517730562976324" id="-24113">
		<tag k="name" v="Fjellstaul" />
		<tag k="place" v="locality" />
		<tag k="ssr:stedsnr" v="339200" />
	</node>
	<node lat="59.64309999800894" lon="8.422774998484867" id="-24116">
		<tag k="historic" v="shieling" />
		<tag k="name" v="Listaul" />
		<tag k="place" v="isolated_dwelling" />
		<tag k="ssr:stedsnr" v="339492" />
	</node>
	<node lat="59.64538055922222" lon="8.42701388566418" id="-24117">
		<tag k="historic" v="shieling" />
		<tag k="name" v="Dalastaul" />
		<tag k="place" v="isolated_dwelling" />
		<tag k="ssr:stedsnr" v="339493" />
	</node>
	<node lat="59.65695833141217" lon="8.426230551113907" id="-24118">
		<tag k="historic" v="shieling" />
		<tag k="name" v="Øvre Geitenuten" />
		<tag k="place" v="isolated_dwelling" />
		<tag k="ssr:stedsnr" v="339494" />
	</node>
	<node lat="59.63057222020573" lon="8.412427777350384" id="-24121">
		<tag k="name" v="Kvævestaul" />
		<tag k="place" v="locality" />
		<tag k="ssr:stedsnr" v="340052" />
	</node>
	<node lat="59.58991944271584" lon="8.474872221136474" id="-24123">
		<tag k="name" v="Husland" />
		<tag k="place" v="locality" />
		<tag k="ssr:stedsnr" v="340092" />
	</node>
	<node lat="59.609455559946284" lon="8.51474167036487" id="-24125">
		<tag k="historic" v="shieling" />
		<tag k="name" v="Flatin" />
		<tag k="place" v="isolated_dwelling" />
		<tag k="ssr:stedsnr" v="340233" />
	</node>
	<node lat="59.66193173879913" lon="8.458516494909404" id="-24127">
		<tag k="historic" v="shieling" />
		<tag k="name" v="Småtjønn" />
		<tag k="place" v="isolated_dwelling" />
		<tag k="ssr:stedsnr" v="339992" />
	</node>
	<node lat="59.412808330663346" lon="8.810391662716958" id="-24136">
		<tag k="name" v="Kleivstaul" />
		<tag k="place" v="locality" />
		<tag k="ssr:stedsnr" v="340910" />
	</node>
	<node lat="59.56372221785795" lon="8.59250832813235" id="-24138">
		<tag k="historic" v="shieling" />
		<tag k="name" v="Kvigarden" />
		<tag k="place" v="isolated_dwelling" />
		<tag k="ssr:stedsnr" v="340924" />
	</node>
	<node lat="59.486586108760264" lon="8.649897225753776" id="-24140">
		<tag k="name" v="Bjørgemoen" />
		<tag k="ssr:stedsnr" v="340945" />
		<tag k="tourism" v="camp_site" />
	</node>
	<node lat="59.594694442459485" lon="8.536641657907238" id="-24141">
		<tag k="name" v="Barstad nedre" />
		<tag k="place" v="farm" />
		<tag k="ssr:stedsnr" v="340817" />
	</node>
	<node lat="59.664283334869886" lon="8.285863883299303" id="-24144">
		<tag k="historic" v="shieling" />
		<tag k="name" v="Tjønnestaul" />
		<tag k="place" v="isolated_dwelling" />
		<tag k="ssr:stedsnr" v="341156" />
	</node>
	<node lat="59.7027583368945" lon="8.442124998193428" id="-24146">
		<tag k="historic" v="shieling" />
		<tag k="name" v="Nystaul" />
		<tag k="place" v="isolated_dwelling" />
		<tag k="ssr:stedsnr" v="341309" />
	</node>
	<node lat="59.64679999668185" lon="8.276644450853285" id="-24149">
		<tag k="name" v="Flatastaul" />
		<tag k="place" v="locality" />
		<tag k="ssr:stedsnr" v="341401" />
	</node>
	<node lat="59.615961114188444" lon="8.408255559616055" id="-24150">
		<tag k="name" v="Rønjom" />
		<tag k="place" v="farm" />
		<tag k="ssr:stedsnr" v="341906" />
	</node>
	<node lat="59.53180833385509" lon="8.439522228365078" id="-24152">
		<tag k="historic" v="shieling" />
		<tag k="name" v="Dyrflat" />
		<tag k="place" v="isolated_dwelling" />
		<tag k="ssr:stedsnr" v="342109" />
	</node>
	<node lat="59.60007222213667" lon="8.372636111186239" id="-24155">
		<tag k="name" v="Tjønnestaul" />
		<tag k="place" v="locality" />
		<tag k="ssr:stedsnr" v="345283" />
	</node>
	<node lat="59.670930559981706" lon="8.320519443131762" id="-24157">
		<tag k="historic" v="shieling" />
		<tag k="name" v="Tjønnestaul" />
		<tag k="place" v="isolated_dwelling" />
		<tag k="ssr:stedsnr" v="345326" />
	</node>
	<node lat="59.652158336356266" lon="8.35610000190059" id="-24159">
		<tag k="name" v="Gravlid" />
		<tag k="place" v="locality" />
		<tag k="ssr:stedsnr" v="346010" />
	</node>
	<node lat="59.58114166335697" lon="8.372166662140506" id="-24161">
		<tag k="name" v="Fitbakken" />
		<tag k="place" v="isolated_dwelling" />
		<tag k="ssr:stedsnr" v="346059" />
	</node>
	<node lat="59.64021111560703" lon="8.500355563432898" id="-24163">
		<tag k="historic" v="shieling" />
		<tag k="name" v="Skrøyva nordre" />
		<tag k="place" v="isolated_dwelling" />
		<tag k="ssr:stedsnr" v="346074" />
	</node>
	<node lat="59.57209721876301" lon="8.262488881005078" id="-24164">
		<tag k="historic" v="shieling" />
		<tag k="name" v="Dømlaus" />
		<tag k="place" v="isolated_dwelling" />
		<tag k="ssr:stedsnr" v="346363" />
	</node>
	<node lat="59.60374999838518" lon="8.36434445231137" id="-24166">
		<tag k="historic" v="shieling" />
		<tag k="name" v="Nystaul" />
		<tag k="place" v="isolated_dwelling" />
		<tag k="ssr:stedsnr" v="346412" />
	</node>
	<node lat="59.446888886423686" lon="8.847969438084663" id="-24170">
		<tag k="alt_name" v="Holtestaul" />
		<tag k="name" v="Holtestaulen" />
		<tag k="place" v="farm" />
		<tag k="ssr:stedsnr" v="366501" />
	</node>
	<node lat="59.45005000218241" lon="8.875027779577021" id="-24171">
		<tag k="name" v="Todalen" />
		<tag k="place" v="isolated_dwelling" />
		<tag k="ssr:stedsnr" v="366504" />
	</node>
	<node lat="59.42800000308279" lon="8.667233336570664" id="-24174">
		<tag k="name" v="Jamgrav" />
		<tag k="place" v="farm" />
		<tag k="ssr:stedsnr" v="366883" />
	</node>
	<node lat="59.422400002304116" lon="8.675605556527803" id="-24175">
		<tag k="name" v="Haugland" />
		<tag k="place" v="farm" />
		<tag k="ssr:stedsnr" v="366914" />
	</node>
	<node lat="59.67138889208939" lon="8.264499995033708" id="-24179">
		<tag k="fixme" v="consider place=hamlet" />
		<tag k="name" v="Kjos" />
		<tag k="place" v="farm" />
		<tag k="ssr:stedsnr" v="367122" />
	</node>
	<node lat="59.611819448215904" lon="8.365080562775704" id="-24182">
		<tag k="historic" v="shieling" />
		<tag k="name" v="Skor" />
		<tag k="place" v="isolated_dwelling" />
		<tag k="ssr:stedsnr" v="367204" />
	</node>
	<node lat="59.60090833643107" lon="8.291883330181047" id="-24183">
		<tag k="historic" v="shieling" />
		<tag k="name" v="Kjosstaul" />
		<tag k="place" v="isolated_dwelling" />
		<tag k="ssr:stedsnr" v="367205" />
	</node>
	<node lat="59.571777781598314" lon="8.345461108854998" id="-24186">
		<tag k="alt_name" v="Vibekk" />
		<tag k="historic" v="shieling" />
		<tag k="name" v="Vidbekk" />
		<tag k="place" v="isolated_dwelling" />
		<tag k="ssr:stedsnr" v="367381" />
	</node>
	<node lat="59.585605557632626" lon="8.35939444660278" id="-24189">
		<tag k="alt_name" v="Haydal nedre" />
		<tag k="name" v="Høydal" />
		<tag k="place" v="farm" />
		<tag k="ssr:stedsnr" v="367426" />
	</node>
	<node lat="59.57856345449578" lon="8.564397298774887" id="-24191">
		<tag k="alt_name" v="Grønerud" />
		<tag k="name" v="Grønnerud" />
		<tag k="place" v="farm" />
		<tag k="ssr:stedsnr" v="367880" />
	</node>
	<node lat="59.573666668503385" lon="8.545908332348072" id="-24192">
		<tag k="alt_name" v="Åsane nordre;Øvre Åsane" />
		<tag k="fixme" v="consider place=hamlet" />
		<tag k="name" v="Åsan" />
		<tag k="place" v="farm" />
		<tag k="ssr:stedsnr" v="367883" />
	</node>
	<node lat="59.5875166642948" lon="8.558511104782873" id="-24193">
		<tag k="alt_name" v="Haugsvoll" />
		<tag k="name" v="Haugsvold" />
		<tag k="place" v="farm" />
		<tag k="ssr:stedsnr" v="367886" />
	</node>
	<node lat="59.575544442100686" lon="8.632305548117742" id="-24194">
		<tag k="historic" v="shieling" />
		<tag k="name" v="Dalastaul" />
		<tag k="place" v="isolated_dwelling" />
		<tag k="ssr:stedsnr" v="367888" />
	</node>
	<node lat="59.57764166605313" lon="8.640249998162044" id="-24195">
		<tag k="name" v="Løyning" />
		<tag k="place" v="isolated_dwelling" />
		<tag k="ssr:stedsnr" v="367890" />
	</node>
	<node lat="59.56463610922791" lon="8.587916674606952" id="-24196">
		<tag k="alt_name" v="Natadal nedre" />
		<tag k="fixme" v="consider place=hamlet" />
		<tag k="name" v="Natadal" />
		<tag k="place" v="farm" />
		<tag k="ssr:stedsnr" v="367928" />
	</node>
	<node lat="59.44979166512161" lon="8.863177777351543" id="-24199">
		<tag k="name" v="Brekketo søndre" />
		<tag k="place" v="farm" />
		<tag k="ssr:stedsnr" v="398136" />
	</node>
	<node lat="59.659827779515105" lon="8.440869437250054" id="-24209">
		<tag k="historic" v="shieling" />
		<tag k="name" v="Steinroe" />
		<tag k="place" v="isolated_dwelling" />
		<tag k="ssr:stedsnr" v="400508" />
	</node>
	<node lat="59.58783332911698" lon="8.553075002262208" id="-24215">
		<tag k="fixme" v="consider place=hamlet" />
		<tag k="name" v="Svartdal søndre" />
		<tag k="place" v="farm" />
		<tag k="ssr:stedsnr" v="400826" />
	</node>
	<node lat="59.548763887728875" lon="8.600763890169745" id="-24216">
		<tag k="name" v="Hegni" />
		<tag k="place" v="farm" />
		<tag k="ssr:stedsnr" v="400896" />
	</node>
	<node lat="59.60677777888442" lon="8.526580551900924" id="-24219">
		<tag k="name" v="Vårbulid" />
		<tag k="place" v="locality" />
		<tag k="ssr:stedsnr" v="401232" />
	</node>
	<node lat="59.421274999765046" lon="8.82913611940077" id="-24220">
		<tag k="name" v="Saten" />
		<tag k="place" v="locality" />
		<tag k="ssr:stedsnr" v="401904" />
	</node>
	<node lat="59.58155555929328" lon="8.39004166915912" id="-24224">
		<tag k="name" v="Russbakkan" />
		<tag k="place" v="locality" />
		<tag k="ssr:stedsnr" v="402014" />
	</node>
	<node lat="59.528905556167686" lon="8.478074999386047" id="-24227">
		<tag k="historic" v="shieling" />
		<tag k="name" v="Rostaul" />
		<tag k="place" v="isolated_dwelling" />
		<tag k="ssr:stedsnr" v="402126" />
	</node>
	<node lat="59.66966944666053" lon="8.31257222435367" id="-24234">
		<tag k="historic" v="shieling" />
		<tag k="name" v="Nystaul" />
		<tag k="place" v="isolated_dwelling" />
		<tag k="ssr:stedsnr" v="406354" />
	</node>
	<node lat="59.60537222660267" lon="8.2841500048993" id="-24236">
		<tag k="name" v="Bekkjestaul" />
		<tag k="place" v="locality" />
		<tag k="ssr:stedsnr" v="406490" />
	</node>
	<node lat="59.59438333030956" lon="8.324124991453775" id="-24238">
		<tag k="historic" v="shieling" />
		<tag k="name" v="Velte" />
		<tag k="place" v="isolated_dwelling" />
		<tag k="ssr:stedsnr" v="406391" />
	</node>
	<node lat="59.45562499997269" lon="8.729000001628483" id="-24247">
		<tag k="name" v="Sanden" />
		<tag k="place" v="isolated_dwelling" />
		<tag k="ssr:stedsnr" v="487083" />
	</node>
	<node lat="59.458530552565286" lon="8.739736119123332" id="-24249">
		<tag k="name" v="Kåsi" />
		<tag k="place" v="farm" />
		<tag k="ssr:stedsnr" v="487091" />
	</node>
	<node lat="59.45725000038891" lon="8.74950277463689" id="-24250">
		<tag k="alt_name" v="Maneim" />
		<tag k="fixme" v="consider place=hamlet" />
		<tag k="name" v="Manheim" />
		<tag k="place" v="farm" />
		<tag k="ssr:stedsnr" v="487092" />
	</node>
	<node lat="59.462447220214415" lon="8.597749994668106" id="-24251">
		<tag k="name" v="Langvenda" />
		<tag k="place" v="farm" />
		<tag k="ssr:stedsnr" v="487096" />
	</node>
	<node lat="59.50132777778988" lon="8.604747217506409" id="-24255">
		<tag k="name" v="Haugsrud" />
		<tag k="place" v="locality" />
		<tag k="ssr:stedsnr" v="488012" />
	</node>
	<node lat="59.490211107245095" lon="8.735716675014125" id="-24256">
		<tag k="name" v="Fjellstaul" />
		<tag k="place" v="locality" />
		<tag k="ssr:stedsnr" v="488034" />
	</node>
	<node lat="59.687863886019855" lon="8.392094435800596" id="-24258">
		<tag k="name" v="Lysthus" />
		<tag k="place" v="isolated_dwelling" />
		<tag k="ssr:stedsnr" v="488135" />
	</node>
	<node lat="59.48769166998637" lon="8.60243056418395" id="-24260">
		<tag k="name" v="Feten" />
		<tag k="place" v="farm" />
		<tag k="ssr:stedsnr" v="488040" />
	</node>
	<node lat="59.6147805559984" lon="8.282822227583626" id="-24265">
		<tag k="historic" v="shieling" />
		<tag k="name" v="Hovdestaul" />
		<tag k="place" v="isolated_dwelling" />
		<tag k="ssr:stedsnr" v="488272" />
	</node>
	<node lat="59.619599997299176" lon="8.41830555144325" id="-24266">
		<tag k="alt_name" v="Vehus" />
		<tag k="name" v="Vihus" />
		<tag k="place" v="farm" />
		<tag k="ssr:stedsnr" v="488275" />
	</node>
	<node lat="59.618977774296184" lon="8.409558336512598" id="-24267">
		<tag k="fixme" v="consider place=hamlet" />
		<tag k="name" v="Rønjom" />
		<tag k="place" v="farm" />
		<tag k="ssr:stedsnr" v="488276" />
	</node>
	<node lat="59.611391670125265" lon="8.278744437250566" id="-24268">
		<tag k="historic" v="shieling" />
		<tag k="name" v="Meinstad" />
		<tag k="place" v="isolated_dwelling" />
		<tag k="ssr:stedsnr" v="488278" />
	</node>
	<node lat="59.60979444259135" lon="8.284205553067302" id="-24270">
		<tag k="name" v="Bøle" />
		<tag k="place" v="farm" />
		<tag k="ssr:stedsnr" v="488220" />
	</node>
	<node lat="59.609644441885145" lon="8.313483332552643" id="-24271">
		<tag k="historic" v="shieling" />
		<tag k="name" v="Fjellstaul" />
		<tag k="place" v="isolated_dwelling" />
		<tag k="ssr:stedsnr" v="488222" />
	</node>
	<node lat="59.66427777583734" lon="8.335725004872483" id="-24273">
		<tag k="historic" v="shieling" />
		<tag k="name" v="Bekkjestaul" />
		<tag k="place" v="isolated_dwelling" />
		<tag k="ssr:stedsnr" v="488327" />
	</node>
	<node lat="59.541002775793295" lon="8.470241662270055" id="-24275">
		<tag k="alt_name" v="Øvre Stav" />
		<tag k="historic" v="shieling" />
		<tag k="name" v="Stav" />
		<tag k="place" v="isolated_dwelling" />
		<tag k="ssr:stedsnr" v="488383" />
	</node>
	<node lat="59.465066663481785" lon="8.85928611261772" id="-24276">
		<tag k="name" v="Mostaul" />
		<tag k="place" v="isolated_dwelling" />
		<tag k="ssr:stedsnr" v="488585" />
	</node>
	<node lat="59.61250000074337" lon="8.49932499314622" id="-24278">
		<tag k="alt_name" v="Skardet, søre" />
		<tag k="name" v="Søre Skardet" />
		<tag k="place" v="isolated_dwelling" />
		<tag k="ssr:stedsnr" v="488782" />
	</node>
	<node lat="59.43907500261133" lon="8.755775006267426" id="-24279">
		<tag k="name" v="Storøy" />
		<tag k="place" v="farm" />
		<tag k="ssr:stedsnr" v="488884" />
	</node>
	<node lat="59.588033334341844" lon="8.552844435668225" id="-24280">
		<tag k="name" v="Svartdal" />
		<tag k="place" v="hamlet" />
		<tag k="ssr:stedsnr" v="488890" />
	</node>
	<node lat="59.41258610818366" lon="8.79924722544987" id="-24281">
		<tag k="alt_name" v="Dalane;Dalene" />
		<tag k="name" v="Dalan" />
		<tag k="place" v="locality" />
		<tag k="ssr:stedsnr" v="488960" />
	</node>
	<node lat="59.54243055965128" lon="8.621205550239482" id="-24283">
		<tag k="name" v="Haugen" />
		<tag k="place" v="farm" />
		<tag k="ssr:stedsnr" v="488969" />
	</node>
	<node lat="59.40714166322061" lon="8.70647221884404" id="-24286">
		<tag k="fixme" v="consider place=hamlet" />
		<tag k="name" v="Dale" />
		<tag k="place" v="farm" />
		<tag k="ssr:stedsnr" v="488974" />
	</node>
	<node lat="59.402077774255936" lon="8.804769439518314" id="-24288">
		<tag k="name" v="Gonge" />
		<tag k="place" v="isolated_dwelling" />
		<tag k="ssr:stedsnr" v="488983" />
	</node>
	<node lat="59.52188333512084" lon="8.71723055848234" id="-24292">
		<tag k="name" v="Hopparoi" />
		<tag k="place" v="isolated_dwelling" />
		<tag k="ssr:stedsnr" v="489992" />
	</node>
	<node lat="59.46404166540896" lon="8.569202783216822" id="-24293">
		<tag k="fixme" v="consider place=hamlet" />
		<tag k="name" v="Bakken" />
		<tag k="place" v="farm" />
		<tag k="ssr:stedsnr" v="427002" />
	</node>
	<node lat="59.45451110931071" lon="8.564238882565695" id="-24298">
		<tag k="alt_name" v="Haugen" />
		<tag k="name" v="Brekkahaugen" />
		<tag k="place" v="farm" />
		<tag k="ssr:stedsnr" v="427092" />
	</node>
	<node lat="59.462388890668365" lon="8.885125007925444" id="-24299">
		<tag k="name" v="Moskard" />
		<tag k="place" v="isolated_dwelling" />
		<tag k="ssr:stedsnr" v="427483" />
	</node>
	<node lat="59.50238333218999" lon="8.589383339541495" id="-24301">
		<tag k="fixme" v="consider place=hamlet" />
		<tag k="name" v="Kivle" />
		<tag k="place" v="farm" />
		<tag k="ssr:stedsnr" v="428016" />
	</node>
	<node lat="59.405083336573284" lon="8.725463890774575" id="-24302">
		<tag k="name" v="Hasleviki" />
		<tag k="place" v="farm" />
		<tag k="ssr:stedsnr" v="427966" />
	</node>
	<node lat="59.40908610672863" lon="8.769322221117735" id="-24303">
		<tag k="historic" v="shieling" />
		<tag k="name" v="Blomhaug" />
		<tag k="place" v="isolated_dwelling" />
		<tag k="ssr:stedsnr" v="427980" />
	</node>
	<node lat="59.67705555771127" lon="8.340922229696982" id="-24304">
		<tag k="alt_name" v="Harang" />
		<tag k="fixme" v="consider place=hamlet" />
		<tag k="name" v="Hardang" />
		<tag k="place" v="farm" />
		<tag k="ssr:stedsnr" v="428115" />
	</node>
	<node lat="59.77506666796253" lon="8.325475000598466" id="-24307">
		<tag k="alt_name" v="Grasfjellstaulen" />
		<tag k="historic" v="shieling" />
		<tag k="name" v="Grasfjellsætri" />
		<tag k="place" v="isolated_dwelling" />
		<tag k="ssr:stedsnr" v="428068" />
	</node>
	<node lat="59.620075003054694" lon="8.429024991807985" id="-24309">
		<tag k="name" v="Kleivan" />
		<tag k="place" v="farm" />
		<tag k="ssr:stedsnr" v="428273" />
	</node>
	<node lat="59.56909444033248" lon="8.353141659380201" id="-24312">
		<tag k="name" v="Røynbrekk" />
		<tag k="place" v="isolated_dwelling" />
		<tag k="ssr:stedsnr" v="428412" />
	</node>
	<node lat="59.575072219229845" lon="8.335997225214161" id="-24313">
		<tag k="historic" v="shieling" />
		<tag k="name" v="Skomestaul" />
		<tag k="place" v="isolated_dwelling" />
		<tag k="ssr:stedsnr" v="428413" />
	</node>
	<node lat="59.63905278079392" lon="8.317955556753542" id="-24315">
		<tag k="historic" v="shieling" />
		<tag k="name" v="Nystaul" />
		<tag k="place" v="isolated_dwelling" />
		<tag k="ssr:stedsnr" v="428307" />
	</node>
	<node lat="59.674205559360985" lon="8.44092777633098" id="-24317">
		<tag k="alt_name" v="Mjølteli" />
		<tag k="name" v="Mjøltelid" />
		<tag k="place" v="isolated_dwelling" />
		<tag k="ssr:stedsnr" v="428322" />
	</node>
	<node lat="59.604513886567446" lon="8.520936116925757" id="-24321">
		<tag k="alt_name" v="Bøle nordre;Bøle, nordre" />
		<tag k="fixme" v="consider place=hamlet" />
		<tag k="name" v="Nordre Bøle" />
		<tag k="place" v="farm" />
		<tag k="ssr:stedsnr" v="428874" />
	</node>
	<node lat="59.41722500299331" lon="8.666511108050452" id="-24325">
		<tag k="name" v="Færstaul" />
		<tag k="place" v="farm" />
		<tag k="ssr:stedsnr" v="670959" />
	</node>
	<node lat="59.52411944708574" lon="8.693386116808894" id="-24333">
		<tag k="name" v="Hegnin" />
		<tag k="place" v="isolated_dwelling" />
		<tag k="ssr:stedsnr" v="671995" />
	</node>
	<node lat="59.47580555272981" lon="8.639686115050567" id="-24344">
		<tag k="name" v="Bøen" />
		<tag k="place" v="farm" />
		<tag k="ssr:stedsnr" v="461536" />
	</node>
	<node lat="59.576561115336744" lon="8.56568889519894" id="-24350">
		<tag k="name" v="Vardås" />
		<tag k="place" v="farm" />
		<tag k="ssr:stedsnr" v="461809" />
	</node>
	<node lat="59.58911111361242" lon="8.550177785764637" id="-24351">
		<tag k="name" v="Svartdal midtre" />
		<tag k="place" v="farm" />
		<tag k="ssr:stedsnr" v="461818" />
	</node>
	<node lat="59.5772472212047" lon="8.496908341393622" id="-24356">
		<tag k="name" v="Skogen nedre" />
		<tag k="place" v="locality" />
		<tag k="ssr:stedsnr" v="462064" />
	</node>
	<node lat="59.59107222343541" lon="8.481480553761488" id="-24357">
		<tag k="name" v="Geitufs" />
		<tag k="place" v="locality" />
		<tag k="ssr:stedsnr" v="462076" />
	</node>
	<node lat="59.5949000018183" lon="8.477949992445163" id="-24358">
		<tag k="name" v="Vasstveit" />
		<tag k="place" v="locality" />
		<tag k="ssr:stedsnr" v="462079" />
	</node>
	<node lat="59.61927499580269" lon="8.515716668284346" id="-24361">
		<tag k="historic" v="shieling" />
		<tag k="name" v="Ymjers-sel" />
		<tag k="place" v="isolated_dwelling" />
		<tag k="ssr:stedsnr" v="462467" />
	</node>
	<node lat="59.63187499849907" lon="8.396691658025826" id="-24363">
		<tag k="name" v="Berge" />
		<tag k="place" v="farm" />
		<tag k="ssr:stedsnr" v="463004" />
	</node>
	<node lat="59.57193611401117" lon="8.568247213898752" id="-24365">
		<tag k="name" v="Granli" />
		<tag k="place" v="farm" />
		<tag k="ssr:stedsnr" v="462923" />
	</node>
	<node lat="59.402452775547914" lon="8.73632777832759" id="-24367">
		<tag k="alt_name" v="Napastå" />
		<tag k="name" v="Napastod" />
		<tag k="place" v="farm" />
		<tag k="ssr:stedsnr" v="462977" />
	</node>
	<node lat="59.51874444170977" lon="8.488505554211331" id="-24368">
		<tag k="historic" v="shieling" />
		<tag k="name" v="Slettestaul søndre" />
		<tag k="place" v="isolated_dwelling" />
		<tag k="ssr:stedsnr" v="463116" />
	</node>
	<node lat="59.58706389285704" lon="8.356338891783933" id="-24370">
		<tag k="name" v="Høydal" />
		<tag k="place" v="farm" />
		<tag k="ssr:stedsnr" v="463308" />
	</node>
	<node lat="59.44969721936481" lon="8.902227783174455" id="-24372">
		<tag k="historic" v="shieling" />
		<tag k="name" v="Ljosmyrstaul" />
		<tag k="place" v="isolated_dwelling" />
		<tag k="ssr:stedsnr" v="467003" />
	</node>
	<node lat="59.63555555984982" lon="8.339611114973831" id="-24375">
		<tag k="historic" v="shieling" />
		<tag k="name" v="Høgeli" />
		<tag k="place" v="isolated_dwelling" />
		<tag k="ssr:stedsnr" v="467267" />
	</node>
	<node lat="59.61243055621046" lon="8.36479999655559" id="-24377">
		<tag k="historic" v="shieling" />
		<tag k="name" v="Skor" />
		<tag k="place" v="isolated_dwelling" />
		<tag k="ssr:stedsnr" v="467371" />
	</node>
	<node lat="59.60652777751317" lon="8.343230562092554" id="-24380">
		<tag k="historic" v="shieling" />
		<tag k="name" v="Lislestaul" />
		<tag k="place" v="isolated_dwelling" />
		<tag k="ssr:stedsnr" v="467377" />
	</node>
	<node lat="59.585952774783735" lon="8.290830552514858" id="-24382">
		<tag k="name" v="Fosseroe" />
		<tag k="place" v="locality" />
		<tag k="ssr:stedsnr" v="468330" />
	</node>
	<node lat="59.43139167018725" lon="8.739947230592513" id="-24384">
		<tag k="alt_name" v="Sannes" />
		<tag k="name" v="Sandnes" />
		<tag k="place" v="farm" />
		<tag k="ssr:stedsnr" v="487919" />
	</node>
	<node lat="59.672613889362694" lon="8.353186115016447" id="-24386">
		<tag k="historic" v="shieling" />
		<tag k="name" v="Dyrdal" />
		<tag k="place" v="isolated_dwelling" />
		<tag k="ssr:stedsnr" v="488121" />
	</node>
	<node lat="59.679613887402056" lon="8.25956111115826" id="-24387">
		<tag k="alt_name" v="Sølli, nedre;Sollid nedre;Nedre Sølli" />
		<tag k="fixme" v="consider place=hamlet" />
		<tag k="name" v="Solli" />
		<tag k="place" v="farm" />
		<tag k="ssr:stedsnr" v="488122" />
	</node>
	<node lat="59.49436666450585" lon="8.64682222490325" id="-24390">
		<tag k="name" v="Dalen" />
		<tag k="place" v="farm" />
		<tag k="ssr:stedsnr" v="488054" />
	</node>
	<node lat="59.511944446861946" lon="8.560752781507546" id="-24391">
		<tag k="name" v="Karto" />
		<tag k="place" v="locality" />
		<tag k="ssr:stedsnr" v="488057" />
	</node>
	<node lat="59.51522500290594" lon="8.545177780517767" id="-24392">
		<tag k="name" v="Høna" />
		<tag k="place" v="isolated_dwelling" />
		<tag k="ssr:stedsnr" v="488059" />
	</node>
	<node lat="59.56671110783495" lon="8.42616388282569" id="-24394">
		<tag k="name" v="Dalstaul" />
		<tag k="place" v="farm" />
		<tag k="ssr:stedsnr" v="488429" />
	</node>
	<node lat="59.58361388555952" lon="8.332763895641795" id="-24396">
		<tag k="historic" v="shieling" />
		<tag k="name" v="Fjåbekk" />
		<tag k="place" v="isolated_dwelling" />
		<tag k="ssr:stedsnr" v="488462" />
	</node>
	<node lat="59.580686113794954" lon="8.327830554685416" id="-24398">
		<tag k="alt_name" v="Tjønnestaul" />
		<tag k="historic" v="shieling" />
		<tag k="name" v="Tjørnstaul" />
		<tag k="place" v="isolated_dwelling" />
		<tag k="ssr:stedsnr" v="488464" />
	</node>
	<node lat="59.586988889668696" lon="8.372736113017497" id="-24400">
		<tag k="name" v="Nordbø" />
		<tag k="place" v="farm" />
		<tag k="ssr:stedsnr" v="488466" />
	</node>
	<node lat="59.655866666998364" lon="8.415605562154143" id="-24405">
		<tag k="alt_name" v="Stakkstøli" />
		<tag k="historic" v="shieling" />
		<tag k="name" v="Nedre Stakstaulli" />
		<tag k="place" v="isolated_dwelling" />
		<tag k="ssr:stedsnr" v="488346" />
	</node>
	<node lat="59.655283334365066" lon="8.38590832459141" id="-24406">
		<tag k="historic" v="shieling" />
		<tag k="name" v="Flatastaul" />
		<tag k="place" v="isolated_dwelling" />
		<tag k="ssr:stedsnr" v="488347" />
	</node>
	<node lat="59.65471944755284" lon="8.430436113505943" id="-24407">
		<tag k="historic" v="shieling" />
		<tag k="name" v="Geiterov" />
		<tag k="place" v="isolated_dwelling" />
		<tag k="ssr:stedsnr" v="488350" />
	</node>
	<node lat="59.6288833319518" lon="8.502780550095054" id="-24411">
		<tag k="name" v="Melsombu" />
		<tag k="place" v="isolated_dwelling" />
		<tag k="ssr:stedsnr" v="488759" />
	</node>
	<node lat="59.55905833782637" lon="8.593049995408037" id="-24415">
		<tag k="name" v="Kjøta" />
		<tag k="place" v="farm" />
		<tag k="ssr:stedsnr" v="489924" />
	</node>
	<node lat="59.46152221965943" lon="8.57669166122435" id="-24417">
		<tag k="name" v="Nyland" />
		<tag k="place" v="farm" />
		<tag k="ssr:stedsnr" v="521210" />
	</node>
	<node lat="59.48224444245489" lon="8.608533335006852" id="-24418">
		<tag k="name" v="Storgård" />
		<tag k="place" v="farm" />
		<tag k="ssr:stedsnr" v="521215" />
	</node>
	<node lat="59.46748611248319" lon="8.579811107952004" id="-24419">
		<tag k="name" v="Stigarvoll" />
		<tag k="place" v="farm" />
		<tag k="ssr:stedsnr" v="521217" />
	</node>
	<node lat="59.65221110925529" lon="8.419538896659924" id="-24424">
		<tag k="historic" v="shieling" />
		<tag k="name" v="Ræpeli" />
		<tag k="place" v="isolated_dwelling" />
		<tag k="ssr:stedsnr" v="521471" />
	</node>
	<node lat="59.43395833754943" lon="8.705313889460351" id="-24425">
		<tag k="name" v="Øverland søndre" />
		<tag k="place" v="farm" />
		<tag k="ssr:stedsnr" v="521677" />
	</node>
	<node lat="59.55708888575782" lon="8.56772778236599" id="-24429">
		<tag k="name" v="Rinde" />
		<tag k="place" v="farm" />
		<tag k="ssr:stedsnr" v="522622" />
	</node>
	<node lat="59.57323888501499" lon="8.580144452791933" id="-24432">
		<tag k="name" v="Haugane nordre" />
		<tag k="place" v="farm" />
		<tag k="ssr:stedsnr" v="522733" />
	</node>
	<node lat="59.56506111191041" lon="8.567555560109453" id="-24433">
		<tag k="name" v="Eikland" />
		<tag k="place" v="farm" />
		<tag k="ssr:stedsnr" v="522735" />
	</node>
	<node lat="59.4838500021879" lon="8.624213897166525" id="-24435">
		<tag k="amenity" v="school" />
		<tag k="name" v="Seljord barneskule" />
		<tag k="ssr:stedsnr" v="522738" />
	</node>
	<node lat="59.59053055526302" lon="8.549369452365365" id="-24436">
		<tag k="name" v="Brattebakke" />
		<tag k="place" v="isolated_dwelling" />
		<tag k="ssr:stedsnr" v="522805" />
	</node>
	<node lat="59.67828611552806" lon="8.328330555314457" id="-24442">
		<tag k="historic" v="shieling" />
		<tag k="name" v="Bergestaul" />
		<tag k="place" v="isolated_dwelling" />
		<tag k="ssr:stedsnr" v="523617" />
	</node>
	<node lat="59.69656389003006" lon="8.358933334522504" id="-24444">
		<tag k="name" v="Dalastaul" />
		<tag k="place" v="locality" />
		<tag k="ssr:stedsnr" v="523776" />
	</node>
	<node lat="59.59565555597633" lon="8.379577782525791" id="-24451">
		<tag k="historic" v="shieling" />
		<tag k="name" v="Strandestaul" />
		<tag k="place" v="isolated_dwelling" />
		<tag k="ssr:stedsnr" v="527289" />
	</node>
	<node lat="59.6654888902328" lon="8.316041671318805" id="-24454">
		<tag k="historic" v="shieling" />
		<tag k="name" v="Skeie" />
		<tag k="place" v="isolated_dwelling" />
		<tag k="ssr:stedsnr" v="527344" />
	</node>
	<node lat="59.6810861148899" lon="8.308286111739358" id="-24455">
		<tag k="historic" v="shieling" />
		<tag k="name" v="Myrstaul øvre" />
		<tag k="place" v="isolated_dwelling" />
		<tag k="ssr:stedsnr" v="527350" />
	</node>
	<node lat="59.64435555615965" lon="8.351938895690772" id="-24457">
		<tag k="name" v="Holtar" />
		<tag k="place" v="farm" />
		<tag k="ssr:stedsnr" v="528128" />
	</node>
	<node lat="59.63904444090209" lon="8.500599991522629" id="-24458">
		<tag k="historic" v="shieling" />
		<tag k="name" v="Skrøyva søndre" />
		<tag k="place" v="isolated_dwelling" />
		<tag k="ssr:stedsnr" v="528086" />
	</node>
	<node lat="59.43791666326554" lon="8.847469445923652" id="-24459">
		<tag k="name" v="Nøsthaug" />
		<tag k="place" v="locality" />
		<tag k="ssr:stedsnr" v="528977" />
	</node>
	<node lat="59.463924995691826" lon="8.771630559303665" id="-24461">
		<tag k="name" v="Heimstaul" />
		<tag k="place" v="locality" />
		<tag k="ssr:stedsnr" v="548103" />
	</node>
	<node lat="59.464747223901156" lon="8.813141668877394" id="-24463">
		<tag k="historic" v="shieling" />
		<tag k="name" v="Stakali" />
		<tag k="place" v="isolated_dwelling" />
		<tag k="ssr:stedsnr" v="548111" />
	</node>
	<node lat="59.47176388929617" lon="8.663258334200705" id="-24464">
		<tag k="alt_name" v="Sandsdalen;Sandsdalen nedre" />
		<tag k="name" v="Nedre Sandsdalen" />
		<tag k="place" v="isolated_dwelling" />
		<tag k="ssr:stedsnr" v="548119" />
	</node>
	<node lat="59.714111111400975" lon="8.329672216215213" id="-24481">
		<tag k="historic" v="shieling" />
		<tag k="name" v="Kvammen" />
		<tag k="place" v="isolated_dwelling" />
		<tag k="ssr:stedsnr" v="549203" />
	</node>
	<node lat="59.712958330496356" lon="8.375855548378455" id="-24482">
		<tag k="historic" v="shieling" />
		<tag k="name" v="Grotvassdalen" />
		<tag k="place" v="isolated_dwelling" />
		<tag k="ssr:stedsnr" v="549206" />
	</node>
	<node lat="59.679608337084886" lon="8.440188881688323" id="-24484">
		<tag k="alt_name" v="Krakkset" />
		<tag k="historic" v="shieling" />
		<tag k="name" v="Krakset Nordstaulen" />
		<tag k="place" v="isolated_dwelling" />
		<tag k="ssr:stedsnr" v="549356" />
	</node>
	<node lat="59.53469166499648" lon="8.464483335608326" id="-24485">
		<tag k="name" v="Sundsbarm" />
		<tag k="place" v="isolated_dwelling" />
		<tag k="ssr:stedsnr" v="549501" />
	</node>
	<node lat="59.58866111523004" lon="8.38239443867572" id="-24488">
		<tag k="name" v="Tveiten" />
		<tag k="place" v="farm" />
		<tag k="ssr:stedsnr" v="549465" />
	</node>
	<node lat="59.551486114908194" lon="8.550544451129335" id="-24491">
		<tag k="name" v="Kjerringstaul" />
		<tag k="place" v="isolated_dwelling" />
		<tag k="ssr:stedsnr" v="549957" />
	</node>
	<node lat="59.59547062135478" lon="8.561803887514378" id="-24492">
		<tag k="historic" v="shieling" />
		<tag k="name" v="Ormmyrstaulen" />
		<tag k="place" v="isolated_dwelling" />
		<tag k="ssr:stedsnr" v="549861" />
	</node>
	<node lat="59.68100278067493" lon="8.439536117851032" id="-24506">
		<tag k="historic" v="shieling" />
		<tag k="name" v="Krakset Listaul" />
		<tag k="place" v="isolated_dwelling" />
		<tag k="ssr:stedsnr" v="582522" />
	</node>
	<node lat="59.423111106882594" lon="8.679722220961827" id="-24508">
		<tag k="name" v="Fiskhøltuftin" />
		<tag k="place" v="locality" />
		<tag k="ssr:stedsnr" v="582642" />
	</node>
	<node lat="59.70098055594416" lon="8.41791388406693" id="-24509">
		<tag k="historic" v="shieling" />
		<tag k="name" v="Knipa" />
		<tag k="place" v="isolated_dwelling" />
		<tag k="ssr:stedsnr" v="582946" />
	</node>
	<node lat="59.48847777743167" lon="8.611416672242282" id="-24512">
		<tag k="name" v="Groven øvre" />
		<tag k="place" v="farm" />
		<tag k="ssr:stedsnr" v="583712" />
	</node>
	<node lat="59.48791944742083" lon="8.613336118956106" id="-24513">
		<tag k="alt_name" v="Lille Åseheim" />
		<tag k="fixme" v="consider place=hamlet" />
		<tag k="name" v="Lisleåsheim" />
		<tag k="place" v="farm" />
		<tag k="ssr:stedsnr" v="583734" />
	</node>
	<node lat="59.533094448345295" lon="8.468594449628176" id="-24516">
		<tag k="name" v="Sundsbarm nordre" />
		<tag k="place" v="isolated_dwelling" />
		<tag k="ssr:stedsnr" v="584115" />
	</node>
	<node lat="59.672444446361304" lon="8.358138888630636" id="-24520">
		<tag k="historic" v="shieling" />
		<tag k="name" v="Bjønndalen nordre" />
		<tag k="place" v="isolated_dwelling" />
		<tag k="ssr:stedsnr" v="584509" />
	</node>
	<node lat="59.663230558454416" lon="8.339516668245732" id="-24521">
		<tag k="historic" v="shieling" />
		<tag k="name" v="Myrstaul" />
		<tag k="place" v="isolated_dwelling" />
		<tag k="ssr:stedsnr" v="584521" />
	</node>
	<node lat="59.61646110834016" lon="8.477600003177386" id="-24522">
		<tag k="historic" v="shieling" />
		<tag k="name" v="Bitustaul" />
		<tag k="place" v="isolated_dwelling" />
		<tag k="ssr:stedsnr" v="584550" />
	</node>
	<node lat="59.72166110861177" lon="8.27584443795939" id="-24523">
		<tag k="name" v="Svarthaug" />
		<tag k="place" v="locality" />
		<tag k="ssr:stedsnr" v="584653" />
	</node>
	<node lat="59.69545277564006" lon="8.334569436422267" id="-24525">
		<tag k="historic" v="shieling" />
		<tag k="name" v="Geitestaul" />
		<tag k="place" v="isolated_dwelling" />
		<tag k="ssr:stedsnr" v="584704" />
	</node>
	<node lat="59.64438055201471" lon="8.383147226429795" id="-24531">
		<tag k="alt_name" v="Vollen" />
		<tag k="name" v="Nedre Selstad" />
		<tag k="place" v="farm" />
		<tag k="ssr:stedsnr" v="589065" />
	</node>
	<node lat="59.480383331334735" lon="8.83773333648835" id="-24535">
		<tag k="historic" v="shieling" />
		<tag k="name" v="Dalen" />
		<tag k="place" v="isolated_dwelling" />
		<tag k="ssr:stedsnr" v="608012" />
	</node>
	<node lat="59.466649996886325" lon="8.576049994680124" id="-24536">
		<tag k="alt_name" v="Kavedølen" />
		<tag k="fixme" v="consider place=hamlet" />
		<tag k="name" v="Kovadølen" />
		<tag k="place" v="farm" />
		<tag k="ssr:stedsnr" v="608111" />
	</node>
	<node lat="59.43472777680339" lon="8.71686389048861" id="-24538">
		<tag k="name" v="Netten" />
		<tag k="place" v="isolated_dwelling" />
		<tag k="ssr:stedsnr" v="608926" />
	</node>
	<node lat="59.42674722606402" lon="8.632894446780114" id="-24539">
		<tag k="name" v="Kippestaul" />
		<tag k="place" v="farm" />
		<tag k="ssr:stedsnr" v="608934" />
	</node>
	<node lat="59.47435000076307" lon="8.626130558668573" id="-24542">
		<tag k="name" v="Glosimot" />
		<tag k="place" v="farm" />
		<tag k="ssr:stedsnr" v="609009" />
	</node>
	<node lat="59.50231388573279" lon="8.636125003535447" id="-24543">
		<tag k="alt_name" v="Flatin søndre;Flatin" />
		<tag k="name" v="Søndre Flatin" />
		<tag k="place" v="farm" />
		<tag k="ssr:stedsnr" v="609012" />
	</node>
	<node lat="59.47855832924922" lon="8.617275003764265" id="-24544">
		<tag k="name" v="Nordgarden" />
		<tag k="place" v="farm" />
		<tag k="ssr:stedsnr" v="609015" />
	</node>
	<node lat="59.49106388979946" lon="8.688180563728537" id="-24547">
		<tag k="name" v="Borkebu" />
		<tag k="place" v="isolated_dwelling" />
		<tag k="ssr:stedsnr" v="609029" />
	</node>
	<node lat="59.720258336479034" lon="8.27413333945776" id="-24549">
		<tag k="alt_name" v="Haugeset" />
		<tag k="historic" v="shieling" />
		<tag k="name" v="Haugset" />
		<tag k="place" v="isolated_dwelling" />
		<tag k="ssr:stedsnr" v="609205" />
	</node>
	<node lat="59.69053610725597" lon="8.39816111439399" id="-24551">
		<tag k="historic" v="shieling" />
		<tag k="name" v="Kinsarvik" />
		<tag k="place" v="isolated_dwelling" />
		<tag k="ssr:stedsnr" v="609144" />
	</node>
	<node lat="59.68528333668912" lon="8.46149721343243" id="-24556">
		<tag k="alt_name" v="Smørbrekk" />
		<tag k="historic" v="shieling" />
		<tag k="name" v="Smørbekk" />
		<tag k="place" v="isolated_dwelling" />
		<tag k="ssr:stedsnr" v="609340" />
	</node>
	<node lat="59.60640555864062" lon="8.527605561285457" id="-24561">
		<tag k="alt_name" v="Bølskveven" />
		<tag k="name" v="Bøleskvæven" />
		<tag k="place" v="isolated_dwelling" />
		<tag k="ssr:stedsnr" v="609839" />
	</node>
	<node lat="59.62883333663432" lon="8.457002775259873" id="-24562">
		<tag k="alt_name" v="Bjønnkjerr" />
		<tag k="historic" v="shieling" />
		<tag k="name" v="Bjørnekjerr" />
		<tag k="place" v="isolated_dwelling" />
		<tag k="ssr:stedsnr" v="610330" />
	</node>
	<node lat="59.617641667157976" lon="8.414050007016755" id="-24563">
		<tag k="name" v="Haugen" />
		<tag k="place" v="farm" />
		<tag k="ssr:stedsnr" v="610336" />
	</node>
	<node lat="59.54142292916624" lon="8.565605787534246" id="-24565">
		<tag k="historic" v="shieling" />
		<tag k="name" v="Nystaul" />
		<tag k="place" v="isolated_dwelling" />
		<tag k="ssr:stedsnr" v="610971" />
	</node>
	<node lat="59.53703888665895" lon="8.662483332716572" id="-24568">
		<tag k="name" v="Doktorhytta" />
		<tag k="place" v="isolated_dwelling" />
		<tag k="ssr:stedsnr" v="610988" />
	</node>
	<node lat="59.44883888463681" lon="8.872897219278464" id="-24569">
		<tag k="name" v="Veslekos" />
		<tag k="place" v="locality" />
		<tag k="ssr:stedsnr" v="702134" />
	</node>
	<node lat="59.448474995715266" lon="8.891050005375412" id="-24570">
		<tag k="name" v="Bergan" />
		<tag k="place" v="farm" />
		<tag k="ssr:stedsnr" v="702143" />
	</node>
	<node lat="59.36914721867034" lon="8.83167777006227" id="-24571">
		<tag k="name" v="Rogndalshytta" />
		<tag k="place" v="isolated_dwelling" />
		<tag k="ssr:stedsnr" v="702209" />
	</node>
	<node lat="59.46000555250904" lon="8.747652769924896" id="-24573">
		<tag k="name" v="Myran" />
		<tag k="place" v="locality" />
		<tag k="ssr:stedsnr" v="703089" />
	</node>
	<node lat="59.453647222793066" lon="8.748872213670051" id="-24574">
		<tag k="name" v="Strand øvre" />
		<tag k="place" v="farm" />
		<tag k="ssr:stedsnr" v="703097" />
	</node>
	<node lat="59.47790833352574" lon="8.609263881518599" id="-24575">
		<tag k="fixme" v="consider place=hamlet" />
		<tag k="name" v="Nordgarden" />
		<tag k="place" v="farm" />
		<tag k="ssr:stedsnr" v="703263" />
	</node>
	<node lat="59.45952778204418" lon="8.565747218095746" id="-24578">
		<tag k="name" v="Meås øvre" />
		<tag k="place" v="farm" />
		<tag k="ssr:stedsnr" v="703280" />
	</node>
	<node lat="59.443408332926886" lon="8.781847224044265" id="-24591">
		<tag k="name" v="Sollid" />
		<tag k="place" v="isolated_dwelling" />
		<tag k="ssr:stedsnr" v="704190" />
	</node>
	<node lat="59.440763890705405" lon="8.786916670470541" id="-24592">
		<tag k="alt_name" v="Heggenes nedre" />
		<tag k="name" v="Heggenes" />
		<tag k="place" v="farm" />
		<tag k="ssr:stedsnr" v="704192" />
	</node>
	<node lat="59.475272224295004" lon="8.663905551419123" id="-24595">
		<tag k="name" v="Sinnesodden" />
		<tag k="place" v="locality" />
		<tag k="ssr:stedsnr" v="704487" />
	</node>
	<node lat="59.4889333335941" lon="8.6134305579133" id="-24598">
		<tag k="name" v="Groven nedre" />
		<tag k="place" v="farm" />
		<tag k="ssr:stedsnr" v="704698" />
	</node>
	<node lat="59.58638333175872" lon="8.551083333097758" id="-24599">
		<tag k="name" v="Rui" />
		<tag k="place" v="isolated_dwelling" />
		<tag k="ssr:stedsnr" v="704791" />
	</node>
	<node lat="59.58931944714296" lon="8.549116662968" id="-24600">
		<tag k="fixme" v="consider place=hamlet" />
		<tag k="name" v="Svartdal nordre" />
		<tag k="place" v="farm" />
		<tag k="ssr:stedsnr" v="704796" />
	</node>
	<node lat="59.58806944491617" lon="8.444738881700903" id="-24606">
		<tag k="name" v="Skakk-kvammen" />
		<tag k="place" v="locality" />
		<tag k="ssr:stedsnr" v="705065" />
	</node>
	<node lat="59.60021389314783" lon="8.536788885158026" id="-24609">
		<tag k="historic" v="shieling" />
		<tag k="name" v="Livseng" />
		<tag k="place" v="isolated_dwelling" />
		<tag k="ssr:stedsnr" v="705240" />
	</node>
	<node lat="59.61253055682022" lon="8.499519443305863" id="-24610">
		<tag k="historic" v="shieling" />
		<tag k="name" v="Skaret søndre" />
		<tag k="place" v="isolated_dwelling" />
		<tag k="ssr:stedsnr" v="705257" />
	</node>
	<node lat="59.6584388932472" lon="8.272861118819394" id="-24611">
		<tag k="name" v="Storemyr" />
		<tag k="place" v="locality" />
		<tag k="ssr:stedsnr" v="705302" />
	</node>
	<node lat="59.62944722142937" lon="8.50232222515665" id="-24613">
		<tag k="historic" v="shieling" />
		<tag k="name" v="Flata-kalstaul" />
		<tag k="place" v="isolated_dwelling" />
		<tag k="ssr:stedsnr" v="705320" />
	</node>
	<node lat="59.672477777317894" lon="8.348127780775053" id="-24614">
		<tag k="name" v="Hovdestaul" />
		<tag k="place" v="locality" />
		<tag k="ssr:stedsnr" v="705582" />
	</node>
	<node lat="59.69687500370505" lon="8.34799444414601" id="-24616">
		<tag k="name" v="Flatastaul" />
		<tag k="place" v="locality" />
		<tag k="ssr:stedsnr" v="705748" />
	</node>
	<node lat="59.7017333345284" lon="8.352322220761055" id="-24617">
		<tag k="name" v="Fjøllstaul" />
		<tag k="place" v="locality" />
		<tag k="ssr:stedsnr" v="705750" />
	</node>
	<node lat="59.68977778049382" lon="8.334116674113549" id="-24618">
		<tag k="name" v="Kvanngrø" />
		<tag k="place" v="locality" />
		<tag k="ssr:stedsnr" v="705753" />
	</node>
	<node lat="59.68383332984564" lon="8.355358331185252" id="-24619">
		<tag k="name" v="Enggrav" />
		<tag k="place" v="locality" />
		<tag k="ssr:stedsnr" v="705757" />
	</node>
	<node lat="59.696419445773316" lon="8.353641668312692" id="-24621">
		<tag k="name" v="Skarstaul" />
		<tag k="place" v="locality" />
		<tag k="ssr:stedsnr" v="705778" />
	</node>
	<node lat="59.46231944137158" lon="8.57748888171319" id="-24622">
		<tag k="name" v="Flatin" />
		<tag k="place" v="farm" />
		<tag k="ssr:stedsnr" v="642209" />
	</node>
	<node lat="59.724983332869506" lon="8.316411107622963" id="-24627">
		<tag k="historic" v="shieling" />
		<tag k="name" v="Skarbu" />
		<tag k="place" v="isolated_dwelling" />
		<tag k="ssr:stedsnr" v="706117" />
	</node>
	<node lat="59.51516666462434" lon="8.653913888042888" id="-24631">
		<tag k="name" v="Tempelen" />
		<tag k="place" v="locality" />
		<tag k="ssr:stedsnr" v="642679" />
	</node>
	<node lat="59.4160111116384" lon="8.663141662162563" id="-24637">
		<tag k="name" v="Skotet" />
		<tag k="place" v="locality" />
		<tag k="ssr:stedsnr" v="643009" />
	</node>
	<node lat="59.62760833025628" lon="8.41918055167519" id="-24639">
		<tag k="name" v="Rue" />
		<tag k="place" v="farm" />
		<tag k="ssr:stedsnr" v="643024" />
	</node>
	<node lat="59.37973055706275" lon="8.801624993803346" id="-24646">
		<tag k="name" v="Øverland nordre" />
		<tag k="place" v="farm" />
		<tag k="ssr:stedsnr" v="643114" />
	</node>
	<node lat="59.426238887651216" lon="8.753161104825345" id="-24647">
		<tag k="name" v="Nes" />
		<tag k="place" v="farm" />
		<tag k="ssr:stedsnr" v="643174" />
	</node>
	<node lat="59.408752773479925" lon="8.806819436181643" id="-24649">
		<tag k="historic" v="shieling" />
		<tag k="name" v="Haugestaul" />
		<tag k="place" v="isolated_dwelling" />
		<tag k="ssr:stedsnr" v="643911" />
	</node>
	<node lat="59.55790278062911" lon="8.570188892121998" id="-24651">
		<tag k="name" v="Roland" />
		<tag k="place" v="farm" />
		<tag k="ssr:stedsnr" v="643627" />
	</node>
	<node lat="59.55411666675531" lon="8.54737500537033" id="-24652">
		<tag k="name" v="Smørhytta" />
		<tag k="place" v="locality" />
		<tag k="ssr:stedsnr" v="643825" />
	</node>
	<node lat="59.54265000260837" lon="8.407258331082073" id="-24659">
		<tag k="name" v="Nivelkinn" />
		<tag k="place" v="locality" />
		<tag k="ssr:stedsnr" v="645079" />
	</node>
	<node lat="59.6096888883874" lon="8.432341672283302" id="-24662">
		<tag k="name" v="Hestemyr" />
		<tag k="place" v="locality" />
		<tag k="ssr:stedsnr" v="645895" />
	</node>
	<node lat="59.614936114344474" lon="8.458938893805774" id="-24663">
		<tag k="historic" v="shieling" />
		<tag k="name" v="Brotthus" />
		<tag k="place" v="isolated_dwelling" />
		<tag k="ssr:stedsnr" v="706616" />
	</node>
	<node lat="59.70516666493971" lon="8.345088892821988" id="-24667">
		<tag k="name" v="Bergstaul" />
		<tag k="place" v="locality" />
		<tag k="ssr:stedsnr" v="706953" />
	</node>
	<node lat="59.581491665985304" lon="8.280436117517658" id="-24673">
		<tag k="name" v="Birkebrekk" />
		<tag k="place" v="locality" />
		<tag k="ssr:stedsnr" v="648401" />
	</node>
	<node lat="59.64069444173966" lon="8.264733334310707" id="-24675">
		<tag k="name" v="Krossdalen" />
		<tag k="place" v="locality" />
		<tag k="ssr:stedsnr" v="649114" />
	</node>
	<node lat="59.606583332483474" lon="8.345888895929312" id="-24682">
		<tag k="historic" v="shieling" />
		<tag k="name" v="Sanden" />
		<tag k="place" v="isolated_dwelling" />
		<tag k="ssr:stedsnr" v="649396" />
	</node>
	<node lat="59.644763892583" lon="8.360538892902087" id="-24687">
		<tag k="name" v="Groven vestre" />
		<tag k="place" v="farm" />
		<tag k="ssr:stedsnr" v="709969" />
	</node>
	<node lat="59.59318888972139" lon="8.381047216060175" id="-24688">
		<tag k="name" v="Leitestaul" />
		<tag k="place" v="locality" />
		<tag k="ssr:stedsnr" v="710125" />
	</node>
	<node lat="59.623905552015124" lon="8.375263896822029" id="-24691">
		<tag k="historic" v="shieling" />
		<tag k="name" v="Hestedokki" />
		<tag k="place" v="isolated_dwelling" />
		<tag k="ssr:stedsnr" v="710201" />
	</node>
	<node lat="59.62644444641162" lon="8.375583331487649" id="-24692">
		<tag k="name" v="Nystaul" />
		<tag k="place" v="locality" />
		<tag k="ssr:stedsnr" v="710202" />
	</node>
	<node lat="59.459825003418366" lon="8.566222221733831" id="-24697">
		<tag k="fixme" v="consider place=hamlet" />
		<tag k="name" v="Meås" />
		<tag k="place" v="farm" />
		<tag k="ssr:stedsnr" v="669086" />
	</node>
	<node lat="59.461763886227416" lon="8.554716675483697" id="-24698">
		<tag k="name" v="Olavskås" />
		<tag k="place" v="locality" />
		<tag k="ssr:stedsnr" v="669087" />
	</node>
	<node lat="59.466441667740305" lon="8.699216663284366" id="-24699">
		<tag k="alt_name" v="Dalskåsi" />
		<tag k="name" v="Dalskosi" />
		<tag k="place" v="farm" />
		<tag k="ssr:stedsnr" v="669097" />
	</node>
	<node lat="59.679974996748676" lon="8.299005552059086" id="-24700">
		<tag k="name" v="Solås" />
		<tag k="place" v="locality" />
		<tag k="ssr:stedsnr" v="710368" />
	</node>
	<node lat="59.672622225617225" lon="8.273719447833805" id="-24701">
		<tag k="name" v="Romekvål" />
		<tag k="place" v="locality" />
		<tag k="ssr:stedsnr" v="710375" />
	</node>
	<node lat="59.47509166363903" lon="8.75020000550156" id="-24705">
		<tag k="alt_name" v="Slettelid" />
		<tag k="historic" v="shieling" />
		<tag k="name" v="Slettli" />
		<tag k="place" v="isolated_dwelling" />
		<tag k="ssr:stedsnr" v="670007" />
	</node>
	<node lat="59.474233334564694" lon="8.654758341940369" id="-24706">
		<tag k="alt_name" v="Allmannkås" />
		<tag k="name" v="Almankås" />
		<tag k="place" v="farm" />
		<tag k="ssr:stedsnr" v="670015" />
	</node>
	<node lat="59.462797223844085" lon="8.589502769195024" id="-24711">
		<tag k="alt_name" v="Rolvshus" />
		<tag k="name" v="Rolfshus" />
		<tag k="place" v="farm" />
		<tag k="ssr:stedsnr" v="670109" />
	</node>
	<node lat="59.648794446701395" lon="8.363227781204312" id="-24715">
		<tag k="name" v="Groven" />
		<tag k="place" v="farm" />
		<tag k="ssr:stedsnr" v="670320" />
	</node>
	<node lat="59.6440175598823" lon="8.38426852860529" id="-24716">
		<tag k="fixme" v="consider place=hamlet" />
		<tag k="name" v="Selstad" />
		<tag k="place" v="farm" />
		<tag k="ssr:stedsnr" v="670322" />
	</node>
	<node lat="59.594577775377225" lon="8.477858330464557" id="-24718">
		<tag k="alt_name" v="Vasstveit" />
		<tag k="historic" v="shieling" />
		<tag k="name" v="Samsæter" />
		<tag k="place" v="isolated_dwelling" />
		<tag k="ssr:stedsnr" v="670874" />
	</node>
	<node lat="59.410199382974426" lon="8.74435645786535" id="-24719">
		<tag k="alt_name" v="Venehaug" />
		<tag k="name" v="Venhaug" />
		<tag k="place" v="locality" />
		<tag k="ssr:stedsnr" v="670975" />
	</node>
	<node lat="59.58042499792723" lon="8.446599991458074" id="-24721">
		<tag k="fixme" v="consider place=hamlet" />
		<tag k="name" v="Kvåle" />
		<tag k="place" v="farm" />
		<tag k="ssr:stedsnr" v="671121" />
	</node>
	<node lat="59.55518333085029" lon="8.577699997506363" id="-24722">
		<tag k="name" v="Storteig" />
		<tag k="place" v="farm" />
		<tag k="ssr:stedsnr" v="671928" />
	</node>
	<node lat="59.55785555348274" lon="8.575986112789906" id="-24723">
		<tag k="name" v="Kildal" />
		<tag k="place" v="farm" />
		<tag k="ssr:stedsnr" v="671929" />
	</node>
	<node lat="59.56428923524375" lon="8.55214709941192" id="-24725">
		<tag k="alt_name" v="Juvland" />
		<tag k="name" v="Gjuvland" />
		<tag k="place" v="locality" />
		<tag k="ssr:stedsnr" v="671945" />
	</node>
	<node lat="59.62011388884111" lon="8.362933338513121" id="-24727">
		<tag k="historic" v="shieling" />
		<tag k="name" v="Gåsevasstaulen" />
		<tag k="place" v="isolated_dwelling" />
		<tag k="ssr:stedsnr" v="892179" />
	</node>
	<node lat="59.64602499859865" lon="8.348905553578131" id="-24733">
		<tag k="name" v="Haugan" />
		<tag k="place" v="farm" />
		<tag k="ssr:stedsnr" v="893040" />
	</node>
	<node lat="59.667333334461496" lon="8.43530833500932" id="-24743">
		<tag k="historic" v="shieling" />
		<tag k="name" v="Bekkestaul" />
		<tag k="place" v="isolated_dwelling" />
		<tag k="ssr:stedsnr" v="703561" />
	</node>
	<node lat="59.46491110672297" lon="8.656555558505014" id="-24744">
		<tag k="name" v="Fisbu" />
		<tag k="place" v="locality" />
		<tag k="ssr:stedsnr" v="703705" />
	</node>
	<node lat="59.568027780275564" lon="8.55763055188319" id="-24746">
		<tag k="name" v="Myrane" />
		<tag k="place" v="farm" />
		<tag k="ssr:stedsnr" v="703670" />
	</node>
	<node lat="59.49630000422899" lon="8.64852222000343" id="-24747">
		<tag k="name" v="Øverland søndre" />
		<tag k="place" v="farm" />
		<tag k="ssr:stedsnr" v="703816" />
	</node>
	<node lat="59.575105554324786" lon="8.563824999752859" id="-24751">
		<tag k="name" v="Åsegrendi" />
		<tag k="place" v="hamlet" />
		<tag k="ssr:stedsnr" v="704780" />
	</node>
	<node lat="59.43083888957035" lon="8.737772215229276" id="-24752">
		<tag k="name" v="Odden" />
		<tag k="place" v="hamlet" />
		<tag k="ssr:stedsnr" v="704784" />
	</node>
	<node lat="59.57097500082345" lon="8.56712777381007" id="-24753">
		<tag k="alt_name" v="Kirkerud" />
		<tag k="fixme" v="consider place=hamlet" />
		<tag k="name" v="Kyrkjerud" />
		<tag k="place" v="farm" />
		<tag k="ssr:stedsnr" v="704903" />
	</node>
	<node lat="59.70275555653364" lon="8.429533339729396" id="-24755">
		<tag k="historic" v="shieling" />
		<tag k="name" v="Svain-staule" />
		<tag k="place" v="isolated_dwelling" />
		<tag k="ssr:stedsnr" v="704964" />
	</node>
	<node lat="59.70567777403487" lon="8.372497220535296" id="-24760">
		<tag k="name" v="Dalabu" />
		<tag k="place" v="isolated_dwelling" />
		<tag k="ssr:stedsnr" v="706778" />
	</node>
	<node lat="59.62732500386215" lon="8.375297225388966" id="-24761">
		<tag k="name" v="Myrstaul" />
		<tag k="place" v="locality" />
		<tag k="ssr:stedsnr" v="710203" />
	</node>
	<node lat="59.69528610964087" lon="8.254302778218795" id="-24762">
		<tag k="historic" v="shieling" />
		<tag k="name" v="Listaul" />
		<tag k="place" v="isolated_dwelling" />
		<tag k="ssr:stedsnr" v="710209" />
	</node>
	<node lat="59.45430832977345" lon="8.569677780991043" id="-24771">
		<tag k="name" v="Brekka" />
		<tag k="place" v="farm" />
		<tag k="ssr:stedsnr" v="730072" />
	</node>
	<node lat="59.4655583297503" lon="8.720908338861484" id="-24772">
		<tag k="name" v="Svink" />
		<tag k="place" v="locality" />
		<tag k="ssr:stedsnr" v="730104" />
	</node>
	<node lat="59.453136109912855" lon="8.892672230285886" id="-24774">
		<tag k="name" v="Listaul" />
		<tag k="place" v="isolated_dwelling" />
		<tag k="ssr:stedsnr" v="730521" />
	</node>
	<node lat="59.69608889295927" lon="8.423855556458381" id="-24778">
		<tag k="historic" v="shieling" />
		<tag k="name" v="Venehaug" />
		<tag k="place" v="isolated_dwelling" />
		<tag k="ssr:stedsnr" v="731120" />
	</node>
	<node lat="59.606977775608804" lon="8.441983326387025" id="-24780">
		<tag k="alt_name" v="Søndre Dyrland" />
		<tag k="fixme" v="consider place=hamlet" />
		<tag k="name" v="Dyrland" />
		<tag k="place" v="farm" />
		<tag k="ssr:stedsnr" v="731218" />
	</node>
	<node lat="59.66869166973187" lon="8.292002771473781" id="-24783">
		<tag k="historic" v="shieling" />
		<tag k="name" v="Kråkedal" />
		<tag k="place" v="isolated_dwelling" />
		<tag k="ssr:stedsnr" v="731307" />
	</node>
	<node lat="59.600258006837464" lon="8.536350762879387" id="-24786">
		<tag k="name" v="Livseng" />
		<tag k="place" v="locality" />
		<tag k="ssr:stedsnr" v="731852" />
	</node>
	<node lat="59.583330553171216" lon="8.533472228244571" id="-24787">
		<tag k="name" v="Nystaul" />
		<tag k="place" v="isolated_dwelling" />
		<tag k="ssr:stedsnr" v="731874" />
	</node>
	<node lat="59.443002779678814" lon="8.81290833472544" id="-24788">
		<tag k="alt_name" v="Strand" />
		<tag k="name" v="Strond" />
		<tag k="place" v="farm" />
		<tag k="ssr:stedsnr" v="731875" />
	</node>
	<node lat="59.504916665382346" lon="8.547530560939904" id="-24800">
		<tag k="name" v="Fossestaul" />
		<tag k="place" v="locality" />
		<tag k="ssr:stedsnr" v="764019" />
	</node>
	<node lat="59.474905556158056" lon="8.636961110608917" id="-24804">
		<tag k="name" v="Høgstaul" />
		<tag k="place" v="farm" />
		<tag k="ssr:stedsnr" v="764505" />
	</node>
	<node lat="59.47193888745787" lon="8.664972224260564" id="-24805">
		<tag k="name" v="Solvika" />
		<tag k="place" v="isolated_dwelling" />
		<tag k="ssr:stedsnr" v="764514" />
	</node>
	<node lat="59.485949996765456" lon="8.712772229218979" id="-24806">
		<tag k="name" v="Raudjuvstaulen" />
		<tag k="place" v="locality" />
		<tag k="ssr:stedsnr" v="764519" />
	</node>
	<node lat="59.43707222075565" lon="8.717063884785375" id="-24810">
		<tag k="historic" v="shieling" />
		<tag k="name" v="Nuten" />
		<tag k="place" v="isolated_dwelling" />
		<tag k="ssr:stedsnr" v="764642" />
	</node>
	<node lat="59.59277222108355" lon="8.530116674961501" id="-24813">
		<tag k="name" v="Bakkemodalen" />
		<tag k="place" v="locality" />
		<tag k="ssr:stedsnr" v="764854" />
	</node>
	<node lat="59.62651666331447" lon="8.399525003478171" id="-24818">
		<tag k="name" v="Bergsland" />
		<tag k="place" v="locality" />
		<tag k="ssr:stedsnr" v="765047" />
	</node>
	<node lat="59.58592499583474" lon="8.462225005892298" id="-24819">
		<tag k="name" v="Bekkhus øvre" />
		<tag k="place" v="farm" />
		<tag k="ssr:stedsnr" v="765050" />
	</node>
	<node lat="59.487936111088615" lon="8.651266662218443" id="-24823">
		<tag k="name" v="Bjørge søndre" />
		<tag k="place" v="farm" />
		<tag k="ssr:stedsnr" v="764921" />
	</node>
	<node lat="59.64706666233894" lon="8.466455547367378" id="-24825">
		<tag k="historic" v="shieling" />
		<tag k="name" v="Lauvhovd" />
		<tag k="place" v="isolated_dwelling" />
		<tag k="ssr:stedsnr" v="764997" />
	</node>
	<node lat="59.55959166579303" lon="8.555836117257279" id="-24826">
		<tag k="historic" v="shieling" />
		<tag k="name" v="Kåsi" />
		<tag k="place" v="isolated_dwelling" />
		<tag k="ssr:stedsnr" v="765645" />
	</node>
	<node lat="59.63383333744265" lon="8.402452780275226" id="-24829">
		<tag k="alt_name" v="Svinjom" />
		<tag k="name" v="Nordre Svinom" />
		<tag k="place" v="farm" />
		<tag k="ssr:stedsnr" v="766005" />
	</node>
	<node lat="59.60967221836637" lon="8.448975004277305" id="-24834">
		<tag k="historic" v="shieling" />
		<tag k="name" v="Nedre Kvistaul" />
		<tag k="place" v="isolated_dwelling" />
		<tag k="ssr:stedsnr" v="766847" />
	</node>
	<node lat="59.635288885035024" lon="8.347855563586934" id="-24842">
		<tag k="historic" v="shieling" />
		<tag k="name" v="Stuvestaul" />
		<tag k="place" v="isolated_dwelling" />
		<tag k="ssr:stedsnr" v="770127" />
	</node>
	<node lat="59.58043055709903" lon="8.366344437351849" id="-24848">
		<tag k="name" v="Vinsvål nedre" />
		<tag k="place" v="farm" />
		<tag k="ssr:stedsnr" v="771020" />
	</node>
	<node lat="59.67449444760292" lon="8.244127783229137" id="-24851">
		<tag k="name" v="Grønli" />
		<tag k="place" v="locality" />
		<tag k="ssr:stedsnr" v="771156" />
	</node>
	<node lat="59.44232777357233" lon="8.86700555446917" id="-24852">
		<tag k="name" v="Haugen" />
		<tag k="place" v="farm" />
		<tag k="ssr:stedsnr" v="771956" />
	</node>
	<node lat="59.4336499959277" lon="8.655950005445453" id="-24859">
		<tag k="alt_name" v="Sønstetveit" />
		<tag k="fixme" v="consider place=hamlet" />
		<tag k="name" v="Sønsttveiten" />
		<tag k="place" v="farm" />
		<tag k="ssr:stedsnr" v="791899" />
	</node>
	<node lat="59.39713610761731" lon="8.796647222776432" id="-24863">
		<tag k="name" v="Lii" />
		<tag k="place" v="locality" />
		<tag k="ssr:stedsnr" v="791994" />
	</node>
	<node lat="59.57299999841372" lon="8.434083340690202" id="-24868">
		<tag k="name" v="Dalen" />
		<tag k="place" v="farm" />
		<tag k="ssr:stedsnr" v="792417" />
	</node>
	<node lat="59.665563889064515" lon="8.376383341619324" id="-24870">
		<tag k="historic" v="shieling" />
		<tag k="name" v="Finnli" />
		<tag k="place" v="isolated_dwelling" />
		<tag k="ssr:stedsnr" v="792344" />
	</node>
	<node lat="59.66779444647358" lon="8.438611103839351" id="-24872">
		<tag k="alt_name" v="Kasleroe" />
		<tag k="historic" v="shieling" />
		<tag k="name" v="Kasleroi" />
		<tag k="place" v="isolated_dwelling" />
		<tag k="ssr:stedsnr" v="792350" />
	</node>
	<node lat="59.65833611196956" lon="8.363455547858853" id="-24873">
		<tag k="name" v="Årbakk" />
		<tag k="place" v="farm" />
		<tag k="ssr:stedsnr" v="792355" />
	</node>
	<node lat="59.5840305578346" lon="8.264813897108215" id="-24874">
		<tag k="alt_name" v="Løkjin" />
		<tag k="historic" v="shieling" />
		<tag k="name" v="Løken" />
		<tag k="place" v="isolated_dwelling" />
		<tag k="ssr:stedsnr" v="792485" />
	</node>
	<node lat="59.664177779356805" lon="8.478363896384584" id="-24876">
		<tag k="alt_name" v="Løkjestaul" />
		<tag k="name" v="Løkestaul" />
		<tag k="place" v="isolated_dwelling" />
		<tag k="ssr:stedsnr" v="792703" />
	</node>
	<node lat="59.44708888689376" lon="8.880063893787872" id="-24883">
		<tag k="name" v="Hegnin" />
		<tag k="place" v="farm" />
		<tag k="ssr:stedsnr" v="912460" />
	</node>
	<node lat="59.379963892832805" lon="8.733569449582058" id="-24884">
		<tag k="name" v="Barlindhaughytta" />
		<tag k="place" v="isolated_dwelling" />
		<tag k="ssr:stedsnr" v="912782" />
	</node>
	<node lat="59.50915833188058" lon="8.571491674194698" id="-24886">
		<tag k="name" v="Kulten" />
		<tag k="place" v="isolated_dwelling" />
		<tag k="ssr:stedsnr" v="913016" />
	</node>
	<node lat="59.5070166709056" lon="8.735902775723439" id="-24891">
		<tag k="historic" v="shieling" />
		<tag k="name" v="Bekkestaul" />
		<tag k="place" v="isolated_dwelling" />
		<tag k="ssr:stedsnr" v="913030" />
	</node>
	<node lat="59.506483335367065" lon="8.651655554940433" id="-24893">
		<tag k="alt_name" v="Li" />
		<tag k="name" v="Lid" />
		<tag k="place" v="farm" />
		<tag k="ssr:stedsnr" v="913033" />
	</node>
	<node lat="59.67110833439265" lon="8.354958335296068" id="-24894">
		<tag k="historic" v="shieling" />
		<tag k="name" v="Nystaul" />
		<tag k="place" v="isolated_dwelling" />
		<tag k="ssr:stedsnr" v="913132" />
	</node>
	<node lat="59.71800277803742" lon="8.317505560102054" id="-24896">
		<tag k="historic" v="shieling" />
		<tag k="name" v="Bjåen" />
		<tag k="place" v="isolated_dwelling" />
		<tag k="ssr:stedsnr" v="913195" />
	</node>
	<node lat="59.44841666512575" lon="8.682574998160232" id="-24897">
		<tag k="name" v="Storstaul" />
		<tag k="place" v="isolated_dwelling" />
		<tag k="ssr:stedsnr" v="913073" />
	</node>
	<node lat="59.44656265109713" lon="8.772120114723819" id="-24899">
		<tag k="name" v="Steinstolen" />
		<tag k="place" v="locality" />
		<tag k="ssr:stedsnr" v="913081" />
	</node>
	<node lat="59.65630833593242" lon="8.35598889590186" id="-24901">
		<tag k="name" v="Kolasveiv" />
		<tag k="place" v="farm" />
		<tag k="ssr:stedsnr" v="913359" />
	</node>
	<node lat="59.63373055121417" lon="8.33070556450623" id="-24902">
		<tag k="alt_name" v="Solheimroe" />
		<tag k="historic" v="shieling" />
		<tag k="name" v="Solemroi" />
		<tag k="place" v="isolated_dwelling" />
		<tag k="ssr:stedsnr" v="913321" />
	</node>
	<node lat="59.65409166477667" lon="8.379327786415066" id="-24904">
		<tag k="alt_name" v="Høytjønndalen" />
		<tag k="name" v="Høytjørndalen" />
		<tag k="place" v="isolated_dwelling" />
		<tag k="ssr:stedsnr" v="913362" />
	</node>
	<node lat="59.65455277547596" lon="8.431619453290354" id="-24905">
		<tag k="historic" v="shieling" />
		<tag k="name" v="Vierdokki" />
		<tag k="place" v="isolated_dwelling" />
		<tag k="ssr:stedsnr" v="913364" />
	</node>
	<node lat="59.59211944164349" lon="8.270855559763119" id="-24906">
		<tag k="name" v="Kasin" />
		<tag k="place" v="farm" />
		<tag k="ssr:stedsnr" v="913446" />
	</node>
	<node lat="59.59660833749836" lon="8.358175002349242" id="-24907">
		<tag k="name" v="Jønnardalen" />
		<tag k="place" v="farm" />
		<tag k="ssr:stedsnr" v="913450" />
	</node>
	<node lat="59.572255553304196" lon="8.396236109310875" id="-24908">
		<tag k="alt_name" v="Annåskosi" />
		<tag k="historic" v="shieling" />
		<tag k="name" v="Andåskåsi" />
		<tag k="place" v="isolated_dwelling" />
		<tag k="ssr:stedsnr" v="913425" />
	</node>
	<node lat="59.58656666663923" lon="8.455088883137202" id="-24909">
		<tag k="alt_name" v="Storlid" />
		<tag k="name" v="Storli" />
		<tag k="place" v="farm" />
		<tag k="ssr:stedsnr" v="913457" />
	</node>
	<node lat="59.587713887659525" lon="8.374033325192894" id="-24910">
		<tag k="alt_name" v="Sudgarden" />
		<tag k="fixme" v="consider place=hamlet" />
		<tag k="name" v="Sudgard" />
		<tag k="place" v="farm" />
		<tag k="ssr:stedsnr" v="913466" />
	</node>
	<node lat="59.61083610803737" lon="8.517333333997891" id="-24911">
		<tag k="alt_name" v="Lien midtre;Lien, midtre" />
		<tag k="name" v="Midtre Lien" />
		<tag k="place" v="farm" />
		<tag k="ssr:stedsnr" v="913752" />
	</node>
	<node lat="59.614302778726405" lon="8.492688890234822" id="-24913">
		<tag k="alt_name" v="Skaret" />
		<tag k="fixme" v="consider place=hamlet" />
		<tag k="name" v="Skardet" />
		<tag k="place" v="farm" />
		<tag k="ssr:stedsnr" v="913757" />
	</node>
	<node lat="59.628652773966884" lon="8.47006111662522" id="-24914">
		<tag k="name" v="Nystaul" />
		<tag k="place" v="isolated_dwelling" />
		<tag k="ssr:stedsnr" v="913727" />
	</node>
	<node lat="59.601213887259426" lon="8.527150008565489" id="-24915">
		<tag k="alt_name" v="Åkre nordre;Åkre, nordre" />
		<tag k="name" v="Nordre Åkre" />
		<tag k="place" v="farm" />
		<tag k="ssr:stedsnr" v="913857" />
	</node>
	<node lat="59.597261110781865" lon="8.509561105107904" id="-24916">
		<tag k="historic" v="shieling" />
		<tag k="name" v="Fjellstaul" />
		<tag k="place" v="isolated_dwelling" />
		<tag k="ssr:stedsnr" v="913877" />
	</node>
	<node lat="59.55411111216708" lon="8.481811117713216" id="-24918">
		<tag k="alt_name" v="Breikvam" />
		<tag k="historic" v="shieling" />
		<tag k="name" v="Breidkvam" />
		<tag k="place" v="isolated_dwelling" />
		<tag k="ssr:stedsnr" v="913957" />
	</node>
	<node lat="59.63225984066034" lon="8.500566249745333" id="-24924">
		<tag k="name" v="Holastaul" />
		<tag k="place" v="locality" />
		<tag k="ssr:stedsnr" v="914760" />
	</node>
	<node lat="59.56585833576868" lon="8.582222230112285" id="-24925">
		<tag k="name" v="Nordal" />
		<tag k="place" v="farm" />
		<tag k="ssr:stedsnr" v="914945" />
	</node>
	<node lat="59.56943888724013" lon="8.587680556529135" id="-24926">
		<tag k="name" v="Haugland" />
		<tag k="place" v="farm" />
		<tag k="ssr:stedsnr" v="914947" />
	</node>
	<node lat="59.52703611172562" lon="8.733413884061164" id="-24928">
		<tag k="historic" v="shieling" />
		<tag k="name" v="Nymoen" />
		<tag k="place" v="isolated_dwelling" />
		<tag k="ssr:stedsnr" v="914984" />
	</node>
	<node lat="59.56862778211246" lon="8.57803055252952" id="-24930">
		<tag k="name" v="Minnisjord nedre" />
		<tag k="place" v="farm" />
		<tag k="ssr:stedsnr" v="823164" />
	</node>
	<node lat="59.47648055660194" lon="8.879875001259911" id="-24931">
		<tag k="name" v="Øvre Grønkleiv" />
		<tag k="place" v="locality" />
		<tag k="ssr:stedsnr" v="823184" />
	</node>
	<node lat="59.50408611521015" lon="8.551941665232082" id="-24935">
		<tag k="name" v="Dalskåsi" />
		<tag k="place" v="locality" />
		<tag k="ssr:stedsnr" v="825009" />
	</node>
	<node lat="59.45025555915643" lon="8.76773610298626" id="-24936">
		<tag k="name" v="Hurum" />
		<tag k="place" v="locality" />
		<tag k="ssr:stedsnr" v="825070" />
	</node>
	<node lat="59.65493888820823" lon="8.426652769225832" id="-24940">
		<tag k="historic" v="shieling" />
		<tag k="name" v="Nedre Geitenuten" />
		<tag k="place" v="isolated_dwelling" />
		<tag k="ssr:stedsnr" v="825463" />
	</node>
	<node lat="59.484788887407326" lon="8.632127771329182" id="-24944">
		<tag k="name" v="Lomodden" />
		<tag k="place" v="farm" />
		<tag k="ssr:stedsnr" v="825765" />
	</node>
	<node lat="59.6019305549741" lon="8.52537500097987" id="-24946">
		<tag k="name" v="Nordheim" />
		<tag k="place" v="isolated_dwelling" />
		<tag k="ssr:stedsnr" v="826005" />
	</node>
	<node lat="59.58553055152226" lon="8.44220556380468" id="-24948">
		<tag k="name" v="Sulto" />
		<tag k="place" v="locality" />
		<tag k="ssr:stedsnr" v="826068" />
	</node>
	<node lat="59.57823611509252" lon="8.494416658317915" id="-24949">
		<tag k="name" v="Skogen øvre" />
		<tag k="place" v="locality" />
		<tag k="ssr:stedsnr" v="826078" />
	</node>
	<node lat="59.64077500334307" lon="8.446991667304466" id="-24952">
		<tag k="historic" v="shieling" />
		<tag k="name" v="Gaupetjønn" />
		<tag k="place" v="isolated_dwelling" />
		<tag k="ssr:stedsnr" v="825982" />
	</node>
	<node lat="59.56304444742843" lon="8.411619452171541" id="-24954">
		<tag k="name" v="Brenna" />
		<tag k="place" v="isolated_dwelling" />
		<tag k="ssr:stedsnr" v="826104" />
	</node>
	<node lat="59.57655556003057" lon="8.390147225337657" id="-24962">
		<tag k="name" v="Nyhus" />
		<tag k="place" v="locality" />
		<tag k="ssr:stedsnr" v="827011" />
	</node>
	<node lat="59.65272222368397" lon="8.284622224463382" id="-24963">
		<tag k="name" v="Nilsrud" />
		<tag k="place" v="locality" />
		<tag k="ssr:stedsnr" v="827305" />
	</node>
	<node lat="59.64813889122809" lon="8.30318611785301" id="-24964">
		<tag k="name" v="Anundsbakk" />
		<tag k="place" v="locality" />
		<tag k="ssr:stedsnr" v="827308" />
	</node>
	<node lat="59.6658305586156" lon="8.33376667169767" id="-24967">
		<tag k="historic" v="shieling" />
		<tag k="name" v="Rovetangen" />
		<tag k="place" v="isolated_dwelling" />
		<tag k="ssr:stedsnr" v="827575" />
	</node>
	<node lat="59.695199998750695" lon="8.357708339810209" id="-24969">
		<tag k="name" v="Ørendal" />
		<tag k="place" v="locality" />
		<tag k="ssr:stedsnr" v="827769" />
	</node>
	<node lat="59.5526055543262" lon="8.386997229152582" id="-24972">
		<tag k="name" v="Pyklimot" />
		<tag k="place" v="locality" />
		<tag k="ssr:stedsnr" v="828078" />
	</node>
	<node lat="59.599688891182396" lon="8.325902774709789" id="-24976">
		<tag k="historic" v="shieling" />
		<tag k="name" v="Heggstaul" />
		<tag k="place" v="isolated_dwelling" />
		<tag k="ssr:stedsnr" v="831393" />
	</node>
	<node lat="59.65816666775624" lon="8.367622225202137" id="-24978">
		<tag k="historic" v="shieling" />
		<tag k="name" v="Nipen" />
		<tag k="place" v="isolated_dwelling" />
		<tag k="ssr:stedsnr" v="832003" />
	</node>
	<node lat="59.6064472208403" lon="8.271022216762104" id="-24980">
		<tag k="name" v="Åsland" />
		<tag k="place" v="locality" />
		<tag k="ssr:stedsnr" v="832339" />
	</node>
	<node lat="59.474241664399635" lon="8.64000555522655" id="-24985">
		<tag k="name" v="Lykka" />
		<tag k="place" v="farm" />
		<tag k="ssr:stedsnr" v="852014" />
	</node>
	<node lat="59.49278333739491" lon="8.630099992389166" id="-24986">
		<tag k="alt_name" v="Seljord Prestegård" />
		<tag k="fixme" v="multiple name tags, choose one and add the other to alt_name; consider place=hamlet" />
		<tag k="name" v="Skornes;Prestegarden" />
		<tag k="place" v="farm" />
		<tag k="ssr:stedsnr" v="852063" />
	</node>
	<node lat="59.606183332347854" lon="8.345888889790682" id="-24988">
		<tag k="historic" v="shieling" />
		<tag k="name" v="Sanden" />
		<tag k="place" v="isolated_dwelling" />
		<tag k="ssr:stedsnr" v="852278" />
	</node>
	<node lat="59.42563611441094" lon="8.712636102611926" id="-24991">
		<tag k="alt_name" v="Endrejord" />
		<tag k="name" v="Enderjord" />
		<tag k="place" v="farm" />
		<tag k="ssr:stedsnr" v="852916" />
	</node>
	<node lat="59.41962796771261" lon="8.82362784906668" id="-24992">
		<tag k="name" v="Hauge" />
		<tag k="place" v="locality" />
		<tag k="ssr:stedsnr" v="852918" />
	</node>
	<node lat="59.606891665363406" lon="8.508675000107049" id="-24996">
		<tag k="name" v="Hitås" />
		<tag k="place" v="isolated_dwelling" />
		<tag k="ssr:stedsnr" v="852870" />
	</node>
	<node lat="59.689775001153244" lon="8.354030561430312" id="-25000">
		<tag k="alt_name" v="Tjønnstaul" />
		<tag k="historic" v="shieling" />
		<tag k="name" v="Tjørnstaul" />
		<tag k="place" v="isolated_dwelling" />
		<tag k="ssr:stedsnr" v="853115" />
	</node>
	<node lat="59.70490555171444" lon="8.31848055160931" id="-25002">
		<tag k="alt_name" v="Skuldalen, øvre" />
		<tag k="name" v="Øvre Skuldalen" />
		<tag k="place" v="isolated_dwelling" />
		<tag k="ssr:stedsnr" v="853155" />
	</node>
	<node lat="59.70786111254123" lon="8.429538885413805" id="-25003">
		<tag k="alt_name" v="Steinstaul" />
		<tag k="historic" v="shieling" />
		<tag k="name" v="Steinstaulen" />
		<tag k="place" v="isolated_dwelling" />
		<tag k="ssr:stedsnr" v="853157" />
	</node>
	<node lat="59.714627775401254" lon="8.289255554131937" id="-25005">
		<tag k="alt_name" v="Lonebakken" />
		<tag k="historic" v="shieling" />
		<tag k="name" v="Lonbakk" />
		<tag k="place" v="isolated_dwelling" />
		<tag k="ssr:stedsnr" v="853169" />
	</node>
	<node lat="59.646505554477585" lon="8.44549444401112" id="-25006">
		<tag k="name" v="Revagrav" />
		<tag k="place" v="isolated_dwelling" />
		<tag k="ssr:stedsnr" v="853311" />
	</node>
	<node lat="59.641596292312634" lon="8.30173344242349" id="-25007">
		<tag k="alt_name" v="Lonestaul" />
		<tag k="historic" v="shieling" />
		<tag k="name" v="Lonstaul" />
		<tag k="place" v="isolated_dwelling" />
		<tag k="ssr:stedsnr" v="853324" />
	</node>
	<node lat="59.66141388813844" lon="8.36291666411761" id="-25008">
		<tag k="alt_name" v="Øverbø" />
		<tag k="fixme" v="consider place=hamlet" />
		<tag k="name" v="Øvrebø" />
		<tag k="place" v="farm" />
		<tag k="ssr:stedsnr" v="853353" />
	</node>
	<node lat="59.56896666780097" lon="8.572583334678681" id="-25012">
		<tag k="name" v="Askedølen" />
		<tag k="place" v="farm" />
		<tag k="ssr:stedsnr" v="884168" />
	</node>
	<node lat="59.434277781330685" lon="8.703644440984887" id="-25015">
		<tag k="name" v="Øverland nordre" />
		<tag k="place" v="farm" />
		<tag k="ssr:stedsnr" v="885653" />
	</node>
	<node lat="59.50421666757294" lon="8.576133334369949" id="-25018">
		<tag k="name" v="Tresland søndre" />
		<tag k="place" v="farm" />
		<tag k="ssr:stedsnr" v="886063" />
	</node>
	<node lat="59.4291194407378" lon="8.656922229673675" id="-25023">
		<tag k="name" v="Bjorhaug" />
		<tag k="place" v="locality" />
		<tag k="ssr:stedsnr" v="886266" />
	</node>
	<node lat="59.45560277512256" lon="8.68926110828335" id="-25025">
		<tag k="name" v="Nøslestaul" />
		<tag k="place" v="locality" />
		<tag k="ssr:stedsnr" v="886739" />
	</node>
	<node lat="59.57831388859968" lon="8.576863894104534" id="-25029">
		<tag k="historic" v="shieling" />
		<tag k="name" v="Kleibergkasin" />
		<tag k="place" v="isolated_dwelling" />
		<tag k="ssr:stedsnr" v="886810" />
	</node>
	<node lat="59.57981389182714" lon="8.59354444387278" id="-25030">
		<tag k="name" v="Høgehovd" />
		<tag k="place" v="locality" />
		<tag k="ssr:stedsnr" v="886815" />
	</node>
	<node lat="59.58594721996982" lon="8.454205555554141" id="-25035">
		<tag k="name" v="Bringa" />
		<tag k="place" v="farm" />
		<tag k="ssr:stedsnr" v="887062" />
	</node>
	<node lat="59.624736108293604" lon="8.503263890596351" id="-25039">
		<tag k="name" v="Muggerud" />
		<tag k="place" v="locality" />
		<tag k="ssr:stedsnr" v="887496" />
	</node>
	<node lat="59.56202222361474" lon="8.57716389566463" id="-25040">
		<tag k="name" v="Øyland" />
		<tag k="place" v="quarter" />
		<tag k="ssr:stedsnr" v="887926" />
	</node>
	<node lat="59.639075000546136" lon="8.318633334697532" id="-25044">
		<tag k="historic" v="shieling" />
		<tag k="name" v="Bamble" />
		<tag k="place" v="isolated_dwelling" />
		<tag k="ssr:stedsnr" v="888219" />
	</node>
	<node lat="59.68786944676856" lon="8.343247214244238" id="-25045">
		<tag k="historic" v="shieling" />
		<tag k="name" v="Fyrileiv" />
		<tag k="place" v="isolated_dwelling" />
		<tag k="ssr:stedsnr" v="888665" />
	</node>
	<node lat="59.66668888932763" lon="8.265311104668934" id="-25049">
		<tag k="name" v="Bronåsdalen" />
		<tag k="place" v="locality" />
		<tag k="ssr:stedsnr" v="892158" />
	</node>
	<node lat="59.59795833768949" lon="8.32537500182762" id="-25054">
		<tag k="historic" v="shieling" />
		<tag k="name" v="Nystaul" />
		<tag k="place" v="isolated_dwelling" />
		<tag k="ssr:stedsnr" v="892406" />
	</node>
	<node lat="59.59706666713951" lon="8.2794305642056" id="-25055">
		<tag k="name" v="Norheim" />
		<tag k="place" v="farm" />
		<tag k="ssr:stedsnr" v="892418" />
	</node>
	<node lat="59.61559722465328" lon="8.298449994138814" id="-25056">
		<tag k="name" v="Skarstaul" />
		<tag k="place" v="locality" />
		<tag k="ssr:stedsnr" v="892422" />
	</node>
	<node lat="59.59877777938389" lon="8.289252772863344" id="-25058">
		<tag k="historic" v="shieling" />
		<tag k="name" v="Kvisling" />
		<tag k="place" v="isolated_dwelling" />
		<tag k="ssr:stedsnr" v="892476" />
	</node>
	<node lat="59.46368333654177" lon="8.584261110648152" id="-25060">
		<tag k="name" v="Langedrag" />
		<tag k="place" v="farm" />
		<tag k="ssr:stedsnr" v="912110" />
	</node>
	<node lat="59.67965278071258" lon="8.257347222778447" id="-25067">
		<tag k="alt_name" v="Sølli, øvre;Sollid øvre;Øvre Sølli" />
		<tag k="name" v="Sollid vestre" />
		<tag k="place" v="farm" />
		<tag k="ssr:stedsnr" v="913135" />
	</node>
	<node lat="59.685749999779276" lon="8.260172223923263" id="-25068">
		<tag k="alt_name" v="Storlid" />
		<tag k="historic" v="shieling" />
		<tag k="name" v="Storli" />
		<tag k="place" v="isolated_dwelling" />
		<tag k="ssr:stedsnr" v="913137" />
	</node>
	<node lat="59.61061666670782" lon="8.301786112019954" id="-25071">
		<tag k="historic" v="shieling" />
		<tag k="name" v="Gokkstaul" />
		<tag k="place" v="isolated_dwelling" />
		<tag k="ssr:stedsnr" v="913239" />
	</node>
	<node lat="59.425916670252974" lon="8.798522215095241" id="-25074">
		<tag k="alt_name" v="Telnes nordre;Tellnes" />
		<tag k="fixme" v="consider place=hamlet" />
		<tag k="name" v="Telnes" />
		<tag k="place" v="farm" />
		<tag k="ssr:stedsnr" v="913931" />
	</node>
	<node lat="59.42422499855801" lon="8.8173833411958" id="-25075">
		<tag k="alt_name" v="Dølalid" />
		<tag k="name" v="Dølali" />
		<tag k="place" v="locality" />
		<tag k="ssr:stedsnr" v="913934" />
	</node>
	<node lat="59.43875000412997" lon="8.679627774432465" id="-25076">
		<tag k="name" v="Listaul" />
		<tag k="place" v="locality" />
		<tag k="ssr:stedsnr" v="913882" />
	</node>
	<node lat="59.442925000409126" lon="8.82872500309853" id="-25077">
		<tag k="name" v="Vefall" />
		<tag k="place" v="farm" />
		<tag k="ssr:stedsnr" v="913886" />
	</node>
	<node lat="59.55476388683653" lon="8.570205551399779" id="-25080">
		<tag k="name" v="Speikland" />
		<tag k="place" v="farm" />
		<tag k="ssr:stedsnr" v="914940" />
	</node>
	<node lat="59.4458194464132" lon="8.841880558728214" id="-25081">
		<tag k="name" v="Myrane" />
		<tag k="place" v="farm" />
		<tag k="ssr:stedsnr" v="944152" />
	</node>
	<node lat="59.56669166748927" lon="8.587627769520976" id="-25082">
		<tag k="name" v="Natadal øvre" />
		<tag k="place" v="farm" />
		<tag k="ssr:stedsnr" v="944187" />
	</node>
	<node lat="59.571477780026314" lon="8.573855556317644" id="-25083">
		<tag k="name" v="Rørtveit øvre" />
		<tag k="place" v="farm" />
		<tag k="ssr:stedsnr" v="944193" />
	</node>
	<node lat="59.57131944881031" lon="8.572050008454653" id="-25084">
		<tag k="name" v="Rørtveit nedre" />
		<tag k="place" v="farm" />
		<tag k="ssr:stedsnr" v="944194" />
	</node>
	<node lat="59.45852222425412" lon="8.738977781752096" id="-25087">
		<tag k="historic" v="shieling" />
		<tag k="name" v="Kåsa" />
		<tag k="place" v="isolated_dwelling" />
		<tag k="ssr:stedsnr" v="946099" />
	</node>
	<node lat="59.46748611248319" lon="8.579811107952004" id="-25089">
		<tag k="name" v="Jordet" />
		<tag k="place" v="farm" />
		<tag k="ssr:stedsnr" v="946187" />
	</node>
	<node lat="59.57161944154957" lon="8.581888889677167" id="-25098">
		<tag k="name" v="Haugane søndre" />
		<tag k="place" v="farm" />
		<tag k="ssr:stedsnr" v="947736" />
	</node>
	<node lat="59.48659444403581" lon="8.649877771242911" id="-25099">
		<tag k="name" v="Bjørgemoen" />
		<tag k="ssr:stedsnr" v="947608" />
		<tag k="tourism" v="camp_site" />
	</node>
	<node lat="59.55526944015224" lon="8.565524991777586" id="-25101">
		<tag k="name" v="Heibugen" />
		<tag k="place" v="locality" />
		<tag k="ssr:stedsnr" v="947611" />
	</node>
	<node lat="59.44259722589604" lon="8.6963194375519" id="-25103">
		<tag k="name" v="Fuglekjærr" />
		<tag k="place" v="locality" />
		<tag k="ssr:stedsnr" v="947630" />
	</node>
	<node lat="59.57611388647289" lon="8.44093333151417" id="-25111">
		<tag k="name" v="Haugen" />
		<tag k="place" v="locality" />
		<tag k="ssr:stedsnr" v="949006" />
	</node>
	<node lat="59.62032221971878" lon="8.382513891305946" id="-25115">
		<tag k="historic" v="shieling" />
		<tag k="name" v="Helleberg" />
		<tag k="place" v="isolated_dwelling" />
		<tag k="ssr:stedsnr" v="953193" />
	</node>
	<node lat="59.63396666606631" lon="8.369763884569824" id="-25116">
		<tag k="name" v="Dalastaul" />
		<tag k="place" v="locality" />
		<tag k="ssr:stedsnr" v="953201" />
	</node>
	<node lat="59.44237919423633" lon="8.837290004519748" id="-25118">
		<tag k="fixme" v="consider place=hamlet" />
		<tag k="name" v="Søndre Vefald" />
		<tag k="place" v="farm" />
		<tag k="ssr:stedsnr" v="983610" />
	</node>
	<node lat="59.4433071267089" lon="8.82507728026557" id="-25119">
		<tag k="fixme" v="consider place=hamlet" />
		<tag k="name" v="Nordre Vefald" />
		<tag k="place" v="farm" />
		<tag k="ssr:stedsnr" v="983611" />
	</node>
	<node lat="59.4434822065839" lon="8.831580222276939" id="-25120">
		<tag k="name" v="Vefald" />
		<tag k="place" v="hamlet" />
		<tag k="ssr:stedsnr" v="983613" />
	</node>
	<node lat="59.56196400318918" lon="8.568802475006454" id="-25121">
		<tag k="fixme" v="consider place=hamlet" />
		<tag k="name" v="Framgarden" />
		<tag k="place" v="farm" />
		<tag k="ssr:stedsnr" v="983665" />
	</node>
	<node lat="59.56217058021167" lon="8.57044225613796" id="-25122">
		<tag k="fixme" v="consider place=hamlet" />
		<tag k="name" v="Svalestuen" />
		<tag k="place" v="farm" />
		<tag k="ssr:stedsnr" v="983666" />
	</node>
	<node lat="59.5625721333414" lon="8.570191704864637" id="-25123">
		<tag k="fixme" v="consider place=hamlet" />
		<tag k="name" v="Østgården" />
		<tag k="place" v="farm" />
		<tag k="ssr:stedsnr" v="983668" />
	</node>
	<node lat="59.56299309651117" lon="8.570016443041204" id="-25124">
		<tag k="fixme" v="consider place=hamlet" />
		<tag k="name" v="Råstuen" />
		<tag k="place" v="farm" />
		<tag k="ssr:stedsnr" v="983669" />
	</node>
	<node lat="59.56355694467794" lon="8.569593910592289" id="-25125">
		<tag k="fixme" v="consider place=hamlet" />
		<tag k="name" v="Myklestuen" />
		<tag k="place" v="farm" />
		<tag k="ssr:stedsnr" v="983670" />
	</node>
	<node lat="59.57201112479683" lon="8.57237519961308" id="-25126">
		<tag k="fixme" v="consider place=hamlet" />
		<tag k="name" v="Rørtveit" />
		<tag k="place" v="farm" />
		<tag k="ssr:stedsnr" v="983671" />
	</node>
	<node lat="59.60066458554401" lon="8.526849648970568" id="-25127">
		<tag k="fixme" v="consider place=hamlet" />
		<tag k="name" v="Åkre" />
		<tag k="place" v="farm" />
		<tag k="ssr:stedsnr" v="983673" />
	</node>
	<node lat="59.61132541675805" lon="8.516726526062468" id="-25128">
		<tag k="name" v="Lien" />
		<tag k="place" v="hamlet" />
		<tag k="ssr:stedsnr" v="983674" />
	</node>
	<node lat="59.57357858070781" lon="8.567129777764592" id="-25130">
		<tag k="fixme" v="consider place=hamlet" />
		<tag k="name" v="Åse" />
		<tag k="place" v="farm" />
		<tag k="ssr:stedsnr" v="983676" />
	</node>
	<node lat="59.574265457115125" lon="8.54830632729874" id="-25131">
		<tag k="name" v="Åsane" />
		<tag k="place" v="hamlet" />
		<tag k="ssr:stedsnr" v="983678" />
	</node>
	<node lat="59.49548055801267" lon="8.640808335636262" id="-25137">
		<tag k="name" v="Trongkleiv" />
		<tag k="place" v="quarter" />
		<tag k="ssr:stedsnr" v="2055" />
	</node>
	<node lat="59.4847694438237" lon="8.630169440107158" id="-25138">
		<tag k="name" v="Seljord" />
		<tag k="place" v="village" />
		<tag k="ssr:stedsnr" v="2056" />
	</node>
	<node lat="59.44998333751302" lon="8.707675003798608" id="-25139">
		<tag k="name" v="Buviki" />
		<tag k="place" v="isolated_dwelling" />
		<tag k="ssr:stedsnr" v="2072" />
	</node>
	<node lat="59.475825003191325" lon="8.703422229375088" id="-25140">
		<tag k="fixme" v="consider place=hamlet" />
		<tag k="name" v="To" />
		<tag k="place" v="farm" />
		<tag k="ssr:stedsnr" v="2009" />
	</node>
	<node lat="59.477197220620425" lon="8.635777770599548" id="-25142">
		<tag k="name" v="Flatland" />
		<tag k="place" v="farm" />
		<tag k="ssr:stedsnr" v="2017" />
	</node>
	<node lat="59.461188893338175" lon="8.7884750013207" id="-25143">
		<tag k="alt_name" v="Høystaul øvre" />
		<tag k="historic" v="shieling" />
		<tag k="name" v="Høystaul" />
		<tag k="place" v="isolated_dwelling" />
		<tag k="ssr:stedsnr" v="2084" />
	</node>
	<node lat="59.46848888643202" lon="8.754463895666936" id="-25147">
		<tag k="name" v="Fisbu" />
		<tag k="place" v="locality" />
		<tag k="ssr:stedsnr" v="2114" />
	</node>
	<node lat="59.470797218309784" lon="8.801147219233266" id="-25148">
		<tag k="historic" v="shieling" />
		<tag k="name" v="Kvigedalen" />
		<tag k="place" v="isolated_dwelling" />
		<tag k="ssr:stedsnr" v="2121" />
	</node>
	<node lat="59.44813055608015" lon="8.868191668539419" id="-25149">
		<tag k="alt_name" v="Brekke;Brekke øvre" />
		<tag k="fixme" v="consider place=hamlet" />
		<tag k="name" v="Øvre Brekke" />
		<tag k="place" v="farm" />
		<tag k="ssr:stedsnr" v="2515" />
	</node>
	<node lat="59.449813884884115" lon="8.861730555777031" id="-25150">
		<tag k="name" v="Brekketo" />
		<tag k="place" v="farm" />
		<tag k="ssr:stedsnr" v="2516" />
	</node>
	<node lat="59.6795083334303" lon="8.253705549771176" id="-25152">
		<tag k="alt_name" v="Jorstaul" />
		<tag k="historic" v="shieling" />
		<tag k="name" v="Jordstaul" />
		<tag k="place" v="isolated_dwelling" />
		<tag k="ssr:stedsnr" v="3132" />
	</node>
	<node lat="59.68804999758208" lon="8.38885556245661" id="-25153">
		<tag k="alt_name" v="Leirgrovi" />
		<tag k="historic" v="shieling" />
		<tag k="name" v="Leirgrov" />
		<tag k="place" v="isolated_dwelling" />
		<tag k="ssr:stedsnr" v="3134" />
	</node>
	<node lat="59.443974999283434" lon="8.833200001918224" id="-25155">
		<tag k="alt_name" v="Dalen nedre" />
		<tag k="name" v="Dalen" />
		<tag k="place" v="farm" />
		<tag k="ssr:stedsnr" v="2882" />
	</node>
	<node lat="59.42400000282994" lon="8.781980551000368" id="-25156">
		<tag k="name" v="Firingen" />
		<tag k="place" v="farm" />
		<tag k="ssr:stedsnr" v="2929" />
	</node>
	<node lat="59.414980557313996" lon="8.792449993526795" id="-25158">
		<tag k="name" v="Østerdal" />
		<tag k="place" v="farm" />
		<tag k="ssr:stedsnr" v="2950" />
	</node>
	<node lat="59.70336944496035" lon="8.429877779188946" id="-25161">
		<tag k="historic" v="shieling" />
		<tag k="name" v="Svain" />
		<tag k="place" v="isolated_dwelling" />
		<tag k="ssr:stedsnr" v="3158" />
	</node>
	<node lat="59.70583333311917" lon="8.267369449181162" id="-25162">
		<tag k="historic" v="shieling" />
		<tag k="name" v="Listaul" />
		<tag k="place" v="isolated_dwelling" />
		<tag k="ssr:stedsnr" v="3172" />
	</node>
	<node lat="59.62891388739246" lon="8.381122230602664" id="-25167">
		<tag k="historic" v="shieling" />
		<tag k="name" v="Nystaul" />
		<tag k="place" v="isolated_dwelling" />
		<tag k="ssr:stedsnr" v="3256" />
	</node>
	<node lat="59.58702777703836" lon="8.373038896736247" id="-25168">
		<tag k="alt_name" v="Nordgarden" />
		<tag k="fixme" v="consider place=hamlet" />
		<tag k="name" v="Nordgard" />
		<tag k="place" v="farm" />
		<tag k="ssr:stedsnr" v="3446" />
	</node>
	<node lat="59.65799721893895" lon="8.28186388912299" id="-25170">
		<tag k="fixme" v="consider place=hamlet" />
		<tag k="name" v="Myrbøen" />
		<tag k="place" v="farm" />
		<tag k="ssr:stedsnr" v="3321" />
	</node>
	<node lat="59.660255555847876" lon="8.353783339771702" id="-25176">
		<tag k="fixme" v="consider place=hamlet" />
		<tag k="name" v="Rinde" />
		<tag k="place" v="farm" />
		<tag k="ssr:stedsnr" v="3316" />
	</node>
	<node lat="59.55858333291128" lon="8.559649992939493" id="-25179">
		<tag k="name" v="Dalen" />
		<tag k="place" v="farm" />
		<tag k="ssr:stedsnr" v="3942" />
	</node>
	<node lat="59.562405551573576" lon="8.584363890139066" id="-25182">
		<tag k="name" v="Solhaug" />
		<tag k="place" v="farm" />
		<tag k="ssr:stedsnr" v="34182" />
	</node>
	<node lat="59.44531944871167" lon="8.877888885613434" id="-25184">
		<tag k="name" v="Brekke søndre" />
		<tag k="place" v="farm" />
		<tag k="ssr:stedsnr" v="34152" />
	</node>
	<node lat="59.4548138920466" lon="8.838652782291959" id="-25185">
		<tag k="historic" v="shieling" />
		<tag k="name" v="Vårbulid nordre" />
		<tag k="place" v="isolated_dwelling" />
		<tag k="ssr:stedsnr" v="34156" />
	</node>
	<node lat="59.44427222189982" lon="8.823827780917723" id="-25191">
		<tag k="name" v="Halvorskos" />
		<tag k="place" v="locality" />
		<tag k="ssr:stedsnr" v="36049" />
	</node>
	<node lat="59.39539166683876" lon="8.796694437384028" id="-25193">
		<tag k="name" v="Listaulen" />
		<tag k="place" v="locality" />
		<tag k="ssr:stedsnr" v="36071" />
	</node>
	<node lat="59.458322224082515" lon="8.758975002273647" id="-25194">
		<tag k="name" v="Våen" />
		<tag k="place" v="farm" />
		<tag k="ssr:stedsnr" v="36077" />
	</node>
	<node lat="59.64307500115821" lon="8.412011108589082" id="-25200">
		<tag k="historic" v="shieling" />
		<tag k="name" v="Fugleskori" />
		<tag k="place" v="isolated_dwelling" />
		<tag k="ssr:stedsnr" v="36446" />
	</node>
	<node lat="59.65782222330978" lon="8.41660000427959" id="-25201">
		<tag k="historic" v="shieling" />
		<tag k="name" v="Øvre Stakstaulli" />
		<tag k="place" v="isolated_dwelling" />
		<tag k="ssr:stedsnr" v="36456" />
	</node>
	<node lat="59.69575555658845" lon="8.418530553373373" id="-25205">
		<tag k="historic" v="shieling" />
		<tag k="name" v="Agnilhaugen" />
		<tag k="place" v="isolated_dwelling" />
		<tag k="ssr:stedsnr" v="36933" />
	</node>
	<node lat="59.70151944083838" lon="8.408733328874208" id="-25206">
		<tag k="historic" v="shieling" />
		<tag k="name" v="Lisveinbu Nordstaulen" />
		<tag k="place" v="isolated_dwelling" />
		<tag k="ssr:stedsnr" v="36935" />
	</node>
	<node lat="59.701225001927604" lon="8.410455556075005" id="-25207">
		<tag k="alt_name" v="Midtstaulen" />
		<tag k="historic" v="shieling" />
		<tag k="name" v="Lisembui" />
		<tag k="place" v="isolated_dwelling" />
		<tag k="ssr:stedsnr" v="36937" />
	</node>
	<node lat="59.51665000391228" lon="8.648997227612313" id="-25209">
		<tag k="name" v="Årtun" />
		<tag k="place" v="isolated_dwelling" />
		<tag k="ssr:stedsnr" v="36657" />
	</node>
	<node lat="59.48250833026695" lon="8.617747215330002" id="-25210">
		<tag k="amenity" v="nursing_home" />
		<tag k="name" v="Heddelid" />
		<tag k="ssr:stedsnr" v="36757" />
	</node>
	<node lat="59.58613333323404" lon="8.458597224751482" id="-25213">
		<tag k="name" v="Bekkhus øvre -nigard" />
		<tag k="place" v="farm" />
		<tag k="ssr:stedsnr" v="37044" />
	</node>
	<node lat="59.628808329721515" lon="8.515097228472971" id="-25217">
		<tag k="historic" v="shieling" />
		<tag k="name" v="Midtstaulen" />
		<tag k="place" v="isolated_dwelling" />
		<tag k="ssr:stedsnr" v="37495" />
	</node>
	<node lat="59.49876666660571" lon="8.639733326801593" id="-25220">
		<tag k="name" v="Øystad" />
		<tag k="place" v="farm" />
		<tag k="ssr:stedsnr" v="37642" />
	</node>
	<node lat="59.56072778139067" lon="8.566330554883015" id="-25222">
		<tag k="name" v="Sætre" />
		<tag k="place" v="farm" />
		<tag k="ssr:stedsnr" v="37647" />
	</node>
	<node lat="59.56298611509275" lon="8.581591659295807" id="-25223">
		<tag k="name" v="Gunleikskås" />
		<tag k="place" v="locality" />
		<tag k="ssr:stedsnr" v="37931" />
	</node>
	<node lat="59.67908889250209" lon="8.337594450035585" id="-25227">
		<tag k="name" v="Rolid" />
		<tag k="place" v="locality" />
		<tag k="ssr:stedsnr" v="38183" />
	</node>
	<node lat="59.671880555341126" lon="8.338705562222309" id="-25229">
		<tag k="historic" v="shieling" />
		<tag k="name" v="Veglid" />
		<tag k="place" v="isolated_dwelling" />
		<tag k="ssr:stedsnr" v="38544" />
	</node>
	<node lat="59.71430555454938" lon="8.307052777139976" id="-25231">
		<tag k="name" v="Bjønnbås" />
		<tag k="place" v="locality" />
		<tag k="ssr:stedsnr" v="38679" />
	</node>
	<node lat="59.63815000366366" lon="8.319575007387837" id="-25238">
		<tag k="name" v="Bamle" />
		<tag k="place" v="locality" />
		<tag k="ssr:stedsnr" v="42170" />
	</node>
	<node lat="59.59729722340012" lon="8.365997227648439" id="-25240">
		<tag k="historic" v="shieling" />
		<tag k="name" v="Øyås" />
		<tag k="place" v="isolated_dwelling" />
		<tag k="ssr:stedsnr" v="42365" />
	</node>
	<node lat="59.60569722372922" lon="8.296847219320052" id="-25241">
		<tag k="historic" v="shieling" />
		<tag k="name" v="Gjevar-roe" />
		<tag k="place" v="isolated_dwelling" />
		<tag k="ssr:stedsnr" v="42465" />
	</node>
	<node lat="59.47703888891368" lon="8.90461944392013" id="-25242">
		<tag k="name" v="Åsland nedre" />
		<tag k="place" v="locality" />
		<tag k="ssr:stedsnr" v="43021" />
	</node>
	<node lat="59.434983334467795" lon="8.84966667361538" id="-25245">
		<tag k="name" v="Steinsnes" />
		<tag k="place" v="locality" />
		<tag k="ssr:stedsnr" v="42958" />
	</node>
	<node lat="59.64908055426116" lon="8.359808328298556" id="-25246">
		<tag k="fixme" v="consider place=hamlet" />
		<tag k="name" v="Groven" />
		<tag k="place" v="farm" />
		<tag k="ssr:stedsnr" v="42962" />
	</node>
	<node lat="59.438625002312406" lon="8.850069439149246" id="-25247">
		<tag k="amenity" v="school" />
		<tag k="name" v="Vefall skole" />
		<tag k="ssr:stedsnr" v="42969" />
	</node>
	<node lat="59.65020833310931" lon="8.351827783599212" id="-25248">
		<tag k="alt_name" v="Nedre Skoren" />
		<tag k="fixme" v="consider place=hamlet" />
		<tag k="name" v="Skori nedre" />
		<tag k="place" v="farm" />
		<tag k="ssr:stedsnr" v="43051" />
	</node>
	<node lat="59.64807222406166" lon="8.347980554451429" id="-25249">
		<tag k="alt_name" v="Øvre Skoren" />
		<tag k="fixme" v="consider place=hamlet" />
		<tag k="name" v="Skori øvre" />
		<tag k="place" v="farm" />
		<tag k="ssr:stedsnr" v="43053" />
	</node>
	<node lat="59.64276389267323" lon="8.384122219732696" id="-25250">
		<tag k="fixme" v="consider place=hamlet" />
		<tag k="name" v="Valhovd" />
		<tag k="place" v="farm" />
		<tag k="ssr:stedsnr" v="43061" />
	</node>
	<node lat="59.667977776724676" lon="8.234911118329732" id="-25251">
		<tag k="name" v="Kjosdalen" />
		<tag k="place" v="locality" />
		<tag k="ssr:stedsnr" v="43127" />
	</node>
	<node lat="59.65696666658895" lon="8.344333331734369" id="-25255">
		<tag k="name" v="Solmørk" />
		<tag k="place" v="locality" />
		<tag k="ssr:stedsnr" v="43112" />
	</node>
	<node lat="59.64537222096326" lon="8.298702778600402" id="-25257">
		<tag k="historic" v="shieling" />
		<tag k="name" v="Øvstestaul" />
		<tag k="place" v="isolated_dwelling" />
		<tag k="ssr:stedsnr" v="64319" />
	</node>
	<node lat="59.58386944761268" lon="8.453697224818365" id="-25260">
		<tag k="alt_name" v="Bringen" />
		<tag k="fixme" v="consider place=hamlet" />
		<tag k="name" v="Bringa" />
		<tag k="place" v="farm" />
		<tag k="ssr:stedsnr" v="64477" />
	</node>
	<node lat="59.58055278147608" lon="8.363738888312271" id="-25262">
		<tag k="fixme" v="consider place=hamlet" />
		<tag k="name" v="Vinsvål" />
		<tag k="place" v="farm" />
		<tag k="ssr:stedsnr" v="64490" />
	</node>
	<node lat="59.5873388905465" lon="8.376255553028932" id="-25263">
		<tag k="alt_name" v="Sudgarden nedre" />
		<tag k="name" v="Sugard, nedre" />
		<tag k="place" v="farm" />
		<tag k="ssr:stedsnr" v="64494" />
	</node>
	<node lat="59.43538333699631" lon="8.86296110834642" id="-25266">
		<tag k="name" v="Hegna" />
		<tag k="place" v="farm" />
		<tag k="ssr:stedsnr" v="63482" />
	</node>
	<node lat="59.470011111151614" lon="8.571366665465831" id="-25270">
		<tag k="fixme" v="consider place=hamlet" />
		<tag k="name" v="Loftsgarden" />
		<tag k="place" v="farm" />
		<tag k="ssr:stedsnr" v="63129" />
	</node>
	<node lat="59.46861111081186" lon="8.579463892252305" id="-25271">
		<tag k="alt_name" v="Gjuve" />
		<tag k="fixme" v="consider place=hamlet" />
		<tag k="name" v="Djuve" />
		<tag k="place" v="farm" />
		<tag k="ssr:stedsnr" v="63130" />
	</node>
	<node lat="59.70429722086012" lon="8.32722221925677" id="-25274">
		<tag k="fixme" v="multiple name tags, choose one and add the other to alt_name; consider place=hamlet" />
		<tag k="name" v="Skuldalen;Skuldalen, nedre" />
		<tag k="place" v="farm" />
		<tag k="ssr:stedsnr" v="64173" />
	</node>
	<node lat="59.59412500437328" lon="8.533783337242564" id="-25279">
		<tag k="name" v="Bakkemoen" />
		<tag k="place" v="farm" />
		<tag k="ssr:stedsnr" v="63882" />
	</node>
	<node lat="59.433250001170464" lon="8.842136111751431" id="-25280">
		<tag k="alt_name" v="Ulvenes" />
		<tag k="fixme" v="consider place=hamlet" />
		<tag k="name" v="Ulveneset" />
		<tag k="place" v="farm" />
		<tag k="ssr:stedsnr" v="63907" />
	</node>
	<node lat="59.42167500374878" lon="8.689780564039376" id="-25281">
		<tag k="name" v="Fiskhøl" />
		<tag k="place" v="farm" />
		<tag k="ssr:stedsnr" v="63916" />
	</node>
	<node lat="59.42248187281392" lon="8.738549901421447" id="-25282">
		<tag k="historic" v="shieling" />
		<tag k="name" v="Nystaul" />
		<tag k="place" v="isolated_dwelling" />
		<tag k="ssr:stedsnr" v="63920" />
	</node>
	<node lat="59.42114721881985" lon="8.831922219161767" id="-25283">
		<tag k="name" v="Meinstad" />
		<tag k="place" v="locality" />
		<tag k="ssr:stedsnr" v="63924" />
	</node>
	<node lat="59.41565555792514" lon="8.678136107051772" id="-25284">
		<tag k="name" v="Åsland" />
		<tag k="place" v="isolated_dwelling" />
		<tag k="ssr:stedsnr" v="63951" />
	</node>
	<node lat="59.716828790599244" lon="8.31352151684579" id="-25286">
		<tag k="alt_name" v="Bjålego" />
		<tag k="name" v="Bjålegun" />
		<tag k="place" v="locality" />
		<tag k="ssr:stedsnr" v="64198" />
	</node>
	<node lat="59.57421944532851" lon="8.575872227134395" id="-25288">
		<tag k="name" v="Rørtveit" />
		<tag k="place" v="farm" />
		<tag k="ssr:stedsnr" v="64956" />
	</node>
	<node lat="59.6316916640165" lon="8.39358888913978" id="-25294">
		<tag k="fixme" v="consider place=hamlet" />
		<tag k="name" v="Berge" />
		<tag k="place" v="farm" />
		<tag k="ssr:stedsnr" v="64293" />
	</node>
	<node lat="59.6329905838514" lon="8.403216308516365" id="-25295">
		<tag k="alt_name" v="Svinjom" />
		<tag k="fixme" v="consider place=hamlet" />
		<tag k="name" v="Svinom" />
		<tag k="place" v="farm" />
		<tag k="ssr:stedsnr" v="64294" />
	</node>
	<node lat="59.544422225138234" lon="8.443883341725702" id="-25297">
		<tag k="alt_name" v="Hyttebekk" />
		<tag k="historic" v="shieling" />
		<tag k="name" v="Hyttebekken" />
		<tag k="place" v="isolated_dwelling" />
		<tag k="ssr:stedsnr" v="64383" />
	</node>
	<node lat="59.57572222376631" lon="8.405980553265291" id="-25298">
		<tag k="historic" v="shieling" />
		<tag k="name" v="Sanddalen" />
		<tag k="place" v="isolated_dwelling" />
		<tag k="ssr:stedsnr" v="64431" />
	</node>
	<node lat="59.5728749967503" lon="8.407641671258977" id="-25299">
		<tag k="alt_name" v="Annås" />
		<tag k="historic" v="shieling" />
		<tag k="name" v="Andås" />
		<tag k="place" v="isolated_dwelling" />
		<tag k="ssr:stedsnr" v="64432" />
	</node>
	<node lat="59.57355277994801" lon="8.447669439757503" id="-25300">
		<tag k="historic" v="shieling" />
		<tag k="name" v="Svarteberg" />
		<tag k="place" v="isolated_dwelling" />
		<tag k="ssr:stedsnr" v="64436" />
	</node>
	<node lat="59.5612361091915" lon="8.642974997886292" id="-25303">
		<tag k="alt_name" v="Mælstaul" />
		<tag k="historic" v="shieling" />
		<tag k="name" v="Sundbø-Mælestaul" />
		<tag k="place" v="isolated_dwelling" />
		<tag k="ssr:stedsnr" v="64939" />
	</node>
	<node lat="59.56072778163658" lon="8.584283336938194" id="-25304">
		<tag k="name" v="Trahaug" />
		<tag k="place" v="farm" />
		<tag k="ssr:stedsnr" v="64950" />
	</node>
	<node lat="59.46387778165385" lon="8.886622225083181" id="-25307">
		<tag k="historic" v="shieling" />
		<tag k="name" v="Moskar" />
		<tag k="place" v="isolated_dwelling" />
		<tag k="ssr:stedsnr" v="95105" />
	</node>
	<node lat="59.451380559766854" lon="8.89183332634942" id="-25308">
		<tag k="historic" v="shieling" />
		<tag k="name" v="Gjerstaul søndre" />
		<tag k="old_name" v="Gjersatul søndre" />
		<tag k="place" v="isolated_dwelling" />
		<tag k="ssr:stedsnr" v="95107" />
	</node>
	<node lat="59.56850555737061" lon="8.575377771143469" id="-25309">
		<tag k="name" v="Bergland" />
		<tag k="place" v="farm" />
		<tag k="ssr:stedsnr" v="95149" />
	</node>
	<node lat="59.45465833114768" lon="8.760133335178063" id="-25310">
		<tag k="name" v="Rugtveit mittigard" />
		<tag k="place" v="farm" />
		<tag k="ssr:stedsnr" v="96027" />
	</node>
	<node lat="59.455830556817496" lon="8.75787221954546" id="-25311">
		<tag k="name" v="Rugtveit nordigard" />
		<tag k="place" v="farm" />
		<tag k="ssr:stedsnr" v="96031" />
	</node>
	<node lat="59.453024997865995" lon="8.661838891521146" id="-25313">
		<tag k="name" v="Kroktjønnstaulen" />
		<tag k="place" v="locality" />
		<tag k="ssr:stedsnr" v="97708" />
	</node>
	<node lat="59.42575833701136" lon="8.80273055017555" id="-25317">
		<tag k="name" v="Telnes søndre" />
		<tag k="place" v="farm" />
		<tag k="ssr:stedsnr" v="97030" />
	</node>
	<node lat="59.4646388894022" lon="8.813330546750175" id="-25319">
		<tag k="historic" v="shieling" />
		<tag k="name" v="Stakalidstaulen" />
		<tag k="place" v="isolated_dwelling" />
		<tag k="ssr:stedsnr" v="97044" />
	</node>
	<node lat="59.38390555566817" lon="8.775052772224035" id="-25321">
		<tag k="name" v="Damhytta" />
		<tag k="place" v="isolated_dwelling" />
		<tag k="ssr:stedsnr" v="97050" />
	</node>
	<node lat="59.469502778446504" lon="8.583191658542196" id="-25323">
		<tag k="name" v="Kastet" />
		<tag k="place" v="farm" />
		<tag k="ssr:stedsnr" v="97231" />
	</node>
	<node lat="59.47626389049213" lon="8.60496666650542" id="-25324">
		<tag k="name" v="Smeland" />
		<tag k="place" v="farm" />
		<tag k="ssr:stedsnr" v="97234" />
	</node>
	<node lat="59.47216666226827" lon="8.660211105262348" id="-25331">
		<tag k="name" v="Sandsdalen øvre" />
		<tag k="place" v="farm" />
		<tag k="ssr:stedsnr" v="97526" />
	</node>
	<node lat="59.39242500093405" lon="8.681397223077663" id="-25332">
		<tag k="name" v="Løyningen" />
		<tag k="place" v="locality" />
		<tag k="ssr:stedsnr" v="97345" />
	</node>
	<node lat="59.584408334245" lon="8.459691671766093" id="-25345">
		<tag k="name" v="Bekkhus nedre" />
		<tag k="place" v="farm" />
		<tag k="ssr:stedsnr" v="98039" />
	</node>
	<node lat="59.589933329386525" lon="8.449327780952775" id="-25346">
		<tag k="name" v="Nuten" />
		<tag k="place" v="locality" />
		<tag k="ssr:stedsnr" v="98052" />
	</node>
	<node lat="59.60554722562456" lon="8.518374997862958" id="-25353">
		<tag k="historic" v="shieling" />
		<tag k="name" v="Hognestaul" />
		<tag k="place" v="isolated_dwelling" />
		<tag k="ssr:stedsnr" v="98193" />
	</node>
	<node lat="59.503299996954375" lon="8.631361115308012" id="-25356">
		<tag k="name" v="Bakkan" />
		<tag k="place" v="farm" />
		<tag k="ssr:stedsnr" v="98646" />
	</node>
	<node lat="59.566186113207166" lon="8.517374993598718" id="-25361">
		<tag k="fixme" v="consider place=hamlet" />
		<tag k="name" v="Dale nordre" />
		<tag k="place" v="farm" />
		<tag k="ssr:stedsnr" v="98841" />
	</node>
	<node lat="59.565305552979346" lon="8.51823889282352" id="-25362">
		<tag k="fixme" v="consider place=hamlet" />
		<tag k="name" v="Dale søndre" />
		<tag k="place" v="farm" />
		<tag k="ssr:stedsnr" v="98842" />
	</node>
	<node lat="59.64405277708239" lon="8.30025277343795" id="-25363">
		<tag k="historic" v="shieling" />
		<tag k="name" v="Tuvun" />
		<tag k="place" v="isolated_dwelling" />
		<tag k="ssr:stedsnr" v="99281" />
	</node>
	<node lat="59.660963890695044" lon="8.36233610345747" id="-25364">
		<tag k="name" v="Øvrebø nedre" />
		<tag k="place" v="farm" />
		<tag k="ssr:stedsnr" v="99521" />
	</node>
	<node lat="59.66380277784606" lon="8.370244442283733" id="-25366">
		<tag k="historic" v="shieling" />
		<tag k="name" v="Gonstein" />
		<tag k="place" v="isolated_dwelling" />
		<tag k="ssr:stedsnr" v="99526" />
	</node>
	<node lat="59.660974995898435" lon="8.250819439161074" id="-25374">
		<tag k="name" v="Stakkelid" />
		<tag k="place" v="locality" />
		<tag k="ssr:stedsnr" v="103147" />
	</node>
	<node lat="59.701852781161364" lon="8.259372225561108" id="-25381">
		<tag k="historic" v="shieling" />
		<tag k="name" v="Åto-staul" />
		<tag k="place" v="isolated_dwelling" />
		<tag k="ssr:stedsnr" v="103198" />
	</node>
	<node lat="59.676136110169594" lon="8.304997217161755" id="-25385">
		<tag k="historic" v="shieling" />
		<tag k="name" v="Fossejord" />
		<tag k="place" v="isolated_dwelling" />
		<tag k="ssr:stedsnr" v="103339" />
	</node>
	<node lat="59.443222219044394" lon="8.842586110313631" id="-25387">
		<tag k="name" v="Moen nedre" />
		<tag k="place" v="locality" />
		<tag k="ssr:stedsnr" v="103967" />
	</node>
	<node lat="59.57419166892407" lon="8.363747215212678" id="-25391">
		<tag k="name" v="Nystaul" />
		<tag k="place" v="locality" />
		<tag k="ssr:stedsnr" v="104064" />
	</node>
	<node lat="59.4693861153726" lon="8.53443610297155" id="-25394">
		<tag k="alt_name" v="Bjørndalen" />
		<tag k="name" v="Bjønndalen" />
		<tag k="place" v="isolated_dwelling" />
		<tag k="ssr:stedsnr" v="123004" />
	</node>
	<node lat="59.46089999910442" lon="8.791911113445954" id="-25395">
		<tag k="alt_name" v="Flatestaul" />
		<tag k="name" v="Flatastaul" />
		<tag k="place" v="locality" />
		<tag k="ssr:stedsnr" v="123099" />
	</node>
	<node lat="59.454705559248566" lon="8.850933334005667" id="-25400">
		<tag k="alt_name" v="Vårbulid søndre" />
		<tag k="name" v="Vårbulii" />
		<tag k="place" v="isolated_dwelling" />
		<tag k="ssr:stedsnr" v="123543" />
	</node>
	<node lat="59.68015833525116" lon="8.34901389261048" id="-25403">
		<tag k="historic" v="shieling" />
		<tag k="name" v="Holtar" />
		<tag k="place" v="isolated_dwelling" />
		<tag k="ssr:stedsnr" v="124123" />
	</node>
	<node lat="59.42678055774934" lon="8.680658333933216" id="-25404">
		<tag k="name" v="Bekkjevasen" />
		<tag k="place" v="isolated_dwelling" />
		<tag k="ssr:stedsnr" v="123936" />
	</node>
	<node lat="59.424897219013445" lon="8.771524996577611" id="-25405">
		<tag k="alt_name" v="Brennemo" />
		<tag k="name" v="Brennmo" />
		<tag k="place" v="isolated_dwelling" />
		<tag k="ssr:stedsnr" v="123941" />
	</node>
	<node lat="59.53449166433631" lon="8.489591663284209" id="-25406">
		<tag k="name" v="Gudmundstaul" />
		<tag k="place" v="locality" />
		<tag k="ssr:stedsnr" v="124066" />
	</node>
	<node lat="59.64816944466879" lon="8.352116668406453" id="-25407">
		<tag k="alt_name" v="Skoregrendi" />
		<tag k="name" v="Skorigrendi" />
		<tag k="place" v="hamlet" />
		<tag k="ssr:stedsnr" v="124268" />
	</node>
	<node lat="59.64434722630688" lon="8.30033888583724" id="-25408">
		<tag k="historic" v="shieling" />
		<tag k="name" v="Tuvun" />
		<tag k="place" v="isolated_dwelling" />
		<tag k="ssr:stedsnr" v="124270" />
	</node>
	<node lat="59.692377781443085" lon="8.37988055298683" id="-25410">
		<tag k="historic" v="shieling" />
		<tag k="name" v="Dalastaul" />
		<tag k="place" v="isolated_dwelling" />
		<tag k="ssr:stedsnr" v="124131" />
	</node>
	<node lat="59.6910527812195" lon="8.420072215189611" id="-25411">
		<tag k="alt_name" v="Morgestaul" />
		<tag k="historic" v="shieling" />
		<tag k="name" v="Morgestaulstaulen" />
		<tag k="place" v="isolated_dwelling" />
		<tag k="ssr:stedsnr" v="124133" />
	</node>
	<node lat="59.60392777517434" lon="8.33119443995129" id="-25413">
		<tag k="name" v="Rorgemoen" />
		<tag k="place" v="farm" />
		<tag k="ssr:stedsnr" v="124220" />
	</node>
	<node lat="59.63085277850718" lon="8.317677774415568" id="-25414">
		<tag k="alt_name" v="Tjønnstaul" />
		<tag k="historic" v="shieling" />
		<tag k="name" v="Tjørnstaul" />
		<tag k="place" v="isolated_dwelling" />
		<tag k="ssr:stedsnr" v="124239" />
	</node>
	<node lat="59.53180277720446" lon="8.439336119823189" id="-25419">
		<tag k="historic" v="shieling" />
		<tag k="name" v="Dyrflaten" />
		<tag k="place" v="isolated_dwelling" />
		<tag k="ssr:stedsnr" v="124334" />
	</node>
	<node lat="59.61195833073465" lon="8.516574992534583" id="-25422">
		<tag k="name" v="Hovet" />
		<tag k="place" v="farm" />
		<tag k="ssr:stedsnr" v="124731" />
	</node>
	<node lat="59.59130832946001" lon="8.542233325578154" id="-25424">
		<tag k="name" v="Midtbøen" />
		<tag k="place" v="farm" />
		<tag k="ssr:stedsnr" v="124838" />
	</node>
	<node lat="59.56783333021579" lon="8.567033337445546" id="-25425">
		<tag k="fixme" v="consider place=hamlet" />
		<tag k="name" v="Flatdal" />
		<tag k="place" v="village" />
		<tag k="ssr:stedsnr" v="124934" />
	</node>
	<node lat="59.634088887368854" lon="8.486413897092664" id="-25429">
		<tag k="historic" v="shieling" />
		<tag k="name" v="Fjølabui" />
		<tag k="place" v="isolated_dwelling" />
		<tag k="ssr:stedsnr" v="124698" />
	</node>
	<node lat="59.575592594239595" lon="8.568080142775667" id="-25430">
		<tag k="name" v="Kleivberg" />
		<tag k="place" v="farm" />
		<tag k="ssr:stedsnr" v="124880" />
	</node>
	<node lat="59.48725555216811" lon="8.602619436532839" id="-25443">
		<tag k="name" v="Feten" />
		<tag k="place" v="farm" />
		<tag k="ssr:stedsnr" v="157182" />
	</node>
	<node lat="59.45988055355361" lon="8.569347230548837" id="-25444">
		<tag k="name" v="Meås nedre" />
		<tag k="place" v="farm" />
		<tag k="ssr:stedsnr" v="157186" />
	</node>
	<node lat="59.46156944649169" lon="8.669930561290363" id="-25447">
		<tag k="name" v="Nystaul" />
		<tag k="place" v="locality" />
		<tag k="ssr:stedsnr" v="157714" />
	</node>
	<node lat="59.48268888972217" lon="8.626555555095685" id="-25450">
		<tag k="amenity" v="townhall" />
		<tag k="name" v="Kommunehuset" />
		<tag k="ssr:stedsnr" v="157781" />
	</node>
	<node lat="59.55046944440011" lon="8.595186109360403" id="-25451">
		<tag k="name" v="Sundbøgrendi" />
		<tag k="place" v="hamlet" />
		<tag k="ssr:stedsnr" v="157881" />
	</node>
	<node lat="59.63542221894998" lon="8.434680550077937" id="-25455">
		<tag k="historic" v="shieling" />
		<tag k="name" v="Nystaul" />
		<tag k="place" v="isolated_dwelling" />
		<tag k="ssr:stedsnr" v="158031" />
	</node>
	<node lat="59.390080553790426" lon="8.84741944776844" id="-25460">
		<tag k="name" v="Borgin" />
		<tag k="place" v="locality" />
		<tag k="ssr:stedsnr" v="158055" />
	</node>
	<node lat="59.422680555236965" lon="8.738624991386862" id="-25464">
		<tag k="historic" v="shieling" />
		<tag k="name" v="Nystaul" />
		<tag k="place" v="isolated_dwelling" />
		<tag k="ssr:stedsnr" v="158179" />
	</node>
	<node lat="59.47256389306666" lon="8.73838334084465" id="-25465">
		<tag k="name" v="Skålbu" />
		<tag k="place" v="locality" />
		<tag k="ssr:stedsnr" v="158181" />
	</node>
	<node lat="59.62986944388334" lon="8.511627780702199" id="-25472">
		<tag k="historic" v="shieling" />
		<tag k="name" v="Nystaul" />
		<tag k="place" v="isolated_dwelling" />
		<tag k="ssr:stedsnr" v="158462" />
	</node>
	<node lat="59.556308331425" lon="8.573347221061082" id="-25473">
		<tag k="name" v="Flatland" />
		<tag k="place" v="farm" />
		<tag k="ssr:stedsnr" v="158636" />
	</node>
	<node lat="59.58991666596742" lon="8.539258328407774" id="-25476">
		<tag k="name" v="Gasarud" />
		<tag k="place" v="locality" />
		<tag k="ssr:stedsnr" v="158829" />
	</node>
	<node lat="59.59107500074969" lon="8.530252776872503" id="-25477">
		<tag k="name" v="Bakkedalen" />
		<tag k="place" v="locality" />
		<tag k="ssr:stedsnr" v="158830" />
	</node>
	<node lat="59.59476944361252" lon="8.532427774784328" id="-25478">
		<tag k="name" v="Bakkemoen nordre" />
		<tag k="place" v="farm" />
		<tag k="ssr:stedsnr" v="158833" />
	</node>
	<node lat="59.57162777478493" lon="8.439494436101338" id="-25480">
		<tag k="historic" v="shieling" />
		<tag k="name" v="Breistaul" />
		<tag k="place" v="isolated_dwelling" />
		<tag k="ssr:stedsnr" v="159081" />
	</node>
	<node lat="59.74867222226645" lon="8.364472226507441" id="-25482">
		<tag k="historic" v="shieling" />
		<tag k="name" v="Mefjellroe" />
		<tag k="place" v="isolated_dwelling" />
		<tag k="ssr:stedsnr" v="159155" />
	</node>
	<node lat="59.56888888943387" lon="8.568913890247146" id="-25483">
		<tag k="fixme" v="consider place=hamlet" />
		<tag k="name" v="Skararud" />
		<tag k="place" v="farm" />
		<tag k="ssr:stedsnr" v="158930" />
	</node>
	<node lat="59.66455278111175" lon="8.354402773937291" id="-25484">
		<tag k="historic" v="shieling" />
		<tag k="name" v="Teigen" />
		<tag k="place" v="isolated_dwelling" />
		<tag k="ssr:stedsnr" v="159182" />
	</node>
	<node lat="59.67783333445601" lon="8.338769443202125" id="-25485">
		<tag k="historic" v="shieling" />
		<tag k="name" v="Finnroe" />
		<tag k="place" v="isolated_dwelling" />
		<tag k="ssr:stedsnr" v="159187" />
	</node>
	<node lat="59.666391669284934" lon="8.351258338986376" id="-25487">
		<tag k="name" v="Midtjore" />
		<tag k="place" v="locality" />
		<tag k="ssr:stedsnr" v="159577" />
	</node>
	<node lat="59.666302775630385" lon="8.354577770304356" id="-25488">
		<tag k="name" v="Boten" />
		<tag k="place" v="locality" />
		<tag k="ssr:stedsnr" v="159580" />
	</node>
	<node lat="59.67636666571671" lon="8.33303889273058" id="-25489">
		<tag k="name" v="Fjøllstaul" />
		<tag k="place" v="locality" />
		<tag k="ssr:stedsnr" v="159594" />
	</node>
	<node lat="59.60185832996563" lon="8.41333055396271" id="-25491">
		<tag k="historic" v="shieling" />
		<tag k="name" v="Furustaul" />
		<tag k="place" v="isolated_dwelling" />
		<tag k="ssr:stedsnr" v="159912" />
	</node>
	<node lat="59.607874999051774" lon="8.47141111214333" id="-25494">
		<tag k="historic" v="shieling" />
		<tag k="name" v="Damstaul" />
		<tag k="place" v="isolated_dwelling" />
		<tag k="ssr:stedsnr" v="160782" />
	</node>
	<node lat="59.598752774451945" lon="8.475427773268049" id="-25495">
		<tag k="name" v="Vasstveit" />
		<tag k="place" v="farm" />
		<tag k="ssr:stedsnr" v="160858" />
	</node>
	<node lat="59.60272778102404" lon="8.445294443953326" id="-25496">
		<tag k="name" v="Moen" />
		<tag k="place" v="farm" />
		<tag k="ssr:stedsnr" v="160837" />
	</node>
	<node lat="59.638011111274" lon="8.326186115067571" id="-25499">
		<tag k="historic" v="shieling" />
		<tag k="name" v="Flatastaul" />
		<tag k="place" v="isolated_dwelling" />
		<tag k="ssr:stedsnr" v="163145" />
	</node>
	<node lat="59.62513055680464" lon="8.275155551263287" id="-25501">
		<tag k="historic" v="shieling" />
		<tag k="name" v="Varden" />
		<tag k="place" v="isolated_dwelling" />
		<tag k="ssr:stedsnr" v="163333" />
	</node>
	<node lat="59.58923055483101" lon="8.379066661565801" id="-25504">
		<tag k="name" v="Sud-Joret" />
		<tag k="place" v="farm" />
		<tag k="ssr:stedsnr" v="163946" />
	</node>
	<node lat="59.58774722171412" lon="8.382588884787706" id="-25505">
		<tag k="name" v="Skare" />
		<tag k="place" v="isolated_dwelling" />
		<tag k="ssr:stedsnr" v="163948" />
	</node>
	<node lat="59.63595000445408" lon="8.38210277366641" id="-25510">
		<tag k="name" v="Baugestaul" />
		<tag k="place" v="farm" />
		<tag k="ssr:stedsnr" v="164220" />
	</node>
	<node lat="59.68918888700026" lon="8.262155553857376" id="-25511">
		<tag k="historic" v="shieling" />
		<tag k="name" v="Nystaul" />
		<tag k="place" v="isolated_dwelling" />
		<tag k="ssr:stedsnr" v="164242" />
	</node>
	<node lat="59.44303610729961" lon="8.844505548533371" id="-25516">
		<tag k="name" v="Moen" />
		<tag k="place" v="locality" />
		<tag k="ssr:stedsnr" v="164968" />
	</node>
	<node lat="59.49815277344742" lon="8.655388894011775" id="-25519">
		<tag k="name" v="Husås" />
		<tag k="place" v="isolated_dwelling" />
		<tag k="ssr:stedsnr" v="184032" />
	</node>
	<node lat="59.45811110997183" lon="8.83648055476963" id="-25521">
		<tag k="name" v="Tjørnstaul" />
		<tag k="place" v="isolated_dwelling" />
		<tag k="ssr:stedsnr" v="184070" />
	</node>
	<node lat="59.45573333447666" lon="8.55778888536959" id="-25523">
		<tag k="name" v="Undeberg" />
		<tag k="place" v="farm" />
		<tag k="ssr:stedsnr" v="184082" />
	</node>
	<node lat="59.378249996928496" lon="8.814655563987149" id="-25525">
		<tag k="name" v="Bergland" />
		<tag k="place" v="isolated_dwelling" />
		<tag k="ssr:stedsnr" v="184777" />
	</node>
	<node lat="59.52365833489739" lon="8.719408329986699" id="-25527">
		<tag k="historic" v="shieling" />
		<tag k="name" v="Smylemoen" />
		<tag k="place" v="isolated_dwelling" />
		<tag k="ssr:stedsnr" v="185015" />
	</node>
	<node lat="59.47267500032739" lon="8.58255833379731" id="-25528">
		<tag k="fixme" v="consider place=hamlet" />
		<tag k="name" v="Rui" />
		<tag k="place" v="farm" />
		<tag k="ssr:stedsnr" v="185023" />
	</node>
	<node lat="59.47983610693917" lon="8.599483328681576" id="-25529">
		<tag k="alt_name" v="Rudningen" />
		<tag k="name" v="Runningen" />
		<tag k="place" v="farm" />
		<tag k="ssr:stedsnr" v="185026" />
	</node>
	<node lat="59.51231666796728" lon="8.665927779364074" id="-25530">
		<tag k="fixme" v="consider place=hamlet" />
		<tag k="name" v="Tveiten" />
		<tag k="place" v="farm" />
		<tag k="ssr:stedsnr" v="185051" />
	</node>
	<node lat="59.53294167003259" lon="8.468594449770075" id="-25532">
		<tag k="fixme" v="consider place=hamlet" />
		<tag k="name" v="Sundsbarm" />
		<tag k="place" v="farm" />
		<tag k="ssr:stedsnr" v="185062" />
	</node>
	<node lat="59.58752500187709" lon="8.377474992441785" id="-25538">
		<tag k="fixme" v="consider place=hamlet" />
		<tag k="name" v="Langlim" />
		<tag k="place" v="village" />
		<tag k="ssr:stedsnr" v="185454" />
	</node>
	<node lat="59.57334999833983" lon="8.688636110780743" id="-25541">
		<tag k="name" v="Mælstaul" />
		<tag k="place" v="isolated_dwelling" />
		<tag k="ssr:stedsnr" v="185893" />
	</node>
	<node lat="59.60129444117435" lon="8.468861103710758" id="-25543">
		<tag k="name" v="Hamsjord" />
		<tag k="place" v="farm" />
		<tag k="ssr:stedsnr" v="185868" />
	</node>
	<node lat="59.6309083300473" lon="8.403824998870318" id="-25552">
		<tag k="name" v="Åmotsdal" />
		<tag k="place" v="hamlet" />
		<tag k="ssr:stedsnr" v="213968" />
	</node>
	<node lat="59.35919166979288" lon="8.83444723056954" id="-25558">
		<tag k="name" v="Nystaul" />
		<tag k="place" v="locality" />
		<tag k="ssr:stedsnr" v="216211" />
	</node>
	<node lat="59.45314444700802" lon="8.859452778784284" id="-25561">
		<tag k="name" v="Kaldal" />
		<tag k="place" v="locality" />
		<tag k="ssr:stedsnr" v="217139" />
	</node>
	<node lat="59.497074995879785" lon="8.597349997460528" id="-25566">
		<tag k="name" v="Jonslid" />
		<tag k="place" v="locality" />
		<tag k="ssr:stedsnr" v="218059" />
	</node>
	<node lat="59.40715000070253" lon="8.706841658320709" id="-25570">
		<tag k="name" v="Dale øvre" />
		<tag k="place" v="farm" />
		<tag k="ssr:stedsnr" v="218466" />
	</node>
	<node lat="59.45041388785227" lon="8.736375002390123" id="-25571">
		<tag k="name" v="Skrabekk" />
		<tag k="place" v="isolated_dwelling" />
		<tag k="ssr:stedsnr" v="218398" />
	</node>
	<node lat="59.56279444449076" lon="8.409322225514568" id="-25579">
		<tag k="name" v="Dambergi" />
		<tag k="place" v="isolated_dwelling" />
		<tag k="ssr:stedsnr" v="219085" />
	</node>
	<node lat="59.567108335945996" lon="8.446791657907648" id="-25589">
		<tag k="historic" v="shieling" />
		<tag k="name" v="Saupestaul" />
		<tag k="place" v="isolated_dwelling" />
		<tag k="ssr:stedsnr" v="219067" />
	</node>
	<node lat="59.47257500279064" lon="8.75080277270921" id="-25590">
		<tag k="historic" v="shieling" />
		<tag k="name" v="Haugestaul" />
		<tag k="place" v="isolated_dwelling" />
		<tag k="ssr:stedsnr" v="219138" />
	</node>
	<node lat="59.60886944726517" lon="8.517680563532512" id="-25594">
		<tag k="alt_name" v="Lien nedre" />
		<tag k="name" v="Nedre Lien" />
		<tag k="place" v="farm" />
		<tag k="ssr:stedsnr" v="219217" />
	</node>
	<node lat="59.575402777693206" lon="8.57208888897826" id="-25598">
		<tag k="name" v="Eddingsås" />
		<tag k="place" v="farm" />
		<tag k="ssr:stedsnr" v="219825" />
	</node>
	<node lat="59.57851111175851" lon="8.589041660210118" id="-25599">
		<tag k="historic" v="shieling" />
		<tag k="name" v="Haraldsrud" />
		<tag k="place" v="isolated_dwelling" />
		<tag k="ssr:stedsnr" v="219829" />
	</node>
	<node lat="59.57232222453633" lon="8.586616673507976" id="-25601">
		<tag k="name" v="Kåsa" />
		<tag k="place" v="farm" />
		<tag k="ssr:stedsnr" v="219782" />
	</node>
	<node lat="59.585022223990926" lon="8.56244166042367" id="-25602">
		<tag k="name" v="Utmoen" />
		<tag k="place" v="farm" />
		<tag k="ssr:stedsnr" v="219801" />
	</node>
	<node lat="59.57956110900069" lon="8.440583328447767" id="-25604">
		<tag k="name" v="Habbarskvammen" />
		<tag k="place" v="farm" />
		<tag k="ssr:stedsnr" v="220012" />
	</node>
	<node lat="59.54328056002086" lon="8.472049992385836" id="-25606">
		<tag k="name" v="Fjellstaul" />
		<tag k="place" v="locality" />
		<tag k="ssr:stedsnr" v="220140" />
	</node>
	<node lat="59.58580555927511" lon="8.552019446689851" id="-25608">
		<tag k="name" v="Bekkevoll" />
		<tag k="place" v="isolated_dwelling" />
		<tag k="ssr:stedsnr" v="219833" />
	</node>
	<node lat="59.5536999963524" lon="8.543127783599552" id="-25610">
		<tag k="name" v="Rompomstaul" />
		<tag k="place" v="locality" />
		<tag k="ssr:stedsnr" v="219850" />
	</node>
	<node lat="59.702288885218785" lon="8.329675007953048" id="-25618">
		<tag k="name" v="Lokestaul" />
		<tag k="place" v="locality" />
		<tag k="ssr:stedsnr" v="220755" />
	</node>
	<node lat="59.687872226584815" lon="8.347561103965422" id="-25619">
		<tag k="name" v="Øystaul" />
		<tag k="place" v="locality" />
		<tag k="ssr:stedsnr" v="220762" />
	</node>
	<node lat="59.70793055745043" lon="8.341033340868439" id="-25620">
		<tag k="name" v="Sudbø søndre" />
		<tag k="place" v="farm" />
		<tag k="ssr:stedsnr" v="220955" />
	</node>
	<node lat="59.638011111274" lon="8.326186115067571" id="-25624">
		<tag k="historic" v="shieling" />
		<tag k="name" v="Flatastaul" />
		<tag k="place" v="isolated_dwelling" />
		<tag k="ssr:stedsnr" v="224355" />
	</node>
	<node lat="59.60524444545847" lon="8.382852768912594" id="-25625">
		<tag k="historic" v="shieling" />
		<tag k="name" v="Mørkelid" />
		<tag k="place" v="isolated_dwelling" />
		<tag k="ssr:stedsnr" v="224356" />
	</node>
	<node lat="59.5945694445327" lon="8.315130557806901" id="-25626">
		<tag k="historic" v="shieling" />
		<tag k="name" v="Nystaul" />
		<tag k="place" v="isolated_dwelling" />
		<tag k="ssr:stedsnr" v="224366" />
	</node>
	<node lat="59.59299999741381" lon="8.279850003178353" id="-25628">
		<tag k="historic" v="shieling" />
		<tag k="name" v="Bekkjestaul" />
		<tag k="place" v="isolated_dwelling" />
		<tag k="ssr:stedsnr" v="224383" />
	</node>
	<node lat="59.64261944510803" lon="8.34078888751614" id="-25633">
		<tag k="name" v="Langarsbu" />
		<tag k="place" v="locality" />
		<tag k="ssr:stedsnr" v="225050" />
	</node>
	<node lat="59.63906666664669" lon="8.379655549504458" id="-25634">
		<tag k="name" v="Baugerud" />
		<tag k="place" v="farm" />
		<tag k="ssr:stedsnr" v="225076" />
	</node>
	<node lat="59.664416664924495" lon="8.263475006924429" id="-25636">
		<tag k="name" v="Veslehommen" />
		<tag k="place" v="locality" />
		<tag k="ssr:stedsnr" v="225181" />
	</node>
	<node lat="59.43573888701811" lon="8.729386110450239" id="-25649">
		<tag k="name" v="Garvik midtre" />
		<tag k="old_name" v="Garvik mittre" />
		<tag k="place" v="farm" />
		<tag k="ssr:stedsnr" v="279179" />
	</node>
	<node lat="59.43003888466082" lon="8.664330547212986" id="-25650">
		<tag k="name" v="Veslestaul" />
		<tag k="place" v="locality" />
		<tag k="ssr:stedsnr" v="279273" />
	</node>
	<node lat="59.5733388894104" lon="8.688700007878937" id="-25651">
		<tag k="historic" v="shieling" />
		<tag k="name" v="Natadals Mælestaul" />
		<tag k="place" v="isolated_dwelling" />
		<tag k="ssr:stedsnr" v="279400" />
	</node>
	<node lat="59.476072226556134" lon="8.59520832497412" id="-25653">
		<tag k="fixme" v="consider place=hamlet" />
		<tag k="name" v="Klomset nedre" />
		<tag k="place" v="farm" />
		<tag k="ssr:stedsnr" v="279243" />
	</node>
	<node lat="59.66630277447819" lon="8.431972224979132" id="-25656">
		<tag k="historic" v="shieling" />
		<tag k="name" v="Vermdeviki" />
		<tag k="place" v="isolated_dwelling" />
		<tag k="ssr:stedsnr" v="279530" />
	</node>
	<node lat="59.43888888524953" lon="8.70056666136985" id="-25657">
		<tag k="historic" v="shieling" />
		<tag k="name" v="Damstaulen" />
		<tag k="place" v="isolated_dwelling" />
		<tag k="ssr:stedsnr" v="279677" />
	</node>
	<node lat="59.690080558129246" lon="8.426444439908863" id="-25662">
		<tag k="historic" v="shieling" />
		<tag k="name" v="Tjønnstaul" />
		<tag k="place" v="isolated_dwelling" />
		<tag k="ssr:stedsnr" v="279945" />
	</node>
	<node lat="59.61935555895432" lon="8.431149994958535" id="-25668">
		<tag k="name" v="Solstad" />
		<tag k="place" v="farm" />
		<tag k="ssr:stedsnr" v="280028" />
	</node>
	<node lat="59.63146944656802" lon="8.414555555372528" id="-25670">
		<tag k="name" v="Kvævin" />
		<tag k="place" v="locality" />
		<tag k="ssr:stedsnr" v="280042" />
	</node>
	<node lat="59.58185555570125" lon="8.450816675022587" id="-25671">
		<tag k="name" v="Leite" />
		<tag k="place" v="locality" />
		<tag k="ssr:stedsnr" v="280045" />
	</node>
	<node lat="59.607702778260766" lon="8.517355563905635" id="-25677">
		<tag k="historic" v="shieling" />
		<tag k="name" v="Bakli" />
		<tag k="place" v="isolated_dwelling" />
		<tag k="ssr:stedsnr" v="280165" />
	</node>
	<node lat="59.67103610924581" lon="8.357908340954118" id="-25678">
		<tag k="historic" v="shieling" />
		<tag k="name" v="Bjønndalen søndre" />
		<tag k="place" v="isolated_dwelling" />
		<tag k="ssr:stedsnr" v="281525" />
	</node>
	<node lat="59.66156667059811" lon="8.362511119558127" id="-25680">
		<tag k="name" v="Øvrebø øvre" />
		<tag k="place" v="farm" />
		<tag k="ssr:stedsnr" v="281535" />
	</node>
	<node lat="59.66448333016115" lon="8.333625007902244" id="-25681">
		<tag k="name" v="Øystaul" />
		<tag k="place" v="locality" />
		<tag k="ssr:stedsnr" v="281540" />
	</node>
	<node lat="59.62528055339828" lon="8.506063892549298" id="-25684">
		<tag k="historic" v="shieling" />
		<tag k="name" v="Førnes" />
		<tag k="place" v="isolated_dwelling" />
		<tag k="ssr:stedsnr" v="280492" />
	</node>
	<node lat="59.40288611259971" lon="8.761572218648501" id="-25685">
		<tag k="name" v="Langedalstaulen" />
		<tag k="place" v="locality" />
		<tag k="ssr:stedsnr" v="280998" />
	</node>
	<node lat="59.523183332052774" lon="8.48314721464524" id="-25688">
		<tag k="historic" v="shieling" />
		<tag k="name" v="Slettestaul nordre" />
		<tag k="place" v="isolated_dwelling" />
		<tag k="ssr:stedsnr" v="281130" />
	</node>
	<node lat="59.65016666864005" lon="8.277183336194332" id="-25691">
		<tag k="name" v="Haugerud" />
		<tag k="place" v="isolated_dwelling" />
		<tag k="ssr:stedsnr" v="281386" />
	</node>
	<node lat="59.71351667034277" lon="8.282586107346493" id="-25696">
		<tag k="name" v="Stabberoe" />
		<tag k="place" v="locality" />
		<tag k="ssr:stedsnr" v="281655" />
	</node>
	<node lat="59.73160555840666" lon="8.26649444841327" id="-25699">
		<tag k="historic" v="shieling" />
		<tag k="name" v="Stuvestaul" />
		<tag k="place" v="isolated_dwelling" />
		<tag k="ssr:stedsnr" v="285120" />
	</node>
	<node lat="59.64849999900706" lon="8.269899995902351" id="-25701">
		<tag k="name" v="Kvambekk nedre" />
		<tag k="place" v="farm" />
		<tag k="ssr:stedsnr" v="285146" />
	</node>
	<node lat="59.67592777939535" lon="8.267566670389364" id="-25703">
		<tag k="historic" v="shieling" />
		<tag k="name" v="Kaafit" />
		<tag k="place" v="isolated_dwelling" />
		<tag k="ssr:stedsnr" v="285157" />
	</node>
	<node lat="59.63783889328993" lon="8.32397222836476" id="-25704">
		<tag k="historic" v="shieling" />
		<tag k="name" v="Nystaul" />
		<tag k="place" v="isolated_dwelling" />
		<tag k="ssr:stedsnr" v="285172" />
	</node>
	<node lat="59.63560833588756" lon="8.337272226440708" id="-25705">
		<tag k="name" v="Bekkestaul" />
		<tag k="place" v="locality" />
		<tag k="ssr:stedsnr" v="285251" />
	</node>
	<node lat="59.6344888918283" lon="8.344202769508431" id="-25707">
		<tag k="name" v="Fjellstaul" />
		<tag k="place" v="locality" />
		<tag k="ssr:stedsnr" v="285261" />
	</node>
	<node lat="59.601130552376226" lon="8.359388893625772" id="-25709">
		<tag k="historic" v="shieling" />
		<tag k="name" v="Kaprall" />
		<tag k="place" v="isolated_dwelling" />
		<tag k="ssr:stedsnr" v="285220" />
	</node>
	<node lat="59.587091669867505" lon="8.36428611326116" id="-25711">
		<tag k="name" v="Skogheim" />
		<tag k="place" v="isolated_dwelling" />
		<tag k="ssr:stedsnr" v="286115" />
	</node>
	<node lat="59.44742777581873" lon="8.861224996700102" id="-25720">
		<tag k="name" v="Rindedalen" />
		<tag k="place" v="isolated_dwelling" />
		<tag k="ssr:stedsnr" v="337138" />
	</node>
	<node lat="59.361136108889376" lon="8.822199997646246" id="-25722">
		<tag k="name" v="Sandbekkhytta" />
		<tag k="place" v="isolated_dwelling" />
		<tag k="ssr:stedsnr" v="337262" />
	</node>
	<node lat="59.49982499620002" lon="8.599502780820623" id="-25730">
		<tag k="alt_name" v="Kivle nedre;Kivle" />
		<tag k="name" v="Nedre Kivle" />
		<tag k="place" v="farm" />
		<tag k="ssr:stedsnr" v="306021" />
	</node>
	<node lat="59.475124996661" lon="8.57836111803627" id="-25731">
		<tag k="fixme" v="consider place=hamlet" />
		<tag k="name" v="Kodde" />
		<tag k="place" v="farm" />
		<tag k="ssr:stedsnr" v="306025" />
	</node>
	<node lat="59.51455555678067" lon="8.689124993372761" id="-25734">
		<tag k="historic" v="shieling" />
		<tag k="name" v="Tangen" />
		<tag k="place" v="isolated_dwelling" />
		<tag k="ssr:stedsnr" v="306039" />
	</node>
	<node lat="59.515944448821145" lon="8.680647229382076" id="-25736">
		<tag k="name" v="Lyngåsen" />
		<tag k="place" v="isolated_dwelling" />
		<tag k="ssr:stedsnr" v="306043" />
	</node>
	<node lat="59.45367222557957" lon="8.557997225798097" id="-25737">
		<tag k="name" v="Ramberg" />
		<tag k="place" v="farm" />
		<tag k="ssr:stedsnr" v="306089" />
	</node>
	<node lat="59.67601389180405" lon="8.34804444909878" id="-25738">
		<tag k="alt_name" v="Hovdlid" />
		<tag k="historic" v="shieling" />
		<tag k="name" v="Hovdeli" />
		<tag k="place" v="isolated_dwelling" />
		<tag k="ssr:stedsnr" v="306123" />
	</node>
	<node lat="59.684161111460014" lon="8.405722215745403" id="-25739">
		<tag k="alt_name" v="Fyljomstaulen" />
		<tag k="historic" v="shieling" />
		<tag k="name" v="Fyljomstaul" />
		<tag k="place" v="isolated_dwelling" />
		<tag k="ssr:stedsnr" v="306125" />
	</node>
	<node lat="59.68642778018724" lon="8.336688890112043" id="-25741">
		<tag k="historic" v="shieling" />
		<tag k="name" v="Fyrileiv" />
		<tag k="place" v="isolated_dwelling" />
		<tag k="ssr:stedsnr" v="306140" />
	</node>
	<node lat="59.69689166392396" lon="8.26781389671021" id="-25745">
		<tag k="fixme" v="consider place=hamlet" />
		<tag k="name" v="Angre" />
		<tag k="place" v="farm" />
		<tag k="ssr:stedsnr" v="306181" />
	</node>
	<node lat="59.71346666922147" lon="8.320761102557295" id="-25747">
		<tag k="name" v="Gamle Bjåen" />
		<tag k="place" v="locality" />
		<tag k="ssr:stedsnr" v="306193" />
	</node>
	<node lat="59.70829999767355" lon="8.336344453150826" id="-25748">
		<tag k="alt_name" v="Subø" />
		<tag k="fixme" v="consider place=hamlet" />
		<tag k="name" v="Sudbø" />
		<tag k="place" v="farm" />
		<tag k="ssr:stedsnr" v="306194" />
	</node>
	<node lat="59.630636109853256" lon="8.352844445848216" id="-25749">
		<tag k="alt_name" v="Tjønnstaul" />
		<tag k="historic" v="shieling" />
		<tag k="name" v="Tjørnstaul" />
		<tag k="place" v="isolated_dwelling" />
		<tag k="ssr:stedsnr" v="306275" />
	</node>
	<node lat="59.621875002041435" lon="8.43533888269428" id="-25750">
		<tag k="alt_name" v="Homlid" />
		<tag k="name" v="Homli" />
		<tag k="place" v="isolated_dwelling" />
		<tag k="ssr:stedsnr" v="306288" />
	</node>
	<node lat="59.66328333349927" lon="8.376602783650423" id="-25752">
		<tag k="historic" v="shieling" />
		<tag k="name" v="Gunnstein" />
		<tag k="place" v="isolated_dwelling" />
		<tag k="ssr:stedsnr" v="306346" />
	</node>
	<node lat="59.60675000258179" lon="8.36067500708684" id="-25755">
		<tag k="alt_name" v="Øyvokslid" />
		<tag k="historic" v="shieling" />
		<tag k="name" v="Øyvågsli" />
		<tag k="place" v="isolated_dwelling" />
		<tag k="ssr:stedsnr" v="306251" />
	</node>
	<node lat="59.587527778217634" lon="8.43996667482668" id="-25756">
		<tag k="historic" v="shieling" />
		<tag k="name" v="Årholt" />
		<tag k="place" v="isolated_dwelling" />
		<tag k="ssr:stedsnr" v="306449" />
	</node>
	<node lat="59.56513333775708" lon="8.65416943710629" id="-25757">
		<tag k="name" v="Søyleset" />
		<tag k="place" v="isolated_dwelling" />
		<tag k="ssr:stedsnr" v="306934" />
	</node>
	<node lat="59.59178610875616" lon="8.520319451048309" id="-25758">
		<tag k="name" v="Høydal" />
		<tag k="place" v="isolated_dwelling" />
		<tag k="ssr:stedsnr" v="306879" />
	</node>
	<node lat="59.437691664826964" lon="8.636813888412638" id="-25759">
		<tag k="alt_name" v="Øfstetveiten" />
		<tag k="fixme" v="consider place=hamlet" />
		<tag k="name" v="Øvsttveiten" />
		<tag k="place" v="farm" />
		<tag k="ssr:stedsnr" v="306880" />
	</node>
	<node lat="59.40768333687379" lon="8.735336111760201" id="-25763">
		<tag k="name" v="Napen" />
		<tag k="place" v="farm" />
		<tag k="ssr:stedsnr" v="306974" />
	</node>
	<node lat="59.55374166435751" lon="8.620124999668663" id="-25764">
		<tag k="name" v="Sitje" />
		<tag k="place" v="locality" />
		<tag k="ssr:stedsnr" v="306975" />
	</node>
	<node lat="59.403911114785956" lon="8.704983330826495" id="-25765">
		<tag k="name" v="Vestgarden" />
		<tag k="place" v="farm" />
		<tag k="ssr:stedsnr" v="306976" />
	</node>
	<node lat="59.56704167092211" lon="8.541713897549577" id="-25768">
		<tag k="name" v="Åren" />
		<tag k="place" v="farm" />
		<tag k="ssr:stedsnr" v="307940" />
	</node>
	<node lat="59.439338885485235" lon="8.71163888456947" id="-25770">
		<tag k="name" v="Storemyr" />
		<tag k="place" v="farm" />
		<tag k="ssr:stedsnr" v="339655" />
	</node>
	<node lat="59.41718888894755" lon="8.630058328416073" id="-25772">
		<tag k="historic" v="shieling" />
		<tag k="name" v="Djupedalstaulen" />
		<tag k="place" v="isolated_dwelling" />
		<tag k="ssr:stedsnr" v="339038" />
	</node>
	<node lat="59.64645833359094" lon="8.445725006652072" id="-25779">
		<tag k="historic" v="shieling" />
		<tag k="name" v="Revagrav" />
		<tag k="place" v="isolated_dwelling" />
		<tag k="ssr:stedsnr" v="339979" />
	</node>
	<node lat="59.45282777555086" lon="8.696991674535973" id="-25783">
		<tag k="name" v="Lindviki" />
		<tag k="place" v="locality" />
		<tag k="ssr:stedsnr" v="339737" />
	</node>
	<node lat="59.43674166534791" lon="8.73048889249569" id="-25791">
		<tag k="name" v="Garvik østre" />
		<tag k="place" v="farm" />
		<tag k="ssr:stedsnr" v="340174" />
	</node>
	<node lat="59.55969999575046" lon="8.468533327273889" id="-25794">
		<tag k="historic" v="shieling" />
		<tag k="name" v="Tjønnstaul" />
		<tag k="place" v="isolated_dwelling" />
		<tag k="ssr:stedsnr" v="340081" />
	</node>
	<node lat="59.56515555724514" lon="8.457402781837992" id="-25795">
		<tag k="historic" v="shieling" />
		<tag k="name" v="Hovtjønn" />
		<tag k="place" v="isolated_dwelling" />
		<tag k="ssr:stedsnr" v="340082" />
	</node>
	<node lat="59.44290555499009" lon="8.822136111397622" id="-25797">
		<tag k="name" v="Vefall" />
		<tag k="place" v="farm" />
		<tag k="ssr:stedsnr" v="340252" />
	</node>
	<node lat="59.56290833014565" lon="8.569097225489022" id="-25799">
		<tag k="name" v="Flatbygdi" />
		<tag k="place" v="hamlet" />
		<tag k="ssr:stedsnr" v="340653" />
	</node>
	<node lat="59.40292500002082" lon="8.744444451492745" id="-25806">
		<tag k="name" v="Kveldro" />
		<tag k="place" v="locality" />
		<tag k="ssr:stedsnr" v="340996" />
	</node>
	<node lat="59.532205551133806" lon="8.469758327351068" id="-25808">
		<tag k="name" v="Sundsbarm søndre" />
		<tag k="place" v="isolated_dwelling" />
		<tag k="ssr:stedsnr" v="341098" />
	</node>
	<node lat="59.64522777697058" lon="8.298902770662158" id="-25812">
		<tag k="historic" v="shieling" />
		<tag k="name" v="Øvstestaul" />
		<tag k="place" v="isolated_dwelling" />
		<tag k="ssr:stedsnr" v="341300" />
	</node>
	<node lat="59.72499166695079" lon="8.316375001014823" id="-25817">
		<tag k="historic" v="shieling" />
		<tag k="name" v="Skarbu" />
		<tag k="place" v="isolated_dwelling" />
		<tag k="ssr:stedsnr" v="341737" />
	</node>
	<node lat="59.71290555241129" lon="8.343691659643254" id="-25820">
		<tag k="name" v="Søyleset" />
		<tag k="place" v="locality" />
		<tag k="ssr:stedsnr" v="341828" />
	</node>
	<node lat="59.61739722542711" lon="8.4553138936402" id="-25823">
		<tag k="name" v="Otterstaul S" />
		<tag k="place" v="locality" />
		<tag k="ssr:stedsnr" v="342702" />
	</node>
	<node lat="59.588736111733304" lon="8.371258324650139" id="-25828">
		<tag k="name" v="Svalastoghaugen" />
		<tag k="place" v="locality" />
		<tag k="ssr:stedsnr" v="345144" />
	</node>
	<node lat="59.591825000559204" lon="8.291750007020266" id="-25834">
		<tag k="historic" v="shieling" />
		<tag k="name" v="Fallbekk" />
		<tag k="place" v="isolated_dwelling" />
		<tag k="ssr:stedsnr" v="345383" />
	</node>
	<node lat="59.59133055648289" lon="8.37881665946476" id="-25835">
		<tag k="name" v="Solbakken" />
		<tag k="place" v="isolated_dwelling" />
		<tag k="ssr:stedsnr" v="345937" />
	</node>
	<node lat="59.649325001863126" lon="8.37307222299444" id="-25837">
		<tag k="name" v="Solheim" />
		<tag k="place" v="farm" />
		<tag k="ssr:stedsnr" v="346048" />
	</node>
	<node lat="59.56527499820145" lon="8.246274992714671" id="-25839">
		<tag k="historic" v="shieling" />
		<tag k="name" v="Roe" />
		<tag k="place" v="isolated_dwelling" />
		<tag k="ssr:stedsnr" v="346335" />
	</node>
	<node lat="59.438252780624985" lon="8.851580558767532" id="-25840">
		<tag k="name" v="Undeberg" />
		<tag k="place" v="locality" />
		<tag k="ssr:stedsnr" v="346959" />
	</node>
	<node lat="59.646013890964575" lon="8.374422223882894" id="-25842">
		<tag k="alt_name" v="Aamot nedre" />
		<tag k="fixme" v="consider place=hamlet" />
		<tag k="name" v="Åmot" />
		<tag k="place" v="farm" />
		<tag k="ssr:stedsnr" v="346980" />
	</node>
	<node lat="59.50456666489823" lon="8.57605554695974" id="-25846">
		<tag k="name" v="Tresland" />
		<tag k="place" v="farm" />
		<tag k="ssr:stedsnr" v="367016" />
	</node>
	<node lat="59.68155555736368" lon="8.357297214470652" id="-25847">
		<tag k="historic" v="shieling" />
		<tag k="name" v="Haugeset" />
		<tag k="place" v="isolated_dwelling" />
		<tag k="ssr:stedsnr" v="367118" />
	</node>
	<node lat="59.459477781185036" lon="8.587188884093225" id="-25849">
		<tag k="alt_name" v="Vårbulii" />
		<tag k="name" v="Vårbulid" />
		<tag k="place" v="farm" />
		<tag k="ssr:stedsnr" v="366094" />
	</node>
	<node lat="59.46781388822824" lon="8.5712750069806" id="-25852">
		<tag k="alt_name" v="Li, øvre;Lid øvre" />
		<tag k="name" v="Øvre Lid" />
		<tag k="place" v="farm" />
		<tag k="ssr:stedsnr" v="366111" />
	</node>
	<node lat="59.467575001450655" lon="8.665166673089146" id="-25853">
		<tag k="name" v="Svarvaren" />
		<tag k="place" v="isolated_dwelling" />
		<tag k="ssr:stedsnr" v="366115" />
	</node>
	<node lat="59.46866111341334" lon="8.661575006280813" id="-25854">
		<tag k="name" v="Åsen" />
		<tag k="place" v="isolated_dwelling" />
		<tag k="ssr:stedsnr" v="366117" />
	</node>
	<node lat="59.5671527785976" lon="8.42161666588077" id="-25856">
		<tag k="alt_name" v="Osestaul" />
		<tag k="name" v="Osstaul" />
		<tag k="place" v="farm" />
		<tag k="ssr:stedsnr" v="366469" />
	</node>
	<node lat="59.443800001713804" lon="8.782172222253525" id="-25861">
		<tag k="name" v="Solli" />
		<tag k="place" v="locality" />
		<tag k="ssr:stedsnr" v="366867" />
	</node>
	<node lat="59.728522218325814" lon="8.257288892182915" id="-25867">
		<tag k="historic" v="shieling" />
		<tag k="loc_name" v="Søylset" />
		<tag k="name" v="Søyleset" />
		<tag k="place" v="isolated_dwelling" />
		<tag k="ssr:stedsnr" v="367162" />
	</node>
	<node lat="59.62374166236554" lon="8.410627779907388" id="-25870">
		<tag k="name" v="Grønstein" />
		<tag k="place" v="farm" />
		<tag k="ssr:stedsnr" v="367248" />
	</node>
	<node lat="59.638319448433684" lon="8.466258334373869" id="-25872">
		<tag k="historic" v="shieling" />
		<tag k="name" v="Vetrhus" />
		<tag k="place" v="isolated_dwelling" />
		<tag k="ssr:stedsnr" v="367280" />
	</node>
	<node lat="59.66768889011723" lon="8.314161119808277" id="-25873">
		<tag k="alt_name" v="Kvambekk, vle" />
		<tag k="historic" v="shieling" />
		<tag k="name" v="Vesle Kvambekk" />
		<tag k="place" v="isolated_dwelling" />
		<tag k="ssr:stedsnr" v="367291" />
	</node>
	<node lat="59.58423610857008" lon="8.459855549597975" id="-25879">
		<tag k="name" v="Bekkhus" />
		<tag k="place" v="farm" />
		<tag k="ssr:stedsnr" v="367418" />
	</node>
	<node lat="59.55558611150504" lon="8.446388890232939" id="-25881">
		<tag k="alt_name" v="Venelid" />
		<tag k="historic" v="shieling" />
		<tag k="name" v="Veneli" />
		<tag k="place" v="isolated_dwelling" />
		<tag k="ssr:stedsnr" v="367369" />
	</node>
	<node lat="59.52158610814794" lon="8.454777781629618" id="-25885">
		<tag k="historic" v="shieling" />
		<tag k="name" v="Geitskoto" />
		<tag k="place" v="isolated_dwelling" />
		<tag k="ssr:stedsnr" v="367451" />
	</node>
	<node lat="59.57007499959067" lon="8.577461119456267" id="-25886">
		<tag k="alt_name" v="Minnisjord øvre;Minnesjord" />
		<tag k="fixme" v="consider place=hamlet" />
		<tag k="name" v="Minnisjord" />
		<tag k="place" v="farm" />
		<tag k="ssr:stedsnr" v="367897" />
	</node>
	<node lat="59.46162222506486" lon="8.705949999441378" id="-25888">
		<tag k="name" v="Digernes" />
		<tag k="place" v="farm" />
		<tag k="ssr:stedsnr" v="367650" />
	</node>
	<node lat="59.62020832902697" lon="8.471886104131233" id="-25889">
		<tag k="alt_name" v="Floktjørn" />
		<tag k="name" v="Flottjønn" />
		<tag k="place" v="isolated_dwelling" />
		<tag k="ssr:stedsnr" v="367755" />
	</node>
	<node lat="59.59403611314425" lon="8.569552785002518" id="-25891">
		<tag k="alt_name" v="Svervelid" />
		<tag k="name" v="Sverveli" />
		<tag k="place" v="isolated_dwelling" />
		<tag k="ssr:stedsnr" v="367856" />
	</node>
	<node lat="59.5586500016403" lon="8.563825003958454" id="-25892">
		<tag k="name" v="Kvålheim" />
		<tag k="place" v="farm" />
		<tag k="ssr:stedsnr" v="367930" />
	</node>
	<node lat="59.56598943260297" lon="8.548758596635391" id="-25893">
		<tag k="name" v="Hagabrekka" />
		<tag k="place" v="farm" />
		<tag k="ssr:stedsnr" v="367932" />
	</node>
	<node lat="59.56593610738658" lon="8.523677770598706" id="-25894">
		<tag k="name" v="Rjukan" />
		<tag k="place" v="farm" />
		<tag k="ssr:stedsnr" v="367940" />
	</node>
</osm>
