<?xml version="1.0" encoding="UTF-8"?>
<osm version="0.6" generator="osmapis">
	<node lat="59.45853889165587" lon="8.789552778449565" id="-53310">
		<tag k="name" v="Tangemyrane" />
		<tag k="natural" v="wetland" />
		<tag k="ssr:stedsnr" v="36039" />
	</node>
	<node lat="59.505572220779285" lon="8.639130559429796" id="-53338">
		<tag k="name" v="Satajuvet" />
		<tag k="place" v="locality" />
		<tag k="ssr:stedsnr" v="37678" />
	</node>
	<node lat="59.379688886724445" lon="8.692827770202966" id="-53361">
		<tag k="alt_name" v="Dammyri" />
		<tag k="name" v="Dammyra" />
		<tag k="natural" v="wetland" />
		<tag k="ssr:stedsnr" v="63766" />
	</node>
	<node lat="59.584080559186" lon="8.61735833648155" id="-53364">
		<tag k="name" v="Storemyr" />
		<tag k="natural" v="wetland" />
		<tag k="ssr:stedsnr" v="64108" />
	</node>
	<node lat="59.57909444083489" lon="8.59951388988359" id="-53426">
		<tag k="name" v="Tangemyr" />
		<tag k="natural" v="wetland" />
		<tag k="ssr:stedsnr" v="246895" />
	</node>
	<node lat="59.54028333054385" lon="8.695333328940569" id="-53439">
		<tag k="name" v="Bufarsgrøe" />
		<tag k="place" v="locality" />
		<tag k="ssr:stedsnr" v="96562" />
	</node>
	<node lat="59.42555277488252" lon="8.659519448622024" id="-53443">
		<tag k="name" v="Bikkjelidkosi" />
		<tag k="natural" v="wetland" />
		<tag k="ssr:stedsnr" v="97274" />
	</node>
	<node lat="59.38237777598489" lon="8.793088884774859" id="-53453">
		<tag k="name" v="Djupekjerr" />
		<tag k="natural" v="wetland" />
		<tag k="ssr:stedsnr" v="97915" />
	</node>
	<node lat="59.583544443160264" lon="8.476591663228334" id="-53456">
		<tag k="name" v="Mjølteskor" />
		<tag k="place" v="locality" />
		<tag k="ssr:stedsnr" v="98062" />
	</node>
	<node lat="59.58131110988482" lon="8.487416665045409" id="-53457">
		<tag k="name" v="Bråten" />
		<tag k="place" v="locality" />
		<tag k="ssr:stedsnr" v="98069" />
	</node>
	<node lat="59.69710277635643" lon="8.447994447688814" id="-53461">
		<tag k="name" v="Stavsmyrane" />
		<tag k="natural" v="wetland" />
		<tag k="ssr:stedsnr" v="98259" />
	</node>
	<node lat="59.687633334939996" lon="8.44274166681078" id="-53462">
		<tag k="name" v="Rokkeroet" />
		<tag k="natural" v="wetland" />
		<tag k="ssr:stedsnr" v="98260" />
	</node>
	<node lat="59.694286107634895" lon="8.33492777495233" id="-53472">
		<tag k="name" v="Folaskeiet" />
		<tag k="natural" v="wetland" />
		<tag k="ssr:stedsnr" v="99727" />
	</node>
	<node lat="59.41130278055714" lon="8.817911117062838" id="-53528">
		<tag k="name" v="Høymyr" />
		<tag k="natural" v="wetland" />
		<tag k="ssr:stedsnr" v="158915" />
	</node>
	<node lat="59.68014166295633" lon="8.272361119453489" id="-53538">
		<tag k="name" v="Finnsletta" />
		<tag k="natural" v="wetland" />
		<tag k="ssr:stedsnr" v="163320" />
	</node>
	<node lat="59.5965083335113" lon="8.577002775765422" id="-53549">
		<tag k="name" v="Mølledammen" />
		<tag k="natural" v="wetland" />
		<tag k="ssr:stedsnr" v="165058" />
	</node>
	<node lat="59.422454992602546" lon="8.631891629081275" id="-53564">
		<tag k="historic" v="shieling" />
		<tag k="name" v="Tjørnstaul" />
		<tag k="place" v="locality" />
		<tag k="ssr:stedsnr" v="184899" />
	</node>
	<node lat="59.65431389087487" lon="8.407586112531616" id="-53592">
		<tag k="name" v="Løkjesmyran" />
		<tag k="natural" v="wetland" />
		<tag k="ssr:stedsnr" v="218483" />
	</node>
	<node lat="59.38082222596575" lon="8.833150006306147" id="-53612">
		<tag k="name" v="Nerishol" />
		<tag k="natural" v="wetland" />
		<tag k="ssr:stedsnr" v="219277" />
	</node>
	<node lat="59.40618055350718" lon="8.785977770388333" id="-53617">
		<tag k="name" v="Langemyr" />
		<tag k="natural" v="wetland" />
		<tag k="ssr:stedsnr" v="219923" />
	</node>
	<node lat="59.412833336397476" lon="8.757913893684503" id="-53618">
		<tag k="name" v="Veslestaulmarki" />
		<tag k="place" v="locality" />
		<tag k="ssr:stedsnr" v="219987" />
	</node>
	<node lat="59.673844442073104" lon="8.333680561571015" id="-53632">
		<tag k="name" v="Fjøllstaulmyran" />
		<tag k="natural" v="wetland" />
		<tag k="ssr:stedsnr" v="220586" />
	</node>
	<node lat="59.54434722398397" lon="8.374588883229833" id="-53638">
		<tag k="name" v="Bekkjekrokan" />
		<tag k="natural" v="wetland" />
		<tag k="ssr:stedsnr" v="224214" />
	</node>
	<node lat="59.375647224918886" lon="8.828366670807036" id="-53681">
		<tag k="name" v="Kriklefurumyra" />
		<tag k="natural" v="wetland" />
		<tag k="ssr:stedsnr" v="459222" />
	</node>
	<node lat="59.46380832952979" lon="8.749349996996987" id="-53691">
		<tag k="historic" v="shieling" />
		<tag k="name" v="Spirkosi" />
		<tag k="place" v="locality" />
		<tag k="ssr:stedsnr" v="279112" />
	</node>
	<node lat="59.44366666813637" lon="8.760947228899331" id="-53693">
		<tag k="name" v="Sveun" />
		<tag k="place" v="locality" />
		<tag k="ssr:stedsnr" v="279131" />
	</node>
	<node lat="59.58084721927129" lon="8.56971111978809" id="-53703">
		<tag k="name" v="Kringlemyr" />
		<tag k="natural" v="wetland" />
		<tag k="ssr:stedsnr" v="279811" />
	</node>
	<node lat="59.39657222557944" lon="8.81276111048888" id="-53729">
		<tag k="name" v="Gongemyr" />
		<tag k="natural" v="wetland" />
		<tag k="ssr:stedsnr" v="461091" />
	</node>
	<node lat="59.62423333499555" lon="8.314694438341403" id="-53732">
		<tag k="historic" v="shieling" />
		<tag k="name" v="Breidalslåtta" />
		<tag k="place" v="locality" />
		<tag k="ssr:stedsnr" v="285212" />
	</node>
	<node lat="59.472280555589045" lon="8.778038887900657" id="-53735">
		<tag k="name" v="Storsteingrø" />
		<tag k="place" v="locality" />
		<tag k="ssr:stedsnr" v="461141" />
	</node>
	<node lat="59.42442500111762" lon="8.756930548738373" id="-53738">
		<tag k="name" v="Neshegni" />
		<tag k="place" v="locality" />
		<tag k="ssr:stedsnr" v="461154" />
	</node>
	<node lat="59.58566388536001" lon="8.374994437081927" id="-53739">
		<tag k="landuse" v="meadow" />
		<tag k="name" v="Moselet" />
		<tag k="ssr:stedsnr" v="285911" />
	</node>
	<node lat="59.380480551233866" lon="8.706822219202106" id="-53744">
		<tag k="name" v="Bugrasmyra" />
		<tag k="natural" v="wetland" />
		<tag k="ssr:stedsnr" v="461330" />
	</node>
	<node lat="59.53523889257529" lon="8.57480554916031" id="-53756">
		<tag k="historic" v="shieling" />
		<tag k="name" v="Fjøllstaul" />
		<tag k="place" v="locality" />
		<tag k="ssr:stedsnr" v="461895" />
	</node>
	<node lat="59.63864444468937" lon="8.390275003551084" id="-53757">
		<tag k="landuse" v="meadow" />
		<tag k="name" v="Bakskjort" />
		<tag k="ssr:stedsnr" v="461980" />
	</node>
	<node lat="59.60620277967909" lon="8.372225004909614" id="-53799">
		<tag k="historic" v="shieling" />
		<tag k="name" v="Pittan" />
		<tag k="place" v="locality" />
		<tag k="ssr:stedsnr" v="467394" />
	</node>
	<node lat="59.58620277688113" lon="8.317591671029627" id="-53800">
		<tag k="name" v="Spondokk-kroi" />
		<tag k="natural" v="wetland" />
		<tag k="ssr:stedsnr" v="467468" />
	</node>
	<node lat="59.614108329908014" lon="8.314219436579933" id="-53803">
		<tag k="name" v="Stordal" />
		<tag k="natural" v="wetland" />
		<tag k="ssr:stedsnr" v="467448" />
	</node>
	<node lat="59.453538890805355" lon="8.874180564002435" id="-53813">
		<tag k="name" v="Kaldalsslåtta" />
		<tag k="natural" v="wetland" />
		<tag k="ssr:stedsnr" v="337146" />
	</node>
	<node lat="59.46705555795421" lon="8.831563889361094" id="-53814">
		<tag k="name" v="Langgrømyrane" />
		<tag k="natural" v="wetland" />
		<tag k="ssr:stedsnr" v="338147" />
	</node>
	<node lat="59.462841669502616" lon="8.735372214218044" id="-53816">
		<tag k="name" v="Storemyr" />
		<tag k="natural" v="wetland" />
		<tag k="ssr:stedsnr" v="339127" />
	</node>
	<node lat="59.51250833119961" lon="8.744924992906348" id="-53819">
		<tag k="name" v="Røysdalane" />
		<tag k="natural" v="wetland" />
		<tag k="ssr:stedsnr" v="339350" />
	</node>
	<node lat="59.5601694476199" lon="8.422388895195187" id="-53836">
		<tag k="name" v="Storemyr" />
		<tag k="natural" v="wetland" />
		<tag k="ssr:stedsnr" v="340107" />
	</node>
	<node lat="59.57099444815096" lon="8.425055552790049" id="-53837">
		<tag k="name" v="Sjakamyr" />
		<tag k="natural" v="wetland" />
		<tag k="ssr:stedsnr" v="340110" />
	</node>
	<node lat="59.54761666822333" lon="8.471422226425485" id="-53847">
		<tag k="name" v="Finneroi" />
		<tag k="natural" v="wetland" />
		<tag k="ssr:stedsnr" v="341107" />
	</node>
	<node lat="59.69441110957563" lon="8.444386102919564" id="-53852">
		<tag k="name" v="Stav" />
		<tag k="natural" v="wetland" />
		<tag k="ssr:stedsnr" v="341315" />
	</node>
	<node lat="59.58757500330901" lon="8.358497229194231" id="-53853">
		<tag k="name" v="Breikvæv" />
		<tag k="natural" v="wetland" />
		<tag k="ssr:stedsnr" v="341346" />
	</node>
	<node lat="59.5430500029732" lon="8.451136119123651" id="-53856">
		<tag k="name" v="Kloppedalsmyri" />
		<tag k="natural" v="wetland" />
		<tag k="ssr:stedsnr" v="342102" />
	</node>
	<node lat="59.60008333641674" lon="8.345558340132827" id="-53870">
		<tag k="historic" v="shieling" />
		<tag k="name" v="Timsto" />
		<tag k="place" v="locality" />
		<tag k="ssr:stedsnr" v="346404" />
	</node>
	<node lat="59.44261111452316" lon="8.619663893404006" id="-53905">
		<tag k="name" v="Bleikemyr" />
		<tag k="natural" v="wetland" />
		<tag k="ssr:stedsnr" v="399337" />
	</node>
	<node lat="59.38265000027966" lon="8.831308328775325" id="-53907">
		<tag k="name" v="Nerisholmyr" />
		<tag k="natural" v="wetland" />
		<tag k="ssr:stedsnr" v="400089" />
	</node>
	<node lat="59.4412694470372" lon="8.805811116004133" id="-53910">
		<tag k="name" v="Putilmyr" />
		<tag k="natural" v="wetland" />
		<tag k="ssr:stedsnr" v="400231" />
	</node>
	<node lat="59.458733336845874" lon="8.7341666586258" id="-53911">
		<tag k="landuse" v="meadow" />
		<tag k="name" v="Slåttemoen" />
		<tag k="ssr:stedsnr" v="400110" />
	</node>
	<node lat="59.46284444132632" lon="8.747666668981404" id="-53912">
		<tag k="historic" v="shieling" />
		<tag k="name" v="Kvennhuskosi" />
		<tag k="place" v="locality" />
		<tag k="ssr:stedsnr" v="400112" />
	</node>
	<node lat="59.377708331944724" lon="8.853391658986627" id="-53922">
		<tag k="name" v="Fetjarstaulmyra" />
		<tag k="natural" v="wetland" />
		<tag k="ssr:stedsnr" v="401190" />
	</node>
	<node lat="59.40940278036981" lon="8.79448611580377" id="-53927">
		<tag k="name" v="Dammyra" />
		<tag k="natural" v="wetland" />
		<tag k="ssr:stedsnr" v="401885" />
	</node>
	<node lat="59.64331110847152" lon="8.302808330536282" id="-53936">
		<tag k="name" v="Tuvetangen" />
		<tag k="natural" v="wetland" />
		<tag k="ssr:stedsnr" v="402399" />
	</node>
	<node lat="59.648805553159384" lon="8.30571944393578" id="-53937">
		<tag k="name" v="Møåsfjellmarki" />
		<tag k="natural" v="wetland" />
		<tag k="ssr:stedsnr" v="402291" />
	</node>
	<node lat="59.37247778034143" lon="8.795405548987759" id="-53958">
		<tag k="name" v="Kvigemyr" />
		<tag k="natural" v="wetland" />
		<tag k="ssr:stedsnr" v="487821" />
	</node>
	<node lat="59.73274722184023" lon="8.337069448986732" id="-53969">
		<tag k="name" v="Storevier" />
		<tag k="natural" v="wetland" />
		<tag k="ssr:stedsnr" v="488179" />
	</node>
	<node lat="59.5393249968409" lon="8.762866670647396" id="-53996">
		<tag k="name" v="Hedlimyran" />
		<tag k="natural" v="wetland" />
		<tag k="ssr:stedsnr" v="489982" />
	</node>
	<node lat="59.521376630871515" lon="8.739020938827874" id="-54037">
		<tag k="historic" v="shieling" />
		<tag k="name" v="Årstaul" />
		<tag k="place" v="locality" />
		<tag k="ssr:stedsnr" v="671993" />
	</node>
	<node lat="59.44145555662217" lon="8.833961110645028" id="-54045">
		<tag k="name" v="Skarvekås" />
		<tag k="place" v="locality" />
		<tag k="ssr:stedsnr" v="461218" />
	</node>
	<node lat="59.42461388507454" lon="8.759416667671273" id="-54046">
		<tag k="name" v="Kvigarden" />
		<tag k="place" v="locality" />
		<tag k="ssr:stedsnr" v="461166" />
	</node>
	<node lat="59.529900001856795" lon="8.693808326478056" id="-54050">
		<tag k="name" v="Bassegrøe" />
		<tag k="place" v="locality" />
		<tag k="ssr:stedsnr" v="461542" />
	</node>
	<node lat="59.40762777599593" lon="8.788388884103274" id="-54069">
		<tag k="name" v="Bronamyr" />
		<tag k="natural" v="wetland" />
		<tag k="ssr:stedsnr" v="462916" />
	</node>
	<node lat="59.5963055548628" lon="8.561561104653265" id="-54079">
		<tag k="name" v="Orremyre" />
		<tag k="natural" v="wetland" />
		<tag k="ssr:stedsnr" v="467067" />
	</node>
	<node lat="59.608325004268124" lon="8.346416664066778" id="-54084">
		<tag k="name" v="Sandslian" />
		<tag k="place" v="locality" />
		<tag k="ssr:stedsnr" v="467376" />
	</node>
	<node lat="59.58063055809452" lon="8.614616670144631" id="-54118">
		<tag k="name" v="Hyttemyran" />
		<tag k="natural" v="wetland" />
		<tag k="ssr:stedsnr" v="488894" />
	</node>
	<node lat="59.46462778146487" lon="8.767191663475902" id="-54121">
		<tag k="name" v="Nystaulmyrane" />
		<tag k="natural" v="wetland" />
		<tag k="ssr:stedsnr" v="520102" />
	</node>
	<node lat="59.45974166403826" lon="8.762605551597971" id="-54131">
		<tag k="name" v="Byglemyri" />
		<tag k="natural" v="wetland" />
		<tag k="ssr:stedsnr" v="522115" />
	</node>
	<node lat="59.43339167047667" lon="8.68307222843416" id="-54133">
		<tag k="name" v="Øvre Nystaulmyr" />
		<tag k="natural" v="wetland" />
		<tag k="ssr:stedsnr" v="522621" />
	</node>
	<node lat="59.55662777397402" lon="8.434499996080271" id="-54151">
		<tag k="name" v="Venelidmyran" />
		<tag k="natural" v="wetland" />
		<tag k="ssr:stedsnr" v="524074" />
	</node>
	<node lat="59.461738885983216" lon="8.760438887845853" id="-54199">
		<tag k="name" v="Trogamyr" />
		<tag k="natural" v="wetland" />
		<tag k="ssr:stedsnr" v="581140" />
	</node>
	<node lat="59.69970277843708" lon="8.425391669117662" id="-54215">
		<tag k="name" v="Kniperoe" />
		<tag k="natural" v="wetland" />
		<tag k="ssr:stedsnr" v="582947" />
	</node>
	<node lat="59.5765749986866" lon="8.470611108681798" id="-54216">
		<tag k="name" v="Bekkhussatan" />
		<tag k="place" v="locality" />
		<tag k="ssr:stedsnr" v="583050" />
	</node>
	<node lat="59.58239721802797" lon="8.259316666380203" id="-54237">
		<tag k="name" v="Birkebrekk" />
		<tag k="natural" v="wetland" />
		<tag k="ssr:stedsnr" v="589326" />
	</node>
	<node lat="59.47005277663507" lon="8.547719438561675" id="-54238">
		<tag k="name" v="Pyklimot" />
		<tag k="natural" v="wetland" />
		<tag k="ssr:stedsnr" v="608006" />
	</node>
	<node lat="59.46809166578681" lon="8.814202782809252" id="-54281">
		<tag k="name" v="Vebransmyrane" />
		<tag k="natural" v="wetland" />
		<tag k="ssr:stedsnr" v="703269" />
	</node>
	<node lat="59.650127773631596" lon="8.43177222046787" id="-54284">
		<tag k="name" v="Haugesetmyran" />
		<tag k="natural" v="wetland" />
		<tag k="ssr:stedsnr" v="703543" />
	</node>
	<node lat="59.43661111233976" lon="8.825438883161375" id="-54287">
		<tag k="name" v="Romnesmyra" />
		<tag k="natural" v="wetland" />
		<tag k="ssr:stedsnr" v="704002" />
	</node>
	<node lat="59.59818333353294" lon="8.554399991283873" id="-54289">
		<tag k="name" v="Steinstaulmyri" />
		<tag k="natural" v="wetland" />
		<tag k="ssr:stedsnr" v="704020" />
	</node>
	<node lat="59.465213884673275" lon="8.821188880826359" id="-54290">
		<tag k="name" v="Stakalidmyrane" />
		<tag k="natural" v="wetland" />
		<tag k="ssr:stedsnr" v="704038" />
	</node>
	<node lat="59.419122224153696" lon="8.656211105267527" id="-54292">
		<tag k="name" v="Raumyr" />
		<tag k="natural" v="wetland" />
		<tag k="ssr:stedsnr" v="704049" />
	</node>
	<node lat="59.52642500391239" lon="8.686144453183552" id="-54301">
		<tag k="name" v="Pipemann" />
		<tag k="natural" v="wetland" />
		<tag k="ssr:stedsnr" v="704514" />
	</node>
	<node lat="59.5046249990023" lon="8.664286105256666" id="-54302">
		<tag k="name" v="Olsrud" />
		<tag k="place" v="locality" />
		<tag k="ssr:stedsnr" v="704628" />
	</node>
	<node lat="59.44102500296826" lon="8.771933341617654" id="-54307">
		<tag k="name" v="Klåtekosi" />
		<tag k="place" v="locality" />
		<tag k="ssr:stedsnr" v="704801" />
	</node>
	<node lat="59.70693333380123" lon="8.437869439345373" id="-54310">
		<tag k="name" v="Svartufs" />
		<tag k="natural" v="wetland" />
		<tag k="ssr:stedsnr" v="704957" />
	</node>
	<node lat="59.60377499735126" lon="8.538169436640809" id="-54345">
		<tag k="name" v="Kringlemyr" />
		<tag k="natural" v="wetland" />
		<tag k="ssr:stedsnr" v="643029" />
	</node>
	<node lat="59.44529166563446" lon="8.805544450253915" id="-54348">
		<tag k="name" v="Merramyra" />
		<tag k="natural" v="wetland" />
		<tag k="ssr:stedsnr" v="643073" />
	</node>
	<node lat="59.38403333339905" lon="8.800444438338165" id="-54355">
		<tag k="name" v="Rispemyr" />
		<tag k="natural" v="wetland" />
		<tag k="ssr:stedsnr" v="643925" />
	</node>
	<node lat="59.68197222441798" lon="8.33940277744468" id="-54362">
		<tag k="name" v="Storemyr" />
		<tag k="natural" v="wetland" />
		<tag k="ssr:stedsnr" v="644729" />
	</node>
	<node lat="59.68508333231153" lon="8.276375007723987" id="-54369">
		<tag k="historic" v="shieling" />
		<tag k="name" v="Flotteselet" />
		<tag k="place" v="locality" />
		<tag k="ssr:stedsnr" v="706713" />
	</node>
	<node lat="59.69834166257459" lon="8.288797231153799" id="-54370">
		<tag k="name" v="Flotti" />
		<tag k="natural" v="wetland" />
		<tag k="ssr:stedsnr" v="706729" />
	</node>
	<node lat="59.59944166351563" lon="8.312127776897858" id="-54375">
		<tag k="name" v="Varmekro" />
		<tag k="natural" v="wetland" />
		<tag k="ssr:stedsnr" v="648415" />
	</node>
	<node lat="59.63346666783574" lon="8.280994451820757" id="-54376">
		<tag k="name" v="Løkjes-myran" />
		<tag k="natural" v="wetland" />
		<tag k="ssr:stedsnr" v="648191" />
	</node>
	<node lat="59.65024722641155" lon="8.35656111536649" id="-54379">
		<tag k="landuse" v="quarry" />
		<tag k="name" v="Skoritippen" />
		<tag k="ssr:stedsnr" v="649104" />
	</node>
	<node lat="59.64835277827144" lon="8.330016658238533" id="-54382">
		<tag k="name" v="Gullreinan" />
		<tag k="natural" v="wetland" />
		<tag k="ssr:stedsnr" v="649121" />
	</node>
	<node lat="59.63380277707541" lon="8.300883332744629" id="-54388">
		<tag k="name" v="Bekkestødalen" />
		<tag k="natural" v="wetland" />
		<tag k="ssr:stedsnr" v="709186" />
	</node>
	<node lat="59.58693332999816" lon="8.280169439345132" id="-54389">
		<tag k="historic" v="shieling" />
		<tag k="name" v="Surtekjella" />
		<tag k="place" v="locality" />
		<tag k="ssr:stedsnr" v="709399" />
	</node>
	<node lat="59.40186111245647" lon="8.780875004627529" id="-54425">
		<tag k="name" v="Viermyr" />
		<tag k="natural" v="wetland" />
		<tag k="ssr:stedsnr" v="670987" />
	</node>
	<node lat="59.44831666617853" lon="8.741694441172875" id="-54443">
		<tag k="landuse" v="meadow" />
		<tag k="name" v="Fønnestå" />
		<tag k="ssr:stedsnr" v="703427" />
	</node>
	<node lat="59.40841389300277" lon="8.685230564119314" id="-54446">
		<tag k="name" v="Surtemyr" />
		<tag k="natural" v="wetland" />
		<tag k="ssr:stedsnr" v="703503" />
	</node>
	<node lat="59.447755558764214" lon="8.831594443541325" id="-54453">
		<tag k="historic" v="shieling" />
		<tag k="name" v="Gunnarskås" />
		<tag k="place" v="locality" />
		<tag k="ssr:stedsnr" v="704064" />
	</node>
	<node lat="59.40894166373921" lon="8.647202769777165" id="-54503">
		<tag k="name" v="Elgsmyra" />
		<tag k="natural" v="wetland" />
		<tag k="ssr:stedsnr" v="764018" />
	</node>
	<node lat="59.45480277704256" lon="8.730441672187926" id="-54506">
		<tag k="name" v="Nordsanden" />
		<tag k="natural" v="beach" />
		<tag k="ssr:stedsnr" v="764392" />
		<tag k="surface" v="sand" />
	</node>
	<node lat="59.43205833267908" lon="8.68549167050015" id="-54512">
		<tag k="name" v="Nystaulmyr" />
		<tag k="natural" v="wetland" />
		<tag k="ssr:stedsnr" v="764614" />
	</node>
	<node lat="59.43375555196842" lon="8.672908330578817" id="-54513">
		<tag k="name" v="Krossmyran" />
		<tag k="natural" v="wetland" />
		<tag k="ssr:stedsnr" v="764617" />
	</node>
	<node lat="59.54781666940304" lon="8.546724995355666" id="-54519">
		<tag k="name" v="Juvsmyri" />
		<tag k="natural" v="wetland" />
		<tag k="ssr:stedsnr" v="764898" />
	</node>
	<node lat="59.580916664750234" lon="8.317744438894929" id="-54550">
		<tag k="historic" v="shieling" />
		<tag k="name" v="Gjermonsbu" />
		<tag k="place" v="locality" />
		<tag k="ssr:stedsnr" v="770359" />
	</node>
	<node lat="59.60212777781558" lon="8.558049997773498" id="-54553">
		<tag k="name" v="Tjønnflymyre" />
		<tag k="natural" v="wetland" />
		<tag k="ssr:stedsnr" v="771054" />
	</node>
	<node lat="59.44062777527126" lon="8.840049995477996" id="-54557">
		<tag k="name" v="Gravsvoll nordre" />
		<tag k="natural" v="wetland" />
		<tag k="old_name" v="Gravsvoll nodre" />
		<tag k="ssr:stedsnr" v="771964" />
	</node>
	<node lat="59.436602607118324" lon="8.693760925263843" id="-54564">
		<tag k="historic" v="shieling" />
		<tag k="name" v="Dalstaul" />
		<tag k="place" v="locality" />
		<tag k="ssr:stedsnr" v="791901" />
	</node>
	<node lat="59.54839166855579" lon="8.555025004490895" id="-54624">
		<tag k="name" v="Jegerkvamsmyri" />
		<tag k="natural" v="wetland" />
		<tag k="ssr:stedsnr" v="913963" />
	</node>
	<node lat="59.52707777437372" lon="8.68731389195072" id="-54633">
		<tag k="name" v="Halvfarlimyri" />
		<tag k="natural" v="wetland" />
		<tag k="ssr:stedsnr" v="914987" />
	</node>
	<node lat="59.57379444051183" lon="8.596941661486866" id="-54645">
		<tag k="name" v="Stigamyr" />
		<tag k="natural" v="wetland" />
		<tag k="ssr:stedsnr" v="825803" />
	</node>
	<node lat="59.56827777886535" lon="8.39989444911353" id="-54657">
		<tag k="name" v="Salomonkjosin" />
		<tag k="place" v="locality" />
		<tag k="ssr:stedsnr" v="826103" />
	</node>
	<node lat="59.40758055771899" lon="8.794322223296472" id="-54661">
		<tag k="name" v="Treskomyr" />
		<tag k="natural" v="wetland" />
		<tag k="ssr:stedsnr" v="826918" />
	</node>
	<node lat="59.388905552655324" lon="8.801683330039882" id="-54662">
		<tag k="name" v="Postmyr" />
		<tag k="natural" v="wetland" />
		<tag k="ssr:stedsnr" v="826925" />
	</node>
	<node lat="59.39131666603169" lon="8.80523332983315" id="-54663">
		<tag k="name" v="Krossmyr" />
		<tag k="natural" v="wetland" />
		<tag k="ssr:stedsnr" v="826927" />
	</node>
	<node lat="59.401686109039055" lon="8.781733332090926" id="-54664">
		<tag k="name" v="Viermyr" />
		<tag k="natural" v="wetland" />
		<tag k="ssr:stedsnr" v="826932" />
	</node>
	<node lat="59.71210277855354" lon="8.300572222395369" id="-54672">
		<tag k="name" v="Hukenstein" />
		<tag k="natural" v="stone" />
		<tag k="ssr:stedsnr" v="827712" />
	</node>
	<node lat="59.66848610806662" lon="8.257622218176623" id="-54683">
		<tag k="name" v="Dorksaten" />
		<tag k="natural" v="wetland" />
		<tag k="ssr:stedsnr" v="832135" />
	</node>
	<node lat="59.47236587440921" lon="8.548695506576632" id="-54688">
		<tag k="alt_name" v="Tallevstaul" />
		<tag k="historic" v="shieling" />
		<tag k="name" v="Talleivstaulen" />
		<tag k="place" v="locality" />
		<tag k="ssr:stedsnr" v="852003" />
	</node>
	<node lat="59.45590278090695" lon="8.776227773301725" id="-54717">
		<tag k="name" v="Stigmyrane" />
		<tag k="natural" v="wetland" />
		<tag k="ssr:stedsnr" v="885117" />
	</node>
	<node lat="59.45064999955138" lon="8.770772221704574" id="-54724">
		<tag k="name" v="Toresmyr" />
		<tag k="natural" v="wetland" />
		<tag k="ssr:stedsnr" v="886102" />
	</node>
	<node lat="59.43443055313009" lon="8.658638884393529" id="-54726">
		<tag k="landuse" v="quarry" />
		<tag k="name" v="Sølvgruva" />
		<tag k="ssr:stedsnr" v="886259" />
	</node>
	<node lat="59.67022500010059" lon="8.255413897691085" id="-54751">
		<tag k="name" v="Mjøltesaten" />
		<tag k="place" v="locality" />
		<tag k="ssr:stedsnr" v="892131" />
	</node>
	<node lat="59.44849999587525" lon="8.894030560007332" id="-54754">
		<tag k="name" v="Berganmyrane" />
		<tag k="natural" v="wetland" />
		<tag k="ssr:stedsnr" v="892007" />
	</node>
	<node lat="59.39306388455646" lon="8.783288886659381" id="-54769">
		<tag k="alt_name" v="Raumyrane" />
		<tag k="name" v="Raudmyran" />
		<tag k="natural" v="wetland" />
		<tag k="ssr:stedsnr" v="912993" />
	</node>
	<node lat="59.42324721938419" lon="8.691316672511276" id="-54804">
		<tag k="historic" v="shieling" />
		<tag k="name" v="Stigskås" />
		<tag k="place" v="locality" />
		<tag k="ssr:stedsnr" v="947610" />
	</node>
	<node lat="59.626086113006735" lon="8.459369449740695" id="-54814">
		<tag k="name" v="Løkjesmyran" />
		<tag k="natural" v="wetland" />
		<tag k="ssr:stedsnr" v="948834" />
	</node>
	<node lat="59.59250555385583" lon="8.402558324932569" id="-54816">
		<tag k="name" v="Langlimkro" />
		<tag k="natural" v="wetland" />
		<tag k="ssr:stedsnr" v="949010" />
	</node>
	<node lat="59.74401371962576" lon="8.426460124113799" id="-54834">
		<tag k="historic" v="shieling" />
		<tag k="name" v="Robekk" />
		<tag k="place" v="locality" />
		<tag k="ssr:stedsnr" v="983675" />
	</node>
	<node lat="59.464719446227264" lon="8.75391111152469" id="-54900">
		<tag k="name" v="Innleggen" />
		<tag k="place" v="locality" />
		<tag k="ssr:stedsnr" v="36098" />
	</node>
	<node lat="59.42581666969969" lon="8.648511115132766" id="-54903">
		<tag k="name" v="Storemyr" />
		<tag k="natural" v="wetland" />
		<tag k="ssr:stedsnr" v="36229" />
	</node>
	<node lat="59.74564722593961" lon="8.399458334979286" id="-54907">
		<tag k="name" v="Nord Robekk" />
		<tag k="natural" v="wetland" />
		<tag k="ssr:stedsnr" v="36590" />
	</node>
	<node lat="59.54741111276942" lon="8.555511112487205" id="-54916">
		<tag k="name" v="Jimgvamlimyri" />
		<tag k="natural" v="wetland" />
		<tag k="ssr:stedsnr" v="36887" />
	</node>
	<node lat="59.611575002262214" lon="8.512713885641404" id="-54920">
		<tag k="name" v="Flatin" />
		<tag k="natural" v="wetland" />
		<tag k="ssr:stedsnr" v="37222" />
	</node>
	<node lat="59.616430551533306" lon="8.515247228709233" id="-54921">
		<tag k="name" v="Bakkhus" />
		<tag k="place" v="locality" />
		<tag k="ssr:stedsnr" v="37229" />
	</node>
	<node lat="59.62162221984893" lon="8.519624993189558" id="-54924">
		<tag k="name" v="Grønar-roe" />
		<tag k="natural" v="wetland" />
		<tag k="ssr:stedsnr" v="37500" />
	</node>
	<node lat="59.48470833011644" lon="8.65018056146397" id="-54929">
		<tag k="name" v="Bjørgesanden" />
		<tag k="natural" v="beach" />
		<tag k="ssr:stedsnr" v="37945" />
		<tag k="surface" v="sand" />
	</node>
	<node lat="59.63281667054713" lon="8.287449991771181" id="-54942">
		<tag k="historic" v="shieling" />
		<tag k="name" v="Brendehytta" />
		<tag k="place" v="locality" />
		<tag k="ssr:stedsnr" v="42168" />
	</node>
	<node lat="59.647977777727064" lon="8.339219444618797" id="-54959">
		<tag k="name" v="Kovan" />
		<tag k="natural" v="wetland" />
		<tag k="ssr:stedsnr" v="43108" />
	</node>
	<node lat="59.416180556615075" lon="8.67970000541457" id="-55034">
		<tag k="name" v="Storemyra" />
		<tag k="natural" v="wetland" />
		<tag k="ssr:stedsnr" v="97388" />
	</node>
	<node lat="59.5905416652811" lon="8.555283340945817" id="-55044">
		<tag k="landuse" v="quarry" />
		<tag k="name" v="Blika gruver" />
		<tag k="ssr:stedsnr" v="97791" />
	</node>
	<node lat="59.550325002955994" lon="8.551016668591426" id="-55046">
		<tag k="name" v="Brurmyri" />
		<tag k="natural" v="wetland" />
		<tag k="ssr:stedsnr" v="97878" />
	</node>
	<node lat="59.653186114796824" lon="8.469749996239436" id="-55048">
		<tag k="landuse" v="meadow" />
		<tag k="name" v="Langeli" />
		<tag k="ssr:stedsnr" v="97994" />
	</node>
	<node lat="59.69713611491396" lon="8.423788887600294" id="-55049">
		<tag k="name" v="Salemann" />
		<tag k="natural" v="stone" />
		<tag k="ssr:stedsnr" v="97948" />
	</node>
	<node lat="59.58470277379468" lon="8.46351389321352" id="-55052">
		<tag k="name" v="Heppenåker" />
		<tag k="place" v="locality" />
		<tag k="ssr:stedsnr" v="98057" />
	</node>
	<node lat="59.41351944809316" lon="8.780691659421374" id="-55063">
		<tag k="name" v="Skotmyrane" />
		<tag k="natural" v="wetland" />
		<tag k="ssr:stedsnr" v="98994" />
	</node>
	<node lat="59.41759721887237" lon="8.752116670700998" id="-55064">
		<tag k="name" v="Tægjemyri" />
		<tag k="natural" v="wetland" />
		<tag k="ssr:stedsnr" v="98995" />
	</node>
	<node lat="59.66214166996299" lon="8.377466674691677" id="-55070">
		<tag k="name" v="Tvijyva" />
		<tag k="natural" v="wetland" />
		<tag k="ssr:stedsnr" v="99525" />
	</node>
	<node lat="59.69251666369572" lon="8.289949996667797" id="-55076">
		<tag k="historic" v="shieling" />
		<tag k="name" v="Flotteselet" />
		<tag k="place" v="locality" />
		<tag k="ssr:stedsnr" v="99792" />
	</node>
	<node lat="59.6375750019597" lon="8.33547777385433" id="-55083">
		<tag k="name" v="Kringlemyr" />
		<tag k="natural" v="wetland" />
		<tag k="ssr:stedsnr" v="103238" />
	</node>
	<node lat="59.6313777737776" lon="8.29815833904065" id="-55091">
		<tag k="historic" v="shieling" />
		<tag k="name" v="Brendegrån" />
		<tag k="place" v="locality" />
		<tag k="ssr:stedsnr" v="103370" />
	</node>
	<node lat="59.58916111542032" lon="8.350000007631815" id="-55095">
		<tag k="name" v="Trengsle" />
		<tag k="natural" v="wetland" />
		<tag k="ssr:stedsnr" v="104049" />
	</node>
	<node lat="59.69422222521928" lon="8.287183330577612" id="-55117">
		<tag k="name" v="Larssonflotti" />
		<tag k="place" v="locality" />
		<tag k="ssr:stedsnr" v="124142" />
	</node>
	<node lat="59.45384444728863" lon="8.885788883388711" id="-55140">
		<tag k="name" v="Gullstein" />
		<tag k="natural" v="stone" />
		<tag k="ssr:stedsnr" v="155143" />
	</node>
	<node lat="59.36427222043221" lon="8.831472230240195" id="-55143">
		<tag k="name" v="Nystaulmyra" />
		<tag k="natural" v="wetland" />
		<tag k="ssr:stedsnr" v="155244" />
	</node>
	<node lat="59.45834722352373" lon="8.74698332663005" id="-55144">
		<tag k="historic" v="shieling" />
		<tag k="name" v="Kleivstaul" />
		<tag k="place" v="locality" />
		<tag k="ssr:stedsnr" v="156087" />
	</node>
	<node lat="59.50074722317975" lon="8.544880549342333" id="-55146">
		<tag k="name" v="Bringsåsstykket" />
		<tag k="place" v="locality" />
		<tag k="ssr:stedsnr" v="157027" />
	</node>
	<node lat="59.43002222089712" lon="8.655186117464835" id="-55147">
		<tag k="name" v="Sagaslåtta" />
		<tag k="natural" v="wetland" />
		<tag k="ssr:stedsnr" v="157230" />
	</node>
	<node lat="59.459394440053316" lon="8.606358336725021" id="-55150">
		<tag k="historic" v="shieling" />
		<tag k="name" v="Heibø" />
		<tag k="place" v="locality" />
		<tag k="ssr:stedsnr" v="157189" />
	</node>
	<node lat="59.43657500072972" lon="8.67619167101053" id="-55154">
		<tag k="name" v="Triskjær" />
		<tag k="natural" v="wetland" />
		<tag k="ssr:stedsnr" v="157596" />
	</node>
	<node lat="59.70024721942915" lon="8.404061107390799" id="-55157">
		<tag k="name" v="Bekkjekrokan" />
		<tag k="natural" v="wetland" />
		<tag k="ssr:stedsnr" v="157941" />
	</node>
	<node lat="59.393969446003915" lon="8.765452785211522" id="-55166">
		<tag k="name" v="Gregarstein" />
		<tag k="natural" v="stone" />
		<tag k="ssr:stedsnr" v="158069" />
	</node>
	<node lat="59.41923333090392" lon="8.649888884201852" id="-55167">
		<tag k="name" v="Holamyri" />
		<tag k="natural" v="wetland" />
		<tag k="ssr:stedsnr" v="158073" />
	</node>
	<node lat="59.58363610971317" lon="8.606683334851816" id="-55180">
		<tag k="name" v="Tvidjyvmyri" />
		<tag k="natural" v="wetland" />
		<tag k="ssr:stedsnr" v="158815" />
	</node>
	<node lat="59.6156194424227" lon="8.393675007154886" id="-55195">
		<tag k="name" v="Kjellaren" />
		<tag k="natural" v="wetland" />
		<tag k="ssr:stedsnr" v="159902" />
	</node>
	<node lat="59.58440832917396" lon="8.257930550563213" id="-55218">
		<tag k="name" v="Kloppemyrane" />
		<tag k="natural" v="wetland" />
		<tag k="ssr:stedsnr" v="164343" />
	</node>
	<node lat="59.72603888606402" lon="8.295130547237898" id="-55240">
		<tag k="alt_name" v="Mjøltegrøe" />
		<tag k="name" v="Mjøltegrø" />
		<tag k="natural" v="wetland" />
		<tag k="ssr:stedsnr" v="185205" />
	</node>
	<node lat="59.5724277816692" lon="8.648411110518753" id="-55245">
		<tag k="name" v="Flåmyran" />
		<tag k="natural" v="wetland" />
		<tag k="ssr:stedsnr" v="185892" />
	</node>
	<node lat="59.44738611500443" lon="8.843013883871079" id="-55259">
		<tag k="name" v="Olavskås" />
		<tag k="place" v="locality" />
		<tag k="ssr:stedsnr" v="216127" />
	</node>
	<node lat="59.439416670562245" lon="8.697700008107121" id="-55278">
		<tag k="name" v="Hovsmyr" />
		<tag k="natural" v="wetland" />
		<tag k="ssr:stedsnr" v="218643" />
	</node>
	<node lat="59.6947416661783" lon="8.411427786076704" id="-55281">
		<tag k="name" v="Storevier" />
		<tag k="place" v="locality" />
		<tag k="ssr:stedsnr" v="218936" />
	</node>
	<node lat="59.70677221926724" lon="8.39139721446621" id="-55283">
		<tag k="name" v="Tjønnflymyran" />
		<tag k="natural" v="wetland" />
		<tag k="ssr:stedsnr" v="218967" />
	</node>
	<node lat="59.582094440462534" lon="8.486163888536154" id="-55293">
		<tag k="name" v="Molandbro" />
		<tag k="place" v="locality" />
		<tag k="ssr:stedsnr" v="219063" />
	</node>
	<node lat="59.43948889245656" lon="8.75935000856266" id="-55296">
		<tag k="name" v="Brotakåsi" />
		<tag k="place" v="locality" />
		<tag k="ssr:stedsnr" v="219150" />
	</node>
	<node lat="59.4855694473365" lon="8.646252769491898" id="-55302">
		<tag k="name" v="Bjørgeøyan" />
		<tag k="place" v="locality" />
		<tag k="ssr:stedsnr" v="219950" />
	</node>
	<node lat="59.57629444474045" lon="8.606547215028264" id="-55305">
		<tag k="name" v="Gleviken" />
		<tag k="natural" v="wetland" />
		<tag k="ssr:stedsnr" v="219830" />
	</node>
	<node lat="59.66369999638107" lon="8.482655552541276" id="-55318">
		<tag k="name" v="Hovdebrekkstaulane" />
		<tag k="natural" v="wetland" />
		<tag k="ssr:stedsnr" v="220339" />
	</node>
	<node lat="59.61570833158567" lon="8.411072214107241" id="-55322">
		<tag k="name" v="Steintrå" />
		<tag k="place" v="locality" />
		<tag k="ssr:stedsnr" v="220890" />
	</node>
	<node lat="59.60197500328903" lon="8.38262221887766" id="-55328">
		<tag k="name" v="Berrstaul-broti" />
		<tag k="natural" v="wetland" />
		<tag k="ssr:stedsnr" v="224283" />
	</node>
	<node lat="59.61075833244154" lon="8.346183340474953" id="-55334">
		<tag k="name" v="Skriumyr" />
		<tag k="natural" v="wetland" />
		<tag k="ssr:stedsnr" v="224328" />
	</node>
	<node lat="59.584236113041904" lon="8.316144450326673" id="-55336">
		<tag k="historic" v="shieling" />
		<tag k="name" v="Søylesæt" />
		<tag k="place" v="locality" />
		<tag k="ssr:stedsnr" v="224430" />
	</node>
	<node lat="59.470061113691706" lon="8.860411109851926" id="-55345">
		<tag k="name" v="Bollemyri" />
		<tag k="natural" v="wetland" />
		<tag k="ssr:stedsnr" v="277192" />
	</node>
	<node lat="59.533124996131136" lon="8.673055556324167" id="-55349">
		<tag k="name" v="Leikarhaugen" />
		<tag k="place" v="locality" />
		<tag k="ssr:stedsnr" v="278627" />
	</node>
	<node lat="59.451838893310594" lon="8.801922220388724" id="-55350">
		<tag k="name" v="Hurumslåtta" />
		<tag k="natural" v="wetland" />
		<tag k="ssr:stedsnr" v="279042" />
	</node>
	<node lat="59.451811111048805" lon="8.805588880888658" id="-55351">
		<tag k="name" v="Undebergslåtta" />
		<tag k="natural" v="wetland" />
		<tag k="ssr:stedsnr" v="279044" />
	</node>
	<node lat="59.398055557070194" lon="8.809241673183713" id="-55353">
		<tag k="name" v="Bjørkemyr" />
		<tag k="natural" v="wetland" />
		<tag k="ssr:stedsnr" v="279079" />
	</node>
	<node lat="59.42986944431168" lon="8.671852778356937" id="-55365">
		<tag k="name" v="Kjosin" />
		<tag k="natural" v="wetland" />
		<tag k="ssr:stedsnr" v="279644" />
	</node>
	<node lat="59.665211111610525" lon="8.371966674767812" id="-55384">
		<tag k="name" v="Muggufs" />
		<tag k="natural" v="scree" />
		<tag k="ssr:stedsnr" v="281532" />
	</node>
	<node lat="59.61705555717268" lon="8.518933329414711" id="-55388">
		<tag k="name" v="Nordjordet" />
		<tag k="place" v="locality" />
		<tag k="ssr:stedsnr" v="280486" />
	</node>
	<node lat="59.70835833754508" lon="8.314741658814121" id="-55399">
		<tag k="name" v="Varmkro" />
		<tag k="natural" v="wetland" />
		<tag k="ssr:stedsnr" v="281695" />
	</node>
	<node lat="59.6841388903966" lon="8.285858338854988" id="-55400">
		<tag k="historic" v="shieling" />
		<tag k="name" v="Stokkland" />
		<tag k="place" v="locality" />
		<tag k="ssr:stedsnr" v="281770" />
	</node>
	<node lat="59.63285555870208" lon="8.304697218185673" id="-55405">
		<tag k="name" v="Nutestakkstøe" />
		<tag k="natural" v="wetland" />
		<tag k="ssr:stedsnr" v="285196" />
	</node>
	<node lat="59.58177222396945" lon="8.576591659627443" id="-55467">
		<tag k="name" v="Storemyr" />
		<tag k="natural" v="wetland" />
		<tag k="ssr:stedsnr" v="306895" />
	</node>
	<node lat="59.41229722314329" lon="8.64439167167318" id="-55478">
		<tag k="historic" v="shieling" />
		<tag k="name" v="Listaul" />
		<tag k="place" v="locality" />
		<tag k="ssr:stedsnr" v="339042" />
	</node>
	<node lat="59.47256389306666" lon="8.73838334084465" id="-55501">
		<tag k="name" v="Tømmermyri" />
		<tag k="natural" v="wetland" />
		<tag k="ssr:stedsnr" v="340136" />
	</node>
	<node lat="59.37991944306313" lon="8.810036103253973" id="-55509">
		<tag k="name" v="Tømmermyra" />
		<tag k="natural" v="wetland" />
		<tag k="ssr:stedsnr" v="340939" />
	</node>
	<node lat="59.69860278221448" lon="8.27911666238514" id="-55523">
		<tag k="name" v="Åtomyran" />
		<tag k="natural" v="wetland" />
		<tag k="ssr:stedsnr" v="341793" />
	</node>
	<node lat="59.7047305593963" lon="8.330699996618613" id="-55526">
		<tag k="landuse" v="quarry" />
		<tag k="name" v="Minnehaugen" />
		<tag k="ssr:stedsnr" v="341962" />
	</node>
	<node lat="59.6197194458367" lon="8.44590832711778" id="-55530">
		<tag k="name" v="Kambåsmyran" />
		<tag k="natural" v="wetland" />
		<tag k="ssr:stedsnr" v="342708" />
	</node>
	<node lat="59.63474999726071" lon="8.293169446730378" id="-55535">
		<tag k="name" v="Lauvhyttemyran" />
		<tag k="natural" v="wetland" />
		<tag k="ssr:stedsnr" v="345163" />
	</node>
	<node lat="59.44175277772181" lon="8.841227784897287" id="-55546">
		<tag k="landuse" v="meadow" />
		<tag k="name" v="Steinsletti" />
		<tag k="ssr:stedsnr" v="346967" />
	</node>
	<node lat="59.53490833562716" lon="8.543688894807577" id="-55569">
		<tag k="name" v="Buin" />
		<tag k="natural" v="wetland" />
		<tag k="ssr:stedsnr" v="367043" />
	</node>
	<node lat="59.531816663021424" lon="8.452650003576082" id="-55583">
		<tag k="landuse" v="quarry" />
		<tag k="name" v="Gullnes" />
		<tag k="ssr:stedsnr" v="367319" />
	</node>
	<node lat="59.50732777957305" lon="8.528222229454403" id="-55609">
		<tag k="name" v="Rolegheden" />
		<tag k="natural" v="wetland" />
		<tag k="ssr:stedsnr" v="400022" />
	</node>
	<node lat="59.4548722244175" lon="8.824547228543343" id="-55614">
		<tag k="name" v="Gravsvollslåtta" />
		<tag k="natural" v="wetland" />
		<tag k="ssr:stedsnr" v="400063" />
	</node>
	<node lat="59.53299722567436" lon="8.686044448305914" id="-55621">
		<tag k="name" v="Steinroe" />
		<tag k="natural" v="wetland" />
		<tag k="ssr:stedsnr" v="400586" />
	</node>
	<node lat="59.44240278053014" lon="8.818991667440473" id="-55629">
		<tag k="name" v="Kalvehegni" />
		<tag k="place" v="locality" />
		<tag k="ssr:stedsnr" v="401215" />
	</node>
	<node lat="59.71906666762958" lon="8.421733331970326" id="-55636">
		<tag k="name" v="Geitekjørkja" />
		<tag k="natural" v="stone" />
		<tag k="ssr:stedsnr" v="400969" />
	</node>
	<node lat="59.40868611161616" lon="8.78496666729049" id="-55648">
		<tag k="name" v="Listaulmyrane" />
		<tag k="natural" v="wetland" />
		<tag k="ssr:stedsnr" v="401968" />
	</node>
	<node lat="59.63520277689454" lon="8.444447228991336" id="-55656">
		<tag k="name" v="Grinddalmyri" />
		<tag k="natural" v="wetland" />
		<tag k="ssr:stedsnr" v="402803" />
	</node>
	<node lat="59.59875277621537" lon="8.334672221611548" id="-55671">
		<tag k="name" v="Stakkstøe" />
		<tag k="natural" v="wetland" />
		<tag k="ssr:stedsnr" v="406380" />
	</node>
	<node lat="59.43824167055406" lon="8.844794451143173" id="-55681">
		<tag k="name" v="Piparskallen" />
		<tag k="place" v="locality" />
		<tag k="ssr:stedsnr" v="407964" />
	</node>
	<node lat="59.470830551690135" lon="8.643783337293215" id="-55695">
		<tag k="name" v="Stutemyr" />
		<tag k="natural" v="wetland" />
		<tag k="ssr:stedsnr" v="427132" />
	</node>
	<node lat="59.380260792388896" lon="8.852103818087416" id="-55696">
		<tag k="alt_name" v="Fitjastaulen" />
		<tag k="historic" v="shieling" />
		<tag k="loc_name" v="Fetjastul" />
		<tag k="name" v="Fetjarstaul" />
		<tag k="place" v="locality" />
		<tag k="ssr:stedsnr" v="427348" />
	</node>
	<node lat="59.36413055952796" lon="8.820180550042583" id="-55744">
		<tag k="name" v="Vindalsmyra" />
		<tag k="natural" v="wetland" />
		<tag k="ssr:stedsnr" v="520225" />
	</node>
	<node lat="59.44014999857441" lon="8.808283324886634" id="-55771">
		<tag k="name" v="Kjølsvikmyra" />
		<tag k="natural" v="wetland" />
		<tag k="ssr:stedsnr" v="522253" />
	</node>
	<node lat="59.52127499990426" lon="8.712174995397543" id="-55781">
		<tag k="name" v="Klopproe" />
		<tag k="natural" v="wetland" />
		<tag k="ssr:stedsnr" v="522554" />
	</node>
	<node lat="59.40437777755318" lon="8.74084999834726" id="-55783">
		<tag k="name" v="Rundemyr" />
		<tag k="natural" v="wetland" />
		<tag k="ssr:stedsnr" v="522987" />
	</node>
	<node lat="59.41255555616296" lon="8.730824999118516" id="-55787">
		<tag k="name" v="Lauvskjol" />
		<tag k="place" v="locality" />
		<tag k="ssr:stedsnr" v="522945" />
	</node>
	<node lat="59.65603055800489" lon="8.279308325609849" id="-55791">
		<tag k="name" v="Solengroe" />
		<tag k="natural" v="wetland" />
		<tag k="ssr:stedsnr" v="523289" />
	</node>
	<node lat="59.69549999849904" lon="8.295519442647485" id="-55798">
		<tag k="name" v="Høgflotti" />
		<tag k="natural" v="wetland" />
		<tag k="ssr:stedsnr" v="523798" />
	</node>
	<node lat="59.53765555376598" lon="8.43007499451533" id="-55802">
		<tag k="name" v="Launesmyra" />
		<tag k="natural" v="wetland" />
		<tag k="ssr:stedsnr" v="524099" />
	</node>
	<node lat="59.60946111191331" lon="8.333430562126152" id="-55803">
		<tag k="name" v="Stordal" />
		<tag k="place" v="locality" />
		<tag k="ssr:stedsnr" v="527365" />
	</node>
	<node lat="59.5774994234828" lon="8.58811897865129" id="-55878">
		<tag k="alt_name" v="Tjørnstaul" />
		<tag k="historic" v="shieling" />
		<tag k="name" v="Tjønnstaul" />
		<tag k="place" v="locality" />
		<tag k="ssr:stedsnr" v="670902" />
	</node>
	<node lat="59.44646944754759" lon="8.861000007342518" id="-55882">
		<tag k="name" v="Vefallkosi" />
		<tag k="place" v="locality" />
		<tag k="ssr:stedsnr" v="580117" />
	</node>
	<node lat="59.53419444254195" lon="8.752505561833022" id="-55888">
		<tag k="name" v="Løkjin" />
		<tag k="natural" v="wetland" />
		<tag k="ssr:stedsnr" v="582377" />
	</node>
	<node lat="59.65784166558476" lon="8.40577778093364" id="-55889">
		<tag k="name" v="Finnebumyran" />
		<tag k="natural" v="wetland" />
		<tag k="ssr:stedsnr" v="582483" />
	</node>
	<node lat="59.43788055509611" lon="8.756424999272536" id="-55899">
		<tag k="name" v="Myrlandet" />
		<tag k="natural" v="wetland" />
		<tag k="ssr:stedsnr" v="582165" />
	</node>
	<node lat="59.58544444624014" lon="8.524069450320365" id="-55906">
		<tag k="name" v="Storemyr" />
		<tag k="natural" v="wetland" />
		<tag k="ssr:stedsnr" v="582866" />
	</node>
	<node lat="59.49850555605065" lon="8.645663891570551" id="-55912">
		<tag k="name" v="Selsjordet" />
		<tag k="place" v="locality" />
		<tag k="ssr:stedsnr" v="582679" />
	</node>
	<node lat="59.38208611382742" lon="8.817419438292752" id="-55917">
		<tag k="name" v="Tjønnflya" />
		<tag k="natural" v="wetland" />
		<tag k="ssr:stedsnr" v="582934" />
	</node>
	<node lat="59.414247221196085" lon="8.814797229873653" id="-55918">
		<tag k="name" v="Tjønnfly" />
		<tag k="natural" v="wetland" />
		<tag k="ssr:stedsnr" v="583911" />
	</node>
	<node lat="59.41470833030182" lon="8.825280564186002" id="-55921">
		<tag k="name" v="Storrmyri" />
		<tag k="natural" v="wetland" />
		<tag k="ssr:stedsnr" v="583922" />
	</node>
	<node lat="59.58294999962787" lon="8.30830834215806" id="-55937">
		<tag k="name" v="Nadremyran" />
		<tag k="natural" v="wetland" />
		<tag k="ssr:stedsnr" v="588370" />
	</node>
	<node lat="59.5768638888061" lon="8.450738880653203" id="-56015">
		<tag k="name" v="Kvåleskog" />
		<tag k="place" v="locality" />
		<tag k="ssr:stedsnr" v="643100" />
	</node>
	<node lat="59.450191669441914" lon="8.80320833325475" id="-56021">
		<tag k="name" v="Kloppstein" />
		<tag k="natural" v="stone" />
		<tag k="ssr:stedsnr" v="643066" />
	</node>
	<node lat="59.53859722427004" lon="8.620355547481733" id="-56025">
		<tag k="name" v="Flatdalsøyan" />
		<tag k="place" v="locality" />
		<tag k="ssr:stedsnr" v="643616" />
	</node>
	<node lat="59.65816944664928" lon="8.28400278340654" id="-56040">
		<tag k="name" v="Høgenut" />
		<tag k="natural" v="wetland" />
		<tag k="ssr:stedsnr" v="644372" />
	</node>
	<node lat="59.59129999780059" lon="8.36297222579992" id="-56061">
		<tag k="name" v="Raddarkjerr" />
		<tag k="natural" v="wetland" />
		<tag k="ssr:stedsnr" v="711100" />
	</node>
	<node lat="59.650761110561" lon="8.499677785307474" id="-56138">
		<tag k="historic" v="shieling" />
		<tag k="name" v="Nystaul" />
		<tag k="place" v="locality" />
		<tag k="ssr:stedsnr" v="731692" />
	</node>
	<node lat="59.47328333194094" lon="8.865783332291866" id="-56149">
		<tag k="name" v="Piggsteinuri" />
		<tag k="natural" v="scree" />
		<tag k="ssr:stedsnr" v="762225" />
	</node>
	<node lat="59.44448333431054" lon="8.814119451299709" id="-56156">
		<tag k="name" v="Oredokka" />
		<tag k="place" v="locality" />
		<tag k="ssr:stedsnr" v="764051" />
	</node>
	<node lat="59.453080555950166" lon="8.8208222161975" id="-56157">
		<tag k="name" v="Slåttamyrane" />
		<tag k="natural" v="wetland" />
		<tag k="ssr:stedsnr" v="764057" />
	</node>
	<node lat="59.543472220619655" lon="8.561361105780101" id="-56167">
		<tag k="name" v="Remsåsmyri" />
		<tag k="natural" v="wetland" />
		<tag k="ssr:stedsnr" v="764170" />
	</node>
	<node lat="59.371624997777346" lon="8.841947221313719" id="-56168">
		<tag k="name" v="Godtholmyrane" />
		<tag k="natural" v="wetland" />
		<tag k="ssr:stedsnr" v="764181" />
	</node>
	<node lat="59.585038890111974" lon="8.469036105975633" id="-56170">
		<tag k="name" v="Tveitjordet" />
		<tag k="place" v="locality" />
		<tag k="ssr:stedsnr" v="765063" />
	</node>
	<node lat="59.44345833190775" lon="8.692413882963475" id="-56172">
		<tag k="name" v="Ringsimyrane" />
		<tag k="natural" v="wetland" />
		<tag k="ssr:stedsnr" v="764639" />
	</node>
	<node lat="59.58943333572809" lon="8.520844449681446" id="-56176">
		<tag k="name" v="Bakkeheii" />
		<tag k="natural" v="wetland" />
		<tag k="ssr:stedsnr" v="764883" />
	</node>
	<node lat="59.63144166328023" lon="8.512519448157317" id="-56188">
		<tag k="name" v="Leitingsmyran" />
		<tag k="natural" v="wetland" />
		<tag k="ssr:stedsnr" v="765452" />
	</node>
	<node lat="59.686549999537625" lon="8.340283339735455" id="-56192">
		<tag k="name" v="Fyrileivmyran" />
		<tag k="natural" v="wetland" />
		<tag k="ssr:stedsnr" v="766720" />
	</node>
	<node lat="59.386808336174916" lon="8.80042499941814" id="-56197">
		<tag k="name" v="Tægemyr" />
		<tag k="natural" v="wetland" />
		<tag k="ssr:stedsnr" v="765914" />
	</node>
	<node lat="59.66299444317976" lon="8.303272225503461" id="-56203">
		<tag k="name" v="Blektesmyr" />
		<tag k="natural" v="wetland" />
		<tag k="ssr:stedsnr" v="766152" />
	</node>
	<node lat="59.669666666315756" lon="8.34091111872481" id="-56205">
		<tag k="name" v="Veglidmyran" />
		<tag k="natural" v="wetland" />
		<tag k="ssr:stedsnr" v="766542" />
	</node>
	<node lat="59.58813333005023" lon="8.366888887568106" id="-56217">
		<tag k="historic" v="shieling" />
		<tag k="name" v="Bjønndal" />
		<tag k="place" v="locality" />
		<tag k="ssr:stedsnr" v="771074" />
	</node>
	<node lat="59.653969443257225" lon="8.352675001152452" id="-56225">
		<tag k="name" v="Dammyrane" />
		<tag k="natural" v="wetland" />
		<tag k="ssr:stedsnr" v="771132" />
	</node>
	<node lat="59.56725833507859" lon="8.62973333905053" id="-56272">
		<tag k="alt_name" v="Torvilmyr" />
		<tag k="name" v="Torvilsmyr" />
		<tag k="natural" v="wetland" />
		<tag k="ssr:stedsnr" v="792912" />
	</node>
	<node lat="59.599777777405926" lon="8.562144442774317" id="-56282">
		<tag k="name" v="Kroklimyre" />
		<tag k="natural" v="wetland" />
		<tag k="ssr:stedsnr" v="832059" />
	</node>
	<node lat="59.433530557025854" lon="8.689416662568672" id="-56285">
		<tag k="name" v="Sveinskås" />
		<tag k="place" v="locality" />
		<tag k="ssr:stedsnr" v="825589" />
	</node>
	<node lat="59.444530558973455" lon="8.842833338684432" id="-56287">
		<tag k="name" v="Moen" />
		<tag k="place" v="locality" />
		<tag k="ssr:stedsnr" v="824198" />
	</node>
	<node lat="59.383591662522065" lon="8.82306666007245" id="-56292">
		<tag k="name" v="Askedalsmyra" />
		<tag k="natural" v="wetland" />
		<tag k="ssr:stedsnr" v="825058" />
	</node>
	<node lat="59.386244440258906" lon="8.829999993265696" id="-56293">
		<tag k="name" v="Langemyr" />
		<tag k="natural" v="wetland" />
		<tag k="ssr:stedsnr" v="825059" />
	</node>
	<node lat="59.64651111098955" lon="8.450583338903105" id="-56309">
		<tag k="name" v="Åkroken" />
		<tag k="natural" v="wetland" />
		<tag k="ssr:stedsnr" v="825989" />
	</node>
	<node lat="59.640797221441005" lon="8.459916672915838" id="-56310">
		<tag k="name" v="Gråmyr" />
		<tag k="natural" v="wetland" />
		<tag k="ssr:stedsnr" v="825990" />
	</node>
	<node lat="59.46327222584429" lon="8.782819439011464" id="-56316">
		<tag k="name" v="Heimstaulmyri" />
		<tag k="natural" v="wetland" />
		<tag k="ssr:stedsnr" v="826049" />
	</node>
	<node lat="59.662069443151715" lon="8.277197224159153" id="-56330">
		<tag k="name" v="Åmstokk" />
		<tag k="natural" v="wetland" />
		<tag k="ssr:stedsnr" v="827158" />
	</node>
	<node lat="59.569627778952466" lon="8.614124998297841" id="-56348">
		<tag k="name" v="Eggestaulmyri" />
		<tag k="natural" v="wetland" />
		<tag k="ssr:stedsnr" v="853937" />
	</node>
	<node lat="59.360644445766305" lon="8.865944446929133" id="-56354">
		<tag k="name" v="Snakhol" />
		<tag k="place" v="locality" />
		<tag k="ssr:stedsnr" v="852302" />
	</node>
	<node lat="59.434877777888346" lon="8.669458340082889" id="-56360">
		<tag k="name" v="Heimyran" />
		<tag k="natural" v="wetland" />
		<tag k="ssr:stedsnr" v="852889" />
	</node>
	<node lat="59.63510833300366" lon="8.447386110683434" id="-56379">
		<tag k="name" v="Dyrlandsheii" />
		<tag k="place" v="locality" />
		<tag k="ssr:stedsnr" v="853329" />
	</node>
	<node lat="59.37668333234572" lon="8.819636109871553" id="-56396">
		<tag k="name" v="Håballsmyra" />
		<tag k="natural" v="wetland" />
		<tag k="ssr:stedsnr" v="884195" />
	</node>
	<node lat="59.45171666320547" lon="8.756097216695679" id="-56399">
		<tag k="name" v="Kvigarden" />
		<tag k="place" v="locality" />
		<tag k="ssr:stedsnr" v="885097" />
	</node>
	<node lat="59.38383332952807" lon="8.83686666111797" id="-56402">
		<tag k="alt_name" v="Repemyr" />
		<tag k="name" v="Repemyra" />
		<tag k="natural" v="wetland" />
		<tag k="ssr:stedsnr" v="886069" />
	</node>
	<node lat="59.45705555388833" lon="8.736688896055158" id="-56404">
		<tag k="name" v="Jenskos" />
		<tag k="place" v="locality" />
		<tag k="ssr:stedsnr" v="886085" />
	</node>
	<node lat="59.647024998269075" lon="8.418736105130654" id="-56413">
		<tag k="name" v="Bjønnemyr" />
		<tag k="natural" v="wetland" />
		<tag k="ssr:stedsnr" v="886487" />
	</node>
	<node lat="59.6476138857502" lon="8.28460277140547" id="-56439">
		<tag k="name" v="Bølesflatin" />
		<tag k="natural" v="wetland" />
		<tag k="ssr:stedsnr" v="888325" />
	</node>
	<node lat="59.43856666824075" lon="8.66424166365045" id="-56448">
		<tag k="name" v="Fossunmyran" />
		<tag k="natural" v="wetland" />
		<tag k="ssr:stedsnr" v="946225" />
	</node>
	<node lat="59.69232222601249" lon="8.437402780565838" id="-56461">
		<tag k="name" v="Raunehaugan" />
		<tag k="place" v="locality" />
		<tag k="ssr:stedsnr" v="946971" />
	</node>
	<node lat="59.43752499805964" lon="8.700097217270638" id="-56473">
		<tag k="name" v="Kolabotn" />
		<tag k="natural" v="wetland" />
		<tag k="ssr:stedsnr" v="947639" />
	</node>
	<node lat="59.55583333510375" lon="8.545986114883116" id="-56480">
		<tag k="name" v="Lønnåsmyran" />
		<tag k="natural" v="wetland" />
		<tag k="ssr:stedsnr" v="947829" />
	</node>
	<node lat="59.59773888664214" lon="8.384358341414448" id="-56496">
		<tag k="name" v="Kvigarden" />
		<tag k="place" v="locality" />
		<tag k="ssr:stedsnr" v="952311" />
	</node>
	<node lat="59.59343889267935" lon="8.291711110086897" id="-56499">
		<tag k="name" v="Fallbekkstorren" />
		<tag k="natural" v="wetland" />
		<tag k="ssr:stedsnr" v="952406" />
	</node>
	<node lat="59.43414444170036" lon="8.858308328053155" id="-56511">
		<tag k="name" v="Vefallsøyane" />
		<tag k="natural" v="wetland" />
		<tag k="ssr:stedsnr" v="953979" />
	</node>
</osm>
