<?xml version="1.0" encoding="UTF-8"?>
<<<<<<< HEAD
<osm version="0.6" generator="osmapis">
	<node lat="59.37769887289098" lon="8.679569544464915" id="-26351">
=======
<osm generator="osmapis" version="0.6">
	<node id="-456863" lat="59.6658916686" lon="8.23231111561">
>>>>>>> e1d4bc35ff8a6074a6f2e91616a996b547c36f15
		<tag k="historic" v="boundary_stone" />
		<tag k="man_made" v="cairn" />
		<tag k="name" v="Skåptjønndeildi" />
		<tag k="place" v="locality" />
		<tag k="ssr:stedsnr" v="233594" />
	</node>
<<<<<<< HEAD
	<node lat="59.36929722357696" lon="8.860875008298663" id="-26858">
=======
	<node id="-456317" lat="59.4046388928" lon="8.76085278174">
>>>>>>> e1d4bc35ff8a6074a6f2e91616a996b547c36f15
		<tag k="historic" v="boundary_stone" />
		<tag k="man_made" v="cairn" />
		<tag k="name" v="Krossbekkdelet" />
		<tag k="place" v="locality" />
		<tag k="ssr:stedsnr" v="327180" />
	</node>
<<<<<<< HEAD
	<node lat="59.44931110999805" lon="8.65962221743145" id="-26968">
=======
	<node id="-457375" lat="59.4957388854" lon="8.67625277104">
>>>>>>> e1d4bc35ff8a6074a6f2e91616a996b547c36f15
		<tag k="historic" v="boundary_stone" />
		<tag k="man_made" v="cairn" />
		<tag k="name" v="Svinestein" />
		<tag k="place" v="locality" />
		<tag k="ssr:stedsnr" v="521621" />
	</node>
<<<<<<< HEAD
	<node lat="59.40463889276317" lon="8.760852781737663" id="-27860">
		<tag k="historic" v="boundary_stone" />
		<tag k="man_made" v="cairn" />
		<tag k="name" v="Neshella" />
		<tag k="place" v="locality" />
		<tag k="ssr:stedsnr" v="947994" />
	</node>
	<node lat="59.66589166863065" lon="8.232311115608615" id="-28263">
		<tag k="historic" v="boundary_stone" />
		<tag k="man_made" v="cairn" />
		<tag k="name" v="Dansarstein" />
		<tag k="place" v="locality" />
		<tag k="ssr:stedsnr" v="164148" />
	</node>
	<node lat="59.584424996455716" lon="8.362747220358994" id="-28387">
=======
	<node id="-455636" lat="59.3578666647" lon="8.88796944894">
		<tag k="historic" v="boundary_stone" />
		<tag k="man_made" v="cairn" />
		<tag k="name" v="Tverrdelet" />
		<tag k="place" v="locality" />
		<tag k="ssr:stedsnr" v="509168" />
	</node>
	<node id="-455060" lat="59.3776988729" lon="8.67956954446">
		<tag k="historic" v="boundary_stone" />
		<tag k="man_made" v="cairn" />
		<tag k="name" v="Skåptjønndeildi" />
		<tag k="place" v="locality" />
		<tag k="ssr:stedsnr" v="233594" />
	</node>
	<node id="-455026" lat="59.5844249965" lon="8.36274722036">
		<tag k="historic" v="boundary_stone" />
		<tag k="man_made" v="cairn" />
		<tag k="name" v="Svartufs" />
		<tag k="place" v="locality" />
		<tag k="ssr:stedsnr" v="225127" />
	</node>
	<node id="-457232" lat="59.44931111" lon="8.65962221743">
		<tag k="historic" v="boundary_stone" />
		<tag k="man_made" v="cairn" />
		<tag k="name" v="Pengedeila" />
		<tag k="place" v="locality" />
		<tag k="ssr:stedsnr" v="400707" />
	</node>
	<node id="-457679" lat="59.446030558" lon="8.91000276974">
		<tag k="historic" v="boundary_stone" />
		<tag k="man_made" v="cairn" />
		<tag k="name" v="Blåstein" />
		<tag k="place" v="locality" />
		<tag k="ssr:stedsnr" v="634842" />
	</node>
	<node id="-457005" lat="59.3692972236" lon="8.8608750083">
>>>>>>> e1d4bc35ff8a6074a6f2e91616a996b547c36f15
		<tag k="historic" v="boundary_stone" />
		<tag k="man_made" v="cairn" />
		<tag k="name" v="Svartufs" />
		<tag k="place" v="locality" />
		<tag k="ssr:stedsnr" v="225127" />
	</node>
</osm>
