<?xml version="1.0" encoding="UTF-8"?>
<osm version="0.6" generator="osmapis">
	<node lat="59.47031666492613" lon="8.848427782643299" id="-30557">
		<tag k="loc_name" v="Hønsåa" />
		<tag k="name" v="Hønse" />
		<tag k="ssr:stedsnr" v="2610" />
		<tag k="waterway" v="river" />
	</node>
	<node lat="59.569591665832505" lon="8.28261665930686" id="-30571">
		<tag k="loc_name" v="Dømelauskriklane" />
		<tag k="name" v="Nordbøkriklane" />
		<tag k="natural" v="water" />
		<tag k="ssr:stedsnr" v="3405" />
	</node>
	<node lat="59.43261389071379" lon="8.740341664210785" id="-30573">
		<tag k="name" v="Odden" />
		<tag k="natural" v="cape" />
		<tag k="ssr:stedsnr" v="3628" />
	</node>
	<node lat="59.650136111102036" lon="8.493363890017587" id="-30574">
		<tag k="alt_name" v="Hellebrutjørni" />
		<tag k="name" v="Hellebrutjønni" />
		<tag k="natural" v="water" />
		<tag k="ssr:stedsnr" v="3696" />
	</node>
	<node lat="59.76491666650262" lon="8.42441111281645" id="-30579">
		<tag k="alt_name" v="Helleskardtjørni" />
		<tag k="name" v="Helleskardtjønni" />
		<tag k="natural" v="water" />
		<tag k="ssr:stedsnr" v="4078" />
	</node>
	<node lat="59.783311111341064" lon="8.3864249954803" id="-30581">
		<tag k="alt_name" v="Storfiska" />
		<tag k="name" v="Storfisktjørni" />
		<tag k="natural" v="water" />
		<tag k="ssr:stedsnr" v="4092" />
	</node>
	<node lat="59.40319166327858" lon="8.640891666901126" id="-30586">
		<tag k="name" v="Den lange bukta" />
		<tag k="natural" v="bay" />
		<tag k="ssr:stedsnr" v="36016" />
	</node>
	<node lat="59.54828333199886" lon="8.56066110679728" id="-30593">
		<tag k="name" v="Jeglekvamsbekken" />
		<tag k="ssr:stedsnr" v="36163" />
		<tag k="waterway" v="stream" />
	</node>
	<node lat="59.44042499681392" lon="8.798027779743522" id="-30594">
		<tag k="name" v="Viervika" />
		<tag k="natural" v="bay" />
		<tag k="ssr:stedsnr" v="36172" />
	</node>
	<node lat="59.62330000181938" lon="8.462980549055564" id="-30626">
		<tag k="name" v="Stutetjønn" />
		<tag k="natural" v="water" />
		<tag k="ssr:stedsnr" v="38815" />
	</node>
	<node lat="59.7177499981294" lon="8.369291661382483" id="-30627">
		<tag k="name" v="Grotvass-åi" />
		<tag k="ssr:stedsnr" v="38960" />
		<tag k="waterway" v="river" />
	</node>
	<node lat="59.54010555875115" lon="8.431561107611302" id="-30628">
		<tag k="name" v="Launesbekken" />
		<tag k="ssr:stedsnr" v="39111" />
		<tag k="waterway" v="stream" />
	</node>
	<node lat="59.620447221572036" lon="8.30168056078537" id="-30629">
		<tag k="name" v="Kroktjønn" />
		<tag k="natural" v="water" />
		<tag k="ssr:stedsnr" v="42195" />
	</node>
	<node lat="59.60208055258345" lon="8.364469443355008" id="-30631">
		<tag k="name" v="Stubbåi" />
		<tag k="ssr:stedsnr" v="42204" />
		<tag k="waterway" v="river" />
	</node>
	<node lat="59.604219448703745" lon="8.370261116728111" id="-30633">
		<tag k="name" v="Revsnes" />
		<tag k="natural" v="cape" />
		<tag k="ssr:stedsnr" v="42282" />
	</node>
	<node lat="59.491908336977914" lon="8.54288888762825" id="-30639">
		<tag k="name" v="Tjørnstaultjørnan" />
		<tag k="natural" v="water" />
		<tag k="ssr:stedsnr" v="63071" />
	</node>
	<node lat="59.38074721809809" lon="8.672886118494551" id="-30640">
		<tag k="alt_name" v="Skåptjørn" />
		<tag k="name" v="Skåptjønn" />
		<tag k="natural" v="water" />
		<tag k="ssr:stedsnr" v="63762" />
	</node>
	<node lat="59.39053888662301" lon="8.815536111212014" id="-30642">
		<tag k="alt_name" v="Gopletjørn" />
		<tag k="name" v="Gopletjønn" />
		<tag k="natural" v="water" />
		<tag k="ssr:stedsnr" v="63770" />
	</node>
	<node lat="59.6810888930427" lon="8.412216661997459" id="-30647">
		<tag k="alt_name" v="Fyljomstjørni" />
		<tag k="name" v="Fyljomstaultjønni" />
		<tag k="natural" v="water" />
		<tag k="ssr:stedsnr" v="64128" />
		<tag k="water" v="lake" />
	</node>
	<node lat="59.500511114320815" lon="8.705338893711764" id="-30650">
		<tag k="alt_name" v="Tvitjørnan, nedre" />
		<tag k="name" v="Tvitjønnan" />
		<tag k="natural" v="water" />
		<tag k="ssr:stedsnr" v="64026" />
	</node>
	<node lat="59.51347923330656" lon="8.745660971375646" id="-30651">
		<tag k="name" v="Røysdalstjørnan" />
		<tag k="natural" v="water" />
		<tag k="ssr:stedsnr" v="64036" />
	</node>
	<node lat="59.725469447760254" lon="8.32037499987792" id="-30653">
		<tag k="name" v="Sandsetåi" />
		<tag k="ssr:stedsnr" v="64204" />
		<tag k="waterway" v="river" />
	</node>
	<node lat="59.58761666979864" lon="8.474338885684695" id="-30660">
		<tag k="name" v="Åmotsdalselvi" />
		<tag k="ssr:stedsnr" v="64903" />
		<tag k="waterway" v="river" />
	</node>
	<node lat="59.49691388827817" lon="8.604849997582694" id="-30671">
		<tag k="name" v="Kivleåi" />
		<tag k="ssr:stedsnr" v="245051" />
		<tag k="waterway" v="stream" />
	</node>
	<node lat="59.49836944282313" lon="8.50546945075975" id="-30672">
		<tag k="name" v="Kvilebekk" />
		<tag k="ssr:stedsnr" v="245054" />
		<tag k="waterway" v="stream" />
	</node>
	<node lat="59.74267221824936" lon="8.421061114938565" id="-30678">
		<tag k="alt_name" v="Robekktjørni" />
		<tag k="name" v="Robekktjønn" />
		<tag k="natural" v="water" />
		<tag k="ssr:stedsnr" v="245219" />
	</node>
	<node lat="59.59841666683829" lon="8.280849999375205" id="-30679">
		<tag k="name" v="Tollodden" />
		<tag k="natural" v="cape" />
		<tag k="ssr:stedsnr" v="245240" />
	</node>
	<node lat="59.37840996146425" lon="8.865012076398697" id="-30681">
		<tag k="alt_name" v="Fetjarstaultjønn" />
		<tag k="loc_name" v="Fetjastultjønna" />
		<tag k="name" v="Fitjastaultjørni" />
		<tag k="natural" v="water" />
		<tag k="ssr:stedsnr" v="245310" />
	</node>
	<node lat="59.604726939657155" lon="8.40122459049051" id="-30682">
		<tag k="alt_name" v="Hellenuttjørnan" />
		<tag k="name" v="Hellnuttjønnan" />
		<tag k="natural" v="water" />
		<tag k="ssr:stedsnr" v="245255" />
	</node>
	<node lat="59.4002749974344" lon="8.808105555197034" id="-30691">
		<tag k="alt_name" v="Gongetjørni" />
		<tag k="name" v="Gongevatn" />
		<tag k="natural" v="water" />
		<tag k="ssr:stedsnr" v="245976" />
		<tag k="water" v="lake" />
	</node>
	<node lat="59.40743610853504" lon="8.770355563232489" id="-30693">
		<tag k="name" v="Blomhaugtjørni" />
		<tag k="natural" v="water" />
		<tag k="ssr:stedsnr" v="245981" />
	</node>
	<node lat="59.50910278073002" lon="8.77486110908977" id="-30697">
		<tag k="alt_name" v="Tjorbutjørni, store" />
		<tag k="name" v="Store Tjorbuvatn" />
		<tag k="natural" v="water" />
		<tag k="ssr:stedsnr" v="246036" />
	</node>
	<node lat="59.62577500370268" lon="8.452725006522828" id="-30698">
		<tag k="alt_name" v="Lomtjørn" />
		<tag k="name" v="Lomtjønntjønni" />
		<tag k="natural" v="water" />
		<tag k="ssr:stedsnr" v="246290" />
	</node>
	<node lat="59.699288891400826" lon="8.434766667208182" id="-30700">
		<tag k="alt_name" v="Svatjørn" />
		<tag k="name" v="Sva-tjønn" />
		<tag k="natural" v="water" />
		<tag k="ssr:stedsnr" v="246183" />
	</node>
	<node lat="59.55900277589528" lon="8.543416675400456" id="-30707">
		<tag k="name" v="Tverråi" />
		<tag k="ssr:stedsnr" v="246935" />
		<tag k="waterway" v="stream" />
	</node>
	<node lat="59.5264999976099" lon="8.75533610641582" id="-30714">
		<tag k="name" v="Elslibekken" />
		<tag k="ssr:stedsnr" v="246995" />
		<tag k="waterway" v="stream" />
	</node>
	<node lat="59.52409444754724" lon="8.650238880891001" id="-30715">
		<tag k="name" v="Århusbekken" />
		<tag k="ssr:stedsnr" v="246998" />
		<tag k="waterway" v="stream" />
	</node>
	<node lat="59.76058888499805" lon="8.331224992411444" id="-30716">
		<tag k="name" v="Buliodden" />
		<tag k="natural" v="cape" />
		<tag k="ssr:stedsnr" v="247096" />
	</node>
	<node lat="59.424905555544136" lon="8.616688888450646" id="-30718">
		<tag k="name" v="Bjortjønnåi" />
		<tag k="ssr:stedsnr" v="96321" />
		<tag k="waterway" v="river" />
	</node>
	<node lat="59.39948611532499" lon="8.751044437496835" id="-30725">
		<tag k="name" v="Gullbekkodden" />
		<tag k="natural" v="cape" />
		<tag k="ssr:stedsnr" v="97317" />
	</node>
	<node lat="59.62949166327976" lon="8.42990277920456" id="-30734">
		<tag k="name" v="Svartetjønn" />
		<tag k="natural" v="water" />
		<tag k="ssr:stedsnr" v="98023" />
	</node>
	<node lat="59.571072226078954" lon="8.471552774192455" id="-30738">
		<tag k="name" v="Svartetjønn" />
		<tag k="natural" v="water" />
		<tag k="ssr:stedsnr" v="98071" />
	</node>
	<node lat="59.66397499930115" lon="8.338808335624178" id="-30748">
		<tag k="name" v="Rindebekken" />
		<tag k="ssr:stedsnr" v="99175" />
		<tag k="waterway" v="stream" />
	</node>
	<node lat="59.6334000038841" lon="8.317208332224604" id="-30755">
		<tag k="name" v="Tjønnestaulbekken" />
		<tag k="ssr:stedsnr" v="103374" />
		<tag k="waterway" v="stream" />
	</node>
	<node lat="59.58849444549268" lon="8.291972226715089" id="-30756">
		<tag k="name" v="Fallbekken" />
		<tag k="ssr:stedsnr" v="103423" />
		<tag k="waterway" v="stream" />
	</node>
	<node lat="59.462902779153765" lon="8.725638888432128" id="-30761">
		<tag k="alt_name" v="Igletveittjørni" />
		<tag k="name" v="Igletveittjønni" />
		<tag k="natural" v="water" />
		<tag k="ssr:stedsnr" v="123113" />
	</node>
	<node lat="59.46157778105406" lon="8.642766659392704" id="-30762">
		<tag k="name" v="Svarvarbekken" />
		<tag k="ssr:stedsnr" v="123135" />
		<tag k="waterway" v="stream" />
	</node>
	<node lat="59.38671944608912" lon="8.68000834101965" id="-30764">
		<tag k="alt_name" v="Nystaultjørn" />
		<tag k="name" v="Nystaultjønn" />
		<tag k="natural" v="water" />
		<tag k="ssr:stedsnr" v="123770" />
	</node>
	<node lat="59.38586111339632" lon="8.729502780009144" id="-30765">
		<tag k="name" v="Svartebekken" />
		<tag k="ssr:stedsnr" v="123773" />
		<tag k="waterway" v="stream" />
	</node>
	<node lat="59.3967978793601" lon="8.818580720352928" id="-30766">
		<tag k="name" v="Stodatjørni" />
		<tag k="natural" v="water" />
		<tag k="ssr:stedsnr" v="123775" />
	</node>
	<node lat="59.417244444982344" lon="8.726452785127277" id="-30768">
		<tag k="alt_name" v="Kringletjørn" />
		<tag k="name" v="Kringetjønn" />
		<tag k="natural" v="water" />
		<tag k="ssr:stedsnr" v="123959" />
	</node>
	<node lat="59.416341668933676" lon="8.627727771589155" id="-30769">
		<tag k="alt_name" v="Djupedalstjørni" />
		<tag k="name" v="Djupedalstjønni" />
		<tag k="natural" v="water" />
		<tag k="ssr:stedsnr" v="123961" />
	</node>
	<node lat="59.664977780619175" lon="8.326605549058648" id="-30773">
		<tag k="name" v="Rindebekken" />
		<tag k="ssr:stedsnr" v="124302" />
		<tag k="waterway" v="stream" />
	</node>
	<node lat="59.52759722273096" lon="8.534863887530168" id="-30775">
		<tag k="alt_name" v="Hestnuttjørni" />
		<tag k="name" v="Hestenuttjønni" />
		<tag k="natural" v="water" />
		<tag k="ssr:stedsnr" v="124061" />
	</node>
	<node lat="59.5920694471688" lon="8.306013883931692" id="-30779">
		<tag k="name" v="Gjevarvatn" />
		<tag k="natural" v="water" />
		<tag k="ssr:stedsnr" v="124414" />
		<tag k="water" v="lake" />
	</node>
	<node lat="59.442438888375996" lon="8.635633338695866" id="-30782">
		<tag k="name" v="Galtetjørn" />
		<tag k="natural" v="water" />
		<tag k="ssr:stedsnr" v="124860" />
	</node>
	<node lat="59.77243888447462" lon="8.413669443015104" id="-30785">
		<tag k="alt_name" v="Langtjørni" />
		<tag k="name" v="Langetjønn" />
		<tag k="natural" v="water" />
		<tag k="ssr:stedsnr" v="125072" />
	</node>
	<node lat="59.551530554171535" lon="8.506480563949268" id="-30786">
		<tag k="alt_name" v="Spelbekktjørnan" />
		<tag k="name" v="Spilbekktjønn" />
		<tag k="natural" v="water" />
		<tag k="ssr:stedsnr" v="124951" />
	</node>
	<node lat="59.53392221972675" lon="8.603516665907291" id="-30802">
		<tag k="name" v="Kløvfossbekken" />
		<tag k="ssr:stedsnr" v="157902" />
		<tag k="waterway" v="stream" />
	</node>
	<node lat="59.561738891343516" lon="8.464877771725007" id="-30804">
		<tag k="name" v="Tjønnstaultjønn øvre" />
		<tag k="natural" v="water" />
		<tag k="ssr:stedsnr" v="158101" />
	</node>
	<node lat="59.361730556037536" lon="8.85315554857971" id="-30805">
		<tag k="name" v="Heimdalstjønn" />
		<tag k="natural" v="water" />
		<tag k="ssr:stedsnr" v="158214" />
	</node>
	<node lat="59.57950832974245" lon="8.571172219499152" id="-30807">
		<tag k="name" v="Svartetjønn" />
		<tag k="natural" v="water" />
		<tag k="ssr:stedsnr" v="158809" />
	</node>
	<node lat="59.601791666631286" lon="8.28640833117528" id="-30816">
		<tag k="name" v="Kvitebekken" />
		<tag k="ssr:stedsnr" v="163409" />
		<tag k="waterway" v="stream" />
	</node>
	<node lat="59.651233333665495" lon="8.354680552358944" id="-30822">
		<tag k="name" v="Gravlidbekken" />
		<tag k="ssr:stedsnr" v="164118" />
		<tag k="waterway" v="stream" />
	</node>
	<node lat="59.710711112207626" lon="8.242550001610608" id="-30827">
		<tag k="name" v="Vesle Skarstjønn" />
		<tag k="natural" v="water" />
		<tag k="ssr:stedsnr" v="164285" />
	</node>
	<node lat="59.69601577467167" lon="8.21668242514075" id="-30846">
		<tag k="alt_name" v="Svartetjørn" />
		<tag k="name" v="Svartetjønn" />
		<tag k="natural" v="water" />
		<tag k="ssr:stedsnr" v="185139" />
	</node>
	<node lat="59.66861111010477" lon="8.269194450359963" id="-30851">
		<tag k="alt_name" v="Veslevatn" />
		<tag k="name" v="Vesle Kjostjørn" />
		<tag k="natural" v="water" />
		<tag k="ssr:stedsnr" v="185333" />
	</node>
	<node lat="59.50765555600261" lon="8.719444437515335" id="-30855">
		<tag k="alt_name" v="Deilebekken" />
		<tag k="name" v="Deildebekk" />
		<tag k="ssr:stedsnr" v="185042" />
		<tag k="waterway" v="stream" />
	</node>
	<node lat="59.61498611046438" lon="8.452649991892596" id="-30856">
		<tag k="alt_name" v="Kvisstaultjørni" />
		<tag k="name" v="Kvistaultjønni" />
		<tag k="natural" v="water" />
		<tag k="ssr:stedsnr" v="185235" />
	</node>
	<node lat="59.61145000414465" lon="8.38936389232168" id="-30857">
		<tag k="alt_name" v="Valjuvåi" />
		<tag k="name" v="Valeåi" />
		<tag k="ssr:stedsnr" v="185237" />
		<tag k="waterway" v="stream" />
	</node>
	<node lat="59.59005555671373" lon="8.441219452694277" id="-30859">
		<tag k="name" v="Årholttjørn" />
		<tag k="natural" v="water" />
		<tag k="ssr:stedsnr" v="185441" />
	</node>
	<node lat="59.442813885025544" lon="8.751594436909862" id="-30861">
		<tag k="alt_name" v="Vesleøyi" />
		<tag k="name" v="Vesleøy" />
		<tag k="natural" v="cape" />
		<tag k="ssr:stedsnr" v="185878" />
	</node>
	<node lat="59.55700832932468" lon="8.516088890545715" id="-30863">
		<tag k="name" v="Spelbekk" />
		<tag k="ssr:stedsnr" v="185938" />
		<tag k="waterway" v="stream" />
	</node>
	<node lat="59.776144448482796" lon="8.310655558314213" id="-30866">
		<tag k="alt_name" v="Grasdalstjørni" />
		<tag k="name" v="Store Grasfjelltjønn" />
		<tag k="natural" v="water" />
		<tag k="ssr:stedsnr" v="186084" />
	</node>
	<node lat="59.468780552820164" lon="8.849491669556617" id="-30869">
		<tag k="name" v="Hønseåi" />
		<tag k="ssr:stedsnr" v="216194" />
		<tag k="waterway" v="river" />
	</node>
	<node lat="59.41322221997754" lon="8.678158330061276" id="-30877">
		<tag k="name" v="Høgfossen" />
		<tag k="natural" v="waterfall" />
		<tag k="ssr:stedsnr" v="218381" />
	</node>
	<node lat="59.53254166930829" lon="8.636786115456735" id="-30881">
		<tag k="name" v="Heggenesbekken" />
		<tag k="ssr:stedsnr" v="218589" />
		<tag k="waterway" v="stream" />
	</node>
	<node lat="59.50481944740973" lon="8.677988880028547" id="-30882">
		<tag k="name" v="Borkebubekken" />
		<tag k="ssr:stedsnr" v="218594" />
		<tag k="waterway" v="stream" />
	</node>
	<node lat="59.647439347899116" lon="8.451464564325327" id="-30885">
		<tag k="name" v="Slettevatjønni" />
		<tag k="natural" v="water" />
		<tag k="ssr:stedsnr" v="218979" />
	</node>
	<node lat="59.44057777651454" lon="8.83580277641642" id="-30892">
		<tag k="name" v="Lusefoss" />
		<tag k="natural" v="waterfall" />
		<tag k="ssr:stedsnr" v="219205" />
	</node>
	<node lat="59.411711113479114" lon="8.74141944555842" id="-30900">
		<tag k="name" v="Garntjønn" />
		<tag k="natural" v="water" />
		<tag k="ssr:stedsnr" v="219988" />
	</node>
	<node lat="59.53359444770186" lon="8.458116670465408" id="-30901">
		<tag k="name" v="Kjellarodden" />
		<tag k="natural" v="cape" />
		<tag k="ssr:stedsnr" v="220124" />
	</node>
	<node lat="59.602311106701244" lon="8.34477777559432" id="-30907">
		<tag k="name" v="Damløken" />
		<tag k="natural" v="cape" />
		<tag k="ssr:stedsnr" v="220407" />
	</node>
	<node lat="59.56278610761961" lon="8.393261108646712" id="-30916">
		<tag k="name" v="Tjoveholmen" />
		<tag k="place" v="island" />
		<tag k="ssr:stedsnr" v="221083" />
	</node>
	<node lat="59.597911108172084" lon="8.282686114720352" id="-30922">
		<tag k="name" v="Stabbestaulodden" />
		<tag k="natural" v="cape" />
		<tag k="ssr:stedsnr" v="224439" />
	</node>
	<node lat="59.59400277581067" lon="8.287372214143126" id="-30924">
		<tag k="name" v="Fallbekkodden" />
		<tag k="natural" v="cape" />
		<tag k="ssr:stedsnr" v="224385" />
	</node>
	<node lat="59.55914166791514" lon="8.446383327798687" id="-30937">
		<tag k="name" v="Venelitjørn" />
		<tag k="natural" v="water" />
		<tag k="ssr:stedsnr" v="245416" />
	</node>
	<node lat="59.38610432873484" lon="8.635181070963203" id="-30939">
		<tag k="alt_name" v="Sandtjørn" />
		<tag k="name" v="Sandtjønn" />
		<tag k="natural" v="water" />
		<tag k="ssr:stedsnr" v="245724" />
	</node>
	<node lat="59.612186110934516" lon="8.493566668674275" id="-30941">
		<tag k="alt_name" v="Skardstjørn" />
		<tag k="name" v="Skarstjønni" />
		<tag k="natural" v="water" />
		<tag k="ssr:stedsnr" v="245743" />
	</node>
	<node lat="59.55300833243695" lon="8.611588889963919" id="-30944">
		<tag k="name" v="Tverråi" />
		<tag k="ssr:stedsnr" v="246114" />
		<tag k="waterway" v="stream" />
	</node>
	<node lat="59.671316664638645" lon="8.292638888166477" id="-30945">
		<tag k="alt_name" v="Kråketjørn" />
		<tag k="name" v="Kråkedaltjønni" />
		<tag k="natural" v="water" />
		<tag k="ssr:stedsnr" v="246129" />
	</node>
	<node lat="59.67554999688634" lon="8.298130552522037" id="-30946">
		<tag k="alt_name" v="Rindetjørn" />
		<tag k="name" v="Rindetjønn" />
		<tag k="natural" v="water" />
		<tag k="ssr:stedsnr" v="246130" />
	</node>
	<node lat="59.53984444435922" lon="8.407636111925616" id="-30951">
		<tag k="name" v="Fossarbekken" />
		<tag k="ssr:stedsnr" v="246366" />
		<tag k="waterway" v="stream" />
	</node>
	<node lat="59.58795622509944" lon="8.520480503252873" id="-30954">
		<tag k="alt_name" v="Trytetjørn" />
		<tag k="name" v="Trytetjønn" />
		<tag k="natural" v="water" />
		<tag k="ssr:stedsnr" v="246865" />
	</node>
	<node lat="59.685749999779276" lon="8.260172223923263" id="-30964">
		<tag k="name" v="Vesle-Botntjønn" />
		<tag k="natural" v="water" />
		<tag k="ssr:stedsnr" v="274719" />
	</node>
	<node lat="59.38260277641929" lon="8.666286117176266" id="-30979">
		<tag k="name" v="Skåptjønndammen" />
		<tag k="ssr:stedsnr" v="279322" />
		<tag k="waterway" v="dam" />
	</node>
	<node lat="59.47903055395663" lon="8.63427499265331" id="-30989">
		<tag k="name" v="Bygdaråi" />
		<tag k="ssr:stedsnr" v="279771" />
		<tag k="waterway" v="river" />
	</node>
	<node lat="59.56316944598825" lon="8.536944442340449" id="-30995">
		<tag k="name" v="Flatdalsåi" />
		<tag k="ssr:stedsnr" v="280833" />
		<tag k="waterway" v="river" />
	</node>
	<node lat="59.54889444030207" lon="8.463858336695026" id="-30997">
		<tag k="name" v="Auretjønn" />
		<tag k="natural" v="water" />
		<tag k="ssr:stedsnr" v="281103" />
	</node>
	<node lat="59.64495555386106" lon="8.324949998804042" id="-31000">
		<tag k="name" v="Vaddebekken" />
		<tag k="ssr:stedsnr" v="281705" />
		<tag k="waterway" v="stream" />
	</node>
	<node lat="59.38491666959248" lon="8.84331944147903" id="-31003">
		<tag k="name" v="Bakkjeråi" />
		<tag k="ssr:stedsnr" v="461029" />
		<tag k="waterway" v="river" />
	</node>
	<node lat="59.60266666617145" lon="8.371997230450813" id="-31015">
		<tag k="name" v="Gjessbekkodden" />
		<tag k="natural" v="cape" />
		<tag k="ssr:stedsnr" v="285277" />
	</node>
	<node lat="59.43594444554752" lon="8.812038884477843" id="-31022">
		<tag k="name" v="Store Ikornholet" />
		<tag k="natural" v="bay" />
		<tag k="ssr:stedsnr" v="461250" />
	</node>
	<node lat="59.38782777600554" lon="8.685597225213217" id="-31026">
		<tag k="name" v="Søndre Løyningstjønn" />
		<tag k="natural" v="water" />
		<tag k="ssr:stedsnr" v="461331" />
	</node>
	<node lat="59.626783332916474" lon="8.361972226593652" id="-31028">
		<tag k="name" v="Saubudaltjønni" />
		<tag k="natural" v="water" />
		<tag k="ssr:stedsnr" v="286195" />
	</node>
	<node lat="59.62620000199054" lon="8.35699165779901" id="-31029">
		<tag k="name" v="Kroktjønn" />
		<tag k="natural" v="water" />
		<tag k="ssr:stedsnr" v="286196" />
	</node>
	<node lat="59.44816666356068" lon="8.75731110983884" id="-31031">
		<tag k="name" v="Vesleheggjeneset" />
		<tag k="natural" v="cape" />
		<tag k="ssr:stedsnr" v="461391" />
	</node>
	<node lat="59.43351666725423" lon="8.649769452853786" id="-31032">
		<tag k="name" v="Kvålsgardtjønni" />
		<tag k="natural" v="water" />
		<tag k="ssr:stedsnr" v="461276" />
	</node>
	<node lat="59.704944442145596" lon="8.450352779516754" id="-31039">
		<tag k="name" v="Robekkpytten" />
		<tag k="natural" v="water" />
		<tag k="ssr:stedsnr" v="461986" />
		<tag k="water" v="pond" />
	</node>
	<node lat="59.63908333755295" lon="8.488241669007392" id="-31040">
		<tag k="name" v="Fjølabutjønni" />
		<tag k="natural" v="water" />
		<tag k="ssr:stedsnr" v="461999" />
	</node>
	<node lat="59.63214722230382" lon="8.429233336879053" id="-31041">
		<tag k="name" v="Trolltjønn" />
		<tag k="natural" v="water" />
		<tag k="ssr:stedsnr" v="462026" />
	</node>
	<node lat="59.67921389082012" lon="8.369972223166304" id="-31048">
		<tag k="name" v="Klopperotjønni" />
		<tag k="natural" v="water" />
		<tag k="ssr:stedsnr" v="463486" />
	</node>
	<node lat="59.49554166510336" lon="8.72486944895961" id="-31057">
		<tag k="alt_name" v="Fjellstaultjørn" />
		<tag k="name" v="Fjellstaultjønni" />
		<tag k="natural" v="water" />
		<tag k="ssr:stedsnr" v="306058" />
	</node>
	<node lat="59.496649996851986" lon="8.636380563164472" id="-31058">
		<tag k="name" v="Vallaråi" />
		<tag k="ssr:stedsnr" v="306062" />
		<tag k="waterway" v="river" />
	</node>
	<node lat="59.735605559212985" lon="8.23737499313792" id="-31069">
		<tag k="name" v="Dalastaultjønni" />
		<tag k="natural" v="water" />
		<tag k="ssr:stedsnr" v="467086" />
	</node>
	<node lat="59.63405277505621" lon="8.356363886439677" id="-31073">
		<tag k="name" v="Merremyrtjønni" />
		<tag k="natural" v="water" />
		<tag k="ssr:stedsnr" v="467136" />
	</node>
	<node lat="59.624686108245136" lon="8.339575005134357" id="-31074">
		<tag k="name" v="Geitekyrkjetjønn" />
		<tag k="natural" v="water" />
		<tag k="ssr:stedsnr" v="467149" />
	</node>
	<node lat="59.62862222543348" lon="8.311652778287769" id="-31075">
		<tag k="name" v="Snauåstjønni" />
		<tag k="natural" v="water" />
		<tag k="ssr:stedsnr" v="467193" />
	</node>
	<node lat="59.623363892703836" lon="8.301566672653044" id="-31076">
		<tag k="name" v="Haugesettjønni" />
		<tag k="natural" v="water" />
		<tag k="ssr:stedsnr" v="467199" />
	</node>
	<node lat="59.55370000117255" lon="8.375716661070523" id="-31078">
		<tag k="name" v="Fossehogget" />
		<tag k="natural" v="waterfall" />
		<tag k="ssr:stedsnr" v="467225" />
	</node>
	<node lat="59.5967361123757" lon="8.325166674177515" id="-31086">
		<tag k="name" v="Djupeveil" />
		<tag k="natural" v="strait" />
		<tag k="ssr:stedsnr" v="467493" />
	</node>
	<node lat="59.47089444241101" lon="8.903891672225068" id="-31090">
		<tag k="name" v="Vefallbufossen" />
		<tag k="natural" v="waterfall" />
		<tag k="ssr:stedsnr" v="331909" />
	</node>
	<node lat="59.39058611505906" lon="8.836444450808843" id="-31106">
		<tag k="name" v="Buskerovetjønn" />
		<tag k="natural" v="water" />
		<tag k="ssr:stedsnr" v="340043" />
	</node>
	<node lat="59.43461388925537" lon="8.818013896922597" id="-31116">
		<tag k="name" v="Masteviki" />
		<tag k="natural" v="bay" />
		<tag k="ssr:stedsnr" v="340001" />
	</node>
	<node lat="59.44321389282466" lon="8.756411119751887" id="-31120">
		<tag k="name" v="Sundet" />
		<tag k="natural" v="strait" />
		<tag k="ssr:stedsnr" v="340147" />
	</node>
	<node lat="59.3661861150388" lon="8.854150004219866" id="-31121">
		<tag k="name" v="Stubbtjønn" />
		<tag k="natural" v="water" />
		<tag k="ssr:stedsnr" v="340192" />
	</node>
	<node lat="59.40371944521401" lon="8.79459166853664" id="-31123">
		<tag k="name" v="Gramtjønnbekken" />
		<tag k="ssr:stedsnr" v="340919" />
		<tag k="waterway" v="stream" />
	</node>
	<node lat="59.630894440812774" lon="8.315388889170004" id="-31142">
		<tag k="name" v="Tjønnstaultjønni" />
		<tag k="natural" v="water" />
		<tag k="ssr:stedsnr" v="345178" />
	</node>
	<node lat="59.476963890825544" lon="8.796761102621957" id="-31154">
		<tag k="alt_name" v="Skardstjørnan" />
		<tag k="name" v="Skarstjønnan" />
		<tag k="natural" v="water" />
		<tag k="ssr:stedsnr" v="366002" />
	</node>
	<node lat="59.42846944112115" lon="8.621522230608644" id="-31158">
		<tag k="alt_name" v="Fisketjørnåi" />
		<tag k="name" v="Fisketjønnåi" />
		<tag k="ssr:stedsnr" v="366880" />
		<tag k="waterway" v="stream" />
	</node>
	<node lat="59.429688887494265" lon="8.63548888840221" id="-31159">
		<tag k="name" v="Svarttjønn" />
		<tag k="natural" v="water" />
		<tag k="ssr:stedsnr" v="366882" />
	</node>
	<node lat="59.67112777857333" lon="8.37568888526473" id="-31164">
		<tag k="alt_name" v="Holmetjørni" />
		<tag k="name" v="Homtjønn" />
		<tag k="natural" v="water" />
		<tag k="ssr:stedsnr" v="367108" />
	</node>
	<node lat="59.5023833377027" lon="8.744994453156538" id="-31166">
		<tag k="alt_name" v="Gråntjørn" />
		<tag k="name" v="Gråntjønn" />
		<tag k="natural" v="water" />
		<tag k="ssr:stedsnr" v="367022" />
	</node>
	<node lat="59.515188889039365" lon="8.768530550969498" id="-31167">
		<tag k="name" v="Kvitbekk" />
		<tag k="ssr:stedsnr" v="367028" />
		<tag k="waterway" v="stream" />
	</node>
	<node lat="59.5787249962987" lon="8.40856944495968" id="-31171">
		<tag k="alt_name" v="Høytjørn" />
		<tag k="name" v="Høytjønn" />
		<tag k="natural" v="water" />
		<tag k="ssr:stedsnr" v="367372" />
	</node>
	<node lat="59.568674997263194" lon="8.388341659663258" id="-31173">
		<tag k="alt_name" v="Gåsetjørn" />
		<tag k="name" v="Gåskiltjønn" />
		<tag k="natural" v="water" />
		<tag k="ssr:stedsnr" v="367383" />
	</node>
	<node lat="59.564572224689776" lon="8.416636118334369" id="-31174">
		<tag k="alt_name" v="Osetjønn" />
		<tag k="name" v="Ostjørn" />
		<tag k="natural" v="water" />
		<tag k="ssr:stedsnr" v="367384" />
	</node>
	<node lat="59.50515555807659" lon="8.523919438744695" id="-31184">
		<tag k="name" v="Sanden" />
		<tag k="ssr:stedsnr" v="391333" />
		<tag k="waterway" v="dam" />
	</node>
	<node lat="59.6646388872988" lon="8.385822217215198" id="-31196">
		<tag k="name" v="Buskartjønn" />
		<tag k="natural" v="water" />
		<tag k="ssr:stedsnr" v="400530" />
	</node>
	<node lat="59.36885833597723" lon="8.852797216774485" id="-31204">
		<tag k="name" v="Stubbtjønnbekken" />
		<tag k="ssr:stedsnr" v="401195" />
		<tag k="waterway" v="stream" />
	</node>
	<node lat="59.536250002894235" lon="8.444336104209054" id="-31211">
		<tag k="name" v="Gullnesbukti" />
		<tag k="natural" v="bay" />
		<tag k="ssr:stedsnr" v="402090" />
	</node>
	<node lat="59.54785278083831" lon="8.450225003349608" id="-31212">
		<tag k="name" v="Kvislintjønn" />
		<tag k="natural" v="water" />
		<tag k="ssr:stedsnr" v="402091" />
	</node>
	<node lat="59.645719441202495" lon="8.29427222204926" id="-31216">
		<tag k="name" v="Øvstestaulhylen" />
		<tag k="place" v="locality" />
		<tag k="ssr:stedsnr" v="402397" />
	</node>
	<node lat="59.605130558414885" lon="8.349325000728806" id="-31219">
		<tag k="name" v="Kråketjønn" />
		<tag k="natural" v="water" />
		<tag k="ssr:stedsnr" v="406308" />
	</node>
	<node lat="59.59731388638051" lon="8.287450006280716" id="-31223">
		<tag k="name" v="Kvisleøyi" />
		<tag k="place" v="island" />
		<tag k="ssr:stedsnr" v="406499" />
	</node>
	<node lat="59.57846666741539" lon="8.369972217791057" id="-31226">
		<tag k="name" v="Vassbakkilen" />
		<tag k="natural" v="water" />
		<tag k="ssr:stedsnr" v="407094" />
		<tag k="water" v="lake" />
	</node>
	<node lat="59.68922499804819" lon="8.252355560806192" id="-31227">
		<tag k="name" v="Vesle-Angrebekken" />
		<tag k="ssr:stedsnr" v="407241" />
		<tag k="waterway" v="stream" />
	</node>
	<node lat="59.56820555684296" lon="8.360213893082209" id="-31229">
		<tag k="name" v="Sandsåi" />
		<tag k="ssr:stedsnr" v="407253" />
		<tag k="waterway" v="stream" />
	</node>
	<node lat="59.49436103373399" lon="8.568076234173231" id="-31231">
		<tag k="name" v="Hesthovtjørni" />
		<tag k="natural" v="water" />
		<tag k="ssr:stedsnr" v="487044" />
	</node>
	<node lat="59.45632499880939" lon="8.631272220551853" id="-31234">
		<tag k="alt_name" v="Havretjørni" />
		<tag k="name" v="Havretjønn" />
		<tag k="natural" v="water" />
		<tag k="ssr:stedsnr" v="487086" />
	</node>
	<node lat="59.394788892693235" lon="8.803322230985982" id="-31240">
		<tag k="alt_name" v="Sauetjørn" />
		<tag k="name" v="Sauetjønn" />
		<tag k="natural" v="water" />
		<tag k="ssr:stedsnr" v="487990" />
	</node>
	<node lat="59.650536109380354" lon="8.389369437895596" id="-31258">
		<tag k="alt_name" v="Kvislintjørn" />
		<tag k="name" v="Kvislintjønni" />
		<tag k="natural" v="water" />
		<tag k="ssr:stedsnr" v="488293" />
	</node>
	<node lat="59.532144440319044" lon="8.441294449412416" id="-31260">
		<tag k="name" v="Gullnesbekken" />
		<tag k="ssr:stedsnr" v="488366" />
		<tag k="waterway" v="stream" />
	</node>
	<node lat="59.40053889284145" lon="8.745816668475516" id="-31270">
		<tag k="name" v="Sidkilen" />
		<tag k="natural" v="bay" />
		<tag k="ssr:stedsnr" v="488971" />
	</node>
	<node lat="59.55053274641088" lon="8.653418782733365" id="-31271">
		<tag k="alt_name" v="Russtjørnan" />
		<tag k="name" v="Rustjønnan" />
		<tag k="natural" v="water" />
		<tag k="ssr:stedsnr" v="488973" />
	</node>
	<node lat="59.77317500247585" lon="8.367800000606914" id="-31276">
		<tag k="alt_name" v="Hubrotjørni" />
		<tag k="name" v="Hubrotjønni" />
		<tag k="natural" v="water" />
		<tag k="ssr:stedsnr" v="489079" />
	</node>
	<node lat="59.44934166518615" lon="8.630322227279185" id="-31281">
		<tag k="alt_name" v="Kroktjørn" />
		<tag k="name" v="Kroktjønn" />
		<tag k="natural" v="water" />
		<tag k="ssr:stedsnr" v="427078" />
	</node>
	<node lat="59.4537277752239" lon="8.622930554818655" id="-31282">
		<tag k="alt_name" v="Årnotertjørni" />
		<tag k="name" v="Årnotratjønn" />
		<tag k="natural" v="water" />
		<tag k="ssr:stedsnr" v="427079" />
	</node>
	<node lat="59.43252499880725" lon="8.633302780146524" id="-31286">
		<tag k="alt_name" v="Hesterotjørni" />
		<tag k="name" v="Hesterovetjønn" />
		<tag k="natural" v="water" />
		<tag k="ssr:stedsnr" v="427882" />
	</node>
	<node lat="59.6803972237604" lon="8.21681666956167" id="-31291">
		<tag k="alt_name" v="Sprettedalstjørn" />
		<tag k="name" v="Sprettedalstjønni" />
		<tag k="natural" v="water" />
		<tag k="ssr:stedsnr" v="428118" />
	</node>
	<node lat="59.77388611073959" lon="8.38196943809056" id="-31292">
		<tag k="alt_name" v="Sandtjørni" />
		<tag k="name" v="Sandtjønn" />
		<tag k="natural" v="water" />
		<tag k="ssr:stedsnr" v="428066" />
	</node>
	<node lat="59.57043055508439" lon="8.299666661430372" id="-31300">
		<tag k="name" v="Myklevatn" />
		<tag k="natural" v="water" />
		<tag k="ssr:stedsnr" v="428414" />
		<tag k="water" v="lake" />
	</node>
	<node lat="59.545155551155254" lon="8.669619442117904" id="-31305">
		<tag k="name" v="Tverråi" />
		<tag k="ssr:stedsnr" v="428918" />
		<tag k="waterway" v="stream" />
	</node>
	<node lat="59.41765555605411" lon="8.737938893004413" id="-31310">
		<tag k="alt_name" v="Langedalstjørni" />
		<tag k="name" v="Langedaltjønn" />
		<tag k="natural" v="water" />
		<tag k="ssr:stedsnr" v="670952" />
	</node>
	<node lat="59.40720833429428" lon="8.638161108157961" id="-31312">
		<tag k="name" v="Mørkvatnet" />
		<tag k="natural" v="water" />
		<tag k="ssr:stedsnr" v="670969" />
	</node>
	<node lat="59.532930552554106" lon="8.625458337000634" id="-31313">
		<tag k="name" v="Humlenes" />
		<tag k="natural" v="cape" />
		<tag k="ssr:stedsnr" v="671000" />
	</node>
	<node lat="59.63688611561683" lon="8.507347226843908" id="-31315">
		<tag k="alt_name" v="Gunlaugstaultjørni" />
		<tag k="name" v="Gunlaugstaultjønni" />
		<tag k="natural" v="water" />
		<tag k="ssr:stedsnr" v="671754" />
	</node>
	<node lat="59.6749416672089" lon="8.461230548536529" id="-31345">
		<tag k="name" v="Tangetjønn" />
		<tag k="natural" v="water" />
		<tag k="ssr:stedsnr" v="462227" />
	</node>
	<node lat="59.412455551173224" lon="8.782405548490082" id="-31352">
		<tag k="name" v="Bergtjønn" />
		<tag k="natural" v="water" />
		<tag k="ssr:stedsnr" v="462971" />
	</node>
	<node lat="59.71711666321268" lon="8.284530555137101" id="-31357">
		<tag k="name" v="Lonin" />
		<tag k="natural" v="water" />
		<tag k="ssr:stedsnr" v="463615" />
		<tag k="water" v="lake" />
	</node>
	<node lat="59.59286667075138" lon="8.320252781354467" id="-31362">
		<tag k="name" v="Busandfjorden" />
		<tag k="natural" v="water" />
		<tag k="ssr:stedsnr" v="467463" />
		<tag k="water" v="lake" />
	</node>
	<node lat="59.61848611140156" lon="8.273300006135702" id="-31364">
		<tag k="name" v="Grytåi" />
		<tag k="ssr:stedsnr" v="467374" />
		<tag k="waterway" v="river" />
	</node>
	<node lat="59.42005833700885" lon="8.624755562657636" id="-31371">
		<tag k="name" v="Svartbekken" />
		<tag k="ssr:stedsnr" v="487926" />
		<tag k="waterway" v="stream" />
	</node>
	<node lat="59.59518009561067" lon="8.417006370945119" id="-31381">
		<tag k="alt_name" v="Langetjørn" />
		<tag k="name" v="Langetjønn" />
		<tag k="natural" v="water" />
		<tag k="ssr:stedsnr" v="488452" />
	</node>
	<node lat="59.58556944075619" lon="8.343224993752907" id="-31383">
		<tag k="alt_name" v="Høytjørn" />
		<tag k="name" v="Høytjønn" />
		<tag k="natural" v="water" />
		<tag k="ssr:stedsnr" v="488463" />
	</node>
	<node lat="59.673177778634205" lon="8.454802775512098" id="-31389">
		<tag k="name" v="Heiåi" />
		<tag k="ssr:stedsnr" v="488321" />
		<tag k="waterway" v="river" />
	</node>
	<node lat="59.66653611013294" lon="8.275186107524332" id="-31390">
		<tag k="alt_name" v="Storvatn" />
		<tag k="name" v="Store Kjostjørn" />
		<tag k="natural" v="water" />
		<tag k="ssr:stedsnr" v="488324" />
	</node>
	<node lat="59.5596833323535" lon="8.256602784416607" id="-31394">
		<tag k="alt_name" v="Gjeslemotjørni" />
		<tag k="name" v="Gjæslemotjønni" />
		<tag k="natural" v="water" />
		<tag k="ssr:stedsnr" v="488395" />
	</node>
	<node lat="59.55825833089835" lon="8.406766671682373" id="-31395">
		<tag k="alt_name" v="Sundsbarmvatnet" />
		<tag k="name" v="Sundsbarmvatn" />
		<tag k="natural" v="water" />
		<tag k="ssr:stedsnr" v="488401" />
		<tag k="water" v="lake" />
	</node>
	<node lat="59.4001638867495" lon="8.742319442117745" id="-31408">
		<tag k="name" v="Torsodd" />
		<tag k="natural" v="cape" />
		<tag k="ssr:stedsnr" v="521308" />
	</node>
	<node lat="59.43786111443352" lon="8.80774444909483" id="-31413">
		<tag k="name" v="Vesle Apalvika" />
		<tag k="natural" v="bay" />
		<tag k="ssr:stedsnr" v="522246" />
	</node>
	<node lat="59.53811666571468" lon="8.445274996913941" id="-31423">
		<tag k="name" v="Gullnestangen" />
		<tag k="natural" v="cape" />
		<tag k="ssr:stedsnr" v="523125" />
	</node>
	<node lat="59.663019448903405" lon="8.300363888641977" id="-31424">
		<tag k="name" v="Blektesmyrtjønn" />
		<tag k="natural" v="water" />
		<tag k="ssr:stedsnr" v="523172" />
	</node>
	<node lat="59.655936107827195" lon="8.276011114900266" id="-31425">
		<tag k="name" v="Grunntjønn" />
		<tag k="natural" v="water" />
		<tag k="ssr:stedsnr" v="523410" />
	</node>
	<node lat="59.68021389090188" lon="8.292933333244735" id="-31436">
		<tag k="name" v="Skrubbepyttan" />
		<tag k="natural" v="water" />
		<tag k="ssr:stedsnr" v="527218" />
		<tag k="water" v="pond" />
	</node>
	<node lat="59.470241663853315" lon="8.740052770434177" id="-31448">
		<tag k="alt_name" v="Ivarstjørn" />
		<tag k="name" v="Ivarstjønn" />
		<tag k="natural" v="water" />
		<tag k="ssr:stedsnr" v="548106" />
	</node>
	<node lat="59.44789721974541" lon="8.807797226332289" id="-31453">
		<tag k="alt_name" v="Kloppesteintjørni" />
		<tag k="name" v="Kloppsteintjønni" />
		<tag k="natural" v="water" />
		<tag k="ssr:stedsnr" v="548065" />
	</node>
	<node lat="59.38578055482666" lon="8.793444438457989" id="-31456">
		<tag k="alt_name" v="Koppartjørn" />
		<tag k="name" v="Koppartjønn" />
		<tag k="natural" v="water" />
		<tag k="ssr:stedsnr" v="548765" />
	</node>
	<node lat="59.38888888992313" lon="8.8255833273396" id="-31457">
		<tag k="alt_name" v="Ljosvatn" />
		<tag k="name" v="Ljosvatnet" />
		<tag k="natural" v="water" />
		<tag k="ssr:stedsnr" v="548767" />
	</node>
	<node lat="59.40108055420513" lon="8.650186111985057" id="-31458">
		<tag k="name" v="Stavebukti" />
		<tag k="natural" v="bay" />
		<tag k="ssr:stedsnr" v="548970" />
	</node>
	<node lat="59.69290277468059" lon="8.406738892229109" id="-31460">
		<tag k="name" v="Krakksetåi" />
		<tag k="ssr:stedsnr" v="549152" />
		<tag k="waterway" v="stream" />
	</node>
	<node lat="59.508563888247544" lon="8.67013611395306" id="-31462">
		<tag k="name" v="Borkebuåi" />
		<tag k="ssr:stedsnr" v="549060" />
		<tag k="waterway" v="stream" />
	</node>
	<node lat="59.51094999571582" lon="8.543074994923995" id="-31466">
		<tag k="name" v="Hovudduk" />
		<tag k="natural" v="waterfall" />
		<tag k="ssr:stedsnr" v="549074" />
	</node>
	<node lat="59.555436114162106" lon="8.417855553483113" id="-31469">
		<tag k="name" v="Mannerosfjorden" />
		<tag k="natural" v="water" />
		<tag k="ssr:stedsnr" v="549400" />
		<tag k="water" v="lake" />
	</node>
	<node lat="59.58936666859455" lon="8.352008325334069" id="-31472">
		<tag k="name" v="Damtjørn" />
		<tag k="natural" v="water" />
		<tag k="ssr:stedsnr" v="549450" />
	</node>
	<node lat="59.57306388815736" lon="8.626324998278992" id="-31481">
		<tag k="name" v="Svartetjønn" />
		<tag k="natural" v="water" />
		<tag k="ssr:stedsnr" v="581419" />
	</node>
	<node lat="59.52302500174647" lon="8.638730548537923" id="-31483">
		<tag k="name" v="Presteneset" />
		<tag k="natural" v="cape" />
		<tag k="ssr:stedsnr" v="581691" />
	</node>
	<node lat="59.42750833757221" lon="8.79168889023675" id="-31485">
		<tag k="name" v="Eidet" />
		<tag k="place" v="locality" />
		<tag k="ssr:stedsnr" v="582018" />
	</node>
	<node lat="59.51208888708203" lon="8.705747213728621" id="-31489">
		<tag k="name" v="Kvennhusbekken" />
		<tag k="ssr:stedsnr" v="582511" />
		<tag k="waterway" v="stream" />
	</node>
	<node lat="59.666775620588034" lon="8.400732043813436" id="-31491">
		<tag k="name" v="Snøfonnskartjønnane" />
		<tag k="natural" v="water" />
		<tag k="ssr:stedsnr" v="582516" />
	</node>
	<node lat="59.62431944168846" lon="8.469202771745264" id="-31510">
		<tag k="name" v="Primtjønn" />
		<tag k="natural" v="water" />
		<tag k="ssr:stedsnr" v="584811" />
	</node>
	<node lat="59.73247222044527" lon="8.26218889681497" id="-31513">
		<tag k="name" v="Tangen" />
		<tag k="natural" v="cape" />
		<tag k="ssr:stedsnr" v="588106" />
	</node>
	<node lat="59.60367777630954" lon="8.287608331667812" id="-31514">
		<tag k="name" v="Kjosstaultjønn" />
		<tag k="natural" v="water" />
		<tag k="ssr:stedsnr" v="588436" />
	</node>
	<node lat="59.60768888882052" lon="8.311650008858733" id="-31515">
		<tag k="name" v="Gokkstaultjønn" />
		<tag k="natural" v="water" />
		<tag k="ssr:stedsnr" v="588459" />
	</node>
	<node lat="59.5788138908439" lon="8.330527783110696" id="-31516">
		<tag k="name" v="Tjønnestaultjønni" />
		<tag k="natural" v="water" />
		<tag k="ssr:stedsnr" v="589017" />
	</node>
	<node lat="59.41955833361827" lon="8.616194443931947" id="-31526">
		<tag k="alt_name" v="Dalstjørn" />
		<tag k="name" v="Dalstjønn" />
		<tag k="natural" v="water" />
		<tag k="ssr:stedsnr" v="608936" />
	</node>
	<node lat="59.472916670396664" lon="8.693988896482132" id="-31527">
		<tag k="name" v="Lindalsbekken" />
		<tag k="ssr:stedsnr" v="609003" />
		<tag k="waterway" v="stream" />
	</node>
	<node lat="59.48372499674756" lon="8.716027786236145" id="-31532">
		<tag k="name" v="Bjørntjørn" />
		<tag k="natural" v="water" />
		<tag k="ssr:stedsnr" v="609028" />
	</node>
	<node lat="59.72098889137088" lon="8.276391657802822" id="-31539">
		<tag k="alt_name" v="Veisvikåi" />
		<tag k="name" v="Veisfitåi" />
		<tag k="ssr:stedsnr" v="609195" />
		<tag k="waterway" v="river" />
	</node>
	<node lat="59.732416663153195" lon="8.430947227490835" id="-31541">
		<tag k="name" v="Veggebufoss" />
		<tag k="natural" v="waterfall" />
		<tag k="ssr:stedsnr" v="609199" />
	</node>
	<node lat="59.66342500138122" lon="8.290355561573312" id="-31543">
		<tag k="alt_name" v="Midttjørn" />
		<tag k="name" v="Midttjønn" />
		<tag k="natural" v="water" />
		<tag k="ssr:stedsnr" v="609343" />
	</node>
	<node lat="59.564944448560084" lon="8.45761388710961" id="-31544">
		<tag k="name" v="Hovtjørn" />
		<tag k="natural" v="water" />
		<tag k="ssr:stedsnr" v="609438" />
	</node>
	<node lat="59.36521667118869" lon="8.84193055851325" id="-31546">
		<tag k="alt_name" v="Blomreitjørni" />
		<tag k="name" v="Blomreitjønn" />
		<tag k="natural" v="water" />
		<tag k="ssr:stedsnr" v="609785" />
	</node>
	<node lat="59.43661944005089" lon="8.754947223576767" id="-31576">
		<tag k="name" v="Slavebukti" />
		<tag k="natural" v="bay" />
		<tag k="ssr:stedsnr" v="704156" />
	</node>
	<node lat="59.43215833318108" lon="8.663519436304771" id="-31579">
		<tag k="name" v="Heifossen" />
		<tag k="natural" v="waterfall" />
		<tag k="ssr:stedsnr" v="704247" />
	</node>
	<node lat="59.412911113031306" lon="8.732291665321156" id="-31593">
		<tag k="name" v="Galtetjønn" />
		<tag k="natural" v="water" />
		<tag k="ssr:stedsnr" v="704992" />
	</node>
	<node lat="59.6866555590696" lon="8.37300278207798" id="-31606">
		<tag k="name" v="Blåfjelltjønni" />
		<tag k="natural" v="water" />
		<tag k="ssr:stedsnr" v="705775" />
	</node>
	<node lat="59.65398333669641" lon="8.397013883061744" id="-31615">
		<tag k="name" v="Stutesondtjønni" />
		<tag k="natural" v="water" />
		<tag k="ssr:stedsnr" v="642474" />
	</node>
	<node lat="59.541544441195846" lon="8.602416660300403" id="-31621">
		<tag k="name" v="Flatdalsåi" />
		<tag k="ssr:stedsnr" v="642881" />
		<tag k="waterway" v="river" />
	</node>
	<node lat="59.659274995977896" lon="8.325936105174703" id="-31640">
		<tag k="name" v="Venuttjønn" />
		<tag k="natural" v="water" />
		<tag k="ssr:stedsnr" v="644258" />
	</node>
	<node lat="59.725413893132185" lon="8.365680561444394" id="-31646">
		<tag k="name" v="Grotvatn søndre" />
		<tag k="natural" v="water" />
		<tag k="ssr:stedsnr" v="645588" />
		<tag k="water" v="lake" />
	</node>
	<node lat="59.61634166439991" lon="8.480591661334358" id="-31652">
		<tag k="name" v="Bitustaultjønn" />
		<tag k="natural" v="water" />
		<tag k="ssr:stedsnr" v="706792" />
	</node>
	<node lat="59.59380000210342" lon="8.294188888869698" id="-31671">
		<tag k="name" v="Fallbekkgronnan" />
		<tag k="place" v="locality" />
		<tag k="ssr:stedsnr" v="709405" />
	</node>
	<node lat="59.618738888579315" lon="8.329394445037844" id="-31680">
		<tag k="name" v="Trolltjønn" />
		<tag k="natural" v="water" />
		<tag k="ssr:stedsnr" v="710156" />
	</node>
	<node lat="59.59092500441541" lon="8.317352778090894" id="-31681">
		<tag k="name" v="Loftsøyi" />
		<tag k="place" v="island" />
		<tag k="ssr:stedsnr" v="710422" />
	</node>
	<node lat="59.47453333407584" lon="8.818433327354242" id="-31682">
		<tag k="name" v="Luretjørn" />
		<tag k="natural" v="water" />
		<tag k="ssr:stedsnr" v="669008" />
	</node>
	<node lat="59.48452778057746" lon="8.87673610632215" id="-31688">
		<tag k="alt_name" v="Bjønndalstjønni" />
		<tag k="name" v="Bjørndalsvatnet" />
		<tag k="natural" v="water" />
		<tag k="ssr:stedsnr" v="669584" />
	</node>
	<node lat="59.592355554894795" lon="8.326058331423676" id="-31689">
		<tag k="name" v="Busandfjøro" />
		<tag k="natural" v="beach" />
		<tag k="ssr:stedsnr" v="710468" />
	</node>
	<node lat="59.368713890171456" lon="8.832374994407676" id="-31690">
		<tag k="alt_name" v="Raundalstjørni" />
		<tag k="name" v="Rogndalstjønn" />
		<tag k="natural" v="water" />
		<tag k="ssr:stedsnr" v="669804" />
	</node>
	<node lat="59.47862518810973" lon="8.543908333588096" id="-31693">
		<tag k="alt_name" v="Skauttjørn" />
		<tag k="name" v="Skauttjønn" />
		<tag k="natural" v="water" />
		<tag k="ssr:stedsnr" v="670022" />
	</node>
	<node lat="59.43494999835531" lon="8.816533333276935" id="-31694">
		<tag k="name" v="Rundebergsoddan" />
		<tag k="natural" v="cape" />
		<tag k="ssr:stedsnr" v="669908" />
	</node>
	<node lat="59.42012777727349" lon="8.689366666849246" id="-31695">
		<tag k="alt_name" v="Nybutjørn" />
		<tag k="name" v="Nybutjønn" />
		<tag k="natural" v="water" />
		<tag k="ssr:stedsnr" v="669917" />
	</node>
	<node lat="59.420200002338824" lon="8.711633324758532" id="-31696">
		<tag k="alt_name" v="Jønntjørn" />
		<tag k="name" v="Jønntjønn" />
		<tag k="natural" v="water" />
		<tag k="ssr:stedsnr" v="669923" />
	</node>
	<node lat="59.61435000213585" lon="8.477308340606273" id="-31703">
		<tag k="alt_name" v="Hasletjørni" />
		<tag k="name" v="Hasletjønn" />
		<tag k="natural" v="water" />
		<tag k="ssr:stedsnr" v="670736" />
	</node>
	<node lat="59.5592333335018" lon="8.600124994703974" id="-31710">
		<tag k="name" v="Kjøtåi" />
		<tag k="ssr:stedsnr" v="671932" />
		<tag k="waterway" v="stream" />
	</node>
	<node lat="59.564794443669946" lon="8.523569436663486" id="-31712">
		<tag k="alt_name" v="Rjukanfossen" />
		<tag k="name" v="Rjukanfoss" />
		<tag k="natural" v="waterfall" />
		<tag k="ssr:stedsnr" v="671949" />
	</node>
	<node lat="59.60948888622794" lon="8.375091661643795" id="-31715">
		<tag k="name" v="Valedammen" />
		<tag k="ssr:stedsnr" v="892280" />
		<tag k="waterway" v="dam" />
	</node>
	<node lat="59.60416111293437" lon="8.354638887766157" id="-31716">
		<tag k="name" v="Petarnos" />
		<tag k="natural" v="water" />
		<tag k="ssr:stedsnr" v="892287" />
	</node>
	<node lat="59.579608329900935" lon="8.378166670560976" id="-31721">
		<tag k="name" v="Tverrbekken" />
		<tag k="ssr:stedsnr" v="893080" />
		<tag k="waterway" v="stream" />
	</node>
	<node lat="59.6581305566515" lon="8.403136108998225" id="-31728">
		<tag k="name" v="Finnebutjønni" />
		<tag k="natural" v="water" />
		<tag k="ssr:stedsnr" v="703525" />
	</node>
	<node lat="59.60221666475858" lon="8.335233334360606" id="-31742">
		<tag k="name" v="Rorgemofjorden" />
		<tag k="natural" v="water" />
		<tag k="ssr:stedsnr" v="705403" />
		<tag k="water" v="lake" />
	</node>
	<node lat="59.583336114955074" lon="8.326005564061086" id="-31755">
		<tag k="name" v="Fjåbekk" />
		<tag k="ssr:stedsnr" v="711394" />
		<tag k="waterway" v="stream" />
	</node>
	<node lat="59.479127774050305" lon="8.884505557247117" id="-31759">
		<tag k="alt_name" v="Bjørndalsåa;Myklestuåa" />
		<tag k="name" v="Bjønndøla" />
		<tag k="ssr:stedsnr" v="730613" />
		<tag k="waterway" v="river" />
	</node>
	<node lat="59.47849444597951" lon="8.767663895941414" id="-31762">
		<tag k="alt_name" v="Skålbutjørni" />
		<tag k="name" v="Skålbutjønn" />
		<tag k="natural" v="water" />
		<tag k="ssr:stedsnr" v="731005" />
	</node>
	<node lat="59.67420833282515" lon="8.380658341875634" id="-31763">
		<tag k="alt_name" v="Gunnarstaultjørni" />
		<tag k="name" v="Gunnarstaultjønni" />
		<tag k="natural" v="water" />
		<tag k="ssr:stedsnr" v="731109" />
	</node>
	<node lat="59.65533055332719" lon="8.280447223651496" id="-31770">
		<tag k="alt_name" v="Trolltjørn" />
		<tag k="name" v="Trolltjønn" />
		<tag k="natural" v="water" />
		<tag k="ssr:stedsnr" v="731327" />
	</node>
	<node lat="59.56518333334355" lon="8.497674999016823" id="-31775">
		<tag k="name" v="Vermedalsåi" />
		<tag k="ssr:stedsnr" v="731952" />
		<tag k="waterway" v="stream" />
	</node>
	<node lat="59.75343332945699" lon="8.428313882128391" id="-31780">
		<tag k="alt_name" v="Blanketjørnan" />
		<tag k="name" v="Blanketjønnan" />
		<tag k="natural" v="water" />
		<tag k="ssr:stedsnr" v="732127" />
	</node>
	<node lat="59.479369446188734" lon="8.832697230075237" id="-31781">
		<tag k="name" v="Hønseåi" />
		<tag k="ssr:stedsnr" v="763208" />
		<tag k="waterway" v="river" />
	</node>
	<node lat="59.40469444073038" lon="8.666361107638657" id="-31784">
		<tag k="name" v="Endresholmen" />
		<tag k="place" v="islet" />
		<tag k="ssr:stedsnr" v="764013" />
	</node>
	<node lat="59.43942777910164" lon="8.833847223355342" id="-31803">
		<tag k="name" v="Storrdrag" />
		<tag k="natural" v="bay" />
		<tag k="ssr:stedsnr" v="765013" />
	</node>
	<node lat="59.40579721811887" lon="8.799688886978913" id="-31814">
		<tag k="name" v="Kvennhusbekken" />
		<tag k="ssr:stedsnr" v="765902" />
		<tag k="waterway" v="stream" />
	</node>
	<node lat="59.641158334885176" lon="8.306288893730613" id="-31816">
		<tag k="name" v="Lonin" />
		<tag k="natural" v="water" />
		<tag k="ssr:stedsnr" v="766372" />
		<tag k="water" v="lake" />
	</node>
	<node lat="59.67914444785428" lon="8.376272229631299" id="-31817">
		<tag k="name" v="Tårånstjønn" />
		<tag k="natural" v="water" />
		<tag k="ssr:stedsnr" v="766518" />
	</node>
	<node lat="59.7070999981847" lon="8.310372215460019" id="-31818">
		<tag k="name" v="Damtjønn" />
		<tag k="natural" v="water" />
		<tag k="ssr:stedsnr" v="766696" />
	</node>
	<node lat="59.56740278054761" lon="8.431933336307688" id="-31822">
		<tag k="name" v="Mandalsåi" />
		<tag k="ssr:stedsnr" v="767095" />
		<tag k="waterway" v="river" />
	</node>
	<node lat="59.63121666914077" lon="8.329674994109725" id="-31823">
		<tag k="name" v="Solheimstjønni" />
		<tag k="natural" v="water" />
		<tag k="ssr:stedsnr" v="770251" />
	</node>
	<node lat="59.63273333136904" lon="8.350427779392037" id="-31826">
		<tag k="name" v="Stuvestaultjønni" />
		<tag k="natural" v="water" />
		<tag k="ssr:stedsnr" v="770124" />
	</node>
	<node lat="59.63139444560381" lon="8.35191667263805" id="-31827">
		<tag k="name" v="Tjønnstaultjønni" />
		<tag k="natural" v="water" />
		<tag k="ssr:stedsnr" v="770125" />
	</node>
	<node lat="59.479016666782734" lon="8.677463887072506" id="-31841">
		<tag k="name" v="Lauvnesodden" />
		<tag k="natural" v="cape" />
		<tag k="ssr:stedsnr" v="791008" />
	</node>
	<node lat="59.440802774191084" lon="8.754083329408049" id="-31844">
		<tag k="name" v="Sundet" />
		<tag k="natural" v="strait" />
		<tag k="ssr:stedsnr" v="791885" />
	</node>
	<node lat="59.38661111464031" lon="8.695758338281916" id="-31847">
		<tag k="alt_name" v="Gladskardtjørni" />
		<tag k="name" v="Gladskartjønni" />
		<tag k="natural" v="water" />
		<tag k="ssr:stedsnr" v="791747" />
	</node>
	<node lat="59.425002773827316" lon="8.632244447152912" id="-31848">
		<tag k="alt_name" v="Kippestaultjørnan" />
		<tag k="name" v="Kippestaultjønni" />
		<tag k="natural" v="water" />
		<tag k="ssr:stedsnr" v="791917" />
	</node>
	<node lat="59.61639722342075" lon="8.417786110949784" id="-31852">
		<tag k="alt_name" v="Vihustjørn" />
		<tag k="name" v="Vehustjønni" />
		<tag k="natural" v="water" />
		<tag k="ssr:stedsnr" v="792282" />
	</node>
	<node lat="59.63963610719344" lon="8.447344445051662" id="-31855">
		<tag k="alt_name" v="Gaupetjørn" />
		<tag k="name" v="Gaupetjønn" />
		<tag k="natural" v="water" />
		<tag k="ssr:stedsnr" v="792317" />
	</node>
	<node lat="59.66403888656378" lon="8.469794438781758" id="-31861">
		<tag k="alt_name" v="Jønntjørnbekken" />
		<tag k="name" v="Jønntjønnbekken" />
		<tag k="ssr:stedsnr" v="792700" />
		<tag k="waterway" v="stream" />
	</node>
	<node lat="59.67077777905533" lon="8.473094453062815" id="-31863">
		<tag k="alt_name" v="Jønntjørn" />
		<tag k="name" v="Jønntjønni" />
		<tag k="natural" v="water" />
		<tag k="ssr:stedsnr" v="792704" />
	</node>
	<node lat="59.752112911584824" lon="8.440750279741138" id="-31867">
		<tag k="alt_name" v="Meisetjørni" />
		<tag k="name" v="Meisetjønn" />
		<tag k="natural" v="water" />
		<tag k="ssr:stedsnr" v="793105" />
	</node>
	<node lat="59.42742499659986" lon="8.651588885449208" id="-31871">
		<tag k="alt_name" v="Gravalitjørni" />
		<tag k="name" v="Gravalidtjønnan" />
		<tag k="natural" v="water" />
		<tag k="ssr:stedsnr" v="912922" />
	</node>
	<node lat="59.495277677605806" lon="8.74383841235832" id="-31873">
		<tag k="alt_name" v="Damtjørn" />
		<tag k="name" v="Damtjønnan" />
		<tag k="natural" v="water" />
		<tag k="ssr:stedsnr" v="913045" />
	</node>
	<node lat="59.50243611293211" lon="8.735250007325101" id="-31874">
		<tag k="alt_name" v="Tvitjørnan, øvre" />
		<tag k="name" v="Øvre Tvitjønnan" />
		<tag k="natural" v="water" />
		<tag k="ssr:stedsnr" v="913025" />
	</node>
	<node lat="59.485749996165474" lon="8.814666670489641" id="-31878">
		<tag k="name" v="Hønsevatni" />
		<tag k="natural" v="water" />
		<tag k="ssr:stedsnr" v="913031" />
	</node>
	<node lat="59.4527222259838" lon="8.698366667444434" id="-31884">
		<tag k="name" v="Lindeviki" />
		<tag k="natural" v="bay" />
		<tag k="ssr:stedsnr" v="913078" />
	</node>
	<node lat="59.63807777754605" lon="8.32239167258296" id="-31889">
		<tag k="alt_name" v="Grovåi" />
		<tag k="name" v="Grovenåi" />
		<tag k="ssr:stedsnr" v="913323" />
		<tag k="waterway" v="river" />
	</node>
	<node lat="59.777983328894756" lon="8.34604165974242" id="-31909">
		<tag k="alt_name" v="Nordåi" />
		<tag k="name" v="Nordåe" />
		<tag k="ssr:stedsnr" v="914102" />
		<tag k="waterway" v="river" />
	</node>
	<node lat="59.533002781696894" lon="8.772686103709386" id="-31913">
		<tag k="name" v="Hytteskardbekken" />
		<tag k="ssr:stedsnr" v="914978" />
		<tag k="waterway" v="stream" />
	</node>
	<node lat="59.40492221915576" lon="8.664286103443859" id="-31920">
		<tag k="name" v="Futen" />
		<tag k="place" v="islet" />
		<tag k="ssr:stedsnr" v="825004" />
	</node>
	<node lat="59.478602773676464" lon="8.739169444945288" id="-31924">
		<tag k="name" v="Heiersdalsåi" />
		<tag k="ssr:stedsnr" v="825085" />
		<tag k="waterway" v="stream" />
	</node>
	<node lat="59.57707500209803" lon="8.535130559338553" id="-31929">
		<tag k="name" v="Bindingsnuttjønni" />
		<tag k="natural" v="water" />
		<tag k="ssr:stedsnr" v="825866" />
	</node>
	<node lat="59.53899166934972" lon="8.609380548822838" id="-31931">
		<tag k="name" v="Strandin" />
		<tag k="natural" v="beach" />
		<tag k="ssr:stedsnr" v="825903" />
	</node>
	<node lat="59.6093222186748" lon="8.53902499770114" id="-31933">
		<tag k="name" v="Hagadaltjønni" />
		<tag k="natural" v="water" />
		<tag k="ssr:stedsnr" v="826019" />
	</node>
	<node lat="59.57180555339161" lon="8.36774722519647" id="-31967">
		<tag k="name" v="Kaupmannstjønni" />
		<tag k="natural" v="water" />
		<tag k="ssr:stedsnr" v="832237" />
	</node>
	<node lat="59.60231666727458" lon="8.369905558422833" id="-31973">
		<tag k="alt_name" v="Valetjørn" />
		<tag k="name" v="Valetjønn" />
		<tag k="natural" v="water" />
		<tag k="ssr:stedsnr" v="852277" />
	</node>
	<node lat="59.42012499714103" lon="8.648738894274217" id="-31976">
		<tag k="name" v="Kippestaulåi" />
		<tag k="ssr:stedsnr" v="852905" />
		<tag k="waterway" v="stream" />
	</node>
	<node lat="59.40286111550628" lon="8.721652769971158" id="-31979">
		<tag k="name" v="Dalslausøyi" />
		<tag k="place" v="islet" />
		<tag k="ssr:stedsnr" v="852966" />
	</node>
	<node lat="59.606830557843416" lon="8.553966666668776" id="-31980">
		<tag k="alt_name" v="Ståldalsvatn" />
		<tag k="name" v="Ståldalsvatnet" />
		<tag k="natural" v="water" />
		<tag k="ssr:stedsnr" v="852860" />
		<tag k="water" v="lake" />
	</node>
	<node lat="59.50454722129561" lon="8.72091388835518" id="-31983">
		<tag k="alt_name" v="Holmetjørn" />
		<tag k="name" v="Holmetjønn" />
		<tag k="natural" v="water" />
		<tag k="ssr:stedsnr" v="853028" />
	</node>
	<node lat="59.67465555958763" lon="8.389052775145245" id="-31984">
		<tag k="alt_name" v="Skridutjørn" />
		<tag k="name" v="Skriutjønn" />
		<tag k="natural" v="water" />
		<tag k="ssr:stedsnr" v="853107" />
	</node>
	<node lat="59.546624996944544" lon="8.568080551884462" id="-31996">
		<tag k="name" v="Kyrsveltbekken" />
		<tag k="ssr:stedsnr" v="853965" />
		<tag k="waterway" v="stream" />
	</node>
	<node lat="59.521516665804306" lon="8.734500006370723" id="-31997">
		<tag k="name" v="Årstaulbekken" />
		<tag k="ssr:stedsnr" v="853998" />
		<tag k="waterway" v="stream" />
	</node>
	<node lat="59.50569444125475" lon="8.500333328437701" id="-32003">
		<tag k="name" v="Lomma" />
		<tag k="natural" v="water" />
		<tag k="ssr:stedsnr" v="886009" />
		<tag k="water" v="lake" />
	</node>
	<node lat="59.383827782030764" lon="8.871088884054123" id="-32007">
		<tag k="name" v="Svartepytt" />
		<tag k="natural" v="water" />
		<tag k="ssr:stedsnr" v="886199" />
		<tag k="water" v="pond" />
	</node>
	<node lat="59.73309166891617" lon="8.432252770967956" id="-32013">
		<tag k="name" v="Veggebutjønnane" />
		<tag k="natural" v="water" />
		<tag k="ssr:stedsnr" v="886700" />
	</node>
	<node lat="59.577193792551306" lon="8.520278102580802" id="-32017">
		<tag k="name" v="Geitåstjønnan" />
		<tag k="natural" v="water" />
		<tag k="ssr:stedsnr" v="886864" />
	</node>
	<node lat="59.608163885243066" lon="8.531033334668205" id="-32023">
		<tag k="name" v="Bølskvevtjønni" />
		<tag k="natural" v="water" />
		<tag k="ssr:stedsnr" v="887204" />
	</node>
	<node lat="59.59951666263637" lon="8.51619166781619" id="-32024">
		<tag k="name" v="Febostjønn" />
		<tag k="natural" v="water" />
		<tag k="ssr:stedsnr" v="887208" />
	</node>
	<node lat="59.56208610741855" lon="8.37406944546924" id="-32037">
		<tag k="name" v="Stabbursholmen" />
		<tag k="place" v="islet" />
		<tag k="ssr:stedsnr" v="892209" />
	</node>
	<node lat="59.597483334291084" lon="8.286263888107435" id="-32043">
		<tag k="name" v="Møreløk" />
		<tag k="natural" v="strait" />
		<tag k="ssr:stedsnr" v="892468" />
	</node>
	<node lat="59.46574722462074" lon="8.626702771065533" id="-32047">
		<tag k="name" v="Drykkebekken" />
		<tag k="ssr:stedsnr" v="912127" />
		<tag k="waterway" v="stream" />
	</node>
	<node lat="59.380772220217416" lon="8.778983335515228" id="-32048">
		<tag k="name" v="Dalsåi" />
		<tag k="ssr:stedsnr" v="912801" />
		<tag k="waterway" v="river" />
	</node>
	<node lat="59.36938889191046" lon="8.81011110241205" id="-32049">
		<tag k="alt_name" v="Raundalsbekken" />
		<tag k="name" v="Rogndalsbekken" />
		<tag k="ssr:stedsnr" v="912814" />
		<tag k="waterway" v="stream" />
	</node>
	<node lat="59.39484999647611" lon="8.704369449306686" id="-32052">
		<tag k="alt_name" v="Hjartetjørni" />
		<tag k="name" v="Hjortetjønn" />
		<tag k="natural" v="water" />
		<tag k="ssr:stedsnr" v="912996" />
	</node>
	<node lat="59.691497218795874" lon="8.268216673546886" id="-32055">
		<tag k="alt_name" v="Angrevatn" />
		<tag k="name" v="Angersvatnet" />
		<tag k="natural" v="water" />
		<tag k="ssr:stedsnr" v="913154" />
		<tag k="water" v="lake" />
	</node>
	<node lat="59.45400000416451" lon="8.653377778057639" id="-32056">
		<tag k="name" v="Almedalsbekken" />
		<tag k="ssr:stedsnr" v="913097" />
		<tag k="waterway" v="stream" />
	</node>
	<node lat="59.61883570569817" lon="8.366324365048659" id="-32058">
		<tag k="name" v="Gåsevatn" />
		<tag k="natural" v="water" />
		<tag k="ssr:stedsnr" v="913287" />
	</node>
	<node lat="59.55004721985735" lon="8.426191662812155" id="-32059">
		<tag k="alt_name" v="Sælidøyi" />
		<tag k="name" v="Sæliøyi" />
		<tag k="place" v="islet" />
		<tag k="ssr:stedsnr" v="913409" />
	</node>
	<node lat="59.52225278163775" lon="8.574397229131012" id="-32074">
		<tag k="name" v="Øvre Tveitjønn" />
		<tag k="natural" v="water" />
		<tag k="ssr:stedsnr" v="946203" />
	</node>
	<node lat="59.54291111455981" lon="8.542352778602933" id="-32077">
		<tag k="name" v="Tverråi" />
		<tag k="ssr:stedsnr" v="946884" />
		<tag k="waterway" v="stream" />
	</node>
	<node lat="59.43632500052794" lon="8.821894445810118" id="-32079">
		<tag k="name" v="Romnestjønni" />
		<tag k="natural" v="water" />
		<tag k="ssr:stedsnr" v="947002" />
	</node>
	<node lat="59.45350555627218" lon="8.808502770949541" id="-32080">
		<tag k="name" v="Vefallåkrokane" />
		<tag k="place" v="locality" />
		<tag k="ssr:stedsnr" v="947035" />
	</node>
	<node lat="59.407622219989214" lon="8.76894999202787" id="-32092">
		<tag k="name" v="Blomhaugtjønn" />
		<tag k="natural" v="water" />
		<tag k="ssr:stedsnr" v="947995" />
	</node>
	<node lat="59.536569444527245" lon="8.452838881324919" id="-32093">
		<tag k="name" v="Vardebukti" />
		<tag k="natural" v="bay" />
		<tag k="ssr:stedsnr" v="948127" />
	</node>
	<node lat="59.71701667050021" lon="8.296791658296279" id="-32094">
		<tag k="name" v="Kjærring-hyl" />
		<tag k="place" v="locality" />
		<tag k="ssr:stedsnr" v="948704" />
	</node>
	<node lat="59.687986111509865" lon="8.321655553307163" id="-32095">
		<tag k="name" v="Skinnuttjønn" />
		<tag k="natural" v="water" />
		<tag k="ssr:stedsnr" v="948814" />
	</node>
	<node lat="59.490058334468834" lon="8.802899996264498" id="-32120">
		<tag k="alt_name" v="Eiangsbutjørn" />
		<tag k="name" v="Einungsbutjønn" />
		<tag k="natural" v="water" />
		<tag k="ssr:stedsnr" v="2032" />
	</node>
	<node lat="59.498661112604765" lon="8.672047215085001" id="-32122">
		<tag k="name" v="Tjørnfly" />
		<tag k="place" v="locality" />
		<tag k="ssr:stedsnr" v="2049" />
	</node>
	<node lat="59.45624444412076" lon="8.797375008580815" id="-32130">
		<tag k="alt_name" v="Høystaultjørni" />
		<tag k="name" v="Høystaultjønni" />
		<tag k="natural" v="water" />
		<tag k="ssr:stedsnr" v="2087" />
	</node>
	<node lat="59.45742222336286" lon="8.83720556362769" id="-32131">
		<tag k="alt_name" v="Tjørnstaultjørni" />
		<tag k="name" v="Tjønnstaultjønni" />
		<tag k="natural" v="water" />
		<tag k="ssr:stedsnr" v="2094" />
	</node>
	<node lat="59.46036666906617" lon="8.784444437296553" id="-32132">
		<tag k="alt_name" v="Uddetjørn" />
		<tag k="name" v="Uddetjønn" />
		<tag k="natural" v="water" />
		<tag k="ssr:stedsnr" v="2100" />
	</node>
	<node lat="59.527286107520986" lon="8.508844442738946" id="-32137">
		<tag k="name" v="Grasdalsvatnet" />
		<tag k="natural" v="water" />
		<tag k="ssr:stedsnr" v="3051" />
	</node>
	<node lat="59.71504444596016" lon="8.286988890859421" id="-32149">
		<tag k="alt_name" v="Lonbakktjørni" />
		<tag k="name" v="Lonebakktjønni" />
		<tag k="natural" v="water" />
		<tag k="ssr:stedsnr" v="3176" />
	</node>
	<node lat="59.62536666827094" lon="8.317952769707462" id="-32155">
		<tag k="alt_name" v="Breiddaltjørn" />
		<tag k="name" v="Breidaltjønni" />
		<tag k="natural" v="water" />
		<tag k="ssr:stedsnr" v="3264" />
	</node>
	<node lat="59.65208889030003" lon="8.402902785123608" id="-32158">
		<tag k="alt_name" v="Tjuvesontjørni" />
		<tag k="name" v="Tjovesundtjønni" />
		<tag k="natural" v="water" />
		<tag k="ssr:stedsnr" v="3328" />
	</node>
	<node lat="59.4352472246978" lon="8.813933331210594" id="-32173">
		<tag k="name" v="Vesle Ikornholet" />
		<tag k="natural" v="bay" />
		<tag k="ssr:stedsnr" v="36199" />
	</node>
	<node lat="59.439311115153274" lon="8.764863894784792" id="-32176">
		<tag k="name" v="Heggeneskilen" />
		<tag k="natural" v="bay" />
		<tag k="ssr:stedsnr" v="36129" />
	</node>
	<node lat="59.689908329812" lon="8.429500008566084" id="-32190">
		<tag k="name" v="Morgestaultjønni" />
		<tag k="natural" v="water" />
		<tag k="ssr:stedsnr" v="36930" />
	</node>
	<node lat="59.49636388483214" lon="8.712802770048883" id="-32194">
		<tag k="name" v="Breidalstjønn" />
		<tag k="natural" v="water" />
		<tag k="ssr:stedsnr" v="36554" />
	</node>
	<node lat="59.552677780704904" lon="8.404222214528945" id="-32200">
		<tag k="name" v="Granadalsbukti" />
		<tag k="natural" v="bay" />
		<tag k="ssr:stedsnr" v="37142" />
	</node>
</osm>
