<?xml version="1.0" encoding="UTF-8"?>
<osm version="0.6" generator="osmapis">
	<node lat="59.5019166697458" lon="8.56072499388593" id="-30560">
		<tag k="name" v="Hanakamgjuvet" />
		<tag k="natural" v="valley" />
		<tag k="place" v="locality" />
		<tag k="ssr:stedsnr" v="3028" />
	</node>
	<node lat="59.50450000392864" lon="8.713913892589277" id="-30561">
		<tag k="fixme" v="consider natural=peak for the most distinct mountains in the district" />
		<tag k="name" v="Geitekyrkja" />
		<tag k="natural" v="hill" />
		<tag k="place" v="locality" />
		<tag k="ssr:stedsnr" v="3033" />
	</node>
	<node lat="59.51248055847025" lon="8.57150278259132" id="-30563">
		<tag k="name" v="Hellberglii" />
		<tag k="natural" v="slope" />
		<tag k="place" v="locality" />
		<tag k="ssr:stedsnr" v="3043" />
	</node>
	<node lat="59.401133334318864" lon="8.67711110573226" id="-30565">
		<tag k="name" v="Fjellstauldalen" />
		<tag k="natural" v="valley" />
		<tag k="place" v="locality" />
		<tag k="ssr:stedsnr" v="2971" />
	</node>
	<node lat="59.635169445993625" lon="8.259027776440343" id="-30583">
		<tag k="fixme" v="consider natural=peak for the most distinct mountains in the district" />
		<tag k="name" v="Rohovet" />
		<tag k="natural" v="hill" />
		<tag k="place" v="locality" />
		<tag k="ssr:stedsnr" v="31468" />
	</node>
	<node lat="59.44170555236606" lon="8.619374996167046" id="-30584">
		<tag k="name" v="Grønlihaddi" />
		<tag k="natural" v="slope" />
		<tag k="place" v="locality" />
		<tag k="ssr:stedsnr" v="35365" />
	</node>
	<node lat="59.413488892111026" lon="8.663474996632091" id="-30585">
		<tag k="name" v="Færstaulliane" />
		<tag k="natural" v="slope" />
		<tag k="place" v="locality" />
		<tag k="ssr:stedsnr" v="36013" />
	</node>
	<node lat="59.50736944482994" lon="8.546888880492288" id="-30587">
		<tag k="name" v="Trassimotkåsi" />
		<tag k="natural" v="hill" />
		<tag k="place" v="locality" />
		<tag k="ssr:stedsnr" v="36025" />
	</node>
	<node lat="59.46453333308799" lon="8.809925002932413" id="-30589">
		<tag k="name" v="Stakalidjuvet" />
		<tag k="natural" v="gorge" />
		<tag k="ssr:stedsnr" v="36034" />
	</node>
	<node lat="59.438869446103965" lon="8.831513881718884" id="-30591">
		<tag k="name" v="Styggedal" />
		<tag k="natural" v="valley" />
		<tag k="place" v="locality" />
		<tag k="ssr:stedsnr" v="36006" />
	</node>
	<node lat="59.37261666945705" lon="8.848908334395905" id="-30595">
		<tag k="name" v="Godthol" />
		<tag k="natural" v="valley" />
		<tag k="place" v="locality" />
		<tag k="ssr:stedsnr" v="36179" />
	</node>
	<node lat="59.370105553227" lon="8.848205548190379" id="-30596">
		<tag k="name" v="Rogndalsmåni" />
		<tag k="natural" v="hill" />
		<tag k="place" v="locality" />
		<tag k="ssr:stedsnr" v="36181" />
	</node>
	<node lat="59.51953889322375" lon="8.594450001215089" id="-30598">
		<tag k="fixme" v="consider natural=peak for the most distinct mountains in the district" />
		<tag k="name" v="Skorvetoppen" />
		<tag k="natural" v="hill" />
		<tag k="place" v="locality" />
		<tag k="ssr:stedsnr" v="36206" />
	</node>
	<node lat="59.52715833496683" lon="8.68319999877274" id="-30600">
		<tag k="name" v="Halvfarslid" />
		<tag k="natural" v="slope" />
		<tag k="place" v="locality" />
		<tag k="ssr:stedsnr" v="36502" />
	</node>
	<node lat="59.4444916684956" lon="8.688422221581625" id="-30601">
		<tag k="name" v="Storstaulhovet" />
		<tag k="natural" v="hill" />
		<tag k="place" v="locality" />
		<tag k="ssr:stedsnr" v="36704" />
	</node>
	<node lat="59.70627777755621" lon="8.396372226229063" id="-30605">
		<tag k="name" v="Brekkegrøe" />
		<tag k="natural" v="slope" />
		<tag k="place" v="locality" />
		<tag k="ssr:stedsnr" v="36960" />
	</node>
	<node lat="59.704186112806696" lon="8.406869445798295" id="-30606">
		<tag k="name" v="Klovsteinane" />
		<tag k="place" v="locality" />
		<tag k="ssr:stedsnr" v="36965" />
	</node>
	<node lat="59.63152500188942" lon="8.435913889345404" id="-30611">
		<tag k="fixme" v="consider natural=peak for the most distinct mountains in the district" />
		<tag k="name" v="Nystaulnuten" />
		<tag k="natural" v="hill" />
		<tag k="place" v="locality" />
		<tag k="ssr:stedsnr" v="37017" />
	</node>
	<node lat="59.50385000210871" lon="8.647927769657176" id="-30615">
		<tag k="name" v="Tussejuv" />
		<tag k="natural" v="gorge" />
		<tag k="ssr:stedsnr" v="37671" />
	</node>
	<node lat="59.58576389216884" lon="8.39786388033333" id="-30620">
		<tag k="name" v="Lislokdalan" />
		<tag k="natural" v="valley" />
		<tag k="place" v="locality" />
		<tag k="ssr:stedsnr" v="38009" />
	</node>
	<node lat="59.5992805549954" lon="8.362419441552671" id="-30630">
		<tag k="name" v="Øyåshaugen" />
		<tag k="natural" v="hill" />
		<tag k="place" v="locality" />
		<tag k="ssr:stedsnr" v="42201" />
	</node>
	<node lat="59.60543889136833" lon="8.363049991949396" id="-30632">
		<tag k="name" v="Murukleivjuvet" />
		<tag k="natural" v="gorge" />
		<tag k="ssr:stedsnr" v="42206" />
	</node>
	<node lat="59.57923055650175" lon="8.279627775303618" id="-30634">
		<tag k="name" v="Birkestaul-lian" />
		<tag k="natural" v="slope" />
		<tag k="place" v="locality" />
		<tag k="ssr:stedsnr" v="42374" />
	</node>
	<node lat="59.4980722202201" lon="8.681077781651021" id="-30637">
		<tag k="name" v="Borkebudalen" />
		<tag k="natural" v="valley" />
		<tag k="place" v="locality" />
		<tag k="ssr:stedsnr" v="63064" />
	</node>
	<node lat="59.51515555975698" lon="8.590730556372009" id="-30638">
		<tag k="fixme" v="consider natural=peak for the most distinct mountains in the district" />
		<tag k="name" v="Langfjellhallin" />
		<tag k="natural" v="hill" />
		<tag k="place" v="locality" />
		<tag k="ssr:stedsnr" v="63066" />
	</node>
	<node lat="59.38541110790915" lon="8.805305553600395" id="-30643">
		<tag k="fixme" v="consider natural=peak for the most distinct mountains in the district" />
		<tag k="name" v="Rispemyrkollen" />
		<tag k="natural" v="hill" />
		<tag k="place" v="locality" />
		<tag k="ssr:stedsnr" v="63771" />
	</node>
	<node lat="59.53143888542184" lon="8.577486112227335" id="-30645">
		<tag k="name" v="Bjørndalen" />
		<tag k="natural" v="valley" />
		<tag k="place" v="locality" />
		<tag k="ssr:stedsnr" v="64110" />
	</node>
	<node lat="59.68013333438256" lon="8.382647226478511" id="-30646">
		<tag k="alt_name" v="Brattgrønuten" />
		<tag k="fixme" v="consider natural=peak for the most distinct mountains in the district" />
		<tag k="name" v="Brattegrønuten" />
		<tag k="natural" v="hill" />
		<tag k="place" v="locality" />
		<tag k="ssr:stedsnr" v="64127" />
	</node>
	<node lat="59.67681111254445" lon="8.236238887090238" id="-30648">
		<tag k="alt_name" v="Søllidalen" />
		<tag k="name" v="Sollidalen" />
		<tag k="natural" v="valley" />
		<tag k="place" v="locality" />
		<tag k="ssr:stedsnr" v="64130" />
	</node>
	<node lat="59.59688333307226" lon="8.267408335580134" id="-30656">
		<tag k="alt_name" v="Stabben" />
		<tag k="fixme" v="consider natural=peak for the most distinct mountains in the district" />
		<tag k="name" v="Stabbenuten" />
		<tag k="natural" v="hill" />
		<tag k="place" v="locality" />
		<tag k="ssr:stedsnr" v="64467" />
	</node>
	<node lat="59.571911106939936" lon="8.479697220988658" id="-30661">
		<tag k="fixme" v="consider natural=peak for the most distinct mountains in the district" />
		<tag k="name" v="Mjøltenuten" />
		<tag k="natural" v="hill" />
		<tag k="place" v="locality" />
		<tag k="ssr:stedsnr" v="64906" />
	</node>
	<node lat="59.58321389076504" lon="8.598475005729037" id="-30664">
		<tag k="alt_name" v="Dalanuten" />
		<tag k="fixme" v="consider natural=peak for the most distinct mountains in the district" />
		<tag k="name" v="Dålånuten" />
		<tag k="natural" v="hill" />
		<tag k="place" v="locality" />
		<tag k="ssr:stedsnr" v="64918" />
	</node>
	<node lat="59.498266667943824" lon="8.775619441570012" id="-30669">
		<tag k="alt_name" v="Blomtjørneggi" />
		<tag k="fixme" v="consider natural=peak for the most distinct mountains in the district" />
		<tag k="name" v="Blomtjønneggin" />
		<tag k="natural" v="hill" />
		<tag k="place" v="locality" />
		<tag k="ssr:stedsnr" v="245045" />
	</node>
	<node lat="59.52805278057629" lon="8.52797221448168" id="-30670">
		<tag k="alt_name" v="Hestnutan" />
		<tag k="fixme" v="consider natural=peak for the most distinct mountains in the district" />
		<tag k="name" v="Hestenutan" />
		<tag k="natural" v="hill" />
		<tag k="place" v="locality" />
		<tag k="ssr:stedsnr" v="245049" />
	</node>
	<node lat="59.71724999931386" lon="8.35533332564347" id="-30675">
		<tag k="fixme" v="consider natural=peak for the most distinct mountains in the district" />
		<tag k="name" v="Viernuten" />
		<tag k="natural" v="hill" />
		<tag k="place" v="locality" />
		<tag k="ssr:stedsnr" v="245197" />
	</node>
	<node lat="59.71997222088515" lon="8.409133341760294" id="-30676">
		<tag k="name" v="Breiddal" />
		<tag k="natural" v="valley" />
		<tag k="place" v="locality" />
		<tag k="ssr:stedsnr" v="245201" />
	</node>
	<node lat="59.45671944222088" lon="8.870311107599449" id="-30683">
		<tag k="alt_name" v="Kaldalsfjellet" />
		<tag k="fixme" v="consider natural=peak for the most distinct mountains in the district" />
		<tag k="name" v="Kalddalsfjellet" />
		<tag k="natural" v="hill" />
		<tag k="place" v="locality" />
		<tag k="ssr:stedsnr" v="245460" />
	</node>
	<node lat="59.374511110655234" lon="8.841394441063851" id="-30688">
		<tag k="alt_name" v="Godtholnut" />
		<tag k="fixme" v="consider natural=peak for the most distinct mountains in the district" />
		<tag k="name" v="Godtholnuten" />
		<tag k="natural" v="hill" />
		<tag k="place" v="locality" />
		<tag k="ssr:stedsnr" v="245775" />
	</node>
	<node lat="59.60011944763935" lon="8.556375004438054" id="-30689">
		<tag k="name" v="Åsmyrdalen" />
		<tag k="natural" v="valley" />
		<tag k="place" v="locality" />
		<tag k="ssr:stedsnr" v="245867" />
	</node>
	<node lat="59.40615555367521" lon="8.779019451175404" id="-30692">
		<tag k="alt_name" v="Blomhaugjuvet" />
		<tag k="name" v="Blomhauggjuvet" />
		<tag k="natural" v="valley" />
		<tag k="place" v="locality" />
		<tag k="ssr:stedsnr" v="245980" />
	</node>
	<node lat="59.41196666233245" lon="8.697622225156426" id="-30695">
		<tag k="fixme" v="consider natural=peak for the most distinct mountains in the district" />
		<tag k="name" v="Murtedalsfjellet" />
		<tag k="natural" v="hill" />
		<tag k="place" v="locality" />
		<tag k="ssr:stedsnr" v="245937" />
	</node>
	<node lat="59.61978055171213" lon="8.388947226246566" id="-30699">
		<tag k="fixme" v="consider natural=peak for the most distinct mountains in the district" />
		<tag k="name" v="Fjellbraut" />
		<tag k="natural" v="hill" />
		<tag k="place" v="locality" />
		<tag k="ssr:stedsnr" v="246294" />
	</node>
	<node lat="59.7087500005339" lon="8.244894452084473" id="-30701">
		<tag k="alt_name" v="Skarsnut" />
		<tag k="fixme" v="consider natural=peak for the most distinct mountains in the district" />
		<tag k="name" v="Skardsnut" />
		<tag k="natural" v="hill" />
		<tag k="place" v="locality" />
		<tag k="ssr:stedsnr" v="246201" />
	</node>
	<node lat="59.635961108400814" lon="8.410077769511528" id="-30702">
		<tag k="alt_name" v="Ravnnuten" />
		<tag k="fixme" v="consider natural=peak for the most distinct mountains in the district" />
		<tag k="name" v="Ramnuten" />
		<tag k="natural" v="hill" />
		<tag k="place" v="locality" />
		<tag k="ssr:stedsnr" v="246333" />
	</node>
	<node lat="59.667261112754986" lon="8.383627769733094" id="-30703">
		<tag k="alt_name" v="Finnlidnut" />
		<tag k="fixme" v="consider natural=peak for the most distinct mountains in the district" />
		<tag k="name" v="Finnlinuten" />
		<tag k="natural" v="hill" />
		<tag k="place" v="locality" />
		<tag k="ssr:stedsnr" v="246349" />
	</node>
	<node lat="59.66645555333086" lon="8.464336115880938" id="-30704">
		<tag k="fixme" v="consider natural=peak for the most distinct mountains in the district" />
		<tag k="name" v="Skinnuten" />
		<tag k="natural" v="hill" />
		<tag k="place" v="locality" />
		<tag k="ssr:stedsnr" v="246352" />
	</node>
	<node lat="59.60389999982285" lon="8.496249995638072" id="-30705">
		<tag k="fixme" v="consider natural=peak for the most distinct mountains in the district" />
		<tag k="name" v="Kvassfjell" />
		<tag k="natural" v="hill" />
		<tag k="place" v="locality" />
		<tag k="ssr:stedsnr" v="246858" />
	</node>
	<node lat="59.560844445469904" lon="8.470027782733863" id="-30711">
		<tag k="name" v="Krossdalen" />
		<tag k="natural" v="valley" />
		<tag k="place" v="locality" />
		<tag k="ssr:stedsnr" v="246944" />
	</node>
	<node lat="59.53759722197756" lon="8.57129999958059" id="-30712">
		<tag k="alt_name" v="Fagerlian" />
		<tag k="name" v="Store Fagerli" />
		<tag k="natural" v="slope" />
		<tag k="place" v="locality" />
		<tag k="ssr:stedsnr" v="246959" />
	</node>
	<node lat="59.51871990680064" lon="8.77952065928916" id="-30713">
		<tag k="fixme" v="consider natural=peak for the most distinct mountains in the district" />
		<tag k="name" v="Røysdalsnuten" />
		<tag k="natural" v="hill" />
		<tag k="place" v="locality" />
		<tag k="ssr:stedsnr" v="246989" />
	</node>
	<node lat="59.75873611347826" lon="8.391272225193596" id="-30717">
		<tag k="fixme" v="consider natural=peak for the most distinct mountains in the district" />
		<tag k="name" v="Mefjell" />
		<tag k="natural" v="hill" />
		<tag k="place" v="locality" />
		<tag k="ssr:stedsnr" v="247100" />
	</node>
	<node lat="59.5042527785207" lon="8.54761666129197" id="-30720">
		<tag k="name" v="Pikhaug" />
		<tag k="natural" v="hill" />
		<tag k="place" v="locality" />
		<tag k="ssr:stedsnr" v="97019" />
	</node>
	<node lat="59.452641666954456" lon="8.833597230854172" id="-30721">
		<tag k="name" v="Grisesteinskotet" />
		<tag k="natural" v="cliff" />
		<tag k="ssr:stedsnr" v="97067" />
	</node>
	<node lat="59.47714722153129" lon="8.743088886984605" id="-30722">
		<tag k="name" v="Krossjuvet" />
		<tag k="natural" v="gorge" />
		<tag k="ssr:stedsnr" v="97122" />
	</node>
	<node lat="59.644461110183165" lon="8.437741660181478" id="-30727">
		<tag k="name" v="Skarstauldalen" />
		<tag k="natural" v="valley" />
		<tag k="place" v="locality" />
		<tag k="ssr:stedsnr" v="97519" />
	</node>
	<node lat="59.6427833340772" lon="8.43726110845353" id="-30728">
		<tag k="fixme" v="consider natural=peak for the most distinct mountains in the district" />
		<tag k="name" v="Skarstaulgeitan" />
		<tag k="natural" v="hill" />
		<tag k="place" v="locality" />
		<tag k="ssr:stedsnr" v="97522" />
	</node>
	<node lat="59.59451111496541" lon="8.553441669303869" id="-30730">
		<tag k="name" v="Siljuhovd" />
		<tag k="natural" v="hill" />
		<tag k="place" v="locality" />
		<tag k="ssr:stedsnr" v="97823" />
	</node>
	<node lat="59.35840555431093" lon="8.853691666455168" id="-30740">
		<tag k="name" v="Midtdalen" />
		<tag k="natural" v="valley" />
		<tag k="place" v="locality" />
		<tag k="ssr:stedsnr" v="98176" />
	</node>
	<node lat="59.4196694446938" lon="8.803838889173123" id="-30744">
		<tag k="name" v="Lauvdalane" />
		<tag k="natural" v="valley" />
		<tag k="place" v="locality" />
		<tag k="ssr:stedsnr" v="98911" />
	</node>
	<node lat="59.66973611216529" lon="8.290569437182974" id="-30747">
		<tag k="fixme" v="consider natural=peak for the most distinct mountains in the district" />
		<tag k="name" v="Geit-kyrkja" />
		<tag k="natural" v="hill" />
		<tag k="place" v="locality" />
		<tag k="ssr:stedsnr" v="99170" />
	</node>
	<node lat="59.69702222057507" lon="8.337283327465103" id="-30751">
		<tag k="name" v="Skuldalsflottin" />
		<tag k="place" v="locality" />
		<tag k="ssr:stedsnr" v="99723" />
	</node>
	<node lat="59.70460278045637" lon="8.245133340369522" id="-30754">
		<tag k="name" v="Skarstauljuvet" />
		<tag k="natural" v="gorge" />
		<tag k="ssr:stedsnr" v="103231" />
	</node>
	<node lat="59.58819444537068" lon="8.362569449327015" id="-30757">
		<tag k="name" v="Meallsbergi" />
		<tag k="natural" v="slope" />
		<tag k="place" v="locality" />
		<tag k="ssr:stedsnr" v="104118" />
	</node>
	<node lat="59.4989083373662" lon="8.594938884220442" id="-30759">
		<tag k="name" v="Kivledalen" />
		<tag k="natural" v="valley" />
		<tag k="place" v="locality" />
		<tag k="ssr:stedsnr" v="123065" />
	</node>
	<node lat="59.46239160130999" lon="8.62855737162241" id="-30760">
		<tag k="alt_name" v="Sandnuten" />
		<tag k="fixme" v="consider natural=peak for the most distinct mountains in the district" />
		<tag k="name" v="Sandnut" />
		<tag k="natural" v="hill" />
		<tag k="place" v="locality" />
		<tag k="ssr:stedsnr" v="123109" />
	</node>
	<node lat="59.49010555982894" lon="8.888227777709442" id="-30763">
		<tag k="alt_name" v="Jøron-natten" />
		<tag k="fixme" v="consider natural=peak for the most distinct mountains in the district" />
		<tag k="name" v="Jøronnatten" />
		<tag k="natural" v="hill" />
		<tag k="place" v="locality" />
		<tag k="ssr:stedsnr" v="123633" />
	</node>
	<node lat="59.41031388640382" lon="8.72948333144783" id="-30767">
		<tag k="fixme" v="consider natural=peak for the most distinct mountains in the district" />
		<tag k="name" v="Napanuten" />
		<tag k="natural" v="hill" />
		<tag k="place" v="locality" />
		<tag k="ssr:stedsnr" v="123957" />
	</node>
	<node lat="59.36537499581643" lon="8.809766669597526" id="-30770">
		<tag k="alt_name" v="Karsteinliane" />
		<tag k="name" v="Karisteinlian" />
		<tag k="natural" v="slope" />
		<tag k="place" v="locality" />
		<tag k="ssr:stedsnr" v="123810" />
	</node>
	<node lat="59.666127781405244" lon="8.422663885228522" id="-30774">
		<tag k="name" v="Djupedokk" />
		<tag k="natural" v="valley" />
		<tag k="place" v="locality" />
		<tag k="ssr:stedsnr" v="124308" />
	</node>
	<node lat="59.590708330909294" lon="8.45773055139309" id="-30777">
		<tag k="fixme" v="consider natural=peak for the most distinct mountains in the district" />
		<tag k="name" v="Storås" />
		<tag k="natural" v="hill" />
		<tag k="place" v="locality" />
		<tag k="ssr:stedsnr" v="124408" />
	</node>
	<node lat="59.606211110216755" lon="8.546230550001553" id="-30780">
		<tag k="alt_name" v="Barstadhovi" />
		<tag k="fixme" v="consider natural=peak for the most distinct mountains in the district" />
		<tag k="name" v="Barstadhovet" />
		<tag k="natural" v="hill" />
		<tag k="place" v="locality" />
		<tag k="ssr:stedsnr" v="124718" />
	</node>
	<node lat="59.58578888525247" lon="8.468666659536773" id="-30784">
		<tag k="fixme" v="consider natural=peak for the most distinct mountains in the district" />
		<tag k="name" v="Mjølteskardsnuten" />
		<tag k="natural" v="hill" />
		<tag k="place" v="locality" />
		<tag k="ssr:stedsnr" v="124872" />
	</node>
	<node lat="59.56255555794496" lon="8.482425004695873" id="-30787">
		<tag k="name" v="Slemgjuvet" />
		<tag k="natural" v="valley" />
		<tag k="place" v="locality" />
		<tag k="ssr:stedsnr" v="124954" />
	</node>
	<node lat="59.56963332915608" lon="8.487536119931201" id="-30788">
		<tag k="name" v="Vermedalen" />
		<tag k="natural" v="valley" />
		<tag k="place" v="locality" />
		<tag k="ssr:stedsnr" v="124955" />
	</node>
	<node lat="59.49923610867578" lon="8.505149995493893" id="-30791">
		<tag k="name" v="Kalkjuvet" />
		<tag k="natural" v="gorge" />
		<tag k="ssr:stedsnr" v="157002" />
	</node>
	<node lat="59.430636107607825" lon="8.705741671850136" id="-30796">
		<tag k="fixme" v="consider natural=peak for the most distinct mountains in the district" />
		<tag k="name" v="Eggjestaulmåni" />
		<tag k="natural" v="hill" />
		<tag k="place" v="locality" />
		<tag k="ssr:stedsnr" v="157612" />
	</node>
	<node lat="59.435097226316216" lon="8.682469437012045" id="-30797">
		<tag k="fixme" v="consider natural=peak for the most distinct mountains in the district" />
		<tag k="name" v="Grønlimåni" />
		<tag k="natural" v="hill" />
		<tag k="place" v="locality" />
		<tag k="ssr:stedsnr" v="157619" />
	</node>
	<node lat="59.529611110875635" lon="8.639961111399254" id="-30799">
		<tag k="name" v="Strand" />
		<tag k="natural" v="slope" />
		<tag k="place" v="locality" />
		<tag k="ssr:stedsnr" v="157704" />
	</node>
	<node lat="59.41843611300468" lon="8.747230554794614" id="-30809">
		<tag k="name" v="Tægjemyrrennun" />
		<tag k="natural" v="valley" />
		<tag k="place" v="locality" />
		<tag k="ssr:stedsnr" v="158999" />
	</node>
	<node lat="59.54641111448041" lon="8.487066658649562" id="-30810">
		<tag k="name" v="Breikvamfjell" />
		<tag k="natural" v="hill" />
		<tag k="place" v="locality" />
		<tag k="ssr:stedsnr" v="159116" />
	</node>
	<node lat="59.5824694479386" lon="8.393013893465925" id="-30811">
		<tag k="name" v="Pikhetta" />
		<tag k="natural" v="hill" />
		<tag k="place" v="locality" />
		<tag k="ssr:stedsnr" v="159012" />
	</node>
	<node lat="59.6337944486725" lon="8.501822222269983" id="-30813">
		<tag k="name" v="Minnesjorddalen" />
		<tag k="natural" v="valley" />
		<tag k="place" v="locality" />
		<tag k="ssr:stedsnr" v="159305" />
	</node>
	<node lat="59.70398332981726" lon="8.29375555962017" id="-30814">
		<tag k="fixme" v="consider natural=peak for the most distinct mountains in the district" />
		<tag k="name" v="Regnåsan" />
		<tag k="natural" v="hill" />
		<tag k="place" v="locality" />
		<tag k="ssr:stedsnr" v="159721" />
	</node>
	<node lat="59.58809721878359" lon="8.301088893254212" id="-30819">
		<tag k="name" v="Ramåsmyrlian" />
		<tag k="natural" v="slope" />
		<tag k="place" v="locality" />
		<tag k="ssr:stedsnr" v="163359" />
	</node>
	<node lat="59.597283336869836" lon="8.282916662463172" id="-30820">
		<tag k="name" v="Gjeldfisksteinen" />
		<tag k="place" v="locality" />
		<tag k="ssr:stedsnr" v="163377" />
	</node>
	<node lat="59.6046972208536" lon="8.322247220716395" id="-30821">
		<tag k="name" v="Gokkstaulskaret" />
		<tag k="natural" v="valley" />
		<tag k="place" v="locality" />
		<tag k="ssr:stedsnr" v="163381" />
	</node>
	<node lat="59.65434999807961" lon="8.33555834095757" id="-30823">
		<tag k="name" v="Sloklii" />
		<tag k="natural" v="slope" />
		<tag k="place" v="locality" />
		<tag k="ssr:stedsnr" v="164119" />
	</node>
	<node lat="59.650286114174534" lon="8.33987221939123" id="-30825">
		<tag k="fixme" v="consider natural=peak for the most distinct mountains in the district" />
		<tag k="name" v="Nystaulnut" />
		<tag k="natural" v="hill" />
		<tag k="place" v="locality" />
		<tag k="ssr:stedsnr" v="164121" />
	</node>
	<node lat="59.58616944492996" lon="8.27063334078944" id="-30828">
		<tag k="fixme" v="consider natural=peak for the most distinct mountains in the district" />
		<tag k="name" v="Liljaråsen" />
		<tag k="natural" v="hill" />
		<tag k="place" v="locality" />
		<tag k="ssr:stedsnr" v="164409" />
	</node>
	<node lat="59.49409166692296" lon="8.575511114563795" id="-30831">
		<tag k="fixme" v="consider natural=peak for the most distinct mountains in the district" />
		<tag k="name" v="Flanaråsen" />
		<tag k="natural" v="hill" />
		<tag k="place" v="locality" />
		<tag k="ssr:stedsnr" v="184036" />
	</node>
	<node lat="59.47854722538228" lon="8.862422225838312" id="-30838">
		<tag k="fixme" v="consider natural=peak for the most distinct mountains in the district" />
		<tag k="name" v="Grønkleivnuten" />
		<tag k="natural" v="hill" />
		<tag k="place" v="locality" />
		<tag k="ssr:stedsnr" v="184620" />
	</node>
	<node lat="59.426458336197484" lon="8.609200000739493" id="-30845">
		<tag k="fixme" v="consider natural=peak for the most distinct mountains in the district" />
		<tag k="name" v="Kishov" />
		<tag k="natural" v="hill" />
		<tag k="place" v="locality" />
		<tag k="ssr:stedsnr" v="184901" />
	</node>
	<node lat="59.64865234450597" lon="8.32113239441625" id="-30848">
		<tag k="alt_name" v="Alvanibba" />
		<tag k="fixme" v="consider natural=peak for the most distinct mountains in the district" />
		<tag k="name" v="Halvfarsnibba" />
		<tag k="natural" v="hill" />
		<tag k="place" v="locality" />
		<tag k="ssr:stedsnr" v="185306" />
	</node>
	<node lat="59.67354999792963" lon="8.40832499459521" id="-30849">
		<tag k="fixme" v="consider natural=peak for the most distinct mountains in the district" />
		<tag k="name" v="Gryvlun" />
		<tag k="natural" v="hill" />
		<tag k="place" v="locality" />
		<tag k="ssr:stedsnr" v="185328" />
	</node>
	<node lat="59.664794440092386" lon="8.235747221248918" id="-30850">
		<tag k="fixme" v="consider natural=peak for the most distinct mountains in the district" />
		<tag k="name" v="Heidalsnutan" />
		<tag k="natural" v="hill" />
		<tag k="place" v="locality" />
		<tag k="ssr:stedsnr" v="185332" />
	</node>
	<node lat="59.661100000685536" lon="8.407363885820802" id="-30852">
		<tag k="name" v="Finnebudalen" />
		<tag k="natural" v="valley" />
		<tag k="place" v="locality" />
		<tag k="ssr:stedsnr" v="185344" />
	</node>
	<node lat="59.472027774029826" lon="8.525933338274138" id="-30853">
		<tag k="fixme" v="consider natural=peak for the most distinct mountains in the district" />
		<tag k="name" v="Bjørndalsfjellet" />
		<tag k="natural" v="hill" />
		<tag k="place" v="locality" />
		<tag k="ssr:stedsnr" v="185030" />
	</node>
	<node lat="59.53871944660484" lon="8.541763896671439" id="-30864">
		<tag k="name" v="Neverdal" />
		<tag k="natural" v="valley" />
		<tag k="place" v="locality" />
		<tag k="ssr:stedsnr" v="185958" />
	</node>
	<node lat="59.78313611208434" lon="8.327661113123721" id="-30865">
		<tag k="fixme" v="consider natural=peak for the most distinct mountains in the district" />
		<tag k="name" v="Grasfjell" />
		<tag k="natural" v="hill" />
		<tag k="place" v="locality" />
		<tag k="ssr:stedsnr" v="186083" />
	</node>
	<node lat="59.75743888678142" lon="8.401086113233422" id="-30867">
		<tag k="fixme" v="consider natural=peak for the most distinct mountains in the district" />
		<tag k="name" v="Robekknuten" />
		<tag k="natural" v="hill" />
		<tag k="place" v="locality" />
		<tag k="ssr:stedsnr" v="270402" />
	</node>
	<node lat="59.366397225567596" lon="8.82189721631966" id="-30868">
		<tag k="name" v="Nystaulhaugane" />
		<tag k="natural" v="hill" />
		<tag k="place" v="locality" />
		<tag k="ssr:stedsnr" v="216209" />
	</node>
	<node lat="59.44926110784046" lon="8.757252777291981" id="-30870">
		<tag k="name" v="Eisdalen" />
		<tag k="natural" v="valley" />
		<tag k="place" v="locality" />
		<tag k="ssr:stedsnr" v="217104" />
	</node>
	<node lat="59.460722219248275" lon="8.565736116492818" id="-30871">
		<tag k="name" v="Meåsdalen" />
		<tag k="natural" v="valley" />
		<tag k="place" v="locality" />
		<tag k="ssr:stedsnr" v="218226" />
	</node>
	<node lat="59.65157500364438" lon="8.414038892450213" id="-30872">
		<tag k="fixme" v="consider natural=peak for the most distinct mountains in the district" />
		<tag k="name" v="Svartenut" />
		<tag k="natural" v="hill" />
		<tag k="place" v="locality" />
		<tag k="ssr:stedsnr" v="218480" />
	</node>
	<node lat="59.42844166966986" lon="8.703677776491862" id="-30876">
		<tag k="name" v="Eggjestaulliane" />
		<tag k="natural" v="slope" />
		<tag k="place" v="locality" />
		<tag k="ssr:stedsnr" v="218628" />
	</node>
	<node lat="59.668947226270056" lon="8.394447229464252" id="-30878">
		<tag k="name" v="Merdedalen" />
		<tag k="natural" v="valley" />
		<tag k="place" v="locality" />
		<tag k="ssr:stedsnr" v="218502" />
	</node>
	<node lat="59.485927781479155" lon="8.67274445152162" id="-30879">
		<tag k="fixme" v="consider natural=peak for the most distinct mountains in the district" />
		<tag k="name" v="Bjørgefjell" />
		<tag k="natural" v="hill" />
		<tag k="place" v="locality" />
		<tag k="ssr:stedsnr" v="218505" />
	</node>
	<node lat="59.60050277450899" lon="8.551399995150586" id="-30883">
		<tag k="name" v="Åsmyrdalen" />
		<tag k="natural" v="valley" />
		<tag k="place" v="locality" />
		<tag k="ssr:stedsnr" v="219024" />
	</node>
	<node lat="59.35171666495713" lon="8.881408325797183" id="-30889">
		<tag k="fixme" v="consider natural=peak for the most distinct mountains in the district" />
		<tag k="name" v="Deildenuten" />
		<tag k="natural" v="hill" />
		<tag k="place" v="locality" />
		<tag k="ssr:stedsnr" v="219190" />
	</node>
	<node lat="59.491991669907804" lon="8.64815555524691" id="-30895">
		<tag k="name" v="Lindalen" />
		<tag k="natural" v="valley" />
		<tag k="place" v="locality" />
		<tag k="ssr:stedsnr" v="219689" />
	</node>
	<node lat="59.41021110769288" lon="8.819938895428674" id="-30897">
		<tag k="name" v="Sløkedalen" />
		<tag k="natural" v="valley" />
		<tag k="place" v="locality" />
		<tag k="ssr:stedsnr" v="219920" />
	</node>
	<node lat="59.64945555610686" lon="8.29681666660875" id="-30905">
		<tag k="name" v="Sigridsdokk" />
		<tag k="natural" v="valley" />
		<tag k="place" v="locality" />
		<tag k="ssr:stedsnr" v="220324" />
	</node>
	<node lat="59.7212472194216" lon="8.299091657994541" id="-30909">
		<tag k="name" v="Åmotstaul-bakkan" />
		<tag k="natural" v="slope" />
		<tag k="place" v="locality" />
		<tag k="ssr:stedsnr" v="220692" />
	</node>
	<node lat="59.60104166700086" lon="8.461477783605366" id="-30911">
		<tag k="name" v="Stavakleiv" />
		<tag k="natural" v="slope" />
		<tag k="place" v="locality" />
		<tag k="ssr:stedsnr" v="220873" />
	</node>
	<node lat="59.68891667069591" lon="8.287652776653484" id="-30914">
		<tag k="name" v="Meidalen" />
		<tag k="natural" v="valley" />
		<tag k="place" v="locality" />
		<tag k="ssr:stedsnr" v="220783" />
	</node>
	<node lat="59.69382777433656" lon="8.277888885740971" id="-30915">
		<tag k="name" v="Larsonhaug" />
		<tag k="natural" v="hill" />
		<tag k="place" v="locality" />
		<tag k="ssr:stedsnr" v="220785" />
	</node>
	<node lat="59.653738889908134" lon="8.358172225928424" id="-30925">
		<tag k="fixme" v="consider natural=peak for the most distinct mountains in the district" />
		<tag k="name" v="Hårkallen" />
		<tag k="natural" v="hill" />
		<tag k="place" v="locality" />
		<tag k="ssr:stedsnr" v="225011" />
	</node>
	<node lat="59.59444167107568" lon="8.364563893651708" id="-30927">
		<tag k="name" v="Storenut" />
		<tag k="natural" v="hill" />
		<tag k="place" v="locality" />
		<tag k="ssr:stedsnr" v="225086" />
	</node>
	<node lat="59.56183611488171" lon="8.431919449973565" id="-30936">
		<tag k="fixme" v="consider natural=peak for the most distinct mountains in the district" />
		<tag k="name" v="Dalstaulnuten" />
		<tag k="natural" v="hill" />
		<tag k="place" v="locality" />
		<tag k="ssr:stedsnr" v="245414" />
	</node>
	<node lat="59.62723889108139" lon="8.487425008708607" id="-30938">
		<tag k="name" v="Storstauldalen" />
		<tag k="natural" v="valley" />
		<tag k="place" v="locality" />
		<tag k="ssr:stedsnr" v="245722" />
	</node>
	<node lat="59.38359721944071" lon="8.717302775419384" id="-30940">
		<tag k="alt_name" v="Bikkjetjørngjuvet" />
		<tag k="name" v="Bikkjetjønnjuvet" />
		<tag k="natural" v="gorge" />
		<tag k="ssr:stedsnr" v="245727" />
	</node>
	<node lat="59.40704167066996" lon="8.675852771218645" id="-30943">
		<tag k="name" v="Spirdalen" />
		<tag k="natural" v="valley" />
		<tag k="place" v="locality" />
		<tag k="ssr:stedsnr" v="245970" />
	</node>
	<node lat="59.69510278051156" lon="8.369350003016935" id="-30948">
		<tag k="fixme" v="consider natural=peak for the most distinct mountains in the district" />
		<tag k="name" v="Buferdnuten" />
		<tag k="natural" v="hill" />
		<tag k="place" v="locality" />
		<tag k="ssr:stedsnr" v="246148" />
	</node>
	<node lat="59.6512861116534" lon="8.364866667260364" id="-30949">
		<tag k="fixme" v="consider natural=peak for the most distinct mountains in the district" />
		<tag k="name" v="Grovenuten" />
		<tag k="natural" v="hill" />
		<tag k="place" v="locality" />
		<tag k="ssr:stedsnr" v="246305" />
	</node>
	<node lat="59.658027773719354" lon="8.43334444500422" id="-30950">
		<tag k="fixme" v="consider natural=peak for the most distinct mountains in the district" />
		<tag k="name" v="Leirkollan" />
		<tag k="natural" v="hill" />
		<tag k="place" v="locality" />
		<tag k="ssr:stedsnr" v="246363" />
	</node>
	<node lat="59.55323888731719" lon="8.65244445148593" id="-30952">
		<tag k="alt_name" v="Tjørnskard" />
		<tag k="name" v="Tjønnskaret" />
		<tag k="natural" v="valley" />
		<tag k="place" v="locality" />
		<tag k="ssr:stedsnr" v="246914" />
	</node>
	<node lat="59.574452782024764" lon="8.536869439026288" id="-30956">
		<tag k="fixme" v="consider natural=peak for the most distinct mountains in the district" />
		<tag k="name" v="Bindingsnuten" />
		<tag k="natural" v="hill" />
		<tag k="place" v="locality" />
		<tag k="ssr:stedsnr" v="246885" />
	</node>
	<node lat="59.536233329723885" lon="8.5768250019454" id="-30957">
		<tag k="name" v="Lauvhaug" />
		<tag k="natural" v="hill" />
		<tag k="place" v="locality" />
		<tag k="ssr:stedsnr" v="246962" />
	</node>
	<node lat="59.459216664423124" lon="8.870188887093427" id="-30960">
		<tag k="name" v="Tekstedalane" />
		<tag k="natural" v="valley" />
		<tag k="place" v="locality" />
		<tag k="ssr:stedsnr" v="459137" />
	</node>
	<node lat="59.37348333031048" lon="8.831944437300846" id="-30963">
		<tag k="name" v="Kriklefurumyrberget" />
		<tag k="natural" v="hill" />
		<tag k="place" v="locality" />
		<tag k="ssr:stedsnr" v="459223" />
	</node>
	<node lat="59.35877500041608" lon="8.816808338525" id="-30965">
		<tag k="name" v="Hellerhaugane" />
		<tag k="natural" v="hill" />
		<tag k="place" v="locality" />
		<tag k="ssr:stedsnr" v="277215" />
	</node>
	<node lat="59.455116669825664" lon="8.855194436374198" id="-30967">
		<tag k="name" v="Kaldalsjuvet" />
		<tag k="natural" v="gorge" />
		<tag k="ssr:stedsnr" v="278168" />
	</node>
	<node lat="59.41375277497099" lon="8.656608325525125" id="-30969">
		<tag k="name" v="Søndreskot" />
		<tag k="natural" v="cliff" />
		<tag k="ssr:stedsnr" v="279007" />
	</node>
	<node lat="59.50749721845748" lon="8.552241668879379" id="-30970">
		<tag k="name" v="Trassimot-moen" />
		<tag k="place" v="locality" />
		<tag k="ssr:stedsnr" v="279015" />
	</node>
	<node lat="59.381736109984956" lon="8.861083327992429" id="-30971">
		<tag k="name" v="Fetjarstaulskori" />
		<tag k="natural" v="valley" />
		<tag k="place" v="locality" />
		<tag k="ssr:stedsnr" v="279025" />
	</node>
	<node lat="59.442800003487164" lon="8.801636105867809" id="-30975">
		<tag k="name" v="Galdrefloti" />
		<tag k="natural" v="slope" />
		<tag k="place" v="locality" />
		<tag k="ssr:stedsnr" v="279215" />
	</node>
	<node lat="59.38403333357875" lon="8.84895834155067" id="-30976">
		<tag k="name" v="Åstaulskjeret" />
		<tag k="natural" v="valley" />
		<tag k="place" v="locality" />
		<tag k="ssr:stedsnr" v="279218" />
	</node>
	<node lat="59.457441664298884" lon="8.778324991447121" id="-30977">
		<tag k="name" v="Gampeholet" />
		<tag k="natural" v="valley" />
		<tag k="place" v="locality" />
		<tag k="ssr:stedsnr" v="460151" />
	</node>
	<node lat="59.48377777961814" lon="8.834588881556169" id="-30978">
		<tag k="name" v="Storekvelv" />
		<tag k="natural" v="gorge" />
		<tag k="ssr:stedsnr" v="460233" />
	</node>
	<node lat="59.58224722546405" lon="8.59906389243272" id="-30985">
		<tag k="name" v="Sløkjedalen" />
		<tag k="natural" v="valley" />
		<tag k="place" v="locality" />
		<tag k="ssr:stedsnr" v="279813" />
	</node>
	<node lat="59.448644445220324" lon="8.670299996456531" id="-30988">
		<tag k="fixme" v="consider natural=peak for the most distinct mountains in the district" />
		<tag k="name" v="Kommissærnuten" />
		<tag k="natural" v="hill" />
		<tag k="place" v="locality" />
		<tag k="ssr:stedsnr" v="279729" />
	</node>
	<node lat="59.44741110802046" lon="8.822072214934884" id="-30993">
		<tag k="name" v="Skriufjellet" />
		<tag k="natural" v="hill" />
		<tag k="place" v="locality" />
		<tag k="ssr:stedsnr" v="461059" />
	</node>
	<node lat="59.61346389265185" lon="8.334097224849069" id="-30999">
		<tag k="name" v="Briskesatan" />
		<tag k="natural" v="slope" />
		<tag k="place" v="locality" />
		<tag k="ssr:stedsnr" v="281381" />
	</node>
	<node lat="59.503766670414144" lon="8.706216672292166" id="-31001">
		<tag k="name" v="Tjønnstauljuvet" />
		<tag k="natural" v="gorge" />
		<tag k="ssr:stedsnr" v="460699" />
	</node>
	<node lat="59.51654166605611" lon="8.614391659920493" id="-31002">
		<tag k="name" v="Bak-skorve" />
		<tag k="place" v="locality" />
		<tag k="ssr:stedsnr" v="460736" />
	</node>
	<node lat="59.46004722646092" lon="8.806450003396954" id="-31004">
		<tag k="name" v="Langemyråsen" />
		<tag k="natural" v="ridge" />
		<tag k="place" v="locality" />
		<tag k="ssr:stedsnr" v="461032" />
	</node>
	<node lat="59.38367777444096" lon="8.734177776287567" id="-31005">
		<tag k="name" v="Mjeltedalen" />
		<tag k="natural" v="valley" />
		<tag k="place" v="locality" />
		<tag k="ssr:stedsnr" v="461038" />
	</node>
	<node lat="59.41807499842035" lon="8.636386112311028" id="-31006">
		<tag k="name" v="Djupedal" />
		<tag k="natural" v="valley" />
		<tag k="place" v="locality" />
		<tag k="ssr:stedsnr" v="461049" />
	</node>
	<node lat="59.41716111523432" lon="8.649958339053018" id="-31007">
		<tag k="name" v="Holaliane" />
		<tag k="natural" v="slope" />
		<tag k="place" v="locality" />
		<tag k="ssr:stedsnr" v="461051" />
	</node>
	<node lat="59.41638610732939" lon="8.622530562770528" id="-31008">
		<tag k="fixme" v="consider natural=peak for the most distinct mountains in the district" />
		<tag k="name" v="Djupedalsmåni" />
		<tag k="natural" v="hill" />
		<tag k="place" v="locality" />
		<tag k="ssr:stedsnr" v="461056" />
	</node>
	<node lat="59.648630553816766" lon="8.255375002664024" id="-31011">
		<tag k="name" v="Kvambekkdalen" />
		<tag k="natural" v="valley" />
		<tag k="place" v="locality" />
		<tag k="ssr:stedsnr" v="285133" />
	</node>
	<node lat="59.650369448239886" lon="8.505266671203389" id="-31012">
		<tag k="fixme" v="consider natural=peak for the most distinct mountains in the district" />
		<tag k="name" v="Nystaulskinnut" />
		<tag k="natural" v="hill" />
		<tag k="place" v="locality" />
		<tag k="ssr:stedsnr" v="285081" />
	</node>
	<node lat="59.69866389115573" lon="8.265869442800732" id="-31014">
		<tag k="fixme" v="consider natural=peak for the most distinct mountains in the district" />
		<tag k="name" v="Skarvehaugen" />
		<tag k="natural" v="hill" />
		<tag k="place" v="locality" />
		<tag k="ssr:stedsnr" v="285213" />
	</node>
	<node lat="59.60660277539728" lon="8.350616658370026" id="-31018">
		<tag k="name" v="Kråkekvæven" />
		<tag k="natural" v="slope" />
		<tag k="place" v="locality" />
		<tag k="ssr:stedsnr" v="285377" />
	</node>
	<node lat="59.38489722308615" lon="8.645630553271765" id="-31023">
		<tag k="fixme" v="consider natural=peak for the most distinct mountains in the district" />
		<tag k="name" v="Slangeåsane" />
		<tag k="natural" v="hill" />
		<tag k="place" v="locality" />
		<tag k="ssr:stedsnr" v="461322" />
	</node>
	<node lat="59.62259999925577" lon="8.361744441429947" id="-31027">
		<tag k="name" v="Nedre Gåsevassdalen" />
		<tag k="natural" v="valley" />
		<tag k="place" v="locality" />
		<tag k="ssr:stedsnr" v="286180" />
	</node>
	<node lat="59.507494441168866" lon="8.712625002373576" id="-31034">
		<tag k="fixme" v="consider natural=peak for the most distinct mountains in the district" />
		<tag k="name" v="Grimås" />
		<tag k="natural" v="hill" />
		<tag k="place" v="locality" />
		<tag k="ssr:stedsnr" v="461699" />
	</node>
	<node lat="59.56716110836403" lon="8.538413893241783" id="-31043">
		<tag k="fixme" v="consider natural=peak for the most distinct mountains in the district" />
		<tag k="name" v="Siljudalsåsen" />
		<tag k="natural" v="hill" />
		<tag k="place" v="locality" />
		<tag k="ssr:stedsnr" v="462839" />
	</node>
	<node lat="59.49624721786345" lon="8.660933333629842" id="-31044">
		<tag k="fixme" v="consider natural=peak for the most distinct mountains in the district" />
		<tag k="name" v="Heggedalsnuten" />
		<tag k="natural" v="hill" />
		<tag k="place" v="locality" />
		<tag k="ssr:stedsnr" v="462639" />
	</node>
	<node lat="59.63446944559181" lon="8.473108337747863" id="-31050">
		<tag k="name" v="Brureskar" />
		<tag k="natural" v="valley" />
		<tag k="place" v="locality" />
		<tag k="ssr:stedsnr" v="463812" />
	</node>
	<node lat="59.73578055152676" lon="8.308836112883746" id="-31060">
		<tag k="alt_name" v="Flognuten" />
		<tag k="fixme" v="consider natural=peak for the most distinct mountains in the district" />
		<tag k="name" v="Flognutan" />
		<tag k="natural" v="hill" />
		<tag k="place" v="locality" />
		<tag k="ssr:stedsnr" v="306216" />
	</node>
	<node lat="59.675047217786734" lon="8.372744443654492" id="-31061">
		<tag k="fixme" v="consider natural=peak for the most distinct mountains in the district" />
		<tag k="name" v="Gunnarstaulnuten" />
		<tag k="natural" v="hill" />
		<tag k="place" v="locality" />
		<tag k="ssr:stedsnr" v="306119" />
	</node>
	<node lat="59.59088888610683" lon="8.46948610293279" id="-31067">
		<tag k="fixme" v="consider natural=peak for the most distinct mountains in the district" />
		<tag k="name" v="Laupenuten" />
		<tag k="natural" v="hill" />
		<tag k="place" v="locality" />
		<tag k="ssr:stedsnr" v="306875" />
	</node>
	<node lat="59.648766663473744" lon="8.33719722754314" id="-31070">
		<tag k="name" v="Samahaug" />
		<tag k="natural" v="hill" />
		<tag k="place" v="locality" />
		<tag k="ssr:stedsnr" v="467119" />
	</node>
	<node lat="59.62832500435142" lon="8.355838894864668" id="-31072">
		<tag k="name" v="Ramsedalen" />
		<tag k="natural" v="valley" />
		<tag k="place" v="locality" />
		<tag k="ssr:stedsnr" v="467134" />
	</node>
	<node lat="59.59764444250329" lon="8.275177773808442" id="-31085">
		<tag k="name" v="Stabbedalen" />
		<tag k="natural" v="valley" />
		<tag k="place" v="locality" />
		<tag k="ssr:stedsnr" v="467488" />
	</node>
	<node lat="59.58606666792833" lon="8.256825008775078" id="-31088">
		<tag k="name" v="Taklid" />
		<tag k="natural" v="slope" />
		<tag k="place" v="locality" />
		<tag k="ssr:stedsnr" v="468286" />
	</node>
	<node lat="59.46092777474076" lon="8.885538891435106" id="-31093">
		<tag k="name" v="Moskarsglupen" />
		<tag k="natural" v="cliff" />
		<tag k="ssr:stedsnr" v="337142" />
	</node>
	<node lat="59.55105277442454" lon="8.570930563484701" id="-31098">
		<tag k="name" v="Skotet" />
		<tag k="natural" v="cliff" />
		<tag k="ssr:stedsnr" v="339206" />
	</node>
	<node lat="59.569088886814946" lon="8.639919448066808" id="-31101">
		<tag k="fixme" v="consider natural=peak for the most distinct mountains in the district" />
		<tag k="name" v="Vardehaugane" />
		<tag k="natural" v="hill" />
		<tag k="place" v="locality" />
		<tag k="ssr:stedsnr" v="339392" />
	</node>
	<node lat="59.430388892647656" lon="8.707572230574158" id="-31105">
		<tag k="name" v="Skrubberennun" />
		<tag k="natural" v="valley" />
		<tag k="place" v="locality" />
		<tag k="ssr:stedsnr" v="339605" />
	</node>
	<node lat="59.576694442770936" lon="8.464063891132664" id="-31108">
		<tag k="name" v="Jidredalan" />
		<tag k="natural" v="valley" />
		<tag k="place" v="locality" />
		<tag k="ssr:stedsnr" v="340053" />
	</node>
	<node lat="59.37052499949187" lon="8.8383250032823" id="-31110">
		<tag k="fixme" v="consider natural=peak for the most distinct mountains in the district" />
		<tag k="name" v="Skotplassnuten" />
		<tag k="natural" v="hill" />
		<tag k="place" v="locality" />
		<tag k="ssr:stedsnr" v="340218" />
	</node>
	<node lat="59.710272222810914" lon="8.397047221861381" id="-31112">
		<tag k="fixme" v="consider natural=peak for the most distinct mountains in the district" />
		<tag k="name" v="Lisveinbufjell" />
		<tag k="natural" v="hill" />
		<tag k="place" v="locality" />
		<tag k="ssr:stedsnr" v="339954" />
	</node>
	<node lat="59.650708334622486" lon="8.483913886797195" id="-31114">
		<tag k="fixme" v="consider natural=peak for the most distinct mountains in the district" />
		<tag k="name" v="Stordalsnutan" />
		<tag k="natural" v="hill" />
		<tag k="place" v="locality" />
		<tag k="ssr:stedsnr" v="339995" />
	</node>
	<node lat="59.642508335114066" lon="8.466088892404109" id="-31115">
		<tag k="name" v="Annebudalen" />
		<tag k="natural" v="valley" />
		<tag k="place" v="locality" />
		<tag k="ssr:stedsnr" v="339999" />
	</node>
	<node lat="59.472830556064245" lon="8.771447215477739" id="-31119">
		<tag k="name" v="Svintaliddalen" />
		<tag k="natural" v="valley" />
		<tag k="place" v="locality" />
		<tag k="ssr:stedsnr" v="340143" />
	</node>
	<node lat="59.48512499831514" lon="8.666175006127425" id="-31125">
		<tag k="fixme" v="consider natural=peak for the most distinct mountains in the district" />
		<tag k="name" v="Raudås" />
		<tag k="natural" v="hill" />
		<tag k="place" v="locality" />
		<tag k="ssr:stedsnr" v="340928" />
	</node>
	<node lat="59.54909166926153" lon="8.451941675291941" id="-31129">
		<tag k="fixme" v="consider natural=peak for the most distinct mountains in the district" />
		<tag k="name" v="Stavslid" />
		<tag k="natural" v="hill" />
		<tag k="place" v="locality" />
		<tag k="ssr:stedsnr" v="341111" />
	</node>
	<node lat="59.66661111200844" lon="8.464780554498871" id="-31131">
		<tag k="fixme" v="consider natural=peak for the most distinct mountains in the district" />
		<tag k="name" v="Listaulnuten" />
		<tag k="natural" v="hill" />
		<tag k="place" v="locality" />
		<tag k="ssr:stedsnr" v="341302" />
	</node>
	<node lat="59.725172223256585" lon="8.31969721759481" id="-31139">
		<tag k="name" v="Skarbujuvet" />
		<tag k="natural" v="gorge" />
		<tag k="ssr:stedsnr" v="342118" />
	</node>
	<node lat="59.7337611108871" lon="8.26755278358082" id="-31144">
		<tag k="name" v="Stuvestaul-lian" />
		<tag k="natural" v="slope" />
		<tag k="place" v="locality" />
		<tag k="ssr:stedsnr" v="346104" />
	</node>
	<node lat="59.59188333729469" lon="8.360583326434858" id="-31146">
		<tag k="fixme" v="consider natural=peak for the most distinct mountains in the district" />
		<tag k="name" v="Bukkebergåsen" />
		<tag k="natural" v="hill" />
		<tag k="place" v="locality" />
		<tag k="ssr:stedsnr" v="346056" />
	</node>
	<node lat="59.654305556489255" lon="8.50052499262564" id="-31148">
		<tag k="name" v="Nystaullii" />
		<tag k="natural" v="slope" />
		<tag k="place" v="locality" />
		<tag k="ssr:stedsnr" v="346061" />
	</node>
	<node lat="59.47472499665227" lon="8.837688881988768" id="-31155">
		<tag k="alt_name" v="Langgrønutane" />
		<tag k="fixme" v="consider natural=peak for the most distinct mountains in the district" />
		<tag k="name" v="Langgrønuten" />
		<tag k="natural" v="hill" />
		<tag k="place" v="locality" />
		<tag k="ssr:stedsnr" v="366004" />
	</node>
	<node lat="59.39367222176294" lon="8.63474722235764" id="-31162">
		<tag k="alt_name" v="Eiangnuten" />
		<tag k="fixme" v="consider natural=peak for the most distinct mountains in the district" />
		<tag k="name" v="Einangsnut" />
		<tag k="natural" v="hill" />
		<tag k="place" v="locality" />
		<tag k="ssr:stedsnr" v="366979" />
	</node>
	<node lat="59.39804166828333" lon="8.706211115755183" id="-31163">
		<tag k="alt_name" v="Middagssveun" />
		<tag k="name" v="Middagsveune" />
		<tag k="place" v="locality" />
		<tag k="ssr:stedsnr" v="366993" />
	</node>
	<node lat="59.745933331446096" lon="8.40518610447443" id="-31170">
		<tag k="name" v="Stordal" />
		<tag k="natural" v="valley" />
		<tag k="place" v="locality" />
		<tag k="ssr:stedsnr" v="367187" />
	</node>
	<node lat="59.58136111172107" lon="8.528080562494718" id="-31176">
		<tag k="fixme" v="consider natural=peak for the most distinct mountains in the district" />
		<tag k="name" v="Torsnut" />
		<tag k="natural" v="hill" />
		<tag k="place" v="locality" />
		<tag k="ssr:stedsnr" v="367872" />
	</node>
	<node lat="59.68943611139525" lon="8.308652783994615" id="-31183">
		<tag k="fixme" v="consider natural=peak for the most distinct mountains in the district" />
		<tag k="name" v="Skinnuten" />
		<tag k="natural" v="hill" />
		<tag k="place" v="locality" />
		<tag k="ssr:stedsnr" v="368120" />
	</node>
	<node lat="59.388427779121535" lon="8.837033328303315" id="-31187">
		<tag k="fixme" v="consider natural=peak for the most distinct mountains in the district" />
		<tag k="name" v="Buskerovåsen" />
		<tag k="natural" v="hill" />
		<tag k="place" v="locality" />
		<tag k="ssr:stedsnr" v="400034" />
	</node>
	<node lat="59.45655000268912" lon="8.599391661454753" id="-31189">
		<tag k="name" v="Miledalen" />
		<tag k="natural" v="valley" />
		<tag k="place" v="locality" />
		<tag k="ssr:stedsnr" v="400206" />
	</node>
	<node lat="59.455883337796024" lon="8.564969450557012" id="-31190">
		<tag k="name" v="Meåsflatin" />
		<tag k="place" v="locality" />
		<tag k="ssr:stedsnr" v="400207" />
	</node>
	<node lat="59.393969445029164" lon="8.712174995457238" id="-31194">
		<tag k="fixme" v="consider natural=peak for the most distinct mountains in the district" />
		<tag k="name" v="Dalsfjellet" />
		<tag k="natural" v="hill" />
		<tag k="place" v="locality" />
		<tag k="ssr:stedsnr" v="400326" />
	</node>
	<node lat="59.47259166417244" lon="8.705622220472149" id="-31197">
		<tag k="fixme" v="consider natural=peak for the most distinct mountains in the district" />
		<tag k="name" v="Blåbæråsen" />
		<tag k="natural" v="hill" />
		<tag k="place" v="locality" />
		<tag k="ssr:stedsnr" v="400532" />
	</node>
	<node lat="59.64356944021472" lon="8.406197219880664" id="-31198">
		<tag k="fixme" v="consider natural=peak for the most distinct mountains in the district" />
		<tag k="name" v="Berstaulnuten" />
		<tag k="natural" v="hill" />
		<tag k="place" v="locality" />
		<tag k="ssr:stedsnr" v="400497" />
	</node>
	<node lat="59.45143888915853" lon="8.638111107112179" id="-31200">
		<tag k="name" v="Kroktjønnhelleren" />
		<tag k="place" v="locality" />
		<tag k="ssr:stedsnr" v="400710" />
	</node>
	<node lat="59.471891662499466" lon="8.630413880754093" id="-31207">
		<tag k="name" v="Spretterud" />
		<tag k="natural" v="slope" />
		<tag k="place" v="locality" />
		<tag k="ssr:stedsnr" v="401909" />
	</node>
	<node lat="59.406208330799636" lon="8.788441664023397" id="-31209">
		<tag k="fixme" v="consider natural=peak for the most distinct mountains in the district" />
		<tag k="name" v="Langemyråsen" />
		<tag k="natural" v="hill" />
		<tag k="place" v="locality" />
		<tag k="ssr:stedsnr" v="401890" />
	</node>
	<node lat="59.65472500264051" lon="8.27668889546471" id="-31214">
		<tag k="fixme" v="consider natural=peak for the most distinct mountains in the district" />
		<tag k="name" v="Hovet" />
		<tag k="natural" v="hill" />
		<tag k="place" v="locality" />
		<tag k="ssr:stedsnr" v="402388" />
	</node>
	<node lat="59.599133330517745" lon="8.347508324971315" id="-31215">
		<tag k="name" v="Fiskhuslid" />
		<tag k="natural" v="slope" />
		<tag k="place" v="locality" />
		<tag k="ssr:stedsnr" v="402396" />
	</node>
	<node lat="59.58245277790558" lon="8.320944451170035" id="-31221">
		<tag k="name" v="Søylesætbroti" />
		<tag k="natural" v="hill" />
		<tag k="place" v="locality" />
		<tag k="ssr:stedsnr" v="406407" />
	</node>
	<node lat="59.63977500022737" lon="8.339836117527064" id="-31225">
		<tag k="name" v="Kvassekleiv" />
		<tag k="natural" v="slope" />
		<tag k="place" v="locality" />
		<tag k="ssr:stedsnr" v="407040" />
	</node>
	<node lat="59.565008329998044" lon="8.363805563409178" id="-31228">
		<tag k="name" v="Sandsdalen" />
		<tag k="natural" v="valley" />
		<tag k="place" v="locality" />
		<tag k="ssr:stedsnr" v="407250" />
	</node>
	<node lat="59.44351389088423" lon="8.861786116998445" id="-31230">
		<tag k="name" v="Rugkåshaugen" />
		<tag k="natural" v="hill" />
		<tag k="place" v="locality" />
		<tag k="ssr:stedsnr" v="407957" />
	</node>
	<node lat="59.68466667046037" lon="8.23719443738349" id="-31243">
		<tag k="alt_name" v="Aurbakknut" />
		<tag k="fixme" v="consider natural=peak for the most distinct mountains in the district" />
		<tag k="name" v="Aurbakknuten" />
		<tag k="natural" v="hill" />
		<tag k="place" v="locality" />
		<tag k="ssr:stedsnr" v="488128" />
	</node>
	<node lat="59.51303611298074" lon="8.728877770595087" id="-31245">
		<tag k="fixme" v="consider natural=peak for the most distinct mountains in the district" />
		<tag k="name" v="Grimaren" />
		<tag k="natural" v="hill" />
		<tag k="place" v="locality" />
		<tag k="ssr:stedsnr" v="488036" />
	</node>
	<node lat="59.48088611555217" lon="8.562205555699428" id="-31247">
		<tag k="alt_name" v="Geitskorfjellet" />
		<tag k="fixme" v="consider natural=peak for the most distinct mountains in the district" />
		<tag k="name" v="Geitskofjell" />
		<tag k="natural" v="hill" />
		<tag k="place" v="locality" />
		<tag k="ssr:stedsnr" v="488042" />
	</node>
	<node lat="59.51415555782872" lon="8.56183333331556" id="-31248">
		<tag k="name" v="Åsangrøi" />
		<tag k="place" v="locality" />
		<tag k="ssr:stedsnr" v="488046" />
	</node>
	<node lat="59.70838888766032" lon="8.361297213489339" id="-31249">
		<tag k="fixme" v="consider natural=peak for the most distinct mountains in the district" />
		<tag k="name" v="Sudbøfjellet" />
		<tag k="natural" v="hill" />
		<tag k="place" v="locality" />
		<tag k="ssr:stedsnr" v="488172" />
	</node>
	<node lat="59.60996944625275" lon="8.405411109258335" id="-31255">
		<tag k="alt_name" v="Valjuvet" />
		<tag k="name" v="Valegjuvet" />
		<tag k="natural" v="valley" />
		<tag k="place" v="locality" />
		<tag k="ssr:stedsnr" v="488218" />
	</node>
	<node lat="59.689300000226744" lon="8.471574996303984" id="-31263">
		<tag k="alt_name" v="Vålanut" />
		<tag k="fixme" v="consider natural=peak for the most distinct mountains in the district" />
		<tag k="name" v="Vålånut" />
		<tag k="natural" v="hill" />
		<tag k="place" v="locality" />
		<tag k="ssr:stedsnr" v="488628" />
	</node>
	<node lat="59.41520555705955" lon="8.809416671370416" id="-31268">
		<tag k="name" v="Skranglebergi" />
		<tag k="natural" v="slope" />
		<tag k="place" v="locality" />
		<tag k="ssr:stedsnr" v="488961" />
	</node>
	<node lat="59.531677773315195" lon="8.676786106555163" id="-31273">
		<tag k="name" v="Mælstaulgjuvet" />
		<tag k="natural" v="valley" />
		<tag k="place" v="locality" />
		<tag k="ssr:stedsnr" v="488976" />
	</node>
	<node lat="59.405905553829754" lon="8.760038880588535" id="-31275">
		<tag k="fixme" v="consider natural=peak for the most distinct mountains in the district" />
		<tag k="name" v="Langedalsfjellet" />
		<tag k="natural" v="hill" />
		<tag k="place" v="locality" />
		<tag k="ssr:stedsnr" v="488988" />
	</node>
	<node lat="59.480591668339244" lon="8.539141671840982" id="-31280">
		<tag k="alt_name" v="Skauttjørnnuten" />
		<tag k="name" v="Skautjønnfjellet" />
		<tag k="natural" v="hill" />
		<tag k="place" v="locality" />
		<tag k="ssr:stedsnr" v="427023" />
	</node>
	<node lat="59.444766663091755" lon="8.620066666338692" id="-31283">
		<tag k="alt_name" v="Raudbekknuten" />
		<tag k="fixme" v="consider natural=peak for the most distinct mountains in the district" />
		<tag k="name" v="Raubekknuten" />
		<tag k="natural" v="hill" />
		<tag k="place" v="locality" />
		<tag k="ssr:stedsnr" v="427082" />
	</node>
	<node lat="59.61578333162702" lon="8.34244166387532" id="-31296">
		<tag k="alt_name" v="Rustfjellet" />
		<tag k="fixme" v="consider natural=peak for the most distinct mountains in the district" />
		<tag k="name" v="Brenderustfjell" />
		<tag k="natural" v="hill" />
		<tag k="place" v="locality" />
		<tag k="ssr:stedsnr" v="428277" />
	</node>
	<node lat="59.576230551518" lon="8.395738883865738" id="-31297">
		<tag k="fixme" v="consider natural=peak for the most distinct mountains in the district" />
		<tag k="name" v="Sanddalsnuten" />
		<tag k="natural" v="hill" />
		<tag k="place" v="locality" />
		<tag k="ssr:stedsnr" v="428411" />
	</node>
	<node lat="59.6397972237427" lon="8.412722217125246" id="-31302">
		<tag k="fixme" v="consider natural=peak for the most distinct mountains in the district" />
		<tag k="name" v="Nystaulnuten" />
		<tag k="natural" v="hill" />
		<tag k="place" v="locality" />
		<tag k="ssr:stedsnr" v="428311" />
	</node>
	<node lat="59.611425000490755" lon="8.533011108942828" id="-31304">
		<tag k="name" v="Hagadalen" />
		<tag k="natural" v="valley" />
		<tag k="place" v="locality" />
		<tag k="ssr:stedsnr" v="428761" />
	</node>
	<node lat="59.56641944305444" lon="8.696544443226074" id="-31306">
		<tag k="alt_name" v="Gunnargrov" />
		<tag k="name" v="Gunnegrov" />
		<tag k="natural" v="gorge" />
		<tag k="ssr:stedsnr" v="428922" />
	</node>
	<node lat="59.553475003722596" lon="8.656605561478948" id="-31308">
		<tag k="name" v="Rjupedalen" />
		<tag k="natural" v="valley" />
		<tag k="place" v="locality" />
		<tag k="ssr:stedsnr" v="670930" />
	</node>
	<node lat="59.420561115443036" lon="8.81245277990691" id="-31309">
		<tag k="name" v="Glosli" />
		<tag k="natural" v="slope" />
		<tag k="place" v="locality" />
		<tag k="ssr:stedsnr" v="670937" />
	</node>
	<node lat="59.63287500266889" lon="8.514838886194786" id="-31314">
		<tag k="name" v="Åsdalen" />
		<tag k="natural" v="valley" />
		<tag k="place" v="locality" />
		<tag k="ssr:stedsnr" v="671750" />
	</node>
	<node lat="59.56981111147165" lon="8.498383332622002" id="-31316">
		<tag k="fixme" v="consider natural=peak for the most distinct mountains in the district" />
		<tag k="name" v="Sverdrupnuten" />
		<tag k="natural" v="hill" />
		<tag k="place" v="locality" />
		<tag k="ssr:stedsnr" v="671951" />
	</node>
	<node lat="59.522394440646664" lon="8.725038883151576" id="-31317">
		<tag k="name" v="Grunningsdalen" />
		<tag k="natural" v="valley" />
		<tag k="place" v="locality" />
		<tag k="ssr:stedsnr" v="671988" />
	</node>
	<node lat="59.44671944149219" lon="8.843744440878536" id="-31320">
		<tag k="fixme" v="consider natural=peak for the most distinct mountains in the district" />
		<tag k="name" v="Eltås" />
		<tag k="natural" v="hill" />
		<tag k="place" v="locality" />
		<tag k="ssr:stedsnr" v="460217" />
	</node>
	<node lat="59.51609444665364" lon="8.719508329457053" id="-31321">
		<tag k="name" v="Deildenuten" />
		<tag k="natural" v="hill" />
		<tag k="place" v="locality" />
		<tag k="ssr:stedsnr" v="460575" />
	</node>
	<node lat="59.37978333054294" lon="8.845449992942147" id="-31323">
		<tag k="name" v="Nerishol" />
		<tag k="natural" v="gorge" />
		<tag k="ssr:stedsnr" v="461206" />
	</node>
	<node lat="59.44239722408293" lon="8.786594445472115" id="-31324">
		<tag k="name" v="Heggenes øvre" />
		<tag k="natural" v="valley" />
		<tag k="place" v="locality" />
		<tag k="ssr:stedsnr" v="461210" />
	</node>
	<node lat="59.44158332964446" lon="8.794483334032458" id="-31325">
		<tag k="name" v="Geiteskaret" />
		<tag k="natural" v="valley" />
		<tag k="place" v="locality" />
		<tag k="ssr:stedsnr" v="461211" />
	</node>
	<node lat="59.40248888473771" lon="8.6808305474589" id="-31328">
		<tag k="fixme" v="consider natural=peak for the most distinct mountains in the district" />
		<tag k="name" v="Bjønnskarnuten" />
		<tag k="natural" v="hill" />
		<tag k="place" v="locality" />
		<tag k="ssr:stedsnr" v="461478" />
	</node>
	<node lat="59.655230551176764" lon="8.442280557938295" id="-31329">
		<tag k="name" v="Ormeli" />
		<tag k="natural" v="slope" />
		<tag k="place" v="locality" />
		<tag k="ssr:stedsnr" v="461526" />
	</node>
	<node lat="59.66848889144367" lon="8.392741675019954" id="-31332">
		<tag k="fixme" v="consider natural=peak for the most distinct mountains in the district" />
		<tag k="name" v="Kroktjønn-nutan" />
		<tag k="natural" v="hill" />
		<tag k="place" v="locality" />
		<tag k="ssr:stedsnr" v="461544" />
	</node>
	<node lat="59.45623610955149" lon="8.61561388015128" id="-31333">
		<tag k="name" v="Lidalen" />
		<tag k="natural" v="slope" />
		<tag k="place" v="locality" />
		<tag k="ssr:stedsnr" v="461571" />
	</node>
	<node lat="59.48731944604632" lon="8.626852786561084" id="-31334">
		<tag k="fixme" v="consider natural=peak for the most distinct mountains in the district" />
		<tag k="name" v="Bringsåsnuten" />
		<tag k="natural" v="hill" />
		<tag k="place" v="locality" />
		<tag k="ssr:stedsnr" v="461764" />
	</node>
	<node lat="59.5398583359677" lon="8.606116660147366" id="-31335">
		<tag k="name" v="Kaldveta" />
		<tag k="place" v="locality" />
		<tag k="ssr:stedsnr" v="461905" />
	</node>
	<node lat="59.58544444624014" lon="8.524069450320365" id="-31339">
		<tag k="name" v="Villfarsdalan" />
		<tag k="natural" v="valley" />
		<tag k="place" v="locality" />
		<tag k="ssr:stedsnr" v="461864" />
	</node>
	<node lat="59.578630555565425" lon="8.483286102602568" id="-31341">
		<tag k="name" v="Bjønnegrøurd" />
		<tag k="natural" v="slope" />
		<tag k="place" v="locality" />
		<tag k="ssr:stedsnr" v="462063" />
	</node>
	<node lat="59.35342499670444" lon="8.855977773829165" id="-31346">
		<tag k="name" v="Tørjusdal" />
		<tag k="natural" v="valley" />
		<tag k="place" v="locality" />
		<tag k="ssr:stedsnr" v="462167" />
	</node>
	<node lat="59.618725000484694" lon="8.509566661521925" id="-31348">
		<tag k="name" v="Hysingjuvet" />
		<tag k="natural" v="gorge" />
		<tag k="ssr:stedsnr" v="462470" />
	</node>
	<node lat="59.64690833554862" lon="8.301611104480722" id="-31355">
		<tag k="fixme" v="consider natural=peak for the most distinct mountains in the district" />
		<tag k="name" v="Møåsfjell" />
		<tag k="natural" v="hill" />
		<tag k="place" v="locality" />
		<tag k="ssr:stedsnr" v="463267" />
	</node>
	<node lat="59.450811107560654" lon="8.895158331806854" id="-31359">
		<tag k="name" v="Ljosbekkdalen" />
		<tag k="natural" v="valley" />
		<tag k="place" v="locality" />
		<tag k="ssr:stedsnr" v="467004" />
	</node>
	<node lat="59.59864722667185" lon="8.293838893442771" id="-31367">
		<tag k="fixme" v="consider natural=peak for the most distinct mountains in the district" />
		<tag k="name" v="Kvisleåsen" />
		<tag k="natural" v="hill" />
		<tag k="place" v="locality" />
		<tag k="ssr:stedsnr" v="467502" />
	</node>
	<node lat="59.51817777536295" lon="8.515991659273544" id="-31374">
		<tag k="fixme" v="consider natural=peak for the most distinct mountains in the district" />
		<tag k="name" v="Heimnuten" />
		<tag k="natural" v="hill" />
		<tag k="place" v="locality" />
		<tag k="ssr:stedsnr" v="488050" />
	</node>
	<node lat="59.51398333373406" lon="8.515805564381827" id="-31375">
		<tag k="fixme" v="consider natural=peak for the most distinct mountains in the district" />
		<tag k="name" v="Skålnuten" />
		<tag k="natural" v="hill" />
		<tag k="place" v="locality" />
		<tag k="ssr:stedsnr" v="488053" />
	</node>
	<node lat="59.5825472192292" lon="8.351183334621963" id="-31385">
		<tag k="alt_name" v="Nonetten" />
		<tag k="fixme" v="consider natural=peak for the most distinct mountains in the district" />
		<tag k="name" v="Nonnetten" />
		<tag k="natural" v="hill" />
		<tag k="place" v="locality" />
		<tag k="ssr:stedsnr" v="488465" />
	</node>
	<node lat="59.73135833325538" lon="8.274316672498895" id="-31387">
		<tag k="fixme" v="consider natural=peak for the most distinct mountains in the district" />
		<tag k="name" v="Stuvestaulnuten" />
		<tag k="natural" v="hill" />
		<tag k="place" v="locality" />
		<tag k="ssr:stedsnr" v="488188" />
	</node>
	<node lat="59.67374999791924" lon="8.420758329880499" id="-31388">
		<tag k="fixme" v="consider natural=peak for the most distinct mountains in the district" />
		<tag k="name" v="Østgryvla" />
		<tag k="natural" v="hill" />
		<tag k="place" v="locality" />
		<tag k="ssr:stedsnr" v="488316" />
	</node>
	<node lat="59.64675833278307" lon="8.472683339685197" id="-31396">
		<tag k="fixme" v="consider natural=peak for the most distinct mountains in the district" />
		<tag k="name" v="Vetrhusnutan" />
		<tag k="natural" v="hill" />
		<tag k="place" v="locality" />
		<tag k="ssr:stedsnr" v="488701" />
	</node>
	<node lat="59.41424721885316" lon="8.762841658656688" id="-31398">
		<tag k="alt_name" v="Nestjørnfjellet" />
		<tag k="fixme" v="consider natural=peak for the most distinct mountains in the district" />
		<tag k="name" v="Nestjønnfjell" />
		<tag k="natural" v="hill" />
		<tag k="place" v="locality" />
		<tag k="ssr:stedsnr" v="488958" />
	</node>
	<node lat="59.764919444522164" lon="8.367250000287276" id="-31400">
		<tag k="name" v="Silkedalen" />
		<tag k="natural" v="valley" />
		<tag k="place" v="locality" />
		<tag k="ssr:stedsnr" v="489093" />
	</node>
	<node lat="59.46622777468447" lon="8.8134222205754" id="-31406">
		<tag k="fixme" v="consider natural=peak for the most distinct mountains in the district" />
		<tag k="name" v="Stakalinuten" />
		<tag k="natural" v="hill" />
		<tag k="place" v="locality" />
		<tag k="ssr:stedsnr" v="521218" />
	</node>
	<node lat="59.48486944428651" lon="8.60691111496859" id="-31407">
		<tag k="fixme" v="consider natural=peak for the most distinct mountains in the district" />
		<tag k="name" v="Tømmeråsen" />
		<tag k="natural" v="hill" />
		<tag k="place" v="locality" />
		<tag k="ssr:stedsnr" v="521220" />
	</node>
	<node lat="59.54166110933529" lon="8.64277500531366" id="-31409">
		<tag k="fixme" v="consider natural=peak for the most distinct mountains in the district" />
		<tag k="name" v="Vassmonut" />
		<tag k="natural" v="hill" />
		<tag k="place" v="locality" />
		<tag k="ssr:stedsnr" v="521415" />
	</node>
	<node lat="59.43318055398376" lon="8.692497221365443" id="-31416">
		<tag k="fixme" v="consider natural=peak for the most distinct mountains in the district" />
		<tag k="name" v="Gyvrestaulnuten" />
		<tag k="natural" v="hill" />
		<tag k="place" v="locality" />
		<tag k="ssr:stedsnr" v="522623" />
	</node>
	<node lat="59.43942778129746" lon="8.685080553078775" id="-31417">
		<tag k="name" v="Høglikosi" />
		<tag k="natural" v="slope" />
		<tag k="place" v="locality" />
		<tag k="ssr:stedsnr" v="522636" />
	</node>
	<node lat="59.57002222418994" lon="8.569866670567896" id="-31420">
		<tag k="name" v="Leine" />
		<tag k="natural" v="slope" />
		<tag k="place" v="locality" />
		<tag k="ssr:stedsnr" v="522737" />
	</node>
	<node lat="59.66008888604956" lon="8.496927773949297" id="-31426">
		<tag k="fixme" v="consider natural=peak for the most distinct mountains in the district" />
		<tag k="name" v="Stakksneisknatten" />
		<tag k="natural" v="hill" />
		<tag k="place" v="locality" />
		<tag k="ssr:stedsnr" v="523307" />
	</node>
	<node lat="59.66719999852435" lon="8.482788886156177" id="-31427">
		<tag k="name" v="Jønntjønnflatin" />
		<tag k="place" v="locality" />
		<tag k="ssr:stedsnr" v="523309" />
	</node>
	<node lat="59.69465555335378" lon="8.379694439060879" id="-31429">
		<tag k="name" v="Leirgrovdalen" />
		<tag k="natural" v="valley" />
		<tag k="place" v="locality" />
		<tag k="ssr:stedsnr" v="523774" />
	</node>
	<node lat="59.589186111914316" lon="8.389580554935403" id="-31431">
		<tag k="name" v="Kvæven" />
		<tag k="natural" v="slope" />
		<tag k="place" v="locality" />
		<tag k="ssr:stedsnr" v="524004" />
	</node>
	<node lat="59.588591664587625" lon="8.395138882795523" id="-31433">
		<tag k="fixme" v="consider natural=peak for the most distinct mountains in the district" />
		<tag k="name" v="Høgås" />
		<tag k="natural" v="hill" />
		<tag k="place" v="locality" />
		<tag k="ssr:stedsnr" v="524010" />
	</node>
	<node lat="59.59189444787888" lon="8.41118055298415" id="-31434">
		<tag k="name" v="Stordalnuten" />
		<tag k="natural" v="hill" />
		<tag k="place" v="locality" />
		<tag k="ssr:stedsnr" v="524874" />
	</node>
	<node lat="59.628775000896916" lon="8.3132500054336" id="-31435">
		<tag k="fixme" v="consider natural=peak for the most distinct mountains in the district" />
		<tag k="name" v="Snauås" />
		<tag k="natural" v="hill" />
		<tag k="place" v="locality" />
		<tag k="ssr:stedsnr" v="527202" />
	</node>
	<node lat="59.61120277751993" lon="8.382283330638167" id="-31438">
		<tag k="name" v="Valejuvet" />
		<tag k="natural" v="gorge" />
		<tag k="ssr:stedsnr" v="527291" />
	</node>
	<node lat="59.61423610678126" lon="8.36722500892026" id="-31439">
		<tag k="fixme" v="consider natural=peak for the most distinct mountains in the district" />
		<tag k="name" v="Skorsnuten" />
		<tag k="natural" v="hill" />
		<tag k="place" v="locality" />
		<tag k="ssr:stedsnr" v="527293" />
	</node>
	<node lat="59.65202222229286" lon="8.35178889073565" id="-31442">
		<tag k="name" v="Tjonhaug" />
		<tag k="natural" v="hill" />
		<tag k="place" v="locality" />
		<tag k="ssr:stedsnr" v="528123" />
	</node>
	<node lat="59.47387499804885" lon="8.699713886508944" id="-31451">
		<tag k="name" v="Skardet" />
		<tag k="place" v="locality" />
		<tag k="ssr:stedsnr" v="548013" />
	</node>
	<node lat="59.475122223372466" lon="8.549963895679182" id="-31452">
		<tag k="name" v="Kyrkjeberget" />
		<tag k="natural" v="hill" />
		<tag k="place" v="locality" />
		<tag k="ssr:stedsnr" v="548021" />
	</node>
	<node lat="59.447822220360486" lon="8.658872222234798" id="-31454">
		<tag k="fixme" v="consider natural=peak for the most distinct mountains in the district" />
		<tag k="name" v="Bjørkestaulnuten" />
		<tag k="natural" v="hill" />
		<tag k="place" v="locality" />
		<tag k="ssr:stedsnr" v="548067" />
	</node>
	<node lat="59.61144999835808" lon="8.413183341634145" id="-31455">
		<tag k="fixme" v="consider natural=peak for the most distinct mountains in the district" />
		<tag k="name" v="Buksenetten" />
		<tag k="natural" v="hill" />
		<tag k="place" v="locality" />
		<tag k="ssr:stedsnr" v="548257" />
	</node>
	<node lat="59.695077781205335" lon="8.39068611065971" id="-31459">
		<tag k="fixme" v="consider natural=peak for the most distinct mountains in the district" />
		<tag k="name" v="Kinsarviknuten" />
		<tag k="natural" v="hill" />
		<tag k="place" v="locality" />
		<tag k="ssr:stedsnr" v="549150" />
	</node>
	<node lat="59.69109999579265" lon="8.36796666830165" id="-31461">
		<tag k="name" v="Buferddalen" />
		<tag k="natural" v="valley" />
		<tag k="place" v="locality" />
		<tag k="ssr:stedsnr" v="549156" />
	</node>
	<node lat="59.50892500306929" lon="8.512433325809159" id="-31463">
		<tag k="fixme" v="consider natural=peak for the most distinct mountains in the district" />
		<tag k="name" v="Sandsåsen" />
		<tag k="natural" v="hill" />
		<tag k="place" v="locality" />
		<tag k="ssr:stedsnr" v="549065" />
	</node>
	<node lat="59.52158888461842" lon="8.561208336816472" id="-31464">
		<tag k="fixme" v="consider natural=peak for the most distinct mountains in the district" />
		<tag k="name" v="Skorve" />
		<tag k="natural" v="hill" />
		<tag k="place" v="locality" />
		<tag k="ssr:stedsnr" v="549070" />
	</node>
	<node lat="59.51744722352654" lon="8.59922499388101" id="-31465">
		<tag k="fixme" v="consider natural=peak for the most distinct mountains in the district" />
		<tag k="name" v="Gøysen" />
		<tag k="natural" v="hill" />
		<tag k="place" v="locality" />
		<tag k="ssr:stedsnr" v="549071" />
	</node>
	<node lat="59.585025002438535" lon="8.405763884219121" id="-31473">
		<tag k="alt_name" v="Vitjingdalnutan" />
		<tag k="fixme" v="consider natural=peak for the most distinct mountains in the district" />
		<tag k="name" v="Vikingdalsnutan" />
		<tag k="natural" v="hill" />
		<tag k="place" v="locality" />
		<tag k="ssr:stedsnr" v="549454" />
	</node>
	<node lat="59.58260000087539" lon="8.595133342160887" id="-31475">
		<tag k="fixme" v="consider natural=peak for the most distinct mountains in the district" />
		<tag k="name" v="Høgehovnuten" />
		<tag k="natural" v="hill" />
		<tag k="place" v="locality" />
		<tag k="ssr:stedsnr" v="549907" />
	</node>
	<node lat="59.55426666471778" lon="8.636661103638911" id="-31476">
		<tag k="fixme" v="consider natural=peak for the most distinct mountains in the district" />
		<tag k="name" v="Langribbe" />
		<tag k="natural" v="hill" />
		<tag k="place" v="locality" />
		<tag k="ssr:stedsnr" v="549924" />
	</node>
	<node lat="59.46872222462814" lon="8.875386117868384" id="-31479">
		<tag k="name" v="Fantekleiv" />
		<tag k="natural" v="slope" />
		<tag k="place" v="locality" />
		<tag k="ssr:stedsnr" v="580190" />
	</node>
	<node lat="59.43920277884739" lon="8.623994440257109" id="-31482">
		<tag k="fixme" v="consider natural=peak for the most distinct mountains in the district" />
		<tag k="name" v="Lønntjønnkollen" />
		<tag k="natural" v="hill" />
		<tag k="place" v="locality" />
		<tag k="ssr:stedsnr" v="581339" />
	</node>
	<node lat="59.506133334464344" lon="8.511141669219974" id="-31484">
		<tag k="name" v="Sandslid" />
		<tag k="natural" v="slope" />
		<tag k="place" v="locality" />
		<tag k="ssr:stedsnr" v="582007" />
	</node>
	<node lat="59.50776110948345" lon="8.53311665787422" id="-31486">
		<tag k="name" v="Ormelid" />
		<tag k="natural" v="slope" />
		<tag k="place" v="locality" />
		<tag k="ssr:stedsnr" v="582020" />
	</node>
	<node lat="59.44794444642206" lon="8.750452771827788" id="-31488">
		<tag k="name" v="Haukedalsskotet" />
		<tag k="natural" v="cliff" />
		<tag k="ssr:stedsnr" v="582406" />
	</node>
	<node lat="59.51790833032125" lon="8.701138894919712" id="-31490">
		<tag k="name" v="Tangehaugane" />
		<tag k="natural" v="hill" />
		<tag k="place" v="locality" />
		<tag k="ssr:stedsnr" v="582512" />
	</node>
	<node lat="59.449700001844164" lon="8.616361106608387" id="-31493">
		<tag k="fixme" v="consider natural=peak for the most distinct mountains in the district" />
		<tag k="name" v="Grønlidnuten" />
		<tag k="natural" v="hill" />
		<tag k="place" v="locality" />
		<tag k="ssr:stedsnr" v="582724" />
	</node>
	<node lat="59.574230558032866" lon="8.406372224671546" id="-31500">
		<tag k="name" v="Annåsnuten" />
		<tag k="natural" v="hill" />
		<tag k="place" v="locality" />
		<tag k="ssr:stedsnr" v="584014" />
	</node>
	<node lat="59.417788892954164" lon="8.776638883596753" id="-31501">
		<tag k="name" v="Ospelunden" />
		<tag k="natural" v="slope" />
		<tag k="place" v="locality" />
		<tag k="ssr:stedsnr" v="583996" />
	</node>
	<node lat="59.54869444763408" lon="8.390694437551536" id="-31503">
		<tag k="name" v="Bakhol" />
		<tag k="natural" v="hill" />
		<tag k="place" v="locality" />
		<tag k="ssr:stedsnr" v="584089" />
	</node>
	<node lat="59.643775001022306" lon="8.311655559488756" id="-31504">
		<tag k="fixme" v="consider natural=peak for the most distinct mountains in the district" />
		<tag k="name" v="Storenut" />
		<tag k="natural" v="hill" />
		<tag k="place" v="locality" />
		<tag k="ssr:stedsnr" v="584294" />
	</node>
	<node lat="59.65691666844342" lon="8.312672223040948" id="-31505">
		<tag k="name" v="Trongedal" />
		<tag k="natural" v="valley" />
		<tag k="place" v="locality" />
		<tag k="ssr:stedsnr" v="584297" />
	</node>
	<node lat="59.61134444274581" lon="8.443308324992561" id="-31512">
		<tag k="fixme" v="consider natural=peak for the most distinct mountains in the district" />
		<tag k="name" v="Dyrlandsnuten" />
		<tag k="natural" v="hill" />
		<tag k="place" v="locality" />
		<tag k="ssr:stedsnr" v="584842" />
	</node>
	<node lat="59.478088889842496" lon="8.807330547059108" id="-31520">
		<tag k="fixme" v="consider natural=peak for the most distinct mountains in the district" />
		<tag k="name" v="Astridnatten" />
		<tag k="natural" v="hill" />
		<tag k="place" v="locality" />
		<tag k="ssr:stedsnr" v="608008" />
	</node>
	<node lat="59.42497777609686" lon="8.653780563510223" id="-31523">
		<tag k="name" v="Seljordsheii" />
		<tag k="natural" v="hill" />
		<tag k="place" v="locality" />
		<tag k="ssr:stedsnr" v="608918" />
	</node>
	<node lat="59.484911108573456" lon="8.811972223529407" id="-31531">
		<tag k="name" v="Hønsevassdalen" />
		<tag k="natural" v="valley" />
		<tag k="place" v="locality" />
		<tag k="ssr:stedsnr" v="609024" />
	</node>
	<node lat="59.44956666409238" lon="8.614977773320257" id="-31534">
		<tag k="fixme" v="consider natural=peak for the most distinct mountains in the district" />
		<tag k="name" v="Stålås" />
		<tag k="natural" v="hill" />
		<tag k="place" v="locality" />
		<tag k="ssr:stedsnr" v="609089" />
	</node>
	<node lat="59.73698889182684" lon="8.294675000916014" id="-31536">
		<tag k="fixme" v="consider natural=peak for the most distinct mountains in the district" />
		<tag k="name" v="Lifjell" />
		<tag k="natural" v="hill" />
		<tag k="place" v="locality" />
		<tag k="ssr:stedsnr" v="609219" />
	</node>
	<node lat="59.711791667808974" lon="8.248897230663907" id="-31538">
		<tag k="name" v="Tritjørndalen" />
		<tag k="natural" v="valley" />
		<tag k="place" v="locality" />
		<tag k="ssr:stedsnr" v="609191" />
	</node>
	<node lat="59.714166670958136" lon="8.25154444358534" id="-31540">
		<tag k="fixme" v="consider natural=peak for the most distinct mountains in the district" />
		<tag k="name" v="Grønuten" />
		<tag k="natural" v="hill" />
		<tag k="place" v="locality" />
		<tag k="ssr:stedsnr" v="609197" />
	</node>
	<node lat="59.53336667085609" lon="8.404711110958432" id="-31545">
		<tag k="name" v="Bikkjekvæven" />
		<tag k="natural" v="valley" />
		<tag k="place" v="locality" />
		<tag k="ssr:stedsnr" v="609385" />
	</node>
	<node lat="59.561252781248726" lon="8.26256945063961" id="-31550">
		<tag k="alt_name" v="Grunntjønnut" />
		<tag k="fixme" v="consider natural=peak for the most distinct mountains in the district" />
		<tag k="name" v="Grunntjørnnuten" />
		<tag k="natural" v="hill" />
		<tag k="place" v="locality" />
		<tag k="ssr:stedsnr" v="610510" />
	</node>
	<node lat="59.54280555201663" lon="8.64983333706957" id="-31552">
		<tag k="name" v="Baklii" />
		<tag k="natural" v="slope" />
		<tag k="place" v="locality" />
		<tag k="ssr:stedsnr" v="610977" />
	</node>
	<node lat="59.54833611216505" lon="8.619994438156178" id="-31553">
		<tag k="name" v="Flatdal" />
		<tag k="natural" v="valley" />
		<tag k="place" v="locality" />
		<tag k="ssr:stedsnr" v="610980" />
	</node>
	<node lat="59.499669448847044" lon="8.566080549382391" id="-31558">
		<tag k="name" v="Sikkje" />
		<tag k="natural" v="slope" />
		<tag k="place" v="locality" />
		<tag k="ssr:stedsnr" v="703071" />
	</node>
	<node lat="59.471216664862965" lon="8.543758330221463" id="-31563">
		<tag k="fixme" v="consider natural=peak for the most distinct mountains in the district" />
		<tag k="name" v="Pyklimotåsen" />
		<tag k="natural" v="hill" />
		<tag k="place" v="locality" />
		<tag k="ssr:stedsnr" v="703279" />
	</node>
	<node lat="59.44470555455523" lon="8.718652781452805" id="-31566">
		<tag k="name" v="Sløtaskotet" />
		<tag k="natural" v="slope" />
		<tag k="place" v="locality" />
		<tag k="ssr:stedsnr" v="703737" />
	</node>
	<node lat="59.4592194421597" lon="8.678252785959794" id="-31567">
		<tag k="name" v="Blånuten" />
		<tag k="natural" v="hill" />
		<tag k="place" v="locality" />
		<tag k="ssr:stedsnr" v="703738" />
	</node>
	<node lat="59.46992500204873" lon="8.731016665137666" id="-31569">
		<tag k="fixme" v="consider natural=peak for the most distinct mountains in the district" />
		<tag k="name" v="Deildenuten" />
		<tag k="natural" v="hill" />
		<tag k="place" v="locality" />
		<tag k="ssr:stedsnr" v="704135" />
	</node>
	<node lat="59.454152778095334" lon="8.8137111110281" id="-31572">
		<tag k="fixme" v="consider natural=peak for the most distinct mountains in the district" />
		<tag k="name" v="Brendeåsen" />
		<tag k="natural" v="hill" />
		<tag k="place" v="locality" />
		<tag k="ssr:stedsnr" v="704046" />
	</node>
	<node lat="59.38441944649065" lon="8.833336118268155" id="-31574">
		<tag k="name" v="Repelia" />
		<tag k="natural" v="slope" />
		<tag k="place" v="locality" />
		<tag k="ssr:stedsnr" v="704081" />
	</node>
	<node lat="59.47305000275702" lon="8.779122223528008" id="-31575">
		<tag k="name" v="Breiøks" />
		<tag k="natural" v="cliff" />
		<tag k="ssr:stedsnr" v="704144" />
	</node>
	<node lat="59.5709250012301" lon="8.500161109322297" id="-31580">
		<tag k="name" v="Dalsbondenuten" />
		<tag k="natural" v="hill" />
		<tag k="place" v="locality" />
		<tag k="ssr:stedsnr" v="704814" />
	</node>
	<node lat="59.386449999339604" lon="8.785305547563192" id="-31587">
		<tag k="name" v="Eikedalen" />
		<tag k="natural" v="valley" />
		<tag k="place" v="locality" />
		<tag k="ssr:stedsnr" v="704900" />
	</node>
	<node lat="59.383969444964904" lon="8.817566660218748" id="-31589">
		<tag k="fixme" v="consider natural=peak for the most distinct mountains in the district" />
		<tag k="name" v="Tjønnflyåsane" />
		<tag k="natural" v="hill" />
		<tag k="place" v="locality" />
		<tag k="ssr:stedsnr" v="704916" />
	</node>
	<node lat="59.7100388886891" lon="8.403530552209928" id="-31590">
		<tag k="name" v="Klovsteingrøe" />
		<tag k="natural" v="slope" />
		<tag k="place" v="locality" />
		<tag k="ssr:stedsnr" v="704954" />
	</node>
	<node lat="59.4214277793329" lon="8.743175001357608" id="-31594">
		<tag k="name" v="Knutskåslia" />
		<tag k="natural" v="slope" />
		<tag k="place" v="locality" />
		<tag k="ssr:stedsnr" v="705000" />
	</node>
	<node lat="59.6690944464637" lon="8.465797218285095" id="-31598">
		<tag k="name" v="Skinstakkmyran" />
		<tag k="natural" v="valley" />
		<tag k="place" v="locality" />
		<tag k="ssr:stedsnr" v="705309" />
	</node>
	<node lat="59.62881389203589" lon="8.50925000046568" id="-31601">
		<tag k="name" v="Langedal" />
		<tag k="natural" v="valley" />
		<tag k="place" v="locality" />
		<tag k="ssr:stedsnr" v="705545" />
	</node>
	<node lat="59.423788892638065" lon="8.652494438021101" id="-31609">
		<tag k="name" v="Slækjedalen" />
		<tag k="natural" v="valley" />
		<tag k="place" v="locality" />
		<tag k="ssr:stedsnr" v="642233" />
	</node>
	<node lat="59.53743611360304" lon="8.406105548736008" id="-31610">
		<tag k="name" v="Saulid" />
		<tag k="natural" v="slope" />
		<tag k="place" v="locality" />
		<tag k="ssr:stedsnr" v="706079" />
	</node>
	<node lat="59.569097218881446" lon="8.385511107023994" id="-31611">
		<tag k="fixme" v="consider natural=peak for the most distinct mountains in the district" />
		<tag k="name" v="Stordalshovet" />
		<tag k="natural" v="hill" />
		<tag k="place" v="locality" />
		<tag k="ssr:stedsnr" v="706080" />
	</node>
	<node lat="59.67306666500506" lon="8.439772217048025" id="-31612">
		<tag k="fixme" v="consider natural=peak for the most distinct mountains in the district" />
		<tag k="name" v="Mjøltelidtjønni" />
		<tag k="natural" v="hill" />
		<tag k="place" v="locality" />
		<tag k="ssr:stedsnr" v="642516" />
	</node>
	<node lat="59.65281666785784" lon="8.406094436565995" id="-31614">
		<tag k="fixme" v="consider natural=peak for the most distinct mountains in the district" />
		<tag k="name" v="Tjønnestaulnuten" />
		<tag k="natural" v="hill" />
		<tag k="place" v="locality" />
		<tag k="ssr:stedsnr" v="642473" />
	</node>
	<node lat="59.5030972209908" lon="8.669658331736088" id="-31616">
		<tag k="name" v="Oksefall" />
		<tag k="natural" v="cliff" />
		<tag k="ssr:stedsnr" v="642613" />
	</node>
	<node lat="59.523344440791384" lon="8.614969436246817" id="-31618">
		<tag k="fixme" v="consider natural=peak for the most distinct mountains in the district" />
		<tag k="name" v="Spådomsnuten" />
		<tag k="natural" v="hill" />
		<tag k="place" v="locality" />
		<tag k="ssr:stedsnr" v="642688" />
	</node>
	<node lat="59.54297777983152" lon="8.568588883772179" id="-31619">
		<tag k="name" v="Rinden" />
		<tag k="place" v="locality" />
		<tag k="ssr:stedsnr" v="642829" />
	</node>
	<node lat="59.53079722135023" lon="8.448408333463556" id="-31620">
		<tag k="fixme" v="consider natural=peak for the most distinct mountains in the district" />
		<tag k="name" v="Tyskernuten" />
		<tag k="natural" v="hill" />
		<tag k="place" v="locality" />
		<tag k="ssr:stedsnr" v="706094" />
	</node>
	<node lat="59.537338887198125" lon="8.609899992235182" id="-31622">
		<tag k="name" v="Kløvhegni" />
		<tag k="natural" v="slope" />
		<tag k="place" v="locality" />
		<tag k="ssr:stedsnr" v="642882" />
	</node>
	<node lat="59.594436107517126" lon="8.38564999840402" id="-31624">
		<tag k="name" v="Jydalen" />
		<tag k="natural" v="valley" />
		<tag k="place" v="locality" />
		<tag k="ssr:stedsnr" v="643023" />
	</node>
	<node lat="59.42636111439907" lon="8.793930559077038" id="-31627">
		<tag k="name" v="Moen" />
		<tag k="place" v="locality" />
		<tag k="ssr:stedsnr" v="643031" />
	</node>
	<node lat="59.61867777607806" lon="8.423458341742691" id="-31628">
		<tag k="fixme" v="consider natural=peak for the most distinct mountains in the district" />
		<tag k="name" v="Vehusnuten" />
		<tag k="natural" v="hill" />
		<tag k="place" v="locality" />
		<tag k="ssr:stedsnr" v="643032" />
	</node>
	<node lat="59.37796111464677" lon="8.837069441386642" id="-31630">
		<tag k="name" v="Hønekleiv" />
		<tag k="natural" v="slope" />
		<tag k="place" v="locality" />
		<tag k="ssr:stedsnr" v="643207" />
	</node>
	<node lat="59.64414444626941" lon="8.444461116434544" id="-31631">
		<tag k="name" v="Blakkmanndalen" />
		<tag k="natural" v="valley" />
		<tag k="place" v="locality" />
		<tag k="ssr:stedsnr" v="642985" />
	</node>
	<node lat="59.58788333479743" lon="8.569802770021608" id="-31634">
		<tag k="name" v="Ordalen" />
		<tag k="natural" v="valley" />
		<tag k="place" v="locality" />
		<tag k="ssr:stedsnr" v="643782" />
	</node>
	<node lat="59.679194448617835" lon="8.331986111605026" id="-31641">
		<tag k="name" v="Rolidskaret" />
		<tag k="natural" v="valley" />
		<tag k="place" v="locality" />
		<tag k="ssr:stedsnr" v="644586" />
	</node>
	<node lat="59.69829999766237" lon="8.339999994981484" id="-31642">
		<tag k="fixme" v="consider natural=peak for the most distinct mountains in the district" />
		<tag k="name" v="Homshovd" />
		<tag k="natural" v="hill" />
		<tag k="place" v="locality" />
		<tag k="ssr:stedsnr" v="644726" />
	</node>
	<node lat="59.67686944207653" lon="8.33055278664156" id="-31644">
		<tag k="name" v="Fjøllstaulskaret" />
		<tag k="natural" v="valley" />
		<tag k="place" v="locality" />
		<tag k="ssr:stedsnr" v="706485" />
	</node>
	<node lat="59.611197219251494" lon="8.44998610756511" id="-31647">
		<tag k="fixme" v="consider natural=peak for the most distinct mountains in the district" />
		<tag k="name" v="Kvistaulnuten" />
		<tag k="natural" v="hill" />
		<tag k="place" v="locality" />
		<tag k="ssr:stedsnr" v="645774" />
	</node>
	<node lat="59.72218888805346" lon="8.350502774119029" id="-31654">
		<tag k="fixme" v="consider natural=peak for the most distinct mountains in the district" />
		<tag k="name" v="Grønuten" />
		<tag k="natural" v="hill" />
		<tag k="place" v="locality" />
		<tag k="ssr:stedsnr" v="706956" />
	</node>
	<node lat="59.5996861110237" lon="8.320466663845043" id="-31655">
		<tag k="name" v="Heggstaulstigen" />
		<tag k="natural" v="slope" />
		<tag k="place" v="locality" />
		<tag k="ssr:stedsnr" v="648414" />
	</node>
	<node lat="59.59501388926325" lon="8.328055561456457" id="-31658">
		<tag k="name" v="Goplenuten" />
		<tag k="natural" v="hill" />
		<tag k="place" v="locality" />
		<tag k="ssr:stedsnr" v="648392" />
	</node>
	<node lat="59.650105551414406" lon="8.334552772112033" id="-31662">
		<tag k="name" v="Langedal" />
		<tag k="natural" v="valley" />
		<tag k="place" v="locality" />
		<tag k="ssr:stedsnr" v="649120" />
	</node>
	<node lat="59.648550002960015" lon="8.33273055393469" id="-31664">
		<tag k="name" v="Rysarbergi" />
		<tag k="natural" v="hill" />
		<tag k="place" v="locality" />
		<tag k="ssr:stedsnr" v="649123" />
	</node>
	<node lat="59.630033332782936" lon="8.357750000521666" id="-31665">
		<tag k="fixme" v="consider natural=peak for the most distinct mountains in the district" />
		<tag k="name" v="Ramsedalnutane" />
		<tag k="natural" v="hill" />
		<tag k="place" v="locality" />
		<tag k="ssr:stedsnr" v="649128" />
	</node>
	<node lat="59.71043888810364" lon="8.265699997896915" id="-31666">
		<tag k="name" v="Åto-fjellet" />
		<tag k="natural" v="hill" />
		<tag k="place" v="locality" />
		<tag k="ssr:stedsnr" v="649237" />
	</node>
	<node lat="59.61273333032569" lon="8.355269441700761" id="-31667">
		<tag k="name" v="Kåbakkan" />
		<tag k="natural" v="slope" />
		<tag k="place" v="locality" />
		<tag k="ssr:stedsnr" v="649391" />
	</node>
	<node lat="59.608097224884226" lon="8.3027027806128" id="-31672">
		<tag k="fixme" v="consider natural=peak for the most distinct mountains in the district" />
		<tag k="name" v="Fjøllstaulnuten" />
		<tag k="natural" v="hill" />
		<tag k="place" v="locality" />
		<tag k="ssr:stedsnr" v="709485" />
	</node>
	<node lat="59.67286666500504" lon="8.233469446304701" id="-31675">
		<tag k="fixme" v="consider natural=peak for the most distinct mountains in the district" />
		<tag k="name" v="Bjønnuten" />
		<tag k="natural" v="hill" />
		<tag k="place" v="locality" />
		<tag k="ssr:stedsnr" v="710148" />
	</node>
	<node lat="59.62233055934178" lon="8.329583334925838" id="-31676">
		<tag k="fixme" v="consider natural=peak for the most distinct mountains in the district" />
		<tag k="name" v="Stukkegrønuten" />
		<tag k="natural" v="hill" />
		<tag k="place" v="locality" />
		<tag k="ssr:stedsnr" v="710153" />
	</node>
	<node lat="59.613986106802" lon="8.38005000147954" id="-31679">
		<tag k="name" v="Valelian" />
		<tag k="natural" v="slope" />
		<tag k="place" v="locality" />
		<tag k="ssr:stedsnr" v="710297" />
	</node>
	<node lat="59.66960555169575" lon="8.370822214029356" id="-31698">
		<tag k="alt_name" v="Bjønndalnuten" />
		<tag k="fixme" v="consider natural=peak for the most distinct mountains in the district" />
		<tag k="name" v="Bjørndalsnuten" />
		<tag k="natural" v="hill" />
		<tag k="place" v="locality" />
		<tag k="ssr:stedsnr" v="670128" />
	</node>
	<node lat="59.45186667029262" lon="8.552536116710513" id="-31699">
		<tag k="name" v="Tjovdalen" />
		<tag k="natural" v="valley" />
		<tag k="place" v="locality" />
		<tag k="ssr:stedsnr" v="670092" />
	</node>
	<node lat="59.72369722509725" lon="8.292441672793919" id="-31700">
		<tag k="name" v="Brureskard" />
		<tag k="natural" v="valley" />
		<tag k="place" v="locality" />
		<tag k="ssr:stedsnr" v="670218" />
	</node>
	<node lat="59.704972225777375" lon="8.224083331102491" id="-31714">
		<tag k="fixme" v="consider natural=peak for the most distinct mountains in the district" />
		<tag k="name" v="Angersfjellet" />
		<tag k="natural" v="hill" />
		<tag k="place" v="locality" />
		<tag k="ssr:stedsnr" v="892235" />
	</node>
	<node lat="59.60798055616997" lon="8.337152770668139" id="-31717">
		<tag k="name" v="Ospelonnstigan" />
		<tag k="natural" v="slope" />
		<tag k="place" v="locality" />
		<tag k="ssr:stedsnr" v="892342" />
	</node>
	<node lat="59.43166944293742" lon="8.844988894550612" id="-31718">
		<tag k="name" v="Skolmyrdalen" />
		<tag k="natural" v="valley" />
		<tag k="place" v="locality" />
		<tag k="ssr:stedsnr" v="892947" />
	</node>
	<node lat="59.588816670515" lon="8.338491664166806" id="-31720">
		<tag k="fixme" v="consider natural=peak for the most distinct mountains in the district" />
		<tag k="name" v="Goplenuten" />
		<tag k="natural" v="hill" />
		<tag k="place" v="locality" />
		<tag k="ssr:stedsnr" v="893055" />
	</node>
	<node lat="59.46779721882816" lon="8.797213892390051" id="-31722">
		<tag k="name" v="Dordi" />
		<tag k="natural" v="hill" />
		<tag k="place" v="locality" />
		<tag k="ssr:stedsnr" v="703224" />
	</node>
	<node lat="59.41745277799153" lon="8.684836108066508" id="-31723">
		<tag k="name" v="Staulsdalen" />
		<tag k="natural" v="valley" />
		<tag k="place" v="locality" />
		<tag k="ssr:stedsnr" v="703416" />
	</node>
	<node lat="59.55615277585209" lon="8.631247224245152" id="-31725">
		<tag k="name" v="Øvre Langeli" />
		<tag k="natural" v="slope" />
		<tag k="place" v="locality" />
		<tag k="ssr:stedsnr" v="703438" />
	</node>
	<node lat="59.48968611214946" lon="8.700772215708156" id="-31726">
		<tag k="name" v="Bindingslid" />
		<tag k="natural" v="slope" />
		<tag k="place" v="locality" />
		<tag k="ssr:stedsnr" v="703617" />
	</node>
	<node lat="59.51940555427728" lon="8.625488885815262" id="-31731">
		<tag k="name" v="Listaulskaret" />
		<tag k="natural" v="valley" />
		<tag k="place" v="locality" />
		<tag k="ssr:stedsnr" v="703723" />
	</node>
	<node lat="59.42884166710248" lon="8.750072220172786" id="-31735">
		<tag k="name" v="Borgarhølun" />
		<tag k="natural" v="slope" />
		<tag k="place" v="locality" />
		<tag k="ssr:stedsnr" v="704158" />
	</node>
	<node lat="59.71916666338803" lon="8.407819450888649" id="-31740">
		<tag k="name" v="Brattefjelldalen" />
		<tag k="natural" v="valley" />
		<tag k="place" v="locality" />
		<tag k="ssr:stedsnr" v="704961" />
	</node>
	<node lat="59.578491662958605" lon="8.462208331087504" id="-31743">
		<tag k="fixme" v="consider natural=peak for the most distinct mountains in the district" />
		<tag k="name" v="Mjøltenuten" />
		<tag k="natural" v="hill" />
		<tag k="place" v="locality" />
		<tag k="ssr:stedsnr" v="706030" />
	</node>
	<node lat="59.54855277363453" lon="8.448211106784493" id="-31744">
		<tag k="fixme" v="consider natural=peak for the most distinct mountains in the district" />
		<tag k="name" v="Brendeåsan" />
		<tag k="natural" v="hill" />
		<tag k="place" v="locality" />
		<tag k="ssr:stedsnr" v="706109" />
	</node>
	<node lat="59.668755551907076" lon="8.335322219500755" id="-31745">
		<tag k="name" v="Erteknattdekkan" />
		<tag k="natural" v="slope" />
		<tag k="place" v="locality" />
		<tag k="ssr:stedsnr" v="706477" />
	</node>
	<node lat="59.68417222521729" lon="8.244530557190734" id="-31749">
		<tag k="fixme" v="consider natural=peak for the most distinct mountains in the district" />
		<tag k="name" v="Sollidfjellet" />
		<tag k="natural" v="hill" />
		<tag k="place" v="locality" />
		<tag k="ssr:stedsnr" v="710219" />
	</node>
	<node lat="59.68417222521729" lon="8.244530557190734" id="-31750">
		<tag k="fixme" v="consider natural=peak for the most distinct mountains in the district" />
		<tag k="name" v="Sollidfjellet" />
		<tag k="natural" v="hill" />
		<tag k="place" v="locality" />
		<tag k="ssr:stedsnr" v="710222" />
	</node>
	<node lat="59.56251388524867" lon="8.363597220504833" id="-31751">
		<tag k="fixme" v="consider natural=peak for the most distinct mountains in the district" />
		<tag k="name" v="Bindingskyrkja" />
		<tag k="natural" v="hill" />
		<tag k="place" v="locality" />
		<tag k="ssr:stedsnr" v="710232" />
	</node>
	<node lat="59.603586113040286" lon="8.350283327993532" id="-31752">
		<tag k="name" v="Bruhaug" />
		<tag k="natural" v="hill" />
		<tag k="place" v="locality" />
		<tag k="ssr:stedsnr" v="710304" />
	</node>
	<node lat="59.598188893082636" lon="8.576869446811504" id="-31753">
		<tag k="name" v="Blautemyrdalen" />
		<tag k="natural" v="valley" />
		<tag k="place" v="locality" />
		<tag k="ssr:stedsnr" v="711077" />
	</node>
	<node lat="59.64103889063438" lon="8.37087777208376" id="-31754">
		<tag k="fixme" v="consider natural=peak for the most distinct mountains in the district" />
		<tag k="name" v="Kophaug" />
		<tag k="natural" v="hill" />
		<tag k="place" v="locality" />
		<tag k="ssr:stedsnr" v="711078" />
	</node>
	<node lat="59.46913888718556" lon="8.55710277332461" id="-31756">
		<tag k="fixme" v="consider natural=peak for the most distinct mountains in the district" />
		<tag k="name" v="Raudbergnuten" />
		<tag k="natural" v="hill" />
		<tag k="place" v="locality" />
		<tag k="ssr:stedsnr" v="730006" />
	</node>
	<node lat="59.38496944772647" lon="8.695899995152008" id="-31761">
		<tag k="alt_name" v="Bjørndalen" />
		<tag k="name" v="Bjønndalane" />
		<tag k="natural" v="valley" />
		<tag k="place" v="locality" />
		<tag k="ssr:stedsnr" v="730804" />
	</node>
	<node lat="59.45293610977153" lon="8.61325000488741" id="-31765">
		<tag k="fixme" v="consider natural=peak for the most distinct mountains in the district" />
		<tag k="name" v="Årnotra" />
		<tag k="natural" v="hill" />
		<tag k="place" v="locality" />
		<tag k="ssr:stedsnr" v="731075" />
	</node>
	<node lat="59.7167805562064" lon="8.298633340455124" id="-31767">
		<tag k="name" v="Gjuvi" />
		<tag k="natural" v="gorge" />
		<tag k="ssr:stedsnr" v="731160" />
	</node>
	<node lat="59.72193055116821" lon="8.318188887369304" id="-31768">
		<tag k="alt_name" v="Ormesognut" />
		<tag k="fixme" v="consider natural=peak for the most distinct mountains in the district" />
		<tag k="name" v="Ormstokknuten" />
		<tag k="natural" v="hill" />
		<tag k="place" v="locality" />
		<tag k="ssr:stedsnr" v="731162" />
	</node>
	<node lat="59.61636944758166" lon="8.524558329939744" id="-31771">
		<tag k="fixme" v="consider natural=peak for the most distinct mountains in the district" />
		<tag k="name" v="Espelinuten" />
		<tag k="natural" v="hill" />
		<tag k="place" v="locality" />
		<tag k="ssr:stedsnr" v="731757" />
	</node>
	<node lat="59.54587777752456" lon="8.488569444310128" id="-31776">
		<tag k="fixme" v="consider natural=peak for the most distinct mountains in the district" />
		<tag k="name" v="Jaspisfjellet" />
		<tag k="natural" v="hill" />
		<tag k="place" v="locality" />
		<tag k="ssr:stedsnr" v="731959" />
	</node>
	<node lat="59.55002499590353" lon="8.547180553400388" id="-31777">
		<tag k="name" v="Rogneli" />
		<tag k="natural" v="slope" />
		<tag k="place" v="locality" />
		<tag k="ssr:stedsnr" v="731963" />
	</node>
	<node lat="59.53946389191575" lon="8.584352784562732" id="-31778">
		<tag k="fixme" v="consider natural=peak for the most distinct mountains in the district" />
		<tag k="name" v="Vårhegnrinden" />
		<tag k="natural" v="hill" />
		<tag k="place" v="locality" />
		<tag k="ssr:stedsnr" v="731971" />
	</node>
	<node lat="59.54015000059754" lon="8.574724993533916" id="-31779">
		<tag k="name" v="Susarbekkgjuvet" />
		<tag k="natural" v="valley" />
		<tag k="place" v="locality" />
		<tag k="ssr:stedsnr" v="731972" />
	</node>
	<node lat="59.45657500312115" lon="8.77426110485225" id="-31782">
		<tag k="fixme" v="consider natural=peak for the most distinct mountains in the district" />
		<tag k="name" v="Stigen" />
		<tag k="natural" v="hill" />
		<tag k="place" v="locality" />
		<tag k="ssr:stedsnr" v="763128" />
	</node>
	<node lat="59.45769999982908" lon="8.76961666342168" id="-31783">
		<tag k="fixme" v="consider natural=peak for the most distinct mountains in the district" />
		<tag k="name" v="Stigfjellet" />
		<tag k="natural" v="hill" />
		<tag k="place" v="locality" />
		<tag k="ssr:stedsnr" v="763129" />
	</node>
	<node lat="59.448166665457464" lon="8.763358332183406" id="-31787">
		<tag k="name" v="Askedalen" />
		<tag k="natural" v="valley" />
		<tag k="place" v="locality" />
		<tag k="ssr:stedsnr" v="764104" />
	</node>
	<node lat="59.42739444534985" lon="8.71371111532439" id="-31797">
		<tag k="name" v="Tårånskleiv" />
		<tag k="natural" v="gorge" />
		<tag k="ssr:stedsnr" v="764651" />
	</node>
	<node lat="59.59223333630522" lon="8.551502784427143" id="-31800">
		<tag k="name" v="Deildeflot" />
		<tag k="place" v="locality" />
		<tag k="ssr:stedsnr" v="764856" />
	</node>
	<node lat="59.437124998747954" lon="8.829499998727073" id="-31802">
		<tag k="fixme" v="consider natural=peak for the most distinct mountains in the district" />
		<tag k="name" v="Rundebergåsen" />
		<tag k="natural" v="hill" />
		<tag k="place" v="locality" />
		<tag k="ssr:stedsnr" v="765009" />
	</node>
	<node lat="59.483077776505496" lon="8.615191672717161" id="-31806">
		<tag k="name" v="Gravshaugane" />
		<tag k="natural" v="hill" />
		<tag k="place" v="locality" />
		<tag k="ssr:stedsnr" v="764800" />
	</node>
	<node lat="59.541961108825994" lon="8.515569442874172" id="-31807">
		<tag k="name" v="Breidalane" />
		<tag k="natural" v="valley" />
		<tag k="place" v="locality" />
		<tag k="ssr:stedsnr" v="764903" />
	</node>
	<node lat="59.53902499718687" lon="8.599783330718244" id="-31808">
		<tag k="name" v="Storskrida" />
		<tag k="natural" v="slope" />
		<tag k="place" v="locality" />
		<tag k="ssr:stedsnr" v="764908" />
	</node>
	<node lat="59.65400555303274" lon="8.46604444840739" id="-31810">
		<tag k="name" v="Langeliåsen" />
		<tag k="natural" v="hill" />
		<tag k="place" v="locality" />
		<tag k="ssr:stedsnr" v="764996" />
	</node>
	<node lat="59.4121555514153" lon="8.789922213788453" id="-31813">
		<tag k="fixme" v="consider natural=peak for the most distinct mountains in the district" />
		<tag k="name" v="Dammyråsane" />
		<tag k="natural" v="hill" />
		<tag k="place" v="locality" />
		<tag k="ssr:stedsnr" v="765978" />
	</node>
	<node lat="59.620502780592375" lon="8.457533337015876" id="-31819">
		<tag k="name" v="Mørkedal" />
		<tag k="natural" v="valley" />
		<tag k="place" v="locality" />
		<tag k="ssr:stedsnr" v="766823" />
	</node>
	<node lat="59.541027780268024" lon="8.387369438109001" id="-31821">
		<tag k="name" v="Geitebudalen" />
		<tag k="natural" v="valley" />
		<tag k="place" v="locality" />
		<tag k="ssr:stedsnr" v="767091" />
	</node>
	<node lat="59.60825833177339" lon="8.366344440568481" id="-31824">
		<tag k="name" v="Valekvæven" />
		<tag k="natural" v="slope" />
		<tag k="place" v="locality" />
		<tag k="ssr:stedsnr" v="770273" />
	</node>
	<node lat="59.5918055545361" lon="8.374002769122537" id="-31825">
		<tag k="name" v="Ossbog" />
		<tag k="natural" v="hill" />
		<tag k="place" v="locality" />
		<tag k="ssr:stedsnr" v="770117" />
	</node>
	<node lat="59.63182500364041" lon="8.353033325056233" id="-31829">
		<tag k="name" v="Johansdal" />
		<tag k="natural" v="valley" />
		<tag k="place" v="locality" />
		<tag k="ssr:stedsnr" v="770128" />
	</node>
	<node lat="59.63230833180004" lon="8.323097218268305" id="-31830">
		<tag k="fixme" v="consider natural=peak for the most distinct mountains in the district" />
		<tag k="name" v="Vehovdnut" />
		<tag k="natural" v="hill" />
		<tag k="place" v="locality" />
		<tag k="ssr:stedsnr" v="770163" />
	</node>
	<node lat="59.58498888759257" lon="8.311027778622035" id="-31831">
		<tag k="name" v="Gamleseldalen" />
		<tag k="natural" v="valley" />
		<tag k="place" v="locality" />
		<tag k="ssr:stedsnr" v="770356" />
	</node>
	<node lat="59.57856388682976" lon="8.27644444794147" id="-31833">
		<tag k="name" v="Birkestauljuvet" />
		<tag k="natural" v="gorge" />
		<tag k="old_name" v="Birkesatuljuvet" />
		<tag k="ssr:stedsnr" v="770367" />
	</node>
	<node lat="59.48651111091324" lon="8.775013891420345" id="-31842">
		<tag k="name" v="Lifjell" />
		<tag k="natural" v="mountain_range" />
		<tag k="ssr:stedsnr" v="791041" />
	</node>
	<node lat="59.45325000021095" lon="8.63955832604293" id="-31843">
		<tag k="fixme" v="consider natural=peak for the most distinct mountains in the district" />
		<tag k="name" v="Hestemyrfjellet" />
		<tag k="natural" v="hill" />
		<tag k="place" v="locality" />
		<tag k="ssr:stedsnr" v="791099" />
	</node>
	<node lat="59.612544447353685" lon="8.540813881987328" id="-31850">
		<tag k="fixme" v="consider natural=peak for the most distinct mountains in the district" />
		<tag k="name" v="Midtlibroti" />
		<tag k="natural" v="hill" />
		<tag k="place" v="locality" />
		<tag k="ssr:stedsnr" v="792114" />
	</node>
	<node lat="59.63309166852324" lon="8.522461116149229" id="-31851">
		<tag k="fixme" v="consider natural=peak for the most distinct mountains in the district" />
		<tag k="name" v="Skinnuten" />
		<tag k="natural" v="hill" />
		<tag k="place" v="locality" />
		<tag k="ssr:stedsnr" v="792115" />
	</node>
	<node lat="59.578036107868385" lon="8.313791670403791" id="-31853">
		<tag k="fixme" v="consider natural=peak for the most distinct mountains in the district" />
		<tag k="name" v="Ramosnuten" />
		<tag k="natural" v="hill" />
		<tag k="place" v="locality" />
		<tag k="ssr:stedsnr" v="792431" />
	</node>
	<node lat="59.66965555564223" lon="8.397533337394174" id="-31857">
		<tag k="alt_name" v="Snøfonnuten" />
		<tag k="fixme" v="consider natural=peak for the most distinct mountains in the district" />
		<tag k="name" v="Snøfonnskarnut" />
		<tag k="natural" v="hill" />
		<tag k="place" v="locality" />
		<tag k="ssr:stedsnr" v="792345" />
	</node>
	<node lat="59.68340833358327" lon="8.469463893650717" id="-31864">
		<tag k="name" v="Smørbrekkdalen" />
		<tag k="natural" v="valley" />
		<tag k="place" v="locality" />
		<tag k="ssr:stedsnr" v="792705" />
	</node>
	<node lat="59.647536113026845" lon="8.485213895069514" id="-31865">
		<tag k="fixme" v="consider natural=peak for the most distinct mountains in the district" />
		<tag k="name" v="Knurrlinatten" />
		<tag k="natural" v="hill" />
		<tag k="place" v="locality" />
		<tag k="ssr:stedsnr" v="792708" />
	</node>
	<node lat="59.527049997331034" lon="8.768061115441363" id="-31866">
		<tag k="fixme" v="consider natural=peak for the most distinct mountains in the district" />
		<tag k="name" v="Elslinuten" />
		<tag k="natural" v="hill" />
		<tag k="place" v="locality" />
		<tag k="ssr:stedsnr" v="792987" />
	</node>
	<node lat="59.75321666666527" lon="8.446663895259832" id="-31868">
		<tag k="alt_name" v="Sjånut" />
		<tag k="fixme" v="consider natural=peak for the most distinct mountains in the district" />
		<tag k="name" v="Sjånuten" />
		<tag k="natural" v="hill" />
		<tag k="place" v="locality" />
		<tag k="ssr:stedsnr" v="793107" />
	</node>
	<node lat="59.482341667525475" lon="8.751875004147303" id="-31875">
		<tag k="name" v="Gråndalen" />
		<tag k="natural" v="valley" />
		<tag k="place" v="locality" />
		<tag k="ssr:stedsnr" v="913027" />
	</node>
	<node lat="59.48551388736123" lon="8.778197220530396" id="-31876">
		<tag k="name" v="Røysedalan" />
		<tag k="natural" v="valley" />
		<tag k="place" v="locality" />
		<tag k="ssr:stedsnr" v="913029" />
	</node>
	<node lat="59.71291944017567" lon="8.40635833247816" id="-31881">
		<tag k="fixme" v="consider natural=peak for the most distinct mountains in the district" />
		<tag k="name" v="Svafjell" />
		<tag k="natural" v="hill" />
		<tag k="place" v="locality" />
		<tag k="ssr:stedsnr" v="913189" />
	</node>
	<node lat="59.66283055640701" lon="8.418816660273665" id="-31886">
		<tag k="fixme" v="consider natural=peak for the most distinct mountains in the district" />
		<tag k="name" v="Djupedokknuten" />
		<tag k="natural" v="hill" />
		<tag k="place" v="locality" />
		<tag k="ssr:stedsnr" v="913351" />
	</node>
	<node lat="59.615636110771625" lon="8.532669451226313" id="-31898">
		<tag k="alt_name" v="Bøkkrenetten" />
		<tag k="fixme" v="consider natural=peak for the most distinct mountains in the district" />
		<tag k="name" v="Bøkrenatten" />
		<tag k="natural" v="hill" />
		<tag k="place" v="locality" />
		<tag k="ssr:stedsnr" v="913753" />
	</node>
	<node lat="59.56943611248617" lon="8.679380560016229" id="-31903">
		<tag k="name" v="Langeskard" />
		<tag k="natural" v="valley" />
		<tag k="place" v="locality" />
		<tag k="ssr:stedsnr" v="913925" />
	</node>
	<node lat="59.55056388689759" lon="8.47675277240026" id="-31905">
		<tag k="fixme" v="consider natural=peak for the most distinct mountains in the district" />
		<tag k="name" v="Ramsås" />
		<tag k="natural" v="hill" />
		<tag k="place" v="locality" />
		<tag k="ssr:stedsnr" v="913960" />
	</node>
	<node lat="59.54228055297462" lon="8.572238893558954" id="-31907">
		<tag k="name" v="Skinholet" />
		<tag k="natural" v="valley" />
		<tag k="place" v="locality" />
		<tag k="ssr:stedsnr" v="913967" />
	</node>
	<node lat="59.52513333546061" lon="8.608461114371888" id="-31908">
		<tag k="fixme" v="consider natural=peak for the most distinct mountains in the district" />
		<tag k="name" v="Humlenesfjellet" />
		<tag k="natural" v="hill" />
		<tag k="place" v="locality" />
		<tag k="ssr:stedsnr" v="913999" />
	</node>
	<node lat="59.37186666298696" lon="8.829213880599509" id="-31918">
		<tag k="name" v="Godtholdalen" />
		<tag k="natural" v="valley" />
		<tag k="place" v="locality" />
		<tag k="ssr:stedsnr" v="823199" />
	</node>
	<node lat="59.45983611374089" lon="8.744494437240963" id="-31919">
		<tag k="name" v="Tjørebrenna" />
		<tag k="natural" v="slope" />
		<tag k="place" v="locality" />
		<tag k="ssr:stedsnr" v="824113" />
	</node>
	<node lat="59.44780555515946" lon="8.76093888769667" id="-31923">
		<tag k="name" v="Ingerskot" />
		<tag k="natural" v="cliff" />
		<tag k="ssr:stedsnr" v="825071" />
	</node>
	<node lat="59.55062499975282" lon="8.630694446756388" id="-31925">
		<tag k="fixme" v="consider natural=peak for the most distinct mountains in the district" />
		<tag k="name" v="Sjåheimsberget" />
		<tag k="natural" v="hill" />
		<tag k="place" v="locality" />
		<tag k="ssr:stedsnr" v="825370" />
	</node>
	<node lat="59.59273332888418" lon="8.522947225241126" id="-31928">
		<tag k="fixme" v="consider natural=peak for the most distinct mountains in the district" />
		<tag k="name" v="Lonette" />
		<tag k="natural" v="hill" />
		<tag k="place" v="locality" />
		<tag k="ssr:stedsnr" v="825864" />
	</node>
	<node lat="59.60185833567077" lon="8.53642499556532" id="-31936">
		<tag k="fixme" v="consider natural=peak for the most distinct mountains in the district" />
		<tag k="name" v="Livsengåsen" />
		<tag k="natural" v="hill" />
		<tag k="place" v="locality" />
		<tag k="ssr:stedsnr" v="826213" />
	</node>
	<node lat="59.61261667068574" lon="8.50439166081397" id="-31937">
		<tag k="name" v="Timredalen" />
		<tag k="natural" v="valley" />
		<tag k="place" v="locality" />
		<tag k="ssr:stedsnr" v="826220" />
	</node>
	<node lat="59.5631444468089" lon="8.409233330618552" id="-31941">
		<tag k="fixme" v="consider natural=peak for the most distinct mountains in the district" />
		<tag k="name" v="Brennåsen" />
		<tag k="natural" v="hill" />
		<tag k="place" v="locality" />
		<tag k="ssr:stedsnr" v="826105" />
	</node>
	<node lat="59.428411106972035" lon="8.753783324847223" id="-31942">
		<tag k="name" v="Tømmerhammar" />
		<tag k="natural" v="hill" />
		<tag k="place" v="locality" />
		<tag k="ssr:stedsnr" v="826175" />
	</node>
	<node lat="59.38224722297131" lon="8.823174993557908" id="-31947">
		<tag k="fixme" v="consider natural=peak for the most distinct mountains in the district" />
		<tag k="name" v="Hugarosfjellet" />
		<tag k="natural" v="hill" />
		<tag k="place" v="locality" />
		<tag k="ssr:stedsnr" v="826940" />
	</node>
	<node lat="59.673258331930434" lon="8.455902779828806" id="-31951">
		<tag k="name" v="Kjetilsberget" />
		<tag k="natural" v="hill" />
		<tag k="place" v="locality" />
		<tag k="ssr:stedsnr" v="827310" />
	</node>
	<node lat="59.66201389305763" lon="8.359016665208356" id="-31952">
		<tag k="fixme" v="consider natural=peak for the most distinct mountains in the district" />
		<tag k="name" v="Nibbestadnuten" />
		<tag k="natural" v="hill" />
		<tag k="place" v="locality" />
		<tag k="ssr:stedsnr" v="827566" />
	</node>
	<node lat="59.60631111512718" lon="8.457966674663446" id="-31956">
		<tag k="fixme" v="consider natural=peak for the most distinct mountains in the district" />
		<tag k="name" v="Kvitufs" />
		<tag k="natural" v="hill" />
		<tag k="place" v="locality" />
		<tag k="ssr:stedsnr" v="827684" />
	</node>
	<node lat="59.6288972230298" lon="8.454608336818067" id="-31957">
		<tag k="name" v="Bjønnkjerrnuten" />
		<tag k="natural" v="hill" />
		<tag k="place" v="locality" />
		<tag k="ssr:stedsnr" v="827814" />
	</node>
	<node lat="59.553469448457065" lon="8.431472230627469" id="-31959">
		<tag k="name" v="Høyskotet" />
		<tag k="natural" v="cliff" />
		<tag k="ssr:stedsnr" v="828085" />
	</node>
	<node lat="59.61468055117635" lon="8.349880548264295" id="-31960">
		<tag k="name" v="Vierdalen" />
		<tag k="natural" v="valley" />
		<tag k="place" v="locality" />
		<tag k="ssr:stedsnr" v="831339" />
	</node>
	<node lat="59.586841664580525" lon="8.289711106865639" id="-31961">
		<tag k="fixme" v="consider natural=peak for the most distinct mountains in the district" />
		<tag k="name" v="Fosseroåsen" />
		<tag k="natural" v="hill" />
		<tag k="place" v="locality" />
		<tag k="ssr:stedsnr" v="831381" />
	</node>
	<node lat="59.59766388894795" lon="8.275250001871237" id="-31963">
		<tag k="name" v="Stabbedalen" />
		<tag k="natural" v="valley" />
		<tag k="place" v="locality" />
		<tag k="ssr:stedsnr" v="831400" />
	</node>
	<node lat="59.38018611224078" lon="8.788808329618913" id="-31975">
		<tag k="fixme" v="consider natural=peak for the most distinct mountains in the district" />
		<tag k="name" v="Damnuten" />
		<tag k="natural" v="hill" />
		<tag k="place" v="locality" />
		<tag k="ssr:stedsnr" v="852760" />
	</node>
	<node lat="59.60286666322239" lon="8.577191674917266" id="-31981">
		<tag k="fixme" v="consider natural=peak for the most distinct mountains in the district" />
		<tag k="name" v="Brennun" />
		<tag k="natural" v="hill" />
		<tag k="place" v="locality" />
		<tag k="ssr:stedsnr" v="852861" />
	</node>
	<node lat="59.69281944646449" lon="8.427888893767697" id="-31985">
		<tag k="fixme" v="consider natural=peak for the most distinct mountains in the district" />
		<tag k="name" v="Solheimshaugnuten" />
		<tag k="natural" v="hill" />
		<tag k="place" v="locality" />
		<tag k="ssr:stedsnr" v="853111" />
	</node>
	<node lat="59.699402778286796" lon="8.367491662699695" id="-31987">
		<tag k="name" v="Hestegrette" />
		<tag k="natural" v="hill" />
		<tag k="place" v="locality" />
		<tag k="ssr:stedsnr" v="853154" />
	</node>
	<node lat="59.70319444769612" lon="8.219038886536177" id="-31990">
		<tag k="alt_name" v="Brure-nuten" />
		<tag k="fixme" v="consider natural=peak for the most distinct mountains in the district" />
		<tag k="name" v="Brurnuten" />
		<tag k="natural" v="hill" />
		<tag k="place" v="locality" />
		<tag k="ssr:stedsnr" v="853166" />
	</node>
	<node lat="59.60080277482049" lon="8.440241669179159" id="-31995">
		<tag k="name" v="Dyrlandsdalen" />
		<tag k="natural" v="valley" />
		<tag k="place" v="locality" />
		<tag k="ssr:stedsnr" v="853253" />
	</node>
	<node lat="59.4341777749335" lon="8.627252778364637" id="-32000">
		<tag k="name" v="Hesterovedalen" />
		<tag k="natural" v="valley" />
		<tag k="place" v="locality" />
		<tag k="ssr:stedsnr" v="885318" />
	</node>
	<node lat="59.46745833640292" lon="8.73409722877128" id="-32002">
		<tag k="name" v="Grønlid" />
		<tag k="natural" v="slope" />
		<tag k="place" v="locality" />
		<tag k="ssr:stedsnr" v="886112" />
	</node>
	<node lat="59.45006110713458" lon="8.769955562249578" id="-32005">
		<tag k="name" v="Heklekleiv" />
		<tag k="natural" v="slope" />
		<tag k="place" v="locality" />
		<tag k="ssr:stedsnr" v="886096" />
	</node>
	<node lat="59.454583337439786" lon="8.64529443752616" id="-32010">
		<tag k="name" v="Elgskori" />
		<tag k="old_name" v="Elkskori" />
		<tag k="place" v="locality" />
		<tag k="ssr:stedsnr" v="886711" />
	</node>
	<node lat="59.43564444572687" lon="8.702388885740586" id="-32012">
		<tag k="name" v="Gladkollbakkane" />
		<tag k="natural" v="slope" />
		<tag k="place" v="locality" />
		<tag k="ssr:stedsnr" v="886666" />
	</node>
	<node lat="59.583625000942874" lon="8.566627784608041" id="-32014">
		<tag k="name" v="Klappin-Sverje" />
		<tag k="natural" v="hill" />
		<tag k="place" v="locality" />
		<tag k="ssr:stedsnr" v="886805" />
	</node>
	<node lat="59.53145277392954" lon="8.59143055185729" id="-32018">
		<tag k="name" v="Gygretrappine" />
		<tag k="natural" v="cliff" />
		<tag k="ssr:stedsnr" v="886897" />
	</node>
	<node lat="59.531594445927446" lon="8.555891663175627" id="-32019">
		<tag k="fixme" v="consider natural=peak for the most distinct mountains in the district" />
		<tag k="name" v="Ønskjenuten" />
		<tag k="natural" v="hill" />
		<tag k="place" v="locality" />
		<tag k="ssr:stedsnr" v="886898" />
	</node>
	<node lat="59.5321611072427" lon="8.609141661465866" id="-32020">
		<tag k="fixme" v="consider natural=peak for the most distinct mountains in the district" />
		<tag k="name" v="Einhentonuten" />
		<tag k="natural" v="hill" />
		<tag k="place" v="locality" />
		<tag k="ssr:stedsnr" v="886900" />
	</node>
	<node lat="59.56789444215948" lon="8.483466666450372" id="-32022">
		<tag k="fixme" v="consider natural=peak for the most distinct mountains in the district" />
		<tag k="name" v="Klingen" />
		<tag k="natural" v="hill" />
		<tag k="place" v="locality" />
		<tag k="ssr:stedsnr" v="887099" />
	</node>
	<node lat="59.4145388908088" lon="8.800094442314622" id="-32027">
		<tag k="name" v="Torbjørnskås" />
		<tag k="natural" v="slope" />
		<tag k="place" v="locality" />
		<tag k="ssr:stedsnr" v="887927" />
	</node>
	<node lat="59.567427781876916" lon="8.547630563326933" id="-32028">
		<tag k="fixme" v="consider natural=peak for the most distinct mountains in the district" />
		<tag k="name" v="Hagabrekkåsen" />
		<tag k="natural" v="hill" />
		<tag k="place" v="locality" />
		<tag k="ssr:stedsnr" v="887853" />
	</node>
	<node lat="59.59275833213375" lon="8.399744449472838" id="-32029">
		<tag k="fixme" v="consider natural=peak for the most distinct mountains in the district" />
		<tag k="name" v="Skin-nutan" />
		<tag k="natural" v="hill" />
		<tag k="place" v="locality" />
		<tag k="ssr:stedsnr" v="888007" />
	</node>
	<node lat="59.60446944419186" lon="8.443066666059543" id="-32032">
		<tag k="name" v="Dyrlandsdalen" />
		<tag k="natural" v="valley" />
		<tag k="place" v="locality" />
		<tag k="ssr:stedsnr" v="888861" />
	</node>
	<node lat="59.63089999651666" lon="8.348213884200318" id="-32034">
		<tag k="fixme" v="consider natural=peak for the most distinct mountains in the district" />
		<tag k="name" v="Fjellstaulåsane" />
		<tag k="natural" v="hill" />
		<tag k="place" v="locality" />
		<tag k="ssr:stedsnr" v="892133" />
	</node>
	<node lat="59.71703333370219" lon="8.234969435840418" id="-32038">
		<tag k="fixme" v="consider natural=peak for the most distinct mountains in the district" />
		<tag k="name" v="Kroktjønn-nut" />
		<tag k="natural" v="hill" />
		<tag k="place" v="locality" />
		<tag k="ssr:stedsnr" v="892218" />
	</node>
	<node lat="59.57795278132323" lon="8.313769449032094" id="-32039">
		<tag k="fixme" v="consider natural=peak for the most distinct mountains in the district" />
		<tag k="name" v="Søylesætknatten" />
		<tag k="natural" v="hill" />
		<tag k="place" v="locality" />
		<tag k="ssr:stedsnr" v="892381" />
	</node>
	<node lat="59.37318055421728" lon="8.81162222309793" id="-32050">
		<tag k="alt_name" v="Kvennhustjønnåsane" />
		<tag k="fixme" v="consider natural=peak for the most distinct mountains in the district" />
		<tag k="name" v="Kverntjørnåsan" />
		<tag k="natural" v="hill" />
		<tag k="place" v="locality" />
		<tag k="ssr:stedsnr" v="912816" />
	</node>
	<node lat="59.581308331801765" lon="8.559119444676847" id="-32064">
		<tag k="name" v="Vadder" />
		<tag k="natural" v="valley" />
		<tag k="place" v="locality" />
		<tag k="ssr:stedsnr" v="913894" />
	</node>
	<node lat="59.565649997942714" lon="8.620169449019112" id="-32065">
		<tag k="alt_name" v="Hovet" />
		<tag k="fixme" v="consider natural=peak for the most distinct mountains in the district" />
		<tag k="name" v="Håvet" />
		<tag k="natural" v="hill" />
		<tag k="place" v="locality" />
		<tag k="ssr:stedsnr" v="914928" />
	</node>
	<node lat="59.4689055546754" lon="8.879605549842994" id="-32071">
		<tag k="name" v="Mostaulkleivane" />
		<tag k="natural" v="slope" />
		<tag k="place" v="locality" />
		<tag k="ssr:stedsnr" v="944237" />
	</node>
	<node lat="59.37164167068865" lon="8.79046388164808" id="-32072">
		<tag k="name" v="Kvigemyrhaugane" />
		<tag k="natural" v="hill" />
		<tag k="place" v="locality" />
		<tag k="ssr:stedsnr" v="944260" />
	</node>
	<node lat="59.52883610758597" lon="8.621188895135852" id="-32076">
		<tag k="name" v="Helleren" />
		<tag k="place" v="locality" />
		<tag k="ssr:stedsnr" v="946690" />
	</node>
	<node lat="59.5482638919681" lon="8.54711666716234" id="-32078">
		<tag k="fixme" v="consider natural=peak for the most distinct mountains in the district" />
		<tag k="name" v="Juvsåsen" />
		<tag k="natural" v="hill" />
		<tag k="place" v="locality" />
		<tag k="ssr:stedsnr" v="946886" />
	</node>
	<node lat="59.38623333494636" lon="8.838341662879394" id="-32081">
		<tag k="name" v="Skomedalen" />
		<tag k="natural" v="valley" />
		<tag k="place" v="locality" />
		<tag k="ssr:stedsnr" v="947037" />
	</node>
	<node lat="59.555791666574144" lon="8.459558331197742" id="-32082">
		<tag k="fixme" v="consider natural=peak for the most distinct mountains in the district" />
		<tag k="name" v="Nystaulnuten" />
		<tag k="natural" v="hill" />
		<tag k="place" v="locality" />
		<tag k="ssr:stedsnr" v="947081" />
	</node>
	<node lat="59.42903611140365" lon="8.640588897043779" id="-32083">
		<tag k="name" v="Svarttjønndalen" />
		<tag k="natural" v="valley" />
		<tag k="place" v="locality" />
		<tag k="ssr:stedsnr" v="947282" />
	</node>
	<node lat="59.55623333330575" lon="8.557111113026268" id="-32088">
		<tag k="name" v="Bukkeberget" />
		<tag k="natural" v="hill" />
		<tag k="place" v="locality" />
		<tag k="ssr:stedsnr" v="947614" />
	</node>
	<node lat="59.40946666770883" lon="8.738488891263936" id="-32090">
		<tag k="fixme" v="consider natural=peak for the most distinct mountains in the district" />
		<tag k="name" v="Glosarberget" />
		<tag k="natural" v="hill" />
		<tag k="place" v="locality" />
		<tag k="ssr:stedsnr" v="947991" />
	</node>
	<node lat="59.72546111348629" lon="8.304341665412235" id="-32099">
		<tag k="name" v="Sigurds-skar" />
		<tag k="natural" v="valley" />
		<tag k="place" v="locality" />
		<tag k="ssr:stedsnr" v="949131" />
	</node>
	<node lat="59.63940000039383" lon="8.344355562132003" id="-32100">
		<tag k="name" v="Djupedal" />
		<tag k="natural" v="valley" />
		<tag k="place" v="locality" />
		<tag k="ssr:stedsnr" v="953032" />
	</node>
	<node lat="59.709333333514714" lon="8.254688885570785" id="-32103">
		<tag k="name" v="Listauldalen" />
		<tag k="natural" v="valley" />
		<tag k="place" v="locality" />
		<tag k="ssr:stedsnr" v="953255" />
	</node>
	<node lat="59.38333611253491" lon="8.69187499968286" id="-32118">
		<tag k="alt_name" v="Bjørndalsnuten" />
		<tag k="fixme" v="consider natural=peak for the most distinct mountains in the district" />
		<tag k="name" v="Bjørndalsnut" />
		<tag k="natural" v="hill" />
		<tag k="place" v="locality" />
		<tag k="ssr:stedsnr" v="2745" />
	</node>
	<node lat="59.65081111396596" lon="8.245966664377464" id="-32119">
		<tag k="name" v="Kvambekkheii" />
		<tag k="natural" v="hill" />
		<tag k="place" v="locality" />
		<tag k="ssr:stedsnr" v="3290" />
	</node>
	<node lat="59.48861389244904" lon="8.507249998217222" id="-32121">
		<tag k="fixme" v="consider natural=peak for the most distinct mountains in the district" />
		<tag k="name" v="Ordalssåta" />
		<tag k="natural" v="hill" />
		<tag k="place" v="locality" />
		<tag k="ssr:stedsnr" v="2044" />
	</node>
	<node lat="59.478505555552175" lon="8.719477774713493" id="-32127">
		<tag k="alt_name" v="Mørkedalsnutane" />
		<tag k="fixme" v="consider natural=peak for the most distinct mountains in the district" />
		<tag k="name" v="Mørkedalsnutan" />
		<tag k="natural" v="hill" />
		<tag k="place" v="locality" />
		<tag k="ssr:stedsnr" v="2012" />
	</node>
	<node lat="59.69143888905564" lon="8.282269446383227" id="-32140">
		<tag k="fixme" v="consider natural=peak for the most distinct mountains in the district" />
		<tag k="name" v="Skinnuten" />
		<tag k="natural" v="hill" />
		<tag k="place" v="locality" />
		<tag k="ssr:stedsnr" v="3143" />
	</node>
	<node lat="59.41590833597058" lon="8.63703056047253" id="-32143">
		<tag k="fixme" v="consider natural=peak for the most distinct mountains in the district" />
		<tag k="name" v="Åren" />
		<tag k="natural" v="hill" />
		<tag k="place" v="locality" />
		<tag k="ssr:stedsnr" v="2942" />
	</node>
	<node lat="59.417500002353016" lon="8.798044451992753" id="-32145">
		<tag k="name" v="Svæven" />
		<tag k="place" v="locality" />
		<tag k="ssr:stedsnr" v="2951" />
	</node>
	<node lat="59.536411106734704" lon="8.544394437720033" id="-32146">
		<tag k="name" v="Stordal" />
		<tag k="natural" v="valley" />
		<tag k="place" v="locality" />
		<tag k="ssr:stedsnr" v="3100" />
	</node>
	<node lat="59.737819443882614" lon="8.39833888938112" id="-32150">
		<tag k="name" v="Primholun" />
		<tag k="natural" v="valley" />
		<tag k="place" v="locality" />
		<tag k="ssr:stedsnr" v="3201" />
	</node>
	<node lat="59.60155277642197" lon="8.311186109314779" id="-32151">
		<tag k="fixme" v="consider natural=peak for the most distinct mountains in the district" />
		<tag k="name" v="Heggstaulnuten" />
		<tag k="natural" v="hill" />
		<tag k="place" v="locality" />
		<tag k="ssr:stedsnr" v="3225" />
	</node>
	<node lat="59.65657778116186" lon="8.375997229513956" id="-32157">
		<tag k="fixme" v="consider natural=peak for the most distinct mountains in the district" />
		<tag k="name" v="Linuten" />
		<tag k="natural" v="hill" />
		<tag k="place" v="locality" />
		<tag k="ssr:stedsnr" v="3324" />
	</node>
	<node lat="59.58534999960745" lon="8.583166659887441" id="-32159">
		<tag k="name" v="Ambjørndalen" />
		<tag k="natural" v="valley" />
		<tag k="place" v="locality" />
		<tag k="ssr:stedsnr" v="3901" />
	</node>
	<node lat="59.53308055551476" lon="8.59339444434802" id="-32160">
		<tag k="name" v="Juvrehallin" />
		<tag k="natural" v="valley" />
		<tag k="place" v="locality" />
		<tag k="ssr:stedsnr" v="3997" />
	</node>
	<node lat="59.53193333614249" lon="8.60889445307259" id="-32161">
		<tag k="fixme" v="consider natural=peak for the most distinct mountains in the district" />
		<tag k="name" v="Einhento" />
		<tag k="natural" v="hill" />
		<tag k="place" v="locality" />
		<tag k="ssr:stedsnr" v="3999" />
	</node>
	<node lat="59.56050832962822" lon="8.654374997530384" id="-32163">
		<tag k="name" v="Blautli" />
		<tag k="natural" v="slope" />
		<tag k="place" v="locality" />
		<tag k="ssr:stedsnr" v="3927" />
	</node>
	<node lat="59.561780426021535" lon="8.714923366673778" id="-32164">
		<tag k="alt_name" v="Mælefjellet" />
		<tag k="fixme" v="consider natural=peak for the most distinct mountains in the district" />
		<tag k="name" v="Mælefjell" />
		<tag k="natural" v="hill" />
		<tag k="place" v="locality" />
		<tag k="ssr:stedsnr" v="3930" />
	</node>
	<node lat="59.55265833046595" lon="8.557233336023963" id="-32166">
		<tag k="name" v="Storsvartufs" />
		<tag k="natural" v="valley" />
		<tag k="place" v="locality" />
		<tag k="ssr:stedsnr" v="3961" />
	</node>
	<node lat="59.5201972177658" lon="8.776330547349014" id="-32167">
		<tag k="fixme" v="consider natural=peak for the most distinct mountains in the district" />
		<tag k="name" v="Tjorbufjell" />
		<tag k="natural" v="hill" />
		<tag k="place" v="locality" />
		<tag k="ssr:stedsnr" v="27335" />
	</node>
	<node lat="59.45647499893237" lon="8.883638893974513" id="-32169">
		<tag k="name" v="Brendeskot" />
		<tag k="natural" v="cliff" />
		<tag k="ssr:stedsnr" v="34141" />
	</node>
	<node lat="59.376080555660195" lon="8.795194446405183" id="-32172">
		<tag k="name" v="Jerpedalen" />
		<tag k="natural" v="valley" />
		<tag k="place" v="locality" />
		<tag k="ssr:stedsnr" v="34220" />
	</node>
	<node lat="59.43900555216119" lon="8.752630548704834" id="-32174">
		<tag k="fixme" v="consider natural=peak for the most distinct mountains in the district" />
		<tag k="name" v="Garvikåsen" />
		<tag k="natural" v="hill" />
		<tag k="place" v="locality" />
		<tag k="ssr:stedsnr" v="36120" />
	</node>
	<node lat="59.442122226104345" lon="8.752116665053482" id="-32175">
		<tag k="name" v="Steinskutdalen" />
		<tag k="natural" v="valley" />
		<tag k="place" v="locality" />
		<tag k="ssr:stedsnr" v="36121" />
	</node>
	<node lat="59.449816662753264" lon="8.8354111086049" id="-32178">
		<tag k="name" v="Hjeskoskaret" />
		<tag k="natural" v="valley" />
		<tag k="place" v="locality" />
		<tag k="ssr:stedsnr" v="36058" />
	</node>
	<node lat="59.640324996629786" lon="8.483174994617393" id="-32182">
		<tag k="fixme" v="consider natural=peak for the most distinct mountains in the district" />
		<tag k="name" v="Brattlinuten" />
		<tag k="natural" v="hill" />
		<tag k="place" v="locality" />
		<tag k="ssr:stedsnr" v="36999" />
	</node>
	<node lat="59.64619444832496" lon="8.482199997118405" id="-32183">
		<tag k="name" v="Stukkeli" />
		<tag k="natural" v="slope" />
		<tag k="place" v="locality" />
		<tag k="ssr:stedsnr" v="37000" />
	</node>
	<node lat="59.65759444026253" lon="8.428519441193304" id="-32185">
		<tag k="fixme" v="consider natural=peak for the most distinct mountains in the district" />
		<tag k="name" v="Geitenuten" />
		<tag k="natural" v="hill" />
		<tag k="place" v="locality" />
		<tag k="ssr:stedsnr" v="36440" />
	</node>
	<node lat="59.526441664220116" lon="8.640149994263934" id="-32189">
		<tag k="name" v="Skarphamar" />
		<tag k="place" v="locality" />
		<tag k="ssr:stedsnr" v="36685" />
	</node>
	<node lat="59.5389361081584" lon="8.569999998594271" id="-32198">
		<tag k="name" v="Vesle Fagerli" />
		<tag k="natural" v="slope" />
		<tag k="place" v="locality" />
		<tag k="ssr:stedsnr" v="36892" />
	</node>
	<node lat="59.623072218446644" lon="8.515022225813519" id="-32204">
		<tag k="name" v="Helleksdalen" />
		<tag k="natural" v="valley" />
		<tag k="place" v="locality" />
		<tag k="ssr:stedsnr" v="37497" />
	</node>
	<node lat="59.4955694451812" lon="8.659197215352012" id="-32207">
		<tag k="name" v="Heggedalen" />
		<tag k="natural" v="valley" />
		<tag k="place" v="locality" />
		<tag k="ssr:stedsnr" v="37644" />
	</node>
	<node lat="59.42111666516251" lon="8.76770833655846" id="-32211">
		<tag k="name" v="Steindalen" />
		<tag k="natural" v="valley" />
		<tag k="place" v="locality" />
		<tag k="ssr:stedsnr" v="37954" />
	</node>
	<node lat="59.42015555948711" lon="8.745680557444228" id="-32212">
		<tag k="name" v="Knutskåsmåni" />
		<tag k="natural" v="hill" />
		<tag k="place" v="locality" />
		<tag k="ssr:stedsnr" v="37999" />
	</node>
	<node lat="59.73006944549512" lon="8.298941669585318" id="-32214">
		<tag k="name" v="Skarbufjell" />
		<tag k="natural" v="hill" />
		<tag k="place" v="locality" />
		<tag k="ssr:stedsnr" v="38135" />
	</node>
</osm>
