<?xml version="1.0" encoding="UTF-8"?>
<osm version="0.6" generator="osmapis">
	<node lat="59.57494722355404" lon="8.457600003638248" id="-26370">
		<tag k="highway" v="path" />
		<tag k="name" v="Riplesekk" />
		<tag k="ssr:stedsnr" v="37060" />
	</node>
	<node lat="59.370583333480624" lon="8.783783338536065" id="-26515">
		<tag k="bridge" v="yes" />
		<tag k="layer" v="1" />
		<tag k="name" v="Høymyran" />
		<tag k="ssr:stedsnr" v="107514" />
	</node>
	<node lat="59.464752775565934" lon="8.580883330258489" id="-26587">
		<tag k="bridge" v="yes" />
		<tag k="layer" v="1" />
		<tag k="name" v="Flatin" />
		<tag k="ssr:stedsnr" v="168464" />
	</node>
	<node lat="59.351571199750516" lon="8.88175943229043" id="-26687">
		<tag k="man_made" v="cairn" />
		<tag k="name" v="Grånåfjellvarden" />
		<tag k="place" v="locality" />
		<tag k="ssr:stedsnr" v="450432" />
	</node>
	<node lat="59.4310305529007" lon="8.737477778173451" id="-26793">
		<tag k="alt_name" v="Odden" />
		<tag k="bridge" v="yes" />
		<tag k="layer" v="1" />
		<tag k="name" v="Sagabroi" />
		<tag k="ssr:stedsnr" v="461909" />
	</node>
	<node lat="59.48310000206989" lon="8.640124997383529" id="-26848">
		<tag k="bridge" v="yes" />
		<tag k="layer" v="1" />
		<tag k="name" v="Tuft" />
		<tag k="ssr:stedsnr" v="471496" />
	</node>
	<node lat="59.62094444189951" lon="8.423963893852767" id="-26849">
		<tag k="bridge" v="yes" />
		<tag k="layer" v="1" />
		<tag k="name" v="Fossheim" />
		<tag k="ssr:stedsnr" v="471501" />
	</node>
	<node lat="59.599738892841685" lon="8.367002781887964" id="-26897">
		<tag k="fixme" v="verify maritime location" />
		<tag k="mooring" v="yes" />
		<tag k="name" v="Stemmen" />
		<tag k="place" v="locality" />
		<tag k="ssr:stedsnr" v="345213" />
	</node>
	<node lat="59.488569447340836" lon="8.64461943897604" id="-26910">
		<tag k="bridge" v="yes" />
		<tag k="layer" v="1" />
		<tag k="name" v="Bjørge" />
		<tag k="ssr:stedsnr" v="350460" />
	</node>
	<node lat="59.441680555848414" lon="8.78653611779643" id="-26995">
		<tag k="bridge" v="yes" />
		<tag k="layer" v="1" />
		<tag k="name" v="Heggeneset" />
		<tag k="ssr:stedsnr" v="411446" />
	</node>
	<node lat="59.58992222376303" lon="8.53295554990892" id="-27095">
		<tag k="highway" v="path" />
		<tag k="name" v="Urdin" />
		<tag k="ssr:stedsnr" v="461824" />
	</node>
	<node lat="59.600955558588254" lon="8.4483944464286" id="-27126">
		<tag k="bridge" v="yes" />
		<tag k="layer" v="1" />
		<tag k="name" v="Dyrlandsbru" />
		<tag k="ssr:stedsnr" v="471509" />
	</node>
	<node lat="59.41958333622205" lon="8.650577784205769" id="-27244">
		<tag k="ford" v="yes" />
		<tag k="name" v="Raumyrvaet" />
		<tag k="place" v="locality" />
		<tag k="ssr:stedsnr" v="582050" />
	</node>
	<node lat="59.42959166675346" lon="8.745533334654858" id="-27493">
		<tag k="name" v="Rugstodalen" />
		<tag k="place" v="locality" />
		<tag k="ssr:stedsnr" v="704159" />
	</node>
	<node lat="59.44673888520519" lon="8.744727769324555" id="-27546">
		<tag k="fixme" v="verify maritime location" />
		<tag k="mooring" v="yes" />
		<tag k="name" v="Strandeståi" />
		<tag k="place" v="locality" />
		<tag k="ssr:stedsnr" v="764395" />
	</node>
	<node lat="59.464488884437124" lon="8.652263889178164" id="-27555">
		<tag k="name" v="Stridsflåt" />
		<tag k="place" v="locality" />
		<tag k="ssr:stedsnr" v="764699" />
	</node>
	<node lat="59.45997777480171" lon="8.673380553160419" id="-27597">
		<tag k="bridge" v="yes" />
		<tag k="layer" v="1" />
		<tag k="name" v="Almedal" />
		<tag k="ssr:stedsnr" v="775457" />
	</node>
	<node lat="59.45600833137129" lon="8.729819452676162" id="-27725">
		<tag k="bridge" v="yes" />
		<tag k="layer" v="1" />
		<tag k="name" v="Sanden" />
		<tag k="ssr:stedsnr" v="836426" />
	</node>
	<node lat="59.55603610825528" lon="8.584727783149859" id="-27726">
		<tag k="bridge" v="yes" />
		<tag k="layer" v="1" />
		<tag k="name" v="Hakkedal" />
		<tag k="ssr:stedsnr" v="836435" />
	</node>
	<node lat="59.4756999995327" lon="8.640938886342687" id="-27802">
		<tag k="bridge" v="yes" />
		<tag k="layer" v="1" />
		<tag k="name" v="Bøen" />
		<tag k="ssr:stedsnr" v="896549" />
	</node>
	<node lat="59.58863888941229" lon="8.477305552286316" id="-27999">
		<tag k="bridge" v="yes" />
		<tag k="layer" v="1" />
		<tag k="name" v="Kleivi" />
		<tag k="ssr:stedsnr" v="46539" />
	</node>
	<node lat="59.45193889014574" lon="8.910022223952716" id="-28010">
		<tag k="bridge" v="yes" />
		<tag k="layer" v="1" />
		<tag k="name" v="Myklestulbrua" />
		<tag k="ssr:stedsnr" v="63506" />
	</node>
	<node lat="59.48500277740036" lon="8.642599999253932" id="-28048">
		<tag k="bridge" v="yes" />
		<tag k="layer" v="1" />
		<tag k="name" v="Vallaråi" />
		<tag k="ssr:stedsnr" v="229456" />
	</node>
	<node lat="59.470269448063014" lon="8.690255552122686" id="-28078">
		<tag k="name" v="Tosand" />
		<tag k="place" v="locality" />
		<tag k="ssr:stedsnr" v="97542" />
	</node>
	<node lat="59.42446666329142" lon="8.787566673677558" id="-28135">
		<tag k="bridge" v="yes" />
		<tag k="layer" v="1" />
		<tag k="name" v="Tellnes" />
		<tag k="ssr:stedsnr" v="107499" />
	</node>
	<node lat="59.451536115355495" lon="8.909627779220456" id="-28294">
		<tag k="ford" v="yes" />
		<tag k="name" v="Brekkevaet" />
		<tag k="place" v="locality" />
		<tag k="ssr:stedsnr" v="210839" />
	</node>
	<node lat="59.570866663702326" lon="8.549188893940874" id="-28380">
		<tag k="bridge" v="yes" />
		<tag k="layer" v="1" />
		<tag k="name" v="Einajuv øvre" />
		<tag k="ssr:stedsnr" v="228554" />
	</node>
	<node lat="59.64092778108428" lon="8.317038890914429" id="-28381">
		<tag k="bridge" v="yes" />
		<tag k="layer" v="1" />
		<tag k="name" v="Bamle" />
		<tag k="ssr:stedsnr" v="228564" />
	</node>
	<node lat="59.44516110732552" lon="8.86006388243236" id="-28464">
		<tag k="ford" v="yes" />
		<tag k="name" v="Brekkevadet" />
		<tag k="place" v="locality" />
		<tag k="ssr:stedsnr" v="337141" />
	</node>
	<node lat="59.481252781612135" lon="8.637341670977948" id="-28586">
		<tag k="bridge" v="yes" />
		<tag k="layer" v="1" />
		<tag k="name" v="Nes" />
		<tag k="ssr:stedsnr" v="350435" />
	</node>
	<node lat="59.51501666325815" lon="8.647616671670415" id="-28587">
		<tag k="bridge" v="yes" />
		<tag k="layer" v="1" />
		<tag k="name" v="Grunne" />
		<tag k="ssr:stedsnr" v="350444" />
	</node>
	<node lat="59.478386108159896" lon="8.679469440749891" id="-28588">
		<tag k="bridge" v="yes" />
		<tag k="layer" v="1" />
		<tag k="name" v="Lauvnes" />
		<tag k="ssr:stedsnr" v="350448" />
	</node>
	<node lat="59.47923333690649" lon="8.633455557025766" id="-28720">
		<tag k="bridge" v="yes" />
		<tag k="layer" v="1" />
		<tag k="name" v="Bygdaråi" />
		<tag k="ssr:stedsnr" v="411458" />
	</node>
	<node lat="59.55071944491385" lon="8.415202783645848" id="-28838">
		<tag k="fixme" v="verify maritime location" />
		<tag k="mooring" v="yes" />
		<tag k="name" v="Egilstå" />
		<tag k="place" v="locality" />
		<tag k="ssr:stedsnr" v="524098" />
	</node>
	<node lat="59.64435555628065" lon="8.375602775394928" id="-28857">
		<tag k="bridge" v="yes" />
		<tag k="layer" v="1" />
		<tag k="name" v="Åmot" />
		<tag k="ssr:stedsnr" v="532461" />
	</node>
	<node lat="59.43677499771425" lon="8.86194165913898" id="-28858">
		<tag k="bridge" v="yes" />
		<tag k="layer" v="1" />
		<tag k="name" v="Hønså" />
		<tag k="ssr:stedsnr" v="532464" />
	</node>
	<node lat="59.48564166278881" lon="8.6634277829433" id="-28859">
		<tag k="bridge" v="yes" />
		<tag k="layer" v="1" />
		<tag k="name" v="Krokjuv" />
		<tag k="ssr:stedsnr" v="532468" />
	</node>
	<node lat="59.63943333444959" lon="8.382838885328791" id="-28978">
		<tag k="bridge" v="yes" />
		<tag k="layer" v="1" />
		<tag k="name" v="Valhovd" />
		<tag k="ssr:stedsnr" v="592526" />
	</node>
	<node lat="59.54920277332875" lon="8.599622214791369" id="-28979">
		<tag k="bridge" v="yes" />
		<tag k="layer" v="1" />
		<tag k="name" v="Tverå" />
		<tag k="ssr:stedsnr" v="592528" />
	</node>
	<node lat="59.5706083366206" lon="8.564775004486613" id="-28980">
		<tag k="bridge" v="yes" />
		<tag k="layer" v="1" />
		<tag k="name" v="Kyrkjerud" />
		<tag k="ssr:stedsnr" v="592537" />
	</node>
	<node lat="59.48392222490809" lon="8.818849997091045" id="-29035">
		<tag k="ford" v="yes" />
		<tag k="name" v="Viervadet" />
		<tag k="place" v="locality" />
		<tag k="ssr:stedsnr" v="641150" />
	</node>
	<node lat="59.662466664696254" lon="8.343458331916752" id="-29079">
		<tag k="ford" v="yes" />
		<tag k="name" v="Breivad" />
		<tag k="place" v="locality" />
		<tag k="ssr:stedsnr" v="644566" />
	</node>
	<node lat="59.47908333108045" lon="8.63314721749219" id="-29095">
		<tag k="bridge" v="yes" />
		<tag k="layer" v="1" />
		<tag k="name" v="Utbøen" />
		<tag k="ssr:stedsnr" v="653464" />
	</node>
	<node lat="59.473808337110434" lon="8.61148610632472" id="-29096">
		<tag k="bridge" v="yes" />
		<tag k="layer" v="1" />
		<tag k="name" v="Kastet" />
		<tag k="ssr:stedsnr" v="653476" />
	</node>
	<node lat="59.58206111048924" lon="8.485352779492903" id="-29137">
		<tag k="bridge" v="yes" />
		<tag k="layer" v="1" />
		<tag k="name" v="Moland" />
		<tag k="ssr:stedsnr" v="714437" />
	</node>
	<node lat="59.46178888836567" lon="8.714677785572869" id="-29138">
		<tag k="bridge" v="yes" />
		<tag k="layer" v="1" />
		<tag k="name" v="Bukti" />
		<tag k="ssr:stedsnr" v="714446" />
	</node>
	<node lat="59.49026388902236" lon="8.64152222589701" id="-29227">
		<tag k="bridge" v="yes" />
		<tag k="layer" v="1" />
		<tag k="name" v="Vallar bru" />
		<tag k="ssr:stedsnr" v="765612" />
	</node>
	<node lat="59.58670277519953" lon="8.570727778518183" id="-29265">
		<tag k="bridge" v="yes" />
		<tag k="layer" v="1" />
		<tag k="name" v="Svorte" />
		<tag k="ssr:stedsnr" v="775441" />
	</node>
	<node lat="59.608758329818144" lon="8.42179999670632" id="-29373">
		<tag k="alt_name" v="Valjuv" />
		<tag k="bridge" v="yes" />
		<tag k="layer" v="1" />
		<tag k="name" v="Valjuv bru" />
		<tag k="ssr:stedsnr" v="827918" />
	</node>
</osm>
