<?xml version="1.0" encoding="UTF-8"?>
<osm generator="osmapis" version="0.6">
	<node id="-879872" lat="63.3771638931" lon="11.3628250029">
		<tag k="amenity" v="parking" />
		<tag k="name" v="Sildra" />
		<tag k="ssr:stedsnr" v="931262" />
	</node>
	<node id="-879097" lat="63.4905750025" lon="10.8854805468">
		<tag k="bridge" v="yes" />
		<tag k="layer" v="1" />
		<tag k="name" v="Kvithammarkulverten" />
		<tag k="ssr:stedsnr" v="596806" />
	</node>
	<node id="-877806" lat="63.4544861124" lon="10.9211194418">
		<tag k="aeroway" v="aerodrome" />
		<tag k="alt_name" v="Værnes" />
		<tag k="name" v="Trondheim lufthavn, Værnes" />
		<tag k="old_name" v="Trondheim lufthavn;Trondheim Lufthavn,Værnes" />
		<tag k="ssr:stedsnr" v="73180" />
	</node>
	<node id="-878442" lat="63.5085222261" lon="10.8229638837">
		<tag k="name" v="Skatval" />
		<tag k="railway" v="station" />
		<tag k="ssr:stedsnr" v="316732" />
		<tag k="train" v="yes" />
	</node>
	<node id="-879078" lat="63.4746555537" lon="10.904505565">
		<tag k="layer" v="-1" />
		<tag k="name" v="Tangkulverten" />
		<tag k="ssr:stedsnr" v="596809" />
		<tag k="tunnel" v="yes" />
	</node>
	<node id="-879843" lat="63.4581638931" lon="11.3511333377">
		<tag k="name" v="Flornes" />
		<tag k="railway" v="station" />
		<tag k="ssr:stedsnr" v="802335" />
		<tag k="train" v="yes" />
	</node>
	<node id="-877920" lat="63.4567166703" lon="11.1669416613">
		<tag k="highway" v="path" />
		<tag k="name" v="Kleivstien" />
		<tag k="ssr:stedsnr" v="270595" />
	</node>
	<node id="-880861" lat="63.4052583319" lon="11.0663416713">
		<tag k="fixme" v="consider highway=path" />
		<tag k="highway" v="track" />
		<tag k="name" v="Festningsvegen" />
		<tag k="ssr:stedsnr" v="331690" />
	</node>
	<node id="-877788" lat="63.4387388924" lon="11.1756611084">
		<tag k="highway" v="path" />
		<tag k="name" v="Steinvegen" />
		<tag k="ssr:stedsnr" v="149402" />
	</node>
	<node id="-878677" lat="63.4608222254" lon="11.2123444475">
		<tag k="highway" v="path" />
		<tag k="name" v="Karlstien" />
		<tag k="ssr:stedsnr" v="634642" />
	</node>
	<node id="-879304" lat="63.4658416673" lon="10.8818638958">
		<tag k="landuse" v="harbour" />
		<tag k="name" v="Stjørdal havn" />
		<tag k="seamark:type" v="harbour" />
		<tag k="ssr:stedsnr" v="148963" />
	</node>
	<node id="-879299" lat="63.4745999958" lon="10.9046833313">
		<tag k="bridge" v="yes" />
		<tag k="layer" v="1" />
		<tag k="name" v="Kvislabakkulverten" />
		<tag k="ssr:stedsnr" v="900822" />
	</node>
	<node id="-880575" lat="63.4438916693" lon="11.1478055483">
		<tag k="highway" v="path" />
		<tag k="name" v="Ingeniørvegen" />
		<tag k="ssr:stedsnr" v="513632" />
	</node>
	<node id="-880569" lat="63.5451499989" lon="10.8885805562">
		<tag k="man_made" v="quay" />
		<tag k="name" v="Langstein kai" />
		<tag k="place" v="locality" />
		<tag k="ssr:stedsnr" v="680848" />
	</node>
	<node id="-880817" lat="63.5474749976" lon="10.9015083257">
		<tag k="name" v="Langstein" />
		<tag k="railway" v="halt" />
		<tag k="ssr:stedsnr" v="74728" />
		<tag k="train" v="yes" />
	</node>
	<node id="-879149" lat="63.4116166681" lon="11.088416664">
		<tag k="highway" v="path" />
		<tag k="name" v="Ingeniørvegen" />
		<tag k="ssr:stedsnr" v="149695" />
	</node>
	<node id="-878377" lat="63.5198666646" lon="10.9053916602">
		<tag k="highway" v="path" />
		<tag k="name" v="Seterkleiva" />
		<tag k="ssr:stedsnr" v="391866" />
	</node>
	<node id="-878753" lat="63.4611416693" lon="11.1032916636">
		<tag k="name" v="Hegra" />
		<tag k="railway" v="halt" />
		<tag k="ssr:stedsnr" v="681166" />
		<tag k="train" v="yes" />
	</node>
	<node id="-880416" lat="63.4703805514" lon="10.9134444454">
		<tag k="name" v="Stjørdal" />
		<tag k="railway" v="station" />
		<tag k="ssr:stedsnr" v="498191" />
		<tag k="train" v="yes" />
	</node>
	<node id="-878744" lat="63.4459337457" lon="10.8989453677">
		<tag k="name" v="Hell" />
		<tag k="railway" v="station" />
		<tag k="ssr:stedsnr" v="558079" />
		<tag k="train" v="yes" />
	</node>
	<node id="-879511" lat="63.5213750015" lon="11.2210777688">
		<tag k="highway" v="path" />
		<tag k="name" v="Kuvegen" />
		<tag k="ssr:stedsnr" v="897815" />
	</node>
	<node id="-877997" lat="63.5064916693" lon="10.9419361157">
		<tag k="highway" v="path" />
		<tag k="name" v="Fjellstien" />
		<tag k="ssr:stedsnr" v="513795" />
	</node>
	<node id="-880521" lat="63.4388916655" lon="11.2538861104">
		<tag k="name" v="Sona" />
		<tag k="railway" v="station" />
		<tag k="ssr:stedsnr" v="741576" />
		<tag k="train" v="yes" />
	</node>
	<node id="-878088" lat="63.4107138932" lon="10.9902249923">
		<tag k="highway" v="path" />
		<tag k="name" v="Vesetvegen" />
		<tag k="ssr:stedsnr" v="696847" />
	</node>
</osm>
