<?xml version="1.0" encoding="UTF-8"?>
<osm version="0.6" generator="osmapis">
	<node lat="63.45799334824641" lon="11.358960892570016" id="-40066">
		<tag k="amenity" v="place_of_worship" />
		<tag k="denomination" v="lutheran" />
		<tag k="name" v="Flora kapell" />
		<tag k="religion" v="christian" />
		<tag k="ssr:stedsnr" v="255454" />
	</node>
	<node lat="63.456170645141974" lon="11.170545747938704" id="-40087">
		<tag k="name" v="Kleivplassen" />
		<tag k="place" v="locality" />
		<tag k="ssr:stedsnr" v="148610" />
	</node>
	<node lat="63.512055359909624" lon="10.861491966373585" id="-40157">
		<tag k="alt_name" v="Skatval" />
		<tag k="amenity" v="place_of_worship" />
		<tag k="denomination" v="lutheran" />
		<tag k="name" v="Skatval kirke" />
		<tag k="religion" v="christian" />
		<tag k="ssr:stedsnr" v="195709" />
	</node>
	<node lat="63.48636388517664" lon="11.059430548626626" id="-40501">
		<tag k="amenity" v="community_centre" />
		<tag k="name" v="Bang grendahus" />
		<tag k="ssr:stedsnr" v="391743" />
	</node>
	<node lat="63.54371666514393" lon="10.81340277415851" id="-40949">
		<tag k="loc_name" v="Steinviksholm" />
		<tag k="name" v="Slottet" />
		<tag k="ssr:stedsnr" v="680813" />
		<tag k="tourism" v="attraction" />
	</node>
	<node lat="63.391263886758246" lon="10.881308334928288" id="-41435">
		<tag k="name" v="BekkÃ¥ssaga" />
		<tag k="place" v="locality" />
		<tag k="ssr:stedsnr" v="27942" />
	</node>
</osm>
