<?xml version="1.0" encoding="UTF-8"?>
<osm version="0.6" generator="osmapis">
	<node lat="63.541119441618164" lon="11.351019445876142" id="-85311">
		<tag k="name" v="Øvre Raudåtjønna" />
		<tag k="natural" v="water" />
		<tag k="ssr:stedsnr" v="230611" />
	</node>
	<node lat="63.563802779463266" lon="11.193444441412682" id="-85312">
		<tag k="name" v="Bulandselva" />
		<tag k="ssr:stedsnr" v="229785" />
		<tag k="waterway" v="river" />
	</node>
	<node lat="63.56040000001025" lon="11.113486105056241" id="-85315">
		<tag k="name" v="Gjeilvatnet sør" />
		<tag k="natural" v="water" />
		<tag k="ssr:stedsnr" v="229776" />
	</node>
	<node lat="63.56341111524004" lon="11.118597218590363" id="-85316">
		<tag k="name" v="Gjeilvatnet nord" />
		<tag k="natural" v="water" />
		<tag k="ssr:stedsnr" v="229777" />
	</node>
	<node lat="63.53186666740493" lon="11.206527782446846" id="-85318">
		<tag k="name" v="Svarttjønna" />
		<tag k="natural" v="water" />
		<tag k="ssr:stedsnr" v="229834" />
	</node>
	<node lat="63.38193888629579" lon="11.234099993457674" id="-85335">
		<tag k="name" v="Fagerbekken" />
		<tag k="ssr:stedsnr" v="13418" />
		<tag k="waterway" v="stream" />
	</node>
	<node lat="63.39213055496495" lon="11.16420278473985" id="-85337">
		<tag k="name" v="Gruvelva" />
		<tag k="ssr:stedsnr" v="13479" />
		<tag k="waterway" v="stream" />
	</node>
	<node lat="63.50944722332622" lon="11.15629443680171" id="-85344">
		<tag k="alt_name" v="Bantjønna" />
		<tag k="name" v="Barntjønna" />
		<tag k="natural" v="water" />
		<tag k="ssr:stedsnr" v="13708" />
	</node>
	<node lat="63.510922222169214" lon="10.976311108962552" id="-85345">
		<tag k="name" v="Storbekken" />
		<tag k="ssr:stedsnr" v="13713" />
		<tag k="waterway" v="stream" />
	</node>
	<node lat="63.45611388909468" lon="11.517283327625304" id="-85354">
		<tag k="name" v="Sagelvhaugan" />
		<tag k="ssr:stedsnr" v="28177" />
		<tag k="waterway" v="river" />
	</node>
	<node lat="63.46079999780834" lon="11.492147229572291" id="-85356">
		<tag k="name" v="Tjurubekken" />
		<tag k="ssr:stedsnr" v="28185" />
		<tag k="waterway" v="stream" />
	</node>
	<node lat="63.421855555543004" lon="11.258113885987186" id="-85368">
		<tag k="name" v="Nersonbekken" />
		<tag k="ssr:stedsnr" v="28509" />
		<tag k="waterway" v="stream" />
	</node>
	<node lat="63.409830555379045" lon="11.28245000335898" id="-85369">
		<tag k="name" v="Sonneset" />
		<tag k="natural" v="cape" />
		<tag k="ssr:stedsnr" v="28513" />
	</node>
	<node lat="63.435536114234694" lon="11.136544446296261" id="-85377">
		<tag k="name" v="Solliåsbekken" />
		<tag k="ssr:stedsnr" v="28618" />
		<tag k="waterway" v="stream" />
	</node>
	<node lat="63.39677499855099" lon="11.282716658719817" id="-85392">
		<tag k="name" v="Lysarbekken" />
		<tag k="ssr:stedsnr" v="47478" />
		<tag k="waterway" v="stream" />
	</node>
	<node lat="63.56026389019316" lon="11.258741660596444" id="-85393">
		<tag k="name" v="Engelselva" />
		<tag k="ssr:stedsnr" v="47776" />
		<tag k="waterway" v="river" />
	</node>
	<node lat="63.56229722398763" lon="11.088338884428099" id="-85394">
		<tag k="name" v="Skinnartjønnbekken" />
		<tag k="ssr:stedsnr" v="47780" />
		<tag k="waterway" v="stream" />
	</node>
	<node lat="63.57114444516286" lon="11.22436388422057" id="-85395">
		<tag k="name" v="Flovollbekken" />
		<tag k="ssr:stedsnr" v="47788" />
		<tag k="waterway" v="stream" />
	</node>
	<node lat="63.40371389100557" lon="11.405844446272203" id="-85398">
		<tag k="name" v="Grønnfjellvolltjønna" />
		<tag k="natural" v="water" />
		<tag k="ssr:stedsnr" v="48504" />
	</node>
	<node lat="63.51938611555025" lon="11.401516663328216" id="-85399">
		<tag k="name" v="Bjugdalsbekken" />
		<tag k="ssr:stedsnr" v="48702" />
		<tag k="waterway" v="stream" />
	</node>
	<node lat="63.507261114039466" lon="11.184338891930912" id="-85402">
		<tag k="name" v="Reindalsbekken" />
		<tag k="ssr:stedsnr" v="58123" />
		<tag k="waterway" v="stream" />
	</node>
	<node lat="63.36311944619904" lon="10.857202787579089" id="-85405">
		<tag k="name" v="Koltjønnin" />
		<tag k="natural" v="water" />
		<tag k="ssr:stedsnr" v="73411" />
	</node>
	<node lat="63.557724999860426" lon="11.586277784725874" id="-85427">
		<tag k="name" v="Vassvollbekken" />
		<tag k="ssr:stedsnr" v="74458" />
		<tag k="waterway" v="stream" />
	</node>
	<node lat="63.473541665730735" lon="10.980036101463718" id="-85440">
		<tag k="name" v="Byabekken" />
		<tag k="ssr:stedsnr" v="88778" />
		<tag k="waterway" v="stream" />
	</node>
	<node lat="63.55197222574468" lon="11.095527772635442" id="-85448">
		<tag k="name" v="Vikin" />
		<tag k="natural" v="bay" />
		<tag k="ssr:stedsnr" v="88669" />
	</node>
	<node lat="63.557319440202114" lon="11.101652783281503" id="-85449">
		<tag k="name" v="Trasttjønna" />
		<tag k="natural" v="water" />
		<tag k="ssr:stedsnr" v="88672" />
	</node>
	<node lat="63.43196388479659" lon="11.293299994082986" id="-85455">
		<tag k="name" v="Rulvollbekken" />
		<tag k="ssr:stedsnr" v="89303" />
		<tag k="waterway" v="stream" />
	</node>
	<node lat="63.50035555705456" lon="11.3650027709999" id="-85459">
		<tag k="name" v="Kvernbekken" />
		<tag k="ssr:stedsnr" v="89168" />
		<tag k="waterway" v="stream" />
	</node>
	<node lat="63.435830560002294" lon="11.197774998759291" id="-85484">
		<tag k="name" v="Liabekken" />
		<tag k="ssr:stedsnr" v="134119" />
		<tag k="waterway" v="stream" />
	</node>
	<node lat="63.56092777875006" lon="11.319324993368859" id="-85489">
		<tag k="name" v="Svarttjønna" />
		<tag k="natural" v="water" />
		<tag k="ssr:stedsnr" v="134511" />
	</node>
	<node lat="63.56691944193439" lon="11.187613891074346" id="-85522">
		<tag k="loc_name" v="Bulandsvatn" />
		<tag k="name" v="Bulandsvatnet" />
		<tag k="natural" v="water" />
		<tag k="ssr:stedsnr" v="255829" />
		<tag k="water" v="lake" />
	</node>
	<node lat="63.453583335693935" lon="11.284888895798693" id="-85549">
		<tag k="name" v="Brudalsbekken" />
		<tag k="ssr:stedsnr" v="149511" />
		<tag k="waterway" v="stream" />
	</node>
	<node lat="63.51129166532372" lon="11.169458341369058" id="-85556">
		<tag k="name" v="Tjønndalsbekken" />
		<tag k="ssr:stedsnr" v="149439" />
		<tag k="waterway" v="stream" />
	</node>
	<node lat="63.441619447243966" lon="11.29145278294791" id="-85575">
		<tag k="name" v="Kilnesdammen" />
		<tag k="natural" v="water" />
		<tag k="ssr:stedsnr" v="256456" />
	</node>
	<node lat="63.3616041638386" lon="11.391371713532113" id="-85587">
		<tag k="name" v="Sillerbekken" />
		<tag k="ssr:stedsnr" v="168468" />
		<tag k="waterway" v="stream" />
	</node>
	<node lat="63.528852781599184" lon="11.387975003472928" id="-85594">
		<tag k="name" v="Knottbekken" />
		<tag k="ssr:stedsnr" v="169723" />
		<tag k="waterway" v="stream" />
	</node>
	<node lat="63.45220000011863" lon="11.250808325546501" id="-85610">
		<tag k="alt_name" v="Østkilbekken" />
		<tag k="name" v="Austkilbekken" />
		<tag k="ssr:stedsnr" v="195483" />
		<tag k="waterway" v="stream" />
	</node>
	<node lat="63.456872219797376" lon="11.331527780772648" id="-85617">
		<tag k="name" v="Mølskhølen" />
		<tag k="place" v="locality" />
		<tag k="ssr:stedsnr" v="210290" />
	</node>
	<node lat="63.45960277371628" lon="11.315944453834836" id="-85618">
		<tag k="name" v="Ståggåberghølen" />
		<tag k="place" v="locality" />
		<tag k="ssr:stedsnr" v="210292" />
	</node>
	<node lat="63.45802777846708" lon="11.369266661671189" id="-85626">
		<tag k="name" v="Florneshølen" />
		<tag k="place" v="locality" />
		<tag k="ssr:stedsnr" v="210381" />
	</node>
	<node lat="63.463133335760105" lon="11.396072230694609" id="-85628">
		<tag k="name" v="Bjørnbekken" />
		<tag k="ssr:stedsnr" v="210385" />
		<tag k="waterway" v="stream" />
	</node>
	<node lat="63.39936944055234" lon="11.213997226742332" id="-85633">
		<tag k="name" v="Bjørklibekken" />
		<tag k="ssr:stedsnr" v="210626" />
		<tag k="waterway" v="stream" />
	</node>
	<node lat="63.39305277429032" lon="11.19050278637263" id="-85634">
		<tag k="name" v="Kvernhusbekken" />
		<tag k="ssr:stedsnr" v="210627" />
		<tag k="waterway" v="stream" />
	</node>
	<node lat="63.39780277996019" lon="11.175594438511961" id="-85635">
		<tag k="name" v="Hosetbekken" />
		<tag k="ssr:stedsnr" v="210629" />
		<tag k="waterway" v="stream" />
	</node>
	<node lat="63.538611113761554" lon="10.996994436129444" id="-85642">
		<tag k="name" v="Stamnåsbekken" />
		<tag k="ssr:stedsnr" v="210725" />
		<tag k="waterway" v="stream" />
	</node>
	<node lat="63.45829721942379" lon="11.183708338280626" id="-85651">
		<tag k="name" v="Storneset" />
		<tag k="natural" v="cape" />
		<tag k="ssr:stedsnr" v="270617" />
	</node>
	<node lat="63.39441666772841" lon="11.024522228393769" id="-85664">
		<tag k="name" v="Storneset" />
		<tag k="natural" v="cape" />
		<tag k="ssr:stedsnr" v="270701" />
	</node>
	<node lat="63.49853332923068" lon="11.069430555491559" id="-85666">
		<tag k="name" v="Kvålsbekken" />
		<tag k="ssr:stedsnr" v="270733" />
		<tag k="waterway" v="stream" />
	</node>
	<node lat="63.54330000003071" lon="10.917225000444587" id="-85677">
		<tag k="name" v="Kverndalsbekken" />
		<tag k="ssr:stedsnr" v="270868" />
		<tag k="waterway" v="stream" />
	</node>
	<node lat="63.49420555122754" lon="10.838880559670685" id="-85679">
		<tag k="name" v="Bårdsbekken" />
		<tag k="ssr:stedsnr" v="270929" />
		<tag k="waterway" v="stream" />
	</node>
	<node lat="63.45657221965172" lon="11.460275008611415" id="-85697">
		<tag k="name" v="Kvernbekken" />
		<tag k="ssr:stedsnr" v="271438" />
		<tag k="waterway" v="stream" />
	</node>
	<node lat="63.53197500246776" lon="11.47474722091643" id="-85714">
		<tag k="name" v="Elgvadsbekken" />
		<tag k="ssr:stedsnr" v="230704" />
		<tag k="waterway" v="stream" />
	</node>
	<node lat="63.479280555903934" lon="11.18105834288764" id="-85719">
		<tag k="name" v="Solemsbekken" />
		<tag k="ssr:stedsnr" v="453470" />
		<tag k="waterway" v="stream" />
	</node>
	<node lat="63.44973611409354" lon="11.34695000603922" id="-85722">
		<tag k="name" v="Stibekken" />
		<tag k="ssr:stedsnr" v="453300" />
		<tag k="waterway" v="stream" />
	</node>
	<node lat="63.50266111433376" lon="11.045325003748747" id="-85735">
		<tag k="name" v="Bjørndalsbekken" />
		<tag k="ssr:stedsnr" v="452745" />
		<tag k="waterway" v="stream" />
	</node>
	<node lat="63.51168611333647" lon="10.864583331507387" id="-85740">
		<tag k="name" v="Skatvalsbekken" />
		<tag k="ssr:stedsnr" v="452775" />
		<tag k="waterway" v="stream" />
	</node>
	<node lat="63.41389444752943" lon="10.927116660175754" id="-85749">
		<tag k="name" v="Hjelsetbekken" />
		<tag k="ssr:stedsnr" v="452988" />
		<tag k="waterway" v="stream" />
	</node>
	<node lat="63.511041668324005" lon="11.436733341391719" id="-85752">
		<tag k="name" v="Svebekken" />
		<tag k="ssr:stedsnr" v="453174" />
		<tag k="waterway" v="stream" />
	</node>
	<node lat="63.55127221821757" lon="11.143433333563623" id="-85762">
		<tag k="name" v="Nerdalsbekken" />
		<tag k="ssr:stedsnr" v="453485" />
		<tag k="waterway" v="stream" />
	</node>
	<node lat="63.334319443266494" lon="10.977158328544302" id="-85768">
		<tag k="alt_name" v="Litlfjellbekken" />
		<tag k="name" v="Fjellbekken" />
		<tag k="ssr:stedsnr" v="255407" />
		<tag k="waterway" v="stream" />
	</node>
	<node lat="63.447230554875254" lon="11.144047227459788" id="-85787">
		<tag k="name" v="Tronskodalsbekken" />
		<tag k="ssr:stedsnr" v="270606" />
		<tag k="waterway" v="stream" />
	</node>
	<node lat="63.539933331490516" lon="11.05881666190472" id="-85790">
		<tag k="name" v="Kjellsvebekken" />
		<tag k="ssr:stedsnr" v="270572" />
		<tag k="waterway" v="stream" />
	</node>
	<node lat="63.53435000090561" lon="11.010824990257513" id="-85791">
		<tag k="name" v="Furumyrbekken" />
		<tag k="ssr:stedsnr" v="270574" />
		<tag k="waterway" v="stream" />
	</node>
	<node lat="63.54207222433974" lon="11.097208327299041" id="-85793">
		<tag k="name" v="Sniptjønnbekken" />
		<tag k="ssr:stedsnr" v="270585" />
		<tag k="waterway" v="stream" />
	</node>
	<node lat="63.55684166716779" lon="11.078611111528868" id="-85795">
		<tag k="name" v="Krokan" />
		<tag k="ssr:stedsnr" v="270712" />
		<tag k="waterway" v="stream" />
	</node>
	<node lat="63.46396944668422" lon="11.025674997781612" id="-85797">
		<tag k="name" v="Gluggbekken" />
		<tag k="ssr:stedsnr" v="270685" />
		<tag k="waterway" v="stream" />
	</node>
	<node lat="63.40055555703075" lon="11.059302773752954" id="-85798">
		<tag k="name" v="Nedre Meilbekken" />
		<tag k="ssr:stedsnr" v="270692" />
		<tag k="waterway" v="stream" />
	</node>
	<node lat="63.393908334552684" lon="11.03145834065706" id="-85800">
		<tag k="name" v="Joelfossen" />
		<tag k="natural" v="waterfall" />
		<tag k="ssr:stedsnr" v="270696" />
	</node>
	<node lat="63.4076111120534" lon="10.895208340624258" id="-85805">
		<tag k="name" v="Følltjønna" />
		<tag k="natural" v="water" />
		<tag k="ssr:stedsnr" v="270893" />
	</node>
	<node lat="63.45074721837989" lon="10.928422231655682" id="-85806">
		<tag k="name" v="Kapteinsøra" />
		<tag k="place" v="locality" />
		<tag k="ssr:stedsnr" v="270786" />
	</node>
	<node lat="63.416036111649184" lon="10.87858334310799" id="-85810">
		<tag k="name" v="Stormyrbekken" />
		<tag k="ssr:stedsnr" v="270905" />
		<tag k="waterway" v="stream" />
	</node>
	<node lat="63.42481666792524" lon="10.866216666678609" id="-85811">
		<tag k="name" v="Smørauget" />
		<tag k="natural" v="water" />
		<tag k="ssr:stedsnr" v="270907" />
	</node>
	<node lat="63.464255554988284" lon="11.39034444346591" id="-85823">
		<tag k="name" v="Kvernbekken" />
		<tag k="ssr:stedsnr" v="271423" />
		<tag k="waterway" v="stream" />
	</node>
	<node lat="63.544150000131154" lon="11.13425832562331" id="-85825">
		<tag k="name" v="Bakktjønnbekken" />
		<tag k="ssr:stedsnr" v="271520" />
		<tag k="waterway" v="stream" />
	</node>
	<node lat="63.457580551333386" lon="11.292927773820374" id="-85826">
		<tag k="name" v="Hyllbekken" />
		<tag k="ssr:stedsnr" v="271571" />
		<tag k="waterway" v="stream" />
	</node>
	<node lat="63.40306944563954" lon="11.093447217006762" id="-85839">
		<tag k="name" v="Romsjøen" />
		<tag k="natural" v="water" />
		<tag k="ssr:stedsnr" v="316058" />
		<tag k="water" v="lake" />
	</node>
	<node lat="63.505327780920425" lon="11.103769451292118" id="-85860">
		<tag k="name" v="Skjøla" />
		<tag k="ssr:stedsnr" v="316726" />
		<tag k="waterway" v="river" />
	</node>
	<node lat="63.51442221923935" lon="10.938819450741962" id="-85861">
		<tag k="name" v="Sandtjønna" />
		<tag k="natural" v="water" />
		<tag k="ssr:stedsnr" v="316749" />
	</node>
	<node lat="63.53824721963261" lon="11.0258416736118" id="-85874">
		<tag k="name" v="Borråselva" />
		<tag k="ssr:stedsnr" v="331711" />
		<tag k="waterway" v="river" />
	</node>
	<node lat="63.45408888548044" lon="11.229269449823299" id="-85880">
		<tag k="name" v="Stamntjønna" />
		<tag k="natural" v="water" />
		<tag k="ssr:stedsnr" v="331610" />
	</node>
	<node lat="63.454502774740845" lon="11.07609445169782" id="-85882">
		<tag k="name" v="Holmsøvja" />
		<tag k="natural" v="water" />
		<tag k="ssr:stedsnr" v="331668" />
		<tag k="water" v="lake" />
	</node>
	<node lat="63.397244446009914" lon="10.906349995214898" id="-85887">
		<tag k="name" v="Mikkelsmyrbekken" />
		<tag k="ssr:stedsnr" v="331965" />
		<tag k="waterway" v="stream" />
	</node>
	<node lat="63.497772221163395" lon="11.136000009012736" id="-85893">
		<tag k="name" v="Ulstaddammen" />
		<tag k="place" v="locality" />
		<tag k="ssr:stedsnr" v="332404" />
	</node>
	<node lat="63.49613611295204" lon="11.140391670248166" id="-85895">
		<tag k="name" v="Ulstadelva" />
		<tag k="ssr:stedsnr" v="332419" />
		<tag k="waterway" v="river" />
	</node>
	<node lat="63.556597223372854" lon="11.139327771874996" id="-85896">
		<tag k="name" v="Sagdalsbekken" />
		<tag k="ssr:stedsnr" v="332448" />
		<tag k="waterway" v="stream" />
	</node>
	<node lat="63.522786107054" lon="11.165619439964049" id="-85897">
		<tag k="name" v="Mela" />
		<tag k="ssr:stedsnr" v="332456" />
		<tag k="waterway" v="stream" />
	</node>
	<node lat="63.52951666495956" lon="11.10518333799512" id="-85899">
		<tag k="name" v="Kleivbekken" />
		<tag k="ssr:stedsnr" v="332462" />
		<tag k="waterway" v="stream" />
	</node>
	<node lat="63.453022224629166" lon="11.268019450514796" id="-85905">
		<tag k="name" v="Leirbekken" />
		<tag k="ssr:stedsnr" v="332503" />
		<tag k="waterway" v="stream" />
	</node>
	<node lat="63.52215000432701" lon="11.21243054673808" id="-85906">
		<tag k="name" v="Merkesbekken" />
		<tag k="ssr:stedsnr" v="471834" />
		<tag k="waterway" v="stream" />
	</node>
	<node lat="63.356445112957935" lon="11.076159630314825" id="-85909">
		<tag k="name" v="Ragnåa" />
		<tag k="ssr:stedsnr" v="472391" />
		<tag k="waterway" v="river" />
	</node>
	<node lat="63.368706925302156" lon="11.177197451157232" id="-85910">
		<tag k="name" v="Klemptjønna" />
		<tag k="natural" v="water" />
		<tag k="ssr:stedsnr" v="472438" />
	</node>
	<node lat="63.540958335412554" lon="11.39686388608986" id="-85918">
		<tag k="name" v="Styggdalsbekken" />
		<tag k="ssr:stedsnr" v="473726" />
		<tag k="waterway" v="stream" />
	</node>
	<node lat="63.52903611111824" lon="11.497725004829459" id="-85920">
		<tag k="name" v="Storbekken" />
		<tag k="ssr:stedsnr" v="473690" />
		<tag k="waterway" v="stream" />
	</node>
	<node lat="63.56510555180058" lon="11.102500003672262" id="-85921">
		<tag k="name" v="Svarttjønna" />
		<tag k="natural" v="water" />
		<tag k="ssr:stedsnr" v="473781" />
	</node>
	<node lat="63.36973610683038" lon="10.967416675293514" id="-85937">
		<tag k="alt_name" v="Store Rennen" />
		<tag k="name" v="Stor-Rennen" />
		<tag k="natural" v="water" />
		<tag k="ssr:stedsnr" v="376407" />
	</node>
	<node lat="63.5558000030702" lon="10.992974999354177" id="-85947">
		<tag k="name" v="Stormyrbekken" />
		<tag k="ssr:stedsnr" v="391734" />
		<tag k="waterway" v="stream" />
	</node>
	<node lat="63.524816669421845" lon="10.990791664225297" id="-85951">
		<tag k="name" v="Bubekken" />
		<tag k="ssr:stedsnr" v="391605" />
		<tag k="waterway" v="stream" />
	</node>
	<node lat="63.45167778008191" lon="11.02923334141307" id="-85954">
		<tag k="name" v="Øfstibekken" />
		<tag k="ssr:stedsnr" v="391689" />
		<tag k="waterway" v="stream" />
	</node>
	<node lat="63.42232222467957" lon="10.942294439096521" id="-85963">
		<tag k="name" v="Storneset" />
		<tag k="natural" v="cape" />
		<tag k="ssr:stedsnr" v="391993" />
	</node>
	<node lat="63.47658332893378" lon="11.389950002129156" id="-85964">
		<tag k="name" v="Lomtjønna" />
		<tag k="natural" v="water" />
		<tag k="ssr:stedsnr" v="392211" />
	</node>
	<node lat="63.469530553880276" lon="11.364752768337064" id="-85971">
		<tag k="name" v="Geittjønna" />
		<tag k="natural" v="water" />
		<tag k="ssr:stedsnr" v="392391" />
	</node>
	<node lat="63.550133333856536" lon="11.146733324277601" id="-85973">
		<tag k="name" v="Langdalsbekken" />
		<tag k="ssr:stedsnr" v="392506" />
		<tag k="waterway" v="stream" />
	</node>
	<node lat="63.498230559878124" lon="11.135683328969831" id="-85976">
		<tag k="name" v="Ulstadfossen" />
		<tag k="natural" v="waterfall" />
		<tag k="ssr:stedsnr" v="392450" />
	</node>
	<node lat="63.541847218789826" lon="11.107941671548076" id="-85977">
		<tag k="name" v="Kvernbekken" />
		<tag k="ssr:stedsnr" v="392500" />
		<tag k="waterway" v="stream" />
	</node>
	<node lat="63.51310000058456" lon="11.306713883974972" id="-85997">
		<tag k="name" v="Frosktjønna" />
		<tag k="natural" v="water" />
		<tag k="ssr:stedsnr" v="437515" />
	</node>
	<node lat="63.51706944354273" lon="11.26739167130197" id="-86008">
		<tag k="name" v="Sagfossen" />
		<tag k="natural" v="waterfall" />
		<tag k="ssr:stedsnr" v="438473" />
	</node>
	<node lat="63.39208610663833" lon="10.940666674616947" id="-86009">
		<tag k="name" v="Stibekken" />
		<tag k="ssr:stedsnr" v="438476" />
		<tag k="waterway" v="stream" />
	</node>
	<node lat="63.53908889102842" lon="10.880513893968564" id="-86015">
		<tag k="name" v="Struka" />
		<tag k="ssr:stedsnr" v="438759" />
		<tag k="waterway" v="river" />
	</node>
	<node lat="63.55675277862623" lon="11.084988898621848" id="-86021">
		<tag k="name" v="Trasttjønnbekken" />
		<tag k="ssr:stedsnr" v="452713" />
		<tag k="waterway" v="stream" />
	</node>
	<node lat="63.46345833522677" lon="11.36463611315356" id="-86035">
		<tag k="name" v="Varghølbekken" />
		<tag k="ssr:stedsnr" v="453378" />
		<tag k="waterway" v="stream" />
	</node>
	<node lat="63.41087777677247" lon="11.296483334838884" id="-86037">
		<tag k="name" v="Brattlibekken" />
		<tag k="ssr:stedsnr" v="453513" />
		<tag k="waterway" v="stream" />
	</node>
	<node lat="63.4072861092694" lon="11.272033342887221" id="-86038">
		<tag k="name" v="Stordalsbekken" />
		<tag k="ssr:stedsnr" v="453514" />
		<tag k="waterway" v="stream" />
	</node>
	<node lat="63.36010109185581" lon="11.013220325122987" id="-86043">
		<tag k="name" v="Ytrekutjønna" />
		<tag k="natural" v="water" />
		<tag k="ssr:stedsnr" v="471381" />
	</node>
	<node lat="63.42728888626108" lon="11.326213878668298" id="-86045">
		<tag k="name" v="Bjønndalsfossen" />
		<tag k="natural" v="waterfall" />
		<tag k="ssr:stedsnr" v="472479" />
	</node>
	<node lat="63.40315833026801" lon="10.90374722775684" id="-86051">
		<tag k="name" v="Mikkelsmyrbekken" />
		<tag k="ssr:stedsnr" v="680061" />
		<tag k="waterway" v="stream" />
	</node>
	<node lat="63.403988891594366" lon="10.8926083360693" id="-86052">
		<tag k="name" v="Stammyrvatnet" />
		<tag k="natural" v="water" />
		<tag k="ssr:stedsnr" v="680063" />
	</node>
	<node lat="63.56053889108194" lon="11.16084166437453" id="-86094">
		<tag k="name" v="Djupbekken" />
		<tag k="ssr:stedsnr" v="680839" />
		<tag k="waterway" v="stream" />
	</node>
	<node lat="63.42826388545514" lon="10.92012500623795" id="-86099">
		<tag k="name" v="Fugla" />
		<tag k="ssr:stedsnr" v="498005" />
		<tag k="waterway" v="stream" />
	</node>
	<node lat="63.5264888885792" lon="11.227841668788676" id="-86135">
		<tag k="alt_name" v="Vennavollbekken" />
		<tag k="name" v="Venuvollbekken" />
		<tag k="ssr:stedsnr" v="681478" />
		<tag k="waterway" v="stream" />
	</node>
	<node lat="63.518458333771584" lon="11.2154916671975" id="-86136">
		<tag k="name" v="Råvatnet" />
		<tag k="natural" v="water" />
		<tag k="ssr:stedsnr" v="681718" />
	</node>
	<node lat="63.522611109044554" lon="10.93673610111317" id="-86158">
		<tag k="name" v="Hønbytjønna" />
		<tag k="natural" v="water" />
		<tag k="ssr:stedsnr" v="513873" />
	</node>
	<node lat="63.51749166956337" lon="10.96253611352879" id="-86160">
		<tag k="name" v="Rundhåmmårbekken" />
		<tag k="ssr:stedsnr" v="513878" />
		<tag k="waterway" v="stream" />
	</node>
	<node lat="63.54666389339117" lon="11.166733324604854" id="-86168">
		<tag k="name" v="Krokåtbekken" />
		<tag k="ssr:stedsnr" v="514480" />
		<tag k="waterway" v="stream" />
	</node>
	<node lat="63.5039916623886" lon="11.173388894792337" id="-86193">
		<tag k="name" v="Møssjøen" />
		<tag k="natural" v="water" />
		<tag k="ssr:stedsnr" v="558696" />
	</node>
	<node lat="63.50451307952237" lon="11.014257164121373" id="-86197">
		<tag k="alt_name" v="Skarsjøen" />
		<tag k="name" v="Skardsjøen" />
		<tag k="natural" v="water" />
		<tag k="ssr:stedsnr" v="558707" />
		<tag k="water" v="lake" />
	</node>
	<node lat="63.52462221959607" lon="11.321283341378292" id="-86207">
		<tag k="name" v="Raudåa" />
		<tag k="ssr:stedsnr" v="559194" />
		<tag k="waterway" v="river" />
	</node>
	<node lat="63.387599997327456" lon="11.115399992051739" id="-86210">
		<tag k="name" v="Kleivåa" />
		<tag k="ssr:stedsnr" v="559488" />
		<tag k="waterway" v="river" />
	</node>
	<node lat="63.40264444560058" lon="11.219674993896875" id="-86211">
		<tag k="name" v="Svartbekken" />
		<tag k="ssr:stedsnr" v="695625" />
		<tag k="waterway" v="stream" />
	</node>
	<node lat="63.46628055316985" lon="11.10516111274173" id="-86212">
		<tag k="name" v="Hegrasbekken" />
		<tag k="ssr:stedsnr" v="695629" />
		<tag k="waterway" v="stream" />
	</node>
	<node lat="63.46796139391657" lon="11.151786646283552" id="-86213">
		<tag k="name" v="Leirfallbekken" />
		<tag k="ssr:stedsnr" v="695633" />
		<tag k="waterway" v="stream" />
	</node>
	<node lat="63.38826666575288" lon="11.114722228793495" id="-86216">
		<tag k="name" v="Rombekken" />
		<tag k="ssr:stedsnr" v="695650" />
		<tag k="waterway" v="stream" />
	</node>
	<node lat="63.47707777592899" lon="11.059841658033337" id="-86219">
		<tag k="name" v="Branndalsbekken" />
		<tag k="ssr:stedsnr" v="695723" />
		<tag k="waterway" v="stream" />
	</node>
	<node lat="63.397066670927416" lon="11.127166672262772" id="-86232">
		<tag k="name" v="Hoåstjønna" />
		<tag k="natural" v="water" />
		<tag k="ssr:stedsnr" v="573610" />
	</node>
	<node lat="63.38880000369415" lon="11.044783337269857" id="-86234">
		<tag k="name" v="Kvernbekken" />
		<tag k="ssr:stedsnr" v="573658" />
		<tag k="waterway" v="stream" />
	</node>
	<node lat="63.48204722586995" lon="10.941169437277287" id="-86264">
		<tag k="name" v="Fosslibekken" />
		<tag k="ssr:stedsnr" v="695871" />
		<tag k="waterway" v="stream" />
	</node>
	<node lat="63.511425003971254" lon="11.426558323794804" id="-86274">
		<tag k="name" v="Hegglibekken" />
		<tag k="ssr:stedsnr" v="696157" />
		<tag k="waterway" v="stream" />
	</node>
	<node lat="63.45195833069919" lon="11.42523610190133" id="-86275">
		<tag k="name" v="Holmbekken" />
		<tag k="ssr:stedsnr" v="696162" />
		<tag k="waterway" v="stream" />
	</node>
	<node lat="63.48401388691983" lon="11.425141656670718" id="-86277">
		<tag k="name" v="Kulåstjønna" />
		<tag k="natural" v="water" />
		<tag k="ssr:stedsnr" v="696191" />
	</node>
	<node lat="63.429169440479896" lon="11.274094434901393" id="-86282">
		<tag k="name" v="Lisbetbekken" />
		<tag k="ssr:stedsnr" v="696289" />
		<tag k="waterway" v="stream" />
	</node>
	<node lat="63.46542777919132" lon="11.451680554928497" id="-86290">
		<tag k="name" v="Skvelbekken" />
		<tag k="ssr:stedsnr" v="696393" />
		<tag k="waterway" v="stream" />
	</node>
	<node lat="63.53346944352136" lon="11.154366668043002" id="-86296">
		<tag k="name" v="Børsetsmørauget" />
		<tag k="natural" v="water" />
		<tag k="ssr:stedsnr" v="696502" />
		<tag k="water" v="pond" />
	</node>
	<node lat="63.47634721994079" lon="11.133180549707493" id="-86300">
		<tag k="name" v="Trettstykkdammen" />
		<tag k="ssr:stedsnr" v="696451" />
		<tag k="waterway" v="dam" />
	</node>
	<node lat="63.47267777460463" lon="11.161191668550236" id="-86301">
		<tag k="name" v="Åvelsgardsbekken" />
		<tag k="ssr:stedsnr" v="696452" />
		<tag k="waterway" v="stream" />
	</node>
	<node lat="63.56382777848627" lon="11.157361111931268" id="-86310">
		<tag k="name" v="Høgåsbekken" />
		<tag k="ssr:stedsnr" v="593716" />
		<tag k="waterway" v="stream" />
	</node>
	<node lat="63.560252779369385" lon="11.286949990528331" id="-86311">
		<tag k="name" v="Hilvollbekken" />
		<tag k="ssr:stedsnr" v="593718" />
		<tag k="waterway" v="stream" />
	</node>
	<node lat="63.56286666687377" lon="11.093536116147567" id="-86313">
		<tag k="name" v="Svarttjønnbekken" />
		<tag k="ssr:stedsnr" v="593724" />
		<tag k="waterway" v="stream" />
	</node>
	<node lat="63.52626389177845" lon="11.172486120903663" id="-86314">
		<tag k="name" v="Mela" />
		<tag k="ssr:stedsnr" v="593810" />
		<tag k="waterway" v="stream" />
	</node>
	<node lat="63.42398055866473" lon="11.453150004764986" id="-86315">
		<tag k="name" v="Svartkorsbekken" />
		<tag k="ssr:stedsnr" v="594518" />
		<tag k="waterway" v="stream" />
	</node>
	<node lat="63.381038884763285" lon="10.957930554343605" id="-86329">
		<tag k="name" v="Svartbekken" />
		<tag k="ssr:stedsnr" v="619516" />
		<tag k="waterway" v="stream" />
	</node>
	<node lat="63.369349997127514" lon="11.262044448024728" id="-86332">
		<tag k="name" v="Gråvassbekken" />
		<tag k="ssr:stedsnr" v="619476" />
		<tag k="waterway" v="stream" />
	</node>
	<node lat="63.527297826554744" lon="11.004180769064522" id="-86336">
		<tag k="name" v="Trollvatnet" />
		<tag k="natural" v="water" />
		<tag k="ssr:stedsnr" v="619775" />
	</node>
	<node lat="63.35799721878432" lon="11.145536113617254" id="-86346">
		<tag k="name" v="Leksa" />
		<tag k="ssr:stedsnr" v="620468" />
		<tag k="waterway" v="river" />
	</node>
	<node lat="63.441080557787124" lon="11.136944448234287" id="-86352">
		<tag k="name" v="Stortjønnbekken" />
		<tag k="ssr:stedsnr" v="634628" />
		<tag k="waterway" v="stream" />
	</node>
	<node lat="63.4962055572035" lon="10.956375001454978" id="-86359">
		<tag k="name" v="Skulbørstadfoss" />
		<tag k="natural" v="waterfall" />
		<tag k="ssr:stedsnr" v="634805" />
	</node>
	<node lat="63.48398055667337" lon="10.948727778170994" id="-86363">
		<tag k="name" v="Dølingsgryta" />
		<tag k="ssr:stedsnr" v="634898" />
		<tag k="waterway" v="dam" />
	</node>
	<node lat="63.51096111115119" lon="11.060463886814116" id="-86364">
		<tag k="name" v="Hovbekken" />
		<tag k="ssr:stedsnr" v="634776" />
		<tag k="waterway" v="stream" />
	</node>
	<node lat="63.41304722304904" lon="10.958577783167035" id="-86370">
		<tag k="name" v="Evja" />
		<tag k="ssr:stedsnr" v="634985" />
		<tag k="waterway" v="stream" />
	</node>
	<node lat="63.4965638920055" lon="11.399430547947624" id="-86371">
		<tag k="name" v="Bjørndalsbekken" />
		<tag k="ssr:stedsnr" v="635135" />
		<tag k="waterway" v="stream" />
	</node>
	<node lat="63.457472224428756" lon="11.392530545957475" id="-86373">
		<tag k="name" v="Laupbekken" />
		<tag k="ssr:stedsnr" v="635377" />
		<tag k="waterway" v="stream" />
	</node>
	<node lat="63.381576351391764" lon="11.450119247682156" id="-86382">
		<tag k="name" v="Silra" />
		<tag k="ssr:stedsnr" v="653484" />
		<tag k="waterway" v="river" />
	</node>
	<node lat="63.51124444348581" lon="11.535047226727917" id="-86386">
		<tag k="name" v="Springbekken" />
		<tag k="ssr:stedsnr" v="655698" />
		<tag k="waterway" v="stream" />
	</node>
	<node lat="63.5643305541357" lon="11.419069434892911" id="-86387">
		<tag k="name" v="Moseterbekken, nord" />
		<tag k="ssr:stedsnr" v="655793" />
		<tag k="waterway" v="stream" />
	</node>
	<node lat="63.35968333662956" lon="11.022358335250399" id="-86389">
		<tag k="name" v="Litlekutjønna" />
		<tag k="natural" v="water" />
		<tag k="ssr:stedsnr" v="660605" />
	</node>
	<node lat="63.38094444585272" lon="11.316233327546671" id="-86406">
		<tag k="name" v="Merkesbekken" />
		<tag k="ssr:stedsnr" v="681370" />
		<tag k="waterway" v="stream" />
	</node>
	<node lat="63.40644444262525" lon="11.103702772926725" id="-86413">
		<tag k="name" v="Romsjøtjønnbekken" />
		<tag k="ssr:stedsnr" v="695535" />
		<tag k="waterway" v="stream" />
	</node>
	<node lat="63.458688890166506" lon="11.035966674086776" id="-86417">
		<tag k="name" v="Hofstadørin" />
		<tag k="place" v="locality" />
		<tag k="ssr:stedsnr" v="695683" />
	</node>
	<node lat="63.42817499814392" lon="10.941519452025734" id="-86425">
		<tag k="name" v="Røsfossen" />
		<tag k="natural" v="waterfall" />
		<tag k="ssr:stedsnr" v="695904" />
	</node>
	<node lat="63.45288888639396" lon="11.323102782241902" id="-86430">
		<tag k="name" v="Kvernbekken" />
		<tag k="ssr:stedsnr" v="696266" />
		<tag k="waterway" v="stream" />
	</node>
	<node lat="63.434302775214846" lon="11.190755565273315" id="-86433">
		<tag k="name" v="Svartmyrbekken" />
		<tag k="ssr:stedsnr" v="696417" />
		<tag k="waterway" v="stream" />
	</node>
	<node lat="63.4672027788174" lon="11.254088889064246" id="-86434">
		<tag k="name" v="Dalsnesbekken" />
		<tag k="ssr:stedsnr" v="696505" />
		<tag k="waterway" v="stream" />
	</node>
	<node lat="63.41197499698411" lon="11.287197230073662" id="-86436">
		<tag k="name" v="Nesbekken" />
		<tag k="ssr:stedsnr" v="696516" />
		<tag k="waterway" v="stream" />
	</node>
	<node lat="63.37676503373305" lon="11.159934645365812" id="-86437">
		<tag k="name" v="Hoåsvollbekken" />
		<tag k="ssr:stedsnr" v="897427" />
		<tag k="waterway" v="stream" />
	</node>
	<node lat="63.365014266228094" lon="11.137297924798474" id="-86438">
		<tag k="name" v="Dybvadsbekken" />
		<tag k="ssr:stedsnr" v="897428" />
		<tag k="waterway" v="stream" />
	</node>
	<node lat="63.35669350643071" lon="10.932131344317913" id="-86443">
		<tag k="name" v="Frammigardstjønna" />
		<tag k="natural" v="water" />
		<tag k="ssr:stedsnr" v="897543" />
	</node>
	<node lat="63.36759497957176" lon="10.943798172432906" id="-86444">
		<tag k="name" v="Litl-Brandtvatnet" />
		<tag k="natural" v="water" />
		<tag k="ssr:stedsnr" v="897544" />
	</node>
	<node lat="63.38268232477344" lon="10.866290993373372" id="-86445">
		<tag k="name" v="Litl-Røstvatnet" />
		<tag k="natural" v="water" />
		<tag k="ssr:stedsnr" v="897545" />
	</node>
	<node lat="63.554241668916646" lon="11.389955563458031" id="-86450">
		<tag k="name" v="Mosterbekken" />
		<tag k="ssr:stedsnr" v="898728" />
		<tag k="waterway" v="stream" />
	</node>
	<node lat="63.5201638932147" lon="11.315394450579756" id="-86453">
		<tag k="name" v="Litlådalsbekken" />
		<tag k="ssr:stedsnr" v="898647" />
		<tag k="waterway" v="stream" />
	</node>
	<node lat="63.52236666938387" lon="11.49155556244607" id="-86454">
		<tag k="name" v="Leirbekken" />
		<tag k="ssr:stedsnr" v="898689" />
		<tag k="waterway" v="stream" />
	</node>
	<node lat="63.52530000365242" lon="11.187744439321083" id="-86457">
		<tag k="name" v="Hosetvolltjønna" />
		<tag k="natural" v="water" />
		<tag k="ssr:stedsnr" v="715832" />
	</node>
	<node lat="63.55881111509989" lon="11.180544441300793" id="-86459">
		<tag k="name" v="Teinbekken" />
		<tag k="ssr:stedsnr" v="715772" />
		<tag k="waterway" v="stream" />
	</node>
	<node lat="63.358555558845865" lon="11.361286102260651" id="-86483">
		<tag k="name" v="Lomkjølbekken" />
		<tag k="ssr:stedsnr" v="741497" />
		<tag k="waterway" v="stream" />
	</node>
	<node lat="63.54764722195483" lon="11.294122218725896" id="-86489">
		<tag k="alt_name" v="Tyldluffsdalsbekken" />
		<tag k="name" v="Tyldbekken" />
		<tag k="ssr:stedsnr" v="741540" />
		<tag k="waterway" v="stream" />
	</node>
	<node lat="63.53561389001323" lon="11.001811107847562" id="-86495">
		<tag k="fixme" v="multiple name tags, choose one and add the other to alt_name" />
		<tag k="name" v="Lauvåsvatnet;Lauvåstjønna" />
		<tag k="natural" v="water" />
		<tag k="ssr:stedsnr" v="741811" />
	</node>
	<node lat="63.55517777696301" lon="11.088155556439759" id="-86496">
		<tag k="name" v="Lomtjønna" />
		<tag k="natural" v="water" />
		<tag k="ssr:stedsnr" v="741840" />
	</node>
	<node lat="63.54795000278421" lon="11.087647221003404" id="-86500">
		<tag k="name" v="Ausetvatnet" />
		<tag k="natural" v="water" />
		<tag k="ssr:stedsnr" v="741797" />
		<tag k="water" v="lake" />
	</node>
	<node lat="63.470238886750906" lon="11.382819440781715" id="-86507">
		<tag k="name" v="Litldammen" />
		<tag k="natural" v="water" />
		<tag k="ssr:stedsnr" v="756355" />
		<tag k="water" v="pond" />
	</node>
	<node lat="63.46346110767082" lon="11.353886114022156" id="-86510">
		<tag k="name" v="Olabekken" />
		<tag k="ssr:stedsnr" v="756508" />
		<tag k="waterway" v="stream" />
	</node>
	<node lat="63.454847219237344" lon="11.280825001748784" id="-86511">
		<tag k="name" v="Boligbekken" />
		<tag k="ssr:stedsnr" v="756518" />
		<tag k="waterway" v="stream" />
	</node>
	<node lat="63.54691666288904" lon="11.132888897587451" id="-86514">
		<tag k="name" v="Bjørgtjønna" />
		<tag k="natural" v="water" />
		<tag k="ssr:stedsnr" v="756462" />
	</node>
	<node lat="63.41393333743285" lon="11.263030552215803" id="-86515">
		<tag k="name" v="Kirkskogbekken" />
		<tag k="ssr:stedsnr" v="756499" />
		<tag k="waterway" v="stream" />
	</node>
	<node lat="63.49183055635999" lon="11.108944450733569" id="-86518">
		<tag k="name" v="Islandsbekken" />
		<tag k="ssr:stedsnr" v="756750" />
		<tag k="waterway" v="stream" />
	</node>
	<node lat="63.49139721978943" lon="10.997041659874293" id="-86519">
		<tag k="name" v="Rebergbekken" />
		<tag k="ssr:stedsnr" v="756759" />
		<tag k="waterway" v="stream" />
	</node>
	<node lat="63.51365833381128" lon="10.948983338004712" id="-86520">
		<tag k="name" v="Bukamtjønna" />
		<tag k="natural" v="water" />
		<tag k="ssr:stedsnr" v="756800" />
	</node>
	<node lat="63.57406110940148" lon="11.349813894128815" id="-86526">
		<tag k="name" v="Sør-Røkkebekken" />
		<tag k="ssr:stedsnr" v="775756" />
		<tag k="waterway" v="stream" />
	</node>
	<node lat="63.56840832893462" lon="11.275902785131956" id="-86527">
		<tag k="name" v="Skralttjønnbekken" />
		<tag k="ssr:stedsnr" v="775763" />
		<tag k="waterway" v="stream" />
	</node>
	<node lat="63.5287583344471" lon="11.299675005212812" id="-86528">
		<tag k="name" v="Litltyldtjønna" />
		<tag k="natural" v="water" />
		<tag k="ssr:stedsnr" v="776616" />
	</node>
	<node lat="63.56153055441408" lon="11.097099992689806" id="-86529">
		<tag k="name" v="Gravtjønndalsbekken" />
		<tag k="ssr:stedsnr" v="776764" />
		<tag k="waterway" v="stream" />
	</node>
	<node lat="63.408100000002726" lon="10.987074996639917" id="-86533">
		<tag k="name" v="Grytbekken" />
		<tag k="ssr:stedsnr" v="802080" />
		<tag k="waterway" v="stream" />
	</node>
	<node lat="63.4650861098283" lon="11.189844451551325" id="-86536">
		<tag k="name" v="Fornes" />
		<tag k="natural" v="cape" />
		<tag k="ssr:stedsnr" v="802207" />
	</node>
	<node lat="63.521144441391655" lon="11.016430553221047" id="-86559">
		<tag k="name" v="Almovatnet" />
		<tag k="natural" v="water" />
		<tag k="ssr:stedsnr" v="802763" />
		<tag k="water" v="lake" />
	</node>
	<node lat="63.424502780304884" lon="11.18344722684596" id="-86565">
		<tag k="name" v="Skjervfossen" />
		<tag k="natural" v="waterfall" />
		<tag k="ssr:stedsnr" v="816576" />
	</node>
	<node lat="63.45770277408493" lon="11.080966668223162" id="-86567">
		<tag k="name" v="Hemresbekken" />
		<tag k="ssr:stedsnr" v="816709" />
		<tag k="waterway" v="stream" />
	</node>
	<node lat="63.49037500299041" lon="10.990930550202595" id="-86568">
		<tag k="name" v="Setertjønna" />
		<tag k="natural" v="water" />
		<tag k="ssr:stedsnr" v="816775" />
	</node>
	<node lat="63.53024999814538" lon="11.106219452012843" id="-86590">
		<tag k="name" v="Stamntjønna" />
		<tag k="natural" v="water" />
		<tag k="ssr:stedsnr" v="817470" />
	</node>
	<node lat="63.454044448161476" lon="11.40935000652581" id="-86591">
		<tag k="name" v="Melbekken" />
		<tag k="ssr:stedsnr" v="817380" />
		<tag k="waterway" v="stream" />
	</node>
	<node lat="63.4777611079324" lon="11.281974996374974" id="-86611">
		<tag k="name" v="Storbekken" />
		<tag k="ssr:stedsnr" v="923290" />
		<tag k="waterway" v="stream" />
	</node>
	<node lat="63.430677781409024" lon="10.872258328470236" id="-86612">
		<tag k="name" v="Svartvatnet" />
		<tag k="natural" v="water" />
		<tag k="ssr:stedsnr" v="923152" />
	</node>
	<node lat="63.366030556727104" lon="11.016188884906054" id="-86622">
		<tag k="name" v="Lauvvatnet" />
		<tag k="natural" v="water" />
		<tag k="ssr:stedsnr" v="923432" />
	</node>
	<node lat="63.34323055435018" lon="11.029461110638618" id="-86624">
		<tag k="alt_name" v="Østre Grønlivatn" />
		<tag k="name" v="Grønlivatna" />
		<tag k="natural" v="water" />
		<tag k="ssr:stedsnr" v="923456" />
	</node>
	<node lat="63.383316666966344" lon="10.982319436285723" id="-86627">
		<tag k="name" v="Kvernbekken" />
		<tag k="ssr:stedsnr" v="923538" />
		<tag k="waterway" v="stream" />
	</node>
	<node lat="63.39556388653854" lon="11.185202781971768" id="-86634">
		<tag k="name" v="Kvernhusbekken" />
		<tag k="ssr:stedsnr" v="923495" />
		<tag k="waterway" v="stream" />
	</node>
	<node lat="63.5692916707944" lon="11.552713884016423" id="-86635">
		<tag k="name" v="Vigdvatnet" />
		<tag k="natural" v="water" />
		<tag k="ssr:stedsnr" v="923498" />
		<tag k="water" v="lake" />
	</node>
	<node lat="63.57328611265464" lon="11.330847224882879" id="-86639">
		<tag k="name" v="Mælastjønna" />
		<tag k="natural" v="water" />
		<tag k="ssr:stedsnr" v="923503" />
	</node>
	<node lat="63.57379722636949" lon="11.31362222227038" id="-86640">
		<tag k="name" v="Fongtjønna" />
		<tag k="natural" v="water" />
		<tag k="ssr:stedsnr" v="923505" />
	</node>
	<node lat="63.37838332936501" lon="10.98128055860474" id="-86646">
		<tag k="alt_name" v="Julsettjønna" />
		<tag k="name" v="Kverntjønna" />
		<tag k="natural" v="water" />
		<tag k="ssr:stedsnr" v="923517" />
	</node>
	<node lat="63.36833566191864" lon="11.032284320671506" id="-86657">
		<tag k="name" v="Lomtjønna" />
		<tag k="natural" v="water" />
		<tag k="ssr:stedsnr" v="836328" />
	</node>
	<node lat="63.38047679121937" lon="11.342705586144442" id="-86661">
		<tag k="name" v="Sundalsbekken" />
		<tag k="ssr:stedsnr" v="837444" />
		<tag k="waterway" v="stream" />
	</node>
	<node lat="63.47303611559835" lon="11.517311107051894" id="-86662">
		<tag k="name" v="Storbekken" />
		<tag k="ssr:stedsnr" v="837706" />
		<tag k="waterway" v="stream" />
	</node>
	<node lat="63.53251666466814" lon="11.385044444207185" id="-86663">
		<tag k="name" v="Langslettbekken" />
		<tag k="ssr:stedsnr" v="837730" />
		<tag k="waterway" v="stream" />
	</node>
	<node lat="63.50130555182849" lon="11.272613884984647" id="-86667">
		<tag k="name" v="Kroketbekken" />
		<tag k="ssr:stedsnr" v="837685" />
		<tag k="waterway" v="stream" />
	</node>
	<node lat="63.52202777595398" lon="11.251352779326712" id="-86688">
		<tag k="name" v="Bjørgtjønna" />
		<tag k="natural" v="water" />
		<tag k="ssr:stedsnr" v="863498" />
	</node>
	<node lat="63.40641389222304" lon="11.091874997913088" id="-86703">
		<tag k="name" v="Litlvollbekken" />
		<tag k="ssr:stedsnr" v="877714" />
		<tag k="waterway" v="stream" />
	</node>
	<node lat="63.48440833742909" lon="10.987563892975324" id="-86705">
		<tag k="name" v="Møssjøbekken" />
		<tag k="ssr:stedsnr" v="877761" />
		<tag k="waterway" v="stream" />
	</node>
	<node lat="63.52563333472304" lon="10.955408327666396" id="-86721">
		<tag k="name" v="Steindalsbekken" />
		<tag k="ssr:stedsnr" v="877864" />
		<tag k="waterway" v="stream" />
	</node>
	<node lat="63.500058330333125" lon="11.409752776423174" id="-86724">
		<tag k="name" v="Skolmlibekken" />
		<tag k="ssr:stedsnr" v="878167" />
		<tag k="waterway" v="stream" />
	</node>
	<node lat="63.370909178111006" lon="11.476087160535899" id="-86733">
		<tag k="name" v="Skrøya" />
		<tag k="ssr:stedsnr" v="896545" />
		<tag k="waterway" v="river" />
	</node>
	<node lat="63.516594445510684" lon="11.220933324551677" id="-86734">
		<tag k="name" v="Sørbekken" />
		<tag k="ssr:stedsnr" v="896857" />
		<tag k="waterway" v="stream" />
	</node>
	<node lat="63.530741668885426" lon="11.174827771208742" id="-86735">
		<tag k="name" v="Svarttjønna" />
		<tag k="natural" v="water" />
		<tag k="ssr:stedsnr" v="896866" />
	</node>
	<node lat="63.3750059916536" lon="11.082933297645262" id="-86736">
		<tag k="name" v="Mobekken" />
		<tag k="ssr:stedsnr" v="897403" />
		<tag k="waterway" v="stream" />
	</node>
	<node lat="63.49908055650277" lon="11.175452787639594" id="-86741">
		<tag k="name" v="Storbekken" />
		<tag k="ssr:stedsnr" v="898672" />
		<tag k="waterway" v="stream" />
	</node>
	<node lat="63.374477781484174" lon="11.365197215935442" id="-86762">
		<tag k="name" v="Sildra" />
		<tag k="ssr:stedsnr" v="923422" />
		<tag k="waterway" v="stream" />
	</node>
	<node lat="63.55229167000974" lon="11.506311104944166" id="-86768">
		<tag k="name" v="Auståsbekken" />
		<tag k="old_name" v="Åustasbekken" />
		<tag k="ssr:stedsnr" v="924449" />
		<tag k="waterway" v="stream" />
	</node>
	<node lat="63.42986666499281" lon="11.097805560814534" id="-86781">
		<tag k="name" v="Trolltjønnbekken" />
		<tag k="ssr:stedsnr" v="938636" />
		<tag k="waterway" v="stream" />
	</node>
	<node lat="63.444455554614024" lon="11.068858335476698" id="-86782">
		<tag k="name" v="Svartåsbekken" />
		<tag k="ssr:stedsnr" v="938640" />
		<tag k="waterway" v="stream" />
	</node>
	<node lat="63.52141389329783" lon="10.830330563980105" id="-86786">
		<tag k="name" v="Heggjasbekken" />
		<tag k="ssr:stedsnr" v="938903" />
		<tag k="waterway" v="stream" />
	</node>
	<node lat="63.41870555615971" lon="10.904627784451723" id="-86789">
		<tag k="name" v="Fugla" />
		<tag k="ssr:stedsnr" v="938931" />
		<tag k="waterway" v="stream" />
	</node>
	<node lat="63.49329166537913" lon="11.355811102507383" id="-86793">
		<tag k="name" v="Storfossen" />
		<tag k="natural" v="waterfall" />
		<tag k="ssr:stedsnr" v="939307" />
	</node>
	<node lat="63.432561107546775" lon="11.285377767683855" id="-86798">
		<tag k="name" v="Flåbekken" />
		<tag k="ssr:stedsnr" v="939285" />
		<tag k="waterway" v="stream" />
	</node>
	<node lat="63.53305277919408" lon="11.166986115420581" id="-86799">
		<tag k="name" v="Ytre Brattåstjønna" />
		<tag k="natural" v="water" />
		<tag k="ssr:stedsnr" v="939497" />
	</node>
	<node lat="63.51831111243811" lon="11.181944450849224" id="-86804">
		<tag k="name" v="Oksbekken" />
		<tag k="ssr:stedsnr" v="957832" />
		<tag k="waterway" v="stream" />
	</node>
	<node lat="63.519666664006394" lon="11.17055277559896" id="-86805">
		<tag k="name" v="Sjurbekken" />
		<tag k="ssr:stedsnr" v="957834" />
		<tag k="waterway" v="stream" />
	</node>
	<node lat="63.51803610983052" lon="11.205808323490754" id="-86806">
		<tag k="name" v="Trongbekken" />
		<tag k="ssr:stedsnr" v="957835" />
		<tag k="waterway" v="stream" />
	</node>
	<node lat="63.44040000037054" lon="11.452605561254309" id="-86808">
		<tag k="name" v="Tortlibekken" />
		<tag k="ssr:stedsnr" v="958542" />
		<tag k="waterway" v="stream" />
	</node>
	<node lat="63.366381889899614" lon="11.42025128026881" id="-86811">
		<tag k="name" v="Sillertjønna" />
		<tag k="natural" v="water" />
		<tag k="ssr:stedsnr" v="958484" />
	</node>
	<node lat="63.41041111496734" lon="11.096888897202914" id="-86839">
		<tag k="alt_name" v="Litlevollbekken" />
		<tag k="name" v="Litlvollbekken" />
		<tag k="ssr:stedsnr" v="13052" />
		<tag k="waterway" v="stream" />
	</node>
	<node lat="63.56290277352738" lon="11.384822231519594" id="-86847">
		<tag k="name" v="Svartelva" />
		<tag k="ssr:stedsnr" v="13223" />
		<tag k="waterway" v="river" />
	</node>
	<node lat="63.49988155080876" lon="10.975318484035599" id="-86849">
		<tag k="name" v="Liavatnet" />
		<tag k="natural" v="water" />
		<tag k="ssr:stedsnr" v="13237" />
		<tag k="water" v="lake" />
	</node>
	<node lat="63.48278333358114" lon="11.264683336072919" id="-86860">
		<tag k="name" v="Kvernbekken" />
		<tag k="ssr:stedsnr" v="13277" />
		<tag k="waterway" v="stream" />
	</node>
	<node lat="63.49414999728195" lon="11.237394443923371" id="-86864">
		<tag k="name" v="Flåbekken" />
		<tag k="ssr:stedsnr" v="13299" />
		<tag k="waterway" v="stream" />
	</node>
	<node lat="63.49639166385202" lon="11.329152775536958" id="-86865">
		<tag k="name" v="Djupdalsbekken" />
		<tag k="ssr:stedsnr" v="13383" />
		<tag k="waterway" v="stream" />
	</node>
	<node lat="63.56552500242427" lon="11.290250002476162" id="-86868">
		<tag k="name" v="Gåstjønna" />
		<tag k="natural" v="water" />
		<tag k="ssr:stedsnr" v="13489" />
	</node>
	<node lat="63.38901944819984" lon="11.131197222035928" id="-86875">
		<tag k="name" v="Fjellbekken" />
		<tag k="ssr:stedsnr" v="13527" />
		<tag k="waterway" v="stream" />
	</node>
	<node lat="63.55063889174433" lon="10.933449999074702" id="-86881">
		<tag k="name" v="Langsteinelva" />
		<tag k="ssr:stedsnr" v="13761" />
		<tag k="waterway" v="stream" />
	</node>
	<node lat="63.41945000251018" lon="10.937747229899896" id="-86899">
		<tag k="name" v="Odden" />
		<tag k="natural" v="cape" />
		<tag k="ssr:stedsnr" v="27984" />
	</node>
	<node lat="63.40048889143773" lon="11.071566657097875" id="-86927">
		<tag k="name" v="Romelva" />
		<tag k="ssr:stedsnr" v="28700" />
		<tag k="waterway" v="river" />
	</node>
	<node lat="63.54674166841861" lon="11.09499722037435" id="-86932">
		<tag k="name" v="Oddan" />
		<tag k="natural" v="cape" />
		<tag k="ssr:stedsnr" v="28736" />
	</node>
	<node lat="63.48389722477719" lon="11.091811101330817" id="-86933">
		<tag k="name" v="Karlbekken" />
		<tag k="ssr:stedsnr" v="28749" />
		<tag k="waterway" v="stream" />
	</node>
	<node lat="63.48562500294892" lon="11.064861105159537" id="-86934">
		<tag k="name" v="Bangbekken" />
		<tag k="ssr:stedsnr" v="28752" />
		<tag k="waterway" v="stream" />
	</node>
	<node lat="63.37747499904817" lon="10.865597225394124" id="-86946">
		<tag k="name" v="Bårdstjønnbekken" />
		<tag k="ssr:stedsnr" v="47583" />
		<tag k="waterway" v="stream" />
	</node>
	<node lat="63.36502668970241" lon="11.107491332604454" id="-86948">
		<tag k="name" v="Fjellbekken" />
		<tag k="ssr:stedsnr" v="47448" />
		<tag k="waterway" v="stream" />
	</node>
	<node lat="63.44426944026503" lon="11.316588880256019" id="-86949">
		<tag k="name" v="Kvennbekken" />
		<tag k="ssr:stedsnr" v="47542" />
		<tag k="waterway" v="stream" />
	</node>
	<node lat="63.50758055576705" lon="11.211858327086366" id="-86950">
		<tag k="name" v="Høgåstjønna" />
		<tag k="natural" v="water" />
		<tag k="ssr:stedsnr" v="47671" />
	</node>
	<node lat="63.55360555330274" lon="11.279938896780802" id="-86953">
		<tag k="name" v="Stokkbekken" />
		<tag k="ssr:stedsnr" v="48599" />
		<tag k="waterway" v="stream" />
	</node>
	<node lat="63.505683333121254" lon="11.180819445930075" id="-86954">
		<tag k="name" v="Møsøbekken" />
		<tag k="ssr:stedsnr" v="48640" />
		<tag k="waterway" v="stream" />
	</node>
	<node lat="63.57448889228248" lon="11.382255564035173" id="-86958">
		<tag k="name" v="Kjeilan" />
		<tag k="natural" v="bay" />
		<tag k="ssr:stedsnr" v="48796" />
	</node>
	<node lat="63.34327777886717" lon="10.862536104992762" id="-86964">
		<tag k="alt_name" v="Jøsåsvatnet;Store Jøssåstjønna;Jøssåstjønna" />
		<tag k="name" v="Jøssåsvatnet" />
		<tag k="natural" v="water" />
		<tag k="ssr:stedsnr" v="73419" />
	</node>
	<node lat="63.43119444882933" lon="11.319911112973989" id="-86966">
		<tag k="alt_name" v="Flåtjønnbekken" />
		<tag k="name" v="Flåbekken" />
		<tag k="ssr:stedsnr" v="73168" />
		<tag k="waterway" v="stream" />
	</node>
	<node lat="63.487538889970324" lon="11.013400009980982" id="-86975">
		<tag k="name" v="Møssjøen" />
		<tag k="natural" v="water" />
		<tag k="ssr:stedsnr" v="74241" />
	</node>
	<node lat="63.57259444322681" lon="11.588374993857133" id="-86993">
		<tag k="name" v="Storbekken" />
		<tag k="ssr:stedsnr" v="74195" />
		<tag k="waterway" v="stream" />
	</node>
	<node lat="63.529202776043526" lon="11.535738892963796" id="-86999">
		<tag k="name" v="Springbekken" />
		<tag k="ssr:stedsnr" v="74474" />
		<tag k="waterway" v="stream" />
	</node>
	<node lat="63.390774995649494" lon="10.869197220607449" id="-87001">
		<tag k="name" v="Nøkkholbekken" />
		<tag k="ssr:stedsnr" v="74440" />
		<tag k="waterway" v="stream" />
	</node>
	<node lat="63.5420694435031" lon="11.053369443686526" id="-87014">
		<tag k="name" v="Bergbekken" />
		<tag k="ssr:stedsnr" v="74743" />
		<tag k="waterway" v="stream" />
	</node>
	<node lat="63.36721217582479" lon="11.264263627223128" id="-87021">
		<tag k="name" v="Voldsetbekken" />
		<tag k="ssr:stedsnr" v="229434" />
		<tag k="waterway" v="stream" />
	</node>
	<node lat="63.53960556012488" lon="11.09361666052826" id="-87026">
		<tag k="name" v="Stordalsbekken" />
		<tag k="ssr:stedsnr" v="88495" />
		<tag k="waterway" v="stream" />
	</node>
	<node lat="63.405963891013826" lon="11.224136117463136" id="-87028">
		<tag k="name" v="Tyska" />
		<tag k="ssr:stedsnr" v="88590" />
		<tag k="waterway" v="stream" />
	</node>
	<node lat="63.40811110876586" lon="11.114772216837862" id="-87034">
		<tag k="name" v="Borkholbekken" />
		<tag k="ssr:stedsnr" v="88461" />
		<tag k="waterway" v="stream" />
	</node>
	<node lat="63.512958334956934" lon="10.924208339917541" id="-87045">
		<tag k="name" v="Lisbettjønna" />
		<tag k="natural" v="water" />
		<tag k="ssr:stedsnr" v="88753" />
	</node>
	<node lat="63.486333334349204" lon="11.097541675684827" id="-87048">
		<tag k="name" v="Sætranbekken" />
		<tag k="ssr:stedsnr" v="88692" />
		<tag k="waterway" v="stream" />
	</node>
	<node lat="63.50319444450905" lon="10.756605558547658" id="-87055">
		<tag k="name" v="Fiskvikbekken" />
		<tag k="ssr:stedsnr" v="88932" />
		<tag k="waterway" v="stream" />
	</node>
	<node lat="63.4926638912555" lon="10.778613892902897" id="-87057">
		<tag k="name" v="Vinnabekken" />
		<tag k="ssr:stedsnr" v="88945" />
		<tag k="waterway" v="stream" />
	</node>
	<node lat="63.44382499945276" lon="10.960213888646246" id="-87062">
		<tag k="name" v="Krikbekken" />
		<tag k="ssr:stedsnr" v="88810" />
		<tag k="waterway" v="stream" />
	</node>
	<node lat="63.539327776191534" lon="10.96825000840708" id="-87063">
		<tag k="name" v="Langdalsbekken" />
		<tag k="ssr:stedsnr" v="88813" />
		<tag k="waterway" v="stream" />
	</node>
	<node lat="63.45815555242377" lon="11.452758337733497" id="-87071">
		<tag k="name" v="Holmhølen" />
		<tag k="place" v="locality" />
		<tag k="ssr:stedsnr" v="89416" />
	</node>
	<node lat="63.44235277907507" lon="11.277755551027768" id="-87078">
		<tag k="name" v="Åbitskarbekken" />
		<tag k="ssr:stedsnr" v="89293" />
		<tag k="waterway" v="stream" />
	</node>
	<node lat="63.54321388729421" lon="11.128713890473675" id="-87082">
		<tag k="name" v="Bakktjønna" />
		<tag k="natural" v="water" />
		<tag k="ssr:stedsnr" v="89490" />
	</node>
	<node lat="63.4636500027385" lon="11.336986113618613" id="-87085">
		<tag k="name" v="Bergurbekken" />
		<tag k="ssr:stedsnr" v="89530" />
		<tag k="waterway" v="stream" />
	</node>
	<node lat="63.49850833111731" lon="11.150888885018052" id="-87087">
		<tag k="name" v="Langdalsbekken" />
		<tag k="ssr:stedsnr" v="89448" />
		<tag k="waterway" v="stream" />
	</node>
	<node lat="63.385683337601684" lon="11.27888055598428" id="-87101">
		<tag k="name" v="Litlbekken" />
		<tag k="ssr:stedsnr" v="108500" />
		<tag k="waterway" v="stream" />
	</node>
	<node lat="63.401022220482915" lon="11.261008334378536" id="-87102">
		<tag k="name" v="Litl-Klemmetsbekken" />
		<tag k="ssr:stedsnr" v="108501" />
		<tag k="waterway" v="stream" />
	</node>
	<node lat="63.369696553250094" lon="11.063645428828844" id="-87104">
		<tag k="name" v="Brennmobekken" />
		<tag k="ssr:stedsnr" v="108434" />
		<tag k="waterway" v="stream" />
	</node>
	<node lat="63.36313889164944" lon="10.872400009241506" id="-87109">
		<tag k="name" v="Kulltjønnbekken" />
		<tag k="ssr:stedsnr" v="108585" />
		<tag k="waterway" v="stream" />
	</node>
	<node lat="63.40584721828851" lon="11.449805550656636" id="-87113">
		<tag k="name" v="Litlsonvatnbekken" />
		<tag k="ssr:stedsnr" v="109499" />
		<tag k="waterway" v="stream" />
	</node>
	<node lat="63.52508333164601" lon="11.29485833822412" id="-87114">
		<tag k="name" v="Krokåtbekken" />
		<tag k="ssr:stedsnr" v="109593" />
		<tag k="waterway" v="stream" />
	</node>
	<node lat="63.53754721996852" lon="11.39678332542465" id="-87117">
		<tag k="name" v="Hofstadvollbekken" />
		<tag k="ssr:stedsnr" v="109687" />
		<tag k="waterway" v="stream" />
	</node>
	<node lat="63.42854444064976" lon="11.140869439053247" id="-87123">
		<tag k="name" v="Flaksjøen" />
		<tag k="natural" v="water" />
		<tag k="ssr:stedsnr" v="134042" />
	</node>
	<node lat="63.36120555371393" lon="11.098900001825438" id="-87143">
		<tag k="name" v="Storfossen" />
		<tag k="natural" v="waterfall" />
		<tag k="ssr:stedsnr" v="134424" />
	</node>
	<node lat="63.509444445620616" lon="11.374911119833635" id="-87154">
		<tag k="name" v="Åstjønna" />
		<tag k="natural" v="water" />
		<tag k="ssr:stedsnr" v="134540" />
	</node>
	<node lat="63.56051944747184" lon="11.194027772622976" id="-87160">
		<tag k="alt_name" v="Nerelva" />
		<tag k="name" v="Sagelva" />
		<tag k="ssr:stedsnr" v="134796" />
		<tag k="waterway" v="stream" />
	</node>
	<node lat="63.513786112473916" lon="10.88082499132811" id="-87177">
		<tag k="name" v="Holfossen" />
		<tag k="natural" v="waterfall" />
		<tag k="ssr:stedsnr" v="149781" />
	</node>
	<node lat="63.4878222183523" lon="10.984483323971423" id="-87181">
		<tag k="name" v="Svebekken" />
		<tag k="ssr:stedsnr" v="148753" />
		<tag k="waterway" v="stream" />
	</node>
	<node lat="63.47851666522114" lon="10.92601389229016" id="-87184">
		<tag k="name" v="Stokkbekken" />
		<tag k="ssr:stedsnr" v="148878" />
		<tag k="waterway" v="stream" />
	</node>
	<node lat="63.5011083368018" lon="11.411566673286671" id="-87193">
		<tag k="name" v="Stordalsbekken" />
		<tag k="ssr:stedsnr" v="149132" />
		<tag k="waterway" v="stream" />
	</node>
	<node lat="63.509347219048" lon="11.408730552695209" id="-87197">
		<tag k="name" v="Almlidammen" />
		<tag k="natural" v="water" />
		<tag k="ssr:stedsnr" v="149144" />
	</node>
	<node lat="63.475400001868664" lon="11.245072214670042" id="-87199">
		<tag k="name" v="Brunmyrtjønnin" />
		<tag k="natural" v="water" />
		<tag k="ssr:stedsnr" v="149305" />
	</node>
	<node lat="63.46452221899536" lon="11.363516658800465" id="-87206">
		<tag k="name" v="Dalbekken" />
		<tag k="ssr:stedsnr" v="149378" />
		<tag k="waterway" v="stream" />
	</node>
	<node lat="63.47038332901769" lon="11.129325004917316" id="-87212">
		<tag k="name" v="Bjugbekken" />
		<tag k="ssr:stedsnr" v="149623" />
		<tag k="waterway" v="stream" />
	</node>
	<node lat="63.525188888608135" lon="11.002088880159443" id="-87223">
		<tag k="name" v="Trollvassbekken" />
		<tag k="ssr:stedsnr" v="149578" />
		<tag k="waterway" v="stream" />
	</node>
	<node lat="63.49935277603172" lon="11.18023610120287" id="-87241">
		<tag k="name" v="Gaupdalsbekken" />
		<tag k="ssr:stedsnr" v="169664" />
		<tag k="waterway" v="stream" />
	</node>
	<node lat="63.50534722030306" lon="11.25684723163617" id="-87242">
		<tag k="name" v="Kroketbekken" />
		<tag k="ssr:stedsnr" v="169672" />
		<tag k="waterway" v="stream" />
	</node>
	<node lat="63.56103055245912" lon="11.271452778722939" id="-87248">
		<tag k="name" v="Gåstjønnbekken" />
		<tag k="ssr:stedsnr" v="169775" />
		<tag k="waterway" v="stream" />
	</node>
	<node lat="63.554783330280465" lon="11.186233332821317" id="-87250">
		<tag k="name" v="Tronkbekken" />
		<tag k="ssr:stedsnr" v="169853" />
		<tag k="waterway" v="stream" />
	</node>
	<node lat="63.4293805519137" lon="11.203194436281692" id="-87253">
		<tag k="alt_name" v="Litelebekken" />
		<tag k="name" v="Litlbekken" />
		<tag k="ssr:stedsnr" v="195010" />
		<tag k="waterway" v="stream" />
	</node>
	<node lat="63.48313610935595" lon="11.186225002327909" id="-87263">
		<tag k="alt_name" v="Solheimsdammen;Solemstjønna" />
		<tag k="name" v="Solemsdammen" />
		<tag k="natural" v="water" />
		<tag k="ssr:stedsnr" v="195150" />
	</node>
	<node lat="63.53541666548118" lon="11.578844449390916" id="-87277">
		<tag k="name" v="Sørvigda" />
		<tag k="ssr:stedsnr" v="195507" />
		<tag k="waterway" v="river" />
	</node>
	<node lat="63.53246111526937" lon="11.429438879731931" id="-87280">
		<tag k="name" v="Motjønna" />
		<tag k="natural" v="water" />
		<tag k="ssr:stedsnr" v="195512" />
	</node>
	<node lat="63.527530556695204" lon="11.292591657421928" id="-87285">
		<tag k="name" v="Fiskbekken" />
		<tag k="ssr:stedsnr" v="195521" />
		<tag k="waterway" v="stream" />
	</node>
	<node lat="63.50295277432853" lon="11.268850001883363" id="-87288">
		<tag k="name" v="Tyldfossen" />
		<tag k="natural" v="waterfall" />
		<tag k="ssr:stedsnr" v="195296" />
	</node>
	<node lat="63.38377500332293" lon="11.343280557660545" id="-87293">
		<tag k="name" v="Øybekken" />
		<tag k="ssr:stedsnr" v="195402" />
		<tag k="waterway" v="stream" />
	</node>
	<node lat="63.475947224998876" lon="11.343930551299355" id="-87320">
		<tag k="name" v="Auster Hisjidalen" />
		<tag k="ssr:stedsnr" v="210353" />
		<tag k="waterway" v="stream" />
	</node>
	<node lat="63.47439444726561" lon="11.423922227447573" id="-87323">
		<tag k="name" v="Flortjønna" />
		<tag k="natural" v="water" />
		<tag k="ssr:stedsnr" v="210199" />
	</node>
	<node lat="63.39024166586987" lon="11.148511113254122" id="-87329">
		<tag k="name" v="Holbekken" />
		<tag k="ssr:stedsnr" v="210654" />
		<tag k="waterway" v="stream" />
	</node>
	<node lat="63.548847219949195" lon="11.129216661823502" id="-87332">
		<tag k="name" v="Svarttjønnbekken" />
		<tag k="ssr:stedsnr" v="210471" />
		<tag k="waterway" v="stream" />
	</node>
	<node lat="63.496072226511636" lon="10.898633324874226" id="-87339">
		<tag k="name" v="Hilbekken" />
		<tag k="ssr:stedsnr" v="210793" />
		<tag k="waterway" v="stream" />
	</node>
	<node lat="63.484691664619106" lon="11.068941669440633" id="-87345">
		<tag k="name" v="Luddubekken" />
		<tag k="ssr:stedsnr" v="210739" />
		<tag k="waterway" v="stream" />
	</node>
	<node lat="63.40870000283536" lon="10.91503056537774" id="-87350">
		<tag k="name" v="Stammyrvassbekken" />
		<tag k="ssr:stedsnr" v="210977" />
		<tag k="waterway" v="stream" />
	</node>
	<node lat="63.42027500061537" lon="10.938616675087253" id="-87351">
		<tag k="name" v="Litlneset" />
		<tag k="natural" v="cape" />
		<tag k="ssr:stedsnr" v="210982" />
	</node>
	<node lat="63.41928055192676" lon="10.944094444574246" id="-87353">
		<tag k="name" v="Nordhallbekken" />
		<tag k="ssr:stedsnr" v="210989" />
		<tag k="waterway" v="stream" />
	</node>
	<node lat="63.53417777433751" lon="10.963038886981884" id="-87360">
		<tag k="name" v="Svartdalsbekken" />
		<tag k="ssr:stedsnr" v="210867" />
		<tag k="waterway" v="stream" />
	</node>
	<node lat="63.39014444329726" lon="10.895144443670441" id="-87366">
		<tag k="name" v="Bekkåsbekken" />
		<tag k="ssr:stedsnr" v="210950" />
		<tag k="waterway" v="stream" />
	</node>
	<node lat="63.492788884561506" lon="10.933497220095235" id="-87373">
		<tag k="name" v="Mælaselva" />
		<tag k="ssr:stedsnr" v="220431" />
		<tag k="waterway" v="stream" />
	</node>
	<node lat="63.37198145200932" lon="11.35195300685868" id="-87380">
		<tag k="name" v="Hoggåsbekken" />
		<tag k="ssr:stedsnr" v="290400" />
		<tag k="waterway" v="stream" />
	</node>
	<node lat="63.37545466868745" lon="11.24521209836268" id="-87381">
		<tag k="name" v="Krokettjønna" />
		<tag k="ssr:stedsnr" v="290401" />
		<tag k="waterway" v="stream" />
	</node>
	<node lat="63.55632778094674" lon="11.246172215892184" id="-87387">
		<tag k="name" v="Loktingselva" />
		<tag k="ssr:stedsnr" v="291636" />
		<tag k="waterway" v="river" />
	</node>
	<node lat="63.53694166475932" lon="11.117586115455007" id="-87404">
		<tag k="name" v="Korstjønna" />
		<tag k="natural" v="water" />
		<tag k="ssr:stedsnr" v="316822" />
	</node>
	<node lat="63.43730277776846" lon="11.181866664640747" id="-87408">
		<tag k="name" v="Skjerva" />
		<tag k="ssr:stedsnr" v="316098" />
		<tag k="waterway" v="stream" />
	</node>
	<node lat="63.47546944073697" lon="11.060255553347165" id="-87413">
		<tag k="name" v="Gråelva" />
		<tag k="ssr:stedsnr" v="316164" />
		<tag k="waterway" v="stream" />
	</node>
	<node lat="63.362358330012256" lon="11.030241670008325" id="-87430">
		<tag k="alt_name" v="Ytre Kvålsvatn" />
		<tag k="name" v="Kvålsvatnet" />
		<tag k="natural" v="water" />
		<tag k="ssr:stedsnr" v="316431" />
	</node>
	<node lat="63.44711944849071" lon="11.48888332907824" id="-87431">
		<tag k="name" v="Svartåsbekken" />
		<tag k="ssr:stedsnr" v="316522" />
		<tag k="waterway" v="stream" />
	</node>
	<node lat="63.59546388586248" lon="11.622700002357005" id="-87440">
		<tag k="name" v="Holmøytjønna" />
		<tag k="natural" v="water" />
		<tag k="ssr:stedsnr" v="316488" />
	</node>
	<node lat="63.438544444748416" lon="11.273238892518599" id="-87444">
		<tag k="name" v="Kilnesbekken" />
		<tag k="ssr:stedsnr" v="316561" />
		<tag k="waterway" v="stream" />
	</node>
	<node lat="63.39650555956773" lon="11.159988887615794" id="-87461">
		<tag k="name" v="Hosetelva" />
		<tag k="ssr:stedsnr" v="331639" />
		<tag k="waterway" v="river" />
	</node>
	<node lat="63.401641670161" lon="11.05453332789624" id="-87464">
		<tag k="name" v="Øvre Meilbekken" />
		<tag k="ssr:stedsnr" v="331688" />
		<tag k="waterway" v="stream" />
	</node>
	<node lat="63.49301944706845" lon="11.040899998225704" id="-87473">
		<tag k="name" v="Kvittemstjønna" />
		<tag k="natural" v="water" />
		<tag k="ssr:stedsnr" v="331726" />
	</node>
	<node lat="63.49970555521524" lon="10.986822215151852" id="-87480">
		<tag k="name" v="Dalbekken" />
		<tag k="ssr:stedsnr" v="331757" />
		<tag k="waterway" v="stream" />
	</node>
	<node lat="63.46161389255807" lon="11.294030561004883" id="-87512">
		<tag k="name" v="Øverkilbekken" />
		<tag k="ssr:stedsnr" v="332472" />
		<tag k="waterway" v="stream" />
	</node>
	<node lat="63.42717500056302" lon="11.255769438472191" id="-87516">
		<tag k="name" v="Brennsvebekken" />
		<tag k="ssr:stedsnr" v="332483" />
		<tag k="waterway" v="stream" />
	</node>
	<node lat="63.460911111070295" lon="11.35026110216554" id="-87517">
		<tag k="name" v="Bruhølen" />
		<tag k="place" v="locality" />
		<tag k="ssr:stedsnr" v="332486" />
	</node>
	<node lat="63.46874166621049" lon="11.314450008297932" id="-87519">
		<tag k="name" v="Småtjønnin" />
		<tag k="natural" v="water" />
		<tag k="ssr:stedsnr" v="332490" />
	</node>
	<node lat="63.46710555550937" lon="11.357597226021394" id="-87520">
		<tag k="name" v="Libekken" />
		<tag k="ssr:stedsnr" v="332492" />
		<tag k="waterway" v="stream" />
	</node>
	<node lat="63.41398611532466" lon="11.050611103342122" id="-87522">
		<tag k="name" v="Øybekken" />
		<tag k="ssr:stedsnr" v="332685" />
		<tag k="waterway" v="stream" />
	</node>
	<node lat="63.33741685981037" lon="10.95314430785965" id="-87526">
		<tag k="name" v="Kjerringbekken" />
		<tag k="ssr:stedsnr" v="350345" />
		<tag k="waterway" v="stream" />
	</node>
	<node lat="63.44218889122696" lon="11.337488892685075" id="-87527">
		<tag k="name" v="Langtungdalsbekken" />
		<tag k="ssr:stedsnr" v="350471" />
		<tag k="waterway" v="stream" />
	</node>
	<node lat="63.37565253103715" lon="11.323967673521942" id="-87530">
		<tag k="name" v="Tronget" />
		<tag k="ssr:stedsnr" v="351422" />
		<tag k="waterway" v="rapids" />
	</node>
	<node lat="63.36977837111968" lon="11.315870520597946" id="-87531">
		<tag k="name" v="Hevlavollbekken" />
		<tag k="ssr:stedsnr" v="351436" />
		<tag k="waterway" v="stream" />
	</node>
	<node lat="63.359417927540974" lon="11.272459456845178" id="-87532">
		<tag k="name" v="Breiflobekken" />
		<tag k="ssr:stedsnr" v="351441" />
		<tag k="waterway" v="stream" />
	</node>
	<node lat="63.42350555743734" lon="11.442422219610103" id="-87534">
		<tag k="name" v="Bjerknessa" />
		<tag k="ssr:stedsnr" v="351528" />
		<tag k="waterway" v="river" />
	</node>
	<node lat="63.56686111035646" lon="11.119833331732988" id="-87536">
		<tag k="name" v="Gravtjønna" />
		<tag k="natural" v="water" />
		<tag k="ssr:stedsnr" v="351767" />
	</node>
	<node lat="63.559527781631736" lon="11.09769722788742" id="-87537">
		<tag k="name" v="Gjelvassbekken" />
		<tag k="ssr:stedsnr" v="351776" />
		<tag k="waterway" v="stream" />
	</node>
	<node lat="63.35968333662956" lon="11.022358335250399" id="-87548">
		<tag k="name" v="Kutjønnin" />
		<tag k="natural" v="water" />
		<tag k="ssr:stedsnr" v="376393" />
	</node>
	<node lat="63.517366664903896" lon="10.894624991976443" id="-87559">
		<tag k="name" v="Holelva" />
		<tag k="ssr:stedsnr" v="376726" />
		<tag k="waterway" v="stream" />
	</node>
	<node lat="63.493294444997424" lon="11.453538887415345" id="-87588">
		<tag k="alt_name" v="Telgflåbekken" />
		<tag k="name" v="Kvernhusbekken" />
		<tag k="ssr:stedsnr" v="377265" />
		<tag k="waterway" v="stream" />
	</node>
	<node lat="63.375613888299746" lon="11.284349995750095" id="-87593">
		<tag k="name" v="Pålfossen" />
		<tag k="natural" v="waterfall" />
		<tag k="ssr:stedsnr" v="377371" />
	</node>
	<node lat="63.34825278133247" lon="10.937591669524624" id="-87599">
		<tag k="name" v="Gottesfossen" />
		<tag k="natural" v="waterfall" />
		<tag k="ssr:stedsnr" v="377413" />
	</node>
	<node lat="63.35748333393801" lon="10.825069443377156" id="-87600">
		<tag k="name" v="Nævra" />
		<tag k="ssr:stedsnr" v="377416" />
		<tag k="waterway" v="river" />
	</node>
	<node lat="63.58458333000974" lon="11.503405547249287" id="-87602">
		<tag k="name" v="Storbekken" />
		<tag k="ssr:stedsnr" v="377430" />
		<tag k="waterway" v="stream" />
	</node>
	<node lat="63.573852780049414" lon="11.567752784539685" id="-87604">
		<tag k="name" v="Litlvigdvatnet" />
		<tag k="natural" v="water" />
		<tag k="ssr:stedsnr" v="377447" />
	</node>
	<node lat="63.56934444014778" lon="11.253127777291576" id="-87605">
		<tag k="name" v="Skratltjønna" />
		<tag k="natural" v="water" />
		<tag k="ssr:stedsnr" v="377448" />
	</node>
	<node lat="63.5401000003245" lon="11.621655555829522" id="-87610">
		<tag k="name" v="Tellebekken" />
		<tag k="ssr:stedsnr" v="377472" />
		<tag k="waterway" v="stream" />
	</node>
	<node lat="63.403555555468444" lon="11.107305549304431" id="-87628">
		<tag k="name" v="Smalmyrbekken" />
		<tag k="ssr:stedsnr" v="391549" />
		<tag k="waterway" v="stream" />
	</node>
	<node lat="63.470105555347295" lon="11.183277782311547" id="-87630">
		<tag k="name" v="Laupbekken" />
		<tag k="ssr:stedsnr" v="391627" />
		<tag k="waterway" v="stream" />
	</node>
	<node lat="63.480088891550885" lon="10.882241669333304" id="-87634">
		<tag k="name" v="Vikaunbekken" />
		<tag k="ssr:stedsnr" v="391832" />
		<tag k="waterway" v="stream" />
	</node>
	<node lat="63.46542222339099" lon="11.476908339405936" id="-87659">
		<tag k="name" v="Hesthølen" />
		<tag k="place" v="locality" />
		<tag k="ssr:stedsnr" v="392424" />
	</node>
	<node lat="63.423049998409795" lon="11.250647229650378" id="-87672">
		<tag k="name" v="Merkesbekken" />
		<tag k="ssr:stedsnr" v="392551" />
		<tag k="waterway" v="stream" />
	</node>
	<node lat="63.519111112894834" lon="11.164458331630245" id="-87673">
		<tag k="name" v="Oksbekken" />
		<tag k="ssr:stedsnr" v="392558" />
		<tag k="waterway" v="stream" />
	</node>
	<node lat="63.41551667057536" lon="10.98768888645973" id="-87675">
		<tag k="name" v="Krokåtbekken" />
		<tag k="ssr:stedsnr" v="392873" />
		<tag k="waterway" v="stream" />
	</node>
	<node lat="63.41214999788556" lon="11.35221666102602" id="-87682">
		<tag k="name" v="Ingstadvollbekken" />
		<tag k="ssr:stedsnr" v="411462" />
		<tag k="waterway" v="stream" />
	</node>
	<node lat="63.439150000775896" lon="11.35535555425021" id="-87683">
		<tag k="name" v="Storbekken" />
		<tag k="ssr:stedsnr" v="411475" />
		<tag k="waterway" v="stream" />
	</node>
	<node lat="63.38040780404209" lon="10.89263995694998" id="-87685">
		<tag k="name" v="Bårdstjønna" />
		<tag k="natural" v="water" />
		<tag k="ssr:stedsnr" v="411555" />
	</node>
	<node lat="63.52003333677897" lon="11.436255554695213" id="-87692">
		<tag k="name" v="Klemmetsbekken" />
		<tag k="ssr:stedsnr" v="412675" />
		<tag k="waterway" v="stream" />
	</node>
	<node lat="63.550983329173896" lon="11.387847224085904" id="-87693">
		<tag k="name" v="Mostertjønna" />
		<tag k="natural" v="water" />
		<tag k="ssr:stedsnr" v="412685" />
	</node>
	<node lat="63.38545000192986" lon="11.003180547285723" id="-87705">
		<tag k="name" v="Lauvåa" />
		<tag k="ssr:stedsnr" v="437192" />
		<tag k="waterway" v="river" />
	</node>
	<node lat="63.44211666740236" lon="11.441674996387501" id="-87719">
		<tag k="name" v="Storbekken" />
		<tag k="ssr:stedsnr" v="438427" />
		<tag k="waterway" v="stream" />
	</node>
	<node lat="63.43279722155751" lon="11.157044445382356" id="-87723">
		<tag k="name" v="Ingstadbekken" />
		<tag k="ssr:stedsnr" v="438081" />
		<tag k="waterway" v="stream" />
	</node>
	<node lat="63.48947222491415" lon="11.365138897059795" id="-87734">
		<tag k="fixme" v="multiple name tags, choose one and add the other to alt_name" />
		<tag k="name" v="Kvernbekken;Auståsbekken" />
		<tag k="ssr:stedsnr" v="438257" />
		<tag k="waterway" v="stream" />
	</node>
	<node lat="63.542161114049335" lon="11.089880556552307" id="-87751">
		<tag k="name" v="Sniptjønna" />
		<tag k="natural" v="water" />
		<tag k="ssr:stedsnr" v="438765" />
	</node>
	<node lat="63.455436111023374" lon="11.514005548561775" id="-87774">
		<tag k="name" v="Sagelva" />
		<tag k="ssr:stedsnr" v="498186" />
		<tag k="waterway" v="river" />
	</node>
	<node lat="63.547394447098426" lon="11.557058335868454" id="-87776">
		<tag k="name" v="Vigda" />
		<tag k="ssr:stedsnr" v="498261" />
		<tag k="waterway" v="river" />
	</node>
	<node lat="63.49269166570316" lon="11.4869611129995" id="-87782">
		<tag k="name" v="Styggdalsbekken" />
		<tag k="ssr:stedsnr" v="498335" />
		<tag k="waterway" v="stream" />
	</node>
	<node lat="63.368838887729936" lon="10.997530560140062" id="-87786">
		<tag k="alt_name" v="Litle-Rennen" />
		<tag k="name" v="Litlrennen" />
		<tag k="natural" v="water" />
		<tag k="ssr:stedsnr" v="498460" />
	</node>
	<node lat="63.50945277696959" lon="10.939263887567655" id="-87798">
		<tag k="name" v="Holtjønna" />
		<tag k="natural" v="water" />
		<tag k="ssr:stedsnr" v="498734" />
	</node>
	<node lat="63.56341110706618" lon="11.119430554842685" id="-87800">
		<tag k="name" v="Geilvatnet" />
		<tag k="natural" v="water" />
		<tag k="old_name" v="Geitvatnet" />
		<tag k="ssr:stedsnr" v="498825" />
	</node>
	<node lat="63.532325004590014" lon="11.058647217605209" id="-87807">
		<tag k="name" v="Fosselva" />
		<tag k="ssr:stedsnr" v="513587" />
		<tag k="waterway" v="river" />
	</node>
	<node lat="63.50463055142446" lon="10.93214444694552" id="-87813">
		<tag k="name" v="Holltjønna" />
		<tag k="natural" v="water" />
		<tag k="ssr:stedsnr" v="513798" />
	</node>
	<node lat="63.55228610868973" lon="11.035266660906798" id="-87819">
		<tag k="name" v="Frosttjønnbekken" />
		<tag k="ssr:stedsnr" v="513729" />
		<tag k="waterway" v="stream" />
	</node>
	<node lat="63.47568333568448" lon="11.058100000645254" id="-87820">
		<tag k="name" v="Tomasdalsbekken" />
		<tag k="ssr:stedsnr" v="513739" />
		<tag k="waterway" v="stream" />
	</node>
	<node lat="63.48074444869955" lon="11.012350009826019" id="-87822">
		<tag k="name" v="Hjelpdalsbekken" />
		<tag k="ssr:stedsnr" v="513751" />
		<tag k="waterway" v="stream" />
	</node>
	<node lat="63.40767499942514" lon="10.8705916703073" id="-87830">
		<tag k="name" v="Kjellbergdammen" />
		<tag k="ssr:stedsnr" v="513927" />
		<tag k="waterway" v="dam" />
	</node>
	<node lat="63.47351110927891" lon="11.448213890824942" id="-87837">
		<tag k="name" v="Gravdalstjønna" />
		<tag k="natural" v="water" />
		<tag k="ssr:stedsnr" v="514196" />
	</node>
	<node lat="63.449808331044025" lon="11.34482776900212" id="-87838">
		<tag k="name" v="Tjurububekken" />
		<tag k="ssr:stedsnr" v="514299" />
		<tag k="waterway" v="stream" />
	</node>
	<node lat="63.46778611129365" lon="11.309055549122961" id="-87850">
		<tag k="name" v="Øverkildammen" />
		<tag k="natural" v="water" />
		<tag k="ssr:stedsnr" v="514530" />
		<tag k="water" v="pond" />
	</node>
	<node lat="63.468058337451495" lon="11.463499996761998" id="-87855">
		<tag k="name" v="Rabb-bekken" />
		<tag k="ssr:stedsnr" v="514394" />
		<tag k="waterway" v="stream" />
	</node>
	<node lat="63.38736111176081" lon="11.26003055254201" id="-87865">
		<tag k="name" v="Fagerbekken" />
		<tag k="ssr:stedsnr" v="533494" />
		<tag k="waterway" v="stream" />
	</node>
	<node lat="63.37957392768736" lon="11.06123348514727" id="-87867">
		<tag k="name" v="Åsbekken" />
		<tag k="ssr:stedsnr" v="533431" />
		<tag k="waterway" v="stream" />
	</node>
	<node lat="63.370602263804635" lon="11.325251590105427" id="-87869">
		<tag k="name" v="Styggdalsbekken" />
		<tag k="ssr:stedsnr" v="533443" />
		<tag k="waterway" v="stream" />
	</node>
	<node lat="63.38684999799881" lon="11.491366665437019" id="-87876">
		<tag k="name" v="Gammelvollbekken" />
		<tag k="ssr:stedsnr" v="533549" />
		<tag k="waterway" v="stream" />
	</node>
	<node lat="63.50686111361388" lon="11.188247215531002" id="-87878">
		<tag k="name" v="Geitbekken" />
		<tag k="ssr:stedsnr" v="533681" />
		<tag k="waterway" v="stream" />
	</node>
	<node lat="63.424361110935806" lon="11.189761121032834" id="-87891">
		<tag k="name" v="Tverrskjerva" />
		<tag k="ssr:stedsnr" v="558027" />
		<tag k="waterway" v="stream" />
	</node>
	<node lat="63.34826944193805" lon="11.37845277594585" id="-87896">
		<tag k="name" v="Fagerbekken" />
		<tag k="ssr:stedsnr" v="558431" />
		<tag k="waterway" v="stream" />
	</node>
	<node lat="63.406169442060886" lon="11.33757777789658" id="-87911">
		<tag k="name" v="Nevladalsbekken" />
		<tag k="ssr:stedsnr" v="559379" />
		<tag k="waterway" v="stream" />
	</node>
	<node lat="63.541538892066114" lon="11.355219443265684" id="-87914">
		<tag k="name" v="Raudåtjønnin" />
		<tag k="natural" v="water" />
		<tag k="ssr:stedsnr" v="559469" />
	</node>
	<node lat="63.42088889246168" lon="11.29590834011182" id="-87916">
		<tag k="name" v="Våtlandsbekken" />
		<tag k="ssr:stedsnr" v="559474" />
		<tag k="waterway" v="stream" />
	</node>
	<node lat="63.52514722454982" lon="11.06614999255897" id="-87920">
		<tag k="name" v="Kleivbekken" />
		<tag k="ssr:stedsnr" v="559716" />
		<tag k="waterway" v="stream" />
	</node>
	<node lat="63.401847222944774" lon="11.046930564425129" id="-87930">
		<tag k="name" v="Sigertmobekken" />
		<tag k="ssr:stedsnr" v="573667" />
		<tag k="waterway" v="stream" />
	</node>
	<node lat="63.44889444070582" lon="11.06612499992935" id="-87946">
		<tag k="name" v="Øfstihølan" />
		<tag k="natural" v="water" />
		<tag k="ssr:stedsnr" v="573629" />
		<tag k="water" v="lake" />
	</node>
	<node lat="63.459969445332284" lon="11.041052781091423" id="-87948">
		<tag k="name" v="Måsøra" />
		<tag k="place" v="island" />
		<tag k="ssr:stedsnr" v="573642" />
	</node>
	<node lat="63.487897223751716" lon="11.006241675288985" id="-87949">
		<tag k="name" v="Bantjønna" />
		<tag k="natural" v="water" />
		<tag k="ssr:stedsnr" v="573724" />
	</node>
	<node lat="63.5046111104332" lon="11.036188887295504" id="-87951">
		<tag k="name" v="Lundbekken" />
		<tag k="ssr:stedsnr" v="573749" />
		<tag k="waterway" v="stream" />
	</node>
	<node lat="63.52250555655733" lon="10.91621944476306" id="-87960">
		<tag k="name" v="Bergsetertjønna" />
		<tag k="natural" v="water" />
		<tag k="ssr:stedsnr" v="573836" />
	</node>
	<node lat="63.51186944541068" lon="10.800525003470788" id="-87965">
		<tag k="name" v="Dregsetelva" />
		<tag k="ssr:stedsnr" v="573922" />
		<tag k="waterway" v="stream" />
	</node>
	<node lat="63.397938891299795" lon="10.873602777318453" id="-87970">
		<tag k="name" v="Småtjønna" />
		<tag k="natural" v="water" />
		<tag k="ssr:stedsnr" v="573943" />
	</node>
	<node lat="63.47154444571005" lon="11.462205549583528" id="-87975">
		<tag k="name" v="Rabbekken" />
		<tag k="ssr:stedsnr" v="574193" />
		<tag k="waterway" v="stream" />
	</node>
	<node lat="63.48575000299408" lon="11.414827785955486" id="-87977">
		<tag k="name" v="Ludduengbekken" />
		<tag k="ssr:stedsnr" v="574143" />
		<tag k="waterway" v="stream" />
	</node>
	<node lat="63.46061111346133" lon="11.268183341425827" id="-87987">
		<tag k="name" v="Merkesbekken" />
		<tag k="ssr:stedsnr" v="574556" />
		<tag k="waterway" v="stream" />
	</node>
	<node lat="63.36583444291451" lon="11.004656741348391" id="-87993">
		<tag k="name" v="Balstertjønna" />
		<tag k="natural" v="water" />
		<tag k="ssr:stedsnr" v="592420" />
	</node>
	<node lat="63.38474106572349" lon="10.87584657783991" id="-87994">
		<tag k="name" v="Røstvatnet" />
		<tag k="natural" v="water" />
		<tag k="ssr:stedsnr" v="592627" />
	</node>
	<node lat="63.529022219969164" lon="11.20173610581469" id="-87996">
		<tag k="name" v="Merkestjønna" />
		<tag k="natural" v="water" />
		<tag k="ssr:stedsnr" v="592879" />
	</node>
	<node lat="63.49514444626503" lon="11.212350001569867" id="-88006">
		<tag k="name" v="Solemsbekken" />
		<tag k="ssr:stedsnr" v="594647" />
		<tag k="waterway" v="stream" />
	</node>
	<node lat="63.542249999688515" lon="11.215852785421616" id="-88007">
		<tag k="name" v="Svartdalsbekken" />
		<tag k="ssr:stedsnr" v="593830" />
		<tag k="waterway" v="stream" />
	</node>
	<node lat="63.35623055727204" lon="11.03451110189068" id="-88022">
		<tag k="alt_name" v="Kvålsvatnet, austre" />
		<tag k="name" v="Austre Kvålsvatnet" />
		<tag k="natural" v="water" />
		<tag k="old_name" v="Østre Kvålsvatn" />
		<tag k="ssr:stedsnr" v="619418" />
	</node>
	<node lat="63.48149721863335" lon="11.154027769968739" id="-88028">
		<tag k="name" v="Smågardsdammen" />
		<tag k="natural" v="water" />
		<tag k="ssr:stedsnr" v="619157" />
	</node>
	<node lat="63.500930555142" lon="11.17502499845043" id="-88032">
		<tag k="alt_name" v="Høgtjønna" />
		<tag k="name" v="Hoggtjønna" />
		<tag k="natural" v="water" />
		<tag k="ssr:stedsnr" v="619694" />
	</node>
	<node lat="63.54474444782176" lon="11.257666661346827" id="-88044">
		<tag k="name" v="Litltyldvatnet" />
		<tag k="natural" v="water" />
		<tag k="ssr:stedsnr" v="620452" />
	</node>
	<node lat="63.516238886643826" lon="11.122447216912402" id="-88047">
		<tag k="name" v="Råelva" />
		<tag k="ssr:stedsnr" v="620699" />
		<tag k="waterway" v="stream" />
	</node>
	<node lat="63.507616668816624" lon="11.419674999862929" id="-88049">
		<tag k="name" v="Kvernbekken" />
		<tag k="ssr:stedsnr" v="634148" />
		<tag k="waterway" v="stream" />
	</node>
	<node lat="63.4314750011483" lon="11.086427778167312" id="-88060">
		<tag k="name" v="Mauråsbekken" />
		<tag k="ssr:stedsnr" v="634669" />
		<tag k="waterway" v="stream" />
	</node>
	<node lat="63.54494722293761" lon="10.991344441187993" id="-88062">
		<tag k="name" v="Langdalsbekken" />
		<tag k="ssr:stedsnr" v="634741" />
		<tag k="waterway" v="stream" />
	</node>
	<node lat="63.48739722139692" lon="10.999913879930928" id="-88083">
		<tag k="name" v="Kleivtjønna" />
		<tag k="natural" v="water" />
		<tag k="ssr:stedsnr" v="634758" />
	</node>
	<node lat="63.50461388746357" lon="10.79723332644571" id="-88092">
		<tag k="name" v="Mæraselva" />
		<tag k="ssr:stedsnr" v="634955" />
		<tag k="waterway" v="stream" />
	</node>
	<node lat="63.47435555926034" lon="11.2334999971682" id="-88097">
		<tag k="name" v="Nessibekken" />
		<tag k="ssr:stedsnr" v="635321" />
		<tag k="waterway" v="stream" />
	</node>
	<node lat="63.5295305535469" lon="11.154830551593701" id="-88104">
		<tag k="name" v="Damtjønna" />
		<tag k="natural" v="water" />
		<tag k="ssr:stedsnr" v="635474" />
	</node>
	<node lat="63.38743610897278" lon="11.345636109113803" id="-88110">
		<tag k="name" v="Sundalsbekken" />
		<tag k="ssr:stedsnr" v="654494" />
		<tag k="waterway" v="stream" />
	</node>
	<node lat="63.55299999599111" lon="11.274213880038825" id="-88111">
		<tag k="name" v="Kvålselva" />
		<tag k="ssr:stedsnr" v="654628" />
		<tag k="waterway" v="river" />
	</node>
	<node lat="63.34273364930888" lon="11.139539798462131" id="-88112">
		<tag k="name" v="Elvervollbekken" />
		<tag k="ssr:stedsnr" v="654462" />
		<tag k="waterway" v="stream" />
	</node>
	<node lat="63.560933332976" lon="11.12910832521374" id="-88115">
		<tag k="name" v="Øvre Gjeilvassbekken" />
		<tag k="ssr:stedsnr" v="654778" />
		<tag k="waterway" v="stream" />
	</node>
	<node lat="63.5401277785743" lon="11.174213880518545" id="-88118">
		<tag k="name" v="Råsmørauget" />
		<tag k="natural" v="water" />
		<tag k="ssr:stedsnr" v="654871" />
		<tag k="water" v="pond" />
	</node>
	<node lat="63.355983884071286" lon="11.320465493453625" id="-88125">
		<tag k="alt_name" v="Hevtjønna" />
		<tag k="name" v="Hevltjønna" />
		<tag k="ssr:stedsnr" v="714383" />
		<tag k="waterway" v="stream" />
	</node>
	<node lat="63.3467770872658" lon="11.007463625266167" id="-88126">
		<tag k="name" v="Vestre Grønlivatn" />
		<tag k="natural" v="water" />
		<tag k="ssr:stedsnr" v="714327" />
	</node>
	<node lat="63.3768623737123" lon="11.40334535612918" id="-88127">
		<tag k="name" v="Lortholbekken" />
		<tag k="ssr:stedsnr" v="714447" />
		<tag k="waterway" v="stream" />
	</node>
	<node lat="63.53368055983588" lon="11.17304444987367" id="-88129">
		<tag k="name" v="Østre Brattåstjønna" />
		<tag k="natural" v="water" />
		<tag k="ssr:stedsnr" v="714832" />
	</node>
	<node lat="63.439397223705235" lon="11.37045000881341" id="-88130">
		<tag k="name" v="Borddalsbekken" />
		<tag k="ssr:stedsnr" v="715536" />
		<tag k="waterway" v="stream" />
	</node>
	<node lat="63.38023068922356" lon="11.186253247292935" id="-88132">
		<tag k="name" v="Gråbekken" />
		<tag k="ssr:stedsnr" v="715480" />
		<tag k="waterway" v="stream" />
	</node>
	<node lat="63.51151944636956" lon="11.268672226580625" id="-88137">
		<tag k="name" v="Kløftin" />
		<tag k="natural" v="cape" />
		<tag k="ssr:stedsnr" v="715668" />
	</node>
	<node lat="63.56946666754475" lon="11.36813056103496" id="-88139">
		<tag k="name" v="Grasbekken" />
		<tag k="ssr:stedsnr" v="716801" />
		<tag k="waterway" v="stream" />
	</node>
	<node lat="63.44548610739879" lon="11.394241667838067" id="-88143">
		<tag k="name" v="Brattbekken" />
		<tag k="ssr:stedsnr" v="741515" />
		<tag k="waterway" v="stream" />
	</node>
	<node lat="63.57456110926321" lon="11.469099995573108" id="-88144">
		<tag k="name" v="Fiskbekken" />
		<tag k="ssr:stedsnr" v="741518" />
		<tag k="waterway" v="stream" />
	</node>
	<node lat="63.56351111410635" lon="11.398805557843954" id="-88146">
		<tag k="name" v="Mosetertjønna" />
		<tag k="natural" v="water" />
		<tag k="ssr:stedsnr" v="741523" />
	</node>
	<node lat="63.48244722201465" lon="11.022922227488104" id="-88158">
		<tag k="name" v="Hjelpdalsvatnet" />
		<tag k="natural" v="water" />
		<tag k="ssr:stedsnr" v="741154" />
	</node>
	<node lat="63.54882777540067" lon="11.432725009184514" id="-88166">
		<tag k="name" v="Ulstadtjønnin" />
		<tag k="natural" v="water" />
		<tag k="ssr:stedsnr" v="741547" />
	</node>
	<node lat="63.491736111600154" lon="10.921872217668152" id="-88177">
		<tag k="name" v="Mælasdammen" />
		<tag k="natural" v="water" />
		<tag k="ssr:stedsnr" v="755867" />
		<tag k="water" v="lake" />
	</node>
	<node lat="63.49662222085663" lon="10.772016666376937" id="-88181">
		<tag k="name" v="Søvikbekken" />
		<tag k="ssr:stedsnr" v="755918" />
		<tag k="waterway" v="stream" />
	</node>
	<node lat="63.49581944630117" lon="10.83965000604016" id="-88183">
		<tag k="name" v="Holdsaunbekken" />
		<tag k="ssr:stedsnr" v="755938" />
		<tag k="waterway" v="stream" />
	</node>
	<node lat="63.46275833231197" lon="11.455922219107123" id="-88193">
		<tag k="name" v="Kleivhølen" />
		<tag k="place" v="locality" />
		<tag k="ssr:stedsnr" v="756386" />
	</node>
	<node lat="63.5480055548846" lon="11.128500006914408" id="-88195">
		<tag k="name" v="Bjørgtjønnbekken" />
		<tag k="ssr:stedsnr" v="756464" />
		<tag k="waterway" v="stream" />
	</node>
	<node lat="63.48381666914864" lon="11.150125009959316" id="-88200">
		<tag k="name" v="Stamnbekken" />
		<tag k="ssr:stedsnr" v="756429" />
		<tag k="waterway" v="stream" />
	</node>
	<node lat="63.40971944439842" lon="11.12666388368431" id="-88204">
		<tag k="name" v="Holmsbekken" />
		<tag k="ssr:stedsnr" v="756542" />
		<tag k="waterway" v="stream" />
	</node>
	<node lat="63.5299916672402" lon="11.074516664654912" id="-88213">
		<tag k="name" v="Bjørnspitbekken" />
		<tag k="ssr:stedsnr" v="756571" />
		<tag k="waterway" v="stream" />
	</node>
	<node lat="63.53327221926831" lon="11.029447217358294" id="-88215">
		<tag k="name" v="Kløftåsbekken" />
		<tag k="ssr:stedsnr" v="756587" />
		<tag k="waterway" v="stream" />
	</node>
	<node lat="63.44770833629813" lon="11.359813884603119" id="-88231">
		<tag k="name" v="Løftbekken" />
		<tag k="ssr:stedsnr" v="775499" />
		<tag k="waterway" v="stream" />
	</node>
	<node lat="63.36489166289369" lon="11.075888891665535" id="-88243">
		<tag k="name" v="Rangåa" />
		<tag k="ssr:stedsnr" v="802192" />
		<tag k="waterway" v="river" />
	</node>
	<node lat="63.475525697750655" lon="11.494481828835463" id="-88249">
		<tag k="name" v="Aunbekken" />
		<tag k="ssr:stedsnr" v="802287" />
		<tag k="waterway" v="stream" />
	</node>
	<node lat="63.493102774588884" lon="11.164888883499895" id="-88260">
		<tag k="name" v="Ulstadvatnet" />
		<tag k="natural" v="water" />
		<tag k="ssr:stedsnr" v="802253" />
		<tag k="water" v="lake" />
	</node>
	<node lat="63.50289722220901" lon="10.828713881070627" id="-88299">
		<tag k="name" v="Myrelva" />
		<tag k="ssr:stedsnr" v="816945" />
		<tag k="waterway" v="stream" />
	</node>
	<node lat="63.39663055771096" lon="10.87105556434483" id="-88300">
		<tag k="name" v="Grautfatet" />
		<tag k="natural" v="water" />
		<tag k="ssr:stedsnr" v="816948" />
	</node>
	<node lat="63.51440555965811" lon="10.929725004121389" id="-88303">
		<tag k="name" v="Litlsandtjønna" />
		<tag k="natural" v="water" />
		<tag k="ssr:stedsnr" v="816809" />
	</node>
	<node lat="63.45788611432103" lon="11.340169436447466" id="-88314">
		<tag k="name" v="Rønninghølen" />
		<tag k="place" v="locality" />
		<tag k="ssr:stedsnr" v="817268" />
	</node>
	<node lat="63.5088361107241" lon="11.307566670268432" id="-88318">
		<tag k="name" v="Fossbekken" />
		<tag k="ssr:stedsnr" v="817291" />
		<tag k="waterway" v="stream" />
	</node>
	<node lat="63.49381666628016" lon="11.301258342667007" id="-88320">
		<tag k="name" v="Kvernhusbekken" />
		<tag k="ssr:stedsnr" v="817302" />
		<tag k="waterway" v="stream" />
	</node>
	<node lat="63.465166670470865" lon="11.462341660428196" id="-88321">
		<tag k="name" v="Kongrikhølen" />
		<tag k="place" v="locality" />
		<tag k="ssr:stedsnr" v="817401" />
	</node>
	<node lat="63.42551110825716" lon="11.273502785103819" id="-88324">
		<tag k="name" v="Stakkholmen" />
		<tag k="place" v="islet" />
		<tag k="ssr:stedsnr" v="817493" />
	</node>
	<node lat="63.462708329497495" lon="11.341216665739202" id="-88326">
		<tag k="name" v="Stormståggåbekken" />
		<tag k="ssr:stedsnr" v="817495" />
		<tag k="waterway" v="stream" />
	</node>
	<node lat="63.46272222264652" lon="11.336063881026728" id="-88327">
		<tag k="name" v="Bergurbekken" />
		<tag k="ssr:stedsnr" v="817497" />
		<tag k="waterway" v="stream" />
	</node>
	<node lat="63.54584444819333" lon="11.16207500897218" id="-88335">
		<tag k="name" v="Østre-Rotåstjønna" />
		<tag k="natural" v="water" />
		<tag k="ssr:stedsnr" v="817457" />
	</node>
	<node lat="63.52969166501541" lon="11.061427786429467" id="-88338">
		<tag k="name" v="Kvernbekken" />
		<tag k="ssr:stedsnr" v="817550" />
		<tag k="waterway" v="stream" />
	</node>
	<node lat="63.44216944091042" lon="11.099908335420578" id="-88339">
		<tag k="name" v="Holmsdammen" />
		<tag k="ssr:stedsnr" v="817645" />
		<tag k="waterway" v="dam" />
	</node>
	<node lat="63.556405551696606" lon="11.000083324299087" id="-88340">
		<tag k="name" v="Skora" />
		<tag k="ssr:stedsnr" v="817724" />
		<tag k="waterway" v="river" />
	</node>
	<node lat="63.55143611484341" lon="10.994161105198135" id="-88341">
		<tag k="name" v="Skeisbekken" />
		<tag k="ssr:stedsnr" v="817727" />
		<tag k="waterway" v="stream" />
	</node>
	<node lat="63.4010111071306" lon="11.010363883615238" id="-88345">
		<tag k="name" v="Mobekken" />
		<tag k="ssr:stedsnr" v="817700" />
		<tag k="waterway" v="stream" />
	</node>
	<node lat="63.54867499977149" lon="11.037999991094607" id="-88347">
		<tag k="name" v="Kaldådammen" />
		<tag k="natural" v="water" />
		<tag k="ssr:stedsnr" v="817710" />
		<tag k="water" v="lake" />
	</node>
	<node lat="63.53941110908727" lon="11.018677786535145" id="-88348">
		<tag k="name" v="Lauvåselva" />
		<tag k="ssr:stedsnr" v="817716" />
		<tag k="waterway" v="river" />
	</node>
	<node lat="63.36283662470747" lon="11.418881686741548" id="-88362">
		<tag k="name" v="Sillertjønna" />
		<tag k="natural" v="water" />
		<tag k="ssr:stedsnr" v="837457" />
	</node>
	<node lat="63.35081944150306" lon="10.95567221249304" id="-88376">
		<tag k="name" v="Fosslibekken" />
		<tag k="ssr:stedsnr" v="862423" />
		<tag k="waterway" v="stream" />
	</node>
	<node lat="63.50393333379161" lon="11.466108336877351" id="-88378">
		<tag k="name" v="Hestholbekken" />
		<tag k="ssr:stedsnr" v="862284" />
		<tag k="waterway" v="stream" />
	</node>
	<node lat="63.506494445648585" lon="11.187005563993466" id="-88382">
		<tag k="name" v="Høyåsbekken" />
		<tag k="ssr:stedsnr" v="862692" />
		<tag k="waterway" v="stream" />
	</node>
	<node lat="63.556108337705744" lon="11.047191663787846" id="-88384">
		<tag k="name" v="Frosttjønna" />
		<tag k="natural" v="water" />
		<tag k="ssr:stedsnr" v="862831" />
	</node>
	<node lat="63.40883888672018" lon="11.201397215272012" id="-88392">
		<tag k="name" v="Ytteråsvatnet" />
		<tag k="natural" v="water" />
		<tag k="ssr:stedsnr" v="863033" />
		<tag k="water" v="lake" />
	</node>
	<node lat="63.49876111005135" lon="11.494766675464325" id="-88394">
		<tag k="name" v="Åsvollbekken" />
		<tag k="ssr:stedsnr" v="863269" />
		<tag k="waterway" v="stream" />
	</node>
	<node lat="63.54664444707608" lon="11.273294446437452" id="-88404">
		<tag k="alt_name" v="Tyldvatnet, store;Stortyldvatnet" />
		<tag k="name" v="Store Tyldvatnet" />
		<tag k="natural" v="water" />
		<tag k="ssr:stedsnr" v="863480" />
		<tag k="water" v="lake" />
	</node>
	<node lat="63.51432499843822" lon="10.987880558784713" id="-88411">
		<tag k="name" v="Buvatnet" />
		<tag k="natural" v="water" />
		<tag k="ssr:stedsnr" v="863719" />
	</node>
	<node lat="63.53438888660098" lon="11.137877768571375" id="-88413">
		<tag k="name" v="Trollvatnet" />
		<tag k="natural" v="water" />
		<tag k="ssr:stedsnr" v="863759" />
	</node>
	<node lat="63.41010555479903" lon="10.947186109172792" id="-88417">
		<tag k="name" v="Julfossen" />
		<tag k="natural" v="waterfall" />
		<tag k="ssr:stedsnr" v="877979" />
	</node>
	<node lat="63.51368333263777" lon="11.018672221239182" id="-88424">
		<tag k="name" v="Staursetbekken" />
		<tag k="ssr:stedsnr" v="877784" />
		<tag k="waterway" v="stream" />
	</node>
	<node lat="63.50416666943119" lon="11.03078333956864" id="-88425">
		<tag k="name" v="Hovtjønna" />
		<tag k="natural" v="water" />
		<tag k="ssr:stedsnr" v="877787" />
	</node>
	<node lat="63.54407499913884" lon="10.962497222889894" id="-88438">
		<tag k="name" v="Kvernhusbekken" />
		<tag k="ssr:stedsnr" v="877848" />
		<tag k="waterway" v="stream" />
	</node>
	<node lat="63.491841665736146" lon="10.964650007447846" id="-88440">
		<tag k="name" v="Kinnsettjønna" />
		<tag k="natural" v="water" />
		<tag k="ssr:stedsnr" v="877876" />
	</node>
	<node lat="63.50718611489148" lon="11.389558331351578" id="-88446">
		<tag k="name" v="Lisbetbekken" />
		<tag k="ssr:stedsnr" v="878181" />
		<tag k="waterway" v="stream" />
	</node>
	<node lat="63.458999997989444" lon="11.400988894031101" id="-88452">
		<tag k="name" v="Iverhølen" />
		<tag k="place" v="locality" />
		<tag k="ssr:stedsnr" v="878426" />
	</node>
	<node lat="63.46547777654053" lon="11.46096665832368" id="-88455">
		<tag k="name" v="Kvernbekkneset" />
		<tag k="natural" v="cape" />
		<tag k="ssr:stedsnr" v="878440" />
	</node>
	<node lat="63.516666662304296" lon="11.045663889429617" id="-88466">
		<tag k="name" v="Dalbekken" />
		<tag k="ssr:stedsnr" v="938558" />
		<tag k="waterway" v="stream" />
	</node>
	<node lat="63.39666388953548" lon="11.14880833238896" id="-88468">
		<tag k="name" v="Leirbekken" />
		<tag k="ssr:stedsnr" v="938625" />
		<tag k="waterway" v="stream" />
	</node>
	<node lat="63.52243611333877" lon="11.001822217665698" id="-88469">
		<tag k="name" v="Smalvatnet" />
		<tag k="natural" v="water" />
		<tag k="ssr:stedsnr" v="938575" />
		<tag k="water" v="lake" />
	</node>
	<node lat="63.401944442744146" lon="11.078108337820536" id="-88471">
		<tag k="name" v="Sagfossen" />
		<tag k="natural" v="waterfall" />
		<tag k="ssr:stedsnr" v="938673" />
	</node>
	<node lat="63.499711108785974" lon="10.895061106722084" id="-88477">
		<tag k="name" v="Devlabekken" />
		<tag k="ssr:stedsnr" v="938773" />
		<tag k="waterway" v="stream" />
	</node>
	<node lat="63.404908329808066" lon="11.192158327217598" id="-88479">
		<tag k="name" v="Bursbekken" />
		<tag k="ssr:stedsnr" v="938632" />
		<tag k="waterway" v="stream" />
	</node>
	<node lat="63.484730557057034" lon="10.961838897290347" id="-88489">
		<tag k="name" v="Dølinsbekken" />
		<tag k="ssr:stedsnr" v="938875" />
		<tag k="waterway" v="stream" />
	</node>
	<node lat="63.47627777656005" lon="11.470213892958162" id="-88496">
		<tag k="name" v="Langseterbekken" />
		<tag k="ssr:stedsnr" v="939184" />
		<tag k="waterway" v="stream" />
	</node>
	<node lat="63.49756389008223" lon="11.111200001291941" id="-88504">
		<tag k="name" v="Hofstadelva" />
		<tag k="ssr:stedsnr" v="939422" />
		<tag k="waterway" v="river" />
	</node>
	<node lat="63.4330972197666" lon="11.212891657264038" id="-88505">
		<tag k="name" v="Sørkilbekken" />
		<tag k="ssr:stedsnr" v="939430" />
		<tag k="waterway" v="stream" />
	</node>
	<node lat="63.48579167046934" lon="11.173313893455184" id="-88513">
		<tag k="name" v="Pungtjønna" />
		<tag k="natural" v="water" />
		<tag k="ssr:stedsnr" v="939458" />
	</node>
	<node lat="63.35321549677262" lon="11.397178023512069" id="-88518">
		<tag k="name" v="Finnkoibekken" />
		<tag k="ssr:stedsnr" v="957479" />
		<tag k="waterway" v="stream" />
	</node>
	<node lat="63.50348610817065" lon="11.221147229066041" id="-88519">
		<tag k="name" v="Hesttjønna" />
		<tag k="natural" v="water" />
		<tag k="ssr:stedsnr" v="957655" />
	</node>
	<node lat="63.53811944425893" lon="11.312008343104297" id="-88521">
		<tag k="name" v="Lomtjønna" />
		<tag k="natural" v="water" />
		<tag k="ssr:stedsnr" v="958664" />
	</node>
	<node lat="63.39271944113819" lon="11.383858325930126" id="-88525">
		<tag k="name" v="Øyvollbekken" />
		<tag k="ssr:stedsnr" v="958557" />
		<tag k="waterway" v="stream" />
	</node>
	<node lat="63.5405472205639" lon="11.371136105252505" id="-88527">
		<tag k="name" v="Nedre Raudåtjønna" />
		<tag k="natural" v="water" />
		<tag k="ssr:stedsnr" v="958762" />
	</node>
	<node lat="63.545961111343026" lon="11.425500003251909" id="-88528">
		<tag k="name" v="Ulstadtjønna" />
		<tag k="natural" v="water" />
		<tag k="ssr:stedsnr" v="958763" />
	</node>
	<node lat="63.52030000015637" lon="11.449383339344145" id="-88530">
		<tag k="name" v="Litt-Ådalsbekken" />
		<tag k="ssr:stedsnr" v="958772" />
		<tag k="waterway" v="stream" />
	</node>
	<node lat="63.547625003073286" lon="11.185755559257293" id="-88537">
		<tag k="name" v="Krokåtbekken" />
		<tag k="ssr:stedsnr" v="958871" />
		<tag k="waterway" v="stream" />
	</node>
</osm>
