<?xml version="1.0" encoding="UTF-8"?>
<osm version="0.6" generator="osmapis">
	<node lat="63.54932222073952" lon="10.721980561779462" id="-86866">
		<tag k="bay" v="fjord" />
		<tag k="name" v="Åsenfjorden" />
		<tag k="natural" v="bay" />
		<tag k="ssr:stedsnr" v="134806" />
	</node>
	<node lat="63.44619999812384" lon="10.865372224834948" id="-86939">
		<tag k="name" v="Billedholmen" />
		<tag k="natural" v="cape" />
		<tag k="ssr:stedsnr" v="255092" />
	</node>
	<node lat="63.556583334103586" lon="10.857080559349818" id="-86959">
		<tag k="name" v="Skarvholman" />
		<tag k="place" v="islet" />
		<tag k="ssr:stedsnr" v="210905" />
	</node>
	<node lat="63.46478055978639" lon="10.444752769544145" id="-87017">
		<tag k="bay" v="fjord" />
		<tag k="name" v="Strindfjorden" />
		<tag k="natural" v="bay" />
		<tag k="ssr:stedsnr" v="256682" />
	</node>
	<node lat="63.47518332980647" lon="10.80340000503543" id="-87045">
		<tag k="name" v="Velvangsøra" />
		<tag k="natural" v="beach" />
		<tag k="ssr:stedsnr" v="271843" />
	</node>
	<node lat="63.521216668591414" lon="10.760299995972204" id="-87052">
		<tag k="name" v="Rykkjasbukta" />
		<tag k="natural" v="bay" />
		<tag k="ssr:stedsnr" v="286994" />
	</node>
	<node lat="63.54881666372275" lon="10.849194440292525" id="-87055">
		<tag k="name" v="Litlegrunnen" />
		<tag k="natural" v="shoal" />
		<tag k="place" v="locality" />
		<tag k="ssr:stedsnr" v="287677" />
	</node>
	<node lat="63.54009722290712" lon="10.834786118234499" id="-87228">
		<tag k="name" v="Håmmårsbukta" />
		<tag k="natural" v="bay" />
		<tag k="ssr:stedsnr" v="469653" />
	</node>
	<node lat="63.49101388763634" lon="10.772569439191614" id="-87243">
		<tag k="alt_name" v="Vinnebukta" />
		<tag k="name" v="Vinnabukta" />
		<tag k="natural" v="bay" />
		<tag k="ssr:stedsnr" v="391959" />
	</node>
	<node lat="63.44749444347778" lon="10.86508611447955" id="-87339">
		<tag k="name" v="Skjøtten" />
		<tag k="place" v="islet" />
		<tag k="ssr:stedsnr" v="452822" />
	</node>
	<node lat="63.55262499686844" lon="10.893747221227406" id="-87447">
		<tag k="alt_name" v="Øyaskjeret" />
		<tag k="fixme" v="consider seamark:type=rock or natural=shoal" />
		<tag k="name" v="Øyaskjæret" />
		<tag k="place" v="islet" />
		<tag k="ssr:stedsnr" v="529633" />
	</node>
	<node lat="63.47621111466416" lon="10.856141675305873" id="-87607">
		<tag k="name" v="Viklandet" />
		<tag k="natural" v="beach" />
		<tag k="ssr:stedsnr" v="634809" />
	</node>
	<node lat="63.53599722338238" lon="10.772377781409906" id="-87623">
		<tag k="name" v="Fløaodden" />
		<tag k="natural" v="cape" />
		<tag k="ssr:stedsnr" v="650605" />
	</node>
	<node lat="63.468616666420445" lon="10.822316665850833" id="-87759">
		<tag k="name" v="Grindskallen" />
		<tag k="natural" v="shoal" />
		<tag k="place" v="locality" />
		<tag k="ssr:stedsnr" v="894433" />
	</node>
	<node lat="63.45711111465925" lon="10.779072215016337" id="-87817">
		<tag k="bay" v="fjord" />
		<tag k="name" v="Stjørdalsfjorden" />
		<tag k="natural" v="bay" />
		<tag k="ssr:stedsnr" v="802205" />
	</node>
	<node lat="63.46128611507468" lon="10.901830552004405" id="-87819">
		<tag k="name" v="Langøra" />
		<tag k="place" v="island" />
		<tag k="ssr:stedsnr" v="802212" />
	</node>
	<node lat="63.479819448426305" lon="10.79164722560461" id="-87872">
		<tag k="name" v="Olderøra" />
		<tag k="natural" v="beach" />
		<tag k="ssr:stedsnr" v="817822" />
	</node>
	<node lat="63.48448055283126" lon="10.777880556033375" id="-87873">
		<tag k="name" v="Skjervollsøra" />
		<tag k="natural" v="beach" />
		<tag k="ssr:stedsnr" v="817823" />
	</node>
	<node lat="63.56754166428053" lon="11.209988893372985" id="-87882">
		<tag k="name" v="Rusbukta" />
		<tag k="natural" v="bay" />
		<tag k="ssr:stedsnr" v="836783" />
	</node>
	<node lat="63.539349998072076" lon="10.79561389064487" id="-88262">
		<tag k="name" v="Bankensleiret" />
		<tag k="natural" v="bay" />
		<tag k="ssr:stedsnr" v="27894" />
	</node>
	<node lat="63.472566666082145" lon="10.8776277706152" id="-88309">
		<tag k="name" v="Brynhildsvika" />
		<tag k="natural" v="bay" />
		<tag k="ssr:stedsnr" v="28829" />
	</node>
	<node lat="63.47199999983597" lon="10.756188880337126" id="-88314">
		<tag k="name" v="Litlegrunnen" />
		<tag k="natural" v="shoal" />
		<tag k="place" v="locality" />
		<tag k="ssr:stedsnr" v="44391" />
	</node>
	<node lat="63.54341666807705" lon="10.85864444467158" id="-88316">
		<tag k="name" v="Sveskjerpa" />
		<tag k="natural" v="beach" />
		<tag k="ssr:stedsnr" v="44643" />
	</node>
	<node lat="63.55926388446979" lon="10.92520833843073" id="-88348">
		<tag k="bay" v="fjord" />
		<tag k="name" v="Fættenfjorden" />
		<tag k="natural" v="bay" />
		<tag k="ssr:stedsnr" v="73801" />
	</node>
	<node lat="63.55942222394662" lon="10.929494448190313" id="-88451">
		<tag k="name" v="Skjerlandet" />
		<tag k="natural" v="cape" />
		<tag k="ssr:stedsnr" v="105645" />
	</node>
	<node lat="63.545136114191116" lon="10.891355560936125" id="-88537">
		<tag k="name" v="Sandbukta" />
		<tag k="natural" v="bay" />
		<tag k="ssr:stedsnr" v="148886" />
	</node>
	<node lat="63.568211111560245" lon="11.198247230860703" id="-88604">
		<tag k="name" v="Bulandsøya" />
		<tag k="place" v="island" />
		<tag k="ssr:stedsnr" v="169783" />
	</node>
	<node lat="63.470894442776476" lon="10.880686104624111" id="-88624">
		<tag k="name" v="Storvika" />
		<tag k="natural" v="bay" />
		<tag k="ssr:stedsnr" v="195173" />
	</node>
	<node lat="63.51018333476763" lon="10.751680550390775" id="-88651">
		<tag k="fixme" v="consider seamark:type=rock or natural=shoal" />
		<tag k="name" v="Rykkjasskjæret" />
		<tag k="place" v="islet" />
		<tag k="ssr:stedsnr" v="195698" />
	</node>
	<node lat="63.54359444763362" lon="10.81388054626913" id="-88664">
		<tag k="name" v="Steinvikholmen" />
		<tag k="place" v="islet" />
		<tag k="ssr:stedsnr" v="195773" />
	</node>
	<node lat="63.4908666635909" lon="10.776991659743304" id="-88798">
		<tag k="name" v="Vinnesanda" />
		<tag k="natural" v="beach" />
		<tag k="ssr:stedsnr" v="287345" />
	</node>
	<node lat="63.54150277991981" lon="10.808816668345255" id="-88800">
		<tag k="name" v="Steinvikbukta" />
		<tag k="natural" v="bay" />
		<tag k="ssr:stedsnr" v="287682" />
	</node>
	<node lat="63.556941664916486" lon="10.856019439155922" id="-88868">
		<tag k="name" v="Skarvholman" />
		<tag k="place" v="islet" />
		<tag k="ssr:stedsnr" v="316847" />
	</node>
	<node lat="63.55309166539838" lon="10.885544452466231" id="-88869">
		<tag k="name" v="Saltøya" />
		<tag k="place" v="island" />
		<tag k="ssr:stedsnr" v="316854" />
	</node>
	<node lat="63.475813892768535" lon="10.877625007456821" id="-89039">
		<tag k="name" v="Holmtåa" />
		<tag k="natural" v="cape" />
		<tag k="ssr:stedsnr" v="391826" />
	</node>
	<node lat="63.47249722269857" lon="10.889105558830567" id="-89116">
		<tag k="name" v="Sutterøya" />
		<tag k="natural" v="peninsula" />
		<tag k="place" v="locality" />
		<tag k="ssr:stedsnr" v="438149" />
	</node>
	<node lat="63.472825001803436" lon="10.812283326685701" id="-89210">
		<tag k="name" v="Branes" />
		<tag k="natural" v="cape" />
		<tag k="ssr:stedsnr" v="513815" />
	</node>
	<node lat="63.488063892370704" lon="10.777080560556826" id="-89257">
		<tag k="name" v="Aurlandet" />
		<tag k="natural" v="cape" />
		<tag k="ssr:stedsnr" v="529315" />
	</node>
	<node lat="63.47361111399262" lon="10.862380557354692" id="-89401">
		<tag k="name" v="Vikbukta" />
		<tag k="natural" v="bay" />
		<tag k="ssr:stedsnr" v="590910" />
	</node>
	<node lat="63.50508055603333" lon="10.74373334215412" id="-89518">
		<tag k="name" v="Fiskvikgrunnen" />
		<tag k="natural" v="shoal" />
		<tag k="place" v="locality" />
		<tag k="ssr:stedsnr" v="650215" />
	</node>
	<node lat="63.44559166404925" lon="10.868444437090835" id="-89739">
		<tag k="fixme" v="consider seamark:type=rock or natural=shoal" />
		<tag k="name" v="Kobbskjæret" />
		<tag k="place" v="islet" />
		<tag k="ssr:stedsnr" v="816839" />
	</node>
	<node lat="63.44762777761242" lon="10.866488887523204" id="-89740">
		<tag k="fixme" v="consider seamark:type=rock or natural=shoal" />
		<tag k="name" v="Skjøttskjæret" />
		<tag k="place" v="islet" />
		<tag k="ssr:stedsnr" v="816843" />
	</node>
	<node lat="63.557436114437124" lon="10.922938890029888" id="-90015">
		<tag k="name" v="Paradisbukta" />
		<tag k="natural" v="bay" />
		<tag k="ssr:stedsnr" v="954626" />
	</node>
	<node lat="63.539593867712135" lon="10.83334748729904" id="-90338">
		<tag k="name" v="Håmmårsbukta friluftsområde" />
		<tag k="natural" v="beach" />
		<tag k="ssr:stedsnr" v="1076673" />
	</node>
	<node lat="63.540314881153364" lon="10.819238226380552" id="-90353">
		<tag k="name" v="Kroa friluftsområde" />
		<tag k="natural" v="beach" />
		<tag k="ssr:stedsnr" v="1076675" />
	</node>
	<node lat="63.47121784544539" lon="10.880484317406829" id="-90355">
		<tag k="name" v="Storvika friluftsområde" />
		<tag k="natural" v="beach" />
		<tag k="ssr:stedsnr" v="1076678" />
	</node>
	<node lat="63.47034898946986" lon="10.891618316409566" id="-90356">
		<tag k="name" v="Naustberget friluftsområde" />
		<tag k="natural" v="beach" />
		<tag k="ssr:stedsnr" v="1076679" />
	</node>
	<node lat="63.44857695869095" lon="10.89053505814194" id="-90360">
		<tag k="name" v="Hellstranda" />
		<tag k="natural" v="beach" />
		<tag k="ssr:stedsnr" v="1076686" />
	</node>
	<node lat="63.46944861852887" lon="10.885087088769213" id="-90362">
		<tag k="name" v="Molovika" />
		<tag k="natural" v="bay" />
		<tag k="ssr:stedsnr" v="1077573" />
	</node>
</osm>
