<?xml version="1.0" encoding="UTF-8"?>
<osm version="0.6" generator="osmapis">
	<node lat="63.50867222060389" lon="11.22875000049666" id="-39873">
		<tag k="name" v="Bruås og Rauå statsalmenning" />
		<tag k="place" v="locality" />
		<tag k="ssr:stedsnr" v="230645" />
	</node>
	<node lat="63.4314305530264" lon="11.113047222646045" id="-40104">
		<tag k="name" v="Flaksjø og Lillefjell allmenning" />
		<tag k="place" v="locality" />
		<tag k="ssr:stedsnr" v="149409" />
	</node>
	<node lat="63.57919721938111" lon="11.564449992910891" id="-40145">
		<tag k="name" v="Elgvadsfoss statsalmenning" />
		<tag k="place" v="locality" />
		<tag k="ssr:stedsnr" v="169712" />
	</node>
	<node lat="63.5290666653968" lon="11.217130547263306" id="-40482">
		<tag k="name" v="Bruås statsalmenning" />
		<tag k="place" v="locality" />
		<tag k="ssr:stedsnr" v="351709" />
	</node>
	<node lat="63.38984166402867" lon="11.495847220720696" id="-40536">
		<tag k="name" v="Sonvadsfoss statsallmenning" />
		<tag k="place" v="locality" />
		<tag k="ssr:stedsnr" v="412505" />
	</node>
	<node lat="63.582738888442925" lon="11.695172227203603" id="-40599">
		<tag k="name" v="Vigda statsalmenning" />
		<tag k="place" v="locality" />
		<tag k="ssr:stedsnr" v="472870" />
	</node>
	<node lat="63.54105555998099" lon="10.897966665836567" id="-41122">
		<tag k="name" v="Skatval statsallmenning" />
		<tag k="place" v="locality" />
		<tag k="ssr:stedsnr" v="816893" />
	</node>
	<node lat="63.35310277372763" lon="11.113441671338911" id="-41285">
		<tag k="name" v="Leksdal statsallmenning" />
		<tag k="place" v="locality" />
		<tag k="ssr:stedsnr" v="897418" />
	</node>
	<node lat="63.38629166850347" lon="11.223791675979966" id="-41325">
		<tag k="alt_name" v="Sonen statsallmenning" />
		<tag k="name" v="Sona stasallmenning" />
		<tag k="place" v="locality" />
		<tag k="ssr:stedsnr" v="938610" />
	</node>
	<node lat="63.4647299494062" lon="11.43622910236059" id="-41370">
		<tag k="fixme" v="consider boundary=protected_area and relevant protect_class if not nature reserve" />
		<tag k="leisure" v="nature_reserve" />
		<tag k="name" v="Kringåsen naturreservat" />
		<tag k="ssr:stedsnr" v="989131" />
	</node>
	<node lat="63.53276389136979" lon="11.506491663615183" id="-41438">
		<tag k="name" v="Vigden statsallmenning" />
		<tag k="place" v="locality" />
		<tag k="ssr:stedsnr" v="27421" />
	</node>
</osm>
