<?xml version="1.0" encoding="UTF-8"?>
<osm version="0.6" generator="osmapis">
	<node lat="63.53634721764238" lon="11.23623611954054" id="-33690">
		<tag k="name" v="Mæleskjølen" />
		<tag k="natural" v="slope" />
		<tag k="place" v="locality" />
		<tag k="ssr:stedsnr" v="230609" />
	</node>
	<node lat="63.57460833758545" lon="11.286691667393198" id="-33693">
		<tag k="name" v="Skogndalen" />
		<tag k="natural" v="valley" />
		<tag k="place" v="locality" />
		<tag k="ssr:stedsnr" v="229767" />
	</node>
	<node lat="63.566613885672176" lon="11.315716656839653" id="-33694">
		<tag k="name" v="Gåstjønndalen" />
		<tag k="natural" v="valley" />
		<tag k="place" v="locality" />
		<tag k="ssr:stedsnr" v="229768" />
	</node>
	<node lat="63.55571666618118" lon="11.199708329120494" id="-33699">
		<tag k="name" v="Tronkbjørga" />
		<tag k="natural" v="slope" />
		<tag k="place" v="locality" />
		<tag k="ssr:stedsnr" v="229875" />
	</node>
	<node lat="63.49725555800279" lon="11.239508331226158" id="-33701">
		<tag k="name" v="Gammel Islandsvollen" />
		<tag k="place" v="locality" />
		<tag k="ssr:stedsnr" v="230650" />
	</node>
	<node lat="63.517752773702036" lon="11.515038880944552" id="-33702">
		<tag k="name" v="Rundhammerdalen" />
		<tag k="natural" v="valley" />
		<tag k="place" v="locality" />
		<tag k="ssr:stedsnr" v="230664" />
	</node>
	<node lat="63.45688888553289" lon="11.23552778186877" id="-33710">
		<tag k="fixme" v="consider natural=peak for the most distinct mountains in the district" />
		<tag k="name" v="Høgrya" />
		<tag k="natural" v="hill" />
		<tag k="place" v="locality" />
		<tag k="ssr:stedsnr" v="13181" />
	</node>
	<node lat="63.53087500085136" lon="11.627672216942678" id="-33719">
		<tag k="name" v="Funnsjødalen" />
		<tag k="natural" v="valley" />
		<tag k="place" v="locality" />
		<tag k="ssr:stedsnr" v="13506" />
	</node>
	<node lat="63.413700001802255" lon="11.435111104597562" id="-33720">
		<tag k="fixme" v="consider natural=peak for the most distinct mountains in the district" />
		<tag k="name" v="Grønfjellet" />
		<tag k="natural" v="hill" />
		<tag k="place" v="locality" />
		<tag k="ssr:stedsnr" v="13507" />
	</node>
	<node lat="63.38464722464149" lon="10.900391661853904" id="-33722">
		<tag k="alt_name" v="Svulluskardet" />
		<tag k="name" v="Svuluskardet" />
		<tag k="natural" v="hill" />
		<tag k="place" v="locality" />
		<tag k="ssr:stedsnr" v="13515" />
	</node>
	<node lat="63.51165555462837" lon="11.022797222542914" id="-33726">
		<tag k="alt_name" v="Lundåsen" />
		<tag k="fixme" v="consider natural=peak for the most distinct mountains in the district" />
		<tag k="name" v="Staursetåsen" />
		<tag k="natural" v="hill" />
		<tag k="place" v="locality" />
		<tag k="ssr:stedsnr" v="13714" />
	</node>
	<node lat="63.41966944702035" lon="10.895622218934923" id="-33727">
		<tag k="name" v="Olbakken" />
		<tag k="place" v="locality" />
		<tag k="ssr:stedsnr" v="27908" />
	</node>
	<node lat="63.426597218201714" lon="10.886552780339358" id="-33729">
		<tag k="name" v="Svartdalen" />
		<tag k="natural" v="valley" />
		<tag k="place" v="locality" />
		<tag k="ssr:stedsnr" v="27911" />
	</node>
	<node lat="63.4896888894806" lon="10.969608337181755" id="-33731">
		<tag k="fixme" v="consider natural=peak for the most distinct mountains in the district" />
		<tag k="name" v="Stugguåsen" />
		<tag k="natural" v="hill" />
		<tag k="place" v="locality" />
		<tag k="ssr:stedsnr" v="27869" />
	</node>
	<node lat="63.49041944436243" lon="10.94012778373691" id="-33732">
		<tag k="name" v="Storhaugen" />
		<tag k="natural" v="hill" />
		<tag k="place" v="locality" />
		<tag k="ssr:stedsnr" v="27871" />
	</node>
	<node lat="63.472622217841504" lon="11.477822230676699" id="-33735">
		<tag k="name" v="Dalan" />
		<tag k="natural" v="valley" />
		<tag k="place" v="locality" />
		<tag k="ssr:stedsnr" v="28184" />
	</node>
	<node lat="63.43058889189731" lon="11.237827769788542" id="-33737">
		<tag k="fixme" v="consider natural=peak for the most distinct mountains in the district" />
		<tag k="name" v="Høgåsan" />
		<tag k="natural" v="hill" />
		<tag k="place" v="locality" />
		<tag k="ssr:stedsnr" v="28301" />
	</node>
	<node lat="63.50308610842162" lon="11.305341670308795" id="-33738">
		<tag k="fixme" v="consider natural=peak for the most distinct mountains in the district" />
		<tag k="name" v="Bjørnåsen" />
		<tag k="natural" v="hill" />
		<tag k="place" v="locality" />
		<tag k="ssr:stedsnr" v="28312" />
	</node>
	<node lat="63.47885278031725" lon="11.25518889119045" id="-33740">
		<tag k="fixme" v="consider natural=peak for the most distinct mountains in the district" />
		<tag k="name" v="Skuggseteråsen" />
		<tag k="natural" v="hill" />
		<tag k="place" v="locality" />
		<tag k="ssr:stedsnr" v="28320" />
	</node>
	<node lat="63.48206666853463" lon="11.291669449669543" id="-33741">
		<tag k="name" v="Korphammeren" />
		<tag k="natural" v="hill" />
		<tag k="place" v="locality" />
		<tag k="ssr:stedsnr" v="28322" />
	</node>
	<node lat="63.45313611384582" lon="11.34133056258874" id="-33742">
		<tag k="name" v="Karromhammeren" />
		<tag k="natural" v="hill" />
		<tag k="place" v="locality" />
		<tag k="ssr:stedsnr" v="28284" />
	</node>
	<node lat="63.43548333083108" lon="11.274477784921759" id="-33743">
		<tag k="name" v="Rundhaugen" />
		<tag k="natural" v="hill" />
		<tag k="place" v="locality" />
		<tag k="ssr:stedsnr" v="28290" />
	</node>
	<node lat="63.47081870962845" lon="11.478906374040466" id="-33744">
		<tag k="name" v="Hesthølhaugen" />
		<tag k="natural" v="hill" />
		<tag k="place" v="locality" />
		<tag k="ssr:stedsnr" v="28404" />
	</node>
	<node lat="63.437861109960515" lon="11.20483888044374" id="-33745">
		<tag k="name" v="Liahaugen" />
		<tag k="natural" v="hill" />
		<tag k="place" v="locality" />
		<tag k="ssr:stedsnr" v="28412" />
	</node>
	<node lat="63.43879166419175" lon="11.114730558500304" id="-33746">
		<tag k="name" v="Spakhalla" />
		<tag k="natural" v="slope" />
		<tag k="place" v="locality" />
		<tag k="ssr:stedsnr" v="28418" />
	</node>
	<node lat="63.52885000056337" lon="11.068011111367035" id="-33750">
		<tag k="name" v="Bjørnspiten" />
		<tag k="natural" v="valley" />
		<tag k="place" v="locality" />
		<tag k="ssr:stedsnr" v="28576" />
	</node>
	<node lat="63.44760833235578" lon="11.138241659833538" id="-33756">
		<tag k="fixme" v="consider natural=peak for the most distinct mountains in the district" />
		<tag k="name" v="Øytjholhåmmåren" />
		<tag k="natural" v="hill" />
		<tag k="place" v="locality" />
		<tag k="ssr:stedsnr" v="28610" />
	</node>
	<node lat="63.448052782023254" lon="11.0577972315288" id="-33758">
		<tag k="name" v="Torshaugen" />
		<tag k="natural" v="hill" />
		<tag k="place" v="locality" />
		<tag k="ssr:stedsnr" v="28667" />
	</node>
	<node lat="63.4659194441352" lon="11.010775008916722" id="-33761">
		<tag k="name" v="Brannan" />
		<tag k="natural" v="slope" />
		<tag k="place" v="locality" />
		<tag k="ssr:stedsnr" v="28687" />
	</node>
	<node lat="63.511461112128174" lon="10.969797229338457" id="-33762">
		<tag k="fixme" v="consider natural=peak for the most distinct mountains in the district" />
		<tag k="name" v="Lauvåsen" />
		<tag k="natural" v="hill" />
		<tag k="place" v="locality" />
		<tag k="ssr:stedsnr" v="28810" />
	</node>
	<node lat="63.37352631380085" lon="11.095881414192927" id="-33769">
		<tag k="name" v="Stihaugan" />
		<tag k="natural" v="hill" />
		<tag k="place" v="locality" />
		<tag k="ssr:stedsnr" v="47425" />
	</node>
	<node lat="63.40207222185085" lon="11.231530545520306" id="-33771">
		<tag k="name" v="Tyskvollen" />
		<tag k="place" v="locality" />
		<tag k="ssr:stedsnr" v="47476" />
	</node>
	<node lat="63.40426666852213" lon="11.389369445078781" id="-33777">
		<tag k="fixme" v="consider natural=peak for the most distinct mountains in the district" />
		<tag k="name" v="Heståsen" />
		<tag k="natural" v="hill" />
		<tag k="place" v="locality" />
		<tag k="ssr:stedsnr" v="48502" />
	</node>
	<node lat="63.36345278148609" lon="10.953494442980023" id="-33786">
		<tag k="name" v="Renndalsskardet" />
		<tag k="natural" v="valley" />
		<tag k="place" v="locality" />
		<tag k="ssr:stedsnr" v="73408" />
	</node>
	<node lat="63.355213889442176" lon="11.087466661112275" id="-33788">
		<tag k="fixme" v="consider natural=peak for the most distinct mountains in the district" />
		<tag k="name" v="Øyvollkammen" />
		<tag k="natural" v="hill" />
		<tag k="place" v="locality" />
		<tag k="ssr:stedsnr" v="73388" />
	</node>
	<node lat="63.488983330365286" lon="11.464000003835617" id="-33806">
		<tag k="fixme" v="consider natural=peak for the most distinct mountains in the district" />
		<tag k="name" v="Vollåsen" />
		<tag k="natural" v="hill" />
		<tag k="place" v="locality" />
		<tag k="ssr:stedsnr" v="74272" />
	</node>
	<node lat="63.557324996080055" lon="11.523569445080549" id="-33809">
		<tag k="name" v="Kvitsteinvola" />
		<tag k="natural" v="hill" />
		<tag k="place" v="locality" />
		<tag k="ssr:stedsnr" v="74461" />
	</node>
	<node lat="63.39541388605944" lon="10.945291662457622" id="-33810">
		<tag k="name" v="Fossberga" />
		<tag k="natural" v="hill" />
		<tag k="place" v="locality" />
		<tag k="ssr:stedsnr" v="74462" />
	</node>
	<node lat="63.4334277741733" lon="11.42459167589718" id="-33811">
		<tag k="name" v="Lauvhaugen" />
		<tag k="natural" v="hill" />
		<tag k="place" v="locality" />
		<tag k="ssr:stedsnr" v="74501" />
	</node>
	<node lat="63.52365000291937" lon="10.958047219147078" id="-33812">
		<tag k="name" v="Kjølhaugan" />
		<tag k="natural" v="hill" />
		<tag k="place" v="locality" />
		<tag k="ssr:stedsnr" v="74703" />
	</node>
	<node lat="63.44501110842267" lon="11.033833338646007" id="-33814">
		<tag k="name" v="Bjørghåmmåren" />
		<tag k="natural" v="hill" />
		<tag k="place" v="locality" />
		<tag k="ssr:stedsnr" v="88609" />
	</node>
	<node lat="63.40192499876114" lon="11.148005548649774" id="-33818">
		<tag k="fixme" v="consider natural=peak for the most distinct mountains in the district" />
		<tag k="name" v="Hosetåsen" />
		<tag k="natural" v="hill" />
		<tag k="place" v="locality" />
		<tag k="ssr:stedsnr" v="88572" />
	</node>
	<node lat="63.49193333026341" lon="11.057005554226414" id="-33821">
		<tag k="name" v="Sigridhaugen" />
		<tag k="natural" v="hill" />
		<tag k="place" v="locality" />
		<tag k="ssr:stedsnr" v="88702" />
	</node>
	<node lat="63.47265555634251" lon="10.839655547003998" id="-33823">
		<tag k="name" v="Kjerringberget" />
		<tag k="natural" v="hill" />
		<tag k="place" v="locality" />
		<tag k="ssr:stedsnr" v="88906" />
	</node>
	<node lat="63.41371111188877" lon="10.880372223222698" id="-33824">
		<tag k="name" v="Stormyrberget" />
		<tag k="natural" v="hill" />
		<tag k="place" v="locality" />
		<tag k="ssr:stedsnr" v="88910" />
	</node>
	<node lat="63.41280833155318" lon="10.861650009295118" id="-33825">
		<tag k="name" v="Rundhaughalla" />
		<tag k="natural" v="slope" />
		<tag k="place" v="locality" />
		<tag k="ssr:stedsnr" v="88912" />
	</node>
	<node lat="63.41249722247662" lon="10.925505553086564" id="-33827">
		<tag k="name" v="Hjelsetberget" />
		<tag k="natural" v="hill" />
		<tag k="place" v="locality" />
		<tag k="ssr:stedsnr" v="88979" />
	</node>
	<node lat="63.53381666944121" lon="10.918044446333324" id="-33830">
		<tag k="fixme" v="consider natural=peak for the most distinct mountains in the district" />
		<tag k="name" v="Hårråskardhalla" />
		<tag k="natural" v="hill" />
		<tag k="place" v="locality" />
		<tag k="ssr:stedsnr" v="88829" />
	</node>
	<node lat="63.51896666643184" lon="10.966766669516314" id="-33832">
		<tag k="name" v="Rundhåmmåren" />
		<tag k="natural" v="hill" />
		<tag k="place" v="locality" />
		<tag k="ssr:stedsnr" v="88839" />
	</node>
	<node lat="63.52389999593869" lon="10.784161105470854" id="-33834">
		<tag k="name" v="Bringberget" />
		<tag k="natural" v="hill" />
		<tag k="place" v="locality" />
		<tag k="ssr:stedsnr" v="88891" />
	</node>
	<node lat="63.43226388510684" lon="11.231047212045834" id="-33836">
		<tag k="fixme" v="consider natural=peak for the most distinct mountains in the district" />
		<tag k="name" v="Sørkilåsan" />
		<tag k="natural" v="hill" />
		<tag k="place" v="locality" />
		<tag k="ssr:stedsnr" v="89307" />
	</node>
	<node lat="63.50077499808623" lon="11.36141666592372" id="-33838">
		<tag k="name" v="Marktrøa" />
		<tag k="place" v="locality" />
		<tag k="ssr:stedsnr" v="89166" />
	</node>
	<node lat="63.449791668941025" lon="11.379061107978998" id="-33843">
		<tag k="fixme" v="consider natural=peak for the most distinct mountains in the district" />
		<tag k="name" v="Høgåsen" />
		<tag k="natural" v="hill" />
		<tag k="place" v="locality" />
		<tag k="ssr:stedsnr" v="89411" />
	</node>
	<node lat="63.54152499934001" lon="11.148033342434918" id="-33845">
		<tag k="name" v="Grønnliin" />
		<tag k="natural" v="slope" />
		<tag k="place" v="locality" />
		<tag k="ssr:stedsnr" v="89511" />
	</node>
	<node lat="63.420655558275215" lon="11.276513893934384" id="-33847">
		<tag k="name" v="Kammen" />
		<tag k="natural" v="hill" />
		<tag k="place" v="locality" />
		<tag k="ssr:stedsnr" v="89523" />
	</node>
	<node lat="63.50183610802814" lon="11.213327768036962" id="-33848">
		<tag k="name" v="Einarsrommet" />
		<tag k="natural" v="valley" />
		<tag k="place" v="locality" />
		<tag k="ssr:stedsnr" v="107694" />
	</node>
	<node lat="63.39468888522094" lon="11.321625006584183" id="-33849">
		<tag k="name" v="Høstslettet" />
		<tag k="place" v="locality" />
		<tag k="ssr:stedsnr" v="108514" />
	</node>
	<node lat="63.53329999650406" lon="11.185302785816566" id="-33850">
		<tag k="fixme" v="consider natural=peak for the most distinct mountains in the district" />
		<tag k="name" v="Rognhaugen" />
		<tag k="natural" v="hill" />
		<tag k="place" v="locality" />
		<tag k="ssr:stedsnr" v="108814" />
	</node>
	<node lat="63.50092777962668" lon="11.18987778365422" id="-33851">
		<tag k="name" v="Gammelvollen" />
		<tag k="place" v="locality" />
		<tag k="ssr:stedsnr" v="109621" />
	</node>
	<node lat="63.49812499567826" lon="11.269180548946704" id="-33852">
		<tag k="name" v="Brunesbjørga" />
		<tag k="natural" v="slope" />
		<tag k="place" v="locality" />
		<tag k="ssr:stedsnr" v="109634" />
	</node>
	<node lat="63.568037099356204" lon="11.407422503718458" id="-33853">
		<tag k="alt_name" v="Kleivåsan" />
		<tag k="fixme" v="consider natural=peak for the most distinct mountains in the district" />
		<tag k="name" v="Kleivåsen" />
		<tag k="natural" v="hill" />
		<tag k="place" v="locality" />
		<tag k="ssr:stedsnr" v="109774" />
	</node>
	<node lat="63.576049997520535" lon="11.611461101644224" id="-33867">
		<tag k="name" v="Storbekkvælva" />
		<tag k="natural" v="valley" />
		<tag k="place" v="locality" />
		<tag k="ssr:stedsnr" v="134504" />
	</node>
	<node lat="63.56521944097401" lon="11.320316674297768" id="-33868">
		<tag k="name" v="Mælashøgdin" />
		<tag k="natural" v="hill" />
		<tag k="place" v="locality" />
		<tag k="ssr:stedsnr" v="134510" />
	</node>
	<node lat="63.360730555524064" lon="11.149852784996392" id="-33888">
		<tag k="name" v="Stor-Karåsen" />
		<tag k="natural" v="slope" />
		<tag k="place" v="locality" />
		<tag k="ssr:stedsnr" v="255377" />
	</node>
	<node lat="63.370308334259285" lon="11.173361101715342" id="-33890">
		<tag k="fixme" v="consider natural=peak for the most distinct mountains in the district" />
		<tag k="name" v="Klimpan" />
		<tag k="natural" v="hill" />
		<tag k="place" v="locality" />
		<tag k="ssr:stedsnr" v="255395" />
	</node>
	<node lat="63.452894448304576" lon="11.380538892064822" id="-33894">
		<tag k="name" v="Furuhåmmåren" />
		<tag k="natural" v="hill" />
		<tag k="place" v="locality" />
		<tag k="ssr:stedsnr" v="255458" />
	</node>
	<node lat="63.501694445936984" lon="11.20559167472967" id="-33896">
		<tag k="alt_name" v="Bjønndalen" />
		<tag k="name" v="Bjørndalen" />
		<tag k="natural" v="valley" />
		<tag k="place" v="locality" />
		<tag k="ssr:stedsnr" v="255691" />
	</node>
	<node lat="63.54849999879125" lon="10.930386107462402" id="-33898">
		<tag k="name" v="Langsteindalen" />
		<tag k="natural" v="valley" />
		<tag k="place" v="locality" />
		<tag k="ssr:stedsnr" v="255779" />
	</node>
	<node lat="63.49605833579353" lon="11.057555553637544" id="-33909">
		<tag k="name" v="Porsmyråsen" />
		<tag k="natural" v="hill" />
		<tag k="place" v="locality" />
		<tag k="ssr:stedsnr" v="148760" />
	</node>
	<node lat="63.49305555468512" lon="10.987283337585456" id="-33910">
		<tag k="name" v="Rebrannen" />
		<tag k="natural" v="slope" />
		<tag k="place" v="locality" />
		<tag k="ssr:stedsnr" v="148764" />
	</node>
	<node lat="63.47891666891828" lon="10.860508339996139" id="-33915">
		<tag k="name" v="Folvikberga" />
		<tag k="natural" v="hill" />
		<tag k="place" v="locality" />
		<tag k="ssr:stedsnr" v="148806" />
	</node>
	<node lat="63.452608337199344" lon="10.91919444317044" id="-33917">
		<tag k="name" v="Feristadreina" />
		<tag k="place" v="locality" />
		<tag k="ssr:stedsnr" v="148822" />
	</node>
	<node lat="63.390274996313245" lon="10.931488890368009" id="-33918">
		<tag k="name" v="Fossdalen" />
		<tag k="natural" v="valley" />
		<tag k="place" v="locality" />
		<tag k="ssr:stedsnr" v="148957" />
	</node>
	<node lat="63.39282222390413" lon="10.920025000912872" id="-33920">
		<tag k="fixme" v="consider natural=peak for the most distinct mountains in the district" />
		<tag k="name" v="Storbakken" />
		<tag k="natural" v="hill" />
		<tag k="place" v="locality" />
		<tag k="ssr:stedsnr" v="148960" />
	</node>
	<node lat="63.42395555221298" lon="10.918416668257054" id="-33923">
		<tag k="name" v="Havdalshaugen" />
		<tag k="natural" v="hill" />
		<tag k="place" v="locality" />
		<tag k="ssr:stedsnr" v="148976" />
	</node>
	<node lat="63.42378055276106" lon="11.372350000157441" id="-33924">
		<tag k="name" v="Håkkådalen" />
		<tag k="natural" v="valley" />
		<tag k="place" v="locality" />
		<tag k="ssr:stedsnr" v="149108" />
	</node>
	<node lat="63.46033889175023" lon="11.486800009291896" id="-33925">
		<tag k="name" v="Brannhaugen" />
		<tag k="natural" v="hill" />
		<tag k="place" v="locality" />
		<tag k="ssr:stedsnr" v="256275" />
	</node>
	<node lat="63.50493333719509" lon="11.153836112385395" id="-33932">
		<tag k="name" v="Høgpynten" />
		<tag k="natural" v="hill" />
		<tag k="place" v="locality" />
		<tag k="ssr:stedsnr" v="149416" />
	</node>
	<node lat="63.51534722339386" lon="11.165886114412562" id="-33936">
		<tag k="name" v="Furuhaugen" />
		<tag k="natural" v="hill" />
		<tag k="place" v="locality" />
		<tag k="ssr:stedsnr" v="149471" />
	</node>
	<node lat="63.48295592110407" lon="10.80322660313286" id="-33937">
		<tag k="name" v="Skardshåmmåren" />
		<tag k="natural" v="hill" />
		<tag k="old_name" v="Skarshammeren" />
		<tag k="place" v="locality" />
		<tag k="ssr:stedsnr" v="149810" />
	</node>
	<node lat="63.47304444482315" lon="10.825775008819866" id="-33938">
		<tag k="name" v="Kleivhåmmåren" />
		<tag k="natural" v="hill" />
		<tag k="place" v="locality" />
		<tag k="ssr:stedsnr" v="149812" />
	</node>
	<node lat="63.42202778126659" lon="11.016361116883651" id="-33940">
		<tag k="name" v="Løfthamran" />
		<tag k="natural" v="hill" />
		<tag k="place" v="locality" />
		<tag k="ssr:stedsnr" v="149871" />
	</node>
	<node lat="63.42756944863592" lon="11.058497218779241" id="-33941">
		<tag k="name" v="Snøfonnberget" />
		<tag k="natural" v="hill" />
		<tag k="place" v="locality" />
		<tag k="ssr:stedsnr" v="149876" />
	</node>
	<node lat="63.42497499930812" lon="11.420049995509816" id="-33948">
		<tag k="fixme" v="consider natural=peak for the most distinct mountains in the district" />
		<tag k="name" v="Fagerlia" />
		<tag k="natural" v="hill" />
		<tag k="place" v="locality" />
		<tag k="ssr:stedsnr" v="256429" />
	</node>
	<node lat="63.521716669830624" lon="11.195633332070908" id="-33956">
		<tag k="fixme" v="consider natural=peak for the most distinct mountains in the district" />
		<tag k="name" v="Brattåsen" />
		<tag k="natural" v="hill" />
		<tag k="place" v="locality" />
		<tag k="ssr:stedsnr" v="256678" />
	</node>
	<node lat="63.527030553189554" lon="11.186286119056456" id="-33960">
		<tag k="fixme" v="consider natural=peak for the most distinct mountains in the district" />
		<tag k="name" v="Hosetkammen" />
		<tag k="natural" v="hill" />
		<tag k="place" v="locality" />
		<tag k="ssr:stedsnr" v="256698" />
	</node>
	<node lat="63.54492500434601" lon="11.031233334866227" id="-33963">
		<tag k="name" v="Fagerliåsen" />
		<tag k="natural" v="hill" />
		<tag k="place" v="locality" />
		<tag k="ssr:stedsnr" v="256726" />
	</node>
	<node lat="63.53997222156181" lon="10.965966662076266" id="-33964">
		<tag k="name" v="Langdalen" />
		<tag k="natural" v="valley" />
		<tag k="place" v="locality" />
		<tag k="ssr:stedsnr" v="256735" />
	</node>
	<node lat="63.360045989132296" lon="11.001780328388913" id="-33968">
		<tag k="name" v="Fleinberget" />
		<tag k="natural" v="hill" />
		<tag k="place" v="locality" />
		<tag k="ssr:stedsnr" v="168367" />
	</node>
	<node lat="63.368327779872125" lon="10.91613889644314" id="-33969">
		<tag k="fixme" v="consider natural=peak for the most distinct mountains in the district" />
		<tag k="name" v="Steinåsen" />
		<tag k="natural" v="hill" />
		<tag k="place" v="locality" />
		<tag k="ssr:stedsnr" v="168571" />
	</node>
	<node lat="63.413700001802255" lon="11.435111104597562" id="-33974">
		<tag k="fixme" v="consider natural=peak for the most distinct mountains in the district" />
		<tag k="name" v="Grønfjellpynten" />
		<tag k="natural" v="hill" />
		<tag k="place" v="locality" />
		<tag k="ssr:stedsnr" v="172517" />
	</node>
	<node lat="63.349113891005" lon="11.326194435036031" id="-33977">
		<tag k="fixme" v="consider natural=peak for the most distinct mountains in the district" />
		<tag k="name" v="Hevlknekten" />
		<tag k="natural" v="hill" />
		<tag k="place" v="locality" />
		<tag k="ssr:stedsnr" v="263257" />
	</node>
	<node lat="63.4650111075766" lon="11.261802786286232" id="-33979">
		<tag k="fixme" v="consider natural=peak for the most distinct mountains in the district" />
		<tag k="name" v="Kammen" />
		<tag k="natural" v="hill" />
		<tag k="place" v="locality" />
		<tag k="ssr:stedsnr" v="195335" />
	</node>
	<node lat="63.519400000557425" lon="11.319830560618199" id="-33980">
		<tag k="name" v="Litlådalen" />
		<tag k="natural" v="valley" />
		<tag k="place" v="locality" />
		<tag k="ssr:stedsnr" v="195530" />
	</node>
	<node lat="63.51236388873293" lon="11.38154445387745" id="-33981">
		<tag k="name" v="Bjugdalen" />
		<tag k="natural" v="valley" />
		<tag k="place" v="locality" />
		<tag k="ssr:stedsnr" v="195532" />
	</node>
	<node lat="63.38306944346675" lon="11.147047230313555" id="-33982">
		<tag k="name" v="Kjerringa" />
		<tag k="natural" v="hill" />
		<tag k="place" v="locality" />
		<tag k="ssr:stedsnr" v="195533" />
	</node>
	<node lat="63.34935555521097" lon="11.245380548833314" id="-33986">
		<tag k="fixme" v="consider natural=peak for the most distinct mountains in the district" />
		<tag k="name" v="Kvitfjellet" />
		<tag k="natural" v="hill" />
		<tag k="place" v="locality" />
		<tag k="ssr:stedsnr" v="195431" />
	</node>
	<node lat="65.11002777597567" lon="13.085422216082504" id="-33994">
		<tag k="fixme" v="consider natural=peak for the most distinct mountains in the district" />
		<tag k="name" v="Kløftfjellet - Sloeptjenguevtele" />
		<tag k="name:no" v="Kløftfjellet" />
		<tag k="name:sma" v="Sloeptjenguevtele" />
		<tag k="natural" v="hill" />
		<tag k="place" v="locality" />
		<tag k="ssr:stedsnr" v="196523" />
	</node>
	<node lat="63.48910000429049" lon="11.372377785726481" id="-33995">
		<tag k="name" v="Ådalsvollen" />
		<tag k="place" v="locality" />
		<tag k="ssr:stedsnr" v="210136" />
	</node>
	<node lat="63.45284444823834" lon="11.308308324304903" id="-33998">
		<tag k="fixme" v="consider natural=peak for the most distinct mountains in the district" />
		<tag k="name" v="Raudmyråsen" />
		<tag k="natural" v="hill" />
		<tag k="place" v="locality" />
		<tag k="ssr:stedsnr" v="210296" />
	</node>
	<node lat="63.441869440475344" lon="11.210597231199475" id="-33999">
		<tag k="name" v="Nesikleiva" />
		<tag k="natural" v="slope" />
		<tag k="place" v="locality" />
		<tag k="ssr:stedsnr" v="210411" />
	</node>
	<node lat="63.49556388575992" lon="11.324138889219242" id="-34003">
		<tag k="name" v="Beitlandsbjøra" />
		<tag k="natural" v="slope" />
		<tag k="place" v="locality" />
		<tag k="ssr:stedsnr" v="210329" />
	</node>
	<node lat="63.5278916652955" lon="11.109724991827656" id="-34009">
		<tag k="fixme" v="consider natural=peak for the most distinct mountains in the district" />
		<tag k="name" v="Hallaren" />
		<tag k="natural" v="hill" />
		<tag k="place" v="locality" />
		<tag k="ssr:stedsnr" v="210482" />
	</node>
	<node lat="63.46423332956515" lon="11.287044440327515" id="-34011">
		<tag k="name" v="Blåberga" />
		<tag k="natural" v="hill" />
		<tag k="place" v="locality" />
		<tag k="ssr:stedsnr" v="210493" />
	</node>
	<node lat="63.447325002096996" lon="10.999186101314386" id="-34015">
		<tag k="name" v="Ystihamran" />
		<tag k="natural" v="hill" />
		<tag k="place" v="locality" />
		<tag k="ssr:stedsnr" v="210676" />
	</node>
	<node lat="63.456516663945315" lon="11.067138884280936" id="-34018">
		<tag k="name" v="Kamneset" />
		<tag k="place" v="locality" />
		<tag k="ssr:stedsnr" v="210693" />
	</node>
	<node lat="63.53501944598189" lon="10.989138885215425" id="-34020">
		<tag k="name" v="Skarddalen" />
		<tag k="natural" v="valley" />
		<tag k="place" v="locality" />
		<tag k="ssr:stedsnr" v="210580" />
	</node>
	<node lat="63.41947777657666" lon="11.018438894334373" id="-34026">
		<tag k="alt_name" v="Strætasfjellet vestre" />
		<tag k="fixme" v="consider natural=peak for the most distinct mountains in the district" />
		<tag k="name" v="Vestre Strætasfjellet" />
		<tag k="natural" v="hill" />
		<tag k="place" v="locality" />
		<tag k="ssr:stedsnr" v="210878" />
	</node>
	<node lat="63.49042222266053" lon="10.960963891572328" id="-34027">
		<tag k="name" v="Kinnsetskardet" />
		<tag k="natural" v="valley" />
		<tag k="place" v="locality" />
		<tag k="ssr:stedsnr" v="210882" />
	</node>
	<node lat="63.45838055219189" lon="11.202075003354445" id="-34031">
		<tag k="name" v="Åsmokleiva" />
		<tag k="natural" v="slope" />
		<tag k="place" v="locality" />
		<tag k="ssr:stedsnr" v="270619" />
	</node>
	<node lat="63.473936107444175" lon="11.007886112861517" id="-34032">
		<tag k="name" v="Vollshaugen" />
		<tag k="natural" v="hill" />
		<tag k="place" v="locality" />
		<tag k="ssr:stedsnr" v="270722" />
	</node>
	<node lat="63.46546944518722" lon="11.20434167070227" id="-34034">
		<tag k="name" v="Hesjedalen" />
		<tag k="natural" v="valley" />
		<tag k="place" v="locality" />
		<tag k="ssr:stedsnr" v="270621" />
	</node>
	<node lat="63.53082777481054" lon="11.043011112095737" id="-34037">
		<tag k="name" v="Høgåsen" />
		<tag k="natural" v="hill" />
		<tag k="place" v="locality" />
		<tag k="ssr:stedsnr" v="270553" />
	</node>
	<node lat="63.45678610855528" lon="11.224363888226616" id="-34039">
		<tag k="name" v="Stamnberga" />
		<tag k="natural" v="hill" />
		<tag k="place" v="locality" />
		<tag k="ssr:stedsnr" v="270626" />
	</node>
	<node lat="63.453455556501034" lon="11.147927785209315" id="-34040">
		<tag k="name" v="Portan" />
		<tag k="place" v="locality" />
		<tag k="ssr:stedsnr" v="270641" />
	</node>
	<node lat="63.39528055333162" lon="11.137002773069419" id="-34041">
		<tag k="fixme" v="consider natural=peak for the most distinct mountains in the district" />
		<tag k="name" v="Aunåsen" />
		<tag k="natural" v="hill" />
		<tag k="place" v="locality" />
		<tag k="ssr:stedsnr" v="270647" />
	</node>
	<node lat="63.499236109483256" lon="11.015408323300003" id="-34046">
		<tag k="name" v="Rundtreet" />
		<tag k="place" v="locality" />
		<tag k="ssr:stedsnr" v="270740" />
	</node>
	<node lat="63.49915000462175" lon="10.867572213109106" id="-34048">
		<tag k="name" v="Vollsdalen" />
		<tag k="natural" v="valley" />
		<tag k="place" v="locality" />
		<tag k="ssr:stedsnr" v="270766" />
	</node>
	<node lat="63.47625555969256" lon="11.094822215463545" id="-34049">
		<tag k="name" v="Åsveiberga" />
		<tag k="natural" v="hill" />
		<tag k="place" v="locality" />
		<tag k="ssr:stedsnr" v="270720" />
	</node>
	<node lat="63.44910833740873" lon="10.932177774095518" id="-34050">
		<tag k="name" v="Reppasleiret" />
		<tag k="place" v="locality" />
		<tag k="ssr:stedsnr" v="270804" />
	</node>
	<node lat="63.43141111463566" lon="10.865266669074858" id="-34051">
		<tag k="name" v="Rundhaugen" />
		<tag k="natural" v="hill" />
		<tag k="place" v="locality" />
		<tag k="ssr:stedsnr" v="270809" />
	</node>
	<node lat="63.43687499615785" lon="10.86250833064442" id="-34052">
		<tag k="name" v="Stordalen" />
		<tag k="natural" v="valley" />
		<tag k="place" v="locality" />
		<tag k="ssr:stedsnr" v="270811" />
	</node>
	<node lat="63.4870944411677" lon="10.970549990241024" id="-34053">
		<tag k="name" v="Snauskallen" />
		<tag k="natural" v="hill" />
		<tag k="place" v="locality" />
		<tag k="ssr:stedsnr" v="270850" />
	</node>
	<node lat="63.4887416653561" lon="10.921830551098704" id="-34054">
		<tag k="name" v="Hållån" />
		<tag k="natural" v="hill" />
		<tag k="place" v="locality" />
		<tag k="ssr:stedsnr" v="270854" />
	</node>
	<node lat="63.488213888678416" lon="10.914080549928238" id="-34055">
		<tag k="name" v="Gråbrekkhaugan" />
		<tag k="natural" v="hill" />
		<tag k="place" v="locality" />
		<tag k="ssr:stedsnr" v="270855" />
	</node>
	<node lat="63.47036110808023" lon="10.906158327991248" id="-34059">
		<tag k="name" v="Tangmoen" />
		<tag k="place" v="locality" />
		<tag k="ssr:stedsnr" v="270957" />
	</node>
	<node lat="63.47045833501172" lon="10.891977773080908" id="-34060">
		<tag k="name" v="Naustberget" />
		<tag k="natural" v="hill" />
		<tag k="place" v="locality" />
		<tag k="ssr:stedsnr" v="270959" />
	</node>
	<node lat="63.47677778094999" lon="11.372880556933017" id="-34063">
		<tag k="name" v="Hevla" />
		<tag k="place" v="locality" />
		<tag k="ssr:stedsnr" v="271160" />
	</node>
	<node lat="63.47448611118661" lon="11.383880551885143" id="-34064">
		<tag k="name" v="Langtjønnhaugen" />
		<tag k="natural" v="hill" />
		<tag k="place" v="locality" />
		<tag k="ssr:stedsnr" v="271161" />
	</node>
	<node lat="63.50343610883318" lon="11.446763885141577" id="-34065">
		<tag k="fixme" v="consider natural=peak for the most distinct mountains in the district" />
		<tag k="name" v="Klipåsen" />
		<tag k="natural" v="hill" />
		<tag k="place" v="locality" />
		<tag k="ssr:stedsnr" v="271163" />
	</node>
	<node lat="63.50196111446952" lon="11.475663888186055" id="-34066">
		<tag k="name" v="Storhaugen" />
		<tag k="natural" v="hill" />
		<tag k="place" v="locality" />
		<tag k="ssr:stedsnr" v="271165" />
	</node>
	<node lat="63.42966388642967" lon="11.28978888216789" id="-34068">
		<tag k="name" v="Gunnarshaugen" />
		<tag k="natural" v="hill" />
		<tag k="place" v="locality" />
		<tag k="ssr:stedsnr" v="271335" />
	</node>
	<node lat="63.49100833133941" lon="11.267158329265545" id="-34072">
		<tag k="name" v="Bruneshaugen" />
		<tag k="natural" v="hill" />
		<tag k="place" v="locality" />
		<tag k="ssr:stedsnr" v="271360" />
	</node>
	<node lat="63.48159721934591" lon="11.235674992962585" id="-34073">
		<tag k="name" v="Moan" />
		<tag k="place" v="locality" />
		<tag k="ssr:stedsnr" v="271363" />
	</node>
	<node lat="63.48220555305829" lon="11.243772213201549" id="-34074">
		<tag k="name" v="Sjurdalen" />
		<tag k="natural" v="valley" />
		<tag k="place" v="locality" />
		<tag k="ssr:stedsnr" v="271364" />
	</node>
	<node lat="63.45378888701206" lon="11.393105558124072" id="-34075">
		<tag k="name" v="Godbergshaugen" />
		<tag k="natural" v="hill" />
		<tag k="place" v="locality" />
		<tag k="ssr:stedsnr" v="271434" />
	</node>
	<node lat="63.48709444867293" lon="11.143169436377821" id="-34077">
		<tag k="name" v="Storkjølen" />
		<tag k="place" v="locality" />
		<tag k="ssr:stedsnr" v="271492" />
	</node>
	<node lat="63.440430551672165" lon="11.18263889818622" id="-34078">
		<tag k="fixme" v="consider natural=peak for the most distinct mountains in the district" />
		<tag k="name" v="Brennmyråsen" />
		<tag k="natural" v="hill" />
		<tag k="place" v="locality" />
		<tag k="ssr:stedsnr" v="271446" />
	</node>
	<node lat="63.54243888842681" lon="11.11076667195542" id="-34080">
		<tag k="name" v="Stordalen" />
		<tag k="natural" v="valley" />
		<tag k="place" v="locality" />
		<tag k="ssr:stedsnr" v="271517" />
	</node>
	<node lat="63.46716944175174" lon="11.256213879775933" id="-34081">
		<tag k="fixme" v="consider natural=peak for the most distinct mountains in the district" />
		<tag k="name" v="Sagåsen" />
		<tag k="natural" v="hill" />
		<tag k="place" v="locality" />
		<tag k="ssr:stedsnr" v="271547" />
	</node>
	<node lat="63.4245138885804" lon="11.09372777645893" id="-34084">
		<tag k="fixme" v="consider natural=peak for the most distinct mountains in the district" />
		<tag k="name" v="Vargåsen" />
		<tag k="natural" v="hill" />
		<tag k="place" v="locality" />
		<tag k="ssr:stedsnr" v="271751" />
	</node>
	<node lat="63.47973611358792" lon="11.138013879555023" id="-34086">
		<tag k="name" v="Kverndalen" />
		<tag k="natural" v="valley" />
		<tag k="place" v="locality" />
		<tag k="ssr:stedsnr" v="271831" />
	</node>
	<node lat="63.35895833292717" lon="10.889163885001587" id="-34088">
		<tag k="fixme" v="consider natural=peak for the most distinct mountains in the district" />
		<tag k="name" v="Hauktjønnåsen" />
		<tag k="natural" v="hill" />
		<tag k="place" v="locality" />
		<tag k="ssr:stedsnr" v="229579" />
	</node>
	<node lat="63.4111388879498" lon="11.446297225036268" id="-34089">
		<tag k="name" v="Frøstdalshalia" />
		<tag k="natural" v="slope" />
		<tag k="place" v="locality" />
		<tag k="ssr:stedsnr" v="230524" />
	</node>
	<node lat="63.508713892722675" lon="11.224130552899677" id="-34090">
		<tag k="name" v="Sør-Nonshaugen" />
		<tag k="natural" v="hill" />
		<tag k="place" v="locality" />
		<tag k="ssr:stedsnr" v="230638" />
	</node>
	<node lat="63.4285361089386" lon="11.383061103688688" id="-34091">
		<tag k="name" v="Storhaugen" />
		<tag k="natural" v="hill" />
		<tag k="place" v="locality" />
		<tag k="ssr:stedsnr" v="230683" />
	</node>
	<node lat="63.528063892550705" lon="11.275561106175445" id="-34092">
		<tag k="name" v="Bruåsbjørga" />
		<tag k="natural" v="slope" />
		<tag k="place" v="locality" />
		<tag k="ssr:stedsnr" v="230595" />
	</node>
	<node lat="63.5591722215647" lon="11.372847225864955" id="-34095">
		<tag k="name" v="Kjerringdalen" />
		<tag k="natural" v="valley" />
		<tag k="place" v="locality" />
		<tag k="ssr:stedsnr" v="230779" />
	</node>
	<node lat="63.523977781686646" lon="10.992833329929354" id="-34099">
		<tag k="name" v="Bubjørga" />
		<tag k="natural" v="slope" />
		<tag k="place" v="locality" />
		<tag k="ssr:stedsnr" v="452593" />
	</node>
	<node lat="63.450483332811075" lon="11.172177783597775" id="-34100">
		<tag k="fixme" v="consider natural=peak for the most distinct mountains in the district" />
		<tag k="name" v="Svartåsen" />
		<tag k="natural" v="hill" />
		<tag k="place" v="locality" />
		<tag k="ssr:stedsnr" v="452598" />
	</node>
	<node lat="63.46015833238819" lon="11.425058325975485" id="-34102">
		<tag k="name" v="Nessihammeren" />
		<tag k="natural" v="hill" />
		<tag k="place" v="locality" />
		<tag k="ssr:stedsnr" v="453397" />
	</node>
	<node lat="63.47639444259848" lon="11.518347224813915" id="-34103">
		<tag k="name" v="Nedre Vollhauen" />
		<tag k="natural" v="hill" />
		<tag k="place" v="locality" />
		<tag k="ssr:stedsnr" v="452417" />
	</node>
	<node lat="63.44158055802665" lon="11.141158333935953" id="-34104">
		<tag k="name" v="Fullsetrantan" />
		<tag k="place" v="locality" />
		<tag k="ssr:stedsnr" v="452409" />
	</node>
	<node lat="63.42507222117656" lon="11.146827773930706" id="-34106">
		<tag k="name" v="Svartdalen" />
		<tag k="natural" v="valley" />
		<tag k="place" v="locality" />
		<tag k="ssr:stedsnr" v="452534" />
	</node>
	<node lat="63.3970027797733" lon="11.000741672390538" id="-34107">
		<tag k="name" v="Setnanhaugan" />
		<tag k="natural" v="hill" />
		<tag k="place" v="locality" />
		<tag k="ssr:stedsnr" v="452684" />
	</node>
	<node lat="63.40626666384113" lon="11.089149991050755" id="-34108">
		<tag k="name" v="Strompen" />
		<tag k="place" v="locality" />
		<tag k="ssr:stedsnr" v="452685" />
	</node>
	<node lat="63.430166663119515" lon="11.040883329589368" id="-34109">
		<tag k="fixme" v="consider natural=peak for the most distinct mountains in the district" />
		<tag k="name" v="Stamnåsen" />
		<tag k="natural" v="hill" />
		<tag k="place" v="locality" />
		<tag k="ssr:stedsnr" v="452763" />
	</node>
	<node lat="63.396366670376636" lon="11.130536106946542" id="-34110">
		<tag k="fixme" v="consider natural=peak for the most distinct mountains in the district" />
		<tag k="name" v="Hoåsen" />
		<tag k="natural" v="hill" />
		<tag k="place" v="locality" />
		<tag k="ssr:stedsnr" v="452646" />
	</node>
	<node lat="63.48028888825445" lon="11.024405565070047" id="-34113">
		<tag k="fixme" v="consider natural=peak for the most distinct mountains in the district" />
		<tag k="name" v="Tortælåsen" />
		<tag k="natural" v="hill" />
		<tag k="place" v="locality" />
		<tag k="ssr:stedsnr" v="452744" />
	</node>
	<node lat="63.497105557782106" lon="11.051025004601096" id="-34115">
		<tag k="name" v="Storhaugen" />
		<tag k="natural" v="hill" />
		<tag k="place" v="locality" />
		<tag k="ssr:stedsnr" v="452749" />
	</node>
	<node lat="63.504844443982776" lon="11.005966676154666" id="-34116">
		<tag k="alt_name" v="Skarsjøhamran" />
		<tag k="name" v="Skardsjøhamran" />
		<tag k="natural" v="hill" />
		<tag k="place" v="locality" />
		<tag k="ssr:stedsnr" v="452755" />
	</node>
	<node lat="63.50581944721099" lon="10.868838881308198" id="-34118">
		<tag k="name" v="Holthaugen" />
		<tag k="natural" v="hill" />
		<tag k="place" v="locality" />
		<tag k="ssr:stedsnr" v="452771" />
	</node>
	<node lat="63.51114444666767" lon="10.961016670418937" id="-34120">
		<tag k="name" v="Løftin" />
		<tag k="place" v="locality" />
		<tag k="ssr:stedsnr" v="452782" />
	</node>
	<node lat="63.505133335187395" lon="10.919958326612416" id="-34121">
		<tag k="fixme" v="consider natural=peak for the most distinct mountains in the district" />
		<tag k="name" v="Neveråsen" />
		<tag k="natural" v="hill" />
		<tag k="place" v="locality" />
		<tag k="ssr:stedsnr" v="452784" />
	</node>
	<node lat="63.49264166698044" lon="10.872174995115945" id="-34122">
		<tag k="name" v="Bolkhaugen" />
		<tag k="natural" v="hill" />
		<tag k="place" v="locality" />
		<tag k="ssr:stedsnr" v="452794" />
	</node>
	<node lat="63.47628611464031" lon="10.879813886539804" id="-34124">
		<tag k="name" v="Holmberget" />
		<tag k="natural" v="hill" />
		<tag k="place" v="locality" />
		<tag k="ssr:stedsnr" v="452800" />
	</node>
	<node lat="63.54515833563856" lon="10.916191660200406" id="-34126">
		<tag k="fixme" v="consider natural=peak for the most distinct mountains in the district" />
		<tag k="name" v="Kåppårhåmmåren" />
		<tag k="natural" v="hill" />
		<tag k="place" v="locality" />
		<tag k="ssr:stedsnr" v="452897" />
	</node>
	<node lat="63.53853055786337" lon="10.900966662926319" id="-34127">
		<tag k="name" v="Steinsberga" />
		<tag k="natural" v="wood" />
		<tag k="ssr:stedsnr" v="452898" />
	</node>
	<node lat="63.50805555553698" lon="10.801358342543983" id="-34129">
		<tag k="name" v="Ørhaugen" />
		<tag k="natural" v="hill" />
		<tag k="place" v="locality" />
		<tag k="ssr:stedsnr" v="452931" />
	</node>
	<node lat="63.49252222084747" lon="10.834377775444262" id="-34130">
		<tag k="name" v="Bårsdalen" />
		<tag k="natural" v="valley" />
		<tag k="place" v="locality" />
		<tag k="ssr:stedsnr" v="452948" />
	</node>
	<node lat="63.43386666840329" lon="11.184338890368645" id="-34134">
		<tag k="name" v="Kjerringmastudalen" />
		<tag k="natural" v="valley" />
		<tag k="place" v="locality" />
		<tag k="ssr:stedsnr" v="453436" />
	</node>
	<node lat="63.51327499964017" lon="11.150888891598647" id="-34135">
		<tag k="name" v="Bremsetbjørga" />
		<tag k="natural" v="slope" />
		<tag k="place" v="locality" />
		<tag k="ssr:stedsnr" v="453440" />
	</node>
	<node lat="63.48161388896156" lon="11.129947215241375" id="-34136">
		<tag k="name" v="Våttåhaugen" />
		<tag k="natural" v="hill" />
		<tag k="place" v="locality" />
		<tag k="ssr:stedsnr" v="453443" />
	</node>
	<node lat="63.47643611320076" lon="11.10483611726706" id="-34137">
		<tag k="fixme" v="consider natural=peak for the most distinct mountains in the district" />
		<tag k="name" v="Knottbakkan" />
		<tag k="natural" v="hill" />
		<tag k="place" v="locality" />
		<tag k="ssr:stedsnr" v="453448" />
	</node>
	<node lat="63.489674997849484" lon="11.162355546918624" id="-34138">
		<tag k="name" v="Åltjønnkleppen" />
		<tag k="natural" v="hill" />
		<tag k="place" v="locality" />
		<tag k="ssr:stedsnr" v="453457" />
	</node>
	<node lat="63.5033999984083" lon="11.43252499816852" id="-34139">
		<tag k="name" v="Klipbjørga" />
		<tag k="natural" v="slope" />
		<tag k="place" v="locality" />
		<tag k="ssr:stedsnr" v="453158" />
	</node>
	<node lat="63.492722221696845" lon="11.463013881200093" id="-34140">
		<tag k="name" v="Bjørnberget" />
		<tag k="natural" v="hill" />
		<tag k="place" v="locality" />
		<tag k="ssr:stedsnr" v="453160" />
	</node>
	<node lat="63.52220555202625" lon="11.13484443572614" id="-34143">
		<tag k="name" v="Råbjørga" />
		<tag k="natural" v="slope" />
		<tag k="place" v="locality" />
		<tag k="ssr:stedsnr" v="453500" />
	</node>
	<node lat="63.4185027748435" lon="10.983491670587544" id="-34144">
		<tag k="name" v="Sveddiberget" />
		<tag k="natural" v="hill" />
		<tag k="place" v="locality" />
		<tag k="ssr:stedsnr" v="453860" />
	</node>
	<node lat="63.34971389295009" lon="10.892844445207054" id="-34148">
		<tag k="name" v="Sagdalsberget" />
		<tag k="natural" v="hill" />
		<tag k="place" v="locality" />
		<tag k="ssr:stedsnr" v="255416" />
	</node>
	<node lat="63.51101389031821" lon="11.203175002768996" id="-34154">
		<tag k="name" v="Nonshaugan" />
		<tag k="natural" v="hill" />
		<tag k="place" v="locality" />
		<tag k="ssr:stedsnr" v="255711" />
	</node>
	<node lat="63.5162611084329" lon="10.94449444150516" id="-34155">
		<tag k="name" v="Svartkamberget" />
		<tag k="natural" v="hill" />
		<tag k="place" v="locality" />
		<tag k="ssr:stedsnr" v="255722" />
	</node>
	<node lat="63.42480833109045" lon="10.88840554926895" id="-34156">
		<tag k="name" v="Furhåmmåren" />
		<tag k="natural" v="hill" />
		<tag k="place" v="locality" />
		<tag k="ssr:stedsnr" v="256004" />
	</node>
	<node lat="63.529200003955765" lon="11.207605548480483" id="-34159">
		<tag k="fixme" v="consider natural=peak for the most distinct mountains in the district" />
		<tag k="name" v="Høgåsen" />
		<tag k="natural" v="hill" />
		<tag k="place" v="locality" />
		<tag k="ssr:stedsnr" v="256161" />
	</node>
	<node lat="63.57521388754384" lon="11.277586118267875" id="-34161">
		<tag k="alt_name" v="Høgsætervola" />
		<tag k="name" v="Høgsetervola" />
		<tag k="natural" v="hill" />
		<tag k="place" v="locality" />
		<tag k="ssr:stedsnr" v="256410" />
	</node>
	<node lat="63.56280277989828" lon="11.045558330014599" id="-34165">
		<tag k="fixme" v="consider natural=peak for the most distinct mountains in the district" />
		<tag k="name" v="Varden" />
		<tag k="natural" v="hill" />
		<tag k="place" v="locality" />
		<tag k="ssr:stedsnr" v="457530" />
	</node>
	<node lat="63.408158334773624" lon="11.212444450875731" id="-34167">
		<tag k="name" v="Hansåsen" />
		<tag k="place" v="locality" />
		<tag k="ssr:stedsnr" v="270527" />
	</node>
	<node lat="63.415136114688856" lon="11.166599991048669" id="-34168">
		<tag k="fixme" v="consider natural=peak for the most distinct mountains in the district" />
		<tag k="name" v="Stormaritrya" />
		<tag k="natural" v="hill" />
		<tag k="place" v="locality" />
		<tag k="ssr:stedsnr" v="270529" />
	</node>
	<node lat="63.54332499839225" lon="11.058291660510982" id="-34171">
		<tag k="fixme" v="consider natural=peak for the most distinct mountains in the district" />
		<tag k="name" v="Bergbjørga" />
		<tag k="natural" v="hill" />
		<tag k="place" v="locality" />
		<tag k="ssr:stedsnr" v="270580" />
	</node>
	<node lat="63.455186113426905" lon="11.093947213937978" id="-34175">
		<tag k="name" v="Kjerringberget" />
		<tag k="natural" v="hill" />
		<tag k="place" v="locality" />
		<tag k="ssr:stedsnr" v="270672" />
	</node>
	<node lat="63.401436107234225" lon="11.057933338588827" id="-34178">
		<tag k="name" v="Romhaugen" />
		<tag k="natural" v="hill" />
		<tag k="place" v="locality" />
		<tag k="ssr:stedsnr" v="270693" />
	</node>
	<node lat="63.51635555532365" lon="10.875897223796482" id="-34180">
		<tag k="name" v="Bergfjellet" />
		<tag k="natural" v="hill" />
		<tag k="place" v="locality" />
		<tag k="ssr:stedsnr" v="270825" />
	</node>
	<node lat="63.51746666251249" lon="10.785552783110793" id="-34182">
		<tag k="name" v="Sandberg" />
		<tag k="natural" v="hill" />
		<tag k="place" v="locality" />
		<tag k="ssr:stedsnr" v="270874" />
	</node>
	<node lat="63.44032222226065" lon="10.895466660147294" id="-34187">
		<tag k="name" v="Måssåhatten" />
		<tag k="natural" v="hill" />
		<tag k="place" v="locality" />
		<tag k="ssr:stedsnr" v="270794" />
	</node>
	<node lat="63.393136108434085" lon="10.90730554943198" id="-34191">
		<tag k="fixme" v="consider natural=peak for the most distinct mountains in the district" />
		<tag k="name" v="Julåsen" />
		<tag k="natural" v="hill" />
		<tag k="place" v="locality" />
		<tag k="ssr:stedsnr" v="270939" />
	</node>
	<node lat="63.3970111122019" lon="10.944483329063377" id="-34192">
		<tag k="name" v="Svartdalen" />
		<tag k="natural" v="valley" />
		<tag k="place" v="locality" />
		<tag k="ssr:stedsnr" v="270975" />
	</node>
	<node lat="63.45327499886928" lon="11.495213888574185" id="-34194">
		<tag k="fixme" v="consider natural=peak for the most distinct mountains in the district" />
		<tag k="name" v="Seteråsen" />
		<tag k="natural" v="hill" />
		<tag k="place" v="locality" />
		<tag k="ssr:stedsnr" v="271205" />
	</node>
	<node lat="63.481625002321316" lon="11.42552499281378" id="-34195">
		<tag k="name" v="Seterdalen" />
		<tag k="natural" v="valley" />
		<tag k="place" v="locality" />
		<tag k="ssr:stedsnr" v="271208" />
	</node>
	<node lat="63.4910861079527" lon="11.411786120715945" id="-34197">
		<tag k="name" v="Tømmeråsbjørga" />
		<tag k="natural" v="slope" />
		<tag k="place" v="locality" />
		<tag k="ssr:stedsnr" v="271157" />
	</node>
	<node lat="63.49267777688537" lon="11.395783338321916" id="-34198">
		<tag k="name" v="Porkdalen" />
		<tag k="natural" v="valley" />
		<tag k="place" v="locality" />
		<tag k="ssr:stedsnr" v="271174" />
	</node>
	<node lat="63.43305000239348" lon="11.28470556399471" id="-34200">
		<tag k="name" v="Sagbakken" />
		<tag k="natural" v="slope" />
		<tag k="place" v="locality" />
		<tag k="ssr:stedsnr" v="271327" />
	</node>
	<node lat="63.432558334433935" lon="11.199780555375963" id="-34203">
		<tag k="fixme" v="consider natural=peak for the most distinct mountains in the district" />
		<tag k="name" v="Digreåsen" />
		<tag k="natural" v="hill" />
		<tag k="place" v="locality" />
		<tag k="ssr:stedsnr" v="271470" />
	</node>
	<node lat="63.36117311589412" lon="11.135752327095988" id="-34210">
		<tag k="name" v="Gåsauna" />
		<tag k="natural" v="hill" />
		<tag k="place" v="locality" />
		<tag k="ssr:stedsnr" v="290375" />
	</node>
	<node lat="63.43222499721366" lon="11.463655547895232" id="-34211">
		<tag k="fixme" v="consider natural=peak for the most distinct mountains in the district" />
		<tag k="name" v="Tortlifjellet" />
		<tag k="natural" v="hill" />
		<tag k="place" v="locality" />
		<tag k="ssr:stedsnr" v="290476" />
	</node>
	<node lat="63.55968055480191" lon="11.058644453248968" id="-34212">
		<tag k="name" v="Nordre-Frosttjønndalen" />
		<tag k="natural" v="valley" />
		<tag k="place" v="locality" />
		<tag k="ssr:stedsnr" v="291775" />
	</node>
	<node lat="63.560375001206964" lon="11.002475008294638" id="-34213">
		<tag k="name" v="Litlvola" />
		<tag k="natural" v="hill" />
		<tag k="place" v="locality" />
		<tag k="ssr:stedsnr" v="291785" />
	</node>
	<node lat="63.39201666660527" lon="11.021316671028595" id="-34235">
		<tag k="name" v="Leksdalen" />
		<tag k="natural" v="valley" />
		<tag k="place" v="locality" />
		<tag k="ssr:stedsnr" v="316501" />
	</node>
	<node lat="63.50244166670224" lon="10.92253332470883" id="-34238">
		<tag k="name" v="Hilberga" />
		<tag k="natural" v="hill" />
		<tag k="place" v="locality" />
		<tag k="ssr:stedsnr" v="316719" />
	</node>
	<node lat="63.420416670969296" lon="11.034416664828369" id="-34242">
		<tag k="fixme" v="consider natural=peak for the most distinct mountains in the district" />
		<tag k="name" v="Strætasfjellet" />
		<tag k="natural" v="hill" />
		<tag k="place" v="locality" />
		<tag k="ssr:stedsnr" v="317023" />
	</node>
	<node lat="63.54149444804402" lon="11.046627778293757" id="-34250">
		<tag k="fixme" v="consider natural=peak for the most distinct mountains in the district" />
		<tag k="name" v="Kjellsveåsen" />
		<tag k="natural" v="hill" />
		<tag k="place" v="locality" />
		<tag k="ssr:stedsnr" v="331571" />
	</node>
	<node lat="63.40485000040702" lon="10.978583336532095" id="-34251">
		<tag k="name" v="Unndugurdshåmmåren" />
		<tag k="natural" v="hill" />
		<tag k="place" v="locality" />
		<tag k="ssr:stedsnr" v="331703" />
	</node>
	<node lat="63.411830555222735" lon="11.044441667810597" id="-34252">
		<tag k="name" v="Litltjønnåsen" />
		<tag k="natural" v="hill" />
		<tag k="place" v="locality" />
		<tag k="ssr:stedsnr" v="331706" />
	</node>
	<node lat="63.545722219013946" lon="10.998711109118952" id="-34254">
		<tag k="fixme" v="consider natural=peak for the most distinct mountains in the district" />
		<tag k="name" v="Risholtkammen" />
		<tag k="natural" v="hill" />
		<tag k="place" v="locality" />
		<tag k="ssr:stedsnr" v="331714" />
	</node>
	<node lat="63.47097222387783" lon="11.181524998696858" id="-34257">
		<tag k="name" v="Bjørgmoen" />
		<tag k="place" v="locality" />
		<tag k="ssr:stedsnr" v="331605" />
	</node>
	<node lat="63.45891111272245" lon="11.195969454439112" id="-34258">
		<tag k="name" v="Einangsmoen" />
		<tag k="place" v="locality" />
		<tag k="ssr:stedsnr" v="331606" />
	</node>
	<node lat="63.43988333736526" lon="11.070947228173337" id="-34260">
		<tag k="name" v="Fosshaugan" />
		<tag k="natural" v="hill" />
		<tag k="place" v="locality" />
		<tag k="ssr:stedsnr" v="331653" />
	</node>
	<node lat="63.47798333036371" lon="10.871316666594058" id="-34262">
		<tag k="name" v="Haugberget" />
		<tag k="natural" v="hill" />
		<tag k="place" v="locality" />
		<tag k="ssr:stedsnr" v="331799" />
	</node>
	<node lat="63.483736107175964" lon="10.81632222583979" id="-34264">
		<tag k="fixme" v="consider natural=peak for the most distinct mountains in the district" />
		<tag k="name" v="Handkleiva" />
		<tag k="natural" v="hill" />
		<tag k="place" v="locality" />
		<tag k="ssr:stedsnr" v="331949" />
	</node>
	<node lat="63.48263055627626" lon="11.405200000579276" id="-34268">
		<tag k="name" v="Raudkjølen" />
		<tag k="place" v="locality" />
		<tag k="ssr:stedsnr" v="332113" />
	</node>
	<node lat="63.50842778181863" lon="11.439319443092865" id="-34269">
		<tag k="name" v="Gammelmalidalen" />
		<tag k="natural" v="valley" />
		<tag k="place" v="locality" />
		<tag k="ssr:stedsnr" v="332119" />
	</node>
	<node lat="63.461338885109" lon="11.308741669967489" id="-34270">
		<tag k="name" v="Kasperstykket" />
		<tag k="place" v="locality" />
		<tag k="ssr:stedsnr" v="332253" />
	</node>
	<node lat="63.4490555516285" lon="11.284277780550367" id="-34271">
		<tag k="name" v="Raudmyrberga" />
		<tag k="natural" v="hill" />
		<tag k="place" v="locality" />
		<tag k="ssr:stedsnr" v="332262" />
	</node>
	<node lat="63.50581110848371" lon="11.123702786337358" id="-34273">
		<tag k="name" v="Aundalen" />
		<tag k="natural" v="valley" />
		<tag k="place" v="locality" />
		<tag k="ssr:stedsnr" v="332410" />
	</node>
	<node lat="63.48028888684957" lon="11.314427781515619" id="-34280">
		<tag k="name" v="Stiberga" />
		<tag k="natural" v="hill" />
		<tag k="place" v="locality" />
		<tag k="ssr:stedsnr" v="332319" />
	</node>
	<node lat="63.46070555895714" lon="11.408747227645303" id="-34281">
		<tag k="name" v="Bekkdalen" />
		<tag k="natural" v="valley" />
		<tag k="place" v="locality" />
		<tag k="ssr:stedsnr" v="332361" />
	</node>
	<node lat="63.505322219287805" lon="11.134480557204387" id="-34282">
		<tag k="name" v="Gløshaugen" />
		<tag k="natural" v="hill" />
		<tag k="place" v="locality" />
		<tag k="ssr:stedsnr" v="332401" />
	</node>
	<node lat="63.51238055387842" lon="11.196291662615785" id="-34290">
		<tag k="name" v="Trongskuru" />
		<tag k="natural" v="valley" />
		<tag k="place" v="locality" />
		<tag k="ssr:stedsnr" v="472643" />
	</node>
	<node lat="63.574883333148485" lon="11.301352778779913" id="-34291">
		<tag k="name" v="Høystokklia" />
		<tag k="natural" v="slope" />
		<tag k="place" v="locality" />
		<tag k="ssr:stedsnr" v="472765" />
	</node>
	<node lat="63.516997218728875" lon="11.194380547498456" id="-34292">
		<tag k="name" v="Tronget" />
		<tag k="natural" v="valley" />
		<tag k="place" v="locality" />
		<tag k="ssr:stedsnr" v="472835" />
	</node>
	<node lat="63.520213888264685" lon="11.195838895776758" id="-34293">
		<tag k="name" v="Greisvea" />
		<tag k="natural" v="slope" />
		<tag k="place" v="locality" />
		<tag k="ssr:stedsnr" v="472839" />
	</node>
	<node lat="63.536483329675384" lon="11.222888884131054" id="-34295">
		<tag k="fixme" v="consider natural=peak for the most distinct mountains in the district" />
		<tag k="name" v="Tyldåsen" />
		<tag k="natural" v="hill" />
		<tag k="place" v="locality" />
		<tag k="ssr:stedsnr" v="472855" />
	</node>
	<node lat="63.526947224275915" lon="11.405455545693568" id="-34298">
		<tag k="fixme" v="consider natural=peak for the most distinct mountains in the district" />
		<tag k="name" v="Vargåsen" />
		<tag k="natural" v="hill" />
		<tag k="place" v="locality" />
		<tag k="ssr:stedsnr" v="473728" />
	</node>
	<node lat="63.557922217924805" lon="11.05760000800905" id="-34301">
		<tag k="fixme" v="consider natural=peak for the most distinct mountains in the district" />
		<tag k="name" v="Knuttulen" />
		<tag k="natural" v="hill" />
		<tag k="place" v="locality" />
		<tag k="ssr:stedsnr" v="473786" />
	</node>
	<node lat="63.37255277378727" lon="10.928102778215608" id="-34303">
		<tag k="name" v="Hyllberget" />
		<tag k="natural" v="hill" />
		<tag k="place" v="locality" />
		<tag k="ssr:stedsnr" v="350554" />
	</node>
	<node lat="63.36171657461305" lon="11.125408814975083" id="-34305">
		<tag k="name" v="Kjelleren" />
		<tag k="natural" v="hill" />
		<tag k="place" v="locality" />
		<tag k="ssr:stedsnr" v="351402" />
	</node>
	<node lat="63.5094833303021" lon="11.275905558235415" id="-34307">
		<tag k="name" v="Kløftberga" />
		<tag k="natural" v="hill" />
		<tag k="place" v="locality" />
		<tag k="ssr:stedsnr" v="351670" />
	</node>
	<node lat="63.43901111201052" lon="11.403461118888941" id="-34308">
		<tag k="name" v="Kuhaugen" />
		<tag k="natural" v="hill" />
		<tag k="place" v="locality" />
		<tag k="ssr:stedsnr" v="351702" />
	</node>
	<node lat="63.542158335733475" lon="11.417663897588863" id="-34310">
		<tag k="name" v="Styggdalen" />
		<tag k="natural" v="valley" />
		<tag k="place" v="locality" />
		<tag k="ssr:stedsnr" v="351720" />
	</node>
	<node lat="63.4639555568212" lon="10.992616672202807" id="-34313">
		<tag k="name" v="Ystinesberga" />
		<tag k="natural" v="hill" />
		<tag k="place" v="locality" />
		<tag k="ssr:stedsnr" v="376182" />
	</node>
	<node lat="63.42595833417621" lon="11.266863898015194" id="-34320">
		<tag k="name" v="Sonhaugen" />
		<tag k="natural" v="hill" />
		<tag k="place" v="locality" />
		<tag k="ssr:stedsnr" v="384256" />
	</node>
	<node lat="63.404522221818" lon="11.051044439194738" id="-34325">
		<tag k="name" v="Brannhaugen" />
		<tag k="natural" v="hill" />
		<tag k="place" v="locality" />
		<tag k="ssr:stedsnr" v="391712" />
	</node>
	<node lat="63.5304638927457" lon="10.988191669991105" id="-34329">
		<tag k="fixme" v="consider natural=peak for the most distinct mountains in the district" />
		<tag k="name" v="Rangelåsen" />
		<tag k="natural" v="hill" />
		<tag k="place" v="locality" />
		<tag k="ssr:stedsnr" v="391604" />
	</node>
	<node lat="63.38850832965147" lon="11.18404999918184" id="-34331">
		<tag k="name" v="Kåsan" />
		<tag k="place" v="locality" />
		<tag k="ssr:stedsnr" v="391637" />
	</node>
	<node lat="63.45350833444231" lon="10.979197225043702" id="-34332">
		<tag k="name" v="Kongshaugen" />
		<tag k="natural" v="hill" />
		<tag k="place" v="locality" />
		<tag k="ssr:stedsnr" v="391687" />
	</node>
	<node lat="63.506566665083234" lon="10.927397231019507" id="-34334">
		<tag k="fixme" v="consider natural=peak for the most distinct mountains in the district" />
		<tag k="name" v="Rukkuåsen" />
		<tag k="natural" v="hill" />
		<tag k="place" v="locality" />
		<tag k="ssr:stedsnr" v="391804" />
	</node>
	<node lat="63.51346944231963" lon="10.772547222427448" id="-34339">
		<tag k="name" v="Oppheimsberga" />
		<tag k="natural" v="hill" />
		<tag k="place" v="locality" />
		<tag k="ssr:stedsnr" v="391946" />
	</node>
	<node lat="63.429674999067316" lon="11.251911110738414" id="-34345">
		<tag k="name" v="Brennberget" />
		<tag k="natural" v="hill" />
		<tag k="place" v="locality" />
		<tag k="ssr:stedsnr" v="392308" />
	</node>
	<node lat="63.490294442714315" lon="11.311444437628442" id="-34349">
		<tag k="name" v="Furuhaugen" />
		<tag k="natural" v="hill" />
		<tag k="place" v="locality" />
		<tag k="ssr:stedsnr" v="392345" />
	</node>
	<node lat="63.46981388548284" lon="11.377155545428403" id="-34351">
		<tag k="name" v="Gløshaugen" />
		<tag k="natural" v="hill" />
		<tag k="place" v="locality" />
		<tag k="ssr:stedsnr" v="392393" />
	</node>
	<node lat="63.44661110827296" lon="11.240300003729898" id="-34353">
		<tag k="name" v="Skraltberget" />
		<tag k="natural" v="hill" />
		<tag k="place" v="locality" />
		<tag k="ssr:stedsnr" v="392292" />
	</node>
	<node lat="63.35970441224371" lon="11.300355526375236" id="-34359">
		<tag k="name" v="Storkjølen" />
		<tag k="natural" v="hill" />
		<tag k="place" v="locality" />
		<tag k="ssr:stedsnr" v="411413" />
	</node>
	<node lat="63.527697220145534" lon="11.18123056078967" id="-34362">
		<tag k="name" v="Svartberget" />
		<tag k="natural" v="hill" />
		<tag k="place" v="locality" />
		<tag k="ssr:stedsnr" v="411829" />
	</node>
	<node lat="63.531766664976956" lon="11.303816663256688" id="-34364">
		<tag k="name" v="Branndalen" />
		<tag k="natural" v="valley" />
		<tag k="place" v="locality" />
		<tag k="ssr:stedsnr" v="412597" />
	</node>
	<node lat="63.36992500142653" lon="10.854302775027234" id="-34369">
		<tag k="fixme" v="consider natural=peak for the most distinct mountains in the district" />
		<tag k="name" v="Storkleivan" />
		<tag k="natural" v="hill" />
		<tag k="place" v="locality" />
		<tag k="ssr:stedsnr" v="437413" />
	</node>
	<node lat="63.35573888623394" lon="10.968497223137692" id="-34370">
		<tag k="fixme" v="consider natural=peak for the most distinct mountains in the district" />
		<tag k="loc_name" v="Klappen" />
		<tag k="name" v="Kleppen" />
		<tag k="natural" v="hill" />
		<tag k="place" v="locality" />
		<tag k="ssr:stedsnr" v="437450" />
	</node>
	<node lat="63.357069442195495" lon="11.324469443018133" id="-34371">
		<tag k="fixme" v="consider natural=peak for the most distinct mountains in the district" />
		<tag k="name" v="Hevla" />
		<tag k="natural" v="hill" />
		<tag k="place" v="locality" />
		<tag k="ssr:stedsnr" v="437456" />
	</node>
	<node lat="63.44413333577448" lon="11.411719447852366" id="-34373">
		<tag k="fixme" v="consider natural=peak for the most distinct mountains in the district" />
		<tag k="name" v="Torta" />
		<tag k="natural" v="hill" />
		<tag k="place" v="locality" />
		<tag k="ssr:stedsnr" v="437468" />
	</node>
	<node lat="63.43905555738823" lon="10.951305550978297" id="-34383">
		<tag k="fixme" v="consider natural=peak for the most distinct mountains in the district" />
		<tag k="name" v="Tønsåsen" />
		<tag k="natural" v="hill" />
		<tag k="place" v="locality" />
		<tag k="ssr:stedsnr" v="438099" />
	</node>
	<node lat="63.372249996528645" lon="11.322536105875473" id="-34384">
		<tag k="name" v="Styggdalen" />
		<tag k="natural" v="valley" />
		<tag k="place" v="locality" />
		<tag k="ssr:stedsnr" v="438381" />
	</node>
	<node lat="63.54842777513009" lon="11.176230554272252" id="-34393">
		<tag k="name" v="Munkåsdalen" />
		<tag k="natural" v="valley" />
		<tag k="place" v="locality" />
		<tag k="ssr:stedsnr" v="438755" />
	</node>
	<node lat="63.447536115464366" lon="11.119480564429942" id="-34398">
		<tag k="name" v="Svevet" />
		<tag k="natural" v="valley" />
		<tag k="place" v="locality" />
		<tag k="ssr:stedsnr" v="452604" />
	</node>
	<node lat="63.471633335504556" lon="11.092855550217548" id="-34401">
		<tag k="name" v="Trøitesberga" />
		<tag k="natural" v="hill" />
		<tag k="place" v="locality" />
		<tag k="ssr:stedsnr" v="452714" />
	</node>
	<node lat="63.54684166484119" lon="10.975675007728265" id="-34402">
		<tag k="name" v="Byahaugen" />
		<tag k="natural" v="hill" />
		<tag k="place" v="locality" />
		<tag k="ssr:stedsnr" v="452719" />
	</node>
	<node lat="63.45836666501788" lon="10.945016665981534" id="-34403">
		<tag k="name" v="Lusgrava" />
		<tag k="place" v="locality" />
		<tag k="ssr:stedsnr" v="452808" />
	</node>
	<node lat="63.53961111339669" lon="10.812847213274736" id="-34406">
		<tag k="name" v="Sautrøberga" />
		<tag k="natural" v="hill" />
		<tag k="place" v="locality" />
		<tag k="ssr:stedsnr" v="452911" />
	</node>
	<node lat="63.39222500379056" lon="10.909819450590886" id="-34408">
		<tag k="fixme" v="consider natural=peak for the most distinct mountains in the district" />
		<tag k="name" v="Finnsveåsen" />
		<tag k="natural" v="hill" />
		<tag k="place" v="locality" />
		<tag k="ssr:stedsnr" v="452967" />
	</node>
	<node lat="63.43733055662383" lon="11.228572213204652" id="-34412">
		<tag k="name" v="Nytrøa" />
		<tag k="place" v="locality" />
		<tag k="ssr:stedsnr" v="453404" />
	</node>
	<node lat="63.49274167062628" lon="11.404980558720805" id="-34413">
		<tag k="name" v="Buhaugen" />
		<tag k="natural" v="hill" />
		<tag k="place" v="locality" />
		<tag k="ssr:stedsnr" v="453167" />
	</node>
	<node lat="63.40661111437717" lon="11.254088893770644" id="-34415">
		<tag k="name" v="Geitåskammen" />
		<tag k="natural" v="hill" />
		<tag k="place" v="locality" />
		<tag k="ssr:stedsnr" v="453508" />
	</node>
	<node lat="63.42099722326304" lon="11.308077781096383" id="-34425">
		<tag k="name" v="Gråsteinshalla" />
		<tag k="natural" v="slope" />
		<tag k="place" v="locality" />
		<tag k="ssr:stedsnr" v="472480" />
	</node>
	<node lat="63.47846111272254" lon="11.032438899006303" id="-34441">
		<tag k="alt_name" v="Lauvåsen" />
		<tag k="fixme" v="consider natural=peak for the most distinct mountains in the district" />
		<tag k="name" v="Bjørkkammen" />
		<tag k="natural" v="hill" />
		<tag k="place" v="locality" />
		<tag k="ssr:stedsnr" v="680164" />
	</node>
	<node lat="63.47811944809489" lon="11.2094555599481" id="-34444">
		<tag k="alt_name" v="Småmyrberget" />
		<tag k="name" v="Rundhaugen" />
		<tag k="natural" v="hill" />
		<tag k="place" v="locality" />
		<tag k="ssr:stedsnr" v="680152" />
	</node>
	<node lat="63.49466388945312" lon="10.981213891736815" id="-34448">
		<tag k="fixme" v="consider natural=peak for the most distinct mountains in the district" />
		<tag k="name" v="Kinnsetåsen" />
		<tag k="natural" v="hill" />
		<tag k="place" v="locality" />
		<tag k="ssr:stedsnr" v="680247" />
	</node>
	<node lat="63.507675000913515" lon="11.304391668566568" id="-34451">
		<tag k="fixme" v="consider natural=peak for the most distinct mountains in the district" />
		<tag k="name" v="Beitlandskammen" />
		<tag k="natural" v="hill" />
		<tag k="place" v="locality" />
		<tag k="ssr:stedsnr" v="680381" />
	</node>
	<node lat="63.349672223077974" lon="11.197591660985514" id="-34456">
		<tag k="name" v="Tjurubudalen" />
		<tag k="natural" v="valley" />
		<tag k="place" v="locality" />
		<tag k="ssr:stedsnr" v="680470" />
	</node>
	<node lat="63.40573889321663" lon="11.319413881816024" id="-34458">
		<tag k="name" v="Korsmyrhaugen" />
		<tag k="natural" v="hill" />
		<tag k="place" v="locality" />
		<tag k="ssr:stedsnr" v="680437" />
	</node>
	<node lat="63.43839167114706" lon="11.465002773217295" id="-34466">
		<tag k="fixme" v="consider natural=peak for the most distinct mountains in the district" />
		<tag k="name" v="Tortlia" />
		<tag k="natural" v="hill" />
		<tag k="place" v="locality" />
		<tag k="ssr:stedsnr" v="680497" />
	</node>
	<node lat="63.37555277860368" lon="11.141786102531734" id="-34467">
		<tag k="name" v="Kallen" />
		<tag k="natural" v="hill" />
		<tag k="place" v="locality" />
		<tag k="ssr:stedsnr" v="680537" />
	</node>
	<node lat="63.379444440180514" lon="11.122577784045212" id="-34468">
		<tag k="fixme" v="consider natural=peak for the most distinct mountains in the district" />
		<tag k="name" v="Kleivfjellet" />
		<tag k="natural" v="hill" />
		<tag k="place" v="locality" />
		<tag k="ssr:stedsnr" v="680538" />
	</node>
	<node lat="63.413549999781154" lon="11.155016656713508" id="-34480">
		<tag k="fixme" v="consider natural=peak for the most distinct mountains in the district" />
		<tag k="name" v="Litlfjellet" />
		<tag k="natural" v="hill" />
		<tag k="place" v="locality" />
		<tag k="ssr:stedsnr" v="498042" />
	</node>
	<node lat="63.43967499768116" lon="11.08328610316226" id="-34482">
		<tag k="alt_name" v="Klompen" />
		<tag k="fixme" v="consider natural=peak for the most distinct mountains in the district" />
		<tag k="name" v="Klumpen" />
		<tag k="natural" v="hill" />
		<tag k="place" v="locality" />
		<tag k="ssr:stedsnr" v="498114" />
	</node>
	<node lat="63.377077779900034" lon="10.881333327424178" id="-34486">
		<tag k="fixme" v="consider natural=peak for the most distinct mountains in the district" />
		<tag k="name" v="Langmyråsen" />
		<tag k="natural" v="hill" />
		<tag k="place" v="locality" />
		<tag k="ssr:stedsnr" v="498189" />
	</node>
	<node lat="63.56412499578924" lon="11.623219434240827" id="-34502">
		<tag k="name" v="Vassvollhøgda" />
		<tag k="natural" v="hill" />
		<tag k="place" v="locality" />
		<tag k="ssr:stedsnr" v="498513" />
	</node>
	<node lat="63.3960694405981" lon="11.031791657900389" id="-34504">
		<tag k="fixme" v="consider natural=peak for the most distinct mountains in the district" />
		<tag k="name" v="Brandåsen" />
		<tag k="natural" v="hill" />
		<tag k="place" v="locality" />
		<tag k="ssr:stedsnr" v="498496" />
	</node>
	<node lat="63.470363892105354" lon="11.43382500293402" id="-34507">
		<tag k="fixme" v="consider natural=peak for the most distinct mountains in the district" />
		<tag k="name" v="Storhaugen" />
		<tag k="natural" v="hill" />
		<tag k="place" v="locality" />
		<tag k="ssr:stedsnr" v="681286" />
	</node>
	<node lat="63.551172226185905" lon="11.163333324252095" id="-34510">
		<tag k="name" v="Nerdalen" />
		<tag k="natural" v="valley" />
		<tag k="place" v="locality" />
		<tag k="ssr:stedsnr" v="498837" />
	</node>
	<node lat="63.386813890337464" lon="11.33121944165848" id="-34512">
		<tag k="name" v="Storhaugen" />
		<tag k="natural" v="hill" />
		<tag k="place" v="locality" />
		<tag k="ssr:stedsnr" v="681398" />
	</node>
	<node lat="63.527400000876845" lon="11.013386104840356" id="-34519">
		<tag k="name" v="Høgberget" />
		<tag k="natural" v="hill" />
		<tag k="place" v="locality" />
		<tag k="ssr:stedsnr" v="513622" />
	</node>
	<node lat="63.38835832956336" lon="11.148125009444923" id="-34520">
		<tag k="name" v="Holet" />
		<tag k="place" v="locality" />
		<tag k="ssr:stedsnr" v="513664" />
	</node>
	<node lat="63.43390000163939" lon="11.052141671089473" id="-34521">
		<tag k="fixme" v="consider natural=peak for the most distinct mountains in the district" />
		<tag k="name" v="Kamåsen" />
		<tag k="natural" v="hill" />
		<tag k="place" v="locality" />
		<tag k="ssr:stedsnr" v="513666" />
	</node>
	<node lat="63.43577500114875" lon="11.123502768441368" id="-34523">
		<tag k="name" v="Solliknappen" />
		<tag k="natural" v="hill" />
		<tag k="place" v="locality" />
		<tag k="ssr:stedsnr" v="513802" />
	</node>
	<node lat="63.485172221502594" lon="10.827825005551563" id="-34524">
		<tag k="name" v="Kvitgeita" />
		<tag k="place" v="locality" />
		<tag k="ssr:stedsnr" v="513810" />
	</node>
	<node lat="63.4945972257416" lon="10.794580555629262" id="-34526">
		<tag k="name" v="Einberget" />
		<tag k="natural" v="slope" />
		<tag k="place" v="locality" />
		<tag k="ssr:stedsnr" v="513819" />
	</node>
	<node lat="63.44078611109362" lon="10.888836103414336" id="-34527">
		<tag k="name" v="Steinkleiva" />
		<tag k="place" v="locality" />
		<tag k="ssr:stedsnr" v="513820" />
	</node>
	<node lat="63.43381111060546" lon="11.040080564919782" id="-34530">
		<tag k="name" v="Blåbærberga" />
		<tag k="natural" v="hill" />
		<tag k="place" v="locality" />
		<tag k="ssr:stedsnr" v="513769" />
	</node>
	<node lat="63.53758055547086" lon="10.784852781805341" id="-34534">
		<tag k="name" v="Håmannsberget" />
		<tag k="natural" v="hill" />
		<tag k="place" v="locality" />
		<tag k="ssr:stedsnr" v="513925" />
	</node>
	<node lat="63.387836114382054" lon="10.947972218735385" id="-34535">
		<tag k="name" v="Fossbakkan" />
		<tag k="place" v="locality" />
		<tag k="ssr:stedsnr" v="513966" />
	</node>
	<node lat="63.530488885992554" lon="10.917197221545347" id="-34536">
		<tag k="name" v="Slettskardet" />
		<tag k="natural" v="valley" />
		<tag k="place" v="locality" />
		<tag k="ssr:stedsnr" v="513865" />
	</node>
	<node lat="63.478241663811076" lon="11.456480557707822" id="-34541">
		<tag k="name" v="Skjennberga" />
		<tag k="natural" v="hill" />
		<tag k="place" v="locality" />
		<tag k="ssr:stedsnr" v="514212" />
	</node>
	<node lat="63.51076110773728" lon="11.440986110845403" id="-34542">
		<tag k="name" v="Almlibjørga" />
		<tag k="natural" v="slope" />
		<tag k="place" v="locality" />
		<tag k="ssr:stedsnr" v="514171" />
	</node>
	<node lat="63.43804167053029" lon="11.228263883379434" id="-34546">
		<tag k="name" v="Sørkilhaugen" />
		<tag k="natural" v="hill" />
		<tag k="place" v="locality" />
		<tag k="ssr:stedsnr" v="514412" />
	</node>
	<node lat="63.53553610948726" lon="11.1647527807613" id="-34548">
		<tag k="name" v="Børsetbrannen" />
		<tag k="place" v="locality" />
		<tag k="ssr:stedsnr" v="514505" />
	</node>
	<node lat="63.46531389101799" lon="11.350899995695125" id="-34550">
		<tag k="name" v="Lian" />
		<tag k="natural" v="slope" />
		<tag k="place" v="locality" />
		<tag k="ssr:stedsnr" v="514523" />
	</node>
	<node lat="63.440283328826986" lon="11.4184000084935" id="-34553">
		<tag k="fixme" v="consider natural=peak for the most distinct mountains in the district" />
		<tag k="name" v="Talgåsen" />
		<tag k="natural" v="hill" />
		<tag k="place" v="locality" />
		<tag k="ssr:stedsnr" v="533526" />
	</node>
	<node lat="63.49424722220352" lon="11.286130551563232" id="-34554">
		<tag k="name" v="Bjørgsletta" />
		<tag k="place" v="locality" />
		<tag k="ssr:stedsnr" v="533706" />
	</node>
	<node lat="63.43049444840668" lon="11.436711114910576" id="-34555">
		<tag k="name" v="Snøreva" />
		<tag k="natural" v="valley" />
		<tag k="place" v="locality" />
		<tag k="ssr:stedsnr" v="533723" />
	</node>
	<node lat="63.54735555326917" lon="11.218133332748886" id="-34556">
		<tag k="name" v="Isdalen" />
		<tag k="natural" v="valley" />
		<tag k="place" v="locality" />
		<tag k="ssr:stedsnr" v="533869" />
	</node>
	<node lat="63.55201388588395" lon="11.230283323892538" id="-34557">
		<tag k="name" v="Londonsdalen" />
		<tag k="natural" v="valley" />
		<tag k="place" v="locality" />
		<tag k="ssr:stedsnr" v="533873" />
	</node>
	<node lat="63.37224166457127" lon="10.974936115073781" id="-34568">
		<tag k="name" v="Rundhaugen" />
		<tag k="natural" v="hill" />
		<tag k="place" v="locality" />
		<tag k="ssr:stedsnr" v="558411" />
	</node>
	<node lat="63.507466667813766" lon="10.948636108426872" id="-34574">
		<tag k="fixme" v="consider natural=peak for the most distinct mountains in the district" />
		<tag k="name" v="Liaåsen" />
		<tag k="natural" v="hill" />
		<tag k="place" v="locality" />
		<tag k="ssr:stedsnr" v="558703" />
	</node>
	<node lat="63.479124999499454" lon="11.443566673068258" id="-34578">
		<tag k="name" v="Melbjørga" />
		<tag k="natural" v="hill" />
		<tag k="place" v="locality" />
		<tag k="ssr:stedsnr" v="559239" />
	</node>
	<node lat="63.483313884930084" lon="11.371861115995475" id="-34579">
		<tag k="name" v="Ådalsbjørga" />
		<tag k="natural" v="hill" />
		<tag k="place" v="locality" />
		<tag k="ssr:stedsnr" v="559240" />
	</node>
	<node lat="63.48456944542711" lon="11.446019452110642" id="-34580">
		<tag k="fixme" v="multiple name tags, choose one and add the other to alt_name; consider natural=peak for the most distinct mountains in the district" />
		<tag k="name" v="Storskardbjørga;Storskardåsen" />
		<tag k="natural" v="hill" />
		<tag k="place" v="locality" />
		<tag k="ssr:stedsnr" v="559245" />
	</node>
	<node lat="63.43201388541025" lon="11.117594439310116" id="-34581">
		<tag k="fixme" v="consider natural=peak for the most distinct mountains in the district" />
		<tag k="name" v="Solliåsen" />
		<tag k="natural" v="hill" />
		<tag k="place" v="locality" />
		<tag k="ssr:stedsnr" v="559103" />
	</node>
	<node lat="63.474263893444956" lon="11.437399994458291" id="-34587">
		<tag k="name" v="Gravdalen" />
		<tag k="natural" v="valley" />
		<tag k="place" v="locality" />
		<tag k="ssr:stedsnr" v="559292" />
	</node>
	<node lat="63.45787221944113" lon="11.11587500425689" id="-34592">
		<tag k="name" v="Kolbulandet" />
		<tag k="place" v="locality" />
		<tag k="ssr:stedsnr" v="695634" />
	</node>
	<node lat="63.39199444677818" lon="11.115652772341342" id="-34593">
		<tag k="name" v="Romma" />
		<tag k="place" v="locality" />
		<tag k="ssr:stedsnr" v="695649" />
	</node>
	<node lat="63.44639166673514" lon="11.091486118959299" id="-34596">
		<tag k="name" v="Bonsletta" />
		<tag k="place" v="locality" />
		<tag k="ssr:stedsnr" v="695664" />
	</node>
	<node lat="63.41472222627261" lon="11.218283330573207" id="-34600">
		<tag k="name" v="Kaukarhaugen" />
		<tag k="natural" v="hill" />
		<tag k="place" v="locality" />
		<tag k="ssr:stedsnr" v="573502" />
	</node>
	<node lat="63.52652777883033" lon="11.032449994451447" id="-34601">
		<tag k="name" v="Vassdalen" />
		<tag k="natural" v="valley" />
		<tag k="place" v="locality" />
		<tag k="ssr:stedsnr" v="573546" />
	</node>
	<node lat="63.45035833628805" lon="11.207433333387154" id="-34602">
		<tag k="name" v="Korphåmmåren" />
		<tag k="natural" v="hill" />
		<tag k="place" v="locality" />
		<tag k="ssr:stedsnr" v="573552" />
	</node>
	<node lat="63.44641110850659" lon="11.163716658710527" id="-34604">
		<tag k="name" v="Håkkådalen" />
		<tag k="natural" v="valley" />
		<tag k="place" v="locality" />
		<tag k="ssr:stedsnr" v="573561" />
	</node>
	<node lat="63.445802778173146" lon="11.15957776789063" id="-34605">
		<tag k="name" v="Hestmyrhaugen" />
		<tag k="natural" v="hill" />
		<tag k="place" v="locality" />
		<tag k="ssr:stedsnr" v="573562" />
	</node>
	<node lat="63.48173888828117" lon="11.030361109686126" id="-34607">
		<tag k="fixme" v="consider natural=peak for the most distinct mountains in the district" />
		<tag k="name" v="Bjørmarkåsen" />
		<tag k="natural" v="hill" />
		<tag k="place" v="locality" />
		<tag k="ssr:stedsnr" v="573713" />
	</node>
	<node lat="63.4957750011404" lon="11.09396667162804" id="-34608">
		<tag k="name" v="Mørsetfallet" />
		<tag k="natural" v="valley" />
		<tag k="place" v="locality" />
		<tag k="ssr:stedsnr" v="573715" />
	</node>
	<node lat="63.46651111133603" lon="11.085630562954439" id="-34611">
		<tag k="name" v="Trøytasberget" />
		<tag k="natural" v="hill" />
		<tag k="place" v="locality" />
		<tag k="ssr:stedsnr" v="573646" />
	</node>
	<node lat="63.47140833718118" lon="10.887127785150458" id="-34618">
		<tag k="name" v="Sutterøyberget" />
		<tag k="natural" v="hill" />
		<tag k="place" v="locality" />
		<tag k="ssr:stedsnr" v="573960" />
	</node>
	<node lat="63.40435277956888" lon="10.919044437920018" id="-34619">
		<tag k="name" v="Langåsen" />
		<tag k="place" v="locality" />
		<tag k="ssr:stedsnr" v="573964" />
	</node>
	<node lat="63.466538884754215" lon="11.363441673590318" id="-34620">
		<tag k="name" v="Furuhåmmåren" />
		<tag k="natural" v="hill" />
		<tag k="place" v="locality" />
		<tag k="ssr:stedsnr" v="574405" />
	</node>
	<node lat="63.506952776936004" lon="11.337494453671592" id="-34621">
		<tag k="name" v="Tronget" />
		<tag k="place" v="locality" />
		<tag k="ssr:stedsnr" v="574315" />
	</node>
	<node lat="63.46830555666382" lon="11.394830565620405" id="-34622">
		<tag k="name" v="Brattsvea" />
		<tag k="natural" v="hill" />
		<tag k="place" v="locality" />
		<tag k="ssr:stedsnr" v="574396" />
	</node>
	<node lat="63.46289444030748" lon="11.402786113481454" id="-34623">
		<tag k="name" v="Hansløfta" />
		<tag k="place" v="locality" />
		<tag k="ssr:stedsnr" v="574400" />
	</node>
	<node lat="63.47837499559842" lon="11.24853888905511" id="-34624">
		<tag k="fixme" v="consider natural=peak for the most distinct mountains in the district" />
		<tag k="name" v="Elgåsen" />
		<tag k="natural" v="hill" />
		<tag k="place" v="locality" />
		<tag k="ssr:stedsnr" v="574346" />
	</node>
	<node lat="63.47579444786913" lon="11.2355305579199" id="-34625">
		<tag k="name" v="Vollhaugen" />
		<tag k="natural" v="hill" />
		<tag k="place" v="locality" />
		<tag k="ssr:stedsnr" v="574347" />
	</node>
	<node lat="63.55561666940827" lon="11.124063890892977" id="-34627">
		<tag k="fixme" v="consider natural=peak for the most distinct mountains in the district" />
		<tag k="name" v="Klefsåskammen" />
		<tag k="natural" v="hill" />
		<tag k="place" v="locality" />
		<tag k="ssr:stedsnr" v="574500" />
	</node>
	<node lat="63.40486111193117" lon="11.039341661592426" id="-34629">
		<tag k="name" v="Aunåsen" />
		<tag k="natural" v="hill" />
		<tag k="place" v="locality" />
		<tag k="ssr:stedsnr" v="695694" />
	</node>
	<node lat="63.51626388636527" lon="11.085900007278129" id="-34630">
		<tag k="name" v="Bjørndalen" />
		<tag k="natural" v="valley" />
		<tag k="place" v="locality" />
		<tag k="ssr:stedsnr" v="695578" />
	</node>
	<node lat="63.52713889176612" lon="11.039833323804375" id="-34631">
		<tag k="fixme" v="consider natural=peak for the most distinct mountains in the district" />
		<tag k="name" v="Rønsåsen" />
		<tag k="natural" v="hill" />
		<tag k="place" v="locality" />
		<tag k="ssr:stedsnr" v="695561" />
	</node>
	<node lat="63.52469166916955" lon="11.013983338596942" id="-34633">
		<tag k="name" v="Garnberget" />
		<tag k="natural" v="hill" />
		<tag k="place" v="locality" />
		<tag k="ssr:stedsnr" v="695590" />
	</node>
	<node lat="63.44838055681051" lon="11.10281666514303" id="-34634">
		<tag k="name" v="Svea" />
		<tag k="natural" v="hill" />
		<tag k="place" v="locality" />
		<tag k="ssr:stedsnr" v="695601" />
	</node>
	<node lat="63.387627779667696" lon="10.995649999239909" id="-34635">
		<tag k="fixme" v="consider natural=peak for the most distinct mountains in the district" />
		<tag k="name" v="Lauvåsen" />
		<tag k="natural" v="hill" />
		<tag k="place" v="locality" />
		<tag k="ssr:stedsnr" v="695699" />
	</node>
	<node lat="63.38872222306934" lon="10.976680552372837" id="-34636">
		<tag k="name" v="Bjørndalen" />
		<tag k="natural" v="valley" />
		<tag k="place" v="locality" />
		<tag k="ssr:stedsnr" v="695700" />
	</node>
	<node lat="63.48115833326675" lon="11.020683336317026" id="-34638">
		<tag k="name" v="Høghåmmåren" />
		<tag k="natural" v="hill" />
		<tag k="place" v="locality" />
		<tag k="ssr:stedsnr" v="695740" />
	</node>
	<node lat="63.50872222469174" lon="10.88447222614507" id="-34639">
		<tag k="name" v="Flåhalla" />
		<tag k="natural" v="hill" />
		<tag k="place" v="locality" />
		<tag k="ssr:stedsnr" v="695762" />
	</node>
	<node lat="63.53775833336048" lon="10.81772499910774" id="-34644">
		<tag k="name" v="Furuberget" />
		<tag k="natural" v="hill" />
		<tag k="place" v="locality" />
		<tag k="ssr:stedsnr" v="695901" />
	</node>
	<node lat="63.40178055618996" lon="10.862977774451785" id="-34648">
		<tag k="name" v="Bjørnhola" />
		<tag k="place" v="locality" />
		<tag k="ssr:stedsnr" v="695956" />
	</node>
	<node lat="63.413952773344114" lon="10.910102777170446" id="-34650">
		<tag k="fixme" v="consider natural=peak for the most distinct mountains in the district" />
		<tag k="name" v="Brattåsen" />
		<tag k="natural" v="hill" />
		<tag k="place" v="locality" />
		<tag k="ssr:stedsnr" v="695984" />
	</node>
	<node lat="63.48859999999497" lon="11.48593056040083" id="-34656">
		<tag k="name" v="Langnesdalen" />
		<tag k="natural" v="valley" />
		<tag k="place" v="locality" />
		<tag k="ssr:stedsnr" v="696200" />
	</node>
	<node lat="63.49076388548868" lon="11.449816667868731" id="-34657">
		<tag k="name" v="Kjølen" />
		<tag k="natural" v="hill" />
		<tag k="place" v="locality" />
		<tag k="ssr:stedsnr" v="696201" />
	</node>
	<node lat="63.4444166668873" lon="11.284608334166876" id="-34658">
		<tag k="name" v="Sandlauphaugen" />
		<tag k="natural" v="hill" />
		<tag k="place" v="locality" />
		<tag k="ssr:stedsnr" v="696281" />
	</node>
	<node lat="63.43591389143098" lon="11.283861117001802" id="-34659">
		<tag k="name" v="Styggdalen" />
		<tag k="natural" v="valley" />
		<tag k="place" v="locality" />
		<tag k="ssr:stedsnr" v="696287" />
	</node>
	<node lat="63.512805554861316" lon="11.320063886606029" id="-34662">
		<tag k="name" v="Klimpen" />
		<tag k="place" v="locality" />
		<tag k="ssr:stedsnr" v="696295" />
	</node>
	<node lat="63.48484166596425" lon="11.338844440478882" id="-34663">
		<tag k="fixme" v="consider natural=peak for the most distinct mountains in the district" />
		<tag k="name" v="Høggåshaugen" />
		<tag k="natural" v="hill" />
		<tag k="place" v="locality" />
		<tag k="ssr:stedsnr" v="696330" />
	</node>
	<node lat="63.485958336651386" lon="11.322933325534521" id="-34664">
		<tag k="name" v="Haughamran" />
		<tag k="natural" v="hill" />
		<tag k="place" v="locality" />
		<tag k="ssr:stedsnr" v="696332" />
	</node>
	<node lat="63.46841389102491" lon="11.4300749998217" id="-34666">
		<tag k="name" v="Djupdalen" />
		<tag k="natural" v="valley" />
		<tag k="place" v="locality" />
		<tag k="ssr:stedsnr" v="696388" />
	</node>
	<node lat="63.46604166969312" lon="11.44190834210361" id="-34667">
		<tag k="name" v="Skveldalen" />
		<tag k="natural" v="valley" />
		<tag k="place" v="locality" />
		<tag k="ssr:stedsnr" v="696389" />
	</node>
	<node lat="63.51836110896813" lon="11.160386103971346" id="-34671">
		<tag k="name" v="Klengråthaugen" />
		<tag k="natural" v="hill" />
		<tag k="place" v="locality" />
		<tag k="ssr:stedsnr" v="696495" />
	</node>
	<node lat="63.534516668593255" lon="11.149155559209797" id="-34673">
		<tag k="name" v="Rundhaugen" />
		<tag k="natural" v="hill" />
		<tag k="place" v="locality" />
		<tag k="ssr:stedsnr" v="696501" />
	</node>
	<node lat="63.43618055354464" lon="11.205591659076145" id="-34676">
		<tag k="name" v="Lia" />
		<tag k="place" v="locality" />
		<tag k="ssr:stedsnr" v="696442" />
	</node>
	<node lat="63.479944441179285" lon="11.136424993314732" id="-34677">
		<tag k="fixme" v="consider natural=peak for the most distinct mountains in the district" />
		<tag k="name" v="Brannåsen" />
		<tag k="natural" v="hill" />
		<tag k="place" v="locality" />
		<tag k="ssr:stedsnr" v="696449" />
	</node>
	<node lat="63.491969440631365" lon="11.13840555934358" id="-34680">
		<tag k="name" v="Pinstihyllla" />
		<tag k="natural" v="cliff" />
		<tag k="ssr:stedsnr" v="696460" />
	</node>
	<node lat="63.4419500018995" lon="11.351269447933776" id="-34686">
		<tag k="name" v="Trøhaugan" />
		<tag k="natural" v="hill" />
		<tag k="place" v="locality" />
		<tag k="ssr:stedsnr" v="593455" />
	</node>
	<node lat="63.390730558082836" lon="11.324525007603437" id="-34687">
		<tag k="fixme" v="consider natural=peak for the most distinct mountains in the district" />
		<tag k="name" v="Fossvollåsen" />
		<tag k="natural" v="hill" />
		<tag k="place" v="locality" />
		<tag k="ssr:stedsnr" v="593456" />
	</node>
	<node lat="63.563366666939196" lon="11.300575008247609" id="-34690">
		<tag k="fixme" v="consider natural=peak for the most distinct mountains in the district" />
		<tag k="name" v="Hilåsen" />
		<tag k="natural" v="hill" />
		<tag k="place" v="locality" />
		<tag k="ssr:stedsnr" v="593719" />
	</node>
	<node lat="63.36138889311514" lon="11.206963880155458" id="-34702">
		<tag k="fixme" v="consider natural=peak for the most distinct mountains in the district" />
		<tag k="name" v="Ersgardsfjellet" />
		<tag k="natural" v="hill" />
		<tag k="place" v="locality" />
		<tag k="ssr:stedsnr" v="619420" />
	</node>
	<node lat="63.49809444031959" lon="11.522702779709462" id="-34704">
		<tag k="fixme" v="consider natural=peak for the most distinct mountains in the district" />
		<tag k="name" v="Storsteinsfjellet" />
		<tag k="natural" v="hill" />
		<tag k="place" v="locality" />
		<tag k="ssr:stedsnr" v="619314" />
	</node>
	<node lat="63.532527782321935" lon="10.876338886429433" id="-34716">
		<tag k="name" v="Tjurrumyrhaugan" />
		<tag k="natural" v="hill" />
		<tag k="place" v="locality" />
		<tag k="ssr:stedsnr" v="619779" />
	</node>
	<node lat="63.42226111434204" lon="11.024108333200974" id="-34718">
		<tag k="name" v="Bjørnberget" />
		<tag k="natural" v="hill" />
		<tag k="place" v="locality" />
		<tag k="ssr:stedsnr" v="620019" />
	</node>
	<node lat="63.510425003777975" lon="11.337588893368826" id="-34728">
		<tag k="fixme" v="consider natural=peak for the most distinct mountains in the district" />
		<tag k="name" v="Trongåsen" />
		<tag k="natural" v="hill" />
		<tag k="place" v="locality" />
		<tag k="ssr:stedsnr" v="634315" />
	</node>
	<node lat="63.45005555165441" lon="11.110436110416167" id="-34732">
		<tag k="fixme" v="consider natural=peak for the most distinct mountains in the district" />
		<tag k="name" v="Sve" />
		<tag k="natural" v="hill" />
		<tag k="place" v="locality" />
		<tag k="ssr:stedsnr" v="634634" />
	</node>
	<node lat="63.46402500412645" lon="10.993027775512733" id="-34733">
		<tag k="name" v="Hognesberga" />
		<tag k="natural" v="hill" />
		<tag k="place" v="locality" />
		<tag k="ssr:stedsnr" v="634704" />
	</node>
	<node lat="63.451522219247416" lon="10.912852770277604" id="-34739">
		<tag k="name" v="Værnebrannen" />
		<tag k="place" v="locality" />
		<tag k="ssr:stedsnr" v="634832" />
	</node>
	<node lat="63.48699722307658" lon="10.953869446996153" id="-34740">
		<tag k="name" v="Husdalen" />
		<tag k="natural" v="valley" />
		<tag k="place" v="locality" />
		<tag k="ssr:stedsnr" v="634893" />
	</node>
	<node lat="63.47404722043623" lon="10.96267221352583" id="-34743">
		<tag k="name" v="Rehåmmåran" />
		<tag k="natural" v="slope" />
		<tag k="place" v="locality" />
		<tag k="ssr:stedsnr" v="634909" />
	</node>
	<node lat="63.52171666587464" lon="10.762916667358015" id="-34746">
		<tag k="name" v="Våberga" />
		<tag k="natural" v="hill" />
		<tag k="place" v="locality" />
		<tag k="ssr:stedsnr" v="634927" />
	</node>
	<node lat="63.407755553190725" lon="10.941063880244693" id="-34747">
		<tag k="name" v="Kutrøhaugen" />
		<tag k="natural" v="hill" />
		<tag k="place" v="locality" />
		<tag k="ssr:stedsnr" v="634979" />
	</node>
	<node lat="63.41145278044017" lon="11.273813893096218" id="-34753">
		<tag k="name" v="Berga" />
		<tag k="natural" v="hill" />
		<tag k="place" v="locality" />
		<tag k="ssr:stedsnr" v="635485" />
	</node>
	<node lat="63.3379390023761" lon="10.93642387256056" id="-34758">
		<tag k="name" v="Rundhaugen" />
		<tag k="natural" v="hill" />
		<tag k="place" v="locality" />
		<tag k="ssr:stedsnr" v="653388" />
	</node>
	<node lat="63.36584743452168" lon="11.34762665490877" id="-34760">
		<tag k="name" v="Gunnarhaugen" />
		<tag k="natural" v="hill" />
		<tag k="place" v="locality" />
		<tag k="ssr:stedsnr" v="654443" />
	</node>
	<node lat="63.53429444799606" lon="11.319466658804897" id="-34761">
		<tag k="name" v="Furuhaugen" />
		<tag k="natural" v="hill" />
		<tag k="place" v="locality" />
		<tag k="ssr:stedsnr" v="654636" />
	</node>
	<node lat="63.40103611090458" lon="11.402880557599536" id="-34762">
		<tag k="name" v="Blisterdalen" />
		<tag k="natural" v="valley" />
		<tag k="place" v="locality" />
		<tag k="ssr:stedsnr" v="655537" />
	</node>
	<node lat="63.45040277767397" lon="11.133677769575948" id="-34768">
		<tag k="fixme" v="consider natural=peak for the most distinct mountains in the district" />
		<tag k="name" v="Håmmåren" />
		<tag k="natural" v="hill" />
		<tag k="place" v="locality" />
		<tag k="ssr:stedsnr" v="680106" />
	</node>
	<node lat="63.55963055732077" lon="11.416791668002109" id="-34772">
		<tag k="alt_name" v="Mosæterdalen, s;Søre Mosæterdalen;Moseterdalen, sør" />
		<tag k="name" v="Søre Moseterdalen" />
		<tag k="natural" v="valley" />
		<tag k="place" v="locality" />
		<tag k="ssr:stedsnr" v="680506" />
	</node>
	<node lat="63.3979499987411" lon="10.91519445046488" id="-34773">
		<tag k="name" v="Spakmyrhaugen" />
		<tag k="natural" v="hill" />
		<tag k="place" v="locality" />
		<tag k="ssr:stedsnr" v="680513" />
	</node>
	<node lat="63.38238333553779" lon="11.021277771416838" id="-34774">
		<tag k="name" v="Stordalen" />
		<tag k="natural" v="valley" />
		<tag k="place" v="locality" />
		<tag k="ssr:stedsnr" v="680519" />
	</node>
	<node lat="63.42922777428714" lon="10.996125006417062" id="-34780">
		<tag k="name" v="Høgberget" />
		<tag k="natural" v="hill" />
		<tag k="place" v="locality" />
		<tag k="ssr:stedsnr" v="681106" />
	</node>
	<node lat="63.4577861119874" lon="11.471988897850807" id="-34783">
		<tag k="name" v="Stamnhaugen" />
		<tag k="natural" v="hill" />
		<tag k="place" v="locality" />
		<tag k="ssr:stedsnr" v="681269" />
	</node>
	<node lat="63.44088611390384" lon="11.116422224523411" id="-34790">
		<tag k="name" v="Ståggåhaugen" />
		<tag k="natural" v="hill" />
		<tag k="place" v="locality" />
		<tag k="ssr:stedsnr" v="695611" />
	</node>
	<node lat="63.43789444882866" lon="10.875958332529432" id="-34795">
		<tag k="name" v="Storbakken" />
		<tag k="natural" v="slope" />
		<tag k="place" v="locality" />
		<tag k="ssr:stedsnr" v="695819" />
	</node>
	<node lat="63.4260249995466" lon="11.073622229434111" id="-34796">
		<tag k="fixme" v="consider natural=peak for the most distinct mountains in the district" />
		<tag k="name" v="Strætasfjellet østre" />
		<tag k="natural" v="hill" />
		<tag k="place" v="locality" />
		<tag k="ssr:stedsnr" v="695703" />
	</node>
	<node lat="63.542577773896205" lon="11.022952780783873" id="-34797">
		<tag k="fixme" v="consider natural=peak for the most distinct mountains in the district" />
		<tag k="name" v="Liåsen" />
		<tag k="natural" v="hill" />
		<tag k="place" v="locality" />
		<tag k="ssr:stedsnr" v="695713" />
	</node>
	<node lat="63.40883610935102" lon="10.90028054871264" id="-34802">
		<tag k="fixme" v="consider natural=peak for the most distinct mountains in the district" />
		<tag k="name" v="Følltjønnåsen" />
		<tag k="natural" v="hill" />
		<tag k="place" v="locality" />
		<tag k="ssr:stedsnr" v="695908" />
	</node>
	<node lat="63.488686111782286" lon="11.305850007119563" id="-34805">
		<tag k="name" v="Kattryberget" />
		<tag k="natural" v="hill" />
		<tag k="place" v="locality" />
		<tag k="ssr:stedsnr" v="696324" />
	</node>
	<node lat="63.44740833609828" lon="11.283486117798182" id="-34807">
		<tag k="name" v="Litlvollbjørga" />
		<tag k="natural" v="slope" />
		<tag k="place" v="locality" />
		<tag k="ssr:stedsnr" v="696268" />
	</node>
	<node lat="63.46666388849049" lon="11.47453611725321" id="-34808">
		<tag k="name" v="Hesthølmelan" />
		<tag k="natural" v="slope" />
		<tag k="place" v="locality" />
		<tag k="ssr:stedsnr" v="696403" />
	</node>
	<node lat="63.34001485113811" lon="10.932985804882444" id="-34816">
		<tag k="fixme" v="consider natural=peak for the most distinct mountains in the district" />
		<tag k="name" v="Klepptjønnåsen" />
		<tag k="natural" v="hill" />
		<tag k="place" v="locality" />
		<tag k="ssr:stedsnr" v="897382" />
	</node>
	<node lat="63.37506126564886" lon="11.05938321324154" id="-34818">
		<tag k="fixme" v="consider natural=peak for the most distinct mountains in the district" />
		<tag k="name" v="Geitsteinåsen" />
		<tag k="natural" v="hill" />
		<tag k="place" v="locality" />
		<tag k="ssr:stedsnr" v="897399" />
	</node>
	<node lat="63.38385555430814" lon="10.952999996522731" id="-34822">
		<tag k="name" v="Fossbakkan" />
		<tag k="natural" v="slope" />
		<tag k="place" v="locality" />
		<tag k="ssr:stedsnr" v="897548" />
	</node>
	<node lat="63.572813885865855" lon="11.265861116848814" id="-34824">
		<tag k="fixme" v="consider natural=peak for the most distinct mountains in the district" />
		<tag k="name" v="Høgseterbjørga" />
		<tag k="natural" v="hill" />
		<tag k="place" v="locality" />
		<tag k="ssr:stedsnr" v="897748" />
	</node>
	<node lat="63.549016668469065" lon="11.235719453848056" id="-34828">
		<tag k="fixme" v="consider natural=peak for the most distinct mountains in the district" />
		<tag k="name" v="Talgåsrya" />
		<tag k="natural" v="hill" />
		<tag k="place" v="locality" />
		<tag k="ssr:stedsnr" v="898626" />
	</node>
	<node lat="63.51315278141987" lon="10.841297214589245" id="-34837">
		<tag k="name" v="Klimpen" />
		<tag k="natural" v="hill" />
		<tag k="place" v="locality" />
		<tag k="ssr:stedsnr" v="727075" />
	</node>
	<node lat="63.42594722607625" lon="11.06957500353788" id="-34842">
		<tag k="name" v="Storvarden" />
		<tag k="natural" v="hill" />
		<tag k="place" v="locality" />
		<tag k="ssr:stedsnr" v="741038" />
	</node>
	<node lat="63.42661389112838" lon="11.162750003460417" id="-34849">
		<tag k="name" v="Gammelvollberget" />
		<tag k="natural" v="hill" />
		<tag k="place" v="locality" />
		<tag k="ssr:stedsnr" v="741140" />
	</node>
	<node lat="63.57965277555803" lon="11.544130556378482" id="-34863">
		<tag k="name" v="Klipvola" />
		<tag k="natural" v="hill" />
		<tag k="place" v="locality" />
		<tag k="ssr:stedsnr" v="741513" />
	</node>
	<node lat="63.54153055848134" lon="10.949897217438036" id="-34868">
		<tag k="fixme" v="consider natural=peak for the most distinct mountains in the district" />
		<tag k="name" v="Hammerkammen" />
		<tag k="natural" v="hill" />
		<tag k="place" v="locality" />
		<tag k="ssr:stedsnr" v="741805" />
	</node>
	<node lat="63.53715833652808" lon="10.860588896019268" id="-34874">
		<tag k="fixme" v="consider natural=peak for the most distinct mountains in the district" />
		<tag k="name" v="Kuåsen" />
		<tag k="natural" v="hill" />
		<tag k="place" v="locality" />
		<tag k="ssr:stedsnr" v="741791" />
	</node>
	<node lat="63.52497222210519" lon="10.930524997274597" id="-34877">
		<tag k="name" v="Valstaddalen" />
		<tag k="natural" v="valley" />
		<tag k="place" v="locality" />
		<tag k="ssr:stedsnr" v="755849" />
	</node>
	<node lat="63.52003055682162" lon="10.941500005664643" id="-34878">
		<tag k="name" v="Svartberga" />
		<tag k="natural" v="hill" />
		<tag k="place" v="locality" />
		<tag k="ssr:stedsnr" v="755856" />
	</node>
	<node lat="63.50903333540439" lon="11.380100005421653" id="-34879">
		<tag k="name" v="Fiskberget" />
		<tag k="natural" v="hill" />
		<tag k="place" v="locality" />
		<tag k="ssr:stedsnr" v="756148" />
	</node>
	<node lat="63.46940000388355" lon="11.514183331617252" id="-34880">
		<tag k="name" v="Hammerhaugen" />
		<tag k="natural" v="hill" />
		<tag k="place" v="locality" />
		<tag k="ssr:stedsnr" v="756157" />
	</node>
	<node lat="63.505944448584884" lon="11.145736105214054" id="-34885">
		<tag k="fixme" v="consider natural=peak for the most distinct mountains in the district" />
		<tag k="name" v="Boliåsen" />
		<tag k="natural" v="hill" />
		<tag k="place" v="locality" />
		<tag k="ssr:stedsnr" v="756402" />
	</node>
	<node lat="63.45588055417115" lon="11.28902500349682" id="-34888">
		<tag k="name" v="Hyllhaugen" />
		<tag k="natural" v="hill" />
		<tag k="place" v="locality" />
		<tag k="ssr:stedsnr" v="756520" />
	</node>
	<node lat="63.399866668968144" lon="11.038686105918925" id="-34893">
		<tag k="name" v="Grindhaugen" />
		<tag k="natural" v="hill" />
		<tag k="place" v="locality" />
		<tag k="ssr:stedsnr" v="756710" />
	</node>
	<node lat="63.48112499707704" lon="10.85042500770435" id="-34897">
		<tag k="fixme" v="consider natural=peak for the most distinct mountains in the district" />
		<tag k="name" v="Vikåsen" />
		<tag k="natural" v="hill" />
		<tag k="place" v="locality" />
		<tag k="ssr:stedsnr" v="756812" />
	</node>
	<node lat="63.37654214873504" lon="11.153584991464431" id="-34901">
		<tag k="name" v="Hoåsvollen" />
		<tag k="place" v="locality" />
		<tag k="ssr:stedsnr" v="775423" />
	</node>
	<node lat="63.52954444326824" lon="11.172758341458023" id="-34906">
		<tag k="fixme" v="consider natural=peak for the most distinct mountains in the district" />
		<tag k="name" v="Åsan" />
		<tag k="natural" v="hill" />
		<tag k="place" v="locality" />
		<tag k="ssr:stedsnr" v="776810" />
	</node>
	<node lat="63.51858333386065" lon="11.172486113002863" id="-34907">
		<tag k="name" v="Hestmålet" />
		<tag k="place" v="locality" />
		<tag k="ssr:stedsnr" v="776821" />
	</node>
	<node lat="63.40388333313248" lon="11.057238895311407" id="-34908">
		<tag k="name" v="Sigertmoen" />
		<tag k="place" v="locality" />
		<tag k="ssr:stedsnr" v="802078" />
	</node>
	<node lat="63.45560832929118" lon="11.14696667496006" id="-34916">
		<tag k="fixme" v="consider natural=peak for the most distinct mountains in the district" />
		<tag k="name" v="Grøthåmmåren" />
		<tag k="natural" v="hill" />
		<tag k="place" v="locality" />
		<tag k="ssr:stedsnr" v="802103" />
	</node>
	<node lat="63.39393889052597" lon="11.333800004985758" id="-34926">
		<tag k="fixme" v="consider natural=peak for the most distinct mountains in the district" />
		<tag k="name" v="Bordhalla" />
		<tag k="natural" v="hill" />
		<tag k="place" v="locality" />
		<tag k="ssr:stedsnr" v="802464" />
	</node>
	<node lat="63.44736388954013" lon="11.293336104456458" id="-34929">
		<tag k="name" v="Trongskodalen" />
		<tag k="natural" v="valley" />
		<tag k="place" v="locality" />
		<tag k="ssr:stedsnr" v="802510" />
	</node>
	<node lat="63.40649722405807" lon="11.114111117815753" id="-34938">
		<tag k="name" v="Borkholet" />
		<tag k="place" v="locality" />
		<tag k="ssr:stedsnr" v="816680" />
	</node>
	<node lat="63.41115555579231" lon="11.206891674423492" id="-34939">
		<tag k="fixme" v="consider natural=peak for the most distinct mountains in the district" />
		<tag k="name" v="Vassåsen" />
		<tag k="natural" v="hill" />
		<tag k="place" v="locality" />
		<tag k="ssr:stedsnr" v="816572" />
	</node>
	<node lat="63.444986111345045" lon="11.002549994482765" id="-34942">
		<tag k="name" v="Spigilberget" />
		<tag k="natural" v="hill" />
		<tag k="place" v="locality" />
		<tag k="ssr:stedsnr" v="816704" />
	</node>
	<node lat="63.46739166499797" lon="10.913900003212715" id="-34951">
		<tag k="name" v="Bjerkan" />
		<tag k="place" v="locality" />
		<tag k="ssr:stedsnr" v="816972" />
	</node>
	<node lat="63.41153333438348" lon="10.916511113876583" id="-34952">
		<tag k="name" v="Brannberget" />
		<tag k="natural" v="hill" />
		<tag k="place" v="locality" />
		<tag k="ssr:stedsnr" v="816976" />
	</node>
	<node lat="63.46308610919935" lon="11.437824999432163" id="-34953">
		<tag k="fixme" v="consider natural=peak for the most distinct mountains in the district" />
		<tag k="name" v="Kringåsen" />
		<tag k="natural" v="hill" />
		<tag k="place" v="locality" />
		<tag k="ssr:stedsnr" v="817111" />
	</node>
	<node lat="63.51009999867051" lon="11.360702774143354" id="-34955">
		<tag k="name" v="Mokjølen" />
		<tag k="place" v="locality" />
		<tag k="ssr:stedsnr" v="817173" />
	</node>
	<node lat="63.490591669880324" lon="11.304686121262247" id="-34957">
		<tag k="name" v="Haugmoen" />
		<tag k="place" v="locality" />
		<tag k="ssr:stedsnr" v="817321" />
	</node>
	<node lat="63.44981944813382" lon="11.332158341401417" id="-34958">
		<tag k="name" v="Rundsletta" />
		<tag k="place" v="locality" />
		<tag k="ssr:stedsnr" v="817273" />
	</node>
	<node lat="63.437425000716956" lon="11.285052778205584" id="-34959">
		<tag k="fixme" v="consider natural=peak for the most distinct mountains in the district" />
		<tag k="name" v="Fageråsen" />
		<tag k="natural" v="hill" />
		<tag k="place" v="locality" />
		<tag k="ssr:stedsnr" v="817280" />
	</node>
	<node lat="63.445686111896556" lon="11.174347230945475" id="-34963">
		<tag k="name" v="Skarpberget" />
		<tag k="natural" v="hill" />
		<tag k="place" v="locality" />
		<tag k="ssr:stedsnr" v="817412" />
	</node>
	<node lat="63.444833336914286" lon="11.103630553957593" id="-34970">
		<tag k="name" v="Bjørnhiet" />
		<tag k="place" v="locality" />
		<tag k="ssr:stedsnr" v="817581" />
	</node>
	<node lat="63.43866666828955" lon="11.15233611232309" id="-34971">
		<tag k="name" v="Brennberget" />
		<tag k="natural" v="hill" />
		<tag k="place" v="locality" />
		<tag k="ssr:stedsnr" v="817592" />
	</node>
	<node lat="63.50673055756186" lon="11.01831943599693" id="-34975">
		<tag k="fixme" v="consider natural=peak for the most distinct mountains in the district" />
		<tag k="name" v="Hovåsen" />
		<tag k="natural" v="hill" />
		<tag k="place" v="locality" />
		<tag k="ssr:stedsnr" v="817772" />
	</node>
	<node lat="63.41209166764855" lon="10.902416671767318" id="-34981">
		<tag k="fixme" v="consider natural=peak for the most distinct mountains in the district" />
		<tag k="name" v="Ramnåsen" />
		<tag k="natural" v="hill" />
		<tag k="place" v="locality" />
		<tag k="ssr:stedsnr" v="923050" />
	</node>
	<node lat="63.4166805554586" lon="11.076169441389256" id="-34983">
		<tag k="fixme" v="consider natural=peak for the most distinct mountains in the district" />
		<tag k="name" v="Langmyråsen" />
		<tag k="natural" v="hill" />
		<tag k="place" v="locality" />
		<tag k="ssr:stedsnr" v="923057" />
	</node>
	<node lat="63.49712500447206" lon="10.92810277681783" id="-34985">
		<tag k="fixme" v="consider natural=peak for the most distinct mountains in the district" />
		<tag k="name" v="Høgåsen" />
		<tag k="natural" v="hill" />
		<tag k="place" v="locality" />
		<tag k="ssr:stedsnr" v="923193" />
	</node>
	<node lat="63.49228055898118" lon="11.143208335270604" id="-34991">
		<tag k="name" v="Ulstadberget" />
		<tag k="natural" v="hill" />
		<tag k="place" v="locality" />
		<tag k="ssr:stedsnr" v="923259" />
	</node>
	<node lat="63.47248611004305" lon="11.40820555793628" id="-34993">
		<tag k="name" v="Brennan" />
		<tag k="natural" v="hill" />
		<tag k="place" v="locality" />
		<tag k="ssr:stedsnr" v="923343" />
	</node>
	<node lat="63.472650002532504" lon="11.304999991615567" id="-34994">
		<tag k="name" v="Stigberget" />
		<tag k="natural" v="hill" />
		<tag k="place" v="locality" />
		<tag k="ssr:stedsnr" v="923350" />
	</node>
	<node lat="63.46580833369017" lon="11.346558336281964" id="-34995">
		<tag k="fixme" v="consider natural=peak for the most distinct mountains in the district" />
		<tag k="name" v="Heståsen" />
		<tag k="natural" v="hill" />
		<tag k="place" v="locality" />
		<tag k="ssr:stedsnr" v="923353" />
	</node>
	<node lat="63.4476638911611" lon="11.31155555346246" id="-35007">
		<tag k="name" v="Litlkleiva" />
		<tag k="natural" v="hill" />
		<tag k="place" v="locality" />
		<tag k="ssr:stedsnr" v="923486" />
	</node>
	<node lat="63.394924999272895" lon="10.92780555650912" id="-35019">
		<tag k="alt_name" v="Julkleiven;Julkleivan" />
		<tag k="fixme" v="consider natural=peak for the most distinct mountains in the district" />
		<tag k="name" v="Julkleiva" />
		<tag k="natural" v="hill" />
		<tag k="place" v="locality" />
		<tag k="ssr:stedsnr" v="923510" />
	</node>
	<node lat="63.56385278127736" lon="11.149291659325838" id="-35033">
		<tag k="fixme" v="consider natural=peak for the most distinct mountains in the district" />
		<tag k="name" v="Høgåsen" />
		<tag k="natural" v="hill" />
		<tag k="place" v="locality" />
		<tag k="ssr:stedsnr" v="836782" />
	</node>
	<node lat="63.38179949614311" lon="11.326120489748872" id="-35035">
		<tag k="name" v="Skaret" />
		<tag k="natural" v="valley" />
		<tag k="place" v="locality" />
		<tag k="ssr:stedsnr" v="837440" />
	</node>
	<node lat="63.530816662885954" lon="11.419738889580417" id="-35039">
		<tag k="name" v="Finnerterdalen" />
		<tag k="natural" v="valley" />
		<tag k="place" v="locality" />
		<tag k="ssr:stedsnr" v="837735" />
	</node>
	<node lat="63.562344441743726" lon="10.960336104737559" id="-35040">
		<tag k="name" v="Høghåmmåren" />
		<tag k="natural" v="ridge" />
		<tag k="place" v="locality" />
		<tag k="ssr:stedsnr" v="837791" />
	</node>
	<node lat="63.49704721993294" lon="11.281247216754636" id="-35041">
		<tag k="name" v="Slåttberga" />
		<tag k="natural" v="hill" />
		<tag k="place" v="locality" />
		<tag k="ssr:stedsnr" v="837676" />
	</node>
	<node lat="63.44512323871802" lon="11.003285546512588" id="-35048">
		<tag k="name" v="Spigilen" />
		<tag k="natural" v="hill" />
		<tag k="place" v="locality" />
		<tag k="ssr:stedsnr" v="863083" />
	</node>
	<node lat="63.48616111501675" lon="11.512500008094177" id="-35053">
		<tag k="fixme" v="consider natural=peak for the most distinct mountains in the district" />
		<tag k="name" v="Bjørnfjellet" />
		<tag k="natural" v="hill" />
		<tag k="place" v="locality" />
		<tag k="ssr:stedsnr" v="863254" />
	</node>
	<node lat="63.43691389007821" lon="11.462727778122055" id="-35060">
		<tag k="name" v="Tortliskardet" />
		<tag k="natural" v="valley" />
		<tag k="place" v="locality" />
		<tag k="ssr:stedsnr" v="863509" />
	</node>
	<node lat="63.53238333146686" lon="10.964216676097378" id="-35065">
		<tag k="name" v="Svartdalen" />
		<tag k="natural" v="valley" />
		<tag k="place" v="locality" />
		<tag k="ssr:stedsnr" v="863744" />
	</node>
	<node lat="63.55041388521952" lon="11.061174994950298" id="-35067">
		<tag k="name" v="Arnstadbjørga" />
		<tag k="natural" v="hill" />
		<tag k="place" v="locality" />
		<tag k="ssr:stedsnr" v="863749" />
	</node>
	<node lat="63.53845277363794" lon="10.969988883468961" id="-35069">
		<tag k="name" v="Torshøgda" />
		<tag k="natural" v="hill" />
		<tag k="place" v="locality" />
		<tag k="ssr:stedsnr" v="863757" />
	</node>
	<node lat="63.376561109637855" lon="11.456483336564215" id="-35072">
		<tag k="name" v="Sonvasshaugen" />
		<tag k="natural" v="hill" />
		<tag k="place" v="locality" />
		<tag k="ssr:stedsnr" v="931237" />
	</node>
	<node lat="63.42926666344786" lon="11.191474991731134" id="-35073">
		<tag k="fixme" v="consider natural=peak for the most distinct mountains in the district" />
		<tag k="name" v="Litl-Skjervåsen" />
		<tag k="natural" v="hill" />
		<tag k="place" v="locality" />
		<tag k="ssr:stedsnr" v="877411" />
	</node>
	<node lat="63.500202780677505" lon="11.093505551001048" id="-35081">
		<tag k="name" v="Laupet" />
		<tag k="place" v="locality" />
		<tag k="ssr:stedsnr" v="877766" />
	</node>
	<node lat="63.52026944556939" lon="10.792230547801331" id="-35083">
		<tag k="name" v="Brannhaugen" />
		<tag k="natural" v="hill" />
		<tag k="place" v="locality" />
		<tag k="ssr:stedsnr" v="877906" />
	</node>
	<node lat="63.528880559847266" lon="10.794944453480799" id="-35084">
		<tag k="name" v="Sandberga" />
		<tag k="natural" v="hill" />
		<tag k="place" v="locality" />
		<tag k="ssr:stedsnr" v="877908" />
	</node>
	<node lat="63.526013891287874" lon="10.786436115727751" id="-35086">
		<tag k="fixme" v="consider natural=peak for the most distinct mountains in the district" />
		<tag k="name" v="Høgkammen" />
		<tag k="natural" v="hill" />
		<tag k="place" v="locality" />
		<tag k="ssr:stedsnr" v="877917" />
	</node>
	<node lat="63.53122499771468" lon="10.844377782217844" id="-35087">
		<tag k="fixme" v="consider natural=peak for the most distinct mountains in the district" />
		<tag k="name" v="Tilderberget" />
		<tag k="natural" v="hill" />
		<tag k="place" v="locality" />
		<tag k="ssr:stedsnr" v="877919" />
	</node>
	<node lat="63.50540555106595" lon="10.948916673331958" id="-35090">
		<tag k="name" v="Tjønnmyrløfta" />
		<tag k="place" v="locality" />
		<tag k="ssr:stedsnr" v="877807" />
	</node>
	<node lat="63.535969444896914" lon="10.889188891899288" id="-35092">
		<tag k="name" v="Svahyllan" />
		<tag k="natural" v="hill" />
		<tag k="place" v="locality" />
		<tag k="ssr:stedsnr" v="877851" />
	</node>
	<node lat="63.52763888519438" lon="10.901722229907302" id="-35093">
		<tag k="name" v="Nonsskardet" />
		<tag k="natural" v="valley" />
		<tag k="place" v="locality" />
		<tag k="ssr:stedsnr" v="877855" />
	</node>
	<node lat="63.52203610795209" lon="10.88418611334144" id="-35094">
		<tag k="name" v="Høgbrannberga" />
		<tag k="natural" v="hill" />
		<tag k="place" v="locality" />
		<tag k="ssr:stedsnr" v="877856" />
	</node>
	<node lat="63.51533333622579" lon="10.859638886932823" id="-35095">
		<tag k="name" v="Lisbetberget" />
		<tag k="natural" v="hill" />
		<tag k="place" v="locality" />
		<tag k="ssr:stedsnr" v="877861" />
	</node>
	<node lat="63.50586944379633" lon="11.46243055412524" id="-35098">
		<tag k="name" v="Brattreina" />
		<tag k="natural" v="slope" />
		<tag k="place" v="locality" />
		<tag k="ssr:stedsnr" v="878154" />
	</node>
	<node lat="63.472530555855045" lon="11.418038890292754" id="-35100">
		<tag k="name" v="Brenna" />
		<tag k="place" v="locality" />
		<tag k="ssr:stedsnr" v="878209" />
	</node>
	<node lat="63.481613891263414" lon="11.228630563887965" id="-35102">
		<tag k="name" v="Oterhammeren" />
		<tag k="place" v="locality" />
		<tag k="ssr:stedsnr" v="878509" />
	</node>
	<node lat="63.47654722459298" lon="11.201938893091299" id="-35104">
		<tag k="name" v="Bursdalen" />
		<tag k="natural" v="valley" />
		<tag k="place" v="locality" />
		<tag k="ssr:stedsnr" v="878528" />
	</node>
	<node lat="63.4379777815703" lon="11.18929166604566" id="-35105">
		<tag k="name" v="Slettbjørga" />
		<tag k="natural" v="hill" />
		<tag k="place" v="locality" />
		<tag k="ssr:stedsnr" v="878459" />
	</node>
	<node lat="63.346370783773594" lon="11.16823117258797" id="-35113">
		<tag k="fixme" v="consider natural=peak for the most distinct mountains in the district" />
		<tag k="name" v="Svartåsen" />
		<tag k="natural" v="hill" />
		<tag k="place" v="locality" />
		<tag k="ssr:stedsnr" v="897420" />
	</node>
	<node lat="63.534688893343635" lon="11.223683335243132" id="-35114">
		<tag k="name" v="Stamndalen" />
		<tag k="natural" v="valley" />
		<tag k="place" v="locality" />
		<tag k="ssr:stedsnr" v="897810" />
	</node>
	<node lat="63.432797218384955" lon="11.072683334312698" id="-35120">
		<tag k="name" v="Snøhaugen" />
		<tag k="natural" v="hill" />
		<tag k="place" v="locality" />
		<tag k="ssr:stedsnr" v="923141" />
	</node>
	<node lat="63.47721667091508" lon="11.364686111219683" id="-35130">
		<tag k="alt_name" v="Dugurdshaugen" />
		<tag k="fixme" v="consider natural=peak for the most distinct mountains in the district" />
		<tag k="name" v="Hevla" />
		<tag k="natural" v="hill" />
		<tag k="place" v="locality" />
		<tag k="ssr:stedsnr" v="923285" />
	</node>
	<node lat="63.38396666827587" lon="11.058769441611691" id="-35136">
		<tag k="alt_name" v="Kvålshaugen" />
		<tag k="name" v="Snauberget" />
		<tag k="natural" v="hill" />
		<tag k="place" v="locality" />
		<tag k="ssr:stedsnr" v="923531" />
	</node>
	<node lat="63.5066638904996" lon="10.763302771093837" id="-35139">
		<tag k="fixme" v="consider natural=peak for the most distinct mountains in the district" />
		<tag k="name" v="Kongshåmmåren" />
		<tag k="natural" v="hill" />
		<tag k="place" v="locality" />
		<tag k="ssr:stedsnr" v="923719" />
	</node>
	<node lat="63.53819999605918" lon="11.487949990859489" id="-35142">
		<tag k="fixme" v="consider natural=peak for the most distinct mountains in the district" />
		<tag k="name" v="Sæteråsen" />
		<tag k="natural" v="hill" />
		<tag k="place" v="locality" />
		<tag k="ssr:stedsnr" v="924447" />
	</node>
	<node lat="63.47545278120728" lon="11.540630561071424" id="-35149">
		<tag k="name" v="Fagerlia" />
		<tag k="natural" v="slope" />
		<tag k="place" v="locality" />
		<tag k="ssr:stedsnr" v="938407" />
	</node>
	<node lat="63.54526944726654" lon="11.09173889695745" id="-35151">
		<tag k="name" v="Edvartslandet" />
		<tag k="place" v="locality" />
		<tag k="ssr:stedsnr" v="938710" />
	</node>
	<node lat="63.40320833421753" lon="11.138277781802797" id="-35153">
		<tag k="name" v="Bjørndalen" />
		<tag k="natural" v="valley" />
		<tag k="place" v="locality" />
		<tag k="ssr:stedsnr" v="938620" />
	</node>
	<node lat="63.39928611288309" lon="11.116933333943416" id="-35154">
		<tag k="fixme" v="consider natural=peak for the most distinct mountains in the district" />
		<tag k="name" v="Bergsåsen" />
		<tag k="natural" v="hill" />
		<tag k="place" v="locality" />
		<tag k="ssr:stedsnr" v="938622" />
	</node>
	<node lat="63.534436114539766" lon="10.864955550263884" id="-35160">
		<tag k="name" v="Langsteinberga" />
		<tag k="natural" v="hill" />
		<tag k="place" v="locality" />
		<tag k="ssr:stedsnr" v="938833" />
	</node>
	<node lat="63.54077777923419" lon="10.82985833323711" id="-35163">
		<tag k="name" v="Bakkberget" />
		<tag k="natural" v="hill" />
		<tag k="old_name" v="Håmmårberget;Håmmerberget;Håmmårsberget" />
		<tag k="place" v="locality" />
		<tag k="ssr:stedsnr" v="938916" />
	</node>
	<node lat="63.50219166518532" lon="10.774594439834141" id="-35166">
		<tag k="name" v="Kråkkjerka" />
		<tag k="natural" v="hill" />
		<tag k="place" v="locality" />
		<tag k="ssr:stedsnr" v="938942" />
	</node>
	<node lat="63.49521389255356" lon="11.451113886668942" id="-35167">
		<tag k="name" v="Talgflåa" />
		<tag k="place" v="locality" />
		<tag k="ssr:stedsnr" v="939142" />
	</node>
	<node lat="63.488683332604765" lon="11.290455552118074" id="-35169">
		<tag k="name" v="Grindbekkdalen" />
		<tag k="natural" v="valley" />
		<tag k="place" v="locality" />
		<tag k="ssr:stedsnr" v="939308" />
	</node>
	<node lat="63.48276667091926" lon="11.249902768585935" id="-35170">
		<tag k="name" v="Bjørnstokkdalen" />
		<tag k="natural" v="valley" />
		<tag k="place" v="locality" />
		<tag k="ssr:stedsnr" v="939313" />
	</node>
	<node lat="63.47434444879608" lon="11.254022214208458" id="-35171">
		<tag k="name" v="Høgrya" />
		<tag k="natural" v="ridge" />
		<tag k="place" v="locality" />
		<tag k="ssr:stedsnr" v="939326" />
	</node>
	<node lat="63.531363887951414" lon="11.122213896506924" id="-35175">
		<tag k="fixme" v="consider natural=peak for the most distinct mountains in the district" />
		<tag k="name" v="Trollvassåsen" />
		<tag k="natural" v="hill" />
		<tag k="place" v="locality" />
		<tag k="ssr:stedsnr" v="939498" />
	</node>
	<node lat="63.35375412966333" lon="11.305232065591051" id="-35178">
		<tag k="name" v="Fossvollen" />
		<tag k="place" v="locality" />
		<tag k="ssr:stedsnr" v="957437" />
	</node>
	<node lat="63.38849722198454" lon="11.308955559862094" id="-35182">
		<tag k="name" v="Brennvinshalla" />
		<tag k="natural" v="slope" />
		<tag k="place" v="locality" />
		<tag k="ssr:stedsnr" v="958518" />
	</node>
	<node lat="63.354270633360905" lon="11.063039806905785" id="-35185">
		<tag k="name" v="Matdalen" />
		<tag k="natural" v="valley" />
		<tag k="place" v="locality" />
		<tag k="ssr:stedsnr" v="958419" />
	</node>
	<node lat="63.43506944763622" lon="11.41334444020253" id="-35187">
		<tag k="name" v="Holmkjølen" />
		<tag k="natural" v="hill" />
		<tag k="place" v="locality" />
		<tag k="ssr:stedsnr" v="958734" />
	</node>
	<node lat="63.50260277967699" lon="11.285269435062292" id="-35189">
		<tag k="fixme" v="consider natural=peak for the most distinct mountains in the district" />
		<tag k="name" v="Bordvedåsen" />
		<tag k="natural" v="hill" />
		<tag k="place" v="locality" />
		<tag k="ssr:stedsnr" v="958700" />
	</node>
	<node lat="63.45453889190748" lon="11.13306944670546" id="-35198">
		<tag k="name" v="Tronskodalen" />
		<tag k="natural" v="valley" />
		<tag k="place" v="locality" />
		<tag k="ssr:stedsnr" v="13087" />
	</node>
	<node lat="63.42153055390096" lon="11.045880559464788" id="-35204">
		<tag k="alt_name" v="Våttan" />
		<tag k="name" v="Våttån" />
		<tag k="natural" v="hill" />
		<tag k="place" v="locality" />
		<tag k="ssr:stedsnr" v="13029" />
	</node>
	<node lat="63.497483328984686" lon="11.014161104274725" id="-35219">
		<tag k="fixme" v="consider natural=peak for the most distinct mountains in the district" />
		<tag k="name" v="Reåsan" />
		<tag k="natural" v="hill" />
		<tag k="place" v="locality" />
		<tag k="ssr:stedsnr" v="13241" />
	</node>
	<node lat="63.485369443055276" lon="10.99663889618312" id="-35227">
		<tag k="name" v="Møssjødalen" />
		<tag k="natural" v="valley" />
		<tag k="place" v="locality" />
		<tag k="ssr:stedsnr" v="13262" />
	</node>
	<node lat="63.49810277839635" lon="11.388436101900274" id="-35235">
		<tag k="fixme" v="consider natural=peak for the most distinct mountains in the district" />
		<tag k="name" v="Høgrya" />
		<tag k="natural" v="hill" />
		<tag k="place" v="locality" />
		<tag k="ssr:stedsnr" v="13386" />
	</node>
	<node lat="63.41206666281732" lon="11.508702776388235" id="-35240">
		<tag k="fixme" v="consider natural=peak for the most distinct mountains in the district" />
		<tag k="name" v="Finnkleppen" />
		<tag k="natural" v="hill" />
		<tag k="place" v="locality" />
		<tag k="ssr:stedsnr" v="13431" />
	</node>
	<node lat="63.408450000707155" lon="11.336702774242202" id="-35241">
		<tag k="fixme" v="consider natural=peak for the most distinct mountains in the district" />
		<tag k="name" v="Buåsen" />
		<tag k="natural" v="hill" />
		<tag k="place" v="locality" />
		<tag k="ssr:stedsnr" v="13433" />
	</node>
	<node lat="63.38052777489117" lon="10.861694449882828" id="-35245">
		<tag k="name" v="Refsinghåmmåren" />
		<tag k="natural" v="hill" />
		<tag k="place" v="locality" />
		<tag k="ssr:stedsnr" v="13499" />
	</node>
	<node lat="63.51906666997425" lon="11.194002783235614" id="-35248">
		<tag k="name" v="Rådalen" />
		<tag k="natural" v="valley" />
		<tag k="place" v="locality" />
		<tag k="ssr:stedsnr" v="13728" />
	</node>
	<node lat="63.437305553234374" lon="11.39413054611055" id="-35255">
		<tag k="fixme" v="consider natural=peak for the most distinct mountains in the district" />
		<tag k="name" v="Seteråsen" />
		<tag k="natural" v="hill" />
		<tag k="place" v="locality" />
		<tag k="ssr:stedsnr" v="21168" />
	</node>
	<node lat="63.44835555853144" lon="11.194722216522253" id="-35257">
		<tag k="name" v="Stjørdalen" />
		<tag k="natural" v="valley" />
		<tag k="place" v="locality" />
		<tag k="ssr:stedsnr" v="25831" />
	</node>
	<node lat="63.51316944104014" lon="10.841266667254814" id="-35261">
		<tag k="name" v="Arnstadklimpen" />
		<tag k="natural" v="hill" />
		<tag k="place" v="locality" />
		<tag k="ssr:stedsnr" v="27917" />
	</node>
	<node lat="63.390547225778874" lon="10.872744442513838" id="-35263">
		<tag k="name" v="Røstberga" />
		<tag k="natural" v="hill" />
		<tag k="place" v="locality" />
		<tag k="ssr:stedsnr" v="27943" />
	</node>
	<node lat="63.39210555840308" lon="10.898355564247474" id="-35264">
		<tag k="name" v="Kvitflueberget" />
		<tag k="natural" v="hill" />
		<tag k="place" v="locality" />
		<tag k="ssr:stedsnr" v="27944" />
	</node>
	<node lat="63.45235277668883" lon="11.201975003181754" id="-35269">
		<tag k="name" v="Litlåsmoen" />
		<tag k="place" v="locality" />
		<tag k="ssr:stedsnr" v="28629" />
	</node>
	<node lat="63.392825000182256" lon="11.172136115572515" id="-35271">
		<tag k="name" v="Dugurdshaugen" />
		<tag k="natural" v="hill" />
		<tag k="place" v="locality" />
		<tag k="ssr:stedsnr" v="28632" />
	</node>
	<node lat="63.46982222000565" lon="11.161830555602357" id="-35272">
		<tag k="name" v="Trælstadhaugen" />
		<tag k="natural" v="hill" />
		<tag k="place" v="locality" />
		<tag k="ssr:stedsnr" v="28635" />
	</node>
	<node lat="63.53390833685677" lon="10.973811111239883" id="-35273">
		<tag k="name" v="Nonshaugen" />
		<tag k="natural" v="hill" />
		<tag k="place" v="locality" />
		<tag k="ssr:stedsnr" v="27854" />
	</node>
	<node lat="63.52449722110053" lon="10.93566389598932" id="-35274">
		<tag k="name" v="Hønbyhøgda" />
		<tag k="natural" v="hill" />
		<tag k="place" v="locality" />
		<tag k="ssr:stedsnr" v="27861" />
	</node>
	<node lat="63.511683336286666" lon="11.439261120309236" id="-35277">
		<tag k="name" v="Nepsvea" />
		<tag k="place" v="locality" />
		<tag k="ssr:stedsnr" v="28161" />
	</node>
	<node lat="63.51082222288425" lon="11.467399994827844" id="-35278">
		<tag k="fixme" v="consider natural=peak for the most distinct mountains in the district" />
		<tag k="name" v="Vaktbuhalla" />
		<tag k="natural" v="hill" />
		<tag k="place" v="locality" />
		<tag k="ssr:stedsnr" v="28165" />
	</node>
	<node lat="63.48587778227562" lon="11.46318055634128" id="-35279">
		<tag k="name" v="Fuglleikdalen" />
		<tag k="natural" v="valley" />
		<tag k="place" v="locality" />
		<tag k="ssr:stedsnr" v="28208" />
	</node>
	<node lat="63.47214167005813" lon="11.368502772050457" id="-35280">
		<tag k="name" v="Bringsdalen" />
		<tag k="natural" v="valley" />
		<tag k="place" v="locality" />
		<tag k="ssr:stedsnr" v="28213" />
	</node>
	<node lat="63.44693055585672" lon="11.286041660182388" id="-35281">
		<tag k="name" v="Trongskordalen" />
		<tag k="natural" v="valley" />
		<tag k="place" v="locality" />
		<tag k="ssr:stedsnr" v="28291" />
	</node>
	<node lat="63.490294444503505" lon="11.237255565013584" id="-35282">
		<tag k="name" v="Russuberga" />
		<tag k="natural" v="hill" />
		<tag k="place" v="locality" />
		<tag k="ssr:stedsnr" v="28316" />
	</node>
	<node lat="63.46443611473348" lon="11.372458340881304" id="-35283">
		<tag k="name" v="Båsberget" />
		<tag k="natural" v="hill" />
		<tag k="place" v="locality" />
		<tag k="ssr:stedsnr" v="28389" />
	</node>
	<node lat="63.543063891052206" lon="11.122155559250617" id="-35284">
		<tag k="name" v="Rognhaugen" />
		<tag k="natural" v="hill" />
		<tag k="place" v="locality" />
		<tag k="ssr:stedsnr" v="28472" />
	</node>
	<node lat="63.51224166685048" lon="11.163527777287204" id="-35288">
		<tag k="fixme" v="consider natural=peak for the most distinct mountains in the district" />
		<tag k="name" v="Aunåsen" />
		<tag k="natural" v="hill" />
		<tag k="place" v="locality" />
		<tag k="ssr:stedsnr" v="28443" />
	</node>
	<node lat="63.45121110845851" lon="11.278769438143529" id="-35290">
		<tag k="name" v="Djupdalen" />
		<tag k="natural" v="valley" />
		<tag k="place" v="locality" />
		<tag k="ssr:stedsnr" v="28528" />
	</node>
	<node lat="63.386566668395055" lon="11.092938891038365" id="-35293">
		<tag k="name" v="Kalvhusbakken" />
		<tag k="place" v="locality" />
		<tag k="ssr:stedsnr" v="28689" />
	</node>
	<node lat="63.395152780149765" lon="11.081424999453006" id="-35295">
		<tag k="name" v="Kallstien" />
		<tag k="place" v="locality" />
		<tag k="ssr:stedsnr" v="28695" />
	</node>
	<node lat="63.5466861146561" lon="10.940436102011736" id="-35308">
		<tag k="fixme" v="consider natural=peak for the most distinct mountains in the district" />
		<tag k="name" v="Husmannen" />
		<tag k="natural" v="hill" />
		<tag k="place" v="locality" />
		<tag k="ssr:stedsnr" v="28913" />
	</node>
	<node lat="63.349955553097814" lon="10.915016662088977" id="-35313">
		<tag k="fixme" v="consider natural=peak for the most distinct mountains in the district" />
		<tag k="name" v="Næveråsen" />
		<tag k="natural" v="hill" />
		<tag k="place" v="locality" />
		<tag k="ssr:stedsnr" v="47577" />
	</node>
	<node lat="63.38390280559388" lon="11.336157897480305" id="-35315">
		<tag k="name" v="Moahaugen" />
		<tag k="natural" v="hill" />
		<tag k="place" v="locality" />
		<tag k="ssr:stedsnr" v="47438" />
	</node>
	<node lat="63.416938888501505" lon="11.468305557108387" id="-35318">
		<tag k="name" v="Varghiet" />
		<tag k="place" v="locality" />
		<tag k="ssr:stedsnr" v="48484" />
	</node>
	<node lat="63.55386388643507" lon="11.300824992120022" id="-35319">
		<tag k="name" v="Stokklian" />
		<tag k="natural" v="slope" />
		<tag k="place" v="locality" />
		<tag k="ssr:stedsnr" v="48593" />
	</node>
	<node lat="63.445338891228964" lon="11.425075007530268" id="-35322">
		<tag k="name" v="Sopphaugen" />
		<tag k="natural" v="hill" />
		<tag k="place" v="locality" />
		<tag k="ssr:stedsnr" v="48686" />
	</node>
	<node lat="63.427599995867745" lon="11.41991389061919" id="-35323">
		<tag k="name" v="Fagerlia" />
		<tag k="natural" v="slope" />
		<tag k="place" v="locality" />
		<tag k="ssr:stedsnr" v="48689" />
	</node>
	<node lat="63.56005277714695" lon="10.992955552669539" id="-35324">
		<tag k="name" v="Litlvoldalen" />
		<tag k="natural" v="valley" />
		<tag k="place" v="locality" />
		<tag k="ssr:stedsnr" v="48774" />
	</node>
	<node lat="63.506669445157144" lon="11.258919437423485" id="-35326">
		<tag k="name" v="Tyldvollen" />
		<tag k="place" v="locality" />
		<tag k="ssr:stedsnr" v="48646" />
	</node>
	<node lat="63.538491666590794" lon="11.087258325114558" id="-35329">
		<tag k="name" v="Stordalen" />
		<tag k="natural" v="valley" />
		<tag k="place" v="locality" />
		<tag k="ssr:stedsnr" v="60639" />
	</node>
	<node lat="63.50136389147545" lon="11.028741671389968" id="-35346">
		<tag k="alt_name" v="Kambuåshøgda" />
		<tag k="fixme" v="consider natural=peak for the most distinct mountains in the district" />
		<tag k="name" v="Kamnbuåsen" />
		<tag k="natural" v="hill" />
		<tag k="place" v="locality" />
		<tag k="ssr:stedsnr" v="73686" />
	</node>
	<node lat="63.51209166338678" lon="11.186486104549786" id="-35348">
		<tag k="fixme" v="consider natural=peak for the most distinct mountains in the district" />
		<tag k="name" v="Haverkleiva" />
		<tag k="natural" v="hill" />
		<tag k="place" v="locality" />
		<tag k="ssr:stedsnr" v="73700" />
	</node>
	<node lat="63.40419999571984" lon="11.070919447647748" id="-35352">
		<tag k="name" v="Haukberget" />
		<tag k="natural" v="hill" />
		<tag k="place" v="locality" />
		<tag k="ssr:stedsnr" v="74053" />
	</node>
	<node lat="63.44542777455784" lon="11.080819441525044" id="-35359">
		<tag k="alt_name" v="Svartasen" />
		<tag k="fixme" v="consider natural=peak for the most distinct mountains in the district" />
		<tag k="name" v="Svartåsen" />
		<tag k="natural" v="hill" />
		<tag k="place" v="locality" />
		<tag k="ssr:stedsnr" v="74090" />
	</node>
	<node lat="63.52575555695926" lon="11.528225000830265" id="-35361">
		<tag k="fixme" v="consider natural=peak for the most distinct mountains in the district" />
		<tag k="name" v="Svartåsen" />
		<tag k="natural" v="hill" />
		<tag k="place" v="locality" />
		<tag k="ssr:stedsnr" v="74197" />
	</node>
	<node lat="63.570074995904136" lon="11.435888886231496" id="-35370">
		<tag k="fixme" v="consider natural=peak for the most distinct mountains in the district" />
		<tag k="name" v="Grønvola" />
		<tag k="natural" v="hill" />
		<tag k="place" v="locality" />
		<tag k="ssr:stedsnr" v="74449" />
	</node>
	<node lat="63.38951388741272" lon="11.027525001620331" id="-35373">
		<tag k="alt_name" v="Furahaugen" />
		<tag k="name" v="Furuhaugen" />
		<tag k="natural" v="hill" />
		<tag k="place" v="locality" />
		<tag k="ssr:stedsnr" v="74496" />
	</node>
	<node lat="63.530450002524" lon="11.145805563886048" id="-35376">
		<tag k="fixme" v="consider natural=peak for the most distinct mountains in the district" />
		<tag k="name" v="Måssåhytta" />
		<tag k="natural" v="hill" />
		<tag k="place" v="locality" />
		<tag k="ssr:stedsnr" v="74715" />
	</node>
	<node lat="63.52930277565737" lon="10.815786119093621" id="-35382">
		<tag k="name" v="Heggjasberget" />
		<tag k="natural" v="hill" />
		<tag k="place" v="locality" />
		<tag k="ssr:stedsnr" v="74746" />
	</node>
	<node lat="63.345166663933" lon="11.347863884536894" id="-35384">
		<tag k="name" v="Knollen" />
		<tag k="natural" v="hill" />
		<tag k="place" v="locality" />
		<tag k="ssr:stedsnr" v="81253" />
	</node>
	<node lat="63.37259226251714" lon="11.091154655316911" id="-35387">
		<tag k="name" v="Litlkaråskleiva" />
		<tag k="natural" v="slope" />
		<tag k="place" v="locality" />
		<tag k="ssr:stedsnr" v="229371" />
	</node>
	<node lat="63.44889444392329" lon="11.18420000467193" id="-35391">
		<tag k="name" v="Røstøet" />
		<tag k="place" v="locality" />
		<tag k="ssr:stedsnr" v="88333" />
	</node>
	<node lat="63.437811107814895" lon="11.049222222808472" id="-35396">
		<tag k="name" v="Kampynten" />
		<tag k="natural" v="hill" />
		<tag k="place" v="locality" />
		<tag k="ssr:stedsnr" v="88595" />
	</node>
	<node lat="63.424900001192285" lon="11.125755558325896" id="-35398">
		<tag k="name" v="Flaksjøliin" />
		<tag k="natural" v="slope" />
		<tag k="place" v="locality" />
		<tag k="ssr:stedsnr" v="88448" />
	</node>
	<node lat="63.40941666513325" lon="11.192930546146338" id="-35399">
		<tag k="name" v="Furruhaugen" />
		<tag k="natural" v="hill" />
		<tag k="place" v="locality" />
		<tag k="ssr:stedsnr" v="88456" />
	</node>
	<node lat="63.44431944462675" lon="11.124386109639866" id="-35402">
		<tag k="name" v="Fonnholet" />
		<tag k="natural" v="valley" />
		<tag k="place" v="locality" />
		<tag k="ssr:stedsnr" v="88523" />
	</node>
	<node lat="63.43521111423556" lon="11.164386117612786" id="-35403">
		<tag k="name" v="Barholet" />
		<tag k="natural" v="valley" />
		<tag k="place" v="locality" />
		<tag k="ssr:stedsnr" v="88529" />
	</node>
	<node lat="63.470955559081446" lon="11.175127771300222" id="-35404">
		<tag k="name" v="Leirbakken" />
		<tag k="natural" v="slope" />
		<tag k="place" v="locality" />
		<tag k="ssr:stedsnr" v="88545" />
	</node>
	<node lat="63.46745555304216" lon="11.21913611821202" id="-35405">
		<tag k="name" v="Svartdalen" />
		<tag k="natural" v="valley" />
		<tag k="place" v="locality" />
		<tag k="ssr:stedsnr" v="88548" />
	</node>
	<node lat="63.46138611381538" lon="11.012274993167535" id="-35408">
		<tag k="name" v="Kornhaugen" />
		<tag k="natural" v="hill" />
		<tag k="place" v="locality" />
		<tag k="ssr:stedsnr" v="88630" />
	</node>
	<node lat="63.50057499633126" lon="10.996508334951693" id="-35410">
		<tag k="name" v="Fagerdalen" />
		<tag k="natural" v="valley" />
		<tag k="place" v="locality" />
		<tag k="ssr:stedsnr" v="88724" />
	</node>
	<node lat="63.440411115021675" lon="10.902138886086039" id="-35413">
		<tag k="name" v="Myrbrannen" />
		<tag k="natural" v="hill" />
		<tag k="place" v="locality" />
		<tag k="ssr:stedsnr" v="88787" />
	</node>
	<node lat="63.450069443467555" lon="10.949883332922196" id="-35414">
		<tag k="name" v="Værneleiret" />
		<tag k="place" v="locality" />
		<tag k="ssr:stedsnr" v="88796" />
	</node>
	<node lat="63.48273332970444" lon="10.994952772717905" id="-35417">
		<tag k="fixme" v="consider natural=peak for the most distinct mountains in the district" />
		<tag k="name" v="Rokstadåsen" />
		<tag k="natural" v="hill" />
		<tag k="place" v="locality" />
		<tag k="ssr:stedsnr" v="88710" />
	</node>
	<node lat="63.51934166981916" lon="10.91567500875544" id="-35418">
		<tag k="name" v="Trongsteinklumpen" />
		<tag k="natural" v="hill" />
		<tag k="place" v="locality" />
		<tag k="ssr:stedsnr" v="88841" />
	</node>
	<node lat="63.516586115524134" lon="10.831819440977211" id="-35421">
		<tag k="fixme" v="consider natural=peak for the most distinct mountains in the district" />
		<tag k="name" v="Arnstadåsen" />
		<tag k="natural" v="hill" />
		<tag k="place" v="locality" />
		<tag k="ssr:stedsnr" v="88929" />
	</node>
	<node lat="63.49431666506461" lon="10.810052787237206" id="-35425">
		<tag k="name" v="Aurberget" />
		<tag k="natural" v="hill" />
		<tag k="place" v="locality" />
		<tag k="ssr:stedsnr" v="88947" />
	</node>
	<node lat="63.39192777945" lon="10.888913888644932" id="-35426">
		<tag k="fixme" v="consider natural=peak for the most distinct mountains in the district" />
		<tag k="name" v="Bekkåsen" />
		<tag k="natural" v="hill" />
		<tag k="place" v="locality" />
		<tag k="ssr:stedsnr" v="88956" />
	</node>
	<node lat="63.40642778033558" lon="10.9026472187579" id="-35427">
		<tag k="name" v="Liin" />
		<tag k="place" v="locality" />
		<tag k="ssr:stedsnr" v="88958" />
	</node>
	<node lat="63.39510277812748" lon="10.96505277583837" id="-35433">
		<tag k="name" v="Nonshåmmåren" />
		<tag k="natural" v="hill" />
		<tag k="place" v="locality" />
		<tag k="ssr:stedsnr" v="88964" />
	</node>
	<node lat="63.46942221785858" lon="11.534622227654655" id="-35434">
		<tag k="name" v="Bølhammeren" />
		<tag k="natural" v="hill" />
		<tag k="place" v="locality" />
		<tag k="ssr:stedsnr" v="89188" />
	</node>
	<node lat="63.47215555207127" lon="11.411972230525445" id="-35435">
		<tag k="name" v="Nordfarardalen" />
		<tag k="natural" v="valley" />
		<tag k="place" v="locality" />
		<tag k="ssr:stedsnr" v="89197" />
	</node>
	<node lat="63.47524999588722" lon="11.392847215241005" id="-35436">
		<tag k="fixme" v="consider natural=peak for the most distinct mountains in the district" />
		<tag k="name" v="Gammelseteråsen" />
		<tag k="natural" v="hill" />
		<tag k="place" v="locality" />
		<tag k="ssr:stedsnr" v="89199" />
	</node>
	<node lat="63.48951388651489" lon="11.426841657501805" id="-35437">
		<tag k="fixme" v="consider natural=peak for the most distinct mountains in the district" />
		<tag k="name" v="Storsteinåsen" />
		<tag k="natural" v="hill" />
		<tag k="place" v="locality" />
		<tag k="ssr:stedsnr" v="89204" />
	</node>
	<node lat="63.45788888825832" lon="11.434144453227557" id="-35439">
		<tag k="name" v="Kjelberget" />
		<tag k="natural" v="hill" />
		<tag k="place" v="locality" />
		<tag k="ssr:stedsnr" v="89418" />
	</node>
	<node lat="63.48425832975103" lon="11.392877784765288" id="-35442">
		<tag k="name" v="Buvollen" />
		<tag k="place" v="locality" />
		<tag k="ssr:stedsnr" v="89149" />
	</node>
	<node lat="63.453180552472034" lon="11.32641666997282" id="-35443">
		<tag k="name" v="Stamnberget" />
		<tag k="natural" v="hill" />
		<tag k="place" v="locality" />
		<tag k="ssr:stedsnr" v="89286" />
	</node>
	<node lat="63.447772223805686" lon="11.238958327007648" id="-35444">
		<tag k="name" v="Mikjelløfta" />
		<tag k="place" v="locality" />
		<tag k="ssr:stedsnr" v="89287" />
	</node>
	<node lat="63.47781110801" lon="11.228705562612074" id="-35450">
		<tag k="name" v="Stordalen" />
		<tag k="natural" v="valley" />
		<tag k="place" v="locality" />
		<tag k="ssr:stedsnr" v="89496" />
	</node>
	<node lat="63.503447218539144" lon="11.158491666577204" id="-35453">
		<tag k="name" v="Steinholet" />
		<tag k="place" v="locality" />
		<tag k="ssr:stedsnr" v="89440" />
	</node>
	<node lat="63.44769444818481" lon="11.20524444015216" id="-35455">
		<tag k="name" v="Grindhølen" />
		<tag k="place" v="locality" />
		<tag k="ssr:stedsnr" v="89450" />
	</node>
	<node lat="63.49609999956156" lon="11.158780552495571" id="-35456">
		<tag k="fixme" v="consider natural=peak for the most distinct mountains in the district" />
		<tag k="name" v="Stauråsen" />
		<tag k="natural" v="hill" />
		<tag k="place" v="locality" />
		<tag k="ssr:stedsnr" v="89464" />
	</node>
	<node lat="63.42683332942233" lon="11.017952771710572" id="-35457">
		<tag k="name" v="Svarthyllan" />
		<tag k="place" v="locality" />
		<tag k="ssr:stedsnr" v="89853" />
	</node>
	<node lat="63.414233337780324" lon="11.011016667090413" id="-35458">
		<tag k="name" v="Svartberget" />
		<tag k="natural" v="hill" />
		<tag k="place" v="locality" />
		<tag k="ssr:stedsnr" v="89857" />
	</node>
	<node lat="63.48633611412072" lon="11.281599990461308" id="-35459">
		<tag k="name" v="Forradalen" />
		<tag k="natural" v="valley" />
		<tag k="place" v="locality" />
		<tag k="ssr:stedsnr" v="99243" />
	</node>
	<node lat="63.364318593483006" lon="11.36504139134704" id="-35465">
		<tag k="fixme" v="consider natural=peak for the most distinct mountains in the district" />
		<tag k="name" v="Svartåsen" />
		<tag k="natural" v="hill" />
		<tag k="place" v="locality" />
		<tag k="ssr:stedsnr" v="107525" />
	</node>
	<node lat="63.40339444671332" lon="11.305677785198943" id="-35466">
		<tag k="name" v="Romvollen" />
		<tag k="place" v="locality" />
		<tag k="ssr:stedsnr" v="108499" />
	</node>
	<node lat="63.4153805562918" lon="11.329166668411697" id="-35469">
		<tag k="fixme" v="consider natural=peak for the most distinct mountains in the district" />
		<tag k="name" v="Grøntjønnåsen" />
		<tag k="natural" v="hill" />
		<tag k="place" v="locality" />
		<tag k="ssr:stedsnr" v="108517" />
	</node>
	<node lat="63.35147406538772" lon="11.236269952168726" id="-35472">
		<tag k="fixme" v="consider natural=peak for the most distinct mountains in the district" />
		<tag k="name" v="Svartåsen" />
		<tag k="natural" v="hill" />
		<tag k="place" v="locality" />
		<tag k="ssr:stedsnr" v="108446" />
	</node>
	<node lat="63.37418495639237" lon="11.125898160554883" id="-35473">
		<tag k="name" v="Fjøssletta" />
		<tag k="place" v="locality" />
		<tag k="ssr:stedsnr" v="108453" />
	</node>
	<node lat="63.55936944812476" lon="11.348947223707388" id="-35478">
		<tag k="name" v="Kjerringdalen" />
		<tag k="natural" v="valley" />
		<tag k="place" v="locality" />
		<tag k="ssr:stedsnr" v="108764" />
	</node>
	<node lat="63.50470555303948" lon="11.20793332984667" id="-35481">
		<tag k="name" v="Svartkjølen" />
		<tag k="natural" v="ridge" />
		<tag k="place" v="locality" />
		<tag k="ssr:stedsnr" v="109615" />
	</node>
	<node lat="63.50696944826619" lon="11.199336109920248" id="-35482">
		<tag k="name" v="Storkjølen" />
		<tag k="natural" v="ridge" />
		<tag k="place" v="locality" />
		<tag k="ssr:stedsnr" v="109616" />
	</node>
	<node lat="63.55092222264146" lon="11.401080565419226" id="-35484">
		<tag k="name" v="Mosterdalen" />
		<tag k="natural" v="valley" />
		<tag k="place" v="locality" />
		<tag k="ssr:stedsnr" v="109692" />
	</node>
	<node lat="63.56555833780373" lon="11.0379055526095" id="-35485">
		<tag k="fixme" v="consider natural=peak for the most distinct mountains in the district" />
		<tag k="name" v="Oksteråsen" />
		<tag k="natural" v="hill" />
		<tag k="place" v="locality" />
		<tag k="ssr:stedsnr" v="109756" />
	</node>
	<node lat="63.435747225409614" lon="10.994644440259833" id="-35490">
		<tag k="name" v="Svortesmoen" />
		<tag k="place" v="locality" />
		<tag k="ssr:stedsnr" v="134130" />
	</node>
	<node lat="63.458258336503896" lon="11.2170138806239" id="-35494">
		<tag k="fixme" v="consider natural=peak for the most distinct mountains in the district" />
		<tag k="name" v="Våttån" />
		<tag k="natural" v="hill" />
		<tag k="place" v="locality" />
		<tag k="ssr:stedsnr" v="134090" />
	</node>
	<node lat="63.38322221914508" lon="11.02662499534988" id="-35518">
		<tag k="name" v="Bråttan" />
		<tag k="natural" v="hill" />
		<tag k="place" v="locality" />
		<tag k="ssr:stedsnr" v="134536" />
	</node>
	<node lat="63.53638333342789" lon="10.903330564415905" id="-35521">
		<tag k="name" v="Kvitberga" />
		<tag k="natural" v="hill" />
		<tag k="place" v="locality" />
		<tag k="ssr:stedsnr" v="134774" />
	</node>
	<node lat="63.51286666792982" lon="10.95493612092995" id="-35522">
		<tag k="fixme" v="consider natural=peak for the most distinct mountains in the district" />
		<tag k="name" v="Bukammen" />
		<tag k="natural" v="hill" />
		<tag k="place" v="locality" />
		<tag k="ssr:stedsnr" v="134718" />
	</node>
	<node lat="63.48518333634987" lon="11.405549997090425" id="-35527">
		<tag k="fixme" v="consider natural=peak for the most distinct mountains in the district" />
		<tag k="name" v="Bubjørga" />
		<tag k="natural" v="hill" />
		<tag k="place" v="locality" />
		<tag k="ssr:stedsnr" v="142263" />
	</node>
	<node lat="63.3991833294439" lon="11.44640277075905" id="-35528">
		<tag k="name" v="Svartkruthaugen" />
		<tag k="natural" v="hill" />
		<tag k="place" v="locality" />
		<tag k="ssr:stedsnr" v="142266" />
	</node>
	<node lat="63.421186110590575" lon="11.10646110232374" id="-35529">
		<tag k="name" v="Klokkhaugen" />
		<tag k="natural" v="hill" />
		<tag k="place" v="locality" />
		<tag k="ssr:stedsnr" v="148546" />
	</node>
	<node lat="63.45791110800828" lon="11.123936102202837" id="-35534">
		<tag k="name" v="Flåhallin" />
		<tag k="natural" v="slope" />
		<tag k="place" v="locality" />
		<tag k="ssr:stedsnr" v="148648" />
	</node>
	<node lat="63.39660833219326" lon="11.095050008167387" id="-35535">
		<tag k="name" v="Steinfallet" />
		<tag k="place" v="locality" />
		<tag k="ssr:stedsnr" v="149675" />
	</node>
	<node lat="63.40471388586753" lon="11.086227783110502" id="-35537">
		<tag k="name" v="Sjøhaugen" />
		<tag k="natural" v="hill" />
		<tag k="place" v="locality" />
		<tag k="ssr:stedsnr" v="149684" />
	</node>
	<node lat="63.402952775738335" lon="11.08040277168813" id="-35538">
		<tag k="name" v="Sagdalen" />
		<tag k="natural" v="valley" />
		<tag k="place" v="locality" />
		<tag k="ssr:stedsnr" v="149688" />
	</node>
	<node lat="63.48847500383771" lon="10.94906389005257" id="-35547">
		<tag k="name" v="Hylberget" />
		<tag k="natural" v="hill" />
		<tag k="place" v="locality" />
		<tag k="ssr:stedsnr" v="148871" />
	</node>
	<node lat="63.47545000060743" lon="10.96569165912362" id="-35548">
		<tag k="name" v="Storhaugen" />
		<tag k="natural" v="hill" />
		<tag k="place" v="locality" />
		<tag k="ssr:stedsnr" v="148876" />
	</node>
	<node lat="63.52139999732767" lon="10.793236114037583" id="-35552">
		<tag k="name" v="Alstadhaugen" />
		<tag k="natural" v="hill" />
		<tag k="place" v="locality" />
		<tag k="ssr:stedsnr" v="148895" />
	</node>
	<node lat="63.45904444551315" lon="11.499800003087037" id="-35554">
		<tag k="name" v="Bjørndalen" />
		<tag k="natural" v="valley" />
		<tag k="place" v="locality" />
		<tag k="ssr:stedsnr" v="149164" />
	</node>
	<node lat="63.42500555915755" lon="10.90298333298416" id="-35555">
		<tag k="name" v="Klammerberget" />
		<tag k="natural" v="hill" />
		<tag k="place" v="locality" />
		<tag k="ssr:stedsnr" v="148922" />
	</node>
	<node lat="63.50922777781816" lon="10.766213893458202" id="-35556">
		<tag k="fixme" v="consider natural=peak for the most distinct mountains in the district" />
		<tag k="name" v="Høgåsen" />
		<tag k="natural" v="hill" />
		<tag k="place" v="locality" />
		<tag k="ssr:stedsnr" v="148929" />
	</node>
	<node lat="63.392547218184994" lon="10.880455550339024" id="-35557">
		<tag k="name" v="Stormoen" />
		<tag k="place" v="locality" />
		<tag k="ssr:stedsnr" v="148951" />
	</node>
	<node lat="63.51011944587287" lon="11.475136120878467" id="-35559">
		<tag k="name" v="Vidjehaugen" />
		<tag k="natural" v="hill" />
		<tag k="place" v="locality" />
		<tag k="ssr:stedsnr" v="149135" />
	</node>
	<node lat="63.450700001336166" lon="11.471750005849021" id="-35561">
		<tag k="name" v="Kamman" />
		<tag k="natural" v="hill" />
		<tag k="place" v="locality" />
		<tag k="ssr:stedsnr" v="149142" />
	</node>
	<node lat="63.48285555312133" lon="11.316669442342477" id="-35565">
		<tag k="name" v="Egga" />
		<tag k="natural" v="ridge" />
		<tag k="place" v="locality" />
		<tag k="ssr:stedsnr" v="149317" />
	</node>
	<node lat="63.50105832957281" lon="11.333533328134084" id="-35568">
		<tag k="name" v="Kvitberget" />
		<tag k="natural" v="hill" />
		<tag k="place" v="locality" />
		<tag k="ssr:stedsnr" v="149280" />
	</node>
	<node lat="63.48942499906241" lon="11.286919435469015" id="-35570">
		<tag k="name" v="Trøtoppen" />
		<tag k="place" v="locality" />
		<tag k="ssr:stedsnr" v="149294" />
	</node>
	<node lat="63.44029166540633" lon="11.196924989968517" id="-35574">
		<tag k="name" v="Nesitrøa" />
		<tag k="place" v="locality" />
		<tag k="ssr:stedsnr" v="149397" />
	</node>
	<node lat="63.39234166905654" lon="11.210355547003292" id="-35575">
		<tag k="fixme" v="consider natural=peak for the most distinct mountains in the district" />
		<tag k="name" v="Storkjølåsan" />
		<tag k="natural" v="hill" />
		<tag k="place" v="locality" />
		<tag k="ssr:stedsnr" v="149614" />
	</node>
	<node lat="63.39342500321584" lon="11.136536113171706" id="-35578">
		<tag k="name" v="Kleiva" />
		<tag k="place" v="locality" />
		<tag k="ssr:stedsnr" v="149638" />
	</node>
	<node lat="63.44672499655171" lon="11.04262776783467" id="-35579">
		<tag k="fixme" v="consider natural=peak for the most distinct mountains in the district" />
		<tag k="name" v="Nonsåsen" />
		<tag k="natural" v="hill" />
		<tag k="place" v="locality" />
		<tag k="ssr:stedsnr" v="149647" />
	</node>
	<node lat="63.48240832973541" lon="11.044194445260883" id="-35580">
		<tag k="name" v="Svedalen" />
		<tag k="natural" v="valley" />
		<tag k="place" v="locality" />
		<tag k="ssr:stedsnr" v="149724" />
	</node>
	<node lat="63.53203611048737" lon="11.109700009977253" id="-35581">
		<tag k="name" v="Stamtjønnbjørga" />
		<tag k="natural" v="slope" />
		<tag k="place" v="locality" />
		<tag k="ssr:stedsnr" v="149476" />
	</node>
	<node lat="63.53225277628965" lon="11.121644450160106" id="-35582">
		<tag k="name" v="Trollvasskleiva" />
		<tag k="place" v="locality" />
		<tag k="ssr:stedsnr" v="149478" />
	</node>
	<node lat="63.53531944246183" lon="11.135577771250055" id="-35584">
		<tag k="name" v="Trollvassbjørga" />
		<tag k="natural" v="slope" />
		<tag k="place" v="locality" />
		<tag k="ssr:stedsnr" v="149483" />
	</node>
	<node lat="63.54489167105165" lon="11.05575832608107" id="-35586">
		<tag k="fixme" v="consider natural=peak for the most distinct mountains in the district" />
		<tag k="name" v="Kjerringåsen" />
		<tag k="natural" v="hill" />
		<tag k="place" v="locality" />
		<tag k="ssr:stedsnr" v="149575" />
	</node>
	<node lat="63.47368333631825" lon="11.017291668926264" id="-35588">
		<tag k="name" v="Hofstadhyllan" />
		<tag k="place" v="locality" />
		<tag k="ssr:stedsnr" v="149738" />
	</node>
	<node lat="63.429935375102616" lon="10.899555562185707" id="-35589">
		<tag k="fixme" v="consider natural=peak for the most distinct mountains in the district" />
		<tag k="name" v="Snauskallen" />
		<tag k="natural" v="hill" />
		<tag k="place" v="locality" />
		<tag k="ssr:stedsnr" v="149829" />
	</node>
	<node lat="63.43461666537618" lon="10.922316665703931" id="-35591">
		<tag k="name" v="Bjørgberget" />
		<tag k="natural" v="hill" />
		<tag k="place" v="locality" />
		<tag k="ssr:stedsnr" v="149840" />
	</node>
	<node lat="63.426927776200706" lon="11.04140832626402" id="-35592">
		<tag k="fixme" v="consider natural=peak for the most distinct mountains in the district" />
		<tag k="name" v="Seteråsen" />
		<tag k="natural" v="hill" />
		<tag k="place" v="locality" />
		<tag k="ssr:stedsnr" v="149878" />
	</node>
	<node lat="63.38146944894817" lon="11.078269444907376" id="-35593">
		<tag k="fixme" v="consider natural=peak for the most distinct mountains in the district" />
		<tag k="name" v="Høgåsen" />
		<tag k="natural" v="hill" />
		<tag k="place" v="locality" />
		<tag k="ssr:stedsnr" v="229416" />
	</node>
	<node lat="63.44546110869305" lon="11.352408328244573" id="-35595">
		<tag k="name" v="Styggdalen" />
		<tag k="natural" v="valley" />
		<tag k="place" v="locality" />
		<tag k="ssr:stedsnr" v="229546" />
	</node>
	<node lat="63.44705833642266" lon="11.308069436110394" id="-35596">
		<tag k="name" v="Mølsknesvollen" />
		<tag k="place" v="locality" />
		<tag k="ssr:stedsnr" v="229548" />
	</node>
	<node lat="63.356033334857656" lon="11.204936106092598" id="-35599">
		<tag k="name" v="Portskardet" />
		<tag k="natural" v="valley" />
		<tag k="place" v="locality" />
		<tag k="ssr:stedsnr" v="167345" />
	</node>
	<node lat="63.36660555751531" lon="10.90113889351484" id="-35600">
		<tag k="name" v="Møsmørkleiva" />
		<tag k="natural" v="slope" />
		<tag k="place" v="locality" />
		<tag k="ssr:stedsnr" v="168577" />
	</node>
	<node lat="63.37274982001961" lon="11.053641852521425" id="-35601">
		<tag k="fixme" v="consider natural=peak for the most distinct mountains in the district" />
		<tag k="name" v="Brannåsen" />
		<tag k="natural" v="hill" />
		<tag k="place" v="locality" />
		<tag k="ssr:stedsnr" v="169423" />
	</node>
	<node lat="63.34830940951277" lon="11.139200001251645" id="-35603">
		<tag k="name" v="Bjønndalen" />
		<tag k="natural" v="valley" />
		<tag k="place" v="locality" />
		<tag k="ssr:stedsnr" v="169451" />
	</node>
	<node lat="63.406094443322935" lon="11.271788881497773" id="-35604">
		<tag k="name" v="Rønsåsvollen" />
		<tag k="place" v="locality" />
		<tag k="ssr:stedsnr" v="169491" />
	</node>
	<node lat="63.44581111234129" lon="11.301191661871766" id="-35607">
		<tag k="name" v="Bjørgvollen" />
		<tag k="place" v="locality" />
		<tag k="ssr:stedsnr" v="169543" />
	</node>
	<node lat="63.40844999562435" lon="11.407780564052763" id="-35608">
		<tag k="name" v="Sopphaugen" />
		<tag k="natural" v="hill" />
		<tag k="place" v="locality" />
		<tag k="ssr:stedsnr" v="169545" />
	</node>
	<node lat="63.42642499912869" lon="11.434466661053156" id="-35609">
		<tag k="name" v="Rundhaugen" />
		<tag k="natural" v="hill" />
		<tag k="place" v="locality" />
		<tag k="ssr:stedsnr" v="169547" />
	</node>
	<node lat="63.528688893140725" lon="11.505191664081527" id="-35610">
		<tag k="fixme" v="consider natural=peak for the most distinct mountains in the district" />
		<tag k="name" v="Rundåsen" />
		<tag k="natural" v="hill" />
		<tag k="place" v="locality" />
		<tag k="ssr:stedsnr" v="169689" />
	</node>
	<node lat="63.530263884687365" lon="11.511166674435735" id="-35611">
		<tag k="name" v="Aunvollen" />
		<tag k="place" v="locality" />
		<tag k="ssr:stedsnr" v="169690" />
	</node>
	<node lat="63.55708610715189" lon="11.365797223978301" id="-35615">
		<tag k="fixme" v="consider natural=peak for the most distinct mountains in the district" />
		<tag k="name" v="Limsteinåsen" />
		<tag k="natural" v="hill" />
		<tag k="place" v="locality" />
		<tag k="ssr:stedsnr" v="170819" />
	</node>
	<node lat="63.43747221999109" lon="11.066247222816637" id="-35623">
		<tag k="fixme" v="consider natural=peak for the most distinct mountains in the district" />
		<tag k="name" v="Talgåsen" />
		<tag k="natural" v="hill" />
		<tag k="place" v="locality" />
		<tag k="ssr:stedsnr" v="195114" />
	</node>
	<node lat="63.46602499835099" lon="10.998780552399541" id="-35631">
		<tag k="name" v="Bjørdalen" />
		<tag k="natural" v="valley" />
		<tag k="place" v="locality" />
		<tag k="ssr:stedsnr" v="195182" />
	</node>
	<node lat="63.536399998290776" lon="11.4334361176355" id="-35642">
		<tag k="fixme" v="consider natural=peak for the most distinct mountains in the district" />
		<tag k="name" v="Almlivola" />
		<tag k="natural" v="hill" />
		<tag k="place" v="locality" />
		<tag k="ssr:stedsnr" v="195510" />
	</node>
	<node lat="63.522041664894594" lon="11.474169434394257" id="-35646">
		<tag k="fixme" v="consider natural=peak for the most distinct mountains in the district" />
		<tag k="name" v="Høgåsen" />
		<tag k="natural" v="hill" />
		<tag k="place" v="locality" />
		<tag k="ssr:stedsnr" v="195514" />
	</node>
	<node lat="63.47983611350124" lon="11.387236107106286" id="-35650">
		<tag k="name" v="Limdalen" />
		<tag k="natural" v="valley" />
		<tag k="place" v="locality" />
		<tag k="ssr:stedsnr" v="195291" />
	</node>
	<node lat="63.35995833130999" lon="11.206327786241223" id="-35658">
		<tag k="name" v="Portskardet" />
		<tag k="natural" v="valley" />
		<tag k="place" v="locality" />
		<tag k="ssr:stedsnr" v="195403" />
	</node>
	<node lat="63.36353888525439" lon="10.934016676188385" id="-35660">
		<tag k="fixme" v="consider natural=peak for the most distinct mountains in the district" />
		<tag k="name" v="Rennåsen" />
		<tag k="natural" v="hill" />
		<tag k="place" v="locality" />
		<tag k="ssr:stedsnr" v="195424" />
	</node>
	<node lat="63.44663333360238" lon="11.331308332621877" id="-35664">
		<tag k="name" v="Storkleiva" />
		<tag k="natural" v="hill" />
		<tag k="place" v="locality" />
		<tag k="ssr:stedsnr" v="195469" />
	</node>
	<node lat="63.572422223660915" lon="11.304000009696091" id="-35665">
		<tag k="alt_name" v="Høgsæterdalen" />
		<tag k="name" v="Høgseterdalen" />
		<tag k="natural" v="valley" />
		<tag k="place" v="locality" />
		<tag k="ssr:stedsnr" v="195477" />
	</node>
	<node lat="63.53160833654032" lon="11.035274993004476" id="-35674">
		<tag k="fixme" v="consider natural=peak for the most distinct mountains in the district" />
		<tag k="name" v="Langegga" />
		<tag k="natural" v="hill" />
		<tag k="place" v="locality" />
		<tag k="ssr:stedsnr" v="195751" />
	</node>
	<node lat="63.5428861152143" lon="10.943891665305836" id="-35676">
		<tag k="alt_name" v="Høghuva" />
		<tag k="name" v="Karthaugan" />
		<tag k="natural" v="hill" />
		<tag k="place" v="locality" />
		<tag k="ssr:stedsnr" v="195762" />
	</node>
	<node lat="63.4135722235402" lon="11.477108334960437" id="-35680">
		<tag k="name" v="Vargdalen" />
		<tag k="natural" v="valley" />
		<tag k="place" v="locality" />
		<tag k="ssr:stedsnr" v="203258" />
	</node>
	<node lat="63.48157500445572" lon="11.320233329026843" id="-35683">
		<tag k="name" v="Styggdalen" />
		<tag k="natural" v="valley" />
		<tag k="place" v="locality" />
		<tag k="ssr:stedsnr" v="210347" />
	</node>
	<node lat="63.48758888624835" lon="11.136352786666926" id="-35685">
		<tag k="name" v="Kleiva" />
		<tag k="natural" v="hill" />
		<tag k="place" v="locality" />
		<tag k="ssr:stedsnr" v="210436" />
	</node>
	<node lat="63.48016666500708" lon="11.152619440740647" id="-35686">
		<tag k="name" v="Stamnhåmmåren" />
		<tag k="natural" v="hill" />
		<tag k="place" v="locality" />
		<tag k="ssr:stedsnr" v="210439" />
	</node>
	<node lat="63.43049444056288" lon="11.155258339575088" id="-35690">
		<tag k="fixme" v="consider natural=peak for the most distinct mountains in the district" />
		<tag k="name" v="Bråtta" />
		<tag k="natural" v="hill" />
		<tag k="place" v="locality" />
		<tag k="ssr:stedsnr" v="210421" />
	</node>
	<node lat="63.39948610996838" lon="11.135144443020057" id="-35692">
		<tag k="fixme" v="consider natural=peak for the most distinct mountains in the district" />
		<tag k="name" v="Storåsen" />
		<tag k="natural" v="hill" />
		<tag k="place" v="locality" />
		<tag k="ssr:stedsnr" v="210650" />
	</node>
	<node lat="63.38989166553459" lon="11.13900556503739" id="-35694">
		<tag k="name" v="Hoåsbjørga" />
		<tag k="natural" v="slope" />
		<tag k="place" v="locality" />
		<tag k="ssr:stedsnr" v="210655" />
	</node>
	<node lat="63.53926389160195" lon="11.120275008754295" id="-35695">
		<tag k="fixme" v="consider natural=peak for the most distinct mountains in the district" />
		<tag k="name" v="Korstjønnåskammen" />
		<tag k="natural" v="hill" />
		<tag k="place" v="locality" />
		<tag k="ssr:stedsnr" v="210462" />
	</node>
	<node lat="63.52218888729744" lon="11.077716667783028" id="-35697">
		<tag k="name" v="Kleivberga" />
		<tag k="natural" v="hill" />
		<tag k="place" v="locality" />
		<tag k="ssr:stedsnr" v="210572" />
	</node>
	<node lat="63.44921110888299" lon="11.090219439823311" id="-35699">
		<tag k="name" v="Furruåsen" />
		<tag k="natural" v="slope" />
		<tag k="place" v="locality" />
		<tag k="ssr:stedsnr" v="210669" />
	</node>
	<node lat="63.512061107211665" lon="10.964500005235049" id="-35702">
		<tag k="name" v="Bjørga" />
		<tag k="natural" v="slope" />
		<tag k="place" v="locality" />
		<tag k="ssr:stedsnr" v="210788" />
	</node>
	<node lat="63.428994448946455" lon="10.971208330447114" id="-35705">
		<tag k="fixme" v="consider natural=peak for the most distinct mountains in the district" />
		<tag k="name" v="Stubergsåsen" />
		<tag k="natural" v="hill" />
		<tag k="place" v="locality" />
		<tag k="ssr:stedsnr" v="210842" />
	</node>
	<node lat="63.45150555942351" lon="11.145613896918563" id="-35706">
		<tag k="fixme" v="consider natural=peak for the most distinct mountains in the district" />
		<tag k="name" v="Seteråsen" />
		<tag k="natural" v="hill" />
		<tag k="place" v="locality" />
		<tag k="ssr:stedsnr" v="210613" />
	</node>
	<node lat="63.554641667444805" lon="10.983688879692897" id="-35708">
		<tag k="name" v="Fosskrullen" />
		<tag k="natural" v="hill" />
		<tag k="place" v="locality" />
		<tag k="ssr:stedsnr" v="210735" />
	</node>
	<node lat="63.40017500257106" lon="10.941305563322866" id="-35713">
		<tag k="name" v="Djupdalen" />
		<tag k="natural" v="valley" />
		<tag k="place" v="locality" />
		<tag k="ssr:stedsnr" v="210975" />
	</node>
	<node lat="63.414747224904595" lon="10.92602221720501" id="-35716">
		<tag k="name" v="Guttormsmoen" />
		<tag k="place" v="locality" />
		<tag k="ssr:stedsnr" v="210987" />
	</node>
	<node lat="63.52613889145331" lon="10.871386111222465" id="-35721">
		<tag k="name" v="Kammen" />
		<tag k="natural" v="hill" />
		<tag k="place" v="locality" />
		<tag k="ssr:stedsnr" v="210861" />
	</node>
	<node lat="63.50946666612542" lon="10.83884167003232" id="-35726">
		<tag k="name" v="Olhåmmårhaugen" />
		<tag k="natural" v="hill" />
		<tag k="place" v="locality" />
		<tag k="ssr:stedsnr" v="210933" />
	</node>
	<node lat="63.38864166622899" lon="10.891836107448984" id="-35731">
		<tag k="name" v="Løftin" />
		<tag k="natural" v="slope" />
		<tag k="place" v="locality" />
		<tag k="ssr:stedsnr" v="210951" />
	</node>
	<node lat="63.40470833461339" lon="10.877022219398311" id="-35732">
		<tag k="name" v="Råmyrstrupan" />
		<tag k="place" v="locality" />
		<tag k="ssr:stedsnr" v="210952" />
	</node>
	<node lat="63.40508055810534" lon="10.897497221454715" id="-35733">
		<tag k="fixme" v="consider natural=peak for the most distinct mountains in the district" />
		<tag k="name" v="Stammyrvassåsen" />
		<tag k="natural" v="hill" />
		<tag k="place" v="locality" />
		<tag k="ssr:stedsnr" v="210954" />
	</node>
	<node lat="63.400672220990764" lon="10.884363883668552" id="-35734">
		<tag k="fixme" v="consider natural=peak for the most distinct mountains in the district" />
		<tag k="name" v="Langtjønnåsen" />
		<tag k="natural" v="hill" />
		<tag k="place" v="locality" />
		<tag k="ssr:stedsnr" v="210959" />
	</node>
	<node lat="63.38779444461099" lon="10.87218888157388" id="-35735">
		<tag k="fixme" v="consider natural=peak for the most distinct mountains in the district" />
		<tag k="name" v="Røståsen" />
		<tag k="natural" v="hill" />
		<tag k="place" v="locality" />
		<tag k="ssr:stedsnr" v="210969" />
	</node>
	<node lat="63.399469448580014" lon="10.956286105438382" id="-35736">
		<tag k="name" v="Granåsberga" />
		<tag k="natural" v="hill" />
		<tag k="place" v="locality" />
		<tag k="ssr:stedsnr" v="210973" />
	</node>
	<node lat="63.381716668642724" lon="10.960922222658075" id="-35741">
		<tag k="name" v="Tverrdalen" />
		<tag k="natural" v="valley" />
		<tag k="place" v="locality" />
		<tag k="ssr:stedsnr" v="289649" />
	</node>
	<node lat="63.36658610706125" lon="10.861427782150225" id="-35742">
		<tag k="name" v="Aunhaugen" />
		<tag k="natural" v="hill" />
		<tag k="place" v="locality" />
		<tag k="ssr:stedsnr" v="289659" />
	</node>
	<node lat="63.43423611240447" lon="11.416969445051635" id="-35747">
		<tag k="name" v="Djupdalen" />
		<tag k="natural" v="valley" />
		<tag k="place" v="locality" />
		<tag k="ssr:stedsnr" v="291543" />
	</node>
	<node lat="63.40229166919582" lon="11.360086115255772" id="-35748">
		<tag k="name" v="Øyvollen" />
		<tag k="place" v="locality" />
		<tag k="ssr:stedsnr" v="291556" />
	</node>
	<node lat="63.39930555750735" lon="11.413983327670065" id="-35749">
		<tag k="fixme" v="consider natural=peak for the most distinct mountains in the district" />
		<tag k="name" v="Grønnfjellet" />
		<tag k="natural" v="hill" />
		<tag k="place" v="locality" />
		<tag k="ssr:stedsnr" v="291559" />
	</node>
	<node lat="63.53955278019333" lon="11.250611112172404" id="-35751">
		<tag k="fixme" v="consider natural=peak for the most distinct mountains in the district" />
		<tag k="name" v="Heståsen" />
		<tag k="natural" v="hill" />
		<tag k="place" v="locality" />
		<tag k="ssr:stedsnr" v="291637" />
	</node>
	<node lat="63.5189472241572" lon="11.239902773118297" id="-35752">
		<tag k="name" v="Bjørgtjønnhalla" />
		<tag k="natural" v="slope" />
		<tag k="place" v="locality" />
		<tag k="ssr:stedsnr" v="291640" />
	</node>
	<node lat="63.52085277677772" lon="11.00346110598574" id="-35760">
		<tag k="fixme" v="consider natural=peak for the most distinct mountains in the district" />
		<tag k="name" v="Litlvalåsen" />
		<tag k="natural" v="hill" />
		<tag k="place" v="locality" />
		<tag k="ssr:stedsnr" v="302084" />
	</node>
	<node lat="63.42727222018135" lon="11.195497220955986" id="-35762">
		<tag k="fixme" v="consider natural=peak for the most distinct mountains in the district" />
		<tag k="name" v="Skjervåsen" />
		<tag k="natural" v="hill" />
		<tag k="place" v="locality" />
		<tag k="ssr:stedsnr" v="316010" />
	</node>
	<node lat="63.568588889466675" lon="11.012680563822167" id="-35768">
		<tag k="fixme" v="consider natural=peak for the most distinct mountains in the district" />
		<tag k="name" v="Skordalsvola" />
		<tag k="natural" v="hill" />
		<tag k="place" v="locality" />
		<tag k="ssr:stedsnr" v="316835" />
	</node>
	<node lat="63.47611111389679" lon="11.499500004414017" id="-35783">
		<tag k="name" v="Bergmyrhaugen" />
		<tag k="natural" v="hill" />
		<tag k="place" v="locality" />
		<tag k="ssr:stedsnr" v="316278" />
	</node>
	<node lat="63.360952777196054" lon="11.089844450532482" id="-35785">
		<tag k="fixme" v="consider natural=peak for the most distinct mountains in the district" />
		<tag k="name" v="Talgåsen" />
		<tag k="natural" v="hill" />
		<tag k="place" v="locality" />
		<tag k="ssr:stedsnr" v="316178" />
	</node>
	<node lat="63.45394166661364" lon="11.233411120906203" id="-35788">
		<tag k="fixme" v="consider natural=peak for the most distinct mountains in the district" />
		<tag k="name" v="Sveddiåsen" />
		<tag k="natural" v="hill" />
		<tag k="place" v="locality" />
		<tag k="ssr:stedsnr" v="316323" />
	</node>
	<node lat="63.547649999192494" lon="11.537411112835883" id="-35795">
		<tag k="fixme" v="consider natural=peak for the most distinct mountains in the district" />
		<tag k="name" v="Risvola" />
		<tag k="natural" v="hill" />
		<tag k="place" v="locality" />
		<tag k="ssr:stedsnr" v="316532" />
	</node>
	<node lat="63.42229999848694" lon="11.331977783453913" id="-35796">
		<tag k="fixme" v="consider natural=peak for the most distinct mountains in the district" />
		<tag k="name" v="Rulen" />
		<tag k="natural" v="hill" />
		<tag k="place" v="locality" />
		<tag k="ssr:stedsnr" v="316534" />
	</node>
	<node lat="63.33551944153957" lon="11.436786105374201" id="-35799">
		<tag k="name" v="Sunndalshøgda" />
		<tag k="natural" v="hill" />
		<tag k="place" v="locality" />
		<tag k="ssr:stedsnr" v="316468" />
	</node>
	<node lat="63.35482499793206" lon="11.056149993140957" id="-35802">
		<tag k="fixme" v="consider natural=peak for the most distinct mountains in the district" />
		<tag k="name" v="Brennfjellet" />
		<tag k="natural" v="hill" />
		<tag k="place" v="locality" />
		<tag k="ssr:stedsnr" v="316484" />
	</node>
	<node lat="63.350725000913286" lon="11.354463880330595" id="-35804">
		<tag k="fixme" v="consider natural=peak for the most distinct mountains in the district" />
		<tag k="name" v="Vakkermyråsen" />
		<tag k="natural" v="hill" />
		<tag k="place" v="locality" />
		<tag k="ssr:stedsnr" v="316492" />
	</node>
	<node lat="63.409474998449134" lon="11.232433330828767" id="-35808">
		<tag k="alt_name" v="Fauskåshaugen" />
		<tag k="fixme" v="consider natural=peak for the most distinct mountains in the district" />
		<tag k="name" v="Fauskåsen" />
		<tag k="natural" v="hill" />
		<tag k="place" v="locality" />
		<tag k="ssr:stedsnr" v="316539" />
	</node>
	<node lat="63.52776111373617" lon="10.92640833939961" id="-35809">
		<tag k="name" v="Rundhaugen" />
		<tag k="natural" v="hill" />
		<tag k="place" v="locality" />
		<tag k="ssr:stedsnr" v="316780" />
	</node>
	<node lat="63.53187222357552" lon="10.97778055891174" id="-35810">
		<tag k="fixme" v="consider natural=peak for the most distinct mountains in the district" />
		<tag k="name" v="Varghaugan" />
		<tag k="natural" v="hill" />
		<tag k="place" v="locality" />
		<tag k="ssr:stedsnr" v="316781" />
	</node>
	<node lat="63.41069166810784" lon="11.138227768865582" id="-35821">
		<tag k="name" v="Holmsbjørga" />
		<tag k="natural" v="slope" />
		<tag k="place" v="locality" />
		<tag k="ssr:stedsnr" v="331527" />
	</node>
	<node lat="63.453372221222025" lon="11.160375008214205" id="-35822">
		<tag k="name" v="Høgbakken" />
		<tag k="natural" v="slope" />
		<tag k="place" v="locality" />
		<tag k="ssr:stedsnr" v="331632" />
	</node>
	<node lat="63.40253611157054" lon="11.14093056538917" id="-35823">
		<tag k="name" v="Bjørndalsrya" />
		<tag k="natural" v="hill" />
		<tag k="place" v="locality" />
		<tag k="ssr:stedsnr" v="331633" />
	</node>
	<node lat="63.393686111570766" lon="11.142722222619803" id="-35825">
		<tag k="fixme" v="consider natural=peak for the most distinct mountains in the district" />
		<tag k="name" v="Kåppårbergåsen" />
		<tag k="natural" v="hill" />
		<tag k="place" v="locality" />
		<tag k="ssr:stedsnr" v="331644" />
	</node>
	<node lat="63.47058611251258" lon="10.986652769894018" id="-35826">
		<tag k="name" v="Singeldalen" />
		<tag k="natural" v="valley" />
		<tag k="place" v="locality" />
		<tag k="ssr:stedsnr" v="331680" />
	</node>
	<node lat="63.389341662470066" lon="11.017788886992184" id="-35829">
		<tag k="name" v="Buru" />
		<tag k="place" v="locality" />
		<tag k="ssr:stedsnr" v="331694" />
	</node>
	<node lat="63.389283328883145" lon="11.00660833878255" id="-35830">
		<tag k="fixme" v="consider natural=peak for the most distinct mountains in the district" />
		<tag k="name" v="Setnanåsan" />
		<tag k="natural" v="hill" />
		<tag k="place" v="locality" />
		<tag k="ssr:stedsnr" v="331695" />
	</node>
	<node lat="63.44829722323024" lon="11.135186114433681" id="-35833">
		<tag k="fixme" v="consider natural=peak for the most distinct mountains in the district" />
		<tag k="name" v="Øytjholet" />
		<tag k="natural" v="hill" />
		<tag k="place" v="locality" />
		<tag k="ssr:stedsnr" v="331594" />
	</node>
	<node lat="63.43779166589295" lon="11.15354722614932" id="-35834">
		<tag k="name" v="Bjørnhiet" />
		<tag k="natural" v="hill" />
		<tag k="place" v="locality" />
		<tag k="ssr:stedsnr" v="331596" />
	</node>
	<node lat="63.453938890612825" lon="11.10395276962787" id="-35835">
		<tag k="name" v="Svedalen" />
		<tag k="natural" v="valley" />
		<tag k="place" v="locality" />
		<tag k="ssr:stedsnr" v="331599" />
	</node>
	<node lat="63.49973055310326" lon="11.05960833394346" id="-35838">
		<tag k="name" v="Høgklumpen" />
		<tag k="natural" v="hill" />
		<tag k="place" v="locality" />
		<tag k="ssr:stedsnr" v="331748" />
	</node>
	<node lat="63.529075004309156" lon="10.878819440547446" id="-35842">
		<tag k="name" v="Litlfjellet" />
		<tag k="natural" v="hill" />
		<tag k="place" v="locality" />
		<tag k="ssr:stedsnr" v="331845" />
	</node>
	<node lat="63.51363611086045" lon="11.000872216813265" id="-35845">
		<tag k="name" v="Kalddalen" />
		<tag k="natural" v="valley" />
		<tag k="place" v="locality" />
		<tag k="ssr:stedsnr" v="331764" />
	</node>
	<node lat="63.50974166275137" lon="10.886144447959124" id="-35847">
		<tag k="name" v="Raudhåmmåren" />
		<tag k="natural" v="hill" />
		<tag k="place" v="locality" />
		<tag k="ssr:stedsnr" v="331770" />
	</node>
	<node lat="63.49478888957544" lon="11.471258337295676" id="-35853">
		<tag k="name" v="Langdalen" />
		<tag k="natural" v="valley" />
		<tag k="place" v="locality" />
		<tag k="ssr:stedsnr" v="332125" />
	</node>
	<node lat="63.52808610907647" lon="10.88942499156538" id="-35855">
		<tag k="name" v="Bjørnskardet" />
		<tag k="natural" v="valley" />
		<tag k="place" v="locality" />
		<tag k="ssr:stedsnr" v="331847" />
	</node>
	<node lat="63.40655833640825" lon="10.91305555687962" id="-35856">
		<tag k="name" v="Sauskinnhåmmåren" />
		<tag k="place" v="locality" />
		<tag k="ssr:stedsnr" v="331971" />
	</node>
	<node lat="63.40590833108594" lon="10.922416665757204" id="-35857">
		<tag k="name" v="Svartåsen" />
		<tag k="place" v="locality" />
		<tag k="ssr:stedsnr" v="331972" />
	</node>
	<node lat="63.4002527802929" lon="10.964416669617544" id="-35858">
		<tag k="name" v="Dravengberga" />
		<tag k="natural" v="hill" />
		<tag k="place" v="locality" />
		<tag k="ssr:stedsnr" v="331974" />
	</node>
	<node lat="63.39698333391021" lon="10.933097216568868" id="-35859">
		<tag k="name" v="Storkleiva" />
		<tag k="natural" v="hill" />
		<tag k="place" v="locality" />
		<tag k="ssr:stedsnr" v="331978" />
	</node>
	<node lat="63.485630558352575" lon="11.446616674355058" id="-35860">
		<tag k="name" v="Storskardet" />
		<tag k="natural" v="valley" />
		<tag k="place" v="locality" />
		<tag k="ssr:stedsnr" v="332167" />
	</node>
	<node lat="63.47865833428681" lon="11.398986116925911" id="-35863">
		<tag k="name" v="Hemmingstrappa" />
		<tag k="place" v="locality" />
		<tag k="ssr:stedsnr" v="332176" />
	</node>
	<node lat="63.43498610963406" lon="11.289172229665533" id="-35864">
		<tag k="fixme" v="consider natural=peak for the most distinct mountains in the district" />
		<tag k="name" v="Kvennåsen" />
		<tag k="natural" v="hill" />
		<tag k="place" v="locality" />
		<tag k="ssr:stedsnr" v="332269" />
	</node>
	<node lat="63.49302500036805" lon="11.272675008088699" id="-35867">
		<tag k="name" v="Svedjan" />
		<tag k="place" v="locality" />
		<tag k="ssr:stedsnr" v="332293" />
	</node>
	<node lat="63.45726667095133" lon="11.370933339169575" id="-35868">
		<tag k="name" v="Skruvrommet" />
		<tag k="place" v="locality" />
		<tag k="ssr:stedsnr" v="332369" />
	</node>
	<node lat="63.544108337528186" lon="11.117405547869186" id="-35870">
		<tag k="fixme" v="consider natural=peak for the most distinct mountains in the district" />
		<tag k="name" v="Brannan" />
		<tag k="natural" v="hill" />
		<tag k="place" v="locality" />
		<tag k="ssr:stedsnr" v="332442" />
	</node>
	<node lat="63.54438610686488" lon="11.145502782795724" id="-35871">
		<tag k="fixme" v="consider natural=peak for the most distinct mountains in the district" />
		<tag k="name" v="Høgåsden" />
		<tag k="natural" v="hill" />
		<tag k="place" v="locality" />
		<tag k="ssr:stedsnr" v="332443" />
	</node>
	<node lat="63.54815000298051" lon="11.147469450923946" id="-35872">
		<tag k="name" v="Rognan" />
		<tag k="place" v="locality" />
		<tag k="ssr:stedsnr" v="332444" />
	</node>
	<node lat="63.47066666387319" lon="11.286727769531606" id="-35876">
		<tag k="name" v="Storkjølen" />
		<tag k="natural" v="hill" />
		<tag k="place" v="locality" />
		<tag k="ssr:stedsnr" v="332473" />
	</node>
	<node lat="63.42801944902762" lon="11.097538884909781" id="-35886">
		<tag k="fixme" v="consider natural=peak for the most distinct mountains in the district" />
		<tag k="name" v="Trolltjønnåsen" />
		<tag k="natural" v="hill" />
		<tag k="place" v="locality" />
		<tag k="ssr:stedsnr" v="332688" />
	</node>
	<node lat="63.418552777193206" lon="11.348833341363438" id="-35891">
		<tag k="fixme" v="consider natural=peak for the most distinct mountains in the district" />
		<tag k="name" v="Oksåsen" />
		<tag k="natural" v="hill" />
		<tag k="place" v="locality" />
		<tag k="ssr:stedsnr" v="350475" />
	</node>
	<node lat="63.55099999647349" lon="11.332088886587082" id="-35892">
		<tag k="name" v="Skjeftåsdalen" />
		<tag k="natural" v="valley" />
		<tag k="place" v="locality" />
		<tag k="ssr:stedsnr" v="351625" />
	</node>
</osm>
