<?xml version="1.0" encoding="UTF-8"?>
<<<<<<< HEAD
<osm version="0.6" generator="osmapis">
	<node lat="63.5334944460289" lon="11.213711116945026" id="-27542">
		<tag k="name" v="Grønnmyra" />
=======
<osm generator="osmapis" version="0.6">
	<node id="-763887" lat="63.3839111136" lon="10.9160444437">
		<tag k="alt_name" v="Stormalmmyra" />
		<tag k="name" v="Malmmyra" />
		<tag k="natural" v="wetland" />
		<tag k="ssr:stedsnr" v="13501" />
	</node>
	<node id="-765877" lat="63.3740175854" lon="11.3365685699">
		<tag k="name" v="Stormyrin" />
		<tag k="natural" v="wetland" />
		<tag k="ssr:stedsnr" v="169435" />
	</node>
	<node id="-765875" lat="63.3708259277" lon="11.0513048985">
		<tag k="name" v="Trygmyra" />
		<tag k="natural" v="wetland" />
		<tag k="ssr:stedsnr" v="169421" />
	</node>
	<node id="-765855" lat="63.4098861076" lon="11.0551694534">
		<tag k="name" v="Brannmyra" />
		<tag k="natural" v="wetland" />
		<tag k="ssr:stedsnr" v="149698" />
	</node>
	<node id="-765851" lat="63.401094443" lon="11.0385194507">
		<tag k="name" v="Aunmyra" />
		<tag k="natural" v="wetland" />
		<tag k="ssr:stedsnr" v="149681" />
	</node>
	<node id="-766652" lat="63.4651166707" lon="11.306233327">
		<tag k="name" v="Slåttmyra" />
		<tag k="natural" v="wetland" />
		<tag k="ssr:stedsnr" v="634288" />
	</node>
	<node id="-765844" lat="63.5138583342" lon="11.1655222253">
		<tag k="name" v="Langmyra" />
		<tag k="natural" v="wetland" />
		<tag k="ssr:stedsnr" v="149428" />
	</node>
	<node id="-765841" lat="63.5440527779" lon="11.0768222239">
		<tag k="name" v="Langstuggumyra" />
		<tag k="natural" v="wetland" />
		<tag k="ssr:stedsnr" v="149573" />
	</node>
	<node id="-765839" lat="63.5311083374" lon="11.1302111165">
		<tag k="name" v="Stormyra" />
		<tag k="natural" v="wetland" />
		<tag k="ssr:stedsnr" v="149481" />
	</node>
	<node id="-765825" lat="63.4492972208" lon="11.440747227">
		<tag k="name" v="Raudmyra" />
		<tag k="natural" v="wetland" />
		<tag k="ssr:stedsnr" v="149136" />
	</node>
	<node id="-765811" lat="63.5069444447" lon="11.0445499901">
		<tag k="name" v="Hessmyra" />
		<tag k="natural" v="wetland" />
		<tag k="ssr:stedsnr" v="148774" />
	</node>
	<node id="-765806" lat="63.4924249991" lon="11.033827784">
		<tag k="name" v="Fuglmyra" />
		<tag k="natural" v="wetland" />
		<tag k="ssr:stedsnr" v="148751" />
	</node>
	<node id="-765798" lat="63.36385386" lon="11.374138154">
		<tag k="historic" v="shieling" />
		<tag k="name" v="Moavollen" />
		<tag k="place" v="locality" />
		<tag k="ssr:stedsnr" v="142234" />
	</node>
	<node id="-765781" lat="63.3698916675" lon="11.0888333244">
		<tag k="name" v="Svedjan" />
		<tag k="natural" v="wetland" />
		<tag k="ssr:stedsnr" v="134453" />
	</node>
	<node id="-765768" lat="63.4402444438" lon="11.1206083249">
		<tag k="name" v="Stormyra" />
		<tag k="natural" v="wetland" />
		<tag k="ssr:stedsnr" v="134177" />
	</node>
	<node id="-765764" lat="63.4187111115" lon="11.1480111084">
		<tag k="name" v="Rognåsmyra" />
		<tag k="natural" v="wetland" />
		<tag k="ssr:stedsnr" v="134044" />
	</node>
	<node id="-765758" lat="63.5591999978" lon="11.0244944374">
		<tag k="name" v="Rognåsmyra" />
		<tag k="natural" v="wetland" />
		<tag k="ssr:stedsnr" v="109757" />
	</node>
	<node id="-765754" lat="63.5367638887" lon="11.1770138956">
		<tag k="name" v="Brannmyra" />
		<tag k="natural" v="wetland" />
		<tag k="ssr:stedsnr" v="108851" />
	</node>
	<node id="-765753" lat="63.3709666694" lon="10.927769451">
		<tag k="name" v="Løftmyra" />
		<tag k="natural" v="wetland" />
		<tag k="ssr:stedsnr" v="108592" />
	</node>
	<node id="-765743" lat="63.3756166628" lon="11.2843499961">
		<tag k="name" v="Sondalsskogen" />
		<tag k="place" v="locality" />
		<tag k="ssr:stedsnr" v="108435" />
	</node>
	<node id="-766941" lat="63.4708805534" lon="11.43376666">
		<tag k="name" v="Litlmarka" />
		<tag k="place" v="locality" />
		<tag k="ssr:stedsnr" v="817190" />
	</node>
	<node id="-765727" lat="63.5351972213" lon="11.1245388987">
		<tag k="name" v="Hårråmyra" />
		<tag k="natural" v="wetland" />
		<tag k="ssr:stedsnr" v="89509" />
	</node>
	<node id="-765723" lat="63.4878166666" lon="11.1742499972">
		<tag k="name" v="Temmyra" />
		<tag k="natural" v="wetland" />
		<tag k="ssr:stedsnr" v="89476" />
	</node>
	<node id="-765722" lat="63.4960416641" lon="11.1544444387">
		<tag k="name" v="Gangfarmyran" />
		<tag k="natural" v="wetland" />
		<tag k="ssr:stedsnr" v="89465" />
	</node>
	<node id="-765716" lat="63.4521527734" lon="11.4649722296">
		<tag k="name" v="Midtivollmyra" />
		<tag k="natural" v="wetland" />
		<tag k="ssr:stedsnr" v="89421" />
	</node>
	<node id="-765712" lat="63.4662166678" lon="11.4079972283">
		<tag k="name" v="Raudmyra" />
		<tag k="natural" v="wetland" />
		<tag k="ssr:stedsnr" v="89385" />
	</node>
	<node id="-765711" lat="63.4721944419" lon="11.2386361057">
		<tag k="name" v="Raudmyra" />
		<tag k="natural" v="wetland" />
		<tag k="ssr:stedsnr" v="89334" />
	</node>
	<node id="-765710" lat="63.4744111087" lon="11.2460777744">
		<tag k="name" v="Brunmyra" />
		<tag k="natural" v="wetland" />
		<tag k="ssr:stedsnr" v="89332" />
	</node>
	<node id="-765709" lat="63.5034583322" lon="11.3198277738">
		<tag k="name" v="Steinmyra" />
>>>>>>> e1d4bc35ff8a6074a6f2e91616a996b547c36f15
		<tag k="natural" v="wetland" />
		<tag k="ssr:stedsnr" v="229831" />
	</node>
<<<<<<< HEAD
	<node lat="63.38391111355079" lon="10.91604444365857" id="-27563">
		<tag k="alt_name" v="Stormalmmyra" />
		<tag k="name" v="Malmmyra" />
=======
	<node id="-765708" lat="63.5052111126" lon="11.3400277836">
		<tag k="name" v="Trongsmyra" />
>>>>>>> e1d4bc35ff8a6074a6f2e91616a996b547c36f15
		<tag k="natural" v="wetland" />
		<tag k="ssr:stedsnr" v="13501" />
	</node>
<<<<<<< HEAD
	<node lat="63.49737500388854" lon="11.30247500482881" id="-27584">
		<tag k="name" v="Barhaugen" />
=======
	<node id="-765681" lat="63.5184694449" lon="10.7868805484">
		<tag k="name" v="Rykkjasmyra" />
		<tag k="place" v="locality" />
		<tag k="ssr:stedsnr" v="88895" />
	</node>
	<node id="-765663" lat="63.496999996" lon="11.0580500085">
		<tag k="name" v="Porsmyra" />
>>>>>>> e1d4bc35ff8a6074a6f2e91616a996b547c36f15
		<tag k="natural" v="wetland" />
		<tag k="ssr:stedsnr" v="88720" />
	</node>
<<<<<<< HEAD
	<node lat="63.50403055643663" lon="11.155266662721818" id="-27592">
		<tag k="name" v="Bjørnmyran" />
		<tag k="natural" v="wetland" />
		<tag k="ssr:stedsnr" v="28423" />
	</node>
	<node lat="63.41436111216987" lon="11.063247227519797" id="-27597">
		<tag k="name" v="Langmyra" />
		<tag k="natural" v="wetland" />
		<tag k="ssr:stedsnr" v="28720" />
	</node>
	<node lat="63.5299000001098" lon="10.977594439879798" id="-27598">
		<tag k="name" v="Rangelåsmyra" />
		<tag k="natural" v="wetland" />
		<tag k="ssr:stedsnr" v="28604" />
	</node>
	<node lat="63.525027781280315" lon="10.992622212447836" id="-27599">
		<tag k="name" v="Trollvassmyra" />
		<tag k="natural" v="wetland" />
		<tag k="ssr:stedsnr" v="28605" />
	</node>
	<node lat="63.48363611195734" lon="11.032527786890396" id="-27608">
		<tag k="name" v="Stormyra" />
		<tag k="natural" v="wetland" />
		<tag k="ssr:stedsnr" v="28774" />
	</node>
	<node lat="63.37264675586712" lon="11.023157211501998" id="-27612">
		<tag k="name" v="Bjønnmyra" />
		<tag k="natural" v="wetland" />
		<tag k="ssr:stedsnr" v="47370" />
	</node>
	<node lat="63.35878389586247" lon="11.087385640314654" id="-27613">
		<tag k="name" v="Talgåsmyra" />
		<tag k="natural" v="wetland" />
		<tag k="ssr:stedsnr" v="47406" />
	</node>
	<node lat="63.36842693258424" lon="11.360913925187827" id="-27615">
		<tag k="name" v="Karlsmyra" />
		<tag k="natural" v="wetland" />
		<tag k="ssr:stedsnr" v="47474" />
	</node>
	<node lat="63.52987778117157" lon="11.444580554450749" id="-27625">
		<tag k="name" v="Øvre Bærmyra" />
		<tag k="natural" v="wetland" />
		<tag k="ssr:stedsnr" v="48706" />
	</node>
	<node lat="63.535486113341236" lon="11.386841660899968" id="-27626">
		<tag k="name" v="Langslettan" />
		<tag k="natural" v="wetland" />
		<tag k="ssr:stedsnr" v="48720" />
	</node>
	<node lat="63.40398055293821" lon="11.128663883593964" id="-27662">
		<tag k="name" v="Botenlausmyra" />
=======
	<node id="-765653" lat="63.3985749988" lon="11.133269435">
		<tag k="name" v="Beretmyra" />
		<tag k="natural" v="wetland" />
		<tag k="ssr:stedsnr" v="88576" />
	</node>
	<node id="-765651" lat="63.4039805529" lon="11.1286638836">
		<tag k="name" v="Botenlausmyra" />
		<tag k="natural" v="wetland" />
		<tag k="ssr:stedsnr" v="88569" />
	</node>
	<node id="-765646" lat="63.4233166682" lon="11.1917972242">
		<tag k="name" v="Brattslættet" />
		<tag k="natural" v="wetland" />
		<tag k="ssr:stedsnr" v="88459" />
	</node>
	<node id="-765643" lat="63.4283472236" lon="11.1558083417">
		<tag k="name" v="Desimyra" />
		<tag k="natural" v="wetland" />
		<tag k="ssr:stedsnr" v="88345" />
	</node>
	<node id="-765570" lat="63.5354861133" lon="11.3868416609">
		<tag k="name" v="Langslettan" />
		<tag k="natural" v="wetland" />
		<tag k="ssr:stedsnr" v="48720" />
	</node>
	<node id="-765569" lat="63.5298777812" lon="11.4445805545">
		<tag k="name" v="Øvre Bærmyra" />
		<tag k="natural" v="wetland" />
		<tag k="ssr:stedsnr" v="48706" />
	</node>
	<node id="-765549" lat="63.3684269326" lon="11.3609139252">
		<tag k="name" v="Karlsmyra" />
		<tag k="natural" v="wetland" />
		<tag k="ssr:stedsnr" v="47474" />
	</node>
	<node id="-765548" lat="63.3726467559" lon="11.0231572115">
		<tag k="name" v="Bjønnmyra" />
		<tag k="natural" v="wetland" />
		<tag k="ssr:stedsnr" v="47370" />
	</node>
	<node id="-765537" lat="63.5179444474" lon="10.8987888956">
		<tag k="name" v="Stormyra" />
		<tag k="natural" v="wetland" />
		<tag k="ssr:stedsnr" v="28874" />
	</node>
	<node id="-765533" lat="63.5126305579" lon="11.0148833363">
		<tag k="name" v="Klingeråsmyra" />
		<tag k="natural" v="wetland" />
		<tag k="ssr:stedsnr" v="28795" />
	</node>
	<node id="-765532" lat="63.5017583369" lon="10.9867611178">
		<tag k="name" v="Vassmyra" />
		<tag k="natural" v="wetland" />
		<tag k="ssr:stedsnr" v="28786" />
	</node>
	<node id="-765530" lat="63.483636112" lon="11.0325277869">
		<tag k="name" v="Stormyra" />
		<tag k="natural" v="wetland" />
		<tag k="ssr:stedsnr" v="28774" />
	</node>
	<node id="-765516" lat="63.4012638932" lon="11.105155551">
		<tag k="name" v="Smalmyran" />
		<tag k="natural" v="wetland" />
		<tag k="ssr:stedsnr" v="28649" />
	</node>
	<node id="-764663" lat="63.491052775" lon="11.4823222188">
		<tag k="name" v="Firtjønnmyra" />
		<tag k="natural" v="wetland" />
		<tag k="ssr:stedsnr" v="453223" />
	</node>
	<node id="-765492" lat="63.5030805542" lon="11.4549694407">
		<tag k="name" v="Tjønnmyra" />
		<tag k="natural" v="wetland" />
		<tag k="ssr:stedsnr" v="28155" />
	</node>
	<node id="-765491" lat="63.4777555562" lon="11.37099444">
		<tag k="name" v="Terjemyra" />
		<tag k="natural" v="wetland" />
		<tag k="ssr:stedsnr" v="28149" />
	</node>
	<node id="-765462" lat="63.3448305383" lon="10.9798367101">
		<tag k="historic" v="shieling" />
		<tag k="name" v="Værnesvollen" />
		<tag k="place" v="locality" />
		<tag k="ssr:stedsnr" v="13452" />
	</node>
	<node id="-765461" lat="63.3458555559" lon="10.9208416714">
		<tag k="name" v="Nyvollskjølen" />
		<tag k="natural" v="wetland" />
		<tag k="ssr:stedsnr" v="13448" />
	</node>
	<node id="-765402" lat="63.431813891" lon="11.3709194532">
		<tag k="name" v="Våttåmyra" />
		<tag k="natural" v="wetland" />
		<tag k="ssr:stedsnr" v="958555" />
	</node>
	<node id="-766539" lat="63.5120472177" lon="11.4837638971">
		<tag k="name" v="Klokkarslættmyra" />
		<tag k="natural" v="wetland" />
		<tag k="ssr:stedsnr" v="574173" />
	</node>
	<node id="-765373" lat="63.3811031859" lon="11.0748086602">
		<tag k="name" v="Ludduenget" />
		<tag k="place" v="locality" />
		<tag k="ssr:stedsnr" v="897368" />
	</node>
	<node id="-765367" lat="63.4354916688" lon="10.9540138984">
		<tag k="name" v="Røddesmyra" />
		<tag k="natural" v="wetland" />
		<tag k="ssr:stedsnr" v="877839" />
	</node>
	<node id="-765346" lat="63.5020055576" lon="11.1519444433">
		<tag k="name" v="Brurstolmyra" />
		<tag k="natural" v="wetland" />
		<tag k="ssr:stedsnr" v="939417" />
	</node>
	<node id="-765336" lat="63.4808527735" lon="11.4440861114">
		<tag k="name" v="Djupdalsmyra" />
		<tag k="natural" v="wetland" />
		<tag k="ssr:stedsnr" v="939189" />
	</node>
	<node id="-765325" lat="63.5213777768" lon="10.8188777686">
		<tag k="name" v="Heggjasmarka" />
		<tag k="place" v="locality" />
		<tag k="ssr:stedsnr" v="938908" />
	</node>
	<node id="-765309" lat="63.5069972191" lon="11.3700111198">
		<tag k="name" v="Gjekla" />
		<tag k="natural" v="wetland" />
		<tag k="ssr:stedsnr" v="939162" />
	</node>
	<node id="-765302" lat="63.503494442" lon="11.0496916566">
		<tag k="name" v="Lundmyra" />
		<tag k="natural" v="wetland" />
		<tag k="ssr:stedsnr" v="938744" />
	</node>
	<node id="-765297" lat="63.3959361092" lon="11.0182750082">
		<tag k="name" v="Setnanmyra" />
		<tag k="natural" v="wetland" />
		<tag k="ssr:stedsnr" v="938686" />
	</node>
	<node id="-765292" lat="63.439236109" lon="11.0571722212">
		<tag k="name" v="Skardmyra" />
		<tag k="natural" v="wetland" />
		<tag k="ssr:stedsnr" v="938635" />
	</node>
	<node id="-765285" lat="63.509719445" lon="10.9805472193">
		<tag k="name" v="Brekkemarka" />
		<tag k="place" v="locality" />
		<tag k="ssr:stedsnr" v="938765" />
	</node>
	<node id="-765282" lat="63.3769120986" lon="11.0830734706">
		<tag k="name" v="Bakkmyra" />
		<tag k="natural" v="wetland" />
		<tag k="ssr:stedsnr" v="837421" />
	</node>
	<node id="-765274" lat="63.5274916638" lon="11.0304111086">
		<tag k="name" v="Småmyran" />
		<tag k="natural" v="wetland" />
		<tag k="ssr:stedsnr" v="817569" />
	</node>
	<node id="-765261" lat="63.4313305544" lon="11.1205972287">
		<tag k="name" v="Hundkjerka" />
		<tag k="natural" v="stone" />
		<tag k="ssr:stedsnr" v="817409" />
	</node>
	<node id="-765251" lat="63.389638889" lon="10.9117027729">
		<tag k="name" v="Finnsvemyra" />
		<tag k="natural" v="wetland" />
		<tag k="ssr:stedsnr" v="816965" />
	</node>
	<node id="-765250" lat="63.3984222257" lon="10.905619449">
		<tag k="name" v="Spakmyra" />
		<tag k="natural" v="wetland" />
		<tag k="ssr:stedsnr" v="816963" />
	</node>
	<node id="-765249" lat="63.3975083357" lon="10.8979694353">
		<tag k="name" v="Raudsandmyra" />
		<tag k="natural" v="wetland" />
		<tag k="ssr:stedsnr" v="816961" />
	</node>
	<node id="-765246" lat="63.4147638867" lon="10.8695694503">
		<tag k="name" v="Hestbrennmyra" />
		<tag k="natural" v="wetland" />
		<tag k="ssr:stedsnr" v="816911" />
	</node>
	<node id="-765243" lat="63.5306527776" lon="10.8721527784">
		<tag k="name" v="Strupan" />
		<tag k="place" v="locality" />
		<tag k="ssr:stedsnr" v="816856" />
	</node>
	<node id="-765235" lat="63.41420278" lon="11.1860027774">
		<tag k="name" v="Floan" />
		<tag k="natural" v="wetland" />
		<tag k="ssr:stedsnr" v="816574" />
	</node>
	<node id="-765229" lat="63.4118138887" lon="11.3675333416">
		<tag k="historic" v="shieling" />
		<tag k="name" v="Øystre Ingstadvollen" />
		<tag k="place" v="locality" />
		<tag k="ssr:stedsnr" v="809234" />
	</node>
	<node id="-765197" lat="63.5564638896" lon="11.2949416666">
		<tag k="historic" v="shieling" />
		<tag k="name" v="Stokkvollen" />
		<tag k="place" v="locality" />
		<tag k="ssr:stedsnr" v="923509" />
	</node>
	<node id="-765141" lat="63.3961861141" lon="11.3237583421">
		<tag k="name" v="Stamnmyra" />
		<tag k="natural" v="wetland" />
		<tag k="ssr:stedsnr" v="775475" />
	</node>
	<node id="-765123" lat="63.5050194481" lon="11.4394083406">
		<tag k="name" v="Klipmyra" />
		<tag k="natural" v="wetland" />
		<tag k="ssr:stedsnr" v="741311" />
	</node>
	<node id="-765111" lat="63.5321833358" lon="11.3635277711">
		<tag k="name" v="Knottkjølen" />
		<tag k="natural" v="wetland" />
		<tag k="ssr:stedsnr" v="898739" />
	</node>
	<node id="-765108" lat="63.3903944432" lon="11.3686027823">
		<tag k="name" v="Sundalsøyen" />
		<tag k="natural" v="wetland" />
		<tag k="ssr:stedsnr" v="898529" />
	</node>
	<node id="-765107" lat="63.5392027801" lon="11.2019055572">
		<tag k="historic" v="shieling" />
		<tag k="name" v="Svartdalsvollen" />
		<tag k="place" v="locality" />
		<tag k="ssr:stedsnr" v="897837" />
	</node>
	<node id="-767153" lat="63.4402104237" lon="10.9505671065">
		<tag k="name" v="Tønsåsen friluftsområde" />
		<tag k="place" v="locality" />
		<tag k="ssr:stedsnr" v="1076687" />
	</node>
	<node id="-767151" lat="63.4781708267" lon="10.9368056629">
		<tag k="name" v="Monsberga friluftsområde" />
		<tag k="place" v="locality" />
		<tag k="ssr:stedsnr" v="1076684" />
	</node>
	<node id="-767150" lat="63.4815704088" lon="10.93304444">
		<tag k="name" v="Fosslibekken friluftsområde" />
		<tag k="place" v="locality" />
		<tag k="ssr:stedsnr" v="1076683" />
	</node>
	<node id="-767149" lat="63.4755946672" lon="10.9277938814">
		<tag k="name" v="Sandskogan" />
		<tag k="place" v="locality" />
		<tag k="ssr:stedsnr" v="1076682" />
	</node>
	<node id="-765092" lat="63.3659854453" lon="11.0439608336">
		<tag k="name" v="Kvålskjølan" />
		<tag k="natural" v="wetland" />
		<tag k="ssr:stedsnr" v="897397" />
	</node>
	<node id="-765089" lat="63.3556487999" lon="11.3675000097">
		<tag k="name" v="Langskårmyra" />
		<tag k="natural" v="wetland" />
		<tag k="ssr:stedsnr" v="896535" />
	</node>
	<node id="-765087" lat="63.5230611102" lon="11.197294439">
		<tag k="name" v="Tritjønnmyra" />
		<tag k="natural" v="wetland" />
		<tag k="ssr:stedsnr" v="715839" />
	</node>
	<node id="-764967" lat="63.4418972214" lon="11.0513111105">
		<tag k="name" v="Grautmyra" />
		<tag k="natural" v="wetland" />
		<tag k="ssr:stedsnr" v="877676" />
	</node>
	<node id="-765070" lat="63.4902222185" lon="10.9722416576">
		<tag k="name" v="Kinnsetmyra" />
		<tag k="natural" v="wetland" />
		<tag k="ssr:stedsnr" v="695870" />
	</node>
	<node id="-765069" lat="63.393097225" lon="10.9154055465">
		<tag k="name" v="Hesjedalsmyra" />
		<tag k="natural" v="wetland" />
		<tag k="ssr:stedsnr" v="695961" />
	</node>
	<node id="-765064" lat="63.5122694451" lon="10.8819805554">
		<tag k="name" v="Brannan" />
		<tag k="place" v="locality" />
		<tag k="ssr:stedsnr" v="695764" />
	</node>
	<node id="-765056" lat="63.4660888889" lon="11.2298805618">
		<tag k="name" v="Skavelmyra" />
		<tag k="natural" v="wetland" />
		<tag k="ssr:stedsnr" v="695618" />
	</node>
	<node id="-767089" lat="63.546758331" lon="11.174158325">
		<tag k="name" v="Merramyra" />
		<tag k="natural" v="wetland" />
		<tag k="ssr:stedsnr" v="958867" />
	</node>
	<node id="-767087" lat="63.5410305578" lon="11.186452768">
		<tag k="name" v="Sponmyra" />
		<tag k="natural" v="wetland" />
		<tag k="ssr:stedsnr" v="958860" />
	</node>
	<node id="-767086" lat="63.5468805529" lon="11.2024166719">
		<tag k="name" v="Brennmyra" />
		<tag k="natural" v="wetland" />
		<tag k="ssr:stedsnr" v="958859" />
	</node>
	<node id="-767084" lat="63.5593527822" lon="11.0196888925">
		<tag k="name" v="Småmyran" />
		<tag k="natural" v="wetland" />
		<tag k="ssr:stedsnr" v="958812" />
	</node>
	<node id="-767083" lat="63.5143194456" lon="11.4812749993">
		<tag k="name" v="Klokkslettrya" />
		<tag k="natural" v="wetland" />
		<tag k="ssr:stedsnr" v="958775" />
	</node>
	<node id="-767081" lat="63.5175972183" lon="11.4132888807">
		<tag k="name" v="Fremre Blautkjølen" />
		<tag k="natural" v="wetland" />
		<tag k="ssr:stedsnr" v="958769" />
	</node>
	<node id="-767076" lat="63.5130666643" lon="11.2907999952">
		<tag k="name" v="Rauåkjølen" />
		<tag k="natural" v="wetland" />
		<tag k="ssr:stedsnr" v="958695" />
	</node>
	<node id="-767073" lat="63.4480111137" lon="11.4468083303">
		<tag k="name" v="Bråttmyra" />
		<tag k="natural" v="wetland" />
		<tag k="ssr:stedsnr" v="958551" />
	</node>
	<node id="-765023" lat="63.416549998" lon="10.987958327">
		<tag k="name" v="Råmyra" />
		<tag k="natural" v="wetland" />
		<tag k="ssr:stedsnr" v="878871" />
	</node>
	<node id="-767069" lat="63.3669164015" lon="11.0701847331">
		<tag k="name" v="Slåttmyra" />
		<tag k="natural" v="wetland" />
		<tag k="ssr:stedsnr" v="958445" />
	</node>
	<node id="-765014" lat="63.4839361121" lon="11.1522944511">
		<tag k="name" v="Fuglmyra" />
		<tag k="natural" v="wetland" />
		<tag k="ssr:stedsnr" v="878506" />
	</node>
	<node id="-765013" lat="63.4772305531" lon="11.1476388915">
		<tag k="name" v="Jenslimyra" />
		<tag k="natural" v="wetland" />
		<tag k="ssr:stedsnr" v="878495" />
	</node>
	<node id="-767057" lat="63.4160361108" lon="11.3008944485">
		<tag k="historic" v="shieling" />
		<tag k="name" v="Ingstadvollen" />
		<tag k="place" v="locality" />
		<tag k="ssr:stedsnr" v="870250" />
	</node>
	<node id="-767054" lat="63.3863638911" lon="10.9135416697">
		<tag k="name" v="Langmyran" />
		<tag k="natural" v="wetland" />
		<tag k="ssr:stedsnr" v="863500" />
	</node>
	<node id="-767044" lat="63.4067805578" lon="11.39606112">
		<tag k="historic" v="shieling" />
		<tag k="name" v="Grønfjellvollen" />
		<tag k="place" v="locality" />
		<tag k="ssr:stedsnr" v="863398" />
	</node>
	<node id="-764991" lat="63.3939305559" lon="10.9017083422">
		<tag k="name" v="Sergåsmyra" />
		<tag k="natural" v="wetland" />
		<tag k="ssr:stedsnr" v="877959" />
	</node>
	<node id="-764980" lat="63.5182250026" lon="10.9240055611">
		<tag k="name" v="Grønnmyra" />
		<tag k="natural" v="wetland" />
		<tag k="ssr:stedsnr" v="877866" />
	</node>
	<node id="-764971" lat="63.4817333338" lon="11.0484388966">
		<tag k="name" v="Vennamarka" />
		<tag k="place" v="locality" />
		<tag k="ssr:stedsnr" v="877740" />
	</node>
	<node id="-764970" lat="63.4040027797" lon="11.0081527723">
		<tag k="name" v="Kvernåsmyra" />
		<tag k="natural" v="wetland" />
		<tag k="ssr:stedsnr" v="877718" />
	</node>
	<node id="-764968" lat="63.4627249967" lon="10.9783972319">
		<tag k="name" v="Haraldreina" />
		<tag k="place" v="locality" />
		<tag k="ssr:stedsnr" v="877703" />
	</node>
	<node id="-767015" lat="63.5142638885" lon="11.1084666723">
		<tag k="name" v="Skjelstadmyra" />
		<tag k="natural" v="wetland" />
		<tag k="ssr:stedsnr" v="862695" />
	</node>
	<node id="-764962" lat="63.4371333328" lon="11.1607888952">
		<tag k="name" v="Torsmyra" />
		<tag k="natural" v="wetland" />
		<tag k="ssr:stedsnr" v="877619" />
	</node>
	<node id="-764961" lat="63.5254055573" lon="11.0200583357">
		<tag k="name" v="Brannen" />
		<tag k="place" v="locality" />
		<tag k="ssr:stedsnr" v="877610" />
	</node>
	<node id="-764953" lat="63.4971416669" lon="11.2933944347">
		<tag k="name" v="Jomfrumyra" />
		<tag k="natural" v="wetland" />
		<tag k="ssr:stedsnr" v="654681" />
	</node>
	<node id="-767000" lat="63.4012055529" lon="10.9153916741">
		<tag k="name" v="Stormyra" />
		<tag k="natural" v="wetland" />
		<tag k="ssr:stedsnr" v="862189" />
	</node>
	<node id="-766809" lat="63.4503166624" lon="11.1679055467">
		<tag k="name" v="Bombemyra" />
		<tag k="natural" v="wetland" />
		<tag k="ssr:stedsnr" v="756611" />
	</node>
	<node id="-766996" lat="63.5199472197" lon="11.4809805453">
		<tag k="name" v="Nordre Storslette" />
		<tag k="natural" v="wetland" />
		<tag k="ssr:stedsnr" v="837750" />
	</node>
	<node id="-764943" lat="63.4499277776" lon="11.3064055464">
		<tag k="name" v="Raudmyra" />
		<tag k="natural" v="wetland" />
		<tag k="ssr:stedsnr" v="635261" />
	</node>
	<node id="-764939" lat="63.5227277749" lon="10.9052472153">
		<tag k="name" v="Kjerringmyra" />
		<tag k="natural" v="wetland" />
		<tag k="ssr:stedsnr" v="634857" />
	</node>
	<node id="-764937" lat="63.4818083369" lon="10.8573111035">
		<tag k="name" v="Vikmarka" />
		<tag k="place" v="locality" />
		<tag k="ssr:stedsnr" v="634816" />
	</node>
	<node id="-764932" lat="63.3891249993" lon="10.8760166618">
		<tag k="name" v="Røstmyra" />
		<tag k="natural" v="wetland" />
		<tag k="ssr:stedsnr" v="634974" />
	</node>
	<node id="-766979" lat="63.4392249978" lon="11.3764555592">
		<tag k="name" v="Luddumyra" />
>>>>>>> e1d4bc35ff8a6074a6f2e91616a996b547c36f15
		<tag k="natural" v="wetland" />
		<tag k="ssr:stedsnr" v="836492" />
	</node>
<<<<<<< HEAD
	<node lat="63.505211112552914" lon="11.340027783587681" id="-27682">
		<tag k="name" v="Trongsmyra" />
		<tag k="natural" v="wetland" />
		<tag k="ssr:stedsnr" v="89312" />
	</node>
	<node lat="63.50345833224768" lon="11.319827773800915" id="-27685">
		<tag k="name" v="Steinmyra" />
		<tag k="natural" v="wetland" />
		<tag k="ssr:stedsnr" v="89315" />
	</node>
	<node lat="63.47441110865885" lon="11.246077774387103" id="-27686">
		<tag k="name" v="Brunmyra" />
		<tag k="natural" v="wetland" />
		<tag k="ssr:stedsnr" v="89332" />
	</node>
	<node lat="63.472194441852075" lon="11.238636105681396" id="-27687">
		<tag k="name" v="Raudmyra" />
		<tag k="natural" v="wetland" />
		<tag k="ssr:stedsnr" v="89334" />
	</node>
	<node lat="63.5351972213222" lon="11.124538898747803" id="-27689">
		<tag k="name" v="Hårråmyra" />
		<tag k="natural" v="wetland" />
		<tag k="ssr:stedsnr" v="89509" />
	</node>
	<node lat="63.437613890706665" lon="11.200277782843768" id="-27708">
		<tag k="name" v="Svartmyra" />
		<tag k="natural" v="wetland" />
		<tag k="ssr:stedsnr" v="134117" />
	</node>
	<node lat="63.47614444614007" lon="11.419758339777248" id="-27710">
		<tag k="name" v="Rollsmyra" />
		<tag k="natural" v="wetland" />
		<tag k="ssr:stedsnr" v="134302" />
	</node>
	<node lat="63.55719444767197" lon="11.261630559803985" id="-27715">
		<tag k="name" v="Kvålsmyrin" />
=======
	<node id="-766969" lat="63.4066583369" lon="11.0216083392">
		<tag k="name" v="Stormyra" />
		<tag k="natural" v="wetland" />
		<tag k="ssr:stedsnr" v="817698" />
	</node>
	<node id="-766967" lat="63.4348972177" lon="10.8998416756">
		<tag k="name" v="Stormyra" />
		<tag k="natural" v="wetland" />
		<tag k="ssr:stedsnr" v="817838" />
	</node>
	<node id="-764917" lat="63.4249694427" lon="11.1422388969">
		<tag k="name" v="Lørdagsmyra" />
		<tag k="natural" v="wetland" />
		<tag k="ssr:stedsnr" v="634559" />
	</node>
	<node id="-766964" lat="63.5124083363" lon="10.8989361206">
		<tag k="name" v="Bjørkåsmyra" />
		<tag k="natural" v="wetland" />
		<tag k="ssr:stedsnr" v="817789" />
	</node>
	<node id="-764915" lat="63.4587694409" lon="11.4859972119">
		<tag k="name" v="Øyvollmyra" />
		<tag k="natural" v="wetland" />
		<tag k="ssr:stedsnr" v="634410" />
	</node>
	<node id="-766961" lat="63.3991138883" lon="11.1423416716">
		<tag k="name" v="Leirmyra" />
		<tag k="natural" v="wetland" />
		<tag k="ssr:stedsnr" v="817625" />
	</node>
	<node id="-764911" lat="63.4334250004" lon="11.3814916655">
		<tag k="historic" v="shieling" />
		<tag k="name" v="Florvollen" />
		<tag k="place" v="locality" />
		<tag k="ssr:stedsnr" v="627138" />
	</node>
	<node id="-766958" lat="63.5294111118" lon="11.0176083338">
		<tag k="name" v="Slåttmyra" />
		<tag k="natural" v="wetland" />
		<tag k="ssr:stedsnr" v="817572" />
	</node>
	<node id="-766952" lat="63.5395222213" lon="11.1432194405">
		<tag k="name" v="Vollmyra" />
		<tag k="natural" v="wetland" />
		<tag k="ssr:stedsnr" v="817475" />
	</node>
	<node id="-764903" lat="63.4509083338" lon="11.4583944374">
		<tag k="name" v="Mevollmyra" />
		<tag k="natural" v="wetland" />
		<tag k="ssr:stedsnr" v="619515" />
	</node>
	<node id="-766947" lat="63.4333750039" lon="10.9656166714">
		<tag k="name" v="Stubergsmyran" />
		<tag k="natural" v="wetland" />
		<tag k="ssr:stedsnr" v="817844" />
	</node>
	<node id="-764893" lat="63.5006638913" lon="11.2900111052">
		<tag k="name" v="Storkarsmyra" />
		<tag k="natural" v="wetland" />
		<tag k="ssr:stedsnr" v="715680" />
	</node>
	<node id="-766939" lat="63.5047749957" lon="11.3158999981">
		<tag k="name" v="Langmyra" />
		<tag k="natural" v="wetland" />
		<tag k="ssr:stedsnr" v="817294" />
	</node>
	<node id="-764878" lat="63.5411138928" lon="11.1354611107">
		<tag k="name" v="Setermyra" />
		<tag k="natural" v="wetland" />
		<tag k="ssr:stedsnr" v="574518" />
	</node>
	<node id="-764875" lat="63.5061694412" lon="11.1633749918">
		<tag k="name" v="Håvollsmyran" />
		<tag k="natural" v="wetland" />
		<tag k="ssr:stedsnr" v="574476" />
	</node>
	<node id="-764873" lat="63.4966138895" lon="11.3017555567">
		<tag k="name" v="Skuggmyra" />
		<tag k="natural" v="wetland" />
		<tag k="ssr:stedsnr" v="574332" />
	</node>
	<node id="-764871" lat="63.4985972189" lon="11.3017555458">
		<tag k="name" v="Stamyra" />
		<tag k="natural" v="wetland" />
		<tag k="ssr:stedsnr" v="574329" />
	</node>
	<node id="-764869" lat="63.5055277765" lon="11.3097083405">
		<tag k="name" v="Røbergsmyrin" />
		<tag k="natural" v="wetland" />
		<tag k="ssr:stedsnr" v="574322" />
	</node>
	<node id="-766912" lat="63.4541583319" lon="11.1118555647">
		<tag k="name" v="Karlsmyra" />
		<tag k="natural" v="wetland" />
		<tag k="ssr:stedsnr" v="816643" />
	</node>
	<node id="-764863" lat="63.493824999" lon="10.8201083346">
		<tag k="name" v="Aurmyra" />
		<tag k="natural" v="wetland" />
		<tag k="ssr:stedsnr" v="573933" />
	</node>
	<node id="-764862" lat="63.4900888875" lon="10.7986805492">
		<tag k="name" v="Vinnemarka" />
		<tag k="place" v="locality" />
		<tag k="ssr:stedsnr" v="573928" />
	</node>
	<node id="-764859" lat="63.4239361148" lon="10.8583999964">
		<tag k="name" v="Fuggelmyran" />
		<tag k="natural" v="wetland" />
		<tag k="ssr:stedsnr" v="573908" />
	</node>
	<node id="-764856" lat="63.5499861137" lon="11.0484749996">
		<tag k="name" v="Kaldåmyran" />
		<tag k="natural" v="wetland" />
		<tag k="ssr:stedsnr" v="573695" />
	</node>
	<node id="-764855" lat="63.4096333296" lon="11.0397527742">
		<tag k="name" v="Stakkstongmyra" />
		<tag k="natural" v="wetland" />
		<tag k="ssr:stedsnr" v="573687" />
	</node>
	<node id="-764849" lat="63.5346416682" lon="11.02118056">
		<tag k="name" v="Furumyra" />
		<tag k="natural" v="wetland" />
		<tag k="ssr:stedsnr" v="573538" />
	</node>
	<node id="-764843" lat="63.5177444453" lon="11.1490388887">
		<tag k="name" v="Råmyra" />
		<tag k="natural" v="wetland" />
		<tag k="ssr:stedsnr" v="559711" />
	</node>
	<node id="-764837" lat="63.50915278" lon="11.3423999955">
		<tag k="name" v="Fosskjølen" />
		<tag k="natural" v="wetland" />
		<tag k="ssr:stedsnr" v="558522" />
	</node>
	<node id="-764836" lat="63.5057722249" lon="11.2797500083">
		<tag k="name" v="Tronmomyra" />
		<tag k="natural" v="wetland" />
		<tag k="ssr:stedsnr" v="558520" />
	</node>
	<node id="-764827" lat="63.4258833312" lon="10.9992583265">
		<tag k="name" v="Postmyra" />
		<tag k="natural" v="wetland" />
		<tag k="ssr:stedsnr" v="696842" />
	</node>
	<node id="-764826" lat="63.4566694448" lon="11.2825833311">
		<tag k="name" v="Grindhølmyra" />
		<tag k="natural" v="wetland" />
		<tag k="ssr:stedsnr" v="696533" />
	</node>
	<node id="-764821" lat="63.5461277734" lon="11.1542777835">
		<tag k="name" v="Vargmyra" />
>>>>>>> e1d4bc35ff8a6074a6f2e91616a996b547c36f15
		<tag k="natural" v="wetland" />
		<tag k="ssr:stedsnr" v="696487" />
	</node>
<<<<<<< HEAD
	<node lat="63.36989166751011" lon="11.088833324350786" id="-27717">
		<tag k="name" v="Svedjan" />
		<tag k="natural" v="wetland" />
		<tag k="ssr:stedsnr" v="134453" />
	</node>
	<node lat="63.42954166730218" lon="11.112280551831828" id="-27729">
		<tag k="name" v="Stormyra" />
		<tag k="natural" v="wetland" />
		<tag k="ssr:stedsnr" v="255160" />
	</node>
	<node lat="63.46841944559806" lon="11.007572226841276" id="-27753">
		<tag k="name" v="Brannmyra" />
		<tag k="natural" v="wetland" />
		<tag k="ssr:stedsnr" v="148705" />
	</node>
	<node lat="63.50694444471768" lon="11.044549990055032" id="-27757">
		<tag k="name" v="Hessmyra" />
		<tag k="natural" v="wetland" />
		<tag k="ssr:stedsnr" v="148774" />
	</node>
	<node lat="63.38735555856797" lon="10.927866676612755" id="-27764">
		<tag k="name" v="Damsletta" />
		<tag k="natural" v="wetland" />
		<tag k="ssr:stedsnr" v="148958" />
	</node>
	<node lat="63.395155556021734" lon="10.932705563889613" id="-27767">
		<tag k="name" v="Kjerringkastmyra" />
		<tag k="natural" v="wetland" />
		<tag k="ssr:stedsnr" v="148969" />
	</node>
	<node lat="63.469147220369436" lon="11.348297220255366" id="-27772">
		<tag k="name" v="Stormyra" />
		<tag k="natural" v="wetland" />
		<tag k="ssr:stedsnr" v="149510" />
	</node>
	<node lat="63.51385833424989" lon="11.165522225339929" id="-27778">
		<tag k="name" v="Langmyra" />
		<tag k="natural" v="wetland" />
		<tag k="ssr:stedsnr" v="149428" />
	</node>
	<node lat="63.555294442660234" lon="11.033588890386726" id="-27789">
		<tag k="name" v="Frosttjønnmyra" />
		<tag k="natural" v="wetland" />
		<tag k="ssr:stedsnr" v="149714" />
	</node>
	<node lat="63.55420000289538" lon="11.030416671286968" id="-27790">
		<tag k="name" v="Bjørnmyra" />
		<tag k="natural" v="wetland" />
		<tag k="ssr:stedsnr" v="149716" />
	</node>
	<node lat="63.516930552941524" lon="11.290152769126713" id="-27797">
		<tag k="name" v="Raudåkjølen" />
		<tag k="natural" v="wetland" />
		<tag k="ssr:stedsnr" v="256447" />
	</node>
	<node lat="63.37075615229514" lon="11.290303186120997" id="-27810">
		<tag k="name" v="Vollskogen" />
		<tag k="place" v="locality" />
		<tag k="ssr:stedsnr" v="168425" />
	</node>
	<node lat="63.37777368673562" lon="11.369240235798955" id="-27812">
		<tag k="name" v="Storsillermyra" />
		<tag k="natural" v="wetland" />
		<tag k="ssr:stedsnr" v="168475" />
	</node>
	<node lat="63.53055555673017" lon="11.217800008046881" id="-27815">
		<tag k="name" v="Hogneskjølen" />
		<tag k="natural" v="wetland" />
		<tag k="ssr:stedsnr" v="168826" />
	</node>
	<node lat="63.37082592765112" lon="11.051304898455992" id="-27816">
		<tag k="name" v="Trygmyra" />
		<tag k="natural" v="wetland" />
		<tag k="ssr:stedsnr" v="169421" />
	</node>
	<node lat="63.43077777395221" lon="11.24740555786167" id="-27847">
		<tag k="name" v="Raudmyra" />
		<tag k="natural" v="wetland" />
		<tag k="ssr:stedsnr" v="210312" />
	</node>
	<node lat="63.46623888599395" lon="11.262655559150627" id="-27855">
		<tag k="name" v="Stormyra" />
		<tag k="natural" v="wetland" />
		<tag k="ssr:stedsnr" v="210492" />
	</node>
	<node lat="63.46166944188936" lon="11.09830000510233" id="-27862">
		<tag k="name" v="Vinland" />
		<tag k="place" v="locality" />
		<tag k="ssr:stedsnr" v="210690" />
	</node>
	<node lat="63.442236115517375" lon="10.89934444151815" id="-27870">
		<tag k="landuse" v="quarry" />
		<tag k="name" v="Dronningberget" />
		<tag k="ssr:stedsnr" v="210829" />
	</node>
	<node lat="63.47892500305652" lon="10.973186115389792" id="-27873">
		<tag k="name" v="Finnmyra" />
		<tag k="natural" v="wetland" />
		<tag k="ssr:stedsnr" v="210893" />
	</node>
	<node lat="63.4367277737244" lon="11.172702776577907" id="-27874">
		<tag k="name" v="Slåttmyra" />
		<tag k="natural" v="wetland" />
		<tag k="ssr:stedsnr" v="270403" />
	</node>
	<node lat="63.4045999979148" lon="10.96649443649619" id="-27906">
		<tag k="name" v="Trongskurrumyra" />
		<tag k="natural" v="wetland" />
		<tag k="ssr:stedsnr" v="270968" />
	</node>
	<node lat="63.4171722208192" lon="11.042799990301592" id="-27930">
		<tag k="name" v="Skinnfellbua" />
		<tag k="natural" v="wetland" />
		<tag k="ssr:stedsnr" v="271754" />
	</node>
	<node lat="63.54659166997883" lon="11.413891666116463" id="-27939">
		<tag k="name" v="Hofstadvollbjørga" />
		<tag k="natural" v="wetland" />
		<tag k="ssr:stedsnr" v="230709" />
	</node>
	<node lat="63.480541662613504" lon="11.211536115139358" id="-27942">
		<tag k="name" v="Stordalsmyra" />
		<tag k="natural" v="wetland" />
		<tag k="ssr:stedsnr" v="453469" />
	</node>
	<node lat="63.42985278082928" lon="11.162119438082382" id="-27950">
		<tag k="name" v="Vollmyra" />
		<tag k="natural" v="wetland" />
		<tag k="ssr:stedsnr" v="452411" />
	</node>
	<node lat="63.49088610796823" lon="11.014099996268536" id="-27957">
		<tag k="name" v="Beistadmyra" />
		<tag k="natural" v="wetland" />
		<tag k="ssr:stedsnr" v="452735" />
	</node>
	<node lat="63.449769445343584" lon="11.434044437309687" id="-27977">
		<tag k="name" v="Stormyra" />
		<tag k="natural" v="wetland" />
		<tag k="ssr:stedsnr" v="453181" />
	</node>
	<node lat="63.43026666905204" lon="11.173702780002715" id="-27978">
		<tag k="name" v="Langmyra" />
		<tag k="natural" v="wetland" />
		<tag k="ssr:stedsnr" v="453433" />
	</node>
	<node lat="63.55355833027277" lon="11.144672219784923" id="-27987">
		<tag k="landuse" v="quarry" />
		<tag k="name" v="Buland gruver" />
		<tag k="ssr:stedsnr" v="453486" />
	</node>
	<node lat="63.36560000274246" lon="11.312377770299626" id="-27996">
		<tag k="historic" v="shieling" />
		<tag k="name" v="Hevlvollen" />
		<tag k="place" v="locality" />
		<tag k="ssr:stedsnr" v="255422" />
	</node>
	<node lat="63.40118611430674" lon="11.370819447725701" id="-28005">
		<tag k="fixme" v="multiple name tags, choose one and add the other to alt_name" />
		<tag k="name" v="Kongrosletta;Bakvendtkjølen" />
		<tag k="natural" v="wetland" />
		<tag k="ssr:stedsnr" v="256363" />
	</node>
	<node lat="63.47284999687791" lon="11.403763883625144" id="-28041">
		<tag k="name" v="Flåmyra" />
		<tag k="natural" v="wetland" />
		<tag k="ssr:stedsnr" v="271215" />
	</node>
	<node lat="63.490197221649154" lon="11.318066664471173" id="-28046">
		<tag k="name" v="Raudmyra" />
		<tag k="natural" v="wetland" />
		<tag k="ssr:stedsnr" v="271378" />
	</node>
	<node lat="63.42673333720412" lon="11.02321944782589" id="-28051">
		<tag k="name" v="Hesjemyra" />
		<tag k="natural" v="wetland" />
		<tag k="ssr:stedsnr" v="271887" />
	</node>
	<node lat="63.41981944379659" lon="10.994000001774257" id="-28086">
		<tag k="alt_name" v="Røåsmyra" />
		<tag k="name" v="Jonsletta" />
		<tag k="natural" v="wetland" />
		<tag k="ssr:stedsnr" v="317021" />
	</node>
	<node lat="63.51567222123838" lon="11.02405554656355" id="-28092">
		<tag k="name" v="Kringelåsmyra" />
		<tag k="natural" v="wetland" />
		<tag k="ssr:stedsnr" v="331553" />
	</node>
	<node lat="63.535197226788775" lon="11.084572216912036" id="-28093">
		<tag k="name" v="Rundmyra" />
		<tag k="natural" v="wetland" />
		<tag k="ssr:stedsnr" v="331556" />
	</node>
	<node lat="63.48454722581074" lon="10.854574998757085" id="-28108">
		<tag k="name" v="Vifstadmarka" />
		<tag k="place" v="locality" />
		<tag k="ssr:stedsnr" v="331801" />
	</node>
	<node lat="63.50504721835177" lon="10.820869441590274" id="-28110">
		<tag k="name" v="Myrhaugen" />
		<tag k="natural" v="wetland" />
		<tag k="ssr:stedsnr" v="331956" />
	</node>
	<node lat="63.52230833463465" lon="11.145397230381695" id="-28122">
		<tag k="name" v="Stormyra" />
		<tag k="natural" v="wetland" />
		<tag k="ssr:stedsnr" v="332460" />
	</node>
	<node lat="63.489677775722605" lon="11.35328055558716" id="-28124">
		<tag k="name" v="Raudmyra" />
		<tag k="natural" v="wetland" />
		<tag k="ssr:stedsnr" v="332315" />
	</node>
	<node lat="63.45149444822744" lon="11.244016663070555" id="-28128">
		<tag k="name" v="Bjørnmyra" />
		<tag k="natural" v="wetland" />
		<tag k="ssr:stedsnr" v="332496" />
	</node>
	<node lat="63.522636106743136" lon="11.178938887107549" id="-28131">
		<tag k="name" v="Tjurrubremyra" />
		<tag k="natural" v="wetland" />
		<tag k="ssr:stedsnr" v="471836" />
	</node>
	<node lat="63.369932964224375" lon="11.088427387735223" id="-28132">
		<tag k="name" v="Langmyra" />
		<tag k="natural" v="wetland" />
		<tag k="ssr:stedsnr" v="472355" />
	</node>
	<node lat="63.543024995965105" lon="11.177436114863305" id="-28141">
		<tag k="historic" v="shieling" />
		<tag k="name" v="Litlbakktjønna" />
		<tag k="place" v="locality" />
		<tag k="ssr:stedsnr" v="472857" />
	</node>
	<node lat="63.518266667392666" lon="11.452344442275766" id="-28147">
		<tag k="name" v="Kvennkjølen" />
		<tag k="natural" v="wetland" />
		<tag k="ssr:stedsnr" v="473738" />
	</node>
	<node lat="63.52300833670566" lon="11.212766673436654" id="-28149">
		<tag k="name" v="Kjølmyra" />
		<tag k="natural" v="wetland" />
		<tag k="ssr:stedsnr" v="350814" />
	</node>
	<node lat="63.37961111505424" lon="10.974861107394908" id="-28164">
		<tag k="name" v="Julsetmyra" />
		<tag k="natural" v="wetland" />
		<tag k="ssr:stedsnr" v="376487" />
	</node>
	<node lat="63.41822777545474" lon="11.105880547851283" id="-28166">
		<tag k="name" v="Moatjønnmyran" />
		<tag k="natural" v="wetland" />
		<tag k="ssr:stedsnr" v="391541" />
	</node>
	<node lat="63.528497219396435" lon="11.021397228616456" id="-28168">
		<tag k="name" v="Vargmyra" />
		<tag k="natural" v="wetland" />
		<tag k="ssr:stedsnr" v="391596" />
	</node>
	<node lat="63.52463611168108" lon="11.03604721451199" id="-28169">
		<tag k="name" v="Vassmyra" />
		<tag k="natural" v="wetland" />
		<tag k="ssr:stedsnr" v="391598" />
	</node>
	<node lat="63.53971110782755" lon="10.855875004539612" id="-28182">
		<tag k="name" v="Svemarka" />
		<tag k="place" v="locality" />
		<tag k="ssr:stedsnr" v="391908" />
	</node>
	<node lat="63.504344445487476" lon="11.37563610319487" id="-28189">
		<tag k="name" v="Luddumyra" />
		<tag k="natural" v="wetland" />
		<tag k="ssr:stedsnr" v="392186" />
	</node>
	<node lat="63.483655553746864" lon="11.289652781777438" id="-28192">
		<tag k="name" v="Nesmyra" />
=======
	<node id="-764807" lat="63.50661667" lon="11.3325277803">
		<tag k="name" v="Storslættet" />
		<tag k="natural" v="wetland" />
		<tag k="ssr:stedsnr" v="696292" />
	</node>
	<node id="-766847" lat="63.4129083317" lon="11.1132388898">
		<tag k="name" v="Ørrmyra" />
		<tag k="natural" v="wetland" />
		<tag k="ssr:stedsnr" v="802055" />
	</node>
	<node id="-766844" lat="63.5458333357" lon="11.1770583434">
		<tag k="name" v="Nyvollmyra" />
		<tag k="natural" v="wetland" />
		<tag k="ssr:stedsnr" v="776844" />
	</node>
	<node id="-766840" lat="63.5119805533" lon="11.1759694421">
		<tag k="name" v="Lomtjønnmyra" />
		<tag k="natural" v="wetland" />
		<tag k="ssr:stedsnr" v="776650" />
	</node>
	<node id="-766835" lat="63.3670390265" lon="11.1300164309">
		<tag k="name" v="Stormyra" />
		<tag k="natural" v="wetland" />
		<tag k="ssr:stedsnr" v="775420" />
	</node>
	<node id="-764782" lat="63.3945583295" lon="11.1001027728">
		<tag k="name" v="Småmyra" />
		<tag k="natural" v="wetland" />
		<tag k="ssr:stedsnr" v="695688" />
	</node>
	<node id="-764778" lat="63.5045388879" lon="10.9521833393">
		<tag k="name" v="Tjønnmyra" />
		<tag k="natural" v="wetland" />
		<tag k="ssr:stedsnr" v="695778" />
	</node>
	<node id="-764770" lat="63.5405944421" lon="11.0926249974">
		<tag k="name" v="Oldersvemyra" />
		<tag k="natural" v="wetland" />
		<tag k="ssr:stedsnr" v="695587" />
	</node>
	<node id="-766817" lat="63.3873611106" lon="11.0295472125">
		<tag k="name" v="Tronomyra" />
		<tag k="natural" v="wetland" />
		<tag k="ssr:stedsnr" v="756717" />
	</node>
	<node id="-764768" lat="63.5270777818" lon="11.4569722222">
		<tag k="name" v="Nedre Bærmyran" />
		<tag k="natural" v="wetland" />
		<tag k="ssr:stedsnr" v="533754" />
	</node>
	<node id="-764761" lat="63.4501861098" lon="11.2819555605">
		<tag k="name" v="Raudmyra" />
		<tag k="natural" v="wetland" />
		<tag k="ssr:stedsnr" v="514536" />
	</node>
	<node id="-764757" lat="63.4081611124" lon="11.2661055552">
		<tag k="name" v="Tjønnmyra" />
		<tag k="natural" v="wetland" />
		<tag k="ssr:stedsnr" v="514510" />
	</node>
	<node id="-764755" lat="63.5117777766" lon="11.3038916601">
		<tag k="name" v="Kammyra" />
		<tag k="natural" v="wetland" />
		<tag k="ssr:stedsnr" v="514310" />
	</node>
	<node id="-764754" lat="63.4392916691" lon="11.2801416706">
		<tag k="name" v="Kråkmyra" />
		<tag k="natural" v="wetland" />
		<tag k="ssr:stedsnr" v="514304" />
	</node>
	<node id="-766796" lat="63.4723638883" lon="11.1945861047">
		<tag k="name" v="Setermyra" />
		<tag k="natural" v="wetland" />
		<tag k="ssr:stedsnr" v="756470" />
	</node>
	<node id="-766793" lat="63.5442611141" lon="11.1397888928">
		<tag k="name" v="Rundmyra" />
		<tag k="natural" v="wetland" />
		<tag k="ssr:stedsnr" v="756460" />
	</node>
	<node id="-766787" lat="63.4340499964" lon="11.1568166596">
		<tag k="name" v="Mastermyra" />
		<tag k="natural" v="wetland" />
		<tag k="ssr:stedsnr" v="756396" />
	</node>
	<node id="-766781" lat="63.4765694418" lon="11.2445138978">
		<tag k="name" v="Jøssumyra" />
		<tag k="natural" v="wetland" />
		<tag k="ssr:stedsnr" v="756317" />
	</node>
	<node id="-766779" lat="63.5018750003" lon="11.3333888831">
		<tag k="name" v="Kvitbergmyra" />
		<tag k="natural" v="wetland" />
		<tag k="ssr:stedsnr" v="756290" />
	</node>
	<node id="-766778" lat="63.5028249986" lon="11.2967611066">
		<tag k="name" v="Storkjølen" />
		<tag k="natural" v="wetland" />
		<tag k="ssr:stedsnr" v="756282" />
	</node>
	<node id="-764726" lat="63.3987611153" lon="10.923038882">
		<tag k="name" v="Linkjøldmyra" />
		<tag k="natural" v="wetland" />
		<tag k="ssr:stedsnr" v="498511" />
	</node>
	<node id="-766759" lat="63.5477305521" lon="11.0175444383">
		<tag k="name" v="Raudmyra" />
		<tag k="natural" v="wetland" />
		<tag k="ssr:stedsnr" v="741796" />
	</node>
	<node id="-766745" lat="63.5501027793" lon="11.3465305521">
		<tag k="loc_name" v="Beistadkjølen" />
		<tag k="name" v="Beistadkjølan" />
		<tag k="natural" v="wetland" />
		<tag k="ssr:stedsnr" v="741528" />
	</node>
	<node id="-765741" lat="63.5301944407" lon="11.1805694445">
		<tag k="name" v="Nyvendmyra" />
		<tag k="natural" v="wetland" />
		<tag k="ssr:stedsnr" v="107838" />
	</node>
	<node id="-766722" lat="63.4228361073" lon="10.9907833385">
		<tag k="name" v="Stormyra" />
		<tag k="natural" v="wetland" />
		<tag k="ssr:stedsnr" v="741033" />
	</node>
	<node id="-766718" lat="63.4312250033" lon="11.1877805588">
		<tag k="fixme" v="multiple name tags, choose one and add the other to alt_name" />
		<tag k="name" v="Ingstadneskjølen;Storkjølen" />
		<tag k="natural" v="wetland" />
		<tag k="ssr:stedsnr" v="741139" />
	</node>
	<node id="-766717" lat="63.4403805602" lon="11.1048361037">
		<tag k="name" v="Kleivmyra" />
		<tag k="natural" v="wetland" />
		<tag k="ssr:stedsnr" v="741134" />
	</node>
	<node id="-766714" lat="63.404274997" lon="11.1160416637">
		<tag k="alt_name" v="Bergmyran" />
		<tag k="name" v="Bergmyra" />
		<tag k="natural" v="wetland" />
		<tag k="ssr:stedsnr" v="741071" />
	</node>
	<node id="-766711" lat="63.5339305523" lon="11.1905805572">
		<tag k="name" v="Langslette" />
		<tag k="natural" v="wetland" />
		<tag k="ssr:stedsnr" v="654847" />
	</node>
	<node id="-764655" lat="63.490886108" lon="11.0140999963">
		<tag k="name" v="Beistadmyra" />
		<tag k="natural" v="wetland" />
		<tag k="ssr:stedsnr" v="452735" />
	</node>
	<node id="-764648" lat="63.433766665" lon="11.16502499">
		<tag k="name" v="Øvre-Slåttmyra" />
		<tag k="natural" v="wetland" />
		<tag k="ssr:stedsnr" v="452414" />
	</node>
	<node id="-764647" lat="63.4298527808" lon="11.1621194381">
		<tag k="name" v="Vollmyra" />
		<tag k="natural" v="wetland" />
		<tag k="ssr:stedsnr" v="452411" />
	</node>
	<node id="-766693" lat="63.472558335" lon="11.3331444518">
		<tag k="name" v="Salmyra" />
		<tag k="natural" v="wetland" />
		<tag k="ssr:stedsnr" v="635336" />
	</node>
	<node id="-764643" lat="63.5645472238" lon="10.9776416638">
		<tag k="name" v="Tjønnmyra" />
		<tag k="natural" v="wetland" />
		<tag k="ssr:stedsnr" v="655779" />
	</node>
	<node id="-766690" lat="63.5357250005" lon="11.1440666594">
		<tag k="name" v="Vassmyra" />
		<tag k="natural" v="wetland" />
		<tag k="ssr:stedsnr" v="635475" />
	</node>
	<node id="-764638" lat="63.4228333329" lon="10.981386117">
		<tag k="name" v="Langbergmyra" />
		<tag k="natural" v="wetland" />
		<tag k="ssr:stedsnr" v="514818" />
	</node>
	<node id="-764637" lat="63.4168972205" lon="11.0971555563">
		<tag k="name" v="Moatjønnnmyra" />
		<tag k="natural" v="wetland" />
		<tag k="ssr:stedsnr" v="514697" />
	</node>
	<node id="-764631" lat="63.4891222181" lon="11.1396666671">
		<tag k="name" v="Bjørnmyra" />
		<tag k="natural" v="wetland" />
		<tag k="ssr:stedsnr" v="514448" />
	</node>
	<node id="-766676" lat="63.4142972204" lon="11.0996833369">
		<tag k="name" v="Raudmyra" />
		<tag k="natural" v="wetland" />
		<tag k="ssr:stedsnr" v="634733" />
	</node>
	<node id="-766674" lat="63.3952805514" lon="11.0945722131">
		<tag k="name" v="Raudmyra" />
		<tag k="natural" v="wetland" />
		<tag k="ssr:stedsnr" v="634717" />
	</node>
	<node id="-764625" lat="63.4491722198" lon="11.4169111106">
		<tag k="name" v="Bråttmyra" />
		<tag k="natural" v="wetland" />
		<tag k="ssr:stedsnr" v="514393" />
	</node>
	<node id="-764622" lat="63.4731027815" lon="11.3231666584">
		<tag k="name" v="Jomyra" />
		<tag k="natural" v="wetland" />
		<tag k="ssr:stedsnr" v="514359" />
	</node>
	<node id="-764621" lat="63.472538892" lon="11.3078499937">
		<tag k="name" v="Høgmyra" />
		<tag k="natural" v="wetland" />
		<tag k="ssr:stedsnr" v="514357" />
	</node>
	<node id="-764616" lat="63.4845277784" lon="11.4393027871">
		<tag k="name" v="Gravmyra" />
		<tag k="natural" v="wetland" />
		<tag k="ssr:stedsnr" v="514206" />
	</node>
	<node id="-764613" lat="63.5023944484" lon="11.3641249987">
		<tag k="name" v="Langmyra" />
		<tag k="natural" v="wetland" />
		<tag k="ssr:stedsnr" v="514181" />
	</node>
	<node id="-766654" lat="63.4476250016" lon="11.1295833307">
		<tag k="name" v="Lunningsmyra" />
		<tag k="natural" v="wetland" />
		<tag k="ssr:stedsnr" v="634623" />
	</node>
	<node id="-764604" lat="63.4082111113" lon="10.9047999956">
		<tag k="name" v="Ol-Jakobhølet" />
		<tag k="natural" v="wetland" />
		<tag k="ssr:stedsnr" v="513933" />
	</node>
	<node id="-766642" lat="63.3932166702" lon="11.1779361182">
		<tag k="alt_name" v="Dugurdskjølen" />
		<tag k="name" v="Dugardskjølen" />
		<tag k="natural" v="wetland" />
		<tag k="ssr:stedsnr" v="620423" />
	</node>
	<node id="-764585" lat="63.5172694454" lon="10.966633333">
		<tag k="name" v="Rundhåmmårmyra" />
		<tag k="natural" v="wetland" />
		<tag k="ssr:stedsnr" v="513879" />
	</node>
	<node id="-766632" lat="63.4774861094" lon="11.0226916621">
		<tag k="name" v="Hofstadmyra" />
		<tag k="natural" v="wetland" />
		<tag k="ssr:stedsnr" v="620140" />
	</node>
	<node id="-764583" lat="63.5192888906" lon="10.9723361133">
		<tag k="name" v="Kamslettmyra" />
>>>>>>> e1d4bc35ff8a6074a6f2e91616a996b547c36f15
		<tag k="natural" v="wetland" />
		<tag k="ssr:stedsnr" v="513877" />
	</node>
<<<<<<< HEAD
	<node lat="63.476872221802324" lon="11.284924997420173" id="-28193">
		<tag k="name" v="Korsmyra" />
		<tag k="natural" v="wetland" />
		<tag k="ssr:stedsnr" v="392335" />
	</node>
	<node lat="63.37542780360902" lon="11.042918447895008" id="-28205">
		<tag k="name" v="Langmyran" />
		<tag k="natural" v="wetland" />
		<tag k="ssr:stedsnr" v="411392" />
	</node>
	<node lat="63.5174194422951" lon="11.18359722665995" id="-28206">
		<tag k="name" v="Brattåsmyra" />
		<tag k="natural" v="wetland" />
		<tag k="ssr:stedsnr" v="411822" />
	</node>
	<node lat="63.35108055135405" lon="10.878433324411695" id="-28213">
		<tag k="name" v="Vakkermyran" />
		<tag k="natural" v="wetland" />
		<tag k="ssr:stedsnr" v="437409" />
	</node>
	<node lat="63.43376666495296" lon="11.165024989971533" id="-28242">
		<tag k="name" v="Øvre-Slåttmyra" />
		<tag k="natural" v="wetland" />
		<tag k="ssr:stedsnr" v="452414" />
	</node>
	<node lat="63.4148194424329" lon="10.884802768182196" id="-28252">
		<tag k="name" v="Kringelåsmyra" />
		<tag k="natural" v="wetland" />
		<tag k="ssr:stedsnr" v="452922" />
	</node>
	<node lat="63.49105277495142" lon="11.48232221882931" id="-28256">
		<tag k="name" v="Firtjønnmyra" />
		<tag k="natural" v="wetland" />
		<tag k="ssr:stedsnr" v="453223" />
	</node>
	<node lat="63.37617095614829" lon="11.345445813773859" id="-28268">
		<tag k="name" v="Øymyra" />
		<tag k="natural" v="wetland" />
		<tag k="ssr:stedsnr" v="472418" />
	</node>
	<node lat="63.34295277881227" lon="10.898325009150485" id="-28307">
		<tag k="name" v="Storvollmyra" />
		<tag k="natural" v="wetland" />
		<tag k="ssr:stedsnr" v="680453" />
	</node>
	<node lat="63.39876111525819" lon="10.923038881982526" id="-28346">
		<tag k="name" v="Linkjøldmyra" />
		<tag k="natural" v="wetland" />
		<tag k="ssr:stedsnr" v="498511" />
	</node>
	<node lat="63.528466665619675" lon="11.039969440400617" id="-28363">
		<tag k="name" v="Langmyran" />
		<tag k="natural" v="wetland" />
		<tag k="ssr:stedsnr" v="513584" />
	</node>
	<node lat="63.51165833228441" lon="10.904797219317325" id="-28376">
		<tag k="name" v="Rådalsmyra" />
		<tag k="natural" v="wetland" />
		<tag k="ssr:stedsnr" v="513779" />
	</node>
	<node lat="63.51928889059615" lon="10.97233611326799" id="-28383">
		<tag k="name" v="Kamslettmyra" />
		<tag k="natural" v="wetland" />
		<tag k="ssr:stedsnr" v="513877" />
	</node>
	<node lat="63.4845277783563" lon="11.439302787091712" id="-28385">
		<tag k="name" v="Gravmyra" />
		<tag k="natural" v="wetland" />
		<tag k="ssr:stedsnr" v="514206" />
	</node>
	<node lat="63.50239444837972" lon="11.364124998706503" id="-28388">
		<tag k="name" v="Langmyra" />
		<tag k="natural" v="wetland" />
		<tag k="ssr:stedsnr" v="514181" />
	</node>
	<node lat="63.439291669112926" lon="11.280141670558997" id="-28389">
		<tag k="name" v="Kråkmyra" />
		<tag k="natural" v="wetland" />
		<tag k="ssr:stedsnr" v="514304" />
	</node>
	<node lat="63.511777776629366" lon="11.303891660072624" id="-28390">
		<tag k="name" v="Kammyra" />
		<tag k="natural" v="wetland" />
		<tag k="ssr:stedsnr" v="514310" />
	</node>
	<node lat="63.4081611124364" lon="11.266105555159488" id="-28394">
		<tag k="name" v="Tjønnmyra" />
		<tag k="natural" v="wetland" />
		<tag k="ssr:stedsnr" v="514510" />
	</node>
	<node lat="63.42283333289406" lon="10.981386116966345" id="-28396">
		<tag k="name" v="Langbergmyra" />
		<tag k="natural" v="wetland" />
		<tag k="ssr:stedsnr" v="514818" />
	</node>
	<node lat="63.412602776452665" lon="10.879213885187347" id="-28408">
		<tag k="name" v="Stormyra" />
		<tag k="natural" v="wetland" />
		<tag k="ssr:stedsnr" v="558060" />
	</node>
	<node lat="63.3567111077645" lon="10.91076943777356" id="-28414">
		<tag k="name" v="Bjørnmyra" />
		<tag k="natural" v="wetland" />
		<tag k="ssr:stedsnr" v="558445" />
	</node>
	<node lat="63.439461109263256" lon="11.16561389802962" id="-28448">
		<tag k="name" v="Torsmyran" />
		<tag k="natural" v="wetland" />
		<tag k="ssr:stedsnr" v="573560" />
	</node>
	<node lat="63.54998611372068" lon="11.048474999596753" id="-28458">
		<tag k="name" v="Kaldåmyran" />
		<tag k="natural" v="wetland" />
		<tag k="ssr:stedsnr" v="573695" />
	</node>
	<node lat="63.42393611482913" lon="10.858399996359228" id="-28461">
		<tag k="name" v="Fuggelmyran" />
		<tag k="natural" v="wetland" />
		<tag k="ssr:stedsnr" v="573908" />
	</node>
	<node lat="63.401949995901155" lon="10.902680547237166" id="-28462">
		<tag k="name" v="Småmyran" />
		<tag k="natural" v="wetland" />
		<tag k="ssr:stedsnr" v="573954" />
	</node>
	<node lat="63.541113892832705" lon="11.135461110674758" id="-28471">
		<tag k="name" v="Setermyra" />
		<tag k="natural" v="wetland" />
		<tag k="ssr:stedsnr" v="574518" />
	</node>
	<node lat="63.394558329520066" lon="11.100102772769693" id="-28473">
		<tag k="name" v="Småmyra" />
		<tag k="natural" v="wetland" />
		<tag k="ssr:stedsnr" v="695688" />
	</node>
	<node lat="63.54059444205406" lon="11.09262499739468" id="-28477">
		<tag k="name" v="Oldersvemyra" />
		<tag k="natural" v="wetland" />
		<tag k="ssr:stedsnr" v="695587" />
	</node>
	<node lat="63.51226944507558" lon="10.881980555423997" id="-28485">
		<tag k="name" v="Brannan" />
		<tag k="place" v="locality" />
		<tag k="ssr:stedsnr" v="695764" />
	</node>
	<node lat="63.393097225032584" lon="10.915405546472137" id="-28494">
		<tag k="name" v="Hesjedalsmyra" />
		<tag k="natural" v="wetland" />
		<tag k="ssr:stedsnr" v="695961" />
	</node>
	<node lat="63.506616670047606" lon="11.332527780298427" id="-28506">
		<tag k="name" v="Storslættet" />
		<tag k="natural" v="wetland" />
		<tag k="ssr:stedsnr" v="696292" />
	</node>
	<node lat="63.54612777344825" lon="11.15427778351294" id="-28515">
		<tag k="name" v="Vargmyra" />
		<tag k="natural" v="wetland" />
		<tag k="ssr:stedsnr" v="696487" />
	</node>
	<node lat="63.45666944479888" lon="11.282583331130796" id="-28526">
		<tag k="name" v="Grindhølmyra" />
		<tag k="natural" v="wetland" />
		<tag k="ssr:stedsnr" v="696533" />
	</node>
	<node lat="63.42588333116331" lon="10.999258326511091" id="-28527">
		<tag k="name" v="Postmyra" />
		<tag k="natural" v="wetland" />
		<tag k="ssr:stedsnr" v="696842" />
	</node>
	<node lat="63.45090833381649" lon="11.458394437405508" id="-28551">
		<tag k="name" v="Mevollmyra" />
=======
	<node id="-764580" lat="63.4454250028" lon="11.1109555559">
		<tag k="name" v="Tørresmyra" />
		<tag k="natural" v="wetland" />
		<tag k="ssr:stedsnr" v="513626" />
	</node>
	<node id="-764577" lat="63.5343555532" lon="11.0905722127">
		<tag k="landuse" v="quarry" />
		<tag k="name" v="Hastadberga" />
		<tag k="ssr:stedsnr" v="513594" />
	</node>
	<node id="-764576" lat="63.5162750004" lon="11.0058805579">
		<tag k="name" v="Brumyra" />
		<tag k="natural" v="wetland" />
		<tag k="ssr:stedsnr" v="513591" />
	</node>
	<node id="-764574" lat="63.5284666656" lon="11.0399694404">
		<tag k="name" v="Langmyran" />
		<tag k="natural" v="wetland" />
		<tag k="ssr:stedsnr" v="513584" />
	</node>
	<node id="-764572" lat="63.5116583323" lon="10.9047972193">
		<tag k="name" v="Rådalsmyra" />
		<tag k="natural" v="wetland" />
		<tag k="ssr:stedsnr" v="513779" />
	</node>
	<node id="-766616" lat="63.3424416683" lon="11.1025694466">
		<tag k="name" v="Blisjimyra" />
		<tag k="natural" v="wetland" />
		<tag k="ssr:stedsnr" v="619471" />
	</node>
	<node id="-766614" lat="63.3411333315" lon="11.3517999909">
		<tag k="historic" v="shieling" />
		<tag k="name" v="Kvellovollen" />
		<tag k="place" v="locality" />
		<tag k="ssr:stedsnr" v="619461" />
	</node>
	<node id="-764564" lat="63.3754278036" lon="11.0429184479">
		<tag k="name" v="Langmyran" />
		<tag k="natural" v="wetland" />
		<tag k="ssr:stedsnr" v="411392" />
	</node>
	<node id="-764555" lat="63.4826083364" lon="11.1404944417">
		<tag k="name" v="Vollmyran" />
		<tag k="natural" v="wetland" />
		<tag k="ssr:stedsnr" v="392463" />
	</node>
	<node id="-764554" lat="63.481261109" lon="11.1619666753">
		<tag k="name" v="Torvmyra" />
		<tag k="natural" v="wetland" />
		<tag k="ssr:stedsnr" v="392462" />
	</node>
	<node id="-764553" lat="63.4286138921" lon="11.1769027762">
		<tag k="name" v="Greinsmyrin" />
		<tag k="natural" v="wetland" />
		<tag k="ssr:stedsnr" v="392452" />
	</node>
	<node id="-765036" lat="63.3429527788" lon="10.8983250092">
		<tag k="name" v="Storvollmyra" />
		<tag k="natural" v="wetland" />
		<tag k="ssr:stedsnr" v="680453" />
	</node>
	<node id="-766598" lat="63.3741638853" lon="10.889791676">
		<tag k="name" v="Langmyran" />
		<tag k="natural" v="wetland" />
		<tag k="ssr:stedsnr" v="619190" />
	</node>
	<node id="-764542" lat="63.3909111129" lon="10.8992694448">
		<tag k="name" v="Langslættet" />
		<tag k="natural" v="wetland" />
		<tag k="ssr:stedsnr" v="391970" />
	</node>
	<node id="-766587" lat="63.5643222233" lon="11.0284750074">
		<tag k="name" v="Gammelsagmyra" />
		<tag k="natural" v="wetland" />
		<tag k="ssr:stedsnr" v="594772" />
	</node>
	<node id="-764533" lat="63.5397111078" lon="10.8558750045">
		<tag k="name" v="Svemarka" />
		<tag k="place" v="locality" />
		<tag k="ssr:stedsnr" v="391908" />
	</node>
	<node id="-766580" lat="63.5570055573" lon="11.1954250005">
		<tag k="name" v="Stormyra" />
		<tag k="natural" v="wetland" />
		<tag k="ssr:stedsnr" v="593823" />
	</node>
	<node id="-764529" lat="63.3941861068" lon="11.1585333325">
		<tag k="landuse" v="quarry" />
		<tag k="name" v="Leksdal kisgruve" />
		<tag k="ssr:stedsnr" v="391657" />
	</node>
	<node id="-764524" lat="63.50033889" lon="10.9299833322">
		<tag k="name" v="Hilmyra" />
		<tag k="natural" v="wetland" />
		<tag k="ssr:stedsnr" v="391821" />
	</node>
	<node id="-766568" lat="63.3661332693" lon="11.1180222313">
		<tag k="name" v="Tjurrugråmyra" />
		<tag k="natural" v="wetland" />
		<tag k="ssr:stedsnr" v="593418" />
	</node>
	<node id="-764511" lat="63.532975002" lon="10.896163893">
		<tag k="name" v="Stormyra" />
		<tag k="natural" v="wetland" />
		<tag k="ssr:stedsnr" v="498771" />
	</node>
	<node id="-766555" lat="63.4196888912" lon="11.071019453">
		<tag k="name" v="Buemyra" />
		<tag k="natural" v="wetland" />
		<tag k="ssr:stedsnr" v="574743" />
	</node>
	<node id="-766541" lat="63.4160555531" lon="10.9157611171">
		<tag k="name" v="Leirmarka" />
		<tag k="place" v="locality" />
		<tag k="ssr:stedsnr" v="573975" />
	</node>
	<node id="-764491" lat="63.4692000007" lon="11.3313833243">
		<tag k="name" v="Salmyra" />
		<tag k="natural" v="wetland" />
		<tag k="ssr:stedsnr" v="498372" />
	</node>
	<node id="-764490" lat="63.3577777752" lon="11.2766722149">
		<tag k="name" v="Breifloan" />
		<tag k="natural" v="wetland" />
		<tag k="ssr:stedsnr" v="376446" />
	</node>
	<node id="-766532" lat="63.5335722193" lon="10.8686305505">
		<tag k="name" v="Langåsan" />
		<tag k="place" v="locality" />
		<tag k="ssr:stedsnr" v="573819" />
	</node>
	<node id="-766531" lat="63.5359722203" lon="10.8728444519">
		<tag k="name" v="Vålan" />
		<tag k="place" v="locality" />
		<tag k="ssr:stedsnr" v="573816" />
	</node>
	<node id="-766523" lat="63.4963944472" lon="11.0479250026">
		<tag k="name" v="Hessjømyran" />
		<tag k="natural" v="wetland" />
		<tag k="ssr:stedsnr" v="573738" />
	</node>
	<node id="-766520" lat="63.4019499959" lon="10.9026805472">
		<tag k="name" v="Småmyran" />
		<tag k="natural" v="wetland" />
		<tag k="ssr:stedsnr" v="573954" />
	</node>
	<node id="-766505" lat="63.4394611093" lon="11.165613898">
		<tag k="name" v="Torsmyran" />
		<tag k="natural" v="wetland" />
		<tag k="ssr:stedsnr" v="573560" />
	</node>
	<node id="-764451" lat="63.4490611104" lon="11.0999361167">
		<tag k="name" v="Stormyra" />
		<tag k="natural" v="wetland" />
		<tag k="ssr:stedsnr" v="498096" />
	</node>
	<node id="-764445" lat="63.5230083367" lon="11.2127666734">
		<tag k="name" v="Kjølmyra" />
		<tag k="natural" v="wetland" />
		<tag k="ssr:stedsnr" v="350814" />
	</node>
	<node id="-764444" lat="63.4268444401" lon="11.0508000044">
		<tag k="name" v="Fjellbrumyra" />
		<tag k="natural" v="wetland" />
		<tag k="ssr:stedsnr" v="332832" />
	</node>
	<node id="-764441" lat="63.4896777757" lon="11.3532805556">
		<tag k="name" v="Raudmyra" />
		<tag k="natural" v="wetland" />
		<tag k="ssr:stedsnr" v="332315" />
	</node>
	<node id="-764433" lat="63.5049999979" lon="11.3695861142">
		<tag k="name" v="Håkkåslættet" />
		<tag k="natural" v="wetland" />
		<tag k="ssr:stedsnr" v="332145" />
	</node>
	<node id="-766480" lat="63.4575027804" lon="11.3961694504">
		<tag k="name" v="Flormelen" />
		<tag k="place" v="locality" />
		<tag k="ssr:stedsnr" v="559276" />
	</node>
	<node id="-764421" lat="63.4864972233" lon="11.0281027726">
		<tag k="name" v="Tjurrubremyra" />
>>>>>>> e1d4bc35ff8a6074a6f2e91616a996b547c36f15
		<tag k="natural" v="wetland" />
		<tag k="ssr:stedsnr" v="619515" />
	</node>
<<<<<<< HEAD
	<node lat="63.34244166832212" lon="11.10256944662538" id="-28554">
		<tag k="name" v="Blisjimyra" />
		<tag k="natural" v="wetland" />
		<tag k="ssr:stedsnr" v="619471" />
	</node>
	<node lat="63.39321667022565" lon="11.177936118231198" id="-28568">
		<tag k="alt_name" v="Dugurdskjølen" />
		<tag k="name" v="Dugardskjølen" />
=======
	<node id="-766462" lat="63.3567111078" lon="10.9107694378">
		<tag k="name" v="Bjørnmyra" />
>>>>>>> e1d4bc35ff8a6074a6f2e91616a996b547c36f15
		<tag k="natural" v="wetland" />
		<tag k="ssr:stedsnr" v="620423" />
	</node>
<<<<<<< HEAD
	<node lat="63.46511667073508" lon="11.306233326999799" id="-28574">
		<tag k="name" v="Slåttmyra" />
		<tag k="natural" v="wetland" />
		<tag k="ssr:stedsnr" v="634288" />
	</node>
	<node lat="63.3980138899009" lon="11.07535833250481" id="-28580">
		<tag k="name" v="Fjøsmyra" />
		<tag k="natural" v="wetland" />
		<tag k="ssr:stedsnr" v="634713" />
	</node>
	<node lat="63.41429722039391" lon="11.099683336893257" id="-28581">
		<tag k="name" v="Raudmyra" />
=======
	<node id="-764404" lat="63.4198194438" lon="10.9940000018">
		<tag k="alt_name" v="Røåsmyra" />
		<tag k="name" v="Jonsletta" />
>>>>>>> e1d4bc35ff8a6074a6f2e91616a996b547c36f15
		<tag k="natural" v="wetland" />
		<tag k="ssr:stedsnr" v="634733" />
	</node>
<<<<<<< HEAD
	<node lat="63.47255833503273" lon="11.333144451832075" id="-28595">
		<tag k="name" v="Salmyra" />
		<tag k="natural" v="wetland" />
		<tag k="ssr:stedsnr" v="635336" />
	</node>
	<node lat="63.5357250005241" lon="11.14406665942222" id="-28597">
		<tag k="name" v="Vassmyra" />
		<tag k="natural" v="wetland" />
		<tag k="ssr:stedsnr" v="635475" />
	</node>
	<node lat="63.46608888888478" lon="11.22988056176115" id="-28636">
		<tag k="name" v="Skavelmyra" />
		<tag k="natural" v="wetland" />
		<tag k="ssr:stedsnr" v="695618" />
	</node>
	<node lat="63.504538887881914" lon="10.952183339324026" id="-28644">
		<tag k="name" v="Tjønnmyra" />
=======
	<node id="-766449" lat="63.4126027765" lon="10.8792138852">
		<tag k="name" v="Stormyra" />
		<tag k="natural" v="wetland" />
		<tag k="ssr:stedsnr" v="558060" />
	</node>
	<node id="-766446" lat="63.5452944435" lon="11.1961555513">
		<tag k="historic" v="shieling" />
		<tag k="name" v="Råvollen" />
		<tag k="place" v="locality" />
		<tag k="ssr:stedsnr" v="533884" />
	</node>
	<node id="-766445" lat="63.5536527783" lon="11.1782500071">
		<tag k="name" v="Bakkmyra" />
		<tag k="natural" v="wetland" />
		<tag k="ssr:stedsnr" v="533881" />
	</node>
	<node id="-766440" lat="63.4990083367" lon="11.2776305531">
		<tag k="name" v="Bordvedmyra" />
>>>>>>> e1d4bc35ff8a6074a6f2e91616a996b547c36f15
		<tag k="natural" v="wetland" />
		<tag k="ssr:stedsnr" v="695778" />
	</node>
<<<<<<< HEAD
	<node lat="63.490222218467714" lon="10.972241657631528" id="-28649">
		<tag k="name" v="Kinnsetmyra" />
		<tag k="natural" v="wetland" />
		<tag k="ssr:stedsnr" v="695870" />
	</node>
	<node lat="63.38110318585094" lon="11.074808660245607" id="-28660">
		<tag k="name" v="Ludduenget" />
		<tag k="place" v="locality" />
		<tag k="ssr:stedsnr" v="897368" />
	</node>
	<node lat="63.36598544534773" lon="11.043960833634443" id="-28662">
		<tag k="name" v="Kvålskjølan" />
		<tag k="natural" v="wetland" />
		<tag k="ssr:stedsnr" v="897397" />
	</node>
	<node lat="63.539202780083826" lon="11.201905557189395" id="-28670">
		<tag k="historic" v="shieling" />
		<tag k="name" v="Svartdalsvollen" />
		<tag k="place" v="locality" />
		<tag k="ssr:stedsnr" v="897837" />
	</node>
	<node lat="63.39039444322354" lon="11.368602782270113" id="-28672">
		<tag k="name" v="Sundalsøyen" />
		<tag k="natural" v="wetland" />
		<tag k="ssr:stedsnr" v="898529" />
	</node>
	<node lat="63.53218333582593" lon="11.363527771057713" id="-28676">
		<tag k="name" v="Knottkjølen" />
		<tag k="natural" v="wetland" />
		<tag k="ssr:stedsnr" v="898739" />
	</node>
	<node lat="63.500663891290856" lon="11.290011105209759" id="-28677">
		<tag k="name" v="Storkarsmyra" />
		<tag k="natural" v="wetland" />
		<tag k="ssr:stedsnr" v="715680" />
	</node>
	<node lat="63.52306111022744" lon="11.197294439033028" id="-28679">
		<tag k="name" v="Tritjønnmyra" />
=======
	<node id="-766439" lat="63.5071361092" lon="11.2413555595">
		<tag k="name" v="Finnsbrekka" />
		<tag k="natural" v="wetland" />
		<tag k="ssr:stedsnr" v="533700" />
	</node>
	<node id="-766437" lat="63.4987722211" lon="11.2243777739">
		<tag k="name" v="Islandskjølen" />
		<tag k="natural" v="wetland" />
		<tag k="ssr:stedsnr" v="533690" />
	</node>
	<node id="-764377" lat="63.5182666674" lon="11.4523444423">
		<tag k="name" v="Kvennkjølen" />
		<tag k="natural" v="wetland" />
		<tag k="ssr:stedsnr" v="473738" />
	</node>
	<node id="-766424" lat="63.3765021682" lon="11.3389871012">
		<tag k="name" v="Fjøsmyra" />
>>>>>>> e1d4bc35ff8a6074a6f2e91616a996b547c36f15
		<tag k="natural" v="wetland" />
		<tag k="ssr:stedsnr" v="533441" />
	</node>
<<<<<<< HEAD
	<node lat="63.440380560187165" lon="11.10483610366942" id="-28692">
		<tag k="name" v="Kleivmyra" />
		<tag k="natural" v="wetland" />
		<tag k="ssr:stedsnr" v="741134" />
	</node>
	<node lat="63.431225003290635" lon="11.187780558813579" id="-28693">
		<tag k="fixme" v="multiple name tags, choose one and add the other to alt_name" />
		<tag k="name" v="Ingstadneskjølen;Storkjølen" />
		<tag k="natural" v="wetland" />
		<tag k="ssr:stedsnr" v="741139" />
	</node>
	<node lat="63.50501944806627" lon="11.439408340566748" id="-28698">
		<tag k="name" v="Klipmyra" />
		<tag k="natural" v="wetland" />
		<tag k="ssr:stedsnr" v="741311" />
	</node>
	<node lat="63.54773055214523" lon="11.017544438313939" id="-28720">
		<tag k="name" v="Raudmyra" />
		<tag k="natural" v="wetland" />
		<tag k="ssr:stedsnr" v="741796" />
	</node>
	<node lat="63.434049996353906" lon="11.15681665958158" id="-28729">
		<tag k="name" v="Mastermyra" />
		<tag k="natural" v="wetland" />
		<tag k="ssr:stedsnr" v="756396" />
	</node>
	<node lat="63.544261114097715" lon="11.139788892781072" id="-28734">
		<tag k="name" v="Rundmyra" />
		<tag k="natural" v="wetland" />
		<tag k="ssr:stedsnr" v="756460" />
	</node>
	<node lat="63.45031666235245" lon="11.167905546720839" id="-28737">
		<tag k="name" v="Bombemyra" />
		<tag k="natural" v="wetland" />
		<tag k="ssr:stedsnr" v="756611" />
	</node>
	<node lat="63.36703902654267" lon="11.130016430926883" id="-28745">
		<tag k="name" v="Stormyra" />
		<tag k="natural" v="wetland" />
		<tag k="ssr:stedsnr" v="775420" />
	</node>
	<node lat="63.451514390543046" lon="11.303569469071537" id="-28776">
		<tag k="name" v="Litlmarka" />
		<tag k="place" v="locality" />
		<tag k="ssr:stedsnr" v="802519" />
	</node>
	<node lat="63.411813888715585" lon="11.367533341615665" id="-28782">
		<tag k="historic" v="shieling" />
		<tag k="name" v="Øystre Ingstadvollen" />
		<tag k="place" v="locality" />
		<tag k="ssr:stedsnr" v="809234" />
	</node>
	<node lat="63.4142027800498" lon="11.18600277741864" id="-28785">
		<tag k="name" v="Floan" />
		<tag k="natural" v="wetland" />
		<tag k="ssr:stedsnr" v="816574" />
	</node>
	<node lat="63.470880553362065" lon="11.433766660038117" id="-28801">
		<tag k="name" v="Litlmarka" />
		<tag k="place" v="locality" />
		<tag k="ssr:stedsnr" v="817190" />
	</node>
	<node lat="63.431330554355" lon="11.1205972286675" id="-28807">
		<tag k="name" v="Hundkjerka" />
		<tag k="natural" v="stone" />
		<tag k="ssr:stedsnr" v="817409" />
	</node>
	<node lat="63.52749166381929" lon="11.030411108636779" id="-28813">
		<tag k="name" v="Småmyran" />
		<tag k="natural" v="wetland" />
		<tag k="ssr:stedsnr" v="817569" />
	</node>
	<node lat="63.52941111176629" lon="11.017608333761077" id="-28814">
		<tag k="name" v="Slåttmyra" />
		<tag k="natural" v="wetland" />
		<tag k="ssr:stedsnr" v="817572" />
	</node>
	<node lat="63.39911388833245" lon="11.14234167164097" id="-28817">
		<tag k="name" v="Leirmyra" />
		<tag k="natural" v="wetland" />
		<tag k="ssr:stedsnr" v="817625" />
	</node>
	<node lat="63.51240833629311" lon="10.898936120582357" id="-28822">
		<tag k="name" v="Bjørkåsmyra" />
		<tag k="natural" v="wetland" />
		<tag k="ssr:stedsnr" v="817789" />
	</node>
	<node lat="63.556463889607265" lon="11.294941666629924" id="-28863">
		<tag k="historic" v="shieling" />
		<tag k="name" v="Stokkvollen" />
		<tag k="place" v="locality" />
		<tag k="ssr:stedsnr" v="923509" />
	</node>
	<node lat="63.376912098556694" lon="11.08307347057078" id="-28879">
		<tag k="name" v="Bakkmyra" />
		<tag k="natural" v="wetland" />
		<tag k="ssr:stedsnr" v="837421" />
	</node>
	<node lat="63.40678055783203" lon="11.396061120009692" id="-28903">
		<tag k="historic" v="shieling" />
		<tag k="name" v="Grønfjellvollen" />
		<tag k="place" v="locality" />
		<tag k="ssr:stedsnr" v="863398" />
	</node>
	<node lat="63.38636389108154" lon="10.913541669659894" id="-28909">
		<tag k="name" v="Langmyran" />
		<tag k="natural" v="wetland" />
		<tag k="ssr:stedsnr" v="863500" />
	</node>
	<node lat="63.52540555732146" lon="11.020058335659623" id="-28920">
		<tag k="name" v="Brannen" />
		<tag k="place" v="locality" />
		<tag k="ssr:stedsnr" v="877610" />
	</node>
	<node lat="63.43713333277604" lon="11.160788895241074" id="-28921">
		<tag k="name" v="Torsmyra" />
		<tag k="natural" v="wetland" />
		<tag k="ssr:stedsnr" v="877619" />
	</node>
	<node lat="63.462724996699436" lon="10.978397231877542" id="-28922">
		<tag k="name" v="Haraldreina" />
		<tag k="place" v="locality" />
		<tag k="ssr:stedsnr" v="877703" />
	</node>
	<node lat="63.40400277966572" lon="11.008152772277437" id="-28924">
		<tag k="name" v="Kvernåsmyra" />
		<tag k="natural" v="wetland" />
		<tag k="ssr:stedsnr" v="877718" />
	</node>
	<node lat="63.51822500263888" lon="10.924005561129425" id="-28942">
		<tag k="name" v="Grønnmyra" />
		<tag k="natural" v="wetland" />
		<tag k="ssr:stedsnr" v="877866" />
	</node>
	<node lat="63.48393611212135" lon="11.152294451120637" id="-28946">
		<tag k="name" v="Fuglmyra" />
		<tag k="natural" v="wetland" />
		<tag k="ssr:stedsnr" v="878506" />
	</node>
	<node lat="63.35564879994381" lon="11.36750000971135" id="-28952">
		<tag k="name" v="Langskårmyra" />
		<tag k="natural" v="wetland" />
		<tag k="ssr:stedsnr" v="896535" />
	</node>
	<node lat="63.439236109017855" lon="11.057172221234994" id="-29000">
		<tag k="name" v="Skardmyra" />
		<tag k="natural" v="wetland" />
		<tag k="ssr:stedsnr" v="938635" />
	</node>
	<node lat="63.52137777680978" lon="10.81887776862161" id="-29007">
		<tag k="name" v="Heggjasmarka" />
		<tag k="place" v="locality" />
		<tag k="ssr:stedsnr" v="938908" />
	</node>
	<node lat="63.4480111136983" lon="11.446808330318245" id="-29029">
		<tag k="name" v="Bråttmyra" />
		<tag k="natural" v="wetland" />
		<tag k="ssr:stedsnr" v="958551" />
	</node>
	<node lat="63.51306666434848" lon="11.290799995183177" id="-29033">
		<tag k="name" v="Rauåkjølen" />
		<tag k="natural" v="wetland" />
		<tag k="ssr:stedsnr" v="958695" />
	</node>
	<node lat="63.55935278217339" lon="11.01968889250061" id="-29035">
		<tag k="name" v="Småmyran" />
		<tag k="natural" v="wetland" />
		<tag k="ssr:stedsnr" v="958812" />
	</node>
	<node lat="63.345855555949214" lon="10.920841671393326" id="-29087">
		<tag k="name" v="Nyvollskjølen" />
		<tag k="natural" v="wetland" />
		<tag k="ssr:stedsnr" v="13448" />
	</node>
	<node lat="63.3448305383499" lon="10.979836710136249" id="-29088">
		<tag k="historic" v="shieling" />
		<tag k="name" v="Værnesvollen" />
		<tag k="place" v="locality" />
		<tag k="ssr:stedsnr" v="13452" />
	</node>
	<node lat="63.47775555621744" lon="11.370994439953993" id="-29120">
		<tag k="name" v="Terjemyra" />
		<tag k="natural" v="wetland" />
		<tag k="ssr:stedsnr" v="28149" />
	</node>
	<node lat="63.503080554223445" lon="11.454969440699227" id="-29121">
		<tag k="name" v="Tjønnmyra" />
		<tag k="natural" v="wetland" />
		<tag k="ssr:stedsnr" v="28155" />
	</node>
	<node lat="63.49017222504774" lon="11.334483325474245" id="-29130">
		<tag k="name" v="Slåttmyrin" />
		<tag k="natural" v="wetland" />
		<tag k="ssr:stedsnr" v="28329" />
	</node>
	<node lat="63.49861111314515" lon="11.164241675279241" id="-29131">
		<tag k="name" v="Langdalsmyran" />
		<tag k="natural" v="wetland" />
		<tag k="ssr:stedsnr" v="28429" />
	</node>
	<node lat="63.43324166399594" lon="11.19718888669698" id="-29132">
		<tag k="name" v="Småmyrin" />
		<tag k="natural" v="wetland" />
		<tag k="ssr:stedsnr" v="28436" />
	</node>
	<node lat="63.501758336878765" lon="10.986761117822912" id="-29137">
		<tag k="name" v="Vassmyra" />
		<tag k="natural" v="wetland" />
		<tag k="ssr:stedsnr" v="28786" />
	</node>
	<node lat="63.40126389321758" lon="11.105155550958393" id="-29143">
		<tag k="name" v="Smalmyran" />
		<tag k="natural" v="wetland" />
		<tag k="ssr:stedsnr" v="28649" />
	</node>
	<node lat="63.43556389108383" lon="11.05019722633647" id="-29145">
		<tag k="name" v="Kammyra" />
		<tag k="natural" v="wetland" />
		<tag k="ssr:stedsnr" v="28659" />
	</node>
	<node lat="63.512630557919564" lon="11.014883336338665" id="-29149">
		<tag k="name" v="Klingeråsmyra" />
		<tag k="natural" v="wetland" />
		<tag k="ssr:stedsnr" v="28795" />
	</node>
	<node lat="63.51794444739152" lon="10.898788895649867" id="-29151">
		<tag k="name" v="Stormyra" />
		<tag k="natural" v="wetland" />
		<tag k="ssr:stedsnr" v="28874" />
	</node>
	<node lat="63.49893055532266" lon="11.285638883305241" id="-29172">
		<tag k="name" v="Litlkarsmyra" />
		<tag k="natural" v="wetland" />
		<tag k="ssr:stedsnr" v="48651" />
	</node>
	<node lat="63.495797219885795" lon="11.281925004230537" id="-29173">
		<tag k="name" v="Slåttmyra" />
		<tag k="natural" v="wetland" />
		<tag k="ssr:stedsnr" v="48656" />
	</node>
	<node lat="63.37674198309339" lon="11.033777480142428" id="-29231">
		<tag k="name" v="Langmyra" />
		<tag k="natural" v="wetland" />
		<tag k="ssr:stedsnr" v="229367" />
	</node>
	<node lat="63.42834722357769" lon="11.155808341660457" id="-29237">
		<tag k="name" v="Desimyra" />
		<tag k="natural" v="wetland" />
		<tag k="ssr:stedsnr" v="88345" />
	</node>
	<node lat="63.39857499879587" lon="11.133269434966488" id="-29239">
		<tag k="name" v="Beretmyra" />
		<tag k="natural" v="wetland" />
		<tag k="ssr:stedsnr" v="88576" />
	</node>
	<node lat="63.423316668159856" lon="11.1917972241966" id="-29245">
		<tag k="name" v="Brattslættet" />
		<tag k="natural" v="wetland" />
		<tag k="ssr:stedsnr" v="88459" />
	</node>
	<node lat="63.49699999597947" lon="11.05805000851828" id="-29254">
		<tag k="name" v="Porsmyra" />
		<tag k="natural" v="wetland" />
		<tag k="ssr:stedsnr" v="88720" />
	</node>
	<node lat="63.51846944491512" lon="10.786880548396814" id="-29276">
		<tag k="name" v="Rykkjasmyra" />
		<tag k="place" v="locality" />
		<tag k="ssr:stedsnr" v="88895" />
	</node>
	<node lat="63.45215277343657" lon="11.464972229558446" id="-29285">
		<tag k="name" v="Midtivollmyra" />
		<tag k="natural" v="wetland" />
		<tag k="ssr:stedsnr" v="89421" />
	</node>
	<node lat="63.466216667800175" lon="11.407997228330052" id="-29291">
		<tag k="name" v="Raudmyra" />
		<tag k="natural" v="wetland" />
		<tag k="ssr:stedsnr" v="89385" />
	</node>
	<node lat="63.49604166411598" lon="11.154444438709872" id="-29292">
		<tag k="name" v="Gangfarmyran" />
		<tag k="natural" v="wetland" />
		<tag k="ssr:stedsnr" v="89465" />
	</node>
	<node lat="63.487816666567966" lon="11.17424999716976" id="-29293">
		<tag k="name" v="Temmyra" />
		<tag k="natural" v="wetland" />
		<tag k="ssr:stedsnr" v="89476" />
	</node>
	<node lat="63.530194440722106" lon="11.180569444455326" id="-29309">
		<tag k="name" v="Nyvendmyra" />
		<tag k="natural" v="wetland" />
		<tag k="ssr:stedsnr" v="107838" />
	</node>
	<node lat="63.37561666282838" lon="11.284349996133097" id="-29316">
		<tag k="name" v="Sondalsskogen" />
		<tag k="place" v="locality" />
		<tag k="ssr:stedsnr" v="108435" />
	</node>
	<node lat="63.37096666939465" lon="10.927769450981925" id="-29321">
		<tag k="name" v="Løftmyra" />
		<tag k="natural" v="wetland" />
		<tag k="ssr:stedsnr" v="108592" />
	</node>
	<node lat="63.53676388871607" lon="11.177013895563146" id="-29322">
		<tag k="name" v="Brannmyra" />
		<tag k="natural" v="wetland" />
		<tag k="ssr:stedsnr" v="108851" />
	</node>
	<node lat="63.55919999779668" lon="11.0244944373899" id="-29331">
		<tag k="name" v="Rognåsmyra" />
		<tag k="natural" v="wetland" />
		<tag k="ssr:stedsnr" v="109757" />
	</node>
	<node lat="63.418711111469094" lon="11.148011108409575" id="-29334">
		<tag k="name" v="Rognåsmyra" />
		<tag k="natural" v="wetland" />
		<tag k="ssr:stedsnr" v="134044" />
	</node>
	<node lat="63.44024444379153" lon="11.120608324910572" id="-29341">
		<tag k="name" v="Stormyra" />
		<tag k="natural" v="wetland" />
		<tag k="ssr:stedsnr" v="134177" />
	</node>
	<node lat="63.363853860023966" lon="11.374138153991414" id="-29371">
		<tag k="historic" v="shieling" />
		<tag k="name" v="Moavollen" />
		<tag k="place" v="locality" />
		<tag k="ssr:stedsnr" v="142234" />
	</node>
	<node lat="63.401094442966055" lon="11.03851945065911" id="-29381">
		<tag k="name" v="Aunmyra" />
		<tag k="natural" v="wetland" />
		<tag k="ssr:stedsnr" v="149681" />
	</node>
	<node lat="63.40988610762549" lon="11.055169453362254" id="-29385">
		<tag k="name" v="Brannmyra" />
		<tag k="natural" v="wetland" />
		<tag k="ssr:stedsnr" v="149698" />
	</node>
	<node lat="63.4924249990523" lon="11.033827784017014" id="-29390">
		<tag k="name" v="Fuglmyra" />
		<tag k="natural" v="wetland" />
		<tag k="ssr:stedsnr" v="148751" />
	</node>
	<node lat="63.44929722078636" lon="11.44074722697827" id="-29405">
		<tag k="name" v="Raudmyra" />
		<tag k="natural" v="wetland" />
		<tag k="ssr:stedsnr" v="149136" />
	</node>
	<node lat="63.47853055589987" lon="11.442022228399713" id="-29411">
		<tag k="name" v="Raudmyra" />
		<tag k="natural" v="wetland" />
		<tag k="ssr:stedsnr" v="149172" />
	</node>
	<node lat="63.43109166745243" lon="11.282405548388624" id="-29412">
		<tag k="name" v="Sengmyrin" />
		<tag k="natural" v="wetland" />
		<tag k="ssr:stedsnr" v="149262" />
	</node>
	<node lat="63.53110833738945" lon="11.130211116506166" id="-29428">
		<tag k="name" v="Stormyra" />
		<tag k="natural" v="wetland" />
		<tag k="ssr:stedsnr" v="149481" />
	</node>
	<node lat="63.544052777898266" lon="11.076822223874803" id="-29430">
		<tag k="name" v="Langstuggumyra" />
		<tag k="natural" v="wetland" />
		<tag k="ssr:stedsnr" v="149573" />
	</node>
	<node lat="63.36498333254112" lon="11.09172221469323" id="-29439">
		<tag k="name" v="Svinamyra" />
		<tag k="natural" v="wetland" />
		<tag k="ssr:stedsnr" v="229419" />
	</node>
	<node lat="63.37401758535523" lon="11.336568569873917" id="-29447">
		<tag k="name" v="Stormyrin" />
		<tag k="natural" v="wetland" />
		<tag k="ssr:stedsnr" v="169435" />
	</node>
	<node lat="63.372197219767145" lon="11.255750009377277" id="-29504">
		<tag k="historic" v="shieling" />
		<tag k="name" v="Ertsgardsvollen" />
		<tag k="place" v="locality" />
		<tag k="ssr:stedsnr" v="195407" />
	</node>
	<node lat="63.472358329195586" lon="11.378074998548815" id="-29534">
		<tag k="name" v="Andersmyra" />
		<tag k="natural" v="wetland" />
		<tag k="ssr:stedsnr" v="210205" />
	</node>
	<node lat="63.54335555323689" lon="11.049102778705432" id="-29543">
		<tag k="name" v="Stormyra" />
		<tag k="natural" v="wetland" />
		<tag k="ssr:stedsnr" v="210590" />
	</node>
	<node lat="63.55105277630436" lon="11.03316110133091" id="-29545">
		<tag k="name" v="Kaldåmyra" />
		<tag k="natural" v="wetland" />
		<tag k="ssr:stedsnr" v="210723" />
	</node>
	<node lat="63.49179167042479" lon="11.039761118537646" id="-29556">
		<tag k="name" v="Kvittemsmyra" />
		<tag k="natural" v="wetland" />
		<tag k="ssr:stedsnr" v="210746" />
	</node>
	<node lat="63.52259722283102" lon="10.888127768715622" id="-29567">
=======
	<node id="-764372" lat="63.543024996" lon="11.1774361149">
		<tag k="historic" v="shieling" />
		<tag k="name" v="Litlbakktjønna" />
		<tag k="place" v="locality" />
		<tag k="ssr:stedsnr" v="472857" />
	</node>
	<node id="-764363" lat="63.3761709561" lon="11.3454458138">
		<tag k="name" v="Øymyra" />
		<tag k="natural" v="wetland" />
		<tag k="ssr:stedsnr" v="472418" />
	</node>
	<node id="-764361" lat="63.3699329642" lon="11.0884273877">
		<tag k="name" v="Langmyra" />
		<tag k="natural" v="wetland" />
		<tag k="ssr:stedsnr" v="472355" />
	</node>
	<node id="-764360" lat="63.5226361067" lon="11.1789388871">
		<tag k="name" v="Tjurrubremyra" />
		<tag k="natural" v="wetland" />
		<tag k="ssr:stedsnr" v="471836" />
	</node>
	<node id="-764354" lat="63.4171722208" lon="11.0427999903">
		<tag k="name" v="Skinnfellbua" />
		<tag k="natural" v="wetland" />
		<tag k="ssr:stedsnr" v="271754" />
	</node>
	<node id="-766395" lat="63.5467444421" lon="11.5692166695">
		<tag k="name" v="Naunmyra" />
		<tag k="natural" v="wetland" />
		<tag k="ssr:stedsnr" v="438457" />
	</node>
	<node id="-764345" lat="63.4728499969" lon="11.4037638836">
		<tag k="name" v="Flåmyra" />
		<tag k="natural" v="wetland" />
		<tag k="ssr:stedsnr" v="271215" />
	</node>
	<node id="-766392" lat="63.3995694448" lon="11.1995638839">
		<tag k="name" v="Storkjølen" />
		<tag k="natural" v="wetland" />
		<tag k="ssr:stedsnr" v="438437" />
	</node>
	<node id="-764334" lat="63.4045999979" lon="10.9664944365">
		<tag k="name" v="Trongskurrumyra" />
		<tag k="natural" v="wetland" />
		<tag k="ssr:stedsnr" v="270968" />
	</node>
	<node id="-764312" lat="63.4367277737" lon="11.1727027766">
		<tag k="name" v="Slåttmyra" />
		<tag k="natural" v="wetland" />
		<tag k="ssr:stedsnr" v="270403" />
	</node>
	<node id="-764301" lat="63.4011861143" lon="11.3708194477">
		<tag k="fixme" v="multiple name tags, choose one and add the other to alt_name" />
		<tag k="name" v="Bakvendtkjølen;Kongrosletta" />
		<tag k="natural" v="wetland" />
		<tag k="ssr:stedsnr" v="256363" />
	</node>
	<node id="-766346" lat="63.3510805514" lon="10.8784333244">
		<tag k="name" v="Vakkermyran" />
		<tag k="natural" v="wetland" />
		<tag k="ssr:stedsnr" v="437409" />
	</node>
	<node id="-764295" lat="63.5535583303" lon="11.1446722198">
		<tag k="landuse" v="quarry" />
		<tag k="name" v="Buland gruver" />
		<tag k="ssr:stedsnr" v="453486" />
	</node>
	<node id="-764292" lat="63.4805416626" lon="11.2115361151">
		<tag k="name" v="Stordalsmyra" />
		<tag k="natural" v="wetland" />
		<tag k="ssr:stedsnr" v="453469" />
	</node>
	<node id="-764282" lat="63.4302666691" lon="11.17370278">
		<tag k="name" v="Langmyra" />
		<tag k="natural" v="wetland" />
		<tag k="ssr:stedsnr" v="453433" />
	</node>
	<node id="-766329" lat="63.530813887" lon="11.485691672">
		<tag k="name" v="Blautfloa" />
		<tag k="natural" v="wetland" />
		<tag k="ssr:stedsnr" v="412700" />
	</node>
	<node id="-764274" lat="63.4295416673" lon="11.1122805518">
		<tag k="name" v="Stormyra" />
		<tag k="natural" v="wetland" />
		<tag k="ssr:stedsnr" v="255160" />
	</node>
	<node id="-764270" lat="63.4497694453" lon="11.4340444373">
		<tag k="name" v="Stormyra" />
		<tag k="natural" v="wetland" />
		<tag k="ssr:stedsnr" v="453181" />
	</node>
	<node id="-766314" lat="63.401716663" lon="11.292436113">
		<tag k="name" v="Rommyrin" />
		<tag k="natural" v="wetland" />
		<tag k="ssr:stedsnr" v="411481" />
	</node>
	<node id="-766306" lat="63.4097333293" lon="11.2417749949">
		<tag k="name" v="Rønsåsmyrin" />
		<tag k="natural" v="wetland" />
		<tag k="ssr:stedsnr" v="392547" />
	</node>
	<node id="-766305" lat="63.5333861123" lon="11.1077083239">
		<tag k="name" v="Myrkjølen" />
		<tag k="natural" v="wetland" />
		<tag k="ssr:stedsnr" v="392532" />
	</node>
	<node id="-766299" lat="63.4768722218" lon="11.2849249974">
		<tag k="name" v="Korsmyra" />
		<tag k="natural" v="wetland" />
		<tag k="ssr:stedsnr" v="392335" />
	</node>
	<node id="-766298" lat="63.4836555537" lon="11.2896527818">
		<tag k="name" v="Nesmyra" />
		<tag k="natural" v="wetland" />
		<tag k="ssr:stedsnr" v="392332" />
	</node>
	<node id="-766292" lat="63.5043444455" lon="11.3756361032">
		<tag k="name" v="Luddumyra" />
		<tag k="natural" v="wetland" />
		<tag k="ssr:stedsnr" v="392186" />
	</node>
	<node id="-764235" lat="63.54659167" lon="11.4138916661">
		<tag k="name" v="Hofstadvollbjørga" />
		<tag k="natural" v="wetland" />
		<tag k="ssr:stedsnr" v="230709" />
	</node>
	<node id="-764229" lat="63.3649833325" lon="11.0917222147">
		<tag k="name" v="Svinamyra" />
		<tag k="natural" v="wetland" />
		<tag k="ssr:stedsnr" v="229419" />
	</node>
	<node id="-764226" lat="63.3767419831" lon="11.0337774801">
		<tag k="name" v="Langmyra" />
		<tag k="natural" v="wetland" />
		<tag k="ssr:stedsnr" v="229367" />
	</node>
	<node id="-764222" lat="63.5510527763" lon="11.0331611013">
		<tag k="name" v="Kaldåmyra" />
		<tag k="natural" v="wetland" />
		<tag k="ssr:stedsnr" v="210723" />
	</node>
	<node id="-766269" lat="63.5246361117" lon="11.0360472145">
		<tag k="name" v="Vassmyra" />
		<tag k="natural" v="wetland" />
		<tag k="ssr:stedsnr" v="391598" />
	</node>
	<node id="-766268" lat="63.5284972194" lon="11.0213972286">
		<tag k="name" v="Vargmyra" />
		<tag k="natural" v="wetland" />
		<tag k="ssr:stedsnr" v="391596" />
	</node>
	<node id="-764219" lat="63.4422361155" lon="10.8993444415">
		<tag k="landuse" v="quarry" />
		<tag k="name" v="Dronningberget" />
		<tag k="ssr:stedsnr" v="210829" />
	</node>
	<node id="-766263" lat="63.4182277755" lon="11.1058805479">
		<tag k="name" v="Moatjønnmyran" />
		<tag k="natural" v="wetland" />
		<tag k="ssr:stedsnr" v="391541" />
	</node>
	<node id="-764212" lat="63.430777774" lon="11.2474055579">
		<tag k="name" v="Raudmyra" />
		<tag k="natural" v="wetland" />
		<tag k="ssr:stedsnr" v="210312" />
	</node>
	<node id="-764208" lat="63.4723583292" lon="11.3780749985">
		<tag k="name" v="Andersmyra" />
		<tag k="natural" v="wetland" />
		<tag k="ssr:stedsnr" v="210205" />
	</node>
	<node id="-764197" lat="63.3721972198" lon="11.2557500094">
		<tag k="historic" v="shieling" />
		<tag k="name" v="Ertsgardsvollen" />
		<tag k="place" v="locality" />
		<tag k="ssr:stedsnr" v="195407" />
	</node>
	<node id="-764190" lat="63.5590916693" lon="11.4001888841">
		<tag k="historic" v="shieling" />
		<tag k="name" v="Movollen" />
		<tag k="place" v="locality" />
		<tag k="ssr:stedsnr" v="291799" />
	</node>
	<node id="-764187" lat="63.5616444444" lon="11.0268750057">
		<tag k="name" v="Bjønndalsmyra" />
		<tag k="natural" v="wetland" />
		<tag k="ssr:stedsnr" v="291772" />
	</node>
	<node id="-764185" lat="63.5119638902" lon="11.1838305584">
		<tag k="name" v="Sekstjønnmyra" />
		<tag k="natural" v="wetland" />
		<tag k="ssr:stedsnr" v="291671" />
	</node>
	<node id="-764178" lat="63.5486472212" lon="11.1893722177">
		<tag k="name" v="Ludumsmyran" />
		<tag k="natural" v="wetland" />
		<tag k="ssr:stedsnr" v="290843" />
	</node>
	<node id="-764177" lat="63.4098861074" lon="11.3284499919">
		<tag k="name" v="Korsmyrin" />
		<tag k="natural" v="wetland" />
		<tag k="ssr:stedsnr" v="290440" />
	</node>
	<node id="-764163" lat="63.5305555567" lon="11.217800008">
		<tag k="name" v="Hogneskjølen" />
		<tag k="natural" v="wetland" />
		<tag k="ssr:stedsnr" v="168826" />
	</node>
	<node id="-764162" lat="63.3777736867" lon="11.3692402358">
		<tag k="name" v="Storsillermyra" />
		<tag k="natural" v="wetland" />
		<tag k="ssr:stedsnr" v="168475" />
	</node>
	<node id="-767019" lat="63.4015444473" lon="11.0676861033">
		<tag k="name" v="Rommyra" />
		<tag k="natural" v="wetland" />
		<tag k="ssr:stedsnr" v="863057" />
	</node>
	<node id="-764160" lat="63.3707561523" lon="11.2903031861">
		<tag k="name" v="Vollskogen" />
		<tag k="place" v="locality" />
		<tag k="ssr:stedsnr" v="168425" />
	</node>
	<node id="-764157" lat="63.5542000029" lon="11.0304166713">
		<tag k="name" v="Bjørnmyra" />
		<tag k="natural" v="wetland" />
		<tag k="ssr:stedsnr" v="149716" />
	</node>
	<node id="-764156" lat="63.5552944427" lon="11.0335888904">
		<tag k="name" v="Frosttjønnmyra" />
		<tag k="natural" v="wetland" />
		<tag k="ssr:stedsnr" v="149714" />
	</node>
	<node id="-764154" lat="63.4691472204" lon="11.3482972203">
		<tag k="name" v="Stormyra" />
		<tag k="natural" v="wetland" />
		<tag k="ssr:stedsnr" v="149510" />
	</node>
	<node id="-766197" lat="63.3796111151" lon="10.9748611074">
		<tag k="name" v="Julsetmyra" />
		<tag k="natural" v="wetland" />
		<tag k="ssr:stedsnr" v="376487" />
	</node>
	<node id="-764147" lat="63.4785305559" lon="11.4420222284">
		<tag k="name" v="Raudmyra" />
		<tag k="natural" v="wetland" />
		<tag k="ssr:stedsnr" v="149172" />
	</node>
	<node id="-764141" lat="63.4310916675" lon="11.2824055484">
		<tag k="name" v="Sengmyrin" />
		<tag k="natural" v="wetland" />
		<tag k="ssr:stedsnr" v="149262" />
	</node>
	<node id="-764140" lat="63.395155556" lon="10.9327055639">
		<tag k="name" v="Kjerringkastmyra" />
		<tag k="natural" v="wetland" />
		<tag k="ssr:stedsnr" v="148969" />
	</node>
	<node id="-766187" lat="63.4153166687" lon="10.9975138928">
		<tag k="name" v="Homyra" />
		<tag k="natural" v="wetland" />
		<tag k="ssr:stedsnr" v="376055" />
	</node>
	<node id="-764137" lat="63.3873555586" lon="10.9278666766">
		<tag k="name" v="Damsletta" />
		<tag k="natural" v="wetland" />
		<tag k="ssr:stedsnr" v="148958" />
	</node>
	<node id="-766673" lat="63.3980138899" lon="11.0753583325">
		<tag k="name" v="Fjøsmyra" />
		<tag k="natural" v="wetland" />
		<tag k="ssr:stedsnr" v="634713" />
	</node>
	<node id="-766179" lat="63.4943388907" lon="11.000338898">
		<tag k="name" v="Remarka" />
		<tag k="place" v="locality" />
		<tag k="ssr:stedsnr" v="359444" />
	</node>
	<node id="-766177" lat="63.5624194431" lon="11.1774833287">
		<tag k="name" v="Vargmyra" />
		<tag k="natural" v="wetland" />
		<tag k="ssr:stedsnr" v="351779" />
	</node>
	<node id="-764128" lat="63.4684194456" lon="11.0075722268">
		<tag k="name" v="Brannmyra" />
		<tag k="natural" v="wetland" />
		<tag k="ssr:stedsnr" v="148705" />
	</node>
	<node id="-764126" lat="63.4267333372" lon="11.0232194478">
		<tag k="name" v="Hesjemyra" />
		<tag k="natural" v="wetland" />
		<tag k="ssr:stedsnr" v="271887" />
	</node>
	<node id="-764281" lat="63.3656000027" lon="11.3123777703">
		<tag k="historic" v="shieling" />
		<tag k="name" v="Hevlvollen" />
		<tag k="place" v="locality" />
		<tag k="ssr:stedsnr" v="255422" />
	</node>
	<node id="-766670" lat="63.4682888887" lon="11.0770472226">
		<tag k="name" v="Kalvtrøa" />
		<tag k="place" v="locality" />
		<tag k="ssr:stedsnr" v="634698" />
	</node>
	<node id="-764111" lat="63.4901972216" lon="11.3180666645">
		<tag k="name" v="Raudmyra" />
		<tag k="natural" v="wetland" />
		<tag k="ssr:stedsnr" v="271378" />
	</node>
	<node id="-766154" lat="63.4514944482" lon="11.2440166631">
		<tag k="name" v="Bjørnmyra" />
		<tag k="natural" v="wetland" />
		<tag k="ssr:stedsnr" v="332496" />
	</node>
	<node id="-766151" lat="63.4390000017" lon="11.1780083311">
		<tag k="name" v="Brennmyra" />
		<tag k="natural" v="wetland" />
		<tag k="ssr:stedsnr" v="332393" />
	</node>
	<node id="-766146" lat="63.4117277754" lon="11.2308027706">
		<tag k="name" v="Martamyra" />
		<tag k="natural" v="wetland" />
		<tag k="ssr:stedsnr" v="332479" />
	</node>
	<node id="-766145" lat="63.4694916705" lon="11.2777611187">
		<tag k="name" v="Hyttmyra" />
		<tag k="natural" v="wetland" />
		<tag k="ssr:stedsnr" v="332474" />
	</node>
	<node id="-766142" lat="63.4657611072" lon="11.2698861058">
		<tag k="name" v="Langmyra" />
		<tag k="natural" v="wetland" />
		<tag k="ssr:stedsnr" v="332470" />
	</node>
	<node id="-766140" lat="63.5223083346" lon="11.1453972304">
		<tag k="name" v="Stormyra" />
		<tag k="natural" v="wetland" />
		<tag k="ssr:stedsnr" v="332460" />
	</node>
	<node id="-766136" lat="63.5000916638" lon="11.3113638954">
		<tag k="name" v="Fjøsmyra" />
		<tag k="natural" v="wetland" />
		<tag k="ssr:stedsnr" v="332284" />
	</node>
	<node id="-766129" lat="63.4710166679" lon="11.3869111066">
		<tag k="name" v="Flormyra" />
		<tag k="natural" v="wetland" />
		<tag k="ssr:stedsnr" v="332172" />
	</node>
	<node id="-766115" lat="63.5050472184" lon="10.8208694416">
		<tag k="name" v="Myrhaugen" />
		<tag k="natural" v="wetland" />
		<tag k="ssr:stedsnr" v="331956" />
	</node>
	<node id="-766113" lat="63.5069055594" lon="10.8306777728">
		<tag k="name" v="Myrmarka" />
		<tag k="place" v="locality" />
		<tag k="ssr:stedsnr" v="331941" />
	</node>
	<node id="-766112" lat="63.4107111155" lon="10.9055972322">
		<tag k="name" v="Ramnåsmyra" />
		<tag k="natural" v="wetland" />
		<tag k="ssr:stedsnr" v="331934" />
	</node>
	<node id="-766111" lat="63.409627779" lon="10.874747231">
		<tag k="name" v="Slettån" />
		<tag k="natural" v="wetland" />
		<tag k="ssr:stedsnr" v="331933" />
	</node>
	<node id="-766109" lat="63.4845472258" lon="10.8545749988">
		<tag k="name" v="Vifstadmarka" />
		<tag k="place" v="locality" />
		<tag k="ssr:stedsnr" v="331801" />
	</node>
	<node id="-764060" lat="63.5571944477" lon="11.2616305598">
		<tag k="name" v="Kvålsmyrin" />
		<tag k="natural" v="wetland" />
		<tag k="ssr:stedsnr" v="134512" />
	</node>
	<node id="-764054" lat="63.4761444461" lon="11.4197583398">
		<tag k="name" v="Rollsmyra" />
		<tag k="natural" v="wetland" />
		<tag k="ssr:stedsnr" v="134302" />
	</node>
	<node id="-764051" lat="63.4376138907" lon="11.2002777828">
		<tag k="name" v="Svartmyra" />
		<tag k="natural" v="wetland" />
		<tag k="ssr:stedsnr" v="134117" />
	</node>
	<node id="-766086" lat="63.5351972268" lon="11.0845722169">
		<tag k="name" v="Rundmyra" />
		<tag k="natural" v="wetland" />
		<tag k="ssr:stedsnr" v="331556" />
	</node>
	<node id="-766085" lat="63.5156722212" lon="11.0240555466">
		<tag k="name" v="Kringelåsmyra" />
		<tag k="natural" v="wetland" />
		<tag k="ssr:stedsnr" v="331553" />
	</node>
	<node id="-766082" lat="63.372941666" lon="11.4581750094">
		<tag k="historic" v="shieling" />
		<tag k="name" v="Øystre Lortholvollen" />
		<tag k="place" v="locality" />
		<tag k="ssr:stedsnr" v="324233" />
	</node>
	<node id="-764025" lat="63.5169305529" lon="11.2901527691">
		<tag k="name" v="Raudåkjølen" />
		<tag k="natural" v="wetland" />
		<tag k="ssr:stedsnr" v="256447" />
	</node>
	<node id="-766318" lat="63.5174194423" lon="11.1835972267">
		<tag k="name" v="Brattåsmyra" />
		<tag k="natural" v="wetland" />
		<tag k="ssr:stedsnr" v="411822" />
	</node>
	<node id="-766055" lat="63.4878944419" lon="11.4320805589">
		<tag k="name" v="Langmyra" />
		<tag k="natural" v="wetland" />
		<tag k="ssr:stedsnr" v="316296" />
	</node>
	<node id="-764258" lat="63.4148194424" lon="10.8848027682">
		<tag k="name" v="Kringelåsmyra" />
		<tag k="natural" v="wetland" />
		<tag k="ssr:stedsnr" v="452922" />
	</node>
	<node id="-766014" lat="63.394500002" lon="10.8916694488">
		<tag k="name" v="Brynndalsmyra" />
		<tag k="natural" v="wetland" />
		<tag k="ssr:stedsnr" v="210948" />
	</node>
	<node id="-766013" lat="63.4789250031" lon="10.9731861154">
		<tag k="name" v="Finnmyra" />
		<tag k="natural" v="wetland" />
		<tag k="ssr:stedsnr" v="210893" />
	</node>
	<node id="-766008" lat="63.5225972228" lon="10.8881277687">
>>>>>>> e1d4bc35ff8a6074a6f2e91616a996b547c36f15
		<tag k="name" v="Kalsmyra" />
		<tag k="natural" v="wetland" />
		<tag k="ssr:stedsnr" v="210864" />
	</node>
<<<<<<< HEAD
	<node lat="63.39450000203195" lon="10.891669448849068" id="-29574">
		<tag k="name" v="Brynndalsmyra" />
		<tag k="natural" v="wetland" />
		<tag k="ssr:stedsnr" v="210948" />
	</node>
	<node lat="63.40988610739996" lon="11.32844999190371" id="-29590">
		<tag k="name" v="Korsmyrin" />
		<tag k="natural" v="wetland" />
		<tag k="ssr:stedsnr" v="290440" />
	</node>
	<node lat="63.548647221189576" lon="11.189372217656516" id="-29591">
		<tag k="name" v="Ludumsmyran" />
		<tag k="natural" v="wetland" />
		<tag k="ssr:stedsnr" v="290843" />
	</node>
	<node lat="63.511963890170875" lon="11.183830558449179" id="-29598">
		<tag k="name" v="Sekstjønnmyra" />
		<tag k="natural" v="wetland" />
		<tag k="ssr:stedsnr" v="291671" />
	</node>
	<node lat="63.561644444374416" lon="11.026875005680498" id="-29599">
		<tag k="name" v="Bjønndalsmyra" />
		<tag k="natural" v="wetland" />
		<tag k="ssr:stedsnr" v="291772" />
	</node>
	<node lat="63.55909166929687" lon="11.400188884126612" id="-29601">
		<tag k="historic" v="shieling" />
		<tag k="name" v="Movollen" />
		<tag k="place" v="locality" />
		<tag k="ssr:stedsnr" v="291799" />
	</node>
	<node lat="63.48789444192911" lon="11.432080558900708" id="-29642">
		<tag k="name" v="Langmyra" />
		<tag k="natural" v="wetland" />
		<tag k="ssr:stedsnr" v="316296" />
	</node>
	<node lat="63.37294166600764" lon="11.45817500939083" id="-29665">
		<tag k="historic" v="shieling" />
		<tag k="name" v="Øystre Lortholvollen" />
		<tag k="place" v="locality" />
		<tag k="ssr:stedsnr" v="324233" />
	</node>
	<node lat="63.48649722328347" lon="11.028102772559285" id="-29682">
		<tag k="name" v="Tjurrubremyra" />
		<tag k="natural" v="wetland" />
		<tag k="ssr:stedsnr" v="331731" />
	</node>
	<node lat="63.409627778971185" lon="10.874747230985443" id="-29695">
		<tag k="name" v="Slettån" />
		<tag k="natural" v="wetland" />
		<tag k="ssr:stedsnr" v="331933" />
	</node>
	<node lat="63.410711115490315" lon="10.905597232158806" id="-29696">
		<tag k="name" v="Ramnåsmyra" />
		<tag k="natural" v="wetland" />
		<tag k="ssr:stedsnr" v="331934" />
	</node>
	<node lat="63.50690555935104" lon="10.830677772841442" id="-29697">
		<tag k="name" v="Myrmarka" />
		<tag k="place" v="locality" />
		<tag k="ssr:stedsnr" v="331941" />
	</node>
	<node lat="63.50499999792304" lon="11.369586114187864" id="-29699">
		<tag k="name" v="Håkkåslættet" />
		<tag k="natural" v="wetland" />
		<tag k="ssr:stedsnr" v="332145" />
	</node>
	<node lat="63.471016667917" lon="11.386911106649956" id="-29707">
		<tag k="name" v="Flormyra" />
		<tag k="natural" v="wetland" />
		<tag k="ssr:stedsnr" v="332172" />
	</node>
	<node lat="63.50009166380498" lon="11.311363895437836" id="-29711">
		<tag k="name" v="Fjøsmyra" />
		<tag k="natural" v="wetland" />
		<tag k="ssr:stedsnr" v="332284" />
	</node>
	<node lat="63.439000001666955" lon="11.178008331077743" id="-29718">
		<tag k="name" v="Brennmyra" />
		<tag k="natural" v="wetland" />
		<tag k="ssr:stedsnr" v="332393" />
	</node>
	<node lat="63.465761107175844" lon="11.269886105760799" id="-29719">
		<tag k="name" v="Langmyra" />
		<tag k="natural" v="wetland" />
		<tag k="ssr:stedsnr" v="332470" />
	</node>
	<node lat="63.46949167047582" lon="11.277761118673919" id="-29722">
		<tag k="name" v="Hyttmyra" />
		<tag k="natural" v="wetland" />
		<tag k="ssr:stedsnr" v="332474" />
	</node>
	<node lat="63.41172777541564" lon="11.230802770601576" id="-29723">
		<tag k="name" v="Martamyra" />
		<tag k="natural" v="wetland" />
		<tag k="ssr:stedsnr" v="332479" />
	</node>
	<node lat="63.426844440100886" lon="11.050800004366563" id="-29729">
		<tag k="name" v="Fjellbrumyra" />
		<tag k="natural" v="wetland" />
		<tag k="ssr:stedsnr" v="332832" />
=======
	<node id="-763954" lat="63.4957972199" lon="11.2819250042">
		<tag k="name" v="Slåttmyra" />
		<tag k="natural" v="wetland" />
		<tag k="ssr:stedsnr" v="48656" />
	</node>
	<node id="-763953" lat="63.4989305553" lon="11.2856388833">
		<tag k="name" v="Litlkarsmyra" />
		<tag k="natural" v="wetland" />
		<tag k="ssr:stedsnr" v="48651" />
	</node>
	<node id="-763951" lat="63.3587838959" lon="11.0873856403">
		<tag k="name" v="Talgåsmyra" />
		<tag k="natural" v="wetland" />
		<tag k="ssr:stedsnr" v="47406" />
	</node>
	<node id="-765992" lat="63.4616694419" lon="11.0983000051">
		<tag k="name" v="Vinland" />
		<tag k="place" v="locality" />
		<tag k="ssr:stedsnr" v="210690" />
	</node>
	<node id="-763942" lat="63.533494446" lon="11.2137111169">
		<tag k="name" v="Grønnmyra" />
		<tag k="natural" v="wetland" />
		<tag k="ssr:stedsnr" v="229831" />
	</node>
	<node id="-765985" lat="63.4917916704" lon="11.0397611185">
		<tag k="name" v="Kvittemsmyra" />
		<tag k="natural" v="wetland" />
		<tag k="ssr:stedsnr" v="210746" />
	</node>
	<node id="-765982" lat="63.5433555532" lon="11.0491027787">
		<tag k="name" v="Stormyra" />
		<tag k="natural" v="wetland" />
		<tag k="ssr:stedsnr" v="210590" />
	</node>
	<node id="-763932" lat="63.4355638911" lon="11.0501972263">
		<tag k="name" v="Kammyra" />
		<tag k="natural" v="wetland" />
		<tag k="ssr:stedsnr" v="28659" />
	</node>
	<node id="-763930" lat="63.5250277813" lon="10.9926222124">
		<tag k="name" v="Trollvassmyra" />
		<tag k="natural" v="wetland" />
		<tag k="ssr:stedsnr" v="28605" />
	</node>
	<node id="-763929" lat="63.5299000001" lon="10.9775944399">
		<tag k="name" v="Rangelåsmyra" />
		<tag k="natural" v="wetland" />
		<tag k="ssr:stedsnr" v="28604" />
	</node>
	<node id="-763928" lat="63.4143611122" lon="11.0632472275">
		<tag k="name" v="Langmyra" />
		<tag k="natural" v="wetland" />
		<tag k="ssr:stedsnr" v="28720" />
	</node>
	<node id="-766980" lat="63.4440499979" lon="11.3831000016">
		<tag k="name" v="Sørnesmyra" />
		<tag k="natural" v="wetland" />
		<tag k="ssr:stedsnr" v="836493" />
	</node>
	<node id="-763926" lat="63.490172225" lon="11.3344833255">
		<tag k="name" v="Slåttmyrin" />
		<tag k="natural" v="wetland" />
		<tag k="ssr:stedsnr" v="28329" />
	</node>
	<node id="-765971" lat="63.466238886" lon="11.2626555592">
		<tag k="name" v="Stormyra" />
		<tag k="natural" v="wetland" />
		<tag k="ssr:stedsnr" v="210492" />
	</node>
	<node id="-763922" lat="63.4973750039" lon="11.3024750048">
		<tag k="name" v="Barhaugen" />
		<tag k="natural" v="wetland" />
		<tag k="ssr:stedsnr" v="28314" />
	</node>
	<node id="-763918" lat="63.433241664" lon="11.1971888867">
		<tag k="name" v="Småmyrin" />
		<tag k="natural" v="wetland" />
		<tag k="ssr:stedsnr" v="28436" />
	</node>
	<node id="-763917" lat="63.4986111131" lon="11.1642416753">
		<tag k="name" v="Langdalsmyran" />
		<tag k="natural" v="wetland" />
		<tag k="ssr:stedsnr" v="28429" />
	</node>
	<node id="-763916" lat="63.5040305564" lon="11.1552666627">
		<tag k="name" v="Bjørnmyran" />
		<tag k="natural" v="wetland" />
		<tag k="ssr:stedsnr" v="28423" />
>>>>>>> e1d4bc35ff8a6074a6f2e91616a996b547c36f15
	</node>
</osm>
