<?xml version="1.0" encoding="UTF-8"?>
<osm version="0.6" generator="osmapis">
	<node lat="63.4509805555216" lon="11.162849996216554" id="-39060">
		<tag k="landuse" v="military" />
		<tag k="name" v="Hegra festning" />
		<tag k="ssr:stedsnr" v="13102" />
	</node>
	<node lat="63.477663884928134" lon="11.10195554527804" id="-39062">
		<tag k="alt_name" v="Åsveien" />
		<tag k="name" v="Åsvegen" />
		<tag k="place" v="farm" />
		<tag k="ssr:stedsnr" v="13164" />
	</node>
	<node lat="63.451997226838905" lon="11.014122213254154" id="-39063">
		<tag k="alt_name" v="Nordre Ersgard;Ersgard nordre" />
		<tag k="name" v="Ersgard" />
		<tag k="place" v="farm" />
		<tag k="ssr:stedsnr" v="13166" />
	</node>
	<node lat="63.47188610690106" lon="11.197330556899917" id="-39064">
		<tag k="name" v="Fordalssveet" />
		<tag k="place" v="farm" />
		<tag k="ssr:stedsnr" v="13170" />
	</node>
	<node lat="63.468497219237435" lon="10.95905000934896" id="-39065">
		<tag k="name" v="Skiftet" />
		<tag k="place" v="farm" />
		<tag k="ssr:stedsnr" v="13176" />
	</node>
	<node lat="63.46564180187337" lon="10.976831619177918" id="-39066">
		<tag k="fixme" v="consider place=hamlet" />
		<tag k="name" v="Meli" />
		<tag k="place" v="farm" />
		<tag k="ssr:stedsnr" v="13178" />
	</node>
	<node lat="63.46741752402615" lon="11.144298333048598" id="-39068">
		<tag k="fixme" v="consider place=hamlet" />
		<tag k="name" v="Smågard" />
		<tag k="place" v="farm" />
		<tag k="ssr:stedsnr" v="13183" />
	</node>
	<node lat="63.45826809805175" lon="11.446641528739105" id="-39069">
		<tag k="fixme" v="consider place=hamlet" />
		<tag k="name" v="Nordkringen" />
		<tag k="place" v="farm" />
		<tag k="ssr:stedsnr" v="13311" />
	</node>
	<node lat="63.460836113484895" lon="11.371083327133688" id="-39070">
		<tag k="name" v="Flormoen" />
		<tag k="place" v="farm" />
		<tag k="ssr:stedsnr" v="13318" />
	</node>
	<node lat="63.59119722533254" lon="11.615330550763248" id="-39073">
		<tag k="name" v="Reinåvollen" />
		<tag k="place" v="isolated_dwelling" />
		<tag k="ssr:stedsnr" v="13468" />
	</node>
	<node lat="63.534238884420475" lon="11.607211117455206" id="-39078">
		<tag k="name" v="Vollsvollen" />
		<tag k="place" v="isolated_dwelling" />
		<tag k="ssr:stedsnr" v="13513" />
	</node>
	<node lat="63.529469446450484" lon="11.30796943869232" id="-39080">
		<tag k="alt_name" v="Litltylda" />
		<tag k="name" v="Litltyldvollen" />
		<tag k="place" v="isolated_dwelling" />
		<tag k="ssr:stedsnr" v="13521" />
	</node>
	<node lat="63.41832221854828" lon="10.880116658677911" id="-39085">
		<tag k="name" v="Solemsmoen" />
		<tag k="place" v="locality" />
		<tag k="ssr:stedsnr" v="27909" />
	</node>
	<node lat="63.42468889141738" lon="10.882977770399233" id="-39087">
		<tag k="name" v="Furuåsen" />
		<tag k="place" v="locality" />
		<tag k="ssr:stedsnr" v="27912" />
	</node>
	<node lat="63.450777776762116" lon="11.461950001778016" id="-39090">
		<tag k="historic" v="shieling" />
		<tag k="name" v="Midtivollen" />
		<tag k="place" v="isolated_dwelling" />
		<tag k="ssr:stedsnr" v="28170" />
	</node>
	<node lat="63.39428594991665" lon="10.98088542627516" id="-39108">
		<tag k="fixme" v="consider place=hamlet" />
		<tag k="name" v="Julset" />
		<tag k="place" v="farm" />
		<tag k="ssr:stedsnr" v="28714" />
	</node>
	<node lat="63.455599996761215" lon="11.174244442963458" id="-39112">
		<tag k="name" v="Bakkplassen" />
		<tag k="place" v="locality" />
		<tag k="ssr:stedsnr" v="28609" />
	</node>
	<node lat="63.44394166519589" lon="11.018150004301875" id="-39116">
		<tag k="name" v="Haugen" />
		<tag k="place" v="farm" />
		<tag k="ssr:stedsnr" v="28670" />
	</node>
	<node lat="63.464690959489744" lon="11.075196928113403" id="-39117">
		<tag k="alt_name" v="Trøyta" />
		<tag k="fixme" v="consider place=hamlet" />
		<tag k="name" v="Vestre Trøyta" />
		<tag k="place" v="farm" />
		<tag k="ssr:stedsnr" v="28679" />
	</node>
	<node lat="63.50529253284508" lon="10.880364808071292" id="-39122">
		<tag k="fixme" v="consider place=hamlet" />
		<tag k="name" v="Øvre Holan" />
		<tag k="old_name" v="Holan øvre" />
		<tag k="place" v="farm" />
		<tag k="ssr:stedsnr" v="44461" />
	</node>
	<node lat="63.51965358302418" lon="11.2188080463858" id="-39133">
		<tag k="fixme" v="consider place=hamlet" />
		<tag k="name" v="Råvatnet" />
		<tag k="place" v="farm" />
		<tag k="ssr:stedsnr" v="47819" />
	</node>
	<node lat="63.49721388880277" lon="11.263719450748738" id="-39144">
		<tag k="fixme" v="multiple name tags, choose one and add the other to alt_name" />
		<tag k="name" v="Tyholt;Tyldbakken" />
		<tag k="place" v="farm" />
		<tag k="ssr:stedsnr" v="73365" />
	</node>
	<node lat="63.49980555631098" lon="11.146083325619243" id="-39148">
		<tag k="name" v="Langset" />
		<tag k="place" v="farm" />
		<tag k="ssr:stedsnr" v="73677" />
	</node>
	<node lat="63.51506944063081" lon="11.132752769404878" id="-39149">
		<tag k="name" v="Brenne" />
		<tag k="place" v="farm" />
		<tag k="ssr:stedsnr" v="73703" />
	</node>
	<node lat="63.51444872958497" lon="11.054726867167185" id="-39150">
		<tag k="fixme" v="consider place=hamlet" />
		<tag k="name" v="Staurset" />
		<tag k="place" v="farm" />
		<tag k="ssr:stedsnr" v="73705" />
	</node>
	<node lat="63.55425693380485" lon="11.05919752278904" id="-39151">
		<tag k="name" v="Vollsvollen" />
		<tag k="place" v="locality" />
		<tag k="ssr:stedsnr" v="73806" />
	</node>
	<node lat="63.42060586937736" lon="10.887723532354391" id="-39152">
		<tag k="fixme" v="consider place=hamlet" />
		<tag k="name" v="Furan" />
		<tag k="place" v="farm" />
		<tag k="ssr:stedsnr" v="74001" />
	</node>
	<node lat="63.424877448250996" lon="10.917009506031642" id="-39153">
		<tag k="fixme" v="consider place=hamlet" />
		<tag k="name" v="Havdalin" />
		<tag k="place" v="farm" />
		<tag k="ssr:stedsnr" v="74004" />
	</node>
	<node lat="63.42746111110465" lon="10.960716665418188" id="-39154">
		<tag k="name" v="Bergli" />
		<tag k="place" v="farm" />
		<tag k="ssr:stedsnr" v="74005" />
	</node>
	<node lat="63.40242979558999" lon="10.926710583491868" id="-39155">
		<tag k="fixme" v="consider place=hamlet" />
		<tag k="name" v="Frigården" />
		<tag k="place" v="farm" />
		<tag k="ssr:stedsnr" v="74065" />
	</node>
	<node lat="63.44873055292185" lon="10.97386667630208" id="-39156">
		<tag k="name" v="Melan" />
		<tag k="place" v="farm" />
		<tag k="ssr:stedsnr" v="74070" />
	</node>
	<node lat="63.44810833556072" lon="10.966763891883286" id="-39157">
		<tag k="name" v="Noteng" />
		<tag k="place" v="farm" />
		<tag k="ssr:stedsnr" v="74071" />
	</node>
	<node lat="63.4398277807731" lon="11.036336103997739" id="-39158">
		<tag k="name" v="Litlmarka" />
		<tag k="place" v="farm" />
		<tag k="ssr:stedsnr" v="74102" />
	</node>
	<node lat="63.443976332822444" lon="10.979723227848554" id="-39159">
		<tag k="fixme" v="consider place=hamlet" />
		<tag k="name" v="Eidom" />
		<tag k="place" v="farm" />
		<tag k="ssr:stedsnr" v="74106" />
	</node>
	<node lat="63.46543638162438" lon="11.082053072841928" id="-39161">
		<tag k="name" v="Trøyta" />
		<tag k="place" v="hamlet" />
		<tag k="ssr:stedsnr" v="74157" />
	</node>
	<node lat="63.46788875937872" lon="11.054299668710545" id="-39162">
		<tag k="fixme" v="consider place=hamlet" />
		<tag k="name" v="Bøstad" />
		<tag k="place" v="farm" />
		<tag k="ssr:stedsnr" v="74158" />
	</node>
	<node lat="63.393369443278665" lon="10.960638884468807" id="-39165">
		<tag k="alt_name" v="Marka" />
		<tag k="name" v="Fossaunet" />
		<tag k="place" v="farm" />
		<tag k="ssr:stedsnr" v="74459" />
	</node>
	<node lat="63.43814721847674" lon="11.034700007901513" id="-39170">
		<tag k="name" v="Bergsmoen" />
		<tag k="place" v="farm" />
		<tag k="ssr:stedsnr" v="88604" />
	</node>
	<node lat="63.44481944033611" lon="10.991486110644406" id="-39172">
		<tag k="alt_name" v="Eidom litle" />
		<tag k="name" v="Litle Eidom" />
		<tag k="place" v="farm" />
		<tag k="ssr:stedsnr" v="88610" />
	</node>
	<node lat="63.47117261113629" lon="11.043947068824485" id="-39173">
		<tag k="fixme" v="consider place=hamlet" />
		<tag k="name" v="Bjørken" />
		<tag k="place" v="farm" />
		<tag k="ssr:stedsnr" v="88623" />
	</node>
	<node lat="63.4866722256736" lon="10.867127783150694" id="-39176">
		<tag k="name" v="Vifstadåsen" />
		<tag k="place" v="farm" />
		<tag k="ssr:stedsnr" v="88770" />
	</node>
	<node lat="63.48189722439485" lon="11.005177782798253" id="-39179">
		<tag k="name" v="Beistadtrøa" />
		<tag k="place" v="farm" />
		<tag k="ssr:stedsnr" v="88708" />
	</node>
	<node lat="63.413124999283816" lon="10.934419436874757" id="-39183">
		<tag k="name" v="Julan" />
		<tag k="place" v="hamlet" />
		<tag k="ssr:stedsnr" v="88977" />
	</node>
	<node lat="63.52337777487388" lon="10.935255558805213" id="-39188">
		<tag k="historic" v="shieling" />
		<tag k="name" v="Hønbyvollen" />
		<tag k="place" v="isolated_dwelling" />
		<tag k="ssr:stedsnr" v="88836" />
	</node>
	<node lat="63.47216666677035" lon="10.927505554647805" id="-39190">
		<tag k="alt_name" v="Halsen skole" />
		<tag k="amenity" v="school" />
		<tag k="name" v="Halsen barneskole" />
		<tag k="ssr:stedsnr" v="88871" />
	</node>
	<node lat="63.46628611234279" lon="11.249738888669697" id="-39203">
		<tag k="historic" v="shieling" />
		<tag k="name" v="Midtkilvollen" />
		<tag k="place" v="isolated_dwelling" />
		<tag k="ssr:stedsnr" v="89519" />
	</node>
	<node lat="63.4276555525318" lon="10.927399999489326" id="-39211">
		<tag k="name" v="Leira" />
		<tag k="place" v="farm" />
		<tag k="ssr:stedsnr" v="134005" />
	</node>
	<node lat="63.42035555150077" lon="10.96109444139336" id="-39212">
		<tag k="name" v="Dyvaslunden" />
		<tag k="place" v="farm" />
		<tag k="ssr:stedsnr" v="134012" />
	</node>
	<node lat="63.41141856291791" lon="10.92927409092033" id="-39213">
		<tag k="fixme" v="consider place=hamlet" />
		<tag k="name" v="Hjelset" />
		<tag k="place" v="farm" />
		<tag k="ssr:stedsnr" v="134060" />
	</node>
	<node lat="63.39953611434025" lon="11.154347212883993" id="-39214">
		<tag k="name" v="Solheim" />
		<tag k="place" v="farm" />
		<tag k="ssr:stedsnr" v="134071" />
	</node>
	<node lat="63.45710833284633" lon="11.011469447456719" id="-39215">
		<tag k="name" v="Nesitrøa" />
		<tag k="place" v="farm" />
		<tag k="ssr:stedsnr" v="134214" />
	</node>
	<node lat="63.44479721916468" lon="11.191483342846565" id="-39216">
		<tag k="name" v="Skjerva" />
		<tag k="place" v="farm" />
		<tag k="ssr:stedsnr" v="134105" />
	</node>
	<node lat="63.45087500034215" lon="11.200475009442203" id="-39217">
		<tag k="alt_name" v="Einang, vestre" />
		<tag k="name" v="Vestre Einang" />
		<tag k="place" v="farm" />
		<tag k="ssr:stedsnr" v="134107" />
	</node>
	<node lat="63.44969721974008" lon="11.070516663357711" id="-39218">
		<tag k="name" v="Rønningen" />
		<tag k="place" v="farm" />
		<tag k="ssr:stedsnr" v="134109" />
	</node>
	<node lat="63.43534166888919" lon="11.21294999421759" id="-39219">
		<tag k="alt_name" v="Sørkilflå" />
		<tag k="name" v="Sørkilflåa" />
		<tag k="place" v="farm" />
		<tag k="ssr:stedsnr" v="134116" />
	</node>
	<node lat="63.4776500030687" lon="11.424202786671318" id="-39223">
		<tag k="name" v="Kulåsplassen" />
		<tag k="place" v="farm" />
		<tag k="ssr:stedsnr" v="134304" />
	</node>
	<node lat="63.546456444378855" lon="11.460648570672973" id="-39228">
		<tag k="historic" v="shieling" />
		<tag k="name" v="Almlivollen" />
		<tag k="place" v="isolated_dwelling" />
		<tag k="ssr:stedsnr" v="134516" />
	</node>
	<node lat="63.52506636365293" lon="11.100810149039509" id="-39230">
		<tag k="fixme" v="consider place=hamlet" />
		<tag k="name" v="Litlkleiva" />
		<tag k="place" v="farm" />
		<tag k="ssr:stedsnr" v="134753" />
	</node>
	<node lat="63.53268333435996" lon="11.08466110596087" id="-39231">
		<tag k="name" v="Svartåsen" />
		<tag k="place" v="farm" />
		<tag k="ssr:stedsnr" v="134754" />
	</node>
	<node lat="63.53153611527917" lon="10.84839445081396" id="-39232">
		<tag k="name" v="Forbordsmyra" />
		<tag k="place" v="farm" />
		<tag k="ssr:stedsnr" v="134762" />
	</node>
	<node lat="63.55197290223554" lon="11.00199523409199" id="-39233">
		<tag k="fixme" v="consider place=hamlet" />
		<tag k="name" v="Skei" />
		<tag k="place" v="farm" />
		<tag k="ssr:stedsnr" v="134766" />
	</node>
	<node lat="63.556150025198" lon="10.974561135733321" id="-39235">
		<tag k="fixme" v="consider place=hamlet" />
		<tag k="name" v="Fossen" />
		<tag k="old_name" v="Skårån" />
		<tag k="place" v="farm" />
		<tag k="ssr:stedsnr" v="134808" />
	</node>
	<node lat="63.55711388790231" lon="10.943111115144243" id="-39236">
		<tag k="name" v="Nordsveet" />
		<tag k="place" v="farm" />
		<tag k="ssr:stedsnr" v="134809" />
	</node>
	<node lat="63.49933055927566" lon="11.140683325943979" id="-39237">
		<tag k="name" v="Gressetet" />
		<tag k="place" v="farm" />
		<tag k="ssr:stedsnr" v="255228" />
	</node>
	<node lat="63.49105000216557" lon="10.824455549733365" id="-39238">
		<tag k="name" v="Hafsåsen" />
		<tag k="place" v="farm" />
		<tag k="ssr:stedsnr" v="255236" />
	</node>
	<node lat="63.46185555764336" lon="10.976747219293353" id="-39240">
		<tag k="name" v="Kongsreina" />
		<tag k="place" v="farm" />
		<tag k="ssr:stedsnr" v="255187" />
	</node>
	<node lat="63.48745000271286" lon="10.876825009065366" id="-39242">
		<tag k="name" v="Bakken" />
		<tag k="place" v="farm" />
		<tag k="ssr:stedsnr" v="255255" />
	</node>
	<node lat="63.33718333604388" lon="10.947186107514446" id="-39243">
		<tag k="historic" v="shieling" />
		<tag k="name" v="Røssvollen" />
		<tag k="place" v="isolated_dwelling" />
		<tag k="ssr:stedsnr" v="255332" />
	</node>
	<node lat="63.441777287487454" lon="11.262296766581438" id="-39244">
		<tag k="fixme" v="consider place=hamlet" />
		<tag k="name" v="Kilneset" />
		<tag k="place" v="farm" />
		<tag k="ssr:stedsnr" v="255429" />
	</node>
	<node lat="63.370227778463196" lon="10.911027777430803" id="-39246">
		<tag k="name" v="Støbergsvollen" />
		<tag k="place" v="locality" />
		<tag k="ssr:stedsnr" v="255388" />
	</node>
	<node lat="63.44731111160288" lon="11.261638885061691" id="-39248">
		<tag k="name" v="Løfta" />
		<tag k="place" v="isolated_dwelling" />
		<tag k="ssr:stedsnr" v="255441" />
	</node>
	<node lat="63.45606944694247" lon="11.33916943951355" id="-39249">
		<tag k="name" v="Rønningen" />
		<tag k="place" v="farm" />
		<tag k="ssr:stedsnr" v="255452" />
	</node>
	<node lat="63.51226666726551" lon="11.435899997767008" id="-39252">
		<tag k="name" v="Almlisvea" />
		<tag k="place" v="farm" />
		<tag k="ssr:stedsnr" v="255500" />
	</node>
	<node lat="63.50843971869628" lon="11.000899310400321" id="-39254">
		<tag k="fixme" v="consider place=hamlet" />
		<tag k="name" v="Lundan" />
		<tag k="place" v="farm" />
		<tag k="ssr:stedsnr" v="255700" />
	</node>
	<node lat="63.55326389249073" lon="10.960563892709319" id="-39256">
		<tag k="name" v="Hammermoen" />
		<tag k="place" v="farm" />
		<tag k="ssr:stedsnr" v="255781" />
	</node>
	<node lat="63.56423888834647" lon="10.99909722693484" id="-39257">
		<tag k="alt_name" v="Øyavollen" />
		<tag k="name" v="Saltøysætra" />
		<tag k="place" v="locality" />
		<tag k="ssr:stedsnr" v="255826" />
	</node>
	<node lat="63.43099919617033" lon="10.933361862341282" id="-39259">
		<tag k="name" v="Leira" />
		<tag k="place" v="hamlet" />
		<tag k="ssr:stedsnr" v="256114" />
	</node>
	<node lat="63.438170821477215" lon="10.989635978783726" id="-39261">
		<tag k="name" v="Svorte" />
		<tag k="place" v="hamlet" />
		<tag k="ssr:stedsnr" v="256095" />
	</node>
	<node lat="63.43099166897825" lon="10.940252775165337" id="-39262">
		<tag k="name" v="Leirheim" />
		<tag k="place" v="farm" />
		<tag k="ssr:stedsnr" v="256108" />
	</node>
	<node lat="63.48249444263274" lon="10.882658332687244" id="-39263">
		<tag k="alt_name" v="Vikaune" />
		<tag k="name" v="Vikaunet" />
		<tag k="place" v="farm" />
		<tag k="ssr:stedsnr" v="256138" />
	</node>
	<node lat="63.47963798147291" lon="10.935125345704343" id="-39264">
		<tag k="fixme" v="consider place=hamlet" />
		<tag k="name" v="Fosslia" />
		<tag k="place" v="farm" />
		<tag k="ssr:stedsnr" v="256143" />
	</node>
	<node lat="63.5086138848631" lon="11.098516659048894" id="-39268">
		<tag k="name" v="Smedhaug" />
		<tag k="place" v="farm" />
		<tag k="ssr:stedsnr" v="148771" />
	</node>
	<node lat="63.47891944069002" lon="11.143391674971387" id="-39270">
		<tag k="name" v="Steinset" />
		<tag k="place" v="farm" />
		<tag k="ssr:stedsnr" v="256155" />
	</node>
	<node lat="63.458305557375645" lon="10.949347227318459" id="-39273">
		<tag k="name" v="Litl-Øyan" />
		<tag k="place" v="farm" />
		<tag k="ssr:stedsnr" v="148816" />
	</node>
	<node lat="63.475908331270354" lon="10.887847214405289" id="-39283">
		<tag k="name" v="Leira industriområde" />
		<tag k="place" v="quarter" />
		<tag k="ssr:stedsnr" v="148867" />
	</node>
	<node lat="63.43187222197807" lon="11.150172228776533" id="-39287">
		<tag k="alt_name" v="Ingstadvollen Nordre" />
		<tag k="historic" v="shieling" />
		<tag k="name" v="Nordre Ingstadvollen" />
		<tag k="place" v="isolated_dwelling" />
		<tag k="ssr:stedsnr" v="149406" />
	</node>
	<node lat="63.443261108739236" lon="10.865366674058428" id="-39296">
		<tag k="name" v="Småvollan" />
		<tag k="place" v="locality" />
		<tag k="ssr:stedsnr" v="149818" />
	</node>
	<node lat="63.47186110857172" lon="11.397249989855116" id="-39299">
		<tag k="alt_name" v="Helsettrøa" />
		<tag k="name" v="Heggsettrøa" />
		<tag k="place" v="farm" />
		<tag k="ssr:stedsnr" v="256292" />
	</node>
	<node lat="63.39965000061635" lon="11.173458328619375" id="-39303">
		<tag k="name" v="Hosetmoen" />
		<tag k="place" v="farm" />
		<tag k="ssr:stedsnr" v="256420" />
	</node>
	<node lat="63.39430555602584" lon="10.978516661919674" id="-39304">
		<tag k="alt_name" v="Julset, midtre" />
		<tag k="name" v="Midtre Julset" />
		<tag k="place" v="farm" />
		<tag k="ssr:stedsnr" v="256422" />
	</node>
	<node lat="63.530263884687365" lon="11.511166674435735" id="-39306">
		<tag k="name" v="Aunvollen" />
		<tag k="place" v="isolated_dwelling" />
		<tag k="ssr:stedsnr" v="256434" />
	</node>
	<node lat="63.53735776009879" lon="11.29251785263454" id="-39307">
		<tag k="fixme" v="consider place=hamlet" />
		<tag k="name" v="Tyldsjøen" />
		<tag k="place" v="farm" />
		<tag k="ssr:stedsnr" v="256444" />
	</node>
	<node lat="63.44064166648984" lon="11.252130557841344" id="-39310">
		<tag k="name" v="Sørkilmoen" />
		<tag k="place" v="farm" />
		<tag k="ssr:stedsnr" v="256450" />
	</node>
	<node lat="63.385074995818094" lon="11.288002784269604" id="-39312">
		<tag k="name" v="Fosstun" />
		<tag k="place" v="isolated_dwelling" />
		<tag k="ssr:stedsnr" v="256349" />
	</node>
	<node lat="63.51587902342269" lon="11.073163079898896" id="-39315">
		<tag k="fixme" v="consider place=hamlet" />
		<tag k="name" v="Frigarden" />
		<tag k="place" v="farm" />
		<tag k="ssr:stedsnr" v="256684" />
	</node>
	<node lat="63.52512593422115" lon="10.81394999357739" id="-39316">
		<tag k="name" v="Heggja" />
		<tag k="place" v="hamlet" />
		<tag k="ssr:stedsnr" v="256691" />
	</node>
	<node lat="63.52558610658645" lon="11.185030562356022" id="-39318">
		<tag k="name" v="Hosetvollen" />
		<tag k="place" v="locality" />
		<tag k="ssr:stedsnr" v="256699" />
	</node>
	<node lat="63.53360277753846" lon="10.822455552171608" id="-39319">
		<tag k="name" v="Solhaugen" />
		<tag k="place" v="farm" />
		<tag k="ssr:stedsnr" v="256717" />
	</node>
	<node lat="63.49825833684211" lon="11.350177775271638" id="-39333">
		<tag k="name" v="Fossbakken" />
		<tag k="place" v="farm" />
		<tag k="ssr:stedsnr" v="263256" />
	</node>
	<node lat="63.51772866629471" lon="10.871464379121232" id="-39340">
		<tag k="fixme" v="consider place=hamlet" />
		<tag k="name" v="Berget" />
		<tag k="place" v="farm" />
		<tag k="ssr:stedsnr" v="195706" />
	</node>
	<node lat="63.52579424092303" lon="10.852340478001246" id="-39342">
		<tag k="fixme" v="consider place=hamlet" />
		<tag k="name" v="Forbord" />
		<tag k="place" v="farm" />
		<tag k="ssr:stedsnr" v="195735" />
	</node>
	<node lat="63.346122220786164" lon="11.31378333148239" id="-39344">
		<tag k="alt_name" v="Vestre Langlivollen" />
		<tag k="historic" v="shieling" />
		<tag k="name" v="Langlivollen" />
		<tag k="place" v="isolated_dwelling" />
		<tag k="ssr:stedsnr" v="195432" />
	</node>
	<node lat="63.34054722429433" lon="11.028791666522984" id="-39345">
		<tag k="alt_name" v="Grønlivollen" />
		<tag k="name" v="Grønlivollan" />
		<tag k="place" v="locality" />
		<tag k="ssr:stedsnr" v="195437" />
	</node>
	<node lat="63.40090555810183" lon="11.18350833359086" id="-39347">
		<tag k="name" v="Sørli" />
		<tag k="place" v="farm" />
		<tag k="ssr:stedsnr" v="195487" />
	</node>
	<node lat="63.39391388592681" lon="10.982591669463881" id="-39348">
		<tag k="alt_name" v="Julset, austre" />
		<tag k="name" v="Austre Julset" />
		<tag k="place" v="farm" />
		<tag k="ssr:stedsnr" v="195490" />
	</node>
	<node lat="63.54195833129528" lon="11.547122212883991" id="-39349">
		<tag k="loc_name" v="Risvollen" />
		<tag k="name" v="Risvolvollen" />
		<tag k="place" v="isolated_dwelling" />
		<tag k="ssr:stedsnr" v="195495" />
	</node>
	<node lat="63.50338961976973" lon="11.121699164742308" id="-39350">
		<tag k="fixme" v="consider place=hamlet" />
		<tag k="name" v="Kristlok" />
		<tag k="place" v="farm" />
		<tag k="ssr:stedsnr" v="195685" />
	</node>
	<node lat="63.450591666075226" lon="11.357011115615546" id="-39357">
		<tag k="historic" v="shieling" />
		<tag k="name" v="Flornesvollen" />
		<tag k="place" v="isolated_dwelling" />
		<tag k="ssr:stedsnr" v="210303" />
	</node>
	<node lat="63.43338055116349" lon="11.275477782906012" id="-39358">
		<tag k="name" v="Brennåsen" />
		<tag k="place" v="locality" />
		<tag k="ssr:stedsnr" v="210308" />
	</node>
	<node lat="63.46923333323707" lon="11.400247217574243" id="-39361">
		<tag k="name" v="Flåum" />
		<tag k="place" v="farm" />
		<tag k="ssr:stedsnr" v="210378" />
	</node>
	<node lat="63.45779722658641" lon="11.416477777550263" id="-39363">
		<tag k="name" v="Litlmoen" />
		<tag k="place" v="farm" />
		<tag k="ssr:stedsnr" v="210383" />
	</node>
	<node lat="63.497155555345294" lon="11.125488896484253" id="-39365">
		<tag k="name" v="Islandsplassen" />
		<tag k="place" v="locality" />
		<tag k="ssr:stedsnr" v="210428" />
	</node>
	<node lat="63.45778611013635" lon="11.090991664490161" id="-39373">
		<tag k="name" v="Rønningen" />
		<tag k="place" v="farm" />
		<tag k="ssr:stedsnr" v="210684" />
	</node>
	<node lat="63.52057962323071" lon="11.076370413701225" id="-39376">
		<tag k="fixme" v="consider place=hamlet" />
		<tag k="name" v="Rolseng" />
		<tag k="place" v="farm" />
		<tag k="ssr:stedsnr" v="210574" />
	</node>
	<node lat="63.52264721781301" lon="10.823724998906158" id="-39380">
		<tag k="alt_name" v="Heggja søre" />
		<tag k="name" v="Søre Heggja" />
		<tag k="place" v="farm" />
		<tag k="ssr:stedsnr" v="210915" />
	</node>
	<node lat="63.52129444777548" lon="10.770330546020942" id="-39381">
		<tag k="fixme" v="multiple name tags, choose one and add the other to alt_name" />
		<tag k="name" v="Nordre Rykkja;Rykkja" />
		<tag k="place" v="farm" />
		<tag k="ssr:stedsnr" v="210916" />
	</node>
	<node lat="63.41630555361177" lon="11.144755559639016" id="-39390">
		<tag k="historic" v="shieling" />
		<tag k="name" v="Holmsvollen" />
		<tag k="place" v="isolated_dwelling" />
		<tag k="ssr:stedsnr" v="270520" />
	</node>
	<node lat="63.429516670830765" lon="11.16363610767951" id="-39392">
		<tag k="alt_name" v="Ingstadvollen Østre" />
		<tag k="historic" v="shieling" />
		<tag k="name" v="Øystre Ingstadvollen" />
		<tag k="place" v="isolated_dwelling" />
		<tag k="ssr:stedsnr" v="270405" />
	</node>
	<node lat="63.44974722150595" lon="11.057677778829355" id="-39393">
		<tag k="name" v="Øfsti" />
		<tag k="place" v="farm" />
		<tag k="ssr:stedsnr" v="270535" />
	</node>
	<node lat="63.526147224041836" lon="11.079613894409365" id="-39395">
		<tag k="name" v="Leirbakken" />
		<tag k="place" v="locality" />
		<tag k="ssr:stedsnr" v="270554" />
	</node>
	<node lat="63.397969444616685" lon="11.155988879742205" id="-39399">
		<tag k="name" v="Hoset" />
		<tag k="place" v="farm" />
		<tag k="ssr:stedsnr" v="270648" />
	</node>
	<node lat="63.50344444430251" lon="11.067625005179012" id="-39401">
		<tag k="name" v="Fryshus" />
		<tag k="place" v="locality" />
		<tag k="ssr:stedsnr" v="270730" />
	</node>
	<node lat="63.512283335520095" lon="11.07817499768197" id="-39404">
		<tag k="name" v="Fristad" />
		<tag k="place" v="farm" />
		<tag k="ssr:stedsnr" v="270742" />
	</node>
	<node lat="63.55408610951987" lon="10.93385556395184" id="-39414">
		<tag k="name" v="Trøgården" />
		<tag k="place" v="locality" />
		<tag k="ssr:stedsnr" v="270816" />
	</node>
	<node lat="63.4020999965481" lon="10.931494450439557" id="-39419">
		<tag k="name" v="Julanstrøa" />
		<tag k="place" v="farm" />
		<tag k="ssr:stedsnr" v="270969" />
	</node>
	<node lat="63.45331620833593" lon="11.066527419946416" id="-39424">
		<tag k="alt_name" v="Moum" />
		<tag k="name" v="Moan" />
		<tag k="place" v="hamlet" />
		<tag k="ssr:stedsnr" v="224441" />
	</node>
	<node lat="63.50203611440436" lon="11.337991665648184" id="-39426">
		<tag k="historic" v="shieling" />
		<tag k="name" v="Litlvollen" />
		<tag k="place" v="isolated_dwelling" />
		<tag k="ssr:stedsnr" v="271348" />
	</node>
	<node lat="63.49650555778206" lon="11.356597223305544" id="-39427">
		<tag k="name" v="Moen" />
		<tag k="place" v="hamlet" />
		<tag k="ssr:stedsnr" v="271355" />
	</node>
	<node lat="63.48957715089726" lon="11.248382845380572" id="-39428">
		<tag k="name" v="Skuggen" />
		<tag k="place" v="locality" />
		<tag k="ssr:stedsnr" v="271358" />
	</node>
	<node lat="63.50178888456605" lon="11.137041674722932" id="-39436">
		<tag k="name" v="Gressli" />
		<tag k="place" v="farm" />
		<tag k="ssr:stedsnr" v="271460" />
	</node>
	<node lat="63.48090833547702" lon="10.795791666170766" id="-39439">
		<tag k="name" v="Øra" />
		<tag k="place" v="farm" />
		<tag k="ssr:stedsnr" v="226446" />
	</node>
	<node lat="63.52548646992688" lon="10.852058895984515" id="-39440">
		<tag k="alt_name" v="Forbord Vestre" />
		<tag k="name" v="Vestre Forbord" />
		<tag k="place" v="farm" />
		<tag k="ssr:stedsnr" v="226409" />
	</node>
	<node lat="63.48491944869" lon="11.227866664974547" id="-39453">
		<tag k="name" v="Grønvold" />
		<tag k="place" v="farm" />
		<tag k="ssr:stedsnr" v="453466" />
	</node>
	<node lat="63.47834722339204" lon="10.98558056058449" id="-39468">
		<tag k="alt_name" v="Haugen ytre" />
		<tag k="name" v="Ytre Haugen" />
		<tag k="place" v="farm" />
		<tag k="ssr:stedsnr" v="452728" />
	</node>
	<node lat="63.49440047166365" lon="10.91040424754417" id="-39480">
		<tag k="fixme" v="consider place=hamlet" />
		<tag k="name" v="Mæla" />
		<tag k="place" v="farm" />
		<tag k="ssr:stedsnr" v="452796" />
	</node>
	<node lat="63.48282222051064" lon="10.884405548949326" id="-39482">
		<tag k="name" v="Åsan" />
		<tag k="place" v="hamlet" />
		<tag k="ssr:stedsnr" v="452801" />
	</node>
	<node lat="63.45298611384299" lon="10.97189444404546" id="-39502">
		<tag k="name" v="Prestmoen" />
		<tag k="place" v="farm" />
		<tag k="ssr:stedsnr" v="255075" />
	</node>
	<node lat="63.34726110852322" lon="11.330094438550585" id="-39503">
		<tag k="historic" v="shieling" />
		<tag k="name" v="Øystre Langlivollen" />
		<tag k="place" v="isolated_dwelling" />
		<tag k="ssr:stedsnr" v="255405" />
	</node>
	<node lat="63.35584999859818" lon="10.95603056198917" id="-39506">
		<tag k="historic" v="shieling" />
		<tag k="name" v="Ratbuvollen" />
		<tag k="place" v="isolated_dwelling" />
		<tag k="ssr:stedsnr" v="255418" />
	</node>
	<node lat="63.376561591248965" lon="11.077447311546859" id="-39509">
		<tag k="fixme" v="consider place=hamlet" />
		<tag k="name" v="Elvermoen" />
		<tag k="place" v="farm" />
		<tag k="ssr:stedsnr" v="255477" />
	</node>
	<node lat="63.508636928777584" lon="10.875072640893226" id="-39510">
		<tag k="name" v="Holan" />
		<tag k="old_name" v="Hollan" />
		<tag k="place" v="farm" />
		<tag k="ssr:stedsnr" v="255706" />
	</node>
	<node lat="63.42268055288872" lon="10.950530548305947" id="-39514">
		<tag k="fixme" v="multiple name tags, choose one and add the other to alt_name" />
		<tag k="name" v="Nordhalla;Nordre Dyva" />
		<tag k="place" v="farm" />
		<tag k="ssr:stedsnr" v="256009" />
	</node>
	<node lat="63.48567525183768" lon="11.342862700042911" id="-39515">
		<tag k="fixme" v="consider place=hamlet" />
		<tag k="name" v="Hoggåsen" />
		<tag k="place" v="farm" />
		<tag k="ssr:stedsnr" v="256260" />
	</node>
	<node lat="63.57168189893005" lon="11.486096306549392" id="-39519">
		<tag k="name" v="Almlivollen" />
		<tag k="place" v="locality" />
		<tag k="ssr:stedsnr" v="256414" />
	</node>
	<node lat="63.38736217204114" lon="11.096187392944385" id="-39521">
		<tag k="fixme" v="consider place=hamlet" />
		<tag k="name" v="Kleivan" />
		<tag k="place" v="farm" />
		<tag k="ssr:stedsnr" v="256460" />
	</node>
	<node lat="63.52884444847068" lon="10.961363889655924" id="-39538">
		<tag k="historic" v="shieling" />
		<tag k="name" v="Litlsetervollen" />
		<tag k="place" v="isolated_dwelling" />
		<tag k="ssr:stedsnr" v="270830" />
	</node>
	<node lat="63.51755277715442" lon="10.789008323359601" id="-39540">
		<tag k="name" v="Østre Rykkja" />
		<tag k="place" v="farm" />
		<tag k="ssr:stedsnr" v="270876" />
	</node>
	<node lat="63.46732500008369" lon="10.94061388708015" id="-39543">
		<tag k="name" v="Lillemoen" />
		<tag k="place" v="farm" />
		<tag k="ssr:stedsnr" v="270791" />
	</node>
	<node lat="63.4206444446303" lon="10.881691664277113" id="-39545">
		<tag k="name" v="Furgjerdet" />
		<tag k="place" v="locality" />
		<tag k="ssr:stedsnr" v="270902" />
	</node>
	<node lat="63.40793055788127" lon="10.931658332544888" id="-39550">
		<tag k="name" v="Sakshaug" />
		<tag k="place" v="farm" />
		<tag k="ssr:stedsnr" v="270978" />
	</node>
	<node lat="63.50951388736631" lon="11.365208332244846" id="-39556">
		<tag k="historic" v="shieling" />
		<tag k="name" v="Movollen" />
		<tag k="place" v="isolated_dwelling" />
		<tag k="ssr:stedsnr" v="271190" />
	</node>
	<node lat="63.5567249957802" lon="11.024747214801772" id="-39564">
		<tag k="name" v="Meraker Bruk" />
		<tag k="place" v="locality" />
		<tag k="ssr:stedsnr" v="285392" />
	</node>
	<node lat="63.516450000053126" lon="10.765355551199058" id="-39571">
		<tag k="fixme" v="multiple name tags, choose one and add the other to alt_name; consider place=hamlet" />
		<tag k="name" v="Vestre Rykkja;Rykkja" />
		<tag k="place" v="farm" />
		<tag k="ssr:stedsnr" v="300135" />
	</node>
	<node lat="63.477969446972565" lon="10.928661120136027" id="-39572">
		<tag k="amenity" v="school" />
		<tag k="name" v="Stokkan ungdomsskole" />
		<tag k="ssr:stedsnr" v="466156" />
	</node>
	<node lat="63.5030588032466" lon="11.132866953771064" id="-39573">
		<tag k="fixme" v="consider place=hamlet" />
		<tag k="name" v="Gressetet" />
		<tag k="place" v="farm" />
		<tag k="ssr:stedsnr" v="466262" />
	</node>
	<node lat="63.44073518094723" lon="10.970061509476887" id="-39576">
		<tag k="fixme" v="consider place=hamlet" />
		<tag k="name" v="Mona" />
		<tag k="place" v="farm" />
		<tag k="ssr:stedsnr" v="316118" />
	</node>
	<node lat="63.49791944226258" lon="11.147952781983388" id="-39577">
		<tag k="name" v="Bergly" />
		<tag k="place" v="farm" />
		<tag k="ssr:stedsnr" v="316249" />
	</node>
	<node lat="63.493373764281564" lon="11.06654538564992" id="-39578">
		<tag k="fixme" v="consider place=hamlet" />
		<tag k="name" v="Oppem" />
		<tag k="place" v="farm" />
		<tag k="ssr:stedsnr" v="316251" />
	</node>
	<node lat="63.49909166698748" lon="11.151113898713056" id="-39579">
		<tag k="name" v="Ulstadmoen" />
		<tag k="place" v="farm" />
		<tag k="ssr:stedsnr" v="316263" />
	</node>
	<node lat="63.39301110781519" lon="11.384924990459341" id="-39582">
		<tag k="alt_name" v="Øyesvollen" />
		<tag k="name" v="Øyvollen" />
		<tag k="place" v="isolated_dwelling" />
		<tag k="ssr:stedsnr" v="316458" />
	</node>
</osm>
