<?xml version="1.0" encoding="UTF-8"?>
<osm generator="osmapis" version="0.6">
	<node id="-457343" lat="60.3014944439" lon="8.24432777765">
		<tag k="alt_name" v="Nordmannsslepa, store;Stora Nordmannsslepa;Store Nordmannslepa;Søndre Nordmannslepa;Store Normannsslepa" />
		<tag k="highway" v="path" />
		<tag k="name" v="Store Nordmannsslepa" />
		<tag k="ssr:stedsnr" v="856239" />
	</node>
	<node id="-456441" lat="60.4191444455" lon="7.26037500351">
		<tag k="bridge" v="yes" />
		<tag k="layer" v="1" />
		<tag k="name" v="Isdøla" />
		<tag k="ssr:stedsnr" v="107785" />
	</node>
	<node id="-456173" lat="60.4764361105" lon="6.95926666991">
		<tag k="layer" v="-1" />
		<tag k="name" v="Fossåna" />
		<tag k="ssr:stedsnr" v="408474" />
		<tag k="tunnel" v="yes" />
	</node>
	<node id="-457045" lat="60.3750833306" lon="7.47363055354">
		<tag k="bridge" v="yes" />
		<tag k="layer" v="1" />
		<tag k="name" v="Gjero" />
		<tag k="ssr:stedsnr" v="652744" />
	</node>
	<node id="-457298" lat="60.4952083338" lon="7.14660277367">
		<tag k="bridge" v="yes" />
		<tag k="layer" v="1" />
		<tag k="name" v="Sæd" />
		<tag k="ssr:stedsnr" v="835813" />
	</node>
	<node id="-457297" lat="60.4246888921" lon="7.23609443879">
		<tag k="layer" v="-1" />
		<tag k="name" v="Storegjel" />
		<tag k="ssr:stedsnr" v="833708" />
		<tag k="tunnel" v="yes" />
	</node>
	<node id="-456525" lat="60.4246250003" lon="7.23222500397">
		<tag k="layer" v="-1" />
		<tag k="name" v="Måbø" />
		<tag k="ssr:stedsnr" v="165342" />
		<tag k="tunnel" v="yes" />
	</node>
	<node id="-456524" lat="60.4216500023" lon="7.20784721955">
		<tag k="layer" v="-1" />
		<tag k="name" v="Kvernhushaug" />
		<tag k="ssr:stedsnr" v="165294" />
		<tag k="tunnel" v="yes" />
	</node>
	<node id="-456393" lat="60.3978611143" lon="7.09293055385">
		<tag k="highway" v="path" />
		<tag k="name" v="Lægreidskleiva" />
		<tag k="ssr:stedsnr" v="82905" />
	</node>
	<node id="-457030" lat="60.3687361089" lon="7.15933889441">
		<tag k="fixme" v="consider highway=path" />
		<tag k="highway" v="track" />
		<tag k="name" v="Vøtravegen" />
		<tag k="ssr:stedsnr" v="645273" />
	</node>
	<node id="-457413" lat="60.4543944446" lon="6.99778610652">
		<tag k="highway" v="path" />
		<tag k="name" v="Stigen" />
		<tag k="ssr:stedsnr" v="932867" />
	</node>
	<node id="-456002" lat="60.4250944429" lon="7.1121194419">
		<tag k="bridge" v="yes" />
		<tag k="layer" v="1" />
		<tag k="name" v="Staupa" />
		<tag k="ssr:stedsnr" v="289859" />
	</node>
	<node id="-456001" lat="60.4022361108" lon="7.61694721519">
		<tag k="bridge" v="yes" />
		<tag k="layer" v="1" />
		<tag k="name" v="Skulevik" />
		<tag k="ssr:stedsnr" v="289858" />
	</node>
	<node id="-456000" lat="60.4253805524" lon="7.24098332566">
		<tag k="layer" v="-1" />
		<tag k="name" v="Dalberg" />
		<tag k="ssr:stedsnr" v="287424" />
		<tag k="tunnel" v="yes" />
	</node>
	<node id="-456755" lat="60.4246277817" lon="7.11670555598">
		<tag k="bridge" v="yes" />
		<tag k="layer" v="1" />
		<tag k="name" v="Veig" />
		<tag k="ssr:stedsnr" v="471817" />
	</node>
	<node id="-456754" lat="60.403608331" lon="7.36802500591">
		<tag k="bridge" v="yes" />
		<tag k="layer" v="1" />
		<tag k="name" v="Leiro" />
		<tag k="ssr:stedsnr" v="470765" />
	</node>
	<node id="-456753" lat="60.4754694474" lon="6.95597777938">
		<tag k="bridge" v="yes" />
		<tag k="layer" v="1" />
		<tag k="name" v="Ruskegjel" />
		<tag k="ssr:stedsnr" v="470764" />
	</node>
	<node id="-456752" lat="60.4674083316" lon="7.07081110631">
		<tag k="bridge" v="yes" />
		<tag k="layer" v="1" />
		<tag k="name" v="Eidfjordelv" />
		<tag k="ssr:stedsnr" v="470763" />
	</node>
	<node id="-457130" lat="60.4779083297" lon="6.96332499551">
		<tag k="bridge" v="yes" />
		<tag k="layer" v="1" />
		<tag k="name" v="Tungegjel" />
		<tag k="ssr:stedsnr" v="714801" />
	</node>
	<node id="-457129" lat="60.481677777" lon="6.98948610247">
		<tag k="bridge" v="yes" />
		<tag k="layer" v="1" />
		<tag k="name" v="Erdal" />
		<tag k="ssr:stedsnr" v="713787" />
	</node>
	<node id="-457127" lat="60.4490722215" lon="7.09722778452">
		<tag k="layer" v="-1" />
		<tag k="name" v="Stiganes" />
		<tag k="ssr:stedsnr" v="711738" />
		<tag k="tunnel" v="yes" />
	</node>
	<node id="-456860" lat="60.4713805538" lon="6.90843333957">
		<tag k="amenity" v="ferry_terminal" />
		<tag k="name" v="Brimnes ferjekai" />
		<tag k="ssr:stedsnr" v="545089" />
	</node>
	<node id="-456859" lat="60.4251916668" lon="7.11162222517">
		<tag k="alt_name" v="Eidfjord" />
		<tag k="layer" v="-1" />
		<tag k="name" v="Eidfjordtunnelen" />
		<tag k="ssr:stedsnr" v="529403" />
		<tag k="tunnel" v="yes" />
	</node>
	<node id="-456080" lat="60.4681000007" lon="6.88044723106">
		<tag k="layer" v="-1" />
		<tag k="name" v="Nautaflottunnelen" />
		<tag k="ssr:stedsnr" v="353972" />
		<tag k="tunnel" v="yes" />
	</node>
	<node id="-456079" lat="60.4219166686" lon="7.14077778534">
		<tag k="bridge" v="yes" />
		<tag k="layer" v="1" />
		<tag k="name" v="Steinberg" />
		<tag k="ssr:stedsnr" v="349829" />
	</node>
	<node id="-456078" lat="60.4173277797" lon="7.67619999363">
		<tag k="bridge" v="yes" />
		<tag k="layer" v="1" />
		<tag k="name" v="Halne" />
		<tag k="ssr:stedsnr" v="349792" />
	</node>
	<node id="-456460" lat="60.3813666649" lon="7.41008889739">
		<tag k="bridge" v="yes" />
		<tag k="layer" v="1" />
		<tag k="name" v="Våkavadet" />
		<tag k="ssr:stedsnr" v="126911" />
	</node>
	<node id="-457096" lat="60.3830999981" lon="7.16092223077">
		<tag k="highway" v="path" />
		<tag k="name" v="Hjølmaberget" />
		<tag k="ssr:stedsnr" v="689902" />
	</node>
	<node id="-456838" lat="60.3642361099" lon="7.2091833288">
		<tag k="highway" v="path" />
		<tag k="name" v="Snedvegen" />
		<tag k="ssr:stedsnr" v="523383" />
	</node>
	<node id="-456325" lat="60.3753527745" lon="7.1687638891">
		<tag k="highway" v="path" />
		<tag k="name" v="Islandsvadet" />
		<tag k="ssr:stedsnr" v="39251" />
	</node>
</osm>
