<?xml version="1.0" encoding="UTF-8"?>
<osm generator="osmapis" version="0.6">
	<node id="-81916" lat="62.655774999" lon="8.3465194413">
		<tag k="name" v="Pilskotåkeren" />
		<tag k="place" v="locality" />
		<tag k="ssr:stedsnr" v="510219" />
	</node>
	<node id="-83626" lat="62.6197222208" lon="8.89408332741">
		<tag k="name" v="Teinbakkan" />
		<tag k="place" v="locality" />
		<tag k="ssr:stedsnr" v="208647" />
	</node>
	<node id="-81912" lat="62.665688888" lon="8.56364999878">
		<tag k="name" v="Håshjelløran" />
		<tag k="place" v="locality" />
		<tag k="ssr:stedsnr" v="510186" />
	</node>
	<node id="-84649" lat="62.759805552" lon="8.44251666381">
		<tag k="name" v="Kjølåkeren" />
		<tag k="place" v="locality" />
		<tag k="ssr:stedsnr" v="815733" />
	</node>
	<node id="-81908" lat="62.65447222" lon="8.63066111125">
		<tag k="name" v="Myran" />
		<tag k="natural" v="wetland" />
		<tag k="ssr:stedsnr" v="510153" />
	</node>
	<node id="-83942" lat="62.5719499982" lon="9.04218889117">
		<tag k="name" v="Bostin" />
		<tag k="place" v="locality" />
		<tag k="ssr:stedsnr" v="391183" />
	</node>
	<node id="-81887" lat="62.7022499974" lon="8.56226387994">
		<tag k="name" v="Gråura" />
		<tag k="natural" v="scree" />
		<tag k="ssr:stedsnr" v="508518" />
	</node>
	<node id="-81877" lat="62.5173805595" lon="8.54939721784">
		<tag k="name" v="Grønvollsteinen" />
		<tag k="natural" v="stone" />
		<tag k="ssr:stedsnr" v="506787" />
	</node>
	<node id="-81874" lat="62.4127666656" lon="8.70193611865">
		<tag k="name" v="Lensmannssteinen" />
		<tag k="natural" v="stone" />
		<tag k="ssr:stedsnr" v="506762" />
	</node>
	<node id="-81869" lat="62.7421166639" lon="8.67122500136">
		<tag k="name" v="Røyrøya" />
		<tag k="place" v="locality" />
		<tag k="ssr:stedsnr" v="506699" />
	</node>
	<node id="-83915" lat="62.6381777777" lon="8.80070833494">
		<tag k="name" v="Røyhjelløya" />
		<tag k="place" v="locality" />
		<tag k="ssr:stedsnr" v="390344" />
	</node>
	<node id="-83911" lat="62.5920805516" lon="8.51290555401">
		<tag k="name" v="Pe-skrøo" />
		<tag k="natural" v="scree" />
		<tag k="ssr:stedsnr" v="389980" />
	</node>
	<node id="-81859" lat="62.5484388859" lon="9.1171222139">
		<tag k="name" v="Grytøyan" />
		<tag k="place" v="locality" />
		<tag k="ssr:stedsnr" v="390270" />
	</node>
	<node id="-81853" lat="62.6087694448" lon="8.736408334">
		<tag k="name" v="Geithuset" />
		<tag k="natural" v="stone" />
		<tag k="ssr:stedsnr" v="389468" />
	</node>
	<node id="-83899" lat="62.6537722239" lon="8.6191861164">
		<tag k="name" v="Innlegget" />
		<tag k="place" v="locality" />
		<tag k="ssr:stedsnr" v="389067" />
	</node>
	<node id="-81850" lat="62.6706305591" lon="8.38101944009">
		<tag k="name" v="Månskinsmyra" />
		<tag k="natural" v="wetland" />
		<tag k="ssr:stedsnr" v="389192" />
	</node>
	<node id="-83895" lat="62.7511555585" lon="8.37399167254">
		<tag k="name" v="Heststeinen" />
		<tag k="natural" v="stone" />
		<tag k="ssr:stedsnr" v="388901" />
	</node>
	<node id="-81842" lat="62.590144444" lon="8.992511103">
		<tag k="name" v="Bymannsfella" />
		<tag k="natural" v="scree" />
		<tag k="ssr:stedsnr" v="389261" />
	</node>
	<node id="-83887" lat="62.6657527773" lon="8.5394749935">
		<tag k="name" v="Hopinnlegget" />
		<tag k="place" v="locality" />
		<tag k="ssr:stedsnr" v="388893" />
	</node>
	<node id="-81835" lat="62.7500305568" lon="8.35250555827">
		<tag k="name" v="Kringlåtmyra" />
		<tag k="natural" v="wetland" />
		<tag k="ssr:stedsnr" v="388902" />
	</node>
	<node id="-81833" lat="62.6933583321" lon="8.39445000225">
		<tag k="name" v="Holsvaet" />
		<tag k="place" v="locality" />
		<tag k="ssr:stedsnr" v="388707" />
	</node>
	<node id="-83874" lat="62.6892694411" lon="8.48796389251">
		<tag k="historic" v="shieling" />
		<tag k="name" v="Uravollen" />
		<tag k="place" v="locality" />
		<tag k="ssr:stedsnr" v="388457" />
	</node>
	<node id="-83869" lat="62.6031527785" lon="8.93617222838">
		<tag k="name" v="Øya" />
		<tag k="place" v="locality" />
		<tag k="ssr:stedsnr" v="388433" />
	</node>
	<node id="-81818" lat="62.8468027788" lon="8.42622221573">
		<tag k="name" v="Vollmyra" />
		<tag k="natural" v="wetland" />
		<tag k="ssr:stedsnr" v="388025" />
	</node>
	<node id="-83865" lat="62.6351305557" lon="8.83766111455">
		<tag k="name" v="Klinghaugen" />
		<tag k="place" v="locality" />
		<tag k="ssr:stedsnr" v="388228" />
	</node>
	<node id="-82244" lat="62.5677666709" lon="8.47488332619">
		<tag k="name" v="Storsvaet" />
		<tag k="place" v="locality" />
		<tag k="ssr:stedsnr" v="693985" />
	</node>
	<node id="-81814" lat="62.5679805516" lon="8.66925833249">
		<tag k="name" v="Moldskrøu" />
		<tag k="natural" v="scree" />
		<tag k="ssr:stedsnr" v="385806" />
	</node>
	<node id="-83856" lat="62.6856777815" lon="8.55740277359">
		<tag k="name" v="Hønsvikura" />
		<tag k="natural" v="scree" />
		<tag k="ssr:stedsnr" v="387441" />
	</node>
	<node id="-83846" lat="62.5647555514" lon="9.07391389149">
		<tag k="name" v="Gravemsura" />
		<tag k="natural" v="scree" />
		<tag k="ssr:stedsnr" v="384743" />
	</node>
	<node id="-81555" lat="62.6377222189" lon="8.79376389466">
		<tag k="name" v="Reitan" />
		<tag k="place" v="locality" />
		<tag k="ssr:stedsnr" v="451388" />
	</node>
	<node id="-82237" lat="62.761763892" lon="8.5880027756">
		<tag k="name" v="Moøya" />
		<tag k="place" v="locality" />
		<tag k="ssr:stedsnr" v="693831" />
	</node>
	<node id="-83795" lat="62.6238750032" lon="8.52694999513">
		<tag k="name" v="Linsetura" />
		<tag k="natural" v="scree" />
		<tag k="ssr:stedsnr" v="330872" />
	</node>
	<node id="-83788" lat="62.5671777779" lon="9.06464167629">
		<tag k="name" v="Tøftlykkja" />
		<tag k="place" v="locality" />
		<tag k="ssr:stedsnr" v="330170" />
	</node>
	<node id="-83780" lat="62.7804527782" lon="8.55363333706">
		<tag k="name" v="Stormyra" />
		<tag k="natural" v="wetland" />
		<tag k="ssr:stedsnr" v="329834" />
	</node>
	<node id="-83777" lat="62.6281222199" lon="8.84320833884">
		<tag k="name" v="Grendeslykkja" />
		<tag k="place" v="locality" />
		<tag k="ssr:stedsnr" v="329692" />
	</node>
	<node id="-83775" lat="62.7589861118" lon="8.35778054968">
		<tag k="name" v="Grovaura" />
		<tag k="natural" v="scree" />
		<tag k="ssr:stedsnr" v="329962" />
	</node>
	<node id="-83770" lat="62.6086805558" lon="8.92898888902">
		<tag k="name" v="Storteigen" />
		<tag k="place" v="locality" />
		<tag k="ssr:stedsnr" v="329530" />
	</node>
	<node id="-81720" lat="62.6263055552" lon="8.90160000055">
		<tag k="name" v="Steinan" />
		<tag k="natural" v="stone" />
		<tag k="ssr:stedsnr" v="329623" />
	</node>
	<node id="-81716" lat="62.619766669" lon="8.88917500022">
		<tag k="name" v="Grøntuvon" />
		<tag k="place" v="locality" />
		<tag k="ssr:stedsnr" v="329611" />
	</node>
	<node id="-83761" lat="62.6826361081" lon="8.37367499349">
		<tag k="name" v="Gråsteinen" />
		<tag k="natural" v="stone" />
		<tag k="ssr:stedsnr" v="329175" />
	</node>
	<node id="-81712" lat="62.6737583379" lon="8.3532277838">
		<tag k="name" v="Håkkomyra" />
		<tag k="natural" v="wetland" />
		<tag k="ssr:stedsnr" v="329227" />
	</node>
	<node id="-81711" lat="62.6567083298" lon="8.66305832763">
		<tag k="name" v="Nerskeiet" />
		<tag k="place" v="locality" />
		<tag k="ssr:stedsnr" v="329004" />
	</node>
	<node id="-83756" lat="62.7071500012" lon="8.43497499475">
		<tag k="historic" v="shieling" />
		<tag k="name" v="Mjølkplassen" />
		<tag k="place" v="locality" />
		<tag k="ssr:stedsnr" v="329093" />
	</node>
	<node id="-83751" lat="62.654922223" lon="8.65978332657">
		<tag k="name" v="Midtiøra" />
		<tag k="place" v="locality" />
		<tag k="ssr:stedsnr" v="329012" />
	</node>
	<node id="-81701" lat="62.906908334" lon="8.39937777191">
		<tag k="name" v="Kavalemmen" />
		<tag k="place" v="locality" />
		<tag k="ssr:stedsnr" v="328224" />
	</node>
	<node id="-83748" lat="62.8067305519" lon="8.48874999292">
		<tag k="name" v="Stortrøa" />
		<tag k="place" v="locality" />
		<tag k="ssr:stedsnr" v="328578" />
	</node>
	<node id="-83747" lat="62.809752777" lon="8.50266111573">
		<tag k="name" v="Kalvgeilen" />
		<tag k="place" v="locality" />
		<tag k="ssr:stedsnr" v="328574" />
	</node>
	<node id="-83745" lat="62.618024999" lon="8.91406112082">
		<tag k="name" v="Båssteinen" />
		<tag k="natural" v="stone" />
		<tag k="ssr:stedsnr" v="328543" />
	</node>
	<node id="-83738" lat="62.8587833317" lon="8.51516389083">
		<tag k="name" v="Vuttu" />
		<tag k="natural" v="wetland" />
		<tag k="ssr:stedsnr" v="328294" />
	</node>
	<node id="-82222" lat="62.5986305552" lon="8.9521305512">
		<tag k="name" v="Øya" />
		<tag k="place" v="locality" />
		<tag k="ssr:stedsnr" v="693332" />
	</node>
	<node id="-83727" lat="62.6625388917" lon="8.60750832953">
		<tag k="name" v="Lensmannsøra" />
		<tag k="place" v="locality" />
		<tag k="ssr:stedsnr" v="328145" />
	</node>
	<node id="-83724" lat="62.6722333337" lon="8.52596388478">
		<tag k="name" v="Naustørsnippen" />
		<tag k="place" v="locality" />
		<tag k="ssr:stedsnr" v="327758" />
	</node>
	<node id="-83720" lat="62.6615027759" lon="8.53623611228">
		<tag k="name" v="Lykkja" />
		<tag k="place" v="locality" />
		<tag k="ssr:stedsnr" v="327859" />
	</node>
	<node id="-83717" lat="62.6882055542" lon="8.55733889628">
		<tag k="name" v="Geilen" />
		<tag k="place" v="locality" />
		<tag k="ssr:stedsnr" v="327399" />
	</node>
	<node id="-83710" lat="62.6728194441" lon="8.40051667488">
		<tag k="name" v="Hundsteinen" />
		<tag k="natural" v="stone" />
		<tag k="ssr:stedsnr" v="327475" />
	</node>
	<node id="-82216" lat="62.6350166712" lon="8.81078055439">
		<tag k="name" v="Røhjelløran" />
		<tag k="place" v="locality" />
		<tag k="ssr:stedsnr" v="693386" />
	</node>
	<node id="-81643" lat="62.6362583305" lon="8.53260278601">
		<tag k="name" v="Lykkjetrøa" />
		<tag k="place" v="locality" />
		<tag k="ssr:stedsnr" v="269917" />
	</node>
	<node id="-84263" lat="62.8143055544" lon="8.49514999566">
		<tag k="name" v="Kalvskinnet" />
		<tag k="natural" v="wetland" />
		<tag k="ssr:stedsnr" v="632581" />
	</node>
	<node id="-81640" lat="62.5481611091" lon="9.09975832846">
		<tag k="name" v="Grøvuøran" />
		<tag k="place" v="locality" />
		<tag k="ssr:stedsnr" v="269364" />
	</node>
	<node id="-81631" lat="62.6384666697" lon="8.52354722299">
		<tag k="name" v="Hårstad-storura" />
		<tag k="natural" v="scree" />
		<tag k="ssr:stedsnr" v="268872" />
	</node>
	<node id="-83670" lat="62.6977388872" lon="8.69483333253">
		<tag k="name" v="Grønmyra" />
		<tag k="natural" v="wetland" />
		<tag k="ssr:stedsnr" v="315192" />
	</node>
	<node id="-81621" lat="62.6486972223" lon="8.76043056348">
		<tag k="name" v="Kjøkjet" />
		<tag k="natural" v="stone" />
		<tag k="ssr:stedsnr" v="268313" />
	</node>
	<node id="-81619" lat="62.6683166687" lon="8.3738000061">
		<tag k="name" v="Badstuåkeren" />
		<tag k="place" v="locality" />
		<tag k="ssr:stedsnr" v="268213" />
	</node>
	<node id="-81187" lat="62.5955444462" lon="8.98241943489">
		<tag k="name" v="Engan" />
		<tag k="place" v="locality" />
		<tag k="ssr:stedsnr" v="86316" />
	</node>
	<node id="-81615" lat="62.6575138919" lon="8.63507500757">
		<tag k="name" v="Hovenøran" />
		<tag k="place" v="locality" />
		<tag k="ssr:stedsnr" v="268163" />
	</node>
	<node id="-83659" lat="62.6833611076" lon="8.68277222466">
		<tag k="name" v="Kaldfonna" />
		<tag k="natural" v="glacier" />
		<tag k="ssr:stedsnr" v="315040" />
	</node>
	<node id="-81604" lat="62.5149222256" lon="8.98322223045">
		<tag k="name" v="Litlmyra" />
		<tag k="natural" v="wetland" />
		<tag k="ssr:stedsnr" v="267462" />
	</node>
	<node id="-81526" lat="62.5962361072" lon="8.94702221955">
		<tag k="name" v="Øverenglykkja" />
		<tag k="place" v="locality" />
		<tag k="ssr:stedsnr" v="450268" />
	</node>
	<node id="-81601" lat="62.6722166656" lon="8.41255833177">
		<tag k="name" v="Merkesgardsura" />
		<tag k="natural" v="scree" />
		<tag k="ssr:stedsnr" v="267427" />
	</node>
	<node id="-83647" lat="62.5251777772" lon="9.08841387944">
		<tag k="name" v="Ålmenningen" />
		<tag k="place" v="locality" />
		<tag k="ssr:stedsnr" v="209501" />
	</node>
	<node id="-83632" lat="62.6269499981" lon="8.85866388545">
		<tag k="name" v="Gutåkerøya" />
		<tag k="place" v="locality" />
		<tag k="ssr:stedsnr" v="208741" />
	</node>
	<node id="-81578" lat="62.6388916626" lon="8.5273305641">
		<tag k="name" v="Trøin" />
		<tag k="place" v="locality" />
		<tag k="ssr:stedsnr" v="451935" />
	</node>
	<node id="-81570" lat="62.5137194477" lon="9.08822500758">
		<tag k="name" v="Mjølksteinan" />
		<tag k="natural" v="stone" />
		<tag k="ssr:stedsnr" v="451647" />
	</node>
	<node id="-81567" lat="62.6278722195" lon="8.85943610582">
		<tag k="name" v="Falegjerdet" />
		<tag k="place" v="locality" />
		<tag k="ssr:stedsnr" v="451757" />
	</node>
	<node id="-81566" lat="62.6055027794" lon="8.92491944131">
		<tag k="name" v="Ånsteinen" />
		<tag k="natural" v="stone" />
		<tag k="ssr:stedsnr" v="451537" />
	</node>
	<node id="-83607" lat="62.6580222199" lon="8.65678889289">
		<tag k="name" v="Øverbakkan" />
		<tag k="place" v="locality" />
		<tag k="ssr:stedsnr" v="208009" />
	</node>
	<node id="-83604" lat="62.7277305532" lon="8.43813611064">
		<tag k="name" v="Liasvaet" />
		<tag k="place" v="locality" />
		<tag k="ssr:stedsnr" v="207870" />
	</node>
	<node id="-83603" lat="62.6033888886" lon="8.94666943988">
		<tag k="name" v="Øygarden" />
		<tag k="place" v="locality" />
		<tag k="ssr:stedsnr" v="207818" />
	</node>
	<node id="-83597" lat="62.6142305591" lon="8.91594166423">
		<tag k="name" v="Lykkja" />
		<tag k="place" v="locality" />
		<tag k="ssr:stedsnr" v="207557" />
	</node>
	<node id="-83588" lat="62.6507722219" lon="8.70116945397">
		<tag k="name" v="Litløra" />
		<tag k="place" v="locality" />
		<tag k="ssr:stedsnr" v="207367" />
	</node>
	<node id="-83580" lat="62.6470722259" lon="8.32326943505">
		<tag k="name" v="Kjeøya" />
		<tag k="place" v="locality" />
		<tag k="ssr:stedsnr" v="207240" />
	</node>
	<node id="-81529" lat="62.6105722205" lon="8.72961111803">
		<tag k="name" v="Dalaura" />
		<tag k="natural" v="scree" />
		<tag k="ssr:stedsnr" v="450297" />
	</node>
	<node id="-83576" lat="62.8359083337" lon="8.48765000571">
		<tag k="name" v="Myran" />
		<tag k="natural" v="wetland" />
		<tag k="ssr:stedsnr" v="207202" />
	</node>
	<node id="-83574" lat="62.6615916628" lon="8.62859166849">
		<tag k="name" v="Teinøran" />
		<tag k="place" v="locality" />
		<tag k="ssr:stedsnr" v="207155" />
	</node>
	<node id="-83572" lat="62.6586888914" lon="8.61384167029">
		<tag k="name" v="Grana" />
		<tag k="place" v="locality" />
		<tag k="ssr:stedsnr" v="207143" />
	</node>
	<node id="-83571" lat="62.6865944483" lon="8.38316389065">
		<tag k="name" v="Slettfjellet" />
		<tag k="natural" v="wetland" />
		<tag k="ssr:stedsnr" v="207142" />
	</node>
	<node id="-83569" lat="62.6674027764" lon="8.5953888871">
		<tag k="name" v="Hagan" />
		<tag k="place" v="locality" />
		<tag k="ssr:stedsnr" v="207123" />
	</node>
	<node id="-83568" lat="62.6540416692" lon="8.61450833168">
		<tag k="name" v="Trøa" />
		<tag k="place" v="locality" />
		<tag k="ssr:stedsnr" v="207057" />
	</node>
	<node id="-83901" lat="62.6543722252" lon="8.63598332648">
		<tag k="name" v="Sanden" />
		<tag k="place" v="locality" />
		<tag k="ssr:stedsnr" v="389082" />
	</node>
	<node id="-83564" lat="62.6675805568" lon="8.5559722204">
		<tag k="name" v="Trøan" />
		<tag k="place" v="locality" />
		<tag k="ssr:stedsnr" v="206953" />
	</node>
	<node id="-81508" lat="62.6957055555" lon="8.49583889268">
		<tag k="name" v="Kalvhagan" />
		<tag k="place" v="locality" />
		<tag k="ssr:stedsnr" v="449701" />
	</node>
	<node id="-81495" lat="62.5327944433" lon="8.98548332535">
		<tag k="name" v="Endremyra" />
		<tag k="natural" v="wetland" />
		<tag k="ssr:stedsnr" v="449090" />
	</node>
	<node id="-83541" lat="62.6335166628" lon="8.85377778087">
		<tag k="name" v="Myran" />
		<tag k="natural" v="wetland" />
		<tag k="ssr:stedsnr" v="206268" />
	</node>
	<node id="-83538" lat="62.6347111098" lon="8.8283583369">
		<tag k="name" v="Moøran" />
		<tag k="place" v="locality" />
		<tag k="ssr:stedsnr" v="206253" />
	</node>
	<node id="-83537" lat="62.6332305562" lon="8.82266389082">
		<tag k="name" v="Sletta" />
		<tag k="place" v="locality" />
		<tag k="ssr:stedsnr" v="206252" />
	</node>
	<node id="-83532" lat="62.5248833305" lon="9.00402500387">
		<tag k="name" v="Storren" />
		<tag k="natural" v="wetland" />
		<tag k="ssr:stedsnr" v="206087" />
	</node>
	<node id="-83531" lat="62.8465444437" lon="8.4188388977">
		<tag k="name" v="Bytmyra" />
		<tag k="natural" v="wetland" />
		<tag k="ssr:stedsnr" v="206032" />
	</node>
	<node id="-83530" lat="62.7020611095" lon="8.57056667171">
		<tag k="name" v="Tussdalsmyran" />
		<tag k="natural" v="wetland" />
		<tag k="ssr:stedsnr" v="205519" />
	</node>
	<node id="-83526" lat="62.7106638931" lon="8.55668612015">
		<tag k="name" v="Klongerskrøa" />
		<tag k="natural" v="scree" />
		<tag k="ssr:stedsnr" v="205443" />
	</node>
	<node id="-81470" lat="62.5653833303" lon="9.06258055254">
		<tag k="name" v="Nergjerdet" />
		<tag k="place" v="locality" />
		<tag k="ssr:stedsnr" v="208443" />
	</node>
	<node id="-83517" lat="62.4336861091" lon="8.89153611669">
		<tag k="name" v="Haugalykkja" />
		<tag k="place" v="locality" />
		<tag k="ssr:stedsnr" v="203791" />
	</node>
	<node id="-83210" lat="62.663052775" lon="8.5938944378">
		<tag k="name" v="Sandlykkja" />
		<tag k="place" v="locality" />
		<tag k="ssr:stedsnr" v="86087" />
	</node>
	<node id="-81465" lat="62.4058944455" lon="8.94968610622">
		<tag k="name" v="Bjørkøya" />
		<tag k="place" v="locality" />
		<tag k="ssr:stedsnr" v="202805" />
	</node>
	<node id="-83512" lat="62.6929000019" lon="8.86642500349">
		<tag k="historic" v="shieling" />
		<tag k="name" v="Mosetra" />
		<tag k="place" v="locality" />
		<tag k="ssr:stedsnr" v="203470" />
	</node>
	<node id="-81428" lat="62.6294833302" lon="8.84155277264">
		<tag k="name" v="Myran" />
		<tag k="natural" v="wetland" />
		<tag k="ssr:stedsnr" v="147723" />
	</node>
	<node id="-81422" lat="62.60986111" lon="8.72991388199">
		<tag k="name" v="Dalaura" />
		<tag k="natural" v="scree" />
		<tag k="ssr:stedsnr" v="147453" />
	</node>
	<node id="-81408" lat="62.657505558" lon="8.66443055226">
		<tag k="name" v="Øverskeiet" />
		<tag k="place" v="locality" />
		<tag k="ssr:stedsnr" v="147006" />
	</node>
	<node id="-81405" lat="62.8132361118" lon="8.50040000596">
		<tag k="name" v="Lomtjønnmyra" />
		<tag k="natural" v="wetland" />
		<tag k="ssr:stedsnr" v="146552" />
	</node>
	<node id="-81400" lat="62.6555194424" lon="8.36454167551">
		<tag k="name" v="Myran" />
		<tag k="natural" v="wetland" />
		<tag k="ssr:stedsnr" v="146215" />
	</node>
	<node id="-81396" lat="62.6454999994" lon="8.71914999935">
		<tag k="name" v="Bolkan" />
		<tag k="place" v="locality" />
		<tag k="ssr:stedsnr" v="146368" />
	</node>
	<node id="-81393" lat="62.6711500032" lon="8.5510555472">
		<tag k="name" v="Bruflata" />
		<tag k="place" v="locality" />
		<tag k="ssr:stedsnr" v="145963" />
	</node>
	<node id="-81392" lat="62.664327778" lon="8.53796665999">
		<tag k="name" v="Polløra" />
		<tag k="natural" v="wetland" />
		<tag k="ssr:stedsnr" v="145919" />
	</node>
	<node id="-83432" lat="62.6521499971" lon="8.61919444746">
		<tag k="name" v="Kvennhusøra" />
		<tag k="place" v="locality" />
		<tag k="ssr:stedsnr" v="147888" />
	</node>
	<node id="-83431" lat="62.651763891" lon="8.61310555335">
		<tag k="name" v="Kråksvaet" />
		<tag k="place" v="locality" />
		<tag k="ssr:stedsnr" v="147885" />
	</node>
	<node id="-83426" lat="62.7624333315" lon="8.58508888559">
		<tag k="name" v="Storøya" />
		<tag k="place" v="locality" />
		<tag k="ssr:stedsnr" v="147825" />
	</node>
	<node id="-83418" lat="62.6508166636" lon="8.66631943681">
		<tag k="name" v="Øran" />
		<tag k="place" v="locality" />
		<tag k="ssr:stedsnr" v="147448" />
	</node>
	<node id="-81369" lat="62.761999996" lon="8.52569444453">
		<tag k="name" v="Kvernhusskogan" />
		<tag k="place" v="locality" />
		<tag k="ssr:stedsnr" v="269671" />
	</node>
	<node id="-83412" lat="62.5935777791" lon="8.96791666117">
		<tag k="name" v="Nylenda" />
		<tag k="place" v="locality" />
		<tag k="ssr:stedsnr" v="147297" />
	</node>
	<node id="-81484" lat="62.6828444403" lon="8.55561111876">
		<tag k="name" v="Bergetrøa" />
		<tag k="place" v="locality" />
		<tag k="ssr:stedsnr" v="448457" />
	</node>
	<node id="-81338" lat="62.6500000017" lon="8.32989166855">
		<tag k="name" v="Myratrøa" />
		<tag k="place" v="locality" />
		<tag k="ssr:stedsnr" v="268240" />
	</node>
	<node id="-81337" lat="62.6530361138" lon="8.33647777515">
		<tag k="name" v="Hopenga" />
		<tag k="place" v="locality" />
		<tag k="ssr:stedsnr" v="268237" />
	</node>
	<node id="-81336" lat="62.5970055535" lon="8.95663611048">
		<tag k="name" v="Ekran" />
		<tag k="place" v="locality" />
		<tag k="ssr:stedsnr" v="268280" />
	</node>
	<node id="-81335" lat="62.6717805572" lon="8.37910832685">
		<tag k="name" v="Storøya" />
		<tag k="place" v="locality" />
		<tag k="ssr:stedsnr" v="268192" />
	</node>
	<node id="-81334" lat="62.6773194485" lon="8.34816667519">
		<tag k="name" v="Lusasteinen" />
		<tag k="natural" v="stone" />
		<tag k="ssr:stedsnr" v="268174" />
	</node>
	<node id="-83379" lat="62.6758694457" lon="8.36337500575">
		<tag k="name" v="Stormyra" />
		<tag k="natural" v="wetland" />
		<tag k="ssr:stedsnr" v="146147" />
	</node>
	<node id="-83375" lat="62.5051638877" lon="8.9631555498">
		<tag k="name" v="Stormyra" />
		<tag k="natural" v="wetland" />
		<tag k="ssr:stedsnr" v="146047" />
	</node>
	<node id="-81323" lat="62.7214388931" lon="8.33186110561">
		<tag k="name" v="Sjåarsteinen" />
		<tag k="natural" v="stone" />
		<tag k="ssr:stedsnr" v="267876" />
	</node>
	<node id="-81322" lat="62.7469083374" lon="8.52773888948">
		<tag k="name" v="Stykket" />
		<tag k="place" v="locality" />
		<tag k="ssr:stedsnr" v="267796" />
	</node>
	<node id="-83366" lat="62.6255916683" lon="8.87319722285">
		<tag k="name" v="Landstøa" />
		<tag k="place" v="locality" />
		<tag k="ssr:stedsnr" v="145676" />
	</node>
	<node id="-81310" lat="62.6431083368" lon="8.78669999152">
		<tag k="name" v="Hoåsenga" />
		<tag k="place" v="locality" />
		<tag k="ssr:stedsnr" v="267278" />
	</node>
	<node id="-83355" lat="62.8682722212" lon="8.49660000267">
		<tag k="name" v="Stormyra" />
		<tag k="natural" v="wetland" />
		<tag k="ssr:stedsnr" v="145117" />
	</node>
	<node id="-81306" lat="62.6366944408" lon="8.85090278402">
		<tag k="name" v="Urdafaret" />
		<tag k="natural" v="scree" />
		<tag k="ssr:stedsnr" v="267239" />
	</node>
	<node id="-83352" lat="62.8514944426" lon="8.42261387926">
		<tag k="name" v="Langmyra" />
		<tag k="natural" v="wetland" />
		<tag k="ssr:stedsnr" v="145092" />
	</node>
	<node id="-83349" lat="62.6791388909" lon="8.54772221974">
		<tag k="name" v="Nordøra" />
		<tag k="place" v="locality" />
		<tag k="ssr:stedsnr" v="144515" />
	</node>
	<node id="-83348" lat="62.6960527765" lon="8.56074445338">
		<tag k="name" v="Fonna - fonna" />
		<tag k="place" v="locality" />
		<tag k="ssr:stedsnr" v="144455" />
	</node>
	<node id="-81289" lat="62.5284555541" lon="9.00345833538">
		<tag k="name" v="Falkmyra" />
		<tag k="natural" v="wetland" />
		<tag k="ssr:stedsnr" v="132836" />
	</node>
	<node id="-83862" lat="62.8634555554" lon="8.50630555919">
		<tag k="name" v="Trihynningen" />
		<tag k="place" v="locality" />
		<tag k="ssr:stedsnr" v="388093" />
	</node>
	<node id="-83330" lat="62.6346555589" lon="8.80890276922">
		<tag k="name" v="Moøran" />
		<tag k="place" v="locality" />
		<tag k="ssr:stedsnr" v="141695" />
	</node>
	<node id="-81279" lat="62.8566222242" lon="8.40019166052">
		<tag k="name" v="Hundmyra" />
		<tag k="natural" v="wetland" />
		<tag k="ssr:stedsnr" v="267079" />
	</node>
	<node id="-81272" lat="62.5310472207" lon="8.98921667632">
		<tag k="name" v="Ørsundøya" />
		<tag k="natural" v="wetland" />
		<tag k="ssr:stedsnr" v="267052" />
	</node>
	<node id="-81261" lat="62.6758277739" lon="8.57018889294">
		<tag k="name" v="Kilura" />
		<tag k="natural" v="scree" />
		<tag k="ssr:stedsnr" v="266489" />
	</node>
	<node id="-81260" lat="62.6978583294" lon="8.56663333778">
		<tag k="name" v="Millofonnin" />
		<tag k="place" v="locality" />
		<tag k="ssr:stedsnr" v="266439" />
	</node>
	<node id="-81245" lat="62.6278277818" lon="8.89545000771">
		<tag k="historic" v="shieling" />
		<tag k="name" v="Litlfalesetra" />
		<tag k="place" v="locality" />
		<tag k="ssr:stedsnr" v="263338" />
	</node>
	<node id="-83267" lat="62.6448611101" lon="8.533208333">
		<tag k="name" v="Østigardslykkja" />
		<tag k="place" v="locality" />
		<tag k="ssr:stedsnr" v="87887" />
	</node>
	<node id="-83260" lat="62.6491527802" lon="8.6823722248">
		<tag k="name" v="Langset" />
		<tag k="place" v="locality" />
		<tag k="ssr:stedsnr" v="87483" />
	</node>
	<node id="-83257" lat="62.6497083373" lon="8.67399167335">
		<tag k="name" v="Vinnavolløya" />
		<tag k="place" v="locality" />
		<tag k="ssr:stedsnr" v="87451" />
	</node>
	<node id="-83254" lat="62.5562527767" lon="9.09295277991">
		<tag k="name" v="Hjellaskrøu" />
		<tag k="natural" v="scree" />
		<tag k="ssr:stedsnr" v="87376" />
	</node>
	<node id="-83252" lat="62.5477999994" lon="9.08804999606">
		<tag k="name" v="Lykkja" />
		<tag k="place" v="locality" />
		<tag k="ssr:stedsnr" v="87354" />
	</node>
	<node id="-81199" lat="62.5723527773" lon="9.05019166944">
		<tag k="name" v="Litllykkja" />
		<tag k="place" v="locality" />
		<tag k="ssr:stedsnr" v="88105" />
	</node>
	<node id="-81192" lat="62.5540222226" lon="9.13543333311">
		<tag k="historic" v="shieling" />
		<tag k="name" v="Setervangen" />
		<tag k="place" v="locality" />
		<tag k="ssr:stedsnr" v="86952" />
	</node>
	<node id="-83235" lat="62.653386107" lon="8.53260555824">
		<tag k="name" v="Reit-trøa" />
		<tag k="place" v="locality" />
		<tag k="ssr:stedsnr" v="86885" />
	</node>
	<node id="-81184" lat="62.6603083349" lon="8.62263056017">
		<tag k="name" v="Teigøra" />
		<tag k="place" v="locality" />
		<tag k="ssr:stedsnr" v="86163" />
	</node>
	<node id="-83230" lat="62.6116583361" lon="8.91299444429">
		<tag k="name" v="Fåtjønnøran" />
		<tag k="place" v="locality" />
		<tag k="ssr:stedsnr" v="86633" />
	</node>
	<node id="-81181" lat="62.6633555576" lon="8.53080000756">
		<tag k="name" v="Utigard" />
		<tag k="place" v="locality" />
		<tag k="ssr:stedsnr" v="85907" />
	</node>
	<node id="-83221" lat="62.6250361111" lon="8.72566666416">
		<tag k="name" v="Nyura" />
		<tag k="natural" v="scree" />
		<tag k="ssr:stedsnr" v="86323" />
	</node>
	<node id="-81162" lat="62.5334527814" lon="8.98048333552">
		<tag k="name" v="Hagamyra" />
		<tag k="natural" v="wetland" />
		<tag k="ssr:stedsnr" v="85073" />
	</node>
	<node id="-83209" lat="62.6648833337" lon="8.60604443913">
		<tag k="name" v="Øyan" />
		<tag k="place" v="locality" />
		<tag k="ssr:stedsnr" v="86084" />
	</node>
	<node id="-83208" lat="62.665266663" lon="8.59633056428">
		<tag k="name" v="Veitvollen" />
		<tag k="place" v="locality" />
		<tag k="ssr:stedsnr" v="86082" />
	</node>
	<node id="-83201" lat="62.6814972247" lon="8.38382777421">
		<tag k="name" v="Langmyra" />
		<tag k="natural" v="wetland" />
		<tag k="ssr:stedsnr" v="85671" />
	</node>
	<node id="-83191" lat="62.8205583369" lon="8.51912222692">
		<tag k="name" v="Bjørhusøya" />
		<tag k="natural" v="wetland" />
		<tag k="ssr:stedsnr" v="85299" />
	</node>
	<node id="-83188" lat="62.8506499968" lon="8.54548610266">
		<tag k="name" v="Myran" />
		<tag k="natural" v="wetland" />
		<tag k="ssr:stedsnr" v="85196" />
	</node>
	<node id="-83185" lat="62.7378638889" lon="8.51842500826">
		<tag k="name" v="Bruåkeren" />
		<tag k="place" v="locality" />
		<tag k="ssr:stedsnr" v="85337" />
	</node>
	<node id="-83183" lat="62.6009194461" lon="8.96502221973">
		<tag k="name" v="Hesten" />
		<tag k="natural" v="stone" />
		<tag k="ssr:stedsnr" v="85237" />
	</node>
	<node id="-83179" lat="62.5013527819" lon="8.98192499944">
		<tag k="name" v="Sagøya" />
		<tag k="place" v="locality" />
		<tag k="ssr:stedsnr" v="85041" />
	</node>
	<node id="-81121" lat="62.604916664" lon="8.92993332546">
		<tag k="name" v="Seterøya" />
		<tag k="place" v="locality" />
		<tag k="ssr:stedsnr" v="26525" />
	</node>
	<node id="-83162" lat="62.5332527759" lon="9.1729499965">
		<tag k="name" v="Ulvsteinen" />
		<tag k="natural" v="stone" />
		<tag k="ssr:stedsnr" v="81743" />
	</node>
	<node id="-81113" lat="62.6627277769" lon="8.53204721636">
		<tag k="name" v="Østigard" />
		<tag k="place" v="locality" />
		<tag k="ssr:stedsnr" v="25921" />
	</node>
	<node id="-81107" lat="62.6134972215" lon="8.72536110943">
		<tag k="name" v="Høgura" />
		<tag k="natural" v="scree" />
		<tag k="ssr:stedsnr" v="25317" />
	</node>
	<node id="-81099" lat="62.6684749963" lon="8.60482222922">
		<tag k="name" v="Myran" />
		<tag k="natural" v="wetland" />
		<tag k="ssr:stedsnr" v="25130" />
	</node>
	<node id="-81095" lat="62.6322416685" lon="8.82341111092">
		<tag k="name" v="Langteigen" />
		<tag k="place" v="locality" />
		<tag k="ssr:stedsnr" v="24239" />
	</node>
	<node id="-81094" lat="62.6327527797" lon="8.83733332798">
		<tag k="name" v="Momelan" />
		<tag k="place" v="locality" />
		<tag k="ssr:stedsnr" v="24238" />
	</node>
	<node id="-81088" lat="62.5990055553" lon="8.53258055916">
		<tag k="name" v="Vassura" />
		<tag k="natural" v="scree" />
		<tag k="ssr:stedsnr" v="21807" />
	</node>
	<node id="-81077" lat="62.5193999957" lon="9.03248889004">
		<tag k="name" v="Svøumyran" />
		<tag k="natural" v="wetland" />
		<tag k="ssr:stedsnr" v="11830" />
	</node>
	<node id="-83076" lat="62.6227527786" lon="8.53585000146">
		<tag k="name" v="Ryora" />
		<tag k="natural" v="scree" />
		<tag k="ssr:stedsnr" v="26784" />
	</node>
	<node id="-83070" lat="62.6526388876" lon="8.64223056249">
		<tag k="name" v="Teinøra" />
		<tag k="place" v="locality" />
		<tag k="ssr:stedsnr" v="26477" />
	</node>
	<node id="-83067" lat="62.6520249996" lon="8.7172333351">
		<tag k="name" v="Storura" />
		<tag k="natural" v="scree" />
		<tag k="ssr:stedsnr" v="26446" />
	</node>
	<node id="-83061" lat="62.6145166708" lon="8.29758889015">
		<tag k="name" v="Breiura" />
		<tag k="natural" v="scree" />
		<tag k="ssr:stedsnr" v="26357" />
	</node>
	<node id="-83060" lat="62.5926305572" lon="8.99047776806">
		<tag k="name" v="Håkoøra" />
		<tag k="place" v="locality" />
		<tag k="ssr:stedsnr" v="26295" />
	</node>
	<node id="-83058" lat="62.5651027737" lon="9.12219721417">
		<tag k="name" v="Kasthølura" />
		<tag k="natural" v="scree" />
		<tag k="ssr:stedsnr" v="26259" />
	</node>
	<node id="-83055" lat="62.7131472247" lon="8.4236111095">
		<tag k="name" v="Erstadøyan" />
		<tag k="place" v="locality" />
		<tag k="ssr:stedsnr" v="26089" />
	</node>
	<node id="-83027" lat="62.6475666689" lon="8.70127222913">
		<tag k="name" v="Grødalsøyan" />
		<tag k="place" v="locality" />
		<tag k="ssr:stedsnr" v="25382" />
	</node>
	<node id="-83025" lat="62.6526499969" lon="8.70409444763">
		<tag k="name" v="Hjellan" />
		<tag k="place" v="locality" />
		<tag k="ssr:stedsnr" v="25371" />
	</node>
	<node id="-83020" lat="62.6578722243" lon="8.63138888732">
		<tag k="name" v="Melan" />
		<tag k="place" v="locality" />
		<tag k="ssr:stedsnr" v="25158" />
	</node>
	<node id="-83018" lat="62.670463889" lon="8.52759444445">
		<tag k="name" v="Naustøra" />
		<tag k="place" v="locality" />
		<tag k="ssr:stedsnr" v="24813" />
	</node>
	<node id="-83005" lat="62.6373805551" lon="8.84908054948">
		<tag k="name" v="Skrøu" />
		<tag k="natural" v="scree" />
		<tag k="ssr:stedsnr" v="24261" />
	</node>
	<node id="-83004" lat="62.6426361072" lon="8.85538055343">
		<tag k="name" v="Litl-landlaupet" />
		<tag k="natural" v="scree" />
		<tag k="ssr:stedsnr" v="24251" />
	</node>
	<node id="-83002" lat="62.8178444451" lon="8.52426667633">
		<tag k="name" v="Løyftmyra" />
		<tag k="natural" v="wetland" />
		<tag k="ssr:stedsnr" v="24352" />
	</node>
	<node id="-83000" lat="62.5296472232" lon="8.99567500877">
		<tag k="name" v="Storsletta" />
		<tag k="natural" v="wetland" />
		<tag k="ssr:stedsnr" v="24071" />
	</node>
	<node id="-83370" lat="62.6937527799" lon="8.40196944853">
		<tag k="name" v="Bjørnalaugmyra" />
		<tag k="natural" v="wetland" />
		<tag k="ssr:stedsnr" v="145714" />
	</node>
	<node id="-82928" lat="62.5748722179" lon="9.12938332362">
		<tag k="name" v="Kvilarsteinstøet" />
		<tag k="natural" v="stone" />
		<tag k="ssr:stedsnr" v="937126" />
	</node>
	<node id="-82926" lat="62.5604666643" lon="9.14708610494">
		<tag k="name" v="Stormyra" />
		<tag k="natural" v="wetland" />
		<tag k="ssr:stedsnr" v="936923" />
	</node>
	<node id="-82921" lat="62.64562222" lon="8.7389222184">
		<tag k="name" v="Melen" />
		<tag k="place" v="locality" />
		<tag k="ssr:stedsnr" v="936419" />
	</node>
	<node id="-82920" lat="62.6409777746" lon="8.75470000042">
		<tag k="name" v="Flatvadurin" />
		<tag k="natural" v="scree" />
		<tag k="ssr:stedsnr" v="936416" />
	</node>
	<node id="-82917" lat="62.6086805558" lon="8.92898888902">
		<tag k="name" v="Trøa" />
		<tag k="place" v="locality" />
		<tag k="ssr:stedsnr" v="936528" />
	</node>
	<node id="-82913" lat="62.7937277784" lon="8.55801944868">
		<tag k="name" v="Elvakrokan" />
		<tag k="natural" v="wetland" />
		<tag k="ssr:stedsnr" v="935417" />
	</node>
	<node id="-82912" lat="62.6107194445" lon="8.91924999079">
		<tag k="name" v="Fossteinen" />
		<tag k="natural" v="stone" />
		<tag k="ssr:stedsnr" v="935547" />
	</node>
	<node id="-82905" lat="62.6581805535" lon="8.64362222774">
		<tag k="name" v="Nerlykkja" />
		<tag k="place" v="locality" />
		<tag k="ssr:stedsnr" v="935103" />
	</node>
	<node id="-82897" lat="62.6665138925" lon="8.53906944857">
		<tag k="name" v="Klokkartrøa" />
		<tag k="place" v="locality" />
		<tag k="ssr:stedsnr" v="934905" />
	</node>
	<node id="-82894" lat="62.695319443" lon="8.42064167226">
		<tag k="name" v="Øygardsåker-fallet" />
		<tag k="place" v="locality" />
		<tag k="ssr:stedsnr" v="934707" />
	</node>
	<node id="-82892" lat="62.6399777821" lon="8.85571110164">
		<tag k="name" v="Stor-landlaupet" />
		<tag k="natural" v="scree" />
		<tag k="ssr:stedsnr" v="934246" />
	</node>
	<node id="-82873" lat="62.7540444441" lon="8.33348056456">
		<tag k="name" v="Litlskarmyra" />
		<tag k="natural" v="wetland" />
		<tag k="ssr:stedsnr" v="875966" />
	</node>
	<node id="-82855" lat="62.6561861101" lon="8.6451666704">
		<tag k="name" v="Brandeinbakkan" />
		<tag k="place" v="locality" />
		<tag k="ssr:stedsnr" v="875107" />
	</node>
	<node id="-82839" lat="62.7293027758" lon="8.45390000409">
		<tag k="name" v="Rammelura" />
		<tag k="natural" v="scree" />
		<tag k="ssr:stedsnr" v="874067" />
	</node>
	<node id="-82838" lat="62.668941665" lon="8.55982499213">
		<tag k="name" v="Storøra" />
		<tag k="place" v="locality" />
		<tag k="ssr:stedsnr" v="873956" />
	</node>
	<node id="-82837" lat="62.7559805547" lon="8.6219583345">
		<tag k="name" v="Kroken" />
		<tag k="place" v="locality" />
		<tag k="ssr:stedsnr" v="873704" />
	</node>
	<node id="-82833" lat="62.6817805513" lon="8.5593138827">
		<tag k="name" v="Breisvain" />
		<tag k="place" v="locality" />
		<tag k="ssr:stedsnr" v="873424" />
	</node>
	<node id="-81727" lat="62.5738277767" lon="9.03968055369">
		<tag k="name" v="Sloøra" />
		<tag k="place" v="locality" />
		<tag k="ssr:stedsnr" v="330222" />
	</node>
	<node id="-82789" lat="62.5677944478" lon="9.05750000865">
		<tag k="name" v="Gjerduøra" />
		<tag k="place" v="locality" />
		<tag k="ssr:stedsnr" v="937168" />
	</node>
	<node id="-81722" lat="62.5152472248" lon="9.09158056361">
		<tag k="name" v="Svarthaugmyran" />
		<tag k="natural" v="wetland" />
		<tag k="ssr:stedsnr" v="329641" />
	</node>
	<node id="-82773" lat="62.6160222185" lon="8.51933610512">
		<tag k="name" v="Storura" />
		<tag k="natural" v="scree" />
		<tag k="ssr:stedsnr" v="936755" />
	</node>
	<node id="-82771" lat="62.8228888846" lon="8.50071110535">
		<tag k="name" v="Stormyra" />
		<tag k="natural" v="wetland" />
		<tag k="ssr:stedsnr" v="936582" />
	</node>
	<node id="-82764" lat="62.6999750007" lon="8.42283332886">
		<tag k="name" v="Gammellykkja" />
		<tag k="place" v="locality" />
		<tag k="ssr:stedsnr" v="936074" />
	</node>
	<node id="-82762" lat="62.5711916685" lon="9.17254999755">
		<tag k="name" v="Skareggeura" />
		<tag k="natural" v="scree" />
		<tag k="ssr:stedsnr" v="936061" />
	</node>
	<node id="-82758" lat="62.6408416623" lon="8.80092222975">
		<tag k="name" v="Lykkja" />
		<tag k="place" v="locality" />
		<tag k="ssr:stedsnr" v="936336" />
	</node>
	<node id="-82754" lat="62.5836888905" lon="8.50592499499">
		<tag k="name" v="Myra" />
		<tag k="natural" v="wetland" />
		<tag k="ssr:stedsnr" v="935995" />
	</node>
	<node id="-82399" lat="62.7622444428" lon="8.59133334199">
		<tag k="name" v="Vøttu" />
		<tag k="place" v="locality" />
		<tag k="ssr:stedsnr" v="632814" />
	</node>
	<node id="-82742" lat="62.6060111135" lon="8.93957500558">
		<tag k="name" v="Engan" />
		<tag k="place" v="locality" />
		<tag k="ssr:stedsnr" v="935489" />
	</node>
	<node id="-82737" lat="62.6356861116" lon="8.79073333459">
		<tag k="name" v="Porsura" />
		<tag k="natural" v="scree" />
		<tag k="ssr:stedsnr" v="935347" />
	</node>
	<node id="-82735" lat="62.64015556" lon="8.79935278332">
		<tag k="name" v="Trøa" />
		<tag k="place" v="locality" />
		<tag k="ssr:stedsnr" v="935336" />
	</node>
	<node id="-82731" lat="62.6233583293" lon="8.72513888072">
		<tag k="name" v="Gammelura" />
		<tag k="natural" v="scree" />
		<tag k="ssr:stedsnr" v="935277" />
	</node>
	<node id="-84774" lat="62.5976249961" lon="8.76093889491">
		<tag k="name" v="Lapptjønnberget" />
		<tag k="place" v="locality" />
		<tag k="ssr:stedsnr" v="875410" />
	</node>
	<node id="-84773" lat="62.643013893" lon="8.72623889588">
		<tag k="historic" v="shieling" />
		<tag k="name" v="Grøsetra" />
		<tag k="place" v="locality" />
		<tag k="ssr:stedsnr" v="875401" />
	</node>
	<node id="-82720" lat="62.6779722248" lon="8.39542500825">
		<tag k="name" v="Ulvmyra" />
		<tag k="natural" v="wetland" />
		<tag k="ssr:stedsnr" v="934684" />
	</node>
	<node id="-82710" lat="62.4989472183" lon="8.93571666748">
		<tag k="name" v="Myran" />
		<tag k="natural" v="wetland" />
		<tag k="ssr:stedsnr" v="934525" />
	</node>
	<node id="-84749" lat="62.876441671" lon="8.47395277827">
		<tag k="name" v="Øygarden" />
		<tag k="place" v="locality" />
		<tag k="ssr:stedsnr" v="874291" />
	</node>
	<node id="-81708" lat="62.6294472259" lon="8.80727222114">
		<tag k="name" v="Kongelhjellsvaa" />
		<tag k="place" v="locality" />
		<tag k="ssr:stedsnr" v="328712" />
	</node>
	<node id="-84742" lat="62.6435888859" lon="8.79093889697">
		<tag k="name" v="Øran" />
		<tag k="place" v="locality" />
		<tag k="ssr:stedsnr" v="874330" />
	</node>
	<node id="-82693" lat="62.5326472237" lon="8.97998332425">
		<tag k="name" v="Øyan" />
		<tag k="natural" v="wetland" />
		<tag k="ssr:stedsnr" v="934094" />
	</node>
	<node id="-84738" lat="62.8258000004" lon="8.48365554912">
		<tag k="name" v="Værret" />
		<tag k="natural" v="wetland" />
		<tag k="ssr:stedsnr" v="874180" />
	</node>
	<node id="-84737" lat="62.6596972226" lon="8.6278361033">
		<tag k="name" v="Øyan" />
		<tag k="place" v="locality" />
		<tag k="ssr:stedsnr" v="874165" />
	</node>
	<node id="-84735" lat="62.7530388913" lon="8.54234722219">
		<tag k="name" v="Kaldura" />
		<tag k="natural" v="scree" />
		<tag k="ssr:stedsnr" v="873776" />
	</node>
	<node id="-84733" lat="62.7513638933" lon="8.629025003">
		<tag k="name" v="Olderskogan" />
		<tag k="place" v="locality" />
		<tag k="ssr:stedsnr" v="873696" />
	</node>
	<node id="-84732" lat="62.6689250039" lon="8.41710277016">
		<tag k="name" v="Kjerkjesteinen" />
		<tag k="natural" v="stone" />
		<tag k="ssr:stedsnr" v="873496" />
	</node>
	<node id="-84725" lat="62.503294442" lon="8.95273888338">
		<tag k="name" v="Slættmyra" />
		<tag k="natural" v="wetland" />
		<tag k="ssr:stedsnr" v="873073" />
	</node>
	<node id="-82671" lat="62.5929388925" lon="8.96369999047">
		<tag k="name" v="Kalvhagen" />
		<tag k="place" v="locality" />
		<tag k="ssr:stedsnr" v="815275" />
	</node>
	<node id="-81703" lat="62.6695611087" lon="8.61628333661">
		<tag k="name" v="Veltura" />
		<tag k="natural" v="scree" />
		<tag k="ssr:stedsnr" v="328114" />
	</node>
	<node id="-82664" lat="62.7325583358" lon="8.34636944137">
		<tag k="name" v="Storsteinen" />
		<tag k="natural" v="stone" />
		<tag k="ssr:stedsnr" v="814873" />
	</node>
	<node id="-82663" lat="62.6665833306" lon="8.57276667226">
		<tag k="name" v="Skjølløndøran" />
		<tag k="place" v="locality" />
		<tag k="ssr:stedsnr" v="813164" />
	</node>
	<node id="-84658" lat="62.6515194486" lon="8.53215000531">
		<tag k="name" v="Stormelen" />
		<tag k="place" v="locality" />
		<tag k="ssr:stedsnr" v="875871" />
	</node>
	<node id="-84655" lat="62.5723583355" lon="9.04534721433">
		<tag k="name" v="Ramsøra" />
		<tag k="place" v="locality" />
		<tag k="ssr:stedsnr" v="816190" />
	</node>
	<node id="-84650" lat="62.6262222236" lon="8.53005833185">
		<tag k="name" v="Øran" />
		<tag k="place" v="locality" />
		<tag k="ssr:stedsnr" v="815824" />
	</node>
	<node id="-82601" lat="62.6734944481" lon="8.53954722096">
		<tag k="name" v="Håsøran" />
		<tag k="place" v="locality" />
		<tag k="ssr:stedsnr" v="922056" />
	</node>
	<node id="-82374" lat="62.6564555596" lon="8.53125555812">
		<tag k="name" v="Peøya" />
		<tag k="place" v="locality" />
		<tag k="ssr:stedsnr" v="630871" />
	</node>
	<node id="-84640" lat="62.6513805589" lon="8.63900277445">
		<tag k="name" v="Småskogan" />
		<tag k="place" v="locality" />
		<tag k="ssr:stedsnr" v="815449" />
	</node>
	<node id="-84635" lat="62.547777779" lon="9.10260832571">
		<tag k="name" v="Storelvøran" />
		<tag k="natural" v="scree" />
		<tag k="ssr:stedsnr" v="815350" />
	</node>
	<node id="-84634" lat="62.5947861141" lon="8.96628611672">
		<tag k="name" v="Holjeøya" />
		<tag k="place" v="locality" />
		<tag k="ssr:stedsnr" v="815290" />
	</node>
	<node id="-84631" lat="62.5708194476" lon="9.13906388503">
		<tag k="name" v="Ytteråkeren" />
		<tag k="place" v="locality" />
		<tag k="ssr:stedsnr" v="815050" />
	</node>
	<node id="-84613" lat="62.6448194433" lon="8.71003611404">
		<tag k="name" v="Knuttrøa" />
		<tag k="place" v="locality" />
		<tag k="ssr:stedsnr" v="814416" />
	</node>
	<node id="-84607" lat="62.652661115" lon="8.3397166644">
		<tag k="name" v="Evjeteigan" />
		<tag k="place" v="locality" />
		<tag k="ssr:stedsnr" v="814296" />
	</node>
	<node id="-84605" lat="62.6853194449" lon="8.37381110746">
		<tag k="name" v="Benkemyra" />
		<tag k="natural" v="wetland" />
		<tag k="ssr:stedsnr" v="814209" />
	</node>
	<node id="-82556" lat="62.6607249992" lon="8.61508611531">
		<tag k="name" v="Midtiøra" />
		<tag k="place" v="locality" />
		<tag k="ssr:stedsnr" v="753126" />
	</node>
	<node id="-84603" lat="62.6636888885" lon="8.62981944362">
		<tag k="name" v="Banura" />
		<tag k="natural" v="scree" />
		<tag k="ssr:stedsnr" v="814206" />
	</node>
	<node id="-84600" lat="62.6549250042" lon="8.62814722585">
		<tag k="name" v="Trøledvollen" />
		<tag k="place" v="locality" />
		<tag k="ssr:stedsnr" v="814184" />
	</node>
	<node id="-84591" lat="62.6642500032" lon="8.52569445093">
		<tag k="name" v="Lingjerdet" />
		<tag k="place" v="locality" />
		<tag k="ssr:stedsnr" v="813917" />
	</node>
	<node id="-84590" lat="62.6636750008" lon="8.53464722533">
		<tag k="name" v="Sanden" />
		<tag k="place" v="locality" />
		<tag k="ssr:stedsnr" v="813908" />
	</node>
	<node id="-84588" lat="62.6625888878" lon="8.54357499385">
		<tag k="name" v="Kvitura" />
		<tag k="natural" v="scree" />
		<tag k="ssr:stedsnr" v="813897" />
	</node>
	<node id="-84581" lat="62.668824997" lon="8.52661111468">
		<tag k="name" v="Tredalsøra" />
		<tag k="place" v="locality" />
		<tag k="ssr:stedsnr" v="813805" />
	</node>
	<node id="-84577" lat="62.7588944417" lon="8.59277777528">
		<tag k="name" v="Torvgardsmyran" />
		<tag k="natural" v="wetland" />
		<tag k="ssr:stedsnr" v="813751" />
	</node>
	<node id="-84576" lat="62.7585111134" lon="8.62675554814">
		<tag k="name" v="Gråura" />
		<tag k="natural" v="scree" />
		<tag k="ssr:stedsnr" v="813747" />
	</node>
	<node id="-84566" lat="62.607438893" lon="8.94368889399">
		<tag k="name" v="Klysura" />
		<tag k="natural" v="scree" />
		<tag k="ssr:stedsnr" v="813420" />
	</node>
	<node id="-84561" lat="62.64029167" lon="8.848344441">
		<tag k="name" v="Storsvaet" />
		<tag k="place" v="locality" />
		<tag k="ssr:stedsnr" v="813243" />
	</node>
	<node id="-84555" lat="62.6933166711" lon="8.56154722299">
		<tag k="name" v="Geitasvaet" />
		<tag k="place" v="locality" />
		<tag k="ssr:stedsnr" v="812529" />
	</node>
	<node id="-82503" lat="62.5512388914" lon="9.08743056271">
		<tag k="name" v="Teigen" />
		<tag k="place" v="locality" />
		<tag k="ssr:stedsnr" v="694373" />
	</node>
	<node id="-84548" lat="62.5970972267" lon="8.49950277897">
		<tag k="name" v="Peskrøo" />
		<tag k="natural" v="scree" />
		<tag k="ssr:stedsnr" v="810826" />
	</node>
	<node id="-82491" lat="62.5306722183" lon="9.08242499173">
		<tag k="name" v="Klavura" />
		<tag k="natural" v="scree" />
		<tag k="ssr:stedsnr" v="693485" />
	</node>
	<node id="-82490" lat="62.596588887" lon="8.9923694423">
		<tag k="name" v="Ottøya" />
		<tag k="place" v="locality" />
		<tag k="ssr:stedsnr" v="693483" />
	</node>
	<node id="-82488" lat="62.6510694432" lon="8.66993055537">
		<tag k="name" v="Ner Øyavollen" />
		<tag k="place" v="locality" />
		<tag k="ssr:stedsnr" v="693466" />
	</node>
	<node id="-82487" lat="62.649497221" lon="8.66660000382">
		<tag k="name" v="Melan" />
		<tag k="place" v="locality" />
		<tag k="ssr:stedsnr" v="693463" />
	</node>
	<node id="-82479" lat="62.6460138901" lon="8.3230166585">
		<tag k="name" v="Lykkjevollan" />
		<tag k="place" v="locality" />
		<tag k="ssr:stedsnr" v="693304" />
	</node>
	<node id="-82460" lat="62.5237305569" lon="8.57067221987">
		<tag k="landuse" v="quarry" />
		<tag k="name" v="Verket" />
		<tag k="ssr:stedsnr" v="688804" />
	</node>
	<node id="-84480" lat="62.7636750044" lon="8.58781943922">
		<tag k="name" v="Innernylenna" />
		<tag k="place" v="locality" />
		<tag k="ssr:stedsnr" v="875821" />
	</node>
	<node id="-82428" lat="62.5695416678" lon="9.05444722599">
		<tag k="name" v="Teinøra" />
		<tag k="place" v="locality" />
		<tag k="ssr:stedsnr" v="877125" />
	</node>
	<node id="-82427" lat="62.6366388864" lon="8.52993332629">
		<tag k="name" v="Lykkja" />
		<tag k="place" v="locality" />
		<tag k="ssr:stedsnr" v="876930" />
	</node>
	<node id="-84464" lat="62.5948027787" lon="9.03461111773">
		<tag k="name" v="Fjellnebba" />
		<tag k="natural" v="stone" />
		<tag k="ssr:stedsnr" v="755224" />
	</node>
	<node id="-82406" lat="62.6426444466" lon="8.53539999604">
		<tag k="name" v="Utigardslykkja" />
		<tag k="place" v="locality" />
		<tag k="ssr:stedsnr" v="633922" />
	</node>
	<node id="-82402" lat="62.5733527765" lon="9.05093333851">
		<tag k="name" v="Heggeskrøu" />
		<tag k="natural" v="scree" />
		<tag k="ssr:stedsnr" v="633159" />
	</node>
	<node id="-84447" lat="62.5982916644" lon="8.9969777771">
		<tag k="name" v="Lavrantskjerka" />
		<tag k="natural" v="stone" />
		<tag k="ssr:stedsnr" v="754497" />
	</node>
	<node id="-84444" lat="62.6497888877" lon="8.73003887917">
		<tag k="name" v="Bussvollen" />
		<tag k="place" v="locality" />
		<tag k="ssr:stedsnr" v="754463" />
	</node>
	<node id="-82392" lat="62.6131777788" lon="8.30988333466">
		<tag k="name" v="Hansenga" />
		<tag k="natural" v="wetland" />
		<tag k="ssr:stedsnr" v="632376" />
	</node>
	<node id="-84438" lat="62.5943888884" lon="8.98632777524">
		<tag k="name" v="Rønningen" />
		<tag k="place" v="locality" />
		<tag k="ssr:stedsnr" v="754362" />
	</node>
	<node id="-84435" lat="62.5884194432" lon="8.9909555551">
		<tag k="name" v="Bytura" />
		<tag k="natural" v="scree" />
		<tag k="ssr:stedsnr" v="754326" />
	</node>
	<node id="-82383" lat="62.7609416694" lon="8.58065556246">
		<tag k="name" v="Skvettarøya" />
		<tag k="natural" v="wetland" />
		<tag k="ssr:stedsnr" v="631761" />
	</node>
	<node id="-84429" lat="62.557377776" lon="9.11496945221">
		<tag k="name" v="Nesøra" />
		<tag k="place" v="locality" />
		<tag k="ssr:stedsnr" v="754274" />
	</node>
	<node id="-82380" lat="62.8386749966" lon="8.51517777052">
		<tag k="name" v="Ålvundøran" />
		<tag k="place" v="locality" />
		<tag k="ssr:stedsnr" v="631418" />
	</node>
	<node id="-82376" lat="62.6639055513" lon="8.61228056517">
		<tag k="name" v="Oppkastet" />
		<tag k="place" v="locality" />
		<tag k="ssr:stedsnr" v="631155" />
	</node>
	<node id="-82375" lat="62.6663527787" lon="8.60703055929">
		<tag k="name" v="Skogåkran" />
		<tag k="place" v="locality" />
		<tag k="ssr:stedsnr" v="631072" />
	</node>
	<node id="-84422" lat="62.7053277739" lon="8.43538333686">
		<tag k="name" v="Kvitsvaet" />
		<tag k="place" v="locality" />
		<tag k="ssr:stedsnr" v="754086" />
	</node>
	<node id="-84421" lat="62.5743972203" lon="9.1476944362">
		<tag k="name" v="Småvollura" />
		<tag k="natural" v="scree" />
		<tag k="ssr:stedsnr" v="754066" />
	</node>
	<node id="-82371" lat="62.7528333369" lon="8.63064166472">
		<tag k="name" v="Hagan" />
		<tag k="place" v="locality" />
		<tag k="ssr:stedsnr" v="630683" />
	</node>
	<node id="-84418" lat="62.5675499968" lon="9.22047222155">
		<tag k="name" v="Stormyrholten" />
		<tag k="natural" v="wetland" />
		<tag k="ssr:stedsnr" v="754024" />
	</node>
	<node id="-82677" lat="62.611694446" lon="8.5131833334">
		<tag k="name" v="Dalahøgskrøo" />
		<tag k="natural" v="scree" />
		<tag k="ssr:stedsnr" v="815756" />
	</node>
	<node id="-82364" lat="62.8178722201" lon="8.51153888556">
		<tag k="name" v="Engan" />
		<tag k="natural" v="wetland" />
		<tag k="ssr:stedsnr" v="630354" />
	</node>
	<node id="-82363" lat="62.6330111071" lon="8.82706666802">
		<tag k="name" v="Badstuvollen" />
		<tag k="place" v="locality" />
		<tag k="ssr:stedsnr" v="630264" />
	</node>
	<node id="-84409" lat="62.6118888866" lon="8.92049722811">
		<tag k="name" v="Utistu Snøva" />
		<tag k="natural" v="stone" />
		<tag k="ssr:stedsnr" v="753498" />
	</node>
	<node id="-84406" lat="62.5134861076" lon="8.95980276884">
		<tag k="name" v="Snøura" />
		<tag k="natural" v="scree" />
		<tag k="ssr:stedsnr" v="753466" />
	</node>
	<node id="-84403" lat="62.5273444447" lon="9.07624999696">
		<tag k="name" v="Storura" />
		<tag k="natural" v="scree" />
		<tag k="ssr:stedsnr" v="753395" />
	</node>
	<node id="-84399" lat="62.6264111099" lon="8.72441388968">
		<tag k="name" v="Dursteinen" />
		<tag k="natural" v="stone" />
		<tag k="ssr:stedsnr" v="753256" />
	</node>
	<node id="-84387" lat="62.6639833343" lon="8.60227222309">
		<tag k="name" v="Rønningan" />
		<tag k="place" v="locality" />
		<tag k="ssr:stedsnr" v="753054" />
	</node>
	<node id="-84386" lat="62.6666888915" lon="8.60480833579">
		<tag k="name" v="Tjønnvollen" />
		<tag k="place" v="locality" />
		<tag k="ssr:stedsnr" v="753053" />
	</node>
	<node id="-84385" lat="62.6659749974" lon="8.54884167348">
		<tag k="name" v="Nyinnlegget" />
		<tag k="place" v="locality" />
		<tag k="ssr:stedsnr" v="752906" />
	</node>
	<node id="-84384" lat="62.6543722228" lon="8.53222221629">
		<tag k="name" v="Reittrøa" />
		<tag k="place" v="locality" />
		<tag k="ssr:stedsnr" v="752896" />
	</node>
	<node id="-84380" lat="62.6952861088" lon="8.39620833068">
		<tag k="name" v="Nebbsteinen" />
		<tag k="natural" v="stone" />
		<tag k="ssr:stedsnr" v="752704" />
	</node>
	<node id="-84376" lat="62.6771555552" lon="8.39091388721">
		<tag k="name" v="Storåkeren" />
		<tag k="place" v="locality" />
		<tag k="ssr:stedsnr" v="752679" />
	</node>
	<node id="-84374" lat="62.6834611123" lon="8.39716111047">
		<tag k="name" v="Storkringla" />
		<tag k="natural" v="wetland" />
		<tag k="ssr:stedsnr" v="752676" />
	</node>
	<node id="-84373" lat="62.6308666685" lon="8.85993333107">
		<tag k="name" v="Kjetilstaden" />
		<tag k="place" v="locality" />
		<tag k="ssr:stedsnr" v="752660" />
	</node>
	<node id="-84368" lat="62.5119166659" lon="8.98518333982">
		<tag k="name" v="Stormyra" />
		<tag k="natural" v="wetland" />
		<tag k="ssr:stedsnr" v="752537" />
	</node>
	<node id="-84366" lat="62.6599194478" lon="8.3949722256">
		<tag k="name" v="Kroksnøfonna" />
		<tag k="place" v="locality" />
		<tag k="ssr:stedsnr" v="752450" />
	</node>
	<node id="-82316" lat="62.8491055593" lon="8.60104999998">
		<tag k="alt_name" v="Slette" />
		<tag k="landuse" v="meadow" />
		<tag k="name" v="Slættet" />
		<tag k="ssr:stedsnr" v="707832" />
	</node>
	<node id="-84363" lat="62.8229194406" lon="8.5273111101">
		<tag k="name" v="Lykkja" />
		<tag k="natural" v="wetland" />
		<tag k="ssr:stedsnr" v="752421" />
	</node>
	<node id="-82309" lat="62.6385749956" lon="8.53116944792">
		<tag k="name" v="Gammel-lykkja" />
		<tag k="place" v="locality" />
		<tag k="ssr:stedsnr" v="572904" />
	</node>
	<node id="-82307" lat="62.4966305573" lon="9.08902777088">
		<tag k="name" v="Stormyra" />
		<tag k="natural" v="wetland" />
		<tag k="ssr:stedsnr" v="572725" />
	</node>
	<node id="-84354" lat="62.8333888897" lon="8.50881666903">
		<tag k="name" v="Vågageilen" />
		<tag k="place" v="locality" />
		<tag k="ssr:stedsnr" v="752174" />
	</node>
	<node id="-84346" lat="62.641783332" lon="8.77374999903">
		<tag k="name" v="Flatvadurin" />
		<tag k="natural" v="scree" />
		<tag k="ssr:stedsnr" v="749751" />
	</node>
	<node id="-82294" lat="62.6412972218" lon="8.8046694427">
		<tag k="name" v="Røyhjellhagan" />
		<tag k="place" v="locality" />
		<tag k="ssr:stedsnr" v="571345" />
	</node>
	<node id="-82286" lat="62.8100888888" lon="8.49715277746">
		<tag k="name" v="Heimmyra" />
		<tag k="natural" v="wetland" />
		<tag k="ssr:stedsnr" v="570531" />
	</node>
	<node id="-82283" lat="62.6448055575" lon="8.77635000905">
		<tag k="name" v="Øran" />
		<tag k="place" v="locality" />
		<tag k="ssr:stedsnr" v="570262" />
	</node>
	<node id="-82282" lat="62.6424500045" lon="8.76520555782">
		<tag k="name" v="Stranda" />
		<tag k="place" v="locality" />
		<tag k="ssr:stedsnr" v="570255" />
	</node>
	<node id="-84298" lat="62.6484972236" lon="8.53283610249">
		<tag k="landuse" v="quarry" />
		<tag k="name" v="Krokvollen" />
		<tag k="ssr:stedsnr" v="633928" />
	</node>
	<node id="-82249" lat="62.5742361127" lon="9.04854166349">
		<tag k="name" v="Toreskrøu" />
		<tag k="place" v="locality" />
		<tag k="ssr:stedsnr" v="694168" />
	</node>
	<node id="-82247" lat="62.7394555589" lon="8.33704721913">
		<tag k="name" v="Svartdiket" />
		<tag k="natural" v="wetland" />
		<tag k="ssr:stedsnr" v="693886" />
	</node>
	<node id="-84293" lat="62.5657555589" lon="9.05646110312">
		<tag k="name" v="Kåltrøa" />
		<tag k="place" v="locality" />
		<tag k="ssr:stedsnr" v="633485" />
	</node>
	<node id="-84292" lat="62.5576249983" lon="9.0861222228">
		<tag k="name" v="Staurvollen" />
		<tag k="place" v="locality" />
		<tag k="ssr:stedsnr" v="633433" />
	</node>
	<node id="-84290" lat="62.5594194403" lon="9.12611943774">
		<tag k="name" v="Enga" />
		<tag k="natural" v="wetland" />
		<tag k="ssr:stedsnr" v="633237" />
	</node>
	<node id="-84285" lat="62.5740083353" lon="8.50559722234">
		<tag k="name" v="Gammelura" />
		<tag k="natural" v="scree" />
		<tag k="ssr:stedsnr" v="632992" />
	</node>
	<node id="-84284" lat="62.7672111106" lon="8.54453332708">
		<tag k="name" v="Nymelen" />
		<tag k="place" v="locality" />
		<tag k="ssr:stedsnr" v="632832" />
	</node>
	<node id="-82234" lat="62.6131499991" lon="8.91946945263">
		<tag k="name" v="Geilråa" />
		<tag k="place" v="locality" />
		<tag k="ssr:stedsnr" v="693597" />
	</node>
	<node id="-84281" lat="62.6155138892" lon="8.53406111484">
		<tag k="name" v="Helvetesurin" />
		<tag k="natural" v="scree" />
		<tag k="ssr:stedsnr" v="632750" />
	</node>
	<node id="-82231" lat="62.7750083305" lon="8.50687500187">
		<tag k="name" v="Kalvtrøa" />
		<tag k="place" v="locality" />
		<tag k="ssr:stedsnr" v="693538" />
	</node>
	<node id="-82229" lat="62.7804777773" lon="8.5006499985">
		<tag k="name" v="Haugamyra" />
		<tag k="natural" v="wetland" />
		<tag k="ssr:stedsnr" v="693528" />
	</node>
	<node id="-82227" lat="62.5249583306" lon="9.00721389483">
		<tag k="name" v="Storren" />
		<tag k="natural" v="wetland" />
		<tag k="ssr:stedsnr" v="693509" />
	</node>
	<node id="-84272" lat="62.7676194472" lon="8.53351388259">
		<tag k="name" v="Utstillingsplassen" />
		<tag k="place" v="locality" />
		<tag k="ssr:stedsnr" v="632603" />
	</node>
	<node id="-82223" lat="62.5925777747" lon="8.98559167048">
		<tag k="name" v="Gjøta" />
		<tag k="place" v="locality" />
		<tag k="ssr:stedsnr" v="693342" />
	</node>
	<node id="-84270" lat="62.7665749956" lon="8.42917499378">
		<tag k="name" v="Seterura" />
		<tag k="natural" v="scree" />
		<tag k="ssr:stedsnr" v="632541" />
	</node>
	<node id="-82218" lat="62.6500000017" lon="8.32989166855">
		<tag k="name" v="Øya" />
		<tag k="place" v="locality" />
		<tag k="ssr:stedsnr" v="693301" />
	</node>
	<node id="-84264" lat="62.7995166622" lon="8.50060277994">
		<tag k="name" v="Dalamyra" />
		<tag k="natural" v="wetland" />
		<tag k="ssr:stedsnr" v="632590" />
	</node>
	<node id="-82215" lat="62.6604444461" lon="8.63786943605">
		<tag k="name" v="Einangen" />
		<tag k="place" v="locality" />
		<tag k="ssr:stedsnr" v="693144" />
	</node>
	<node id="-84260" lat="62.6512305574" lon="8.72401111921">
		<tag k="name" v="Lykkja" />
		<tag k="place" v="locality" />
		<tag k="ssr:stedsnr" v="632436" />
	</node>
	<node id="-82210" lat="62.718719442" lon="8.42297221752">
		<tag k="name" v="Øran" />
		<tag k="place" v="locality" />
		<tag k="ssr:stedsnr" v="693011" />
	</node>
	<node id="-82209" lat="62.6539611106" lon="8.66028333527">
		<tag k="name" v="Storøra" />
		<tag k="place" v="locality" />
		<tag k="ssr:stedsnr" v="693010" />
	</node>
	<node id="-82206" lat="62.760688888" lon="8.5942777683">
		<tag k="name" v="Skjenøya" />
		<tag k="natural" v="wetland" />
		<tag k="ssr:stedsnr" v="692741" />
	</node>
	<node id="-84253" lat="62.7030722188" lon="8.41648889222">
		<tag k="name" v="Revura" />
		<tag k="natural" v="scree" />
		<tag k="ssr:stedsnr" v="632109" />
	</node>
	<node id="-84251" lat="62.7036222245" lon="8.40582222209">
		<tag k="name" v="Bytfonna" />
		<tag k="place" v="locality" />
		<tag k="ssr:stedsnr" v="632099" />
	</node>
	<node id="-82199" lat="62.6388055534" lon="8.78473332597">
		<tag k="name" v="Hjellan" />
		<tag k="place" v="locality" />
		<tag k="ssr:stedsnr" v="692312" />
	</node>
	<node id="-82198" lat="62.8991194448" lon="8.42171666185">
		<tag k="name" v="Flata" />
		<tag k="place" v="locality" />
		<tag k="ssr:stedsnr" v="692305" />
	</node>
	<node id="-84243" lat="62.6310194474" lon="8.82391944338">
		<tag k="name" v="Reitlykkja" />
		<tag k="place" v="locality" />
		<tag k="ssr:stedsnr" v="631729" />
	</node>
	<node id="-84242" lat="62.744213889" lon="8.52825277694">
		<tag k="name" v="Hagaledvollen" />
		<tag k="place" v="locality" />
		<tag k="ssr:stedsnr" v="631820" />
	</node>
	<node id="-82193" lat="62.8698166707" lon="8.47911945062">
		<tag k="name" v="Gjengstøteigen" />
		<tag k="place" v="locality" />
		<tag k="ssr:stedsnr" v="692253" />
	</node>
	<node id="-84240" lat="62.6172027818" lon="8.94120277548">
		<tag k="name" v="Plogjarnet" />
		<tag k="natural" v="stone" />
		<tag k="ssr:stedsnr" v="631521" />
	</node>
	<node id="-84237" lat="62.7873527783" lon="8.51842499471">
		<tag k="name" v="Grovamyra" />
		<tag k="natural" v="wetland" />
		<tag k="ssr:stedsnr" v="631390" />
	</node>
	<node id="-82188" lat="62.8855861147" lon="8.45172500137">
		<tag k="historic" v="shieling" />
		<tag k="name" v="Mjølkplassen" />
		<tag k="place" v="locality" />
		<tag k="ssr:stedsnr" v="692218" />
	</node>
	<node id="-84231" lat="62.6609250014" lon="8.60771110992">
		<tag k="name" v="Øyan" />
		<tag k="place" v="locality" />
		<tag k="ssr:stedsnr" v="631136" />
	</node>
	<node id="-82175" lat="62.6702555533" lon="8.39311943637">
		<tag k="name" v="Stormyra" />
		<tag k="natural" v="wetland" />
		<tag k="ssr:stedsnr" v="691493" />
	</node>
	<node id="-84220" lat="62.7580583289" lon="8.52912221533">
		<tag k="name" v="Øykjemyra" />
		<tag k="natural" v="wetland" />
		<tag k="ssr:stedsnr" v="630734" />
	</node>
	<node id="-84218" lat="62.6276888929" lon="8.87348333986">
		<tag k="name" v="Motrøa" />
		<tag k="place" v="locality" />
		<tag k="ssr:stedsnr" v="630639" />
	</node>
	<node id="-84217" lat="62.626052774" lon="8.86404721502">
		<tag k="name" v="Kvitøra" />
		<tag k="place" v="locality" />
		<tag k="ssr:stedsnr" v="630637" />
	</node>
	<node id="-84216" lat="62.7556694435" lon="8.62563610482">
		<tag k="name" v="Hagalykkja" />
		<tag k="place" v="locality" />
		<tag k="ssr:stedsnr" v="630699" />
	</node>
	<node id="-84215" lat="62.6894055559" lon="8.49694721923">
		<tag k="name" v="Uramyran" />
		<tag k="natural" v="wetland" />
		<tag k="ssr:stedsnr" v="630471" />
	</node>
	<node id="-84213" lat="62.6634111139" lon="8.45518055064">
		<tag k="name" v="Rønningsteinen" />
		<tag k="natural" v="stone" />
		<tag k="ssr:stedsnr" v="630446" />
	</node>
	<node id="-82159" lat="62.7127361096" lon="8.80253333486">
		<tag k="name" v="Lusmyra" />
		<tag k="natural" v="wetland" />
		<tag k="ssr:stedsnr" v="688738" />
	</node>
	<node id="-82155" lat="62.7146611078" lon="8.49360556225">
		<tag k="name" v="Vettamyra" />
		<tag k="natural" v="wetland" />
		<tag k="ssr:stedsnr" v="688718" />
	</node>
	<node id="-81617" lat="62.5812861147" lon="9.02569999771">
		<tag k="name" v="Kleivsvaet" />
		<tag k="place" v="locality" />
		<tag k="ssr:stedsnr" v="268171" />
	</node>
	<node id="-82139" lat="62.5727472232" lon="9.14255555885">
		<tag k="name" v="Østeråkeren" />
		<tag k="place" v="locality" />
		<tag k="ssr:stedsnr" v="512055" />
	</node>
	<node id="-82133" lat="62.7411777769" lon="8.33499166707">
		<tag k="name" v="Liamyran" />
		<tag k="natural" v="wetland" />
		<tag k="ssr:stedsnr" v="510948" />
	</node>
	<node id="-82126" lat="62.660894443" lon="8.60330277839">
		<tag k="name" v="Øran" />
		<tag k="place" v="locality" />
		<tag k="ssr:stedsnr" v="510139" />
	</node>
	<node id="-82122" lat="62.5044027778" lon="8.98216111041">
		<tag k="name" v="Sagmyra" />
		<tag k="natural" v="wetland" />
		<tag k="ssr:stedsnr" v="510053" />
	</node>
	<node id="-82120" lat="62.661605552" lon="8.53243055479">
		<tag k="name" v="Storåkeren" />
		<tag k="place" v="locality" />
		<tag k="ssr:stedsnr" v="509866" />
	</node>
	<node id="-82119" lat="62.7581722252" lon="8.61493056251">
		<tag k="name" v="Bruekra" />
		<tag k="place" v="locality" />
		<tag k="ssr:stedsnr" v="509713" />
	</node>
	<node id="-82117" lat="62.6938527761" lon="8.48665278577">
		<tag k="name" v="Hagan" />
		<tag k="place" v="locality" />
		<tag k="ssr:stedsnr" v="509679" />
	</node>
	<node id="-82113" lat="62.5215222254" lon="8.98671389189">
		<tag k="name" v="Åsmyra" />
		<tag k="natural" v="wetland" />
		<tag k="ssr:stedsnr" v="509522" />
	</node>
	<node id="-84139" lat="62.6270583351" lon="8.52698332534">
		<tag k="name" v="Kvitura" />
		<tag k="natural" v="scree" />
		<tag k="ssr:stedsnr" v="572847" />
	</node>
	<node id="-84136" lat="62.6323777756" lon="8.53648055863">
		<tag k="name" v="Hagaleura" />
		<tag k="natural" v="scree" />
		<tag k="ssr:stedsnr" v="572917" />
	</node>
	<node id="-84134" lat="62.6438666634" lon="8.73371667347">
		<tag k="name" v="Grøøya" />
		<tag k="place" v="locality" />
		<tag k="ssr:stedsnr" v="572446" />
	</node>
	<node id="-84132" lat="62.6072194459" lon="8.92625556029">
		<tag k="name" v="Sanden" />
		<tag k="place" v="locality" />
		<tag k="ssr:stedsnr" v="572537" />
	</node>
	<node id="-84131" lat="62.5290388871" lon="9.08598056123">
		<tag k="name" v="Gammelura" />
		<tag k="natural" v="scree" />
		<tag k="ssr:stedsnr" v="572489" />
	</node>
	<node id="-84127" lat="62.5796166669" lon="9.12988888548">
		<tag k="historic" v="shieling" />
		<tag k="name" v="Nersetra" />
		<tag k="place" v="locality" />
		<tag k="ssr:stedsnr" v="572172" />
	</node>
	<node id="-84117" lat="62.7621277751" lon="8.44171666483">
		<tag k="name" v="Kjølura" />
		<tag k="natural" v="scree" />
		<tag k="ssr:stedsnr" v="571527" />
	</node>
	<node id="-84107" lat="62.5966944406" lon="8.97761389229">
		<tag k="name" v="Skogan" />
		<tag k="place" v="locality" />
		<tag k="ssr:stedsnr" v="571287" />
	</node>
	<node id="-84094" lat="62.579158337" lon="9.03382500647">
		<tag k="name" v="Bjørbekkjelykkjån" />
		<tag k="place" v="locality" />
		<tag k="ssr:stedsnr" v="571167" />
	</node>
	<node id="-84093" lat="62.6556222206" lon="8.62389999331">
		<tag k="name" v="Sandjorda" />
		<tag k="place" v="locality" />
		<tag k="ssr:stedsnr" v="571152" />
	</node>
	<node id="-84087" lat="62.6623305579" lon="8.615350002">
		<tag k="name" v="Negardsøran" />
		<tag k="place" v="locality" />
		<tag k="ssr:stedsnr" v="571150" />
	</node>
	<node id="-84076" lat="62.6684527759" lon="8.54663055527">
		<tag k="name" v="Andersplassen" />
		<tag k="place" v="locality" />
		<tag k="ssr:stedsnr" v="570895" />
	</node>
	<node id="-82027" lat="62.5809750026" lon="9.03483611784">
		<tag k="name" v="Hoplykkja" />
		<tag k="place" v="locality" />
		<tag k="ssr:stedsnr" v="451208" />
	</node>
	<node id="-84074" lat="62.4951444446" lon="8.95582500628">
		<tag k="name" v="Langmyra" />
		<tag k="natural" v="wetland" />
		<tag k="ssr:stedsnr" v="570559" />
	</node>
	<node id="-84070" lat="62.6033638881" lon="8.94419722873">
		<tag k="name" v="Myra" />
		<tag k="natural" v="wetland" />
		<tag k="ssr:stedsnr" v="570417" />
	</node>
	<node id="-84064" lat="62.6003972208" lon="8.94793889441">
		<tag k="name" v="Kvennhusøra" />
		<tag k="place" v="locality" />
		<tag k="ssr:stedsnr" v="570246" />
	</node>
	<node id="-82013" lat="62.7574999968" lon="8.61950556166">
		<tag k="name" v="Vollen" />
		<tag k="place" v="locality" />
		<tag k="ssr:stedsnr" v="449731" />
	</node>
	<node id="-81982" lat="62.6299666702" lon="8.53535832728">
		<tag k="name" v="Lågurin" />
		<tag k="natural" v="scree" />
		<tag k="ssr:stedsnr" v="512847" />
	</node>
	<node id="-81977" lat="62.5574611105" lon="9.08102500685">
		<tag k="name" v="Sandin" />
		<tag k="place" v="locality" />
		<tag k="ssr:stedsnr" v="512412" />
	</node>
	<node id="-84016" lat="62.6813277791" lon="8.65787500503">
		<tag k="name" v="Vinnufonna" />
		<tag k="natural" v="glacier" />
		<tag k="ssr:stedsnr" v="557045" />
	</node>
	<node id="-81949" lat="62.6456555599" lon="8.8018861152">
		<tag k="name" v="Kvitura" />
		<tag k="natural" v="scree" />
		<tag k="ssr:stedsnr" v="511345" />
	</node>
	<node id="-82245" lat="62.5735361144" lon="8.49868888382">
		<tag k="name" v="Litlvassura" />
		<tag k="natural" v="scree" />
		<tag k="ssr:stedsnr" v="693988" />
	</node>
	<node id="-81945" lat="62.6156222184" lon="8.3005861172">
		<tag k="name" v="Øyan" />
		<tag k="natural" v="wetland" />
		<tag k="ssr:stedsnr" v="511320" />
	</node>
	<node id="-81943" lat="62.5933861083" lon="8.99413333725">
		<tag k="name" v="Storøra" />
		<tag k="place" v="locality" />
		<tag k="ssr:stedsnr" v="511273" />
	</node>
	<node id="-83989" lat="62.5641333366" lon="9.12628054623">
		<tag k="name" v="Kasthølurda" />
		<tag k="natural" v="scree" />
		<tag k="ssr:stedsnr" v="437797" />
	</node>
	<node id="-81940" lat="62.6537527768" lon="8.65567777215">
		<tag k="name" v="Kræksøra" />
		<tag k="place" v="locality" />
		<tag k="ssr:stedsnr" v="511014" />
	</node>
	<node id="-81938" lat="62.571477778" lon="8.49292499968">
		<tag k="name" v="Holet" />
		<tag k="natural" v="scree" />
		<tag k="ssr:stedsnr" v="510991" />
	</node>
	<node id="-81937" lat="62.765372221" lon="8.32458887936">
		<tag k="name" v="Trøin" />
		<tag k="place" v="locality" />
		<tag k="ssr:stedsnr" v="510983" />
	</node>
	<node id="-81922" lat="62.6463805555" lon="8.71083332654">
		<tag k="name" v="Øverteigen" />
		<tag k="place" v="locality" />
		<tag k="ssr:stedsnr" v="510372" />
	</node>
	<node id="-81921" lat="62.8237388855" lon="8.52392223126">
		<tag k="name" v="Stormyra" />
		<tag k="natural" v="wetland" />
		<tag k="ssr:stedsnr" v="510368" />
	</node>
</osm>
