<?xml version="1.0" encoding="UTF-8"?>
<osm generator="osmapis" version="0.6">
	<node id="-79865" lat="62.6357416638" lon="8.8142027774">
		<tag k="name" v="Leirstraumen" />
		<tag k="place" v="locality" />
		<tag k="ssr:stedsnr" v="936342" />
	</node>
	<node id="-79864" lat="62.637941666" lon="8.79848334052">
		<tag k="name" v="Bolken" />
		<tag k="place" v="locality" />
		<tag k="ssr:stedsnr" v="936341" />
	</node>
	<node id="-79861" lat="62.6558083295" lon="8.31595556197">
		<tag k="name" v="Lykkjebekken" />
		<tag k="ssr:stedsnr" v="936163" />
		<tag k="waterway" v="stream" />
	</node>
	<node id="-81907" lat="62.5894325576" lon="8.53216957738">
		<tag k="name" v="Tågfossen" />
		<tag k="natural" v="waterfall" />
		<tag k="ssr:stedsnr" v="975786" />
	</node>
	<node id="-81906" lat="62.6527988437" lon="8.70748725635">
		<tag k="name" v="Negard-Skorga" />
		<tag k="ssr:stedsnr" v="975778" />
		<tag k="waterway" v="stream" />
	</node>
	<node id="-81905" lat="62.6634510782" lon="8.66993676344">
		<tag k="alt_name" v="Vinnufallet" />
		<tag k="name" v="Vinnu" />
		<tag k="natural" v="waterfall" />
		<tag k="ssr:stedsnr" v="975774" />
	</node>
	<node id="-81899" lat="62.5056583335" lon="9.21164166618">
		<tag k="name" v="Iverhaugen" />
		<tag k="place" v="islet" />
		<tag k="ssr:stedsnr" v="954282" />
	</node>
	<node id="-78503" lat="62.6640444437" lon="8.58537499454">
		<tag k="name" v="Tvisthølen" />
		<tag k="place" v="locality" />
		<tag k="ssr:stedsnr" v="146074" />
	</node>
	<node id="-81895" lat="62.8592111117" lon="8.57977221539">
		<tag k="name" v="Elva" />
		<tag k="ssr:stedsnr" v="950816" />
		<tag k="waterway" v="stream" />
	</node>
	<node id="-79846" lat="62.525777779" lon="9.01472500499">
		<tag k="name" v="Tjønna" />
		<tag k="natural" v="water" />
		<tag k="ssr:stedsnr" v="935484" />
	</node>
	<node id="-81889" lat="62.6583083313" lon="8.67955556309">
		<tag k="name" v="Fåtjønna" />
		<tag k="natural" v="water" />
		<tag k="ssr:stedsnr" v="876063" />
	</node>
	<node id="-81888" lat="62.6571416654" lon="8.71253056458">
		<tag k="name" v="Stigebekken" />
		<tag k="ssr:stedsnr" v="876054" />
		<tag k="waterway" v="stream" />
	</node>
	<node id="-81886" lat="62.5683472207" lon="8.49219443762">
		<tag k="name" v="Bjørkabekken" />
		<tag k="ssr:stedsnr" v="875990" />
		<tag k="waterway" v="stream" />
	</node>
	<node id="-81885" lat="62.7790499987" lon="8.48934165749">
		<tag k="name" v="Kløftin" />
		<tag k="natural" v="cape" />
		<tag k="ssr:stedsnr" v="875516" />
	</node>
	<node id="-79831" lat="62.6239000013" lon="8.29604165827">
		<tag k="name" v="Lomtjønna" />
		<tag k="natural" v="water" />
		<tag k="ssr:stedsnr" v="935244" />
	</node>
	<node id="-81877" lat="62.6439000036" lon="8.7004722143">
		<tag k="name" v="Mjølkbekken" />
		<tag k="ssr:stedsnr" v="875395" />
		<tag k="waterway" v="stream" />
	</node>
	<node id="-81876" lat="62.6367138884" lon="8.78587499367">
		<tag k="name" v="Øster Fagerbekken" />
		<tag k="ssr:stedsnr" v="875369" />
		<tag k="waterway" v="stream" />
	</node>
	<node id="-79823" lat="62.687741671" lon="8.40553889082">
		<tag k="name" v="Kvernåa" />
		<tag k="ssr:stedsnr" v="934675" />
		<tag k="waterway" v="stream" />
	</node>
	<node id="-81869" lat="62.6591416684" lon="8.32491944299">
		<tag k="name" v="Svartdalsbekken" />
		<tag k="ssr:stedsnr" v="875198" />
		<tag k="waterway" v="stream" />
	</node>
	<node id="-81866" lat="62.6637611105" lon="8.64470555315">
		<tag k="name" v="Lykkjeledbekken" />
		<tag k="ssr:stedsnr" v="875128" />
		<tag k="waterway" v="stream" />
	</node>
	<node id="-81865" lat="62.6190916651" lon="8.29681665893">
		<tag k="name" v="Otersteinkeila" />
		<tag k="place" v="locality" />
		<tag k="ssr:stedsnr" v="875292" />
	</node>
	<node id="-79810" lat="62.6693027807" lon="8.40020277002">
		<tag k="name" v="Fonnabekken" />
		<tag k="ssr:stedsnr" v="934459" />
		<tag k="waterway" v="stream" />
	</node>
	<node id="-79808" lat="62.6614444435" lon="8.39388055025">
		<tag k="name" v="Seterbekken" />
		<tag k="ssr:stedsnr" v="934447" />
		<tag k="waterway" v="stream" />
	</node>
	<node id="-79520" lat="62.6529333315" lon="8.64322778558">
		<tag k="name" v="Lykkjehølen" />
		<tag k="place" v="locality" />
		<tag k="ssr:stedsnr" v="876487" />
	</node>
	<node id="-79805" lat="62.6440305551" lon="8.78396389115">
		<tag k="name" v="Kalvøyhølen" />
		<tag k="place" v="locality" />
		<tag k="ssr:stedsnr" v="934295" />
	</node>
	<node id="-79803" lat="62.6437472258" lon="8.76999999546">
		<tag k="name" v="Leirhølen" />
		<tag k="place" v="locality" />
		<tag k="ssr:stedsnr" v="934283" />
	</node>
	<node id="-79519" lat="62.5343500011" lon="9.09325277566">
		<tag k="name" v="Børstøløya" />
		<tag k="place" v="island" />
		<tag k="ssr:stedsnr" v="876470" />
	</node>
	<node id="-81844" lat="62.6562805517" lon="8.35475000345">
		<tag k="name" v="Svabekken" />
		<tag k="ssr:stedsnr" v="874244" />
		<tag k="waterway" v="stream" />
	</node>
	<node id="-79792" lat="62.6894944425" lon="8.88278889293">
		<tag k="name" v="Storfalla" />
		<tag k="natural" v="waterfall" />
		<tag k="ssr:stedsnr" v="931470" />
	</node>
	<node id="-81839" lat="62.753513893" lon="8.55035277083">
		<tag k="name" v="Skrøån" />
		<tag k="ssr:stedsnr" v="873758" />
		<tag k="waterway" v="stream" />
	</node>
	<node id="-79858" lat="62.5985194425" lon="8.51554167379">
		<tag k="name" v="Seterbekken" />
		<tag k="ssr:stedsnr" v="935980" />
		<tag k="waterway" v="stream" />
	</node>
	<node id="-81834" lat="62.6664277737" lon="8.51807499287">
		<tag k="name" v="Naustbekken" />
		<tag k="ssr:stedsnr" v="873489" />
		<tag k="waterway" v="stream" />
	</node>
	<node id="-79779" lat="62.6037499978" lon="8.93491666756">
		<tag k="name" v="Luthølen" />
		<tag k="place" v="locality" />
		<tag k="ssr:stedsnr" v="815507" />
	</node>
	<node id="-79775" lat="62.5996472249" lon="9.0030611181">
		<tag k="name" v="Mevollbekken" />
		<tag k="ssr:stedsnr" v="815261" />
		<tag k="waterway" v="stream" />
	</node>
	<node id="-81822" lat="62.6177027797" lon="8.90255833371">
		<tag k="name" v="Grøvla" />
		<tag k="ssr:stedsnr" v="870326" />
		<tag k="waterway" v="stream" />
	</node>
	<node id="-81821" lat="62.5494888923" lon="9.08943334282">
		<tag k="name" v="Storbolken" />
		<tag k="place" v="locality" />
		<tag k="ssr:stedsnr" v="870745" />
	</node>
	<node id="-79770" lat="62.5502333291" lon="8.94295555104">
		<tag k="name" v="Kanalen" />
		<tag k="ssr:stedsnr" v="815107" />
		<tag k="waterway" v="stream" />
	</node>
	<node id="-81816" lat="62.5349027761" lon="9.11327500525">
		<tag k="name" v="Sandbekken" />
		<tag k="ssr:stedsnr" v="861839" />
		<tag k="waterway" v="stream" />
	</node>
	<node id="-81814" lat="62.5354277812" lon="9.13772778682">
		<tag k="name" v="Haukåa" />
		<tag k="ssr:stedsnr" v="861835" />
		<tag k="waterway" v="stream" />
	</node>
	<node id="-79764" lat="62.5674555587" lon="9.04204999666">
		<tag k="name" v="Sagbekken" />
		<tag k="ssr:stedsnr" v="801769" />
		<tag k="waterway" v="stream" />
	</node>
	<node id="-81811" lat="62.5582250016" lon="8.93915554739">
		<tag k="name" v="Koksvikvatnet" />
		<tag k="natural" v="water" />
		<tag k="ssr:stedsnr" v="861802" />
	</node>
	<node id="-79761" lat="62.7354500011" lon="8.29956388055">
		<tag k="name" v="Seterelva" />
		<tag k="ssr:stedsnr" v="801231" />
		<tag k="waterway" v="stream" />
	</node>
	<node id="-79170" lat="62.5745416644" lon="8.82680277854">
		<tag k="name" v="Svaåa" />
		<tag k="ssr:stedsnr" v="679730" />
		<tag k="waterway" v="stream" />
	</node>
	<node id="-79754" lat="62.4477999987" lon="9.10585277525">
		<tag k="name" v="Langtjønna" />
		<tag k="natural" v="water" />
		<tag k="ssr:stedsnr" v="800440" />
	</node>
	<node id="-81800" lat="62.5360888851" lon="8.73041666966">
		<tag k="name" v="Seterfjellvatnet" />
		<tag k="natural" v="water" />
		<tag k="ssr:stedsnr" v="861790" />
	</node>
	<node id="-79751" lat="62.4929611149" lon="8.52597223152">
		<tag k="name" v="Lomtjørna" />
		<tag k="natural" v="water" />
		<tag k="ssr:stedsnr" v="800166" />
	</node>
	<node id="-81798" lat="62.5496222253" lon="9.07499443504">
		<tag k="name" v="Mjølkvollbekken" />
		<tag k="ssr:stedsnr" v="861778" />
		<tag k="waterway" v="stream" />
	</node>
	<node id="-81795" lat="62.366091665" lon="8.97050556319">
		<tag k="name" v="Nørdre Salhøtjønna" />
		<tag k="natural" v="water" />
		<tag k="ssr:stedsnr" v="861451" />
	</node>
	<node id="-79851" lat="62.6195166699" lon="8.9128611093">
		<tag k="name" v="Ytter Landlaupbekken" />
		<tag k="ssr:stedsnr" v="935591" />
		<tag k="waterway" v="stream" />
	</node>
	<node id="-81791" lat="62.5857583339" lon="8.76332221495">
		<tag k="name" v="Grynna" />
		<tag k="ssr:stedsnr" v="861320" />
		<tag k="waterway" v="river" />
	</node>
	<node id="-81790" lat="62.4379750013" lon="8.63531945152">
		<tag k="name" v="Viksetervatnet" />
		<tag k="natural" v="water" />
		<tag k="ssr:stedsnr" v="861311" />
	</node>
	<node id="-81789" lat="62.4389027785" lon="8.52612777393">
		<tag k="name" v="Tvetjønna" />
		<tag k="natural" v="water" />
		<tag k="ssr:stedsnr" v="861303" />
	</node>
	<node id="-81787" lat="62.4168500031" lon="8.61948888186">
		<tag k="name" v="Krøsvatnet" />
		<tag k="natural" v="water" />
		<tag k="ssr:stedsnr" v="861292" />
	</node>
	<node id="-79736" lat="62.5826833361" lon="8.78542222317">
		<tag k="name" v="Sandremåa" />
		<tag k="ssr:stedsnr" v="922727" />
		<tag k="waterway" v="stream" />
	</node>
	<node id="-78484" lat="62.7282972249" lon="8.54423334128">
		<tag k="name" v="Fulåa" />
		<tag k="ssr:stedsnr" v="142704" />
		<tag k="waterway" v="stream" />
	</node>
	<node id="-81779" lat="62.545100001" lon="8.38736388696">
		<tag k="name" v="Reinsvatnet" />
		<tag k="natural" v="water" />
		<tag k="ssr:stedsnr" v="861084" />
		<tag k="water" v="lake" />
	</node>
	<node id="-79726" lat="62.5731055593" lon="8.46349721697">
		<tag k="name" v="Langdalselva" />
		<tag k="ssr:stedsnr" v="922329" />
		<tag k="waterway" v="stream" />
	</node>
	<node id="-79721" lat="62.6013666696" lon="8.49613889079">
		<tag k="name" v="Kvambekken" />
		<tag k="ssr:stedsnr" v="922129" />
		<tag k="waterway" v="stream" />
	</node>
	<node id="-79720" lat="62.6093527765" lon="8.69367500688">
		<tag k="name" v="Serkja" />
		<tag k="ssr:stedsnr" v="922126" />
		<tag k="waterway" v="stream" />
	</node>
	<node id="-81767" lat="62.8445416662" lon="8.59323611691">
		<tag k="name" v="Elva" />
		<tag k="ssr:stedsnr" v="829829" />
		<tag k="waterway" v="river" />
	</node>
	<node id="-79718" lat="62.6174194412" lon="8.61347778236">
		<tag k="name" v="Haremdalsfalla" />
		<tag k="natural" v="waterfall" />
		<tag k="ssr:stedsnr" v="922121" />
	</node>
	<node id="-81764" lat="62.6084361121" lon="8.51328611417">
		<tag k="name" v="Brubekken" />
		<tag k="ssr:stedsnr" v="875874" />
		<tag k="waterway" v="stream" />
	</node>
	<node id="-81761" lat="62.5740999968" lon="9.03342222985">
		<tag k="name" v="Pyttabekken" />
		<tag k="ssr:stedsnr" v="816198" />
		<tag k="waterway" v="stream" />
	</node>
	<node id="-79708" lat="62.5898138922" lon="8.69948333448">
		<tag k="name" v="Kvamsvatnet" />
		<tag k="natural" v="water" />
		<tag k="ssr:stedsnr" v="922066" />
	</node>
	<node id="-81753" lat="62.7569249957" lon="8.5023222238">
		<tag k="name" v="Høgdalsbekken" />
		<tag k="ssr:stedsnr" v="815645" />
		<tag k="waterway" v="stream" />
	</node>
	<node id="-78820" lat="62.6106777802" lon="8.90341388425">
		<tag k="name" v="Bytbekken" />
		<tag k="ssr:stedsnr" v="329610" />
		<tag k="waterway" v="stream" />
	</node>
	<node id="-81749" lat="62.5036722203" lon="9.08796944877">
		<tag k="name" v="Tjønnan" />
		<tag k="natural" v="water" />
		<tag k="ssr:stedsnr" v="815597" />
	</node>
	<node id="-81744" lat="62.6473527795" lon="8.666988884">
		<tag k="name" v="Krokåa" />
		<tag k="ssr:stedsnr" v="815445" />
		<tag k="waterway" v="stream" />
	</node>
	<node id="-79694" lat="62.6488361112" lon="8.81433056406">
		<tag k="name" v="Bjørnhjellbekken" />
		<tag k="ssr:stedsnr" v="921951" />
		<tag k="waterway" v="stream" />
	</node>
	<node id="-78477" lat="62.6308749969" lon="8.53206944871">
		<tag k="name" v="Linset-kvislin" />
		<tag k="ssr:stedsnr" v="269837" />
		<tag k="waterway" v="stream" />
	</node>
	<node id="-79692" lat="62.6853916711" lon="8.85961389017">
		<tag k="name" v="Tverråa" />
		<tag k="ssr:stedsnr" v="921902" />
		<tag k="waterway" v="stream" />
	</node>
	<node id="-79690" lat="62.5360694421" lon="8.99215278514">
		<tag k="name" v="Ørsundbekken" />
		<tag k="ssr:stedsnr" v="921839" />
		<tag k="waterway" v="stream" />
	</node>
	<node id="-79683" lat="62.4300027795" lon="9.02755277268">
		<tag k="name" v="Stegåa" />
		<tag k="ssr:stedsnr" v="921521" />
		<tag k="waterway" v="stream" />
	</node>
	<node id="-79682" lat="62.4218777788" lon="8.84824999132">
		<tag k="name" v="Litlgrøvu" />
		<tag k="ssr:stedsnr" v="921518" />
		<tag k="waterway" v="stream" />
	</node>
	<node id="-81729" lat="62.7799277757" lon="8.41334722304">
		<tag k="name" v="Langdalsbekken" />
		<tag k="ssr:stedsnr" v="814595" />
		<tag k="waterway" v="stream" />
	</node>
	<node id="-79680" lat="62.4987166667" lon="8.9939805459">
		<tag k="name" v="Løysingbekken" />
		<tag k="ssr:stedsnr" v="921490" />
		<tag k="waterway" v="stream" />
	</node>
	<node id="-81727" lat="62.764194443" lon="8.43711944219">
		<tag k="name" v="Kjeskrøo" />
		<tag k="ssr:stedsnr" v="814552" />
		<tag k="waterway" v="stream" />
	</node>
	<node id="-79678" lat="62.7348361127" lon="8.53718333825">
		<tag k="name" v="Horrvikbekken" />
		<tag k="ssr:stedsnr" v="921245" />
		<tag k="waterway" v="stream" />
	</node>
	<node id="-81724" lat="62.7759972252" lon="8.48091111042">
		<tag k="name" v="Litlvatnet" />
		<tag k="natural" v="water" />
		<tag k="ssr:stedsnr" v="814538" />
	</node>
	<node id="-81723" lat="62.7632722266" lon="8.45197777181">
		<tag k="name" v="Nyskrøbekken" />
		<tag k="ssr:stedsnr" v="814524" />
		<tag k="waterway" v="stream" />
	</node>
	<node id="-81721" lat="62.7622305521" lon="8.48760277812">
		<tag k="name" v="Storbotnvatnet" />
		<tag k="natural" v="water" />
		<tag k="ssr:stedsnr" v="814515" />
	</node>
	<node id="-81720" lat="62.761536114" lon="8.49276666336">
		<tag k="name" v="Bergevatnet" />
		<tag k="natural" v="water" />
		<tag k="ssr:stedsnr" v="814513" />
	</node>
	<node id="-81711" lat="62.6784916683" lon="8.37238889114">
		<tag k="name" v="Indre Svartdalsbekken" />
		<tag k="ssr:stedsnr" v="814210" />
		<tag k="waterway" v="stream" />
	</node>
	<node id="-79837" lat="62.5980166656" lon="8.95729721627">
		<tag k="name" v="Øver Gammelbruhølen" />
		<tag k="place" v="locality" />
		<tag k="ssr:stedsnr" v="935291" />
	</node>
	<node id="-81707" lat="62.6638638909" lon="8.6091972224">
		<tag k="name" v="Litlhølen" />
		<tag k="place" v="locality" />
		<tag k="ssr:stedsnr" v="814205" />
	</node>
	<node id="-81702" lat="62.6984194441" lon="8.47432222645">
		<tag k="name" v="Dalabekken" />
		<tag k="ssr:stedsnr" v="814096" />
		<tag k="waterway" v="stream" />
	</node>
	<node id="-81701" lat="62.6624444411" lon="8.59320833007">
		<tag k="name" v="Blind-Jo-hølen" />
		<tag k="place" v="locality" />
		<tag k="ssr:stedsnr" v="814091" />
	</node>
	<node id="-81697" lat="62.7684305525" lon="8.32352499921">
		<tag k="name" v="Storøya" />
		<tag k="place" v="island" />
		<tag k="ssr:stedsnr" v="813990" />
	</node>
	<node id="-79647" lat="62.7178972264" lon="8.40359999765">
		<tag k="name" v="Geitåa" />
		<tag k="ssr:stedsnr" v="749717" />
		<tag k="waterway" v="stream" />
	</node>
	<node id="-81694" lat="62.7514500035" lon="8.35686944797">
		<tag k="name" v="Ytterelva" />
		<tag k="ssr:stedsnr" v="813900" />
		<tag k="waterway" v="stream" />
	</node>
	<node id="-79644" lat="62.5056333296" lon="8.54761389519">
		<tag k="name" v="Purktjønnin" />
		<tag k="natural" v="water" />
		<tag k="ssr:stedsnr" v="740905" />
	</node>
	<node id="-79642" lat="62.724266665" lon="8.83568611526">
		<tag k="name" v="Renndalsvatnet" />
		<tag k="natural" v="water" />
		<tag k="ssr:stedsnr" v="740867" />
	</node>
	<node id="-79641" lat="62.5680972219" lon="9.11237221835">
		<tag k="name" v="Reitbekken" />
		<tag k="ssr:stedsnr" v="740756" />
		<tag k="waterway" v="stream" />
	</node>
	<node id="-81687" lat="62.667611113" lon="8.52963055503">
		<tag k="name" v="Fåtjønnin" />
		<tag k="natural" v="water" />
		<tag k="ssr:stedsnr" v="813810" />
	</node>
	<node id="-79635" lat="62.5647611116" lon="8.5921777765">
		<tag k="name" v="Øvre Skarvdalsvatnet" />
		<tag k="natural" v="water" />
		<tag k="ssr:stedsnr" v="740072" />
		<tag k="water" v="lake" />
	</node>
	<node id="-79632" lat="62.6013083364" lon="8.55320833454">
		<tag k="name" v="Tågvatna" />
		<tag k="natural" v="water" />
		<tag k="ssr:stedsnr" v="740124" />
		<tag k="water" v="lake" />
	</node>
	<node id="-79630" lat="62.6283611154" lon="8.51492222961">
		<tag k="name" v="Liabekken" />
		<tag k="ssr:stedsnr" v="740104" />
		<tag k="waterway" v="stream" />
	</node>
	<node id="-79624" lat="62.4843277801" lon="8.80590833476">
		<tag k="name" v="Storglupåa" />
		<tag k="ssr:stedsnr" v="739282" />
		<tag k="waterway" v="stream" />
	</node>
	<node id="-81670" lat="62.7837361091" lon="8.5190361141">
		<tag k="name" v="Grova" />
		<tag k="ssr:stedsnr" v="813361" />
		<tag k="waterway" v="stream" />
	</node>
	<node id="-78464" lat="62.5555333339" lon="9.06218332713">
		<tag k="name" v="Litlsea" />
		<tag k="ssr:stedsnr" v="269467" />
		<tag k="waterway" v="stream" />
	</node>
	<node id="-81659" lat="62.6867277796" lon="8.56268055353">
		<tag k="name" v="Ytter Geilbekken" />
		<tag k="ssr:stedsnr" v="812444" />
		<tag k="waterway" v="stream" />
	</node>
	<node id="-81658" lat="62.7303777763" lon="8.53978334194">
		<tag k="name" v="Kjehamna" />
		<tag k="natural" v="beach" />
		<tag k="ssr:stedsnr" v="812432" />
	</node>
	<node id="-79607" lat="62.5454916691" lon="9.11468056163">
		<tag k="name" v="Haukåhølen" />
		<tag k="place" v="locality" />
		<tag k="ssr:stedsnr" v="694309" />
	</node>
	<node id="-79605" lat="62.5538749964" lon="9.12256111764">
		<tag k="name" v="Gjørasfossen" />
		<tag k="ssr:stedsnr" v="694223" />
		<tag k="waterway" v="rapids" />
	</node>
	<node id="-81652" lat="62.5320999996" lon="8.67937222157">
		<tag k="name" v="Søre Løypingsvatnet" />
		<tag k="natural" v="water" />
		<tag k="ssr:stedsnr" v="810806" />
		<tag k="water" v="lake" />
	</node>
	<node id="-81650" lat="62.510063892" lon="9.05803332634">
		<tag k="name" v="Svøufallet" />
		<tag k="natural" v="waterfall" />
		<tag k="ssr:stedsnr" v="810313" />
	</node>
	<node id="-79601" lat="62.5703249962" lon="9.03656945125">
		<tag k="name" v="Høgskrøu" />
		<tag k="ssr:stedsnr" v="694125" />
		<tag k="waterway" v="stream" />
	</node>
	<node id="-79599" lat="62.5933055563" lon="8.5273527701">
		<tag k="name" v="Tog-bukta" />
		<tag k="natural" v="bay" />
		<tag k="ssr:stedsnr" v="693973" />
	</node>
	<node id="-81644" lat="62.4202305535" lon="9.09679166297">
		<tag k="name" v="Repptjønna" />
		<tag k="natural" v="water" />
		<tag k="ssr:stedsnr" v="809793" />
	</node>
	<node id="-81641" lat="62.7011555586" lon="8.48211110717">
		<tag k="name" v="Spirbekken" />
		<tag k="ssr:stedsnr" v="809725" />
		<tag k="waterway" v="stream" />
	</node>
	<node id="-81639" lat="62.5521416665" lon="9.13611110146">
		<tag k="name" v="Litldriva" />
		<tag k="ssr:stedsnr" v="809711" />
		<tag k="waterway" v="stream" />
	</node>
	<node id="-81635" lat="62.5950861133" lon="8.52124999164">
		<tag k="name" v="Nasen" />
		<tag k="natural" v="cape" />
		<tag k="ssr:stedsnr" v="814978" />
	</node>
	<node id="-81633" lat="62.6562250002" lon="8.91021388314">
		<tag k="name" v="Storsomrungvatnet" />
		<tag k="natural" v="water" />
		<tag k="ssr:stedsnr" v="801969" />
		<tag k="water" v="lake" />
	</node>
	<node id="-81632" lat="62.729716665" lon="8.80723054599">
		<tag k="name" v="Renndøla" />
		<tag k="ssr:stedsnr" v="801870" />
		<tag k="waterway" v="stream" />
	</node>
	<node id="-81631" lat="62.4981777757" lon="8.94649166564">
		<tag k="name" v="Geitåa" />
		<tag k="ssr:stedsnr" v="801846" />
		<tag k="waterway" v="river" />
	</node>
	<node id="-81626" lat="62.8572388887" lon="8.5576361049">
		<tag k="name" v="Lomtjørna" />
		<tag k="natural" v="water" />
		<tag k="ssr:stedsnr" v="801351" />
	</node>
	<node id="-81624" lat="62.8547305548" lon="8.43579443688">
		<tag k="name" v="Mulvikelva" />
		<tag k="ssr:stedsnr" v="801346" />
		<tag k="waterway" v="stream" />
	</node>
	<node id="-79575" lat="62.5732861101" lon="9.16844167133">
		<tag k="name" v="Øyahølen" />
		<tag k="place" v="locality" />
		<tag k="ssr:stedsnr" v="693064" />
	</node>
	<node id="-79574" lat="62.5640166644" lon="9.17523889495">
		<tag k="name" v="Storbekken" />
		<tag k="ssr:stedsnr" v="693005" />
		<tag k="waterway" v="stream" />
	</node>
	<node id="-81621" lat="62.8221305551" lon="8.49398056359">
		<tag k="name" v="Ålvåa" />
		<tag k="ssr:stedsnr" v="801306" />
		<tag k="waterway" v="stream" />
	</node>
	<node id="-79571" lat="62.7388500041" lon="8.28294444095">
		<tag k="name" v="Kjerringelva" />
		<tag k="ssr:stedsnr" v="692904" />
		<tag k="waterway" v="stream" />
	</node>
	<node id="-79097" lat="62.5756861091" lon="9.02769999674">
		<tag k="name" v="Randbekken" />
		<tag k="ssr:stedsnr" v="437761" />
		<tag k="waterway" v="stream" />
	</node>
	<node id="-81613" lat="62.554394441" lon="8.67901388026">
		<tag k="name" v="Løypingsvatna" />
		<tag k="natural" v="water" />
		<tag k="ssr:stedsnr" v="801073" />
	</node>
	<node id="-79564" lat="62.7552777744" lon="8.62584999398">
		<tag k="name" v="Svartelva" />
		<tag k="ssr:stedsnr" v="680562" />
		<tag k="waterway" v="river" />
	</node>
	<node id="-79563" lat="62.8020055519" lon="8.53507222069">
		<tag k="name" v="Rennsetvatnet" />
		<tag k="natural" v="water" />
		<tag k="ssr:stedsnr" v="680461" />
		<tag k="water" v="lake" />
	</node>
	<node id="-79562" lat="62.8238138865" lon="8.44596388883">
		<tag k="name" v="Hommolandstjørna" />
		<tag k="natural" v="water" />
		<tag k="ssr:stedsnr" v="680358" />
	</node>
	<node id="-81608" lat="62.6137888896" lon="8.87485833666">
		<tag k="name" v="Spenna" />
		<tag k="ssr:stedsnr" v="800990" />
		<tag k="waterway" v="river" />
	</node>
	<node id="-81606" lat="62.6178111084" lon="8.89662221802">
		<tag k="name" v="Verma" />
		<tag k="ssr:stedsnr" v="800982" />
		<tag k="waterway" v="stream" />
	</node>
	<node id="-79557" lat="62.564500002" lon="8.93545000103">
		<tag k="name" v="Hammartjønna" />
		<tag k="natural" v="water" />
		<tag k="ssr:stedsnr" v="679763" />
	</node>
	<node id="-81602" lat="62.6305500026" lon="8.96398888374">
		<tag k="name" v="Klingråkvatna, indre" />
		<tag k="natural" v="water" />
		<tag k="ssr:stedsnr" v="800937" />
		<tag k="water" v="lake" />
	</node>
	<node id="-79553" lat="62.5405500031" lon="9.14748611075">
		<tag k="name" v="Litlgryta" />
		<tag k="ssr:stedsnr" v="679811" />
		<tag k="waterway" v="stream" />
	</node>
	<node id="-81600" lat="62.71214167" lon="8.87153055171">
		<tag k="name" v="Langvatnet" />
		<tag k="natural" v="water" />
		<tag k="ssr:stedsnr" v="800874" />
		<tag k="water" v="lake" />
	</node>
	<node id="-79550" lat="62.7260388858" lon="8.69027777568">
		<tag k="name" v="Kvernåa" />
		<tag k="ssr:stedsnr" v="679318" />
		<tag k="waterway" v="stream" />
	</node>
	<node id="-79549" lat="62.5823444405" lon="9.12814722372">
		<tag k="name" v="Kråka" />
		<tag k="ssr:stedsnr" v="679305" />
		<tag k="waterway" v="stream" />
	</node>
	<node id="-81596" lat="62.4843972258" lon="9.06601110432">
		<tag k="name" v="Reppa" />
		<tag k="ssr:stedsnr" v="800460" />
		<tag k="waterway" v="river" />
	</node>
	<node id="-79818" lat="62.4915111154" lon="8.95140832895">
		<tag k="name" v="Hyllbekken" />
		<tag k="ssr:stedsnr" v="934558" />
		<tag k="waterway" v="stream" />
	</node>
	<node id="-81590" lat="62.4677083319" lon="8.66677500444">
		<tag k="name" v="Nedre Håkodalsvatnet" />
		<tag k="natural" v="water" />
		<tag k="ssr:stedsnr" v="800186" />
		<tag k="water" v="lake" />
	</node>
	<node id="-81589" lat="62.7321444457" lon="8.33668888196">
		<tag k="name" v="Rombekken" />
		<tag k="ssr:stedsnr" v="875850" />
		<tag k="waterway" v="stream" />
	</node>
	<node id="-81588" lat="62.7718833338" lon="8.54692778408">
		<tag k="name" v="Skrøobekken" />
		<tag k="ssr:stedsnr" v="875838" />
		<tag k="waterway" v="stream" />
	</node>
	<node id="-79539" lat="62.6785999983" lon="8.51246666687">
		<tag k="name" v="Buktabekken" />
		<tag k="ssr:stedsnr" v="679058" />
		<tag k="waterway" v="stream" />
	</node>
	<node id="-79531" lat="62.6459527762" lon="8.53804999078">
		<tag k="name" v="Hallareidet" />
		<tag k="ssr:stedsnr" v="876905" />
		<tag k="waterway" v="stream" />
	</node>
	<node id="-81573" lat="62.535427774" lon="9.09626945282">
		<tag k="name" v="Øykjeøya" />
		<tag k="place" v="island" />
		<tag k="ssr:stedsnr" v="755485" />
	</node>
	<node id="-81568" lat="62.585069443" lon="9.03228055066">
		<tag k="name" v="Landlaupbekken" />
		<tag k="ssr:stedsnr" v="755223" />
		<tag k="waterway" v="stream" />
	</node>
	<node id="-81567" lat="62.7820805522" lon="8.36925556474">
		<tag k="name" v="Hisdalsbekken" />
		<tag k="ssr:stedsnr" v="754997" />
		<tag k="waterway" v="stream" />
	</node>
	<node id="-79512" lat="62.7911527789" lon="8.36650554934">
		<tag k="name" v="Seterbekken" />
		<tag k="ssr:stedsnr" v="654253" />
		<tag k="waterway" v="stream" />
	</node>
	<node id="-81557" lat="62.6293222253" lon="8.54112500915">
		<tag k="name" v="Musarabb-bekken" />
		<tag k="ssr:stedsnr" v="754819" />
		<tag k="waterway" v="stream" />
	</node>
	<node id="-81556" lat="62.6262972235" lon="8.53584721875">
		<tag k="name" v="Nilsbekkfaret" />
		<tag k="ssr:stedsnr" v="754818" />
		<tag k="waterway" v="stream" />
	</node>
	<node id="-81551" lat="62.6025138927" lon="8.74749165867">
		<tag k="name" v="Litlvatnet" />
		<tag k="natural" v="water" />
		<tag k="ssr:stedsnr" v="754488" />
	</node>
	<node id="-79163" lat="62.6330833304" lon="8.44486389607">
		<tag k="name" v="Langdøla" />
		<tag k="ssr:stedsnr" v="679098" />
		<tag k="waterway" v="stream" />
	</node>
	<node id="-79501" lat="62.569849997" lon="8.89514166374">
		<tag k="name" v="Snytbekken" />
		<tag k="ssr:stedsnr" v="632463" />
		<tag k="waterway" v="stream" />
	</node>
	<node id="-81546" lat="62.559049998" lon="9.07198333125">
		<tag k="name" v="Grova" />
		<tag k="ssr:stedsnr" v="754449" />
		<tag k="waterway" v="stream" />
	</node>
	<node id="-81544" lat="62.5493555595" lon="9.08528888619">
		<tag k="name" v="Svarvuhølen" />
		<tag k="place" v="locality" />
		<tag k="ssr:stedsnr" v="754419" />
	</node>
	<node id="-79495" lat="62.5991861094" lon="8.97820832715">
		<tag k="name" v="Utløpa" />
		<tag k="ssr:stedsnr" v="632305" />
		<tag k="waterway" v="stream" />
	</node>
	<node id="-79492" lat="62.5846833375" lon="8.8216666602">
		<tag k="name" v="Reinåa" />
		<tag k="ssr:stedsnr" v="632419" />
		<tag k="waterway" v="stream" />
	</node>
	<node id="-79126" lat="62.7895694466" lon="8.48369722259">
		<tag k="name" v="Midtbekken" />
		<tag k="ssr:stedsnr" v="450621" />
		<tag k="waterway" v="stream" />
	</node>
	<node id="-79490" lat="62.6572999991" lon="8.31776388734">
		<tag k="name" v="Tarangelva" />
		<tag k="ssr:stedsnr" v="632218" />
		<tag k="waterway" v="river" />
	</node>
	<node id="-79486" lat="62.5077777768" lon="8.97947222782">
		<tag k="name" v="Skålvollbekken" />
		<tag k="ssr:stedsnr" v="631471" />
		<tag k="waterway" v="stream" />
	</node>
	<node id="-81532" lat="62.6616750041" lon="8.65192500668">
		<tag k="name" v="Myrbekken" />
		<tag k="ssr:stedsnr" v="754157" />
		<tag k="waterway" v="stream" />
	</node>
	<node id="-79483" lat="62.649502779" lon="8.69906945355">
		<tag k="name" v="Bråthølen" />
		<tag k="place" v="locality" />
		<tag k="ssr:stedsnr" v="631366" />
	</node>
	<node id="-81529" lat="62.7021611114" lon="8.49973056415">
		<tag k="name" v="Storvikbekken" />
		<tag k="ssr:stedsnr" v="754125" />
		<tag k="waterway" v="stream" />
	</node>
	<node id="-78782" lat="62.7525861101" lon="8.72231388969">
		<tag k="name" v="Snekkerdalsvatnet" />
		<tag k="natural" v="water" />
		<tag k="ssr:stedsnr" v="315163" />
	</node>
	<node id="-81521" lat="62.7552499977" lon="8.53924721672">
		<tag k="name" v="Stakkstøbekken" />
		<tag k="ssr:stedsnr" v="753783" />
		<tag k="waterway" v="stream" />
	</node>
	<node id="-81517" lat="62.7986111099" lon="8.49813054913">
		<tag k="name" v="Smisetfossen" />
		<tag k="natural" v="waterfall" />
		<tag k="ssr:stedsnr" v="753575" />
	</node>
	<node id="-81516" lat="62.6185833367" lon="8.92260555658">
		<tag k="name" v="Skorvlandlaupet" />
		<tag k="ssr:stedsnr" v="753518" />
		<tag k="waterway" v="stream" />
	</node>
	<node id="-81515" lat="62.6110361141" lon="8.94141945276">
		<tag k="name" v="Kvennhusbekken" />
		<tag k="ssr:stedsnr" v="753509" />
		<tag k="waterway" v="stream" />
	</node>
	<node id="-79465" lat="62.5989722235" lon="8.5228444429">
		<tag k="name" v="Dalaosen" />
		<tag k="natural" v="bay" />
		<tag k="ssr:stedsnr" v="627822" />
	</node>
	<node id="-81512" lat="62.5180999974" lon="8.97427778409">
		<tag k="name" v="Kvennabekken" />
		<tag k="ssr:stedsnr" v="753473" />
		<tag k="waterway" v="stream" />
	</node>
	<node id="-79463" lat="62.5530027782" lon="8.46913055213">
		<tag k="name" v="Øykjelibekken" />
		<tag k="ssr:stedsnr" v="627819" />
		<tag k="waterway" v="river" />
	</node>
	<node id="-79462" lat="62.4609555537" lon="8.92848888467">
		<tag k="name" v="Brustøbekken" />
		<tag k="ssr:stedsnr" v="627812" />
		<tag k="waterway" v="stream" />
	</node>
	<node id="-79461" lat="62.5728777816" lon="8.50380278422">
		<tag k="name" v="Litlvatnet" />
		<tag k="natural" v="water" />
		<tag k="ssr:stedsnr" v="627810" />
		<tag k="water" v="lake" />
	</node>
	<node id="-78684" lat="62.4533583326" lon="8.56910000403">
		<tag k="name" v="Sandvatnet" />
		<tag k="natural" v="water" />
		<tag k="ssr:stedsnr" v="254153" />
		<tag k="water" v="lake" />
	</node>
	<node id="-81499" lat="62.8318194422" lon="8.49585833533">
		<tag k="name" v="Olderdalsbekken" />
		<tag k="ssr:stedsnr" v="753165" />
		<tag k="waterway" v="stream" />
	</node>
	<node id="-81498" lat="62.6602583306" lon="8.33147221951">
		<tag k="name" v="Ryssdalselva" />
		<tag k="ssr:stedsnr" v="753156" />
		<tag k="waterway" v="stream" />
	</node>
	<node id="-81497" lat="62.6812444431" lon="8.37022221439">
		<tag k="name" v="Ytre Svartdalsbekken" />
		<tag k="ssr:stedsnr" v="753146" />
		<tag k="waterway" v="stream" />
	</node>
	<node id="-79448" lat="62.5284888933" lon="8.9644555582">
		<tag k="name" v="Urabekken" />
		<tag k="ssr:stedsnr" v="618817" />
		<tag k="waterway" v="stream" />
	</node>
	<node id="-81495" lat="62.6886666647" lon="8.38160000699">
		<tag k="name" v="Jamnhaugbekken" />
		<tag k="ssr:stedsnr" v="753127" />
		<tag k="waterway" v="stream" />
	</node>
	<node id="-81493" lat="62.664216667" lon="8.63969444393">
		<tag k="name" v="Einangsbekken" />
		<tag k="ssr:stedsnr" v="753074" />
		<tag k="waterway" v="stream" />
	</node>
	<node id="-79444" lat="62.5682111144" lon="9.02845554592">
		<tag k="name" v="Ytterbekken" />
		<tag k="ssr:stedsnr" v="618766" />
		<tag k="waterway" v="stream" />
	</node>
	<node id="-79443" lat="62.5254944486" lon="9.01953611234">
		<tag k="name" v="Grødøla" />
		<tag k="ssr:stedsnr" v="618762" />
		<tag k="waterway" v="river" />
	</node>
	<node id="-79441" lat="62.5438138895" lon="8.95297778454">
		<tag k="name" v="Storvatnet" />
		<tag k="natural" v="water" />
		<tag k="ssr:stedsnr" v="618753" />
		<tag k="water" v="lake" />
	</node>
	<node id="-79440" lat="62.7994138898" lon="8.38022499084">
		<tag k="name" v="Firkanttjørna" />
		<tag k="natural" v="water" />
		<tag k="ssr:stedsnr" v="618393" />
	</node>
	<node id="-81487" lat="62.7482749984" lon="8.61483332845">
		<tag k="name" v="Kvernbekken" />
		<tag k="ssr:stedsnr" v="752725" />
		<tag k="waterway" v="stream" />
	</node>
	<node id="-79435" lat="62.7787972234" lon="8.49196666259">
		<tag k="name" v="Røsetelva" />
		<tag k="ssr:stedsnr" v="618359" />
		<tag k="waterway" v="stream" />
	</node>
	<node id="-79433" lat="62.4956305561" lon="8.73204444054">
		<tag k="name" v="Søre Langrandvatnet" />
		<tag k="natural" v="water" />
		<tag k="ssr:stedsnr" v="618248" />
	</node>
	<node id="-79432" lat="62.4982611067" lon="8.78450556049">
		<tag k="name" v="Geitåvatnet" />
		<tag k="natural" v="water" />
		<tag k="ssr:stedsnr" v="618245" />
	</node>
	<node id="-81476" lat="62.6267749989" lon="8.8710138827">
		<tag k="name" v="Kvennabekken" />
		<tag k="ssr:stedsnr" v="752657" />
		<tag k="waterway" v="stream" />
	</node>
	<node id="-81475" lat="62.6250055566" lon="8.87381111468">
		<tag k="name" v="Gammelhølen" />
		<tag k="place" v="locality" />
		<tag k="ssr:stedsnr" v="752655" />
	</node>
	<node id="-81464" lat="62.7937472196" lon="8.56213333709">
		<tag k="name" v="Kjerringelva" />
		<tag k="ssr:stedsnr" v="752370" />
		<tag k="waterway" v="river" />
	</node>
	<node id="-79413" lat="62.4967694465" lon="9.08489722813">
		<tag k="name" v="Heimer Lokkarbekken" />
		<tag k="ssr:stedsnr" v="572727" />
		<tag k="waterway" v="stream" />
	</node>
	<node id="-81460" lat="62.6415083337" lon="8.76125555674">
		<tag k="name" v="Kongenshølen" />
		<tag k="place" v="locality" />
		<tag k="ssr:stedsnr" v="752274" />
	</node>
	<node id="-79411" lat="62.7600861152" lon="8.49796944516">
		<tag k="name" v="Lomtjønna" />
		<tag k="natural" v="water" />
		<tag k="ssr:stedsnr" v="572675" />
	</node>
	<node id="-81458" lat="62.8432666629" lon="8.45116666087">
		<tag k="name" v="Bytbekken" />
		<tag k="ssr:stedsnr" v="752162" />
		<tag k="waterway" v="stream" />
	</node>
	<node id="-81456" lat="62.8277972218" lon="8.47514721613">
		<tag k="name" v="Slettbakkbekken" />
		<tag k="ssr:stedsnr" v="752152" />
		<tag k="waterway" v="stream" />
	</node>
	<node id="-79407" lat="62.5497333336" lon="9.12183889015">
		<tag k="name" v="Grythølen" />
		<tag k="place" v="locality" />
		<tag k="ssr:stedsnr" v="572277" />
	</node>
	<node id="-79404" lat="62.649933335" lon="8.53093332917">
		<tag k="name" v="Kvennhusneset" />
		<tag k="natural" v="cape" />
		<tag k="ssr:stedsnr" v="571885" />
	</node>
	<node id="-81450" lat="62.6460166653" lon="8.51818054872">
		<tag k="name" v="Kjerringbekken" />
		<tag k="ssr:stedsnr" v="749738" />
		<tag k="waterway" v="stream" />
	</node>
	<node id="-79401" lat="62.6059000007" lon="8.74289722457">
		<tag k="name" v="Storvassbukta" />
		<tag k="natural" v="bay" />
		<tag k="ssr:stedsnr" v="571455" />
	</node>
	<node id="-81443" lat="62.5674916661" lon="9.17480555016">
		<tag k="name" v="Bjørnåa" />
		<tag k="ssr:stedsnr" v="740791" />
		<tag k="waterway" v="river" />
	</node>
	<node id="-79393" lat="62.6890083373" lon="8.43852222451">
		<tag k="name" v="Skrøodalsbekken" />
		<tag k="ssr:stedsnr" v="570668" />
		<tag k="waterway" v="stream" />
	</node>
	<node id="-81438" lat="62.8417777796" lon="8.39869443873">
		<tag k="name" v="Myreidet" />
		<tag k="natural" v="strait" />
		<tag k="ssr:stedsnr" v="740339" />
	</node>
	<node id="-81437" lat="62.5074527819" lon="8.73857499906">
		<tag k="name" v="Langrandvatnet" />
		<tag k="natural" v="water" />
		<tag k="ssr:stedsnr" v="740338" />
	</node>
	<node id="-79384" lat="62.7166944441" lon="8.39179445117">
		<tag k="name" v="Tunga" />
		<tag k="natural" v="cape" />
		<tag k="ssr:stedsnr" v="570053" />
	</node>
	<node id="-81431" lat="62.660358335" lon="8.6224222132">
		<tag k="name" v="Hovenøyan" />
		<tag k="place" v="islet" />
		<tag k="ssr:stedsnr" v="740015" />
	</node>
	<node id="-79381" lat="62.7531111078" lon="8.50191666193">
		<tag k="name" v="Skaudalsvatnet" />
		<tag k="natural" v="water" />
		<tag k="ssr:stedsnr" v="558523" />
	</node>
	<node id="-81427" lat="62.6229611148" lon="8.86076111336">
		<tag k="name" v="Røta" />
		<tag k="ssr:stedsnr" v="739994" />
		<tag k="waterway" v="stream" />
	</node>
	<node id="-81424" lat="62.5994750016" lon="8.84716388454">
		<tag k="name" v="Røtvatna" />
		<tag k="natural" v="water" />
		<tag k="ssr:stedsnr" v="739969" />
	</node>
	<node id="-79375" lat="62.7111333311" lon="8.76506666948">
		<tag k="name" v="Fluo" />
		<tag k="ssr:stedsnr" v="557868" />
		<tag k="waterway" v="river" />
	</node>
	<node id="-81420" lat="62.6373638867" lon="8.85147499109">
		<tag k="name" v="Haldobekken" />
		<tag k="ssr:stedsnr" v="739931" />
		<tag k="waterway" v="stream" />
	</node>
	<node id="-79370" lat="62.4455499984" lon="8.60804166152">
		<tag k="name" v="Larstjønna" />
		<tag k="natural" v="water" />
		<tag k="ssr:stedsnr" v="557306" />
	</node>
	<node id="-81417" lat="62.4349805519" lon="8.78451666947">
		<tag k="name" v="Svarthammartjønna" />
		<tag k="natural" v="water" />
		<tag k="ssr:stedsnr" v="739436" />
	</node>
	<node id="-79368" lat="62.7272166639" lon="8.39591943938">
		<tag k="name" v="Gryta" />
		<tag k="ssr:stedsnr" v="557257" />
		<tag k="waterway" v="stream" />
	</node>
	<node id="-79365" lat="62.5890277797" lon="8.60925000887">
		<tag k="name" v="Skarvvatnet" />
		<tag k="natural" v="water" />
		<tag k="ssr:stedsnr" v="557067" />
		<tag k="water" v="lake" />
	</node>
	<node id="-81412" lat="62.4951055528" lon="8.49585555071">
		<tag k="name" v="Osvatnet" />
		<tag k="natural" v="water" />
		<tag k="ssr:stedsnr" v="739157" />
		<tag k="water" v="lake" />
	</node>
	<node id="-79787" lat="62.6203305524" lon="8.52465555201">
		<tag k="name" v="Fåtjønna" />
		<tag k="natural" v="water" />
		<tag k="ssr:stedsnr" v="815874" />
	</node>
	<node id="-81408" lat="62.768441663" lon="8.44848333082">
		<tag k="name" v="Sagbekken" />
		<tag k="ssr:stedsnr" v="875527" />
		<tag k="waterway" v="stream" />
	</node>
	<node id="-79357" lat="62.5473361074" lon="9.11892222939">
		<tag k="name" v="Grytsanden" />
		<tag k="place" v="locality" />
		<tag k="ssr:stedsnr" v="694248" />
	</node>
	<node id="-81401" lat="62.5016555555" lon="9.06717777247">
		<tag k="name" v="Reppfallet" />
		<tag k="natural" v="waterfall" />
		<tag k="ssr:stedsnr" v="633688" />
	</node>
	<node id="-80999" lat="62.7349166624" lon="8.31784999713">
		<tag k="name" v="Rombekken" />
		<tag k="ssr:stedsnr" v="388897" />
		<tag k="waterway" v="stream" />
	</node>
	<node id="-81391" lat="62.5733055566" lon="8.5069555525">
		<tag k="name" v="Gammelurbekken" />
		<tag k="ssr:stedsnr" v="632995" />
		<tag k="waterway" v="stream" />
	</node>
	<node id="-79337" lat="62.6258638881" lon="8.89539723053">
		<tag k="name" v="Litlfalebekken" />
		<tag k="ssr:stedsnr" v="693678" />
		<tag k="waterway" v="stream" />
	</node>
	<node id="-79333" lat="62.76446667" lon="8.45117777871">
		<tag k="name" v="Glenna" />
		<tag k="ssr:stedsnr" v="693521" />
		<tag k="waterway" v="stream" />
	</node>
	<node id="-80235" lat="62.379941665" lon="8.90750555749">
		<tag k="name" v="Grønliskarsvatnet" />
		<tag k="natural" v="water" />
		<tag k="ssr:stedsnr" v="72459" />
		<tag k="water" v="lake" />
	</node>
	<node id="-81373" lat="62.7706361083" lon="8.43444721489">
		<tag k="name" v="Nakkbekken" />
		<tag k="ssr:stedsnr" v="632535" />
		<tag k="waterway" v="stream" />
	</node>
	<node id="-79324" lat="62.5918916678" lon="9.00359999864">
		<tag k="name" v="Øyaflønet" />
		<tag k="ssr:stedsnr" v="693308" />
		<tag k="waterway" v="rapids" />
	</node>
	<node id="-79318" lat="62.661624997" lon="8.58974999799">
		<tag k="name" v="Leirdamman" />
		<tag k="natural" v="water" />
		<tag k="ssr:stedsnr" v="693099" />
	</node>
	<node id="-79317" lat="62.7036277741" lon="8.42246666401">
		<tag k="name" v="Øya" />
		<tag k="natural" v="beach" />
		<tag k="ssr:stedsnr" v="693097" />
	</node>
	<node id="-81362" lat="62.5997388905" lon="8.97257500546">
		<tag k="name" v="Hælnovbekken" />
		<tag k="ssr:stedsnr" v="632302" />
		<tag k="waterway" v="stream" />
	</node>
	<node id="-79096" lat="62.5718305526" lon="8.86795277195">
		<tag k="alt_name" v="Grøntuvtjønna" />
		<tag k="name" v="Svarttjønna" />
		<tag k="natural" v="water" />
		<tag k="ssr:stedsnr" v="437753" />
	</node>
	<node id="-79310" lat="62.5224333332" lon="9.0969138971">
		<tag k="name" v="Ålmenningsbekken" />
		<tag k="ssr:stedsnr" v="692644" />
		<tag k="waterway" v="stream" />
	</node>
	<node id="-79309" lat="62.6238694421" lon="8.88066944714">
		<tag k="name" v="Øver Nisjahølen" />
		<tag k="place" v="locality" />
		<tag k="ssr:stedsnr" v="692677" />
	</node>
	<node id="-79307" lat="62.8195527775" lon="8.51999999438">
		<tag k="name" v="Raudbekken" />
		<tag k="ssr:stedsnr" v="692349" />
		<tag k="waterway" v="stream" />
	</node>
	<node id="-81354" lat="62.5689861131" lon="9.19909722285">
		<tag k="name" v="Skareggbekken" />
		<tag k="ssr:stedsnr" v="632081" />
		<tag k="waterway" v="stream" />
	</node>
	<node id="-81351" lat="62.6582444468" lon="8.666699996">
		<tag k="alt_name" v="Litl - Vinnu" />
		<tag k="name" v="Litl-Vinnu" />
		<tag k="ssr:stedsnr" v="632019" />
		<tag k="waterway" v="stream" />
	</node>
	<node id="-81349" lat="62.6801499975" lon="8.58431110246">
		<tag k="name" v="Øster Killurdbekken" />
		<tag k="ssr:stedsnr" v="631878" />
		<tag k="waterway" v="stream" />
	</node>
	<node id="-81346" lat="62.7455527789" lon="8.53530277885">
		<tag k="name" v="Furuhaugbekken" />
		<tag k="ssr:stedsnr" v="631816" />
		<tag k="waterway" v="stream" />
	</node>
	<node id="-81343" lat="62.8215472266" lon="8.53571944535">
		<tag k="name" v="Skrøåbekken" />
		<tag k="ssr:stedsnr" v="631441" />
		<tag k="waterway" v="stream" />
	</node>
	<node id="-79284" lat="62.6846638904" lon="8.39273055832">
		<tag k="name" v="Jamnhaugbekken" />
		<tag k="ssr:stedsnr" v="691693" />
		<tag k="waterway" v="stream" />
	</node>
	<node id="-79774" lat="62.5560833301" lon="9.11392778137">
		<tag k="name" v="Klobukta" />
		<tag k="natural" v="beach" />
		<tag k="ssr:stedsnr" v="815222" />
	</node>
	<node id="-81330" lat="62.6724194421" lon="8.34751111126">
		<tag k="name" v="Steinbekken" />
		<tag k="ssr:stedsnr" v="631186" />
		<tag k="waterway" v="stream" />
	</node>
	<node id="-79268" lat="62.4430861118" lon="8.62026110189">
		<tag k="name" v="Vikseterbekken" />
		<tag k="ssr:stedsnr" v="688788" />
		<tag k="waterway" v="stream" />
	</node>
	<node id="-79267" lat="62.4755444434" lon="8.67803610322">
		<tag k="name" v="Midtre Håkodalsvatnet" />
		<tag k="natural" v="water" />
		<tag k="ssr:stedsnr" v="688784" />
		<tag k="water" v="lake" />
	</node>
	<node id="-79265" lat="62.5197777758" lon="9.180636109">
		<tag k="name" v="Piptjønna" />
		<tag k="natural" v="water" />
		<tag k="ssr:stedsnr" v="688750" />
	</node>
	<node id="-81312" lat="62.5967472254" lon="8.96289999688">
		<tag k="name" v="Neset" />
		<tag k="natural" v="cape" />
		<tag k="ssr:stedsnr" v="630291" />
	</node>
	<node id="-81310" lat="62.6359611082" lon="8.86323055397">
		<tag k="name" v="Sømrungen" />
		<tag k="ssr:stedsnr" v="630283" />
		<tag k="waterway" v="river" />
	</node>
	<node id="-81303" lat="62.4210611145" lon="8.83156389075">
		<tag k="name" v="Langtjønnbekken" />
		<tag k="ssr:stedsnr" v="627796" />
		<tag k="waterway" v="stream" />
	</node>
	<node id="-79251" lat="62.6375305531" lon="8.53342777212">
		<tag k="name" v="Merkjesgardsbekken" />
		<tag k="ssr:stedsnr" v="512940" />
		<tag k="waterway" v="stream" />
	</node>
	<node id="-79249" lat="62.526172218" lon="9.0902250034">
		<tag k="name" v="Ålmenningsbekken" />
		<tag k="ssr:stedsnr" v="512475" />
		<tag k="waterway" v="stream" />
	</node>
	<node id="-79247" lat="62.5683444468" lon="9.13005556222">
		<tag k="name" v="Vollaflønet" />
		<tag k="ssr:stedsnr" v="512150" />
		<tag k="waterway" v="rapids" />
	</node>
	<node id="-79246" lat="62.5731250041" lon="9.05540278205">
		<tag k="name" v="Kalklingbekken" />
		<tag k="ssr:stedsnr" v="512145" />
		<tag k="waterway" v="stream" />
	</node>
	<node id="-78743" lat="62.5540055517" lon="9.07929444029">
		<tag k="name" v="Rønninghølen" />
		<tag k="place" v="locality" />
		<tag k="ssr:stedsnr" v="269403" />
	</node>
	<node id="-81284" lat="62.607733336" lon="8.81033610545">
		<tag k="name" v="Reinåvatna" />
		<tag k="natural" v="water" />
		<tag k="ssr:stedsnr" v="618980" />
		<tag k="water" v="lake" />
	</node>
	<node id="-79766" lat="62.810863892" lon="8.54093888196">
		<tag k="name" v="Seterbekken" />
		<tag k="ssr:stedsnr" v="813314" />
		<tag k="waterway" v="stream" />
	</node>
	<node id="-79232" lat="62.8446833338" lon="8.52919999888">
		<tag k="name" v="Bønatrøbekken" />
		<tag k="ssr:stedsnr" v="510252" />
		<tag k="waterway" v="stream" />
	</node>
	<node id="-81278" lat="62.6301861095" lon="8.84856111337">
		<tag k="name" v="Somrungen" />
		<tag k="ssr:stedsnr" v="618950" />
		<tag k="waterway" v="stream" />
	</node>
	<node id="-81276" lat="62.6246805557" lon="8.89942777438">
		<tag k="name" v="Drivhjellhammarbekken" />
		<tag k="ssr:stedsnr" v="618927" />
		<tag k="waterway" v="stream" />
	</node>
	<node id="-81275" lat="62.6747611091" lon="8.5185222208">
		<tag k="name" v="Kvernåa" />
		<tag k="ssr:stedsnr" v="618331" />
		<tag k="waterway" v="stream" />
	</node>
	<node id="-81274" lat="62.4240111095" lon="8.61911110201">
		<tag k="alt_name" v="Krøsvatnet, litle" />
		<tag k="name" v="Litle Krøsvatnet" />
		<tag k="natural" v="water" />
		<tag k="ssr:stedsnr" v="618291" />
	</node>
	<node id="-81273" lat="62.6049611135" lon="8.4430138868">
		<tag k="name" v="Langdalsvatna" />
		<tag k="natural" v="water" />
		<tag k="ssr:stedsnr" v="618106" />
		<tag k="water" v="lake" />
	</node>
	<node id="-81272" lat="62.6618777744" lon="8.52844722601">
		<tag k="name" v="Litldalselva" />
		<tag k="ssr:stedsnr" v="618092" />
		<tag k="waterway" v="river" />
	</node>
	<node id="-78398" lat="62.6002138884" lon="8.48014721978">
		<tag k="name" v="Kvamvatnet" />
		<tag k="natural" v="water" />
		<tag k="ssr:stedsnr" v="133119" />
	</node>
	<node id="-81266" lat="62.4903999967" lon="8.91758332844">
		<tag k="name" v="Storkvolvbekken" />
		<tag k="ssr:stedsnr" v="618250" />
		<tag k="waterway" v="stream" />
	</node>
	<node id="-79763" lat="62.5662666677" lon="8.92236666781">
		<tag k="name" v="Svartsnytvatnet" />
		<tag k="natural" v="water" />
		<tag k="ssr:stedsnr" v="801768" />
	</node>
	<node id="-81263" lat="62.4201638851" lon="8.79794167362">
		<tag k="name" v="Langtjønna" />
		<tag k="natural" v="water" />
		<tag k="ssr:stedsnr" v="617518" />
	</node>
	<node id="-79214" lat="62.6010861082" lon="8.94816666074">
		<tag k="name" v="Brekkhølen" />
		<tag k="place" v="locality" />
		<tag k="ssr:stedsnr" v="509286" />
	</node>
	<node id="-81257" lat="62.4788500021" lon="8.59602499975">
		<tag k="name" v="Purkbekken" />
		<tag k="ssr:stedsnr" v="617193" />
		<tag k="waterway" v="stream" />
	</node>
	<node id="-79207" lat="62.8100944433" lon="8.51799443475">
		<tag k="name" v="Rennåa" />
		<tag k="ssr:stedsnr" v="498481" />
		<tag k="waterway" v="stream" />
	</node>
	<node id="-81254" lat="62.8391472228" lon="8.61630278597">
		<tag k="name" v="Hammarbekken" />
		<tag k="ssr:stedsnr" v="603874" />
		<tag k="waterway" v="stream" />
	</node>
	<node id="-81234" lat="62.5918111151" lon="9.00984721288">
		<tag k="name" v="Kjerkjesteinhølen" />
		<tag k="place" v="locality" />
		<tag k="ssr:stedsnr" v="572234" />
	</node>
	<node id="-79185" lat="62.7565888906" lon="8.31584444509">
		<tag k="fixme" v="multiple name tags, choose one and add the other to alt_name" />
		<tag k="name" v="Jordalselva;Storelva" />
		<tag k="ssr:stedsnr" v="496252" />
		<tag k="waterway" v="river" />
	</node>
	<node id="-81229" lat="62.5708888931" lon="9.16081110702">
		<tag k="name" v="Sagbekken" />
		<tag k="ssr:stedsnr" v="572078" />
		<tag k="waterway" v="stream" />
	</node>
	<node id="-79176" lat="62.5131666701" lon="9.21211667309">
		<tag k="name" v="Kvitbekken" />
		<tag k="ssr:stedsnr" v="679801" />
		<tag k="waterway" v="stream" />
	</node>
	<node id="-79172" lat="62.54793889" lon="9.18522500245">
		<tag k="name" v="Grytvatnet" />
		<tag k="natural" v="water" />
		<tag k="ssr:stedsnr" v="679752" />
	</node>
	<node id="-79171" lat="62.5906777746" lon="9.08698611772">
		<tag k="name" v="Graslibekken" />
		<tag k="ssr:stedsnr" v="679735" />
		<tag k="waterway" v="stream" />
	</node>
	<node id="-81218" lat="62.760530552" lon="8.44392499347">
		<tag k="name" v="Glenna" />
		<tag k="ssr:stedsnr" v="571684" />
		<tag k="waterway" v="stream" />
	</node>
	<node id="-81211" lat="62.5970416662" lon="8.97160556385">
		<tag k="name" v="Tronget" />
		<tag k="ssr:stedsnr" v="571286" />
		<tag k="waterway" v="rapids" />
	</node>
	<node id="-79159" lat="62.7107416639" lon="8.49786667147">
		<tag k="name" v="Vikabekken" />
		<tag k="ssr:stedsnr" v="679185" />
		<tag k="waterway" v="stream" />
	</node>
	<node id="-79155" lat="62.6485055565" lon="8.33625277984">
		<tag k="name" v="Tverråa" />
		<tag k="ssr:stedsnr" v="679037" />
		<tag k="waterway" v="stream" />
	</node>
	<node id="-79154" lat="62.6409666643" lon="8.51761389502">
		<tag k="name" v="Farbekken" />
		<tag k="ssr:stedsnr" v="679034" />
		<tag k="waterway" v="stream" />
	</node>
	<node id="-81200" lat="62.6794055599" lon="8.38298889199">
		<tag k="name" v="Gammelseterbekken" />
		<tag k="ssr:stedsnr" v="571168" />
		<tag k="waterway" v="stream" />
	</node>
	<node id="-79148" lat="62.7131611137" lon="8.40258055847">
		<tag k="name" v="Erstadelva" />
		<tag k="ssr:stedsnr" v="678217" />
		<tag k="waterway" v="river" />
	</node>
	<node id="-81188" lat="62.7027472228" lon="8.49851944833">
		<tag k="name" v="Smiubekken" />
		<tag k="ssr:stedsnr" v="571111" />
		<tag k="waterway" v="stream" />
	</node>
	<node id="-79750" lat="62.5796166679" lon="9.22226945415">
		<tag k="name" v="Driva" />
		<tag k="ssr:stedsnr" v="799421" />
		<tag k="waterway" v="river" />
	</node>
	<node id="-81185" lat="62.666983336" lon="8.5276583417">
		<tag k="name" v="Klopphølen" />
		<tag k="place" v="locality" />
		<tag k="ssr:stedsnr" v="570804" />
	</node>
	<node id="-79136" lat="62.7542388872" lon="8.46593056067">
		<tag k="name" v="Nautvikbekken" />
		<tag k="ssr:stedsnr" v="451744" />
		<tag k="waterway" v="stream" />
	</node>
	<node id="-79135" lat="62.4883249961" lon="9.06881388797">
		<tag k="name" v="Reppøya" />
		<tag k="place" v="island" />
		<tag k="ssr:stedsnr" v="451741" />
	</node>
	<node id="-79133" lat="62.5642777801" lon="9.08868888445">
		<tag k="name" v="Hestdalsbekken" />
		<tag k="ssr:stedsnr" v="451412" />
		<tag k="waterway" v="stream" />
	</node>
	<node id="-81180" lat="62.6300666648" lon="8.88130000909">
		<tag k="name" v="Gryta" />
		<tag k="ssr:stedsnr" v="570651" />
		<tag k="waterway" v="stream" />
	</node>
	<node id="-79128" lat="62.7713361091" lon="8.48747499685">
		<tag k="name" v="Tverrbekken" />
		<tag k="ssr:stedsnr" v="450502" />
		<tag k="waterway" v="stream" />
	</node>
	<node id="-81174" lat="62.6611611144" lon="8.50835554798">
		<tag k="name" v="Lingjerdbekken" />
		<tag k="ssr:stedsnr" v="570413" />
		<tag k="waterway" v="stream" />
	</node>
	<node id="-81165" lat="62.6563416673" lon="8.34521111012">
		<tag k="name" v="Badstuøya" />
		<tag k="place" v="island" />
		<tag k="ssr:stedsnr" v="570193" />
	</node>
	<node id="-81164" lat="62.8335527777" lon="8.49476667386">
		<tag k="name" v="Fugla" />
		<tag k="ssr:stedsnr" v="570166" />
		<tag k="waterway" v="stream" />
	</node>
	<node id="-79115" lat="62.695177775" lon="8.41236111115">
		<tag k="name" v="Hjellbekken" />
		<tag k="ssr:stedsnr" v="449708" />
		<tag k="waterway" v="stream" />
	</node>
	<node id="-79063" lat="62.6242805541" lon="8.90080555553">
		<tag k="name" v="Breibekken" />
		<tag k="ssr:stedsnr" v="511618" />
		<tag k="waterway" v="stream" />
	</node>
	<node id="-79112" lat="62.790452775" lon="8.50274444489">
		<tag k="name" v="Steinbekkøya" />
		<tag k="place" v="islet" />
		<tag k="ssr:stedsnr" v="449537" />
	</node>
	<node id="-81153" lat="62.4651083378" lon="8.89723610531">
		<tag k="name" v="Raudebekkjetjønna" />
		<tag k="natural" v="water" />
		<tag k="ssr:stedsnr" v="566822" />
	</node>
	<node id="-81150" lat="62.4536194454" lon="8.54066388394">
		<tag k="name" v="Landlaupbekken" />
		<tag k="ssr:stedsnr" v="566784" />
		<tag k="waterway" v="stream" />
	</node>
	<node id="-79101" lat="62.3868861109" lon="8.78341111408">
		<tag k="name" v="Skjellbreivatnet" />
		<tag k="natural" v="water" />
		<tag k="ssr:stedsnr" v="445804" />
		<tag k="water" v="lake" />
	</node>
	<node id="-79100" lat="62.7064833374" lon="8.82603055987">
		<tag k="name" v="Småfalla" />
		<tag k="ssr:stedsnr" v="445705" />
		<tag k="waterway" v="rapids" />
	</node>
	<node id="-81146" lat="62.689188891" lon="8.51088889356">
		<tag k="name" v="Mannvikbekken" />
		<tag k="ssr:stedsnr" v="566721" />
		<tag k="waterway" v="stream" />
	</node>
	<node id="-79743" lat="62.5115555601" lon="8.91231666164">
		<tag k="name" v="Setertjønna" />
		<tag k="natural" v="water" />
		<tag k="ssr:stedsnr" v="922807" />
	</node>
	<node id="-81144" lat="62.7296638851" lon="8.32548889233">
		<tag k="name" v="Raudåa" />
		<tag k="ssr:stedsnr" v="566702" />
		<tag k="waterway" v="stream" />
	</node>
	<node id="-81140" lat="62.8311055554" lon="8.58784721342">
		<tag k="name" v="Midtknukvatnet" />
		<tag k="natural" v="water" />
		<tag k="ssr:stedsnr" v="558330" />
	</node>
	<node id="-79091" lat="62.4751000001" lon="8.5696777686">
		<tag k="name" v="Langtjønna" />
		<tag k="natural" v="water" />
		<tag k="ssr:stedsnr" v="436144" />
	</node>
	<node id="-81137" lat="62.6326444459" lon="8.82031665815">
		<tag k="name" v="Reinåa" />
		<tag k="ssr:stedsnr" v="557929" />
		<tag k="waterway" v="stream" />
	</node>
	<node id="-81135" lat="62.6562250011" lon="8.72873054764">
		<tag k="name" v="Fossa" />
		<tag k="ssr:stedsnr" v="557896" />
		<tag k="waterway" v="stream" />
	</node>
	<node id="-81132" lat="62.5764257569" lon="8.97478719847">
		<tag k="name" v="Løstølvatnet" />
		<tag k="natural" v="water" />
		<tag k="old_name" v="Listølvatnet" />
		<tag k="ssr:stedsnr" v="557732" />
	</node>
	<node id="-81129" lat="62.5331833349" lon="9.06579166808">
		<tag k="alt_name" v="Storunda" />
		<tag k="name" v="Storunda" />
		<tag k="ssr:stedsnr" v="557828" />
		<tag k="waterway" v="stream" />
	</node>
	<node id="-79076" lat="62.5661055537" lon="9.08937500932">
		<tag k="name" v="Skarbekken" />
		<tag k="ssr:stedsnr" v="512159" />
		<tag k="waterway" v="stream" />
	</node>
	<node id="-81123" lat="62.4624333344" lon="8.5957611108">
		<tag k="name" v="Sivtjønna" />
		<tag k="natural" v="water" />
		<tag k="ssr:stedsnr" v="557167" />
	</node>
	<node id="-79067" lat="62.7639305595" lon="8.61528610997">
		<tag k="name" v="Bytbekken" />
		<tag k="ssr:stedsnr" v="511818" />
		<tag k="waterway" v="stream" />
	</node>
	<node id="-79064" lat="62.7582055512" lon="8.51508889385">
		<tag k="name" v="Skaudalsbekken" />
		<tag k="ssr:stedsnr" v="511626" />
		<tag k="waterway" v="stream" />
	</node>
	<node id="-81111" lat="62.4246999979" lon="8.59338610577">
		<tag k="name" v="Torbuodden" />
		<tag k="natural" v="cape" />
		<tag k="ssr:stedsnr" v="557297" />
	</node>
	<node id="-79062" lat="62.801350004" lon="8.49564999995">
		<tag k="name" v="Storøya" />
		<tag k="place" v="island" />
		<tag k="ssr:stedsnr" v="511587" />
	</node>
	<node id="-79057" lat="62.6185277738" lon="8.89677222251">
		<tag k="name" v="Myrahølen" />
		<tag k="place" v="locality" />
		<tag k="ssr:stedsnr" v="511655" />
	</node>
	<node id="-79053" lat="62.6446444432" lon="8.80731111447">
		<tag k="name" v="Langhammarbekken" />
		<tag k="ssr:stedsnr" v="511344" />
		<tag k="waterway" v="stream" />
	</node>
	<node id="-79052" lat="62.6663472205" lon="8.34818332868">
		<tag k="name" v="Karlbekken" />
		<tag k="ssr:stedsnr" v="511249" />
		<tag k="waterway" v="stream" />
	</node>
	<node id="-79049" lat="62.5917250003" lon="8.94917777854">
		<tag k="name" v="Steinbekken" />
		<tag k="ssr:stedsnr" v="511293" />
		<tag k="waterway" v="stream" />
	</node>
	<node id="-79047" lat="62.6367333352" lon="8.82172221856">
		<tag k="name" v="Nyhølen" />
		<tag k="place" v="locality" />
		<tag k="ssr:stedsnr" v="511258" />
	</node>
	<node id="-79044" lat="62.6544750013" lon="8.66313611802">
		<tag k="name" v="Vinnuhølen" />
		<tag k="place" v="locality" />
		<tag k="ssr:stedsnr" v="511011" />
	</node>
	<node id="-81089" lat="62.5350833312" lon="8.56419165819">
		<tag k="name" v="Skarvdalselva" />
		<tag k="ssr:stedsnr" v="437114" />
		<tag k="waterway" v="river" />
	</node>
	<node id="-81085" lat="62.5381250016" lon="9.00764999534">
		<tag k="name" v="Mikkelbekken" />
		<tag k="ssr:stedsnr" v="436828" />
		<tag k="waterway" v="stream" />
	</node>
	<node id="-81084" lat="62.5313166625" lon="8.85225555755">
		<tag k="name" v="Rundvatnet" />
		<tag k="natural" v="water" />
		<tag k="ssr:stedsnr" v="436824" />
	</node>
	<node id="-79035" lat="62.7529694474" lon="8.38565277585">
		<tag k="name" v="Skrøbekken" />
		<tag k="ssr:stedsnr" v="510697" />
		<tag k="waterway" v="stream" />
	</node>
	<node id="-81082" lat="62.5532388924" lon="8.94530277577">
		<tag k="name" v="Fiskbuvatnet" />
		<tag k="natural" v="water" />
		<tag k="ssr:stedsnr" v="436806" />
	</node>
	<node id="-78367" lat="62.6685694416" lon="8.4375722281">
		<tag k="name" v="Grinddalsbekken" />
		<tag k="ssr:stedsnr" v="266500" />
		<tag k="waterway" v="stream" />
	</node>
	<node id="-81079" lat="62.5370833295" lon="8.78041389009">
		<tag k="name" v="Styggvatnet" />
		<tag k="natural" v="water" />
		<tag k="ssr:stedsnr" v="436785" />
		<tag k="water" v="lake" />
	</node>
	<node id="-81077" lat="62.5855833296" lon="9.01189721669">
		<tag k="name" v="Hermannhaugbekken" />
		<tag k="ssr:stedsnr" v="436764" />
		<tag k="waterway" v="stream" />
	</node>
	<node id="-81075" lat="62.6379166643" lon="8.77183611916">
		<tag k="name" v="Busbekken" />
		<tag k="ssr:stedsnr" v="436948" />
		<tag k="waterway" v="stream" />
	</node>
	<node id="-81074" lat="62.6367222267" lon="8.78285278527">
		<tag k="name" v="Fagerbekken" />
		<tag k="ssr:stedsnr" v="436947" />
		<tag k="waterway" v="stream" />
	</node>
	<node id="-81073" lat="62.5641249999" lon="9.23358610359">
		<tag k="name" v="Middagsbekken" />
		<tag k="ssr:stedsnr" v="436532" />
		<tag k="waterway" v="stream" />
	</node>
	<node id="-79015" lat="62.5847166638" lon="9.03501666782">
		<tag k="name" v="Støgubekken" />
		<tag k="ssr:stedsnr" v="510158" />
		<tag k="waterway" v="stream" />
	</node>
	<node id="-79010" lat="62.4974611103" lon="8.96865555828">
		<tag k="name" v="Myrbekken" />
		<tag k="ssr:stedsnr" v="509548" />
		<tag k="waterway" v="stream" />
	</node>
	<node id="-79009" lat="62.6711527793" lon="8.5213166763">
		<tag k="name" v="Skrøbekken" />
		<tag k="ssr:stedsnr" v="509768" />
		<tag k="waterway" v="stream" />
	</node>
	<node id="-79005" lat="62.7455305554" lon="8.62972222963">
		<tag k="name" v="Kvernåa" />
		<tag k="ssr:stedsnr" v="509693" />
		<tag k="waterway" v="stream" />
	</node>
	<node id="-81052" lat="62.7879777784" lon="8.37651943765">
		<tag k="name" v="Hisdalsvassbekken" />
		<tag k="ssr:stedsnr" v="411008" />
		<tag k="waterway" v="stream" />
	</node>
	<node id="-81048" lat="62.5805583322" lon="9.03932222772">
		<tag k="name" v="Kloppbekken" />
		<tag k="ssr:stedsnr" v="391185" />
		<tag k="waterway" v="stream" />
	</node>
	<node id="-78849" lat="62.7368083302" lon="8.61727778062">
		<tag k="name" v="Kvernåa" />
		<tag k="ssr:stedsnr" v="496251" />
		<tag k="waterway" v="stream" />
	</node>
	<node id="-81042" lat="62.7675972188" lon="8.60059166263">
		<tag k="name" v="Kvernabekken" />
		<tag k="ssr:stedsnr" v="390836" />
		<tag k="waterway" v="stream" />
	</node>
	<node id="-81041" lat="62.6305166641" lon="8.54099445009">
		<tag k="name" v="Langrabb-bekken" />
		<tag k="ssr:stedsnr" v="390808" />
		<tag k="waterway" v="stream" />
	</node>
	<node id="-81039" lat="62.6343833323" lon="8.53128610653">
		<tag k="name" v="Hårstadkvislin" />
		<tag k="ssr:stedsnr" v="390935" />
		<tag k="waterway" v="stream" />
	</node>
	<node id="-78983" lat="62.441769446" lon="8.8953805608">
		<tag k="name" v="Gammelsetertjønna" />
		<tag k="natural" v="water" />
		<tag k="ssr:stedsnr" v="506788" />
	</node>
	<node id="-81030" lat="62.6504166644" lon="8.64108055072">
		<tag k="name" v="Nylykkjebekken" />
		<tag k="ssr:stedsnr" v="390444" />
		<tag k="waterway" v="stream" />
	</node>
	<node id="-78981" lat="62.5205999969" lon="8.44639721885">
		<tag k="name" v="Søtubotnelva" />
		<tag k="ssr:stedsnr" v="506784" />
		<tag k="waterway" v="river" />
	</node>
	<node id="-78980" lat="62.4330611129" lon="8.56809445375">
		<tag k="name" v="Indre Lomtjønna" />
		<tag k="natural" v="water" />
		<tag k="ssr:stedsnr" v="506765" />
	</node>
	<node id="-81027" lat="62.6499305545" lon="8.74913332577">
		<tag k="name" v="Bekken" />
		<tag k="ssr:stedsnr" v="390400" />
		<tag k="waterway" v="stream" />
	</node>
	<node id="-81026" lat="62.6440499993" lon="8.74637222496">
		<tag k="name" v="Storhølen" />
		<tag k="place" v="locality" />
		<tag k="ssr:stedsnr" v="390395" />
	</node>
	<node id="-81025" lat="62.5519250012" lon="9.12350555044">
		<tag k="name" v="Lykkjeflønet" />
		<tag k="ssr:stedsnr" v="390249" />
		<tag k="waterway" v="rapids" />
	</node>
	<node id="-81024" lat="62.5545972194" lon="9.13356389151">
		<tag k="name" v="Seterbekken" />
		<tag k="ssr:stedsnr" v="390246" />
		<tag k="waterway" v="stream" />
	</node>
	<node id="-78975" lat="62.6080277748" lon="8.32398054646">
		<tag k="name" v="Tjønnbekken" />
		<tag k="ssr:stedsnr" v="506711" />
		<tag k="waterway" v="stream" />
	</node>
	<node id="-78969" lat="62.7765361069" lon="8.51766389179">
		<tag k="name" v="Ålvundelva" />
		<tag k="ssr:stedsnr" v="506282" />
		<tag k="waterway" v="river" />
	</node>
	<node id="-78965" lat="62.6503083294" lon="8.72659443905">
		<tag k="name" v="Fossa" />
		<tag k="ssr:stedsnr" v="390403" />
		<tag k="waterway" v="stream" />
	</node>
	<node id="-78962" lat="62.6053222256" lon="8.52363333635">
		<tag k="name" v="Kløyvelva" />
		<tag k="ssr:stedsnr" v="389970" />
		<tag k="waterway" v="river" />
	</node>
	<node id="-81008" lat="62.6264444464" lon="8.30556110159">
		<tag k="name" v="Meiersbekken" />
		<tag k="ssr:stedsnr" v="389299" />
		<tag k="waterway" v="stream" />
	</node>
	<node id="-78957" lat="62.7655250037" lon="8.49736389336">
		<tag k="name" v="Seterbekken" />
		<tag k="ssr:stedsnr" v="389512" />
		<tag k="waterway" v="stream" />
	</node>
	<node id="-81003" lat="62.7090611123" lon="8.43285000234">
		<tag k="name" v="Vidbekken" />
		<tag k="ssr:stedsnr" v="389063" />
		<tag k="waterway" v="stream" />
	</node>
	<node id="-79719" lat="62.6071805515" lon="8.51298888661">
		<tag k="name" v="Brubekken" />
		<tag k="ssr:stedsnr" v="922123" />
		<tag k="waterway" v="stream" />
	</node>
	<node id="-78952" lat="62.6616499967" lon="8.62537222632">
		<tag k="name" v="Kiklingbrekkhølen" />
		<tag k="place" v="locality" />
		<tag k="ssr:stedsnr" v="389171" />
	</node>
	<node id="-79036" lat="62.7467611131" lon="8.38948888482">
		<tag k="name" v="Trøbekken" />
		<tag k="ssr:stedsnr" v="510700" />
		<tag k="waterway" v="stream" />
	</node>
	<node id="-80995" lat="62.7417361114" lon="8.53137221304">
		<tag k="name" v="Seterhaugbekken" />
		<tag k="ssr:stedsnr" v="388789" />
		<tag k="waterway" v="stream" />
	</node>
	<node id="-80994" lat="62.7560861133" lon="8.53543333859">
		<tag k="name" v="Dalabekken" />
		<tag k="ssr:stedsnr" v="388788" />
		<tag k="waterway" v="stream" />
	</node>
	<node id="-79376" lat="62.6543777802" lon="8.87666389446">
		<tag k="name" v="Somrungvatnet, l" />
		<tag k="natural" v="water" />
		<tag k="ssr:stedsnr" v="557956" />
		<tag k="water" v="lake" />
	</node>
	<node id="-80989" lat="62.746377782" lon="8.62749722727">
		<tag k="name" v="Liabekken" />
		<tag k="ssr:stedsnr" v="388729" />
		<tag k="waterway" v="stream" />
	</node>
	<node id="-80988" lat="62.6143666699" lon="8.88066944649">
		<tag k="name" v="Skjortbekken" />
		<tag k="ssr:stedsnr" v="388686" />
		<tag k="waterway" v="stream" />
	</node>
	<node id="-80986" lat="62.6697972232" lon="8.40170554989">
		<tag k="name" v="Bytbekken" />
		<tag k="ssr:stedsnr" v="388449" />
		<tag k="waterway" v="stream" />
	</node>
	<node id="-80984" lat="62.6643583335" lon="8.40301111314">
		<tag k="name" v="Seterbekken" />
		<tag k="ssr:stedsnr" v="388437" />
		<tag k="waterway" v="stream" />
	</node>
	<node id="-78928" lat="62.8351499982" lon="8.49286943887">
		<tag k="name" v="Midtbekken" />
		<tag k="ssr:stedsnr" v="388177" />
		<tag k="waterway" v="stream" />
	</node>
	<node id="-80971" lat="62.8329166691" lon="8.52523888159">
		<tag k="name" v="Ålvundfossen" />
		<tag k="natural" v="waterfall" />
		<tag k="ssr:stedsnr" v="388238" />
	</node>
	<node id="-80966" lat="62.5269000028" lon="9.00012500362">
		<tag k="name" v="Maritangen" />
		<tag k="place" v="island" />
		<tag k="ssr:stedsnr" v="388077" />
	</node>
	<node id="-79713" lat="62.6502666626" lon="8.67901110867">
		<tag k="name" v="Leangsøya" />
		<tag k="natural" v="cape" />
		<tag k="ssr:stedsnr" v="922096" />
	</node>
	<node id="-78916" lat="62.7940777772" lon="8.37731667317">
		<tag k="name" v="Hisdalsvatnet" />
		<tag k="natural" v="water" />
		<tag k="ssr:stedsnr" v="376428" />
	</node>
	<node id="-78915" lat="62.8225416676" lon="8.57283610215">
		<tag k="name" v="Mossatjørna" />
		<tag k="natural" v="water" />
		<tag k="ssr:stedsnr" v="376312" />
	</node>
	<node id="-78914" lat="62.625441665" lon="8.98305277327">
		<tag k="name" v="Klingråkvatna" />
		<tag k="natural" v="water" />
		<tag k="ssr:stedsnr" v="375924" />
		<tag k="water" v="lake" />
	</node>
	<node id="-80960" lat="62.7248111083" lon="8.55113334112">
		<tag k="name" v="Midtbekken" />
		<tag k="ssr:stedsnr" v="387421" />
		<tag k="waterway" v="stream" />
	</node>
	<node id="-78911" lat="62.5290388926" lon="8.89592500895">
		<tag k="name" v="Langtjønna" />
		<tag k="natural" v="water" />
		<tag k="ssr:stedsnr" v="375805" />
	</node>
	<node id="-78909" lat="62.4736166692" lon="8.94625555203">
		<tag k="name" v="Røymobekken" />
		<tag k="ssr:stedsnr" v="375420" />
		<tag k="waterway" v="stream" />
	</node>
	<node id="-78908" lat="62.4645916648" lon="8.92888332998">
		<tag k="name" v="Grøvu" />
		<tag k="ssr:stedsnr" v="375414" />
		<tag k="waterway" v="river" />
	</node>
	<node id="-80955" lat="62.5053944435" lon="8.46026944472">
		<tag k="name" v="Vakkerdalselva" />
		<tag k="ssr:stedsnr" v="385800" />
		<tag k="waterway" v="river" />
	</node>
	<node id="-80953" lat="62.5482111104" lon="8.65975555611">
		<tag k="name" v="Vardfjellvatnet" />
		<tag k="natural" v="water" />
		<tag k="ssr:stedsnr" v="385795" />
		<tag k="water" v="lake" />
	</node>
	<node id="-79369" lat="62.4887055568" lon="8.97284999887">
		<tag k="fixme" v="multiple name tags, choose one and add the other to alt_name" />
		<tag k="name" v="Nebb-bekken;Nebbekken" />
		<tag k="ssr:stedsnr" v="557276" />
		<tag k="waterway" v="stream" />
	</node>
	<node id="-80947" lat="62.6616249998" lon="8.78144999985">
		<tag k="name" v="Lauvåtjønnin" />
		<tag k="natural" v="water" />
		<tag k="ssr:stedsnr" v="376930" />
	</node>
	<node id="-80943" lat="62.5724138859" lon="8.90026388873">
		<tag k="name" v="Sviskurdbekken" />
		<tag k="ssr:stedsnr" v="376783" />
		<tag k="waterway" v="stream" />
	</node>
	<node id="-78893" lat="62.605902779" lon="9.00706389206">
		<tag k="name" v="Grynna" />
		<tag k="ssr:stedsnr" v="497978" />
		<tag k="waterway" v="river" />
	</node>
	<node id="-78892" lat="62.5919138931" lon="8.8221999971">
		<tag k="name" v="Reinåa" />
		<tag k="ssr:stedsnr" v="497970" />
		<tag k="waterway" v="river" />
	</node>
	<node id="-78890" lat="62.7231083318" lon="8.74907222541">
		<tag k="name" v="Innerdalsvatna" />
		<tag k="natural" v="water" />
		<tag k="ssr:stedsnr" v="497879" />
		<tag k="water" v="lake" />
	</node>
	<node id="-78889" lat="62.537755555" lon="8.96630833647">
		<tag k="name" v="Vangbekken" />
		<tag k="ssr:stedsnr" v="497847" />
		<tag k="waterway" v="stream" />
	</node>
	<node id="-80935" lat="62.5589555566" lon="8.46280000306">
		<tag k="name" v="Sandvassøybekken" />
		<tag k="ssr:stedsnr" v="376076" />
		<tag k="waterway" v="stream" />
	</node>
	<node id="-80934" lat="62.5830999986" lon="8.66313054727">
		<tag k="name" v="Smellfonnvatnet" />
		<tag k="natural" v="water" />
		<tag k="ssr:stedsnr" v="376068" />
		<tag k="water" v="lake" />
	</node>
	<node id="-79025" lat="62.6423888856" lon="8.7100500044">
		<tag k="name" v="Dalabekken" />
		<tag k="ssr:stedsnr" v="510366" />
		<tag k="waterway" v="stream" />
	</node>
	<node id="-78882" lat="62.77912222" lon="8.41239443731">
		<tag k="name" v="Stordalsbekken" />
		<tag k="ssr:stedsnr" v="497392" />
		<tag k="waterway" v="stream" />
	</node>
	<node id="-78879" lat="62.7780861153" lon="8.60328333918">
		<tag k="name" v="Litlråkvatnet" />
		<tag k="natural" v="water" />
		<tag k="ssr:stedsnr" v="497375" />
	</node>
	<node id="-80921" lat="62.4845499986" lon="8.49895832482">
		<tag k="name" v="Stabbursvatnet" />
		<tag k="natural" v="water" />
		<tag k="ssr:stedsnr" v="375139" />
	</node>
	<node id="-78872" lat="62.6909805588" lon="8.29735277038">
		<tag k="name" v="Ryssdalsvatna, ytre" />
		<tag k="natural" v="water" />
		<tag k="ssr:stedsnr" v="497196" />
		<tag k="water" v="lake" />
	</node>
	<node id="-78871" lat="62.6926833313" lon="8.34521944151">
		<tag k="name" v="Mørkbotnvatnet" />
		<tag k="natural" v="water" />
		<tag k="ssr:stedsnr" v="497191" />
	</node>
	<node id="-79705" lat="62.6810666671" lon="8.51161667058">
		<tag k="name" v="Blaksåa" />
		<tag k="ssr:stedsnr" v="922051" />
		<tag k="waterway" v="stream" />
	</node>
	<node id="-78867" lat="62.6687833331" lon="8.61975000011">
		<tag k="name" v="Furuveita" />
		<tag k="ssr:stedsnr" v="497049" />
		<tag k="waterway" v="stream" />
	</node>
	<node id="-78866" lat="62.6794527816" lon="8.36064722144">
		<tag k="name" v="Kvernaelva" />
		<tag k="ssr:stedsnr" v="497038" />
		<tag k="waterway" v="stream" />
	</node>
	<node id="-78865" lat="62.6903472237" lon="8.47997222387">
		<tag k="name" v="Turtlidalsbekken" />
		<tag k="ssr:stedsnr" v="497035" />
		<tag k="waterway" v="stream" />
	</node>
	<node id="-78863" lat="62.5372999991" lon="9.05415833376">
		<tag k="name" v="Svorundtjønnin" />
		<tag k="natural" v="water" />
		<tag k="ssr:stedsnr" v="496827" />
	</node>
	<node id="-78860" lat="62.6283194483" lon="8.79320834097">
		<tag k="name" v="Lysa" />
		<tag k="ssr:stedsnr" v="496943" />
		<tag k="waterway" v="stream" />
	</node>
	<node id="-78858" lat="62.6995858069" lon="8.76483693343">
		<tag k="fixme" v="multiple name tags, choose one and add the other to alt_name" />
		<tag k="name" v="Giklingdalsvatnet;Storvatnet" />
		<tag k="natural" v="water" />
		<tag k="ssr:stedsnr" v="496929" />
		<tag k="water" v="lake" />
	</node>
	<node id="-80905" lat="62.8428333359" lon="8.59907221882">
		<tag k="name" v="Seterbekken" />
		<tag k="ssr:stedsnr" v="343851" />
		<tag k="waterway" v="stream" />
	</node>
	<node id="-78856" lat="62.4412638892" lon="8.59457500159">
		<tag k="name" v="Haugtjønna" />
		<tag k="natural" v="water" />
		<tag k="ssr:stedsnr" v="496354" />
	</node>
	<node id="-80903" lat="62.4946527752" lon="9.09008611462">
		<tag k="name" v="Tusktjønna" />
		<tag k="natural" v="water" />
		<tag k="ssr:stedsnr" v="330778" />
	</node>
	<node id="-79509" lat="62.5767277789" lon="9.03929722056">
		<tag k="name" v="Øran" />
		<tag k="place" v="island" />
		<tag k="ssr:stedsnr" v="633223" />
	</node>
	<node id="-78853" lat="62.4833027802" lon="9.06621665814">
		<tag k="name" v="Skiråa" />
		<tag k="old_name" v="Skiraå" />
		<tag k="ssr:stedsnr" v="496485" />
		<tag k="waterway" v="river" />
	</node>
	<node id="-78851" lat="62.4574750023" lon="8.91674445047">
		<tag k="name" v="Nysetertjønna" />
		<tag k="natural" v="water" />
		<tag k="ssr:stedsnr" v="496479" />
	</node>
	<node id="-78850" lat="62.4528305576" lon="9.00821388353">
		<tag k="name" v="Kvitåa" />
		<tag k="ssr:stedsnr" v="496476" />
		<tag k="waterway" v="stream" />
	</node>
	<node id="-80897" lat="62.5606944447" lon="9.07666666327">
		<tag k="name" v="Tøftflønet" />
		<tag k="place" v="locality" />
		<tag k="ssr:stedsnr" v="330440" />
	</node>
	<node id="-80895" lat="62.5674499966" lon="9.08079165765">
		<tag k="name" v="Høytobekkin" />
		<tag k="ssr:stedsnr" v="330181" />
		<tag k="waterway" v="stream" />
	</node>
	<node id="-80892" lat="62.5644916685" lon="8.9354805605">
		<tag k="name" v="Langtjønna" />
		<tag k="natural" v="water" />
		<tag k="ssr:stedsnr" v="330158" />
	</node>
	<node id="-78843" lat="62.4845916707" lon="8.68918887938">
		<tag k="name" v="Øvre Håkodalsvatnet" />
		<tag k="natural" v="water" />
		<tag k="ssr:stedsnr" v="496161" />
		<tag k="water" v="lake" />
	</node>
	<node id="-78842" lat="62.4109055531" lon="8.6059999909">
		<tag k="alt_name" v="Trefotsjugurdtjønna" />
		<tag k="name" v="Torbutjørna" />
		<tag k="natural" v="water" />
		<tag k="ssr:stedsnr" v="496324" />
	</node>
	<node id="-80888" lat="62.5710722183" lon="9.13368333022">
		<tag k="name" v="Vollastranda" />
		<tag k="natural" v="beach" />
		<tag k="ssr:stedsnr" v="330059" />
	</node>
	<node id="-80884" lat="62.7767027773" lon="8.52991389324">
		<tag k="name" v="Storøya" />
		<tag k="place" v="island" />
		<tag k="ssr:stedsnr" v="329830" />
	</node>
	<node id="-80881" lat="62.6265555529" lon="8.85618055852">
		<tag k="name" v="Molgan" />
		<tag k="place" v="locality" />
		<tag k="ssr:stedsnr" v="329691" />
	</node>
	<node id="-78829" lat="62.6216638857" lon="8.53746111351">
		<tag k="name" v="Klavabekken" />
		<tag k="ssr:stedsnr" v="329743" />
		<tag k="waterway" v="stream" />
	</node>
	<node id="-80873" lat="62.6532333309" lon="8.68336944362">
		<tag k="name" v="Løykjabekken" />
		<tag k="ssr:stedsnr" v="329468" />
		<tag k="waterway" v="stream" />
	</node>
	<node id="-80872" lat="62.6507194459" lon="8.69598056174">
		<tag k="name" v="Løykja-Skorga" />
		<tag k="ssr:stedsnr" v="329465" />
		<tag k="waterway" v="stream" />
	</node>
	<node id="-80871" lat="62.644100002" lon="8.68731388402">
		<tag k="name" v="Landlaupbekken" />
		<tag k="ssr:stedsnr" v="329463" />
		<tag k="waterway" v="stream" />
	</node>
	<node id="-80868" lat="62.6505250005" lon="8.65077222674">
		<tag k="name" v="Breiåhølen" />
		<tag k="place" v="locality" />
		<tag k="ssr:stedsnr" v="329436" />
	</node>
	<node id="-78818" lat="62.6726583338" lon="8.58490555948">
		<tag k="name" v="Fagerhaugbekken" />
		<tag k="ssr:stedsnr" v="329232" />
		<tag k="waterway" v="stream" />
	</node>
	<node id="-80865" lat="62.5982611146" lon="8.97663332485">
		<tag k="name" v="Utløpa" />
		<tag k="ssr:stedsnr" v="329287" />
		<tag k="waterway" v="stream" />
	</node>
	<node id="-80859" lat="62.657819448" lon="8.6684138873">
		<tag k="name" v="Stor-Vinnu" />
		<tag k="ssr:stedsnr" v="329061" />
		<tag k="waterway" v="stream" />
	</node>
	<node id="-80849" lat="62.7976166695" lon="8.56105833665">
		<tag k="name" v="Seterelva" />
		<tag k="ssr:stedsnr" v="328381" />
		<tag k="waterway" v="river" />
	</node>
	<node id="-80847" lat="62.561750004" lon="9.07029443803">
		<tag k="name" v="Salsteinhølen" />
		<tag k="place" v="locality" />
		<tag k="ssr:stedsnr" v="328369" />
	</node>
	<node id="-78798" lat="62.5013083314" lon="9.08706111107">
		<tag k="name" v="Linndalsfallet" />
		<tag k="natural" v="waterfall" />
		<tag k="ssr:stedsnr" v="324329" />
	</node>
	<node id="-78797" lat="62.6356361086" lon="8.88299444555">
		<tag k="name" v="Gryta" />
		<tag k="ssr:stedsnr" v="324318" />
		<tag k="waterway" v="stream" />
	</node>
	<node id="-78789" lat="62.583119445" lon="8.9985944503">
		<tag k="name" v="Løstølbekken" />
		<tag k="ssr:stedsnr" v="315769" />
		<tag k="waterway" v="stream" />
	</node>
	<node id="-80436" lat="62.6060333339" lon="8.90843611088">
		<tag k="name" v="Grøvla" />
		<tag k="ssr:stedsnr" v="141714" />
		<tag k="waterway" v="stream" />
	</node>
	<node id="-80830" lat="62.6708499985" lon="8.52794722769">
		<tag k="name" v="Tredalskeila" />
		<tag k="natural" v="bay" />
		<tag k="ssr:stedsnr" v="327759" />
	</node>
	<node id="-80826" lat="62.5057305515" lon="8.98426389436">
		<tag k="name" v="Kvennabekken" />
		<tag k="ssr:stedsnr" v="328043" />
		<tag k="waterway" v="stream" />
	</node>
	<node id="-78777" lat="62.589663885" lon="8.53075834093">
		<tag k="name" v="Tågbekken" />
		<tag k="ssr:stedsnr" v="315063" />
		<tag k="waterway" v="stream" />
	</node>
	<node id="-80823" lat="62.4813972242" lon="8.94730276818">
		<tag k="name" v="Kvanngrovbekken" />
		<tag k="ssr:stedsnr" v="327564" />
		<tag k="waterway" v="stream" />
	</node>
	<node id="-80818" lat="62.7192972259" lon="8.55487777307">
		<tag k="name" v="Trettøybekken" />
		<tag k="ssr:stedsnr" v="327378" />
		<tag k="waterway" v="stream" />
	</node>
	<node id="-78763" lat="62.4637000039" lon="8.63745000639">
		<tag k="name" v="Håkodalselva" />
		<tag k="ssr:stedsnr" v="314207" />
		<tag k="waterway" v="stream" />
	</node>
	<node id="-79004" lat="62.6701944459" lon="8.43320277526">
		<tag k="name" v="Skrøobekken" />
		<tag k="ssr:stedsnr" v="509450" />
		<tag k="waterway" v="stream" />
	</node>
	<node id="-79181" lat="62.6148111113" lon="8.88992777134">
		<tag k="name" v="Stordalsbekken" />
		<tag k="ssr:stedsnr" v="679986" />
		<tag k="waterway" v="stream" />
	</node>
	<node id="-80802" lat="62.4173527757" lon="8.75221943527">
		<tag k="name" v="Raudhøtjønna" />
		<tag k="natural" v="water" />
		<tag k="ssr:stedsnr" v="324782" />
	</node>
	<node id="-80800" lat="62.4416444403" lon="8.56909999472">
		<tag k="name" v="Lomtjønna" />
		<tag k="natural" v="water" />
		<tag k="ssr:stedsnr" v="324774" />
		<tag k="water" v="lake" />
	</node>
	<node id="-80799" lat="62.3815583346" lon="8.82598610284">
		<tag k="name" v="Søre Svarthammartjønna" />
		<tag k="natural" v="water" />
		<tag k="ssr:stedsnr" v="324771" />
	</node>
	<node id="-80798" lat="62.4083805561" lon="8.75422777793">
		<tag k="name" v="Skjellbreitjønna" />
		<tag k="natural" v="water" />
		<tag k="ssr:stedsnr" v="324769" />
	</node>
	<node id="-80797" lat="62.4956000018" lon="8.48179444465">
		<tag k="name" v="Trollkjerkja" />
		<tag k="place" v="islet" />
		<tag k="ssr:stedsnr" v="324758" />
	</node>
	<node id="-80796" lat="62.5196416671" lon="8.73388611325">
		<tag k="name" v="Buatjønna" />
		<tag k="natural" v="water" />
		<tag k="ssr:stedsnr" v="324747" />
	</node>
	<node id="-80794" lat="62.7469277746" lon="8.48131110614">
		<tag k="name" v="Flåstranda" />
		<tag k="natural" v="beach" />
		<tag k="ssr:stedsnr" v="324701" />
	</node>
	<node id="-80791" lat="62.6541000002" lon="8.87604443519">
		<tag k="name" v="Litlsomrungvatnet" />
		<tag k="natural" v="water" />
		<tag k="ssr:stedsnr" v="323726" />
		<tag k="water" v="lake" />
	</node>
	<node id="-78742" lat="62.5651749986" lon="9.12009722332">
		<tag k="name" v="Kasthølen" />
		<tag k="place" v="locality" />
		<tag k="ssr:stedsnr" v="269259" />
	</node>
	<node id="-78741" lat="62.5726166671" lon="9.15976666463">
		<tag k="name" v="Strypet" />
		<tag k="ssr:stedsnr" v="269067" />
		<tag k="waterway" v="rapids" />
	</node>
	<node id="-80786" lat="62.56543889" lon="9.18077778004">
		<tag k="name" v="Storbekken" />
		<tag k="ssr:stedsnr" v="315798" />
		<tag k="waterway" v="stream" />
	</node>
	<node id="-80784" lat="62.7927416685" lon="8.57787499117">
		<tag k="name" v="Seterelva" />
		<tag k="ssr:stedsnr" v="315379" />
		<tag k="waterway" v="stream" />
	</node>
	<node id="-78727" lat="62.8616722223" lon="8.55051389495">
		<tag k="name" v="Jutulbekken" />
		<tag k="ssr:stedsnr" v="268252" />
		<tag k="waterway" v="stream" />
	</node>
	<node id="-80774" lat="62.6789666642" lon="8.30734166936">
		<tag k="name" v="Ryssdalsvatna, indre" />
		<tag k="natural" v="water" />
		<tag k="ssr:stedsnr" v="315190" />
	</node>
	<node id="-80771" lat="62.5412500014" lon="8.68098333691">
		<tag k="name" v="Grønbakkvatnet" />
		<tag k="natural" v="water" />
		<tag k="ssr:stedsnr" v="315093" />
	</node>
	<node id="-80770" lat="62.5260138922" lon="8.56939445367">
		<tag k="name" v="Raudbergsåa" />
		<tag k="ssr:stedsnr" v="315088" />
		<tag k="waterway" v="river" />
	</node>
	<node id="-78721" lat="62.6630722206" lon="8.61061665775">
		<tag k="name" v="Strømmen" />
		<tag k="place" v="locality" />
		<tag k="ssr:stedsnr" v="268167" />
	</node>
	<node id="-78714" lat="62.4960222266" lon="8.95368611205">
		<tag k="name" v="Langmyrbekken" />
		<tag k="ssr:stedsnr" v="267573" />
		<tag k="waterway" v="stream" />
	</node>
	<node id="-80761" lat="62.6646694487" lon="8.66942777406">
		<tag k="name" v="Vinnu" />
		<tag k="ssr:stedsnr" v="315020" />
		<tag k="waterway" v="stream" />
	</node>
	<node id="-80760" lat="62.6302944462" lon="8.789805554">
		<tag k="name" v="Porsurdbekken" />
		<tag k="ssr:stedsnr" v="314932" />
		<tag k="waterway" v="stream" />
	</node>
	<node id="-78708" lat="62.5118027794" lon="8.96582776941">
		<tag k="name" v="Midtibekken" />
		<tag k="ssr:stedsnr" v="267459" />
		<tag k="waterway" v="stream" />
	</node>
	<node id="-80755" lat="62.4758055572" lon="8.56545833776">
		<tag k="name" v="Hyttjønna" />
		<tag k="natural" v="water" />
		<tag k="ssr:stedsnr" v="314181" />
	</node>
	<node id="-80753" lat="62.544961107" lon="9.10798054738">
		<tag k="name" v="Nisjaflønet" />
		<tag k="place" v="locality" />
		<tag k="ssr:stedsnr" v="209380" />
	</node>
	<node id="-78994" lat="62.809875003" lon="8.54348333687">
		<tag k="name" v="Slættbekken" />
		<tag k="ssr:stedsnr" v="509333" />
		<tag k="waterway" v="stream" />
	</node>
	<node id="-78697" lat="62.6640138922" lon="8.85254999851">
		<tag k="name" v="Tverråvatnet" />
		<tag k="natural" v="water" />
		<tag k="ssr:stedsnr" v="254903" />
	</node>
	<node id="-80743" lat="62.6026444427" lon="8.52905277219">
		<tag k="name" v="Dalabekken" />
		<tag k="ssr:stedsnr" v="208977" />
		<tag k="waterway" v="stream" />
	</node>
	<node id="-78693" lat="62.3954138908" lon="9.04311111165">
		<tag k="name" v="Istjønna" />
		<tag k="natural" v="water" />
		<tag k="ssr:stedsnr" v="254458" />
	</node>
	<node id="-78691" lat="62.4275750032" lon="8.59069444996">
		<tag k="name" v="Torbuvatnet" />
		<tag k="natural" v="water" />
		<tag k="ssr:stedsnr" v="254309" />
		<tag k="water" v="lake" />
	</node>
	<node id="-80734" lat="62.6138166672" lon="8.90896111726">
		<tag k="name" v="Undlendhølen" />
		<tag k="place" v="locality" />
		<tag k="ssr:stedsnr" v="208676" />
	</node>
	<node id="-80732" lat="62.6241749964" lon="8.90805277611">
		<tag k="name" v="Blombekken" />
		<tag k="ssr:stedsnr" v="208652" />
		<tag k="waterway" v="stream" />
	</node>
	<node id="-80728" lat="62.6071666682" lon="8.92103611615">
		<tag k="name" v="Grøvelhølen" />
		<tag k="place" v="locality" />
		<tag k="ssr:stedsnr" v="208543" />
	</node>
	<node id="-80727" lat="62.6010305552" lon="8.94209166152">
		<tag k="name" v="Bruhølen" />
		<tag k="place" v="locality" />
		<tag k="ssr:stedsnr" v="208529" />
	</node>
	<node id="-80721" lat="62.5989555572" lon="8.97970278513">
		<tag k="name" v="Utløpa" />
		<tag k="ssr:stedsnr" v="208313" />
		<tag k="waterway" v="stream" />
	</node>
	<node id="-80720" lat="62.5966444413" lon="8.96622500387">
		<tag k="name" v="Øverhølen" />
		<tag k="place" v="locality" />
		<tag k="ssr:stedsnr" v="208293" />
	</node>
	<node id="-80719" lat="62.5649750019" lon="9.11388889712">
		<tag k="name" v="Reitbekken" />
		<tag k="ssr:stedsnr" v="208238" />
		<tag k="waterway" v="stream" />
	</node>
	<node id="-80718" lat="62.6621638886" lon="8.64906110971">
		<tag k="name" v="Holbekken" />
		<tag k="ssr:stedsnr" v="208119" />
		<tag k="waterway" v="stream" />
	</node>
	<node id="-78669" lat="62.645386112" lon="8.68106667492">
		<tag k="name" v="Pulsbekken" />
		<tag k="ssr:stedsnr" v="451494" />
		<tag k="waterway" v="stream" />
	</node>
	<node id="-78666" lat="62.5543611085" lon="9.06534443927">
		<tag k="name" v="Hammarbekken" />
		<tag k="ssr:stedsnr" v="451462" />
		<tag k="waterway" v="stream" />
	</node>
	<node id="-80713" lat="62.6542944415" lon="8.65468889272">
		<tag k="name" v="Vaskarhølen" />
		<tag k="place" v="locality" />
		<tag k="ssr:stedsnr" v="208011" />
	</node>
	<node id="-78664" lat="62.5593388912" lon="9.11097221419">
		<tag k="name" v="Gjørasstranda" />
		<tag k="natural" v="beach" />
		<tag k="ssr:stedsnr" v="451266" />
	</node>
	<node id="-78663" lat="62.5613944458" lon="9.1122861108">
		<tag k="name" v="Gjørasneset" />
		<tag k="natural" v="cape" />
		<tag k="ssr:stedsnr" v="451264" />
	</node>
	<node id="-78661" lat="62.5491083371" lon="9.091755553">
		<tag k="name" v="Bolken" />
		<tag k="place" v="locality" />
		<tag k="ssr:stedsnr" v="451397" />
	</node>
	<node id="-78659" lat="62.5458888858" lon="9.08068055207">
		<tag k="name" v="Føykjen" />
		<tag k="ssr:stedsnr" v="451379" />
		<tag k="waterway" v="stream" />
	</node>
	<node id="-78654" lat="62.5391333306" lon="8.95691112043">
		<tag k="name" v="Langtjønna" />
		<tag k="natural" v="water" />
		<tag k="ssr:stedsnr" v="451121" />
	</node>
	<node id="-78651" lat="62.6035305563" lon="8.52198888631">
		<tag k="name" v="Storøya" />
		<tag k="place" v="island" />
		<tag k="ssr:stedsnr" v="450987" />
	</node>
	<node id="-80696" lat="62.5267416673" lon="9.00744443716">
		<tag k="name" v="Lomtjønna" />
		<tag k="natural" v="water" />
		<tag k="ssr:stedsnr" v="207448" />
	</node>
	<node id="-80695" lat="62.6465777807" lon="8.7188111081">
		<tag k="name" v="Svingen" />
		<tag k="place" v="locality" />
		<tag k="ssr:stedsnr" v="207379" />
	</node>
	<node id="-80694" lat="62.6470250041" lon="8.71939999148">
		<tag k="name" v="Teinøya" />
		<tag k="natural" v="cape" />
		<tag k="ssr:stedsnr" v="207378" />
	</node>
	<node id="-78645" lat="62.659280554" lon="8.67353889656">
		<tag k="name" v="Skogbekken" />
		<tag k="ssr:stedsnr" v="451063" />
		<tag k="waterway" v="stream" />
	</node>
	<node id="-80691" lat="62.7899388854" lon="8.52586389019">
		<tag k="name" v="Visetbekken" />
		<tag k="ssr:stedsnr" v="207356" />
		<tag k="waterway" v="stream" />
	</node>
	<node id="-78643" lat="62.5708194476" lon="9.13906388503">
		<tag k="name" v="Lihjellhølen" />
		<tag k="place" v="locality" />
		<tag k="ssr:stedsnr" v="451050" />
	</node>
	<node id="-79325" lat="62.5994944426" lon="8.99671110625">
		<tag k="name" v="Rabb-bekken" />
		<tag k="ssr:stedsnr" v="693309" />
		<tag k="waterway" v="stream" />
	</node>
	<node id="-78633" lat="62.6501222195" lon="8.70683611696">
		<tag k="name" v="Brotatangen" />
		<tag k="natural" v="cape" />
		<tag k="ssr:stedsnr" v="450382" />
	</node>
	<node id="-80675" lat="62.6682666668" lon="8.59921944601">
		<tag k="name" v="Blind-Jo- bekken" />
		<tag k="ssr:stedsnr" v="207127" />
		<tag k="waterway" v="stream" />
	</node>
	<node id="-80668" lat="62.6647416684" lon="8.53517776872">
		<tag k="name" v="Pollbekken" />
		<tag k="ssr:stedsnr" v="206917" />
		<tag k="waterway" v="stream" />
	</node>
	<node id="-80663" lat="62.688013886" lon="8.48509167319">
		<tag k="name" v="Uravollbekken" />
		<tag k="ssr:stedsnr" v="206712" />
		<tag k="waterway" v="stream" />
	</node>
	<node id="-80661" lat="62.6823472215" lon="8.4075083298">
		<tag k="name" v="Halvpundhølen" />
		<tag k="place" v="locality" />
		<tag k="ssr:stedsnr" v="206706" />
	</node>
	<node id="-78611" lat="62.6874833302" lon="8.48606389393">
		<tag k="name" v="Moldstibekken" />
		<tag k="ssr:stedsnr" v="449473" />
		<tag k="waterway" v="stream" />
	</node>
	<node id="-80656" lat="62.8390527801" lon="8.52373611808">
		<tag k="name" v="Hjelldalsbekken" />
		<tag k="ssr:stedsnr" v="206406" />
		<tag k="waterway" v="stream" />
	</node>
	<node id="-80654" lat="62.835497218" lon="8.51724443935">
		<tag k="name" v="Monsøya" />
		<tag k="place" v="island" />
		<tag k="ssr:stedsnr" v="206389" />
	</node>
	<node id="-80649" lat="62.6441416633" lon="8.77614722006">
		<tag k="name" v="Leithølen" />
		<tag k="place" v="locality" />
		<tag k="ssr:stedsnr" v="206306" />
	</node>
	<node id="-80645" lat="62.8282749998" lon="8.52661110807">
		<tag k="name" v="Brekkfossen" />
		<tag k="natural" v="waterfall" />
		<tag k="ssr:stedsnr" v="206261" />
	</node>
	<node id="-80644" lat="62.6327999957" lon="8.84253888836">
		<tag k="name" v="Øvju" />
		<tag k="place" v="locality" />
		<tag k="ssr:stedsnr" v="206256" />
	</node>
	<node id="-79659" lat="62.6683777786" lon="8.62534722512">
		<tag k="name" v="Krakarbekken" />
		<tag k="ssr:stedsnr" v="753103" />
		<tag k="waterway" v="stream" />
	</node>
	<node id="-80639" lat="62.831991668" lon="8.50488611294">
		<tag k="name" v="Vågabekken" />
		<tag k="ssr:stedsnr" v="206196" />
		<tag k="waterway" v="stream" />
	</node>
	<node id="-78584" lat="62.5837138918" lon="8.52308889472">
		<tag k="name" v="Sandbekken" />
		<tag k="ssr:stedsnr" v="446795" />
		<tag k="waterway" v="stream" />
	</node>
	<node id="-78583" lat="62.4714694443" lon="8.51033056394">
		<tag k="name" v="Holtabekken" />
		<tag k="ssr:stedsnr" v="445788" />
		<tag k="waterway" v="stream" />
	</node>
	<node id="-78581" lat="62.7100666687" lon="8.82014999073">
		<tag k="name" v="Fallbekken" />
		<tag k="ssr:stedsnr" v="445750" />
		<tag k="waterway" v="stream" />
	</node>
	<node id="-78577" lat="62.5945499961" lon="8.76399722555">
		<tag k="name" v="Stygghølen" />
		<tag k="place" v="locality" />
		<tag k="ssr:stedsnr" v="208468" />
	</node>
	<node id="-80623" lat="62.5545388892" lon="8.67913056083">
		<tag k="name" v="Hesttjønna" />
		<tag k="natural" v="water" />
		<tag k="ssr:stedsnr" v="203796" />
	</node>
	<node id="-80619" lat="62.7376083332" lon="8.66344723078">
		<tag k="name" v="Røyrøybekken" />
		<tag k="ssr:stedsnr" v="203719" />
		<tag k="waterway" v="stream" />
	</node>
	<node id="-78566" lat="62.5058500031" lon="8.87853333475">
		<tag k="name" v="Holbekken" />
		<tag k="ssr:stedsnr" v="194808" />
		<tag k="waterway" v="stream" />
	</node>
	<node id="-78565" lat="62.7565277775" lon="8.58591110241">
		<tag k="name" v="Klårbekken" />
		<tag k="ssr:stedsnr" v="194437" />
		<tag k="waterway" v="stream" />
	</node>
	<node id="-78561" lat="62.6191388871" lon="8.66363888595">
		<tag k="name" v="Rysskarsvatnet" />
		<tag k="natural" v="water" />
		<tag k="ssr:stedsnr" v="194114" />
	</node>
	<node id="-80607" lat="62.5214388928" lon="8.64302221676">
		<tag k="name" v="Skromla" />
		<tag k="ssr:stedsnr" v="194892" />
		<tag k="waterway" v="stream" />
	</node>
	<node id="-78558" lat="62.5452527804" lon="9.13799444882">
		<tag k="name" v="Gryta" />
		<tag k="ssr:stedsnr" v="194314" />
		<tag k="waterway" v="river" />
	</node>
	<node id="-80605" lat="62.5065361112" lon="8.90890000729">
		<tag k="name" v="Seterbekken" />
		<tag k="ssr:stedsnr" v="194848" />
		<tag k="waterway" v="stream" />
	</node>
	<node id="-80603" lat="62.5730277794" lon="8.87378056467">
		<tag k="name" v="Storhølen" />
		<tag k="place" v="locality" />
		<tag k="ssr:stedsnr" v="194731" />
	</node>
	<node id="-81359" lat="62.7138472217" lon="8.44372223061">
		<tag k="name" v="Stølbekken" />
		<tag k="ssr:stedsnr" v="632111" />
		<tag k="waterway" v="stream" />
	</node>
	<node id="-78548" lat="62.4012250022" lon="8.90420833796">
		<tag k="name" v="Grønliåa" />
		<tag k="ssr:stedsnr" v="193502" />
		<tag k="waterway" v="river" />
	</node>
	<node id="-78547" lat="62.4817555562" lon="8.56758333724">
		<tag k="name" v="Rundtjønna" />
		<tag k="natural" v="water" />
		<tag k="ssr:stedsnr" v="193147" />
	</node>
	<node id="-80594" lat="62.5690694442" lon="8.71082222748">
		<tag k="name" v="Litlvatnet" />
		<tag k="natural" v="water" />
		<tag k="ssr:stedsnr" v="194074" />
	</node>
	<node id="-80593" lat="62.6824222264" lon="8.5767111111">
		<tag k="name" v="Kilurdbekken" />
		<tag k="ssr:stedsnr" v="194053" />
		<tag k="waterway" v="stream" />
	</node>
	<node id="-80591" lat="62.7129000019" lon="8.56197499584">
		<tag k="name" v="Grøvla" />
		<tag k="ssr:stedsnr" v="194194" />
		<tag k="waterway" v="stream" />
	</node>
	<node id="-80590" lat="62.6178388932" lon="8.86496111135">
		<tag k="name" v="Nonsdalsbekken" />
		<tag k="ssr:stedsnr" v="193990" />
		<tag k="waterway" v="stream" />
	</node>
	<node id="-78539" lat="62.8542222235" lon="8.59174721575">
		<tag k="name" v="Hansøybekken" />
		<tag k="ssr:stedsnr" v="282818" />
		<tag k="waterway" v="stream" />
	</node>
	<node id="-80586" lat="62.6436888911" lon="8.99523333029">
		<tag k="name" v="Kråka" />
		<tag k="ssr:stedsnr" v="193944" />
		<tag k="waterway" v="stream" />
	</node>
	<node id="-78537" lat="62.7866916662" lon="8.36323610889">
		<tag k="name" v="Sprelbekken" />
		<tag k="ssr:stedsnr" v="169011" />
		<tag k="waterway" v="stream" />
	</node>
	<node id="-80582" lat="62.6354249982" lon="9.04692777813">
		<tag k="name" v="Indre Grynningsdalsvatnet" />
		<tag k="natural" v="water" />
		<tag k="ssr:stedsnr" v="193938" />
		<tag k="water" v="lake" />
	</node>
	<node id="-80580" lat="62.5413305584" lon="8.91226944603">
		<tag k="name" v="Svøu" />
		<tag k="ssr:stedsnr" v="193782" />
		<tag k="waterway" v="river" />
	</node>
	<node id="-80579" lat="62.5441916626" lon="9.02258333539">
		<tag k="name" v="Mikkeltjønna" />
		<tag k="natural" v="water" />
		<tag k="ssr:stedsnr" v="193771" />
	</node>
	<node id="-80574" lat="62.4689055541" lon="8.91147500734">
		<tag k="name" v="Raudbekken" />
		<tag k="ssr:stedsnr" v="193472" />
		<tag k="waterway" v="stream" />
	</node>
	<node id="-79306" lat="62.8027861105" lon="8.51700278353">
		<tag k="name" v="Langvatnet" />
		<tag k="natural" v="bay" />
		<tag k="ssr:stedsnr" v="692317" />
	</node>
	<node id="-78522" lat="62.5648416687" lon="9.08547500116">
		<tag k="name" v="Skarbekken" />
		<tag k="ssr:stedsnr" v="147403" />
		<tag k="waterway" v="stream" />
	</node>
	<node id="-78521" lat="62.5876277816" lon="8.95949167294">
		<tag k="name" v="Bytbekken" />
		<tag k="ssr:stedsnr" v="147263" />
		<tag k="waterway" v="stream" />
	</node>
	<node id="-80567" lat="62.4451583311" lon="8.5492833267">
		<tag k="name" v="Buktabekken" />
		<tag k="ssr:stedsnr" v="193339" />
		<tag k="waterway" v="stream" />
	</node>
	<node id="-78518" lat="62.5557166622" lon="8.94916110209">
		<tag k="name" v="Gammelseterbekken" />
		<tag k="ssr:stedsnr" v="147123" />
		<tag k="waterway" v="stream" />
	</node>
	<node id="-80564" lat="62.7196611089" lon="8.70039445166">
		<tag k="name" v="Gresjo" />
		<tag k="ssr:stedsnr" v="193191" />
		<tag k="waterway" v="stream" />
	</node>
	<node id="-80560" lat="62.4568249995" lon="8.58659166608">
		<tag k="name" v="Fiskvatnet" />
		<tag k="natural" v="water" />
		<tag k="ssr:stedsnr" v="193167" />
	</node>
	<node id="-78280" lat="62.7541361119" lon="8.61327499477">
		<tag k="name" v="Kvernbekken" />
		<tag k="ssr:stedsnr" v="85710" />
		<tag k="waterway" v="stream" />
	</node>
	<node id="-78507" lat="62.6316222254" lon="8.29231388781">
		<tag k="name" v="Bjørnaøya" />
		<tag k="place" v="island" />
		<tag k="ssr:stedsnr" v="146258" />
	</node>
	<node id="-78504" lat="62.6600694426" lon="8.36931943765">
		<tag k="name" v="Bergemyrsbekken" />
		<tag k="ssr:stedsnr" v="146210" />
		<tag k="waterway" v="stream" />
	</node>
	<node id="-80551" lat="62.4617527804" lon="8.53437778282">
		<tag k="name" v="Holtabekken" />
		<tag k="ssr:stedsnr" v="169669" />
		<tag k="waterway" v="stream" />
	</node>
	<node id="-80548" lat="62.8602472239" lon="8.58720278375">
		<tag k="name" v="Litlbekken" />
		<tag k="ssr:stedsnr" v="161829" />
		<tag k="waterway" v="stream" />
	</node>
	<node id="-79152" lat="62.4142777818" lon="9.15789999121">
		<tag k="name" v="Krokåtbekken" />
		<tag k="ssr:stedsnr" v="678499" />
		<tag k="waterway" v="stream" />
	</node>
	<node id="-78490" lat="62.6674194421" lon="8.40570555319">
		<tag k="name" v="Drivbekken" />
		<tag k="ssr:stedsnr" v="145473" />
		<tag k="waterway" v="stream" />
	</node>
	<node id="-80532" lat="62.7632611103" lon="8.58256943821">
		<tag k="name" v="Skvettarøyholmen" />
		<tag k="place" v="islet" />
		<tag k="ssr:stedsnr" v="147826" />
	</node>
	<node id="-78482" lat="62.5997749982" lon="8.95715000308">
		<tag k="name" v="Kvernabekken" />
		<tag k="ssr:stedsnr" v="141710" />
		<tag k="waterway" v="stream" />
	</node>
	<node id="-78481" lat="62.5413999978" lon="8.88919722928">
		<tag k="name" v="Fremmervatnet" />
		<tag k="natural" v="water" />
		<tag k="ssr:stedsnr" v="141670" />
		<tag k="water" v="lake" />
	</node>
	<node id="-80528" lat="62.62554722" lon="8.84603332466">
		<tag k="name" v="Sandbekken" />
		<tag k="ssr:stedsnr" v="147726" />
		<tag k="waterway" v="stream" />
	</node>
	<node id="-81005" lat="62.6630250015" lon="8.58872500837">
		<tag k="name" v="Prestelva" />
		<tag k="place" v="locality" />
		<tag k="ssr:stedsnr" v="389074" />
	</node>
	<node id="-78475" lat="62.6205305528" lon="8.89115555164">
		<tag k="name" v="Storøra" />
		<tag k="place" v="island" />
		<tag k="ssr:stedsnr" v="269680" />
	</node>
	<node id="-80522" lat="62.6461944448" lon="8.6443583339">
		<tag k="name" v="Oreimsbekkin" />
		<tag k="ssr:stedsnr" v="147444" />
		<tag k="waterway" v="stream" />
	</node>
	<node id="-78472" lat="62.6450416672" lon="8.69537500149">
		<tag k="name" v="Bytbekken" />
		<tag k="ssr:stedsnr" v="269489" />
		<tag k="waterway" v="stream" />
	</node>
	<node id="-78470" lat="62.644863888" lon="8.75811945123">
		<tag k="name" v="Stortjønna" />
		<tag k="natural" v="water" />
		<tag k="ssr:stedsnr" v="269436" />
	</node>
	<node id="-80516" lat="62.5363944478" lon="8.9895194415">
		<tag k="name" v="Skarbekken" />
		<tag k="ssr:stedsnr" v="147099" />
		<tag k="waterway" v="stream" />
	</node>
	<node id="-80514" lat="62.7093083291" lon="8.41991388084">
		<tag k="name" v="Leirbekken" />
		<tag k="ssr:stedsnr" v="147079" />
		<tag k="waterway" v="stream" />
	</node>
	<node id="-78465" lat="62.6462388893" lon="8.64837778029">
		<tag k="name" v="Breiåa" />
		<tag k="ssr:stedsnr" v="269476" />
		<tag k="waterway" v="stream" />
	</node>
	<node id="-80512" lat="62.7056666681" lon="8.44548611122">
		<tag k="name" v="Svartbekken" />
		<tag k="ssr:stedsnr" v="147071" />
		<tag k="waterway" v="stream" />
	</node>
	<node id="-78462" lat="62.6412305536" lon="8.82943054839">
		<tag k="name" v="Dalabekken" />
		<tag k="ssr:stedsnr" v="269285" />
		<tag k="waterway" v="stream" />
	</node>
	<node id="-78461" lat="62.5772972181" lon="9.1405111166">
		<tag k="name" v="Hyllbergbekken" />
		<tag k="ssr:stedsnr" v="269049" />
		<tag k="waterway" v="stream" />
	</node>
	<node id="-78459" lat="62.7502499981" lon="8.37759167406">
		<tag k="name" v="Svabekken" />
		<tag k="ssr:stedsnr" v="268935" />
		<tag k="waterway" v="stream" />
	</node>
	<node id="-79742" lat="62.5121416654" lon="9.12990555536">
		<tag k="name" v="Svarthaugvatna" />
		<tag k="natural" v="water" />
		<tag k="ssr:stedsnr" v="922799" />
	</node>
	<node id="-78457" lat="62.7863222219" lon="8.50609721884">
		<tag k="name" v="Steingrimholmen" />
		<tag k="place" v="islet" />
		<tag k="ssr:stedsnr" v="268596" />
	</node>
	<node id="-78456" lat="62.6142638896" lon="8.93041667327">
		<tag k="name" v="Tromburbekken" />
		<tag k="ssr:stedsnr" v="268573" />
		<tag k="waterway" v="stream" />
	</node>
	<node id="-78455" lat="62.6031666632" lon="8.91633056359">
		<tag k="name" v="Litlgrøvla" />
		<tag k="ssr:stedsnr" v="268531" />
		<tag k="waterway" v="stream" />
	</node>
	<node id="-78953" lat="62.6652111074" lon="8.63166388147">
		<tag k="name" v="Banurbekken" />
		<tag k="ssr:stedsnr" v="389172" />
		<tag k="waterway" v="stream" />
	</node>
	<node id="-78449" lat="62.5954722202" lon="8.98882222539">
		<tag k="name" v="Flønet" />
		<tag k="ssr:stedsnr" v="268294" />
		<tag k="waterway" v="rapids" />
	</node>
	<node id="-80496" lat="62.5117916647" lon="8.96361388693">
		<tag k="name" v="Storbekken" />
		<tag k="ssr:stedsnr" v="146494" />
		<tag k="waterway" v="stream" />
	</node>
	<node id="-80494" lat="62.6191694486" lon="8.91690555055">
		<tag k="name" v="Øster landlaupbekken" />
		<tag k="ssr:stedsnr" v="146529" />
		<tag k="waterway" v="stream" />
	</node>
	<node id="-80490" lat="62.7697194487" lon="8.48844999589">
		<tag k="name" v="Seterbekken" />
		<tag k="ssr:stedsnr" v="146446" />
		<tag k="waterway" v="stream" />
	</node>
	<node id="-80489" lat="62.5277416646" lon="9.0208277766">
		<tag k="name" v="Tverrgardsbekken" />
		<tag k="ssr:stedsnr" v="146440" />
		<tag k="waterway" v="stream" />
	</node>
	<node id="-78438" lat="62.6770694474" lon="8.35343888577">
		<tag k="name" v="Skrøobekken" />
		<tag k="ssr:stedsnr" v="268173" />
		<tag k="waterway" v="stream" />
	</node>
	<node id="-78437" lat="62.7379944404" lon="8.39334166682">
		<tag k="name" v="Ytre Gryta" />
		<tag k="ssr:stedsnr" v="268043" />
		<tag k="waterway" v="stream" />
	</node>
	<node id="-78434" lat="62.659075" lon="8.66475833759">
		<tag k="name" v="Kalvskrubekken" />
		<tag k="ssr:stedsnr" v="268099" />
		<tag k="waterway" v="stream" />
	</node>
	<node id="-80478" lat="62.7185861145" lon="8.41644444921">
		<tag k="name" v="Brennvinsbekken" />
		<tag k="ssr:stedsnr" v="146013" />
		<tag k="waterway" v="stream" />
	</node>
	<node id="-80477" lat="62.7451138847" lon="8.63212499644">
		<tag k="name" v="Austistubekken" />
		<tag k="ssr:stedsnr" v="145724" />
		<tag k="waterway" v="stream" />
	</node>
	<node id="-78424" lat="62.81157222" lon="8.50533610894">
		<tag k="name" v="Kvernhusøya" />
		<tag k="place" v="island" />
		<tag k="ssr:stedsnr" v="267546" />
	</node>
	<node id="-80470" lat="62.8186083349" lon="8.4879861081">
		<tag k="name" v="Litlvatnet" />
		<tag k="natural" v="water" />
		<tag k="ssr:stedsnr" v="145380" />
	</node>
	<node id="-78416" lat="62.6471305511" lon="8.79804444631">
		<tag k="name" v="Osparåbekken" />
		<tag k="ssr:stedsnr" v="267290" />
		<tag k="waterway" v="stream" />
	</node>
	<node id="-78946" lat="62.6640361143" lon="8.33858611471">
		<tag k="name" v="Jonsbekken" />
		<tag k="ssr:stedsnr" v="389214" />
		<tag k="waterway" v="stream" />
	</node>
	<node id="-78263" lat="62.8432916706" lon="8.43402777066">
		<tag k="name" v="Seterbekken" />
		<tag k="ssr:stedsnr" v="85011" />
		<tag k="waterway" v="stream" />
	</node>
	<node id="-78406" lat="62.8453000026" lon="8.5234694449">
		<tag k="name" v="Lykkjebekken" />
		<tag k="ssr:stedsnr" v="267225" />
		<tag k="waterway" v="stream" />
	</node>
	<node id="-78404" lat="62.6413166679" lon="8.82459443688">
		<tag k="name" v="Tungbekken" />
		<tag k="ssr:stedsnr" v="267210" />
		<tag k="waterway" v="stream" />
	</node>
	<node id="-80449" lat="62.5930499979" lon="8.38468610244">
		<tag k="name" v="Kleivtjønna" />
		<tag k="natural" v="water" />
		<tag k="ssr:stedsnr" v="142821" />
	</node>
	<node id="-80446" lat="62.4309138907" lon="8.81408055847">
		<tag k="name" v="Svarthammaråa" />
		<tag k="ssr:stedsnr" v="142812" />
		<tag k="waterway" v="stream" />
	</node>
	<node id="-80445" lat="62.5341083355" lon="8.45780833352">
		<tag k="name" v="Reinsvasselva" />
		<tag k="ssr:stedsnr" v="142805" />
		<tag k="waterway" v="river" />
	</node>
	<node id="-78396" lat="62.6721694426" lon="8.70025000167">
		<tag k="alt_name" v="Skorgvatnet" />
		<tag k="name" v="Grønvatnet" />
		<tag k="natural" v="water" />
		<tag k="ssr:stedsnr" v="133004" />
	</node>
	<node id="-80443" lat="62.4066416687" lon="8.78907499537">
		<tag k="name" v="Søre Langtjønna" />
		<tag k="natural" v="water" />
		<tag k="ssr:stedsnr" v="142799" />
	</node>
	<node id="-78391" lat="62.5567333353" lon="8.96569167225">
		<tag k="name" v="Breibekken" />
		<tag k="ssr:stedsnr" v="132807" />
		<tag k="waterway" v="stream" />
	</node>
	<node id="-78389" lat="62.6476833344" lon="8.91248056487">
		<tag k="name" v="Grytvatnet" />
		<tag k="natural" v="water" />
		<tag k="ssr:stedsnr" v="132948" />
		<tag k="water" v="lake" />
	</node>
	<node id="-78388" lat="62.6455138895" lon="8.81120278163">
		<tag k="name" v="Røyhjellbekken" />
		<tag k="ssr:stedsnr" v="132946" />
		<tag k="waterway" v="stream" />
	</node>
	<node id="-80747" lat="62.5763277797" lon="9.05171945051">
		<tag k="name" v="Seksvøkubekken" />
		<tag k="ssr:stedsnr" v="209136" />
		<tag k="waterway" v="stream" />
	</node>
	<node id="-80428" lat="62.5821585123" lon="9.13720299409">
		<tag k="name" v="Vadbekken" />
		<tag k="ssr:stedsnr" v="133766" />
		<tag k="waterway" v="stream" />
	</node>
	<node id="-78379" lat="62.4335388848" lon="8.85661389216">
		<tag k="name" v="Åskjeåa" />
		<tag k="ssr:stedsnr" v="132422" />
		<tag k="waterway" v="stream" />
	</node>
	<node id="-78378" lat="62.4402777777" lon="9.14505555647">
		<tag k="name" v="Storvatnet" />
		<tag k="natural" v="water" />
		<tag k="ssr:stedsnr" v="132419" />
		<tag k="water" v="lake" />
	</node>
	<node id="-80424" lat="62.5646166687" lon="8.75680834179">
		<tag k="name" v="Sandremvatna" />
		<tag k="natural" v="water" />
		<tag k="ssr:stedsnr" v="133747" />
		<tag k="water" v="lake" />
	</node>
	<node id="-80423" lat="62.822313887" lon="8.48106110588">
		<tag k="fixme" v="multiple name tags, choose one and add the other to alt_name" />
		<tag k="name" v="Ålvvatna;Ålvvatnet" />
		<tag k="natural" v="water" />
		<tag k="ssr:stedsnr" v="133281" />
		<tag k="water" v="lake" />
	</node>
	<node id="-80422" lat="62.7723250031" lon="8.45410000927">
		<tag k="name" v="Storvatnet" />
		<tag k="natural" v="water" />
		<tag k="ssr:stedsnr" v="133353" />
	</node>
	<node id="-80420" lat="62.7848888897" lon="8.4513388968">
		<tag k="name" v="Nebbvatnet" />
		<tag k="natural" v="water" />
		<tag k="ssr:stedsnr" v="133348" />
	</node>
	<node id="-80419" lat="62.784599998" lon="8.59284721982">
		<tag k="name" v="Kjerringvatnet" />
		<tag k="natural" v="water" />
		<tag k="ssr:stedsnr" v="133346" />
	</node>
	<node id="-78370" lat="62.8393694406" lon="8.39934166315">
		<tag k="name" v="Vassenden" />
		<tag k="natural" v="bay" />
		<tag k="ssr:stedsnr" v="267003" />
	</node>
	<node id="-80416" lat="62.7477722189" lon="8.69210277755">
		<tag k="name" v="Sagbekken" />
		<tag k="ssr:stedsnr" v="133225" />
		<tag k="waterway" v="stream" />
	</node>
	<node id="-80415" lat="62.6281777812" lon="8.42179721241">
		<tag k="name" v="Gaudalsvatnet" />
		<tag k="natural" v="water" />
		<tag k="ssr:stedsnr" v="133099" />
	</node>
	<node id="-80410" lat="62.6066416699" lon="8.73765277398">
		<tag k="name" v="Dalavatnet" />
		<tag k="natural" v="water" />
		<tag k="ssr:stedsnr" v="132987" />
	</node>
	<node id="-78355" lat="62.42334444" lon="8.62244999645">
		<tag k="name" v="Litlkrøsa" />
		<tag k="ssr:stedsnr" v="263769" />
		<tag k="waterway" v="stream" />
	</node>
	<node id="-78354" lat="62.5729861088" lon="8.84940833222">
		<tag k="fixme" v="multiple name tags, choose one and add the other to alt_name" />
		<tag k="name" v="Kvannåa;Sprekkelåa" />
		<tag k="ssr:stedsnr" v="263751" />
		<tag k="waterway" v="stream" />
	</node>
	<node id="-80400" lat="62.7191166683" lon="8.47701944128">
		<tag k="name" v="Raudbergbekken" />
		<tag k="ssr:stedsnr" v="132180" />
		<tag k="waterway" v="stream" />
	</node>
	<node id="-80393" lat="62.5002805568" lon="8.49627222872">
		<tag k="name" v="Osbumagasinet" />
		<tag k="ssr:stedsnr" v="117498" />
		<tag k="waterway" v="dam" />
	</node>
	<node id="-78344" lat="62.7827749994" lon="8.39973888211">
		<tag k="name" v="Tjuvdalsbekken" />
		<tag k="ssr:stedsnr" v="255393" />
		<tag k="waterway" v="stream" />
	</node>
	<node id="-78647" lat="62.5741250044" lon="9.14298055291">
		<tag k="name" v="Svarthølen" />
		<tag k="place" v="locality" />
		<tag k="ssr:stedsnr" v="451067" />
	</node>
	<node id="-78593" lat="62.5052305523" lon="8.96632222553">
		<tag k="name" v="Storlykkjebekken" />
		<tag k="ssr:stedsnr" v="449049" />
		<tag k="waterway" v="stream" />
	</node>
	<node id="-78338" lat="62.845341665" lon="8.44887499196">
		<tag k="name" v="Sessbøelva" />
		<tag k="ssr:stedsnr" v="255346" />
		<tag k="waterway" v="stream" />
	</node>
	<node id="-80385" lat="62.8526666712" lon="8.59420556313">
		<tag k="name" v="Skrøobekken" />
		<tag k="ssr:stedsnr" v="100807" />
		<tag k="waterway" v="stream" />
	</node>
	<node id="-78336" lat="62.6468277795" lon="8.80283611053">
		<tag k="name" v="Kviturbekken" />
		<tag k="ssr:stedsnr" v="254940" />
		<tag k="waterway" v="stream" />
	</node>
	<node id="-80382" lat="62.8488499968" lon="8.59704722207">
		<tag k="name" v="Elva" />
		<tag k="ssr:stedsnr" v="100791" />
		<tag k="waterway" v="river" />
	</node>
	<node id="-80381" lat="62.5724694467" lon="9.0648611148">
		<tag k="name" v="Seljerunnbekken" />
		<tag k="ssr:stedsnr" v="88097" />
		<tag k="waterway" v="stream" />
	</node>
	<node id="-78332" lat="62.5321499956" lon="9.12424167451">
		<tag k="name" v="Gammelseterbekken" />
		<tag k="ssr:stedsnr" v="254798" />
		<tag k="waterway" v="stream" />
	</node>
	<node id="-80378" lat="62.7583555557" lon="8.29307221895">
		<tag k="name" v="Tverrelva" />
		<tag k="ssr:stedsnr" v="87960" />
		<tag k="waterway" v="river" />
	</node>
	<node id="-78591" lat="62.8322888857" lon="8.4442749932">
		<tag k="name" v="Øvre Storhølen" />
		<tag k="place" v="locality" />
		<tag k="ssr:stedsnr" v="449038" />
	</node>
	<node id="-80374" lat="62.6327777795" lon="8.53268333917">
		<tag k="name" v="Øygardskvislin" />
		<tag k="ssr:stedsnr" v="87919" />
		<tag k="waterway" v="stream" />
	</node>
	<node id="-78325" lat="62.6120277809" lon="8.65545833125">
		<tag k="name" v="Serkjedalsvatnet" />
		<tag k="natural" v="water" />
		<tag k="ssr:stedsnr" v="254093" />
		<tag k="water" v="lake" />
	</node>
	<node id="-80369" lat="62.6237972254" lon="8.5310027697">
		<tag k="name" v="Øya" />
		<tag k="place" v="island" />
		<tag k="ssr:stedsnr" v="87818" />
	</node>
	<node id="-78320" lat="62.3830805571" lon="8.68359166374">
		<tag k="name" v="Skjellbreia" />
		<tag k="ssr:stedsnr" v="254333" />
		<tag k="waterway" v="river" />
	</node>
	<node id="-78319" lat="62.6007194478" lon="8.99122499649">
		<tag k="name" v="Otta" />
		<tag k="ssr:stedsnr" v="254327" />
		<tag k="waterway" v="river" />
	</node>
	<node id="-80364" lat="62.6511083299" lon="8.65089444088">
		<tag k="name" v="Landstøa" />
		<tag k="natural" v="cape" />
		<tag k="ssr:stedsnr" v="87464" />
	</node>
	<node id="-78313" lat="62.6552638912" lon="8.32303889173">
		<tag k="name" v="Litlelva" />
		<tag k="ssr:stedsnr" v="254011" />
		<tag k="waterway" v="stream" />
	</node>
	<node id="-78646" lat="62.5723444474" lon="9.14900278651">
		<tag k="name" v="Langsvaet" />
		<tag k="ssr:stedsnr" v="451064" />
		<tag k="waterway" v="rapids" />
	</node>
	<node id="-78310" lat="62.4653916647" lon="8.73753056022">
		<tag k="name" v="Storglupvatnet" />
		<tag k="natural" v="water" />
		<tag k="ssr:stedsnr" v="253498" />
		<tag k="water" v="lake" />
	</node>
	<node id="-78307" lat="62.480483336" lon="8.53265000514">
		<tag k="name" v="Langvatnet" />
		<tag k="natural" v="water" />
		<tag k="ssr:stedsnr" v="253206" />
		<tag k="water" v="lake" />
	</node>
	<node id="-80354" lat="62.508322225" lon="9.04295000662">
		<tag k="name" v="Holbekken" />
		<tag k="ssr:stedsnr" v="87656" />
		<tag k="waterway" v="stream" />
	</node>
	<node id="-78302" lat="62.490502778" lon="9.07627499954">
		<tag k="name" v="Inder Lokkarbekken" />
		<tag k="ssr:stedsnr" v="87727" />
		<tag k="waterway" v="stream" />
	</node>
	<node id="-79610" lat="62.5298361105" lon="9.08438611668">
		<tag k="name" v="Ålmenningsøya" />
		<tag k="place" v="island" />
		<tag k="ssr:stedsnr" v="694464" />
	</node>
	<node id="-80346" lat="62.5715000018" lon="9.15579166471">
		<tag k="name" v="Gråurhølen" />
		<tag k="place" v="locality" />
		<tag k="ssr:stedsnr" v="87056" />
	</node>
	<node id="-80345" lat="62.6602888933" lon="8.68148888028">
		<tag k="name" v="Hjellabekken" />
		<tag k="ssr:stedsnr" v="87053" />
		<tag k="waterway" v="stream" />
	</node>
	<node id="-80339" lat="62.6158416655" lon="8.85338332425">
		<tag k="name" v="Røtdalen" />
		<tag k="ssr:stedsnr" v="86696" />
		<tag k="waterway" v="river" />
	</node>
	<node id="-78243" lat="62.4473194488" lon="8.88933332439">
		<tag k="name" v="Indre Tverråa" />
		<tag k="ssr:stedsnr" v="72425" />
		<tag k="waterway" v="stream" />
	</node>
	<node id="-80336" lat="62.616741671" lon="8.92547500768">
		<tag k="name" v="Veitbekken" />
		<tag k="ssr:stedsnr" v="86580" />
		<tag k="waterway" v="stream" />
	</node>
	<node id="-80328" lat="62.5901861085" lon="8.98678888492">
		<tag k="name" v="Dyrurrabbgrova" />
		<tag k="ssr:stedsnr" v="86280" />
		<tag k="waterway" v="stream" />
	</node>
	<node id="-78279" lat="62.5004527769" lon="8.93840278006">
		<tag k="name" v="Kvitbekken" />
		<tag k="ssr:stedsnr" v="85470" />
		<tag k="waterway" v="stream" />
	</node>
	<node id="-78265" lat="62.5280833347" lon="8.99880833832">
		<tag k="name" v="Olderøya" />
		<tag k="place" v="island" />
		<tag k="ssr:stedsnr" v="85064" />
	</node>
	<node id="-79604" lat="62.5535777737" lon="9.12613055367">
		<tag k="name" v="Litldriva" />
		<tag k="ssr:stedsnr" v="694222" />
		<tag k="waterway" v="stream" />
	</node>
	<node id="-78258" lat="62.5568277745" lon="8.53518888344">
		<tag k="name" v="Tågløypsvatna" />
		<tag k="natural" v="water" />
		<tag k="ssr:stedsnr" v="82803" />
		<tag k="water" v="lake" />
	</node>
	<node id="-78257" lat="62.4382166702" lon="8.98062500302">
		<tag k="name" v="Kvitådalstjønnin" />
		<tag k="natural" v="water" />
		<tag k="ssr:stedsnr" v="82270" />
	</node>
	<node id="-78253" lat="62.5050166707" lon="9.19726389497">
		<tag k="name" v="Linndalsvatna" />
		<tag k="natural" v="water" />
		<tag k="ssr:stedsnr" v="72846" />
	</node>
	<node id="-78245" lat="62.5784972263" lon="9.13591110506">
		<tag k="name" v="Erga" />
		<tag k="ssr:stedsnr" v="72742" />
		<tag k="waterway" v="river" />
	</node>
	<node id="-78918" lat="62.4232333371" lon="8.58372499117">
		<tag k="name" v="Klokkarholmen" />
		<tag k="place" v="islet" />
		<tag k="ssr:stedsnr" v="384765" />
	</node>
	<node id="-78238" lat="62.6671055519" lon="8.37750832671">
		<tag k="name" v="Ljøsåa" />
		<tag k="ssr:stedsnr" v="72030" />
		<tag k="waterway" v="river" />
	</node>
	<node id="-78237" lat="62.6487250043" lon="8.6169055602">
		<tag k="name" v="Hareima" />
		<tag k="ssr:stedsnr" v="72027" />
		<tag k="waterway" v="stream" />
	</node>
	<node id="-80283" lat="62.505608337" lon="8.98798611538">
		<tag k="name" v="Liabekken" />
		<tag k="ssr:stedsnr" v="85039" />
		<tag k="waterway" v="stream" />
	</node>
	<node id="-78230" lat="62.8389527812" lon="8.60698055296">
		<tag k="name" v="Almbergsbekken" />
		<tag k="ssr:stedsnr" v="239892" />
		<tag k="waterway" v="stream" />
	</node>
	<node id="-78225" lat="62.6059888899" lon="8.91497778207">
		<tag k="name" v="Storgrøvla" />
		<tag k="ssr:stedsnr" v="26524" />
		<tag k="waterway" v="river" />
	</node>
	<node id="-80270" lat="62.4651111134" lon="8.89723888772">
		<tag k="name" v="Raudbekkjetjønna" />
		<tag k="natural" v="water" />
		<tag k="ssr:stedsnr" v="81819" />
	</node>
	<node id="-78221" lat="62.6206916697" lon="8.89842499294">
		<tag k="name" v="Massgrova" />
		<tag k="ssr:stedsnr" v="26637" />
		<tag k="waterway" v="stream" />
	</node>
	<node id="-78216" lat="62.7508472235" lon="8.35788611296">
		<tag k="name" v="Innerelva" />
		<tag k="ssr:stedsnr" v="25913" />
		<tag k="waterway" v="stream" />
	</node>
	<node id="-80262" lat="62.6904000039" lon="8.89255000742">
		<tag k="name" v="Storfalla" />
		<tag k="ssr:stedsnr" v="81713" />
		<tag k="waterway" v="rapids" />
	</node>
	<node id="-80259" lat="62.5569722181" lon="9.06153333675">
		<tag k="name" v="Storsea" />
		<tag k="ssr:stedsnr" v="81305" />
		<tag k="waterway" v="stream" />
	</node>
	<node id="-80258" lat="62.4695500042" lon="8.84486666044">
		<tag k="name" v="Merraskartjønna" />
		<tag k="natural" v="water" />
		<tag k="ssr:stedsnr" v="81302" />
	</node>
	<node id="-78209" lat="62.6578861114" lon="8.35283611579">
		<tag k="name" v="Kjerringøya" />
		<tag k="place" v="island" />
		<tag k="ssr:stedsnr" v="25236" />
	</node>
	<node id="-78206" lat="62.7197777765" lon="8.41949444099">
		<tag k="name" v="Osen" />
		<tag k="natural" v="bay" />
		<tag k="ssr:stedsnr" v="25010" />
	</node>
	<node id="-80251" lat="62.6673722219" lon="8.579405563">
		<tag k="name" v="Driva" />
		<tag k="ssr:stedsnr" v="73357" />
		<tag k="waterway" v="river" />
	</node>
	<node id="-80250" lat="62.5293111068" lon="8.8066638876">
		<tag k="name" v="Storvatnet" />
		<tag k="natural" v="water" />
		<tag k="ssr:stedsnr" v="73352" />
		<tag k="water" v="lake" />
	</node>
	<node id="-80249" lat="62.8161388853" lon="8.50319722448">
		<tag k="name" v="Krokåa" />
		<tag k="ssr:stedsnr" v="73420" />
		<tag k="waterway" v="stream" />
	</node>
	<node id="-80248" lat="62.6170499989" lon="9.03904999027">
		<tag k="name" v="Fremre Grynningsdalsvatnet" />
		<tag k="natural" v="water" />
		<tag k="ssr:stedsnr" v="72988" />
		<tag k="water" v="lake" />
	</node>
	<node id="-80247" lat="62.6119277791" lon="9.0953499904">
		<tag k="name" v="Tverrbekken" />
		<tag k="ssr:stedsnr" v="72980" />
		<tag k="waterway" v="stream" />
	</node>
	<node id="-80245" lat="62.6474972255" lon="8.78931389362">
		<tag k="name" v="Lauvåa" />
		<tag k="ssr:stedsnr" v="72952" />
		<tag k="waterway" v="stream" />
	</node>
	<node id="-78194" lat="62.5093111091" lon="9.21211388284">
		<tag k="name" v="Kvitbekken" />
		<tag k="ssr:stedsnr" v="225305" />
		<tag k="waterway" v="stream" />
	</node>
	<node id="-80241" lat="62.5784888933" lon="8.84023333018">
		<tag k="name" v="Grøa" />
		<tag k="ssr:stedsnr" v="72932" />
		<tag k="waterway" v="river" />
	</node>
	<node id="-78192" lat="62.5660666697" lon="8.62258889001">
		<tag k="name" v="Storhårbårvatnet" />
		<tag k="natural" v="water" />
		<tag k="ssr:stedsnr" v="21804" />
		<tag k="water" v="lake" />
	</node>
	<node id="-80239" lat="62.5054999981" lon="8.75402778171">
		<tag k="name" v="Langrandåin" />
		<tag k="ssr:stedsnr" v="72797" />
		<tag k="waterway" v="stream" />
	</node>
	<node id="-80238" lat="62.5337166671" lon="9.13568333813">
		<tag k="name" v="Kvernbekken" />
		<tag k="ssr:stedsnr" v="72793" />
		<tag k="waterway" v="stream" />
	</node>
	<node id="-78187" lat="62.4991527743" lon="9.09956389007">
		<tag k="name" v="Linndøla" />
		<tag k="ssr:stedsnr" v="12846" />
		<tag k="waterway" v="river" />
	</node>
	<node id="-78186" lat="62.5061555522" lon="8.85259999634">
		<tag k="name" v="Hyllbekken" />
		<tag k="ssr:stedsnr" v="12811" />
		<tag k="waterway" v="stream" />
	</node>
	<node id="-78184" lat="62.6337249971" lon="8.39002221972">
		<tag k="name" v="Ljøsåvatnet" />
		<tag k="natural" v="water" />
		<tag k="ssr:stedsnr" v="12112" />
	</node>
	<node id="-78177" lat="62.4185499981" lon="8.64109443609">
		<tag k="name" v="Krøsa" />
		<tag k="ssr:stedsnr" v="11305" />
		<tag k="waterway" v="stream" />
	</node>
	<node id="-80224" lat="62.7368444451" lon="8.69818610788">
		<tag k="name" v="Øyan" />
		<tag k="place" v="islet" />
		<tag k="ssr:stedsnr" v="72233" />
	</node>
	<node id="-80220" lat="62.5421694406" lon="8.48666111413">
		<tag k="name" v="Hallarvatnet" />
		<tag k="natural" v="water" />
		<tag k="ssr:stedsnr" v="72088" />
	</node>
	<node id="-80217" lat="62.56463333" lon="8.66600556077">
		<tag k="name" v="Svartvatnet" />
		<tag k="natural" v="water" />
		<tag k="ssr:stedsnr" v="72073" />
	</node>
	<node id="-80216" lat="62.5543055543" lon="8.49166389179">
		<tag k="name" v="Sandvatnet" />
		<tag k="natural" v="water" />
		<tag k="ssr:stedsnr" v="72070" />
	</node>
	<node id="-80212" lat="62.6069416705" lon="8.31105000187">
		<tag k="name" v="Usma" />
		<tag k="ssr:stedsnr" v="72042" />
		<tag k="waterway" v="river" />
	</node>
	<node id="-80199" lat="62.5106833294" lon="9.04263333552">
		<tag k="name" v="Johanslibekken" />
		<tag k="ssr:stedsnr" v="27689" />
		<tag k="waterway" v="stream" />
	</node>
	<node id="-80197" lat="62.4968222203" lon="8.98837222051">
		<tag k="name" v="Litllandlaupbekken" />
		<tag k="ssr:stedsnr" v="27639" />
		<tag k="waterway" v="stream" />
	</node>
	<node id="-80196" lat="62.5413972214" lon="9.10119166675">
		<tag k="name" v="Tytingøya" />
		<tag k="place" v="island" />
		<tag k="ssr:stedsnr" v="27497" />
	</node>
	<node id="-80193" lat="62.5735111139" lon="9.04229999573">
		<tag k="name" v="Hagaøya" />
		<tag k="place" v="island" />
		<tag k="ssr:stedsnr" v="27159" />
	</node>
	<node id="-80191" lat="62.6022833349" lon="8.5217888888">
		<tag k="name" v="Kvamhølen" />
		<tag k="place" v="locality" />
		<tag k="ssr:stedsnr" v="26966" />
	</node>
	<node id="-80949" lat="62.5169277753" lon="8.7222611058">
		<tag k="name" v="Blekbuvatnet" />
		<tag k="natural" v="water" />
		<tag k="ssr:stedsnr" v="384736" />
		<tag k="water" v="lake" />
	</node>
	<node id="-80188" lat="62.7603944411" lon="8.30960556369">
		<tag k="name" v="Bruøya" />
		<tag k="place" v="island" />
		<tag k="ssr:stedsnr" v="26953" />
	</node>
	<node id="-80186" lat="62.6052222209" lon="8.51426665985">
		<tag k="name" v="Storsletthammarbekken" />
		<tag k="ssr:stedsnr" v="26867" />
		<tag k="waterway" v="stream" />
	</node>
	<node id="-80177" lat="62.4972250025" lon="9.03459723158">
		<tag k="name" v="Djupdalsbekken" />
		<tag k="ssr:stedsnr" v="26677" />
		<tag k="waterway" v="stream" />
	</node>
	<node id="-80176" lat="62.6443194432" lon="8.68501666323">
		<tag k="name" v="Slipsteinbekken" />
		<tag k="ssr:stedsnr" v="26490" />
		<tag k="waterway" v="stream" />
	</node>
	<node id="-80171" lat="62.5496361091" lon="9.09753889711">
		<tag k="name" v="Stavhølen" />
		<tag k="place" v="locality" />
		<tag k="ssr:stedsnr" v="26399" />
	</node>
	<node id="-80170" lat="62.6363777804" lon="8.8082472224">
		<tag k="name" v="Muren" />
		<tag k="place" v="locality" />
		<tag k="ssr:stedsnr" v="26380" />
	</node>
	<node id="-80169" lat="62.6368333303" lon="8.80310834111">
		<tag k="name" v="Lyshølen" />
		<tag k="place" v="locality" />
		<tag k="ssr:stedsnr" v="26379" />
	</node>
	<node id="-80167" lat="62.6459277785" lon="8.8075250021">
		<tag k="name" v="Slættbekken" />
		<tag k="ssr:stedsnr" v="26371" />
		<tag k="waterway" v="stream" />
	</node>
	<node id="-78214" lat="62.5135583298" lon="8.96820833147">
		<tag k="name" v="Heimer Bekken" />
		<tag k="ssr:stedsnr" v="25510" />
		<tag k="waterway" v="stream" />
	</node>
	<node id="-78844" lat="62.4733999988" lon="8.48640555334">
		<tag k="name" v="Stabburselva" />
		<tag k="ssr:stedsnr" v="496167" />
		<tag k="waterway" v="stream" />
	</node>
	<node id="-78555" lat="62.6810499991" lon="8.9411944426">
		<tag k="name" v="Medskarvatnet" />
		<tag k="natural" v="water" />
		<tag k="ssr:stedsnr" v="193905" />
	</node>
	<node id="-80157" lat="62.5702861145" lon="9.13442221947">
		<tag k="name" v="Storøya" />
		<tag k="place" v="island" />
		<tag k="ssr:stedsnr" v="26051" />
	</node>
	<node id="-79578" lat="62.586786111" lon="9.02155555982">
		<tag k="name" v="Setungbekken" />
		<tag k="ssr:stedsnr" v="693217" />
		<tag k="waterway" v="stream" />
	</node>
	<node id="-79236" lat="62.7728749976" lon="8.42205555521">
		<tag k="name" v="Seterbekken" />
		<tag k="ssr:stedsnr" v="510532" />
		<tag k="waterway" v="stream" />
	</node>
	<node id="-80149" lat="62.6991888903" lon="8.49018611155">
		<tag k="name" v="Steinabekken" />
		<tag k="ssr:stedsnr" v="26123" />
		<tag k="waterway" v="stream" />
	</node>
	<node id="-80144" lat="62.7999055576" lon="8.49527500262">
		<tag k="name" v="Fossøya" />
		<tag k="place" v="island" />
		<tag k="ssr:stedsnr" v="25616" />
	</node>
	<node id="-79576" lat="62.6584277738" lon="8.69590555285">
		<tag k="name" v="Breiurbekken" />
		<tag k="ssr:stedsnr" v="693071" />
		<tag k="waterway" v="stream" />
	</node>
	<node id="-78210" lat="62.6643666703" lon="8.35971666351">
		<tag k="name" v="Øyan" />
		<tag k="place" v="island" />
		<tag k="ssr:stedsnr" v="25242" />
	</node>
	<node id="-80134" lat="62.7632611068" lon="8.50115276874">
		<tag k="name" v="Mørkdalsbekken" />
		<tag k="ssr:stedsnr" v="25476" />
		<tag k="waterway" v="stream" />
	</node>
	<node id="-80129" lat="62.5030083294" lon="8.95711944679">
		<tag k="name" v="Bjørnabekken" />
		<tag k="ssr:stedsnr" v="25056" />
		<tag k="waterway" v="stream" />
	</node>
	<node id="-80124" lat="62.6590777796" lon="8.52900555726">
		<tag k="name" v="Kvennhusneset" />
		<tag k="natural" v="cape" />
		<tag k="ssr:stedsnr" v="24897" />
	</node>
	<node id="-80120" lat="62.6255833366" lon="8.86261667599">
		<tag k="name" v="Røthølen" />
		<tag k="place" v="locality" />
		<tag k="ssr:stedsnr" v="24687" />
	</node>
	<node id="-80116" lat="62.8355722195" lon="8.53366943836">
		<tag k="name" v="Lauvåbekken" />
		<tag k="ssr:stedsnr" v="24461" />
		<tag k="waterway" v="stream" />
	</node>
	<node id="-80114" lat="62.5084750042" lon="8.96714167518">
		<tag k="name" v="Slættbekken" />
		<tag k="ssr:stedsnr" v="24570" />
		<tag k="waterway" v="stream" />
	</node>
	<node id="-80106" lat="62.534899996" lon="8.98867222488">
		<tag k="name" v="Støgubekken" />
		<tag k="ssr:stedsnr" v="24085" />
		<tag k="waterway" v="stream" />
	</node>
	<node id="-78886" lat="62.5688694424" lon="8.90818611778">
		<tag k="name" v="Klokkarvatnet" />
		<tag k="natural" v="water" />
		<tag k="ssr:stedsnr" v="497791" />
		<tag k="water" v="lake" />
	</node>
	<node id="-78202" lat="62.657658333" lon="8.52170556368">
		<tag k="name" v="Reinåa" />
		<tag k="ssr:stedsnr" v="24538" />
		<tag k="waterway" v="stream" />
	</node>
	<node id="-78543" lat="62.5084555591" lon="8.47850555914">
		<tag k="name" v="Osbudammen" />
		<tag k="ssr:stedsnr" v="177509" />
		<tag k="waterway" v="dam" />
	</node>
	<node id="-80085" lat="62.5872138888" lon="8.98636665933">
		<tag k="name" v="Skigardbekken" />
		<tag k="ssr:stedsnr" v="20770" />
		<tag k="waterway" v="stream" />
	</node>
	<node id="-80084" lat="62.59061667" lon="8.95703889535">
		<tag k="name" v="Kvernabekken" />
		<tag k="ssr:stedsnr" v="20768" />
		<tag k="waterway" v="stream" />
	</node>
	<node id="-80080" lat="62.5166694466" lon="8.47010556338">
		<tag k="name" v="Holbuvatnet" />
		<tag k="natural" v="water" />
		<tag k="ssr:stedsnr" v="12898" />
		<tag k="water" v="lake" />
	</node>
	<node id="-78500" lat="62.565163893" lon="9.08013611616">
		<tag k="name" v="Høytobekken" />
		<tag k="ssr:stedsnr" v="146365" />
		<tag k="waterway" v="stream" />
	</node>
	<node id="-80069" lat="62.588519446" lon="8.77883611468">
		<tag k="name" v="Grøna" />
		<tag k="ssr:stedsnr" v="12351" />
		<tag k="waterway" v="river" />
	</node>
	<node id="-80067" lat="62.5487111132" lon="8.5796805509">
		<tag k="name" v="Nedre Skarvdalsvatnet" />
		<tag k="natural" v="water" />
		<tag k="ssr:stedsnr" v="12090" />
		<tag k="water" v="lake" />
	</node>
	<node id="-80066" lat="62.5465166665" lon="8.61268610945">
		<tag k="name" v="Skrammeldalsvatna" />
		<tag k="natural" v="water" />
		<tag k="ssr:stedsnr" v="12089" />
	</node>
	<node id="-80064" lat="62.668922221" lon="8.56130555004">
		<tag k="name" v="Skjølløndneset" />
		<tag k="natural" v="cape" />
		<tag k="ssr:stedsnr" v="12063" />
	</node>
	<node id="-80061" lat="62.6942916661" lon="8.60811667443">
		<tag k="alt_name" v="Sandvikdalsvatnet" />
		<tag k="name" v="Tjuvdalsvatnet" />
		<tag k="natural" v="water" />
		<tag k="ssr:stedsnr" v="12042" />
	</node>
	<node id="-80058" lat="62.621694441" lon="8.50838611099">
		<tag k="name" v="Hjellbekken" />
		<tag k="ssr:stedsnr" v="12127" />
		<tag k="waterway" v="stream" />
	</node>
	<node id="-80056" lat="62.6258055517" lon="8.54011111771">
		<tag k="name" v="Nilsbekken" />
		<tag k="ssr:stedsnr" v="12121" />
		<tag k="waterway" v="stream" />
	</node>
	<node id="-80052" lat="62.662013886" lon="8.45660000206">
		<tag k="name" v="Gaudøla" />
		<tag k="ssr:stedsnr" v="12004" />
		<tag k="waterway" v="river" />
	</node>
	<node id="-80046" lat="62.4317027734" lon="9.17428055816">
		<tag k="name" v="Litlvatnet" />
		<tag k="natural" v="water" />
		<tag k="ssr:stedsnr" v="11500" />
		<tag k="water" v="lake" />
	</node>
	<node id="-80043" lat="62.4928277755" lon="9.00355000108">
		<tag k="fixme" v="multiple name tags, choose one and add the other to alt_name" />
		<tag k="name" v="Trollbekken;Trollbekkin" />
		<tag k="ssr:stedsnr" v="11284" />
		<tag k="waterway" v="stream" />
	</node>
	<node id="-80039" lat="62.4948027794" lon="8.55274167413">
		<tag k="name" v="Storpurktjønna" />
		<tag k="natural" v="water" />
		<tag k="ssr:stedsnr" v="11153" />
	</node>
	<node id="-79217" lat="62.6430361073" lon="8.7902083425">
		<tag k="name" v="Nysteinhølen" />
		<tag k="place" v="locality" />
		<tag k="ssr:stedsnr" v="509304" />
	</node>
	<node id="-78534" lat="62.7580916668" lon="8.30082499428">
		<tag k="name" v="Blåbærøya" />
		<tag k="natural" v="cape" />
		<tag k="ssr:stedsnr" v="147959" />
	</node>
	<node id="-80024" lat="62.5858027766" lon="8.79548889737">
		<tag k="name" v="Høgfallet" />
		<tag k="ssr:stedsnr" v="936403" />
		<tag k="waterway" v="rapids" />
	</node>
	<node id="-78430" lat="62.7466222214" lon="8.3523750028">
		<tag k="name" v="Seterbekken" />
		<tag k="ssr:stedsnr" v="267918" />
		<tag k="waterway" v="stream" />
	</node>
	<node id="-80015" lat="62.7658638863" lon="8.43156388103">
		<tag k="name" v="Utlaupet" />
		<tag k="ssr:stedsnr" v="935513" />
		<tag k="waterway" v="stream" />
	</node>
	<node id="-80009" lat="62.8408111143" lon="8.52503888342">
		<tag k="name" v="Bønabekken" />
		<tag k="ssr:stedsnr" v="935237" />
		<tag k="waterway" v="stream" />
	</node>
	<node id="-78907" lat="62.4554444424" lon="8.89151389844">
		<tag k="name" v="Heimre Tverråa" />
		<tag k="ssr:stedsnr" v="375407" />
		<tag k="waterway" v="stream" />
	</node>
	<node id="-79503" lat="62.6138722262" lon="8.52538333928">
		<tag k="name" v="Storbekken" />
		<tag k="ssr:stedsnr" v="632724" />
		<tag k="waterway" v="stream" />
	</node>
	<node id="-80001" lat="62.6729861079" lon="8.59909721395">
		<tag k="name" v="Høgslåbekken" />
		<tag k="ssr:stedsnr" v="934815" />
		<tag k="waterway" v="stream" />
	</node>
	<node id="-80000" lat="62.7491666627" lon="8.61791388458">
		<tag k="name" v="Skrøobekken" />
		<tag k="ssr:stedsnr" v="934725" />
		<tag k="waterway" v="stream" />
	</node>
	<node id="-78869" lat="62.7073583327" lon="8.56004722033">
		<tag k="name" v="Sandvikelva" />
		<tag k="ssr:stedsnr" v="497186" />
		<tag k="waterway" v="stream" />
	</node>
	<node id="-79994" lat="62.498900004" lon="8.6855472126">
		<tag k="name" v="Ytste Håkodalsvatnet" />
		<tag k="natural" v="water" />
		<tag k="ssr:stedsnr" v="931806" />
		<tag k="water" v="lake" />
	</node>
	<node id="-79993" lat="62.5625750041" lon="8.39504166753">
		<tag k="name" v="Tjønnbotnelva" />
		<tag k="ssr:stedsnr" v="931318" />
		<tag k="waterway" v="river" />
	</node>
	<node id="-79991" lat="62.7172305524" lon="8.76554722771">
		<tag k="name" v="Fluotjønna" />
		<tag k="natural" v="water" />
		<tag k="ssr:stedsnr" v="922881" />
	</node>
	<node id="-79988" lat="62.7343027763" lon="8.37810555107">
		<tag k="name" v="Ytre Gryta" />
		<tag k="ssr:stedsnr" v="922230" />
		<tag k="waterway" v="stream" />
	</node>
	<node id="-79986" lat="62.734163889" lon="8.25046388422">
		<tag k="name" v="Tjørna" />
		<tag k="natural" v="water" />
		<tag k="ssr:stedsnr" v="922225" />
	</node>
	<node id="-79985" lat="62.739541665" lon="8.27234165741">
		<tag k="name" v="Kjerringelva" />
		<tag k="ssr:stedsnr" v="922210" />
		<tag k="waterway" v="stream" />
	</node>
	<node id="-78553" lat="62.5466944477" lon="9.10050277411">
		<tag k="name" v="Grøvu" />
		<tag k="ssr:stedsnr" v="193843" />
		<tag k="waterway" v="river" />
	</node>
	<node id="-79971" lat="62.6266222247" lon="8.89094722344">
		<tag k="name" v="Lauvrabb-bekken" />
		<tag k="ssr:stedsnr" v="875634" />
		<tag k="waterway" v="stream" />
	</node>
	<node id="-79968" lat="62.5973888877" lon="8.97710278384">
		<tag k="name" v="Klingfossan" />
		<tag k="ssr:stedsnr" v="875314" />
		<tag k="waterway" v="rapids" />
	</node>
	<node id="-79967" lat="62.5973944485" lon="8.98617499797">
		<tag k="name" v="Hoklingen" />
		<tag k="ssr:stedsnr" v="875309" />
		<tag k="waterway" v="rapids" />
	</node>
	<node id="-79962" lat="62.6646361108" lon="8.63725833582">
		<tag k="name" v="Haltsvabekken" />
		<tag k="ssr:stedsnr" v="875122" />
		<tag k="waterway" v="stream" />
	</node>
	<node id="-79957" lat="62.7918666703" lon="8.50741388342">
		<tag k="name" v="Steinbekken" />
		<tag k="ssr:stedsnr" v="874563" />
		<tag k="waterway" v="stream" />
	</node>
	<node id="-79950" lat="62.7889638848" lon="8.54776388283">
		<tag k="name" v="Damvatnet" />
		<tag k="natural" v="water" />
		<tag k="ssr:stedsnr" v="874425" />
	</node>
	<node id="-79949" lat="62.777430557" lon="8.5443527875">
		<tag k="name" v="Skrøobekken" />
		<tag k="ssr:stedsnr" v="874415" />
		<tag k="waterway" v="stream" />
	</node>
	<node id="-79941" lat="62.6955472223" lon="8.4782388798">
		<tag k="name" v="Steinbekken" />
		<tag k="ssr:stedsnr" v="873671" />
		<tag k="waterway" v="stream" />
	</node>
	<node id="-79940" lat="62.6949861136" lon="8.48368610163">
		<tag k="name" v="Innvikbekken" />
		<tag k="ssr:stedsnr" v="873669" />
		<tag k="waterway" v="stream" />
	</node>
	<node id="-79542" lat="62.5755500014" lon="8.39374444132">
		<tag k="name" v="Øksendalstjønnin" />
		<tag k="natural" v="water" />
		<tag k="ssr:stedsnr" v="679071" />
	</node>
	<node id="-79541" lat="62.5924055554" lon="8.5216083367">
		<tag k="name" v="Dalavatnet" />
		<tag k="natural" v="water" />
		<tag k="ssr:stedsnr" v="679069" />
		<tag k="water" v="lake" />
	</node>
	<node id="-79930" lat="62.5601694426" lon="9.06281111461">
		<tag k="name" v="Mardøla" />
		<tag k="ssr:stedsnr" v="861803" />
		<tag k="waterway" v="stream" />
	</node>
	<node id="-79928" lat="62.674699998" lon="8.78271388036">
		<tag k="name" v="Langvatnet" />
		<tag k="natural" v="water" />
		<tag k="ssr:stedsnr" v="861916" />
	</node>
	<node id="-79926" lat="62.4243694406" lon="8.93323610601">
		<tag k="name" v="Raudbekken" />
		<tag k="ssr:stedsnr" v="861614" />
		<tag k="waterway" v="stream" />
	</node>
	<node id="-79925" lat="62.3946777792" lon="8.96196667275">
		<tag k="name" v="Litlvatnet" />
		<tag k="natural" v="water" />
		<tag k="ssr:stedsnr" v="861466" />
	</node>
	<node id="-79922" lat="62.4920083359" lon="9.01866388643">
		<tag k="name" v="Seterdalsbekken" />
		<tag k="ssr:stedsnr" v="861273" />
		<tag k="waterway" v="stream" />
	</node>
	<node id="-79917" lat="62.6087638863" lon="8.30886389567">
		<tag k="name" v="Kløftelva" />
		<tag k="ssr:stedsnr" v="861114" />
		<tag k="waterway" v="stream" />
	</node>
	<node id="-79916" lat="62.6147499995" lon="8.32553888531">
		<tag k="name" v="Breidøla" />
		<tag k="ssr:stedsnr" v="861108" />
		<tag k="waterway" v="stream" />
	</node>
	<node id="-79915" lat="62.574499998" lon="8.68278611936">
		<tag k="name" v="Grynningsdalsvatnet" />
		<tag k="natural" v="water" />
		<tag k="ssr:stedsnr" v="861078" />
		<tag k="water" v="lake" />
	</node>
	<node id="-79914" lat="62.5839527822" lon="8.49969999631">
		<tag k="name" v="Synnhammarbekken" />
		<tag k="ssr:stedsnr" v="861073" />
		<tag k="waterway" v="stream" />
	</node>
	<node id="-78855" lat="62.4767055541" lon="8.84087499638">
		<tag k="name" v="Aurhøbekken" />
		<tag k="ssr:stedsnr" v="496491" />
		<tag k="waterway" v="stream" />
	</node>
	<node id="-79910" lat="62.6631555557" lon="8.53716945132">
		<tag k="name" v="Tredalspollen" />
		<tag k="natural" v="water" />
		<tag k="ssr:stedsnr" v="861018" />
	</node>
	<node id="-79909" lat="62.6589333336" lon="8.71044166912">
		<tag k="name" v="Skorga" />
		<tag k="ssr:stedsnr" v="861014" />
		<tag k="waterway" v="stream" />
	</node>
	<node id="-80472" lat="62.6162361112" lon="8.88031111622">
		<tag k="name" v="Svartspenna" />
		<tag k="ssr:stedsnr" v="145689" />
		<tag k="waterway" v="stream" />
	</node>
	<node id="-79895" lat="62.5790138921" lon="9.047341663">
		<tag k="name" v="Kvennabekken" />
		<tag k="ssr:stedsnr" v="937176" />
		<tag k="waterway" v="stream" />
	</node>
	<node id="-79892" lat="62.5564416705" lon="9.11937778733">
		<tag k="name" v="Husflønet" />
		<tag k="place" v="locality" />
		<tag k="ssr:stedsnr" v="937269" />
	</node>
	<node id="-79882" lat="62.6420861142" lon="8.51909999708">
		<tag k="name" v="Steinsikkerbekken" />
		<tag k="ssr:stedsnr" v="936863" />
		<tag k="waterway" v="stream" />
	</node>
	<node id="-79879" lat="62.622052774" lon="8.51702499614">
		<tag k="name" v="Hjellbekken" />
		<tag k="ssr:stedsnr" v="936795" />
		<tag k="waterway" v="river" />
	</node>
	<node id="-79877" lat="62.6153833308" lon="8.51140555861">
		<tag k="name" v="Holmbekken" />
		<tag k="ssr:stedsnr" v="936752" />
		<tag k="waterway" v="stream" />
	</node>
	<node id="-79874" lat="62.6457499984" lon="8.67405278225">
		<tag k="name" v="Svabekken" />
		<tag k="ssr:stedsnr" v="936472" />
		<tag k="waterway" v="stream" />
	</node>
	<node id="-79873" lat="62.6508027794" lon="8.66423332526">
		<tag k="name" v="Kuhølen" />
		<tag k="place" v="locality" />
		<tag k="ssr:stedsnr" v="936455" />
	</node>
</osm>
