<?xml version="1.0" encoding="UTF-8"?>
<<<<<<< HEAD
<osm version="0.6" generator="osmapis">
	<node lat="62.65165555761271" lon="8.698486114268976" id="-6741">
		<tag k="name" v="Løykja gravfelt" />
		<tag k="place" v="locality" />
		<tag k="ssr:stedsnr" v="25374" />
	</node>
	<node lat="62.67606666414714" lon="8.494266665147094" id="-7056">
		<tag k="name" v="Hammartoppen" />
		<tag k="ssr:stedsnr" v="203321" />
		<tag k="tourism" v="viewpoint" />
	</node>
	<node lat="62.603388888563494" lon="8.94666943987906" id="-7086">
		<tag k="amenity" v="community_centre" />
		<tag k="name" v="Grendahus" />
		<tag k="ssr:stedsnr" v="268248" />
	</node>
	<node lat="62.5201139756995" lon="8.745797640414981" id="-7592">
		<tag k="name" v="Blekbua" />
		<tag k="place" v="locality" />
		<tag k="ssr:stedsnr" v="679795" />
	</node>
	<node lat="62.71636111001295" lon="8.43178610371932" id="-7609">
		<tag k="amenity" v="place_of_worship" />
		<tag k="denomination" v="lutheran" />
		<tag k="name" v="Øksendal" />
		<tag k="religion" v="christian" />
		<tag k="ssr:stedsnr" v="496201" />
	</node>
	<node lat="62.57176666662889" lon="9.203588882453268" id="-7753">
		<tag k="name" v="Gråurseterløa" />
		<tag k="place" v="locality" />
		<tag k="ssr:stedsnr" v="693015" />
	</node>
	<node lat="62.65122222514165" lon="8.693125003978572" id="-7966">
=======
<osm generator="osmapis" version="0.6">
	<node id="-84480" lat="62.6512222251" lon="8.69312500398">
>>>>>>> e1d4bc35ff8a6074a6f2e91616a996b547c36f15
		<tag k="name" v="Leikvin" />
		<tag k="ssr:stedsnr" v="679022" />
		<tag k="tourism" v="museum" />
	</node>
<<<<<<< HEAD
	<node lat="62.60240555162853" lon="8.938600001825947" id="-7979">
=======
	<node id="-84605" lat="62.6726379302" lon="8.57001404231">
>>>>>>> e1d4bc35ff8a6074a6f2e91616a996b547c36f15
		<tag k="amenity" v="place_of_worship" />
		<tag k="denomination" v="lutheran" />
		<tag k="name" v="Romfo" />
		<tag k="religion" v="christian" />
		<tag k="ssr:stedsnr" v="679979" />
	</node>
<<<<<<< HEAD
	<node lat="62.755880553192064" lon="8.453136104164404" id="-8126">
=======
	<node id="-86460" lat="62.7558805532" lon="8.45313610416">
>>>>>>> e1d4bc35ff8a6074a6f2e91616a996b547c36f15
		<tag k="amenity" v="community_centre" />
		<tag k="name" v="Flå ungdomshus" />
		<tag k="ssr:stedsnr" v="753654" />
	</node>
<<<<<<< HEAD
	<node lat="62.76584722022511" lon="8.536619447831253" id="-8279">
		<tag k="amenity" v="place_of_worship" />
		<tag k="denomination" v="lutheran" />
		<tag k="name" v="Ålvundeid" />
		<tag k="religion" v="christian" />
		<tag k="ssr:stedsnr" v="922442" />
	</node>
	<node lat="62.549563886937705" lon="9.112952779160441" id="-8354">
=======
	<node id="-83386" lat="62.6033888886" lon="8.94666943988">
		<tag k="amenity" v="community_centre" />
		<tag k="name" v="Grendahus" />
		<tag k="ssr:stedsnr" v="268248" />
	</node>
	<node id="-84122" lat="62.6024055516" lon="8.93860000183">
>>>>>>> e1d4bc35ff8a6074a6f2e91616a996b547c36f15
		<tag k="amenity" v="place_of_worship" />
		<tag k="denomination" v="lutheran" />
		<tag k="name" v="Gjøra kapell" />
		<tag k="religion" v="christian" />
		<tag k="ssr:stedsnr" v="876251" />
	</node>
	<node lat="62.672637930221576" lon="8.57001404230973" id="-8415">
		<tag k="amenity" v="place_of_worship" />
		<tag k="denomination" v="lutheran" />
		<tag k="name" v="Hov" />
		<tag k="religion" v="christian" />
		<tag k="ssr:stedsnr" v="910026" />
	</node>
<<<<<<< HEAD
	<node lat="62.68222499610447" lon="8.416288879584851" id="-8522">
		<tag k="amenity" v="community_centre" />
		<tag k="name" v="Philipshaugen" />
		<tag k="ssr:stedsnr" v="12047" />
	</node>
	<node lat="62.667413884928486" lon="8.452886116265642" id="-8566">
		<tag k="name" v="Løotufta" />
=======
	<node id="-85557" lat="62.6760666641" lon="8.49426666515">
		<tag k="name" v="Hammartoppen" />
		<tag k="ssr:stedsnr" v="203321" />
		<tag k="tourism" v="viewpoint" />
	</node>
	<node id="-85317" lat="62.747558334" lon="8.34073055363">
		<tag k="name" v="Handsagstillingan" />
		<tag k="place" v="locality" />
		<tag k="ssr:stedsnr" v="87948" />
	</node>
	<node id="-84881" lat="62.6746416661" lon="8.38587778406">
		<tag k="name" v="Nesatrøa" />
>>>>>>> e1d4bc35ff8a6074a6f2e91616a996b547c36f15
		<tag k="place" v="locality" />
		<tag k="ssr:stedsnr" v="24466" />
	</node>
<<<<<<< HEAD
	<node lat="62.747558333976514" lon="8.340730553632959" id="-8778">
		<tag k="name" v="Handsagstillingan" />
		<tag k="place" v="locality" />
		<tag k="ssr:stedsnr" v="87948" />
	</node>
	<node lat="62.4273691472269" lon="8.866357789003887" id="-9197">
		<tag k="name" v="Gunnasobuin" />
		<tag k="place" v="locality" />
		<tag k="ssr:stedsnr" v="324778" />
	</node>
	<node lat="62.83190277680127" lon="8.52454721554494" id="-10116">
		<tag k="amenity" v="community_centre" />
		<tag k="name" v="Fossheim" />
		<tag k="ssr:stedsnr" v="813248" />
=======
	<node id="-85004" lat="62.6822249961" lon="8.41628887958">
		<tag k="amenity" v="community_centre" />
		<tag k="name" v="Philipshaugen" />
		<tag k="ssr:stedsnr" v="12047" />
	</node>
	<node id="-84675" lat="62.7658472202" lon="8.53661944783">
		<tag k="amenity" v="place_of_worship" />
		<tag k="denomination" v="lutheran" />
		<tag k="name" v="Ålvundeid" />
		<tag k="religion" v="christian" />
		<tag k="ssr:stedsnr" v="922442" />
	</node>
	<node id="-84456" lat="62.5495638869" lon="9.11295277916">
		<tag k="amenity" v="place_of_worship" />
		<tag k="denomination" v="lutheran" />
		<tag k="name" v="Gjøra kapell" />
		<tag k="religion" v="christian" />
		<tag k="ssr:stedsnr" v="876251" />
	</node>
	<node id="-83788" lat="62.71636111" lon="8.43178610372">
		<tag k="amenity" v="place_of_worship" />
		<tag k="denomination" v="lutheran" />
		<tag k="name" v="Øksendal" />
		<tag k="religion" v="christian" />
		<tag k="ssr:stedsnr" v="496201" />
	</node>
	<node id="-86609" lat="62.8319027768" lon="8.52454721554">
		<tag k="amenity" v="community_centre" />
		<tag k="name" v="Fossheim" />
		<tag k="ssr:stedsnr" v="813248" />
	</node>
	<node id="-85073" lat="62.6516555576" lon="8.69848611427">
		<tag k="name" v="Løykja gravfelt" />
		<tag k="place" v="locality" />
		<tag k="ssr:stedsnr" v="25374" />
	</node>
	<node id="-85059" lat="62.6674138849" lon="8.45288611627">
		<tag k="name" v="Løotufta" />
		<tag k="place" v="locality" />
		<tag k="ssr:stedsnr" v="24466" />
>>>>>>> e1d4bc35ff8a6074a6f2e91616a996b547c36f15
	</node>
</osm>
