<?xml version="1.0" encoding="UTF-8"?>
<osm version="0.6" generator="osmapis">
	<node lat="62.710233335040826" lon="8.425316666328431" id="-9603">
		<tag k="name" v="Inderøya" />
		<tag k="place" v="farm" />
		<tag k="ssr:stedsnr" v="11203" />
	</node>
	<node lat="62.66273332972133" lon="8.355211104866259" id="-9610">
		<tag k="fixme" v="consider place=hamlet" />
		<tag k="name" v="Rønningen" />
		<tag k="place" v="farm" />
		<tag k="ssr:stedsnr" v="12010" />
	</node>
	<node lat="62.55310833061212" lon="9.116888898484195" id="-9615">
		<tag k="fixme" v="consider place=hamlet" />
		<tag k="name" v="Nisja" />
		<tag k="place" v="farm" />
		<tag k="ssr:stedsnr" v="11995" />
	</node>
	<node lat="62.90310277594016" lon="8.41109999468587" id="-9634">
		<tag k="name" v="Sundet" />
		<tag k="place" v="farm" />
		<tag k="ssr:stedsnr" v="24237" />
	</node>
	<node lat="62.838290860273126" lon="8.519935833763547" id="-9637">
		<tag k="fixme" v="consider place=hamlet" />
		<tag k="name" v="Ålvund" />
		<tag k="place" v="farm" />
		<tag k="ssr:stedsnr" v="24246" />
	</node>
	<node lat="62.603338888136186" lon="8.938880552392332" id="-9643">
		<tag k="fixme" v="consider place=hamlet" />
		<tag k="name" v="Romfo" />
		<tag k="place" v="farm" />
		<tag k="ssr:stedsnr" v="24478" />
	</node>
	<node lat="62.773500001770145" lon="8.429438891464434" id="-9660">
		<tag k="name" v="Gammelsetra" />
		<tag k="place" v="locality" />
		<tag k="ssr:stedsnr" v="25527" />
	</node>
	<node lat="62.76665832964796" lon="8.330244439235758" id="-9665">
		<tag k="name" v="Åfarplassen" />
		<tag k="place" v="farm" />
		<tag k="ssr:stedsnr" v="25986" />
	</node>
	<node lat="62.58272222273148" lon="8.502361112162239" id="-9666">
		<tag k="name" v="Synnhammarteigen" />
		<tag k="place" v="locality" />
		<tag k="ssr:stedsnr" v="25997" />
	</node>
	<node lat="62.555258330925945" lon="9.08583334142581" id="-9681">
		<tag k="name" v="Utigardshjellen" />
		<tag k="place" v="farm" />
		<tag k="ssr:stedsnr" v="26407" />
	</node>
	<node lat="62.60802500180457" lon="8.733069436654008" id="-9683">
		<tag k="name" v="Steinly" />
		<tag k="place" v="isolated_dwelling" />
		<tag k="ssr:stedsnr" v="26475" />
	</node>
	<node lat="62.589261108418484" lon="9.011777782761891" id="-9688">
		<tag k="name" v="Nyheim" />
		<tag k="place" v="farm" />
		<tag k="ssr:stedsnr" v="27178" />
	</node>
	<node lat="62.588630558279" lon="9.014880563678327" id="-9689">
		<tag k="name" v="Nyeng" />
		<tag k="place" v="farm" />
		<tag k="ssr:stedsnr" v="27179" />
	</node>
	<node lat="62.50206666474194" lon="9.058319436506467" id="-9690">
		<tag k="name" v="Sjurhaugen" />
		<tag k="place" v="locality" />
		<tag k="ssr:stedsnr" v="27686" />
	</node>
	<node lat="62.86327777476517" lon="8.585744442494748" id="-9692">
		<tag k="alt_name" v="Drøppingan" />
		<tag k="name" v="Ytre Drøppingan" />
		<tag k="place" v="farm" />
		<tag k="ssr:stedsnr" v="41830" />
	</node>
	<node lat="62.5434888874094" lon="9.109830553388733" id="-9712">
		<tag k="name" v="Nyheim" />
		<tag k="place" v="isolated_dwelling" />
		<tag k="ssr:stedsnr" v="72808" />
	</node>
	<node lat="62.86104444848413" lon="8.505605546059222" id="-9720">
		<tag k="name" v="Sollia" />
		<tag k="place" v="farm" />
		<tag k="ssr:stedsnr" v="73370" />
	</node>
	<node lat="62.84926389164972" lon="8.572061101315384" id="-9737">
		<tag k="name" v="Innigardssetra" />
		<tag k="place" v="isolated_dwelling" />
		<tag k="ssr:stedsnr" v="85193" />
	</node>
	<node lat="62.86049444175553" lon="8.506705550674708" id="-9740">
		<tag k="name" v="Støve" />
		<tag k="place" v="farm" />
		<tag k="ssr:stedsnr" v="85084" />
	</node>
	<node lat="62.86352777864884" lon="8.512600003683032" id="-9741">
		<tag k="name" v="Kroken" />
		<tag k="place" v="hamlet" />
		<tag k="ssr:stedsnr" v="85203" />
	</node>
	<node lat="62.83209722356202" lon="8.526902786805527" id="-9742">
		<tag k="name" v="Brustad" />
		<tag k="place" v="farm" />
		<tag k="ssr:stedsnr" v="85213" />
	</node>
	<node lat="62.83136666738629" lon="8.528149990619376" id="-9744">
		<tag k="name" v="Strand" />
		<tag k="place" v="farm" />
		<tag k="ssr:stedsnr" v="85229" />
	</node>
	<node lat="62.87497778076243" lon="8.49281388375528" id="-9745">
		<tag k="name" v="Innergarden" />
		<tag k="place" v="farm" />
		<tag k="ssr:stedsnr" v="85230" />
	</node>
	<node lat="62.89364166332837" lon="8.43486667401278" id="-9746">
		<tag k="name" v="Trøa" />
		<tag k="place" v="farm" />
		<tag k="ssr:stedsnr" v="85273" />
	</node>
	<node lat="62.49979722632381" lon="8.971747215722507" id="-9750">
		<tag k="name" v="Ivarstu" />
		<tag k="place" v="farm" />
		<tag k="ssr:stedsnr" v="85497" />
	</node>
	<node lat="62.60368888505897" lon="8.938888890656363" id="-9751">
		<tag k="name" v="Bortstu Romfo" />
		<tag k="place" v="farm" />
		<tag k="ssr:stedsnr" v="85382" />
	</node>
	<node lat="62.60331944196709" lon="8.939427782885387" id="-9752">
		<tag k="name" v="Nestu Romfo" />
		<tag k="place" v="farm" />
		<tag k="ssr:stedsnr" v="85385" />
	</node>
	<node lat="62.74421388902088" lon="8.528252776937565" id="-9758">
		<tag k="name" v="Hagan" />
		<tag k="place" v="farm" />
		<tag k="ssr:stedsnr" v="85775" />
	</node>
	<node lat="62.66590277568109" lon="8.557524990380676" id="-9760">
		<tag k="name" v="Håshjellan" />
		<tag k="place" v="farm" />
		<tag k="ssr:stedsnr" v="85925" />
	</node>
	<node lat="62.56265555630239" lon="9.075702771002277" id="-9767">
		<tag k="name" v="Gammelheimen" />
		<tag k="place" v="locality" />
		<tag k="ssr:stedsnr" v="86425" />
	</node>
	<node lat="62.63476666293098" lon="8.804266665723155" id="-9770">
		<tag k="name" v="Sandahjellen" />
		<tag k="place" v="farm" />
		<tag k="ssr:stedsnr" v="86362" />
	</node>
	<node lat="62.55401944505852" lon="9.08773055095381" id="-9782">
		<tag k="name" v="Gravemshagan" />
		<tag k="place" v="farm" />
		<tag k="ssr:stedsnr" v="87375" />
	</node>
	<node lat="62.777416664060006" lon="8.524002781985216" id="-9787">
		<tag k="name" v="Hammaren" />
		<tag k="place" v="farm" />
		<tag k="ssr:stedsnr" v="87687" />
	</node>
	<node lat="62.556400001815604" lon="9.07700555817588" id="-9804">
		<tag k="name" v="Rønningen" />
		<tag k="place" v="farm" />
		<tag k="ssr:stedsnr" v="132810" />
	</node>
	<node lat="62.52105555916139" lon="9.072472217004146" id="-9805">
		<tag k="name" v="Bruøya" />
		<tag k="place" v="farm" />
		<tag k="ssr:stedsnr" v="132813" />
	</node>
	<node lat="62.65499999754728" lon="8.69595555235729" id="-9825">
		<tag k="fixme" v="consider place=hamlet" />
		<tag k="name" v="Løykja" />
		<tag k="place" v="farm" />
		<tag k="ssr:stedsnr" v="254019" />
	</node>
	<node lat="62.59261666353061" lon="9.003536103007715" id="-9840">
		<tag k="fixme" v="consider place=hamlet" />
		<tag k="name" v="Ottemsøyan" />
		<tag k="place" v="farm" />
		<tag k="ssr:stedsnr" v="254736" />
	</node>
	<node lat="62.56058333185914" lon="9.072699996842733" id="-9842">
		<tag k="fixme" v="consider place=hamlet" />
		<tag k="name" v="Hjelle" />
		<tag k="place" v="farm" />
		<tag k="ssr:stedsnr" v="254791" />
	</node>
	<node lat="62.548302778980045" lon="9.123575000291527" id="-9845">
		<tag k="name" v="Grytlykkja" />
		<tag k="place" v="farm" />
		<tag k="ssr:stedsnr" v="254764" />
	</node>
	<node lat="62.86015833436157" lon="8.510594446097835" id="-9861">
		<tag k="fixme" v="consider place=hamlet" />
		<tag k="name" v="Levika" />
		<tag k="place" v="farm" />
		<tag k="ssr:stedsnr" v="255357" />
	</node>
	<node lat="62.70718610938875" lon="8.562605549881456" id="-9869">
		<tag k="name" v="Nersetra" />
		<tag k="place" v="isolated_dwelling" />
		<tag k="ssr:stedsnr" v="144427" />
	</node>
	<node lat="62.51499167035961" lon="8.977633336633263" id="-9879">
		<tag k="name" v="Bergset" />
		<tag k="place" v="farm" />
		<tag k="ssr:stedsnr" v="145506" />
	</node>
	<node lat="62.7584944474217" lon="8.533333334721046" id="-9885">
		<tag k="name" v="Mohjellen" />
		<tag k="place" v="farm" />
		<tag k="ssr:stedsnr" v="145773" />
	</node>
	<node lat="62.66652778161992" lon="8.611325004674752" id="-9892">
		<tag k="name" v="Oppigard" />
		<tag k="place" v="farm" />
		<tag k="ssr:stedsnr" v="146110" />
	</node>
	<node lat="62.579664533064765" lon="9.124346813174554" id="-9907">
		<tag k="fixme" v="consider tourism=alpine_hut or tourism=chalet" />
		<tag k="name" v="Vollasetra" />
		<tag k="ssr:stedsnr" v="147260" />
		<tag k="tourism" v="wilderness_hut" />
	</node>
	<node lat="62.78178055855978" lon="8.521047224572047" id="-9910">
		<tag k="name" v="Nedre Viset" />
		<tag k="place" v="farm" />
		<tag k="ssr:stedsnr" v="147646" />
	</node>
	<node lat="62.74212777490504" lon="8.526444444814107" id="-9913">
		<tag k="name" v="Skogstad" />
		<tag k="place" v="farm" />
		<tag k="ssr:stedsnr" v="147810" />
	</node>
	<node lat="62.85166666465763" lon="8.596497220057843" id="-9919">
		<tag k="alt_name" v="Kobbskjere;Kobbskjær" />
		<tag k="name" v="Kobbskjæret" />
		<tag k="old_name" v="Kobskjær" />
		<tag k="place" v="farm" />
		<tag k="ssr:stedsnr" v="161821" />
	</node>
	<node lat="62.70993611521897" lon="8.505491665541857" id="-9924">
		<tag k="name" v="Vika" />
		<tag k="place" v="hamlet" />
		<tag k="ssr:stedsnr" v="181018" />
	</node>
	<node lat="62.83826110978582" lon="8.427405552764771" id="-9947">
		<tag k="name" v="Sessbøsetra" />
		<tag k="place" v="isolated_dwelling" />
		<tag k="ssr:stedsnr" v="266062" />
	</node>
	<node lat="62.805716667804816" lon="8.498141676024655" id="-9948">
		<tag k="fixme" v="consider place=hamlet" />
		<tag k="name" v="Smiset" />
		<tag k="place" v="farm" />
		<tag k="ssr:stedsnr" v="195428" />
	</node>
	<node lat="62.829597223531245" lon="8.476780555294598" id="-9953">
		<tag k="historic" v="shieling" />
		<tag k="name" v="Seljebøsetra" />
		<tag k="place" v="isolated_dwelling" />
		<tag k="ssr:stedsnr" v="267123" />
	</node>
	<node lat="62.8819138903135" lon="8.442933332493272" id="-9962">
		<tag k="name" v="Åsheim" />
		<tag k="place" v="isolated_dwelling" />
		<tag k="ssr:stedsnr" v="267172" />
	</node>
	<node lat="62.76071944340894" lon="8.541094447349392" id="-9979">
		<tag k="amenity" v="school" />
		<tag k="name" v="Ålvundeid skule" />
		<tag k="ssr:stedsnr" v="267773" />
	</node>
	<node lat="62.72407500056796" lon="8.415861119465285" id="-9989">
		<tag k="name" v="Strandalykkja" />
		<tag k="place" v="farm" />
		<tag k="ssr:stedsnr" v="268023" />
	</node>
	<node lat="62.736350000202386" lon="8.41064999679081" id="-9990">
		<tag k="name" v="Tomastrøa" />
		<tag k="place" v="locality" />
		<tag k="ssr:stedsnr" v="268036" />
	</node>
	<node lat="62.58216666656489" lon="9.017524993970206" id="-9995">
		<tag k="name" v="Nerstølen" />
		<tag k="place" v="locality" />
		<tag k="ssr:stedsnr" v="268154" />
	</node>
	<node lat="62.63923332938882" lon="8.792166665421092" id="-10012">
		<tag k="name" v="Østistu Tøftin" />
		<tag k="place" v="farm" />
		<tag k="ssr:stedsnr" v="268343" />
	</node>
	<node lat="62.64009444082947" lon="8.786641663358402" id="-10013">
		<tag k="name" v="Østigard Flatvad" />
		<tag k="place" v="farm" />
		<tag k="ssr:stedsnr" v="268344" />
	</node>
	<node lat="62.63936666839735" lon="8.790061109873124" id="-10030">
		<tag k="name" v="Utistu Tøftin" />
		<tag k="place" v="farm" />
		<tag k="ssr:stedsnr" v="207336" />
	</node>
	<node lat="62.70037777811177" lon="8.497183333663466" id="-10038">
		<tag k="name" v="Skulhustomta" />
		<tag k="place" v="locality" />
		<tag k="ssr:stedsnr" v="208104" />
	</node>
	<node lat="62.55747500195715" lon="8.9475222269339" id="-10040">
		<tag k="historic" v="shieling" />
		<tag k="name" v="Bjørbekksetra" />
		<tag k="place" v="isolated_dwelling" />
		<tag k="ssr:stedsnr" v="208118" />
	</node>
	<node lat="62.57205277909306" lon="9.159402769224531" id="-10053">
		<tag k="name" v="Grensabakkan" />
		<tag k="place" v="locality" />
		<tag k="ssr:stedsnr" v="269063" />
	</node>
	<node lat="62.54472221969919" lon="9.112716664987401" id="-10073">
		<tag k="name" v="Korntrøa" />
		<tag k="place" v="isolated_dwelling" />
		<tag k="ssr:stedsnr" v="269347" />
	</node>
	<node lat="62.4998249992028" lon="8.949994437165534" id="-10106">
		<tag k="name" v="Leirgrovin" />
		<tag k="place" v="locality" />
		<tag k="ssr:stedsnr" v="449563" />
	</node>
	<node lat="62.66586388579952" lon="8.591336106517891" id="-10117">
		<tag k="name" v="Presthagan" />
		<tag k="place" v="quarter" />
		<tag k="ssr:stedsnr" v="450067" />
	</node>
	<node lat="62.664316669950345" lon="8.623852772877672" id="-10124">
		<tag k="name" v="Negard Furu" />
		<tag k="place" v="farm" />
		<tag k="ssr:stedsnr" v="450147" />
	</node>
	<node lat="62.50732222349361" lon="9.070236113607193" id="-10130">
		<tag k="name" v="Oppistu" />
		<tag k="place" v="farm" />
		<tag k="ssr:stedsnr" v="450687" />
	</node>
	<node lat="62.549847219626415" lon="9.103413880876769" id="-10151">
		<tag k="name" v="Drivøya" />
		<tag k="place" v="farm" />
		<tag k="ssr:stedsnr" v="451353" />
	</node>
	<node lat="62.64018332964878" lon="8.693708325578363" id="-10156">
		<tag k="name" v="Grødalssetrin" />
		<tag k="place" v="locality" />
		<tag k="ssr:stedsnr" v="451500" />
	</node>
	<node lat="62.77887777380207" lon="8.524911120384083" id="-10157">
		<tag k="name" v="Øvre Haugan" />
		<tag k="place" v="farm" />
		<tag k="ssr:stedsnr" v="451689" />
	</node>
	<node lat="62.51258611446364" lon="9.05228334209155" id="-10160">
		<tag k="name" v="Nedstu" />
		<tag k="place" v="farm" />
		<tag k="ssr:stedsnr" v="451651" />
	</node>
	<node lat="62.513308331464486" lon="9.052863898418321" id="-10161">
		<tag k="name" v="Bortstu" />
		<tag k="place" v="farm" />
		<tag k="ssr:stedsnr" v="451652" />
	</node>
	<node lat="62.741463887946" lon="8.52417221573983" id="-10167">
		<tag k="name" v="Storlykkja" />
		<tag k="place" v="farm" />
		<tag k="ssr:stedsnr" v="451844" />
	</node>
	<node lat="62.806130559151924" lon="8.50278055560122" id="-10187">
		<tag k="fixme" v="multiple name tags, choose one and add the other to alt_name" />
		<tag k="name" v="Tjørnhaugen;Tjønnhaugen" />
		<tag k="place" v="farm" />
		<tag k="ssr:stedsnr" v="255403" />
	</node>
	<node lat="62.83046110849606" lon="8.512080559569066" id="-10202">
		<tag k="name" v="Seljebøsaga" />
		<tag k="place" v="locality" />
		<tag k="ssr:stedsnr" v="267238" />
	</node>
	<node lat="62.8756500028903" lon="8.49222778217925" id="-10204">
		<tag k="name" v="Rykkjemsneset" />
		<tag k="place" v="farm" />
		<tag k="ssr:stedsnr" v="267246" />
	</node>
	<node lat="62.760919447908584" lon="8.589952787502357" id="-10212">
		<tag k="name" v="Eikremtrøa" />
		<tag k="place" v="locality" />
		<tag k="ssr:stedsnr" v="267729" />
	</node>
	<node lat="62.553155555067015" lon="9.088100004591219" id="-10237">
		<tag k="name" v="Steinarstu" />
		<tag k="place" v="farm" />
		<tag k="ssr:stedsnr" v="269392" />
	</node>
	<node lat="62.63262500011798" lon="8.304058337090268" id="-10242">
		<tag k="name" v="Brandstad" />
		<tag k="place" v="farm" />
		<tag k="ssr:stedsnr" v="462439" />
	</node>
	<node lat="62.66380278221772" lon="8.365863886598927" id="-10255">
		<tag k="fixme" v="consider place=hamlet" />
		<tag k="name" v="Mosbøen" />
		<tag k="place" v="farm" />
		<tag k="ssr:stedsnr" v="315009" />
	</node>
	<node lat="62.80010000389352" lon="8.489099990948915" id="-10261">
		<tag k="name" v="Smisethjellen" />
		<tag k="place" v="farm" />
		<tag k="ssr:stedsnr" v="315372" />
	</node>
	<node lat="62.67419722340276" lon="8.396355558820918" id="-10262">
		<tag k="name" v="Holten" />
		<tag k="place" v="farm" />
		<tag k="ssr:stedsnr" v="315057" />
	</node>
	<node lat="62.50612499825244" lon="9.16745000822953" id="-10269">
		<tag k="name" v="Bjerckeroa" />
		<tag k="place" v="isolated_dwelling" />
		<tag k="ssr:stedsnr" v="315855" />
	</node>
	<node lat="62.52260555319662" lon="8.709386109181496" id="-10270">
		<tag k="fixme" v="consider tourism=alpine_hut or tourism=chalet" />
		<tag k="name" v="Raubergshytta" />
		<tag k="old_name" v="Rauberghytta" />
		<tag k="ssr:stedsnr" v="315905" />
		<tag k="tourism" v="wilderness_hut" />
	</node>
	<node lat="62.85534722622011" lon="8.410894451887767" id="-10278">
		<tag k="name" v="Litlsetra" />
		<tag k="place" v="locality" />
		<tag k="ssr:stedsnr" v="327122" />
	</node>
	<node lat="62.74663611431179" lon="8.5310638865937" id="-10300">
		<tag k="name" v="Jarbærøya" />
		<tag k="place" v="farm" />
		<tag k="ssr:stedsnr" v="328805" />
	</node>
	<node lat="62.56616110849046" lon="9.063588883903485" id="-10317">
		<tag k="name" v="Tøftin" />
		<tag k="place" v="farm" />
		<tag k="ssr:stedsnr" v="330171" />
	</node>
	<node lat="62.54317500262509" lon="9.10634444923027" id="-10320">
		<tag k="name" v="Orheim" />
		<tag k="place" v="farm" />
		<tag k="ssr:stedsnr" v="330502" />
	</node>
	<node lat="62.57118386405587" lon="9.166402285119041" id="-10335">
		<tag k="name" v="Grensa" />
		<tag k="place" v="farm" />
		<tag k="ssr:stedsnr" v="363222" />
	</node>
	<node lat="62.70993611521897" lon="8.505491665541857" id="-10339">
		<tag k="name" v="Vika" />
		<tag k="place" v="farm" />
		<tag k="ssr:stedsnr" v="375181" />
	</node>
	<node lat="62.61134999599226" lon="8.921400008658027" id="-10349">
		<tag k="fixme" v="consider place=hamlet" />
		<tag k="name" v="Snøva" />
		<tag k="place" v="farm" />
		<tag k="ssr:stedsnr" v="375983" />
	</node>
	<node lat="62.84078055243927" lon="8.518602775997548" id="-10366">
		<tag k="amenity" v="school" />
		<tag k="name" v="Ålvundfjord skule" />
		<tag k="ssr:stedsnr" v="388402" />
	</node>
	<node lat="62.76078438817959" lon="8.307822904800233" id="-10405">
		<tag k="name" v="Jordal" />
		<tag k="place" v="hamlet" />
		<tag k="ssr:stedsnr" v="485032" />
	</node>
	<node lat="62.62195833178925" lon="8.885372230125963" id="-10406">
		<tag k="name" v="Nisja" />
		<tag k="place" v="farm" />
		<tag k="ssr:stedsnr" v="485179" />
	</node>
	<node lat="62.7911083291874" lon="8.367680553256811" id="-10411">
		<tag k="historic" v="shieling" />
		<tag k="name" v="Almskårsetra" />
		<tag k="place" v="isolated_dwelling" />
		<tag k="ssr:stedsnr" v="411244" />
	</node>
	<node lat="62.66102500139857" lon="8.360927774554959" id="-10419">
		<tag k="name" v="Mosbøneset" />
		<tag k="place" v="farm" />
		<tag k="ssr:stedsnr" v="436003" />
	</node>
	<node lat="62.659830552540754" lon="8.358494452002464" id="-10420">
		<tag k="name" v="Vollen" />
		<tag k="place" v="farm" />
		<tag k="ssr:stedsnr" v="436006" />
	</node>
	<node lat="62.714338888150856" lon="8.43112222724541" id="-10423">
		<tag k="fixme" v="consider place=hamlet" />
		<tag k="name" v="Husby" />
		<tag k="place" v="farm" />
		<tag k="ssr:stedsnr" v="436179" />
	</node>
	<node lat="62.674184438589585" lon="8.577245520960389" id="-10424">
		<tag k="fixme" v="consider place=hamlet" />
		<tag k="name" v="Hov" />
		<tag k="old_name" v="Hof;Hofs prestegård" />
		<tag k="place" v="farm" />
		<tag k="ssr:stedsnr" v="436057" />
	</node>
	<node lat="62.74280000005755" lon="8.51535554888194" id="-10425">
		<tag k="name" v="Hjellan" />
		<tag k="place" v="farm" />
		<tag k="ssr:stedsnr" v="436222" />
	</node>
	<node lat="62.57103037709052" lon="9.16591074984064" id="-10437">
		<tag k="fixme" v="consider place=hamlet" />
		<tag k="name" v="Grensa" />
		<tag k="place" v="farm" />
		<tag k="ssr:stedsnr" v="437799" />
	</node>
	<node lat="62.864447218566504" lon="8.503486104855256" id="-10444">
		<tag k="name" v="Krokagrenda" />
		<tag k="place" v="hamlet" />
		<tag k="ssr:stedsnr" v="449103" />
	</node>
	<node lat="62.85262222659884" lon="8.539663891891765" id="-10445">
		<tag k="name" v="Leviksetra" />
		<tag k="place" v="locality" />
		<tag k="ssr:stedsnr" v="449242" />
	</node>
	<node lat="62.82953889147232" lon="8.528263894150145" id="-10447">
		<tag k="fixme" v="consider place=hamlet" />
		<tag k="name" v="Brekkan" />
		<tag k="place" v="farm" />
		<tag k="ssr:stedsnr" v="449269" />
	</node>
	<node lat="62.834230557802236" lon="8.509702772934547" id="-10448">
		<tag k="name" v="Grinhaugen" />
		<tag k="place" v="farm" />
		<tag k="ssr:stedsnr" v="449186" />
	</node>
	<node lat="62.645522219761126" lon="8.70858055176818" id="-10466">
		<tag k="alt_name" v="Utistu Grødal" />
		<tag k="name" v="Utistu Grødalen" />
		<tag k="place" v="farm" />
		<tag k="ssr:stedsnr" v="450374" />
	</node>
	<node lat="62.79166666619667" lon="8.488150008167786" id="-10471">
		<tag k="name" v="Overslættet" />
		<tag k="place" v="farm" />
		<tag k="ssr:stedsnr" v="450580" />
	</node>
	<node lat="62.716872222333016" lon="8.419986120754137" id="-10472">
		<tag k="name" v="Erstadengan" />
		<tag k="place" v="quarter" />
		<tag k="ssr:stedsnr" v="451102" />
	</node>
	<node lat="62.73967777873692" lon="8.5268444387283" id="-10492">
		<tag k="name" v="Oppdølstrøa" />
		<tag k="place" v="farm" />
		<tag k="ssr:stedsnr" v="678257" />
	</node>
	<node lat="62.69012778214157" lon="8.415136112836114" id="-10501">
		<tag k="name" v="Bakkan" />
		<tag k="place" v="farm" />
		<tag k="ssr:stedsnr" v="679046" />
	</node>
	<node lat="62.76606666792743" lon="8.328805554597157" id="-10513">
		<tag k="fixme" v="consider place=hamlet" />
		<tag k="name" v="Jordalsgrenda" />
		<tag k="place" v="village" />
		<tag k="ssr:stedsnr" v="679352" />
	</node>
	<node lat="62.56564166465352" lon="9.159386102482673" id="-10523">
		<tag k="fixme" v="consider place=hamlet" />
		<tag k="name" v="Morka" />
		<tag k="place" v="farm" />
		<tag k="ssr:stedsnr" v="679772" />
	</node>
	<node lat="62.83129444360956" lon="8.53211943517184" id="-10556">
		<tag k="name" v="Alfheim" />
		<tag k="old_name" v="Brekkbakkan" />
		<tag k="place" v="farm" />
		<tag k="ssr:stedsnr" v="497314" />
	</node>
	<node lat="62.86244444528803" lon="8.391572227526066" id="-10571">
		<tag k="historic" v="shieling" />
		<tag k="name" v="Skarsetra" />
		<tag k="place" v="isolated_dwelling" />
		<tag k="ssr:stedsnr" v="509221" />
	</node>
	<node lat="62.84120000152418" lon="8.548536113810375" id="-10575">
		<tag k="name" v="Øvre Setrin" />
		<tag k="place" v="isolated_dwelling" />
		<tag k="ssr:stedsnr" v="509402" />
	</node>
	<node lat="62.74839722248928" lon="8.449988895738402" id="-10593">
		<tag k="name" v="Flåøya" />
		<tag k="place" v="farm" />
		<tag k="ssr:stedsnr" v="510713" />
	</node>
	<node lat="62.80794166932826" lon="8.472266664635551" id="-10596">
		<tag k="name" v="Setra" />
		<tag k="place" v="locality" />
		<tag k="ssr:stedsnr" v="510611" />
	</node>
	<node lat="62.64035555205481" lon="8.810466663743346" id="-10603">
		<tag k="name" v="Ytter Røyhjellen" />
		<tag k="place" v="farm" />
		<tag k="ssr:stedsnr" v="511348" />
	</node>
	<node lat="62.76338889340207" lon="8.594119450106925" id="-10608">
		<tag k="name" v="Virom Oppistua" />
		<tag k="place" v="farm" />
		<tag k="ssr:stedsnr" v="511823" />
	</node>
	<node lat="62.76110277510381" lon="8.284236113632168" id="-10610">
		<tag k="name" v="Jordalssetra" />
		<tag k="place" v="isolated_dwelling" />
		<tag k="ssr:stedsnr" v="511970" />
	</node>
	<node lat="62.55803055163674" lon="9.098108339977632" id="-10614">
		<tag k="name" v="Flurhytta" />
		<tag k="place" v="isolated_dwelling" />
		<tag k="ssr:stedsnr" v="512281" />
	</node>
	<node lat="62.5602277766186" lon="9.080602775803031" id="-10615">
		<tag k="name" v="Negard Gravem" />
		<tag k="place" v="farm" />
		<tag k="ssr:stedsnr" v="512419" />
	</node>
	<node lat="62.65634166987632" lon="8.34730832365401" id="-10628">
		<tag k="fixme" v="consider place=hamlet" />
		<tag k="name" v="Skrondal" />
		<tag k="place" v="farm" />
		<tag k="ssr:stedsnr" v="557004" />
	</node>
	<node lat="62.70061944495862" lon="8.42352777748036" id="-10632">
		<tag k="name" v="Bøen" />
		<tag k="place" v="farm" />
		<tag k="ssr:stedsnr" v="557210" />
	</node>
	<node lat="62.54118611457916" lon="9.131402785065132" id="-10644">
		<tag k="historic" v="shieling" />
		<tag k="name" v="Litlvangen" />
		<tag k="place" v="isolated_dwelling" />
		<tag k="ssr:stedsnr" v="557816" />
	</node>
	<node lat="62.64785555791302" lon="8.74502778409907" id="-10647">
		<tag k="name" v="Hoåsbrekka" />
		<tag k="place" v="farm" />
		<tag k="ssr:stedsnr" v="557946" />
	</node>
	<node lat="62.84540000129268" lon="8.524016675524695" id="-10651">
		<tag k="name" v="Arnstad" />
		<tag k="place" v="farm" />
		<tag k="ssr:stedsnr" v="558357" />
	</node>
	<node lat="62.64276389080434" lon="8.793869439703208" id="-10665">
		<tag k="name" v="Leirvollen" />
		<tag k="place" v="farm" />
		<tag k="ssr:stedsnr" v="692287" />
	</node>
	<node lat="62.86975833172811" lon="8.474777781985132" id="-10671">
		<tag k="name" v="Gjengstøa" />
		<tag k="place" v="locality" />
		<tag k="ssr:stedsnr" v="692252" />
	</node>
	<node lat="62.77125555186642" lon="8.530286108380741" id="-10679">
		<tag k="fixme" v="consider place=hamlet" />
		<tag k="name" v="Ålvundeidet" />
		<tag k="place" v="village" />
		<tag k="ssr:stedsnr" v="566207" />
	</node>
	<node lat="62.64138055973242" lon="8.778469439915737" id="-10707">
		<tag k="name" v="Bortstu Flatvad" />
		<tag k="place" v="farm" />
		<tag k="ssr:stedsnr" v="570267" />
	</node>
	<node lat="62.50765000054317" lon="8.982049993859787" id="-10711">
		<tag k="name" v="Skålvollykkja" />
		<tag k="place" v="locality" />
		<tag k="ssr:stedsnr" v="570425" />
	</node>
	<node lat="62.61003055384252" lon="8.31113888435208" id="-10715">
		<tag k="historic" v="shieling" />
		<tag k="name" v="Øyasetra" />
		<tag k="place" v="isolated_dwelling" />
		<tag k="ssr:stedsnr" v="570307" />
	</node>
	<node lat="62.66450555954502" lon="8.617475006597891" id="-10735">
		<tag k="name" v="Pestua" />
		<tag k="place" v="farm" />
		<tag k="ssr:stedsnr" v="571169" />
	</node>
	<node lat="62.61116111475922" lon="8.92066110315885" id="-10741">
		<tag k="name" v="Østistu Snøva" />
		<tag k="place" v="farm" />
		<tag k="ssr:stedsnr" v="571557" />
	</node>
	<node lat="62.761313886831346" lon="8.547086105063391" id="-10757">
		<tag k="name" v="Liabø" />
		<tag k="place" v="farm" />
		<tag k="ssr:stedsnr" v="571851" />
	</node>
	<node lat="62.76476666872789" lon="8.547888891351953" id="-10763">
		<tag k="name" v="Bakketun" />
		<tag k="place" v="farm" />
		<tag k="ssr:stedsnr" v="693853" />
	</node>
	<node lat="62.65114722243462" lon="8.693100006774717" id="-10766">
		<tag k="name" v="Elverhøy" />
		<tag k="place" v="farm" />
		<tag k="ssr:stedsnr" v="572505" />
	</node>
	<node lat="62.76118611518063" lon="8.316633327955522" id="-10768">
		<tag k="name" v="Ekkerøya" />
		<tag k="place" v="farm" />
		<tag k="ssr:stedsnr" v="693961" />
	</node>
	<node lat="62.75279722297663" lon="8.336241675944205" id="-10771">
		<tag k="name" v="Gammelsetra" />
		<tag k="place" v="locality" />
		<tag k="ssr:stedsnr" v="572965" />
	</node>
	<node lat="62.55888055344637" lon="9.08236111639711" id="-10776">
		<tag k="name" v="Larsstu Gravem" />
		<tag k="place" v="farm" />
		<tag k="ssr:stedsnr" v="694400" />
	</node>
	<node lat="62.74937222341884" lon="8.535899991102955" id="-10792">
		<tag k="name" v="Nylykkja" />
		<tag k="place" v="farm" />
		<tag k="ssr:stedsnr" v="618207" />
	</node>
	<node lat="62.61718333072735" lon="8.899455562438096" id="-10801">
		<tag k="name" v="Vermøya" />
		<tag k="place" v="farm" />
		<tag k="ssr:stedsnr" v="618994" />
	</node>
	<node lat="62.88943333729154" lon="8.445297228830116" id="-10802">
		<tag k="name" v="Mjølkplassen" />
		<tag k="place" v="isolated_dwelling" />
		<tag k="ssr:stedsnr" v="619316" />
	</node>
	<node lat="62.761219446637035" lon="8.546777770991401" id="-10805">
		<tag k="name" v="Petrøa" />
		<tag k="place" v="farm" />
		<tag k="ssr:stedsnr" v="619524" />
	</node>
	<node lat="62.64522499960463" lon="8.792558335865186" id="-10817">
		<tag k="name" v="Gammelheimen" />
		<tag k="place" v="locality" />
		<tag k="ssr:stedsnr" v="630308" />
	</node>
	<node lat="62.641849996698845" lon="8.770619450468669" id="-10819">
		<tag k="name" v="Øyan" />
		<tag k="place" v="farm" />
		<tag k="ssr:stedsnr" v="630294" />
	</node>
	<node lat="62.6331805570304" lon="8.702777781676973" id="-10845">
		<tag k="name" v="Langmyrstølen" />
		<tag k="place" v="locality" />
		<tag k="ssr:stedsnr" v="632420" />
	</node>
	<node lat="62.60304166367806" lon="8.93250833845692" id="-10857">
		<tag k="name" v="Setran" />
		<tag k="place" v="locality" />
		<tag k="ssr:stedsnr" v="632538" />
	</node>
	<node lat="62.64888888690073" lon="8.678683341445366" id="-10859">
		<tag k="name" v="Leangsøya" />
		<tag k="place" v="farm" />
		<tag k="ssr:stedsnr" v="632481" />
	</node>
	<node lat="62.78195833364415" lon="8.561908341365076" id="-10865">
		<tag k="name" v="Skihytta" />
		<tag k="place" v="isolated_dwelling" />
		<tag k="ssr:stedsnr" v="632828" />
	</node>
	<node lat="62.55656666675124" lon="9.076611117667257" id="-10872">
		<tag k="name" v="Hjellrønningen" />
		<tag k="place" v="farm" />
		<tag k="ssr:stedsnr" v="633432" />
	</node>
	<node lat="62.508977778818476" lon="9.06714999519472" id="-10876">
		<tag k="name" v="Haugen" />
		<tag k="place" v="farm" />
		<tag k="ssr:stedsnr" v="633681" />
	</node>
	<node lat="62.75877123005643" lon="8.307658890425115" id="-10895">
		<tag k="fixme" v="consider place=hamlet" />
		<tag k="name" v="Øvre Jordal" />
		<tag k="place" v="farm" />
		<tag k="ssr:stedsnr" v="667044" />
	</node>
	<node lat="62.534108331658125" lon="8.989005553966129" id="-10916">
		<tag k="historic" v="shieling" />
		<tag k="name" v="Gjerdavangen" />
		<tag k="place" v="isolated_dwelling" />
		<tag k="ssr:stedsnr" v="679821" />
	</node>
	<node lat="62.72362500252568" lon="8.7656277864302" id="-10917">
		<tag k="fixme" v="consider tourism=alpine_hut or tourism=chalet" />
		<tag k="name" v="Renndølsetra" />
		<tag k="old_name" v="Reindølsætra" />
		<tag k="ssr:stedsnr" v="679881" />
		<tag k="tourism" v="wilderness_hut" />
	</node>
	<node lat="62.74963056003425" lon="8.531663879561561" id="-10945">
		<tag k="name" v="Nytun" />
		<tag k="place" v="farm" />
		<tag k="ssr:stedsnr" v="691784" />
	</node>
	<node lat="62.657494446352054" lon="8.615002786205523" id="-10966">
		<tag k="name" v="Reina" />
		<tag k="place" v="farm" />
		<tag k="ssr:stedsnr" v="693181" />
	</node>
	<node lat="62.78190833390153" lon="8.518011112127141" id="-10983">
		<tag k="name" v="Litlhaugen" />
		<tag k="place" v="farm" />
		<tag k="ssr:stedsnr" v="693677" />
	</node>
	<node lat="62.547861113910976" lon="9.11289167447441" id="-10996">
		<tag k="amenity" v="school" />
		<tag k="name" v="Gjøra skole" />
		<tag k="ssr:stedsnr" v="694225" />
	</node>
	<node lat="62.85762499880198" lon="8.59207221966663" id="-11005">
		<tag k="alt_name" v="Drøppingan;Nestua" />
		<tag k="name" v="Ytre Drøppingan" />
		<tag k="place" v="farm" />
		<tag k="ssr:stedsnr" v="899467" />
	</node>
	<node lat="62.649952778480284" lon="8.532519435878093" id="-11016">
		<tag k="name" v="Hovhjellen" />
		<tag k="place" v="isolated_dwelling" />
		<tag k="ssr:stedsnr" v="740024" />
	</node>
	<node lat="62.84909721876369" lon="8.519441658798076" id="-11025">
		<tag k="name" v="Nytrøa" />
		<tag k="place" v="farm" />
		<tag k="ssr:stedsnr" v="740346" />
	</node>
	<node lat="62.5675713481497" lon="9.12592378271589" id="-11027">
		<tag k="fixme" v="consider place=hamlet" />
		<tag k="name" v="Vollan" />
		<tag k="place" v="farm" />
		<tag k="ssr:stedsnr" v="740789" />
	</node>
	<node lat="62.85366944193228" lon="8.40934166295024" id="-11040">
		<tag k="historic" v="shieling" />
		<tag k="name" v="Mulvik Fellesbeite" />
		<tag k="place" v="isolated_dwelling" />
		<tag k="ssr:stedsnr" v="752107" />
	</node>
	<node lat="62.862255557979495" lon="8.514294443715317" id="-11043">
		<tag k="name" v="Langsvala" />
		<tag k="place" v="farm" />
		<tag k="ssr:stedsnr" v="752219" />
	</node>
	<node lat="62.8014666676822" lon="8.545516664498132" id="-11047">
		<tag k="name" v="Visetsetra" />
		<tag k="place" v="isolated_dwelling" />
		<tag k="ssr:stedsnr" v="752380" />
	</node>
	<node lat="62.75985277873463" lon="8.536647223874226" id="-11052">
		<tag k="name" v="Jylland" />
		<tag k="place" v="farm" />
		<tag k="ssr:stedsnr" v="752757" />
	</node>
	<node lat="62.626055554725006" lon="8.881291668933665" id="-11056">
		<tag k="name" v="Gammelheimen" />
		<tag k="place" v="locality" />
		<tag k="ssr:stedsnr" v="752658" />
	</node>
	<node lat="62.657919445663" lon="8.613541657020864" id="-11065">
		<tag k="name" v="Østistu Mele" />
		<tag k="place" v="farm" />
		<tag k="ssr:stedsnr" v="753121" />
	</node>
	<node lat="62.66868611430148" lon="8.346325003667832" id="-11069">
		<tag k="name" v="Rønningsetra" />
		<tag k="place" v="isolated_dwelling" />
		<tag k="ssr:stedsnr" v="753168" />
	</node>
	<node lat="62.553902776649366" lon="9.115602768651351" id="-11083">
		<tag k="name" v="Øststu" />
		<tag k="place" v="farm" />
		<tag k="ssr:stedsnr" v="754264" />
	</node>
	<node lat="62.76700278119374" lon="8.321655557259275" id="-11096">
		<tag k="fixme" v="consider place=hamlet" />
		<tag k="name" v="Nedre Jordal" />
		<tag k="place" v="farm" />
		<tag k="ssr:stedsnr" v="910041" />
	</node>
	<node lat="62.59364393534821" lon="8.975850742818508" id="-11097">
		<tag k="name" v="Musgjerd" />
		<tag k="place" v="hamlet" />
		<tag k="ssr:stedsnr" v="910247" />
	</node>
	<node lat="62.544677779684406" lon="9.103486112105472" id="-11101">
		<tag k="name" v="Øver-Nisja" />
		<tag k="place" v="farm" />
		<tag k="ssr:stedsnr" v="910780" />
	</node>
	<node lat="62.65607778193065" lon="8.650647217554312" id="-11109">
		<tag k="fixme" v="consider place=hamlet" />
		<tag k="loc_name" v="Hoel" />
		<tag k="name" v="Hol" />
		<tag k="place" v="farm" />
		<tag k="ssr:stedsnr" v="801018" />
	</node>
	<node lat="62.894961107604864" lon="8.429080556372519" id="-11122">
		<tag k="fixme" v="consider place=hamlet" />
		<tag k="name" v="Nes" />
		<tag k="place" v="farm" />
		<tag k="ssr:stedsnr" v="801278" />
	</node>
	<node lat="62.84478333138539" lon="8.423883338934617" id="-11141">
		<tag k="name" v="Gammelsetra" />
		<tag k="place" v="locality" />
		<tag k="ssr:stedsnr" v="813029" />
	</node>
	<node lat="62.85090278037422" lon="8.552633336471565" id="-11143">
		<tag k="name" v="Høgfjellet" />
		<tag k="place" v="locality" />
		<tag k="ssr:stedsnr" v="813208" />
	</node>
	<node lat="62.508757439500066" lon="9.068037294132148" id="-11179">
		<tag k="name" v="Saga" />
		<tag k="place" v="locality" />
		<tag k="ssr:stedsnr" v="815584" />
	</node>
	<node lat="62.494293661263356" lon="9.085802243909187" id="-11181">
		<tag k="name" v="Hjellbua" />
		<tag k="place" v="locality" />
		<tag k="ssr:stedsnr" v="815712" />
	</node>
	<node lat="62.62344166555411" lon="8.528586101429118" id="-11200">
		<tag k="fixme" v="consider place=hamlet" />
		<tag k="name" v="Linset" />
		<tag k="place" v="farm" />
		<tag k="ssr:stedsnr" v="922113" />
	</node>
	<node lat="62.643277777945855" lon="8.529027773967872" id="-11206">
		<tag k="fixme" v="consider place=hamlet" />
		<tag k="name" v="Hårstad" />
		<tag k="place" v="farm" />
		<tag k="ssr:stedsnr" v="922030" />
	</node>
	<node lat="62.67780000221945" lon="8.403194438838627" id="-11211">
		<tag k="fixme" v="consider place=hamlet" />
		<tag k="name" v="Øya" />
		<tag k="place" v="farm" />
		<tag k="ssr:stedsnr" v="922050" />
	</node>
	<node lat="62.705111115332684" lon="8.42170277916055" id="-11220">
		<tag k="fixme" v="consider place=hamlet" />
		<tag k="name" v="Sandbrekka" />
		<tag k="place" v="farm" />
		<tag k="ssr:stedsnr" v="922190" />
	</node>
	<node lat="62.78167222637034" lon="8.521652771647018" id="-11226">
		<tag k="fixme" v="consider place=hamlet" />
		<tag k="name" v="Viset" />
		<tag k="place" v="farm" />
		<tag k="ssr:stedsnr" v="922350" />
	</node>
	<node lat="62.77618888682936" lon="8.540547213181531" id="-11227">
		<tag k="name" v="Valsetlykkja" />
		<tag k="place" v="farm" />
		<tag k="ssr:stedsnr" v="922365" />
	</node>
	<node lat="62.79501111244928" lon="8.501702770186226" id="-11228">
		<tag k="name" v="Øytun" />
		<tag k="place" v="farm" />
		<tag k="ssr:stedsnr" v="922371" />
	</node>
	<node lat="62.59482500431813" lon="8.998105554644088" id="-11232">
		<tag k="name" v="Ottemslykkja" />
		<tag k="place" v="farm" />
		<tag k="ssr:stedsnr" v="922734" />
	</node>
	<node lat="62.59524999915622" lon="8.95840000384967" id="-11238">
		<tag k="fixme" v="consider place=hamlet" />
		<tag k="name" v="Ørsund" />
		<tag k="place" v="farm" />
		<tag k="ssr:stedsnr" v="922966" />
	</node>
	<node lat="62.878672226296054" lon="8.445325004965389" id="-11239">
		<tag k="name" v="Ørsvikan" />
		<tag k="place" v="farm" />
		<tag k="ssr:stedsnr" v="923296" />
	</node>
	<node lat="62.75569999747092" lon="8.460516658085494" id="-11240">
		<tag k="name" v="Harvollan" />
		<tag k="place" v="farm" />
		<tag k="ssr:stedsnr" v="923542" />
	</node>
	<node lat="62.75883611564116" lon="8.542447229115076" id="-11241">
		<tag k="fixme" v="consider place=hamlet" />
		<tag k="name" v="Mo" />
		<tag k="place" v="farm" />
		<tag k="ssr:stedsnr" v="923543" />
	</node>
	<node lat="62.65861111061543" lon="8.356744441669337" id="-11246">
		<tag k="name" v="Vollatrøa" />
		<tag k="place" v="farm" />
		<tag k="ssr:stedsnr" v="861007" />
	</node>
	<node lat="62.65646666772845" lon="8.534444439907421" id="-11251">
		<tag k="name" v="Drihjellen" />
		<tag k="place" v="isolated_dwelling" />
		<tag k="ssr:stedsnr" v="861025" />
	</node>
	<node lat="62.52411111412594" lon="9.078672220687361" id="-11264">
		<tag k="name" v="Myra" />
		<tag k="place" v="isolated_dwelling" />
		<tag k="ssr:stedsnr" v="861818" />
	</node>
	<node lat="62.84000967736399" lon="8.521606634231528" id="-11269">
		<tag k="fixme" v="consider place=hamlet" />
		<tag k="name" v="Ålvund" />
		<tag k="place" v="village" />
		<tag k="ssr:stedsnr" v="862360" />
	</node>
	<node lat="62.628927777433674" lon="8.846786102708785" id="-11287">
		<tag k="name" v="Slettbakkøya" />
		<tag k="place" v="isolated_dwelling" />
		<tag k="ssr:stedsnr" v="875714" />
	</node>
	<node lat="62.72810555737823" lon="8.404074997550328" id="-11351">
		<tag k="name" v="Grytnessetra" />
		<tag k="place" v="locality" />
		<tag k="ssr:stedsnr" v="935021" />
	</node>
	<node lat="62.84130000131461" lon="8.520977784375777" id="-11353">
		<tag k="alt_name" v="Bønan" />
		<tag k="name" v="Bøen" />
		<tag k="place" v="farm" />
		<tag k="ssr:stedsnr" v="935236" />
	</node>
	<node lat="62.65203888971238" lon="8.707538880395067" id="-11363">
		<tag k="name" v="Negard Torske" />
		<tag k="place" v="farm" />
		<tag k="ssr:stedsnr" v="935389" />
	</node>
	<node lat="62.56733680958034" lon="9.125693630618802" id="-11371">
		<tag k="name" v="Vollan" />
		<tag k="place" v="farm" />
		<tag k="ssr:stedsnr" v="910223" />
	</node>
	<node lat="62.833766670987416" lon="8.545022215417314" id="-11412">
		<tag k="name" v="Brekksetra" />
		<tag k="place" v="locality" />
		<tag k="ssr:stedsnr" v="934416" />
	</node>
	<node lat="62.65342500184887" lon="8.70284166803001" id="-11430">
		<tag k="name" v="Løykjahagan" />
		<tag k="place" v="quarter" />
		<tag k="ssr:stedsnr" v="936040" />
	</node>
	<node lat="62.533294441100175" lon="8.973566675899166" id="-11446">
		<tag k="name" v="Urabekken" />
		<tag k="place" v="isolated_dwelling" />
		<tag k="ssr:stedsnr" v="937141" />
	</node>
	<node lat="62.559811110334984" lon="9.081158329029915" id="-11451">
		<tag k="name" v="Oppigard Gravem" />
		<tag k="place" v="farm" />
		<tag k="ssr:stedsnr" v="937433" />
	</node>
	<node lat="62.47078162728432" lon="8.664538433059782" id="-11464">
		<tag k="name" v="Håkodalshytta" />
		<tag k="place" v="locality" />
		<tag k="ssr:stedsnr" v="982734" />
	</node>
	<node lat="62.53537777893375" lon="8.985786114818112" id="-11474">
		<tag k="name" v="Skardvangen" />
		<tag k="place" v="isolated_dwelling" />
		<tag k="ssr:stedsnr" v="11851" />
	</node>
	<node lat="62.65310278145322" lon="8.659780558787443" id="-11477">
		<tag k="fixme" v="consider place=hamlet" />
		<tag k="name" v="Leangen" />
		<tag k="place" v="farm" />
		<tag k="ssr:stedsnr" v="12023" />
	</node>
	<node lat="62.78096389336518" lon="8.532169443496638" id="-11487">
		<tag k="fixme" v="consider place=hamlet" />
		<tag k="name" v="Valset" />
		<tag k="place" v="farm" />
		<tag k="ssr:stedsnr" v="12364" />
	</node>
	<node lat="62.75757222590926" lon="8.44550278672559" id="-11488">
		<tag k="fixme" v="consider place=hamlet" />
		<tag k="name" v="Flå" />
		<tag k="place" v="farm" />
		<tag k="ssr:stedsnr" v="12481" />
	</node>
	<node lat="62.75558332925633" lon="8.455722222540944" id="-11489">
		<tag k="fixme" v="multiple name tags, choose one and add the other to alt_name" />
		<tag k="name" v="Strandheim;Hjelltrøa" />
		<tag k="place" v="farm" />
		<tag k="ssr:stedsnr" v="12482" />
	</node>
	<node lat="62.750263891992766" lon="8.634016657281647" id="-11490">
		<tag k="fixme" v="consider place=hamlet" />
		<tag k="name" v="Dalsbøen" />
		<tag k="place" v="farm" />
		<tag k="ssr:stedsnr" v="12484" />
	</node>
	<node lat="62.5623704052134" lon="8.837272351040681" id="-11494">
		<tag k="name" v="Olderbua" />
		<tag k="place" v="locality" />
		<tag k="ssr:stedsnr" v="12756" />
	</node>
	<node lat="62.83834166843876" lon="8.430605554388096" id="-11508">
		<tag k="name" v="Innigardssetra" />
		<tag k="place" v="locality" />
		<tag k="ssr:stedsnr" v="23065" />
	</node>
	<node lat="62.835172221906284" lon="8.499658334505796" id="-11518">
		<tag k="name" v="Litlvågen" />
		<tag k="place" v="farm" />
		<tag k="ssr:stedsnr" v="24170" />
	</node>
	<node lat="62.50686388717744" lon="8.973183339204587" id="-11528">
		<tag k="name" v="Skåla" />
		<tag k="place" v="farm" />
		<tag k="ssr:stedsnr" v="24572" />
	</node>
	<node lat="62.728294440928046" lon="8.414811106452" id="-11533">
		<tag k="fixme" v="consider place=hamlet" />
		<tag k="name" v="Grytneset" />
		<tag k="place" v="farm" />
		<tag k="ssr:stedsnr" v="25019" />
	</node>
	<node lat="62.55807500420692" lon="8.949827774528904" id="-11556">
		<tag k="name" v="Bjørkaly" />
		<tag k="place" v="isolated_dwelling" />
		<tag k="ssr:stedsnr" v="26139" />
	</node>
	<node lat="62.69165555567221" lon="8.417511111064085" id="-11600">
		<tag k="name" v="Sjølset" />
		<tag k="place" v="farm" />
		<tag k="ssr:stedsnr" v="72037" />
	</node>
	<node lat="62.73729444893097" lon="8.520338887861353" id="-11614">
		<tag k="fixme" v="consider place=hamlet" />
		<tag k="name" v="Oppdøl" />
		<tag k="place" v="farm" />
		<tag k="ssr:stedsnr" v="72232" />
	</node>
	<node lat="62.444072226734015" lon="8.901741667229693" id="-11618">
		<tag k="fixme" v="consider tourism=alpine_hut or tourism=chalet" />
		<tag k="name" v="Grøvudalshytta" />
		<tag k="ssr:stedsnr" v="72423" />
		<tag k="tourism" v="wilderness_hut" />
	</node>
	<node lat="62.48539444230155" lon="8.946038883570242" id="-11621">
		<tag k="historic" v="shieling" />
		<tag k="name" v="Hallen" />
		<tag k="place" v="isolated_dwelling" />
		<tag k="ssr:stedsnr" v="72441" />
	</node>
	<node lat="62.58955278206098" lon="9.012749990839557" id="-11632">
		<tag k="name" v="Ratet" />
		<tag k="place" v="farm" />
		<tag k="ssr:stedsnr" v="72755" />
	</node>
	<node lat="62.84436666704255" lon="8.487877775054267" id="-11678">
		<tag k="name" v="Karisetra" />
		<tag k="place" v="locality" />
		<tag k="ssr:stedsnr" v="85167" />
	</node>
	<node lat="62.641016664963075" lon="8.783688884143265" id="-11682">
		<tag k="name" v="Utigard Flatvad" />
		<tag k="place" v="farm" />
		<tag k="ssr:stedsnr" v="85257" />
	</node>
	<node lat="62.7403472245329" lon="8.623244440487687" id="-11688">
		<tag k="name" v="Dalsbøsetra" />
		<tag k="place" v="isolated_dwelling" />
		<tag k="ssr:stedsnr" v="85692" />
	</node>
	<node lat="62.75724166649566" lon="8.537847215982085" id="-11691">
		<tag k="name" v="Austistua" />
		<tag k="place" v="farm" />
		<tag k="ssr:stedsnr" v="85739" />
	</node>
	<node lat="62.66337222239953" lon="8.5785027683604" id="-11700">
		<tag k="amenity" v="nursing_home" />
		<tag k="name" v="Julvollan" />
		<tag k="ssr:stedsnr" v="86091" />
	</node>
	<node lat="62.669972217919685" lon="8.59267499904167" id="-11702">
		<tag k="leisure" v="pitch" />
		<tag k="name" v="Svømmehall" />
		<tag k="ssr:stedsnr" v="86138" />
	</node>
	<node lat="62.63431762346495" lon="8.842198990332605" id="-11758">
		<tag k="fixme" v="consider tourism=alpine_hut or tourism=chalet" />
		<tag k="name" v="Eiriksvollen" />
		<tag k="ssr:stedsnr" v="101889" />
		<tag k="tourism" v="wilderness_hut" />
	</node>
	<node lat="62.826549997226465" lon="8.53162222534574" id="-11763">
		<tag k="name" v="Engan" />
		<tag k="place" v="farm" />
		<tag k="ssr:stedsnr" v="110392" />
	</node>
	<node lat="62.71830833617284" lon="8.431086119782064" id="-11766">
		<tag k="fixme" v="consider place=hamlet" />
		<tag k="name" v="Øksendalsøra" />
		<tag k="old_name" v="Øksendalsøren" />
		<tag k="place" v="farm" />
		<tag k="ssr:stedsnr" v="121046" />
	</node>
	<node lat="62.543422220769855" lon="8.956105555590598" id="-11784">
		<tag k="fixme" v="consider tourism=alpine_hut or tourism=chalet" />
		<tag k="name" v="Vangshaugen" />
		<tag k="ssr:stedsnr" v="132774" />
		<tag k="tourism" v="wilderness_hut" />
	</node>
	<node lat="62.66861944202721" lon="8.37025000538279" id="-11789">
		<tag k="fixme" v="consider place=hamlet" />
		<tag k="name" v="Simonhjellen" />
		<tag k="place" v="farm" />
		<tag k="ssr:stedsnr" v="133039" />
	</node>
	<node lat="62.59088332957668" lon="9.008780552602643" id="-11807">
		<tag k="name" v="Øyalykkja" />
		<tag k="place" v="farm" />
		<tag k="ssr:stedsnr" v="133751" />
	</node>
	<node lat="62.77179444780285" lon="8.55893610820837" id="-11808">
		<tag k="historic" v="shieling" />
		<tag k="name" v="Børsetsetra" />
		<tag k="place" v="isolated_dwelling" />
		<tag k="ssr:stedsnr" v="141197" />
	</node>
	<node lat="62.846524997413596" lon="8.447955564691602" id="-11824">
		<tag k="name" v="Bakkan" />
		<tag k="place" v="farm" />
		<tag k="ssr:stedsnr" v="145168" />
	</node>
	<node lat="62.85516388710328" lon="8.517288895447672" id="-11829">
		<tag k="name" v="Vik" />
		<tag k="place" v="farm" />
		<tag k="ssr:stedsnr" v="145320" />
	</node>
	<node lat="62.8381777790348" lon="8.519297231730434" id="-11830">
		<tag k="name" v="Ålvund" />
		<tag k="place" v="farm" />
		<tag k="ssr:stedsnr" v="145457" />
	</node>
	<node lat="62.65184999661376" lon="8.712627774030848" id="-11858">
		<tag k="name" v="Bortstu Torske" />
		<tag k="place" v="farm" />
		<tag k="ssr:stedsnr" v="146362" />
	</node>
	<node lat="62.75808055857731" lon="8.604769446499066" id="-11876">
		<tag k="name" v="Gammelholtan" />
		<tag k="place" v="locality" />
		<tag k="ssr:stedsnr" v="146742" />
	</node>
	<node lat="62.573972222487086" lon="9.13978611273169" id="-11880">
		<tag k="name" v="Øytun" />
		<tag k="place" v="farm" />
		<tag k="ssr:stedsnr" v="147045" />
	</node>
	<node lat="62.67089166852999" lon="8.590047219612314" id="-11891">
		<tag k="leisure" v="pitch" />
		<tag k="name" v="Sande Stadion" />
		<tag k="ssr:stedsnr" v="147151" />
	</node>
	<node lat="62.49280277979802" lon="9.082941664706397" id="-11906">
		<tag k="historic" v="shieling" />
		<tag k="name" v="Landlaupsetra" />
		<tag k="place" v="isolated_dwelling" />
		<tag k="ssr:stedsnr" v="147691" />
	</node>
	<node lat="62.56547222146604" lon="9.159988886104488" id="-11928">
		<tag k="historic" v="shieling" />
		<tag k="name" v="Morka" />
		<tag k="place" v="isolated_dwelling" />
		<tag k="ssr:stedsnr" v="181237" />
	</node>
	<node lat="62.55971644065954" lon="9.080383299461147" id="-11930">
		<tag k="name" v="Gravem" />
		<tag k="place" v="hamlet" />
		<tag k="ssr:stedsnr" v="181242" />
	</node>
	<node lat="62.71319444889722" lon="8.421211120585157" id="-11934">
		<tag k="fixme" v="consider place=hamlet" />
		<tag k="name" v="Erstad" />
		<tag k="place" v="farm" />
		<tag k="ssr:stedsnr" v="193211" />
	</node>
	<node lat="62.453998928604555" lon="8.561015910899387" id="-11942">
		<tag k="historic" v="shieling" />
		<tag k="name" v="Hårstadsætra" />
		<tag k="place" v="isolated_dwelling" />
		<tag k="ssr:stedsnr" v="193341" />
	</node>
	<node lat="62.60979722248827" lon="8.525511114220766" id="-11953">
		<tag k="name" v="Dalen" />
		<tag k="place" v="farm" />
		<tag k="ssr:stedsnr" v="194120" />
	</node>
	<node lat="62.43124444045049" lon="9.181719445757865" id="-11956">
		<tag k="fixme" v="consider tourism=alpine_hut or tourism=chalet" />
		<tag k="name" v="Loennechenbua" />
		<tag k="ssr:stedsnr" v="193508" />
		<tag k="tourism" v="wilderness_hut" />
	</node>
	<node lat="62.54036666431014" lon="9.104702780537874" id="-11961">
		<tag k="name" v="Sandlykkja" />
		<tag k="place" v="farm" />
		<tag k="ssr:stedsnr" v="193836" />
	</node>
	<node lat="62.53260726069123" lon="8.992584976889953" id="-11964">
		<tag k="name" v="Tøftvangen" />
		<tag k="place" v="farm" />
		<tag k="ssr:stedsnr" v="193848" />
	</node>
	<node lat="62.55943939423923" lon="9.08206428143144" id="-11965">
		<tag k="fixme" v="consider place=hamlet" />
		<tag k="name" v="Gravem" />
		<tag k="place" v="farm" />
		<tag k="ssr:stedsnr" v="193811" />
	</node>
	<node lat="62.630230552743" lon="8.840569453566316" id="-11968">
		<tag k="name" v="Molykkja" />
		<tag k="place" v="farm" />
		<tag k="ssr:stedsnr" v="193936" />
	</node>
	<node lat="62.64475277918153" lon="8.78955000362014" id="-11974">
		<tag k="name" v="Leirbrekka" />
		<tag k="place" v="farm" />
		<tag k="ssr:stedsnr" v="193950" />
	</node>
	<node lat="62.89973888452226" lon="8.421294443889945" id="-11976">
		<tag k="name" v="Utigard" />
		<tag k="place" v="farm" />
		<tag k="ssr:stedsnr" v="194261" />
	</node>
	<node lat="62.66663055177412" lon="8.373002776264478" id="-11979">
		<tag k="fixme" v="consider place=hamlet" />
		<tag k="name" v="Hjellbøen" />
		<tag k="place" v="farm" />
		<tag k="ssr:stedsnr" v="194002" />
	</node>
	<node lat="62.68167222544838" lon="8.54871667613592" id="-11982">
		<tag k="building" v="industrial" />
		<tag k="industrial" v="factory" />
		<tag k="name" v="Hydro Aluminium" />
		<tag k="old_name" v="Årdal og Sunndal verk" />
		<tag k="ssr:stedsnr" v="194052" />
	</node>
	<node lat="62.758586444546076" lon="8.307081959775521" id="-11993">
		<tag k="fixme" v="multiple name tags, choose one and add the other to alt_name" />
		<tag k="name" v="Oppistua;Øvre Jordal" />
		<tag k="place" v="farm" />
		<tag k="ssr:stedsnr" v="194345" />
	</node>
	<node lat="62.77206425633909" lon="8.540349897012714" id="-11994">
		<tag k="fixme" v="consider place=hamlet" />
		<tag k="name" v="Børset" />
		<tag k="place" v="farm" />
		<tag k="ssr:stedsnr" v="194349" />
	</node>
	<node lat="62.59305796039835" lon="8.977309908953927" id="-11996">
		<tag k="fixme" v="consider place=hamlet" />
		<tag k="name" v="Musgjerd" />
		<tag k="place" v="farm" />
		<tag k="ssr:stedsnr" v="194754" />
	</node>
	<node lat="62.57053888601837" lon="9.204222223827351" id="-11998">
		<tag k="alt_name" v="Gråursetra" />
		<tag k="historic" v="shieling" />
		<tag k="name" v="Trettvollsætra" />
		<tag k="place" v="isolated_dwelling" />
		<tag k="ssr:stedsnr" v="194792" />
	</node>
	<node lat="62.767971963774066" lon="8.529079596586385" id="-12005">
		<tag k="name" v="Litlbråtten" />
		<tag k="place" v="farm" />
		<tag k="ssr:stedsnr" v="202190" />
	</node>
	<node lat="62.73788333056968" lon="8.516097214368678" id="-12037">
		<tag k="name" v="Naustbøen" />
		<tag k="place" v="isolated_dwelling" />
		<tag k="ssr:stedsnr" v="206379" />
	</node>
	<node lat="62.516538885028005" lon="8.97855832794283" id="-12043">
		<tag k="name" v="Øststu" />
		<tag k="place" v="farm" />
		<tag k="ssr:stedsnr" v="206484" />
	</node>
	<node lat="62.772216669920994" lon="8.496702769514865" id="-12071">
		<tag k="name" v="Gammelsetra" />
		<tag k="place" v="locality" />
		<tag k="ssr:stedsnr" v="207455" />
	</node>
	<node lat="62.63410555319152" lon="8.297099997824894" id="-12073">
		<tag k="fixme" v="consider tourism=alpine_hut or tourism=chalet" />
		<tag k="name" v="Brandstadbu" />
		<tag k="ssr:stedsnr" v="207514" />
		<tag k="tourism" v="wilderness_hut" />
	</node>
	<node lat="62.65270278169431" lon="8.636225003740975" id="-12087">
		<tag k="name" v="Høgset" />
		<tag k="place" v="farm" />
		<tag k="ssr:stedsnr" v="208464" />
	</node>
	<node lat="62.764299997669134" lon="8.333050004602452" id="-12099">
		<tag k="name" v="Vika" />
		<tag k="place" v="farm" />
		<tag k="ssr:stedsnr" v="209000" />
	</node>
	<node lat="62.72365555491943" lon="8.765697228803226" id="-12106">
		<tag k="historic" v="shieling" />
		<tag k="name" v="Oppdølsetra" />
		<tag k="place" v="isolated_dwelling" />
		<tag k="ssr:stedsnr" v="222784" />
	</node>
	<node lat="62.697308332072744" lon="8.488325003937296" id="-12133">
		<tag k="fixme" v="consider place=hamlet" />
		<tag k="name" v="Børstølen" />
		<tag k="place" v="farm" />
		<tag k="ssr:stedsnr" v="315196" />
	</node>
	<node lat="62.63601440971647" lon="8.830659838326632" id="-12142">
		<tag k="fixme" v="consider place=hamlet" />
		<tag k="name" v="Gikling" />
		<tag k="place" v="farm" />
		<tag k="ssr:stedsnr" v="314926" />
	</node>
	<node lat="62.69301944123954" lon="8.424086119745184" id="-12147">
		<tag k="name" v="Sjølsetøya" />
		<tag k="place" v="farm" />
		<tag k="ssr:stedsnr" v="315033" />
	</node>
	<node lat="62.76493055157419" lon="8.528880557013276" id="-12154">
		<tag k="name" v="Liatun" />
		<tag k="place" v="farm" />
		<tag k="ssr:stedsnr" v="315472" />
	</node>
	<node lat="62.75468888894598" lon="8.621255548721308" id="-12165">
		<tag k="name" v="Sanden" />
		<tag k="place" v="farm" />
		<tag k="ssr:stedsnr" v="316563" />
	</node>
	<node lat="62.67062499875972" lon="8.594358324013703" id="-12192">
		<tag k="leisure" v="pitch" />
		<tag k="name" v="Sportshall" />
		<tag k="ssr:stedsnr" v="328120" />
	</node>
	<node lat="62.669030554370934" lon="8.59299999231245" id="-12193">
		<tag k="amenity" v="school" />
		<tag k="name" v="Sunndal ungdomsskole" />
		<tag k="ssr:stedsnr" v="328122" />
	</node>
	<node lat="62.839072221288205" lon="8.54037777874237" id="-12202">
		<tag k="name" v="Austistusetra" />
		<tag k="place" v="isolated_dwelling" />
		<tag k="ssr:stedsnr" v="327447" />
	</node>
	<node lat="62.62823611079689" lon="8.899352768411351" id="-12248">
		<tag k="name" v="Snøvassetrin" />
		<tag k="place" v="locality" />
		<tag k="ssr:stedsnr" v="329621" />
	</node>
	<node lat="62.5091444458375" lon="9.04747221652351" id="-12268">
		<tag k="name" v="Johanslia" />
		<tag k="place" v="farm" />
		<tag k="ssr:stedsnr" v="330713" />
	</node>
	<node lat="62.66605555946922" lon="8.618113891050026" id="-12287">
		<tag k="fixme" v="consider place=hamlet" />
		<tag k="name" v="Furu" />
		<tag k="place" v="farm" />
		<tag k="ssr:stedsnr" v="375010" />
	</node>
	<node lat="62.49005555670235" lon="8.942516673136048" id="-12299">
		<tag k="name" v="Nosa" />
		<tag k="place" v="locality" />
		<tag k="ssr:stedsnr" v="375253" />
	</node>
	<node lat="62.52736944522747" lon="9.080269437608726" id="-12303">
		<tag k="name" v="Svorundøya" />
		<tag k="place" v="farm" />
		<tag k="ssr:stedsnr" v="375819" />
	</node>
	<node lat="62.850722219853" lon="8.440958339492399" id="-12311">
		<tag k="name" v="Hjellen" />
		<tag k="place" v="farm" />
		<tag k="ssr:stedsnr" v="376364" />
	</node>
	<node lat="62.75958888925654" lon="8.536755558467915" id="-12312">
		<tag k="name" v="Skauland" />
		<tag k="place" v="farm" />
		<tag k="ssr:stedsnr" v="376500" />
	</node>
	<node lat="62.85078888521402" lon="8.440305563692931" id="-12340">
		<tag k="name" v="Furulund" />
		<tag k="place" v="farm" />
		<tag k="ssr:stedsnr" v="388064" />
	</node>
	<node lat="62.53160555848113" lon="8.999386114798398" id="-12342">
		<tag k="name" v="Dalabua" />
		<tag k="place" v="isolated_dwelling" />
		<tag k="ssr:stedsnr" v="388075" />
	</node>
	<node lat="62.635372225355496" lon="8.869808323746957" id="-12345">
		<tag k="name" v="Heimsetra" />
		<tag k="place" v="locality" />
		<tag k="ssr:stedsnr" v="388244" />
	</node>
	<node lat="62.80511389158285" lon="8.491469446653898" id="-12364">
		<tag k="name" v="Råa" />
		<tag k="place" v="farm" />
		<tag k="ssr:stedsnr" v="388564" />
	</node>
	<node lat="62.733863890676616" lon="8.412799991252289" id="-12376">
		<tag k="name" v="Henriktrøa" />
		<tag k="place" v="locality" />
		<tag k="ssr:stedsnr" v="389029" />
	</node>
	<node lat="62.664038887058105" lon="8.624144449117932" id="-12381">
		<tag k="name" v="Austigard Furu" />
		<tag k="place" v="farm" />
		<tag k="ssr:stedsnr" v="389173" />
	</node>
	<node lat="62.590936111159124" lon="8.769672218827532" id="-12386">
		<tag k="name" v="Grynnstu" />
		<tag k="place" v="isolated_dwelling" />
		<tag k="ssr:stedsnr" v="389472" />
	</node>
	<node lat="62.52273333095115" lon="9.074763885464725" id="-12390">
		<tag k="name" v="Bruvollen" />
		<tag k="place" v="farm" />
		<tag k="ssr:stedsnr" v="389679" />
	</node>
	<node lat="62.67023333182112" lon="8.544141661075939" id="-12395">
		<tag k="leisure" v="pitch" />
		<tag k="name" v="Idrettsplass" />
		<tag k="ssr:stedsnr" v="390233" />
	</node>
	<node lat="62.61894444619056" lon="8.85142500350522" id="-12408">
		<tag k="name" v="Råsetra" />
		<tag k="place" v="locality" />
		<tag k="ssr:stedsnr" v="390716" />
	</node>
	<node lat="62.86370001741238" lon="8.583984163744413" id="-12428">
		<tag k="alt_name" v="Drøppingan" />
		<tag k="fixme" v="consider place=hamlet" />
		<tag k="name" v="Ytre Drøppingan" />
		<tag k="place" v="farm" />
		<tag k="ssr:stedsnr" v="424050" />
	</node>
	<node lat="62.4930944406648" lon="8.563074995192025" id="-12439">
		<tag k="name" v="Purkbua" />
		<tag k="place" v="isolated_dwelling" />
		<tag k="ssr:stedsnr" v="436150" />
	</node>
	<node lat="62.645502780068284" lon="8.780508330447697" id="-12453">
		<tag k="name" v="Hoåslykkja" />
		<tag k="place" v="farm" />
		<tag k="ssr:stedsnr" v="436954" />
	</node>
	<node lat="62.838555552076606" lon="8.456613893366377" id="-12476">
		<tag k="name" v="Mariasetra" />
		<tag k="place" v="locality" />
		<tag k="ssr:stedsnr" v="449150" />
	</node>
	<node lat="62.480363887831466" lon="8.93871111799504" id="-12483">
		<tag k="historic" v="shieling" />
		<tag k="name" v="Myra" />
		<tag k="place" v="isolated_dwelling" />
		<tag k="ssr:stedsnr" v="496489" />
	</node>
	<node lat="62.55009444729911" lon="8.36766111756695" id="-12494">
		<tag k="fixme" v="consider tourism=alpine_hut or tourism=chalet" />
		<tag k="name" v="Reinsvassbu" />
		<tag k="ssr:stedsnr" v="497078" />
		<tag k="tourism" v="wilderness_hut" />
	</node>
	<node lat="62.75398333137464" lon="8.321091675126077" id="-12512">
		<tag k="fixme" v="consider place=hamlet" />
		<tag k="name" v="Lia" />
		<tag k="place" v="farm" />
		<tag k="ssr:stedsnr" v="497472" />
	</node>
	<node lat="62.784422102120125" lon="8.498051684075925" id="-12519">
		<tag k="name" v="Ytterøya" />
		<tag k="place" v="farm" />
		<tag k="ssr:stedsnr" v="497379" />
	</node>
	<node lat="62.76163611205428" lon="8.314688893180087" id="-12520">
		<tag k="name" v="Ekra" />
		<tag k="place" v="farm" />
		<tag k="ssr:stedsnr" v="497380" />
	</node>
	<node lat="62.721963885479596" lon="8.775605557727625" id="-12525">
		<tag k="fixme" v="consider tourism=alpine_hut or tourism=chalet" />
		<tag k="name" v="Innerdalshytta" />
		<tag k="ssr:stedsnr" v="497885" />
		<tag k="tourism" v="wilderness_hut" />
	</node>
	<node lat="62.61017221874406" lon="8.309327776312012" id="-12556">
		<tag k="historic" v="shieling" />
		<tag k="name" v="Skrondalsetra" />
		<tag k="place" v="isolated_dwelling" />
		<tag k="ssr:stedsnr" v="509335" />
	</node>
	<node lat="62.51687221991112" lon="8.989299991057052" id="-12566">
		<tag k="name" v="Bortategjerdet" />
		<tag k="place" v="farm" />
		<tag k="ssr:stedsnr" v="509527" />
	</node>
	<node lat="62.499524995700284" lon="8.97278888175829" id="-12568">
		<tag k="name" v="Kristenstu" />
		<tag k="place" v="farm" />
		<tag k="ssr:stedsnr" v="509552" />
	</node>
	<node lat="62.659047218865446" lon="8.646208328401325" id="-12578">
		<tag k="name" v="Bjørkan" />
		<tag k="place" v="hamlet" />
		<tag k="ssr:stedsnr" v="510096" />
	</node>
	<node lat="62.83691944033782" lon="8.477372227112692" id="-12580">
		<tag k="name" v="Vågasetra" />
		<tag k="place" v="isolated_dwelling" />
		<tag k="ssr:stedsnr" v="510192" />
	</node>
	<node lat="62.90745555211953" lon="8.406538887055781" id="-12587">
		<tag k="name" v="Solvang" />
		<tag k="place" v="farm" />
		<tag k="ssr:stedsnr" v="510240" />
	</node>
	<node lat="62.70556110708464" lon="8.439544435940546" id="-12598">
		<tag k="name" v="Svatrøa" />
		<tag k="place" v="locality" />
		<tag k="ssr:stedsnr" v="511071" />
	</node>
	<node lat="62.77381388875191" lon="8.528022219317553" id="-12614">
		<tag k="name" v="Tollmo" />
		<tag k="place" v="farm" />
		<tag k="ssr:stedsnr" v="511648" />
	</node>
	<node lat="62.57363333116727" lon="9.139758329753649" id="-12619">
		<tag k="name" v="Vollaøya" />
		<tag k="place" v="farm" />
		<tag k="ssr:stedsnr" v="512046" />
	</node>
	<node lat="62.5517777748761" lon="9.117027785674287" id="-12627">
		<tag k="name" v="Nestu" />
		<tag k="place" v="farm" />
		<tag k="ssr:stedsnr" v="512249" />
	</node>
	<node lat="62.49406015269183" lon="9.085200161871649" id="-12629">
		<tag k="historic" v="shieling" />
		<tag k="name" v="Olderbua" />
		<tag k="place" v="isolated_dwelling" />
		<tag k="ssr:stedsnr" v="512746" />
	</node>
	<node lat="62.5152055581839" lon="9.056049990361963" id="-12633">
		<tag k="name" v="Lykkjån" />
		<tag k="place" v="farm" />
		<tag k="ssr:stedsnr" v="512686" />
	</node>
	<node lat="62.63053888995986" lon="8.519244442892601" id="-12639">
		<tag k="name" v="Heimsetra" />
		<tag k="place" v="locality" />
		<tag k="ssr:stedsnr" v="512860" />
	</node>
	<node lat="62.54883055274299" lon="9.11253611882808" id="-12649">
		<tag k="name" v="Gjøra" />
		<tag k="place" v="hamlet" />
		<tag k="ssr:stedsnr" v="545224" />
	</node>
	<node lat="62.836352779545734" lon="8.515813894329444" id="-12709">
		<tag k="name" v="Ålvundsaga" />
		<tag k="place" v="locality" />
		<tag k="ssr:stedsnr" v="570385" />
	</node>
	<node lat="62.8074277778523" lon="8.491361116225432" id="-12714">
		<tag k="name" v="Skogen" />
		<tag k="place" v="farm" />
		<tag k="ssr:stedsnr" v="570535" />
	</node>
	<node lat="62.67455277694331" lon="8.56206388548684" id="-12723">
		<tag k="amenity" v="townhall" />
		<tag k="name" v="Sunndal Rådhus" />
		<tag k="ssr:stedsnr" v="570980" />
	</node>
	<node lat="62.66916944324389" lon="8.590463890997198" id="-12751">
		<tag k="amenity" v="school" />
		<tag k="name" v="Sunndal Vidaregåande skole" />
		<tag k="ssr:stedsnr" v="572185" />
	</node>
	<node lat="62.66162500153634" lon="8.35051110211832" id="-12787">
		<tag k="fixme" v="consider place=hamlet" />
		<tag k="name" v="Bruset" />
		<tag k="place" v="farm" />
		<tag k="ssr:stedsnr" v="618003" />
	</node>
	<node lat="62.79741388649978" lon="8.493599993175872" id="-12799">
		<tag k="name" v="Smisetfossen" />
		<tag k="place" v="farm" />
		<tag k="ssr:stedsnr" v="618373" />
	</node>
	<node lat="62.55497308933203" lon="8.944431560450408" id="-12800">
		<tag k="historic" v="shieling" />
		<tag k="name" v="Alfheim" />
		<tag k="place" v="isolated_dwelling" />
		<tag k="ssr:stedsnr" v="618776" />
	</node>
	<node lat="62.54475555837126" lon="9.103008326783012" id="-12806">
		<tag k="fixme" v="consider place=hamlet" />
		<tag k="name" v="Nisja" />
		<tag k="place" v="farm" />
		<tag k="ssr:stedsnr" v="618755" />
	</node>
	<node lat="62.64508738093133" lon="8.725347111992546" id="-12815">
		<tag k="fixme" v="consider place=hamlet" />
		<tag k="name" v="Grøa" />
		<tag k="place" v="village" />
		<tag k="ssr:stedsnr" v="618941" />
	</node>
	<node lat="62.85050555603697" lon="8.519055547903303" id="-12821">
		<tag k="name" v="Nerland" />
		<tag k="place" v="farm" />
		<tag k="ssr:stedsnr" v="619392" />
	</node>
	<node lat="62.75036389328971" lon="8.524505558947764" id="-12856">
		<tag k="name" v="Fæta" />
		<tag k="place" v="farm" />
		<tag k="ssr:stedsnr" v="630753" />
	</node>
	<node lat="62.66581944300412" lon="8.533408339179264" id="-12857">
		<tag k="amenity" v="school" />
		<tag k="name" v="Tredal skole" />
		<tag k="ssr:stedsnr" v="630772" />
	</node>
	<node lat="62.85098055740168" lon="8.520688890462944" id="-12862">
		<tag k="name" v="Øverland" />
		<tag k="place" v="farm" />
		<tag k="ssr:stedsnr" v="631322" />
	</node>
	<node lat="62.82735278224604" lon="8.525722229421216" id="-12869">
		<tag k="name" v="Seljebøfossen" />
		<tag k="place" v="farm" />
		<tag k="ssr:stedsnr" v="631245" />
	</node>
	<node lat="62.64324722626322" lon="8.723316675316783" id="-12872">
		<tag k="name" v="Fossestu" />
		<tag k="place" v="isolated_dwelling" />
		<tag k="ssr:stedsnr" v="631379" />
	</node>
	<node lat="62.59451944256878" lon="8.768161112250295" id="-12892">
		<tag k="name" v="Krokstu" />
		<tag k="place" v="isolated_dwelling" />
		<tag k="ssr:stedsnr" v="632468" />
	</node>
	<node lat="62.7744555581413" lon="8.523852771407752" id="-12900">
		<tag k="name" v="Hjellen" />
		<tag k="place" v="farm" />
		<tag k="ssr:stedsnr" v="632649" />
	</node>
	<node lat="62.7747444432404" lon="8.521483326110822" id="-12901">
		<tag k="name" v="Røsetbakkan" />
		<tag k="place" v="farm" />
		<tag k="ssr:stedsnr" v="632650" />
	</node>
	<node lat="62.748230554947455" lon="8.338244445284055" id="-12905">
		<tag k="name" v="Stølan" />
		<tag k="place" v="locality" />
		<tag k="ssr:stedsnr" v="632957" />
	</node>
	<node lat="62.55122499818452" lon="9.091922214063008" id="-12910">
		<tag k="name" v="Gunnarstu" />
		<tag k="place" v="farm" />
		<tag k="ssr:stedsnr" v="633422" />
	</node>
	<node lat="62.856828940323766" lon="8.589970909220463" id="-12920">
		<tag k="alt_name" v="Drøppingan" />
		<tag k="fixme" v="consider place=hamlet" />
		<tag k="name" v="Indre Drøppingan" />
		<tag k="place" v="farm" />
		<tag k="ssr:stedsnr" v="667061" />
	</node>
	<node lat="62.44719167026027" lon="9.128991671120822" id="-12924">
		<tag k="fixme" v="consider tourism=alpine_hut or tourism=chalet" />
		<tag k="name" v="Storvassbua" />
		<tag k="ssr:stedsnr" v="718185" />
		<tag k="tourism" v="wilderness_hut" />
	</node>
	<node lat="62.57211944353518" lon="9.157108330097817" id="-12925">
		<tag k="name" v="Trettvollen" />
		<tag k="place" v="farm" />
		<tag k="ssr:stedsnr" v="728191" />
	</node>
	<node lat="62.54708888571951" lon="9.091941674315713" id="-12937">
		<tag k="fixme" v="consider place=hamlet" />
		<tag k="name" v="Hjellmoen" />
		<tag k="place" v="farm" />
		<tag k="ssr:stedsnr" v="739788" />
	</node>
	<node lat="62.623186113236756" lon="8.887199992135116" id="-12940">
		<tag k="fixme" v="consider place=hamlet" />
		<tag k="name" v="Litlfale" />
		<tag k="place" v="farm" />
		<tag k="ssr:stedsnr" v="739996" />
	</node>
	<node lat="62.52355555864535" lon="9.030005549936597" id="-12944">
		<tag k="name" v="Nylykkja" />
		<tag k="place" v="isolated_dwelling" />
		<tag k="ssr:stedsnr" v="739825" />
	</node>
	<node lat="62.835108544621114" lon="8.504984336136653" id="-12953">
		<tag k="fixme" v="consider place=hamlet" />
		<tag k="name" v="Fuglvågen" />
		<tag k="place" v="farm" />
		<tag k="ssr:stedsnr" v="740328" />
	</node>
	<node lat="62.85887500060153" lon="8.42795555979504" id="-12956">
		<tag k="name" v="Brattli" />
		<tag k="place" v="farm" />
		<tag k="ssr:stedsnr" v="740362" />
	</node>
	<node lat="62.76864721874721" lon="8.324102786598859" id="-12958">
		<tag k="name" v="Jordalssjøen" />
		<tag k="place" v="farm" />
		<tag k="ssr:stedsnr" v="740376" />
	</node>
	<node lat="62.84263611349439" lon="8.539827782002597" id="-12983">
		<tag k="name" v="Bønasetra" />
		<tag k="place" v="locality" />
		<tag k="ssr:stedsnr" v="752394" />
	</node>
	<node lat="62.72209444277836" lon="8.416486120520338" id="-12994">
		<tag k="name" v="Stranda" />
		<tag k="place" v="farm" />
		<tag k="ssr:stedsnr" v="753012" />
	</node>
	<node lat="62.69853055525276" lon="8.426211117979904" id="-13019">
		<tag k="name" v="Ingeborgtrøa" />
		<tag k="place" v="locality" />
		<tag k="ssr:stedsnr" v="754093" />
	</node>
	<node lat="62.552305557354074" lon="9.115894453817766" id="-13025">
		<tag k="name" v="Bortstu" />
		<tag k="place" v="farm" />
		<tag k="ssr:stedsnr" v="754289" />
	</node>
	<node lat="62.64736111468336" lon="8.749472215712908" id="-13028">
		<tag k="name" v="Høgstad" />
		<tag k="place" v="farm" />
		<tag k="ssr:stedsnr" v="754461" />
	</node>
	<node lat="62.653775000652125" lon="8.706175008138098" id="-13030">
		<tag k="name" v="Oppigard Torske" />
		<tag k="place" v="farm" />
		<tag k="ssr:stedsnr" v="754478" />
	</node>
	<node lat="62.77051111300199" lon="8.529572214596397" id="-13034">
		<tag k="name" v="Vollum" />
		<tag k="place" v="farm" />
		<tag k="ssr:stedsnr" v="754628" />
	</node>
	<node lat="62.748691667319804" lon="8.51876667092421" id="-13040">
		<tag k="historic" v="shieling" />
		<tag k="name" v="Gjersvollsetra" />
		<tag k="place" v="isolated_dwelling" />
		<tag k="ssr:stedsnr" v="754832" />
	</node>
	<node lat="62.76314444553782" lon="8.594980555157038" id="-13041">
		<tag k="name" v="Virom Nestua" />
		<tag k="place" v="farm" />
		<tag k="ssr:stedsnr" v="754842" />
	</node>
	<node lat="62.531005552377984" lon="9.11372500227337" id="-13050">
		<tag k="name" v="Husmannshusa" />
		<tag k="place" v="locality" />
		<tag k="ssr:stedsnr" v="755475" />
	</node>
	<node lat="62.85056944109811" lon="8.601638885175339" id="-13052">
		<tag k="name" v="Vikatrøa" />
		<tag k="place" v="farm" />
		<tag k="ssr:stedsnr" v="889832" />
	</node>
	<node lat="62.55441667093713" lon="9.137408330455248" id="-13073">
		<tag k="historic" v="shieling" />
		<tag k="name" v="Gjørasætra" />
		<tag k="place" v="isolated_dwelling" />
		<tag k="ssr:stedsnr" v="800758" />
	</node>
	<node lat="62.55310833061212" lon="9.116888898484195" id="-13074">
		<tag k="fixme" v="consider place=hamlet" />
		<tag k="name" v="Gjøra" />
		<tag k="place" v="farm" />
		<tag k="ssr:stedsnr" v="800766" />
	</node>
	<node lat="62.67518611075501" lon="8.56326666737575" id="-13076">
		<tag k="name" v="Sunndalsøra" />
		<tag k="place" v="village" />
		<tag k="ssr:stedsnr" v="801046" />
	</node>
	<node lat="62.631063884915704" lon="8.844130565042033" id="-13082">
		<tag k="name" v="Falelykkja" />
		<tag k="place" v="farm" />
		<tag k="ssr:stedsnr" v="800939" />
	</node>
	<node lat="62.63283055154419" lon="8.30374165817021" id="-13085">
		<tag k="fixme" v="consider place=hamlet" />
		<tag k="name" v="Brandstad" />
		<tag k="place" v="farm" />
		<tag k="ssr:stedsnr" v="801098" />
	</node>
	<node lat="62.50760833394444" lon="9.070069439614036" id="-13090">
		<tag k="fixme" v="consider place=hamlet" />
		<tag k="name" v="Jenstad" />
		<tag k="place" v="farm" />
		<tag k="ssr:stedsnr" v="801792" />
	</node>
	<node lat="62.49967500248987" lon="8.935594443057157" id="-13108">
		<tag k="historic" v="shieling" />
		<tag k="name" v="Myrabua" />
		<tag k="place" v="isolated_dwelling" />
		<tag k="ssr:stedsnr" v="813511" />
	</node>
	<node lat="62.66652778161992" lon="8.611325004674752" id="-13121">
		<tag k="name" v="Stykket" />
		<tag k="place" v="farm" />
		<tag k="ssr:stedsnr" v="814142" />
	</node>
	<node lat="62.75904167105895" lon="8.541497221501205" id="-13126">
		<tag k="name" v="Trøa" />
		<tag k="place" v="farm" />
		<tag k="ssr:stedsnr" v="813783" />
	</node>
	<node lat="62.76906666748423" lon="8.32330832959664" id="-13136">
		<tag k="name" v="Jordalsøra" />
		<tag k="place" v="farm" />
		<tag k="ssr:stedsnr" v="813991" />
	</node>
	<node lat="62.64767777676201" lon="8.704783328372622" id="-13153">
		<tag k="alt_name" v="Nestu Grødal" />
		<tag k="name" v="Nestu Grødalen" />
		<tag k="place" v="farm" />
		<tag k="ssr:stedsnr" v="814414" />
	</node>
	<node lat="62.671955557784166" lon="8.586499995736958" id="-13163">
		<tag k="leisure" v="pitch" />
		<tag k="name" v="Fagerhaugan" />
		<tag k="ssr:stedsnr" v="815168" />
	</node>
	<node lat="62.638349997348385" lon="8.81188055440071" id="-13167">
		<tag k="name" v="Øster Røyhjellen" />
		<tag k="place" v="farm" />
		<tag k="ssr:stedsnr" v="815355" />
	</node>
	<node lat="62.782394443926684" lon="8.52578888924659" id="-13179">
		<tag k="name" v="Øvre Viset" />
		<tag k="place" v="farm" />
		<tag k="ssr:stedsnr" v="815653" />
	</node>
	<node lat="62.77676111302783" lon="8.523608341336573" id="-13180">
		<tag k="name" v="Nedre Haugan" />
		<tag k="place" v="farm" />
		<tag k="ssr:stedsnr" v="815665" />
	</node>
	<node lat="62.77246944046256" lon="8.527408337823616" id="-13181">
		<tag k="name" v="Nybøen" />
		<tag k="place" v="farm" />
		<tag k="ssr:stedsnr" v="815669" />
	</node>
	<node lat="62.76791388939173" lon="8.534397224876443" id="-13183">
		<tag k="leisure" v="pitch" />
		<tag k="name" v="Leikvoll" />
		<tag k="ssr:stedsnr" v="815598" />
	</node>
	<node lat="62.63877499588818" lon="8.306486112066905" id="-13217">
		<tag k="fixme" v="consider place=hamlet" />
		<tag k="name" v="Engan" />
		<tag k="place" v="farm" />
		<tag k="ssr:stedsnr" v="861096" />
	</node>
	<node lat="62.53662777481682" lon="8.963052780957801" id="-13233">
		<tag k="historic" v="shieling" />
		<tag k="name" v="Vangan" />
		<tag k="place" v="isolated_dwelling" />
		<tag k="ssr:stedsnr" v="861791" />
	</node>
	<node lat="62.5383138926057" lon="9.128300007741036" id="-13239">
		<tag k="historic" v="shieling" />
		<tag k="name" v="Storvangen" />
		<tag k="place" v="isolated_dwelling" />
		<tag k="ssr:stedsnr" v="861836" />
	</node>
	<node lat="62.53656111312218" lon="9.099249995556919" id="-13241">
		<tag k="name" v="Lunheim" />
		<tag k="place" v="isolated_dwelling" />
		<tag k="ssr:stedsnr" v="861841" />
	</node>
	<node lat="62.62630555744318" lon="8.851650009498023" id="-13245">
		<tag k="name" v="Råa" />
		<tag k="place" v="farm" />
		<tag k="ssr:stedsnr" v="861943" />
	</node>
	<node lat="62.64125440607768" lon="8.781679561620564" id="-13247">
		<tag k="fixme" v="consider place=hamlet" />
		<tag k="name" v="Flatvad" />
		<tag k="place" v="farm" />
		<tag k="ssr:stedsnr" v="861958" />
	</node>
	<node lat="62.64739166883238" lon="8.74103055771977" id="-13248">
		<tag k="fixme" v="consider place=hamlet" />
		<tag k="name" v="Hoås" />
		<tag k="place" v="farm" />
		<tag k="ssr:stedsnr" v="861968" />
	</node>
	<node lat="62.610888886557085" lon="8.30696944466062" id="-13258">
		<tag k="name" v="Mosbøsetra" />
		<tag k="place" v="isolated_dwelling" />
		<tag k="ssr:stedsnr" v="874320" />
	</node>
	<node lat="62.64205278049067" lon="8.779355561795386" id="-13260">
		<tag k="name" v="Leitet" />
		<tag k="place" v="farm" />
		<tag k="ssr:stedsnr" v="874325" />
	</node>
	<node lat="62.84787499811296" lon="8.522108328810301" id="-13265">
		<tag k="name" v="Buvang" />
		<tag k="place" v="farm" />
		<tag k="ssr:stedsnr" v="874350" />
	</node>
	<node lat="62.633850003044344" lon="8.8561611071252" id="-13295">
		<tag k="name" v="Gammelheimen" />
		<tag k="place" v="locality" />
		<tag k="ssr:stedsnr" v="874286" />
	</node>
	<node lat="62.75502499582971" lon="8.537738887707746" id="-13300">
		<tag k="name" v="Skallen" />
		<tag k="place" v="farm" />
		<tag k="ssr:stedsnr" v="874803" />
	</node>
	<node lat="62.804222223077176" lon="8.506463882185097" id="-13310">
		<tag k="name" v="Skogvoll" />
		<tag k="place" v="farm" />
		<tag k="ssr:stedsnr" v="874554" />
	</node>
	<node lat="62.71741944334901" lon="8.417283334561194" id="-13318">
		<tag k="name" v="Erstadgeilen" />
		<tag k="place" v="locality" />
		<tag k="ssr:stedsnr" v="875095" />
	</node>
	<node lat="62.70468055868485" lon="8.476116666972706" id="-13319">
		<tag k="name" v="Storviksetra" />
		<tag k="place" v="locality" />
		<tag k="ssr:stedsnr" v="875097" />
	</node>
	<node lat="62.672969442825845" lon="8.36005832870967" id="-13326">
		<tag k="name" v="Simonhjellsetra" />
		<tag k="place" v="isolated_dwelling" />
		<tag k="ssr:stedsnr" v="875216" />
	</node>
	<node lat="62.67296110728235" lon="8.572513888515592" id="-13327">
		<tag k="amenity" v="nursing_home" />
		<tag k="name" v="Sunndal Helsetun" />
		<tag k="ssr:stedsnr" v="875217" />
	</node>
	<node lat="62.68299444066714" lon="8.376622228439492" id="-13329">
		<tag k="name" v="Gammelsetra" />
		<tag k="place" v="locality" />
		<tag k="ssr:stedsnr" v="875190" />
	</node>
	<node lat="62.50096389207373" lon="9.119149995361091" id="-13331">
		<tag k="fixme" v="consider tourism=alpine_hut or tourism=chalet" />
		<tag k="name" v="Gammelsetra" />
		<tag k="ssr:stedsnr" v="875255" />
		<tag k="tourism" v="wilderness_hut" />
	</node>
	<node lat="62.670186107044664" lon="8.588830557615585" id="-13383">
		<tag k="amenity" v="school" />
		<tag k="name" v="Sande Skole" />
		<tag k="ssr:stedsnr" v="936135" />
	</node>
	<node lat="62.57229323984687" lon="9.15714312389962" id="-13390">
		<tag k="fixme" v="consider place=hamlet" />
		<tag k="name" v="Trettvollen" />
		<tag k="place" v="farm" />
		<tag k="ssr:stedsnr" v="936063" />
	</node>
	<node lat="62.76245000064453" lon="8.534466658687165" id="-13394">
		<tag k="name" v="Skauland" />
		<tag k="place" v="farm" />
		<tag k="ssr:stedsnr" v="936628" />
	</node>
	<node lat="62.648941664266076" lon="8.688688896692945" id="-13398">
		<tag k="name" v="Løykjaøyan" />
		<tag k="place" v="farm" />
		<tag k="ssr:stedsnr" v="936477" />
	</node>
	<node lat="62.56437221977254" lon="9.06761388803736" id="-13417">
		<tag k="name" v="Utistu Gravem" />
		<tag k="place" v="farm" />
		<tag k="ssr:stedsnr" v="937474" />
	</node>
	<node lat="62.49363055806617" lon="9.084708328454942" id="-13418">
		<tag k="name" v="Hulderbua" />
		<tag k="place" v="locality" />
		<tag k="ssr:stedsnr" v="937750" />
	</node>
	<node lat="62.73724732854473" lon="8.520137230801827" id="-13432">
		<tag k="alt_name" v="Opdøl" />
		<tag k="name" v="Oppdøl" />
		<tag k="place" v="farm" />
		<tag k="ssr:stedsnr" v="975353" />
	</node>
	<node lat="62.42685665327754" lon="8.614525156380775" id="-13437">
		<tag k="name" v="Torbudalshytta" />
		<tag k="place" v="locality" />
		<tag k="ssr:stedsnr" v="982742" />
	</node>
	<node lat="62.775071254551385" lon="8.543690178957569" id="-13584">
		<tag k="alt_name" v="Børsetlia" />
		<tag k="landuse" v="winter_sports" />
		<tag k="name" v="Sunndal Alpinsenter" />
		<tag k="piste:type" v="downhill" />
		<tag k="ssr:stedsnr" v="1079681" />
	</node>
	<node lat="62.68572434453642" lon="8.41252222507728" id="-13585">
		<tag k="name" v="Steinteigan" />
		<tag k="place" v="farm" />
		<tag k="ssr:stedsnr" v="1080834" />
	</node>
</osm>
