<?xml version="1.0" encoding="UTF-8"?>
<<<<<<< HEAD
<osm version="0.6" generator="osmapis">
	<node lat="62.900833334608734" lon="8.413538895146914" id="-6719">
		<tag k="fixme" v="consider seamark:type=rock or natural=shoal" />
		<tag k="name" v="Klokkarskjæret" />
		<tag k="place" v="islet" />
		<tag k="ssr:stedsnr" v="23381" />
	</node>
	<node lat="62.86468333416629" lon="8.590836115580517" id="-6781">
		<tag k="name" v="Drøppingneset" />
		<tag k="natural" v="cape" />
		<tag k="ssr:stedsnr" v="237822" />
	</node>
	<node lat="62.90143333578385" lon="8.417391674808615" id="-6833">
		<tag k="name" v="Hamna" />
		<tag k="natural" v="beach" />
		<tag k="ssr:stedsnr" v="85275" />
	</node>
	<node lat="62.76402777495865" lon="8.35106112052173" id="-6847">
		<tag k="name" v="Grovaneset" />
		<tag k="natural" v="cape" />
		<tag k="ssr:stedsnr" v="85987" />
	</node>
	<node lat="62.77250833757038" lon="8.320861101605422" id="-6879">
		<tag k="name" v="Jordalsneset" />
=======
<osm generator="osmapis" version="0.6">
	<node id="-86014" lat="62.7271444443" lon="8.54503056461">
		<tag k="name" v="Oppdølsstranda" />
		<tag k="natural" v="beach" />
		<tag k="place" v="locality" />
		<tag k="ssr:stedsnr" v="436183" />
	</node>
	<node id="-83965" lat="62.9069194489" lon="8.39147222396">
		<tag k="name" v="Ytre Holmen" />
		<tag k="place" v="islet" />
		<tag k="ssr:stedsnr" v="510245" />
	</node>
	<node id="-86524" lat="62.784547218" lon="8.35704722038">
		<tag k="name" v="Brautholaneset" />
		<tag k="natural" v="cape" />
		<tag k="ssr:stedsnr" v="775231" />
	</node>
	<node id="-86523" lat="62.786233334" lon="8.35116945422">
		<tag k="name" v="Renneset" />
		<tag k="natural" v="cape" />
		<tag k="ssr:stedsnr" v="775230" />
	</node>
	<node id="-83962" lat="62.725202776" lon="8.47346111536">
		<tag k="name" v="Mjohøluneset" />
		<tag k="natural" v="cape" />
		<tag k="ssr:stedsnr" v="510049" />
	</node>
	<node id="-85494" lat="62.7498916663" lon="8.46692777222">
		<tag k="name" v="Nautvikneset" />
		<tag k="natural" v="cape" />
		<tag k="ssr:stedsnr" v="171678" />
	</node>
	<node id="-83454" lat="62.7520083306" lon="8.44388889112">
		<tag k="name" v="Sør Storvika" />
		<tag k="natural" v="bay" />
		<tag k="ssr:stedsnr" v="146714" />
	</node>
	<node id="-86000" lat="62.9237611154" lon="8.38736667559">
		<tag k="name" v="Litlegrunnen" />
		<tag k="natural" v="shoal" />
		<tag k="place" v="locality" />
		<tag k="ssr:stedsnr" v="413803" />
	</node>
	<node id="-85999" lat="62.7630694414" lon="8.43721667523">
		<tag k="name" v="Kjølvika" />
		<tag k="natural" v="bay" />
		<tag k="ssr:stedsnr" v="413692" />
	</node>
	<node id="-86525" lat="62.8405999977" lon="8.49348333703">
		<tag k="name" v="Vågstranda" />
		<tag k="natural" v="beach" />
		<tag k="place" v="locality" />
		<tag k="ssr:stedsnr" v="777387" />
	</node>
	<node id="-85988" lat="62.7800722235" lon="8.37479999795">
		<tag k="name" v="Skathauggropa" />
		<tag k="natural" v="bay" />
		<tag k="ssr:stedsnr" v="390999" />
	</node>
	<node id="-85987" lat="62.7801361136" lon="8.37352499605">
		<tag k="name" v="Hisdalsneset" />
		<tag k="natural" v="cape" />
		<tag k="ssr:stedsnr" v="390997" />
	</node>
	<node id="-85997" lat="62.868986109" lon="8.59842222622">
		<tag k="name" v="Dryppingskallen" />
		<tag k="natural" v="shoal" />
		<tag k="place" v="locality" />
		<tag k="ssr:stedsnr" v="413487" />
	</node>
	<node id="-83933" lat="62.8423805544" lon="8.61386667455">
		<tag k="name" v="Rakanesstranda" />
		<tag k="natural" v="beach" />
		<tag k="place" v="locality" />
		<tag k="ssr:stedsnr" v="404809" />
	</node>
	<node id="-85978" lat="62.7602444453" lon="8.4397555561">
		<tag k="name" v="Kjølneset" />
>>>>>>> e1d4bc35ff8a6074a6f2e91616a996b547c36f15
		<tag k="natural" v="cape" />
		<tag k="ssr:stedsnr" v="110978" />
	</node>
<<<<<<< HEAD
	<node lat="62.88322222202948" lon="8.461333342910484" id="-6961">
		<tag k="alt_name" v="Setervikbukta" />
		<tag k="name" v="Setervika" />
		<tag k="natural" v="bay" />
		<tag k="ssr:stedsnr" v="145232" />
	</node>
	<node lat="62.75200833061733" lon="8.443888891116675" id="-6982">
		<tag k="name" v="Sør Storvika" />
		<tag k="natural" v="bay" />
		<tag k="ssr:stedsnr" v="146714" />
	</node>
	<node lat="62.734735632501156" lon="8.528013589012732" id="-7016">
		<tag k="name" v="Horrvika" />
		<tag k="natural" v="bay" />
		<tag k="ssr:stedsnr" v="263718" />
	</node>
	<node lat="62.88546944403759" lon="8.43119721511686" id="-7027">
		<tag k="name" v="Sjølgjetslneset" />
=======
	<node id="-84949" lat="62.8651833336" lon="8.56901666795">
		<tag k="name" v="Vikan" />
		<tag k="natural" v="bay" />
		<tag k="ssr:stedsnr" v="935231" />
	</node>
	<node id="-85960" lat="62.7011777793" lon="8.50703056476">
		<tag k="name" v="Svartholet" />
		<tag k="natural" v="bay" />
		<tag k="ssr:stedsnr" v="390118" />
	</node>
	<node id="-84420" lat="62.6705750036" lon="8.52554722324">
		<tag k="name" v="Notbøneset" />
		<tag k="natural" v="cape" />
		<tag k="ssr:stedsnr" v="630959" />
	</node>
	<node id="-85954" lat="62.771747219" lon="8.40983610716">
		<tag k="name" v="Klumpneset" />
		<tag k="natural" v="cape" />
		<tag k="ssr:stedsnr" v="389585" />
	</node>
	<node id="-84929" lat="62.7315388891" lon="8.43529167414">
		<tag k="name" v="Bøneset" />
>>>>>>> e1d4bc35ff8a6074a6f2e91616a996b547c36f15
		<tag k="natural" v="cape" />
		<tag k="ssr:stedsnr" v="266220" />
	</node>
<<<<<<< HEAD
	<node lat="62.880980557842484" lon="8.441908324155246" id="-7040">
		<tag k="name" v="Trøneset" />
=======
	<node id="-85434" lat="62.7688916656" lon="8.41864445045">
		<tag k="name" v="Bleibergsneset" />
>>>>>>> e1d4bc35ff8a6074a6f2e91616a996b547c36f15
		<tag k="natural" v="cape" />
		<tag k="ssr:stedsnr" v="267169" />
	</node>
<<<<<<< HEAD
	<node lat="62.83565833171443" lon="8.498130557299604" id="-7041">
		<tag k="name" v="Vågaholet" />
		<tag k="natural" v="bay" />
		<tag k="ssr:stedsnr" v="267170" />
	</node>
	<node lat="62.890049996875625" lon="8.44450000552345" id="-7078">
		<tag k="name" v="Gjengstøneset" />
		<tag k="natural" v="cape" />
		<tag k="ssr:stedsnr" v="205210" />
	</node>
	<node lat="62.702919442010625" lon="8.50498610873132" id="-7147">
		<tag k="name" v="Storvikbukta" />
=======
	<node id="-84400" lat="62.7050333343" lon="8.55819445279">
		<tag k="name" v="Sandvika" />
		<tag k="natural" v="bay" />
		<tag k="ssr:stedsnr" v="627723" />
	</node>
	<node id="-84398" lat="62.7253666633" lon="8.47581943672">
		<tag k="name" v="Ytre Holvikan" />
>>>>>>> e1d4bc35ff8a6074a6f2e91616a996b547c36f15
		<tag k="natural" v="bay" />
		<tag k="ssr:stedsnr" v="269122" />
	</node>
<<<<<<< HEAD
	<node lat="62.85173055991544" lon="8.60236944304696" id="-7170">
		<tag k="name" v="Hyllneset" />
		<tag k="natural" v="cape" />
		<tag k="ssr:stedsnr" v="222826" />
	</node>
	<node lat="62.90813610778272" lon="8.410200007510705" id="-7175">
		<tag k="name" v="Saltbuberget" />
		<tag k="natural" v="cape" />
		<tag k="ssr:stedsnr" v="449255" />
	</node>
	<node lat="62.871852781202335" lon="8.459213886403194" id="-7185">
		<tag k="name" v="Ramsand" />
		<tag k="natural" v="beach" />
		<tag k="ssr:stedsnr" v="231508" />
	</node>
	<node lat="62.72920555281462" lon="8.470422226525844" id="-7252">
		<tag k="name" v="Senaneset" />
=======
	<node id="-83869" lat="62.8835472249" lon="8.43631110456">
		<tag k="name" v="Hundsprangneset" />
		<tag k="natural" v="cape" />
		<tag k="ssr:stedsnr" v="388176" />
	</node>
	<node id="-84394" lat="62.7498333302" lon="8.44879722532">
		<tag k="name" v="Flåøya" />
		<tag k="place" v="islet" />
		<tag k="ssr:stedsnr" v="619532" />
	</node>
	<node id="-83875" lat="62.9057777791" lon="8.39438334125">
		<tag k="name" v="Øyavika" />
		<tag k="natural" v="bay" />
		<tag k="ssr:stedsnr" v="388220" />
	</node>
	<node id="-85407" lat="62.883222222" lon="8.46133334291">
		<tag k="alt_name" v="Setervikbukta" />
		<tag k="name" v="Setervika" />
		<tag k="natural" v="bay" />
		<tag k="ssr:stedsnr" v="145232" />
	</node>
	<node id="-84893" lat="62.8379527775" lon="8.51252499683">
		<tag k="name" v="Vågatangen" />
>>>>>>> e1d4bc35ff8a6074a6f2e91616a996b547c36f15
		<tag k="natural" v="cape" />
		<tag k="ssr:stedsnr" v="254176" />
	</node>
<<<<<<< HEAD
	<node lat="62.702424998338394" lon="8.508386115199444" id="-7253">
		<tag k="name" v="Storvikneset" />
=======
	<node id="-84376" lat="62.8632555542" lon="8.42675277094">
		<tag k="name" v="Seterneset" />
>>>>>>> e1d4bc35ff8a6074a6f2e91616a996b547c36f15
		<tag k="natural" v="cape" />
		<tag k="ssr:stedsnr" v="254184" />
	</node>
<<<<<<< HEAD
	<node lat="62.89493333144781" lon="8.422372228690696" id="-7255">
		<tag k="name" v="Kjevika" />
=======
	<node id="-84887" lat="62.9060916645" lon="8.40956943838">
		<tag k="name" v="Øyabukta" />
>>>>>>> e1d4bc35ff8a6074a6f2e91616a996b547c36f15
		<tag k="natural" v="bay" />
		<tag k="ssr:stedsnr" v="254274" />
	</node>
<<<<<<< HEAD
	<node lat="62.86700555258229" lon="8.53867500162951" id="-7260">
=======
	<node id="-84371" lat="62.8747999972" lon="8.58454166894">
>>>>>>> e1d4bc35ff8a6074a6f2e91616a996b547c36f15
		<tag k="bay" v="fjord" />
		<tag k="name" v="Stangvikfjorden" />
		<tag k="natural" v="bay" />
		<tag k="ssr:stedsnr" v="254713" />
	</node>
<<<<<<< HEAD
	<node lat="62.69411666244104" lon="8.506963892259972" id="-7273">
		<tag k="name" v="Urabukta" />
=======
	<node id="-84370" lat="62.7888138886" lon="8.34125000458">
		<tag k="name" v="Midtvika" />
>>>>>>> e1d4bc35ff8a6074a6f2e91616a996b547c36f15
		<tag k="natural" v="bay" />
		<tag k="ssr:stedsnr" v="266703" />
	</node>
	<node lat="62.910319443494565" lon="8.401919449213876" id="-7362">
		<tag k="name" v="Hjellbukta" />
		<tag k="natural" v="bay" />
		<tag k="ssr:stedsnr" v="328223" />
	</node>
	<node lat="62.725422221038045" lon="8.416763883536776" id="-7376">
		<tag k="name" v="Skrøoneset" />
		<tag k="natural" v="cape" />
		<tag k="ssr:stedsnr" v="329024" />
	</node>
	<node lat="62.7561638867162" lon="8.445650008404224" id="-7404">
		<tag k="name" v="Indre Sundet" />
		<tag k="natural" v="strait" />
		<tag k="ssr:stedsnr" v="474682" />
	</node>
<<<<<<< HEAD
	<node lat="62.90889444222655" lon="8.397536115815964" id="-7419">
=======
	<node id="-83854" lat="62.9088944422" lon="8.39753611582">
>>>>>>> e1d4bc35ff8a6074a6f2e91616a996b547c36f15
		<tag k="name" v="Nesøya" />
		<tag k="place" v="island" />
		<tag k="ssr:stedsnr" v="375713" />
	</node>
<<<<<<< HEAD
	<node lat="62.868986109009064" lon="8.598422226224507" id="-7483">
		<tag k="name" v="Dryppingskallen" />
		<tag k="natural" v="shoal" />
		<tag k="place" v="locality" />
		<tag k="ssr:stedsnr" v="413487" />
	</node>
	<node lat="62.76306944143248" lon="8.43721667522964" id="-7485">
		<tag k="name" v="Kjølvika" />
		<tag k="natural" v="bay" />
		<tag k="ssr:stedsnr" v="413692" />
	</node>
	<node lat="62.92376111542463" lon="8.387366675591801" id="-7486">
		<tag k="name" v="Litlegrunnen" />
		<tag k="natural" v="shoal" />
		<tag k="place" v="locality" />
		<tag k="ssr:stedsnr" v="413803" />
	</node>
	<node lat="62.69264444271296" lon="8.559786112944074" id="-7512">
		<tag k="name" v="Leirvikkroken" />
=======
	<node id="-83341" lat="62.8809805578" lon="8.44190832416">
		<tag k="name" v="Trøneset" />
		<tag k="natural" v="cape" />
		<tag k="ssr:stedsnr" v="267169" />
	</node>
	<node id="-85911" lat="62.8420666639" lon="8.49203056224">
		<tag k="name" v="Kåvikneset" />
		<tag k="natural" v="cape" />
		<tag k="ssr:stedsnr" v="388145" />
	</node>
	<node id="-86404" lat="62.9008083313" lon="8.40398054728">
		<tag k="name" v="Tjønnberget" />
		<tag k="natural" v="cape" />
		<tag k="ssr:stedsnr" v="752291" />
	</node>
	<node id="-86397" lat="62.8412333339" lon="8.49285277802">
		<tag k="name" v="Kåvika" />
>>>>>>> e1d4bc35ff8a6074a6f2e91616a996b547c36f15
		<tag k="natural" v="bay" />
		<tag k="ssr:stedsnr" v="448527" />
	</node>
<<<<<<< HEAD
	<node lat="62.83654721968991" lon="8.50723889866291" id="-7518">
		<tag k="name" v="Vågaøran" />
		<tag k="natural" v="beach" />
		<tag k="ssr:stedsnr" v="449189" />
	</node>
	<node lat="62.738972226474914" lon="8.511308342038095" id="-7519">
		<tag k="name" v="Naustbukta" />
=======
	<node id="-86195" lat="62.7584444427" lon="8.44151388481">
		<tag k="name" v="Ytre Sundet" />
		<tag k="natural" v="strait" />
		<tag k="ssr:stedsnr" v="595647" />
	</node>
	<node id="-85880" lat="62.8700333302" lon="8.41568056027">
		<tag k="name" v="Langneset" />
		<tag k="natural" v="cape" />
		<tag k="ssr:stedsnr" v="376260" />
	</node>
	<node id="-84339" lat="62.6992666625" lon="8.50563610412">
		<tag k="name" v="Innvikbukta" />
>>>>>>> e1d4bc35ff8a6074a6f2e91616a996b547c36f15
		<tag k="natural" v="bay" />
		<tag k="ssr:stedsnr" v="449384" />
	</node>
<<<<<<< HEAD
	<node lat="62.75743611234711" lon="8.36674722653453" id="-7528">
		<tag k="name" v="Jesperfjørru" />
		<tag k="natural" v="beach" />
		<tag k="ssr:stedsnr" v="449919" />
	</node>
	<node lat="62.75686110967182" lon="8.442763881191125" id="-7550">
		<tag k="name" v="Flåsundet" />
		<tag k="natural" v="strait" />
		<tag k="ssr:stedsnr" v="451762" />
	</node>
	<node lat="62.75780555299266" lon="8.439811112457457" id="-7551">
		<tag k="name" v="Vorpneset" />
=======
	<node id="-84849" lat="62.8662055552" lon="8.58643056194">
		<tag k="name" v="Skarvhammarholet" />
		<tag k="natural" v="bay" />
		<tag k="ssr:stedsnr" v="844823" />
	</node>
	<node id="-83310" lat="62.6941166624" lon="8.50696389226">
		<tag k="name" v="Urabukta" />
		<tag k="natural" v="bay" />
		<tag k="ssr:stedsnr" v="266703" />
	</node>
	<node id="-86381" lat="62.84610278" lon="8.48195555858">
		<tag k="name" v="Furuneset" />
>>>>>>> e1d4bc35ff8a6074a6f2e91616a996b547c36f15
		<tag k="natural" v="cape" />
		<tag k="ssr:stedsnr" v="451763" />
	</node>
<<<<<<< HEAD
	<node lat="62.8909638930328" lon="8.430616657321826" id="-7557">
		<tag k="name" v="Neslandet" />
		<tag k="natural" v="cape" />
		<tag k="ssr:stedsnr" v="473410" />
	</node>
	<node lat="62.86811666574246" lon="8.581113894400247" id="-7621">
=======
	<node id="-83820" lat="62.8453000021" lon="8.52142499724">
		<tag k="name" v="Strand" />
		<tag k="natural" v="beach" />
		<tag k="place" v="locality" />
		<tag k="ssr:stedsnr" v="497351" />
	</node>
	<node id="-83817" lat="62.8681166657" lon="8.5811138944">
>>>>>>> e1d4bc35ff8a6074a6f2e91616a996b547c36f15
		<tag k="alt_name" v="Flæssa" />
		<tag k="name" v="Flesa" />
		<tag k="place" v="islet" />
		<tag k="ssr:stedsnr" v="497245" />
	</node>
<<<<<<< HEAD
	<node lat="62.72520277600327" lon="8.473461115357651" id="-7648">
		<tag k="name" v="Mjohøluneset" />
		<tag k="natural" v="cape" />
		<tag k="ssr:stedsnr" v="510049" />
	</node>
	<node lat="62.753105557694795" lon="8.457688889416048" id="-7659">
		<tag k="fixme" v="consider seamark:type=rock or natural=shoal" />
		<tag k="name" v="Lyngvikskjæret" />
		<tag k="place" v="islet" />
		<tag k="ssr:stedsnr" v="510711" />
	</node>
	<node lat="62.84886388501882" lon="8.604569454134028" id="-7685">
		<tag k="name" v="Rakanesbukta" />
		<tag k="natural" v="bay" />
		<tag k="ssr:stedsnr" v="525817" />
	</node>
	<node lat="62.78637499732745" lon="8.347758330882126" id="-7686">
		<tag k="name" v="Almskårneset" />
=======
	<node id="-83812" lat="62.6983972186" lon="8.50725555557">
		<tag k="name" v="Innvikneset" />
		<tag k="natural" v="cape" />
		<tag k="ssr:stedsnr" v="497188" />
	</node>
	<node id="-84198" lat="62.7768444483" lon="8.39646110922">
		<tag k="name" v="Løyfterneset" />
		<tag k="natural" v="cape" />
		<tag k="ssr:stedsnr" v="692532" />
	</node>
	<node id="-85851" lat="62.7454694427" lon="8.46093888369">
		<tag k="name" v="Nordgrunna" />
		<tag k="natural" v="shoal" />
		<tag k="place" v="locality" />
		<tag k="ssr:stedsnr" v="352637" />
	</node>
	<node id="-85334" lat="62.7725083376" lon="8.32086110161">
		<tag k="name" v="Jordalsneset" />
		<tag k="natural" v="cape" />
		<tag k="ssr:stedsnr" v="110978" />
	</node>
	<node id="-85333" lat="62.7396222228" lon="8.49053611727">
		<tag k="name" v="Pålegga" />
		<tag k="natural" v="shoal" />
		<tag k="place" v="locality" />
		<tag k="ssr:stedsnr" v="110664" />
	</node>
	<node id="-86355" lat="62.7256083328" lon="8.48493889688">
		<tag k="name" v="Korsneset" />
>>>>>>> e1d4bc35ff8a6074a6f2e91616a996b547c36f15
		<tag k="natural" v="cape" />
		<tag k="ssr:stedsnr" v="532219" />
	</node>
<<<<<<< HEAD
	<node lat="62.776844448302036" lon="8.39646110921924" id="-7742">
		<tag k="name" v="Løyfterneset" />
=======
	<node id="-84365" lat="62.8507138917" lon="8.60228611013">
		<tag k="name" v="Vikatrøbukta" />
		<tag k="natural" v="bay" />
		<tag k="ssr:stedsnr" v="707838" />
	</node>
	<node id="-83270" lat="62.7024249983" lon="8.5083861152">
		<tag k="name" v="Storvikneset" />
>>>>>>> e1d4bc35ff8a6074a6f2e91616a996b547c36f15
		<tag k="natural" v="cape" />
		<tag k="ssr:stedsnr" v="692532" />
	</node>
<<<<<<< HEAD
	<node lat="62.88139722299473" lon="8.472316674354962" id="-7769">
		<tag k="name" v="Bytberget" />
=======
	<node id="-83269" lat="62.7292055528" lon="8.47042222653">
		<tag k="name" v="Senaneset" />
>>>>>>> e1d4bc35ff8a6074a6f2e91616a996b547c36f15
		<tag k="natural" v="cape" />
		<tag k="ssr:stedsnr" v="570205" />
	</node>
	<node lat="62.71602499869404" lon="8.5071694479282" id="-7794">
		<tag k="fixme" v="consider seamark:type=rock or natural=shoal" />
		<tag k="name" v="Hamnaskjæret" />
		<tag k="place" v="islet" />
		<tag k="ssr:stedsnr" v="571122" />
	</node>
<<<<<<< HEAD
	<node lat="62.75466389063576" lon="8.4413111118924" id="-7817">
=======
	<node id="-84289" lat="62.7546638906" lon="8.44131111189">
>>>>>>> e1d4bc35ff8a6074a6f2e91616a996b547c36f15
		<tag k="name" v="Svartholet" />
		<tag k="natural" v="bay" />
		<tag k="ssr:stedsnr" v="693746" />
	</node>
<<<<<<< HEAD
	<node lat="62.84642500446945" lon="8.61182777864136" id="-7848">
		<tag k="alt_name" v="Rakaneskaste" />
		<tag k="name" v="Rakaneskastet" />
		<tag k="natural" v="bay" />
		<tag k="ssr:stedsnr" v="585794" />
	</node>
	<node lat="62.72536666326561" lon="8.475819436724338" id="-7872">
		<tag k="name" v="Ytre Holvikan" />
		<tag k="natural" v="bay" />
		<tag k="ssr:stedsnr" v="627712" />
	</node>
	<node lat="62.7623305571753" lon="8.351180548486598" id="-7934">
=======
	<node id="-86334" lat="62.7623305572" lon="8.35118054849">
>>>>>>> e1d4bc35ff8a6074a6f2e91616a996b547c36f15
		<tag k="name" v="Grovabukta" />
		<tag k="natural" v="bay" />
		<tag k="ssr:stedsnr" v="632999" />
	</node>
<<<<<<< HEAD
	<node lat="62.85071389168062" lon="8.602286110134557" id="-7949">
		<tag k="name" v="Vikatrøbukta" />
		<tag k="natural" v="bay" />
		<tag k="ssr:stedsnr" v="707838" />
	</node>
	<node lat="62.675972220473376" lon="8.519638883000319" id="-8072">
		<tag k="name" v="Hammaren" />
=======
	<node id="-84795" lat="62.7463749988" lon="8.40136389703">
		<tag k="name" v="Hyllneset" />
		<tag k="natural" v="cape" />
		<tag k="ssr:stedsnr" v="935732" />
	</node>
	<node id="-84792" lat="62.7784416647" lon="8.38657222865">
		<tag k="name" v="Sistrengneset" />
>>>>>>> e1d4bc35ff8a6074a6f2e91616a996b547c36f15
		<tag k="natural" v="cape" />
		<tag k="ssr:stedsnr" v="740054" />
	</node>
<<<<<<< HEAD
	<node lat="62.846102780006774" lon="8.481955558583014" id="-8078">
		<tag k="name" v="Furuneset" />
		<tag k="natural" v="cape" />
		<tag k="ssr:stedsnr" v="740342" />
	</node>
	<node lat="62.87366388489175" lon="8.453175000731033" id="-8095">
		<tag k="name" v="Valåsneset" />
=======
	<node id="-83766" lat="62.7519527809" lon="8.46269723093">
		<tag k="name" v="Nautvika" />
		<tag k="natural" v="bay" />
		<tag k="ssr:stedsnr" v="329622" />
	</node>
	<node id="-85297" lat="62.7470722224" lon="8.47913888956">
		<tag k="name" v="Farlegsetet" />
>>>>>>> e1d4bc35ff8a6074a6f2e91616a996b547c36f15
		<tag k="natural" v="cape" />
		<tag k="ssr:stedsnr" v="752208" />
	</node>
<<<<<<< HEAD
	<node lat="62.68904166656053" lon="8.51512777825929" id="-8259">
		<tag k="name" v="Mannvikneset" />
		<tag k="natural" v="cape" />
		<tag k="ssr:stedsnr" v="922036" />
	</node>
	<node lat="62.853569442196424" lon="8.599222227159725" id="-8275">
=======
	<node id="-84783" lat="62.8965444405" lon="8.41968888478">
		<tag k="name" v="Myntvika" />
		<tag k="natural" v="bay" />
		<tag k="ssr:stedsnr" v="935339" />
	</node>
	<node id="-83753" lat="62.8981944476" lon="8.41849166482">
>>>>>>> e1d4bc35ff8a6074a6f2e91616a996b547c36f15
		<tag k="fixme" v="consider seamark:type=rock or natural=shoal" />
		<tag k="name" v="Kobbskjæret" />
		<tag k="place" v="islet" />
<<<<<<< HEAD
		<tag k="ssr:stedsnr" v="922334" />
	</node>
	<node lat="62.866205555236505" lon="8.586430561944026" id="-8292">
		<tag k="name" v="Skarvhammarholet" />
		<tag k="natural" v="bay" />
		<tag k="ssr:stedsnr" v="844823" />
	</node>
	<node lat="62.69096110722977" lon="8.557255563795776" id="-8371">
=======
		<tag k="ssr:stedsnr" v="328322" />
	</node>
	<node id="-85799" lat="62.725422221" lon="8.41676388354">
		<tag k="name" v="Skrøoneset" />
		<tag k="natural" v="cape" />
		<tag k="ssr:stedsnr" v="329024" />
	</node>
	<node id="-83236" lat="62.7516333371" lon="8.39040832886">
		<tag k="name" v="Badstuberget" />
		<tag k="natural" v="cape" />
		<tag k="ssr:stedsnr" v="86668" />
	</node>
	<node id="-83747" lat="62.9103194435" lon="8.40191944921">
		<tag k="name" v="Hjellbukta" />
		<tag k="natural" v="bay" />
		<tag k="ssr:stedsnr" v="328223" />
	</node>
	<node id="-85787" lat="62.7702833312" lon="8.41658888332">
		<tag k="name" v="Klumpbukta" />
		<tag k="natural" v="bay" />
		<tag k="ssr:stedsnr" v="328495" />
	</node>
	<node id="-83736" lat="62.7561638867" lon="8.4456500084">
		<tag k="name" v="Indre Sundet" />
		<tag k="natural" v="strait" />
		<tag k="ssr:stedsnr" v="474682" />
	</node>
	<node id="-85783" lat="62.9036333377" lon="8.39723333233">
		<tag k="name" v="Indre Holmen" />
		<tag k="place" v="islet" />
		<tag k="ssr:stedsnr" v="328285" />
	</node>
	<node id="-86294" lat="62.7562888871" lon="8.37819722619">
		<tag k="name" v="Hauganeset" />
		<tag k="natural" v="cape" />
		<tag k="ssr:stedsnr" v="631920" />
	</node>
	<node id="-84756" lat="62.6909611072" lon="8.5572555638">
>>>>>>> e1d4bc35ff8a6074a6f2e91616a996b547c36f15
		<tag k="name" v="Leirvika" />
		<tag k="natural" v="bay" />
		<tag k="ssr:stedsnr" v="934380" />
	</node>
<<<<<<< HEAD
	<node lat="62.86518333355302" lon="8.569016667945625" id="-8408">
		<tag k="name" v="Vikan" />
		<tag k="natural" v="bay" />
		<tag k="ssr:stedsnr" v="935231" />
	</node>
	<node lat="62.89654444048731" lon="8.419688884784629" id="-8409">
		<tag k="name" v="Myntvika" />
=======
	<node id="-83218" lat="62.9014333358" lon="8.41739167481">
		<tag k="name" v="Hamna" />
		<tag k="natural" v="beach" />
		<tag k="place" v="locality" />
		<tag k="ssr:stedsnr" v="85275" />
	</node>
	<node id="-86800" lat="62.7503388874" lon="8.44423888762">
		<tag k="name" v="Barholet" />
		<tag k="natural" v="bay" />
		<tag k="ssr:stedsnr" v="874737" />
	</node>
	<node id="-83212" lat="62.8385916697" lon="8.49721944069">
		<tag k="name" v="Heimre vika" />
		<tag k="natural" v="bay" />
		<tag k="ssr:stedsnr" v="85168" />
	</node>
	<node id="-84746" lat="62.8982472207" lon="8.42486666649">
		<tag k="fixme" v="consider seamark:type=rock or natural=shoal" />
		<tag k="name" v="Naustvollen" />
		<tag k="place" v="islet" />
		<tag k="ssr:stedsnr" v="934284" />
	</node>
	<node id="-84741" lat="62.8825944487" lon="8.43992499881">
		<tag k="name" v="Litlvika" />
>>>>>>> e1d4bc35ff8a6074a6f2e91616a996b547c36f15
		<tag k="natural" v="bay" />
		<tag k="ssr:stedsnr" v="935339" />
	</node>
<<<<<<< HEAD
	<node lat="62.7315388890618" lon="8.43529167414317" id="-8434">
		<tag k="name" v="Bøneset" />
=======
	<node id="-83204" lat="62.7351750005" lon="8.52410278725">
		<tag k="name" v="Horrvikberget" />
>>>>>>> e1d4bc35ff8a6074a6f2e91616a996b547c36f15
		<tag k="natural" v="cape" />
		<tag k="ssr:stedsnr" v="922228" />
	</node>
<<<<<<< HEAD
	<node lat="62.72043333710419" lon="8.489127770777692" id="-8454">
=======
	<node id="-84736" lat="62.7204333371" lon="8.48912777078">
>>>>>>> e1d4bc35ff8a6074a6f2e91616a996b547c36f15
		<tag k="name" v="Indre Holvikan" />
		<tag k="natural" v="bay" />
		<tag k="ssr:stedsnr" v="931741" />
	</node>
<<<<<<< HEAD
	<node lat="62.882594448651815" lon="8.439924998809882" id="-8455">
		<tag k="name" v="Litlvika" />
		<tag k="natural" v="bay" />
		<tag k="ssr:stedsnr" v="934197" />
	</node>
	<node lat="62.68762222067017" lon="8.516683337064162" id="-8520">
		<tag k="name" v="Langneset" />
=======
	<node id="-86783" lat="62.8549194458" lon="8.43618612013">
		<tag k="name" v="Mulvikneset" />
		<tag k="natural" v="cape" />
		<tag k="ssr:stedsnr" v="874100" />
	</node>
	<node id="-83480" lat="62.858813889" lon="8.5910749909">
		<tag k="name" v="Drøppingbukta" />
		<tag k="natural" v="bay" />
		<tag k="ssr:stedsnr" v="282817" />
	</node>
	<node id="-83704" lat="62.890963893" lon="8.43061665732">
		<tag k="name" v="Neslandet" />
>>>>>>> e1d4bc35ff8a6074a6f2e91616a996b547c36f15
		<tag k="natural" v="cape" />
		<tag k="ssr:stedsnr" v="12040" />
	</node>
<<<<<<< HEAD
	<node lat="62.7299527790677" lon="8.415886115927293" id="-8527">
		<tag k="name" v="Grytneset" />
=======
	<node id="-84214" lat="62.7863749973" lon="8.34775833088">
		<tag k="name" v="Almskårneset" />
>>>>>>> e1d4bc35ff8a6074a6f2e91616a996b547c36f15
		<tag k="natural" v="cape" />
		<tag k="ssr:stedsnr" v="12346" />
	</node>
<<<<<<< HEAD
	<node lat="62.90214444083363" lon="8.41229445420555" id="-8664">
		<tag k="name" v="Nesøysundet" />
		<tag k="natural" v="strait" />
		<tag k="ssr:stedsnr" v="72302" />
	</node>
	<node lat="62.73517500051155" lon="8.52410278724788" id="-8697">
		<tag k="name" v="Horrvikberget" />
		<tag k="natural" v="cape" />
		<tag k="ssr:stedsnr" v="84424" />
	</node>
	<node lat="62.67746388550769" lon="8.518180563469269" id="-8699">
=======
	<node id="-83695" lat="62.8477972208" lon="8.61177222318">
		<tag k="name" v="Rakaneset" />
		<tag k="natural" v="cape" />
		<tag k="ssr:stedsnr" v="292438" />
	</node>
	<node id="-83694" lat="62.8652805521" lon="8.58632778177">
		<tag k="name" v="Skarvhammaren" />
		<tag k="natural" v="cape" />
		<tag k="ssr:stedsnr" v="292435" />
	</node>
	<node id="-85222" lat="62.6774638855" lon="8.51818056347">
>>>>>>> e1d4bc35ff8a6074a6f2e91616a996b547c36f15
		<tag k="name" v="Bukta" />
		<tag k="natural" v="bay" />
		<tag k="ssr:stedsnr" v="84445" />
	</node>
<<<<<<< HEAD
	<node lat="62.73059999860784" lon="8.443380561448526" id="-8706">
		<tag k="name" v="Småøran" />
		<tag k="natural" v="beach" />
		<tag k="ssr:stedsnr" v="85856" />
	</node>
	<node lat="62.84342500309028" lon="8.489030554696477" id="-8715">
		<tag k="name" v="Løåbukta" />
=======
	<node id="-83170" lat="62.8646833342" lon="8.59083611558">
		<tag k="name" v="Drøppingneset" />
		<tag k="natural" v="cape" />
		<tag k="ssr:stedsnr" v="237822" />
	</node>
	<node id="-85725" lat="62.7839638845" lon="8.31203332755">
		<tag k="name" v="Ballsneset" />
		<tag k="natural" v="cape" />
		<tag k="ssr:stedsnr" v="315374" />
	</node>
	<node id="-83675" lat="62.702919442" lon="8.50498610873">
		<tag k="name" v="Storvikbukta" />
>>>>>>> e1d4bc35ff8a6074a6f2e91616a996b547c36f15
		<tag k="natural" v="bay" />
		<tag k="ssr:stedsnr" v="85166" />
	</node>
<<<<<<< HEAD
	<node lat="62.83859166967379" lon="8.497219440688012" id="-8717">
		<tag k="name" v="Heimre vika" />
		<tag k="natural" v="bay" />
		<tag k="ssr:stedsnr" v="85168" />
	</node>
	<node lat="62.7516333371216" lon="8.390408328857337" id="-8750">
		<tag k="name" v="Badstuberget" />
=======
	<node id="-85720" lat="62.866636115" lon="8.56356389359">
		<tag k="name" v="Skavikneset" />
		<tag k="natural" v="cape" />
		<tag k="ssr:stedsnr" v="315240" />
	</node>
	<node id="-86229" lat="62.9181916637" lon="8.386613881">
		<tag k="name" v="Nesøytangen" />
>>>>>>> e1d4bc35ff8a6074a6f2e91616a996b547c36f15
		<tag k="natural" v="cape" />
		<tag k="ssr:stedsnr" v="86668" />
	</node>
<<<<<<< HEAD
	<node lat="62.74707222235227" lon="8.479138889564217" id="-8770">
		<tag k="name" v="Farlegsetet" />
		<tag k="natural" v="cape" />
		<tag k="ssr:stedsnr" v="87664" />
	</node>
	<node lat="62.73962222280602" lon="8.490536117268915" id="-8797">
		<tag k="name" v="Pålegga" />
		<tag k="natural" v="shoal" />
=======
	<node id="-85715" lat="62.6976277784" lon="8.56172223019">
		<tag k="name" v="Åkerstranda" />
		<tag k="natural" v="beach" />
>>>>>>> e1d4bc35ff8a6074a6f2e91616a996b547c36f15
		<tag k="place" v="locality" />
		<tag k="ssr:stedsnr" v="110664" />
	</node>
<<<<<<< HEAD
	<node lat="62.768891665613246" lon="8.418644450452874" id="-8897">
		<tag k="name" v="Bleibergsneset" />
		<tag k="natural" v="cape" />
		<tag k="ssr:stedsnr" v="146451" />
	</node>
	<node lat="62.74989166632542" lon="8.46692777222238" id="-8950">
		<tag k="name" v="Nautvikneset" />
		<tag k="natural" v="cape" />
		<tag k="ssr:stedsnr" v="171678" />
	</node>
	<node lat="62.726316669694064" lon="8.423705552500477" id="-8958">
		<tag k="name" v="Øksendalsbukta" />
		<tag k="natural" v="bay" />
		<tag k="ssr:stedsnr" v="193194" />
	</node>
	<node lat="62.690919447998354" lon="8.511638890851739" id="-9005">
		<tag k="name" v="Uraneset" />
		<tag k="natural" v="cape" />
		<tag k="ssr:stedsnr" v="194028" />
	</node>
	<node lat="62.877791670370435" lon="8.490736106444594" id="-9029">
		<tag k="name" v="Rykkjemsneset" />
		<tag k="natural" v="cape" />
		<tag k="ssr:stedsnr" v="195302" />
	</node>
	<node lat="62.68826111462242" lon="8.515122228418491" id="-9046">
		<tag k="name" v="Kjetilbukta" />
		<tag k="natural" v="bay" />
		<tag k="ssr:stedsnr" v="205502" />
	</node>
	<node lat="62.75455833080767" lon="8.385594440571943" id="-9101">
		<tag k="alt_name" v="Mjølkillskjæret" />
		<tag k="fixme" v="consider seamark:type=rock or natural=shoal" />
		<tag k="name" v="Skjæret" />
		<tag k="place" v="islet" />
		<tag k="ssr:stedsnr" v="207658" />
	</node>
	<node lat="62.85881388904782" lon="8.591074990903817" id="-9131">
		<tag k="name" v="Drøppingbukta" />
=======
	<node id="-83342" lat="62.8356583317" lon="8.4981305573">
		<tag k="name" v="Vågaholet" />
		<tag k="natural" v="bay" />
		<tag k="ssr:stedsnr" v="267170" />
	</node>
	<node id="-86728" lat="62.8984194442" lon="8.41784166535">
		<tag k="name" v="Søhamna" />
		<tag k="natural" v="bay" />
		<tag k="ssr:stedsnr" v="861278" />
	</node>
	<node id="-86725" lat="62.7888611127" lon="8.32847500554">
		<tag k="bay" v="fjord" />
		<tag k="name" v="Sunndalsfjorden" />
		<tag k="natural" v="bay" />
		<tag k="ssr:stedsnr" v="861179" />
	</node>
	<node id="-84670" lat="62.8535694422" lon="8.59922222716">
		<tag k="fixme" v="consider seamark:type=rock or natural=shoal" />
		<tag k="name" v="Kobbskjæret" />
		<tag k="place" v="islet" />
		<tag k="ssr:stedsnr" v="922334" />
	</node>
	<node id="-86717" lat="62.743949997" lon="8.45758054624">
		<tag k="name" v="Sørgrunna" />
		<tag k="natural" v="shoal" />
		<tag k="place" v="locality" />
		<tag k="ssr:stedsnr" v="838668" />
	</node>
	<node id="-84153" lat="62.8446111147" lon="8.46989721882">
		<tag k="name" v="Skrøåsandholet" />
		<tag k="natural" v="bay" />
		<tag k="ssr:stedsnr" v="509133" />
	</node>
	<node id="-83637" lat="62.8670055526" lon="8.53867500163">
		<tag k="bay" v="fjord" />
		<tag k="name" v="Stangvikfjorden" />
		<tag k="natural" v="bay" />
		<tag k="ssr:stedsnr" v="254713" />
	</node>
	<node id="-84148" lat="62.9014611118" lon="8.35699722826">
		<tag k="bay" v="fjord" />
		<tag k="name" v="Ålvundfjorden" />
		<tag k="natural" v="bay" />
		<tag k="ssr:stedsnr" v="498336" />
	</node>
	<node id="-84147" lat="62.8855777762" lon="8.45292222249">
		<tag k="name" v="Gjengstøbukta" />
		<tag k="natural" v="bay" />
		<tag k="ssr:stedsnr" v="498332" />
	</node>
	<node id="-83632" lat="62.8949333314" lon="8.42237222869">
		<tag k="name" v="Kjevika" />
		<tag k="natural" v="bay" />
		<tag k="ssr:stedsnr" v="254274" />
	</node>
	<node id="-86190" lat="62.8464250045" lon="8.61182777864">
		<tag k="alt_name" v="Rakaneskaste" />
		<tag k="name" v="Rakaneskastet" />
>>>>>>> e1d4bc35ff8a6074a6f2e91616a996b547c36f15
		<tag k="natural" v="bay" />
		<tag k="ssr:stedsnr" v="282817" />
	</node>
<<<<<<< HEAD
	<node lat="62.865280552095435" lon="8.586327781771658" id="-9136">
		<tag k="name" v="Skarvhammaren" />
=======
	<node id="-84643" lat="62.6890416666" lon="8.51512777826">
		<tag k="name" v="Mannvikneset" />
>>>>>>> e1d4bc35ff8a6074a6f2e91616a996b547c36f15
		<tag k="natural" v="cape" />
		<tag k="ssr:stedsnr" v="292435" />
	</node>
<<<<<<< HEAD
	<node lat="62.847797220826955" lon="8.611772223183332" id="-9137">
		<tag k="name" v="Rakaneset" />
		<tag k="natural" v="cape" />
		<tag k="ssr:stedsnr" v="292438" />
	</node>
	<node lat="62.710908333904065" lon="8.553844441436068" id="-9138">
		<tag k="name" v="Grøvlagrunnen" />
		<tag k="natural" v="shoal" />
		<tag k="place" v="locality" />
		<tag k="ssr:stedsnr" v="292650" />
	</node>
	<node lat="62.696169443805296" lon="8.55926388644118" id="-9139">
=======
	<node id="-83227" lat="62.7305999986" lon="8.44338056145">
		<tag k="name" v="Småøran" />
		<tag k="natural" v="beach" />
		<tag k="place" v="locality" />
		<tag k="ssr:stedsnr" v="85856" />
	</node>
	<node id="-83616" lat="62.757805553" lon="8.43981111246">
		<tag k="name" v="Vorpneset" />
		<tag k="natural" v="cape" />
		<tag k="ssr:stedsnr" v="451763" />
	</node>
	<node id="-83615" lat="62.7568611097" lon="8.44276388119">
		<tag k="name" v="Flåsundet" />
		<tag k="natural" v="strait" />
		<tag k="ssr:stedsnr" v="451762" />
	</node>
	<node id="-86168" lat="62.750411112" lon="8.39191388358">
		<tag k="name" v="Slettfjøra" />
		<tag k="natural" v="beach" />
		<tag k="place" v="locality" />
		<tag k="ssr:stedsnr" v="571638" />
	</node>
	<node id="-86674" lat="62.7524222217" lon="8.43966388201">
		<tag k="name" v="Storvikneset" />
		<tag k="natural" v="cape" />
		<tag k="ssr:stedsnr" v="814745" />
	</node>
	<node id="-85647" lat="62.7545583308" lon="8.38559444057">
		<tag k="alt_name" v="Mjølkillskjæret" />
>>>>>>> e1d4bc35ff8a6074a6f2e91616a996b547c36f15
		<tag k="fixme" v="consider seamark:type=rock or natural=shoal" />
		<tag k="name" v="Fonnastein" />
		<tag k="place" v="islet" />
		<tag k="ssr:stedsnr" v="292655" />
	</node>
<<<<<<< HEAD
	<node lat="62.69762777840293" lon="8.561722230188415" id="-9150">
		<tag k="name" v="Åkerstranda" />
		<tag k="natural" v="beach" />
		<tag k="ssr:stedsnr" v="315187" />
	</node>
	<node lat="62.783963884516744" lon="8.31203332755178" id="-9173">
		<tag k="name" v="Ballsneset" />
		<tag k="natural" v="cape" />
		<tag k="ssr:stedsnr" v="315374" />
	</node>
	<node lat="62.86663611498224" lon="8.56356389359239" id="-9177">
		<tag k="name" v="Skavikneset" />
		<tag k="natural" v="cape" />
		<tag k="ssr:stedsnr" v="315240" />
	</node>
	<node lat="62.85083055161259" lon="8.618194444711328" id="-9185">
		<tag k="bay" v="fjord" />
		<tag k="name" v="Todalsfjorden" />
		<tag k="natural" v="bay" />
		<tag k="ssr:stedsnr" v="316373" />
	</node>
	<node lat="62.8981944476441" lon="8.418491664821316" id="-9230">
=======
	<node id="-83735" lat="62.8508305516" lon="8.61819444471">
		<tag k="bay" v="fjord" />
		<tag k="name" v="Todalsfjorden" />
		<tag k="natural" v="bay" />
		<tag k="ssr:stedsnr" v="316373" />
	</node>
	<node id="-83305" lat="62.885469444" lon="8.43119721512">
		<tag k="name" v="Sjølgjetslneset" />
		<tag k="natural" v="cape" />
		<tag k="ssr:stedsnr" v="266220" />
	</node>
	<node id="-86132" lat="62.7160249987" lon="8.50716944793">
>>>>>>> e1d4bc35ff8a6074a6f2e91616a996b547c36f15
		<tag k="fixme" v="consider seamark:type=rock or natural=shoal" />
		<tag k="name" v="Søhamnskjæret" />
		<tag k="place" v="islet" />
		<tag k="ssr:stedsnr" v="328322" />
	</node>
<<<<<<< HEAD
	<node lat="62.9036333377223" lon="8.397233332333613" id="-9232">
		<tag k="name" v="Indre Holmen" />
		<tag k="place" v="islet" />
		<tag k="ssr:stedsnr" v="328285" />
	</node>
	<node lat="62.77028333124243" lon="8.41658888331807" id="-9237">
		<tag k="name" v="Klumpbukta" />
		<tag k="natural" v="bay" />
		<tag k="ssr:stedsnr" v="328495" />
	</node>
	<node lat="62.7519527809252" lon="8.462697230934866" id="-9269">
		<tag k="name" v="Nautvika" />
		<tag k="natural" v="bay" />
		<tag k="ssr:stedsnr" v="329622" />
	</node>
	<node lat="62.745469442711915" lon="8.460938883687586" id="-9293">
		<tag k="name" v="Nordgrunna" />
		<tag k="natural" v="shoal" />
=======
	<node id="-83646" lat="62.7345138929" lon="8.52922776813">
		<tag k="name" v="Horrvika" />
		<tag k="natural" v="bay" />
		<tag k="ssr:stedsnr" v="263718" />
	</node>
	<node id="-84591" lat="62.8736638849" lon="8.45317500073">
		<tag k="name" v="Valåsneset" />
		<tag k="natural" v="cape" />
		<tag k="ssr:stedsnr" v="752208" />
	</node>
	<node id="-84575" lat="62.6759722205" lon="8.519638883">
		<tag k="name" v="Hammaren" />
		<tag k="natural" v="cape" />
		<tag k="ssr:stedsnr" v="740054" />
	</node>
	<node id="-84062" lat="62.7574361123" lon="8.36674722653">
		<tag k="name" v="Jesperfjørru" />
		<tag k="natural" v="beach" />
>>>>>>> e1d4bc35ff8a6074a6f2e91616a996b547c36f15
		<tag k="place" v="locality" />
		<tag k="ssr:stedsnr" v="352637" />
	</node>
<<<<<<< HEAD
	<node lat="62.87003333020964" lon="8.415680560266853" id="-9323">
		<tag k="name" v="Langneset" />
=======
	<node id="-86109" lat="62.881397223" lon="8.47231667435">
		<tag k="name" v="Bytberget" />
>>>>>>> e1d4bc35ff8a6074a6f2e91616a996b547c36f15
		<tag k="natural" v="cape" />
		<tag k="ssr:stedsnr" v="376260" />
	</node>
<<<<<<< HEAD
	<node lat="62.9057777790584" lon="8.39438334125374" id="-9352">
		<tag k="name" v="Øyavika" />
=======
	<node id="-83547" lat="62.7389722265" lon="8.51130834204">
		<tag k="name" v="Naustbukta" />
>>>>>>> e1d4bc35ff8a6074a6f2e91616a996b547c36f15
		<tag k="natural" v="bay" />
		<tag k="ssr:stedsnr" v="388220" />
	</node>
<<<<<<< HEAD
	<node lat="62.842066663859185" lon="8.492030562239421" id="-9365">
		<tag k="name" v="Kåvikneset" />
		<tag k="natural" v="cape" />
		<tag k="ssr:stedsnr" v="388145" />
	</node>
	<node lat="62.883547224902074" lon="8.436311104564751" id="-9366">
		<tag k="name" v="Hundsprangneset" />
		<tag k="natural" v="cape" />
		<tag k="ssr:stedsnr" v="388176" />
	</node>
	<node lat="62.77174721903357" lon="8.409836107162645" id="-9406">
		<tag k="name" v="Klumpneset" />
		<tag k="natural" v="cape" />
		<tag k="ssr:stedsnr" v="389585" />
	</node>
	<node lat="62.70117777934141" lon="8.50703056475577" id="-9410">
		<tag k="name" v="Svartholet" />
=======
	<node id="-83546" lat="62.8365472197" lon="8.50723889866">
		<tag k="name" v="Vågaøran" />
		<tag k="natural" v="beach" />
		<tag k="place" v="locality" />
		<tag k="ssr:stedsnr" v="449189" />
	</node>
	<node id="-86104" lat="62.7224055531" lon="8.48469445119">
		<tag k="name" v="Indre Holvikan" />
		<tag k="natural" v="bay" />
		<tag k="ssr:stedsnr" v="570041" />
	</node>
	<node id="-86103" lat="62.6899416704" lon="8.51167499369">
		<tag k="name" v="Mannvika" />
>>>>>>> e1d4bc35ff8a6074a6f2e91616a996b547c36f15
		<tag k="natural" v="bay" />
		<tag k="ssr:stedsnr" v="390118" />
	</node>
<<<<<<< HEAD
	<node lat="62.760244445257705" lon="8.439755556100527" id="-9427">
		<tag k="name" v="Kjølneset" />
=======
	<node id="-83540" lat="62.9081361078" lon="8.41020000751">
		<tag k="name" v="Saltbuberget" />
>>>>>>> e1d4bc35ff8a6074a6f2e91616a996b547c36f15
		<tag k="natural" v="cape" />
		<tag k="ssr:stedsnr" v="390727" />
	</node>
<<<<<<< HEAD
	<node lat="62.780136113555805" lon="8.373524996050365" id="-9434">
		<tag k="name" v="Hisdalsneset" />
=======
	<node id="-86611" lat="62.8925861138" lon="8.42288889707">
		<tag k="name" v="Kjevikneset" />
>>>>>>> e1d4bc35ff8a6074a6f2e91616a996b547c36f15
		<tag k="natural" v="cape" />
		<tag k="ssr:stedsnr" v="390997" />
	</node>
<<<<<<< HEAD
	<node lat="62.78007222345064" lon="8.374799997953494" id="-9435">
		<tag k="name" v="Skathauggropa" />
		<tag k="natural" v="bay" />
		<tag k="ssr:stedsnr" v="390999" />
	</node>
	<node lat="62.84238055441014" lon="8.613866674549621" id="-9438">
		<tag k="name" v="Rakanesstranda" />
		<tag k="natural" v="beach" />
		<tag k="ssr:stedsnr" v="404809" />
	</node>
	<node lat="62.7271444442941" lon="8.545030564612478" id="-9453">
		<tag k="name" v="Oppdølsstranda" />
		<tag k="natural" v="beach" />
		<tag k="ssr:stedsnr" v="436183" />
	</node>
	<node lat="62.68288611525262" lon="8.515511109526617" id="-9483">
=======
	<node id="-84049" lat="62.6926444427" lon="8.55978611294">
		<tag k="name" v="Leirvikkroken" />
		<tag k="natural" v="bay" />
		<tag k="ssr:stedsnr" v="448527" />
	</node>
	<node id="-83532" lat="62.6828861153" lon="8.51551110953">
>>>>>>> e1d4bc35ff8a6074a6f2e91616a996b547c36f15
		<tag k="name" v="Blaksåbukta" />
		<tag k="natural" v="bay" />
		<tag k="ssr:stedsnr" v="448473" />
	</node>
<<<<<<< HEAD
	<node lat="62.88967777367824" lon="8.4248333342289" id="-9484">
=======
	<node id="-83530" lat="62.8896777737" lon="8.42483333423">
>>>>>>> e1d4bc35ff8a6074a6f2e91616a996b547c36f15
		<tag k="name" v="Hestberget" />
		<tag k="natural" v="cape" />
		<tag k="ssr:stedsnr" v="448219" />
	</node>
<<<<<<< HEAD
	<node lat="62.84530000207398" lon="8.521424997238977" id="-9500">
		<tag k="name" v="Strand" />
=======
	<node id="-85576" lat="62.6882611146" lon="8.51512222842">
		<tag k="name" v="Kjetilbukta" />
		<tag k="natural" v="bay" />
		<tag k="ssr:stedsnr" v="205502" />
	</node>
	<node id="-83520" lat="62.8718527812" lon="8.4592138864">
		<tag k="name" v="Ramsand" />
>>>>>>> e1d4bc35ff8a6074a6f2e91616a996b547c36f15
		<tag k="natural" v="beach" />
		<tag k="ssr:stedsnr" v="497351" />
	</node>
<<<<<<< HEAD
	<node lat="62.698397218635634" lon="8.507255555571932" id="-9518">
		<tag k="name" v="Innvikneset" />
=======
	<node id="-83210" lat="62.8434250031" lon="8.4890305547">
		<tag k="name" v="Løåbukta" />
		<tag k="natural" v="bay" />
		<tag k="ssr:stedsnr" v="85166" />
	</node>
	<node id="-83514" lat="62.8900499969" lon="8.44450000552">
		<tag k="name" v="Gjengstøneset" />
>>>>>>> e1d4bc35ff8a6074a6f2e91616a996b547c36f15
		<tag k="natural" v="cape" />
		<tag k="ssr:stedsnr" v="497188" />
	</node>
<<<<<<< HEAD
	<node lat="62.88557777615524" lon="8.45292222248507" id="-9541">
		<tag k="name" v="Gjengstøbukta" />
		<tag k="natural" v="bay" />
		<tag k="ssr:stedsnr" v="498332" />
	</node>
	<node lat="62.901461111771404" lon="8.356997228259507" id="-9542">
		<tag k="bay" v="fjord" />
		<tag k="name" v="Ålvundfjorden" />
		<tag k="natural" v="bay" />
		<tag k="ssr:stedsnr" v="498336" />
	</node>
	<node lat="62.74840000075543" lon="8.44536945392927" id="-9545">
=======
	<node id="-83511" lat="62.8777916704" lon="8.49073610644">
		<tag k="name" v="Rykkjemsneset" />
		<tag k="natural" v="cape" />
		<tag k="ssr:stedsnr" v="195302" />
	</node>
	<node id="-83510" lat="62.6961694438" lon="8.55926388644">
>>>>>>> e1d4bc35ff8a6074a6f2e91616a996b547c36f15
		<tag k="fixme" v="consider seamark:type=rock or natural=shoal" />
		<tag k="name" v="Sørskjæret" />
		<tag k="place" v="islet" />
<<<<<<< HEAD
		<tag k="ssr:stedsnr" v="510737" />
	</node>
	<node lat="62.84461111474489" lon="8.469897218823572" id="-9565">
		<tag k="name" v="Skrøåsandholet" />
		<tag k="natural" v="bay" />
		<tag k="ssr:stedsnr" v="509133" />
	</node>
	<node lat="62.9069194488849" lon="8.391472223962596" id="-9599">
		<tag k="name" v="Ytre Holmen" />
=======
		<tag k="ssr:stedsnr" v="292655" />
	</node>
	<node id="-83509" lat="62.7109083339" lon="8.55384444144">
		<tag k="name" v="Grøvlagrunnen" />
		<tag k="natural" v="shoal" />
		<tag k="place" v="locality" />
		<tag k="ssr:stedsnr" v="292650" />
	</node>
	<node id="-83123" lat="62.8517305599" lon="8.60236944305">
		<tag k="name" v="Hyllneset" />
		<tag k="natural" v="cape" />
		<tag k="ssr:stedsnr" v="222826" />
	</node>
	<node id="-85040" lat="62.9008333346" lon="8.41353889515">
		<tag k="fixme" v="consider seamark:type=rock or natural=shoal" />
		<tag k="name" v="Klokkarskjæret" />
>>>>>>> e1d4bc35ff8a6074a6f2e91616a996b547c36f15
		<tag k="place" v="islet" />
		<tag k="ssr:stedsnr" v="510245" />
	</node>
<<<<<<< HEAD
	<node lat="62.689941670388514" lon="8.51167499368706" id="-9706">
		<tag k="name" v="Mannvika" />
=======
	<node id="-84827" lat="62.7583499976" lon="8.36298888706">
		<tag k="name" v="Tjørruberget" />
		<tag k="natural" v="cape" />
		<tag k="ssr:stedsnr" v="936952" />
	</node>
	<node id="-85253" lat="62.764027775" lon="8.35106112052">
		<tag k="name" v="Grovaneset" />
		<tag k="natural" v="cape" />
		<tag k="ssr:stedsnr" v="85987" />
	</node>
	<node id="-86040" lat="62.848863885" lon="8.60456945413">
		<tag k="name" v="Rakanesbukta" />
>>>>>>> e1d4bc35ff8a6074a6f2e91616a996b547c36f15
		<tag k="natural" v="bay" />
		<tag k="ssr:stedsnr" v="569445" />
	</node>
<<<<<<< HEAD
	<node lat="62.72240555314767" lon="8.484694451190059" id="-9709">
		<tag k="name" v="Indre Holvikan" />
		<tag k="natural" v="bay" />
		<tag k="ssr:stedsnr" v="570041" />
	</node>
	<node lat="62.69926666250264" lon="8.505636104123667" id="-9729">
		<tag k="name" v="Innvikbukta" />
		<tag k="natural" v="bay" />
		<tag k="ssr:stedsnr" v="571094" />
	</node>
	<node lat="62.75041111198499" lon="8.391913883578946" id="-9748">
		<tag k="name" v="Slettfjøra" />
		<tag k="natural" v="beach" />
		<tag k="ssr:stedsnr" v="571638" />
	</node>
	<node lat="62.75844444271518" lon="8.441513884805167" id="-9779">
		<tag k="name" v="Ytre Sundet" />
		<tag k="natural" v="strait" />
		<tag k="ssr:stedsnr" v="595647" />
	</node>
	<node lat="62.86325555416686" lon="8.42675277094108" id="-9795">
		<tag k="name" v="Seterneset" />
=======
	<node id="-85010" lat="62.7299527791" lon="8.41588611593">
		<tag k="name" v="Grytneset" />
>>>>>>> e1d4bc35ff8a6074a6f2e91616a996b547c36f15
		<tag k="natural" v="cape" />
		<tag k="ssr:stedsnr" v="618352" />
	</node>
<<<<<<< HEAD
	<node lat="62.91819166373678" lon="8.386613881003175" id="-9807">
		<tag k="name" v="Nesøytangen" />
=======
	<node id="-85519" lat="62.690919448" lon="8.51163889085">
		<tag k="name" v="Uraneset" />
>>>>>>> e1d4bc35ff8a6074a6f2e91616a996b547c36f15
		<tag k="natural" v="cape" />
		<tag k="ssr:stedsnr" v="618717" />
	</node>
<<<<<<< HEAD
	<node lat="62.74983333022871" lon="8.448797225315932" id="-9820">
		<tag k="name" v="Flåøya" />
=======
	<node id="-83981" lat="62.7484000008" lon="8.44536945393">
		<tag k="fixme" v="consider seamark:type=rock or natural=shoal" />
		<tag k="name" v="Sørskjæret" />
>>>>>>> e1d4bc35ff8a6074a6f2e91616a996b547c36f15
		<tag k="place" v="islet" />
		<tag k="ssr:stedsnr" v="619532" />
	</node>
<<<<<<< HEAD
	<node lat="62.705033334315665" lon="8.558194452790104" id="-9831">
		<tag k="name" v="Sandvika" />
		<tag k="natural" v="bay" />
		<tag k="ssr:stedsnr" v="627723" />
	</node>
	<node lat="62.670575003626816" lon="8.525547223239524" id="-9864">
		<tag k="name" v="Notbøneset" />
		<tag k="natural" v="cape" />
		<tag k="ssr:stedsnr" v="630959" />
	</node>
	<node lat="62.756288887137174" lon="8.378197226186828" id="-9885">
		<tag k="name" v="Hauganeset" />
=======
	<node id="-83979" lat="62.7531055577" lon="8.45768888942">
		<tag k="fixme" v="consider seamark:type=rock or natural=shoal" />
		<tag k="name" v="Lyngvikskjæret" />
		<tag k="place" v="islet" />
		<tag k="ssr:stedsnr" v="510711" />
	</node>
	<node id="-85002" lat="62.6876222207" lon="8.51668333706">
		<tag k="name" v="Langneset" />
>>>>>>> e1d4bc35ff8a6074a6f2e91616a996b547c36f15
		<tag k="natural" v="cape" />
		<tag k="ssr:stedsnr" v="631920" />
	</node>
<<<<<<< HEAD
	<node lat="62.78881388864915" lon="8.341250004583506" id="-9926">
		<tag k="name" v="Midtvika" />
		<tag k="natural" v="bay" />
		<tag k="ssr:stedsnr" v="715257" />
	</node>
	<node lat="62.87479999717897" lon="8.584541668944913" id="-9927">
		<tag k="bay" v="fjord" />
		<tag k="name" v="Haltbakkhavet" />
		<tag k="natural" v="bay" />
		<tag k="ssr:stedsnr" v="717479" />
	</node>
	<node lat="62.72560833278933" lon="8.48493889687935" id="-9932">
		<tag k="name" v="Korsneset" />
		<tag k="natural" v="cape" />
		<tag k="ssr:stedsnr" v="739193" />
	</node>
	<node lat="62.84123333389514" lon="8.492852778023666" id="-9969">
		<tag k="name" v="Kåvika" />
		<tag k="natural" v="bay" />
		<tag k="ssr:stedsnr" v="752146" />
	</node>
	<node lat="62.900808331298876" lon="8.403980547284" id="-9984">
		<tag k="name" v="Tjønnberget" />
		<tag k="natural" v="cape" />
		<tag k="ssr:stedsnr" v="752291" />
	</node>
	<node lat="62.786233334033525" lon="8.3511694542189" id="-10059">
		<tag k="name" v="Renneset" />
		<tag k="natural" v="cape" />
		<tag k="ssr:stedsnr" v="775230" />
	</node>
	<node lat="62.78454721804881" lon="8.357047220375305" id="-10060">
		<tag k="name" v="Brautholaneset" />
		<tag k="natural" v="cape" />
		<tag k="ssr:stedsnr" v="775231" />
	</node>
	<node lat="62.84059999771571" lon="8.493483337027321" id="-10061">
		<tag k="name" v="Vågstranda" />
		<tag k="natural" v="beach" />
		<tag k="ssr:stedsnr" v="777387" />
	</node>
	<node lat="62.892586113831534" lon="8.422888897067683" id="-10118">
		<tag k="name" v="Kjevikneset" />
		<tag k="natural" v="cape" />
		<tag k="ssr:stedsnr" v="813296" />
	</node>
	<node lat="62.75242222165905" lon="8.43966388200583" id="-10157">
		<tag k="name" v="Storvikneset" />
		<tag k="natural" v="cape" />
		<tag k="ssr:stedsnr" v="814745" />
	</node>
	<node lat="62.77844166473372" lon="8.386572228646346" id="-10204">
		<tag k="name" v="Sistrengneset" />
		<tag k="natural" v="cape" />
		<tag k="ssr:stedsnr" v="935580" />
	</node>
	<node lat="62.743949996978486" lon="8.457580546235645" id="-10207">
		<tag k="name" v="Sørgrunna" />
		<tag k="natural" v="shoal" />
		<tag k="place" v="locality" />
		<tag k="ssr:stedsnr" v="838668" />
	</node>
	<node lat="62.89841944415417" lon="8.417841665353869" id="-10212">
		<tag k="name" v="Søhamna" />
		<tag k="natural" v="bay" />
		<tag k="ssr:stedsnr" v="861278" />
	</node>
	<node lat="62.788861112658985" lon="8.328475005543394" id="-10219">
		<tag k="bay" v="fjord" />
		<tag k="name" v="Sunndalsfjorden" />
		<tag k="natural" v="bay" />
		<tag k="ssr:stedsnr" v="861179" />
	</node>
	<node lat="62.85491944583978" lon="8.43618612013329" id="-10288">
		<tag k="name" v="Mulvikneset" />
		<tag k="natural" v="cape" />
		<tag k="ssr:stedsnr" v="874100" />
	</node>
	<node lat="62.90609166454064" lon="8.409569438378291" id="-10291">
		<tag k="name" v="Øyabukta" />
		<tag k="natural" v="bay" />
		<tag k="ssr:stedsnr" v="874270" />
	</node>
	<node lat="62.83795277749685" lon="8.51252499682513" id="-10303">
		<tag k="name" v="Vågatangen" />
		<tag k="natural" v="cape" />
		<tag k="ssr:stedsnr" v="874456" />
	</node>
	<node lat="62.75033888744665" lon="8.444238887619635" id="-10311">
		<tag k="name" v="Barholet" />
		<tag k="natural" v="bay" />
		<tag k="ssr:stedsnr" v="874737" />
	</node>
	<node lat="62.74637499875501" lon="8.40136389702575" id="-10371">
		<tag k="name" v="Hyllneset" />
		<tag k="natural" v="cape" />
		<tag k="ssr:stedsnr" v="935732" />
	</node>
	<node lat="62.758349997628656" lon="8.362988887056586" id="-10400">
		<tag k="name" v="Tjørruberget" />
		<tag k="natural" v="cape" />
		<tag k="ssr:stedsnr" v="936952" />
=======
	<node id="-83182" lat="62.9021444408" lon="8.41229445421">
		<tag k="name" v="Nesøysundet" />
		<tag k="natural" v="strait" />
		<tag k="ssr:stedsnr" v="72302" />
	</node>
	<node id="-85508" lat="62.7263166697" lon="8.4237055525">
		<tag k="name" v="Øksendalsbukta" />
		<tag k="natural" v="bay" />
		<tag k="ssr:stedsnr" v="193194" />
>>>>>>> e1d4bc35ff8a6074a6f2e91616a996b547c36f15
	</node>
</osm>
