<?xml version="1.0" encoding="UTF-8"?>
<<<<<<< HEAD
<osm version="0.6" generator="osmapis">
	<node lat="62.71791944827291" lon="8.419375009301259" id="-6714">
		<tag k="bridge" v="yes" />
		<tag k="layer" v="1" />
		<tag k="name" v="Osbrua" />
		<tag k="ssr:stedsnr" v="21819" />
	</node>
	<node lat="62.5728527821454" lon="9.041274994271374" id="-6715">
=======
<osm generator="osmapis" version="0.6">
	<node id="-86518" lat="62.8580027768" lon="8.5808111178">
		<tag k="fixme" v="consider highway=path" />
		<tag k="highway" v="track" />
		<tag k="name" v="Brattstivegen" />
		<tag k="ssr:stedsnr" v="768851" />
	</node>
	<node id="-84467" lat="62.4992444447" lon="9.11153888496">
		<tag k="ford" v="yes" />
		<tag k="name" v="Stillvadet" />
		<tag k="place" v="locality" />
		<tag k="ssr:stedsnr" v="876724" />
	</node>
	<node id="-85487" lat="62.8772750039" lon="8.49219166492">
		<tag k="amenity" v="ferry_terminal" />
		<tag k="name" v="Rykkjem ferjekai" />
		<tag k="ssr:stedsnr" v="156317" />
	</node>
	<node id="-83437" lat="62.7217555538" lon="8.33975833063">
		<tag k="ford" v="yes" />
		<tag k="name" v="Raudåvadet" />
		<tag k="place" v="locality" />
		<tag k="ssr:stedsnr" v="145868" />
	</node>
	<node id="-83945" lat="62.6629000022" lon="8.45558888965">
		<tag k="ford" v="yes" />
		<tag k="name" v="Vadet" />
		<tag k="place" v="locality" />
		<tag k="ssr:stedsnr" v="509435" />
	</node>
	<node id="-83931" lat="62.6732777771" lon="8.5554638922">
>>>>>>> e1d4bc35ff8a6074a6f2e91616a996b547c36f15
		<tag k="bridge" v="yes" />
		<tag k="layer" v="1" />
		<tag k="name" v="Ålbrua" />
		<tag k="ssr:stedsnr" v="21833" />
	</node>
<<<<<<< HEAD
	<node lat="62.643856126684284" lon="8.723990484511909" id="-6716">
=======
	<node id="-83930" lat="62.5231833346" lon="9.02290554693">
>>>>>>> e1d4bc35ff8a6074a6f2e91616a996b547c36f15
		<tag k="bridge" v="yes" />
		<tag k="layer" v="1" />
		<tag k="name" v="Grøabrua" />
		<tag k="ssr:stedsnr" v="21843" />
	</node>
<<<<<<< HEAD
	<node lat="62.647519442700776" lon="8.694641657665315" id="-6717">
		<tag k="bridge" v="yes" />
		<tag k="layer" v="1" />
		<tag k="name" v="Elverhøybrua flomløp" />
		<tag k="ssr:stedsnr" v="21846" />
	</node>
	<node lat="62.83161666920528" lon="8.525772217187633" id="-6818">
		<tag k="bridge" v="yes" />
		<tag k="layer" v="1" />
		<tag k="name" v="Ålvundbrua" />
		<tag k="ssr:stedsnr" v="82748" />
	</node>
	<node lat="62.67327777738591" lon="8.555458327632703" id="-6820">
=======
	<node id="-83929" lat="62.8324888845" lon="8.51191388498">
		<tag k="bridge" v="yes" />
		<tag k="layer" v="1" />
		<tag k="name" v="Seljebøbrua" />
		<tag k="ssr:stedsnr" v="507776" />
	</node>
	<node id="-85460" lat="62.5568916693" lon="9.12082777942">
		<tag k="highway" v="path" />
		<tag k="name" v="Seterstigen" />
		<tag k="ssr:stedsnr" v="147231" />
	</node>
	<node id="-85582" lat="62.8823583296" lon="8.46763888926">
		<tag k="fixme" v="verify maritime location" />
		<tag k="mooring" v="yes" />
		<tag k="name" v="Hjellstøa" />
		<tag k="place" v="locality" />
		<tag k="ssr:stedsnr" v="206240" />
	</node>
	<node id="-83910" lat="62.5122916699" lon="9.08285278399">
		<tag k="highway" v="path" />
		<tag k="name" v="Leirholvegen" />
		<tag k="ssr:stedsnr" v="390620" />
	</node>
	<node id="-84408" lat="62.6621777745" lon="8.63128889297">
>>>>>>> e1d4bc35ff8a6074a6f2e91616a996b547c36f15
		<tag k="bridge" v="yes" />
		<tag k="layer" v="1" />
		<tag k="name" v="Drivabrua" />
		<tag k="ssr:stedsnr" v="82838" />
	</node>
<<<<<<< HEAD
	<node lat="62.54299721854346" lon="8.959763880017084" id="-6863">
		<tag k="bridge" v="yes" />
		<tag k="layer" v="1" />
		<tag k="name" v="Steinbrua" />
		<tag k="ssr:stedsnr" v="87102" />
	</node>
	<node lat="62.68589166533368" lon="8.41621944405862" id="-6933">
=======
	<node id="-86771" lat="62.7566805538" lon="8.36363610366">
		<tag k="bridge" v="yes" />
		<tag k="layer" v="1" />
		<tag k="name" v="Neptrøbrua" />
		<tag k="ssr:stedsnr" v="871797" />
	</node>
	<node id="-85423" lat="62.7137138856" lon="8.40637500966">
		<tag k="ford" v="yes" />
		<tag k="name" v="Spranget" />
		<tag k="place" v="locality" />
		<tag k="ssr:stedsnr" v="146049" />
	</node>
	<node id="-83884" lat="62.6643472254" lon="8.53671667598">
>>>>>>> e1d4bc35ff8a6074a6f2e91616a996b547c36f15
		<tag k="bridge" v="yes" />
		<tag k="layer" v="1" />
		<tag k="name" v="Søre Smestadbrua" />
		<tag k="ssr:stedsnr" v="142183" />
	</node>
<<<<<<< HEAD
	<node lat="62.61539999647428" lon="8.90819165852131" id="-6942">
		<tag k="bridge" v="yes" />
		<tag k="layer" v="1" />
		<tag k="name" v="Snøvasbrua I" />
		<tag k="ssr:stedsnr" v="142847" />
	</node>
	<node lat="62.57143888625731" lon="9.145363889232277" id="-7131">
=======
	<node id="-84906" lat="62.6513027746" lon="8.33111944599">
		<tag k="highway" v="path" />
		<tag k="name" v="Brattstigan" />
		<tag k="ssr:stedsnr" v="875262" />
	</node>
	<node id="-85233" lat="62.8360305532" lon="8.51508610797">
		<tag k="bridge" v="yes" />
		<tag k="layer" v="1" />
		<tag k="name" v="Storbrua" />
		<tag k="ssr:stedsnr" v="85346" />
	</node>
	<node id="-84897" lat="62.8217111148" lon="8.54459165999">
>>>>>>> e1d4bc35ff8a6074a6f2e91616a996b547c36f15
		<tag k="highway" v="path" />
		<tag k="name" v="Kjelkvegen" />
		<tag k="ssr:stedsnr" v="269058" />
	</node>
<<<<<<< HEAD
	<node lat="62.7309972241688" lon="8.434444448836318" id="-7191">
=======
	<node id="-83359" lat="62.8952499975" lon="8.42377777499">
>>>>>>> e1d4bc35ff8a6074a6f2e91616a996b547c36f15
		<tag k="fixme" v="verify maritime location" />
		<tag k="mooring" v="yes" />
		<tag k="name" v="Åmundstøa" />
		<tag k="place" v="locality" />
		<tag k="ssr:stedsnr" v="449843" />
	</node>
<<<<<<< HEAD
	<node lat="62.7167472211155" lon="8.396602771467895" id="-7197">
		<tag k="ford" v="yes" />
		<tag k="name" v="Tempelvadet" />
		<tag k="place" v="locality" />
		<tag k="ssr:stedsnr" v="450058" />
	</node>
	<node lat="62.730055551305306" lon="8.41515000260757" id="-7199">
		<tag k="bridge" v="yes" />
		<tag k="layer" v="1" />
		<tag k="name" v="Grytbrua" />
		<tag k="ssr:stedsnr" v="450187" />
	</node>
	<node lat="62.62995555838343" lon="8.850661112818278" id="-7269">
=======
	<node id="-85392" lat="62.6153999965" lon="8.90819165852">
		<tag k="bridge" v="yes" />
		<tag k="layer" v="1" />
		<tag k="name" v="Snøvasbrua I" />
		<tag k="ssr:stedsnr" v="142847" />
	</node>
	<node id="-84878" lat="62.6411288609" lon="8.75645866232">
		<tag k="layer" v="-1" />
		<tag k="name" v="Østre Flatvaduroverbygget" />
		<tag k="ssr:stedsnr" v="871822" />
		<tag k="tunnel" v="yes" />
	</node>
	<node id="-84877" lat="62.6317277787" lon="8.84357499881">
>>>>>>> e1d4bc35ff8a6074a6f2e91616a996b547c36f15
		<tag k="bridge" v="yes" />
		<tag k="layer" v="1" />
		<tag k="name" v="Somrungbrua" />
		<tag k="ssr:stedsnr" v="264836" />
	</node>
<<<<<<< HEAD
	<node lat="62.644069443495546" lon="8.712349991159012" id="-7270">
=======
	<node id="-85899" lat="62.6009222262" lon="8.93948055914">
>>>>>>> e1d4bc35ff8a6074a6f2e91616a996b547c36f15
		<tag k="bridge" v="yes" />
		<tag k="layer" v="1" />
		<tag k="name" v="Grødalsbrua" />
		<tag k="ssr:stedsnr" v="264838" />
	</node>
	<node lat="62.8952499975317" lon="8.423777774993663" id="-7282">
		<tag k="fixme" v="verify maritime location" />
		<tag k="mooring" v="yes" />
		<tag k="name" v="Søstøa" />
		<tag k="place" v="locality" />
		<tag k="ssr:stedsnr" v="267303" />
	</node>
	<node lat="62.701791665067205" lon="8.489550005855836" id="-7294">
		<tag k="highway" v="path" />
		<tag k="name" v="Seterstigen" />
		<tag k="ssr:stedsnr" v="268098" />
	</node>
<<<<<<< HEAD
	<node lat="62.67269722410586" lon="8.553405546687626" id="-7427">
=======
	<node id="-85898" lat="62.6726972241" lon="8.55340554669">
>>>>>>> e1d4bc35ff8a6074a6f2e91616a996b547c36f15
		<tag k="bridge" v="yes" />
		<tag k="layer" v="1" />
		<tag k="name" v="Litlhåsbrua" />
		<tag k="ssr:stedsnr" v="385830" />
	</node>
<<<<<<< HEAD
	<node lat="62.66434722537943" lon="8.536716675976217" id="-7451">
=======
	<node id="-85383" lat="62.6858916653" lon="8.41621944406">
>>>>>>> e1d4bc35ff8a6074a6f2e91616a996b547c36f15
		<tag k="bridge" v="yes" />
		<tag k="layer" v="1" />
		<tag k="name" v="Geitakloppa" />
		<tag k="ssr:stedsnr" v="388909" />
	</node>
<<<<<<< HEAD
	<node lat="62.657480554278706" lon="8.623155557648882" id="-7510">
=======
	<node id="-85569" lat="62.6480611094" lon="8.69367221267">
		<tag k="bridge" v="yes" />
		<tag k="layer" v="1" />
		<tag k="name" v="Elverhøybrua" />
		<tag k="ssr:stedsnr" v="203860" />
	</node>
	<node id="-86394" lat="62.6481055515" lon="8.693866659">
>>>>>>> e1d4bc35ff8a6074a6f2e91616a996b547c36f15
		<tag k="bridge" v="yes" />
		<tag k="layer" v="1" />
		<tag k="name" v="Harembrua" />
		<tag k="ssr:stedsnr" v="446824" />
	</node>
<<<<<<< HEAD
	<node lat="62.656233335435914" lon="8.667422222893093" id="-7511">
=======
	<node id="-83303" lat="62.6440694435" lon="8.71234999116">
>>>>>>> e1d4bc35ff8a6074a6f2e91616a996b547c36f15
		<tag k="bridge" v="yes" />
		<tag k="layer" v="1" />
		<tag k="name" v="Vinnubrua" />
		<tag k="ssr:stedsnr" v="446849" />
	</node>
<<<<<<< HEAD
	<node lat="62.80392778114025" lon="8.493622231260229" id="-7534">
=======
	<node id="-83302" lat="62.6299555584" lon="8.85066111282">
>>>>>>> e1d4bc35ff8a6074a6f2e91616a996b547c36f15
		<tag k="bridge" v="yes" />
		<tag k="layer" v="1" />
		<tag k="name" v="Smisetbrua" />
		<tag k="ssr:stedsnr" v="450622" />
	</node>
<<<<<<< HEAD
	<node lat="62.832488884530434" lon="8.511913884975069" id="-7632">
=======
	<node id="-86352" lat="62.6067611072" lon="8.52149722047">
>>>>>>> e1d4bc35ff8a6074a6f2e91616a996b547c36f15
		<tag k="bridge" v="yes" />
		<tag k="layer" v="1" />
		<tag k="name" v="Seljebøbrua" />
		<tag k="ssr:stedsnr" v="507776" />
	</node>
<<<<<<< HEAD
	<node lat="62.52318333458458" lon="9.022905546932662" id="-7633">
		<tag k="bridge" v="yes" />
		<tag k="layer" v="1" />
		<tag k="name" v="Dalabrua" />
		<tag k="ssr:stedsnr" v="507817" />
	</node>
	<node lat="62.67672500023892" lon="8.51991666230623" id="-7635">
		<tag k="man_made" v="quay" />
		<tag k="name" v="Hammarkaia" />
		<tag k="place" v="locality" />
		<tag k="ssr:stedsnr" v="508491" />
	</node>
	<node lat="62.76680833164021" lon="8.325644444715985" id="-7752">
		<tag k="bridge" v="yes" />
		<tag k="layer" v="1" />
		<tag k="name" v="Åfarbrua" />
		<tag k="ssr:stedsnr" v="567819" />
	</node>
	<node lat="62.50773888562984" lon="9.07814722998626" id="-7802">
=======
	<node id="-85325" lat="62.8470138912" lon="8.60091945066">
		<tag k="fixme" v="consider highway=path" />
		<tag k="highway" v="track" />
		<tag k="name" v="Setervegen" />
		<tag k="ssr:stedsnr" v="100799" />
	</node>
	<node id="-84802" lat="62.685641664" lon="8.37685555212">
		<tag k="highway" v="path" />
		<tag k="name" v="Benkestigan" />
		<tag k="ssr:stedsnr" v="936161" />
	</node>
	<node id="-83680" lat="62.5714388863" lon="9.14536388923">
		<tag k="highway" v="path" />
		<tag k="name" v="Kjelkvegen" />
		<tag k="ssr:stedsnr" v="269058" />
	</node>
	<node id="-86844" lat="62.7177844602" lon="8.562757544">
		<tag k="layer" v="-1" />
		<tag k="name" v="Oppdølsstrandtunnelen" />
		<tag k="ssr:stedsnr" v="972131" />
		<tag k="tunnel" v="yes" />
	</node>
	<node id="-84282" lat="62.5077388856" lon="9.07814722999">
>>>>>>> e1d4bc35ff8a6074a6f2e91616a996b547c36f15
		<tag k="fixme" v="consider highway=path" />
		<tag k="highway" v="track" />
		<tag k="name" v="Lina" />
		<tag k="ssr:stedsnr" v="693636" />
	</node>
<<<<<<< HEAD
	<node lat="62.650205554709984" lon="8.327786106736292" id="-7811">
		<tag k="highway" v="path" />
		<tag k="name" v="Langbrekka" />
		<tag k="ssr:stedsnr" v="571251" />
	</node>
	<node lat="62.66217777446123" lon="8.631288892973688" id="-7876">
=======
	<node id="-84787" lat="62.8343833358" lon="8.51943611887">
		<tag k="landuse" v="industrial" />
		<tag k="name" v="Ålvund Kraftverk" />
		<tag k="power" v="plant" />
		<tag k="ssr:stedsnr" v="935441" />
	</node>
	<node id="-83240" lat="62.5429972185" lon="8.95976388002">
>>>>>>> e1d4bc35ff8a6074a6f2e91616a996b547c36f15
		<tag k="bridge" v="yes" />
		<tag k="layer" v="1" />
		<tag k="name" v="Holssandbrua" />
		<tag k="ssr:stedsnr" v="628818" />
	</node>
<<<<<<< HEAD
	<node lat="62.847511111048114" lon="8.450922224061594" id="-7877">
=======
	<node id="-83741" lat="62.568649997" lon="9.05713055982">
>>>>>>> e1d4bc35ff8a6074a6f2e91616a996b547c36f15
		<tag k="bridge" v="yes" />
		<tag k="layer" v="1" />
		<tag k="name" v="Sessbøbrua" />
		<tag k="ssr:stedsnr" v="628745" />
	</node>
<<<<<<< HEAD
	<node lat="62.74045000212162" lon="8.40649165839892" id="-7878">
=======
	<node id="-84759" lat="62.4832861131" lon="8.9461916643">
>>>>>>> e1d4bc35ff8a6074a6f2e91616a996b547c36f15
		<tag k="bridge" v="yes" />
		<tag k="layer" v="1" />
		<tag k="name" v="Ytre Grytbrua" />
		<tag k="ssr:stedsnr" v="628791" />
	</node>
	<node lat="62.7569499992505" lon="8.362852779709431" id="-7879">
		<tag k="bridge" v="yes" />
		<tag k="layer" v="1" />
		<tag k="name" v="Rønningelvbrua" />
		<tag k="ssr:stedsnr" v="628794" />
	</node>
<<<<<<< HEAD
	<node lat="62.90213333519744" lon="8.4128500037647" id="-7896">
=======
	<node id="-86280" lat="62.9021333352" lon="8.41285000376">
>>>>>>> e1d4bc35ff8a6074a6f2e91616a996b547c36f15
		<tag k="bridge" v="yes" />
		<tag k="layer" v="1" />
		<tag k="name" v="Nesøybrua" />
		<tag k="ssr:stedsnr" v="631298" />
	</node>
<<<<<<< HEAD
	<node lat="62.80391666963043" lon="8.505619453420552" id="-7991">
		<tag k="bridge" v="yes" />
		<tag k="layer" v="1" />
		<tag k="name" v="Tjønnhaugbrua" />
		<tag k="ssr:stedsnr" v="689715" />
	</node>
	<node lat="62.64810555154684" lon="8.693866658999047" id="-8092">
=======
	<node id="-86791" lat="62.8576638848" lon="8.52268056008">
		<tag k="fixme" v="consider highway=path" />
		<tag k="highway" v="track" />
		<tag k="name" v="Haugavegen" />
		<tag k="ssr:stedsnr" v="874341" />
	</node>
	<node id="-83203" lat="62.5237888888" lon="9.07496388493">
		<tag k="bridge" v="yes" />
		<tag k="layer" v="1" />
		<tag k="name" v="Snøgøtubrua" />
		<tag k="ssr:stedsnr" v="82822" />
	</node>
	<node id="-85247" lat="62.8046111134" lon="8.50293611072">
		<tag k="landuse" v="industrial" />
		<tag k="name" v="Rennset kraftstasjon" />
		<tag k="power" v="plant" />
		<tag k="ssr:stedsnr" v="85499" />
	</node>
	<node id="-86268" lat="62.8568333307" lon="8.42476111369">
		<tag k="fixme" v="consider highway=path" />
		<tag k="highway" v="track" />
		<tag k="name" v="Knukavegen" />
		<tag k="ssr:stedsnr" v="631081" />
	</node>
	<node id="-85753" lat="62.8553916673" lon="8.54914167158">
		<tag k="highway" v="path" />
		<tag k="name" v="Halsastien" />
		<tag k="ssr:stedsnr" v="327247" />
	</node>
	<node id="-86773" lat="62.8873944473" lon="8.44557500026">
		<tag k="highway" v="path" />
		<tag k="name" v="Gamle Nesvegen" />
		<tag k="ssr:stedsnr" v="873216" />
	</node>
	<node id="-85748" lat="62.6697666707" lon="8.52490000259">
>>>>>>> e1d4bc35ff8a6074a6f2e91616a996b547c36f15
		<tag k="bridge" v="yes" />
		<tag k="layer" v="1" />
		<tag k="name" v="Elverhøybrua gangbru" />
		<tag k="ssr:stedsnr" v="749868" />
	</node>
<<<<<<< HEAD
	<node lat="62.75668055382195" lon="8.3636361036614" id="-8323">
=======
	<node id="-85747" lat="62.8548749963" lon="8.43512776856">
>>>>>>> e1d4bc35ff8a6074a6f2e91616a996b547c36f15
		<tag k="bridge" v="yes" />
		<tag k="layer" v="1" />
		<tag k="name" v="Neptrøbrua" />
		<tag k="ssr:stedsnr" v="871797" />
	</node>
<<<<<<< HEAD
	<node lat="62.606761107225346" lon="8.521497220472554" id="-8345">
=======
	<node id="-86770" lat="62.7064916655" lon="8.55715555837">
>>>>>>> e1d4bc35ff8a6074a6f2e91616a996b547c36f15
		<tag k="bridge" v="yes" />
		<tag k="layer" v="1" />
		<tag k="name" v="Dalabrua" />
		<tag k="ssr:stedsnr" v="875972" />
	</node>
	<node lat="62.4992444447004" lon="9.111538884962776" id="-8364">
		<tag k="ford" v="yes" />
		<tag k="name" v="Stillvadet" />
		<tag k="place" v="locality" />
		<tag k="ssr:stedsnr" v="876724" />
	</node>
<<<<<<< HEAD
	<node lat="62.48328611311659" lon="8.946191664298206" id="-8460">
		<tag k="bridge" v="yes" />
		<tag k="layer" v="1" />
		<tag k="name" v="Hallabrua" />
		<tag k="ssr:stedsnr" v="934539" />
	</node>
	<node lat="62.83438333584337" lon="8.519436118867047" id="-8470">
		<tag k="landuse" v="industrial" />
		<tag k="name" v="Ålvund Kraftverk" />
		<tag k="power" v="plant" />
		<tag k="ssr:stedsnr" v="935441" />
	</node>
	<node lat="62.68616110727706" lon="8.416608341839352" id="-8543">
=======
	<node id="-86769" lat="62.5451472222" lon="9.10995000111">
		<tag k="bridge" v="yes" />
		<tag k="layer" v="1" />
		<tag k="name" v="Nisjabrua" />
		<tag k="ssr:stedsnr" v="871784" />
	</node>
	<node id="-86250" lat="62.7569499993" lon="8.36285277971">
>>>>>>> e1d4bc35ff8a6074a6f2e91616a996b547c36f15
		<tag k="bridge" v="yes" />
		<tag k="layer" v="1" />
		<tag k="name" v="Nørdre Smestadbrua" />
		<tag k="ssr:stedsnr" v="21197" />
	</node>
<<<<<<< HEAD
	<node lat="62.61639166645005" lon="8.906358328483375" id="-8547">
=======
	<node id="-86249" lat="62.7404500021" lon="8.4064916584">
>>>>>>> e1d4bc35ff8a6074a6f2e91616a996b547c36f15
		<tag k="bridge" v="yes" />
		<tag k="layer" v="1" />
		<tag k="name" v="Snøvasbrua II" />
		<tag k="ssr:stedsnr" v="21832" />
	</node>
<<<<<<< HEAD
	<node lat="62.48183333337759" lon="9.067755551326083" id="-8609">
=======
	<node id="-86248" lat="62.847511111" lon="8.45092222406">
>>>>>>> e1d4bc35ff8a6074a6f2e91616a996b547c36f15
		<tag k="bridge" v="yes" />
		<tag k="layer" v="1" />
		<tag k="name" v="Skiråbrua" />
		<tag k="ssr:stedsnr" v="26692" />
	</node>
	<node lat="62.75839444428815" lon="8.29620555116666" id="-8618">
		<tag k="ford" v="yes" />
		<tag k="name" v="Raudvadet" />
		<tag k="place" v="locality" />
		<tag k="ssr:stedsnr" v="26965" />
	</node>
<<<<<<< HEAD
	<node lat="62.558411111453026" lon="9.11308889292025" id="-8689">
=======
	<node id="-86247" lat="62.8287500033" lon="8.52739722286">
>>>>>>> e1d4bc35ff8a6074a6f2e91616a996b547c36f15
		<tag k="bridge" v="yes" />
		<tag k="layer" v="1" />
		<tag k="name" v="Gjørasbrua" />
		<tag k="ssr:stedsnr" v="82849" />
	</node>
<<<<<<< HEAD
	<node lat="62.63337500287154" lon="8.819625001950843" id="-8690">
=======
	<node id="-85218" lat="62.6333750029" lon="8.81962500195">
>>>>>>> e1d4bc35ff8a6074a6f2e91616a996b547c36f15
		<tag k="bridge" v="yes" />
		<tag k="layer" v="1" />
		<tag k="name" v="Reinåbrua" />
		<tag k="ssr:stedsnr" v="82851" />
	</node>
<<<<<<< HEAD
	<node lat="62.52378888876215" lon="9.074963884929916" id="-8695">
=======
	<node id="-85217" lat="62.5584111115" lon="9.11308889292">
		<tag k="bridge" v="yes" />
		<tag k="layer" v="1" />
		<tag k="name" v="Gjørasbrua" />
		<tag k="ssr:stedsnr" v="82849" />
	</node>
	<node id="-85216" lat="62.6732777774" lon="8.55545832763">
>>>>>>> e1d4bc35ff8a6074a6f2e91616a996b547c36f15
		<tag k="bridge" v="yes" />
		<tag k="layer" v="1" />
		<tag k="name" v="Snøgøtubrua" />
		<tag k="ssr:stedsnr" v="82822" />
	</node>
<<<<<<< HEAD
	<node lat="62.69796389303555" lon="8.499050008210356" id="-8696">
=======
	<node id="-85215" lat="62.697963893" lon="8.49905000821">
>>>>>>> e1d4bc35ff8a6074a6f2e91616a996b547c36f15
		<tag k="bridge" v="yes" />
		<tag k="layer" v="1" />
		<tag k="name" v="Innvikbekkbrua" />
		<tag k="ssr:stedsnr" v="82825" />
	</node>
<<<<<<< HEAD
	<node lat="62.804611113368814" lon="8.50293611072477" id="-8714">
=======
	<node id="-85214" lat="62.8316166692" lon="8.52577221719">
		<tag k="bridge" v="yes" />
		<tag k="layer" v="1" />
		<tag k="name" v="Ålvundbrua" />
		<tag k="ssr:stedsnr" v="82748" />
	</node>
	<node id="-84175" lat="62.6105611143" lon="8.72711945029">
		<tag k="name" v="Dalaleet" />
		<tag k="place" v="locality" />
		<tag k="ssr:stedsnr" v="510282" />
	</node>
	<node id="-86211" lat="62.5953777809" lon="8.38757499452">
		<tag k="highway" v="path" />
		<tag k="name" v="Kleiva" />
		<tag k="ssr:stedsnr" v="618056" />
	</node>
	<node id="-86718" lat="62.5106777741" lon="8.47794166605">
>>>>>>> e1d4bc35ff8a6074a6f2e91616a996b547c36f15
		<tag k="landuse" v="industrial" />
		<tag k="name" v="Rennset kraftstasjon" />
		<tag k="power" v="plant" />
<<<<<<< HEAD
		<tag k="ssr:stedsnr" v="85499" />
	</node>
	<node lat="62.83603055319459" lon="8.515086107972698" id="-8722">
		<tag k="bridge" v="yes" />
		<tag k="layer" v="1" />
		<tag k="name" v="Storbrua" />
		<tag k="ssr:stedsnr" v="85346" />
	</node>
	<node lat="62.84701389120489" lon="8.600919450657667" id="-8789">
		<tag k="fixme" v="consider highway=path" />
		<tag k="highway" v="track" />
		<tag k="name" v="Setervegen" />
		<tag k="ssr:stedsnr" v="100799" />
	</node>
	<node lat="62.721755553804364" lon="8.339758330629394" id="-8865">
		<tag k="ford" v="yes" />
		<tag k="name" v="Raudåvadet" />
=======
		<tag k="ssr:stedsnr" v="845518" />
	</node>
	<node id="-86713" lat="62.6568861149" lon="8.68020832433">
		<tag k="aeroway" v="airstrip" />
		<tag k="name" v="Sunndalsøra flyplass, Vinnu" />
		<tag k="ssr:stedsnr" v="830492" />
	</node>
	<node id="-86712" lat="62.8639888933" lon="8.58373056468">
		<tag k="highway" v="path" />
		<tag k="name" v="Settavegen" />
		<tag k="ssr:stedsnr" v="829854" />
	</node>
	<node id="-84151" lat="62.6767250002" lon="8.51991666231">
		<tag k="man_made" v="quay" />
		<tag k="name" v="Hammarkaia" />
		<tag k="place" v="locality" />
		<tag k="ssr:stedsnr" v="508491" />
	</node>
	<node id="-85649" lat="62.7432388903" lon="8.52738889335">
		<tag k="junction" v="yes" />
		<tag k="name" v="Skrøo" />
>>>>>>> e1d4bc35ff8a6074a6f2e91616a996b547c36f15
		<tag k="place" v="locality" />
		<tag k="ssr:stedsnr" v="145868" />
	</node>
<<<<<<< HEAD
	<node lat="62.713713885599034" lon="8.40637500965531" id="-8878">
=======
	<node id="-85132" lat="62.7583944443" lon="8.29620555117">
>>>>>>> e1d4bc35ff8a6074a6f2e91616a996b547c36f15
		<tag k="ford" v="yes" />
		<tag k="name" v="Spranget" />
		<tag k="place" v="locality" />
		<tag k="ssr:stedsnr" v="146049" />
	</node>
<<<<<<< HEAD
	<node lat="62.55689166927688" lon="9.120827779424214" id="-8921">
=======
	<node id="-86148" lat="62.6502055547" lon="8.32778610674">
>>>>>>> e1d4bc35ff8a6074a6f2e91616a996b547c36f15
		<tag k="highway" v="path" />
		<tag k="name" v="Seterstigen" />
		<tag k="ssr:stedsnr" v="147231" />
	</node>
<<<<<<< HEAD
	<node lat="62.87727500387086" lon="8.492191664922721" id="-8944">
		<tag k="amenity" v="ferry_terminal" />
		<tag k="name" v="Rykkjem ferjekai" />
		<tag k="ssr:stedsnr" v="156317" />
	</node>
	<node lat="62.693430553149405" lon="8.500008334771687" id="-9034">
=======
	<node id="-85121" lat="62.4818333334" lon="9.06775555133">
		<tag k="bridge" v="yes" />
		<tag k="layer" v="1" />
		<tag k="name" v="Skiråbrua" />
		<tag k="ssr:stedsnr" v="26692" />
	</node>
	<node id="-86648" lat="62.6617833298" lon="8.630408343">
>>>>>>> e1d4bc35ff8a6074a6f2e91616a996b547c36f15
		<tag k="bridge" v="yes" />
		<tag k="layer" v="1" />
		<tag k="name" v="Urabekkbrua" />
		<tag k="ssr:stedsnr" v="203842" />
	</node>
<<<<<<< HEAD
	<node lat="62.54994166794496" lon="9.10277499899154" id="-9035">
		<tag k="bridge" v="yes" />
		<tag k="layer" v="1" />
		<tag k="name" v="Klingøybrua" />
		<tag k="ssr:stedsnr" v="203855" />
	</node>
	<node lat="62.64806110944949" lon="8.693672212672144" id="-9036">
=======
	<node id="-85622" lat="62.8286250045" lon="8.49686667609">
		<tag k="bridge" v="yes" />
		<tag k="layer" v="1" />
		<tag k="name" v="Seterbruin" />
		<tag k="ssr:stedsnr" v="207200" />
	</node>
	<node id="-83568" lat="62.7167472211" lon="8.39660277147">
		<tag k="ford" v="yes" />
		<tag k="name" v="Tempelvadet" />
		<tag k="place" v="locality" />
		<tag k="ssr:stedsnr" v="450058" />
	</node>
	<node id="-83567" lat="62.7300555513" lon="8.41515000261">
>>>>>>> e1d4bc35ff8a6074a6f2e91616a996b547c36f15
		<tag k="bridge" v="yes" />
		<tag k="layer" v="1" />
		<tag k="name" v="Elverhøybrua" />
		<tag k="ssr:stedsnr" v="203860" />
	</node>
<<<<<<< HEAD
	<node lat="62.734086112591804" lon="8.532538887833876" id="-9040">
		<tag k="bridge" v="yes" />
		<tag k="layer" v="1" />
		<tag k="name" v="Horrvikbrua" />
		<tag k="ssr:stedsnr" v="204722" />
	</node>
	<node lat="62.77617777991815" lon="8.525291673924759" id="-9041">
=======
	<node id="-85608" lat="62.6586750011" lon="8.52962777447">
		<tag k="bridge" v="yes" />
		<tag k="layer" v="1" />
		<tag k="name" v="Sjølseng-brua" />
		<tag k="ssr:stedsnr" v="206895" />
	</node>
	<node id="-86630" lat="62.6648111139" lon="8.52107221407">
		<tag k="landuse" v="industrial" />
		<tag k="name" v="Aura kraftverk" />
		<tag k="power" v="plant" />
		<tag k="ssr:stedsnr" v="813812" />
	</node>
	<node id="-84069" lat="62.8039277811" lon="8.49362223126">
>>>>>>> e1d4bc35ff8a6074a6f2e91616a996b547c36f15
		<tag k="bridge" v="yes" />
		<tag k="layer" v="1" />
		<tag k="name" v="Bråttabrua" />
		<tag k="ssr:stedsnr" v="204736" />
	</node>
<<<<<<< HEAD
	<node lat="62.882358329636574" lon="8.467638889257394" id="-9050">
=======
	<node id="-83556" lat="62.7309972242" lon="8.43444444884">
>>>>>>> e1d4bc35ff8a6074a6f2e91616a996b547c36f15
		<tag k="fixme" v="verify maritime location" />
		<tag k="mooring" v="yes" />
		<tag k="name" v="Hjellstøa" />
		<tag k="place" v="locality" />
<<<<<<< HEAD
		<tag k="ssr:stedsnr" v="206240" />
	</node>
	<node lat="62.658675001114794" lon="8.529627774465226" id="-9070">
=======
		<tag k="ssr:stedsnr" v="449843" />
	</node>
	<node id="-86098" lat="62.6810805574" lon="8.51684999457">
		<tag k="bridge" v="yes" />
		<tag k="layer" v="1" />
		<tag k="name" v="Blaksåbrua" />
		<tag k="ssr:stedsnr" v="567824" />
	</node>
	<node id="-86097" lat="62.7668083316" lon="8.32564444472">
		<tag k="bridge" v="yes" />
		<tag k="layer" v="1" />
		<tag k="name" v="Åfarbrua" />
		<tag k="ssr:stedsnr" v="567819" />
	</node>
	<node id="-84048" lat="62.6562333354" lon="8.66742222289">
>>>>>>> e1d4bc35ff8a6074a6f2e91616a996b547c36f15
		<tag k="bridge" v="yes" />
		<tag k="layer" v="1" />
		<tag k="name" v="Sjølseng-brua" />
		<tag k="ssr:stedsnr" v="206895" />
	</node>
<<<<<<< HEAD
	<node lat="62.828625004485836" lon="8.496866676089285" id="-9078">
=======
	<node id="-84047" lat="62.5727555538" lon="9.14903333103">
>>>>>>> e1d4bc35ff8a6074a6f2e91616a996b547c36f15
		<tag k="bridge" v="yes" />
		<tag k="layer" v="1" />
		<tag k="name" v="Seterbruin" />
		<tag k="ssr:stedsnr" v="207200" />
	</node>
<<<<<<< HEAD
	<node lat="62.74323889032305" lon="8.527388893354425" id="-9103">
		<tag k="junction" v="yes" />
		<tag k="name" v="Skrøo" />
		<tag k="place" v="locality" />
		<tag k="ssr:stedsnr" v="207800" />
	</node>
	<node lat="62.66976667067153" lon="8.524900002593093" id="-9201">
=======
	<node id="-84046" lat="62.6574805543" lon="8.62315555765">
		<tag k="bridge" v="yes" />
		<tag k="layer" v="1" />
		<tag k="name" v="Harembrua" />
		<tag k="ssr:stedsnr" v="446824" />
	</node>
	<node id="-86599" lat="62.6704611132" lon="8.54793055232">
>>>>>>> e1d4bc35ff8a6074a6f2e91616a996b547c36f15
		<tag k="bridge" v="yes" />
		<tag k="layer" v="1" />
		<tag k="name" v="Tredalsbrua" />
		<tag k="ssr:stedsnr" v="325797" />
	</node>
<<<<<<< HEAD
	<node lat="62.568649996959635" lon="9.05713055981576" id="-9202">
=======
	<node id="-86598" lat="62.6441888887" lon="8.7885861043">
>>>>>>> e1d4bc35ff8a6074a6f2e91616a996b547c36f15
		<tag k="bridge" v="yes" />
		<tag k="layer" v="1" />
		<tag k="name" v="Bjørbekkjebrua" />
		<tag k="ssr:stedsnr" v="325813" />
	</node>
<<<<<<< HEAD
	<node lat="62.85487499630061" lon="8.435127768561387" id="-9203">
=======
	<node id="-86597" lat="62.6698777756" lon="8.37424999528">
>>>>>>> e1d4bc35ff8a6074a6f2e91616a996b547c36f15
		<tag k="bridge" v="yes" />
		<tag k="layer" v="1" />
		<tag k="name" v="Mulvikbrua" />
		<tag k="ssr:stedsnr" v="325742" />
	</node>
<<<<<<< HEAD
	<node lat="62.855391667284344" lon="8.549141671580415" id="-9205">
		<tag k="highway" v="path" />
		<tag k="name" v="Halsastien" />
		<tag k="ssr:stedsnr" v="327247" />
	</node>
	<node lat="62.60092222619084" lon="8.9394805591396" id="-9345">
=======
	<node id="-86596" lat="62.6854416686" lon="8.41524167509">
		<tag k="bridge" v="yes" />
		<tag k="layer" v="1" />
		<tag k="name" v="Gaudalsbrua" />
		<tag k="ssr:stedsnr" v="810831" />
	</node>
	<node id="-85571" lat="62.7761777799" lon="8.52529167392">
>>>>>>> e1d4bc35ff8a6074a6f2e91616a996b547c36f15
		<tag k="bridge" v="yes" />
		<tag k="layer" v="1" />
		<tag k="name" v="Romfobrua" />
		<tag k="ssr:stedsnr" v="385840" />
	</node>
	<node lat="62.51229166987333" lon="9.082852783988058" id="-9421">
		<tag k="highway" v="path" />
		<tag k="name" v="Leirholvegen" />
		<tag k="ssr:stedsnr" v="390620" />
	</node>
<<<<<<< HEAD
	<node lat="62.57275555383614" lon="9.149033331031413" id="-9481">
=======
	<node id="-85570" lat="62.7340861126" lon="8.53253888783">
>>>>>>> e1d4bc35ff8a6074a6f2e91616a996b547c36f15
		<tag k="bridge" v="yes" />
		<tag k="layer" v="1" />
		<tag k="name" v="Lihjellbrua" />
		<tag k="ssr:stedsnr" v="446838" />
	</node>
<<<<<<< HEAD
	<node lat="62.67327777706724" lon="8.555463892204923" id="-9552">
		<tag k="bridge" v="yes" />
		<tag k="layer" v="1" />
		<tag k="name" v="Drivabrua II" />
		<tag k="ssr:stedsnr" v="507836" />
	</node>
	<node lat="62.66290000218111" lon="8.45558888965347" id="-9574">
		<tag k="ford" v="yes" />
		<tag k="name" v="Vadet" />
		<tag k="place" v="locality" />
		<tag k="ssr:stedsnr" v="509435" />
	</node>
	<node lat="62.610561114326316" lon="8.72711945028628" id="-9592">
		<tag k="name" v="Dalaleet" />
		<tag k="place" v="locality" />
		<tag k="ssr:stedsnr" v="510282" />
	</node>
	<node lat="62.681080557396584" lon="8.516849994565215" id="-9703">
=======
	<node id="-86593" lat="62.811047225" lon="8.50946943807">
		<tag k="bridge" v="yes" />
		<tag k="layer" v="1" />
		<tag k="name" v="Rennsetbrua" />
		<tag k="ssr:stedsnr" v="810778" />
	</node>
	<node id="-85568" lat="62.5499416679" lon="9.10277499899">
>>>>>>> e1d4bc35ff8a6074a6f2e91616a996b547c36f15
		<tag k="bridge" v="yes" />
		<tag k="layer" v="1" />
		<tag k="name" v="Blaksåbrua" />
		<tag k="ssr:stedsnr" v="567824" />
	</node>
<<<<<<< HEAD
	<node lat="62.59537778091013" lon="8.387574994518648" id="-9790">
		<tag k="highway" v="path" />
		<tag k="name" v="Kleiva" />
		<tag k="ssr:stedsnr" v="618056" />
	</node>
	<node lat="62.82875000329977" lon="8.527397222860113" id="-9841">
=======
	<node id="-85567" lat="62.6934305531" lon="8.50000833477">
>>>>>>> e1d4bc35ff8a6074a6f2e91616a996b547c36f15
		<tag k="bridge" v="yes" />
		<tag k="layer" v="1" />
		<tag k="name" v="Brekkbrua" />
		<tag k="ssr:stedsnr" v="628730" />
	</node>
<<<<<<< HEAD
	<node lat="62.85683333073693" lon="8.424761113690813" id="-9870">
		<tag k="fixme" v="consider highway=path" />
		<tag k="highway" v="track" />
		<tag k="name" v="Knukavegen" />
		<tag k="ssr:stedsnr" v="631081" />
	</node>
	<node lat="62.85800277683843" lon="8.58081111779616" id="-10057">
		<tag k="fixme" v="consider highway=path" />
		<tag k="highway" v="track" />
		<tag k="name" v="Brattstivegen" />
		<tag k="ssr:stedsnr" v="768851" />
	</node>
	<node lat="62.71733333762929" lon="8.432275000297901" id="-10102">
=======
	<node id="-86588" lat="62.7173333376" lon="8.4322750003">
>>>>>>> e1d4bc35ff8a6074a6f2e91616a996b547c36f15
		<tag k="bridge" v="yes" />
		<tag k="layer" v="1" />
		<tag k="name" v="Buakloppa" />
		<tag k="ssr:stedsnr" v="810179" />
	</node>
<<<<<<< HEAD
	<node lat="62.81104722501715" lon="8.509469438069607" id="-10103">
		<tag k="bridge" v="yes" />
		<tag k="layer" v="1" />
		<tag k="name" v="Rennsetbrua" />
		<tag k="ssr:stedsnr" v="810778" />
	</node>
	<node lat="62.685441668635626" lon="8.415241675093082" id="-10106">
=======
	<node id="-85037" lat="62.6475194427" lon="8.69464165767">
>>>>>>> e1d4bc35ff8a6074a6f2e91616a996b547c36f15
		<tag k="bridge" v="yes" />
		<tag k="layer" v="1" />
		<tag k="name" v="Gaudalsbrua" />
		<tag k="ssr:stedsnr" v="810831" />
	</node>
<<<<<<< HEAD
	<node lat="62.669877775595594" lon="8.37424999528323" id="-10107">
=======
	<node id="-85036" lat="62.6438561267" lon="8.72399048451">
>>>>>>> e1d4bc35ff8a6074a6f2e91616a996b547c36f15
		<tag k="bridge" v="yes" />
		<tag k="layer" v="1" />
		<tag k="name" v="Ljøsåbrua" />
		<tag k="ssr:stedsnr" v="810832" />
	</node>
<<<<<<< HEAD
	<node lat="62.6441888887179" lon="8.78858610429954" id="-10108">
=======
	<node id="-85035" lat="62.5728527821" lon="9.04127499427">
>>>>>>> e1d4bc35ff8a6074a6f2e91616a996b547c36f15
		<tag k="bridge" v="yes" />
		<tag k="layer" v="1" />
		<tag k="name" v="Lauvåbrua" />
		<tag k="ssr:stedsnr" v="810838" />
	</node>
<<<<<<< HEAD
	<node lat="62.670461113186605" lon="8.547930552321892" id="-10109">
=======
	<node id="-85034" lat="62.6163916665" lon="8.90635832848">
>>>>>>> e1d4bc35ff8a6074a6f2e91616a996b547c36f15
		<tag k="bridge" v="yes" />
		<tag k="layer" v="1" />
		<tag k="name" v="Storhåsbrua" />
		<tag k="ssr:stedsnr" v="810848" />
	</node>
<<<<<<< HEAD
	<node lat="62.66481111385952" lon="8.521072214068623" id="-10132">
		<tag k="landuse" v="industrial" />
		<tag k="name" v="Aura kraftverk" />
		<tag k="power" v="plant" />
		<tag k="ssr:stedsnr" v="813812" />
	</node>
	<node lat="62.66178332977207" lon="8.63040834300415" id="-10140">
=======
	<node id="-85033" lat="62.7179194483" lon="8.4193750093">
		<tag k="bridge" v="yes" />
		<tag k="layer" v="1" />
		<tag k="name" v="Osbrua" />
		<tag k="ssr:stedsnr" v="21819" />
	</node>
	<node id="-85031" lat="62.6861611073" lon="8.41660834184">
>>>>>>> e1d4bc35ff8a6074a6f2e91616a996b547c36f15
		<tag k="bridge" v="yes" />
		<tag k="layer" v="1" />
		<tag k="name" v="Kiklingbrekkbrua" />
		<tag k="ssr:stedsnr" v="814200" />
	</node>
	<node lat="62.863988893308374" lon="8.583730564682785" id="-10199">
		<tag k="highway" v="path" />
		<tag k="name" v="Settavegen" />
		<tag k="ssr:stedsnr" v="829854" />
	</node>
	<node lat="62.65688611493435" lon="8.6802083243308" id="-10200">
		<tag k="aeroway" v="airstrip" />
		<tag k="name" v="Sunndalsøra flyplass, Vinnu" />
		<tag k="ssr:stedsnr" v="830492" />
	</node>
	<node lat="62.510677774147716" lon="8.47794166605062" id="-10208">
		<tag k="landuse" v="industrial" />
		<tag k="name" v="Osbu kraftverk" />
		<tag k="power" v="plant" />
		<tag k="ssr:stedsnr" v="845518" />
	</node>
	<node lat="62.8576638848228" lon="8.522680560082517" id="-10264">
		<tag k="fixme" v="consider highway=path" />
		<tag k="highway" v="track" />
		<tag k="name" v="Haugavegen" />
		<tag k="ssr:stedsnr" v="874341" />
	</node>
<<<<<<< HEAD
	<node lat="62.706491665527004" lon="8.557155558366087" id="-10266">
=======
	<node id="-84509" lat="62.8039166696" lon="8.50561945342">
>>>>>>> e1d4bc35ff8a6074a6f2e91616a996b547c36f15
		<tag k="bridge" v="yes" />
		<tag k="layer" v="1" />
		<tag k="name" v="Sandvikbrua" />
		<tag k="ssr:stedsnr" v="871733" />
	</node>
<<<<<<< HEAD
	<node lat="62.63172777865779" lon="8.843574998806583" id="-10267">
		<tag k="bridge" v="yes" />
		<tag k="layer" v="1" />
		<tag k="name" v="Falebrua" />
		<tag k="ssr:stedsnr" v="871819" />
	</node>
	<node lat="62.641128860945" lon="8.75645866231516" id="-10268">
		<tag k="layer" v="-1" />
		<tag k="name" v="Østre Flatvaduroverbygget" />
		<tag k="ssr:stedsnr" v="871822" />
		<tag k="tunnel" v="yes" />
	</node>
	<node lat="62.54514722217935" lon="9.10995000110573" id="-10269">
		<tag k="bridge" v="yes" />
		<tag k="layer" v="1" />
		<tag k="name" v="Nisjabrua" />
		<tag k="ssr:stedsnr" v="871784" />
	</node>
	<node lat="62.887394447312175" lon="8.445575000261519" id="-10271">
		<tag k="highway" v="path" />
		<tag k="name" v="Gamle Nesvegen" />
		<tag k="ssr:stedsnr" v="873216" />
	</node>
	<node lat="62.82171111476586" lon="8.544591659994772" id="-10297">
		<tag k="highway" v="path" />
		<tag k="name" v="Legdvegen" />
		<tag k="ssr:stedsnr" v="874371" />
	</node>
	<node lat="62.651302774550615" lon="8.33111944599156" id="-10331">
		<tag k="highway" v="path" />
		<tag k="name" v="Brattstigan" />
		<tag k="ssr:stedsnr" v="875262" />
	</node>
	<node lat="62.6856416639981" lon="8.376855552124782" id="-10381">
		<tag k="highway" v="path" />
		<tag k="name" v="Benkestigan" />
		<tag k="ssr:stedsnr" v="936161" />
	</node>
	<node lat="62.71778446017341" lon="8.562757543997343" id="-10424">
		<tag k="layer" v="-1" />
		<tag k="name" v="Oppdølsstrandtunnelen" />
		<tag k="ssr:stedsnr" v="972131" />
		<tag k="tunnel" v="yes" />
=======
	<node id="-83375" lat="62.7017916651" lon="8.48955000586">
		<tag k="highway" v="path" />
		<tag k="name" v="Seterstigen" />
		<tag k="ssr:stedsnr" v="268098" />
>>>>>>> e1d4bc35ff8a6074a6f2e91616a996b547c36f15
	</node>
</osm>
