<?xml version="1.0" encoding="UTF-8"?>
<osm version="0.6" generator="osmapis">
	<node id="31264126" lat="59.140759" lon="9.6562495" version="15" timestamp="2021-11-30T00:09:28Z" changeset="114381591" uid="605010" user="Noen">
		<tag k="name" v="Porsgrunn" />
		<tag k="name:ru" v="Порсгрунн" />
		<tag k="place" v="city" />
		<tag k="population" v="34176" />
		<tag k="population:date" v="2021-01-01" />
		<tag k="ref:ssb_tettsted" v="3005-3806" />
		<tag k="source" v="SSB" />
		<tag k="source:population" v="SSB - befolkning i tettstedet" />
		<tag k="ssr:stedsnr" v="365574" />
		<tag k="ssr:type" v="by" />
		<tag k="wikidata" v="Q10637941" />
		<tag k="wikipedia" v="nn:Porsgrunn" />
	</node>
	<node id="355252406" lat="59.0767302" lon="9.6871241" version="4" timestamp="2018-06-10T08:12:02Z" changeset="59705781" uid="3842253" user="NKA_import">
		<tag k="name" v="Heistad" />
		<tag k="place" v="suburb" />
		<tag k="ssr:stedsnr" v="145797" />
		<tag k="ssr:type" v="bydel" />
	</node>
	<node id="564893285" lat="59.0884715" lon="9.8037016" version="5" timestamp="2021-10-29T06:11:26Z" changeset="113107708" uid="3497659" user="NKA">
		<tag k="name" v="Langangen" />
		<tag k="place" v="village" />
		<tag k="population" v="460" />
		<tag k="population:date" v="2021-01-01" />
		<tag k="ref:ssb_tettsted" v="3001" />
		<tag k="source:population" v="SSB - befolkning i tettstedet" />
		<tag k="ssr:stedsnr" v="184444" />
		<tag k="ssr:type" v="tettbebyggelse" />
	</node>
	<node id="1300644558" lat="59.0528886" lon="9.699978" version="4" timestamp="2018-06-10T08:12:02Z" changeset="59705781" uid="3842253" user="NKA_import">
		<tag k="name" v="Brevik" />
		<tag k="name:ru" v="Бревик" />
		<tag k="place" v="town" />
		<tag k="population" v="3000" />
		<tag k="population:date" v="2008" />
		<tag k="source" v="earth-info.nga.mil" />
		<tag k="ssr:stedsnr" v="244530" />
		<tag k="ssr:type" v="by" />
	</node>
	<node id="1500486189" lat="59.1449948" lon="9.6421054" version="3" timestamp="2018-06-10T08:12:03Z" changeset="59705781" uid="3842253" user="NKA_import">
		<tag k="alt_name" v="Vestsida" />
		<tag k="name" v="Vestsiden" />
		<tag k="place" v="suburb" />
		<tag k="ssr:stedsnr" v="62630" />
		<tag k="ssr:type" v="bydel" />
	</node>
	<node id="1500546119" lat="59.1120009" lon="9.6483267" version="3" timestamp="2018-06-10T08:12:03Z" changeset="59705781" uid="3842253" user="NKA_import">
		<tag k="name" v="Herøya" />
		<tag k="place" v="suburb" />
		<tag k="ssr:stedsnr" v="25025" />
		<tag k="ssr:type" v="tettbebyggelse" />
	</node>
	<node id="1500546133" lat="59.1468923" lon="9.6672369" version="2" timestamp="2018-06-10T08:12:03Z" changeset="59705781" uid="3842253" user="NKA_import">
		<tag k="name" v="Hovenga" />
		<tag k="place" v="suburb" />
		<tag k="ssr:stedsnr" v="836891" />
		<tag k="ssr:type" v="bydel" />
	</node>
	<node id="1500546136" lat="59.1171797" lon="9.7169503" version="2" timestamp="2018-06-10T08:12:03Z" changeset="59705781" uid="3842253" user="NKA_import">
		<tag k="name" v="Eidanger" />
		<tag k="place" v="suburb" />
		<tag k="ssr:stedsnr" v="759949" />
		<tag k="ssr:type" v="bygdelagBygd" />
	</node>
	<node id="1500546137" lat="59.1059157" lon="9.683156" version="2" timestamp="2018-06-10T08:12:03Z" changeset="59705781" uid="3842253" user="NKA_import">
		<tag k="name" v="Hovet" />
		<tag k="place" v="suburb" />
		<tag k="ssr:stedsnr" v="365419" />
		<tag k="ssr:type" v="bruk" />
	</node>
	<node id="1500546138" lat="59.1288497" lon="9.6428524" version="2" timestamp="2018-06-10T08:12:03Z" changeset="59705781" uid="3842253" user="NKA_import">
		<tag k="alt_name" v="Øyekast" />
		<tag k="name" v="Øyekastet" />
		<tag k="place" v="suburb" />
		<tag k="ssr:stedsnr" v="875033" />
		<tag k="ssr:type" v="tettbebyggelse" />
	</node>
	<node id="1500546139" lat="59.1328011" lon="9.6378899" version="2" timestamp="2018-06-10T08:12:03Z" changeset="59705781" uid="3842253" user="NKA_import">
		<tag k="name" v="Sundjordet" />
		<tag k="place" v="suburb" />
		<tag k="ssr:stedsnr" v="957041" />
		<tag k="ssr:type" v="tettbebyggelse" />
	</node>
	<node id="1500546152" lat="59.1131131" lon="9.6634612" version="2" timestamp="2018-06-10T08:12:03Z" changeset="59705781" uid="3842253" user="NKA_import">
		<tag k="alt_name" v="Stritskleiv;Stritskleiva" />
		<tag k="name" v="Stridsklev" />
		<tag k="place" v="suburb" />
		<tag k="ssr:stedsnr" v="123455" />
		<tag k="ssr:type" v="tettbebyggelse" />
	</node>
	<node id="5679138180" lat="59.1517111" lon="9.6905111" version="1" timestamp="2018-06-10T08:11:34Z" changeset="59705781" uid="3842253" user="NKA_import">
		<tag k="name" v="Bjørketvet" />
		<tag k="old_name" v="Bjørketveit" />
		<tag k="place" v="farm" />
		<tag k="ssr:stedsnr" v="366603" />
		<tag k="ssr:type" v="bruk" />
	</node>
	<node id="5679138181" lat="59.0862389" lon="9.7178417" version="1" timestamp="2018-06-10T08:11:35Z" changeset="59705781" uid="3842253" user="NKA_import">
		<tag k="name" v="Strandjordet" />
		<tag k="place" v="farm" />
		<tag k="ssr:stedsnr" v="541044" />
		<tag k="ssr:type" v="bruk" />
	</node>
	<node id="5679138182" lat="59.0726528" lon="9.6897028" version="1" timestamp="2018-06-10T08:11:35Z" changeset="59705781" uid="3842253" user="NKA_import">
		<tag k="name" v="Eiklund" />
		<tag k="place" v="farm" />
		<tag k="ssr:stedsnr" v="541117" />
		<tag k="ssr:type" v="bruk" />
	</node>
	<node id="5679138183" lat="59.1460904" lon="9.7345318" version="1" timestamp="2018-06-10T08:11:35Z" changeset="59705781" uid="3842253" user="NKA_import">
		<tag k="loc_name" v="Bjørkedal" />
		<tag k="name" v="Bjørkedalen" />
		<tag k="place" v="hamlet" />
		<tag k="ssr:stedsnr" v="388857" />
		<tag k="ssr:type" v="bygdelagBygd" />
	</node>
	<node id="5679138184" lat="59.1059167" lon="9.8116944" version="1" timestamp="2018-06-10T08:11:35Z" changeset="59705781" uid="3842253" user="NKA_import">
		<tag k="name" v="Gunnarsrød" />
		<tag k="place" v="farm" />
		<tag k="ssr:stedsnr" v="547425" />
		<tag k="ssr:type" v="bruk" />
	</node>
	<node id="5679138185" lat="59.0730778" lon="9.7852278" version="1" timestamp="2018-06-10T08:11:35Z" changeset="59705781" uid="3842253" user="NKA_import">
		<tag k="alt_name" v="Rødsæter" />
		<tag k="loc_name" v="Rødsetre" />
		<tag k="name" v="Rødssæter" />
		<tag k="place" v="farm" />
		<tag k="ssr:stedsnr" v="547437" />
		<tag k="ssr:type" v="bruk" />
	</node>
	<node id="5679138186" lat="59.0713611" lon="9.6649583" version="1" timestamp="2018-06-10T08:11:35Z" changeset="59705781" uid="3842253" user="NKA_import">
		<tag k="alt_name" v="Kjørrholt" />
		<tag k="name" v="Kjørholt" />
		<tag k="place" v="farm" />
		<tag k="ssr:stedsnr" v="547440" />
		<tag k="ssr:type" v="gard" />
	</node>
	<node id="5679138187" lat="59.0811444" lon="9.6519056" version="1" timestamp="2018-06-10T08:11:35Z" changeset="59705781" uid="3842253" user="NKA_import">
		<tag k="name" v="Sølverød" />
		<tag k="place" v="farm" />
		<tag k="ssr:stedsnr" v="547455" />
		<tag k="ssr:type" v="gard" />
	</node>
	<node id="5679138188" lat="59.0839389" lon="9.6623056" version="1" timestamp="2018-06-10T08:11:35Z" changeset="59705781" uid="3842253" user="NKA_import">
		<tag k="name" v="Klepp" />
		<tag k="place" v="farm" />
		<tag k="ssr:stedsnr" v="547457" />
		<tag k="ssr:type" v="gard" />
	</node>
	<node id="5679138189" lat="59.1308889" lon="9.7325778" version="1" timestamp="2018-06-10T08:11:35Z" changeset="59705781" uid="3842253" user="NKA_import">
		<tag k="name" v="Grønsholt" />
		<tag k="place" v="farm" />
		<tag k="ssr:stedsnr" v="547615" />
		<tag k="ssr:type" v="gard" />
	</node>
	<node id="5679138190" lat="59.0547635" lon="9.6810153" version="1" timestamp="2018-06-10T08:11:36Z" changeset="59705781" uid="3842253" user="NKA_import">
		<tag k="name" v="Blekebakken" />
		<tag k="place" v="quarter" />
		<tag k="ssr:stedsnr" v="411038" />
		<tag k="ssr:type" v="tettbebyggelse" />
	</node>
	<node id="5679138191" lat="59.156575" lon="9.6883472" version="1" timestamp="2018-06-10T08:11:36Z" changeset="59705781" uid="3842253" user="NKA_import">
		<tag k="name" v="Austad" />
		<tag k="place" v="farm" />
		<tag k="ssr:stedsnr" v="548594" />
		<tag k="ssr:type" v="gard" />
	</node>
	<node id="5679138192" lat="59.0133732" lon="9.8292661" version="3" timestamp="2021-04-10T16:55:05Z" changeset="102707498" uid="12620901" user="fuzzfolk">
		<tag k="building" v="cabin" />
		<tag k="name" v="Vikane" />
		<tag k="place" v="locality" />
		<tag k="ssr:stedsnr" v="570718" />
		<tag k="ssr:type" v="fritidsbolig" />
	</node>
	<node id="5679138193" lat="59.1057879" lon="9.7212376" version="1" timestamp="2018-06-10T08:11:36Z" changeset="59705781" uid="3842253" user="NKA_import">
		<tag k="name" v="Døvika" />
		<tag k="place" v="hamlet" />
		<tag k="ssr:stedsnr" v="570856" />
		<tag k="ssr:type" v="grend" />
	</node>
	<node id="5679138195" lat="59.1391472" lon="9.7959694" version="1" timestamp="2018-06-10T08:11:36Z" changeset="59705781" uid="3842253" user="NKA_import">
		<tag k="name" v="Øvre Solli" />
		<tag k="place" v="farm" />
		<tag k="ssr:stedsnr" v="411900" />
		<tag k="ssr:type" v="bruk" />
	</node>
	<node id="5679138196" lat="59.0567812" lon="9.6987074" version="1" timestamp="2018-06-10T08:11:36Z" changeset="59705781" uid="3842253" user="NKA_import">
		<tag k="name" v="Setre" />
		<tag k="place" v="quarter" />
		<tag k="ssr:stedsnr" v="572108" />
		<tag k="ssr:type" v="tettbebyggelse" />
	</node>
	<node id="5679138198" lat="59.1030333" lon="9.660475" version="1" timestamp="2018-06-10T08:11:36Z" changeset="59705781" uid="3842253" user="NKA_import">
		<tag k="name" v="Skogstad" />
		<tag k="place" v="isolated_dwelling" />
		<tag k="ssr:stedsnr" v="413481" />
		<tag k="ssr:type" v="eneboligMindreBoligbygg" />
	</node>
	<node id="5679138199" lat="59.143425" lon="9.6679639" version="1" timestamp="2018-06-10T08:11:36Z" changeset="59705781" uid="3842253" user="NKA_import">
		<tag k="name" v="Roland" />
		<tag k="place" v="isolated_dwelling" />
		<tag k="ssr:stedsnr" v="413546" />
		<tag k="ssr:type" v="eneboligMindreBoligbygg" />
	</node>
	<node id="5679138200" lat="59.1516167" lon="9.6625639" version="1" timestamp="2018-06-10T08:11:36Z" changeset="59705781" uid="3842253" user="NKA_import">
		<tag k="name" v="Skogen" />
		<tag k="place" v="farm" />
		<tag k="ssr:stedsnr" v="413551" />
		<tag k="ssr:type" v="bruk" />
	</node>
	<node id="5679138201" lat="59.14785" lon="9.6756917" version="1" timestamp="2018-06-10T08:11:36Z" changeset="59705781" uid="3842253" user="NKA_import">
		<tag k="name" v="Slottsbru" />
		<tag k="place" v="farm" />
		<tag k="ssr:stedsnr" v="413556" />
		<tag k="ssr:type" v="bruk" />
	</node>
	<node id="5679138202" lat="59.1073194" lon="9.64755" version="1" timestamp="2018-06-10T08:11:37Z" changeset="59705781" uid="3842253" user="NKA_import">
		<tag k="name" v="Granli" />
		<tag k="place" v="isolated_dwelling" />
		<tag k="ssr:stedsnr" v="413644" />
		<tag k="ssr:type" v="eneboligMindreBoligbygg" />
	</node>
	<node id="5679138203" lat="59.1473639" lon="9.6383056" version="1" timestamp="2018-06-10T08:11:37Z" changeset="59705781" uid="3842253" user="NKA_import">
		<tag k="name" v="Steinsrød" />
		<tag k="place" v="isolated_dwelling" />
		<tag k="ssr:stedsnr" v="473463" />
		<tag k="ssr:type" v="eneboligMindreBoligbygg" />
	</node>
	<node id="5679138204" lat="59.0785778" lon="9.6603028" version="1" timestamp="2018-06-10T08:11:37Z" changeset="59705781" uid="3842253" user="NKA_import">
		<tag k="name" v="Husmyra" />
		<tag k="place" v="farm" />
		<tag k="ssr:stedsnr" v="473533" />
		<tag k="ssr:type" v="bruk" />
	</node>
	<node id="5679138205" lat="59.1276056" lon="9.6107028" version="1" timestamp="2018-06-10T08:11:37Z" changeset="59705781" uid="3842253" user="NKA_import">
		<tag k="name" v="Knappnæringen" />
		<tag k="place" v="isolated_dwelling" />
		<tag k="ssr:stedsnr" v="473641" />
		<tag k="ssr:type" v="eneboligMindreBoligbygg" />
	</node>
	<node id="5679138206" lat="59.1339917" lon="9.6474583" version="1" timestamp="2018-06-10T08:11:37Z" changeset="59705781" uid="3842253" user="NKA_import">
		<tag k="name" v="Jønnholt" />
		<tag k="place" v="quarter" />
		<tag k="ssr:stedsnr" v="473688" />
		<tag k="ssr:type" v="tettbebyggelse" />
	</node>
	<node id="5679138207" lat="59.095631" lon="9.683319" version="9" timestamp="2022-01-02T21:39:31Z" changeset="115686654" uid="3497659" user="NKA">
		<tag k="amenity" v="school" />
		<tag k="capacity" v="188" />
		<tag k="email" v="brattas.skole@porsgrunn.kommune.no" />
		<tag k="fee" v="no" />
		<tag k="grades" v="1-7" />
		<tag k="isced:level" v="1" />
		<tag k="name" v="Brattås skole" />
		<tag k="operator" v="Porsgrunn kommune" />
		<tag k="operator:type" v="public" />
		<tag k="phone" v="+47 35565470" />
		<tag k="ref:gsi" v="8120" />
		<tag k="ref:udir_nsr" v="1008012" />
		<tag k="ssr:stedsnr" v="477301" />
		<tag k="ssr:type" v="skole" />
		<tag k="wikidata" v="Q17750874" />
	</node>
	<node id="5679138208" lat="59.1501232" lon="9.6565821" version="1" timestamp="2018-06-10T08:11:37Z" changeset="59705781" uid="3842253" user="NKA_import">
		<tag k="name" v="Osebakken" />
		<tag k="place" v="quarter" />
		<tag k="ssr:stedsnr" v="592921" />
		<tag k="ssr:type" v="bydel" />
	</node>
	<node id="5679138209" lat="59.1279944" lon="9.6545611" version="1" timestamp="2018-06-10T08:11:37Z" changeset="59705781" uid="3842253" user="NKA_import">
		<tag k="name" v="Skrukkerød" />
		<tag k="place" v="farm" />
		<tag k="ssr:stedsnr" v="592937" />
		<tag k="ssr:type" v="gard" />
	</node>
	<node id="5679138210" lat="59.1124389" lon="9.7057111" version="1" timestamp="2018-06-10T08:11:37Z" changeset="59705781" uid="3842253" user="NKA_import">
		<tag k="name" v="Eidanger prestegård" />
		<tag k="place" v="farm" />
		<tag k="ssr:stedsnr" v="593311" />
		<tag k="ssr:type" v="gard" />
	</node>
	<node id="5679138211" lat="59.1258222" lon="9.7169417" version="1" timestamp="2018-06-10T08:11:37Z" changeset="59705781" uid="3842253" user="NKA_import">
		<tag k="name" v="Ulverød" />
		<tag k="place" v="farm" />
		<tag k="ssr:stedsnr" v="896915" />
		<tag k="ssr:type" v="bruk" />
	</node>
	<node id="5679138212" lat="59.0811239" lon="9.6888914" version="1" timestamp="2018-06-10T08:11:37Z" changeset="59705781" uid="3842253" user="NKA_import">
		<tag k="name" v="Lundelia" />
		<tag k="place" v="quarter" />
		<tag k="ssr:stedsnr" v="593346" />
		<tag k="ssr:type" v="boligfelt" />
	</node>
	<node id="5679138213" lat="59.1474278" lon="9.6859444" version="1" timestamp="2018-06-10T08:11:37Z" changeset="59705781" uid="3842253" user="NKA_import">
		<tag k="loc_name" v="Bjerketvet" />
		<tag k="name" v="Bjerketvedt" />
		<tag k="place" v="farm" />
		<tag k="ssr:stedsnr" v="593525" />
		<tag k="ssr:type" v="gard" />
	</node>
	<node id="5679138214" lat="59.1238037" lon="9.6894799" version="1" timestamp="2018-06-10T08:11:37Z" changeset="59705781" uid="3842253" user="NKA_import">
		<tag k="name" v="Enger" />
		<tag k="place" v="quarter" />
		<tag k="ssr:stedsnr" v="897038" />
		<tag k="ssr:type" v="tettbebyggelse" />
	</node>
	<node id="5679138215" lat="59.1286361" lon="9.6779667" version="1" timestamp="2018-06-10T08:11:38Z" changeset="59705781" uid="3842253" user="NKA_import">
		<tag k="name" v="Spissløkka" />
		<tag k="place" v="isolated_dwelling" />
		<tag k="ssr:stedsnr" v="593801" />
		<tag k="ssr:type" v="eneboligMindreBoligbygg" />
	</node>
	<node id="5679138216" lat="59.1581722" lon="9.8028306" version="1" timestamp="2018-06-10T08:11:38Z" changeset="59705781" uid="3842253" user="NKA_import">
		<tag k="name" v="Hogstet" />
		<tag k="place" v="farm" />
		<tag k="ssr:stedsnr" v="897818" />
		<tag k="ssr:type" v="bruk" />
	</node>
	<node id="5679138217" lat="59.1276917" lon="9.65045" version="1" timestamp="2018-06-10T08:11:38Z" changeset="59705781" uid="3842253" user="NKA_import">
		<tag k="name" v="Stubben" />
		<tag k="place" v="square" />
		<tag k="ssr:stedsnr" v="897980" />
		<tag k="ssr:type" v="torg" />
	</node>
	<node id="5679138218" lat="59.0852" lon="9.6806694" version="1" timestamp="2018-06-10T08:11:38Z" changeset="59705781" uid="3842253" user="NKA_import">
		<tag k="name" v="Lunde" />
		<tag k="place" v="farm" />
		<tag k="ssr:stedsnr" v="898466" />
		<tag k="ssr:type" v="bruk" />
	</node>
	<node id="5679138219" lat="59.1397444" lon="9.7375222" version="1" timestamp="2018-06-10T08:11:38Z" changeset="59705781" uid="3842253" user="NKA_import">
		<tag k="name" v="Kvestad" />
		<tag k="place" v="farm" />
		<tag k="ssr:stedsnr" v="593969" />
		<tag k="ssr:type" v="bruk" />
	</node>
	<node id="5679138220" lat="59.1359944" lon="9.6773444" version="1" timestamp="2018-06-10T08:11:38Z" changeset="59705781" uid="3842253" user="NKA_import">
		<tag k="name" v="Bjørkely" />
		<tag k="place" v="locality" />
		<tag k="ssr:stedsnr" v="898498" />
		<tag k="ssr:type" v="eiendom" />
	</node>
	<node id="5679141221" lat="59.1333219" lon="9.6713923" version="1" timestamp="2018-06-10T08:11:38Z" changeset="59705781" uid="3842253" user="NKA_import">
		<tag k="name" v="Myrane" />
		<tag k="place" v="quarter" />
		<tag k="ssr:stedsnr" v="413680" />
		<tag k="ssr:type" v="eneboligMindreBoligbygg" />
	</node>
	<node id="5679141224" lat="59.0831892" lon="9.7901717" version="1" timestamp="2018-06-10T08:11:38Z" changeset="59705781" uid="3842253" user="NKA_import">
		<tag k="name" v="Sagbakken" />
		<tag k="place" v="isolated_dwelling" />
		<tag k="ssr:stedsnr" v="1422" />
		<tag k="ssr:type" v="eneboligMindreBoligbygg" />
	</node>
	<node id="5679141225" lat="59.0807778" lon="9.6778778" version="1" timestamp="2018-06-10T08:11:38Z" changeset="59705781" uid="3842253" user="NKA_import">
		<tag k="alt_name" v="Løkka" />
		<tag k="name" v="Løkke" />
		<tag k="place" v="farm" />
		<tag k="ssr:stedsnr" v="1428" />
		<tag k="ssr:type" v="bruk" />
	</node>
	<node id="5679141226" lat="59.0603139" lon="9.7599667" version="1" timestamp="2018-06-10T08:11:38Z" changeset="59705781" uid="3842253" user="NKA_import">
		<tag k="alt_name" v="Solvika" />
		<tag k="name" v="Solvik" />
		<tag k="place" v="farm" />
		<tag k="ssr:stedsnr" v="1452" />
		<tag k="ssr:type" v="bruk" />
	</node>
	<node id="5679141227" lat="59.1886639" lon="9.7889639" version="1" timestamp="2018-06-10T08:11:38Z" changeset="59705781" uid="3842253" user="NKA_import">
		<tag k="name" v="Løkka" />
		<tag k="place" v="farm" />
		<tag k="ssr:stedsnr" v="1546" />
		<tag k="ssr:type" v="bruk" />
	</node>
	<node id="5679141228" lat="59.1345583" lon="9.6526056" version="1" timestamp="2018-06-10T08:11:39Z" changeset="59705781" uid="3842253" user="NKA_import">
		<tag k="name" v="Østsida" />
		<tag k="place" v="village" />
		<tag k="ssr:stedsnr" v="1638" />
		<tag k="ssr:type" v="bygdelagBygd" />
	</node>
	<node id="5679141229" lat="59.0925111" lon="9.8157278" version="1" timestamp="2018-06-10T08:11:39Z" changeset="59705781" uid="3842253" user="NKA_import">
		<tag k="name" v="Lønnabakke" />
		<tag k="old_name" v="Lønnebakke" />
		<tag k="place" v="farm" />
		<tag k="ssr:stedsnr" v="2454" />
		<tag k="ssr:type" v="bruk" />
	</node>
	<node id="5679141230" lat="59.1658694" lon="9.8240333" version="1" timestamp="2018-06-10T08:11:39Z" changeset="59705781" uid="3842253" user="NKA_import">
		<tag k="name" v="Skavåsen" />
		<tag k="place" v="farm" />
		<tag k="ssr:stedsnr" v="2547" />
		<tag k="ssr:type" v="bruk" />
	</node>
	<node id="5679141231" lat="59.1854028" lon="9.8067389" version="1" timestamp="2018-06-10T08:11:39Z" changeset="59705781" uid="3842253" user="NKA_import">
		<tag k="alt_name" v="Åklungen" />
		<tag k="name" v="Oklungen" />
		<tag k="place" v="farm" />
		<tag k="ssr:stedsnr" v="2553" />
		<tag k="ssr:type" v="gard" />
	</node>
	<node id="5679141232" lat="59.0900194" lon="9.8039945" version="1" timestamp="2018-06-10T08:11:39Z" changeset="59705781" uid="3842253" user="NKA_import">
		<tag k="name" v="Sundvoll" />
		<tag k="place" v="farm" />
		<tag k="ssr:stedsnr" v="601024" />
		<tag k="ssr:type" v="bruk" />
	</node>
	<node id="5679141233" lat="59.1102008" lon="9.7011086" version="1" timestamp="2018-06-10T08:11:39Z" changeset="59705781" uid="3842253" user="NKA_import">
		<tag k="name" v="Tangen" />
		<tag k="place" v="farm" />
		<tag k="ssr:stedsnr" v="601092" />
		<tag k="ssr:type" v="bruk" />
	</node>
	<node id="5679141234" lat="59.021" lon="9.7696389" version="1" timestamp="2018-06-10T08:11:39Z" changeset="59705781" uid="3842253" user="NKA_import">
		<tag k="name" v="Siktesøya" />
		<tag k="place" v="farm" />
		<tag k="ssr:stedsnr" v="607271" />
		<tag k="ssr:type" v="gard" />
	</node>
	<node id="5679141235" lat="59.0800444" lon="9.7174667" version="1" timestamp="2018-06-10T08:11:39Z" changeset="59705781" uid="3842253" user="NKA_import">
		<tag k="alt_name" v="Rødsvik" />
		<tag k="name" v="Rødsvika" />
		<tag k="place" v="farm" />
		<tag k="ssr:stedsnr" v="607435" />
		<tag k="ssr:type" v="bruk" />
	</node>
	<node id="5679141236" lat="59.1388028" lon="9.6812611" version="1" timestamp="2018-06-10T08:11:39Z" changeset="59705781" uid="3842253" user="NKA_import">
		<tag k="name" v="Slettene" />
		<tag k="place" v="farm" />
		<tag k="ssr:stedsnr" v="607612" />
		<tag k="ssr:type" v="bruk" />
	</node>
	<node id="5679141237" lat="59.1333611" lon="9.6894695" version="1" timestamp="2018-06-10T08:11:39Z" changeset="59705781" uid="3842253" user="NKA_import">
		<tag k="name" v="Valler" />
		<tag k="place" v="farm" />
		<tag k="ssr:stedsnr" v="607615" />
		<tag k="ssr:type" v="gard" />
	</node>
	<node id="5679141238" lat="59.0850743" lon="9.7199895" version="1" timestamp="2018-06-10T08:11:39Z" changeset="59705781" uid="3842253" user="NKA_import">
		<tag k="name" v="Bergsbygda" />
		<tag k="place" v="hamlet" />
		<tag k="ssr:stedsnr" v="27277" />
		<tag k="ssr:type" v="bygdelagBygd" />
	</node>
	<node id="5679141239" lat="59.085875" lon="9.6557111" version="1" timestamp="2018-06-10T08:11:39Z" changeset="59705781" uid="3842253" user="NKA_import">
		<tag k="alt_name" v="Øygarden" />
		<tag k="name" v="Øgården" />
		<tag k="old_name" v="Øgarden" />
		<tag k="place" v="farm" />
		<tag k="ssr:stedsnr" v="608455" />
		<tag k="ssr:type" v="bruk" />
	</node>
	<node id="5679141241" lat="59.162023" lon="9.7433324" version="1" timestamp="2018-06-10T08:11:40Z" changeset="59705781" uid="3842253" user="NKA_import">
		<tag k="name" v="Hokkstad" />
		<tag k="place" v="farm" />
		<tag k="ssr:stedsnr" v="608565" />
		<tag k="ssr:type" v="bruk" />
	</node>
	<node id="5679141242" lat="59.1546639" lon="9.6949333" version="1" timestamp="2018-06-10T08:11:40Z" changeset="59705781" uid="3842253" user="NKA_import">
		<tag k="loc_name" v="Aaltvet" />
		<tag k="name" v="Åltvet" />
		<tag k="old_name" v="Åltveit" />
		<tag k="place" v="farm" />
		<tag k="ssr:stedsnr" v="608634" />
		<tag k="ssr:type" v="bruk" />
	</node>
	<node id="5679141243" lat="59.1384111" lon="9.7256806" version="1" timestamp="2018-06-10T08:11:40Z" changeset="59705781" uid="3842253" user="NKA_import">
		<tag k="name" v="Søndre Lunde" />
		<tag k="place" v="farm" />
		<tag k="ssr:stedsnr" v="47865" />
		<tag k="ssr:type" v="gard" />
	</node>
	<node id="5679141244" lat="59.1092117" lon="9.7028317" version="1" timestamp="2018-06-10T08:11:40Z" changeset="59705781" uid="3842253" user="NKA_import">
		<tag k="name" v="Nystrand" />
		<tag k="place" v="quarter" />
		<tag k="ssr:stedsnr" v="631810" />
		<tag k="ssr:type" v="tettbebyggelse" />
	</node>
	<node id="5679141245" lat="59.1421472" lon="9.6406361" version="1" timestamp="2018-06-10T08:11:40Z" changeset="59705781" uid="3842253" user="NKA_import">
		<tag k="name" v="Zimmermannløkka" />
		<tag k="place" v="square" />
		<tag k="ssr:stedsnr" v="635338" />
		<tag k="ssr:type" v="torg" />
	</node>
	<node id="5679141246" lat="59.1110861" lon="9.7314417" version="1" timestamp="2018-06-10T08:11:40Z" changeset="59705781" uid="3842253" user="NKA_import">
		<tag k="name" v="Skredderrønningen" />
		<tag k="place" v="locality" />
		<tag k="ssr:stedsnr" v="653042" />
		<tag k="ssr:type" v="gammelBosettingsplass" />
	</node>
	<node id="5679141247" lat="59.1886306" lon="9.7813333" version="1" timestamp="2018-06-10T08:11:40Z" changeset="59705781" uid="3842253" user="NKA_import">
		<tag k="name" v="Skuggen" />
		<tag k="place" v="locality" />
		<tag k="ssr:stedsnr" v="47987" />
		<tag k="ssr:type" v="gammelBosettingsplass" />
	</node>
	<node id="5679141248" lat="59.1832833" lon="9.7671417" version="1" timestamp="2018-06-10T08:11:40Z" changeset="59705781" uid="3842253" user="NKA_import">
		<tag k="name" v="Rundthol" />
		<tag k="place" v="farm" />
		<tag k="ssr:stedsnr" v="653374" />
		<tag k="ssr:type" v="bruk" />
	</node>
	<node id="5679141249" lat="59.1284056" lon="9.6738222" version="1" timestamp="2018-06-10T08:11:40Z" changeset="59705781" uid="3842253" user="NKA_import">
		<tag k="name" v="Tolleskogen" />
		<tag k="place" v="farm" />
		<tag k="ssr:stedsnr" v="653573" />
		<tag k="ssr:type" v="bruk" />
	</node>
	<node id="5679141250" lat="59.1488583" lon="9.6467778" version="1" timestamp="2018-06-10T08:11:40Z" changeset="59705781" uid="3842253" user="NKA_import">
		<tag k="name" v="Smekås" />
		<tag k="place" v="isolated_dwelling" />
		<tag k="ssr:stedsnr" v="49480" />
		<tag k="ssr:type" v="eneboligMindreBoligbygg" />
	</node>
	<node id="5679141251" lat="59.0502528" lon="9.7635306" version="1" timestamp="2018-06-10T08:11:40Z" changeset="59705781" uid="3842253" user="NKA_import">
		<tag k="name" v="Svenskeplassen" />
		<tag k="place" v="locality" />
		<tag k="ssr:stedsnr" v="653889" />
		<tag k="ssr:type" v="gammelBosettingsplass" />
	</node>
	<node id="5679141252" lat="59.0890111" lon="9.6697" version="1" timestamp="2018-06-10T08:11:40Z" changeset="59705781" uid="3842253" user="NKA_import">
		<tag k="name" v="Myra" />
		<tag k="place" v="isolated_dwelling" />
		<tag k="ssr:stedsnr" v="49485" />
		<tag k="ssr:type" v="eneboligMindreBoligbygg" />
	</node>
	<node id="5679141253" lat="59.0585528" lon="9.720925" version="1" timestamp="2018-06-10T08:11:41Z" changeset="59705781" uid="3842253" user="NKA_import">
		<tag k="building" v="cabin" />
		<tag k="name" v="Kula" />
		<tag k="place" v="isolated_dwelling" />
		<tag k="ssr:stedsnr" v="653900" />
		<tag k="ssr:type" v="fritidsbolig" />
	</node>
	<node id="5679141254" lat="59.1385194" lon="9.6492389" version="1" timestamp="2018-06-10T08:11:41Z" changeset="59705781" uid="3842253" user="NKA_import">
		<tag k="name" v="Meieritorvet" />
		<tag k="place" v="square" />
		<tag k="ssr:stedsnr" v="52982" />
		<tag k="ssr:type" v="torg" />
	</node>
	<node id="5679141255" lat="59.1310574" lon="9.6553372" version="1" timestamp="2018-06-10T08:11:41Z" changeset="59705781" uid="3842253" user="NKA_import">
		<tag k="amenity" v="hospital" />
		<tag k="name" v="Sykehuset Telemark, Porsgrunn" />
		<tag k="ssr:stedsnr" v="53974" />
		<tag k="ssr:type" v="sykehus" />
	</node>
	<node id="5679141256" lat="59.0583778" lon="9.7279139" version="1" timestamp="2018-06-10T08:11:41Z" changeset="59705781" uid="3842253" user="NKA_import">
		<tag k="building" v="cabin" />
		<tag k="name" v="Nordheim" />
		<tag k="place" v="isolated_dwelling" />
		<tag k="ssr:stedsnr" v="56445" />
		<tag k="ssr:type" v="fritidsbolig" />
	</node>
	<node id="5679141257" lat="59.1007639" lon="9.6908583" version="1" timestamp="2018-06-10T08:11:41Z" changeset="59705781" uid="3842253" user="NKA_import">
		<tag k="alt_name" v="Ørstveit" />
		<tag k="name" v="Ørstvet" />
		<tag k="place" v="farm" />
		<tag k="ssr:stedsnr" v="62390" />
		<tag k="ssr:type" v="bruk" />
	</node>
	<node id="5679141258" lat="59.0816306" lon="9.7904833" version="1" timestamp="2018-06-10T08:11:41Z" changeset="59705781" uid="3842253" user="NKA_import">
		<tag k="name" v="Dypvik" />
		<tag k="place" v="isolated_dwelling" />
		<tag k="ssr:stedsnr" v="62424" />
		<tag k="ssr:type" v="eneboligMindreBoligbygg" />
	</node>
	<node id="5679141259" lat="59.0926667" lon="9.6479184" version="1" timestamp="2018-06-10T08:11:41Z" changeset="59705781" uid="3842253" user="NKA_import">
		<tag k="name" v="Stranda" />
		<tag k="place" v="hamlet" />
		<tag k="ssr:stedsnr" v="654023" />
		<tag k="ssr:type" v="bruk" />
	</node>
	<node id="5679141260" lat="59.0796063" lon="9.6820899" version="1" timestamp="2018-06-10T08:11:41Z" changeset="59705781" uid="3842253" user="NKA_import">
		<tag k="name" v="Skoglia" />
		<tag k="place" v="quarter" />
		<tag k="ssr:stedsnr" v="654383" />
		<tag k="ssr:type" v="boligfelt" />
	</node>
	<node id="5679141261" lat="59.1703083" lon="9.8703556" version="1" timestamp="2018-06-10T08:11:41Z" changeset="59705781" uid="3842253" user="NKA_import">
		<tag k="name" v="Stranda" />
		<tag k="place" v="farm" />
		<tag k="ssr:stedsnr" v="62508" />
		<tag k="ssr:type" v="bruk" />
	</node>
	<node id="5679141262" lat="59.1405" lon="9.6750722" version="1" timestamp="2018-06-10T08:11:41Z" changeset="59705781" uid="3842253" user="NKA_import">
		<tag k="alt_name" v="Sanda" />
		<tag k="name" v="Sanna" />
		<tag k="place" v="farm" />
		<tag k="ssr:stedsnr" v="62624" />
		<tag k="ssr:type" v="bruk" />
	</node>
	<node id="5679141263" lat="59.0861361" lon="9.7926472" version="1" timestamp="2018-06-10T08:11:41Z" changeset="59705781" uid="3842253" user="NKA_import">
		<tag k="name" v="Bjørkholt" />
		<tag k="place" v="farm" />
		<tag k="ssr:stedsnr" v="84860" />
		<tag k="ssr:type" v="bruk" />
	</node>
	<node id="5679141264" lat="59.1033083" lon="9.6971083" version="1" timestamp="2018-06-10T08:11:41Z" changeset="59705781" uid="3842253" user="NKA_import">
		<tag k="amenity" v="nursing_home" />
		<tag k="name" v="Mule" />
		<tag k="ssr:stedsnr" v="87055" />
		<tag k="ssr:type" v="helseinstitusjon" />
	</node>
	<node id="5679141265" lat="59.0784944" lon="9.7201583" version="1" timestamp="2018-06-10T08:11:42Z" changeset="59705781" uid="3842253" user="NKA_import">
		<tag k="name" v="Brønnstad" />
		<tag k="place" v="farm" />
		<tag k="ssr:stedsnr" v="662038" />
		<tag k="ssr:type" v="bruk" />
	</node>
	<node id="5679141266" lat="59.0204167" lon="9.77715" version="1" timestamp="2018-06-10T08:11:42Z" changeset="59705781" uid="3842253" user="NKA_import">
		<tag k="building" v="cabin" />
		<tag k="name" v="Eikelund" />
		<tag k="place" v="isolated_dwelling" />
		<tag k="ssr:stedsnr" v="662329" />
		<tag k="ssr:type" v="fritidsbolig" />
	</node>
	<node id="5679141267" lat="59.1331819" lon="9.7893829" version="1" timestamp="2018-06-10T08:11:42Z" changeset="59705781" uid="3842253" user="NKA_import">
		<tag k="name" v="Nedre Solli" />
		<tag k="place" v="farm" />
		<tag k="ssr:stedsnr" v="107918" />
		<tag k="ssr:type" v="bruk" />
	</node>
	<node id="5679141268" lat="59.0481389" lon="9.7438028" version="1" timestamp="2018-06-10T08:11:42Z" changeset="59705781" uid="3842253" user="NKA_import">
		<tag k="name" v="Kjørholt" />
		<tag k="place" v="farm" />
		<tag k="ssr:stedsnr" v="662423" />
		<tag k="ssr:type" v="bruk" />
	</node>
	<node id="5679141270" lat="59.0806722" lon="9.6920306" version="1" timestamp="2018-06-10T08:11:42Z" changeset="59705781" uid="3842253" user="NKA_import">
		<tag k="alt_name" v="Lunde" />
		<tag k="name" v="Nedre Lunde" />
		<tag k="place" v="farm" />
		<tag k="ssr:stedsnr" v="668441" />
		<tag k="ssr:type" v="gard" />
	</node>
	<node id="5679141271" lat="59.1518778" lon="9.6477778" version="1" timestamp="2018-06-10T08:11:42Z" changeset="59705781" uid="3842253" user="NKA_import">
		<tag k="name" v="Tollnes, nedre" />
		<tag k="place" v="farm" />
		<tag k="ssr:stedsnr" v="669608" />
		<tag k="ssr:type" v="bruk" />
	</node>
	<node id="5679141272" lat="59.0920028" lon="9.8069917" version="1" timestamp="2018-06-10T08:11:42Z" changeset="59705781" uid="3842253" user="NKA_import">
		<tag k="name" v="Rønningen" />
		<tag k="place" v="square" />
		<tag k="ssr:stedsnr" v="108855" />
		<tag k="ssr:type" v="torg" />
	</node>
	<node id="5679141273" lat="59.1823861" lon="9.77755" version="1" timestamp="2018-06-10T08:11:42Z" changeset="59705781" uid="3842253" user="NKA_import">
		<tag k="name" v="Dreierrønningen" />
		<tag k="place" v="locality" />
		<tag k="ssr:stedsnr" v="108861" />
		<tag k="ssr:type" v="gammelBosettingsplass" />
	</node>
	<node id="5679141274" lat="59.0985611" lon="9.6863278" version="1" timestamp="2018-06-10T08:11:42Z" changeset="59705781" uid="3842253" user="NKA_import">
		<tag k="alt_name" v="Ørstvet" />
		<tag k="name" v="Ørstveit" />
		<tag k="place" v="farm" />
		<tag k="ssr:stedsnr" v="693014" />
		<tag k="ssr:type" v="gard" />
	</node>
	<node id="5679141275" lat="59.0585194" lon="9.6856" version="1" timestamp="2018-06-10T08:11:42Z" changeset="59705781" uid="3842253" user="NKA_import">
		<tag k="name" v="Mikkelrønningen" />
		<tag k="place" v="locality" />
		<tag k="ssr:stedsnr" v="108989" />
		<tag k="ssr:type" v="gammelBosettingsplass" />
	</node>
	<node id="5679141276" lat="59.1796417" lon="9.7715167" version="1" timestamp="2018-06-10T08:11:42Z" changeset="59705781" uid="3842253" user="NKA_import">
		<tag k="name" v="Presteseter" />
		<tag k="place" v="farm" />
		<tag k="ssr:stedsnr" v="714498" />
		<tag k="ssr:type" v="bruk" />
	</node>
	<node id="5679141281" lat="59.0757194" lon="9.6536167" version="1" timestamp="2018-06-10T08:11:43Z" changeset="59705781" uid="3842253" user="NKA_import">
		<tag k="name" v="Hitterød" />
		<tag k="place" v="isolated_dwelling" />
		<tag k="ssr:stedsnr" v="122409" />
		<tag k="ssr:type" v="eneboligMindreBoligbygg" />
	</node>
	<node id="5679141282" lat="59.0839944" lon="9.7271639" version="1" timestamp="2018-06-10T08:11:43Z" changeset="59705781" uid="3842253" user="NKA_import">
		<tag k="name" v="Berg" />
		<tag k="place" v="farm" />
		<tag k="ssr:stedsnr" v="122423" />
		<tag k="ssr:type" v="gard" />
	</node>
	<node id="5679141283" lat="59.1284583" lon="9.6927083" version="1" timestamp="2018-06-10T08:11:43Z" changeset="59705781" uid="3842253" user="NKA_import">
		<tag k="name" v="Valler" />
		<tag k="place" v="farm" />
		<tag k="ssr:stedsnr" v="122559" />
		<tag k="ssr:type" v="bruk" />
	</node>
	<node id="5679141284" lat="59.1532639" lon="9.7994278" version="1" timestamp="2018-06-10T08:11:43Z" changeset="59705781" uid="3842253" user="NKA_import">
		<tag k="name" v="Løkane" />
		<tag k="place" v="square" />
		<tag k="ssr:stedsnr" v="714982" />
		<tag k="ssr:type" v="torg" />
	</node>
	<node id="5679141285" lat="59.1404167" lon="9.8256222" version="1" timestamp="2018-06-10T08:11:43Z" changeset="59705781" uid="3842253" user="NKA_import">
		<tag k="loc_name" v="Ballstadhogstad" />
		<tag k="name" v="Balstadhogstet" />
		<tag k="place" v="farm" />
		<tag k="ssr:stedsnr" v="122621" />
		<tag k="ssr:type" v="bruk" />
	</node>
	<node id="5679141287" lat="59.1469722" lon="9.804175" version="1" timestamp="2018-06-10T08:11:43Z" changeset="59705781" uid="3842253" user="NKA_import">
		<tag k="name" v="Neperønningen" />
		<tag k="place" v="farm" />
		<tag k="ssr:stedsnr" v="122623" />
		<tag k="ssr:type" v="bruk" />
	</node>
	<node id="5679141289" lat="59.0958444" lon="9.666025" version="1" timestamp="2018-06-10T08:11:44Z" changeset="59705781" uid="3842253" user="NKA_import">
		<tag k="name" v="Rønningen" />
		<tag k="place" v="farm" />
		<tag k="ssr:stedsnr" v="123436" />
		<tag k="ssr:type" v="bruk" />
	</node>
	<node id="5679141290" lat="59.1024556" lon="9.7450472" version="1" timestamp="2018-06-10T08:11:44Z" changeset="59705781" uid="3842253" user="NKA_import">
		<tag k="name" v="Stulen" />
		<tag k="place" v="farm" />
		<tag k="ssr:stedsnr" v="123446" />
		<tag k="ssr:type" v="gard" />
	</node>
	<node id="5679141292" lat="59.087375" lon="9.6854944" version="1" timestamp="2018-06-10T08:11:44Z" changeset="59705781" uid="3842253" user="NKA_import">
		<tag k="name" v="Løvsjø" />
		<tag k="place" v="quarter" />
		<tag k="ssr:stedsnr" v="715913" />
		<tag k="ssr:type" v="tettbebyggelse" />
	</node>
	<node id="5679141293" lat="59.1641028" lon="9.7461083" version="1" timestamp="2018-06-10T08:11:44Z" changeset="59705781" uid="3842253" user="NKA_import">
		<tag k="name" v="Øgården" />
		<tag k="place" v="farm" />
		<tag k="ssr:stedsnr" v="123561" />
		<tag k="ssr:type" v="gard" />
	</node>
	<node id="5679141294" lat="59.1510361" lon="9.6457694" version="1" timestamp="2018-06-10T08:11:44Z" changeset="59705781" uid="3842253" user="NKA_import">
		<tag k="name" v="Eikelund" />
		<tag k="place" v="isolated_dwelling" />
		<tag k="ssr:stedsnr" v="716461" />
		<tag k="ssr:type" v="eneboligMindreBoligbygg" />
	</node>
	<node id="5679141295" lat="59.1603177" lon="9.8029191" version="1" timestamp="2018-06-10T08:11:44Z" changeset="59705781" uid="3842253" user="NKA_import">
		<tag k="name" v="Berg" />
		<tag k="place" v="farm" />
		<tag k="ssr:stedsnr" v="123566" />
		<tag k="ssr:type" v="bruk" />
	</node>
	<node id="5679141296" lat="59.1444167" lon="9.6336028" version="1" timestamp="2018-06-10T08:11:44Z" changeset="59705781" uid="3842253" user="NKA_import">
		<tag k="name" v="Klyve" />
		<tag k="place" v="isolated_dwelling" />
		<tag k="ssr:stedsnr" v="716462" />
		<tag k="ssr:type" v="eneboligMindreBoligbygg" />
	</node>
	<node id="5679141297" lat="59.1208167" lon="9.7272444" version="1" timestamp="2018-06-10T08:11:44Z" changeset="59705781" uid="3842253" user="NKA_import">
		<tag k="name" v="Tråholt" />
		<tag k="place" v="farm" />
		<tag k="ssr:stedsnr" v="123634" />
		<tag k="ssr:type" v="bruk" />
	</node>
	<node id="5679141298" lat="59.0741833" lon="9.6818639" version="1" timestamp="2018-06-10T08:11:44Z" changeset="59705781" uid="3842253" user="NKA_import">
		<tag k="name" v="Nedre Heistad" />
		<tag k="place" v="farm" />
		<tag k="ssr:stedsnr" v="716500" />
		<tag k="ssr:type" v="bruk" />
	</node>
	<node id="5679141299" lat="59.1102056" lon="9.6434639" version="1" timestamp="2018-06-10T08:11:44Z" changeset="59705781" uid="3842253" user="NKA_import">
		<tag k="name" v="Folkvang" />
		<tag k="place" v="isolated_dwelling" />
		<tag k="ssr:stedsnr" v="716649" />
		<tag k="ssr:type" v="eneboligMindreBoligbygg" />
	</node>
	<node id="5679141300" lat="59.1522528" lon="9.7024167" version="1" timestamp="2018-06-10T08:11:44Z" changeset="59705781" uid="3842253" user="NKA_import">
		<tag k="name" v="Høgset" />
		<tag k="place" v="farm" />
		<tag k="ssr:stedsnr" v="123645" />
		<tag k="ssr:type" v="bruk" />
	</node>
	<node id="5679141301" lat="59.125825" lon="9.6465889" version="1" timestamp="2018-06-10T08:11:44Z" changeset="59705781" uid="3842253" user="NKA_import">
		<tag k="name" v="Grønli" />
		<tag k="place" v="isolated_dwelling" />
		<tag k="ssr:stedsnr" v="716706" />
		<tag k="ssr:type" v="eneboligMindreBoligbygg" />
	</node>
	<node id="5679141302" lat="59.0981833" lon="9.6900222" version="1" timestamp="2018-06-10T08:11:44Z" changeset="59705781" uid="3842253" user="NKA_import">
		<tag k="alt_name" v="Skjelsvik" />
		<tag k="name" v="Skjelsvika" />
		<tag k="place" v="quarter" />
		<tag k="ssr:stedsnr" v="145799" />
		<tag k="ssr:type" v="tettbebyggelse" />
	</node>
	<node id="5679141303" lat="59.0608472" lon="9.7775389" version="1" timestamp="2018-06-10T08:11:45Z" changeset="59705781" uid="3842253" user="NKA_import">
		<tag k="name" v="Eikestad" />
		<tag k="place" v="farm" />
		<tag k="ssr:stedsnr" v="723480" />
		<tag k="ssr:type" v="bruk" />
	</node>
	<node id="5679141304" lat="59.1373595" lon="9.7340152" version="1" timestamp="2018-06-10T08:11:45Z" changeset="59705781" uid="3842253" user="NKA_import">
		<tag k="name" v="Kvestad" />
		<tag k="place" v="hamlet" />
		<tag k="ssr:stedsnr" v="729570" />
		<tag k="ssr:type" v="gard" />
	</node>
	<node id="5679141305" lat="59.1005111" lon="9.8061056" version="1" timestamp="2018-06-10T08:11:45Z" changeset="59705781" uid="3842253" user="NKA_import">
		<tag k="name" v="Langangen" />
		<tag k="place" v="farm" />
		<tag k="ssr:stedsnr" v="730397" />
		<tag k="ssr:type" v="gard" />
	</node>
	<node id="5679141306" lat="59.1035194" lon="9.6928694" version="1" timestamp="2018-06-10T08:11:45Z" changeset="59705781" uid="3842253" user="NKA_import">
		<tag k="name" v="Mule" />
		<tag k="place" v="isolated_dwelling" />
		<tag k="ssr:stedsnr" v="730414" />
		<tag k="ssr:type" v="eneboligMindreBoligbygg" />
	</node>
	<node id="5679141307" lat="59.0563889" lon="9.7608361" version="1" timestamp="2018-06-10T08:11:45Z" changeset="59705781" uid="3842253" user="NKA_import">
		<tag k="loc_name" v="Kjelkvik" />
		<tag k="name" v="Kjelkevika" />
		<tag k="old_name" v="Kjelkevik" />
		<tag k="place" v="isolated_dwelling" />
		<tag k="ssr:stedsnr" v="730461" />
		<tag k="ssr:type" v="eneboligMindreBoligbygg" />
	</node>
	<node id="5679141308" lat="59.0386532" lon="9.8133874" version="4" timestamp="2021-03-15T18:27:48Z" changeset="101069478" uid="12620901" user="fuzzfolk">
		<tag k="name" v="Auen" />
		<tag k="place" v="farm" />
		<tag k="ssr:stedsnr" v="730515" />
		<tag k="ssr:type" v="gard" />
	</node>
	<node id="5679141309" lat="59.1618333" lon="9.8234278" version="1" timestamp="2018-06-10T08:11:45Z" changeset="59705781" uid="3842253" user="NKA_import">
		<tag k="name" v="Enigheta" />
		<tag k="place" v="farm" />
		<tag k="ssr:stedsnr" v="730554" />
		<tag k="ssr:type" v="bruk" />
	</node>
	<node id="5679141310" lat="59.1778083" lon="9.8661556" version="1" timestamp="2018-06-10T08:11:45Z" changeset="59705781" uid="3842253" user="NKA_import">
		<tag k="name" v="Hustuft" />
		<tag k="place" v="farm" />
		<tag k="ssr:stedsnr" v="730600" />
		<tag k="ssr:type" v="gard" />
	</node>
	<node id="5679141311" lat="59.0819778" lon="9.8117278" version="1" timestamp="2018-06-10T08:11:45Z" changeset="59705781" uid="3842253" user="NKA_import">
		<tag k="name" v="Myrgård" />
		<tag k="place" v="square" />
		<tag k="ssr:stedsnr" v="168874" />
		<tag k="ssr:type" v="torg" />
	</node>
	<node id="5679141312" lat="59.1487972" lon="9.8080472" version="1" timestamp="2018-06-10T08:11:45Z" changeset="59705781" uid="3842253" user="NKA_import">
		<tag k="name" v="Solheim" />
		<tag k="place" v="farm" />
		<tag k="ssr:stedsnr" v="730653" />
		<tag k="ssr:type" v="bruk" />
	</node>
	<node id="5679141313" lat="59.1421639" lon="9.7290444" version="1" timestamp="2018-06-10T08:11:45Z" changeset="59705781" uid="3842253" user="NKA_import">
		<tag k="name" v="Nordre Lunde" />
		<tag k="place" v="farm" />
		<tag k="ssr:stedsnr" v="168875" />
		<tag k="ssr:type" v="gard" />
	</node>
	<node id="5679141314" lat="59.1365611" lon="9.6822472" version="1" timestamp="2018-06-10T08:11:45Z" changeset="59705781" uid="3842253" user="NKA_import">
		<tag k="name" v="Slettheim" />
		<tag k="place" v="farm" />
		<tag k="ssr:stedsnr" v="749283" />
		<tag k="ssr:type" v="bruk" />
	</node>
	<node id="5679141315" lat="59.0917194" lon="9.7918694" version="1" timestamp="2018-06-10T08:11:46Z" changeset="59705781" uid="3842253" user="NKA_import">
		<tag k="name" v="Kokkersvold" />
		<tag k="place" v="farm" />
		<tag k="ssr:stedsnr" v="168908" />
		<tag k="ssr:type" v="bruk" />
	</node>
	<node id="5679141316" lat="59.1439806" lon="9.7886722" version="1" timestamp="2018-06-10T08:11:46Z" changeset="59705781" uid="3842253" user="NKA_import">
		<tag k="name" v="Dalen" />
		<tag k="place" v="farm" />
		<tag k="ssr:stedsnr" v="168911" />
		<tag k="ssr:type" v="bruk" />
	</node>
	<node id="5679141317" lat="59.1405583" lon="9.8233028" version="1" timestamp="2018-06-10T08:11:46Z" changeset="59705781" uid="3842253" user="NKA_import">
		<tag k="name" v="Balstad" />
		<tag k="place" v="locality" />
		<tag k="ssr:stedsnr" v="168993" />
		<tag k="ssr:type" v="gammelBosettingsplass" />
	</node>
	<node id="5679141318" lat="59.1398222" lon="9.6632111" version="1" timestamp="2018-06-10T08:11:46Z" changeset="59705781" uid="3842253" user="NKA_import">
		<tag k="name" v="Leirkup" />
		<tag k="place" v="isolated_dwelling" />
		<tag k="ssr:stedsnr" v="170528" />
		<tag k="ssr:type" v="eneboligMindreBoligbygg" />
	</node>
	<node id="5679141320" lat="59.08875" lon="9.7219083" version="1" timestamp="2018-06-10T08:11:46Z" changeset="59705781" uid="3842253" user="NKA_import">
		<tag k="name" v="Nordheim" />
		<tag k="place" v="farm" />
		<tag k="ssr:stedsnr" v="177039" />
		<tag k="ssr:type" v="bruk" />
	</node>
	<node id="5679141321" lat="59.0277889" lon="9.7592694" version="1" timestamp="2018-06-10T08:11:46Z" changeset="59705781" uid="3842253" user="NKA_import">
		<tag k="name" v="Kloppa" />
		<tag k="place" v="farm" />
		<tag k="ssr:stedsnr" v="177352" />
		<tag k="ssr:type" v="bruk" />
	</node>
	<node id="5679141322" lat="59.0734167" lon="9.715775" version="1" timestamp="2018-06-10T08:11:46Z" changeset="59705781" uid="3842253" user="NKA_import">
		<tag k="name" v="Rødsvik" />
		<tag k="place" v="isolated_dwelling" />
		<tag k="ssr:stedsnr" v="183366" />
		<tag k="ssr:type" v="eneboligMindreBoligbygg" />
	</node>
	<node id="5679141323" lat="59.1709333" lon="9.8156361" version="1" timestamp="2018-06-10T08:11:46Z" changeset="59705781" uid="3842253" user="NKA_import">
		<tag k="name" v="Setre" />
		<tag k="place" v="farm" />
		<tag k="ssr:stedsnr" v="183464" />
		<tag k="ssr:type" v="bruk" />
	</node>
	<node id="5679141325" lat="59.1308556" lon="9.7227583" version="1" timestamp="2018-06-10T08:11:46Z" changeset="59705781" uid="3842253" user="NKA_import">
		<tag k="name" v="Kjølsrød" />
		<tag k="place" v="farm" />
		<tag k="ssr:stedsnr" v="183536" />
		<tag k="ssr:type" v="bruk" />
	</node>
	<node id="5679141326" lat="59.12855" lon="9.7914611" version="1" timestamp="2018-06-10T08:11:46Z" changeset="59705781" uid="3842253" user="NKA_import">
		<tag k="name" v="Rønningen" />
		<tag k="place" v="farm" />
		<tag k="ssr:stedsnr" v="183561" />
		<tag k="ssr:type" v="bruk" />
	</node>
	<node id="5679141327" lat="59.11635" lon="9.68335" version="1" timestamp="2018-06-10T08:11:46Z" changeset="59705781" uid="3842253" user="NKA_import">
		<tag k="alt_name" v="Tveitan, nordre;Nordre Tveten" />
		<tag k="name" v="Nordre Tveitan" />
		<tag k="place" v="farm" />
		<tag k="ssr:stedsnr" v="183572" />
		<tag k="ssr:type" v="gard" />
	</node>
	<node id="5679141328" lat="59.117775" lon="9.6683611" version="1" timestamp="2018-06-10T08:11:47Z" changeset="59705781" uid="3842253" user="NKA_import">
		<tag k="name" v="Flåtten" />
		<tag k="place" v="farm" />
		<tag k="ssr:stedsnr" v="183573" />
		<tag k="ssr:type" v="gard" />
	</node>
	<node id="5679141329" lat="59.1428139" lon="9.6860278" version="1" timestamp="2018-06-10T08:11:47Z" changeset="59705781" uid="3842253" user="NKA_import">
		<tag k="name" v="Søli" />
		<tag k="place" v="farm" />
		<tag k="ssr:stedsnr" v="183602" />
		<tag k="ssr:type" v="bruk" />
	</node>
	<node id="5679141330" lat="59.1393611" lon="9.6673833" version="1" timestamp="2018-06-10T08:11:47Z" changeset="59705781" uid="3842253" user="NKA_import">
		<tag k="name" v="Kjølnes" />
		<tag k="place" v="farm" />
		<tag k="ssr:stedsnr" v="183603" />
		<tag k="ssr:type" v="gard" />
	</node>
	<node id="5679141331" lat="59.1753694" lon="9.7612417" version="1" timestamp="2018-06-10T08:11:47Z" changeset="59705781" uid="3842253" user="NKA_import">
		<tag k="name" v="Kosa" />
		<tag k="old_name" v="Kåsa" />
		<tag k="place" v="farm" />
		<tag k="ssr:stedsnr" v="184556" />
		<tag k="ssr:type" v="bruk" />
	</node>
	<node id="5679141333" lat="59.1141722" lon="9.7989167" version="1" timestamp="2018-06-10T08:11:47Z" changeset="59705781" uid="3842253" user="NKA_import">
		<tag k="name" v="Hagen" />
		<tag k="place" v="farm" />
		<tag k="ssr:stedsnr" v="184596" />
		<tag k="ssr:type" v="bruk" />
	</node>
	<node id="5679141334" lat="59.0640889" lon="9.751875" version="1" timestamp="2018-06-10T08:11:47Z" changeset="59705781" uid="3842253" user="NKA_import">
		<tag k="name" v="Solvang" />
		<tag k="place" v="farm" />
		<tag k="ssr:stedsnr" v="784523" />
		<tag k="ssr:type" v="bruk" />
	</node>
	<node id="5679141335" lat="59.0988111" lon="9.7772111" version="1" timestamp="2018-06-10T08:11:47Z" changeset="59705781" uid="3842253" user="NKA_import">
		<tag k="name" v="Kokkersvoll" />
		<tag k="place" v="farm" />
		<tag k="ssr:stedsnr" v="790381" />
		<tag k="ssr:type" v="bruk" />
	</node>
	<node id="5679141336" lat="59.0452194" lon="9.7655806" version="1" timestamp="2018-06-10T08:11:47Z" changeset="59705781" uid="3842253" user="NKA_import">
		<tag k="name" v="Lajordet" />
		<tag k="place" v="neighbourhood" />
		<tag k="ssr:stedsnr" v="184499" />
		<tag k="ssr:type" v="hyttefelt" />
	</node>
	<node id="5679141337" lat="59.1599583" lon="9.8086583" version="1" timestamp="2018-06-10T08:11:47Z" changeset="59705781" uid="3842253" user="NKA_import">
		<tag k="name" v="Plassen" />
		<tag k="place" v="farm" />
		<tag k="ssr:stedsnr" v="184524" />
		<tag k="ssr:type" v="bruk" />
	</node>
	<node id="5679141338" lat="59.1051361" lon="9.6650889" version="1" timestamp="2018-06-10T08:11:47Z" changeset="59705781" uid="3842253" user="NKA_import">
		<tag k="name" v="Skrapekleiva" />
		<tag k="old_name" v="Skrapekleiv" />
		<tag k="place" v="farm" />
		<tag k="ssr:stedsnr" v="790395" />
		<tag k="ssr:type" v="bruk" />
	</node>
	<node id="5679141339" lat="59.0727722" lon="9.7342889" version="1" timestamp="2018-06-10T08:11:47Z" changeset="59705781" uid="3842253" user="NKA_import">
		<tag k="name" v="Solgård" />
		<tag k="old_name" v="Solgard" />
		<tag k="place" v="farm" />
		<tag k="ssr:stedsnr" v="790404" />
		<tag k="ssr:type" v="bruk" />
	</node>
	<node id="5679141340" lat="59.0771833" lon="9.6708086" version="1" timestamp="2018-06-10T08:11:47Z" changeset="59705781" uid="3842253" user="NKA_import">
		<tag k="name" v="Skavråker" />
		<tag k="place" v="hamlet" />
		<tag k="ssr:stedsnr" v="790424" />
		<tag k="ssr:type" v="gard" />
	</node>
	<node id="5679141341" lat="59.0872611" lon="9.6931528" version="1" timestamp="2018-06-10T08:11:48Z" changeset="59705781" uid="3842253" user="NKA_import">
		<tag k="alt_name" v="Hvalen" />
		<tag k="name" v="Nedre Hvalen" />
		<tag k="place" v="farm" />
		<tag k="ssr:stedsnr" v="790443" />
		<tag k="ssr:type" v="bruk" />
	</node>
	<node id="5679141342" lat="59.1718306" lon="9.755075" version="1" timestamp="2018-06-10T08:11:48Z" changeset="59705781" uid="3842253" user="NKA_import">
		<tag k="name" v="Buer" />
		<tag k="place" v="farm" />
		<tag k="ssr:stedsnr" v="790522" />
		<tag k="ssr:type" v="gard" />
	</node>
	<node id="5679141343" lat="59.1672444" lon="9.8225611" version="1" timestamp="2018-06-10T08:11:48Z" changeset="59705781" uid="3842253" user="NKA_import">
		<tag k="name" v="Høybjørg" />
		<tag k="place" v="farm" />
		<tag k="ssr:stedsnr" v="790526" />
		<tag k="ssr:type" v="bruk" />
	</node>
	<node id="5679141344" lat="59.1289917" lon="9.7186639" version="1" timestamp="2018-06-10T08:11:48Z" changeset="59705781" uid="3842253" user="NKA_import">
		<tag k="name" v="Gudsfred" />
		<tag k="place" v="farm" />
		<tag k="ssr:stedsnr" v="790600" />
		<tag k="ssr:type" v="bruk" />
	</node>
	<node id="5679141345" lat="59.1294194" lon="9.6755695" version="1" timestamp="2018-06-10T08:11:48Z" changeset="59705781" uid="3842253" user="NKA_import">
		<tag k="name" v="Vallstad" />
		<tag k="place" v="farm" />
		<tag k="ssr:stedsnr" v="790603" />
		<tag k="ssr:type" v="bruk" />
	</node>
	<node id="5679141346" lat="59.1113306" lon="9.7308" version="1" timestamp="2018-06-10T08:11:48Z" changeset="59705781" uid="3842253" user="NKA_import">
		<tag k="name" v="Rønningen" />
		<tag k="place" v="isolated_dwelling" />
		<tag k="ssr:stedsnr" v="790623" />
		<tag k="ssr:type" v="eneboligMindreBoligbygg" />
	</node>
	<node id="5679141347" lat="59.1150048" lon="9.6990968" version="1" timestamp="2018-06-10T08:11:48Z" changeset="59705781" uid="3842253" user="NKA_import">
		<tag k="name" v="Nyhusåsen" />
		<tag k="place" v="quarter" />
		<tag k="ssr:stedsnr" v="229014" />
		<tag k="ssr:type" v="tettbebyggelse" />
	</node>
	<node id="5679141348" lat="59.113" lon="9.6761389" version="1" timestamp="2018-06-10T08:11:48Z" changeset="59705781" uid="3842253" user="NKA_import">
		<tag k="name" v="Hovholt" />
		<tag k="place" v="farm" />
		<tag k="ssr:stedsnr" v="790627" />
		<tag k="ssr:type" v="gard" />
	</node>
	<node id="5679141349" lat="59.1168639" lon="9.6583306" version="1" timestamp="2018-06-10T08:11:48Z" changeset="59705781" uid="3842253" user="NKA_import">
		<tag k="name" v="Raskenlund" />
		<tag k="place" v="farm" />
		<tag k="ssr:stedsnr" v="790632" />
		<tag k="ssr:type" v="bruk" />
	</node>
	<node id="5679141350" lat="59.1447861" lon="9.8003139" version="1" timestamp="2018-06-10T08:11:48Z" changeset="59705781" uid="3842253" user="NKA_import">
		<tag k="alt_name" v="Tjørndalen" />
		<tag k="loc_name" v="Kjenndalen" />
		<tag k="name" v="Kjendalen" />
		<tag k="place" v="farm" />
		<tag k="ssr:stedsnr" v="790666" />
		<tag k="ssr:type" v="gard" />
	</node>
	<node id="5679141351" lat="59.0761639" lon="9.6844333" version="2" timestamp="2018-08-12T11:18:37Z" changeset="61585180" uid="3842253" user="NKA_import">
		<tag k="name" v="Heistad gamle skole" />
		<tag k="place" v="locality" />
		<tag k="ssr:stedsnr" v="229372" />
		<tag k="ssr:type" v="skole" />
	</node>
	<node id="5679141352" lat="59.1109167" lon="9.6934979" version="1" timestamp="2018-06-10T08:11:48Z" changeset="59705781" uid="3842253" user="NKA_import">
		<tag k="name" v="Søndre Tveten" />
		<tag k="place" v="farm" />
		<tag k="ssr:stedsnr" v="229547" />
		<tag k="ssr:type" v="gard" />
	</node>
	<node id="5679141354" lat="59.0553312" lon="9.6963081" version="1" timestamp="2018-06-10T08:11:49Z" changeset="59705781" uid="3842253" user="NKA_import">
		<tag k="name" v="Åsen" />
		<tag k="place" v="quarter" />
		<tag k="ssr:stedsnr" v="229835" />
		<tag k="ssr:type" v="boligfelt" />
	</node>
	<node id="5679141355" lat="59.1160556" lon="9.6514694" version="1" timestamp="2018-06-10T08:11:49Z" changeset="59705781" uid="3842253" user="NKA_import">
		<tag k="loc_name" v="Gunneklev" />
		<tag k="name" v="Gunnekleiv" />
		<tag k="place" v="farm" />
		<tag k="ssr:stedsnr" v="836526" />
		<tag k="ssr:type" v="gard" />
	</node>
	<node id="5679141356" lat="59.132782" lon="9.6619073" version="1" timestamp="2018-06-10T08:11:49Z" changeset="59705781" uid="3842253" user="NKA_import">
		<tag k="alt_name" v="Bjørntvet" />
		<tag k="name" v="Bjørntvedt" />
		<tag k="place" v="quarter" />
		<tag k="ssr:stedsnr" v="836531" />
		<tag k="ssr:type" v="tettbebyggelse" />
	</node>
	<node id="5679141357" lat="59.1182806" lon="9.6900417" version="1" timestamp="2018-06-10T08:11:49Z" changeset="59705781" uid="3842253" user="NKA_import">
		<tag k="name" v="Snekkeråsen" />
		<tag k="place" v="quarter" />
		<tag k="ssr:stedsnr" v="836687" />
		<tag k="ssr:type" v="boligfelt" />
	</node>
	<node id="5679141359" lat="59.135833" lon="9.6379931" version="1" timestamp="2018-06-10T08:11:49Z" changeset="59705781" uid="3842253" user="NKA_import">
		<tag k="name" v="Frednes" />
		<tag k="place" v="quarter" />
		<tag k="ssr:stedsnr" v="231733" />
		<tag k="ssr:type" v="forretningsbygg" />
	</node>
	<node id="5679141360" lat="59.0989611" lon="9.7201333" version="1" timestamp="2018-06-10T08:11:49Z" changeset="59705781" uid="3842253" user="NKA_import">
		<tag k="name" v="Vissevåg" />
		<tag k="place" v="farm" />
		<tag k="ssr:stedsnr" v="237052" />
		<tag k="ssr:type" v="bruk" />
	</node>
	<node id="5679141362" lat="59.0752056" lon="9.6862139" version="1" timestamp="2018-06-10T08:11:49Z" changeset="59705781" uid="3842253" user="NKA_import">
		<tag k="name" v="Brønnløkka" />
		<tag k="place" v="farm" />
		<tag k="ssr:stedsnr" v="238113" />
		<tag k="ssr:type" v="bruk" />
	</node>
	<node id="5679141363" lat="59.1310167" lon="9.7243167" version="1" timestamp="2018-06-10T08:11:49Z" changeset="59705781" uid="3842253" user="NKA_import">
		<tag k="name" v="Kjølsrød" />
		<tag k="place" v="square" />
		<tag k="ssr:stedsnr" v="836992" />
		<tag k="ssr:type" v="torg" />
	</node>
	<node id="5679141364" lat="59.0657222" lon="9.7505667" version="1" timestamp="2018-06-10T08:11:49Z" changeset="59705781" uid="3842253" user="NKA_import">
		<tag k="name" v="Solbakken" />
		<tag k="place" v="farm" />
		<tag k="ssr:stedsnr" v="238522" />
		<tag k="ssr:type" v="bruk" />
	</node>
	<node id="5679141365" lat="59.1087222" lon="9.7137889" version="1" timestamp="2018-06-10T08:11:49Z" changeset="59705781" uid="3842253" user="NKA_import">
		<tag k="leisure" v="swimming_area" />
		<tag k="name" v="Olavsberget" />
		<tag k="place" v="locality" />
		<tag k="ssr:stedsnr" v="836993" />
		<tag k="ssr:type" v="badeplass" />
	</node>
	<node id="5679141366" lat="59.1077972" lon="9.6991722" version="1" timestamp="2018-06-10T08:11:50Z" changeset="59705781" uid="3842253" user="NKA_import">
		<tag k="name" v="Øvall" />
		<tag k="place" v="isolated_dwelling" />
		<tag k="ssr:stedsnr" v="269062" />
		<tag k="ssr:type" v="eneboligMindreBoligbygg" />
	</node>
	<node id="5679141367" lat="59.09575" lon="9.6932556" version="1" timestamp="2018-06-10T08:11:50Z" changeset="59705781" uid="3842253" user="NKA_import">
		<tag k="name" v="Tangen" />
		<tag k="place" v="farm" />
		<tag k="ssr:stedsnr" v="244394" />
		<tag k="ssr:type" v="bruk" />
	</node>
	<node id="5679141368" lat="59.1568627" lon="9.6620616" version="1" timestamp="2018-06-10T08:11:50Z" changeset="59705781" uid="3842253" user="NKA_import">
		<tag k="name" v="Breidablikk" />
		<tag k="place" v="suburb" />
		<tag k="ssr:stedsnr" v="836997" />
		<tag k="ssr:type" v="bydel" />
	</node>
	<node id="5679141371" lat="59.0776222" lon="9.7262972" version="1" timestamp="2018-06-10T08:11:50Z" changeset="59705781" uid="3842253" user="NKA_import">
		<tag k="loc_name" v="Leerstang" />
		<tag k="name" v="Lerstang" />
		<tag k="place" v="farm" />
		<tag k="ssr:stedsnr" v="244431" />
		<tag k="ssr:type" v="gard" />
	</node>
	<node id="5679141372" lat="59.0842028" lon="9.7188278" version="1" timestamp="2018-06-10T08:11:50Z" changeset="59705781" uid="3842253" user="NKA_import">
		<tag k="alt_name" v="Rørarød" />
		<tag k="name" v="Rød" />
		<tag k="place" v="farm" />
		<tag k="ssr:stedsnr" v="244432" />
		<tag k="ssr:type" v="gard" />
	</node>
	<node id="5679141373" lat="59.0908028" lon="9.6879901" version="1" timestamp="2018-06-10T08:11:50Z" changeset="59705781" uid="3842253" user="NKA_import">
		<tag k="name" v="Kåsa" />
		<tag k="place" v="quarter" />
		<tag k="ssr:stedsnr" v="838484" />
		<tag k="ssr:type" v="boligfelt" />
	</node>
	<node id="5679141374" lat="59.0528348" lon="9.7726717" version="1" timestamp="2018-06-10T08:11:50Z" changeset="59705781" uid="3842253" user="NKA_import">
		<tag k="name" v="Bjønnes" />
		<tag k="place" v="hamlet" />
		<tag k="ssr:stedsnr" v="244452" />
		<tag k="ssr:type" v="gard" />
	</node>
	<node id="5679141375" lat="59.1670809" lon="9.8550687" version="1" timestamp="2018-06-10T08:11:50Z" changeset="59705781" uid="3842253" user="NKA_import">
		<tag k="name" v="Bakke" />
		<tag k="place" v="farm" />
		<tag k="ssr:stedsnr" v="244545" />
		<tag k="ssr:type" v="gard" />
	</node>
	<node id="5679141376" lat="59.1825333" lon="9.7798111" version="1" timestamp="2018-06-10T08:11:50Z" changeset="59705781" uid="3842253" user="NKA_import">
		<tag k="name" v="Dreierrønningen" />
		<tag k="place" v="farm" />
		<tag k="ssr:stedsnr" v="244587" />
		<tag k="ssr:type" v="bruk" />
	</node>
	<node id="5679141377" lat="59.0719056" lon="9.7512222" version="1" timestamp="2018-06-10T08:11:50Z" changeset="59705781" uid="3842253" user="NKA_import">
		<tag k="name" v="Ramberg" />
		<tag k="place" v="farm" />
		<tag k="ssr:stedsnr" v="851377" />
		<tag k="ssr:type" v="gard" />
	</node>
	<node id="5679141378" lat="59.1801556" lon="9.7658278" version="1" timestamp="2018-06-10T08:11:50Z" changeset="59705781" uid="3842253" user="NKA_import">
		<tag k="name" v="Flata" />
		<tag k="place" v="locality" />
		<tag k="ssr:stedsnr" v="244589" />
		<tag k="ssr:type" v="gammelBosettingsplass" />
	</node>
	<node id="5679141379" lat="59.0702694" lon="9.6864611" version="1" timestamp="2018-06-10T08:11:51Z" changeset="59705781" uid="3842253" user="NKA_import">
		<tag k="name" v="Ørvik" />
		<tag k="place" v="farm" />
		<tag k="ssr:stedsnr" v="851383" />
		<tag k="ssr:type" v="gard" />
	</node>
	<node id="5679141380" lat="59.1534667" lon="9.6764639" version="1" timestamp="2018-06-10T08:11:51Z" changeset="59705781" uid="3842253" user="NKA_import">
		<tag k="name" v="Haugen" />
		<tag k="place" v="farm" />
		<tag k="ssr:stedsnr" v="244642" />
		<tag k="ssr:type" v="bruk" />
	</node>
	<node id="5679141381" lat="59.0274574" lon="9.810652" version="4" timestamp="2021-04-10T08:00:47Z" changeset="102685197" uid="12620901" user="fuzzfolk">
		<tag k="name" v="Håøya" />
		<tag k="place" v="locality" />
		<tag k="ssr:stedsnr" v="245254" />
		<tag k="ssr:type" v="fritidsbolig" />
	</node>
	<node id="5679141382" lat="59.10995" lon="9.7192805" version="1" timestamp="2018-06-10T08:11:51Z" changeset="59705781" uid="3842253" user="NKA_import">
		<tag k="name" v="Hasler" />
		<tag k="place" v="farm" />
		<tag k="ssr:stedsnr" v="266823" />
		<tag k="ssr:type" v="bruk" />
	</node>
	<node id="5679141383" lat="59.0627028" lon="9.7782444" version="1" timestamp="2018-06-10T08:11:51Z" changeset="59705781" uid="3842253" user="NKA_import">
		<tag k="loc_name" v="Bjønnes Solvika" />
		<tag k="name" v="Bjønnes-Solvik" />
		<tag k="place" v="farm" />
		<tag k="ssr:stedsnr" v="851411" />
		<tag k="ssr:type" v="bruk" />
	</node>
	<node id="5679141384" lat="59.1802139" lon="9.8123389" version="1" timestamp="2018-06-10T08:11:51Z" changeset="59705781" uid="3842253" user="NKA_import">
		<tag k="name" v="Rønningen" />
		<tag k="place" v="farm" />
		<tag k="ssr:stedsnr" v="851526" />
		<tag k="ssr:type" v="bruk" />
	</node>
	<node id="5679141385" lat="59.1179333" lon="9.6724639" version="1" timestamp="2018-06-10T08:11:51Z" changeset="59705781" uid="3842253" user="NKA_import">
		<tag k="name" v="Rød" />
		<tag k="place" v="locality" />
		<tag k="ssr:stedsnr" v="268046" />
		<tag k="ssr:type" v="eiendom" />
	</node>
	<node id="5679141386" lat="59.1338167" lon="9.7896187" version="1" timestamp="2018-06-10T08:11:51Z" changeset="59705781" uid="3842253" user="NKA_import">
		<tag k="name" v="Sollirønningane" />
		<tag k="old_name" v="Solli" />
		<tag k="place" v="farm" />
		<tag k="ssr:stedsnr" v="851542" />
		<tag k="ssr:type" v="bruk" />
	</node>
	<node id="5679141387" lat="59.1085139" lon="9.6858806" version="1" timestamp="2018-06-10T08:11:51Z" changeset="59705781" uid="3842253" user="NKA_import">
		<tag k="name" v="Grønli" />
		<tag k="place" v="farm" />
		<tag k="ssr:stedsnr" v="480086" />
		<tag k="ssr:type" v="bruk" />
	</node>
	<node id="5679141388" lat="59.1304194" lon="9.7896861" version="1" timestamp="2018-06-10T08:11:51Z" changeset="59705781" uid="3842253" user="NKA_import">
		<tag k="name" v="Hegna" />
		<tag k="place" v="farm" />
		<tag k="ssr:stedsnr" v="851545" />
		<tag k="ssr:type" v="bruk" />
	</node>
	<node id="5679141390" lat="59.1204667" lon="9.8246722" version="1" timestamp="2018-06-10T08:11:51Z" changeset="59705781" uid="3842253" user="NKA_import">
		<tag k="name" v="Langangssætra" />
		<tag k="old_name" v="Langangsætra" />
		<tag k="place" v="farm" />
		<tag k="ssr:stedsnr" v="851567" />
		<tag k="ssr:type" v="bruk" />
	</node>
	<node id="5679141391" lat="59.1469083" lon="9.7155611" version="1" timestamp="2018-06-10T08:11:52Z" changeset="59705781" uid="3842253" user="NKA_import">
		<tag k="name" v="Øveråsen" />
		<tag k="place" v="farm" />
		<tag k="ssr:stedsnr" v="851602" />
		<tag k="ssr:type" v="gard" />
	</node>
	<node id="5679141392" lat="59.0849861" lon="9.8115" version="1" timestamp="2018-06-10T08:11:52Z" changeset="59705781" uid="3842253" user="NKA_import">
		<tag k="name" v="Bråten" />
		<tag k="place" v="isolated_dwelling" />
		<tag k="ssr:stedsnr" v="852423" />
		<tag k="ssr:type" v="eneboligMindreBoligbygg" />
	</node>
	<node id="5679141393" lat="59.140581" lon="9.6389907" version="1" timestamp="2018-06-10T08:11:52Z" changeset="59705781" uid="3842253" user="NKA_import">
		<tag k="industrial" v="factory" />
		<tag k="landuse" v="industrial" />
		<tag k="name" v="Porsgrunn porselenfabrikk" />
		<tag k="ssr:stedsnr" v="417989" />
		<tag k="ssr:type" v="fabrikk" />
	</node>
	<node id="5679141394" lat="59.0970778" lon="9.7211417" version="1" timestamp="2018-06-10T08:11:52Z" changeset="59705781" uid="3842253" user="NKA_import">
		<tag k="name" v="Vågheim" />
		<tag k="place" v="farm" />
		<tag k="ssr:stedsnr" v="420037" />
		<tag k="ssr:type" v="bruk" />
	</node>
	<node id="5679141395" lat="59.1270944" lon="9.6790194" version="1" timestamp="2018-06-10T08:11:52Z" changeset="59705781" uid="3842253" user="NKA_import">
		<tag k="name" v="Pasa" />
		<tag k="place" v="farm" />
		<tag k="ssr:stedsnr" v="870279" />
		<tag k="ssr:type" v="bruk" />
	</node>
	<node id="5679141396" lat="59.1016778" lon="9.7194028" version="1" timestamp="2018-06-10T08:11:52Z" changeset="59705781" uid="3842253" user="NKA_import">
		<tag k="name" v="Rødtua" />
		<tag k="place" v="farm" />
		<tag k="ssr:stedsnr" v="420060" />
		<tag k="ssr:type" v="bruk" />
	</node>
	<node id="5679141397" lat="59.1427769" lon="9.648478" version="1" timestamp="2018-06-10T08:11:52Z" changeset="59705781" uid="3842253" user="NKA_import">
		<tag k="name" v="Moldhaugen" />
		<tag k="place" v="quarter" />
		<tag k="ssr:stedsnr" v="874927" />
		<tag k="ssr:type" v="bydel" />
	</node>
	<node id="5679141398" lat="59.106975" lon="9.6935333" version="1" timestamp="2018-06-10T08:11:52Z" changeset="59705781" uid="3842253" user="NKA_import">
		<tag k="name" v="Åsen" />
		<tag k="place" v="farm" />
		<tag k="ssr:stedsnr" v="420078" />
		<tag k="ssr:type" v="bruk" />
	</node>
	<node id="5679141399" lat="59.1146083" lon="9.6885361" version="1" timestamp="2018-06-10T08:11:52Z" changeset="59705781" uid="3842253" user="NKA_import">
		<tag k="name" v="Sølverød" />
		<tag k="place" v="farm" />
		<tag k="ssr:stedsnr" v="420089" />
		<tag k="ssr:type" v="bruk" />
	</node>
	<node id="5679141400" lat="59.0593472" lon="9.6833667" version="1" timestamp="2018-06-10T08:11:52Z" changeset="59705781" uid="3842253" user="NKA_import">
		<tag k="name" v="Rønningen" />
		<tag k="place" v="farm" />
		<tag k="ssr:stedsnr" v="420124" />
		<tag k="ssr:type" v="bruk" />
	</node>
	<node id="5679141401" lat="59.0388316" lon="9.8066576" version="3" timestamp="2021-02-28T08:45:04Z" changeset="100126837" uid="12620901" user="fuzzfolk">
		<tag k="name" v="Auenslandet" />
		<tag k="place" v="locality" />
		<tag k="ssr:stedsnr" v="420339" />
		<tag k="ssr:type" v="hyttefelt" />
	</node>
	<node id="5679141402" lat="59.0499719" lon="9.7275921" version="1" timestamp="2018-06-10T08:11:52Z" changeset="59705781" uid="3842253" user="NKA_import">
		<tag k="name" v="Sandøystrand" />
		<tag k="place" v="locality" />
		<tag k="ssr:stedsnr" v="420457" />
		<tag k="ssr:type" v="grend" />
	</node>
	<node id="5679141403" lat="59.0669306" lon="9.7305889" version="1" timestamp="2018-06-10T08:11:52Z" changeset="59705781" uid="3842253" user="NKA_import">
		<tag k="building" v="cabin" />
		<tag k="name" v="Eiklund" />
		<tag k="place" v="isolated_dwelling" />
		<tag k="ssr:stedsnr" v="420494" />
		<tag k="ssr:type" v="fritidsbolig" />
	</node>
	<node id="5679141404" lat="59.0820139" lon="9.8097917" version="1" timestamp="2018-06-10T08:11:53Z" changeset="59705781" uid="3842253" user="NKA_import">
		<tag k="name" v="Myrgård" />
		<tag k="place" v="farm" />
		<tag k="ssr:stedsnr" v="911431" />
		<tag k="ssr:type" v="bruk" />
	</node>
	<node id="5679141405" lat="59.1713639" lon="9.7597194" version="1" timestamp="2018-06-10T08:11:53Z" changeset="59705781" uid="3842253" user="NKA_import">
		<tag k="name" v="Sniken" />
		<tag k="place" v="isolated_dwelling" />
		<tag k="ssr:stedsnr" v="911500" />
		<tag k="ssr:type" v="eneboligMindreBoligbygg" />
	</node>
	<node id="5679141406" lat="59.1672861" lon="9.7838194" version="1" timestamp="2018-06-10T08:11:53Z" changeset="59705781" uid="3842253" user="NKA_import">
		<tag k="historic" v="shieling" />
		<tag k="name" v="Siljanseter" />
		<tag k="place" v="locality" />
		<tag k="ssr:stedsnr" v="911504" />
		<tag k="ssr:type" v="seterStøl" />
	</node>
	<node id="5679141407" lat="59.01725" lon="9.7703722" version="1" timestamp="2018-06-10T08:11:53Z" changeset="59705781" uid="3842253" user="NKA_import">
		<tag k="name" v="Tangane" />
		<tag k="place" v="isolated_dwelling" />
		<tag k="ssr:stedsnr" v="426257" />
		<tag k="ssr:type" v="eneboligMindreBoligbygg" />
	</node>
	<node id="5679141408" lat="59.1615542" lon="9.7423051" version="1" timestamp="2018-06-10T08:11:53Z" changeset="59705781" uid="3842253" user="NKA_import">
		<tag k="loc_name" v="Nordal søndre" />
		<tag k="name" v="Søndre Norddal" />
		<tag k="place" v="farm" />
		<tag k="ssr:stedsnr" v="288173" />
		<tag k="ssr:type" v="gard" />
	</node>
	<node id="5679141409" lat="59.0805971" lon="9.8348587" version="1" timestamp="2018-06-10T08:11:53Z" changeset="59705781" uid="3842253" user="NKA_import">
		<tag k="name" v="Nøklegård" />
		<tag k="place" v="hamlet" />
		<tag k="ssr:stedsnr" v="426399" />
		<tag k="ssr:type" v="gard" />
	</node>
	<node id="5679141410" lat="59.0253806" lon="9.7788806" version="1" timestamp="2018-06-10T08:11:53Z" changeset="59705781" uid="3842253" user="NKA_import">
		<tag k="name" v="Linna" />
		<tag k="place" v="farm" />
		<tag k="ssr:stedsnr" v="912281" />
		<tag k="ssr:type" v="bruk" />
	</node>
	<node id="5679141411" lat="59.1478306" lon="9.6475278" version="1" timestamp="2018-06-10T08:11:53Z" changeset="59705781" uid="3842253" user="NKA_import">
		<tag k="name" v="Grotheim" />
		<tag k="place" v="isolated_dwelling" />
		<tag k="ssr:stedsnr" v="291453" />
		<tag k="ssr:type" v="eneboligMindreBoligbygg" />
	</node>
	<node id="5679141412" lat="59.0816944" lon="9.6443306" version="1" timestamp="2018-06-10T08:11:53Z" changeset="59705781" uid="3842253" user="NKA_import">
		<tag k="name" v="Saltbua" />
		<tag k="place" v="farm" />
		<tag k="ssr:stedsnr" v="426410" />
		<tag k="ssr:type" v="bruk" />
	</node>
	<node id="5679141413" lat="59.094722" lon="9.8476553" version="3" timestamp="2021-04-05T09:23:21Z" changeset="102319031" uid="12620901" user="fuzzfolk">
		<tag k="name" v="Skjegge" />
		<tag k="place" v="farm" />
		<tag k="ssr:stedsnr" v="912398" />
		<tag k="ssr:type" v="gard" />
	</node>
	<node id="5679141414" lat="59.101525" lon="9.6562556" version="1" timestamp="2018-06-10T08:11:53Z" changeset="59705781" uid="3842253" user="NKA_import">
		<tag k="alt_name" v="Versvik" />
		<tag k="name" v="Versvika" />
		<tag k="place" v="farm" />
		<tag k="ssr:stedsnr" v="912406" />
		<tag k="ssr:type" v="gard" />
	</node>
	<node id="5679141415" lat="59.0932083" lon="9.7425583" version="1" timestamp="2018-06-10T08:11:53Z" changeset="59705781" uid="3842253" user="NKA_import">
		<tag k="alt_name" v="Oksum" />
		<tag k="name" v="Oksom" />
		<tag k="place" v="farm" />
		<tag k="ssr:stedsnr" v="912446" />
		<tag k="ssr:type" v="gard" />
	</node>
	<node id="5679141416" lat="59.168225" lon="9.8663139" version="1" timestamp="2018-06-10T08:11:53Z" changeset="59705781" uid="3842253" user="NKA_import">
		<tag k="name" v="Todal" />
		<tag k="place" v="farm" />
		<tag k="ssr:stedsnr" v="426490" />
		<tag k="ssr:type" v="bruk" />
	</node>
	<node id="5679141417" lat="59.16405" lon="9.8119722" version="1" timestamp="2018-06-10T08:11:54Z" changeset="59705781" uid="3842253" user="NKA_import">
		<tag k="name" v="Solheim" />
		<tag k="place" v="farm" />
		<tag k="ssr:stedsnr" v="912559" />
		<tag k="ssr:type" v="bruk" />
	</node>
	<node id="5679141418" lat="59.1380629" lon="9.7947024" version="1" timestamp="2018-06-10T08:11:54Z" changeset="59705781" uid="3842253" user="NKA_import">
		<tag k="name" v="Solli" />
		<tag k="place" v="hamlet" />
		<tag k="ssr:stedsnr" v="426556" />
		<tag k="ssr:type" v="gard" />
	</node>
	<node id="5679141419" lat="59.1052861" lon="9.8024305" version="1" timestamp="2018-06-10T08:11:54Z" changeset="59705781" uid="3842253" user="NKA_import">
		<tag k="name" v="Vestgård" />
		<tag k="place" v="farm" />
		<tag k="ssr:stedsnr" v="289899" />
		<tag k="ssr:type" v="bruk" />
	</node>
	<node id="5679141420" lat="59.1247083" lon="9.7069583" version="1" timestamp="2018-06-10T08:11:54Z" changeset="59705781" uid="3842253" user="NKA_import">
		<tag k="name" v="Bjørbekk" />
		<tag k="place" v="farm" />
		<tag k="ssr:stedsnr" v="426563" />
		<tag k="ssr:type" v="bruk" />
	</node>
	<node id="5679141421" lat="59.1903694" lon="9.7864472" version="1" timestamp="2018-06-10T08:11:54Z" changeset="59705781" uid="3842253" user="NKA_import">
		<tag k="name" v="Stussrød" />
		<tag k="place" v="farm" />
		<tag k="ssr:stedsnr" v="912567" />
		<tag k="ssr:type" v="bruk" />
	</node>
	<node id="5679141422" lat="59.1788083" lon="9.7794278" version="1" timestamp="2018-06-10T08:11:54Z" changeset="59705781" uid="3842253" user="NKA_import">
		<tag k="name" v="Kroken" />
		<tag k="place" v="farm" />
		<tag k="ssr:stedsnr" v="912579" />
		<tag k="ssr:type" v="bruk" />
	</node>
	<node id="5679141423" lat="59.1452806" lon="9.7398611" version="1" timestamp="2018-06-10T08:11:54Z" changeset="59705781" uid="3842253" user="NKA_import">
		<tag k="name" v="Flogstad" />
		<tag k="place" v="farm" />
		<tag k="ssr:stedsnr" v="426608" />
		<tag k="ssr:type" v="gard" />
	</node>
	<node id="5679141424" lat="59.1335417" lon="9.6222889" version="1" timestamp="2018-06-10T08:11:54Z" changeset="59705781" uid="3842253" user="NKA_import">
		<tag k="loc_name" v="Knarrdalstrand" />
		<tag k="name" v="Knarrdalstranda" />
		<tag k="place" v="neighbourhood" />
		<tag k="ssr:stedsnr" v="426619" />
		<tag k="ssr:type" v="tettbebyggelse" />
	</node>
	<node id="5679141425" lat="59.1215028" lon="9.7995056" version="1" timestamp="2018-06-10T08:11:54Z" changeset="59705781" uid="3842253" user="NKA_import">
		<tag k="name" v="Viersdalen" />
		<tag k="place" v="hamlet" />
		<tag k="ssr:stedsnr" v="912612" />
		<tag k="ssr:type" v="gard" />
	</node>
	<node id="5679141426" lat="59.1235861" lon="9.7267111" version="1" timestamp="2018-06-10T08:11:54Z" changeset="59705781" uid="3842253" user="NKA_import">
		<tag k="name" v="Øgården" />
		<tag k="old_name" v="Øgarden" />
		<tag k="place" v="farm" />
		<tag k="ssr:stedsnr" v="912614" />
		<tag k="ssr:type" v="bruk" />
	</node>
	<node id="5679141428" lat="59.1521111" lon="9.7983333" version="1" timestamp="2018-06-10T08:11:54Z" changeset="59705781" uid="3842253" user="NKA_import">
		<tag k="name" v="Fløtterød" />
		<tag k="old_name" v="Fløtre" />
		<tag k="place" v="farm" />
		<tag k="ssr:stedsnr" v="912624" />
		<tag k="ssr:type" v="bruk" />
	</node>
	<node id="5679141429" lat="59.0927083" lon="9.7171917" version="1" timestamp="2018-06-10T08:11:55Z" changeset="59705781" uid="3842253" user="NKA_import">
		<tag k="name" v="Moen" />
		<tag k="place" v="farm" />
		<tag k="ssr:stedsnr" v="427444" />
		<tag k="ssr:type" v="bruk" />
	</node>
	<node id="5679141430" lat="59.1761366" lon="9.810355" version="1" timestamp="2018-06-10T08:11:55Z" changeset="59705781" uid="3842253" user="NKA_import">
		<tag k="name" v="Oklungen" />
		<tag k="place" v="hamlet" />
		<tag k="ssr:stedsnr" v="449775" />
		<tag k="ssr:type" v="grend" />
	</node>
	<node id="5679141431" lat="59.1612068" lon="9.8029076" version="1" timestamp="2018-06-10T08:11:55Z" changeset="59705781" uid="3842253" user="NKA_import">
		<tag k="name" v="Gunnarsrød" />
		<tag k="place" v="farm" />
		<tag k="ssr:stedsnr" v="290496" />
		<tag k="ssr:type" v="bruk" />
	</node>
	<node id="5679141432" lat="59.1495022" lon="9.6393681" version="1" timestamp="2018-06-10T08:11:55Z" changeset="59705781" uid="3842253" user="NKA_import">
		<tag k="name" v="Bjørndalen" />
		<tag k="place" v="neighbourhood" />
		<tag k="ssr:stedsnr" v="939353" />
		<tag k="ssr:type" v="industriområde" />
	</node>
	<node id="5679141433" lat="59.0737056" lon="9.7270528" version="1" timestamp="2018-06-10T08:11:55Z" changeset="59705781" uid="3842253" user="NKA_import">
		<tag k="name" v="Ormer" />
		<tag k="place" v="farm" />
		<tag k="ssr:stedsnr" v="451110" />
		<tag k="ssr:type" v="bruk" />
	</node>
	<node id="5679141434" lat="59.1429639" lon="9.6721861" version="1" timestamp="2018-06-10T08:11:55Z" changeset="59705781" uid="3842253" user="NKA_import">
		<tag k="name" v="Sanda" />
		<tag k="place" v="farm" />
		<tag k="ssr:stedsnr" v="291526" />
		<tag k="ssr:type" v="bruk" />
	</node>
	<node id="5679141435" lat="59.0507392" lon="9.7387599" version="1" timestamp="2018-06-10T08:11:55Z" changeset="59705781" uid="3842253" user="NKA_import">
		<tag k="name" v="Jordet" />
		<tag k="place" v="farm" />
		<tag k="ssr:stedsnr" v="471589" />
		<tag k="ssr:type" v="bruk" />
	</node>
	<node id="5679141436" lat="59.1372417" lon="9.689725" version="1" timestamp="2018-06-10T08:11:55Z" changeset="59705781" uid="3842253" user="NKA_import">
		<tag k="name" v="Vallerheim" />
		<tag k="place" v="farm" />
		<tag k="ssr:stedsnr" v="957856" />
		<tag k="ssr:type" v="bruk" />
	</node>
	<node id="5679141437" lat="59.1240944" lon="9.6492278" version="1" timestamp="2018-06-10T08:11:55Z" changeset="59705781" uid="3842253" user="NKA_import">
		<tag k="name" v="Kikut" />
		<tag k="place" v="isolated_dwelling" />
		<tag k="ssr:stedsnr" v="291683" />
		<tag k="ssr:type" v="eneboligMindreBoligbygg" />
	</node>
	<node id="5679141438" lat="59.1003306" lon="9.830875" version="1" timestamp="2018-06-10T08:11:55Z" changeset="59705781" uid="3842253" user="NKA_import">
		<tag k="name" v="Ulsbru" />
		<tag k="place" v="locality" />
		<tag k="ssr:stedsnr" v="957879" />
		<tag k="ssr:type" v="gammelBosettingsplass" />
	</node>
	<node id="5679141439" lat="59.1310194" lon="9.6363417" version="1" timestamp="2018-06-10T08:11:55Z" changeset="59705781" uid="3842253" user="NKA_import">
		<tag k="name" v="Tangenåsen" />
		<tag k="place" v="quarter" />
		<tag k="ssr:stedsnr" v="957906" />
		<tag k="ssr:type" v="boligfelt" />
	</node>
	<node id="5679141440" lat="59.0835007" lon="9.7914538" version="1" timestamp="2018-06-10T08:11:55Z" changeset="59705781" uid="3842253" user="NKA_import">
		<tag k="name" v="Hause" />
		<tag k="place" v="isolated_dwelling" />
		<tag k="ssr:stedsnr" v="298015" />
		<tag k="ssr:type" v="eneboligMindreBoligbygg" />
	</node>
	<node id="5679141441" lat="59.0132904" lon="9.818736" version="3" timestamp="2021-04-10T16:55:05Z" changeset="102707498" uid="12620901" user="fuzzfolk">
		<tag k="building" v="cabin" />
		<tag k="name" v="Plassen" />
		<tag k="place" v="locality" />
		<tag k="ssr:stedsnr" v="298250" />
		<tag k="ssr:type" v="fritidsbolig" />
	</node>
	<node id="5679141442" lat="59.1158444" lon="9.7703139" version="1" timestamp="2018-06-10T08:11:56Z" changeset="59705781" uid="3842253" user="NKA_import">
		<tag k="historic" v="shieling" />
		<tag k="name" v="Kisteseter" />
		<tag k="place" v="locality" />
		<tag k="ssr:stedsnr" v="471854" />
		<tag k="ssr:type" v="seterStøl" />
	</node>
	<node id="5679141443" lat="59.1365944" lon="9.6441528" version="1" timestamp="2018-06-10T08:11:56Z" changeset="59705781" uid="3842253" user="NKA_import">
		<tag k="name" v="Huken" />
		<tag k="place" v="square" />
		<tag k="ssr:stedsnr" v="957983" />
		<tag k="ssr:type" v="torg" />
	</node>
	<node id="5679141444" lat="59.1414528" lon="9.738625" version="1" timestamp="2018-06-10T08:11:56Z" changeset="59705781" uid="3842253" user="NKA_import">
		<tag k="name" v="Fosse" />
		<tag k="place" v="farm" />
		<tag k="ssr:stedsnr" v="304621" />
		<tag k="ssr:type" v="bruk" />
	</node>
	<node id="5679141445" lat="59.02924" lon="9.7723759" version="1" timestamp="2018-06-10T08:11:56Z" changeset="59705781" uid="3842253" user="NKA_import">
		<tag k="leisure" v="swimming_area" />
		<tag k="name" v="Vadberget" />
		<tag k="place" v="locality" />
		<tag k="ssr:stedsnr" v="957985" />
		<tag k="ssr:type" v="badeplass" />
	</node>
	<node id="5679141446" lat="59.1075131" lon="9.7484031" version="1" timestamp="2018-06-10T08:11:56Z" changeset="59705781" uid="3842253" user="NKA_import">
		<tag k="alt_name" v="Lanner" />
		<tag k="name" v="Lander" />
		<tag k="place" v="farm" />
		<tag k="ssr:stedsnr" v="305420" />
		<tag k="ssr:type" v="bruk" />
	</node>
	<node id="5679141447" lat="59.0866361" lon="9.7899361" version="1" timestamp="2018-06-10T08:11:56Z" changeset="59705781" uid="3842253" user="NKA_import">
		<tag k="name" v="Tangen" />
		<tag k="place" v="farm" />
		<tag k="ssr:stedsnr" v="305456" />
		<tag k="ssr:type" v="bruk" />
	</node>
	<node id="5679141448" lat="59.1041444" lon="9.6589778" version="1" timestamp="2018-06-10T08:11:56Z" changeset="59705781" uid="3842253" user="NKA_import">
		<tag k="name" v="Mauråsen" />
		<tag k="place" v="quarter" />
		<tag k="ssr:stedsnr" v="958731" />
		<tag k="ssr:type" v="boligfelt" />
	</node>
	<node id="5679141449" lat="59.0530611" lon="9.7604528" version="1" timestamp="2018-06-10T08:11:56Z" changeset="59705781" uid="3842253" user="NKA_import">
		<tag k="name" v="Krysstangen" />
		<tag k="place" v="farm" />
		<tag k="ssr:stedsnr" v="305467" />
		<tag k="ssr:type" v="bruk" />
	</node>
	<node id="5679141450" lat="59.0359056" lon="9.7453667" version="1" timestamp="2018-06-10T08:11:56Z" changeset="59705781" uid="3842253" user="NKA_import">
		<tag k="alt_name" v="Bjerkøya" />
		<tag k="name" v="Bjørkøya" />
		<tag k="place" v="farm" />
		<tag k="ssr:stedsnr" v="305516" />
		<tag k="ssr:type" v="gard" />
	</node>
	<node id="5679141451" lat="59.1884222" lon="9.8694694" version="1" timestamp="2018-06-10T08:11:56Z" changeset="59705781" uid="3842253" user="NKA_import">
		<tag k="building" v="cabin" />
		<tag k="name" v="Bjønnesseter" />
		<tag k="place" v="isolated_dwelling" />
		<tag k="ssr:stedsnr" v="305593" />
		<tag k="ssr:type" v="fritidsbolig" />
	</node>
	<node id="5679141452" lat="59.1510861" lon="9.7388667" version="1" timestamp="2018-06-10T08:11:56Z" changeset="59705781" uid="3842253" user="NKA_import">
		<tag k="name" v="Holtet" />
		<tag k="place" v="farm" />
		<tag k="ssr:stedsnr" v="305648" />
		<tag k="ssr:type" v="gard" />
	</node>
	<node id="5679141453" lat="59.0739556" lon="9.6791555" version="1" timestamp="2018-06-10T08:11:56Z" changeset="59705781" uid="3842253" user="NKA_import">
		<tag k="name" v="Bakke" />
		<tag k="place" v="farm" />
		<tag k="ssr:stedsnr" v="327773" />
		<tag k="ssr:type" v="gard" />
	</node>
	<node id="5679141454" lat="59.085119" lon="9.720866" version="8" timestamp="2022-01-02T21:39:31Z" changeset="115686654" uid="3497659" user="NKA">
		<tag k="amenity" v="school" />
		<tag k="capacity" v="58" />
		<tag k="email" v="anne@bbm-skole.no" />
		<tag k="fee" v="yes" />
		<tag k="grades" v="1-7" />
		<tag k="isced:level" v="1" />
		<tag k="name" v="Bergsbygda montessoriskole" />
		<tag k="operator" v="Bergsbygda montessoriskole" />
		<tag k="operator:type" v="private" />
		<tag k="phone" v="+47 95 05 11 05" />
		<tag k="ref:gsi" v="8268" />
		<tag k="ref:udir_nsr" v="1011418" />
		<tag k="ssr:stedsnr" v="472902" />
		<tag k="ssr:type" v="skole" />
		<tag k="website" v="http://bergsbygdamontessori.no" />
	</node>
	<node id="5679141455" lat="59.0512889" lon="9.7380306" version="1" timestamp="2018-06-10T08:11:57Z" changeset="59705781" uid="3842253" user="NKA_import">
		<tag k="name" v="Solvang" />
		<tag k="place" v="farm" />
		<tag k="ssr:stedsnr" v="966467" />
		<tag k="ssr:type" v="bruk" />
	</node>
	<node id="5679141456" lat="59.1499284" lon="9.6488758" version="1" timestamp="2018-06-10T08:11:57Z" changeset="59705781" uid="3842253" user="NKA_import">
		<tag k="name" v="Lahelle" />
		<tag k="place" v="neighbourhood" />
		<tag k="ssr:stedsnr" v="332329" />
		<tag k="ssr:type" v="industriområde" />
	</node>
	<node id="5679141457" lat="59.0506587" lon="9.7290866" version="4" timestamp="2021-10-29T06:11:26Z" changeset="113107708" uid="3497659" user="NKA">
		<tag k="name" v="Sand" />
		<tag k="place" v="hamlet" />
		<tag k="population" v="265" />
		<tag k="population:date" v="2021-01-01" />
		<tag k="ref:ssb_tettsted" v="3004" />
		<tag k="source:population" v="SSB - befolkning i tettstedet" />
		<tag k="ssr:stedsnr" v="480426" />
		<tag k="ssr:type" v="grend" />
	</node>
	<node id="5679141458" lat="59.1491178" lon="9.6591443" version="1" timestamp="2018-06-10T08:11:57Z" changeset="59705781" uid="3842253" user="NKA_import">
		<tag k="name" v="Radehuset" />
		<tag k="place" v="farm" />
		<tag k="ssr:stedsnr" v="973816" />
		<tag k="ssr:type" v="bruk" />
	</node>
	<node id="5679141460" lat="59.0692917" lon="9.7252167" version="1" timestamp="2018-06-10T08:11:57Z" changeset="59705781" uid="3842253" user="NKA_import">
		<tag k="name" v="Solheim" />
		<tag k="place" v="farm" />
		<tag k="ssr:stedsnr" v="486442" />
		<tag k="ssr:type" v="bruk" />
	</node>
	<node id="5679141461" lat="59.0463343" lon="9.7575004" version="1" timestamp="2018-06-10T08:11:57Z" changeset="59705781" uid="3842253" user="NKA_import">
		<tag k="name" v="Hestholmen" />
		<tag k="place" v="farm" />
		<tag k="ssr:stedsnr" v="979948" />
		<tag k="ssr:type" v="gard" />
	</node>
	<node id="5679141462" lat="59.0841472" lon="9.7429583" version="1" timestamp="2018-06-10T08:11:57Z" changeset="59705781" uid="3842253" user="NKA_import">
		<tag k="name" v="Stamland" />
		<tag k="place" v="farm" />
		<tag k="ssr:stedsnr" v="486445" />
		<tag k="ssr:type" v="gard" />
	</node>
	<node id="5679141463" lat="59.1096606" lon="9.7197474" version="1" timestamp="2018-06-10T08:11:57Z" changeset="59705781" uid="3842253" user="NKA_import">
		<tag k="name" v="Bjerkevoll" />
		<tag k="place" v="farm" />
		<tag k="ssr:stedsnr" v="979939" />
		<tag k="ssr:type" v="gard" />
	</node>
	<node id="5679141464" lat="59.0813417" lon="9.7359" version="1" timestamp="2018-06-10T08:11:57Z" changeset="59705781" uid="3842253" user="NKA_import">
		<tag k="name" v="Rønningen" />
		<tag k="place" v="farm" />
		<tag k="ssr:stedsnr" v="486447" />
		<tag k="ssr:type" v="bruk" />
	</node>
	<node id="5679141465" lat="59.1655958" lon="9.7526312" version="1" timestamp="2018-06-10T08:11:57Z" changeset="59705781" uid="3842253" user="NKA_import">
		<tag k="name" v="Nordre Norddal" />
		<tag k="place" v="farm" />
		<tag k="ssr:stedsnr" v="979941" />
		<tag k="ssr:type" v="gard" />
	</node>
	<node id="5679141466" lat="59.1408341" lon="9.7276282" version="1" timestamp="2018-06-10T08:11:57Z" changeset="59705781" uid="3842253" user="NKA_import">
		<tag k="name" v="Lunde" />
		<tag k="place" v="hamlet" />
		<tag k="ssr:stedsnr" v="979942" />
		<tag k="ssr:type" v="navnegard" />
	</node>
	<node id="5679141467" lat="59.1625401" lon="9.7485667" version="1" timestamp="2018-06-10T08:11:58Z" changeset="59705781" uid="3842253" user="NKA_import">
		<tag k="name" v="Norddal" />
		<tag k="place" v="hamlet" />
		<tag k="ssr:stedsnr" v="979943" />
		<tag k="ssr:type" v="navnegard" />
	</node>
	<node id="5679141468" lat="59.1717511" lon="9.8167248" version="1" timestamp="2018-06-10T08:11:58Z" changeset="59705781" uid="3842253" user="NKA_import">
		<tag k="name" v="Nordalssætret" />
		<tag k="place" v="farm" />
		<tag k="ssr:stedsnr" v="979944" />
		<tag k="ssr:type" v="gard" />
	</node>
	<node id="5679141469" lat="59.1478583" lon="9.7027917" version="1" timestamp="2018-06-10T08:11:58Z" changeset="59705781" uid="3842253" user="NKA_import">
		<tag k="name" v="Svinholt" />
		<tag k="place" v="farm" />
		<tag k="ssr:stedsnr" v="486627" />
		<tag k="ssr:type" v="bruk" />
	</node>
	<node id="5679141470" lat="59.0177645" lon="9.8147567" version="2" timestamp="2021-02-26T19:27:14Z" changeset="100071433" uid="12620901" user="fuzzfolk">
		<tag k="name" v="Narholmen" />
		<tag k="place" v="locality" />
		<tag k="ssr:stedsnr" v="979945" />
		<tag k="ssr:type" v="gard" />
	</node>
	<node id="5679141471" lat="59.0138583" lon="9.8237198" version="4" timestamp="2021-04-14T08:19:29Z" changeset="102912708" uid="12620901" user="fuzzfolk">
		<tag k="building" v="cabin" />
		<tag k="name" v="Bukkevika" />
		<tag k="place" v="locality" />
		<tag k="ssr:stedsnr" v="487329" />
		<tag k="ssr:type" v="fritidsbolig" />
	</node>
	<node id="5679141472" lat="59.0521356" lon="9.7591405" version="1" timestamp="2018-06-10T08:11:58Z" changeset="59705781" uid="3842253" user="NKA_import">
		<tag k="name" v="Myren" />
		<tag k="place" v="farm" />
		<tag k="ssr:stedsnr" v="979946" />
		<tag k="ssr:type" v="gard" />
	</node>
	<node id="5679141473" lat="59.0948972" lon="9.6619222" version="1" timestamp="2018-06-10T08:11:58Z" changeset="59705781" uid="3842253" user="NKA_import">
		<tag k="name" v="Rød" />
		<tag k="place" v="farm" />
		<tag k="ssr:stedsnr" v="487421" />
		<tag k="ssr:type" v="bruk" />
	</node>
	<node id="5679141474" lat="59.1024" lon="9.7985056" version="1" timestamp="2018-06-10T08:11:58Z" changeset="59705781" uid="3842253" user="NKA_import">
		<tag k="name" v="Sundsåsen" />
		<tag k="old_name" v="Sundsås" />
		<tag k="place" v="farm" />
		<tag k="ssr:stedsnr" v="487430" />
		<tag k="ssr:type" v="gard" />
	</node>
	<node id="5679141475" lat="59.0902139" lon="9.7181167" version="1" timestamp="2018-06-10T08:11:58Z" changeset="59705781" uid="3842253" user="NKA_import">
		<tag k="name" v="Røra" />
		<tag k="place" v="farm" />
		<tag k="ssr:stedsnr" v="487459" />
		<tag k="ssr:type" v="gard" />
	</node>
	<node id="5679141476" lat="59.1105185" lon="9.6703015" version="1" timestamp="2018-06-10T08:11:58Z" changeset="59705781" uid="3842253" user="NKA_import">
		<tag k="name" v="Stridsklev" />
		<tag k="place" v="farm" />
		<tag k="ssr:stedsnr" v="979958" />
		<tag k="ssr:type" v="gard" />
	</node>
	<node id="5679141477" lat="59.1196274" lon="9.6600772" version="1" timestamp="2018-06-10T08:11:58Z" changeset="59705781" uid="3842253" user="NKA_import">
		<tag k="name" v="Kleven" />
		<tag k="place" v="farm" />
		<tag k="ssr:stedsnr" v="979960" />
		<tag k="ssr:type" v="gard" />
	</node>
	<node id="5679141478" lat="59.1422417" lon="9.7246083" version="1" timestamp="2018-06-10T08:11:58Z" changeset="59705781" uid="3842253" user="NKA_import">
		<tag k="building" v="cabin" />
		<tag k="name" v="Alfredshytta" />
		<tag k="place" v="isolated_dwelling" />
		<tag k="ssr:stedsnr" v="350875" />
		<tag k="ssr:type" v="fritidsbolig" />
	</node>
	<node id="5679141479" lat="59.0548333" lon="9.6866578" version="1" timestamp="2018-06-10T08:11:59Z" changeset="59705781" uid="3842253" user="NKA_import">
		<tag k="industrial" v="shipyard" />
		<tag k="landuse" v="industrial" />
		<tag k="name" v="Trosvik" />
		<tag k="ssr:stedsnr" v="487471" />
		<tag k="ssr:type" v="fabrikk" />
	</node>
	<node id="5679141480" lat="59.1073599" lon="9.6595901" version="1" timestamp="2018-06-10T08:11:59Z" changeset="59705781" uid="3842253" user="NKA_import">
		<tag k="name" v="Skrapeklev" />
		<tag k="place" v="farm" />
		<tag k="ssr:stedsnr" v="979963" />
		<tag k="ssr:type" v="gard" />
	</node>
	<node id="5679141481" lat="59.1031605" lon="9.6956223" version="1" timestamp="2018-06-10T08:11:59Z" changeset="59705781" uid="3842253" user="NKA_import">
		<tag k="name" v="Mule" />
		<tag k="place" v="farm" />
		<tag k="ssr:stedsnr" v="979965" />
		<tag k="ssr:type" v="gard" />
	</node>
	<node id="5679141482" lat="59.0594253" lon="9.7239224" version="1" timestamp="2018-06-10T08:11:59Z" changeset="59705781" uid="3842253" user="NKA_import">
		<tag k="leisure" v="swimming_area" />
		<tag k="name" v="Dikkon" />
		<tag k="place" v="locality" />
		<tag k="ssr:stedsnr" v="487492" />
		<tag k="ssr:type" v="badeplass" />
	</node>
	<node id="5679141483" lat="59.086514" lon="9.6969136" version="1" timestamp="2018-06-10T08:11:59Z" changeset="59705781" uid="3842253" user="NKA_import">
		<tag k="name" v="Hvalen" />
		<tag k="place" v="farm" />
		<tag k="ssr:stedsnr" v="979997" />
		<tag k="ssr:type" v="gard" />
	</node>
	<node id="5679141484" lat="59.15705" lon="9.7420389" version="1" timestamp="2018-06-10T08:11:59Z" changeset="59705781" uid="3842253" user="NKA_import">
		<tag k="name" v="Siljan" />
		<tag k="place" v="farm" />
		<tag k="ssr:stedsnr" v="487566" />
		<tag k="ssr:type" v="gard" />
	</node>
	<node id="5679141485" lat="59.0952097" lon="9.6602752" version="1" timestamp="2018-06-10T08:11:59Z" changeset="59705781" uid="3842253" user="NKA_import">
		<tag k="name" v="Søndre Rød" />
		<tag k="place" v="farm" />
		<tag k="ssr:stedsnr" v="979999" />
		<tag k="ssr:type" v="gard" />
	</node>
	<node id="5679141486" lat="59.0853163" lon="9.6615601" version="1" timestamp="2018-06-10T08:11:59Z" changeset="59705781" uid="3842253" user="NKA_import">
		<tag k="name" v="Søndre ås" />
		<tag k="place" v="farm" />
		<tag k="ssr:stedsnr" v="980000" />
		<tag k="ssr:type" v="gard" />
	</node>
	<node id="5679141487" lat="59.0902479" lon="9.6585642" version="1" timestamp="2018-06-10T08:11:59Z" changeset="59705781" uid="3842253" user="NKA_import">
		<tag k="name" v="Nordre Ås" />
		<tag k="place" v="farm" />
		<tag k="ssr:stedsnr" v="980001" />
		<tag k="ssr:type" v="gard" />
	</node>
	<node id="5679141488" lat="59.1899056" lon="9.8249445" version="1" timestamp="2018-06-10T08:11:59Z" changeset="59705781" uid="3842253" user="NKA_import">
		<tag k="historic" v="shieling" />
		<tag k="name" v="Tjennane" />
		<tag k="place" v="locality" />
		<tag k="ssr:stedsnr" v="487582" />
		<tag k="ssr:type" v="seterStøl" />
	</node>
	<node id="5679141489" lat="59.0878515" lon="9.6606255" version="1" timestamp="2018-06-10T08:11:59Z" changeset="59705781" uid="3842253" user="NKA_import">
		<tag k="name" v="Ås" />
		<tag k="place" v="hamlet" />
		<tag k="ssr:stedsnr" v="980002" />
		<tag k="ssr:type" v="navnegard" />
	</node>
	<node id="5679141490" lat="59.0852774" lon="9.6709009" version="1" timestamp="2018-06-10T08:11:59Z" changeset="59705781" uid="3842253" user="NKA_import">
		<tag k="name" v="Nordre Grava" />
		<tag k="place" v="farm" />
		<tag k="ssr:stedsnr" v="980003" />
		<tag k="ssr:type" v="gard" />
	</node>
	<node id="5679141491" lat="59.0861323" lon="9.6485115" version="1" timestamp="2018-06-10T08:11:59Z" changeset="59705781" uid="3842253" user="NKA_import">
		<tag k="name" v="Søndre Grava" />
		<tag k="place" v="farm" />
		<tag k="ssr:stedsnr" v="980004" />
		<tag k="ssr:type" v="gard" />
	</node>
	<node id="5679141492" lat="59.0835668" lon="9.6554864" version="1" timestamp="2018-06-10T08:12:00Z" changeset="59705781" uid="3842253" user="NKA_import">
		<tag k="name" v="Grava" />
		<tag k="place" v="hamlet" />
		<tag k="ssr:stedsnr" v="980005" />
		<tag k="ssr:type" v="navnegard" />
	</node>
	<node id="5679141493" lat="59.090237" lon="9.6799542" version="1" timestamp="2018-06-10T08:12:00Z" changeset="59705781" uid="3842253" user="NKA_import">
		<tag k="name" v="Øvre Lunde" />
		<tag k="place" v="farm" />
		<tag k="ssr:stedsnr" v="980006" />
		<tag k="ssr:type" v="gard" />
	</node>
	<node id="5679141494" lat="59.0853595" lon="9.6828779" version="1" timestamp="2018-06-10T08:12:00Z" changeset="59705781" uid="3842253" user="NKA_import">
		<tag k="name" v="Lunde" />
		<tag k="place" v="suburb" />
		<tag k="ssr:stedsnr" v="980007" />
		<tag k="ssr:type" v="navnegard" />
	</node>
	<node id="5679141495" lat="59.1263722" lon="9.6467556" version="1" timestamp="2018-06-10T08:12:00Z" changeset="59705781" uid="3842253" user="NKA_import">
		<tag k="name" v="Rønningen" />
		<tag k="place" v="square" />
		<tag k="ssr:stedsnr" v="350964" />
		<tag k="ssr:type" v="torg" />
	</node>
	<node id="5679141496" lat="59.183002" lon="9.8826112" version="1" timestamp="2018-06-10T08:12:00Z" changeset="59705781" uid="3842253" user="NKA_import">
		<tag k="name" v="Bjønnes" />
		<tag k="place" v="farm" />
		<tag k="ssr:stedsnr" v="980010" />
		<tag k="ssr:type" v="gard" />
	</node>
	<node id="5679141498" lat="59.164807" lon="9.8258281" version="1" timestamp="2018-06-10T08:12:00Z" changeset="59705781" uid="3842253" user="NKA_import">
		<tag k="name" v="Nordre Omsland" />
		<tag k="place" v="farm" />
		<tag k="ssr:stedsnr" v="980011" />
		<tag k="ssr:type" v="gard" />
	</node>
	<node id="5679141499" lat="59.1051944" lon="9.6486305" version="1" timestamp="2018-06-10T08:12:00Z" changeset="59705781" uid="3842253" user="NKA_import">
		<tag k="name" v="Bøkkerkåsa" />
		<tag k="place" v="locality" />
		<tag k="ssr:stedsnr" v="511044" />
		<tag k="ssr:type" v="gammelBosettingsplass" />
	</node>
	<node id="5679141500" lat="59.1517969" lon="9.672032" version="1" timestamp="2018-06-10T08:12:00Z" changeset="59705781" uid="3842253" user="NKA_import">
		<tag k="name" v="Østre Borge" />
		<tag k="place" v="farm" />
		<tag k="ssr:stedsnr" v="980119" />
		<tag k="ssr:type" v="gard" />
	</node>
	<node id="5679141501" lat="59.1490637" lon="9.6803324" version="1" timestamp="2018-06-10T08:12:00Z" changeset="59705781" uid="3842253" user="NKA_import">
		<tag k="name" v="Sølen" />
		<tag k="place" v="farm" />
		<tag k="ssr:stedsnr" v="980120" />
		<tag k="ssr:type" v="gard" />
	</node>
	<node id="5679141502" lat="59.0634812" lon="9.6818293" version="1" timestamp="2018-06-10T08:12:00Z" changeset="59705781" uid="3842253" user="NKA_import">
		<tag k="name" v="Dalen" />
		<tag k="place" v="farm" />
		<tag k="ssr:stedsnr" v="980009" />
		<tag k="ssr:type" v="gard" />
	</node>
	<node id="5679141503" lat="59.0846261" lon="9.686556" version="1" timestamp="2018-06-10T08:12:00Z" changeset="59705781" uid="3842253" user="NKA_import">
		<tag k="name" v="Øvre Lunde" />
		<tag k="place" v="neighbourhood" />
		<tag k="ssr:stedsnr" v="352489" />
		<tag k="ssr:type" v="boligfelt" />
	</node>
	<node id="5679141504" lat="59.0872694" lon="9.6814805" version="1" timestamp="2018-06-10T08:12:00Z" changeset="59705781" uid="3842253" user="NKA_import">
		<tag k="name" v="Øvre Hvalen" />
		<tag k="place" v="isolated_dwelling" />
		<tag k="ssr:stedsnr" v="352490" />
		<tag k="ssr:type" v="eneboligMindreBoligbygg" />
	</node>
	<node id="5679141505" lat="59.1480917" lon="9.6721639" version="1" timestamp="2018-06-10T08:12:01Z" changeset="59705781" uid="3842253" user="NKA_import">
		<tag k="name" v="Øygarden" />
		<tag k="place" v="farm" />
		<tag k="ssr:stedsnr" v="352529" />
		<tag k="ssr:type" v="bruk" />
	</node>
	<node id="5679141506" lat="59.105483" lon="9.681565" version="9" timestamp="2022-01-02T21:39:31Z" changeset="115686654" uid="3497659" user="NKA">
		<tag k="amenity" v="school" />
		<tag k="capacity" v="198" />
		<tag k="email" v="post@istelemark.no" />
		<tag k="fee" v="yes" />
		<tag k="grades" v="1-10" />
		<tag k="isced:level" v="1;2" />
		<tag k="name" v="International School Telemark" />
		<tag k="old_name" v="Hovet skole" />
		<tag k="operator" v="Stiftelsen International School Telemark" />
		<tag k="operator:type" v="private" />
		<tag k="phone" v="+47 35 29 14 00" />
		<tag k="ref:gsi" v="8258" />
		<tag k="ref:udir_nsr" v="1009251" />
		<tag k="ssr:stedsnr" v="355691" />
		<tag k="ssr:type" v="skole" />
		<tag k="website" v="http://istelemark.no" />
		<tag k="wikidata" v="Q19374821" />
	</node>
	<node id="5679141507" lat="59.1721722" lon="9.8233472" version="1" timestamp="2018-06-10T08:12:01Z" changeset="59705781" uid="3842253" user="NKA_import">
		<tag k="name" v="Ragnhildrød" />
		<tag k="place" v="farm" />
		<tag k="ssr:stedsnr" v="532535" />
		<tag k="ssr:type" v="bruk" />
	</node>
	<node id="5679141508" lat="59.1125917" lon="9.6928444" version="1" timestamp="2018-06-10T08:12:01Z" changeset="59705781" uid="3842253" user="NKA_import">
		<tag k="name" v="Kåsa" />
		<tag k="place" v="farm" />
		<tag k="ssr:stedsnr" v="359086" />
		<tag k="ssr:type" v="bruk" />
	</node>
	<node id="5679141509" lat="59.1101972" lon="9.7593083" version="1" timestamp="2018-06-10T08:12:01Z" changeset="59705781" uid="3842253" user="NKA_import">
		<tag k="loc_name" v="Lillegårdseter" />
		<tag k="name" v="Lillegårdssætret" />
		<tag k="old_name" v="Lillegårdsæter" />
		<tag k="place" v="farm" />
		<tag k="ssr:stedsnr" v="365414" />
		<tag k="ssr:type" v="bruk" />
	</node>
	<node id="5679141510" lat="59.076307" lon="9.787737" version="1" timestamp="2018-06-10T08:12:01Z" changeset="59705781" uid="3842253" user="NKA_import">
		<tag k="name" v="Rambergseter" />
		<tag k="place" v="farm" />
		<tag k="ssr:stedsnr" v="532947" />
		<tag k="ssr:type" v="bruk" />
	</node>
	<node id="5679141512" lat="59.1662222" lon="9.8294278" version="1" timestamp="2018-06-10T08:12:01Z" changeset="59705781" uid="3842253" user="NKA_import">
		<tag k="name" v="Holmen" />
		<tag k="place" v="isolated_dwelling" />
		<tag k="ssr:stedsnr" v="365509" />
		<tag k="ssr:type" v="eneboligMindreBoligbygg" />
	</node>
	<node id="5679141513" lat="59.1318361" lon="9.7205055" version="1" timestamp="2018-06-10T08:12:01Z" changeset="59705781" uid="3842253" user="NKA_import">
		<tag k="name" v="Hegna" />
		<tag k="place" v="farm" />
		<tag k="ssr:stedsnr" v="365575" />
		<tag k="ssr:type" v="bruk" />
	</node>
	<node id="5679141514" lat="59.1218083" lon="9.6679444" version="1" timestamp="2018-06-10T08:12:01Z" changeset="59705781" uid="3842253" user="NKA_import">
		<tag k="name" v="Gata" />
		<tag k="place" v="farm" />
		<tag k="ssr:stedsnr" v="365581" />
		<tag k="ssr:type" v="bruk" />
	</node>
	<node id="5679141515" lat="59.1188167" lon="9.7216139" version="1" timestamp="2018-06-10T08:12:01Z" changeset="59705781" uid="3842253" user="NKA_import">
		<tag k="name" v="Slevollen" />
		<tag k="old_name" v="Slevolden" />
		<tag k="place" v="farm" />
		<tag k="ssr:stedsnr" v="365600" />
		<tag k="ssr:type" v="bruk" />
	</node>
	<node id="5679141516" lat="59.0847273" lon="9.690105" version="1" timestamp="2018-06-10T08:12:02Z" changeset="59705781" uid="3842253" user="NKA_import">
		<tag k="name" v="Lundeåsen" />
		<tag k="place" v="quarter" />
		<tag k="ssr:stedsnr" v="533379" />
		<tag k="ssr:type" v="boligfelt" />
	</node>
	<node id="5679141517" lat="59.143775" lon="9.7942056" version="1" timestamp="2018-06-10T08:12:02Z" changeset="59705781" uid="3842253" user="NKA_import">
		<tag k="name" v="Rønningen" />
		<tag k="place" v="farm" />
		<tag k="ssr:stedsnr" v="365629" />
		<tag k="ssr:type" v="bruk" />
	</node>
	<node id="5679141518" lat="59.0899833" lon="9.6499278" version="1" timestamp="2018-06-10T08:12:02Z" changeset="59705781" uid="3842253" user="NKA_import">
		<tag k="name" v="Kåsa" />
		<tag k="place" v="farm" />
		<tag k="ssr:stedsnr" v="533935" />
		<tag k="ssr:type" v="bruk" />
	</node>
	<node id="5679141519" lat="59.1463222" lon="9.636575" version="1" timestamp="2018-06-10T08:12:02Z" changeset="59705781" uid="3842253" user="NKA_import">
		<tag k="name" v="Klyve" />
		<tag k="place" v="isolated_dwelling" />
		<tag k="ssr:stedsnr" v="534443" />
		<tag k="ssr:type" v="eneboligMindreBoligbygg" />
	</node>
	<node id="5679141520" lat="59.0772281" lon="9.6833833" version="1" timestamp="2018-06-10T08:12:02Z" changeset="59705781" uid="3842253" user="NKA_import">
		<tag k="name" v="Øvre Heistad" />
		<tag k="place" v="neighbourhood" />
		<tag k="ssr:stedsnr" v="534495" />
		<tag k="ssr:type" v="forretningsbygg" />
	</node>
	<node id="5679141522" lat="59.1364353" lon="9.6678237" version="1" timestamp="2018-06-10T08:12:02Z" changeset="59705781" uid="3842253" user="NKA_import">
		<tag k="name" v="Rønningen" />
		<tag k="place" v="quarter" />
		<tag k="ssr:stedsnr" v="534528" />
		<tag k="ssr:type" v="forretningsbygg" />
	</node>
	<node id="5826865921" lat="59.056584" lon="9.692023" version="8" timestamp="2022-01-02T21:39:31Z" changeset="115686654" uid="3497659" user="NKA">
		<tag k="amenity" v="school" />
		<tag k="capacity" v="161" />
		<tag k="email" v="brevik.skole@porsgrunn.kommune.no" />
		<tag k="fee" v="no" />
		<tag k="grades" v="1-7" />
		<tag k="isced:level" v="1" />
		<tag k="name" v="Brevik oppvekstsenter" />
		<tag k="old_name" v="Åsen skole" />
		<tag k="operator" v="Porsgrunn kommune" />
		<tag k="operator:type" v="public" />
		<tag k="ref:gsi" v="8007" />
		<tag k="ref:udir_nsr" v="1006933" />
		<tag k="ssr:stedsnr" v="411863" />
		<tag k="ssr:type" v="skole" />
	</node>
	<node id="8747766255" lat="59.040688" lon="9.7421511" version="1" timestamp="2021-05-20T00:59:40Z" changeset="104988854" uid="117930" user="bmispelon" />
	<node id="8747766256" lat="59.0406581" lon="9.7422257" version="1" timestamp="2021-05-20T00:59:40Z" changeset="104988854" uid="117930" user="bmispelon" />
	<node id="8747766257" lat="59.0406439" lon="9.7422043" version="1" timestamp="2021-05-20T00:59:40Z" changeset="104988854" uid="117930" user="bmispelon" />
	<node id="8747766258" lat="59.040638" lon="9.7422191" version="1" timestamp="2021-05-20T00:59:40Z" changeset="104988854" uid="117930" user="bmispelon" />
	<node id="8747766259" lat="59.0405792" lon="9.7421302" version="1" timestamp="2021-05-20T00:59:40Z" changeset="104988854" uid="117930" user="bmispelon" />
	<node id="8747766260" lat="59.0406178" lon="9.7420337" version="1" timestamp="2021-05-20T00:59:40Z" changeset="104988854" uid="117930" user="bmispelon" />
	<node id="8747766261" lat="59.0406769" lon="9.742123" version="1" timestamp="2021-05-20T00:59:40Z" changeset="104988854" uid="117930" user="bmispelon" />
	<node id="8747766262" lat="59.0406741" lon="9.74213" version="1" timestamp="2021-05-20T00:59:40Z" changeset="104988854" uid="117930" user="bmispelon" />
	<node id="8507252750" lat="59.0292692" lon="9.8031315" version="3" timestamp="2021-06-16T22:20:56Z" changeset="106492227" uid="117930" user="bmispelon" />
	<node id="8507252751" lat="59.0293232" lon="9.8030235" version="3" timestamp="2021-06-16T22:20:56Z" changeset="106492227" uid="117930" user="bmispelon" />
	<node id="8507252754" lat="59.0291818" lon="9.8027565" version="2" timestamp="2021-06-16T22:20:56Z" changeset="106492227" uid="117930" user="bmispelon" />
	<node id="8507252792" lat="59.0291278" lon="9.8028645" version="2" timestamp="2021-06-16T22:20:56Z" changeset="106492227" uid="117930" user="bmispelon" />
	<node id="23579489" lat="59.0445903" lon="9.79059" version="3" timestamp="2020-10-22T22:11:14Z" changeset="92920761" uid="5198133" user="Wulfmorn">
		<tag k="source" v="PGS(could be inacurately)" />
	</node>
	<node id="8038349723" lat="59.0446145" lon="9.7904545" version="1" timestamp="2020-10-22T22:11:14Z" changeset="92920761" uid="5198133" user="Wulfmorn" />
	<node id="8038349724" lat="59.0446276" lon="9.7904116" version="1" timestamp="2020-10-22T22:11:14Z" changeset="92920761" uid="5198133" user="Wulfmorn" />
	<node id="8038349725" lat="59.0446352" lon="9.7902922" version="1" timestamp="2020-10-22T22:11:14Z" changeset="92920761" uid="5198133" user="Wulfmorn" />
	<node id="8038349726" lat="59.0446441" lon="9.790244" version="1" timestamp="2020-10-22T22:11:14Z" changeset="92920761" uid="5198133" user="Wulfmorn" />
	<node id="8038349727" lat="59.04466" lon="9.7902024" version="1" timestamp="2020-10-22T22:11:14Z" changeset="92920761" uid="5198133" user="Wulfmorn" />
	<node id="8038349783" lat="59.0446483" lon="9.79083" version="1" timestamp="2020-10-22T22:11:14Z" changeset="92920761" uid="5198133" user="Wulfmorn" />
	<node id="8038349784" lat="59.0446297" lon="9.790834" version="1" timestamp="2020-10-22T22:11:14Z" changeset="92920761" uid="5198133" user="Wulfmorn" />
	<node id="8038355685" lat="59.0446131" lon="9.7908112" version="1" timestamp="2020-10-22T22:11:14Z" changeset="92920761" uid="5198133" user="Wulfmorn" />
	<node id="8038355686" lat="59.0445924" lon="9.7907509" version="1" timestamp="2020-10-22T22:11:14Z" changeset="92920761" uid="5198133" user="Wulfmorn" />
	<node id="8038355687" lat="59.0445834" lon="9.7906865" version="1" timestamp="2020-10-22T22:11:14Z" changeset="92920761" uid="5198133" user="Wulfmorn" />
	<node id="23579490" lat="59.0446938" lon="9.7897974" version="3" timestamp="2020-10-22T22:11:14Z" changeset="92920761" uid="5198133" user="Wulfmorn">
		<tag k="source" v="PGS(could be inacurately)" />
	</node>
	<node id="23579493" lat="59.0450842" lon="9.7883423" version="3" timestamp="2020-10-22T22:11:14Z" changeset="92920761" uid="5198133" user="Wulfmorn">
		<tag k="source" v="PGS(could be inacurately)" />
	</node>
	<node id="23579495" lat="59.0448883" lon="9.7883181" version="3" timestamp="2020-10-22T22:11:14Z" changeset="92920761" uid="5198133" user="Wulfmorn">
		<tag k="source" v="PGS(could be inacurately)" />
	</node>
	<node id="23579497" lat="59.0448545" lon="9.7880405" version="3" timestamp="2020-10-22T22:11:14Z" changeset="92920761" uid="5198133" user="Wulfmorn">
		<tag k="source" v="PGS(could be inacurately)" />
	</node>
	<node id="23579499" lat="59.0450091" lon="9.7876865" version="3" timestamp="2020-10-22T22:11:14Z" changeset="92920761" uid="5198133" user="Wulfmorn">
		<tag k="source" v="PGS(could be inacurately)" />
	</node>
	<node id="23579502" lat="59.0451801" lon="9.7873472" version="3" timestamp="2020-10-22T22:11:14Z" changeset="92920761" uid="5198133" user="Wulfmorn">
		<tag k="source" v="PGS(could be inacurately)" />
	</node>
	<node id="23579504" lat="59.045734" lon="9.7869314" version="2" timestamp="2020-10-22T22:11:14Z" changeset="92920761" uid="5198133" user="Wulfmorn">
		<tag k="source" v="PGS(could be inacurately)" />
	</node>
	<node id="23579507" lat="59.0459258" lon="9.7866283" version="3" timestamp="2020-10-22T22:11:14Z" changeset="92920761" uid="5198133" user="Wulfmorn">
		<tag k="source" v="PGS(could be inacurately)" />
	</node>
	<node id="23579509" lat="59.0464687" lon="9.7866552" version="3" timestamp="2020-10-22T22:11:14Z" changeset="92920761" uid="5198133" user="Wulfmorn">
		<tag k="source" v="PGS(could be inacurately)" />
	</node>
	<node id="23579512" lat="59.047184" lon="9.786804" version="3" timestamp="2020-10-22T22:11:14Z" changeset="92920761" uid="5198133" user="Wulfmorn">
		<tag k="source" v="PGS(could be inacurately)" />
	</node>
	<node id="23579514" lat="59.0476068" lon="9.7868925" version="3" timestamp="2020-10-22T22:11:14Z" changeset="92920761" uid="5198133" user="Wulfmorn">
		<tag k="source" v="PGS(could be inacurately)" />
	</node>
	<node id="23579523" lat="59.0477806" lon="9.7879614" version="4" timestamp="2020-10-22T22:11:14Z" changeset="92920761" uid="5198133" user="Wulfmorn">
		<tag k="source" v="PGS(could be inacurately)" />
	</node>
	<node id="23579526" lat="59.0477648" lon="9.7887835" version="4" timestamp="2020-10-22T22:11:14Z" changeset="92920761" uid="5198133" user="Wulfmorn">
		<tag k="source" v="PGS(could be inacurately)" />
	</node>
	<node id="23579528" lat="59.0476937" lon="9.7893119" version="4" timestamp="2020-10-22T22:11:14Z" changeset="92920761" uid="5198133" user="Wulfmorn">
		<tag k="source" v="PGS(could be inacurately)" />
	</node>
	<node id="23579531" lat="59.0468343" lon="9.7904183" version="3" timestamp="2020-10-22T22:11:14Z" changeset="92920761" uid="5198133" user="Wulfmorn">
		<tag k="source" v="PGS(could be inacurately)" />
	</node>
	<node id="1813514089" lat="59.0454947" lon="9.7910433" version="2" timestamp="2020-10-22T22:11:14Z" changeset="92920761" uid="5198133" user="Wulfmorn" />
	<node id="1813514128" lat="59.0466142" lon="9.7869864" version="2" timestamp="2020-10-22T22:11:14Z" changeset="92920761" uid="5198133" user="Wulfmorn" />
	<node id="1813514131" lat="59.0466522" lon="9.7902735" version="2" timestamp="2020-10-22T22:11:14Z" changeset="92920761" uid="5198133" user="Wulfmorn" />
	<node id="1813514138" lat="59.0471578" lon="9.786808" version="2" timestamp="2020-10-22T22:11:14Z" changeset="92920761" uid="5198133" user="Wulfmorn" />
	<node id="1813514181" lat="59.0477937" lon="9.7871996" version="3" timestamp="2020-10-22T22:11:14Z" changeset="92920761" uid="5198133" user="Wulfmorn">
		<tag k="source" v="PGS(could be inacurately)" />
	</node>
	<node id="5679141459" lat="59.0477385" lon="9.7885957" version="2" timestamp="2020-10-22T22:11:14Z" changeset="92920761" uid="5198133" user="Wulfmorn" />
	<node id="8038349696" lat="59.0453822" lon="9.7872747" version="1" timestamp="2020-10-22T22:11:14Z" changeset="92920761" uid="5198133" user="Wulfmorn" />
	<node id="8038349697" lat="59.0453567" lon="9.7873673" version="1" timestamp="2020-10-22T22:11:14Z" changeset="92920761" uid="5198133" user="Wulfmorn" />
	<node id="8038349698" lat="59.0453478" lon="9.7873968" version="1" timestamp="2020-10-22T22:11:14Z" changeset="92920761" uid="5198133" user="Wulfmorn" />
	<node id="8038349699" lat="59.0451215" lon="9.7882953" version="1" timestamp="2020-10-22T22:11:14Z" changeset="92920761" uid="5198133" user="Wulfmorn" />
	<node id="8038349700" lat="59.0451298" lon="9.7882752" version="1" timestamp="2020-10-22T22:11:14Z" changeset="92920761" uid="5198133" user="Wulfmorn" />
	<node id="8038349701" lat="59.0451256" lon="9.7882444" version="1" timestamp="2020-10-22T22:11:14Z" changeset="92920761" uid="5198133" user="Wulfmorn" />
	<node id="8038349702" lat="59.045107" lon="9.7882336" version="1" timestamp="2020-10-22T22:11:14Z" changeset="92920761" uid="5198133" user="Wulfmorn" />
	<node id="8038349703" lat="59.0449477" lon="9.7883356" version="1" timestamp="2020-10-22T22:11:14Z" changeset="92920761" uid="5198133" user="Wulfmorn" />
	<node id="8038349704" lat="59.044918" lon="9.7883329" version="1" timestamp="2020-10-22T22:11:14Z" changeset="92920761" uid="5198133" user="Wulfmorn" />
	<node id="8038349705" lat="59.0448663" lon="9.788294" version="1" timestamp="2020-10-22T22:11:14Z" changeset="92920761" uid="5198133" user="Wulfmorn" />
	<node id="8038349706" lat="59.0448511" lon="9.7882336" version="1" timestamp="2020-10-22T22:11:14Z" changeset="92920761" uid="5198133" user="Wulfmorn" />
	<node id="8038349707" lat="59.0448601" lon="9.7879238" version="1" timestamp="2020-10-22T22:11:14Z" changeset="92920761" uid="5198133" user="Wulfmorn" />
	<node id="8038349708" lat="59.044869" lon="9.7878635" version="1" timestamp="2020-10-22T22:11:14Z" changeset="92920761" uid="5198133" user="Wulfmorn" />
	<node id="8038349709" lat="59.0448959" lon="9.7878273" version="1" timestamp="2020-10-22T22:11:14Z" changeset="92920761" uid="5198133" user="Wulfmorn" />
	<node id="8038349710" lat="59.0449325" lon="9.7878286" version="1" timestamp="2020-10-22T22:11:14Z" changeset="92920761" uid="5198133" user="Wulfmorn" />
	<node id="8038349711" lat="59.0449656" lon="9.7877991" version="1" timestamp="2020-10-22T22:11:14Z" changeset="92920761" uid="5198133" user="Wulfmorn" />
	<node id="8038349712" lat="59.0449835" lon="9.7877938" version="1" timestamp="2020-10-22T22:11:14Z" changeset="92920761" uid="5198133" user="Wulfmorn" />
	<node id="8038349713" lat="59.0449994" lon="9.7878098" version="1" timestamp="2020-10-22T22:11:14Z" changeset="92920761" uid="5198133" user="Wulfmorn" />
	<node id="8038349714" lat="59.0450084" lon="9.7877763" version="1" timestamp="2020-10-22T22:11:14Z" changeset="92920761" uid="5198133" user="Wulfmorn" />
	<node id="8038349715" lat="59.0450001" lon="9.7876033" version="1" timestamp="2020-10-22T22:11:14Z" changeset="92920761" uid="5198133" user="Wulfmorn" />
	<node id="8038349716" lat="59.0450153" lon="9.7875269" version="1" timestamp="2020-10-22T22:11:14Z" changeset="92920761" uid="5198133" user="Wulfmorn" />
	<node id="8038349717" lat="59.045058" lon="9.7874866" version="1" timestamp="2020-10-22T22:11:14Z" changeset="92920761" uid="5198133" user="Wulfmorn" />
	<node id="8038349718" lat="59.0450877" lon="9.7874679" version="1" timestamp="2020-10-22T22:11:14Z" changeset="92920761" uid="5198133" user="Wulfmorn" />
	<node id="8038349719" lat="59.0451249" lon="9.7874022" version="1" timestamp="2020-10-22T22:11:14Z" changeset="92920761" uid="5198133" user="Wulfmorn" />
	<node id="8038349720" lat="59.0452222" lon="9.7873324" version="1" timestamp="2020-10-22T22:11:14Z" changeset="92920761" uid="5198133" user="Wulfmorn" />
	<node id="8038349721" lat="59.0452512" lon="9.7873431" version="1" timestamp="2020-10-22T22:11:14Z" changeset="92920761" uid="5198133" user="Wulfmorn" />
	<node id="8038349722" lat="59.0453153" lon="9.7873941" version="1" timestamp="2020-10-22T22:11:14Z" changeset="92920761" uid="5198133" user="Wulfmorn" />
	<node id="8038349728" lat="59.044689" lon="9.7900844" version="1" timestamp="2020-10-22T22:11:14Z" changeset="92920761" uid="5198133" user="Wulfmorn" />
	<node id="8038349729" lat="59.0447104" lon="9.7899663" version="1" timestamp="2020-10-22T22:11:14Z" changeset="92920761" uid="5198133" user="Wulfmorn" />
	<node id="8038349730" lat="59.0447083" lon="9.7898322" version="1" timestamp="2020-10-22T22:11:14Z" changeset="92920761" uid="5198133" user="Wulfmorn" />
	<node id="8038349731" lat="59.0446883" lon="9.7897531" version="1" timestamp="2020-10-22T22:11:14Z" changeset="92920761" uid="5198133" user="Wulfmorn" />
	<node id="8038349732" lat="59.044709" lon="9.7897075" version="1" timestamp="2020-10-22T22:11:14Z" changeset="92920761" uid="5198133" user="Wulfmorn" />
	<node id="8038349733" lat="59.0447407" lon="9.7896525" version="1" timestamp="2020-10-22T22:11:14Z" changeset="92920761" uid="5198133" user="Wulfmorn" />
	<node id="8038349734" lat="59.0447621" lon="9.7895895" version="1" timestamp="2020-10-22T22:11:14Z" changeset="92920761" uid="5198133" user="Wulfmorn" />
	<node id="8038349735" lat="59.0447849" lon="9.7895385" version="1" timestamp="2020-10-22T22:11:14Z" changeset="92920761" uid="5198133" user="Wulfmorn" />
	<node id="8038349736" lat="59.0448028" lon="9.7894903" version="1" timestamp="2020-10-22T22:11:14Z" changeset="92920761" uid="5198133" user="Wulfmorn" />
	<node id="8038349737" lat="59.0448131" lon="9.7894178" version="1" timestamp="2020-10-22T22:11:14Z" changeset="92920761" uid="5198133" user="Wulfmorn" />
	<node id="8038349738" lat="59.0448062" lon="9.789336" version="1" timestamp="2020-10-22T22:11:14Z" changeset="92920761" uid="5198133" user="Wulfmorn" />
	<node id="8038349739" lat="59.0448" lon="9.7892408" version="1" timestamp="2020-10-22T22:11:14Z" changeset="92920761" uid="5198133" user="Wulfmorn" />
	<node id="8038349740" lat="59.0448428" lon="9.7891389" version="1" timestamp="2020-10-22T22:11:14Z" changeset="92920761" uid="5198133" user="Wulfmorn" />
	<node id="8038349741" lat="59.0448194" lon="9.7891697" version="1" timestamp="2020-10-22T22:11:14Z" changeset="92920761" uid="5198133" user="Wulfmorn" />
	<node id="8038349742" lat="59.0448628" lon="9.7890691" version="1" timestamp="2020-10-22T22:11:14Z" changeset="92920761" uid="5198133" user="Wulfmorn" />
	<node id="8038349743" lat="59.0448952" lon="9.7890611" version="1" timestamp="2020-10-22T22:11:14Z" changeset="92920761" uid="5198133" user="Wulfmorn" />
	<node id="8038349744" lat="59.0449346" lon="9.7890611" version="1" timestamp="2020-10-22T22:11:14Z" changeset="92920761" uid="5198133" user="Wulfmorn" />
	<node id="8038349745" lat="59.0449435" lon="9.7890396" version="1" timestamp="2020-10-22T22:11:14Z" changeset="92920761" uid="5198133" user="Wulfmorn" />
	<node id="8038349746" lat="59.0449559" lon="9.7889619" version="1" timestamp="2020-10-22T22:11:14Z" changeset="92920761" uid="5198133" user="Wulfmorn" />
	<node id="8038349747" lat="59.0449511" lon="9.7889136" version="1" timestamp="2020-10-22T22:11:14Z" changeset="92920761" uid="5198133" user="Wulfmorn" />
	<node id="8038349748" lat="59.0449504" lon="9.7888277" version="1" timestamp="2020-10-22T22:11:14Z" changeset="92920761" uid="5198133" user="Wulfmorn" />
	<node id="8038349749" lat="59.0449732" lon="9.7887647" version="1" timestamp="2020-10-22T22:11:14Z" changeset="92920761" uid="5198133" user="Wulfmorn" />
	<node id="8038349750" lat="59.0450035" lon="9.7887298" version="1" timestamp="2020-10-22T22:11:14Z" changeset="92920761" uid="5198133" user="Wulfmorn" />
	<node id="8038349751" lat="59.0450346" lon="9.7887044" version="1" timestamp="2020-10-22T22:11:14Z" changeset="92920761" uid="5198133" user="Wulfmorn" />
	<node id="8038349752" lat="59.045067" lon="9.78864" version="1" timestamp="2020-10-22T22:11:14Z" changeset="92920761" uid="5198133" user="Wulfmorn" />
	<node id="8038349753" lat="59.0450905" lon="9.7885609" version="1" timestamp="2020-10-22T22:11:14Z" changeset="92920761" uid="5198133" user="Wulfmorn" />
	<node id="8038349754" lat="59.0450884" lon="9.7885153" version="1" timestamp="2020-10-22T22:11:14Z" changeset="92920761" uid="5198133" user="Wulfmorn" />
	<node id="8038349755" lat="59.0450808" lon="9.7884509" version="1" timestamp="2020-10-22T22:11:14Z" changeset="92920761" uid="5198133" user="Wulfmorn" />
	<node id="8038349756" lat="59.0450773" lon="9.7883959" version="1" timestamp="2020-10-22T22:11:14Z" changeset="92920761" uid="5198133" user="Wulfmorn" />
	<node id="8038349757" lat="59.0450084" lon="9.7906208" version="1" timestamp="2020-10-22T22:11:14Z" changeset="92920761" uid="5198133" user="Wulfmorn" />
	<node id="8038349758" lat="59.0450353" lon="9.7905926" version="1" timestamp="2020-10-22T22:11:14Z" changeset="92920761" uid="5198133" user="Wulfmorn" />
	<node id="8038349759" lat="59.0450539" lon="9.7905967" version="1" timestamp="2020-10-22T22:11:14Z" changeset="92920761" uid="5198133" user="Wulfmorn" />
	<node id="8038349760" lat="59.0450725" lon="9.7906503" version="1" timestamp="2020-10-22T22:11:14Z" changeset="92920761" uid="5198133" user="Wulfmorn" />
	<node id="8038349761" lat="59.045076" lon="9.7906999" version="1" timestamp="2020-10-22T22:11:14Z" changeset="92920761" uid="5198133" user="Wulfmorn" />
	<node id="8038349762" lat="59.0450635" lon="9.7907214" version="1" timestamp="2020-10-22T22:11:14Z" changeset="92920761" uid="5198133" user="Wulfmorn" />
	<node id="8038349770" lat="59.0447883" lon="9.7910553" version="1" timestamp="2020-10-22T22:11:14Z" changeset="92920761" uid="5198133" user="Wulfmorn" />
	<node id="8038349771" lat="59.0448187" lon="9.7910164" version="1" timestamp="2020-10-22T22:11:14Z" changeset="92920761" uid="5198133" user="Wulfmorn" />
	<node id="8038349772" lat="59.0448518" lon="9.790995" version="1" timestamp="2020-10-22T22:11:14Z" changeset="92920761" uid="5198133" user="Wulfmorn" />
	<node id="8038349773" lat="59.044898" lon="9.7909521" version="1" timestamp="2020-10-22T22:11:14Z" changeset="92920761" uid="5198133" user="Wulfmorn" />
	<node id="8038349774" lat="59.044949" lon="9.7908689" version="1" timestamp="2020-10-22T22:11:14Z" changeset="92920761" uid="5198133" user="Wulfmorn" />
	<node id="8038349775" lat="59.0449849" lon="9.7908059" version="1" timestamp="2020-10-22T22:11:14Z" changeset="92920761" uid="5198133" user="Wulfmorn" />
	<node id="8038349776" lat="59.0449697" lon="9.7906892" version="1" timestamp="2020-10-22T22:11:14Z" changeset="92920761" uid="5198133" user="Wulfmorn" />
	<node id="8038349777" lat="59.0449339" lon="9.7907308" version="1" timestamp="2020-10-22T22:11:14Z" changeset="92920761" uid="5198133" user="Wulfmorn" />
	<node id="8038349778" lat="59.0448856" lon="9.790767" version="1" timestamp="2020-10-22T22:11:14Z" changeset="92920761" uid="5198133" user="Wulfmorn" />
	<node id="8038349779" lat="59.0448352" lon="9.7907951" version="1" timestamp="2020-10-22T22:11:14Z" changeset="92920761" uid="5198133" user="Wulfmorn" />
	<node id="8038349780" lat="59.0447862" lon="9.7908099" version="1" timestamp="2020-10-22T22:11:14Z" changeset="92920761" uid="5198133" user="Wulfmorn" />
	<node id="8038349781" lat="59.0447449" lon="9.7908059" version="1" timestamp="2020-10-22T22:11:14Z" changeset="92920761" uid="5198133" user="Wulfmorn" />
	<node id="8038349782" lat="59.0447104" lon="9.7908045" version="1" timestamp="2020-10-22T22:11:14Z" changeset="92920761" uid="5198133" user="Wulfmorn" />
	<node id="8038355586" lat="59.046508" lon="9.7870414" version="1" timestamp="2020-10-22T22:11:14Z" changeset="92920761" uid="5198133" user="Wulfmorn" />
	<node id="8038355587" lat="59.0464763" lon="9.7869006" version="1" timestamp="2020-10-22T22:11:14Z" changeset="92920761" uid="5198133" user="Wulfmorn" />
	<node id="8038355588" lat="59.0465611" lon="9.7867168" version="1" timestamp="2020-10-22T22:11:14Z" changeset="92920761" uid="5198133" user="Wulfmorn" />
	<node id="8038355589" lat="59.0465646" lon="9.786682" version="1" timestamp="2020-10-22T22:11:14Z" changeset="92920761" uid="5198133" user="Wulfmorn" />
	<node id="8038355590" lat="59.0465218" lon="9.7866766" version="1" timestamp="2020-10-22T22:11:14Z" changeset="92920761" uid="5198133" user="Wulfmorn" />
	<node id="8038355591" lat="59.0464204" lon="9.7866216" version="1" timestamp="2020-10-22T22:11:14Z" changeset="92920761" uid="5198133" user="Wulfmorn" />
	<node id="8038355592" lat="59.0463162" lon="9.7865868" version="1" timestamp="2020-10-22T22:11:14Z" changeset="92920761" uid="5198133" user="Wulfmorn" />
	<node id="8038355593" lat="59.0462797" lon="9.7866069" version="1" timestamp="2020-10-22T22:11:14Z" changeset="92920761" uid="5198133" user="Wulfmorn" />
	<node id="8038355594" lat="59.0461583" lon="9.786682" version="1" timestamp="2020-10-22T22:11:14Z" changeset="92920761" uid="5198133" user="Wulfmorn" />
	<node id="8038355595" lat="59.0460845" lon="9.7866659" version="1" timestamp="2020-10-22T22:11:14Z" changeset="92920761" uid="5198133" user="Wulfmorn" />
	<node id="8038355596" lat="59.0457554" lon="9.7868617" version="1" timestamp="2020-10-22T22:11:14Z" changeset="92920761" uid="5198133" user="Wulfmorn" />
	<node id="8038355597" lat="59.0457692" lon="9.7868188" version="1" timestamp="2020-10-22T22:11:14Z" changeset="92920761" uid="5198133" user="Wulfmorn" />
	<node id="8038355598" lat="59.045803" lon="9.7867946" version="1" timestamp="2020-10-22T22:11:14Z" changeset="92920761" uid="5198133" user="Wulfmorn" />
	<node id="8038355599" lat="59.0458244" lon="9.7868013" version="1" timestamp="2020-10-22T22:11:14Z" changeset="92920761" uid="5198133" user="Wulfmorn" />
	<node id="8038355600" lat="59.0458603" lon="9.786855" version="1" timestamp="2020-10-22T22:11:14Z" changeset="92920761" uid="5198133" user="Wulfmorn" />
	<node id="8038355601" lat="59.0458927" lon="9.7869073" version="1" timestamp="2020-10-22T22:11:14Z" changeset="92920761" uid="5198133" user="Wulfmorn" />
	<node id="8038355602" lat="59.0459279" lon="9.7869354" version="1" timestamp="2020-10-22T22:11:14Z" changeset="92920761" uid="5198133" user="Wulfmorn" />
	<node id="8038355603" lat="59.0459527" lon="9.7869287" version="1" timestamp="2020-10-22T22:11:14Z" changeset="92920761" uid="5198133" user="Wulfmorn" />
	<node id="8038355604" lat="59.0459575" lon="9.7868966" version="1" timestamp="2020-10-22T22:11:14Z" changeset="92920761" uid="5198133" user="Wulfmorn" />
	<node id="8038355605" lat="59.0459541" lon="9.7868563" version="1" timestamp="2020-10-22T22:11:14Z" changeset="92920761" uid="5198133" user="Wulfmorn" />
	<node id="8038355606" lat="59.0459527" lon="9.7868215" version="1" timestamp="2020-10-22T22:11:14Z" changeset="92920761" uid="5198133" user="Wulfmorn" />
	<node id="8038355607" lat="59.0459272" lon="9.786745" version="1" timestamp="2020-10-22T22:11:14Z" changeset="92920761" uid="5198133" user="Wulfmorn" />
	<node id="8038355608" lat="59.0459161" lon="9.786678" version="1" timestamp="2020-10-22T22:11:14Z" changeset="92920761" uid="5198133" user="Wulfmorn" />
	<node id="8038355609" lat="59.0459686" lon="9.7865881" version="1" timestamp="2020-10-22T22:11:14Z" changeset="92920761" uid="5198133" user="Wulfmorn" />
	<node id="8038355610" lat="59.0459962" lon="9.7865894" version="1" timestamp="2020-10-22T22:11:14Z" changeset="92920761" uid="5198133" user="Wulfmorn" />
	<node id="8038355611" lat="59.0457168" lon="9.7870293" version="1" timestamp="2020-10-22T22:11:14Z" changeset="92920761" uid="5198133" user="Wulfmorn" />
	<node id="8038355612" lat="59.0457451" lon="9.7870789" version="1" timestamp="2020-10-22T22:11:14Z" changeset="92920761" uid="5198133" user="Wulfmorn" />
	<node id="8038355613" lat="59.0457396" lon="9.787146" version="1" timestamp="2020-10-22T22:11:14Z" changeset="92920761" uid="5198133" user="Wulfmorn" />
	<node id="8038355614" lat="59.0457168" lon="9.7872198" version="1" timestamp="2020-10-22T22:11:14Z" changeset="92920761" uid="5198133" user="Wulfmorn" />
	<node id="8038355615" lat="59.0456782" lon="9.7872144" version="1" timestamp="2020-10-22T22:11:14Z" changeset="92920761" uid="5198133" user="Wulfmorn" />
	<node id="8038355616" lat="59.0456044" lon="9.7871755" version="1" timestamp="2020-10-22T22:11:14Z" changeset="92920761" uid="5198133" user="Wulfmorn" />
	<node id="8038355617" lat="59.045565" lon="9.7871889" version="1" timestamp="2020-10-22T22:11:14Z" changeset="92920761" uid="5198133" user="Wulfmorn" />
	<node id="8038355618" lat="59.0455368" lon="9.7872291" version="1" timestamp="2020-10-22T22:11:14Z" changeset="92920761" uid="5198133" user="Wulfmorn" />
	<node id="8038355619" lat="59.0454892" lon="9.7872345" version="1" timestamp="2020-10-22T22:11:14Z" changeset="92920761" uid="5198133" user="Wulfmorn" />
	<node id="8038355620" lat="59.0454222" lon="9.7872184" version="1" timestamp="2020-10-22T22:11:14Z" changeset="92920761" uid="5198133" user="Wulfmorn" />
	<node id="8038355621" lat="59.0454036" lon="9.7872251" version="1" timestamp="2020-10-22T22:11:14Z" changeset="92920761" uid="5198133" user="Wulfmorn" />
	<node id="8038355709" lat="59.0456927" lon="9.7910634" version="1" timestamp="2020-10-22T22:11:14Z" changeset="92920761" uid="5198133" user="Wulfmorn" />
	<node id="8038355710" lat="59.0456885" lon="9.7910339" version="1" timestamp="2020-10-22T22:11:14Z" changeset="92920761" uid="5198133" user="Wulfmorn" />
	<node id="8038355711" lat="59.0456733" lon="9.791007" version="1" timestamp="2020-10-22T22:11:14Z" changeset="92920761" uid="5198133" user="Wulfmorn" />
	<node id="8038355712" lat="59.0456526" lon="9.7909842" version="1" timestamp="2020-10-22T22:11:14Z" changeset="92920761" uid="5198133" user="Wulfmorn" />
	<node id="8038355713" lat="59.045643" lon="9.7909507" version="1" timestamp="2020-10-22T22:11:14Z" changeset="92920761" uid="5198133" user="Wulfmorn" />
	<node id="8038355714" lat="59.0456264" lon="9.7909105" version="1" timestamp="2020-10-22T22:11:14Z" changeset="92920761" uid="5198133" user="Wulfmorn" />
	<node id="8038355715" lat="59.0456064" lon="9.7908917" version="1" timestamp="2020-10-22T22:11:14Z" changeset="92920761" uid="5198133" user="Wulfmorn" />
	<node id="8038355716" lat="59.0455692" lon="9.7909145" version="1" timestamp="2020-10-22T22:11:14Z" changeset="92920761" uid="5198133" user="Wulfmorn" />
	<node id="8038355717" lat="59.0455333" lon="9.7909708" version="1" timestamp="2020-10-22T22:11:14Z" changeset="92920761" uid="5198133" user="Wulfmorn" />
	<node id="8038355732" lat="59.0462459" lon="9.7909601" version="1" timestamp="2020-10-22T22:11:14Z" changeset="92920761" uid="5198133" user="Wulfmorn" />
	<node id="8038355733" lat="59.04627" lon="9.7908917" version="1" timestamp="2020-10-22T22:11:14Z" changeset="92920761" uid="5198133" user="Wulfmorn" />
	<node id="8038355734" lat="59.04629" lon="9.7908327" version="1" timestamp="2020-10-22T22:11:14Z" changeset="92920761" uid="5198133" user="Wulfmorn" />
	<node id="8038355735" lat="59.0463121" lon="9.7908153" version="1" timestamp="2020-10-22T22:11:14Z" changeset="92920761" uid="5198133" user="Wulfmorn" />
	<node id="8038355736" lat="59.0463383" lon="9.7908059" version="1" timestamp="2020-10-22T22:11:14Z" changeset="92920761" uid="5198133" user="Wulfmorn" />
	<node id="8038355737" lat="59.0463659" lon="9.7907442" version="1" timestamp="2020-10-22T22:11:14Z" changeset="92920761" uid="5198133" user="Wulfmorn" />
	<node id="8038355738" lat="59.0463824" lon="9.7906718" version="1" timestamp="2020-10-22T22:11:14Z" changeset="92920761" uid="5198133" user="Wulfmorn" />
	<node id="8038355739" lat="59.0464156" lon="9.7905886" version="1" timestamp="2020-10-22T22:11:14Z" changeset="92920761" uid="5198133" user="Wulfmorn" />
	<node id="8038355740" lat="59.0468791" lon="9.7903982" version="1" timestamp="2020-10-22T22:11:14Z" changeset="92920761" uid="5198133" user="Wulfmorn" />
	<node id="8038355741" lat="59.046797" lon="9.7904478" version="1" timestamp="2020-10-22T22:11:14Z" changeset="92920761" uid="5198133" user="Wulfmorn" />
	<node id="8038355742" lat="59.046766" lon="9.7904532" version="1" timestamp="2020-10-22T22:11:14Z" changeset="92920761" uid="5198133" user="Wulfmorn" />
	<node id="8038355743" lat="59.0467342" lon="9.7904411" version="1" timestamp="2020-10-22T22:11:14Z" changeset="92920761" uid="5198133" user="Wulfmorn" />
	<node id="8038355744" lat="59.0467287" lon="9.790425" version="1" timestamp="2020-10-22T22:11:14Z" changeset="92920761" uid="5198133" user="Wulfmorn" />
	<node id="8038355745" lat="59.0467322" lon="9.7903928" version="1" timestamp="2020-10-22T22:11:14Z" changeset="92920761" uid="5198133" user="Wulfmorn" />
	<node id="8038355746" lat="59.0467473" lon="9.7903432" version="1" timestamp="2020-10-22T22:11:14Z" changeset="92920761" uid="5198133" user="Wulfmorn" />
	<node id="8038355747" lat="59.0467653" lon="9.7902855" version="1" timestamp="2020-10-22T22:11:14Z" changeset="92920761" uid="5198133" user="Wulfmorn" />
	<node id="8038355748" lat="59.0467673" lon="9.7902386" version="1" timestamp="2020-10-22T22:11:14Z" changeset="92920761" uid="5198133" user="Wulfmorn" />
	<node id="8038355749" lat="59.0467529" lon="9.7902037" version="1" timestamp="2020-10-22T22:11:14Z" changeset="92920761" uid="5198133" user="Wulfmorn" />
	<node id="8038355750" lat="59.0467308" lon="9.7901903" version="1" timestamp="2020-10-22T22:11:14Z" changeset="92920761" uid="5198133" user="Wulfmorn" />
	<node id="8038355751" lat="59.0467025" lon="9.7902064" version="1" timestamp="2020-10-22T22:11:14Z" changeset="92920761" uid="5198133" user="Wulfmorn" />
	<node id="8038355752" lat="59.0470184" lon="9.7902185" version="1" timestamp="2020-10-22T22:11:14Z" changeset="92920761" uid="5198133" user="Wulfmorn" />
	<node id="8038355753" lat="59.0470274" lon="9.7901796" version="1" timestamp="2020-10-22T22:11:14Z" changeset="92920761" uid="5198133" user="Wulfmorn" />
	<node id="8038355754" lat="59.0470239" lon="9.7901259" version="1" timestamp="2020-10-22T22:11:14Z" changeset="92920761" uid="5198133" user="Wulfmorn" />
	<node id="8038355755" lat="59.0470053" lon="9.7900964" version="1" timestamp="2020-10-22T22:11:14Z" changeset="92920761" uid="5198133" user="Wulfmorn" />
	<node id="8038355756" lat="59.0469729" lon="9.7900951" version="1" timestamp="2020-10-22T22:11:14Z" changeset="92920761" uid="5198133" user="Wulfmorn" />
	<node id="8038355757" lat="59.0469508" lon="9.7901286" version="1" timestamp="2020-10-22T22:11:14Z" changeset="92920761" uid="5198133" user="Wulfmorn" />
	<node id="8038355758" lat="59.0469391" lon="9.7901796" version="1" timestamp="2020-10-22T22:11:14Z" changeset="92920761" uid="5198133" user="Wulfmorn" />
	<node id="8038355759" lat="59.0469412" lon="9.7902453" version="1" timestamp="2020-10-22T22:11:14Z" changeset="92920761" uid="5198133" user="Wulfmorn" />
	<node id="8038355760" lat="59.0469239" lon="9.790311" version="1" timestamp="2020-10-22T22:11:14Z" changeset="92920761" uid="5198133" user="Wulfmorn" />
	<node id="8038355761" lat="59.0470184" lon="9.79026" version="1" timestamp="2020-10-22T22:11:14Z" changeset="92920761" uid="5198133" user="Wulfmorn" />
	<node id="8038355762" lat="59.0470308" lon="9.7902748" version="1" timestamp="2020-10-22T22:11:14Z" changeset="92920761" uid="5198133" user="Wulfmorn" />
	<node id="8038355763" lat="59.0470646" lon="9.7902708" version="1" timestamp="2020-10-22T22:11:14Z" changeset="92920761" uid="5198133" user="Wulfmorn" />
	<node id="8038355764" lat="59.0471053" lon="9.7902158" version="1" timestamp="2020-10-22T22:11:14Z" changeset="92920761" uid="5198133" user="Wulfmorn" />
	<node id="8038355765" lat="59.0472661" lon="9.7899435" version="1" timestamp="2020-10-22T22:11:14Z" changeset="92920761" uid="5198133" user="Wulfmorn" />
	<node id="8038355766" lat="59.0473668" lon="9.7897974" version="1" timestamp="2020-10-22T22:11:14Z" changeset="92920761" uid="5198133" user="Wulfmorn" />
	<node id="8038355767" lat="59.0474082" lon="9.7897209" version="1" timestamp="2020-10-22T22:11:14Z" changeset="92920761" uid="5198133" user="Wulfmorn" />
	<node id="8038355768" lat="59.0474557" lon="9.7897008" version="1" timestamp="2020-10-22T22:11:14Z" changeset="92920761" uid="5198133" user="Wulfmorn" />
	<node id="8038355769" lat="59.0474958" lon="9.7896512" version="1" timestamp="2020-10-22T22:11:14Z" changeset="92920761" uid="5198133" user="Wulfmorn" />
	<node id="8038355770" lat="59.0475213" lon="9.7895774" version="1" timestamp="2020-10-22T22:11:14Z" changeset="92920761" uid="5198133" user="Wulfmorn" />
	<node id="8038355771" lat="59.0475571" lon="9.7895318" version="1" timestamp="2020-10-22T22:11:14Z" changeset="92920761" uid="5198133" user="Wulfmorn" />
	<node id="8038355772" lat="59.0477047" lon="9.7892663" version="1" timestamp="2020-10-22T22:11:14Z" changeset="92920761" uid="5198133" user="Wulfmorn" />
	<node id="8038355773" lat="59.0476937" lon="9.7892381" version="1" timestamp="2020-10-22T22:11:14Z" changeset="92920761" uid="5198133" user="Wulfmorn" />
	<node id="8038355774" lat="59.0476565" lon="9.7891563" version="1" timestamp="2020-10-22T22:11:14Z" changeset="92920761" uid="5198133" user="Wulfmorn" />
	<node id="8038355775" lat="59.0476509" lon="9.7891054" version="1" timestamp="2020-10-22T22:11:14Z" changeset="92920761" uid="5198133" user="Wulfmorn" />
	<node id="8038355776" lat="59.0476627" lon="9.7890812" version="1" timestamp="2020-10-22T22:11:14Z" changeset="92920761" uid="5198133" user="Wulfmorn" />
	<node id="8038355777" lat="59.0477034" lon="9.789045" version="1" timestamp="2020-10-22T22:11:14Z" changeset="92920761" uid="5198133" user="Wulfmorn" />
	<node id="8038355778" lat="59.0477448" lon="9.7889444" version="1" timestamp="2020-10-22T22:11:14Z" changeset="92920761" uid="5198133" user="Wulfmorn" />
	<node id="8038355779" lat="59.0477627" lon="9.7888452" version="1" timestamp="2020-10-22T22:11:14Z" changeset="92920761" uid="5198133" user="Wulfmorn" />
	<node id="8038355780" lat="59.0477503" lon="9.788691" version="1" timestamp="2020-10-22T22:11:14Z" changeset="92920761" uid="5198133" user="Wulfmorn" />
	<node id="8038355781" lat="59.0477379" lon="9.7884831" version="1" timestamp="2020-10-22T22:11:14Z" changeset="92920761" uid="5198133" user="Wulfmorn" />
	<node id="8038355782" lat="59.0477544" lon="9.7883932" version="1" timestamp="2020-10-22T22:11:14Z" changeset="92920761" uid="5198133" user="Wulfmorn" />
	<node id="8038355783" lat="59.0477586" lon="9.7883087" version="1" timestamp="2020-10-22T22:11:14Z" changeset="92920761" uid="5198133" user="Wulfmorn" />
	<node id="8038355784" lat="59.0477344" lon="9.7882041" version="1" timestamp="2020-10-22T22:11:14Z" changeset="92920761" uid="5198133" user="Wulfmorn" />
	<node id="8038355785" lat="59.0477399" lon="9.788074" version="1" timestamp="2020-10-22T22:11:14Z" changeset="92920761" uid="5198133" user="Wulfmorn" />
	<node id="8038355786" lat="59.047851" lon="9.7878622" version="1" timestamp="2020-10-22T22:11:14Z" changeset="92920761" uid="5198133" user="Wulfmorn" />
	<node id="8038355787" lat="59.0479448" lon="9.7877763" version="1" timestamp="2020-10-22T22:11:14Z" changeset="92920761" uid="5198133" user="Wulfmorn" />
	<node id="8038355788" lat="59.0479551" lon="9.7877468" version="1" timestamp="2020-10-22T22:11:14Z" changeset="92920761" uid="5198133" user="Wulfmorn" />
	<node id="8038355789" lat="59.0479393" lon="9.7877173" version="1" timestamp="2020-10-22T22:11:14Z" changeset="92920761" uid="5198133" user="Wulfmorn" />
	<node id="8038355790" lat="59.0479324" lon="9.7876663" version="1" timestamp="2020-10-22T22:11:14Z" changeset="92920761" uid="5198133" user="Wulfmorn" />
	<node id="8038355791" lat="59.0479579" lon="9.7875175" version="1" timestamp="2020-10-22T22:11:14Z" changeset="92920761" uid="5198133" user="Wulfmorn" />
	<node id="8038355792" lat="59.0479675" lon="9.7874545" version="1" timestamp="2020-10-22T22:11:14Z" changeset="92920761" uid="5198133" user="Wulfmorn" />
	<node id="8038355793" lat="59.0479413" lon="9.7873995" version="1" timestamp="2020-10-22T22:11:14Z" changeset="92920761" uid="5198133" user="Wulfmorn" />
	<node id="8038355794" lat="59.0479034" lon="9.7874048" version="1" timestamp="2020-10-22T22:11:14Z" changeset="92920761" uid="5198133" user="Wulfmorn" />
	<node id="8038355795" lat="59.0478668" lon="9.7874343" version="1" timestamp="2020-10-22T22:11:14Z" changeset="92920761" uid="5198133" user="Wulfmorn" />
	<node id="8038355796" lat="59.0478213" lon="9.7874182" version="1" timestamp="2020-10-22T22:11:14Z" changeset="92920761" uid="5198133" user="Wulfmorn" />
	<node id="8038355797" lat="59.0477937" lon="9.7873592" version="1" timestamp="2020-10-22T22:11:14Z" changeset="92920761" uid="5198133" user="Wulfmorn" />
	<node id="8038355798" lat="59.047782" lon="9.7873043" version="1" timestamp="2020-10-22T22:11:14Z" changeset="92920761" uid="5198133" user="Wulfmorn" />
	<node id="8038355799" lat="59.0478061" lon="9.7871192" version="1" timestamp="2020-10-22T22:11:14Z" changeset="92920761" uid="5198133" user="Wulfmorn" />
	<node id="8038355800" lat="59.0476123" lon="9.7869542" version="1" timestamp="2020-10-22T22:11:14Z" changeset="92920761" uid="5198133" user="Wulfmorn" />
	<node id="8038355801" lat="59.0476337" lon="9.7869931" version="1" timestamp="2020-10-22T22:11:14Z" changeset="92920761" uid="5198133" user="Wulfmorn" />
	<node id="8038355802" lat="59.0476578" lon="9.7869971" version="1" timestamp="2020-10-22T22:11:14Z" changeset="92920761" uid="5198133" user="Wulfmorn" />
	<node id="8038355803" lat="59.0476882" lon="9.7869717" version="1" timestamp="2020-10-22T22:11:14Z" changeset="92920761" uid="5198133" user="Wulfmorn" />
	<node id="8038355804" lat="59.0477206" lon="9.7869354" version="1" timestamp="2020-10-22T22:11:14Z" changeset="92920761" uid="5198133" user="Wulfmorn" />
	<node id="8038355805" lat="59.0477558" lon="9.7869435" version="1" timestamp="2020-10-22T22:11:14Z" changeset="92920761" uid="5198133" user="Wulfmorn" />
	<node id="8038355806" lat="59.0477875" lon="9.7870092" version="1" timestamp="2020-10-22T22:11:14Z" changeset="92920761" uid="5198133" user="Wulfmorn" />
	<node id="8038355807" lat="59.047593" lon="9.7868429" version="1" timestamp="2020-10-22T22:11:14Z" changeset="92920761" uid="5198133" user="Wulfmorn" />
	<node id="8038355808" lat="59.047562" lon="9.7867987" version="1" timestamp="2020-10-22T22:11:14Z" changeset="92920761" uid="5198133" user="Wulfmorn" />
	<node id="8038355809" lat="59.0475227" lon="9.7867919" version="1" timestamp="2020-10-22T22:11:14Z" changeset="92920761" uid="5198133" user="Wulfmorn" />
	<node id="8038355810" lat="59.0474889" lon="9.7868161" version="1" timestamp="2020-10-22T22:11:14Z" changeset="92920761" uid="5198133" user="Wulfmorn" />
	<node id="8038355811" lat="59.0474157" lon="9.7869462" version="1" timestamp="2020-10-22T22:11:14Z" changeset="92920761" uid="5198133" user="Wulfmorn" />
	<node id="8038355812" lat="59.0473764" lon="9.786977" version="1" timestamp="2020-10-22T22:11:14Z" changeset="92920761" uid="5198133" user="Wulfmorn" />
	<node id="8038355813" lat="59.0473468" lon="9.7869542" version="1" timestamp="2020-10-22T22:11:14Z" changeset="92920761" uid="5198133" user="Wulfmorn" />
	<node id="8038355814" lat="59.0473068" lon="9.7868885" version="1" timestamp="2020-10-22T22:11:14Z" changeset="92920761" uid="5198133" user="Wulfmorn" />
	<node id="8038355815" lat="59.0472536" lon="9.7868268" version="1" timestamp="2020-10-22T22:11:14Z" changeset="92920761" uid="5198133" user="Wulfmorn" />
	<node id="8038355816" lat="59.0472198" lon="9.7868255" version="1" timestamp="2020-10-22T22:11:14Z" changeset="92920761" uid="5198133" user="Wulfmorn" />
	<node id="8038355817" lat="59.0471391" lon="9.7868322" version="1" timestamp="2020-10-22T22:11:14Z" changeset="92920761" uid="5198133" user="Wulfmorn" />
	<node id="8038355818" lat="59.0471281" lon="9.7868818" version="1" timestamp="2020-10-22T22:11:14Z" changeset="92920761" uid="5198133" user="Wulfmorn" />
	<node id="8038355819" lat="59.0470971" lon="9.7869261" version="1" timestamp="2020-10-22T22:11:14Z" changeset="92920761" uid="5198133" user="Wulfmorn" />
	<node id="8038355820" lat="59.0470419" lon="9.7869515" version="1" timestamp="2020-10-22T22:11:14Z" changeset="92920761" uid="5198133" user="Wulfmorn" />
	<node id="8038355821" lat="59.0469964" lon="9.7869408" version="1" timestamp="2020-10-22T22:11:14Z" changeset="92920761" uid="5198133" user="Wulfmorn" />
	<node id="8038355822" lat="59.0469701" lon="9.7869059" version="1" timestamp="2020-10-22T22:11:14Z" changeset="92920761" uid="5198133" user="Wulfmorn" />
	<node id="8038355823" lat="59.0469212" lon="9.7868791" version="1" timestamp="2020-10-22T22:11:14Z" changeset="92920761" uid="5198133" user="Wulfmorn" />
	<node id="8038355824" lat="59.0468936" lon="9.7868496" version="1" timestamp="2020-10-22T22:11:14Z" changeset="92920761" uid="5198133" user="Wulfmorn" />
	<node id="8038355825" lat="59.0468708" lon="9.7868027" version="1" timestamp="2020-10-22T22:11:14Z" changeset="92920761" uid="5198133" user="Wulfmorn" />
	<node id="8038355826" lat="59.0468129" lon="9.7867933" version="1" timestamp="2020-10-22T22:11:14Z" changeset="92920761" uid="5198133" user="Wulfmorn" />
	<node id="8038355827" lat="59.0465411" lon="9.7870374" version="1" timestamp="2020-10-22T22:11:14Z" changeset="92920761" uid="5198133" user="Wulfmorn" />
	<node id="8038355828" lat="59.0464866" lon="9.7870105" version="1" timestamp="2020-10-22T22:11:14Z" changeset="92920761" uid="5198133" user="Wulfmorn" />
	<node id="8038355829" lat="59.0464728" lon="9.786969" version="1" timestamp="2020-10-22T22:11:14Z" changeset="92920761" uid="5198133" user="Wulfmorn" />
	<node id="8038355830" lat="59.0464859" lon="9.7868174" version="1" timestamp="2020-10-22T22:11:14Z" changeset="92920761" uid="5198133" user="Wulfmorn" />
	<node id="8038355831" lat="59.0465418" lon="9.7867531" version="1" timestamp="2020-10-22T22:11:14Z" changeset="92920761" uid="5198133" user="Wulfmorn" />
	<node id="8038355832" lat="59.046548" lon="9.7866699" version="1" timestamp="2020-10-22T22:11:14Z" changeset="92920761" uid="5198133" user="Wulfmorn" />
	<node id="8038355833" lat="59.0463555" lon="9.7866055" version="1" timestamp="2020-10-22T22:11:14Z" changeset="92920761" uid="5198133" user="Wulfmorn" />
	<node id="8038355834" lat="59.0462355" lon="9.7866485" version="1" timestamp="2020-10-22T22:11:14Z" changeset="92920761" uid="5198133" user="Wulfmorn" />
	<node id="8038355835" lat="59.0462024" lon="9.7866417" version="1" timestamp="2020-10-22T22:11:14Z" changeset="92920761" uid="5198133" user="Wulfmorn" />
	<node id="8038355836" lat="59.0461383" lon="9.7866873" version="1" timestamp="2020-10-22T22:11:14Z" changeset="92920761" uid="5198133" user="Wulfmorn" />
	<node id="8038355837" lat="59.0460348" lon="9.7866082" version="1" timestamp="2020-10-22T22:11:14Z" changeset="92920761" uid="5198133" user="Wulfmorn" />
	<node id="23579533" lat="59.0461817" lon="9.7911224" version="3" timestamp="2020-10-22T22:11:14Z" changeset="92920761" uid="5198133" user="Wulfmorn">
		<tag k="source" v="PGS(could be inacurately)" />
	</node>
	<node id="23579535" lat="59.0456099" lon="9.7913732" version="3" timestamp="2020-10-22T22:11:14Z" changeset="92920761" uid="5198133" user="Wulfmorn">
		<tag k="source" v="PGS(could be inacurately)" />
	</node>
	<node id="23579538" lat="59.04476" lon="9.7912511" version="3" timestamp="2020-10-22T22:11:14Z" changeset="92920761" uid="5198133" user="Wulfmorn">
		<tag k="source" v="PGS(could be inacurately)" />
	</node>
	<node id="1813514085" lat="59.045087" lon="9.791408" version="2" timestamp="2020-10-22T22:11:14Z" changeset="92920761" uid="5198133" user="Wulfmorn" />
	<node id="1813514098" lat="59.0455368" lon="9.7913866" version="2" timestamp="2020-10-22T22:11:14Z" changeset="92920761" uid="5198133" user="Wulfmorn" />
	<node id="8038349763" lat="59.0448738" lon="9.7913048" version="1" timestamp="2020-10-22T22:11:14Z" changeset="92920761" uid="5198133" user="Wulfmorn" />
	<node id="8038349764" lat="59.0448131" lon="9.7912967" version="1" timestamp="2020-10-22T22:11:14Z" changeset="92920761" uid="5198133" user="Wulfmorn" />
	<node id="8038349765" lat="59.0447987" lon="9.7912779" version="1" timestamp="2020-10-22T22:11:14Z" changeset="92920761" uid="5198133" user="Wulfmorn" />
	<node id="8038349766" lat="59.04478" lon="9.7912404" version="1" timestamp="2020-10-22T22:11:14Z" changeset="92920761" uid="5198133" user="Wulfmorn" />
	<node id="8038349767" lat="59.0447359" lon="9.7912149" version="1" timestamp="2020-10-22T22:11:14Z" changeset="92920761" uid="5198133" user="Wulfmorn" />
	<node id="8038349768" lat="59.0447442" lon="9.7911599" version="1" timestamp="2020-10-22T22:11:14Z" changeset="92920761" uid="5198133" user="Wulfmorn" />
	<node id="8038349769" lat="59.0447655" lon="9.7911157" version="1" timestamp="2020-10-22T22:11:14Z" changeset="92920761" uid="5198133" user="Wulfmorn" />
	<node id="8038355688" lat="59.0449194" lon="9.7913343" version="1" timestamp="2020-10-22T22:11:14Z" changeset="92920761" uid="5198133" user="Wulfmorn" />
	<node id="8038355689" lat="59.044958" lon="9.7913396" version="1" timestamp="2020-10-22T22:11:14Z" changeset="92920761" uid="5198133" user="Wulfmorn" />
	<node id="8038355690" lat="59.0449939" lon="9.7913316" version="1" timestamp="2020-10-22T22:11:14Z" changeset="92920761" uid="5198133" user="Wulfmorn" />
	<node id="8038355691" lat="59.0450449" lon="9.7913772" version="1" timestamp="2020-10-22T22:11:14Z" changeset="92920761" uid="5198133" user="Wulfmorn" />
	<node id="8038355692" lat="59.0451236" lon="9.7913624" version="1" timestamp="2020-10-22T22:11:14Z" changeset="92920761" uid="5198133" user="Wulfmorn" />
	<node id="8038355693" lat="59.0451594" lon="9.7913209" version="1" timestamp="2020-10-22T22:11:14Z" changeset="92920761" uid="5198133" user="Wulfmorn" />
	<node id="8038355694" lat="59.0451753" lon="9.79129" version="1" timestamp="2020-10-22T22:11:14Z" changeset="92920761" uid="5198133" user="Wulfmorn" />
	<node id="8038355695" lat="59.0451925" lon="9.7912243" version="1" timestamp="2020-10-22T22:11:14Z" changeset="92920761" uid="5198133" user="Wulfmorn" />
	<node id="8038355696" lat="59.0452201" lon="9.7911787" version="1" timestamp="2020-10-22T22:11:14Z" changeset="92920761" uid="5198133" user="Wulfmorn" />
	<node id="8038355697" lat="59.0452491" lon="9.7912122" version="1" timestamp="2020-10-22T22:11:14Z" changeset="92920761" uid="5198133" user="Wulfmorn" />
	<node id="8038355698" lat="59.0452739" lon="9.7912337" version="1" timestamp="2020-10-22T22:11:14Z" changeset="92920761" uid="5198133" user="Wulfmorn" />
	<node id="8038355699" lat="59.0453084" lon="9.7912136" version="1" timestamp="2020-10-22T22:11:14Z" changeset="92920761" uid="5198133" user="Wulfmorn" />
	<node id="8038355700" lat="59.0453526" lon="9.7911693" version="1" timestamp="2020-10-22T22:11:14Z" changeset="92920761" uid="5198133" user="Wulfmorn" />
	<node id="8038355701" lat="59.0453767" lon="9.7911733" version="1" timestamp="2020-10-22T22:11:14Z" changeset="92920761" uid="5198133" user="Wulfmorn" />
	<node id="8038355702" lat="59.0454085" lon="9.7911599" version="1" timestamp="2020-10-22T22:11:14Z" changeset="92920761" uid="5198133" user="Wulfmorn" />
	<node id="8038355703" lat="59.0454347" lon="9.7911586" version="1" timestamp="2020-10-22T22:11:14Z" changeset="92920761" uid="5198133" user="Wulfmorn" />
	<node id="8038355704" lat="59.0454602" lon="9.7911184" version="1" timestamp="2020-10-22T22:11:14Z" changeset="92920761" uid="5198133" user="Wulfmorn" />
	<node id="8038355705" lat="59.0455347" lon="9.791235" version="1" timestamp="2020-10-22T22:11:14Z" changeset="92920761" uid="5198133" user="Wulfmorn" />
	<node id="8038355706" lat="59.0455671" lon="9.7911841" version="1" timestamp="2020-10-22T22:11:14Z" changeset="92920761" uid="5198133" user="Wulfmorn" />
	<node id="8038355707" lat="59.0456361" lon="9.7911385" version="1" timestamp="2020-10-22T22:11:14Z" changeset="92920761" uid="5198133" user="Wulfmorn" />
	<node id="8038355708" lat="59.0456823" lon="9.7911036" version="1" timestamp="2020-10-22T22:11:14Z" changeset="92920761" uid="5198133" user="Wulfmorn" />
	<node id="8038355718" lat="59.0455147" lon="9.7912846" version="1" timestamp="2020-10-22T22:11:14Z" changeset="92920761" uid="5198133" user="Wulfmorn" />
	<node id="8038355719" lat="59.0455161" lon="9.7913235" version="1" timestamp="2020-10-22T22:11:14Z" changeset="92920761" uid="5198133" user="Wulfmorn" />
	<node id="8038355720" lat="59.0455188" lon="9.7913678" version="1" timestamp="2020-10-22T22:11:14Z" changeset="92920761" uid="5198133" user="Wulfmorn" />
	<node id="8038355721" lat="59.0455271" lon="9.7913866" version="1" timestamp="2020-10-22T22:11:14Z" changeset="92920761" uid="5198133" user="Wulfmorn" />
	<node id="8038355722" lat="59.0457106" lon="9.7913665" version="1" timestamp="2020-10-22T22:11:14Z" changeset="92920761" uid="5198133" user="Wulfmorn" />
	<node id="8038355723" lat="59.0457582" lon="9.7913437" version="1" timestamp="2020-10-22T22:11:14Z" changeset="92920761" uid="5198133" user="Wulfmorn" />
	<node id="8038355724" lat="59.0458051" lon="9.7913048" version="1" timestamp="2020-10-22T22:11:14Z" changeset="92920761" uid="5198133" user="Wulfmorn" />
	<node id="8038355725" lat="59.045941" lon="9.791227" version="1" timestamp="2020-10-22T22:11:14Z" changeset="92920761" uid="5198133" user="Wulfmorn" />
	<node id="8038355726" lat="59.0460065" lon="9.7912109" version="1" timestamp="2020-10-22T22:11:14Z" changeset="92920761" uid="5198133" user="Wulfmorn" />
	<node id="8038355727" lat="59.0460424" lon="9.7911733" version="1" timestamp="2020-10-22T22:11:14Z" changeset="92920761" uid="5198133" user="Wulfmorn" />
	<node id="8038355728" lat="59.0460686" lon="9.7911921" version="1" timestamp="2020-10-22T22:11:14Z" changeset="92920761" uid="5198133" user="Wulfmorn" />
	<node id="8038355729" lat="59.0461093" lon="9.7912095" version="1" timestamp="2020-10-22T22:11:14Z" changeset="92920761" uid="5198133" user="Wulfmorn" />
	<node id="8038355730" lat="59.0461314" lon="9.7912028" version="1" timestamp="2020-10-22T22:11:14Z" changeset="92920761" uid="5198133" user="Wulfmorn" />
	<node id="8038355731" lat="59.0461534" lon="9.7911653" version="1" timestamp="2020-10-22T22:11:14Z" changeset="92920761" uid="5198133" user="Wulfmorn" />
	<node id="1301290739" lat="59.0566711" lon="9.6953634" version="2" timestamp="2018-06-10T08:12:03Z" changeset="59705781" uid="3842253" user="NKA_import" />
	<node id="1301291137" lat="59.0565329" lon="9.6935473" version="2" timestamp="2018-06-10T08:12:03Z" changeset="59705781" uid="3842253" user="NKA_import" />
	<node id="1301291392" lat="59.0572381" lon="9.6952002" version="2" timestamp="2018-06-10T08:12:03Z" changeset="59705781" uid="3842253" user="NKA_import" />
	<node id="1301291525" lat="59.0570999" lon="9.6933841" version="2" timestamp="2018-06-10T08:12:03Z" changeset="59705781" uid="3842253" user="NKA_import" />
	<node id="1163922977" lat="59.0864119" lon="9.6730496" version="1" timestamp="2011-02-20T18:55:34Z" changeset="7346351" uid="37074" user="ErikJ" />
	<node id="1163923005" lat="59.0871857" lon="9.6730722" version="1" timestamp="2011-02-20T18:55:35Z" changeset="7346351" uid="37074" user="ErikJ" />
	<node id="1163922931" lat="59.0884029" lon="9.674655" version="1" timestamp="2011-02-20T18:55:32Z" changeset="7346351" uid="37074" user="ErikJ" />
	<node id="1163922938" lat="59.0857632" lon="9.6788801" version="1" timestamp="2011-02-20T18:55:32Z" changeset="7346351" uid="37074" user="ErikJ" />
	<node id="1163922943" lat="59.0876065" lon="9.6734654" version="1" timestamp="2011-02-20T18:55:33Z" changeset="7346351" uid="37074" user="ErikJ" />
	<node id="1163922946" lat="59.0849843" lon="9.6785795" version="1" timestamp="2011-02-20T18:55:33Z" changeset="7346351" uid="37074" user="ErikJ" />
	<node id="1163922964" lat="59.0884856" lon="9.6751684" version="1" timestamp="2011-02-20T18:55:33Z" changeset="7346351" uid="37074" user="ErikJ" />
	<node id="1163922966" lat="59.0866072" lon="9.6776554" version="1" timestamp="2011-02-20T18:55:33Z" changeset="7346351" uid="37074" user="ErikJ" />
	<node id="1163922969" lat="59.0880849" lon="9.6742017" version="1" timestamp="2011-02-20T18:55:33Z" changeset="7346351" uid="37074" user="ErikJ" />
	<node id="1163922970" lat="59.0851972" lon="9.6757595" version="1" timestamp="2011-02-20T18:55:34Z" changeset="7346351" uid="37074" user="ErikJ" />
	<node id="1163922971" lat="59.0869779" lon="9.6773674" version="1" timestamp="2011-02-20T18:55:34Z" changeset="7346351" uid="37074" user="ErikJ" />
	<node id="1163922972" lat="59.0860712" lon="9.6743469" version="1" timestamp="2011-02-20T18:55:34Z" changeset="7346351" uid="37074" user="ErikJ" />
	<node id="1163922974" lat="59.0864469" lon="9.6779384" version="1" timestamp="2011-02-20T18:55:34Z" changeset="7346351" uid="37074" user="ErikJ" />
	<node id="1163922997" lat="59.0868026" lon="9.6774475" version="1" timestamp="2011-02-20T18:55:35Z" changeset="7346351" uid="37074" user="ErikJ" />
	<node id="1163923002" lat="59.0862866" lon="9.6736256" version="1" timestamp="2011-02-20T18:55:35Z" changeset="7346351" uid="37074" user="ErikJ" />
	<node id="1163923007" lat="59.0848566" lon="9.6763455" version="1" timestamp="2011-02-20T18:55:35Z" changeset="7346351" uid="37074" user="ErikJ" />
	<node id="1163923008" lat="59.08815" lon="9.676879" version="1" timestamp="2011-02-20T18:55:35Z" changeset="7346351" uid="37074" user="ErikJ" />
	<node id="1163923010" lat="59.0848315" lon="9.6784192" version="1" timestamp="2011-02-20T18:55:35Z" changeset="7346351" uid="37074" user="ErikJ" />
	<node id="1163923012" lat="59.0885507" lon="9.6757444" version="1" timestamp="2011-02-20T18:55:35Z" changeset="7346351" uid="37074" user="ErikJ" />
	<node id="1163923016" lat="59.0849192" lon="9.676075" version="1" timestamp="2011-02-20T18:55:35Z" changeset="7346351" uid="37074" user="ErikJ" />
	<node id="1163923053" lat="59.087584" lon="9.6771996" version="1" timestamp="2011-02-20T18:55:35Z" changeset="7346351" uid="37074" user="ErikJ" />
	<node id="1163923060" lat="59.084794" lon="9.6776979" version="1" timestamp="2011-02-20T18:55:36Z" changeset="7346351" uid="37074" user="ErikJ" />
	<node id="1163923065" lat="59.0858283" lon="9.6748804" version="1" timestamp="2011-02-20T18:55:37Z" changeset="7346351" uid="37074" user="ErikJ" />
	<node id="1163923068" lat="59.0884856" lon="9.6763931" version="1" timestamp="2011-02-20T18:55:37Z" changeset="7346351" uid="37074" user="ErikJ" />
	<node id="1163923071" lat="59.0858884" lon="9.6787949" version="1" timestamp="2011-02-20T18:55:37Z" changeset="7346351" uid="37074" user="ErikJ" />
	<node id="1163923075" lat="59.0854827" lon="9.6787448" version="1" timestamp="2011-02-20T18:55:37Z" changeset="7346351" uid="37074" user="ErikJ" />
	<node id="5679141389" lat="59.0955348" lon="9.6860597" version="2" timestamp="2021-05-19T14:23:54Z" changeset="104968669" uid="117930" user="bmispelon" />
	<node id="8746193812" lat="59.0953621" lon="9.685603" version="1" timestamp="2021-05-19T14:23:53Z" changeset="104968669" uid="117930" user="bmispelon" />
	<node id="8746193813" lat="59.0954051" lon="9.685604" version="1" timestamp="2021-05-19T14:23:53Z" changeset="104968669" uid="117930" user="bmispelon" />
	<node id="8746193814" lat="59.0954049" lon="9.685629" version="1" timestamp="2021-05-19T14:23:53Z" changeset="104968669" uid="117930" user="bmispelon" />
	<node id="8746193815" lat="59.0955373" lon="9.685632" version="1" timestamp="2021-05-19T14:23:53Z" changeset="104968669" uid="117930" user="bmispelon" />
	<node id="8746193816" lat="59.0955357" lon="9.6858837" version="1" timestamp="2021-05-19T14:23:53Z" changeset="104968669" uid="117930" user="bmispelon" />
	<node id="8746193817" lat="59.095562" lon="9.6858843" version="1" timestamp="2021-05-19T14:23:53Z" changeset="104968669" uid="117930" user="bmispelon" />
	<node id="8746193818" lat="59.095561" lon="9.6860603" version="1" timestamp="2021-05-19T14:23:53Z" changeset="104968669" uid="117930" user="bmispelon" />
	<node id="8746193821" lat="59.0951648" lon="9.6858801" version="1" timestamp="2021-05-19T14:23:53Z" changeset="104968669" uid="117930" user="bmispelon" />
	<node id="8746193822" lat="59.0951595" lon="9.6858799" version="1" timestamp="2021-05-19T14:23:53Z" changeset="104968669" uid="117930" user="bmispelon" />
	<node id="8746193823" lat="59.0951605" lon="9.6857089" version="1" timestamp="2021-05-19T14:23:53Z" changeset="104968669" uid="117930" user="bmispelon" />
	<node id="8746193824" lat="59.0951662" lon="9.6857091" version="1" timestamp="2021-05-19T14:23:53Z" changeset="104968669" uid="117930" user="bmispelon" />
	<node id="8746193825" lat="59.0951668" lon="9.6856222" version="1" timestamp="2021-05-19T14:23:53Z" changeset="104968669" uid="117930" user="bmispelon" />
	<node id="8746193826" lat="59.0951962" lon="9.6856228" version="1" timestamp="2021-05-19T14:23:53Z" changeset="104968669" uid="117930" user="bmispelon" />
	<node id="8746193827" lat="59.0951968" lon="9.6855372" version="1" timestamp="2021-05-19T14:23:53Z" changeset="104968669" uid="117930" user="bmispelon" />
	<node id="8746193828" lat="59.0952193" lon="9.6855378" version="1" timestamp="2021-05-19T14:23:53Z" changeset="104968669" uid="117930" user="bmispelon" />
	<node id="8746193829" lat="59.0952187" lon="9.6856244" version="1" timestamp="2021-05-19T14:23:53Z" changeset="104968669" uid="117930" user="bmispelon" />
	<node id="8746193830" lat="59.0953619" lon="9.6856276" version="1" timestamp="2021-05-19T14:23:53Z" changeset="104968669" uid="117930" user="bmispelon" />
	<node id="8746193819" lat="59.0955333" lon="9.6863092" version="1" timestamp="2021-05-19T14:23:53Z" changeset="104968669" uid="117930" user="bmispelon" />
	<node id="8746193820" lat="59.0951622" lon="9.6863008" version="1" timestamp="2021-05-19T14:23:53Z" changeset="104968669" uid="117930" user="bmispelon" />
	<node id="8747766976" lat="59.0585837" lon="9.7205782" version="1" timestamp="2021-05-20T00:59:41Z" changeset="104988854" uid="117930" user="bmispelon" />
	<node id="8747766977" lat="59.0585953" lon="9.7206709" version="1" timestamp="2021-05-20T00:59:41Z" changeset="104988854" uid="117930" user="bmispelon" />
	<node id="8747766978" lat="59.0585699" lon="9.720683" version="1" timestamp="2021-05-20T00:59:41Z" changeset="104988854" uid="117930" user="bmispelon" />
	<node id="8747766979" lat="59.0585711" lon="9.7206929" version="1" timestamp="2021-05-20T00:59:41Z" changeset="104988854" uid="117930" user="bmispelon" />
	<node id="8747766980" lat="59.058503" lon="9.7207251" version="1" timestamp="2021-05-20T00:59:41Z" changeset="104988854" uid="117930" user="bmispelon" />
	<node id="8747766981" lat="59.0584891" lon="9.7206143" version="1" timestamp="2021-05-20T00:59:41Z" changeset="104988854" uid="117930" user="bmispelon" />
	<node id="8747766982" lat="59.058558" lon="9.7205817" version="1" timestamp="2021-05-20T00:59:41Z" changeset="104988854" uid="117930" user="bmispelon" />
	<node id="8747766983" lat="59.058559" lon="9.7205899" version="1" timestamp="2021-05-20T00:59:41Z" changeset="104988854" uid="117930" user="bmispelon" />
	<node id="5679138197" lat="59.0737011" lon="9.71684" version="2" timestamp="2021-05-19T23:25:38Z" changeset="104987760" uid="117930" user="bmispelon" />
	<node id="8747637905" lat="59.0737616" lon="9.716843" version="1" timestamp="2021-05-19T23:25:34Z" changeset="104987756" uid="117930" user="bmispelon" />
	<node id="8747637906" lat="59.0737614" lon="9.716863" version="1" timestamp="2021-05-19T23:25:34Z" changeset="104987756" uid="117930" user="bmispelon" />
	<node id="8747637907" lat="59.073781" lon="9.716864" version="1" timestamp="2021-05-19T23:25:34Z" changeset="104987756" uid="117930" user="bmispelon" />
	<node id="8747637908" lat="59.073779" lon="9.717019" version="1" timestamp="2021-05-19T23:25:34Z" changeset="104987756" uid="117930" user="bmispelon" />
	<node id="8747637909" lat="59.0736989" lon="9.717015" version="1" timestamp="2021-05-19T23:25:34Z" changeset="104987756" uid="117930" user="bmispelon" />
	<node id="8747637942" lat="59.074397" lon="9.7377148" version="1" timestamp="2021-05-19T23:25:34Z" changeset="104987756" uid="117930" user="bmispelon" />
	<node id="8747637943" lat="59.074413" lon="9.7379048" version="1" timestamp="2021-05-19T23:25:34Z" changeset="104987756" uid="117930" user="bmispelon" />
	<node id="8747637944" lat="59.074349" lon="9.7379252" version="1" timestamp="2021-05-19T23:25:34Z" changeset="104987756" uid="117930" user="bmispelon" />
	<node id="8747637945" lat="59.074333" lon="9.7377352" version="1" timestamp="2021-05-19T23:25:34Z" changeset="104987756" uid="117930" user="bmispelon" />
	<node id="5679141269" lat="59.0726784" lon="9.7414237" version="2" timestamp="2021-05-19T23:25:38Z" changeset="104987760" uid="117930" user="bmispelon" />
	<node id="8747637926" lat="59.0726386" lon="9.7413181" version="1" timestamp="2021-05-19T23:25:34Z" changeset="104987756" uid="117930" user="bmispelon" />
	<node id="8747637927" lat="59.0726369" lon="9.7414829" version="1" timestamp="2021-05-19T23:25:34Z" changeset="104987756" uid="117930" user="bmispelon" />
	<node id="8747637928" lat="59.0725971" lon="9.7413773" version="1" timestamp="2021-05-19T23:25:34Z" changeset="104987756" uid="117930" user="bmispelon" />
	<node id="8744103773" lat="59.110179" lon="9.668059" version="1" timestamp="2021-05-18T22:49:17Z" changeset="104917578" uid="117930" user="bmispelon" />
	<node id="8744103774" lat="59.110094" lon="9.667873" version="1" timestamp="2021-05-18T22:49:17Z" changeset="104917578" uid="117930" user="bmispelon" />
	<node id="8744103775" lat="59.11016" lon="9.66776" version="1" timestamp="2021-05-18T22:49:17Z" changeset="104917578" uid="117930" user="bmispelon" />
	<node id="8744103776" lat="59.110151" lon="9.66774" version="1" timestamp="2021-05-18T22:49:17Z" changeset="104917578" uid="117930" user="bmispelon" />
	<node id="8744103782" lat="59.110162" lon="9.667049" version="1" timestamp="2021-05-18T22:49:17Z" changeset="104917578" uid="117930" user="bmispelon" />
	<node id="5679141277" lat="59.110292" lon="9.667331" version="2" timestamp="2021-05-18T22:49:18Z" changeset="104917578" uid="117930" user="bmispelon" />
	<node id="8744103769" lat="59.110332" lon="9.666753" version="1" timestamp="2021-05-18T22:49:17Z" changeset="104917578" uid="117930" user="bmispelon" />
	<node id="8744103770" lat="59.110595" lon="9.667325" version="1" timestamp="2021-05-18T22:49:17Z" changeset="104917578" uid="117930" user="bmispelon" />
	<node id="8744103771" lat="59.110427" lon="9.667613" version="1" timestamp="2021-05-18T22:49:17Z" changeset="104917578" uid="117930" user="bmispelon" />
	<node id="8744103772" lat="59.11043" lon="9.66762" version="1" timestamp="2021-05-18T22:49:17Z" changeset="104917578" uid="117930" user="bmispelon" />
	<node id="8744103777" lat="59.110288" lon="9.667502" version="1" timestamp="2021-05-18T22:49:17Z" changeset="104917578" uid="117930" user="bmispelon" />
	<node id="8744103778" lat="59.11027" lon="9.667462" version="1" timestamp="2021-05-18T22:49:17Z" changeset="104917578" uid="117930" user="bmispelon" />
	<node id="8744103779" lat="59.110254" lon="9.667461" version="1" timestamp="2021-05-18T22:49:17Z" changeset="104917578" uid="117930" user="bmispelon" />
	<node id="8744103780" lat="59.110256" lon="9.667365" version="1" timestamp="2021-05-18T22:49:17Z" changeset="104917578" uid="117930" user="bmispelon" />
	<node id="8744103781" lat="59.110271" lon="9.667366" version="1" timestamp="2021-05-18T22:49:17Z" changeset="104917578" uid="117930" user="bmispelon" />
	<node id="8744103783" lat="59.110231" lon="9.666929" version="1" timestamp="2021-05-18T22:49:17Z" changeset="104917578" uid="117930" user="bmispelon" />
	<node id="5679141369" lat="59.1161352" lon="9.7192689" version="2" timestamp="2021-05-19T23:25:38Z" changeset="104987760" uid="117930" user="bmispelon" />
	<node id="8747635327" lat="59.116276" lon="9.7194069" version="1" timestamp="2021-05-19T23:25:33Z" changeset="104987756" uid="117930" user="bmispelon" />
	<node id="8747635328" lat="59.116258" lon="9.7194602" version="1" timestamp="2021-05-19T23:25:33Z" changeset="104987756" uid="117930" user="bmispelon" />
	<node id="8747635329" lat="59.116264" lon="9.7194678" version="1" timestamp="2021-05-19T23:25:33Z" changeset="104987756" uid="117930" user="bmispelon" />
	<node id="8747635330" lat="59.116243" lon="9.7195303" version="1" timestamp="2021-05-19T23:25:33Z" changeset="104987756" uid="117930" user="bmispelon" />
	<node id="8747635331" lat="59.1162373" lon="9.719523" version="1" timestamp="2021-05-19T23:25:33Z" changeset="104987756" uid="117930" user="bmispelon" />
	<node id="8747635332" lat="59.1162197" lon="9.7195752" version="1" timestamp="2021-05-19T23:25:33Z" changeset="104987756" uid="117930" user="bmispelon" />
	<node id="8747635333" lat="59.1160889" lon="9.7194082" version="1" timestamp="2021-05-19T23:25:33Z" changeset="104987756" uid="117930" user="bmispelon" />
	<node id="8747635334" lat="59.1160973" lon="9.7193831" version="1" timestamp="2021-05-19T23:25:33Z" changeset="104987756" uid="117930" user="bmispelon" />
	<node id="8747635335" lat="59.1160778" lon="9.7193581" version="1" timestamp="2021-05-19T23:25:33Z" changeset="104987756" uid="117930" user="bmispelon" />
	<node id="8747635336" lat="59.116116" lon="9.7192444" version="1" timestamp="2021-05-19T23:25:33Z" changeset="104987756" uid="117930" user="bmispelon" />
	<node id="8747635337" lat="59.116216" lon="9.7190288" version="1" timestamp="2021-05-19T23:25:33Z" changeset="104987756" uid="117930" user="bmispelon" />
	<node id="8747635338" lat="59.116304" lon="9.7191411" version="1" timestamp="2021-05-19T23:25:33Z" changeset="104987756" uid="117930" user="bmispelon" />
	<node id="8747635339" lat="59.116233" lon="9.719352" version="1" timestamp="2021-05-19T23:25:33Z" changeset="104987756" uid="117930" user="bmispelon" />
	<node id="5679141361" lat="59.0516293" lon="9.7747144" version="2" timestamp="2021-05-19T23:25:38Z" changeset="104987760" uid="117930" user="bmispelon" />
	<node id="8747634964" lat="59.0516031" lon="9.7744735" version="1" timestamp="2021-05-19T23:25:32Z" changeset="104987756" uid="117930" user="bmispelon" />
	<node id="8747634965" lat="59.0516778" lon="9.7745654" version="1" timestamp="2021-05-19T23:25:32Z" changeset="104987756" uid="117930" user="bmispelon" />
	<node id="8747634966" lat="59.051551" lon="9.774618" version="1" timestamp="2021-05-19T23:25:32Z" changeset="104987756" uid="117930" user="bmispelon" />
	<node id="8747634967" lat="59.0515811" lon="9.7745256" version="1" timestamp="2021-05-19T23:25:32Z" changeset="104987756" uid="117930" user="bmispelon" />
	<node id="8747634968" lat="59.0515847" lon="9.7745301" version="1" timestamp="2021-05-19T23:25:32Z" changeset="104987756" uid="117930" user="bmispelon" />
	<node id="5679141521" lat="59.194843" lon="9.813547" version="2" timestamp="2021-05-19T22:39:30Z" changeset="104987099" uid="117930" user="bmispelon" />
	<node id="8747570211" lat="59.1949365" lon="9.8136271" version="1" timestamp="2021-05-19T22:39:28Z" changeset="104987099" uid="117930" user="bmispelon" />
	<node id="8747570212" lat="59.1949315" lon="9.8137242" version="1" timestamp="2021-05-19T22:39:28Z" changeset="104987099" uid="117930" user="bmispelon" />
	<node id="8747570213" lat="59.1949049" lon="9.8137189" version="1" timestamp="2021-05-19T22:39:28Z" changeset="104987099" uid="117930" user="bmispelon" />
	<node id="8747570214" lat="59.1949041" lon="9.813733" version="1" timestamp="2021-05-19T22:39:28Z" changeset="104987099" uid="117930" user="bmispelon" />
	<node id="8747570215" lat="59.194834" lon="9.813719" version="1" timestamp="2021-05-19T22:39:28Z" changeset="104987099" uid="117930" user="bmispelon" />
	<node id="8747570216" lat="59.1949131" lon="9.813561" version="1" timestamp="2021-05-19T22:39:28Z" changeset="104987099" uid="117930" user="bmispelon" />
	<node id="8747570217" lat="59.1949099" lon="9.8136218" version="1" timestamp="2021-05-19T22:39:28Z" changeset="104987099" uid="117930" user="bmispelon" />
	<node id="5679141332" lat="59.1813008" lon="9.8861917" version="2" timestamp="2021-05-19T22:39:30Z" changeset="104987099" uid="117930" user="bmispelon" />
	<node id="5679141427" lat="59.1760592" lon="9.8838077" version="2" timestamp="2021-05-19T22:39:30Z" changeset="104987099" uid="117930" user="bmispelon" />
	<node id="8747569797" lat="59.1813058" lon="9.885965" version="1" timestamp="2021-05-19T22:39:28Z" changeset="104987099" uid="117930" user="bmispelon" />
	<node id="8747569798" lat="59.1813152" lon="9.886127" version="1" timestamp="2021-05-19T22:39:28Z" changeset="104987099" uid="117930" user="bmispelon" />
	<node id="8747569799" lat="59.1812972" lon="9.886131" version="1" timestamp="2021-05-19T22:39:28Z" changeset="104987099" uid="117930" user="bmispelon" />
	<node id="8747569800" lat="59.1812075" lon="9.8862124" version="1" timestamp="2021-05-19T22:39:28Z" changeset="104987099" uid="117930" user="bmispelon" />
	<node id="8747569801" lat="59.1811915" lon="9.8859368" version="1" timestamp="2021-05-19T22:39:28Z" changeset="104987099" uid="117930" user="bmispelon" />
	<node id="8747569802" lat="59.181285" lon="9.8859161" version="1" timestamp="2021-05-19T22:39:28Z" changeset="104987099" uid="117930" user="bmispelon" />
	<node id="8747569803" lat="59.181288" lon="9.885969" version="1" timestamp="2021-05-19T22:39:28Z" changeset="104987099" uid="117930" user="bmispelon" />
	<node id="8747572598" lat="59.1760467" lon="9.883955" version="1" timestamp="2021-05-19T22:39:29Z" changeset="104987099" uid="117930" user="bmispelon" />
	<node id="8747572599" lat="59.1759919" lon="9.8839721" version="1" timestamp="2021-05-19T22:39:29Z" changeset="104987099" uid="117930" user="bmispelon" />
	<node id="8747572600" lat="59.1759901" lon="9.88395" version="1" timestamp="2021-05-19T22:39:29Z" changeset="104987099" uid="117930" user="bmispelon" />
	<node id="8747572601" lat="59.1759584" lon="9.8839599" version="1" timestamp="2021-05-19T22:39:29Z" changeset="104987099" uid="117930" user="bmispelon" />
	<node id="8747572602" lat="59.1759446" lon="9.8837921" version="1" timestamp="2021-05-19T22:39:29Z" changeset="104987099" uid="117930" user="bmispelon" />
	<node id="8747572603" lat="59.1759766" lon="9.8837821" version="1" timestamp="2021-05-19T22:39:29Z" changeset="104987099" uid="117930" user="bmispelon" />
	<node id="8747572604" lat="59.1759724" lon="9.8837302" version="1" timestamp="2021-05-19T22:39:29Z" changeset="104987099" uid="117930" user="bmispelon" />
	<node id="8747572605" lat="59.1760508" lon="9.8837057" version="1" timestamp="2021-05-19T22:39:29Z" changeset="104987099" uid="117930" user="bmispelon" />
	<node id="8747572606" lat="59.1760353" lon="9.8838152" version="1" timestamp="2021-05-19T22:39:29Z" changeset="104987099" uid="117930" user="bmispelon" />
	<way id="4153820" version="5" timestamp="2020-10-22T22:11:14Z" changeset="92920761" uid="5198133" user="Wulfmorn">
		<tag k="name" v="Karisholmen" />
		<tag k="natural" v="coastline" />
		<tag k="place" v="islet" />
		<tag k="ssr:stedsnr" v="979947" />
		<nd ref="23579489" />
		<nd ref="8038355687" />
		<nd ref="8038355686" />
		<nd ref="8038355685" />
		<nd ref="8038349784" />
		<nd ref="8038349783" />
		<nd ref="8038349782" />
		<nd ref="8038349781" />
		<nd ref="8038349780" />
		<nd ref="8038349779" />
		<nd ref="8038349778" />
		<nd ref="8038349777" />
		<nd ref="8038349776" />
		<nd ref="8038349757" />
		<nd ref="8038349758" />
		<nd ref="8038349759" />
		<nd ref="8038349760" />
		<nd ref="8038349761" />
		<nd ref="8038349762" />
		<nd ref="8038349775" />
		<nd ref="8038349774" />
		<nd ref="8038349773" />
		<nd ref="8038349772" />
		<nd ref="8038349771" />
		<nd ref="8038349770" />
		<nd ref="8038349769" />
		<nd ref="8038349768" />
		<nd ref="8038349767" />
		<nd ref="23579538" />
		<nd ref="8038349766" />
		<nd ref="8038349765" />
		<nd ref="8038349764" />
		<nd ref="8038349763" />
		<nd ref="8038355688" />
		<nd ref="8038355689" />
		<nd ref="8038355690" />
		<nd ref="8038355691" />
		<nd ref="1813514085" />
		<nd ref="8038355692" />
		<nd ref="8038355693" />
		<nd ref="8038355694" />
		<nd ref="8038355695" />
		<nd ref="8038355696" />
		<nd ref="8038355697" />
		<nd ref="8038355698" />
		<nd ref="8038355699" />
		<nd ref="8038355700" />
		<nd ref="8038355701" />
		<nd ref="8038355702" />
		<nd ref="8038355703" />
		<nd ref="8038355704" />
		<nd ref="1813514089" />
		<nd ref="8038355717" />
		<nd ref="8038355716" />
		<nd ref="8038355715" />
		<nd ref="8038355714" />
		<nd ref="8038355713" />
		<nd ref="8038355712" />
		<nd ref="8038355711" />
		<nd ref="8038355710" />
		<nd ref="8038355709" />
		<nd ref="8038355708" />
		<nd ref="8038355707" />
		<nd ref="8038355706" />
		<nd ref="8038355705" />
		<nd ref="8038355718" />
		<nd ref="8038355719" />
		<nd ref="8038355720" />
		<nd ref="8038355721" />
		<nd ref="1813514098" />
		<nd ref="23579535" />
		<nd ref="8038355722" />
		<nd ref="8038355723" />
		<nd ref="8038355724" />
		<nd ref="8038355725" />
		<nd ref="8038355726" />
		<nd ref="8038355727" />
		<nd ref="8038355728" />
		<nd ref="8038355729" />
		<nd ref="8038355730" />
		<nd ref="8038355731" />
		<nd ref="23579533" />
		<nd ref="8038355732" />
		<nd ref="8038355733" />
		<nd ref="8038355734" />
		<nd ref="8038355735" />
		<nd ref="8038355736" />
		<nd ref="8038355737" />
		<nd ref="8038355738" />
		<nd ref="8038355739" />
		<nd ref="1813514131" />
		<nd ref="8038355751" />
		<nd ref="8038355750" />
		<nd ref="8038355749" />
		<nd ref="8038355748" />
		<nd ref="8038355747" />
		<nd ref="8038355746" />
		<nd ref="8038355745" />
		<nd ref="8038355744" />
		<nd ref="8038355743" />
		<nd ref="8038355742" />
		<nd ref="8038355741" />
		<nd ref="23579531" />
		<nd ref="8038355740" />
		<nd ref="8038355760" />
		<nd ref="8038355759" />
		<nd ref="8038355758" />
		<nd ref="8038355757" />
		<nd ref="8038355756" />
		<nd ref="8038355755" />
		<nd ref="8038355754" />
		<nd ref="8038355753" />
		<nd ref="8038355752" />
		<nd ref="8038355761" />
		<nd ref="8038355762" />
		<nd ref="8038355763" />
		<nd ref="8038355764" />
		<nd ref="8038355765" />
		<nd ref="8038355766" />
		<nd ref="8038355767" />
		<nd ref="8038355768" />
		<nd ref="8038355769" />
		<nd ref="8038355770" />
		<nd ref="8038355771" />
		<nd ref="23579528" />
		<nd ref="8038355772" />
		<nd ref="8038355773" />
		<nd ref="8038355774" />
		<nd ref="8038355775" />
		<nd ref="8038355776" />
		<nd ref="8038355777" />
		<nd ref="8038355778" />
		<nd ref="8038355779" />
		<nd ref="23579526" />
		<nd ref="8038355780" />
		<nd ref="5679141459" />
		<nd ref="8038355781" />
		<nd ref="8038355782" />
		<nd ref="8038355783" />
		<nd ref="8038355784" />
		<nd ref="8038355785" />
		<nd ref="23579523" />
		<nd ref="8038355786" />
		<nd ref="8038355787" />
		<nd ref="8038355788" />
		<nd ref="8038355789" />
		<nd ref="8038355790" />
		<nd ref="8038355791" />
		<nd ref="8038355792" />
		<nd ref="8038355793" />
		<nd ref="8038355794" />
		<nd ref="8038355795" />
		<nd ref="8038355796" />
		<nd ref="8038355797" />
		<nd ref="8038355798" />
		<nd ref="1813514181" />
		<nd ref="8038355799" />
		<nd ref="8038355806" />
		<nd ref="8038355805" />
		<nd ref="8038355804" />
		<nd ref="8038355803" />
		<nd ref="8038355802" />
		<nd ref="8038355801" />
		<nd ref="8038355800" />
		<nd ref="23579514" />
		<nd ref="8038355807" />
		<nd ref="8038355808" />
		<nd ref="8038355809" />
		<nd ref="8038355810" />
		<nd ref="8038355811" />
		<nd ref="8038355812" />
		<nd ref="8038355813" />
		<nd ref="8038355814" />
		<nd ref="8038355815" />
		<nd ref="8038355816" />
		<nd ref="23579512" />
		<nd ref="1813514138" />
		<nd ref="8038355817" />
		<nd ref="8038355818" />
		<nd ref="8038355819" />
		<nd ref="8038355820" />
		<nd ref="8038355821" />
		<nd ref="8038355822" />
		<nd ref="8038355823" />
		<nd ref="8038355824" />
		<nd ref="8038355825" />
		<nd ref="8038355826" />
		<nd ref="1813514128" />
		<nd ref="8038355827" />
		<nd ref="8038355586" />
		<nd ref="8038355828" />
		<nd ref="8038355829" />
		<nd ref="8038355587" />
		<nd ref="8038355830" />
		<nd ref="8038355831" />
		<nd ref="8038355588" />
		<nd ref="8038355589" />
		<nd ref="8038355832" />
		<nd ref="8038355590" />
		<nd ref="23579509" />
		<nd ref="8038355591" />
		<nd ref="8038355833" />
		<nd ref="8038355592" />
		<nd ref="8038355593" />
		<nd ref="8038355834" />
		<nd ref="8038355835" />
		<nd ref="8038355594" />
		<nd ref="8038355836" />
		<nd ref="8038355595" />
		<nd ref="8038355837" />
		<nd ref="8038355610" />
		<nd ref="8038355609" />
		<nd ref="23579507" />
		<nd ref="8038355608" />
		<nd ref="8038355607" />
		<nd ref="8038355606" />
		<nd ref="8038355605" />
		<nd ref="8038355604" />
		<nd ref="8038355603" />
		<nd ref="8038355602" />
		<nd ref="8038355601" />
		<nd ref="8038355600" />
		<nd ref="8038355599" />
		<nd ref="8038355598" />
		<nd ref="8038355597" />
		<nd ref="8038355596" />
		<nd ref="23579504" />
		<nd ref="8038355611" />
		<nd ref="8038355612" />
		<nd ref="8038355613" />
		<nd ref="8038355614" />
		<nd ref="8038355615" />
		<nd ref="8038355616" />
		<nd ref="8038355617" />
		<nd ref="8038355618" />
		<nd ref="8038355619" />
		<nd ref="8038355620" />
		<nd ref="8038355621" />
		<nd ref="8038349696" />
		<nd ref="8038349697" />
		<nd ref="8038349698" />
		<nd ref="8038349722" />
		<nd ref="8038349721" />
		<nd ref="8038349720" />
		<nd ref="23579502" />
		<nd ref="8038349719" />
		<nd ref="8038349718" />
		<nd ref="8038349717" />
		<nd ref="8038349716" />
		<nd ref="8038349715" />
		<nd ref="23579499" />
		<nd ref="8038349714" />
		<nd ref="8038349713" />
		<nd ref="8038349712" />
		<nd ref="8038349711" />
		<nd ref="8038349710" />
		<nd ref="8038349709" />
		<nd ref="8038349708" />
		<nd ref="8038349707" />
		<nd ref="23579497" />
		<nd ref="8038349706" />
		<nd ref="8038349705" />
		<nd ref="23579495" />
		<nd ref="8038349704" />
		<nd ref="8038349703" />
		<nd ref="8038349702" />
		<nd ref="8038349701" />
		<nd ref="8038349700" />
		<nd ref="8038349699" />
		<nd ref="23579493" />
		<nd ref="8038349756" />
		<nd ref="8038349755" />
		<nd ref="8038349754" />
		<nd ref="8038349753" />
		<nd ref="8038349752" />
		<nd ref="8038349751" />
		<nd ref="8038349750" />
		<nd ref="8038349749" />
		<nd ref="8038349748" />
		<nd ref="8038349747" />
		<nd ref="8038349746" />
		<nd ref="8038349745" />
		<nd ref="8038349744" />
		<nd ref="8038349743" />
		<nd ref="8038349742" />
		<nd ref="8038349740" />
		<nd ref="8038349741" />
		<nd ref="8038349739" />
		<nd ref="8038349738" />
		<nd ref="8038349737" />
		<nd ref="8038349736" />
		<nd ref="8038349735" />
		<nd ref="8038349734" />
		<nd ref="8038349733" />
		<nd ref="8038349732" />
		<nd ref="8038349731" />
		<nd ref="23579490" />
		<nd ref="8038349730" />
		<nd ref="8038349729" />
		<nd ref="8038349728" />
		<nd ref="8038349727" />
		<nd ref="8038349726" />
		<nd ref="8038349725" />
		<nd ref="8038349724" />
		<nd ref="8038349723" />
		<nd ref="23579489" />
	</way>
	<way id="115025513" version="2" timestamp="2018-06-10T08:12:04Z" changeset="59705781" uid="3842253" user="NKA_import">
		<tag k="leisure" v="pitch" />
		<tag k="name" v="Furulund" />
		<tag k="sport" v="soccer" />
		<tag k="ssr:stedsnr" v="957865" />
		<tag k="ssr:type" v="idrettsanlegg" />
		<nd ref="1301291525" />
		<nd ref="1301291137" />
		<nd ref="1301290739" />
		<nd ref="1301291392" />
		<nd ref="1301291525" />
	</way>
	<way id="915870963" version="2" timestamp="2021-06-16T22:20:56Z" changeset="106492227" uid="117930" user="bmispelon">
		<tag k="building" v="cabin" />
		<tag k="name" v="Ånesteinsmarka" />
		<tag k="place" v="locality" />
		<tag k="ref:bygningsnr" v="164109437" />
		<tag k="ssr:stedsnr" v="116284" />
		<tag k="ssr:type" v="fritidsbolig" />
		<nd ref="8507252750" />
		<nd ref="8507252751" />
		<nd ref="8507252754" />
		<nd ref="8507252792" />
		<nd ref="8507252750" />
	</way>
	<way id="944459150" version="1" timestamp="2021-05-18T22:49:18Z" changeset="104917578" uid="117930" user="bmispelon">
		<tag k="building" v="commercial" />
		<tag k="name" v="Stridskleivsenteret" />
		<tag k="ref:bygningsnr" v="8428425" />
		<tag k="ssr:stedsnr" v="113527" />
		<tag k="ssr:type" v="forretningsbygg" />
		<nd ref="8744103783" />
		<nd ref="8744103782" />
		<nd ref="5679141277" />
		<nd ref="8744103781" />
		<nd ref="8744103780" />
		<nd ref="8744103779" />
		<nd ref="8744103778" />
		<nd ref="8744103777" />
		<nd ref="8744103776" />
		<nd ref="8744103775" />
		<nd ref="8744103774" />
		<nd ref="8744103773" />
		<nd ref="8744103772" />
		<nd ref="8744103771" />
		<nd ref="8744103770" />
		<nd ref="8744103769" />
		<nd ref="8744103783" />
	</way>
	<way id="944708710" version="1" timestamp="2021-05-19T14:23:54Z" changeset="104968669" uid="117930" user="bmispelon">
		<tag k="building" v="commercial" />
		<tag k="name" v="Skjelsvik senter" />
		<tag k="ref:bygningsnr" v="8401365" />
		<tag k="ssr:stedsnr" v="417309" />
		<tag k="ssr:type" v="forretningsbygg" />
		<nd ref="8746193830" />
		<nd ref="8746193829" />
		<nd ref="8746193828" />
		<nd ref="8746193827" />
		<nd ref="8746193826" />
		<nd ref="8746193825" />
		<nd ref="8746193824" />
		<nd ref="8746193823" />
		<nd ref="8746193822" />
		<nd ref="8746193821" />
		<nd ref="8746193820" />
		<nd ref="8746193819" />
		<nd ref="5679141389" />
		<nd ref="8746193818" />
		<nd ref="8746193817" />
		<nd ref="8746193816" />
		<nd ref="8746193815" />
		<nd ref="8746193814" />
		<nd ref="8746193813" />
		<nd ref="8746193812" />
		<nd ref="8746193830" />
	</way>
	<way id="944874279" version="1" timestamp="2021-05-19T22:39:30Z" changeset="104987099" uid="117930" user="bmispelon">
		<tag k="building" v="cabin" />
		<tag k="loc_name" v="Bjønnes S" />
		<tag k="name" v="Bjørnnes" />
		<tag k="place" v="isolated_dwelling" />
		<tag k="ref:bygningsnr" v="164142191" />
		<tag k="ssr:stedsnr" v="184558" />
		<tag k="ssr:type" v="fritidsbolig" />
		<nd ref="8747569803" />
		<nd ref="8747569802" />
		<nd ref="8747569801" />
		<nd ref="8747569800" />
		<nd ref="5679141332" />
		<nd ref="8747569799" />
		<nd ref="8747569798" />
		<nd ref="8747569797" />
		<nd ref="8747569803" />
	</way>
	<way id="944874335" version="1" timestamp="2021-05-19T22:39:30Z" changeset="104987099" uid="117930" user="bmispelon">
		<tag k="building" v="cabin" />
		<tag k="name" v="Lia" />
		<tag k="place" v="isolated_dwelling" />
		<tag k="ref:bygningsnr" v="164136248" />
		<tag k="ssr:stedsnr" v="365729" />
		<tag k="ssr:type" v="fritidsbolig" />
		<nd ref="8747570217" />
		<nd ref="8747570216" />
		<nd ref="5679141521" />
		<nd ref="8747570215" />
		<nd ref="8747570214" />
		<nd ref="8747570213" />
		<nd ref="8747570212" />
		<nd ref="8747570211" />
		<nd ref="8747570217" />
	</way>
	<way id="944874653" version="1" timestamp="2021-05-19T22:39:30Z" changeset="104987099" uid="117930" user="bmispelon">
		<tag k="building" v="cabin" />
		<tag k="name" v="Rognlia" />
		<tag k="place" v="isolated_dwelling" />
		<tag k="ref:bygningsnr" v="22467026" />
		<tag k="ssr:stedsnr" v="290015" />
		<tag k="ssr:type" v="fritidsbolig" />
		<nd ref="8747572606" />
		<nd ref="5679141427" />
		<nd ref="8747572605" />
		<nd ref="8747572604" />
		<nd ref="8747572603" />
		<nd ref="8747572602" />
		<nd ref="8747572601" />
		<nd ref="8747572600" />
		<nd ref="8747572599" />
		<nd ref="8747572598" />
		<nd ref="8747572606" />
	</way>
	<way id="944881278" version="1" timestamp="2021-05-19T23:25:37Z" changeset="104987760" uid="117930" user="bmispelon">
		<tag k="building" v="cabin" />
		<tag k="name" v="Bjønnesstranda" />
		<tag k="place" v="isolated_dwelling" />
		<tag k="ref:bygningsnr" v="164119718" />
		<tag k="ssr:stedsnr" v="238503" />
		<tag k="ssr:type" v="fritidsbolig" />
		<nd ref="8747634968" />
		<nd ref="8747634967" />
		<nd ref="8747634966" />
		<nd ref="5679141361" />
		<nd ref="8747634965" />
		<nd ref="8747634964" />
		<nd ref="8747634968" />
	</way>
	<way id="944881309" version="1" timestamp="2021-05-19T23:25:37Z" changeset="104987760" uid="117930" user="bmispelon">
		<tag k="building" v="civic" />
		<tag k="name" v="Lillegården" />
		<tag k="ref:bygningsnr" v="164123138" />
		<tag k="ssr:stedsnr" v="837351" />
		<tag k="ssr:type" v="skole" />
		<nd ref="8747635339" />
		<nd ref="8747635338" />
		<nd ref="8747635337" />
		<nd ref="5679141369" />
		<nd ref="8747635336" />
		<nd ref="8747635335" />
		<nd ref="8747635334" />
		<nd ref="8747635333" />
		<nd ref="8747635332" />
		<nd ref="8747635331" />
		<nd ref="8747635330" />
		<nd ref="8747635329" />
		<nd ref="8747635328" />
		<nd ref="8747635327" />
		<nd ref="8747635339" />
	</way>
	<way id="944881651" version="1" timestamp="2021-05-19T23:25:37Z" changeset="104987760" uid="117930" user="bmispelon">
		<tag k="building" v="cabin" />
		<tag k="name" v="Seivall" />
		<tag k="place" v="isolated_dwelling" />
		<tag k="ref:bygningsnr" v="164111261" />
		<tag k="ssr:stedsnr" v="572119" />
		<tag k="ssr:type" v="fritidsbolig" />
		<nd ref="8747637909" />
		<nd ref="8747637908" />
		<nd ref="8747637907" />
		<nd ref="8747637906" />
		<nd ref="8747637905" />
		<nd ref="5679138197" />
		<nd ref="8747637909" />
	</way>
	<way id="944881656" version="1" timestamp="2021-05-19T23:25:37Z" changeset="104987760" uid="117930" user="bmispelon">
		<tag k="alt_name" v="Ørjevika" />
		<tag k="building" v="cabin" />
		<tag k="name" v="Ørjevik" />
		<tag k="place" v="isolated_dwelling" />
		<tag k="ref:bygningsnr" v="164111326" />
		<tag k="ssr:stedsnr" v="668431" />
		<tag k="ssr:type" v="fritidsbolig" />
		<nd ref="8747637928" />
		<nd ref="8747637927" />
		<nd ref="5679141269" />
		<nd ref="8747637926" />
		<nd ref="8747637928" />
	</way>
	<way id="944881660" version="1" timestamp="2021-05-19T23:25:37Z" changeset="104987760" uid="117930" user="bmispelon">
		<tag k="building" v="cabin" />
		<tag k="name" v="Smedvik" />
		<tag k="place" v="isolated_dwelling" />
		<tag k="ref:bygningsnr" v="164111369" />
		<tag k="ssr:stedsnr" v="815086" />
		<tag k="ssr:type" v="fritidsbolig" />
		<nd ref="8747637945" />
		<nd ref="8747637944" />
		<nd ref="8747637943" />
		<nd ref="8747637942" />
		<nd ref="8747637945" />
	</way>
	<way id="944895522" version="1" timestamp="2021-05-20T00:59:50Z" changeset="104988855" uid="117930" user="bmispelon">
		<tag k="building" v="cabin" />
		<tag k="name" v="Ringen" />
		<tag k="place" v="isolated_dwelling" />
		<tag k="ref:bygningsnr" v="164122344" />
		<tag k="ssr:stedsnr" v="116316" />
		<tag k="ssr:type" v="fritidsbolig" />
		<nd ref="8747766262" />
		<nd ref="8747766261" />
		<nd ref="8747766260" />
		<nd ref="8747766259" />
		<nd ref="8747766258" />
		<nd ref="8747766257" />
		<nd ref="8747766256" />
		<nd ref="8747766255" />
		<nd ref="8747766262" />
	</way>
	<way id="944895619" version="1" timestamp="2021-05-20T00:59:50Z" changeset="104988855" uid="117930" user="bmispelon">
		<tag k="building" v="cabin" />
		<tag k="name" v="Kula" />
		<tag k="place" v="isolated_dwelling" />
		<tag k="ref:bygningsnr" v="164113590" />
		<tag k="ssr:stedsnr" v="653900" />
		<tag k="ssr:type" v="fritidsbolig" />
		<nd ref="8747766983" />
		<nd ref="8747766982" />
		<nd ref="8747766981" />
		<nd ref="8747766980" />
		<nd ref="8747766979" />
		<nd ref="8747766978" />
		<nd ref="8747766977" />
		<nd ref="8747766976" />
		<nd ref="8747766983" />
	</way>
	<way id="100681534" version="4" timestamp="2021-05-19T14:26:05Z" changeset="104968782" uid="117930" user="bmispelon">
		<nd ref="1163922970" />
		<nd ref="1163923065" />
		<nd ref="1163922972" />
		<nd ref="1163923002" />
		<nd ref="1163922977" />
		<nd ref="1163923005" />
		<nd ref="1163922943" />
		<nd ref="1163922969" />
		<nd ref="1163922931" />
		<nd ref="1163922964" />
		<nd ref="1163923012" />
		<nd ref="1163923068" />
		<nd ref="1163923008" />
		<nd ref="1163923053" />
		<nd ref="1163922971" />
		<nd ref="1163922997" />
		<nd ref="1163922966" />
		<nd ref="1163922974" />
		<nd ref="1163923071" />
		<nd ref="1163922938" />
		<nd ref="1163923075" />
		<nd ref="1163922946" />
		<nd ref="1163923010" />
		<nd ref="1163923060" />
		<nd ref="1163923007" />
		<nd ref="1163923016" />
		<nd ref="1163922970" />
	</way>
	<relation id="1438241" version="4" timestamp="2021-05-19T14:26:05Z" changeset="104968782" uid="117930" user="bmispelon">
		<tag k="landuse" v="residential" />
		<tag k="name" v="Gravaåsen" />
		<tag k="place" v="neighbourhood" />
		<tag k="ssr:stedsnr" v="775038" />
		<tag k="ssr:type" v="boligfelt" />
		<tag k="type" v="multipolygon" />
		<member type="way" ref="100681534" role="outer" />
	</relation>
</osm>
