<?xml version="1.0" encoding="UTF-8"?>
<osm generator="osmapis" version="0.6">
	<node id="-771578" lat="69.9111211275" lon="20.7134857733">
		<tag k="name" v="Nord-Uløya" />
		<tag k="ssr:date" v="2019-05-30" />
		<tag k="ssr:gruppe" v="veg" />
		<tag k="ssr:hovedgruppe" v="infrastruktur" />
		<tag k="ssr:stedsnr" v="1011655" />
		<tag k="ssr:type" v="adressenavn" />
	</node>
	<node id="-771577" lat="69.97458494" lon="20.941866899">
		<tag k="name" v="Skognesveien" />
		<tag k="ssr:date" v="2019-05-30" />
		<tag k="ssr:gruppe" v="veg" />
		<tag k="ssr:hovedgruppe" v="infrastruktur" />
		<tag k="ssr:stedsnr" v="1011649" />
		<tag k="ssr:type" v="adressenavn" />
	</node>
	<node id="-771576" lat="70.045990165" lon="20.4666070195">
		<tag k="name" v="Lillevika" />
		<tag k="ssr:date" v="2019-05-30" />
		<tag k="ssr:gruppe" v="veg" />
		<tag k="ssr:hovedgruppe" v="infrastruktur" />
		<tag k="ssr:stedsnr" v="1011637" />
		<tag k="ssr:type" v="adressenavn" />
	</node>
	<node id="-771575" lat="70.1351110484" lon="20.3872845808">
		<tag k="name" v="Sør-Rekvika" />
		<tag k="ssr:date" v="2019-05-30" />
		<tag k="ssr:gruppe" v="veg" />
		<tag k="ssr:hovedgruppe" v="infrastruktur" />
		<tag k="ssr:stedsnr" v="1011636" />
		<tag k="ssr:type" v="adressenavn" />
	</node>
	<node id="-771958" lat="70.0340888864" lon="20.5368916582">
		<tag k="name" v="Arnøya" />
		<tag k="ssr:date" v="2016-05-10" />
		<tag k="ssr:gruppe" v="navigasjon" />
		<tag k="ssr:hovedgruppe" v="infrastruktur" />
		<tag k="ssr:stedsnr" v="201206" />
		<tag k="ssr:type" v="fyrlykt" />
	</node>
	<node id="-771573" lat="69.953613912" lon="20.6780272857">
		<tag k="name" v="Trollvasstien" />
		<tag k="ssr:date" v="2019-05-30" />
		<tag k="ssr:gruppe" v="veg" />
		<tag k="ssr:hovedgruppe" v="infrastruktur" />
		<tag k="ssr:stedsnr" v="1011634" />
		<tag k="ssr:type" v="adressenavn" />
	</node>
	<node id="-772084" lat="70.2366916691" lon="20.7025805277">
		<tag k="name" v="Hylla" />
		<tag k="ssr:date" v="2016-05-10" />
		<tag k="ssr:gruppe" v="navigasjon" />
		<tag k="ssr:hovedgruppe" v="infrastruktur" />
		<tag k="ssr:stedsnr" v="262092" />
		<tag k="ssr:type" v="fyrlykt" />
	</node>
	<node id="-771571" lat="69.9958795279" lon="21.0226997698">
		<tag k="name" v="Taskebyneset" />
		<tag k="ssr:date" v="2019-05-30" />
		<tag k="ssr:gruppe" v="veg" />
		<tag k="ssr:hovedgruppe" v="infrastruktur" />
		<tag k="ssr:stedsnr" v="1011627" />
		<tag k="ssr:type" v="adressenavn" />
	</node>
	<node id="-771570" lat="70.0440920552" lon="20.9718940621">
		<tag k="name" v="Isakeidveien" />
		<tag k="ssr:date" v="2019-05-30" />
		<tag k="ssr:gruppe" v="veg" />
		<tag k="ssr:hovedgruppe" v="infrastruktur" />
		<tag k="ssr:stedsnr" v="1011625" />
		<tag k="ssr:type" v="adressenavn" />
	</node>
	<node id="-771569" lat="70.0407414683" lon="20.9959973861">
		<tag k="name" v="Engnesveien" />
		<tag k="ssr:date" v="2019-05-30" />
		<tag k="ssr:gruppe" v="veg" />
		<tag k="ssr:hovedgruppe" v="infrastruktur" />
		<tag k="ssr:stedsnr" v="1011624" />
		<tag k="ssr:type" v="adressenavn" />
	</node>
	<node id="-771568" lat="70.0125009355" lon="20.9738439447">
		<tag k="name" v="Langørstien" />
		<tag k="ssr:date" v="2019-05-30" />
		<tag k="ssr:gruppe" v="veg" />
		<tag k="ssr:hovedgruppe" v="infrastruktur" />
		<tag k="ssr:stedsnr" v="1011622" />
		<tag k="ssr:type" v="adressenavn" />
	</node>
	<node id="-771567" lat="70.1341590433" lon="20.5448170868">
		<tag k="name" v="Langfjorddalen" />
		<tag k="ssr:date" v="2019-05-30" />
		<tag k="ssr:gruppe" v="veg" />
		<tag k="ssr:hovedgruppe" v="infrastruktur" />
		<tag k="ssr:stedsnr" v="1011618" />
		<tag k="ssr:type" v="adressenavn" />
	</node>
	<node id="-771566" lat="70.228882797" lon="20.6379024723">
		<tag k="name" v="Nord-Rekvika" />
		<tag k="ssr:date" v="2019-05-30" />
		<tag k="ssr:gruppe" v="veg" />
		<tag k="ssr:hovedgruppe" v="infrastruktur" />
		<tag k="ssr:stedsnr" v="1011617" />
		<tag k="ssr:type" v="adressenavn" />
	</node>
	<node id="-773101" lat="68.4849327361" lon="16.2297866207">
		<tag k="fixme" v="multiple name tags, choose one and add the other to alt_name" />
		<tag k="name" v="Nord-Noreg;Nord-Norge" />
		<tag k="ssr:date" v="2017-05-18" />
		<tag k="ssr:gruppe" v="administrativeIndelinger" />
		<tag k="ssr:hovedgruppe" v="offentligAdministrasjon" />
		<tag k="ssr:stedsnr" v="976106" />
		<tag k="ssr:type" v="annenAdministrativInndeling" />
	</node>
	<node id="-772837" lat="69.9991750024" lon="21.0678027443">
		<tag k="name" v="Taskebyneset" />
		<tag k="old_name" v="Taskebynesgrunnen" />
		<tag k="ssr:date" v="2016-05-11" />
		<tag k="ssr:gruppe" v="navigasjon" />
		<tag k="ssr:hovedgruppe" v="infrastruktur" />
		<tag k="ssr:stedsnr" v="808901" />
		<tag k="ssr:type" v="fyrlykt" />
	</node>
	<node id="-771574" lat="70.049053214" lon="20.4365305002">
		<tag k="name" v="Geitvika" />
		<tag k="ssr:date" v="2019-05-30" />
		<tag k="ssr:gruppe" v="veg" />
		<tag k="ssr:hovedgruppe" v="infrastruktur" />
		<tag k="ssr:stedsnr" v="1011635" />
		<tag k="ssr:type" v="adressenavn" />
	</node>
	<node id="-771572" lat="69.9775018606" lon="20.6337374732">
		<tag k="name" v="Trondalen" />
		<tag k="ssr:date" v="2019-05-30" />
		<tag k="ssr:gruppe" v="veg" />
		<tag k="ssr:hovedgruppe" v="infrastruktur" />
		<tag k="ssr:stedsnr" v="1011633" />
		<tag k="ssr:type" v="adressenavn" />
	</node>
	<node id="-772663" lat="70.0518638912" lon="20.7920638575">
		<tag k="name" v="Kågsund" />
		<tag k="old_name" v="Kågsundet" />
		<tag k="ssr:date" v="2016-05-11" />
		<tag k="ssr:gruppe" v="navigasjon" />
		<tag k="ssr:hovedgruppe" v="infrastruktur" />
		<tag k="ssr:stedsnr" v="747225" />
		<tag k="ssr:type" v="fyrlykt" />
	</node>
	<node id="-771611" lat="70.1769916665" lon="20.4101749819">
		<tag k="name" v="Skjåvikneset" />
		<tag k="old_name" v="Bankekeila;Pankekeila" />
		<tag k="ssr:date" v="2016-05-10" />
		<tag k="ssr:gruppe" v="navigasjon" />
		<tag k="ssr:hovedgruppe" v="infrastruktur" />
		<tag k="ssr:stedsnr" v="19907" />
		<tag k="ssr:type" v="fyrlykt" />
	</node>
	<node id="-771312" lat="70.1531000012" lon="20.7831610972">
		<tag k="name" v="Nordre Lauksund" />
		<tag k="old_name" v="Lauksundet, nordre" />
		<tag k="ssr:date" v="2016-05-10" />
		<tag k="ssr:gruppe" v="navigasjon" />
		<tag k="ssr:hovedgruppe" v="infrastruktur" />
		<tag k="ssr:stedsnr" v="383009" />
		<tag k="ssr:type" v="fyrlykt" />
	</node>
	<node id="-771614" lat="70.1045111083" lon="20.7498777514">
		<tag k="name" v="Søre Lauksund" />
		<tag k="old_name" v="Lauksundet, s" />
		<tag k="ssr:date" v="2016-05-10" />
		<tag k="ssr:gruppe" v="navigasjon" />
		<tag k="ssr:hovedgruppe" v="infrastruktur" />
		<tag k="ssr:stedsnr" v="20207" />
		<tag k="ssr:type" v="fyrlykt" />
	</node>
	<node id="-771995" lat="70.0337861093" lon="20.9736555282">
		<tag k="name" v="Skjervøy kommune" />
		<tag k="ssr:date" v="2016-05-10" />
		<tag k="ssr:gruppe" v="administrativeIndelinger" />
		<tag k="ssr:hovedgruppe" v="offentligAdministrasjon" />
		<tag k="ssr:stedsnr" v="208756" />
		<tag k="ssr:type" v="kommune" />
	</node>
	<node id="-771610" lat="69.9912027791" lon="20.6368138732">
		<tag k="name" v="Vorterøy" />
		<tag k="ssr:date" v="2016-05-10" />
		<tag k="ssr:gruppe" v="navigasjon" />
		<tag k="ssr:hovedgruppe" v="infrastruktur" />
		<tag k="ssr:stedsnr" v="19627" />
		<tag k="ssr:type" v="fyrlykt" />
	</node>
	<node id="-771182" lat="70.0616444421" lon="20.995552746">
		<tag k="name" v="Skjervøya" />
		<tag k="ssr:date" v="2016-05-10" />
		<tag k="ssr:gruppe" v="navigasjon" />
		<tag k="ssr:hovedgruppe" v="infrastruktur" />
		<tag k="ssr:stedsnr" v="322226" />
		<tag k="ssr:type" v="fyrlykt" />
	</node>
</osm>
