<?xml version="1.0" encoding="UTF-8"?>
<osm generator="osmapis" version="0.6">
	<node id="-388159" lat="58.9958777746" lon="6.9049083366">
		<tag k="name" v="Kvithedlarmyran" />
		<tag k="natural" v="wetland" />
		<tag k="ssr:stedsnr" v="772516" />
	</node>
	<node id="-385280" lat="58.9922583325" lon="6.94100277631">
		<tag k="name" v="Salamonsteinen" />
		<tag k="natural" v="stone" />
		<tag k="ssr:stedsnr" v="105563" />
	</node>
	<node id="-384085" lat="58.6103416661" lon="6.6868861174">
		<tag k="name" v="Kyrkjemyra" />
		<tag k="natural" v="wetland" />
		<tag k="ssr:stedsnr" v="407248" />
	</node>
	<node id="-388091" lat="58.7683166634" lon="6.82983333232">
		<tag k="name" v="Surdalsmyra" />
		<tag k="natural" v="wetland" />
		<tag k="ssr:stedsnr" v="771696" />
	</node>
	<node id="-385528" lat="58.6348750038" lon="6.52368055904">
		<tag k="name" v="Hommemyra" />
		<tag k="natural" v="wetland" />
		<tag k="ssr:stedsnr" v="164792" />
	</node>
	<node id="-383479" lat="58.5759888891" lon="6.80440277078">
		<tag k="name" v="Klovsteinan" />
		<tag k="natural" v="stone" />
		<tag k="ssr:stedsnr" v="286474" />
	</node>
	<node id="-384502" lat="58.7421777738" lon="6.7749027849">
		<tag k="name" v="Andemyr" />
		<tag k="place" v="locality" />
		<tag k="ssr:stedsnr" v="893773" />
	</node>
	<node id="-383477" lat="58.5782500029" lon="6.73388888096">
		<tag k="name" v="Tønneslåta" />
		<tag k="natural" v="wetland" />
		<tag k="ssr:stedsnr" v="286467" />
	</node>
	<node id="-387060" lat="58.7791777772" lon="6.83883889715">
		<tag k="name" v="Lonemyra" />
		<tag k="natural" v="wetland" />
		<tag k="ssr:stedsnr" v="589599" />
	</node>
	<node id="-385523" lat="58.6440916672" lon="6.53417221624">
		<tag k="name" v="Nyland" />
		<tag k="place" v="locality" />
		<tag k="ssr:stedsnr" v="164778" />
	</node>
	<node id="-383473" lat="58.5804472178" lon="6.67918054816">
		<tag k="name" v="Hestnes" />
		<tag k="place" v="locality" />
		<tag k="ssr:stedsnr" v="286425" />
	</node>
	<node id="-387056" lat="58.5325777777" lon="6.7704666675">
		<tag k="name" v="Torvmyra" />
		<tag k="natural" v="wetland" />
		<tag k="ssr:stedsnr" v="589588" />
	</node>
	<node id="-388587" lat="58.9393138869" lon="6.93115278019">
		<tag k="name" v="Hellarstein" />
		<tag k="natural" v="stone" />
		<tag k="ssr:stedsnr" v="833778" />
	</node>
	<node id="-387049" lat="58.5232027789" lon="6.70663610823">
		<tag k="name" v="Stølssteinan" />
		<tag k="natural" v="stone" />
		<tag k="ssr:stedsnr" v="589575" />
	</node>
	<node id="-387047" lat="58.5265611081" lon="6.75760834016">
		<tag k="name" v="Røskosteinan" />
		<tag k="natural" v="stone" />
		<tag k="ssr:stedsnr" v="589562" />
	</node>
	<node id="-383569" lat="59.0415555522" lon="6.97941389657">
		<tag k="name" v="Storrslåtten" />
		<tag k="natural" v="wetland" />
		<tag k="ssr:stedsnr" v="287614" />
	</node>
	<node id="-384483" lat="58.7415222212" lon="6.62610832582">
		<tag k="name" v="Holemyran" />
		<tag k="natural" v="wetland" />
		<tag k="ssr:stedsnr" v="893721" />
	</node>
	<node id="-384482" lat="58.7112083338" lon="6.88331389738">
		<tag k="name" v="Videmyran" />
		<tag k="natural" v="wetland" />
		<tag k="ssr:stedsnr" v="893722" />
	</node>
	<node id="-388577" lat="58.765511113" lon="6.82450000451">
		<tag k="name" v="Romestølmyra" />
		<tag k="natural" v="wetland" />
		<tag k="ssr:stedsnr" v="833737" />
	</node>
	<node id="-387039" lat="58.7199944475" lon="6.63766389368">
		<tag k="name" v="Torvmyra" />
		<tag k="natural" v="wetland" />
		<tag k="ssr:stedsnr" v="589533" />
	</node>
	<node id="-384478" lat="58.761699998" lon="6.80855277713">
		<tag k="name" v="Ras-ur" />
		<tag k="natural" v="scree" />
		<tag k="ssr:stedsnr" v="893714" />
	</node>
	<node id="-385499" lat="58.5516388881" lon="6.73742777823">
		<tag k="name" v="Langemyr" />
		<tag k="natural" v="wetland" />
		<tag k="ssr:stedsnr" v="164630" />
	</node>
	<node id="-387034" lat="58.7141583342" lon="6.65376944058">
		<tag k="name" v="Føremyran" />
		<tag k="natural" v="wetland" />
		<tag k="ssr:stedsnr" v="589526" />
	</node>
	<node id="-384472" lat="58.739291667" lon="6.85490000162">
		<tag k="name" v="Halvfarstein" />
		<tag k="natural" v="stone" />
		<tag k="ssr:stedsnr" v="893699" />
	</node>
	<node id="-388055" lat="58.5744999982" lon="6.68196111021">
		<tag k="name" v="Honneflåtmyra" />
		<tag k="natural" v="wetland" />
		<tag k="ssr:stedsnr" v="771425" />
	</node>
	<node id="-389077" lat="58.7771365679" lon="6.61491113537">
		<tag k="historic" v="shieling" />
		<tag k="name" v="Øyestøl" />
		<tag k="place" v="locality" />
		<tag k="ssr:stedsnr" v="979909" />
	</node>
	<node id="-385492" lat="58.5679833373" lon="6.65941944051">
		<tag k="name" v="Flottjødnlega" />
		<tag k="natural" v="wetland" />
		<tag k="ssr:stedsnr" v="164586" />
	</node>
	<node id="-388942" lat="58.6959888885" lon="6.79813054818">
		<tag k="name" v="Knutskjermyra" />
		<tag k="natural" v="wetland" />
		<tag k="ssr:stedsnr" v="954376" />
	</node>
	<node id="-385490" lat="58.5766527805" lon="6.80292222701">
		<tag k="name" v="Naudeslåta" />
		<tag k="natural" v="wetland" />
		<tag k="ssr:stedsnr" v="164541" />
	</node>
	<node id="-388561" lat="58.9230277742" lon="6.91777222794">
		<tag k="name" v="Svåen" />
		<tag k="natural" v="wetland" />
		<tag k="ssr:stedsnr" v="833680" />
	</node>
	<node id="-383736" lat="58.5726166652" lon="6.6589666642">
		<tag k="name" v="Mannhom" />
		<tag k="natural" v="wetland" />
		<tag k="ssr:stedsnr" v="346508" />
	</node>
	<node id="-384077" lat="58.7868888915" lon="6.80273332839">
		<tag k="name" v="Jenteslåta" />
		<tag k="natural" v="wetland" />
		<tag k="ssr:stedsnr" v="407232" />
	</node>
	<node id="-388044" lat="58.5624444428" lon="6.79164167083">
		<tag k="name" v="Bergeslåtten" />
		<tag k="natural" v="wetland" />
		<tag k="ssr:stedsnr" v="771331" />
	</node>
	<node id="-384162" lat="58.6823999966" lon="6.73389445074">
		<tag k="name" v="Mørkeskog" />
		<tag k="place" v="locality" />
		<tag k="ssr:stedsnr" v="407794" />
	</node>
	<node id="-383432" lat="58.7835194454" lon="6.78291389166">
		<tag k="name" v="Hausteslåtten" />
		<tag k="natural" v="wetland" />
		<tag k="ssr:stedsnr" v="286191" />
	</node>
	<node id="-383820" lat="58.9000277796" lon="6.97606666696">
		<tag k="name" v="Småslåttene" />
		<tag k="natural" v="wetland" />
		<tag k="ssr:stedsnr" v="347378" />
	</node>
	<node id="-387014" lat="58.5793083297" lon="6.68093056392">
		<tag k="name" v="Sletegra" />
		<tag k="place" v="locality" />
		<tag k="ssr:stedsnr" v="589406" />
	</node>
	<node id="-384450" lat="58.8866250033" lon="7.06173055909">
		<tag k="name" v="Stedjane" />
		<tag k="natural" v="wetland" />
		<tag k="ssr:stedsnr" v="893620" />
	</node>
	<node id="-384449" lat="58.7240027739" lon="6.73423889008">
		<tag k="name" v="Stimyra" />
		<tag k="natural" v="wetland" />
		<tag k="ssr:stedsnr" v="893613" />
	</node>
	<node id="-388544" lat="59.0147055086" lon="6.95830527918">
		<tag k="name" v="Hesture" />
		<tag k="natural" v="scree" />
		<tag k="ssr:stedsnr" v="833589" />
	</node>
	<node id="-385983" lat="59.0227796817" lon="6.97224427952">
		<tag k="name" v="Bekkestean" />
		<tag k="natural" v="wetland" />
		<tag k="ssr:stedsnr" v="226640" />
	</node>
	<node id="-388542" lat="59.0163336065" lon="6.94737784128">
		<tag k="name" v="Via myra" />
		<tag k="natural" v="wetland" />
		<tag k="ssr:stedsnr" v="833584" />
	</node>
	<node id="-387003" lat="58.6906638896" lon="6.77447777887">
		<tag k="name" v="Kyrremyr" />
		<tag k="natural" v="wetland" />
		<tag k="ssr:stedsnr" v="589361" />
	</node>
	<node id="-384442" lat="58.5368583318" lon="6.76753054812">
		<tag k="name" v="Liemyr" />
		<tag k="natural" v="wetland" />
		<tag k="ssr:stedsnr" v="893590" />
	</node>
	<node id="-387001" lat="58.6902972183" lon="6.78868055811">
		<tag k="name" v="Lillemyra" />
		<tag k="natural" v="wetland" />
		<tag k="ssr:stedsnr" v="589358" />
	</node>
	<node id="-389046" lat="58.8459833304" lon="6.75924722247">
		<tag k="name" v="Trollura" />
		<tag k="natural" v="scree" />
		<tag k="ssr:stedsnr" v="954866" />
	</node>
	<node id="-384841" lat="58.5190999966" lon="6.74965000151">
		<tag k="name" v="Bervamyr" />
		<tag k="natural" v="wetland" />
		<tag k="ssr:stedsnr" v="43615" />
	</node>
	<node id="-388532" lat="59.0193227273" lon="6.91627726432">
		<tag k="name" v="Ørnesteinen" />
		<tag k="natural" v="stone" />
		<tag k="ssr:stedsnr" v="833548" />
	</node>
	<node id="-387998" lat="58.5156944477" lon="6.72971943704">
		<tag k="name" v="Lembakkmyra" />
		<tag k="natural" v="wetland" />
		<tag k="ssr:stedsnr" v="770698" />
	</node>
	<node id="-384944" lat="58.8488833289" lon="6.69860277864">
		<tag k="name" v="Klovsteinan" />
		<tag k="natural" v="stone" />
		<tag k="ssr:stedsnr" v="44660" />
	</node>
	<node id="-385453" lat="58.6086499978" lon="6.69511388337">
		<tag k="name" v="Hansholmyra" />
		<tag k="natural" v="wetland" />
		<tag k="ssr:stedsnr" v="164237" />
	</node>
	<node id="-383404" lat="58.6588111156" lon="6.61341945195">
		<tag k="name" v="Smååsmyra" />
		<tag k="natural" v="wetland" />
		<tag k="ssr:stedsnr" v="285162" />
	</node>
	<node id="-385963" lat="59.0090722186" lon="6.93332499474">
		<tag k="name" v="Store Steinan" />
		<tag k="natural" v="stone" />
		<tag k="ssr:stedsnr" v="226579" />
	</node>
	<node id="-389034" lat="58.9605361134" lon="6.90968888469">
		<tag k="name" v="Stedjan" />
		<tag k="natural" v="wetland" />
		<tag k="ssr:stedsnr" v="954790" />
	</node>
	<node id="-383401" lat="58.5076749979" lon="6.77257499728">
		<tag k="name" v="Grøne tødnan" />
		<tag k="place" v="locality" />
		<tag k="ssr:stedsnr" v="285096" />
	</node>
	<node id="-387996" lat="58.5043416649" lon="6.76968333664">
		<tag k="name" v="Brattebrodet" />
		<tag k="place" v="locality" />
		<tag k="ssr:stedsnr" v="770107" />
	</node>
	<node id="-384422" lat="58.9712305535" lon="6.9162111124">
		<tag k="name" v="Kusteinen" />
		<tag k="natural" v="stone" />
		<tag k="ssr:stedsnr" v="893536" />
	</node>
	<node id="-383768" lat="58.7162361121" lon="6.72236944649">
		<tag k="name" v="Stora ura" />
		<tag k="natural" v="scree" />
		<tag k="ssr:stedsnr" v="346666" />
	</node>
	<node id="-385657" lat="58.9081666691" lon="6.98441943932">
		<tag k="name" v="Finnen" />
		<tag k="natural" v="wetland" />
		<tag k="ssr:stedsnr" v="165761" />
	</node>
	<node id="-383907" lat="58.9320833343" lon="6.7917694414">
		<tag k="name" v="Myrane" />
		<tag k="natural" v="wetland" />
		<tag k="ssr:stedsnr" v="347833" />
	</node>
	<node id="-388002" lat="58.6641194405" lon="6.77579166752">
		<tag k="name" v="Løeslåtten" />
		<tag k="natural" v="wetland" />
		<tag k="ssr:stedsnr" v="771051" />
	</node>
	<node id="-388507" lat="58.8663083341" lon="6.9134999986">
		<tag k="name" v="Kartemyr" />
		<tag k="natural" v="wetland" />
		<tag k="ssr:stedsnr" v="833366" />
	</node>
	<node id="-384496" lat="58.632119443" lon="6.69117222451">
		<tag k="name" v="Ulvshom" />
		<tag k="natural" v="wetland" />
		<tag k="ssr:stedsnr" v="893747" />
	</node>
	<node id="-387486" lat="58.9258305526" lon="7.10450555422">
		<tag k="name" v="Hønevassfinnen" />
		<tag k="natural" v="wetland" />
		<tag k="ssr:stedsnr" v="650751" />
	</node>
	<node id="-385949" lat="58.9096722195" lon="6.79712221695">
		<tag k="name" v="Røseura" />
		<tag k="natural" v="scree" />
		<tag k="ssr:stedsnr" v="226546" />
	</node>
	<node id="-386460" lat="58.9024472234" lon="6.60231666271">
		<tag k="name" v="Indre Tverrlega" />
		<tag k="natural" v="wetland" />
		<tag k="ssr:stedsnr" v="468981" />
	</node>
	<node id="-387483" lat="58.7426416641" lon="6.6060583408">
		<tag k="name" v="Klovsteinan" />
		<tag k="natural" v="stone" />
		<tag k="ssr:stedsnr" v="650745" />
	</node>
	<node id="-386970" lat="58.6618861095" lon="6.63468054804">
		<tag k="name" v="Storemyr" />
		<tag k="natural" v="wetland" />
		<tag k="ssr:stedsnr" v="589178" />
	</node>
	<node id="-387993" lat="58.5132388899" lon="6.7561361075">
		<tag k="name" v="Stårrfloda" />
		<tag k="place" v="locality" />
		<tag k="ssr:stedsnr" v="770077" />
	</node>
	<node id="-385860" lat="58.5759333332" lon="6.6951027837">
		<tag k="name" v="Store ura" />
		<tag k="natural" v="scree" />
		<tag k="ssr:stedsnr" v="225431" />
	</node>
	<node id="-388797" lat="58.5100555554" lon="6.76286944549">
		<tag k="landuse" v="meadow" />
		<tag k="name" v="Ystevoll" />
		<tag k="ssr:stedsnr" v="952085" />
	</node>
	<node id="-385429" lat="58.6125083324" lon="6.72004722138">
		<tag k="name" v="Bjødnemyr" />
		<tag k="natural" v="wetland" />
		<tag k="ssr:stedsnr" v="164047" />
	</node>
	<node id="-387476" lat="58.9423527791" lon="6.82914443903">
		<tag k="name" v="Jenteslåttene" />
		<tag k="natural" v="wetland" />
		<tag k="ssr:stedsnr" v="650715" />
	</node>
	<node id="-385939" lat="58.6680666666" lon="6.82866111747">
		<tag k="name" v="Steian" />
		<tag k="natural" v="wetland" />
		<tag k="ssr:stedsnr" v="226468" />
	</node>
	<node id="-384912" lat="58.8639916676" lon="6.90815833128">
		<tag k="name" v="Finnane" />
		<tag k="natural" v="wetland" />
		<tag k="ssr:stedsnr" v="44345" />
	</node>
	<node id="-384399" lat="58.5381833349" lon="6.77465000275">
		<tag k="name" v="Steiane" />
		<tag k="natural" v="wetland" />
		<tag k="ssr:stedsnr" v="893407" />
	</node>
	<node id="-386958" lat="58.6093972244" lon="6.72625277971">
		<tag k="name" v="Fjordingsmyr" />
		<tag k="natural" v="wetland" />
		<tag k="ssr:stedsnr" v="589055" />
	</node>
	<node id="-389005" lat="58.7914555584" lon="6.8350861072">
		<tag k="name" v="Myran" />
		<tag k="natural" v="wetland" />
		<tag k="ssr:stedsnr" v="954683" />
	</node>
	<node id="-387467" lat="58.7564361147" lon="6.84510000822">
		<tag k="name" v="Moltekjæret" />
		<tag k="natural" v="wetland" />
		<tag k="ssr:stedsnr" v="650671" />
	</node>
	<node id="-385930" lat="58.6917527775" lon="6.79936667121">
		<tag k="name" v="Nyalømyra" />
		<tag k="natural" v="wetland" />
		<tag k="ssr:stedsnr" v="226423" />
	</node>
	<node id="-386953" lat="58.6628472197" lon="6.8337138867">
		<tag k="name" v="Kolbeinsmyran" />
		<tag k="natural" v="wetland" />
		<tag k="ssr:stedsnr" v="588488" />
	</node>
	<node id="-388488" lat="58.7267111129" lon="6.71221111569">
		<tag k="name" v="Mauremyran" />
		<tag k="natural" v="wetland" />
		<tag k="ssr:stedsnr" v="833606" />
	</node>
	<node id="-385415" lat="58.5700805562" lon="6.6387638917">
		<tag k="name" v="Videmyran" />
		<tag k="natural" v="wetland" />
		<tag k="ssr:stedsnr" v="158402" />
	</node>
	<node id="-386435" lat="58.9634861083" lon="6.91292500503">
		<tag k="name" v="Vika" />
		<tag k="natural" v="wetland" />
		<tag k="ssr:stedsnr" v="468786" />
	</node>
	<node id="-386239" lat="58.6223083331" lon="6.66662222146">
		<tag k="name" v="Smøreholet" />
		<tag k="natural" v="wetland" />
		<tag k="ssr:stedsnr" v="467234" />
	</node>
	<node id="-384517" lat="58.8585055581" lon="6.87786944186">
		<tag k="name" v="Grasmyran" />
		<tag k="natural" v="wetland" />
		<tag k="ssr:stedsnr" v="893856" />
	</node>
	<node id="-386944" lat="58.5964972194" lon="6.76937777637">
		<tag k="name" v="Trælemyr" />
		<tag k="natural" v="wetland" />
		<tag k="ssr:stedsnr" v="588175" />
	</node>
	<node id="-383808" lat="58.8609861131" lon="6.79592499763">
		<tag k="name" v="Rekeviksmyra" />
		<tag k="place" v="locality" />
		<tag k="ssr:stedsnr" v="347307" />
	</node>
	<node id="-386941" lat="58.6205722179" lon="6.63439167345">
		<tag k="name" v="Følsmyr" />
		<tag k="natural" v="wetland" />
		<tag k="ssr:stedsnr" v="588143" />
	</node>
	<node id="-388988" lat="59.0154418541" lon="6.97119767559">
		<tag k="name" v="Bjødnura" />
		<tag k="natural" v="scree" />
		<tag k="ssr:stedsnr" v="954608" />
	</node>
	<node id="-386282" lat="58.6667361145" lon="6.61828611199">
		<tag k="name" v="Marteskjerr" />
		<tag k="natural" v="wetland" />
		<tag k="ssr:stedsnr" v="468152" />
	</node>
	<node id="-388474" lat="58.9830333299" lon="6.92210554985">
		<tag k="name" v="Larsasteinen" />
		<tag k="natural" v="stone" />
		<tag k="ssr:stedsnr" v="832956" />
	</node>
	<node id="-384831" lat="58.906005555" lon="6.84759166115">
		<tag k="name" v="Lassemyra" />
		<tag k="natural" v="wetland" />
		<tag k="ssr:stedsnr" v="43595" />
	</node>
	<node id="-387448" lat="59.0219910796" lon="6.96837983603">
		<tag k="name" v="Troslimyra" />
		<tag k="natural" v="wetland" />
		<tag k="ssr:stedsnr" v="650577" />
	</node>
	<node id="-385428" lat="58.6104166693" lon="6.74750277412">
		<tag k="name" v="Oskelhommyra" />
		<tag k="natural" v="wetland" />
		<tag k="ssr:stedsnr" v="164039" />
	</node>
	<node id="-384886" lat="58.81775833" lon="6.66329165914">
		<tag k="name" v="Hedla" />
		<tag k="natural" v="stone" />
		<tag k="ssr:stedsnr" v="44275" />
	</node>
	<node id="-386933" lat="58.6646583332" lon="6.67587499949">
		<tag k="name" v="Fjerdingsmyr" />
		<tag k="natural" v="wetland" />
		<tag k="ssr:stedsnr" v="588154" />
	</node>
	<node id="-386420" lat="58.9093138884" lon="6.97974721514">
		<tag k="name" v="Holmane" />
		<tag k="natural" v="wetland" />
		<tag k="ssr:stedsnr" v="468728" />
	</node>
	<node id="-388979" lat="58.7246111121" lon="6.71717778255">
		<tag k="name" v="Lega" />
		<tag k="natural" v="wetland" />
		<tag k="ssr:stedsnr" v="954579" />
	</node>
	<node id="-387438" lat="58.7227305539" lon="6.70231666924">
		<tag k="name" v="Sirisfænet" />
		<tag k="natural" v="wetland" />
		<tag k="ssr:stedsnr" v="650542" />
	</node>
	<node id="-387437" lat="59.0230863991" lon="6.96313922833">
		<tag k="name" v="Smålimyrane" />
		<tag k="natural" v="wetland" />
		<tag k="ssr:stedsnr" v="650538" />
	</node>
	<node id="-383463" lat="58.5933888894" lon="6.66689166253">
		<tag k="name" v="Hollkjerran" />
		<tag k="natural" v="wetland" />
		<tag k="ssr:stedsnr" v="286367" />
	</node>
	<node id="-383848" lat="58.9993750038" lon="6.9322083403">
		<tag k="name" v="Kvesteinen" />
		<tag k="natural" v="stone" />
		<tag k="ssr:stedsnr" v="347537" />
	</node>
	<node id="-384376" lat="58.7302833358" lon="6.79823889165">
		<tag k="name" v="Myrberkjeret" />
		<tag k="natural" v="wetland" />
		<tag k="ssr:stedsnr" v="893316" />
	</node>
	<node id="-384827" lat="58.5318083298" lon="6.75038055079">
		<tag k="name" v="Liemyr" />
		<tag k="natural" v="wetland" />
		<tag k="ssr:stedsnr" v="43586" />
	</node>
	<node id="-385888" lat="58.6727805521" lon="6.71750555506">
		<tag k="landuse" v="quarry" />
		<tag k="name" v="Tunga" />
		<tag k="ssr:stedsnr" v="225761" />
	</node>
	<node id="-383447" lat="58.6630416665" lon="6.72757499246">
		<tag k="name" v="Storemyr" />
		<tag k="natural" v="wetland" />
		<tag k="ssr:stedsnr" v="286247" />
	</node>
	<node id="-388956" lat="58.8859083352" lon="6.84281389711">
		<tag k="name" v="Tågemyr" />
		<tag k="natural" v="wetland" />
		<tag k="ssr:stedsnr" v="954465" />
	</node>
	<node id="-385882" lat="58.6301777767" lon="6.76052778462">
		<tag k="name" v="Galthommyr" />
		<tag k="natural" v="wetland" />
		<tag k="ssr:stedsnr" v="225740" />
	</node>
	<node id="-383833" lat="58.894649998" lon="6.86761110609">
		<tag k="name" v="Stilkemyra" />
		<tag k="natural" v="wetland" />
		<tag k="ssr:stedsnr" v="347438" />
	</node>
	<node id="-387415" lat="58.8899944418" lon="6.86150000635">
		<tag k="name" v="Lomstjønn" />
		<tag k="natural" v="wetland" />
		<tag k="ssr:stedsnr" v="650426" />
	</node>
	<node id="-385878" lat="58.7400138911" lon="6.87557221585">
		<tag k="name" v="Rålshola" />
		<tag k="natural" v="wetland" />
		<tag k="ssr:stedsnr" v="225716" />
	</node>
	<node id="-384313" lat="58.513061114" lon="6.74540555439">
		<tag k="name" v="Kvednhusbakken" />
		<tag k="place" v="locality" />
		<tag k="ssr:stedsnr" v="892066" />
	</node>
	<node id="-388690" lat="58.9579999966" lon="6.79306111569">
		<tag k="name" v="Svåene" />
		<tag k="place" v="locality" />
		<tag k="ssr:stedsnr" v="851795" />
	</node>
	<node id="-386385" lat="58.5239583313" lon="6.72705555372">
		<tag k="name" v="Solli" />
		<tag k="natural" v="wetland" />
		<tag k="ssr:stedsnr" v="468597" />
	</node>
	<node id="-384848" lat="58.7808194456" lon="6.83925833638">
		<tag k="name" v="Samlogslåta" />
		<tag k="natural" v="wetland" />
		<tag k="ssr:stedsnr" v="43639" />
	</node>
	<node id="-388430" lat="58.5288027762" lon="6.79649721591">
		<tag k="name" v="Botnan" />
		<tag k="natural" v="wetland" />
		<tag k="ssr:stedsnr" v="832573" />
	</node>
	<node id="-385869" lat="58.5794250001" lon="6.71474444057">
		<tag k="name" v="Fleskur" />
		<tag k="natural" v="scree" />
		<tag k="ssr:stedsnr" v="225529" />
	</node>
	<node id="-387404" lat="58.6891249976" lon="6.8052944452">
		<tag k="name" v="Prestekjer" />
		<tag k="natural" v="wetland" />
		<tag k="ssr:stedsnr" v="650342" />
	</node>
	<node id="-385237" lat="58.7530777793" lon="6.66504722798">
		<tag k="name" v="Botnen" />
		<tag k="natural" v="wetland" />
		<tag k="ssr:stedsnr" v="104752" />
	</node>
	<node id="-388425" lat="58.5795805584" lon="6.7728500029">
		<tag k="name" v="Joda" />
		<tag k="natural" v="wetland" />
		<tag k="ssr:stedsnr" v="832496" />
	</node>
	<node id="-388420" lat="58.5468305557" lon="6.78890833935">
		<tag k="name" v="Vinddega" />
		<tag k="natural" v="wetland" />
		<tag k="ssr:stedsnr" v="832463" />
	</node>
	<node id="-385078" lat="58.5139611126" lon="6.82101110257">
		<tag k="name" v="Vide myran" />
		<tag k="natural" v="wetland" />
		<tag k="ssr:stedsnr" v="103670" />
	</node>
	<node id="-388418" lat="58.5488638888" lon="6.77220556078">
		<tag k="name" v="Eriksmyr" />
		<tag k="natural" v="wetland" />
		<tag k="ssr:stedsnr" v="832459" />
	</node>
	<node id="-386955" lat="58.5070138886" lon="6.71325000466">
		<tag k="name" v="Saueliura" />
		<tag k="natural" v="scree" />
		<tag k="ssr:stedsnr" v="588707" />
	</node>
	<node id="-385856" lat="58.5842388878" lon="6.6752083371">
		<tag k="name" v="Myran" />
		<tag k="place" v="locality" />
		<tag k="ssr:stedsnr" v="225409" />
	</node>
	<node id="-386367" lat="58.9140111072" lon="6.84230833791">
		<tag k="name" v="Vigestølmyrane" />
		<tag k="natural" v="wetland" />
		<tag k="ssr:stedsnr" v="468551" />
	</node>
	<node id="-388413" lat="58.5738638879" lon="6.67968056177">
		<tag k="name" v="Videmyran" />
		<tag k="natural" v="wetland" />
		<tag k="ssr:stedsnr" v="832444" />
	</node>
	<node id="-384316" lat="58.6191055596" lon="6.63498611941">
		<tag k="name" v="Helgasmyran" />
		<tag k="natural" v="wetland" />
		<tag k="ssr:stedsnr" v="892145" />
	</node>
	<node id="-387899" lat="58.9037888858" lon="6.7541055552">
		<tag k="name" v="Pinkesteinen" />
		<tag k="natural" v="stone" />
		<tag k="ssr:stedsnr" v="712949" />
	</node>
	<node id="-385849" lat="58.7071361126" lon="6.86418888855">
		<tag k="name" v="Brudgomssteinen" />
		<tag k="natural" v="stone" />
		<tag k="ssr:stedsnr" v="225304" />
	</node>
	<node id="-384820" lat="58.5418694485" lon="6.72398332787">
		<tag k="name" v="Hestemyr" />
		<tag k="natural" v="wetland" />
		<tag k="ssr:stedsnr" v="43550" />
	</node>
	<node id="-384822" lat="58.5537555554" lon="6.76254721683">
		<tag k="name" v="Myrstranda" />
		<tag k="natural" v="wetland" />
		<tag k="ssr:stedsnr" v="43559" />
	</node>
	<node id="-385929" lat="58.696849996" lon="6.80156389452">
		<tag k="name" v="Knutskjer" />
		<tag k="natural" v="wetland" />
		<tag k="ssr:stedsnr" v="226422" />
	</node>
	<node id="-386356" lat="58.5513944438" lon="6.72249722853">
		<tag k="name" v="Hologsmyra" />
		<tag k="natural" v="wetland" />
		<tag k="ssr:stedsnr" v="468525" />
	</node>
	<node id="-384817" lat="58.5448972196" lon="6.72144721388">
		<tag k="name" v="Knapparmyr" />
		<tag k="natural" v="wetland" />
		<tag k="ssr:stedsnr" v="43546" />
	</node>
	<node id="-385928" lat="58.7891194473" lon="6.54765000592">
		<tag k="name" v="Leidesteinen" />
		<tag k="natural" v="stone" />
		<tag k="ssr:stedsnr" v="226414" />
	</node>
	<node id="-384813" lat="58.7206388868" lon="6.64236944889">
		<tag k="name" v="Brennåsmyra" />
		<tag k="natural" v="wetland" />
		<tag k="ssr:stedsnr" v="43533" />
	</node>
	<node id="-387884" lat="58.9143472228" lon="6.82679999519">
		<tag k="name" v="Stilkemyra" />
		<tag k="natural" v="wetland" />
		<tag k="ssr:stedsnr" v="712503" />
	</node>
	<node id="-387371" lat="58.7733777804" lon="6.62746111502">
		<tag k="name" v="Kusteinen" />
		<tag k="natural" v="stone" />
		<tag k="ssr:stedsnr" v="650135" />
	</node>
	<node id="-384139" lat="58.530908337" lon="6.73050278124">
		<tag k="name" v="Storemyra" />
		<tag k="natural" v="wetland" />
		<tag k="ssr:stedsnr" v="407635" />
	</node>
	<node id="-387368" lat="58.6441916672" lon="6.48617777121">
		<tag k="name" v="Mydlandsmyr" />
		<tag k="natural" v="wetland" />
		<tag k="ssr:stedsnr" v="649997" />
	</node>
	<node id="-384807" lat="58.9190333374" lon="6.81898889649">
		<tag k="name" v="Gunnarsheistean" />
		<tag k="natural" v="wetland" />
		<tag k="ssr:stedsnr" v="43508" />
	</node>
	<node id="-385828" lat="58.7853972216" lon="6.81987221718">
		<tag k="name" v="Runda slåta" />
		<tag k="natural" v="wetland" />
		<tag k="ssr:stedsnr" v="225214" />
	</node>
	<node id="-388384" lat="58.5869444404" lon="6.81813611162">
		<tag k="name" v="Storemyra" />
		<tag k="natural" v="wetland" />
		<tag k="ssr:stedsnr" v="832193" />
	</node>
	<node id="-383900" lat="58.8495527762" lon="6.84950554853">
		<tag k="name" v="Fosseslåta" />
		<tag k="natural" v="wetland" />
		<tag k="ssr:stedsnr" v="347814" />
	</node>
	<node id="-383706" lat="58.6829722216" lon="6.6332722143">
		<tag k="name" v="Kleimyrane" />
		<tag k="natural" v="wetland" />
		<tag k="ssr:stedsnr" v="346212" />
	</node>
	<node id="-387354" lat="58.6271611147" lon="6.59938611901">
		<tag k="name" v="Torkjellslåttene" />
		<tag k="natural" v="wetland" />
		<tag k="ssr:stedsnr" v="649728" />
	</node>
	<node id="-386328" lat="58.8896333369" lon="6.85176110413">
		<tag k="name" v="Ura" />
		<tag k="natural" v="scree" />
		<tag k="ssr:stedsnr" v="468421" />
	</node>
	<node id="-386327" lat="58.5681583303" lon="6.74539722513">
		<tag k="name" v="Nilsslåtten" />
		<tag k="natural" v="wetland" />
		<tag k="ssr:stedsnr" v="468419" />
	</node>
	<node id="-384394" lat="58.5852638921" lon="6.68022778059">
		<tag k="name" v="Viraksmyra" />
		<tag k="natural" v="wetland" />
		<tag k="ssr:stedsnr" v="893377" />
	</node>
	<node id="-384752" lat="58.787319441" lon="6.81377500707">
		<tag k="name" v="Reveura" />
		<tag k="natural" v="scree" />
		<tag k="ssr:stedsnr" v="43186" />
	</node>
	<node id="-388369" lat="58.6134111091" lon="6.76148055684">
		<tag k="name" v="Øyan" />
		<tag k="place" v="locality" />
		<tag k="ssr:stedsnr" v="832064" />
	</node>
	<node id="-388368" lat="58.6044722251" lon="6.69398889122">
		<tag k="name" v="Tråmyra" />
		<tag k="natural" v="wetland" />
		<tag k="ssr:stedsnr" v="832054" />
	</node>
	<node id="-383759" lat="58.9191055572" lon="6.86334166306">
		<tag k="name" v="Ålsmyra" />
		<tag k="natural" v="wetland" />
		<tag k="ssr:stedsnr" v="346624" />
	</node>
	<node id="-386318" lat="58.548738889" lon="6.78760834145">
		<tag k="name" v="Atlaksmyr" />
		<tag k="natural" v="wetland" />
		<tag k="ssr:stedsnr" v="468384" />
	</node>
	<node id="-387851" lat="58.6710222264" lon="6.67193889164">
		<tag k="name" v="Lyngmyr" />
		<tag k="natural" v="wetland" />
		<tag k="ssr:stedsnr" v="711814" />
	</node>
	<node id="-384265" lat="58.9066111069" lon="6.97719444572">
		<tag k="name" v="Jakkemyrane" />
		<tag k="natural" v="wetland" />
		<tag k="ssr:stedsnr" v="408744" />
	</node>
	<node id="-385287" lat="58.8338333341" lon="6.75134722534">
		<tag k="name" v="Myran" />
		<tag k="natural" v="wetland" />
		<tag k="ssr:stedsnr" v="105586" />
	</node>
	<node id="-387845" lat="58.9485472229" lon="6.82730277139">
		<tag k="name" v="Toresteig" />
		<tag k="natural" v="wetland" />
		<tag k="ssr:stedsnr" v="711796" />
	</node>
	<node id="-385796" lat="58.5530527773" lon="6.78873055431">
		<tag k="name" v="Klovsteinan" />
		<tag k="natural" v="stone" />
		<tag k="ssr:stedsnr" v="225577" />
	</node>
	<node id="-385795" lat="58.9799888933" lon="6.91408333455">
		<tag k="name" v="Skudå" />
		<tag k="natural" v="stone" />
		<tag k="ssr:stedsnr" v="225576" />
	</node>
	<node id="-384770" lat="58.5879694467" lon="6.59836389078">
		<tag k="name" v="Surtholet" />
		<tag k="natural" v="wetland" />
		<tag k="ssr:stedsnr" v="43289" />
	</node>
	<node id="-387394" lat="58.7134972203" lon="6.82219443751">
		<tag k="name" v="Piggsteinen" />
		<tag k="natural" v="stone" />
		<tag k="ssr:stedsnr" v="650287" />
	</node>
	<node id="-385792" lat="58.6645500014" lon="6.83576944927">
		<tag k="name" v="Myrberkjeret" />
		<tag k="natural" v="wetland" />
		<tag k="ssr:stedsnr" v="224475" />
	</node>
	<node id="-383872" lat="58.7941361083" lon="6.86337500263">
		<tag k="name" v="Nyestølmyra" />
		<tag k="natural" v="wetland" />
		<tag k="ssr:stedsnr" v="347626" />
	</node>
	<node id="-388862" lat="58.5459555543" lon="6.77211111872">
		<tag k="name" v="Diblan" />
		<tag k="natural" v="wetland" />
		<tag k="ssr:stedsnr" v="953456" />
	</node>
	<node id="-386773" lat="58.8331138898" lon="6.85951943737">
		<tag k="name" v="Rugjesteinan" />
		<tag k="natural" v="stone" />
		<tag k="ssr:stedsnr" v="529729" />
	</node>
	<node id="-385788" lat="58.5054972242" lon="6.77371944066">
		<tag k="name" v="Kleivsmyr" />
		<tag k="natural" v="wetland" />
		<tag k="ssr:stedsnr" v="224114" />
	</node>
	<node id="-388178" lat="58.7300361065" lon="6.70616388095">
		<tag k="name" v="Myssmørmyra" />
		<tag k="natural" v="wetland" />
		<tag k="ssr:stedsnr" v="772585" />
	</node>
	<node id="-388856" lat="58.5876777777" lon="6.67693610678">
		<tag k="name" v="Klyppehola" />
		<tag k="place" v="locality" />
		<tag k="ssr:stedsnr" v="953414" />
	</node>
	<node id="-384247" lat="58.8504527764" lon="6.71171388048">
		<tag k="name" v="Marhomman" />
		<tag k="natural" v="wetland" />
		<tag k="ssr:stedsnr" v="408657" />
	</node>
	<node id="-388854" lat="58.5896999973" lon="6.69261944942">
		<tag k="name" v="Råsemyra" />
		<tag k="natural" v="wetland" />
		<tag k="ssr:stedsnr" v="953387" />
	</node>
	<node id="-383733" lat="58.5697055554" lon="6.73008055464">
		<tag k="name" v="Flotmyr" />
		<tag k="natural" v="wetland" />
		<tag k="ssr:stedsnr" v="346468" />
	</node>
	<node id="-384754" lat="58.6126222259" lon="6.66643611205">
		<tag k="name" v="Skiljingsfloda" />
		<tag k="natural" v="wetland" />
		<tag k="ssr:stedsnr" v="43192" />
	</node>
	<node id="-385265" lat="58.8672638906" lon="6.79980277254">
		<tag k="name" v="Myra" />
		<tag k="place" v="locality" />
		<tag k="ssr:stedsnr" v="105317" />
	</node>
	<node id="-387824" lat="58.7935527754" lon="6.84603054845">
		<tag k="name" v="Smieura" />
		<tag k="natural" v="scree" />
		<tag k="ssr:stedsnr" v="711702" />
	</node>
	<node id="-384808" lat="58.5174916627" lon="6.81906388617">
		<tag k="name" v="Vide myran" />
		<tag k="natural" v="wetland" />
		<tag k="ssr:stedsnr" v="43509" />
	</node>
	<node id="-385917" lat="58.7119111088" lon="6.79727777651">
		<tag k="name" v="Løesletta" />
		<tag k="natural" v="wetland" />
		<tag k="ssr:stedsnr" v="226346" />
	</node>
	<node id="-384236" lat="58.7266222196" lon="6.69572499829">
		<tag k="name" v="Kjellslåttene" />
		<tag k="natural" v="wetland" />
		<tag k="ssr:stedsnr" v="408606" />
	</node>
	<node id="-384210" lat="58.8877583337" lon="6.85582777503">
		<tag k="name" v="Finnvollen" />
		<tag k="place" v="locality" />
		<tag k="ssr:stedsnr" v="408497" />
	</node>
	<node id="-388842" lat="58.6653111083" lon="6.68934443734">
		<tag k="name" v="Nedstemyr" />
		<tag k="natural" v="wetland" />
		<tag k="ssr:stedsnr" v="953245" />
	</node>
	<node id="-388391" lat="58.6163694418" lon="6.68992223">
		<tag k="name" v="Gulåspodlan" />
		<tag k="natural" v="wetland" />
		<tag k="ssr:stedsnr" v="832234" />
	</node>
	<node id="-387025" lat="58.8869499981" lon="6.84694722626">
		<tag k="name" v="Kroa" />
		<tag k="place" v="locality" />
		<tag k="ssr:stedsnr" v="589450" />
	</node>
	<node id="-384239" lat="58.7759222191" lon="6.83992500031">
		<tag k="name" v="Juvslåtten" />
		<tag k="natural" v="wetland" />
		<tag k="ssr:stedsnr" v="408611" />
	</node>
	<node id="-383713" lat="58.6080944463" lon="6.63809165888">
		<tag k="name" v="Skarmyran" />
		<tag k="natural" v="wetland" />
		<tag k="ssr:stedsnr" v="346245" />
	</node>
	<node id="-387296" lat="58.5118999971" lon="6.73130278209">
		<tag k="name" v="Myrbersteinen" />
		<tag k="natural" v="stone" />
		<tag k="ssr:stedsnr" v="648092" />
	</node>
	<node id="-384223" lat="58.8343583335" lon="6.77840555619">
		<tag k="name" v="Uran" />
		<tag k="natural" v="scree" />
		<tag k="ssr:stedsnr" v="408550" />
	</node>
	<node id="-384733" lat="58.6543166703" lon="6.69224721464">
		<tag k="name" v="Storemyr" />
		<tag k="natural" v="wetland" />
		<tag k="ssr:stedsnr" v="42239" />
	</node>
	<node id="-387804" lat="58.5194472193" lon="6.71974444689">
		<tag k="name" v="Myran" />
		<tag k="natural" v="wetland" />
		<tag k="ssr:stedsnr" v="711616" />
	</node>
	<node id="-387291" lat="58.5700000031" lon="6.65577777108">
		<tag k="name" v="Legemyr" />
		<tag k="natural" v="wetland" />
		<tag k="ssr:stedsnr" v="643408" />
	</node>
	<node id="-386778" lat="58.9054111123" lon="6.98552778501">
		<tag k="name" v="Stilkemyrane" />
		<tag k="natural" v="wetland" />
		<tag k="ssr:stedsnr" v="529748" />
	</node>
	<node id="-385241" lat="58.9651777783" lon="6.90145832948">
		<tag k="name" v="Torbjørgsmyr" />
		<tag k="natural" v="wetland" />
		<tag k="ssr:stedsnr" v="104763" />
	</node>
	<node id="-385239" lat="58.7418111147" lon="6.79337221751">
		<tag k="name" v="Vida myra" />
		<tag k="natural" v="wetland" />
		<tag k="ssr:stedsnr" v="104753" />
	</node>
	<node id="-384214" lat="58.882900003" lon="6.85032221888">
		<tag k="name" v="Sletta" />
		<tag k="place" v="locality" />
		<tag k="ssr:stedsnr" v="408515" />
	</node>
	<node id="-386681" lat="58.7327049396" lon="6.70555325146">
		<tag k="name" v="Piggsteinen" />
		<tag k="natural" v="stone" />
		<tag k="ssr:stedsnr" v="529207" />
	</node>
	<node id="-386260" lat="58.6969277796" lon="6.78611110785">
		<tag k="name" v="Skjørbu" />
		<tag k="place" v="locality" />
		<tag k="ssr:stedsnr" v="468335" />
	</node>
	<node id="-386259" lat="58.6901555513" lon="6.77881388429">
		<tag k="name" v="Klovsteinen" />
		<tag k="natural" v="stone" />
		<tag k="ssr:stedsnr" v="468331" />
	</node>
	<node id="-386258" lat="58.5880972245" lon="6.67551666027">
		<tag k="name" v="Holan" />
		<tag k="place" v="locality" />
		<tag k="ssr:stedsnr" v="468322" />
	</node>
	<node id="-386769" lat="58.7423527823" lon="6.85896111427">
		<tag k="name" v="Leideteigen" />
		<tag k="natural" v="wetland" />
		<tag k="ssr:stedsnr" v="529715" />
	</node>
	<node id="-384336" lat="58.6319166644" lon="6.83566110531">
		<tag k="name" v="Hausteslåten" />
		<tag k="natural" v="wetland" />
		<tag k="ssr:stedsnr" v="893097" />
	</node>
	<node id="-388815" lat="58.634666665" lon="6.7688666582">
		<tag k="name" v="Stranda" />
		<tag k="place" v="locality" />
		<tag k="ssr:stedsnr" v="953120" />
	</node>
	<node id="-384544" lat="58.7965333307" lon="6.87328889462">
		<tag k="name" v="Andestølmyr" />
		<tag k="natural" v="wetland" />
		<tag k="ssr:stedsnr" v="894492" />
	</node>
	<node id="-386252" lat="58.5137999972" lon="6.82467499478">
		<tag k="name" v="Heddå i skaret" />
		<tag k="natural" v="stone" />
		<tag k="ssr:stedsnr" v="467691" />
	</node>
	<node id="-384202" lat="58.9009944402" lon="6.96417222891">
		<tag k="name" v="Kvistein" />
		<tag k="natural" v="stone" />
		<tag k="ssr:stedsnr" v="408399" />
	</node>
	<node id="-383689" lat="58.6570138929" lon="6.62439999136">
		<tag k="name" v="Grønelimyra" />
		<tag k="natural" v="wetland" />
		<tag k="ssr:stedsnr" v="346147" />
	</node>
	<node id="-386248" lat="58.6642138932" lon="6.83190000587">
		<tag k="name" v="Halsen" />
		<tag k="natural" v="wetland" />
		<tag k="ssr:stedsnr" v="467516" />
	</node>
	<node id="-385278" lat="59.0180135757" lon="6.93568510518">
		<tag k="name" v="Kallsrein" />
		<tag k="natural" v="wetland" />
		<tag k="ssr:stedsnr" v="105544" />
	</node>
	<node id="-388804" lat="58.5099000027" lon="6.76617777951">
		<tag k="name" v="Litla Seljord" />
		<tag k="place" v="locality" />
		<tag k="ssr:stedsnr" v="952109" />
	</node>
	<node id="-388802" lat="58.5037416645" lon="6.74767777812">
		<tag k="name" v="Huldresteinen" />
		<tag k="natural" v="stone" />
		<tag k="ssr:stedsnr" v="952101" />
	</node>
	<node id="-387777" lat="58.6932416701" lon="6.72781111252">
		<tag k="name" v="Vodlane" />
		<tag k="place" v="locality" />
		<tag k="ssr:stedsnr" v="711522" />
	</node>
	<node id="-383679" lat="58.5148833344" lon="6.75083611744">
		<tag k="name" v="Småbakkan" />
		<tag k="place" v="locality" />
		<tag k="ssr:stedsnr" v="345083" />
	</node>
	<node id="-388798" lat="58.5085666624" lon="6.7621444398">
		<tag k="name" v="Steiemyr" />
		<tag k="natural" v="wetland" />
		<tag k="ssr:stedsnr" v="952087" />
	</node>
	<node id="-385213" lat="58.7620999971" lon="6.78749445196">
		<tag k="name" v="Bjørnehiet" />
		<tag k="natural" v="scree" />
		<tag k="ssr:stedsnr" v="104672" />
	</node>
	<node id="-387772" lat="58.9208777806" lon="6.81982777068">
		<tag k="name" v="Dåfjellstean" />
		<tag k="natural" v="wetland" />
		<tag k="ssr:stedsnr" v="711512" />
	</node>
	<node id="-385723" lat="58.6218833356" lon="6.51083054868">
		<tag k="alt_name" v="Fenmyrane" />
		<tag k="name" v="Fenemyrane" />
		<tag k="natural" v="wetland" />
		<tag k="ssr:stedsnr" v="182825" />
	</node>
	<node id="-386234" lat="58.6653833343" lon="6.6630833375">
		<tag k="name" v="Skrubbemyr" />
		<tag k="place" v="locality" />
		<tag k="ssr:stedsnr" v="467167" />
	</node>
	<node id="-386745" lat="58.7922555598" lon="6.8657166601">
		<tag k="name" v="Pråmstømyra" />
		<tag k="natural" v="wetland" />
		<tag k="ssr:stedsnr" v="529619" />
	</node>
	<node id="-386744" lat="59.0172613796" lon="6.97712515142">
		<tag k="name" v="Stilkemyr" />
		<tag k="natural" v="wetland" />
		<tag k="ssr:stedsnr" v="529612" />
	</node>
	<node id="-385141" lat="58.887313888" lon="6.92605555766">
		<tag k="name" v="Fossestøl" />
		<tag k="natural" v="wetland" />
		<tag k="ssr:stedsnr" v="104401" />
	</node>
	<node id="-386992" lat="58.5685861098" lon="6.79441666069">
		<tag k="name" v="Storrhommen" />
		<tag k="natural" v="wetland" />
		<tag k="ssr:stedsnr" v="589297" />
	</node>
	<node id="-386736" lat="59.0138834185" lon="6.93983100464">
		<tag k="name" v="Lavollen" />
		<tag k="natural" v="wetland" />
		<tag k="ssr:stedsnr" v="529591" />
	</node>
	<node id="-386735" lat="59.0135176709" lon="6.92419779185">
		<tag k="name" v="Reveura" />
		<tag k="natural" v="scree" />
		<tag k="ssr:stedsnr" v="529589" />
	</node>
	<node id="-385198" lat="58.7248722209" lon="6.73941667445">
		<tag k="name" v="Steiekleivmyra" />
		<tag k="natural" v="wetland" />
		<tag k="ssr:stedsnr" v="104608" />
	</node>
	<node id="-386974" lat="58.7685194432" lon="6.69058611287">
		<tag k="name" v="Surtemyran" />
		<tag k="natural" v="wetland" />
		<tag k="ssr:stedsnr" v="589195" />
	</node>
	<node id="-388264" lat="58.6711555558" lon="6.75464999886">
		<tag k="name" v="Ertsmyran" />
		<tag k="natural" v="wetland" />
		<tag k="ssr:stedsnr" v="788583" />
	</node>
	<node id="-386727" lat="58.7141277769" lon="6.62850555994">
		<tag k="name" v="Kuliura" />
		<tag k="natural" v="scree" />
		<tag k="ssr:stedsnr" v="529553" />
	</node>
	<node id="-384166" lat="58.8508388855" lon="6.77699721394">
		<tag k="name" v="Geitesteinen" />
		<tag k="natural" v="stone" />
		<tag k="ssr:stedsnr" v="407841" />
	</node>
	<node id="-384198" lat="58.8743583361" lon="6.94322499957">
		<tag k="name" v="Indre Elgekvæv" />
		<tag k="natural" v="wetland" />
		<tag k="ssr:stedsnr" v="408385" />
	</node>
	<node id="-387746" lat="58.8607138931" lon="6.89027778217">
		<tag k="name" v="Duntekvæv" />
		<tag k="natural" v="wetland" />
		<tag k="ssr:stedsnr" v="711397" />
	</node>
	<node id="-384039" lat="58.5130111109" lon="6.78560833163">
		<tag k="name" v="Store slåta" />
		<tag k="place" v="locality" />
		<tag k="ssr:stedsnr" v="406088" />
	</node>
	<node id="-385692" lat="58.8764888847" lon="6.76888055616">
		<tag k="name" v="Råtnekjær" />
		<tag k="natural" v="wetland" />
		<tag k="ssr:stedsnr" v="165978" />
	</node>
	<node id="-386715" lat="58.8837583357" lon="6.87219167065">
		<tag k="name" v="Brende myrane" />
		<tag k="natural" v="wetland" />
		<tag k="ssr:stedsnr" v="529480" />
	</node>
	<node id="-383708" lat="58.6101249987" lon="6.67821110432">
		<tag k="name" v="Stormyr" />
		<tag k="natural" v="wetland" />
		<tag k="ssr:stedsnr" v="346217" />
	</node>
	<node id="-383698" lat="58.782891671" lon="6.80923611405">
		<tag k="name" v="Myrbærsteinen" />
		<tag k="natural" v="stone" />
		<tag k="old_name" v="Myrbæestrinen" />
		<tag k="ssr:stedsnr" v="346181" />
	</node>
	<node id="-383742" lat="58.5556388896" lon="6.79189167286">
		<tag k="name" v="Haugslåta" />
		<tag k="natural" v="wetland" />
		<tag k="ssr:stedsnr" v="346561" />
	</node>
	<node id="-384148" lat="58.7222833355" lon="6.74823889718">
		<tag k="name" v="Urene" />
		<tag k="natural" v="scree" />
		<tag k="ssr:stedsnr" v="407687" />
	</node>
	<node id="-387750" lat="58.6964666689" lon="6.79155277383">
		<tag k="name" v="Skoremyran" />
		<tag k="natural" v="wetland" />
		<tag k="ssr:stedsnr" v="711403" />
	</node>
	<node id="-387727" lat="58.5620750026" lon="6.78087778594">
		<tag k="name" v="Store Myra" />
		<tag k="natural" v="wetland" />
		<tag k="ssr:stedsnr" v="711295" />
	</node>
	<node id="-388235" lat="58.9364972217" lon="6.77824722229">
		<tag k="name" v="Bjørnesteinen" />
		<tag k="natural" v="stone" />
		<tag k="ssr:stedsnr" v="772814" />
	</node>
	<node id="-387360" lat="58.6363305587" lon="6.51607499769">
		<tag k="name" v="Kydland" />
		<tag k="natural" v="wetland" />
		<tag k="ssr:stedsnr" v="649785" />
	</node>
	<node id="-388822" lat="58.6628527755" lon="6.66267778438">
		<tag k="name" v="Leiemyr" />
		<tag k="natural" v="wetland" />
		<tag k="ssr:stedsnr" v="953159" />
	</node>
	<node id="-384132" lat="58.5388027788" lon="6.76005000311">
		<tag k="name" v="Sprangreidshommen" />
		<tag k="natural" v="wetland" />
		<tag k="ssr:stedsnr" v="407602" />
	</node>
	<node id="-385638" lat="59.0382194422" lon="6.95479722736">
		<tag k="name" v="Timremyrane" />
		<tag k="natural" v="wetland" />
		<tag k="ssr:stedsnr" v="165674" />
	</node>
	<node id="-385152" lat="58.5642333292" lon="6.71677777574">
		<tag k="name" v="Rundemyra" />
		<tag k="natural" v="wetland" />
		<tag k="ssr:stedsnr" v="104438" />
	</node>
	<node id="-386486" lat="58.9049805586" lon="6.81829444103">
		<tag k="name" v="Flatbergmyra" />
		<tag k="natural" v="wetland" />
		<tag k="ssr:stedsnr" v="469638" />
	</node>
	<node id="-388543" lat="58.7312833294" lon="6.67543888431">
		<tag k="name" v="Grønheisteian" />
		<tag k="natural" v="wetland" />
		<tag k="ssr:stedsnr" v="833586" />
	</node>
	<node id="-386680" lat="58.7335618157" lon="6.69107741427">
		<tag k="name" v="Kjerringslåtene" />
		<tag k="natural" v="wetland" />
		<tag k="ssr:stedsnr" v="529202" />
	</node>
	<node id="-389003" lat="58.9051861069" lon="6.88113055688">
		<tag k="name" v="Sinnesmyra" />
		<tag k="natural" v="wetland" />
		<tag k="ssr:stedsnr" v="954675" />
	</node>
	<node id="-388726" lat="58.7614222233" lon="6.67726945014">
		<tag k="alt_name" v="Vikstøl" />
		<tag k="historic" v="shieling" />
		<tag k="name" v="Vikestøl" />
		<tag k="place" v="locality" />
		<tag k="ssr:stedsnr" v="911003" />
	</node>
	<node id="-388213" lat="58.9258027756" lon="6.87759444735">
		<tag k="name" v="Dipledalsmyrane" />
		<tag k="natural" v="wetland" />
		<tag k="ssr:stedsnr" v="772709" />
	</node>
	<node id="-383678" lat="58.5676611106" lon="6.62934167334">
		<tag k="name" v="Revesteinan" />
		<tag k="natural" v="stone" />
		<tag k="ssr:stedsnr" v="340380" />
	</node>
	<node id="-384110" lat="58.5439111128" lon="6.77627777657">
		<tag k="name" v="Østre Diblan" />
		<tag k="natural" v="wetland" />
		<tag k="ssr:stedsnr" v="407467" />
	</node>
	<node id="-387181" lat="58.8403361113" lon="6.76229999625">
		<tag k="name" v="Stidlingssteinen" />
		<tag k="natural" v="stone" />
		<tag k="ssr:stedsnr" v="590858" />
	</node>
	<node id="-384104" lat="58.5763083296" lon="6.66606110443">
		<tag k="name" v="Sleten" />
		<tag k="place" v="locality" />
		<tag k="ssr:stedsnr" v="407416" />
	</node>
	<node id="-386748" lat="58.7941777746" lon="6.86700833077">
		<tag k="name" v="Todlakstølmyra" />
		<tag k="natural" v="wetland" />
		<tag k="ssr:stedsnr" v="529629" />
	</node>
	<node id="-385126" lat="58.5887472197" lon="6.69681389597">
		<tag k="name" v="Sauesteinan" />
		<tag k="natural" v="stone" />
		<tag k="ssr:stedsnr" v="104355" />
	</node>
	<node id="-385297" lat="59.0325666658" lon="6.95436944816">
		<tag k="name" v="Bronnstedjane" />
		<tag k="natural" v="wetland" />
		<tag k="ssr:stedsnr" v="105675" />
	</node>
	<node id="-385635" lat="58.9114583355" lon="6.89554722929">
		<tag k="name" v="Monan" />
		<tag k="place" v="locality" />
		<tag k="ssr:stedsnr" v="165663" />
	</node>
	<node id="-385211" lat="58.7740500028" lon="6.82887223058">
		<tag k="name" v="Solbakkmyra" />
		<tag k="natural" v="wetland" />
		<tag k="ssr:stedsnr" v="104668" />
	</node>
	<node id="-386656" lat="58.5196333371" lon="6.73721944835">
		<tag k="name" v="Trodlemyr" />
		<tag k="natural" v="wetland" />
		<tag k="ssr:stedsnr" v="528638" />
	</node>
	<node id="-386143" lat="58.6341083323" lon="6.67688610496">
		<tag k="name" v="Hesmyri" />
		<tag k="natural" v="wetland" />
		<tag k="ssr:stedsnr" v="425624" />
	</node>
	<node id="-388923" lat="58.7220138902" lon="6.84950000217">
		<tag k="name" v="Moldbrodhommen" />
		<tag k="natural" v="wetland" />
		<tag k="ssr:stedsnr" v="954291" />
	</node>
	<node id="-388189" lat="58.9170222196" lon="6.83855833418">
		<tag k="name" v="Kongslåtta" />
		<tag k="natural" v="wetland" />
		<tag k="ssr:stedsnr" v="772609" />
	</node>
	<node id="-385462" lat="58.6662444467" lon="6.70021944682">
		<tag k="name" v="Dompa" />
		<tag k="place" v="locality" />
		<tag k="ssr:stedsnr" v="164268" />
	</node>
	<node id="-388187" lat="59.0287276636" lon="6.95072778535">
		<tag k="name" v="Kallemyr" />
		<tag k="natural" v="wetland" />
		<tag k="ssr:stedsnr" v="772604" />
	</node>
	<node id="-383916" lat="58.8537000015" lon="6.87413611942">
		<tag k="name" v="Ketilsslåta" />
		<tag k="natural" v="wetland" />
		<tag k="ssr:stedsnr" v="347878" />
	</node>
	<node id="-384088" lat="58.6490361121" lon="6.6958694447">
		<tag k="name" v="Snertenesmyra" />
		<tag k="natural" v="wetland" />
		<tag k="ssr:stedsnr" v="407271" />
	</node>
	<node id="-388183" lat="58.7232499971" lon="6.72005277596">
		<tag k="name" v="Skotemyr" />
		<tag k="natural" v="wetland" />
		<tag k="ssr:stedsnr" v="772598" />
	</node>
	<node id="-388181" lat="58.7234527744" lon="6.71741667405">
		<tag k="name" v="Brekkemyr" />
		<tag k="natural" v="wetland" />
		<tag k="ssr:stedsnr" v="772593" />
	</node>
	<node id="-384865" lat="58.6740750022" lon="6.675852777">
		<tag k="name" v="Diblemyr" />
		<tag k="natural" v="wetland" />
		<tag k="ssr:stedsnr" v="43789" />
	</node>
	<node id="-388179" lat="58.7270694441" lon="6.68906943585">
		<tag k="name" v="Heimrestølmyra" />
		<tag k="natural" v="wetland" />
		<tag k="ssr:stedsnr" v="772589" />
	</node>
	<node id="-387154" lat="59.051629289" lon="6.95185967404">
		<tag k="name" v="Finnane" />
		<tag k="natural" v="wetland" />
		<tag k="ssr:stedsnr" v="590592" />
	</node>
	<node id="-386641" lat="58.6762666704" lon="6.83875278003">
		<tag k="name" v="Dauremålshommen" />
		<tag k="natural" v="wetland" />
		<tag k="ssr:stedsnr" v="528481" />
	</node>
	<node id="-385615" lat="59.0470097096" lon="6.95118954768">
		<tag k="name" v="Flatstølmyrane" />
		<tag k="natural" v="wetland" />
		<tag k="ssr:stedsnr" v="165583" />
	</node>
	<node id="-385614" lat="59.0458495451" lon="6.95616802806">
		<tag k="name" v="Fruggemyr" />
		<tag k="natural" v="wetland" />
		<tag k="ssr:stedsnr" v="165581" />
	</node>
	<node id="-383893" lat="58.8233999984" lon="6.78871944167">
		<tag k="name" v="Sirisnes" />
		<tag k="place" v="locality" />
		<tag k="ssr:stedsnr" v="347741" />
	</node>
	<node id="-388172" lat="58.7268777737" lon="6.68228334005">
		<tag k="name" v="Fudemyra" />
		<tag k="natural" v="wetland" />
		<tag k="ssr:stedsnr" v="772562" />
	</node>
	<node id="-385416" lat="58.5744583298" lon="6.64683056038">
		<tag k="name" v="Store steinan" />
		<tag k="natural" v="stone" />
		<tag k="ssr:stedsnr" v="158427" />
	</node>
	<node id="-386634" lat="58.5943944477" lon="6.75994721907">
		<tag k="name" v="Stora myra" />
		<tag k="natural" v="wetland" />
		<tag k="ssr:stedsnr" v="528396" />
	</node>
	<node id="-386633" lat="58.6010388884" lon="6.73290278069">
		<tag k="name" v="Revura" />
		<tag k="natural" v="scree" />
		<tag k="ssr:stedsnr" v="528383" />
	</node>
	<node id="-385607" lat="59.01647222" lon="6.95162222578">
		<tag k="name" v="Bjørkåger" />
		<tag k="place" v="locality" />
		<tag k="ssr:stedsnr" v="165558" />
	</node>
	<node id="-387141" lat="58.8670472189" lon="6.79414722387">
		<tag k="name" v="Evjemoen" />
		<tag k="place" v="locality" />
		<tag k="ssr:stedsnr" v="590321" />
	</node>
	<node id="-388163" lat="58.9223166701" lon="6.827341665">
		<tag k="name" v="Merreslåtta" />
		<tag k="natural" v="wetland" />
		<tag k="ssr:stedsnr" v="772529" />
	</node>
	<node id="-385601" lat="58.9014333345" lon="6.81358610757">
		<tag k="name" v="Store Ura" />
		<tag k="natural" v="scree" />
		<tag k="ssr:stedsnr" v="165544" />
	</node>
	<node id="-387648" lat="58.6166555547" lon="6.74740278525">
		<tag k="name" v="Stakkhomstøl" />
		<tag k="natural" v="wetland" />
		<tag k="ssr:stedsnr" v="710061" />
	</node>
	<node id="-387168" lat="58.8766777767" lon="7.01424722216">
		<tag k="name" v="Mjåvasskvæven" />
		<tag k="natural" v="wetland" />
		<tag k="ssr:stedsnr" v="590695" />
	</node>
	<node id="-387739" lat="58.5826805529" lon="6.69415833787">
		<tag k="name" v="Haugeura" />
		<tag k="natural" v="scree" />
		<tag k="ssr:stedsnr" v="711356" />
	</node>
	<node id="-383545" lat="58.9039583316" lon="6.7706277821">
		<tag k="name" v="Grindesteinen" />
		<tag k="natural" v="stone" />
		<tag k="ssr:stedsnr" v="287156" />
	</node>
	<node id="-384489" lat="58.7515749958" lon="6.79114444025">
		<tag k="name" v="Fuglemonen" />
		<tag k="natural" v="wetland" />
		<tag k="ssr:stedsnr" v="893734" />
	</node>
	<node id="-385590" lat="58.698002776" lon="6.72567777925">
		<tag k="name" v="Urene" />
		<tag k="natural" v="scree" />
		<tag k="ssr:stedsnr" v="165505" />
	</node>
	<node id="-384053" lat="58.6272305523" lon="6.82946110419">
		<tag k="name" v="Samlogslåten" />
		<tag k="natural" v="wetland" />
		<tag k="ssr:stedsnr" v="407115" />
	</node>
	<node id="-385075" lat="58.6036833327" lon="6.62098611736">
		<tag k="name" v="Klovsteinan" />
		<tag k="natural" v="stone" />
		<tag k="ssr:stedsnr" v="103255" />
	</node>
	<node id="-383923" lat="58.8642500031" lon="6.74119443904">
		<tag k="name" v="Myran" />
		<tag k="natural" v="wetland" />
		<tag k="ssr:stedsnr" v="347980" />
	</node>
	<node id="-385070" lat="58.5126750002" lon="6.75137778083">
		<tag k="name" v="Lyngmoen" />
		<tag k="place" v="locality" />
		<tag k="ssr:stedsnr" v="103070" />
	</node>
	<node id="-384983" lat="58.8751972208" lon="6.75571388207">
		<tag k="name" v="Klovsteinen" />
		<tag k="natural" v="stone" />
		<tag k="ssr:stedsnr" v="44962" />
	</node>
	<node id="-388103" lat="58.6824694462" lon="6.71712221533">
		<tag k="name" v="Storemyr" />
		<tag k="natural" v="wetland" />
		<tag k="ssr:stedsnr" v="771783" />
	</node>
	<node id="-384040" lat="58.5099666691" lon="6.7754666726">
		<tag k="name" v="Dibland" />
		<tag k="natural" v="wetland" />
		<tag k="ssr:stedsnr" v="406114" />
	</node>
	<node id="-388135" lat="58.7013111146" lon="6.81985833886">
		<tag k="name" v="Åløteigen" />
		<tag k="natural" v="wetland" />
		<tag k="ssr:stedsnr" v="772339" />
	</node>
	<node id="-384038" lat="58.5111222241" lon="6.73190000482">
		<tag k="name" v="Krossmyr" />
		<tag k="natural" v="wetland" />
		<tag k="ssr:stedsnr" v="406085" />
	</node>
	<node id="-386597" lat="58.5060861092" lon="6.77566389526">
		<tag k="name" v="Litla lia" />
		<tag k="place" v="locality" />
		<tag k="ssr:stedsnr" v="527101" />
	</node>
	<node id="-388132" lat="58.8817388922" lon="6.82263889049">
		<tag k="name" v="Heggura" />
		<tag k="natural" v="scree" />
		<tag k="ssr:stedsnr" v="772311" />
	</node>
	<node id="-385571" lat="58.9033861142" lon="6.9480638811">
		<tag k="alt_name" v="Såtemyra" />
		<tag k="name" v="Sådemyr" />
		<tag k="natural" v="wetland" />
		<tag k="ssr:stedsnr" v="165380" />
	</node>
	<node id="-388129" lat="58.877255557" lon="6.77631667391">
		<tag k="name" v="Romesiget" />
		<tag k="natural" v="wetland" />
		<tag k="ssr:stedsnr" v="772294" />
	</node>
	<node id="-385568" lat="58.901938886" lon="6.95474166016">
		<tag k="name" v="Heimre Svåen" />
		<tag k="natural" v="wetland" />
		<tag k="ssr:stedsnr" v="165371" />
	</node>
	<node id="-385567" lat="58.8603916634" lon="6.89720278009">
		<tag k="name" v="Stilkemyr" />
		<tag k="natural" v="wetland" />
		<tag k="ssr:stedsnr" v="165370" />
	</node>
	<node id="-384542" lat="58.798558331" lon="6.7841472295">
		<tag k="name" v="Borkneslåtten" />
		<tag k="natural" v="wetland" />
		<tag k="ssr:stedsnr" v="894460" />
	</node>
	<node id="-385565" lat="58.863119448" lon="6.90446111905">
		<tag k="name" v="Gorrmyrane" />
		<tag k="natural" v="wetland" />
		<tag k="ssr:stedsnr" v="165364" />
	</node>
	<node id="-384535" lat="58.8628583321" lon="6.80425000766">
		<tag k="name" v="Torvmyra" />
		<tag k="natural" v="wetland" />
		<tag k="ssr:stedsnr" v="894361" />
	</node>
	<node id="-387352" lat="58.6352972182" lon="6.57540832508">
		<tag k="name" v="Forelokken" />
		<tag k="place" v="locality" />
		<tag k="ssr:stedsnr" v="649706" />
	</node>
	<node id="-385303" lat="58.8219027804" lon="6.78688610267">
		<tag k="name" v="Vide myra" />
		<tag k="place" v="locality" />
		<tag k="ssr:stedsnr" v="105739" />
	</node>
	<node id="-388801" lat="58.503691665" lon="6.74408333515">
		<tag k="name" v="Talsteinen" />
		<tag k="natural" v="stone" />
		<tag k="ssr:stedsnr" v="952100" />
	</node>
	<node id="-387086" lat="58.7668500021" lon="6.83610833983">
		<tag k="name" v="Sigbjørnsslåta" />
		<tag k="natural" v="wetland" />
		<tag k="ssr:stedsnr" v="589684" />
	</node>
	<node id="-384429" lat="58.5290444443" lon="6.75976666357">
		<tag k="name" v="Linnekringen" />
		<tag k="natural" v="wetland" />
		<tag k="ssr:stedsnr" v="893558" />
	</node>
	<node id="-387080" lat="58.5160277803" lon="6.69831666613">
		<tag k="name" v="Gurslisteinen" />
		<tag k="natural" v="stone" />
		<tag k="ssr:stedsnr" v="589658" />
	</node>
	<node id="-387666" lat="58.6070611092" lon="6.67475000669">
		<tag k="name" v="Kringlemyr" />
		<tag k="natural" v="wetland" />
		<tag k="ssr:stedsnr" v="710213" />
	</node>
	<node id="-384513" lat="58.9273777797" lon="6.81391111964">
		<tag k="name" v="Reinsholene" />
		<tag k="natural" v="wetland" />
		<tag k="ssr:stedsnr" v="893818" />
	</node>
	<node id="-388100" lat="58.6747611075" lon="6.72161110758">
		<tag k="name" v="Lisemyr" />
		<tag k="place" v="locality" />
		<tag k="ssr:stedsnr" v="771772" />
	</node>
	<node id="-385195" lat="58.7290722228" lon="6.74334999259">
		<tag k="name" v="Varpemyra" />
		<tag k="natural" v="wetland" />
		<tag k="ssr:stedsnr" v="104607" />
	</node>
</osm>
