<?xml version="1.0" encoding="UTF-8"?>
<osm version="0.6" generator="osmapis">
	<node lat="64.67328055589954" lon="11.19693888577656" id="-80110">
		<tag k="man_made" v="quay" />
		<tag k="name" v="Nordsjøen" />
		<tag k="place" v="locality" />
		<tag k="ssr:stedsnr" v="47187" />
	</node>
	<node lat="64.72256944540942" lon="11.887366663930248" id="-80155">
		<tag k="highway" v="path" />
		<tag k="name" v="Krøtterveien" />
		<tag k="ssr:stedsnr" v="50010" />
	</node>
	<node lat="64.66956666985217" lon="11.19947222832793" id="-80275">
		<tag k="man_made" v="quay" />
		<tag k="name" v="Sørsjøen" />
		<tag k="place" v="locality" />
		<tag k="ssr:stedsnr" v="108176" />
	</node>
	<node lat="64.60504722637391" lon="11.297611101445352" id="-80290">
		<tag k="fixme" v="verify maritime location" />
		<tag k="mooring" v="yes" />
		<tag k="name" v="Naustvika" />
		<tag k="place" v="locality" />
		<tag k="ssr:stedsnr" v="108874" />
	</node>
	<node lat="64.30235555781368" lon="11.524552787868643" id="-80520">
		<tag k="ford" v="yes" />
		<tag k="name" v="Kuvadet" />
		<tag k="place" v="locality" />
		<tag k="ssr:stedsnr" v="169455" />
	</node>
	<node lat="64.37909308005148" lon="11.385925149039567" id="-81002">
		<tag k="layer" v="-1" />
		<tag k="name" v="Fjær" />
		<tag k="ssr:stedsnr" v="469448" />
		<tag k="tunnel" v="yes" />
	</node>
	<node lat="64.64543055145812" lon="11.30664721235553" id="-81081">
		<tag k="highway" v="path" />
		<tag k="name" v="Fjellveien" />
		<tag k="ssr:stedsnr" v="472931" />
	</node>
	<node lat="64.6443888925845" lon="11.413091672244096" id="-81113">
		<tag k="fixme" v="verify maritime location" />
		<tag k="mooring" v="yes" />
		<tag k="name" v="Botnsjøen" />
		<tag k="place" v="locality" />
		<tag k="ssr:stedsnr" v="350231" />
	</node>
	<node lat="64.21111666389587" lon="11.428561104156833" id="-81165">
		<tag k="highway" v="path" />
		<tag k="name" v="Kleivin" />
		<tag k="ssr:stedsnr" v="351706" />
	</node>
	<node lat="64.43899722267214" lon="11.534052771891535" id="-81395">
		<tag k="highway" v="path" />
		<tag k="name" v="Fjellkleiva" />
		<tag k="ssr:stedsnr" v="454561" />
	</node>
	<node lat="64.23482222273527" lon="11.182394438759346" id="-81401">
		<tag k="ford" v="yes" />
		<tag k="name" v="Setervadet" />
		<tag k="place" v="locality" />
		<tag k="ssr:stedsnr" v="463264" />
	</node>
	<node lat="64.62352221862534" lon="11.267669442240722" id="-81418">
		<tag k="fixme" v="verify maritime location" />
		<tag k="mooring" v="yes" />
		<tag k="name" v="Aunasjøen" />
		<tag k="place" v="locality" />
		<tag k="ssr:stedsnr" v="471904" />
	</node>
	<node lat="64.71598888925575" lon="11.48063333890871" id="-81449">
		<tag k="fixme" v="consider highway=path" />
		<tag k="highway" v="track" />
		<tag k="name" v="Seterkløyva" />
		<tag k="ssr:stedsnr" v="474406" />
	</node>
	<node lat="64.72188610741613" lon="11.569316675472049" id="-81461">
		<tag k="highway" v="path" />
		<tag k="name" v="Dyrstien" />
		<tag k="ssr:stedsnr" v="475502" />
	</node>
	<node lat="64.62658333793354" lon="11.406972216450832" id="-81849">
		<tag k="highway" v="path" />
		<tag k="name" v="Gullbergstien" />
		<tag k="ssr:stedsnr" v="593618" />
	</node>
	<node lat="64.74249999912061" lon="11.809858336034715" id="-81890">
		<tag k="ford" v="yes" />
		<tag k="name" v="Vikavadet" />
		<tag k="place" v="locality" />
		<tag k="ssr:stedsnr" v="596208" />
	</node>
	<node lat="64.51025277338105" lon="11.05941667202417" id="-82047">
		<tag k="highway" v="path" />
		<tag k="name" v="Bjønnstien" />
		<tag k="ssr:stedsnr" v="655436" />
	</node>
	<node lat="64.72353333093245" lon="11.502791667667044" id="-82060">
		<tag k="highway" v="path" />
		<tag k="name" v="Seterveien" />
		<tag k="ssr:stedsnr" v="656382" />
	</node>
	<node lat="64.63774444699037" lon="11.345358324172901" id="-82139">
		<tag k="amenity" v="ferry_terminal" />
		<tag k="name" v="Seierstad ferjekai" />
		<tag k="ssr:stedsnr" v="703861" />
	</node>
	<node lat="64.55418055719733" lon="11.428777773301514" id="-82229">
		<tag k="highway" v="path" />
		<tag k="name" v="Olastien" />
		<tag k="ssr:stedsnr" v="898619" />
	</node>
	<node lat="64.77094444519653" lon="11.60168888422505" id="-82322">
		<tag k="man_made" v="quay" />
		<tag k="name" v="Lundasjøen" />
		<tag k="place" v="locality" />
		<tag k="ssr:stedsnr" v="900942" />
	</node>
	<node lat="64.47230000170309" lon="11.578924998299655" id="-82375">
		<tag k="aeroway" v="aerodrome" />
		<tag k="alt_name" v="Namsos" />
		<tag k="name" v="Namsos lufthavn" />
		<tag k="old_name" v="Namsos lufthavn Høknesøra" />
		<tag k="ssr:stedsnr" v="754011" />
	</node>
	<node lat="64.1661416648105" lon="11.312177783796217" id="-82418">
		<tag k="highway" v="path" />
		<tag k="name" v="Aunkleiva" />
		<tag k="ssr:stedsnr" v="775714" />
	</node>
	<node lat="64.67484999896642" lon="11.473441669004636" id="-83099">
		<tag k="name" v="Velta" />
		<tag k="place" v="locality" />
		<tag k="ssr:stedsnr" v="14286" />
	</node>
	<node lat="64.34670277447769" lon="11.567611102394668" id="-83195">
		<tag k="highway" v="path" />
		<tag k="name" v="Sjuttubakkan" />
		<tag k="ssr:stedsnr" v="38573" />
	</node>
	<node lat="64.40207500435073" lon="11.427399991911571" id="-83492">
		<tag k="junction" v="yes" />
		<tag k="name" v="Selneskorsen" />
		<tag k="place" v="locality" />
		<tag k="ssr:stedsnr" v="99781" />
	</node>
	<node lat="64.47044166674586" lon="11.505672228563283" id="-83496">
		<tag k="aeroway" v="airstrip" />
		<tag k="name" v="Namsos helikopterplass, Sykehuset Namsos" />
		<tag k="ssr:stedsnr" v="102563" />
	</node>
	<node lat="64.76270607013674" lon="12.056914896676595" id="-84111">
		<tag k="layer" v="-1" />
		<tag k="name" v="Skrøyvstadtunnelen" />
		<tag k="ssr:stedsnr" v="287761" />
		<tag k="tunnel" v="yes" />
	</node>
	<node lat="64.75126666210373" lon="11.904075007851349" id="-84272">
		<tag k="barrier" v="toll_booth" />
		<tag k="name" v="Kovadøra" />
		<tag k="ssr:stedsnr" v="317800" />
	</node>
	<node lat="64.53227777821529" lon="11.365374990547856" id="-84329">
		<tag k="highway" v="path" />
		<tag k="name" v="Gammelstien" />
		<tag k="ssr:stedsnr" v="333772" />
	</node>
	<node lat="64.65152499725421" lon="11.334463878254168" id="-84406">
		<tag k="junction" v="yes" />
		<tag k="name" v="Svingen" />
		<tag k="place" v="locality" />
		<tag k="ssr:stedsnr" v="350898" />
	</node>
	<node lat="64.26705833062151" lon="11.633061114264391" id="-84421">
		<tag k="ford" v="yes" />
		<tag k="name" v="Skognvadet" />
		<tag k="place" v="locality" />
		<tag k="ssr:stedsnr" v="351432" />
	</node>
	<node lat="64.64085833202277" lon="11.317258325153858" id="-84674">
		<tag k="fixme" v="consider highway=path" />
		<tag k="highway" v="track" />
		<tag k="name" v="Steinveien" />
		<tag k="ssr:stedsnr" v="411963" />
	</node>
	<node lat="64.5010305565923" lon="11.330591669410849" id="-84681">
		<tag k="highway" v="path" />
		<tag k="name" v="Petterseterstien" />
		<tag k="ssr:stedsnr" v="412072" />
	</node>
	<node lat="64.76804722117133" lon="11.624624999501544" id="-85010">
		<tag k="amenity" v="ferry_terminal" />
		<tag k="name" v="Lund ferjekai" />
		<tag k="ssr:stedsnr" v="521850" />
	</node>
	<node lat="64.68610833013919" lon="11.444577782094324" id="-85028">
		<tag k="highway" v="path" />
		<tag k="name" v="Steinveien" />
		<tag k="ssr:stedsnr" v="529348" />
	</node>
	<node lat="64.33798021785353" lon="11.260861307062916" id="-85029">
		<tag k="layer" v="-1" />
		<tag k="name" v="Rødhammartunnelen" />
		<tag k="ssr:stedsnr" v="529760" />
		<tag k="tunnel" v="yes" />
	</node>
	<node lat="64.17745555630013" lon="11.277597227919367" id="-85280">
		<tag k="highway" v="path" />
		<tag k="name" v="Kleivin" />
		<tag k="ssr:stedsnr" v="584393" />
	</node>
	<node lat="64.76604166549212" lon="12.028330564777377" id="-85747">
		<tag k="highway" v="path" />
		<tag k="name" v="Stigan" />
		<tag k="ssr:stedsnr" v="717062" />
	</node>
	<node lat="64.63650000343456" lon="11.253561107368498" id="-85952">
		<tag k="man_made" v="quay" />
		<tag k="name" v="Faksdalsjøen" />
		<tag k="place" v="locality" />
		<tag k="ssr:stedsnr" v="775981" />
	</node>
	<node lat="64.63645555829905" lon="11.360194434952868" id="-86184">
		<tag k="amenity" v="ferry_terminal" />
		<tag k="name" v="Ølhammaren ferjekai" />
		<tag k="old_name" v="Ølhammeren ferjekai" />
		<tag k="ssr:stedsnr" v="825840" />
	</node>
	<node lat="64.66756944616698" lon="11.20393889015802" id="-86219">
		<tag k="fixme" v="verify maritime location" />
		<tag k="mooring" v="yes" />
		<tag k="name" v="Aglstøa" />
		<tag k="place" v="locality" />
		<tag k="ssr:stedsnr" v="836140" />
	</node>
	<node lat="64.77163888871337" lon="11.701413898387615" id="-86404">
		<tag k="fixme" v="verify maritime location" />
		<tag k="mooring" v="yes" />
		<tag k="name" v="Liastøa" />
		<tag k="place" v="locality" />
		<tag k="ssr:stedsnr" v="864758" />
	</node>
	<node lat="64.4640124045916" lon="11.492649486498307" id="-87104">
		<tag k="man_made" v="quay" />
		<tag k="name" v="Ekspedisjonskaia" />
		<tag k="place" v="locality" />
		<tag k="ssr:stedsnr" v="1079551" />
	</node>
	<node lat="64.38046079098284" lon="11.383449801759712" id="-87109">
		<tag k="layer" v="-1" />
		<tag k="name" v="Bangsundtunnelen" />
		<tag k="ssr:stedsnr" v="1079661" />
		<tag k="tunnel" v="yes" />
	</node>
</osm>
