<?xml version="1.0" encoding="UTF-8"?>
<osm version="0.6" generator="osmapis">
	<node lat="64.47241389325059" lon="11.105122222548184" id="-33894">
		<tag k="historic" v="shieling" />
		<tag k="name" v="Fjørstadfjellvollen" />
		<tag k="place" v="isolated_dwelling" />
		<tag k="ssr:stedsnr" v="230365" />
	</node>
	<node lat="64.58729504337045" lon="11.374639930677901" id="-33902">
		<tag k="name" v="Lyngholmskjæret" />
		<tag k="place" v="isolated_dwelling" />
		<tag k="ssr:stedsnr" v="230572" />
	</node>
	<node lat="64.25340555983479" lon="11.16554443886897" id="-33908">
		<tag k="name" v="Jamtlia" />
		<tag k="place" v="locality" />
		<tag k="ssr:stedsnr" v="230864" />
	</node>
	<node lat="64.48541111294078" lon="11.346383341423074" id="-33928">
		<tag k="name" v="Sandvika" />
		<tag k="place" v="farm" />
		<tag k="ssr:stedsnr" v="13201" />
	</node>
	<node lat="64.44908055200506" lon="11.173491674472645" id="-33933">
		<tag k="name" v="Sve" />
		<tag k="place" v="farm" />
		<tag k="ssr:stedsnr" v="13503" />
	</node>
	<node lat="64.44543333676023" lon="11.322155548834663" id="-33935">
		<tag k="name" v="Skjerpa" />
		<tag k="place" v="isolated_dwelling" />
		<tag k="ssr:stedsnr" v="14012" />
	</node>
	<node lat="64.22662603948523" lon="11.24133907847035" id="-33937">
		<tag k="fixme" v="consider place=hamlet" />
		<tag k="name" v="Hundset" />
		<tag k="place" v="farm" />
		<tag k="ssr:stedsnr" v="13918" />
	</node>
	<node lat="64.6805611102691" lon="11.289908326013851" id="-33949">
		<tag k="name" v="Leite" />
		<tag k="place" v="farm" />
		<tag k="ssr:stedsnr" v="14274" />
	</node>
	<node lat="64.4860472202556" lon="11.178108329942539" id="-33955">
		<tag k="name" v="Hjartvika" />
		<tag k="place" v="farm" />
		<tag k="ssr:stedsnr" v="14321" />
	</node>
	<node lat="64.60309812415164" lon="11.42695530074246" id="-33960">
		<tag k="fixme" v="consider place=hamlet" />
		<tag k="name" v="Myrvika" />
		<tag k="place" v="farm" />
		<tag k="ssr:stedsnr" v="14367" />
	</node>
	<node lat="64.23173632120842" lon="11.20188284503285" id="-33966">
		<tag k="fixme" v="consider place=hamlet" />
		<tag k="name" v="Bjørg" />
		<tag k="place" v="farm" />
		<tag k="ssr:stedsnr" v="14603" />
	</node>
	<node lat="64.18686388575618" lon="11.218505559043141" id="-33974">
		<tag k="name" v="Jamtsveet" />
		<tag k="place" v="farm" />
		<tag k="ssr:stedsnr" v="14802" />
	</node>
	<node lat="64.5674722223288" lon="11.547138884682028" id="-33980">
		<tag k="name" v="Blikkenget" />
		<tag k="place" v="farm" />
		<tag k="ssr:stedsnr" v="15006" />
	</node>
	<node lat="64.56289721886543" lon="11.652338879256645" id="-33981">
		<tag k="name" v="Bjørkasetran" />
		<tag k="place" v="locality" />
		<tag k="ssr:stedsnr" v="15011" />
	</node>
	<node lat="64.65912777938101" lon="11.354347218231373" id="-33992">
		<tag k="name" v="Frenndalsvika" />
		<tag k="place" v="farm" />
		<tag k="ssr:stedsnr" v="15370" />
	</node>
	<node lat="64.44308333566322" lon="11.519905556754328" id="-34003">
		<tag k="name" v="Spillum" />
		<tag k="place" v="farm" />
		<tag k="ssr:stedsnr" v="29571" />
	</node>
	<node lat="64.65874166525762" lon="11.17043889682521" id="-34032">
		<tag k="name" v="Bjørkvika" />
		<tag k="place" v="isolated_dwelling" />
		<tag k="ssr:stedsnr" v="47384" />
	</node>
	<node lat="64.61135000196612" lon="11.327102787988688" id="-34038">
		<tag k="name" v="Stranda" />
		<tag k="place" v="farm" />
		<tag k="ssr:stedsnr" v="47605" />
	</node>
	<node lat="64.28006111394203" lon="11.32315833772162" id="-34047">
		<tag k="historic" v="shieling" />
		<tag k="name" v="Småtjønntømte" />
		<tag k="place" v="isolated_dwelling" />
		<tag k="ssr:stedsnr" v="48315" />
	</node>
	<node lat="64.5738290985845" lon="11.163682798277035" id="-34066">
		<tag k="name" v="Skorstad" />
		<tag k="place" v="farm" />
		<tag k="ssr:stedsnr" v="49020" />
	</node>
	<node lat="64.47381389319649" lon="11.533658338615002" id="-34083">
		<tag k="amenity" v="school" />
		<tag k="name" v="Høknes ungdomsskole" />
		<tag k="ssr:stedsnr" v="59211" />
	</node>
	<node lat="64.47197221815824" lon="11.541602786225672" id="-34084">
		<tag k="amenity" v="school" />
		<tag k="name" v="Olav Duun videregående skole" />
		<tag k="ssr:stedsnr" v="241207" />
	</node>
	<node lat="64.23778888491846" lon="10.985788890576327" id="-34085">
		<tag k="name" v="Holitømtet" />
		<tag k="place" v="locality" />
		<tag k="ssr:stedsnr" v="65313" />
	</node>
	<node lat="64.45955000251746" lon="11.224525004397545" id="-34092">
		<tag k="alt_name" v="Lervika" />
		<tag k="name" v="Leirvika" />
		<tag k="place" v="farm" />
		<tag k="ssr:stedsnr" v="74066" />
	</node>
	<node lat="64.37206494004413" lon="11.169918118237469" id="-34096">
		<tag k="name" v="Altskardet" />
		<tag k="place" v="farm" />
		<tag k="ssr:stedsnr" v="74358" />
	</node>
	<node lat="64.21888889066685" lon="11.19538332441488" id="-34098">
		<tag k="name" v="Granmo" />
		<tag k="place" v="locality" />
		<tag k="ssr:stedsnr" v="74657" />
	</node>
	<node lat="64.1960250013571" lon="11.273166671396883" id="-34102">
		<tag k="name" v="Nesjan" />
		<tag k="place" v="farm" />
		<tag k="ssr:stedsnr" v="74816" />
	</node>
	<node lat="64.2069138889294" lon="11.233091675020715" id="-34104">
		<tag k="name" v="Holten" />
		<tag k="place" v="farm" />
		<tag k="ssr:stedsnr" v="74906" />
	</node>
	<node lat="64.42617778092688" lon="11.26132500007701" id="-34114">
		<tag k="name" v="Fossan" />
		<tag k="place" v="locality" />
		<tag k="ssr:stedsnr" v="75102" />
	</node>
	<node lat="64.4238077205755" lon="11.049829964556897" id="-34120">
		<tag k="name" v="Gårdsetran" />
		<tag k="place" v="farm" />
		<tag k="ssr:stedsnr" v="75306" />
	</node>
	<node lat="64.42785832932543" lon="11.179183335548224" id="-34121">
		<tag k="name" v="Nordgård" />
		<tag k="place" v="farm" />
		<tag k="ssr:stedsnr" v="75307" />
	</node>
	<node lat="64.42436902907751" lon="11.182214508160634" id="-34122">
		<tag k="fixme" v="consider place=hamlet" />
		<tag k="name" v="Oksdøla" />
		<tag k="place" v="farm" />
		<tag k="ssr:stedsnr" v="75308" />
	</node>
	<node lat="64.41293178099173" lon="11.196345787074566" id="-34123">
		<tag k="alt_name" v="Sylteraunet" />
		<tag k="fixme" v="consider place=hamlet" />
		<tag k="name" v="Aunet" />
		<tag k="place" v="farm" />
		<tag k="ssr:stedsnr" v="75320" />
	</node>
	<node lat="64.60248333794658" lon="11.54424443672586" id="-34130">
		<tag k="name" v="Hylla" />
		<tag k="place" v="locality" />
		<tag k="ssr:stedsnr" v="75462" />
	</node>
	<node lat="64.19959166476747" lon="11.191833341079368" id="-34166">
		<tag k="name" v="Gammelgården" />
		<tag k="place" v="locality" />
		<tag k="ssr:stedsnr" v="99325" />
	</node>
	<node lat="64.29875555848518" lon="11.198291671690985" id="-34169">
		<tag k="name" v="Mølnåa" />
		<tag k="place" v="farm" />
		<tag k="ssr:stedsnr" v="99211" />
	</node>
	<node lat="64.25100000155346" lon="11.09912221348366" id="-34211">
		<tag k="name" v="Sagmoen" />
		<tag k="place" v="farm" />
		<tag k="ssr:stedsnr" v="109924" />
	</node>
	<node lat="64.17840555915987" lon="11.26367499441184" id="-34225">
		<tag k="alt_name" v="Nordsitter" />
		<tag k="name" v="Nordsetter" />
		<tag k="place" v="farm" />
		<tag k="ssr:stedsnr" v="119118" />
	</node>
	<node lat="64.55676296994685" lon="11.52911758233939" id="-34232">
		<tag k="name" v="Kjerstivika" />
		<tag k="place" v="isolated_dwelling" />
		<tag k="ssr:stedsnr" v="135103" />
	</node>
	<node lat="64.6843361151472" lon="11.272152787479024" id="-34237">
		<tag k="name" v="Leirvika" />
		<tag k="place" v="farm" />
		<tag k="ssr:stedsnr" v="135328" />
	</node>
	<node lat="64.68394721994189" lon="11.307936115680738" id="-34238">
		<tag k="name" v="Sørli" />
		<tag k="place" v="farm" />
		<tag k="ssr:stedsnr" v="135330" />
	</node>
	<node lat="64.679377775162" lon="11.283627780087055" id="-34240">
		<tag k="name" v="Brumoen" />
		<tag k="place" v="farm" />
		<tag k="ssr:stedsnr" v="135342" />
	</node>
	<node lat="64.25001111419536" lon="11.096761119206105" id="-34243">
		<tag k="name" v="Vårheim" />
		<tag k="place" v="farm" />
		<tag k="ssr:stedsnr" v="135208" />
	</node>
	<node lat="64.50116389177117" lon="11.289038898937093" id="-34245">
		<tag k="name" v="Sandvik" />
		<tag k="place" v="farm" />
		<tag k="ssr:stedsnr" v="135222" />
	</node>
	<node lat="64.5026916642806" lon="11.44758888550898" id="-34246">
		<tag k="name" v="Lænnasjøen" />
		<tag k="place" v="farm" />
		<tag k="ssr:stedsnr" v="135231" />
	</node>
	<node lat="64.19660907688609" lon="11.193168475727546" id="-34255">
		<tag k="fixme" v="consider place=hamlet" />
		<tag k="name" v="Skjerpmoen" />
		<tag k="place" v="farm" />
		<tag k="ssr:stedsnr" v="135669" />
	</node>
	<node lat="64.34916666525154" lon="11.264880556004128" id="-34260">
		<tag k="name" v="Løvlia" />
		<tag k="place" v="farm" />
		<tag k="ssr:stedsnr" v="135965" />
	</node>
	<node lat="64.53473333029262" lon="11.311874992286693" id="-34268">
		<tag k="name" v="Vindsetmoan" />
		<tag k="place" v="farm" />
		<tag k="ssr:stedsnr" v="136207" />
	</node>
	<node lat="64.70149444534475" lon="11.426033326628982" id="-34277">
		<tag k="name" v="Strand" />
		<tag k="place" v="farm" />
		<tag k="ssr:stedsnr" v="136317" />
	</node>
	<node lat="64.52630833290645" lon="11.20583888689185" id="-34280">
		<tag k="name" v="Litlkleiva" />
		<tag k="place" v="locality" />
		<tag k="ssr:stedsnr" v="136698" />
	</node>
	<node lat="64.35092500288283" lon="11.102858325950528" id="-34286">
		<tag k="historic" v="shieling" />
		<tag k="name" v="Altsetran" />
		<tag k="place" v="isolated_dwelling" />
		<tag k="ssr:stedsnr" v="142422" />
	</node>
	<node lat="64.51404722427654" lon="11.304730551234401" id="-34293">
		<tag k="name" v="Engan" />
		<tag k="place" v="farm" />
		<tag k="ssr:stedsnr" v="147526" />
	</node>
	<node lat="64.4746499992705" lon="11.561055545462775" id="-34296">
		<tag k="name" v="Nymoen" />
		<tag k="place" v="farm" />
		<tag k="ssr:stedsnr" v="256048" />
	</node>
	<node lat="64.56950277742446" lon="11.531830560384243" id="-34298">
		<tag k="name" v="Bårdengstranda" />
		<tag k="place" v="farm" />
		<tag k="ssr:stedsnr" v="257027" />
	</node>
	<node lat="64.43035277836982" lon="11.48255833165891" id="-34299">
		<tag k="name" v="Solheim" />
		<tag k="place" v="farm" />
		<tag k="ssr:stedsnr" v="256093" />
	</node>
	<node lat="64.4955055534561" lon="11.145799993504793" id="-34304">
		<tag k="fixme" v="consider place=hamlet" />
		<tag k="name" v="Statland" />
		<tag k="place" v="village" />
		<tag k="ssr:stedsnr" v="256382" />
	</node>
	<node lat="64.15649166666071" lon="11.072713882026507" id="-34310">
		<tag k="name" v="Holvasslisetran" />
		<tag k="place" v="isolated_dwelling" />
		<tag k="ssr:stedsnr" v="256552" />
	</node>
	<node lat="64.2362916626518" lon="11.46332222893082" id="-34318">
		<tag k="name" v="Liasetran" />
		<tag k="place" v="isolated_dwelling" />
		<tag k="ssr:stedsnr" v="256914" />
	</node>
	<node lat="64.2329194469197" lon="11.513561108804797" id="-34320">
		<tag k="name" v="Svartesetran" />
		<tag k="place" v="isolated_dwelling" />
		<tag k="ssr:stedsnr" v="256921" />
	</node>
	<node lat="64.40924166495527" lon="11.47814166617437" id="-34331">
		<tag k="alt_name" v="Klingen" />
		<tag k="fixme" v="consider place=hamlet" />
		<tag k="name" v="Klinga" />
		<tag k="place" v="village" />
		<tag k="ssr:stedsnr" v="257071" />
	</node>
	<node lat="64.57785296886101" lon="11.707120925584395" id="-34333">
		<tag k="fixme" v="consider place=hamlet" />
		<tag k="name" v="Vetterhus" />
		<tag k="place" v="farm" />
		<tag k="ssr:stedsnr" v="257039" />
	</node>
	<node lat="64.51353889299705" lon="11.311352772676695" id="-34335">
		<tag k="name" v="Øver-Engan" />
		<tag k="place" v="farm" />
		<tag k="ssr:stedsnr" v="257127" />
	</node>
	<node lat="64.40569444616966" lon="11.440038892587749" id="-34339">
		<tag k="name" v="Skogmo" />
		<tag k="place" v="farm" />
		<tag k="ssr:stedsnr" v="257083" />
	</node>
	<node lat="64.30175833311614" lon="11.201327767979423" id="-34344">
		<tag k="name" v="Elverum" />
		<tag k="place" v="farm" />
		<tag k="ssr:stedsnr" v="257175" />
	</node>
	<node lat="64.68405909625622" lon="11.300347691609428" id="-34355">
		<tag k="fixme" v="consider place=hamlet" />
		<tag k="name" v="Fosnes" />
		<tag k="place" v="farm" />
		<tag k="ssr:stedsnr" v="257392" />
	</node>
	<node lat="64.62670335069532" lon="11.338337420594199" id="-34361">
		<tag k="fixme" v="consider place=hamlet" />
		<tag k="name" v="Bergem" />
		<tag k="place" v="farm" />
		<tag k="ssr:stedsnr" v="257434" />
	</node>
	<node lat="64.61714444071885" lon="11.618775006315715" id="-34364">
		<tag k="name" v="Ganesvika" />
		<tag k="place" v="isolated_dwelling" />
		<tag k="ssr:stedsnr" v="257526" />
	</node>
	<node lat="64.64096666397313" lon="11.186436103605175" id="-34373">
		<tag k="name" v="Haugtun" />
		<tag k="place" v="farm" />
		<tag k="ssr:stedsnr" v="257567" />
	</node>
	<node lat="64.22574721781199" lon="11.079505557102978" id="-34377">
		<tag k="name" v="Sverkmoen" />
		<tag k="place" v="farm" />
		<tag k="ssr:stedsnr" v="257679" />
	</node>
	<node lat="64.51648675956747" lon="11.231695398164348" id="-34386">
		<tag k="name" v="Hamnes" />
		<tag k="place" v="farm" />
		<tag k="ssr:stedsnr" v="257762" />
	</node>
	<node lat="64.76901975197758" lon="11.705647799698147" id="-34387">
		<tag k="fixme" v="consider place=hamlet" />
		<tag k="name" v="Lian" />
		<tag k="place" v="farm" />
		<tag k="ssr:stedsnr" v="257747" />
	</node>
	<node lat="64.17572037842295" lon="11.227997170464816" id="-34402">
		<tag k="fixme" v="multiple name tags, choose one and add the other to alt_name" />
		<tag k="name" v="Elda;Ner-Elda" />
		<tag k="old_name" v="Elda, nedre" />
		<tag k="place" v="farm" />
		<tag k="ssr:stedsnr" v="257895" />
	</node>
	<node lat="64.67111111374207" lon="11.202780552790342" id="-34407">
		<tag k="name" v="Hammarhaugen" />
		<tag k="place" v="farm" />
		<tag k="ssr:stedsnr" v="257995" />
	</node>
	<node lat="64.65778889077782" lon="11.205177776989506" id="-34408">
		<tag k="name" v="Sjølia" />
		<tag k="place" v="farm" />
		<tag k="ssr:stedsnr" v="257999" />
	</node>
	<node lat="64.62374721882539" lon="11.279505545108007" id="-34422">
		<tag k="name" v="Aunabrekka" />
		<tag k="place" v="locality" />
		<tag k="ssr:stedsnr" v="168902" />
	</node>
	<node lat="64.62723333231224" lon="11.095613896521847" id="-34435">
		<tag k="historic" v="shieling" />
		<tag k="name" v="Agelsetran" />
		<tag k="place" v="isolated_dwelling" />
		<tag k="ssr:stedsnr" v="169515" />
	</node>
	<node lat="64.49716111534057" lon="11.134352772257728" id="-34462">
		<tag k="amenity" v="school" />
		<tag k="name" v="Statland skole" />
		<tag k="ssr:stedsnr" v="180213" />
	</node>
	<node lat="64.57815000414223" lon="11.205833324096233" id="-34466">
		<tag k="name" v="Hallaren" />
		<tag k="place" v="farm" />
		<tag k="ssr:stedsnr" v="195584" />
	</node>
	<node lat="64.5166696413636" lon="11.488733736968952" id="-34480">
		<tag k="fixme" v="consider place=hamlet" />
		<tag k="name" v="Ramsvika" />
		<tag k="place" v="farm" />
		<tag k="ssr:stedsnr" v="196141" />
	</node>
	<node lat="64.2714094983838" lon="11.191275736145244" id="-34482">
		<tag k="fixme" v="consider place=hamlet" />
		<tag k="name" v="Årgård" />
		<tag k="place" v="farm" />
		<tag k="ssr:stedsnr" v="196149" />
	</node>
	<node lat="64.43035277384412" lon="11.184219448534543" id="-34489">
		<tag k="name" v="Kilmoen" />
		<tag k="place" v="farm" />
		<tag k="ssr:stedsnr" v="196402" />
	</node>
	<node lat="64.68088055343843" lon="11.419324989813536" id="-34493">
		<tag k="name" v="Hestvika" />
		<tag k="place" v="farm" />
		<tag k="ssr:stedsnr" v="196305" />
	</node>
	<node lat="64.18039722613977" lon="11.235158331916447" id="-34499">
		<tag k="name" v="Bangen" />
		<tag k="place" v="farm" />
		<tag k="ssr:stedsnr" v="196817" />
	</node>
	<node lat="64.2838542289013" lon="11.613124294915519" id="-34500">
		<tag k="fixme" v="consider place=hamlet" />
		<tag k="name" v="Solem" />
		<tag k="place" v="farm" />
		<tag k="ssr:stedsnr" v="196822" />
	</node>
	<node lat="64.18796111360811" lon="11.225552768022034" id="-34503">
		<tag k="name" v="Korsen" />
		<tag k="place" v="farm" />
		<tag k="ssr:stedsnr" v="196831" />
	</node>
	<node lat="64.19074112516132" lon="11.226310026959284" id="-34504">
		<tag k="name" v="Holstad" />
		<tag k="place" v="farm" />
		<tag k="ssr:stedsnr" v="196832" />
	</node>
	<node lat="64.14456388611117" lon="11.1225027742177" id="-34506">
		<tag k="historic" v="shieling" />
		<tag k="name" v="Settersetran" />
		<tag k="place" v="isolated_dwelling" />
		<tag k="ssr:stedsnr" v="196563" />
	</node>
	<node lat="64.37754721992319" lon="11.282811107576954" id="-34510">
		<tag k="name" v="Breivika" />
		<tag k="place" v="isolated_dwelling" />
		<tag k="ssr:stedsnr" v="196957" />
	</node>
	<node lat="64.25801110678846" lon="11.298844450862784" id="-34513">
		<tag k="name" v="Kaldalbakken" />
		<tag k="place" v="farm" />
		<tag k="ssr:stedsnr" v="196858" />
	</node>
	<node lat="64.52725555594405" lon="11.539238897346136" id="-34522">
		<tag k="name" v="Alhusstranda" />
		<tag k="place" v="farm" />
		<tag k="ssr:stedsnr" v="197209" />
	</node>
	<node lat="64.24526110894118" lon="11.2367722154821" id="-34547">
		<tag k="name" v="Brørsbakken" />
		<tag k="place" v="farm" />
		<tag k="ssr:stedsnr" v="221202" />
	</node>
	<node lat="64.23560000305436" lon="11.351274993092236" id="-34550">
		<tag k="name" v="Dorrås" />
		<tag k="place" v="farm" />
		<tag k="ssr:stedsnr" v="221212" />
	</node>
	<node lat="64.2222861136283" lon="11.23968333037338" id="-34551">
		<tag k="name" v="Hundset" />
		<tag k="place" v="farm" />
		<tag k="ssr:stedsnr" v="221323" />
	</node>
	<node lat="64.65871110874268" lon="11.237858331126054" id="-34561">
		<tag k="name" v="Lauga" />
		<tag k="place" v="farm" />
		<tag k="ssr:stedsnr" v="229137" />
	</node>
	<node lat="64.60609721849724" lon="11.427369446720196" id="-34570">
		<tag k="name" v="Nord-Myrvika" />
		<tag k="place" v="farm" />
		<tag k="ssr:stedsnr" v="229508" />
	</node>
	<node lat="64.34590278058624" lon="11.618119454300675" id="-34591">
		<tag k="historic" v="shieling" />
		<tag k="name" v="Ramstadsetran" />
		<tag k="place" v="isolated_dwelling" />
		<tag k="ssr:stedsnr" v="230439" />
	</node>
	<node lat="64.65100833496933" lon="11.781188883485138" id="-34598">
		<tag k="name" v="Storenghytta" />
		<tag k="place" v="isolated_dwelling" />
		<tag k="ssr:stedsnr" v="230702" />
	</node>
	<node lat="64.29935277761136" lon="11.137422212916869" id="-34602">
		<tag k="historic" v="shieling" />
		<tag k="name" v="Ledelseteren" />
		<tag k="place" v="isolated_dwelling" />
		<tag k="ssr:stedsnr" v="230790" />
	</node>
	<node lat="64.403202776864" lon="11.269791667590912" id="-34616">
		<tag k="historic" v="shieling" />
		<tag k="name" v="Hemnafjellsetran" />
		<tag k="place" v="isolated_dwelling" />
		<tag k="ssr:stedsnr" v="451149" />
	</node>
	<node lat="64.68217175922237" lon="11.444703794029092" id="-34621">
		<tag k="name" v="Innermoen" />
		<tag k="place" v="locality" />
		<tag k="ssr:stedsnr" v="453339" />
	</node>
	<node lat="64.47252222213767" lon="11.446638897709587" id="-34624">
		<tag k="name" v="Stranda" />
		<tag k="place" v="quarter" />
		<tag k="ssr:stedsnr" v="454528" />
	</node>
	<node lat="64.45749999994992" lon="11.332288896179108" id="-34630">
		<tag k="name" v="Skjerpenget" />
		<tag k="place" v="farm" />
		<tag k="ssr:stedsnr" v="256002" />
	</node>
	<node lat="64.38682500007718" lon="11.376983323930938" id="-34633">
		<tag k="name" v="Berg" />
		<tag k="place" v="farm" />
		<tag k="ssr:stedsnr" v="256079" />
	</node>
	<node lat="64.56044444797043" lon="11.611327771923635" id="-34645">
		<tag k="name" v="Bjørkan" />
		<tag k="place" v="isolated_dwelling" />
		<tag k="ssr:stedsnr" v="257004" />
	</node>
	<node lat="64.31786666855214" lon="11.535186104670702" id="-34648">
		<tag k="name" v="Romstadmoen" />
		<tag k="place" v="farm" />
		<tag k="ssr:stedsnr" v="256903" />
	</node>
	<node lat="64.38906389291773" lon="11.511377786840828" id="-34652">
		<tag k="name" v="Skattmoen" />
		<tag k="place" v="farm" />
		<tag k="ssr:stedsnr" v="256957" />
	</node>
	<node lat="64.37945277915783" lon="11.542750007316933" id="-34653">
		<tag k="name" v="Heia" />
		<tag k="place" v="locality" />
		<tag k="ssr:stedsnr" v="256960" />
	</node>
	<node lat="64.55814166288609" lon="11.267269435503708" id="-34658">
		<tag k="name" v="Nordset" />
		<tag k="place" v="farm" />
		<tag k="ssr:stedsnr" v="257116" />
	</node>
	<node lat="64.50405277574242" lon="11.595833339516734" id="-34670">
		<tag k="alt_name" v="Hakkmo" />
		<tag k="name" v="Hakkmoen" />
		<tag k="place" v="locality" />
		<tag k="ssr:stedsnr" v="257268" />
	</node>
	<node lat="64.65630000187637" lon="11.352133332271421" id="-34677">
		<tag k="name" v="Frenndal" />
		<tag k="place" v="farm" />
		<tag k="ssr:stedsnr" v="257360" />
	</node>
	<node lat="64.65516944101458" lon="11.70197499970751" id="-34678">
		<tag k="name" v="Hauksetran" />
		<tag k="place" v="locality" />
		<tag k="ssr:stedsnr" v="257369" />
	</node>
	<node lat="64.63311797215306" lon="11.125806225176314" id="-34687">
		<tag k="fixme" v="consider place=hamlet" />
		<tag k="name" v="Jevika" />
		<tag k="place" v="farm" />
		<tag k="ssr:stedsnr" v="257556" />
	</node>
	<node lat="64.63485798829603" lon="11.0768030469068" id="-34688">
		<tag k="name" v="Årvika" />
		<tag k="place" v="farm" />
		<tag k="ssr:stedsnr" v="257557" />
	</node>
	<node lat="64.32784434146306" lon="11.371041605896568" id="-34693">
		<tag k="name" v="Aursundlia" />
		<tag k="place" v="locality" />
		<tag k="ssr:stedsnr" v="257916" />
	</node>
	<node lat="64.51440000258437" lon="11.28271111582193" id="-34718">
		<tag k="name" v="Skomsvoll" />
		<tag k="place" v="farm" />
		<tag k="ssr:stedsnr" v="281006" />
	</node>
	<node lat="64.23643055367023" lon="11.214183330943193" id="-34727">
		<tag k="name" v="Engan" />
		<tag k="place" v="farm" />
		<tag k="ssr:stedsnr" v="281306" />
	</node>
	<node lat="64.34291388837254" lon="11.544688890268532" id="-34735">
		<tag k="name" v="Elvheim" />
		<tag k="place" v="farm" />
		<tag k="ssr:stedsnr" v="281579" />
	</node>
	<node lat="64.59567499894474" lon="11.1334388854947" id="-34751">
		<tag k="historic" v="shieling" />
		<tag k="name" v="Finnangersetran" />
		<tag k="place" v="isolated_dwelling" />
		<tag k="ssr:stedsnr" v="290478" />
	</node>
	<node lat="64.60300555673882" lon="11.493175003352784" id="-34753">
		<tag k="name" v="Skjærivasstua" />
		<tag k="place" v="isolated_dwelling" />
		<tag k="ssr:stedsnr" v="290635" />
	</node>
	<node lat="64.64928611245548" lon="11.308802785616278" id="-34758">
		<tag k="name" v="Gjessetsetran" />
		<tag k="place" v="locality" />
		<tag k="ssr:stedsnr" v="290931" />
	</node>
	<node lat="64.7213833371894" lon="11.600311106747634" id="-34797">
		<tag k="name" v="Ekorndalteigen" />
		<tag k="place" v="locality" />
		<tag k="ssr:stedsnr" v="293493" />
	</node>
	<node lat="64.23314722530225" lon="11.206397223806615" id="-34803">
		<tag k="name" v="Nedre Bjørg" />
		<tag k="place" v="farm" />
		<tag k="ssr:stedsnr" v="463235" />
	</node>
	<node lat="64.5328138872348" lon="11.413980565757598" id="-34827">
		<tag k="name" v="Survika" />
		<tag k="place" v="farm" />
		<tag k="ssr:stedsnr" v="465184" />
	</node>
	<node lat="64.45701388957258" lon="11.278469445579757" id="-34829">
		<tag k="name" v="Valvika" />
		<tag k="place" v="farm" />
		<tag k="ssr:stedsnr" v="317003" />
	</node>
	<node lat="64.46558333539096" lon="11.49784165966641" id="-34830">
		<tag k="name" v="Namsos" />
		<tag k="place" v="town" />
		<tag k="ssr:stedsnr" v="317007" />
	</node>
	<node lat="64.45380283238775" lon="11.315684278394553" id="-34831">
		<tag k="name" v="Skjerpmoen" />
		<tag k="place" v="farm" />
		<tag k="ssr:stedsnr" v="317011" />
	</node>
	<node lat="64.49648333339253" lon="11.625388885823988" id="-34840">
		<tag k="name" v="Engan" />
		<tag k="place" v="farm" />
		<tag k="ssr:stedsnr" v="317225" />
	</node>
	<node lat="64.51345000233336" lon="11.553752786684827" id="-34845">
		<tag k="name" v="Kvernbakkan" />
		<tag k="place" v="farm" />
		<tag k="ssr:stedsnr" v="317121" />
	</node>
	<node lat="64.51379166958789" lon="11.304683327912493" id="-34846">
		<tag k="name" v="Ner-Engan" />
		<tag k="place" v="farm" />
		<tag k="ssr:stedsnr" v="317144" />
	</node>
	<node lat="64.43542222062104" lon="11.074319438851008" id="-34848">
		<tag k="historic" v="shieling" />
		<tag k="name" v="Tøttdalssetran" />
		<tag k="place" v="isolated_dwelling" />
		<tag k="ssr:stedsnr" v="317398" />
	</node>
	<node lat="64.1848704181641" lon="11.20573073898269" id="-34851">
		<tag k="name" v="Kolstad" />
		<tag k="place" v="farm" />
		<tag k="ssr:stedsnr" v="317526" />
	</node>
	<node lat="64.58952222492974" lon="11.213275004492216" id="-34854">
		<tag k="name" v="Hestvika" />
		<tag k="place" v="farm" />
		<tag k="ssr:stedsnr" v="317547" />
	</node>
	<node lat="64.45460000330044" lon="11.183427780141042" id="-34861">
		<tag k="name" v="Langstranda" />
		<tag k="place" v="farm" />
		<tag k="ssr:stedsnr" v="317425" />
	</node>
	<node lat="64.20627510595291" lon="11.081382053605894" id="-34862">
		<tag k="name" v="Heggdalslisetran" />
		<tag k="place" v="locality" />
		<tag k="ssr:stedsnr" v="317602" />
	</node>
	<node lat="64.22367777609027" lon="11.398930558011461" id="-34865">
		<tag k="name" v="Skogeng" />
		<tag k="place" v="farm" />
		<tag k="ssr:stedsnr" v="317902" />
	</node>
	<node lat="64.23121315491983" lon="11.32422554440486" id="-34867">
		<tag k="name" v="Berrehaugen" />
		<tag k="place" v="locality" />
		<tag k="ssr:stedsnr" v="317908" />
	</node>
	<node lat="64.16636110814504" lon="11.260386104579549" id="-34871">
		<tag k="alt_name" v="Spissvollen" />
		<tag k="name" v="Vollen" />
		<tag k="place" v="farm" />
		<tag k="ssr:stedsnr" v="317807" />
	</node>
	<node lat="64.25420182553549" lon="11.26824246986344" id="-34874">
		<tag k="fixme" v="consider place=hamlet" />
		<tag k="name" v="Kaldal" />
		<tag k="place" v="farm" />
		<tag k="ssr:stedsnr" v="317812" />
	</node>
	<node lat="64.25920555975523" lon="11.46162500627338" id="-34876">
		<tag k="name" v="Andsjøtømtet" />
		<tag k="place" v="isolated_dwelling" />
		<tag k="ssr:stedsnr" v="317824" />
	</node>
	<node lat="64.65705833307223" lon="11.2646138830147" id="-34890">
		<tag k="fixme" v="consider place=hamlet" />
		<tag k="name" v="Dun" />
		<tag k="place" v="village" />
		<tag k="ssr:stedsnr" v="318341" />
	</node>
	<node lat="64.50978888480441" lon="11.10969167350418" id="-34898">
		<tag k="name" v="Ledang" />
		<tag k="place" v="hamlet" />
		<tag k="ssr:stedsnr" v="318722" />
	</node>
	<node lat="64.5330333327432" lon="11.553683343497319" id="-34919">
		<tag k="fixme" v="consider place=hamlet" />
		<tag k="name" v="Heimdal" />
		<tag k="place" v="farm" />
		<tag k="ssr:stedsnr" v="333446" />
	</node>
	<node lat="64.6126916638241" lon="11.390449997254033" id="-34925">
		<tag k="name" v="Moen" />
		<tag k="place" v="isolated_dwelling" />
		<tag k="ssr:stedsnr" v="471691" />
	</node>
	<node lat="64.31707499893037" lon="11.216552773844459" id="-34948">
		<tag k="name" v="Lauvhaugen" />
		<tag k="place" v="farm" />
		<tag k="ssr:stedsnr" v="341199" />
	</node>
	<node lat="64.1646555564542" lon="11.275388889285411" id="-34963">
		<tag k="alt_name" v="Mork søre;Søre Mork" />
		<tag k="name" v="Søndre Mork" />
		<tag k="place" v="farm" />
		<tag k="ssr:stedsnr" v="342297" />
	</node>
	<node lat="64.63695555184435" lon="11.270994443080676" id="-34983">
		<tag k="name" v="Storenget" />
		<tag k="place" v="farm" />
		<tag k="ssr:stedsnr" v="472950" />
	</node>
	<node lat="64.58966944648306" lon="11.533280558663735" id="-35004">
		<tag k="name" v="Stordalsfjellstua" />
		<tag k="place" v="isolated_dwelling" />
		<tag k="ssr:stedsnr" v="473695" />
	</node>
	<node lat="64.43420000074406" lon="11.20154721832972" id="-35005">
		<tag k="alt_name" v="Morka søre" />
		<tag k="name" v="Søre Morka" />
		<tag k="place" v="farm" />
		<tag k="ssr:stedsnr" v="473796" />
	</node>
	<node lat="64.25218055778687" lon="11.114027772318911" id="-35014">
		<tag k="name" v="Buamoen" />
		<tag k="place" v="locality" />
		<tag k="ssr:stedsnr" v="473891" />
	</node>
	<node lat="64.63356667063506" lon="11.280419437107398" id="-35035">
		<tag k="name" v="Haugen" />
		<tag k="place" v="farm" />
		<tag k="ssr:stedsnr" v="350943" />
	</node>
	<node lat="64.68262221991338" lon="11.296866668687926" id="-35039">
		<tag k="name" v="Bergly" />
		<tag k="place" v="farm" />
		<tag k="ssr:stedsnr" v="350811" />
	</node>
	<node lat="64.5170805542184" lon="11.258469439111705" id="-35096">
		<tag k="name" v="Solvika" />
		<tag k="place" v="farm" />
		<tag k="ssr:stedsnr" v="363265" />
	</node>
	<node lat="64.52769166700158" lon="11.328686115567153" id="-35109">
		<tag k="fixme" v="consider place=hamlet" />
		<tag k="name" v="Vindset" />
		<tag k="place" v="farm" />
		<tag k="ssr:stedsnr" v="378172" />
	</node>
	<node lat="64.62055509800902" lon="11.281318649944952" id="-35120">
		<tag k="fixme" v="consider place=hamlet" />
		<tag k="name" v="Aunet" />
		<tag k="place" v="farm" />
		<tag k="ssr:stedsnr" v="378416" />
	</node>
	<node lat="64.59495833389435" lon="11.621302770237302" id="-35125">
		<tag k="name" v="Stamoen" />
		<tag k="place" v="farm" />
		<tag k="ssr:stedsnr" v="378465" />
	</node>
	<node lat="64.58724166812145" lon="11.515930562898502" id="-35126">
		<tag k="name" v="Olderviksetran" />
		<tag k="place" v="isolated_dwelling" />
		<tag k="ssr:stedsnr" v="378467" />
	</node>
	<node lat="64.58414722649741" lon="11.648036105609577" id="-35127">
		<tag k="name" v="Bakkan" />
		<tag k="place" v="farm" />
		<tag k="ssr:stedsnr" v="378483" />
	</node>
	<node lat="64.77767476118457" lon="11.705852537120874" id="-35132">
		<tag k="name" v="Oddvika" />
		<tag k="place" v="isolated_dwelling" />
		<tag k="ssr:stedsnr" v="378767" />
	</node>
	<node lat="64.32647500104082" lon="11.218144442787565" id="-35135">
		<tag k="name" v="Kleiva" />
		<tag k="place" v="farm" />
		<tag k="ssr:stedsnr" v="378904" />
	</node>
	<node lat="64.56057499987473" lon="11.27430000341904" id="-35138">
		<tag k="name" v="Svemoen" />
		<tag k="place" v="farm" />
		<tag k="ssr:stedsnr" v="379132" />
	</node>
	<node lat="64.52813888646637" lon="11.658202772856662" id="-35139">
		<tag k="name" v="Fugllisetran" />
		<tag k="place" v="locality" />
		<tag k="ssr:stedsnr" v="379164" />
	</node>
	<node lat="64.52315833048914" lon="11.281625004488816" id="-35141">
		<tag k="name" v="Furuheim" />
		<tag k="place" v="farm" />
		<tag k="ssr:stedsnr" v="379174" />
	</node>
	<node lat="64.69354166252526" lon="11.438583338199757" id="-35143">
		<tag k="name" v="Øyra" />
		<tag k="place" v="farm" />
		<tag k="ssr:stedsnr" v="379262" />
	</node>
	<node lat="64.68781666408522" lon="11.435958343124057" id="-35146">
		<tag k="name" v="Sandbakken" />
		<tag k="place" v="farm" />
		<tag k="ssr:stedsnr" v="379272" />
	</node>
	<node lat="64.47141110915105" lon="11.55915000209026" id="-35159">
		<tag k="fixme" v="consider place=hamlet" />
		<tag k="name" v="Høknes" />
		<tag k="place" v="farm" />
		<tag k="ssr:stedsnr" v="402005" />
	</node>
	<node lat="64.50352023839625" lon="11.459402769312213" id="-35160">
		<tag k="name" v="Lænn" />
		<tag k="place" v="farm" />
		<tag k="ssr:stedsnr" v="402013" />
	</node>
	<node lat="64.51731110916518" lon="11.290125004991761" id="-35169">
		<tag k="name" v="Hatlan" />
		<tag k="place" v="farm" />
		<tag k="ssr:stedsnr" v="485223" />
	</node>
	<node lat="64.23962222320128" lon="11.246233335673185" id="-35170">
		<tag k="name" v="Brørshaugen" />
		<tag k="place" v="farm" />
		<tag k="ssr:stedsnr" v="402279" />
	</node>
	<node lat="64.25103889093867" lon="11.22325000939804" id="-35174">
		<tag k="name" v="Sandberg" />
		<tag k="place" v="farm" />
		<tag k="ssr:stedsnr" v="403219" />
	</node>
	<node lat="64.17714444554576" lon="11.19825555366009" id="-35221">
		<tag k="name" v="Eldstranda" />
		<tag k="place" v="locality" />
		<tag k="ssr:stedsnr" v="422704" />
	</node>
	<node lat="64.45427777887633" lon="11.456069437079025" id="-35223">
		<tag k="name" v="Grautvika" />
		<tag k="place" v="hamlet" />
		<tag k="ssr:stedsnr" v="438003" />
	</node>
	<node lat="64.35629339563711" lon="11.530289669569221" id="-35234">
		<tag k="fixme" v="consider place=hamlet" />
		<tag k="name" v="Andsjøen" />
		<tag k="place" v="farm" />
		<tag k="ssr:stedsnr" v="438997" />
	</node>
	<node lat="64.28621666922355" lon="11.186966671213574" id="-35236">
		<tag k="name" v="Neset" />
		<tag k="place" v="farm" />
		<tag k="ssr:stedsnr" v="439107" />
	</node>
	<node lat="64.27636389258362" lon="11.197799999011627" id="-35238">
		<tag k="alt_name" v="Haugmo" />
		<tag k="name" v="Haugmoen" />
		<tag k="place" v="farm" />
		<tag k="ssr:stedsnr" v="439117" />
	</node>
	<node lat="64.53634167116302" lon="11.307755556007402" id="-35242">
		<tag k="name" v="Høgøyra" />
		<tag k="place" v="farm" />
		<tag k="ssr:stedsnr" v="439049" />
	</node>
	<node lat="64.65076335175243" lon="11.200432286644505" id="-35258">
		<tag k="fixme" v="consider place=hamlet" />
		<tag k="name" v="Sandvika" />
		<tag k="place" v="farm" />
		<tag k="ssr:stedsnr" v="439503" />
	</node>
	<node lat="64.5931333312665" lon="11.620899994025905" id="-35261">
		<tag k="name" v="Foss" />
		<tag k="place" v="farm" />
		<tag k="ssr:stedsnr" v="439456" />
	</node>
	<node lat="64.63881110886261" lon="11.182894441955021" id="-35262">
		<tag k="name" v="Sandvollan" />
		<tag k="place" v="farm" />
		<tag k="ssr:stedsnr" v="439495" />
	</node>
	<node lat="64.74669999918648" lon="11.627072227765149" id="-35265">
		<tag k="name" v="Lundaunet" />
		<tag k="place" v="farm" />
		<tag k="ssr:stedsnr" v="439744" />
	</node>
	<node lat="64.6648805538425" lon="11.731180549038712" id="-35270">
		<tag k="name" v="Sela" />
		<tag k="place" v="locality" />
		<tag k="ssr:stedsnr" v="439843" />
	</node>
	<node lat="64.65723687043473" lon="11.212808436307151" id="-35275">
		<tag k="alt_name" v="Ner-Hov" />
		<tag k="name" v="Hov" />
		<tag k="place" v="farm" />
		<tag k="ssr:stedsnr" v="439996" />
	</node>
	<node lat="64.56036944635588" lon="11.370744444557037" id="-35276">
		<tag k="fixme" v="consider place=hamlet" />
		<tag k="name" v="Kaldklauva" />
		<tag k="place" v="farm" />
		<tag k="ssr:stedsnr" v="440153" />
	</node>
	<node lat="64.47141110915105" lon="11.55915000209026" id="-35290">
		<tag k="fixme" v="multiple name tags, choose one and add the other to alt_name" />
		<tag k="name" v="Høknes;Neset" />
		<tag k="place" v="farm" />
		<tag k="ssr:stedsnr" v="454564" />
	</node>
	<node lat="64.25759999628617" lon="11.354641666823097" id="-35293">
		<tag k="name" v="Lingstømtet" />
		<tag k="place" v="locality" />
		<tag k="ssr:stedsnr" v="462175" />
	</node>
	<node lat="64.26289999991941" lon="11.196250010144015" id="-35294">
		<tag k="alt_name" v="Årgård søre" />
		<tag k="name" v="Søre Årgård" />
		<tag k="place" v="farm" />
		<tag k="ssr:stedsnr" v="463221" />
	</node>
	<node lat="64.18188610720759" lon="11.22864444842004" id="-35299">
		<tag k="fixme" v="consider place=hamlet" />
		<tag k="name" v="Elda" />
		<tag k="place" v="farm" />
		<tag k="ssr:stedsnr" v="463310" />
	</node>
	<node lat="64.70395277495419" lon="11.442683342103814" id="-35306">
		<tag k="name" v="Sætergården" />
		<tag k="place" v="farm" />
		<tag k="ssr:stedsnr" v="469324" />
	</node>
	<node lat="64.76279444790335" lon="12.023341661596929" id="-35348">
		<tag k="name" v="Øykvika" />
		<tag k="place" v="locality" />
		<tag k="ssr:stedsnr" v="475075" />
	</node>
	<node lat="64.47038333720175" lon="11.470355560915426" id="-35356">
		<tag k="amenity" v="school" />
		<tag k="name" v="Vestbyen skole" />
		<tag k="ssr:stedsnr" v="483238" />
	</node>
	<node lat="64.65176388540502" lon="11.261533324175765" id="-35357">
		<tag k="name" v="Vestre Steine" />
		<tag k="place" v="farm" />
		<tag k="ssr:stedsnr" v="484269" />
	</node>
	<node lat="64.39231944134559" lon="11.396880557915411" id="-35361">
		<tag k="name" v="Bangsund" />
		<tag k="place" v="village" />
		<tag k="ssr:stedsnr" v="681080" />
	</node>
	<node lat="64.43931478932815" lon="11.15234521558124" id="-35364">
		<tag k="fixme" v="consider place=hamlet" />
		<tag k="name" v="Tøttdalen" />
		<tag k="place" v="farm" />
		<tag k="ssr:stedsnr" v="498040" />
	</node>
	<node lat="64.27047024672788" lon="11.205363891738314" id="-35366">
		<tag k="name" v="Stakksetet" />
		<tag k="place" v="farm" />
		<tag k="ssr:stedsnr" v="681147" />
	</node>
	<node lat="64.25528973648282" lon="11.219618933424343" id="-35367">
		<tag k="fixme" v="consider place=hamlet" />
		<tag k="name" v="Buvarp" />
		<tag k="place" v="farm" />
		<tag k="ssr:stedsnr" v="681219" />
	</node>
	<node lat="64.25312248166368" lon="11.11883689601106" id="-35368">
		<tag k="name" v="Myrmoen" />
		<tag k="place" v="farm" />
		<tag k="ssr:stedsnr" v="681222" />
	</node>
	<node lat="64.37838611341293" lon="11.132938880517715" id="-35374">
		<tag k="name" v="Gravhaugsetran" />
		<tag k="place" v="locality" />
		<tag k="ssr:stedsnr" v="681247" />
	</node>
	<node lat="64.6397432427773" lon="11.190016487026115" id="-35388">
		<tag k="fixme" v="consider place=hamlet" />
		<tag k="name" v="Tranås" />
		<tag k="place" v="farm" />
		<tag k="ssr:stedsnr" v="499445" />
	</node>
	<node lat="64.58790278003394" lon="11.66622499478889" id="-35392">
		<tag k="name" v="Myrvoll" />
		<tag k="place" v="farm" />
		<tag k="ssr:stedsnr" v="499392" />
	</node>
	<node lat="64.23348333560504" lon="11.11519165675538" id="-35402">
		<tag k="name" v="Fautgårdstømtet" />
		<tag k="place" v="isolated_dwelling" />
		<tag k="ssr:stedsnr" v="499595" />
	</node>
	<node lat="64.53139999737235" lon="11.544730563770287" id="-35416">
		<tag k="name" v="Sørenget" />
		<tag k="place" v="farm" />
		<tag k="ssr:stedsnr" v="500203" />
	</node>
	<node lat="64.54352378094651" lon="11.559127881840856" id="-35429">
		<tag k="fixme" v="consider place=hamlet" />
		<tag k="name" v="Hammarsøya" />
		<tag k="place" v="farm" />
		<tag k="ssr:stedsnr" v="500102" />
	</node>
	<node lat="64.55595833147748" lon="11.274350006736626" id="-35431">
		<tag k="name" v="Skaget" />
		<tag k="place" v="farm" />
		<tag k="ssr:stedsnr" v="500133" />
	</node>
	<node lat="64.5238805567113" lon="11.275716667379545" id="-35434">
		<tag k="name" v="Nordli" />
		<tag k="place" v="farm" />
		<tag k="ssr:stedsnr" v="500190" />
	</node>
	<node lat="64.53043333720896" lon="11.311924991084542" id="-35436">
		<tag k="name" v="Sørheim" />
		<tag k="place" v="farm" />
		<tag k="ssr:stedsnr" v="500196" />
	</node>
	<node lat="64.50382164160182" lon="11.46017750043051" id="-35438">
		<tag k="fixme" v="consider place=hamlet" />
		<tag k="name" v="Lænn" />
		<tag k="place" v="farm" />
		<tag k="ssr:stedsnr" v="500283" />
	</node>
	<node lat="64.63950833553574" lon="11.29445000538077" id="-35446">
		<tag k="name" v="Dønnes" />
		<tag k="place" v="farm" />
		<tag k="ssr:stedsnr" v="500512" />
	</node>
	<node lat="64.57451388503317" lon="11.196788880018005" id="-35452">
		<tag k="name" v="Moen" />
		<tag k="place" v="farm" />
		<tag k="ssr:stedsnr" v="681573" />
	</node>
	<node lat="64.65935000286456" lon="11.1969055559013" id="-35481">
		<tag k="name" v="Myrheim" />
		<tag k="place" v="farm" />
		<tag k="ssr:stedsnr" v="681998" />
	</node>
	<node lat="64.63711655917346" lon="11.342762509827446" id="-35484">
		<tag k="fixme" v="consider place=hamlet" />
		<tag k="name" v="Seierstad" />
		<tag k="place" v="farm" />
		<tag k="ssr:stedsnr" v="682477" />
	</node>
	<node lat="64.53681621402967" lon="11.415829498972988" id="-35486">
		<tag k="fixme" v="consider place=hamlet" />
		<tag k="name" v="Survika" />
		<tag k="place" v="farm" />
		<tag k="ssr:stedsnr" v="682081" />
	</node>
	<node lat="64.54644999620643" lon="11.585116670953576" id="-35488">
		<tag k="alt_name" v="Lykkjmoen" />
		<tag k="name" v="Granly" />
		<tag k="place" v="farm" />
		<tag k="ssr:stedsnr" v="682099" />
	</node>
	<node lat="64.565161113171" lon="11.53316110652812" id="-35489">
		<tag k="name" v="Bårdenget" />
		<tag k="place" v="isolated_dwelling" />
		<tag k="ssr:stedsnr" v="682007" />
	</node>
	<node lat="64.56686869863826" lon="11.21953250969325" id="-35492">
		<tag k="name" v="Fjellstua" />
		<tag k="place" v="isolated_dwelling" />
		<tag k="ssr:stedsnr" v="682029" />
	</node>
	<node lat="64.58384999870138" lon="11.65323334069723" id="-35497">
		<tag k="name" v="Raudbergvika" />
		<tag k="place" v="farm" />
		<tag k="ssr:stedsnr" v="682051" />
	</node>
	<node lat="64.69003610959528" lon="11.439672232291116" id="-35508">
		<tag k="name" v="Rønningen" />
		<tag k="place" v="farm" />
		<tag k="ssr:stedsnr" v="682297" />
	</node>
	<node lat="64.61903964032273" lon="11.433577818515909" id="-35517">
		<tag k="fixme" v="consider place=hamlet" />
		<tag k="loc_name" v="Breksiltan" />
		<tag k="name" v="Breksillan" />
		<tag k="place" v="farm" />
		<tag k="ssr:stedsnr" v="682447" />
	</node>
	<node lat="64.65206666986295" lon="11.259800005623305" id="-35518">
		<tag k="alt_name" v="Stein" />
		<tag k="fixme" v="consider place=hamlet" />
		<tag k="name" v="Steine" />
		<tag k="place" v="farm" />
		<tag k="ssr:stedsnr" v="682450" />
	</node>
	<node lat="64.43835555860504" lon="11.628172225287345" id="-35520">
		<tag k="historic" v="shieling" />
		<tag k="name" v="Strandsetran" />
		<tag k="place" v="isolated_dwelling" />
		<tag k="ssr:stedsnr" v="508327" />
	</node>
	<node lat="64.53667891059148" lon="11.06956853302633" id="-35521">
		<tag k="fixme" v="consider place=hamlet" />
		<tag k="name" v="Aunet" />
		<tag k="place" v="farm" />
		<tag k="ssr:stedsnr" v="682735" />
	</node>
	<node lat="64.76137777505198" lon="11.937036115189628" id="-35531">
		<tag k="name" v="Kovasetran" />
		<tag k="place" v="locality" />
		<tag k="ssr:stedsnr" v="682893" />
	</node>
	<node lat="64.44271111082381" lon="11.490427779067986" id="-35537">
		<tag k="name" v="Storvika" />
		<tag k="place" v="farm" />
		<tag k="ssr:stedsnr" v="514704" />
	</node>
	<node lat="64.53383610846561" lon="11.306152773495665" id="-35538">
		<tag k="name" v="Vindsetmoen" />
		<tag k="place" v="farm" />
		<tag k="ssr:stedsnr" v="515776" />
	</node>
	<node lat="64.25705832981353" lon="11.301430553876765" id="-35542">
		<tag k="name" v="Bakken" />
		<tag k="place" v="farm" />
		<tag k="ssr:stedsnr" v="522226" />
	</node>
	<node lat="64.17932222212534" lon="11.22045556185915" id="-35552">
		<tag k="name" v="Elda" />
		<tag k="place" v="hamlet" />
		<tag k="ssr:stedsnr" v="524315" />
	</node>
	<node lat="64.6369972236713" lon="11.229080557284243" id="-35555">
		<tag k="name" v="Gjerdet" />
		<tag k="place" v="locality" />
		<tag k="ssr:stedsnr" v="532005" />
	</node>
	<node lat="64.64061091753729" lon="11.174739600609549" id="-35560">
		<tag k="name" v="Nordsjøen" />
		<tag k="place" v="locality" />
		<tag k="ssr:stedsnr" v="532382" />
	</node>
	<node lat="64.18929999795209" lon="11.148325005833053" id="-35578">
		<tag k="historic" v="shieling" />
		<tag k="name" v="Raffeltømtet" />
		<tag k="place" v="isolated_dwelling" />
		<tag k="ssr:stedsnr" v="533531" />
	</node>
	<node lat="64.2001305543591" lon="11.347216664161277" id="-35581">
		<tag k="historic" v="shieling" />
		<tag k="name" v="Nysetertømtet" />
		<tag k="place" v="isolated_dwelling" />
		<tag k="ssr:stedsnr" v="533769" />
	</node>
	<node lat="64.26724166620684" lon="11.17608333266238" id="-35592">
		<tag k="name" v="Jakoprommet" />
		<tag k="place" v="locality" />
		<tag k="ssr:stedsnr" v="534878" />
	</node>
	<node lat="64.44315555143652" lon="11.149486103182495" id="-35619">
		<tag k="name" v="Kristenmoen" />
		<tag k="place" v="farm" />
		<tag k="ssr:stedsnr" v="559447" />
	</node>
	<node lat="64.16041346348295" lon="11.279509692570308" id="-35626">
		<tag k="fixme" v="consider place=hamlet" />
		<tag k="name" v="Nordaunet" />
		<tag k="place" v="farm" />
		<tag k="ssr:stedsnr" v="559843" />
	</node>
	<node lat="64.51650277856065" lon="11.247144435385772" id="-35633">
		<tag k="name" v="Gangarvika" />
		<tag k="place" v="farm" />
		<tag k="ssr:stedsnr" v="560142" />
	</node>
	<node lat="64.51701944265729" lon="11.260713878430078" id="-35634">
		<tag k="name" v="Otterøystranda" />
		<tag k="place" v="farm" />
		<tag k="ssr:stedsnr" v="560144" />
	</node>
	<node lat="64.64635833137818" lon="11.349472216196082" id="-35646">
		<tag k="alt_name" v="Stranda" />
		<tag k="name" v="Jostranda" />
		<tag k="place" v="farm" />
		<tag k="ssr:stedsnr" v="560406" />
	</node>
	<node lat="64.64888055766814" lon="11.403116660182384" id="-35647">
		<tag k="name" v="Breivika" />
		<tag k="place" v="farm" />
		<tag k="ssr:stedsnr" v="560410" />
	</node>
	<node lat="64.63579722390591" lon="11.228638894105423" id="-35648">
		<tag k="name" v="Elvabakken" />
		<tag k="place" v="farm" />
		<tag k="ssr:stedsnr" v="560440" />
	</node>
	<node lat="64.68443055959477" lon="11.43933332477421" id="-35650">
		<tag k="alt_name" v="Sagnesset" />
		<tag k="name" v="Sagneset" />
		<tag k="place" v="farm" />
		<tag k="ssr:stedsnr" v="560333" />
	</node>
	<node lat="64.59212499931702" lon="11.776275007096721" id="-35667">
		<tag k="name" v="Avløyftin" />
		<tag k="place" v="farm" />
		<tag k="ssr:stedsnr" v="560779" />
	</node>
	<node lat="64.47145000102722" lon="11.445858324914512" id="-35678">
		<tag k="loc_name" v="Gullholmstrand" />
		<tag k="name" v="Stranda" />
		<tag k="place" v="quarter" />
		<tag k="ssr:stedsnr" v="693069" />
	</node>
	<node lat="64.77083610741626" lon="11.747055557274384" id="-35695">
		<tag k="name" v="Bugen" />
		<tag k="place" v="farm" />
		<tag k="ssr:stedsnr" v="695471" />
	</node>
	<node lat="64.6759721343422" lon="11.331105321466053" id="-35703">
		<tag k="fixme" v="consider place=hamlet" />
		<tag k="name" v="Moldvika" />
		<tag k="place" v="farm" />
		<tag k="ssr:stedsnr" v="695953" />
	</node>
	<node lat="64.36953611387729" lon="11.42650832606627" id="-35708">
		<tag k="name" v="Haugset" />
		<tag k="place" v="farm" />
		<tag k="ssr:stedsnr" v="584545" />
	</node>
	<node lat="64.47826388497624" lon="11.474249993884234" id="-35727">
		<tag k="name" v="Gullvika" />
		<tag k="place" v="farm" />
		<tag k="ssr:stedsnr" v="697501" />
	</node>
	<node lat="64.44760277961234" lon="11.526705552337251" id="-35741">
		<tag k="name" v="Spillum" />
		<tag k="place" v="farm" />
		<tag k="ssr:stedsnr" v="697541" />
	</node>
	<node lat="64.53527500274049" lon="11.300119441000634" id="-35760">
		<tag k="name" v="Breistranda" />
		<tag k="place" v="farm" />
		<tag k="ssr:stedsnr" v="697746" />
	</node>
	<node lat="64.39549722287293" lon="11.170716670628572" id="-35762">
		<tag k="historic" v="shieling" />
		<tag k="name" v="Severinseteren" />
		<tag k="place" v="isolated_dwelling" />
		<tag k="ssr:stedsnr" v="594756" />
	</node>
	<node lat="64.47051388835837" lon="11.514002767898505" id="-35777">
		<tag k="amenity" v="school" />
		<tag k="name" v="Namsos barneskole" />
		<tag k="ssr:stedsnr" v="604221" />
	</node>
	<node lat="64.44541110721225" lon="11.521261112122689" id="-35781">
		<tag k="fixme" v="consider place=hamlet" />
		<tag k="name" v="Spillum" />
		<tag k="place" v="village" />
		<tag k="ssr:stedsnr" v="620013" />
	</node>
	<node lat="64.25577255516752" lon="11.185880024203657" id="-35797">
		<tag k="name" v="Brumoen" />
		<tag k="place" v="farm" />
		<tag k="ssr:stedsnr" v="620224" />
	</node>
	<node lat="64.27580922937065" lon="11.440226161533236" id="-35806">
		<tag k="name" v="Skatlandstranda" />
		<tag k="place" v="farm" />
		<tag k="ssr:stedsnr" v="620790" />
	</node>
	<node lat="64.31977071199724" lon="11.240224539555463" id="-35809">
		<tag k="fixme" v="consider place=hamlet" />
		<tag k="name" v="Rødhammaren" />
		<tag k="place" v="farm" />
		<tag k="ssr:stedsnr" v="620902" />
	</node>
	<node lat="64.52763333726695" lon="11.52600000736522" id="-35821">
		<tag k="name" v="Strandholmen" />
		<tag k="place" v="farm" />
		<tag k="ssr:stedsnr" v="621186" />
	</node>
	<node lat="64.58825000198549" lon="11.623061106894992" id="-35830">
		<tag k="name" v="Leirvika" />
		<tag k="place" v="farm" />
		<tag k="ssr:stedsnr" v="621510" />
	</node>
	<node lat="64.59416333431201" lon="11.602680874883148" id="-35831">
		<tag k="name" v="Jektvika" />
		<tag k="place" v="farm" />
		<tag k="ssr:stedsnr" v="621513" />
	</node>
	<node lat="64.42773333603506" lon="11.506902772341354" id="-35846">
		<tag k="name" v="Barstadmoen" />
		<tag k="place" v="locality" />
		<tag k="ssr:stedsnr" v="635724" />
	</node>
	<node lat="64.34481667023402" lon="11.534066670534688" id="-35877">
		<tag k="name" v="Bergenget" />
		<tag k="place" v="farm" />
		<tag k="ssr:stedsnr" v="644594" />
	</node>
	<node lat="64.2281777774358" lon="11.211441672340431" id="-35882">
		<tag k="name" v="Stavmo" />
		<tag k="place" v="farm" />
		<tag k="ssr:stedsnr" v="645209" />
	</node>
</osm>
