<?xml version="1.0" encoding="UTF-8"?>
<osm version="0.6" generator="osmapis">
	<node lat="64.19718333128075" lon="11.352255562181224" id="-33079">
		<tag k="name" v="Åengan" />
		<tag k="natural" v="cape" />
		<tag k="ssr:stedsnr" v="229726" />
	</node>
	<node lat="64.66390555226334" lon="11.322724993138097" id="-33085">
		<tag k="name" v="Øver Moldvikvatnet" />
		<tag k="natural" v="water" />
		<tag k="ssr:stedsnr" v="229902" />
	</node>
	<node lat="64.46555000419667" lon="11.095672223825272" id="-33103">
		<tag k="name" v="Statlandlangodden" />
		<tag k="natural" v="cape" />
		<tag k="ssr:stedsnr" v="230368" />
	</node>
	<node lat="64.50289444479246" lon="11.044736110742269" id="-33107">
		<tag k="name" v="Stakktjønnin" />
		<tag k="natural" v="water" />
		<tag k="ssr:stedsnr" v="230451" />
	</node>
	<node lat="64.22551944087344" lon="11.403027767921472" id="-33112">
		<tag k="name" v="Kvennabekken" />
		<tag k="ssr:stedsnr" v="230666" />
		<tag k="waterway" v="stream" />
	</node>
	<node lat="64.7621944400951" lon="12.029405551817627" id="-33132">
		<tag k="name" v="Ånelonet" />
		<tag k="natural" v="water" />
		<tag k="ssr:stedsnr" v="232060" />
		<tag k="water" v="lake" />
	</node>
	<node lat="64.15891389171526" lon="11.14672221332689" id="-33139">
		<tag k="name" v="Steintjønna" />
		<tag k="natural" v="water" />
		<tag k="ssr:stedsnr" v="13614" />
	</node>
	<node lat="64.3064999962733" lon="11.572138886557854" id="-33147">
		<tag k="name" v="Auntjønnin" />
		<tag k="natural" v="water" />
		<tag k="ssr:stedsnr" v="13929" />
	</node>
	<node lat="64.3168555573149" lon="11.421911105683126" id="-33149">
		<tag k="name" v="Ragnhildtjønna" />
		<tag k="natural" v="water" />
		<tag k="ssr:stedsnr" v="13932" />
	</node>
	<node lat="64.69785555608989" lon="11.682227767353814" id="-33150">
		<tag k="name" v="Litl-Gagneta" />
		<tag k="natural" v="bay" />
		<tag k="ssr:stedsnr" v="232344" />
	</node>
	<node lat="64.42763889161233" lon="11.508825009921619" id="-33151">
		<tag k="name" v="Sevielva" />
		<tag k="ssr:stedsnr" v="14092" />
		<tag k="waterway" v="river" />
	</node>
	<node lat="64.49031944722061" lon="11.385222213589255" id="-33153">
		<tag k="fixme" v="multiple name tags, choose one and add the other to alt_name" />
		<tag k="name" v="Seterelva;Skramstadelva" />
		<tag k="ssr:stedsnr" v="14204" />
		<tag k="waterway" v="stream" />
	</node>
	<node lat="64.33309722605206" lon="11.14982777029324" id="-33156">
		<tag k="name" v="Ner-Kallhammarvatnet" />
		<tag k="natural" v="water" />
		<tag k="ssr:stedsnr" v="14259" />
		<tag k="water" v="lake" />
	</node>
	<node lat="64.48541666502484" lon="11.040405551571935" id="-33162">
		<tag k="name" v="Kroktjønna" />
		<tag k="natural" v="water" />
		<tag k="ssr:stedsnr" v="14315" />
	</node>
	<node lat="64.14261388670477" lon="10.98951110643432" id="-33169">
		<tag k="name" v="Gambekken" />
		<tag k="ssr:stedsnr" v="14562" />
		<tag k="waterway" v="stream" />
	</node>
	<node lat="64.58382500205072" lon="11.793808323329477" id="-33171">
		<tag k="name" v="Ekorndalselva" />
		<tag k="ssr:stedsnr" v="14758" />
		<tag k="waterway" v="stream" />
	</node>
	<node lat="64.1969333349348" lon="11.119075004003069" id="-33176">
		<tag k="name" v="Hestbekken" />
		<tag k="ssr:stedsnr" v="14623" />
		<tag k="waterway" v="stream" />
	</node>
	<node lat="64.18865833083295" lon="10.810894446181292" id="-33178">
		<tag k="name" v="Kutjønna" />
		<tag k="natural" v="water" />
		<tag k="ssr:stedsnr" v="14629" />
	</node>
	<node lat="64.24341666411706" lon="11.675797228138077" id="-33185">
		<tag k="name" v="Urdbekken" />
		<tag k="ssr:stedsnr" v="14863" />
		<tag k="waterway" v="stream" />
	</node>
	<node lat="64.80651666683801" lon="12.135350005983309" id="-33192">
		<tag k="name" v="Mevassvika" />
		<tag k="natural" v="bay" />
		<tag k="ssr:stedsnr" v="14907" />
	</node>
	<node lat="64.35060833776866" lon="11.29095276966709" id="-33194">
		<tag k="name" v="Innerengelva" />
		<tag k="ssr:stedsnr" v="14971" />
		<tag k="waterway" v="stream" />
	</node>
	<node lat="64.726508330385" lon="11.875000000478781" id="-33196">
		<tag k="name" v="Oksvika" />
		<tag k="natural" v="bay" />
		<tag k="ssr:stedsnr" v="15212" />
	</node>
	<node lat="64.70155555329599" lon="11.706280556403438" id="-33198">
		<tag k="name" v="Beretvika" />
		<tag k="natural" v="bay" />
		<tag k="ssr:stedsnr" v="15279" />
	</node>
	<node lat="64.73802777830949" lon="11.571794439531594" id="-33202">
		<tag k="name" v="Aunbukta" />
		<tag k="natural" v="bay" />
		<tag k="ssr:stedsnr" v="232459" />
	</node>
	<node lat="64.76580000383235" lon="11.603727778540023" id="-33203">
		<tag k="name" v="Stortjønna" />
		<tag k="natural" v="water" />
		<tag k="ssr:stedsnr" v="232937" />
	</node>
	<node lat="64.298933333667" lon="11.187863884236402" id="-33216">
		<tag k="name" v="Nordbekken" />
		<tag k="ssr:stedsnr" v="38221" />
		<tag k="waterway" v="stream" />
	</node>
	<node lat="64.6994611134439" lon="11.434366666064266" id="-33227">
		<tag k="name" v="Svarttjønna" />
		<tag k="natural" v="water" />
		<tag k="ssr:stedsnr" v="44326" />
	</node>
	<node lat="64.66232222111854" lon="11.45510277711356" id="-33230">
		<tag k="name" v="Mevassodden" />
		<tag k="natural" v="cape" />
		<tag k="ssr:stedsnr" v="45301" />
	</node>
	<node lat="64.66980555659225" lon="11.419475003995215" id="-33235">
		<tag k="name" v="Olatjønna" />
		<tag k="natural" v="water" />
		<tag k="ssr:stedsnr" v="47303" />
	</node>
	<node lat="64.38025555350714" lon="11.584924996739248" id="-33238">
		<tag k="name" v="Vestre Fiskløysa" />
		<tag k="natural" v="water" />
		<tag k="ssr:stedsnr" v="47376" />
	</node>
	<node lat="64.43154999855476" lon="11.534102787793257" id="-33239">
		<tag k="name" v="Eriktjønnbekken" />
		<tag k="ssr:stedsnr" v="47381" />
		<tag k="waterway" v="stream" />
	</node>
	<node lat="64.41503889195164" lon="11.520791665769282" id="-33244">
		<tag k="name" v="Steinbekken" />
		<tag k="ssr:stedsnr" v="47472" />
		<tag k="waterway" v="stream" />
	</node>
	<node lat="64.60541111424405" lon="11.307250005819094" id="-33253">
		<tag k="name" v="Holvikbekken" />
		<tag k="ssr:stedsnr" v="47876" />
		<tag k="waterway" v="stream" />
	</node>
	<node lat="64.3344472229231" lon="11.606722222862963" id="-33257">
		<tag k="name" v="Heimfjlltjønna" />
		<tag k="natural" v="water" />
		<tag k="ssr:stedsnr" v="48425" />
	</node>
	<node lat="64.67044999921708" lon="11.740041656523658" id="-33261">
		<tag k="name" v="Kvennfossen" />
		<tag k="natural" v="waterfall" />
		<tag k="ssr:stedsnr" v="48716" />
	</node>
	<node lat="64.63524999789672" lon="11.542422228600232" id="-33264">
		<tag k="name" v="Øverdalstjønna" />
		<tag k="natural" v="water" />
		<tag k="ssr:stedsnr" v="48727" />
	</node>
	<node lat="64.3269694448928" lon="11.461969452946795" id="-33265">
		<tag k="name" v="Djupvatna" />
		<tag k="natural" v="water" />
		<tag k="ssr:stedsnr" v="48601" />
	</node>
	<node lat="64.34990555433751" lon="11.488041675716076" id="-33271">
		<tag k="name" v="Litltjønnholet" />
		<tag k="natural" v="water" />
		<tag k="ssr:stedsnr" v="48814" />
	</node>
	<node lat="64.78151666863104" lon="12.110547224761795" id="-33277">
		<tag k="name" v="Kvenntjønnin" />
		<tag k="natural" v="water" />
		<tag k="ssr:stedsnr" v="50112" />
	</node>
	<node lat="64.72593889140467" lon="11.87752221879909" id="-33278">
		<tag k="name" v="Groftholet" />
		<tag k="natural" v="bay" />
		<tag k="ssr:stedsnr" v="50008" />
	</node>
	<node lat="64.47038494046502" lon="11.570415037416849" id="-33298">
		<tag k="name" v="Høyknesneset" />
		<tag k="natural" v="cape" />
		<tag k="ssr:stedsnr" v="74061" />
	</node>
	<node lat="64.48325277730314" lon="11.56257221241318" id="-33301">
		<tag k="name" v="Høykneselva" />
		<tag k="ssr:stedsnr" v="74202" />
		<tag k="waterway" v="stream" />
	</node>
	<node lat="64.38115833506754" lon="11.129127785762268" id="-33302">
		<tag k="name" v="Gravhaugbekken" />
		<tag k="ssr:stedsnr" v="74255" />
		<tag k="waterway" v="stream" />
	</node>
	<node lat="64.38411389225595" lon="11.09696944074511" id="-33303">
		<tag k="name" v="Gravhaugvatnet" />
		<tag k="natural" v="water" />
		<tag k="ssr:stedsnr" v="74256" />
	</node>
	<node lat="64.2046055574463" lon="11.03930832820413" id="-33308">
		<tag k="name" v="Heggdølin" />
		<tag k="natural" v="water" />
		<tag k="ssr:stedsnr" v="74664" />
	</node>
	<node lat="64.3032361087043" lon="11.61696388281702" id="-33311">
		<tag k="name" v="Pertjønna" />
		<tag k="natural" v="water" />
		<tag k="ssr:stedsnr" v="74903" />
	</node>
	<node lat="64.37295277806106" lon="11.56518889542345" id="-33315">
		<tag k="name" v="Øvre Kverntjønna" />
		<tag k="natural" v="water" />
		<tag k="ssr:stedsnr" v="74966" />
	</node>
	<node lat="64.43216944309627" lon="11.592208343235136" id="-33325">
		<tag k="name" v="Kringlåtvatnet" />
		<tag k="natural" v="water" />
		<tag k="ssr:stedsnr" v="75112" />
	</node>
	<node lat="64.61792500067168" lon="11.501505563481851" id="-33336">
		<tag k="alt_name" v="Sandåelva" />
		<tag k="name" v="Sandaelva" />
		<tag k="ssr:stedsnr" v="75421" />
		<tag k="waterway" v="stream" />
	</node>
	<node lat="64.59740277916141" lon="11.534991656859791" id="-33337">
		<tag k="name" v="Svartvatnet" />
		<tag k="natural" v="water" />
		<tag k="ssr:stedsnr" v="75458" />
	</node>
	<node lat="64.62035000222753" lon="11.581175000546338" id="-33340">
		<tag k="name" v="Tverrelva" />
		<tag k="ssr:stedsnr" v="75499" />
		<tag k="waterway" v="stream" />
	</node>
	<node lat="64.4634638855093" lon="11.130224998114462" id="-33342">
		<tag k="name" v="Langodden" />
		<tag k="natural" v="cape" />
		<tag k="ssr:stedsnr" v="75512" />
	</node>
	<node lat="64.59890555286566" lon="11.072024996526787" id="-33345">
		<tag k="name" v="Nepdalsvatnet" />
		<tag k="natural" v="water" />
		<tag k="ssr:stedsnr" v="75566" />
	</node>
	<node lat="64.18264166481462" lon="10.947644450054742" id="-33348">
		<tag k="name" v="Finnholmen" />
		<tag k="place" v="islet" />
		<tag k="ssr:stedsnr" v="75717" />
	</node>
	<node lat="64.33794444405687" lon="11.387341668442025" id="-33351">
		<tag k="name" v="Fiskemfossen" />
		<tag k="natural" v="waterfall" />
		<tag k="ssr:stedsnr" v="75923" />
	</node>
	<node lat="64.23755277775787" lon="11.402611114728877" id="-33352">
		<tag k="name" v="Husåstjønna" />
		<tag k="natural" v="water" />
		<tag k="ssr:stedsnr" v="75948" />
	</node>
	<node lat="64.68360000313487" lon="11.932427768507134" id="-33354">
		<tag k="name" v="Lundvasselva" />
		<tag k="ssr:stedsnr" v="76220" />
		<tag k="waterway" v="river" />
	</node>
	<node lat="64.42376666262349" lon="11.331427769107101" id="-33358">
		<tag k="name" v="Melkbekken" />
		<tag k="ssr:stedsnr" v="87122" />
		<tag k="waterway" v="stream" />
	</node>
	<node lat="64.27612500311419" lon="11.18972778538233" id="-33370">
		<tag k="name" v="Purkholmen" />
		<tag k="place" v="islet" />
		<tag k="ssr:stedsnr" v="98182" />
	</node>
	<node lat="64.32837778162788" lon="11.284091675657212" id="-33380">
		<tag k="name" v="Innerelva" />
		<tag k="ssr:stedsnr" v="99412" />
		<tag k="waterway" v="stream" />
	</node>
	<node lat="64.34314444356204" lon="11.520886113179001" id="-33381">
		<tag k="name" v="Nonsbekken" />
		<tag k="ssr:stedsnr" v="99565" />
		<tag k="waterway" v="stream" />
	</node>
	<node lat="64.69214999608337" lon="11.485144453516986" id="-33383">
		<tag k="name" v="Vikaodden" />
		<tag k="natural" v="cape" />
		<tag k="ssr:stedsnr" v="106275" />
	</node>
	<node lat="64.68927499613139" lon="11.470205553174411" id="-33384">
		<tag k="name" v="Markalebukta" />
		<tag k="natural" v="bay" />
		<tag k="ssr:stedsnr" v="106283" />
	</node>
	<node lat="64.65204999728967" lon="11.236413898823645" id="-33388">
		<tag k="name" v="Sumphola" />
		<tag k="natural" v="water" />
		<tag k="ssr:stedsnr" v="107041" />
		<tag k="water" v="pond" />
	</node>
	<node lat="64.63880277366887" lon="11.22553610435272" id="-33390">
		<tag k="name" v="Fallet" />
		<tag k="ssr:stedsnr" v="108012" />
		<tag k="waterway" v="rapids" />
	</node>
	<node lat="64.44623611406647" lon="11.155036116725297" id="-33395">
		<tag k="name" v="Hundbekken" />
		<tag k="ssr:stedsnr" v="108171" />
		<tag k="waterway" v="stream" />
	</node>
	<node lat="64.43346944285078" lon="11.547216667224346" id="-33399">
		<tag k="name" v="Eriktjønna" />
		<tag k="natural" v="water" />
		<tag k="ssr:stedsnr" v="108384" />
	</node>
	<node lat="64.47881666360668" lon="11.157111117583314" id="-33401">
		<tag k="name" v="Lomtjønna" />
		<tag k="natural" v="water" />
		<tag k="ssr:stedsnr" v="108390" />
	</node>
	<node lat="64.37268611031202" lon="11.621766659011111" id="-33406">
		<tag k="name" v="Gravdalsbukta" />
		<tag k="natural" v="bay" />
		<tag k="ssr:stedsnr" v="108486" />
	</node>
	<node lat="64.28726111261179" lon="11.340886104761545" id="-33412">
		<tag k="name" v="Korsvassbekken" />
		<tag k="ssr:stedsnr" v="109303" />
		<tag k="waterway" v="stream" />
	</node>
	<node lat="64.23848333355282" lon="11.445811117931386" id="-33414">
		<tag k="name" v="Storholmen" />
		<tag k="place" v="islet" />
		<tag k="ssr:stedsnr" v="109619" />
	</node>
	<node lat="64.70980277522465" lon="11.474463885594476" id="-33428">
		<tag k="name" v="Småvassvikern" />
		<tag k="natural" v="bay" />
		<tag k="ssr:stedsnr" v="111384" />
	</node>
	<node lat="64.45805832911148" lon="11.57219443699101" id="-33434">
		<tag k="name" v="Svarttjønna" />
		<tag k="natural" v="water" />
		<tag k="ssr:stedsnr" v="134009" />
	</node>
	<node lat="64.55938333362589" lon="11.390341672378835" id="-33441">
		<tag k="name" v="Kaldklauvvatnet" />
		<tag k="natural" v="water" />
		<tag k="ssr:stedsnr" v="135111" />
	</node>
	<node lat="64.34514166787716" lon="11.043216676918696" id="-33443">
		<tag k="name" v="Slættlielva" />
		<tag k="ssr:stedsnr" v="135307" />
		<tag k="waterway" v="stream" />
	</node>
	<node lat="64.68640833602585" lon="11.691491665535944" id="-33447">
		<tag k="alt_name" v="Gagnetvika" />
		<tag k="name" v="Inner-Gagneta" />
		<tag k="natural" v="bay" />
		<tag k="ssr:stedsnr" v="135337" />
	</node>
	<node lat="64.49227222223767" lon="11.093030552538783" id="-33456">
		<tag k="name" v="Sparlivatnet" />
		<tag k="natural" v="water" />
		<tag k="ssr:stedsnr" v="135402" />
	</node>
	<node lat="64.17616388643386" lon="10.92646389281709" id="-33457">
		<tag k="name" v="Sørsellitjønna" />
		<tag k="natural" v="water" />
		<tag k="ssr:stedsnr" v="135555" />
	</node>
	<node lat="64.61214722331616" lon="11.655447225248256" id="-33459">
		<tag k="name" v="Ausvasstjønna" />
		<tag k="natural" v="water" />
		<tag k="ssr:stedsnr" v="135455" />
	</node>
	<node lat="64.2379138869367" lon="11.018411112722674" id="-33460">
		<tag k="name" v="Storblåvatnet" />
		<tag k="natural" v="water" />
		<tag k="ssr:stedsnr" v="135617" />
	</node>
	<node lat="64.2427500029936" lon="11.083238896793528" id="-33461">
		<tag k="name" v="Øyungholmen" />
		<tag k="place" v="islet" />
		<tag k="ssr:stedsnr" v="135622" />
	</node>
	<node lat="64.30592221867595" lon="11.61693054955293" id="-33466">
		<tag k="name" v="Bukstjønnin" />
		<tag k="natural" v="water" />
		<tag k="ssr:stedsnr" v="135902" />
	</node>
	<node lat="64.7196750021009" lon="11.914849998905508" id="-33477">
		<tag k="name" v="Salmarkelva" />
		<tag k="ssr:stedsnr" v="136248" />
		<tag k="waterway" v="stream" />
	</node>
	<node lat="64.74000000115663" lon="11.933175009458726" id="-33478">
		<tag k="name" v="Tinnaurtjønna" />
		<tag k="natural" v="water" />
		<tag k="ssr:stedsnr" v="136260" />
	</node>
	<node lat="64.63674166534224" lon="11.711213888861641" id="-33479">
		<tag k="name" v="Vakkervatnet" />
		<tag k="natural" v="water" />
		<tag k="ssr:stedsnr" v="136462" />
	</node>
	<node lat="64.5206611109774" lon="11.406816663948133" id="-33481">
		<tag k="name" v="Survikholvatnet" />
		<tag k="natural" v="water" />
		<tag k="ssr:stedsnr" v="136198" />
	</node>
	<node lat="64.70999999591538" lon="11.583333337127234" id="-33483">
		<tag k="name" v="Salvatnet" />
		<tag k="natural" v="water" />
		<tag k="ssr:stedsnr" v="136306" />
		<tag k="water" v="lake" />
	</node>
	<node lat="64.56237500088551" lon="11.767124996550628" id="-33489">
		<tag k="name" v="Bjørnheielva" />
		<tag k="ssr:stedsnr" v="136816" />
		<tag k="waterway" v="stream" />
	</node>
	<node lat="64.67702500435291" lon="11.83540277557817" id="-33490">
		<tag k="name" v="Sakselva" />
		<tag k="ssr:stedsnr" v="136821" />
		<tag k="waterway" v="river" />
	</node>
	<node lat="64.24205833118833" lon="10.918538886457606" id="-33493">
		<tag k="alt_name" v="Nestjønna" />
		<tag k="name" v="Kolkkartjønna" />
		<tag k="natural" v="water" />
		<tag k="ssr:stedsnr" v="142338" />
	</node>
	<node lat="64.45348888875156" lon="11.57120555771194" id="-33495">
		<tag k="name" v="Nøkkgulltjønna" />
		<tag k="natural" v="water" />
		<tag k="ssr:stedsnr" v="256015" />
	</node>
	<node lat="64.47101944149604" lon="11.234111104736359" id="-33505">
		<tag k="name" v="Hoddøyvatnet" />
		<tag k="natural" v="water" />
		<tag k="ssr:stedsnr" v="256051" />
	</node>
	<node lat="64.42290833198966" lon="11.316366659406404" id="-33508">
		<tag k="name" v="Melkbekken" />
		<tag k="ssr:stedsnr" v="256100" />
		<tag k="waterway" v="stream" />
	</node>
	<node lat="64.14339166625332" lon="11.124572221575045" id="-33520">
		<tag k="name" v="Tverrelva" />
		<tag k="ssr:stedsnr" v="256586" />
		<tag k="waterway" v="stream" />
	</node>
	<node lat="64.19929166474031" lon="10.865349998443524" id="-33521">
		<tag k="name" v="Tverrelva" />
		<tag k="ssr:stedsnr" v="256660" />
		<tag k="waterway" v="stream" />
	</node>
	<node lat="64.27223888994946" lon="11.642680557076792" id="-33522">
		<tag k="name" v="Keipvika" />
		<tag k="natural" v="bay" />
		<tag k="ssr:stedsnr" v="256775" />
	</node>
	<node lat="64.28998333768693" lon="11.338380564489213" id="-33523">
		<tag k="name" v="Korsvatnet" />
		<tag k="natural" v="water" />
		<tag k="ssr:stedsnr" v="256791" />
	</node>
	<node lat="64.30335833218254" lon="11.635525006301998" id="-33530">
		<tag k="name" v="Svartvatnet" />
		<tag k="natural" v="water" />
		<tag k="ssr:stedsnr" v="256885" />
	</node>
	<node lat="64.21464166364657" lon="11.427936102063667" id="-33531">
		<tag k="name" v="Storiglin" />
		<tag k="natural" v="water" />
		<tag k="ssr:stedsnr" v="256899" />
	</node>
	<node lat="64.36471944640536" lon="11.223505545565278" id="-33532">
		<tag k="name" v="Flobekken" />
		<tag k="ssr:stedsnr" v="256930" />
		<tag k="waterway" v="stream" />
	</node>
	<node lat="64.38160833697721" lon="11.272136108841886" id="-33533">
		<tag k="name" v="Breivikelva" />
		<tag k="ssr:stedsnr" v="256952" />
		<tag k="waterway" v="stream" />
	</node>
	<node lat="64.34894439776741" lon="11.407298516299594" id="-33534">
		<tag k="name" v="Flakktjønna" />
		<tag k="natural" v="water" />
		<tag k="ssr:stedsnr" v="256979" />
	</node>
	<node lat="64.35372499796608" lon="11.495619452212013" id="-33535">
		<tag k="name" v="Flakkbekken" />
		<tag k="ssr:stedsnr" v="256991" />
		<tag k="waterway" v="stream" />
	</node>
	<node lat="64.3556083312613" lon="11.480208338576185" id="-33536">
		<tag k="name" v="Langvatnet" />
		<tag k="natural" v="water" />
		<tag k="ssr:stedsnr" v="256994" />
	</node>
	<node lat="64.4078750024416" lon="11.219508337091852" id="-33537">
		<tag k="name" v="Hemnåa" />
		<tag k="ssr:stedsnr" v="257066" />
		<tag k="waterway" v="river" />
	</node>
	<node lat="64.3946277795767" lon="11.623466660267425" id="-33549">
		<tag k="name" v="Svarttjønnin" />
		<tag k="natural" v="water" />
		<tag k="ssr:stedsnr" v="257093" />
	</node>
	<node lat="64.30219999990373" lon="11.049450007803657" id="-33553">
		<tag k="name" v="Seterlangvatnet" />
		<tag k="natural" v="water" />
		<tag k="ssr:stedsnr" v="257181" />
	</node>
	<node lat="64.7475833355373" lon="11.736286106017218" id="-33558">
		<tag k="alt_name" v="Skjærivatnet" />
		<tag k="name" v="Skjerivatnet" />
		<tag k="natural" v="water" />
		<tag k="ssr:stedsnr" v="257248" />
	</node>
	<node lat="64.6914083346994" lon="11.575558335810937" id="-33565">
		<tag k="alt_name" v="Migandvatnet" />
		<tag k="name" v="Miganvatnet" />
		<tag k="natural" v="water" />
		<tag k="ssr:stedsnr" v="257399" />
	</node>
	<node lat="64.67728055754564" lon="11.54253610979605" id="-33567">
		<tag k="name" v="Råfjellvatna" />
		<tag k="natural" v="water" />
		<tag k="ssr:stedsnr" v="257423" />
		<tag k="water" v="lake" />
	</node>
	<node lat="64.68212777620018" lon="11.610330556394652" id="-33568">
		<tag k="name" v="Nedre Fossbekkvatnet" />
		<tag k="natural" v="water" />
		<tag k="ssr:stedsnr" v="257424" />
	</node>
	<node lat="64.62268055762992" lon="11.52832777967897" id="-33570">
		<tag k="alt_name" v="Svartdalelva" />
		<tag k="name" v="Svartdalselva" />
		<tag k="ssr:stedsnr" v="257447" />
		<tag k="waterway" v="river" />
	</node>
	<node lat="64.63922500268693" lon="11.467625003968433" id="-33573">
		<tag k="name" v="Storvatnet" />
		<tag k="natural" v="water" />
		<tag k="ssr:stedsnr" v="257484" />
		<tag k="water" v="lake" />
	</node>
	<node lat="64.17020555280219" lon="11.027744435096436" id="-33586">
		<tag k="name" v="Furudalsvatnet" />
		<tag k="natural" v="water" />
		<tag k="ssr:stedsnr" v="257638" />
		<tag k="water" v="lake" />
	</node>
	<node lat="64.16932222066858" lon="10.907472212855753" id="-33587">
		<tag k="name" v="Hundtjønna" />
		<tag k="natural" v="water" />
		<tag k="ssr:stedsnr" v="257641" />
	</node>
	<node lat="64.15640555417173" lon="11.019355556198388" id="-33588">
		<tag k="name" v="Holmvika" />
		<tag k="natural" v="bay" />
		<tag k="ssr:stedsnr" v="257642" />
	</node>
	<node lat="64.55548611120577" lon="11.212077771902306" id="-33592">
		<tag k="name" v="Svartholvatnet" />
		<tag k="natural" v="water" />
		<tag k="ssr:stedsnr" v="257701" />
	</node>
	<node lat="64.80759722204628" lon="12.066394439179621" id="-33599">
		<tag k="name" v="Hopaodden" />
		<tag k="natural" v="cape" />
		<tag k="ssr:stedsnr" v="257950" />
	</node>
	<node lat="64.80018611575784" lon="12.07083888097358" id="-33600">
		<tag k="name" v="Hustindvika" />
		<tag k="natural" v="bay" />
		<tag k="ssr:stedsnr" v="257952" />
	</node>
	<node lat="64.25229999932247" lon="11.375838893649835" id="-33603">
		<tag k="name" v="Skatlandvatnet" />
		<tag k="natural" v="water" />
		<tag k="ssr:stedsnr" v="257877" />
		<tag k="water" v="lake" />
	</node>
	<node lat="64.25333055502621" lon="11.506663879178818" id="-33608">
		<tag k="name" v="Daltjønna" />
		<tag k="natural" v="water" />
		<tag k="ssr:stedsnr" v="257891" />
		<tag k="water" v="lake" />
	</node>
	<node lat="64.64215277619085" lon="11.463366657819607" id="-33621">
		<tag k="name" v="Storvassholman" />
		<tag k="place" v="islet" />
		<tag k="ssr:stedsnr" v="168257" />
	</node>
	<node lat="64.65197221873426" lon="11.800836118492226" id="-33636">
		<tag k="name" v="Øver Storengvatnet" />
		<tag k="natural" v="water" />
		<tag k="ssr:stedsnr" v="169410" />
		<tag k="water" v="lake" />
	</node>
	<node lat="64.15909722407584" lon="11.126300001499319" id="-33642">
		<tag k="name" v="Steintjønnbekken" />
		<tag k="ssr:stedsnr" v="169505" />
		<tag k="waterway" v="stream" />
	</node>
	<node lat="64.16741389001382" lon="10.851719448120129" id="-33645">
		<tag k="name" v="Perneset" />
		<tag k="natural" v="cape" />
		<tag k="ssr:stedsnr" v="169520" />
	</node>
	<node lat="64.31666111031942" lon="11.14603334195709" id="-33649">
		<tag k="name" v="Innkolvingen" />
		<tag k="natural" v="water" />
		<tag k="ssr:stedsnr" v="169817" />
	</node>
	<node lat="64.57823888696582" lon="11.498713890619301" id="-33653">
		<tag k="name" v="Klomptjønna" />
		<tag k="natural" v="water" />
		<tag k="ssr:stedsnr" v="170655" />
	</node>
	<node lat="64.73688888888633" lon="11.913008340838898" id="-33656">
		<tag k="name" v="Kvennhusbekken" />
		<tag k="ssr:stedsnr" v="171011" />
		<tag k="waterway" v="stream" />
	</node>
	<node lat="64.69880277700985" lon="11.504344435597572" id="-33662">
		<tag k="name" v="Sekkvikskjæret" />
		<tag k="place" v="islet" />
		<tag k="ssr:stedsnr" v="171369" />
	</node>
	<node lat="64.72328332977536" lon="11.641602771996498" id="-33665">
		<tag k="name" v="Litl-Hommelvika" />
		<tag k="natural" v="bay" />
		<tag k="ssr:stedsnr" v="171506" />
	</node>
	<node lat="64.59136666870027" lon="11.103674990949994" id="-33675">
		<tag k="alt_name" v="Litl - Myanvikvatnet" />
		<tag k="name" v="Myanvikvatnet" />
		<tag k="natural" v="water" />
		<tag k="ssr:stedsnr" v="195599" />
	</node>
	<node lat="64.58083889224244" lon="11.439938888690772" id="-33677">
		<tag k="alt_name" v="Vakkervatna" />
		<tag k="name" v="Vakkervatnet" />
		<tag k="natural" v="water" />
		<tag k="ssr:stedsnr" v="196043" />
	</node>
	<node lat="64.42662778128283" lon="11.565630559580532" id="-33684">
		<tag k="name" v="Spillumsvatnet" />
		<tag k="natural" v="water" />
		<tag k="ssr:stedsnr" v="196116" />
		<tag k="water" v="lake" />
	</node>
	<node lat="64.39830277720621" lon="11.292586105850505" id="-33691">
		<tag k="name" v="Stangaråa" />
		<tag k="ssr:stedsnr" v="196077" />
		<tag k="waterway" v="stream" />
	</node>
	<node lat="64.6711388921411" lon="11.66710833216501" id="-33694">
		<tag k="name" v="Breivikholmen" />
		<tag k="place" v="islet" />
		<tag k="ssr:stedsnr" v="196287" />
	</node>
	<node lat="64.66858333590265" lon="11.509927778884812" id="-33695">
		<tag k="name" v="Damtjønna" />
		<tag k="natural" v="water" />
		<tag k="ssr:stedsnr" v="196291" />
	</node>
	<node lat="64.34891666914524" lon="11.11037500511283" id="-33696">
		<tag k="name" v="Korsbekken" />
		<tag k="ssr:stedsnr" v="196298" />
		<tag k="waterway" v="stream" />
	</node>
	<node lat="64.30983333750176" lon="11.141658331458503" id="-33699">
		<tag k="name" v="Øvermølnåvatnet" />
		<tag k="natural" v="water" />
		<tag k="ssr:stedsnr" v="196178" />
	</node>
	<node lat="64.30568611446486" lon="11.09257499678061" id="-33700">
		<tag k="name" v="Auritjønna" />
		<tag k="natural" v="water" />
		<tag k="ssr:stedsnr" v="196180" />
	</node>
	<node lat="64.18405277981144" lon="11.287730553469968" id="-33704">
		<tag k="name" v="Rossetvatnet" />
		<tag k="natural" v="water" />
		<tag k="ssr:stedsnr" v="196810" />
	</node>
	<node lat="64.66410000428323" lon="11.90657499796136" id="-33705">
		<tag k="alt_name" v="Soksvatna" />
		<tag k="name" v="Saksvatna" />
		<tag k="natural" v="water" />
		<tag k="ssr:stedsnr" v="196813" />
		<tag k="water" v="lake" />
	</node>
	<node lat="64.29081388472098" lon="11.394633338450834" id="-33709">
		<tag k="name" v="Tarmen" />
		<tag k="natural" v="water" />
		<tag k="ssr:stedsnr" v="196827" />
	</node>
	<node lat="64.57038333433479" lon="11.683708325664412" id="-33725">
		<tag k="name" v="Toskardtjønna" />
		<tag k="natural" v="water" />
		<tag k="ssr:stedsnr" v="197020" />
	</node>
	<node lat="64.52952500152496" lon="11.411100005663684" id="-33727">
		<tag k="name" v="Heimvatnet" />
		<tag k="natural" v="water" />
		<tag k="ssr:stedsnr" v="197202" />
		<tag k="water" v="lake" />
	</node>
	<node lat="64.52738333646106" lon="11.426908339585735" id="-33728">
		<tag k="name" v="Karlsengvatnet" />
		<tag k="natural" v="water" />
		<tag k="ssr:stedsnr" v="197205" />
	</node>
	<node lat="64.52883055581762" lon="11.61143056367991" id="-33729">
		<tag k="name" v="Vassdalselva" />
		<tag k="ssr:stedsnr" v="197208" />
		<tag k="waterway" v="stream" />
	</node>
	<node lat="64.69508611226095" lon="11.44191111144754" id="-33731">
		<tag k="name" v="Moselva" />
		<tag k="ssr:stedsnr" v="197311" />
		<tag k="waterway" v="river" />
	</node>
	<node lat="64.64506666776929" lon="11.426963882184623" id="-33733">
		<tag k="alt_name" v="Kvennvatnet" />
		<tag k="name" v="Kvernvatnet" />
		<tag k="natural" v="water" />
		<tag k="ssr:stedsnr" v="197459" />
	</node>
	<node lat="64.78182499714211" lon="11.993633331321444" id="-33734">
		<tag k="name" v="Svanatjønnin" />
		<tag k="natural" v="water" />
		<tag k="ssr:stedsnr" v="197905" />
	</node>
	<node lat="64.54712500394947" lon="11.74552499115377" id="-33736">
		<tag k="name" v="Liakamvatna" />
		<tag k="natural" v="water" />
		<tag k="ssr:stedsnr" v="197956" />
	</node>
	<node lat="64.25194444232524" lon="11.315163889926106" id="-33744">
		<tag k="name" v="Broka" />
		<tag k="natural" v="cape" />
		<tag k="ssr:stedsnr" v="219210" />
	</node>
	<node lat="64.3391083357591" lon="11.218477788164927" id="-33746">
		<tag k="name" v="Åsabekken" />
		<tag k="ssr:stedsnr" v="220204" />
		<tag k="waterway" v="stream" />
	</node>
	<node lat="64.1391055580128" lon="11.185369447115454" id="-33750">
		<tag k="name" v="Dølfossen" />
		<tag k="natural" v="waterfall" />
		<tag k="ssr:stedsnr" v="220402" />
	</node>
	<node lat="64.24304166935387" lon="11.358308330282663" id="-33757">
		<tag k="name" v="Trebostadbekken" />
		<tag k="ssr:stedsnr" v="221210" />
		<tag k="waterway" v="stream" />
	</node>
	<node lat="64.6159583341974" lon="11.458472216302924" id="-33782">
		<tag k="name" v="Demminga" />
		<tag k="natural" v="water" />
		<tag k="ssr:stedsnr" v="229698" />
	</node>
	<node lat="64.4296777817842" lon="11.029594443958631" id="-33790">
		<tag k="name" v="Mjøsundet" />
		<tag k="natural" v="strait" />
		<tag k="ssr:stedsnr" v="230206" />
	</node>
	<node lat="64.27012777803975" lon="11.280924996499643" id="-33791">
		<tag k="name" v="Ol - Kjelsabekken" />
		<tag k="ssr:stedsnr" v="230306" />
		<tag k="waterway" v="stream" />
	</node>
	<node lat="64.62644722240225" lon="11.695197228255584" id="-33797">
		<tag k="name" v="Auritjønnelva" />
		<tag k="ssr:stedsnr" v="230282" />
		<tag k="waterway" v="stream" />
	</node>
	<node lat="64.64960277706957" lon="11.769708323753315" id="-33807">
		<tag k="name" v="Ner Storengvatnet" />
		<tag k="natural" v="water" />
		<tag k="ssr:stedsnr" v="230703" />
	</node>
	<node lat="64.40001666941244" lon="11.19996388988323" id="-33809">
		<tag k="name" v="Aunskarelva" />
		<tag k="ssr:stedsnr" v="230737" />
		<tag k="waterway" v="stream" />
	</node>
	<node lat="64.50809444319334" lon="11.069194446662351" id="-33811">
		<tag k="name" v="Leirfjorbekken" />
		<tag k="ssr:stedsnr" v="231485" />
		<tag k="waterway" v="stream" />
	</node>
	<node lat="64.52396111116353" lon="11.058919452887485" id="-33812">
		<tag k="name" v="Aunaelva" />
		<tag k="ssr:stedsnr" v="231488" />
		<tag k="waterway" v="river" />
	</node>
	<node lat="64.73917500102701" lon="11.894002780574384" id="-33816">
		<tag k="name" v="Litlvika" />
		<tag k="natural" v="bay" />
		<tag k="ssr:stedsnr" v="232002" />
	</node>
	<node lat="64.74068055144546" lon="11.897616674818766" id="-33817">
		<tag k="name" v="Lomnessodden" />
		<tag k="natural" v="cape" />
		<tag k="ssr:stedsnr" v="232003" />
	</node>
	<node lat="64.31045278162415" lon="11.520841657469271" id="-33825">
		<tag k="name" v="Aunfossen" />
		<tag k="natural" v="waterfall" />
		<tag k="ssr:stedsnr" v="451151" />
	</node>
	<node lat="64.51863610799126" lon="11.551683340224203" id="-33830">
		<tag k="name" v="Småberga" />
		<tag k="ssr:stedsnr" v="454430" />
		<tag k="waterway" v="stream" />
	</node>
	<node lat="64.48574444851158" lon="11.039977781314281" id="-33842">
		<tag k="name" v="Kroktjønna" />
		<tag k="natural" v="water" />
		<tag k="ssr:stedsnr" v="256361" />
	</node>
	<node lat="64.14709444444667" lon="10.974944454435807" id="-33844">
		<tag k="name" v="Grastjønna" />
		<tag k="natural" v="water" />
		<tag k="ssr:stedsnr" v="256569" />
	</node>
	<node lat="64.13020555908685" lon="10.926958337234234" id="-33845">
		<tag k="name" v="Tverrelva" />
		<tag k="ssr:stedsnr" v="256573" />
		<tag k="waterway" v="stream" />
	</node>
	<node lat="64.19950833369082" lon="10.939066661025873" id="-33846">
		<tag k="name" v="Steinbekktjønnin" />
		<tag k="natural" v="water" />
		<tag k="ssr:stedsnr" v="256659" />
	</node>
	<node lat="64.28812500016649" lon="11.620675003111545" id="-33848">
		<tag k="name" v="Pålabekken" />
		<tag k="ssr:stedsnr" v="256806" />
		<tag k="waterway" v="stream" />
	</node>
	<node lat="64.56170555680744" lon="11.638549997359505" id="-33854">
		<tag k="alt_name" v="Brurabekktjønna" />
		<tag k="name" v="Syningomvatnet" />
		<tag k="natural" v="water" />
		<tag k="ssr:stedsnr" v="257007" />
	</node>
	<node lat="64.31434166779108" lon="11.444902778915642" id="-33859">
		<tag k="name" v="Nordvika" />
		<tag k="natural" v="bay" />
		<tag k="ssr:stedsnr" v="256913" />
	</node>
	<node lat="64.35602499842022" lon="11.63542777498591" id="-33863">
		<tag k="name" v="Spillumsbekken" />
		<tag k="ssr:stedsnr" v="256971" />
		<tag k="waterway" v="stream" />
	</node>
	<node lat="64.53374166873115" lon="11.222305555528216" id="-33869">
		<tag k="alt_name" v="Sjålivatnet" />
		<tag k="name" v="Skjålivatnet" />
		<tag k="natural" v="water" />
		<tag k="ssr:stedsnr" v="257060" />
	</node>
	<node lat="64.70025833644043" lon="11.764652780477723" id="-33871">
		<tag k="alt_name" v="Sokstjønna" />
		<tag k="name" v="Sakstjønna" />
		<tag k="natural" v="water" />
		<tag k="ssr:stedsnr" v="257207" />
		<tag k="water" v="lake" />
	</node>
	<node lat="64.5048027797856" lon="11.347463897779658" id="-33877">
		<tag k="name" v="Vikalangvatnet" />
		<tag k="natural" v="water" />
		<tag k="ssr:stedsnr" v="257259" />
	</node>
	<node lat="64.67773333572562" lon="11.449847218602628" id="-33880">
		<tag k="name" v="Setervadet" />
		<tag k="place" v="locality" />
		<tag k="ssr:stedsnr" v="257407" />
	</node>
	<node lat="64.70063487012618" lon="11.582853495515172" id="-33881">
		<tag k="alt_name" v="Moaneset;Måssanesset" />
		<tag k="name" v="Måssaneset" />
		<tag k="natural" v="cape" />
		<tag k="ssr:stedsnr" v="257307" />
	</node>
	<node lat="64.73448333388895" lon="11.593044434292148" id="-33882">
		<tag k="name" v="Tjønna" />
		<tag k="natural" v="water" />
		<tag k="ssr:stedsnr" v="257314" />
	</node>
	<node lat="64.74774999970744" lon="11.70285554926859" id="-33883">
		<tag k="name" v="Trongfjordvatnet" />
		<tag k="natural" v="water" />
		<tag k="ssr:stedsnr" v="257319" />
	</node>
	<node lat="64.61041111245956" lon="11.764233323303184" id="-33904">
		<tag k="name" v="Klubbtjønna" />
		<tag k="natural" v="water" />
		<tag k="ssr:stedsnr" v="257802" />
	</node>
	<node lat="64.49534166666554" lon="11.56889166633868" id="-33918">
		<tag k="name" v="Djupbekken" />
		<tag k="ssr:stedsnr" v="272504" />
		<tag k="waterway" v="stream" />
	</node>
	<node lat="64.3007972230013" lon="11.218099991513132" id="-33928">
		<tag k="name" v="Lonbekken" />
		<tag k="ssr:stedsnr" v="281215" />
		<tag k="waterway" v="stream" />
	</node>
	<node lat="64.2634416626546" lon="11.183552773392066" id="-33931">
		<tag k="name" v="Ørholmen" />
		<tag k="place" v="islet" />
		<tag k="ssr:stedsnr" v="281271" />
	</node>
	<node lat="64.23838610798961" lon="11.192183323009285" id="-33934">
		<tag k="name" v="Skarabekken" />
		<tag k="ssr:stedsnr" v="281304" />
		<tag k="waterway" v="stream" />
	</node>
	<node lat="64.64397222634733" lon="11.751477779037257" id="-33954">
		<tag k="name" v="Hopbekken" />
		<tag k="ssr:stedsnr" v="290289" />
		<tag k="waterway" v="stream" />
	</node>
	<node lat="64.44524721995218" lon="11.103288896233105" id="-33968">
		<tag k="name" v="Tverrhoggtjønna" />
		<tag k="natural" v="water" />
		<tag k="ssr:stedsnr" v="291203" />
	</node>
	<node lat="64.59919166863536" lon="11.72256945042972" id="-33974">
		<tag k="name" v="Gravvasselva" />
		<tag k="ssr:stedsnr" v="291294" />
		<tag k="waterway" v="river" />
	</node>
	<node lat="64.36693888453206" lon="11.155238883411574" id="-33983">
		<tag k="name" v="Rapfossen" />
		<tag k="natural" v="waterfall" />
		<tag k="ssr:stedsnr" v="291850" />
	</node>
	<node lat="64.2263611104707" lon="11.010849996562838" id="-33993">
		<tag k="name" v="Storlidalstjønna" />
		<tag k="natural" v="water" />
		<tag k="ssr:stedsnr" v="291983" />
	</node>
	<node lat="64.73323333471848" lon="11.887530565705323" id="-33996">
		<tag k="name" v="Storvika" />
		<tag k="natural" v="bay" />
		<tag k="ssr:stedsnr" v="293011" />
	</node>
	<node lat="64.74813332927083" lon="11.972625009075319" id="-33998">
		<tag k="name" v="Aunbukta" />
		<tag k="natural" v="bay" />
		<tag k="ssr:stedsnr" v="293132" />
	</node>
	<node lat="64.74555278001424" lon="11.72822776938425" id="-33999">
		<tag k="name" v="Godfisktjønnin" />
		<tag k="natural" v="water" />
		<tag k="ssr:stedsnr" v="293246" />
	</node>
	<node lat="64.68787221774912" lon="11.548266673252678" id="-34004">
		<tag k="name" v="Steintjønna" />
		<tag k="natural" v="water" />
		<tag k="ssr:stedsnr" v="293489" />
	</node>
	<node lat="64.31278610665433" lon="11.227472222664314" id="-34006">
		<tag k="name" v="Stranda" />
		<tag k="natural" v="beach" />
		<tag k="ssr:stedsnr" v="463169" />
	</node>
	<node lat="64.1607416685719" lon="11.210086119409322" id="-34015">
		<tag k="name" v="Styggdalsbekken" />
		<tag k="ssr:stedsnr" v="463345" />
		<tag k="waterway" v="stream" />
	</node>
	<node lat="64.34630555145255" lon="11.526372218495304" id="-34019">
		<tag k="name" v="Kastarhøla" />
		<tag k="place" v="locality" />
		<tag k="ssr:stedsnr" v="463534" />
	</node>
	<node lat="64.34061388615358" lon="11.563858337613574" id="-34020">
		<tag k="name" v="Lauvåsbekken" />
		<tag k="ssr:stedsnr" v="463542" />
		<tag k="waterway" v="stream" />
	</node>
	<node lat="64.38499999738544" lon="11.437911115542002" id="-34024">
		<tag k="name" v="Styggskjæret" />
		<tag k="place" v="islet" />
		<tag k="ssr:stedsnr" v="463689" />
	</node>
	<node lat="64.38141111116637" lon="11.458786109024127" id="-34027">
		<tag k="name" v="Øyafossen" />
		<tag k="natural" v="waterfall" />
		<tag k="ssr:stedsnr" v="463696" />
	</node>
	<node lat="64.27178829740369" lon="10.954473906412785" id="-34050">
		<tag k="name" v="Lissbjørfarvatnet" />
		<tag k="natural" v="water" />
		<tag k="ssr:stedsnr" v="317108" />
	</node>
	<node lat="64.27035277872577" lon="11.124666658577535" id="-34052">
		<tag k="name" v="Kalnestjønnin" />
		<tag k="natural" v="water" />
		<tag k="ssr:stedsnr" v="317114" />
	</node>
	<node lat="64.31140555777178" lon="11.188074998739353" id="-34055">
		<tag k="name" v="Sagelva" />
		<tag k="ssr:stedsnr" v="317157" />
		<tag k="waterway" v="stream" />
	</node>
	<node lat="64.18109721864282" lon="10.915980554646449" id="-34058">
		<tag k="name" v="Nordsellitjønna" />
		<tag k="natural" v="water" />
		<tag k="ssr:stedsnr" v="317522" />
	</node>
	<node lat="64.15254167058545" lon="11.066488897711206" id="-34061">
		<tag k="alt_name" v="Holmvasslivatna" />
		<tag k="name" v="Holvasslivatna" />
		<tag k="natural" v="water" />
		<tag k="ssr:stedsnr" v="317542" />
	</node>
	<node lat="64.15711111213561" lon="10.86401665746209" id="-34063">
		<tag k="name" v="Agnettjønna" />
		<tag k="natural" v="water" />
		<tag k="ssr:stedsnr" v="317551" />
	</node>
	<node lat="64.59308610721686" lon="11.524391670134534" id="-34065">
		<tag k="name" v="Kringelvatnet" />
		<tag k="natural" v="water" />
		<tag k="ssr:stedsnr" v="317402" />
	</node>
	<node lat="64.5888611097569" lon="11.567111109340047" id="-34067">
		<tag k="name" v="Haltnesvatnet" />
		<tag k="natural" v="water" />
		<tag k="ssr:stedsnr" v="317414" />
	</node>
	<node lat="64.80891110754175" lon="12.057525008251341" id="-34074">
		<tag k="name" v="Hopen" />
		<tag k="natural" v="strait" />
		<tag k="ssr:stedsnr" v="317903" />
	</node>
	<node lat="64.75198333158153" lon="11.813455547448433" id="-34078">
		<tag k="name" v="Leisåkvatna" />
		<tag k="natural" v="water" />
		<tag k="ssr:stedsnr" v="317806" />
	</node>
	<node lat="64.75666389268325" lon="11.733797222653331" id="-34080">
		<tag k="name" v="Jensbakktjønnin" />
		<tag k="natural" v="water" />
		<tag k="ssr:stedsnr" v="317808" />
	</node>
	<node lat="64.62730832984086" lon="11.733775003775582" id="-34086">
		<tag k="name" v="Finnvatnet" />
		<tag k="natural" v="water" />
		<tag k="ssr:stedsnr" v="317841" />
	</node>
	<node lat="64.3366749963417" lon="11.326213895439587" id="-34088">
		<tag k="name" v="Olsengelva" />
		<tag k="ssr:stedsnr" v="317848" />
		<tag k="waterway" v="stream" />
	</node>
	<node lat="64.35566388646558" lon="11.564069438780942" id="-34093">
		<tag k="alt_name" v="Fjellkleivbekken" />
		<tag k="name" v="Fjellkløyvabekken" />
		<tag k="ssr:stedsnr" v="317991" />
		<tag k="waterway" v="stream" />
	</node>
	<node lat="64.71728888904543" lon="12.023500005926362" id="-34096">
		<tag k="name" v="Klenningvatnet" />
		<tag k="natural" v="water" />
		<tag k="ssr:stedsnr" v="318193" />
		<tag k="water" v="lake" />
	</node>
	<node lat="64.72430833325613" lon="11.720224998959512" id="-34097">
		<tag k="alt_name" v="Mosavikholmen" />
		<tag k="name" v="Måssavikholmen" />
		<tag k="place" v="islet" />
		<tag k="ssr:stedsnr" v="318198" />
	</node>
	<node lat="64.53951666720059" lon="11.177036116974739" id="-34101">
		<tag k="name" v="Krokvatnet" />
		<tag k="natural" v="water" />
		<tag k="ssr:stedsnr" v="318643" />
	</node>
	<node lat="64.51522777349646" lon="11.05515832746105" id="-34105">
		<tag k="name" v="Vassbottsvatnet" />
		<tag k="natural" v="water" />
		<tag k="ssr:stedsnr" v="318721" />
	</node>
	<node lat="64.38291944092158" lon="11.604302774670561" id="-34152">
		<tag k="name" v="Østre Fiskløysa" />
		<tag k="natural" v="water" />
		<tag k="ssr:stedsnr" v="472353" />
	</node>
	<node lat="64.3675472221377" lon="11.622863883068772" id="-34157">
		<tag k="name" v="Måsholmen" />
		<tag k="place" v="islet" />
		<tag k="ssr:stedsnr" v="472450" />
	</node>
	<node lat="64.35957222236819" lon="11.61135832837894" id="-34158">
		<tag k="name" v="Spjøttvassholet" />
		<tag k="natural" v="bay" />
		<tag k="ssr:stedsnr" v="472453" />
	</node>
	<node lat="64.6114444464462" lon="11.149222219116584" id="-34160">
		<tag k="name" v="Svarttjønna" />
		<tag k="natural" v="water" />
		<tag k="ssr:stedsnr" v="472497" />
	</node>
	<node lat="64.35392777964428" lon="11.335738882617804" id="-34161">
		<tag k="name" v="Seterbekken" />
		<tag k="ssr:stedsnr" v="341608" />
		<tag k="waterway" v="stream" />
	</node>
	<node lat="64.21569166401018" lon="11.214041668062325" id="-34175">
		<tag k="name" v="Hølbekken" />
		<tag k="ssr:stedsnr" v="342311" />
		<tag k="waterway" v="stream" />
	</node>
	<node lat="64.56547222212689" lon="11.67493610558069" id="-34195">
		<tag k="name" v="Svartåsbekken" />
		<tag k="ssr:stedsnr" v="473331" />
		<tag k="waterway" v="stream" />
	</node>
	<node lat="64.27369444664438" lon="11.6389138888389" id="-34198">
		<tag k="name" v="Solemsholmen" />
		<tag k="place" v="islet" />
		<tag k="ssr:stedsnr" v="473471" />
	</node>
	<node lat="64.56517777705413" lon="11.392516656458783" id="-34204">
		<tag k="name" v="Korsneskrokan" />
		<tag k="ssr:stedsnr" v="473628" />
		<tag k="waterway" v="stream" />
	</node>
	<node lat="64.63659444113674" lon="11.228841658084704" id="-34219">
		<tag k="name" v="Elva" />
		<tag k="ssr:stedsnr" v="350005" />
		<tag k="waterway" v="river" />
	</node>
	<node lat="64.66991666634685" lon="11.216313880238788" id="-34229">
		<tag k="name" v="Brakstadbekken" />
		<tag k="ssr:stedsnr" v="350166" />
		<tag k="waterway" v="stream" />
	</node>
	<node lat="64.65969166814763" lon="11.218702772942175" id="-34230">
		<tag k="name" v="Smibekken" />
		<tag k="ssr:stedsnr" v="350122" />
		<tag k="waterway" v="stream" />
	</node>
	<node lat="64.25849721833032" lon="11.022675008436934" id="-34231">
		<tag k="name" v="Vakkernestjønna" />
		<tag k="natural" v="water" />
		<tag k="ssr:stedsnr" v="473926" />
	</node>
	<node lat="64.27817221806106" lon="11.17504445009508" id="-34232">
		<tag k="name" v="Bjønndaksbekken" />
		<tag k="ssr:stedsnr" v="473932" />
		<tag k="waterway" v="stream" />
	</node>
	<node lat="64.63159166647716" lon="11.270738892537025" id="-34248">
		<tag k="name" v="Hundbekken" />
		<tag k="ssr:stedsnr" v="350860" />
		<tag k="waterway" v="stream" />
	</node>
	<node lat="64.63940555175033" lon="11.325886116708014" id="-34251">
		<tag k="name" v="Gjessetbekken" />
		<tag k="ssr:stedsnr" v="350870" />
		<tag k="waterway" v="stream" />
	</node>
	<node lat="64.60643610993976" lon="11.701816668000827" id="-34256">
		<tag k="name" v="Lomtjønna" />
		<tag k="natural" v="water" />
		<tag k="ssr:stedsnr" v="351270" />
	</node>
	<node lat="64.34853889312151" lon="11.614147213281871" id="-34260">
		<tag k="name" v="Dyrfossen" />
		<tag k="natural" v="waterfall" />
		<tag k="ssr:stedsnr" v="351459" />
	</node>
	<node lat="64.37161666942553" lon="11.194644435205582" id="-34276">
		<tag k="name" v="Sørmyrodden" />
		<tag k="natural" v="cape" />
		<tag k="ssr:stedsnr" v="351865" />
	</node>
	<node lat="64.30181666737266" lon="10.9437666769692" id="-34277">
		<tag k="name" v="Hestbekken" />
		<tag k="ssr:stedsnr" v="351866" />
		<tag k="waterway" v="stream" />
	</node>
	<node lat="64.74511667076126" lon="11.932733328545492" id="-34281">
		<tag k="name" v="Forronessbukta" />
		<tag k="natural" v="bay" />
		<tag k="ssr:stedsnr" v="353022" />
	</node>
	<node lat="64.6792111148935" lon="11.851861108092468" id="-34285">
		<tag k="name" v="Storfossen" />
		<tag k="natural" v="waterfall" />
		<tag k="ssr:stedsnr" v="353063" />
	</node>
	<node lat="64.74248055343921" lon="11.937108326496979" id="-34289">
		<tag k="name" v="Forronessbekken" />
		<tag k="ssr:stedsnr" v="475039" />
		<tag k="waterway" v="stream" />
	</node>
	<node lat="64.73129166937976" lon="11.582519434843592" id="-34300">
		<tag k="name" v="Hesthagabekken" />
		<tag k="ssr:stedsnr" v="475508" />
		<tag k="waterway" v="stream" />
	</node>
	<node lat="64.7379416702353" lon="11.553402781457494" id="-34301">
		<tag k="name" v="Brembervika" />
		<tag k="natural" v="bay" />
		<tag k="ssr:stedsnr" v="475512" />
	</node>
	<node lat="64.49905555436541" lon="11.03822778702083" id="-34306">
		<tag k="name" v="Grønlivatnet" />
		<tag k="natural" v="water" />
		<tag k="ssr:stedsnr" v="375419" />
		<tag k="water" v="lake" />
	</node>
	<node lat="64.49642777409555" lon="11.317463892126908" id="-34313">
		<tag k="name" v="Broemselva" />
		<tag k="ssr:stedsnr" v="378220" />
		<tag k="waterway" v="stream" />
	</node>
	<node lat="64.74623333001198" lon="11.862252767761177" id="-34314">
		<tag k="name" v="Jettenliodden" />
		<tag k="natural" v="cape" />
		<tag k="ssr:stedsnr" v="378221" />
	</node>
	<node lat="64.7280527744965" lon="11.59308056558928" id="-34318">
		<tag k="name" v="Hesthaggatjønna" />
		<tag k="natural" v="water" />
		<tag k="ssr:stedsnr" v="378302" />
	</node>
	<node lat="64.32833333240409" lon="11.157072229024745" id="-34321">
		<tag k="name" v="Lorttjønna" />
		<tag k="natural" v="water" />
		<tag k="ssr:stedsnr" v="378324" />
	</node>
	<node lat="64.69275555977353" lon="11.493241664359829" id="-34325">
		<tag k="name" v="Småvikern" />
		<tag k="natural" v="bay" />
		<tag k="ssr:stedsnr" v="378273" />
	</node>
	<node lat="64.17913333694186" lon="11.03064165831272" id="-34336">
		<tag k="name" v="Kunta" />
		<tag k="natural" v="water" />
		<tag k="ssr:stedsnr" v="378608" />
	</node>
	<node lat="64.18954722139303" lon="11.033813884100006" id="-34337">
		<tag k="name" v="Furudalselva" />
		<tag k="ssr:stedsnr" v="378704" />
		<tag k="waterway" v="river" />
	</node>
	<node lat="64.55075000402499" lon="11.167749995340623" id="-34342">
		<tag k="name" v="Holmvatnet" />
		<tag k="natural" v="water" />
		<tag k="ssr:stedsnr" v="378666" />
	</node>
	<node lat="64.76630555863908" lon="12.03029166673093" id="-34345">
		<tag k="name" v="Skrøyvstadelva" />
		<tag k="ssr:stedsnr" v="378913" />
		<tag k="waterway" v="river" />
	</node>
	<node lat="64.52617778074777" lon="11.392441666952926" id="-34350">
		<tag k="alt_name" v="Lisstjønna" />
		<tag k="name" v="Lonevatnet" />
		<tag k="natural" v="water" />
		<tag k="ssr:stedsnr" v="379177" />
	</node>
	<node lat="64.69856944071572" lon="11.571580545240053" id="-34355">
		<tag k="alt_name" v="Migand" />
		<tag k="name" v="Migan" />
		<tag k="natural" v="bay" />
		<tag k="ssr:stedsnr" v="379277" />
	</node>
	<node lat="64.25013055631902" lon="11.278519449468225" id="-34366">
		<tag k="name" v="Hestvollstranda" />
		<tag k="natural" v="cape" />
		<tag k="ssr:stedsnr" v="401227" />
	</node>
	<node lat="64.17234166449116" lon="11.210147231600631" id="-34375">
		<tag k="name" v="Lissenget" />
		<tag k="natural" v="cape" />
		<tag k="ssr:stedsnr" v="402386" />
	</node>
	<node lat="64.69320833352113" lon="11.465641660681229" id="-34386">
		<tag k="name" v="Granodden" />
		<tag k="natural" v="cape" />
		<tag k="ssr:stedsnr" v="409292" />
	</node>
	<node lat="64.69586666331912" lon="11.47569167481265" id="-34387">
		<tag k="name" v="Øyrin" />
		<tag k="place" v="islet" />
		<tag k="ssr:stedsnr" v="409294" />
	</node>
	<node lat="64.37477778002194" lon="11.625875006128776" id="-34396">
		<tag k="name" v="Bergspjøtvatnet" />
		<tag k="natural" v="water" />
		<tag k="ssr:stedsnr" v="411355" />
	</node>
	<node lat="64.18578610745642" lon="11.334713882196647" id="-34401">
		<tag k="name" v="Vålåvassdammen" />
		<tag k="ssr:stedsnr" v="411706" />
		<tag k="waterway" v="dam" />
	</node>
	<node lat="64.24958055141775" lon="11.626091665162036" id="-34410">
		<tag k="name" v="Dekla" />
		<tag k="natural" v="water" />
		<tag k="ssr:stedsnr" v="412400" />
	</node>
	<node lat="64.49674166308094" lon="11.108355550768616" id="-34411">
		<tag k="name" v="Otertjønna" />
		<tag k="natural" v="water" />
		<tag k="ssr:stedsnr" v="412444" />
	</node>
	<node lat="64.59494444269961" lon="11.569691667547453" id="-34413">
		<tag k="name" v="Jektvikvatnet" />
		<tag k="natural" v="water" />
		<tag k="ssr:stedsnr" v="412645" />
	</node>
	<node lat="64.34266944857373" lon="11.471847218320182" id="-34418">
		<tag k="name" v="Kattatjønna" />
		<tag k="natural" v="water" />
		<tag k="ssr:stedsnr" v="412798" />
	</node>
	<node lat="64.74747777427037" lon="11.869516666193965" id="-34421">
		<tag k="name" v="Jetna" />
		<tag k="natural" v="bay" />
		<tag k="ssr:stedsnr" v="414006" />
	</node>
	<node lat="64.56238610743019" lon="11.159222232151636" id="-34436">
		<tag k="name" v="Litle Litlskorstadvatnet" />
		<tag k="natural" v="water" />
		<tag k="ssr:stedsnr" v="438601" />
	</node>
	<node lat="64.46709280679495" lon="11.058237937462687" id="-34437">
		<tag k="name" v="Storvatnet" />
		<tag k="natural" v="water" />
		<tag k="ssr:stedsnr" v="438854" />
		<tag k="water" v="lake" />
	</node>
	<node lat="64.35765000206413" lon="11.539241672069174" id="-34443">
		<tag k="name" v="Myråa" />
		<tag k="ssr:stedsnr" v="438998" />
		<tag k="waterway" v="stream" />
	</node>
	<node lat="64.25542163341129" lon="10.927983291108797" id="-34445">
		<tag k="name" v="Lissolvatnet" />
		<tag k="natural" v="water" />
		<tag k="ssr:stedsnr" v="439116" />
	</node>
	<node lat="64.31398889343728" lon="11.06811388112182" id="-34447">
		<tag k="name" v="Midtsandvatnet - Guhkies Njuanajaevrie" />
		<tag k="name:no" v="Midtsandvatnet" />
		<tag k="name:sma" v="Guhkies Njuanajaevrie" />
		<tag k="natural" v="water" />
		<tag k="ssr:stedsnr" v="439145" />
	</node>
	<node lat="64.52832499571126" lon="11.384411117254166" id="-34448">
		<tag k="name" v="Svarttjønna" />
		<tag k="natural" v="water" />
		<tag k="ssr:stedsnr" v="439157" />
	</node>
	<node lat="64.51233055351929" lon="11.389683332203594" id="-34451">
		<tag k="name" v="Dyravatnet" />
		<tag k="natural" v="water" />
		<tag k="ssr:stedsnr" v="439096" />
	</node>
	<node lat="64.7058388903453" lon="11.6566500031293" id="-34455">
		<tag k="alt_name" v="Kjerringnessvika" />
		<tag k="name" v="Kjerringnesvika" />
		<tag k="natural" v="bay" />
		<tag k="ssr:stedsnr" v="439243" />
	</node>
	<node lat="64.31892499805359" lon="11.204416675385344" id="-34459">
		<tag k="fixme" v="multiple name tags, choose one and add the other to alt_name" />
		<tag k="name" v="Åsnesbekken;Haugabekken" />
		<tag k="ssr:stedsnr" v="439305" />
		<tag k="waterway" v="stream" />
	</node>
	<node lat="64.66704444062876" lon="11.592130550823297" id="-34460">
		<tag k="loc_name" v="Demningsvatna" />
		<tag k="name" v="Demmingsvatna" />
		<tag k="natural" v="water" />
		<tag k="ssr:stedsnr" v="439308" />
		<tag k="water" v="lake" />
	</node>
	<node lat="64.5867083377416" lon="11.897549997566893" id="-34472">
		<tag k="name" v="Ekornvatnet" />
		<tag k="natural" v="water" />
		<tag k="ssr:stedsnr" v="439801" />
		<tag k="water" v="lake" />
	</node>
	<node lat="64.58242499735053" lon="11.724950007193959" id="-34477">
		<tag k="name" v="Hestvika" />
		<tag k="natural" v="bay" />
		<tag k="ssr:stedsnr" v="439804" />
	</node>
	<node lat="64.6503249973894" lon="11.724150002753504" id="-34480">
		<tag k="name" v="Uggsetvatnet" />
		<tag k="natural" v="water" />
		<tag k="ssr:stedsnr" v="439853" />
	</node>
	<node lat="64.69395000061402" lon="11.978525008383844" id="-34486">
		<tag k="name" v="Lundvatna" />
		<tag k="natural" v="water" />
		<tag k="ssr:stedsnr" v="440243" />
		<tag k="water" v="lake" />
	</node>
	<node lat="64.45305833609113" lon="11.608699993008857" id="-34491">
		<tag k="name" v="Bukkbladtjønna" />
		<tag k="natural" v="water" />
		<tag k="ssr:stedsnr" v="447292" />
	</node>
	<node lat="64.22327777361626" lon="11.268152786591735" id="-34505">
		<tag k="name" v="Steinbekken" />
		<tag k="ssr:stedsnr" v="463276" />
		<tag k="waterway" v="stream" />
	</node>
	<node lat="64.64356666317758" lon="11.181233337780842" id="-34516">
		<tag k="name" v="Nordvassbekken" />
		<tag k="ssr:stedsnr" v="470410" />
		<tag k="waterway" v="stream" />
	</node>
	<node lat="64.47733333655238" lon="11.13022499046447" id="-34526">
		<tag k="name" v="Storfossen" />
		<tag k="natural" v="waterfall" />
		<tag k="ssr:stedsnr" v="472361" />
	</node>
	<node lat="64.60171111048001" lon="11.152705553690003" id="-34530">
		<tag k="name" v="Middagsfjellvatnet" />
		<tag k="natural" v="water" />
		<tag k="ssr:stedsnr" v="472510" />
	</node>
	<node lat="64.17856110981462" lon="11.36631111440673" id="-34531">
		<tag k="name" v="Kvinnvasselva" />
		<tag k="ssr:stedsnr" v="472709" />
		<tag k="waterway" v="river" />
	</node>
	<node lat="64.38509166745611" lon="11.15251945307281" id="-34533">
		<tag k="name" v="Tverrelva" />
		<tag k="ssr:stedsnr" v="472759" />
		<tag k="waterway" v="river" />
	</node>
	<node lat="64.54212222485148" lon="11.060144438001188" id="-34542">
		<tag k="name" v="Brunerbekken" />
		<tag k="ssr:stedsnr" v="473470" />
		<tag k="waterway" v="stream" />
	</node>
	<node lat="64.7446749957804" lon="11.711669434946995" id="-34554">
		<tag k="name" v="Storbukta" />
		<tag k="natural" v="bay" />
		<tag k="ssr:stedsnr" v="475064" />
	</node>
	<node lat="64.76583888867746" lon="12.051188886276194" id="-34558">
		<tag k="name" v="Fossholman" />
		<tag k="place" v="islet" />
		<tag k="ssr:stedsnr" v="475113" />
	</node>
	<node lat="64.32029444159707" lon="11.11621667045048" id="-34566">
		<tag k="name" v="Åsneslangvatnet" />
		<tag k="natural" v="water" />
		<tag k="ssr:stedsnr" v="681311" />
	</node>
	<node lat="64.25519583775552" lon="10.962141451333029" id="-34573">
		<tag k="name" v="Lisslangvatnet" />
		<tag k="natural" v="water" />
		<tag k="ssr:stedsnr" v="681145" />
	</node>
	<node lat="64.49058888647967" lon="11.59993055226769" id="-34577">
		<tag k="name" v="Nonstjønna" />
		<tag k="natural" v="water" />
		<tag k="ssr:stedsnr" v="681230" />
	</node>
	<node lat="64.49713055901559" lon="11.405163897218545" id="-34579">
		<tag k="name" v="Heimfjellvatnet" />
		<tag k="natural" v="water" />
		<tag k="ssr:stedsnr" v="681239" />
	</node>
	<node lat="64.39802777875208" lon="11.172794443851842" id="-34583">
		<tag k="fixme" v="multiple name tags, choose one and add the other to alt_name" />
		<tag k="name" v="Oksdøla;Oksa" />
		<tag k="ssr:stedsnr" v="681251" />
		<tag k="waterway" v="river" />
	</node>
	<node lat="64.26837777359339" lon="10.995025008661583" id="-34585">
		<tag k="name" v="Bjørfarvassbekken" />
		<tag k="ssr:stedsnr" v="499109" />
		<tag k="waterway" v="stream" />
	</node>
	<node lat="64.26731666315722" lon="11.030611109669525" id="-34586">
		<tag k="name" v="Øyensskavltjønna" />
		<tag k="natural" v="water" />
		<tag k="ssr:stedsnr" v="499111" />
	</node>
	<node lat="64.29293888888292" lon="11.193099993798159" id="-34587">
		<tag k="name" v="Årgårdselva" />
		<tag k="ssr:stedsnr" v="499143" />
		<tag k="waterway" v="river" />
	</node>
	<node lat="64.42152777617996" lon="11.114452787883375" id="-34589">
		<tag k="name" v="Granheivatnet" />
		<tag k="natural" v="water" />
		<tag k="ssr:stedsnr" v="681292" />
	</node>
	<node lat="64.33327222140807" lon="11.005122223591366" id="-34594">
		<tag k="name" v="Oksvasstjønnin" />
		<tag k="natural" v="water" />
		<tag k="ssr:stedsnr" v="681331" />
	</node>
	<node lat="64.49502500152889" lon="11.45604166639293" id="-34597">
		<tag k="name" v="Halsbekken" />
		<tag k="ssr:stedsnr" v="499188" />
		<tag k="waterway" v="stream" />
	</node>
	<node lat="64.59497499693981" lon="11.41039443813514" id="-34599">
		<tag k="name" v="Vestervikvatnet" />
		<tag k="natural" v="water" />
		<tag k="ssr:stedsnr" v="499388" />
	</node>
	<node lat="64.17829999702133" lon="10.876863878876273" id="-34601">
		<tag k="name" v="Kvernbekken" />
		<tag k="ssr:stedsnr" v="499507" />
		<tag k="waterway" v="stream" />
	</node>
	<node lat="64.75356666332944" lon="11.917736118920866" id="-34605">
		<tag k="name" v="Kovafjorden" />
		<tag k="natural" v="strait" />
		<tag k="ssr:stedsnr" v="499810" />
	</node>
	<node lat="64.29921111072895" lon="11.224427772833588" id="-34606">
		<tag k="name" v="Kvernabekken" />
		<tag k="ssr:stedsnr" v="499842" />
		<tag k="waterway" v="stream" />
	</node>
	<node lat="64.22284167028212" lon="11.140686101518149" id="-34609">
		<tag k="name" v="Staventjønnin" />
		<tag k="natural" v="water" />
		<tag k="ssr:stedsnr" v="499585" />
	</node>
	<node lat="64.20541389143872" lon="11.01338611950757" id="-34611">
		<tag k="name" v="Langvatnet" />
		<tag k="natural" v="water" />
		<tag k="ssr:stedsnr" v="499600" />
		<tag k="water" v="lake" />
	</node>
	<node lat="64.20143333548698" lon="11.022777771961223" id="-34612">
		<tag k="name" v="Auntjønna" />
		<tag k="natural" v="water" />
		<tag k="ssr:stedsnr" v="499601" />
	</node>
	<node lat="64.34203333662211" lon="11.32867499966473" id="-34617">
		<tag k="name" v="Svartfossen" />
		<tag k="natural" v="waterfall" />
		<tag k="ssr:stedsnr" v="499885" />
	</node>
	<node lat="64.34200277924366" lon="11.456099991339288" id="-34618">
		<tag k="name" v="Lomtjønna" />
		<tag k="natural" v="water" />
		<tag k="ssr:stedsnr" v="499890" />
	</node>
	<node lat="64.70695000266468" lon="11.927474991304516" id="-34627">
		<tag k="alt_name" v="Klenningsbekken" />
		<tag k="name" v="Klenningelva" />
		<tag k="ssr:stedsnr" v="500216" />
		<tag k="waterway" v="stream" />
	</node>
	<node lat="64.73855833192906" lon="12.118800003605115" id="-34630">
		<tag k="name" v="Urdåa" />
		<tag k="ssr:stedsnr" v="500231" />
		<tag k="waterway" v="stream" />
	</node>
	<node lat="64.73247221992311" lon="12.148255556959704" id="-34631">
		<tag k="name" v="Krokåa" />
		<tag k="ssr:stedsnr" v="500232" />
		<tag k="waterway" v="stream" />
	</node>
	<node lat="64.44477777988014" lon="11.078866662724804" id="-34633">
		<tag k="fixme" v="multiple name tags, choose one and add the other to alt_name" />
		<tag k="name" v="Gøllaustjønna;Gaurlaugstjønna" />
		<tag k="natural" v="water" />
		<tag k="ssr:stedsnr" v="681453" />
	</node>
	<node lat="64.52253611388946" lon="11.420805549397818" id="-34643">
		<tag k="name" v="Fugllivatnet" />
		<tag k="natural" v="water" />
		<tag k="ssr:stedsnr" v="500193" />
	</node>
	<node lat="64.71756110696076" lon="11.558119436302439" id="-34645">
		<tag k="name" v="Gravvika" />
		<tag k="natural" v="bay" />
		<tag k="ssr:stedsnr" v="500304" />
	</node>
	<node lat="64.5057277747723" lon="11.361733323514244" id="-34647">
		<tag k="name" v="Skultjønna" />
		<tag k="natural" v="water" />
		<tag k="ssr:stedsnr" v="500286" />
	</node>
	<node lat="64.64363611371495" lon="11.503683339933163" id="-34648">
		<tag k="name" v="Langvatnet" />
		<tag k="natural" v="water" />
		<tag k="ssr:stedsnr" v="500493" />
	</node>
	<node lat="64.59686388924065" lon="11.130477784783505" id="-34649">
		<tag k="name" v="Setervatnet" />
		<tag k="natural" v="water" />
		<tag k="ssr:stedsnr" v="681542" />
	</node>
	<node lat="64.72961666899569" lon="11.573711112431614" id="-34651">
		<tag k="alt_name" v="Groftavika" />
		<tag k="name" v="Groftvika" />
		<tag k="natural" v="bay" />
		<tag k="ssr:stedsnr" v="500332" />
	</node>
	<node lat="64.73154722310836" lon="11.567280565110853" id="-34652">
		<tag k="name" v="Kvernvikvatnet" />
		<tag k="natural" v="water" />
		<tag k="ssr:stedsnr" v="500337" />
		<tag k="water" v="lake" />
	</node>
	<node lat="64.60110555937388" lon="11.404727768695768" id="-34656">
		<tag k="name" v="Gardsvatnet" />
		<tag k="natural" v="water" />
		<tag k="ssr:stedsnr" v="500532" />
	</node>
	<node lat="64.1697638853275" lon="11.166327769031648" id="-34661">
		<tag k="name" v="Barbrotjønna" />
		<tag k="natural" v="water" />
		<tag k="ssr:stedsnr" v="681577" />
	</node>
	<node lat="64.54318055321198" lon="11.154655565021823" id="-34664">
		<tag k="name" v="Krokvasstjønnin" />
		<tag k="natural" v="water" />
		<tag k="ssr:stedsnr" v="500690" />
	</node>
	<node lat="64.75425000325053" lon="12.097566668328154" id="-34665">
		<tag k="name" v="Fangnesbekken" />
		<tag k="ssr:stedsnr" v="500894" />
		<tag k="waterway" v="stream" />
	</node>
	<node lat="64.1599499980831" lon="10.778291672134026" id="-34667">
		<tag k="name" v="Småfosselva" />
		<tag k="ssr:stedsnr" v="681593" />
		<tag k="waterway" v="stream" />
	</node>
	<node lat="64.13606944625627" lon="10.901552784127079" id="-34668">
		<tag k="name" v="Blåvatnet" />
		<tag k="natural" v="water" />
		<tag k="ssr:stedsnr" v="681615" />
	</node>
	<node lat="64.50972499591835" lon="11.040180564527157" id="-34669">
		<tag k="name" v="Nordvatnet" />
		<tag k="natural" v="water" />
		<tag k="ssr:stedsnr" v="681705" />
	</node>
	<node lat="64.24020277775462" lon="11.094311118270053" id="-34670">
		<tag k="name" v="Buktafossen" />
		<tag k="natural" v="waterfall" />
		<tag k="ssr:stedsnr" v="681640" />
	</node>
	<node lat="64.18711389248023" lon="10.940113886707364" id="-34673">
		<tag k="name" v="Langdalsbukta" />
		<tag k="natural" v="bay" />
		<tag k="ssr:stedsnr" v="681680" />
	</node>
	<node lat="64.26730000033292" lon="11.473577773954556" id="-34680">
		<tag k="name" v="Grasbekken" />
		<tag k="ssr:stedsnr" v="681880" />
		<tag k="waterway" v="stream" />
	</node>
	<node lat="64.3830444454391" lon="11.447774996868276" id="-34682">
		<tag k="alt_name" v="Storøya" />
		<tag k="name" v="Øyan" />
		<tag k="place" v="islet" />
		<tag k="ssr:stedsnr" v="681945" />
	</node>
	<node lat="64.66407777684958" lon="11.395469450850898" id="-34691">
		<tag k="name" v="Lauvlivatnet" />
		<tag k="natural" v="water" />
		<tag k="ssr:stedsnr" v="682352" />
	</node>
	<node lat="64.63323611227416" lon="11.508586100967392" id="-34693">
		<tag k="alt_name" v="Sandåtjønna" />
		<tag k="name" v="Sandåvatnet" />
		<tag k="natural" v="water" />
		<tag k="ssr:stedsnr" v="682481" />
	</node>
	<node lat="64.53908888889654" lon="11.365141676373378" id="-34695">
		<tag k="name" v="Håkilsetertjønna" />
		<tag k="natural" v="water" />
		<tag k="ssr:stedsnr" v="682086" />
	</node>
	<node lat="64.5739555545847" lon="11.539744438730137" id="-34701">
		<tag k="name" v="Svartvatnet" />
		<tag k="natural" v="water" />
		<tag k="ssr:stedsnr" v="682033" />
	</node>
	<node lat="64.57559722587898" lon="11.547624994985501" id="-34702">
		<tag k="name" v="Kvernvatnet" />
		<tag k="natural" v="water" />
		<tag k="ssr:stedsnr" v="682037" />
	</node>
	<node lat="64.74205000011045" lon="11.809975008505615" id="-34707">
		<tag k="name" v="Leisåkelva" />
		<tag k="ssr:stedsnr" v="682253" />
		<tag k="waterway" v="stream" />
	</node>
	<node lat="64.73885277355609" lon="11.790549992811972" id="-34708">
		<tag k="name" v="Storvika" />
		<tag k="natural" v="bay" />
		<tag k="ssr:stedsnr" v="682254" />
	</node>
	<node lat="64.59805000198314" lon="11.395155546148933" id="-34713">
		<tag k="name" v="Prestvatnet" />
		<tag k="natural" v="water" />
		<tag k="ssr:stedsnr" v="682551" />
	</node>
	<node lat="64.696899997" lon="11.486049993103247" id="-34717">
		<tag k="name" v="Mosholmen" />
		<tag k="place" v="islet" />
		<tag k="ssr:stedsnr" v="682302" />
	</node>
	<node lat="64.66407500113125" lon="11.322944444683971" id="-34718">
		<tag k="name" v="Moldvikvatna" />
		<tag k="natural" v="water" />
		<tag k="ssr:stedsnr" v="682354" />
	</node>
	<node lat="64.66675833582657" lon="11.681705552948085" id="-34719">
		<tag k="name" v="Heivika" />
		<tag k="natural" v="bay" />
		<tag k="ssr:stedsnr" v="682360" />
	</node>
	<node lat="64.67373888528093" lon="11.331799994933537" id="-34721">
		<tag k="fixme" v="multiple name tags, choose one and add the other to alt_name" />
		<tag k="name" v="Kvernhusbekken;Moldvikbekken" />
		<tag k="ssr:stedsnr" v="682391" />
		<tag k="waterway" v="stream" />
	</node>
	<node lat="64.75740833067064" lon="11.6581000091408" id="-34730">
		<tag k="name" v="Bjørnavikbekken" />
		<tag k="ssr:stedsnr" v="682761" />
		<tag k="waterway" v="stream" />
	</node>
	<node lat="64.64950000263603" lon="11.772449995422214" id="-34733">
		<tag k="name" v="Storengvatna" />
		<tag k="natural" v="water" />
		<tag k="ssr:stedsnr" v="682877" />
		<tag k="water" v="lake" />
	</node>
	<node lat="64.6511194488071" lon="11.838675008456836" id="-34734">
		<tag k="name" v="Tjønnabbtjønna" />
		<tag k="natural" v="water" />
		<tag k="ssr:stedsnr" v="682878" />
	</node>
	<node lat="64.64688332975919" lon="11.834825005259523" id="-34735">
		<tag k="name" v="Storengelva" />
		<tag k="ssr:stedsnr" v="682879" />
		<tag k="waterway" v="river" />
	</node>
	<node lat="64.76209999935058" lon="12.024516662664896" id="-34737">
		<tag k="name" v="Øykvika" />
		<tag k="natural" v="bay" />
		<tag k="ssr:stedsnr" v="682889" />
	</node>
	<node lat="64.62705277599196" lon="11.853372222909064" id="-34740">
		<tag k="name" v="Lossmenttjønna" />
		<tag k="natural" v="water" />
		<tag k="ssr:stedsnr" v="682899" />
	</node>
	<node lat="64.66882778166422" lon="11.287299997661673" id="-34775">
		<tag k="name" v="Kjerktjønna" />
		<tag k="natural" v="water" />
		<tag k="ssr:stedsnr" v="532781" />
	</node>
	<node lat="64.3638527750443" lon="11.629886116701186" id="-34782">
		<tag k="name" v="Isakbukta" />
		<tag k="natural" v="bay" />
		<tag k="ssr:stedsnr" v="533483" />
	</node>
	<node lat="64.1496666696227" lon="10.873066672467019" id="-34783">
		<tag k="name" v="Storbekken" />
		<tag k="ssr:stedsnr" v="533610" />
		<tag k="waterway" v="stream" />
	</node>
	<node lat="64.19100833200727" lon="11.020955562634658" id="-34785">
		<tag k="name" v="Furudalstangen" />
		<tag k="natural" v="cape" />
		<tag k="ssr:stedsnr" v="533517" />
	</node>
	<node lat="64.23367777476966" lon="11.42274722869736" id="-34788">
		<tag k="name" v="Husåstjønnbekken" />
		<tag k="ssr:stedsnr" v="533716" />
		<tag k="waterway" v="stream" />
	</node>
	<node lat="64.26874444381272" lon="11.257000007190436" id="-34793">
		<tag k="name" v="Rinnaren" />
		<tag k="ssr:stedsnr" v="534318" />
		<tag k="waterway" v="stream" />
	</node>
	<node lat="64.59415278187657" lon="11.593033341783096" id="-34796">
		<tag k="name" v="Jektvikelva" />
		<tag k="ssr:stedsnr" v="534724" />
		<tag k="waterway" v="stream" />
	</node>
	<node lat="64.74327500431788" lon="12.08411943641619" id="-34799">
		<tag k="name" v="Fangnesset" />
		<tag k="natural" v="cape" />
		<tag k="ssr:stedsnr" v="535108" />
	</node>
	<node lat="64.74224444171465" lon="11.90513888773039" id="-34801">
		<tag k="name" v="Nerstraumen" />
		<tag k="natural" v="strait" />
		<tag k="ssr:stedsnr" v="535002" />
	</node>
	<node lat="64.74760277425256" lon="11.977916656074184" id="-34807">
		<tag k="name" v="Skjeftmyrbekken" />
		<tag k="ssr:stedsnr" v="535083" />
		<tag k="waterway" v="stream" />
	</node>
	<node lat="64.46326944421436" lon="11.093802779391188" id="-34815">
		<tag k="name" v="Dronninga" />
		<tag k="place" v="islet" />
		<tag k="ssr:stedsnr" v="688457" />
	</node>
	<node lat="64.43635833693264" lon="11.606527783191124" id="-34817">
		<tag k="alt_name" v="Strømhyllvatna" />
		<tag k="name" v="Straumhyllvatna" />
		<tag k="natural" v="water" />
		<tag k="ssr:stedsnr" v="559092" />
	</node>
	<node lat="64.4290694435115" lon="11.22601944375743" id="-34821">
		<tag k="name" v="Fjellholbekken" />
		<tag k="ssr:stedsnr" v="559106" />
		<tag k="waterway" v="stream" />
	</node>
	<node lat="64.48353780657901" lon="11.595767578258677" id="-34822">
		<tag k="name" v="Ålbergvatnet" />
		<tag k="natural" v="water" />
		<tag k="ssr:stedsnr" v="559193" />
	</node>
	<node lat="64.35323055342785" lon="11.099711106068439" id="-34823">
		<tag k="name" v="Flytjønna" />
		<tag k="natural" v="water" />
		<tag k="ssr:stedsnr" v="559339" />
	</node>
	<node lat="64.37592499652943" lon="11.182475003605687" id="-34824">
		<tag k="alt_name" v="Altinvatnet" />
		<tag k="name" v="Altvatnet" />
		<tag k="natural" v="water" />
		<tag k="ssr:stedsnr" v="559348" />
		<tag k="water" v="lake" />
	</node>
	<node lat="64.72987777926846" lon="11.927902785130309" id="-34843">
		<tag k="name" v="Auntjønnbekken" />
		<tag k="ssr:stedsnr" v="560197" />
		<tag k="waterway" v="stream" />
	</node>
	<node lat="64.5569837596503" lon="11.642357783964734" id="-34845">
		<tag k="name" v="Bjørkavatnet" />
		<tag k="natural" v="water" />
		<tag k="ssr:stedsnr" v="560088" />
	</node>
	<node lat="64.59998889294853" lon="11.424219439870674" id="-34846">
		<tag k="alt_name" v="Gårdsvatnet" />
		<tag k="name" v="Gardsvatnet" />
		<tag k="natural" v="water" />
		<tag k="ssr:stedsnr" v="560202" />
	</node>
	<node lat="64.71768611484964" lon="11.745558326511594" id="-34847">
		<tag k="name" v="Jøtulhanda" />
		<tag k="natural" v="cape" />
		<tag k="ssr:stedsnr" v="560207" />
	</node>
	<node lat="64.70175833702002" lon="11.622649997733285" id="-34848">
		<tag k="name" v="Korsbekken" />
		<tag k="ssr:stedsnr" v="560252" />
		<tag k="waterway" v="stream" />
	</node>
	<node lat="64.7132999982734" lon="11.526938894119532" id="-34849">
		<tag k="alt_name" v="Korsavika" />
		<tag k="name" v="Korsvika" />
		<tag k="natural" v="bay" />
		<tag k="ssr:stedsnr" v="560254" />
	</node>
	<node lat="64.7430805557666" lon="11.694691667358736" id="-34850">
		<tag k="name" v="Krokvatnet" />
		<tag k="natural" v="water" />
		<tag k="ssr:stedsnr" v="560284" />
	</node>
	<node lat="64.59749167024454" lon="11.566566668558906" id="-34857">
		<tag k="name" v="Trappavatnet" />
		<tag k="natural" v="water" />
		<tag k="ssr:stedsnr" v="560441" />
	</node>
	<node lat="64.18516667042377" lon="11.15752499532491" id="-34864">
		<tag k="name" v="Raffeltjønna" />
		<tag k="natural" v="water" />
		<tag k="ssr:stedsnr" v="560585" />
	</node>
	<node lat="64.1814777783883" lon="11.185113886462394" id="-34865">
		<tag k="name" v="Trettengbekken" />
		<tag k="ssr:stedsnr" v="560586" />
		<tag k="waterway" v="stream" />
	</node>
	<node lat="64.61022872351751" lon="11.494864261328587" id="-34871">
		<tag k="alt_name" v="Skjerivatnet" />
		<tag k="name" v="Skjærivatnet" />
		<tag k="natural" v="water" />
		<tag k="ssr:stedsnr" v="560494" />
		<tag k="water" v="lake" />
	</node>
	<node lat="64.26204444464148" lon="11.4410388944474" id="-34877">
		<tag k="name" v="Langvatnet" />
		<tag k="natural" v="water" />
		<tag k="ssr:stedsnr" v="560872" />
		<tag k="water" v="lake" />
	</node>
	<node lat="64.26865277364783" lon="11.352894454154967" id="-34878">
		<tag k="name" v="Skråtjønna" />
		<tag k="natural" v="water" />
		<tag k="ssr:stedsnr" v="560880" />
	</node>
	<node lat="64.75519999768808" lon="12.004730546505218" id="-34879">
		<tag k="name" v="Båtneset" />
		<tag k="natural" v="cape" />
		<tag k="ssr:stedsnr" v="560881" />
	</node>
	<node lat="64.75034444842848" lon="11.962936106378162" id="-34881">
		<tag k="name" v="Aunodden" />
		<tag k="natural" v="cape" />
		<tag k="ssr:stedsnr" v="560883" />
	</node>
	<node lat="64.22959722168244" lon="11.448341668462687" id="-34890">
		<tag k="name" v="Kjølbekken" />
		<tag k="ssr:stedsnr" v="572254" />
		<tag k="waterway" v="stream" />
	</node>
	<node lat="64.49904444108357" lon="11.530944452872191" id="-34898">
		<tag k="name" v="Tronvasstjønna" />
		<tag k="natural" v="water" />
		<tag k="ssr:stedsnr" v="575520" />
	</node>
	<node lat="64.33228611125054" lon="11.148813886428567" id="-34905">
		<tag k="name" v="Kalhammarvatna" />
		<tag k="natural" v="water" />
		<tag k="ssr:stedsnr" v="695796" />
		<tag k="water" v="lake" />
	</node>
	<node lat="64.25947221971387" lon="11.365741664546592" id="-34906">
		<tag k="name" v="Joholbekken" />
		<tag k="ssr:stedsnr" v="583193" />
		<tag k="waterway" v="stream" />
	</node>
	<node lat="64.20260278119518" lon="11.206747218350637" id="-34913">
		<tag k="name" v="Strompmyrbekken" />
		<tag k="ssr:stedsnr" v="584343" />
		<tag k="waterway" v="stream" />
	</node>
	<node lat="64.19043889269886" lon="11.219294436000654" id="-34915">
		<tag k="name" v="Almenningsbekken" />
		<tag k="ssr:stedsnr" v="584351" />
		<tag k="waterway" v="stream" />
	</node>
	<node lat="64.38379166860996" lon="11.360261112293793" id="-34918">
		<tag k="name" v="Botnbekken" />
		<tag k="ssr:stedsnr" v="584744" />
		<tag k="waterway" v="stream" />
	</node>
	<node lat="64.63259721849234" lon="11.465530547163615" id="-34945">
		<tag k="name" v="Storvasskjosen" />
		<tag k="natural" v="bay" />
		<tag k="ssr:stedsnr" v="593652" />
	</node>
	<node lat="64.6094194411111" lon="11.481277767741894" id="-34946">
		<tag k="name" v="Skjelhagabekken" />
		<tag k="ssr:stedsnr" v="593636" />
		<tag k="waterway" v="stream" />
	</node>
	<node lat="64.30659722199277" lon="11.113330550433176" id="-34957">
		<tag k="name" v="Steintjønna" />
		<tag k="natural" v="water" />
		<tag k="ssr:stedsnr" v="594416" />
	</node>
	<node lat="64.52516110748851" lon="11.182427768297842" id="-34960">
		<tag k="name" v="Rundberghaugvatnet" />
		<tag k="natural" v="water" />
		<tag k="ssr:stedsnr" v="594455" />
	</node>
	<node lat="64.2653277810792" lon="11.43347500453634" id="-34961">
		<tag k="name" v="Høyfættsundet" />
		<tag k="natural" v="strait" />
		<tag k="ssr:stedsnr" v="594610" />
	</node>
	<node lat="64.74593055839034" lon="11.917730561692364" id="-34974">
		<tag k="name" v="Øver Tverrlandet" />
		<tag k="natural" v="cape" />
		<tag k="ssr:stedsnr" v="596004" />
	</node>
	<node lat="64.75127245657475" lon="11.9023699923307" id="-34975">
		<tag k="name" v="Kovadøra" />
		<tag k="natural" v="strait" />
		<tag k="ssr:stedsnr" v="596009" />
	</node>
	<node lat="64.7421555550764" lon="11.890519440492106" id="-34976">
		<tag k="name" v="Litløyhamn" />
		<tag k="natural" v="bay" />
		<tag k="ssr:stedsnr" v="596011" />
	</node>
	<node lat="64.7516805550785" lon="11.727888898106043" id="-34981">
		<tag k="name" v="Skjærivasselva" />
		<tag k="ssr:stedsnr" v="596202" />
		<tag k="waterway" v="stream" />
	</node>
	<node lat="64.40952777934778" lon="11.594469435569193" id="-34993">
		<tag k="name" v="Bølvatnet" />
		<tag k="natural" v="water" />
		<tag k="ssr:stedsnr" v="620080" />
	</node>
	<node lat="64.39823888780793" lon="11.582883340546887" id="-34994">
		<tag k="name" v="Barstadspøtvatnet" />
		<tag k="natural" v="water" />
		<tag k="ssr:stedsnr" v="620085" />
	</node>
	<node lat="64.39934444593788" lon="11.599155553565474" id="-34996">
		<tag k="name" v="Bøltjønna" />
		<tag k="natural" v="water" />
		<tag k="ssr:stedsnr" v="620087" />
	</node>
	<node lat="64.29765555515509" lon="10.970697219113227" id="-35001">
		<tag k="name" v="Småsalan" />
		<tag k="place" v="locality" />
		<tag k="ssr:stedsnr" v="620170" />
	</node>
	<node lat="64.28500555837556" lon="11.175652769391691" id="-35003">
		<tag k="alt_name" v="Mølnåelva" />
		<tag k="name" v="Mølnåa" />
		<tag k="ssr:stedsnr" v="620177" />
		<tag k="waterway" v="stream" />
	</node>
	<node lat="64.22273055263906" lon="10.90978887900928" id="-35009">
		<tag k="alt_name" v="Stor - Bjørkvatnet" />
		<tag k="name" v="Bjørkvatnet" />
		<tag k="natural" v="water" />
		<tag k="ssr:stedsnr" v="620617" />
	</node>
	<node lat="64.2902805520923" lon="11.48270834221214" id="-35010">
		<tag k="name" v="Mellangbekken" />
		<tag k="ssr:stedsnr" v="620820" />
		<tag k="waterway" v="stream" />
	</node>
	<node lat="64.27705555983295" lon="11.64152778279588" id="-35012">
		<tag k="name" v="Skorvfossholmen" />
		<tag k="place" v="islet" />
		<tag k="ssr:stedsnr" v="620787" />
	</node>
	<node lat="64.18574722326059" lon="11.294274990893934" id="-35016">
		<tag k="name" v="Lissvatnet" />
		<tag k="natural" v="water" />
		<tag k="ssr:stedsnr" v="620794" />
	</node>
	<node lat="64.73131389339879" lon="11.5603638792855" id="-35030">
		<tag k="name" v="Digermulen" />
		<tag k="natural" v="cape" />
		<tag k="ssr:stedsnr" v="621314" />
	</node>
	<node lat="64.72547777408607" lon="11.714199990834107" id="-35031">
		<tag k="alt_name" v="Mosevika" />
		<tag k="name" v="Måssavika" />
		<tag k="natural" v="bay" />
		<tag k="ssr:stedsnr" v="621320" />
	</node>
	<node lat="64.63133610800648" lon="11.476366670840772" id="-35035">
		<tag k="name" v="Dyrvadholmen" />
		<tag k="place" v="islet" />
		<tag k="ssr:stedsnr" v="621407" />
	</node>
	<node lat="64.8295250001593" lon="12.135119448754535" id="-35048">
		<tag k="name" v="Kvaltjønnin" />
		<tag k="natural" v="water" />
		<tag k="ssr:stedsnr" v="621918" />
	</node>
	<node lat="64.2650416661615" lon="11.35314167266321" id="-35058">
		<tag k="name" v="Skråtjønnbekken" />
		<tag k="ssr:stedsnr" v="705234" />
		<tag k="waterway" v="stream" />
	</node>
	<node lat="64.36962500173553" lon="11.55323889124493" id="-35061">
		<tag k="name" v="Langtjønna" />
		<tag k="natural" v="water" />
		<tag k="ssr:stedsnr" v="705635" />
	</node>
	<node lat="64.38433333714855" lon="11.530922227523268" id="-35062">
		<tag k="name" v="Sagfossen" />
		<tag k="natural" v="waterfall" />
		<tag k="ssr:stedsnr" v="705752" />
	</node>
	<node lat="64.22054167079507" lon="11.277286114826998" id="-35073">
		<tag k="name" v="Sandbekken" />
		<tag k="ssr:stedsnr" v="706272" />
		<tag k="waterway" v="stream" />
	</node>
	<node lat="64.36478888589185" lon="11.428544452262663" id="-35083">
		<tag k="name" v="Heiholbekken" />
		<tag k="ssr:stedsnr" v="644587" />
		<tag k="waterway" v="stream" />
	</node>
	<node lat="64.20550277732445" lon="11.341036106006335" id="-35093">
		<tag k="name" v="Hyllfossen" />
		<tag k="natural" v="waterfall" />
		<tag k="ssr:stedsnr" v="645285" />
	</node>
	<node lat="64.61287500259482" lon="11.484341668215679" id="-35110">
		<tag k="name" v="Skjelhagatjønna" />
		<tag k="natural" v="bay" />
		<tag k="ssr:stedsnr" v="653729" />
	</node>
	<node lat="64.2801527763811" lon="11.288372228930895" id="-35127">
		<tag k="name" v="Groftdalsbukta" />
		<tag k="natural" v="bay" />
		<tag k="ssr:stedsnr" v="655306" />
	</node>
	<node lat="64.27196944090826" lon="11.248166668558735" id="-35128">
		<tag k="name" v="Lomtjønna" />
		<tag k="natural" v="water" />
		<tag k="ssr:stedsnr" v="655310" />
	</node>
	<node lat="64.28272500127733" lon="11.566288892794466" id="-35131">
		<tag k="name" v="Styggdalsbekken" />
		<tag k="ssr:stedsnr" v="655431" />
		<tag k="waterway" v="stream" />
	</node>
	<node lat="64.58771111044912" lon="11.382402771107113" id="-35135">
		<tag k="name" v="Setervika" />
		<tag k="natural" v="bay" />
		<tag k="ssr:stedsnr" v="655608" />
	</node>
	<node lat="64.19513333649559" lon="10.962675007104592" id="-35138">
		<tag k="name" v="Militærbekken" />
		<tag k="ssr:stedsnr" v="655505" />
		<tag k="waterway" v="stream" />
	</node>
	<node lat="64.23140555973652" lon="11.010469452062308" id="-35145">
		<tag k="name" v="Lissøyungelva" />
		<tag k="ssr:stedsnr" v="655989" />
		<tag k="waterway" v="river" />
	</node>
	<node lat="64.7320972249317" lon="11.875686119882301" id="-35148">
		<tag k="name" v="Storøyodden" />
		<tag k="natural" v="cape" />
		<tag k="ssr:stedsnr" v="657010" />
	</node>
	<node lat="64.44844444568324" lon="11.545761107823957" id="-35157">
		<tag k="name" v="Navelskardsbekken" />
		<tag k="ssr:stedsnr" v="681019" />
		<tag k="waterway" v="stream" />
	</node>
	<node lat="64.62941944182867" lon="11.088558336754328" id="-35162">
		<tag k="name" v="Aglvatnet" />
		<tag k="natural" v="water" />
		<tag k="ssr:stedsnr" v="681509" />
		<tag k="water" v="lake" />
	</node>
	<node lat="64.48507222302122" lon="11.127886103018167" id="-35166">
		<tag k="name" v="Steinbekken" />
		<tag k="ssr:stedsnr" v="681411" />
		<tag k="waterway" v="stream" />
	</node>
	<node lat="64.21043611111085" lon="10.996233324987767" id="-35168">
		<tag k="name" v="Lomtjønna" />
		<tag k="natural" v="water" />
		<tag k="ssr:stedsnr" v="681672" />
	</node>
	<node lat="64.3013972209843" lon="11.355127774836797" id="-35173">
		<tag k="name" v="Fjalsetertjønnin" />
		<tag k="natural" v="water" />
		<tag k="ssr:stedsnr" v="681916" />
	</node>
	<node lat="64.29391388605316" lon="11.550786106226857" id="-35175">
		<tag k="name" v="Strandfossen" />
		<tag k="natural" v="waterfall" />
		<tag k="ssr:stedsnr" v="681920" />
	</node>
	<node lat="64.3719805570354" lon="11.243558338890052" id="-35179">
		<tag k="name" v="Vassbekken" />
		<tag k="ssr:stedsnr" v="681936" />
		<tag k="waterway" v="stream" />
	</node>
	<node lat="64.57553611116583" lon="11.25042500163386" id="-35180">
		<tag k="name" v="Åelva" />
		<tag k="ssr:stedsnr" v="682056" />
		<tag k="waterway" v="stream" />
	</node>
	<node lat="64.57918055993356" lon="11.620874990733236" id="-35181">
		<tag k="name" v="Rypnesvatnet" />
		<tag k="natural" v="water" />
		<tag k="ssr:stedsnr" v="682063" />
	</node>
	<node lat="64.73588333643279" lon="11.861977779962547" id="-35188">
		<tag k="name" v="Storøya" />
		<tag k="place" v="island" />
		<tag k="ssr:stedsnr" v="682228" />
	</node>
	<node lat="64.71917499813006" lon="11.890524989870983" id="-35189">
		<tag k="name" v="Helsåtjønna" />
		<tag k="natural" v="water" />
		<tag k="ssr:stedsnr" v="682239" />
	</node>
	<node lat="64.72272499646508" lon="11.794425001884624" id="-35190">
		<tag k="alt_name" v="Bjørnavika" />
		<tag k="name" v="Bjønnavika" />
		<tag k="natural" v="bay" />
		<tag k="ssr:stedsnr" v="682241" />
	</node>
	<node lat="64.59352500437481" lon="11.822174999663194" id="-35203">
		<tag k="name" v="Dunaelva" />
		<tag k="ssr:stedsnr" v="682823" />
		<tag k="waterway" v="river" />
	</node>
	<node lat="64.78033610679437" lon="12.075233335271529" id="-35206">
		<tag k="name" v="Tverrbekken" />
		<tag k="ssr:stedsnr" v="682922" />
		<tag k="waterway" v="stream" />
	</node>
	<node lat="64.69434999855629" lon="11.441611117989348" id="-35208">
		<tag k="name" v="Oldernesset" />
		<tag k="natural" v="cape" />
		<tag k="ssr:stedsnr" v="893338" />
	</node>
	<node lat="64.70176388918134" lon="11.408305565283" id="-35209">
		<tag k="name" v="Brødholmhalsen" />
		<tag k="place" v="locality" />
		<tag k="ssr:stedsnr" v="894355" />
	</node>
	<node lat="64.60310833420813" lon="11.729688898124067" id="-35225">
		<tag k="name" v="Lomtjønna" />
		<tag k="natural" v="water" />
		<tag k="ssr:stedsnr" v="898246" />
	</node>
	<node lat="64.37661388574546" lon="11.454227775697547" id="-35228">
		<tag k="name" v="Bjørbekken" />
		<tag k="ssr:stedsnr" v="705610" />
		<tag k="waterway" v="stream" />
	</node>
	<node lat="64.38179999788255" lon="11.44401388255723" id="-35229">
		<tag k="name" v="Bjørbekken" />
		<tag k="ssr:stedsnr" v="705611" />
		<tag k="waterway" v="stream" />
	</node>
	<node lat="64.33307500419862" lon="11.18741667667194" id="-35233">
		<tag k="name" v="Hevikvatna" />
		<tag k="natural" v="water" />
		<tag k="ssr:stedsnr" v="897035" />
	</node>
	<node lat="64.60668333414885" lon="11.390572217213375" id="-35260">
		<tag k="name" v="Storelva" />
		<tag k="ssr:stedsnr" v="897466" />
		<tag k="waterway" v="river" />
	</node>
	<node lat="64.61396944540768" lon="11.513463879685334" id="-35267">
		<tag k="name" v="Tiurbekken" />
		<tag k="ssr:stedsnr" v="897689" />
		<tag k="waterway" v="stream" />
	</node>
	<node lat="64.5944722206017" lon="11.682111121006066" id="-35286">
		<tag k="name" v="Langstrandelva" />
		<tag k="ssr:stedsnr" v="898269" />
		<tag k="waterway" v="stream" />
	</node>
	<node lat="64.52010555595785" lon="11.178116667526762" id="-35295">
		<tag k="name" v="Sandflya" />
		<tag k="natural" v="water" />
		<tag k="ssr:stedsnr" v="898443" />
	</node>
	<node lat="64.16649999895931" lon="10.83761111630988" id="-35296">
		<tag k="name" v="Storneset" />
		<tag k="natural" v="cape" />
		<tag k="ssr:stedsnr" v="898489" />
	</node>
	<node lat="64.28542500044057" lon="11.475866658041108" id="-35314">
		<tag k="name" v="Bustholtjønna" />
		<tag k="natural" v="water" />
		<tag k="ssr:stedsnr" v="898622" />
	</node>
	<node lat="64.63146667103409" lon="11.474638882071822" id="-35329">
		<tag k="name" v="Dyrvadet" />
		<tag k="natural" v="strait" />
		<tag k="ssr:stedsnr" v="714684" />
	</node>
	<node lat="64.33377221914773" lon="11.460972224265598" id="-35334">
		<tag k="name" v="Kakatjønna" />
		<tag k="natural" v="water" />
		<tag k="ssr:stedsnr" v="898824" />
	</node>
	<node lat="64.67140555877153" lon="11.197200006648792" id="-35337">
		<tag k="name" v="Stortjønna" />
		<tag k="natural" v="water" />
		<tag k="ssr:stedsnr" v="714879" />
	</node>
	<node lat="64.6743055586108" lon="11.545716661166583" id="-35341">
		<tag k="name" v="Ner Råfjellvatnet" />
		<tag k="natural" v="water" />
		<tag k="ssr:stedsnr" v="898749" />
	</node>
	<node lat="64.36559166993705" lon="11.507552769450166" id="-35348">
		<tag k="name" v="Seterengbekken" />
		<tag k="ssr:stedsnr" v="898835" />
		<tag k="waterway" v="stream" />
	</node>
	<node lat="64.48564999724455" lon="11.146030548293014" id="-35350">
		<tag k="name" v="Stubbneset" />
		<tag k="natural" v="cape" />
		<tag k="ssr:stedsnr" v="715404" />
	</node>
	<node lat="64.19041389105891" lon="11.008952787551166" id="-35353">
		<tag k="name" v="Tometangen" />
		<tag k="natural" v="cape" />
		<tag k="ssr:stedsnr" v="715531" />
	</node>
	<node lat="64.61291110687726" lon="11.688466671972812" id="-35360">
		<tag k="name" v="Langlibekken" />
		<tag k="ssr:stedsnr" v="716304" />
		<tag k="waterway" v="stream" />
	</node>
	<node lat="64.54665000363399" lon="11.162988897252779" id="-35364">
		<tag k="name" v="Langvindskrokdalsvatnet" />
		<tag k="natural" v="water" />
		<tag k="ssr:stedsnr" v="716472" />
	</node>
	<node lat="64.3698833315339" lon="11.60897777461768" id="-35368">
		<tag k="name" v="Lomtjønna" />
		<tag k="natural" v="water" />
		<tag k="ssr:stedsnr" v="716490" />
	</node>
	<node lat="64.26036944721396" lon="10.970586111394152" id="-35374">
		<tag k="name" v="Urtjønnbekken" />
		<tag k="ssr:stedsnr" v="716832" />
		<tag k="waterway" v="stream" />
	</node>
	<node lat="64.68577221849041" lon="11.550358338015382" id="-35398">
		<tag k="name" v="Dumåltjønna" />
		<tag k="natural" v="water" />
		<tag k="ssr:stedsnr" v="900468" />
	</node>
	<node lat="64.3390472180065" lon="11.183166664703057" id="-35415">
		<tag k="name" v="Vakkermyrvatnet" />
		<tag k="natural" v="water" />
		<tag k="ssr:stedsnr" v="742311" />
	</node>
	<node lat="64.67047499764477" lon="11.391950008676758" id="-35416">
		<tag k="alt_name" v="Varpvikvatna" />
		<tag k="name" v="Varpvikvatnet" />
		<tag k="natural" v="water" />
		<tag k="ssr:stedsnr" v="742334" />
	</node>
	<node lat="64.67101111366321" lon="11.314780555192945" id="-35418">
		<tag k="name" v="Gammelkvernvatnet" />
		<tag k="natural" v="water" />
		<tag k="ssr:stedsnr" v="742340" />
	</node>
	<node lat="64.61661388654939" lon="11.641591662299154" id="-35419">
		<tag k="name" v="Ausvatnet" />
		<tag k="natural" v="water" />
		<tag k="ssr:stedsnr" v="742439" />
		<tag k="water" v="lake" />
	</node>
	<node lat="64.17660000372265" lon="10.908300001540335" id="-35423">
		<tag k="name" v="Selja" />
		<tag k="ssr:stedsnr" v="742539" />
		<tag k="waterway" v="river" />
	</node>
	<node lat="64.13026111523281" lon="10.821452776047726" id="-35426">
		<tag k="name" v="Stornesvatnet - Dåapmajaevrie" />
		<tag k="name:no" v="Stornesvatnet" />
		<tag k="name:sma" v="Dåapmajaevrie" />
		<tag k="natural" v="water" />
		<tag k="ssr:stedsnr" v="742601" />
	</node>
	<node lat="64.2786944486124" lon="11.251250004360712" id="-35428">
		<tag k="name" v="Burstjønna" />
		<tag k="natural" v="water" />
		<tag k="ssr:stedsnr" v="742811" />
	</node>
	<node lat="64.2840277751448" lon="11.531791660768707" id="-35429">
		<tag k="name" v="Middagsbekken" />
		<tag k="ssr:stedsnr" v="742812" />
		<tag k="waterway" v="stream" />
	</node>
	<node lat="64.33445833505601" lon="11.437330562047002" id="-35431">
		<tag k="name" v="Singsvatnet" />
		<tag k="natural" v="water" />
		<tag k="ssr:stedsnr" v="742880" />
	</node>
	<node lat="64.2453833369191" lon="11.45267499851946" id="-35435">
		<tag k="name" v="Svartelva" />
		<tag k="ssr:stedsnr" v="742782" />
		<tag k="waterway" v="river" />
	</node>
	<node lat="64.35068055180581" lon="11.606949990118212" id="-35439">
		<tag k="name" v="Spjøtvassbekken" />
		<tag k="ssr:stedsnr" v="742983" />
		<tag k="waterway" v="stream" />
	</node>
	<node lat="64.70453611150263" lon="11.5443388846134" id="-35444">
		<tag k="alt_name" v="Døranesset" />
		<tag k="name" v="Døraneset" />
		<tag k="natural" v="cape" />
		<tag k="ssr:stedsnr" v="743283" />
	</node>
	<node lat="64.53768610886299" lon="11.346830549048615" id="-35465">
		<tag k="name" v="Sagbekken" />
		<tag k="ssr:stedsnr" v="757746" />
		<tag k="waterway" v="stream" />
	</node>
	<node lat="64.23865555353663" lon="11.330894448434671" id="-35470">
		<tag k="name" v="Hølbekken" />
		<tag k="ssr:stedsnr" v="766309" />
		<tag k="waterway" v="stream" />
	</node>
	<node lat="64.16979722549516" lon="11.224969439620665" id="-35472">
		<tag k="name" v="Hømmelstranda" />
		<tag k="natural" v="cape" />
		<tag k="ssr:stedsnr" v="766367" />
	</node>
	<node lat="64.26841666328428" lon="11.268466663805423" id="-35476">
		<tag k="name" v="Grindabekken" />
		<tag k="ssr:stedsnr" v="767200" />
		<tag k="waterway" v="stream" />
	</node>
	<node lat="64.405325001766" lon="11.574388898520453" id="-35487">
		<tag k="name" v="Spjølvassbekken" />
		<tag k="ssr:stedsnr" v="775459" />
		<tag k="waterway" v="river" />
	</node>
	<node lat="64.43444444441677" lon="11.634069438926739" id="-35488">
		<tag k="name" v="Svarttjønna" />
		<tag k="natural" v="water" />
		<tag k="ssr:stedsnr" v="775352" />
	</node>
	<node lat="64.60732500400826" lon="11.499522220976106" id="-35492">
		<tag k="name" v="Storgranvika" />
		<tag k="natural" v="bay" />
		<tag k="ssr:stedsnr" v="775671" />
	</node>
	<node lat="64.56323333737738" lon="11.403899991347831" id="-35511">
		<tag k="name" v="Lomtjønna" />
		<tag k="natural" v="water" />
		<tag k="ssr:stedsnr" v="776607" />
	</node>
	<node lat="64.29731666833715" lon="11.072736101503219" id="-35517">
		<tag k="name" v="Hundtjønna" />
		<tag k="natural" v="water" />
		<tag k="ssr:stedsnr" v="776858" />
	</node>
	<node lat="64.75020833613699" lon="11.958208334994152" id="-35520">
		<tag k="name" v="Loddovika" />
		<tag k="natural" v="bay" />
		<tag k="ssr:stedsnr" v="778019" />
	</node>
	<node lat="64.75375555474679" lon="12.014586119152039" id="-35528">
		<tag k="name" v="Storvikbekken" />
		<tag k="ssr:stedsnr" v="778100" />
		<tag k="waterway" v="stream" />
	</node>
	<node lat="64.42512500190655" lon="11.13044999278735" id="-35540">
		<tag k="fixme" v="multiple name tags, choose one and add the other to alt_name" />
		<tag k="name" v="Tøttdalsvatnet;Demningsvatnet" />
		<tag k="natural" v="water" />
		<tag k="ssr:stedsnr" v="803303" />
	</node>
	<node lat="64.6781055511872" lon="11.61113611088528" id="-35542">
		<tag k="name" v="Fossbekken" />
		<tag k="ssr:stedsnr" v="803379" />
		<tag k="waterway" v="stream" />
	</node>
	<node lat="64.33307222132024" lon="11.187416662768035" id="-35543">
		<tag k="name" v="Øver-Hevikvatnet" />
		<tag k="natural" v="water" />
		<tag k="ssr:stedsnr" v="803315" />
	</node>
	<node lat="64.71967499857084" lon="11.498491657839844" id="-35551">
		<tag k="name" v="Sørbekken" />
		<tag k="ssr:stedsnr" v="803270" />
		<tag k="waterway" v="stream" />
	</node>
	<node lat="64.60518610887688" lon="11.417738897329334" id="-35556">
		<tag k="name" v="Klubbvatnet" />
		<tag k="natural" v="water" />
		<tag k="ssr:stedsnr" v="803461" />
	</node>
	<node lat="64.21632500308672" lon="11.090999992258725" id="-35560">
		<tag k="name" v="Svartmotjønna" />
		<tag k="natural" v="water" />
		<tag k="ssr:stedsnr" v="803664" />
	</node>
	<node lat="64.56256110777184" lon="11.441499990577304" id="-35571">
		<tag k="name" v="Lomtjønna" />
		<tag k="natural" v="water" />
		<tag k="ssr:stedsnr" v="804014" />
	</node>
	<node lat="64.6991388900426" lon="11.689105557452713" id="-35577">
		<tag k="name" v="Hjelplausvika" />
		<tag k="natural" v="bay" />
		<tag k="ssr:stedsnr" v="804308" />
	</node>
	<node lat="64.48069166687081" lon="11.626786103206454" id="-35579">
		<tag k="alt_name" v="Tretvika" />
		<tag k="name" v="Trettvika" />
		<tag k="natural" v="bay" />
		<tag k="ssr:stedsnr" v="811328" />
	</node>
	<node lat="64.26500277574117" lon="11.299802776117208" id="-35587">
		<tag k="name" v="Tarmbekken" />
		<tag k="ssr:stedsnr" v="826216" />
		<tag k="waterway" v="stream" />
	</node>
	<node lat="64.19354444486028" lon="11.278558342954843" id="-35596">
		<tag k="name" v="Rossetbekken" />
		<tag k="ssr:stedsnr" v="828314" />
		<tag k="waterway" v="stream" />
	</node>
	<node lat="64.43669166833293" lon="11.544150000836341" id="-35604">
		<tag k="name" v="Ogntjønna" />
		<tag k="natural" v="water" />
		<tag k="ssr:stedsnr" v="924080" />
	</node>
	<node lat="64.3070888930116" lon="11.112988887112177" id="-35610">
		<tag k="name" v="Øvre Steintjønnin" />
		<tag k="natural" v="water" />
		<tag k="ssr:stedsnr" v="924148" />
	</node>
	<node lat="64.48539444570352" lon="11.575491660763868" id="-35613">
		<tag k="name" v="Ålbergelva" />
		<tag k="ssr:stedsnr" v="924185" />
		<tag k="waterway" v="stream" />
	</node>
	<node lat="64.48698611513944" lon="11.484949998359042" id="-35614">
		<tag k="name" v="Toddombekken" />
		<tag k="ssr:stedsnr" v="924189" />
		<tag k="waterway" v="stream" />
	</node>
	<node lat="64.25504721835048" lon="11.091174990191385" id="-35616">
		<tag k="name" v="Kvernbekken" />
		<tag k="ssr:stedsnr" v="924205" />
		<tag k="waterway" v="stream" />
	</node>
	<node lat="64.40081006456712" lon="11.638182681453882" id="-35622">
		<tag k="name" v="Spillumssetertjønna" />
		<tag k="natural" v="water" />
		<tag k="ssr:stedsnr" v="836327" />
	</node>
	<node lat="64.60161388979185" lon="11.49534722343081" id="-35629">
		<tag k="name" v="Skjærivassdammen" />
		<tag k="ssr:stedsnr" v="836677" />
		<tag k="waterway" v="dam" />
	</node>
	<node lat="64.6099777742222" lon="11.513450006217505" id="-35630">
		<tag k="name" v="Båtsettet" />
		<tag k="place" v="locality" />
		<tag k="ssr:stedsnr" v="836685" />
	</node>
	<node lat="64.64548889183885" lon="11.277649992512162" id="-35638">
		<tag k="name" v="Tørrnesset" />
		<tag k="natural" v="cape" />
		<tag k="ssr:stedsnr" v="836989" />
	</node>
	<node lat="64.29821944787123" lon="11.265255563974657" id="-35646">
		<tag k="name" v="Storheibekken" />
		<tag k="ssr:stedsnr" v="837334" />
		<tag k="waterway" v="stream" />
	</node>
	<node lat="64.46399444564433" lon="11.10334166877813" id="-35647">
		<tag k="name" v="Prinsen" />
		<tag k="place" v="islet" />
		<tag k="ssr:stedsnr" v="837375" />
	</node>
	<node lat="64.65008611093947" lon="11.828738898055471" id="-35653">
		<tag k="name" v="Kjøpmannsnesset" />
		<tag k="natural" v="cape" />
		<tag k="ssr:stedsnr" v="837410" />
	</node>
	<node lat="64.57044167038302" lon="11.1994888903806" id="-35659">
		<tag k="name" v="Storelva" />
		<tag k="ssr:stedsnr" v="837578" />
		<tag k="waterway" v="river" />
	</node>
	<node lat="64.57475833057465" lon="11.364330555903496" id="-35660">
		<tag k="name" v="Tuvavatnet" />
		<tag k="natural" v="water" />
		<tag k="ssr:stedsnr" v="837595" />
	</node>
	<node lat="64.20322221906125" lon="11.411622225305518" id="-35667">
		<tag k="name" v="Langtangen" />
		<tag k="natural" v="cape" />
		<tag k="ssr:stedsnr" v="837690" />
	</node>
	<node lat="64.23385833702055" lon="11.041924992296" id="-35679">
		<tag k="name" v="Valørtangen" />
		<tag k="natural" v="cape" />
		<tag k="ssr:stedsnr" v="837990" />
	</node>
	<node lat="64.23776389142247" lon="11.010144442570056" id="-35680">
		<tag k="name" v="Blåvassbekken" />
		<tag k="ssr:stedsnr" v="837993" />
		<tag k="waterway" v="stream" />
	</node>
	<node lat="64.14550555505767" lon="10.83836387935368" id="-35683">
		<tag k="name" v="Høgkolvbekken" />
		<tag k="ssr:stedsnr" v="924587" />
		<tag k="waterway" v="stream" />
	</node>
	<node lat="64.15404166842472" lon="10.996086103473214" id="-35684">
		<tag k="name" v="Middagstjønna" />
		<tag k="natural" v="water" />
		<tag k="ssr:stedsnr" v="924588" />
	</node>
	<node lat="64.76690555141681" lon="12.033375008252026" id="-35696">
		<tag k="name" v="Jutulnesset" />
		<tag k="natural" v="cape" />
		<tag k="ssr:stedsnr" v="839104" />
	</node>
	<node lat="64.73440277679482" lon="11.525125002361241" id="-35700">
		<tag k="name" v="Øset" />
		<tag k="natural" v="bay" />
		<tag k="ssr:stedsnr" v="839514" />
	</node>
	<node lat="64.20187222210913" lon="10.99155833175122" id="-35705">
		<tag k="name" v="Tømmertjønna" />
		<tag k="natural" v="water" />
		<tag k="ssr:stedsnr" v="924641" />
	</node>
	<node lat="64.213427780815" lon="11.156325001671645" id="-35706">
		<tag k="name" v="Stavenbekken" />
		<tag k="ssr:stedsnr" v="924652" />
		<tag k="waterway" v="stream" />
	</node>
	<node lat="64.25030833134761" lon="10.989261101274163" id="-35712">
		<tag k="name" v="Svartlona" />
		<tag k="natural" v="water" />
		<tag k="ssr:stedsnr" v="924723" />
		<tag k="water" v="lake" />
	</node>
	<node lat="64.33742778194652" lon="11.457411109842036" id="-35716">
		<tag k="name" v="Nøkkeltjønna" />
		<tag k="natural" v="water" />
		<tag k="ssr:stedsnr" v="924885" />
	</node>
	<node lat="64.77575555803062" lon="12.067366658388355" id="-35718">
		<tag k="alt_name" v="Kvernvasselva" />
		<tag k="name" v="Kvennvasselva" />
		<tag k="ssr:stedsnr" v="924887" />
		<tag k="waterway" v="stream" />
	</node>
	<node lat="64.25388888633705" lon="11.482888888891775" id="-35721">
		<tag k="name" v="Flåbekktjønna" />
		<tag k="natural" v="water" />
		<tag k="ssr:stedsnr" v="924834" />
	</node>
	<node lat="64.29575000208739" lon="11.39560277931822" id="-35724">
		<tag k="name" v="Sølvbergtjønna" />
		<tag k="natural" v="water" />
		<tag k="ssr:stedsnr" v="924898" />
	</node>
	<node lat="64.22178889340606" lon="11.30373610878464" id="-35725">
		<tag k="name" v="Tjønnsvatnet" />
		<tag k="natural" v="water" />
		<tag k="ssr:stedsnr" v="924899" />
	</node>
	<node lat="64.72383055572946" lon="11.944450001065881" id="-35752">
		<tag k="name" v="Bjørndalselva" />
		<tag k="ssr:stedsnr" v="925222" />
		<tag k="waterway" v="stream" />
	</node>
	<node lat="64.73864520314177" lon="11.949400421352307" id="-35753">
		<tag k="name" v="Auntjønna" />
		<tag k="natural" v="water" />
		<tag k="ssr:stedsnr" v="925223" />
	</node>
	<node lat="64.74344721939642" lon="12.127849997339737" id="-35755">
		<tag k="name" v="Urdåtjønna" />
		<tag k="natural" v="water" />
		<tag k="ssr:stedsnr" v="925263" />
	</node>
	<node lat="64.74528055919492" lon="11.910652774723973" id="-35756">
		<tag k="name" v="Straumatjønna" />
		<tag k="natural" v="water" />
		<tag k="ssr:stedsnr" v="925251" />
	</node>
	<node lat="64.7471749980246" lon="11.934633339754132" id="-35757">
		<tag k="alt_name" v="Forronessodden" />
		<tag k="name" v="Furunesodden" />
		<tag k="natural" v="cape" />
		<tag k="ssr:stedsnr" v="925253" />
	</node>
	<node lat="64.74482499771021" lon="11.776425002032735" id="-35758">
		<tag k="name" v="Storvikbekken" />
		<tag k="ssr:stedsnr" v="925256" />
		<tag k="waterway" v="stream" />
	</node>
	<node lat="64.7367083333071" lon="11.776700003334549" id="-35760">
		<tag k="alt_name" v="Skravelvika" />
		<tag k="name" v="Skrovelvika" />
		<tag k="natural" v="bay" />
		<tag k="ssr:stedsnr" v="925261" />
	</node>
	<node lat="64.67115555957098" lon="11.694255552996292" id="-35761">
		<tag k="name" v="Skogodden" />
		<tag k="natural" v="cape" />
		<tag k="ssr:stedsnr" v="925372" />
	</node>
	<node lat="64.66960833391306" lon="11.623941662679929" id="-35762">
		<tag k="name" v="Ambudalsholmen" />
		<tag k="place" v="islet" />
		<tag k="ssr:stedsnr" v="925373" />
	</node>
	<node lat="64.64754167094357" lon="11.697255548516356" id="-35769">
		<tag k="name" v="Haukvatnet" />
		<tag k="natural" v="water" />
		<tag k="ssr:stedsnr" v="925449" />
	</node>
	<node lat="64.64214999934919" lon="11.659277767545339" id="-35771">
		<tag k="name" v="Røyklitjønna" />
		<tag k="natural" v="water" />
		<tag k="ssr:stedsnr" v="925463" />
	</node>
	<node lat="64.6062888872242" lon="11.52350000425901" id="-35774">
		<tag k="name" v="Sagvatnet" />
		<tag k="natural" v="water" />
		<tag k="ssr:stedsnr" v="925533" />
		<tag k="water" v="lake" />
	</node>
	<node lat="64.54021389295853" lon="11.211050006655334" id="-35778">
		<tag k="name" v="Storåvatnet" />
		<tag k="natural" v="water" />
		<tag k="ssr:stedsnr" v="925688" />
	</node>
	<node lat="64.55921110801431" lon="11.73463611683" id="-35781">
		<tag k="name" v="Lomtjønna" />
		<tag k="natural" v="water" />
		<tag k="ssr:stedsnr" v="925850" />
	</node>
	<node lat="64.4299138910645" lon="11.314794441794954" id="-35787">
		<tag k="name" v="Storelva" />
		<tag k="ssr:stedsnr" v="863089" />
		<tag k="waterway" v="stream" />
	</node>
	<node lat="64.46250000176778" lon="11.741666676112082" id="-35788">
		<tag k="name" v="Namsen - Nååmesje" />
		<tag k="name:no" v="Namsen" />
		<tag k="name:sma" v="Nååmesje" />
		<tag k="ssr:stedsnr" v="863214" />
		<tag k="waterway" v="river" />
	</node>
	<node lat="64.38765833419926" lon="11.112024997248817" id="-35789">
		<tag k="name" v="Lissgravhaugvatnet" />
		<tag k="natural" v="water" />
		<tag k="ssr:stedsnr" v="863246" />
	</node>
	<node lat="64.15247222437905" lon="11.027830553007721" id="-35797">
		<tag k="name" v="Holmvikbekken" />
		<tag k="ssr:stedsnr" v="863618" />
		<tag k="waterway" v="stream" />
	</node>
	<node lat="64.21164444116114" lon="11.452511113174133" id="-35800">
		<tag k="name" v="Langsetertjønna" />
		<tag k="natural" v="water" />
		<tag k="ssr:stedsnr" v="863910" />
	</node>
	<node lat="64.57639166809872" lon="11.462766657042817" id="-35810">
		<tag k="name" v="Trettengelva" />
		<tag k="ssr:stedsnr" v="864025" />
		<tag k="waterway" v="stream" />
	</node>
	<node lat="64.5761638895799" lon="11.428783330817925" id="-35811">
		<tag k="name" v="Sandvatnet" />
		<tag k="natural" v="water" />
		<tag k="ssr:stedsnr" v="864027" />
	</node>
	<node lat="64.42464166896157" lon="11.581650006693566" id="-35815">
		<tag k="name" v="Fiskløysa" />
		<tag k="natural" v="water" />
		<tag k="ssr:stedsnr" v="864107" />
		<tag k="water" v="lake" />
	</node>
	<node lat="64.50921388903419" lon="11.324405565016532" id="-35817">
		<tag k="name" v="Listitjønna" />
		<tag k="natural" v="water" />
		<tag k="ssr:stedsnr" v="864115" />
	</node>
	<node lat="64.51685278171043" lon="11.302130551987593" id="-35818">
		<tag k="name" v="Litlelva" />
		<tag k="ssr:stedsnr" v="864116" />
		<tag k="waterway" v="stream" />
	</node>
	<node lat="64.66551388831525" lon="11.652133330681433" id="-35821">
		<tag k="name" v="Tømmervika" />
		<tag k="natural" v="bay" />
		<tag k="ssr:stedsnr" v="864342" />
	</node>
	<node lat="64.73532499611365" lon="11.821652782895692" id="-35828">
		<tag k="name" v="Leisåkholman" />
		<tag k="place" v="islet" />
		<tag k="ssr:stedsnr" v="864241" />
	</node>
	<node lat="64.4885222255403" lon="11.585719439133767" id="-35832">
		<tag k="name" v="Svarttjønna" />
		<tag k="natural" v="water" />
		<tag k="ssr:stedsnr" v="864251" />
	</node>
	<node lat="64.50584950280941" lon="11.533105666718539" id="-35834">
		<tag k="name" v="Otertjønna" />
		<tag k="natural" v="water" />
		<tag k="ssr:stedsnr" v="864254" />
	</node>
	<node lat="64.50293055356781" lon="11.54543610306358" id="-35835">
		<tag k="name" v="Alhusvatnet" />
		<tag k="natural" v="water" />
		<tag k="ssr:stedsnr" v="864256" />
	</node>
	<node lat="64.68314166985473" lon="11.65555555847754" id="-35836">
		<tag k="name" v="Hannaneset" />
		<tag k="natural" v="cape" />
		<tag k="ssr:stedsnr" v="864404" />
	</node>
	<node lat="64.67614444603097" lon="11.64671666144406" id="-35837">
		<tag k="name" v="Breivika" />
		<tag k="natural" v="water" />
		<tag k="ssr:stedsnr" v="864405" />
	</node>
	<node lat="64.22716944052868" lon="11.20765278431218" id="-35854">
		<tag k="name" v="Stokkbekken" />
		<tag k="ssr:stedsnr" v="888210" />
		<tag k="waterway" v="stream" />
	</node>
	<node lat="64.23183888454753" lon="11.239902787181961" id="-35855">
		<tag k="name" v="Karibekken" />
		<tag k="ssr:stedsnr" v="888214" />
		<tag k="waterway" v="stream" />
	</node>
	<node lat="64.59975833582442" lon="11.209463892457723" id="-35872">
		<tag k="name" v="Langvatnet" />
		<tag k="natural" v="water" />
		<tag k="ssr:stedsnr" v="897554" />
	</node>
	<node lat="64.63938333201543" lon="11.30224999626048" id="-35877">
		<tag k="name" v="Gjessetbekken" />
		<tag k="ssr:stedsnr" v="897954" />
		<tag k="waterway" v="stream" />
	</node>
	<node lat="64.60446666765735" lon="11.635061101414903" id="-35883">
		<tag k="name" v="Beradalbekken" />
		<tag k="ssr:stedsnr" v="898709" />
		<tag k="waterway" v="stream" />
	</node>
	<node lat="64.59200832980989" lon="11.62743887832171" id="-35884">
		<tag k="name" v="Fosselva" />
		<tag k="ssr:stedsnr" v="898712" />
		<tag k="waterway" v="stream" />
	</node>
	<node lat="64.29851666266921" lon="11.144702780814983" id="-35891">
		<tag k="name" v="Fugltjønna" />
		<tag k="natural" v="water" />
		<tag k="ssr:stedsnr" v="898807" />
	</node>
	<node lat="64.3305305519904" lon="11.14668889715345" id="-35893">
		<tag k="name" v="Kallhammarvatna" />
		<tag k="natural" v="water" />
		<tag k="ssr:stedsnr" v="898811" />
		<tag k="water" v="lake" />
	</node>
	<node lat="64.30032222147307" lon="11.080169441939276" id="-35895">
		<tag k="name" v="Auritjønnbekken" />
		<tag k="ssr:stedsnr" v="898858" />
		<tag k="waterway" v="stream" />
	</node>
	<node lat="64.31868332967802" lon="11.366152769183328" id="-35898">
		<tag k="name" v="Litlelva" />
		<tag k="ssr:stedsnr" v="899361" />
		<tag k="waterway" v="river" />
	</node>
	<node lat="64.33827777533858" lon="11.427825010079657" id="-35899">
		<tag k="name" v="Singsbekken" />
		<tag k="ssr:stedsnr" v="899819" />
		<tag k="waterway" v="stream" />
	</node>
	<node lat="64.73872499773687" lon="11.88978332740168" id="-35901">
		<tag k="name" v="Litløysundet" />
		<tag k="natural" v="strait" />
		<tag k="ssr:stedsnr" v="900005" />
	</node>
	<node lat="64.7581611128466" lon="12.047174993017544" id="-35902">
		<tag k="name" v="Litlviktjønna" />
		<tag k="natural" v="water" />
		<tag k="ssr:stedsnr" v="900105" />
	</node>
	<node lat="64.73754722566858" lon="11.561599990572228" id="-35910">
		<tag k="name" v="Oldervika" />
		<tag k="natural" v="bay" />
		<tag k="ssr:stedsnr" v="900509" />
	</node>
	<node lat="64.256855559603" lon="10.974761102623097" id="-35918">
		<tag k="name" v="Svartlona" />
		<tag k="place" v="locality" />
		<tag k="ssr:stedsnr" v="924120" />
	</node>
	<node lat="64.3594283065172" lon="11.09217722069061" id="-35924">
		<tag k="name" v="Sandvatnet" />
		<tag k="natural" v="water" />
		<tag k="ssr:stedsnr" v="924338" />
	</node>
	<node lat="64.42484721956734" lon="11.032277787769017" id="-35928">
		<tag k="name" v="Gårdsetervatnet" />
		<tag k="natural" v="water" />
		<tag k="ssr:stedsnr" v="924423" />
		<tag k="water" v="lake" />
	</node>
	<node lat="64.16740278211182" lon="11.025813890272063" id="-35933">
		<tag k="name" v="Bjørnaholmen" />
		<tag k="place" v="islet" />
		<tag k="ssr:stedsnr" v="924569" />
	</node>
	<node lat="64.23740000023145" lon="11.113200008455717" id="-35938">
		<tag k="alt_name" v="Høibekken" />
		<tag k="name" v="Holbekken" />
		<tag k="ssr:stedsnr" v="924620" />
		<tag k="waterway" v="stream" />
	</node>
	<node lat="64.19043888438026" lon="11.053402782391695" id="-35939">
		<tag k="name" v="Bjørbekken" />
		<tag k="ssr:stedsnr" v="924667" />
		<tag k="waterway" v="stream" />
	</node>
	<node lat="64.22618889325405" lon="11.32072222268808" id="-35945">
		<tag k="name" v="Lomtjønna" />
		<tag k="natural" v="water" />
		<tag k="ssr:stedsnr" v="924911" />
	</node>
	<node lat="64.36246111246136" lon="11.454111119030742" id="-35952">
		<tag k="name" v="Bjørktjønna" />
		<tag k="natural" v="water" />
		<tag k="ssr:stedsnr" v="924999" />
	</node>
	<node lat="64.32685555646641" lon="11.461763882871947" id="-35956">
		<tag k="name" v="Midterdjupvatnet" />
		<tag k="natural" v="water" />
		<tag k="ssr:stedsnr" v="924869" />
	</node>
	<node lat="64.70680277516334" lon="11.72773333658003" id="-35962">
		<tag k="alt_name" v="Geisnessbukta" />
		<tag k="name" v="Geisnesbukta" />
		<tag k="natural" v="bay" />
		<tag k="ssr:stedsnr" v="925205" />
	</node>
	<node lat="64.69536388936832" lon="11.509405556192739" id="-35966">
		<tag k="name" v="Sekkvika" />
		<tag k="natural" v="bay" />
		<tag k="ssr:stedsnr" v="925318" />
	</node>
	<node lat="64.70003611156513" lon="11.527236121169334" id="-35968">
		<tag k="name" v="Sellivika" />
		<tag k="natural" v="bay" />
		<tag k="ssr:stedsnr" v="925322" />
	</node>
	<node lat="64.3642083334717" lon="11.249061118484976" id="-35989">
		<tag k="name" v="Flobekken" />
		<tag k="ssr:stedsnr" v="948183" />
		<tag k="waterway" v="stream" />
	</node>
	<node lat="64.26403611498803" lon="11.199591673661372" id="-35996">
		<tag k="name" v="Storneset" />
		<tag k="natural" v="cape" />
		<tag k="ssr:stedsnr" v="949214" />
	</node>
	<node lat="64.26218611051702" lon="11.186830557501311" id="-35997">
		<tag k="name" v="Malenaholet" />
		<tag k="place" v="locality" />
		<tag k="ssr:stedsnr" v="949225" />
	</node>
	<node lat="64.23926666339104" lon="11.349750006307248" id="-36000">
		<tag k="name" v="Tornesa" />
		<tag k="natural" v="cape" />
		<tag k="ssr:stedsnr" v="949286" />
	</node>
	<node lat="64.60822222684958" lon="11.3270555471526" id="-36014">
		<tag k="name" v="Skittenvassbekken" />
		<tag k="ssr:stedsnr" v="957593" />
		<tag k="waterway" v="stream" />
	</node>
	<node lat="64.61107777504216" lon="11.50025556337903" id="-36015">
		<tag k="name" v="Rørskjæret" />
		<tag k="place" v="islet" />
		<tag k="ssr:stedsnr" v="957727" />
	</node>
	<node lat="64.59821944347443" lon="11.513233337473995" id="-36017">
		<tag k="name" v="Båtsettet" />
		<tag k="place" v="locality" />
		<tag k="ssr:stedsnr" v="957693" />
	</node>
	<node lat="64.65384721837427" lon="11.308188897880903" id="-36019">
		<tag k="name" v="Namdalsbekken" />
		<tag k="ssr:stedsnr" v="957941" />
		<tag k="waterway" v="stream" />
	</node>
	<node lat="64.63199722635875" lon="11.084136119169527" id="-36025">
		<tag k="name" v="Øset" />
		<tag k="natural" v="bay" />
		<tag k="ssr:stedsnr" v="958526" />
	</node>
	<node lat="64.16777499827901" lon="10.876969447653874" id="-36027">
		<tag k="name" v="Joneset" />
		<tag k="natural" v="cape" />
		<tag k="ssr:stedsnr" v="958532" />
	</node>
	<node lat="64.17696666734575" lon="11.05580833561877" id="-36029">
		<tag k="name" v="Lissvassbekken" />
		<tag k="ssr:stedsnr" v="958539" />
		<tag k="waterway" v="stream" />
	</node>
	<node lat="64.64899721906099" lon="11.813816662018942" id="-36030">
		<tag k="name" v="Stornestjønna" />
		<tag k="natural" v="water" />
		<tag k="ssr:stedsnr" v="958421" />
	</node>
	<node lat="64.42051944733947" lon="11.190008327538935" id="-36034">
		<tag k="name" v="Sjøholmen" />
		<tag k="place" v="islet" />
		<tag k="ssr:stedsnr" v="958810" />
	</node>
	<node lat="64.29429722477822" lon="11.72581666706132" id="-36036">
		<tag k="name" v="Spillumsbekken" />
		<tag k="ssr:stedsnr" v="959094" />
		<tag k="waterway" v="stream" />
	</node>
	<node lat="64.66597221842423" lon="11.624022212434891" id="-36044">
		<tag k="name" v="Aurebekken" />
		<tag k="ssr:stedsnr" v="959706" />
		<tag k="waterway" v="stream" />
	</node>
	<node lat="64.75711388530706" lon="11.994513896493777" id="-36051">
		<tag k="name" v="Skjæra" />
		<tag k="place" v="islet" />
		<tag k="ssr:stedsnr" v="960091" />
	</node>
	<node lat="64.45359167108687" lon="11.05741667042671" id="-36109">
		<tag k="name" v="Svarttjønna" />
		<tag k="natural" v="water" />
		<tag k="ssr:stedsnr" v="13500" />
	</node>
	<node lat="64.59191944696875" lon="11.395452775563669" id="-36114">
		<tag k="alt_name" v="Brudalsvatnet" />
		<tag k="name" v="Brudalvatnet" />
		<tag k="natural" v="water" />
		<tag k="ssr:stedsnr" v="14389" />
	</node>
	<node lat="64.3806944464388" lon="11.587269435256658" id="-36120">
		<tag k="name" v="Fiskløysa" />
		<tag k="natural" v="water" />
		<tag k="ssr:stedsnr" v="13956" />
		<tag k="water" v="lake" />
	</node>
	<node lat="64.5859099887324" lon="11.524657254966156" id="-36124">
		<tag k="name" v="Kjettvatnet" />
		<tag k="natural" v="water" />
		<tag k="old_name" v="Skjettvatnet" />
		<tag k="ssr:stedsnr" v="14027" />
	</node>
	<node lat="64.405594440634" lon="11.259899993373978" id="-36128">
		<tag k="name" v="Bjørkvatnet" />
		<tag k="natural" v="water" />
		<tag k="ssr:stedsnr" v="14054" />
	</node>
	<node lat="64.2784083332857" lon="10.972594445131602" id="-36130">
		<tag k="loc_name:no" v="Bjørnfarvatnet" />
		<tag k="name" v="Bjørfarvatnet - Njuanajaevrie" />
		<tag k="name:no" v="Bjørfarvatnet" />
		<tag k="name:sma" v="Njuanajaevrie" />
		<tag k="natural" v="water" />
		<tag k="ssr:stedsnr" v="14109" />
		<tag k="water" v="lake" />
	</node>
	<node lat="64.50976110931936" lon="11.343994437013828" id="-36131">
		<tag k="name" v="Svartvatnet" />
		<tag k="natural" v="water" />
		<tag k="ssr:stedsnr" v="14110" />
	</node>
	<node lat="64.30435000104431" lon="11.269780546384295" id="-36132">
		<tag k="name" v="Brattlivatnet" />
		<tag k="natural" v="water" />
		<tag k="ssr:stedsnr" v="13898" />
	</node>
	<node lat="64.50938611036871" lon="11.414491669237803" id="-36140">
		<tag k="name" v="Rapfjellvatnet" />
		<tag k="natural" v="water" />
		<tag k="ssr:stedsnr" v="14117" />
	</node>
	<node lat="64.72358055240646" lon="11.623586114428734" id="-36145">
		<tag k="name" v="Valdskiftbekken" />
		<tag k="ssr:stedsnr" v="15331" />
		<tag k="waterway" v="stream" />
	</node>
	<node lat="64.72359722035209" lon="11.684458324673932" id="-36146">
		<tag k="name" v="Avløyftbekken" />
		<tag k="ssr:stedsnr" v="15335" />
		<tag k="waterway" v="stream" />
	</node>
	<node lat="64.6761555554269" lon="11.267694448435307" id="-36150">
		<tag k="name" v="Fosneselva" />
		<tag k="ssr:stedsnr" v="14288" />
		<tag k="waterway" v="stream" />
	</node>
	<node lat="64.60382500042326" lon="11.810980555056016" id="-36157">
		<tag k="name" v="Dunavatnet" />
		<tag k="natural" v="water" />
		<tag k="ssr:stedsnr" v="14732" />
	</node>
	<node lat="64.22902642483832" lon="10.997848695248884" id="-36158">
		<tag k="name" v="Lissøyungen" />
		<tag k="natural" v="water" />
		<tag k="ssr:stedsnr" v="14578" />
	</node>
	<node lat="64.54057500392118" lon="11.194186103258419" id="-36161">
		<tag k="name" v="Austerfuglvatnet" />
		<tag k="natural" v="water" />
		<tag k="ssr:stedsnr" v="14590" />
		<tag k="water" v="lake" />
	</node>
	<node lat="64.54259721933931" lon="11.178411113223587" id="-36162">
		<tag k="name" v="Vesterfuglvatnet" />
		<tag k="natural" v="water" />
		<tag k="ssr:stedsnr" v="14593" />
		<tag k="water" v="lake" />
	</node>
	<node lat="64.73923889131567" lon="11.659338897966977" id="-36166">
		<tag k="name" v="Tverrelva" />
		<tag k="ssr:stedsnr" v="14690" />
		<tag k="waterway" v="stream" />
	</node>
	<node lat="64.76865833117012" lon="11.893405556519754" id="-36175">
		<tag k="name" v="Godfisktjønnbekken" />
		<tag k="ssr:stedsnr" v="14876" />
		<tag k="waterway" v="stream" />
	</node>
	<node lat="64.34528611379226" lon="11.430355561058976" id="-36176">
		<tag k="name" v="Heitjønna" />
		<tag k="natural" v="water" />
		<tag k="ssr:stedsnr" v="14879" />
	</node>
	<node lat="64.33976666360036" lon="11.580380562037941" id="-36177">
		<tag k="name" v="Litlvatnet" />
		<tag k="natural" v="water" />
		<tag k="ssr:stedsnr" v="14886" />
	</node>
	<node lat="64.19810000180867" lon="11.336788893491196" id="-36179">
		<tag k="name" v="Vålåvassbekken" />
		<tag k="ssr:stedsnr" v="14813" />
		<tag k="waterway" v="stream" />
	</node>
	<node lat="64.25536666552996" lon="11.241791674694097" id="-36182">
		<tag k="name" v="Syrbekken" />
		<tag k="ssr:stedsnr" v="14825" />
		<tag k="waterway" v="stream" />
	</node>
	<node lat="64.26396944493128" lon="11.59984165751303" id="-36185">
		<tag k="name" v="Nonstjønnin" />
		<tag k="natural" v="water" />
		<tag k="ssr:stedsnr" v="14845" />
	</node>
	<node lat="64.34830000412039" lon="11.390433328618544" id="-36192">
		<tag k="name" v="Svartfossen" />
		<tag k="natural" v="waterfall" />
		<tag k="ssr:stedsnr" v="14982" />
	</node>
	<node lat="64.34879166843892" lon="11.360258326179355" id="-36193">
		<tag k="name" v="Sagtjønna" />
		<tag k="natural" v="water" />
		<tag k="ssr:stedsnr" v="14986" />
	</node>
	<node lat="64.3607999959273" lon="11.556011120343046" id="-36195">
		<tag k="name" v="Nedre Kverntjønna" />
		<tag k="natural" v="water" />
		<tag k="ssr:stedsnr" v="14995" />
	</node>
	<node lat="64.52213889075804" lon="11.367341661206442" id="-36197">
		<tag k="name" v="Vikatjønna" />
		<tag k="natural" v="water" />
		<tag k="ssr:stedsnr" v="15166" />
	</node>
	<node lat="64.6464277784378" lon="11.576863886594875" id="-36206">
		<tag k="name" v="Sørvatnet" />
		<tag k="natural" v="water" />
		<tag k="ssr:stedsnr" v="15463" />
	</node>
	<node lat="64.24331944146824" lon="10.958858338415954" id="-36214">
		<tag k="name" v="Klokkartjønna" />
		<tag k="natural" v="water" />
		<tag k="ssr:stedsnr" v="21354" />
	</node>
	<node lat="64.31754444457641" lon="11.45930277338968" id="-36216">
		<tag k="name" v="Tordhaugtjønna" />
		<tag k="natural" v="water" />
		<tag k="ssr:stedsnr" v="26160" />
	</node>
	<node lat="64.29765278129629" lon="11.187283325530112" id="-36238">
		<tag k="name" v="Littlbekken" />
		<tag k="ssr:stedsnr" v="38199" />
		<tag k="waterway" v="stream" />
	</node>
	<node lat="64.18398333478929" lon="11.2874166696622" id="-36245">
		<tag k="name" v="Nordsettervatnet" />
		<tag k="natural" v="water" />
		<tag k="ssr:stedsnr" v="38338" />
		<tag k="water" v="lake" />
	</node>
	<node lat="64.36146666331078" lon="11.361905562645175" id="-36249">
		<tag k="name" v="Ilskarbekken" />
		<tag k="ssr:stedsnr" v="38548" />
		<tag k="waterway" v="stream" />
	</node>
	<node lat="64.17318888727618" lon="11.229966665188861" id="-36251">
		<tag k="name" v="Leitbekken" />
		<tag k="ssr:stedsnr" v="38386" />
		<tag k="waterway" v="stream" />
	</node>
	<node lat="64.62088055629599" lon="11.717261119637353" id="-36268">
		<tag k="name" v="Finntjønna" />
		<tag k="natural" v="water" />
		<tag k="ssr:stedsnr" v="47292" />
	</node>
	<node lat="64.63010555450899" lon="11.722305547829984" id="-36269">
		<tag k="name" v="Langvatnet" />
		<tag k="natural" v="water" />
		<tag k="ssr:stedsnr" v="47293" />
	</node>
	<node lat="64.3658805515911" lon="11.607958325066157" id="-36278">
		<tag k="name" v="Mikalodden" />
		<tag k="natural" v="cape" />
		<tag k="ssr:stedsnr" v="47459" />
	</node>
	<node lat="64.13444999816525" lon="11.144463879492468" id="-36297">
		<tag k="name" v="Tverrelvfossen" />
		<tag k="natural" v="waterfall" />
		<tag k="ssr:stedsnr" v="48525" />
	</node>
	<node lat="64.27768055190666" lon="11.64556943406151" id="-36301">
		<tag k="name" v="Skorvfossen" />
		<tag k="natural" v="waterfall" />
		<tag k="ssr:stedsnr" v="48099" />
	</node>
	<node lat="64.4536805535632" lon="11.126258332109527" id="-36305">
		<tag k="name" v="Tøttdalsvikbekken" />
		<tag k="ssr:stedsnr" v="48162" />
		<tag k="waterway" v="stream" />
	</node>
	<node lat="64.5262416682745" lon="11.654297229818438" id="-36309">
		<tag k="name" v="Svartbekken" />
		<tag k="ssr:stedsnr" v="48298" />
		<tag k="waterway" v="stream" />
	</node>
	<node lat="64.17195833168915" lon="10.955194444550092" id="-36313">
		<tag k="name" v="Rognlibekken" />
		<tag k="ssr:stedsnr" v="48472" />
		<tag k="waterway" v="stream" />
	</node>
	<node lat="64.16573611472857" lon="10.850497231619045" id="-36314">
		<tag k="name" v="Finnkruneset" />
		<tag k="natural" v="cape" />
		<tag k="ssr:stedsnr" v="48475" />
	</node>
	<node lat="64.55790000400631" lon="11.469500010050474" id="-36321">
		<tag k="name" v="Hattjønna" />
		<tag k="natural" v="water" />
		<tag k="ssr:stedsnr" v="48582" />
	</node>
	<node lat="64.48028888644768" lon="11.03351110325538" id="-36322">
		<tag k="name" v="Kroktjønnbekken" />
		<tag k="ssr:stedsnr" v="48439" />
		<tag k="waterway" v="stream" />
	</node>
	<node lat="64.303416668622" lon="10.977605554138528" id="-36333">
		<tag k="name" v="Bårdsbakktjønnin" />
		<tag k="natural" v="water" />
		<tag k="ssr:stedsnr" v="48870" />
	</node>
	<node lat="64.25170833536541" lon="11.172302778463607" id="-36347">
		<tag k="name" v="Bruengskjæret" />
		<tag k="place" v="islet" />
		<tag k="ssr:stedsnr" v="48895" />
	</node>
	<node lat="64.24525555618294" lon="11.039952777893308" id="-36349">
		<tag k="name" v="Svarttjønna" />
		<tag k="natural" v="water" />
		<tag k="ssr:stedsnr" v="48985" />
	</node>
	<node lat="64.23409999587766" lon="11.099283337596097" id="-36351">
		<tag k="name" v="Småfossan" />
		<tag k="natural" v="waterfall" />
		<tag k="ssr:stedsnr" v="48947" />
	</node>
	<node lat="64.54635000193902" lon="11.142408327499476" id="-36356">
		<tag k="name" v="Krokelva" />
		<tag k="ssr:stedsnr" v="49490" />
		<tag k="waterway" v="stream" />
	</node>
	<node lat="64.70633888872891" lon="11.796413894974046" id="-36361">
		<tag k="name" v="Kvennbekken" />
		<tag k="ssr:stedsnr" v="50040" />
		<tag k="waterway" v="stream" />
	</node>
	<node lat="64.6875944432581" lon="11.794372231482738" id="-36362">
		<tag k="name" v="Litlfossen" />
		<tag k="natural" v="waterfall" />
		<tag k="ssr:stedsnr" v="50045" />
	</node>
	<node lat="64.76793888982961" lon="11.740324991135626" id="-36363">
		<tag k="name" v="Sagbekken" />
		<tag k="ssr:stedsnr" v="50066" />
		<tag k="waterway" v="stream" />
	</node>
	<node lat="64.76671666392399" lon="11.675886117786696" id="-36371">
		<tag k="name" v="Kvennbekken" />
		<tag k="ssr:stedsnr" v="51042" />
		<tag k="waterway" v="stream" />
	</node>
	<node lat="64.24843611445665" lon="11.006691674311586" id="-36395">
		<tag k="name" v="Godvatnet" />
		<tag k="natural" v="water" />
		<tag k="ssr:stedsnr" v="74716" />
	</node>
	<node lat="64.28833055157479" lon="11.637938883394" id="-36396">
		<tag k="name" v="Litlelva" />
		<tag k="ssr:stedsnr" v="74831" />
		<tag k="waterway" v="stream" />
	</node>
	<node lat="64.22685278130253" lon="10.943063890806906" id="-36405">
		<tag k="name" v="Bjørkvassbekken" />
		<tag k="ssr:stedsnr" v="75669" />
		<tag k="waterway" v="stream" />
	</node>
	<node lat="64.32608889292109" lon="11.333766663698228" id="-36406">
		<tag k="name" v="Aursundlitjønnin" />
		<tag k="natural" v="water" />
		<tag k="ssr:stedsnr" v="74878" />
	</node>
</osm>
