<?xml version="1.0" encoding="UTF-8"?>
<osm version="0.6" generator="osmapis">
	<node lat="64.14250832929831" lon="11.151899998359093" id="-38018">
		<tag k="name" v="Tjurublakkmyra" />
		<tag k="natural" v="wetland" />
		<tag k="ssr:stedsnr" v="229612" />
	</node>
	<node lat="64.63936110949513" lon="11.270769435840027" id="-38037">
		<tag k="name" v="Kalskogen" />
		<tag k="place" v="locality" />
		<tag k="ssr:stedsnr" v="229947" />
	</node>
	<node lat="64.48821944480592" lon="11.311377768238806" id="-38053">
		<tag k="name" v="Stormyra" />
		<tag k="natural" v="wetland" />
		<tag k="ssr:stedsnr" v="230398" />
	</node>
	<node lat="64.23339722467404" lon="11.103683327724488" id="-38069">
		<tag k="name" v="Fautgårdsmyrin" />
		<tag k="natural" v="wetland" />
		<tag k="ssr:stedsnr" v="230946" />
	</node>
	<node lat="64.49773610896348" lon="11.391722226350465" id="-38101">
		<tag k="name" v="Tjønnmyra" />
		<tag k="natural" v="wetland" />
		<tag k="ssr:stedsnr" v="14205" />
	</node>
	<node lat="64.3292444404387" lon="11.324363890657583" id="-38130">
		<tag k="name" v="Aursundlimyran" />
		<tag k="natural" v="wetland" />
		<tag k="ssr:stedsnr" v="14856" />
	</node>
	<node lat="64.68117777661122" lon="11.78852500222104" id="-38142">
		<tag k="name" v="Stormyra" />
		<tag k="natural" v="wetland" />
		<tag k="ssr:stedsnr" v="15205" />
	</node>
	<node lat="64.50418332991046" lon="11.475169436225434" id="-38159">
		<tag k="name" v="Langmyra" />
		<tag k="natural" v="wetland" />
		<tag k="ssr:stedsnr" v="29576" />
	</node>
	<node lat="64.30499722575412" lon="11.19647777276973" id="-38162">
		<tag k="name" v="Hårråmyra" />
		<tag k="natural" v="wetland" />
		<tag k="ssr:stedsnr" v="38215" />
	</node>
	<node lat="64.24232500226144" lon="11.285950006142937" id="-38164">
		<tag k="name" v="Oksmyra" />
		<tag k="natural" v="wetland" />
		<tag k="ssr:stedsnr" v="38302" />
	</node>
	<node lat="64.17477499587355" lon="11.304588886428766" id="-38165">
		<tag k="name" v="Lauvåsmyra" />
		<tag k="natural" v="wetland" />
		<tag k="ssr:stedsnr" v="38392" />
	</node>
	<node lat="64.24864721891933" lon="11.18400554895066" id="-38166">
		<tag k="landuse" v="meadow" />
		<tag k="name" v="Nyenget" />
		<tag k="ssr:stedsnr" v="38258" />
	</node>
	<node lat="64.42718889279374" lon="11.528244453626334" id="-38184">
		<tag k="name" v="Stråmyra" />
		<tag k="natural" v="wetland" />
		<tag k="ssr:stedsnr" v="47375" />
	</node>
	<node lat="64.74100000192875" lon="12.091461118223421" id="-38223">
		<tag k="name" v="Danielmomyra" />
		<tag k="natural" v="wetland" />
		<tag k="ssr:stedsnr" v="50111" />
	</node>
	<node lat="64.78057500378567" lon="11.706463881909135" id="-38227">
		<tag k="name" v="Flaget" />
		<tag k="place" v="locality" />
		<tag k="ssr:stedsnr" v="50024" />
	</node>
	<node lat="64.76668055140368" lon="11.742233324271272" id="-38229">
		<tag k="name" v="Kråmyra" />
		<tag k="natural" v="wetland" />
		<tag k="ssr:stedsnr" v="50069" />
	</node>
	<node lat="64.76946111373186" lon="11.745933326182847" id="-38230">
		<tag k="name" v="Lurmyrå" />
		<tag k="natural" v="wetland" />
		<tag k="ssr:stedsnr" v="50072" />
	</node>
	<node lat="64.48947222473791" lon="11.155855551326121" id="-38282">
		<tag k="name" v="Sagvikmyra" />
		<tag k="natural" v="wetland" />
		<tag k="ssr:stedsnr" v="75420" />
	</node>
	<node lat="64.4744111099024" lon="11.590661106346584" id="-38304">
		<tag k="name" v="Storøra" />
		<tag k="place" v="locality" />
		<tag k="ssr:stedsnr" v="83343" />
	</node>
	<node lat="64.53766389051873" lon="11.25224165709785" id="-38314">
		<tag k="name" v="Kringelmyra" />
		<tag k="natural" v="wetland" />
		<tag k="ssr:stedsnr" v="90729" />
	</node>
	<node lat="64.26932777570543" lon="11.180555560666733" id="-38318">
		<tag k="name" v="Straumenget" />
		<tag k="place" v="locality" />
		<tag k="ssr:stedsnr" v="98183" />
	</node>
	<node lat="64.31837499945934" lon="11.286697230413921" id="-38319">
		<tag k="name" v="Øver-Dammyra" />
		<tag k="natural" v="wetland" />
		<tag k="ssr:stedsnr" v="99178" />
	</node>
	<node lat="64.20741111155995" lon="11.331072223948558" id="-38320">
		<tag k="name" v="Sagåsmyra" />
		<tag k="natural" v="wetland" />
		<tag k="ssr:stedsnr" v="99315" />
	</node>
	<node lat="64.28986666673737" lon="11.214413880733614" id="-38322">
		<tag k="name" v="Brattåsmyra" />
		<tag k="natural" v="wetland" />
		<tag k="ssr:stedsnr" v="99204" />
	</node>
	<node lat="64.65791111191588" lon="11.197988896540929" id="-38341">
		<tag k="name" v="Stormyra" />
		<tag k="natural" v="wetland" />
		<tag k="ssr:stedsnr" v="108222" />
	</node>
	<node lat="64.39814999984097" lon="11.54109721426517" id="-38344">
		<tag k="name" v="Stortjønnmyra" />
		<tag k="natural" v="wetland" />
		<tag k="ssr:stedsnr" v="108372" />
	</node>
	<node lat="64.19394722479721" lon="11.332588899252995" id="-38355">
		<tag k="name" v="Ner - Mølbekkmyra" />
		<tag k="natural" v="wetland" />
		<tag k="ssr:stedsnr" v="108718" />
	</node>
	<node lat="64.13906944255938" lon="11.156572213736064" id="-38360">
		<tag k="name" v="Anfindenget" />
		<tag k="natural" v="wetland" />
		<tag k="ssr:stedsnr" v="109520" />
	</node>
	<node lat="64.23582777551516" lon="11.410166659821831" id="-38363">
		<tag k="name" v="Stormyra" />
		<tag k="natural" v="wetland" />
		<tag k="ssr:stedsnr" v="109626" />
	</node>
	<node lat="64.36356944404754" lon="11.50001943807794" id="-38367">
		<tag k="name" v="Seterengmyra" />
		<tag k="natural" v="wetland" />
		<tag k="ssr:stedsnr" v="109806" />
	</node>
	<node lat="64.51914999967565" lon="11.052569451381451" id="-38369">
		<tag k="name" v="Heiaringen" />
		<tag k="natural" v="wetland" />
		<tag k="ssr:stedsnr" v="110474" />
	</node>
	<node lat="64.7408000018833" lon="11.82020555008841" id="-38372">
		<tag k="name" v="Gjøta" />
		<tag k="place" v="locality" />
		<tag k="ssr:stedsnr" v="111203" />
	</node>
	<node lat="64.44422777584572" lon="11.275041662586935" id="-38386">
		<tag k="alt_name" v="Stormyra" />
		<tag k="name" v="Sundsstormyra" />
		<tag k="natural" v="wetland" />
		<tag k="ssr:stedsnr" v="135023" />
	</node>
	<node lat="64.74812499964052" lon="11.982130554814123" id="-38396">
		<tag k="name" v="Skjeftmyra" />
		<tag k="natural" v="wetland" />
		<tag k="ssr:stedsnr" v="135204" />
	</node>
	<node lat="64.5663444481367" lon="11.678505554751519" id="-38411">
		<tag k="name" v="Strandamarka" />
		<tag k="place" v="locality" />
		<tag k="ssr:stedsnr" v="136022" />
	</node>
	<node lat="64.53409444557191" lon="11.264563892401172" id="-38422">
		<tag k="name" v="Osamyra" />
		<tag k="natural" v="wetland" />
		<tag k="ssr:stedsnr" v="136202" />
	</node>
	<node lat="64.50493332940206" lon="11.585708332112741" id="-38492">
		<tag k="name" v="Vemundvikmyran" />
		<tag k="natural" v="wetland" />
		<tag k="ssr:stedsnr" v="257143" />
	</node>
	<node lat="64.71731944181353" lon="11.507555553368674" id="-38502">
		<tag k="name" v="Skutvikmyra" />
		<tag k="natural" v="wetland" />
		<tag k="ssr:stedsnr" v="257291" />
	</node>
	<node lat="64.68010555757017" lon="11.488786101245882" id="-38509">
		<tag k="name" v="Engesmomyran" />
		<tag k="natural" v="wetland" />
		<tag k="ssr:stedsnr" v="257421" />
	</node>
	<node lat="64.75088610991905" lon="11.918499996130338" id="-38549">
		<tag k="name" v="Høgmyra" />
		<tag k="natural" v="wetland" />
		<tag k="ssr:stedsnr" v="257874" />
	</node>
	<node lat="64.70115555943649" lon="11.436527777664203" id="-38565">
		<tag k="name" v="Linkjelda" />
		<tag k="natural" v="wetland" />
		<tag k="ssr:stedsnr" v="166323" />
	</node>
	<node lat="64.6458472223661" lon="11.178238890420108" id="-38570">
		<tag k="name" v="Tørvmyra" />
		<tag k="natural" v="wetland" />
		<tag k="ssr:stedsnr" v="168404" />
	</node>
	<node lat="64.6196833376531" lon="11.461458341764015" id="-38575">
		<tag k="name" v="Postmyra" />
		<tag k="natural" v="wetland" />
		<tag k="ssr:stedsnr" v="168704" />
	</node>
	<node lat="64.64377777814678" lon="11.337949990860118" id="-38579">
		<tag k="name" v="Knuven" />
		<tag k="place" v="locality" />
		<tag k="ssr:stedsnr" v="168923" />
	</node>
	<node lat="64.61486389288366" lon="11.091744435758418" id="-38591">
		<tag k="name" v="Bjørvika" />
		<tag k="natural" v="wetland" />
		<tag k="ssr:stedsnr" v="169518" />
	</node>
	<node lat="64.19956388531354" lon="11.017402786482547" id="-38593">
		<tag k="name" v="Aunsletta" />
		<tag k="natural" v="wetland" />
		<tag k="ssr:stedsnr" v="169522" />
	</node>
	<node lat="64.551350002871" lon="11.536163891690215" id="-38602">
		<tag k="name" v="Stormyra" />
		<tag k="natural" v="wetland" />
		<tag k="ssr:stedsnr" v="170669" />
	</node>
	<node lat="64.71074444880725" lon="11.491855546128615" id="-38610">
		<tag k="name" v="Klubbmarka" />
		<tag k="place" v="locality" />
		<tag k="ssr:stedsnr" v="171370" />
	</node>
	<node lat="64.72629999734175" lon="11.65011944367568" id="-38613">
		<tag k="name" v="Søyringa" />
		<tag k="place" v="locality" />
		<tag k="ssr:stedsnr" v="171508" />
	</node>
	<node lat="64.73249722670678" lon="11.578716663683947" id="-38615">
		<tag k="name" v="Hesthagan" />
		<tag k="place" v="locality" />
		<tag k="ssr:stedsnr" v="171517" />
	</node>
	<node lat="64.73883332989203" lon="11.568902783894266" id="-38616">
		<tag k="name" v="Aunsetran" />
		<tag k="place" v="locality" />
		<tag k="ssr:stedsnr" v="171521" />
	</node>
	<node lat="64.42205832949034" lon="11.478713888898714" id="-38632">
		<tag k="name" v="Oldervikmarka" />
		<tag k="place" v="locality" />
		<tag k="ssr:stedsnr" v="196119" />
	</node>
	<node lat="64.25434444286721" lon="11.28155276970704" id="-38692">
		<tag k="name" v="Stormyra" />
		<tag k="natural" v="wetland" />
		<tag k="ssr:stedsnr" v="219213" />
	</node>
	<node lat="64.31440555606507" lon="11.199597220399676" id="-38696">
		<tag k="name" v="Langmyrhalla" />
		<tag k="natural" v="wetland" />
		<tag k="ssr:stedsnr" v="220222" />
	</node>
	<node lat="64.22991110829214" lon="11.349433336434144" id="-38703">
		<tag k="name" v="Rørjøtmyra" />
		<tag k="natural" v="wetland" />
		<tag k="ssr:stedsnr" v="221207" />
	</node>
	<node lat="64.68382499812388" lon="11.449377782760141" id="-38712">
		<tag k="name" v="Innermomyra" />
		<tag k="natural" v="wetland" />
		<tag k="ssr:stedsnr" v="226394" />
	</node>
	<node lat="64.63387222015372" lon="11.374386114483979" id="-38734">
		<tag k="historic" v="shieling" />
		<tag k="name" v="Jektviksetran" />
		<tag k="place" v="locality" />
		<tag k="ssr:stedsnr" v="229895" />
	</node>
	<node lat="64.60618055360193" lon="11.15177221578339" id="-38741">
		<tag k="name" v="Kjarramarka" />
		<tag k="natural" v="wetland" />
		<tag k="ssr:stedsnr" v="230506" />
	</node>
	<node lat="64.1983666698188" lon="11.167422231712182" id="-38742">
		<tag k="name" v="Blautmyra" />
		<tag k="natural" v="wetland" />
		<tag k="ssr:stedsnr" v="230508" />
	</node>
	<node lat="64.20951111536571" lon="11.138999998460086" id="-38743">
		<tag k="name" v="Mefjellsteinen" />
		<tag k="natural" v="stone" />
		<tag k="ssr:stedsnr" v="230522" />
	</node>
	<node lat="64.73783333568943" lon="11.79516388091091" id="-38765">
		<tag k="name" v="Søndagshagan" />
		<tag k="place" v="locality" />
		<tag k="ssr:stedsnr" v="232032" />
	</node>
	<node lat="64.7634472218196" lon="11.738644436941945" id="-38768">
		<tag k="name" v="Svarttjønnmyra" />
		<tag k="natural" v="wetland" />
		<tag k="ssr:stedsnr" v="232091" />
	</node>
	<node lat="64.47916944067353" lon="11.410163884366224" id="-38780">
		<tag k="name" v="Krokvikmoan" />
		<tag k="place" v="locality" />
		<tag k="ssr:stedsnr" v="454531" />
	</node>
	<node lat="64.29708977849681" lon="11.065647875191798" id="-38817">
		<tag k="historic" v="shieling" />
		<tag k="name" v="Sandvasslisetran" />
		<tag k="place" v="locality" />
		<tag k="ssr:stedsnr" v="257205" />
	</node>
	<node lat="64.50271667006614" lon="11.484047213082874" id="-38826">
		<tag k="name" v="Setermarka" />
		<tag k="place" v="locality" />
		<tag k="ssr:stedsnr" v="257277" />
	</node>
	<node lat="64.59015000042965" lon="11.639863878615376" id="-38858">
		<tag k="alt_name" v="Brannmyra" />
		<tag k="name" v="Kjerringrokkmyra" />
		<tag k="natural" v="wetland" />
		<tag k="ssr:stedsnr" v="269710" />
	</node>
	<node lat="64.41635277685084" lon="11.504833334745557" id="-38869">
		<tag k="name" v="Barstadstormyra" />
		<tag k="natural" v="wetland" />
		<tag k="ssr:stedsnr" v="272676" />
	</node>
	<node lat="64.42037500112299" lon="11.472911103996022" id="-38870">
		<tag k="name" v="Hallarenget" />
		<tag k="place" v="locality" />
		<tag k="ssr:stedsnr" v="272690" />
	</node>
	<node lat="64.3023638895202" lon="11.21124722204743" id="-38874">
		<tag k="name" v="Iver-Nilsarommet" />
		<tag k="place" v="locality" />
		<tag k="ssr:stedsnr" v="281214" />
	</node>
	<node lat="64.32021944851061" lon="11.261119443012689" id="-38879">
		<tag k="name" v="Langmyra" />
		<tag k="natural" v="wetland" />
		<tag k="ssr:stedsnr" v="281185" />
	</node>
	<node lat="64.22032222215441" lon="11.292383336025127" id="-38886">
		<tag k="name" v="Vassmyra" />
		<tag k="natural" v="wetland" />
		<tag k="ssr:stedsnr" v="281320" />
	</node>
	<node lat="64.1591666696125" lon="11.195280552213152" id="-38888">
		<tag k="name" v="Tiurleiken" />
		<tag k="natural" v="wetland" />
		<tag k="ssr:stedsnr" v="281376" />
	</node>
	<node lat="64.38366110993655" lon="11.514866658867495" id="-38891">
		<tag k="name" v="Stråmyra" />
		<tag k="natural" v="wetland" />
		<tag k="ssr:stedsnr" v="281722" />
	</node>
	<node lat="64.38364167094399" lon="11.522022212802685" id="-38892">
		<tag k="landuse" v="meadow" />
		<tag k="name" v="Hølneset" />
		<tag k="ssr:stedsnr" v="281723" />
	</node>
	<node lat="64.6855249984493" lon="11.468155561560163" id="-38895">
		<tag k="name" v="Tøddismyran" />
		<tag k="natural" v="wetland" />
		<tag k="ssr:stedsnr" v="288289" />
	</node>
	<node lat="64.18833055888872" lon="11.322113894153267" id="-38909">
		<tag k="name" v="Hølbekkmyra" />
		<tag k="natural" v="wetland" />
		<tag k="ssr:stedsnr" v="290676" />
	</node>
	<node lat="64.43764166759165" lon="11.130361104815021" id="-38933">
		<tag k="name" v="Grova" />
		<tag k="place" v="locality" />
		<tag k="ssr:stedsnr" v="291780" />
	</node>
	<node lat="64.77118888641127" lon="11.728383334712202" id="-38939">
		<tag k="name" v="Småmyrån" />
		<tag k="natural" v="wetland" />
		<tag k="ssr:stedsnr" v="292077" />
	</node>
	<node lat="64.73805555445436" lon="11.918749990458812" id="-38942">
		<tag k="name" v="Jensokmarka" />
		<tag k="place" v="locality" />
		<tag k="ssr:stedsnr" v="293005" />
	</node>
	<node lat="64.73139999604889" lon="11.642194436508495" id="-38949">
		<tag k="name" v="Markleinmyra" />
		<tag k="natural" v="wetland" />
		<tag k="ssr:stedsnr" v="293506" />
	</node>
	<node lat="64.73305000244322" lon="11.647958334297128" id="-38950">
		<tag k="name" v="Sammarfjøsmyra" />
		<tag k="natural" v="wetland" />
		<tag k="ssr:stedsnr" v="293508" />
	</node>
	<node lat="64.3406916638342" lon="11.211927780180856" id="-38955">
		<tag k="name" v="Allmenningen" />
		<tag k="place" v="locality" />
		<tag k="ssr:stedsnr" v="463146" />
	</node>
	<node lat="64.22146666481393" lon="11.328930553197198" id="-38956">
		<tag k="name" v="Svartdikmyra" />
		<tag k="natural" v="wetland" />
		<tag k="ssr:stedsnr" v="463283" />
	</node>
	<node lat="64.23616110708114" lon="11.315586100712286" id="-38957">
		<tag k="name" v="Kringelmyra" />
		<tag k="natural" v="wetland" />
		<tag k="ssr:stedsnr" v="463285" />
	</node>
	<node lat="64.16635000043951" lon="11.210083342690476" id="-38963">
		<tag k="name" v="Issibergmyra" />
		<tag k="natural" v="wetland" />
		<tag k="ssr:stedsnr" v="463347" />
	</node>
	<node lat="64.24304999619143" lon="11.322269439010189" id="-38964">
		<tag k="name" v="Kleivmyra" />
		<tag k="natural" v="wetland" />
		<tag k="ssr:stedsnr" v="463292" />
	</node>
	<node lat="64.39333333622179" lon="11.52416388044087" id="-38968">
		<tag k="name" v="Østerenget" />
		<tag k="natural" v="wetland" />
		<tag k="ssr:stedsnr" v="463674" />
	</node>
	<node lat="64.3849666708757" lon="11.371313899563233" id="-38975">
		<tag k="name" v="Stråmyra" />
		<tag k="natural" v="wetland" />
		<tag k="ssr:stedsnr" v="463697" />
	</node>
	<node lat="64.37458888926767" lon="11.447772223283303" id="-39023">
		<tag k="name" v="Setermyra" />
		<tag k="natural" v="wetland" />
		<tag k="ssr:stedsnr" v="317950" />
	</node>
	<node lat="64.50316389099434" lon="11.512144436608976" id="-39039">
		<tag k="name" v="Flymyra" />
		<tag k="natural" v="wetland" />
		<tag k="ssr:stedsnr" v="318245" />
	</node>
	<node lat="64.66454722385275" lon="11.243997222024277" id="-39072">
		<tag k="name" v="Grønnlimyra" />
		<tag k="natural" v="wetland" />
		<tag k="ssr:stedsnr" v="471131" />
	</node>
	<node lat="64.65746388536115" lon="11.224961116777529" id="-39085">
		<tag k="name" v="Lauga" />
		<tag k="place" v="locality" />
		<tag k="ssr:stedsnr" v="472126" />
	</node>
	<node lat="64.66193611345044" lon="11.201955550538228" id="-39087">
		<tag k="name" v="Gjerthanshaugmyra" />
		<tag k="natural" v="wetland" />
		<tag k="ssr:stedsnr" v="472156" />
	</node>
	<node lat="64.66179721905523" lon="11.452513887008898" id="-39090">
		<tag k="historic" v="shieling" />
		<tag k="name" v="Amundsetran" />
		<tag k="place" v="locality" />
		<tag k="ssr:stedsnr" v="472250" />
	</node>
	<node lat="64.25971944432897" lon="11.313163888299853" id="-39091">
		<tag k="name" v="Bakkamarka" />
		<tag k="place" v="locality" />
		<tag k="ssr:stedsnr" v="340210" />
	</node>
	<node lat="64.25960833368698" lon="11.357141670448097" id="-39093">
		<tag k="name" v="Salengan" />
		<tag k="natural" v="wetland" />
		<tag k="ssr:stedsnr" v="340216" />
	</node>
	<node lat="64.316230554914" lon="11.240144440908198" id="-39102">
		<tag k="name" v="Sørgården" />
		<tag k="place" v="locality" />
		<tag k="ssr:stedsnr" v="341197" />
	</node>
	<node lat="64.33578055301835" lon="11.53362499727271" id="-39110">
		<tag k="name" v="Kvitsteinmyra" />
		<tag k="natural" v="wetland" />
		<tag k="ssr:stedsnr" v="341628" />
	</node>
	<node lat="64.24069722432797" lon="11.201766658632113" id="-39115">
		<tag k="name" v="Skaret" />
		<tag k="place" v="locality" />
		<tag k="ssr:stedsnr" v="342257" />
	</node>
	<node lat="64.21524999661322" lon="11.337733342143496" id="-39117">
		<tag k="historic" v="shieling" />
		<tag k="name" v="Finnsåstømtet" />
		<tag k="place" v="locality" />
		<tag k="ssr:stedsnr" v="342291" />
	</node>
	<node lat="64.20419167012477" lon="11.216966672092589" id="-39123">
		<tag k="name" v="Strompmyra" />
		<tag k="natural" v="wetland" />
		<tag k="ssr:stedsnr" v="342317" />
	</node>
	<node lat="64.17549166686804" lon="11.316449999914845" id="-39125">
		<tag k="name" v="Grimenget" />
		<tag k="natural" v="wetland" />
		<tag k="ssr:stedsnr" v="472724" />
	</node>
	<node lat="64.17140555851982" lon="11.323888893970654" id="-39127">
		<tag k="name" v="Olaenget" />
		<tag k="natural" v="wetland" />
		<tag k="ssr:stedsnr" v="472682" />
	</node>
	<node lat="64.64833333520306" lon="11.293591665925442" id="-39136">
		<tag k="name" v="Dønnelsklompmyra" />
		<tag k="natural" v="wetland" />
		<tag k="ssr:stedsnr" v="472934" />
	</node>
	<node lat="64.28301944459744" lon="11.28500555691734" id="-39143">
		<tag k="name" v="Nordenget" />
		<tag k="natural" v="wetland" />
		<tag k="ssr:stedsnr" v="473335" />
	</node>
	<node lat="64.19565833504775" lon="11.158055555019065" id="-39149">
		<tag k="name" v="Hestmyra" />
		<tag k="natural" v="wetland" />
		<tag k="ssr:stedsnr" v="473540" />
	</node>
	<node lat="64.58445833527882" lon="11.2621916718043" id="-39150">
		<tag k="name" v="Årnesmyra" />
		<tag k="natural" v="wetland" />
		<tag k="ssr:stedsnr" v="473594" />
	</node>
	<node lat="64.23639166379269" lon="11.479394442148987" id="-39157">
		<tag k="name" v="Tilfellmyrin" />
		<tag k="natural" v="wetland" />
		<tag k="ssr:stedsnr" v="473682" />
	</node>
	<node lat="64.66828055494643" lon="11.755538884720162" id="-39161">
		<tag k="name" v="Klakkan" />
		<tag k="place" v="locality" />
		<tag k="ssr:stedsnr" v="473743" />
	</node>
	<node lat="64.26937499748094" lon="11.162436117407864" id="-39171">
		<tag k="name" v="Djupskarmyra" />
		<tag k="natural" v="wetland" />
		<tag k="ssr:stedsnr" v="473896" />
	</node>
	<node lat="64.26395277387597" lon="11.109244452418341" id="-39180">
		<tag k="name" v="Fagermyrin" />
		<tag k="natural" v="wetland" />
		<tag k="ssr:stedsnr" v="473933" />
	</node>
	<node lat="64.24089444005799" lon="11.108261120304801" id="-39182">
		<tag k="name" v="Permyra" />
		<tag k="natural" v="wetland" />
		<tag k="ssr:stedsnr" v="473944" />
	</node>
	<node lat="64.61605000051401" lon="11.450552783060425" id="-39186">
		<tag k="name" v="Demmingsmyra" />
		<tag k="natural" v="wetland" />
		<tag k="ssr:stedsnr" v="350610" />
	</node>
	<node lat="64.6353750017078" lon="11.313522218595905" id="-39191">
		<tag k="name" v="Holåkermyra" />
		<tag k="natural" v="wetland" />
		<tag k="ssr:stedsnr" v="350946" />
	</node>
	<node lat="64.6421250028076" lon="11.347013894226631" id="-39199">
		<tag k="name" v="Hestmarka" />
		<tag k="place" v="locality" />
		<tag k="ssr:stedsnr" v="350874" />
	</node>
	<node lat="64.22809722084651" lon="11.42513888767262" id="-39214">
		<tag k="name" v="Nordhalla" />
		<tag k="natural" v="wetland" />
		<tag k="ssr:stedsnr" v="351668" />
	</node>
	<node lat="64.19177777639283" lon="11.162727786476935" id="-39216">
		<tag k="name" v="Vakkermyra" />
		<tag k="natural" v="wetland" />
		<tag k="ssr:stedsnr" v="351518" />
	</node>
	<node lat="64.60844444126637" lon="11.647544441045472" id="-39221">
		<tag k="name" v="Storenget" />
		<tag k="natural" v="wetland" />
		<tag k="ssr:stedsnr" v="351719" />
	</node>
	<node lat="64.23254166793568" lon="11.176730548108463" id="-39226">
		<tag k="name" v="Stakkmyra" />
		<tag k="natural" v="wetland" />
		<tag k="ssr:stedsnr" v="351966" />
	</node>
	<node lat="64.74382499933856" lon="11.932694433955753" id="-39229">
		<tag k="name" v="Forronessurda" />
		<tag k="natural" v="scree" />
		<tag k="ssr:stedsnr" v="353024" />
	</node>
	<node lat="64.72075277345706" lon="11.542888893105943" id="-39233">
		<tag k="name" v="Øversetermyra" />
		<tag k="natural" v="wetland" />
		<tag k="ssr:stedsnr" v="353503" />
	</node>
	<node lat="64.72231111474468" lon="11.560602787449731" id="-39246">
		<tag k="historic" v="shieling" />
		<tag k="name" v="Storgravvikvollen" />
		<tag k="place" v="locality" />
		<tag k="ssr:stedsnr" v="475499" />
	</node>
	<node lat="64.72237778181105" lon="11.531336118360162" id="-39266">
		<tag k="name" v="Setermyra" />
		<tag k="natural" v="wetland" />
		<tag k="ssr:stedsnr" v="378317" />
	</node>
	<node lat="64.5213611112501" lon="11.261341667167084" id="-39295">
		<tag k="name" v="Otterøymyran" />
		<tag k="natural" v="wetland" />
		<tag k="ssr:stedsnr" v="379166" />
	</node>
	<node lat="64.17014722161014" lon="11.19377221789507" id="-39305">
		<tag k="name" v="Pipmyra" />
		<tag k="natural" v="wetland" />
		<tag k="ssr:stedsnr" v="482676" />
	</node>
	<node lat="64.48004166648062" lon="11.404258332835798" id="-39311">
		<tag k="name" v="Geitakløyvmyra" />
		<tag k="natural" v="wetland" />
		<tag k="ssr:stedsnr" v="393523" />
	</node>
	<node lat="64.32238333454042" lon="11.214952782513398" id="-39317">
		<tag k="name" v="Hevika" />
		<tag k="place" v="locality" />
		<tag k="ssr:stedsnr" v="402196" />
	</node>
	<node lat="64.2045166626806" lon="11.28089722296322" id="-39318">
		<tag k="name" v="Hundmonesjan" />
		<tag k="natural" v="wetland" />
		<tag k="ssr:stedsnr" v="402307" />
	</node>
	<node lat="64.23432499714863" lon="11.312744446089946" id="-39320">
		<tag k="name" v="Andersenget" />
		<tag k="place" v="locality" />
		<tag k="ssr:stedsnr" v="402327" />
	</node>
	<node lat="64.1612500018727" lon="11.200269450714067" id="-39323">
		<tag k="name" v="Langmyra" />
		<tag k="natural" v="wetland" />
		<tag k="ssr:stedsnr" v="402392" />
	</node>
	<node lat="64.33180000109394" lon="11.556911112562645" id="-39328">
		<tag k="name" v="Stakkmyra" />
		<tag k="natural" v="wetland" />
		<tag k="ssr:stedsnr" v="402592" />
	</node>
	<node lat="64.23665555492467" lon="11.189619450539599" id="-39330">
		<tag k="name" v="Stormyra" />
		<tag k="natural" v="wetland" />
		<tag k="ssr:stedsnr" v="403250" />
	</node>
	<node lat="64.1696694456073" lon="11.057241675817796" id="-39344">
		<tag k="name" v="Stormyra" />
		<tag k="natural" v="wetland" />
		<tag k="ssr:stedsnr" v="411504" />
	</node>
	<node lat="64.2002694489654" lon="11.34170277428027" id="-39347">
		<tag k="name" v="Setermyra" />
		<tag k="natural" v="wetland" />
		<tag k="ssr:stedsnr" v="411703" />
	</node>
	<node lat="64.64940277994334" lon="11.338100008767043" id="-39351">
		<tag k="name" v="Pålmyra" />
		<tag k="natural" v="wetland" />
		<tag k="ssr:stedsnr" v="411917" />
	</node>
	<node lat="64.43103333702585" lon="11.105602773200317" id="-39353">
		<tag k="name" v="Krumyra" />
		<tag k="natural" v="wetland" />
		<tag k="ssr:stedsnr" v="412210" />
	</node>
	<node lat="64.36691666474213" lon="11.138338881000374" id="-39361">
		<tag k="name" v="Vakkermyrin" />
		<tag k="natural" v="wetland" />
		<tag k="ssr:stedsnr" v="412811" />
	</node>
	<node lat="64.43457777577785" lon="11.135088893108527" id="-39363">
		<tag k="name" v="Beingårdsenget" />
		<tag k="natural" v="wetland" />
		<tag k="ssr:stedsnr" v="412740" />
	</node>
	<node lat="64.34787222025926" lon="11.477369438694502" id="-39364">
		<tag k="name" v="Rundkollmyra" />
		<tag k="natural" v="wetland" />
		<tag k="ssr:stedsnr" v="412797" />
	</node>
	<node lat="64.74235555545366" lon="11.645694446942356" id="-39373">
		<tag k="name" v="Aunbumyra" />
		<tag k="natural" v="wetland" />
		<tag k="ssr:stedsnr" v="414937" />
	</node>
	<node lat="64.76970000463298" lon="11.597927769144428" id="-39375">
		<tag k="name" v="Viskogan" />
		<tag k="place" v="locality" />
		<tag k="ssr:stedsnr" v="414997" />
	</node>
	<node lat="64.64977778184894" lon="11.28892778517704" id="-39411">
		<tag k="name" v="Sesslimyra" />
		<tag k="natural" v="wetland" />
		<tag k="ssr:stedsnr" v="439395" />
	</node>
	<node lat="64.54383889058303" lon="11.211944435945604" id="-39443">
		<tag k="name" v="Koven" />
		<tag k="natural" v="wetland" />
		<tag k="ssr:stedsnr" v="454472" />
	</node>
	<node lat="64.21411944042346" lon="11.26313332678791" id="-39451">
		<tag k="name" v="Bjønnamyra" />
		<tag k="natural" v="wetland" />
		<tag k="ssr:stedsnr" v="463275" />
	</node>
	<node lat="64.1888027733484" lon="11.187700003333209" id="-39457">
		<tag k="name" v="Brennmyra" />
		<tag k="place" v="locality" />
		<tag k="ssr:stedsnr" v="463317" />
	</node>
	<node lat="64.6778111106235" lon="11.494461104643053" id="-39460">
		<tag k="name" v="Storengsmyra" />
		<tag k="natural" v="wetland" />
		<tag k="ssr:stedsnr" v="469305" />
	</node>
	<node lat="64.65901666250168" lon="11.188800009010347" id="-39470">
		<tag k="name" v="Valvikmyra" />
		<tag k="natural" v="wetland" />
		<tag k="ssr:stedsnr" v="472213" />
	</node>
	<node lat="64.64371667078537" lon="11.288222230199437" id="-39482">
		<tag k="name" v="Merramyran" />
		<tag k="natural" v="wetland" />
		<tag k="ssr:stedsnr" v="472958" />
	</node>
	<node lat="64.26335833128239" lon="11.379283323740305" id="-39492">
		<tag k="name" v="Hundtjønnmyra" />
		<tag k="natural" v="wetland" />
		<tag k="ssr:stedsnr" v="473615" />
	</node>
	<node lat="64.78358333371045" lon="12.084994450640748" id="-39504">
		<tag k="name" v="Tømmermoen" />
		<tag k="place" v="locality" />
		<tag k="ssr:stedsnr" v="475109" />
	</node>
	<node lat="64.73589444373168" lon="11.577333339554162" id="-39507">
		<tag k="name" v="Dumålmyra" />
		<tag k="natural" v="wetland" />
		<tag k="ssr:stedsnr" v="475476" />
	</node>
	<node lat="64.7283416646729" lon="11.555249992159846" id="-39510">
		<tag k="name" v="Småmyran" />
		<tag k="natural" v="wetland" />
		<tag k="ssr:stedsnr" v="475503" />
	</node>
	<node lat="64.52204167019832" lon="11.21769721559266" id="-39527">
		<tag k="name" v="Skarmyra" />
		<tag k="natural" v="wetland" />
		<tag k="ssr:stedsnr" v="272831" />
	</node>
	<node lat="64.56187596221021" lon="11.412432283415116" id="-39540">
		<tag k="historic" v="shieling" />
		<tag k="name" v="Beisvågsetran" />
		<tag k="place" v="locality" />
		<tag k="ssr:stedsnr" v="499080" />
	</node>
	<node lat="64.15448888871376" lon="10.802600006496766" id="-39549">
		<tag k="name" v="Storsletta" />
		<tag k="natural" v="wetland" />
		<tag k="ssr:stedsnr" v="499538" />
	</node>
	<node lat="64.35016944167684" lon="11.321644434549127" id="-39550">
		<tag k="alt_name" v="Østermyran" />
		<tag k="name" v="Austermyran" />
		<tag k="natural" v="wetland" />
		<tag k="ssr:stedsnr" v="681959" />
	</node>
	<node lat="64.47605833744764" lon="11.127149997809465" id="-39555">
		<tag k="name" v="Sjålimyra" />
		<tag k="natural" v="wetland" />
		<tag k="ssr:stedsnr" v="681397" />
	</node>
	<node lat="64.5378694467982" lon="11.247400008056475" id="-39568">
		<tag k="name" v="Liamyra" />
		<tag k="natural" v="wetland" />
		<tag k="ssr:stedsnr" v="500092" />
	</node>
	<node lat="64.35308888524355" lon="11.544477777632636" id="-39583">
		<tag k="name" v="Mølnhattmyra" />
		<tag k="natural" v="wetland" />
		<tag k="ssr:stedsnr" v="499992" />
	</node>
	<node lat="64.20233333132809" lon="11.198975004321984" id="-39621">
		<tag k="alt_name" v="Skjerpmomyra" />
		<tag k="name" v="Skjerpmomyran" />
		<tag k="natural" v="wetland" />
		<tag k="ssr:stedsnr" v="681684" />
	</node>
	<node lat="64.26643888622702" lon="11.641669450220334" id="-39625">
		<tag k="name" v="Djupkjeppmyra" />
		<tag k="natural" v="wetland" />
		<tag k="ssr:stedsnr" v="681874" />
	</node>
	<node lat="64.62271944152269" lon="11.292425002976652" id="-39669">
		<tag k="name" v="Aunamyra" />
		<tag k="natural" v="wetland" />
		<tag k="ssr:stedsnr" v="682431" />
	</node>
	<node lat="64.51304721783129" lon="11.186283335897002" id="-39695">
		<tag k="name" v="Kjerringmarka" />
		<tag k="place" v="locality" />
		<tag k="ssr:stedsnr" v="515875" />
	</node>
	<node lat="64.31583889226934" lon="11.210763898517161" id="-39702">
		<tag k="name" v="Lia" />
		<tag k="place" v="locality" />
		<tag k="ssr:stedsnr" v="523204" />
	</node>
	<node lat="64.29504444400226" lon="11.192072214996827" id="-39703">
		<tag k="name" v="Raffelrommet" />
		<tag k="place" v="locality" />
		<tag k="ssr:stedsnr" v="523206" />
	</node>
	<node lat="64.53232499896478" lon="11.403219453085564" id="-39708">
		<tag k="historic" v="shieling" />
		<tag k="name" v="Kjerstisetra" />
		<tag k="place" v="locality" />
		<tag k="ssr:stedsnr" v="525211" />
	</node>
	<node lat="64.63596389232131" lon="11.216555565881274" id="-39714">
		<tag k="name" v="Stormyra" />
		<tag k="place" v="locality" />
		<tag k="ssr:stedsnr" v="532182" />
	</node>
	<node lat="64.6369305545017" lon="11.125383342204849" id="-39716">
		<tag k="name" v="Harramyra" />
		<tag k="natural" v="wetland" />
		<tag k="ssr:stedsnr" v="532388" />
	</node>
	<node lat="64.59745833006835" lon="11.398722224254893" id="-39720">
		<tag k="name" v="Langmyra" />
		<tag k="natural" v="wetland" />
		<tag k="ssr:stedsnr" v="532486" />
	</node>
	<node lat="64.22606666771892" lon="11.386991662580659" id="-39734">
		<tag k="name" v="Moan" />
		<tag k="place" v="locality" />
		<tag k="ssr:stedsnr" v="533715" />
	</node>
	<node lat="64.38922222065497" lon="11.166347230893173" id="-39737">
		<tag k="name" v="Bessfarmyra" />
		<tag k="natural" v="wetland" />
		<tag k="ssr:stedsnr" v="533780" />
	</node>
	<node lat="64.30655833731423" lon="11.268622231223057" id="-39741">
		<tag k="name" v="Halsan" />
		<tag k="natural" v="wetland" />
		<tag k="ssr:stedsnr" v="534320" />
	</node>
	<node lat="64.75016944433604" lon="11.9071222152211" id="-39749">
		<tag k="name" v="Gjerdesmyra" />
		<tag k="natural" v="wetland" />
		<tag k="ssr:stedsnr" v="535007" />
	</node>
	<node lat="64.77215833644134" lon="11.759402770330162" id="-39752">
		<tag k="name" v="Kjerringflaugmyra" />
		<tag k="natural" v="wetland" />
		<tag k="ssr:stedsnr" v="535080" />
	</node>
	<node lat="64.76150277564267" lon="11.726636118275376" id="-39753">
		<tag k="name" v="Botnmyra" />
		<tag k="natural" v="wetland" />
		<tag k="ssr:stedsnr" v="535081" />
	</node>
	<node lat="64.56818536531165" lon="11.638422136595558" id="-39779">
		<tag k="name" v="Kvitura" />
		<tag k="natural" v="scree" />
		<tag k="ssr:stedsnr" v="560013" />
	</node>
	<node lat="64.3546277813596" lon="11.520355558720587" id="-39784">
		<tag k="name" v="Langmyra" />
		<tag k="natural" v="wetland" />
		<tag k="ssr:stedsnr" v="559995" />
	</node>
	<node lat="64.61460000015236" lon="11.301819438031973" id="-39815">
		<tag k="name" v="Holvikmyran" />
		<tag k="natural" v="wetland" />
		<tag k="ssr:stedsnr" v="560491" />
	</node>
	<node lat="64.49430555229888" lon="11.610766671767573" id="-39830">
		<tag k="name" v="Blakmyra" />
		<tag k="natural" v="wetland" />
		<tag k="ssr:stedsnr" v="690362" />
	</node>
	<node lat="64.20756388928366" lon="11.377402774333621" id="-39840">
		<tag k="name" v="Naustmyran" />
		<tag k="natural" v="wetland" />
		<tag k="ssr:stedsnr" v="694194" />
	</node>
	<node lat="64.24279721780651" lon="11.298224998944427" id="-39856">
		<tag k="name" v="Moamyra" />
		<tag k="natural" v="wetland" />
		<tag k="ssr:stedsnr" v="584289" />
	</node>
	<node lat="64.29322221835218" lon="11.18371944903516" id="-39859">
		<tag k="name" v="Storsteinmyra" />
		<tag k="natural" v="wetland" />
		<tag k="ssr:stedsnr" v="584192" />
	</node>
	<node lat="64.18575278172128" lon="11.193655549503198" id="-39861">
		<tag k="name" v="Kvennhusmyra" />
		<tag k="natural" v="wetland" />
		<tag k="ssr:stedsnr" v="584348" />
	</node>
	<node lat="64.37015000433931" lon="11.44295555668724" id="-39864">
		<tag k="name" v="Raudmyra" />
		<tag k="natural" v="wetland" />
		<tag k="ssr:stedsnr" v="584551" />
	</node>
	<node lat="64.52379722255489" lon="11.439097213416092" id="-39867">
		<tag k="historic" v="shieling" />
		<tag k="name" v="Kroknessetra" />
		<tag k="place" v="locality" />
		<tag k="ssr:stedsnr" v="586194" />
	</node>
	<node lat="64.46856944115757" lon="11.265847224498344" id="-39875">
		<tag k="name" v="Finnkolmyra" />
		<tag k="natural" v="wetland" />
		<tag k="ssr:stedsnr" v="593125" />
	</node>
	<node lat="64.54224999788336" lon="11.235761105391342" id="-39879">
		<tag k="name" v="Høgmyra" />
		<tag k="natural" v="wetland" />
		<tag k="ssr:stedsnr" v="697458" />
	</node>
	<node lat="64.18031388695984" lon="11.135577779145192" id="-39888">
		<tag k="name" v="Merkesmyra" />
		<tag k="natural" v="wetland" />
		<tag k="ssr:stedsnr" v="593453" />
	</node>
	<node lat="64.51323611045905" lon="11.492555563546873" id="-39897">
		<tag k="name" v="Heimyra" />
		<tag k="natural" v="wetland" />
		<tag k="ssr:stedsnr" v="697543" />
	</node>
	<node lat="64.60728333493549" lon="11.316880565897149" id="-39900">
		<tag k="name" v="Hestvikmyra" />
		<tag k="natural" v="wetland" />
		<tag k="ssr:stedsnr" v="593851" />
	</node>
	<node lat="64.43426666414888" lon="11.470613881485264" id="-39903">
		<tag k="name" v="Merramyra" />
		<tag k="natural" v="wetland" />
		<tag k="ssr:stedsnr" v="697738" />
	</node>
	<node lat="64.18643333065984" lon="11.159905554731425" id="-39906">
		<tag k="name" v="Stormyra" />
		<tag k="natural" v="wetland" />
		<tag k="ssr:stedsnr" v="594512" />
	</node>
	<node lat="64.21664166680507" lon="11.417577772701325" id="-39913">
		<tag k="name" v="Vergmyra" />
		<tag k="natural" v="wetland" />
		<tag k="ssr:stedsnr" v="594664" />
	</node>
	<node lat="64.33145555268787" lon="11.166405561434948" id="-39914">
		<tag k="name" v="Potetslettet" />
		<tag k="natural" v="wetland" />
		<tag k="ssr:stedsnr" v="594809" />
	</node>
	<node lat="64.39354166858807" lon="11.17373333391013" id="-39918">
		<tag k="name" v="Kariengmyrin" />
		<tag k="natural" v="wetland" />
		<tag k="ssr:stedsnr" v="594758" />
	</node>
	<node lat="64.36908055587139" lon="11.190686115955232" id="-39919">
		<tag k="name" v="Sørmyrin" />
		<tag k="natural" v="wetland" />
		<tag k="ssr:stedsnr" v="594852" />
	</node>
	<node lat="64.3402000012113" lon="11.172091670365806" id="-39920">
		<tag k="name" v="Lissenget" />
		<tag k="place" v="locality" />
		<tag k="ssr:stedsnr" v="594856" />
	</node>
	<node lat="64.47728333520509" lon="11.54979445129743" id="-39939">
		<tag k="name" v="Husmyra" />
		<tag k="natural" v="wetland" />
		<tag k="ssr:stedsnr" v="620040" />
	</node>
	<node lat="64.48711944305856" lon="11.31690834247749" id="-39951">
		<tag k="name" v="Nermarka" />
		<tag k="place" v="locality" />
		<tag k="ssr:stedsnr" v="620186" />
	</node>
	<node lat="64.56762499656264" lon="11.259016662111291" id="-39968">
		<tag k="name" v="Ølenvikmyra" />
		<tag k="natural" v="wetland" />
		<tag k="ssr:stedsnr" v="621020" />
	</node>
	<node lat="64.61741666965924" lon="11.6715055515597" id="-39987">
		<tag k="landuse" v="meadow" />
		<tag k="name" v="Seterenget" />
		<tag k="ssr:stedsnr" v="621519" />
	</node>
	<node lat="64.40293889270106" lon="11.470961103821075" id="-39998">
		<tag k="name" v="Bognmyra" />
		<tag k="natural" v="wetland" />
		<tag k="ssr:stedsnr" v="635686" />
	</node>
	<node lat="64.4163500017709" lon="11.467591672007797" id="-39999">
		<tag k="name" v="Galtfjellmyra" />
		<tag k="natural" v="wetland" />
		<tag k="ssr:stedsnr" v="635706" />
	</node>
	<node lat="64.42341944862774" lon="11.467038892191429" id="-40002">
		<tag k="name" v="Hallarengmyra" />
		<tag k="natural" v="wetland" />
		<tag k="ssr:stedsnr" v="635726" />
	</node>
	<node lat="64.37487777769594" lon="11.459033332812075" id="-40010">
		<tag k="name" v="Bjørkamyra" />
		<tag k="natural" v="wetland" />
		<tag k="ssr:stedsnr" v="705755" />
	</node>
	<node lat="64.20488055230113" lon="11.26735833625641" id="-40021">
		<tag k="name" v="Finnhøttmyra" />
		<tag k="natural" v="wetland" />
		<tag k="ssr:stedsnr" v="706280" />
	</node>
	<node lat="64.20680555449199" lon="11.306044445841206" id="-40022">
		<tag k="name" v="Lissengmyra" />
		<tag k="natural" v="wetland" />
		<tag k="ssr:stedsnr" v="706283" />
	</node>
	<node lat="64.19774444353946" lon="11.261844452229019" id="-40025">
		<tag k="name" v="Stormyra" />
		<tag k="natural" v="wetland" />
		<tag k="ssr:stedsnr" v="706301" />
	</node>
	<node lat="64.17115000337611" lon="11.190880558383276" id="-40027">
		<tag k="name" v="Gautengmyra" />
		<tag k="natural" v="wetland" />
		<tag k="ssr:stedsnr" v="706336" />
	</node>
	<node lat="64.34079721902178" lon="11.532241672665814" id="-40031">
		<tag k="name" v="Moamyra" />
		<tag k="natural" v="wetland" />
		<tag k="ssr:stedsnr" v="644592" />
	</node>
	<node lat="64.42695278064079" lon="11.398558329757286" id="-40036">
		<tag k="name" v="Stormyra" />
		<tag k="natural" v="wetland" />
		<tag k="ssr:stedsnr" v="644775" />
	</node>
	<node lat="64.22818333174108" lon="11.333797227028565" id="-40039">
		<tag k="name" v="Langdalsmyra" />
		<tag k="natural" v="wetland" />
		<tag k="ssr:stedsnr" v="645222" />
	</node>
	<node lat="64.2107861136406" lon="11.31292223051509" id="-40041">
		<tag k="name" v="Fluråtmyra" />
		<tag k="natural" v="wetland" />
		<tag k="ssr:stedsnr" v="645287" />
	</node>
	<node lat="64.23939166338246" lon="11.313202780615079" id="-40042">
		<tag k="name" v="Tverrmyra" />
		<tag k="natural" v="wetland" />
		<tag k="ssr:stedsnr" v="645289" />
	</node>
</osm>
