<?xml version="1.0" encoding="UTF-8"?>
<osm version="0.6" generator="osmapis">
	<node lat="64.55563526301573" lon="11.494195200808706" id="-61145">
		<tag k="name" v="Langsundet" />
		<tag k="natural" v="strait" />
		<tag k="ssr:stedsnr" v="230610" />
	</node>
	<node lat="64.55774166667538" lon="11.503591661320517" id="-61146">
		<tag k="name" v="Småholman" />
		<tag k="place" v="islet" />
		<tag k="ssr:stedsnr" v="230612" />
	</node>
	<node lat="64.67960277755154" lon="11.291399996768774" id="-61153">
		<tag k="name" v="Penesset" />
		<tag k="natural" v="cape" />
		<tag k="ssr:stedsnr" v="229825" />
	</node>
	<node lat="64.68956666862216" lon="11.250305565985641" id="-61158">
		<tag k="name" v="Nordøysundet" />
		<tag k="natural" v="strait" />
		<tag k="ssr:stedsnr" v="229862" />
	</node>
	<node lat="64.64867777897918" lon="11.109950006566768" id="-61160">
		<tag k="name" v="Karvevika" />
		<tag k="natural" v="bay" />
		<tag k="ssr:stedsnr" v="229963" />
	</node>
	<node lat="64.65251666705379" lon="11.354661102577891" id="-61162">
		<tag k="name" v="Jekthammarodden" />
		<tag k="natural" v="cape" />
		<tag k="ssr:stedsnr" v="229911" />
	</node>
	<node lat="64.44571944105827" lon="11.196774998869984" id="-61165">
		<tag k="name" v="Morkaholmen" />
		<tag k="place" v="islet" />
		<tag k="ssr:stedsnr" v="230181" />
	</node>
	<node lat="64.48776944124157" lon="11.211688884017148" id="-61173">
		<tag k="name" v="Hoddøysanden" />
		<tag k="natural" v="beach" />
		<tag k="ssr:stedsnr" v="230390" />
	</node>
	<node lat="64.59754722569373" lon="11.035749998184984" id="-61186">
		<tag k="name" v="Kvilarvika" />
		<tag k="natural" v="bay" />
		<tag k="ssr:stedsnr" v="230926" />
	</node>
	<node lat="64.62608889339607" lon="11.044358325763904" id="-61188">
		<tag k="name" v="Bekkavika" />
		<tag k="natural" v="bay" />
		<tag k="ssr:stedsnr" v="230941" />
	</node>
	<node lat="64.63357499653655" lon="11.033133338990226" id="-61189">
		<tag k="name" v="Lunnfallet" />
		<tag k="natural" v="strait" />
		<tag k="ssr:stedsnr" v="230942" />
	</node>
	<node lat="64.46830277777045" lon="11.270063887389913" id="-61203">
		<tag k="name" v="Finnkovstranda" />
		<tag k="natural" v="beach" />
		<tag k="ssr:stedsnr" v="13063" />
	</node>
	<node lat="64.46445555490223" lon="11.519561104419044" id="-61204">
		<tag k="alt_name" v="Tiendholmen" />
		<tag k="name" v="Tinholmen" />
		<tag k="natural" v="cape" />
		<tag k="ssr:stedsnr" v="13074" />
	</node>
	<node lat="64.58708611418048" lon="11.190158338873085" id="-61207">
		<tag k="alt_name" v="Mulen" />
		<tag k="name" v="Digermulen" />
		<tag k="natural" v="cape" />
		<tag k="ssr:stedsnr" v="13608" />
	</node>
	<node lat="64.45099722104067" lon="11.18210555265352" id="-61209">
		<tag k="name" v="Saltneset" />
		<tag k="natural" v="cape" />
		<tag k="ssr:stedsnr" v="13502" />
	</node>
	<node lat="64.44077500018956" lon="11.458850003401336" id="-61213">
		<tag k="name" v="Kvaholmen" />
		<tag k="place" v="islet" />
		<tag k="ssr:stedsnr" v="14016" />
	</node>
	<node lat="64.49151944260348" lon="11.441549995859788" id="-61221">
		<tag k="alt_name" v="Festhammaren" />
		<tag k="name" v="Sveaodden" />
		<tag k="natural" v="cape" />
		<tag k="ssr:stedsnr" v="14201" />
	</node>
	<node lat="64.61288888580454" lon="11.277583331836231" id="-61229">
		<tag k="name" v="Grautvika" />
		<tag k="natural" v="bay" />
		<tag k="ssr:stedsnr" v="14409" />
	</node>
	<node lat="64.49843333091852" lon="11.197280553943347" id="-61233">
		<tag k="alt_name" v="Namsfjorden" />
		<tag k="bay" v="fjord" />
		<tag k="name" v="Namsenfjorden" />
		<tag k="natural" v="bay" />
		<tag k="ssr:stedsnr" v="14333" />
	</node>
	<node lat="64.53468055611212" lon="11.080625005747766" id="-61244">
		<tag k="name" v="Øykvikodden" />
		<tag k="natural" v="cape" />
		<tag k="ssr:stedsnr" v="14620" />
	</node>
	<node lat="64.75051666419795" lon="11.572227787778685" id="-61250">
		<tag k="alt_name" v="Gardsøya" />
		<tag k="name" v="Garsøya" />
		<tag k="place" v="islet" />
		<tag k="ssr:stedsnr" v="14663" />
	</node>
	<node lat="64.57259999777912" lon="11.662430549606013" id="-61259">
		<tag k="name" v="Kristianstranda" />
		<tag k="natural" v="beach" />
		<tag k="ssr:stedsnr" v="15019" />
	</node>
	<node lat="64.54768055554493" lon="11.49114999594806" id="-61274">
		<tag k="fixme" v="consider seamark:type=rock or natural=shoal" />
		<tag k="name" v="Haukøyskjæret" />
		<tag k="place" v="islet" />
		<tag k="ssr:stedsnr" v="24388" />
	</node>
	<node lat="64.71200833316291" lon="11.034016676367944" id="-61276">
		<tag k="name" v="Dragstindsluin" />
		<tag k="natural" v="shoal" />
		<tag k="place" v="locality" />
		<tag k="ssr:stedsnr" v="27322" />
	</node>
	<node lat="64.58745555617779" lon="11.127527780109519" id="-61277">
		<tag k="name" v="Myanvika" />
		<tag k="natural" v="bay" />
		<tag k="ssr:stedsnr" v="28306" />
	</node>
	<node lat="64.68777777441841" lon="11.285913878755427" id="-61278">
		<tag k="fixme" v="consider seamark:type=rock or natural=shoal" />
		<tag k="name" v="Hillstøskjæret" />
		<tag k="place" v="islet" />
		<tag k="ssr:stedsnr" v="28970" />
	</node>
	<node lat="64.40290277970959" lon="11.320449990212177" id="-61292">
		<tag k="name" v="Brentberget" />
		<tag k="natural" v="cape" />
		<tag k="ssr:stedsnr" v="38777" />
	</node>
	<node lat="64.71139166870012" lon="11.411777787056645" id="-61295">
		<tag k="name" v="Grønnstranda" />
		<tag k="natural" v="beach" />
		<tag k="ssr:stedsnr" v="44315" />
	</node>
	<node lat="64.66545277983376" lon="11.169605556826834" id="-61298">
		<tag k="name" v="Bremsundodden" />
		<tag k="natural" v="cape" />
		<tag k="ssr:stedsnr" v="44448" />
	</node>
	<node lat="64.65775833457964" lon="11.166297226582373" id="-61310">
		<tag k="name" v="Sanden" />
		<tag k="natural" v="beach" />
		<tag k="ssr:stedsnr" v="47386" />
	</node>
	<node lat="64.62889167013924" lon="11.376630551728228" id="-61311">
		<tag k="name" v="Ytter Eistnessbukta" />
		<tag k="natural" v="bay" />
		<tag k="ssr:stedsnr" v="47520" />
	</node>
	<node lat="64.60507222563719" lon="11.293330545955017" id="-61323">
		<tag k="name" v="Naustvikodden" />
		<tag k="natural" v="cape" />
		<tag k="ssr:stedsnr" v="47878" />
	</node>
	<node lat="64.48649722232588" lon="11.271883331039156" id="-61328">
		<tag k="name" v="Valsetvika" />
		<tag k="natural" v="bay" />
		<tag k="ssr:stedsnr" v="48387" />
	</node>
	<node lat="64.57137222467968" lon="11.499186109121014" id="-61329">
		<tag k="name" v="Helsøyvika" />
		<tag k="natural" v="bay" />
		<tag k="ssr:stedsnr" v="48574" />
	</node>
	<node lat="64.5340027746498" lon="11.433402782583451" id="-61335">
		<tag k="name" v="Ottevika" />
		<tag k="natural" v="bay" />
		<tag k="ssr:stedsnr" v="48610" />
	</node>
	<node lat="64.54998610785739" lon="11.523052767203" id="-61337">
		<tag k="name" v="Landfallvika" />
		<tag k="natural" v="bay" />
		<tag k="ssr:stedsnr" v="48625" />
	</node>
	<node lat="64.65129721858344" lon="11.08836944475596" id="-61342">
		<tag k="name" v="Djupholet" />
		<tag k="natural" v="bay" />
		<tag k="ssr:stedsnr" v="48978" />
	</node>
	<node lat="64.77308333680395" lon="11.75161944508532" id="-61353">
		<tag k="name" v="Kjerringflaugvika" />
		<tag k="natural" v="bay" />
		<tag k="ssr:stedsnr" v="50073" />
	</node>
	<node lat="64.45387500160761" lon="11.269661111528336" id="-61364">
		<tag k="name" v="Sundsvalen" />
		<tag k="natural" v="strait" />
		<tag k="ssr:stedsnr" v="74020" />
	</node>
	<node lat="64.44890277578028" lon="11.519583332666222" id="-61365">
		<tag k="name" v="Holland" />
		<tag k="natural" v="bay" />
		<tag k="ssr:stedsnr" v="74025" />
	</node>
	<node lat="64.47653611044247" lon="11.266566670507185" id="-61366">
		<tag k="name" v="Hoddøyvågen" />
		<tag k="natural" v="bay" />
		<tag k="ssr:stedsnr" v="74035" />
	</node>
	<node lat="64.45930555705411" lon="11.260427776311534" id="-61368">
		<tag k="name" v="Sundsråsa" />
		<tag k="natural" v="strait" />
		<tag k="ssr:stedsnr" v="74062" />
	</node>
	<node lat="64.54029166473659" lon="11.339649996070607" id="-61387">
		<tag k="name" v="Vika" />
		<tag k="natural" v="bay" />
		<tag k="ssr:stedsnr" v="75061" />
	</node>
	<node lat="64.38804444361695" lon="11.30904999757386" id="-61388">
		<tag k="name" v="Korsneset" />
		<tag k="natural" v="cape" />
		<tag k="ssr:stedsnr" v="75069" />
	</node>
	<node lat="64.55410277483534" lon="11.498699999474802" id="-61393">
		<tag k="name" v="Haukøya" />
		<tag k="place" v="island" />
		<tag k="ssr:stedsnr" v="75108" />
	</node>
	<node lat="64.61490277851347" lon="11.420275009838202" id="-61403">
		<tag k="name" v="Nordsundet" />
		<tag k="natural" v="strait" />
		<tag k="ssr:stedsnr" v="75416" />
	</node>
	<node lat="64.59914439014761" lon="11.354013195172554" id="-61413">
		<tag k="name" v="Vedøya" />
		<tag k="place" v="island" />
		<tag k="ssr:stedsnr" v="75515" />
	</node>
	<node lat="64.52165555626055" lon="11.08455277004501" id="-61415">
		<tag k="alt_name" v="Leirfjordvika" />
		<tag k="name" v="Leirfjorden" />
		<tag k="natural" v="bay" />
		<tag k="ssr:stedsnr" v="75702" />
	</node>
	<node lat="64.5373305580388" lon="11.077011107184314" id="-61416">
		<tag k="name" v="Stinesodden" />
		<tag k="natural" v="cape" />
		<tag k="ssr:stedsnr" v="75714" />
	</node>
	<node lat="64.66843889250389" lon="11.200238899629747" id="-61422">
		<tag k="name" v="Brakstadvågen" />
		<tag k="natural" v="bay" />
		<tag k="ssr:stedsnr" v="75998" />
	</node>
	<node lat="64.75831666292592" lon="11.573583330440567" id="-61425">
		<tag k="name" v="Valholmen" />
		<tag k="place" v="islet" />
		<tag k="ssr:stedsnr" v="76721" />
	</node>
	<node lat="64.69755555851921" lon="10.966791662833465" id="-61428">
		<tag k="fixme" v="consider seamark:type=rock or natural=shoal" />
		<tag k="name" v="Beinrefallet" />
		<tag k="place" v="islet" />
		<tag k="ssr:stedsnr" v="87581" />
	</node>
	<node lat="64.47171388452459" lon="11.285913898917428" id="-61429">
		<tag k="name" v="Langnesskjæret" />
		<tag k="natural" v="shoal" />
		<tag k="place" v="locality" />
		<tag k="ssr:stedsnr" v="89327" />
	</node>
	<node lat="64.45112222360197" lon="11.183530552330033" id="-61430">
		<tag k="name" v="Saltnesholmen" />
		<tag k="place" v="islet" />
		<tag k="ssr:stedsnr" v="89335" />
	</node>
	<node lat="64.44368610959386" lon="11.485697220058952" id="-61432">
		<tag k="name" v="Sandvika" />
		<tag k="natural" v="bay" />
		<tag k="ssr:stedsnr" v="90675" />
	</node>
	<node lat="64.48301110741457" lon="11.184899992765947" id="-61473">
		<tag k="name" v="Grotvika" />
		<tag k="natural" v="bay" />
		<tag k="ssr:stedsnr" v="108419" />
	</node>
	<node lat="64.59596388604565" lon="11.312788893952503" id="-61479">
		<tag k="name" v="Vognkistvika" />
		<tag k="natural" v="bay" />
		<tag k="ssr:stedsnr" v="108872" />
	</node>
	<node lat="64.73500278056956" lon="11.52216111907682" id="-61496">
		<tag k="name" v="Kuppelvika" />
		<tag k="natural" v="bay" />
		<tag k="ssr:stedsnr" v="111374" />
	</node>
	<node lat="64.48226389083419" lon="11.331172231663405" id="-61505">
		<tag k="name" v="Tørrbergvika" />
		<tag k="natural" v="bay" />
		<tag k="ssr:stedsnr" v="134222" />
	</node>
	<node lat="64.58126389051432" lon="11.184469438564944" id="-61507">
		<tag k="name" v="Skorstadvika" />
		<tag k="natural" v="bay" />
		<tag k="ssr:stedsnr" v="134617" />
	</node>
	<node lat="64.57056111135633" lon="11.588713892104552" id="-61534">
		<tag k="name" v="Storsauøya" />
		<tag k="place" v="island" />
		<tag k="ssr:stedsnr" v="136044" />
	</node>
	<node lat="64.69822402223116" lon="10.997659350091423" id="-61538">
		<tag k="fixme" v="consider seamark:type=rock or natural=shoal" />
		<tag k="name" v="Moflesa" />
		<tag k="place" v="islet" />
		<tag k="ssr:stedsnr" v="135970" />
	</node>
	<node lat="64.6838166629017" lon="10.860083327888713" id="-61539">
		<tag k="name" v="Nordskåka" />
		<tag k="natural" v="shoal" />
		<tag k="place" v="locality" />
		<tag k="ssr:stedsnr" v="135976" />
	</node>
	<node lat="64.67890833502146" lon="10.915716658919292" id="-61541">
		<tag k="name" v="Austre Håfallet" />
		<tag k="natural" v="shoal" />
		<tag k="place" v="locality" />
		<tag k="ssr:stedsnr" v="135986" />
	</node>
	<node lat="64.66898333548598" lon="10.933477769573372" id="-61542">
		<tag k="alt_name" v="Skårflesa, l" />
		<tag k="name" v="Litle Skårflesa" />
		<tag k="place" v="islet" />
		<tag k="ssr:stedsnr" v="135999" />
	</node>
	<node lat="64.56044891156658" lon="11.508286952270801" id="-61543">
		<tag k="name" v="Kuøya" />
		<tag k="place" v="islet" />
		<tag k="ssr:stedsnr" v="136001" />
	</node>
	<node lat="64.69218055641532" lon="11.311469452895098" id="-61553">
		<tag k="name" v="Kalvhaggan" />
		<tag k="natural" v="cape" />
		<tag k="ssr:stedsnr" v="136312" />
	</node>
	<node lat="64.72999999834984" lon="11.520661100989662" id="-61556">
		<tag k="alt_name" v="Kvernvika" />
		<tag k="name" v="Kvennvika" />
		<tag k="natural" v="bay" />
		<tag k="ssr:stedsnr" v="136351" />
	</node>
	<node lat="64.52759721777156" lon="11.501697223921528" id="-61566">
		<tag k="name" v="Gahauet" />
		<tag k="natural" v="cape" />
		<tag k="ssr:stedsnr" v="145331" />
	</node>
	<node lat="64.4753972234575" lon="11.273275008353146" id="-61572">
		<tag k="alt_name" v="Valavika" />
		<tag k="name" v="Valen" />
		<tag k="natural" v="bay" />
		<tag k="ssr:stedsnr" v="256044" />
	</node>
	<node lat="64.45746667007198" lon="11.523016664064263" id="-61578">
		<tag k="name" v="Spillumsøra" />
		<tag k="natural" v="cape" />
		<tag k="ssr:stedsnr" v="149508" />
	</node>
	<node lat="64.51524444310792" lon="11.22826667180808" id="-61580">
		<tag k="name" v="Kløyvika" />
		<tag k="natural" v="bay" />
		<tag k="ssr:stedsnr" v="149440" />
	</node>
	<node lat="64.57703888497991" lon="11.157686119940596" id="-61586">
		<tag k="name" v="Tjeldholmen" />
		<tag k="place" v="islet" />
		<tag k="ssr:stedsnr" v="256545" />
	</node>
	<node lat="64.51501388445311" lon="11.509108334094421" id="-61615">
		<tag k="name" v="Bekkaleira" />
		<tag k="natural" v="bay" />
		<tag k="ssr:stedsnr" v="257150" />
	</node>
	<node lat="64.51394444345213" lon="11.226530561567346" id="-61619">
		<tag k="alt_name" v="Kløvvika" />
		<tag k="name" v="Kløyvvika" />
		<tag k="natural" v="bay" />
		<tag k="ssr:stedsnr" v="257162" />
	</node>
	<node lat="64.70166111178574" lon="11.41303889824714" id="-61623">
		<tag k="alt_name" v="Tjønnvika" />
		<tag k="name" v="Kynnvika" />
		<tag k="natural" v="bay" />
		<tag k="ssr:stedsnr" v="257283" />
	</node>
	<node lat="64.74372777624215" lon="11.537750007145014" id="-61625">
		<tag k="alt_name" v="Storvika" />
		<tag k="name" v="Storevika" />
		<tag k="natural" v="bay" />
		<tag k="ssr:stedsnr" v="257230" />
	</node>
	<node lat="64.6851361152501" lon="11.392905562304662" id="-61628">
		<tag k="alt_name" v="Galtnesset" />
		<tag k="name" v="Galtneset" />
		<tag k="natural" v="cape" />
		<tag k="ssr:stedsnr" v="257387" />
	</node>
	<node lat="64.63673333300285" lon="11.373005564874951" id="-61635">
		<tag k="name" v="Jektvika" />
		<tag k="natural" v="bay" />
		<tag k="ssr:stedsnr" v="257478" />
	</node>
	<node lat="64.61966666324805" lon="11.231477772424537" id="-61640">
		<tag k="name" v="Svartholet" />
		<tag k="natural" v="bay" />
		<tag k="ssr:stedsnr" v="257449" />
	</node>
	<node lat="64.59338611427575" lon="11.690194434711398" id="-61644">
		<tag k="name" v="Salstranda" />
		<tag k="natural" v="beach" />
		<tag k="ssr:stedsnr" v="257499" />
	</node>
	<node lat="64.6459166697389" lon="11.161855562133876" id="-61651">
		<tag k="fixme" v="consider seamark:type=rock or natural=shoal" />
		<tag k="name" v="Matmorskjæret" />
		<tag k="place" v="islet" />
		<tag k="ssr:stedsnr" v="257569" />
	</node>
	<node lat="64.65107777562942" lon="11.16796110886643" id="-61652">
		<tag k="alt_name" v="Stanga" />
		<tag k="fixme" v="consider seamark:type=rock or natural=shoal" />
		<tag k="name" v="Stonga" />
		<tag k="place" v="islet" />
		<tag k="ssr:stedsnr" v="257576" />
	</node>
	<node lat="64.76871111256935" lon="11.625508336346973" id="-61653">
		<tag k="name" v="Saltkjelvika" />
		<tag k="natural" v="bay" />
		<tag k="ssr:stedsnr" v="257589" />
	</node>
	<node lat="64.75768611430014" lon="11.625424989845378" id="-61662">
		<tag k="name" v="Korsneset" />
		<tag k="natural" v="cape" />
		<tag k="ssr:stedsnr" v="257755" />
	</node>
	<node lat="64.51818889216683" lon="11.117108326464537" id="-61665">
		<tag k="name" v="Ledangsvalen" />
		<tag k="natural" v="bay" />
		<tag k="ssr:stedsnr" v="257751" />
	</node>
	<node lat="64.68374722574563" lon="11.22710276964344" id="-61682">
		<tag k="name" v="Brakstadsundet" />
		<tag k="natural" v="strait" />
		<tag k="ssr:stedsnr" v="257989" />
	</node>
	<node lat="64.67451666428154" lon="11.168852767453446" id="-61683">
		<tag k="name" v="Grønnøya" />
		<tag k="place" v="islet" />
		<tag k="ssr:stedsnr" v="257990" />
	</node>
	<node lat="64.6628722264467" lon="10.933313894334926" id="-61686">
		<tag k="alt_name" v="Skårflesa, store" />
		<tag k="fixme" v="consider seamark:type=rock or natural=shoal" />
		<tag k="name" v="Store Skårflesa" />
		<tag k="place" v="islet" />
		<tag k="ssr:stedsnr" v="258000" />
	</node>
	<node lat="64.62154999735682" lon="11.221266661385938" id="-61688">
		<tag k="name" v="Kuvika" />
		<tag k="natural" v="bay" />
		<tag k="ssr:stedsnr" v="168106" />
	</node>
	<node lat="64.62989722127631" lon="11.227797213197505" id="-61689">
		<tag k="name" v="Bjønnavika" />
		<tag k="natural" v="bay" />
		<tag k="ssr:stedsnr" v="168108" />
	</node>
	<node lat="64.64873332905655" lon="11.406297211568413" id="-61691">
		<tag k="name" v="Djupvika" />
		<tag k="natural" v="bay" />
		<tag k="ssr:stedsnr" v="168273" />
	</node>
	<node lat="64.66216944833265" lon="11.175769439813823" id="-61693">
		<tag k="name" v="Smørvika" />
		<tag k="natural" v="bay" />
		<tag k="ssr:stedsnr" v="168461" />
	</node>
	<node lat="64.61917777351752" lon="11.345086103750456" id="-61696">
		<tag k="name" v="Seivikodden" />
		<tag k="natural" v="cape" />
		<tag k="ssr:stedsnr" v="168520" />
	</node>
	<node lat="64.48903611331218" lon="11.266983333479438" id="-61707">
		<tag k="name" v="Ørnskaget" />
		<tag k="natural" v="cape" />
		<tag k="ssr:stedsnr" v="169418" />
	</node>
	<node lat="64.60505833732992" lon="11.034374995402754" id="-61720">
		<tag k="name" v="Ettervika" />
		<tag k="natural" v="bay" />
		<tag k="ssr:stedsnr" v="169913" />
	</node>
	<node lat="64.57638055180756" lon="11.623624998592323" id="-61723">
		<tag k="name" v="Hestvikbukta" />
		<tag k="natural" v="bay" />
		<tag k="ssr:stedsnr" v="170659" />
	</node>
	<node lat="64.64942778210595" lon="11.078950009510727" id="-61728">
		<tag k="name" v="Skeiskavika" />
		<tag k="natural" v="bay" />
		<tag k="ssr:stedsnr" v="170977" />
	</node>
	<node lat="64.78320555120447" lon="11.738147225451966" id="-61729">
		<tag k="name" v="Bugan" />
		<tag k="natural" v="strait" />
		<tag k="ssr:stedsnr" v="171103" />
	</node>
	<node lat="64.72346111209633" lon="11.775480561696353" id="-61730">
		<tag k="name" v="Skjelhagabukta" />
		<tag k="natural" v="bay" />
		<tag k="ssr:stedsnr" v="171169" />
	</node>
	<node lat="64.57725555476026" lon="11.127416671724026" id="-61742">
		<tag k="name" v="Altøya" />
		<tag k="place" v="island" />
		<tag k="ssr:stedsnr" v="195583" />
	</node>
	<node lat="64.46372222294988" lon="11.369863879485248" id="-61747">
		<tag k="name" v="Innergåsøya" />
		<tag k="place" v="island" />
		<tag k="ssr:stedsnr" v="196045" />
	</node>
	<node lat="64.4692944453745" lon="11.354288880061006" id="-61748">
		<tag k="name" v="Yttergåsøya" />
		<tag k="place" v="island" />
		<tag k="ssr:stedsnr" v="196047" />
	</node>
	<node lat="64.46674444485075" lon="11.573594435836183" id="-61749">
		<tag k="name" v="Straumhylla" />
		<tag k="natural" v="cape" />
		<tag k="ssr:stedsnr" v="196051" />
	</node>
	<node lat="64.52172222444813" lon="11.072324998584259" id="-61761">
		<tag k="name" v="Krokvika" />
		<tag k="natural" v="bay" />
		<tag k="ssr:stedsnr" v="196206" />
	</node>
	<node lat="64.50808055244877" lon="11.276183333650593" id="-61762">
		<tag k="fixme" v="consider seamark:type=rock or natural=shoal" />
		<tag k="name" v="Storskjæret" />
		<tag k="place" v="islet" />
		<tag k="ssr:stedsnr" v="196228" />
	</node>
	<node lat="64.68681944499302" lon="11.234758340093414" id="-61771">
		<tag k="name" v="Skogøya" />
		<tag k="place" v="island" />
		<tag k="ssr:stedsnr" v="196310" />
	</node>
	<node lat="64.56480555428449" lon="11.134150008986337" id="-61784">
		<tag k="name" v="Stolen" />
		<tag k="natural" v="cape" />
		<tag k="ssr:stedsnr" v="196564" />
	</node>
	<node lat="64.56487499717626" lon="11.279458326303258" id="-61792">
		<tag k="name" v="Hammaren" />
		<tag k="natural" v="cape" />
		<tag k="ssr:stedsnr" v="197007" />
	</node>
	<node lat="64.57858333036432" lon="11.284305561025853" id="-61795">
		<tag k="alt_name" v="Årnesgalten" />
		<tag k="name" v="Galten" />
		<tag k="natural" v="cape" />
		<tag k="ssr:stedsnr" v="197061" />
	</node>
	<node lat="64.66891666638297" lon="10.954363884273933" id="-61806">
		<tag k="name" v="Leirknausen" />
		<tag k="natural" v="shoal" />
		<tag k="place" v="locality" />
		<tag k="ssr:stedsnr" v="208519" />
	</node>
	<node lat="64.39938333011573" lon="11.339824991571525" id="-61808">
		<tag k="name" v="Skaftodden" />
		<tag k="natural" v="cape" />
		<tag k="ssr:stedsnr" v="210304" />
	</node>
	<node lat="64.6746888899112" lon="10.873858337223096" id="-61811">
		<tag k="name" v="Innerleia" />
		<tag k="natural" v="strait" />
		<tag k="ssr:stedsnr" v="269512" />
	</node>
	<node lat="64.70310555321403" lon="10.931233333152816" id="-61812">
		<tag k="name" v="Sølvfestknausen" />
		<tag k="natural" v="shoal" />
		<tag k="place" v="locality" />
		<tag k="ssr:stedsnr" v="270314" />
	</node>
	<node lat="64.34281388729653" lon="11.241574993366042" id="-61816">
		<tag k="name" v="Munkhammarvika" />
		<tag k="natural" v="bay" />
		<tag k="ssr:stedsnr" v="220206" />
	</node>
	<node lat="64.44034166846795" lon="11.370069439186459" id="-61830">
		<tag k="alt_name" v="Kubatholmen" />
		<tag k="name" v="Kubbåtholmen" />
		<tag k="place" v="islet" />
		<tag k="ssr:stedsnr" v="271359" />
	</node>
	<node lat="64.5711166631517" lon="11.341399997097307" id="-61831">
		<tag k="name" v="Stranda" />
		<tag k="natural" v="shoal" />
		<tag k="place" v="locality" />
		<tag k="ssr:stedsnr" v="271494" />
	</node>
	<node lat="64.55622778055965" lon="11.329186106436286" id="-61832">
		<tag k="name" v="Lauvøytaren" />
		<tag k="natural" v="shoal" />
		<tag k="place" v="locality" />
		<tag k="ssr:stedsnr" v="271497" />
	</node>
	<node lat="64.68450277593102" lon="11.420438889733088" id="-61833">
		<tag k="name" v="Litlhestvikodden" />
		<tag k="natural" v="cape" />
		<tag k="ssr:stedsnr" v="226385" />
	</node>
	<node lat="64.64723888638204" lon="11.165269441398458" id="-61836">
		<tag k="name" v="Gottoholvika" />
		<tag k="natural" v="bay" />
		<tag k="ssr:stedsnr" v="227439" />
	</node>
	<node lat="64.63728888753108" lon="11.232766671046429" id="-61837">
		<tag k="name" v="Småvikan" />
		<tag k="natural" v="bay" />
		<tag k="ssr:stedsnr" v="229004" />
	</node>
	<node lat="64.53626111531791" lon="11.461777780535922" id="-61841">
		<tag k="fixme" v="consider seamark:type=rock or natural=shoal" />
		<tag k="name" v="Mefjordskjæret" />
		<tag k="place" v="islet" />
		<tag k="ssr:stedsnr" v="449334" />
	</node>
	<node lat="64.61494999802747" lon="11.24189722901622" id="-61843">
		<tag k="name" v="Setervika" />
		<tag k="natural" v="bay" />
		<tag k="ssr:stedsnr" v="229085" />
	</node>
	<node lat="64.65073333706694" lon="11.397013887848063" id="-61845">
		<tag k="name" v="Hamn" />
		<tag k="natural" v="bay" />
		<tag k="ssr:stedsnr" v="229279" />
	</node>
	<node lat="64.60329166675713" lon="11.326130561655011" id="-61850">
		<tag k="name" v="Biskopen" />
		<tag k="natural" v="cape" />
		<tag k="ssr:stedsnr" v="229610" />
	</node>
	<node lat="64.63251944389468" lon="11.255241657744875" id="-61854">
		<tag k="name" v="Perevika" />
		<tag k="natural" v="bay" />
		<tag k="ssr:stedsnr" v="229882" />
	</node>
	<node lat="64.618119446588" lon="11.163477778829789" id="-61869">
		<tag k="name" v="Finnangerodden" />
		<tag k="natural" v="cape" />
		<tag k="ssr:stedsnr" v="230480" />
	</node>
	<node lat="64.56462222045822" lon="11.491794448321684" id="-61873">
		<tag k="fixme" v="consider seamark:type=rock or natural=shoal" />
		<tag k="name" v="Valskjæret" />
		<tag k="place" v="islet" />
		<tag k="ssr:stedsnr" v="230591" />
	</node>
	<node lat="64.53924166465677" lon="11.072549998988524" id="-61881">
		<tag k="name" v="Skjåvikodden" />
		<tag k="natural" v="cape" />
		<tag k="ssr:stedsnr" v="231492" />
	</node>
	<node lat="64.63688055810296" lon="11.05158611242705" id="-61891">
		<tag k="name" v="Aglvika" />
		<tag k="natural" v="bay" />
		<tag k="ssr:stedsnr" v="271998" />
	</node>
	<node lat="64.6607916693826" lon="10.946866676488806" id="-61895">
		<tag k="name" v="Tørrestaren" />
		<tag k="natural" v="shoal" />
		<tag k="place" v="locality" />
		<tag k="ssr:stedsnr" v="451600" />
	</node>
	<node lat="64.50116944064152" lon="11.280836103001153" id="-61896">
		<tag k="fixme" v="consider seamark:type=rock or natural=shoal" />
		<tag k="name" v="Sandvikskjæra" />
		<tag k="place" v="islet" />
		<tag k="ssr:stedsnr" v="453449" />
	</node>
	<node lat="64.56031111367413" lon="11.348125006778409" id="-61932">
		<tag k="name" v="Kaldklauvvågen" />
		<tag k="natural" v="bay" />
		<tag k="ssr:stedsnr" v="257114" />
	</node>
	<node lat="64.55581388898926" lon="11.276155559117033" id="-61933">
		<tag k="name" v="Saltskaget" />
		<tag k="natural" v="cape" />
		<tag k="ssr:stedsnr" v="257115" />
	</node>
	<node lat="64.55737622382388" lon="11.3591342812887" id="-61940">
		<tag k="name" v="Langnesodden" />
		<tag k="natural" v="cape" />
		<tag k="ssr:stedsnr" v="257215" />
	</node>
	<node lat="64.54349166956969" lon="11.344033329158025" id="-61942">
		<tag k="name" v="Røyrholet" />
		<tag k="natural" v="bay" />
		<tag k="old_name" v="Rørhullet" />
		<tag k="ssr:stedsnr" v="257220" />
	</node>
	<node lat="64.64426944767908" lon="11.400569439367791" id="-61958">
		<tag k="alt_name" v="Kjelnesset" />
		<tag k="name" v="Kjelneset" />
		<tag k="natural" v="cape" />
		<tag k="ssr:stedsnr" v="257470" />
	</node>
	<node lat="64.62569444689292" lon="11.152841671914357" id="-61962">
		<tag k="name" v="Jevikodden" />
		<tag k="natural" v="cape" />
		<tag k="ssr:stedsnr" v="257555" />
	</node>
	<node lat="64.52071944578985" lon="11.165950005754885" id="-61965">
		<tag k="name" v="Kjevika" />
		<tag k="natural" v="bay" />
		<tag k="ssr:stedsnr" v="257712" />
	</node>
	<node lat="64.51944722495051" lon="11.123438893506437" id="-61966">
		<tag k="alt_name" v="Ledangsholman;Ledangholmen" />
		<tag k="name" v="Ledangholman" />
		<tag k="place" v="islet" />
		<tag k="ssr:stedsnr" v="257714" />
	</node>
	<node lat="64.68307500213317" lon="11.209208337504357" id="-61973">
		<tag k="name" v="Måsøya" />
		<tag k="place" v="island" />
		<tag k="ssr:stedsnr" v="257982" />
	</node>
	<node lat="64.69004444694896" lon="10.926041666960883" id="-61974">
		<tag k="name" v="Aldgården" />
		<tag k="place" v="island" />
		<tag k="ssr:stedsnr" v="257984" />
	</node>
	<node lat="64.59696666845399" lon="11.448158335819913" id="-61975">
		<tag k="name" v="Galten" />
		<tag k="natural" v="shoal" />
		<tag k="place" v="locality" />
		<tag k="ssr:stedsnr" v="267317" />
	</node>
	<node lat="64.51628055846622" lon="11.482152781974815" id="-61976">
		<tag k="name" v="Steinvika" />
		<tag k="natural" v="bay" />
		<tag k="ssr:stedsnr" v="267323" />
	</node>
	<node lat="64.58049999866478" lon="11.20563054539248" id="-61977">
		<tag k="name" v="Lennavika" />
		<tag k="natural" v="bay" />
		<tag k="ssr:stedsnr" v="267349" />
	</node>
	<node lat="64.39634167032088" lon="11.34139165958803" id="-61980">
		<tag k="fixme" v="consider seamark:type=rock or natural=shoal" />
		<tag k="name" v="Kobbskjæret" />
		<tag k="place" v="islet" />
		<tag k="ssr:stedsnr" v="271322" />
	</node>
	<node lat="64.41251388891762" lon="11.360730552163412" id="-61981">
		<tag k="name" v="Bangsundstraumen" />
		<tag k="natural" v="strait" />
		<tag k="ssr:stedsnr" v="271325" />
	</node>
	<node lat="64.46626666472224" lon="11.376452769690461" id="-61982">
		<tag k="fixme" v="consider seamark:type=rock or natural=shoal" />
		<tag k="name" v="Styrmannskjæret" />
		<tag k="place" v="islet" />
		<tag k="ssr:stedsnr" v="271370" />
	</node>
	<node lat="64.46948610790747" lon="11.4070666699394" id="-61983">
		<tag k="name" v="Ansnesgrunnen" />
		<tag k="natural" v="shoal" />
		<tag k="place" v="locality" />
		<tag k="ssr:stedsnr" v="271371" />
	</node>
	<node lat="64.4757999993428" lon="11.387102779575986" id="-61984">
		<tag k="fixme" v="consider seamark:type=rock or natural=shoal" />
		<tag k="name" v="Hoøyskjæret" />
		<tag k="place" v="islet" />
		<tag k="ssr:stedsnr" v="271372" />
	</node>
	<node lat="64.55611944886023" lon="11.361505549640812" id="-61985">
		<tag k="name" v="Bjørkvika" />
		<tag k="natural" v="bay" />
		<tag k="ssr:stedsnr" v="271491" />
	</node>
	<node lat="64.66676944144974" lon="11.179216675790482" id="-62017">
		<tag k="name" v="Langstrandholmen" />
		<tag k="place" v="islet" />
		<tag k="ssr:stedsnr" v="288408" />
	</node>
	<node lat="64.63832778215689" lon="11.249205556496339" id="-62019">
		<tag k="name" v="Steinsjøvika" />
		<tag k="natural" v="beach" />
		<tag k="ssr:stedsnr" v="290004" />
	</node>
	<node lat="64.66518889225472" lon="11.19378333235259" id="-62025">
		<tag k="name" v="Trillvika" />
		<tag k="natural" v="bay" />
		<tag k="ssr:stedsnr" v="290177" />
	</node>
	<node lat="64.61101666609383" lon="11.329644450290779" id="-62026">
		<tag k="fixme" v="consider seamark:type=rock or natural=shoal" />
		<tag k="name" v="Jensskjæret" />
		<tag k="place" v="islet" />
		<tag k="ssr:stedsnr" v="290533" />
	</node>
	<node lat="64.59232222396004" lon="11.614588897204914" id="-62031">
		<tag k="name" v="Fossbukta" />
		<tag k="natural" v="bay" />
		<tag k="ssr:stedsnr" v="290680" />
	</node>
	<node lat="64.65400277990989" lon="11.3553222277694" id="-62035">
		<tag k="name" v="Finnvika" />
		<tag k="natural" v="bay" />
		<tag k="ssr:stedsnr" v="290893" />
	</node>
	<node lat="64.57161111138298" lon="11.611238890540582" id="-62048">
		<tag k="name" v="Rypnesflauget" />
		<tag k="natural" v="cape" />
		<tag k="ssr:stedsnr" v="291675" />
	</node>
	<node lat="64.4345222262925" lon="11.333658331905928" id="-62057">
		<tag k="name" v="Våganeset" />
		<tag k="natural" v="cape" />
		<tag k="ssr:stedsnr" v="291797" />
	</node>
	<node lat="64.52252499638588" lon="11.074063878536231" id="-62062">
		<tag k="name" v="Krokvikodden" />
		<tag k="natural" v="cape" />
		<tag k="ssr:stedsnr" v="292411" />
	</node>
	<node lat="64.73667778120051" lon="11.638594445265628" id="-62069">
		<tag k="name" v="Nordholet" />
		<tag k="natural" v="bay" />
		<tag k="ssr:stedsnr" v="293505" />
	</node>
	<node lat="64.31613888608696" lon="11.235677770003841" id="-62075">
		<tag k="name" v="Neset" />
		<tag k="natural" v="cape" />
		<tag k="ssr:stedsnr" v="463171" />
	</node>
	<node lat="64.4011416671461" lon="11.35108055051017" id="-62101">
		<tag k="name" v="Svartvika" />
		<tag k="natural" v="bay" />
		<tag k="ssr:stedsnr" v="463743" />
	</node>
	<node lat="64.45984999860613" lon="11.295383327177554" id="-62104">
		<tag k="name" v="Sundsøya" />
		<tag k="place" v="island" />
		<tag k="ssr:stedsnr" v="317002" />
	</node>
	<node lat="64.45148333289521" lon="11.327475006124057" id="-62108">
		<tag k="name" v="Skjerpøya" />
		<tag k="place" v="island" />
		<tag k="ssr:stedsnr" v="317013" />
	</node>
	<node lat="64.46854999777435" lon="11.431988880288285" id="-62111">
		<tag k="name" v="Gullholmen" />
		<tag k="place" v="islet" />
		<tag k="ssr:stedsnr" v="317043" />
	</node>
	<node lat="64.4589416685079" lon="11.267458331508832" id="-62112">
		<tag k="name" v="Ternholmen" />
		<tag k="old_name" v="Tenholmen" />
		<tag k="place" v="islet" />
		<tag k="ssr:stedsnr" v="317050" />
	</node>
	<node lat="64.45798888697297" lon="11.2253555461456" id="-62113">
		<tag k="name" v="Raudneset" />
		<tag k="natural" v="cape" />
		<tag k="ssr:stedsnr" v="317051" />
	</node>
	<node lat="64.57730833376611" lon="11.16451388073296" id="-62128">
		<tag k="name" v="Varpholmen" />
		<tag k="place" v="islet" />
		<tag k="ssr:stedsnr" v="317527" />
	</node>
	<node lat="64.58513056003507" lon="11.153419446072597" id="-62132">
		<tag k="fixme" v="consider seamark:type=rock or natural=shoal" />
		<tag k="name" v="Svartskjæret" />
		<tag k="place" v="islet" />
		<tag k="ssr:stedsnr" v="317552" />
	</node>
	<node lat="64.75513611374133" lon="11.571075007426039" id="-62145">
		<tag k="name" v="Hestøya" />
		<tag k="place" v="islet" />
		<tag k="ssr:stedsnr" v="317642" />
	</node>
	<node lat="64.50735278039804" lon="11.28766111822992" id="-62159">
		<tag k="name" v="Likosen" />
		<tag k="natural" v="bay" />
		<tag k="ssr:stedsnr" v="318230" />
	</node>
	<node lat="64.51755833099601" lon="11.466950009941415" id="-62162">
		<tag k="name" v="Gåsneset" />
		<tag k="natural" v="cape" />
		<tag k="ssr:stedsnr" v="318146" />
	</node>
	<node lat="64.62014166829806" lon="11.39406666529284" id="-62170">
		<tag k="name" v="Urdvika" />
		<tag k="natural" v="bay" />
		<tag k="ssr:stedsnr" v="318397" />
	</node>
	<node lat="64.61403611237492" lon="11.339755560169403" id="-62171">
		<tag k="name" v="Franshammaren" />
		<tag k="natural" v="cape" />
		<tag k="ssr:stedsnr" v="318506" />
	</node>
	<node lat="64.51882777423836" lon="11.127077776446674" id="-62172">
		<tag k="name" v="Kvalen" />
		<tag k="natural" v="cape" />
		<tag k="ssr:stedsnr" v="318719" />
	</node>
	<node lat="64.67984167039185" lon="11.394866675356232" id="-62181">
		<tag k="name" v="Varpet" />
		<tag k="natural" v="bay" />
		<tag k="ssr:stedsnr" v="469338" />
	</node>
	<node lat="64.67177777707487" lon="10.836752772739564" id="-62182">
		<tag k="name" v="Nordskåka" />
		<tag k="natural" v="shoal" />
		<tag k="place" v="locality" />
		<tag k="ssr:stedsnr" v="330561" />
	</node>
	<node lat="64.70663611515864" lon="10.99859167470073" id="-62183">
		<tag k="name" v="Litlstabben" />
		<tag k="place" v="locality" />
		<tag k="seamark:type" v="rock" />
		<tag k="ssr:stedsnr" v="331319" />
	</node>
	<node lat="64.76460000106127" lon="11.56823334268265" id="-62184">
		<tag k="name" v="Faksodden" />
		<tag k="natural" v="cape" />
		<tag k="ssr:stedsnr" v="331225" />
	</node>
	<node lat="64.69517222381154" lon="11.372563888744013" id="-62185">
		<tag k="name" v="Østgrunnen" />
		<tag k="natural" v="shoal" />
		<tag k="place" v="locality" />
		<tag k="ssr:stedsnr" v="331960" />
	</node>
	<node lat="64.62084166652217" lon="11.164027767756055" id="-62186">
		<tag k="name" v="Skipsskjæret" />
		<tag k="natural" v="shoal" />
		<tag k="place" v="locality" />
		<tag k="ssr:stedsnr" v="332000" />
	</node>
	<node lat="64.46408333556545" lon="11.480905555436582" id="-62189">
		<tag k="name" v="Annfinnvika" />
		<tag k="natural" v="bay" />
		<tag k="ssr:stedsnr" v="332557" />
	</node>
	<node lat="64.51460833167867" lon="11.461111108338272" id="-62190">
		<tag k="name" v="Pedervika" />
		<tag k="natural" v="bay" />
		<tag k="ssr:stedsnr" v="332561" />
	</node>
	<node lat="64.64004721883218" lon="11.170444434770793" id="-62199">
		<tag k="name" v="Ruggelvika" />
		<tag k="natural" v="bay" />
		<tag k="ssr:stedsnr" v="471391" />
	</node>
	<node lat="64.66564166792786" lon="11.163497231711125" id="-62200">
		<tag k="name" v="Sør Bremsundholmen" />
		<tag k="place" v="islet" />
		<tag k="ssr:stedsnr" v="471452" />
	</node>
	<node lat="64.48328055321436" lon="11.36786110819058" id="-62204">
		<tag k="name" v="Langnesodden" />
		<tag k="natural" v="cape" />
		<tag k="ssr:stedsnr" v="472083" />
	</node>
	<node lat="64.63827499955572" lon="11.410322231767394" id="-62210">
		<tag k="name" v="Langstranda" />
		<tag k="natural" v="beach" />
		<tag k="ssr:stedsnr" v="472246" />
	</node>
	<node lat="64.372477773449" lon="11.324391673739747" id="-62230">
		<tag k="name" v="Storskarbukta" />
		<tag k="natural" v="bay" />
		<tag k="ssr:stedsnr" v="341618" />
	</node>
	<node lat="64.58977222467308" lon="11.172913890264292" id="-62232">
		<tag k="name" v="Hestvika" />
		<tag k="natural" v="bay" />
		<tag k="ssr:stedsnr" v="472531" />
	</node>
	<node lat="64.59737777498015" lon="11.377311116080723" id="-62233">
		<tag k="name" v="Bryggodden" />
		<tag k="natural" v="cape" />
		<tag k="ssr:stedsnr" v="472535" />
	</node>
	<node lat="64.68074166679257" lon="11.197363898875981" id="-62252">
		<tag k="fixme" v="consider seamark:type=rock or natural=shoal" />
		<tag k="name" v="Måsøyskjæret" />
		<tag k="place" v="islet" />
		<tag k="ssr:stedsnr" v="472840" />
	</node>
	<node lat="64.63503055968842" lon="11.344674994772577" id="-62254">
		<tag k="name" v="Stallbukta" />
		<tag k="natural" v="bay" />
		<tag k="ssr:stedsnr" v="472891" />
	</node>
	<node lat="64.68083610889471" lon="11.217561101312203" id="-62255">
		<tag k="name" v="Storskardvika" />
		<tag k="natural" v="bay" />
		<tag k="ssr:stedsnr" v="472854" />
	</node>
	<node lat="64.68786389037602" lon="11.327761108883179" id="-62258">
		<tag k="name" v="Krongelvika" />
		<tag k="natural" v="bay" />
		<tag k="ssr:stedsnr" v="472941" />
	</node>
	<node lat="64.50682777428534" lon="11.13328888287166" id="-62267">
		<tag k="name" v="Vallskiftvika" />
		<tag k="natural" v="bay" />
		<tag k="ssr:stedsnr" v="473479" />
	</node>
	<node lat="64.55350000439013" lon="11.484330562865539" id="-62273">
		<tag k="name" v="Solbuenget" />
		<tag k="natural" v="bay" />
		<tag k="ssr:stedsnr" v="473630" />
	</node>
	<node lat="64.54229999902302" lon="11.40493888090011" id="-62276">
		<tag k="name" v="Rønneset" />
		<tag k="natural" v="cape" />
		<tag k="ssr:stedsnr" v="473645" />
	</node>
	<node lat="64.61335277452989" lon="11.427702784222221" id="-62284">
		<tag k="name" v="Breksillholmen" />
		<tag k="natural" v="cape" />
		<tag k="ssr:stedsnr" v="349724" />
	</node>
	<node lat="64.61475555433921" lon="11.426988890146097" id="-62286">
		<tag k="name" v="Saltbuvalen" />
		<tag k="natural" v="beach" />
		<tag k="ssr:stedsnr" v="349727" />
	</node>
	<node lat="64.61296944874016" lon="11.24852499993687" id="-62294">
		<tag k="name" v="Barøyodden" />
		<tag k="natural" v="cape" />
		<tag k="ssr:stedsnr" v="350109" />
	</node>
	<node lat="64.62508889294146" lon="11.037969441248839" id="-62302">
		<tag k="name" v="Djupvika" />
		<tag k="natural" v="bay" />
		<tag k="ssr:stedsnr" v="473939" />
	</node>
	<node lat="64.67057777681795" lon="11.134613880141469" id="-62304">
		<tag k="fixme" v="consider seamark:type=rock or natural=shoal" />
		<tag k="name" v="Gauven" />
		<tag k="place" v="islet" />
		<tag k="ssr:stedsnr" v="350413" />
	</node>
	<node lat="64.67120555161452" lon="11.138499996938053" id="-62305">
		<tag k="name" v="Midtergauven" />
		<tag k="natural" v="shoal" />
		<tag k="place" v="locality" />
		<tag k="ssr:stedsnr" v="350415" />
	</node>
	<node lat="64.67258055915515" lon="11.140152782076921" id="-62306">
		<tag k="fixme" v="consider seamark:type=rock or natural=shoal" />
		<tag k="name" v="Litltårnet" />
		<tag k="place" v="islet" />
		<tag k="ssr:stedsnr" v="350416" />
	</node>
	<node lat="64.60258888497873" lon="11.324380564128576" id="-62309">
		<tag k="name" v="Biskopvika" />
		<tag k="natural" v="bay" />
		<tag k="ssr:stedsnr" v="350581" />
	</node>
	<node lat="64.68149166877542" lon="11.321522223356272" id="-62310">
		<tag k="name" v="Litlgrunnen" />
		<tag k="natural" v="shoal" />
		<tag k="place" v="locality" />
		<tag k="ssr:stedsnr" v="350936" />
	</node>
	<node lat="64.4698055511539" lon="11.269155553327087" id="-62322">
		<tag k="name" v="Spikmofjæra" />
		<tag k="natural" v="beach" />
		<tag k="ssr:stedsnr" v="351066" />
	</node>
	<node lat="64.57397222602307" lon="11.49796388092438" id="-62331">
		<tag k="name" v="Nordsundet" />
		<tag k="natural" v="strait" />
		<tag k="ssr:stedsnr" v="351604" />
	</node>
	<node lat="64.54767500136994" lon="11.463861111946335" id="-62332">
		<tag k="name" v="Tennholmen" />
		<tag k="place" v="islet" />
		<tag k="ssr:stedsnr" v="351608" />
	</node>
	<node lat="64.56074999783033" lon="11.13460276989151" id="-62338">
		<tag k="name" v="Ormtunga" />
		<tag k="natural" v="cape" />
		<tag k="ssr:stedsnr" v="351558" />
	</node>
	<node lat="64.60168333307352" lon="11.615227777198335" id="-62341">
		<tag k="name" v="Raudhammaren" />
		<tag k="natural" v="cape" />
		<tag k="ssr:stedsnr" v="351718" />
	</node>
	<node lat="64.60848888918686" lon="11.023297227851442" id="-62346">
		<tag k="name" v="Lyktholmen" />
		<tag k="place" v="islet" />
		<tag k="ssr:stedsnr" v="351924" />
	</node>
	<node lat="64.77672222535075" lon="11.705524996731178" id="-62358">
		<tag k="name" v="Sørodden" />
		<tag k="natural" v="cape" />
		<tag k="ssr:stedsnr" v="475043" />
	</node>
	<node lat="64.69014722085527" lon="11.053747232001946" id="-62373">
		<tag k="name" v="Storslua" />
		<tag k="natural" v="shoal" />
		<tag k="place" v="locality" />
		<tag k="ssr:stedsnr" v="271957" />
	</node>
	<node lat="64.71341666547596" lon="11.41028889327361" id="-62392">
		<tag k="name" v="Omfløttholmen" />
		<tag k="place" v="islet" />
		<tag k="ssr:stedsnr" v="378265" />
	</node>
	<node lat="64.61790000220493" lon="11.409977782584814" id="-62397">
		<tag k="name" v="Slåttarvika" />
		<tag k="natural" v="bay" />
		<tag k="ssr:stedsnr" v="378419" />
	</node>
	<node lat="64.48223055570502" lon="11.21400555666922" id="-62398">
		<tag k="name" v="Hoddøya" />
		<tag k="place" v="island" />
		<tag k="ssr:stedsnr" v="378421" />
	</node>
	<node lat="64.62321666672763" lon="11.400322228872211" id="-62399">
		<tag k="name" v="Stakkvika" />
		<tag k="natural" v="bay" />
		<tag k="ssr:stedsnr" v="378422" />
	</node>
	<node lat="64.59524722216774" lon="11.603900006171028" id="-62400">
		<tag k="name" v="Jektvika" />
		<tag k="natural" v="bay" />
		<tag k="old_name" v="Jægtvika" />
		<tag k="ssr:stedsnr" v="378464" />
	</node>
	<node lat="64.7547638853913" lon="11.581152783349163" id="-62406">
		<tag k="name" v="Edøya" />
		<tag k="place" v="islet" />
		<tag k="ssr:stedsnr" v="378724" />
	</node>
	<node lat="64.68955000072542" lon="11.302811103996653" id="-62420">
		<tag k="name" v="Kuholmen" />
		<tag k="place" v="islet" />
		<tag k="ssr:stedsnr" v="379264" />
	</node>
	<node lat="64.69255000125654" lon="11.261744444249084" id="-62421">
		<tag k="alt_name" v="Fosnes-Nordøya" />
		<tag k="name" v="Nordøya" />
		<tag k="place" v="islet" />
		<tag k="ssr:stedsnr" v="379265" />
	</node>
	<node lat="64.6842444444258" lon="10.925905565381202" id="-62428">
		<tag k="fixme" v="consider seamark:type=rock or natural=shoal" />
		<tag k="name" v="Bendikknausen" />
		<tag k="place" v="islet" />
		<tag k="ssr:stedsnr" v="390490" />
	</node>
	<node lat="64.5980666691509" lon="11.031355556337738" id="-62429">
		<tag k="fixme" v="consider seamark:type=rock or natural=shoal" />
		<tag k="name" v="Trollsteinen" />
		<tag k="place" v="islet" />
		<tag k="ssr:stedsnr" v="392311" />
	</node>
	<node lat="64.44628055182616" lon="11.18424722604337" id="-62430">
		<tag k="name" v="Tøttdalsbotnen" />
		<tag k="natural" v="bay" />
		<tag k="ssr:stedsnr" v="392344" />
	</node>
	<node lat="64.53831389161547" lon="11.303413889364396" id="-62433">
		<tag k="name" v="Breistrandleira" />
		<tag k="natural" v="bay" />
		<tag k="ssr:stedsnr" v="393732" />
	</node>
	<node lat="64.3269083340917" lon="11.247541659479595" id="-62437">
		<tag k="name" v="Storvika" />
		<tag k="natural" v="bay" />
		<tag k="ssr:stedsnr" v="402185" />
	</node>
	<node lat="64.63016944390553" lon="11.232277785244667" id="-62458">
		<tag k="fixme" v="consider seamark:type=rock or natural=shoal" />
		<tag k="name" v="Brennhaugskjæret" />
		<tag k="place" v="islet" />
		<tag k="ssr:stedsnr" v="411111" />
	</node>
	<node lat="64.66904999695558" lon="11.175319447461087" id="-62461">
		<tag k="name" v="Varpvika" />
		<tag k="natural" v="bay" />
		<tag k="ssr:stedsnr" v="411406" />
	</node>
	<node lat="64.65872499983111" lon="11.155366657205454" id="-62462">
		<tag k="name" v="Oksholmen" />
		<tag k="place" v="islet" />
		<tag k="ssr:stedsnr" v="411438" />
	</node>
	<node lat="64.59983888437971" lon="11.35136667374251" id="-62467">
		<tag k="name" v="Nordbekkodden" />
		<tag k="natural" v="cape" />
		<tag k="ssr:stedsnr" v="411549" />
	</node>
	<node lat="64.65734999753806" lon="11.3569916738022" id="-62471">
		<tag k="name" v="Jonodden" />
		<tag k="natural" v="cape" />
		<tag k="ssr:stedsnr" v="411906" />
	</node>
	<node lat="64.60255833313711" lon="11.296097212411548" id="-62473">
		<tag k="fixme" v="consider seamark:type=rock or natural=shoal" />
		<tag k="name" v="Ringskjæret" />
		<tag k="place" v="islet" />
		<tag k="ssr:stedsnr" v="411889" />
	</node>
	<node lat="64.43090833516429" lon="11.33484444500513" id="-62501">
		<tag k="name" v="Oterdalsbukta" />
		<tag k="natural" v="bay" />
		<tag k="ssr:stedsnr" v="438098" />
	</node>
	<node lat="64.57290278158915" lon="11.560113878821141" id="-62507">
		<tag k="name" v="Bekkavika" />
		<tag k="natural" v="bay" />
		<tag k="ssr:stedsnr" v="439014" />
	</node>
	<node lat="64.57908055213889" lon="11.321252786538912" id="-62508">
		<tag k="name" v="Lyngholmen" />
		<tag k="place" v="islet" />
		<tag k="ssr:stedsnr" v="439015" />
	</node>
	<node lat="64.53494444518824" lon="11.431580546619559" id="-62517">
		<tag k="name" v="Riddarspranget" />
		<tag k="natural" v="cape" />
		<tag k="ssr:stedsnr" v="439047" />
	</node>
	<node lat="64.65328610796095" lon="11.363530559110819" id="-62529">
		<tag k="bay" v="fjord" />
		<tag k="name" v="Gyltfjorden" />
		<tag k="natural" v="bay" />
		<tag k="ssr:stedsnr" v="439311" />
	</node>
	<node lat="64.67756389051716" lon="11.333555546395594" id="-62530">
		<tag k="alt_name" v="Moldvikbukta" />
		<tag k="name" v="Moldvika" />
		<tag k="natural" v="bay" />
		<tag k="ssr:stedsnr" v="439346" />
	</node>
	<node lat="64.6477055518788" lon="11.403905549276503" id="-62533">
		<tag k="name" v="Revodden" />
		<tag k="natural" v="cape" />
		<tag k="ssr:stedsnr" v="439401" />
	</node>
	<node lat="64.51361388768689" lon="11.123149991063691" id="-62539">
		<tag k="name" v="Ledangsøra" />
		<tag k="natural" v="cape" />
		<tag k="ssr:stedsnr" v="439714" />
	</node>
	<node lat="64.34606667049104" lon="11.25958889310581" id="-62542">
		<tag k="name" v="Kobbsteinodden" />
		<tag k="natural" v="cape" />
		<tag k="ssr:stedsnr" v="439906" />
	</node>
	<node lat="64.67245000055748" lon="11.136074997207746" id="-62550">
		<tag k="fixme" v="consider seamark:type=rock or natural=shoal" />
		<tag k="name" v="Tårnet" />
		<tag k="place" v="islet" />
		<tag k="ssr:stedsnr" v="439995" />
	</node>
	<node lat="64.76085000189093" lon="11.569386103343836" id="-62555">
		<tag k="name" v="Bremneset" />
		<tag k="natural" v="cape" />
		<tag k="ssr:stedsnr" v="440692" />
	</node>
	<node lat="64.72121110965833" lon="11.024086100949551" id="-62562">
		<tag k="name" v="Bårflestaren" />
		<tag k="natural" v="shoal" />
		<tag k="place" v="locality" />
		<tag k="ssr:stedsnr" v="452314" />
	</node>
	<node lat="64.6365694409987" lon="11.241077787788791" id="-62589">
		<tag k="name" v="Bårdvikbukta" />
		<tag k="natural" v="bay" />
		<tag k="ssr:stedsnr" v="472002" />
	</node>
	<node lat="64.65625277977146" lon="11.194466669648936" id="-62590">
		<tag k="name" v="Småvikan" />
		<tag k="natural" v="bay" />
		<tag k="ssr:stedsnr" v="472205" />
	</node>
	<node lat="64.61336944594923" lon="11.333416668759112" id="-62597">
		<tag k="fixme" v="consider seamark:type=rock or natural=shoal" />
		<tag k="name" v="Hågenskjæret" />
		<tag k="place" v="islet" />
		<tag k="ssr:stedsnr" v="472507" />
	</node>
	<node lat="64.64848611442773" lon="11.111513890999195" id="-62604">
		<tag k="name" v="Mellomodden" />
		<tag k="place" v="islet" />
		<tag k="ssr:stedsnr" v="472959" />
	</node>
	<node lat="64.55900277438991" lon="11.360788881160289" id="-62611">
		<tag k="name" v="Småvikan" />
		<tag k="natural" v="bay" />
		<tag k="ssr:stedsnr" v="473607" />
	</node>
	<node lat="64.55085833391404" lon="11.369294451043212" id="-62612">
		<tag k="name" v="Håkilflaget" />
		<tag k="natural" v="cape" />
		<tag k="ssr:stedsnr" v="473609" />
	</node>
	<node lat="64.57542222411725" lon="11.472713898341778" id="-62614">
		<tag k="name" v="Magnusvika" />
		<tag k="natural" v="bay" />
		<tag k="ssr:stedsnr" v="473616" />
	</node>
	<node lat="64.54969444347894" lon="11.434647215848493" id="-62615">
		<tag k="name" v="Dyrvika" />
		<tag k="natural" v="bay" />
		<tag k="ssr:stedsnr" v="473624" />
	</node>
	<node lat="64.56568055915352" lon="11.549652772415577" id="-62616">
		<tag k="name" v="Blikengodden" />
		<tag k="natural" v="cape" />
		<tag k="ssr:stedsnr" v="473662" />
	</node>
	<node lat="64.48164882937039" lon="11.323868986084914" id="-62636">
		<tag k="name" v="Oldervika" />
		<tag k="natural" v="bay" />
		<tag k="old_name" v="Oddervika" />
		<tag k="ssr:stedsnr" v="681032" />
	</node>
	<node lat="64.47004999614623" lon="11.343155554856653" id="-62638">
		<tag k="name" v="Gåsungen" />
		<tag k="place" v="islet" />
		<tag k="ssr:stedsnr" v="681047" />
	</node>
	<node lat="64.49230555994278" lon="11.299769436934943" id="-62656">
		<tag k="name" v="Broemsvågen" />
		<tag k="natural" v="bay" />
		<tag k="ssr:stedsnr" v="499147" />
	</node>
	<node lat="64.46660271618047" lon="11.487008598624586" id="-62659">
		<tag k="name" v="Lavika" />
		<tag k="natural" v="bay" />
		<tag k="ssr:stedsnr" v="499037" />
	</node>
	<node lat="64.41291944088212" lon="11.355386101600557" id="-62660">
		<tag k="name" v="Dragøya" />
		<tag k="place" v="islet" />
		<tag k="ssr:stedsnr" v="499044" />
	</node>
	<node lat="64.6840333372224" lon="11.317211106474415" id="-62663">
		<tag k="name" v="Purkvikodden" />
		<tag k="natural" v="cape" />
		<tag k="ssr:stedsnr" v="499287" />
	</node>
	<node lat="64.70904166275079" lon="11.013141662248438" id="-62672">
		<tag k="name" v="Litlbårflesa" />
		<tag k="place" v="islet" />
		<tag k="ssr:stedsnr" v="681966" />
	</node>
	<node lat="64.35490832923573" lon="11.254991659800503" id="-62675">
		<tag k="name" v="Saltbuodden" />
		<tag k="natural" v="cape" />
		<tag k="ssr:stedsnr" v="499845" />
	</node>
	<node lat="64.53785277555968" lon="11.484819446367544" id="-62688">
		<tag k="name" v="Storøya" />
		<tag k="place" v="island" />
		<tag k="ssr:stedsnr" v="500086" />
	</node>
	<node lat="64.5440194411781" lon="11.570716658468937" id="-62691">
		<tag k="name" v="Heimdalsbotnet" />
		<tag k="natural" v="strait" />
		<tag k="ssr:stedsnr" v="500100" />
	</node>
	<node lat="64.56597778078587" lon="11.300949997934191" id="-62696">
		<tag k="alt_name" v="Løvøfjorden" />
		<tag k="bay" v="fjord" />
		<tag k="name" v="Lauvøyfjorden" />
		<tag k="natural" v="bay" />
		<tag k="ssr:stedsnr" v="500219" />
	</node>
	<node lat="64.54421666730661" lon="11.501422220323088" id="-62697">
		<tag k="name" v="Saltbuvika" />
		<tag k="natural" v="bay" />
		<tag k="ssr:stedsnr" v="500223" />
	</node>
	<node lat="64.67578332912046" lon="11.158325008167077" id="-62702">
		<tag k="fixme" v="consider seamark:type=rock or natural=shoal" />
		<tag k="name" v="Singsskjæret" />
		<tag k="place" v="islet" />
		<tag k="ssr:stedsnr" v="499987" />
	</node>
	<node lat="64.54419444171143" lon="11.47986944540685" id="-62706">
		<tag k="name" v="Bukkøya" />
		<tag k="place" v="islet" />
		<tag k="ssr:stedsnr" v="500103" />
	</node>
	<node lat="64.60276389156583" lon="11.255952771461054" id="-62726">
		<tag k="name" v="Geitryggen" />
		<tag k="natural" v="cape" />
		<tag k="ssr:stedsnr" v="500579" />
	</node>
	<node lat="64.74710277399227" lon="11.582400001950177" id="-62728">
		<tag k="alt_name" v="Lauvøya" />
		<tag k="name" v="Løvøya" />
		<tag k="place" v="islet" />
		<tag k="ssr:stedsnr" v="500788" />
	</node>
	<node lat="64.58569166272997" lon="11.195122220862618" id="-62731">
		<tag k="name" v="Botsvika" />
		<tag k="natural" v="bay" />
		<tag k="old_name" v="Borgsvika" />
		<tag k="ssr:stedsnr" v="681579" />
	</node>
	<node lat="64.58304722209796" lon="11.20938610515105" id="-62732">
		<tag k="name" v="Altbotnen" />
		<tag k="natural" v="bay" />
		<tag k="ssr:stedsnr" v="681581" />
	</node>
	<node lat="64.58390277460754" lon="11.1830277799388" id="-62735">
		<tag k="name" v="Granodden" />
		<tag k="natural" v="cape" />
		<tag k="ssr:stedsnr" v="681590" />
	</node>
	<node lat="64.54973888704652" lon="11.13983611198228" id="-62740">
		<tag k="name" v="Larsvika" />
		<tag k="natural" v="bay" />
		<tag k="ssr:stedsnr" v="681646" />
	</node>
	<node lat="64.75391666460928" lon="11.592636112870087" id="-62750">
		<tag k="bay" v="fjord" />
		<tag k="name" v="Fjærangen" />
		<tag k="natural" v="bay" />
		<tag k="ssr:stedsnr" v="681707" />
	</node>
	<node lat="64.38020278052099" lon="11.39418333851958" id="-62754">
		<tag k="name" v="Kalvvika" />
		<tag k="natural" v="bay" />
		<tag k="ssr:stedsnr" v="681953" />
	</node>
	<node lat="64.56090000222623" lon="11.529800005502171" id="-62756">
		<tag k="name" v="Rundholmen" />
		<tag k="place" v="islet" />
		<tag k="ssr:stedsnr" v="682005" />
	</node>
	<node lat="64.67306111208498" lon="11.161002771949637" id="-62757">
		<tag k="fixme" v="consider seamark:type=rock or natural=shoal" />
		<tag k="name" v="Grønnøyskjæret" />
		<tag k="place" v="islet" />
		<tag k="ssr:stedsnr" v="681994" />
	</node>
	<node lat="64.65919999755427" lon="11.16039722257139" id="-62759">
		<tag k="name" v="Hovsodden" />
		<tag k="natural" v="cape" />
		<tag k="ssr:stedsnr" v="681999" />
	</node>
	<node lat="64.55844721984882" lon="11.60508056130954" id="-62767">
		<tag k="name" v="Litlbjørnvika" />
		<tag k="natural" v="bay" />
		<tag k="ssr:stedsnr" v="682009" />
	</node>
	<node lat="64.57295555835414" lon="11.344205560287099" id="-62768">
		<tag k="name" v="Brennvinholet" />
		<tag k="natural" v="bay" />
		<tag k="ssr:stedsnr" v="682019" />
	</node>
	<node lat="64.56144166246253" lon="11.344950006234" id="-62780">
		<tag k="name" v="Levra" />
		<tag k="place" v="islet" />
		<tag k="ssr:stedsnr" v="682140" />
	</node>
	<node lat="64.7126166706568" lon="11.442480548414604" id="-62784">
		<tag k="name" v="Nordsjøbukta" />
		<tag k="natural" v="bay" />
		<tag k="ssr:stedsnr" v="682289" />
	</node>
	<node lat="64.62013611441866" lon="11.267644439137607" id="-62792">
		<tag k="name" v="Olavikodden" />
		<tag k="natural" v="cape" />
		<tag k="ssr:stedsnr" v="682434" />
	</node>
	<node lat="64.61466944436035" lon="11.436611117012873" id="-62793">
		<tag k="name" v="Breksillvågen" />
		<tag k="natural" v="bay" />
		<tag k="ssr:stedsnr" v="682445" />
	</node>
	<node lat="64.74664166265835" lon="11.532900003717613" id="-62800">
		<tag k="name" v="Skjeppvika" />
		<tag k="natural" v="bay" />
		<tag k="ssr:stedsnr" v="682775" />
	</node>
	<node lat="64.39061389248062" lon="11.375725004211848" id="-62828">
		<tag k="name" v="Botnleira" />
		<tag k="natural" v="bay" />
		<tag k="ssr:stedsnr" v="523769" />
	</node>
	<node lat="64.6561666682625" lon="11.173952776655462" id="-62831">
		<tag k="name" v="Rakkavikodden" />
		<tag k="natural" v="cape" />
		<tag k="ssr:stedsnr" v="530478" />
	</node>
	<node lat="64.62945000302277" lon="11.243136120897109" id="-62833">
		<tag k="name" v="Litlholmen" />
		<tag k="place" v="islet" />
		<tag k="ssr:stedsnr" v="532091" />
	</node>
	<node lat="64.60422222467685" lon="11.431561111856203" id="-62839">
		<tag k="name" v="Båtvika" />
		<tag k="natural" v="bay" />
		<tag k="ssr:stedsnr" v="532508" />
	</node>
	<node lat="64.6010166686341" lon="11.44511667066924" id="-62840">
		<tag k="name" v="Hardbaken" />
		<tag k="natural" v="cape" />
		<tag k="ssr:stedsnr" v="532510" />
	</node>
	<node lat="64.6675916666592" lon="11.182852768669788" id="-62841">
		<tag k="name" v="Aunavika" />
		<tag k="natural" v="bay" />
		<tag k="ssr:stedsnr" v="532414" />
	</node>
	<node lat="64.68871388735604" lon="11.248088886820348" id="-62846">
		<tag k="name" v="Nordvika" />
		<tag k="natural" v="bay" />
		<tag k="ssr:stedsnr" v="532856" />
	</node>
	<node lat="64.64349166457008" lon="11.367233326185923" id="-62847">
		<tag k="bay" v="fjord" />
		<tag k="name" v="Seierstadfjorden" />
		<tag k="natural" v="bay" />
		<tag k="ssr:stedsnr" v="532886" />
	</node>
	<node lat="64.65159444416129" lon="11.106138898100319" id="-62866">
		<tag k="name" v="Matkroken" />
		<tag k="natural" v="bay" />
		<tag k="ssr:stedsnr" v="534973" />
	</node>
	<node lat="64.64152500297685" lon="11.071838893780681" id="-62867">
		<tag k="name" v="Hagavika" />
		<tag k="natural" v="bay" />
		<tag k="ssr:stedsnr" v="534979" />
	</node>
	<node lat="64.7711611087546" lon="11.744166672332971" id="-62873">
		<tag k="name" v="Merrahammaren" />
		<tag k="natural" v="cape" />
		<tag k="ssr:stedsnr" v="535070" />
	</node>
	<node lat="64.47819444024435" lon="11.426102783109016" id="-62885">
		<tag k="name" v="Lokkaren" />
		<tag k="natural" v="strait" />
		<tag k="ssr:stedsnr" v="559037" />
	</node>
	<node lat="64.48551666597061" lon="11.444675006119152" id="-62887">
		<tag k="alt_name" v="Skjolden" />
		<tag k="name" v="Kattmarkodden" />
		<tag k="natural" v="cape" />
		<tag k="ssr:stedsnr" v="559202" />
	</node>
	<node lat="64.41951666770512" lon="11.33132499562599" id="-62889">
		<tag k="name" v="Andvika" />
		<tag k="natural" v="bay" />
		<tag k="ssr:stedsnr" v="559104" />
	</node>
	<node lat="64.44459444037447" lon="11.20412777956093" id="-62894">
		<tag k="name" v="Balbuvika" />
		<tag k="natural" v="bay" />
		<tag k="ssr:stedsnr" v="559442" />
	</node>
	<node lat="64.44459999575369" lon="11.166480552294754" id="-62895">
		<tag k="name" v="Sveodden" />
		<tag k="natural" v="cape" />
		<tag k="ssr:stedsnr" v="559444" />
	</node>
	<node lat="64.5613025864098" lon="11.503763689943428" id="-62909">
		<tag k="name" v="Hellsøystraumen" />
		<tag k="natural" v="strait" />
		<tag k="ssr:stedsnr" v="560001" />
	</node>
	<node lat="64.72196944124886" lon="11.658063890986508" id="-62921">
		<tag k="name" v="Hommelvika" />
		<tag k="natural" v="bay" />
		<tag k="ssr:stedsnr" v="560296" />
	</node>
	<node lat="64.67991944351053" lon="11.324850003141949" id="-62928">
		<tag k="alt_name" v="Kvennhusodden" />
		<tag k="name" v="Kvernhusodden" />
		<tag k="natural" v="cape" />
		<tag k="ssr:stedsnr" v="560336" />
	</node>
	<node lat="64.68716666704162" lon="11.228411104995706" id="-62929">
		<tag k="name" v="Nordøyholmen" />
		<tag k="place" v="islet" />
		<tag k="ssr:stedsnr" v="560342" />
	</node>
	<node lat="64.61982499703878" lon="11.350902776328518" id="-62931">
		<tag k="bay" v="fjord" />
		<tag k="name" v="Seierstadfjorden" />
		<tag k="natural" v="bay" />
		<tag k="ssr:stedsnr" v="560387" />
	</node>
	<node lat="64.60925000465797" lon="11.399341657349085" id="-62935">
		<tag k="name" v="Busalten" />
		<tag k="natural" v="bay" />
		<tag k="ssr:stedsnr" v="560486" />
	</node>
	<node lat="64.60403333435247" lon="11.604758341385319" id="-62938">
		<tag k="name" v="Litlbrannøya" />
		<tag k="place" v="islet" />
		<tag k="ssr:stedsnr" v="560492" />
	</node>
	<node lat="64.60639722184838" lon="11.60715834050533" id="-62939">
		<tag k="name" v="Storbrannøya" />
		<tag k="place" v="islet" />
		<tag k="ssr:stedsnr" v="560493" />
	</node>
	<node lat="64.77449166517779" lon="11.649849999349222" id="-62943">
		<tag k="name" v="Harranesodden" />
		<tag k="natural" v="cape" />
		<tag k="ssr:stedsnr" v="560734" />
	</node>
	<node lat="64.69406666714936" lon="10.92276388835126" id="-62951">
		<tag k="name" v="Aldgårdtaren" />
		<tag k="natural" v="shoal" />
		<tag k="place" v="locality" />
		<tag k="ssr:stedsnr" v="560980" />
	</node>
	<node lat="64.55905833001476" lon="11.548358339626047" id="-62953">
		<tag k="name" v="Tennholmen" />
		<tag k="old_name" v="Tenholmen" />
		<tag k="place" v="islet" />
		<tag k="ssr:stedsnr" v="692398" />
	</node>
	<node lat="64.59129444216897" lon="11.460480550865585" id="-62954">
		<tag k="name" v="Årbusteinen" />
		<tag k="natural" v="shoal" />
		<tag k="place" v="locality" />
		<tag k="ssr:stedsnr" v="692344" />
	</node>
	<node lat="64.67079444654878" lon="11.038661106433826" id="-62956">
		<tag k="name" v="Flottrataren" />
		<tag k="natural" v="shoal" />
		<tag k="place" v="locality" />
		<tag k="ssr:stedsnr" v="570322" />
	</node>
	<node lat="64.53998610789682" lon="11.431972232259424" id="-62957">
		<tag k="fixme" v="consider seamark:type=rock or natural=shoal" />
		<tag k="name" v="Oterskjæret" />
		<tag k="place" v="islet" />
		<tag k="ssr:stedsnr" v="570355" />
	</node>
	<node lat="64.56814444498141" lon="11.525944448147968" id="-62958">
		<tag k="name" v="Oldervika" />
		<tag k="natural" v="bay" />
		<tag k="ssr:stedsnr" v="570361" />
	</node>
	<node lat="64.66033055717836" lon="10.8903805459903" id="-62961">
		<tag k="name" v="Skjærfallet" />
		<tag k="natural" v="shoal" />
		<tag k="place" v="locality" />
		<tag k="ssr:stedsnr" v="572596" />
	</node>
	<node lat="64.32438611285819" lon="11.235858340011427" id="-62963">
		<tag k="alt_name" v="Røgnin" />
		<tag k="fixme" v="consider seamark:type=rock or natural=shoal" />
		<tag k="name" v="Rogna" />
		<tag k="place" v="islet" />
		<tag k="ssr:stedsnr" v="574301" />
	</node>
	<node lat="64.39723055599832" lon="11.35526944489019" id="-62964">
		<tag k="name" v="Kjølsøysundet" />
		<tag k="natural" v="strait" />
		<tag k="ssr:stedsnr" v="574304" />
	</node>
	<node lat="64.64096389282767" lon="11.04383333964738" id="-62965">
		<tag k="name" v="Hjelmen" />
		<tag k="natural" v="shoal" />
		<tag k="place" v="locality" />
		<tag k="ssr:stedsnr" v="575000" />
	</node>
	<node lat="64.40540833730762" lon="11.36763611042593" id="-62970">
		<tag k="name" v="Kjølsøygrunnen" />
		<tag k="natural" v="shoal" />
		<tag k="place" v="locality" />
		<tag k="ssr:stedsnr" v="695287" />
	</node>
	<node lat="64.71209444804303" lon="11.041349996191082" id="-62971">
		<tag k="name" v="Edøyslua" />
		<tag k="natural" v="shoal" />
		<tag k="place" v="locality" />
		<tag k="ssr:stedsnr" v="695324" />
	</node>
	<node lat="64.57514166506203" lon="11.324263889391009" id="-62973">
		<tag k="name" v="Lyngholmtaren" />
		<tag k="natural" v="shoal" />
		<tag k="place" v="locality" />
		<tag k="ssr:stedsnr" v="695450" />
	</node>
	<node lat="64.69039166521502" lon="11.089358329483385" id="-62979">
		<tag k="name" v="Auststeinodden" />
		<tag k="natural" v="shoal" />
		<tag k="place" v="locality" />
		<tag k="ssr:stedsnr" v="695948" />
	</node>
	<node lat="64.66775000059944" lon="11.172094440944988" id="-62990">
		<tag k="name" v="Aunaodden" />
		<tag k="natural" v="cape" />
		<tag k="ssr:stedsnr" v="590466" />
	</node>
	<node lat="64.63144721805646" lon="11.212833331523761" id="-62996">
		<tag k="fixme" v="consider seamark:type=rock or natural=shoal" />
		<tag k="name" v="Storskjæret" />
		<tag k="place" v="islet" />
		<tag k="ssr:stedsnr" v="593113" />
	</node>
	<node lat="64.66858611406568" lon="11.20893888861211" id="-63005">
		<tag k="name" v="Brakstadleira" />
		<tag k="natural" v="bay" />
		<tag k="ssr:stedsnr" v="593154" />
	</node>
	<node lat="64.61731666613868" lon="11.379422224862697" id="-63008">
		<tag k="name" v="Ytter Markvalen" />
		<tag k="natural" v="shoal" />
		<tag k="place" v="locality" />
		<tag k="ssr:stedsnr" v="593512" />
	</node>
	<node lat="64.60821667019162" lon="11.372099997524233" id="-63009">
		<tag k="name" v="Lobukta" />
		<tag k="natural" v="bay" />
		<tag k="ssr:stedsnr" v="593516" />
	</node>
	<node lat="64.7225611145459" lon="11.737277775216286" id="-63052">
		<tag k="name" v="Fagervikodden" />
		<tag k="natural" v="cape" />
		<tag k="ssr:stedsnr" v="596200" />
	</node>
	<node lat="64.46083888604635" lon="11.327619440145078" id="-63057">
		<tag k="name" v="Bjørnavika" />
		<tag k="natural" v="bay" />
		<tag k="ssr:stedsnr" v="620003" />
	</node>
	<node lat="64.43064722403781" lon="11.374777768882579" id="-63066">
		<tag k="name" v="Breivikholmen" />
		<tag k="place" v="islet" />
		<tag k="ssr:stedsnr" v="620107" />
	</node>
	<node lat="64.42703055459043" lon="11.333144448841866" id="-63067">
		<tag k="name" v="Bjørnadalsbukta" />
		<tag k="natural" v="bay" />
		<tag k="ssr:stedsnr" v="620108" />
	</node>
	<node lat="64.6395138873466" lon="11.16622499721327" id="-63076">
		<tag k="alt_name" v="Langnessodden" />
		<tag k="name" v="Langnesodden" />
		<tag k="natural" v="cape" />
		<tag k="ssr:stedsnr" v="620505" />
	</node>
	<node lat="64.65272777689192" lon="10.883144438531396" id="-63077">
		<tag k="fixme" v="consider seamark:type=rock or natural=shoal" />
		<tag k="name" v="Sørhunden" />
		<tag k="place" v="islet" />
		<tag k="ssr:stedsnr" v="620515" />
	</node>
	<node lat="64.37414444210565" lon="11.324574991648939" id="-63087">
		<tag k="fixme" v="multiple name tags, choose one and add the other to alt_name" />
		<tag k="name" v="Saltbuodden;Valen" />
		<tag k="natural" v="cape" />
		<tag k="ssr:stedsnr" v="620917" />
	</node>
	<node lat="64.36833888699088" lon="11.312741669035107" id="-63088">
		<tag k="name" v="Nausthaugen" />
		<tag k="natural" v="cape" />
		<tag k="ssr:stedsnr" v="620918" />
	</node>
	<node lat="64.56558888905919" lon="11.569369443425282" id="-63089">
		<tag k="bay" v="fjord" />
		<tag k="name" v="Blikkengfjorden" />
		<tag k="natural" v="bay" />
		<tag k="ssr:stedsnr" v="621002" />
	</node>
	<node lat="64.6186277764294" lon="11.238191666636492" id="-63093">
		<tag k="name" v="Saltbuodden" />
		<tag k="natural" v="cape" />
		<tag k="ssr:stedsnr" v="621213" />
	</node>
	<node lat="64.55862500357513" lon="11.277436111848631" id="-63094">
		<tag k="name" v="Svemoskjæret" />
		<tag k="natural" v="cape" />
		<tag k="ssr:stedsnr" v="621116" />
	</node>
	<node lat="64.52556111260942" lon="11.501216672033959" id="-63096">
		<tag k="name" v="Nordråsa" />
		<tag k="natural" v="strait" />
		<tag k="ssr:stedsnr" v="621178" />
	</node>
	<node lat="64.7093777777757" lon="11.42703334370507" id="-63102">
		<tag k="name" v="Leirvika" />
		<tag k="natural" v="bay" />
		<tag k="ssr:stedsnr" v="621267" />
	</node>
	<node lat="64.62826944044112" lon="11.348305555322693" id="-63103">
		<tag k="name" v="Bergemsholmen" />
		<tag k="place" v="islet" />
		<tag k="ssr:stedsnr" v="621402" />
	</node>
	<node lat="64.62219444613065" lon="11.42081944940718" id="-63106">
		<tag k="name" v="Djupvika" />
		<tag k="natural" v="bay" />
		<tag k="ssr:stedsnr" v="621421" />
	</node>
	<node lat="64.76700277864316" lon="11.731516664304168" id="-63115">
		<tag k="name" v="Hopen" />
		<tag k="natural" v="bay" />
		<tag k="ssr:stedsnr" v="621879" />
	</node>
	<node lat="64.69702499600352" lon="10.99784165912784" id="-63118">
		<tag k="fixme" v="consider seamark:type=rock or natural=shoal" />
		<tag k="name" v="Isakskjæret" />
		<tag k="place" v="islet" />
		<tag k="ssr:stedsnr" v="633612" />
	</node>
	<node lat="64.44088888633536" lon="11.395705549106086" id="-63119">
		<tag k="name" v="Saltbuvika" />
		<tag k="natural" v="bay" />
		<tag k="ssr:stedsnr" v="635677" />
	</node>
	<node lat="64.40036666743804" lon="11.361327787191165" id="-63137">
		<tag k="name" v="Kjøløysundet" />
		<tag k="natural" v="strait" />
		<tag k="ssr:stedsnr" v="705789" />
	</node>
	<node lat="64.40533888480384" lon="11.382391657029359" id="-63169">
		<tag k="name" v="Nordvika" />
		<tag k="natural" v="bay" />
		<tag k="ssr:stedsnr" v="706725" />
	</node>
	<node lat="64.64174444236028" lon="11.170408336567602" id="-63177">
		<tag k="fixme" v="consider seamark:type=rock or natural=shoal" />
		<tag k="name" v="Naustskjæret" />
		<tag k="place" v="islet" />
		<tag k="ssr:stedsnr" v="653386" />
	</node>
	<node lat="64.68726389088836" lon="11.293402768798762" id="-63181">
		<tag k="name" v="Langholmleira" />
		<tag k="natural" v="beach" />
		<tag k="ssr:stedsnr" v="653843" />
	</node>
	<node lat="64.58521110949957" lon="11.755727784937754" id="-63198">
		<tag k="name" v="Indre Hestvika" />
		<tag k="natural" v="bay" />
		<tag k="ssr:stedsnr" v="655334" />
	</node>
	<node lat="64.56915833500098" lon="11.343774992955288" id="-63205">
		<tag k="name" v="Furutoppvika" />
		<tag k="natural" v="bay" />
		<tag k="ssr:stedsnr" v="655612" />
	</node>
	<node lat="64.76442499604062" lon="11.568588891465364" id="-63223">
		<tag k="name" v="Seksringsholet" />
		<tag k="natural" v="bay" />
		<tag k="ssr:stedsnr" v="658000" />
	</node>
	<node lat="64.41287777856652" lon="11.343505547462765" id="-63227">
		<tag k="name" v="Kjeøya" />
		<tag k="place" v="islet" />
		<tag k="ssr:stedsnr" v="681070" />
	</node>
	<node lat="64.64603055771086" lon="11.10533054963165" id="-63233">
		<tag k="name" v="Lostranda" />
		<tag k="natural" v="beach" />
		<tag k="ssr:stedsnr" v="681518" />
	</node>
	<node lat="64.53128055352147" lon="11.441305551702015" id="-63253">
		<tag k="name" v="Groftvika" />
		<tag k="natural" v="bay" />
		<tag k="ssr:stedsnr" v="682206" />
	</node>
	<node lat="64.58445000381029" lon="11.225166673554277" id="-63255">
		<tag k="name" v="Djupvika" />
		<tag k="natural" v="bay" />
		<tag k="ssr:stedsnr" v="682223" />
	</node>
	<node lat="64.72062499604186" lon="11.471805557839161" id="-63263">
		<tag k="name" v="Ånholmen" />
		<tag k="place" v="islet" />
		<tag k="ssr:stedsnr" v="682341" />
	</node>
	<node lat="64.64466944026314" lon="11.40581944489952" id="-63266">
		<tag k="name" v="Kjelbotnet" />
		<tag k="natural" v="strait" />
		<tag k="ssr:stedsnr" v="682460" />
	</node>
	<node lat="64.69980833602858" lon="11.425716665577784" id="-63279">
		<tag k="name" v="Sørsjøen" />
		<tag k="natural" v="bay" />
		<tag k="ssr:stedsnr" v="894357" />
	</node>
	<node lat="64.65173333313885" lon="11.179844451781811" id="-63280">
		<tag k="name" v="Heimervikdden" />
		<tag k="natural" v="cape" />
		<tag k="ssr:stedsnr" v="894485" />
	</node>
	<node lat="64.57111110946437" lon="11.528852776736594" id="-63281">
		<tag k="name" v="Tetbukta" />
		<tag k="natural" v="bay" />
		<tag k="old_name" v="Tetbugta" />
		<tag k="ssr:stedsnr" v="692392" />
	</node>
	<node lat="64.65752222306637" lon="10.957838895119117" id="-63282">
		<tag k="name" v="Oksfotskallen" />
		<tag k="natural" v="shoal" />
		<tag k="place" v="locality" />
		<tag k="ssr:stedsnr" v="694581" />
	</node>
	<node lat="64.67158610920353" lon="10.941041664527248" id="-63283">
		<tag k="name" v="Austre Steinfallknausen" />
		<tag k="natural" v="shoal" />
		<tag k="place" v="locality" />
		<tag k="ssr:stedsnr" v="695534" />
	</node>
	<node lat="64.4823083319198" lon="11.276580549642226" id="-63307">
		<tag k="fixme" v="consider seamark:type=rock or natural=shoal" />
		<tag k="name" v="Tjuvskjæret" />
		<tag k="place" v="islet" />
		<tag k="ssr:stedsnr" v="897118" />
	</node>
	<node lat="64.61381389152574" lon="11.217572222082524" id="-63308">
		<tag k="name" v="Naustholmen" />
		<tag k="place" v="islet" />
		<tag k="ssr:stedsnr" v="897122" />
	</node>
	<node lat="64.64515833609386" lon="11.401813896771168" id="-63320">
		<tag k="name" v="Inner Kjelnessodden" />
		<tag k="natural" v="cape" />
		<tag k="ssr:stedsnr" v="897242" />
	</node>
	<node lat="64.56653333726302" lon="11.142491669807418" id="-63333">
		<tag k="name" v="Trøavika" />
		<tag k="natural" v="bay" />
		<tag k="ssr:stedsnr" v="897547" />
	</node>
	<node lat="64.62216667011468" lon="11.392355550562717" id="-63334">
		<tag k="name" v="Steinvika" />
		<tag k="natural" v="bay" />
		<tag k="ssr:stedsnr" v="897649" />
	</node>
	<node lat="64.67838888901748" lon="11.209177783097287" id="-63341">
		<tag k="name" v="Breivika" />
		<tag k="natural" v="bay" />
		<tag k="ssr:stedsnr" v="897830" />
	</node>
	<node lat="64.64059722286659" lon="11.368627773945235" id="-63347">
		<tag k="name" v="Ølhammarstranda" />
		<tag k="natural" v="beach" />
		<tag k="ssr:stedsnr" v="897869" />
	</node>
	<node lat="64.68904166778056" lon="11.428352769860252" id="-63352">
		<tag k="name" v="Rønningsholmen" />
		<tag k="place" v="islet" />
		<tag k="ssr:stedsnr" v="711380" />
	</node>
	<node lat="64.68360833334324" lon="11.396719451472498" id="-63358">
		<tag k="name" v="Ospvika" />
		<tag k="natural" v="bay" />
		<tag k="ssr:stedsnr" v="712305" />
	</node>
	<node lat="64.7108527817219" lon="11.434413899239955" id="-63362">
		<tag k="name" v="Nordsjøkåren" />
		<tag k="natural" v="beach" />
		<tag k="ssr:stedsnr" v="712298" />
	</node>
	<node lat="64.67001111251435" lon="11.16972222237079" id="-63363">
		<tag k="name" v="Varpodden" />
		<tag k="natural" v="cape" />
		<tag k="ssr:stedsnr" v="712429" />
	</node>
	<node lat="64.57606666433037" lon="11.345372221389939" id="-63367">
		<tag k="name" v="Gongstøa" />
		<tag k="natural" v="bay" />
		<tag k="ssr:stedsnr" v="898590" />
	</node>
	<node lat="64.67076111272875" lon="11.191033328441277" id="-63371">
		<tag k="name" v="Brakstadhamn" />
		<tag k="natural" v="bay" />
		<tag k="ssr:stedsnr" v="714126" />
	</node>
	<node lat="64.64013055569279" lon="11.408319442860783" id="-63375">
		<tag k="name" v="Lauvvika" />
		<tag k="natural" v="bay" />
		<tag k="ssr:stedsnr" v="714212" />
	</node>
	<node lat="64.64383611161693" lon="11.404436108106715" id="-63376">
		<tag k="name" v="Bukkholet" />
		<tag k="natural" v="bay" />
		<tag k="ssr:stedsnr" v="714213" />
	</node>
	<node lat="64.64662222378662" lon="11.410972214455233" id="-63377">
		<tag k="name" v="Buvika" />
		<tag k="natural" v="bay" />
		<tag k="ssr:stedsnr" v="714236" />
	</node>
	<node lat="64.57741110913972" lon="11.478133327804171" id="-63379">
		<tag k="name" v="Røyrholodden" />
		<tag k="natural" v="cape" />
		<tag k="ssr:stedsnr" v="898613" />
	</node>
	<node lat="64.54733889287432" lon="11.468647213750996" id="-63384">
		<tag k="name" v="Rundholmen" />
		<tag k="place" v="islet" />
		<tag k="ssr:stedsnr" v="898627" />
	</node>
	<node lat="64.59959166957019" lon="11.371538893903855" id="-63387">
		<tag k="name" v="Raknessodden" />
		<tag k="natural" v="cape" />
		<tag k="ssr:stedsnr" v="714519" />
	</node>
	<node lat="64.66075277545421" lon="11.160652777139651" id="-63394">
		<tag k="name" v="Ausavinsholet" />
		<tag k="natural" v="bay" />
		<tag k="ssr:stedsnr" v="714426" />
	</node>
	<node lat="64.57929444206434" lon="11.490749995628391" id="-63399">
		<tag k="name" v="Bjønnvika" />
		<tag k="natural" v="bay" />
		<tag k="ssr:stedsnr" v="898650" />
	</node>
	<node lat="64.48080555970283" lon="11.273494448574207" id="-63415">
		<tag k="name" v="Storstokkvika" />
		<tag k="natural" v="bay" />
		<tag k="ssr:stedsnr" v="715111" />
	</node>
	<node lat="64.47920555499381" lon="11.271508329473575" id="-63416">
		<tag k="name" v="Stokkvika" />
		<tag k="natural" v="bay" />
		<tag k="ssr:stedsnr" v="715112" />
	</node>
	<node lat="64.61293333729581" lon="11.034694437310405" id="-63444">
		<tag k="fixme" v="consider seamark:type=rock or natural=shoal" />
		<tag k="name" v="Trollstein" />
		<tag k="place" v="islet" />
		<tag k="ssr:stedsnr" v="898997" />
	</node>
	<node lat="64.63700277608389" lon="11.032461100857185" id="-63445">
		<tag k="name" v="Nordfaksen" />
		<tag k="place" v="islet" />
		<tag k="ssr:stedsnr" v="899000" />
	</node>
	<node lat="64.73173888817182" lon="11.63202498980381" id="-63468">
		<tag k="name" v="Tjuvholet" />
		<tag k="natural" v="bay" />
		<tag k="ssr:stedsnr" v="900488" />
	</node>
	<node lat="64.49177500007033" lon="11.356094442133198" id="-63474">
		<tag k="alt_name" v="Otterøy" />
		<tag k="name" v="Otterøya" />
		<tag k="place" v="island" />
		<tag k="ssr:stedsnr" v="742208" />
	</node>
	<node lat="64.55564388108499" lon="11.518076134672489" id="-63482">
		<tag k="alt_name" v="Saltkjellholmen" />
		<tag k="name" v="Saltkjeløya" />
		<tag k="place" v="islet" />
		<tag k="ssr:stedsnr" v="742104" />
	</node>
	<node lat="64.64201110960177" lon="11.17464999929528" id="-63489">
		<tag k="name" v="Nordsjøvika" />
		<tag k="natural" v="bay" />
		<tag k="ssr:stedsnr" v="742482" />
	</node>
	<node lat="64.5408666642918" lon="11.143774995980168" id="-63490">
		<tag k="name" v="Steinen" />
		<tag k="natural" v="cape" />
		<tag k="ssr:stedsnr" v="742609" />
	</node>
	<node lat="64.34292221834019" lon="11.25918611923392" id="-63502">
		<tag k="name" v="Kobbsteinvika" />
		<tag k="natural" v="bay" />
		<tag k="ssr:stedsnr" v="742892" />
	</node>
	<node lat="64.51696944011373" lon="11.47518889469194" id="-63517">
		<tag k="name" v="Solneset" />
		<tag k="natural" v="cape" />
		<tag k="ssr:stedsnr" v="743188" />
	</node>
	<node lat="64.52740277458443" lon="11.467880553024099" id="-63521">
		<tag k="name" v="Hoøygrunnen" />
		<tag k="natural" v="shoal" />
		<tag k="place" v="locality" />
		<tag k="ssr:stedsnr" v="752325" />
	</node>
	<node lat="64.44283055545216" lon="11.38660000079238" id="-63523">
		<tag k="fixme" v="consider seamark:type=rock or natural=shoal" />
		<tag k="name" v="Tronskjæret" />
		<tag k="place" v="islet" />
		<tag k="ssr:stedsnr" v="756305" />
	</node>
	<node lat="64.49164999941223" lon="11.294847217666895" id="-63524">
		<tag k="name" v="Broemskjæra" />
		<tag k="natural" v="shoal" />
		<tag k="place" v="locality" />
		<tag k="ssr:stedsnr" v="756312" />
	</node>
	<node lat="64.54174722422253" lon="11.343044435982817" id="-63535">
		<tag k="name" v="Dølvika" />
		<tag k="natural" v="bay" />
		<tag k="ssr:stedsnr" v="757747" />
	</node>
	<node lat="64.55014444652893" lon="11.552805557573317" id="-63549">
		<tag k="name" v="Hammersøya" />
		<tag k="place" v="island" />
		<tag k="ssr:stedsnr" v="935433" />
	</node>
	<node lat="64.63714722067427" lon="11.135300009961721" id="-63559">
		<tag k="name" v="Småvikan" />
		<tag k="natural" v="bay" />
		<tag k="ssr:stedsnr" v="775370" />
	</node>
	<node lat="64.59090833592471" lon="11.468319434629707" id="-63565">
		<tag k="name" v="Hommelvika" />
		<tag k="natural" v="bay" />
		<tag k="ssr:stedsnr" v="775721" />
	</node>
	<node lat="64.68004444111206" lon="11.3267055624931" id="-63566">
		<tag k="fixme" v="consider seamark:type=rock or natural=shoal" />
		<tag k="name" v="Rømdallskjæret" />
		<tag k="place" v="islet" />
		<tag k="ssr:stedsnr" v="775953" />
	</node>
	<node lat="64.48142990440546" lon="11.310090326905634" id="-63576">
		<tag k="name" v="Broemsneset" />
		<tag k="natural" v="cape" />
		<tag k="ssr:stedsnr" v="776411" />
	</node>
	<node lat="64.53529166426225" lon="11.424724991712575" id="-63582">
		<tag k="name" v="Kuvika" />
		<tag k="natural" v="bay" />
		<tag k="ssr:stedsnr" v="776621" />
	</node>
	<node lat="64.77499722603987" lon="11.706113887032213" id="-63592">
		<tag k="name" v="Burmanntaren" />
		<tag k="natural" v="shoal" />
		<tag k="place" v="locality" />
		<tag k="ssr:stedsnr" v="778035" />
	</node>
	<node lat="64.72159444002321" lon="11.48056111817037" id="-63596">
		<tag k="name" v="Sørbekkøyra" />
		<tag k="natural" v="beach" />
		<tag k="ssr:stedsnr" v="778360" />
	</node>
	<node lat="64.75312777873192" lon="11.569266664785044" id="-63600">
		<tag k="fixme" v="consider seamark:type=rock or natural=shoal" />
		<tag k="name" v="Kjerringskjæret" />
		<tag k="place" v="islet" />
		<tag k="ssr:stedsnr" v="778963" />
	</node>
	<node lat="64.45054721808603" lon="11.379558332526617" id="-63601">
		<tag k="name" v="Søre Rørholman" />
		<tag k="place" v="islet" />
		<tag k="ssr:stedsnr" v="785102" />
	</node>
	<node lat="64.44273055366341" lon="11.406855565405358" id="-63604">
		<tag k="name" v="Kvarven" />
		<tag k="natural" v="cape" />
		<tag k="ssr:stedsnr" v="803022" />
	</node>
	<node lat="64.4395361108224" lon="11.432408333494461" id="-63605">
		<tag k="name" v="Fangneset" />
		<tag k="natural" v="cape" />
		<tag k="ssr:stedsnr" v="803025" />
	</node>
	<node lat="64.40352020863371" lon="11.35249643278107" id="-63617">
		<tag k="name" v="Kjølsøya" />
		<tag k="place" v="island" />
		<tag k="ssr:stedsnr" v="803066" />
	</node>
	<node lat="64.56005555407886" lon="11.4849444476061" id="-63618">
		<tag k="name" v="Djupvika" />
		<tag k="natural" v="bay" />
		<tag k="ssr:stedsnr" v="803206" />
	</node>
	<node lat="64.5259416710996" lon="11.09992777198451" id="-63628">
		<tag k="name" v="Ospneset" />
		<tag k="natural" v="cape" />
		<tag k="ssr:stedsnr" v="803658" />
	</node>
	<node lat="64.71599166708155" lon="11.024725004160643" id="-63631">
		<tag k="name" v="Småstabban" />
		<tag k="place" v="locality" />
		<tag k="seamark:type" v="rock" />
		<tag k="ssr:stedsnr" v="803974" />
	</node>
	<node lat="64.76988674756328" lon="11.567873986733293" id="-63634">
		<tag k="bay" v="fjord" />
		<tag k="name" v="Folda" />
		<tag k="natural" v="bay" />
		<tag k="ssr:stedsnr" v="803978" />
	</node>
	<node lat="64.69320277631479" lon="10.948791675360514" id="-63635">
		<tag k="name" v="Angeltjuven" />
		<tag k="natural" v="shoal" />
		<tag k="place" v="locality" />
		<tag k="ssr:stedsnr" v="803985" />
	</node>
	<node lat="64.67383548861183" lon="11.147924094929268" id="-63636">
		<tag k="fixme" v="consider seamark:type=rock or natural=shoal" />
		<tag k="name" v="Langskjæret" />
		<tag k="place" v="islet" />
		<tag k="ssr:stedsnr" v="803987" />
	</node>
	<node lat="64.36403611381462" lon="11.300508339491067" id="-63637">
		<tag k="name" v="Mølnstranda" />
		<tag k="natural" v="beach" />
		<tag k="ssr:stedsnr" v="803992" />
	</node>
	<node lat="64.57230277380647" lon="11.281061102621633" id="-63638">
		<tag k="name" v="Jektvikodden" />
		<tag k="natural" v="cape" />
		<tag k="ssr:stedsnr" v="804005" />
	</node>
	<node lat="64.56416111343941" lon="11.325183333223666" id="-63639">
		<tag k="name" v="Lauvøya" />
		<tag k="place" v="islet" />
		<tag k="ssr:stedsnr" v="804009" />
	</node>
	<node lat="64.57217499557244" lon="11.604261112687977" id="-63642">
		<tag k="alt_name" v="Tennholmen" />
		<tag k="name" v="Ternholmen" />
		<tag k="place" v="islet" />
		<tag k="ssr:stedsnr" v="804039" />
	</node>
	<node lat="64.63591802072692" lon="11.249788730471924" id="-63644">
		<tag k="name" v="Varpodden" />
		<tag k="natural" v="cape" />
		<tag k="ssr:stedsnr" v="804446" />
	</node>
	<node lat="64.60818610708301" lon="11.023936119494754" id="-63649">
		<tag k="name" v="Knappholman" />
		<tag k="place" v="islet" />
		<tag k="ssr:stedsnr" v="813909" />
	</node>
	<node lat="64.63453889136674" lon="11.045088882656971" id="-63650">
		<tag k="name" v="Vågan" />
		<tag k="natural" v="bay" />
		<tag k="ssr:stedsnr" v="814181" />
	</node>
	<node lat="64.46955555630355" lon="11.278650003179486" id="-63651">
		<tag k="name" v="Langnesholmen" />
		<tag k="place" v="islet" />
		<tag k="ssr:stedsnr" v="817307" />
	</node>
	<node lat="64.38599474152645" lon="11.391696108372216" id="-63652">
		<tag k="alt_name" v="Strømmen" />
		<tag k="name" v="Straumen" />
		<tag k="natural" v="strait" />
		<tag k="ssr:stedsnr" v="817278" />
	</node>
	<node lat="64.42384444178307" lon="11.33653610648976" id="-63653">
		<tag k="name" v="Melkbekkneset" />
		<tag k="natural" v="cape" />
		<tag k="ssr:stedsnr" v="817281" />
	</node>
	<node lat="64.51530226173226" lon="11.074325613881458" id="-63654">
		<tag k="name" v="Sanden" />
		<tag k="natural" v="bay" />
		<tag k="ssr:stedsnr" v="817282" />
	</node>
	<node lat="64.37969166916602" lon="11.398450008486675" id="-63659">
		<tag k="name" v="Kalvøya" />
		<tag k="natural" v="cape" />
		<tag k="ssr:stedsnr" v="827770" />
	</node>
	<node lat="64.71305555661631" lon="11.418658326978978" id="-63666">
		<tag k="name" v="Nordsjøtaren" />
		<tag k="natural" v="shoal" />
		<tag k="place" v="locality" />
		<tag k="ssr:stedsnr" v="833334" />
	</node>
	<node lat="64.39129722497495" lon="11.381936110841997" id="-63671">
		<tag k="name" v="Bangsundbotnet" />
		<tag k="natural" v="bay" />
		<tag k="ssr:stedsnr" v="924060" />
	</node>
	<node lat="64.5577487845041" lon="11.534959274988804" id="-63676">
		<tag k="name" v="Kjerstiholmen" />
		<tag k="place" v="islet" />
		<tag k="ssr:stedsnr" v="924091" />
	</node>
	<node lat="64.48905277427433" lon="11.422236112660116" id="-63688">
		<tag k="alt_name" v="Lennavika" />
		<tag k="name" v="Lænnavika" />
		<tag k="natural" v="bay" />
		<tag k="ssr:stedsnr" v="924221" />
	</node>
	<node lat="64.61981944333003" lon="11.375658341760111" id="-63693">
		<tag k="name" v="Lendavikodden" />
		<tag k="natural" v="cape" />
		<tag k="ssr:stedsnr" v="836510" />
	</node>
	<node lat="64.59908055166989" lon="11.309349991566982" id="-63710">
		<tag k="name" v="Heimarnesstranda" />
		<tag k="natural" v="beach" />
		<tag k="ssr:stedsnr" v="836890" />
	</node>
	<node lat="64.68186389016707" lon="11.417425001454845" id="-63733">
		<tag k="name" v="Hestvika" />
		<tag k="natural" v="bay" />
		<tag k="ssr:stedsnr" v="924313" />
	</node>
	<node lat="64.42406944159751" lon="11.367855551412362" id="-63738">
		<tag k="name" v="Trettvikodden" />
		<tag k="natural" v="cape" />
		<tag k="ssr:stedsnr" v="837807" />
	</node>
	<node lat="64.62354722244534" lon="11.266091674146592" id="-63745">
		<tag k="name" v="Aunaodden" />
		<tag k="natural" v="cape" />
		<tag k="ssr:stedsnr" v="924376" />
	</node>
	<node lat="64.49497500329413" lon="11.164972222279662" id="-63751">
		<tag k="name" v="Saltbuodden" />
		<tag k="natural" v="cape" />
		<tag k="ssr:stedsnr" v="924398" />
	</node>
	<node lat="64.540633332195" lon="11.071066664859975" id="-63756">
		<tag k="name" v="Skjåvika" />
		<tag k="natural" v="bay" />
		<tag k="ssr:stedsnr" v="838477" />
	</node>
	<node lat="64.64634166411182" lon="11.064180557725837" id="-63761">
		<tag k="fixme" v="consider seamark:type=rock or natural=shoal" />
		<tag k="name" v="Jektskjæret" />
		<tag k="place" v="islet" />
		<tag k="ssr:stedsnr" v="924496" />
	</node>
	<node lat="64.7695250044354" lon="11.592752781332328" id="-63778">
		<tag k="name" v="Sandvikkåren" />
		<tag k="natural" v="shoal" />
		<tag k="place" v="locality" />
		<tag k="ssr:stedsnr" v="839942" />
	</node>
	<node lat="64.70243889298008" lon="11.009483333875842" id="-63799">
		<tag k="name" v="Brandknausen" />
		<tag k="natural" v="shoal" />
		<tag k="place" v="locality" />
		<tag k="ssr:stedsnr" v="924976" />
	</node>
	<node lat="64.67961666985825" lon="11.17045277270611" id="-63800">
		<tag k="name" v="Hermannholmen" />
		<tag k="place" v="islet" />
		<tag k="ssr:stedsnr" v="924980" />
	</node>
	<node lat="64.67299999560466" lon="10.930783333070636" id="-63801">
		<tag k="name" v="Steinfallet" />
		<tag k="natural" v="shoal" />
		<tag k="place" v="locality" />
		<tag k="ssr:stedsnr" v="924986" />
	</node>
	<node lat="64.57079999840698" lon="11.492649998503195" id="-63804">
		<tag k="name" v="Hellsøya" />
		<tag k="place" v="island" />
		<tag k="ssr:stedsnr" v="925051" />
	</node>
	<node lat="64.57593055289287" lon="11.6566583392179" id="-63805">
		<tag k="bay" v="fjord" />
		<tag k="name" v="Vetterhusbotnet" />
		<tag k="natural" v="bay" />
		<tag k="ssr:stedsnr" v="925055" />
	</node>
	<node lat="64.57598055874188" lon="11.683172218500296" id="-63806">
		<tag k="name" v="Setervika" />
		<tag k="natural" v="bay" />
		<tag k="ssr:stedsnr" v="925056" />
	</node>
	<node lat="64.57690555617879" lon="11.22912777087807" id="-63812">
		<tag k="alt_name" v="Brennholmen" />
		<tag k="name" v="Brannholmen" />
		<tag k="place" v="islet" />
		<tag k="ssr:stedsnr" v="925062" />
	</node>
	<node lat="64.70320555539159" lon="11.40593611517274" id="-63828">
		<tag k="name" v="Smørvika" />
		<tag k="natural" v="bay" />
		<tag k="ssr:stedsnr" v="925294" />
	</node>
	<node lat="64.72664444505575" lon="11.508505553458438" id="-63835">
		<tag k="name" v="Nordbekkøyra" />
		<tag k="natural" v="cape" />
		<tag k="ssr:stedsnr" v="925355" />
	</node>
	<node lat="64.61836944298412" lon="11.343291673570757" id="-63837">
		<tag k="name" v="Storvika" />
		<tag k="natural" v="bay" />
		<tag k="ssr:stedsnr" v="925445" />
	</node>
	<node lat="64.60541389347162" lon="11.249358327325272" id="-63845">
		<tag k="name" v="Tronvika" />
		<tag k="natural" v="bay" />
		<tag k="ssr:stedsnr" v="925540" />
	</node>
	<node lat="64.45926944388417" lon="11.390233323404548" id="-63853">
		<tag k="name" v="Brannøya" />
		<tag k="place" v="island" />
		<tag k="ssr:stedsnr" v="863004" />
	</node>
	<node lat="64.4345194422029" lon="11.333655560024287" id="-63861">
		<tag k="name" v="Sørvågen" />
		<tag k="natural" v="bay" />
		<tag k="ssr:stedsnr" v="863105" />
	</node>
	<node lat="64.57091110951272" lon="11.521375004911159" id="-63876">
		<tag k="name" v="Kjettin" />
		<tag k="natural" v="bay" />
		<tag k="ssr:stedsnr" v="864016" />
	</node>
	<node lat="64.56791111346254" lon="11.617283329460655" id="-63877">
		<tag k="name" v="Øltappen" />
		<tag k="place" v="islet" />
		<tag k="ssr:stedsnr" v="864020" />
	</node>
	<node lat="64.57831666209894" lon="11.349891675442503" id="-63878">
		<tag k="name" v="Bryggskjæret" />
		<tag k="natural" v="cape" />
		<tag k="ssr:stedsnr" v="864022" />
	</node>
	<node lat="64.60468888630356" lon="11.329563880678345" id="-63895">
		<tag k="name" v="Hestvikodden" />
		<tag k="natural" v="cape" />
		<tag k="ssr:stedsnr" v="864212" />
	</node>
	<node lat="64.49733055941132" lon="11.4401111176688" id="-63902">
		<tag k="name" v="Varpneset" />
		<tag k="natural" v="cape" />
		<tag k="ssr:stedsnr" v="864253" />
	</node>
	<node lat="64.61972778032742" lon="11.21253333406639" id="-63911">
		<tag k="alt_name" v="Leiholmen" />
		<tag k="fixme" v="consider seamark:type=rock or natural=shoal" />
		<tag k="name" v="Leiskjæret" />
		<tag k="place" v="islet" />
		<tag k="ssr:stedsnr" v="878315" />
	</node>
	<node lat="64.37325833570932" lon="11.33075833472082" id="-63929">
		<tag k="name" v="Fallbukta" />
		<tag k="natural" v="bay" />
		<tag k="ssr:stedsnr" v="888508" />
	</node>
	<node lat="64.393758329841" lon="11.354944435129383" id="-63932">
		<tag k="name" v="Svartvika" />
		<tag k="natural" v="bay" />
		<tag k="ssr:stedsnr" v="888695" />
	</node>
	<node lat="64.5497666662879" lon="11.485219453952942" id="-63933">
		<tag k="fixme" v="consider seamark:type=rock or natural=shoal" />
		<tag k="name" v="Kuvikskjæret" />
		<tag k="place" v="islet" />
		<tag k="ssr:stedsnr" v="935416" />
	</node>
	<node lat="64.64889166818233" lon="11.401300001137848" id="-63938">
		<tag k="name" v="Ospvika" />
		<tag k="natural" v="bay" />
		<tag k="ssr:stedsnr" v="897266" />
	</node>
	<node lat="64.5887833369854" lon="11.279249991559343" id="-63942">
		<tag k="name" v="Ingemarodden" />
		<tag k="natural" v="cape" />
		<tag k="ssr:stedsnr" v="897555" />
	</node>
	<node lat="64.6846722187026" lon="11.215577786358065" id="-63943">
		<tag k="name" v="Måsøybukta" />
		<tag k="natural" v="bay" />
		<tag k="ssr:stedsnr" v="897814" />
	</node>
	<node lat="64.68460555352894" lon="11.219891656283101" id="-63944">
		<tag k="name" v="Nordøya" />
		<tag k="place" v="island" />
		<tag k="ssr:stedsnr" v="897816" />
	</node>
	<node lat="64.55530277718081" lon="11.362205553839857" id="-63951">
		<tag k="name" v="Bjørkvikodden" />
		<tag k="natural" v="cape" />
		<tag k="ssr:stedsnr" v="898605" />
	</node>
	<node lat="64.56679722124579" lon="11.521208335528689" id="-63959">
		<tag k="name" v="Kjettøyvalen" />
		<tag k="natural" v="strait" />
		<tag k="ssr:stedsnr" v="898664" />
	</node>
	<node lat="64.61648333075476" lon="11.034797214094343" id="-63965">
		<tag k="name" v="Drossavika" />
		<tag k="natural" v="bay" />
		<tag k="ssr:stedsnr" v="898957" />
	</node>
	<node lat="64.43571110767326" lon="11.462491658006366" id="-63982">
		<tag k="name" v="Oldervika" />
		<tag k="natural" v="bay" />
		<tag k="ssr:stedsnr" v="924020" />
	</node>
	<node lat="64.59487500419723" lon="11.375355558651066" id="-64000">
		<tag k="name" v="Jønnvika" />
		<tag k="natural" v="bay" />
		<tag k="ssr:stedsnr" v="924433" />
	</node>
	<node lat="64.65355555613013" lon="11.097224999696614" id="-64001">
		<tag k="name" v="Islendingen" />
		<tag k="old_name" v="Islendingsholmen;Islendingholmen" />
		<tag k="place" v="islet" />
		<tag k="ssr:stedsnr" v="924506" />
	</node>
	<node lat="64.50995277953065" lon="11.128638896124912" id="-64005">
		<tag k="name" v="Rakkavika" />
		<tag k="natural" v="bay" />
		<tag k="ssr:stedsnr" v="924716" />
	</node>
</osm>
