<?xml version="1.0" encoding="UTF-8"?>
<osm generator="osmapis" version="0.6">
	<node id="-702237" lat="64.6962397283" lon="11.454041387">
		<tag k="amenity" v="place_of_worship" />
		<tag k="denomination" v="lutheran" />
		<tag k="name" v="Salen kapell" />
		<tag k="old_name" v="Salen" />
		<tag k="religion" v="christian" />
		<tag k="ssr:stedsnr" v="440302" />
	</node>
	<node id="-703832" lat="64.4062546915" lon="11.4836396624">
		<tag k="alt_name" v="Klinga" />
		<tag k="amenity" v="place_of_worship" />
		<tag k="denomination" v="lutheran" />
		<tag k="name" v="Klinga kirke" />
		<tag k="religion" v="christian" />
		<tag k="ssr:stedsnr" v="742073" />
	</node>
	<node id="-703346" lat="64.4694361076" lon="11.4955638883">
		<tag k="name" v="Fredriksbergparken" />
		<tag k="place" v="locality" />
		<tag k="ssr:stedsnr" v="575532" />
	</node>
	<node id="-704112" lat="64.5109850258" lon="11.2983608514">
		<tag k="amenity" v="place_of_worship" />
		<tag k="denomination" v="lutheran" />
		<tag k="name" v="Otterøy kirke" />
		<tag k="religion" v="christian" />
		<tag k="ssr:stedsnr" v="803154" />
	</node>
	<node id="-703599" lat="64.2181150549" lon="11.2100273433">
		<tag k="amenity" v="place_of_worship" />
		<tag k="denomination" v="lutheran" />
		<tag k="name" v="Namdalseid kirke" />
		<tag k="religion" v="christian" />
		<tag k="ssr:stedsnr" v="681653" />
	</node>
	<node id="-703980" lat="64.1831071956" lon="11.1344141459">
		<tag k="name" v="Magnustømtet" />
		<tag k="place" v="locality" />
		<tag k="ssr:stedsnr" v="924544" />
	</node>
	<node id="-707431" lat="64.2384611072" lon="11.2108194488">
		<tag k="alt_name" v="Bjørgan" />
		<tag k="amenity" v="community_centre" />
		<tag k="name" v="Bjørgan skole" />
		<tag k="ssr:stedsnr" v="803642" />
	</node>
	<node id="-707045" lat="64.5931027808" lon="11.3803000095">
		<tag k="amenity" v="community_centre" />
		<tag k="name" v="Plassen" />
		<tag k="ssr:stedsnr" v="653565" />
	</node>
	<node id="-704868" lat="64.6570583343" lon="11.2615333433">
		<tag k="alt_name" v="Dun" />
		<tag k="amenity" v="place_of_worship" />
		<tag k="denomination" v="lutheran" />
		<tag k="name" v="Dun kirke" />
		<tag k="religion" v="christian" />
		<tag k="ssr:stedsnr" v="75347" />
	</node>
	<node id="-702787" lat="64.5166602808" lon="11.5417920177">
		<tag k="amenity" v="place_of_worship" />
		<tag k="denomination" v="lutheran" />
		<tag k="name" v="Vemundvik kirke" />
		<tag k="religion" v="christian" />
		<tag k="ssr:stedsnr" v="500166" />
	</node>
</osm>
