<?xml version="1.0" encoding="UTF-8"?>
<osm version="0.6" generator="osmapis">
	<node lat="64.16661944241864" lon="10.918430547231466" id="-81059">
		<tag k="name" v="Finnvoll statsskog" />
		<tag k="place" v="locality" />
		<tag k="ssr:stedsnr" v="472547" />
	</node>
	<node lat="64.33688333224846" lon="11.0654833401452" id="-82828">
		<tag k="name" v="Oksvoll statsallmenning" />
		<tag k="place" v="locality" />
		<tag k="ssr:stedsnr" v="898812" />
	</node>
	<node lat="64.39639166558275" lon="11.653994442738536" id="-83229">
		<tag k="name" v="Finntjønn statsallmenning" />
		<tag k="place" v="locality" />
		<tag k="ssr:stedsnr" v="47367" />
	</node>
	<node lat="64.62080000018751" lon="11.783041671449002" id="-84419">
		<tag k="name" v="Alm og Ekorndal statsalmenning" />
		<tag k="place" v="locality" />
		<tag k="ssr:stedsnr" v="351290" />
	</node>
	<node lat="64.31180555609266" lon="10.980847219618399" id="-84714">
		<tag k="name" v="Sandvassli statsallmenning" />
		<tag k="place" v="locality" />
		<tag k="ssr:stedsnr" v="412864" />
	</node>
	<node lat="64.23084999891302" lon="11.436008327444585" id="-85731">
		<tag k="name" v="Røyr- og Langvatn statsallmenning" />
		<tag k="place" v="locality" />
		<tag k="ssr:stedsnr" v="716653" />
	</node>
	<node lat="64.2962944442923" lon="10.961305562885906" id="-85741">
		<tag k="name" v="Risli og Sandvatn statsallmenning" />
		<tag k="place" v="locality" />
		<tag k="ssr:stedsnr" v="716890" />
	</node>
	<node lat="64.15432500348807" lon="11.11667500718882" id="-86001">
		<tag k="name" v="Furudal statsallmenning" />
		<tag k="place" v="locality" />
		<tag k="ssr:stedsnr" v="776542" />
	</node>
</osm>
