<?xml version="1.0" encoding="UTF-8"?>
<osm version="0.6" generator="osmapis">
	<node lat="64.57271666300043" lon="11.442844452538115" id="-38019">
		<tag k="fixme" v="consider natural=peak for the most distinct mountains in the district" />
		<tag k="name" v="Reinskarvtuva" />
		<tag k="natural" v="hill" />
		<tag k="place" v="locality" />
		<tag k="ssr:stedsnr" v="230599" />
	</node>
	<node lat="64.26227778058318" lon="11.430094442307787" id="-38020">
		<tag k="name" v="Måssåberget" />
		<tag k="natural" v="hill" />
		<tag k="place" v="locality" />
		<tag k="ssr:stedsnr" v="230600" />
	</node>
	<node lat="64.25071388628905" lon="11.468197225332656" id="-38021">
		<tag k="name" v="Ristjønndalen" />
		<tag k="natural" v="valley" />
		<tag k="place" v="locality" />
		<tag k="ssr:stedsnr" v="230603" />
	</node>
	<node lat="64.24708888628277" lon="11.454077767244145" id="-38022">
		<tag k="name" v="Svartelvmoan" />
		<tag k="place" v="locality" />
		<tag k="ssr:stedsnr" v="230608" />
	</node>
	<node lat="64.51472777392327" lon="11.354569436738386" id="-38025">
		<tag k="name" v="Klaven" />
		<tag k="natural" v="valley" />
		<tag k="place" v="locality" />
		<tag k="ssr:stedsnr" v="230618" />
	</node>
	<node lat="64.66015833683643" lon="11.2907833325923" id="-38027">
		<tag k="name" v="Kløyva" />
		<tag k="natural" v="slope" />
		<tag k="place" v="locality" />
		<tag k="ssr:stedsnr" v="229784" />
	</node>
	<node lat="64.66155555697468" lon="11.269772232030348" id="-38028">
		<tag k="name" v="Langgjøta" />
		<tag k="natural" v="valley" />
		<tag k="place" v="locality" />
		<tag k="ssr:stedsnr" v="229801" />
	</node>
	<node lat="64.65630277342348" lon="11.259161115482517" id="-38029">
		<tag k="name" v="Barden" />
		<tag k="place" v="locality" />
		<tag k="ssr:stedsnr" v="229814" />
	</node>
	<node lat="64.68117500276668" lon="11.281480551766856" id="-38030">
		<tag k="name" v="Høglia" />
		<tag k="natural" v="slope" />
		<tag k="place" v="locality" />
		<tag k="ssr:stedsnr" v="229824" />
	</node>
	<node lat="64.68024722507678" lon="11.232611109556762" id="-38033">
		<tag k="name" v="Aunabakken" />
		<tag k="natural" v="slope" />
		<tag k="place" v="locality" />
		<tag k="ssr:stedsnr" v="229843" />
	</node>
	<node lat="64.68096944088781" lon="11.266686105974326" id="-38034">
		<tag k="name" v="Leirvikskardet" />
		<tag k="natural" v="valley" />
		<tag k="place" v="locality" />
		<tag k="ssr:stedsnr" v="229851" />
	</node>
	<node lat="64.68192499816243" lon="11.23521944641946" id="-38035">
		<tag k="name" v="Valdskiftet" />
		<tag k="natural" v="slope" />
		<tag k="place" v="locality" />
		<tag k="ssr:stedsnr" v="229860" />
	</node>
	<node lat="64.6540888849405" lon="11.340966656268392" id="-38039">
		<tag k="name" v="Brennhaugen" />
		<tag k="natural" v="hill" />
		<tag k="place" v="locality" />
		<tag k="ssr:stedsnr" v="229910" />
	</node>
	<node lat="64.29546666910589" lon="11.715800009788438" id="-38041">
		<tag k="name" v="Nikolaihaugen" />
		<tag k="natural" v="hill" />
		<tag k="place" v="locality" />
		<tag k="ssr:stedsnr" v="230101" />
	</node>
	<node lat="64.443724996946" lon="11.13583054777036" id="-38042">
		<tag k="name" v="Heia" />
		<tag k="natural" v="hill" />
		<tag k="place" v="locality" />
		<tag k="ssr:stedsnr" v="230169" />
	</node>
	<node lat="64.46101666596866" lon="11.15500000949408" id="-38044">
		<tag k="fixme" v="consider natural=peak for the most distinct mountains in the district" />
		<tag k="name" v="Larsfjellet" />
		<tag k="natural" v="hill" />
		<tag k="place" v="locality" />
		<tag k="ssr:stedsnr" v="230188" />
	</node>
	<node lat="64.44761944577523" lon="11.095488880127911" id="-38045">
		<tag k="fixme" v="consider natural=peak for the most distinct mountains in the district" />
		<tag k="name" v="Tuva" />
		<tag k="natural" v="hill" />
		<tag k="place" v="locality" />
		<tag k="ssr:stedsnr" v="230194" />
	</node>
	<node lat="64.433049997269" lon="11.10666665893946" id="-38046">
		<tag k="fixme" v="consider natural=peak for the most distinct mountains in the district" />
		<tag k="name" v="Høgåsen" />
		<tag k="natural" v="hill" />
		<tag k="place" v="locality" />
		<tag k="ssr:stedsnr" v="230234" />
	</node>
	<node lat="64.59754444085087" lon="11.69936665891646" id="-38047">
		<tag k="fixme" v="consider natural=peak for the most distinct mountains in the district" />
		<tag k="name" v="Kramarvikfjellet" />
		<tag k="natural" v="hill" />
		<tag k="place" v="locality" />
		<tag k="ssr:stedsnr" v="230255" />
	</node>
	<node lat="64.59240000061236" lon="11.749861110081325" id="-38048">
		<tag k="name" v="Reiarmoen" />
		<tag k="place" v="locality" />
		<tag k="ssr:stedsnr" v="230264" />
	</node>
	<node lat="64.49004166419896" lon="11.234155555454747" id="-38052">
		<tag k="fixme" v="consider natural=peak for the most distinct mountains in the district" />
		<tag k="name" v="Skarflauget" />
		<tag k="natural" v="hill" />
		<tag k="place" v="locality" />
		<tag k="ssr:stedsnr" v="230392" />
	</node>
	<node lat="64.48632499654296" lon="11.080502782728752" id="-38055">
		<tag k="name" v="Nova" />
		<tag k="natural" v="valley" />
		<tag k="place" v="locality" />
		<tag k="ssr:stedsnr" v="230460" />
	</node>
	<node lat="64.15606666273953" lon="10.980724996279543" id="-38056">
		<tag k="name" v="Furudalen" />
		<tag k="natural" v="valley" />
		<tag k="place" v="locality" />
		<tag k="ssr:stedsnr" v="230557" />
	</node>
	<node lat="64.58779444201762" lon="11.640411107224589" id="-38058">
		<tag k="name" v="Brannåsskaret" />
		<tag k="natural" v="valley" />
		<tag k="place" v="locality" />
		<tag k="ssr:stedsnr" v="230651" />
	</node>
	<node lat="64.2317194423847" lon="11.430858332044442" id="-38060">
		<tag k="name" v="Sagbakken" />
		<tag k="natural" v="slope" />
		<tag k="place" v="locality" />
		<tag k="ssr:stedsnr" v="230667" />
	</node>
	<node lat="64.45087777713944" lon="11.293166675866397" id="-38061">
		<tag k="name" v="Høgdin" />
		<tag k="natural" v="slope" />
		<tag k="place" v="locality" />
		<tag k="ssr:stedsnr" v="230727" />
	</node>
	<node lat="64.3394777780272" lon="11.457586115184288" id="-38062">
		<tag k="name" v="Navarhaugen" />
		<tag k="natural" v="hill" />
		<tag k="place" v="locality" />
		<tag k="ssr:stedsnr" v="230766" />
	</node>
	<node lat="64.25020277607543" lon="11.073891675392272" id="-38065">
		<tag k="name" v="Sivertdalen" />
		<tag k="natural" v="valley" />
		<tag k="place" v="locality" />
		<tag k="ssr:stedsnr" v="230937" />
	</node>
	<node lat="64.62169166656244" lon="11.032391658073623" id="-38068">
		<tag k="name" v="Bokkskinnberga" />
		<tag k="natural" v="hill" />
		<tag k="place" v="locality" />
		<tag k="ssr:stedsnr" v="230945" />
	</node>
	<node lat="64.23004721795067" lon="11.119236105263884" id="-38070">
		<tag k="name" v="Oksarlia" />
		<tag k="natural" v="slope" />
		<tag k="place" v="locality" />
		<tag k="ssr:stedsnr" v="230957" />
	</node>
	<node lat="64.20649166784321" lon="10.884391670598495" id="-38071">
		<tag k="name" v="Vestre - Bjørkvassheia" />
		<tag k="natural" v="valley" />
		<tag k="place" v="locality" />
		<tag k="ssr:stedsnr" v="230974" />
	</node>
	<node lat="64.5268388889941" lon="11.067433337580537" id="-38072">
		<tag k="name" v="Viskarhaugen" />
		<tag k="natural" v="hill" />
		<tag k="place" v="locality" />
		<tag k="ssr:stedsnr" v="231332" />
	</node>
	<node lat="64.5322666630678" lon="11.066375000147277" id="-38073">
		<tag k="name" v="Brattkleiva" />
		<tag k="place" v="locality" />
		<tag k="ssr:stedsnr" v="231333" />
	</node>
	<node lat="64.67824444733274" lon="11.813316668530817" id="-38074">
		<tag k="name" v="Aunkroken" />
		<tag k="natural" v="hill" />
		<tag k="place" v="locality" />
		<tag k="ssr:stedsnr" v="232020" />
	</node>
	<node lat="64.7914527780835" lon="12.107083342843314" id="-38075">
		<tag k="name" v="Kaldholet" />
		<tag k="natural" v="valley" />
		<tag k="place" v="locality" />
		<tag k="ssr:stedsnr" v="232115" />
	</node>
	<node lat="64.76303055941636" lon="12.057438899224186" id="-38076">
		<tag k="name" v="Hyllan" />
		<tag k="natural" v="slope" />
		<tag k="place" v="locality" />
		<tag k="ssr:stedsnr" v="232117" />
	</node>
	<node lat="64.70681944373811" lon="11.82839167267489" id="-38077">
		<tag k="name" v="Gudmundlia" />
		<tag k="natural" v="slope" />
		<tag k="place" v="locality" />
		<tag k="ssr:stedsnr" v="232043" />
	</node>
	<node lat="64.69490277488842" lon="11.878233324063894" id="-38078">
		<tag k="name" v="Salmarkskardet" />
		<tag k="natural" v="valley" />
		<tag k="place" v="locality" />
		<tag k="ssr:stedsnr" v="232044" />
	</node>
	<node lat="64.78414444781853" lon="12.023338888975704" id="-38080">
		<tag k="name" v="Svanatjønndalen" />
		<tag k="natural" v="valley" />
		<tag k="place" v="locality" />
		<tag k="ssr:stedsnr" v="232064" />
	</node>
	<node lat="64.48025833405987" lon="11.400744441640407" id="-38084">
		<tag k="alt_name" v="Ansneshaugan" />
		<tag k="fixme" v="consider natural=peak for the most distinct mountains in the district" />
		<tag k="name" v="Andsneset" />
		<tag k="natural" v="hill" />
		<tag k="place" v="locality" />
		<tag k="ssr:stedsnr" v="13202" />
	</node>
	<node lat="64.32548333197595" lon="11.295800004149148" id="-38089">
		<tag k="name" v="Brennpynten" />
		<tag k="natural" v="hill" />
		<tag k="place" v="locality" />
		<tag k="ssr:stedsnr" v="13882" />
	</node>
	<node lat="64.22951667051649" lon="11.269544444520939" id="-38093">
		<tag k="alt_name" v="Olderlitinden" />
		<tag k="fixme" v="consider natural=peak for the most distinct mountains in the district" />
		<tag k="name" v="Sørlitinden" />
		<tag k="natural" v="hill" />
		<tag k="place" v="locality" />
		<tag k="ssr:stedsnr" v="13920" />
	</node>
	<node lat="64.30990277587361" lon="11.51140834294455" id="-38095">
		<tag k="name" v="Kristenmoen" />
		<tag k="place" v="locality" />
		<tag k="ssr:stedsnr" v="13931" />
	</node>
	<node lat="64.7300805510317" lon="11.614555564850992" id="-38102">
		<tag k="name" v="Ner-Hesjidalen" />
		<tag k="natural" v="valley" />
		<tag k="place" v="locality" />
		<tag k="ssr:stedsnr" v="14221" />
	</node>
	<node lat="64.35412222669066" lon="11.150863885712027" id="-38105">
		<tag k="fixme" v="consider natural=peak for the most distinct mountains in the district" />
		<tag k="name" v="Rapheia" />
		<tag k="natural" v="hill" />
		<tag k="place" v="locality" />
		<tag k="ssr:stedsnr" v="14276" />
	</node>
	<node lat="64.60824444667605" lon="11.452641672334941" id="-38106">
		<tag k="fixme" v="multiple name tags, choose one and add the other to alt_name; consider natural=peak for the most distinct mountains in the district" />
		<tag k="name" v="Midterfjellet;Mellomfjella" />
		<tag k="natural" v="hill" />
		<tag k="place" v="locality" />
		<tag k="ssr:stedsnr" v="14407" />
	</node>
	<node lat="64.62953611305993" lon="11.308799989757837" id="-38108">
		<tag k="alt_name" v="Øya" />
		<tag k="name" v="Storøya" />
		<tag k="natural" v="hill" />
		<tag k="place" v="locality" />
		<tag k="ssr:stedsnr" v="14303" />
	</node>
	<node lat="64.43030277889139" lon="11.141799998078618" id="-38112">
		<tag k="name" v="Nonsaksla" />
		<tag k="natural" v="hill" />
		<tag k="place" v="locality" />
		<tag k="ssr:stedsnr" v="14362" />
	</node>
	<node lat="64.35820555972562" lon="11.079800004212423" id="-38113">
		<tag k="name" v="Seterklumpen" />
		<tag k="natural" v="hill" />
		<tag k="place" v="locality" />
		<tag k="ssr:stedsnr" v="14363" />
	</node>
	<node lat="64.4312138897813" lon="11.110327770392828" id="-38114">
		<tag k="fixme" v="multiple name tags, choose one and add the other to alt_name" />
		<tag k="name" v="Tøttdalshatten;Hatten" />
		<tag k="natural" v="hill" />
		<tag k="place" v="locality" />
		<tag k="ssr:stedsnr" v="14365" />
	</node>
	<node lat="64.50082777411482" lon="11.10968334339431" id="-38117">
		<tag k="fixme" v="consider natural=peak for the most distinct mountains in the district" />
		<tag k="name" v="Heia" />
		<tag k="natural" v="hill" />
		<tag k="place" v="locality" />
		<tag k="ssr:stedsnr" v="14708" />
	</node>
	<node lat="64.23833889221007" lon="11.378086117558542" id="-38119">
		<tag k="fixme" v="consider natural=peak for the most distinct mountains in the district" />
		<tag k="name" v="Husåsen" />
		<tag k="natural" v="hill" />
		<tag k="place" v="locality" />
		<tag k="ssr:stedsnr" v="14769" />
	</node>
	<node lat="64.72502500145352" lon="11.520713887925451" id="-38120">
		<tag k="name" v="Kløyvaberga" />
		<tag k="natural" v="hill" />
		<tag k="place" v="locality" />
		<tag k="ssr:stedsnr" v="232357" />
	</node>
	<node lat="64.18874722150669" lon="10.797330545286954" id="-38124">
		<tag k="fixme" v="consider natural=peak for the most distinct mountains in the district" />
		<tag k="name" v="Samsonheia" />
		<tag k="natural" v="hill" />
		<tag k="place" v="locality" />
		<tag k="ssr:stedsnr" v="14626" />
	</node>
	<node lat="64.18239721961395" lon="11.059641674861028" id="-38126">
		<tag k="fixme" v="consider natural=peak for the most distinct mountains in the district" />
		<tag k="name" v="Småliåsen" />
		<tag k="natural" v="hill" />
		<tag k="place" v="locality" />
		<tag k="ssr:stedsnr" v="14631" />
	</node>
	<node lat="64.52999999700118" lon="11.19485833578118" id="-38127">
		<tag k="fixme" v="consider natural=peak for the most distinct mountains in the district" />
		<tag k="name" v="Forohevillen" />
		<tag k="natural" v="hill" />
		<tag k="place" v="locality" />
		<tag k="ssr:stedsnr" v="14638" />
	</node>
	<node lat="64.23697778114783" lon="11.267102769336239" id="-38131">
		<tag k="fixme" v="consider natural=peak for the most distinct mountains in the district" />
		<tag k="name" v="Brørsheia" />
		<tag k="natural" v="hill" />
		<tag k="place" v="locality" />
		<tag k="ssr:stedsnr" v="14859" />
	</node>
	<node lat="64.33044166231136" lon="11.258183334630257" id="-38133">
		<tag k="alt_name" v="Andskaret" />
		<tag k="name" v="Andskardet" />
		<tag k="natural" v="valley" />
		<tag k="place" v="locality" />
		<tag k="ssr:stedsnr" v="14864" />
	</node>
	<node lat="64.34055833035437" lon="11.336025007702867" id="-38134">
		<tag k="name" v="Svartfosshaugan" />
		<tag k="natural" v="hill" />
		<tag k="place" v="locality" />
		<tag k="ssr:stedsnr" v="14873" />
	</node>
	<node lat="64.57044722408475" lon="11.67470833858304" id="-38138">
		<tag k="fixme" v="consider natural=peak for the most distinct mountains in the district" />
		<tag k="name" v="Lauvåsen" />
		<tag k="natural" v="hill" />
		<tag k="place" v="locality" />
		<tag k="ssr:stedsnr" v="15020" />
	</node>
	<node lat="64.34816388767796" lon="11.343816675767261" id="-38140">
		<tag k="name" v="Nilsdalen" />
		<tag k="natural" v="valley" />
		<tag k="place" v="locality" />
		<tag k="ssr:stedsnr" v="14970" />
	</node>
	<node lat="64.70945000153932" lon="11.487283331858867" id="-38144">
		<tag k="name" v="Vassklubben" />
		<tag k="natural" v="hill" />
		<tag k="place" v="locality" />
		<tag k="ssr:stedsnr" v="15274" />
	</node>
	<node lat="64.73529166438188" lon="11.660150004591692" id="-38146">
		<tag k="name" v="Nordholet" />
		<tag k="natural" v="valley" />
		<tag k="place" v="locality" />
		<tag k="ssr:stedsnr" v="15317" />
	</node>
	<node lat="64.72677222579088" lon="11.56328056288151" id="-38148">
		<tag k="name" v="Svartdalshøgda" />
		<tag k="natural" v="hill" />
		<tag k="place" v="locality" />
		<tag k="ssr:stedsnr" v="232451" />
	</node>
	<node lat="64.76321389308937" lon="11.665422219945796" id="-38151">
		<tag k="name" v="Langmyrskardet" />
		<tag k="natural" v="valley" />
		<tag k="place" v="locality" />
		<tag k="ssr:stedsnr" v="233059" />
	</node>
	<node lat="64.11272500323105" lon="10.867122213389637" id="-38153">
		<tag k="fixme" v="consider natural=peak for the most distinct mountains in the district" />
		<tag k="name" v="Finnvollheia - Raassje" />
		<tag k="name:no" v="Finnvollheia" />
		<tag k="name:sma" v="Raassje" />
		<tag k="natural" v="hill" />
		<tag k="old_name:sma" v="Roassje" />
		<tag k="place" v="locality" />
		<tag k="ssr:stedsnr" v="24598" />
	</node>
	<node lat="64.53171111217564" lon="11.582311106812849" id="-38157">
		<tag k="name" v="Rognhaugen" />
		<tag k="natural" v="hill" />
		<tag k="place" v="locality" />
		<tag k="ssr:stedsnr" v="29434" />
	</node>
	<node lat="64.3139111100612" lon="11.24419167239952" id="-38160">
		<tag k="name" v="Dalavikskaret" />
		<tag k="natural" v="valley" />
		<tag k="place" v="locality" />
		<tag k="ssr:stedsnr" v="38209" />
	</node>
	<node lat="64.30328889137228" lon="11.205436106368627" id="-38161">
		<tag k="name" v="Åsnesmoen" />
		<tag k="place" v="locality" />
		<tag k="ssr:stedsnr" v="38212" />
	</node>
	<node lat="64.38913333683972" lon="11.529897220971865" id="-38167">
		<tag k="name" v="Seterdalen" />
		<tag k="natural" v="valley" />
		<tag k="place" v="locality" />
		<tag k="ssr:stedsnr" v="38714" />
	</node>
	<node lat="64.39533888720237" lon="11.505986112386699" id="-38168">
		<tag k="name" v="Knubben" />
		<tag k="natural" v="hill" />
		<tag k="place" v="locality" />
		<tag k="ssr:stedsnr" v="38724" />
	</node>
	<node lat="64.4146749997618" lon="11.37340277559087" id="-38169">
		<tag k="name" v="Halldalen" />
		<tag k="natural" v="valley" />
		<tag k="place" v="locality" />
		<tag k="ssr:stedsnr" v="38761" />
	</node>
	<node lat="64.3989361109494" lon="11.406969446189306" id="-38171">
		<tag k="name" v="Kvennhusdalen" />
		<tag k="natural" v="valley" />
		<tag k="place" v="locality" />
		<tag k="ssr:stedsnr" v="39663" />
	</node>
	<node lat="64.64627221831881" lon="11.17094444384463" id="-38175">
		<tag k="name" v="Klokkanihaugen" />
		<tag k="natural" v="hill" />
		<tag k="place" v="locality" />
		<tag k="ssr:stedsnr" v="44429" />
	</node>
	<node lat="64.654613885955" lon="11.459708331373667" id="-38178">
		<tag k="name" v="Hansvika" />
		<tag k="natural" v="slope" />
		<tag k="place" v="locality" />
		<tag k="ssr:stedsnr" v="45303" />
	</node>
	<node lat="64.64439166729645" lon="11.198213885066652" id="-38179">
		<tag k="name" v="Hatlahaugen" />
		<tag k="natural" v="hill" />
		<tag k="place" v="locality" />
		<tag k="ssr:stedsnr" v="47202" />
	</node>
	<node lat="64.66882222310613" lon="11.188194445343582" id="-38180">
		<tag k="name" v="Hamnvikhaugen" />
		<tag k="natural" v="hill" />
		<tag k="place" v="locality" />
		<tag k="ssr:stedsnr" v="47183" />
	</node>
	<node lat="64.43006944200896" lon="11.55344444995679" id="-38183">
		<tag k="name" v="Hans - Oskarhaugen" />
		<tag k="natural" v="hill" />
		<tag k="place" v="locality" />
		<tag k="ssr:stedsnr" v="47374" />
	</node>
	<node lat="64.66549999881893" lon="11.809327788044364" id="-38190">
		<tag k="name" v="Elghaugen" />
		<tag k="natural" v="hill" />
		<tag k="place" v="locality" />
		<tag k="ssr:stedsnr" v="47403" />
	</node>
	<node lat="64.59808333366065" lon="11.42283888147429" id="-38192">
		<tag k="fixme" v="consider natural=peak for the most distinct mountains in the district" />
		<tag k="name" v="Urdfjellet" />
		<tag k="natural" v="hill" />
		<tag k="place" v="locality" />
		<tag k="ssr:stedsnr" v="47477" />
	</node>
	<node lat="64.62513610883629" lon="11.47565556393598" id="-38195">
		<tag k="name" v="Finntrappen" />
		<tag k="natural" v="hill" />
		<tag k="place" v="locality" />
		<tag k="ssr:stedsnr" v="47709" />
	</node>
	<node lat="64.65877777494501" lon="11.297388884438687" id="-38196">
		<tag k="fixme" v="consider natural=peak for the most distinct mountains in the district" />
		<tag k="name" v="Geitaberget" />
		<tag k="natural" v="hill" />
		<tag k="place" v="locality" />
		<tag k="ssr:stedsnr" v="47785" />
	</node>
	<node lat="64.66254444444296" lon="11.295249995640537" id="-38197">
		<tag k="name" v="Svalikroken" />
		<tag k="natural" v="valley" />
		<tag k="place" v="locality" />
		<tag k="ssr:stedsnr" v="47789" />
	</node>
	<node lat="64.62635833444025" lon="11.47000276908586" id="-38198">
		<tag k="name" v="Elghaugen" />
		<tag k="natural" v="hill" />
		<tag k="place" v="locality" />
		<tag k="ssr:stedsnr" v="47700" />
	</node>
	<node lat="64.6298583298188" lon="11.274069447348893" id="-38199">
		<tag k="name" v="Ragnhildgårdberget" />
		<tag k="natural" v="hill" />
		<tag k="place" v="locality" />
		<tag k="ssr:stedsnr" v="47871" />
	</node>
	<node lat="64.33949722644537" lon="11.640316670413734" id="-38203">
		<tag k="name" v="Sandådalen" />
		<tag k="natural" v="valley" />
		<tag k="place" v="locality" />
		<tag k="ssr:stedsnr" v="48424" />
	</node>
	<node lat="64.3343499989673" lon="11.635513897586453" id="-38205">
		<tag k="fixme" v="consider natural=peak for the most distinct mountains in the district" />
		<tag k="name" v="Vestre Matstuhaugen" />
		<tag k="natural" v="hill" />
		<tag k="place" v="locality" />
		<tag k="ssr:stedsnr" v="48430" />
	</node>
	<node lat="64.65752499856308" lon="11.639649997494443" id="-38209">
		<tag k="fixme" v="consider natural=peak for the most distinct mountains in the district" />
		<tag k="name" v="Heivikfjellet" />
		<tag k="natural" v="hill" />
		<tag k="place" v="locality" />
		<tag k="ssr:stedsnr" v="48723" />
	</node>
	<node lat="64.6629638855231" lon="11.590194440649489" id="-38210">
		<tag k="name" v="Skrømthaugen" />
		<tag k="natural" v="hill" />
		<tag k="place" v="locality" />
		<tag k="ssr:stedsnr" v="48725" />
	</node>
	<node lat="64.56888889319423" lon="11.632411119073671" id="-38214">
		<tag k="name" v="Skrovberget" />
		<tag k="natural" v="hill" />
		<tag k="place" v="locality" />
		<tag k="ssr:stedsnr" v="48620" />
	</node>
	<node lat="64.51173333362206" lon="11.36413889443206" id="-38217">
		<tag k="name" v="Langvassbakken" />
		<tag k="natural" v="slope" />
		<tag k="place" v="locality" />
		<tag k="ssr:stedsnr" v="48632" />
	</node>
	<node lat="64.64753055620386" lon="11.088716659769426" id="-38219">
		<tag k="name" v="Skeiskamoen" />
		<tag k="place" v="locality" />
		<tag k="ssr:stedsnr" v="48975" />
	</node>
	<node lat="64.77833055772992" lon="12.074638889617521" id="-38222">
		<tag k="name" v="Tverrbekkremma" />
		<tag k="natural" v="slope" />
		<tag k="place" v="locality" />
		<tag k="ssr:stedsnr" v="50102" />
	</node>
	<node lat="64.76905277385454" lon="11.742994447730204" id="-38228">
		<tag k="name" v="Hopahaugen" />
		<tag k="natural" v="hill" />
		<tag k="place" v="locality" />
		<tag k="ssr:stedsnr" v="50068" />
	</node>
	<node lat="64.75602221933178" lon="11.966624998430728" id="-38232">
		<tag k="name" v="Ørnflauget" />
		<tag k="natural" v="cliff" />
		<tag k="ssr:stedsnr" v="50079" />
	</node>
	<node lat="64.75533611159045" lon="12.011488884144999" id="-38233">
		<tag k="name" v="Storvikhammaren" />
		<tag k="natural" v="hill" />
		<tag k="place" v="locality" />
		<tag k="ssr:stedsnr" v="50083" />
	</node>
	<node lat="64.70688611035202" lon="11.750741671704438" id="-38234">
		<tag k="name" v="Geitaberget" />
		<tag k="natural" v="hill" />
		<tag k="place" v="locality" />
		<tag k="ssr:stedsnr" v="50326" />
	</node>
	<node lat="64.72416111016491" lon="11.5278222152691" id="-38235">
		<tag k="name" v="Høghaugen" />
		<tag k="natural" v="hill" />
		<tag k="place" v="locality" />
		<tag k="ssr:stedsnr" v="50375" />
	</node>
	<node lat="64.44724999972087" lon="11.250963897834042" id="-38241">
		<tag k="name" v="Svartholet" />
		<tag k="natural" v="valley" />
		<tag k="place" v="locality" />
		<tag k="ssr:stedsnr" v="74018" />
	</node>
	<node lat="64.14751944042719" lon="11.147938894871892" id="-38252">
		<tag k="name" v="Asplia" />
		<tag k="natural" v="slope" />
		<tag k="place" v="locality" />
		<tag k="ssr:stedsnr" v="74603" />
	</node>
	<node lat="64.22049999803026" lon="11.019636100980797" id="-38254">
		<tag k="name" v="Storlidalen" />
		<tag k="natural" v="valley" />
		<tag k="place" v="locality" />
		<tag k="ssr:stedsnr" v="74663" />
	</node>
	<node lat="64.21045555772169" lon="10.91155833829396" id="-38256">
		<tag k="name" v="Bjørkvassdalen" />
		<tag k="natural" v="valley" />
		<tag k="place" v="locality" />
		<tag k="ssr:stedsnr" v="74668" />
	</node>
	<node lat="64.29354444803676" lon="11.441944439208038" id="-38260">
		<tag k="name" v="Gammelsagelvskoran" />
		<tag k="natural" v="hill" />
		<tag k="place" v="locality" />
		<tag k="ssr:stedsnr" v="74917" />
	</node>
	<node lat="64.3176500011943" lon="11.308700001045464" id="-38261">
		<tag k="fixme" v="consider natural=peak for the most distinct mountains in the district" />
		<tag k="name" v="Brannfjellet" />
		<tag k="natural" v="hill" />
		<tag k="place" v="locality" />
		<tag k="ssr:stedsnr" v="74921" />
	</node>
	<node lat="64.41809444702699" lon="11.227391676747978" id="-38263">
		<tag k="name" v="Amundlia" />
		<tag k="natural" v="slope" />
		<tag k="place" v="locality" />
		<tag k="ssr:stedsnr" v="75051" />
	</node>
	<node lat="64.53282777475646" lon="11.642533328830758" id="-38264">
		<tag k="name" v="Kløyva" />
		<tag k="natural" v="valley" />
		<tag k="place" v="locality" />
		<tag k="ssr:stedsnr" v="75053" />
	</node>
	<node lat="64.72790277464962" lon="11.753883325027536" id="-38267">
		<tag k="fixme" v="consider natural=peak for the most distinct mountains in the district" />
		<tag k="name" v="Furunesfjellet" />
		<tag k="natural" v="hill" />
		<tag k="place" v="locality" />
		<tag k="ssr:stedsnr" v="75209" />
	</node>
	<node lat="64.49280277933967" lon="11.314347221723537" id="-38268">
		<tag k="name" v="Storhaugen" />
		<tag k="natural" v="hill" />
		<tag k="place" v="locality" />
		<tag k="ssr:stedsnr" v="75222" />
	</node>
	<node lat="64.42434166909842" lon="11.234299989852918" id="-38270">
		<tag k="name" v="Snøflekkhollia" />
		<tag k="natural" v="slope" />
		<tag k="place" v="locality" />
		<tag k="ssr:stedsnr" v="75103" />
	</node>
	<node lat="64.26351944067079" lon="10.984638885418057" id="-38273">
		<tag k="fixme" v="consider natural=peak for the most distinct mountains in the district" />
		<tag k="name" v="Godvasslihevlan" />
		<tag k="natural" v="hill" />
		<tag k="place" v="locality" />
		<tag k="ssr:stedsnr" v="75154" />
	</node>
	<node lat="64.29939722131485" lon="11.019919435927251" id="-38274">
		<tag k="name" v="Tverrlipynten" />
		<tag k="natural" v="hill" />
		<tag k="place" v="locality" />
		<tag k="ssr:stedsnr" v="75163" />
	</node>
	<node lat="64.70248888959061" lon="11.608299995098982" id="-38279">
		<tag k="name" v="Ramnflauget" />
		<tag k="natural" v="cliff" />
		<tag k="ssr:stedsnr" v="75253" />
	</node>
	<node lat="64.62622500137516" lon="11.491700000615248" id="-38280">
		<tag k="fixme" v="multiple name tags, choose one and add the other to alt_name; consider natural=peak for the most distinct mountains in the district" />
		<tag k="name" v="Mastervikfjellet;Mastervikklompen" />
		<tag k="natural" v="hill" />
		<tag k="place" v="locality" />
		<tag k="ssr:stedsnr" v="75407" />
	</node>
	<node lat="64.59802221861796" lon="11.413969436322306" id="-38286">
		<tag k="name" v="Durmålsfjellet" />
		<tag k="natural" v="hill" />
		<tag k="place" v="locality" />
		<tag k="ssr:stedsnr" v="75469" />
	</node>
	<node lat="64.60794999720804" lon="11.630872218363018" id="-38288">
		<tag k="name" v="Tømmerdalen" />
		<tag k="natural" v="valley" />
		<tag k="place" v="locality" />
		<tag k="ssr:stedsnr" v="75507" />
	</node>
	<node lat="64.45942500281251" lon="11.044877773088833" id="-38290">
		<tag k="fixme" v="consider natural=peak for the most distinct mountains in the district" />
		<tag k="name" v="Svarttjønnåsen" />
		<tag k="natural" v="hill" />
		<tag k="place" v="locality" />
		<tag k="ssr:stedsnr" v="75513" />
	</node>
	<node lat="64.61277777710804" lon="11.742716669888312" id="-38296">
		<tag k="name" v="Øystre Gravvassdalen" />
		<tag k="natural" v="valley" />
		<tag k="place" v="locality" />
		<tag k="ssr:stedsnr" v="75806" />
	</node>
	<node lat="64.32953610863512" lon="11.419413888518028" id="-38297">
		<tag k="alt_name" v="Singsfjellet" />
		<tag k="fixme" v="consider natural=peak for the most distinct mountains in the district" />
		<tag k="name" v="Singsheia" />
		<tag k="natural" v="hill" />
		<tag k="place" v="locality" />
		<tag k="ssr:stedsnr" v="75917" />
	</node>
	<node lat="64.68783055449826" lon="11.758852780625016" id="-38302">
		<tag k="alt_name" v="Soksdalsfjellet" />
		<tag k="fixme" v="consider natural=peak for the most distinct mountains in the district" />
		<tag k="name" v="Saksdalsfjellet" />
		<tag k="natural" v="hill" />
		<tag k="place" v="locality" />
		<tag k="ssr:stedsnr" v="76222" />
	</node>
	<node lat="64.54019166478419" lon="11.239744451143316" id="-38309">
		<tag k="name" v="Lauvkammen" />
		<tag k="natural" v="hill" />
		<tag k="place" v="locality" />
		<tag k="ssr:stedsnr" v="90448" />
	</node>
	<node lat="64.39622499685275" lon="11.454130551952229" id="-38311">
		<tag k="fixme" v="consider natural=peak for the most distinct mountains in the district" />
		<tag k="name" v="Bangsundfjellet" />
		<tag k="natural" v="hill" />
		<tag k="place" v="locality" />
		<tag k="ssr:stedsnr" v="90682" />
	</node>
	<node lat="64.3982444410969" lon="11.509355559535896" id="-38312">
		<tag k="fixme" v="consider natural=peak for the most distinct mountains in the district" />
		<tag k="name" v="Knubben" />
		<tag k="natural" v="hill" />
		<tag k="place" v="locality" />
		<tag k="ssr:stedsnr" v="90686" />
	</node>
	<node lat="64.43920277795117" lon="11.512961112448926" id="-38313">
		<tag k="name" v="Spillumshøgda" />
		<tag k="place" v="locality" />
		<tag k="ssr:stedsnr" v="90721" />
	</node>
	<node lat="64.52021389220933" lon="11.277058337120044" id="-38315">
		<tag k="name" v="Rypmoen" />
		<tag k="place" v="locality" />
		<tag k="ssr:stedsnr" v="90769" />
	</node>
	<node lat="64.52428610741617" lon="11.300741675010906" id="-38316">
		<tag k="name" v="Krakmarkdalen" />
		<tag k="natural" v="valley" />
		<tag k="place" v="locality" />
		<tag k="ssr:stedsnr" v="90779" />
	</node>
	<node lat="64.3096305546007" lon="11.237394453489959" id="-38323">
		<tag k="name" v="Stordølin" />
		<tag k="natural" v="valley" />
		<tag k="place" v="locality" />
		<tag k="ssr:stedsnr" v="99208" />
	</node>
	<node lat="64.24054721789024" lon="11.358602786911488" id="-38325">
		<tag k="name" v="Limhaugen" />
		<tag k="natural" v="hill" />
		<tag k="place" v="locality" />
		<tag k="ssr:stedsnr" v="99261" />
	</node>
	<node lat="64.24446111365174" lon="11.274013891996129" id="-38326">
		<tag k="name" v="Lisskleivtrappen" />
		<tag k="natural" v="hill" />
		<tag k="place" v="locality" />
		<tag k="ssr:stedsnr" v="99266" />
	</node>
	<node lat="64.38989166383286" lon="11.53671388667944" id="-38329">
		<tag k="name" v="Groftdalen" />
		<tag k="natural" v="valley" />
		<tag k="place" v="locality" />
		<tag k="ssr:stedsnr" v="99721" />
	</node>
	<node lat="64.65518611079409" lon="11.250180562809474" id="-38332">
		<tag k="fixme" v="consider natural=peak for the most distinct mountains in the district" />
		<tag k="name" v="Vesterfjellet" />
		<tag k="natural" v="hill" />
		<tag k="place" v="locality" />
		<tag k="ssr:stedsnr" v="107017" />
	</node>
	<node lat="64.65002500359952" lon="11.212394435163072" id="-38333">
		<tag k="name" v="Grøtingan" />
		<tag k="natural" v="slope" />
		<tag k="place" v="locality" />
		<tag k="ssr:stedsnr" v="107035" />
	</node>
	<node lat="64.65178055277124" lon="11.21548055796756" id="-38334">
		<tag k="name" v="Svartroggo" />
		<tag k="natural" v="valley" />
		<tag k="place" v="locality" />
		<tag k="ssr:stedsnr" v="107040" />
	</node>
	<node lat="64.64965833116612" lon="11.206047223387564" id="-38336">
		<tag k="name" v="Storkroken" />
		<tag k="natural" v="valley" />
		<tag k="place" v="locality" />
		<tag k="ssr:stedsnr" v="107044" />
	</node>
	<node lat="64.49906944277775" lon="11.310216673175717" id="-38338">
		<tag k="name" v="Kvennhusdalen" />
		<tag k="natural" v="valley" />
		<tag k="place" v="locality" />
		<tag k="ssr:stedsnr" v="108074" />
	</node>
	<node lat="64.50034444458248" lon="11.323333328485747" id="-38339">
		<tag k="name" v="Furuhaugen" />
		<tag k="natural" v="hill" />
		<tag k="place" v="locality" />
		<tag k="ssr:stedsnr" v="108078" />
	</node>
	<node lat="64.49432778000269" lon="11.320641668774739" id="-38340">
		<tag k="name" v="Storsandbakkan" />
		<tag k="natural" v="slope" />
		<tag k="place" v="locality" />
		<tag k="ssr:stedsnr" v="108080" />
	</node>
	<node lat="64.43256666648983" lon="11.527011119040388" id="-38345">
		<tag k="name" v="Brennhaugen" />
		<tag k="natural" v="hill" />
		<tag k="place" v="locality" />
		<tag k="ssr:stedsnr" v="108373" />
	</node>
	<node lat="64.63753888483022" lon="11.178580558192245" id="-38347">
		<tag k="name" v="Ytterjordhaugen" />
		<tag k="natural" v="hill" />
		<tag k="place" v="locality" />
		<tag k="ssr:stedsnr" v="108389" />
	</node>
	<node lat="64.17756111379293" lon="11.140986107009818" id="-38349">
		<tag k="name" v="Lissheia" />
		<tag k="natural" v="ridge" />
		<tag k="place" v="locality" />
		<tag k="ssr:stedsnr" v="108503" />
	</node>
	<node lat="64.18056944772918" lon="11.170488885259093" id="-38350">
		<tag k="name" v="Bjønnaholet" />
		<tag k="natural" v="valley" />
		<tag k="place" v="locality" />
		<tag k="ssr:stedsnr" v="108506" />
	</node>
	<node lat="64.47561944614054" lon="11.228541659236896" id="-38352">
		<tag k="name" v="Finnhøttlia" />
		<tag k="natural" v="slope" />
		<tag k="place" v="locality" />
		<tag k="ssr:stedsnr" v="108422" />
	</node>
	<node lat="64.58995277675903" lon="11.622172229614423" id="-38354">
		<tag k="name" v="Leirvikhaugen" />
		<tag k="natural" v="hill" />
		<tag k="place" v="locality" />
		<tag k="ssr:stedsnr" v="108705" />
	</node>
	<node lat="64.66221388892956" lon="11.276297231914835" id="-38356">
		<tag k="name" v="Dunavasslian" />
		<tag k="natural" v="slope" />
		<tag k="place" v="locality" />
		<tag k="ssr:stedsnr" v="108784" />
	</node>
	<node lat="64.29679444569923" lon="11.151038882057373" id="-38364">
		<tag k="name" v="Vesterlirabban" />
		<tag k="natural" v="hill" />
		<tag k="place" v="locality" />
		<tag k="ssr:stedsnr" v="109787" />
	</node>
	<node lat="64.27841389116851" lon="11.131925003810801" id="-38365">
		<tag k="name" v="Rognlia" />
		<tag k="natural" v="slope" />
		<tag k="place" v="locality" />
		<tag k="ssr:stedsnr" v="109915" />
	</node>
	<node lat="64.37145000076248" lon="11.155019436249793" id="-38368">
		<tag k="name" v="Peterdalen" />
		<tag k="natural" v="valley" />
		<tag k="place" v="locality" />
		<tag k="ssr:stedsnr" v="109821" />
	</node>
	<node lat="64.52899999779333" lon="11.158536113266857" id="-38370">
		<tag k="name" v="Furuholet" />
		<tag k="natural" v="valley" />
		<tag k="place" v="locality" />
		<tag k="ssr:stedsnr" v="110480" />
	</node>
	<node lat="64.72842777803211" lon="11.91206944073394" id="-38371">
		<tag k="name" v="Vakkerliholet" />
		<tag k="natural" v="valley" />
		<tag k="place" v="locality" />
		<tag k="ssr:stedsnr" v="111010" />
	</node>
	<node lat="64.73038333726532" lon="11.6753611090297" id="-38373">
		<tag k="name" v="Søndagslia" />
		<tag k="natural" v="slope" />
		<tag k="place" v="locality" />
		<tag k="ssr:stedsnr" v="111189" />
	</node>
	<node lat="64.72093333459615" lon="11.553488883927999" id="-38376">
		<tag k="name" v="Seterkløyva" />
		<tag k="natural" v="slope" />
		<tag k="place" v="locality" />
		<tag k="ssr:stedsnr" v="111475" />
	</node>
	<node lat="64.73899999575129" lon="11.545647224038394" id="-38377">
		<tag k="name" v="Hesthauet" />
		<tag k="natural" v="hill" />
		<tag k="place" v="locality" />
		<tag k="ssr:stedsnr" v="111478" />
	</node>
	<node lat="64.75797778231608" lon="11.697049998653682" id="-38378">
		<tag k="name" v="Snødalen" />
		<tag k="natural" v="valley" />
		<tag k="place" v="locality" />
		<tag k="ssr:stedsnr" v="112070" />
	</node>
	<node lat="64.74847777836949" lon="11.691602767596835" id="-38379">
		<tag k="name" v="Trongfjordvasslia" />
		<tag k="natural" v="slope" />
		<tag k="place" v="locality" />
		<tag k="ssr:stedsnr" v="112071" />
	</node>
	<node lat="64.47676666567567" lon="11.565583338287711" id="-38382">
		<tag k="name" v="Fjøsberget" />
		<tag k="natural" v="hill" />
		<tag k="place" v="locality" />
		<tag k="ssr:stedsnr" v="134062" />
	</node>
	<node lat="64.45269444013466" lon="11.091841661359647" id="-38384">
		<tag k="fixme" v="consider natural=peak for the most distinct mountains in the district" />
		<tag k="name" v="Sørfjellet" />
		<tag k="natural" v="hill" />
		<tag k="place" v="locality" />
		<tag k="ssr:stedsnr" v="134519" />
	</node>
	<node lat="64.41946666623893" lon="11.426930547586077" id="-38389">
		<tag k="alt_name" v="Skulin" />
		<tag k="name" v="Skulen" />
		<tag k="natural" v="hill" />
		<tag k="place" v="locality" />
		<tag k="ssr:stedsnr" v="135115" />
	</node>
	<node lat="64.34285278141797" lon="11.060030546230022" id="-38391">
		<tag k="name" v="Oksvolldalen" />
		<tag k="natural" v="valley" />
		<tag k="place" v="locality" />
		<tag k="ssr:stedsnr" v="135308" />
	</node>
	<node lat="64.49944166428033" lon="11.355025008419554" id="-38397">
		<tag k="fixme" v="consider natural=peak for the most distinct mountains in the district" />
		<tag k="name" v="Hestfjellet" />
		<tag k="natural" v="hill" />
		<tag k="place" v="locality" />
		<tag k="ssr:stedsnr" v="135205" />
	</node>
	<node lat="64.25267222541834" lon="11.072705551326774" id="-38399">
		<tag k="fixme" v="consider natural=peak for the most distinct mountains in the district" />
		<tag k="name" v="Vassmoheia" />
		<tag k="natural" v="hill" />
		<tag k="place" v="locality" />
		<tag k="ssr:stedsnr" v="135215" />
	</node>
	<node lat="64.39181389199426" lon="11.133119440969704" id="-38402">
		<tag k="name" v="Rognlia" />
		<tag k="natural" v="slope" />
		<tag k="place" v="locality" />
		<tag k="ssr:stedsnr" v="135267" />
	</node>
	<node lat="64.7474166672994" lon="11.552702771898394" id="-38405">
		<tag k="fixme" v="multiple name tags, choose one and add the other to alt_name; consider natural=peak for the most distinct mountains in the district" />
		<tag k="name" v="Sminesfjellet;Storfjellet" />
		<tag k="natural" v="hill" />
		<tag k="place" v="locality" />
		<tag k="ssr:stedsnr" v="135712" />
	</node>
	<node lat="64.53414166367594" lon="11.172644449241755" id="-38409">
		<tag k="name" v="Lauvskardfjellet" />
		<tag k="natural" v="hill" />
		<tag k="place" v="locality" />
		<tag k="ssr:stedsnr" v="135663" />
	</node>
	<node lat="64.29828333555571" lon="11.49441110299899" id="-38414">
		<tag k="name" v="Pikhaugen" />
		<tag k="natural" v="hill" />
		<tag k="place" v="locality" />
		<tag k="ssr:stedsnr" v="135907" />
	</node>
	<node lat="64.36252500032933" lon="11.365474992320316" id="-38418">
		<tag k="name" v="Ilskardet" />
		<tag k="natural" v="valley" />
		<tag k="place" v="locality" />
		<tag k="ssr:stedsnr" v="135985" />
	</node>
	<node lat="64.5545249991438" lon="11.71264167517214" id="-38427">
		<tag k="fixme" v="consider natural=peak for the most distinct mountains in the district" />
		<tag k="name" v="Prikkstaven" />
		<tag k="natural" v="hill" />
		<tag k="place" v="locality" />
		<tag k="ssr:stedsnr" v="136151" />
	</node>
	<node lat="64.71320832896433" lon="11.476694454266267" id="-38429">
		<tag k="name" v="Storhuskleppen" />
		<tag k="natural" v="hill" />
		<tag k="place" v="locality" />
		<tag k="ssr:stedsnr" v="136302" />
	</node>
	<node lat="64.69856666921314" lon="11.631049997302176" id="-38433">
		<tag k="fixme" v="consider natural=peak for the most distinct mountains in the district" />
		<tag k="name" v="Kjerringnesfjellet" />
		<tag k="natural" v="hill" />
		<tag k="place" v="locality" />
		<tag k="ssr:stedsnr" v="136318" />
	</node>
	<node lat="64.77557777538257" lon="11.961766658242665" id="-38438">
		<tag k="name" v="Svanatjønndalen" />
		<tag k="natural" v="valley" />
		<tag k="place" v="locality" />
		<tag k="ssr:stedsnr" v="136897" />
	</node>
	<node lat="64.22854721999886" lon="11.147530554726208" id="-38439">
		<tag k="name" v="Bjørgheia" />
		<tag k="natural" v="hill" />
		<tag k="place" v="locality" />
		<tag k="ssr:stedsnr" v="142336" />
	</node>
	<node lat="64.46363332964431" lon="11.58732223004635" id="-38443">
		<tag k="name" v="Litlhaugen" />
		<tag k="natural" v="hill" />
		<tag k="place" v="locality" />
		<tag k="ssr:stedsnr" v="143302" />
	</node>
	<node lat="64.41527222541498" lon="11.58355277085218" id="-38445">
		<tag k="fixme" v="consider natural=peak for the most distinct mountains in the district" />
		<tag k="name" v="Barstadbøla" />
		<tag k="natural" v="hill" />
		<tag k="place" v="locality" />
		<tag k="ssr:stedsnr" v="256112" />
	</node>
	<node lat="64.44771944782244" lon="11.265802769255593" id="-38447">
		<tag k="name" v="Brattbakkan" />
		<tag k="natural" v="hill" />
		<tag k="place" v="locality" />
		<tag k="ssr:stedsnr" v="256021" />
	</node>
	<node lat="64.43838055237174" lon="11.307341669637673" id="-38449">
		<tag k="name" v="Våghøgda" />
		<tag k="natural" v="hill" />
		<tag k="place" v="locality" />
		<tag k="ssr:stedsnr" v="256040" />
	</node>
	<node lat="64.47063610750102" lon="11.496324994550706" id="-38457">
		<tag k="name" v="Bjørumsklumpen" />
		<tag k="natural" v="hill" />
		<tag k="old_name" v="Bjørumsklompen" />
		<tag k="place" v="locality" />
		<tag k="ssr:stedsnr" v="149512" />
	</node>
	<node lat="64.53023333579725" lon="11.57416111139431" id="-38460">
		<tag k="name" v="Staurdalen" />
		<tag k="natural" v="valley" />
		<tag k="place" v="locality" />
		<tag k="ssr:stedsnr" v="150416" />
	</node>
	<node lat="64.53445555316159" lon="11.217777774690097" id="-38461">
		<tag k="name" v="Sjålia" />
		<tag k="natural" v="slope" />
		<tag k="place" v="locality" />
		<tag k="ssr:stedsnr" v="150463" />
	</node>
	<node lat="64.53333610681563" lon="11.325061105147265" id="-38462">
		<tag k="name" v="Middagshaugen" />
		<tag k="natural" v="hill" />
		<tag k="place" v="locality" />
		<tag k="ssr:stedsnr" v="150755" />
	</node>
	<node lat="64.50693888560781" lon="11.307244448109296" id="-38463">
		<tag k="name" v="Skåkskaret" />
		<tag k="natural" v="valley" />
		<tag k="place" v="locality" />
		<tag k="ssr:stedsnr" v="150778" />
	</node>
	<node lat="64.19947500317019" lon="11.08476388260503" id="-38466">
		<tag k="fixme" v="multiple name tags, choose one and add the other to alt_name" />
		<tag k="name" v="Heggdalslikammen;Rognliheia" />
		<tag k="natural" v="hill" />
		<tag k="place" v="locality" />
		<tag k="ssr:stedsnr" v="256637" />
	</node>
	<node lat="64.27203610862882" lon="11.250149998654631" id="-38471">
		<tag k="name" v="Lomtjønnklumpan" />
		<tag k="natural" v="hill" />
		<tag k="place" v="locality" />
		<tag k="ssr:stedsnr" v="256838" />
	</node>
	<node lat="64.24453055759471" lon="11.101902773153771" id="-38472">
		<tag k="name" v="Nausthaugen" />
		<tag k="natural" v="hill" />
		<tag k="place" v="locality" />
		<tag k="ssr:stedsnr" v="256709" />
	</node>
	<node lat="64.30916389236008" lon="11.358583328137872" id="-38474">
		<tag k="name" v="Fjalseterdalen" />
		<tag k="natural" v="valley" />
		<tag k="place" v="locality" />
		<tag k="ssr:stedsnr" v="256916" />
	</node>
	<node lat="64.30818055802949" lon="11.292433343354613" id="-38476">
		<tag k="name" v="Urddalen" />
		<tag k="natural" v="valley" />
		<tag k="place" v="locality" />
		<tag k="ssr:stedsnr" v="256882" />
	</node>
	<node lat="64.5376694460919" lon="11.535219445526126" id="-38485">
		<tag k="name" v="Kjerringdalen" />
		<tag k="natural" v="valley" />
		<tag k="place" v="locality" />
		<tag k="ssr:stedsnr" v="257068" />
	</node>
	<node lat="64.41511110778613" lon="11.552552778613265" id="-38487">
		<tag k="name" v="Damhaugen" />
		<tag k="natural" v="hill" />
		<tag k="place" v="locality" />
		<tag k="ssr:stedsnr" v="257075" />
	</node>
	<node lat="64.58637500460057" lon="11.456941656723929" id="-38489">
		<tag k="name" v="Straumahatten" />
		<tag k="natural" v="hill" />
		<tag k="place" v="locality" />
		<tag k="ssr:stedsnr" v="257047" />
	</node>
	<node lat="64.50706944637486" lon="11.594100005132107" id="-38491">
		<tag k="name" v="Botsskardet" />
		<tag k="natural" v="valley" />
		<tag k="place" v="locality" />
		<tag k="ssr:stedsnr" v="257142" />
	</node>
	<node lat="64.39770000395754" lon="11.529144442769537" id="-38495">
		<tag k="name" v="Fuglhaugan" />
		<tag k="natural" v="hill" />
		<tag k="place" v="locality" />
		<tag k="ssr:stedsnr" v="257088" />
	</node>
	<node lat="64.26323611097665" lon="11.058269440252571" id="-38498">
		<tag k="name" v="Halvtynnhaugen" />
		<tag k="natural" v="hill" />
		<tag k="place" v="locality" />
		<tag k="ssr:stedsnr" v="257164" />
	</node>
	<node lat="64.49809722514671" lon="11.381505559794325" id="-38504">
		<tag k="fixme" v="consider natural=peak for the most distinct mountains in the district" />
		<tag k="name" v="Brufjellet" />
		<tag k="natural" v="hill" />
		<tag k="place" v="locality" />
		<tag k="ssr:stedsnr" v="257242" />
	</node>
	<node lat="64.72311666683935" lon="11.676091659613919" id="-38507">
		<tag k="fixme" v="consider natural=peak for the most distinct mountains in the district" />
		<tag k="name" v="Bukkavikfjellet" />
		<tag k="natural" v="hill" />
		<tag k="place" v="locality" />
		<tag k="ssr:stedsnr" v="257327" />
	</node>
	<node lat="64.66524444049158" lon="11.315941657582487" id="-38508">
		<tag k="fixme" v="consider natural=peak for the most distinct mountains in the district" />
		<tag k="name" v="Einarskardfjellet" />
		<tag k="natural" v="hill" />
		<tag k="place" v="locality" />
		<tag k="ssr:stedsnr" v="257338" />
	</node>
	<node lat="64.68835000428524" lon="11.679580552856674" id="-38511">
		<tag k="name" v="Jektmasterdalen" />
		<tag k="natural" v="valley" />
		<tag k="place" v="locality" />
		<tag k="ssr:stedsnr" v="257395" />
	</node>
	<node lat="64.59908888588679" lon="11.47475278772517" id="-38521">
		<tag k="fixme" v="consider natural=peak for the most distinct mountains in the district" />
		<tag k="name" v="Skjelhaggafjellet" />
		<tag k="natural" v="hill" />
		<tag k="place" v="locality" />
		<tag k="ssr:stedsnr" v="257495" />
	</node>
	<node lat="64.60897778100745" lon="11.684541659495197" id="-38523">
		<tag k="name" v="Vassliin" />
		<tag k="natural" v="slope" />
		<tag k="place" v="locality" />
		<tag k="ssr:stedsnr" v="257536" />
	</node>
	<node lat="64.60462500319272" lon="11.586894440166386" id="-38524">
		<tag k="name" v="Buktafjellet" />
		<tag k="natural" v="hill" />
		<tag k="place" v="locality" />
		<tag k="ssr:stedsnr" v="257541" />
	</node>
	<node lat="64.17092222566956" lon="10.78450832938821" id="-38525">
		<tag k="fixme" v="consider natural=peak for the most distinct mountains in the district" />
		<tag k="name" v="Småfossheia" />
		<tag k="natural" v="hill" />
		<tag k="place" v="locality" />
		<tag k="ssr:stedsnr" v="257625" />
	</node>
	<node lat="64.16724444160202" lon="10.758575002744328" id="-38526">
		<tag k="name" v="Nordlia" />
		<tag k="natural" v="slope" />
		<tag k="place" v="locality" />
		<tag k="ssr:stedsnr" v="257626" />
	</node>
	<node lat="64.17527500392721" lon="11.201133336597637" id="-38527">
		<tag k="name" v="Strandaberga" />
		<tag k="natural" v="hill" />
		<tag k="place" v="locality" />
		<tag k="ssr:stedsnr" v="257629" />
	</node>
	<node lat="64.16324722655723" lon="10.932461113501848" id="-38536">
		<tag k="name" v="Rognlihøgda" />
		<tag k="natural" v="hill" />
		<tag k="place" v="locality" />
		<tag k="ssr:stedsnr" v="257645" />
	</node>
	<node lat="64.15947777678639" lon="10.907266664580225" id="-38537">
		<tag k="name" v="Hundheia" />
		<tag k="natural" v="hill" />
		<tag k="place" v="locality" />
		<tag k="ssr:stedsnr" v="257648" />
	</node>
	<node lat="64.22810555563431" lon="11.144827786312153" id="-38538">
		<tag k="fixme" v="consider natural=peak for the most distinct mountains in the district" />
		<tag k="name" v="Fugllia" />
		<tag k="natural" v="hill" />
		<tag k="place" v="locality" />
		<tag k="ssr:stedsnr" v="257696" />
	</node>
	<node lat="64.6047749963209" lon="11.744624991410852" id="-38544">
		<tag k="name" v="Dølin" />
		<tag k="natural" v="slope" />
		<tag k="place" v="locality" />
		<tag k="ssr:stedsnr" v="257813" />
	</node>
	<node lat="64.58657500174427" lon="11.83102501031178" id="-38545">
		<tag k="name" v="Trollknuten" />
		<tag k="natural" v="hill" />
		<tag k="place" v="locality" />
		<tag k="ssr:stedsnr" v="257836" />
	</node>
	<node lat="64.75017500221321" lon="11.927169444106514" id="-38548">
		<tag k="fixme" v="consider natural=peak for the most distinct mountains in the district" />
		<tag k="name" v="Høgmyrtinden" />
		<tag k="natural" v="hill" />
		<tag k="place" v="locality" />
		<tag k="ssr:stedsnr" v="257871" />
	</node>
	<node lat="64.25657499912026" lon="11.420677775616959" id="-38551">
		<tag k="fixme" v="consider natural=peak for the most distinct mountains in the district" />
		<tag k="name" v="Seteråsen" />
		<tag k="natural" v="hill" />
		<tag k="place" v="locality" />
		<tag k="ssr:stedsnr" v="257878" />
	</node>
	<node lat="64.63950833711174" lon="11.741199993183567" id="-38552">
		<tag k="name" v="Rundtuva" />
		<tag k="natural" v="hill" />
		<tag k="place" v="locality" />
		<tag k="ssr:stedsnr" v="257886" />
	</node>
	<node lat="64.7604805527856" lon="11.987669443797989" id="-38553">
		<tag k="fixme" v="consider natural=peak for the most distinct mountains in the district" />
		<tag k="name" v="Naustmofjellet" />
		<tag k="natural" v="hill" />
		<tag k="place" v="locality" />
		<tag k="ssr:stedsnr" v="257887" />
	</node>
	<node lat="64.25590277498644" lon="11.635438889081925" id="-38554">
		<tag k="fixme" v="consider natural=peak for the most distinct mountains in the district" />
		<tag k="name" v="Lysåsen" />
		<tag k="natural" v="hill" />
		<tag k="place" v="locality" />
		<tag k="ssr:stedsnr" v="257889" />
	</node>
	<node lat="64.76017499859586" lon="11.8950388961062" id="-38556">
		<tag k="fixme" v="consider natural=peak for the most distinct mountains in the district" />
		<tag k="name" v="Jettenlifjellet" />
		<tag k="natural" v="hill" />
		<tag k="place" v="locality" />
		<tag k="ssr:stedsnr" v="257892" />
	</node>
	<node lat="64.26113610887577" lon="11.23267777353373" id="-38558">
		<tag k="fixme" v="consider natural=peak for the most distinct mountains in the district" />
		<tag k="name" v="Høgkammen" />
		<tag k="natural" v="hill" />
		<tag k="place" v="locality" />
		<tag k="ssr:stedsnr" v="257899" />
	</node>
	<node lat="64.27132777505392" lon="11.596072217557893" id="-38559">
		<tag k="name" v="Nonstjønnhaugen" />
		<tag k="natural" v="hill" />
		<tag k="place" v="locality" />
		<tag k="ssr:stedsnr" v="257901" />
	</node>
	<node lat="64.63791388790227" lon="11.126463892402615" id="-38572">
		<tag k="name" v="Sandvikhaugen" />
		<tag k="natural" v="hill" />
		<tag k="place" v="locality" />
		<tag k="ssr:stedsnr" v="168356" />
	</node>
	<node lat="64.59989166398032" lon="11.436711111841296" id="-38573">
		<tag k="name" v="Valdskifthammaren" />
		<tag k="natural" v="hill" />
		<tag k="place" v="locality" />
		<tag k="ssr:stedsnr" v="168512" />
	</node>
	<node lat="64.64651666458259" lon="11.334791671104487" id="-38578">
		<tag k="name" v="Sammardalen" />
		<tag k="natural" v="valley" />
		<tag k="place" v="locality" />
		<tag k="ssr:stedsnr" v="168922" />
	</node>
	<node lat="64.45403888768563" lon="11.170513893646548" id="-38580">
		<tag k="name" v="Olafjellet" />
		<tag k="natural" v="hill" />
		<tag k="place" v="locality" />
		<tag k="ssr:stedsnr" v="169172" />
	</node>
	<node lat="64.27523055397697" lon="11.275949994276997" id="-38581">
		<tag k="name" v="Vasshallin" />
		<tag k="natural" v="slope" />
		<tag k="place" v="locality" />
		<tag k="ssr:stedsnr" v="169308" />
	</node>
	<node lat="64.60666388523316" lon="11.756313886358026" id="-38582">
		<tag k="name" v="Klubbtjønndalen" />
		<tag k="natural" v="valley" />
		<tag k="place" v="locality" />
		<tag k="ssr:stedsnr" v="169255" />
	</node>
	<node lat="64.52975555415672" lon="11.64470833381838" id="-38584">
		<tag k="fixme" v="consider natural=peak for the most distinct mountains in the district" />
		<tag k="name" v="Fuglliseteråsen" />
		<tag k="natural" v="hill" />
		<tag k="place" v="locality" />
		<tag k="ssr:stedsnr" v="169413" />
	</node>
	<node lat="64.57272221952938" lon="11.704675005077558" id="-38588">
		<tag k="name" v="Borkamoen" />
		<tag k="place" v="locality" />
		<tag k="ssr:stedsnr" v="169355" />
	</node>
	<node lat="64.60927222502201" lon="11.636958332879948" id="-38595">
		<tag k="fixme" v="consider natural=peak for the most distinct mountains in the district" />
		<tag k="name" v="Åsan" />
		<tag k="natural" v="hill" />
		<tag k="place" v="locality" />
		<tag k="ssr:stedsnr" v="169702" />
	</node>
	<node lat="64.2274305515353" lon="11.127791667123084" id="-38597">
		<tag k="name" v="Aksla" />
		<tag k="natural" v="ridge" />
		<tag k="place" v="locality" />
		<tag k="ssr:stedsnr" v="169955" />
	</node>
	<node lat="64.27678055609319" lon="11.058211116400534" id="-38599">
		<tag k="name" v="Trongskaret" />
		<tag k="natural" v="valley" />
		<tag k="place" v="locality" />
		<tag k="ssr:stedsnr" v="169915" />
	</node>
	<node lat="64.72878333397179" lon="11.895797228434644" id="-38604">
		<tag k="name" v="Gressdalen" />
		<tag k="natural" v="valley" />
		<tag k="place" v="locality" />
		<tag k="ssr:stedsnr" v="171012" />
	</node>
	<node lat="64.68048055943937" lon="11.839258336135469" id="-38605">
		<tag k="name" v="Svenskdalen" />
		<tag k="natural" v="valley" />
		<tag k="place" v="locality" />
		<tag k="ssr:stedsnr" v="171059" />
	</node>
	<node lat="64.71541666973204" lon="11.488819446022884" id="-38611">
		<tag k="name" v="Storvassvikmoen" />
		<tag k="place" v="locality" />
		<tag k="ssr:stedsnr" v="171372" />
	</node>
	<node lat="64.7264583329708" lon="11.527911105995365" id="-38614">
		<tag k="name" v="Finnhyttdalen" />
		<tag k="natural" v="valley" />
		<tag k="place" v="locality" />
		<tag k="ssr:stedsnr" v="171513" />
	</node>
	<node lat="64.18884988533563" lon="11.098362493260572" id="-38618">
		<tag k="fixme" v="consider natural=peak for the most distinct mountains in the district" />
		<tag k="name" v="Lissnøheia" />
		<tag k="natural" v="hill" />
		<tag k="place" v="locality" />
		<tag k="ssr:stedsnr" v="263368" />
	</node>
	<node lat="64.49460278121478" lon="11.618833343110762" id="-38619">
		<tag k="name" v="Stormoen" />
		<tag k="place" v="locality" />
		<tag k="ssr:stedsnr" v="265339" />
	</node>
	<node lat="64.43916666774702" lon="11.243255553179122" id="-38623">
		<tag k="name" v="Mollbakkmoan" />
		<tag k="place" v="locality" />
		<tag k="ssr:stedsnr" v="196027" />
	</node>
	<node lat="64.57942499989284" lon="11.235786108125184" id="-38628">
		<tag k="fixme" v="consider natural=peak for the most distinct mountains in the district" />
		<tag k="name" v="Middagsfjellet" />
		<tag k="natural" v="hill" />
		<tag k="place" v="locality" />
		<tag k="ssr:stedsnr" v="196052" />
	</node>
	<node lat="64.5512416661267" lon="11.253155553469417" id="-38629">
		<tag k="fixme" v="consider natural=peak for the most distinct mountains in the district" />
		<tag k="name" v="Litlåsen" />
		<tag k="natural" v="hill" />
		<tag k="place" v="locality" />
		<tag k="ssr:stedsnr" v="196104" />
	</node>
	<node lat="64.54834167039611" lon="11.612024997777343" id="-38630">
		<tag k="name" v="Bjørnvikkammen" />
		<tag k="natural" v="hill" />
		<tag k="place" v="locality" />
		<tag k="ssr:stedsnr" v="196106" />
	</node>
	<node lat="64.26904722521864" lon="11.167374990062848" id="-38633">
		<tag k="fixme" v="consider natural=peak for the most distinct mountains in the district" />
		<tag k="name" v="Straumengåsan" />
		<tag k="natural" v="hill" />
		<tag k="place" v="locality" />
		<tag k="ssr:stedsnr" v="196130" />
	</node>
	<node lat="64.50992500031566" lon="11.478155547598437" id="-38634">
		<tag k="name" v="Litlfjellet" />
		<tag k="natural" v="hill" />
		<tag k="place" v="locality" />
		<tag k="ssr:stedsnr" v="196132" />
	</node>
	<node lat="64.51156666825554" lon="11.575580560795121" id="-38636">
		<tag k="name" v="Vemundvikurda" />
		<tag k="natural" v="hill" />
		<tag k="place" v="locality" />
		<tag k="ssr:stedsnr" v="196147" />
	</node>
	<node lat="64.43276944563394" lon="11.161019437239132" id="-38645">
		<tag k="alt_name" v="Klokkatiklompen" />
		<tag k="fixme" v="consider natural=peak for the most distinct mountains in the district" />
		<tag k="name" v="Klokkatiklumpen" />
		<tag k="natural" v="hill" />
		<tag k="place" v="locality" />
		<tag k="ssr:stedsnr" v="196404" />
	</node>
	<node lat="64.27617500423524" lon="11.317397217830464" id="-38650">
		<tag k="name" v="Vesterlia" />
		<tag k="natural" v="slope" />
		<tag k="place" v="locality" />
		<tag k="ssr:stedsnr" v="196808" />
	</node>
	<node lat="64.2848250040853" lon="11.62550833906759" id="-38653">
		<tag k="fixme" v="consider natural=peak for the most distinct mountains in the district" />
		<tag k="name" v="Kråkåsen" />
		<tag k="natural" v="hill" />
		<tag k="place" v="locality" />
		<tag k="ssr:stedsnr" v="196816" />
	</node>
	<node lat="64.64503055185267" lon="11.73190833509921" id="-38657">
		<tag k="fixme" v="consider natural=peak for the most distinct mountains in the district" />
		<tag k="name" v="Hopan" />
		<tag k="natural" v="hill" />
		<tag k="place" v="locality" />
		<tag k="ssr:stedsnr" v="196830" />
	</node>
	<node lat="64.29267499939151" lon="11.627827768707489" id="-38660">
		<tag k="name" v="Brenna" />
		<tag k="natural" v="hill" />
		<tag k="place" v="locality" />
		<tag k="ssr:stedsnr" v="196834" />
	</node>
	<node lat="64.5638138854899" lon="11.140000007838012" id="-38663">
		<tag k="fixme" v="consider natural=peak for the most distinct mountains in the district" />
		<tag k="name" v="Stolfjellet" />
		<tag k="natural" v="hill" />
		<tag k="place" v="locality" />
		<tag k="ssr:stedsnr" v="196565" />
	</node>
	<node lat="64.30096666939434" lon="11.592466663464652" id="-38664">
		<tag k="fixme" v="consider natural=peak for the most distinct mountains in the district" />
		<tag k="name" v="Skurfjellet" />
		<tag k="natural" v="hill" />
		<tag k="place" v="locality" />
		<tag k="ssr:stedsnr" v="196908" />
	</node>
	<node lat="64.34424444374899" lon="11.590491666153618" id="-38666">
		<tag k="name" v="Klubben" />
		<tag k="natural" v="hill" />
		<tag k="place" v="locality" />
		<tag k="ssr:stedsnr" v="196973" />
	</node>
	<node lat="64.52211944665493" lon="11.642852769250851" id="-38667">
		<tag k="name" v="Stakkengdalen" />
		<tag k="natural" v="valley" />
		<tag k="place" v="locality" />
		<tag k="ssr:stedsnr" v="197175" />
	</node>
	<node lat="64.30040555751354" lon="11.48442500998365" id="-38669">
		<tag k="name" v="Seterdalen" />
		<tag k="natural" v="valley" />
		<tag k="place" v="locality" />
		<tag k="ssr:stedsnr" v="196864" />
	</node>
	<node lat="64.56431944107639" lon="11.457102787393946" id="-38671">
		<tag k="name" v="Hesjedalen" />
		<tag k="natural" v="valley" />
		<tag k="place" v="locality" />
		<tag k="ssr:stedsnr" v="197016" />
	</node>
	<node lat="64.67084721922636" lon="11.343847218384036" id="-38679">
		<tag k="fixme" v="consider natural=peak for the most distinct mountains in the district" />
		<tag k="name" v="Moldvikfjellet" />
		<tag k="natural" v="hill" />
		<tag k="place" v="locality" />
		<tag k="ssr:stedsnr" v="197380" />
	</node>
	<node lat="64.59071389007616" lon="11.741372222238006" id="-38682">
		<tag k="name" v="Fossvikhaugan" />
		<tag k="natural" v="hill" />
		<tag k="place" v="locality" />
		<tag k="ssr:stedsnr" v="197803" />
	</node>
	<node lat="64.4047222261725" lon="11.392561104669404" id="-38685">
		<tag k="name" v="Klimpan" />
		<tag k="natural" v="hill" />
		<tag k="place" v="locality" />
		<tag k="ssr:stedsnr" v="269142" />
	</node>
	<node lat="64.51338611025406" lon="11.220269451942928" id="-38687">
		<tag k="name" v="Ospa" />
		<tag k="place" v="locality" />
		<tag k="ssr:stedsnr" v="211874" />
	</node>
	<node lat="64.43898055594968" lon="11.503861116356516" id="-38688">
		<tag k="name" v="Svartdalen" />
		<tag k="natural" v="valley" />
		<tag k="place" v="locality" />
		<tag k="ssr:stedsnr" v="211731" />
	</node>
	<node lat="64.34653889066081" lon="11.2363055546799" id="-38695">
		<tag k="name" v="Ormmyråsen" />
		<tag k="natural" v="slope" />
		<tag k="place" v="locality" />
		<tag k="ssr:stedsnr" v="220208" />
	</node>
	<node lat="64.37259999971607" lon="11.355872226152485" id="-38698">
		<tag k="name" v="Skarberget" />
		<tag k="natural" v="hill" />
		<tag k="place" v="locality" />
		<tag k="ssr:stedsnr" v="220603" />
	</node>
	<node lat="64.34278611035968" lon="11.556858333524712" id="-38699">
		<tag k="fixme" v="consider natural=peak for the most distinct mountains in the district" />
		<tag k="name" v="Lauvåsmyra" />
		<tag k="natural" v="hill" />
		<tag k="place" v="locality" />
		<tag k="ssr:stedsnr" v="220626" />
	</node>
	<node lat="64.42368611363658" lon="11.385763887765082" id="-38700">
		<tag k="fixme" v="consider natural=peak for the most distinct mountains in the district" />
		<tag k="name" v="Tverdalsfjellet" />
		<tag k="natural" v="hill" />
		<tag k="place" v="locality" />
		<tag k="ssr:stedsnr" v="220812" />
	</node>
	<node lat="64.39550277848917" lon="11.38971666050532" id="-38701">
		<tag k="name" v="Sankthanshaugen" />
		<tag k="natural" v="hill" />
		<tag k="old_name" v="St.Hanshaugen" />
		<tag k="place" v="locality" />
		<tag k="ssr:stedsnr" v="220771" />
	</node>
	<node lat="64.52638055613383" lon="11.33684165715803" id="-38707">
		<tag k="name" v="Varghaugen" />
		<tag k="natural" v="hill" />
		<tag k="place" v="locality" />
		<tag k="ssr:stedsnr" v="272757" />
	</node>
	<node lat="64.68463055907982" lon="11.49434166309674" id="-38713">
		<tag k="name" v="Kavelbrua" />
		<tag k="natural" v="slope" />
		<tag k="place" v="locality" />
		<tag k="ssr:stedsnr" v="227286" />
	</node>
	<node lat="64.64309722478082" lon="11.188316662229836" id="-38717">
		<tag k="fixme" v="consider natural=peak for the most distinct mountains in the district" />
		<tag k="name" v="Mulfjellet" />
		<tag k="natural" v="hill" />
		<tag k="place" v="locality" />
		<tag k="ssr:stedsnr" v="229198" />
	</node>
	<node lat="64.57880833349208" lon="11.821272228322822" id="-38718">
		<tag k="name" v="Skogstuholet" />
		<tag k="natural" v="valley" />
		<tag k="place" v="locality" />
		<tag k="ssr:stedsnr" v="229381" />
	</node>
	<node lat="64.64152222186468" lon="11.19849722989815" id="-38722">
		<tag k="name" v="Tronga" />
		<tag k="natural" v="valley" />
		<tag k="place" v="locality" />
		<tag k="ssr:stedsnr" v="229203" />
	</node>
	<node lat="64.63756111563063" lon="11.1218583288275" id="-38724">
		<tag k="name" v="Kløyvan" />
		<tag k="natural" v="slope" />
		<tag k="place" v="locality" />
		<tag k="ssr:stedsnr" v="229405" />
	</node>
	<node lat="64.61751666947326" lon="11.32393888426573" id="-38726">
		<tag k="name" v="Skjærvikodden" />
		<tag k="natural" v="hill" />
		<tag k="place" v="locality" />
		<tag k="ssr:stedsnr" v="229529" />
	</node>
	<node lat="64.59648055114808" lon="11.641372224923261" id="-38727">
		<tag k="fixme" v="consider natural=peak for the most distinct mountains in the district" />
		<tag k="name" v="Bjønnafjellet" />
		<tag k="natural" v="hill" />
		<tag k="place" v="locality" />
		<tag k="ssr:stedsnr" v="229713" />
	</node>
	<node lat="64.28389444394985" lon="11.650402783808053" id="-38730">
		<tag k="name" v="Finnholet" />
		<tag k="natural" v="valley" />
		<tag k="place" v="locality" />
		<tag k="ssr:stedsnr" v="230119" />
	</node>
	<node lat="64.63193055715008" lon="11.306419434227168" id="-38731">
		<tag k="name" v="Øyahatten" />
		<tag k="natural" v="hill" />
		<tag k="place" v="locality" />
		<tag k="ssr:stedsnr" v="229880" />
	</node>
	<node lat="64.64082222590213" lon="11.343258325522411" id="-38733">
		<tag k="name" v="Sammarfjøsberget" />
		<tag k="natural" v="hill" />
		<tag k="place" v="locality" />
		<tag k="ssr:stedsnr" v="229891" />
	</node>
	<node lat="64.66008055483123" lon="11.34753055163249" id="-38735">
		<tag k="fixme" v="consider natural=peak for the most distinct mountains in the district" />
		<tag k="name" v="Moafjellet" />
		<tag k="natural" v="hill" />
		<tag k="place" v="locality" />
		<tag k="ssr:stedsnr" v="229900" />
	</node>
	<node lat="64.49889444624124" lon="11.374908338540495" id="-38736">
		<tag k="name" v="Finnbudalen" />
		<tag k="natural" v="valley" />
		<tag k="place" v="locality" />
		<tag k="ssr:stedsnr" v="230085" />
	</node>
	<node lat="64.18889876864192" lon="11.098366191711701" id="-38739">
		<tag k="fixme" v="consider natural=peak for the most distinct mountains in the district" />
		<tag k="name" v="Lissnøheia" />
		<tag k="natural" v="hill" />
		<tag k="place" v="locality" />
		<tag k="ssr:stedsnr" v="230502" />
	</node>
	<node lat="64.6049583330404" lon="11.13341110728514" id="-38740">
		<tag k="name" v="Tårnhaugen" />
		<tag k="natural" v="hill" />
		<tag k="place" v="locality" />
		<tag k="ssr:stedsnr" v="230503" />
	</node>
	<node lat="64.30910555845304" lon="11.536902784191449" id="-38745">
		<tag k="name" v="Høymyrhaugen" />
		<tag k="natural" v="hill" />
		<tag k="place" v="locality" />
		<tag k="ssr:stedsnr" v="230435" />
	</node>
	<node lat="64.52749444084982" lon="11.164408325302242" id="-38747">
		<tag k="fixme" v="consider natural=peak for the most distinct mountains in the district" />
		<tag k="name" v="Høgdin" />
		<tag k="natural" v="hill" />
		<tag k="place" v="locality" />
		<tag k="ssr:stedsnr" v="230447" />
	</node>
	<node lat="64.17710277879938" lon="10.7435611051212" id="-38749">
		<tag k="name" v="Grasvasskaret" />
		<tag k="natural" v="valley" />
		<tag k="place" v="locality" />
		<tag k="ssr:stedsnr" v="230482" />
	</node>
	<node lat="64.16307500288295" lon="10.793172215467022" id="-38750">
		<tag k="name" v="Småfossliin" />
		<tag k="natural" v="slope" />
		<tag k="place" v="locality" />
		<tag k="ssr:stedsnr" v="230483" />
	</node>
	<node lat="64.66729166534186" lon="11.711130557355878" id="-38755">
		<tag k="fixme" v="consider natural=peak for the most distinct mountains in the district" />
		<tag k="name" v="Selliåsen" />
		<tag k="natural" v="hill" />
		<tag k="place" v="locality" />
		<tag k="ssr:stedsnr" v="230708" />
	</node>
	<node lat="64.5290833363265" lon="11.17880833845963" id="-38761">
		<tag k="fixme" v="consider natural=peak for the most distinct mountains in the district" />
		<tag k="name" v="Langkrikfjellet" />
		<tag k="natural" v="hill" />
		<tag k="place" v="locality" />
		<tag k="ssr:stedsnr" v="231509" />
	</node>
	<node lat="64.35173055943233" lon="11.439369445218105" id="-38762">
		<tag k="name" v="Elvklompan" />
		<tag k="natural" v="hill" />
		<tag k="place" v="locality" />
		<tag k="ssr:stedsnr" v="231830" />
	</node>
	<node lat="64.73754999554876" lon="11.700219452960782" id="-38766">
		<tag k="name" v="Nordskardet" />
		<tag k="natural" v="valley" />
		<tag k="place" v="locality" />
		<tag k="ssr:stedsnr" v="232192" />
	</node>
	<node lat="64.76476666561751" lon="11.759266661039518" id="-38767">
		<tag k="name" v="Nerfjellet" />
		<tag k="natural" v="hill" />
		<tag k="place" v="locality" />
		<tag k="ssr:stedsnr" v="232089" />
	</node>
	<node lat="64.74439722511343" lon="11.798133325897547" id="-38769">
		<tag k="name" v="Storvikhøgda" />
		<tag k="natural" v="valley" />
		<tag k="place" v="locality" />
		<tag k="ssr:stedsnr" v="232204" />
	</node>
	<node lat="64.499447226534" lon="11.49095832635177" id="-38778">
		<tag k="name" v="Brennhaugan" />
		<tag k="natural" v="hill" />
		<tag k="place" v="locality" />
		<tag k="ssr:stedsnr" v="454521" />
	</node>
	<node lat="64.50646944448683" lon="11.558786100875183" id="-38781">
		<tag k="name" v="Middagsskaret" />
		<tag k="natural" v="valley" />
		<tag k="place" v="locality" />
		<tag k="ssr:stedsnr" v="454439" />
	</node>
	<node lat="64.39642777744693" lon="11.467030549561343" id="-38782">
		<tag k="name" v="Bognskaret" />
		<tag k="natural" v="valley" />
		<tag k="place" v="locality" />
		<tag k="ssr:stedsnr" v="454732" />
	</node>
	<node lat="64.49488333190159" lon="11.41270278723246" id="-38783">
		<tag k="name" v="Hestskaret" />
		<tag k="natural" v="valley" />
		<tag k="place" v="locality" />
		<tag k="ssr:stedsnr" v="454741" />
	</node>
	<node lat="64.42830277563961" lon="11.459366671804723" id="-38784">
		<tag k="fixme" v="consider natural=peak for the most distinct mountains in the district" />
		<tag k="name" v="Hallarvikfjellet" />
		<tag k="natural" v="hill" />
		<tag k="place" v="locality" />
		<tag k="ssr:stedsnr" v="454758" />
	</node>
	<node lat="64.45633055746883" lon="11.575877771962526" id="-38786">
		<tag k="alt_name" v="Storskarfjellet" />
		<tag k="fixme" v="consider natural=peak for the most distinct mountains in the district" />
		<tag k="name" v="Storskardfjellet" />
		<tag k="natural" v="hill" />
		<tag k="place" v="locality" />
		<tag k="ssr:stedsnr" v="256012" />
	</node>
	<node lat="64.46103610963874" lon="11.565024997255984" id="-38787">
		<tag k="alt_name" v="Lonholklompen" />
		<tag k="fixme" v="consider natural=peak for the most distinct mountains in the district" />
		<tag k="name" v="Lonholklumpen" />
		<tag k="natural" v="hill" />
		<tag k="place" v="locality" />
		<tag k="ssr:stedsnr" v="256064" />
	</node>
	<node lat="64.15355833371484" lon="10.873566658229201" id="-38790">
		<tag k="name" v="Agnettjønnhaugen" />
		<tag k="natural" v="hill" />
		<tag k="place" v="locality" />
		<tag k="ssr:stedsnr" v="256561" />
	</node>
	<node lat="64.28911110753539" lon="11.317616664757846" id="-38794">
		<tag k="fixme" v="consider natural=peak for the most distinct mountains in the district" />
		<tag k="name" v="Groftdalsheia" />
		<tag k="natural" v="hill" />
		<tag k="place" v="locality" />
		<tag k="ssr:stedsnr" v="256802" />
	</node>
	<node lat="64.30278055680199" lon="11.032558339417115" id="-38796">
		<tag k="name" v="Storlia" />
		<tag k="natural" v="slope" />
		<tag k="place" v="locality" />
		<tag k="ssr:stedsnr" v="256814" />
	</node>
	<node lat="64.34934444441046" lon="11.076605560500438" id="-38797">
		<tag k="name" v="Storlia" />
		<tag k="natural" v="slope" />
		<tag k="place" v="locality" />
		<tag k="ssr:stedsnr" v="256818" />
	</node>
	<node lat="64.44133611180297" lon="11.256483342209567" id="-38798">
		<tag k="fixme" v="consider natural=peak for the most distinct mountains in the district" />
		<tag k="name" v="Brennfjellet" />
		<tag k="natural" v="hill" />
		<tag k="place" v="locality" />
		<tag k="ssr:stedsnr" v="256819" />
	</node>
	<node lat="64.34622778027395" lon="11.28046110321658" id="-38799">
		<tag k="name" v="Liaberget" />
		<tag k="natural" v="hill" />
		<tag k="place" v="locality" />
		<tag k="ssr:stedsnr" v="256866" />
	</node>
	<node lat="64.56487777641225" lon="11.223627781454168" id="-38802">
		<tag k="name" v="Ellingstaddalen" />
		<tag k="natural" v="valley" />
		<tag k="place" v="locality" />
		<tag k="ssr:stedsnr" v="257020" />
	</node>
	<node lat="64.31667499582738" lon="11.656869452553984" id="-38804">
		<tag k="fixme" v="consider natural=peak for the most distinct mountains in the district" />
		<tag k="name" v="Solemshatten" />
		<tag k="natural" v="hill" />
		<tag k="place" v="locality" />
		<tag k="ssr:stedsnr" v="256908" />
	</node>
	<node lat="64.31505833497222" lon="11.608005561733698" id="-38805">
		<tag k="fixme" v="multiple name tags, choose one and add the other to alt_name; consider natural=peak for the most distinct mountains in the district" />
		<tag k="name" v="Gravdalsheia;Solemsheia" />
		<tag k="natural" v="hill" />
		<tag k="place" v="locality" />
		<tag k="ssr:stedsnr" v="256910" />
	</node>
	<node lat="64.37102778125272" lon="11.646030555731205" id="-38809">
		<tag k="fixme" v="consider natural=peak for the most distinct mountains in the district" />
		<tag k="name" v="Spjøtvassheia" />
		<tag k="natural" v="hill" />
		<tag k="place" v="locality" />
		<tag k="ssr:stedsnr" v="256963" />
	</node>
	<node lat="64.5618333307279" lon="11.257138880385869" id="-38814">
		<tag k="name" v="Skulen" />
		<tag k="natural" v="hill" />
		<tag k="place" v="locality" />
		<tag k="ssr:stedsnr" v="257119" />
	</node>
	<node lat="64.5625111105013" lon="11.23508888330147" id="-38815">
		<tag k="name" v="Kammen" />
		<tag k="natural" v="hill" />
		<tag k="place" v="locality" />
		<tag k="ssr:stedsnr" v="257120" />
	</node>
	<node lat="64.68480000429037" lon="11.995475006250354" id="-38820">
		<tag k="fixme" v="consider natural=peak for the most distinct mountains in the district" />
		<tag k="name" v="Lundvassfjella" />
		<tag k="natural" v="hill" />
		<tag k="place" v="locality" />
		<tag k="ssr:stedsnr" v="257216" />
	</node>
	<node lat="64.69014166421731" lon="11.81301943885637" id="-38822">
		<tag k="alt_name" v="Bjønndalen" />
		<tag k="name" v="Bjørndalen" />
		<tag k="natural" v="valley" />
		<tag k="place" v="locality" />
		<tag k="ssr:stedsnr" v="257221" />
	</node>
	<node lat="64.69544166313543" lon="11.862599997765349" id="-38823">
		<tag k="alt_name" v="Durmålslifjellet" />
		<tag k="fixme" v="consider natural=peak for the most distinct mountains in the district" />
		<tag k="name" v="Durmålsfjellet" />
		<tag k="natural" v="hill" />
		<tag k="place" v="locality" />
		<tag k="ssr:stedsnr" v="257222" />
	</node>
	<node lat="64.65303055557274" lon="11.594563882520164" id="-38831">
		<tag k="name" v="Ambudalen" />
		<tag k="natural" v="valley" />
		<tag k="place" v="locality" />
		<tag k="ssr:stedsnr" v="257356" />
	</node>
	<node lat="64.66560277431441" lon="11.427374997021165" id="-38834">
		<tag k="name" v="Skardenget" />
		<tag k="place" v="locality" />
		<tag k="ssr:stedsnr" v="257373" />
	</node>
	<node lat="64.59030833427462" lon="11.530127783109295" id="-38835">
		<tag k="name" v="Storfjelldalen" />
		<tag k="natural" v="valley" />
		<tag k="place" v="locality" />
		<tag k="ssr:stedsnr" v="257517" />
	</node>
	<node lat="64.61432777699612" lon="11.708688896251147" id="-38836">
		<tag k="name" v="Langliin" />
		<tag k="natural" v="slope" />
		<tag k="place" v="locality" />
		<tag k="ssr:stedsnr" v="257522" />
	</node>
	<node lat="64.60562222117365" lon="11.14259999325381" id="-38838">
		<tag k="name" v="Seterdalen" />
		<tag k="natural" v="valley" />
		<tag k="place" v="locality" />
		<tag k="ssr:stedsnr" v="257603" />
	</node>
	<node lat="64.6069388857807" lon="11.04125555245401" id="-38839">
		<tag k="name" v="Eitervikdalen" />
		<tag k="natural" v="valley" />
		<tag k="place" v="locality" />
		<tag k="ssr:stedsnr" v="257609" />
	</node>
	<node lat="64.5478499984701" lon="11.164869436818728" id="-38840">
		<tag k="fixme" v="consider natural=peak for the most distinct mountains in the district" />
		<tag k="name" v="Tindan" />
		<tag k="natural" v="hill" />
		<tag k="place" v="locality" />
		<tag k="ssr:stedsnr" v="257671" />
	</node>
	<node lat="64.33321389090122" lon="11.257086121342468" id="-38846">
		<tag k="alt_name" v="Andskarklompan" />
		<tag k="name" v="Andskardklumpen" />
		<tag k="natural" v="hill" />
		<tag k="place" v="locality" />
		<tag k="ssr:stedsnr" v="257913" />
	</node>
	<node lat="64.33814166904524" lon="11.342941669295136" id="-38847">
		<tag k="name" v="Jomyrhaugan" />
		<tag k="natural" v="hill" />
		<tag k="place" v="locality" />
		<tag k="ssr:stedsnr" v="257915" />
	</node>
	<node lat="64.33388055162312" lon="11.477591669615952" id="-38849">
		<tag k="name" v="Haborlia" />
		<tag k="natural" v="slope" />
		<tag k="place" v="locality" />
		<tag k="ssr:stedsnr" v="257920" />
	</node>
	<node lat="64.24706944423008" lon="11.494575008347322" id="-38850">
		<tag k="fixme" v="consider natural=peak for the most distinct mountains in the district" />
		<tag k="name" v="Daltjønnaksla" />
		<tag k="natural" v="hill" />
		<tag k="place" v="locality" />
		<tag k="ssr:stedsnr" v="257923" />
	</node>
	<node lat="64.50431388638833" lon="11.307355558650313" id="-38857">
		<tag k="alt_name" v="Stufjellet" />
		<tag k="fixme" v="consider natural=peak for the most distinct mountains in the district" />
		<tag k="name" v="Stuvfjellet" />
		<tag k="natural" v="hill" />
		<tag k="place" v="locality" />
		<tag k="ssr:stedsnr" v="269309" />
	</node>
	<node lat="64.4923277756688" lon="11.536947218011603" id="-38866">
		<tag k="name" v="Nord Stokkdalsfjellet" />
		<tag k="natural" v="hill" />
		<tag k="place" v="locality" />
		<tag k="ssr:stedsnr" v="272510" />
	</node>
	<node lat="64.50639444206236" lon="11.469213897033388" id="-38867">
		<tag k="name" v="Klokkatolvhaugen" />
		<tag k="natural" v="hill" />
		<tag k="place" v="locality" />
		<tag k="ssr:stedsnr" v="272527" />
	</node>
	<node lat="64.41091944254435" lon="11.44821665990838" id="-38868">
		<tag k="fixme" v="consider natural=peak for the most distinct mountains in the district" />
		<tag k="name" v="Staggafjellet" />
		<tag k="natural" v="hill" />
		<tag k="place" v="locality" />
		<tag k="ssr:stedsnr" v="272671" />
	</node>
	<node lat="64.50318055324935" lon="11.391558338242168" id="-38871">
		<tag k="name" v="Eldhusskaret" />
		<tag k="natural" v="valley" />
		<tag k="place" v="locality" />
		<tag k="ssr:stedsnr" v="272693" />
	</node>
	<node lat="64.56850833495271" lon="11.252841674153164" id="-38872">
		<tag k="name" v="Fagermarkdalen" />
		<tag k="natural" v="valley" />
		<tag k="place" v="locality" />
		<tag k="ssr:stedsnr" v="272777" />
	</node>
	<node lat="64.29360000423816" lon="11.219458335770073" id="-38876">
		<tag k="name" v="Monsdalen" />
		<tag k="natural" v="valley" />
		<tag k="place" v="locality" />
		<tag k="ssr:stedsnr" v="281220" />
	</node>
	<node lat="64.30347500315008" lon="11.189697216121198" id="-38877">
		<tag k="name" v="Rabben" />
		<tag k="natural" v="hill" />
		<tag k="place" v="locality" />
		<tag k="ssr:stedsnr" v="281232" />
	</node>
	<node lat="64.24349444144623" lon="11.296858335172733" id="-38880">
		<tag k="name" v="Ramsen" />
		<tag k="natural" v="hill" />
		<tag k="place" v="locality" />
		<tag k="ssr:stedsnr" v="281302" />
	</node>
	<node lat="64.24202222373009" lon="11.180350000566522" id="-38883">
		<tag k="name" v="Skartømtet" />
		<tag k="natural" v="valley" />
		<tag k="place" v="locality" />
		<tag k="ssr:stedsnr" v="281307" />
	</node>
	<node lat="64.20876388807152" lon="11.18783056009322" id="-38884">
		<tag k="name" v="Brudalen" />
		<tag k="natural" v="valley" />
		<tag k="place" v="locality" />
		<tag k="ssr:stedsnr" v="281317" />
	</node>
	<node lat="64.2115527819886" lon="11.193066661198438" id="-38885">
		<tag k="name" v="Kikarberget" />
		<tag k="natural" v="hill" />
		<tag k="place" v="locality" />
		<tag k="ssr:stedsnr" v="281319" />
	</node>
	<node lat="64.20621111240843" lon="11.216549994501252" id="-38887">
		<tag k="fixme" v="consider natural=peak for the most distinct mountains in the district" />
		<tag k="name" v="Storåsen" />
		<tag k="natural" v="hill" />
		<tag k="place" v="locality" />
		<tag k="ssr:stedsnr" v="281367" />
	</node>
	<node lat="64.35476388871045" lon="11.422297227760787" id="-38889">
		<tag k="name" v="Ivarknubben" />
		<tag k="natural" v="hill" />
		<tag k="place" v="locality" />
		<tag k="ssr:stedsnr" v="281574" />
	</node>
	<node lat="64.52314444149333" lon="11.379688893583277" id="-38893">
		<tag k="fixme" v="consider natural=peak for the most distinct mountains in the district" />
		<tag k="name" v="Nordskardfjellet" />
		<tag k="natural" v="hill" />
		<tag k="place" v="locality" />
		<tag k="ssr:stedsnr" v="284014" />
	</node>
	<node lat="64.68195277527153" lon="11.50184722051078" id="-38894">
		<tag k="name" v="Brannen" />
		<tag k="natural" v="slope" />
		<tag k="place" v="locality" />
		<tag k="ssr:stedsnr" v="287310" />
	</node>
	<node lat="64.64724722497844" lon="11.227305563587368" id="-38897">
		<tag k="fixme" v="consider natural=peak for the most distinct mountains in the district" />
		<tag k="name" v="Liafjellet" />
		<tag k="natural" v="hill" />
		<tag k="place" v="locality" />
		<tag k="ssr:stedsnr" v="289027" />
	</node>
	<node lat="64.49029999782807" lon="11.354505556126387" id="-38899">
		<tag k="name" v="Mensengan" />
		<tag k="natural" v="slope" />
		<tag k="place" v="locality" />
		<tag k="ssr:stedsnr" v="290084" />
	</node>
	<node lat="64.63739722225836" lon="11.195038879459851" id="-38900">
		<tag k="name" v="Gurihaugen" />
		<tag k="natural" v="hill" />
		<tag k="place" v="locality" />
		<tag k="ssr:stedsnr" v="290205" />
	</node>
	<node lat="64.40005555562952" lon="11.556580557908488" id="-38902">
		<tag k="name" v="Høgfossdalen" />
		<tag k="natural" v="valley" />
		<tag k="place" v="locality" />
		<tag k="ssr:stedsnr" v="290426" />
	</node>
	<node lat="64.59878889183302" lon="11.428747226679501" id="-38903">
		<tag k="name" v="Middagsbakken" />
		<tag k="natural" v="slope" />
		<tag k="place" v="locality" />
		<tag k="ssr:stedsnr" v="290432" />
	</node>
	<node lat="64.62051666949375" lon="11.42266389936096" id="-38907">
		<tag k="name" v="Holmhaugan" />
		<tag k="natural" v="hill" />
		<tag k="place" v="locality" />
		<tag k="ssr:stedsnr" v="290605" />
	</node>
	<node lat="64.17202221912521" lon="11.33716388883882" id="-38911">
		<tag k="name" v="Tretthalsen" />
		<tag k="natural" v="valley" />
		<tag k="place" v="locality" />
		<tag k="ssr:stedsnr" v="290681" />
	</node>
	<node lat="64.65221944697485" lon="11.350280552204529" id="-38912">
		<tag k="name" v="Storhaugen" />
		<tag k="natural" v="hill" />
		<tag k="place" v="locality" />
		<tag k="ssr:stedsnr" v="290904" />
	</node>
	<node lat="64.617327775877" lon="11.67261389189168" id="-38916">
		<tag k="name" v="Snorrolia" />
		<tag k="natural" v="slope" />
		<tag k="place" v="locality" />
		<tag k="ssr:stedsnr" v="291310" />
	</node>
	<node lat="64.6221333318401" lon="11.68005555296469" id="-38917">
		<tag k="name" v="Leikan" />
		<tag k="natural" v="slope" />
		<tag k="place" v="locality" />
		<tag k="ssr:stedsnr" v="291311" />
	</node>
	<node lat="64.60491666823643" lon="11.65799445127428" id="-38918">
		<tag k="name" v="Vellfjordkammen" />
		<tag k="natural" v="ridge" />
		<tag k="place" v="locality" />
		<tag k="ssr:stedsnr" v="291313" />
	</node>
	<node lat="64.28390555347002" lon="11.321424992888527" id="-38919">
		<tag k="fixme" v="consider natural=peak for the most distinct mountains in the district" />
		<tag k="name" v="Sveisarkal" />
		<tag k="natural" v="hill" />
		<tag k="place" v="locality" />
		<tag k="ssr:stedsnr" v="291330" />
	</node>
	<node lat="64.60554166831399" lon="11.709494445117329" id="-38920">
		<tag k="name" v="Gravvasslia" />
		<tag k="natural" v="slope" />
		<tag k="place" v="locality" />
		<tag k="ssr:stedsnr" v="291282" />
	</node>
	<node lat="64.34354722567313" lon="11.60314443716178" id="-38922">
		<tag k="name" v="Fallhaugen" />
		<tag k="natural" v="hill" />
		<tag k="place" v="locality" />
		<tag k="ssr:stedsnr" v="291479" />
	</node>
	<node lat="64.35171944376151" lon="11.584899995445765" id="-38923">
		<tag k="fixme" v="consider natural=peak for the most distinct mountains in the district" />
		<tag k="name" v="Fastengfjellet" />
		<tag k="natural" v="hill" />
		<tag k="place" v="locality" />
		<tag k="ssr:stedsnr" v="291481" />
	</node>
	<node lat="64.3507999992781" lon="11.630344442391271" id="-38924">
		<tag k="name" v="Løysmundhaugen" />
		<tag k="natural" v="hill" />
		<tag k="place" v="locality" />
		<tag k="ssr:stedsnr" v="291486" />
	</node>
	<node lat="64.25539721926505" lon="11.422472226627596" id="-38925">
		<tag k="name" v="Storslettdalen" />
		<tag k="natural" v="valley" />
		<tag k="place" v="locality" />
		<tag k="ssr:stedsnr" v="291627" />
	</node>
	<node lat="64.24694722388699" lon="11.471519446177666" id="-38926">
		<tag k="name" v="Brenthaugen" />
		<tag k="natural" v="hill" />
		<tag k="place" v="locality" />
		<tag k="ssr:stedsnr" v="291632" />
	</node>
	<node lat="64.58007777988078" lon="11.579391676043842" id="-38928">
		<tag k="name" v="Brannhaugan" />
		<tag k="natural" v="hill" />
		<tag k="place" v="locality" />
		<tag k="ssr:stedsnr" v="291679" />
	</node>
	<node lat="64.3593444459924" lon="11.458180556123281" id="-38929">
		<tag k="name" v="Bjørktjønndalan" />
		<tag k="natural" v="valley" />
		<tag k="place" v="locality" />
		<tag k="ssr:stedsnr" v="291846" />
	</node>
	<node lat="64.13806944351555" lon="11.145833332503255" id="-38931">
		<tag k="name" v="Olufhaugen" />
		<tag k="natural" v="hill" />
		<tag k="place" v="locality" />
		<tag k="ssr:stedsnr" v="291578" />
	</node>
	<node lat="64.4262444430551" lon="11.162502771453338" id="-38934">
		<tag k="name" v="Stordalen" />
		<tag k="natural" v="valley" />
		<tag k="place" v="locality" />
		<tag k="ssr:stedsnr" v="291782" />
	</node>
	<node lat="64.43749166225176" lon="11.203627782597179" id="-38935">
		<tag k="name" v="Høghaugen" />
		<tag k="natural" v="hill" />
		<tag k="place" v="locality" />
		<tag k="ssr:stedsnr" v="291787" />
	</node>
	<node lat="64.28326944506848" lon="11.147566659228833" id="-38937">
		<tag k="name" v="Kårdalen" />
		<tag k="natural" v="valley" />
		<tag k="place" v="locality" />
		<tag k="ssr:stedsnr" v="291925" />
	</node>
	<node lat="64.77784999823118" lon="11.728777768797748" id="-38938">
		<tag k="fixme" v="consider natural=peak for the most distinct mountains in the district" />
		<tag k="name" v="Nerfjellet" />
		<tag k="natural" v="hill" />
		<tag k="place" v="locality" />
		<tag k="ssr:stedsnr" v="292065" />
	</node>
	<node lat="64.73251110739938" lon="11.888338891353294" id="-38944">
		<tag k="name" v="Storvikhammaren" />
		<tag k="natural" v="hill" />
		<tag k="place" v="locality" />
		<tag k="ssr:stedsnr" v="293014" />
	</node>
	<node lat="64.74679722016201" lon="11.818369446508587" id="-38947">
		<tag k="name" v="Kvennakroken" />
		<tag k="natural" v="valley" />
		<tag k="place" v="locality" />
		<tag k="ssr:stedsnr" v="293251" />
	</node>
	<node lat="64.2350861154964" lon="11.262327783677897" id="-38959">
		<tag k="fixme" v="consider natural=peak for the most distinct mountains in the district" />
		<tag k="name" v="Granheia" />
		<tag k="natural" v="hill" />
		<tag k="place" v="locality" />
		<tag k="ssr:stedsnr" v="463248" />
	</node>
	<node lat="64.15503611393672" lon="11.193813883714398" id="-38960">
		<tag k="fixme" v="consider natural=peak for the most distinct mountains in the district" />
		<tag k="name" v="Nonslihøgda" />
		<tag k="natural" v="hill" />
		<tag k="place" v="locality" />
		<tag k="ssr:stedsnr" v="463338" />
	</node>
	<node lat="64.14957778163112" lon="11.214308335729838" id="-38961">
		<tag k="name" v="Moaklompen" />
		<tag k="natural" v="hill" />
		<tag k="place" v="locality" />
		<tag k="ssr:stedsnr" v="463339" />
	</node>
	<node lat="64.37188610973216" lon="11.432130552199984" id="-38965">
		<tag k="name" v="Bognskaret" />
		<tag k="natural" v="valley" />
		<tag k="place" v="locality" />
		<tag k="ssr:stedsnr" v="463522" />
	</node>
	<node lat="64.3948694402277" lon="11.520788885137549" id="-38969">
		<tag k="name" v="Styggdalen" />
		<tag k="natural" v="valley" />
		<tag k="place" v="locality" />
		<tag k="ssr:stedsnr" v="463677" />
	</node>
	<node lat="64.39481666443359" lon="11.481613892984386" id="-38970">
		<tag k="name" v="Bjønndalen" />
		<tag k="natural" v="valley" />
		<tag k="place" v="locality" />
		<tag k="ssr:stedsnr" v="463686" />
	</node>
	<node lat="64.38750833221525" lon="11.41928611053746" id="-38972">
		<tag k="name" v="Trongan" />
		<tag k="natural" v="valley" />
		<tag k="place" v="locality" />
		<tag k="ssr:stedsnr" v="463693" />
	</node>
	<node lat="64.39313055803743" lon="11.418563885163305" id="-38973">
		<tag k="name" v="Digerskaret" />
		<tag k="natural" v="valley" />
		<tag k="place" v="locality" />
		<tag k="ssr:stedsnr" v="463694" />
	</node>
	<node lat="64.37479167087488" lon="11.405849995323324" id="-38976">
		<tag k="name" v="Kariklompen" />
		<tag k="natural" v="hill" />
		<tag k="place" v="locality" />
		<tag k="ssr:stedsnr" v="463707" />
	</node>
	<node lat="64.41057499790749" lon="11.395241673897619" id="-38977">
		<tag k="fixme" v="consider natural=peak for the most distinct mountains in the district" />
		<tag k="name" v="Kammerfjellet" />
		<tag k="natural" v="hill" />
		<tag k="place" v="locality" />
		<tag k="ssr:stedsnr" v="463731" />
	</node>
	<node lat="64.41768333387667" lon="11.389836107948158" id="-38978">
		<tag k="fixme" v="consider natural=peak for the most distinct mountains in the district" />
		<tag k="name" v="Kovin" />
		<tag k="natural" v="hill" />
		<tag k="place" v="locality" />
		<tag k="ssr:stedsnr" v="463732" />
	</node>
	<node lat="64.41766666369956" lon="11.385458328395524" id="-38979">
		<tag k="name" v="Jensokdalen" />
		<tag k="natural" v="valley" />
		<tag k="place" v="locality" />
		<tag k="ssr:stedsnr" v="463735" />
	</node>
	<node lat="64.27967222327263" lon="11.161847225191012" id="-38981">
		<tag k="name" v="Bjørnadalskaret" />
		<tag k="natural" v="valley" />
		<tag k="place" v="locality" />
		<tag k="ssr:stedsnr" v="303318" />
	</node>
	<node lat="64.44238333096246" lon="11.537277768320648" id="-38988">
		<tag k="fixme" v="consider natural=peak for the most distinct mountains in the district" />
		<tag k="name" v="Spillumsaksla" />
		<tag k="natural" v="hill" />
		<tag k="place" v="locality" />
		<tag k="ssr:stedsnr" v="317019" />
	</node>
	<node lat="64.44650278084053" lon="11.333219437007514" id="-38989">
		<tag k="fixme" v="consider natural=peak for the most distinct mountains in the district" />
		<tag k="name" v="Stufjellet" />
		<tag k="natural" v="hill" />
		<tag k="place" v="locality" />
		<tag k="ssr:stedsnr" v="317024" />
	</node>
	<node lat="64.46182500371917" lon="11.23279722275004" id="-38993">
		<tag k="fixme" v="consider natural=peak for the most distinct mountains in the district" />
		<tag k="name" v="Brennfjellet" />
		<tag k="natural" v="hill" />
		<tag k="place" v="locality" />
		<tag k="ssr:stedsnr" v="317053" />
	</node>
	<node lat="64.26090833098718" lon="11.040586116103466" id="-38994">
		<tag k="name" v="Lonhalla" />
		<tag k="natural" v="hill" />
		<tag k="place" v="locality" />
		<tag k="ssr:stedsnr" v="317221" />
	</node>
	<node lat="64.49526111265621" lon="11.5284555471621" id="-38996">
		<tag k="fixme" v="consider natural=peak for the most distinct mountains in the district" />
		<tag k="name" v="Høgfjellet" />
		<tag k="natural" v="hill" />
		<tag k="place" v="locality" />
		<tag k="ssr:stedsnr" v="317227" />
	</node>
	<node lat="64.26807222462037" lon="11.104988895907704" id="-38998">
		<tag k="fixme" v="consider natural=peak for the most distinct mountains in the district" />
		<tag k="name" v="Lensmannsheia" />
		<tag k="natural" v="hill" />
		<tag k="place" v="locality" />
		<tag k="ssr:stedsnr" v="317112" />
	</node>
	<node lat="64.60861110956782" lon="11.100052779402022" id="-39004">
		<tag k="fixme" v="multiple name tags, choose one and add the other to alt_name; consider natural=peak for the most distinct mountains in the district" />
		<tag k="name" v="Aglen;Grønskardfjellet" />
		<tag k="natural" v="hill" />
		<tag k="place" v="locality" />
		<tag k="ssr:stedsnr" v="317508" />
	</node>
	<node lat="64.59151388568796" lon="11.651194446653168" id="-39013">
		<tag k="fixme" v="multiple name tags, choose one and add the other to alt_name; consider natural=peak for the most distinct mountains in the district" />
		<tag k="name" v="Brennfjellet;Johanklompen" />
		<tag k="natural" v="hill" />
		<tag k="place" v="locality" />
		<tag k="ssr:stedsnr" v="317410" />
	</node>
	<node lat="64.59134999891486" lon="11.558924991099385" id="-39015">
		<tag k="name" v="Storfjellet" />
		<tag k="natural" v="hill" />
		<tag k="place" v="locality" />
		<tag k="ssr:stedsnr" v="317418" />
	</node>
	<node lat="64.20980555243005" lon="10.95110000340927" id="-39018">
		<tag k="name" v="Fagerdalen" />
		<tag k="natural" v="valley" />
		<tag k="place" v="locality" />
		<tag k="ssr:stedsnr" v="317606" />
	</node>
	<node lat="64.1867388917385" lon="11.145888879896896" id="-39019">
		<tag k="name" v="Skaudalen" />
		<tag k="natural" v="valley" />
		<tag k="place" v="locality" />
		<tag k="ssr:stedsnr" v="317611" />
	</node>
	<node lat="64.49570277812208" lon="11.40018610961775" id="-39028">
		<tag k="fixme" v="consider natural=peak for the most distinct mountains in the district" />
		<tag k="name" v="Heimfjellet" />
		<tag k="natural" v="hill" />
		<tag k="place" v="locality" />
		<tag k="ssr:stedsnr" v="317811" />
	</node>
	<node lat="64.75931666322292" lon="12.033525003769391" id="-39030">
		<tag k="name" v="Litlvikdalen" />
		<tag k="natural" v="valley" />
		<tag k="place" v="locality" />
		<tag k="ssr:stedsnr" v="317814" />
	</node>
	<node lat="64.27711666426922" lon="11.227900008356823" id="-39032">
		<tag k="fixme" v="consider natural=peak for the most distinct mountains in the district" />
		<tag k="name" v="Aunaksla" />
		<tag k="natural" v="hill" />
		<tag k="place" v="locality" />
		<tag k="ssr:stedsnr" v="317840" />
	</node>
	<node lat="64.33149999650092" lon="11.295263893714688" id="-39034">
		<tag k="name" v="Neverdalen" />
		<tag k="natural" v="valley" />
		<tag k="place" v="locality" />
		<tag k="ssr:stedsnr" v="317847" />
	</node>
	<node lat="64.22953611548033" lon="11.29575833817416" id="-39036">
		<tag k="fixme" v="consider natural=peak for the most distinct mountains in the district" />
		<tag k="name" v="Tjønnsåsen" />
		<tag k="natural" v="hill" />
		<tag k="place" v="locality" />
		<tag k="ssr:stedsnr" v="317895" />
	</node>
	<node lat="64.5012777804301" lon="11.31958333843334" id="-39037">
		<tag k="name" v="Listibakken" />
		<tag k="natural" v="slope" />
		<tag k="place" v="locality" />
		<tag k="ssr:stedsnr" v="318226" />
	</node>
	<node lat="64.72379999884166" lon="11.84343056427757" id="-39042">
		<tag k="fixme" v="consider natural=peak for the most distinct mountains in the district" />
		<tag k="name" v="Oksvikfjellet" />
		<tag k="natural" v="hill" />
		<tag k="place" v="locality" />
		<tag k="ssr:stedsnr" v="318190" />
	</node>
	<node lat="64.62976388777652" lon="11.66139165804646" id="-39046">
		<tag k="alt_name" v="Landgodholet" />
		<tag k="name" v="Langoholet" />
		<tag k="natural" v="valley" />
		<tag k="place" v="locality" />
		<tag k="ssr:stedsnr" v="318443" />
	</node>
	<node lat="64.60990555346226" lon="11.709000001766679" id="-39047">
		<tag k="name" v="Risbusta" />
		<tag k="natural" v="hill" />
		<tag k="place" v="locality" />
		<tag k="ssr:stedsnr" v="318490" />
	</node>
	<node lat="64.79810833752035" lon="12.168816669014149" id="-39054">
		<tag k="fixme" v="consider natural=peak for the most distinct mountains in the district" />
		<tag k="name" v="Kvernvassaksla" />
		<tag k="natural" v="hill" />
		<tag k="place" v="locality" />
		<tag k="ssr:stedsnr" v="318891" />
	</node>
	<node lat="64.7890666661723" lon="12.047249993702104" id="-39055">
		<tag k="fixme" v="consider natural=peak for the most distinct mountains in the district" />
		<tag k="name" v="Skrøyvstadfjellet" />
		<tag k="natural" v="hill" />
		<tag k="place" v="locality" />
		<tag k="ssr:stedsnr" v="318896" />
	</node>
	<node lat="64.78977500180103" lon="12.195536116835205" id="-39056">
		<tag k="fixme" v="consider natural=peak for the most distinct mountains in the district" />
		<tag k="name" v="Kvernvassfjellet" />
		<tag k="natural" v="hill" />
		<tag k="place" v="locality" />
		<tag k="ssr:stedsnr" v="318897" />
	</node>
	<node lat="64.76634166340686" lon="11.651594443624447" id="-39057">
		<tag k="name" v="Harranesfjellet" />
		<tag k="natural" v="hill" />
		<tag k="place" v="locality" />
		<tag k="ssr:stedsnr" v="318741" />
	</node>
	<node lat="64.78056111043313" lon="11.955474992315443" id="-39058">
		<tag k="fixme" v="consider natural=peak for the most distinct mountains in the district" />
		<tag k="name" v="Elgåvassfjellet" />
		<tag k="natural" v="hill" />
		<tag k="place" v="locality" />
		<tag k="ssr:stedsnr" v="318905" />
	</node>
	<node lat="64.47635833305081" lon="11.088561120343218" id="-39059">
		<tag k="name" v="Jonsokhatten" />
		<tag k="natural" v="hill" />
		<tag k="place" v="locality" />
		<tag k="ssr:stedsnr" v="324472" />
	</node>
	<node lat="64.5467583314689" lon="11.221252779361047" id="-39066">
		<tag k="name" v="Soppliin" />
		<tag k="natural" v="slope" />
		<tag k="place" v="locality" />
		<tag k="ssr:stedsnr" v="332451" />
	</node>
	<node lat="64.5018611134755" lon="11.556647223795455" id="-39067">
		<tag k="name" v="Styggdalen" />
		<tag k="natural" v="valley" />
		<tag k="place" v="locality" />
		<tag k="ssr:stedsnr" v="332546" />
	</node>
	<node lat="64.47663611401147" lon="11.494000003143485" id="-39070">
		<tag k="name" v="Brantfjellet" />
		<tag k="natural" v="hill" />
		<tag k="place" v="locality" />
		<tag k="ssr:stedsnr" v="332564" />
	</node>
	<node lat="64.65207222419978" lon="11.23013610173611" id="-39071">
		<tag k="name" v="Stor Høybrekka" />
		<tag k="natural" v="slope" />
		<tag k="place" v="locality" />
		<tag k="ssr:stedsnr" v="471037" />
	</node>
	<node lat="64.48490277602477" lon="11.576263896127386" id="-39073">
		<tag k="name" v="Skavhattdalan" />
		<tag k="natural" v="valley" />
		<tag k="place" v="locality" />
		<tag k="ssr:stedsnr" v="333551" />
	</node>
	<node lat="64.50861111517894" lon="11.520133333278876" id="-39075">
		<tag k="name" v="Bekkadalen" />
		<tag k="natural" v="valley" />
		<tag k="place" v="locality" />
		<tag k="ssr:stedsnr" v="333451" />
	</node>
	<node lat="64.51224721972295" lon="11.536227787030056" id="-39076">
		<tag k="name" v="Nyhaugen" />
		<tag k="natural" v="hill" />
		<tag k="place" v="locality" />
		<tag k="ssr:stedsnr" v="333457" />
	</node>
	<node lat="64.51013888911407" lon="11.311891657556274" id="-39077">
		<tag k="name" v="Dølin" />
		<tag k="place" v="locality" />
		<tag k="ssr:stedsnr" v="333800" />
	</node>
	<node lat="64.6247527777304" lon="11.439455552168482" id="-39081">
		<tag k="name" v="Sula" />
		<tag k="natural" v="hill" />
		<tag k="place" v="locality" />
		<tag k="ssr:stedsnr" v="471638" />
	</node>
	<node lat="64.6127694458433" lon="11.482355551482595" id="-39082">
		<tag k="name" v="Pålengkløyva" />
		<tag k="natural" v="slope" />
		<tag k="place" v="locality" />
		<tag k="ssr:stedsnr" v="471721" />
	</node>
	<node lat="64.64412777824313" lon="11.218461116548076" id="-39084">
		<tag k="name" v="Lauvlia" />
		<tag k="natural" v="slope" />
		<tag k="place" v="locality" />
		<tag k="ssr:stedsnr" v="472042" />
	</node>
	<node lat="64.65998055565956" lon="11.230994435442076" id="-39086">
		<tag k="name" v="Røddølshaugan" />
		<tag k="natural" v="hill" />
		<tag k="place" v="locality" />
		<tag k="ssr:stedsnr" v="472131" />
	</node>
	<node lat="64.6366194466993" lon="11.21073056142248" id="-39088">
		<tag k="name" v="Kroknesshaugen" />
		<tag k="natural" v="hill" />
		<tag k="place" v="locality" />
		<tag k="ssr:stedsnr" v="472191" />
	</node>
	<node lat="64.26449166313004" lon="11.333174995628681" id="-39092">
		<tag k="name" v="Tjønnskaret" />
		<tag k="natural" v="valley" />
		<tag k="place" v="locality" />
		<tag k="ssr:stedsnr" v="340213" />
	</node>
	<node lat="64.67519166765742" lon="11.452349991103379" id="-39094">
		<tag k="fixme" v="consider natural=peak for the most distinct mountains in the district" />
		<tag k="name" v="Åsen" />
		<tag k="natural" v="hill" />
		<tag k="place" v="locality" />
		<tag k="ssr:stedsnr" v="472279" />
	</node>
	<node lat="64.465727781552" lon="11.155177771290413" id="-39095">
		<tag k="name" v="Breivikskaret" />
		<tag k="natural" v="valley" />
		<tag k="place" v="locality" />
		<tag k="ssr:stedsnr" v="472368" />
	</node>
	<node lat="64.4105138930844" lon="11.578366669405264" id="-39096">
		<tag k="fixme" v="consider natural=peak for the most distinct mountains in the district" />
		<tag k="name" v="Litlbøla" />
		<tag k="natural" v="hill" />
		<tag k="place" v="locality" />
		<tag k="ssr:stedsnr" v="472346" />
	</node>
	<node lat="64.42638333276898" lon="11.60596944108807" id="-39097">
		<tag k="fixme" v="consider natural=peak for the most distinct mountains in the district" />
		<tag k="name" v="Løsvassklompen" />
		<tag k="natural" v="hill" />
		<tag k="place" v="locality" />
		<tag k="ssr:stedsnr" v="472349" />
	</node>
	<node lat="64.49200277559741" lon="11.14841666456088" id="-39098">
		<tag k="name" v="Haugenberget" />
		<tag k="natural" v="hill" />
		<tag k="place" v="locality" />
		<tag k="ssr:stedsnr" v="472352" />
	</node>
	<node lat="64.66707777714474" lon="11.809266676950436" id="-39100">
		<tag k="name" v="Tverrdalen" />
		<tag k="natural" v="valley" />
		<tag k="place" v="locality" />
		<tag k="ssr:stedsnr" v="472387" />
	</node>
	<node lat="64.19794166783718" lon="11.076644453831474" id="-39101">
		<tag k="name" v="Rognlia" />
		<tag k="natural" v="slope" />
		<tag k="place" v="locality" />
		<tag k="ssr:stedsnr" v="472486" />
	</node>
	<node lat="64.31036110874999" lon="11.196466663978605" id="-39106">
		<tag k="name" v="Langmyrhalla" />
		<tag k="natural" v="slope" />
		<tag k="place" v="locality" />
		<tag k="ssr:stedsnr" v="341203" />
	</node>
	<node lat="64.26410277452005" lon="11.235411120037258" id="-39114">
		<tag k="name" v="Musaskaret" />
		<tag k="natural" v="valley" />
		<tag k="place" v="locality" />
		<tag k="ssr:stedsnr" v="342209" />
	</node>
	<node lat="64.24565555282214" lon="11.199955559425058" id="-39116">
		<tag k="name" v="Middagshaugen" />
		<tag k="natural" v="hill" />
		<tag k="place" v="locality" />
		<tag k="ssr:stedsnr" v="342258" />
	</node>
	<node lat="64.19647500455295" lon="11.307038886240687" id="-39119">
		<tag k="fixme" v="consider natural=peak for the most distinct mountains in the district" />
		<tag k="name" v="Lauvaksla" />
		<tag k="natural" v="hill" />
		<tag k="place" v="locality" />
		<tag k="ssr:stedsnr" v="342300" />
	</node>
	<node lat="64.60547777948801" lon="11.32237778717181" id="-39120">
		<tag k="name" v="Biskophaugen" />
		<tag k="natural" v="hill" />
		<tag k="place" v="locality" />
		<tag k="ssr:stedsnr" v="472590" />
	</node>
	<node lat="64.20234444289977" lon="11.23220833701603" id="-39121">
		<tag k="name" v="Vengstadhaugen" />
		<tag k="natural" v="hill" />
		<tag k="place" v="locality" />
		<tag k="ssr:stedsnr" v="342303" />
	</node>
	<node lat="64.16853055123504" lon="11.217647223023537" id="-39124">
		<tag k="name" v="Sørdalen" />
		<tag k="natural" v="valley" />
		<tag k="place" v="locality" />
		<tag k="ssr:stedsnr" v="342342" />
	</node>
	<node lat="64.18676388958353" lon="11.317350005167512" id="-39126">
		<tag k="name" v="Storbakken" />
		<tag k="natural" v="hill" />
		<tag k="place" v="locality" />
		<tag k="ssr:stedsnr" v="472745" />
	</node>
	<node lat="64.60042222040137" lon="11.647772231612782" id="-39128">
		<tag k="name" v="Merkeshaugen" />
		<tag k="natural" v="hill" />
		<tag k="place" v="locality" />
		<tag k="ssr:stedsnr" v="472688" />
	</node>
	<node lat="64.59398611216342" lon="11.572794445173379" id="-39129">
		<tag k="name" v="Liin" />
		<tag k="natural" v="slope" />
		<tag k="place" v="locality" />
		<tag k="ssr:stedsnr" v="472696" />
	</node>
	<node lat="64.67956111250031" lon="11.242002785958721" id="-39130">
		<tag k="name" v="Brennskardet" />
		<tag k="natural" v="valley" />
		<tag k="place" v="locality" />
		<tag k="ssr:stedsnr" v="472831" />
	</node>
	<node lat="64.6626027760983" lon="11.316877787228329" id="-39132">
		<tag k="name" v="Moldvikskardet" />
		<tag k="natural" v="valley" />
		<tag k="place" v="locality" />
		<tag k="ssr:stedsnr" v="472773" />
	</node>
	<node lat="64.63655833649705" lon="11.299869453009514" id="-39139">
		<tag k="name" v="Fosshaugan" />
		<tag k="natural" v="hill" />
		<tag k="place" v="locality" />
		<tag k="ssr:stedsnr" v="472955" />
	</node>
	<node lat="64.64986944115495" lon="11.254619449922561" id="-39140">
		<tag k="name" v="Olahaugen" />
		<tag k="natural" v="hill" />
		<tag k="place" v="locality" />
		<tag k="ssr:stedsnr" v="472998" />
	</node>
	<node lat="64.53473055294603" lon="11.039986112794645" id="-39141">
		<tag k="name" v="Skulin" />
		<tag k="natural" v="hill" />
		<tag k="place" v="locality" />
		<tag k="ssr:stedsnr" v="473286" />
	</node>
	<node lat="64.30151666698067" lon="11.255919437662666" id="-39144">
		<tag k="name" v="Storheiskaret" />
		<tag k="natural" v="valley" />
		<tag k="place" v="locality" />
		<tag k="ssr:stedsnr" v="473351" />
	</node>
	<node lat="64.33250555483706" lon="11.618902772227305" id="-39147">
		<tag k="fixme" v="consider natural=peak for the most distinct mountains in the district" />
		<tag k="name" v="Svartberget" />
		<tag k="natural" v="hill" />
		<tag k="place" v="locality" />
		<tag k="ssr:stedsnr" v="473483" />
	</node>
	<node lat="64.21104444620823" lon="11.1329666634264" id="-39148">
		<tag k="name" v="Mefjelldalen" />
		<tag k="natural" v="valley" />
		<tag k="place" v="locality" />
		<tag k="ssr:stedsnr" v="473527" />
	</node>
	<node lat="64.5223999978639" lon="11.334400000784328" id="-39153">
		<tag k="name" v="Bjønnmoen" />
		<tag k="place" v="locality" />
		<tag k="ssr:stedsnr" v="473636" />
	</node>
	<node lat="64.70274444357517" lon="11.419377771308136" id="-39154">
		<tag k="name" v="Geitaberget" />
		<tag k="natural" v="hill" />
		<tag k="place" v="locality" />
		<tag k="ssr:stedsnr" v="348312" />
	</node>
	<node lat="64.30345277892987" lon="11.507208324714314" id="-39156">
		<tag k="name" v="Pikhaugen" />
		<tag k="natural" v="hill" />
		<tag k="place" v="locality" />
		<tag k="ssr:stedsnr" v="473651" />
	</node>
	<node lat="64.58679444802918" lon="11.635305552837684" id="-39158">
		<tag k="fixme" v="consider natural=peak for the most distinct mountains in the district" />
		<tag k="name" v="Prekstolen" />
		<tag k="natural" v="hill" />
		<tag k="place" v="locality" />
		<tag k="ssr:stedsnr" v="473683" />
	</node>
	<node lat="64.33436666609364" lon="11.446488898489651" id="-39162">
		<tag k="name" v="Erikhaugen" />
		<tag k="natural" v="hill" />
		<tag k="place" v="locality" />
		<tag k="ssr:stedsnr" v="473798" />
	</node>
	<node lat="64.62960833220522" lon="11.419761116984168" id="-39164">
		<tag k="name" v="Hestvikkløyva" />
		<tag k="natural" v="slope" />
		<tag k="place" v="locality" />
		<tag k="ssr:stedsnr" v="349726" />
	</node>
	<node lat="64.6478055534777" lon="11.499508341186683" id="-39168">
		<tag k="name" v="Langvasslia" />
		<tag k="natural" v="slope" />
		<tag k="place" v="locality" />
		<tag k="ssr:stedsnr" v="350233" />
	</node>
	<node lat="64.2556916645075" lon="11.163044442054273" id="-39170">
		<tag k="name" v="Haugberget" />
		<tag k="natural" v="hill" />
		<tag k="place" v="locality" />
		<tag k="ssr:stedsnr" v="473892" />
	</node>
	<node lat="64.2656888919653" lon="11.134544437533398" id="-39172">
		<tag k="fixme" v="consider natural=peak for the most distinct mountains in the district" />
		<tag k="name" v="Seterheia" />
		<tag k="natural" v="hill" />
		<tag k="place" v="locality" />
		<tag k="ssr:stedsnr" v="473900" />
	</node>
	<node lat="64.61341388707027" lon="11.237647221447666" id="-39174">
		<tag k="fixme" v="consider natural=peak for the most distinct mountains in the district" />
		<tag k="name" v="Barøyhalsen" />
		<tag k="natural" v="hill" />
		<tag k="place" v="locality" />
		<tag k="ssr:stedsnr" v="350110" />
	</node>
	<node lat="64.66963055715809" lon="11.187724996353623" id="-39175">
		<tag k="name" v="Aunahaugen" />
		<tag k="natural" v="hill" />
		<tag k="place" v="locality" />
		<tag k="ssr:stedsnr" v="350164" />
	</node>
	<node lat="64.15278333560488" lon="10.953244453785143" id="-39187">
		<tag k="name" v="Grashaugen" />
		<tag k="natural" v="hill" />
		<tag k="place" v="locality" />
		<tag k="ssr:stedsnr" v="350563" />
	</node>
	<node lat="64.63900833746932" lon="11.297494453565314" id="-39192">
		<tag k="name" v="Måssaskardet" />
		<tag k="natural" v="valley" />
		<tag k="place" v="locality" />
		<tag k="ssr:stedsnr" v="350947" />
	</node>
	<node lat="64.76737499765254" lon="11.745411118639845" id="-39193">
		<tag k="name" v="Middagshaugen" />
		<tag k="natural" v="hill" />
		<tag k="place" v="locality" />
		<tag k="ssr:stedsnr" v="474074" />
	</node>
	<node lat="64.63191666460918" lon="11.28699167277042" id="-39196">
		<tag k="name" v="Krakmoen" />
		<tag k="place" v="locality" />
		<tag k="ssr:stedsnr" v="350862" />
	</node>
	<node lat="64.63962500126061" lon="11.329427777706679" id="-39197">
		<tag k="fixme" v="consider natural=peak for the most distinct mountains in the district" />
		<tag k="name" v="Seierstadåsen" />
		<tag k="natural" v="hill" />
		<tag k="place" v="locality" />
		<tag k="ssr:stedsnr" v="350867" />
	</node>
	<node lat="64.4460277735557" lon="11.161327779393833" id="-39200">
		<tag k="name" v="Sjøhaugen" />
		<tag k="natural" v="hill" />
		<tag k="place" v="locality" />
		<tag k="ssr:stedsnr" v="351170" />
	</node>
	<node lat="64.4610694482741" lon="11.082394449751446" id="-39202">
		<tag k="name" v="Stormstagen" />
		<tag k="natural" v="slope" />
		<tag k="place" v="locality" />
		<tag k="ssr:stedsnr" v="351206" />
	</node>
	<node lat="64.4890722230413" lon="11.244330547041558" id="-39204">
		<tag k="fixme" v="consider natural=peak for the most distinct mountains in the district" />
		<tag k="name" v="Skaraklompen" />
		<tag k="natural" v="hill" />
		<tag k="place" v="locality" />
		<tag k="ssr:stedsnr" v="351403" />
	</node>
	<node lat="64.34627500003556" lon="11.611530545319908" id="-39205">
		<tag k="name" v="Blakkmyrdalen" />
		<tag k="natural" v="valley" />
		<tag k="place" v="locality" />
		<tag k="ssr:stedsnr" v="351456" />
	</node>
	<node lat="64.33402777931744" lon="11.584966668987853" id="-39206">
		<tag k="name" v="Svartkroken" />
		<tag k="natural" v="slope" />
		<tag k="place" v="locality" />
		<tag k="ssr:stedsnr" v="351458" />
	</node>
	<node lat="64.3401722226741" lon="11.589919444364693" id="-39208">
		<tag k="name" v="Nymarkhaugan" />
		<tag k="natural" v="hill" />
		<tag k="place" v="locality" />
		<tag k="ssr:stedsnr" v="351465" />
	</node>
	<node lat="64.54729722543537" lon="11.402958325065027" id="-39209">
		<tag k="fixme" v="consider natural=peak for the most distinct mountains in the district" />
		<tag k="name" v="Sundhøgda" />
		<tag k="natural" v="hill" />
		<tag k="place" v="locality" />
		<tag k="ssr:stedsnr" v="351602" />
	</node>
	<node lat="64.5166861130565" lon="11.361633327716682" id="-39212">
		<tag k="fixme" v="consider natural=peak for the most distinct mountains in the district" />
		<tag k="name" v="Seterhaugen" />
		<tag k="natural" v="hill" />
		<tag k="place" v="locality" />
		<tag k="ssr:stedsnr" v="351617" />
	</node>
	<node lat="64.57332777537914" lon="11.529391670855611" id="-39213">
		<tag k="name" v="Ormskaret" />
		<tag k="natural" v="valley" />
		<tag k="place" v="locality" />
		<tag k="ssr:stedsnr" v="351666" />
	</node>
	<node lat="64.60675000179309" lon="11.162394445943459" id="-39215">
		<tag k="name" v="Funkposten" />
		<tag k="natural" v="ridge" />
		<tag k="place" v="locality" />
		<tag k="ssr:stedsnr" v="351516" />
	</node>
	<node lat="64.17698888720103" lon="11.352680550584504" id="-39219">
		<tag k="name" v="Storhaugen" />
		<tag k="natural" v="hill" />
		<tag k="place" v="locality" />
		<tag k="ssr:stedsnr" v="351712" />
	</node>
	<node lat="64.43261111092163" lon="11.260588899042219" id="-39222">
		<tag k="name" v="Fossan" />
		<tag k="natural" v="hill" />
		<tag k="place" v="locality" />
		<tag k="ssr:stedsnr" v="351812" />
	</node>
	<node lat="64.7527194449438" lon="11.89984166497689" id="-39227">
		<tag k="name" v="Kovadørlia" />
		<tag k="natural" v="slope" />
		<tag k="place" v="locality" />
		<tag k="ssr:stedsnr" v="353004" />
	</node>
	<node lat="64.6898000001479" lon="11.870219443627018" id="-39230">
		<tag k="name" v="Østenholet" />
		<tag k="natural" v="valley" />
		<tag k="place" v="locality" />
		<tag k="ssr:stedsnr" v="353056" />
	</node>
	<node lat="64.68816944322108" lon="11.803197220415695" id="-39231">
		<tag k="name" v="Halvgåtthaugen" />
		<tag k="natural" v="hill" />
		<tag k="place" v="locality" />
		<tag k="ssr:stedsnr" v="353061" />
	</node>
	<node lat="64.75406389178528" lon="11.946536118569309" id="-39234">
		<tag k="name" v="Surviklia" />
		<tag k="natural" v="slope" />
		<tag k="place" v="locality" />
		<tag k="ssr:stedsnr" v="475029" />
	</node>
	<node lat="64.7560305537344" lon="11.966813879812557" id="-39235">
		<tag k="name" v="Ørnflauget" />
		<tag k="natural" v="hill" />
		<tag k="place" v="locality" />
		<tag k="ssr:stedsnr" v="475031" />
	</node>
	<node lat="64.77204999784281" lon="11.715066665024176" id="-39238">
		<tag k="name" v="Melkerenget" />
		<tag k="natural" v="slope" />
		<tag k="place" v="locality" />
		<tag k="ssr:stedsnr" v="475048" />
	</node>
	<node lat="64.76697500354409" lon="11.687391662945904" id="-39239">
		<tag k="name" v="Middagshaugen" />
		<tag k="natural" v="hill" />
		<tag k="place" v="locality" />
		<tag k="ssr:stedsnr" v="475051" />
	</node>
	<node lat="64.76511666323897" lon="11.69707499929615" id="-39240">
		<tag k="name" v="Vasslibrottet" />
		<tag k="natural" v="valley" />
		<tag k="place" v="locality" />
		<tag k="ssr:stedsnr" v="475053" />
	</node>
	<node lat="64.75633333433706" lon="12.05983889136358" id="-39241">
		<tag k="name" v="Hyllenget" />
		<tag k="place" v="locality" />
		<tag k="ssr:stedsnr" v="475101" />
	</node>
	<node lat="64.69453332976249" lon="11.77997500885617" id="-39242">
		<tag k="name" v="Marsteinhaugen" />
		<tag k="natural" v="hill" />
		<tag k="place" v="locality" />
		<tag k="ssr:stedsnr" v="475374" />
	</node>
	<node lat="64.72499166685718" lon="11.64839721920029" id="-39244">
		<tag k="name" v="Høgmoen" />
		<tag k="place" v="locality" />
		<tag k="ssr:stedsnr" v="475492" />
	</node>
	<node lat="64.73060833730082" lon="11.656563885775485" id="-39245">
		<tag k="name" v="Mjølkartuva" />
		<tag k="natural" v="hill" />
		<tag k="place" v="locality" />
		<tag k="ssr:stedsnr" v="475494" />
	</node>
	<node lat="64.73519444065045" lon="11.526597227977724" id="-39249">
		<tag k="name" v="Småhevlan" />
		<tag k="natural" v="hill" />
		<tag k="place" v="locality" />
		<tag k="ssr:stedsnr" v="475515" />
	</node>
	<node lat="64.76273889029507" lon="11.593416673164617" id="-39250">
		<tag k="name" v="Nonhaugen" />
		<tag k="natural" v="hill" />
		<tag k="place" v="locality" />
		<tag k="ssr:stedsnr" v="475952" />
	</node>
	<node lat="64.5093833322206" lon="11.374236116126141" id="-39254">
		<tag k="fixme" v="consider natural=peak for the most distinct mountains in the district" />
		<tag k="name" v="Dyravassklumpen" />
		<tag k="natural" v="hill" />
		<tag k="place" v="locality" />
		<tag k="ssr:stedsnr" v="378117" />
	</node>
	<node lat="64.51453333277449" lon="11.385188889323084" id="-39255">
		<tag k="name" v="Surviktuva" />
		<tag k="natural" v="hill" />
		<tag k="place" v="locality" />
		<tag k="ssr:stedsnr" v="378118" />
	</node>
	<node lat="64.50678333482173" lon="11.475516663186601" id="-39256">
		<tag k="name" v="Storfjellet" />
		<tag k="natural" v="hill" />
		<tag k="place" v="locality" />
		<tag k="ssr:stedsnr" v="378121" />
	</node>
	<node lat="64.512530553792" lon="11.481183326719474" id="-39257">
		<tag k="name" v="Svedalen" />
		<tag k="natural" v="valley" />
		<tag k="place" v="locality" />
		<tag k="ssr:stedsnr" v="378122" />
	</node>
	<node lat="64.28340555670576" lon="11.112749998077744" id="-39258">
		<tag k="fixme" v="consider natural=peak for the most distinct mountains in the district" />
		<tag k="name" v="Saksheia" />
		<tag k="natural" v="hill" />
		<tag k="place" v="locality" />
		<tag k="ssr:stedsnr" v="378124" />
	</node>
	<node lat="64.50838611404143" lon="11.542088897446874" id="-39259">
		<tag k="alt_name" v="Hammerengberget" />
		<tag k="fixme" v="consider natural=peak for the most distinct mountains in the district" />
		<tag k="name" v="Nyhagafjellet" />
		<tag k="natural" v="hill" />
		<tag k="place" v="locality" />
		<tag k="ssr:stedsnr" v="378127" />
	</node>
	<node lat="64.74795000152751" lon="11.826075007957952" id="-39262">
		<tag k="alt_name" v="Låvfjellet" />
		<tag k="fixme" v="consider natural=peak for the most distinct mountains in the district" />
		<tag k="name" v="Låvefjellet" />
		<tag k="natural" v="hill" />
		<tag k="place" v="locality" />
		<tag k="ssr:stedsnr" v="378222" />
	</node>
	<node lat="64.28647777517003" lon="10.999213884956845" id="-39263">
		<tag k="name" v="Rislidalen" />
		<tag k="natural" v="valley" />
		<tag k="place" v="locality" />
		<tag k="ssr:stedsnr" v="378171" />
	</node>
	<node lat="64.66353968157047" lon="11.38325539869743" id="-39267">
		<tag k="name" v="Engesroggo" />
		<tag k="natural" v="valley" />
		<tag k="place" v="locality" />
		<tag k="ssr:stedsnr" v="378320" />
	</node>
	<node lat="64.61445277486796" lon="11.396161111383377" id="-39269">
		<tag k="fixme" v="consider natural=peak for the most distinct mountains in the district" />
		<tag k="name" v="Mofjellet" />
		<tag k="natural" v="hill" />
		<tag k="place" v="locality" />
		<tag k="ssr:stedsnr" v="378503" />
	</node>
	<node lat="64.61390555382505" lon="11.286936110418393" id="-39270">
		<tag k="name" v="Pallan" />
		<tag k="natural" v="hill" />
		<tag k="place" v="locality" />
		<tag k="ssr:stedsnr" v="378509" />
	</node>
	<node lat="64.62595000367693" lon="11.434755548402977" id="-39273">
		<tag k="name" v="Stordalen" />
		<tag k="natural" v="valley" />
		<tag k="place" v="locality" />
		<tag k="ssr:stedsnr" v="378404" />
	</node>
	<node lat="64.62893611018575" lon="11.548458336405005" id="-39274">
		<tag k="alt_name" v="Svartdalfjellet" />
		<tag k="name" v="Svartdalsaksla" />
		<tag k="natural" v="hill" />
		<tag k="place" v="locality" />
		<tag k="ssr:stedsnr" v="378408" />
	</node>
	<node lat="64.5134000033389" lon="11.206377782393435" id="-39286">
		<tag k="name" v="Kleppen" />
		<tag k="natural" v="hill" />
		<tag k="place" v="locality" />
		<tag k="ssr:stedsnr" v="378739" />
	</node>
	<node lat="64.50395833592285" lon="11.084469441648755" id="-39288">
		<tag k="fixme" v="consider natural=peak for the most distinct mountains in the district" />
		<tag k="name" v="Varden" />
		<tag k="natural" v="hill" />
		<tag k="place" v="locality" />
		<tag k="ssr:stedsnr" v="378768" />
	</node>
	<node lat="64.33892499837874" lon="11.359555559084484" id="-39291">
		<tag k="name" v="Namnlaushaugen" />
		<tag k="natural" v="hill" />
		<tag k="place" v="locality" />
		<tag k="ssr:stedsnr" v="378911" />
	</node>
	<node lat="64.81571388705494" lon="12.174555553512041" id="-39303">
		<tag k="name" v="Middagsdalen" />
		<tag k="natural" v="valley" />
		<tag k="place" v="locality" />
		<tag k="ssr:stedsnr" v="379907" />
	</node>
	<node lat="64.77505277787529" lon="12.037399991141985" id="-39304">
		<tag k="fixme" v="consider natural=peak for the most distinct mountains in the district" />
		<tag k="name" v="Hustinden" />
		<tag k="natural" v="hill" />
		<tag k="place" v="locality" />
		<tag k="ssr:stedsnr" v="379881" />
	</node>
	<node lat="64.51991111120284" lon="11.105575003341508" id="-39306">
		<tag k="name" v="Valhaugen" />
		<tag k="natural" v="hill" />
		<tag k="place" v="locality" />
		<tag k="ssr:stedsnr" v="389152" />
	</node>
	<node lat="64.50111388976336" lon="11.465158333093338" id="-39310">
		<tag k="name" v="Lænnaåsen" />
		<tag k="natural" v="hill" />
		<tag k="place" v="locality" />
		<tag k="ssr:stedsnr" v="393513" />
	</node>
	<node lat="64.21850833783483" lon="11.262477775861633" id="-39319">
		<tag k="fixme" v="consider natural=peak for the most distinct mountains in the district" />
		<tag k="name" v="Tortåsen" />
		<tag k="natural" v="hill" />
		<tag k="place" v="locality" />
		<tag k="ssr:stedsnr" v="402313" />
	</node>
	<node lat="64.17739722605556" lon="11.203572228650907" id="-39321">
		<tag k="name" v="Kolberget" />
		<tag k="natural" v="hill" />
		<tag k="place" v="locality" />
		<tag k="ssr:stedsnr" v="402384" />
	</node>
	<node lat="64.23424166452662" lon="11.250252769634484" id="-39326">
		<tag k="name" v="Ragnhildnakken" />
		<tag k="natural" v="hill" />
		<tag k="place" v="locality" />
		<tag k="ssr:stedsnr" v="402281" />
	</node>
	<node lat="64.24423610844026" lon="11.286358334632455" id="-39327">
		<tag k="name" v="Småhaugan" />
		<tag k="natural" v="hill" />
		<tag k="place" v="locality" />
		<tag k="ssr:stedsnr" v="402286" />
	</node>
	<node lat="64.70786944233168" lon="11.450169454582122" id="-39331">
		<tag k="name" v="Brekkreina" />
		<tag k="natural" v="slope" />
		<tag k="place" v="locality" />
		<tag k="ssr:stedsnr" v="408351" />
	</node>
	<node lat="64.6821111071905" lon="11.471327781771283" id="-39332">
		<tag k="name" v="Kolhushøgda" />
		<tag k="place" v="locality" />
		<tag k="ssr:stedsnr" v="409289" />
	</node>
	<node lat="64.64865000259043" lon="11.199563893742576" id="-39335">
		<tag k="name" v="Middagsfjellet" />
		<tag k="natural" v="hill" />
		<tag k="place" v="locality" />
		<tag k="ssr:stedsnr" v="411049" />
	</node>
	<node lat="64.65509444808693" lon="11.20053611063398" id="-39336">
		<tag k="name" v="Morhammaren" />
		<tag k="natural" v="hill" />
		<tag k="place" v="locality" />
		<tag k="ssr:stedsnr" v="411055" />
	</node>
	<node lat="64.64388888513463" lon="11.442388888753324" id="-39338">
		<tag k="name" v="Småslettet" />
		<tag k="place" v="locality" />
		<tag k="ssr:stedsnr" v="411248" />
	</node>
	<node lat="64.6685944402871" lon="11.434708322508499" id="-39339">
		<tag k="name" v="Skardengdalen" />
		<tag k="natural" v="valley" />
		<tag k="place" v="locality" />
		<tag k="ssr:stedsnr" v="411255" />
	</node>
	<node lat="64.66315833657825" lon="11.17811110348703" id="-39342">
		<tag k="name" v="Storhammaren" />
		<tag k="natural" v="hill" />
		<tag k="place" v="locality" />
		<tag k="ssr:stedsnr" v="411439" />
	</node>
	<node lat="64.63150277508028" lon="11.362369440226583" id="-39345">
		<tag k="name" v="Ramflauget" />
		<tag k="natural" v="hill" />
		<tag k="place" v="locality" />
		<tag k="ssr:stedsnr" v="411506" />
	</node>
	<node lat="64.6606499995619" lon="11.274191664335218" id="-39349">
		<tag k="name" v="Smørklaven" />
		<tag k="natural" v="valley" />
		<tag k="place" v="locality" />
		<tag k="ssr:stedsnr" v="411798" />
	</node>
	<node lat="64.6468666684404" lon="11.25403610977026" id="-39354">
		<tag k="name" v="Åshaugan" />
		<tag k="natural" v="hill" />
		<tag k="place" v="locality" />
		<tag k="ssr:stedsnr" v="411999" />
	</node>
	<node lat="64.52469166596441" lon="11.34203333217124" id="-39355">
		<tag k="name" v="Sjåenget" />
		<tag k="natural" v="valley" />
		<tag k="place" v="locality" />
		<tag k="ssr:stedsnr" v="412593" />
	</node>
	<node lat="64.57748610949474" lon="11.768563896261854" id="-39356">
		<tag k="fixme" v="consider natural=peak for the most distinct mountains in the district" />
		<tag k="name" v="Seteråsen" />
		<tag k="natural" v="hill" />
		<tag k="place" v="locality" />
		<tag k="ssr:stedsnr" v="412341" />
	</node>
	<node lat="64.58431666834743" lon="11.644052781288007" id="-39359">
		<tag k="name" v="Brannmoen" />
		<tag k="place" v="locality" />
		<tag k="ssr:stedsnr" v="412637" />
	</node>
	<node lat="64.29879166751417" lon="11.034722223341516" id="-39362">
		<tag k="fixme" v="consider natural=peak for the most distinct mountains in the district" />
		<tag k="name" v="Sandvasshøgda" />
		<tag k="natural" v="hill" />
		<tag k="place" v="locality" />
		<tag k="ssr:stedsnr" v="412843" />
	</node>
	<node lat="64.26618611100696" lon="11.01689722358766" id="-39366">
		<tag k="name" v="Bessfarhalsen" />
		<tag k="natural" v="valley" />
		<tag k="place" v="locality" />
		<tag k="ssr:stedsnr" v="412911" />
	</node>
	<node lat="64.53156944620153" lon="11.076450002688684" id="-39367">
		<tag k="name" v="Sveahaugen" />
		<tag k="natural" v="hill" />
		<tag k="place" v="locality" />
		<tag k="ssr:stedsnr" v="413310" />
	</node>
	<node lat="64.7557222204606" lon="11.914844434643436" id="-39369">
		<tag k="name" v="Lendbekklia" />
		<tag k="natural" v="slope" />
		<tag k="place" v="locality" />
		<tag k="ssr:stedsnr" v="414008" />
	</node>
	<node lat="64.75895000180518" lon="12.061061112504385" id="-39370">
		<tag k="name" v="Dørskardet" />
		<tag k="natural" v="valley" />
		<tag k="place" v="locality" />
		<tag k="ssr:stedsnr" v="414093" />
	</node>
	<node lat="64.7219722204958" lon="11.664786113795547" id="-39371">
		<tag k="name" v="Smørberga" />
		<tag k="natural" v="hill" />
		<tag k="place" v="locality" />
		<tag k="ssr:stedsnr" v="414194" />
	</node>
	<node lat="64.73322500357799" lon="11.693472222798597" id="-39372">
		<tag k="name" v="Sørskardet" />
		<tag k="natural" v="valley" />
		<tag k="place" v="locality" />
		<tag k="ssr:stedsnr" v="414197" />
	</node>
	<node lat="64.76716674505734" lon="11.57347308651802" id="-39374">
		<tag k="alt_name" v="Faksrovva" />
		<tag k="name" v="Faksrevva" />
		<tag k="natural" v="valley" />
		<tag k="place" v="locality" />
		<tag k="ssr:stedsnr" v="414995" />
	</node>
	<node lat="64.45598055244209" lon="11.266755561741435" id="-39379">
		<tag k="name" v="Bosshaugen" />
		<tag k="natural" v="hill" />
		<tag k="place" v="locality" />
		<tag k="ssr:stedsnr" v="438010" />
	</node>
	<node lat="64.3637138867484" lon="11.202875000206449" id="-39381">
		<tag k="name" v="Vasshaugen" />
		<tag k="natural" v="hill" />
		<tag k="place" v="locality" />
		<tag k="ssr:stedsnr" v="438364" />
	</node>
	<node lat="64.36059166375978" lon="11.190452784703458" id="-39382">
		<tag k="name" v="Ellevhaugen" />
		<tag k="natural" v="hill" />
		<tag k="place" v="locality" />
		<tag k="ssr:stedsnr" v="438365" />
	</node>
	<node lat="64.31379999608848" lon="11.558230564900407" id="-39385">
		<tag k="alt_name" v="Bjønnåsen" />
		<tag k="fixme" v="consider natural=peak for the most distinct mountains in the district" />
		<tag k="name" v="Bjørnåsen" />
		<tag k="natural" v="hill" />
		<tag k="place" v="locality" />
		<tag k="ssr:stedsnr" v="438861" />
	</node>
	<node lat="64.38155833322638" lon="11.490138881512992" id="-39388">
		<tag k="fixme" v="consider natural=peak for the most distinct mountains in the district" />
		<tag k="name" v="Kveldnakken" />
		<tag k="natural" v="hill" />
		<tag k="place" v="locality" />
		<tag k="ssr:stedsnr" v="438963" />
	</node>
	<node lat="64.49686111426197" lon="11.354594446036545" id="-39399">
		<tag k="name" v="Svartdalen" />
		<tag k="natural" v="valley" />
		<tag k="place" v="locality" />
		<tag k="ssr:stedsnr" v="439207" />
	</node>
	<node lat="64.49371944203895" lon="11.346180565590648" id="-39400">
		<tag k="fixme" v="consider natural=peak for the most distinct mountains in the district" />
		<tag k="name" v="Heimfjellet" />
		<tag k="natural" v="hill" />
		<tag k="place" v="locality" />
		<tag k="ssr:stedsnr" v="439209" />
	</node>
	<node lat="64.2569138871863" lon="11.143072229700966" id="-39401">
		<tag k="name" v="Brennhaugen" />
		<tag k="natural" v="hill" />
		<tag k="place" v="locality" />
		<tag k="ssr:stedsnr" v="439215" />
	</node>
	<node lat="64.41990278054423" lon="11.076563880944555" id="-39403">
		<tag k="fixme" v="consider natural=peak for the most distinct mountains in the district" />
		<tag k="name" v="Havfrulifjellet" />
		<tag k="natural" v="hill" />
		<tag k="place" v="locality" />
		<tag k="ssr:stedsnr" v="439294" />
	</node>
	<node lat="64.72196110756984" lon="11.499730557640488" id="-39404">
		<tag k="name" v="Sørbekkmoen" />
		<tag k="place" v="locality" />
		<tag k="ssr:stedsnr" v="439296" />
	</node>
	<node lat="64.66766388899852" lon="11.340627772183682" id="-39405">
		<tag k="alt_name" v="Vikaskardet" />
		<tag k="name" v="Vikarskardet" />
		<tag k="natural" v="valley" />
		<tag k="place" v="locality" />
		<tag k="ssr:stedsnr" v="439302" />
	</node>
	<node lat="64.68146666804957" lon="11.509336101973538" id="-39410">
		<tag k="name" v="Råfjellkråa" />
		<tag k="natural" v="valley" />
		<tag k="place" v="locality" />
		<tag k="ssr:stedsnr" v="439353" />
	</node>
	<node lat="64.64836666405202" lon="11.193586111608385" id="-39414">
		<tag k="fixme" v="consider natural=peak for the most distinct mountains in the district" />
		<tag k="name" v="Sandvikfjellet" />
		<tag k="natural" v="hill" />
		<tag k="place" v="locality" />
		<tag k="ssr:stedsnr" v="439504" />
	</node>
	<node lat="64.59384444042618" lon="11.151619442619628" id="-39415">
		<tag k="alt_name" v="Jensvassfjellet" />
		<tag k="fixme" v="consider natural=peak for the most distinct mountains in the district" />
		<tag k="name" v="Jensfjellet" />
		<tag k="natural" v="hill" />
		<tag k="place" v="locality" />
		<tag k="ssr:stedsnr" v="439513" />
	</node>
	<node lat="64.33948611049156" lon="11.653788887043072" id="-39422">
		<tag k="alt_name" v="Østre Mastuhaugen" />
		<tag k="name" v="Mastuhaugen" />
		<tag k="natural" v="hill" />
		<tag k="place" v="locality" />
		<tag k="ssr:stedsnr" v="439911" />
	</node>
	<node lat="64.77136944386145" lon="12.086988889519949" id="-39423">
		<tag k="alt_name" v="Grønndalen" />
		<tag k="name" v="Grøndalen" />
		<tag k="natural" v="valley" />
		<tag k="place" v="locality" />
		<tag k="ssr:stedsnr" v="439913" />
	</node>
	<node lat="64.28808888433778" lon="11.601158342290939" id="-39426">
		<tag k="alt_name" v="Natterådnatten" />
		<tag k="name" v="Nattnordnatten" />
		<tag k="natural" v="hill" />
		<tag k="place" v="locality" />
		<tag k="ssr:stedsnr" v="439848" />
	</node>
	<node lat="64.56029999595677" lon="11.470416671838183" id="-39428">
		<tag k="name" v="Svartdalshatten" />
		<tag k="natural" v="hill" />
		<tag k="place" v="locality" />
		<tag k="ssr:stedsnr" v="440023" />
	</node>
	<node lat="64.55014999640359" lon="11.792402784700219" id="-39435">
		<tag k="fixme" v="consider natural=peak for the most distinct mountains in the district" />
		<tag k="name" v="Pinnsylan - Jorpetjahke" />
		<tag k="name:no" v="Pinnsylan" />
		<tag k="name:sma" v="Jorpetjahke" />
		<tag k="natural" v="hill" />
		<tag k="place" v="locality" />
		<tag k="ssr:stedsnr" v="440942" />
	</node>
	<node lat="64.49543055643707" lon="11.104588887184342" id="-39436">
		<tag k="alt_name" v="Otertoppen" />
		<tag k="name" v="Ledangsklompan" />
		<tag k="natural" v="hill" />
		<tag k="place" v="locality" />
		<tag k="ssr:stedsnr" v="445483" />
	</node>
	<node lat="64.48846666778401" lon="11.599891658782102" id="-39437">
		<tag k="name" v="Nonstjønnhaugan" />
		<tag k="natural" v="hill" />
		<tag k="place" v="locality" />
		<tag k="ssr:stedsnr" v="447285" />
	</node>
	<node lat="64.47735555390442" lon="11.50389722366584" id="-39439">
		<tag k="name" v="Daltrøa" />
		<tag k="place" v="locality" />
		<tag k="ssr:stedsnr" v="272515" />
	</node>
	<node lat="64.47137499648947" lon="11.458530563693865" id="-39440">
		<tag k="name" v="Granhatten" />
		<tag k="natural" v="hill" />
		<tag k="place" v="locality" />
		<tag k="ssr:stedsnr" v="272516" />
	</node>
	<node lat="64.54103333487738" lon="11.217063898836765" id="-39442">
		<tag k="name" v="Marenlia" />
		<tag k="natural" v="slope" />
		<tag k="place" v="locality" />
		<tag k="ssr:stedsnr" v="454468" />
	</node>
	<node lat="64.51062778025349" lon="11.462480555675013" id="-39446">
		<tag k="name" v="Brennmohaugen" />
		<tag k="natural" v="hill" />
		<tag k="place" v="locality" />
		<tag k="ssr:stedsnr" v="454585" />
	</node>
	<node lat="64.5160638859107" lon="11.313269436434522" id="-39447">
		<tag k="name" v="Engahaugen" />
		<tag k="natural" v="hill" />
		<tag k="place" v="locality" />
		<tag k="ssr:stedsnr" v="454819" />
	</node>
	<node lat="64.20176666575131" lon="11.217458332617978" id="-39453">
		<tag k="name" v="Ørstudalen" />
		<tag k="natural" v="valley" />
		<tag k="place" v="locality" />
		<tag k="ssr:stedsnr" v="463305" />
	</node>
	<node lat="64.19809444049342" lon="11.226697224226157" id="-39455">
		<tag k="fixme" v="consider natural=peak for the most distinct mountains in the district" />
		<tag k="name" v="Høgberget" />
		<tag k="natural" v="hill" />
		<tag k="place" v="locality" />
		<tag k="ssr:stedsnr" v="463314" />
	</node>
	<node lat="64.19375277916487" lon="11.228758332088974" id="-39456">
		<tag k="name" v="Bakkvollen" />
		<tag k="place" v="locality" />
		<tag k="ssr:stedsnr" v="463315" />
	</node>
	<node lat="64.37174167102526" lon="11.415502771777813" id="-39458">
		<tag k="name" v="Svebakkhaugen" />
		<tag k="natural" v="hill" />
		<tag k="place" v="locality" />
		<tag k="ssr:stedsnr" v="463518" />
	</node>
	<node lat="64.69280833641432" lon="11.456072222480717" id="-39459">
		<tag k="name" v="Vasshaugen" />
		<tag k="natural" v="hill" />
		<tag k="place" v="locality" />
		<tag k="ssr:stedsnr" v="469272" />
	</node>
	<node lat="64.64486944688907" lon="11.177488896561625" id="-39462">
		<tag k="name" v="Storhaugen" />
		<tag k="natural" v="hill" />
		<tag k="place" v="locality" />
		<tag k="ssr:stedsnr" v="469480" />
	</node>
	<node lat="64.64654166883199" lon="11.236519435409932" id="-39464">
		<tag k="name" v="Vannhagahaugen" />
		<tag k="natural" v="hill" />
		<tag k="place" v="locality" />
		<tag k="ssr:stedsnr" v="471023" />
	</node>
	<node lat="64.59978610772988" lon="11.430672215546897" id="-39465">
		<tag k="name" v="Ellevklompen" />
		<tag k="natural" v="hill" />
		<tag k="place" v="locality" />
		<tag k="ssr:stedsnr" v="471513" />
	</node>
	<node lat="64.63026111234855" lon="11.487233336515208" id="-39467">
		<tag k="name" v="Krestianvika" />
		<tag k="natural" v="slope" />
		<tag k="place" v="locality" />
		<tag k="ssr:stedsnr" v="471673" />
	</node>
	<node lat="64.64993610754043" lon="11.412019443838018" id="-39471">
		<tag k="name" v="Dalavikkløyva" />
		<tag k="natural" v="slope" />
		<tag k="place" v="locality" />
		<tag k="ssr:stedsnr" v="472264" />
	</node>
	<node lat="64.66603611415033" lon="11.201188890975228" id="-39472">
		<tag k="name" v="Vannhagahaugan" />
		<tag k="natural" v="hill" />
		<tag k="place" v="locality" />
		<tag k="ssr:stedsnr" v="472160" />
	</node>
	<node lat="64.4825972230375" lon="11.176263882101455" id="-39474">
		<tag k="name" v="Storhaugen" />
		<tag k="natural" v="hill" />
		<tag k="place" v="locality" />
		<tag k="ssr:stedsnr" v="472366" />
	</node>
	<node lat="64.16770555922382" lon="11.345991673601441" id="-39479">
		<tag k="fixme" v="consider natural=peak for the most distinct mountains in the district" />
		<tag k="name" v="Tømtåsen" />
		<tag k="natural" v="hill" />
		<tag k="place" v="locality" />
		<tag k="ssr:stedsnr" v="472718" />
	</node>
	<node lat="64.65423333061423" lon="11.334816662262984" id="-39481">
		<tag k="name" v="Kvithaugen" />
		<tag k="natural" v="hill" />
		<tag k="place" v="locality" />
		<tag k="ssr:stedsnr" v="472909" />
	</node>
	<node lat="64.44212499654839" lon="11.113855549546976" id="-39484">
		<tag k="name" v="Tverrhoggholet" />
		<tag k="natural" v="valley" />
		<tag k="place" v="locality" />
		<tag k="ssr:stedsnr" v="473204" />
	</node>
	<node lat="64.42551389051725" lon="11.09664166656465" id="-39485">
		<tag k="fixme" v="consider natural=peak for the most distinct mountains in the district" />
		<tag k="name" v="Mosshatten" />
		<tag k="natural" v="hill" />
		<tag k="place" v="locality" />
		<tag k="ssr:stedsnr" v="473211" />
	</node>
	<node lat="64.42089999788664" lon="11.035947217692268" id="-39486">
		<tag k="name" v="Hestmarka" />
		<tag k="natural" v="slope" />
		<tag k="place" v="locality" />
		<tag k="ssr:stedsnr" v="473216" />
	</node>
	<node lat="64.59864722223196" lon="11.663355546150955" id="-39487">
		<tag k="fixme" v="consider natural=peak for the most distinct mountains in the district" />
		<tag k="name" v="Sommerhustuva" />
		<tag k="natural" v="hill" />
		<tag k="place" v="locality" />
		<tag k="ssr:stedsnr" v="473314" />
	</node>
	<node lat="64.23372500109177" lon="11.521883326513315" id="-39488">
		<tag k="name" v="Tømmerdalen" />
		<tag k="natural" v="valley" />
		<tag k="place" v="locality" />
		<tag k="ssr:stedsnr" v="473462" />
	</node>
	<node lat="64.58644444865882" lon="11.54065834335413" id="-39496">
		<tag k="name" v="Kjettvassdalen" />
		<tag k="natural" v="valley" />
		<tag k="place" v="locality" />
		<tag k="ssr:stedsnr" v="473674" />
	</node>
	<node lat="64.72473333581804" lon="11.509897223645645" id="-39498">
		<tag k="name" v="Nordbekkdalan" />
		<tag k="natural" v="hill" />
		<tag k="place" v="locality" />
		<tag k="ssr:stedsnr" v="474388" />
	</node>
	<node lat="64.67680000306406" lon="11.918938898990033" id="-39499">
		<tag k="name" v="Lonvassdalen" />
		<tag k="natural" v="valley" />
		<tag k="place" v="locality" />
		<tag k="ssr:stedsnr" v="475058" />
	</node>
	<node lat="64.7695388870458" lon="11.694522226377574" id="-39500">
		<tag k="name" v="Slokko" />
		<tag k="natural" v="valley" />
		<tag k="place" v="locality" />
		<tag k="ssr:stedsnr" v="475059" />
	</node>
	<node lat="64.76842222490623" lon="12.030233336263422" id="-39502">
		<tag k="name" v="Jøvra" />
		<tag k="natural" v="slope" />
		<tag k="place" v="locality" />
		<tag k="ssr:stedsnr" v="475074" />
	</node>
	<node lat="64.73324722477004" lon="11.585647213709331" id="-39506">
		<tag k="fixme" v="consider natural=peak for the most distinct mountains in the district" />
		<tag k="name" v="Dumålfjellet" />
		<tag k="natural" v="hill" />
		<tag k="place" v="locality" />
		<tag k="ssr:stedsnr" v="475475" />
	</node>
	<node lat="64.71369721890416" lon="11.746636103457801" id="-39508">
		<tag k="name" v="Bjørkåsen" />
		<tag k="place" v="locality" />
		<tag k="ssr:stedsnr" v="475360" />
	</node>
	<node lat="64.32306666954575" lon="10.998047215000595" id="-39514">
		<tag k="fixme" v="consider natural=peak for the most distinct mountains in the district" />
		<tag k="name" v="Jøssundvarden - Skaanja-Stoerrevaerie" />
		<tag k="name:no" v="Jøssundvarden" />
		<tag k="name:sma" v="Skaanja-Stoerrevaerie" />
		<tag k="natural" v="hill" />
		<tag k="place" v="locality" />
		<tag k="ssr:stedsnr" v="681313" />
	</node>
	<node lat="64.4229083345369" lon="11.537780557807768" id="-39518">
		<tag k="fixme" v="multiple name tags, choose one and add the other to alt_name" />
		<tag k="name" v="Morrahaugen;Fuglmyrhaugan" />
		<tag k="natural" v="hill" />
		<tag k="place" v="locality" />
		<tag k="ssr:stedsnr" v="681112" />
	</node>
	<node lat="64.49037499580982" lon="11.47744722784272" id="-39525">
		<tag k="name" v="Toddomsaksla" />
		<tag k="natural" v="hill" />
		<tag k="place" v="locality" />
		<tag k="ssr:stedsnr" v="681238" />
	</node>
	<node lat="64.38135555366993" lon="11.170497228598796" id="-39528">
		<tag k="name" v="Lakshølhaugen" />
		<tag k="natural" v="hill" />
		<tag k="place" v="locality" />
		<tag k="ssr:stedsnr" v="681246" />
	</node>
	<node lat="64.68708333316283" lon="11.49303334061564" id="-39531">
		<tag k="name" v="Vikahaugen" />
		<tag k="natural" v="hill" />
		<tag k="place" v="locality" />
		<tag k="ssr:stedsnr" v="681255" />
	</node>
	<node lat="64.48697499670669" lon="11.014283341324754" id="-39537">
		<tag k="fixme" v="consider natural=peak for the most distinct mountains in the district" />
		<tag k="name" v="Finnmortennasen" />
		<tag k="natural" v="hill" />
		<tag k="place" v="locality" />
		<tag k="ssr:stedsnr" v="681389" />
	</node>
	<node lat="64.6221305598918" lon="11.629863888356786" id="-39545">
		<tag k="name" v="Røyklidalen" />
		<tag k="natural" v="valley" />
		<tag k="place" v="locality" />
		<tag k="ssr:stedsnr" v="499340" />
	</node>
	<node lat="64.28226111320058" lon="11.34977500243959" id="-39560">
		<tag k="name" v="Soløydalen" />
		<tag k="natural" v="valley" />
		<tag k="place" v="locality" />
		<tag k="ssr:stedsnr" v="499787" />
	</node>
	<node lat="64.28168611314797" lon="11.645675007682565" id="-39561">
		<tag k="name" v="Andorshatten" />
		<tag k="natural" v="hill" />
		<tag k="place" v="locality" />
		<tag k="ssr:stedsnr" v="499791" />
	</node>
	<node lat="64.65802500008951" lon="11.822583331322852" id="-39562">
		<tag k="name" v="Djupmyrdalen" />
		<tag k="natural" v="valley" />
		<tag k="place" v="locality" />
		<tag k="ssr:stedsnr" v="499796" />
	</node>
	<node lat="64.21232222501197" lon="11.400400004778243" id="-39563">
		<tag k="fixme" v="consider natural=peak for the most distinct mountains in the district" />
		<tag k="name" v="Svartåsen" />
		<tag k="natural" v="hill" />
		<tag k="place" v="locality" />
		<tag k="ssr:stedsnr" v="499906" />
	</node>
	<node lat="64.53128333628601" lon="11.248900004989421" id="-39566">
		<tag k="name" v="Dyrhaugen" />
		<tag k="natural" v="hill" />
		<tag k="place" v="locality" />
		<tag k="ssr:stedsnr" v="500082" />
	</node>
	<node lat="64.54250833364414" lon="11.62145834070591" id="-39569">
		<tag k="alt_name" v="Brannåsen" />
		<tag k="name" v="Brannfjellet" />
		<tag k="natural" v="hill" />
		<tag k="place" v="locality" />
		<tag k="ssr:stedsnr" v="500094" />
	</node>
	<node lat="64.69789999811506" lon="11.92182500713113" id="-39572">
		<tag k="fixme" v="consider natural=peak for the most distinct mountains in the district" />
		<tag k="name" v="Salmarkfjella" />
		<tag k="natural" v="hill" />
		<tag k="place" v="locality" />
		<tag k="ssr:stedsnr" v="500211" />
	</node>
	<node lat="64.70350278198892" lon="11.844155549469324" id="-39573">
		<tag k="name" v="Storskardet" />
		<tag k="natural" v="valley" />
		<tag k="place" v="locality" />
		<tag k="ssr:stedsnr" v="500212" />
	</node>
	<node lat="64.44256389015032" lon="11.103927770922548" id="-39579">
		<tag k="fixme" v="consider natural=peak for the most distinct mountains in the district" />
		<tag k="name" v="Tverrhoggfjellet" />
		<tag k="natural" v="hill" />
		<tag k="place" v="locality" />
		<tag k="ssr:stedsnr" v="681451" />
	</node>
	<node lat="64.36161110946377" lon="11.372980563452701" id="-39582">
		<tag k="name" v="Ellevskardet" />
		<tag k="natural" v="valley" />
		<tag k="place" v="locality" />
		<tag k="ssr:stedsnr" v="499989" />
	</node>
	<node lat="64.5544694467752" lon="11.237852772637185" id="-39587">
		<tag k="alt_name" v="Stufjellet" />
		<tag k="fixme" v="consider natural=peak for the most distinct mountains in the district" />
		<tag k="name" v="Stuvfjellet" />
		<tag k="natural" v="hill" />
		<tag k="place" v="locality" />
		<tag k="ssr:stedsnr" v="500137" />
	</node>
	<node lat="64.52413611408433" lon="11.650052768325713" id="-39588">
		<tag k="name" v="Godveiterdalen" />
		<tag k="natural" v="valley" />
		<tag k="place" v="locality" />
		<tag k="ssr:stedsnr" v="500181" />
	</node>
	<node lat="64.60195000086672" lon="11.09801111426821" id="-39597">
		<tag k="fixme" v="consider natural=peak for the most distinct mountains in the district" />
		<tag k="name" v="Myanvikfjellet" />
		<tag k="natural" v="hill" />
		<tag k="place" v="locality" />
		<tag k="ssr:stedsnr" v="681549" />
	</node>
	<node lat="64.66330555778832" lon="11.266983332227019" id="-39600">
		<tag k="fixme" v="consider natural=peak for the most distinct mountains in the district" />
		<tag k="name" v="Dunafjellet" />
		<tag k="natural" v="hill" />
		<tag k="place" v="locality" />
		<tag k="ssr:stedsnr" v="500385" />
	</node>
	<node lat="64.60150679754639" lon="11.453634289807454" id="-39602">
		<tag k="alt_name" v="Brudeskaret;Skardet" />
		<tag k="name" v="Bruraskardet" />
		<tag k="natural" v="valley" />
		<tag k="place" v="locality" />
		<tag k="ssr:stedsnr" v="500530" />
	</node>
	<node lat="64.18101110884038" lon="10.817100005190529" id="-39605">
		<tag k="alt_name" v="Såmmårskardet" />
		<tag k="name" v="Sommarskardet" />
		<tag k="natural" v="valley" />
		<tag k="place" v="locality" />
		<tag k="ssr:stedsnr" v="681568" />
	</node>
	<node lat="64.18618888806644" lon="10.830436104857593" id="-39622">
		<tag k="fixme" v="consider natural=peak for the most distinct mountains in the district" />
		<tag k="name" v="Kvernheia" />
		<tag k="natural" v="hill" />
		<tag k="place" v="locality" />
		<tag k="ssr:stedsnr" v="681685" />
	</node>
	<node lat="64.29198611051362" lon="11.239061113749473" id="-39623">
		<tag k="alt_name" v="Middagsskaret" />
		<tag k="name" v="Middagsskardet" />
		<tag k="natural" v="valley" />
		<tag k="place" v="locality" />
		<tag k="ssr:stedsnr" v="681842" />
	</node>
	<node lat="64.28865833315494" lon="11.247613895301399" id="-39624">
		<tag k="fixme" v="consider natural=peak for the most distinct mountains in the district" />
		<tag k="name" v="Langheia" />
		<tag k="natural" v="hill" />
		<tag k="place" v="locality" />
		<tag k="ssr:stedsnr" v="681844" />
	</node>
	<node lat="64.26814444383149" lon="11.573402775468349" id="-39626">
		<tag k="fixme" v="consider natural=peak for the most distinct mountains in the district" />
		<tag k="name" v="Litlaksla" />
		<tag k="natural" v="hill" />
		<tag k="place" v="locality" />
		<tag k="ssr:stedsnr" v="681878" />
	</node>
	<node lat="64.38653055950006" lon="11.380608336806487" id="-39630">
		<tag k="name" v="Botnberget" />
		<tag k="natural" v="hill" />
		<tag k="place" v="locality" />
		<tag k="ssr:stedsnr" v="681946" />
	</node>
	<node lat="64.2735722249092" lon="11.348291668871648" id="-39631">
		<tag k="name" v="Huslemhøgda" />
		<tag k="natural" v="hill" />
		<tag k="place" v="locality" />
		<tag k="ssr:stedsnr" v="681882" />
	</node>
	<node lat="64.37928333364776" lon="11.358413898526084" id="-39633">
		<tag k="fixme" v="consider natural=peak for the most distinct mountains in the district" />
		<tag k="name" v="Storfjellet" />
		<tag k="natural" v="hill" />
		<tag k="place" v="locality" />
		<tag k="ssr:stedsnr" v="681954" />
	</node>
	<node lat="64.57825555146442" lon="11.365258333693754" id="-39650">
		<tag k="name" v="Tuva" />
		<tag k="natural" v="hill" />
		<tag k="place" v="locality" />
		<tag k="ssr:stedsnr" v="682045" />
	</node>
	<node lat="64.57210000118786" lon="11.402483330919821" id="-39651">
		<tag k="name" v="Litlvassfjellet" />
		<tag k="natural" v="hill" />
		<tag k="place" v="locality" />
		<tag k="ssr:stedsnr" v="682047" />
	</node>
	<node lat="64.73402777434158" lon="11.89675000230482" id="-39653">
		<tag k="alt_name" v="Nonshaugen" />
		<tag k="name" v="Stor-Nonshaugen" />
		<tag k="natural" v="hill" />
		<tag k="place" v="locality" />
		<tag k="ssr:stedsnr" v="682249" />
	</node>
	<node lat="64.54943055979969" lon="11.369602767869976" id="-39656">
		<tag k="name" v="Flaget" />
		<tag k="natural" v="hill" />
		<tag k="place" v="locality" />
		<tag k="ssr:stedsnr" v="682108" />
	</node>
	<node lat="64.55439166262217" lon="11.676227775177868" id="-39657">
		<tag k="name" v="Vetterhusdalen" />
		<tag k="natural" v="valley" />
		<tag k="place" v="locality" />
		<tag k="ssr:stedsnr" v="682123" />
	</node>
	<node lat="64.51186388956755" lon="11.352802782325046" id="-39659">
		<tag k="name" v="Middagsfjellet" />
		<tag k="natural" v="hill" />
		<tag k="place" v="locality" />
		<tag k="ssr:stedsnr" v="682151" />
	</node>
	<node lat="64.74364999654907" lon="12.145499995381467" id="-39661">
		<tag k="name" v="Durmålsslettet" />
		<tag k="natural" v="slope" />
		<tag k="place" v="locality" />
		<tag k="ssr:stedsnr" v="682260" />
	</node>
	<node lat="64.65061944705178" lon="11.469205562543252" id="-39667">
		<tag k="fixme" v="consider natural=peak for the most distinct mountains in the district" />
		<tag k="name" v="Litlseiertuva" />
		<tag k="natural" v="hill" />
		<tag k="place" v="locality" />
		<tag k="ssr:stedsnr" v="682366" />
	</node>
	<node lat="64.60006389151448" lon="11.502016661244943" id="-39674">
		<tag k="alt_name" v="Damhaugen" />
		<tag k="name" v="Damhaugan" />
		<tag k="natural" v="hill" />
		<tag k="place" v="locality" />
		<tag k="ssr:stedsnr" v="682495" />
	</node>
	<node lat="64.6783250020121" lon="11.761674995820137" id="-39679">
		<tag k="name" v="Skifteshaugen" />
		<tag k="natural" v="hill" />
		<tag k="place" v="locality" />
		<tag k="ssr:stedsnr" v="682853" />
	</node>
	<node lat="64.75567500330452" lon="11.83461943599644" id="-39683">
		<tag k="fixme" v="consider natural=peak for the most distinct mountains in the district" />
		<tag k="name" v="Låvikfjellet" />
		<tag k="natural" v="hill" />
		<tag k="place" v="locality" />
		<tag k="ssr:stedsnr" v="682886" />
	</node>
	<node lat="64.76398332933786" lon="12.023108343147195" id="-39685">
		<tag k="name" v="Naustmoen" />
		<tag k="place" v="locality" />
		<tag k="ssr:stedsnr" v="682890" />
	</node>
	<node lat="64.3355361092427" lon="11.294800000840691" id="-39689">
		<tag k="name" v="Fuglleikhaugan" />
		<tag k="natural" v="hill" />
		<tag k="place" v="locality" />
		<tag k="ssr:stedsnr" v="511289" />
	</node>
	<node lat="64.53161944016814" lon="11.234061117868286" id="-39690">
		<tag k="name" v="Skaret" />
		<tag k="natural" v="valley" />
		<tag k="place" v="locality" />
		<tag k="ssr:stedsnr" v="514477" />
	</node>
	<node lat="64.48730555955666" lon="11.536963889321335" id="-39691">
		<tag k="name" v="Sør-Stokkdalsfjellet" />
		<tag k="natural" v="hill" />
		<tag k="place" v="locality" />
		<tag k="ssr:stedsnr" v="514593" />
	</node>
	<node lat="64.52044444214" lon="11.187597219856379" id="-39694">
		<tag k="name" v="Langdalen" />
		<tag k="natural" v="valley" />
		<tag k="place" v="locality" />
		<tag k="ssr:stedsnr" v="515865" />
	</node>
	<node lat="64.52161110711381" lon="11.409969440976866" id="-39696">
		<tag k="name" v="Survikholfjellet" />
		<tag k="natural" v="hill" />
		<tag k="place" v="locality" />
		<tag k="ssr:stedsnr" v="518561" />
	</node>
	<node lat="64.26009722371415" lon="11.299247215624952" id="-39698">
		<tag k="name" v="Flokkahaugen" />
		<tag k="natural" v="hill" />
		<tag k="place" v="locality" />
		<tag k="ssr:stedsnr" v="522231" />
	</node>
	<node lat="64.26556111461346" lon="11.287702776844988" id="-39699">
		<tag k="name" v="Mårstokkhaugen" />
		<tag k="natural" v="hill" />
		<tag k="place" v="locality" />
		<tag k="ssr:stedsnr" v="522232" />
	</node>
	<node lat="64.2665972257938" lon="11.282172230602932" id="-39700">
		<tag k="name" v="Vassdalberget" />
		<tag k="natural" v="hill" />
		<tag k="place" v="locality" />
		<tag k="ssr:stedsnr" v="522239" />
	</node>
	<node lat="64.33683333118094" lon="11.301080559805271" id="-39701">
		<tag k="name" v="Grotjønnåsen" />
		<tag k="natural" v="hill" />
		<tag k="place" v="locality" />
		<tag k="ssr:stedsnr" v="523180" />
	</node>
	<node lat="64.37930278204956" lon="11.477005557701407" id="-39704">
		<tag k="fixme" v="consider natural=peak for the most distinct mountains in the district" />
		<tag k="name" v="Bjønnberget" />
		<tag k="natural" v="hill" />
		<tag k="place" v="locality" />
		<tag k="ssr:stedsnr" v="523761" />
	</node>
	<node lat="64.38723333791482" lon="11.494986103119528" id="-39705">
		<tag k="fixme" v="consider natural=peak for the most distinct mountains in the district" />
		<tag k="name" v="Tjettin" />
		<tag k="natural" v="hill" />
		<tag k="place" v="locality" />
		<tag k="ssr:stedsnr" v="523763" />
	</node>
	<node lat="64.65134722051488" lon="11.188919443832994" id="-39712">
		<tag k="name" v="Nausthaugen" />
		<tag k="natural" v="hill" />
		<tag k="place" v="locality" />
		<tag k="ssr:stedsnr" v="532167" />
	</node>
	<node lat="64.64224722107258" lon="11.198574999071875" id="-39713">
		<tag k="fixme" v="consider natural=peak for the most distinct mountains in the district" />
		<tag k="name" v="Trongfjellet" />
		<tag k="natural" v="hill" />
		<tag k="place" v="locality" />
		<tag k="ssr:stedsnr" v="532174" />
	</node>
	<node lat="64.6253583323726" lon="11.509088894532812" id="-39721">
		<tag k="name" v="Tyskerhaugen" />
		<tag k="natural" v="hill" />
		<tag k="place" v="locality" />
		<tag k="ssr:stedsnr" v="532721" />
	</node>
	<node lat="64.67469166873883" lon="11.296805548074655" id="-39723">
		<tag k="name" v="Fosnesmoan" />
		<tag k="place" v="locality" />
		<tag k="ssr:stedsnr" v="532784" />
	</node>
	<node lat="64.42673055994123" lon="11.040061111436824" id="-39726">
		<tag k="fixme" v="consider natural=peak for the most distinct mountains in the district" />
		<tag k="name" v="Furuhatten" />
		<tag k="natural" v="hill" />
		<tag k="place" v="locality" />
		<tag k="ssr:stedsnr" v="533206" />
	</node>
	<node lat="64.48183055843018" lon="11.186938893414702" id="-39727">
		<tag k="fixme" v="consider natural=peak for the most distinct mountains in the district" />
		<tag k="name" v="Vindhammaren" />
		<tag k="natural" v="hill" />
		<tag k="place" v="locality" />
		<tag k="ssr:stedsnr" v="533418" />
	</node>
	<node lat="64.33839721833067" lon="11.63258610599167" id="-39728">
		<tag k="name" v="Engelsfosshaugen" />
		<tag k="natural" v="hill" />
		<tag k="place" v="locality" />
		<tag k="ssr:stedsnr" v="533472" />
	</node>
	<node lat="64.18536666254568" lon="11.141105552686213" id="-39731">
		<tag k="name" v="Rabben" />
		<tag k="natural" v="ridge" />
		<tag k="place" v="locality" />
		<tag k="ssr:stedsnr" v="533507" />
	</node>
	<node lat="64.64868888499623" lon="11.095449994071558" id="-39738">
		<tag k="name" v="Nølmoen" />
		<tag k="place" v="locality" />
		<tag k="ssr:stedsnr" v="533979" />
	</node>
	<node lat="64.62336110990324" lon="11.71948611257485" id="-39739">
		<tag k="fixme" v="consider natural=peak for the most distinct mountains in the district" />
		<tag k="name" v="Finnvassåsen" />
		<tag k="natural" v="hill" />
		<tag k="place" v="locality" />
		<tag k="ssr:stedsnr" v="534271" />
	</node>
	<node lat="64.16891944575735" lon="10.815516674323888" id="-39742">
		<tag k="name" v="Liin" />
		<tag k="natural" v="slope" />
		<tag k="place" v="locality" />
		<tag k="ssr:stedsnr" v="534523" />
	</node>
	<node lat="64.7334249962235" lon="11.900847217226827" id="-39750">
		<tag k="name" v="Nonshaugen" />
		<tag k="natural" v="hill" />
		<tag k="place" v="locality" />
		<tag k="ssr:stedsnr" v="535012" />
	</node>
	<node lat="64.72110277499515" lon="11.483588897566444" id="-39755">
		<tag k="name" v="Penghaugen" />
		<tag k="natural" v="hill" />
		<tag k="place" v="locality" />
		<tag k="ssr:stedsnr" v="535377" />
	</node>
	<node lat="64.73281666352312" lon="11.521299989221951" id="-39756">
		<tag k="name" v="Kvennberget" />
		<tag k="natural" v="hill" />
		<tag k="place" v="locality" />
		<tag k="ssr:stedsnr" v="535388" />
	</node>
	<node lat="64.72484722447443" lon="11.594002769496123" id="-39757">
		<tag k="name" v="Ingeborgholet" />
		<tag k="natural" v="valley" />
		<tag k="place" v="locality" />
		<tag k="ssr:stedsnr" v="536469" />
	</node>
	<node lat="64.73048333584534" lon="11.594938880528442" id="-39758">
		<tag k="name" v="Øysterholet" />
		<tag k="natural" v="valley" />
		<tag k="place" v="locality" />
		<tag k="ssr:stedsnr" v="536473" />
	</node>
	<node lat="64.7222833306707" lon="11.546313879753477" id="-39759">
		<tag k="name" v="Loddohaugen" />
		<tag k="natural" v="hill" />
		<tag k="place" v="locality" />
		<tag k="ssr:stedsnr" v="536489" />
	</node>
	<node lat="64.22696666788244" lon="10.973166661022953" id="-39761">
		<tag k="name" v="Fagerdalskleiva" />
		<tag k="natural" v="slope" />
		<tag k="place" v="locality" />
		<tag k="ssr:stedsnr" v="688358" />
	</node>
	<node lat="64.48094721792577" lon="11.472744438481586" id="-39766">
		<tag k="name" v="Istberghaugen" />
		<tag k="natural" v="hill" />
		<tag k="place" v="locality" />
		<tag k="ssr:stedsnr" v="559204" />
	</node>
	<node lat="64.15098055571063" lon="11.191227785904461" id="-39775">
		<tag k="alt_name" v="Hoåsdalsklompen" />
		<tag k="fixme" v="consider natural=peak for the most distinct mountains in the district" />
		<tag k="name" v="Hoåsdalsklumpen" />
		<tag k="natural" v="hill" />
		<tag k="place" v="locality" />
		<tag k="ssr:stedsnr" v="559604" />
	</node>
	<node lat="64.55691110992831" lon="11.154088894933677" id="-39776">
		<tag k="alt_name" v="Klompan" />
		<tag k="fixme" v="consider natural=peak for the most distinct mountains in the district" />
		<tag k="name" v="Klumpan" />
		<tag k="natural" v="hill" />
		<tag k="place" v="locality" />
		<tag k="ssr:stedsnr" v="559609" />
	</node>
	<node lat="64.56420000057352" lon="11.211427770727475" id="-39777">
		<tag k="name" v="Henggrova" />
		<tag k="natural" v="valley" />
		<tag k="place" v="locality" />
		<tag k="ssr:stedsnr" v="559610" />
	</node>
	<node lat="64.14574444785455" lon="11.06327778645676" id="-39778">
		<tag k="fixme" v="consider natural=peak for the most distinct mountains in the district" />
		<tag k="name" v="Alhusen" />
		<tag k="natural" v="hill" />
		<tag k="place" v="locality" />
		<tag k="ssr:stedsnr" v="559611" />
	</node>
	<node lat="64.58187500246366" lon="11.565155561574203" id="-39780">
		<tag k="name" v="Liadalen" />
		<tag k="natural" v="valley" />
		<tag k="place" v="locality" />
		<tag k="ssr:stedsnr" v="560043" />
	</node>
	<node lat="64.15906110706686" lon="11.218938882195634" id="-39782">
		<tag k="alt_name" v="Eldåsan" />
		<tag k="fixme" v="consider natural=peak for the most distinct mountains in the district" />
		<tag k="name" v="Eldåsen" />
		<tag k="natural" v="hill" />
		<tag k="place" v="locality" />
		<tag k="ssr:stedsnr" v="559845" />
	</node>
	<node lat="64.31041666366359" lon="11.628502782878051" id="-39783">
		<tag k="name" v="Knuthaugen" />
		<tag k="natural" v="hill" />
		<tag k="place" v="locality" />
		<tag k="ssr:stedsnr" v="559938" />
	</node>
	<node lat="64.3575527753971" lon="11.435999994891802" id="-39785">
		<tag k="alt_name" v="Tiklompan" />
		<tag k="name" v="Tiklumpan" />
		<tag k="natural" v="hill" />
		<tag k="place" v="locality" />
		<tag k="ssr:stedsnr" v="559997" />
	</node>
	<node lat="64.35229444613422" lon="11.413527775994607" id="-39786">
		<tag k="name" v="Middagshaugen" />
		<tag k="natural" v="hill" />
		<tag k="place" v="locality" />
		<tag k="ssr:stedsnr" v="560000" />
	</node>
	<node lat="64.73991944300552" lon="12.079247215728264" id="-39791">
		<tag k="alt_name" v="Fangnesdalen" />
		<tag k="name" v="Sør Fangnessdalen" />
		<tag k="natural" v="valley" />
		<tag k="place" v="locality" />
		<tag k="ssr:stedsnr" v="560198" />
	</node>
	<node lat="64.38734999846693" lon="11.183330560918732" id="-39798">
		<tag k="fixme" v="consider natural=peak for the most distinct mountains in the district" />
		<tag k="name" v="Kariengskulen" />
		<tag k="natural" v="hill" />
		<tag k="place" v="locality" />
		<tag k="ssr:stedsnr" v="560288" />
	</node>
	<node lat="64.648402776551" lon="11.317899994688446" id="-39800">
		<tag k="alt_name" v="Vardfjellet" />
		<tag k="fixme" v="consider natural=peak for the most distinct mountains in the district" />
		<tag k="name" v="Gjessetfjellet" />
		<tag k="natural" v="hill" />
		<tag k="place" v="locality" />
		<tag k="ssr:stedsnr" v="560403" />
	</node>
	<node lat="64.67195000180449" lon="11.344691659097325" id="-39808">
		<tag k="fixme" v="consider natural=peak for the most distinct mountains in the district" />
		<tag k="name" v="Gyltfjellet" />
		<tag k="natural" v="hill" />
		<tag k="place" v="locality" />
		<tag k="ssr:stedsnr" v="560344" />
	</node>
	<node lat="64.65278611072313" lon="11.706825001808866" id="-39810">
		<tag k="fixme" v="consider natural=peak for the most distinct mountains in the district" />
		<tag k="name" v="Middagsfjellet" />
		<tag k="natural" v="hill" />
		<tag k="place" v="locality" />
		<tag k="ssr:stedsnr" v="560397" />
	</node>
	<node lat="64.61018611126508" lon="11.444933339488463" id="-39814">
		<tag k="name" v="Aksla" />
		<tag k="natural" v="hill" />
		<tag k="place" v="locality" />
		<tag k="ssr:stedsnr" v="560487" />
	</node>
	<node lat="64.61321111462642" lon="11.459091660426548" id="-39819">
		<tag k="name" v="Demninga" />
		<tag k="natural" v="hill" />
		<tag k="place" v="locality" />
		<tag k="ssr:stedsnr" v="560496" />
	</node>
	<node lat="64.56076389244001" lon="11.800205558958343" id="-39820">
		<tag k="fixme" v="consider natural=peak for the most distinct mountains in the district" />
		<tag k="name" v="Øystre Bjørnheia" />
		<tag k="natural" v="hill" />
		<tag k="place" v="locality" />
		<tag k="ssr:stedsnr" v="560818" />
	</node>
	<node lat="64.33973611371255" lon="11.232880558533033" id="-39823">
		<tag k="name" v="Munkhamran" />
		<tag k="place" v="locality" />
		<tag k="ssr:stedsnr" v="560903" />
	</node>
	<node lat="64.16868889078295" lon="11.330325000825734" id="-39827">
		<tag k="alt_name" v="Nord - Langengåsen" />
		<tag k="fixme" v="consider natural=peak for the most distinct mountains in the district" />
		<tag k="name" v="Nordlangengåsen" />
		<tag k="natural" v="hill" />
		<tag k="place" v="locality" />
		<tag k="ssr:stedsnr" v="560882" />
	</node>
	<node lat="64.37694999930245" lon="11.615630549172831" id="-39838">
		<tag k="fixme" v="consider natural=peak for the most distinct mountains in the district" />
		<tag k="name" v="Bergsfuglåsen" />
		<tag k="natural" v="hill" />
		<tag k="place" v="locality" />
		<tag k="ssr:stedsnr" v="572160" />
	</node>
	<node lat="64.5342944464145" lon="11.543241658721923" id="-39844">
		<tag k="name" v="Hendrehaugen" />
		<tag k="natural" v="hill" />
		<tag k="place" v="locality" />
		<tag k="ssr:stedsnr" v="575402" />
	</node>
	<node lat="64.50370277353956" lon="11.512372218800042" id="-39846">
		<tag k="name" v="Seterdalen" />
		<tag k="natural" v="valley" />
		<tag k="place" v="locality" />
		<tag k="ssr:stedsnr" v="575547" />
	</node>
	<node lat="64.49006666628597" lon="11.385330559310015" id="-39847">
		<tag k="name" v="Iverdalen" />
		<tag k="natural" v="valley" />
		<tag k="place" v="locality" />
		<tag k="ssr:stedsnr" v="575700" />
	</node>
	<node lat="64.24796110734496" lon="11.261588878981616" id="-39854">
		<tag k="name" v="Liaberga" />
		<tag k="natural" v="valley" />
		<tag k="place" v="locality" />
		<tag k="ssr:stedsnr" v="583201" />
	</node>
	<node lat="64.30665555177929" lon="11.194255546724758" id="-39855">
		<tag k="name" v="Styggdalen" />
		<tag k="natural" v="valley" />
		<tag k="place" v="locality" />
		<tag k="ssr:stedsnr" v="584206" />
	</node>
	<node lat="64.37726389120243" lon="11.353383329289036" id="-39866">
		<tag k="name" v="Kvennhusdalen" />
		<tag k="natural" v="valley" />
		<tag k="place" v="locality" />
		<tag k="ssr:stedsnr" v="584751" />
	</node>
	<node lat="64.65151944813834" lon="11.24749444765414" id="-39869">
		<tag k="name" v="Flatfjellet" />
		<tag k="natural" v="hill" />
		<tag k="place" v="locality" />
		<tag k="ssr:stedsnr" v="592015" />
	</node>
	<node lat="64.52453055154284" lon="11.570672216229818" id="-39870">
		<tag k="name" v="Lauvhaugen" />
		<tag k="natural" v="hill" />
		<tag k="place" v="locality" />
		<tag k="ssr:stedsnr" v="697418" />
	</node>
	<node lat="64.61326110934058" lon="11.43549722438202" id="-39871">
		<tag k="name" v="Mohaugen" />
		<tag k="natural" v="hill" />
		<tag k="place" v="locality" />
		<tag k="ssr:stedsnr" v="592723" />
	</node>
	<node lat="64.49356388703292" lon="11.495827785160865" id="-39872">
		<tag k="name" v="Bjørndalskleiva" />
		<tag k="natural" v="hill" />
		<tag k="place" v="locality" />
		<tag k="ssr:stedsnr" v="697495" />
	</node>
	<node lat="64.51573332953366" lon="11.535333334959315" id="-39873">
		<tag k="name" v="Nausthaugen" />
		<tag k="natural" v="hill" />
		<tag k="place" v="locality" />
		<tag k="ssr:stedsnr" v="697425" />
	</node>
	<node lat="64.52861388758812" lon="11.212861101917051" id="-39876">
		<tag k="name" v="Stormantelkriken" />
		<tag k="natural" v="valley" />
		<tag k="place" v="locality" />
		<tag k="ssr:stedsnr" v="697449" />
	</node>
	<node lat="64.53530555749882" lon="11.234255550837164" id="-39877">
		<tag k="name" v="Liin" />
		<tag k="natural" v="slope" />
		<tag k="place" v="locality" />
		<tag k="ssr:stedsnr" v="697452" />
	</node>
	<node lat="64.54087222277535" lon="11.227586117559966" id="-39878">
		<tag k="name" v="Seterhaugen" />
		<tag k="natural" v="hill" />
		<tag k="place" v="locality" />
		<tag k="ssr:stedsnr" v="697454" />
	</node>
	<node lat="64.4987666705616" lon="11.482283332956053" id="-39880">
		<tag k="fixme" v="consider natural=peak for the most distinct mountains in the district" />
		<tag k="name" v="Vindskinnhatten" />
		<tag k="natural" v="hill" />
		<tag k="place" v="locality" />
		<tag k="ssr:stedsnr" v="697497" />
	</node>
	<node lat="64.50155277375441" lon="11.481216667284567" id="-39881">
		<tag k="name" v="Seterdalen" />
		<tag k="natural" v="valley" />
		<tag k="place" v="locality" />
		<tag k="ssr:stedsnr" v="697498" />
	</node>
	<node lat="64.61180833300651" lon="11.180258331737349" id="-39884">
		<tag k="name" v="Ospvika" />
		<tag k="natural" v="valley" />
		<tag k="place" v="locality" />
		<tag k="ssr:stedsnr" v="593502" />
	</node>
	<node lat="64.61418889110229" lon="11.368941675278288" id="-39885">
		<tag k="name" v="Flaugtrappen" />
		<tag k="natural" v="hill" />
		<tag k="place" v="locality" />
		<tag k="ssr:stedsnr" v="593506" />
	</node>
	<node lat="64.61993889079787" lon="11.427455557278929" id="-39890">
		<tag k="name" v="Holmmarka" />
		<tag k="natural" v="slope" />
		<tag k="place" v="locality" />
		<tag k="ssr:stedsnr" v="593621" />
	</node>
	<node lat="64.6181527802184" lon="11.468125001672876" id="-39891">
		<tag k="name" v="Seteråsen" />
		<tag k="natural" v="hill" />
		<tag k="place" v="locality" />
		<tag k="ssr:stedsnr" v="593651" />
	</node>
	<node lat="64.63043055272186" lon="11.470197216579818" id="-39894">
		<tag k="name" v="Dyrvadhaugan" />
		<tag k="natural" v="hill" />
		<tag k="place" v="locality" />
		<tag k="ssr:stedsnr" v="593656" />
	</node>
	<node lat="64.47439999593911" lon="11.496263885109144" id="-39895">
		<tag k="name" v="Larsheimen" />
		<tag k="natural" v="valley" />
		<tag k="place" v="locality" />
		<tag k="ssr:stedsnr" v="697534" />
	</node>
	<node lat="64.50935555702117" lon="11.451349994776582" id="-39898">
		<tag k="name" v="Brandthaugen" />
		<tag k="natural" v="hill" />
		<tag k="place" v="locality" />
		<tag k="ssr:stedsnr" v="697545" />
	</node>
	<node lat="64.66379999914209" lon="11.283594442594755" id="-39899">
		<tag k="name" v="Svartdalen" />
		<tag k="natural" v="valley" />
		<tag k="place" v="locality" />
		<tag k="ssr:stedsnr" v="593722" />
	</node>
	<node lat="64.65282222120568" lon="11.261686102932124" id="-39901">
		<tag k="name" v="Brekka" />
		<tag k="natural" v="slope" />
		<tag k="place" v="locality" />
		<tag k="ssr:stedsnr" v="593955" />
	</node>
	<node lat="64.44756944133847" lon="11.133561112816754" id="-39902">
		<tag k="name" v="Finnholet" />
		<tag k="natural" v="valley" />
		<tag k="place" v="locality" />
		<tag k="ssr:stedsnr" v="594162" />
	</node>
	<node lat="64.30038055311638" lon="11.269761111414606" id="-39905">
		<tag k="name" v="Bjønnadalen" />
		<tag k="natural" v="valley" />
		<tag k="place" v="locality" />
		<tag k="ssr:stedsnr" v="594354" />
	</node>
	<node lat="64.57121666295146" lon="11.533169434375324" id="-39909">
		<tag k="name" v="Strandkleiva" />
		<tag k="natural" v="slope" />
		<tag k="place" v="locality" />
		<tag k="ssr:stedsnr" v="594651" />
	</node>
	<node lat="64.57449444437174" lon="11.526005547996942" id="-39910">
		<tag k="name" v="Kuskaret" />
		<tag k="natural" v="valley" />
		<tag k="place" v="locality" />
		<tag k="ssr:stedsnr" v="594653" />
	</node>
	<node lat="64.57545555420947" lon="11.522463882843255" id="-39911">
		<tag k="name" v="Ramnhaugan" />
		<tag k="natural" v="hill" />
		<tag k="place" v="locality" />
		<tag k="ssr:stedsnr" v="594658" />
	</node>
	<node lat="64.21601110893117" lon="11.412474990137202" id="-39912">
		<tag k="fixme" v="consider natural=peak for the most distinct mountains in the district" />
		<tag k="name" v="Hallin" />
		<tag k="natural" v="hill" />
		<tag k="place" v="locality" />
		<tag k="ssr:stedsnr" v="594662" />
	</node>
	<node lat="64.64340277562658" lon="11.57747777327381" id="-39916">
		<tag k="name" v="Tvistholet" />
		<tag k="natural" v="valley" />
		<tag k="place" v="locality" />
		<tag k="ssr:stedsnr" v="594703" />
	</node>
	<node lat="64.6889027756194" lon="11.792161115124232" id="-39924">
		<tag k="name" v="Storbakken" />
		<tag k="natural" v="slope" />
		<tag k="place" v="locality" />
		<tag k="ssr:stedsnr" v="596051" />
	</node>
	<node lat="64.75640278049298" lon="11.667202773444021" id="-39925">
		<tag k="name" v="Hesjedalen" />
		<tag k="natural" v="valley" />
		<tag k="place" v="locality" />
		<tag k="ssr:stedsnr" v="596052" />
	</node>
	<node lat="64.69392222212996" lon="11.838786103606077" id="-39926">
		<tag k="name" v="Fokkholet" />
		<tag k="natural" v="valley" />
		<tag k="place" v="locality" />
		<tag k="ssr:stedsnr" v="596053" />
	</node>
	<node lat="64.75720277413149" lon="11.78240278334908" id="-39931">
		<tag k="name" v="Skogkjerringlia" />
		<tag k="natural" v="slope" />
		<tag k="place" v="locality" />
		<tag k="ssr:stedsnr" v="596201" />
	</node>
	<node lat="64.54090277649848" lon="11.239444440539845" id="-39933">
		<tag k="name" v="Liadalen" />
		<tag k="natural" v="valley" />
		<tag k="place" v="locality" />
		<tag k="ssr:stedsnr" v="272448" />
	</node>
	<node lat="64.53018055426149" lon="11.416794435061135" id="-39934">
		<tag k="name" v="Ramnfjellet" />
		<tag k="natural" v="hill" />
		<tag k="place" v="locality" />
		<tag k="ssr:stedsnr" v="700602" />
	</node>
	<node lat="64.47161388460735" lon="11.44963610574157" id="-39937">
		<tag k="name" v="Gullvikmoen" />
		<tag k="place" v="locality" />
		<tag k="ssr:stedsnr" v="620031" />
	</node>
	<node lat="64.47449444738218" lon="11.63836111719453" id="-39938">
		<tag k="fixme" v="multiple name tags, choose one and add the other to alt_name" />
		<tag k="name" v="Sållåthøgda;Rophammaren" />
		<tag k="natural" v="hill" />
		<tag k="place" v="locality" />
		<tag k="ssr:stedsnr" v="620039" />
	</node>
	<node lat="64.3976833336933" lon="11.224202775703924" id="-39942">
		<tag k="name" v="Vasslia" />
		<tag k="natural" v="slope" />
		<tag k="place" v="locality" />
		<tag k="ssr:stedsnr" v="620086" />
	</node>
	<node lat="64.4215694487081" lon="11.39802222503958" id="-39946">
		<tag k="name" v="Kvitberget" />
		<tag k="natural" v="hill" />
		<tag k="place" v="locality" />
		<tag k="ssr:stedsnr" v="620118" />
	</node>
	<node lat="64.42535833412526" lon="11.391497222162803" id="-39947">
		<tag k="name" v="Sjuskardshaugan" />
		<tag k="natural" v="hill" />
		<tag k="place" v="locality" />
		<tag k="ssr:stedsnr" v="620119" />
	</node>
	<node lat="64.29387500388188" lon="11.116324995883083" id="-39949">
		<tag k="name" v="Finnandreastoppen" />
		<tag k="natural" v="hill" />
		<tag k="place" v="locality" />
		<tag k="ssr:stedsnr" v="620176" />
	</node>
	<node lat="64.3448611066901" lon="11.20893611001388" id="-39953">
		<tag k="fixme" v="consider natural=peak for the most distinct mountains in the district" />
		<tag k="name" v="Munkhammarfjellet" />
		<tag k="natural" v="hill" />
		<tag k="place" v="locality" />
		<tag k="ssr:stedsnr" v="620319" />
	</node>
	<node lat="64.1525583290052" lon="11.22263333853764" id="-39958">
		<tag k="alt_name" v="Nessestorhaugen" />
		<tag k="name" v="Storhaugen" />
		<tag k="natural" v="hill" />
		<tag k="place" v="locality" />
		<tag k="ssr:stedsnr" v="620772" />
	</node>
	<node lat="64.2785749978154" lon="11.458722216074696" id="-39960">
		<tag k="fixme" v="consider natural=peak for the most distinct mountains in the district" />
		<tag k="name" v="Høyfættåsen" />
		<tag k="natural" v="hill" />
		<tag k="place" v="locality" />
		<tag k="ssr:stedsnr" v="620789" />
	</node>
	<node lat="64.27910555300696" lon="11.497988896032744" id="-39962">
		<tag k="fixme" v="consider natural=peak for the most distinct mountains in the district" />
		<tag k="name" v="Åltjønnaksla" />
		<tag k="natural" v="hill" />
		<tag k="place" v="locality" />
		<tag k="ssr:stedsnr" v="620793" />
	</node>
	<node lat="64.56410555958676" lon="11.249413893511358" id="-39969">
		<tag k="name" v="Fagermarkdalen" />
		<tag k="natural" v="valley" />
		<tag k="place" v="locality" />
		<tag k="ssr:stedsnr" v="621023" />
	</node>
	<node lat="64.54675000055343" lon="11.374419449869869" id="-39970">
		<tag k="name" v="Kudalen" />
		<tag k="natural" v="valley" />
		<tag k="place" v="locality" />
		<tag k="ssr:stedsnr" v="621087" />
	</node>
	<node lat="64.51644444603131" lon="11.441544435341504" id="-39973">
		<tag k="fixme" v="consider natural=peak for the most distinct mountains in the district" />
		<tag k="name" v="Rapfjellet" />
		<tag k="natural" v="hill" />
		<tag k="place" v="locality" />
		<tag k="ssr:stedsnr" v="621129" />
	</node>
	<node lat="64.52146388611438" lon="11.610247221792552" id="-39975">
		<tag k="fixme" v="consider natural=peak for the most distinct mountains in the district" />
		<tag k="name" v="Vassdalsseterfjellet" />
		<tag k="natural" v="hill" />
		<tag k="place" v="locality" />
		<tag k="ssr:stedsnr" v="621183" />
	</node>
	<node lat="64.73358055253414" lon="11.672966676207867" id="-39979">
		<tag k="fixme" v="consider natural=peak for the most distinct mountains in the district" />
		<tag k="name" v="Jordfallfjellet" />
		<tag k="natural" v="hill" />
		<tag k="place" v="locality" />
		<tag k="ssr:stedsnr" v="621321" />
	</node>
	<node lat="64.61953333124677" lon="11.51608889789519" id="-39983">
		<tag k="name" v="Svartdalen" />
		<tag k="natural" v="valley" />
		<tag k="place" v="locality" />
		<tag k="ssr:stedsnr" v="621409" />
	</node>
	<node lat="64.55275000439482" lon="11.140344444569363" id="-39988">
		<tag k="name" v="Larsvikdalen" />
		<tag k="natural" v="valley" />
		<tag k="place" v="locality" />
		<tag k="ssr:stedsnr" v="621675" />
	</node>
	<node lat="64.64952500298332" lon="11.865050002989015" id="-39989">
		<tag k="name" v="Sørskardet" />
		<tag k="natural" v="valley" />
		<tag k="place" v="locality" />
		<tag k="ssr:stedsnr" v="621867" />
	</node>
	<node lat="64.76185277618538" lon="12.059980550312034" id="-39990">
		<tag k="alt_name" v="Hyllenghaugan" />
		<tag k="name" v="Hyllenghaugen" />
		<tag k="natural" v="hill" />
		<tag k="place" v="locality" />
		<tag k="ssr:stedsnr" v="621868" />
	</node>
	<node lat="64.63770833796252" lon="11.7543749934861" id="-39991">
		<tag k="name" v="Grønhaugen" />
		<tag k="natural" v="hill" />
		<tag k="place" v="locality" />
		<tag k="ssr:stedsnr" v="621870" />
	</node>
	<node lat="64.76156388617508" lon="11.856630552808376" id="-39992">
		<tag k="fixme" v="consider natural=peak for the most distinct mountains in the district" />
		<tag k="name" v="Salvikfjellet" />
		<tag k="natural" v="hill" />
		<tag k="place" v="locality" />
		<tag k="ssr:stedsnr" v="621877" />
	</node>
	<node lat="64.82416666365758" lon="12.070749999766992" id="-39994">
		<tag k="fixme" v="consider natural=peak for the most distinct mountains in the district" />
		<tag k="name" v="Mjøsundfjellet - Gaskevaerie" />
		<tag k="name:no" v="Mjøsundfjellet" />
		<tag k="name:sma" v="Gaskevaerie" />
		<tag k="natural" v="hill" />
		<tag k="old_name:sma" v="Gaskevarie" />
		<tag k="place" v="locality" />
		<tag k="ssr:stedsnr" v="621917" />
	</node>
	<node lat="64.49695833667168" lon="11.447275000667643" id="-40000">
		<tag k="name" v="Varpneshaugen" />
		<tag k="natural" v="hill" />
		<tag k="place" v="locality" />
		<tag k="ssr:stedsnr" v="635719" />
	</node>
	<node lat="64.39970277546345" lon="11.498283329985501" id="-40003">
		<tag k="fixme" v="consider natural=peak for the most distinct mountains in the district" />
		<tag k="name" v="Fjeldsetåsen" />
		<tag k="natural" v="hill" />
		<tag k="place" v="locality" />
		<tag k="ssr:stedsnr" v="635791" />
	</node>
	<node lat="64.28018888873586" lon="11.234924996031653" id="-40004">
		<tag k="name" v="Trongin" />
		<tag k="natural" v="valley" />
		<tag k="place" v="locality" />
		<tag k="ssr:stedsnr" v="705227" />
	</node>
	<node lat="64.25294444337193" lon="11.284144442295286" id="-40006">
		<tag k="name" v="Stormyrdalen" />
		<tag k="natural" v="valley" />
		<tag k="place" v="locality" />
		<tag k="ssr:stedsnr" v="705247" />
	</node>
	<node lat="64.36466944327105" lon="11.536850002391493" id="-40007">
		<tag k="fixme" v="consider natural=peak for the most distinct mountains in the district" />
		<tag k="name" v="Vassfjellet" />
		<tag k="natural" v="hill" />
		<tag k="place" v="locality" />
		<tag k="ssr:stedsnr" v="705634" />
	</node>
	<node lat="64.38526666799602" lon="11.479066669244979" id="-40011">
		<tag k="name" v="Masterdalen" />
		<tag k="natural" v="valley" />
		<tag k="place" v="locality" />
		<tag k="ssr:stedsnr" v="705759" />
	</node>
	<node lat="64.38358056010118" lon="11.411977769204613" id="-40012">
		<tag k="name" v="Håmyrskaret" />
		<tag k="natural" v="valley" />
		<tag k="place" v="locality" />
		<tag k="ssr:stedsnr" v="705779" />
	</node>
	<node lat="64.40860833412157" lon="11.373411116761387" id="-40013">
		<tag k="name" v="Nordvikmoen" />
		<tag k="place" v="locality" />
		<tag k="ssr:stedsnr" v="705780" />
	</node>
	<node lat="64.40859721838125" lon="11.402497212734822" id="-40014">
		<tag k="name" v="Kista" />
		<tag k="natural" v="hill" />
		<tag k="place" v="locality" />
		<tag k="ssr:stedsnr" v="705787" />
	</node>
	<node lat="64.31687499613541" lon="11.30527221409754" id="-40016">
		<tag k="name" v="Styggdalen" />
		<tag k="natural" v="valley" />
		<tag k="place" v="locality" />
		<tag k="ssr:stedsnr" v="706143" />
	</node>
	<node lat="64.2560611086024" lon="11.2542805455701" id="-40017">
		<tag k="name" v="Dølin" />
		<tag k="natural" v="valley" />
		<tag k="place" v="locality" />
		<tag k="ssr:stedsnr" v="706196" />
	</node>
	<node lat="64.2354694483886" lon="11.300547224628819" id="-40018">
		<tag k="name" v="Lingsenghaugen" />
		<tag k="natural" v="hill" />
		<tag k="place" v="locality" />
		<tag k="ssr:stedsnr" v="706257" />
	</node>
	<node lat="64.22972500239752" lon="11.24882777737629" id="-40019">
		<tag k="name" v="Haugaberget" />
		<tag k="natural" v="hill" />
		<tag k="place" v="locality" />
		<tag k="ssr:stedsnr" v="706269" />
	</node>
	<node lat="64.2029694455801" lon="11.366569434882521" id="-40023">
		<tag k="fixme" v="consider natural=peak for the most distinct mountains in the district" />
		<tag k="name" v="Plassahøgda" />
		<tag k="natural" v="hill" />
		<tag k="place" v="locality" />
		<tag k="ssr:stedsnr" v="706285" />
	</node>
	<node lat="64.22429722638111" lon="11.330208339134115" id="-40024">
		<tag k="name" v="Arnthaugen" />
		<tag k="natural" v="hill" />
		<tag k="place" v="locality" />
		<tag k="ssr:stedsnr" v="706288" />
	</node>
	<node lat="64.23551944537807" lon="11.35947498981268" id="-40026">
		<tag k="name" v="Øvergårdsberga" />
		<tag k="natural" v="hill" />
		<tag k="place" v="locality" />
		<tag k="ssr:stedsnr" v="706238" />
	</node>
	<node lat="64.16842778054293" lon="11.213738898454322" id="-40028">
		<tag k="name" v="Issiberget" />
		<tag k="natural" v="hill" />
		<tag k="place" v="locality" />
		<tag k="ssr:stedsnr" v="706343" />
	</node>
	<node lat="64.36244999649323" lon="11.348797230514412" id="-40029">
		<tag k="name" v="Hokkhaugen" />
		<tag k="natural" v="hill" />
		<tag k="place" v="locality" />
		<tag k="ssr:stedsnr" v="644584" />
	</node>
	<node lat="64.38670277856133" lon="11.57713333098611" id="-40033">
		<tag k="fixme" v="consider natural=peak for the most distinct mountains in the district" />
		<tag k="name" v="Salfjellet" />
		<tag k="natural" v="hill" />
		<tag k="place" v="locality" />
		<tag k="ssr:stedsnr" v="644722" />
	</node>
	<node lat="64.38843611245187" lon="11.545308324229488" id="-40034">
		<tag k="fixme" v="consider natural=peak for the most distinct mountains in the district" />
		<tag k="name" v="Svartdalshøgda" />
		<tag k="natural" v="hill" />
		<tag k="place" v="locality" />
		<tag k="ssr:stedsnr" v="644723" />
	</node>
	<node lat="64.42141111542304" lon="11.413083338764748" id="-40035">
		<tag k="fixme" v="consider natural=peak for the most distinct mountains in the district" />
		<tag k="name" v="Øykmyrhaugen" />
		<tag k="natural" v="hill" />
		<tag k="place" v="locality" />
		<tag k="ssr:stedsnr" v="644773" />
	</node>
	<node lat="64.22973610694598" lon="11.181958322967045" id="-40038">
		<tag k="name" v="Nilsenget" />
		<tag k="place" v="locality" />
		<tag k="ssr:stedsnr" v="645217" />
	</node>
	<node lat="64.18394166897606" lon="11.305438895212607" id="-40043">
		<tag k="fixme" v="consider natural=peak for the most distinct mountains in the district" />
		<tag k="name" v="Seteråsen" />
		<tag k="natural" v="hill" />
		<tag k="place" v="locality" />
		<tag k="ssr:stedsnr" v="645294" />
	</node>
</osm>
