<?xml version="1.0" encoding="UTF-8"?>
<osm version="0.6" generator="osmapis">
	<node lat="59.13616849809251" lon="10.966211509788018" id="-24047">
		<tag k="name" v="Belgen lykt" />
		<tag k="ssr:date" v="2019-12-27" />
		<tag k="ssr:gruppe" v="navigasjon" />
		<tag k="ssr:hovedgruppe" v="infrastruktur" />
		<tag k="ssr:stedsnr" v="2718" />
		<tag k="ssr:type" v="fyrlykt" />
	</node>
	<node lat="59.13851666927164" lon="10.937947217050557" id="-24090">
		<tag k="name" v="Raketangen lykt" />
		<tag k="ssr:date" v="2019-12-27" />
		<tag k="ssr:gruppe" v="navigasjon" />
		<tag k="ssr:hovedgruppe" v="infrastruktur" />
		<tag k="ssr:stedsnr" v="55802" />
		<tag k="ssr:type" v="fyrlykt" />
	</node>
	<node lat="59.1856500936149" lon="10.96155253853819" id="-24106">
		<tag k="name" v="Borg Havnevei" />
		<tag k="ssr:date" v="2019-12-27" />
		<tag k="ssr:gruppe" v="veg" />
		<tag k="ssr:hovedgruppe" v="infrastruktur" />
		<tag k="ssr:stedsnr" v="59582" />
		<tag k="ssr:type" v="adressenavn" />
	</node>
	<node lat="59.17913333409032" lon="10.95319722439285" id="-24156">
		<tag k="name" v="Røsvikrenna" />
		<tag k="ssr:date" v="2019-12-27" />
		<tag k="ssr:gruppe" v="sjøbunn" />
		<tag k="ssr:hovedgruppe" v="sjø" />
		<tag k="ssr:stedsnr" v="116526" />
		<tag k="ssr:type" v="renneKløftISjø" />
	</node>
	<node lat="59.21222227808828" lon="10.73587907203547" id="-24167">
		<tag k="name" v="Flateguri lykt" />
		<tag k="ssr:date" v="2020-09-01" />
		<tag k="ssr:gruppe" v="navigasjon" />
		<tag k="ssr:hovedgruppe" v="infrastruktur" />
		<tag k="ssr:stedsnr" v="122318" />
		<tag k="ssr:type" v="fyrlykt" />
	</node>
	<node lat="59.179577773384096" lon="10.872436117599218" id="-24183">
		<tag k="name" v="Gåsungene lykt" />
		<tag k="ssr:date" v="2019-12-27" />
		<tag k="ssr:gruppe" v="navigasjon" />
		<tag k="ssr:hovedgruppe" v="infrastruktur" />
		<tag k="ssr:stedsnr" v="175055" />
		<tag k="ssr:type" v="fyrlykt" />
	</node>
	<node lat="59.261136107363136" lon="11.024466674216333" id="-24216">
		<tag k="name" v="Visterflo lykt" />
		<tag k="ssr:date" v="2019-12-27" />
		<tag k="ssr:gruppe" v="navigasjon" />
		<tag k="ssr:hovedgruppe" v="infrastruktur" />
		<tag k="ssr:stedsnr" v="224914" />
		<tag k="ssr:type" v="fyrlykt" />
	</node>
	<node lat="59.15380278183203" lon="10.949602783530725" id="-24230">
		<tag k="name" v="Tømmerhella lykt" />
		<tag k="ssr:date" v="2019-12-27" />
		<tag k="ssr:gruppe" v="navigasjon" />
		<tag k="ssr:hovedgruppe" v="infrastruktur" />
		<tag k="ssr:stedsnr" v="236811" />
		<tag k="ssr:type" v="fyrlykt" />
	</node>
	<node lat="59.1401444461815" lon="10.940852779885804" id="-24292">
		<tag k="alt_name" v="Kjøkøyskjær lykt" />
		<tag k="name" v="Kjøkøyskjæret" />
		<tag k="ssr:date" v="2019-12-27" />
		<tag k="ssr:gruppe" v="navigasjon" />
		<tag k="ssr:hovedgruppe" v="infrastruktur" />
		<tag k="ssr:stedsnr" v="297821" />
		<tag k="ssr:type" v="fyrlykt" />
	</node>
	<node lat="59.26667222491016" lon="11.07385833970639" id="-24314">
		<tag k="name" v="Kjelsegrunnen lykt" />
		<tag k="ssr:date" v="2019-12-27" />
		<tag k="ssr:gruppe" v="navigasjon" />
		<tag k="ssr:hovedgruppe" v="infrastruktur" />
		<tag k="ssr:stedsnr" v="464841" />
		<tag k="ssr:type" v="fyrlykt" />
	</node>
	<node lat="59.190988892386834" lon="10.764252782035232" id="-24333">
		<tag k="name" v="Garnholmen lykt" />
		<tag k="ssr:date" v="2019-12-27" />
		<tag k="ssr:gruppe" v="navigasjon" />
		<tag k="ssr:hovedgruppe" v="infrastruktur" />
		<tag k="ssr:stedsnr" v="357949" />
		<tag k="ssr:type" v="fyrlykt" />
	</node>
	<node lat="59.138586107375126" lon="10.94111388331645" id="-24340">
		<tag k="name" v="Kjøkøy, nedre" />
		<tag k="ssr:date" v="2019-12-27" />
		<tag k="ssr:gruppe" v="navigasjon" />
		<tag k="ssr:hovedgruppe" v="infrastruktur" />
		<tag k="ssr:stedsnr" v="358814" />
		<tag k="ssr:type" v="fyrlykt" />
	</node>
	<node lat="59.13264999629329" lon="10.916116662054991" id="-24343">
		<tag k="alt_name" v="Arisholmen lykt" />
		<tag k="name" v="Arisholmen lanterne" />
		<tag k="ssr:date" v="2019-12-27" />
		<tag k="ssr:gruppe" v="navigasjon" />
		<tag k="ssr:hovedgruppe" v="infrastruktur" />
		<tag k="ssr:stedsnr" v="358822" />
		<tag k="ssr:type" v="lanterne" />
	</node>
	<node lat="59.11805300101638" lon="10.740702800981252" id="-24356">
		<tag k="alt_name" v="Struten;Struten lykt" />
		<tag k="name" v="Struten fyr" />
		<tag k="ssr:date" v="2019-12-27" />
		<tag k="ssr:gruppe" v="navigasjon" />
		<tag k="ssr:hovedgruppe" v="infrastruktur" />
		<tag k="ssr:stedsnr" v="365702" />
		<tag k="ssr:type" v="fyrstasjon" />
	</node>
	<node lat="59.17105000209551" lon="10.95301667182893" id="-24382">
		<tag k="name" v="Alshus, hvite, søre" />
		<tag k="ssr:date" v="2019-12-27" />
		<tag k="ssr:gruppe" v="navigasjon" />
		<tag k="ssr:hovedgruppe" v="infrastruktur" />
		<tag k="ssr:stedsnr" v="479514" />
		<tag k="ssr:type" v="fyrlykt" />
	</node>
	<node lat="59.18101297206073" lon="10.950890347499397" id="-24422">
		<tag k="name" v="Kallera lykt" />
		<tag k="old_name" v="Kaldera" />
		<tag k="ssr:date" v="2020-09-01" />
		<tag k="ssr:gruppe" v="navigasjon" />
		<tag k="ssr:hovedgruppe" v="infrastruktur" />
		<tag k="ssr:stedsnr" v="486379" />
		<tag k="ssr:type" v="fyrlykt" />
	</node>
	<node lat="59.16590000368659" lon="10.956361113133687" id="-24489">
		<tag k="name" v="Tuppegrunnen lykt" />
		<tag k="ssr:date" v="2019-12-27" />
		<tag k="ssr:gruppe" v="navigasjon" />
		<tag k="ssr:hovedgruppe" v="infrastruktur" />
		<tag k="ssr:stedsnr" v="478816" />
		<tag k="ssr:type" v="fyrlykt" />
	</node>
	<node lat="59.13932963897359" lon="10.889109911963796" id="-24520">
		<tag k="alt_name" v="Stangeskjær" />
		<tag k="name" v="Stangeskjær lykt" />
		<tag k="ssr:date" v="2020-09-01" />
		<tag k="ssr:gruppe" v="navigasjon" />
		<tag k="ssr:hovedgruppe" v="infrastruktur" />
		<tag k="ssr:stedsnr" v="488718" />
		<tag k="ssr:type" v="fyrlykt" />
	</node>
	<node lat="59.11883333744651" lon="11.012397229304433" id="-24534">
		<tag k="alt_name" v="Ramsøy v side" />
		<tag k="name" v="Vestre Ramsøy lykt" />
		<tag k="ssr:date" v="2019-12-27" />
		<tag k="ssr:gruppe" v="navigasjon" />
		<tag k="ssr:hovedgruppe" v="infrastruktur" />
		<tag k="ssr:stedsnr" v="539869" />
		<tag k="ssr:type" v="fyrlykt" />
	</node>
	<node lat="59.143484948351364" lon="10.967690250090518" id="-24535">
		<tag k="name" v="Kalkegrunnen lykt" />
		<tag k="ssr:date" v="2019-12-27" />
		<tag k="ssr:gruppe" v="navigasjon" />
		<tag k="ssr:hovedgruppe" v="infrastruktur" />
		<tag k="ssr:stedsnr" v="539878" />
		<tag k="ssr:type" v="fyrlykt" />
	</node>
	<node lat="59.19996389060036" lon="10.718536103887923" id="-24567">
		<tag k="name" v="Hausen" />
		<tag k="ssr:date" v="2019-12-27" />
		<tag k="ssr:gruppe" v="sjøbunn" />
		<tag k="ssr:hovedgruppe" v="sjø" />
		<tag k="ssr:stedsnr" v="692797" />
		<tag k="ssr:type" v="ryggISjø" />
	</node>
	<node lat="59.25966125671149" lon="11.025250184983475" id="-24576">
		<tag k="name" v="Renudtangen lykt" />
		<tag k="ssr:date" v="2019-12-27" />
		<tag k="ssr:gruppe" v="navigasjon" />
		<tag k="ssr:hovedgruppe" v="infrastruktur" />
		<tag k="ssr:stedsnr" v="588916" />
		<tag k="ssr:type" v="fyrlykt" />
	</node>
	<node lat="59.18167075532696" lon="10.79757391833069" id="-24595">
		<tag k="name" v="Slevik lykt" />
		<tag k="ssr:date" v="2019-12-27" />
		<tag k="ssr:gruppe" v="navigasjon" />
		<tag k="ssr:hovedgruppe" v="infrastruktur" />
		<tag k="ssr:stedsnr" v="607367" />
		<tag k="ssr:type" v="fyrlykt" />
	</node>
	<node lat="59.176580558938205" lon="10.872777775122904" id="-24621">
		<tag k="name" v="Søre Kråkebåen lysbøye" />
		<tag k="ssr:date" v="2019-12-27" />
		<tag k="ssr:gruppe" v="navigasjon" />
		<tag k="ssr:hovedgruppe" v="infrastruktur" />
		<tag k="ssr:stedsnr" v="647381" />
		<tag k="ssr:type" v="lysbøye" />
	</node>
	<node lat="59.135441665587976" lon="10.93218055933004" id="-24634">
		<tag k="name" v="Håholmbåen lykt" />
		<tag k="ssr:date" v="2019-12-27" />
		<tag k="ssr:gruppe" v="navigasjon" />
		<tag k="ssr:hovedgruppe" v="infrastruktur" />
		<tag k="ssr:stedsnr" v="661809" />
		<tag k="ssr:type" v="fyrlykt" />
	</node>
	<node lat="59.156586111681776" lon="10.956772227164816" id="-24710">
		<tag k="name" v="Flyndregrunnen lykt" />
		<tag k="ssr:date" v="2019-12-27" />
		<tag k="ssr:gruppe" v="navigasjon" />
		<tag k="ssr:hovedgruppe" v="infrastruktur" />
		<tag k="ssr:stedsnr" v="903889" />
		<tag k="ssr:type" v="fyrlykt" />
	</node>
	<node lat="59.204755559098196" lon="10.902608325302115" id="-24730">
		<tag k="name" v="Hutholmen lykt" />
		<tag k="ssr:date" v="2019-12-27" />
		<tag k="ssr:gruppe" v="navigasjon" />
		<tag k="ssr:hovedgruppe" v="infrastruktur" />
		<tag k="ssr:stedsnr" v="904854" />
		<tag k="ssr:type" v="fyrlykt" />
	</node>
	<node lat="59.204115716022415" lon="10.885478366292165" id="-24749">
		<tag k="name" v="Rødsberget" />
		<tag k="ssr:date" v="2019-12-27" />
		<tag k="ssr:gruppe" v="veg" />
		<tag k="ssr:hovedgruppe" v="infrastruktur" />
		<tag k="ssr:stedsnr" v="909584" />
		<tag k="ssr:type" v="adressenavn" />
	</node>
	<node lat="59.21343333074287" lon="10.908747228285472" id="-24751">
		<tag k="alt_name" v="Gressvik, Øvre" />
		<tag k="name" v="Øvre Gressvik" />
		<tag k="ssr:date" v="2019-12-27" />
		<tag k="ssr:gruppe" v="navigasjon" />
		<tag k="ssr:hovedgruppe" v="infrastruktur" />
		<tag k="ssr:stedsnr" v="782815" />
		<tag k="ssr:type" v="fyrlykt" />
	</node>
	<node lat="59.17223888734991" lon="10.952977781407274" id="-24754">
		<tag k="name" v="Alshus, røde, nordre" />
		<tag k="ssr:date" v="2019-12-27" />
		<tag k="ssr:gruppe" v="navigasjon" />
		<tag k="ssr:hovedgruppe" v="infrastruktur" />
		<tag k="ssr:stedsnr" v="783515" />
		<tag k="ssr:type" v="fyrlykt" />
	</node>
	<node lat="59.1390555537693" lon="10.942713892443237" id="-24759">
		<tag k="name" v="Kjøkøy, øvre" />
		<tag k="ssr:date" v="2019-12-27" />
		<tag k="ssr:gruppe" v="navigasjon" />
		<tag k="ssr:hovedgruppe" v="infrastruktur" />
		<tag k="ssr:stedsnr" v="783826" />
		<tag k="ssr:type" v="fyrlykt" />
	</node>
	<node lat="59.09410278077402" lon="10.731711116596827" id="-24821">
		<tag k="name" v="Dyprenna" />
		<tag k="ssr:date" v="2019-12-27" />
		<tag k="ssr:gruppe" v="sjøbunn" />
		<tag k="ssr:hovedgruppe" v="sjø" />
		<tag k="ssr:stedsnr" v="800989" />
		<tag k="ssr:type" v="renneKløftISjø" />
	</node>
	<node lat="59.26593888890029" lon="11.059477779895799" id="-24868">
		<tag k="name" v="Vestenodden lykt" />
		<tag k="ssr:date" v="2019-12-27" />
		<tag k="ssr:gruppe" v="navigasjon" />
		<tag k="ssr:hovedgruppe" v="infrastruktur" />
		<tag k="ssr:stedsnr" v="892920" />
		<tag k="ssr:type" v="fyrlykt" />
	</node>
	<node lat="59.21501944201225" lon="10.924288897341075" id="-24925">
		<tag k="alt_name" v="Korsepynten, Nedre" />
		<tag k="name" v="Nedre Korsepynten" />
		<tag k="ssr:date" v="2019-12-27" />
		<tag k="ssr:gruppe" v="navigasjon" />
		<tag k="ssr:hovedgruppe" v="infrastruktur" />
		<tag k="ssr:stedsnr" v="964813" />
		<tag k="ssr:type" v="fyrlykt" />
	</node>
	<node lat="59.12236830064267" lon="11.018423903051504" id="-24940">
		<tag k="alt_name" v="Ramsøy lanterne" />
		<tag k="name" v="Ramsøy" />
		<tag k="ssr:date" v="2019-12-27" />
		<tag k="ssr:gruppe" v="navigasjon" />
		<tag k="ssr:hovedgruppe" v="infrastruktur" />
		<tag k="ssr:stedsnr" v="972386" />
		<tag k="ssr:type" v="lanterne" />
	</node>
	<node lat="59.20439769975784" lon="10.816045834578617" id="-24945">
		<tag k="name" v="Skjellumstien" />
		<tag k="ssr:date" v="2019-12-27" />
		<tag k="ssr:gruppe" v="veg" />
		<tag k="ssr:hovedgruppe" v="infrastruktur" />
		<tag k="ssr:stedsnr" v="978810" />
		<tag k="ssr:type" v="adressenavn" />
	</node>
	<node lat="59.209493299440204" lon="10.818126625287158" id="-24946">
		<tag k="name" v="Skjellumtoppen" />
		<tag k="ssr:date" v="2019-12-27" />
		<tag k="ssr:gruppe" v="veg" />
		<tag k="ssr:hovedgruppe" v="infrastruktur" />
		<tag k="ssr:stedsnr" v="978811" />
		<tag k="ssr:type" v="adressenavn" />
	</node>
	<node lat="59.192445849629145" lon="10.880064085274174" id="-24949">
		<tag k="name" v="Vikerlunden" />
		<tag k="ssr:date" v="2019-12-27" />
		<tag k="ssr:gruppe" v="veg" />
		<tag k="ssr:hovedgruppe" v="infrastruktur" />
		<tag k="ssr:stedsnr" v="978814" />
		<tag k="ssr:type" v="adressenavn" />
	</node>
	<node lat="59.1851325673512" lon="10.783290049140016" id="-24976">
		<tag k="name" v="Navneskjæra varde" />
		<tag k="ssr:date" v="2019-12-27" />
		<tag k="ssr:gruppe" v="navigasjon" />
		<tag k="ssr:hovedgruppe" v="infrastruktur" />
		<tag k="ssr:stedsnr" v="986444" />
		<tag k="ssr:type" v="sjøvarde" />
	</node>
	<node lat="59.17194999708635" lon="10.779969437560998" id="-25089">
		<tag k="name" v="Joneryggen" />
		<tag k="ssr:date" v="2019-12-27" />
		<tag k="ssr:gruppe" v="sjøbunn" />
		<tag k="ssr:hovedgruppe" v="sjø" />
		<tag k="ssr:stedsnr" v="25849" />
		<tag k="ssr:type" v="ryggISjø" />
	</node>
	<node lat="59.215177779720555" lon="10.925683333375778" id="-25134">
		<tag k="alt_name" v="Korsepynten, Øvre" />
		<tag k="name" v="Øvre Korsepynten" />
		<tag k="ssr:date" v="2019-12-27" />
		<tag k="ssr:gruppe" v="navigasjon" />
		<tag k="ssr:hovedgruppe" v="infrastruktur" />
		<tag k="ssr:stedsnr" v="67855" />
		<tag k="ssr:type" v="fyrlykt" />
	</node>
	<node lat="59.17717778010948" lon="10.732163892290039" id="-25141">
		<tag k="alt_name" v="Rabbene" />
		<tag k="name" v="Rabbane" />
		<tag k="ssr:date" v="2019-12-27" />
		<tag k="ssr:gruppe" v="sjøbunn" />
		<tag k="ssr:hovedgruppe" v="sjø" />
		<tag k="ssr:stedsnr" v="85767" />
		<tag k="ssr:type" v="renneKløftISjø" />
	</node>
	<node lat="59.19831666372481" lon="10.896452781853545" id="-25273">
		<tag k="alt_name" v="Krosnesfjellet" />
		<tag k="name" v="Krossnesfjellet" />
		<tag k="ssr:date" v="2021-07-28" />
		<tag k="ssr:gruppe" v="navigasjon" />
		<tag k="ssr:hovedgruppe" v="infrastruktur" />
		<tag k="ssr:stedsnr" v="188865" />
		<tag k="ssr:type" v="fyrlykt" />
	</node>
	<node lat="59.190805555400196" lon="10.75753889661506" id="-25279">
		<tag k="name" v="Sørenryggen" />
		<tag k="ssr:date" v="2019-12-27" />
		<tag k="ssr:gruppe" v="sjøbunn" />
		<tag k="ssr:hovedgruppe" v="sjø" />
		<tag k="ssr:stedsnr" v="206813" />
		<tag k="ssr:type" v="ryggISjø" />
	</node>
	<node lat="59.204997862023276" lon="10.816226155795151" id="-25325">
		<tag k="name" v="Skjellumåsen" />
		<tag k="ssr:date" v="2019-12-27" />
		<tag k="ssr:gruppe" v="veg" />
		<tag k="ssr:hovedgruppe" v="infrastruktur" />
		<tag k="ssr:stedsnr" v="302587" />
		<tag k="ssr:type" v="adressenavn" />
	</node>
	<node lat="59.25033055741959" lon="11.008638881675923" id="-25327">
		<tag k="name" v="Ombergsvingen" />
		<tag k="ssr:date" v="2019-12-27" />
		<tag k="ssr:gruppe" v="veg" />
		<tag k="ssr:hovedgruppe" v="infrastruktur" />
		<tag k="ssr:stedsnr" v="302599" />
		<tag k="ssr:type" v="adressenavn" />
	</node>
	<node lat="59.25388356785942" lon="10.703861348606567" id="-25429">
		<tag k="name" v="Veslekalv lykt" />
		<tag k="ssr:date" v="2020-09-01" />
		<tag k="ssr:gruppe" v="navigasjon" />
		<tag k="ssr:hovedgruppe" v="infrastruktur" />
		<tag k="ssr:stedsnr" v="367663" />
		<tag k="ssr:type" v="fyrlykt" />
	</node>
	<node lat="59.213538888510925" lon="10.910086102989261" id="-25450">
		<tag k="alt_name" v="Gressvik, Nedre" />
		<tag k="name" v="Nedre Gressvik" />
		<tag k="ssr:date" v="2019-12-27" />
		<tag k="ssr:gruppe" v="navigasjon" />
		<tag k="ssr:hovedgruppe" v="infrastruktur" />
		<tag k="ssr:stedsnr" v="419824" />
		<tag k="ssr:type" v="fyrlykt" />
	</node>
	<node lat="59.17223888734991" lon="10.952977781407274" id="-25516">
		<tag k="name" v="Alshus, hvite, nordre" />
		<tag k="ssr:date" v="2019-12-27" />
		<tag k="ssr:gruppe" v="navigasjon" />
		<tag k="ssr:hovedgruppe" v="infrastruktur" />
		<tag k="ssr:stedsnr" v="540529" />
		<tag k="ssr:type" v="fyrlykt" />
	</node>
	<node lat="59.18279748299506" lon="10.868539024961594" id="-25533">
		<tag k="name" v="Midtre Faratangen" />
		<tag k="ssr:date" v="2019-12-27" />
		<tag k="ssr:gruppe" v="veg" />
		<tag k="ssr:hovedgruppe" v="infrastruktur" />
		<tag k="ssr:stedsnr" v="545549" />
		<tag k="ssr:type" v="adressenavn" />
	</node>
	<node lat="59.263897225923785" lon="10.989805562821228" id="-25534">
		<tag k="name" v="Hattekroken" />
		<tag k="ssr:date" v="2019-12-27" />
		<tag k="ssr:gruppe" v="veg" />
		<tag k="ssr:hovedgruppe" v="infrastruktur" />
		<tag k="ssr:stedsnr" v="545551" />
		<tag k="ssr:type" v="adressenavn" />
	</node>
	<node lat="59.204972477016724" lon="10.886652133450072" id="-25535">
		<tag k="name" v="Rødsstien" />
		<tag k="ssr:date" v="2019-12-27" />
		<tag k="ssr:gruppe" v="veg" />
		<tag k="ssr:hovedgruppe" v="infrastruktur" />
		<tag k="ssr:stedsnr" v="545559" />
		<tag k="ssr:type" v="adressenavn" />
	</node>
	<node lat="59.24828889013758" lon="11.014041670523813" id="-25566">
		<tag k="name" v="Torpeberget lykt" />
		<tag k="ssr:date" v="2019-12-27" />
		<tag k="ssr:gruppe" v="navigasjon" />
		<tag k="ssr:hovedgruppe" v="infrastruktur" />
		<tag k="ssr:stedsnr" v="585856" />
		<tag k="ssr:type" v="fyrlykt" />
	</node>
	<node lat="59.17105000209551" lon="10.95301667182893" id="-25644">
		<tag k="name" v="Alshus, røde, søre" />
		<tag k="ssr:date" v="2019-12-27" />
		<tag k="ssr:gruppe" v="navigasjon" />
		<tag k="ssr:hovedgruppe" v="infrastruktur" />
		<tag k="ssr:stedsnr" v="661492" />
		<tag k="ssr:type" v="fyrlykt" />
	</node>
	<node lat="59.214318391410735" lon="10.916413080708292" id="-25711">
		<tag k="name" v="Gryterenna" />
		<tag k="ssr:date" v="2019-12-27" />
		<tag k="ssr:gruppe" v="sjøbunn" />
		<tag k="ssr:hovedgruppe" v="sjø" />
		<tag k="ssr:stedsnr" v="724037" />
		<tag k="ssr:type" v="renneKløftISjø" />
	</node>
	<node lat="59.20245595595822" lon="10.817093302026779" id="-25731">
		<tag k="name" v="Kirkeberget" />
		<tag k="ssr:date" v="2019-12-27" />
		<tag k="ssr:gruppe" v="veg" />
		<tag k="ssr:hovedgruppe" v="infrastruktur" />
		<tag k="ssr:stedsnr" v="727575" />
		<tag k="ssr:type" v="adressenavn" />
	</node>
	<node lat="59.15103993337477" lon="10.829384229205633" id="-25753">
		<tag k="alt_name" v="Strømtangen;Strømtangen lykt" />
		<tag k="name" v="Strømtangen fyr" />
		<tag k="old_name" v="Torgauten" />
		<tag k="ssr:date" v="2020-09-01" />
		<tag k="ssr:gruppe" v="navigasjon" />
		<tag k="ssr:hovedgruppe" v="infrastruktur" />
		<tag k="ssr:stedsnr" v="731598" />
		<tag k="ssr:type" v="fyrstasjon" />
	</node>
	<node lat="59.24284444385465" lon="10.76723054813428" id="-25841">
		<tag k="alt_name" v="Djupholet" />
		<tag k="name" v="Dypehullet" />
		<tag k="ssr:date" v="2019-12-27" />
		<tag k="ssr:gruppe" v="sjøbunn" />
		<tag k="ssr:hovedgruppe" v="sjø" />
		<tag k="ssr:stedsnr" v="817797" />
		<tag k="ssr:type" v="renneKløftISjø" />
	</node>
	<node lat="59.25681604919861" lon="10.993972112255639" id="-25876">
		<tag k="name" v="Bergfruestien" />
		<tag k="ssr:date" v="2019-12-27" />
		<tag k="ssr:gruppe" v="veg" />
		<tag k="ssr:hovedgruppe" v="infrastruktur" />
		<tag k="ssr:stedsnr" v="848596" />
		<tag k="ssr:type" v="adressenavn" />
	</node>
	<node lat="59.15312770659509" lon="11.048482763773034" id="-25953">
		<tag k="name" v="Kileveien" />
		<tag k="ssr:date" v="2019-12-27" />
		<tag k="ssr:gruppe" v="veg" />
		<tag k="ssr:hovedgruppe" v="infrastruktur" />
		<tag k="ssr:stedsnr" v="978848" />
		<tag k="ssr:type" v="adressenavn" />
	</node>
	<node lat="59.20941034148488" lon="10.942501591447796" id="-25971">
		<tag k="name" v="Kirketårnet" />
		<tag k="ssr:date" v="2019-12-27" />
		<tag k="ssr:gruppe" v="navigasjon" />
		<tag k="ssr:hovedgruppe" v="infrastruktur" />
		<tag k="ssr:stedsnr" v="989968" />
		<tag k="ssr:type" v="lanterne" />
	</node>
	<node lat="59.30501796215008" lon="10.971091416205256" id="-27347">
		<tag k="name" v="Ringstadjordet" />
		<tag k="ssr:date" v="2020-09-01" />
		<tag k="ssr:gruppe" v="veg" />
		<tag k="ssr:hovedgruppe" v="infrastruktur" />
		<tag k="ssr:stedsnr" v="1078127" />
		<tag k="ssr:type" v="adressenavn" />
	</node>
	<node lat="59.214298711514154" lon="10.979667285932832" id="-27353">
		<tag k="name" v="Løkkebergkroken" />
		<tag k="ssr:date" v="2021-06-17" />
		<tag k="ssr:gruppe" v="veg" />
		<tag k="ssr:hovedgruppe" v="infrastruktur" />
		<tag k="ssr:stedsnr" v="1081537" />
		<tag k="ssr:type" v="adressenavn" />
	</node>
	<node lat="59.21347370937131" lon="10.97855037798046" id="-27354">
		<tag k="name" v="Løkkebergtunet" />
		<tag k="ssr:date" v="2021-06-17" />
		<tag k="ssr:gruppe" v="veg" />
		<tag k="ssr:hovedgruppe" v="infrastruktur" />
		<tag k="ssr:stedsnr" v="1081539" />
		<tag k="ssr:type" v="adressenavn" />
	</node>
</osm>
