<?xml version="1.0" encoding="UTF-8"?>
<osm version="0.6" generator="osmapis">
	<node id="31264079" lat="65.4748755" lon="12.2116394" version="13" timestamp="2022-08-04T12:39:06Z" changeset="124479468" uid="9026132" user="PulisakZ">
		<tag k="name" v="Brønnøysund" />
		<tag k="name:ru" v="Брённёйсунн" />
		<tag k="name:sma" v="Brïenne" />
		<tag k="place" v="town" />
		<tag k="population" v="4982" />
		<tag k="population:date" v="2021-01-01" />
		<tag k="ref:ssb_tettsted" v="7542" />
		<tag k="source:population" v="SSB - befolkning i tettstedet" />
		<tag k="ssr:stedsnr" v="196102" />
		<tag k="wikidata" v="Q995929" />
		<tag k="wikipedia" v="en:Brønnøysund" />
	</node>
	<node id="1809367242" lat="65.4073265" lon="12.5516302" version="5" timestamp="2022-07-18T05:36:20Z" changeset="123743386" uid="3497659" user="NKA">
		<tag k="name" v="Hommelstø" />
		<tag k="place" v="village" />
		<tag k="ssr:stedsnr" v="136480" />
	</node>
	<node id="1941963091" lat="65.4391229" lon="12.5870314" version="4" timestamp="2022-07-18T05:36:20Z" changeset="123743386" uid="3497659" user="NKA">
		<tag k="alt_name" v="Nævernes" />
		<tag k="name" v="Nevernes" />
		<tag k="place" v="hamlet" />
		<tag k="ssr:stedsnr" v="257456" />
	</node>
	<node id="1941995968" lat="65.3259936" lon="12.9582217" version="3" timestamp="2022-07-18T05:36:20Z" changeset="123743386" uid="3497659" user="NKA">
		<tag k="alt_name" v="Tosbotn" />
		<tag k="name" v="Tosbotn" />
		<tag k="place" v="hamlet" />
		<tag k="ssr:stedsnr" v="15002" />
	</node>
	<node id="2035258521" lat="65.4690099" lon="12.1347968" version="6" timestamp="2022-07-18T05:36:20Z" changeset="123743386" uid="3497659" user="NKA">
		<tag k="alt_name" v="Tofte" />
		<tag k="name" v="Toft" />
		<tag k="place" v="village" />
		<tag k="population" v="231" />
		<tag k="population:date" v="2021-01-01" />
		<tag k="ref:ssb_tettsted" v="7543" />
		<tag k="source:population" v="SSB - befolkning i tettstedet" />
		<tag k="ssr:stedsnr" v="318082" />
	</node>
	<node id="2351110736" lat="65.287794" lon="12.64575" version="2" timestamp="2018-05-02T17:03:47Z" changeset="58620907" uid="3497659" user="NKA">
		<tag k="name" v="Svelia" />
		<tag k="natural" v="peak" />
		<tag k="source" v="Kartverket" />
		<tag k="ssr:stedsnr" v="439213" />
	</node>
	<node id="2351112396" lat="65.5504826" lon="12.2683999" version="3" timestamp="2022-07-18T05:36:20Z" changeset="123743386" uid="3497659" user="NKA">
		<tag k="name" v="Mo" />
		<tag k="place" v="hamlet" />
		<tag k="ssr:stedsnr" v="15977" />
	</node>
	<node id="4248912460" lat="65.4693584" lon="12.9151628" version="2" timestamp="2022-07-18T05:36:20Z" changeset="123743386" uid="3497659" user="NKA">
		<tag k="name" v="Lomsdalen" />
		<tag k="place" v="locality" />
		<tag k="ssr:stedsnr" v="804098" />
	</node>
	<node id="4248912461" lat="65.3385726" lon="12.6772679" version="2" timestamp="2022-07-18T05:36:20Z" changeset="123743386" uid="3497659" user="NKA">
		<tag k="name" v="Sausvatn" />
		<tag k="place" v="hamlet" />
		<tag k="ssr:stedsnr" v="743386" />
	</node>
	<node id="4250162989" lat="65.4667892" lon="12.7704563" version="2" timestamp="2022-07-18T05:36:20Z" changeset="123743386" uid="3497659" user="NKA">
		<tag k="name" v="Storbørja" />
		<tag k="place" v="hamlet" />
		<tag k="ssr:stedsnr" v="318152" />
	</node>
	<node id="6205774489" lat="65.4053047" lon="12.5224109" version="2" timestamp="2022-07-18T05:36:20Z" changeset="123743386" uid="3497659" user="NKA">
		<tag k="alt_name" v="Velfjord" />
		<tag k="name" v="Naustvika" />
		<tag k="place" v="hamlet" />
		<tag k="ssr:stedsnr" v="743472" />
	</node>
	<node id="7102014927" lat="65.464599" lon="12.1548877" version="4" timestamp="2022-07-18T05:36:20Z" changeset="123743386" uid="3497659" user="NKA">
		<tag k="name" v="Nordhus" />
		<tag k="place" v="village" />
		<tag k="population" v="338" />
		<tag k="population:date" v="2021-01-01" />
		<tag k="ref:ssb_tettsted" v="7544" />
		<tag k="source:population" v="SSB - befolkning i tettstedet" />
		<tag k="ssr:stedsnr" v="560082" />
	</node>
	<node id="9894459035" lat="65.4048852" lon="12.0514201" version="1" timestamp="2022-07-18T05:36:20Z" changeset="123743386" uid="3497659" user="NKA">
		<tag k="alt_name" v="Vikran" />
		<tag k="name" v="Torgvikran" />
		<tag k="place" v="hamlet" />
		<tag k="ssr:stedsnr" v="440093" />
	</node>
	<node id="9894459036" lat="65.3879312" lon="12.167107" version="1" timestamp="2022-07-18T05:36:20Z" changeset="123743386" uid="3497659" user="NKA">
		<tag k="name" v="Nordnes" />
		<tag k="place" v="farm" />
		<tag k="ssr:stedsnr" v="742195" />
	</node>
	<node id="9894459037" lat="65.4250046" lon="12.0603765" version="1" timestamp="2022-07-18T05:36:20Z" changeset="123743386" uid="3497659" user="NKA">
		<tag k="name" v="Nordvika" />
		<tag k="place" v="farm" />
		<tag k="ssr:stedsnr" v="743039" />
	</node>
	<node id="9894459038" lat="65.4186005" lon="12.0410364" version="1" timestamp="2022-07-18T05:36:20Z" changeset="123743386" uid="3497659" user="NKA">
		<tag k="alt_name" v="Holmstrand" />
		<tag k="name" v="Holmstranda" />
		<tag k="place" v="farm" />
		<tag k="ssr:stedsnr" v="15049" />
	</node>
	<node id="9894459039" lat="65.411775" lon="12.5538277" version="1" timestamp="2022-07-18T05:36:20Z" changeset="123743386" uid="3497659" user="NKA">
		<tag k="name" v="Heggdalen" />
		<tag k="place" v="farm" />
		<tag k="ssr:stedsnr" v="968524" />
	</node>
	<node id="9894459040" lat="65.434903" lon="12.7718431" version="1" timestamp="2022-07-18T05:36:20Z" changeset="123743386" uid="3497659" user="NKA">
		<tag k="name" v="Sørfjellet" />
		<tag k="place" v="farm" />
		<tag k="ssr:stedsnr" v="925086" />
	</node>
	<node id="9894459041" lat="65.4374139" lon="12.5682833" version="1" timestamp="2022-07-18T05:36:20Z" changeset="123743386" uid="3497659" user="NKA">
		<tag k="name" v="Kalsnes" />
		<tag k="place" v="farm" />
		<tag k="ssr:stedsnr" v="743413" />
	</node>
	<node id="9894459042" lat="65.3988278" lon="12.5659333" version="1" timestamp="2022-07-18T05:36:20Z" changeset="123743386" uid="3497659" user="NKA">
		<tag k="name" v="Rønningstad" />
		<tag k="place" v="farm" />
		<tag k="ssr:stedsnr" v="925538" />
	</node>
	<node id="9894459043" lat="65.4212306" lon="12.5473833" version="1" timestamp="2022-07-18T05:36:20Z" changeset="123743386" uid="3497659" user="NKA">
		<tag k="name" v="Hundkjerka" />
		<tag k="place" v="farm" />
		<tag k="ssr:stedsnr" v="665555" />
	</node>
	<node id="9894459044" lat="65.3790861" lon="12.5637806" version="1" timestamp="2022-07-18T05:36:20Z" changeset="123743386" uid="3497659" user="NKA">
		<tag k="alt_name" v="Lian;Tomasli" />
		<tag k="name" v="Tåmmåslian" />
		<tag k="place" v="farm" />
		<tag k="ssr:stedsnr" v="560383" />
	</node>
	<node id="9894459045" lat="65.4240277" lon="12.5470138" version="1" timestamp="2022-07-18T05:36:20Z" changeset="123743386" uid="3497659" user="NKA">
		<tag k="name" v="Engalia" />
		<tag k="place" v="farm" />
		<tag k="ssr:stedsnr" v="604518" />
	</node>
	<node id="9894459046" lat="65.4018087" lon="12.5563937" version="1" timestamp="2022-07-18T05:36:20Z" changeset="123743386" uid="3497659" user="NKA">
		<tag k="alt_name" v="Rugås" />
		<tag k="name" v="Rugåsen" />
		<tag k="place" v="farm" />
		<tag k="ssr:stedsnr" v="75486" />
	</node>
	<node id="9894459047" lat="65.3534727" lon="12.5196475" version="1" timestamp="2022-07-18T05:36:20Z" changeset="123743386" uid="3497659" user="NKA">
		<tag k="alt_name" v="Fuglvassli" />
		<tag k="loc_name" v="Fuggllia" />
		<tag k="name" v="Fugllia" />
		<tag k="place" v="hamlet" />
		<tag k="ssr:stedsnr" v="500379" />
	</node>
	<node id="9894459048" lat="65.3402778" lon="12.5312888" version="1" timestamp="2022-07-18T05:36:20Z" changeset="123743386" uid="3497659" user="NKA">
		<tag k="name" v="Grindgarden" />
		<tag k="place" v="locality" />
		<tag k="ssr:stedsnr" v="786709" />
	</node>
	<node id="9894459049" lat="65.3271213" lon="12.5482449" version="1" timestamp="2022-07-18T05:36:20Z" changeset="123743386" uid="3497659" user="NKA">
		<tag k="alt_name" v="Storlien" />
		<tag k="name" v="Storlia" />
		<tag k="place" v="farm" />
		<tag k="ssr:stedsnr" v="197279" />
	</node>
	<node id="9894459050" lat="65.4061944" lon="12.5363139" version="1" timestamp="2022-07-18T05:36:20Z" changeset="123743386" uid="3497659" user="NKA">
		<tag k="name" v="Krokan" />
		<tag k="place" v="farm" />
		<tag k="ssr:stedsnr" v="864509" />
	</node>
	<node id="9894459051" lat="65.3810958" lon="12.5699316" version="1" timestamp="2022-07-18T05:36:20Z" changeset="123743386" uid="3497659" user="NKA">
		<tag k="name" v="Åsenget" />
		<tag k="place" v="farm" />
		<tag k="ssr:stedsnr" v="864424" />
	</node>
	<node id="9894459052" lat="65.4173528" lon="12.551175" version="1" timestamp="2022-07-18T05:36:20Z" changeset="123743386" uid="3497659" user="NKA">
		<tag k="name" v="Sørhegge" />
		<tag k="place" v="farm" />
		<tag k="ssr:stedsnr" v="847512" />
	</node>
	<node id="9894459053" lat="65.4243574" lon="12.5575921" version="1" timestamp="2022-07-18T05:36:20Z" changeset="123743386" uid="3497659" user="NKA">
		<tag k="name" v="Åkervika" />
		<tag k="place" v="farm" />
		<tag k="ssr:stedsnr" v="621397" />
	</node>
	<node id="9894459054" lat="65.3390208" lon="12.5002637" version="1" timestamp="2022-07-18T05:36:20Z" changeset="123743386" uid="3497659" user="NKA">
		<tag k="alt_name" v="Åsen" />
		<tag k="name" v="Engesåsen" />
		<tag k="place" v="farm" />
		<tag k="ssr:stedsnr" v="621370" />
	</node>
	<node id="9894459055" lat="65.3315775" lon="12.5327049" version="1" timestamp="2022-07-18T05:36:20Z" changeset="123743386" uid="3497659" user="NKA">
		<tag k="alt_name" v="Kråen" />
		<tag k="name" v="Kråa" />
		<tag k="place" v="farm" />
		<tag k="ssr:stedsnr" v="621261" />
	</node>
	<node id="9894459056" lat="65.3676334" lon="12.546211" version="1" timestamp="2022-07-18T05:36:20Z" changeset="123743386" uid="3497659" user="NKA">
		<tag k="loc_name" v="Næbåsen" />
		<tag k="name" v="Nebbåsen" />
		<tag k="place" v="farm" />
		<tag k="ssr:stedsnr" v="621347" />
	</node>
	<node id="9894459057" lat="65.2969019" lon="12.6908467" version="1" timestamp="2022-07-18T05:36:20Z" changeset="123743386" uid="3497659" user="NKA">
		<tag k="alt_name" v="Nordfjellmark" />
		<tag k="name" v="Nordfjellmarka" />
		<tag k="place" v="hamlet" />
		<tag k="ssr:stedsnr" v="925228" />
	</node>
	<node id="9894459058" lat="65.3587806" lon="12.6743361" version="1" timestamp="2022-07-18T05:36:20Z" changeset="123743386" uid="3497659" user="NKA">
		<tag k="alt_name" v="Haugås" />
		<tag k="name" v="Buåsen" />
		<tag k="place" v="farm" />
		<tag k="ssr:stedsnr" v="803325" />
	</node>
	<node id="9894459059" lat="65.3791588" lon="12.675695" version="1" timestamp="2022-07-18T05:36:20Z" changeset="123743386" uid="3497659" user="NKA">
		<tag k="alt_name" v="Langfjord" />
		<tag k="name" v="Langfjorden" />
		<tag k="place" v="hamlet" />
		<tag k="ssr:stedsnr" v="803383" />
	</node>
	<node id="9894459060" lat="65.3912067" lon="12.5935321" version="1" timestamp="2022-07-18T05:36:20Z" changeset="123743386" uid="3497659" user="NKA">
		<tag k="name" v="Bru" />
		<tag k="place" v="hamlet" />
		<tag k="ssr:stedsnr" v="682535" />
	</node>
	<node id="9894459061" lat="65.3739055" lon="12.6521471" version="1" timestamp="2022-07-18T05:36:20Z" changeset="123743386" uid="3497659" user="NKA">
		<tag k="alt_name" v="Vatne" />
		<tag k="loc_name" v="Håkaunvatnet" />
		<tag k="name" v="Vatnet" />
		<tag k="place" v="farm" />
		<tag k="ssr:stedsnr" v="743427" />
	</node>
	<node id="9894459062" lat="65.3834042" lon="12.6394954" version="1" timestamp="2022-07-18T05:36:20Z" changeset="123743386" uid="3497659" user="NKA">
		<tag k="name" v="Graven" />
		<tag k="place" v="hamlet" />
		<tag k="ssr:stedsnr" v="257431" />
	</node>
	<node id="9894459063" lat="65.2678639" lon="12.684511" version="1" timestamp="2022-07-18T05:36:20Z" changeset="123743386" uid="3497659" user="NKA">
		<tag k="name" v="Åsan" />
		<tag k="place" v="farm" />
		<tag k="ssr:stedsnr" v="541289" />
	</node>
	<node id="9894459064" lat="65.2604193" lon="12.7317701" version="1" timestamp="2022-07-18T05:36:20Z" changeset="123743386" uid="3497659" user="NKA">
		<tag k="name" v="Halsenget" />
		<tag k="place" v="farm" />
		<tag k="ssr:stedsnr" v="136990" />
	</node>
	<node id="9894459065" lat="65.2903333" lon="12.6386722" version="1" timestamp="2022-07-18T05:36:20Z" changeset="123743386" uid="3497659" user="NKA">
		<tag k="alt_name" v="Sveli" />
		<tag k="name" v="Svelia" />
		<tag k="place" v="farm" />
		<tag k="ssr:stedsnr" v="257236" />
	</node>
	<node id="9894459066" lat="65.2577621" lon="12.7090227" version="1" timestamp="2022-07-18T05:36:20Z" changeset="123743386" uid="3497659" user="NKA">
		<tag k="name" v="Tosaunet" />
		<tag k="place" v="hamlet" />
		<tag k="ssr:stedsnr" v="136213" />
	</node>
	<node id="9894459067" lat="65.3064639" lon="12.7208056" version="1" timestamp="2022-07-18T05:36:20Z" changeset="123743386" uid="3497659" user="NKA">
		<tag k="alt_name" v="Indremarken" />
		<tag k="name" v="Innermarka" />
		<tag k="place" v="farm" />
		<tag k="ssr:stedsnr" v="136014" />
	</node>
	<node id="9894459068" lat="65.2923241" lon="12.6548982" version="1" timestamp="2022-07-18T05:36:20Z" changeset="123743386" uid="3497659" user="NKA">
		<tag k="name" v="Lillebo" />
		<tag k="place" v="farm" />
		<tag k="ssr:stedsnr" v="56823" />
	</node>
	<node id="9894459069" lat="65.3922724" lon="12.6363372" version="1" timestamp="2022-07-18T05:36:20Z" changeset="123743386" uid="3497659" user="NKA">
		<tag k="name" v="Nordås" />
		<tag k="place" v="farm" />
		<tag k="ssr:stedsnr" v="75496" />
	</node>
	<node id="9894459070" lat="65.4179861" lon="12.6120749" version="1" timestamp="2022-07-18T05:36:20Z" changeset="123743386" uid="3497659" user="NKA">
		<tag k="alt_name" v="Opsjøen" />
		<tag k="name" v="Oppsjøen" />
		<tag k="place" v="hamlet" />
		<tag k="ssr:stedsnr" v="925467" />
	</node>
	<node id="9894459071" lat="65.4037805" lon="12.6417389" version="1" timestamp="2022-07-18T05:36:20Z" changeset="123743386" uid="3497659" user="NKA">
		<tag k="alt_name" v="Granly" />
		<tag k="name" v="Røyrvikneset" />
		<tag k="place" v="farm" />
		<tag k="ssr:stedsnr" v="15513" />
	</node>
	<node id="9894459072" lat="65.2468334" lon="12.707575" version="1" timestamp="2022-07-18T05:36:20Z" changeset="123743386" uid="3497659" user="NKA">
		<tag k="name" v="Hongbarstad" />
		<tag k="place" v="farm" />
		<tag k="ssr:stedsnr" v="864208" />
	</node>
	<node id="9894459073" lat="65.3407973" lon="12.6892944" version="1" timestamp="2022-07-18T05:36:20Z" changeset="123743386" uid="3497659" user="NKA">
		<tag k="name" v="Svartdalen" />
		<tag k="place" v="farm" />
		<tag k="ssr:stedsnr" v="846138" />
	</node>
	<node id="9894459074" lat="65.2609534" lon="12.7151875" version="1" timestamp="2022-07-18T05:36:20Z" changeset="123743386" uid="3497659" user="NKA">
		<tag k="name" v="Fredheim" />
		<tag k="place" v="farm" />
		<tag k="ssr:stedsnr" v="420256" />
	</node>
	<node id="9894459075" lat="65.3886083" lon="12.6142082" version="1" timestamp="2022-07-18T05:36:20Z" changeset="123743386" uid="3497659" user="NKA">
		<tag k="name" v="Minnetun" />
		<tag k="place" v="farm" />
		<tag k="ssr:stedsnr" v="542573" />
	</node>
	<node id="9894459076" lat="65.342584" lon="12.6807777" version="1" timestamp="2022-07-18T05:36:20Z" changeset="123743386" uid="3497659" user="NKA">
		<tag k="name" v="Nerås" />
		<tag k="place" v="hamlet" />
		<tag k="ssr:stedsnr" v="197302" />
	</node>
	<node id="9894459077" lat="65.3012472" lon="12.6784694" version="1" timestamp="2022-07-18T05:36:20Z" changeset="123743386" uid="3497659" user="NKA">
		<tag k="name" v="Bjørkås" />
		<tag k="place" v="isolated_dwelling" />
		<tag k="ssr:stedsnr" v="421322" />
	</node>
	<node id="9894459078" lat="65.3901451" lon="12.629595" version="1" timestamp="2022-07-18T05:36:20Z" changeset="123743386" uid="3497659" user="NKA">
		<tag k="alt_name" v="Dønnesli" />
		<tag k="name" v="Dønneslia" />
		<tag k="place" v="farm" />
		<tag k="ssr:stedsnr" v="135453" />
	</node>
	<node id="9894459079" lat="65.3485568" lon="12.6818473" version="1" timestamp="2022-07-18T05:36:20Z" changeset="123743386" uid="3497659" user="NKA">
		<tag k="alt_name" v="Ås Øvre" />
		<tag k="name" v="Øverås" />
		<tag k="old_name" v="Øvrås" />
		<tag k="place" v="hamlet" />
		<tag k="ssr:stedsnr" v="135349" />
	</node>
	<node id="9894459080" lat="65.3985577" lon="12.6502806" version="1" timestamp="2022-07-18T05:36:20Z" changeset="123743386" uid="3497659" user="NKA">
		<tag k="alt_name" v="Røyrviken" />
		<tag k="name" v="Røyrvikran" />
		<tag k="place" v="farm" />
		<tag k="ssr:stedsnr" v="76503" />
	</node>
	<node id="9894459081" lat="65.3522359" lon="12.6719521" version="1" timestamp="2022-07-18T05:36:20Z" changeset="123743386" uid="3497659" user="NKA">
		<tag k="name" v="Haugen" />
		<tag k="place" v="farm" />
		<tag k="ssr:stedsnr" v="135301" />
	</node>
	<node id="9894459082" lat="65.4165159" lon="12.2051574" version="1" timestamp="2022-07-18T05:36:20Z" changeset="123743386" uid="3497659" user="NKA">
		<tag k="name" v="Rodal" />
		<tag k="place" v="hamlet" />
		<tag k="ssr:stedsnr" v="925074" />
	</node>
	<node id="9894459083" lat="65.3543194" lon="12.6742716" version="1" timestamp="2022-07-18T05:36:20Z" changeset="123743386" uid="3497659" user="NKA">
		<tag k="name" v="Flatås" />
		<tag k="place" v="farm" />
		<tag k="ssr:stedsnr" v="56139" />
	</node>
	<node id="9894459084" lat="65.4045027" lon="12.2692821" version="1" timestamp="2022-07-18T05:36:20Z" changeset="123743386" uid="3497659" user="NKA">
		<tag k="alt_name" v="Kverving" />
		<tag k="name" v="Kvervet" />
		<tag k="place" v="farm" />
		<tag k="ssr:stedsnr" v="560402" />
	</node>
	<node id="9894459085" lat="65.4144049" lon="12.2840788" version="1" timestamp="2022-07-18T05:36:20Z" changeset="123743386" uid="3497659" user="NKA">
		<tag k="name" v="Lidarende" />
		<tag k="place" v="isolated_dwelling" />
		<tag k="ssr:stedsnr" v="196395" />
	</node>
	<node id="9894459086" lat="65.3770473" lon="12.1825125" version="1" timestamp="2022-07-18T05:36:20Z" changeset="123743386" uid="3497659" user="NKA">
		<tag k="name" v="Moen" />
		<tag k="place" v="farm" />
		<tag k="ssr:stedsnr" v="906817" />
	</node>
	<node id="9894459087" lat="65.4105714" lon="12.4698642" version="1" timestamp="2022-07-18T05:36:20Z" changeset="123743386" uid="3497659" user="NKA">
		<tag k="alt_name" v="Nordeng" />
		<tag k="name" v="Nordenga" />
		<tag k="place" v="farm" />
		<tag k="ssr:stedsnr" v="621516" />
	</node>
	<node id="9894459088" lat="65.3776457" lon="12.2056871" version="1" timestamp="2022-07-18T05:36:20Z" changeset="123743386" uid="3497659" user="NKA">
		<tag k="name" v="Strømsås" />
		<tag k="place" v="farm" />
		<tag k="ssr:stedsnr" v="238787" />
	</node>
	<node id="9894459089" lat="65.3939972" lon="12.2602786" version="1" timestamp="2022-07-18T05:36:20Z" changeset="123743386" uid="3497659" user="NKA">
		<tag k="name" v="Nystad" />
		<tag k="place" v="farm" />
		<tag k="ssr:stedsnr" v="500534" />
	</node>
	<node id="9894459090" lat="65.3951959" lon="12.2665143" version="1" timestamp="2022-07-18T05:36:20Z" changeset="123743386" uid="3497659" user="NKA">
		<tag k="name" v="Forsmo" />
		<tag k="place" v="farm" />
		<tag k="ssr:stedsnr" v="844632" />
	</node>
	<node id="9894459091" lat="65.3825207" lon="12.2215806" version="1" timestamp="2022-07-18T05:36:20Z" changeset="123743386" uid="3497659" user="NKA">
		<tag k="name" v="Myrvold" />
		<tag k="place" v="farm" />
		<tag k="ssr:stedsnr" v="299816" />
	</node>
	<node id="9894459092" lat="65.6047295" lon="12.5367279" version="1" timestamp="2022-07-18T05:36:20Z" changeset="123743386" uid="3497659" user="NKA">
		<tag k="name" v="Klavesmarka" />
		<tag k="place" v="farm" />
		<tag k="ssr:stedsnr" v="865902" />
	</node>
	<node id="9894459093" lat="65.2164892" lon="12.7280481" version="1" timestamp="2022-07-18T05:36:20Z" changeset="123743386" uid="3497659" user="NKA">
		<tag k="name" v="Langurda" />
		<tag k="place" v="locality" />
		<tag k="ssr:stedsnr" v="989594" />
	</node>
	<node id="9894459094" lat="65.3018133" lon="12.7156263" version="1" timestamp="2022-07-18T05:36:20Z" changeset="123743386" uid="3497659" user="NKA">
		<tag k="name" v="Markabu" />
		<tag k="place" v="isolated_dwelling" />
		<tag k="ssr:stedsnr" v="541158" />
	</node>
	<node id="9894459095" lat="65.517963" lon="12.5719264" version="1" timestamp="2022-07-18T05:36:20Z" changeset="123743386" uid="3497659" user="NKA">
		<tag k="name" v="Solvang" />
		<tag k="place" v="farm" />
		<tag k="ssr:stedsnr" v="198787" />
	</node>
	<node id="9894459096" lat="65.345275" lon="12.7371249" version="1" timestamp="2022-07-18T05:36:20Z" changeset="123743386" uid="3497659" user="NKA">
		<tag k="name" v="Sanden" />
		<tag k="place" v="isolated_dwelling" />
		<tag k="ssr:stedsnr" v="319117" />
	</node>
	<node id="9894459097" lat="65.3685304" lon="12.6515911" version="1" timestamp="2022-07-18T05:36:20Z" changeset="123743386" uid="3497659" user="NKA">
		<tag k="alt_name" v="Meby" />
		<tag k="name" v="Medby" />
		<tag k="place" v="hamlet" />
		<tag k="ssr:stedsnr" v="440372" />
	</node>
	<node id="9894459098" lat="65.3648977" lon="12.6934402" version="1" timestamp="2022-07-18T05:36:20Z" changeset="123743386" uid="3497659" user="NKA">
		<tag k="alt_name" v="Sjøli" />
		<tag k="name" v="Sjølian" />
		<tag k="place" v="farm" />
		<tag k="ssr:stedsnr" v="15381" />
	</node>
	<node id="9894459099" lat="65.3005528" lon="12.6469194" version="1" timestamp="2022-07-18T05:36:20Z" changeset="123743386" uid="3497659" user="NKA">
		<tag k="name" v="Myrva" />
		<tag k="place" v="farm" />
		<tag k="ssr:stedsnr" v="178838" />
	</node>
	<node id="9894459100" lat="65.3386711" lon="12.7072951" version="1" timestamp="2022-07-18T05:36:20Z" changeset="123743386" uid="3497659" user="NKA">
		<tag k="name" v="Austdalen" />
		<tag k="place" v="farm" />
		<tag k="ssr:stedsnr" v="925306" />
	</node>
	<node id="9894459101" lat="65.3573758" lon="12.6551035" version="1" timestamp="2022-07-18T05:36:20Z" changeset="123743386" uid="3497659" user="NKA">
		<tag k="name" v="Djupaunet" />
		<tag k="place" v="farm" />
		<tag k="ssr:stedsnr" v="864340" />
	</node>
	<node id="9894459102" lat="65.3910558" lon="12.6383506" version="1" timestamp="2022-07-18T05:36:20Z" changeset="123743386" uid="3497659" user="NKA">
		<tag k="name" v="Krekan" />
		<tag k="place" v="farm" />
		<tag k="ssr:stedsnr" v="742440" />
	</node>
	<node id="9894459103" lat="65.3781722" lon="12.657511" version="1" timestamp="2022-07-18T05:36:20Z" changeset="123743386" uid="3497659" user="NKA">
		<tag k="alt_name" v="Aspli" />
		<tag k="name" v="Asplia" />
		<tag k="place" v="farm" />
		<tag k="ssr:stedsnr" v="864453" />
	</node>
	<node id="9894459104" lat="65.2722224" lon="12.6802103" version="1" timestamp="2022-07-18T05:36:20Z" changeset="123743386" uid="3497659" user="NKA">
		<tag k="alt_name" v="Torbergskogen" />
		<tag k="name" v="Sørenskog" />
		<tag k="place" v="hamlet" />
		<tag k="ssr:stedsnr" v="560123" />
	</node>
	<node id="9894459105" lat="65.3515686" lon="12.6894033" version="1" timestamp="2022-07-18T05:36:20Z" changeset="123743386" uid="3497659" user="NKA">
		<tag k="name" v="Olderås" />
		<tag k="place" v="farm" />
		<tag k="ssr:stedsnr" v="845146" />
	</node>
	<node id="9894459106" lat="65.3394444" lon="12.6425418" version="1" timestamp="2022-07-18T05:36:20Z" changeset="123743386" uid="3497659" user="NKA">
		<tag k="alt_name" v="Granli" />
		<tag k="name" v="Granlia" />
		<tag k="place" v="isolated_dwelling" />
		<tag k="ssr:stedsnr" v="318356" />
	</node>
	<node id="9894459107" lat="65.2950917" lon="12.6079945" version="1" timestamp="2022-07-18T05:36:20Z" changeset="123743386" uid="3497659" user="NKA">
		<tag k="name" v="Damman" />
		<tag k="place" v="farm" />
		<tag k="ssr:stedsnr" v="560204" />
	</node>
	<node id="9894459108" lat="65.3853505" lon="12.6364912" version="1" timestamp="2022-07-18T05:36:20Z" changeset="123743386" uid="3497659" user="NKA">
		<tag k="name" v="Utheim" />
		<tag k="place" v="farm" />
		<tag k="ssr:stedsnr" v="360600" />
	</node>
	<node id="9894459109" lat="65.3932817" lon="12.6102587" version="1" timestamp="2022-07-18T05:36:20Z" changeset="123743386" uid="3497659" user="NKA">
		<tag k="name" v="Bruaunet" />
		<tag k="place" v="farm" />
		<tag k="ssr:stedsnr" v="621528" />
	</node>
	<node id="9894459110" lat="65.424175" lon="12.0718584" version="1" timestamp="2022-07-18T05:36:20Z" changeset="123743386" uid="3497659" user="NKA">
		<tag k="name" v="Skardet" />
		<tag k="place" v="farm" />
		<tag k="ssr:stedsnr" v="560018" />
	</node>
	<node id="9894459111" lat="65.4333028" lon="12.6276973" version="1" timestamp="2022-07-18T05:36:20Z" changeset="123743386" uid="3497659" user="NKA">
		<tag k="alt_name" v="Østre Nes" />
		<tag k="loc_name" v="Austerneset" />
		<tag k="name" v="Austreneset" />
		<tag k="place" v="farm" />
		<tag k="ssr:stedsnr" v="621391" />
	</node>
	<node id="9894459112" lat="65.2984111" lon="12.6461666" version="1" timestamp="2022-07-18T05:36:20Z" changeset="123743386" uid="3497659" user="NKA">
		<tag k="alt_name" v="Skogmo" />
		<tag k="name" v="Skogmoen" />
		<tag k="place" v="farm" />
		<tag k="ssr:stedsnr" v="743236" />
	</node>
	<node id="9894459113" lat="65.44515" lon="12.5468721" version="1" timestamp="2022-07-18T05:36:20Z" changeset="123743386" uid="3497659" user="NKA">
		<tag k="alt_name" v="Dyrnes" />
		<tag k="name" v="Dyrneset" />
		<tag k="place" v="hamlet" />
		<tag k="ssr:stedsnr" v="743485" />
	</node>
	<node id="9894459114" lat="65.3174447" lon="12.6438243" version="1" timestamp="2022-07-18T05:36:20Z" changeset="123743386" uid="3497659" user="NKA">
		<tag k="name" v="Lyngås" />
		<tag k="place" v="farm" />
		<tag k="ssr:stedsnr" v="724807" />
	</node>
	<node id="9894459115" lat="65.3357889" lon="12.7053251" version="1" timestamp="2022-07-18T05:36:20Z" changeset="123743386" uid="3497659" user="NKA">
		<tag k="alt_name" v="Grønlienga" />
		<tag k="name" v="Grønlienget" />
		<tag k="place" v="farm" />
		<tag k="ssr:stedsnr" v="743302" />
	</node>
	<node id="9894459116" lat="65.3512736" lon="12.6831674" version="1" timestamp="2022-07-18T05:36:20Z" changeset="123743386" uid="3497659" user="NKA">
		<tag k="name" v="Bjerkhaug" />
		<tag k="place" v="farm" />
		<tag k="ssr:stedsnr" v="663133" />
	</node>
	<node id="9894466917" lat="65.349717" lon="12.6650417" version="1" timestamp="2022-07-18T05:36:20Z" changeset="123743386" uid="3497659" user="NKA">
		<tag k="alt_name" v="Haugen" />
		<tag k="name" v="Skardet" />
		<tag k="place" v="farm" />
		<tag k="ssr:stedsnr" v="682398" />
	</node>
	<node id="9894466918" lat="65.3163971" lon="12.644282" version="1" timestamp="2022-07-18T05:36:20Z" changeset="123743386" uid="3497659" user="NKA">
		<tag k="name" v="Granhaug" />
		<tag k="place" v="hamlet" />
		<tag k="ssr:stedsnr" v="500335" />
	</node>
	<node id="9894466919" lat="65.457492" lon="12.490255" version="1" timestamp="2022-07-18T05:36:20Z" changeset="123743386" uid="3497659" user="NKA">
		<tag k="alt_name" v="Drogsøy" />
		<tag k="name" v="Drogsøya" />
		<tag k="place" v="farm" />
		<tag k="ssr:stedsnr" v="378452" />
	</node>
	<node id="9894466920" lat="65.3961583" lon="12.6584278" version="1" timestamp="2022-07-18T05:36:20Z" changeset="123743386" uid="3497659" user="NKA">
		<tag k="name" v="Småvollan" />
		<tag k="place" v="farm" />
		<tag k="ssr:stedsnr" v="440496" />
	</node>
	<node id="9894466921" lat="65.2895639" lon="12.6543584" version="1" timestamp="2022-07-18T05:36:20Z" changeset="123743386" uid="3497659" user="NKA">
		<tag k="name" v="Veitran" />
		<tag k="place" v="farm" />
		<tag k="ssr:stedsnr" v="299842" />
	</node>
	<node id="9894466922" lat="65.3875034" lon="12.6337905" version="1" timestamp="2022-07-18T05:36:20Z" changeset="123743386" uid="3497659" user="NKA">
		<tag k="name" v="Bråten" />
		<tag k="place" v="farm" />
		<tag k="ssr:stedsnr" v="360570" />
	</node>
	<node id="9894466923" lat="65.4350223" lon="12.5949057" version="1" timestamp="2022-07-18T05:36:20Z" changeset="123743386" uid="3497659" user="NKA">
		<tag k="name" v="Vasskroken" />
		<tag k="place" v="farm" />
		<tag k="ssr:stedsnr" v="257455" />
	</node>
	<node id="9894466924" lat="65.2945502" lon="12.6881329" version="1" timestamp="2022-07-18T05:36:20Z" changeset="123743386" uid="3497659" user="NKA">
		<tag k="name" v="Myrstad" />
		<tag k="place" v="farm" />
		<tag k="ssr:stedsnr" v="299171" />
	</node>
	<node id="9894466925" lat="65.2779277" lon="12.5942834" version="1" timestamp="2022-07-18T05:36:20Z" changeset="123743386" uid="3497659" user="NKA">
		<tag k="name" v="Lislenga" />
		<tag k="place" v="farm" />
		<tag k="ssr:stedsnr" v="136271" />
	</node>
	<node id="9894466926" lat="65.3928917" lon="12.6113639" version="1" timestamp="2022-07-18T05:36:20Z" changeset="123743386" uid="3497659" user="NKA">
		<tag k="alt_name" v="Straum" />
		<tag k="name" v="Strøm" />
		<tag k="place" v="farm" />
		<tag k="ssr:stedsnr" v="135460" />
	</node>
	<node id="9894466927" lat="65.2696277" lon="12.6345222" version="1" timestamp="2022-07-18T05:36:20Z" changeset="123743386" uid="3497659" user="NKA">
		<tag k="alt_name" v="Kjønnes" />
		<tag k="loc_name" v="Tjønneset" />
		<tag k="name" v="Tjørnneset" />
		<tag k="place" v="farm" />
		<tag k="ssr:stedsnr" v="76166" />
	</node>
	<node id="9894466928" lat="65.2497389" lon="12.7496" version="1" timestamp="2022-07-18T05:36:20Z" changeset="123743386" uid="3497659" user="NKA">
		<tag k="alt_name" v="Sommersetmoen" />
		<tag k="name" v="Sommarsetmoen" />
		<tag k="place" v="isolated_dwelling" />
		<tag k="ssr:stedsnr" v="75594" />
	</node>
	<node id="9894466929" lat="65.3208222" lon="12.6793639" version="1" timestamp="2022-07-18T05:36:20Z" changeset="123743386" uid="3497659" user="NKA">
		<tag k="alt_name" v="Flatmovassbotnet" />
		<tag k="name" v="Flatmo" />
		<tag k="place" v="farm" />
		<tag k="ssr:stedsnr" v="15332" />
	</node>
	<node id="9894466930" lat="65.3720612" lon="12.6796806" version="1" timestamp="2022-07-18T05:36:20Z" changeset="123743386" uid="3497659" user="NKA">
		<tag k="alt_name" v="Haugli" />
		<tag k="name" v="Hauglia" />
		<tag k="place" v="farm" />
		<tag k="ssr:stedsnr" v="15465" />
	</node>
	<node id="9894466931" lat="65.5041756" lon="12.4076855" version="1" timestamp="2022-07-18T05:36:20Z" changeset="123743386" uid="3497659" user="NKA">
		<tag k="name" v="Kjellsand" />
		<tag k="place" v="farm" />
		<tag k="ssr:stedsnr" v="925839" />
	</node>
	<node id="9894466932" lat="65.5004151" lon="12.2570788" version="1" timestamp="2022-07-18T05:36:20Z" changeset="123743386" uid="3497659" user="NKA">
		<tag k="name" v="Mosseim" />
		<tag k="place" v="hamlet" />
		<tag k="ssr:stedsnr" v="977037" />
	</node>
	<node id="9894466933" lat="65.5739114" lon="12.3098032" version="1" timestamp="2022-07-18T05:36:20Z" changeset="123743386" uid="3497659" user="NKA">
		<tag k="name" v="Åsheim" />
		<tag k="place" v="farm" />
		<tag k="ssr:stedsnr" v="744895" />
	</node>
	<node id="9894466934" lat="65.5442344" lon="12.2625344" version="1" timestamp="2022-07-18T05:36:20Z" changeset="123743386" uid="3497659" user="NKA">
		<tag k="name" v="Nygård" />
		<tag k="place" v="farm" />
		<tag k="ssr:stedsnr" v="781578" />
	</node>
	<node id="9894466935" lat="65.5215949" lon="12.2538105" version="1" timestamp="2022-07-18T05:36:20Z" changeset="123743386" uid="3497659" user="NKA">
		<tag k="name" v="Tilrem markedsplass" />
		<tag k="place" v="locality" />
		<tag k="ssr:stedsnr" v="722150" />
	</node>
	<node id="9894466936" lat="65.5440278" lon="12.2629278" version="1" timestamp="2022-07-18T05:36:20Z" changeset="123743386" uid="3497659" user="NKA">
		<tag k="name" v="Indretuva" />
		<tag k="place" v="farm" />
		<tag k="ssr:stedsnr" v="379947" />
	</node>
	<node id="9894466937" lat="65.3880272" lon="12.1818076" version="1" timestamp="2022-07-18T05:36:20Z" changeset="123743386" uid="3497659" user="NKA">
		<tag k="name" v="Lia" />
		<tag k="place" v="farm" />
		<tag k="ssr:stedsnr" v="500237" />
	</node>
	<node id="9894466938" lat="65.3785809" lon="12.2034808" version="1" timestamp="2022-07-18T05:36:20Z" changeset="123743386" uid="3497659" user="NKA">
		<tag k="name" v="Sletten" />
		<tag k="place" v="farm" />
		<tag k="ssr:stedsnr" v="621226" />
	</node>
	<node id="9894466939" lat="65.5441982" lon="12.2509121" version="1" timestamp="2022-07-18T05:36:20Z" changeset="123743386" uid="3497659" user="NKA">
		<tag k="name" v="Westerheim" />
		<tag k="place" v="farm" />
		<tag k="ssr:stedsnr" v="721556" />
	</node>
	<node id="9894466940" lat="65.3818597" lon="12.220087" version="1" timestamp="2022-07-18T05:36:20Z" changeset="123743386" uid="3497659" user="NKA">
		<tag k="name" v="Engen" />
		<tag k="place" v="farm" />
		<tag k="ssr:stedsnr" v="845834" />
	</node>
	<node id="9894466941" lat="65.5065476" lon="12.1274579" version="1" timestamp="2022-07-18T05:36:20Z" changeset="123743386" uid="3497659" user="NKA">
		<tag k="alt_name" v="Bakkan" />
		<tag k="name" v="Stortorgnes" />
		<tag k="place" v="farm" />
		<tag k="ssr:stedsnr" v="222627" />
	</node>
	<node id="9894466942" lat="65.5220888" lon="12.2750918" version="1" timestamp="2022-07-18T05:36:20Z" changeset="123743386" uid="3497659" user="NKA">
		<tag k="name" v="Floten" />
		<tag k="place" v="farm" />
		<tag k="ssr:stedsnr" v="297138" />
	</node>
	<node id="9894466943" lat="65.4841315" lon="12.1010918" version="1" timestamp="2022-07-18T05:36:20Z" changeset="123743386" uid="3497659" user="NKA">
		<tag k="name" v="Åsberg" />
		<tag k="place" v="farm" />
		<tag k="ssr:stedsnr" v="906399" />
	</node>
	<node id="9894466944" lat="65.4005919" lon="12.0259662" version="1" timestamp="2022-07-18T05:36:20Z" changeset="123743386" uid="3497659" user="NKA">
		<tag k="name" v="Helløya" />
		<tag k="place" v="locality" />
		<tag k="ssr:stedsnr" v="989622" />
	</node>
	<node id="9894466945" lat="65.4745732" lon="12.367601" version="1" timestamp="2022-07-18T05:36:20Z" changeset="123743386" uid="3497659" user="NKA">
		<tag k="name" v="Plukkdalen" />
		<tag k="place" v="farm" />
		<tag k="ssr:stedsnr" v="904486" />
	</node>
	<node id="9894466946" lat="65.5005759" lon="12.3878302" version="1" timestamp="2022-07-18T05:36:20Z" changeset="123743386" uid="3497659" user="NKA">
		<tag k="name" v="Gåslia" />
		<tag k="place" v="isolated_dwelling" />
		<tag k="ssr:stedsnr" v="500826" />
	</node>
	<node id="9894466947" lat="65.4727112" lon="12.080339" version="1" timestamp="2022-07-18T05:36:20Z" changeset="123743386" uid="3497659" user="NKA">
		<tag k="alt_name" v="Utvik" />
		<tag k="name" v="Utvika" />
		<tag k="place" v="farm" />
		<tag k="ssr:stedsnr" v="742069" />
	</node>
	<node id="9894466948" lat="65.3770528" lon="12.2063666" version="1" timestamp="2022-07-18T05:36:20Z" changeset="123743386" uid="3497659" user="NKA">
		<tag k="name" v="Åsheim" />
		<tag k="place" v="farm" />
		<tag k="ssr:stedsnr" v="238785" />
	</node>
	<node id="9894466949" lat="65.5433448" lon="12.0966856" version="1" timestamp="2022-07-18T05:36:20Z" changeset="123743386" uid="3497659" user="NKA">
		<tag k="name" v="Varholmen" />
		<tag k="place" v="hamlet" />
		<tag k="ssr:stedsnr" v="325967" />
	</node>
	<node id="9894466950" lat="65.5080416" lon="12.3996056" version="1" timestamp="2022-07-18T05:36:20Z" changeset="123743386" uid="3497659" user="NKA">
		<tag k="name" v="Nævervik" />
		<tag k="place" v="farm" />
		<tag k="ssr:stedsnr" v="58327" />
	</node>
	<node id="9894466951" lat="65.511152" lon="12.3127506" version="1" timestamp="2022-07-18T05:36:20Z" changeset="123743386" uid="3497659" user="NKA">
		<tag k="name" v="Heståsen" />
		<tag k="place" v="farm" />
		<tag k="ssr:stedsnr" v="16793" />
	</node>
	<node id="9894466952" lat="65.5457639" lon="12.2540416" version="1" timestamp="2022-07-18T05:36:20Z" changeset="123743386" uid="3497659" user="NKA">
		<tag k="name" v="Ytretuva" />
		<tag k="place" v="farm" />
		<tag k="ssr:stedsnr" v="76962" />
	</node>
	<node id="9894466953" lat="65.4632227" lon="12.205008" version="1" timestamp="2022-07-18T05:36:20Z" changeset="123743386" uid="3497659" user="NKA">
		<tag k="name" v="Farmen" />
		<tag k="place" v="neighbourhood" />
		<tag k="ssr:stedsnr" v="420573" />
	</node>
	<node id="9894466954" lat="65.5056008" lon="12.2418318" version="1" timestamp="2022-07-18T05:36:20Z" changeset="123743386" uid="3497659" user="NKA">
		<tag k="name" v="Vikran" />
		<tag k="place" v="hamlet" />
		<tag k="ssr:stedsnr" v="16785" />
	</node>
	<node id="9894466955" lat="65.3916139" lon="12.2615277" version="1" timestamp="2022-07-18T05:36:20Z" changeset="123743386" uid="3497659" user="NKA">
		<tag k="name" v="Sørås" />
		<tag k="place" v="farm" />
		<tag k="ssr:stedsnr" v="419611" />
	</node>
	<node id="9894466956" lat="65.4743519" lon="12.3459312" version="1" timestamp="2022-07-18T05:36:20Z" changeset="123743386" uid="3497659" user="NKA">
		<tag k="name" v="Nygård" />
		<tag k="place" v="farm" />
		<tag k="ssr:stedsnr" v="419616" />
	</node>
	<node id="9894466957" lat="65.4930078" lon="12.2479885" version="1" timestamp="2022-07-18T05:36:20Z" changeset="123743386" uid="3497659" user="NKA">
		<tag k="name" v="Slettaunet" />
		<tag k="place" v="farm" />
		<tag k="ssr:stedsnr" v="378277" />
	</node>
	<node id="9894466958" lat="65.5085639" lon="12.3221388" version="1" timestamp="2022-07-18T05:36:20Z" changeset="123743386" uid="3497659" user="NKA">
		<tag k="name" v="Bakken" />
		<tag k="place" v="farm" />
		<tag k="ssr:stedsnr" v="622782" />
	</node>
	<node id="9894466959" lat="65.3146" lon="12.5968417" version="1" timestamp="2022-07-18T05:36:20Z" changeset="123743386" uid="3497659" user="NKA">
		<tag k="name" v="Heia" />
		<tag k="place" v="farm" />
		<tag k="ssr:stedsnr" v="925325" />
	</node>
	<node id="9894466960" lat="65.3712384" lon="12.4717147" version="1" timestamp="2022-07-18T05:36:20Z" changeset="123743386" uid="3497659" user="NKA">
		<tag k="name" v="Hopen" />
		<tag k="place" v="farm" />
		<tag k="ssr:stedsnr" v="864467" />
	</node>
	<node id="9894466961" lat="65.4158676" lon="12.4364449" version="1" timestamp="2022-07-18T05:36:20Z" changeset="123743386" uid="3497659" user="NKA">
		<tag k="alt_name" v="Yttereng" />
		<tag k="loc_name" v="Ytterenga" />
		<tag k="name" v="Ytrenga" />
		<tag k="place" v="farm" />
		<tag k="ssr:stedsnr" v="14347" />
	</node>
	<node id="9894466962" lat="65.5013544" lon="12.3246518" version="1" timestamp="2022-07-18T05:36:20Z" changeset="123743386" uid="3497659" user="NKA">
		<tag k="name" v="Svartåsen" />
		<tag k="place" v="isolated_dwelling" />
		<tag k="ssr:stedsnr" v="903170" />
	</node>
	<node id="9894466963" lat="65.5150768" lon="12.3266518" version="1" timestamp="2022-07-18T05:36:20Z" changeset="123743386" uid="3497659" user="NKA">
		<tag k="alt_name" v="Skårvoll" />
		<tag k="name" v="Skorvollan" />
		<tag k="place" v="farm" />
		<tag k="ssr:stedsnr" v="926800" />
	</node>
	<node id="9894466964" lat="65.5408915" lon="12.2561284" version="1" timestamp="2022-07-18T05:36:20Z" changeset="123743386" uid="3497659" user="NKA">
		<tag k="name" v="Lundssjøen" />
		<tag k="place" v="locality" />
		<tag k="ssr:stedsnr" v="804966" />
	</node>
	<node id="9894466965" lat="65.5036355" lon="12.258849" version="1" timestamp="2022-07-18T05:36:20Z" changeset="123743386" uid="3497659" user="NKA">
		<tag k="name" v="Skjefstad" />
		<tag k="place" v="farm" />
		<tag k="ssr:stedsnr" v="903253" />
	</node>
	<node id="9894466966" lat="65.5173202" lon="12.3678909" version="1" timestamp="2022-07-18T05:36:20Z" changeset="123743386" uid="3497659" user="NKA">
		<tag k="name" v="Eida" />
		<tag k="place" v="hamlet" />
		<tag k="ssr:stedsnr" v="709754" />
	</node>
	<node id="9894466967" lat="65.4775686" lon="12.1659253" version="1" timestamp="2022-07-18T05:36:20Z" changeset="123743386" uid="3497659" user="NKA">
		<tag k="alt_name" v="Sjåvik" />
		<tag k="name" v="Skjåvika" />
		<tag k="place" v="farm" />
		<tag k="ssr:stedsnr" v="742077" />
	</node>
	<node id="9894466968" lat="65.4904795" lon="12.2848893" version="1" timestamp="2022-07-18T05:36:20Z" changeset="123743386" uid="3497659" user="NKA">
		<tag k="alt_name" v="Trælvik" />
		<tag k="name" v="Trælvika" />
		<tag k="place" v="farm" />
		<tag k="ssr:stedsnr" v="439259" />
	</node>
	<node id="9894466969" lat="65.5096555" lon="12.3018695" version="1" timestamp="2022-07-18T05:36:20Z" changeset="123743386" uid="3497659" user="NKA">
		<tag k="name" v="Burengan" />
		<tag k="place" v="farm" />
		<tag k="ssr:stedsnr" v="683775" />
	</node>
	<node id="9894466970" lat="65.5271389" lon="12.3518721" version="1" timestamp="2022-07-18T05:36:20Z" changeset="123743386" uid="3497659" user="NKA">
		<tag k="name" v="Eida" />
		<tag k="place" v="farm" />
		<tag k="ssr:stedsnr" v="102766" />
	</node>
	<node id="9894466971" lat="65.3773862" lon="12.1885206" version="1" timestamp="2022-07-18T05:36:20Z" changeset="123743386" uid="3497659" user="NKA">
		<tag k="name" v="Møretun" />
		<tag k="place" v="farm" />
		<tag k="ssr:stedsnr" v="117804" />
	</node>
	<node id="9894466972" lat="65.4820555" lon="12.3671389" version="1" timestamp="2022-07-18T05:36:20Z" changeset="123743386" uid="3497659" user="NKA">
		<tag k="name" v="Ytterskomo" />
		<tag k="place" v="farm" />
		<tag k="ssr:stedsnr" v="223767" />
	</node>
	<node id="9894466973" lat="65.43857" lon="12.2220305" version="1" timestamp="2022-07-18T05:36:20Z" changeset="123743386" uid="3497659" user="NKA">
		<tag k="alt_name" v="Svenøy" />
		<tag k="name" v="Svennøya" />
		<tag k="place" v="farm" />
		<tag k="ssr:stedsnr" v="989617" />
	</node>
	<node id="9894466974" lat="65.3775178" lon="12.2044341" version="1" timestamp="2022-07-18T05:36:20Z" changeset="123743386" uid="3497659" user="NKA">
		<tag k="name" v="Strømsnes" />
		<tag k="place" v="hamlet" />
		<tag k="ssr:stedsnr" v="24862" />
	</node>
	<node id="9894466975" lat="65.4700128" lon="12.2038074" version="1" timestamp="2022-07-18T05:36:20Z" changeset="123743386" uid="3497659" user="NKA">
		<tag k="name" v="Torvet" />
		<tag k="place" v="square" />
		<tag k="ssr:stedsnr" v="785495" />
	</node>
	<node id="9894466976" lat="65.4864254" lon="12.0709935" version="1" timestamp="2022-07-18T05:36:20Z" changeset="123743386" uid="3497659" user="NKA">
		<tag k="name" v="Bolværet" />
		<tag k="place" v="isolated_dwelling" />
		<tag k="ssr:stedsnr" v="976999" />
	</node>
	<node id="9894466977" lat="65.4114685" lon="12.2106226" version="1" timestamp="2022-07-18T05:36:20Z" changeset="123743386" uid="3497659" user="NKA">
		<tag k="name" v="Elvemo" />
		<tag k="place" v="farm" />
		<tag k="ssr:stedsnr" v="723716" />
	</node>
	<node id="9894466978" lat="65.5111555" lon="12.1340806" version="1" timestamp="2022-07-18T05:36:20Z" changeset="123743386" uid="3497659" user="NKA">
		<tag k="name" v="Kjerringberget" />
		<tag k="place" v="farm" />
		<tag k="ssr:stedsnr" v="744148" />
	</node>
	<node id="9894466979" lat="65.4869556" lon="12.1071389" version="1" timestamp="2022-07-18T05:36:20Z" changeset="123743386" uid="3497659" user="NKA">
		<tag k="name" v="Stranda" />
		<tag k="place" v="farm" />
		<tag k="ssr:stedsnr" v="681068" />
	</node>
	<node id="9894466980" lat="65.4656231" lon="12.0881929" version="1" timestamp="2022-07-18T05:36:20Z" changeset="123743386" uid="3497659" user="NKA">
		<tag k="alt_name" v="Nordaunet;Nord Aunet" />
		<tag k="name" v="Aunet" />
		<tag k="place" v="hamlet" />
		<tag k="ssr:stedsnr" v="682104" />
	</node>
	<node id="9894466981" lat="65.4288019" lon="12.1087399" version="1" timestamp="2022-07-18T05:36:20Z" changeset="123743386" uid="3497659" user="NKA">
		<tag k="name" v="Myrset" />
		<tag k="place" v="hamlet" />
		<tag k="ssr:stedsnr" v="500043" />
	</node>
	<node id="9894466982" lat="65.4110492" lon="12.0772208" version="1" timestamp="2022-07-18T05:36:20Z" changeset="123743386" uid="3497659" user="NKA">
		<tag k="name" v="Moan" />
		<tag k="place" v="farm" />
		<tag k="ssr:stedsnr" v="299933" />
	</node>
	<node id="9894466983" lat="65.4110932" lon="12.0997822" version="1" timestamp="2022-07-18T05:36:20Z" changeset="123743386" uid="3497659" user="NKA">
		<tag k="name" v="Inner-Torget" />
		<tag k="place" v="hamlet" />
		<tag k="ssr:stedsnr" v="318058" />
	</node>
	<node id="9894466984" lat="65.4672375" lon="12.0881166" version="1" timestamp="2022-07-18T05:36:20Z" changeset="123743386" uid="3497659" user="NKA">
		<tag k="name" v="Nystad" />
		<tag k="place" v="isolated_dwelling" />
		<tag k="ssr:stedsnr" v="297266" />
	</node>
	<node id="9894466985" lat="65.4848725" lon="12.102949" version="1" timestamp="2022-07-18T05:36:20Z" changeset="123743386" uid="3497659" user="NKA">
		<tag k="name" v="Åsheim" />
		<tag k="place" v="farm" />
		<tag k="ssr:stedsnr" v="299415" />
	</node>
	<node id="9894466986" lat="65.4777667" lon="12.1536917" version="1" timestamp="2022-07-18T05:36:20Z" changeset="123743386" uid="3497659" user="NKA">
		<tag k="name" v="Lauvvika" />
		<tag k="place" v="farm" />
		<tag k="ssr:stedsnr" v="135067" />
	</node>
	<node id="9894466987" lat="65.5337611" lon="12.1533389" version="1" timestamp="2022-07-18T05:36:20Z" changeset="123743386" uid="3497659" user="NKA">
		<tag k="name" v="Sørslåttøya" />
		<tag k="place" v="farm" />
		<tag k="ssr:stedsnr" v="162760" />
	</node>
	<node id="9894466988" lat="65.4628916" lon="12.2014741" version="1" timestamp="2022-07-18T05:36:20Z" changeset="123743386" uid="3497659" user="NKA">
		<tag k="name" v="Tautra" />
		<tag k="place" v="suburb" />
		<tag k="ssr:stedsnr" v="81600" />
	</node>
	<node id="9894466989" lat="65.4577813" lon="12.2049319" version="1" timestamp="2022-07-18T05:36:20Z" changeset="123743386" uid="3497659" user="NKA">
		<tag k="name" v="Vårtun" />
		<tag k="place" v="farm" />
		<tag k="ssr:stedsnr" v="57887" />
	</node>
	<node id="9894466990" lat="65.4542166" lon="12.1973139" version="1" timestamp="2022-07-18T05:36:20Z" changeset="123743386" uid="3497659" user="NKA">
		<tag k="alt_name" v="Hovøy søndre" />
		<tag k="name" v="Hauøya" />
		<tag k="place" v="farm" />
		<tag k="ssr:stedsnr" v="378104" />
	</node>
	<node id="9894466991" lat="65.4238305" lon="12.0899556" version="1" timestamp="2022-07-18T05:36:20Z" changeset="123743386" uid="3497659" user="NKA">
		<tag k="name" v="Moen" />
		<tag k="place" v="farm" />
		<tag k="ssr:stedsnr" v="75014" />
	</node>
	<node id="9894466992" lat="65.5008909" lon="12.1151516" version="1" timestamp="2022-07-18T05:36:20Z" changeset="123743386" uid="3497659" user="NKA">
		<tag k="alt_name" v="Heia" />
		<tag k="name" v="Stortorgnes" />
		<tag k="place" v="farm" />
		<tag k="ssr:stedsnr" v="283734" />
	</node>
	<node id="9894466993" lat="65.5522833" lon="12.240275" version="1" timestamp="2022-07-18T05:36:20Z" changeset="123743386" uid="3497659" user="NKA">
		<tag k="name" v="Einvolden" />
		<tag k="place" v="farm" />
		<tag k="ssr:stedsnr" v="236746" />
	</node>
	<node id="9894466994" lat="65.5514875" lon="12.236601" version="1" timestamp="2022-07-18T05:36:20Z" changeset="123743386" uid="3497659" user="NKA">
		<tag k="alt_name" v="Havnvik" />
		<tag k="name" v="Hamnvika" />
		<tag k="place" v="farm" />
		<tag k="ssr:stedsnr" v="925991" />
	</node>
	<node id="9894466995" lat="65.5568194" lon="12.2477056" version="1" timestamp="2022-07-18T05:36:20Z" changeset="123743386" uid="3497659" user="NKA">
		<tag k="name" v="Nordodden" />
		<tag k="place" v="farm" />
		<tag k="ssr:stedsnr" v="500988" />
	</node>
	<node id="9894466996" lat="65.5823659" lon="12.2836137" version="1" timestamp="2022-07-18T05:36:20Z" changeset="123743386" uid="3497659" user="NKA">
		<tag k="alt_name" v="Soltun" />
		<tag k="name" v="Sletten" />
		<tag k="place" v="farm" />
		<tag k="ssr:stedsnr" v="76913" />
	</node>
	<node id="9894466997" lat="65.3177028" lon="12.9111418" version="1" timestamp="2022-07-18T05:36:20Z" changeset="123743386" uid="3497659" user="NKA">
		<tag k="name" v="Forvika" />
		<tag k="place" v="hamlet" />
		<tag k="ssr:stedsnr" v="197019" />
	</node>
	<node id="9894466998" lat="65.5582063" lon="12.2957844" version="1" timestamp="2022-07-18T05:36:20Z" changeset="123743386" uid="3497659" user="NKA">
		<tag k="alt_name" v="Valberg" />
		<tag k="name" v="Valberget" />
		<tag k="place" v="farm" />
		<tag k="ssr:stedsnr" v="621999" />
	</node>
	<node id="9894466999" lat="65.3323511" lon="12.9535827" version="1" timestamp="2022-07-18T05:36:20Z" changeset="123743386" uid="3497659" user="NKA">
		<tag k="name" v="Aunenget" />
		<tag k="place" v="farm" />
		<tag k="ssr:stedsnr" v="54431" />
	</node>
	<node id="9894467000" lat="65.3306315" lon="12.9680319" version="1" timestamp="2022-07-18T05:36:20Z" changeset="123743386" uid="3497659" user="NKA">
		<tag k="name" v="Granbakkan" />
		<tag k="place" v="farm" />
		<tag k="ssr:stedsnr" v="175400" />
	</node>
	<node id="9894467001" lat="65.2680914" lon="12.869374" version="1" timestamp="2022-07-18T05:36:20Z" changeset="123743386" uid="3497659" user="NKA">
		<tag k="name" v="Kalklaven" />
		<tag k="place" v="locality" />
		<tag k="ssr:stedsnr" v="989582" />
	</node>
	<node id="9894467002" lat="65.3248053" lon="12.968518" version="1" timestamp="2022-07-18T05:36:20Z" changeset="123743386" uid="3497659" user="NKA">
		<tag k="name" v="Bakken" />
		<tag k="place" v="farm" />
		<tag k="ssr:stedsnr" v="963634" />
	</node>
	<node id="9894467003" lat="65.3304915" lon="12.9603191" version="1" timestamp="2022-07-18T05:36:20Z" changeset="123743386" uid="3497659" user="NKA">
		<tag k="name" v="Tverålia" />
		<tag k="place" v="farm" />
		<tag k="ssr:stedsnr" v="903400" />
	</node>
	<node id="9894467004" lat="65.332325" lon="12.8801778" version="1" timestamp="2022-07-18T05:36:20Z" changeset="123743386" uid="3497659" user="NKA">
		<tag k="name" v="Leiråvatnet" />
		<tag k="place" v="isolated_dwelling" />
		<tag k="ssr:stedsnr" v="926118" />
	</node>
	<node id="9894467005" lat="65.2647334" lon="12.8117721" version="1" timestamp="2022-07-18T05:36:20Z" changeset="123743386" uid="3497659" user="NKA">
		<tag k="alt_name" v="Steinjord" />
		<tag k="name" v="Hesthagen" />
		<tag k="place" v="farm" />
		<tag k="ssr:stedsnr" v="743997" />
	</node>
	<node id="9894467006" lat="65.3033444" lon="12.9320388" version="1" timestamp="2022-07-18T05:36:20Z" changeset="123743386" uid="3497659" user="NKA">
		<tag k="historic" v="shieling" />
		<tag k="name" v="Tjeldvikseteren" />
		<tag k="place" v="isolated_dwelling" />
		<tag k="ssr:stedsnr" v="804050" />
	</node>
	<node id="9894467007" lat="65.3551188" lon="12.7187223" version="1" timestamp="2022-07-18T05:36:20Z" changeset="123743386" uid="3497659" user="NKA">
		<tag k="alt_name" v="Elven" />
		<tag k="name" v="Elva" />
		<tag k="place" v="locality" />
		<tag k="ssr:stedsnr" v="683098" />
	</node>
	<node id="9894467008" lat="65.3022361" lon="12.874325" version="1" timestamp="2022-07-18T05:36:20Z" changeset="123743386" uid="3497659" user="NKA">
		<tag k="name" v="Kråkhaugen" />
		<tag k="place" v="farm" />
		<tag k="ssr:stedsnr" v="743059" />
	</node>
	<node id="9894467009" lat="65.3186349" lon="12.7506508" version="1" timestamp="2022-07-18T05:36:20Z" changeset="123743386" uid="3497659" user="NKA">
		<tag k="name" v="Juvatnet" />
		<tag k="place" v="locality" />
		<tag k="ssr:stedsnr" v="501007" />
	</node>
	<node id="9894467010" lat="65.4382861" lon="12.7802278" version="1" timestamp="2022-07-18T05:36:20Z" changeset="123743386" uid="3497659" user="NKA">
		<tag k="loc_name" v="Kolbeinsfjellet;Titingsdalen" />
		<tag k="name" v="Kolbeinfjellet" />
		<tag k="place" v="locality" />
		<tag k="ssr:stedsnr" v="665327" />
	</node>
	<node id="9894467011" lat="65.2541508" lon="12.7902018" version="1" timestamp="2022-07-18T05:36:20Z" changeset="123743386" uid="3497659" user="NKA">
		<tag k="name" v="Lande" />
		<tag k="place" v="hamlet" />
		<tag k="ssr:stedsnr" v="440992" />
	</node>
	<node id="9894467012" lat="65.2622944" lon="12.7307527" version="1" timestamp="2022-07-18T05:36:20Z" changeset="123743386" uid="3497659" user="NKA">
		<tag k="name" v="Trøen" />
		<tag k="place" v="farm" />
		<tag k="ssr:stedsnr" v="440995" />
	</node>
	<node id="9894467013" lat="65.3470361" lon="12.7271805" version="1" timestamp="2022-07-18T05:36:20Z" changeset="123743386" uid="3497659" user="NKA">
		<tag k="name" v="Solbakken" />
		<tag k="place" v="isolated_dwelling" />
		<tag k="ssr:stedsnr" v="76130" />
	</node>
	<node id="9894467014" lat="65.4412667" lon="12.8222361" version="1" timestamp="2022-07-18T05:36:20Z" changeset="123743386" uid="3497659" user="NKA">
		<tag k="name" v="Strompdalen" />
		<tag k="old_name" v="Stropdalen" />
		<tag k="place" v="farm" />
		<tag k="ssr:stedsnr" v="136101" />
	</node>
	<node id="9894467015" lat="65.2996111" lon="12.735539" version="1" timestamp="2022-07-18T05:36:20Z" changeset="123743386" uid="3497659" user="NKA">
		<tag k="historic" v="shieling" />
		<tag k="name" v="Markasætran" />
		<tag k="place" v="isolated_dwelling" />
		<tag k="ssr:stedsnr" v="177125" />
	</node>
	<node id="9894467016" lat="65.3258806" lon="12.9181638" version="1" timestamp="2022-07-18T05:36:20Z" changeset="123743386" uid="3497659" user="NKA">
		<tag k="alt_name" v="Borkamo" />
		<tag k="name" v="Borkamoen" />
		<tag k="place" v="hamlet" />
		<tag k="ssr:stedsnr" v="198008" />
	</node>
	<node id="9894467017" lat="65.461975" lon="12.0310695" version="1" timestamp="2022-07-18T05:36:20Z" changeset="123743386" uid="3497659" user="NKA">
		<tag k="name" v="Langøya" />
		<tag k="place" v="farm" />
		<tag k="ssr:stedsnr" v="527657" />
	</node>
	<node id="9894467018" lat="65.4576139" lon="12.0485082" version="1" timestamp="2022-07-18T05:36:20Z" changeset="123743386" uid="3497659" user="NKA">
		<tag k="name" v="Nordburøya" />
		<tag k="place" v="farm" />
		<tag k="ssr:stedsnr" v="439073" />
	</node>
	<node id="9894467019" lat="65.4545139" lon="12.0481973" version="1" timestamp="2022-07-18T05:36:20Z" changeset="123743386" uid="3497659" user="NKA">
		<tag k="name" v="Pervika" />
		<tag k="place" v="farm" />
		<tag k="ssr:stedsnr" v="864100" />
	</node>
	<node id="9894467020" lat="65.4286862" lon="12.0750847" version="1" timestamp="2022-07-18T05:36:20Z" changeset="123743386" uid="3497659" user="NKA">
		<tag k="alt_name" v="Gangstø" />
		<tag k="name" v="Gongstøa" />
		<tag k="place" v="farm" />
		<tag k="ssr:stedsnr" v="136037" />
	</node>
	<node id="9894467021" lat="65.4092667" lon="12.4670765" version="1" timestamp="2022-07-18T05:36:20Z" changeset="123743386" uid="3497659" user="NKA">
		<tag k="name" v="Hallaraunet" />
		<tag k="place" v="farm" />
		<tag k="ssr:stedsnr" v="682529" />
	</node>
	<node id="9894467022" lat="65.3208523" lon="12.4675744" version="1" timestamp="2022-07-18T05:36:20Z" changeset="123743386" uid="3497659" user="NKA">
		<tag k="alt_name" v="Graven store;Storgraven" />
		<tag k="name" v="Storgrava" />
		<tag k="place" v="farm" />
		<tag k="ssr:stedsnr" v="743289" />
	</node>
	<node id="9894467023" lat="65.4080416" lon="12.4422332" version="1" timestamp="2022-07-18T05:36:20Z" changeset="123743386" uid="3497659" user="NKA">
		<tag k="name" v="Svarthopen" />
		<tag k="place" v="farm" />
		<tag k="ssr:stedsnr" v="500548" />
	</node>
	<node id="9894467024" lat="65.3881312" lon="12.4496681" version="1" timestamp="2022-07-18T05:36:20Z" changeset="123743386" uid="3497659" user="NKA">
		<tag k="alt_name" v="Bordvik" />
		<tag k="name" v="Bordvika" />
		<tag k="place" v="farm" />
		<tag k="ssr:stedsnr" v="681467" />
	</node>
	<node id="9894467025" lat="65.4209389" lon="12.4337389" version="1" timestamp="2022-07-18T05:36:20Z" changeset="123743386" uid="3497659" user="NKA">
		<tag k="name" v="Grønlia" />
		<tag k="place" v="farm" />
		<tag k="ssr:stedsnr" v="317381" />
	</node>
	<node id="9894467026" lat="65.438544" lon="12.4352043" version="1" timestamp="2022-07-18T05:36:20Z" changeset="123743386" uid="3497659" user="NKA">
		<tag k="name" v="Seterlandet" />
		<tag k="place" v="hamlet" />
		<tag k="ssr:stedsnr" v="318409" />
	</node>
	<node id="9894467027" lat="65.38215" lon="12.4716416" version="1" timestamp="2022-07-18T05:36:20Z" changeset="123743386" uid="3497659" user="NKA">
		<tag k="alt_name" v="Austvik" />
		<tag k="name" v="Austvika" />
		<tag k="place" v="farm" />
		<tag k="ssr:stedsnr" v="257454" />
	</node>
	<node id="9894467028" lat="65.4760333" lon="12.4359082" version="1" timestamp="2022-07-18T05:36:20Z" changeset="123743386" uid="3497659" user="NKA">
		<tag k="name" v="Nyheim" />
		<tag k="place" v="isolated_dwelling" />
		<tag k="ssr:stedsnr" v="296720" />
	</node>
	<node id="9894467029" lat="65.4249336" lon="12.4412369" version="1" timestamp="2022-07-18T05:36:20Z" changeset="123743386" uid="3497659" user="NKA">
		<tag k="name" v="Fagerbakken" />
		<tag k="place" v="farm" />
		<tag k="ssr:stedsnr" v="235335" />
	</node>
	<node id="9894467030" lat="65.4275971" lon="12.4412283" version="1" timestamp="2022-07-18T05:36:20Z" changeset="123743386" uid="3497659" user="NKA">
		<tag k="name" v="Halsen" />
		<tag k="place" v="farm" />
		<tag k="ssr:stedsnr" v="135376" />
	</node>
	<node id="9894467031" lat="65.4002584" lon="12.4841472" version="1" timestamp="2022-07-18T05:36:20Z" changeset="123743386" uid="3497659" user="NKA">
		<tag k="name" v="Julsaunet" />
		<tag k="place" v="farm" />
		<tag k="ssr:stedsnr" v="946830" />
	</node>
	<node id="9894467032" lat="65.3064583" lon="12.5117251" version="1" timestamp="2022-07-18T05:36:20Z" changeset="123743386" uid="3497659" user="NKA">
		<tag k="alt_name" v="Kristenli" />
		<tag k="name" v="Kristenlia" />
		<tag k="place" v="locality" />
		<tag k="ssr:stedsnr" v="743343" />
	</node>
	<node id="9894467033" lat="65.2598569" lon="12.7254175" version="1" timestamp="2022-07-18T05:36:20Z" changeset="123743386" uid="3497659" user="NKA">
		<tag k="name" v="Fossheim" />
		<tag k="place" v="farm" />
		<tag k="ssr:stedsnr" v="804999" />
	</node>
	<node id="9894467034" lat="65.3030402" lon="12.6438431" version="1" timestamp="2022-07-18T05:36:20Z" changeset="123743386" uid="3497659" user="NKA">
		<tag k="alt_name" v="Myrvoll" />
		<tag k="name" v="Myrvollen" />
		<tag k="place" v="farm" />
		<tag k="ssr:stedsnr" v="439166" />
	</node>
	<node id="9894467035" lat="65.3011305" lon="12.6849166" version="1" timestamp="2022-07-18T05:36:20Z" changeset="123743386" uid="3497659" user="NKA">
		<tag k="loc_name" v="Oppgarden" />
		<tag k="name" v="Nordfjellmark" />
		<tag k="place" v="isolated_dwelling" />
		<tag k="ssr:stedsnr" v="481163" />
	</node>
	<node id="9894467036" lat="65.3935829" lon="12.6801561" version="1" timestamp="2022-07-18T05:36:20Z" changeset="123743386" uid="3497659" user="NKA">
		<tag k="alt_name" v="Dalaune" />
		<tag k="loc_name" v="Dålaunet" />
		<tag k="name" v="Dalaunet" />
		<tag k="place" v="farm" />
		<tag k="ssr:stedsnr" v="378493" />
	</node>
	<node id="9894467037" lat="65.3467054" lon="12.7421267" version="1" timestamp="2022-07-18T05:36:20Z" changeset="123743386" uid="3497659" user="NKA">
		<tag k="name" v="Aslakaunet" />
		<tag k="place" v="farm" />
		<tag k="ssr:stedsnr" v="379127" />
	</node>
	<node id="9894467038" lat="65.3118189" lon="12.6005664" version="1" timestamp="2022-07-18T05:36:20Z" changeset="123743386" uid="3497659" user="NKA">
		<tag k="name" v="Fjellset" />
		<tag k="place" v="farm" />
		<tag k="ssr:stedsnr" v="15311" />
	</node>
	<node id="9894467039" lat="65.4018945" lon="12.5530055" version="1" timestamp="2022-07-18T05:36:20Z" changeset="123743386" uid="3497659" user="NKA">
		<tag k="name" v="Lienget" />
		<tag k="place" v="farm" />
		<tag k="ssr:stedsnr" v="119730" />
	</node>
	<node id="9894467040" lat="65.3653781" lon="12.712359" version="1" timestamp="2022-07-18T05:36:20Z" changeset="123743386" uid="3497659" user="NKA">
		<tag k="name" v="Tarmaunsjøen" />
		<tag k="place" v="isolated_dwelling" />
		<tag k="ssr:stedsnr" v="693376" />
	</node>
	<node id="9894467041" lat="65.2762782" lon="12.5995302" version="1" timestamp="2022-07-18T05:36:20Z" changeset="123743386" uid="3497659" user="NKA">
		<tag k="name" v="Godvasslia" />
		<tag k="place" v="farm" />
		<tag k="ssr:stedsnr" v="925267" />
	</node>
	<node id="9894467042" lat="65.5654038" lon="12.5767954" version="1" timestamp="2022-07-18T05:36:20Z" changeset="123743386" uid="3497659" user="NKA">
		<tag k="name" v="Storvika" />
		<tag k="place" v="locality" />
		<tag k="ssr:stedsnr" v="989598" />
	</node>
	<node id="9894467043" lat="65.3417584" lon="12.6853195" version="1" timestamp="2022-07-18T05:36:20Z" changeset="123743386" uid="3497659" user="NKA">
		<tag k="name" v="Rubeng" />
		<tag k="place" v="farm" />
		<tag k="ssr:stedsnr" v="360135" />
	</node>
	<node id="9894467044" lat="65.5730111" lon="12.5693746" version="1" timestamp="2022-07-18T05:36:20Z" changeset="123743386" uid="3497659" user="NKA">
		<tag k="alt_name" v="Fornes" />
		<tag k="name" v="Forneset" />
		<tag k="place" v="farm" />
		<tag k="ssr:stedsnr" v="136987" />
	</node>
	<node id="9894467045" lat="65.5799334" lon="12.5571444" version="1" timestamp="2022-07-18T05:36:20Z" changeset="123743386" uid="3497659" user="NKA">
		<tag k="name" v="Sørmarka" />
		<tag k="place" v="farm" />
		<tag k="ssr:stedsnr" v="440867" />
	</node>
	<node id="9894467046" lat="65.4010371" lon="12.2669747" version="1" timestamp="2022-07-18T05:36:20Z" changeset="123743386" uid="3497659" user="NKA">
		<tag k="name" v="Nordli" />
		<tag k="place" v="hamlet" />
		<tag k="ssr:stedsnr" v="135403" />
	</node>
	<node id="9894467047" lat="65.5065917" lon="12.3302638" version="1" timestamp="2022-07-18T05:36:20Z" changeset="123743386" uid="3497659" user="NKA">
		<tag k="name" v="Åsheim" />
		<tag k="place" v="farm" />
		<tag k="ssr:stedsnr" v="319777" />
	</node>
	<node id="9894467048" lat="65.4819002" lon="12.6691433" version="1" timestamp="2022-07-18T05:36:20Z" changeset="123743386" uid="3497659" user="NKA">
		<tag k="alt_name" v="Lillebørja" />
		<tag k="name" v="Lislbørja" />
		<tag k="place" v="farm" />
		<tag k="ssr:stedsnr" v="135275" />
	</node>
	<node id="9894467049" lat="65.5035347" lon="12.7596483" version="1" timestamp="2022-07-18T05:36:20Z" changeset="123743386" uid="3497659" user="NKA">
		<tag k="name" v="Langåssætra" />
		<tag k="place" v="locality" />
		<tag k="ssr:stedsnr" v="964528" />
	</node>
	<node id="9894467050" lat="65.5224328" lon="12.258026" version="1" timestamp="2022-07-18T05:36:20Z" changeset="123743386" uid="3497659" user="NKA">
		<tag k="name" v="Myra" />
		<tag k="place" v="hamlet" />
		<tag k="ssr:stedsnr" v="197964" />
	</node>
	<node id="9894467051" lat="65.421112" lon="12.5959254" version="1" timestamp="2022-07-18T05:36:20Z" changeset="123743386" uid="3497659" user="NKA">
		<tag k="name" v="Homla" />
		<tag k="place" v="isolated_dwelling" />
		<tag k="ssr:stedsnr" v="803428" />
	</node>
	<node id="9894467052" lat="65.4260583" lon="12.5616805" version="1" timestamp="2022-07-18T05:36:20Z" changeset="123743386" uid="3497659" user="NKA">
		<tag k="name" v="Fagerbakk" />
		<tag k="place" v="farm" />
		<tag k="ssr:stedsnr" v="681378" />
	</node>
	<node id="9894467053" lat="65.3695061" lon="12.6676948" version="1" timestamp="2022-07-18T05:36:20Z" changeset="123743386" uid="3497659" user="NKA">
		<tag k="name" v="Frydenlund" />
		<tag k="place" v="farm" />
		<tag k="ssr:stedsnr" v="906245" />
	</node>
	<node id="9894467054" lat="65.2699492" lon="12.822591" version="1" timestamp="2022-07-18T05:36:20Z" changeset="123743386" uid="3497659" user="NKA">
		<tag k="name" v="Dagslåtten" />
		<tag k="place" v="hamlet" />
		<tag k="ssr:stedsnr" v="501066" />
	</node>
	<node id="9894467055" lat="65.2749739" lon="12.6613217" version="1" timestamp="2022-07-18T05:36:20Z" changeset="123743386" uid="3497659" user="NKA">
		<tag k="name" v="Sommersetåsen" />
		<tag k="place" v="farm" />
		<tag k="ssr:stedsnr" v="663307" />
	</node>
	<node id="9894467056" lat="65.431292" lon="12.4198873" version="1" timestamp="2022-07-18T05:36:20Z" changeset="123743386" uid="3497659" user="NKA">
		<tag k="name" v="Trøan" />
		<tag k="place" v="isolated_dwelling" />
		<tag k="ssr:stedsnr" v="235456" />
	</node>
	<node id="9894467057" lat="65.3790111" lon="12.5200083" version="1" timestamp="2022-07-18T05:36:20Z" changeset="123743386" uid="3497659" user="NKA">
		<tag k="alt_name" v="Harknes" />
		<tag k="name" v="Harkneset" />
		<tag k="place" v="farm" />
		<tag k="ssr:stedsnr" v="318378" />
	</node>
	<node id="9894467058" lat="65.3666942" lon="12.6556845" version="1" timestamp="2022-07-18T05:36:20Z" changeset="123743386" uid="3497659" user="NKA">
		<tag k="name" v="Håkaunet" />
		<tag k="place" v="farm" />
		<tag k="ssr:stedsnr" v="197388" />
	</node>
	<node id="9894467059" lat="65.4397247" lon="12.4291432" version="1" timestamp="2022-07-18T05:36:20Z" changeset="123743386" uid="3497659" user="NKA">
		<tag k="name" v="Fageråsen" />
		<tag k="place" v="farm" />
		<tag k="ssr:stedsnr" v="197529" />
	</node>
	<node id="9894467060" lat="65.4670233" lon="12.7610322" version="1" timestamp="2022-07-18T05:36:20Z" changeset="123743386" uid="3497659" user="NKA">
		<tag k="name" v="Granåsen" />
		<tag k="place" v="farm" />
		<tag k="ssr:stedsnr" v="865207" />
	</node>
	<node id="9894467061" lat="65.3810393" lon="12.5087813" version="1" timestamp="2022-07-18T05:36:20Z" changeset="123743386" uid="3497659" user="NKA">
		<tag k="name" v="Høliaunet" />
		<tag k="place" v="farm" />
		<tag k="ssr:stedsnr" v="196342" />
	</node>
	<node id="9894467062" lat="65.2963194" lon="12.4957749" version="1" timestamp="2022-07-18T05:36:20Z" changeset="123743386" uid="3497659" user="NKA">
		<tag k="name" v="Lisltåmmåslia" />
		<tag k="place" v="locality" />
		<tag k="ssr:stedsnr" v="864221" />
	</node>
	<node id="9894467063" lat="65.2625222" lon="12.7391952" version="1" timestamp="2022-07-18T05:36:20Z" changeset="123743386" uid="3497659" user="NKA">
		<tag k="name" v="Barstad" />
		<tag k="place" v="hamlet" />
		<tag k="ssr:stedsnr" v="865074" />
	</node>
	<node id="9894467064" lat="65.5028611" lon="12.3943027" version="1" timestamp="2022-07-18T05:36:20Z" changeset="123743386" uid="3497659" user="NKA">
		<tag k="name" v="Høgmo" />
		<tag k="place" v="farm" />
		<tag k="ssr:stedsnr" v="847323" />
	</node>
	<node id="9894467065" lat="65.3273368" lon="12.9242141" version="1" timestamp="2022-07-18T05:36:20Z" changeset="123743386" uid="3497659" user="NKA">
		<tag k="name" v="Solåsen" />
		<tag k="place" v="farm" />
		<tag k="ssr:stedsnr" v="379007" />
	</node>
	<node id="9894467066" lat="65.2958513" lon="12.6870622" version="1" timestamp="2022-07-18T05:36:20Z" changeset="123743386" uid="3497659" user="NKA">
		<tag k="name" v="Ånes" />
		<tag k="place" v="farm" />
		<tag k="ssr:stedsnr" v="966162" />
	</node>
	<node id="9894467067" lat="65.4978166" lon="12.3131286" version="1" timestamp="2022-07-18T05:36:20Z" changeset="123743386" uid="3497659" user="NKA">
		<tag k="name" v="Syltern" />
		<tag k="place" v="hamlet" />
		<tag k="ssr:stedsnr" v="977002" />
	</node>
	<node id="9894467068" lat="65.4673991" lon="12.7731876" version="1" timestamp="2022-07-18T05:36:20Z" changeset="123743386" uid="3497659" user="NKA">
		<tag k="name" v="Granheim" />
		<tag k="place" v="isolated_dwelling" />
		<tag k="ssr:stedsnr" v="682202" />
	</node>
	<node id="9894467069" lat="65.4013114" lon="12.5303194" version="1" timestamp="2022-07-18T05:36:20Z" changeset="123743386" uid="3497659" user="NKA">
		<tag k="name" v="Aspåsen" />
		<tag k="place" v="isolated_dwelling" />
		<tag k="ssr:stedsnr" v="673691" />
	</node>
	<node id="9894467070" lat="65.4344095" lon="12.62037" version="1" timestamp="2022-07-18T05:36:20Z" changeset="123743386" uid="3497659" user="NKA">
		<tag k="name" v="Neset" />
		<tag k="place" v="farm" />
		<tag k="ssr:stedsnr" v="500453" />
	</node>
	<node id="9894467071" lat="65.3847183" lon="12.6754594" version="1" timestamp="2022-07-18T05:36:20Z" changeset="123743386" uid="3497659" user="NKA">
		<tag k="name" v="Skogstrand" />
		<tag k="place" v="farm" />
		<tag k="ssr:stedsnr" v="500433" />
	</node>
	<node id="9894467072" lat="65.4333959" lon="12.4293486" version="1" timestamp="2022-07-18T05:36:20Z" changeset="123743386" uid="3497659" user="NKA">
		<tag k="alt_name" v="Bakken" />
		<tag k="loc_name" v="Seterbakken" />
		<tag k="name" v="Sæterbakken" />
		<tag k="place" v="farm" />
		<tag k="ssr:stedsnr" v="440471" />
	</node>
	<node id="9894467073" lat="65.3200663" lon="12.6529883" version="1" timestamp="2022-07-18T05:36:20Z" changeset="123743386" uid="3497659" user="NKA">
		<tag k="name" v="Bjørnstad" />
		<tag k="place" v="farm" />
		<tag k="ssr:stedsnr" v="481800" />
	</node>
	<node id="9894467074" lat="65.368625" lon="12.6681528" version="1" timestamp="2022-07-18T05:36:20Z" changeset="123743386" uid="3497659" user="NKA">
		<tag k="alt_name" v="Sommerset" />
		<tag k="name" v="Sommarset" />
		<tag k="place" v="farm" />
		<tag k="ssr:stedsnr" v="440368" />
	</node>
	<node id="9894467075" lat="65.4186445" lon="12.3973334" version="1" timestamp="2022-07-18T05:36:20Z" changeset="123743386" uid="3497659" user="NKA">
		<tag k="name" v="Vasslia" />
		<tag k="place" v="isolated_dwelling" />
		<tag k="ssr:stedsnr" v="439424" />
	</node>
	<node id="9894467076" lat="65.5361105" lon="12.4167772" version="1" timestamp="2022-07-18T05:36:20Z" changeset="123743386" uid="3497659" user="NKA">
		<tag k="alt_name" v="Fruerlia" />
		<tag k="name" v="Frulia" />
		<tag k="place" v="locality" />
		<tag k="ssr:stedsnr" v="319946" />
	</node>
	<node id="9894467077" lat="65.2650417" lon="12.6051445" version="1" timestamp="2022-07-18T05:36:20Z" changeset="123743386" uid="3497659" user="NKA">
		<tag k="name" v="Vatnan" />
		<tag k="place" v="farm" />
		<tag k="ssr:stedsnr" v="402758" />
	</node>
	<node id="9894467078" lat="65.5117899" lon="12.3211004" version="1" timestamp="2022-07-18T05:36:20Z" changeset="123743386" uid="3497659" user="NKA">
		<tag k="alt_name" v="Budal" />
		<tag k="name" v="Budalen" />
		<tag k="place" v="farm" />
		<tag k="ssr:stedsnr" v="319792" />
	</node>
	<node id="9894467079" lat="65.397544" lon="12.4855193" version="1" timestamp="2022-07-18T05:36:20Z" changeset="123743386" uid="3497659" user="NKA">
		<tag k="name" v="Akselberg" />
		<tag k="place" v="hamlet" />
		<tag k="ssr:stedsnr" v="318447" />
	</node>
	<node id="9894467080" lat="65.3201847" lon="12.665637" version="1" timestamp="2022-07-18T05:36:20Z" changeset="123743386" uid="3497659" user="NKA">
		<tag k="name" v="Flatmoen" />
		<tag k="place" v="hamlet" />
		<tag k="ssr:stedsnr" v="318298" />
	</node>
	<node id="9894467081" lat="65.3925834" lon="12.5526376" version="1" timestamp="2022-07-18T05:36:20Z" changeset="123743386" uid="3497659" user="NKA">
		<tag k="name" v="Akset" />
		<tag k="place" v="hamlet" />
		<tag k="ssr:stedsnr" v="317423" />
	</node>
	<node id="9894467082" lat="65.4124805" lon="12.6291999" version="1" timestamp="2022-07-18T05:36:20Z" changeset="123743386" uid="3497659" user="NKA">
		<tag k="name" v="Trøan" />
		<tag k="place" v="farm" />
		<tag k="ssr:stedsnr" v="15489" />
	</node>
	<node id="9894467083" lat="65.4468892" lon="12.3301208" version="1" timestamp="2022-07-18T05:36:20Z" changeset="123743386" uid="3497659" user="NKA">
		<tag k="name" v="Veddal" />
		<tag k="place" v="hamlet" />
		<tag k="ssr:stedsnr" v="864486" />
	</node>
	<node id="9894467084" lat="65.3561953" lon="12.6245637" version="1" timestamp="2022-07-18T05:36:20Z" changeset="123743386" uid="3497659" user="NKA">
		<tag k="name" v="Indre Rødli" />
		<tag k="place" v="farm" />
		<tag k="ssr:stedsnr" v="14248" />
	</node>
	<node id="9894467085" lat="65.4403576" lon="12.2966606" version="1" timestamp="2022-07-18T05:36:20Z" changeset="123743386" uid="3497659" user="NKA">
		<tag k="name" v="Elvenes" />
		<tag k="place" v="farm" />
		<tag k="ssr:stedsnr" v="540501" />
	</node>
	<node id="9894467086" lat="65.3490533" lon="12.6742017" version="1" timestamp="2022-07-18T05:36:20Z" changeset="123743386" uid="3497659" user="NKA">
		<tag k="name" v="Sjåeng" />
		<tag k="place" v="farm" />
		<tag k="ssr:stedsnr" v="845156" />
	</node>
	<node id="9894467087" lat="65.2572566" lon="12.6951609" version="1" timestamp="2022-07-18T05:36:20Z" changeset="123743386" uid="3497659" user="NKA">
		<tag k="name" v="Åsmo" />
		<tag k="place" v="farm" />
		<tag k="ssr:stedsnr" v="360148" />
	</node>
	<node id="9894467088" lat="65.4481473" lon="12.3263444" version="1" timestamp="2022-07-18T05:36:20Z" changeset="123743386" uid="3497659" user="NKA">
		<tag k="name" v="Leitvoll" />
		<tag k="place" v="farm" />
		<tag k="ssr:stedsnr" v="539860" />
	</node>
	<node id="9894467089" lat="65.3811018" lon="12.2178674" version="1" timestamp="2022-07-18T05:36:20Z" changeset="123743386" uid="3497659" user="NKA">
		<tag k="name" v="Vold" />
		<tag k="place" v="farm" />
		<tag k="ssr:stedsnr" v="966815" />
	</node>
	<node id="9894467090" lat="65.4441139" lon="12.308564" version="1" timestamp="2022-07-18T05:36:20Z" changeset="123743386" uid="3497659" user="NKA">
		<tag k="name" v="Buvoll" />
		<tag k="place" v="farm" />
		<tag k="ssr:stedsnr" v="358512" />
	</node>
	<node id="9894467091" lat="65.3775213" lon="12.1854882" version="1" timestamp="2022-07-18T05:36:20Z" changeset="123743386" uid="3497659" user="NKA">
		<tag k="name" v="Lilleåsen" />
		<tag k="place" v="farm" />
		<tag k="ssr:stedsnr" v="724779" />
	</node>
	<node id="9894467092" lat="65.4937722" lon="12.1117918" version="1" timestamp="2022-07-18T05:36:20Z" changeset="123743386" uid="3497659" user="NKA">
		<tag k="alt_name" v="Bugjerd;Budder" />
		<tag k="name" v="Bugjerdet" />
		<tag k="place" v="farm" />
		<tag k="ssr:stedsnr" v="804869" />
	</node>
	<node id="9894467093" lat="65.3929112" lon="12.0787849" version="1" timestamp="2022-07-18T05:36:20Z" changeset="123743386" uid="3497659" user="NKA">
		<tag k="name" v="Ytre Hatten" />
		<tag k="place" v="farm" />
		<tag k="ssr:stedsnr" v="681208" />
	</node>
	<node id="9894467094" lat="65.5017805" lon="12.120811" version="1" timestamp="2022-07-18T05:36:20Z" changeset="123743386" uid="3497659" user="NKA">
		<tag k="name" v="Skjevika" />
		<tag k="place" v="farm" />
		<tag k="ssr:stedsnr" v="722867" />
	</node>
	<node id="9894467095" lat="65.4699101" lon="12.0839316" version="1" timestamp="2022-07-18T05:36:20Z" changeset="123743386" uid="3497659" user="NKA">
		<tag k="name" v="Rødhylla" />
		<tag k="place" v="farm" />
		<tag k="ssr:stedsnr" v="378060" />
	</node>
	<node id="9894467096" lat="65.4226361" lon="12.1013333" version="1" timestamp="2022-07-18T05:36:20Z" changeset="123743386" uid="3497659" user="NKA">
		<tag k="name" v="Lavollen" />
		<tag k="place" v="farm" />
		<tag k="ssr:stedsnr" v="864034" />
	</node>
	<node id="9894467097" lat="65.3809306" lon="12.2172138" version="1" timestamp="2022-07-18T05:36:20Z" changeset="123743386" uid="3497659" user="NKA">
		<tag k="name" v="Trælnesengan" />
		<tag k="place" v="farm" />
		<tag k="ssr:stedsnr" v="864233" />
	</node>
	<node id="9894467098" lat="65.3780359" lon="12.4570965" version="1" timestamp="2022-07-18T05:36:20Z" changeset="123743386" uid="3497659" user="NKA">
		<tag k="name" v="Navan" />
		<tag k="place" v="hamlet" />
		<tag k="ssr:stedsnr" v="925434" />
	</node>
	<node id="9894467099" lat="65.4191453" lon="12.5750364" version="1" timestamp="2022-07-18T05:36:20Z" changeset="123743386" uid="3497659" user="NKA">
		<tag k="alt_name" v="Flagholmen" />
		<tag k="name" v="Holmen" />
		<tag k="place" v="farm" />
		<tag k="ssr:stedsnr" v="989611" />
	</node>
	<node id="9894467100" lat="65.3279333" lon="12.4685361" version="1" timestamp="2022-07-18T05:36:20Z" changeset="123743386" uid="3497659" user="NKA">
		<tag k="alt_name" v="Graven lille" />
		<tag k="loc_name" v="Lislgraven" />
		<tag k="name" v="Lislgrava" />
		<tag k="place" v="locality" />
		<tag k="ssr:stedsnr" v="378278" />
	</node>
	<node id="9894467101" lat="65.414025" lon="12.5552361" version="1" timestamp="2022-07-18T05:36:20Z" changeset="123743386" uid="3497659" user="NKA">
		<tag k="name" v="Åsrud" />
		<tag k="place" v="farm" />
		<tag k="ssr:stedsnr" v="665540" />
	</node>
	<node id="9894467102" lat="65.2590753" lon="12.8040552" version="1" timestamp="2022-07-18T05:36:20Z" changeset="123743386" uid="3497659" user="NKA">
		<tag k="alt_name" v="Gjektvika" />
		<tag k="name" v="Jektvika" />
		<tag k="place" v="farm" />
		<tag k="ssr:stedsnr" v="76980" />
	</node>
	<node id="9894467103" lat="65.2618985" lon="12.7874454" version="1" timestamp="2022-07-18T05:36:20Z" changeset="123743386" uid="3497659" user="NKA">
		<tag k="name" v="Solheim" />
		<tag k="place" v="farm" />
		<tag k="ssr:stedsnr" v="119400" />
	</node>
	<node id="9894467104" lat="65.249975" lon="12.7075583" version="1" timestamp="2022-07-18T05:36:20Z" changeset="123743386" uid="3497659" user="NKA">
		<tag k="alt_name" v="Hongbarstad" />
		<tag k="name" v="Skogly" />
		<tag k="place" v="farm" />
		<tag k="ssr:stedsnr" v="15715" />
	</node>
	<node id="9894467105" lat="65.2600305" lon="12.7116584" version="1" timestamp="2022-07-18T05:36:20Z" changeset="123743386" uid="3497659" user="NKA">
		<tag k="name" v="Vårtun" />
		<tag k="place" v="isolated_dwelling" />
		<tag k="ssr:stedsnr" v="56232" />
	</node>
	<node id="9894467106" lat="65.3276472" lon="12.5540195" version="1" timestamp="2022-07-18T05:36:20Z" changeset="123743386" uid="3497659" user="NKA">
		<tag k="name" v="Innergården" />
		<tag k="place" v="locality" />
		<tag k="ssr:stedsnr" v="543665" />
	</node>
	<node id="9894467107" lat="65.3556056" lon="12.629525" version="1" timestamp="2022-07-18T05:36:20Z" changeset="123743386" uid="3497659" user="NKA">
		<tag k="name" v="Bakketun" />
		<tag k="place" v="farm" />
		<tag k="ssr:stedsnr" v="543851" />
	</node>
	<node id="9894467108" lat="65.3567209" lon="12.6718639" version="1" timestamp="2022-07-18T05:36:20Z" changeset="123743386" uid="3497659" user="NKA">
		<tag k="name" v="Solum" />
		<tag k="place" v="farm" />
		<tag k="ssr:stedsnr" v="420121" />
	</node>
	<node id="9894467109" lat="65.3204833" lon="12.6695778" version="1" timestamp="2022-07-18T05:36:20Z" changeset="123743386" uid="3497659" user="NKA">
		<tag k="name" v="Nordli" />
		<tag k="place" v="farm" />
		<tag k="ssr:stedsnr" v="542332" />
	</node>
	<node id="9894467110" lat="65.292935" lon="12.6922444" version="1" timestamp="2022-07-18T05:36:20Z" changeset="123743386" uid="3497659" user="NKA">
		<tag k="name" v="Fjelltun" />
		<tag k="place" v="farm" />
		<tag k="ssr:stedsnr" v="541127" />
	</node>
	<node id="9894467111" lat="65.2981782" lon="12.6981431" version="1" timestamp="2022-07-18T05:36:20Z" changeset="123743386" uid="3497659" user="NKA">
		<tag k="name" v="Nystad" />
		<tag k="place" v="farm" />
		<tag k="ssr:stedsnr" v="420125" />
	</node>
	<node id="9894467112" lat="65.4086805" lon="12.5396806" version="1" timestamp="2022-07-18T05:36:20Z" changeset="123743386" uid="3497659" user="NKA">
		<tag k="name" v="Vollan" />
		<tag k="place" v="farm" />
		<tag k="ssr:stedsnr" v="378482" />
	</node>
	<node id="9894467113" lat="65.2943778" lon="12.6771194" version="1" timestamp="2022-07-18T05:36:20Z" changeset="123743386" uid="3497659" user="NKA">
		<tag k="name" v="Bergtun" />
		<tag k="place" v="farm" />
		<tag k="ssr:stedsnr" v="541166" />
	</node>
	<node id="9894467114" lat="65.4378864" lon="12.4411733" version="1" timestamp="2022-07-18T05:36:20Z" changeset="123743386" uid="3497659" user="NKA">
		<tag k="name" v="Molund" />
		<tag k="place" v="farm" />
		<tag k="ssr:stedsnr" v="781389" />
	</node>
	<node id="9894467115" lat="65.4199136" lon="12.5542851" version="1" timestamp="2022-07-18T05:36:20Z" changeset="123743386" uid="3497659" user="NKA">
		<tag k="name" v="Hegge" />
		<tag k="old_name" v="Storhegge;Hegge store" />
		<tag k="place" v="hamlet" />
		<tag k="ssr:stedsnr" v="803434" />
	</node>
	<node id="9894467116" lat="65.2922611" lon="12.6562251" version="1" timestamp="2022-07-18T05:36:20Z" changeset="123743386" uid="3497659" user="NKA">
		<tag k="name" v="Steinhaug" />
		<tag k="place" v="farm" />
		<tag k="ssr:stedsnr" v="602830" />
	</node>
	<node id="9894467117" lat="65.3399489" lon="12.6801128" version="1" timestamp="2022-07-18T05:36:20Z" changeset="123743386" uid="3497659" user="NKA">
		<tag k="name" v="Lauvset" />
		<tag k="place" v="farm" />
		<tag k="ssr:stedsnr" v="724134" />
	</node>
	<node id="9894467118" lat="65.3662244" lon="12.6615429" version="1" timestamp="2022-07-18T05:36:20Z" changeset="123743386" uid="3497659" user="NKA">
		<tag k="name" v="Slettbakk" />
		<tag k="place" v="farm" />
		<tag k="ssr:stedsnr" v="136389" />
	</node>
	<node id="9894467119" lat="65.4311666" lon="12.6248695" version="1" timestamp="2022-07-18T05:36:20Z" changeset="123743386" uid="3497659" user="NKA">
		<tag k="name" v="Råken" />
		<tag k="place" v="farm" />
		<tag k="ssr:stedsnr" v="257432" />
	</node>
	<node id="9894467120" lat="65.4609136" lon="12.7784234" version="1" timestamp="2022-07-18T05:36:20Z" changeset="123743386" uid="3497659" user="NKA">
		<tag k="name" v="Grunnan" />
		<tag k="place" v="locality" />
		<tag k="ssr:stedsnr" v="197195" />
	</node>
	<node id="9894467121" lat="65.4137" lon="12.5574195" version="1" timestamp="2022-07-18T05:36:20Z" changeset="123743386" uid="3497659" user="NKA">
		<tag k="name" v="Lauten" />
		<tag k="place" v="farm" />
		<tag k="ssr:stedsnr" v="119529" />
	</node>
	<node id="9894467122" lat="65.3574861" lon="12.6383444" version="1" timestamp="2022-07-18T05:36:20Z" changeset="123743386" uid="3497659" user="NKA">
		<tag k="alt_name" v="Drevlien" />
		<tag k="name" v="Drevlia" />
		<tag k="place" v="farm" />
		<tag k="ssr:stedsnr" v="682361" />
	</node>
	<node id="9894467123" lat="65.3865834" lon="12.581689" version="1" timestamp="2022-07-18T05:36:20Z" changeset="123743386" uid="3497659" user="NKA">
		<tag k="alt_name" v="Peenget" />
		<tag k="loc_name" v="Peenga" />
		<tag k="name" v="Perenga" />
		<tag k="place" v="farm" />
		<tag k="ssr:stedsnr" v="196344" />
	</node>
	<node id="9894467124" lat="65.4154566" lon="12.4432729" version="1" timestamp="2022-07-18T05:36:20Z" changeset="123743386" uid="3497659" user="NKA">
		<tag k="name" v="Kvernstad" />
		<tag k="place" v="farm" />
		<tag k="ssr:stedsnr" v="660351" />
	</node>
	<node id="9894467125" lat="65.3772915" lon="12.6978789" version="1" timestamp="2022-07-18T05:36:20Z" changeset="123743386" uid="3497659" user="NKA">
		<tag k="name" v="Langfjordøyra" />
		<tag k="place" v="farm" />
		<tag k="ssr:stedsnr" v="500505" />
	</node>
	<node id="9894467126" lat="65.5470166" lon="12.5506332" version="1" timestamp="2022-07-18T05:36:20Z" changeset="123743386" uid="3497659" user="NKA">
		<tag k="name" v="Almlia" />
		<tag k="place" v="locality" />
		<tag k="ssr:stedsnr" v="561965" />
	</node>
	<node id="9894467127" lat="65.5635528" lon="12.5490362" version="1" timestamp="2022-07-18T05:36:20Z" changeset="123743386" uid="3497659" user="NKA">
		<tag k="name" v="Myra" />
		<tag k="place" v="locality" />
		<tag k="ssr:stedsnr" v="561994" />
	</node>
	<node id="9894467128" lat="65.4610916" lon="12.7744945" version="1" timestamp="2022-07-18T05:36:20Z" changeset="123743386" uid="3497659" user="NKA">
		<tag k="name" v="Børiøyra" />
		<tag k="place" v="farm" />
		<tag k="ssr:stedsnr" v="561178" />
	</node>
	<node id="9894467129" lat="65.4769139" lon="12.7559751" version="1" timestamp="2022-07-18T05:36:20Z" changeset="123743386" uid="3497659" user="NKA">
		<tag k="name" v="Langåsen" />
		<tag k="place" v="locality" />
		<tag k="ssr:stedsnr" v="561174" />
	</node>
	<node id="9894467130" lat="65.3168389" lon="12.5907973" version="1" timestamp="2022-07-18T05:36:20Z" changeset="123743386" uid="3497659" user="NKA">
		<tag k="alt_name" v="Svanvoll" />
		<tag k="name" v="Svanvollen" />
		<tag k="place" v="farm" />
		<tag k="ssr:stedsnr" v="560293" />
	</node>
	<node id="9894467131" lat="65.4717528" lon="12.3433334" version="1" timestamp="2022-07-18T05:36:20Z" changeset="123743386" uid="3497659" user="NKA">
		<tag k="name" v="Ytterskomo" />
		<tag k="place" v="farm" />
		<tag k="ssr:stedsnr" v="560301" />
	</node>
	<node id="9894467132" lat="65.2761968" lon="12.5972937" version="1" timestamp="2022-07-18T05:36:20Z" changeset="123743386" uid="3497659" user="NKA">
		<tag k="name" v="Vassbygda" />
		<tag k="place" v="hamlet" />
		<tag k="ssr:stedsnr" v="560213" />
	</node>
	<node id="9894467133" lat="65.3260067" lon="12.6936344" version="1" timestamp="2022-07-18T05:36:20Z" changeset="123743386" uid="3497659" user="NKA">
		<tag k="alt_name" v="Vassbotnet" />
		<tag k="name" v="Vassbotn" />
		<tag k="place" v="hamlet" />
		<tag k="ssr:stedsnr" v="560295" />
	</node>
	<node id="9894467134" lat="65.3782866" lon="12.2091192" version="1" timestamp="2022-07-18T05:36:20Z" changeset="123743386" uid="3497659" user="NKA">
		<tag k="name" v="Opheim" />
		<tag k="place" v="farm" />
		<tag k="ssr:stedsnr" v="966796" />
	</node>
	<node id="9894467135" lat="65.4561938" lon="12.3327345" version="1" timestamp="2022-07-18T05:36:20Z" changeset="123743386" uid="3497659" user="NKA">
		<tag k="name" v="Solheim" />
		<tag k="place" v="farm" />
		<tag k="ssr:stedsnr" v="478413" />
	</node>
	<node id="9894467136" lat="65.3862064" lon="12.2287629" version="1" timestamp="2022-07-18T05:36:20Z" changeset="123743386" uid="3497659" user="NKA">
		<tag k="name" v="Åsheim" />
		<tag k="place" v="hamlet" />
		<tag k="ssr:stedsnr" v="682505" />
	</node>
	<node id="9894467137" lat="65.4951162" lon="12.2470526" version="1" timestamp="2022-07-18T05:36:20Z" changeset="123743386" uid="3497659" user="NKA">
		<tag k="name" v="Fagerborg" />
		<tag k="place" v="farm" />
		<tag k="ssr:stedsnr" v="964825" />
	</node>
	<node id="9894467138" lat="65.3880296" lon="12.1775834" version="1" timestamp="2022-07-18T05:36:20Z" changeset="123743386" uid="3497659" user="NKA">
		<tag k="name" v="Trælnes" />
		<tag k="place" v="hamlet" />
		<tag k="ssr:stedsnr" v="257232" />
	</node>
	<node id="9894467139" lat="65.4427916" lon="12.2944751" version="1" timestamp="2022-07-18T05:36:20Z" changeset="123743386" uid="3497659" user="NKA">
		<tag k="name" v="Haugen" />
		<tag k="place" v="farm" />
		<tag k="ssr:stedsnr" v="378524" />
	</node>
	<node id="9894467140" lat="65.4766169" lon="12.1305506" version="1" timestamp="2022-07-18T05:36:20Z" changeset="123743386" uid="3497659" user="NKA">
		<tag k="name" v="Sauren" />
		<tag k="place" v="hamlet" />
		<tag k="ssr:stedsnr" v="196076" />
	</node>
	<node id="9894467141" lat="65.3822618" lon="12.2241997" version="1" timestamp="2022-07-18T05:36:20Z" changeset="123743386" uid="3497659" user="NKA">
		<tag k="name" v="Solbakken" />
		<tag k="place" v="farm" />
		<tag k="ssr:stedsnr" v="784807" />
	</node>
	<node id="9894467142" lat="65.5117112" lon="12.1302333" version="1" timestamp="2022-07-18T05:36:20Z" changeset="123743386" uid="3497659" user="NKA">
		<tag k="name" v="Stortorgnes" />
		<tag k="place" v="farm" />
		<tag k="ssr:stedsnr" v="161702" />
	</node>
	<node id="9894467143" lat="65.57765" lon="12.2982584" version="1" timestamp="2022-07-18T05:36:20Z" changeset="123743386" uid="3497659" user="NKA">
		<tag k="name" v="Sjøgård" />
		<tag k="place" v="farm" />
		<tag k="ssr:stedsnr" v="561885" />
	</node>
	<node id="9894467144" lat="65.4236482" lon="12.0779459" version="1" timestamp="2022-07-18T05:36:20Z" changeset="123743386" uid="3497659" user="NKA">
		<tag k="name" v="Ytter-Torget" />
		<tag k="place" v="hamlet" />
		<tag k="ssr:stedsnr" v="804065" />
	</node>
	<node id="9894467145" lat="65.3786306" lon="12.1990472" version="1" timestamp="2022-07-18T05:36:20Z" changeset="123743386" uid="3497659" user="NKA">
		<tag k="name" v="Nybø" />
		<tag k="place" v="farm" />
		<tag k="ssr:stedsnr" v="845824" />
	</node>
	<node id="9894467146" lat="65.4102539" lon="12.2051358" version="1" timestamp="2022-07-18T05:36:20Z" changeset="123743386" uid="3497659" user="NKA">
		<tag k="name" v="Sandmo" />
		<tag k="place" v="farm" />
		<tag k="ssr:stedsnr" v="925072" />
	</node>
	<node id="9894467147" lat="65.5157584" lon="12.524875" version="1" timestamp="2022-07-18T05:36:20Z" changeset="123743386" uid="3497659" user="NKA">
		<tag k="name" v="Birkelund" />
		<tag k="place" v="farm" />
		<tag k="ssr:stedsnr" v="599093" />
	</node>
	<node id="9894467148" lat="65.5191794" lon="12.5763911" version="1" timestamp="2022-07-18T05:36:20Z" changeset="123743386" uid="3497659" user="NKA">
		<tag k="alt_name" v="Engelsnes" />
		<tag k="name" v="Engelsneset" />
		<tag k="place" v="farm" />
		<tag k="ssr:stedsnr" v="805785" />
	</node>
	<node id="9894467149" lat="65.5174917" lon="12.5191273" version="1" timestamp="2022-07-18T05:36:20Z" changeset="123743386" uid="3497659" user="NKA">
		<tag k="name" v="Gavlen" />
		<tag k="place" v="farm" />
		<tag k="ssr:stedsnr" v="76785" />
	</node>
	<node id="9894467150" lat="65.4143046" lon="12.0815513" version="1" timestamp="2022-07-18T05:36:20Z" changeset="123743386" uid="3497659" user="NKA">
		<tag k="alt_name" v="Einvollen" />
		<tag k="name" v="Einvollan" />
		<tag k="place" v="farm" />
		<tag k="ssr:stedsnr" v="560037" />
	</node>
	<node id="9894467151" lat="65.4295571" lon="12.4079869" version="1" timestamp="2022-07-18T05:36:20Z" changeset="123743386" uid="3497659" user="NKA">
		<tag k="name" v="Klimpen" />
		<tag k="place" v="farm" />
		<tag k="ssr:stedsnr" v="977042" />
	</node>
	<node id="9894467152" lat="65.2827151" lon="12.8391027" version="1" timestamp="2022-07-18T05:36:20Z" changeset="123743386" uid="3497659" user="NKA">
		<tag k="name" v="Enget" />
		<tag k="place" v="hamlet" />
		<tag k="ssr:stedsnr" v="379053" />
	</node>
	<node id="9894467153" lat="65.4747945" lon="12.0860806" version="1" timestamp="2022-07-18T05:36:20Z" changeset="123743386" uid="3497659" user="NKA">
		<tag k="name" v="Gjerdet" />
		<tag k="place" v="farm" />
		<tag k="ssr:stedsnr" v="621063" />
	</node>
	<node id="9894467154" lat="65.4809833" lon="12.3320416" version="1" timestamp="2022-07-18T05:36:20Z" changeset="123743386" uid="3497659" user="NKA">
		<tag k="name" v="Bjønnvik" />
		<tag k="place" v="farm" />
		<tag k="ssr:stedsnr" v="237631" />
	</node>
	<node id="9894467155" lat="65.4610348" lon="12.0837005" version="1" timestamp="2022-07-18T05:36:20Z" changeset="123743386" uid="3497659" user="NKA">
		<tag k="name" v="Sør Aunet" />
		<tag k="place" v="locality" />
		<tag k="ssr:stedsnr" v="965268" />
	</node>
	<node id="9894467156" lat="65.4753062" lon="12.1514485" version="1" timestamp="2022-07-18T05:36:20Z" changeset="123743386" uid="3497659" user="NKA">
		<tag k="name" v="Saltermarka" />
		<tag k="place" v="hamlet" />
		<tag k="ssr:stedsnr" v="977059" />
	</node>
	<node id="9894467157" lat="65.4387877" lon="12.433586" version="1" timestamp="2022-07-18T05:36:20Z" changeset="123743386" uid="3497659" user="NKA">
		<tag k="name" v="Nordsætra" />
		<tag k="place" v="farm" />
		<tag k="ssr:stedsnr" v="989604" />
	</node>
	<node id="9894467158" lat="65.4093425" lon="12.563778" version="1" timestamp="2022-07-18T05:36:20Z" changeset="123743386" uid="3497659" user="NKA">
		<tag k="alt_name" v="Rugåsnes" />
		<tag k="name" v="Rugåsneset" />
		<tag k="place" v="farm" />
		<tag k="ssr:stedsnr" v="136482" />
	</node>
	<node id="9894467159" lat="65.378749" lon="12.1876646" version="1" timestamp="2022-07-18T05:36:20Z" changeset="123743386" uid="3497659" user="NKA">
		<tag k="name" v="Linsæte" />
		<tag k="place" v="farm" />
		<tag k="ssr:stedsnr" v="157863" />
	</node>
	<node id="9894467160" lat="65.4298137" lon="12.5660499" version="1" timestamp="2022-07-18T05:36:20Z" changeset="123743386" uid="3497659" user="NKA">
		<tag k="name" v="Lundhaug" />
		<tag k="place" v="farm" />
		<tag k="ssr:stedsnr" v="135369" />
	</node>
	<node id="9894467161" lat="65.2568023" lon="12.705235" version="1" timestamp="2022-07-18T05:36:20Z" changeset="123743386" uid="3497659" user="NKA">
		<tag k="name" v="Nesset" />
		<tag k="place" v="isolated_dwelling" />
		<tag k="ssr:stedsnr" v="481188" />
	</node>
	<node id="9894467162" lat="65.3137167" lon="12.4769251" version="1" timestamp="2022-07-18T05:36:20Z" changeset="123743386" uid="3497659" user="NKA">
		<tag k="name" v="Brennmarka" />
		<tag k="place" v="locality" />
		<tag k="ssr:stedsnr" v="743344" />
	</node>
	<node id="9894467163" lat="65.4913057" lon="12.3377671" version="1" timestamp="2022-07-18T05:36:20Z" changeset="123743386" uid="3497659" user="NKA">
		<tag k="name" v="Stakstø" />
		<tag k="place" v="farm" />
		<tag k="ssr:stedsnr" v="117311" />
	</node>
	<node id="9894467164" lat="65.3292723" lon="12.5545555" version="1" timestamp="2022-07-18T05:36:20Z" changeset="123743386" uid="3497659" user="NKA">
		<tag k="name" v="Øvergården" />
		<tag k="place" v="locality" />
		<tag k="ssr:stedsnr" v="240706" />
	</node>
	<node id="9894467165" lat="65.3239417" lon="12.6546029" version="1" timestamp="2022-07-18T05:36:20Z" changeset="123743386" uid="3497659" user="NKA">
		<tag k="name" v="Vangen" />
		<tag k="place" v="farm" />
		<tag k="ssr:stedsnr" v="58717" />
	</node>
	<node id="9894467166" lat="65.3969583" lon="12.5620167" version="1" timestamp="2022-07-18T05:36:20Z" changeset="123743386" uid="3497659" user="NKA">
		<tag k="name" v="Åsvang" />
		<tag k="place" v="farm" />
		<tag k="ssr:stedsnr" v="58754" />
	</node>
	<node id="9894467167" lat="65.4122959" lon="12.6207704" version="1" timestamp="2022-07-18T05:36:20Z" changeset="123743386" uid="3497659" user="NKA">
		<tag k="name" v="Bjørknes" />
		<tag k="place" v="farm" />
		<tag k="ssr:stedsnr" v="75479" />
	</node>
	<node id="9894467168" lat="65.3184382" lon="12.6535185" version="1" timestamp="2022-07-18T05:36:20Z" changeset="123743386" uid="3497659" user="NKA">
		<tag k="name" v="Flatmo" />
		<tag k="place" v="farm" />
		<tag k="ssr:stedsnr" v="178798" />
	</node>
	<node id="9894467169" lat="65.2511888" lon="12.7044851" version="1" timestamp="2022-07-18T05:36:20Z" changeset="123743386" uid="3497659" user="NKA">
		<tag k="name" v="Nordeng" />
		<tag k="place" v="farm" />
		<tag k="ssr:stedsnr" v="178169" />
	</node>
	<node id="9894467170" lat="65.4233333" lon="12.1419639" version="1" timestamp="2022-07-18T05:36:20Z" changeset="123743386" uid="3497659" user="NKA">
		<tag k="name" v="Ormøya" />
		<tag k="place" v="farm" />
		<tag k="ssr:stedsnr" v="75026" />
	</node>
	<node id="9894467171" lat="65.3562389" lon="12.7248805" version="1" timestamp="2022-07-18T05:36:20Z" changeset="123743386" uid="3497659" user="NKA">
		<tag k="name" v="Skjålia" />
		<tag k="place" v="isolated_dwelling" />
		<tag k="ssr:stedsnr" v="906137" />
	</node>
	<node id="9894467172" lat="65.4870214" lon="12.4360095" version="1" timestamp="2022-07-18T05:36:20Z" changeset="123743386" uid="3497659" user="NKA">
		<tag k="name" v="Lillevik" />
		<tag k="place" v="farm" />
		<tag k="ssr:stedsnr" v="903730" />
	</node>
	<node id="9894467173" lat="65.2933906" lon="12.6526009" version="1" timestamp="2022-07-18T05:36:20Z" changeset="123743386" uid="3497659" user="NKA">
		<tag k="alt_name" v="Pålskog;Skog" />
		<tag k="name" v="Pålskogen" />
		<tag k="place" v="hamlet" />
		<tag k="ssr:stedsnr" v="925234" />
	</node>
	<node id="9894467174" lat="65.4714805" lon="12.2783778" version="1" timestamp="2022-07-18T05:36:20Z" changeset="123743386" uid="3497659" user="NKA">
		<tag k="name" v="Otervika" />
		<tag k="place" v="farm" />
		<tag k="ssr:stedsnr" v="742274" />
	</node>
	<node id="9894467175" lat="65.2606848" lon="12.707128" version="1" timestamp="2022-07-18T05:36:20Z" changeset="123743386" uid="3497659" user="NKA">
		<tag k="name" v="Nordli" />
		<tag k="place" v="farm" />
		<tag k="ssr:stedsnr" v="723244" />
	</node>
	<node id="9894467176" lat="65.5359611" lon="12.1533584" version="1" timestamp="2022-07-18T05:36:20Z" changeset="123743386" uid="3497659" user="NKA">
		<tag k="name" v="Nordslåttøya" />
		<tag k="place" v="farm" />
		<tag k="ssr:stedsnr" v="829730" />
	</node>
	<node id="9894467177" lat="65.23385" lon="12.7539" version="1" timestamp="2022-07-18T05:36:20Z" changeset="123743386" uid="3497659" user="NKA">
		<tag k="loc_name" v="Hammarslia" />
		<tag k="name" v="Hammarlia" />
		<tag k="place" v="locality" />
		<tag k="ssr:stedsnr" v="560592" />
	</node>
	<node id="9894467178" lat="65.4426782" lon="12.4368558" version="1" timestamp="2022-07-18T05:36:20Z" changeset="123743386" uid="3497659" user="NKA">
		<tag k="alt_name" v="Aspås" />
		<tag k="name" v="Aspåsen" />
		<tag k="place" v="farm" />
		<tag k="ssr:stedsnr" v="682545" />
	</node>
	<node id="9894467179" lat="65.5221378" lon="12.2737346" version="1" timestamp="2022-07-18T05:36:20Z" changeset="123743386" uid="3497659" user="NKA">
		<tag k="name" v="Tilrem" />
		<tag k="place" v="hamlet" />
		<tag k="ssr:stedsnr" v="756827" />
	</node>
	<node id="9894467180" lat="65.497371" lon="12.2625894" version="1" timestamp="2022-07-18T05:36:20Z" changeset="123743386" uid="3497659" user="NKA">
		<tag k="name" v="Røytgården" />
		<tag k="place" v="farm" />
		<tag k="ssr:stedsnr" v="599233" />
	</node>
	<node id="9894467181" lat="65.4322611" lon="12.5599195" version="1" timestamp="2022-07-18T05:36:20Z" changeset="123743386" uid="3497659" user="NKA">
		<tag k="name" v="Lundvang" />
		<tag k="place" v="farm" />
		<tag k="ssr:stedsnr" v="440415" />
	</node>
	<node id="9894467182" lat="65.4091427" lon="12.5909888" version="1" timestamp="2022-07-18T05:36:20Z" changeset="123743386" uid="3497659" user="NKA">
		<tag k="name" v="Raudbergan" />
		<tag k="place" v="farm" />
		<tag k="ssr:stedsnr" v="240524" />
	</node>
	<node id="9894467183" lat="65.471433" lon="12.2480509" version="1" timestamp="2022-07-18T05:36:20Z" changeset="123743386" uid="3497659" user="NKA">
		<tag k="name" v="Trælvikoddan" />
		<tag k="place" v="hamlet" />
		<tag k="ssr:stedsnr" v="318296" />
	</node>
	<node id="9894467184" lat="65.2630781" lon="12.6081396" version="1" timestamp="2022-07-18T05:36:20Z" changeset="123743386" uid="3497659" user="NKA">
		<tag k="name" v="Votnan" />
		<tag k="place" v="hamlet" />
		<tag k="ssr:stedsnr" v="561141" />
	</node>
	<node id="9894467185" lat="65.3730642" lon="12.5334021" version="1" timestamp="2022-07-18T05:36:20Z" changeset="123743386" uid="3497659" user="NKA">
		<tag k="name" v="Tveitan" />
		<tag k="place" v="isolated_dwelling" />
		<tag k="ssr:stedsnr" v="257481" />
	</node>
	<node id="9894467186" lat="65.3139732" lon="12.6310213" version="1" timestamp="2022-07-18T05:36:20Z" changeset="123743386" uid="3497659" user="NKA">
		<tag k="alt_name" v="Fossmo" />
		<tag k="name" v="Fossmoen" />
		<tag k="place" v="farm" />
		<tag k="ssr:stedsnr" v="560275" />
	</node>
	<node id="9894467187" lat="65.3372452" lon="12.4872851" version="1" timestamp="2022-07-18T05:36:20Z" changeset="123743386" uid="3497659" user="NKA">
		<tag k="alt_name" v="Hongset nedre" />
		<tag k="loc_name" v="Nerhongset" />
		<tag k="name" v="Nedrehongset" />
		<tag k="place" v="farm" />
		<tag k="ssr:stedsnr" v="560343" />
	</node>
	<node id="9894467188" lat="65.5182268" lon="12.3164848" version="1" timestamp="2022-07-18T05:36:20Z" changeset="123743386" uid="3497659" user="NKA">
		<tag k="name" v="Fjellheim" />
		<tag k="place" v="farm" />
		<tag k="ssr:stedsnr" v="926947" />
	</node>
	<node id="9894467189" lat="65.4912166" lon="12.2387722" version="1" timestamp="2022-07-18T05:36:20Z" changeset="123743386" uid="3497659" user="NKA">
		<tag k="name" v="Salhus" />
		<tag k="place" v="suburb" />
		<tag k="ssr:stedsnr" v="681263" />
	</node>
	<node id="9894467190" lat="65.5007333" lon="12.3328055" version="1" timestamp="2022-07-18T05:36:20Z" changeset="123743386" uid="3497659" user="NKA">
		<tag k="name" v="Skille" />
		<tag k="place" v="farm" />
		<tag k="ssr:stedsnr" v="501770" />
	</node>
	<node id="9894467191" lat="65.5218444" lon="12.2744472" version="1" timestamp="2022-07-18T05:36:20Z" changeset="123743386" uid="3497659" user="NKA">
		<tag k="name" v="Matstuberget" />
		<tag k="place" v="locality" />
		<tag k="ssr:stedsnr" v="539093" />
	</node>
	<node id="9894467192" lat="65.4901555" lon="12.3242305" version="1" timestamp="2022-07-18T05:36:20Z" changeset="123743386" uid="3497659" user="NKA">
		<tag k="alt_name" v="Stokkvold;Stokkvollen" />
		<tag k="name" v="Stokkvoll" />
		<tag k="place" v="farm" />
		<tag k="ssr:stedsnr" v="257293" />
	</node>
	<node id="9894467193" lat="65.4883158" lon="12.2960301" version="1" timestamp="2022-07-18T05:36:20Z" changeset="123743386" uid="3497659" user="NKA">
		<tag k="name" v="Aunet" />
		<tag k="place" v="farm" />
		<tag k="ssr:stedsnr" v="378264" />
	</node>
	<node id="9894467194" lat="65.4941649" lon="12.4204835" version="1" timestamp="2022-07-18T05:36:20Z" changeset="123743386" uid="3497659" user="NKA">
		<tag k="alt_name" v="Saltbua;Salbu" />
		<tag k="name" v="Salbua" />
		<tag k="place" v="hamlet" />
		<tag k="ssr:stedsnr" v="803264" />
	</node>
	<node id="9894467195" lat="65.4595166" lon="12.4472223" version="1" timestamp="2022-07-18T05:36:20Z" changeset="123743386" uid="3497659" user="NKA">
		<tag k="name" v="Solheim" />
		<tag k="place" v="farm" />
		<tag k="ssr:stedsnr" v="257506" />
	</node>
	<node id="9894467196" lat="65.4955299" lon="12.258177" version="1" timestamp="2022-07-18T05:36:20Z" changeset="123743386" uid="3497659" user="NKA">
		<tag k="name" v="Heimstad" />
		<tag k="place" v="farm" />
		<tag k="ssr:stedsnr" v="660254" />
	</node>
	<node id="9894467197" lat="65.489125" lon="12.3473389" version="1" timestamp="2022-07-18T05:36:20Z" changeset="123743386" uid="3497659" user="NKA">
		<tag k="alt_name" v="Skillevik" />
		<tag k="name" v="Skillvika" />
		<tag k="place" v="hamlet" />
		<tag k="ssr:stedsnr" v="196249" />
	</node>
	<node id="9894467198" lat="65.5272028" lon="12.2594695" version="1" timestamp="2022-07-18T05:36:20Z" changeset="123743386" uid="3497659" user="NKA">
		<tag k="name" v="Myra" />
		<tag k="place" v="farm" />
		<tag k="ssr:stedsnr" v="453823" />
	</node>
	<node id="9894467199" lat="65.5142556" lon="12.3176373" version="1" timestamp="2022-07-18T05:36:20Z" changeset="123743386" uid="3497659" user="NKA">
		<tag k="alt_name" v="Brattås" />
		<tag k="name" v="Brattåsen" />
		<tag k="place" v="farm" />
		<tag k="ssr:stedsnr" v="622772" />
	</node>
	<node id="9894467200" lat="65.47216" lon="12.3390208" version="1" timestamp="2022-07-18T05:36:20Z" changeset="123743386" uid="3497659" user="NKA">
		<tag k="name" v="Aspehaug" />
		<tag k="place" v="farm" />
		<tag k="ssr:stedsnr" v="419609" />
	</node>
	<node id="9894467201" lat="65.4914866" lon="12.4251085" version="1" timestamp="2022-07-18T05:36:20Z" changeset="123743386" uid="3497659" user="NKA">
		<tag k="name" v="Nyland" />
		<tag k="place" v="farm" />
		<tag k="ssr:stedsnr" v="357728" />
	</node>
	<node id="9894467202" lat="65.4600714" lon="12.4286453" version="1" timestamp="2022-07-18T05:36:20Z" changeset="123743386" uid="3497659" user="NKA">
		<tag k="name" v="Sætermo" />
		<tag k="place" v="isolated_dwelling" />
		<tag k="ssr:stedsnr" v="357702" />
	</node>
	<node id="9894467203" lat="65.4703103" lon="12.3404531" version="1" timestamp="2022-07-18T05:36:20Z" changeset="123743386" uid="3497659" user="NKA">
		<tag k="name" v="Lundvang" />
		<tag k="place" v="farm" />
		<tag k="ssr:stedsnr" v="115373" />
	</node>
	<node id="9894467204" lat="65.4679917" lon="12.3566527" version="1" timestamp="2022-07-18T05:36:20Z" changeset="123743386" uid="3497659" user="NKA">
		<tag k="name" v="Innerskomo" />
		<tag k="place" v="farm" />
		<tag k="ssr:stedsnr" v="344757" />
	</node>
	<node id="9894467205" lat="65.3771317" lon="12.1906914" version="1" timestamp="2022-07-18T05:36:20Z" changeset="123743386" uid="3497659" user="NKA">
		<tag k="name" v="Strand" />
		<tag k="place" v="hamlet" />
		<tag k="ssr:stedsnr" v="925257" />
	</node>
	<node id="9894467206" lat="65.3867479" lon="12.2414951" version="1" timestamp="2022-07-18T05:36:20Z" changeset="123743386" uid="3497659" user="NKA">
		<tag k="alt_name" v="Reinfjord Lille" />
		<tag k="name" v="Lislreinfjorden" />
		<tag k="place" v="farm" />
		<tag k="ssr:stedsnr" v="864493" />
	</node>
	<node id="9894467207" lat="65.3784769" lon="12.1962018" version="1" timestamp="2022-07-18T05:36:20Z" changeset="123743386" uid="3497659" user="NKA">
		<tag k="name" v="Løveng" />
		<tag k="place" v="farm" />
		<tag k="ssr:stedsnr" v="785211" />
	</node>
	<node id="9894467208" lat="65.5723509" lon="12.301918" version="1" timestamp="2022-07-18T05:36:20Z" changeset="123743386" uid="3497659" user="NKA">
		<tag k="alt_name" v="Horn Store" />
		<tag k="name" v="Storhorn" />
		<tag k="place" v="hamlet" />
		<tag k="ssr:stedsnr" v="683892" />
	</node>
	<node id="9894467209" lat="65.3855071" lon="12.1711013" version="1" timestamp="2022-07-18T05:36:20Z" changeset="123743386" uid="3497659" user="NKA">
		<tag k="name" v="Sjøvolden" />
		<tag k="place" v="farm" />
		<tag k="ssr:stedsnr" v="661795" />
	</node>
	<node id="9894467210" lat="65.5686865" lon="12.3043363" version="1" timestamp="2022-07-18T05:36:20Z" changeset="123743386" uid="3497659" user="NKA">
		<tag k="name" v="Åsen" />
		<tag k="place" v="farm" />
		<tag k="ssr:stedsnr" v="804884" />
	</node>
	<node id="9894467211" lat="65.5768223" lon="12.3127223" version="1" timestamp="2022-07-18T05:36:20Z" changeset="123743386" uid="3497659" user="NKA">
		<tag k="name" v="Bjørkheim" />
		<tag k="place" v="farm" />
		<tag k="ssr:stedsnr" v="175794" />
	</node>
	<node id="9894467212" lat="65.5729895" lon="12.2613694" version="1" timestamp="2022-07-18T05:36:20Z" changeset="123743386" uid="3497659" user="NKA">
		<tag k="name" v="Storvika" />
		<tag k="place" v="farm" />
		<tag k="ssr:stedsnr" v="440890" />
	</node>
	<node id="9894467213" lat="65.5634805" lon="12.2863362" version="1" timestamp="2022-07-18T05:36:20Z" changeset="123743386" uid="3497659" user="NKA">
		<tag k="name" v="Aun" />
		<tag k="place" v="locality" />
		<tag k="ssr:stedsnr" v="682916" />
	</node>
	<node id="9894467214" lat="65.3602149" lon="12.6055605" version="1" timestamp="2022-07-18T05:36:20Z" changeset="123743386" uid="3497659" user="NKA">
		<tag k="name" v="Rørlia" />
		<tag k="place" v="hamlet" />
		<tag k="ssr:stedsnr" v="977116" />
	</node>
	<node id="9894467215" lat="65.5636414" lon="12.3216" version="1" timestamp="2022-07-18T05:36:20Z" changeset="123743386" uid="3497659" user="NKA">
		<tag k="name" v="Sandvik" />
		<tag k="place" v="hamlet" />
		<tag k="ssr:stedsnr" v="258884" />
	</node>
	<node id="9894467216" lat="65.358809" lon="12.5489751" version="1" timestamp="2022-07-18T05:36:20Z" changeset="123743386" uid="3497659" user="NKA">
		<tag k="alt_name" v="Sandvik" />
		<tag k="name" v="Sandvika" />
		<tag k="place" v="farm" />
		<tag k="ssr:stedsnr" v="925357" />
	</node>
	<node id="9894467217" lat="65.3643499" lon="12.5920318" version="1" timestamp="2022-07-18T05:36:20Z" changeset="123743386" uid="3497659" user="NKA">
		<tag k="name" v="Ytter-Rørlia" />
		<tag k="place" v="farm" />
		<tag k="ssr:stedsnr" v="977034" />
	</node>
	<node id="9894467218" lat="65.3918805" lon="12.6060084" version="1" timestamp="2022-07-18T05:36:20Z" changeset="123743386" uid="3497659" user="NKA">
		<tag k="name" v="Aasen" />
		<tag k="place" v="farm" />
		<tag k="ssr:stedsnr" v="663598" />
	</node>
	<node id="9894467219" lat="65.4122639" lon="12.4992778" version="1" timestamp="2022-07-18T05:36:20Z" changeset="123743386" uid="3497659" user="NKA">
		<tag k="name" v="Breivik" />
		<tag k="place" v="locality" />
		<tag k="ssr:stedsnr" v="782687" />
	</node>
	<node id="9894467220" lat="65.4079858" lon="12.6552321" version="1" timestamp="2022-07-18T05:36:20Z" changeset="123743386" uid="3497659" user="NKA">
		<tag k="loc_name" v="Ingelvika" />
		<tag k="name" v="Engelvika" />
		<tag k="place" v="farm" />
		<tag k="ssr:stedsnr" v="318468" />
	</node>
	<node id="9894467221" lat="65.3103104" lon="12.6342792" version="1" timestamp="2022-07-18T05:36:20Z" changeset="123743386" uid="3497659" user="NKA">
		<tag k="name" v="Skogrud" />
		<tag k="place" v="farm" />
		<tag k="ssr:stedsnr" v="500333" />
	</node>
	<node id="9894467222" lat="65.3217775" lon="12.6499162" version="1" timestamp="2022-07-18T05:36:20Z" changeset="123743386" uid="3497659" user="NKA">
		<tag k="name" v="Saus" />
		<tag k="place" v="hamlet" />
		<tag k="ssr:stedsnr" v="257326" />
	</node>
	<node id="9894467223" lat="65.373027" lon="12.6730742" version="1" timestamp="2022-07-18T05:36:20Z" changeset="123743386" uid="3497659" user="NKA">
		<tag k="name" v="Nyrud" />
		<tag k="place" v="farm" />
		<tag k="ssr:stedsnr" v="318425" />
	</node>
	<node id="9894467224" lat="65.4064233" lon="12.5083335" version="1" timestamp="2022-07-18T05:36:20Z" changeset="123743386" uid="3497659" user="NKA">
		<tag k="name" v="Naustvika" />
		<tag k="place" v="farm" />
		<tag k="ssr:stedsnr" v="977043" />
	</node>
	<node id="9894467225" lat="65.3600361" lon="12.6498583" version="1" timestamp="2022-07-18T05:36:20Z" changeset="123743386" uid="3497659" user="NKA">
		<tag k="name" v="Åkerli" />
		<tag k="place" v="farm" />
		<tag k="ssr:stedsnr" v="58665" />
	</node>
	<node id="9894467226" lat="65.3500827" lon="12.4786715" version="1" timestamp="2022-07-18T05:36:20Z" changeset="123743386" uid="3497659" user="NKA">
		<tag k="alt_name" v="Krommen" />
		<tag k="name" v="Krummen" />
		<tag k="place" v="farm" />
		<tag k="ssr:stedsnr" v="742288" />
	</node>
	<node id="9894467227" lat="65.3843054" lon="12.5172835" version="1" timestamp="2022-07-18T05:36:20Z" changeset="123743386" uid="3497659" user="NKA">
		<tag k="alt_name" v="Hølines" />
		<tag k="name" v="Hølineset" />
		<tag k="place" v="farm" />
		<tag k="ssr:stedsnr" v="196343" />
	</node>
	<node id="9894467228" lat="65.4140325" lon="12.5551732" version="1" timestamp="2022-07-18T05:36:20Z" changeset="123743386" uid="3497659" user="NKA">
		<tag k="name" v="Åsan" />
		<tag k="place" v="farm" />
		<tag k="ssr:stedsnr" v="665538" />
	</node>
	<node id="9894467229" lat="65.3255917" lon="12.6568833" version="1" timestamp="2022-07-18T05:36:20Z" changeset="123743386" uid="3497659" user="NKA">
		<tag k="name" v="Hulderheim" />
		<tag k="place" v="farm" />
		<tag k="ssr:stedsnr" v="361719" />
	</node>
	<node id="9894467230" lat="65.3956583" lon="12.577664" version="1" timestamp="2022-07-18T05:36:20Z" changeset="123743386" uid="3497659" user="NKA">
		<tag k="name" v="Vestad" />
		<tag k="place" v="farm" />
		<tag k="ssr:stedsnr" v="179713" />
	</node>
	<node id="9894467231" lat="65.3253889" lon="12.6537029" version="1" timestamp="2022-07-18T05:36:20Z" changeset="123743386" uid="3497659" user="NKA">
		<tag k="name" v="Alvheim" />
		<tag k="place" v="farm" />
		<tag k="ssr:stedsnr" v="422698" />
	</node>
	<node id="9894467232" lat="65.3512724" lon="12.680243" version="1" timestamp="2022-07-18T05:36:20Z" changeset="123743386" uid="3497659" user="NKA">
		<tag k="name" v="Meås" />
		<tag k="place" v="farm" />
		<tag k="ssr:stedsnr" v="177144" />
	</node>
	<node id="9894467233" lat="65.3912652" lon="12.6142345" version="1" timestamp="2022-07-18T05:36:20Z" changeset="123743386" uid="3497659" user="NKA">
		<tag k="name" v="Aunet" />
		<tag k="place" v="farm" />
		<tag k="ssr:stedsnr" v="178567" />
	</node>
	<node id="9894467234" lat="65.4807528" lon="12.629139" version="1" timestamp="2022-07-18T05:36:20Z" changeset="123743386" uid="3497659" user="NKA">
		<tag k="alt_name" v="Kvitnes" />
		<tag k="name" v="Kvitneset" />
		<tag k="place" v="farm" />
		<tag k="ssr:stedsnr" v="560276" />
	</node>
	<node id="9894467235" lat="65.3218944" lon="12.6529611" version="1" timestamp="2022-07-18T05:36:20Z" changeset="123743386" uid="3497659" user="NKA">
		<tag k="name" v="Slettvoll" />
		<tag k="place" v="farm" />
		<tag k="ssr:stedsnr" v="178791" />
	</node>
	<node id="9894467236" lat="65.4749833" lon="12.3521246" version="1" timestamp="2022-07-18T05:36:20Z" changeset="123743386" uid="3497659" user="NKA">
		<tag k="name" v="Skomo" />
		<tag k="place" v="hamlet" />
		<tag k="ssr:stedsnr" v="977005" />
	</node>
	<node id="9894467237" lat="65.4643917" lon="12.1833943" version="1" timestamp="2022-07-18T05:36:20Z" changeset="123743386" uid="3497659" user="NKA">
		<tag k="name" v="Sørmarka" />
		<tag k="place" v="locality" />
		<tag k="ssr:stedsnr" v="967850" />
	</node>
	<node id="9894467238" lat="65.4245695" lon="12.2273362" version="1" timestamp="2022-07-18T05:36:20Z" changeset="123743386" uid="3497659" user="NKA">
		<tag k="name" v="Karijorda" />
		<tag k="place" v="farm" />
		<tag k="ssr:stedsnr" v="925431" />
	</node>
	<node id="9894467239" lat="65.5766157" lon="12.3169142" version="1" timestamp="2022-07-18T05:36:20Z" changeset="123743386" uid="3497659" user="NKA">
		<tag k="alt_name" v="Horn Lille" />
		<tag k="name" v="Lislhorn" />
		<tag k="place" v="hamlet" />
		<tag k="ssr:stedsnr" v="926899" />
	</node>
	<node id="9894467240" lat="65.4010748" lon="12.1067531" version="1" timestamp="2022-07-18T05:36:20Z" changeset="123743386" uid="3497659" user="NKA">
		<tag k="name" v="Aspnes" />
		<tag k="place" v="farm" />
		<tag k="ssr:stedsnr" v="481499" />
	</node>
	<node id="9894467241" lat="65.4547256" lon="12.1570983" version="1" timestamp="2022-07-18T05:36:20Z" changeset="123743386" uid="3497659" user="NKA">
		<tag k="name" v="Kvaløya" />
		<tag k="place" v="farm" />
		<tag k="ssr:stedsnr" v="924089" />
	</node>
	<node id="9894467242" lat="65.4737224" lon="12.1592827" version="1" timestamp="2022-07-18T05:36:20Z" changeset="123743386" uid="3497659" user="NKA">
		<tag k="alt_name" v="Fjellsøy" />
		<tag k="name" v="Fjellsøya" />
		<tag k="place" v="farm" />
		<tag k="ssr:stedsnr" v="378071" />
	</node>
	<node id="9894467243" lat="65.4894" lon="12.3078805" version="1" timestamp="2022-07-18T05:36:20Z" changeset="123743386" uid="3497659" user="NKA">
		<tag k="name" v="Solbakken" />
		<tag k="place" v="farm" />
		<tag k="ssr:stedsnr" v="429941" />
	</node>
	<node id="9894467244" lat="65.4741944" lon="12.2900444" version="1" timestamp="2022-07-18T05:36:20Z" changeset="123743386" uid="3497659" user="NKA">
		<tag k="name" v="Lenvik" />
		<tag k="place" v="farm" />
		<tag k="ssr:stedsnr" v="357416" />
	</node>
	<node id="9894467245" lat="65.5624501" lon="12.3024764" version="1" timestamp="2022-07-18T05:36:20Z" changeset="123743386" uid="3497659" user="NKA">
		<tag k="name" v="Hagvåg" />
		<tag k="place" v="farm" />
		<tag k="ssr:stedsnr" v="296783" />
	</node>
	<node id="9894467246" lat="65.4423805" lon="12.3065639" version="1" timestamp="2022-07-18T05:36:20Z" changeset="123743386" uid="3497659" user="NKA">
		<tag k="alt_name" v="Flatmo" />
		<tag k="name" v="Flatmoen" />
		<tag k="place" v="farm" />
		<tag k="ssr:stedsnr" v="197542" />
	</node>
	<node id="9894467247" lat="65.5785998" lon="12.301834" version="1" timestamp="2022-07-18T05:36:20Z" changeset="123743386" uid="3497659" user="NKA">
		<tag k="name" v="Aspåsen" />
		<tag k="place" v="farm" />
		<tag k="ssr:stedsnr" v="235817" />
	</node>
	<node id="9894467248" lat="65.3937945" lon="12.0988418" version="1" timestamp="2022-07-18T05:36:20Z" changeset="123743386" uid="3497659" user="NKA">
		<tag k="name" v="Innerhatten" />
		<tag k="place" v="farm" />
		<tag k="ssr:stedsnr" v="196209" />
	</node>
	<node id="9894467249" lat="65.4531027" lon="12.3294" version="1" timestamp="2022-07-18T05:36:20Z" changeset="123743386" uid="3497659" user="NKA">
		<tag k="alt_name" v="Grønvoll" />
		<tag k="name" v="Grønvollen" />
		<tag k="place" v="farm" />
		<tag k="ssr:stedsnr" v="682503" />
	</node>
	<node id="9894467250" lat="65.2692222" lon="12.7733166" version="1" timestamp="2022-07-18T05:36:20Z" changeset="123743386" uid="3497659" user="NKA">
		<tag k="historic" v="shieling" />
		<tag k="name" v="Landsætran" />
		<tag k="place" v="isolated_dwelling" />
		<tag k="ssr:stedsnr" v="664356" />
	</node>
	<node id="9894467251" lat="65.4337889" lon="12.2541" version="1" timestamp="2022-07-18T05:36:20Z" changeset="123743386" uid="3497659" user="NKA">
		<tag k="name" v="Kråknes" />
		<tag k="place" v="hamlet" />
		<tag k="ssr:stedsnr" v="864538" />
	</node>
	<node id="9894467252" lat="65.4308482" lon="12.4415744" version="1" timestamp="2022-07-18T05:36:20Z" changeset="123743386" uid="3497659" user="NKA">
		<tag k="name" v="Stranden" />
		<tag k="place" v="hamlet" />
		<tag k="ssr:stedsnr" v="804495" />
	</node>
	<node id="9894467253" lat="65.4371163" lon="12.4320243" version="1" timestamp="2022-07-18T05:36:20Z" changeset="123743386" uid="3497659" user="NKA">
		<tag k="alt_name" v="Sørsæteren" />
		<tag k="name" v="Sørsætra" />
		<tag k="place" v="farm" />
		<tag k="ssr:stedsnr" v="539376" />
	</node>
	<node id="9894467254" lat="65.4375028" lon="12.4276222" version="1" timestamp="2022-07-18T05:36:20Z" changeset="123743386" uid="3497659" user="NKA">
		<tag k="name" v="Gjerdet" />
		<tag k="place" v="farm" />
		<tag k="ssr:stedsnr" v="842430" />
	</node>
	<node id="9894467255" lat="65.4510958" lon="12.3121957" version="1" timestamp="2022-07-18T05:36:20Z" changeset="123743386" uid="3497659" user="NKA">
		<tag k="name" v="Åsan" />
		<tag k="place" v="farm" />
		<tag k="ssr:stedsnr" v="621482" />
	</node>
	<node id="9894467256" lat="65.4959028" lon="12.1059053" version="1" timestamp="2022-07-18T05:36:20Z" changeset="123743386" uid="3497659" user="NKA">
		<tag k="name" v="Stortorgnes" />
		<tag k="place" v="farm" />
		<tag k="ssr:stedsnr" v="977000" />
	</node>
	<node id="9894467257" lat="65.4920944" lon="12.1086029" version="1" timestamp="2022-07-18T05:36:20Z" changeset="123743386" uid="3497659" user="NKA">
		<tag k="name" v="Trappen" />
		<tag k="place" v="farm" />
		<tag k="ssr:stedsnr" v="743873" />
	</node>
	<node id="9894467258" lat="65.4561903" lon="12.2015493" version="1" timestamp="2022-07-18T05:36:20Z" changeset="123743386" uid="3497659" user="NKA">
		<tag k="name" v="Hovøy nordre" />
		<tag k="place" v="farm" />
		<tag k="ssr:stedsnr" v="906890" />
	</node>
	<node id="9894467259" lat="65.5076538" lon="12.1260358" version="1" timestamp="2022-07-18T05:36:20Z" changeset="123743386" uid="3497659" user="NKA">
		<tag k="alt_name" v="Stortorgnes" />
		<tag k="name" v="Ballsaren" />
		<tag k="place" v="hamlet" />
		<tag k="ssr:stedsnr" v="683180" />
	</node>
	<node id="9894467260" lat="65.4606645" lon="12.1507927" version="1" timestamp="2022-07-18T05:36:20Z" changeset="123743386" uid="3497659" user="NKA">
		<tag k="name" v="Havsekra" />
		<tag k="place" v="farm" />
		<tag k="ssr:stedsnr" v="723720" />
	</node>
	<node id="9894467261" lat="65.4897834" lon="12.1071806" version="1" timestamp="2022-07-18T05:36:20Z" changeset="123743386" uid="3497659" user="NKA">
		<tag k="name" v="Torgnesvika" />
		<tag k="place" v="farm" />
		<tag k="ssr:stedsnr" v="76863" />
	</node>
	<node id="9894467262" lat="65.489243" lon="12.1116593" version="1" timestamp="2022-07-18T05:36:20Z" changeset="123743386" uid="3497659" user="NKA">
		<tag k="name" v="Lisltorgnes" />
		<tag k="place" v="hamlet" />
		<tag k="ssr:stedsnr" v="136883" />
	</node>
	<node id="9894467263" lat="65.4907084" lon="12.1563472" version="1" timestamp="2022-07-18T05:36:20Z" changeset="123743386" uid="3497659" user="NKA">
		<tag k="alt_name" v="Hestmark" />
		<tag k="name" v="Hestmarka" />
		<tag k="place" v="farm" />
		<tag k="ssr:stedsnr" v="15885" />
	</node>
	<node id="9894467264" lat="65.424275" lon="12.1172749" version="1" timestamp="2022-07-18T05:36:20Z" changeset="123743386" uid="3497659" user="NKA">
		<tag k="name" v="Gullvika" />
		<tag k="place" v="farm" />
		<tag k="ssr:stedsnr" v="75019" />
	</node>
	<node id="9894467265" lat="65.5323" lon="12.1486251" version="1" timestamp="2022-07-18T05:36:20Z" changeset="123743386" uid="3497659" user="NKA">
		<tag k="name" v="Lisslåttøya" />
		<tag k="place" v="farm" />
		<tag k="ssr:stedsnr" v="647754" />
	</node>
	<node id="9894467266" lat="65.5091306" lon="12.1276" version="1" timestamp="2022-07-18T05:36:20Z" changeset="123743386" uid="3497659" user="NKA">
		<tag k="name" v="Haugen" />
		<tag k="place" v="farm" />
		<tag k="ssr:stedsnr" v="622203" />
	</node>
	<node id="9894467267" lat="65.4695427" lon="12.1501465" version="1" timestamp="2022-07-18T05:36:20Z" changeset="123743386" uid="3497659" user="NKA">
		<tag k="name" v="Trudvang" />
		<tag k="place" v="farm" />
		<tag k="ssr:stedsnr" v="845394" />
	</node>
	<node id="9894467268" lat="65.4512529" lon="12.1921806" version="1" timestamp="2022-07-18T05:36:20Z" changeset="123743386" uid="3497659" user="NKA">
		<tag k="name" v="Bakken" />
		<tag k="place" v="farm" />
		<tag k="ssr:stedsnr" v="196006" />
	</node>
	<node id="9894467269" lat="65.4099552" lon="12.548362" version="1" timestamp="2022-07-18T05:36:20Z" changeset="123743386" uid="3497659" user="NKA">
		<tag k="name" v="Hillstad" />
		<tag k="place" v="hamlet" />
		<tag k="ssr:stedsnr" v="977028" />
	</node>
	<node id="9894467270" lat="65.4565514" lon="12.5569241" version="1" timestamp="2022-07-18T05:36:20Z" changeset="123743386" uid="3497659" user="NKA">
		<tag k="name" v="Mortenøya" />
		<tag k="place" v="farm" />
		<tag k="ssr:stedsnr" v="989612" />
	</node>
	<node id="9894467271" lat="65.3586511" lon="12.6014482" version="1" timestamp="2022-07-18T05:36:20Z" changeset="123743386" uid="3497659" user="NKA">
		<tag k="name" v="Inner-Rørlia" />
		<tag k="place" v="farm" />
		<tag k="ssr:stedsnr" v="977033" />
	</node>
	<node id="9894467272" lat="65.4832641" lon="12.5842277" version="1" timestamp="2022-07-18T05:36:20Z" changeset="123743386" uid="3497659" user="NKA">
		<tag k="name" v="Draugvika" />
		<tag k="place" v="locality" />
		<tag k="ssr:stedsnr" v="989596" />
	</node>
	<node id="9894467273" lat="65.4046417" lon="12.5951721" version="1" timestamp="2022-07-18T05:36:20Z" changeset="123743386" uid="3497659" user="NKA">
		<tag k="name" v="Aunet" />
		<tag k="place" v="farm" />
		<tag k="ssr:stedsnr" v="925537" />
	</node>
	<node id="9894467274" lat="65.4292533" lon="12.4395325" version="1" timestamp="2022-07-18T05:36:20Z" changeset="123743386" uid="3497659" user="NKA">
		<tag k="name" v="Sørstrand" />
		<tag k="place" v="farm" />
		<tag k="ssr:stedsnr" v="963449" />
	</node>
	<node id="9894467275" lat="65.4277056" lon="12.5463473" version="1" timestamp="2022-07-18T05:36:20Z" changeset="123743386" uid="3497659" user="NKA">
		<tag k="alt_name" v="Lien" />
		<tag k="name" v="Oggårdslia" />
		<tag k="place" v="farm" />
		<tag k="ssr:stedsnr" v="924351" />
	</node>
	<node id="9894467276" lat="65.3665014" lon="12.6905239" version="1" timestamp="2022-07-18T05:36:20Z" changeset="123743386" uid="3497659" user="NKA">
		<tag k="name" v="Lyngstad" />
		<tag k="place" v="farm" />
		<tag k="ssr:stedsnr" v="925384" />
	</node>
	<node id="9894467277" lat="65.4002278" lon="12.4256749" version="1" timestamp="2022-07-18T05:36:20Z" changeset="123743386" uid="3497659" user="NKA">
		<tag k="alt_name" v="Grøndalshaugen" />
		<tag k="name" v="Grøndalen" />
		<tag k="place" v="isolated_dwelling" />
		<tag k="ssr:stedsnr" v="804461" />
	</node>
	<node id="9894467278" lat="65.5268601" lon="12.5886333" version="1" timestamp="2022-07-18T05:36:20Z" changeset="123743386" uid="3497659" user="NKA">
		<tag k="alt_name" v="Sildkoven" />
		<tag k="name" v="Sildkovan" />
		<tag k="place" v="farm" />
		<tag k="ssr:stedsnr" v="804813" />
	</node>
	<node id="9894467279" lat="65.350573" lon="12.5134634" version="1" timestamp="2022-07-18T05:36:20Z" changeset="123743386" uid="3497659" user="NKA">
		<tag k="name" v="Fagernes" />
		<tag k="place" v="farm" />
		<tag k="ssr:stedsnr" v="782524" />
	</node>
	<node id="9894467280" lat="65.4299156" lon="12.5172489" version="1" timestamp="2022-07-18T05:36:20Z" changeset="123743386" uid="3497659" user="NKA">
		<tag k="alt_name" v="Enge nedre" />
		<tag k="loc_name" v="Nerengja" />
		<tag k="name" v="Nedrengja" />
		<tag k="place" v="farm" />
		<tag k="ssr:stedsnr" v="804428" />
	</node>
	<node id="9894467281" lat="65.4075444" lon="12.5309944" version="1" timestamp="2022-07-18T05:36:20Z" changeset="123743386" uid="3497659" user="NKA">
		<tag k="name" v="Naustviklia" />
		<tag k="place" v="farm" />
		<tag k="ssr:stedsnr" v="682525" />
	</node>
	<node id="9894467282" lat="65.431931" lon="12.6145523" version="1" timestamp="2022-07-18T05:36:20Z" changeset="123743386" uid="3497659" user="NKA">
		<tag k="alt_name" v="Råknes" />
		<tag k="name" v="Råkneset" />
		<tag k="place" v="farm" />
		<tag k="ssr:stedsnr" v="742351" />
	</node>
	<node id="9894467283" lat="65.3657417" lon="12.4858277" version="1" timestamp="2022-07-18T05:36:20Z" changeset="123743386" uid="3497659" user="NKA">
		<tag k="name" v="Remman" />
		<tag k="place" v="farm" />
		<tag k="ssr:stedsnr" v="440363" />
	</node>
	<node id="9894467284" lat="65.3890222" lon="12.6182834" version="1" timestamp="2022-07-18T05:36:20Z" changeset="123743386" uid="3497659" user="NKA">
		<tag k="name" v="Vonheim" />
		<tag k="place" v="farm" />
		<tag k="ssr:stedsnr" v="663595" />
	</node>
	<node id="9894467285" lat="65.5324333" lon="12.5834944" version="1" timestamp="2022-07-18T05:36:20Z" changeset="123743386" uid="3497659" user="NKA">
		<tag k="name" v="Selta" />
		<tag k="place" v="locality" />
		<tag k="ssr:stedsnr" v="76942" />
	</node>
	<node id="9894467286" lat="65.3680203" lon="12.5974324" version="1" timestamp="2022-07-18T05:36:20Z" changeset="123743386" uid="3497659" user="NKA">
		<tag k="name" v="Ytterrørlia" />
		<tag k="place" v="farm" />
		<tag k="ssr:stedsnr" v="379335" />
	</node>
	<node id="9894467287" lat="65.4554694" lon="12.4754251" version="1" timestamp="2022-07-18T05:36:20Z" changeset="123743386" uid="3497659" user="NKA">
		<tag k="name" v="Fagervika" />
		<tag k="place" v="farm" />
		<tag k="ssr:stedsnr" v="14377" />
	</node>
	<node id="9894467288" lat="65.4311861" lon="12.6317917" version="1" timestamp="2022-07-18T05:36:20Z" changeset="123743386" uid="3497659" user="NKA">
		<tag k="name" v="Myrheim" />
		<tag k="place" v="farm" />
		<tag k="ssr:stedsnr" v="14297" />
	</node>
	<node id="9894467289" lat="65.3244777" lon="12.9225473" version="1" timestamp="2022-07-18T05:36:20Z" changeset="123743386" uid="3497659" user="NKA">
		<tag k="name" v="Sætran" />
		<tag k="place" v="isolated_dwelling" />
		<tag k="ssr:stedsnr" v="782128" />
	</node>
	<node id="9894467290" lat="65.4135707" lon="12.626754" version="1" timestamp="2022-07-18T05:36:20Z" changeset="123743386" uid="3497659" user="NKA">
		<tag k="alt_name" v="Bakkan" />
		<tag k="name" v="Bakken" />
		<tag k="place" v="farm" />
		<tag k="ssr:stedsnr" v="500539" />
	</node>
	<node id="9894467291" lat="65.2918659" lon="13.0549286" version="1" timestamp="2022-07-18T05:36:20Z" changeset="123743386" uid="3497659" user="NKA">
		<tag k="alt_name" v="Tosdal" />
		<tag k="name" v="Tosdalen" />
		<tag k="place" v="farm" />
		<tag k="ssr:stedsnr" v="743075" />
	</node>
	<node id="9894467292" lat="65.4684738" lon="12.3604835" version="1" timestamp="2022-07-18T05:36:20Z" changeset="123743386" uid="3497659" user="NKA">
		<tag k="name" v="Inner-Skomo" />
		<tag k="place" v="farm" />
		<tag k="ssr:stedsnr" v="977093" />
	</node>
	<node id="9894467293" lat="65.3317" lon="12.9386055" version="1" timestamp="2022-07-18T05:36:20Z" changeset="123743386" uid="3497659" user="NKA">
		<tag k="alt_name" v="Bekkevold" />
		<tag k="name" v="Bekkevoll" />
		<tag k="place" v="farm" />
		<tag k="ssr:stedsnr" v="379001" />
	</node>
	<node id="9894467294" lat="65.4257003" lon="12.5395401" version="1" timestamp="2022-07-18T05:36:20Z" changeset="123743386" uid="3497659" user="NKA">
		<tag k="alt_name" v="Hegge lille" />
		<tag k="name" v="Lislhegge" />
		<tag k="place" v="farm" />
		<tag k="ssr:stedsnr" v="924350" />
	</node>
	<node id="9894467295" lat="65.5089663" lon="12.3976509" version="1" timestamp="2022-07-18T05:36:20Z" changeset="123743386" uid="3497659" user="NKA">
		<tag k="name" v="Heimen" />
		<tag k="place" v="farm" />
		<tag k="ssr:stedsnr" v="968316" />
	</node>
	<node id="9894467296" lat="65.5883352" lon="12.5698391" version="1" timestamp="2022-07-18T05:36:20Z" changeset="123743386" uid="3497659" user="NKA">
		<tag k="alt_name" v="Storfjord" />
		<tag k="name" v="Storfjorden" />
		<tag k="place" v="farm" />
		<tag k="ssr:stedsnr" v="561884" />
	</node>
	<node id="9894467297" lat="65.4453973" lon="12.4333215" version="1" timestamp="2022-07-18T05:36:20Z" changeset="123743386" uid="3497659" user="NKA">
		<tag k="name" v="Åsheim" />
		<tag k="place" v="isolated_dwelling" />
		<tag k="ssr:stedsnr" v="599353" />
	</node>
	<node id="9894467298" lat="65.4367111" lon="12.5899832" version="1" timestamp="2022-07-18T05:36:20Z" changeset="123743386" uid="3497659" user="NKA">
		<tag k="name" v="Vollan" />
		<tag k="place" v="farm" />
		<tag k="ssr:stedsnr" v="481464" />
	</node>
	<node id="9894467299" lat="65.4466461" lon="12.5185963" version="1" timestamp="2022-07-18T05:36:20Z" changeset="123743386" uid="3497659" user="NKA">
		<tag k="name" v="Groven" />
		<tag k="place" v="farm" />
		<tag k="ssr:stedsnr" v="500560" />
	</node>
	<node id="9894467300" lat="65.5109" lon="12.5629612" version="1" timestamp="2022-07-18T05:36:20Z" changeset="123743386" uid="3497659" user="NKA">
		<tag k="name" v="Fagerlia" />
		<tag k="place" v="farm" />
		<tag k="ssr:stedsnr" v="258787" />
	</node>
	<node id="9894467301" lat="65.4702743" lon="12.3599987" version="1" timestamp="2022-07-18T05:36:20Z" changeset="123743386" uid="3497659" user="NKA">
		<tag k="name" v="Fagerheim" />
		<tag k="place" v="farm" />
		<tag k="ssr:stedsnr" v="357348" />
	</node>
	<node id="9894467302" lat="65.4877416" lon="12.3570527" version="1" timestamp="2022-07-18T05:36:20Z" changeset="123743386" uid="3497659" user="NKA">
		<tag k="name" v="Ytterskomo" />
		<tag k="place" v="farm" />
		<tag k="ssr:stedsnr" v="223765" />
	</node>
	<node id="9894467303" lat="65.4716811" lon="12.353852" version="1" timestamp="2022-07-18T05:36:20Z" changeset="123743386" uid="3497659" user="NKA">
		<tag k="name" v="Hytter" />
		<tag k="place" v="neighbourhood" />
		<tag k="ssr:stedsnr" v="135284" />
	</node>
	<node id="9894467304" lat="65.4768401" lon="12.3655531" version="1" timestamp="2022-07-18T05:36:20Z" changeset="123743386" uid="3497659" user="NKA">
		<tag k="name" v="Innerskomo" />
		<tag k="place" v="farm" />
		<tag k="ssr:stedsnr" v="223766" />
	</node>
	<node id="9894467305" lat="65.4662583" lon="12.3557695" version="1" timestamp="2022-07-18T05:36:20Z" changeset="123743386" uid="3497659" user="NKA">
		<tag k="name" v="Staulan" />
		<tag k="place" v="neighbourhood" />
		<tag k="ssr:stedsnr" v="964431" />
	</node>
	<node id="9894467306" lat="65.4736604" lon="12.3448165" version="1" timestamp="2022-07-18T05:36:20Z" changeset="123743386" uid="3497659" user="NKA">
		<tag k="name" v="Ytter-Skomo" />
		<tag k="place" v="farm" />
		<tag k="ssr:stedsnr" v="977094" />
	</node>
	<node id="9894467307" lat="65.4892008" lon="12.3195831" version="1" timestamp="2022-07-18T05:36:20Z" changeset="123743386" uid="3497659" user="NKA">
		<tag k="name" v="Langås" />
		<tag k="place" v="farm" />
		<tag k="ssr:stedsnr" v="783600" />
	</node>
	<node id="9894467308" lat="65.3968814" lon="12.260351" version="1" timestamp="2022-07-18T05:36:20Z" changeset="123743386" uid="3497659" user="NKA">
		<tag k="name" v="Midtli" />
		<tag k="place" v="farm" />
		<tag k="ssr:stedsnr" v="904575" />
	</node>
	<node id="9894467309" lat="65.4755513" lon="12.2968912" version="1" timestamp="2022-07-18T05:36:20Z" changeset="123743386" uid="3497659" user="NKA">
		<tag k="alt_name" v="Kjønvik" />
		<tag k="name" v="Tjørnvika" />
		<tag k="place" v="farm" />
		<tag k="ssr:stedsnr" v="439287" />
	</node>
	<node id="9894467310" lat="65.457025" lon="12.2118028" version="1" timestamp="2022-07-18T05:36:20Z" changeset="123743386" uid="3497659" user="NKA">
		<tag k="name" v="Solvang" />
		<tag k="place" v="farm" />
		<tag k="ssr:stedsnr" v="378100" />
	</node>
	<node id="9894467311" lat="65.4675403" lon="12.2980256" version="1" timestamp="2022-07-18T05:36:20Z" changeset="123743386" uid="3497659" user="NKA">
		<tag k="name" v="Kjølsøya" />
		<tag k="place" v="hamlet" />
		<tag k="ssr:stedsnr" v="439278" />
	</node>
	<node id="9894467312" lat="65.4910611" lon="12.3210249" version="1" timestamp="2022-07-18T05:36:20Z" changeset="123743386" uid="3497659" user="NKA">
		<tag k="name" v="Åsheim" />
		<tag k="place" v="farm" />
		<tag k="ssr:stedsnr" v="135266" />
	</node>
	<node id="9894467313" lat="65.5217061" lon="12.2886705" version="1" timestamp="2022-07-18T05:36:20Z" changeset="123743386" uid="3497659" user="NKA">
		<tag k="name" v="Einvollan" />
		<tag k="place" v="farm" />
		<tag k="ssr:stedsnr" v="319957" />
	</node>
	<node id="9894467314" lat="65.497788" lon="12.3412265" version="1" timestamp="2022-07-18T05:36:20Z" changeset="123743386" uid="3497659" user="NKA">
		<tag k="name" v="Skille" />
		<tag k="place" v="hamlet" />
		<tag k="ssr:stedsnr" v="75276" />
	</node>
	<node id="9894467315" lat="65.4436083" lon="12.3337139" version="1" timestamp="2022-07-18T05:36:20Z" changeset="123743386" uid="3497659" user="NKA">
		<tag k="name" v="Trøskog" />
		<tag k="place" v="farm" />
		<tag k="ssr:stedsnr" v="115861" />
	</node>
	<node id="9894467316" lat="65.4429327" lon="12.3010773" version="1" timestamp="2022-07-18T05:36:20Z" changeset="123743386" uid="3497659" user="NKA">
		<tag k="alt_name" v="Krokåen" />
		<tag k="name" v="Krokåa" />
		<tag k="place" v="hamlet" />
		<tag k="ssr:stedsnr" v="14370" />
	</node>
	<node id="9894467317" lat="65.5274944" lon="12.2628082" version="1" timestamp="2022-07-18T05:36:20Z" changeset="123743386" uid="3497659" user="NKA">
		<tag k="name" v="Osbråten" />
		<tag k="place" v="farm" />
		<tag k="ssr:stedsnr" v="865942" />
	</node>
	<node id="9894467318" lat="65.5173783" lon="12.3374123" version="1" timestamp="2022-07-18T05:36:20Z" changeset="123743386" uid="3497659" user="NKA">
		<tag k="name" v="Skåren" />
		<tag k="place" v="hamlet" />
		<tag k="ssr:stedsnr" v="865946" />
	</node>
	<node id="9894467319" lat="65.4968474" lon="12.2527749" version="1" timestamp="2022-07-18T05:36:20Z" changeset="123743386" uid="3497659" user="NKA">
		<tag k="name" v="Aunan" />
		<tag k="place" v="farm" />
		<tag k="ssr:stedsnr" v="864283" />
	</node>
	<node id="9894467320" lat="65.5024446" lon="12.2574643" version="1" timestamp="2022-07-18T05:36:20Z" changeset="123743386" uid="3497659" user="NKA">
		<tag k="alt_name" v="Skarås;Skarsås" />
		<tag k="name" v="Skardsåsen" />
		<tag k="place" v="farm" />
		<tag k="ssr:stedsnr" v="865791" />
	</node>
	<node id="9894467321" lat="65.3974132" lon="12.2664906" version="1" timestamp="2022-07-18T05:36:20Z" changeset="123743386" uid="3497659" user="NKA">
		<tag k="name" v="Bjørkvollmoen" />
		<tag k="place" v="farm" />
		<tag k="ssr:stedsnr" v="844612" />
	</node>
	<node id="9894467322" lat="65.4700561" lon="12.3552214" version="1" timestamp="2022-07-18T05:36:20Z" changeset="123743386" uid="3497659" user="NKA">
		<tag k="name" v="Heimdal" />
		<tag k="place" v="farm" />
		<tag k="ssr:stedsnr" v="660378" />
	</node>
	<node id="9894467323" lat="65.4790371" lon="12.3331088" version="1" timestamp="2022-07-18T05:36:20Z" changeset="123743386" uid="3497659" user="NKA">
		<tag k="name" v="Moen" />
		<tag k="place" v="hamlet" />
		<tag k="ssr:stedsnr" v="81602" />
	</node>
	<node id="9894467324" lat="65.556377" lon="12.3003163" version="1" timestamp="2022-07-18T05:36:20Z" changeset="123743386" uid="3497659" user="NKA">
		<tag k="name" v="Lund" />
		<tag k="place" v="hamlet" />
		<tag k="ssr:stedsnr" v="136998" />
	</node>
	<node id="9894467325" lat="65.5341361" lon="12.475661" version="1" timestamp="2022-07-18T05:36:20Z" changeset="123743386" uid="3497659" user="NKA">
		<tag k="name" v="Sommarset" />
		<tag k="place" v="locality" />
		<tag k="ssr:stedsnr" v="926930" />
	</node>
	<node id="9894467326" lat="65.4995766" lon="12.3155252" version="1" timestamp="2022-07-18T05:36:20Z" changeset="123743386" uid="3497659" user="NKA">
		<tag k="name" v="Engelshågjen" />
		<tag k="place" v="farm" />
		<tag k="ssr:stedsnr" v="54285" />
	</node>
	<node id="9894467327" lat="65.339325" lon="12.5104027" version="1" timestamp="2022-07-18T05:36:20Z" changeset="123743386" uid="3497659" user="NKA">
		<tag k="alt_name" v="Hongset øvre" />
		<tag k="loc_name" v="Øverhongset" />
		<tag k="name" v="Øvrehongset" />
		<tag k="place" v="farm" />
		<tag k="ssr:stedsnr" v="803354" />
	</node>
	<node id="9894467328" lat="65.5356778" lon="12.4510084" version="1" timestamp="2022-07-18T05:36:20Z" changeset="123743386" uid="3497659" user="NKA">
		<tag k="name" v="Troa" />
		<tag k="place" v="locality" />
		<tag k="ssr:stedsnr" v="804937" />
	</node>
	<node id="9894467329" lat="65.3408292" lon="12.4962704" version="1" timestamp="2022-07-18T05:36:20Z" changeset="123743386" uid="3497659" user="NKA">
		<tag k="name" v="Tømnes" />
		<tag k="place" v="isolated_dwelling" />
		<tag k="ssr:stedsnr" v="782481" />
	</node>
	<node id="9894467330" lat="65.4315445" lon="12.5099279" version="1" timestamp="2022-07-18T05:36:20Z" changeset="123743386" uid="3497659" user="NKA">
		<tag k="alt_name" v="Enge øvre" />
		<tag k="loc_name" v="Øverengja" />
		<tag k="name" v="Øvrengja" />
		<tag k="place" v="farm" />
		<tag k="ssr:stedsnr" v="682438" />
	</node>
	<node id="9894467331" lat="65.4267908" lon="12.4856565" version="1" timestamp="2022-07-18T05:36:20Z" changeset="123743386" uid="3497659" user="NKA">
		<tag k="name" v="Brattås" />
		<tag k="place" v="hamlet" />
		<tag k="ssr:stedsnr" v="742362" />
	</node>
	<node id="9894467332" lat="65.4632526" lon="12.4503118" version="1" timestamp="2022-07-18T05:36:20Z" changeset="123743386" uid="3497659" user="NKA">
		<tag k="alt_name" v="Vandalsvik" />
		<tag k="name" v="Vandalsvika" />
		<tag k="place" v="hamlet" />
		<tag k="ssr:stedsnr" v="439446" />
	</node>
	<node id="9894467333" lat="65.4805115" lon="12.4419308" version="1" timestamp="2022-07-18T05:36:20Z" changeset="123743386" uid="3497659" user="NKA">
		<tag k="alt_name" v="Skomovik" />
		<tag k="name" v="Skomovika" />
		<tag k="place" v="hamlet" />
		<tag k="ssr:stedsnr" v="500366" />
	</node>
	<node id="9894467334" lat="65.3997015" lon="12.5254913" version="1" timestamp="2022-07-18T05:36:20Z" changeset="123743386" uid="3497659" user="NKA">
		<tag k="alt_name" v="Skogheim" />
		<tag k="name" v="Skogholt" />
		<tag k="place" v="farm" />
		<tag k="ssr:stedsnr" v="318520" />
	</node>
	<node id="9894467335" lat="65.5523611" lon="12.5275028" version="1" timestamp="2022-07-18T05:36:20Z" changeset="123743386" uid="3497659" user="NKA">
		<tag k="name" v="Vassbugen" />
		<tag k="place" v="locality" />
		<tag k="ssr:stedsnr" v="440983" />
	</node>
	<node id="9894467336" lat="65.4889164" lon="12.4319223" version="1" timestamp="2022-07-18T05:36:20Z" changeset="123743386" uid="3497659" user="NKA">
		<tag k="name" v="Myrvang" />
		<tag k="place" v="farm" />
		<tag k="ssr:stedsnr" v="296721" />
	</node>
	<node id="9894467337" lat="65.3909139" lon="12.5457362" version="1" timestamp="2022-07-18T05:36:20Z" changeset="123743386" uid="3497659" user="NKA">
		<tag k="name" v="Sørgården" />
		<tag k="place" v="farm" />
		<tag k="ssr:stedsnr" v="301740" />
	</node>
	<node id="9894467338" lat="65.3588245" lon="12.5102607" version="1" timestamp="2022-07-18T05:36:20Z" changeset="123743386" uid="3497659" user="NKA">
		<tag k="alt_name" v="Forbergskog" />
		<tag k="name" v="Forbergskogen" />
		<tag k="place" v="farm" />
		<tag k="ssr:stedsnr" v="803314" />
	</node>
	<node id="9894467339" lat="65.5208013" lon="12.4622431" version="1" timestamp="2022-07-18T05:36:20Z" changeset="123743386" uid="3497659" user="NKA">
		<tag k="name" v="Okan" />
		<tag k="place" v="farm" />
		<tag k="ssr:stedsnr" v="258800" />
	</node>
	<node id="9894467340" lat="65.4083237" lon="12.546413" version="1" timestamp="2022-07-18T05:36:20Z" changeset="123743386" uid="3497659" user="NKA">
		<tag k="name" v="Gimle" />
		<tag k="place" v="farm" />
		<tag k="ssr:stedsnr" v="422506" />
	</node>
	<node id="9894467341" lat="65.4098335" lon="12.4381187" version="1" timestamp="2022-07-18T05:36:20Z" changeset="123743386" uid="3497659" user="NKA">
		<tag k="name" v="Svalheim" />
		<tag k="place" v="farm" />
		<tag k="ssr:stedsnr" v="742437" />
	</node>
	<node id="9894467342" lat="65.5071416" lon="12.3685707" version="1" timestamp="2022-07-18T05:36:20Z" changeset="123743386" uid="3497659" user="NKA">
		<tag k="name" v="Solglimt" />
		<tag k="place" v="isolated_dwelling" />
		<tag k="ssr:stedsnr" v="175299" />
	</node>
	<node id="9894467343" lat="65.3377246" lon="12.4998577" version="1" timestamp="2022-07-18T05:36:20Z" changeset="123743386" uid="3497659" user="NKA">
		<tag k="name" v="Hongset" />
		<tag k="place" v="hamlet" />
		<tag k="ssr:stedsnr" v="451366" />
	</node>
	<node id="9894467344" lat="65.4371809" lon="12.4420131" version="1" timestamp="2022-07-18T05:36:20Z" changeset="123743386" uid="3497659" user="NKA">
		<tag k="name" v="Evensgård" />
		<tag k="place" v="farm" />
		<tag k="ssr:stedsnr" v="53447" />
	</node>
	<node id="9894467345" lat="65.4445472" lon="12.4395306" version="1" timestamp="2022-07-18T05:36:20Z" changeset="123743386" uid="3497659" user="NKA">
		<tag k="name" v="Lysholt" />
		<tag k="place" v="isolated_dwelling" />
		<tag k="ssr:stedsnr" v="53394" />
	</node>
	<node id="9894467346" lat="65.420905" lon="12.4115626" version="1" timestamp="2022-07-18T05:36:20Z" changeset="123743386" uid="3497659" user="NKA">
		<tag k="alt_name" v="Govasmark" />
		<tag k="name" v="Godvassmarka" />
		<tag k="place" v="farm" />
		<tag k="ssr:stedsnr" v="14309" />
	</node>
	<node id="9894467347" lat="65.4961991" lon="12.2467293" version="1" timestamp="2022-07-18T05:36:20Z" changeset="123743386" uid="3497659" user="NKA">
		<tag k="name" v="Bjønnåsen" />
		<tag k="place" v="farm" />
		<tag k="ssr:stedsnr" v="115828" />
	</node>
	<node id="255083216" lat="65.4662674" lon="12.1860595" version="3" timestamp="2020-03-15T17:35:06Z" changeset="82223254" uid="3497659" user="NKA" />
	<node id="892974733" lat="65.4628262" lon="12.1888788" version="2" timestamp="2020-03-15T17:35:06Z" changeset="82223254" uid="3497659" user="NKA" />
	<node id="2031727992" lat="65.4655257" lon="12.1886929" version="2" timestamp="2020-03-15T17:35:06Z" changeset="82223254" uid="3497659" user="NKA" />
	<node id="255083207" lat="65.4639006" lon="12.1912098" version="4" timestamp="2020-03-15T17:35:06Z" changeset="82223254" uid="3497659" user="NKA" />
	<node id="255083208" lat="65.4641732" lon="12.1913923" version="4" timestamp="2020-03-15T17:35:06Z" changeset="82223254" uid="3497659" user="NKA" />
	<node id="255083209" lat="65.4645712" lon="12.1912887" version="4" timestamp="2020-03-15T17:35:06Z" changeset="82223254" uid="3497659" user="NKA" />
	<node id="255083210" lat="65.4647007" lon="12.1911453" version="4" timestamp="2020-03-15T17:35:06Z" changeset="82223254" uid="3497659" user="NKA" />
	<node id="255083211" lat="65.4649027" lon="12.190777" version="3" timestamp="2020-03-15T17:35:06Z" changeset="82223254" uid="3497659" user="NKA" />
	<node id="892974628" lat="65.4633613" lon="12.1901439" version="3" timestamp="2020-03-15T17:35:06Z" changeset="82223254" uid="3497659" user="NKA" />
	<node id="892974671" lat="65.465162" lon="12.1899687" version="2" timestamp="2020-03-15T17:35:06Z" changeset="82223254" uid="3497659" user="NKA" />
	<node id="892974706" lat="65.4643478" lon="12.1913971" version="3" timestamp="2020-03-15T17:35:06Z" changeset="82223254" uid="3497659" user="NKA" />
	<node id="892974824" lat="65.4636497" lon="12.1907984" version="3" timestamp="2020-03-15T17:35:06Z" changeset="82223254" uid="3497659" user="NKA" />
	<node id="2031727989" lat="65.4637641" lon="12.1910256" version="2" timestamp="2020-03-15T17:35:06Z" changeset="82223254" uid="3497659" user="NKA" />
	<node id="2031727997" lat="65.4648093" lon="12.1909806" version="2" timestamp="2020-03-15T17:35:06Z" changeset="82223254" uid="3497659" user="NKA" />
	<node id="2031727998" lat="65.4640295" lon="12.191319" version="2" timestamp="2020-03-15T17:35:06Z" changeset="82223254" uid="3497659" user="NKA" />
	<node id="2031728006" lat="65.4644492" lon="12.1913636" version="2" timestamp="2020-03-15T17:35:06Z" changeset="82223254" uid="3497659" user="NKA" />
	<node id="2031728016" lat="65.4650198" lon="12.1904584" version="2" timestamp="2020-03-15T17:35:06Z" changeset="82223254" uid="3497659" user="NKA" />
	<node id="7297232882" lat="65.471111" lon="12.206835" version="1" timestamp="2020-03-15T17:35:06Z" changeset="82223254" uid="3497659" user="NKA" />
	<node id="7297234937" lat="65.471047" lon="12.206762" version="1" timestamp="2020-03-15T17:35:06Z" changeset="82223254" uid="3497659" user="NKA" />
	<way id="26196532" version="12" timestamp="2022-05-19T05:52:02Z" changeset="121175032" uid="3497659" user="NKA">
		<tag k="bridge" v="yes" />
		<tag k="bridge:structure" v="beam" />
		<tag k="highway" v="secondary" />
		<tag k="layer" v="1" />
		<tag k="loc_name" v="Brønnøysundbrua" />
		<tag k="maxspeed" v="50" />
		<tag k="name" v="Brønnøysund bru" />
		<tag k="old_ref" v="54" />
		<tag k="ref" v="7234" />
		<tag k="ssr:stedsnr" v="360868" />
		<tag k="wikidata" v="Q2615972" />
		<nd ref="892974733" />
		<nd ref="892974628" />
		<nd ref="892974824" />
		<nd ref="2031727989" />
		<nd ref="255083207" />
		<nd ref="2031727998" />
		<nd ref="255083208" />
		<nd ref="892974706" />
		<nd ref="2031728006" />
		<nd ref="255083209" />
		<nd ref="255083210" />
		<nd ref="2031727997" />
		<nd ref="255083211" />
		<nd ref="2031728016" />
		<nd ref="892974671" />
		<nd ref="2031727992" />
		<nd ref="255083216" />
	</way>
	<way id="781589450" version="3" timestamp="2022-05-19T05:52:02Z" changeset="121175032" uid="3497659" user="NKA">
		<tag k="bridge" v="yes" />
		<tag k="bridge:description" v="Frøkenosen" />
		<tag k="highway" v="primary" />
		<tag k="layer" v="1" />
		<tag k="maxspeed" v="40" />
		<tag k="name" v="Frøkenosbrua" />
		<tag k="ref" v="778" />
		<tag k="ssr:stedsnr" v="238382" />
		<tag k="surface" v="asphalt" />
		<nd ref="7297232882" />
		<nd ref="7297234937" />
	</way>
</osm>
