<?xml version="1.0" encoding="UTF-8"?>
<osm generator="osmapis" version="0.6">
	<node id="-502271" lat="61.0603416628" lon="4.76557778689">
		<tag k="name" v="Ytre Vassneset" />
		<tag k="natural" v="cape" />
		<tag k="ssr:stedsnr" v="408607" />
	</node>
	<node id="-503294" lat="61.0385249996" lon="4.77521943797">
		<tag k="name" v="Nipevatnet" />
		<tag k="natural" v="water" />
		<tag k="ssr:stedsnr" v="434457" />
	</node>
	<node id="-503292" lat="61.031074996" lon="4.72515000783">
		<tag k="alt_name" v="Håsvatnet" />
		<tag k="name" v="Horsvatnet" />
		<tag k="natural" v="water" />
		<tag k="ssr:stedsnr" v="434447" />
	</node>
	<node id="-502778" lat="61.1646250025" lon="4.86755278099">
		<tag k="name" v="Holevatnet" />
		<tag k="natural" v="water" />
		<tag k="ssr:stedsnr" v="130023" />
	</node>
	<node id="-502527" lat="61.1349055597" lon="4.936730555">
		<tag k="name" v="Lendet" />
		<tag k="natural" v="bay" />
		<tag k="ssr:stedsnr" v="43746" />
	</node>
	<node id="-502263" lat="61.1973277779" lon="4.96198889768">
		<tag k="name" v="Tjørna" />
		<tag k="natural" v="water" />
		<tag k="ssr:stedsnr" v="408393" />
	</node>
	<node id="-503798" lat="61.0614133195" lon="4.78624320931">
		<tag k="name" v="Klubbevatnet" />
		<tag k="natural" v="water" />
		<tag k="ssr:stedsnr" v="616284" />
	</node>
	<node id="-503283" lat="61.0861222183" lon="4.84173610744">
		<tag k="fixme" v="multiple name tags, choose one and add the other to alt_name" />
		<tag k="name" v="Kvernhusvatnet;Småvatnet" />
		<tag k="natural" v="water" />
		<tag k="ssr:stedsnr" v="434298" />
	</node>
	<node id="-503793" lat="61.0594777785" lon="4.76558056368">
		<tag k="name" v="Storevatnet" />
		<tag k="natural" v="water" />
		<tag k="ssr:stedsnr" v="616234" />
	</node>
	<node id="-504304" lat="61.0477666705" lon="4.68410277765">
		<tag k="alt_name" v="Vågsvatnet;Durstivatnet" />
		<tag k="name" v="Dyrstigvatnet" />
		<tag k="natural" v="water" />
		<tag k="ssr:stedsnr" v="798747" />
	</node>
	<node id="-504302" lat="61.0709694473" lon="4.69155556018">
		<tag k="alt_name" v="Kroktjørnane" />
		<tag k="name" v="Kroktjørna" />
		<tag k="natural" v="water" />
		<tag k="ssr:stedsnr" v="798735" />
	</node>
	<node id="-503277" lat="61.0568388904" lon="4.89421388564">
		<tag k="alt_name" v="Mevatnet" />
		<tag k="name" v="Medvatnet" />
		<tag k="natural" v="water" />
		<tag k="ssr:stedsnr" v="434246" />
	</node>
	<node id="-504300" lat="61.0772442682" lon="4.6955497578">
		<tag k="name" v="Olavatnet" />
		<tag k="natural" v="water" />
		<tag k="ssr:stedsnr" v="798717" />
	</node>
	<node id="-503634" lat="61.0514777765" lon="4.67417499817">
		<tag k="name" v="Svartevatnet" />
		<tag k="natural" v="water" />
		<tag k="ssr:stedsnr" v="555775" />
	</node>
	<node id="-503786" lat="61.1413027813" lon="4.99583611074">
		<tag k="name" v="Hamnavatnet" />
		<tag k="natural" v="water" />
		<tag k="ssr:stedsnr" v="616181" />
	</node>
	<node id="-503273" lat="61.0589166671" lon="4.8042944494">
		<tag k="name" v="Langevatnet" />
		<tag k="natural" v="water" />
		<tag k="ssr:stedsnr" v="434230" />
	</node>
	<node id="-503271" lat="61.1567666694" lon="4.95398333312">
		<tag k="name" v="Berteltjørna" />
		<tag k="natural" v="water" />
		<tag k="ssr:stedsnr" v="434217" />
	</node>
	<node id="-503780" lat="61.1898583306" lon="4.97230834065">
		<tag k="name" v="Kroktjørna" />
		<tag k="natural" v="water" />
		<tag k="ssr:stedsnr" v="616058" />
	</node>
	<node id="-503779" lat="61.1911944479" lon="4.97582499969">
		<tag k="name" v="Frukosttjørna" />
		<tag k="natural" v="water" />
		<tag k="ssr:stedsnr" v="616057" />
	</node>
	<node id="-503266" lat="61.1396888846" lon="4.88733054956">
		<tag k="fixme" v="multiple name tags, choose one and add the other to alt_name" />
		<tag k="name" v="Kvernhusvatnet;Vaulevatnet" />
		<tag k="natural" v="water" />
		<tag k="ssr:stedsnr" v="434177" />
	</node>
	<node id="-502949" lat="61.1625583318" lon="4.87783611227">
		<tag k="fixme" v="multiple name tags, choose one and add the other to alt_name" />
		<tag k="name" v="Hamnavatnet;Kvernhusvatnet" />
		<tag k="natural" v="water" />
		<tag k="ssr:stedsnr" v="191024" />
	</node>
	<node id="-503254" lat="61.1755611076" lon="4.91673888476">
		<tag k="name" v="Lona" />
		<tag k="natural" v="water" />
		<tag k="ssr:stedsnr" v="434034" />
	</node>
	<node id="-503758" lat="61.0990611078" lon="4.98372778284">
		<tag k="name" v="Svartevatnet" />
		<tag k="natural" v="water" />
		<tag k="ssr:stedsnr" v="615291" />
	</node>
	<node id="-503755" lat="61.1573611088" lon="4.96870000741">
		<tag k="name" v="Koparlona" />
		<tag k="natural" v="water" />
		<tag k="ssr:stedsnr" v="615213" />
		<tag k="water" v="lake" />
	</node>
	<node id="-503753" lat="61.1313388882" lon="4.88594444095">
		<tag k="name" v="Lonene" />
		<tag k="natural" v="water" />
		<tag k="ssr:stedsnr" v="615163" />
	</node>
	<node id="-502924" lat="61.0930749958" lon="4.95659721674">
		<tag k="name" v="Storelva" />
		<tag k="ssr:stedsnr" v="166908" />
		<tag k="waterway" v="stream" />
	</node>
	<node id="-504261" lat="61.1484249967" lon="4.95999999579">
		<tag k="name" v="Kvernhusvatnet" />
		<tag k="natural" v="water" />
		<tag k="ssr:stedsnr" v="798218" />
	</node>
	<node id="-503236" lat="61.1434416628" lon="4.97551666448">
		<tag k="alt_name" v="Engevikvatnet, s" />
		<tag k="name" v="Søre Engevikvatnet" />
		<tag k="natural" v="water" />
		<tag k="ssr:stedsnr" v="416177" />
	</node>
	<node id="-503747" lat="61.1658111101" lon="4.91625277972">
		<tag k="name" v="Måseneset" />
		<tag k="natural" v="cape" />
		<tag k="ssr:stedsnr" v="615027" />
	</node>
	<node id="-502209" lat="61.0150055544" lon="4.67663056292">
		<tag k="name" v="Måsevatnet" />
		<tag k="natural" v="water" />
		<tag k="ssr:stedsnr" v="373969" />
	</node>
	<node id="-503230" lat="61.0067500022" lon="4.71257222498">
		<tag k="name" v="Kvernhusvatnet" />
		<tag k="natural" v="water" />
		<tag k="ssr:stedsnr" v="252968" />
	</node>
	<node id="-504250" lat="61.1252727434" lon="4.96325223404">
		<tag k="fixme" v="multiple name tags, choose one and add the other to alt_name" />
		<tag k="name" v="Kjøvatnet;Kvernhusvatnet" />
		<tag k="natural" v="water" />
		<tag k="ssr:stedsnr" v="798136" />
		<tag k="water" v="lake" />
	</node>
	<node id="-504249" lat="61.1215305579" lon="4.89919166674">
		<tag k="name" v="Kvernhusvatnet" />
		<tag k="natural" v="water" />
		<tag k="ssr:stedsnr" v="798135" />
	</node>
	<node id="-503734" lat="61.1469249993" lon="5.0567777692">
		<tag k="alt_name" v="Furenesvatnet, s" />
		<tag k="name" v="Søre Furenesvatnet" />
		<tag k="natural" v="water" />
		<tag k="ssr:stedsnr" v="598199" />
	</node>
	<node id="-502195" lat="61.0351166693" lon="4.6899583359">
		<tag k="name" v="Storskortjørna" />
		<tag k="natural" v="water" />
		<tag k="ssr:stedsnr" v="373791" />
	</node>
	<node id="-502704" lat="61.0615249995" lon="4.7691972311">
		<tag k="name" v="Indre Vassneset" />
		<tag k="natural" v="cape" />
		<tag k="ssr:stedsnr" v="104588" />
	</node>
	<node id="-502191" lat="61.0583444413" lon="4.69995278458">
		<tag k="name" v="Otretjørna" />
		<tag k="natural" v="water" />
		<tag k="ssr:stedsnr" v="373771" />
	</node>
	<node id="-503724" lat="61.1627111137" lon="4.96759167065">
		<tag k="name" v="Høyhellerneset" />
		<tag k="natural" v="cape" />
		<tag k="ssr:stedsnr" v="591923" />
	</node>
	<node id="-504235" lat="61.1697416661" lon="4.91218889587">
		<tag k="name" v="Vassenden" />
		<tag k="natural" v="bay" />
		<tag k="ssr:stedsnr" v="798036" />
	</node>
	<node id="-503111" lat="61.2044811304" lon="4.77575323331">
		<tag k="name" v="Nordre Kvernhusvatnet" />
		<tag k="natural" v="water" />
		<tag k="ssr:stedsnr" v="227456" />
		<tag k="water" v="lake" />
	</node>
	<node id="-502182" lat="61.1068111076" lon="4.99340556068">
		<tag k="name" v="Dyreråstjørna" />
		<tag k="natural" v="water" />
		<tag k="ssr:stedsnr" v="373356" />
	</node>
	<node id="-502181" lat="61.1088583328" lon="4.97943610332">
		<tag k="alt_name" v="Steinskartjørna" />
		<tag k="name" v="Steinskardtjørna" />
		<tag k="natural" v="water" />
		<tag k="ssr:stedsnr" v="373355" />
	</node>
	<node id="-503716" lat="61.1675583365" lon="4.91327776861">
		<tag k="name" v="Søre Vassenden" />
		<tag k="natural" v="bay" />
		<tag k="ssr:stedsnr" v="590931" />
	</node>
	<node id="-502512" lat="61.012369449" lon="4.68287222982">
		<tag k="name" v="Steindalstjørna" />
		<tag k="natural" v="water" />
		<tag k="ssr:stedsnr" v="43001" />
	</node>
	<node id="-502166" lat="61.0505527809" lon="4.76886943995">
		<tag k="name" v="Merkingsvatnet" />
		<tag k="natural" v="water" />
		<tag k="ssr:stedsnr" v="373244" />
	</node>
	<node id="-503701" lat="61.2009138903" lon="4.77880832863">
		<tag k="name" v="Søre Kvernhusvatnet" />
		<tag k="natural" v="water" />
		<tag k="ssr:stedsnr" v="590463" />
		<tag k="water" v="lake" />
	</node>
	<node id="-502164" lat="61.1605444408" lon="4.99441667483">
		<tag k="name" v="Herpefruvatnet" />
		<tag k="natural" v="water" />
		<tag k="ssr:stedsnr" v="373228" />
	</node>
	<node id="-503790" lat="61.1518583339" lon="4.99652500337">
		<tag k="name" v="Skorsvatnet" />
		<tag k="natural" v="water" />
		<tag k="ssr:stedsnr" v="616201" />
	</node>
	<node id="-504207" lat="61.1649555579" lon="4.96636111845">
		<tag k="name" v="Vassenden" />
		<tag k="natural" v="bay" />
		<tag k="ssr:stedsnr" v="772998" />
	</node>
	<node id="-502157" lat="61.1456833327" lon="4.96089167321">
		<tag k="name" v="Stokkevatnet" />
		<tag k="natural" v="water" />
		<tag k="ssr:stedsnr" v="373167" />
	</node>
	<node id="-504204" lat="61.1408444461" lon="4.95941388263">
		<tag k="name" v="Timredalstjørna" />
		<tag k="natural" v="water" />
		<tag k="ssr:stedsnr" v="772942" />
	</node>
	<node id="-502155" lat="61.1358527741" lon="4.97821389596">
		<tag k="name" v="Dingedalslona" />
		<tag k="natural" v="water" />
		<tag k="ssr:stedsnr" v="373140" />
	</node>
	<node id="-502154" lat="61.1300416643" lon="5.06691667057">
		<tag k="name" v="Vadvatnet" />
		<tag k="natural" v="water" />
		<tag k="ssr:stedsnr" v="373136" />
	</node>
	<node id="-502665" lat="61.0467014199" lon="4.65308792467">
		<tag k="name" v="Benvivatnet" />
		<tag k="natural" v="water" />
		<tag k="ssr:stedsnr" v="70780" />
	</node>
	<node id="-503688" lat="61.2114861108" lon="4.76079444554">
		<tag k="name" v="Otervatnet" />
		<tag k="natural" v="water" />
		<tag k="ssr:stedsnr" v="590148" />
	</node>
	<node id="-502151" lat="61.1181722264" lon="4.94820276994">
		<tag k="name" v="Klovetjørna" />
		<tag k="natural" v="water" />
		<tag k="ssr:stedsnr" v="373117" />
	</node>
	<node id="-504197" lat="61.0177090354" lon="4.70428628838">
		<tag k="name" v="Krokevatnet" />
		<tag k="natural" v="water" />
		<tag k="ssr:stedsnr" v="772794" />
		<tag k="water" v="lake" />
	</node>
	<node id="-502288" lat="61.1282972233" lon="4.89986667348">
		<tag k="name" v="Litleidet" />
		<tag k="natural" v="strait" />
		<tag k="ssr:stedsnr" v="408873" />
	</node>
	<node id="-503682" lat="61.1479777787" lon="4.91673334206">
		<tag k="name" v="Indre Kvernhusvatnet" />
		<tag k="natural" v="water" />
		<tag k="ssr:stedsnr" v="589883" />
		<tag k="water" v="lake" />
	</node>
	<node id="-503169" lat="61.1297472232" lon="4.96936110823">
		<tag k="alt_name" v="Hellersvatnet" />
		<tag k="name" v="Hellevatnet" />
		<tag k="natural" v="water" />
		<tag k="ssr:stedsnr" v="252124" />
	</node>
	<node id="-503104" lat="61.1723472198" lon="4.91581665864">
		<tag k="name" v="Nesjane" />
		<tag k="natural" v="beach" />
		<tag k="ssr:stedsnr" v="226951" />
	</node>
	<node id="-502142" lat="61.1944555545" lon="4.98090556264">
		<tag k="fixme" v="multiple name tags, choose one and add the other to alt_name" />
		<tag k="name" v="Sandbotnvatnet;Storevatnet" />
		<tag k="natural" v="water" />
		<tag k="ssr:stedsnr" v="373071" />
	</node>
	<node id="-502141" lat="61.1842000036" lon="4.90398054831">
		<tag k="name" v="Holmtjørna" />
		<tag k="natural" v="water" />
		<tag k="ssr:stedsnr" v="373061" />
	</node>
	<node id="-504298" lat="61.2149694448" lon="4.83147222212">
		<tag k="name" v="Vikavatnet" />
		<tag k="natural" v="water" />
		<tag k="ssr:stedsnr" v="798886" />
	</node>
	<node id="-502138" lat="61.1689611112" lon="4.87526666131">
		<tag k="alt_name" v="Stovevatnet" />
		<tag k="name" v="Storevatnet" />
		<tag k="natural" v="water" />
		<tag k="ssr:stedsnr" v="373016" />
	</node>
	<node id="-502137" lat="61.1696611075" lon="4.96273334126">
		<tag k="name" v="Litlevatnet" />
		<tag k="natural" v="water" />
		<tag k="ssr:stedsnr" v="373012" />
	</node>
	<node id="-503188" lat="61.0758055577" lon="4.9229138883">
		<tag k="name" v="Losnetjørna" />
		<tag k="natural" v="water" />
		<tag k="ssr:stedsnr" v="252278" />
	</node>
	<node id="-504692" lat="61.1579194443" lon="4.87486943859">
		<tag k="alt_name" v="Vadvatnet, in" />
		<tag k="name" v="Indre Vadvatnet" />
		<tag k="natural" v="water" />
		<tag k="ssr:stedsnr" v="962001" />
	</node>
	<node id="-504689" lat="61.1388277748" lon="5.07688334071">
		<tag k="name" v="Tjørnane" />
		<tag k="natural" v="water" />
		<tag k="ssr:stedsnr" v="956024" />
	</node>
	<node id="-503016" lat="61.0283194472" lon="4.66032221407">
		<tag k="name" v="Kleivetjørna" />
		<tag k="natural" v="water" />
		<tag k="ssr:stedsnr" v="191919" />
	</node>
	<node id="-504686" lat="61.0928305537" lon="4.97291944272">
		<tag k="name" v="Litle Mjåtjørna" />
		<tag k="natural" v="water" />
		<tag k="ssr:stedsnr" v="955920" />
	</node>
	<node id="-504685" lat="61.1458833345" lon="4.96993333545">
		<tag k="name" v="Lona" />
		<tag k="natural" v="water" />
		<tag k="ssr:stedsnr" v="955906" />
		<tag k="water" v="lake" />
	</node>
	<node id="-503147" lat="61.0324305537" lon="4.70524722051">
		<tag k="fixme" v="multiple name tags, choose one and add the other to alt_name" />
		<tag k="name" v="Djupvikvatnet;Grastjørna" />
		<tag k="natural" v="water" />
		<tag k="ssr:stedsnr" v="251827" />
	</node>
	<node id="-502632" lat="61.1275249998" lon="4.97473889212">
		<tag k="alt_name" v="Klostrevatnet" />
		<tag k="name" v="Kløstrevatnet" />
		<tag k="natural" v="water" />
		<tag k="ssr:stedsnr" v="70127" />
	</node>
	<node id="-502631" lat="61.1197805578" lon="4.93406110577">
		<tag k="name" v="Tjørndalstjørna" />
		<tag k="natural" v="water" />
		<tag k="ssr:stedsnr" v="70124" />
	</node>
	<node id="-503006" lat="61.0394944432" lon="4.70261944731">
		<tag k="alt_name" v="Hestdalvatnet" />
		<tag k="name" v="Hestdalsvatnet" />
		<tag k="natural" v="water" />
		<tag k="ssr:stedsnr" v="191766" />
	</node>
	<node id="-504675" lat="61.166211113" lon="4.96072500614">
		<tag k="name" v="Endrebottlona" />
		<tag k="natural" v="bay" />
		<tag k="ssr:stedsnr" v="954980" />
	</node>
	<node id="-502626" lat="61.0688805561" lon="4.77044723117">
		<tag k="alt_name" v="Skippersvatnet" />
		<tag k="name" v="Skipersvatnet" />
		<tag k="natural" v="water" />
		<tag k="ssr:stedsnr" v="70266" />
	</node>
	<node id="-503611" lat="61.1551527762" lon="4.98074165888">
		<tag k="alt_name" v="Hestestilona" />
		<tag k="name" v="Hestestiglona" />
		<tag k="natural" v="water" />
		<tag k="ssr:stedsnr" v="555185" />
		<tag k="water" v="lake" />
	</node>
	<node id="-504672" lat="61.1336694453" lon="4.8941194373">
		<tag k="name" v="Bargarvika" />
		<tag k="natural" v="bay" />
		<tag k="ssr:stedsnr" v="954876" />
	</node>
	<node id="-504154" lat="61.0133999979" lon="4.68798610739">
		<tag k="name" v="Breidalsvatnet" />
		<tag k="natural" v="water" />
		<tag k="ssr:stedsnr" v="771007" />
		<tag k="water" v="lake" />
	</node>
	<node id="-503439" lat="61.0519555576" lon="4.74343889504">
		<tag k="name" v="Ekrevatnet" />
		<tag k="natural" v="water" />
		<tag k="ssr:stedsnr" v="494229" />
	</node>
	<node id="-502104" lat="61.1134000028" lon="4.89378889095">
		<tag k="name" v="Kvernhusvatnet" />
		<tag k="natural" v="water" />
		<tag k="ssr:stedsnr" v="348858" />
		<tag k="water" v="lake" />
	</node>
	<node id="-502615" lat="61.0453027744" lon="4.69925554827">
		<tag k="name" v="Pinevatnet" />
		<tag k="natural" v="water" />
		<tag k="ssr:stedsnr" v="69836" />
	</node>
	<node id="-503124" lat="61.1561083318" lon="4.87238889386">
		<tag k="alt_name" v="Vadvatnet, yt" />
		<tag k="name" v="Ytre Vadvatnet" />
		<tag k="natural" v="water" />
		<tag k="ssr:stedsnr" v="234005" />
	</node>
	<node id="-504659" lat="61.0861611139" lon="4.7900694464">
		<tag k="name" v="Trollholeelva" />
		<tag k="ssr:stedsnr" v="954788" />
		<tag k="waterway" v="stream" />
	</node>
	<node id="-504146" lat="61.0228805564" lon="4.66004723113">
		<tag k="name" v="Langevatnet" />
		<tag k="natural" v="water" />
		<tag k="ssr:stedsnr" v="737956" />
	</node>
	<node id="-502097" lat="61.0880333309" lon="4.77803888389">
		<tag k="name" v="Dyrenestjørna" />
		<tag k="natural" v="water" />
		<tag k="ssr:stedsnr" v="347978" />
	</node>
	<node id="-502607" lat="61.1736222184" lon="4.92192499248">
		<tag k="name" v="Skogadalsvika" />
		<tag k="natural" v="bay" />
		<tag k="ssr:stedsnr" v="70045" />
	</node>
	<node id="-503630" lat="61.0759045762" lon="4.6907888552">
		<tag k="name" v="Janvatnet" />
		<tag k="natural" v="water" />
		<tag k="ssr:stedsnr" v="555726" />
	</node>
	<node id="-503437" lat="61.1582972248" lon="4.99233888199">
		<tag k="name" v="Lonevatnet" />
		<tag k="natural" v="water" />
		<tag k="ssr:stedsnr" v="494219" />
	</node>
	<node id="-503627" lat="61.0534055524" lon="4.88744444916">
		<tag k="name" v="Rotevatnet" />
		<tag k="natural" v="water" />
		<tag k="ssr:stedsnr" v="555426" />
	</node>
	<node id="-503180" lat="61.1570027801" lon="4.96753611235">
		<tag k="alt_name" v="Nordre Engevikvatnet" />
		<tag k="name" v="Engevikvatnet" />
		<tag k="natural" v="water" />
		<tag k="ssr:stedsnr" v="252211" />
	</node>
	<node id="-503110" lat="61.2075472248" lon="4.84250555195">
		<tag k="name" v="Andersvatnet" />
		<tag k="natural" v="water" />
		<tag k="ssr:stedsnr" v="227388" />
		<tag k="water" v="lake" />
	</node>
	<node id="-503621" lat="61.0831224705" lon="4.8551262685">
		<tag k="name" v="Storevatnet" />
		<tag k="natural" v="water" />
		<tag k="ssr:stedsnr" v="555280" />
		<tag k="water" v="lake" />
	</node>
	<node id="-502594" lat="61.1192111152" lon="4.87122500101">
		<tag k="alt_name" v="Langedalsvatnet, nedre" />
		<tag k="name" v="Nedre Langedalsvatnet" />
		<tag k="natural" v="water" />
		<tag k="ssr:stedsnr" v="52162" />
	</node>
	<node id="-504130" lat="61.0468222243" lon="4.89441666423">
		<tag k="name" v="Lomtjørna" />
		<tag k="natural" v="water" />
		<tag k="ssr:stedsnr" v="737454" />
	</node>
	<node id="-503616" lat="61.0642916708" lon="4.7823027702">
		<tag k="name" v="Krokevatnet" />
		<tag k="natural" v="water" />
		<tag k="ssr:stedsnr" v="555241" />
	</node>
	<node id="-504639" lat="61.0600083326" lon="4.90116943993">
		<tag k="name" v="Leirgrova" />
		<tag k="ssr:stedsnr" v="954218" />
		<tag k="waterway" v="stream" />
	</node>
	<node id="-504638" lat="61.0725388879" lon="4.9236472282">
		<tag k="name" v="Synningetjørna" />
		<tag k="natural" v="water" />
		<tag k="ssr:stedsnr" v="954212" />
	</node>
	<node id="-504636" lat="61.0878444468" lon="4.92410276899">
		<tag k="name" v="Lomtjørna" />
		<tag k="natural" v="water" />
		<tag k="ssr:stedsnr" v="954205" />
	</node>
	<node id="-504123" lat="61.0857138887" lon="4.77508333444">
		<tag k="name" v="Kvernhusvatnet" />
		<tag k="natural" v="water" />
		<tag k="ssr:stedsnr" v="737344" />
	</node>
	<node id="-503609" lat="61.1340222177" lon="4.87252499221">
		<tag k="name" v="Maurstigvatnet" />
		<tag k="natural" v="water" />
		<tag k="ssr:stedsnr" v="555169" />
	</node>
	<node id="-503605" lat="61.1180583337" lon="4.8546888796">
		<tag k="name" v="Sauedalsvatnet" />
		<tag k="natural" v="water" />
		<tag k="ssr:stedsnr" v="555127" />
	</node>
	<node id="-504641" lat="61.1867888889" lon="4.97291388653">
		<tag k="name" v="Mørketjørna" />
		<tag k="natural" v="water" />
		<tag k="ssr:stedsnr" v="954308" />
	</node>
	<node id="-504114" lat="61.0716944431" lon="4.77873611995">
		<tag k="alt_name" v="Vedtjørnane" />
		<tag k="name" v="Vedtjørna" />
		<tag k="natural" v="water" />
		<tag k="ssr:stedsnr" v="737273" />
	</node>
	<node id="-502064" lat="61.1223098884" lon="4.82803806008">
		<tag k="name" v="Lauvvikevatnet" />
		<tag k="natural" v="water" />
		<tag k="ssr:stedsnr" v="347205" />
		<tag k="water" v="lake" />
	</node>
	<node id="-504200" lat="61.1272750013" lon="4.88639444438">
		<tag k="name" v="Grannelva" />
		<tag k="ssr:stedsnr" v="772871" />
		<tag k="waterway" v="stream" />
	</node>
	<node id="-502254" lat="61.0752333331" lon="4.73514167201">
		<tag k="name" v="Gåsetjørna" />
		<tag k="natural" v="water" />
		<tag k="ssr:stedsnr" v="408219" />
	</node>
	<node id="-501913" lat="61.156419445" lon="4.9698305628">
		<tag k="name" v="Gøymsleneset" />
		<tag k="natural" v="cape" />
		<tag k="ssr:stedsnr" v="287904" />
	</node>
	<node id="-503084" lat="61.0695194461" lon="4.78788055554">
		<tag k="name" v="Styggetjørn" />
		<tag k="natural" v="water" />
		<tag k="ssr:stedsnr" v="226652" />
	</node>
	<node id="-504107" lat="61.0683361099" lon="4.9345444355">
		<tag k="name" v="Kvernhusvatnet" />
		<tag k="natural" v="water" />
		<tag k="ssr:stedsnr" v="737242" />
	</node>
	<node id="-504104" lat="61.1606972203" lon="4.99867777759">
		<tag k="name" v="Dammen" />
		<tag k="natural" v="water" />
		<tag k="ssr:stedsnr" v="737219" />
	</node>
	<node id="-504103" lat="61.1511444467" lon="4.92931110572">
		<tag k="name" v="Styggetjørna" />
		<tag k="natural" v="water" />
		<tag k="ssr:stedsnr" v="737211" />
	</node>
	<node id="-503395" lat="61.1664805514" lon="4.96970832897">
		<tag k="name" v="Storefossen" />
		<tag k="natural" v="waterfall" />
		<tag k="ssr:stedsnr" v="469998" />
	</node>
	<node id="-502564" lat="61.0601111077" lon="4.85431389223">
		<tag k="name" v="Verpingsvikvatnet" />
		<tag k="natural" v="water" />
		<tag k="ssr:stedsnr" v="44677" />
		<tag k="water" v="lake" />
	</node>
	<node id="-503075" lat="61.0532222263" lon="4.8815138874">
		<tag k="name" v="Graslonene" />
		<tag k="natural" v="water" />
		<tag k="ssr:stedsnr" v="226272" />
		<tag k="water" v="lake" />
	</node>
	<node id="-503073" lat="61.0506500031" lon="4.87775832405">
		<tag k="name" v="Lona" />
		<tag k="natural" v="water" />
		<tag k="ssr:stedsnr" v="226270" />
		<tag k="water" v="lake" />
	</node>
	<node id="-502560" lat="61.0596888871" lon="4.76286389055">
		<tag k="name" v="Stolane" />
		<tag k="place" v="islet" />
		<tag k="ssr:stedsnr" v="44596" />
	</node>
	<node id="-503583" lat="61.1418527736" lon="5.05547777395">
		<tag k="alt_name" v="Knutsvatnet" />
		<tag k="name" v="Knutevatnet" />
		<tag k="natural" v="water" />
		<tag k="ssr:stedsnr" v="554207" />
	</node>
	<node id="-504093" lat="61.2022388859" lon="4.92172222344">
		<tag k="alt_name" v="Storeteigvatnet" />
		<tag k="name" v="Storteigvatnet" />
		<tag k="natural" v="water" />
		<tag k="ssr:stedsnr" v="737103" />
	</node>
	<node id="-502554" lat="61.1984111088" lon="4.96615555773">
		<tag k="name" v="Lomtjørna" />
		<tag k="natural" v="water" />
		<tag k="ssr:stedsnr" v="44356" />
	</node>
	<node id="-504111" lat="61.0727333337" lon="4.81203889616">
		<tag k="name" v="Steinsundvatnet" />
		<tag k="natural" v="water" />
		<tag k="ssr:stedsnr" v="737263" />
	</node>
	<node id="-504598" lat="61.0466000009" lon="4.75836388366">
		<tag k="name" v="Eikelivatnet" />
		<tag k="natural" v="water" />
		<tag k="ssr:stedsnr" v="920451" />
	</node>
	<node id="-504597" lat="61.1066083334" lon="4.90781388105">
		<tag k="name" v="Måsevatnet" />
		<tag k="natural" v="water" />
		<tag k="ssr:stedsnr" v="920345" />
	</node>
	<node id="-504596" lat="61.101013888" lon="4.9638500077">
		<tag k="name" v="Kråkåsvatnet" />
		<tag k="natural" v="water" />
		<tag k="ssr:stedsnr" v="920341" />
	</node>
	<node id="-502574" lat="61.171513885" lon="4.91376666034">
		<tag k="name" v="Storevika" />
		<tag k="natural" v="bay" />
		<tag k="ssr:stedsnr" v="44933" />
	</node>
	<node id="-503427" lat="61.2025222193" lon="4.77626665787">
		<tag k="name" v="Kvernhusvatna" />
		<tag k="natural" v="water" />
		<tag k="ssr:stedsnr" v="494107" />
	</node>
	<node id="-503566" lat="61.1496472227" lon="5.05770277855">
		<tag k="alt_name" v="Furenesvatnet, nordre" />
		<tag k="name" v="Nordre Furenesvatnet" />
		<tag k="natural" v="water" />
		<tag k="ssr:stedsnr" v="537188" />
	</node>
	<node id="-503564" lat="61.1432111086" lon="4.98023611033">
		<tag k="name" v="Storedalsneset" />
		<tag k="natural" v="cape" />
		<tag k="ssr:stedsnr" v="530947" />
	</node>
	<node id="-502999" lat="61.0729472262" lon="4.70444443671">
		<tag k="alt_name" v="Austingstjørnane" />
		<tag k="name" v="Austingstjørna" />
		<tag k="natural" v="water" />
		<tag k="ssr:stedsnr" v="191739" />
	</node>
	<node id="-503560" lat="61.1185027812" lon="4.89018610276">
		<tag k="name" v="Kloppetjørna" />
		<tag k="natural" v="water" />
		<tag k="ssr:stedsnr" v="530868" />
	</node>
	<node id="-502060" lat="61.1420638855" lon="4.86163611335">
		<tag k="name" v="Moane" />
		<tag k="natural" v="cape" />
		<tag k="ssr:stedsnr" v="347183" />
	</node>
	<node id="-502082" lat="61.0563694427" lon="4.77622223119">
		<tag k="name" v="Litlesulvatnet" />
		<tag k="natural" v="water" />
		<tag k="ssr:stedsnr" v="347565" />
		<tag k="water" v="lake" />
	</node>
	<node id="-504575" lat="61.0406111125" lon="4.71286944444">
		<tag k="alt_name" v="Lervikevatnet" />
		<tag k="name" v="Leirvikvatnet" />
		<tag k="natural" v="water" />
		<tag k="ssr:stedsnr" v="919784" />
	</node>
	<node id="-502525" lat="61.0465250003" lon="4.77543333416">
		<tag k="name" v="Nipevatnet" />
		<tag k="natural" v="water" />
		<tag k="ssr:stedsnr" v="43733" />
		<tag k="water" v="lake" />
	</node>
	<node id="-502010" lat="61.0505555574" lon="4.87538889605">
		<tag k="name" v="Bussevatnet" />
		<tag k="natural" v="water" />
		<tag k="ssr:stedsnr" v="313462" />
	</node>
	<node id="-504564" lat="61.053000002" lon="4.84166943497">
		<tag k="name" v="Hommandeholvatnet" />
		<tag k="natural" v="water" />
		<tag k="ssr:stedsnr" v="919265" />
	</node>
	<node id="-503422" lat="61.1807805544" lon="4.87251110683">
		<tag k="name" v="Stølsvikvatnet" />
		<tag k="natural" v="water" />
		<tag k="ssr:stedsnr" v="494082" />
	</node>
	<node id="-503536" lat="61.0353694428" lon="4.76911110917">
		<tag k="name" v="Fugletjørna" />
		<tag k="natural" v="water" />
		<tag k="ssr:stedsnr" v="529763" />
	</node>
	<node id="-504044" lat="61.1957833301" lon="4.87102221786">
		<tag k="name" v="Vassøyvatnet" />
		<tag k="natural" v="water" />
		<tag k="ssr:stedsnr" v="712405" />
		<tag k="water" v="lake" />
	</node>
	<node id="-504555" lat="61.117880556" lon="4.86556388592">
		<tag k="name" v="Øvre Langedalsvatnet" />
		<tag k="natural" v="water" />
		<tag k="ssr:stedsnr" v="919151" />
	</node>
	<node id="-503530" lat="61.0653388886" lon="4.7996055531">
		<tag k="name" v="Lifjellsvatnet" />
		<tag k="natural" v="water" />
		<tag k="ssr:stedsnr" v="529593" />
		<tag k="water" v="lake" />
	</node>
	<node id="-504615" lat="61.0872666626" lon="4.83795556086">
		<tag k="name" v="Kvernhuselva" />
		<tag k="ssr:stedsnr" v="953836" />
		<tag k="waterway" v="stream" />
	</node>
	<node id="-503528" lat="61.0649444411" lon="4.78145000514">
		<tag k="name" v="Ytre Krokevassneset" />
		<tag k="natural" v="cape" />
		<tag k="ssr:stedsnr" v="529556" />
	</node>
	<node id="-503526" lat="61.0620333292" lon="4.74913889576">
		<tag k="name" v="Vadet" />
		<tag k="natural" v="water" />
		<tag k="ssr:stedsnr" v="529527" />
		<tag k="water" v="lake" />
	</node>
	<node id="-502501" lat="61.0189722245" lon="4.69604444863">
		<tag k="name" v="Ospevatnet" />
		<tag k="natural" v="water" />
		<tag k="ssr:stedsnr" v="9961" />
	</node>
	<node id="-501988" lat="61.1724361089" lon="4.87155555326">
		<tag k="name" v="Kloppevatnet" />
		<tag k="natural" v="water" />
		<tag k="ssr:stedsnr" v="313045" />
	</node>
	<node id="-502498" lat="61.0254916681" lon="4.67358889754">
		<tag k="name" v="Krokvatnet" />
		<tag k="natural" v="water" />
		<tag k="ssr:stedsnr" v="9943" />
	</node>
	<node id="-503521" lat="61.1999861133" lon="4.92170000014">
		<tag k="name" v="Storeteigen" />
		<tag k="natural" v="water" />
		<tag k="ssr:stedsnr" v="529387" />
		<tag k="water" v="lake" />
	</node>
	<node id="-502496" lat="61.2088138847" lon="4.90159999788">
		<tag k="name" v="Kvernhusvatnet" />
		<tag k="natural" v="water" />
		<tag k="ssr:stedsnr" v="9924" />
	</node>
	<node id="-504030" lat="61.1535444454" lon="4.88421389161">
		<tag k="name" v="Kattetjørna" />
		<tag k="natural" v="water" />
		<tag k="ssr:stedsnr" v="711870" />
	</node>
	<node id="-503004" lat="61.0358805546" lon="4.67485833653">
		<tag k="name" v="Svidalsvatnet" />
		<tag k="natural" v="water" />
		<tag k="ssr:stedsnr" v="191761" />
	</node>
	<node id="-503003" lat="61.05272222" lon="4.68862222934">
		<tag k="alt_name" v="Sperre  -  Vatnet" />
		<tag k="name" v="Sperrevatnet" />
		<tag k="natural" v="water" />
		<tag k="ssr:stedsnr" v="191755" />
	</node>
	<node id="-503514" lat="61.0546916663" lon="4.87481111931">
		<tag k="name" v="Søre Pøyla" />
		<tag k="natural" v="water" />
		<tag k="ssr:stedsnr" v="529223" />
		<tag k="water" v="lake" />
	</node>
	<node id="-503511" lat="61.082480559" lon="4.72729721445">
		<tag k="name" v="Siglingeflæa" />
		<tag k="place" v="locality" />
		<tag k="ssr:stedsnr" v="529172" />
	</node>
	<node id="-503509" lat="61.054994448" lon="4.74442777797">
		<tag k="name" v="Holevatnet" />
		<tag k="natural" v="water" />
		<tag k="ssr:stedsnr" v="529163" />
		<tag k="water" v="lake" />
	</node>
	<node id="-504532" lat="61.146250004" lon="4.93245556356">
		<tag k="name" v="Storevika" />
		<tag k="natural" v="bay" />
		<tag k="ssr:stedsnr" v="918589" />
	</node>
	<node id="-502222" lat="61.1962361131" lon="4.92957222059">
		<tag k="name" v="Resstigvatnet" />
		<tag k="natural" v="water" />
		<tag k="ssr:stedsnr" v="407421" />
		<tag k="water" v="lake" />
	</node>
	<node id="-503416" lat="61.1564138915" lon="4.86563333111">
		<tag k="name" v="Skrapedalsvatnet" />
		<tag k="natural" v="water" />
		<tag k="ssr:stedsnr" v="494007" />
	</node>
	<node id="-502641" lat="61.1418694424" lon="4.93296389289">
		<tag k="name" v="Mjåsundet" />
		<tag k="natural" v="strait" />
		<tag k="ssr:stedsnr" v="70171" />
	</node>
	<node id="-503501" lat="61.1520681284" lon="4.865019973">
		<tag k="name" v="Kvernhusvatnet" />
		<tag k="natural" v="water" />
		<tag k="ssr:stedsnr" v="528918" />
		<tag k="water" v="lake" />
	</node>
	<node id="-502475" lat="61.1081805598" lon="4.96902778015">
		<tag k="alt_name" v="Dingemortjørna" />
		<tag k="name" v="Dingemyrtjørna" />
		<tag k="natural" v="water" />
		<tag k="ssr:stedsnr" v="9353" />
	</node>
	<node id="-502986" lat="61.0151361134" lon="4.72381389595">
		<tag k="alt_name" v="Svedalsvatnet" />
		<tag k="name" v="Sviddalsvatnet" />
		<tag k="natural" v="water" />
		<tag k="ssr:stedsnr" v="191419" />
	</node>
	<node id="-501879" lat="61.2151611094" lon="4.76034721573">
		<tag k="name" v="Isbjørna" />
		<tag k="natural" v="water" />
		<tag k="ssr:stedsnr" v="287151" />
	</node>
	<node id="-502983" lat="61.0986944448" lon="4.84448611118">
		<tag k="name" v="Råkevatnet" />
		<tag k="natural" v="water" />
		<tag k="ssr:stedsnr" v="191341" />
	</node>
	<node id="-503493" lat="61.0201527821" lon="4.68016943837">
		<tag k="name" v="Grasdalvatnet" />
		<tag k="natural" v="water" />
		<tag k="ssr:stedsnr" v="528017" />
	</node>
	<node id="-501963" lat="61.0962444408" lon="4.89248056361">
		<tag k="name" v="Tverrelva" />
		<tag k="ssr:stedsnr" v="312311" />
		<tag k="waterway" v="stream" />
	</node>
	<node id="-502559" lat="61.0730694401" lon="4.76934166946">
		<tag k="name" v="Lasketjørna" />
		<tag k="natural" v="water" />
		<tag k="ssr:stedsnr" v="44592" />
	</node>
	<node id="-502968" lat="61.1567777809" lon="4.98656110434">
		<tag k="name" v="Espevatnet" />
		<tag k="natural" v="water" />
		<tag k="ssr:stedsnr" v="191201" />
	</node>
	<node id="-503479" lat="61.1432777803" lon="4.97741388131">
		<tag k="name" v="Bukkeholmen" />
		<tag k="place" v="islet" />
		<tag k="ssr:stedsnr" v="508968" />
	</node>
	<node id="-504502" lat="61.0156833335" lon="4.69189443651">
		<tag k="alt_name" v="Aure - Tjørna" />
		<tag k="name" v="Auretjørna" />
		<tag k="natural" v="water" />
		<tag k="ssr:stedsnr" v="859944" />
	</node>
	<node id="-501926" lat="61.1193222263" lon="4.90516666646">
		<tag k="name" v="Hølen" />
		<tag k="natural" v="water" />
		<tag k="ssr:stedsnr" v="288989" />
	</node>
	<node id="-504499" lat="61.0291000044" lon="4.69498333652">
		<tag k="name" v="Gardavatnet" />
		<tag k="natural" v="water" />
		<tag k="ssr:stedsnr" v="859933" />
	</node>
	<node id="-501933" lat="61.0613861114" lon="4.82743056373">
		<tag k="name" v="Geitetjørna" />
		<tag k="natural" v="water" />
		<tag k="ssr:stedsnr" v="44650" />
		<tag k="water" v="lake" />
	</node>
	<node id="-501932" lat="61.0661194415" lon="4.78408888019">
		<tag k="name" v="Indre Krokevassneset" />
		<tag k="natural" v="cape" />
		<tag k="ssr:stedsnr" v="44631" />
	</node>
	<node id="-502955" lat="61.1867166702" lon="4.91793888322">
		<tag k="name" v="Løketjørna" />
		<tag k="natural" v="water" />
		<tag k="ssr:stedsnr" v="191060" />
	</node>
	<node id="-501929" lat="61.0696138922" lon="4.79891667382">
		<tag k="name" v="Floholmsvatnet" />
		<tag k="natural" v="water" />
		<tag k="ssr:stedsnr" v="44607" />
		<tag k="water" v="lake" />
	</node>
	<node id="-502951" lat="61.1729861157" lon="4.99205555819">
		<tag k="name" v="Storevikvatnet" />
		<tag k="natural" v="water" />
		<tag k="ssr:stedsnr" v="191037" />
	</node>
	<node id="-504486" lat="61.0306472201" lon="4.69646111483">
		<tag k="alt_name" v="Storvatnet" />
		<tag k="name" v="Storevatnet" />
		<tag k="natural" v="water" />
		<tag k="ssr:stedsnr" v="859779" />
	</node>
	<node id="-504485" lat="61.0462555552" lon="4.66999443694">
		<tag k="alt_name" v="Storsund - Vatnet" />
		<tag k="name" v="Storsundvatnet" />
		<tag k="natural" v="water" />
		<tag k="ssr:stedsnr" v="859777" />
	</node>
	<node id="-503153" lat="61.1568111146" lon="4.9183861078">
		<tag k="name" v="Krakneset" />
		<tag k="natural" v="cape" />
		<tag k="ssr:stedsnr" v="252006" />
	</node>
	<node id="-501923" lat="61.1488638904" lon="4.98695277188">
		<tag k="name" v="Steingjeltjørna" />
		<tag k="natural" v="water" />
		<tag k="ssr:stedsnr" v="288607" />
	</node>
	<node id="-503970" lat="61.0324444469" lon="4.76935833484">
		<tag k="name" v="Kvernhusvatnet" />
		<tag k="natural" v="water" />
		<tag k="ssr:stedsnr" v="677488" />
	</node>
	<node id="-502477" lat="61.1047055593" lon="4.88017778033">
		<tag k="name" v="Hestegardsvatnet" />
		<tag k="natural" v="water" />
		<tag k="ssr:stedsnr" v="9357" />
	</node>
	<node id="-503963" lat="61.064044448" lon="4.84151944242">
		<tag k="name" v="Valsvatnet" />
		<tag k="natural" v="water" />
		<tag k="ssr:stedsnr" v="677278" />
	</node>
	<node id="-503449" lat="61.0834916638" lon="4.94763333029">
		<tag k="name" v="Lødalselva" />
		<tag k="ssr:stedsnr" v="494304" />
		<tag k="waterway" v="stream" />
	</node>
	<node id="-503447" lat="61.0649666687" lon="4.80341944925">
		<tag k="alt_name" v="Smiursvatnet" />
		<tag k="name" v="Smiurdvatnet" />
		<tag k="natural" v="water" />
		<tag k="ssr:stedsnr" v="494282" />
	</node>
	<node id="-503957" lat="61.1515972265" lon="4.95691667437">
		<tag k="name" v="Svartetjørna" />
		<tag k="natural" v="water" />
		<tag k="ssr:stedsnr" v="677218" />
	</node>
	<node id="-503444" lat="61.0754611141" lon="4.74098332883">
		<tag k="alt_name" v="Setrevatnet" />
		<tag k="name" v="Sætrevatnet" />
		<tag k="natural" v="water" />
		<tag k="ssr:stedsnr" v="494262" />
	</node>
	<node id="-501907" lat="61.0811166625" lon="4.80520556235">
		<tag k="name" v="Lindebutjørna" />
		<tag k="natural" v="water" />
		<tag k="ssr:stedsnr" v="287795" />
	</node>
	<node id="-504463" lat="61.0566472192" lon="4.84924166546">
		<tag k="alt_name" v="Hatlevikvatnet" />
		<tag k="name" v="Haslevikvatnet" />
		<tag k="natural" v="water" />
		<tag k="ssr:stedsnr" v="859252" />
	</node>
	<node id="-503950" lat="61.185122222" lon="4.94857500828">
		<tag k="name" v="Djupetjørna" />
		<tag k="natural" v="water" />
		<tag k="ssr:stedsnr" v="677068" />
	</node>
	<node id="-503949" lat="61.1870583335" lon="4.98246388314">
		<tag k="alt_name" v="Rodalsvatnet" />
		<tag k="name" v="Rodalstjørna" />
		<tag k="natural" v="water" />
		<tag k="ssr:stedsnr" v="677065" />
	</node>
	<node id="-503948" lat="61.1913388897" lon="4.9885277761">
		<tag k="name" v="Kalvedalsvatnet" />
		<tag k="natural" v="water" />
		<tag k="ssr:stedsnr" v="677064" />
	</node>
	<node id="-503435" lat="61.1227416637" lon="4.88611944605">
		<tag k="name" v="Skogavatnet" />
		<tag k="natural" v="water" />
		<tag k="ssr:stedsnr" v="494147" />
	</node>
	<node id="-503434" lat="61.1368138886" lon="4.95588887968">
		<tag k="name" v="Saksevikvatnet" />
		<tag k="natural" v="water" />
		<tag k="ssr:stedsnr" v="494137" />
	</node>
	<node id="-502921" lat="61.1522861141" lon="4.9836611028">
		<tag k="name" v="Midtlona" />
		<tag k="natural" v="water" />
		<tag k="ssr:stedsnr" v="166620" />
	</node>
	<node id="-504456" lat="61.1632777784" lon="4.97270832477">
		<tag k="name" v="Fossevatnet" />
		<tag k="natural" v="water" />
		<tag k="ssr:stedsnr" v="859222" />
	</node>
	<node id="-503019" lat="61.0300861069" lon="4.71440278365">
		<tag k="name" v="Skogavatnet" />
		<tag k="natural" v="water" />
		<tag k="ssr:stedsnr" v="191925" />
	</node>
	<node id="-502917" lat="61.201527781" lon="4.7735000078">
		<tag k="name" v="Flovatnet" />
		<tag k="natural" v="water" />
		<tag k="ssr:stedsnr" v="166455" />
		<tag k="water" v="lake" />
	</node>
	<node id="-504451" lat="61.1430277774" lon="4.86126666694">
		<tag k="name" v="Dalevatnet" />
		<tag k="natural" v="water" />
		<tag k="ssr:stedsnr" v="859191" />
	</node>
	<node id="-502401" lat="61.1692694479" lon="4.91698611983">
		<tag k="name" v="Tvillingholmen" />
		<tag k="place" v="islet" />
		<tag k="ssr:stedsnr" v="894940" />
	</node>
	<node id="-502912" lat="61.0826111097" lon="4.7656722145">
		<tag k="name" v="Stokkevågtjørna" />
		<tag k="natural" v="water" />
		<tag k="ssr:stedsnr" v="165975" />
	</node>
	<node id="-502399" lat="61.1229888849" lon="4.87560277967">
		<tag k="name" v="Skolderumpa" />
		<tag k="ssr:stedsnr" v="894885" />
		<tag k="waterway" v="stream" />
	</node>
	<node id="-503934" lat="61.033702781" lon="4.66130833536">
		<tag k="name" v="Kvernhusvatnet" />
		<tag k="natural" v="water" />
		<tag k="ssr:stedsnr" v="676793" />
	</node>
	<node id="-503061" lat="61.0827305556" lon="4.73258889465">
		<tag k="name" v="Sauenesvatnet" />
		<tag k="natural" v="water" />
		<tag k="ssr:stedsnr" v="226205" />
		<tag k="water" v="lake" />
	</node>
	<node id="-504441" lat="61.2035166632" lon="4.9166361103">
		<tag k="name" v="Urdavatnet" />
		<tag k="natural" v="water" />
		<tag k="ssr:stedsnr" v="859091" />
	</node>
	<node id="-504440" lat="61.1945666679" lon="4.9215777804">
		<tag k="name" v="Larsskogvatnet" />
		<tag k="natural" v="water" />
		<tag k="ssr:stedsnr" v="859081" />
	</node>
	<node id="-503927" lat="61.1451944429" lon="5.06623610514">
		<tag k="name" v="Fagerlivatnet" />
		<tag k="natural" v="water" />
		<tag k="ssr:stedsnr" v="676197" />
	</node>
	<node id="-503924" lat="61.138305555" lon="5.03682499417">
		<tag k="name" v="Standalsvatnet" />
		<tag k="natural" v="water" />
		<tag k="ssr:stedsnr" v="676160" />
	</node>
	<node id="-501874" lat="61.1332638861" lon="4.83505277379">
		<tag k="name" v="Barbraelva" />
		<tag k="ssr:stedsnr" v="287068" />
		<tag k="waterway" v="stream" />
	</node>
	<node id="-504430" lat="61.1635416699" lon="4.91976666552">
		<tag k="name" v="Hagevatnet" />
		<tag k="natural" v="water" />
		<tag k="ssr:stedsnr" v="859004" />
		<tag k="water" v="lake" />
	</node>
	<node id="-503917" lat="61.1947999964" lon="4.97372777438">
		<tag k="alt_name" v="Fjellsvatnet" />
		<tag k="name" v="Fjellvatnet" />
		<tag k="natural" v="water" />
		<tag k="ssr:stedsnr" v="676079" />
	</node>
	<node id="-504427" lat="61.0409622475" lon="4.6787744056">
		<tag k="alt_name" v="Revsvatnet" />
		<tag k="name" v="Røssvatnet" />
		<tag k="natural" v="water" />
		<tag k="ssr:stedsnr" v="858828" />
		<tag k="water" v="lake" />
	</node>
	<node id="-502890" lat="61.0667499988" lon="4.76370554663">
		<tag k="name" v="Hundeviktjørnane" />
		<tag k="natural" v="water" />
		<tag k="ssr:stedsnr" v="165579" />
	</node>
	<node id="-503499" lat="61.0204027756" lon="4.69691667615">
		<tag k="name" v="Småtjørna" />
		<tag k="natural" v="water" />
		<tag k="ssr:stedsnr" v="528850" />
	</node>
	<node id="-503400" lat="61.2095472238" lon="4.83245554709">
		<tag k="name" v="Olatjørna" />
		<tag k="natural" v="water" />
		<tag k="ssr:stedsnr" v="470364" />
	</node>
	<node id="-501862" lat="61.1947305587" lon="4.92878888381">
		<tag k="name" v="Storeskogvatnet" />
		<tag k="natural" v="water" />
		<tag k="ssr:stedsnr" v="286400" />
		<tag k="water" v="lake" />
	</node>
	<node id="-503398" lat="61.2154500003" lon="4.8401166705">
		<tag k="name" v="Ekrehaugsvatnet" />
		<tag k="natural" v="water" />
		<tag k="ssr:stedsnr" v="470353" />
		<tag k="water" v="lake" />
	</node>
	<node id="-503918" lat="61.1998611114" lon="4.96926110927">
		<tag k="name" v="Grunnevatnet" />
		<tag k="natural" v="water" />
		<tag k="ssr:stedsnr" v="676082" />
	</node>
	<node id="-503393" lat="61.1690277799" lon="4.91188610745">
		<tag k="name" v="Barmannsvika" />
		<tag k="natural" v="bay" />
		<tag k="ssr:stedsnr" v="469942" />
	</node>
	<node id="-504415" lat="61.1124472255" lon="4.85704165815">
		<tag k="alt_name" v="Kvernhusvatnet, nordre" />
		<tag k="name" v="Nordre Kvernhusvatnet" />
		<tag k="natural" v="water" />
		<tag k="ssr:stedsnr" v="841140" />
	</node>
	<node id="-503390" lat="61.1514361107" lon="4.96729166346">
		<tag k="name" v="Langeneset" />
		<tag k="natural" v="cape" />
		<tag k="ssr:stedsnr" v="469912" />
	</node>
	<node id="-502946" lat="61.160124997" lon="4.90424166723">
		<tag k="name" v="Kvernhusvatnet" />
		<tag k="natural" v="water" />
		<tag k="ssr:stedsnr" v="191006" />
	</node>
	<node id="-502639" lat="61.1291416696" lon="4.89521111375">
		<tag k="name" v="Storevatnet" />
		<tag k="natural" v="water" />
		<tag k="ssr:stedsnr" v="70162" />
	</node>
	<node id="-501957" lat="61.1258000038" lon="4.87997500065">
		<tag k="name" v="Grunnevatnet" />
		<tag k="natural" v="water" />
		<tag k="ssr:stedsnr" v="312169" />
	</node>
	<node id="-504405" lat="61.16066667" lon="4.96000833167">
		<tag k="name" v="Grønelineset" />
		<tag k="natural" v="cape" />
		<tag k="ssr:stedsnr" v="834937" />
	</node>
	<node id="-503406" lat="61.1050333308" lon="4.91475277584">
		<tag k="name" v="Eidet" />
		<tag k="natural" v="strait" />
		<tag k="ssr:stedsnr" v="470988" />
	</node>
	<node id="-503139" lat="61.1713361103" lon="4.99070000909">
		<tag k="name" v="Grønevikvatnet" />
		<tag k="natural" v="water" />
		<tag k="ssr:stedsnr" v="251016" />
	</node>
	<node id="-502456" lat="61.1312583296" lon="4.84858611828">
		<tag k="name" v="Svartevatnet" />
		<tag k="natural" v="water" />
		<tag k="ssr:stedsnr" v="9154" />
	</node>
	<node id="-504394" lat="61.1661833353" lon="4.95732500415">
		<tag k="name" v="Urtegardslona" />
		<tag k="natural" v="bay" />
		<tag k="ssr:stedsnr" v="833987" />
	</node>
	<node id="-502967" lat="61.1495388844" lon="4.97107499304">
		<tag k="name" v="Hansneset" />
		<tag k="natural" v="cape" />
		<tag k="ssr:stedsnr" v="191197" />
	</node>
	<node id="-502855" lat="61.0521888907" lon="4.74661945279">
		<tag k="name" v="Holevatnet" />
		<tag k="natural" v="water" />
		<tag k="ssr:stedsnr" v="164036" />
		<tag k="water" v="lake" />
	</node>
	<node id="-502854" lat="61.0187972237" lon="4.68033888222">
		<tag k="name" v="Grasdaltjørna" />
		<tag k="natural" v="water" />
		<tag k="ssr:stedsnr" v="164009" />
	</node>
	<node id="-502802" lat="61.0139888912" lon="4.72332222381">
		<tag k="alt_name" v="Litåsvatnet" />
		<tag k="name" v="Litlåsvatnet" />
		<tag k="natural" v="water" />
		<tag k="ssr:stedsnr" v="130409" />
	</node>
	<node id="-504246" lat="61.2001166657" lon="4.89879999492">
		<tag k="name" v="Bjørkeskogvatnet" />
		<tag k="natural" v="water" />
		<tag k="ssr:stedsnr" v="798111" />
	</node>
	<node id="-503870" lat="61.2061777747" lon="4.77265832527">
		<tag k="name" v="Kvernhusvatnet" />
		<tag k="natural" v="water" />
		<tag k="ssr:stedsnr" v="651019" />
	</node>
	<node id="-504381" lat="61.0174472244" lon="4.73194166729">
		<tag k="name" v="Rekedalstjørna" />
		<tag k="natural" v="water" />
		<tag k="ssr:stedsnr" v="833806" />
	</node>
	<node id="-502844" lat="61.1414111104" lon="4.96926665795">
		<tag k="name" v="Rotevikvatnet" />
		<tag k="natural" v="water" />
		<tag k="ssr:stedsnr" v="131182" />
	</node>
	<node id="-503903" lat="61.1094333331" lon="4.8539805558">
		<tag k="alt_name" v="Kvernhusvatnet, s" />
		<tag k="name" v="Søre Kvernhusvatnet" />
		<tag k="natural" v="water" />
		<tag k="ssr:stedsnr" v="658141" />
	</node>
	<node id="-502839" lat="61.2094055588" lon="4.84108055965">
		<tag k="name" v="Langevatnet" />
		<tag k="natural" v="water" />
		<tag k="ssr:stedsnr" v="130927" />
	</node>
	<node id="-503405" lat="61.1385750039" lon="4.98085833465">
		<tag k="name" v="Lona" />
		<tag k="natural" v="water" />
		<tag k="ssr:stedsnr" v="470900" />
		<tag k="water" v="lake" />
	</node>
	<node id="-501854" lat="61.0221805545" lon="4.67219999467">
		<tag k="name" v="Kvernhusvatnet" />
		<tag k="natural" v="water" />
		<tag k="ssr:stedsnr" v="286057" />
		<tag k="water" v="lake" />
	</node>
	<node id="-503524" lat="61.2013333345" lon="4.87140833885">
		<tag k="name" v="Buskøyvatnet" />
		<tag k="natural" v="water" />
		<tag k="ssr:stedsnr" v="529463" />
		<tag k="water" v="lake" />
	</node>
	<node id="-502312" lat="61.1296388908" lon="5.08795000772">
		<tag k="name" v="Totlandselva" />
		<tag k="ssr:stedsnr" v="410516" />
		<tag k="waterway" v="stream" />
	</node>
	<node id="-503333" lat="61.0242750044" lon="4.67705000023">
		<tag k="name" v="Lomtjørna" />
		<tag k="natural" v="water" />
		<tag k="ssr:stedsnr" v="468013" />
	</node>
	<node id="-502820" lat="61.0699138911" lon="4.69819443569">
		<tag k="name" v="Lyngbakkevatnet" />
		<tag k="natural" v="water" />
		<tag k="ssr:stedsnr" v="130734" />
	</node>
	<node id="-502813" lat="61.0298222188" lon="4.72161388217">
		<tag k="alt_name" v="Plommedalsvatnet" />
		<tag k="name" v="Plommedalstjørna" />
		<tag k="natural" v="water" />
		<tag k="ssr:stedsnr" v="130395" />
	</node>
	<node id="-502106" lat="61.1557638866" lon="4.968683325">
		<tag k="name" v="Mjåsundet" />
		<tag k="natural" v="strait" />
		<tag k="ssr:stedsnr" v="348885" />
	</node>
	<node id="-502617" lat="61.2035138918" lon="4.96325834124">
		<tag k="name" v="Kvernhusvatnet" />
		<tag k="natural" v="water" />
		<tag k="ssr:stedsnr" v="70091" />
	</node>
	<node id="-504338" lat="61.0838805546" lon="4.83884444839">
		<tag k="name" v="Hardbakketjørna" />
		<tag k="natural" v="water" />
		<tag k="ssr:stedsnr" v="832827" />
	</node>
	<node id="-503313" lat="61.0216527759" lon="4.69210278085">
		<tag k="alt_name" v="Skåpvatnet" />
		<tag k="name" v="Skåptjørna" />
		<tag k="natural" v="water" />
		<tag k="ssr:stedsnr" v="434946" />
	</node>
	<node id="-503312" lat="61.0231833313" lon="4.66615555402">
		<tag k="name" v="Grindevatnet" />
		<tag k="natural" v="water" />
		<tag k="ssr:stedsnr" v="434944" />
	</node>
	<node id="-501848" lat="61.0789527765" lon="4.86271666378">
		<tag k="name" v="Hopsvatnet" />
		<tag k="natural" v="water" />
		<tag k="ssr:stedsnr" v="286837" />
		<tag k="water" v="lake" />
	</node>
	<node id="-502284" lat="61.1372777778" lon="4.91654167009">
		<tag k="name" v="Hagelva" />
		<tag k="ssr:stedsnr" v="408847" />
		<tag k="waterway" v="river" />
	</node>
	<node id="-502795" lat="61.1639972268" lon="4.98813611774">
		<tag k="name" v="Krokvatnet" />
		<tag k="natural" v="water" />
		<tag k="ssr:stedsnr" v="130219" />
	</node>
	<node id="-503306" lat="61.0308972236" lon="4.68736388583">
		<tag k="alt_name" v="Strandevatnet" />
		<tag k="name" v="Strandavatnet" />
		<tag k="natural" v="water" />
		<tag k="ssr:stedsnr" v="434757" />
	</node>
	<node id="-502280" lat="61.042491665" lon="4.77329999979">
		<tag k="name" v="Indre Hola" />
		<tag k="natural" v="beach" />
		<tag k="ssr:stedsnr" v="408776" />
	</node>
	<node id="-502790" lat="61.1324999966" lon="4.84576389216">
		<tag k="alt_name" v="Lambtjørna" />
		<tag k="name" v="Lomtjørna" />
		<tag k="natural" v="water" />
		<tag k="ssr:stedsnr" v="130156" />
	</node>
	<node id="-503813" lat="61.0244000042" lon="4.68331667211">
		<tag k="alt_name" v="Langedalen" />
		<tag k="name" v="Langevatnet" />
		<tag k="natural" v="water" />
		<tag k="ssr:stedsnr" v="616986" />
	</node>
	<node id="-502786" lat="61.058491664" lon="4.89657777461">
		<tag k="alt_name" v="Mjølkevatnet" />
		<tag k="name" v="Mjelkediket" />
		<tag k="natural" v="water" />
		<tag k="ssr:stedsnr" v="130255" />
	</node>
	<node id="-502443" lat="61.1983833359" lon="4.90446666849">
		<tag k="name" v="Slettevatnet" />
		<tag k="natural" v="water" />
		<tag k="ssr:stedsnr" v="9061" />
	</node>
</osm>
