<?xml version="1.0" encoding="UTF-8"?>
<osm generator="osmapis" version="0.6">
	<node id="-504318" lat="61.1245312033" lon="4.95427353365">
		<tag k="fixme" v="consider place=hamlet" />
		<tag k="name" v="Dumba" />
		<tag k="place" v="farm" />
		<tag k="ssr:stedsnr" v="555104" />
	</node>
	<node id="-504824" lat="61.0595174682" lon="4.92880874102">
		<tag k="alt_name" v="Kråkenes" />
		<tag k="fixme" v="consider place=hamlet" />
		<tag k="name" v="Kråkeneset" />
		<tag k="place" v="farm" />
		<tag k="ssr:stedsnr" v="737250" />
	</node>
	<node id="-504310" lat="61.1697500002" lon="4.94828056">
		<tag k="alt_name" v="Urtegård" />
		<tag k="name" v="Urtegarden" />
		<tag k="place" v="farm" />
		<tag k="ssr:stedsnr" v="555026" />
	</node>
	<node id="-505170" lat="61.1466089026" lon="4.85968651323">
		<tag k="fixme" v="consider place=hamlet" />
		<tag k="name" v="Tverranger" />
		<tag k="place" v="farm" />
		<tag k="ssr:stedsnr" v="859207" />
	</node>
	<node id="-502759" lat="61.057894445" lon="4.75277221612">
		<tag k="name" v="Hatlevika" />
		<tag k="place" v="farm" />
		<tag k="ssr:stedsnr" v="347533" />
	</node>
	<node id="-504799" lat="61.1702950053" lon="4.87658826397">
		<tag k="alt_name" v="Kråkenes" />
		<tag k="fixme" v="consider place=hamlet" />
		<tag k="name" v="Kråkeneset" />
		<tag k="place" v="farm" />
		<tag k="ssr:stedsnr" v="737020" />
	</node>
	<node id="-505307" lat="61.138899996" lon="4.94541389586">
		<tag k="name" v="Strandheim" />
		<tag k="place" v="farm" />
		<tag k="ssr:stedsnr" v="920177" />
	</node>
	<node id="-505306" lat="61.1802138915" lon="4.87992222071">
		<tag k="name" v="Mattevika" />
		<tag k="place" v="farm" />
		<tag k="ssr:stedsnr" v="920051" />
	</node>
	<node id="-503485" lat="61.1139833294" lon="4.83000555427">
		<tag k="fixme" v="consider tourism=alpine_hut or tourism=chalet" />
		<tag k="name" v="Råkeneset" />
		<tag k="ssr:stedsnr" v="120900" />
		<tag k="tourism" v="wilderness_hut" />
	</node>
	<node id="-504787" lat="61.0007305545" lon="4.72055278632">
		<tag k="alt_name" v="Trovåg" />
		<tag k="fixme" v="consider place=hamlet" />
		<tag k="name" v="Trovågen" />
		<tag k="place" v="village" />
		<tag k="ssr:stedsnr" v="719910" />
	</node>
	<node id="-504273" lat="61.1246361143" lon="4.95056666604">
		<tag k="name" v="Ytre Dumba" />
		<tag k="place" v="farm" />
		<tag k="ssr:stedsnr" v="530606" />
	</node>
	<node id="-504784" lat="61.1218722232" lon="5.0476027821">
		<tag k="alt_name" v="Losnedalen, nedre" />
		<tag k="name" v="Nedre Losnedalen" />
		<tag k="place" v="farm" />
		<tag k="ssr:stedsnr" v="719143" />
	</node>
	<node id="-503752" lat="61.1193027758" lon="5.09114722593">
		<tag k="name" v="Fretheim" />
		<tag k="place" v="farm" />
		<tag k="ssr:stedsnr" v="223749" />
	</node>
	<node id="-504263" lat="61.1773055514" lon="4.86918889389">
		<tag k="name" v="Nyheim" />
		<tag k="place" v="farm" />
		<tag k="ssr:stedsnr" v="529922" />
	</node>
	<node id="-505284" lat="61.0951325686" lon="4.9565016875">
		<tag k="alt_name" v="Kråkås" />
		<tag k="fixme" v="consider place=hamlet" />
		<tag k="name" v="Kråkåsen" />
		<tag k="place" v="farm" />
		<tag k="ssr:stedsnr" v="919302" />
	</node>
	<node id="-503798" lat="61.2146472222" lon="4.90128055194">
		<tag k="name" v="Austbø" />
		<tag k="place" v="farm" />
		<tag k="ssr:stedsnr" v="226487" />
	</node>
	<node id="-505282" lat="61.0906544367" lon="4.95364208614">
		<tag k="fixme" v="consider place=hamlet" />
		<tag k="name" v="Kråkevåg" />
		<tag k="place" v="farm" />
		<tag k="ssr:stedsnr" v="919284" />
	</node>
	<node id="-505281" lat="61.070177778" lon="4.74789443748">
		<tag k="alt_name" v="Steindalsgjerdet" />
		<tag k="name" v="Gjerdet" />
		<tag k="place" v="farm" />
		<tag k="ssr:stedsnr" v="919279" />
	</node>
	<node id="-503741" lat="61.0137586366" lon="4.70219441316">
		<tag k="alt_name" v="Rørdal" />
		<tag k="fixme" v="consider place=hamlet" />
		<tag k="name" v="Rørdalen" />
		<tag k="place" v="farm" />
		<tag k="ssr:stedsnr" v="191950" />
	</node>
	<node id="-505275" lat="61.1506583293" lon="4.85501945076">
		<tag k="fixme" v="multiple name tags, choose one and add the other to alt_name" />
		<tag k="name" v="Nordheim;Sluppen" />
		<tag k="place" v="farm" />
		<tag k="ssr:stedsnr" v="919212" />
	</node>
	<node id="-503625" lat="61.1275000044" lon="4.95621945146">
		<tag k="name" v="Sørebø" />
		<tag k="place" v="farm" />
		<tag k="ssr:stedsnr" v="165942" />
	</node>
	<node id="-502706" lat="61.1001444417" lon="4.91138333192">
		<tag k="name" v="Eide" />
		<tag k="place" v="quarter" />
		<tag k="ssr:stedsnr" v="342656" />
	</node>
	<node id="-502700" lat="61.0892055601" lon="4.83236389314">
		<tag k="name" v="Gangstø" />
		<tag k="place" v="locality" />
		<tag k="ssr:stedsnr" v="327823" />
	</node>
	<node id="-505257" lat="61.1846305552" lon="4.98126389283">
		<tag k="name" v="Vågen" />
		<tag k="place" v="farm" />
		<tag k="ssr:stedsnr" v="919067" />
	</node>
	<node id="-505255" lat="61.1635666642" lon="4.84269721391">
		<tag k="alt_name" v="Drengenes" />
		<tag k="name" v="Drengeneset" />
		<tag k="place" v="farm" />
		<tag k="ssr:stedsnr" v="919042" />
	</node>
	<node id="-504733" lat="61.2090777744" lon="4.86014166915">
		<tag k="name" v="Sørheim" />
		<tag k="place" v="farm" />
		<tag k="ssr:stedsnr" v="711392" />
	</node>
	<node id="-503191" lat="61.0909177967" lon="4.74297575722">
		<tag k="alt_name" v="Tangenes" />
		<tag k="fixme" v="consider place=hamlet" />
		<tag k="name" v="Tangeneset" />
		<tag k="place" v="farm" />
		<tag k="ssr:stedsnr" v="9344" />
	</node>
	<node id="-502678" lat="61.1461166686" lon="4.83243889625">
		<tag k="alt_name" v="Strand" />
		<tag k="name" v="Stranda" />
		<tag k="place" v="farm" />
		<tag k="ssr:stedsnr" v="313217" />
	</node>
	<node id="-503534" lat="61.0985992419" lon="4.70130646886">
		<tag k="alt_name" v="Storøy" />
		<tag k="name" v="Storøyna" />
		<tag k="place" v="farm" />
		<tag k="ssr:stedsnr" v="130713" />
	</node>
	<node id="-503698" lat="61.100960696" lon="4.91231476227">
		<tag k="fixme" v="consider place=hamlet" />
		<tag k="name" v="Eidet" />
		<tag k="place" v="farm" />
		<tag k="ssr:stedsnr" v="191336" />
	</node>
	<node id="-503185" lat="61.0903138929" lon="4.88933055192">
		<tag k="name" v="Pollen" />
		<tag k="place" v="farm" />
		<tag k="ssr:stedsnr" v="9283" />
	</node>
	<node id="-503696" lat="61.0978302954" lon="4.7856493825">
		<tag k="fixme" v="consider place=hamlet" />
		<tag k="name" v="Stokkevåg" />
		<tag k="place" v="farm" />
		<tag k="ssr:stedsnr" v="191314" />
	</node>
	<node id="-503178" lat="61.0590111123" lon="4.82526389498">
		<tag k="alt_name" v="Leirvåg" />
		<tag k="name" v="Leirvågen" />
		<tag k="place" v="farm" />
		<tag k="ssr:stedsnr" v="9240" />
	</node>
	<node id="-503688" lat="61.1387927388" lon="4.78798104746">
		<tag k="fixme" v="consider place=hamlet" />
		<tag k="name" v="Lågøyna" />
		<tag k="place" v="farm" />
		<tag k="ssr:stedsnr" v="191211" />
	</node>
	<node id="-504198" lat="61.038929476" lon="4.65615915489">
		<tag k="fixme" v="consider place=hamlet" />
		<tag k="name" v="Øyjorda" />
		<tag k="old_name" v="Ørejord" />
		<tag k="place" v="farm" />
		<tag k="ssr:stedsnr" v="510164" />
	</node>
	<node id="-502660" lat="61.2123663485" lon="4.86151045675">
		<tag k="fixme" v="consider place=hamlet" />
		<tag k="loc_name" v="Refsøen" />
		<tag k="name" v="Buskøy" />
		<tag k="place" v="farm" />
		<tag k="ssr:stedsnr" v="312934" />
	</node>
	<node id="-503683" lat="61.15007531" lon="4.86361098822">
		<tag k="fixme" v="consider place=hamlet" />
		<tag k="name" v="Stølen" />
		<tag k="place" v="farm" />
		<tag k="ssr:stedsnr" v="191193" />
	</node>
	<node id="-504704" lat="61.065991666" lon="4.81321110956">
		<tag k="name" v="Steinsund" />
		<tag k="place" v="hamlet" />
		<tag k="ssr:stedsnr" v="693830" />
	</node>
	<node id="-504703" lat="61.0796083301" lon="4.69314721774">
		<tag k="alt_name" v="Ytrøygrend" />
		<tag k="name" v="Ytrøy" />
		<tag k="old_name" v="Ytrøyna" />
		<tag k="place" v="hamlet" />
		<tag k="ssr:stedsnr" v="693827" />
	</node>
	<node id="-503166" lat="61.1292777756" lon="5.03557777128">
		<tag k="alt_name" v="Juvik" />
		<tag k="name" v="Djupvika" />
		<tag k="place" v="farm" />
		<tag k="ssr:stedsnr" v="9121" />
	</node>
	<node id="-504698" lat="61.0091694481" lon="4.69626111803">
		<tag k="name" v="Sanden" />
		<tag k="place" v="farm" />
		<tag k="ssr:stedsnr" v="677985" />
	</node>
	<node id="-502646" lat="61.0357627503" lon="4.6651964864">
		<tag k="fixme" v="multiple name tags, choose one and add the other to alt_name; consider place=hamlet" />
		<tag k="name" v="Søre Hjønnevåg;Sørevågen" />
		<tag k="place" v="farm" />
		<tag k="ssr:stedsnr" v="312771" />
	</node>
	<node id="-503669" lat="61.1760416681" lon="4.86278055916">
		<tag k="name" v="Nilsvika" />
		<tag k="place" v="farm" />
		<tag k="ssr:stedsnr" v="191043" />
	</node>
	<node id="-503667" lat="61.1753821667" lon="4.96314598465">
		<tag k="fixme" v="consider place=hamlet" />
		<tag k="name" v="Skarnagel" />
		<tag k="place" v="farm" />
		<tag k="ssr:stedsnr" v="191035" />
	</node>
	<node id="-503665" lat="61.1668251103" lon="5.00503278747">
		<tag k="alt_name" v="Grønevik" />
		<tag k="fixme" v="consider place=hamlet" />
		<tag k="name" v="Grønevika" />
		<tag k="place" v="farm" />
		<tag k="ssr:stedsnr" v="191017" />
	</node>
	<node id="-502639" lat="61.079797221" lon="4.86114721914">
		<tag k="alt_name" v="Hop, nordre" />
		<tag k="name" v="Nordre Hop" />
		<tag k="place" v="farm" />
		<tag k="ssr:stedsnr" v="312270" />
	</node>
	<node id="-502638" lat="61.1324055577" lon="4.95182499115">
		<tag k="name" v="Heimdal" />
		<tag k="place" v="farm" />
		<tag k="ssr:stedsnr" v="312176" />
	</node>
	<node id="-505196" lat="61.079310862" lon="4.69172903269">
		<tag k="alt_name" v="Ytrøy" />
		<tag k="fixme" v="consider place=hamlet" />
		<tag k="name" v="Ytrøyna" />
		<tag k="place" v="farm" />
		<tag k="ssr:stedsnr" v="859733" />
	</node>
	<node id="-505195" lat="61.1233395472" lon="5.09306139589">
		<tag k="fixme" v="consider place=hamlet" />
		<tag k="name" v="Losnegard" />
		<tag k="place" v="farm" />
		<tag k="ssr:stedsnr" v="859473" />
	</node>
	<node id="-504682" lat="61.0189039424" lon="4.7384202661">
		<tag k="fixme" v="consider place=hamlet" />
		<tag k="name" v="Nåra" />
		<tag k="place" v="farm" />
		<tag k="ssr:stedsnr" v="677439" />
	</node>
	<node id="-502633" lat="61.1306716165" lon="5.01569044109">
		<tag k="fixme" v="consider place=hamlet" />
		<tag k="name" v="Krakhella" />
		<tag k="place" v="farm" />
		<tag k="ssr:stedsnr" v="312131" />
	</node>
	<node id="-504668" lat="61.1123403319" lon="4.83796989702">
		<tag k="fixme" v="consider place=hamlet" />
		<tag k="name" v="Råke" />
		<tag k="place" v="farm" />
		<tag k="ssr:stedsnr" v="677130" />
	</node>
	<node id="-502619" lat="61.122863887" lon="4.73214167583">
		<tag k="name" v="Støa" />
		<tag k="place" v="locality" />
		<tag k="ssr:stedsnr" v="296831" />
	</node>
	<node id="-502617" lat="61.1651527739" lon="4.88477499141">
		<tag k="name" v="Midvik" />
		<tag k="place" v="isolated_dwelling" />
		<tag k="ssr:stedsnr" v="295391" />
	</node>
	<node id="-505174" lat="61.0568583334" lon="4.75980833467">
		<tag k="alt_name" v="Solsneset" />
		<tag k="name" v="Solnes" />
		<tag k="place" v="farm" />
		<tag k="ssr:stedsnr" v="859232" />
	</node>
	<node id="-504660" lat="61.2118883723" lon="4.89983786738">
		<tag k="alt_name" v="Leknesund" />
		<tag k="fixme" v="consider place=hamlet" />
		<tag k="name" v="Leknessundet" />
		<tag k="place" v="farm" />
		<tag k="ssr:stedsnr" v="676931" />
	</node>
	<node id="-504146" lat="61.1099687893" lon="4.89555579224">
		<tag k="fixme" v="consider place=hamlet" />
		<tag k="name" v="Nessa" />
		<tag k="place" v="farm" />
		<tag k="ssr:stedsnr" v="494119" />
	</node>
	<node id="-505168" lat="61.1362611132" lon="4.83033888675">
		<tag k="alt_name" v="Tvårevik" />
		<tag k="name" v="Tvorevika" />
		<tag k="place" v="farm" />
		<tag k="ssr:stedsnr" v="859197" />
	</node>
	<node id="-505164" lat="61.1207111089" lon="5.09132500767">
		<tag k="fixme" v="consider place=hamlet" />
		<tag k="name" v="Losnegard" />
		<tag k="place" v="village" />
		<tag k="ssr:stedsnr" v="859134" />
	</node>
	<node id="-505163" lat="61.1250215964" lon="4.90435559588">
		<tag k="fixme" v="consider place=hamlet" />
		<tag k="name" v="Gylta" />
		<tag k="place" v="farm" />
		<tag k="ssr:stedsnr" v="859118" />
	</node>
	<node id="-504137" lat="61.1720249961" lon="4.97386111374">
		<tag k="alt_name" v="Sandvik" />
		<tag k="name" v="Sandvika" />
		<tag k="place" v="farm" />
		<tag k="ssr:stedsnr" v="494039" />
	</node>
	<node id="-505159" lat="61.2033593613" lon="4.83454151235">
		<tag k="fixme" v="consider place=hamlet" />
		<tag k="name" v="Færøyna" />
		<tag k="place" v="farm" />
		<tag k="ssr:stedsnr" v="859096" />
	</node>
	<node id="-502594" lat="61.128511114" lon="4.95471666715">
		<tag k="name" v="Nordbø" />
		<tag k="place" v="farm" />
		<tag k="ssr:stedsnr" v="287917" />
	</node>
	<node id="-502666" lat="61.1727750017" lon="4.95382777451">
		<tag k="alt_name" v="Elvanes" />
		<tag k="name" v="Elvang" />
		<tag k="place" v="farm" />
		<tag k="ssr:stedsnr" v="313036" />
	</node>
	<node id="-503610" lat="61.0683888888" lon="4.8286583401">
		<tag k="name" v="Holmevika" />
		<tag k="place" v="locality" />
		<tag k="ssr:stedsnr" v="165685" />
	</node>
	<node id="-503176" lat="61.1484607954" lon="4.88396329644">
		<tag k="fixme" v="consider place=hamlet" />
		<tag k="name" v="Lendinga" />
		<tag k="place" v="farm" />
		<tag k="ssr:stedsnr" v="9184" />
	</node>
	<node id="-505133" lat="61.0884000039" lon="4.83545832401">
		<tag k="alt_name" v="Lia, s;Lia" />
		<tag k="name" v="Søre Lia" />
		<tag k="place" v="farm" />
		<tag k="ssr:stedsnr" v="841327" />
	</node>
	<node id="-502569" lat="61.2144555553" lon="4.84611110632">
		<tag k="name" v="Nesheim" />
		<tag k="place" v="farm" />
		<tag k="ssr:stedsnr" v="287486" />
	</node>
	<node id="-504369" lat="61.1243322823" lon="5.04702142671">
		<tag k="fixme" v="consider place=hamlet" />
		<tag k="name" v="Losnedalen" />
		<tag k="place" v="farm" />
		<tag k="ssr:stedsnr" v="571092" />
	</node>
	<node id="-503070" lat="61.010880559" lon="4.69800555333">
		<tag k="name" v="Teinenes" />
		<tag k="place" v="farm" />
		<tag k="ssr:stedsnr" v="894789" />
	</node>
	<node id="-504092" lat="61.1956555564" lon="4.95494167097">
		<tag k="name" v="Enstad" />
		<tag k="place" v="farm" />
		<tag k="ssr:stedsnr" v="469427" />
	</node>
	<node id="-503061" lat="61.2063444408" lon="4.863630553">
		<tag k="name" v="Busknes" />
		<tag k="place" v="farm" />
		<tag k="ssr:stedsnr" v="894525" />
	</node>
	<node id="-504596" lat="61.2113250004" lon="4.89565278439">
		<tag k="name" v="Sanden" />
		<tag k="place" v="farm" />
		<tag k="ssr:stedsnr" v="651463" />
	</node>
	<node id="-503563" lat="61.1292388857" lon="5.01855833642">
		<tag k="fixme" v="consider place=hamlet" />
		<tag k="name" v="Krakhella" />
		<tag k="place" v="village" />
		<tag k="ssr:stedsnr" v="146003" />
	</node>
	<node id="-503043" lat="61.1092138934" lon="4.84030278073">
		<tag k="name" v="Bakkane" />
		<tag k="place" v="farm" />
		<tag k="ssr:stedsnr" v="894144" />
	</node>
	<node id="-502526" lat="61.0701749977" lon="4.84145832502">
		<tag k="name" v="Storehaugen" />
		<tag k="place" v="quarter" />
		<tag k="ssr:stedsnr" v="282693" />
	</node>
	<node id="-503167" lat="61.1343194476" lon="5.01750832459">
		<tag k="name" v="Hamnen" />
		<tag k="place" v="farm" />
		<tag k="ssr:stedsnr" v="9131" />
	</node>
	<node id="-504046" lat="61.0676222233" lon="4.8330916709">
		<tag k="name" v="Sildevika" />
		<tag k="place" v="quarter" />
		<tag k="ssr:stedsnr" v="464719" />
	</node>
	<node id="-503528" lat="61.1180843358" lon="5.08954157035">
		<tag k="fixme" v="consider place=hamlet" />
		<tag k="name" v="Netteland" />
		<tag k="place" v="farm" />
		<tag k="ssr:stedsnr" v="130319" />
	</node>
	<node id="-503012" lat="61.1058959354" lon="4.72835222957">
		<tag k="fixme" v="consider place=hamlet" />
		<tag k="name" v="Indrøyna" />
		<tag k="place" v="farm" />
		<tag k="ssr:stedsnr" v="893250" />
	</node>
	<node id="-504538" lat="61.0701638862" lon="4.83730277799">
		<tag k="name" v="Håneset" />
		<tag k="place" v="quarter" />
		<tag k="ssr:stedsnr" v="646707" />
	</node>
	<node id="-504022" lat="61.0364246186" lon="4.51334351683">
		<tag k="fixme" v="consider place=hamlet" />
		<tag k="name" v="Utvær" />
		<tag k="place" v="farm" />
		<tag k="ssr:stedsnr" v="434751" />
	</node>
	<node id="-502996" lat="61.1260638862" lon="5.04700277665">
		<tag k="alt_name" v="Losnedalen, øvre" />
		<tag k="name" v="Øvre Losnedalen" />
		<tag k="place" v="farm" />
		<tag k="ssr:stedsnr" v="477167" />
	</node>
	<node id="-504952" lat="61.1801611073" lon="4.94748056308">
		<tag k="alt_name" v="Ruska" />
		<tag k="name" v="Solvang" />
		<tag k="place" v="farm" />
		<tag k="ssr:stedsnr" v="798042" />
	</node>
	<node id="-503494" lat="61.1535504763" lon="4.81427718597">
		<tag k="fixme" v="consider place=hamlet" />
		<tag k="name" v="Avløypet" />
		<tag k="place" v="farm" />
		<tag k="ssr:stedsnr" v="130013" />
	</node>
	<node id="-504001" lat="61.0836166633" lon="4.73669444318">
		<tag k="alt_name" v="Lervika" />
		<tag k="name" v="Leirvika" />
		<tag k="place" v="farm" />
		<tag k="ssr:stedsnr" v="434299" />
	</node>
	<node id="-502974" lat="61.2144472204" lon="4.84612777163">
		<tag k="name" v="Nesheim" />
		<tag k="place" v="farm" />
		<tag k="ssr:stedsnr" v="409391" />
	</node>
	<node id="-502645" lat="61.0443833596" lon="4.65929910431">
		<tag k="fixme" v="multiple name tags, choose one and add the other to alt_name; consider place=hamlet" />
		<tag k="name" v="Nordre Hjønnevåg;Nordrevågen" />
		<tag k="place" v="farm" />
		<tag k="ssr:stedsnr" v="312752" />
	</node>
	<node id="-504507" lat="61.1474638888" lon="4.95487777457">
		<tag k="name" v="Engdal" />
		<tag k="place" v="farm" />
		<tag k="ssr:stedsnr" v="616208" />
	</node>
	<node id="-502970" lat="61.1305916695" lon="4.95213889281">
		<tag k="name" v="Vika" />
		<tag k="place" v="farm" />
		<tag k="ssr:stedsnr" v="408948" />
	</node>
	<node id="-503985" lat="61.1423949436" lon="4.8922646263">
		<tag k="alt_name" v="Fløypollen" />
		<tag k="fixme" v="consider place=hamlet" />
		<tag k="name" v="Vaulen" />
		<tag k="place" v="farm" />
		<tag k="ssr:stedsnr" v="434195" />
	</node>
	<node id="-504492" lat="61.1799722246" lon="4.86870555149">
		<tag k="name" v="Stølsvika" />
		<tag k="place" v="farm" />
		<tag k="ssr:stedsnr" v="616038" />
	</node>
	<node id="-503972" lat="61.1805666701" lon="4.92564444114">
		<tag k="name" v="Skogen" />
		<tag k="place" v="farm" />
		<tag k="ssr:stedsnr" v="434035" />
	</node>
	<node id="-502946" lat="61.2139388925" lon="4.89594721796">
		<tag k="name" v="Midtbø" />
		<tag k="place" v="farm" />
		<tag k="ssr:stedsnr" v="408481" />
	</node>
	<node id="-503966" lat="61.1199750037" lon="5.09327499809">
		<tag k="name" v="Netteland" />
		<tag k="place" v="farm" />
		<tag k="ssr:stedsnr" v="433520" />
	</node>
	<node id="-504984" lat="61.0685525115" lon="4.8119389541">
		<tag k="fixme" v="consider place=hamlet" />
		<tag k="name" v="Steinsund" />
		<tag k="place" v="farm" />
		<tag k="ssr:stedsnr" v="798266" />
	</node>
	<node id="-504982" lat="61.0717527775" lon="4.74877778604">
		<tag k="name" v="Lia" />
		<tag k="place" v="farm" />
		<tag k="ssr:stedsnr" v="798260" />
	</node>
	<node id="-505420" lat="61.0405860985" lon="4.66374633691">
		<tag k="fixme" v="multiple name tags, choose one and add the other to alt_name" />
		<tag k="name" v="Vågane;Hjønnevåg" />
		<tag k="place" v="hamlet" />
		<tag k="ssr:stedsnr" v="971876" />
	</node>
	<node id="-504979" lat="61.0658117305" lon="4.89864659904">
		<tag k="alt_name" v="Nesøy" />
		<tag k="fixme" v="consider place=hamlet" />
		<tag k="name" v="Nesøyna" />
		<tag k="place" v="farm" />
		<tag k="ssr:stedsnr" v="798241" />
	</node>
	<node id="-504975" lat="61.1390688183" lon="4.83224901944">
		<tag k="alt_name" v="Mårstig;Maursti" />
		<tag k="fixme" v="consider place=hamlet" />
		<tag k="name" v="Maurstigen" />
		<tag k="place" v="farm" />
		<tag k="ssr:stedsnr" v="798206" />
	</node>
	<node id="-504972" lat="61.1344763343" lon="4.94097853288">
		<tag k="name" v="Eilund" />
		<tag k="place" v="farm" />
		<tag k="ssr:stedsnr" v="798175" />
	</node>
	<node id="-505467" lat="61.1268544846" lon="5.03801978697">
		<tag k="fixme" v="consider place=hamlet" />
		<tag k="name" v="Strengklauv" />
		<tag k="name:no" v="Strengklauv" />
		<tag k="place" v="farm" />
		<tag k="ssr:stedsnr" v="974715" />
	</node>
	<node id="-505466" lat="61.209978955" lon="4.85656622691">
		<tag k="fixme" v="consider place=hamlet" />
		<tag k="name" v="Steinsøyna" />
		<tag k="place" v="farm" />
		<tag k="ssr:stedsnr" v="974710" />
	</node>
	<node id="-505465" lat="61.193735683" lon="4.87407776376">
		<tag k="fixme" v="consider place=hamlet" />
		<tag k="name" v="Vassøyna" />
		<tag k="place" v="farm" />
		<tag k="ssr:stedsnr" v="974709" />
	</node>
	<node id="-505464" lat="61.0460104782" lon="4.88092004883">
		<tag k="fixme" v="consider place=hamlet" />
		<tag k="name" v="Humlevåg" />
		<tag k="place" v="farm" />
		<tag k="ssr:stedsnr" v="974708" />
	</node>
	<node id="-505463" lat="61.0779107381" lon="4.85894903304">
		<tag k="fixme" v="consider place=hamlet" />
		<tag k="name" v="Hop" />
		<tag k="place" v="farm" />
		<tag k="ssr:stedsnr" v="974707" />
	</node>
	<node id="-505462" lat="61.1618371385" lon="4.835211537">
		<tag k="fixme" v="consider place=hamlet" />
		<tag k="name" v="Strand" />
		<tag k="place" v="farm" />
		<tag k="ssr:stedsnr" v="974705" />
	</node>
	<node id="-505461" lat="61.0898791886" lon="4.83496878932">
		<tag k="fixme" v="consider place=hamlet" />
		<tag k="name" v="Lia" />
		<tag k="place" v="farm" />
		<tag k="ssr:stedsnr" v="974702" />
	</node>
	<node id="-505460" lat="61.0761091859" lon="4.83708385516">
		<tag k="fixme" v="consider place=hamlet" />
		<tag k="name" v="Hardbakke" />
		<tag k="place" v="farm" />
		<tag k="ssr:stedsnr" v="974699" />
	</node>
	<node id="-505459" lat="61.0676461424" lon="4.82474501722">
		<tag k="fixme" v="consider place=hamlet" />
		<tag k="name" v="Steinsundholmen" />
		<tag k="place" v="farm" />
		<tag k="ssr:stedsnr" v="974698" />
	</node>
	<node id="-505458" lat="61.176985459" lon="4.69616587008">
		<tag k="fixme" v="consider place=hamlet" />
		<tag k="name" v="Gåsvær" />
		<tag k="place" v="farm" />
		<tag k="ssr:stedsnr" v="974697" />
	</node>
	<node id="-505457" lat="61.1223716343" lon="4.72952719207">
		<tag k="fixme" v="consider place=hamlet" />
		<tag k="name" v="Oddekalven" />
		<tag k="place" v="farm" />
		<tag k="ssr:stedsnr" v="974692" />
	</node>
	<node id="-505456" lat="60.9936374847" lon="4.61072137098">
		<tag k="fixme" v="consider place=hamlet" />
		<tag k="name" v="Husøyna" />
		<tag k="place" v="farm" />
		<tag k="ssr:stedsnr" v="974684" />
	</node>
	<node id="-505455" lat="60.98966969" lon="4.59195467914">
		<tag k="fixme" v="consider place=hamlet" />
		<tag k="name" v="Nautøyna" />
		<tag k="place" v="farm" />
		<tag k="ssr:stedsnr" v="974683" />
	</node>
	<node id="-505454" lat="61.0082118763" lon="4.60842023493">
		<tag k="fixme" v="consider place=hamlet" />
		<tag k="name" v="Indrevær" />
		<tag k="place" v="farm" />
		<tag k="ssr:stedsnr" v="974680" />
	</node>
	<node id="-504429" lat="61.1756166637" lon="4.87317223001">
		<tag k="name" v="Solberg" />
		<tag k="place" v="farm" />
		<tag k="ssr:stedsnr" v="590898" />
	</node>
	<node id="-503908" lat="61.0904027776" lon="4.83683055578">
		<tag k="alt_name" v="Lia, nordre" />
		<tag k="name" v="Nordre Lia" />
		<tag k="place" v="farm" />
		<tag k="ssr:stedsnr" v="252294" />
	</node>
	<node id="-503395" lat="61.2064501377" lon="4.82848936649">
		<tag k="fixme" v="multiple name tags, choose one and add the other to alt_name; consider place=hamlet" />
		<tag k="name" v="Færøyvika;Vika" />
		<tag k="place" v="farm" />
		<tag k="ssr:stedsnr" v="70937" />
	</node>
	<node id="-503739" lat="61.0125763297" lon="4.67374668315">
		<tag k="alt_name" v="Strømmen" />
		<tag k="fixme" v="consider place=hamlet" />
		<tag k="name" v="Straumen" />
		<tag k="place" v="farm" />
		<tag k="ssr:stedsnr" v="191938" />
	</node>
	<node id="-503892" lat="61.1369777796" lon="4.91471944484">
		<tag k="name" v="Hagelva" />
		<tag k="place" v="farm" />
		<tag k="ssr:stedsnr" v="252184" />
	</node>
	<node id="-502863" lat="61.0242009194" lon="4.77991220941">
		<tag k="alt_name" v="Tungodden" />
		<tag k="fixme" v="consider place=hamlet" />
		<tag k="name" v="Odden" />
		<tag k="place" v="farm" />
		<tag k="ssr:stedsnr" v="373457" />
	</node>
	<node id="-504333" lat="61.0652186317" lon="4.75191249936">
		<tag k="fixme" v="consider place=hamlet" />
		<tag k="name" v="Steindalen" />
		<tag k="place" v="farm" />
		<tag k="ssr:stedsnr" v="555256" />
	</node>
	<node id="-503884" lat="61.1217895079" lon="4.91274218203">
		<tag k="name" v="Hagen" />
		<tag k="place" v="farm" />
		<tag k="ssr:stedsnr" v="252107" />
	</node>
	<node id="-505418" lat="61.1723433602" lon="4.89533648378">
		<tag k="fixme" v="consider place=hamlet" />
		<tag k="name" v="Hersvik" />
		<tag k="place" v="farm" />
		<tag k="ssr:stedsnr" v="971810" />
	</node>
	<node id="-503876" lat="61.1881222186" lon="4.94675554896">
		<tag k="name" v="Nordheim" />
		<tag k="place" v="farm" />
		<tag k="ssr:stedsnr" v="252065" />
	</node>
	<node id="-503872" lat="61.1753777762" lon="4.97816110486">
		<tag k="alt_name" v="Elvheim" />
		<tag k="name" v="Elva" />
		<tag k="place" v="farm" />
		<tag k="ssr:stedsnr" v="252036" />
	</node>
	<node id="-502841" lat="61.1448698435" lon="4.91079206724">
		<tag k="alt_name" v="Furrevik" />
		<tag k="fixme" v="consider place=hamlet" />
		<tag k="name" v="Furevika" />
		<tag k="place" v="farm" />
		<tag k="ssr:stedsnr" v="373196" />
	</node>
	<node id="-502833" lat="61.1222166668" lon="5.03263611214">
		<tag k="alt_name" v="Klauva" />
		<tag k="fixme" v="multiple name tags, choose one and add the other to alt_name" />
		<tag k="name" v="Hamre;Klaua" />
		<tag k="place" v="farm" />
		<tag k="ssr:stedsnr" v="373127" />
	</node>
	<node id="-503344" lat="61.0629078285" lon="4.75481763589">
		<tag k="alt_name" v="Ravnøy" />
		<tag k="fixme" v="consider place=hamlet" />
		<tag k="name" v="Rånøyna" />
		<tag k="place" v="farm" />
		<tag k="ssr:stedsnr" v="70273" />
	</node>
	<node id="-503342" lat="61.0756305586" lon="4.84113055022">
		<tag k="name" v="Hardbakke" />
		<tag k="place" v="village" />
		<tag k="ssr:stedsnr" v="70258" />
	</node>
	<node id="-503341" lat="61.0750388856" lon="4.85959999602">
		<tag k="alt_name" v="Hop, s;Hop" />
		<tag k="name" v="Søre Hop" />
		<tag k="place" v="farm" />
		<tag k="ssr:stedsnr" v="70256" />
	</node>
	<node id="-503852" lat="61.0885023304" lon="4.88142255051">
		<tag k="fixme" v="consider place=hamlet" />
		<tag k="name" v="Pollen" />
		<tag k="place" v="farm" />
		<tag k="ssr:stedsnr" v="250532" />
	</node>
	<node id="-504362" lat="61.0069684833" lon="4.67046976978">
		<tag k="fixme" v="consider place=hamlet" />
		<tag k="name" v="Kolgrov" />
		<tag k="place" v="farm" />
		<tag k="ssr:stedsnr" v="555964" />
	</node>
	<node id="-503848" lat="60.995336553" lon="4.70651042399">
		<tag k="fixme" v="consider place=hamlet" />
		<tag k="name" v="Kverhella" />
		<tag k="place" v="farm" />
		<tag k="ssr:stedsnr" v="249651" />
	</node>
	<node id="-504867" lat="61.0456888894" lon="4.66606667392">
		<tag k="alt_name" v="Gjønnevåg" />
		<tag k="fixme" v="consider place=hamlet" />
		<tag k="loc_name" v="Gjønnøyvåg" />
		<tag k="name" v="Hjønnevåg" />
		<tag k="place" v="village" />
		<tag k="ssr:stedsnr" v="753822" />
	</node>
	<node id="-503834" lat="61.1863972257" lon="4.98110832742">
		<tag k="name" v="Bøvågen" />
		<tag k="place" v="farm" />
		<tag k="ssr:stedsnr" v="227516" />
	</node>
	<node id="-503370" lat="61.0029137245" lon="4.72270436852">
		<tag k="fixme" v="consider place=hamlet" />
		<tag k="name" v="Trovågen" />
		<tag k="place" v="farm" />
		<tag k="ssr:stedsnr" v="70387" />
	</node>
	<node id="-503857" lat="61.1712583331" lon="5.00143332546">
		<tag k="alt_name" v="Storvik" />
		<tag k="name" v="Storevika" />
		<tag k="place" v="farm" />
		<tag k="ssr:stedsnr" v="251018" />
	</node>
	<node id="-504140" lat="61.1960833345" lon="4.95840407944">
		<tag k="fixme" v="consider place=hamlet" />
		<tag k="name" v="Krakken" />
		<tag k="place" v="farm" />
		<tag k="ssr:stedsnr" v="494089" />
	</node>
	<node id="-504328" lat="61.1514101078" lon="4.95474610124">
		<tag k="alt_name" v="Engevik" />
		<tag k="fixme" v="consider place=hamlet" />
		<tag k="name" v="Engevika" />
		<tag k="place" v="farm" />
		<tag k="ssr:stedsnr" v="555193" />
	</node>
	<node id="-504662" lat="61.172819442" lon="4.89656389079">
		<tag k="fixme" v="consider place=hamlet" />
		<tag k="name" v="Hersvikbygda" />
		<tag k="place" v="village" />
		<tag k="ssr:stedsnr" v="677045" />
	</node>
	<node id="-504322" lat="61.1282222189" lon="4.94726943723">
		<tag k="name" v="Solstrand" />
		<tag k="place" v="farm" />
		<tag k="ssr:stedsnr" v="555140" />
	</node>
	<node id="-503809" lat="61.0121138896" lon="4.69845277882">
		<tag k="name" v="Soldal" />
		<tag k="place" v="farm" />
		<tag k="ssr:stedsnr" v="226825" />
	</node>
</osm>
