<?xml version="1.0" encoding="UTF-8"?>
<osm generator="osmapis" version="0.6">
	<node id="-504416" lat="61.1344555597" lon="4.93786111942">
		<tag k="layer" v="-1" />
		<tag k="name" v="Eilund I" />
		<tag k="ssr:stedsnr" v="590402" />
		<tag k="tunnel" v="yes" />
	</node>
	<node id="-504447" lat="61.1224444454" lon="4.96513332803">
		<tag k="bridge" v="yes" />
		<tag k="layer" v="1" />
		<tag k="name" v="Auretjernbekk" />
		<tag k="ssr:stedsnr" v="592447" />
	</node>
	<node id="-504446" lat="61.0087916658" lon="4.67306666078">
		<tag k="bridge" v="yes" />
		<tag k="layer" v="1" />
		<tag k="name" v="Straumen" />
		<tag k="ssr:stedsnr" v="592425" />
	</node>
	<node id="-505469" lat="61.0548095236" lon="4.7173806472">
		<tag k="amenity" v="ferry_terminal" />
		<tag k="name" v="Halldorsneset ferjekai" />
		<tag k="ssr:stedsnr" v="978646" />
	</node>
	<node id="-503130" lat="61.1404264993" lon="5.03020370557">
		<tag k="name" v="Standalsbukta" />
		<tag k="place" v="locality" />
		<tag k="ssr:stedsnr" v="1072854" />
	</node>
	<node id="-503129" lat="61.1725405684" lon="4.89340350674">
		<tag k="man_made" v="quay" />
		<tag k="name" v="Kirkekaien" />
		<tag k="place" v="locality" />
		<tag k="ssr:stedsnr" v="1072840" />
	</node>
	<node id="-505078" lat="61.1333888927" lon="4.93655555782">
		<tag k="layer" v="-1" />
		<tag k="name" v="Eilund II" />
		<tag k="ssr:stedsnr" v="833407" />
		<tag k="tunnel" v="yes" />
	</node>
	<node id="-502608" lat="61.0635444482" lon="4.75748333562">
		<tag k="bridge" v="yes" />
		<tag k="layer" v="1" />
		<tag k="name" v="Dalesund" />
		<tag k="ssr:stedsnr" v="289416" />
	</node>
	<node id="-503475" lat="61.0169222181" lon="4.74206666639">
		<tag k="amenity" v="ferry_terminal" />
		<tag k="name" v="Nåra ferjekai" />
		<tag k="ssr:stedsnr" v="107421" />
	</node>
	<node id="-503474" lat="61.0825416631" lon="4.69912777086">
		<tag k="bridge" v="yes" />
		<tag k="layer" v="1" />
		<tag k="name" v="Lundestraumen" />
		<tag k="ssr:stedsnr" v="107422" />
	</node>
	<node id="-502800" lat="61.0526694461" lon="4.73861388805">
		<tag k="amenity" v="ferry_terminal" />
		<tag k="name" v="Daløy ferjekai" />
		<tag k="ssr:stedsnr" v="349468" />
	</node>
	<node id="-502607" lat="61.0181194476" lon="4.70941665773">
		<tag k="bridge" v="yes" />
		<tag k="layer" v="1" />
		<tag k="name" v="Rørdalsfjord" />
		<tag k="ssr:stedsnr" v="289393" />
	</node>
	<node id="-503306" lat="61.0157277752" lon="4.74022221737">
		<tag k="bridge" v="yes" />
		<tag k="layer" v="1" />
		<tag k="name" v="Nårastraumen" />
		<tag k="ssr:stedsnr" v="46443" />
	</node>
	<node id="-505128" lat="61.1184361132" lon="5.09280833307">
		<tag k="amenity" v="ferry_terminal" />
		<tag k="name" v="Losna ferjekai" />
		<tag k="ssr:stedsnr" v="835453" />
	</node>
	<node id="-505127" lat="61.213505553" lon="4.89818888822">
		<tag k="bridge" v="yes" />
		<tag k="layer" v="1" />
		<tag k="name" v="Leknesund" />
		<tag k="ssr:stedsnr" v="835448" />
	</node>
	<node id="-504933" lat="61.1291194476" lon="5.01898055269">
		<tag k="amenity" v="ferry_terminal" />
		<tag k="name" v="Krakhella ferjekai" />
		<tag k="ssr:stedsnr" v="774454" />
	</node>
	<node id="-504616" lat="61.0650222194" lon="4.82365555853">
		<tag k="bridge" v="yes" />
		<tag k="layer" v="1" />
		<tag k="name" v="Steinsund Indre" />
		<tag k="ssr:stedsnr" v="652358" />
	</node>
	<node id="-502991" lat="61.0699916706" lon="4.8167555591">
		<tag k="bridge" v="yes" />
		<tag k="layer" v="1" />
		<tag k="name" v="Steinsund Undergang" />
		<tag k="ssr:stedsnr" v="410410" />
	</node>
	<node id="-503106" lat="60.9934423419" lon="4.59555942736">
		<tag k="name" v="Vaulane" />
		<tag k="place" v="locality" />
		<tag k="ssr:stedsnr" v="1072719" />
	</node>
</osm>
