<?xml version="1.0" encoding="UTF-8"?>
<osm generator="osmapis" version="0.6">
	<node id="-215648" lat="60.5908609473" lon="9.63819281559">
		<tag k="fixme" v="multiple name tags, choose one and add the other to alt_name" />
		<tag k="name" v="Austlandet;Østlandet" />
		<tag k="ssr:date" v="2018-01-09" />
		<tag k="ssr:gruppe" v="administrativeIndelinger" />
		<tag k="ssr:hovedgruppe" v="offentligAdministrasjon" />
		<tag k="ssr:stedsnr" v="974775" />
		<tag k="ssr:type" v="annenAdministrativInndeling" />
	</node>
	<node id="-213949" lat="59.1727694479" lon="9.66777778495">
		<tag k="name" v="Grenland" />
		<tag k="ssr:date" v="2016-05-10" />
		<tag k="ssr:gruppe" v="terrengområder" />
		<tag k="ssr:hovedgruppe" v="terreng" />
		<tag k="ssr:stedsnr" v="267957" />
		<tag k="ssr:type" v="landskapsområde" />
	</node>
	<node id="-213084" lat="59.0600114567" lon="9.44396208423">
		<tag k="name" v="Nedre Langseidet" />
		<tag k="ssr:date" v="2019-05-31" />
		<tag k="ssr:gruppe" v="veg" />
		<tag k="ssr:hovedgruppe" v="infrastruktur" />
		<tag k="ssr:stedsnr" v="1060783" />
		<tag k="ssr:type" v="adressenavn" />
	</node>
	<node id="-213977" lat="59.1226250025" lon="9.60531110826">
		<tag k="name" v="Torsberg" />
		<tag k="ssr:date" v="2016-05-10" />
		<tag k="ssr:gruppe" v="navigasjon" />
		<tag k="ssr:hovedgruppe" v="infrastruktur" />
		<tag k="ssr:stedsnr" v="426565" />
		<tag k="ssr:type" v="fyrlykt" />
	</node>
	<node id="-212920" lat="59.1437365313" lon="9.61172119188">
		<tag k="name" v="Alvestadtunet" />
		<tag k="ssr:date" v="2019-05-31" />
		<tag k="ssr:gruppe" v="veg" />
		<tag k="ssr:hovedgruppe" v="infrastruktur" />
		<tag k="ssr:stedsnr" v="1051203" />
		<tag k="ssr:type" v="adressenavn" />
	</node>
	<node id="-214423" lat="59.2073583351" lon="9.60764167532">
		<tag k="name" v="Handelstorget" />
		<tag k="ssr:date" v="2016-05-10" />
		<tag k="ssr:gruppe" v="administrativeIndelinger" />
		<tag k="ssr:hovedgruppe" v="offentligAdministrasjon" />
		<tag k="ssr:stedsnr" v="566184" />
		<tag k="ssr:type" v="poststed" />
	</node>
	<node id="-214230" lat="59.1438499964" lon="9.27538334077">
		<tag k="name" v="Høydalen" />
		<tag k="ssr:date" v="2019-05-31" />
		<tag k="ssr:gruppe" v="veg" />
		<tag k="ssr:hovedgruppe" v="infrastruktur" />
		<tag k="ssr:stedsnr" v="506377" />
		<tag k="ssr:type" v="adressenavn" />
	</node>
	<node id="-213753" lat="59.2108638887" lon="9.4895500018">
		<tag k="name" v="Firingen" />
		<tag k="ssr:date" v="2016-05-10" />
		<tag k="ssr:gruppe" v="navigasjon" />
		<tag k="ssr:hovedgruppe" v="infrastruktur" />
		<tag k="ssr:stedsnr" v="208123" />
		<tag k="ssr:type" v="fyrlykt" />
	</node>
	<node id="-213364" lat="59.2074888872" lon="9.61056944304">
		<tag k="alt_name" v="Skien" />
		<tag k="name" v="Skien kommune" />
		<tag k="ssr:date" v="2018-12-12" />
		<tag k="ssr:gruppe" v="administrativeIndelinger" />
		<tag k="ssr:hovedgruppe" v="offentligAdministrasjon" />
		<tag k="ssr:stedsnr" v="85015" />
		<tag k="ssr:type" v="kommune" />
	</node>
	<node id="-213106" lat="59.1432576188" lon="9.42105639611">
		<tag k="name" v="Storodden" />
		<tag k="ssr:date" v="2019-05-31" />
		<tag k="ssr:gruppe" v="veg" />
		<tag k="ssr:hovedgruppe" v="infrastruktur" />
		<tag k="ssr:stedsnr" v="1065934" />
		<tag k="ssr:type" v="adressenavn" />
	</node>
	<node id="-213105" lat="59.1195298411" lon="9.41582226338">
		<tag k="name" v="Skrikenes" />
		<tag k="ssr:date" v="2019-05-31" />
		<tag k="ssr:gruppe" v="veg" />
		<tag k="ssr:hovedgruppe" v="infrastruktur" />
		<tag k="ssr:stedsnr" v="1065687" />
		<tag k="ssr:type" v="adressenavn" />
	</node>
	<node id="-213104" lat="59.2258482998" lon="9.46417601156">
		<tag k="name" v="Ramsdokk" />
		<tag k="ssr:date" v="2019-05-31" />
		<tag k="ssr:gruppe" v="veg" />
		<tag k="ssr:hovedgruppe" v="infrastruktur" />
		<tag k="ssr:stedsnr" v="1065039" />
		<tag k="ssr:type" v="adressenavn" />
	</node>
	<node id="-213359" lat="59.2020555538" lon="9.61700555169">
		<tag k="name" v="Gampedalsvegen" />
		<tag k="ssr:date" v="2019-05-31" />
		<tag k="ssr:gruppe" v="veg" />
		<tag k="ssr:hovedgruppe" v="infrastruktur" />
		<tag k="ssr:stedsnr" v="82335" />
		<tag k="ssr:type" v="adressenavn" />
	</node>
	<node id="-215306" lat="59.1847601046" lon="9.62315814495">
		<tag k="name" v="Svea" />
		<tag k="ssr:date" v="2019-01-22" />
		<tag k="ssr:gruppe" v="navigasjon" />
		<tag k="ssr:hovedgruppe" v="infrastruktur" />
		<tag k="ssr:stedsnr" v="851519" />
		<tag k="ssr:type" v="fyrlykt" />
	</node>
	<node id="-215272" lat="59.2160722241" lon="9.61115833287">
		<tag k="alt_name" v="Telemark" />
		<tag k="name" v="Telemark fylke" />
		<tag k="ssr:date" v="2019-01-21" />
		<tag k="ssr:gruppe" v="administrativeIndelinger" />
		<tag k="ssr:hovedgruppe" v="offentligAdministrasjon" />
		<tag k="ssr:stedsnr" v="817816" />
		<tag k="ssr:type" v="fylke" />
	</node>
	<node id="-215109" lat="59.1744277814" lon="9.63479167346">
		<tag k="name" v="Kjørbekk" />
		<tag k="old_name" v="Kjørrbekk" />
		<tag k="ssr:date" v="2016-05-11" />
		<tag k="ssr:gruppe" v="navigasjon" />
		<tag k="ssr:hovedgruppe" v="infrastruktur" />
		<tag k="ssr:stedsnr" v="790582" />
		<tag k="ssr:type" v="fyrlykt" />
	</node>
	<node id="-213076" lat="59.315312677" lon="9.29380223136">
		<tag k="name" v="Kjosvik" />
		<tag k="ssr:date" v="2019-05-31" />
		<tag k="ssr:gruppe" v="veg" />
		<tag k="ssr:hovedgruppe" v="infrastruktur" />
		<tag k="ssr:stedsnr" v="1056720" />
		<tag k="ssr:type" v="adressenavn" />
	</node>
	<node id="-212993" lat="59.1459427243" lon="9.63163741807">
		<tag k="name" v="Grønhaugvegen" />
		<tag k="ssr:date" v="2019-05-31" />
		<tag k="ssr:gruppe" v="veg" />
		<tag k="ssr:hovedgruppe" v="infrastruktur" />
		<tag k="ssr:stedsnr" v="1054872" />
		<tag k="ssr:type" v="adressenavn" />
	</node>
</osm>
