<?xml version="1.0" encoding="UTF-8"?>
<<<<<<< HEAD
<osm version="0.6" generator="osmapis">
	<node lat="60.113119445439665" lon="5.2183194527661145" id="-34525">
=======
<osm generator="osmapis" version="0.6">
	<node id="-634344" lat="60.1131194454" lon="5.21831945277">
>>>>>>> e1d4bc35ff8a6074a6f2e91616a996b547c36f15
		<tag k="name" v="Storesteinen" />
		<tag k="natural" v="stone" />
		<tag k="ssr:stedsnr" v="97314" />
	</node>
<<<<<<< HEAD
	<node lat="59.986533330131465" lon="5.148322221496841" id="-34643">
		<tag k="name" v="Breiemyrane" />
		<tag k="natural" v="wetland" />
		<tag k="ssr:stedsnr" v="280667" />
	</node>
	<node lat="60.1166555511547" lon="5.21453888502077" id="-35412">
		<tag k="name" v="Helledalsmyrane" />
		<tag k="natural" v="wetland" />
		<tag k="ssr:stedsnr" v="368908" />
	</node>
	<node lat="60.13235277881913" lon="5.134855551299981" id="-35744">
=======
	<node id="-635623" lat="60.1323527788" lon="5.1348555513">
>>>>>>> e1d4bc35ff8a6074a6f2e91616a996b547c36f15
		<tag k="name" v="HovÃ¥semyra" />
		<tag k="natural" v="wetland" />
		<tag k="ssr:stedsnr" v="854996" />
	</node>
	<node id="-634418" lat="59.9865333301" lon="5.1483222215">
		<tag k="name" v="Breiemyrane" />
		<tag k="natural" v="wetland" />
		<tag k="ssr:stedsnr" v="280667" />
	</node>
	<node id="-635209" lat="60.1166555512" lon="5.21453888502">
		<tag k="name" v="Helledalsmyrane" />
		<tag k="natural" v="wetland" />
		<tag k="ssr:stedsnr" v="368908" />
	</node>
</osm>
