<?xml version="1.0" encoding="UTF-8"?>
<osm version="0.6" generator="osmapis">
	<node lat="60.09430173990702" lon="5.222907316088442" id="-72382">
		<tag k="alt_name" v="Austevoll kirke" />
		<tag k="amenity" v="place_of_worship" />
		<tag k="denomination" v="lutheran" />
		<tag k="name" v="Austevoll kyrkje" />
		<tag k="religion" v="christian" />
		<tag k="ssr:stedsnr" v="247864" />
	</node>
	<node lat="60.00308316183728" lon="5.202332290220861" id="-72642">
		<tag k="alt_name" v="Bekkjarvik" />
		<tag k="amenity" v="place_of_worship" />
		<tag k="denomination" v="lutheran" />
		<tag k="name" v="Bekkjarvik kyrkje" />
		<tag k="religion" v="christian" />
		<tag k="ssr:stedsnr" v="430208" />
	</node>
	<node lat="60.065771478886816" lon="5.099853067677513" id="-73020">
		<tag k="amenity" v="place_of_worship" />
		<tag k="fixme" v="specify religion=*, denomination=*, building=* etc" />
		<tag k="name" v="Møkster kapell" />
		<tag k="ssr:stedsnr" v="987844" />
	</node>
	<node lat="60.127222219232195" lon="5.079077778800425" id="-73181">
		<tag k="amenity" v="place_of_worship" />
		<tag k="denomination" v="lutheran" />
		<tag k="name" v="Stora Kalsøy kyrkje" />
		<tag k="religion" v="christian" />
		<tag k="ssr:stedsnr" v="126619" />
	</node>
</osm>
