<?xml version="1.0" encoding="UTF-8"?>
<osm version="0.6" generator="osmapis">
	<node lat="60.05677499576063" lon="5.292563889981613" id="-26835">
		<tag k="name" v="Grøndalshaugen" />
		<tag k="natural" v="hill" />
		<tag k="place" v="locality" />
		<tag k="ssr:stedsnr" v="5158" />
	</node>
	<node lat="60.05009166511922" lon="5.281475000784246" id="-26836">
		<tag k="fixme" v="consider natural=peak for the most distinct mountains in the district" />
		<tag k="name" v="Loddo" />
		<tag k="natural" v="hill" />
		<tag k="place" v="locality" />
		<tag k="ssr:stedsnr" v="5160" />
	</node>
	<node lat="60.127255557402115" lon="5.056333341194117" id="-26842">
		<tag k="name" v="Ørnatua" />
		<tag k="natural" v="hill" />
		<tag k="place" v="locality" />
		<tag k="ssr:stedsnr" v="5618" />
	</node>
	<node lat="59.99740555616762" lon="5.25367778019512" id="-26850">
		<tag k="name" v="Ausmundshaugen" />
		<tag k="natural" v="hill" />
		<tag k="place" v="locality" />
		<tag k="ssr:stedsnr" v="36413" />
	</node>
	<node lat="60.062002780897004" lon="5.181272230035077" id="-26857">
		<tag k="name" v="Langhaugen" />
		<tag k="natural" v="hill" />
		<tag k="place" v="locality" />
		<tag k="ssr:stedsnr" v="36618" />
	</node>
	<node lat="60.108930558352945" lon="5.170827775150357" id="-26858">
		<tag k="name" v="Djupedalen" />
		<tag k="natural" v="valley" />
		<tag k="place" v="locality" />
		<tag k="ssr:stedsnr" v="37303" />
	</node>
	<node lat="60.01843889299626" lon="5.2085916630066595" id="-26864">
		<tag k="name" v="Storemyrshaugen" />
		<tag k="natural" v="hill" />
		<tag k="place" v="locality" />
		<tag k="ssr:stedsnr" v="37680" />
	</node>
	<node lat="60.118261106891886" lon="5.04802499633643" id="-26882">
		<tag k="name" v="Håsneshaugen" />
		<tag k="natural" v="hill" />
		<tag k="place" v="locality" />
		<tag k="ssr:stedsnr" v="66621" />
	</node>
	<node lat="60.03746667062485" lon="5.283374999315281" id="-26885">
		<tag k="name" v="Trollhaugen" />
		<tag k="natural" v="hill" />
		<tag k="place" v="locality" />
		<tag k="ssr:stedsnr" v="247144" />
	</node>
	<node lat="60.002202781722495" lon="5.0700500051583095" id="-26895">
		<tag k="name" v="Såta" />
		<tag k="natural" v="hill" />
		<tag k="place" v="locality" />
		<tag k="ssr:stedsnr" v="247640" />
	</node>
	<node lat="60.13614166983926" lon="5.053105561701062" id="-26903">
		<tag k="name" v="Røyrdalen" />
		<tag k="natural" v="valley" />
		<tag k="place" v="locality" />
		<tag k="ssr:stedsnr" v="97507" />
	</node>
	<node lat="59.9756416647083" lon="5.147258338068811" id="-26940">
		<tag k="name" v="Storhaugen" />
		<tag k="natural" v="hill" />
		<tag k="place" v="locality" />
		<tag k="ssr:stedsnr" v="158707" />
	</node>
	<node lat="59.97353888807139" lon="5.169316673204494" id="-26941">
		<tag k="name" v="Stølshaugen" />
		<tag k="natural" v="hill" />
		<tag k="place" v="locality" />
		<tag k="ssr:stedsnr" v="158708" />
	</node>
	<node lat="60.144436108655036" lon="5.114991659011071" id="-26944">
		<tag k="name" v="Navøyskaget" />
		<tag k="natural" v="hill" />
		<tag k="place" v="locality" />
		<tag k="ssr:stedsnr" v="158756" />
	</node>
	<node lat="59.98943888530538" lon="5.065013887847593" id="-26948">
		<tag k="name" v="Grønevikevarden" />
		<tag k="natural" v="hill" />
		<tag k="place" v="locality" />
		<tag k="ssr:stedsnr" v="158902" />
	</node>
	<node lat="60.03936944121851" lon="5.241463891268353" id="-26974">
		<tag k="name" v="Lidalen" />
		<tag k="natural" v="valley" />
		<tag k="place" v="locality" />
		<tag k="ssr:stedsnr" v="206638" />
	</node>
	<node lat="60.11499444051602" lon="5.213747213765854" id="-26981">
		<tag k="name" v="Vardhaugane" />
		<tag k="natural" v="hill" />
		<tag k="place" v="locality" />
		<tag k="ssr:stedsnr" v="219307" />
	</node>
	<node lat="60.103758335896664" lon="5.161761109623023" id="-26982">
		<tag k="name" v="Melingsvarden" />
		<tag k="natural" v="hill" />
		<tag k="place" v="locality" />
		<tag k="ssr:stedsnr" v="219311" />
	</node>
	<node lat="60.02498332905322" lon="5.141294446440021" id="-26983">
		<tag k="name" v="Vågarhaugen" />
		<tag k="natural" v="hill" />
		<tag k="place" v="locality" />
		<tag k="ssr:stedsnr" v="219318" />
	</node>
	<node lat="60.05315278146412" lon="5.262833326259753" id="-26989">
		<tag k="name" v="Storasetra" />
		<tag k="natural" v="hill" />
		<tag k="place" v="locality" />
		<tag k="ssr:stedsnr" v="219476" />
	</node>
	<node lat="60.04856922038058" lon="5.177862762917887" id="-26992">
		<tag k="name" v="Storhaugen" />
		<tag k="natural" v="hill" />
		<tag k="place" v="locality" />
		<tag k="ssr:stedsnr" v="219676" />
	</node>
	<node lat="59.98293611337809" lon="5.15817777481209" id="-26993">
		<tag k="name" v="Hellehaugen" />
		<tag k="natural" v="hill" />
		<tag k="place" v="locality" />
		<tag k="ssr:stedsnr" v="219686" />
	</node>
	<node lat="60.1144944487213" lon="5.143327771736908" id="-27009">
		<tag k="name" v="Dalavatnet" />
		<tag k="place" v="locality" />
		<tag k="ssr:stedsnr" v="279302" />
	</node>
	<node lat="60.06108888641547" lon="5.290452784688779" id="-27030">
		<tag k="name" v="Låga" />
		<tag k="place" v="locality" />
		<tag k="ssr:stedsnr" v="461447" />
	</node>
	<node lat="60.03298333087996" lon="5.254244446604753" id="-27031">
		<tag k="fixme" v="consider natural=peak for the most distinct mountains in the district" />
		<tag k="name" v="Patteråsen" />
		<tag k="natural" v="hill" />
		<tag k="place" v="locality" />
		<tag k="ssr:stedsnr" v="461494" />
	</node>
	<node lat="59.990330553810146" lon="5.051486104403558" id="-27036">
		<tag k="name" v="Børa" />
		<tag k="natural" v="hill" />
		<tag k="place" v="locality" />
		<tag k="ssr:stedsnr" v="461642" />
	</node>
	<node lat="60.001049999552905" lon="5.2059555644907585" id="-27041">
		<tag k="name" v="Vardhaugen" />
		<tag k="natural" v="hill" />
		<tag k="place" v="locality" />
		<tag k="ssr:stedsnr" v="462663" />
	</node>
	<node lat="60.00354722293818" lon="5.161475005321456" id="-27042">
		<tag k="name" v="Pikhaugen" />
		<tag k="natural" v="hill" />
		<tag k="place" v="locality" />
		<tag k="ssr:stedsnr" v="462701" />
	</node>
	<node lat="59.99431388682969" lon="5.151544440488987" id="-27046">
		<tag k="fixme" v="multiple name tags, choose one and add the other to alt_name; consider natural=peak for the most distinct mountains in the district" />
		<tag k="name" v="Rabbafjellet;Skjerpa" />
		<tag k="natural" v="hill" />
		<tag k="place" v="locality" />
		<tag k="ssr:stedsnr" v="307275" />
	</node>
	<node lat="60.10264167022431" lon="5.234808331406919" id="-27068">
		<tag k="name" v="Vassbotnen" />
		<tag k="natural" v="valley" />
		<tag k="place" v="locality" />
		<tag k="ssr:stedsnr" v="340353" />
	</node>
	<node lat="60.003102773774806" lon="5.076980560946718" id="-27074">
		<tag k="name" v="Runndalsheia" />
		<tag k="place" v="locality" />
		<tag k="ssr:stedsnr" v="340904" />
	</node>
	<node lat="60.13694166431157" lon="5.06252499892062" id="-27097">
		<tag k="name" v="Arakletten" />
		<tag k="natural" v="hill" />
		<tag k="place" v="locality" />
		<tag k="ssr:stedsnr" v="369707" />
	</node>
	<node lat="60.10944166731283" lon="5.237522224680388" id="-27117">
		<tag k="name" v="Ugleneshaugen" />
		<tag k="natural" v="hill" />
		<tag k="place" v="locality" />
		<tag k="ssr:stedsnr" v="401313" />
	</node>
	<node lat="60.12957777595403" lon="5.079374993446462" id="-27122">
		<tag k="name" v="Trollhaugen" />
		<tag k="natural" v="hill" />
		<tag k="place" v="locality" />
		<tag k="ssr:stedsnr" v="401707" />
	</node>
	<node lat="59.979461109633725" lon="5.174705548777089" id="-27123">
		<tag k="name" v="Bukkalibrotet" />
		<tag k="natural" v="hill" />
		<tag k="place" v="locality" />
		<tag k="ssr:stedsnr" v="401711" />
	</node>
	<node lat="60.05776388731215" lon="5.257655547034261" id="-27124">
		<tag k="fixme" v="consider natural=peak for the most distinct mountains in the district" />
		<tag k="name" v="Grønåsen" />
		<tag k="natural" v="hill" />
		<tag k="place" v="locality" />
		<tag k="ssr:stedsnr" v="401487" />
	</node>
	<node lat="60.13775833073325" lon="5.074811119043969" id="-27135">
		<tag k="alt_name" v="Nuken" />
		<tag k="name" v="Mjuken" />
		<tag k="natural" v="hill" />
		<tag k="place" v="locality" />
		<tag k="ssr:stedsnr" v="490747" />
	</node>
	<node lat="60.07406666873403" lon="5.204341661609279" id="-27144">
		<tag k="name" v="Setehaugen" />
		<tag k="natural" v="hill" />
		<tag k="place" v="locality" />
		<tag k="ssr:stedsnr" v="429927" />
	</node>
	<node lat="59.99490555829851" lon="5.19641111938252" id="-27153">
		<tag k="fixme" v="consider natural=peak for the most distinct mountains in the district" />
		<tag k="name" v="Kongsfjellet" />
		<tag k="natural" v="hill" />
		<tag k="place" v="locality" />
		<tag k="ssr:stedsnr" v="671138" />
	</node>
	<node lat="60.101841668133595" lon="5.172838896711651" id="-27167">
		<tag k="name" v="Kongsvarden" />
		<tag k="natural" v="hill" />
		<tag k="place" v="locality" />
		<tag k="ssr:stedsnr" v="671898" />
	</node>
	<node lat="60.04475277819711" lon="5.2363583281318595" id="-27178">
		<tag k="name" v="Grønhaugen" />
		<tag k="natural" v="hill" />
		<tag k="place" v="locality" />
		<tag k="ssr:stedsnr" v="461110" />
	</node>
	<node lat="60.03149957711761" lon="5.3015829766177" id="-27181">
		<tag k="name" v="Annehaugen" />
		<tag k="natural" v="hill" />
		<tag k="place" v="locality" />
		<tag k="ssr:stedsnr" v="461464" />
	</node>
	<node lat="60.03537222276806" lon="5.2923694406636645" id="-27182">
		<tag k="name" v="Rinda" />
		<tag k="place" v="locality" />
		<tag k="ssr:stedsnr" v="461472" />
	</node>
	<node lat="60.13511111562505" lon="5.0595916672163215" id="-27185">
		<tag k="name" v="Langedalen" />
		<tag k="natural" v="valley" />
		<tag k="place" v="locality" />
		<tag k="ssr:stedsnr" v="461519" />
	</node>
	<node lat="59.986058330130476" lon="5.180074994199109" id="-27192">
		<tag k="name" v="Grasdalen" />
		<tag k="natural" v="valley" />
		<tag k="place" v="locality" />
		<tag k="ssr:stedsnr" v="489148" />
	</node>
	<node lat="60.0222222243526" lon="5.242688896925696" id="-27199">
		<tag k="name" v="Veten" />
		<tag k="natural" v="hill" />
		<tag k="place" v="locality" />
		<tag k="ssr:stedsnr" v="490229" />
	</node>
	<node lat="60.09015555825997" lon="5.2278111124880855" id="-27220">
		<tag k="fixme" v="consider natural=peak for the most distinct mountains in the district" />
		<tag k="name" v="Åsen" />
		<tag k="natural" v="hill" />
		<tag k="place" v="locality" />
		<tag k="ssr:stedsnr" v="522321" />
	</node>
	<node lat="60.09414722627512" lon="5.247727782449134" id="-27222">
		<tag k="name" v="Hovda" />
		<tag k="natural" v="hill" />
		<tag k="place" v="locality" />
		<tag k="ssr:stedsnr" v="522376" />
	</node>
	<node lat="60.133838892841005" lon="5.0661055472074255" id="-27223">
		<tag k="fixme" v="consider natural=peak for the most distinct mountains in the district" />
		<tag k="name" v="Grønafjellet" />
		<tag k="natural" v="hill" />
		<tag k="place" v="locality" />
		<tag k="ssr:stedsnr" v="522514" />
	</node>
	<node lat="60.01320833579357" lon="5.012572223391497" id="-27251">
		<tag k="name" v="Gråmåsehaugen" />
		<tag k="natural" v="hill" />
		<tag k="place" v="locality" />
		<tag k="ssr:stedsnr" v="582408" />
	</node>
	<node lat="60.02682221912156" lon="5.2770361094109095" id="-27255">
		<tag k="name" v="Vassheia" />
		<tag k="place" v="locality" />
		<tag k="ssr:stedsnr" v="582467" />
	</node>
	<node lat="60.0632388891781" lon="5.2450916751910315" id="-27257">
		<tag k="name" v="Eidsbakken" />
		<tag k="natural" v="slope" />
		<tag k="place" v="locality" />
		<tag k="ssr:stedsnr" v="582648" />
	</node>
	<node lat="60.05374166497535" lon="5.258236116922853" id="-27283">
		<tag k="name" v="Litlasetra" />
		<tag k="natural" v="hill" />
		<tag k="place" v="locality" />
		<tag k="ssr:stedsnr" v="704439" />
	</node>
	<node lat="60.09163610850658" lon="5.090422221680948" id="-27285">
		<tag k="name" v="Breibogsberget" />
		<tag k="natural" v="hill" />
		<tag k="place" v="locality" />
		<tag k="ssr:stedsnr" v="704489" />
	</node>
	<node lat="59.993597225242524" lon="5.122216661123216" id="-27293">
		<tag k="name" v="Lauvåsen" />
		<tag k="natural" v="valley" />
		<tag k="place" v="locality" />
		<tag k="ssr:stedsnr" v="704565" />
	</node>
	<node lat="59.997394443610204" lon="5.16410832505582" id="-27297">
		<tag k="name" v="Føljatjørnshaugen" />
		<tag k="natural" v="hill" />
		<tag k="place" v="locality" />
		<tag k="ssr:stedsnr" v="704626" />
	</node>
	<node lat="59.985819441446424" lon="5.198388890424285" id="-27298">
		<tag k="name" v="Vedadalshaugane" />
		<tag k="natural" v="hill" />
		<tag k="place" v="locality" />
		<tag k="ssr:stedsnr" v="704630" />
	</node>
	<node lat="60.11753333731722" lon="5.058922217772427" id="-27305">
		<tag k="name" v="Loshaugen" />
		<tag k="natural" v="hill" />
		<tag k="place" v="locality" />
		<tag k="ssr:stedsnr" v="704701" />
	</node>
	<node lat="60.06377222487095" lon="5.2372638816961095" id="-27309">
		<tag k="name" v="Stolane" />
		<tag k="natural" v="hill" />
		<tag k="place" v="locality" />
		<tag k="ssr:stedsnr" v="642631" />
	</node>
	<node lat="60.032391663156716" lon="5.281044442283478" id="-27311">
		<tag k="fixme" v="consider natural=peak for the most distinct mountains in the district" />
		<tag k="name" v="Litla Saugafjellet" />
		<tag k="natural" v="hill" />
		<tag k="place" v="locality" />
		<tag k="ssr:stedsnr" v="643478" />
	</node>
	<node lat="60.00873611427657" lon="5.096025005556288" id="-27321">
		<tag k="name" v="Valhammarsberget" />
		<tag k="natural" v="hill" />
		<tag k="place" v="locality" />
		<tag k="ssr:stedsnr" v="643887" />
	</node>
	<node lat="60.14613055856534" lon="5.20780000172862" id="-27338">
		<tag k="name" v="Nautaberget" />
		<tag k="natural" v="hill" />
		<tag k="place" v="locality" />
		<tag k="ssr:stedsnr" v="692872" />
	</node>
	<node lat="60.03344444699285" lon="5.229383340760711" id="-27340">
		<tag k="name" v="Stemmehaugen" />
		<tag k="natural" v="hill" />
		<tag k="place" v="locality" />
		<tag k="ssr:stedsnr" v="704110" />
	</node>
	<node lat="59.99676944167895" lon="5.081713896611634" id="-27381">
		<tag k="name" v="Øktervarden" />
		<tag k="natural" v="hill" />
		<tag k="place" v="locality" />
		<tag k="ssr:stedsnr" v="765594" />
	</node>
	<node lat="60.017222221700976" lon="5.201011103506073" id="-27384">
		<tag k="name" v="Kolhaugen" />
		<tag k="natural" v="hill" />
		<tag k="place" v="locality" />
		<tag k="ssr:stedsnr" v="765657" />
	</node>
	<node lat="60.03706944648099" lon="5.2094194483142475" id="-27417">
		<tag k="name" v="Tinghaugen" />
		<tag k="natural" v="hill" />
		<tag k="place" v="locality" />
		<tag k="ssr:stedsnr" v="826120" />
	</node>
	<node lat="60.00018888562423" lon="5.055283326150636" id="-27449">
		<tag k="name" v="Seksæringen" />
		<tag k="place" v="locality" />
		<tag k="ssr:stedsnr" v="886899" />
	</node>
	<node lat="60.04801666486605" lon="5.288469446594731" id="-27470">
		<tag k="name" v="Kuhaugen" />
		<tag k="natural" v="hill" />
		<tag k="place" v="locality" />
		<tag k="ssr:stedsnr" v="947462" />
	</node>
	<node lat="60.051955553608224" lon="5.17639444496409" id="-27478">
		<tag k="name" v="Skjåhaugen" />
		<tag k="natural" v="hill" />
		<tag k="place" v="locality" />
		<tag k="ssr:stedsnr" v="947632" />
	</node>
	<node lat="59.99277778067843" lon="5.178636113859367" id="-27497">
		<tag k="name" v="Stålhua" />
		<tag k="natural" v="hill" />
		<tag k="place" v="locality" />
		<tag k="ssr:stedsnr" v="4241" />
	</node>
	<node lat="60.112250000155065" lon="5.204569445893854" id="-27528">
		<tag k="name" v="Krossen" />
		<tag k="natural" v="hill" />
		<tag k="place" v="locality" />
		<tag k="ssr:stedsnr" v="37285" />
	</node>
	<node lat="60.10132222543722" lon="5.213516668845783" id="-27532">
		<tag k="name" v="Storhaugen" />
		<tag k="natural" v="hill" />
		<tag k="place" v="locality" />
		<tag k="ssr:stedsnr" v="37323" />
	</node>
	<node lat="59.96978333222114" lon="5.12649166276381" id="-27537">
		<tag k="name" v="Risesteinen" />
		<tag k="natural" v="hill" />
		<tag k="place" v="locality" />
		<tag k="ssr:stedsnr" v="37941" />
	</node>
	<node lat="60.01819444050685" lon="5.021416668941736" id="-27538">
		<tag k="name" v="Stølsbogen" />
		<tag k="place" v="locality" />
		<tag k="ssr:stedsnr" v="37894" />
	</node>
	<node lat="60.01380833433375" lon="5.0083166583560565" id="-27561">
		<tag k="name" v="Myrbærhaugen" />
		<tag k="natural" v="hill" />
		<tag k="place" v="locality" />
		<tag k="ssr:stedsnr" v="97404" />
	</node>
	<node lat="60.06086111053309" lon="5.2645861150897915" id="-27564">
		<tag k="name" v="Ordøset" />
		<tag k="place" v="locality" />
		<tag k="ssr:stedsnr" v="97451" />
	</node>
	<node lat="60.0100361077471" lon="5.072547225151219" id="-27572">
		<tag k="name" v="Tverrberget" />
		<tag k="natural" v="hill" />
		<tag k="place" v="locality" />
		<tag k="ssr:stedsnr" v="97869" />
	</node>
	<node lat="60.01283611386992" lon="5.233905553351823" id="-27582">
		<tag k="name" v="Sjonarhaugen" />
		<tag k="natural" v="hill" />
		<tag k="place" v="locality" />
		<tag k="ssr:stedsnr" v="98686" />
	</node>
	<node lat="59.983583334224086" lon="5.169224993881521" id="-27583">
		<tag k="name" v="Djupedalen" />
		<tag k="natural" v="valley" />
		<tag k="place" v="locality" />
		<tag k="ssr:stedsnr" v="98693" />
	</node>
	<node lat="60.011913888319405" lon="5.244152776893776" id="-27593">
		<tag k="name" v="Kåsene" />
		<tag k="natural" v="hill" />
		<tag k="place" v="locality" />
		<tag k="ssr:stedsnr" v="121754" />
	</node>
	<node lat="60.15251110856077" lon="5.204175002086663" id="-27608">
		<tag k="name" v="Varden" />
		<tag k="natural" v="hill" />
		<tag k="place" v="locality" />
		<tag k="ssr:stedsnr" v="125973" />
	</node>
	<node lat="60.10639999667776" lon="5.238663897735643" id="-27628">
		<tag k="name" v="Stormehaugen" />
		<tag k="natural" v="hill" />
		<tag k="place" v="locality" />
		<tag k="ssr:stedsnr" v="158340" />
	</node>
	<node lat="60.053983331766524" lon="5.2922555602634045" id="-27631">
		<tag k="fixme" v="consider natural=peak for the most distinct mountains in the district" />
		<tag k="name" v="Bjelkåsen" />
		<tag k="natural" v="hill" />
		<tag k="place" v="locality" />
		<tag k="ssr:stedsnr" v="158468" />
	</node>
	<node lat="60.028328577679694" lon="5.2861713745486485" id="-27637">
		<tag k="name" v="Litlekletten" />
		<tag k="natural" v="hill" />
		<tag k="place" v="locality" />
		<tag k="ssr:stedsnr" v="158492" />
	</node>
	<node lat="60.00046388493021" lon="5.196955557655917" id="-27644">
		<tag k="name" v="Taushaugen" />
		<tag k="natural" v="hill" />
		<tag k="place" v="locality" />
		<tag k="ssr:stedsnr" v="158672" />
	</node>
	<node lat="60.127275000635784" lon="5.050313890440909" id="-27647">
		<tag k="name" v="Klungerhaugen" />
		<tag k="natural" v="hill" />
		<tag k="place" v="locality" />
		<tag k="ssr:stedsnr" v="158725" />
	</node>
	<node lat="59.992613890990484" lon="5.186841668657449" id="-27654">
		<tag k="fixme" v="multiple name tags, choose one and add the other to alt_name" />
		<tag k="name" v="Kongsdalen;Kongsfjelldalen" />
		<tag k="natural" v="valley" />
		<tag k="place" v="locality" />
		<tag k="ssr:stedsnr" v="186137" />
	</node>
	<node lat="59.98381388786299" lon="5.1508999913823414" id="-27658">
		<tag k="fixme" v="consider natural=peak for the most distinct mountains in the district" />
		<tag k="name" v="Furefjellet" />
		<tag k="natural" v="hill" />
		<tag k="place" v="locality" />
		<tag k="ssr:stedsnr" v="186236" />
	</node>
	<node lat="60.01808333452776" lon="5.2210416671192155" id="-27660">
		<tag k="name" v="Stongakulten" />
		<tag k="natural" v="hill" />
		<tag k="place" v="locality" />
		<tag k="ssr:stedsnr" v="186242" />
	</node>
	<node lat="60.015072218070344" lon="5.2405444498122185" id="-27676">
		<tag k="name" v="Havhaugen" />
		<tag k="natural" v="hill" />
		<tag k="place" v="locality" />
		<tag k="ssr:stedsnr" v="219695" />
	</node>
	<node lat="60.00608055494112" lon="5.266358329351735" id="-27682">
		<tag k="fixme" v="consider natural=peak for the most distinct mountains in the district" />
		<tag k="name" v="Ospåsen" />
		<tag k="natural" v="hill" />
		<tag k="place" v="locality" />
		<tag k="ssr:stedsnr" v="219449" />
	</node>
	<node lat="60.09317222034417" lon="5.243177773576467" id="-27687">
		<tag k="name" v="Brakaklubben" />
		<tag k="place" v="locality" />
		<tag k="ssr:stedsnr" v="219349" />
	</node>
	<node lat="60.04317222638462" lon="5.219394443235918" id="-27697">
		<tag k="name" v="Lindehaugen" />
		<tag k="natural" v="hill" />
		<tag k="place" v="locality" />
		<tag k="ssr:stedsnr" v="279093" />
	</node>
	<node lat="60.01715278027536" lon="5.270691671007489" id="-27704">
		<tag k="name" v="Hesten" />
		<tag k="natural" v="hill" />
		<tag k="place" v="locality" />
		<tag k="ssr:stedsnr" v="279452" />
	</node>
	<node lat="60.06632500372906" lon="5.287452768881866" id="-27705">
		<tag k="name" v="Storebekkhaugen" />
		<tag k="natural" v="hill" />
		<tag k="place" v="locality" />
		<tag k="ssr:stedsnr" v="279459" />
	</node>
	<node lat="60.037758332411585" lon="5.252427778722876" id="-27712">
		<tag k="name" v="Aksthaugen" />
		<tag k="natural" v="hill" />
		<tag k="place" v="locality" />
		<tag k="ssr:stedsnr" v="279494" />
	</node>
	<node lat="60.09937499893249" lon="5.240311108489425" id="-27718">
		<tag k="name" v="Storhaugen" />
		<tag k="natural" v="hill" />
		<tag k="place" v="locality" />
		<tag k="ssr:stedsnr" v="280335" />
	</node>
	<node lat="60.09888055757033" lon="5.2236611089657226" id="-27759">
		<tag k="name" v="Knivhaugen" />
		<tag k="natural" v="hill" />
		<tag k="place" v="locality" />
		<tag k="ssr:stedsnr" v="340336" />
	</node>
	<node lat="60.0617888864674" lon="5.258599999388669" id="-27769">
		<tag k="name" v="Geithaugane" />
		<tag k="natural" v="hill" />
		<tag k="place" v="locality" />
		<tag k="ssr:stedsnr" v="340468" />
	</node>
	<node lat="60.04380833237533" lon="5.294458334994594" id="-27774">
		<tag k="name" v="Lohaugen" />
		<tag k="natural" v="hill" />
		<tag k="place" v="locality" />
		<tag k="ssr:stedsnr" v="340484" />
	</node>
	<node lat="59.977988890446746" lon="5.172274992905634" id="-27775">
		<tag k="name" v="Stallane" />
		<tag k="place" v="locality" />
		<tag k="ssr:stedsnr" v="340710" />
	</node>
	<node lat="59.992741668750625" lon="5.178769446944478" id="-27786">
		<tag k="fixme" v="consider natural=peak for the most distinct mountains in the district" />
		<tag k="name" v="Midtfjellet" />
		<tag k="natural" v="hill" />
		<tag k="place" v="locality" />
		<tag k="ssr:stedsnr" v="368255" />
	</node>
	<node lat="59.98293888543255" lon="5.197930562398465" id="-27799">
		<tag k="name" v="Leirbotnen" />
		<tag k="natural" v="valley" />
		<tag k="place" v="locality" />
		<tag k="ssr:stedsnr" v="400416" />
	</node>
	<node lat="60.086883334110084" lon="5.2341777865821655" id="-27813">
		<tag k="name" v="Palsihaugen" />
		<tag k="natural" v="hill" />
		<tag k="place" v="locality" />
		<tag k="ssr:stedsnr" v="401351" />
	</node>
	<node lat="60.04021944523387" lon="5.295944448777682" id="-27817">
		<tag k="name" v="Såtendal" />
		<tag k="natural" v="valley" />
		<tag k="place" v="locality" />
		<tag k="ssr:stedsnr" v="401495" />
	</node>
	<node lat="60.02838228660998" lon="5.281317333002267" id="-27818">
		<tag k="name" v="Storekletten" />
		<tag k="natural" v="hill" />
		<tag k="place" v="locality" />
		<tag k="ssr:stedsnr" v="401498" />
	</node>
	<node lat="60.02564166730177" lon="5.262944442798488" id="-27819">
		<tag k="name" v="Skaftafjellet" />
		<tag k="natural" v="hill" />
		<tag k="place" v="locality" />
		<tag k="ssr:stedsnr" v="401501" />
	</node>
	<node lat="59.992361108619306" lon="5.208313889211711" id="-27824">
		<tag k="name" v="Rundhaugen" />
		<tag k="natural" v="hill" />
		<tag k="place" v="locality" />
		<tag k="ssr:stedsnr" v="401660" />
	</node>
	<node lat="59.99530000213315" lon="5.206686119352992" id="-27825">
		<tag k="name" v="Ovnhaugen" />
		<tag k="natural" v="hill" />
		<tag k="place" v="locality" />
		<tag k="ssr:stedsnr" v="401665" />
	</node>
	<node lat="60.01648055444557" lon="5.209911106526984" id="-27826">
		<tag k="name" v="Sveene" />
		<tag k="natural" v="hill" />
		<tag k="place" v="locality" />
		<tag k="ssr:stedsnr" v="401672" />
	</node>
	<node lat="60.1219027799651" lon="5.206736102689254" id="-27858">
		<tag k="name" v="Basthaugane" />
		<tag k="natural" v="hill" />
		<tag k="place" v="locality" />
		<tag k="ssr:stedsnr" v="522301" />
	</node>
	<node lat="60.10225555288003" lon="5.225038885515672" id="-27861">
		<tag k="name" v="Marihaugen" />
		<tag k="natural" v="hill" />
		<tag k="place" v="locality" />
		<tag k="ssr:stedsnr" v="522326" />
	</node>
	<node lat="60.00048889192085" lon="5.251086116529076" id="-27866">
		<tag k="name" v="Slørhaugen" />
		<tag k="natural" v="hill" />
		<tag k="place" v="locality" />
		<tag k="ssr:stedsnr" v="522467" />
	</node>
	<node lat="59.99192222590033" lon="5.199930563669099" id="-27876">
		<tag k="fixme" v="consider natural=peak for the most distinct mountains in the district" />
		<tag k="name" v="Fjellsenden" />
		<tag k="natural" v="hill" />
		<tag k="place" v="locality" />
		<tag k="ssr:stedsnr" v="522651" />
	</node>
	<node lat="59.9888555595351" lon="5.2030277851847035" id="-27877">
		<tag k="name" v="Kvassteinshaugen" />
		<tag k="natural" v="hill" />
		<tag k="place" v="locality" />
		<tag k="ssr:stedsnr" v="522652" />
	</node>
	<node lat="59.984658330806646" lon="5.192100003056735" id="-27878">
		<tag k="fixme" v="consider natural=peak for the most distinct mountains in the district" />
		<tag k="name" v="Træsfjellet" />
		<tag k="natural" v="hill" />
		<tag k="place" v="locality" />
		<tag k="ssr:stedsnr" v="522654" />
	</node>
	<node lat="60.01362222498503" lon="5.222502774277352" id="-27880">
		<tag k="name" v="Altershaugen" />
		<tag k="natural" v="hill" />
		<tag k="place" v="locality" />
		<tag k="ssr:stedsnr" v="522658" />
	</node>
	<node lat="60.03988333489704" lon="5.248449994697829" id="-27909">
		<tag k="name" v="Tansmoghaugen" />
		<tag k="natural" v="hill" />
		<tag k="place" v="locality" />
		<tag k="ssr:stedsnr" v="582476" />
	</node>
	<node lat="60.08258611308834" lon="5.255630555931281" id="-27916">
		<tag k="name" v="Orratua" />
		<tag k="natural" v="hill" />
		<tag k="place" v="locality" />
		<tag k="ssr:stedsnr" v="582392" />
	</node>
	<node lat="60.05982221881447" lon="5.088616675444349" id="-27924">
		<tag k="name" v="Krabbhaugen" />
		<tag k="natural" v="hill" />
		<tag k="place" v="locality" />
		<tag k="ssr:stedsnr" v="582570" />
	</node>
	<node lat="60.007458329942544" lon="5.222902780191598" id="-27932">
		<tag k="name" v="Basthammaren" />
		<tag k="natural" v="hill" />
		<tag k="place" v="locality" />
		<tag k="ssr:stedsnr" v="583681" />
	</node>
	<node lat="60.03103333514132" lon="5.270761116660334" id="-27949">
		<tag k="fixme" v="consider natural=peak for the most distinct mountains in the district" />
		<tag k="name" v="Vardfjellet" />
		<tag k="natural" v="hill" />
		<tag k="place" v="locality" />
		<tag k="ssr:stedsnr" v="611140" />
	</node>
	<node lat="59.988333330933045" lon="5.0749805578902745" id="-27962">
		<tag k="name" v="Varden" />
		<tag k="natural" v="hill" />
		<tag k="place" v="locality" />
		<tag k="ssr:stedsnr" v="633637" />
	</node>
	<node lat="60.06968055267197" lon="5.2744694471584825" id="-27970">
		<tag k="fixme" v="consider natural=peak for the most distinct mountains in the district" />
		<tag k="name" v="Tollåsen" />
		<tag k="natural" v="hill" />
		<tag k="place" v="locality" />
		<tag k="ssr:stedsnr" v="643365" />
	</node>
	<node lat="60.03452778154019" lon="5.270077784276491" id="-27973">
		<tag k="name" v="Dyrdalen" />
		<tag k="natural" v="valley" />
		<tag k="place" v="locality" />
		<tag k="ssr:stedsnr" v="643468" />
	</node>
	<node lat="59.976994445138075" lon="5.160661116560508" id="-27983">
		<tag k="alt_name" v="Hotvikfjellet" />
		<tag k="name" v="Hottvikefjellet" />
		<tag k="natural" v="hill" />
		<tag k="place" v="locality" />
		<tag k="ssr:stedsnr" v="643701" />
	</node>
	<node lat="60.05568610706766" lon="5.220099994378019" id="-28021">
		<tag k="name" v="Storhaugen" />
		<tag k="natural" v="hill" />
		<tag k="place" v="locality" />
		<tag k="ssr:stedsnr" v="764630" />
	</node>
	<node lat="60.12445555993058" lon="5.070974994945191" id="-28022">
		<tag k="name" v="Barnhaugen" />
		<tag k="natural" v="hill" />
		<tag k="place" v="locality" />
		<tag k="ssr:stedsnr" v="764724" />
	</node>
	<node lat="60.120163886268074" lon="5.043977773773836" id="-28023">
		<tag k="name" v="Seiavågshaugen" />
		<tag k="natural" v="hill" />
		<tag k="place" v="locality" />
		<tag k="ssr:stedsnr" v="764726" />
	</node>
	<node lat="60.02832499925852" lon="5.24570277620272" id="-28024">
		<tag k="name" v="Geitaklosteret" />
		<tag k="natural" v="hill" />
		<tag k="place" v="locality" />
		<tag k="ssr:stedsnr" v="765119" />
	</node>
	<node lat="59.97101944643284" lon="5.128141661093393" id="-28025">
		<tag k="name" v="Skarvaberget" />
		<tag k="natural" v="hill" />
		<tag k="place" v="locality" />
		<tag k="ssr:stedsnr" v="765938" />
	</node>
	<node lat="60.0221777755483" lon="5.259599995618707" id="-28031">
		<tag k="name" v="Myrahaugane" />
		<tag k="natural" v="hill" />
		<tag k="place" v="locality" />
		<tag k="ssr:stedsnr" v="765438" />
	</node>
	<node lat="60.05623055509065" lon="5.278538887621666" id="-28033">
		<tag k="name" v="Hundastegen" />
		<tag k="natural" v="hill" />
		<tag k="place" v="locality" />
		<tag k="ssr:stedsnr" v="765456" />
	</node>
	<node lat="60.03306944473211" lon="5.297100002479257" id="-28035">
		<tag k="fixme" v="consider natural=peak for the most distinct mountains in the district" />
		<tag k="name" v="Åsen" />
		<tag k="natural" v="hill" />
		<tag k="place" v="locality" />
		<tag k="ssr:stedsnr" v="765478" />
	</node>
	<node lat="59.988502773872234" lon="5.162555557313506" id="-28050">
		<tag k="fixme" v="consider natural=peak for the most distinct mountains in the district" />
		<tag k="name" v="Djupavågsfjellet" />
		<tag k="natural" v="hill" />
		<tag k="place" v="locality" />
		<tag k="ssr:stedsnr" v="792135" />
	</node>
	<node lat="60.120163890819406" lon="5.2122138952509784" id="-28087">
		<tag k="name" v="Skjerhaugane" />
		<tag k="natural" v="hill" />
		<tag k="place" v="locality" />
		<tag k="ssr:stedsnr" v="826326" />
	</node>
	<node lat="60.02727777970778" lon="5.134972227643414" id="-28088">
		<tag k="name" v="Storhaugen" />
		<tag k="natural" v="hill" />
		<tag k="place" v="locality" />
		<tag k="ssr:stedsnr" v="826336" />
	</node>
	<node lat="60.07178610723408" lon="5.269752773489415" id="-28094">
		<tag k="name" v="Taffarhaugen" />
		<tag k="natural" v="hill" />
		<tag k="place" v="locality" />
		<tag k="ssr:stedsnr" v="826393" />
	</node>
	<node lat="60.01872221888289" lon="5.2708916702029365" id="-28097">
		<tag k="name" v="Osphaugen" />
		<tag k="natural" v="hill" />
		<tag k="place" v="locality" />
		<tag k="ssr:stedsnr" v="826475" />
	</node>
	<node lat="60.02788333278046" lon="5.29559721507419" id="-28098">
		<tag k="name" v="Skjenhaugen" />
		<tag k="natural" v="hill" />
		<tag k="place" v="locality" />
		<tag k="ssr:stedsnr" v="826488" />
	</node>
	<node lat="60.04073611001053" lon="5.25471389451823" id="-28099">
		<tag k="name" v="Tjørnhaugen" />
		<tag k="natural" v="hill" />
		<tag k="place" v="locality" />
		<tag k="ssr:stedsnr" v="826507" />
	</node>
	<node lat="60.047966665834686" lon="5.092069439242697" id="-28107">
		<tag k="name" v="Blomsterhaugen" />
		<tag k="natural" v="hill" />
		<tag k="place" v="locality" />
		<tag k="ssr:stedsnr" v="826575" />
	</node>
	<node lat="59.97856666584883" lon="5.184119452593153" id="-28116">
		<tag k="name" v="Nova" />
		<tag k="natural" v="hill" />
		<tag k="place" v="locality" />
		<tag k="ssr:stedsnr" v="826707" />
	</node>
	<node lat="60.073966666033265" lon="5.24297221942045" id="-28123">
		<tag k="name" v="Skarshaugen" />
		<tag k="natural" v="hill" />
		<tag k="place" v="locality" />
		<tag k="ssr:stedsnr" v="854901" />
	</node>
	<node lat="60.03294166259541" lon="5.2769555634871645" id="-28125">
		<tag k="fixme" v="consider natural=peak for the most distinct mountains in the district" />
		<tag k="name" v="Stora Saugafjellet" />
		<tag k="natural" v="hill" />
		<tag k="place" v="locality" />
		<tag k="ssr:stedsnr" v="854134" />
	</node>
	<node lat="60.13171389094742" lon="5.048500007493571" id="-28138">
		<tag k="name" v="Guriklubben" />
		<tag k="natural" v="hill" />
		<tag k="place" v="locality" />
		<tag k="ssr:stedsnr" v="855646" />
	</node>
	<node lat="60.07740555588522" lon="5.281025002318912" id="-28154">
		<tag k="name" v="Kvernhaugen" />
		<tag k="natural" v="hill" />
		<tag k="place" v="locality" />
		<tag k="ssr:stedsnr" v="886371" />
	</node>
	<node lat="60.081861113542885" lon="5.266977772201208" id="-28155">
		<tag k="name" v="Havareia" />
		<tag k="natural" v="hill" />
		<tag k="place" v="locality" />
		<tag k="ssr:stedsnr" v="886379" />
	</node>
	<node lat="60.02987500008824" lon="5.226249991260528" id="-28159">
		<tag k="name" v="Jonslihaugen" />
		<tag k="natural" v="hill" />
		<tag k="place" v="locality" />
		<tag k="ssr:stedsnr" v="886080" />
	</node>
	<node lat="60.035902778156824" lon="5.238697221206134" id="-28161">
		<tag k="name" v="Skotdalen" />
		<tag k="natural" v="valley" />
		<tag k="place" v="locality" />
		<tag k="ssr:stedsnr" v="886089" />
	</node>
	<node lat="60.057569446371446" lon="5.290955563331337" id="-28163">
		<tag k="fixme" v="consider natural=peak for the most distinct mountains in the district" />
		<tag k="name" v="Åsen" />
		<tag k="natural" v="hill" />
		<tag k="place" v="locality" />
		<tag k="ssr:stedsnr" v="886431" />
	</node>
	<node lat="60.05914444851386" lon="5.257911105835405" id="-28164">
		<tag k="fixme" v="consider natural=peak for the most distinct mountains in the district" />
		<tag k="name" v="Storåsen" />
		<tag k="natural" v="hill" />
		<tag k="place" v="locality" />
		<tag k="ssr:stedsnr" v="886444" />
	</node>
	<node lat="60.007936114049365" lon="5.09301389494921" id="-28183">
		<tag k="name" v="Varden" />
		<tag k="natural" v="hill" />
		<tag k="place" v="locality" />
		<tag k="ssr:stedsnr" v="886888" />
	</node>
	<node lat="59.98329166318361" lon="5.174747217207263" id="-28186">
		<tag k="fixme" v="consider natural=peak for the most distinct mountains in the district" />
		<tag k="name" v="Aradalsfjellet" />
		<tag k="natural" v="hill" />
		<tag k="place" v="locality" />
		<tag k="ssr:stedsnr" v="887701" />
	</node>
	<node lat="60.04096111009911" lon="5.194400000949389" id="-28191">
		<tag k="name" v="Skiparvikhaugane" />
		<tag k="natural" v="hill" />
		<tag k="place" v="locality" />
		<tag k="ssr:stedsnr" v="947119" />
	</node>
	<node lat="60.12223055400998" lon="5.220713890788788" id="-28193">
		<tag k="name" v="Konelønningen" />
		<tag k="place" v="locality" />
		<tag k="ssr:stedsnr" v="947320" />
	</node>
	<node lat="60.035277780742085" lon="5.2871694455726095" id="-28206">
		<tag k="name" v="Eikhaugen" />
		<tag k="natural" v="hill" />
		<tag k="place" v="locality" />
		<tag k="ssr:stedsnr" v="947483" />
	</node>
	<node lat="60.0429333362581" lon="5.25651388402964" id="-28208">
		<tag k="name" v="Bukkhaugen" />
		<tag k="natural" v="hill" />
		<tag k="place" v="locality" />
		<tag k="ssr:stedsnr" v="947497" />
	</node>
	<node lat="59.98645000377386" lon="5.17049167384012" id="-28216">
		<tag k="name" v="Mehaugen" />
		<tag k="natural" v="hill" />
		<tag k="place" v="locality" />
		<tag k="ssr:stedsnr" v="947658" />
	</node>
	<node lat="60.01818889291748" lon="5.035516667806562" id="-28217">
		<tag k="name" v="Steinaberget" />
		<tag k="natural" v="hill" />
		<tag k="place" v="locality" />
		<tag k="ssr:stedsnr" v="947878" />
	</node>
	<node lat="60.0033222222314" lon="5.095030560681252" id="-28220">
		<tag k="name" v="Krabbhaugen" />
		<tag k="natural" v="hill" />
		<tag k="place" v="locality" />
		<tag k="ssr:stedsnr" v="947895" />
	</node>
</osm>
