<?xml version="1.0" encoding="UTF-8"?>
<osm version="0.6" generator="osmapis">
	<node lat="60.11416813504883" lon="5.1487472923201345" id="-72294">
		<tag k="fixme" v="consider place=hamlet" />
		<tag k="name" v="Toranger" />
		<tag k="place" v="farm" />
		<tag k="ssr:stedsnr" v="4919" />
	</node>
	<node lat="59.99571944524618" lon="5.09573055447812" id="-72311">
		<tag k="alt_name" v="Stangalandhammaren" />
		<tag k="name" v="Stangelandshammaren" />
		<tag k="natural" v="cape" />
		<tag k="ssr:stedsnr" v="24289" />
	</node>
	<node lat="60.10599780394766" lon="5.175632516518613" id="-72323">
		<tag k="name" v="Austevollshella" />
		<tag k="place" v="farm" />
		<tag k="ssr:stedsnr" v="37305" />
	</node>
	<node lat="60.14862499564212" lon="5.205763886557584" id="-72330">
		<tag k="name" v="Sandtorr" />
		<tag k="place" v="neighbourhood" />
		<tag k="ssr:stedsnr" v="40423" />
	</node>
	<node lat="60.01132593310344" lon="5.198718971138143" id="-72338">
		<tag k="name" v="Drivenes" />
		<tag k="place" v="hamlet" />
		<tag k="ssr:stedsnr" v="59213" />
	</node>
	<node lat="59.99643333559166" lon="5.2567833339040035" id="-72340">
		<tag k="name" v="Huftarøy" />
		<tag k="place" v="island" />
		<tag k="ssr:stedsnr" v="64133" />
	</node>
	<node lat="60.089850000284045" lon="5.115966670572497" id="-72344">
		<tag k="fixme" v="multiple name tags, choose one and add the other to alt_name" />
		<tag k="name" v="Ramsholmen;Søre Ramsholmen" />
		<tag k="place" v="islet" />
		<tag k="ssr:stedsnr" v="65897" />
	</node>
	<node lat="60.10605376289318" lon="5.227790140170382" id="-72347">
		<tag k="fixme" v="consider place=hamlet" />
		<tag k="name" v="Birkeland" />
		<tag k="place" v="farm" />
		<tag k="ssr:stedsnr" v="65913" />
	</node>
	<node lat="60.04258345549253" lon="5.202143233448271" id="-72358">
		<tag k="fixme" v="consider place=hamlet" />
		<tag k="name" v="Kolbeinsvik" />
		<tag k="place" v="farm" />
		<tag k="ssr:stedsnr" v="247151" />
	</node>
	<node lat="60.00237221960656" lon="5.128961103789302" id="-72363">
		<tag k="alt_name" v="Tøkjet" />
		<tag k="name" v="Tøkje" />
		<tag k="place" v="farm" />
		<tag k="ssr:stedsnr" v="247218" />
	</node>
	<node lat="60.015563890826044" lon="5.234777780916821" id="-72364">
		<tag k="name" v="Vik" />
		<tag k="place" v="isolated_dwelling" />
		<tag k="ssr:stedsnr" v="247222" />
	</node>
	<node lat="60.1438555578392" lon="5.236088892124674" id="-72369">
		<tag k="name" v="Srengla" />
		<tag k="place" v="island" />
		<tag k="ssr:stedsnr" v="97280" />
	</node>
	<node lat="60.09430173990702" lon="5.222907316088442" id="-72382">
		<tag k="alt_name" v="Austevoll kirke" />
		<tag k="amenity" v="place_of_worship" />
		<tag k="denomination" v="lutheran" />
		<tag k="name" v="Austevoll kyrkje" />
		<tag k="religion" v="christian" />
		<tag k="ssr:stedsnr" v="247864" />
	</node>
	<node lat="60.09885112085127" lon="5.096016530004674" id="-72383">
		<tag k="fixme" v="consider place=hamlet" />
		<tag k="name" v="Horgo" />
		<tag k="place" v="farm" />
		<tag k="ssr:stedsnr" v="247869" />
	</node>
	<node lat="60.10518449870828" lon="5.162170549363587" id="-72384">
		<tag k="alt_name" v="Melingen" />
		<tag k="fixme" v="consider place=hamlet" />
		<tag k="name" v="Melinga" />
		<tag k="place" v="farm" />
		<tag k="ssr:stedsnr" v="247883" />
	</node>
	<node lat="60.11422777401677" lon="5.160124991509175" id="-72395">
		<tag k="alt_name" v="Torangsvåg" />
		<tag k="name" v="Torangsvågen" />
		<tag k="natural" v="bay" />
		<tag k="ssr:stedsnr" v="125908" />
	</node>
	<node lat="60.01703610670026" lon="5.231880548591293" id="-72398">
		<tag k="name" v="Bakken" />
		<tag k="place" v="isolated_dwelling" />
		<tag k="ssr:stedsnr" v="126225" />
	</node>
	<node lat="60.14003405416966" lon="5.149582862785404" id="-72403">
		<tag k="fixme" v="consider place=hamlet" />
		<tag k="name" v="Skår" />
		<tag k="place" v="farm" />
		<tag k="ssr:stedsnr" v="126943" />
	</node>
	<node lat="60.091908331701184" lon="5.2350611104281635" id="-72409">
		<tag k="name" v="Heimegarden" />
		<tag k="place" v="farm" />
		<tag k="ssr:stedsnr" v="158365" />
	</node>
	<node lat="60.14216944682166" lon="5.1827888879517765" id="-72410">
		<tag k="name" v="Krosshamn" />
		<tag k="place" v="farm" />
		<tag k="ssr:stedsnr" v="158267" />
	</node>
	<node lat="60.028001820807035" lon="5.273029801062076" id="-72428">
		<tag k="alt_name" v="Husevikvatnet" />
		<tag k="name" v="Husavikvatnet" />
		<tag k="natural" v="water" />
		<tag k="ssr:stedsnr" v="186127" />
	</node>
	<node lat="60.00351516927149" lon="5.084535316194478" id="-72431">
		<tag k="alt_name" v="Stongalandsvatnet;Stangelandsvatn" />
		<tag k="name" v="Stangelandsvatnet" />
		<tag k="natural" v="water" />
		<tag k="ssr:stedsnr" v="186691" />
	</node>
	<node lat="60.08329167051459" lon="5.273577775918425" id="-72434">
		<tag k="name" v="Haukanesvågen" />
		<tag k="natural" v="bay" />
		<tag k="ssr:stedsnr" v="186928" />
	</node>
	<node lat="60.13993498421574" lon="5.060402943571517" id="-72440">
		<tag k="name" v="Hillaneset" />
		<tag k="natural" v="cape" />
		<tag k="ssr:stedsnr" v="187712" />
	</node>
	<node lat="60.08648483116773" lon="5.227141357189016" id="-72448">
		<tag k="fixme" v="consider place=hamlet" />
		<tag k="name" v="Bjånes" />
		<tag k="place" v="farm" />
		<tag k="ssr:stedsnr" v="267874" />
	</node>
	<node lat="59.98275278155479" lon="5.089866674064169" id="-72450">
		<tag k="name" v="Vågholmen" />
		<tag k="place" v="islet" />
		<tag k="ssr:stedsnr" v="268124" />
	</node>
	<node lat="60.110783333909595" lon="5.099494436022149" id="-72452">
		<tag k="name" v="Horgerevet" />
		<tag k="natural" v="shoal" />
		<tag k="place" v="locality" />
		<tag k="ssr:stedsnr" v="268748" />
	</node>
	<node lat="60.05069166815784" lon="5.201061108427508" id="-72456">
		<tag k="name" v="Russemyra" />
		<tag k="place" v="farm" />
		<tag k="ssr:stedsnr" v="218609" />
	</node>
	<node lat="60.103758335896664" lon="5.161761109623023" id="-72459">
		<tag k="name" v="Melingsvarden" />
		<tag k="natural" v="hill" />
		<tag k="place" v="locality" />
		<tag k="ssr:stedsnr" v="219311" />
	</node>
	<node lat="59.988183330229894" lon="5.090177773736772" id="-72468">
		<tag k="name" v="Gåsnes" />
		<tag k="place" v="farm" />
		<tag k="ssr:stedsnr" v="219641" />
	</node>
	<node lat="59.985402776581275" lon="5.079183333286668" id="-72478">
		<tag k="name" v="Våge" />
		<tag k="place" v="hamlet" />
		<tag k="ssr:stedsnr" v="247046" />
	</node>
	<node lat="60.07951388838489" lon="5.111191671383302" id="-72483">
		<tag k="name" v="Horgetrynet" />
		<tag k="natural" v="cape" />
		<tag k="ssr:stedsnr" v="247925" />
	</node>
	<node lat="60.13229722633122" lon="5.0931611058557795" id="-72493">
		<tag k="name" v="Bakkastraumen" />
		<tag k="natural" v="strait" />
		<tag k="ssr:stedsnr" v="279504" />
	</node>
	<node lat="60.08825869886524" lon="5.225098254454535" id="-72504">
		<tag k="name" v="Bjånes" />
		<tag k="natural" v="cape" />
		<tag k="ssr:stedsnr" v="461362" />
	</node>
	<node lat="59.997844447141546" lon="5.2761166616458" id="-72529">
		<tag k="name" v="Vinnesneset" />
		<tag k="natural" v="cape" />
		<tag k="ssr:stedsnr" v="307267" />
	</node>
	<node lat="60.01526116727045" lon="5.259250664125504" id="-72535">
		<tag k="name" v="Vinnesvatnet" />
		<tag k="natural" v="water" />
		<tag k="ssr:stedsnr" v="308217" />
	</node>
	<node lat="60.08509444194378" lon="5.063611110078204" id="-72538">
		<tag k="bay" v="fjord" />
		<tag k="name" v="Møkstrafjorden" />
		<tag k="natural" v="bay" />
		<tag k="ssr:stedsnr" v="308595" />
	</node>
	<node lat="60.11713989323514" lon="5.061130417398709" id="-72541">
		<tag k="fixme" v="consider place=hamlet" />
		<tag k="name" v="Kalve" />
		<tag k="place" v="farm" />
		<tag k="ssr:stedsnr" v="308612" />
	</node>
	<node lat="60.13212432545302" lon="5.097565771418385" id="-72553">
		<tag k="bridge" v="yes" />
		<tag k="layer" v="1" />
		<tag k="name" v="Nautøybrua" />
		<tag k="ssr:stedsnr" v="472240" />
	</node>
	<node lat="60.11670833266561" lon="5.149461110457265" id="-72559">
		<tag k="name" v="Taranger" />
		<tag k="place" v="farm" />
		<tag k="ssr:stedsnr" v="340297" />
	</node>
	<node lat="59.996604786541035" lon="5.089449108210148" id="-72565">
		<tag k="alt_name" v="Stongaland" />
		<tag k="fixme" v="consider place=hamlet" />
		<tag k="name" v="Stangeland" />
		<tag k="place" v="farm" />
		<tag k="ssr:stedsnr" v="368048" />
	</node>
	<node lat="59.99860000341649" lon="5.125719448305362" id="-72566">
		<tag k="fixme" v="consider place=hamlet" />
		<tag k="name" v="Steinvik" />
		<tag k="place" v="farm" />
		<tag k="ssr:stedsnr" v="368272" />
	</node>
	<node lat="60.04660801925298" lon="5.1862276423119456" id="-72567">
		<tag k="name" v="Hestavik" />
		<tag k="place" v="farm" />
		<tag k="ssr:stedsnr" v="368174" />
	</node>
	<node lat="59.977436107535496" lon="5.198933324798599" id="-72569">
		<tag k="alt_name" v="Båtevika" />
		<tag k="name" v="Båtavika" />
		<tag k="natural" v="bay" />
		<tag k="ssr:stedsnr" v="368183" />
	</node>
	<node lat="60.04447778030496" lon="5.24375554914518" id="-72570">
		<tag k="name" v="Nausthellervågen" />
		<tag k="natural" v="bay" />
		<tag k="ssr:stedsnr" v="368184" />
	</node>
	<node lat="60.07245409630342" lon="5.2175522804720265" id="-72580">
		<tag k="name" v="Bjellandsøya" />
		<tag k="place" v="islet" />
		<tag k="ssr:stedsnr" v="368925" />
	</node>
	<node lat="60.0966305574732" lon="5.117802782094842" id="-72582">
		<tag k="name" v="Horgesundet" />
		<tag k="natural" v="strait" />
		<tag k="ssr:stedsnr" v="368901" />
	</node>
	<node lat="60.00864722548314" lon="5.251022223047736" id="-72584">
		<tag k="name" v="Teistnes" />
		<tag k="place" v="farm" />
		<tag k="ssr:stedsnr" v="369207" />
	</node>
	<node lat="60.008384672938064" lon="5.151926645986458" id="-72593">
		<tag k="fixme" v="consider place=hamlet" />
		<tag k="name" v="Noven" />
		<tag k="place" v="farm" />
		<tag k="ssr:stedsnr" v="483254" />
	</node>
	<node lat="60.07538333583432" lon="5.26476945176898" id="-72596">
		<tag k="name" v="Haukanes" />
		<tag k="place" v="farm" />
		<tag k="ssr:stedsnr" v="400381" />
	</node>
	<node lat="60.0418861150463" lon="5.20214444940586" id="-72607">
		<tag k="name" v="Kolbeinsvik" />
		<tag k="place" v="village" />
		<tag k="ssr:stedsnr" v="401131" />
	</node>
	<node lat="60.09249722235421" lon="5.225466665082573" id="-72608">
		<tag k="name" v="Hagen" />
		<tag k="place" v="farm" />
		<tag k="ssr:stedsnr" v="401310" />
	</node>
	<node lat="59.973955559884594" lon="5.176524995140713" id="-72624">
		<tag k="name" v="Gauksheimvika" />
		<tag k="natural" v="bay" />
		<tag k="ssr:stedsnr" v="489159" />
	</node>
	<node lat="60.13775833073325" lon="5.074811119043969" id="-72631">
		<tag k="alt_name" v="Nuken" />
		<tag k="name" v="Mjuken" />
		<tag k="natural" v="hill" />
		<tag k="place" v="locality" />
		<tag k="ssr:stedsnr" v="490747" />
	</node>
	<node lat="60.13998333036846" lon="5.067477783163317" id="-72632">
		<tag k="name" v="Hillevika" />
		<tag k="natural" v="bay" />
		<tag k="ssr:stedsnr" v="490750" />
	</node>
	<node lat="60.00308316183728" lon="5.202332290220861" id="-72642">
		<tag k="alt_name" v="Bekkjarvik" />
		<tag k="amenity" v="place_of_worship" />
		<tag k="denomination" v="lutheran" />
		<tag k="name" v="Bekkjarvik kyrkje" />
		<tag k="religion" v="christian" />
		<tag k="ssr:stedsnr" v="430208" />
	</node>
	<node lat="60.11963610896993" lon="5.139624991698295" id="-72643">
		<tag k="name" v="Øklandsvågen" />
		<tag k="natural" v="bay" />
		<tag k="ssr:stedsnr" v="490977" />
	</node>
	<node lat="60.06166737133194" lon="5.251682852365247" id="-72645">
		<tag k="fixme" v="consider place=hamlet" />
		<tag k="name" v="Søreide" />
		<tag k="place" v="farm" />
		<tag k="ssr:stedsnr" v="430165" />
	</node>
	<node lat="60.1056402457746" lon="5.15509818632463" id="-72661">
		<tag k="fixme" v="consider place=hamlet" />
		<tag k="name" v="Troland" />
		<tag k="place" v="farm" />
		<tag k="ssr:stedsnr" v="671888" />
	</node>
	<node lat="60.049966663385995" lon="5.200333333506203" id="-72666">
		<tag k="name" v="Russemyri" />
		<tag k="place" v="isolated_dwelling" />
		<tag k="ssr:stedsnr" v="672152" />
	</node>
	<node lat="60.05642777902922" lon="5.221683338043273" id="-72667">
		<tag k="alt_name" v="Straumsøy" />
		<tag k="name" v="Straumsøya" />
		<tag k="place" v="islet" />
		<tag k="ssr:stedsnr" v="672153" />
	</node>
	<node lat="60.08070277687579" lon="5.203827773310581" id="-72671">
		<tag k="name" v="Rostøy" />
		<tag k="place" v="farm" />
		<tag k="ssr:stedsnr" v="672927" />
	</node>
	<node lat="60.09183611249739" lon="5.242444449713266" id="-72672">
		<tag k="name" v="Skår" />
		<tag k="place" v="farm" />
		<tag k="ssr:stedsnr" v="672942" />
	</node>
	<node lat="60.14460278054712" lon="5.166999996354323" id="-72673">
		<tag k="name" v="Skårøya" />
		<tag k="place" v="islet" />
		<tag k="ssr:stedsnr" v="672951" />
	</node>
	<node lat="59.8290138873439" lon="5.54604167228596" id="-72691">
		<tag k="bay" v="fjord" />
		<tag k="name" v="Langenuen" />
		<tag k="natural" v="bay" />
		<tag k="ssr:stedsnr" v="489190" />
	</node>
	<node lat="60.11601818030115" lon="5.169991889070727" id="-72693">
		<tag k="name" v="Torangsneset" />
		<tag k="natural" v="cape" />
		<tag k="ssr:stedsnr" v="489891" />
	</node>
	<node lat="60.092944443029936" lon="5.2317916749367965" id="-72702">
		<tag k="fixme" v="consider place=hamlet" />
		<tag k="name" v="Storebø" />
		<tag k="place" v="village" />
		<tag k="ssr:stedsnr" v="490928" />
	</node>
	<node lat="60.13082499948875" lon="5.088849999664151" id="-72709">
		<tag k="fixme" v="consider place=suburb, village or hamlet" />
		<tag k="name" v="Bakkasund" />
		<tag k="place" v="quarter" />
		<tag k="ssr:stedsnr" v="510960" />
	</node>
	<node lat="60.0503833335757" lon="5.1872472239918155" id="-72723">
		<tag k="name" v="Nauthella" />
		<tag k="place" v="farm" />
		<tag k="ssr:stedsnr" v="522640" />
	</node>
	<node lat="60.10465833025312" lon="5.213222217317662" id="-72737">
		<tag k="name" v="Haugland" />
		<tag k="natural" v="cape" />
		<tag k="ssr:stedsnr" v="550895" />
	</node>
	<node lat="60.11388889090695" lon="5.154130555224811" id="-72738">
		<tag k="name" v="Torangsvåg" />
		<tag k="place" v="hamlet" />
		<tag k="ssr:stedsnr" v="550897" />
	</node>
	<node lat="60.067347768287675" lon="5.09507390162989" id="-72740">
		<tag k="fixme" v="consider place=hamlet" />
		<tag k="name" v="Møkster" />
		<tag k="place" v="farm" />
		<tag k="ssr:stedsnr" v="691173" />
	</node>
	<node lat="59.99669444331934" lon="5.0915583379302305" id="-72743">
		<tag k="name" v="Gyri" />
		<tag k="place" v="isolated_dwelling" />
		<tag k="ssr:stedsnr" v="569307" />
	</node>
	<node lat="60.00070000304625" lon="5.0932749980800684" id="-72744">
		<tag k="name" v="Mylna" />
		<tag k="place" v="isolated_dwelling" />
		<tag k="ssr:stedsnr" v="569309" />
	</node>
	<node lat="60.02630555512117" lon="5.138922217836276" id="-72750">
		<tag k="name" v="Lundøy" />
		<tag k="place" v="farm" />
		<tag k="ssr:stedsnr" v="582340" />
	</node>
	<node lat="60.0632388891781" lon="5.2450916751910315" id="-72758">
		<tag k="name" v="Eidsbakken" />
		<tag k="natural" v="slope" />
		<tag k="place" v="locality" />
		<tag k="ssr:stedsnr" v="582648" />
	</node>
	<node lat="60.03818333224007" lon="5.190333336769807" id="-72766">
		<tag k="name" v="Boane" />
		<tag k="place" v="locality" />
		<tag k="seamark:type" v="rock" />
		<tag k="ssr:stedsnr" v="599306" />
	</node>
	<node lat="60.00623248576784" lon="5.203538589547887" id="-72771">
		<tag k="fixme" v="consider place=hamlet" />
		<tag k="name" v="Bekkjarvik" />
		<tag k="place" v="farm" />
		<tag k="ssr:stedsnr" v="604035" />
	</node>
	<node lat="60.13358598901519" lon="5.0917281114360735" id="-72776">
		<tag k="alt_name" v="Bakko;Bakke" />
		<tag k="fixme" v="consider place=hamlet" />
		<tag k="name" v="Bakka" />
		<tag k="place" v="farm" />
		<tag k="ssr:stedsnr" v="611753" />
	</node>
	<node lat="60.01878610723174" lon="5.281519447548207" id="-72788">
		<tag k="name" v="Husavik" />
		<tag k="place" v="farm" />
		<tag k="ssr:stedsnr" v="704413" />
	</node>
	<node lat="59.978974996611086" lon="5.195277773284469" id="-72808">
		<tag k="name" v="Båtevik" />
		<tag k="place" v="farm" />
		<tag k="ssr:stedsnr" v="704653" />
	</node>
	<node lat="60.10272222476423" lon="5.266083326838384" id="-72819">
		<tag k="name" v="Eidholmen" />
		<tag k="place" v="islet" />
		<tag k="ssr:stedsnr" v="643481" />
	</node>
	<node lat="60.09298333482604" lon="5.204197213402585" id="-72821">
		<tag k="name" v="Rostøytåa" />
		<tag k="natural" v="cape" />
		<tag k="ssr:stedsnr" v="643325" />
	</node>
	<node lat="60.00486666239187" lon="5.093725005018163" id="-72827">
		<tag k="name" v="Valhammar" />
		<tag k="place" v="farm" />
		<tag k="ssr:stedsnr" v="643884" />
	</node>
	<node lat="60.00873611427657" lon="5.096025005556288" id="-72828">
		<tag k="name" v="Valhammarsberget" />
		<tag k="natural" v="hill" />
		<tag k="place" v="locality" />
		<tag k="ssr:stedsnr" v="643887" />
	</node>
	<node lat="60.107897223265375" lon="5.211138896293923" id="-72831">
		<tag k="name" v="Nordre Haugland" />
		<tag k="place" v="quarter" />
		<tag k="ssr:stedsnr" v="707389" />
	</node>
	<node lat="60.00338055609888" lon="5.253897218327023" id="-72839">
		<tag k="alt_name" v="Blenes" />
		<tag k="name" v="Blænes" />
		<tag k="natural" v="cape" />
		<tag k="ssr:stedsnr" v="672203" />
	</node>
	<node lat="60.004541043017014" lon="5.1724787688588805" id="-72840">
		<tag k="alt_name" v="Veivågsvatnet" />
		<tag k="name" v="Veivågvatnet" />
		<tag k="natural" v="water" />
		<tag k="ssr:stedsnr" v="672205" />
	</node>
	<node lat="60.14540277846148" lon="5.18839444941433" id="-72845">
		<tag k="name" v="Krosshamnsundet" />
		<tag k="natural" v="strait" />
		<tag k="ssr:stedsnr" v="672965" />
	</node>
	<node lat="59.97229999902929" lon="5.171963896770829" id="-72852">
		<tag k="name" v="Gauksneset" />
		<tag k="natural" v="cape" />
		<tag k="ssr:stedsnr" v="692130" />
	</node>
	<node lat="60.08766257601434" lon="5.229477298760688" id="-72859">
		<tag k="bay" v="fjord" />
		<tag k="name" v="Bjånespollen" />
		<tag k="natural" v="bay" />
		<tag k="ssr:stedsnr" v="704321" />
	</node>
	<node lat="60.05120833352839" lon="5.19281111704177" id="-72864">
		<tag k="name" v="Nyheim" />
		<tag k="place" v="farm" />
		<tag k="ssr:stedsnr" v="704605" />
	</node>
	<node lat="60.13238410287967" lon="5.106712954341533" id="-72870">
		<tag k="bridge" v="yes" />
		<tag k="layer" v="1" />
		<tag k="name" v="Bakkasundbrua" />
		<tag k="ssr:stedsnr" v="897239" />
	</node>
	<node lat="60.034252774221194" lon="5.203399993831536" id="-72878">
		<tag k="name" v="Vassnes" />
		<tag k="natural" v="cape" />
		<tag k="ssr:stedsnr" v="732162" />
	</node>
	<node lat="59.989555699519805" lon="5.081538663915557" id="-72921">
		<tag k="name" v="Årland" />
		<tag k="old_name" v="Aarland" />
		<tag k="place" v="hamlet" />
		<tag k="ssr:stedsnr" v="793028" />
	</node>
	<node lat="59.97756552283993" lon="5.175983051247826" id="-72926">
		<tag k="alt_name" v="Gaukseim" />
		<tag k="fixme" v="consider place=hamlet" />
		<tag k="name" v="Gauksheim" />
		<tag k="old_name" v="Gaukshei m" />
		<tag k="place" v="farm" />
		<tag k="ssr:stedsnr" v="914156" />
	</node>
	<node lat="60.04675272473036" lon="5.299931068462603" id="-72927">
		<tag k="name" v="Brattavika" />
		<tag k="natural" v="bay" />
		<tag k="ssr:stedsnr" v="914159" />
	</node>
	<node lat="60.02252865638424" lon="5.2869973417343035" id="-72930">
		<tag k="fixme" v="consider place=hamlet" />
		<tag k="name" v="Brekke" />
		<tag k="place" v="farm" />
		<tag k="ssr:stedsnr" v="915211" />
	</node>
	<node lat="60.133801119814734" lon="5.088105574493536" id="-72934">
		<tag k="fixme" v="consider place=hamlet" />
		<tag k="loc_name" v="Klepp" />
		<tag k="name" v="Kleppe" />
		<tag k="place" v="farm" />
		<tag k="ssr:stedsnr" v="915612" />
	</node>
	<node lat="60.14936588525669" lon="5.2055506532431695" id="-72949">
		<tag k="alt_name" v="Sandtorv" />
		<tag k="fixme" v="consider place=hamlet" />
		<tag k="name" v="Sandtorr" />
		<tag k="place" v="farm" />
		<tag k="ssr:stedsnr" v="826272" />
	</node>
	<node lat="60.15166388965225" lon="5.206844437598125" id="-72950">
		<tag k="name" v="Kyrkjebøen" />
		<tag k="place" v="farm" />
		<tag k="ssr:stedsnr" v="826273" />
	</node>
	<node lat="60.09110833668792" lon="5.238791674724728" id="-72953">
		<tag k="name" v="Skår" />
		<tag k="place" v="farm" />
		<tag k="ssr:stedsnr" v="826371" />
	</node>
	<node lat="59.97122222274871" lon="5.171761105866662" id="-72954">
		<tag k="name" v="Gauksheimneset" />
		<tag k="natural" v="cape" />
		<tag k="ssr:stedsnr" v="826714" />
	</node>
	<node lat="60.101030554894265" lon="5.165013894469374" id="-72955">
		<tag k="name" v="Melingen" />
		<tag k="place" v="quarter" />
		<tag k="ssr:stedsnr" v="829364" />
	</node>
	<node lat="60.08089166380525" lon="5.278652778033218" id="-72956">
		<tag k="name" v="Kolbeinshamn" />
		<tag k="place" v="quarter" />
		<tag k="ssr:stedsnr" v="829366" />
	</node>
	<node lat="60.005833396835534" lon="5.141399160666463" id="-72966">
		<tag k="alt_name" v="Ytre Rabben" />
		<tag k="name" v="Rabben" />
		<tag k="place" v="hamlet" />
		<tag k="ssr:stedsnr" v="854201" />
	</node>
	<node lat="60.14168611102609" lon="5.184230559646845" id="-72968">
		<tag k="name" v="Krosshamn" />
		<tag k="natural" v="cape" />
		<tag k="ssr:stedsnr" v="854944" />
	</node>
	<node lat="60.14771940025803" lon="5.208478684692918" id="-72969">
		<tag k="alt_name" v="Sandtorv" />
		<tag k="name" v="Sandtorr" />
		<tag k="place" v="island" />
		<tag k="ssr:stedsnr" v="854957" />
	</node>
	<node lat="60.15306111193619" lon="5.153966667576754" id="-72970">
		<tag k="alt_name" v="Skarholmen" />
		<tag k="name" v="Skårholmen" />
		<tag k="place" v="islet" />
		<tag k="ssr:stedsnr" v="854962" />
	</node>
	<node lat="60.04741111431492" lon="5.301855559208602" id="-72979">
		<tag k="name" v="Brattakroken" />
		<tag k="natural" v="bay" />
		<tag k="ssr:stedsnr" v="886453" />
	</node>
	<node lat="60.01138888551193" lon="5.184480563050399" id="-72982">
		<tag k="fixme" v="consider place=hamlet" />
		<tag k="name" v="Fagerbakke" />
		<tag k="place" v="farm" />
		<tag k="ssr:stedsnr" v="887715" />
	</node>
	<node lat="60.010181429442675" lon="5.263407388386959" id="-72988">
		<tag k="fixme" v="consider place=hamlet" />
		<tag k="name" v="Vinnes" />
		<tag k="place" v="farm" />
		<tag k="ssr:stedsnr" v="915196" />
	</node>
	<node lat="60.06711111266375" lon="5.188827769581005" id="-72990">
		<tag k="alt_name" v="Drønapollen" />
		<tag k="name" v="Drønspollen" />
		<tag k="natural" v="strait" />
		<tag k="ssr:stedsnr" v="915914" />
	</node>
	<node lat="60.1328999976976" lon="5.144161114575967" id="-72996">
		<tag k="name" v="Skåravågen" />
		<tag k="natural" v="bay" />
		<tag k="ssr:stedsnr" v="915991" />
	</node>
	<node lat="59.9867833347198" lon="5.122219436711701" id="-73009">
		<tag k="fixme" v="consider boundary=protected_area and relevant protect_class if not nature reserve" />
		<tag k="leisure" v="nature_reserve" />
		<tag k="name" v="Steinevik naturreservat" />
		<tag k="ssr:stedsnr" v="947594" />
	</node>
	<node lat="59.98462514926331" lon="5.0765653173305605" id="-73010">
		<tag k="fixme" v="consider place=hamlet" />
		<tag k="name" v="Nedre Våge" />
		<tag k="place" v="farm" />
		<tag k="ssr:stedsnr" v="947601" />
	</node>
	<node lat="60.07766389164189" lon="5.1977055479780985" id="-73016">
		<tag k="bridge" v="yes" />
		<tag k="layer" v="1" />
		<tag k="name" v="Drønspollen" />
		<tag k="ssr:stedsnr" v="957240" />
	</node>
	<node lat="60.05298333105808" lon="5.109452782061283" id="-73017">
		<tag k="name" v="Møkstragrøningen" />
		<tag k="place" v="islet" />
		<tag k="ssr:stedsnr" v="967137" />
	</node>
	<node lat="60.065771478886816" lon="5.099853067677513" id="-73020">
		<tag k="amenity" v="place_of_worship" />
		<tag k="fixme" v="specify religion=*, denomination=*, building=* etc" />
		<tag k="name" v="Møkster kapell" />
		<tag k="ssr:stedsnr" v="987844" />
	</node>
	<node lat="60.04122008487469" lon="5.087485363882199" id="-73041">
		<tag k="name" v="Litlakalsøyvika" />
		<tag k="natural" v="bay" />
		<tag k="ssr:stedsnr" v="990817" />
	</node>
	<node lat="60.063623825694236" lon="5.222009947563084" id="-73043">
		<tag k="name" v="Mannen" />
		<tag k="natural" v="cape" />
		<tag k="ssr:stedsnr" v="990932" />
	</node>
	<node lat="60.061854345960505" lon="5.222805492043995" id="-73044">
		<tag k="name" v="Alteret" />
		<tag k="place" v="islet" />
		<tag k="ssr:stedsnr" v="990933" />
	</node>
	<node lat="60.05855934939058" lon="5.218639139595943" id="-73045">
		<tag k="fixme" v="consider seamark:type=rock or natural=shoal" />
		<tag k="name" v="Skjeret" />
		<tag k="place" v="islet" />
		<tag k="ssr:stedsnr" v="990934" />
	</node>
	<node lat="60.00296134256436" lon="5.116566242722863" id="-73046">
		<tag k="name" v="Geitholmen" />
		<tag k="place" v="islet" />
		<tag k="ssr:stedsnr" v="990938" />
	</node>
	<node lat="60.06886667095474" lon="5.089647227178912" id="-73057">
		<tag k="name" v="Møkster" />
		<tag k="place" v="island" />
		<tag k="ssr:stedsnr" v="4647" />
	</node>
	<node lat="60.01395277529693" lon="5.077558333920819" id="-73059">
		<tag k="alt_name" v="Sætrevika" />
		<tag k="name" v="Sætrevik" />
		<tag k="place" v="farm" />
		<tag k="ssr:stedsnr" v="4657" />
	</node>
	<node lat="60.06138269269065" lon="5.227209158920653" id="-73060">
		<tag k="name" v="Geitøya" />
		<tag k="old_name" v="Geiløy" />
		<tag k="place" v="islet" />
		<tag k="ssr:stedsnr" v="5193" />
	</node>
	<node lat="60.12763610908547" lon="5.206075005419128" id="-73065">
		<tag k="name" v="Hufthammarssundet" />
		<tag k="natural" v="strait" />
		<tag k="ssr:stedsnr" v="5991" />
	</node>
	<node lat="60.13619444875175" lon="5.091563882697127" id="-73079">
		<tag k="name" v="Bakkavågen" />
		<tag k="natural" v="bay" />
		<tag k="ssr:stedsnr" v="36443" />
	</node>
	<node lat="60.05733332977885" lon="5.2219472191645275" id="-73082">
		<tag k="fixme" v="consider place=hamlet" />
		<tag k="name" v="Straumsøy" />
		<tag k="place" v="farm" />
		<tag k="ssr:stedsnr" v="36585" />
	</node>
	<node lat="60.11300555272616" lon="5.153966668766024" id="-73102">
		<tag k="bridge" v="yes" />
		<tag k="layer" v="1" />
		<tag k="name" v="Mjåsund" />
		<tag k="ssr:stedsnr" v="47252" />
	</node>
	<node lat="60.12316389086129" lon="5.199604310956921" id="-73103">
		<tag k="alt_name" v="Hufthammargavl Fk" />
		<tag k="amenity" v="ferry_terminal" />
		<tag k="name" v="Hufthammar ferjekai" />
		<tag k="ssr:stedsnr" v="47253" />
	</node>
	<node lat="60.09330833685791" lon="5.233155547117652" id="-73105">
		<tag k="fixme" v="consider place=hamlet" />
		<tag k="name" v="Storebø" />
		<tag k="place" v="farm" />
		<tag k="ssr:stedsnr" v="59033" />
	</node>
	<node lat="60.141266666780865" lon="5.21364166736497" id="-73113">
		<tag k="name" v="Kobbavågen" />
		<tag k="natural" v="bay" />
		<tag k="ssr:stedsnr" v="85851" />
	</node>
	<node lat="60.14112499968624" lon="5.077908324388171" id="-73135">
		<tag k="name" v="Mjuken" />
		<tag k="place" v="farm" />
		<tag k="ssr:stedsnr" v="97756" />
	</node>
	<node lat="60.00584427676197" lon="5.088490835915813" id="-73138">
		<tag k="name" v="Valhammarsvatnet" />
		<tag k="natural" v="water" />
		<tag k="ssr:stedsnr" v="97879" />
		<tag k="water" v="lake" />
	</node>
	<node lat="60.0140583375471" lon="5.076619444742966" id="-73140">
		<tag k="name" v="Sætrevika" />
		<tag k="natural" v="bay" />
		<tag k="ssr:stedsnr" v="97883" />
	</node>
	<node lat="60.0066160808223" lon="5.148954362282588" id="-73148">
		<tag k="alt_name" v="Indre Rabben" />
		<tag k="fixme" v="consider place=hamlet" />
		<tag k="name" v="Rabben" />
		<tag k="place" v="farm" />
		<tag k="ssr:stedsnr" v="98716" />
	</node>
	<node lat="59.997638886787584" lon="5.136511117670612" id="-73151">
		<tag k="name" v="Fagerbakkevåg" />
		<tag k="natural" v="bay" />
		<tag k="ssr:stedsnr" v="98706" />
	</node>
	<node lat="60.008905552064974" lon="5.164238881495974" id="-73156">
		<tag k="bridge" v="yes" />
		<tag k="layer" v="1" />
		<tag k="name" v="Veivåg" />
		<tag k="ssr:stedsnr" v="108189" />
	</node>
	<node lat="60.082730551299164" lon="5.261641663286619" id="-73157">
		<tag k="bridge" v="yes" />
		<tag k="layer" v="1" />
		<tag k="name" v="Haukanesstraumen" />
		<tag k="ssr:stedsnr" v="108251" />
	</node>
	<node lat="60.04026666487302" lon="5.072474998179057" id="-73159">
		<tag k="name" v="Rosmunnholmen" />
		<tag k="place" v="islet" />
		<tag k="ssr:stedsnr" v="114340" />
	</node>
	<node lat="60.01189498164808" lon="5.082745176850452" id="-73166">
		<tag k="fixme" v="consider place=hamlet" />
		<tag k="name" v="Kvalvåg" />
		<tag k="place" v="farm" />
		<tag k="ssr:stedsnr" v="125682" />
	</node>
	<node lat="60.0114250030316" lon="5.083961117560331" id="-73167">
		<tag k="alt_name" v="Kvalvåg" />
		<tag k="name" v="Kvalvågen" />
		<tag k="natural" v="bay" />
		<tag k="ssr:stedsnr" v="125684" />
	</node>
	<node lat="60.06244444613455" lon="5.246208339139256" id="-73169">
		<tag k="name" v="Eidsbakke" />
		<tag k="place" v="isolated_dwelling" />
		<tag k="ssr:stedsnr" v="126174" />
	</node>
	<node lat="60.119259000854626" lon="5.20611269258197" id="-73173">
		<tag k="fixme" v="consider place=hamlet" />
		<tag k="name" v="Hufthammar" />
		<tag k="place" v="farm" />
		<tag k="ssr:stedsnr" v="125913" />
	</node>
	<node lat="60.127222219232195" lon="5.079077778800425" id="-73181">
		<tag k="amenity" v="place_of_worship" />
		<tag k="denomination" v="lutheran" />
		<tag k="name" v="Stora Kalsøy kyrkje" />
		<tag k="religion" v="christian" />
		<tag k="ssr:stedsnr" v="126619" />
	</node>
	<node lat="60.118919594486634" lon="5.145873977424258" id="-73183">
		<tag k="fixme" v="consider place=hamlet" />
		<tag k="name" v="Økland" />
		<tag k="place" v="farm" />
		<tag k="ssr:stedsnr" v="126969" />
	</node>
	<node lat="60.01144166584747" lon="5.267713894829486" id="-73196">
		<tag k="name" v="Vinnes" />
		<tag k="place" v="farm" />
		<tag k="ssr:stedsnr" v="158460" />
	</node>
	<node lat="60.00103265732444" lon="5.258784208024791" id="-73197">
		<tag k="alt_name" v="Blenes" />
		<tag k="fixme" v="consider place=hamlet" />
		<tag k="name" v="Blænes" />
		<tag k="place" v="farm" />
		<tag k="ssr:stedsnr" v="158465" />
	</node>
	<node lat="60.076905551802426" lon="5.1983833257882575" id="-73203">
		<tag k="name" v="Drønsstraumen" />
		<tag k="natural" v="strait" />
		<tag k="ssr:stedsnr" v="158393" />
	</node>
	<node lat="60.01155000422705" lon="5.245272213838332" id="-73220">
		<tag k="name" v="Vik" />
		<tag k="place" v="quarter" />
		<tag k="ssr:stedsnr" v="176345" />
	</node>
	<node lat="60.00480277969275" lon="5.140702776523109" id="-73221">
		<tag k="name" v="Rabben" />
		<tag k="place" v="quarter" />
		<tag k="ssr:stedsnr" v="176348" />
	</node>
	<node lat="58.15130833030587" lon="6.29712777180919" id="-73225">
		<tag k="name" v="Nordsjøen" />
		<tag k="name:en" v="North Sea" />
		<tag k="name:no" v="Nordsjøen" />
		<tag k="place" v="sea" />
		<tag k="ssr:stedsnr" v="182096" />
	</node>
	<node lat="60.018541448541036" lon="5.28358917372412" id="-73228">
		<tag k="fixme" v="consider place=hamlet" />
		<tag k="name" v="Husavik" />
		<tag k="place" v="farm" />
		<tag k="ssr:stedsnr" v="186231" />
	</node>
	<node lat="60.12577820201828" lon="5.071366432241326" id="-73234">
		<tag k="fixme" v="consider place=hamlet" />
		<tag k="name" v="Hille" />
		<tag k="place" v="farm" />
		<tag k="ssr:stedsnr" v="187586" />
	</node>
	<node lat="60.06625134877439" lon="5.242898885811836" id="-73236">
		<tag k="fixme" v="consider place=hamlet" />
		<tag k="name" v="Nordeide" />
		<tag k="place" v="farm" />
		<tag k="ssr:stedsnr" v="187183" />
	</node>
	<node lat="60.00451835082069" lon="5.159688284710922" id="-73237">
		<tag k="alt_name" v="Veivåg" />
		<tag k="fixme" v="consider place=hamlet" />
		<tag k="name" v="Veivågen" />
		<tag k="place" v="farm" />
		<tag k="ssr:stedsnr" v="187216" />
	</node>
	<node lat="60.009007526165334" lon="5.192220303194775" id="-73249">
		<tag k="name" v="Fagerbakkevatnet" />
		<tag k="natural" v="water" />
		<tag k="ssr:stedsnr" v="219714" />
		<tag k="water" v="lake" />
	</node>
	<node lat="59.976225000743774" lon="5.179811117002583" id="-73265">
		<tag k="name" v="Rammeslotta" />
		<tag k="place" v="farm" />
		<tag k="ssr:stedsnr" v="219729" />
	</node>
	<node lat="60.01807500338381" lon="5.279491673183816" id="-73276">
		<tag k="name" v="Husavik" />
		<tag k="natural" v="bay" />
		<tag k="ssr:stedsnr" v="279432" />
	</node>
	<node lat="60.076886114448726" lon="5.238847223322699" id="-73297">
		<tag k="fixme" v="consider boundary=protected_area and relevant protect_class if not nature reserve" />
		<tag k="leisure" v="nature_reserve" />
		<tag k="name" v="Langavatnet naturreservat" />
		<tag k="ssr:stedsnr" v="280357" />
	</node>
	<node lat="60.012869448199126" lon="5.19505554845579" id="-73298">
		<tag k="name" v="Nordre Drivenes" />
		<tag k="place" v="farm" />
		<tag k="ssr:stedsnr" v="280678" />
	</node>
	<node lat="60.13613610925063" lon="5.145333325372619" id="-73304">
		<tag k="name" v="Skår" />
		<tag k="place" v="neighbourhood" />
		<tag k="ssr:stedsnr" v="283311" />
	</node>
	<node lat="60.04122981816765" lon="5.250861265061104" id="-73314">
		<tag k="alt_name" v="Nausheller" />
		<tag k="fixme" v="consider place=hamlet" />
		<tag k="name" v="Naustheller" />
		<tag k="place" v="farm" />
		<tag k="ssr:stedsnr" v="307168" />
	</node>
	<node lat="60.09609722316278" lon="5.092377780494564" id="-73319">
		<tag k="name" v="Horgevågen" />
		<tag k="natural" v="bay" />
		<tag k="ssr:stedsnr" v="307644" />
	</node>
	<node lat="60.053647226314034" lon="5.303041658412557" id="-73322">
		<tag k="name" v="Hundhammaren" />
		<tag k="natural" v="cape" />
		<tag k="ssr:stedsnr" v="308131" />
	</node>
	<node lat="60.0143070007032" lon="5.169514690970177" id="-73325">
		<tag k="alt_name" v="Kalvanes" />
		<tag k="fixme" v="consider place=hamlet" />
		<tag k="name" v="Kalvaneset" />
		<tag k="place" v="farm" />
		<tag k="ssr:stedsnr" v="308224" />
	</node>
	<node lat="60.15054722247149" lon="5.2306027734190454" id="-73330">
		<tag k="name" v="Flatøya" />
		<tag k="place" v="islet" />
		<tag k="ssr:stedsnr" v="308958" />
	</node>
	<node lat="60.10825555623386" lon="5.26074165969549" id="-73356">
		<tag k="name" v="Lambøy" />
		<tag k="place" v="island" />
		<tag k="ssr:stedsnr" v="340432" />
	</node>
	<node lat="60.131219227299894" lon="5.124859677401003" id="-73367">
		<tag k="bridge" v="yes" />
		<tag k="layer" v="1" />
		<tag k="name" v="Navøybrua" />
		<tag k="ssr:stedsnr" v="350169" />
	</node>
	<node lat="60.128249671099425" lon="5.100324752289644" id="-73368">
		<tag k="bridge" v="yes" />
		<tag k="layer" v="1" />
		<tag k="name" v="Spissøybrua" />
		<tag k="ssr:stedsnr" v="350171" />
	</node>
	<node lat="60.088866176143476" lon="5.219701004107304" id="-73373">
		<tag k="name" v="Bjånesøya" />
		<tag k="place" v="islet" />
		<tag k="ssr:stedsnr" v="368937" />
	</node>
	<node lat="60.00293405299775" lon="5.095330188485019" id="-73379">
		<tag k="fixme" v="consider place=hamlet" />
		<tag k="name" v="Valhammar" />
		<tag k="place" v="farm" />
		<tag k="ssr:stedsnr" v="368239" />
	</node>
	<node lat="60.06027500185014" lon="5.076663889177783" id="-73394">
		<tag k="name" v="Langøy" />
		<tag k="place" v="island" />
		<tag k="ssr:stedsnr" v="400584" />
	</node>
	<node lat="60.04021944523387" lon="5.295944448777682" id="-73411">
		<tag k="name" v="Såtendal" />
		<tag k="natural" v="valley" />
		<tag k="place" v="locality" />
		<tag k="ssr:stedsnr" v="401495" />
	</node>
	<node lat="60.01297221938302" lon="5.239155550376717" id="-73421">
		<tag k="alt_name" v="Vik" />
		<tag k="fixme" v="consider place=hamlet" />
		<tag k="name" v="Nordre Vik" />
		<tag k="place" v="farm" />
		<tag k="ssr:stedsnr" v="401674" />
	</node>
	<node lat="59.9737777766164" lon="5.157066663748507" id="-73441">
		<tag k="alt_name" v="Hotvika" />
		<tag k="name" v="Hottvika" />
		<tag k="natural" v="bay" />
		<tag k="ssr:stedsnr" v="429138" />
	</node>
	<node lat="60.03690769211823" lon="5.221600205375673" id="-73442">
		<tag k="name" v="Vassnesvatnet" />
		<tag k="natural" v="water" />
		<tag k="ssr:stedsnr" v="429142" />
	</node>
	<node lat="60.0480074306697" lon="5.295432630045614" id="-73443">
		<tag k="fixme" v="consider place=hamlet" />
		<tag k="name" v="Bratten" />
		<tag k="place" v="farm" />
		<tag k="ssr:stedsnr" v="429147" />
	</node>
	<node lat="60.07771944507579" lon="5.203577786257254" id="-73448">
		<tag k="name" v="Rostøysundet" />
		<tag k="natural" v="strait" />
		<tag k="ssr:stedsnr" v="429933" />
	</node>
	<node lat="60.099036109289614" lon="5.156691674472679" id="-73452">
		<tag k="name" v="Melingsvågen" />
		<tag k="natural" v="bay" />
		<tag k="ssr:stedsnr" v="429891" />
	</node>
	<node lat="59.97045555183232" lon="5.0819416601591145" id="-73456">
		<tag k="name" v="Vågafluskallen" />
		<tag k="natural" v="shoal" />
		<tag k="place" v="locality" />
		<tag k="ssr:stedsnr" v="510116" />
	</node>
	<node lat="60.146752781436184" lon="5.20642777082359" id="-73458">
		<tag k="name" v="Nygård" />
		<tag k="place" v="farm" />
		<tag k="ssr:stedsnr" v="522284" />
	</node>
	<node lat="60.083108329167324" lon="5.272891673473144" id="-73461">
		<tag k="landuse" v="harbour" />
		<tag k="name" v="Kolbeinshamn" />
		<tag k="seamark:type" v="harbour" />
		<tag k="ssr:stedsnr" v="522392" />
	</node>
	<node lat="59.98046309111358" lon="5.200440110619483" id="-73463">
		<tag k="fixme" v="consider place=hamlet" />
		<tag k="name" v="Sætre" />
		<tag k="place" v="farm" />
		<tag k="ssr:stedsnr" v="522425" />
	</node>
	<node lat="60.00813889306244" lon="5.25311111922096" id="-73464">
		<tag k="name" v="Vågen" />
		<tag k="place" v="farm" />
		<tag k="ssr:stedsnr" v="522444" />
	</node>
	<node lat="60.133069447255615" lon="5.093624999454492" id="-73487">
		<tag k="bridge" v="yes" />
		<tag k="layer" v="1" />
		<tag k="name" v="Kvaløyvågen" />
		<tag k="ssr:stedsnr" v="533252" />
	</node>
	<node lat="60.00043055944046" lon="5.262955557172002" id="-73488">
		<tag k="name" v="Blænes" />
		<tag k="place" v="neighbourhood" />
		<tag k="ssr:stedsnr" v="540357" />
	</node>
	<node lat="60.053899949353834" lon="5.300166573957427" id="-73494">
		<tag k="fixme" v="consider place=hamlet" />
		<tag k="name" v="Sandvik" />
		<tag k="place" v="farm" />
		<tag k="ssr:stedsnr" v="551176" />
	</node>
	<node lat="60.10587500302255" lon="5.168961104797759" id="-73502">
		<tag k="alt_name" v="Austevollhella" />
		<tag k="fixme" v="consider place=hamlet" />
		<tag k="name" v="Austevoll" />
		<tag k="place" v="village" />
		<tag k="ssr:stedsnr" v="550890" />
	</node>
	<node lat="60.143611108499" lon="5.20332777479208" id="-73517">
		<tag k="name" v="Solnes" />
		<tag k="place" v="farm" />
		<tag k="ssr:stedsnr" v="582274" />
	</node>
	<node lat="60.01672777407295" lon="5.20291388990984" id="-73544">
		<tag k="bridge" v="yes" />
		<tag k="layer" v="1" />
		<tag k="name" v="Selbjørn" />
		<tag k="ssr:stedsnr" v="593180" />
	</node>
	<node lat="60.05386666424168" lon="5.2521750053868095" id="-73545">
		<tag k="bridge" v="yes" />
		<tag k="layer" v="1" />
		<tag k="name" v="Austmonnevågen" />
		<tag k="ssr:stedsnr" v="593217" />
	</node>
	<node lat="59.97402777862974" lon="5.076011118492921" id="-73551">
		<tag k="name" v="Vågaflua" />
		<tag k="natural" v="shoal" />
		<tag k="place" v="locality" />
		<tag k="ssr:stedsnr" v="610052" />
	</node>
	<node lat="60.00961111141188" lon="5.163588890160926" id="-73559">
		<tag k="name" v="Veivågen" />
		<tag k="natural" v="bay" />
		<tag k="ssr:stedsnr" v="611244" />
	</node>
	<node lat="60.03941904798463" lon="5.297298723107166" id="-73560">
		<tag k="fixme" v="consider place=hamlet" />
		<tag k="name" v="Såtendal" />
		<tag k="place" v="farm" />
		<tag k="ssr:stedsnr" v="611128" />
	</node>
	<node lat="60.04293332930254" lon="5.299911119662515" id="-73562">
		<tag k="name" v="Brattakrøke" />
		<tag k="natural" v="cape" />
		<tag k="ssr:stedsnr" v="611147" />
	</node>
	<node lat="60.09074166948717" lon="5.108824996966228" id="-73565">
		<tag k="name" v="Horgo" />
		<tag k="place" v="island" />
		<tag k="ssr:stedsnr" v="611648" />
	</node>
	<node lat="60.12983889294189" lon="5.087377783819691" id="-73566">
		<tag k="name" v="Bakkasund" />
		<tag k="place" v="farm" />
		<tag k="ssr:stedsnr" v="611651" />
	</node>
	<node lat="60.065597219991076" lon="5.265713889633077" id="-73567">
		<tag k="name" v="Haukanespollen" />
		<tag k="natural" v="bay" />
		<tag k="ssr:stedsnr" v="611923" />
	</node>
	<node lat="60.13952221851981" lon="5.151747223802078" id="-73568">
		<tag k="name" v="Skåravika" />
		<tag k="natural" v="bay" />
		<tag k="ssr:stedsnr" v="611958" />
	</node>
	<node lat="60.141863891763975" lon="5.165808328369408" id="-73578">
		<tag k="name" v="Skårasund" />
		<tag k="natural" v="strait" />
		<tag k="ssr:stedsnr" v="643347" />
	</node>
	<node lat="60.05344722644763" lon="5.30103888388875" id="-73584">
		<tag k="name" v="Hundhammaren" />
		<tag k="place" v="farm" />
		<tag k="ssr:stedsnr" v="643451" />
	</node>
	<node lat="59.98129722581261" lon="5.086969444998806" id="-73593">
		<tag k="name" v="Klovning" />
		<tag k="place" v="island" />
		<tag k="ssr:stedsnr" v="643618" />
	</node>
	<node lat="59.976994445138075" lon="5.160661116560508" id="-73595">
		<tag k="alt_name" v="Hotvikfjellet" />
		<tag k="name" v="Hottvikefjellet" />
		<tag k="natural" v="hill" />
		<tag k="place" v="locality" />
		<tag k="ssr:stedsnr" v="643701" />
	</node>
	<node lat="60.12604444531859" lon="5.066352781279335" id="-73602">
		<tag k="name" v="Hillesvika" />
		<tag k="natural" v="bay" />
		<tag k="ssr:stedsnr" v="643738" />
	</node>
	<node lat="60.037855552287084" lon="5.235927771752787" id="-73607">
		<tag k="bridge" v="yes" />
		<tag k="layer" v="1" />
		<tag k="name" v="Vassnes" />
		<tag k="ssr:stedsnr" v="654183" />
	</node>
	<node lat="60.106069442482564" lon="5.176333335554309" id="-73610">
		<tag k="alt_name" v="Austevollhella ferjekai" />
		<tag k="amenity" v="ferry_terminal" />
		<tag k="name" v="Austevollshella ferjekai" />
		<tag k="ssr:stedsnr" v="715255" />
	</node>
	<node lat="60.01712222240624" lon="5.27939722648421" id="-73611">
		<tag k="amenity" v="ferry_terminal" />
		<tag k="name" v="Husavik ferjekai" />
		<tag k="ssr:stedsnr" v="715266" />
	</node>
	<node lat="60.06317426869941" lon="5.1830809756136" id="-73612">
		<tag k="alt_name" v="Drøni" />
		<tag k="name" v="Drøna" />
		<tag k="place" v="island" />
		<tag k="ssr:stedsnr" v="725186" />
	</node>
	<node lat="60.084891664161205" lon="5.205738886512597" id="-73616">
		<tag k="name" v="Rostøya" />
		<tag k="place" v="island" />
		<tag k="ssr:stedsnr" v="726945" />
	</node>
	<node lat="59.975788889765525" lon="5.153066667648081" id="-73619">
		<tag k="alt_name" v="Hottvik" />
		<tag k="name" v="Hottvika" />
		<tag k="place" v="farm" />
		<tag k="ssr:stedsnr" v="732173" />
	</node>
	<node lat="60.00807499862641" lon="5.200563887206235" id="-73624">
		<tag k="fixme" v="consider place=hamlet" />
		<tag k="name" v="Bekkjarvik" />
		<tag k="place" v="village" />
		<tag k="ssr:stedsnr" v="733210" />
	</node>
	<node lat="60.12445555129841" lon="4.967624995860127" id="-73626">
		<tag k="name" v="Hillagrunnane" />
		<tag k="natural" v="shoal" />
		<tag k="place" v="locality" />
		<tag k="ssr:stedsnr" v="733718" />
	</node>
	<node lat="60.07546286823369" lon="5.268811805814447" id="-73627">
		<tag k="fixme" v="consider place=hamlet" />
		<tag k="name" v="Haukanes" />
		<tag k="place" v="farm" />
		<tag k="ssr:stedsnr" v="733902" />
	</node>
	<node lat="60.12883055679984" lon="5.100941670981066" id="-73635">
		<tag k="name" v="Bakkasundet" />
		<tag k="natural" v="strait" />
		<tag k="ssr:stedsnr" v="764090" />
	</node>
	<node lat="60.11739166383789" lon="5.16593611085333" id="-73646">
		<tag k="alt_name" v="Torangsskjeret" />
		<tag k="fixme" v="consider seamark:type=rock or natural=shoal" />
		<tag k="name" v="Tarangsskjær" />
		<tag k="place" v="islet" />
		<tag k="ssr:stedsnr" v="765249" />
	</node>
	<node lat="60.12284213850702" lon="5.2003504163367165" id="-73647">
		<tag k="name" v="Hufthammarsgavlen" />
		<tag k="natural" v="cape" />
		<tag k="ssr:stedsnr" v="765264" />
	</node>
	<node lat="60.118838893228336" lon="5.140252775514028" id="-73648">
		<tag k="name" v="Økland" />
		<tag k="place" v="farm" />
		<tag k="ssr:stedsnr" v="765273" />
	</node>
	<node lat="60.15766944506939" lon="5.223922215670335" id="-73649">
		<tag k="name" v="Tagholmen" />
		<tag k="place" v="islet" />
		<tag k="ssr:stedsnr" v="765282" />
	</node>
	<node lat="60.09457222161139" lon="5.077869445660348" id="-73660">
		<tag k="fixme" v="consider seamark:type=rock or natural=shoal" />
		<tag k="name" v="Horgekalvsskjeret" />
		<tag k="place" v="islet" />
		<tag k="ssr:stedsnr" v="765526" />
	</node>
	<node lat="60.123408337450215" lon="5.091836118982832" id="-73674">
		<tag k="name" v="Hillarøya" />
		<tag k="place" v="islet" />
		<tag k="ssr:stedsnr" v="779641" />
	</node>
	<node lat="60.14310555951276" lon="5.247266666023739" id="-73675">
		<tag k="name" v="Trollsøysundet" />
		<tag k="natural" v="strait" />
		<tag k="ssr:stedsnr" v="782292" />
	</node>
	<node lat="59.98221389291368" lon="5.201136104618351" id="-73678">
		<tag k="alt_name" v="Vikestøl" />
		<tag k="name" v="Vikestølen" />
		<tag k="place" v="farm" />
		<tag k="ssr:stedsnr" v="793158" />
	</node>
	<node lat="60.012336110459195" lon="5.181300008624451" id="-73683">
		<tag k="alt_name" v="Fagerbakkevåg" />
		<tag k="name" v="Fagerbakkvågen" />
		<tag k="natural" v="bay" />
		<tag k="ssr:stedsnr" v="793245" />
	</node>
	<node lat="60.013558332458274" lon="5.217427772975191" id="-73684">
		<tag k="name" v="Sølesvik" />
		<tag k="place" v="isolated_dwelling" />
		<tag k="ssr:stedsnr" v="793247" />
	</node>
	<node lat="60.01699721940666" lon="5.162158340042569" id="-73685">
		<tag k="name" v="Kalvanesholmen" />
		<tag k="place" v="islet" />
		<tag k="ssr:stedsnr" v="793254" />
	</node>
	<node lat="60.094466662772234" lon="5.2337944389009685" id="-73686">
		<tag k="name" v="Ledet" />
		<tag k="place" v="farm" />
		<tag k="ssr:stedsnr" v="793885" />
	</node>
	<node lat="60.08182777716887" lon="5.2737249964287445" id="-73692">
		<tag k="name" v="Kolbeinshamn" />
		<tag k="natural" v="cape" />
		<tag k="ssr:stedsnr" v="793942" />
	</node>
	<node lat="60.10842777960608" lon="5.074347230417232" id="-73698">
		<tag k="bay" v="fjord" />
		<tag k="name" v="Horgefjorden" />
		<tag k="natural" v="bay" />
		<tag k="ssr:stedsnr" v="794631" />
	</node>
	<node lat="60.01718610994158" lon="5.277330559460245" id="-73703">
		<tag k="name" v="Kalvavika" />
		<tag k="place" v="isolated_dwelling" />
		<tag k="ssr:stedsnr" v="813473" />
	</node>
	<node lat="60.00066944706054" lon="5.0920305545845395" id="-73736">
		<tag k="name" v="Mølna" />
		<tag k="place" v="farm" />
		<tag k="ssr:stedsnr" v="826598" />
	</node>
	<node lat="60.01054167033034" lon="5.202252775745826" id="-73741">
		<tag k="fixme" v="consider place=hamlet" />
		<tag k="name" v="Søre Drivenes" />
		<tag k="place" v="farm" />
		<tag k="ssr:stedsnr" v="826677" />
	</node>
	<node lat="60.06930787360284" lon="5.182551194978956" id="-73762">
		<tag k="alt_name" v="Drøni;Drønen" />
		<tag k="fixme" v="consider place=hamlet" />
		<tag k="name" v="Drøna" />
		<tag k="place" v="farm" />
		<tag k="ssr:stedsnr" v="854916" />
	</node>
	<node lat="60.07794595722261" lon="5.257734586332028" id="-73763">
		<tag k="fixme" v="consider place=hamlet" />
		<tag k="name" v="Bjelland" />
		<tag k="place" v="farm" />
		<tag k="ssr:stedsnr" v="854922" />
	</node>
	<node lat="60.09474999999076" lon="5.082941660475231" id="-73767">
		<tag k="name" v="Horgekalven" />
		<tag k="place" v="islet" />
		<tag k="ssr:stedsnr" v="855640" />
	</node>
	<node lat="60.13120405047445" lon="5.0708833993024145" id="-73769">
		<tag k="name" v="Hillavatnet" />
		<tag k="natural" v="water" />
		<tag k="ssr:stedsnr" v="855649" />
	</node>
	<node lat="59.98032500011876" lon="5.199880559953272" id="-73771">
		<tag k="name" v="Sætra" />
		<tag k="place" v="farm" />
		<tag k="ssr:stedsnr" v="874136" />
	</node>
	<node lat="60.081861113542885" lon="5.266977772201208" id="-73785">
		<tag k="name" v="Havareia" />
		<tag k="natural" v="hill" />
		<tag k="place" v="locality" />
		<tag k="ssr:stedsnr" v="886379" />
	</node>
	<node lat="60.14584722143724" lon="5.242697228056414" id="-73788">
		<tag k="name" v="Laugarøy" />
		<tag k="place" v="island" />
		<tag k="ssr:stedsnr" v="886273" />
	</node>
	<node lat="60.0367611108665" lon="5.216055557156343" id="-73790">
		<tag k="fixme" v="consider place=hamlet" />
		<tag k="name" v="Vassnes" />
		<tag k="place" v="farm" />
		<tag k="ssr:stedsnr" v="886081" />
	</node>
	<node lat="60.06445000194181" lon="5.088327775425736" id="-73799">
		<tag k="name" v="Vestrevåg" />
		<tag k="natural" v="bay" />
		<tag k="ssr:stedsnr" v="886556" />
	</node>
	<node lat="59.98578232141763" lon="5.07786741024952" id="-73804">
		<tag k="name" v="Våge" />
		<tag k="place" v="hamlet" />
		<tag k="ssr:stedsnr" v="886615" />
	</node>
	<node lat="60.10545681696931" lon="5.213730345060249" id="-73815">
		<tag k="name" v="Hauglandsvågen" />
		<tag k="natural" v="bay" />
		<tag k="ssr:stedsnr" v="887323" />
	</node>
	<node lat="60.1049694420811" lon="5.216344448497323" id="-73824">
		<tag k="fixme" v="consider place=hamlet" />
		<tag k="name" v="Haugland" />
		<tag k="place" v="farm" />
		<tag k="ssr:stedsnr" v="947341" />
	</node>
	<node lat="60.00078611571448" lon="5.1219333387992805" id="-73843">
		<tag k="name" v="Kvernevik" />
		<tag k="place" v="farm" />
		<tag k="ssr:stedsnr" v="947574" />
	</node>
	<node lat="59.98719444834214" lon="5.0750416645150995" id="-73851">
		<tag k="fixme" v="consider place=hamlet" />
		<tag k="name" v="Øvre Våge" />
		<tag k="place" v="farm" />
		<tag k="ssr:stedsnr" v="947898" />
	</node>
	<node lat="59.996475002875286" lon="5.103213893894288" id="-73855">
		<tag k="bridge" v="yes" />
		<tag k="layer" v="1" />
		<tag k="name" v="Stolmasundet" />
		<tag k="ssr:stedsnr" v="957178" />
	</node>
	<node lat="60.01182318333389" lon="5.1798846716927205" id="-73911">
		<tag k="fixme" v="consider place=hamlet" />
		<tag k="name" v="Eikholmen" />
		<tag k="place" v="farm" />
		<tag k="ssr:stedsnr" v="989861" />
	</node>
	<node lat="59.99983353827373" lon="5.11709203368399" id="-73912">
		<tag k="fixme" v="consider place=hamlet" />
		<tag k="name" v="Salthella" />
		<tag k="place" v="farm" />
		<tag k="ssr:stedsnr" v="989865" />
	</node>
	<node lat="60.10645181612491" lon="5.167266463361751" id="-73913">
		<tag k="fixme" v="consider place=hamlet" />
		<tag k="name" v="Austevoll" />
		<tag k="place" v="farm" />
		<tag k="ssr:stedsnr" v="989869" />
	</node>
	<node lat="60.08872169116173" lon="5.169060126357834" id="-73914">
		<tag k="fixme" v="consider place=hamlet" />
		<tag k="name" v="Vestre Bakholmen" />
		<tag k="place" v="farm" />
		<tag k="ssr:stedsnr" v="989870" />
	</node>
	<node lat="60.09907878246857" lon="5.186519396904631" id="-73915">
		<tag k="fixme" v="consider place=hamlet" />
		<tag k="name" v="Austre Bakholmen " />
		<tag k="place" v="farm" />
		<tag k="ssr:stedsnr" v="989871" />
	</node>
	<node lat="60.01214839862098" lon="5.23674254787289" id="-73916">
		<tag k="fixme" v="consider place=hamlet" />
		<tag k="name" v="Uglenes" />
		<tag k="place" v="farm" />
		<tag k="ssr:stedsnr" v="989872" />
	</node>
	<node lat="59.98347636635203" lon="5.18037375668986" id="-73917">
		<tag k="fixme" v="consider place=hamlet" />
		<tag k="name" v="Grasdalen" />
		<tag k="place" v="farm" />
		<tag k="ssr:stedsnr" v="989873" />
	</node>
	<node lat="59.98918511209587" lon="5.087883030315735" id="-73919">
		<tag k="name" v="Stangelandsvågen" />
		<tag k="natural" v="bay" />
		<tag k="ssr:stedsnr" v="990919" />
	</node>
	<node lat="60.032091947626334" lon="5.2032951178834805" id="-73929">
		<tag k="alt_name" v="Kalvevik" />
		<tag k="name" v="Kalvavika" />
		<tag k="natural" v="bay" />
		<tag k="ssr:stedsnr" v="1080234" />
	</node>
</osm>
