<?xml version="1.0" encoding="UTF-8"?>
<osm version="0.6" generator="osmapis">
	<node lat="60.028001820807035" lon="5.273029801062076" id="-72428">
		<tag k="alt_name" v="Husevikvatnet" />
		<tag k="name" v="Husavikvatnet" />
		<tag k="natural" v="water" />
		<tag k="ssr:stedsnr" v="186127" />
	</node>
	<node lat="60.00351516927149" lon="5.084535316194478" id="-72431">
		<tag k="alt_name" v="Stongalandsvatnet;Stangelandsvatn" />
		<tag k="name" v="Stangelandsvatnet" />
		<tag k="natural" v="water" />
		<tag k="ssr:stedsnr" v="186691" />
	</node>
	<node lat="60.01526116727045" lon="5.259250664125504" id="-72535">
		<tag k="name" v="Vinnesvatnet" />
		<tag k="natural" v="water" />
		<tag k="ssr:stedsnr" v="308217" />
	</node>
	<node lat="60.004541043017014" lon="5.1724787688588805" id="-72840">
		<tag k="alt_name" v="Veivågsvatnet" />
		<tag k="name" v="Veivågvatnet" />
		<tag k="natural" v="water" />
		<tag k="ssr:stedsnr" v="672205" />
	</node>
	<node lat="60.00584427676197" lon="5.088490835915813" id="-73138">
		<tag k="name" v="Valhammarsvatnet" />
		<tag k="natural" v="water" />
		<tag k="ssr:stedsnr" v="97879" />
		<tag k="water" v="lake" />
	</node>
	<node lat="60.009007526165334" lon="5.192220303194775" id="-73249">
		<tag k="name" v="Fagerbakkevatnet" />
		<tag k="natural" v="water" />
		<tag k="ssr:stedsnr" v="219714" />
		<tag k="water" v="lake" />
	</node>
	<node lat="60.03690769211823" lon="5.221600205375673" id="-73442">
		<tag k="name" v="Vassnesvatnet" />
		<tag k="natural" v="water" />
		<tag k="ssr:stedsnr" v="429142" />
	</node>
	<node lat="60.13120405047445" lon="5.0708833993024145" id="-73769">
		<tag k="name" v="Hillavatnet" />
		<tag k="natural" v="water" />
		<tag k="ssr:stedsnr" v="855649" />
	</node>
</osm>
