<?xml version="1.0" encoding="UTF-8"?>
<osm version="0.6" generator="osmapis">
	<node lat="60.07766389164189" lon="5.1977055479780985" id="-35105">
		<tag k="bridge" v="yes" />
		<tag k="layer" v="1" />
		<tag k="name" v="Drønspollen" />
		<tag k="ssr:stedsnr" v="957240" />
	</node>
	<node lat="60.11300555272616" lon="5.153966668766024" id="-35164">
		<tag k="bridge" v="yes" />
		<tag k="layer" v="1" />
		<tag k="name" v="Mjåsund" />
		<tag k="ssr:stedsnr" v="47252" />
	</node>
	<node lat="60.12316389086129" lon="5.199604310956921" id="-35165">
		<tag k="alt_name" v="Hufthammargavl Fk" />
		<tag k="amenity" v="ferry_terminal" />
		<tag k="name" v="Hufthammar ferjekai" />
		<tag k="ssr:stedsnr" v="47253" />
	</node>
	<node lat="60.008905552064974" lon="5.164238881495974" id="-35213">
		<tag k="bridge" v="yes" />
		<tag k="layer" v="1" />
		<tag k="name" v="Veivåg" />
		<tag k="ssr:stedsnr" v="108189" />
	</node>
	<node lat="60.082730551299164" lon="5.261641663286619" id="-35214">
		<tag k="bridge" v="yes" />
		<tag k="layer" v="1" />
		<tag k="name" v="Haukanesstraumen" />
		<tag k="ssr:stedsnr" v="108251" />
	</node>
	<node lat="60.083108329167324" lon="5.272891673473144" id="-35484">
		<tag k="landuse" v="harbour" />
		<tag k="name" v="Kolbeinshamn" />
		<tag k="seamark:type" v="harbour" />
		<tag k="ssr:stedsnr" v="522392" />
	</node>
	<node lat="60.133069447255615" lon="5.093624999454492" id="-35507">
		<tag k="bridge" v="yes" />
		<tag k="layer" v="1" />
		<tag k="name" v="Kvaløyvågen" />
		<tag k="ssr:stedsnr" v="533252" />
	</node>
	<node lat="60.01672777407295" lon="5.20291388990984" id="-35560">
		<tag k="bridge" v="yes" />
		<tag k="layer" v="1" />
		<tag k="name" v="Selbjørn" />
		<tag k="ssr:stedsnr" v="593180" />
	</node>
	<node lat="60.05386666424168" lon="5.2521750053868095" id="-35561">
		<tag k="bridge" v="yes" />
		<tag k="layer" v="1" />
		<tag k="name" v="Austmonnevågen" />
		<tag k="ssr:stedsnr" v="593217" />
	</node>
	<node lat="60.037855552287084" lon="5.235927771752787" id="-35618">
		<tag k="bridge" v="yes" />
		<tag k="layer" v="1" />
		<tag k="name" v="Vassnes" />
		<tag k="ssr:stedsnr" v="654183" />
	</node>
	<node lat="60.106069442482564" lon="5.176333335554309" id="-35620">
		<tag k="alt_name" v="Austevollhella ferjekai" />
		<tag k="amenity" v="ferry_terminal" />
		<tag k="name" v="Austevollshella ferjekai" />
		<tag k="ssr:stedsnr" v="715255" />
	</node>
	<node lat="60.01712222240624" lon="5.27939722648421" id="-35621">
		<tag k="amenity" v="ferry_terminal" />
		<tag k="name" v="Husavik ferjekai" />
		<tag k="ssr:stedsnr" v="715266" />
	</node>
	<node lat="59.996475002875286" lon="5.103213893894288" id="-35847">
		<tag k="bridge" v="yes" />
		<tag k="layer" v="1" />
		<tag k="name" v="Stolmasundet" />
		<tag k="ssr:stedsnr" v="957178" />
	</node>
</osm>
