<?xml version="1.0" encoding="UTF-8"?>
<osm version="0.6" generator="osmapis">
	<node lat="60.11416813504883" lon="5.1487472923201345" id="-29349">
		<tag k="fixme" v="consider place=hamlet" />
		<tag k="name" v="Toranger" />
		<tag k="place" v="farm" />
		<tag k="ssr:stedsnr" v="4919" />
	</node>
	<node lat="60.10599780394766" lon="5.175632516518613" id="-29378">
		<tag k="name" v="Austevollshella" />
		<tag k="place" v="farm" />
		<tag k="ssr:stedsnr" v="37305" />
	</node>
	<node lat="60.14862499564212" lon="5.205763886557584" id="-29385">
		<tag k="name" v="Sandtorr" />
		<tag k="place" v="neighbourhood" />
		<tag k="ssr:stedsnr" v="40423" />
	</node>
	<node lat="60.01132593310344" lon="5.198718971138143" id="-29387">
		<tag k="name" v="Drivenes" />
		<tag k="place" v="hamlet" />
		<tag k="ssr:stedsnr" v="59213" />
	</node>
	<node lat="60.10605376289318" lon="5.227790140170382" id="-29395">
		<tag k="fixme" v="consider place=hamlet" />
		<tag k="name" v="Birkeland" />
		<tag k="place" v="farm" />
		<tag k="ssr:stedsnr" v="65913" />
	</node>
	<node lat="60.04258345549253" lon="5.202143233448271" id="-29405">
		<tag k="fixme" v="consider place=hamlet" />
		<tag k="name" v="Kolbeinsvik" />
		<tag k="place" v="farm" />
		<tag k="ssr:stedsnr" v="247151" />
	</node>
	<node lat="60.04944892629486" lon="5.220072286861422" id="-29408">
		<tag k="fixme" v="consider place=hamlet" />
		<tag k="name" v="Heiamark" />
		<tag k="place" v="farm" />
		<tag k="ssr:stedsnr" v="247171" />
	</node>
	<node lat="60.00237221960656" lon="5.128961103789302" id="-29410">
		<tag k="alt_name" v="Tøkjet" />
		<tag k="name" v="Tøkje" />
		<tag k="place" v="farm" />
		<tag k="ssr:stedsnr" v="247218" />
	</node>
	<node lat="60.015563890826044" lon="5.234777780916821" id="-29411">
		<tag k="name" v="Vik" />
		<tag k="place" v="isolated_dwelling" />
		<tag k="ssr:stedsnr" v="247222" />
	</node>
	<node lat="60.09885112085127" lon="5.096016530004674" id="-29430">
		<tag k="fixme" v="consider place=hamlet" />
		<tag k="name" v="Horgo" />
		<tag k="place" v="farm" />
		<tag k="ssr:stedsnr" v="247869" />
	</node>
	<node lat="60.10518449870828" lon="5.162170549363587" id="-29431">
		<tag k="alt_name" v="Melingen" />
		<tag k="fixme" v="consider place=hamlet" />
		<tag k="name" v="Melinga" />
		<tag k="place" v="farm" />
		<tag k="ssr:stedsnr" v="247883" />
	</node>
	<node lat="60.01703610670026" lon="5.231880548591293" id="-29443">
		<tag k="name" v="Bakken" />
		<tag k="place" v="isolated_dwelling" />
		<tag k="ssr:stedsnr" v="126225" />
	</node>
	<node lat="60.14003405416966" lon="5.149582862785404" id="-29448">
		<tag k="fixme" v="consider place=hamlet" />
		<tag k="name" v="Skår" />
		<tag k="place" v="farm" />
		<tag k="ssr:stedsnr" v="126943" />
	</node>
	<node lat="60.091908331701184" lon="5.2350611104281635" id="-29454">
		<tag k="name" v="Heimegarden" />
		<tag k="place" v="farm" />
		<tag k="ssr:stedsnr" v="158365" />
	</node>
	<node lat="60.14216944682166" lon="5.1827888879517765" id="-29455">
		<tag k="name" v="Krosshamn" />
		<tag k="place" v="farm" />
		<tag k="ssr:stedsnr" v="158267" />
	</node>
	<node lat="60.08648483116773" lon="5.227141357189016" id="-29490">
		<tag k="fixme" v="consider place=hamlet" />
		<tag k="name" v="Bjånes" />
		<tag k="place" v="farm" />
		<tag k="ssr:stedsnr" v="267874" />
	</node>
	<node lat="60.05069166815784" lon="5.201061108427508" id="-29498">
		<tag k="name" v="Russemyra" />
		<tag k="place" v="farm" />
		<tag k="ssr:stedsnr" v="218609" />
	</node>
	<node lat="59.988183330229894" lon="5.090177773736772" id="-29510">
		<tag k="name" v="Gåsnes" />
		<tag k="place" v="farm" />
		<tag k="ssr:stedsnr" v="219641" />
	</node>
	<node lat="60.030288812745724" lon="5.299582755033711" id="-29514">
		<tag k="fixme" v="consider place=hamlet" />
		<tag k="name" v="Otterå" />
		<tag k="place" v="farm" />
		<tag k="ssr:stedsnr" v="449525" />
	</node>
	<node lat="59.985402776581275" lon="5.079183333286668" id="-29516">
		<tag k="name" v="Våge" />
		<tag k="place" v="hamlet" />
		<tag k="ssr:stedsnr" v="247046" />
	</node>
	<node lat="60.11713989323514" lon="5.061130417398709" id="-29575">
		<tag k="fixme" v="consider place=hamlet" />
		<tag k="name" v="Kalve" />
		<tag k="place" v="farm" />
		<tag k="ssr:stedsnr" v="308612" />
	</node>
	<node lat="60.11670833266561" lon="5.149461110457265" id="-29591">
		<tag k="name" v="Taranger" />
		<tag k="place" v="farm" />
		<tag k="ssr:stedsnr" v="340297" />
	</node>
	<node lat="59.996604786541035" lon="5.089449108210148" id="-29596">
		<tag k="alt_name" v="Stongaland" />
		<tag k="fixme" v="consider place=hamlet" />
		<tag k="name" v="Stangeland" />
		<tag k="place" v="farm" />
		<tag k="ssr:stedsnr" v="368048" />
	</node>
	<node lat="59.99860000341649" lon="5.125719448305362" id="-29597">
		<tag k="fixme" v="consider place=hamlet" />
		<tag k="name" v="Steinvik" />
		<tag k="place" v="farm" />
		<tag k="ssr:stedsnr" v="368272" />
	</node>
	<node lat="60.04660801925298" lon="5.1862276423119456" id="-29598">
		<tag k="name" v="Hestavik" />
		<tag k="place" v="farm" />
		<tag k="ssr:stedsnr" v="368174" />
	</node>
	<node lat="60.00864722548314" lon="5.251022223047736" id="-29615">
		<tag k="name" v="Teistnes" />
		<tag k="place" v="farm" />
		<tag k="ssr:stedsnr" v="369207" />
	</node>
	<node lat="60.008384672938064" lon="5.151926645986458" id="-29620">
		<tag k="fixme" v="consider place=hamlet" />
		<tag k="name" v="Noven" />
		<tag k="place" v="farm" />
		<tag k="ssr:stedsnr" v="483254" />
	</node>
	<node lat="60.07538333583432" lon="5.26476945176898" id="-29623">
		<tag k="name" v="Haukanes" />
		<tag k="place" v="farm" />
		<tag k="ssr:stedsnr" v="400381" />
	</node>
	<node lat="60.0418861150463" lon="5.20214444940586" id="-29634">
		<tag k="name" v="Kolbeinsvik" />
		<tag k="place" v="village" />
		<tag k="ssr:stedsnr" v="401131" />
	</node>
	<node lat="60.09249722235421" lon="5.225466665082573" id="-29635">
		<tag k="name" v="Hagen" />
		<tag k="place" v="farm" />
		<tag k="ssr:stedsnr" v="401310" />
	</node>
	<node lat="60.06166737133194" lon="5.251682852365247" id="-29668">
		<tag k="fixme" v="consider place=hamlet" />
		<tag k="name" v="Søreide" />
		<tag k="place" v="farm" />
		<tag k="ssr:stedsnr" v="430165" />
	</node>
	<node lat="60.1056402457746" lon="5.15509818632463" id="-29684">
		<tag k="fixme" v="consider place=hamlet" />
		<tag k="name" v="Troland" />
		<tag k="place" v="farm" />
		<tag k="ssr:stedsnr" v="671888" />
	</node>
	<node lat="60.049966663385995" lon="5.200333333506203" id="-29689">
		<tag k="name" v="Russemyri" />
		<tag k="place" v="isolated_dwelling" />
		<tag k="ssr:stedsnr" v="672152" />
	</node>
	<node lat="60.08070277687579" lon="5.203827773310581" id="-29694">
		<tag k="name" v="Rostøy" />
		<tag k="place" v="farm" />
		<tag k="ssr:stedsnr" v="672927" />
	</node>
	<node lat="60.09183611249739" lon="5.242444449713266" id="-29695">
		<tag k="name" v="Skår" />
		<tag k="place" v="farm" />
		<tag k="ssr:stedsnr" v="672942" />
	</node>
	<node lat="60.092944443029936" lon="5.2317916749367965" id="-29724">
		<tag k="fixme" v="consider place=hamlet" />
		<tag k="name" v="Storebø" />
		<tag k="place" v="village" />
		<tag k="ssr:stedsnr" v="490928" />
	</node>
	<node lat="60.13082499948875" lon="5.088849999664151" id="-29731">
		<tag k="fixme" v="consider place=suburb, village or hamlet" />
		<tag k="name" v="Bakkasund" />
		<tag k="place" v="quarter" />
		<tag k="ssr:stedsnr" v="510960" />
	</node>
	<node lat="60.0503833335757" lon="5.1872472239918155" id="-29745">
		<tag k="name" v="Nauthella" />
		<tag k="place" v="farm" />
		<tag k="ssr:stedsnr" v="522640" />
	</node>
	<node lat="60.12535000006707" lon="5.130288890534609" id="-29750">
		<tag k="name" v="Tinghaugen" />
		<tag k="place" v="quarter" />
		<tag k="ssr:stedsnr" v="525412" />
	</node>
	<node lat="60.11388889090695" lon="5.154130555224811" id="-29756">
		<tag k="name" v="Torangsvåg" />
		<tag k="place" v="hamlet" />
		<tag k="ssr:stedsnr" v="550897" />
	</node>
	<node lat="60.067347768287675" lon="5.09507390162989" id="-29758">
		<tag k="fixme" v="consider place=hamlet" />
		<tag k="name" v="Møkster" />
		<tag k="place" v="farm" />
		<tag k="ssr:stedsnr" v="691173" />
	</node>
	<node lat="59.99669444331934" lon="5.0915583379302305" id="-29761">
		<tag k="name" v="Gyri" />
		<tag k="place" v="isolated_dwelling" />
		<tag k="ssr:stedsnr" v="569307" />
	</node>
	<node lat="60.00070000304625" lon="5.0932749980800684" id="-29762">
		<tag k="name" v="Mylna" />
		<tag k="place" v="isolated_dwelling" />
		<tag k="ssr:stedsnr" v="569309" />
	</node>
	<node lat="60.02630555512117" lon="5.138922217836276" id="-29768">
		<tag k="name" v="Lundøy" />
		<tag k="place" v="farm" />
		<tag k="ssr:stedsnr" v="582340" />
	</node>
	<node lat="60.00623248576784" lon="5.203538589547887" id="-29785">
		<tag k="fixme" v="consider place=hamlet" />
		<tag k="name" v="Bekkjarvik" />
		<tag k="place" v="farm" />
		<tag k="ssr:stedsnr" v="604035" />
	</node>
	<node lat="60.13358598901519" lon="5.0917281114360735" id="-29788">
		<tag k="alt_name" v="Bakko;Bakke" />
		<tag k="fixme" v="consider place=hamlet" />
		<tag k="name" v="Bakka" />
		<tag k="place" v="farm" />
		<tag k="ssr:stedsnr" v="611753" />
	</node>
	<node lat="60.01878610723174" lon="5.281519447548207" id="-29800">
		<tag k="name" v="Husavik" />
		<tag k="place" v="farm" />
		<tag k="ssr:stedsnr" v="704413" />
	</node>
	<node lat="59.985058329092496" lon="5.189774997697799" id="-29819">
		<tag k="historic" v="shieling" />
		<tag k="name" v="Haktornstølen" />
		<tag k="place" v="isolated_dwelling" />
		<tag k="ssr:stedsnr" v="704649" />
	</node>
	<node lat="59.978974996611086" lon="5.195277773284469" id="-29820">
		<tag k="name" v="Båtevik" />
		<tag k="place" v="farm" />
		<tag k="ssr:stedsnr" v="704653" />
	</node>
	<node lat="60.00486666239187" lon="5.093725005018163" id="-29839">
		<tag k="name" v="Valhammar" />
		<tag k="place" v="farm" />
		<tag k="ssr:stedsnr" v="643884" />
	</node>
	<node lat="60.107897223265375" lon="5.211138896293923" id="-29841">
		<tag k="name" v="Nordre Haugland" />
		<tag k="place" v="quarter" />
		<tag k="ssr:stedsnr" v="707389" />
	</node>
	<node lat="60.05120833352839" lon="5.19281111704177" id="-29867">
		<tag k="name" v="Nyheim" />
		<tag k="place" v="farm" />
		<tag k="ssr:stedsnr" v="704605" />
	</node>
	<node lat="59.989555699519805" lon="5.081538663915557" id="-29910">
		<tag k="name" v="Årland" />
		<tag k="old_name" v="Aarland" />
		<tag k="place" v="hamlet" />
		<tag k="ssr:stedsnr" v="793028" />
	</node>
	<node lat="59.97756552283993" lon="5.175983051247826" id="-29915">
		<tag k="alt_name" v="Gaukseim" />
		<tag k="fixme" v="consider place=hamlet" />
		<tag k="name" v="Gauksheim" />
		<tag k="old_name" v="Gaukshei m" />
		<tag k="place" v="farm" />
		<tag k="ssr:stedsnr" v="914156" />
	</node>
	<node lat="60.02252865638424" lon="5.2869973417343035" id="-29919">
		<tag k="fixme" v="consider place=hamlet" />
		<tag k="name" v="Brekke" />
		<tag k="place" v="farm" />
		<tag k="ssr:stedsnr" v="915211" />
	</node>
	<node lat="60.133801119814734" lon="5.088105574493536" id="-29923">
		<tag k="fixme" v="consider place=hamlet" />
		<tag k="loc_name" v="Klepp" />
		<tag k="name" v="Kleppe" />
		<tag k="place" v="farm" />
		<tag k="ssr:stedsnr" v="915612" />
	</node>
	<node lat="60.14936588525669" lon="5.2055506532431695" id="-29938">
		<tag k="alt_name" v="Sandtorv" />
		<tag k="fixme" v="consider place=hamlet" />
		<tag k="name" v="Sandtorr" />
		<tag k="place" v="farm" />
		<tag k="ssr:stedsnr" v="826272" />
	</node>
	<node lat="60.15166388965225" lon="5.206844437598125" id="-29939">
		<tag k="name" v="Kyrkjebøen" />
		<tag k="place" v="farm" />
		<tag k="ssr:stedsnr" v="826273" />
	</node>
	<node lat="60.09110833668792" lon="5.238791674724728" id="-29942">
		<tag k="name" v="Skår" />
		<tag k="place" v="farm" />
		<tag k="ssr:stedsnr" v="826371" />
	</node>
	<node lat="60.101030554894265" lon="5.165013894469374" id="-29944">
		<tag k="name" v="Melingen" />
		<tag k="place" v="quarter" />
		<tag k="ssr:stedsnr" v="829364" />
	</node>
	<node lat="60.08089166380525" lon="5.278652778033218" id="-29945">
		<tag k="name" v="Kolbeinshamn" />
		<tag k="place" v="quarter" />
		<tag k="ssr:stedsnr" v="829366" />
	</node>
	<node lat="60.005833396835534" lon="5.141399160666463" id="-29953">
		<tag k="alt_name" v="Ytre Rabben" />
		<tag k="name" v="Rabben" />
		<tag k="place" v="hamlet" />
		<tag k="ssr:stedsnr" v="854201" />
	</node>
	<node lat="60.01138888551193" lon="5.184480563050399" id="-29969">
		<tag k="fixme" v="consider place=hamlet" />
		<tag k="name" v="Fagerbakke" />
		<tag k="place" v="farm" />
		<tag k="ssr:stedsnr" v="887715" />
	</node>
	<node lat="60.04051469761278" lon="5.082701136655579" id="-29970">
		<tag k="fixme" v="consider place=hamlet" />
		<tag k="name" v="Litlakalsøy" />
		<tag k="place" v="farm" />
		<tag k="ssr:stedsnr" v="909766" />
	</node>
	<node lat="60.010181429442675" lon="5.263407388386959" id="-29973">
		<tag k="fixme" v="consider place=hamlet" />
		<tag k="name" v="Vinnes" />
		<tag k="place" v="farm" />
		<tag k="ssr:stedsnr" v="915196" />
	</node>
	<node lat="59.98462514926331" lon="5.0765653173305605" id="-29995">
		<tag k="fixme" v="consider place=hamlet" />
		<tag k="name" v="Nedre Våge" />
		<tag k="place" v="farm" />
		<tag k="ssr:stedsnr" v="947601" />
	</node>
	<node lat="60.01395277529693" lon="5.077558333920819" id="-30021">
		<tag k="alt_name" v="Sætrevika" />
		<tag k="name" v="Sætrevik" />
		<tag k="place" v="farm" />
		<tag k="ssr:stedsnr" v="4657" />
	</node>
	<node lat="60.05733332977885" lon="5.2219472191645275" id="-30044">
		<tag k="fixme" v="consider place=hamlet" />
		<tag k="name" v="Straumsøy" />
		<tag k="place" v="farm" />
		<tag k="ssr:stedsnr" v="36585" />
	</node>
	<node lat="60.09330833685791" lon="5.233155547117652" id="-30061">
		<tag k="fixme" v="consider place=hamlet" />
		<tag k="name" v="Storebø" />
		<tag k="place" v="farm" />
		<tag k="ssr:stedsnr" v="59033" />
	</node>
	<node lat="60.063522224050615" lon="5.256030557122632" id="-30082">
		<tag k="historic" v="shieling" />
		<tag k="name" v="Høgestølen" />
		<tag k="place" v="isolated_dwelling" />
		<tag k="ssr:stedsnr" v="97449" />
	</node>
	<node lat="60.14112499968624" lon="5.077908324388171" id="-30090">
		<tag k="name" v="Mjuken" />
		<tag k="place" v="farm" />
		<tag k="ssr:stedsnr" v="97756" />
	</node>
	<node lat="60.0066160808223" lon="5.148954362282588" id="-30103">
		<tag k="alt_name" v="Indre Rabben" />
		<tag k="fixme" v="consider place=hamlet" />
		<tag k="name" v="Rabben" />
		<tag k="place" v="farm" />
		<tag k="ssr:stedsnr" v="98716" />
	</node>
	<node lat="60.01189498164808" lon="5.082745176850452" id="-30118">
		<tag k="fixme" v="consider place=hamlet" />
		<tag k="name" v="Kvalvåg" />
		<tag k="place" v="farm" />
		<tag k="ssr:stedsnr" v="125682" />
	</node>
	<node lat="60.06244444613455" lon="5.246208339139256" id="-30121">
		<tag k="name" v="Eidsbakke" />
		<tag k="place" v="isolated_dwelling" />
		<tag k="ssr:stedsnr" v="126174" />
	</node>
	<node lat="60.119259000854626" lon="5.20611269258197" id="-30125">
		<tag k="fixme" v="consider place=hamlet" />
		<tag k="name" v="Hufthammar" />
		<tag k="place" v="farm" />
		<tag k="ssr:stedsnr" v="125913" />
	</node>
	<node lat="60.118919594486634" lon="5.145873977424258" id="-30135">
		<tag k="fixme" v="consider place=hamlet" />
		<tag k="name" v="Økland" />
		<tag k="place" v="farm" />
		<tag k="ssr:stedsnr" v="126969" />
	</node>
	<node lat="60.01144166584747" lon="5.267713894829486" id="-30148">
		<tag k="name" v="Vinnes" />
		<tag k="place" v="farm" />
		<tag k="ssr:stedsnr" v="158460" />
	</node>
	<node lat="60.00103265732444" lon="5.258784208024791" id="-30149">
		<tag k="alt_name" v="Blenes" />
		<tag k="fixme" v="consider place=hamlet" />
		<tag k="name" v="Blænes" />
		<tag k="place" v="farm" />
		<tag k="ssr:stedsnr" v="158465" />
	</node>
	<node lat="60.01155000422705" lon="5.245272213838332" id="-30169">
		<tag k="name" v="Vik" />
		<tag k="place" v="quarter" />
		<tag k="ssr:stedsnr" v="176345" />
	</node>
	<node lat="60.00480277969275" lon="5.140702776523109" id="-30170">
		<tag k="name" v="Rabben" />
		<tag k="place" v="quarter" />
		<tag k="ssr:stedsnr" v="176348" />
	</node>
	<node lat="60.018541448541036" lon="5.28358917372412" id="-30175">
		<tag k="fixme" v="consider place=hamlet" />
		<tag k="name" v="Husavik" />
		<tag k="place" v="farm" />
		<tag k="ssr:stedsnr" v="186231" />
	</node>
	<node lat="60.12577820201828" lon="5.071366432241326" id="-30181">
		<tag k="fixme" v="consider place=hamlet" />
		<tag k="name" v="Hille" />
		<tag k="place" v="farm" />
		<tag k="ssr:stedsnr" v="187586" />
	</node>
	<node lat="60.06625134877439" lon="5.242898885811836" id="-30183">
		<tag k="fixme" v="consider place=hamlet" />
		<tag k="name" v="Nordeide" />
		<tag k="place" v="farm" />
		<tag k="ssr:stedsnr" v="187183" />
	</node>
	<node lat="60.00451835082069" lon="5.159688284710922" id="-30184">
		<tag k="alt_name" v="Veivåg" />
		<tag k="fixme" v="consider place=hamlet" />
		<tag k="name" v="Veivågen" />
		<tag k="place" v="farm" />
		<tag k="ssr:stedsnr" v="187216" />
	</node>
	<node lat="59.976225000743774" lon="5.179811117002583" id="-30212">
		<tag k="name" v="Rammeslotta" />
		<tag k="place" v="farm" />
		<tag k="ssr:stedsnr" v="219729" />
	</node>
	<node lat="60.012869448199126" lon="5.19505554845579" id="-30241">
		<tag k="name" v="Nordre Drivenes" />
		<tag k="place" v="farm" />
		<tag k="ssr:stedsnr" v="280678" />
	</node>
	<node lat="60.13613610925063" lon="5.145333325372619" id="-30245">
		<tag k="name" v="Skår" />
		<tag k="place" v="neighbourhood" />
		<tag k="ssr:stedsnr" v="283311" />
	</node>
	<node lat="60.04122981816765" lon="5.250861265061104" id="-30247">
		<tag k="alt_name" v="Nausheller" />
		<tag k="fixme" v="consider place=hamlet" />
		<tag k="name" v="Naustheller" />
		<tag k="place" v="farm" />
		<tag k="ssr:stedsnr" v="307168" />
	</node>
	<node lat="60.0143070007032" lon="5.169514690970177" id="-30258">
		<tag k="alt_name" v="Kalvanes" />
		<tag k="fixme" v="consider place=hamlet" />
		<tag k="name" v="Kalvaneset" />
		<tag k="place" v="farm" />
		<tag k="ssr:stedsnr" v="308224" />
	</node>
	<node lat="60.00293405299775" lon="5.095330188485019" id="-30304">
		<tag k="fixme" v="consider place=hamlet" />
		<tag k="name" v="Valhammar" />
		<tag k="place" v="farm" />
		<tag k="ssr:stedsnr" v="368239" />
	</node>
	<node lat="60.05822222041927" lon="5.181422216672588" id="-30324">
		<tag k="historic" v="shieling" />
		<tag k="name" v="Skjenestølen" />
		<tag k="place" v="isolated_dwelling" />
		<tag k="ssr:stedsnr" v="400656" />
	</node>
	<node lat="60.01297221938302" lon="5.239155550376717" id="-30346">
		<tag k="alt_name" v="Vik" />
		<tag k="fixme" v="consider place=hamlet" />
		<tag k="name" v="Nordre Vik" />
		<tag k="place" v="farm" />
		<tag k="ssr:stedsnr" v="401674" />
	</node>
	<node lat="60.0480074306697" lon="5.295432630045614" id="-30361">
		<tag k="fixme" v="consider place=hamlet" />
		<tag k="name" v="Bratten" />
		<tag k="place" v="farm" />
		<tag k="ssr:stedsnr" v="429147" />
	</node>
	<node lat="60.146752781436184" lon="5.20642777082359" id="-30376">
		<tag k="name" v="Nygård" />
		<tag k="place" v="farm" />
		<tag k="ssr:stedsnr" v="522284" />
	</node>
	<node lat="59.98046309111358" lon="5.200440110619483" id="-30381">
		<tag k="fixme" v="consider place=hamlet" />
		<tag k="name" v="Sætre" />
		<tag k="place" v="farm" />
		<tag k="ssr:stedsnr" v="522425" />
	</node>
	<node lat="60.00813889306244" lon="5.25311111922096" id="-30382">
		<tag k="name" v="Vågen" />
		<tag k="place" v="farm" />
		<tag k="ssr:stedsnr" v="522444" />
	</node>
	<node lat="60.118094444702656" lon="5.1563972225829104" id="-30401">
		<tag k="name" v="Haugsneset" />
		<tag k="place" v="quarter" />
		<tag k="ssr:stedsnr" v="525380" />
	</node>
	<node lat="60.00043055944046" lon="5.262955557172002" id="-30403">
		<tag k="name" v="Blænes" />
		<tag k="place" v="neighbourhood" />
		<tag k="ssr:stedsnr" v="540357" />
	</node>
	<node lat="60.053899949353834" lon="5.300166573957427" id="-30407">
		<tag k="fixme" v="consider place=hamlet" />
		<tag k="name" v="Sandvik" />
		<tag k="place" v="farm" />
		<tag k="ssr:stedsnr" v="551176" />
	</node>
	<node lat="60.10587500302255" lon="5.168961104797759" id="-30415">
		<tag k="alt_name" v="Austevollhella" />
		<tag k="fixme" v="consider place=hamlet" />
		<tag k="name" v="Austevoll" />
		<tag k="place" v="village" />
		<tag k="ssr:stedsnr" v="550890" />
	</node>
	<node lat="60.1280095808114" lon="5.086827385039119" id="-30420">
		<tag k="fixme" v="consider place=hamlet" />
		<tag k="name" v="Klepsvik" />
		<tag k="place" v="farm" />
		<tag k="ssr:stedsnr" v="551632" />
	</node>
	<node lat="60.143611108499" lon="5.20332777479208" id="-30430">
		<tag k="name" v="Solnes" />
		<tag k="place" v="farm" />
		<tag k="ssr:stedsnr" v="582274" />
	</node>
	<node lat="59.99285555447282" lon="5.178094435666194" id="-30450">
		<tag k="historic" v="shieling" />
		<tag k="name" v="Høgestølen" />
		<tag k="place" v="isolated_dwelling" />
		<tag k="ssr:stedsnr" v="583676" />
	</node>
	<node lat="60.03941904798463" lon="5.297298723107166" id="-30467">
		<tag k="fixme" v="consider place=hamlet" />
		<tag k="name" v="Såtendal" />
		<tag k="place" v="farm" />
		<tag k="ssr:stedsnr" v="611128" />
	</node>
	<node lat="60.12983889294189" lon="5.087377783819691" id="-30473">
		<tag k="name" v="Bakkasund" />
		<tag k="place" v="farm" />
		<tag k="ssr:stedsnr" v="611651" />
	</node>
	<node lat="60.05344722644763" lon="5.30103888388875" id="-30491">
		<tag k="name" v="Hundhammaren" />
		<tag k="place" v="farm" />
		<tag k="ssr:stedsnr" v="643451" />
	</node>
	<node lat="60.051355246870244" lon="5.1782767958032725" id="-30506">
		<tag k="fixme" v="consider place=hamlet" />
		<tag k="name" v="Busesund" />
		<tag k="place" v="farm" />
		<tag k="ssr:stedsnr" v="643654" />
	</node>
	<node lat="60.12535000006707" lon="5.130288890534609" id="-30511">
		<tag k="name" v="Barmen" />
		<tag k="place" v="neighbourhood" />
		<tag k="ssr:stedsnr" v="646355" />
	</node>
	<node lat="59.975788889765525" lon="5.153066667648081" id="-30519">
		<tag k="alt_name" v="Hottvik" />
		<tag k="name" v="Hottvika" />
		<tag k="place" v="farm" />
		<tag k="ssr:stedsnr" v="732173" />
	</node>
	<node lat="60.00807499862641" lon="5.200563887206235" id="-30524">
		<tag k="fixme" v="consider place=hamlet" />
		<tag k="name" v="Bekkjarvik" />
		<tag k="place" v="village" />
		<tag k="ssr:stedsnr" v="733210" />
	</node>
	<node lat="60.07546286823369" lon="5.268811805814447" id="-30527">
		<tag k="fixme" v="consider place=hamlet" />
		<tag k="name" v="Haukanes" />
		<tag k="place" v="farm" />
		<tag k="ssr:stedsnr" v="733902" />
	</node>
	<node lat="60.118838893228336" lon="5.140252775514028" id="-30548">
		<tag k="name" v="Økland" />
		<tag k="place" v="farm" />
		<tag k="ssr:stedsnr" v="765273" />
	</node>
	<node lat="59.98221389291368" lon="5.201136104618351" id="-30571">
		<tag k="alt_name" v="Vikestøl" />
		<tag k="name" v="Vikestølen" />
		<tag k="place" v="farm" />
		<tag k="ssr:stedsnr" v="793158" />
	</node>
	<node lat="60.013558332458274" lon="5.217427772975191" id="-30577">
		<tag k="name" v="Sølesvik" />
		<tag k="place" v="isolated_dwelling" />
		<tag k="ssr:stedsnr" v="793247" />
	</node>
	<node lat="60.094466662772234" lon="5.2337944389009685" id="-30579">
		<tag k="name" v="Ledet" />
		<tag k="place" v="farm" />
		<tag k="ssr:stedsnr" v="793885" />
	</node>
	<node lat="60.01718610994158" lon="5.277330559460245" id="-30596">
		<tag k="name" v="Kalvavika" />
		<tag k="place" v="isolated_dwelling" />
		<tag k="ssr:stedsnr" v="813473" />
	</node>
	<node lat="60.00066944706054" lon="5.0920305545845395" id="-30629">
		<tag k="name" v="Mølna" />
		<tag k="place" v="farm" />
		<tag k="ssr:stedsnr" v="826598" />
	</node>
	<node lat="60.01054167033034" lon="5.202252775745826" id="-30634">
		<tag k="fixme" v="consider place=hamlet" />
		<tag k="name" v="Søre Drivenes" />
		<tag k="place" v="farm" />
		<tag k="ssr:stedsnr" v="826677" />
	</node>
	<node lat="60.06930787360284" lon="5.182551194978956" id="-30651">
		<tag k="alt_name" v="Drøni;Drønen" />
		<tag k="fixme" v="consider place=hamlet" />
		<tag k="name" v="Drøna" />
		<tag k="place" v="farm" />
		<tag k="ssr:stedsnr" v="854916" />
	</node>
	<node lat="60.07794595722261" lon="5.257734586332028" id="-30652">
		<tag k="fixme" v="consider place=hamlet" />
		<tag k="name" v="Bjelland" />
		<tag k="place" v="farm" />
		<tag k="ssr:stedsnr" v="854922" />
	</node>
	<node lat="59.98032500011876" lon="5.199880559953272" id="-30660">
		<tag k="name" v="Sætra" />
		<tag k="place" v="farm" />
		<tag k="ssr:stedsnr" v="874136" />
	</node>
	<node lat="60.0367611108665" lon="5.216055557156343" id="-30679">
		<tag k="fixme" v="consider place=hamlet" />
		<tag k="name" v="Vassnes" />
		<tag k="place" v="farm" />
		<tag k="ssr:stedsnr" v="886081" />
	</node>
	<node lat="59.98578232141763" lon="5.07786741024952" id="-30693">
		<tag k="name" v="Våge" />
		<tag k="place" v="hamlet" />
		<tag k="ssr:stedsnr" v="886615" />
	</node>
	<node lat="60.1049694420811" lon="5.216344448497323" id="-30713">
		<tag k="fixme" v="consider place=hamlet" />
		<tag k="name" v="Haugland" />
		<tag k="place" v="farm" />
		<tag k="ssr:stedsnr" v="947341" />
	</node>
	<node lat="60.00078611571448" lon="5.1219333387992805" id="-30732">
		<tag k="name" v="Kvernevik" />
		<tag k="place" v="farm" />
		<tag k="ssr:stedsnr" v="947574" />
	</node>
	<node lat="59.98719444834214" lon="5.0750416645150995" id="-30740">
		<tag k="fixme" v="consider place=hamlet" />
		<tag k="name" v="Øvre Våge" />
		<tag k="place" v="farm" />
		<tag k="ssr:stedsnr" v="947898" />
	</node>
	<node lat="60.048058334580524" lon="5.183336111667662" id="-30741">
		<tag k="name" v="Hestavika" />
		<tag k="place" v="neighbourhood" />
		<tag k="ssr:stedsnr" v="950402" />
	</node>
	<node lat="60.01182318333389" lon="5.1798846716927205" id="-30749">
		<tag k="fixme" v="consider place=hamlet" />
		<tag k="name" v="Eikholmen" />
		<tag k="place" v="farm" />
		<tag k="ssr:stedsnr" v="989861" />
	</node>
	<node lat="59.99983353827373" lon="5.11709203368399" id="-30750">
		<tag k="fixme" v="consider place=hamlet" />
		<tag k="name" v="Salthella" />
		<tag k="place" v="farm" />
		<tag k="ssr:stedsnr" v="989865" />
	</node>
	<node lat="60.10645181612491" lon="5.167266463361751" id="-30751">
		<tag k="fixme" v="consider place=hamlet" />
		<tag k="name" v="Austevoll" />
		<tag k="place" v="farm" />
		<tag k="ssr:stedsnr" v="989869" />
	</node>
	<node lat="60.08872169116173" lon="5.169060126357834" id="-30752">
		<tag k="fixme" v="consider place=hamlet" />
		<tag k="name" v="Vestre Bakholmen" />
		<tag k="place" v="farm" />
		<tag k="ssr:stedsnr" v="989870" />
	</node>
	<node lat="60.09907878246857" lon="5.186519396904631" id="-30753">
		<tag k="fixme" v="consider place=hamlet" />
		<tag k="name" v="Austre Bakholmen " />
		<tag k="place" v="farm" />
		<tag k="ssr:stedsnr" v="989871" />
	</node>
	<node lat="60.01214839862098" lon="5.23674254787289" id="-30754">
		<tag k="fixme" v="consider place=hamlet" />
		<tag k="name" v="Uglenes" />
		<tag k="place" v="farm" />
		<tag k="ssr:stedsnr" v="989872" />
	</node>
	<node lat="59.98347636635203" lon="5.18037375668986" id="-30755">
		<tag k="fixme" v="consider place=hamlet" />
		<tag k="name" v="Grasdalen" />
		<tag k="place" v="farm" />
		<tag k="ssr:stedsnr" v="989873" />
	</node>
</osm>
