<?xml version="1.0" encoding="UTF-8"?>
<osm generator="osmapis" version="0.6">
	<node id="-249470" lat="59.4019527752" lon="8.49458055718">
		<tag k="name" v="Kviteseid kommune" />
		<tag k="ssr:date" v="2016-05-10" />
		<tag k="ssr:gruppe" v="administrativeIndelinger" />
		<tag k="ssr:hovedgruppe" v="offentligAdministrasjon" />
		<tag k="ssr:stedsnr" v="24520" />
		<tag k="ssr:type" v="kommune" />
	</node>
	<node id="-249082" lat="59.4654027737" lon="8.49584165878">
		<tag k="name" v="Dambakken" />
		<tag k="ssr:date" v="2016-05-10" />
		<tag k="ssr:gruppe" v="veg" />
		<tag k="ssr:hovedgruppe" v="infrastruktur" />
		<tag k="ssr:stedsnr" v="473708" />
		<tag k="ssr:type" v="vegstrekning" />
	</node>
	<node id="-250195" lat="59.498761107" lon="8.3330805513">
		<tag k="name" v="Tjønnstaulkleivan" />
		<tag k="ssr:date" v="2016-05-10" />
		<tag k="ssr:gruppe" v="veg" />
		<tag k="ssr:hovedgruppe" v="infrastruktur" />
		<tag k="ssr:stedsnr" v="171136" />
		<tag k="ssr:type" v="vegstrekning" />
	</node>
	<node id="-250350" lat="59.3483541318" lon="8.50659883175">
		<tag k="name" v="Timmersvingen" />
		<tag k="ssr:date" v="2018-01-30" />
		<tag k="ssr:gruppe" v="veg" />
		<tag k="ssr:hovedgruppe" v="infrastruktur" />
		<tag k="ssr:stedsnr" v="172621" />
		<tag k="ssr:type" v="vegstrekning" />
	</node>
	<node id="-253261" lat="59.3507833347" lon="8.32235833084">
		<tag k="name" v="Storkørvegen" />
		<tag k="ssr:date" v="2016-05-11" />
		<tag k="ssr:gruppe" v="veg" />
		<tag k="ssr:hovedgruppe" v="infrastruktur" />
		<tag k="ssr:stedsnr" v="899670" />
		<tag k="ssr:type" v="vegstrekning" />
	</node>
	<node id="-250332" lat="59.290846622" lon="8.67686773449">
		<tag k="name" v="Kollingdalvegen" />
		<tag k="ssr:date" v="2018-01-30" />
		<tag k="ssr:gruppe" v="veg" />
		<tag k="ssr:hovedgruppe" v="infrastruktur" />
		<tag k="ssr:stedsnr" v="172291" />
		<tag k="ssr:type" v="vegstrekning" />
	</node>
	<node id="-253779" lat="60.5908609473" lon="9.63819281559">
		<tag k="fixme" v="multiple name tags, choose one and add the other to alt_name" />
		<tag k="name" v="Austlandet;Østlandet" />
		<tag k="ssr:date" v="2018-01-09" />
		<tag k="ssr:gruppe" v="administrativeIndelinger" />
		<tag k="ssr:hovedgruppe" v="offentligAdministrasjon" />
		<tag k="ssr:stedsnr" v="974775" />
		<tag k="ssr:type" v="annenAdministrativInndeling" />
	</node>
	<node id="-253778" lat="59.3246146136" lon="8.3341979443">
		<tag k="name" v="Lundebergvegen" />
		<tag k="ssr:date" v="2019-05-31" />
		<tag k="ssr:gruppe" v="veg" />
		<tag k="ssr:hovedgruppe" v="infrastruktur" />
		<tag k="ssr:stedsnr" v="973701" />
		<tag k="ssr:type" v="adressenavn" />
	</node>
	<node id="-253777" lat="59.3570446315" lon="8.15950074535">
		<tag k="name" v="Rjukanåsvegen" />
		<tag k="ssr:date" v="2019-05-31" />
		<tag k="ssr:gruppe" v="veg" />
		<tag k="ssr:hovedgruppe" v="infrastruktur" />
		<tag k="ssr:stedsnr" v="973700" />
		<tag k="ssr:type" v="adressenavn" />
	</node>
	<node id="-253776" lat="59.3138168211" lon="8.51729781085">
		<tag k="name" v="Fjellvangvegen" />
		<tag k="ssr:date" v="2019-05-31" />
		<tag k="ssr:gruppe" v="veg" />
		<tag k="ssr:hovedgruppe" v="infrastruktur" />
		<tag k="ssr:stedsnr" v="973698" />
		<tag k="ssr:type" v="adressenavn" />
	</node>
	<node id="-253775" lat="59.312535378" lon="8.52181405036">
		<tag k="name" v="Honlivegen" />
		<tag k="ssr:date" v="2019-05-31" />
		<tag k="ssr:gruppe" v="veg" />
		<tag k="ssr:hovedgruppe" v="infrastruktur" />
		<tag k="ssr:stedsnr" v="973697" />
		<tag k="ssr:type" v="adressenavn" />
	</node>
	<node id="-253774" lat="59.316547955" lon="8.47687010412">
		<tag k="name" v="Bjorøyvegen" />
		<tag k="ssr:date" v="2019-05-31" />
		<tag k="ssr:gruppe" v="veg" />
		<tag k="ssr:hovedgruppe" v="infrastruktur" />
		<tag k="ssr:stedsnr" v="973693" />
		<tag k="ssr:type" v="adressenavn" />
	</node>
	<node id="-253773" lat="59.276270351" lon="8.76686627906">
		<tag k="name" v="Staulshaugvegen" />
		<tag k="ssr:date" v="2019-05-31" />
		<tag k="ssr:gruppe" v="veg" />
		<tag k="ssr:hovedgruppe" v="infrastruktur" />
		<tag k="ssr:stedsnr" v="973692" />
		<tag k="ssr:type" v="adressenavn" />
	</node>
	<node id="-253772" lat="59.2744196075" lon="8.75835208723">
		<tag k="name" v="Trytetjønnhottvegen" />
		<tag k="ssr:date" v="2019-05-31" />
		<tag k="ssr:gruppe" v="veg" />
		<tag k="ssr:hovedgruppe" v="infrastruktur" />
		<tag k="ssr:stedsnr" v="973691" />
		<tag k="ssr:type" v="adressenavn" />
	</node>
	<node id="-248753" lat="59.3540111077" lon="8.314588882">
		<tag k="name" v="Støylsvegen" />
		<tag k="ssr:date" v="2016-05-10" />
		<tag k="ssr:gruppe" v="veg" />
		<tag k="ssr:hovedgruppe" v="infrastruktur" />
		<tag k="ssr:stedsnr" v="353827" />
		<tag k="ssr:type" v="vegstrekning" />
	</node>
	<node id="-248611" lat="59.3943488396" lon="8.52149616443">
		<tag k="name" v="Haukomvegen" />
		<tag k="ssr:date" v="2019-05-31" />
		<tag k="ssr:gruppe" v="veg" />
		<tag k="ssr:hovedgruppe" v="infrastruktur" />
		<tag k="ssr:stedsnr" v="1049013" />
		<tag k="ssr:type" v="adressenavn" />
	</node>
	<node id="-248610" lat="59.3123729362" lon="8.4394758891">
		<tag k="name" v="Tunvegen" />
		<tag k="ssr:date" v="2019-05-31" />
		<tag k="ssr:gruppe" v="veg" />
		<tag k="ssr:hovedgruppe" v="infrastruktur" />
		<tag k="ssr:stedsnr" v="1049011" />
		<tag k="ssr:type" v="adressenavn" />
	</node>
	<node id="-248609" lat="59.3227335934" lon="8.46664553614">
		<tag k="name" v="Alvs veg" />
		<tag k="ssr:date" v="2019-05-31" />
		<tag k="ssr:gruppe" v="veg" />
		<tag k="ssr:hovedgruppe" v="infrastruktur" />
		<tag k="ssr:stedsnr" v="1048899" />
		<tag k="ssr:type" v="adressenavn" />
	</node>
	<node id="-248608" lat="59.3273600112" lon="8.40279976294">
		<tag k="name" v="Gryteødden" />
		<tag k="ssr:date" v="2019-05-31" />
		<tag k="ssr:gruppe" v="veg" />
		<tag k="ssr:hovedgruppe" v="infrastruktur" />
		<tag k="ssr:stedsnr" v="1048843" />
		<tag k="ssr:type" v="adressenavn" />
	</node>
	<node id="-253467" lat="59.3509277775" lon="8.51337777336">
		<tag k="alt_name" v="Kviteseid-kleivane" />
		<tag k="name" v="Kviteseidkleivan" />
		<tag k="ssr:date" v="2016-05-11" />
		<tag k="ssr:gruppe" v="veg" />
		<tag k="ssr:hovedgruppe" v="infrastruktur" />
		<tag k="ssr:stedsnr" v="912822" />
		<tag k="ssr:type" v="vegstrekning" />
	</node>
	<node id="-250512" lat="59.3343527784" lon="8.47052499121">
		<tag k="name" v="Vidsjåvegen" />
		<tag k="old_name" v="Vidsåvegen" />
		<tag k="ssr:date" v="2016-05-10" />
		<tag k="ssr:gruppe" v="veg" />
		<tag k="ssr:hovedgruppe" v="infrastruktur" />
		<tag k="ssr:stedsnr" v="231085" />
		<tag k="ssr:type" v="vegstrekning" />
	</node>
	<node id="-249101" lat="59.3275388846" lon="8.41421943905">
		<tag k="name" v="Sanden" />
		<tag k="ssr:date" v="2016-05-10" />
		<tag k="ssr:gruppe" v="veg" />
		<tag k="ssr:hovedgruppe" v="infrastruktur" />
		<tag k="ssr:stedsnr" v="474126" />
		<tag k="ssr:type" v="vegstrekning" />
	</node>
	<node id="-248964" lat="59.3283999977" lon="8.43882500645">
		<tag k="name" v="Prestestøylvegen" />
		<tag k="ssr:date" v="2016-05-10" />
		<tag k="ssr:gruppe" v="veg" />
		<tag k="ssr:hovedgruppe" v="infrastruktur" />
		<tag k="ssr:stedsnr" v="414121" />
		<tag k="ssr:type" v="vegstrekning" />
	</node>
	<node id="-249835" lat="59.4957944478" lon="8.43098055781">
		<tag k="name" v="Ordalsvegen" />
		<tag k="ssr:date" v="2016-05-10" />
		<tag k="ssr:gruppe" v="veg" />
		<tag k="ssr:hovedgruppe" v="infrastruktur" />
		<tag k="ssr:stedsnr" v="110122" />
		<tag k="ssr:type" v="vegstrekning" />
	</node>
</osm>
