<?xml version="1.0" encoding="UTF-8"?>
<osm generator="osmapis" version="0.6">
	<node id="-187486" lat="59.7940729103" lon="10.0469738067">
		<tag k="name" v="Steinarvanna" />
		<tag k="ssr:date" v="2019-05-30" />
		<tag k="ssr:gruppe" v="veg" />
		<tag k="ssr:hovedgruppe" v="infrastruktur" />
		<tag k="ssr:stedsnr" v="1034156" />
		<tag k="ssr:type" v="adressenavn" />
	</node>
	<node id="-187485" lat="59.7789949313" lon="10.0173501165">
		<tag k="name" v="Lampetjern" />
		<tag k="ssr:date" v="2019-05-30" />
		<tag k="ssr:gruppe" v="veg" />
		<tag k="ssr:hovedgruppe" v="infrastruktur" />
		<tag k="ssr:stedsnr" v="1034154" />
		<tag k="ssr:type" v="adressenavn" />
	</node>
	<node id="-187484" lat="59.7139850202" lon="9.98455178171">
		<tag k="name" v="Dammyr" />
		<tag k="ssr:date" v="2019-05-30" />
		<tag k="ssr:gruppe" v="veg" />
		<tag k="ssr:hovedgruppe" v="infrastruktur" />
		<tag k="ssr:stedsnr" v="1034153" />
		<tag k="ssr:type" v="adressenavn" />
	</node>
	<node id="-187483" lat="59.7972886423" lon="10.0424643341">
		<tag k="name" v="Smedsetra" />
		<tag k="ssr:date" v="2019-05-30" />
		<tag k="ssr:gruppe" v="veg" />
		<tag k="ssr:hovedgruppe" v="infrastruktur" />
		<tag k="ssr:stedsnr" v="1034150" />
		<tag k="ssr:type" v="adressenavn" />
	</node>
	<node id="-187482" lat="59.8140821435" lon="10.0987072334">
		<tag k="name" v="Vrangen" />
		<tag k="ssr:date" v="2019-05-30" />
		<tag k="ssr:gruppe" v="veg" />
		<tag k="ssr:hovedgruppe" v="infrastruktur" />
		<tag k="ssr:stedsnr" v="1034182" />
		<tag k="ssr:type" v="adressenavn" />
	</node>
	<node id="-187481" lat="59.7942101821" lon="10.0952916115">
		<tag k="name" v="Marivann" />
		<tag k="ssr:date" v="2019-05-30" />
		<tag k="ssr:gruppe" v="veg" />
		<tag k="ssr:hovedgruppe" v="infrastruktur" />
		<tag k="ssr:stedsnr" v="1034180" />
		<tag k="ssr:type" v="adressenavn" />
	</node>
	<node id="-187480" lat="59.8017800749" lon="9.99355506945">
		<tag k="name" v="Horgensetertjern" />
		<tag k="ssr:date" v="2019-05-30" />
		<tag k="ssr:gruppe" v="veg" />
		<tag k="ssr:hovedgruppe" v="infrastruktur" />
		<tag k="ssr:stedsnr" v="1034179" />
		<tag k="ssr:type" v="adressenavn" />
	</node>
	<node id="-187479" lat="59.7975420976" lon="10.0894272137">
		<tag k="name" v="Gravningen" />
		<tag k="ssr:date" v="2019-05-30" />
		<tag k="ssr:gruppe" v="veg" />
		<tag k="ssr:hovedgruppe" v="infrastruktur" />
		<tag k="ssr:stedsnr" v="1034176" />
		<tag k="ssr:type" v="adressenavn" />
	</node>
	<node id="-187478" lat="59.8050073867" lon="10.037439785">
		<tag k="name" v="Solbergvann" />
		<tag k="ssr:date" v="2019-05-30" />
		<tag k="ssr:gruppe" v="veg" />
		<tag k="ssr:hovedgruppe" v="infrastruktur" />
		<tag k="ssr:stedsnr" v="1034174" />
		<tag k="ssr:type" v="adressenavn" />
	</node>
	<node id="-187477" lat="59.8149368768" lon="10.0017384361">
		<tag k="name" v="Øyvann" />
		<tag k="ssr:date" v="2019-05-30" />
		<tag k="ssr:gruppe" v="veg" />
		<tag k="ssr:hovedgruppe" v="infrastruktur" />
		<tag k="ssr:stedsnr" v="1034172" />
		<tag k="ssr:type" v="adressenavn" />
	</node>
	<node id="-187476" lat="59.8044592727" lon="10.0874105053">
		<tag k="name" v="Nerdammen" />
		<tag k="ssr:date" v="2019-05-30" />
		<tag k="ssr:gruppe" v="veg" />
		<tag k="ssr:hovedgruppe" v="infrastruktur" />
		<tag k="ssr:stedsnr" v="1034169" />
		<tag k="ssr:type" v="adressenavn" />
	</node>
	<node id="-187475" lat="59.8062815372" lon="10.0701966704">
		<tag k="name" v="Mellomdammen" />
		<tag k="ssr:date" v="2019-05-30" />
		<tag k="ssr:gruppe" v="veg" />
		<tag k="ssr:hovedgruppe" v="infrastruktur" />
		<tag k="ssr:stedsnr" v="1034167" />
		<tag k="ssr:type" v="adressenavn" />
	</node>
	<node id="-187474" lat="59.8144107535" lon="10.0147331402">
		<tag k="name" v="Dobletjern" />
		<tag k="ssr:date" v="2019-05-30" />
		<tag k="ssr:gruppe" v="veg" />
		<tag k="ssr:hovedgruppe" v="infrastruktur" />
		<tag k="ssr:stedsnr" v="1034166" />
		<tag k="ssr:type" v="adressenavn" />
	</node>
	<node id="-187473" lat="59.7210534546" lon="10.0138229715">
		<tag k="name" v="Øvre Grytjern" />
		<tag k="ssr:date" v="2019-05-30" />
		<tag k="ssr:gruppe" v="veg" />
		<tag k="ssr:hovedgruppe" v="infrastruktur" />
		<tag k="ssr:stedsnr" v="1034163" />
		<tag k="ssr:type" v="adressenavn" />
	</node>
	<node id="-187472" lat="59.8179424969" lon="10.0149885177">
		<tag k="name" v="Steindamtjern" />
		<tag k="ssr:date" v="2019-05-30" />
		<tag k="ssr:gruppe" v="veg" />
		<tag k="ssr:hovedgruppe" v="infrastruktur" />
		<tag k="ssr:stedsnr" v="1034160" />
		<tag k="ssr:type" v="adressenavn" />
	</node>
	<node id="-187471" lat="59.8232397898" lon="10.0404213988">
		<tag k="name" v="Ormetjern" />
		<tag k="ssr:date" v="2019-05-30" />
		<tag k="ssr:gruppe" v="veg" />
		<tag k="ssr:hovedgruppe" v="infrastruktur" />
		<tag k="ssr:stedsnr" v="1034159" />
		<tag k="ssr:type" v="adressenavn" />
	</node>
	<node id="-187470" lat="59.7120589296" lon="10.0777401796">
		<tag k="name" v="Nikkerud" />
		<tag k="ssr:date" v="2019-05-30" />
		<tag k="ssr:gruppe" v="veg" />
		<tag k="ssr:hovedgruppe" v="infrastruktur" />
		<tag k="ssr:stedsnr" v="1034120" />
		<tag k="ssr:type" v="adressenavn" />
	</node>
	<node id="-187469" lat="59.6959869396" lon="10.031532168">
		<tag k="name" v="Øvre Leitjern" />
		<tag k="ssr:date" v="2019-05-30" />
		<tag k="ssr:gruppe" v="veg" />
		<tag k="ssr:hovedgruppe" v="infrastruktur" />
		<tag k="ssr:stedsnr" v="1034119" />
		<tag k="ssr:type" v="adressenavn" />
	</node>
	<node id="-187468" lat="59.8021522396" lon="10.051955648">
		<tag k="name" v="Kringletjern" />
		<tag k="ssr:date" v="2019-05-30" />
		<tag k="ssr:gruppe" v="veg" />
		<tag k="ssr:hovedgruppe" v="infrastruktur" />
		<tag k="ssr:stedsnr" v="1034118" />
		<tag k="ssr:type" v="adressenavn" />
	</node>
	<node id="-187467" lat="59.8232498895" lon="10.0804073089">
		<tag k="name" v="Sandva" />
		<tag k="ssr:date" v="2019-05-30" />
		<tag k="ssr:gruppe" v="veg" />
		<tag k="ssr:hovedgruppe" v="infrastruktur" />
		<tag k="ssr:stedsnr" v="1034117" />
		<tag k="ssr:type" v="adressenavn" />
	</node>
	<node id="-187466" lat="59.854171539" lon="10.0602021573">
		<tag k="name" v="Kampen" />
		<tag k="ssr:date" v="2019-05-30" />
		<tag k="ssr:gruppe" v="veg" />
		<tag k="ssr:hovedgruppe" v="infrastruktur" />
		<tag k="ssr:stedsnr" v="1034115" />
		<tag k="ssr:type" v="adressenavn" />
	</node>
	<node id="-187465" lat="59.8373184831" lon="10.0720489219">
		<tag k="name" v="Langvannet" />
		<tag k="ssr:date" v="2019-05-30" />
		<tag k="ssr:gruppe" v="veg" />
		<tag k="ssr:hovedgruppe" v="infrastruktur" />
		<tag k="ssr:stedsnr" v="1034114" />
		<tag k="ssr:type" v="adressenavn" />
	</node>
	<node id="-187464" lat="59.7935009757" lon="10.1049262682">
		<tag k="name" v="Stormyrputten" />
		<tag k="ssr:date" v="2019-05-30" />
		<tag k="ssr:gruppe" v="veg" />
		<tag k="ssr:hovedgruppe" v="infrastruktur" />
		<tag k="ssr:stedsnr" v="1034113" />
		<tag k="ssr:type" v="adressenavn" />
	</node>
	<node id="-187463" lat="59.7244847498" lon="9.99385801337">
		<tag k="name" v="Hanseseter" />
		<tag k="ssr:date" v="2019-05-30" />
		<tag k="ssr:gruppe" v="veg" />
		<tag k="ssr:hovedgruppe" v="infrastruktur" />
		<tag k="ssr:stedsnr" v="1034111" />
		<tag k="ssr:type" v="adressenavn" />
	</node>
	<node id="-187462" lat="59.8135544024" lon="10.004032608">
		<tag k="name" v="Grunnvann" />
		<tag k="ssr:date" v="2019-05-30" />
		<tag k="ssr:gruppe" v="veg" />
		<tag k="ssr:hovedgruppe" v="infrastruktur" />
		<tag k="ssr:stedsnr" v="1034110" />
		<tag k="ssr:type" v="adressenavn" />
	</node>
	<node id="-187461" lat="59.6833273896" lon="10.0033659705">
		<tag k="name" v="Langtjernstua" />
		<tag k="ssr:date" v="2019-05-30" />
		<tag k="ssr:gruppe" v="veg" />
		<tag k="ssr:hovedgruppe" v="infrastruktur" />
		<tag k="ssr:stedsnr" v="1034107" />
		<tag k="ssr:type" v="adressenavn" />
	</node>
	<node id="-187460" lat="59.6928390282" lon="9.98897638678">
		<tag k="name" v="Øvre Fisketjern" />
		<tag k="ssr:date" v="2019-05-30" />
		<tag k="ssr:gruppe" v="veg" />
		<tag k="ssr:hovedgruppe" v="infrastruktur" />
		<tag k="ssr:stedsnr" v="1034104" />
		<tag k="ssr:type" v="adressenavn" />
	</node>
	<node id="-187843" lat="60.5908609473" lon="9.63819281559">
		<tag k="fixme" v="multiple name tags, choose one and add the other to alt_name" />
		<tag k="name" v="Austlandet;Østlandet" />
		<tag k="ssr:date" v="2018-01-09" />
		<tag k="ssr:gruppe" v="administrativeIndelinger" />
		<tag k="ssr:hovedgruppe" v="offentligAdministrasjon" />
		<tag k="ssr:stedsnr" v="974775" />
		<tag k="ssr:type" v="annenAdministrativInndeling" />
	</node>
	<node id="-187458" lat="59.6759677687" lon="10.0063243555">
		<tag k="name" v="Langtjern" />
		<tag k="ssr:date" v="2019-05-30" />
		<tag k="ssr:gruppe" v="veg" />
		<tag k="ssr:hovedgruppe" v="infrastruktur" />
		<tag k="ssr:stedsnr" v="1034101" />
		<tag k="ssr:type" v="adressenavn" />
	</node>
	<node id="-187457" lat="59.7841503824" lon="10.0165522242">
		<tag k="name" v="Eknesdalen" />
		<tag k="ssr:date" v="2019-05-30" />
		<tag k="ssr:gruppe" v="veg" />
		<tag k="ssr:hovedgruppe" v="infrastruktur" />
		<tag k="ssr:stedsnr" v="1034099" />
		<tag k="ssr:type" v="adressenavn" />
	</node>
	<node id="-187456" lat="59.7922810484" lon="10.0199231165">
		<tag k="name" v="Eknessetra" />
		<tag k="ssr:date" v="2019-05-30" />
		<tag k="ssr:gruppe" v="veg" />
		<tag k="ssr:hovedgruppe" v="infrastruktur" />
		<tag k="ssr:stedsnr" v="1034097" />
		<tag k="ssr:type" v="adressenavn" />
	</node>
	<node id="-187455" lat="59.7356575898" lon="10.0446185707">
		<tag k="name" v="Olsesetra" />
		<tag k="ssr:date" v="2019-05-30" />
		<tag k="ssr:gruppe" v="veg" />
		<tag k="ssr:hovedgruppe" v="infrastruktur" />
		<tag k="ssr:stedsnr" v="1034095" />
		<tag k="ssr:type" v="adressenavn" />
	</node>
	<node id="-187454" lat="59.7345930019" lon="10.0948530464">
		<tag k="name" v="Langemyrtoppen" />
		<tag k="old_name" v="Toppen" />
		<tag k="ssr:date" v="2019-11-19" />
		<tag k="ssr:gruppe" v="veg" />
		<tag k="ssr:hovedgruppe" v="infrastruktur" />
		<tag k="ssr:stedsnr" v="1034093" />
		<tag k="ssr:type" v="adressenavn" />
	</node>
	<node id="-187453" lat="59.6992065173" lon="10.0295735833">
		<tag k="name" v="Fjellfritt" />
		<tag k="ssr:date" v="2019-05-30" />
		<tag k="ssr:gruppe" v="veg" />
		<tag k="ssr:hovedgruppe" v="infrastruktur" />
		<tag k="ssr:stedsnr" v="1034092" />
		<tag k="ssr:type" v="adressenavn" />
	</node>
	<node id="-187452" lat="59.6978026994" lon="10.0178498513">
		<tag k="name" v="Nebergdammane" />
		<tag k="ssr:date" v="2019-05-30" />
		<tag k="ssr:gruppe" v="veg" />
		<tag k="ssr:hovedgruppe" v="infrastruktur" />
		<tag k="ssr:stedsnr" v="1034091" />
		<tag k="ssr:type" v="adressenavn" />
	</node>
	<node id="-187451" lat="59.7963612733" lon="10.0225193693">
		<tag k="name" v="Solbergvannsmyra" />
		<tag k="ssr:date" v="2019-05-30" />
		<tag k="ssr:gruppe" v="veg" />
		<tag k="ssr:hovedgruppe" v="infrastruktur" />
		<tag k="ssr:stedsnr" v="1034089" />
		<tag k="ssr:type" v="adressenavn" />
	</node>
	<node id="-187450" lat="59.7127926234" lon="10.0316724841">
		<tag k="name" v="Hellesetra" />
		<tag k="ssr:date" v="2019-05-30" />
		<tag k="ssr:gruppe" v="veg" />
		<tag k="ssr:hovedgruppe" v="infrastruktur" />
		<tag k="ssr:stedsnr" v="1034087" />
		<tag k="ssr:type" v="adressenavn" />
	</node>
	<node id="-187449" lat="59.7882666448" lon="10.0470377432">
		<tag k="name" v="Tarmmyr" />
		<tag k="ssr:date" v="2019-05-30" />
		<tag k="ssr:gruppe" v="veg" />
		<tag k="ssr:hovedgruppe" v="infrastruktur" />
		<tag k="ssr:stedsnr" v="1034085" />
		<tag k="ssr:type" v="adressenavn" />
	</node>
	<node id="-187448" lat="59.7029968276" lon="9.98791225417">
		<tag k="name" v="Kyrfjell" />
		<tag k="ssr:date" v="2019-05-30" />
		<tag k="ssr:gruppe" v="veg" />
		<tag k="ssr:hovedgruppe" v="infrastruktur" />
		<tag k="ssr:stedsnr" v="1034084" />
		<tag k="ssr:type" v="adressenavn" />
	</node>
	<node id="-187447" lat="59.7691268661" lon="10.0195070997">
		<tag k="name" v="Inntaksdammen" />
		<tag k="ssr:date" v="2019-05-30" />
		<tag k="ssr:gruppe" v="veg" />
		<tag k="ssr:hovedgruppe" v="infrastruktur" />
		<tag k="ssr:stedsnr" v="1034082" />
		<tag k="ssr:type" v="adressenavn" />
	</node>
	<node id="-187446" lat="59.7832503322" lon="10.0397837374">
		<tag k="name" v="Vadalen" />
		<tag k="ssr:date" v="2019-05-30" />
		<tag k="ssr:gruppe" v="veg" />
		<tag k="ssr:hovedgruppe" v="infrastruktur" />
		<tag k="ssr:stedsnr" v="1034081" />
		<tag k="ssr:type" v="adressenavn" />
	</node>
	<node id="-187701" lat="59.7502333299" lon="10.0073638947">
		<tag k="name" v="Nedre Eiker kommune" />
		<tag k="ssr:date" v="2016-05-10" />
		<tag k="ssr:gruppe" v="administrativeIndelinger" />
		<tag k="ssr:hovedgruppe" v="offentligAdministrasjon" />
		<tag k="ssr:stedsnr" v="631782" />
		<tag k="ssr:type" v="kommune" />
	</node>
	<node id="-187444" lat="59.7885209434" lon="10.0068791911">
		<tag k="name" v="Eknesdalen Vest" />
		<tag k="ssr:date" v="2019-05-30" />
		<tag k="ssr:gruppe" v="veg" />
		<tag k="ssr:hovedgruppe" v="infrastruktur" />
		<tag k="ssr:stedsnr" v="1034146" />
		<tag k="ssr:type" v="adressenavn" />
	</node>
	<node id="-187443" lat="59.7718147487" lon="10.032271373">
		<tag k="name" v="Svarttjern" />
		<tag k="ssr:date" v="2019-05-30" />
		<tag k="ssr:gruppe" v="veg" />
		<tag k="ssr:hovedgruppe" v="infrastruktur" />
		<tag k="ssr:stedsnr" v="1034144" />
		<tag k="ssr:type" v="adressenavn" />
	</node>
	<node id="-187442" lat="59.715692245" lon="10.0045836587">
		<tag k="name" v="Auretjern" />
		<tag k="ssr:date" v="2019-05-30" />
		<tag k="ssr:gruppe" v="veg" />
		<tag k="ssr:hovedgruppe" v="infrastruktur" />
		<tag k="ssr:stedsnr" v="1034130" />
		<tag k="ssr:type" v="adressenavn" />
	</node>
	<node id="-187441" lat="59.7165068676" lon="10.0575327817">
		<tag k="name" v="Bremsetjern" />
		<tag k="ssr:date" v="2019-05-30" />
		<tag k="ssr:gruppe" v="veg" />
		<tag k="ssr:hovedgruppe" v="infrastruktur" />
		<tag k="ssr:stedsnr" v="1034129" />
		<tag k="ssr:type" v="adressenavn" />
	</node>
	<node id="-187440" lat="59.7187838262" lon="10.0680232287">
		<tag k="name" v="Grunntjern" />
		<tag k="ssr:date" v="2019-05-30" />
		<tag k="ssr:gruppe" v="veg" />
		<tag k="ssr:hovedgruppe" v="infrastruktur" />
		<tag k="ssr:stedsnr" v="1034128" />
		<tag k="ssr:type" v="adressenavn" />
	</node>
	<node id="-187439" lat="59.6879347117" lon="9.99149621266">
		<tag k="name" v="Ytre Fisketjern" />
		<tag k="ssr:date" v="2019-05-30" />
		<tag k="ssr:gruppe" v="veg" />
		<tag k="ssr:hovedgruppe" v="infrastruktur" />
		<tag k="ssr:stedsnr" v="1034125" />
		<tag k="ssr:type" v="adressenavn" />
	</node>
	<node id="-187438" lat="59.7215161" lon="10.0363559814">
		<tag k="name" v="Bremsåsen" />
		<tag k="ssr:date" v="2019-05-30" />
		<tag k="ssr:gruppe" v="veg" />
		<tag k="ssr:hovedgruppe" v="infrastruktur" />
		<tag k="ssr:stedsnr" v="1034123" />
		<tag k="ssr:type" v="adressenavn" />
	</node>
	<node id="-187437" lat="59.6796220398" lon="10.0270548402">
		<tag k="name" v="Nysetra" />
		<tag k="ssr:date" v="2019-05-30" />
		<tag k="ssr:gruppe" v="veg" />
		<tag k="ssr:hovedgruppe" v="infrastruktur" />
		<tag k="ssr:stedsnr" v="1034122" />
		<tag k="ssr:type" v="adressenavn" />
	</node>
	<node id="-187436" lat="59.6725183976" lon="10.0126285593">
		<tag k="name" v="Kittilsbu" />
		<tag k="ssr:date" v="2019-05-30" />
		<tag k="ssr:gruppe" v="veg" />
		<tag k="ssr:hovedgruppe" v="infrastruktur" />
		<tag k="ssr:stedsnr" v="1034121" />
		<tag k="ssr:type" v="adressenavn" />
	</node>
	<node id="-187435" lat="59.7788204152" lon="10.0361353926">
		<tag k="name" v="Vadalstua" />
		<tag k="ssr:date" v="2019-05-30" />
		<tag k="ssr:gruppe" v="veg" />
		<tag k="ssr:hovedgruppe" v="infrastruktur" />
		<tag k="ssr:stedsnr" v="1034142" />
		<tag k="ssr:type" v="adressenavn" />
	</node>
	<node id="-187434" lat="59.804211038" lon="10.0174052323">
		<tag k="name" v="Korpetjern" />
		<tag k="ssr:date" v="2019-05-30" />
		<tag k="ssr:gruppe" v="veg" />
		<tag k="ssr:hovedgruppe" v="infrastruktur" />
		<tag k="ssr:stedsnr" v="1034141" />
		<tag k="ssr:type" v="adressenavn" />
	</node>
	<node id="-187433" lat="59.8079187337" lon="10.0210300234">
		<tag k="name" v="Lommetjern" />
		<tag k="ssr:date" v="2019-05-30" />
		<tag k="ssr:gruppe" v="veg" />
		<tag k="ssr:hovedgruppe" v="infrastruktur" />
		<tag k="ssr:stedsnr" v="1034139" />
		<tag k="ssr:type" v="adressenavn" />
	</node>
	<node id="-187432" lat="59.8110229027" lon="9.99682523926">
		<tag k="name" v="Yttervannet" />
		<tag k="ssr:date" v="2019-05-30" />
		<tag k="ssr:gruppe" v="veg" />
		<tag k="ssr:hovedgruppe" v="infrastruktur" />
		<tag k="ssr:stedsnr" v="1034137" />
		<tag k="ssr:type" v="adressenavn" />
	</node>
	<node id="-187431" lat="59.7155386013" lon="9.99409046672">
		<tag k="name" v="Korsgårdseter" />
		<tag k="ssr:date" v="2019-05-30" />
		<tag k="ssr:gruppe" v="veg" />
		<tag k="ssr:hovedgruppe" v="infrastruktur" />
		<tag k="ssr:stedsnr" v="1034135" />
		<tag k="ssr:type" v="adressenavn" />
	</node>
	<node id="-187430" lat="59.693252498" lon="10.0031298702">
		<tag k="name" v="Lauvtjern" />
		<tag k="ssr:date" v="2019-05-30" />
		<tag k="ssr:gruppe" v="veg" />
		<tag k="ssr:hovedgruppe" v="infrastruktur" />
		<tag k="ssr:stedsnr" v="1034133" />
		<tag k="ssr:type" v="adressenavn" />
	</node>
	<node id="-187429" lat="59.8185263722" lon="10.0660777177">
		<tag k="name" v="Svarthamnsetra" />
		<tag k="ssr:date" v="2019-05-30" />
		<tag k="ssr:gruppe" v="veg" />
		<tag k="ssr:hovedgruppe" v="infrastruktur" />
		<tag k="ssr:stedsnr" v="1034132" />
		<tag k="ssr:type" v="adressenavn" />
	</node>
	<node id="-187422" lat="59.7918320216" lon="9.98764608099">
		<tag k="name" v="Ulevannsveien" />
		<tag k="ssr:date" v="2019-11-14" />
		<tag k="ssr:gruppe" v="veg" />
		<tag k="ssr:hovedgruppe" v="infrastruktur" />
		<tag k="ssr:stedsnr" v="1073254" />
		<tag k="ssr:type" v="vegstrekning" />
	</node>
	<node id="-187445" lat="59.7849511455" lon="10.0746440837">
		<tag k="name" v="Eggebekkmyra" />
		<tag k="ssr:date" v="2019-05-30" />
		<tag k="ssr:gruppe" v="veg" />
		<tag k="ssr:hovedgruppe" v="infrastruktur" />
		<tag k="ssr:stedsnr" v="1034147" />
		<tag k="ssr:type" v="adressenavn" />
	</node>
	<node id="-187459" lat="59.7105356452" lon="10.0348948947">
		<tag k="name" v="Kikkut" />
		<tag k="ssr:date" v="2019-05-30" />
		<tag k="ssr:gruppe" v="veg" />
		<tag k="ssr:hovedgruppe" v="infrastruktur" />
		<tag k="ssr:stedsnr" v="1034103" />
		<tag k="ssr:type" v="adressenavn" />
	</node>
</osm>
