<?xml version="1.0" encoding="UTF-8"?>
<osm generator="osmapis" version="0.6">
	<node id="-197768" lat="59.2603027818" lon="10.4193194367">
		<tag k="man_made" v="quay" />
		<tag k="name" v="Kanalbrygga" />
		<tag k="place" v="locality" />
		<tag k="ssr:stedsnr" v="966392" />
	</node>
	<node id="-197766" lat="59.2918833319" lon="10.3446805643">
		<tag k="bridge" v="yes" />
		<tag k="layer" v="1" />
		<tag k="name" v="Aulielva" />
		<tag k="ssr:stedsnr" v="956675" />
	</node>
	<node id="-197765" lat="59.2801194469" lon="10.2857583273">
		<tag k="bridge" v="yes" />
		<tag k="layer" v="1" />
		<tag k="name" v="Tveitan bru" />
		<tag k="ssr:stedsnr" v="956568" />
	</node>
	<node id="-197764" lat="59.2815249999" lon="10.3665138953">
		<tag k="barrier" v="toll_booth" />
		<tag k="name" v="Auli" />
		<tag k="ssr:stedsnr" v="949667" />
	</node>
	<node id="-197763" lat="59.2497083348" lon="10.4684361088">
		<tag k="name" v="Fagersand" />
		<tag k="natural" v="beach" />
		<tag k="place" v="locality" />
		<tag k="ssr:stedsnr" v="938791" />
	</node>
	<node id="-197762" lat="59.3540305556" lon="10.419338896">
		<tag k="name" v="Myre" />
		<tag k="place" v="farm" />
		<tag k="ssr:stedsnr" v="938385" />
	</node>
	<node id="-197761" lat="59.3471000038" lon="10.4790833346">
		<tag k="fixme" v="consider seamark:type=rock or natural=shoal" />
		<tag k="name" v="Hausen" />
		<tag k="place" v="islet" />
		<tag k="ssr:stedsnr" v="938099" />
	</node>
	<node id="-197760" lat="59.3276666648" lon="10.3730444513">
		<tag k="name" v="Tveitelva" />
		<tag k="ssr:stedsnr" v="937788" />
		<tag k="waterway" v="stream" />
	</node>
	<node id="-197759" lat="59.3247416689" lon="10.3720361178">
		<tag k="name" v="Eikebergmyra" />
		<tag k="place" v="locality" />
		<tag k="ssr:stedsnr" v="937782" />
	</node>
	<node id="-197758" lat="59.2973972266" lon="10.3480750035">
		<tag k="name" v="Åskollen" />
		<tag k="natural" v="hill" />
		<tag k="place" v="locality" />
		<tag k="ssr:stedsnr" v="937770" />
	</node>
	<node id="-197757" lat="59.3153027736" lon="10.4965500008">
		<tag k="name" v="Tufta" />
		<tag k="place" v="locality" />
		<tag k="ssr:stedsnr" v="937229" />
	</node>
	<node id="-197756" lat="59.3234555597" lon="10.5130444503">
		<tag k="name" v="Esso Raffineriet Norge A/S" />
		<tag k="place" v="quarter" />
		<tag k="ssr:stedsnr" v="937225" />
	</node>
	<node id="-197755" lat="59.2968527774" lon="10.5108361168">
		<tag k="name" v="Skogsnaret" />
		<tag k="place" v="locality" />
		<tag k="ssr:stedsnr" v="937218" />
	</node>
	<node id="-197754" lat="59.2606305539" lon="10.3480166624">
		<tag k="fixme" v="consider natural=peak for the most distinct mountains in the district" />
		<tag k="name" v="Fløyåsen" />
		<tag k="natural" v="hill" />
		<tag k="place" v="locality" />
		<tag k="ssr:stedsnr" v="936390" />
	</node>
	<node id="-197753" lat="59.2971333377" lon="10.4152000003">
		<tag k="amenity" v="school" />
		<tag k="name" v="Kongseik skole" />
		<tag k="ssr:stedsnr" v="935788" />
	</node>
	<node id="-197752" lat="59.2971694444" lon="10.4049527722">
		<tag k="name" v="Plassen" />
		<tag k="place" v="farm" />
		<tag k="ssr:stedsnr" v="935787" />
	</node>
	<node id="-197751" lat="59.3231611106" lon="10.4498277705">
		<tag k="fixme" v="consider place=hamlet" />
		<tag k="name" v="Kroks-Rom" />
		<tag k="place" v="farm" />
		<tag k="ssr:stedsnr" v="935779" />
	</node>
	<node id="-197750" lat="59.3198527808" lon="10.3854027847">
		<tag k="alt_name" v="Østre Eikeberg" />
		<tag k="fixme" v="consider place=hamlet" />
		<tag k="name" v="Eikeberg" />
		<tag k="place" v="farm" />
		<tag k="ssr:stedsnr" v="935775" />
	</node>
	<node id="-197749" lat="59.2808305528" lon="10.4079944525">
		<tag k="name" v="Stenmalen" />
		<tag k="place" v="locality" />
		<tag k="ssr:stedsnr" v="935744" />
	</node>
	<node id="-197748" lat="59.3382361071" lon="10.4407444409">
		<tag k="name" v="Langemyra" />
		<tag k="place" v="locality" />
		<tag k="ssr:stedsnr" v="935821" />
	</node>
	<node id="-197747" lat="59.3142305593" lon="10.4914750062">
		<tag k="name" v="Knatten" />
		<tag k="place" v="farm" />
		<tag k="ssr:stedsnr" v="935804" />
	</node>
	<node id="-197746" lat="59.2704305526" lon="10.3573583266">
		<tag k="name" v="Bjelland" />
		<tag k="place" v="quarter" />
		<tag k="ssr:stedsnr" v="935409" />
	</node>
	<node id="-197745" lat="59.2740527816" lon="10.3876333409">
		<tag k="fixme" v="consider boundary=protected_area and relevant protect_class if not nature reserve" />
		<tag k="leisure" v="nature_reserve" />
		<tag k="name" v="Ilene naturreservat" />
		<tag k="ssr:stedsnr" v="935406" />
	</node>
	<node id="-197744" lat="59.2563111108" lon="10.350019447">
		<tag k="fixme" v="consider natural=peak for the most distinct mountains in the district" />
		<tag k="name" v="Råstadåsen" />
		<tag k="natural" v="hill" />
		<tag k="place" v="locality" />
		<tag k="ssr:stedsnr" v="935387" />
	</node>
	<node id="-197743" lat="59.2585892876" lon="10.4971187562">
		<tag k="name" v="Vallø" />
		<tag k="natural" v="cape" />
		<tag k="ssr:stedsnr" v="931044" />
	</node>
	<node id="-197742" lat="59.2880888933" lon="10.3297888859">
		<tag k="name" v="Aulerød" />
		<tag k="place" v="farm" />
		<tag k="ssr:stedsnr" v="914848" />
	</node>
	<node id="-197741" lat="59.2938194402" lon="10.3351694451">
		<tag k="name" v="Låne" />
		<tag k="place" v="farm" />
		<tag k="ssr:stedsnr" v="913861" />
	</node>
	<node id="-197740" lat="59.2884944462" lon="10.3411055567">
		<tag k="name" v="Ra" />
		<tag k="place" v="farm" />
		<tag k="ssr:stedsnr" v="913860" />
	</node>
	<node id="-197739" lat="59.279044446" lon="10.3689555515">
		<tag k="leisure" v="pitch" />
		<tag k="name" v="Jarlsberg travbane" />
		<tag k="ssr:stedsnr" v="913634" />
	</node>
	<node id="-197738" lat="59.32085" lon="10.4200111127">
		<tag k="alt_name" v="Rakkås N;Nordre Rakkås" />
		<tag k="fixme" v="consider place=hamlet" />
		<tag k="name" v="Rakkås" />
		<tag k="place" v="farm" />
		<tag k="ssr:stedsnr" v="913589" />
	</node>
	<node id="-197737" lat="59.3143333346" lon="10.517141662">
		<tag k="name" v="Slagentangen" />
		<tag k="place" v="quarter" />
		<tag k="ssr:stedsnr" v="913587" />
	</node>
	<node id="-197736" lat="59.3350388908" lon="10.4683694414">
		<tag k="fixme" v="consider place=hamlet" />
		<tag k="name" v="Hallingrød" />
		<tag k="place" v="farm" />
		<tag k="ssr:stedsnr" v="913571" />
	</node>
	<node id="-197735" lat="59.3332555563" lon="10.406080553">
		<tag k="name" v="Skotte" />
		<tag k="place" v="farm" />
		<tag k="ssr:stedsnr" v="913566" />
	</node>
	<node id="-197734" lat="59.3430500045" lon="10.5462749919">
		<tag k="name" v="Hauken" />
		<tag k="natural" v="shoal" />
		<tag k="place" v="locality" />
		<tag k="ssr:stedsnr" v="913562" />
	</node>
	<node id="-197733" lat="59.2875055526" lon="10.4506055631">
		<tag k="fixme" v="consider place=hamlet" />
		<tag k="name" v="Røren" />
		<tag k="place" v="farm" />
		<tag k="ssr:stedsnr" v="912672" />
	</node>
	<node id="-197732" lat="59.3091277766" lon="10.4118999924">
		<tag k="name" v="Bruserød" />
		<tag k="place" v="farm" />
		<tag k="ssr:stedsnr" v="912648" />
	</node>
	<node id="-197731" lat="59.2457527759" lon="10.3560166726">
		<tag k="fixme" v="consider natural=peak for the most distinct mountains in the district" />
		<tag k="name" v="Robergåsen" />
		<tag k="natural" v="hill" />
		<tag k="place" v="locality" />
		<tag k="ssr:stedsnr" v="907132" />
	</node>
	<node id="-197730" lat="59.2495055511" lon="10.4744250035">
		<tag k="man_made" v="quay" />
		<tag k="name" v="Husvikbrygga" />
		<tag k="place" v="locality" />
		<tag k="ssr:stedsnr" v="905004" />
	</node>
	<node id="-197729" lat="59.339708334" lon="10.4197277727">
		<tag k="name" v="Jareteigen S" />
		<tag k="place" v="farm" />
		<tag k="ssr:stedsnr" v="878453" />
	</node>
	<node id="-197728" lat="59.3153111091" lon="10.37664722">
		<tag k="name" v="Eikeberg" />
		<tag k="place" v="farm" />
		<tag k="ssr:stedsnr" v="877788" />
	</node>
	<node id="-197727" lat="59.3082027803" lon="10.3558138836">
		<tag k="alt_name" v="Nordre Fadum" />
		<tag k="fixme" v="consider place=hamlet" />
		<tag k="name" v="Fadum N" />
		<tag k="place" v="farm" />
		<tag k="ssr:stedsnr" v="877759" />
	</node>
	<node id="-197726" lat="59.3147694407" lon="10.4952694496">
		<tag k="amenity" v="community_centre" />
		<tag k="name" v="Fram ungd.lokale" />
		<tag k="ssr:stedsnr" v="876203" />
	</node>
	<node id="-197725" lat="59.3092187182" lon="10.5062012239">
		<tag k="alt_name" v="Korterød" />
		<tag k="name" v="Korterød" />
		<tag k="place" v="farm" />
		<tag k="ssr:stedsnr" v="876200" />
	</node>
	<node id="-197724" lat="59.3021972256" lon="10.49630278">
		<tag k="name" v="Myra" />
		<tag k="place" v="farm" />
		<tag k="ssr:stedsnr" v="876197" />
	</node>
	<node id="-197723" lat="59.2582277743" lon="10.3490000032">
		<tag k="fixme" v="consider natural=peak for the most distinct mountains in the district" />
		<tag k="name" v="Storåsen" />
		<tag k="natural" v="hill" />
		<tag k="place" v="locality" />
		<tag k="ssr:stedsnr" v="875412" />
	</node>
	<node id="-197722" lat="59.2569138895" lon="10.3545444505">
		<tag k="name" v="Vearmyr" />
		<tag k="natural" v="wetland" />
		<tag k="ssr:stedsnr" v="875409" />
	</node>
	<node id="-197721" lat="59.2541916641" lon="10.3715555567">
		<tag k="name" v="Utkikken" />
		<tag k="natural" v="cliff" />
		<tag k="ssr:stedsnr" v="875406" />
	</node>
	<node id="-197720" lat="59.2593277802" lon="10.3586472305">
		<tag k="amenity" v="school" />
		<tag k="name" v="Vear skole" />
		<tag k="ssr:stedsnr" v="875398" />
	</node>
	<node id="-197719" lat="59.2471999969" lon="10.471133335">
		<tag k="name" v="Jarlsøsundet" />
		<tag k="natural" v="strait" />
		<tag k="ssr:stedsnr" v="874999" />
	</node>
	<node id="-197718" lat="59.2479250035" lon="10.450880554">
		<tag k="amenity" v="nursing_home" />
		<tag k="name" v="Marie Treschows Minde" />
		<tag k="ssr:stedsnr" v="874945" />
	</node>
	<node id="-197717" lat="59.3485194428" lon="10.440780561">
		<tag k="name" v="Gullerød" />
		<tag k="place" v="farm" />
		<tag k="ssr:stedsnr" v="874821" />
	</node>
	<node id="-197716" lat="59.340222221" lon="10.4788944464">
		<tag k="name" v="Stangåsen" />
		<tag k="natural" v="hill" />
		<tag k="place" v="locality" />
		<tag k="ssr:stedsnr" v="874815" />
	</node>
	<node id="-197715" lat="59.3135972212" lon="10.476424997">
		<tag k="name" v="Langbrekke" />
		<tag k="natural" v="hill" />
		<tag k="place" v="locality" />
		<tag k="ssr:stedsnr" v="874802" />
	</node>
	<node id="-197714" lat="59.3049111117" lon="10.4432583411">
		<tag k="amenity" v="school" />
		<tag k="name" v="Klokkeråsen skole" />
		<tag k="ssr:stedsnr" v="874792" />
	</node>
	<node id="-197713" lat="59.3190972221" lon="10.4436305481">
		<tag k="name" v="Slagenbekken" />
		<tag k="ssr:stedsnr" v="874783" />
		<tag k="waterway" v="stream" />
	</node>
	<node id="-197712" lat="59.2936611068" lon="10.4086972194">
		<tag k="name" v="Syrebekk" />
		<tag k="ssr:stedsnr" v="874782" />
		<tag k="waterway" v="stream" />
	</node>
	<node id="-197711" lat="59.3223416641" lon="10.3967083332">
		<tag k="alt_name" v="Nordre Fresje" />
		<tag k="fixme" v="consider place=hamlet" />
		<tag k="name" v="Fritsø N" />
		<tag k="place" v="farm" />
		<tag k="ssr:stedsnr" v="874777" />
	</node>
	<node id="-197710" lat="59.3309611106" lon="10.3827250008">
		<tag k="fixme" v="consider place=hamlet" />
		<tag k="name" v="Tveiten" />
		<tag k="place" v="farm" />
		<tag k="ssr:stedsnr" v="874773" />
	</node>
	<node id="-197709" lat="59.2717361113" lon="10.4735361161">
		<tag k="name" v="Langvald" />
		<tag k="place" v="isolated_dwelling" />
		<tag k="ssr:stedsnr" v="874766" />
	</node>
	<node id="-197708" lat="59.2751805529" lon="10.4386694415">
		<tag k="fixme" v="consider natural=peak for the most distinct mountains in the district" />
		<tag k="name" v="Presterødåsen" />
		<tag k="natural" v="hill" />
		<tag k="place" v="locality" />
		<tag k="ssr:stedsnr" v="874759" />
	</node>
	<node id="-197707" lat="59.2735555528" lon="10.3659833287">
		<tag k="name" v="Hogsnes" />
		<tag k="place" v="village" />
		<tag k="ssr:stedsnr" v="874412" />
	</node>
	<node id="-197706" lat="59.2861888877" lon="10.3779527825">
		<tag k="name" v="Gullkrona" />
		<tag k="place" v="locality" />
		<tag k="ssr:stedsnr" v="874409" />
	</node>
	<node id="-197705" lat="59.301419446" lon="10.2793055578">
		<tag k="name" v="Dalen" />
		<tag k="place" v="isolated_dwelling" />
		<tag k="ssr:stedsnr" v="853822" />
	</node>
	<node id="-197704" lat="59.2671583302" lon="10.3561416654">
		<tag k="name" v="Bjelland" />
		<tag k="place" v="locality" />
		<tag k="ssr:stedsnr" v="853654" />
	</node>
	<node id="-197703" lat="59.3355638884" lon="10.3686055559">
		<tag k="alt_name" v="Mellem Undrum" />
		<tag k="fixme" v="consider place=hamlet" />
		<tag k="name" v="Undrum" />
		<tag k="place" v="farm" />
		<tag k="ssr:stedsnr" v="852573" />
	</node>
	<node id="-197702" lat="59.2446027785" lon="10.4738916611">
		<tag k="name" v="Jarlsø" />
		<tag k="place" v="island" />
		<tag k="ssr:stedsnr" v="851009" />
	</node>
	<node id="-197701" lat="59.24645" lon="10.5019249936">
		<tag k="name" v="Torgersøya" />
		<tag k="place" v="island" />
		<tag k="ssr:stedsnr" v="851003" />
	</node>
	<node id="-197700" lat="59.2690888908" lon="10.4041749916">
		<tag k="amenity" v="place_of_worship" />
		<tag k="denomination" v="lutheran" />
		<tag k="name" v="Tønsberg domkirke" />
		<tag k="religion" v="christian" />
		<tag k="ssr:stedsnr" v="845389" />
	</node>
	<node id="-197699" lat="59.2653583292" lon="10.4806000066">
		<tag k="name" v="England" />
		<tag k="place" v="isolated_dwelling" />
		<tag k="ssr:stedsnr" v="845326" />
	</node>
	<node id="-197698" lat="59.241941667" lon="10.4504305568">
		<tag k="name" v="Kalvetangbukta" />
		<tag k="natural" v="bay" />
		<tag k="ssr:stedsnr" v="845247" />
	</node>
	<node id="-197697" lat="59.2746972253" lon="10.4775805501">
		<tag k="name" v="Tolvsrød" />
		<tag k="place" v="suburb" />
		<tag k="ssr:stedsnr" v="840751" />
	</node>
	<node id="-197696" lat="59.2908138894" lon="10.3263666704">
		<tag k="bridge" v="yes" />
		<tag k="layer" v="1" />
		<tag k="name" v="Lensberg" />
		<tag k="ssr:stedsnr" v="835556" />
	</node>
	<node id="-197695" lat="59.2854028287" lon="10.3956271079">
		<tag k="barrier" v="toll_booth" />
		<tag k="name" v="Kjelle" />
		<tag k="ssr:stedsnr" v="828670" />
	</node>
	<node id="-197694" lat="59.2616722266" lon="10.4163416693">
		<tag k="barrier" v="toll_booth" />
		<tag k="name" v="Kanalen" />
		<tag k="ssr:stedsnr" v="828480" />
	</node>
	<node id="-197693" lat="59.3404083312" lon="10.370158342">
		<tag k="name" v="Undrum nordre" />
		<tag k="place" v="farm" />
		<tag k="ssr:stedsnr" v="816841" />
	</node>
	<node id="-197692" lat="59.3460555555" lon="10.357666664">
		<tag k="fixme" v="consider natural=peak for the most distinct mountains in the district" />
		<tag k="name" v="Signalen" />
		<tag k="natural" v="hill" />
		<tag k="place" v="locality" />
		<tag k="ssr:stedsnr" v="816827" />
	</node>
	<node id="-197691" lat="59.322108335" lon="10.3551027842">
		<tag k="fixme" v="consider natural=peak for the most distinct mountains in the district" />
		<tag k="name" v="Storås" />
		<tag k="natural" v="hill" />
		<tag k="place" v="locality" />
		<tag k="ssr:stedsnr" v="816793" />
	</node>
	<node id="-197690" lat="59.3051638883" lon="10.3212777758">
		<tag k="name" v="Vermeli" />
		<tag k="place" v="farm" />
		<tag k="ssr:stedsnr" v="816772" />
	</node>
	<node id="-197689" lat="59.3092611112" lon="10.5274138895">
		<tag k="alt_name" v="Dyrnes" />
		<tag k="name" v="Dyrnesodden" />
		<tag k="natural" v="cape" />
		<tag k="ssr:stedsnr" v="816194" />
	</node>
	<node id="-197688" lat="59.2916361088" lon="10.5028472181">
		<tag k="alt_name" v="Skallevoldbukta" />
		<tag k="name" v="Skallevollbukta" />
		<tag k="natural" v="bay" />
		<tag k="ssr:stedsnr" v="815877" />
	</node>
	<node id="-197687" lat="59.285888891" lon="10.4964833318">
		<tag k="name" v="Nordre Ringshaug" />
		<tag k="place" v="quarter" />
		<tag k="ssr:stedsnr" v="815199" />
	</node>
	<node id="-197686" lat="59.249013186" lon="10.4508991793">
		<tag k="alt_name" v="Nordre Nes;Nes Nordre" />
		<tag k="name" v="N. Nes" />
		<tag k="place" v="farm" />
		<tag k="ssr:stedsnr" v="814974" />
	</node>
	<node id="-197685" lat="59.2710416658" lon="10.4448750025">
		<tag k="fixme" v="consider boundary=protected_area and relevant protect_class if not nature reserve" />
		<tag k="leisure" v="nature_reserve" />
		<tag k="name" v="Presterødkilen" />
		<tag k="ssr:stedsnr" v="814853" />
	</node>
	<node id="-197684" lat="59.3020694401" lon="10.4715777841">
		<tag k="name" v="Kjelderbakken" />
		<tag k="natural" v="slope" />
		<tag k="place" v="locality" />
		<tag k="ssr:stedsnr" v="814812" />
	</node>
	<node id="-197683" lat="59.2941388922" lon="10.4543777704">
		<tag k="name" v="Haug Basberg" />
		<tag k="place" v="farm" />
		<tag k="ssr:stedsnr" v="814800" />
	</node>
	<node id="-197682" lat="59.3010972204" lon="10.4318499967">
		<tag k="name" v="Vestbakken" />
		<tag k="place" v="farm" />
		<tag k="ssr:stedsnr" v="814797" />
	</node>
	<node id="-197681" lat="59.3044222202" lon="10.4315666753">
		<tag k="name" v="Prestelia" />
		<tag k="natural" v="slope" />
		<tag k="place" v="locality" />
		<tag k="ssr:stedsnr" v="814788" />
	</node>
	<node id="-197680" lat="59.3360361115" lon="10.47951389">
		<tag k="fixme" v="consider natural=peak for the most distinct mountains in the district" />
		<tag k="name" v="Rønningåsen" />
		<tag k="natural" v="hill" />
		<tag k="place" v="locality" />
		<tag k="ssr:stedsnr" v="814780" />
	</node>
	<node id="-197679" lat="59.2565194477" lon="10.4768999955">
		<tag k="name" v="Frydenlund" />
		<tag k="place" v="isolated_dwelling" />
		<tag k="ssr:stedsnr" v="814779" />
	</node>
	<node id="-197678" lat="59.2737916705" lon="10.443869449">
		<tag k="name" v="Presterød" />
		<tag k="place" v="village" />
		<tag k="ssr:stedsnr" v="814763" />
	</node>
	<node id="-197677" lat="59.293188887" lon="10.4892055555">
		<tag k="name" v="Brekke" />
		<tag k="place" v="farm" />
		<tag k="ssr:stedsnr" v="814757" />
	</node>
	<node id="-197676" lat="59.2802527767" lon="10.4287361178">
		<tag k="name" v="Trudvanglia" />
		<tag k="natural" v="slope" />
		<tag k="place" v="locality" />
		<tag k="ssr:stedsnr" v="814751" />
	</node>
	<node id="-197675" lat="59.258886115" lon="10.3646305494">
		<tag k="fixme" v="consider natural=peak for the most distinct mountains in the district" />
		<tag k="name" v="Høgås" />
		<tag k="natural" v="hill" />
		<tag k="place" v="locality" />
		<tag k="ssr:stedsnr" v="814430" />
	</node>
	<node id="-197674" lat="59.2694722238" lon="10.3761833339">
		<tag k="name" v="Smørberg" />
		<tag k="place" v="farm" />
		<tag k="ssr:stedsnr" v="798639" />
	</node>
	<node id="-197673" lat="59.2818741592" lon="10.319440563">
		<tag k="fixme" v="consider place=hamlet" />
		<tag k="name" v="Tem" />
		<tag k="place" v="farm" />
		<tag k="ssr:stedsnr" v="792834" />
	</node>
	<node id="-197672" lat="59.2675083365" lon="10.4076361066">
		<tag k="name" v="Tønsberg" />
		<tag k="place" v="town" />
		<tag k="ssr:stedsnr" v="792644" />
	</node>
	<node id="-197671" lat="59.274183334" lon="10.3533861167">
		<tag k="name" v="Bjelland" />
		<tag k="place" v="farm" />
		<tag k="ssr:stedsnr" v="792638" />
	</node>
	<node id="-197670" lat="59.2932805585" lon="10.4064833249">
		<tag k="name" v="Syrbekk" />
		<tag k="place" v="farm" />
		<tag k="ssr:stedsnr" v="791647" />
	</node>
	<node id="-197669" lat="59.2940166653" lon="10.4203194467">
		<tag k="name" v="Eik" />
		<tag k="place" v="village" />
		<tag k="ssr:stedsnr" v="791646" />
	</node>
	<node id="-197668" lat="59.289605558" lon="10.348080551">
		<tag k="name" v="Broen" />
		<tag k="place" v="farm" />
		<tag k="ssr:stedsnr" v="791641" />
	</node>
	<node id="-197667" lat="59.3096527765" lon="10.4529638885">
		<tag k="alt_name" v="Store Oseberg" />
		<tag k="fixme" v="consider place=hamlet" />
		<tag k="name" v="Oseberg" />
		<tag k="place" v="farm" />
		<tag k="ssr:stedsnr" v="791628" />
	</node>
	<node id="-197666" lat="59.3024972258" lon="10.4231083322">
		<tag k="alt_name" v="Eik, nordre" />
		<tag k="name" v="Nordre Eik" />
		<tag k="place" v="farm" />
		<tag k="ssr:stedsnr" v="791619" />
	</node>
	<node id="-197665" lat="59.2974972258" lon="10.3570333363">
		<tag k="name" v="Ås" />
		<tag k="place" v="hamlet" />
		<tag k="ssr:stedsnr" v="791616" />
	</node>
	<node id="-197664" lat="59.3209555572" lon="10.502308337">
		<tag k="name" v="Hytten" />
		<tag k="place" v="farm" />
		<tag k="ssr:stedsnr" v="791602" />
	</node>
	<node id="-197663" lat="59.3360249982" lon="10.4898944409">
		<tag k="fixme" v="consider seamark:type=rock or natural=shoal" />
		<tag k="name" v="Guriskjæret" />
		<tag k="place" v="islet" />
		<tag k="ssr:stedsnr" v="791576" />
	</node>
	<node id="-197662" lat="59.2594027792" lon="10.4194249961">
		<tag k="man_made" v="quay" />
		<tag k="name" v="Kanalbrygga (Nøtterøysida)" />
		<tag k="place" v="locality" />
		<tag k="ssr:stedsnr" v="784406" />
	</node>
	<node id="-197661" lat="59.2930250013" lon="10.3471111191">
		<tag k="bridge" v="yes" />
		<tag k="layer" v="1" />
		<tag k="name" v="Bispevegen kulvert" />
		<tag k="ssr:stedsnr" v="774677" />
	</node>
	<node id="-197660" lat="59.2841611078" lon="10.4128166709">
		<tag k="bridge" v="yes" />
		<tag k="layer" v="1" />
		<tag k="name" v="Grevskogen" />
		<tag k="ssr:stedsnr" v="774568" />
	</node>
	<node id="-197659" lat="59.2595611129" lon="10.48048611">
		<tag k="name" v="Helodden" />
		<tag k="natural" v="cape" />
		<tag k="ssr:stedsnr" v="756114" />
	</node>
	<node id="-197658" lat="59.267444448" lon="10.4432833272">
		<tag k="name" v="Hagen" />
		<tag k="place" v="farm" />
		<tag k="ssr:stedsnr" v="756029" />
	</node>
	<node id="-197657" lat="59.3213333378" lon="10.3653638924">
		<tag k="fixme" v="consider natural=peak for the most distinct mountains in the district" />
		<tag k="name" v="Gulliåsen" />
		<tag k="natural" v="hill" />
		<tag k="place" v="locality" />
		<tag k="ssr:stedsnr" v="755769" />
	</node>
	<node id="-197656" lat="59.2776166679" lon="10.3226138827">
		<tag k="name" v="Lasken" />
		<tag k="place" v="locality" />
		<tag k="ssr:stedsnr" v="755673" />
	</node>
	<node id="-197655" lat="59.3161196143" lon="10.5289016318">
		<tag k="name" v="Slagentangen" />
		<tag k="natural" v="cape" />
		<tag k="ssr:stedsnr" v="755193" />
	</node>
	<node id="-197653" lat="59.3033472182" lon="10.3891999983">
		<tag k="name" v="Hestehagen" />
		<tag k="place" v="locality" />
		<tag k="ssr:stedsnr" v="753767" />
	</node>
	<node id="-197652" lat="59.3105944484" lon="10.4092944451">
		<tag k="name" v="Bruserød" />
		<tag k="place" v="locality" />
		<tag k="ssr:stedsnr" v="753765" />
	</node>
	<node id="-197651" lat="59.3221707775" lon="10.4703769198">
		<tag k="alt_name" v="Mellem Rørås" />
		<tag k="fixme" v="consider place=hamlet" />
		<tag k="name" v="Rørås" />
		<tag k="place" v="farm" />
		<tag k="ssr:stedsnr" v="753762" />
	</node>
	<node id="-197650" lat="59.2585583329" lon="10.4763861081">
		<tag k="name" v="Kloppbukta" />
		<tag k="natural" v="bay" />
		<tag k="ssr:stedsnr" v="753746" />
	</node>
	<node id="-197649" lat="59.2859138847" lon="10.4856333393">
		<tag k="amenity" v="school" />
		<tag k="name" v="Ringshaug ungd.skole" />
		<tag k="ssr:stedsnr" v="753728" />
	</node>
	<node id="-197648" lat="59.2926333291" lon="10.4692388845">
		<tag k="name" v="Pyttene" />
		<tag k="place" v="locality" />
		<tag k="ssr:stedsnr" v="753712" />
	</node>
	<node id="-197647" lat="59.2676972236" lon="10.3777833406">
		<tag k="name" v="Smørbergstranda" />
		<tag k="natural" v="beach" />
		<tag k="place" v="locality" />
		<tag k="ssr:stedsnr" v="753356" />
	</node>
	<node id="-197646" lat="59.2656718479" lon="10.3697652772">
		<tag k="name" v="Smørbergrønningen" />
		<tag k="place" v="locality" />
		<tag k="ssr:stedsnr" v="753347" />
	</node>
	<node id="-197645" lat="59.2586388871" lon="10.4752805601">
		<tag k="fixme" v="consider place=suburb, village or hamlet" />
		<tag k="name" v="Klopp" />
		<tag k="place" v="quarter" />
		<tag k="ssr:stedsnr" v="748039" />
	</node>
	<node id="-197644" lat="59.2907277771" lon="10.2944249976">
		<tag k="fixme" v="consider place=hamlet" />
		<tag k="name" v="Rygg" />
		<tag k="place" v="farm" />
		<tag k="ssr:stedsnr" v="731863" />
	</node>
	<node id="-197643" lat="59.2893194455" lon="10.3067111085">
		<tag k="name" v="Hesby" />
		<tag k="place" v="farm" />
		<tag k="ssr:stedsnr" v="731861" />
	</node>
	<node id="-197642" lat="59.3114999978" lon="10.2917361116">
		<tag k="fixme" v="consider place=hamlet" />
		<tag k="name" v="Tollerød" />
		<tag k="place" v="farm" />
		<tag k="ssr:stedsnr" v="731838" />
	</node>
	<node id="-197641" lat="59.2982333333" lon="10.3240694366">
		<tag k="alt_name" v="Nedre Grette" />
		<tag k="fixme" v="consider place=hamlet" />
		<tag k="name" v="Grette" />
		<tag k="place" v="farm" />
		<tag k="ssr:stedsnr" v="731818" />
	</node>
	<node id="-197640" lat="59.3150916644" lon="10.3249361048">
		<tag k="alt_name" v="Vestre Kjær" />
		<tag k="fixme" v="consider place=hamlet" />
		<tag k="name" v="Kjær" />
		<tag k="place" v="farm" />
		<tag k="ssr:stedsnr" v="731782" />
	</node>
	<node id="-197639" lat="59.2965499976" lon="10.5009472296">
		<tag k="fixme" v="consider place=hamlet" />
		<tag k="name" v="Skallevoll" />
		<tag k="place" v="farm" />
		<tag k="ssr:stedsnr" v="730684" />
	</node>
	<node id="-197638" lat="59.2384222267" lon="10.4647416658">
		<tag k="name" v="Husøy" />
		<tag k="place" v="island" />
		<tag k="ssr:stedsnr" v="730025" />
	</node>
	<node id="-197637" lat="59.2658500037" lon="10.4597249938">
		<tag k="alt_name" v="S. Slagen kirke" />
		<tag k="amenity" v="place_of_worship" />
		<tag k="denomination" v="lutheran" />
		<tag k="name" v="Søndre Slagen" />
		<tag k="religion" v="christian" />
		<tag k="ssr:stedsnr" v="731616" />
	</node>
	<node id="-197636" lat="59.2651111077" lon="10.4517055598">
		<tag k="name" v="Råel" />
		<tag k="place" v="farm" />
		<tag k="ssr:stedsnr" v="731614" />
	</node>
	<node id="-197635" lat="59.3098305536" lon="10.514011106">
		<tag k="name" v="Bakkeskog" />
		<tag k="place" v="locality" />
		<tag k="ssr:stedsnr" v="723799" />
	</node>
	<node id="-197634" lat="59.2725833338" lon="10.4084249935">
		<tag k="name" v="Tønsberg" />
		<tag k="railway" v="station" />
		<tag k="ssr:stedsnr" v="723362" />
		<tag k="train" v="yes" />
	</node>
	<node id="-197632" lat="59.2387027817" lon="10.4526944501">
		<tag k="bridge" v="yes" />
		<tag k="layer" v="1" />
		<tag k="name" v="Husøy" />
		<tag k="ssr:stedsnr" v="714610" />
	</node>
	<node id="-197631" lat="59.3076500035" lon="10.3440250026">
		<tag k="alt_name" v="Mellem Fadum" />
		<tag k="fixme" v="consider place=hamlet" />
		<tag k="name" v="Fadum" />
		<tag k="place" v="farm" />
		<tag k="ssr:stedsnr" v="695750" />
	</node>
	<node id="-197630" lat="59.2723749985" lon="10.321736106">
		<tag k="name" v="Langerød" />
		<tag k="place" v="village" />
		<tag k="ssr:stedsnr" v="695687" />
	</node>
	<node id="-197629" lat="59.2616055582" lon="10.4970138865">
		<tag k="name" v="Tau renseanlegg" />
		<tag k="place" v="quarter" />
		<tag k="ssr:stedsnr" v="694177" />
	</node>
	<node id="-197628" lat="59.2861749963" lon="10.4093444499">
		<tag k="name" v="Grevskogen" />
		<tag k="place" v="locality" />
		<tag k="ssr:stedsnr" v="692981" />
	</node>
	<node id="-197627" lat="59.3097777801" lon="10.4749555635">
		<tag k="name" v="Amerika" />
		<tag k="place" v="farm" />
		<tag k="ssr:stedsnr" v="692799" />
	</node>
	<node id="-197626" lat="59.295697225" lon="10.4396611133">
		<tag k="name" v="Velle" />
		<tag k="place" v="farm" />
		<tag k="ssr:stedsnr" v="692792" />
	</node>
	<node id="-197625" lat="59.3036944481" lon="10.429897214">
		<tag k="fixme" v="consider place=hamlet" />
		<tag k="name" v="Sem prestegård" />
		<tag k="place" v="farm" />
		<tag k="ssr:stedsnr" v="692782" />
	</node>
	<node id="-197624" lat="59.2578694404" lon="10.4513527779">
		<tag k="fixme" v="consider natural=peak for the most distinct mountains in the district" />
		<tag k="name" v="Teigenåsen" />
		<tag k="natural" v="hill" />
		<tag k="place" v="locality" />
		<tag k="ssr:stedsnr" v="692753" />
	</node>
	<node id="-197623" lat="59.2607611126" lon="10.4625472258">
		<tag k="fixme" v="consider natural=peak for the most distinct mountains in the district" />
		<tag k="name" v="Skjerpåsen" />
		<tag k="natural" v="hill" />
		<tag k="place" v="locality" />
		<tag k="ssr:stedsnr" v="692750" />
	</node>
	<node id="-197622" lat="59.2621027776" lon="10.4472166601">
		<tag k="name" v="Liabakken" />
		<tag k="natural" v="slope" />
		<tag k="place" v="locality" />
		<tag k="ssr:stedsnr" v="692749" />
	</node>
	<node id="-197621" lat="59.2655444477" lon="10.4440638908">
		<tag k="name" v="Fagervik" />
		<tag k="place" v="quarter" />
		<tag k="ssr:stedsnr" v="692747" />
	</node>
	<node id="-197620" lat="59.2670583341" lon="10.4633888935">
		<tag k="name" v="Rønningen" />
		<tag k="place" v="farm" />
		<tag k="ssr:stedsnr" v="692746" />
	</node>
	<node id="-197619" lat="59.260336108" lon="10.4259055508">
		<tag k="name" v="Træleborgodden" />
		<tag k="natural" v="cape" />
		<tag k="ssr:stedsnr" v="692742" />
	</node>
	<node id="-197618" lat="59.2917611101" lon="10.3685861074">
		<tag k="name" v="Vium" />
		<tag k="place" v="farm" />
		<tag k="ssr:stedsnr" v="692374" />
	</node>
	<node id="-197617" lat="59.2820527769" lon="10.3635083341">
		<tag k="name" v="Rønningen" />
		<tag k="place" v="farm" />
		<tag k="ssr:stedsnr" v="731595" />
	</node>
	<node id="-197616" lat="59.3186166693" lon="10.389705561">
		<tag k="fixme" v="consider place=suburb, village or hamlet" />
		<tag k="name" v="Barkåker" />
		<tag k="place" v="quarter" />
		<tag k="ssr:stedsnr" v="731562" />
	</node>
	<node id="-197615" lat="59.3277555567" lon="10.4687611135">
		<tag k="alt_name" v="Rørås" />
		<tag k="fixme" v="consider place=hamlet" />
		<tag k="name" v="Nordre Rørås" />
		<tag k="place" v="farm" />
		<tag k="ssr:stedsnr" v="731553" />
	</node>
	<node id="-197614" lat="59.2761749986" lon="10.3129500068">
		<tag k="fixme" v="consider place=hamlet" />
		<tag k="name" v="Askehaug" />
		<tag k="place" v="farm" />
		<tag k="ssr:stedsnr" v="670889" />
	</node>
	<node id="-197613" lat="59.3070277765" lon="10.2971694488">
		<tag k="fixme" v="consider place=hamlet" />
		<tag k="name" v="Smedsrød" />
		<tag k="place" v="farm" />
		<tag k="ssr:stedsnr" v="670825" />
	</node>
	<node id="-197612" lat="59.3080166709" lon="10.3228694509">
		<tag k="fixme" v="consider place=hamlet" />
		<tag k="name" v="Vermeli" />
		<tag k="place" v="farm" />
		<tag k="ssr:stedsnr" v="670823" />
	</node>
	<node id="-197611" lat="59.2691250025" lon="10.4892499951">
		<tag k="name" v="Nordby" />
		<tag k="place" v="farm" />
		<tag k="ssr:stedsnr" v="670656" />
	</node>
	<node id="-197610" lat="59.2614833354" lon="10.4814277853">
		<tag k="name" v="Bogen" />
		<tag k="place" v="farm" />
		<tag k="ssr:stedsnr" v="670646" />
	</node>
	<node id="-197609" lat="59.2594388894" lon="10.3726555616">
		<tag k="name" v="Strand" />
		<tag k="place" v="farm" />
		<tag k="ssr:stedsnr" v="670640" />
	</node>
	<node id="-197608" lat="59.3199027735" lon="10.3960249924">
		<tag k="fixme" v="consider place=hamlet" />
		<tag k="name" v="Fritsø" />
		<tag k="place" v="farm" />
		<tag k="ssr:stedsnr" v="670588" />
	</node>
	<node id="-197607" lat="59.3199416648" lon="10.3792249935">
		<tag k="fixme" v="consider place=hamlet" />
		<tag k="name" v="Eikeberg" />
		<tag k="place" v="farm" />
		<tag k="ssr:stedsnr" v="670587" />
	</node>
	<node id="-197606" lat="59.3316222234" lon="10.4241194517">
		<tag k="alt_name" v="Skibrekk" />
		<tag k="amenity" v="community_centre" />
		<tag k="name" v="Skibrekk skole" />
		<tag k="ssr:stedsnr" v="670578" />
	</node>
	<node id="-197605" lat="59.2950039921" lon="10.4862328069">
		<tag k="alt_name" v="Østre Brekke" />
		<tag k="fixme" v="consider place=hamlet" />
		<tag k="name" v="Brekke" />
		<tag k="place" v="farm" />
		<tag k="ssr:stedsnr" v="669636" />
	</node>
	<node id="-197604" lat="59.2367916701" lon="10.4638972279">
		<tag k="alt_name" v="Husøy kapell" />
		<tag k="amenity" v="place_of_worship" />
		<tag k="denomination" v="lutheran" />
		<tag k="name" v="Husøy" />
		<tag k="religion" v="christian" />
		<tag k="ssr:stedsnr" v="669018" />
	</node>
	<node id="-197603" lat="59.253277782" lon="10.4727972213">
		<tag k="fixme" v="consider natural=peak for the most distinct mountains in the district" />
		<tag k="name" v="Husvikåsen" />
		<tag k="natural" v="hill" />
		<tag k="place" v="locality" />
		<tag k="ssr:stedsnr" v="662004" />
	</node>
	<node id="-197602" lat="59.2851611105" lon="10.3187750077">
		<tag k="bridge" v="yes" />
		<tag k="layer" v="1" />
		<tag k="name" v="Tem driftskulvert" />
		<tag k="ssr:stedsnr" v="652505" />
	</node>
	<node id="-197601" lat="59.2730333291" lon="10.4917749917">
		<tag k="name" v="Furustrand" />
		<tag k="ssr:stedsnr" v="645836" />
		<tag k="tourism" v="camp_site" />
	</node>
	<node id="-197600" lat="59.3167111154" lon="10.4871388816">
		<tag k="name" v="Tufta" />
		<tag k="place" v="farm" />
		<tag k="ssr:stedsnr" v="634099" />
	</node>
	<node id="-197599" lat="59.2801833334" lon="10.5173611102">
		<tag k="name" v="Kultegrunnen" />
		<tag k="natural" v="shoal" />
		<tag k="place" v="locality" />
		<tag k="ssr:stedsnr" v="634088" />
	</node>
	<node id="-197598" lat="59.3377861114" lon="10.3663111056">
		<tag k="name" v="Undrum søndre" />
		<tag k="place" v="farm" />
		<tag k="ssr:stedsnr" v="633842" />
	</node>
	<node id="-197597" lat="59.3377416648" lon="10.3755555581">
		<tag k="name" v="Tveiten" />
		<tag k="place" v="farm" />
		<tag k="ssr:stedsnr" v="633836" />
	</node>
	<node id="-197596" lat="59.3158055549" lon="10.3384611102">
		<tag k="fixme" v="consider natural=peak for the most distinct mountains in the district" />
		<tag k="name" v="Åleborgåsen" />
		<tag k="natural" v="hill" />
		<tag k="place" v="locality" />
		<tag k="ssr:stedsnr" v="633781" />
	</node>
	<node id="-197595" lat="59.3359722252" lon="10.3597861067">
		<tag k="name" v="Trengsla" />
		<tag k="natural" v="valley" />
		<tag k="place" v="locality" />
		<tag k="ssr:stedsnr" v="633775" />
	</node>
	<node id="-197594" lat="59.3022111116" lon="10.2919916717">
		<tag k="name" v="Taranrød" />
		<tag k="place" v="farm" />
		<tag k="ssr:stedsnr" v="633773" />
	</node>
	<node id="-197593" lat="59.2770472253" lon="10.5006777849">
		<tag k="name" v="Ringshaugodden" />
		<tag k="natural" v="cape" />
		<tag k="ssr:stedsnr" v="633233" />
	</node>
	<node id="-197592" lat="59.2800083366" lon="10.4997277825">
		<tag k="fixme" v="consider natural=peak for the most distinct mountains in the district" />
		<tag k="name" v="Kjempeåsen" />
		<tag k="natural" v="hill" />
		<tag k="place" v="locality" />
		<tag k="ssr:stedsnr" v="633231" />
	</node>
	<node id="-197591" lat="59.24485833" lon="10.4616888843">
		<tag k="name" v="Aldershvile" />
		<tag k="place" v="isolated_dwelling" />
		<tag k="ssr:stedsnr" v="632000" />
	</node>
	<node id="-197590" lat="59.2473944415" lon="10.4632277691">
		<tag k="fixme" v="consider natural=peak for the most distinct mountains in the district" />
		<tag k="name" v="Oberståsen" />
		<tag k="natural" v="hill" />
		<tag k="place" v="locality" />
		<tag k="ssr:stedsnr" v="631996" />
	</node>
	<node id="-197589" lat="59.2502777761" lon="10.4710055515">
		<tag k="fixme" v="consider natural=peak for the most distinct mountains in the district" />
		<tag k="name" v="Kikkut" />
		<tag k="natural" v="hill" />
		<tag k="place" v="locality" />
		<tag k="ssr:stedsnr" v="631965" />
	</node>
	<node id="-197588" lat="59.3372999959" lon="10.4711361022">
		<tag k="name" v="Romsrydningen" />
		<tag k="place" v="locality" />
		<tag k="ssr:stedsnr" v="631828" />
	</node>
	<node id="-197587" lat="59.3374888926" lon="10.4869749995">
		<tag k="name" v="Feskjær" />
		<tag k="natural" v="cape" />
		<tag k="ssr:stedsnr" v="631826" />
	</node>
	<node id="-197586" lat="59.3025861101" lon="10.4689388952">
		<tag k="junction" v="yes" />
		<tag k="name" v="Hassum" />
		<tag k="place" v="locality" />
		<tag k="ssr:stedsnr" v="631815" />
	</node>
	<node id="-197585" lat="59.3127972191" lon="10.4678222137">
		<tag k="name" v="Ollebakken" />
		<tag k="place" v="farm" />
		<tag k="ssr:stedsnr" v="631811" />
	</node>
	<node id="-197584" lat="59.3238250026" lon="10.4392527729">
		<tag k="name" v="Rom vestre" />
		<tag k="place" v="farm" />
		<tag k="ssr:stedsnr" v="631778" />
	</node>
	<node id="-197583" lat="59.3356749971" lon="10.4720027773">
		<tag k="name" v="Rønningen" />
		<tag k="place" v="farm" />
		<tag k="ssr:stedsnr" v="631772" />
	</node>
	<node id="-197582" lat="59.2631055544" lon="10.44303056">
		<tag k="name" v="Elverhøy" />
		<tag k="place" v="quarter" />
		<tag k="ssr:stedsnr" v="631759" />
	</node>
	<node id="-197581" lat="59.274663888" lon="10.4186638912">
		<tag k="name" v="Nye kirkegård" />
		<tag k="place" v="locality" />
		<tag k="ssr:stedsnr" v="631741" />
	</node>
	<node id="-197580" lat="59.2597166701" lon="10.3395527861">
		<tag k="name" v="Eldrebukta" />
		<tag k="natural" v="bay" />
		<tag k="ssr:stedsnr" v="631386" />
	</node>
	<node id="-197579" lat="59.271830554" lon="10.3557527784">
		<tag k="fixme" v="consider natural=peak for the most distinct mountains in the district" />
		<tag k="name" v="Bjellandsåsen" />
		<tag k="natural" v="hill" />
		<tag k="place" v="locality" />
		<tag k="ssr:stedsnr" v="631381" />
	</node>
	<node id="-197577" lat="59.2710166657" lon="10.3713333332">
		<tag k="fixme" v="consider place=hamlet" />
		<tag k="name" v="Hogsnes" />
		<tag k="place" v="farm" />
		<tag k="ssr:stedsnr" v="609629" />
	</node>
	<node id="-197576" lat="59.257268271" lon="10.362904753">
		<tag k="alt_name" v="Vear S;Søndre Veer" />
		<tag k="fixme" v="consider place=hamlet" />
		<tag k="name" v="Vear" />
		<tag k="place" v="farm" />
		<tag k="ssr:stedsnr" v="609623" />
	</node>
	<node id="-197575" lat="59.3156445795" lon="10.4403332268">
		<tag k="name" v="Roberg" />
		<tag k="place" v="farm" />
		<tag k="ssr:stedsnr" v="609583" />
	</node>
	<node id="-197574" lat="59.3186555528" lon="10.4852166583">
		<tag k="fixme" v="consider place=hamlet" />
		<tag k="name" v="Studsrød" />
		<tag k="place" v="farm" />
		<tag k="ssr:stedsnr" v="609576" />
	</node>
	<node id="-197573" lat="59.3263000041" lon="10.3526277705">
		<tag k="name" v="Rastad" />
		<tag k="place" v="farm" />
		<tag k="ssr:stedsnr" v="609565" />
	</node>
	<node id="-197572" lat="59.3443750028" lon="10.4356583273">
		<tag k="fixme" v="consider place=hamlet" />
		<tag k="name" v="Gullerød" />
		<tag k="place" v="farm" />
		<tag k="ssr:stedsnr" v="609546" />
	</node>
	<node id="-197571" lat="59.2887527775" lon="10.3855277755">
		<tag k="alt_name" v="Jarlsberg Hovedgård" />
		<tag k="fixme" v="consider place=hamlet" />
		<tag k="name" v="Jarlsberg" />
		<tag k="place" v="farm" />
		<tag k="ssr:stedsnr" v="608689" />
	</node>
	<node id="-197570" lat="59.3124583328" lon="10.4708916709">
		<tag k="name" v="Børønningen" />
		<tag k="place" v="farm" />
		<tag k="ssr:stedsnr" v="608674" />
	</node>
	<node id="-197569" lat="59.3031138862" lon="10.4423777828">
		<tag k="alt_name" v="Slagen kirke" />
		<tag k="amenity" v="place_of_worship" />
		<tag k="denomination" v="lutheran" />
		<tag k="name" v="Slagen" />
		<tag k="religion" v="christian" />
		<tag k="ssr:stedsnr" v="608668" />
	</node>
	<node id="-197568" lat="59.2648916685" lon="10.4068638819">
		<tag k="name" v="Lindahl plass" />
		<tag k="place" v="square" />
		<tag k="ssr:stedsnr" v="601337" />
	</node>
	<node id="-197567" lat="59.2676555534" lon="10.412063896">
		<tag k="alt_name" v="Haugar" />
		<tag k="name" v="Haugar" />
		<tag k="ssr:stedsnr" v="601281" />
		<tag k="tourism" v="museum" />
	</node>
	<node id="-197566" lat="59.2765583342" lon="10.3640888965">
		<tag k="bridge" v="yes" />
		<tag k="layer" v="1" />
		<tag k="name" v="Hoksnes" />
		<tag k="ssr:stedsnr" v="592544" />
	</node>
	<node id="-197565" lat="59.2928916647" lon="10.4271027707">
		<tag k="amenity" v="place_of_worship" />
		<tag k="denomination" v="lutheran" />
		<tag k="name" v="Eik" />
		<tag k="religion" v="christian" />
		<tag k="ssr:stedsnr" v="578613" />
	</node>
	<node id="-197564" lat="59.2605805555" lon="10.360430557">
		<tag k="amenity" v="place_of_worship" />
		<tag k="denomination" v="lutheran" />
		<tag k="name" v="Vear" />
		<tag k="religion" v="christian" />
		<tag k="ssr:stedsnr" v="577507" />
	</node>
	<node id="-197563" lat="59.3366027773" lon="10.4252583363">
		<tag k="alt_name" v="Søndre Jareteigen" />
		<tag k="fixme" v="consider place=hamlet" />
		<tag k="name" v="Jareteigen S" />
		<tag k="place" v="farm" />
		<tag k="ssr:stedsnr" v="574432" />
	</node>
	<node id="-197562" lat="59.28379722" lon="10.4963333317">
		<tag k="fixme" v="consider place=suburb, village or hamlet" />
		<tag k="name" v="Skogly" />
		<tag k="place" v="quarter" />
		<tag k="ssr:stedsnr" v="574124" />
	</node>
	<node id="-197561" lat="59.2820666657" lon="10.3159222259">
		<tag k="alt_name" v="Nedre Hesby" />
		<tag k="fixme" v="consider place=hamlet" />
		<tag k="name" v="Hesby" />
		<tag k="place" v="farm" />
		<tag k="ssr:stedsnr" v="573664" />
	</node>
	<node id="-197560" lat="59.2833250038" lon="10.3234305603">
		<tag k="leisure" v="pitch" />
		<tag k="name" v="Sem idrettspark" />
		<tag k="ssr:stedsnr" v="573662" />
	</node>
	<node id="-197559" lat="59.3230666635" lon="10.519233338">
		<tag k="name" v="Skollerød" />
		<tag k="natural" v="cape" />
		<tag k="ssr:stedsnr" v="572225" />
	</node>
	<node id="-197558" lat="59.3117861069" lon="10.4959000003">
		<tag k="alt_name" v="Vollen" />
		<tag k="name" v="Volden" />
		<tag k="place" v="farm" />
		<tag k="ssr:stedsnr" v="572218" />
	</node>
	<node id="-197557" lat="59.2434638867" lon="10.4568972135">
		<tag k="name" v="Sandodden" />
		<tag k="natural" v="cape" />
		<tag k="ssr:stedsnr" v="571998" />
	</node>
	<node id="-197556" lat="59.2404555599" lon="10.4502305633">
		<tag k="name" v="Bjørnebusundet" />
		<tag k="natural" v="strait" />
		<tag k="ssr:stedsnr" v="571994" />
	</node>
	<node id="-197555" lat="59.2575611141" lon="10.3740805624">
		<tag k="name" v="Geiteberget" />
		<tag k="natural" v="hill" />
		<tag k="place" v="locality" />
		<tag k="ssr:stedsnr" v="571404" />
	</node>
	<node id="-197554" lat="59.2921055544" lon="10.4344583411">
		<tag k="name" v="Slagendalen" />
		<tag k="natural" v="valley" />
		<tag k="place" v="locality" />
		<tag k="ssr:stedsnr" v="570986" />
	</node>
	<node id="-197553" lat="59.2869611108" lon="10.4144000086">
		<tag k="amenity" v="school" />
		<tag k="name" v="Greveskogen videregående skole" />
		<tag k="old_name" v="Tønsberg Gymnas" />
		<tag k="ssr:stedsnr" v="570984" />
	</node>
	<node id="-197552" lat="59.3056250008" lon="10.3898166654">
		<tag k="name" v="Hestehagen" />
		<tag k="place" v="farm" />
		<tag k="ssr:stedsnr" v="570773" />
	</node>
	<node id="-197551" lat="59.2533638924" lon="10.4556500003">
		<tag k="amenity" v="nursing_home" />
		<tag k="name" v="Nes bo- og behandlingssenter" />
		<tag k="ssr:stedsnr" v="570753" />
	</node>
	<node id="-197550" lat="59.2695111087" lon="10.4632333277">
		<tag k="leisure" v="pitch" />
		<tag k="name" v="Slagenhallen" />
		<tag k="ssr:stedsnr" v="570740" />
	</node>
	<node id="-197549" lat="59.2781888913" lon="10.3362611199">
		<tag k="fixme" v="consider place=hamlet" />
		<tag k="name" v="Vik" />
		<tag k="place" v="farm" />
		<tag k="ssr:stedsnr" v="549895" />
	</node>
	<node id="-197548" lat="59.2865175195" lon="10.3107170621">
		<tag k="alt_name" v="Nordre Hesby" />
		<tag k="fixme" v="consider place=hamlet" />
		<tag k="name" v="Hesby" />
		<tag k="place" v="farm" />
		<tag k="ssr:stedsnr" v="549842" />
	</node>
	<node id="-197547" lat="59.3109083366" lon="10.3389500071">
		<tag k="alt_name" v="Domsengen" />
		<tag k="fixme" v="consider place=hamlet" />
		<tag k="name" v="Domsenga" />
		<tag k="place" v="farm" />
		<tag k="ssr:stedsnr" v="549826" />
	</node>
	<node id="-197546" lat="59.3003861077" lon="10.3357083325">
		<tag k="alt_name" v="Låne V;Vestre Låne" />
		<tag k="fixme" v="consider place=hamlet" />
		<tag k="name" v="Låne" />
		<tag k="place" v="farm" />
		<tag k="ssr:stedsnr" v="549817" />
	</node>
	<node id="-197545" lat="59.3150277809" lon="10.3393583282">
		<tag k="fixme" v="consider natural=peak for the most distinct mountains in the district" />
		<tag k="name" v="Fresteåsen" />
		<tag k="natural" v="hill" />
		<tag k="place" v="locality" />
		<tag k="ssr:stedsnr" v="549783" />
	</node>
	<node id="-197544" lat="59.2719916668" lon="10.4041999936">
		<tag k="name" v="Tunsberghus" />
		<tag k="place" v="locality" />
		<tag k="ssr:stedsnr" v="549645" />
	</node>
	<node id="-197543" lat="59.2623340465" lon="10.3621157026">
		<tag k="alt_name" v="Veer øde" />
		<tag k="name" v="Vear" />
		<tag k="place" v="isolated_dwelling" />
		<tag k="ssr:stedsnr" v="549638" />
	</node>
	<node id="-197542" lat="59.3143611102" lon="10.4056305477">
		<tag k="fixme" v="consider place=hamlet" />
		<tag k="name" v="Stuverød" />
		<tag k="place" v="farm" />
		<tag k="ssr:stedsnr" v="548617" />
	</node>
	<node id="-197541" lat="59.3255333311" lon="10.5001888959">
		<tag k="name" v="Bliksekilen" />
		<tag k="natural" v="bay" />
		<tag k="ssr:stedsnr" v="548606" />
	</node>
	<node id="-197540" lat="59.3243694445" lon="10.4834444506">
		<tag k="fixme" v="consider place=hamlet" />
		<tag k="name" v="Brattås" />
		<tag k="place" v="farm" />
		<tag k="ssr:stedsnr" v="548596" />
	</node>
	<node id="-197539" lat="59.3308361093" lon="10.3603333311">
		<tag k="alt_name" v="Bjune, østre" />
		<tag k="name" v="Østre Bjune" />
		<tag k="place" v="farm" />
		<tag k="ssr:stedsnr" v="548585" />
	</node>
	<node id="-197538" lat="59.2336805584" lon="10.4672305592">
		<tag k="name" v="Fiskeriet" />
		<tag k="natural" v="cape" />
		<tag k="ssr:stedsnr" v="547036" />
	</node>
	<node id="-197537" lat="59.2748333293" lon="10.3878305593">
		<tag k="name" v="Tjuvholmen" />
		<tag k="natural" v="cape" />
		<tag k="ssr:stedsnr" v="541553" />
	</node>
	<node id="-197534" lat="59.3288888913" lon="10.3797777736">
		<tag k="bridge" v="yes" />
		<tag k="layer" v="1" />
		<tag k="name" v="Eikeberg" />
		<tag k="ssr:stedsnr" v="531667" />
	</node>
	<node id="-197533" lat="59.2707904229" lon="10.4019303723">
		<tag k="layer" v="-1" />
		<tag k="name" v="Slottsfjelltunnelen" />
		<tag k="ssr:stedsnr" v="517917" />
		<tag k="tunnel" v="yes" />
	</node>
	<node id="-197532" lat="59.2952972257" lon="10.5151750085">
		<tag k="name" v="Karlsvik" />
		<tag k="place" v="farm" />
		<tag k="ssr:stedsnr" v="513992" />
	</node>
	<node id="-197531" lat="59.2444333319" lon="10.5105638852">
		<tag k="name" v="Granabåsundet" />
		<tag k="natural" v="strait" />
		<tag k="ssr:stedsnr" v="513799" />
	</node>
	<node id="-197530" lat="59.2604249987" lon="10.4237583415">
		<tag k="alt_name" v="Trælleborg" />
		<tag k="name" v="Træleborg" />
		<tag k="natural" v="cape" />
		<tag k="ssr:stedsnr" v="513790" />
	</node>
	<node id="-197529" lat="59.341991663" lon="10.4805416623">
		<tag k="name" v="Stuebrekk" />
		<tag k="place" v="isolated_dwelling" />
		<tag k="ssr:stedsnr" v="513118" />
	</node>
	<node id="-197528" lat="59.3251999956" lon="10.4860805554">
		<tag k="name" v="Strand" />
		<tag k="place" v="farm" />
		<tag k="ssr:stedsnr" v="513112" />
	</node>
	<node id="-197527" lat="59.3354083327" lon="10.4743916703">
		<tag k="name" v="Saltkopp" />
		<tag k="place" v="farm" />
		<tag k="ssr:stedsnr" v="513107" />
	</node>
	<node id="-197526" lat="59.3249083365" lon="10.355863888">
		<tag k="fixme" v="consider natural=peak for the most distinct mountains in the district" />
		<tag k="name" v="Gulliåsen" />
		<tag k="natural" v="hill" />
		<tag k="place" v="locality" />
		<tag k="ssr:stedsnr" v="512777" />
	</node>
	<node id="-197525" lat="59.3083833324" lon="10.2831333289">
		<tag k="name" v="Taran" />
		<tag k="place" v="isolated_dwelling" />
		<tag k="ssr:stedsnr" v="512769" />
	</node>
	<node id="-197524" lat="59.3073305551" lon="10.3493805585">
		<tag k="name" v="Gata" />
		<tag k="place" v="farm" />
		<tag k="ssr:stedsnr" v="512758" />
	</node>
	<node id="-197523" lat="59.3107472223" lon="10.4989805629">
		<tag k="name" v="Tverved" />
		<tag k="place" v="farm" />
		<tag k="ssr:stedsnr" v="512194" />
	</node>
	<node id="-197522" lat="59.2337111144" lon="10.4708472285">
		<tag k="name" v="Bloksberg" />
		<tag k="natural" v="hill" />
		<tag k="place" v="locality" />
		<tag k="ssr:stedsnr" v="511000" />
	</node>
	<node id="-197521" lat="59.236908335" lon="10.458105563">
		<tag k="name" v="Myrasundet" />
		<tag k="natural" v="strait" />
		<tag k="ssr:stedsnr" v="510997" />
	</node>
	<node id="-197520" lat="59.3103638933" lon="10.4651999991">
		<tag k="name" v="Horgen" />
		<tag k="place" v="locality" />
		<tag k="ssr:stedsnr" v="510831" />
	</node>
	<node id="-197519" lat="59.3005333298" lon="10.449475003">
		<tag k="alt_name" v="Mellem Basberg" />
		<tag k="fixme" v="consider place=hamlet" />
		<tag k="name" v="Basberg" />
		<tag k="place" v="farm" />
		<tag k="ssr:stedsnr" v="510829" />
	</node>
	<node id="-197518" lat="59.3025333307" lon="10.4294666691">
		<tag k="name" v="Kongs-Eik" />
		<tag k="place" v="farm" />
		<tag k="ssr:stedsnr" v="510810" />
	</node>
	<node id="-197517" lat="59.3055416708" lon="10.4283527865">
		<tag k="name" v="Loftseik" />
		<tag k="place" v="quarter" />
		<tag k="ssr:stedsnr" v="510807" />
	</node>
	<node id="-197516" lat="59.3359722267" lon="10.4266166725">
		<tag k="fixme" v="consider place=hamlet" />
		<tag k="name" v="Skibrekk" />
		<tag k="place" v="farm" />
		<tag k="ssr:stedsnr" v="510797" />
	</node>
	<node id="-197515" lat="59.3329000025" lon="10.4551111067">
		<tag k="name" v="Romsmyra" />
		<tag k="natural" v="wetland" />
		<tag k="ssr:stedsnr" v="510795" />
	</node>
	<node id="-197514" lat="59.2820250027" lon="10.4836999917">
		<tag k="name" v="Fredheim" />
		<tag k="place" v="isolated_dwelling" />
		<tag k="ssr:stedsnr" v="510767" />
	</node>
	<node id="-197513" lat="59.273866665" lon="10.4365027802">
		<tag k="amenity" v="community_centre" />
		<tag k="name" v="Kilden kino" />
		<tag k="ssr:stedsnr" v="510762" />
	</node>
	<node id="-197512" lat="59.2604138921" lon="10.364347228">
		<tag k="fixme" v="consider natural=peak for the most distinct mountains in the district" />
		<tag k="name" v="Skomakeråsen" />
		<tag k="natural" v="hill" />
		<tag k="place" v="locality" />
		<tag k="ssr:stedsnr" v="510379" />
	</node>
	<node id="-197510" lat="59.2963611108" lon="10.5151944454">
		<tag k="name" v="Søndre Karlsvika" />
		<tag k="natural" v="bay" />
		<tag k="ssr:stedsnr" v="506039" />
	</node>
	<node id="-197509" lat="59.3241055559" lon="10.4114111111">
		<tag k="fixme" v="consider place=hamlet" />
		<tag k="name" v="Langerød" />
		<tag k="place" v="farm" />
		<tag k="ssr:stedsnr" v="488589" />
	</node>
	<node id="-197507" lat="59.2918694407" lon="10.3863166643">
		<tag k="alt_name" v="Sem kirke" />
		<tag k="amenity" v="place_of_worship" />
		<tag k="denomination" v="lutheran" />
		<tag k="name" v="Sem" />
		<tag k="religion" v="christian" />
		<tag k="ssr:stedsnr" v="487697" />
	</node>
	<node id="-197506" lat="59.2891888913" lon="10.4718861081">
		<tag k="alt_name" v="Søndre Ilebrekke" />
		<tag k="fixme" v="consider place=hamlet" />
		<tag k="name" v="Ilebrekke" />
		<tag k="place" v="farm" />
		<tag k="ssr:stedsnr" v="487685" />
	</node>
	<node id="-197505" lat="59.3104500013" lon="10.3628000071">
		<tag k="fixme" v="consider place=hamlet" />
		<tag k="name" v="Nauen" />
		<tag k="place" v="farm" />
		<tag k="ssr:stedsnr" v="487678" />
	</node>
	<node id="-197504" lat="59.3411916706" lon="10.4652055513">
		<tag k="name" v="Høkli" />
		<tag k="place" v="farm" />
		<tag k="ssr:stedsnr" v="487641" />
	</node>
	<node id="-197503" lat="59.3473222233" lon="10.4149083311">
		<tag k="fixme" v="consider place=hamlet" />
		<tag k="name" v="Huseklepp" />
		<tag k="place" v="farm" />
		<tag k="ssr:stedsnr" v="487625" />
	</node>
	<node id="-197502" lat="59.2520361116" lon="10.473674996">
		<tag k="name" v="Husvik" />
		<tag k="place" v="village" />
		<tag k="ssr:stedsnr" v="487008" />
	</node>
	<node id="-197501" lat="59.2796000039" lon="10.4769638963">
		<tag k="fixme" v="consider place=hamlet" />
		<tag k="name" v="Lasken" />
		<tag k="place" v="farm" />
		<tag k="ssr:stedsnr" v="488620" />
	</node>
	<node id="-197500" lat="59.3167000021" lon="10.4757499924">
		<tag k="name" v="Grindbakken" />
		<tag k="place" v="farm" />
		<tag k="ssr:stedsnr" v="488603" />
	</node>
	<node id="-197499" lat="59.2604527782" lon="10.4096805532">
		<tag k="name" v="Teie" />
		<tag k="place" v="quarter" />
		<tag k="ssr:stedsnr" v="480924" />
	</node>
	<node id="-197498" lat="59.3370166685" lon="10.4710416615">
		<tag k="name" v="Romsrønningen" />
		<tag k="place" v="farm" />
		<tag k="ssr:stedsnr" v="480838" />
	</node>
	<node id="-197497" lat="59.2826750028" lon="10.4102305557">
		<tag k="alt_name" v="Tønsberg Messe og Idrettspark" />
		<tag k="leisure" v="pitch" />
		<tag k="name" v="Tønsberg messe- og idrettspark" />
		<tag k="ssr:stedsnr" v="480540" />
	</node>
	<node id="-197496" lat="59.2820947128" lon="10.4331626603">
		<tag k="barrier" v="toll_booth" />
		<tag k="name" v="Slagendalen" />
		<tag k="ssr:stedsnr" v="463491" />
	</node>
	<node id="-197495" lat="59.2901472199" lon="10.5212333308">
		<tag k="name" v="Torskegrunnen" />
		<tag k="natural" v="shoal" />
		<tag k="place" v="locality" />
		<tag k="ssr:stedsnr" v="453115" />
	</node>
	<node id="-197494" lat="59.2871500028" lon="10.5290111046">
		<tag k="name" v="Klemmetgrunnen" />
		<tag k="natural" v="shoal" />
		<tag k="place" v="locality" />
		<tag k="ssr:stedsnr" v="453117" />
	</node>
	<node id="-197493" lat="59.341386114" lon="10.3581638828">
		<tag k="fixme" v="consider natural=peak for the most distinct mountains in the district" />
		<tag k="name" v="Undrumsåsen" />
		<tag k="natural" v="hill" />
		<tag k="place" v="locality" />
		<tag k="ssr:stedsnr" v="452810" />
	</node>
	<node id="-197492" lat="59.3179166635" lon="10.3530194406">
		<tag k="fixme" v="consider natural=peak for the most distinct mountains in the district" />
		<tag k="name" v="Svartåsen" />
		<tag k="natural" v="hill" />
		<tag k="place" v="locality" />
		<tag k="ssr:stedsnr" v="452770" />
	</node>
	<node id="-197491" lat="59.313227778" lon="10.3123361032">
		<tag k="fixme" v="consider natural=peak for the most distinct mountains in the district" />
		<tag k="name" v="Kjærshøgda" />
		<tag k="natural" v="hill" />
		<tag k="place" v="locality" />
		<tag k="ssr:stedsnr" v="452751" />
	</node>
	<node id="-197490" lat="59.2925611132" lon="10.3059222256">
		<tag k="fixme" v="consider natural=peak for the most distinct mountains in the district" />
		<tag k="name" v="Hesbyåsen" />
		<tag k="natural" v="hill" />
		<tag k="place" v="locality" />
		<tag k="ssr:stedsnr" v="452746" />
	</node>
	<node id="-197489" lat="59.2986472208" lon="10.3795916612">
		<tag k="name" v="Seberg" />
		<tag k="place" v="farm" />
		<tag k="ssr:stedsnr" v="452737" />
	</node>
	<node id="-197488" lat="59.3128944442" lon="10.3536166703">
		<tag k="fixme" v="consider natural=peak for the most distinct mountains in the district" />
		<tag k="name" v="Fadumsåsen" />
		<tag k="natural" v="hill" />
		<tag k="place" v="locality" />
		<tag k="ssr:stedsnr" v="452738" />
	</node>
	<node id="-197487" lat="59.2902249966" lon="10.3036472301">
		<tag k="amenity" v="nursing_home" />
		<tag k="name" v="Granly sykehjem" />
		<tag k="ssr:stedsnr" v="452682" />
	</node>
	<node id="-197486" lat="59.2930361097" lon="10.3218388955">
		<tag k="alt_name" v="Lensberg" />
		<tag k="fixme" v="consider natural=peak for the most distinct mountains in the district" />
		<tag k="name" v="Lensbergåsen" />
		<tag k="natural" v="hill" />
		<tag k="place" v="locality" />
		<tag k="ssr:stedsnr" v="452679" />
	</node>
	<node id="-197485" lat="59.2931027734" lon="10.4955027849">
		<tag k="name" v="Skallevoll" />
		<tag k="place" v="farm" />
		<tag k="ssr:stedsnr" v="451883" />
	</node>
	<node id="-197484" lat="59.3193777808" lon="10.5054944526">
		<tag k="name" v="Haugen" />
		<tag k="place" v="farm" />
		<tag k="ssr:stedsnr" v="451214" />
	</node>
	<node id="-197483" lat="59.2477472189" lon="10.4693333325">
		<tag k="alt_name" v="Husvikkilen" />
		<tag k="name" v="Kilen" />
		<tag k="natural" v="bay" />
		<tag k="ssr:stedsnr" v="450985" />
	</node>
	<node id="-197482" lat="59.3066916654" lon="10.4785666738">
		<tag k="name" v="Stormyra" />
		<tag k="natural" v="wetland" />
		<tag k="ssr:stedsnr" v="450804" />
	</node>
	<node id="-197481" lat="59.3067222231" lon="10.4544305611">
		<tag k="alt_name" v="Lille Oseberg" />
		<tag k="fixme" v="consider place=hamlet" />
		<tag k="name" v="Oseberg" />
		<tag k="place" v="farm" />
		<tag k="ssr:stedsnr" v="450798" />
	</node>
	<node id="-197480" lat="59.2961833334" lon="10.4562250085">
		<tag k="fixme" v="consider place=hamlet" />
		<tag k="name" v="Haug Basberg" />
		<tag k="place" v="farm" />
		<tag k="ssr:stedsnr" v="450793" />
	</node>
	<node id="-197479" lat="59.3102861132" lon="10.4399472276">
		<tag k="name" v="Roberg" />
		<tag k="place" v="farm" />
		<tag k="ssr:stedsnr" v="450791" />
	</node>
	<node id="-197478" lat="59.3008166698" lon="10.4268555502">
		<tag k="name" v="Eikbekken" />
		<tag k="ssr:stedsnr" v="450790" />
		<tag k="waterway" v="stream" />
	</node>
	<node id="-197477" lat="59.299222221" lon="10.4024611147">
		<tag k="amenity" v="school" />
		<tag k="name" v="Berg arbeidsskole" />
		<tag k="ssr:stedsnr" v="450787" />
	</node>
	<node id="-197476" lat="59.3066527758" lon="10.433450004">
		<tag k="name" v="Skava" />
		<tag k="place" v="isolated_dwelling" />
		<tag k="ssr:stedsnr" v="450785" />
	</node>
	<node id="-197475" lat="59.3284527752" lon="10.4647361028">
		<tag k="name" v="Røråsbekken" />
		<tag k="ssr:stedsnr" v="450777" />
		<tag k="waterway" v="stream" />
	</node>
	<node id="-197474" lat="59.2701305588" lon="10.4687055551">
		<tag k="name" v="Slagen bo- og servicesenter" />
		<tag k="ssr:stedsnr" v="450774" />
		<tag k="tourism" v="guest_house" />
	</node>
	<node id="-197473" lat="59.254113886" lon="10.4555250024">
		<tag k="name" v="Karlsebakken" />
		<tag k="natural" v="slope" />
		<tag k="place" v="locality" />
		<tag k="ssr:stedsnr" v="450770" />
	</node>
	<node id="-197472" lat="59.2620027789" lon="10.4410305563">
		<tag k="name" v="Råel" />
		<tag k="natural" v="bay" />
		<tag k="ssr:stedsnr" v="450764" />
	</node>
	<node id="-197471" lat="59.2848111072" lon="10.488005556">
		<tag k="amenity" v="school" />
		<tag k="name" v="Ringshaug skole" />
		<tag k="ssr:stedsnr" v="450755" />
	</node>
	<node id="-197470" lat="59.2763222198" lon="10.4433361074">
		<tag k="name" v="Døsserød" />
		<tag k="place" v="farm" />
		<tag k="ssr:stedsnr" v="450747" />
	</node>
	<node id="-197469" lat="59.2758750032" lon="10.4861805527">
		<tag k="name" v="Gårdbo" />
		<tag k="place" v="farm" />
		<tag k="ssr:stedsnr" v="450745" />
	</node>
	<node id="-197468" lat="59.2796444421" lon="10.3769305549">
		<tag k="name" v="Ilene" />
		<tag k="place" v="locality" />
		<tag k="ssr:stedsnr" v="450403" />
	</node>
	<node id="-197467" lat="59.2850888849" lon="10.3634444451">
		<tag k="name" v="Aulielva" />
		<tag k="ssr:stedsnr" v="450399" />
		<tag k="waterway" v="river" />
	</node>
	<node id="-197466" lat="59.261191666" lon="10.3580944472">
		<tag k="name" v="Firingsmyrene" />
		<tag k="natural" v="wetland" />
		<tag k="ssr:stedsnr" v="450389" />
	</node>
	<node id="-197465" lat="59.3060666657" lon="10.3357916743">
		<tag k="name" v="Aulielva" />
		<tag k="ssr:stedsnr" v="428827" />
		<tag k="waterway" v="river" />
	</node>
	<node id="-197464" lat="59.2839500008" lon="10.5015750006">
		<tag k="name" v="Ringshaugbukta" />
		<tag k="natural" v="bay" />
		<tag k="ssr:stedsnr" v="428608" />
	</node>
	<node id="-197463" lat="59.2896388877" lon="10.3544249957">
		<tag k="name" v="Kjærnes" />
		<tag k="place" v="farm" />
		<tag k="ssr:stedsnr" v="427638" />
	</node>
	<node id="-197462" lat="59.3021638914" lon="10.4888499951">
		<tag k="name" v="Innlaget" />
		<tag k="place" v="farm" />
		<tag k="ssr:stedsnr" v="427623" />
	</node>
	<node id="-197461" lat="59.3103677414" lon="10.5048283069">
		<tag k="fixme" v="consider place=hamlet" />
		<tag k="name" v="Korterød" />
		<tag k="place" v="farm" />
		<tag k="ssr:stedsnr" v="427613" />
	</node>
	<node id="-197460" lat="59.3137749986" lon="10.4039916655">
		<tag k="fixme" v="consider place=hamlet" />
		<tag k="name" v="Kruke" />
		<tag k="place" v="farm" />
		<tag k="ssr:stedsnr" v="427610" />
	</node>
	<node id="-197459" lat="59.3156555597" lon="10.368455554">
		<tag k="fixme" v="consider place=hamlet" />
		<tag k="name" v="Gulli" />
		<tag k="place" v="farm" />
		<tag k="ssr:stedsnr" v="427608" />
	</node>
	<node id="-197458" lat="59.3360805531" lon="10.518783333">
		<tag k="name" v="Flaket" />
		<tag k="old_name" v="Sletta" />
		<tag k="place" v="locality" />
		<tag k="ssr:stedsnr" v="420847" />
	</node>
	<node id="-197457" lat="59.3123305576" lon="10.5251222285">
		<tag k="name" v="Bakkeskogstranda" />
		<tag k="natural" v="beach" />
		<tag k="place" v="locality" />
		<tag k="ssr:stedsnr" v="420848" />
	</node>
	<node id="-197455" lat="59.344941666" lon="10.4786111178">
		<tag k="name" v="Teigsberget" />
		<tag k="natural" v="cape" />
		<tag k="ssr:stedsnr" v="268820" />
	</node>
	<node id="-197454" lat="59.2491694445" lon="10.3680916638">
		<tag k="name" v="Sjuestokkskogen" />
		<tag k="place" v="locality" />
		<tag k="ssr:stedsnr" v="268430" />
	</node>
	<node id="-197453" lat="59.2853861145" lon="10.3349888926">
		<tag k="amenity" v="community_centre" />
		<tag k="name" v="Sem menighetshus" />
		<tag k="ssr:stedsnr" v="268396" />
	</node>
	<node id="-197452" lat="59.2860194472" lon="10.4325583379">
		<tag k="name" v="Trettepletten" />
		<tag k="place" v="farm" />
		<tag k="ssr:stedsnr" v="267989" />
	</node>
	<node id="-197451" lat="59.3058777788" lon="10.4694750041">
		<tag k="fixme" v="consider natural=peak for the most distinct mountains in the district" />
		<tag k="name" v="Hassumåsen" />
		<tag k="natural" v="hill" />
		<tag k="place" v="locality" />
		<tag k="ssr:stedsnr" v="267794" />
	</node>
	<node id="-197450" lat="59.2966305547" lon="10.4689277694">
		<tag k="alt_name" v="Nordre Ilebrekke" />
		<tag k="fixme" v="consider place=hamlet" />
		<tag k="name" v="Ilebrekke" />
		<tag k="place" v="farm" />
		<tag k="ssr:stedsnr" v="267789" />
	</node>
	<node id="-197449" lat="59.3147249961" lon="10.4392388923">
		<tag k="name" v="Roberg" />
		<tag k="place" v="hamlet" />
		<tag k="ssr:stedsnr" v="267786" />
	</node>
	<node id="-197448" lat="59.3076999962" lon="10.4467666593">
		<tag k="name" v="Oseberghaugen" />
		<tag k="ssr:stedsnr" v="267781" />
		<tag k="tourism" v="attraction" />
	</node>
	<node id="-197447" lat="59.2937154093" lon="10.4244271915">
		<tag k="amenity" v="school" />
		<tag k="fixme" v="multiple name tags, choose one and add the other to alt_name" />
		<tag k="name" v="Eik skole;Mortenåsen skole" />
		<tag k="ssr:stedsnr" v="267776" />
	</node>
	<node id="-197446" lat="59.3111027755" lon="10.4147111122">
		<tag k="alt_name" v="Søndre Rakås" />
		<tag k="name" v="Rakkås" />
		<tag k="place" v="locality" />
		<tag k="ssr:stedsnr" v="267769" />
	</node>
	<node id="-197445" lat="59.3285222226" lon="10.396341659">
		<tag k="name" v="Dammen" />
		<tag k="place" v="locality" />
		<tag k="ssr:stedsnr" v="267750" />
	</node>
	<node id="-197444" lat="59.2536555526" lon="10.4503888905">
		<tag k="name" v="Teigen" />
		<tag k="place" v="isolated_dwelling" />
		<tag k="ssr:stedsnr" v="267746" />
	</node>
	<node id="-197443" lat="59.2443083304" lon="10.3560972247">
		<tag k="name" v="Robergåsen" />
		<tag k="place" v="village" />
		<tag k="ssr:stedsnr" v="263013" />
	</node>
	<node id="-197442" lat="59.2720194464" lon="10.3868333292">
		<tag k="bay" v="fjord" />
		<tag k="name" v="Byfjorden" />
		<tag k="natural" v="bay" />
		<tag k="ssr:stedsnr" v="252618" />
	</node>
	<node id="-197441" lat="59.2555500025" lon="10.4876972158">
		<tag k="name" v="Valløbukta" />
		<tag k="natural" v="bay" />
		<tag k="ssr:stedsnr" v="246653" />
	</node>
	<node id="-197440" lat="59.2566361106" lon="10.4772000003">
		<tag k="name" v="Narverød" />
		<tag k="place" v="isolated_dwelling" />
		<tag k="ssr:stedsnr" v="246651" />
	</node>
	<node id="-197439" lat="59.2664249964" lon="10.3740805622">
		<tag k="fixme" v="consider place=hamlet" />
		<tag k="name" v="Smørberg" />
		<tag k="place" v="farm" />
		<tag k="ssr:stedsnr" v="246638" />
	</node>
	<node id="-197438" lat="59.2938250013" lon="10.5186499933">
		<tag k="name" v="Karlsvikodden" />
		<tag k="natural" v="cape" />
		<tag k="ssr:stedsnr" v="246611" />
	</node>
	<node id="-197437" lat="59.2919472218" lon="10.4630138913">
		<tag k="alt_name" v="Undeberg" />
		<tag k="fixme" v="consider place=hamlet" />
		<tag k="name" v="Unneberg" />
		<tag k="place" v="farm" />
		<tag k="ssr:stedsnr" v="245630" />
	</node>
	<node id="-197436" lat="59.3146527735" lon="10.419208341">
		<tag k="name" v="Rakkås" />
		<tag k="place" v="farm" />
		<tag k="ssr:stedsnr" v="245620" />
	</node>
	<node id="-197435" lat="59.3088666685" lon="10.4994055482">
		<tag k="fixme" v="consider place=hamlet" />
		<tag k="name" v="Tverved" />
		<tag k="place" v="farm" />
		<tag k="ssr:stedsnr" v="245615" />
	</node>
	<node id="-197434" lat="59.3005527818" lon="10.4541805578">
		<tag k="alt_name" v="Nordre Basberg" />
		<tag k="fixme" v="consider place=hamlet" />
		<tag k="name" v="Basberg" />
		<tag k="place" v="farm" />
		<tag k="ssr:stedsnr" v="245610" />
	</node>
	<node id="-197433" lat="59.3005527763" lon="10.4678472237">
		<tag k="alt_name" v="Søndre Hassum" />
		<tag k="fixme" v="consider place=hamlet" />
		<tag k="name" v="Hassum" />
		<tag k="place" v="farm" />
		<tag k="ssr:stedsnr" v="245612" />
	</node>
	<node id="-197432" lat="59.3205361075" lon="10.4887416621">
		<tag k="fixme" v="consider place=hamlet" />
		<tag k="name" v="Adamsrød" />
		<tag k="place" v="farm" />
		<tag k="ssr:stedsnr" v="245593" />
	</node>
	<node id="-197431" lat="59.3206916658" lon="10.3488555584">
		<tag k="name" v="Rastad" />
		<tag k="place" v="farm" />
		<tag k="ssr:stedsnr" v="245585" />
	</node>
	<node id="-197430" lat="59.3273472189" lon="10.4698499984">
		<tag k="alt_name" v="Rørås" />
		<tag k="name" v="Rørås, m" />
		<tag k="place" v="farm" />
		<tag k="ssr:stedsnr" v="245581" />
	</node>
	<node id="-197429" lat="59.3259777761" lon="10.4223194473">
		<tag k="fixme" v="consider place=hamlet" />
		<tag k="name" v="Høifødt" />
		<tag k="place" v="farm" />
		<tag k="ssr:stedsnr" v="245579" />
	</node>
	<node id="-197428" lat="59.3334397094" lon="10.4229594274">
		<tag k="fixme" v="consider place=hamlet" />
		<tag k="name" v="Sanderød" />
		<tag k="place" v="farm" />
		<tag k="ssr:stedsnr" v="245577" />
	</node>
	<node id="-197427" lat="59.3370805589" lon="10.4428249991">
		<tag k="name" v="Myra" />
		<tag k="place" v="farm" />
		<tag k="ssr:stedsnr" v="245576" />
	</node>
	<node id="-197426" lat="59.3353746395" lon="10.5698201396">
		<tag k="alt_name" v="Mefjordbåen" />
		<tag k="name" v="Medfjordbåen" />
		<tag k="natural" v="shoal" />
		<tag k="place" v="locality" />
		<tag k="ssr:stedsnr" v="245573" />
	</node>
	<node id="-197425" lat="59.329663892" lon="10.4714249947">
		<tag k="amenity" v="community_centre" />
		<tag k="name" v="Rom skole" />
		<tag k="ssr:stedsnr" v="245571" />
	</node>
	<node id="-197424" lat="59.2635666643" lon="10.411474996">
		<tag k="man_made" v="quay" />
		<tag k="name" v="Sagabrygga" />
		<tag k="place" v="locality" />
		<tag k="ssr:stedsnr" v="238921" />
	</node>
	<node id="-197423" lat="59.315463891" lon="10.4943388902">
		<tag k="name" v="Tufta" />
		<tag k="place" v="isolated_dwelling" />
		<tag k="ssr:stedsnr" v="238909" />
	</node>
	<node id="-197421" lat="59.2533333356" lon="10.5025805616">
		<tag k="name" v="Hestebåen" />
		<tag k="natural" v="shoal" />
		<tag k="place" v="locality" />
		<tag k="ssr:stedsnr" v="238342" />
	</node>
	<node id="-197420" lat="59.262961113" lon="10.4429194434">
		<tag k="name" v="Nedre Råel" />
		<tag k="place" v="quarter" />
		<tag k="ssr:stedsnr" v="238333" />
	</node>
	<node id="-197419" lat="59.2399249975" lon="10.4700833248">
		<tag k="man_made" v="quay" />
		<tag k="name" v="Husøybrygga" />
		<tag k="place" v="locality" />
		<tag k="ssr:stedsnr" v="237007" />
	</node>
	<node id="-197418" lat="59.3196277816" lon="10.3755805597">
		<tag k="name" v="Eikebergmyrbrua" />
		<tag k="place" v="locality" />
		<tag k="ssr:stedsnr" v="236033" />
	</node>
	<node id="-197417" lat="59.2850805565" lon="10.3185222143">
		<tag k="bridge" v="yes" />
		<tag k="layer" v="1" />
		<tag k="name" v="Tem nordre" />
		<tag k="ssr:stedsnr" v="228573" />
	</node>
	<node id="-197416" lat="59.3439638871" lon="10.4799944446">
		<tag k="name" v="Stangstranda" />
		<tag k="natural" v="beach" />
		<tag k="place" v="locality" />
		<tag k="ssr:stedsnr" v="223991" />
	</node>
	<node id="-197415" lat="59.2767583309" lon="10.500011103">
		<tag k="name" v="Kjempeodden" />
		<tag k="natural" v="cape" />
		<tag k="ssr:stedsnr" v="210119" />
	</node>
	<node id="-197414" lat="59.3482722229" lon="10.5074388926">
		<tag k="name" v="Snokopp" />
		<tag k="natural" v="shoal" />
		<tag k="place" v="locality" />
		<tag k="ssr:stedsnr" v="210107" />
	</node>
	<node id="-197413" lat="59.3307666694" lon="10.5185527713">
		<tag k="name" v="Evensgrunnen" />
		<tag k="natural" v="shoal" />
		<tag k="place" v="locality" />
		<tag k="ssr:stedsnr" v="210108" />
	</node>
	<node id="-197412" lat="59.3369638918" lon="10.3599027765">
		<tag k="fixme" v="consider natural=peak for the most distinct mountains in the district" />
		<tag k="name" v="Tybergkollen" />
		<tag k="natural" v="hill" />
		<tag k="place" v="locality" />
		<tag k="ssr:stedsnr" v="209802" />
	</node>
	<node id="-197411" lat="59.3423277818" lon="10.3678611127">
		<tag k="fixme" v="consider place=hamlet" />
		<tag k="name" v="Undrum søndre" />
		<tag k="place" v="farm" />
		<tag k="ssr:stedsnr" v="209801" />
	</node>
	<node id="-197410" lat="59.3327166703" lon="10.3609166694">
		<tag k="fixme" v="consider natural=peak for the most distinct mountains in the district" />
		<tag k="name" v="Høiås" />
		<tag k="natural" v="hill" />
		<tag k="place" v="locality" />
		<tag k="ssr:stedsnr" v="209762" />
	</node>
	<node id="-197409" lat="59.2934472189" lon="10.3348027803">
		<tag k="alt_name" v="Søndre Låne" />
		<tag k="fixme" v="consider place=hamlet" />
		<tag k="name" v="Låne S" />
		<tag k="place" v="farm" />
		<tag k="ssr:stedsnr" v="209756" />
	</node>
	<node id="-197408" lat="59.3091638909" lon="10.305299994">
		<tag k="name" v="Pandedalen" />
		<tag k="natural" v="valley" />
		<tag k="place" v="locality" />
		<tag k="ssr:stedsnr" v="209757" />
	</node>
	<node id="-197407" lat="59.2942888855" lon="10.3526444381">
		<tag k="name" v="Vestfold fylkesvegvesen" />
		<tag k="place" v="quarter" />
		<tag k="ssr:stedsnr" v="209741" />
	</node>
	<node id="-197406" lat="59.2553027794" lon="10.5034583385">
		<tag k="name" v="Batteriet" />
		<tag k="place" v="locality" />
		<tag k="ssr:stedsnr" v="209202" />
	</node>
	<node id="-197405" lat="59.3237027803" lon="10.4970277742">
		<tag k="name" v="Strand" />
		<tag k="natural" v="beach" />
		<tag k="place" v="locality" />
		<tag k="ssr:stedsnr" v="209203" />
	</node>
	<node id="-197404" lat="59.3204277807" lon="10.4981833409">
		<tag k="landuse" v="meadow" />
		<tag k="name" v="Strandeng" />
		<tag k="ssr:stedsnr" v="209198" />
	</node>
	<node id="-197403" lat="59.3123944406" lon="10.5142666711">
		<tag k="name" v="Essoraffineriet" />
		<tag k="place" v="quarter" />
		<tag k="ssr:stedsnr" v="209196" />
	</node>
	<node id="-197402" lat="59.312777777" lon="10.5067777784">
		<tag k="name" v="Åsen" />
		<tag k="place" v="farm" />
		<tag k="ssr:stedsnr" v="209193" />
	</node>
	<node id="-197401" lat="59.2832027766" lon="10.4029833275">
		<tag k="name" v="Kjellelia" />
		<tag k="natural" v="slope" />
		<tag k="place" v="locality" />
		<tag k="ssr:stedsnr" v="207990" />
	</node>
	<node id="-197400" lat="59.2829111098" lon="10.4064694397">
		<tag k="fixme" v="consider natural=peak for the most distinct mountains in the district" />
		<tag k="name" v="Frodeåsen" />
		<tag k="natural" v="hill" />
		<tag k="place" v="locality" />
		<tag k="ssr:stedsnr" v="207988" />
	</node>
	<node id="-197399" lat="59.2824944445" lon="10.4029944461">
		<tag k="name" v="Kjelle" />
		<tag k="place" v="isolated_dwelling" />
		<tag k="ssr:stedsnr" v="207987" />
	</node>
	<node id="-197398" lat="59.304977775" lon="10.4538750031">
		<tag k="fixme" v="consider place=hamlet" />
		<tag k="name" v="Bø" />
		<tag k="place" v="farm" />
		<tag k="ssr:stedsnr" v="207796" />
	</node>
	<node id="-197397" lat="59.2952638866" lon="10.4504833345">
		<tag k="name" v="Basberg" />
		<tag k="place" v="farm" />
		<tag k="ssr:stedsnr" v="207794" />
	</node>
	<node id="-197396" lat="59.3056666666" lon="10.4413083263">
		<tag k="name" v="Skjolden" />
		<tag k="place" v="farm" />
		<tag k="ssr:stedsnr" v="207786" />
	</node>
	<node id="-197395" lat="59.3002166639" lon="10.3906194383">
		<tag k="name" v="Hestehagen" />
		<tag k="place" v="farm" />
		<tag k="ssr:stedsnr" v="207784" />
	</node>
	<node id="-197394" lat="59.3266555597" lon="10.451966674">
		<tag k="name" v="Rom" />
		<tag k="place" v="farm" />
		<tag k="ssr:stedsnr" v="207774" />
	</node>
	<node id="-197393" lat="59.2530000005" lon="10.4606833352">
		<tag k="name" v="Dyet" />
		<tag k="place" v="farm" />
		<tag k="ssr:stedsnr" v="207762" />
	</node>
	<node id="-197392" lat="59.2571222222" lon="10.4743916656">
		<tag k="amenity" v="school" />
		<tag k="name" v="Husvik skole" />
		<tag k="ssr:stedsnr" v="207758" />
	</node>
	<node id="-197391" lat="59.2691055594" lon="10.4524361165">
		<tag k="name" v="Rød" />
		<tag k="place" v="isolated_dwelling" />
		<tag k="ssr:stedsnr" v="207747" />
	</node>
	<node id="-197390" lat="59.2788111102" lon="10.449638893">
		<tag k="amenity" v="school" />
		<tag k="name" v="Sandeåsen skole" />
		<tag k="ssr:stedsnr" v="207733" />
	</node>
	<node id="-197389" lat="59.2771944424" lon="10.4780416717">
		<tag k="name" v="Åsheim" />
		<tag k="natural" v="slope" />
		<tag k="place" v="locality" />
		<tag k="ssr:stedsnr" v="207727" />
	</node>
	<node id="-197388" lat="59.2802694406" lon="10.4503138848">
		<tag k="fixme" v="consider natural=peak for the most distinct mountains in the district" />
		<tag k="name" v="Sandeåsen" />
		<tag k="natural" v="hill" />
		<tag k="place" v="locality" />
		<tag k="ssr:stedsnr" v="207725" />
	</node>
	<node id="-197387" lat="59.2834944419" lon="10.4624583251">
		<tag k="name" v="Linnom" />
		<tag k="place" v="farm" />
		<tag k="ssr:stedsnr" v="207724" />
	</node>
	<node id="-197385" lat="59.2982138927" lon="10.5157500078">
		<tag k="name" v="Nordre Karlsvika" />
		<tag k="natural" v="cape" />
		<tag k="ssr:stedsnr" v="203054" />
	</node>
	<node id="-197384" lat="59.255583558" lon="10.3711582268">
		<tag k="fixme" v="consider place=suburb, village or hamlet" />
		<tag k="name" v="Rakkevik" />
		<tag k="place" v="quarter" />
		<tag k="ssr:stedsnr" v="185617" />
	</node>
	<node id="-197383" lat="59.2599555547" lon="10.4566611155">
		<tag k="name" v="Snippen" />
		<tag k="place" v="farm" />
		<tag k="ssr:stedsnr" v="185613" />
	</node>
	<node id="-197382" lat="59.30300278" lon="10.5103138875">
		<tag k="name" v="Bolsrød" />
		<tag k="place" v="locality" />
		<tag k="ssr:stedsnr" v="184640" />
	</node>
	<node id="-197381" lat="59.3035555572" lon="10.3726777833">
		<tag k="fixme" v="consider place=hamlet" />
		<tag k="name" v="Rise" />
		<tag k="place" v="farm" />
		<tag k="ssr:stedsnr" v="184634" />
	</node>
	<node id="-197380" lat="59.3042249977" lon="10.3612166624">
		<tag k="fixme" v="consider place=hamlet" />
		<tag k="name" v="Fyllpå" />
		<tag k="place" v="farm" />
		<tag k="ssr:stedsnr" v="184631" />
	</node>
	<node id="-197379" lat="59.2982083333" lon="10.5157916604">
		<tag k="alt_name" v="Karlsvika, nordre" />
		<tag k="name" v="Nordre Karlsvika" />
		<tag k="place" v="farm" />
		<tag k="ssr:stedsnr" v="184659" />
	</node>
	<node id="-197378" lat="59.3240361098" lon="10.45314723">
		<tag k="alt_name" v="Rom, østre;Rom Østre" />
		<tag k="fixme" v="consider place=hamlet" />
		<tag k="name" v="Østre Rom" />
		<tag k="place" v="farm" />
		<tag k="ssr:stedsnr" v="184609" />
	</node>
	<node id="-197377" lat="59.3241305529" lon="10.4335611106">
		<tag k="fixme" v="consider place=hamlet" />
		<tag k="name" v="Kaltvedt" />
		<tag k="place" v="farm" />
		<tag k="ssr:stedsnr" v="184607" />
	</node>
	<node id="-197376" lat="59.3419166625" lon="10.4197472188">
		<tag k="alt_name" v="Jareteigen N;Nordre Jareteigen" />
		<tag k="fixme" v="consider place=hamlet" />
		<tag k="name" v="Jareteigen" />
		<tag k="place" v="farm" />
		<tag k="ssr:stedsnr" v="184586" />
	</node>
	<node id="-197375" lat="59.2609805593" lon="10.4130861193">
		<tag k="man_made" v="quay" />
		<tag k="name" v="Teiebrygga" />
		<tag k="place" v="locality" />
		<tag k="ssr:stedsnr" v="177923" />
	</node>
	<node id="-197374" lat="59.274277778" lon="10.3995111086">
		<tag k="amenity" v="university" />
		<tag k="name" v="Maritim skole" />
		<tag k="ssr:stedsnr" v="177556" />
	</node>
	<node id="-197373" lat="59.2479250027" lon="10.4744083354">
		<tag k="name" v="Husviksundet" />
		<tag k="natural" v="strait" />
		<tag k="ssr:stedsnr" v="177087" />
	</node>
	<node id="-197372" lat="59.3040694453" lon="10.3599166726">
		<tag k="bridge" v="yes" />
		<tag k="layer" v="1" />
		<tag k="name" v="Fyllpå" />
		<tag k="ssr:stedsnr" v="167667" />
	</node>
	<node id="-197371" lat="59.2904611116" lon="10.3461249973">
		<tag k="bridge" v="yes" />
		<tag k="layer" v="1" />
		<tag k="name" v="Auli nordre" />
		<tag k="ssr:stedsnr" v="167663" />
	</node>
	<node id="-197370" lat="59.2610555546" lon="10.4158583363">
		<tag k="bridge" v="yes" />
		<tag k="layer" v="1" />
		<tag k="name" v="Tønsberg kanalbru" />
		<tag k="ssr:stedsnr" v="167566" />
	</node>
	<node id="-197369" lat="59.3144444418" lon="10.3696888801">
		<tag k="bridge" v="yes" />
		<tag k="layer" v="1" />
		<tag k="name" v="Gulli" />
		<tag k="ssr:stedsnr" v="167563" />
	</node>
	<node id="-197368" lat="59.3174611146" lon="10.377072231">
		<tag k="bridge" v="yes" />
		<tag k="layer" v="1" />
		<tag k="name" v="Gulli kreaturundergang" />
		<tag k="ssr:stedsnr" v="167562" />
	</node>
	<node id="-197367" lat="59.2735722213" lon="10.4329222212">
		<tag k="bridge" v="yes" />
		<tag k="layer" v="1" />
		<tag k="name" v="Kilen" />
		<tag k="ssr:stedsnr" v="167561" />
	</node>
	<node id="-197366" lat="59.3018555513" lon="10.2929194493">
		<tag k="name" v="Tønsberg fyllplass" />
		<tag k="place" v="quarter" />
		<tag k="ssr:stedsnr" v="153930" />
	</node>
	<node id="-197365" lat="59.25193611" lon="10.5119805641">
		<tag k="bay" v="fjord" />
		<tag k="name" v="Torgersøygapet" />
		<tag k="natural" v="bay" />
		<tag k="ssr:stedsnr" v="149050" />
	</node>
	<node id="-197364" lat="59.3369583363" lon="10.3674138947">
		<tag k="name" v="Undrum mellom" />
		<tag k="place" v="farm" />
		<tag k="ssr:stedsnr" v="148824" />
	</node>
	<node id="-197363" lat="59.3385527736" lon="10.3691222271">
		<tag k="name" v="Undrum søndre" />
		<tag k="place" v="farm" />
		<tag k="ssr:stedsnr" v="148821" />
	</node>
	<node id="-197362" lat="59.3396749996" lon="10.3695916707">
		<tag k="name" v="Undrum søndre" />
		<tag k="place" v="farm" />
		<tag k="ssr:stedsnr" v="148820" />
	</node>
	<node id="-197361" lat="59.3306166706" lon="10.3591138813">
		<tag k="name" v="Myra" />
		<tag k="place" v="locality" />
		<tag k="ssr:stedsnr" v="148767" />
	</node>
	<node id="-197360" lat="59.3318222234" lon="10.378988896">
		<tag k="name" v="Tveiten" />
		<tag k="place" v="farm" />
		<tag k="ssr:stedsnr" v="148766" />
	</node>
	<node id="-197359" lat="59.2694888887" lon="10.3050027719">
		<tag k="fixme" v="consider natural=peak for the most distinct mountains in the district" />
		<tag k="name" v="Holmenåsen" />
		<tag k="natural" v="hill" />
		<tag k="place" v="locality" />
		<tag k="ssr:stedsnr" v="148695" />
	</node>
	<node id="-197358" lat="59.2496277746" lon="10.4744138862">
		<tag k="name" v="Fagersand" />
		<tag k="natural" v="beach" />
		<tag k="place" v="locality" />
		<tag k="ssr:stedsnr" v="146966" />
	</node>
	<node id="-197357" lat="59.3021444457" lon="10.4401749914">
		<tag k="name" v="Kirkely" />
		<tag k="natural" v="valley" />
		<tag k="place" v="locality" />
		<tag k="ssr:stedsnr" v="146775" />
	</node>
	<node id="-197356" lat="59.3044611112" lon="10.4211833256">
		<tag k="name" v="Lørte" />
		<tag k="place" v="locality" />
		<tag k="ssr:stedsnr" v="146764" />
	</node>
	<node id="-197355" lat="59.3273194402" lon="10.4160694457">
		<tag k="junction" v="yes" />
		<tag k="name" v="Fridheim" />
		<tag k="place" v="locality" />
		<tag k="ssr:stedsnr" v="146756" />
	</node>
	<node id="-197354" lat="59.2530138872" lon="10.4782999912">
		<tag k="name" v="Jernvik" />
		<tag k="natural" v="bay" />
		<tag k="ssr:stedsnr" v="146753" />
	</node>
	<node id="-197353" lat="59.2613888904" lon="10.4505361148">
		<tag k="fixme" v="consider natural=peak for the most distinct mountains in the district" />
		<tag k="name" v="Råelåsen" />
		<tag k="natural" v="hill" />
		<tag k="place" v="locality" />
		<tag k="ssr:stedsnr" v="146748" />
	</node>
	<node id="-197352" lat="59.2626027776" lon="10.4132333407">
		<tag k="name" v="Ollebukta" />
		<tag k="natural" v="bay" />
		<tag k="ssr:stedsnr" v="146741" />
	</node>
	<node id="-197351" lat="59.2792666639" lon="10.4667388875">
		<tag k="fixme" v="consider place=hamlet" />
		<tag k="name" v="Åsmundrød" />
		<tag k="place" v="farm" />
		<tag k="ssr:stedsnr" v="146736" />
	</node>
	<node id="-197350" lat="59.2780333335" lon="10.4009805582">
		<tag k="name" v="Korten" />
		<tag k="place" v="quarter" />
		<tag k="ssr:stedsnr" v="146725" />
	</node>
	<node id="-197349" lat="59.2903972232" lon="10.3443888808">
		<tag k="name" v="Broen" />
		<tag k="place" v="farm" />
		<tag k="ssr:stedsnr" v="146382" />
	</node>
	<node id="-197348" lat="59.2859499981" lon="10.3346555621">
		<tag k="amenity" v="prison" />
		<tag k="name" v="Sem fengsel" />
		<tag k="ssr:stedsnr" v="146374" />
	</node>
	<node id="-197347" lat="59.2913277748" lon="10.3625999955">
		<tag k="name" v="Kjærnes" />
		<tag k="place" v="locality" />
		<tag k="ssr:stedsnr" v="146372" />
	</node>
	<node id="-197346" lat="59.2847888855" lon="10.342291659">
		<tag k="name" v="Auli" />
		<tag k="place" v="farm" />
		<tag k="ssr:stedsnr" v="124827" />
	</node>
	<node id="-197345" lat="59.2569916678" lon="10.4463111125">
		<tag k="fixme" v="consider place=hamlet" />
		<tag k="name" v="Teigen" />
		<tag k="place" v="farm" />
		<tag k="ssr:stedsnr" v="124619" />
	</node>
	<node id="-197344" lat="59.2531507516" lon="10.4606471">
		<tag k="name" v="Nordre Nes" />
		<tag k="old_name" v="Nes" />
		<tag k="place" v="farm" />
		<tag k="ssr:stedsnr" v="124618" />
	</node>
	<node id="-197343" lat="59.2730333291" lon="10.4917749917">
		<tag k="name" v="Furulund" />
		<tag k="place" v="isolated_dwelling" />
		<tag k="ssr:stedsnr" v="124608" />
	</node>
	<node id="-197342" lat="59.2719611075" lon="10.4039222155">
		<tag k="fixme" v="consider natural=peak for the most distinct mountains in the district" />
		<tag k="name" v="Slottsfjellet" />
		<tag k="natural" v="hill" />
		<tag k="place" v="locality" />
		<tag k="ssr:stedsnr" v="124606" />
	</node>
	<node id="-197341" lat="59.2824972238" lon="10.4482166675">
		<tag k="fixme" v="consider place=hamlet" />
		<tag k="name" v="Sande" />
		<tag k="place" v="farm" />
		<tag k="ssr:stedsnr" v="124581" />
	</node>
	<node id="-197340" lat="59.2643944475" lon="10.3396833382">
		<tag k="alt_name" v="Aker gård" />
		<tag k="fixme" v="consider place=hamlet" />
		<tag k="name" v="Aker" />
		<tag k="place" v="farm" />
		<tag k="ssr:stedsnr" v="123884" />
	</node>
	<node id="-197339" lat="59.3081305571" lon="10.3544361055">
		<tag k="name" v="Fadum" />
		<tag k="place" v="farm" />
		<tag k="ssr:stedsnr" v="123681" />
	</node>
	<node id="-197338" lat="59.301150832" lon="10.374619992">
		<tag k="name" v="Hasle" />
		<tag k="place" v="isolated_dwelling" />
		<tag k="ssr:stedsnr" v="123671" />
	</node>
	<node id="-197335" lat="59.2819499994" lon="10.370752772">
		<tag k="bridge" v="yes" />
		<tag k="layer" v="1" />
		<tag k="name" v="Auli bru nedre" />
		<tag k="ssr:stedsnr" v="107658" />
	</node>
	<node id="-197334" lat="59.3398277798" lon="10.469369448">
		<tag k="name" v="Høkliåsen" />
		<tag k="natural" v="hill" />
		<tag k="place" v="locality" />
		<tag k="ssr:stedsnr" v="101987" />
	</node>
	<node id="-197333" lat="59.3229583316" lon="10.5190194486">
		<tag k="fixme" v="consider seamark:type=rock or natural=shoal" />
		<tag k="name" v="Riveskjæret" />
		<tag k="place" v="islet" />
		<tag k="ssr:stedsnr" v="89796" />
	</node>
	<node id="-197332" lat="59.3401305569" lon="10.4279555509">
		<tag k="fixme" v="consider place=hamlet" />
		<tag k="name" v="Lestestad" />
		<tag k="place" v="farm" />
		<tag k="ssr:stedsnr" v="89420" />
	</node>
	<node id="-197331" lat="59.3275500011" lon="10.4946944462">
		<tag k="alt_name" v="Markebo" />
		<tag k="name" v="Markebu" />
		<tag k="place" v="farm" />
		<tag k="ssr:stedsnr" v="89140" />
	</node>
	<node id="-197330" lat="59.2425666692" lon="10.5055083401">
		<tag k="name" v="Granabåene" />
		<tag k="place" v="locality" />
		<tag k="seamark:type" v="rock" />
		<tag k="ssr:stedsnr" v="89066" />
	</node>
	<node id="-197329" lat="59.3197916669" lon="10.3597833409">
		<tag k="name" v="Ødegården" />
		<tag k="place" v="farm" />
		<tag k="ssr:stedsnr" v="88730" />
	</node>
	<node id="-197328" lat="59.3103055555" lon="10.2812083337">
		<tag k="name" v="Svetterød" />
		<tag k="place" v="farm" />
		<tag k="ssr:stedsnr" v="88715" />
	</node>
	<node id="-197327" lat="59.2842750001" lon="10.3343777782">
		<tag k="name" v="Aulerød" />
		<tag k="place" v="quarter" />
		<tag k="ssr:stedsnr" v="88633" />
	</node>
	<node id="-197326" lat="59.2691305534" lon="10.3175611108">
		<tag k="name" v="Hagen" />
		<tag k="natural" v="valley" />
		<tag k="place" v="locality" />
		<tag k="ssr:stedsnr" v="88624" />
	</node>
	<node id="-197325" lat="59.3030138866" lon="10.5013805546">
		<tag k="name" v="Teigen" />
		<tag k="place" v="quarter" />
		<tag k="ssr:stedsnr" v="87173" />
	</node>
	<node id="-197324" lat="59.3124305566" lon="10.4521472296">
		<tag k="name" v="Lie" />
		<tag k="place" v="farm" />
		<tag k="ssr:stedsnr" v="86804" />
	</node>
	<node id="-197323" lat="59.2972500017" lon="10.4290888889">
		<tag k="alt_name" v="Eik Søndre" />
		<tag k="fixme" v="consider place=hamlet" />
		<tag k="name" v="Eik" />
		<tag k="place" v="farm" />
		<tag k="ssr:stedsnr" v="86794" />
	</node>
	<node id="-197322" lat="59.2658249976" lon="10.472130548">
		<tag k="alt_name" v="Mellem Ulleviken" />
		<tag k="fixme" v="consider place=hamlet" />
		<tag k="name" v="Ullevika" />
		<tag k="place" v="farm" />
		<tag k="ssr:stedsnr" v="86761" />
	</node>
	<node id="-197321" lat="59.2716555545" lon="10.4779305585">
		<tag k="name" v="Løveid" />
		<tag k="place" v="locality" />
		<tag k="ssr:stedsnr" v="86757" />
	</node>
	<node id="-197320" lat="59.2836361116" lon="10.4204277762">
		<tag k="name" v="Byskogen" />
		<tag k="place" v="locality" />
		<tag k="ssr:stedsnr" v="86733" />
	</node>
	<node id="-197319" lat="59.3012055569" lon="10.4455833367">
		<tag k="name" v="Flaskefoss" />
		<tag k="natural" v="waterfall" />
		<tag k="ssr:stedsnr" v="85761" />
	</node>
	<node id="-197318" lat="59.3152638864" lon="10.492052779">
		<tag k="name" v="Knatten" />
		<tag k="place" v="farm" />
		<tag k="ssr:stedsnr" v="85738" />
	</node>
	<node id="-197317" lat="59.3330888882" lon="10.4892472214">
		<tag k="name" v="Saltkopp" />
		<tag k="place" v="isolated_dwelling" />
		<tag k="ssr:stedsnr" v="85732" />
	</node>
	<node id="-197316" lat="59.2505666659" lon="10.4769472222">
		<tag k="name" v="Rødstein" />
		<tag k="natural" v="cape" />
		<tag k="ssr:stedsnr" v="85718" />
	</node>
	<node id="-197315" lat="59.273191663" lon="10.4632611023">
		<tag k="name" v="Fyllpå" />
		<tag k="place" v="locality" />
		<tag k="ssr:stedsnr" v="85703" />
	</node>
	<node id="-197314" lat="59.2765861138" lon="10.4789472182">
		<tag k="fixme" v="consider place=suburb, village or hamlet" />
		<tag k="name" v="Gårdbo" />
		<tag k="place" v="quarter" />
		<tag k="ssr:stedsnr" v="85700" />
	</node>
	<node id="-197312" lat="59.2740805513" lon="10.4504916604">
		<tag k="fixme" v="consider place=hamlet" />
		<tag k="name" v="Olsrød" />
		<tag k="place" v="farm" />
		<tag k="ssr:stedsnr" v="64664" />
	</node>
	<node id="-197311" lat="59.3118555534" lon="10.3777888928">
		<tag k="fixme" v="consider place=hamlet" />
		<tag k="name" v="Emmerød" />
		<tag k="place" v="farm" />
		<tag k="ssr:stedsnr" v="63635" />
	</node>
	<node id="-197310" lat="59.3030250026" lon="10.3539750077">
		<tag k="alt_name" v="Fadum S;Søndre Fadum" />
		<tag k="fixme" v="consider place=hamlet" />
		<tag k="name" v="Fadum" />
		<tag k="place" v="farm" />
		<tag k="ssr:stedsnr" v="63630" />
	</node>
	<node id="-197309" lat="59.2988805587" lon="10.4076083259">
		<tag k="alt_name" v="Søndre Berg" />
		<tag k="name" v="Berg" />
		<tag k="place" v="locality" />
		<tag k="ssr:stedsnr" v="63628" />
	</node>
	<node id="-197308" lat="59.3197388917" lon="10.4064861085">
		<tag k="name" v="Rakkås" />
		<tag k="place" v="farm" />
		<tag k="ssr:stedsnr" v="63624" />
	</node>
	<node id="-197307" lat="59.3197611149" lon="10.4503638958">
		<tag k="alt_name" v="Rom Østre;Søndre Rom" />
		<tag k="fixme" v="consider place=hamlet" />
		<tag k="name" v="Rom" />
		<tag k="place" v="farm" />
		<tag k="ssr:stedsnr" v="63625" />
	</node>
	<node id="-197306" lat="59.3384666621" lon="10.3949527846">
		<tag k="alt_name" v="Brekke, nordre;Brekke N;Vestre Brekke" />
		<tag k="fixme" v="consider place=hamlet" />
		<tag k="name" v="Nordre Brekke" />
		<tag k="place" v="farm" />
		<tag k="ssr:stedsnr" v="63607" />
	</node>
	<node id="-197305" lat="59.3336000037" lon="10.4945527745">
		<tag k="fixme" v="consider seamark:type=rock or natural=shoal" />
		<tag k="name" v="Saltkoppskjæret" />
		<tag k="place" v="islet" />
		<tag k="ssr:stedsnr" v="63602" />
	</node>
	<node id="-197304" lat="59.3428888895" lon="10.4713972161">
		<tag k="alt_name" v="Nordre Teigen" />
		<tag k="fixme" v="consider place=hamlet" />
		<tag k="name" v="Teigen" />
		<tag k="place" v="farm" />
		<tag k="ssr:stedsnr" v="63600" />
	</node>
	<node id="-197303" lat="59.347905556" lon="10.4346277839">
		<tag k="alt_name" v="Søndre Kjær" />
		<tag k="fixme" v="consider place=hamlet" />
		<tag k="name" v="Kjær" />
		<tag k="place" v="farm" />
		<tag k="ssr:stedsnr" v="63590" />
	</node>
	<node id="-197302" lat="59.2450999984" lon="10.4635333258">
		<tag k="name" v="Tangen" />
		<tag k="natural" v="cape" />
		<tag k="ssr:stedsnr" v="62008" />
	</node>
	<node id="-197300" lat="59.2436972188" lon="10.3569166723">
		<tag k="name" v="Roberg" />
		<tag k="place" v="farm" />
		<tag k="ssr:stedsnr" v="57119" />
	</node>
	<node id="-197299" lat="59.2880833298" lon="10.3334916712">
		<tag k="bridge" v="yes" />
		<tag k="layer" v="1" />
		<tag k="name" v="Aulerød" />
		<tag k="ssr:stedsnr" v="46694" />
	</node>
	<node id="-197298" lat="59.2930638848" lon="10.3510250055">
		<tag k="bridge" v="yes" />
		<tag k="layer" v="1" />
		<tag k="name" v="Åsbakken" />
		<tag k="ssr:stedsnr" v="46567" />
	</node>
	<node id="-197297" lat="59.2810999967" lon="10.3098944366">
		<tag k="bridge" v="yes" />
		<tag k="layer" v="1" />
		<tag k="name" v="Hesby" />
		<tag k="ssr:stedsnr" v="46552" />
	</node>
	<node id="-197296" lat="59.2582027738" lon="10.4273194414">
		<tag k="name" v="Træla" />
		<tag k="place" v="locality" />
		<tag k="ssr:stedsnr" v="267730" />
	</node>
	<node id="-197295" lat="59.2740249974" lon="10.4601388842">
		<tag k="amenity" v="school" />
		<tag k="name" v="Presterød skole" />
		<tag k="ssr:stedsnr" v="267721" />
	</node>
	<node id="-197294" lat="59.3379111084" lon="10.5738027813">
		<tag k="name" v="Nordostgrunnen" />
		<tag k="natural" v="shoal" />
		<tag k="place" v="locality" />
		<tag k="ssr:stedsnr" v="28910" />
	</node>
	<node id="-197293" lat="59.318049999" lon="10.4958638806">
		<tag k="name" v="Ereppløkka" />
		<tag k="place" v="farm" />
		<tag k="ssr:stedsnr" v="28139" />
	</node>
	<node id="-197292" lat="59.3383111079" lon="10.3619916652">
		<tag k="fixme" v="consider natural=peak for the most distinct mountains in the district" />
		<tag k="name" v="Draghølåsen" />
		<tag k="natural" v="hill" />
		<tag k="place" v="locality" />
		<tag k="ssr:stedsnr" v="27817" />
	</node>
	<node id="-197291" lat="59.3303111138" lon="10.3484416705">
		<tag k="name" v="Rastadelva" />
		<tag k="ssr:stedsnr" v="27769" />
		<tag k="waterway" v="stream" />
	</node>
	<node id="-197290" lat="59.315705556" lon="10.5063111065">
		<tag k="fixme" v="consider place=hamlet" />
		<tag k="name" v="Åsen" />
		<tag k="place" v="farm" />
		<tag k="ssr:stedsnr" v="27168" />
	</node>
	<node id="-197289" lat="59.3068249961" lon="10.5005888818">
		<tag k="name" v="Tverved" />
		<tag k="place" v="farm" />
		<tag k="ssr:stedsnr" v="27156" />
	</node>
	<node id="-197288" lat="59.2926000005" lon="10.3955638823">
		<tag k="name" v="Tomsbakken" />
		<tag k="natural" v="slope" />
		<tag k="place" v="locality" />
		<tag k="ssr:stedsnr" v="25988" />
	</node>
	<node id="-197287" lat="59.2858472218" lon="10.385713881">
		<tag k="name" v="Farmannshaugen" />
		<tag k="natural" v="hill" />
		<tag k="place" v="locality" />
		<tag k="ssr:stedsnr" v="25985" />
	</node>
	<node id="-197286" lat="59.3432250012" lon="10.4811361031">
		<tag k="name" v="Teigsverven" />
		<tag k="natural" v="bay" />
		<tag k="ssr:stedsnr" v="25822" />
	</node>
	<node id="-197285" lat="59.3002850414" lon="10.4249077421">
		<tag k="alt_name" v="Eik Mellem" />
		<tag k="name" v="Eik mellom" />
		<tag k="place" v="locality" />
		<tag k="ssr:stedsnr" v="25802" />
	</node>
	<node id="-197284" lat="59.3283194439" lon="10.4411138875">
		<tag k="alt_name" v="Nordvestre Rom" />
		<tag k="fixme" v="consider place=hamlet" />
		<tag k="name" v="Rom vestre" />
		<tag k="place" v="farm" />
		<tag k="ssr:stedsnr" v="25794" />
	</node>
	<node id="-197283" lat="59.2592916633" lon="10.4627527788">
		<tag k="name" v="Bulowstua" />
		<tag k="place" v="isolated_dwelling" />
		<tag k="ssr:stedsnr" v="25788" />
	</node>
	<node id="-197282" lat="59.2629694443" lon="10.4885972186">
		<tag k="man_made" v="quay" />
		<tag k="name" v="Surka" />
		<tag k="place" v="locality" />
		<tag k="ssr:stedsnr" v="25781" />
	</node>
	<node id="-197281" lat="59.2649200287" lon="10.3996655411">
		<tag k="name" v="Kaldnes" />
		<tag k="place" v="quarter" />
		<tag k="ssr:stedsnr" v="25764" />
	</node>
	<node id="-197280" lat="59.2858694471" lon="10.4708138902">
		<tag k="name" v="Bekketjønnmyra" />
		<tag k="natural" v="wetland" />
		<tag k="ssr:stedsnr" v="25756" />
	</node>
	<node id="-197279" lat="59.2758805567" lon="10.3910666627">
		<tag k="name" v="Holmen" />
		<tag k="natural" v="cape" />
		<tag k="ssr:stedsnr" v="25754" />
	</node>
	<node id="-197278" lat="59.2760861108" lon="10.4328111108">
		<tag k="name" v="Vellebekken" />
		<tag k="ssr:stedsnr" v="25747" />
		<tag k="waterway" v="stream" />
	</node>
	<node id="-197277" lat="59.2515555525" lon="10.3493750073">
		<tag k="fixme" v="consider natural=peak for the most distinct mountains in the district" />
		<tag k="name" v="Bruaåsen" />
		<tag k="natural" v="hill" />
		<tag k="place" v="locality" />
		<tag k="ssr:stedsnr" v="25398" />
	</node>
	<node id="-197276" lat="59.2511472232" lon="10.357911104">
		<tag k="fixme" v="consider natural=peak for the most distinct mountains in the district" />
		<tag k="name" v="Vearåsen" />
		<tag k="natural" v="hill" />
		<tag k="place" v="locality" />
		<tag k="ssr:stedsnr" v="25397" />
	</node>
	<node id="-197275" lat="59.2541361073" lon="10.3735166681">
		<tag k="name" v="Sandodden" />
		<tag k="place" v="islet" />
		<tag k="ssr:stedsnr" v="25396" />
	</node>
	<node id="-197274" lat="59.2519999977" lon="10.3479166631">
		<tag k="fixme" v="consider natural=peak for the most distinct mountains in the district" />
		<tag k="name" v="Helvikåsen" />
		<tag k="natural" v="hill" />
		<tag k="place" v="locality" />
		<tag k="ssr:stedsnr" v="25393" />
	</node>
	<node id="-197273" lat="59.2593916656" lon="10.3609083356">
		<tag k="name" v="Vear" />
		<tag k="place" v="village" />
		<tag k="ssr:stedsnr" v="25390" />
	</node>
	<node id="-197272" lat="59.2595638881" lon="10.3718527699">
		<tag k="alt_name" v="Rakkevig" />
		<tag k="name" v="Rakkevik" />
		<tag k="place" v="isolated_dwelling" />
		<tag k="ssr:stedsnr" v="25388" />
	</node>
	<node id="-197271" lat="59.2881249958" lon="10.4871750068">
		<tag k="name" v="Basbergrønningen" />
		<tag k="place" v="quarter" />
		<tag k="ssr:stedsnr" v="21049" />
	</node>
	<node id="-197269" lat="59.2808611124" lon="10.2902416623">
		<tag k="fixme" v="consider place=hamlet" />
		<tag k="name" v="Tveitan" />
		<tag k="place" v="farm" />
		<tag k="ssr:stedsnr" v="3857" />
	</node>
	<node id="-197268" lat="59.2822972245" lon="10.3300361162">
		<tag k="name" v="Sem" />
		<tag k="place" v="village" />
		<tag k="ssr:stedsnr" v="3854" />
	</node>
	<node id="-197267" lat="59.3047888927" lon="10.29111112">
		<tag k="fixme" v="consider place=hamlet" />
		<tag k="name" v="Taranrød" />
		<tag k="place" v="farm" />
		<tag k="ssr:stedsnr" v="3825" />
	</node>
	<node id="-197266" lat="59.3174333338" lon="10.3331277696">
		<tag k="fixme" v="multiple name tags, choose one and add the other to alt_name; consider place=hamlet" />
		<tag k="name" v="Søndre Freste;Freste S." />
		<tag k="place" v="farm" />
		<tag k="ssr:stedsnr" v="3782" />
	</node>
	<node id="-197265" lat="59.2710361152" lon="10.4448749955">
		<tag k="fixme" v="consider place=hamlet" />
		<tag k="name" v="Presterød" />
		<tag k="place" v="farm" />
		<tag k="ssr:stedsnr" v="3627" />
	</node>
	<node id="-197264" lat="59.2754749986" lon="10.3464527837">
		<tag k="fixme" v="consider place=hamlet" />
		<tag k="name" v="Manum" />
		<tag k="place" v="farm" />
		<tag k="ssr:stedsnr" v="3625" />
	</node>
	<node id="-197263" lat="59.2514999997" lon="10.3436111037">
		<tag k="alt_name" v="Råstad N" />
		<tag k="name" v="Råstad" />
		<tag k="place" v="farm" />
		<tag k="ssr:stedsnr" v="3622" />
	</node>
	<node id="-197262" lat="59.2615166701" lon="10.4955305489">
		<tag k="alt_name" v="Valløy;Vallø" />
		<tag k="amenity" v="place_of_worship" />
		<tag k="denomination" v="lutheran" />
		<tag k="name" v="Vallø kirke" />
		<tag k="religion" v="christian" />
		<tag k="ssr:stedsnr" v="3619" />
	</node>
	<node id="-197261" lat="59.2801913389" lon="10.4605147758">
		<tag k="fixme" v="consider place=hamlet" />
		<tag k="name" v="Gauterød" />
		<tag k="place" v="farm" />
		<tag k="ssr:stedsnr" v="3607" />
	</node>
	<node id="-197260" lat="59.3065777743" lon="10.4610500056">
		<tag k="fixme" v="consider place=hamlet" />
		<tag k="name" v="Horgen" />
		<tag k="place" v="farm" />
		<tag k="ssr:stedsnr" v="2649" />
	</node>
	<node id="-197259" lat="59.3047111094" lon="10.3982249954">
		<tag k="alt_name" v="Berg, nordre;Berg" />
		<tag k="fixme" v="consider place=hamlet" />
		<tag k="name" v="Nordre Berg" />
		<tag k="place" v="farm" />
		<tag k="ssr:stedsnr" v="2644" />
	</node>
	<node id="-197258" lat="59.3147527738" lon="10.4500277831">
		<tag k="alt_name" v="Lie" />
		<tag k="fixme" v="consider place=hamlet" />
		<tag k="name" v="Li" />
		<tag k="place" v="farm" />
		<tag k="ssr:stedsnr" v="2635" />
	</node>
	<node id="-197257" lat="59.3243555556" lon="10.389788891">
		<tag k="fixme" v="consider place=hamlet" />
		<tag k="name" v="Sverstad" />
		<tag k="place" v="farm" />
		<tag k="ssr:stedsnr" v="2618" />
	</node>
	<node id="-197256" lat="59.3368055511" lon="10.4147000003">
		<tag k="fixme" v="consider place=hamlet" />
		<tag k="name" v="Røsland" />
		<tag k="place" v="farm" />
		<tag k="ssr:stedsnr" v="2608" />
	</node>
	<node id="-197255" lat="59.344599996" lon="10.3700249942">
		<tag k="alt_name" v="Undrum nordre" />
		<tag k="fixme" v="consider place=hamlet" />
		<tag k="name" v="Undrum" />
		<tag k="place" v="farm" />
		<tag k="ssr:stedsnr" v="2598" />
	</node>
	<node id="-197254" lat="59.3428055588" lon="10.4547388878">
		<tag k="name" v="Bollerød" />
		<tag k="place" v="farm" />
		<tag k="ssr:stedsnr" v="2596" />
	</node>
	<node id="-197253" lat="59.2441666633" lon="10.3276166709">
		<tag k="name" v="Akersvannet" />
		<tag k="natural" v="water" />
		<tag k="ssr:stedsnr" v="1331" />
		<tag k="water" v="lake" />
	</node>
	<node id="-197252" lat="59.2600655585" lon="10.4227320686">
		<tag k="man_made" v="quay" />
		<tag k="name" v="Stensarmen" />
		<tag k="place" v="locality" />
		<tag k="ssr:stedsnr" v="988655" />
	</node>
	<node id="-197251" lat="59.2720130268" lon="10.4043089087">
		<tag k="name" v="Slottsfjelltårnet" />
		<tag k="ssr:stedsnr" v="987784" />
		<tag k="tourism" v="viewpoint" />
	</node>
	<node id="-197250" lat="59.2708688042" lon="10.311119216">
		<tag k="name" v="Brensrød" />
		<tag k="place" v="locality" />
		<tag k="ssr:stedsnr" v="985036" />
	</node>
	<node id="-197249" lat="59.2441359819" lon="10.4750947212">
		<tag k="name" v="Jersø" />
		<tag k="place" v="locality" />
		<tag k="ssr:stedsnr" v="985035" />
	</node>
	<node id="-197248" lat="59.245658514" lon="10.5029404096">
		<tag k="name" v="Torgersøya" />
		<tag k="place" v="locality" />
		<tag k="ssr:stedsnr" v="985034" />
	</node>
	<node id="-197247" lat="59.2384888609" lon="10.4607864835">
		<tag k="name" v="Husøy" />
		<tag k="place" v="locality" />
		<tag k="ssr:stedsnr" v="985032" />
	</node>
	<node id="-197246" lat="59.2536895872" lon="10.4662544878">
		<tag k="fixme" v="consider place=hamlet" />
		<tag k="name" v="Husvik" />
		<tag k="place" v="farm" />
		<tag k="ssr:stedsnr" v="985031" />
	</node>
	<node id="-197245" lat="59.2662822863" lon="10.4415658157">
		<tag k="name" v="Nedre Råel" />
		<tag k="place" v="locality" />
		<tag k="ssr:stedsnr" v="985030" />
	</node>
	<node id="-197244" lat="59.2691791451" lon="10.4508026711">
		<tag k="fixme" v="consider place=hamlet" />
		<tag k="name" v="Øvre Råel" />
		<tag k="place" v="farm" />
		<tag k="ssr:stedsnr" v="985029" />
	</node>
	<node id="-197243" lat="59.2878865881" lon="10.469819151">
		<tag k="name" v="Bekketjønnmyra" />
		<tag k="place" v="locality" />
		<tag k="ssr:stedsnr" v="985028" />
	</node>
	<node id="-197242" lat="59.2678527072" lon="10.4638188511">
		<tag k="name" v="Ulleviksrydningen" />
		<tag k="place" v="isolated_dwelling" />
		<tag k="ssr:stedsnr" v="985027" />
	</node>
	<node id="-197241" lat="59.2596492504" lon="10.4977355256">
		<tag k="name" v="Vallø" />
		<tag k="place" v="locality" />
		<tag k="ssr:stedsnr" v="985026" />
	</node>
	<node id="-197240" lat="59.2838888166" lon="10.4937390978">
		<tag k="fixme" v="consider place=hamlet" />
		<tag k="name" v="Ringshaug" />
		<tag k="place" v="farm" />
		<tag k="ssr:stedsnr" v="985025" />
	</node>
	<node id="-197239" lat="59.3035244682" lon="10.5044883712">
		<tag k="name" v="Bolsrød" />
		<tag k="place" v="locality" />
		<tag k="ssr:stedsnr" v="985024" />
	</node>
	<node id="-197238" lat="59.3056484374" lon="10.5169059782">
		<tag k="name" v="Nordre Karlsviken" />
		<tag k="place" v="locality" />
		<tag k="ssr:stedsnr" v="984987" />
	</node>
	<node id="-197237" lat="59.3214300618" lon="10.470726497">
		<tag k="name" v="Rørås" />
		<tag k="place" v="hamlet" />
		<tag k="ssr:stedsnr" v="984983" />
	</node>
	<node id="-197236" lat="59.3210756046" lon="10.4490947886">
		<tag k="name" v="Østre Rom" />
		<tag k="place" v="hamlet" />
		<tag k="ssr:stedsnr" v="984950" />
	</node>
	<node id="-197235" lat="59.3256331878" lon="10.4413128399">
		<tag k="name" v="Vestre Rom" />
		<tag k="place" v="hamlet" />
		<tag k="ssr:stedsnr" v="984949" />
	</node>
	<node id="-197234" lat="59.3249437241" lon="10.4364208537">
		<tag k="fixme" v="consider place=hamlet" />
		<tag k="name" v="Mellem Rom" />
		<tag k="place" v="farm" />
		<tag k="ssr:stedsnr" v="984948" />
	</node>
	<node id="-197233" lat="59.3221184338" lon="10.4497927826">
		<tag k="fixme" v="consider place=hamlet" />
		<tag k="name" v="Mellem Rom" />
		<tag k="place" v="farm" />
		<tag k="ssr:stedsnr" v="984947" />
	</node>
	<node id="-197231" lat="59.3193107724" lon="10.4342276255">
		<tag k="fixme" v="consider place=hamlet" />
		<tag k="name" v="Vestre Roberg" />
		<tag k="place" v="farm" />
		<tag k="ssr:stedsnr" v="984945" />
	</node>
	<node id="-197230" lat="59.3059795225" lon="10.4395390523">
		<tag k="name" v="Lille Roberg" />
		<tag k="place" v="locality" />
		<tag k="ssr:stedsnr" v="984943" />
	</node>
	<node id="-197229" lat="59.3066484295" lon="10.4390094275">
		<tag k="fixme" v="consider place=hamlet" />
		<tag k="name" v="Østre Roberg" />
		<tag k="place" v="farm" />
		<tag k="ssr:stedsnr" v="984941" />
	</node>
	<node id="-197228" lat="59.3070961981" lon="10.441048832">
		<tag k="fixme" v="consider place=hamlet" />
		<tag k="name" v="Søndre Roberg" />
		<tag k="place" v="farm" />
		<tag k="ssr:stedsnr" v="984939" />
	</node>
	<node id="-197227" lat="59.3040208849" lon="10.444616324">
		<tag k="fixme" v="consider place=hamlet" />
		<tag k="name" v="Klokkeråsen" />
		<tag k="place" v="farm" />
		<tag k="ssr:stedsnr" v="984938" />
	</node>
	<node id="-197226" lat="59.3104157124" lon="10.4723094955">
		<tag k="fixme" v="consider place=hamlet" />
		<tag k="name" v="Nordre Bø" />
		<tag k="place" v="farm" />
		<tag k="ssr:stedsnr" v="984936" />
	</node>
	<node id="-197225" lat="59.3032692281" lon="10.4681212962">
		<tag k="name" v="Hassum" />
		<tag k="place" v="hamlet" />
		<tag k="ssr:stedsnr" v="984934" />
	</node>
	<node id="-197224" lat="59.306096157" lon="10.4666975342">
		<tag k="fixme" v="consider place=hamlet" />
		<tag k="name" v="Nordre Hassum" />
		<tag k="place" v="farm" />
		<tag k="ssr:stedsnr" v="984933" />
	</node>
	<node id="-197223" lat="59.294247409" lon="10.4704258411">
		<tag k="name" v="Ilebrekke" />
		<tag k="place" v="hamlet" />
		<tag k="ssr:stedsnr" v="984932" />
	</node>
	<node id="-197222" lat="59.2973499261" lon="10.4550229352">
		<tag k="name" v="Basberg" />
		<tag k="place" v="hamlet" />
		<tag k="ssr:stedsnr" v="984929" />
	</node>
	<node id="-197221" lat="59.2988476708" lon="10.4541456837">
		<tag k="fixme" v="consider place=hamlet" />
		<tag k="name" v="Lille Basberg" />
		<tag k="place" v="farm" />
		<tag k="ssr:stedsnr" v="984928" />
	</node>
	<node id="-197220" lat="59.2941561379" lon="10.4568971036">
		<tag k="fixme" v="consider place=hamlet" />
		<tag k="name" v="Søndre Basberg" />
		<tag k="place" v="farm" />
		<tag k="ssr:stedsnr" v="984927" />
	</node>
	<node id="-197219" lat="59.2942070531" lon="10.4405156941">
		<tag k="name" v="Velle" />
		<tag k="place" v="hamlet" />
		<tag k="ssr:stedsnr" v="984926" />
	</node>
	<node id="-197218" lat="59.2930472695" lon="10.4385417784">
		<tag k="fixme" v="consider place=hamlet" />
		<tag k="name" v="Søndre Velle" />
		<tag k="place" v="farm" />
		<tag k="ssr:stedsnr" v="984925" />
	</node>
	<node id="-197217" lat="59.2993506808" lon="10.4280006177">
		<tag k="name" v="Eik" />
		<tag k="place" v="hamlet" />
		<tag k="ssr:stedsnr" v="984921" />
	</node>
	<node id="-197216" lat="59.3420087054" lon="10.4175938573">
		<tag k="name" v="Jareteigen" />
		<tag k="place" v="hamlet" />
		<tag k="ssr:stedsnr" v="984863" />
	</node>
	<node id="-197215" lat="59.3170388427" lon="10.3882333862">
		<tag k="name" v="Barkåker" />
		<tag k="place" v="locality" />
		<tag k="ssr:stedsnr" v="984859" />
	</node>
	<node id="-197214" lat="59.2603321884" lon="10.3538080035">
		<tag k="name" v="Eldre" />
		<tag k="place" v="isolated_dwelling" />
		<tag k="ssr:stedsnr" v="984820" />
	</node>
	<node id="-197213" lat="59.2839179289" lon="10.3334103578">
		<tag k="fixme" v="consider place=hamlet" />
		<tag k="name" v="Aulerød" />
		<tag k="place" v="farm" />
		<tag k="ssr:stedsnr" v="984818" />
	</node>
	<node id="-197212" lat="59.2850402799" lon="10.3128446624">
		<tag k="name" v="Hesby" />
		<tag k="place" v="hamlet" />
		<tag k="ssr:stedsnr" v="984805" />
	</node>
	<node id="-197211" lat="59.2845487151" lon="10.3096384676">
		<tag k="fixme" v="consider place=hamlet" />
		<tag k="name" v="Mellem Hesby" />
		<tag k="place" v="farm" />
		<tag k="ssr:stedsnr" v="984783" />
	</node>
	<node id="-197210" lat="59.2902384953" lon="10.3205297915">
		<tag k="name" v="Lensberg" />
		<tag k="place" v="hamlet" />
		<tag k="ssr:stedsnr" v="984781" />
	</node>
	<node id="-197209" lat="59.2910690427" lon="10.3219540112">
		<tag k="fixme" v="consider place=hamlet" />
		<tag k="name" v="Øvre Lendsberg" />
		<tag k="place" v="farm" />
		<tag k="ssr:stedsnr" v="984780" />
	</node>
	<node id="-197208" lat="59.2992892016" lon="10.3231714303">
		<tag k="name" v="Grette" />
		<tag k="place" v="hamlet" />
		<tag k="ssr:stedsnr" v="984779" />
	</node>
	<node id="-197207" lat="59.2969826849" lon="10.3213267387">
		<tag k="fixme" v="consider place=hamlet" />
		<tag k="name" v="Øvre Grette" />
		<tag k="place" v="farm" />
		<tag k="ssr:stedsnr" v="984778" />
	</node>
	<node id="-197206" lat="59.3062031342" lon="10.3549544762">
		<tag k="name" v="Fadum" />
		<tag k="place" v="hamlet" />
		<tag k="ssr:stedsnr" v="984777" />
	</node>
	<node id="-197205" lat="59.295984486" lon="10.3554544719">
		<tag k="fixme" v="consider place=hamlet" />
		<tag k="name" v="Søndre Ås" />
		<tag k="place" v="farm" />
		<tag k="ssr:stedsnr" v="984776" />
	</node>
	<node id="-197204" lat="59.2997623689" lon="10.3605017503">
		<tag k="fixme" v="consider place=hamlet" />
		<tag k="name" v="Nordre Ås" />
		<tag k="place" v="farm" />
		<tag k="ssr:stedsnr" v="984775" />
	</node>
	<node id="-197203" lat="59.3208193455" lon="10.3809588388">
		<tag k="name" v="Eikeberg" />
		<tag k="place" v="hamlet" />
		<tag k="ssr:stedsnr" v="984751" />
	</node>
	<node id="-197202" lat="59.3214278201" lon="10.3798905646">
		<tag k="fixme" v="consider place=hamlet" />
		<tag k="name" v="Søndre Eikeberg" />
		<tag k="place" v="farm" />
		<tag k="ssr:stedsnr" v="984749" />
	</node>
	<node id="-197201" lat="59.3392595214" lon="10.3740714201">
		<tag k="name" v="Undrum" />
		<tag k="place" v="hamlet" />
		<tag k="ssr:stedsnr" v="984721" />
	</node>
	<node id="-197200" lat="59.2589944432" lon="10.3608222309">
		<tag k="bridge" v="yes" />
		<tag k="layer" v="1" />
		<tag k="name" v="Vear" />
		<tag k="ssr:stedsnr" v="896777" />
	</node>
	<node id="-197199" lat="59.3024916684" lon="10.3586194458">
		<tag k="bridge" v="yes" />
		<tag k="layer" v="1" />
		<tag k="name" v="Fadum" />
		<tag k="ssr:stedsnr" v="896690" />
	</node>
	<node id="-197198" lat="59.2861027771" lon="10.3359444481">
		<tag k="bridge" v="yes" />
		<tag k="layer" v="1" />
		<tag k="name" v="Semsbyen nordre" />
		<tag k="ssr:stedsnr" v="896560" />
	</node>
	<node id="-197197" lat="59.3315166635" lon="10.3788388827">
		<tag k="bridge" v="yes" />
		<tag k="layer" v="1" />
		<tag k="name" v="Tveiten søndre" />
		<tag k="ssr:stedsnr" v="896557" />
	</node>
	<node id="-197196" lat="59.2894277741" lon="10.4351888969">
		<tag k="bridge" v="yes" />
		<tag k="layer" v="1" />
		<tag k="name" v="Velle" />
		<tag k="ssr:stedsnr" v="410534" />
	</node>
	<node id="-197195" lat="59.2733555539" lon="10.4428166579">
		<tag k="barrier" v="toll_booth" />
		<tag k="name" v="Kilen" />
		<tag k="ssr:stedsnr" v="403491" />
	</node>
	<node id="-197194" lat="59.2435222243" lon="10.4615638962">
		<tag k="name" v="Husøysundet" />
		<tag k="natural" v="strait" />
		<tag k="ssr:stedsnr" v="392991" />
	</node>
	<node id="-197193" lat="59.3203947082" lon="10.4967125584">
		<tag k="alt_name" v="Bøengen" />
		<tag k="fixme" v="consider place=hamlet" />
		<tag k="name" v="Bøeng" />
		<tag k="place" v="farm" />
		<tag k="ssr:stedsnr" v="392848" />
	</node>
	<node id="-197192" lat="59.2636027803" lon="10.4878361063">
		<tag k="name" v="Surka" />
		<tag k="natural" v="bay" />
		<tag k="ssr:stedsnr" v="392819" />
	</node>
	<node id="-197191" lat="59.3317388916" lon="10.5045388893">
		<tag k="name" v="Kibbnebbgrunnen" />
		<tag k="natural" v="shoal" />
		<tag k="place" v="locality" />
		<tag k="ssr:stedsnr" v="392125" />
	</node>
	<node id="-197190" lat="59.2681583319" lon="10.4341750011">
		<tag k="name" v="Kilen" />
		<tag k="natural" v="bay" />
		<tag k="ssr:stedsnr" v="392040" />
	</node>
	<node id="-197189" lat="59.3278611097" lon="10.3555249935">
		<tag k="fixme" v="consider place=hamlet" />
		<tag k="name" v="Rastad" />
		<tag k="place" v="farm" />
		<tag k="ssr:stedsnr" v="391781" />
	</node>
	<node id="-197188" lat="59.3311277803" lon="10.3678749941">
		<tag k="fixme" v="consider natural=peak for the most distinct mountains in the district" />
		<tag k="name" v="Høiloft" />
		<tag k="natural" v="hill" />
		<tag k="place" v="locality" />
		<tag k="ssr:stedsnr" v="391778" />
	</node>
	<node id="-197187" lat="59.2957444471" lon="10.3323138952">
		<tag k="fixme" v="consider place=hamlet" />
		<tag k="name" v="Låne mellom" />
		<tag k="place" v="farm" />
		<tag k="ssr:stedsnr" v="391770" />
	</node>
	<node id="-197186" lat="59.2714750016" lon="10.3446583289">
		<tag k="fixme" v="consider natural=peak for the most distinct mountains in the district" />
		<tag k="name" v="Manumåsen" />
		<tag k="natural" v="hill" />
		<tag k="place" v="locality" />
		<tag k="ssr:stedsnr" v="391693" />
	</node>
	<node id="-197185" lat="59.3432416688" lon="10.4548916688">
		<tag k="fixme" v="consider place=hamlet" />
		<tag k="name" v="Spettås" />
		<tag k="place" v="farm" />
		<tag k="ssr:stedsnr" v="389817" />
	</node>
	<node id="-197184" lat="59.2707611102" lon="10.4552888817">
		<tag k="amenity" v="school" />
		<tag k="name" v="Presterød ungd.skole" />
		<tag k="ssr:stedsnr" v="389754" />
	</node>
	<node id="-197183" lat="59.2531388917" lon="10.3453805482">
		<tag k="fixme" v="consider natural=peak for the most distinct mountains in the district" />
		<tag k="name" v="Liaåsen" />
		<tag k="natural" v="hill" />
		<tag k="place" v="locality" />
		<tag k="ssr:stedsnr" v="389421" />
	</node>
	<node id="-197182" lat="59.301680552" lon="10.427327781">
		<tag k="fixme" v="consider place=hamlet" />
		<tag k="name" v="Lofseik" />
		<tag k="place" v="farm" />
		<tag k="ssr:stedsnr" v="388771" />
	</node>
	<node id="-197181" lat="59.3048638885" lon="10.4133527821">
		<tag k="fixme" v="consider place=hamlet" />
		<tag k="name" v="Bruserød" />
		<tag k="place" v="farm" />
		<tag k="ssr:stedsnr" v="388760" />
	</node>
	<node id="-197180" lat="59.309080559" lon="10.4316722268">
		<tag k="name" v="Robergrønningen" />
		<tag k="natural" v="slope" />
		<tag k="place" v="locality" />
		<tag k="ssr:stedsnr" v="388757" />
	</node>
	<node id="-197179" lat="59.3243055527" lon="10.4780444422">
		<tag k="name" v="Grønseth" />
		<tag k="place" v="farm" />
		<tag k="ssr:stedsnr" v="388751" />
	</node>
	<node id="-197178" lat="59.2489722228" lon="10.3583805582">
		<tag k="name" v="Vearåsen" />
		<tag k="place" v="quarter" />
		<tag k="ssr:stedsnr" v="384054" />
	</node>
	<node id="-197177" lat="59.274563887" lon="10.3326666724">
		<tag k="name" v="Løkeberg" />
		<tag k="place" v="farm" />
		<tag k="ssr:stedsnr" v="367882" />
	</node>
	<node id="-197176" lat="59.3013499991" lon="10.3170611033">
		<tag k="alt_name" v="Pande" />
		<tag k="fixme" v="consider place=hamlet" />
		<tag k="name" v="Panne" />
		<tag k="place" v="farm" />
		<tag k="ssr:stedsnr" v="367802" />
	</node>
	<node id="-197175" lat="59.2817638897" lon="10.4380583376">
		<tag k="name" v="Sundekilden" />
		<tag k="place" v="farm" />
		<tag k="ssr:stedsnr" v="367621" />
	</node>
	<node id="-197174" lat="59.2821861113" lon="10.5031416654">
		<tag k="name" v="Ringshaugholmen" />
		<tag k="natural" v="cape" />
		<tag k="ssr:stedsnr" v="367619" />
	</node>
	<node id="-197173" lat="59.2951083317" lon="10.4406916631">
		<tag k="alt_name" v="Nordre Velle" />
		<tag k="fixme" v="consider place=hamlet" />
		<tag k="name" v="Velle" />
		<tag k="place" v="farm" />
		<tag k="ssr:stedsnr" v="366656" />
	</node>
	<node id="-197172" lat="59.2953000014" lon="10.5151888808">
		<tag k="alt_name" v="Karlsvika, s" />
		<tag k="name" v="Søndre Karlsvika" />
		<tag k="place" v="farm" />
		<tag k="ssr:stedsnr" v="366652" />
	</node>
	<node id="-197171" lat="59.294241669" lon="10.34918334">
		<tag k="alt_name" v="Ås" />
		<tag k="fixme" v="consider place=hamlet" />
		<tag k="name" v="Ås, s" />
		<tag k="place" v="farm" />
		<tag k="ssr:stedsnr" v="366650" />
	</node>
	<node id="-197170" lat="59.3199472258" lon="10.4700027766">
		<tag k="alt_name" v="Rørås, s;Rørås" />
		<tag k="fixme" v="consider place=hamlet" />
		<tag k="name" v="Søndre Rørås" />
		<tag k="place" v="farm" />
		<tag k="ssr:stedsnr" v="366626" />
	</node>
	<node id="-197169" lat="59.3147361137" lon="10.5056166673">
		<tag k="name" v="Åsen" />
		<tag k="place" v="farm" />
		<tag k="ssr:stedsnr" v="366623" />
	</node>
	<node id="-197168" lat="59.3153222253" lon="10.4847583355">
		<tag k="alt_name" v="Stusrød;Studsrød" />
		<tag k="name" v="Stusrøa" />
		<tag k="place" v="farm" />
		<tag k="ssr:stedsnr" v="366622" />
	</node>
	<node id="-197167" lat="59.3222111142" lon="10.3973111145">
		<tag k="alt_name" v="Brekke S" />
		<tag k="name" v="Brekke" />
		<tag k="place" v="farm" />
		<tag k="ssr:stedsnr" v="366613" />
	</node>
	<node id="-197166" lat="59.346341667" lon="10.4961277705">
		<tag k="fixme" v="consider seamark:type=rock or natural=shoal" />
		<tag k="name" v="Småskjæret" />
		<tag k="place" v="islet" />
		<tag k="ssr:stedsnr" v="366602" />
	</node>
	<node id="-197165" lat="59.2471416684" lon="10.457858329">
		<tag k="fixme" v="consider place=hamlet" />
		<tag k="name" v="Søndre Nes" />
		<tag k="place" v="farm" />
		<tag k="ssr:stedsnr" v="365005" />
	</node>
	<node id="-197164" lat="59.2641972179" lon="10.3770999952">
		<tag k="name" v="Sandodden" />
		<tag k="natural" v="cape" />
		<tag k="ssr:stedsnr" v="359928" />
	</node>
	<node id="-197163" lat="59.2676935222" lon="10.4033456328">
		<tag k="man_made" v="quay" />
		<tag k="name" v="Tollbodbrygga" />
		<tag k="place" v="locality" />
		<tag k="ssr:stedsnr" v="359913" />
	</node>
	<node id="-197161" lat="59.2939833313" lon="10.3488083292">
		<tag k="bridge" v="yes" />
		<tag k="layer" v="1" />
		<tag k="name" v="Bispeveien" />
		<tag k="ssr:stedsnr" v="349677" />
	</node>
	<node id="-197160" lat="59.287197221" lon="10.4060416701">
		<tag k="bridge" v="yes" />
		<tag k="layer" v="1" />
		<tag k="name" v="Kjellengveien" />
		<tag k="ssr:stedsnr" v="349565" />
	</node>
	<node id="-197159" lat="59.2652722231" lon="10.3952111038">
		<tag k="name" v="Kaldnes" />
		<tag k="natural" v="cape" />
		<tag k="ssr:stedsnr" v="331050" />
	</node>
	<node id="-197158" lat="59.2895249963" lon="10.4941166657">
		<tag k="name" v="Basbergrønningen" />
		<tag k="natural" v="slope" />
		<tag k="place" v="locality" />
		<tag k="ssr:stedsnr" v="330232" />
	</node>
	<node id="-197157" lat="59.3254027734" lon="10.5090861099">
		<tag k="alt_name" v="Kibbnebb" />
		<tag k="name" v="Kibneb" />
		<tag k="natural" v="cape" />
		<tag k="ssr:stedsnr" v="330226" />
	</node>
	<node id="-197156" lat="59.2388111103" lon="10.4777083255">
		<tag k="name" v="Flaket" />
		<tag k="place" v="sea" />
		<tag k="ssr:stedsnr" v="328997" />
	</node>
	<node id="-197155" lat="59.2842861097" lon="10.4003333246">
		<tag k="amenity" v="school" />
		<tag k="name" v="Kjelle ungd.skole" />
		<tag k="ssr:stedsnr" v="328985" />
	</node>
	<node id="-197154" lat="59.3083416634" lon="10.4593833385">
		<tag k="name" v="Nygård" />
		<tag k="place" v="farm" />
		<tag k="ssr:stedsnr" v="328795" />
	</node>
	<node id="-197153" lat="59.3009027757" lon="10.4145638814">
		<tag k="name" v="Eik vestre" />
		<tag k="place" v="locality" />
		<tag k="ssr:stedsnr" v="328786" />
	</node>
	<node id="-197152" lat="59.3065055595" lon="10.4324055594">
		<tag k="name" v="Skaralia" />
		<tag k="natural" v="slope" />
		<tag k="place" v="locality" />
		<tag k="ssr:stedsnr" v="328772" />
	</node>
	<node id="-197151" lat="59.3337916625" lon="10.4657527706">
		<tag k="fixme" v="consider place=hamlet" />
		<tag k="name" v="Hallingrød" />
		<tag k="place" v="farm" />
		<tag k="ssr:stedsnr" v="328763" />
	</node>
	<node id="-197150" lat="59.3306777777" lon="10.4061833342">
		<tag k="fixme" v="consider place=hamlet" />
		<tag k="name" v="Skotte" />
		<tag k="place" v="farm" />
		<tag k="ssr:stedsnr" v="328760" />
	</node>
	<node id="-197149" lat="59.269950001" lon="10.4813611194">
		<tag k="name" v="Krøgerløkka" />
		<tag k="place" v="quarter" />
		<tag k="ssr:stedsnr" v="328747" />
	</node>
	<node id="-197148" lat="59.2807972199" lon="10.4870166595">
		<tag k="fixme" v="consider place=hamlet" />
		<tag k="name" v="Ringshaug" />
		<tag k="place" v="village" />
		<tag k="ssr:stedsnr" v="328734" />
	</node>
	<node id="-197147" lat="59.2750249994" lon="10.4356833377">
		<tag k="name" v="Presterød" />
		<tag k="place" v="farm" />
		<tag k="ssr:stedsnr" v="328727" />
	</node>
	<node id="-197146" lat="59.2760361124" lon="10.4120166614">
		<tag k="leisure" v="pitch" />
		<tag k="name" v="Gamleidretten" />
		<tag k="ssr:stedsnr" v="328723" />
	</node>
	<node id="-197145" lat="59.3075194479" lon="10.4290527693">
		<tag k="name" v="Nordre Eik" />
		<tag k="place" v="quarter" />
		<tag k="ssr:stedsnr" v="324028" />
	</node>
	<node id="-197138" lat="59.2917499987" lon="10.3194805581">
		<tag k="alt_name" v="Nedre Lensberg" />
		<tag k="fixme" v="consider place=hamlet" />
		<tag k="name" v="Lensberg" />
		<tag k="place" v="farm" />
		<tag k="ssr:stedsnr" v="306864" />
	</node>
	<node id="-197137" lat="59.2621882629" lon="10.4111815873">
		<tag k="alt_name" v="Tønsberg kanal" />
		<tag k="name" v="Kanalen" />
		<tag k="natural" v="strait" />
		<tag k="ssr:stedsnr" v="306609" />
	</node>
	<node id="-197136" lat="59.2800166622" lon="10.5004138957">
		<tag k="name" v="Ringshaug" />
		<tag k="natural" v="cape" />
		<tag k="ssr:stedsnr" v="306597" />
	</node>
	<node id="-197135" lat="59.2833138932" lon="10.3535750004">
		<tag k="name" v="Aulilund" />
		<tag k="place" v="farm" />
		<tag k="ssr:stedsnr" v="306588" />
	</node>
	<node id="-197134" lat="59.3262694447" lon="10.4396027822">
		<tag k="alt_name" v="Rom, vestre;Rom Vestre" />
		<tag k="fixme" v="consider place=hamlet" />
		<tag k="name" v="Vestre Rom" />
		<tag k="place" v="farm" />
		<tag k="ssr:stedsnr" v="306563" />
	</node>
	<node id="-197133" lat="59.3347361077" lon="10.3786166718">
		<tag k="name" v="Tveiten" />
		<tag k="place" v="farm" />
		<tag k="ssr:stedsnr" v="306560" />
	</node>
	<node id="-197132" lat="59.3390611154" lon="10.4764888864">
		<tag k="alt_name" v="Stang" />
		<tag k="fixme" v="consider place=hamlet" />
		<tag k="name" v="Lille Stang" />
		<tag k="place" v="farm" />
		<tag k="ssr:stedsnr" v="306557" />
	</node>
	<node id="-197131" lat="59.3070638917" lon="10.3397805606">
		<tag k="alt_name" v="Åleborgen" />
		<tag k="fixme" v="consider place=hamlet" />
		<tag k="name" v="Åleborga" />
		<tag k="place" v="farm" />
		<tag k="ssr:stedsnr" v="306824" />
	</node>
	<node id="-197130" lat="59.300874999" lon="10.3669027741">
		<tag k="aeroway" v="aerodrome" />
		<tag k="loc_name" v="Jarlsberg" />
		<tag k="name" v="Tønsberg flyplass, Jarlsberg" />
		<tag k="old_name" v="Jarlsberg flyplass" />
		<tag k="ssr:stedsnr" v="305680" />
	</node>
	<node id="-197129" lat="59.3512111103" lon="10.4179749917">
		<tag k="fixme" v="consider place=hamlet" />
		<tag k="name" v="Myre" />
		<tag k="place" v="farm" />
		<tag k="ssr:stedsnr" v="305628" />
	</node>
	<node id="-197126" lat="59.2674472209" lon="10.4731638933">
		<tag k="name" v="Granø" />
		<tag k="natural" v="hill" />
		<tag k="place" v="locality" />
		<tag k="ssr:stedsnr" v="298289" />
	</node>
	<node id="-197123" lat="59.3145999983" lon="10.3695805542">
		<tag k="layer" v="-1" />
		<tag k="name" v="Gullitunnelen" />
		<tag k="ssr:stedsnr" v="295551" />
		<tag k="tunnel" v="yes" />
	</node>
	<node id="-197122" lat="59.3457972228" lon="10.3577694391">
		<tag k="man_made" v="cairn" />
		<tag k="name" v="Undrumsås" />
		<tag k="place" v="locality" />
		<tag k="ssr:stedsnr" v="293118" />
	</node>
	<node id="-197121" lat="59.2795944442" lon="10.3092777826">
		<tag k="bridge" v="yes" />
		<tag k="layer" v="1" />
		<tag k="name" v="Hesby søndre" />
		<tag k="ssr:stedsnr" v="289546" />
	</node>
	<node id="-197120" lat="59.2823787032" lon="10.4145190097">
		<tag k="barrier" v="toll_booth" />
		<tag k="name" v="Gressbanen" />
		<tag k="ssr:stedsnr" v="282514" />
	</node>
	<node id="-197119" lat="59.348766664" lon="10.396658337">
		<tag k="fixme" v="consider natural=peak for the most distinct mountains in the district" />
		<tag k="name" v="Uleberget" />
		<tag k="natural" v="hill" />
		<tag k="place" v="locality" />
		<tag k="ssr:stedsnr" v="271444" />
	</node>
	<node id="-197118" lat="59.235944446" lon="10.4599027724">
		<tag k="name" v="Føynlandsundet" />
		<tag k="natural" v="strait" />
		<tag k="ssr:stedsnr" v="271040" />
	</node>
	<node id="-197117" lat="59.293749997" lon="10.2946472135">
		<tag k="fixme" v="consider natural=peak for the most distinct mountains in the district" />
		<tag k="name" v="Rygg" />
		<tag k="natural" v="hill" />
		<tag k="place" v="locality" />
		<tag k="ssr:stedsnr" v="270738" />
	</node>
	<node id="-197116" lat="59.2857222201" lon="10.303966671">
		<tag k="fixme" v="consider natural=peak for the most distinct mountains in the district" />
		<tag k="name" v="Kjerringhovet" />
		<tag k="natural" v="hill" />
		<tag k="place" v="locality" />
		<tag k="ssr:stedsnr" v="270691" />
	</node>
</osm>
