<?xml version="1.0" encoding="UTF-8"?>
<osm generator="osmapis" version="0.6">
	<node id="-197632" lat="59.2387027817" lon="10.4526944501">
		<tag k="bridge" v="yes" />
		<tag k="layer" v="1" />
		<tag k="name" v="Husøy" />
		<tag k="ssr:stedsnr" v="714610" />
	</node>
	<node id="-197375" lat="59.2609805593" lon="10.4130861193">
		<tag k="man_made" v="quay" />
		<tag k="name" v="Teiebrygga" />
		<tag k="place" v="locality" />
		<tag k="ssr:stedsnr" v="177923" />
	</node>
	<node id="-197372" lat="59.3040694453" lon="10.3599166726">
		<tag k="bridge" v="yes" />
		<tag k="layer" v="1" />
		<tag k="name" v="Fyllpå" />
		<tag k="ssr:stedsnr" v="167667" />
	</node>
	<node id="-197371" lat="59.2904611116" lon="10.3461249973">
		<tag k="bridge" v="yes" />
		<tag k="layer" v="1" />
		<tag k="name" v="Auli nordre" />
		<tag k="ssr:stedsnr" v="167663" />
	</node>
	<node id="-197370" lat="59.2610555546" lon="10.4158583363">
		<tag k="bridge" v="yes" />
		<tag k="layer" v="1" />
		<tag k="name" v="Tønsberg kanalbru" />
		<tag k="ssr:stedsnr" v="167566" />
	</node>
	<node id="-197369" lat="59.3144444418" lon="10.3696888801">
		<tag k="bridge" v="yes" />
		<tag k="layer" v="1" />
		<tag k="name" v="Gulli" />
		<tag k="ssr:stedsnr" v="167563" />
	</node>
	<node id="-197496" lat="59.2820947128" lon="10.4331626603">
		<tag k="barrier" v="toll_booth" />
		<tag k="name" v="Slagendalen" />
		<tag k="ssr:stedsnr" v="463491" />
	</node>
	<node id="-197367" lat="59.2735722213" lon="10.4329222212">
		<tag k="bridge" v="yes" />
		<tag k="layer" v="1" />
		<tag k="name" v="Kilen" />
		<tag k="ssr:stedsnr" v="167561" />
	</node>
	<node id="-197161" lat="59.2939833313" lon="10.3488083292">
		<tag k="bridge" v="yes" />
		<tag k="layer" v="1" />
		<tag k="name" v="Bispeveien" />
		<tag k="ssr:stedsnr" v="349677" />
	</node>
	<node id="-197566" lat="59.2765583342" lon="10.3640888965">
		<tag k="bridge" v="yes" />
		<tag k="layer" v="1" />
		<tag k="name" v="Hoksnes" />
		<tag k="ssr:stedsnr" v="592544" />
	</node>
	<node id="-197120" lat="59.2823787032" lon="10.4145190097">
		<tag k="barrier" v="toll_booth" />
		<tag k="name" v="Gressbanen" />
		<tag k="ssr:stedsnr" v="282514" />
	</node>
	<node id="-197355" lat="59.3273194402" lon="10.4160694457">
		<tag k="junction" v="yes" />
		<tag k="name" v="Fridheim" />
		<tag k="place" v="locality" />
		<tag k="ssr:stedsnr" v="146756" />
	</node>
	<node id="-197602" lat="59.2851611105" lon="10.3187750077">
		<tag k="bridge" v="yes" />
		<tag k="layer" v="1" />
		<tag k="name" v="Tem driftskulvert" />
		<tag k="ssr:stedsnr" v="652505" />
	</node>
	<node id="-197335" lat="59.2819499994" lon="10.370752772">
		<tag k="bridge" v="yes" />
		<tag k="layer" v="1" />
		<tag k="name" v="Auli bru nedre" />
		<tag k="ssr:stedsnr" v="107658" />
	</node>
	<node id="-197586" lat="59.3025861101" lon="10.4689388952">
		<tag k="junction" v="yes" />
		<tag k="name" v="Hassum" />
		<tag k="place" v="locality" />
		<tag k="ssr:stedsnr" v="631815" />
	</node>
	<node id="-197200" lat="59.2589944432" lon="10.3608222309">
		<tag k="bridge" v="yes" />
		<tag k="layer" v="1" />
		<tag k="name" v="Vear" />
		<tag k="ssr:stedsnr" v="896777" />
	</node>
	<node id="-197199" lat="59.3024916684" lon="10.3586194458">
		<tag k="bridge" v="yes" />
		<tag k="layer" v="1" />
		<tag k="name" v="Fadum" />
		<tag k="ssr:stedsnr" v="896690" />
	</node>
	<node id="-197198" lat="59.2861027771" lon="10.3359444481">
		<tag k="bridge" v="yes" />
		<tag k="layer" v="1" />
		<tag k="name" v="Semsbyen nordre" />
		<tag k="ssr:stedsnr" v="896560" />
	</node>
	<node id="-197197" lat="59.3315166635" lon="10.3788388827">
		<tag k="bridge" v="yes" />
		<tag k="layer" v="1" />
		<tag k="name" v="Tveiten søndre" />
		<tag k="ssr:stedsnr" v="896557" />
	</node>
	<node id="-197196" lat="59.2894277741" lon="10.4351888969">
		<tag k="bridge" v="yes" />
		<tag k="layer" v="1" />
		<tag k="name" v="Velle" />
		<tag k="ssr:stedsnr" v="410534" />
	</node>
	<node id="-197730" lat="59.2495055511" lon="10.4744250035">
		<tag k="man_made" v="quay" />
		<tag k="name" v="Husvikbrygga" />
		<tag k="place" v="locality" />
		<tag k="ssr:stedsnr" v="905004" />
	</node>
	<node id="-197195" lat="59.2733555539" lon="10.4428166579">
		<tag k="barrier" v="toll_booth" />
		<tag k="name" v="Kilen" />
		<tag k="ssr:stedsnr" v="403491" />
	</node>
	<node id="-197696" lat="59.2908138894" lon="10.3263666704">
		<tag k="bridge" v="yes" />
		<tag k="layer" v="1" />
		<tag k="name" v="Lensberg" />
		<tag k="ssr:stedsnr" v="835556" />
	</node>
	<node id="-197695" lat="59.2854028287" lon="10.3956271079">
		<tag k="barrier" v="toll_booth" />
		<tag k="name" v="Kjelle" />
		<tag k="ssr:stedsnr" v="828670" />
	</node>
	<node id="-197694" lat="59.2616722266" lon="10.4163416693">
		<tag k="barrier" v="toll_booth" />
		<tag k="name" v="Kanalen" />
		<tag k="ssr:stedsnr" v="828480" />
	</node>
	<node id="-197299" lat="59.2880833298" lon="10.3334916712">
		<tag k="bridge" v="yes" />
		<tag k="layer" v="1" />
		<tag k="name" v="Aulerød" />
		<tag k="ssr:stedsnr" v="46694" />
	</node>
	<node id="-197298" lat="59.2930638848" lon="10.3510250055">
		<tag k="bridge" v="yes" />
		<tag k="layer" v="1" />
		<tag k="name" v="Åsbakken" />
		<tag k="ssr:stedsnr" v="46567" />
	</node>
	<node id="-197297" lat="59.2810999967" lon="10.3098944366">
		<tag k="bridge" v="yes" />
		<tag k="layer" v="1" />
		<tag k="name" v="Hesby" />
		<tag k="ssr:stedsnr" v="46552" />
	</node>
	<node id="-197424" lat="59.2635666643" lon="10.411474996">
		<tag k="man_made" v="quay" />
		<tag k="name" v="Sagabrygga" />
		<tag k="place" v="locality" />
		<tag k="ssr:stedsnr" v="238921" />
	</node>
	<node id="-197533" lat="59.2707904229" lon="10.4019303723">
		<tag k="layer" v="-1" />
		<tag k="name" v="Slottsfjelltunnelen" />
		<tag k="ssr:stedsnr" v="517917" />
		<tag k="tunnel" v="yes" />
	</node>
	<node id="-197419" lat="59.2399249975" lon="10.4700833248">
		<tag k="man_made" v="quay" />
		<tag k="name" v="Husøybrygga" />
		<tag k="place" v="locality" />
		<tag k="ssr:stedsnr" v="237007" />
	</node>
	<node id="-197417" lat="59.2850805565" lon="10.3185222143">
		<tag k="bridge" v="yes" />
		<tag k="layer" v="1" />
		<tag k="name" v="Tem nordre" />
		<tag k="ssr:stedsnr" v="228573" />
	</node>
	<node id="-197160" lat="59.287197221" lon="10.4060416701">
		<tag k="bridge" v="yes" />
		<tag k="layer" v="1" />
		<tag k="name" v="Kjellengveien" />
		<tag k="ssr:stedsnr" v="349565" />
	</node>
	<node id="-197368" lat="59.3174611146" lon="10.377072231">
		<tag k="bridge" v="yes" />
		<tag k="layer" v="1" />
		<tag k="name" v="Gulli kreaturundergang" />
		<tag k="ssr:stedsnr" v="167562" />
	</node>
	<node id="-197662" lat="59.2594027792" lon="10.4194249961">
		<tag k="man_made" v="quay" />
		<tag k="name" v="Kanalbrygga (Nøtterøysida)" />
		<tag k="place" v="locality" />
		<tag k="ssr:stedsnr" v="784406" />
	</node>
	<node id="-197661" lat="59.2930250013" lon="10.3471111191">
		<tag k="bridge" v="yes" />
		<tag k="layer" v="1" />
		<tag k="name" v="Bispevegen kulvert" />
		<tag k="ssr:stedsnr" v="774677" />
	</node>
	<node id="-197660" lat="59.2841611078" lon="10.4128166709">
		<tag k="bridge" v="yes" />
		<tag k="layer" v="1" />
		<tag k="name" v="Grevskogen" />
		<tag k="ssr:stedsnr" v="774568" />
	</node>
	<node id="-197534" lat="59.3288888913" lon="10.3797777736">
		<tag k="bridge" v="yes" />
		<tag k="layer" v="1" />
		<tag k="name" v="Eikeberg" />
		<tag k="ssr:stedsnr" v="531667" />
	</node>
	<node id="-197252" lat="59.2600655585" lon="10.4227320686">
		<tag k="man_made" v="quay" />
		<tag k="name" v="Stensarmen" />
		<tag k="place" v="locality" />
		<tag k="ssr:stedsnr" v="988655" />
	</node>
	<node id="-197121" lat="59.2795944442" lon="10.3092777826">
		<tag k="bridge" v="yes" />
		<tag k="layer" v="1" />
		<tag k="name" v="Hesby søndre" />
		<tag k="ssr:stedsnr" v="289546" />
	</node>
	<node id="-197282" lat="59.2629694443" lon="10.4885972186">
		<tag k="man_made" v="quay" />
		<tag k="name" v="Surka" />
		<tag k="place" v="locality" />
		<tag k="ssr:stedsnr" v="25781" />
	</node>
	<node id="-197122" lat="59.3457972228" lon="10.3577694391">
		<tag k="man_made" v="cairn" />
		<tag k="name" v="Undrumsås" />
		<tag k="place" v="locality" />
		<tag k="ssr:stedsnr" v="293118" />
	</node>
	<node id="-197130" lat="59.300874999" lon="10.3669027741">
		<tag k="aeroway" v="aerodrome" />
		<tag k="loc_name" v="Jarlsberg" />
		<tag k="name" v="Tønsberg flyplass, Jarlsberg" />
		<tag k="old_name" v="Jarlsberg flyplass" />
		<tag k="ssr:stedsnr" v="305680" />
	</node>
	<node id="-197768" lat="59.2603027818" lon="10.4193194367">
		<tag k="man_made" v="quay" />
		<tag k="name" v="Kanalbrygga" />
		<tag k="place" v="locality" />
		<tag k="ssr:stedsnr" v="966392" />
	</node>
	<node id="-197766" lat="59.2918833319" lon="10.3446805643">
		<tag k="bridge" v="yes" />
		<tag k="layer" v="1" />
		<tag k="name" v="Aulielva" />
		<tag k="ssr:stedsnr" v="956675" />
	</node>
	<node id="-197765" lat="59.2801194469" lon="10.2857583273">
		<tag k="bridge" v="yes" />
		<tag k="layer" v="1" />
		<tag k="name" v="Tveitan bru" />
		<tag k="ssr:stedsnr" v="956568" />
	</node>
	<node id="-197764" lat="59.2815249999" lon="10.3665138953">
		<tag k="barrier" v="toll_booth" />
		<tag k="name" v="Auli" />
		<tag k="ssr:stedsnr" v="949667" />
	</node>
	<node id="-197123" lat="59.3145999983" lon="10.3695805542">
		<tag k="layer" v="-1" />
		<tag k="name" v="Gullitunnelen" />
		<tag k="ssr:stedsnr" v="295551" />
		<tag k="tunnel" v="yes" />
	</node>
	<node id="-197634" lat="59.2725833338" lon="10.4084249935">
		<tag k="name" v="Tønsberg" />
		<tag k="railway" v="station" />
		<tag k="ssr:stedsnr" v="723362" />
		<tag k="train" v="yes" />
	</node>
	<node id="-197163" lat="59.2676935222" lon="10.4033456328">
		<tag k="man_made" v="quay" />
		<tag k="name" v="Tollbodbrygga" />
		<tag k="place" v="locality" />
		<tag k="ssr:stedsnr" v="359913" />
	</node>
</osm>
