<?xml version="1.0" encoding="UTF-8"?>
<osm generator="osmapis" version="0.6">
	<node id="-197118" lat="59.235944446" lon="10.4599027724">
		<tag k="name" v="Føynlandsundet" />
		<tag k="natural" v="strait" />
		<tag k="ssr:stedsnr" v="271040" />
	</node>
	<node id="-197373" lat="59.2479250027" lon="10.4744083354">
		<tag k="name" v="Husviksundet" />
		<tag k="natural" v="strait" />
		<tag k="ssr:stedsnr" v="177087" />
	</node>
	<node id="-197495" lat="59.2901472199" lon="10.5212333308">
		<tag k="name" v="Torskegrunnen" />
		<tag k="natural" v="shoal" />
		<tag k="place" v="locality" />
		<tag k="ssr:stedsnr" v="453115" />
	</node>
	<node id="-197494" lat="59.2871500028" lon="10.5290111046">
		<tag k="name" v="Klemmetgrunnen" />
		<tag k="natural" v="shoal" />
		<tag k="place" v="locality" />
		<tag k="ssr:stedsnr" v="453117" />
	</node>
	<node id="-197365" lat="59.25193611" lon="10.5119805641">
		<tag k="bay" v="fjord" />
		<tag k="name" v="Torgersøygapet" />
		<tag k="natural" v="bay" />
		<tag k="ssr:stedsnr" v="149050" />
	</node>
	<node id="-197619" lat="59.260336108" lon="10.4259055508">
		<tag k="name" v="Træleborgodden" />
		<tag k="natural" v="cape" />
		<tag k="ssr:stedsnr" v="692742" />
	</node>
	<node id="-197743" lat="59.2585892876" lon="10.4971187562">
		<tag k="name" v="Vallø" />
		<tag k="natural" v="cape" />
		<tag k="ssr:stedsnr" v="931044" />
	</node>
	<node id="-197358" lat="59.2496277746" lon="10.4744138862">
		<tag k="name" v="Fagersand" />
		<tag k="natural" v="beach" />
		<tag k="place" v="locality" />
		<tag k="ssr:stedsnr" v="146966" />
	</node>
	<node id="-197483" lat="59.2477472189" lon="10.4693333325">
		<tag k="alt_name" v="Husvikkilen" />
		<tag k="name" v="Kilen" />
		<tag k="natural" v="bay" />
		<tag k="ssr:stedsnr" v="450985" />
	</node>
	<node id="-197354" lat="59.2530138872" lon="10.4782999912">
		<tag k="name" v="Jernvik" />
		<tag k="natural" v="bay" />
		<tag k="ssr:stedsnr" v="146753" />
	</node>
	<node id="-197159" lat="59.2652722231" lon="10.3952111038">
		<tag k="name" v="Kaldnes" />
		<tag k="natural" v="cape" />
		<tag k="ssr:stedsnr" v="331050" />
	</node>
	<node id="-197352" lat="59.2626027776" lon="10.4132333407">
		<tag k="name" v="Ollebukta" />
		<tag k="natural" v="bay" />
		<tag k="ssr:stedsnr" v="146741" />
	</node>
	<node id="-197734" lat="59.3430500045" lon="10.5462749919">
		<tag k="name" v="Hauken" />
		<tag k="natural" v="shoal" />
		<tag k="place" v="locality" />
		<tag k="ssr:stedsnr" v="913562" />
	</node>
	<node id="-197137" lat="59.2621882629" lon="10.4111815873">
		<tag k="alt_name" v="Tønsberg kanal" />
		<tag k="name" v="Kanalen" />
		<tag k="natural" v="strait" />
		<tag k="ssr:stedsnr" v="306609" />
	</node>
	<node id="-197286" lat="59.3432250012" lon="10.4811361031">
		<tag k="name" v="Teigsverven" />
		<tag k="natural" v="bay" />
		<tag k="ssr:stedsnr" v="25822" />
	</node>
	<node id="-197472" lat="59.2620027789" lon="10.4410305563">
		<tag k="name" v="Råel" />
		<tag k="natural" v="bay" />
		<tag k="ssr:stedsnr" v="450764" />
	</node>
	<node id="-197599" lat="59.2801833334" lon="10.5173611102">
		<tag k="name" v="Kultegrunnen" />
		<tag k="natural" v="shoal" />
		<tag k="place" v="locality" />
		<tag k="ssr:stedsnr" v="634088" />
	</node>
	<node id="-197413" lat="59.3307666694" lon="10.5185527713">
		<tag k="name" v="Evensgrunnen" />
		<tag k="natural" v="shoal" />
		<tag k="place" v="locality" />
		<tag k="ssr:stedsnr" v="210108" />
	</node>
	<node id="-197593" lat="59.2770472253" lon="10.5006777849">
		<tag k="name" v="Ringshaugodden" />
		<tag k="natural" v="cape" />
		<tag k="ssr:stedsnr" v="633233" />
	</node>
	<node id="-197464" lat="59.2839500008" lon="10.5015750006">
		<tag k="name" v="Ringshaugbukta" />
		<tag k="natural" v="bay" />
		<tag k="ssr:stedsnr" v="428608" />
	</node>
	<node id="-197719" lat="59.2471999969" lon="10.471133335">
		<tag k="name" v="Jarlsøsundet" />
		<tag k="natural" v="strait" />
		<tag k="ssr:stedsnr" v="874999" />
	</node>
	<node id="-197333" lat="59.3229583316" lon="10.5190194486">
		<tag k="fixme" v="consider seamark:type=rock or natural=shoal" />
		<tag k="name" v="Riveskjæret" />
		<tag k="place" v="islet" />
		<tag k="ssr:stedsnr" v="89796" />
	</node>
	<node id="-197587" lat="59.3374888926" lon="10.4869749995">
		<tag k="name" v="Feskjær" />
		<tag k="natural" v="cape" />
		<tag k="ssr:stedsnr" v="631826" />
	</node>
	<node id="-197458" lat="59.3360805531" lon="10.518783333">
		<tag k="name" v="Flaket" />
		<tag k="old_name" v="Sletta" />
		<tag k="place" v="locality" />
		<tag k="ssr:stedsnr" v="420847" />
	</node>
	<node id="-197457" lat="59.3123305576" lon="10.5251222285">
		<tag k="name" v="Bakkeskogstranda" />
		<tag k="natural" v="beach" />
		<tag k="place" v="locality" />
		<tag k="ssr:stedsnr" v="420848" />
	</node>
	<node id="-197455" lat="59.344941666" lon="10.4786111178">
		<tag k="name" v="Teigsberget" />
		<tag k="natural" v="cape" />
		<tag k="ssr:stedsnr" v="268820" />
	</node>
	<node id="-197580" lat="59.2597166701" lon="10.3395527861">
		<tag k="name" v="Eldrebukta" />
		<tag k="natural" v="bay" />
		<tag k="ssr:stedsnr" v="631386" />
	</node>
	<node id="-197194" lat="59.2435222243" lon="10.4615638962">
		<tag k="name" v="Husøysundet" />
		<tag k="natural" v="strait" />
		<tag k="ssr:stedsnr" v="392991" />
	</node>
	<node id="-197192" lat="59.2636027803" lon="10.4878361063">
		<tag k="name" v="Surka" />
		<tag k="natural" v="bay" />
		<tag k="ssr:stedsnr" v="392819" />
	</node>
	<node id="-197191" lat="59.3317388916" lon="10.5045388893">
		<tag k="name" v="Kibbnebbgrunnen" />
		<tag k="natural" v="shoal" />
		<tag k="place" v="locality" />
		<tag k="ssr:stedsnr" v="392125" />
	</node>
	<node id="-197702" lat="59.2446027785" lon="10.4738916611">
		<tag k="name" v="Jarlsø" />
		<tag k="place" v="island" />
		<tag k="ssr:stedsnr" v="851009" />
	</node>
	<node id="-197701" lat="59.24645" lon="10.5019249936">
		<tag k="name" v="Torgersøya" />
		<tag k="place" v="island" />
		<tag k="ssr:stedsnr" v="851003" />
	</node>
	<node id="-197316" lat="59.2505666659" lon="10.4769472222">
		<tag k="name" v="Rødstein" />
		<tag k="natural" v="cape" />
		<tag k="ssr:stedsnr" v="85718" />
	</node>
	<node id="-197174" lat="59.2821861113" lon="10.5031416654">
		<tag k="name" v="Ringshaugholmen" />
		<tag k="natural" v="cape" />
		<tag k="ssr:stedsnr" v="367619" />
	</node>
	<node id="-197698" lat="59.241941667" lon="10.4504305568">
		<tag k="name" v="Kalvetangbukta" />
		<tag k="natural" v="bay" />
		<tag k="ssr:stedsnr" v="845247" />
	</node>
	<node id="-197531" lat="59.2444333319" lon="10.5105638852">
		<tag k="name" v="Granabåsundet" />
		<tag k="natural" v="strait" />
		<tag k="ssr:stedsnr" v="513799" />
	</node>
	<node id="-197438" lat="59.2938250013" lon="10.5186499933">
		<tag k="name" v="Karlsvikodden" />
		<tag k="natural" v="cape" />
		<tag k="ssr:stedsnr" v="246611" />
	</node>
	<node id="-197305" lat="59.3336000037" lon="10.4945527745">
		<tag k="fixme" v="consider seamark:type=rock or natural=shoal" />
		<tag k="name" v="Saltkoppskjæret" />
		<tag k="place" v="islet" />
		<tag k="ssr:stedsnr" v="63602" />
	</node>
	<node id="-197688" lat="59.2916361088" lon="10.5028472181">
		<tag k="alt_name" v="Skallevoldbukta" />
		<tag k="name" v="Skallevollbukta" />
		<tag k="natural" v="bay" />
		<tag k="ssr:stedsnr" v="815877" />
	</node>
	<node id="-197559" lat="59.3230666635" lon="10.519233338">
		<tag k="name" v="Skollerød" />
		<tag k="natural" v="cape" />
		<tag k="ssr:stedsnr" v="572225" />
	</node>
	<node id="-197302" lat="59.2450999984" lon="10.4635333258">
		<tag k="name" v="Tangen" />
		<tag k="natural" v="cape" />
		<tag k="ssr:stedsnr" v="62008" />
	</node>
	<node id="-197557" lat="59.2434638867" lon="10.4568972135">
		<tag k="name" v="Sandodden" />
		<tag k="natural" v="cape" />
		<tag k="ssr:stedsnr" v="571998" />
	</node>
	<node id="-197556" lat="59.2404555599" lon="10.4502305633">
		<tag k="name" v="Bjørnebusundet" />
		<tag k="natural" v="strait" />
		<tag k="ssr:stedsnr" v="571994" />
	</node>
	<node id="-197689" lat="59.3092611112" lon="10.5274138895">
		<tag k="alt_name" v="Dyrnes" />
		<tag k="name" v="Dyrnesodden" />
		<tag k="natural" v="cape" />
		<tag k="ssr:stedsnr" v="816194" />
	</node>
	<node id="-197426" lat="59.3353746395" lon="10.5698201396">
		<tag k="alt_name" v="Mefjordbåen" />
		<tag k="name" v="Medfjordbåen" />
		<tag k="natural" v="shoal" />
		<tag k="place" v="locality" />
		<tag k="ssr:stedsnr" v="245573" />
	</node>
	<node id="-197279" lat="59.2758805567" lon="10.3910666627">
		<tag k="name" v="Holmen" />
		<tag k="natural" v="cape" />
		<tag k="ssr:stedsnr" v="25754" />
	</node>
	<node id="-197296" lat="59.2582027738" lon="10.4273194414">
		<tag k="name" v="Træla" />
		<tag k="place" v="locality" />
		<tag k="ssr:stedsnr" v="267730" />
	</node>
	<node id="-197294" lat="59.3379111084" lon="10.5738027813">
		<tag k="name" v="Nordostgrunnen" />
		<tag k="natural" v="shoal" />
		<tag k="place" v="locality" />
		<tag k="ssr:stedsnr" v="28910" />
	</node>
	<node id="-197421" lat="59.2533333356" lon="10.5025805616">
		<tag k="name" v="Hestebåen" />
		<tag k="natural" v="shoal" />
		<tag k="place" v="locality" />
		<tag k="ssr:stedsnr" v="238342" />
	</node>
	<node id="-197164" lat="59.2641972179" lon="10.3770999952">
		<tag k="name" v="Sandodden" />
		<tag k="natural" v="cape" />
		<tag k="ssr:stedsnr" v="359928" />
	</node>
	<node id="-197416" lat="59.3439638871" lon="10.4799944446">
		<tag k="name" v="Stangstranda" />
		<tag k="natural" v="beach" />
		<tag k="place" v="locality" />
		<tag k="ssr:stedsnr" v="223991" />
	</node>
	<node id="-197415" lat="59.2767583309" lon="10.500011103">
		<tag k="name" v="Kjempeodden" />
		<tag k="natural" v="cape" />
		<tag k="ssr:stedsnr" v="210119" />
	</node>
	<node id="-197414" lat="59.3482722229" lon="10.5074388926">
		<tag k="name" v="Snokopp" />
		<tag k="natural" v="shoal" />
		<tag k="place" v="locality" />
		<tag k="ssr:stedsnr" v="210107" />
	</node>
	<node id="-197157" lat="59.3254027734" lon="10.5090861099">
		<tag k="alt_name" v="Kibbnebb" />
		<tag k="name" v="Kibneb" />
		<tag k="natural" v="cape" />
		<tag k="ssr:stedsnr" v="330226" />
	</node>
	<node id="-197156" lat="59.2388111103" lon="10.4777083255">
		<tag k="name" v="Flaket" />
		<tag k="place" v="sea" />
		<tag k="ssr:stedsnr" v="328997" />
	</node>
	<node id="-197190" lat="59.2681583319" lon="10.4341750011">
		<tag k="name" v="Kilen" />
		<tag k="natural" v="bay" />
		<tag k="ssr:stedsnr" v="392040" />
	</node>
	<node id="-197538" lat="59.2336805584" lon="10.4672305592">
		<tag k="name" v="Fiskeriet" />
		<tag k="natural" v="cape" />
		<tag k="ssr:stedsnr" v="547036" />
	</node>
	<node id="-197330" lat="59.2425666692" lon="10.5055083401">
		<tag k="name" v="Granabåene" />
		<tag k="place" v="locality" />
		<tag k="seamark:type" v="rock" />
		<tag k="ssr:stedsnr" v="89066" />
	</node>
	<node id="-197663" lat="59.3360249982" lon="10.4898944409">
		<tag k="fixme" v="consider seamark:type=rock or natural=shoal" />
		<tag k="name" v="Guriskjæret" />
		<tag k="place" v="islet" />
		<tag k="ssr:stedsnr" v="791576" />
	</node>
	<node id="-197405" lat="59.3237027803" lon="10.4970277742">
		<tag k="name" v="Strand" />
		<tag k="natural" v="beach" />
		<tag k="place" v="locality" />
		<tag k="ssr:stedsnr" v="209203" />
	</node>
	<node id="-197275" lat="59.2541361073" lon="10.3735166681">
		<tag k="name" v="Sandodden" />
		<tag k="place" v="islet" />
		<tag k="ssr:stedsnr" v="25396" />
	</node>
	<node id="-197530" lat="59.2604249987" lon="10.4237583415">
		<tag k="alt_name" v="Trælleborg" />
		<tag k="name" v="Træleborg" />
		<tag k="natural" v="cape" />
		<tag k="ssr:stedsnr" v="513790" />
	</node>
	<node id="-197655" lat="59.3161196143" lon="10.5289016318">
		<tag k="name" v="Slagentangen" />
		<tag k="natural" v="cape" />
		<tag k="ssr:stedsnr" v="755193" />
	</node>
	<node id="-197166" lat="59.346341667" lon="10.4961277705">
		<tag k="fixme" v="consider seamark:type=rock or natural=shoal" />
		<tag k="name" v="Småskjæret" />
		<tag k="place" v="islet" />
		<tag k="ssr:stedsnr" v="366602" />
	</node>
	<node id="-197650" lat="59.2585583329" lon="10.4763861081">
		<tag k="name" v="Kloppbukta" />
		<tag k="natural" v="bay" />
		<tag k="ssr:stedsnr" v="753746" />
	</node>
	<node id="-197521" lat="59.236908335" lon="10.458105563">
		<tag k="name" v="Myrasundet" />
		<tag k="natural" v="strait" />
		<tag k="ssr:stedsnr" v="510997" />
	</node>
	<node id="-197136" lat="59.2800166622" lon="10.5004138957">
		<tag k="name" v="Ringshaug" />
		<tag k="natural" v="cape" />
		<tag k="ssr:stedsnr" v="306597" />
	</node>
	<node id="-197647" lat="59.2676972236" lon="10.3777833406">
		<tag k="name" v="Smørbergstranda" />
		<tag k="natural" v="beach" />
		<tag k="place" v="locality" />
		<tag k="ssr:stedsnr" v="753356" />
	</node>
	<node id="-197537" lat="59.2748333293" lon="10.3878305593">
		<tag k="name" v="Tjuvholmen" />
		<tag k="natural" v="cape" />
		<tag k="ssr:stedsnr" v="541553" />
	</node>
	<node id="-197442" lat="59.2720194464" lon="10.3868333292">
		<tag k="bay" v="fjord" />
		<tag k="name" v="Byfjorden" />
		<tag k="natural" v="bay" />
		<tag k="ssr:stedsnr" v="252618" />
	</node>
	<node id="-197385" lat="59.2982138927" lon="10.5157500078">
		<tag k="name" v="Nordre Karlsvika" />
		<tag k="natural" v="cape" />
		<tag k="ssr:stedsnr" v="203054" />
	</node>
	<node id="-197659" lat="59.2595611129" lon="10.48048611">
		<tag k="name" v="Helodden" />
		<tag k="natural" v="cape" />
		<tag k="ssr:stedsnr" v="756114" />
	</node>
	<node id="-197510" lat="59.2963611108" lon="10.5151944454">
		<tag k="name" v="Søndre Karlsvika" />
		<tag k="natural" v="bay" />
		<tag k="ssr:stedsnr" v="506039" />
	</node>
	<node id="-197441" lat="59.2555500025" lon="10.4876972158">
		<tag k="name" v="Valløbukta" />
		<tag k="natural" v="bay" />
		<tag k="ssr:stedsnr" v="246653" />
	</node>
	<node id="-197541" lat="59.3255333311" lon="10.5001888959">
		<tag k="name" v="Bliksekilen" />
		<tag k="natural" v="bay" />
		<tag k="ssr:stedsnr" v="548606" />
	</node>
	<node id="-197763" lat="59.2497083348" lon="10.4684361088">
		<tag k="name" v="Fagersand" />
		<tag k="natural" v="beach" />
		<tag k="place" v="locality" />
		<tag k="ssr:stedsnr" v="938791" />
	</node>
	<node id="-197638" lat="59.2384222267" lon="10.4647416658">
		<tag k="name" v="Husøy" />
		<tag k="place" v="island" />
		<tag k="ssr:stedsnr" v="730025" />
	</node>
	<node id="-197761" lat="59.3471000038" lon="10.4790833346">
		<tag k="fixme" v="consider seamark:type=rock or natural=shoal" />
		<tag k="name" v="Hausen" />
		<tag k="place" v="islet" />
		<tag k="ssr:stedsnr" v="938099" />
	</node>
</osm>
