<?xml version="1.0" encoding="UTF-8"?>
<osm generator="osmapis" version="0.6">
	<node id="-198016" lat="59.2541916641" lon="10.3715555567">
		<tag k="name" v="Utkikken" />
		<tag k="natural" v="cliff" />
		<tag k="ssr:stedsnr" v="875406" />
	</node>
	<node id="-197887" lat="59.2800083366" lon="10.4997277825">
		<tag k="fixme" v="consider natural=peak for the most distinct mountains in the district" />
		<tag k="name" v="Kjempeåsen" />
		<tag k="natural" v="hill" />
		<tag k="place" v="locality" />
		<tag k="ssr:stedsnr" v="633231" />
	</node>
	<node id="-197885" lat="59.2473944415" lon="10.4632277691">
		<tag k="fixme" v="consider natural=peak for the most distinct mountains in the district" />
		<tag k="name" v="Oberståsen" />
		<tag k="natural" v="hill" />
		<tag k="place" v="locality" />
		<tag k="ssr:stedsnr" v="631996" />
	</node>
	<node id="-197884" lat="59.2502777761" lon="10.4710055515">
		<tag k="fixme" v="consider natural=peak for the most distinct mountains in the district" />
		<tag k="name" v="Kikkut" />
		<tag k="natural" v="hill" />
		<tag k="place" v="locality" />
		<tag k="ssr:stedsnr" v="631965" />
	</node>
	<node id="-198011" lat="59.340222221" lon="10.4788944464">
		<tag k="name" v="Stangåsen" />
		<tag k="natural" v="hill" />
		<tag k="place" v="locality" />
		<tag k="ssr:stedsnr" v="874815" />
	</node>
	<node id="-198010" lat="59.3135972212" lon="10.476424997">
		<tag k="name" v="Langbrekke" />
		<tag k="natural" v="hill" />
		<tag k="place" v="locality" />
		<tag k="ssr:stedsnr" v="874802" />
	</node>
	<node id="-197621" lat="59.2691305534" lon="10.3175611108">
		<tag k="name" v="Hagen" />
		<tag k="natural" v="valley" />
		<tag k="place" v="locality" />
		<tag k="ssr:stedsnr" v="88624" />
	</node>
	<node id="-197876" lat="59.274663888" lon="10.4186638912">
		<tag k="name" v="Nye kirkegård" />
		<tag k="place" v="locality" />
		<tag k="ssr:stedsnr" v="631741" />
	</node>
	<node id="-198003" lat="59.2751805529" lon="10.4386694415">
		<tag k="fixme" v="consider natural=peak for the most distinct mountains in the district" />
		<tag k="name" v="Presterødåsen" />
		<tag k="natural" v="hill" />
		<tag k="place" v="locality" />
		<tag k="ssr:stedsnr" v="874759" />
	</node>
	<node id="-197874" lat="59.271830554" lon="10.3557527784">
		<tag k="fixme" v="consider natural=peak for the most distinct mountains in the district" />
		<tag k="name" v="Bjellandsåsen" />
		<tag k="natural" v="hill" />
		<tag k="place" v="locality" />
		<tag k="ssr:stedsnr" v="631381" />
	</node>
	<node id="-197587" lat="59.3383111079" lon="10.3619916652">
		<tag k="fixme" v="consider natural=peak for the most distinct mountains in the district" />
		<tag k="name" v="Draghølåsen" />
		<tag k="natural" v="hill" />
		<tag k="place" v="locality" />
		<tag k="ssr:stedsnr" v="27817" />
	</node>
	<node id="-197616" lat="59.2716555545" lon="10.4779305585">
		<tag k="name" v="Løveid" />
		<tag k="place" v="locality" />
		<tag k="ssr:stedsnr" v="86757" />
	</node>
	<node id="-197629" lat="59.3398277798" lon="10.469369448">
		<tag k="name" v="Høkliåsen" />
		<tag k="natural" v="hill" />
		<tag k="place" v="locality" />
		<tag k="ssr:stedsnr" v="101987" />
	</node>
	<node id="-197483" lat="59.3311277803" lon="10.3678749941">
		<tag k="fixme" v="consider natural=peak for the most distinct mountains in the district" />
		<tag k="name" v="Høiloft" />
		<tag k="natural" v="hill" />
		<tag k="place" v="locality" />
		<tag k="ssr:stedsnr" v="391778" />
	</node>
	<node id="-197610" lat="59.273191663" lon="10.4632611023">
		<tag k="name" v="Fyllpå" />
		<tag k="place" v="locality" />
		<tag k="ssr:stedsnr" v="85703" />
	</node>
	<node id="-197481" lat="59.2714750016" lon="10.3446583289">
		<tag k="fixme" v="consider natural=peak for the most distinct mountains in the district" />
		<tag k="name" v="Manumåsen" />
		<tag k="natural" v="hill" />
		<tag k="place" v="locality" />
		<tag k="ssr:stedsnr" v="391693" />
	</node>
	<node id="-197478" lat="59.2531388917" lon="10.3453805482">
		<tag k="fixme" v="consider natural=peak for the most distinct mountains in the district" />
		<tag k="name" v="Liaåsen" />
		<tag k="natural" v="hill" />
		<tag k="place" v="locality" />
		<tag k="ssr:stedsnr" v="389421" />
	</node>
	<node id="-197987" lat="59.3460555555" lon="10.357666664">
		<tag k="fixme" v="consider natural=peak for the most distinct mountains in the district" />
		<tag k="name" v="Signalen" />
		<tag k="natural" v="hill" />
		<tag k="place" v="locality" />
		<tag k="ssr:stedsnr" v="816827" />
	</node>
	<node id="-197986" lat="59.322108335" lon="10.3551027842">
		<tag k="fixme" v="consider natural=peak for the most distinct mountains in the district" />
		<tag k="name" v="Storås" />
		<tag k="natural" v="hill" />
		<tag k="place" v="locality" />
		<tag k="ssr:stedsnr" v="816793" />
	</node>
	<node id="-197890" lat="59.3359722252" lon="10.3597861067">
		<tag k="name" v="Trengsla" />
		<tag k="natural" v="valley" />
		<tag k="place" v="locality" />
		<tag k="ssr:stedsnr" v="633775" />
	</node>
	<node id="-197979" lat="59.3020694401" lon="10.4715777841">
		<tag k="name" v="Kjelderbakken" />
		<tag k="natural" v="slope" />
		<tag k="place" v="locality" />
		<tag k="ssr:stedsnr" v="814812" />
	</node>
	<node id="-197850" lat="59.2575611141" lon="10.3740805624">
		<tag k="name" v="Geiteberget" />
		<tag k="natural" v="hill" />
		<tag k="place" v="locality" />
		<tag k="ssr:stedsnr" v="571404" />
	</node>
	<node id="-197849" lat="59.2921055544" lon="10.4344583411">
		<tag k="name" v="Slagendalen" />
		<tag k="natural" v="valley" />
		<tag k="place" v="locality" />
		<tag k="ssr:stedsnr" v="570986" />
	</node>
	<node id="-197976" lat="59.3044222202" lon="10.4315666753">
		<tag k="name" v="Prestelia" />
		<tag k="natural" v="slope" />
		<tag k="place" v="locality" />
		<tag k="ssr:stedsnr" v="814788" />
	</node>
	<node id="-197975" lat="59.3360361115" lon="10.47951389">
		<tag k="fixme" v="consider natural=peak for the most distinct mountains in the district" />
		<tag k="name" v="Rønningåsen" />
		<tag k="natural" v="hill" />
		<tag k="place" v="locality" />
		<tag k="ssr:stedsnr" v="814780" />
	</node>
	<node id="-197971" lat="59.2802527767" lon="10.4287361178">
		<tag k="name" v="Trudvanglia" />
		<tag k="natural" v="slope" />
		<tag k="place" v="locality" />
		<tag k="ssr:stedsnr" v="814751" />
	</node>
	<node id="-197970" lat="59.258886115" lon="10.3646305494">
		<tag k="fixme" v="consider natural=peak for the most distinct mountains in the district" />
		<tag k="name" v="Høgås" />
		<tag k="natural" v="hill" />
		<tag k="place" v="locality" />
		<tag k="ssr:stedsnr" v="814430" />
	</node>
	<node id="-197475" lat="59.309080559" lon="10.4316722268">
		<tag k="name" v="Robergrønningen" />
		<tag k="natural" v="slope" />
		<tag k="place" v="locality" />
		<tag k="ssr:stedsnr" v="388757" />
	</node>
	<node id="-197840" lat="59.3150277809" lon="10.3393583282">
		<tag k="fixme" v="consider natural=peak for the most distinct mountains in the district" />
		<tag k="name" v="Fresteåsen" />
		<tag k="natural" v="hill" />
		<tag k="place" v="locality" />
		<tag k="ssr:stedsnr" v="549783" />
	</node>
	<node id="-197583" lat="59.2926000005" lon="10.3955638823">
		<tag k="name" v="Tomsbakken" />
		<tag k="natural" v="slope" />
		<tag k="place" v="locality" />
		<tag k="ssr:stedsnr" v="25988" />
	</node>
	<node id="-197582" lat="59.2858472218" lon="10.385713881">
		<tag k="name" v="Farmannshaugen" />
		<tag k="natural" v="hill" />
		<tag k="place" v="locality" />
		<tag k="ssr:stedsnr" v="25985" />
	</node>
	<node id="-197453" lat="59.2895249963" lon="10.4941166657">
		<tag k="name" v="Basbergrønningen" />
		<tag k="natural" v="slope" />
		<tag k="place" v="locality" />
		<tag k="ssr:stedsnr" v="330232" />
	</node>
	<node id="-197412" lat="59.293749997" lon="10.2946472135">
		<tag k="fixme" v="consider natural=peak for the most distinct mountains in the district" />
		<tag k="name" v="Rygg" />
		<tag k="natural" v="hill" />
		<tag k="place" v="locality" />
		<tag k="ssr:stedsnr" v="270738" />
	</node>
	<node id="-197707" lat="59.3369638918" lon="10.3599027765">
		<tag k="fixme" v="consider natural=peak for the most distinct mountains in the district" />
		<tag k="name" v="Tybergkollen" />
		<tag k="natural" v="hill" />
		<tag k="place" v="locality" />
		<tag k="ssr:stedsnr" v="209802" />
	</node>
	<node id="-197815" lat="59.3103638933" lon="10.4651999991">
		<tag k="name" v="Horgen" />
		<tag k="place" v="locality" />
		<tag k="ssr:stedsnr" v="510831" />
	</node>
	<node id="-197448" lat="59.3009027757" lon="10.4145638814">
		<tag k="name" v="Eik vestre" />
		<tag k="place" v="locality" />
		<tag k="ssr:stedsnr" v="328786" />
	</node>
	<node id="-197703" lat="59.3091638909" lon="10.305299994">
		<tag k="name" v="Pandedalen" />
		<tag k="natural" v="valley" />
		<tag k="place" v="locality" />
		<tag k="ssr:stedsnr" v="209757" />
	</node>
	<node id="-197572" lat="59.2515555525" lon="10.3493750073">
		<tag k="fixme" v="consider natural=peak for the most distinct mountains in the district" />
		<tag k="name" v="Bruaåsen" />
		<tag k="natural" v="hill" />
		<tag k="place" v="locality" />
		<tag k="ssr:stedsnr" v="25398" />
	</node>
	<node id="-197571" lat="59.2511472232" lon="10.357911104">
		<tag k="fixme" v="consider natural=peak for the most distinct mountains in the district" />
		<tag k="name" v="Vearåsen" />
		<tag k="natural" v="hill" />
		<tag k="place" v="locality" />
		<tag k="ssr:stedsnr" v="25397" />
	</node>
	<node id="-197569" lat="59.2519999977" lon="10.3479166631">
		<tag k="fixme" v="consider natural=peak for the most distinct mountains in the district" />
		<tag k="name" v="Helvikåsen" />
		<tag k="natural" v="hill" />
		<tag k="place" v="locality" />
		<tag k="ssr:stedsnr" v="25393" />
	</node>
	<node id="-197696" lat="59.2832027766" lon="10.4029833275">
		<tag k="name" v="Kjellelia" />
		<tag k="natural" v="slope" />
		<tag k="place" v="locality" />
		<tag k="ssr:stedsnr" v="207990" />
	</node>
	<node id="-197695" lat="59.2829111098" lon="10.4064694397">
		<tag k="fixme" v="consider natural=peak for the most distinct mountains in the district" />
		<tag k="name" v="Frodeåsen" />
		<tag k="natural" v="hill" />
		<tag k="place" v="locality" />
		<tag k="ssr:stedsnr" v="207988" />
	</node>
	<node id="-197821" lat="59.3249083365" lon="10.355863888">
		<tag k="fixme" v="consider natural=peak for the most distinct mountains in the district" />
		<tag k="name" v="Gulliåsen" />
		<tag k="natural" v="hill" />
		<tag k="place" v="locality" />
		<tag k="ssr:stedsnr" v="512777" />
	</node>
	<node id="-197898" lat="59.253277782" lon="10.4727972213">
		<tag k="fixme" v="consider natural=peak for the most distinct mountains in the district" />
		<tag k="name" v="Husvikåsen" />
		<tag k="natural" v="hill" />
		<tag k="place" v="locality" />
		<tag k="ssr:stedsnr" v="662004" />
	</node>
	<node id="-197817" lat="59.2337111144" lon="10.4708472285">
		<tag k="name" v="Bloksberg" />
		<tag k="natural" v="hill" />
		<tag k="place" v="locality" />
		<tag k="ssr:stedsnr" v="511000" />
	</node>
	<node id="-197943" lat="59.2926333291" lon="10.4692388845">
		<tag k="name" v="Pyttene" />
		<tag k="place" v="locality" />
		<tag k="ssr:stedsnr" v="753712" />
	</node>
	<node id="-197705" lat="59.3327166703" lon="10.3609166694">
		<tag k="fixme" v="consider natural=peak for the most distinct mountains in the district" />
		<tag k="name" v="Høiås" />
		<tag k="natural" v="hill" />
		<tag k="place" v="locality" />
		<tag k="ssr:stedsnr" v="209762" />
	</node>
	<node id="-197684" lat="59.2771944424" lon="10.4780416717">
		<tag k="name" v="Åsheim" />
		<tag k="natural" v="slope" />
		<tag k="place" v="locality" />
		<tag k="ssr:stedsnr" v="207727" />
	</node>
	<node id="-197683" lat="59.2802694406" lon="10.4503138848">
		<tag k="fixme" v="consider natural=peak for the most distinct mountains in the district" />
		<tag k="name" v="Sandeåsen" />
		<tag k="natural" v="hill" />
		<tag k="place" v="locality" />
		<tag k="ssr:stedsnr" v="207725" />
	</node>
	<node id="-197807" lat="59.2604138921" lon="10.364347228">
		<tag k="fixme" v="consider natural=peak for the most distinct mountains in the district" />
		<tag k="name" v="Skomakeråsen" />
		<tag k="natural" v="hill" />
		<tag k="place" v="locality" />
		<tag k="ssr:stedsnr" v="510379" />
	</node>
	<node id="-197787" lat="59.3179166635" lon="10.3530194406">
		<tag k="fixme" v="consider natural=peak for the most distinct mountains in the district" />
		<tag k="name" v="Svartåsen" />
		<tag k="natural" v="hill" />
		<tag k="place" v="locality" />
		<tag k="ssr:stedsnr" v="452770" />
	</node>
	<node id="-197421" lat="59.2674472209" lon="10.4731638933">
		<tag k="name" v="Granø" />
		<tag k="natural" v="hill" />
		<tag k="place" v="locality" />
		<tag k="ssr:stedsnr" v="298289" />
	</node>
	<node id="-197746" lat="59.3058777788" lon="10.4694750041">
		<tag k="fixme" v="consider natural=peak for the most distinct mountains in the district" />
		<tag k="name" v="Hassumåsen" />
		<tag k="natural" v="hill" />
		<tag k="place" v="locality" />
		<tag k="ssr:stedsnr" v="267794" />
	</node>
	<node id="-197447" lat="59.3065055595" lon="10.4324055594">
		<tag k="name" v="Skaralia" />
		<tag k="natural" v="slope" />
		<tag k="place" v="locality" />
		<tag k="ssr:stedsnr" v="328772" />
	</node>
	<node id="-197414" lat="59.348766664" lon="10.396658337">
		<tag k="fixme" v="consider natural=peak for the most distinct mountains in the district" />
		<tag k="name" v="Uleberget" />
		<tag k="natural" v="hill" />
		<tag k="place" v="locality" />
		<tag k="ssr:stedsnr" v="271444" />
	</node>
	<node id="-198053" lat="59.2973972266" lon="10.3480750035">
		<tag k="name" v="Åskollen" />
		<tag k="natural" v="hill" />
		<tag k="place" v="locality" />
		<tag k="ssr:stedsnr" v="937770" />
	</node>
	<node id="-198052" lat="59.3153027736" lon="10.4965500008">
		<tag k="name" v="Tufta" />
		<tag k="place" v="locality" />
		<tag k="ssr:stedsnr" v="937229" />
	</node>
	<node id="-197411" lat="59.2857222201" lon="10.303966671">
		<tag k="fixme" v="consider natural=peak for the most distinct mountains in the district" />
		<tag k="name" v="Kjerringhovet" />
		<tag k="natural" v="hill" />
		<tag k="place" v="locality" />
		<tag k="ssr:stedsnr" v="270691" />
	</node>
	<node id="-198049" lat="59.2606305539" lon="10.3480166624">
		<tag k="fixme" v="consider natural=peak for the most distinct mountains in the district" />
		<tag k="name" v="Fløyåsen" />
		<tag k="natural" v="hill" />
		<tag k="place" v="locality" />
		<tag k="ssr:stedsnr" v="936390" />
	</node>
	<node id="-197919" lat="59.2578694404" lon="10.4513527779">
		<tag k="fixme" v="consider natural=peak for the most distinct mountains in the district" />
		<tag k="name" v="Teigenåsen" />
		<tag k="natural" v="hill" />
		<tag k="place" v="locality" />
		<tag k="ssr:stedsnr" v="692753" />
	</node>
	<node id="-197918" lat="59.2607611126" lon="10.4625472258">
		<tag k="fixme" v="consider natural=peak for the most distinct mountains in the district" />
		<tag k="name" v="Skjerpåsen" />
		<tag k="natural" v="hill" />
		<tag k="place" v="locality" />
		<tag k="ssr:stedsnr" v="692750" />
	</node>
	<node id="-197917" lat="59.2621027776" lon="10.4472166601">
		<tag k="name" v="Liabakken" />
		<tag k="natural" v="slope" />
		<tag k="place" v="locality" />
		<tag k="ssr:stedsnr" v="692749" />
	</node>
	<node id="-197788" lat="59.341386114" lon="10.3581638828">
		<tag k="fixme" v="consider natural=peak for the most distinct mountains in the district" />
		<tag k="name" v="Undrumsåsen" />
		<tag k="natural" v="hill" />
		<tag k="place" v="locality" />
		<tag k="ssr:stedsnr" v="452810" />
	</node>
	<node id="-198043" lat="59.3382361071" lon="10.4407444409">
		<tag k="name" v="Langemyra" />
		<tag k="place" v="locality" />
		<tag k="ssr:stedsnr" v="935821" />
	</node>
	<node id="-197786" lat="59.313227778" lon="10.3123361032">
		<tag k="fixme" v="consider natural=peak for the most distinct mountains in the district" />
		<tag k="name" v="Kjærshøgda" />
		<tag k="natural" v="hill" />
		<tag k="place" v="locality" />
		<tag k="ssr:stedsnr" v="452751" />
	</node>
	<node id="-197785" lat="59.2925611132" lon="10.3059222256">
		<tag k="fixme" v="consider natural=peak for the most distinct mountains in the district" />
		<tag k="name" v="Hesbyåsen" />
		<tag k="natural" v="hill" />
		<tag k="place" v="locality" />
		<tag k="ssr:stedsnr" v="452746" />
	</node>
	<node id="-198039" lat="59.2563111108" lon="10.350019447">
		<tag k="fixme" v="consider natural=peak for the most distinct mountains in the district" />
		<tag k="name" v="Råstadåsen" />
		<tag k="natural" v="hill" />
		<tag k="place" v="locality" />
		<tag k="ssr:stedsnr" v="935387" />
	</node>
	<node id="-197654" lat="59.2694888887" lon="10.3050027719">
		<tag k="fixme" v="consider natural=peak for the most distinct mountains in the district" />
		<tag k="name" v="Holmenåsen" />
		<tag k="natural" v="hill" />
		<tag k="place" v="locality" />
		<tag k="ssr:stedsnr" v="148695" />
	</node>
	<node id="-197781" lat="59.2930361097" lon="10.3218388955">
		<tag k="alt_name" v="Lensberg" />
		<tag k="fixme" v="consider natural=peak for the most distinct mountains in the district" />
		<tag k="name" v="Lensbergåsen" />
		<tag k="natural" v="hill" />
		<tag k="place" v="locality" />
		<tag k="ssr:stedsnr" v="452679" />
	</node>
	<node id="-197652" lat="59.3021444457" lon="10.4401749914">
		<tag k="name" v="Kirkely" />
		<tag k="natural" v="valley" />
		<tag k="place" v="locality" />
		<tag k="ssr:stedsnr" v="146775" />
	</node>
	<node id="-197648" lat="59.2613888904" lon="10.4505361148">
		<tag k="fixme" v="consider natural=peak for the most distinct mountains in the district" />
		<tag k="name" v="Råelåsen" />
		<tag k="natural" v="hill" />
		<tag k="place" v="locality" />
		<tag k="ssr:stedsnr" v="146748" />
	</node>
	<node id="-197952" lat="59.3213333378" lon="10.3653638924">
		<tag k="fixme" v="consider natural=peak for the most distinct mountains in the district" />
		<tag k="name" v="Gulliåsen" />
		<tag k="natural" v="hill" />
		<tag k="place" v="locality" />
		<tag k="ssr:stedsnr" v="755769" />
	</node>
	<node id="-198026" lat="59.2457527759" lon="10.3560166726">
		<tag k="fixme" v="consider natural=peak for the most distinct mountains in the district" />
		<tag k="name" v="Robergåsen" />
		<tag k="natural" v="hill" />
		<tag k="place" v="locality" />
		<tag k="ssr:stedsnr" v="907132" />
	</node>
	<node id="-197783" lat="59.3128944442" lon="10.3536166703">
		<tag k="fixme" v="consider natural=peak for the most distinct mountains in the district" />
		<tag k="name" v="Fadumsåsen" />
		<tag k="natural" v="hill" />
		<tag k="place" v="locality" />
		<tag k="ssr:stedsnr" v="452738" />
	</node>
	<node id="-197768" lat="59.254113886" lon="10.4555250024">
		<tag k="name" v="Karlsebakken" />
		<tag k="natural" v="slope" />
		<tag k="place" v="locality" />
		<tag k="ssr:stedsnr" v="450770" />
	</node>
	<node id="-197637" lat="59.2719611075" lon="10.4039222155">
		<tag k="fixme" v="consider natural=peak for the most distinct mountains in the district" />
		<tag k="name" v="Slottsfjellet" />
		<tag k="natural" v="hill" />
		<tag k="place" v="locality" />
		<tag k="ssr:stedsnr" v="124606" />
	</node>
	<node id="-197891" lat="59.3158055549" lon="10.3384611102">
		<tag k="fixme" v="consider natural=peak for the most distinct mountains in the district" />
		<tag k="name" v="Åleborgåsen" />
		<tag k="natural" v="hill" />
		<tag k="place" v="locality" />
		<tag k="ssr:stedsnr" v="633781" />
	</node>
	<node id="-198018" lat="59.2582277743" lon="10.3490000032">
		<tag k="fixme" v="consider natural=peak for the most distinct mountains in the district" />
		<tag k="name" v="Storåsen" />
		<tag k="natural" v="hill" />
		<tag k="place" v="locality" />
		<tag k="ssr:stedsnr" v="875412" />
	</node>
</osm>
