<?xml version="1.0" encoding="UTF-8"?>
<osm generator="osmapis" version="0.6">
	<node id="-197760" lat="59.3276666648" lon="10.3730444513">
		<tag k="name" v="Tveitelva" />
		<tag k="ssr:stedsnr" v="937788" />
		<tag k="waterway" v="stream" />
	</node>
	<node id="-197278" lat="59.2760861108" lon="10.4328111108">
		<tag k="name" v="Vellebekken" />
		<tag k="ssr:stedsnr" v="25747" />
		<tag k="waterway" v="stream" />
	</node>
	<node id="-197467" lat="59.2850888849" lon="10.3634444451">
		<tag k="name" v="Aulielva" />
		<tag k="ssr:stedsnr" v="450399" />
		<tag k="waterway" v="river" />
	</node>
	<node id="-197465" lat="59.3060666657" lon="10.3357916743">
		<tag k="name" v="Aulielva" />
		<tag k="ssr:stedsnr" v="428827" />
		<tag k="waterway" v="river" />
	</node>
	<node id="-197713" lat="59.3190972221" lon="10.4436305481">
		<tag k="name" v="Slagenbekken" />
		<tag k="ssr:stedsnr" v="874783" />
		<tag k="waterway" v="stream" />
	</node>
	<node id="-197712" lat="59.2936611068" lon="10.4086972194">
		<tag k="name" v="Syrebekk" />
		<tag k="ssr:stedsnr" v="874782" />
		<tag k="waterway" v="stream" />
	</node>
	<node id="-197291" lat="59.3303111138" lon="10.3484416705">
		<tag k="name" v="Rastadelva" />
		<tag k="ssr:stedsnr" v="27769" />
		<tag k="waterway" v="stream" />
	</node>
	<node id="-197319" lat="59.3012055569" lon="10.4455833367">
		<tag k="name" v="Flaskefoss" />
		<tag k="natural" v="waterfall" />
		<tag k="ssr:stedsnr" v="85761" />
	</node>
	<node id="-197478" lat="59.3008166698" lon="10.4268555502">
		<tag k="name" v="Eikbekken" />
		<tag k="ssr:stedsnr" v="450790" />
		<tag k="waterway" v="stream" />
	</node>
	<node id="-197253" lat="59.2441666633" lon="10.3276166709">
		<tag k="name" v="Akersvannet" />
		<tag k="natural" v="water" />
		<tag k="ssr:stedsnr" v="1331" />
		<tag k="water" v="lake" />
	</node>
	<node id="-197475" lat="59.3284527752" lon="10.4647361028">
		<tag k="name" v="Røråsbekken" />
		<tag k="ssr:stedsnr" v="450777" />
		<tag k="waterway" v="stream" />
	</node>
</osm>
