<?xml version="1.0" encoding="UTF-8"?>
<osm generator="osmapis" version="0.6">
	<node id="-198057" lat="59.3540305556" lon="10.419338896">
		<tag k="name" v="Myre" />
		<tag k="place" v="farm" />
		<tag k="ssr:stedsnr" v="938385" />
	</node>
	<node id="-198051" lat="59.3234555597" lon="10.5130444503">
		<tag k="name" v="Esso Raffineriet Norge A/S" />
		<tag k="place" v="quarter" />
		<tag k="ssr:stedsnr" v="937225" />
	</node>
	<node id="-198048" lat="59.2971333377" lon="10.4152000003">
		<tag k="amenity" v="school" />
		<tag k="name" v="Kongseik skole" />
		<tag k="ssr:stedsnr" v="935788" />
	</node>
	<node id="-198047" lat="59.2971694444" lon="10.4049527722">
		<tag k="name" v="Plassen" />
		<tag k="place" v="farm" />
		<tag k="ssr:stedsnr" v="935787" />
	</node>
	<node id="-198046" lat="59.3231611106" lon="10.4498277705">
		<tag k="fixme" v="consider place=hamlet" />
		<tag k="name" v="Kroks-Rom" />
		<tag k="place" v="farm" />
		<tag k="ssr:stedsnr" v="935779" />
	</node>
	<node id="-198045" lat="59.3198527808" lon="10.3854027847">
		<tag k="alt_name" v="Østre Eikeberg" />
		<tag k="fixme" v="consider place=hamlet" />
		<tag k="name" v="Eikeberg" />
		<tag k="place" v="farm" />
		<tag k="ssr:stedsnr" v="935775" />
	</node>
	<node id="-198042" lat="59.3142305593" lon="10.4914750062">
		<tag k="name" v="Knatten" />
		<tag k="place" v="farm" />
		<tag k="ssr:stedsnr" v="935804" />
	</node>
	<node id="-198041" lat="59.2704305526" lon="10.3573583266">
		<tag k="name" v="Bjelland" />
		<tag k="place" v="quarter" />
		<tag k="ssr:stedsnr" v="935409" />
	</node>
	<node id="-198037" lat="59.2880888933" lon="10.3297888859">
		<tag k="name" v="Aulerød" />
		<tag k="place" v="farm" />
		<tag k="ssr:stedsnr" v="914848" />
	</node>
	<node id="-198036" lat="59.2938194402" lon="10.3351694451">
		<tag k="name" v="Låne" />
		<tag k="place" v="farm" />
		<tag k="ssr:stedsnr" v="913861" />
	</node>
	<node id="-198035" lat="59.2884944462" lon="10.3411055567">
		<tag k="name" v="Ra" />
		<tag k="place" v="farm" />
		<tag k="ssr:stedsnr" v="913860" />
	</node>
	<node id="-198034" lat="59.279044446" lon="10.3689555515">
		<tag k="leisure" v="pitch" />
		<tag k="name" v="Jarlsberg travbane" />
		<tag k="ssr:stedsnr" v="913634" />
	</node>
	<node id="-198033" lat="59.32085" lon="10.4200111127">
		<tag k="alt_name" v="Rakkås N;Nordre Rakkås" />
		<tag k="fixme" v="consider place=hamlet" />
		<tag k="name" v="Rakkås" />
		<tag k="place" v="farm" />
		<tag k="ssr:stedsnr" v="913589" />
	</node>
	<node id="-198032" lat="59.3143333346" lon="10.517141662">
		<tag k="name" v="Slagentangen" />
		<tag k="place" v="quarter" />
		<tag k="ssr:stedsnr" v="913587" />
	</node>
	<node id="-198031" lat="59.3350388908" lon="10.4683694414">
		<tag k="fixme" v="consider place=hamlet" />
		<tag k="name" v="Hallingrød" />
		<tag k="place" v="farm" />
		<tag k="ssr:stedsnr" v="913571" />
	</node>
	<node id="-198030" lat="59.3332555563" lon="10.406080553">
		<tag k="name" v="Skotte" />
		<tag k="place" v="farm" />
		<tag k="ssr:stedsnr" v="913566" />
	</node>
	<node id="-198028" lat="59.2875055526" lon="10.4506055631">
		<tag k="fixme" v="consider place=hamlet" />
		<tag k="name" v="Røren" />
		<tag k="place" v="farm" />
		<tag k="ssr:stedsnr" v="912672" />
	</node>
	<node id="-198027" lat="59.3091277766" lon="10.4118999924">
		<tag k="name" v="Bruserød" />
		<tag k="place" v="farm" />
		<tag k="ssr:stedsnr" v="912648" />
	</node>
	<node id="-198024" lat="59.339708334" lon="10.4197277727">
		<tag k="name" v="Jareteigen S" />
		<tag k="place" v="farm" />
		<tag k="ssr:stedsnr" v="878453" />
	</node>
	<node id="-198023" lat="59.3153111091" lon="10.37664722">
		<tag k="name" v="Eikeberg" />
		<tag k="place" v="farm" />
		<tag k="ssr:stedsnr" v="877788" />
	</node>
	<node id="-198022" lat="59.3082027803" lon="10.3558138836">
		<tag k="alt_name" v="Nordre Fadum" />
		<tag k="fixme" v="consider place=hamlet" />
		<tag k="name" v="Fadum N" />
		<tag k="place" v="farm" />
		<tag k="ssr:stedsnr" v="877759" />
	</node>
	<node id="-198020" lat="59.3092187182" lon="10.5062012239">
		<tag k="alt_name" v="Korterød" />
		<tag k="name" v="Korterød" />
		<tag k="place" v="farm" />
		<tag k="ssr:stedsnr" v="876200" />
	</node>
	<node id="-198019" lat="59.3021972256" lon="10.49630278">
		<tag k="name" v="Myra" />
		<tag k="place" v="farm" />
		<tag k="ssr:stedsnr" v="876197" />
	</node>
	<node id="-198015" lat="59.2593277802" lon="10.3586472305">
		<tag k="amenity" v="school" />
		<tag k="name" v="Vear skole" />
		<tag k="ssr:stedsnr" v="875398" />
	</node>
	<node id="-198013" lat="59.2479250035" lon="10.450880554">
		<tag k="amenity" v="nursing_home" />
		<tag k="name" v="Marie Treschows Minde" />
		<tag k="ssr:stedsnr" v="874945" />
	</node>
	<node id="-198012" lat="59.3485194428" lon="10.440780561">
		<tag k="name" v="Gullerød" />
		<tag k="place" v="farm" />
		<tag k="ssr:stedsnr" v="874821" />
	</node>
	<node id="-198009" lat="59.3049111117" lon="10.4432583411">
		<tag k="amenity" v="school" />
		<tag k="name" v="Klokkeråsen skole" />
		<tag k="ssr:stedsnr" v="874792" />
	</node>
	<node id="-198006" lat="59.3223416641" lon="10.3967083332">
		<tag k="alt_name" v="Nordre Fresje" />
		<tag k="fixme" v="consider place=hamlet" />
		<tag k="name" v="Fritsø N" />
		<tag k="place" v="farm" />
		<tag k="ssr:stedsnr" v="874777" />
	</node>
	<node id="-198005" lat="59.3309611106" lon="10.3827250008">
		<tag k="fixme" v="consider place=hamlet" />
		<tag k="name" v="Tveiten" />
		<tag k="place" v="farm" />
		<tag k="ssr:stedsnr" v="874773" />
	</node>
	<node id="-198004" lat="59.2717361113" lon="10.4735361161">
		<tag k="name" v="Langvald" />
		<tag k="place" v="isolated_dwelling" />
		<tag k="ssr:stedsnr" v="874766" />
	</node>
	<node id="-198002" lat="59.2735555528" lon="10.3659833287">
		<tag k="name" v="Hogsnes" />
		<tag k="place" v="village" />
		<tag k="ssr:stedsnr" v="874412" />
	</node>
	<node id="-198000" lat="59.301419446" lon="10.2793055578">
		<tag k="name" v="Dalen" />
		<tag k="place" v="isolated_dwelling" />
		<tag k="ssr:stedsnr" v="853822" />
	</node>
	<node id="-197999" lat="59.2671583302" lon="10.3561416654">
		<tag k="name" v="Bjelland" />
		<tag k="place" v="locality" />
		<tag k="ssr:stedsnr" v="853654" />
	</node>
	<node id="-197998" lat="59.3355638884" lon="10.3686055559">
		<tag k="alt_name" v="Mellem Undrum" />
		<tag k="fixme" v="consider place=hamlet" />
		<tag k="name" v="Undrum" />
		<tag k="place" v="farm" />
		<tag k="ssr:stedsnr" v="852573" />
	</node>
	<node id="-197994" lat="59.2653583292" lon="10.4806000066">
		<tag k="name" v="England" />
		<tag k="place" v="isolated_dwelling" />
		<tag k="ssr:stedsnr" v="845326" />
	</node>
	<node id="-197992" lat="59.2746972253" lon="10.4775805501">
		<tag k="name" v="Tolvsrød" />
		<tag k="place" v="suburb" />
		<tag k="ssr:stedsnr" v="840751" />
	</node>
	<node id="-197988" lat="59.3404083312" lon="10.370158342">
		<tag k="name" v="Undrum nordre" />
		<tag k="place" v="farm" />
		<tag k="ssr:stedsnr" v="816841" />
	</node>
	<node id="-197985" lat="59.3051638883" lon="10.3212777758">
		<tag k="name" v="Vermeli" />
		<tag k="place" v="farm" />
		<tag k="ssr:stedsnr" v="816772" />
	</node>
	<node id="-197982" lat="59.285888891" lon="10.4964833318">
		<tag k="name" v="Nordre Ringshaug" />
		<tag k="place" v="quarter" />
		<tag k="ssr:stedsnr" v="815199" />
	</node>
	<node id="-197981" lat="59.249013186" lon="10.4508991793">
		<tag k="alt_name" v="Nordre Nes;Nes Nordre" />
		<tag k="name" v="N. Nes" />
		<tag k="place" v="farm" />
		<tag k="ssr:stedsnr" v="814974" />
	</node>
	<node id="-197978" lat="59.2941388922" lon="10.4543777704">
		<tag k="name" v="Haug Basberg" />
		<tag k="place" v="farm" />
		<tag k="ssr:stedsnr" v="814800" />
	</node>
	<node id="-197977" lat="59.3010972204" lon="10.4318499967">
		<tag k="name" v="Vestbakken" />
		<tag k="place" v="farm" />
		<tag k="ssr:stedsnr" v="814797" />
	</node>
	<node id="-197974" lat="59.2565194477" lon="10.4768999955">
		<tag k="name" v="Frydenlund" />
		<tag k="place" v="isolated_dwelling" />
		<tag k="ssr:stedsnr" v="814779" />
	</node>
	<node id="-197973" lat="59.2737916705" lon="10.443869449">
		<tag k="name" v="Presterød" />
		<tag k="place" v="village" />
		<tag k="ssr:stedsnr" v="814763" />
	</node>
	<node id="-197972" lat="59.293188887" lon="10.4892055555">
		<tag k="name" v="Brekke" />
		<tag k="place" v="farm" />
		<tag k="ssr:stedsnr" v="814757" />
	</node>
	<node id="-197969" lat="59.2694722238" lon="10.3761833339">
		<tag k="name" v="Smørberg" />
		<tag k="place" v="farm" />
		<tag k="ssr:stedsnr" v="798639" />
	</node>
	<node id="-197968" lat="59.2818741592" lon="10.319440563">
		<tag k="fixme" v="consider place=hamlet" />
		<tag k="name" v="Tem" />
		<tag k="place" v="farm" />
		<tag k="ssr:stedsnr" v="792834" />
	</node>
	<node id="-197967" lat="59.2675083365" lon="10.4076361066">
		<tag k="name" v="Tønsberg" />
		<tag k="place" v="town" />
		<tag k="ssr:stedsnr" v="792644" />
	</node>
	<node id="-197966" lat="59.274183334" lon="10.3533861167">
		<tag k="name" v="Bjelland" />
		<tag k="place" v="farm" />
		<tag k="ssr:stedsnr" v="792638" />
	</node>
	<node id="-197965" lat="59.2932805585" lon="10.4064833249">
		<tag k="name" v="Syrbekk" />
		<tag k="place" v="farm" />
		<tag k="ssr:stedsnr" v="791647" />
	</node>
	<node id="-197964" lat="59.2940166653" lon="10.4203194467">
		<tag k="name" v="Eik" />
		<tag k="place" v="village" />
		<tag k="ssr:stedsnr" v="791646" />
	</node>
	<node id="-197963" lat="59.289605558" lon="10.348080551">
		<tag k="name" v="Broen" />
		<tag k="place" v="farm" />
		<tag k="ssr:stedsnr" v="791641" />
	</node>
	<node id="-197962" lat="59.3096527765" lon="10.4529638885">
		<tag k="alt_name" v="Store Oseberg" />
		<tag k="fixme" v="consider place=hamlet" />
		<tag k="name" v="Oseberg" />
		<tag k="place" v="farm" />
		<tag k="ssr:stedsnr" v="791628" />
	</node>
	<node id="-197961" lat="59.3024972258" lon="10.4231083322">
		<tag k="alt_name" v="Eik, nordre" />
		<tag k="name" v="Nordre Eik" />
		<tag k="place" v="farm" />
		<tag k="ssr:stedsnr" v="791619" />
	</node>
	<node id="-197960" lat="59.2974972258" lon="10.3570333363">
		<tag k="name" v="Ås" />
		<tag k="place" v="hamlet" />
		<tag k="ssr:stedsnr" v="791616" />
	</node>
	<node id="-197959" lat="59.3209555572" lon="10.502308337">
		<tag k="name" v="Hytten" />
		<tag k="place" v="farm" />
		<tag k="ssr:stedsnr" v="791602" />
	</node>
	<node id="-197953" lat="59.267444448" lon="10.4432833272">
		<tag k="name" v="Hagen" />
		<tag k="place" v="farm" />
		<tag k="ssr:stedsnr" v="756029" />
	</node>
	<node id="-197946" lat="59.3221707775" lon="10.4703769198">
		<tag k="alt_name" v="Mellem Rørås" />
		<tag k="fixme" v="consider place=hamlet" />
		<tag k="name" v="Rørås" />
		<tag k="place" v="farm" />
		<tag k="ssr:stedsnr" v="753762" />
	</node>
	<node id="-197944" lat="59.2859138847" lon="10.4856333393">
		<tag k="amenity" v="school" />
		<tag k="name" v="Ringshaug ungd.skole" />
		<tag k="ssr:stedsnr" v="753728" />
	</node>
	<node id="-197940" lat="59.2586388871" lon="10.4752805601">
		<tag k="fixme" v="consider place=suburb, village or hamlet" />
		<tag k="name" v="Klopp" />
		<tag k="place" v="quarter" />
		<tag k="ssr:stedsnr" v="748039" />
	</node>
	<node id="-197939" lat="59.2907277771" lon="10.2944249976">
		<tag k="fixme" v="consider place=hamlet" />
		<tag k="name" v="Rygg" />
		<tag k="place" v="farm" />
		<tag k="ssr:stedsnr" v="731863" />
	</node>
	<node id="-197938" lat="59.2893194455" lon="10.3067111085">
		<tag k="name" v="Hesby" />
		<tag k="place" v="farm" />
		<tag k="ssr:stedsnr" v="731861" />
	</node>
	<node id="-197937" lat="59.3114999978" lon="10.2917361116">
		<tag k="fixme" v="consider place=hamlet" />
		<tag k="name" v="Tollerød" />
		<tag k="place" v="farm" />
		<tag k="ssr:stedsnr" v="731838" />
	</node>
	<node id="-197936" lat="59.2982333333" lon="10.3240694366">
		<tag k="alt_name" v="Nedre Grette" />
		<tag k="fixme" v="consider place=hamlet" />
		<tag k="name" v="Grette" />
		<tag k="place" v="farm" />
		<tag k="ssr:stedsnr" v="731818" />
	</node>
	<node id="-197935" lat="59.3150916644" lon="10.3249361048">
		<tag k="alt_name" v="Vestre Kjær" />
		<tag k="fixme" v="consider place=hamlet" />
		<tag k="name" v="Kjær" />
		<tag k="place" v="farm" />
		<tag k="ssr:stedsnr" v="731782" />
	</node>
	<node id="-197934" lat="59.2965499976" lon="10.5009472296">
		<tag k="fixme" v="consider place=hamlet" />
		<tag k="name" v="Skallevoll" />
		<tag k="place" v="farm" />
		<tag k="ssr:stedsnr" v="730684" />
	</node>
	<node id="-197931" lat="59.2651111077" lon="10.4517055598">
		<tag k="name" v="Råel" />
		<tag k="place" v="farm" />
		<tag k="ssr:stedsnr" v="731614" />
	</node>
	<node id="-197926" lat="59.3076500035" lon="10.3440250026">
		<tag k="alt_name" v="Mellem Fadum" />
		<tag k="fixme" v="consider place=hamlet" />
		<tag k="name" v="Fadum" />
		<tag k="place" v="farm" />
		<tag k="ssr:stedsnr" v="695750" />
	</node>
	<node id="-197925" lat="59.2723749985" lon="10.321736106">
		<tag k="name" v="Langerød" />
		<tag k="place" v="village" />
		<tag k="ssr:stedsnr" v="695687" />
	</node>
	<node id="-197924" lat="59.2616055582" lon="10.4970138865">
		<tag k="name" v="Tau renseanlegg" />
		<tag k="place" v="quarter" />
		<tag k="ssr:stedsnr" v="694177" />
	</node>
	<node id="-197922" lat="59.3097777801" lon="10.4749555635">
		<tag k="name" v="Amerika" />
		<tag k="place" v="farm" />
		<tag k="ssr:stedsnr" v="692799" />
	</node>
	<node id="-197921" lat="59.295697225" lon="10.4396611133">
		<tag k="name" v="Velle" />
		<tag k="place" v="farm" />
		<tag k="ssr:stedsnr" v="692792" />
	</node>
	<node id="-197920" lat="59.3036944481" lon="10.429897214">
		<tag k="fixme" v="consider place=hamlet" />
		<tag k="name" v="Sem prestegård" />
		<tag k="place" v="farm" />
		<tag k="ssr:stedsnr" v="692782" />
	</node>
	<node id="-197916" lat="59.2655444477" lon="10.4440638908">
		<tag k="name" v="Fagervik" />
		<tag k="place" v="quarter" />
		<tag k="ssr:stedsnr" v="692747" />
	</node>
	<node id="-197915" lat="59.2670583341" lon="10.4633888935">
		<tag k="name" v="Rønningen" />
		<tag k="place" v="farm" />
		<tag k="ssr:stedsnr" v="692746" />
	</node>
	<node id="-197913" lat="59.2917611101" lon="10.3685861074">
		<tag k="name" v="Vium" />
		<tag k="place" v="farm" />
		<tag k="ssr:stedsnr" v="692374" />
	</node>
	<node id="-197912" lat="59.2820527769" lon="10.3635083341">
		<tag k="name" v="Rønningen" />
		<tag k="place" v="farm" />
		<tag k="ssr:stedsnr" v="731595" />
	</node>
	<node id="-197911" lat="59.3186166693" lon="10.389705561">
		<tag k="fixme" v="consider place=suburb, village or hamlet" />
		<tag k="name" v="Barkåker" />
		<tag k="place" v="quarter" />
		<tag k="ssr:stedsnr" v="731562" />
	</node>
	<node id="-197910" lat="59.3277555567" lon="10.4687611135">
		<tag k="alt_name" v="Rørås" />
		<tag k="fixme" v="consider place=hamlet" />
		<tag k="name" v="Nordre Rørås" />
		<tag k="place" v="farm" />
		<tag k="ssr:stedsnr" v="731553" />
	</node>
	<node id="-197909" lat="59.2761749986" lon="10.3129500068">
		<tag k="fixme" v="consider place=hamlet" />
		<tag k="name" v="Askehaug" />
		<tag k="place" v="farm" />
		<tag k="ssr:stedsnr" v="670889" />
	</node>
	<node id="-197908" lat="59.3070277765" lon="10.2971694488">
		<tag k="fixme" v="consider place=hamlet" />
		<tag k="name" v="Smedsrød" />
		<tag k="place" v="farm" />
		<tag k="ssr:stedsnr" v="670825" />
	</node>
	<node id="-197907" lat="59.3080166709" lon="10.3228694509">
		<tag k="fixme" v="consider place=hamlet" />
		<tag k="name" v="Vermeli" />
		<tag k="place" v="farm" />
		<tag k="ssr:stedsnr" v="670823" />
	</node>
	<node id="-197906" lat="59.2691250025" lon="10.4892499951">
		<tag k="name" v="Nordby" />
		<tag k="place" v="farm" />
		<tag k="ssr:stedsnr" v="670656" />
	</node>
	<node id="-197905" lat="59.2614833354" lon="10.4814277853">
		<tag k="name" v="Bogen" />
		<tag k="place" v="farm" />
		<tag k="ssr:stedsnr" v="670646" />
	</node>
	<node id="-197904" lat="59.2594388894" lon="10.3726555616">
		<tag k="name" v="Strand" />
		<tag k="place" v="farm" />
		<tag k="ssr:stedsnr" v="670640" />
	</node>
	<node id="-197903" lat="59.3199027735" lon="10.3960249924">
		<tag k="fixme" v="consider place=hamlet" />
		<tag k="name" v="Fritsø" />
		<tag k="place" v="farm" />
		<tag k="ssr:stedsnr" v="670588" />
	</node>
	<node id="-197902" lat="59.3199416648" lon="10.3792249935">
		<tag k="fixme" v="consider place=hamlet" />
		<tag k="name" v="Eikeberg" />
		<tag k="place" v="farm" />
		<tag k="ssr:stedsnr" v="670587" />
	</node>
	<node id="-197900" lat="59.2950039921" lon="10.4862328069">
		<tag k="alt_name" v="Østre Brekke" />
		<tag k="fixme" v="consider place=hamlet" />
		<tag k="name" v="Brekke" />
		<tag k="place" v="farm" />
		<tag k="ssr:stedsnr" v="669636" />
	</node>
	<node id="-197896" lat="59.2730333291" lon="10.4917749917">
		<tag k="name" v="Furustrand" />
		<tag k="ssr:stedsnr" v="645836" />
		<tag k="tourism" v="camp_site" />
	</node>
	<node id="-197895" lat="59.3167111154" lon="10.4871388816">
		<tag k="name" v="Tufta" />
		<tag k="place" v="farm" />
		<tag k="ssr:stedsnr" v="634099" />
	</node>
	<node id="-197893" lat="59.3377861114" lon="10.3663111056">
		<tag k="name" v="Undrum søndre" />
		<tag k="place" v="farm" />
		<tag k="ssr:stedsnr" v="633842" />
	</node>
	<node id="-197892" lat="59.3377416648" lon="10.3755555581">
		<tag k="name" v="Tveiten" />
		<tag k="place" v="farm" />
		<tag k="ssr:stedsnr" v="633836" />
	</node>
	<node id="-197889" lat="59.3022111116" lon="10.2919916717">
		<tag k="name" v="Taranrød" />
		<tag k="place" v="farm" />
		<tag k="ssr:stedsnr" v="633773" />
	</node>
	<node id="-197886" lat="59.24485833" lon="10.4616888843">
		<tag k="name" v="Aldershvile" />
		<tag k="place" v="isolated_dwelling" />
		<tag k="ssr:stedsnr" v="632000" />
	</node>
	<node id="-197880" lat="59.3127972191" lon="10.4678222137">
		<tag k="name" v="Ollebakken" />
		<tag k="place" v="farm" />
		<tag k="ssr:stedsnr" v="631811" />
	</node>
	<node id="-197879" lat="59.3238250026" lon="10.4392527729">
		<tag k="name" v="Rom vestre" />
		<tag k="place" v="farm" />
		<tag k="ssr:stedsnr" v="631778" />
	</node>
	<node id="-197878" lat="59.3356749971" lon="10.4720027773">
		<tag k="name" v="Rønningen" />
		<tag k="place" v="farm" />
		<tag k="ssr:stedsnr" v="631772" />
	</node>
	<node id="-197877" lat="59.2631055544" lon="10.44303056">
		<tag k="name" v="Elverhøy" />
		<tag k="place" v="quarter" />
		<tag k="ssr:stedsnr" v="631759" />
	</node>
	<node id="-197872" lat="59.2710166657" lon="10.3713333332">
		<tag k="fixme" v="consider place=hamlet" />
		<tag k="name" v="Hogsnes" />
		<tag k="place" v="farm" />
		<tag k="ssr:stedsnr" v="609629" />
	</node>
	<node id="-197871" lat="59.257268271" lon="10.362904753">
		<tag k="alt_name" v="Vear S;Søndre Veer" />
		<tag k="fixme" v="consider place=hamlet" />
		<tag k="name" v="Vear" />
		<tag k="place" v="farm" />
		<tag k="ssr:stedsnr" v="609623" />
	</node>
	<node id="-197870" lat="59.3156445795" lon="10.4403332268">
		<tag k="name" v="Roberg" />
		<tag k="place" v="farm" />
		<tag k="ssr:stedsnr" v="609583" />
	</node>
	<node id="-197869" lat="59.3186555528" lon="10.4852166583">
		<tag k="fixme" v="consider place=hamlet" />
		<tag k="name" v="Studsrød" />
		<tag k="place" v="farm" />
		<tag k="ssr:stedsnr" v="609576" />
	</node>
	<node id="-197868" lat="59.3263000041" lon="10.3526277705">
		<tag k="name" v="Rastad" />
		<tag k="place" v="farm" />
		<tag k="ssr:stedsnr" v="609565" />
	</node>
	<node id="-197867" lat="59.3443750028" lon="10.4356583273">
		<tag k="fixme" v="consider place=hamlet" />
		<tag k="name" v="Gullerød" />
		<tag k="place" v="farm" />
		<tag k="ssr:stedsnr" v="609546" />
	</node>
	<node id="-197866" lat="59.2887527775" lon="10.3855277755">
		<tag k="alt_name" v="Jarlsberg Hovedgård" />
		<tag k="fixme" v="consider place=hamlet" />
		<tag k="name" v="Jarlsberg" />
		<tag k="place" v="farm" />
		<tag k="ssr:stedsnr" v="608689" />
	</node>
	<node id="-197865" lat="59.3124583328" lon="10.4708916709">
		<tag k="name" v="Børønningen" />
		<tag k="place" v="farm" />
		<tag k="ssr:stedsnr" v="608674" />
	</node>
	<node id="-197863" lat="59.2648916685" lon="10.4068638819">
		<tag k="name" v="Lindahl plass" />
		<tag k="place" v="square" />
		<tag k="ssr:stedsnr" v="601337" />
	</node>
	<node id="-197858" lat="59.3366027773" lon="10.4252583363">
		<tag k="alt_name" v="Søndre Jareteigen" />
		<tag k="fixme" v="consider place=hamlet" />
		<tag k="name" v="Jareteigen S" />
		<tag k="place" v="farm" />
		<tag k="ssr:stedsnr" v="574432" />
	</node>
	<node id="-197857" lat="59.28379722" lon="10.4963333317">
		<tag k="fixme" v="consider place=suburb, village or hamlet" />
		<tag k="name" v="Skogly" />
		<tag k="place" v="quarter" />
		<tag k="ssr:stedsnr" v="574124" />
	</node>
	<node id="-197856" lat="59.2820666657" lon="10.3159222259">
		<tag k="alt_name" v="Nedre Hesby" />
		<tag k="fixme" v="consider place=hamlet" />
		<tag k="name" v="Hesby" />
		<tag k="place" v="farm" />
		<tag k="ssr:stedsnr" v="573664" />
	</node>
	<node id="-197855" lat="59.2833250038" lon="10.3234305603">
		<tag k="leisure" v="pitch" />
		<tag k="name" v="Sem idrettspark" />
		<tag k="ssr:stedsnr" v="573662" />
	</node>
	<node id="-197853" lat="59.3117861069" lon="10.4959000003">
		<tag k="alt_name" v="Vollen" />
		<tag k="name" v="Volden" />
		<tag k="place" v="farm" />
		<tag k="ssr:stedsnr" v="572218" />
	</node>
	<node id="-197848" lat="59.2869611108" lon="10.4144000086">
		<tag k="amenity" v="school" />
		<tag k="name" v="Greveskogen videregående skole" />
		<tag k="old_name" v="Tønsberg Gymnas" />
		<tag k="ssr:stedsnr" v="570984" />
	</node>
	<node id="-197847" lat="59.3056250008" lon="10.3898166654">
		<tag k="name" v="Hestehagen" />
		<tag k="place" v="farm" />
		<tag k="ssr:stedsnr" v="570773" />
	</node>
	<node id="-197846" lat="59.2533638924" lon="10.4556500003">
		<tag k="amenity" v="nursing_home" />
		<tag k="name" v="Nes bo- og behandlingssenter" />
		<tag k="ssr:stedsnr" v="570753" />
	</node>
	<node id="-197845" lat="59.2695111087" lon="10.4632333277">
		<tag k="leisure" v="pitch" />
		<tag k="name" v="Slagenhallen" />
		<tag k="ssr:stedsnr" v="570740" />
	</node>
	<node id="-197844" lat="59.2781888913" lon="10.3362611199">
		<tag k="fixme" v="consider place=hamlet" />
		<tag k="name" v="Vik" />
		<tag k="place" v="farm" />
		<tag k="ssr:stedsnr" v="549895" />
	</node>
	<node id="-197843" lat="59.2865175195" lon="10.3107170621">
		<tag k="alt_name" v="Nordre Hesby" />
		<tag k="fixme" v="consider place=hamlet" />
		<tag k="name" v="Hesby" />
		<tag k="place" v="farm" />
		<tag k="ssr:stedsnr" v="549842" />
	</node>
	<node id="-197842" lat="59.3109083366" lon="10.3389500071">
		<tag k="alt_name" v="Domsengen" />
		<tag k="fixme" v="consider place=hamlet" />
		<tag k="name" v="Domsenga" />
		<tag k="place" v="farm" />
		<tag k="ssr:stedsnr" v="549826" />
	</node>
	<node id="-197841" lat="59.3003861077" lon="10.3357083325">
		<tag k="alt_name" v="Låne V;Vestre Låne" />
		<tag k="fixme" v="consider place=hamlet" />
		<tag k="name" v="Låne" />
		<tag k="place" v="farm" />
		<tag k="ssr:stedsnr" v="549817" />
	</node>
	<node id="-197839" lat="59.2719916668" lon="10.4041999936">
		<tag k="name" v="Tunsberghus" />
		<tag k="place" v="locality" />
		<tag k="ssr:stedsnr" v="549645" />
	</node>
	<node id="-197838" lat="59.2623340465" lon="10.3621157026">
		<tag k="alt_name" v="Veer øde" />
		<tag k="name" v="Vear" />
		<tag k="place" v="isolated_dwelling" />
		<tag k="ssr:stedsnr" v="549638" />
	</node>
	<node id="-197837" lat="59.3143611102" lon="10.4056305477">
		<tag k="fixme" v="consider place=hamlet" />
		<tag k="name" v="Stuverød" />
		<tag k="place" v="farm" />
		<tag k="ssr:stedsnr" v="548617" />
	</node>
	<node id="-197835" lat="59.3243694445" lon="10.4834444506">
		<tag k="fixme" v="consider place=hamlet" />
		<tag k="name" v="Brattås" />
		<tag k="place" v="farm" />
		<tag k="ssr:stedsnr" v="548596" />
	</node>
	<node id="-197834" lat="59.3308361093" lon="10.3603333311">
		<tag k="alt_name" v="Bjune, østre" />
		<tag k="name" v="Østre Bjune" />
		<tag k="place" v="farm" />
		<tag k="ssr:stedsnr" v="548585" />
	</node>
	<node id="-197827" lat="59.2952972257" lon="10.5151750085">
		<tag k="name" v="Karlsvik" />
		<tag k="place" v="farm" />
		<tag k="ssr:stedsnr" v="513992" />
	</node>
	<node id="-197824" lat="59.341991663" lon="10.4805416623">
		<tag k="name" v="Stuebrekk" />
		<tag k="place" v="isolated_dwelling" />
		<tag k="ssr:stedsnr" v="513118" />
	</node>
	<node id="-197823" lat="59.3251999956" lon="10.4860805554">
		<tag k="name" v="Strand" />
		<tag k="place" v="farm" />
		<tag k="ssr:stedsnr" v="513112" />
	</node>
	<node id="-197822" lat="59.3354083327" lon="10.4743916703">
		<tag k="name" v="Saltkopp" />
		<tag k="place" v="farm" />
		<tag k="ssr:stedsnr" v="513107" />
	</node>
	<node id="-197820" lat="59.3083833324" lon="10.2831333289">
		<tag k="name" v="Taran" />
		<tag k="place" v="isolated_dwelling" />
		<tag k="ssr:stedsnr" v="512769" />
	</node>
	<node id="-197819" lat="59.3073305551" lon="10.3493805585">
		<tag k="name" v="Gata" />
		<tag k="place" v="farm" />
		<tag k="ssr:stedsnr" v="512758" />
	</node>
	<node id="-197818" lat="59.3107472223" lon="10.4989805629">
		<tag k="name" v="Tverved" />
		<tag k="place" v="farm" />
		<tag k="ssr:stedsnr" v="512194" />
	</node>
	<node id="-197814" lat="59.3005333298" lon="10.449475003">
		<tag k="alt_name" v="Mellem Basberg" />
		<tag k="fixme" v="consider place=hamlet" />
		<tag k="name" v="Basberg" />
		<tag k="place" v="farm" />
		<tag k="ssr:stedsnr" v="510829" />
	</node>
	<node id="-197813" lat="59.3025333307" lon="10.4294666691">
		<tag k="name" v="Kongs-Eik" />
		<tag k="place" v="farm" />
		<tag k="ssr:stedsnr" v="510810" />
	</node>
	<node id="-197812" lat="59.3055416708" lon="10.4283527865">
		<tag k="name" v="Loftseik" />
		<tag k="place" v="quarter" />
		<tag k="ssr:stedsnr" v="510807" />
	</node>
	<node id="-197811" lat="59.3359722267" lon="10.4266166725">
		<tag k="fixme" v="consider place=hamlet" />
		<tag k="name" v="Skibrekk" />
		<tag k="place" v="farm" />
		<tag k="ssr:stedsnr" v="510797" />
	</node>
	<node id="-197809" lat="59.2820250027" lon="10.4836999917">
		<tag k="name" v="Fredheim" />
		<tag k="place" v="isolated_dwelling" />
		<tag k="ssr:stedsnr" v="510767" />
	</node>
	<node id="-197804" lat="59.3241055559" lon="10.4114111111">
		<tag k="fixme" v="consider place=hamlet" />
		<tag k="name" v="Langerød" />
		<tag k="place" v="farm" />
		<tag k="ssr:stedsnr" v="488589" />
	</node>
	<node id="-197801" lat="59.2891888913" lon="10.4718861081">
		<tag k="alt_name" v="Søndre Ilebrekke" />
		<tag k="fixme" v="consider place=hamlet" />
		<tag k="name" v="Ilebrekke" />
		<tag k="place" v="farm" />
		<tag k="ssr:stedsnr" v="487685" />
	</node>
	<node id="-197800" lat="59.3104500013" lon="10.3628000071">
		<tag k="fixme" v="consider place=hamlet" />
		<tag k="name" v="Nauen" />
		<tag k="place" v="farm" />
		<tag k="ssr:stedsnr" v="487678" />
	</node>
	<node id="-197799" lat="59.3411916706" lon="10.4652055513">
		<tag k="name" v="Høkli" />
		<tag k="place" v="farm" />
		<tag k="ssr:stedsnr" v="487641" />
	</node>
	<node id="-197798" lat="59.3473222233" lon="10.4149083311">
		<tag k="fixme" v="consider place=hamlet" />
		<tag k="name" v="Huseklepp" />
		<tag k="place" v="farm" />
		<tag k="ssr:stedsnr" v="487625" />
	</node>
	<node id="-197797" lat="59.2520361116" lon="10.473674996">
		<tag k="name" v="Husvik" />
		<tag k="place" v="village" />
		<tag k="ssr:stedsnr" v="487008" />
	</node>
	<node id="-197796" lat="59.2796000039" lon="10.4769638963">
		<tag k="fixme" v="consider place=hamlet" />
		<tag k="name" v="Lasken" />
		<tag k="place" v="farm" />
		<tag k="ssr:stedsnr" v="488620" />
	</node>
	<node id="-197795" lat="59.3167000021" lon="10.4757499924">
		<tag k="name" v="Grindbakken" />
		<tag k="place" v="farm" />
		<tag k="ssr:stedsnr" v="488603" />
	</node>
	<node id="-197794" lat="59.2604527782" lon="10.4096805532">
		<tag k="name" v="Teie" />
		<tag k="place" v="quarter" />
		<tag k="ssr:stedsnr" v="480924" />
	</node>
	<node id="-197793" lat="59.3370166685" lon="10.4710416615">
		<tag k="name" v="Romsrønningen" />
		<tag k="place" v="farm" />
		<tag k="ssr:stedsnr" v="480838" />
	</node>
	<node id="-197792" lat="59.2826750028" lon="10.4102305557">
		<tag k="alt_name" v="Tønsberg Messe og Idrettspark" />
		<tag k="leisure" v="pitch" />
		<tag k="name" v="Tønsberg messe- og idrettspark" />
		<tag k="ssr:stedsnr" v="480540" />
	</node>
	<node id="-197784" lat="59.2986472208" lon="10.3795916612">
		<tag k="name" v="Seberg" />
		<tag k="place" v="farm" />
		<tag k="ssr:stedsnr" v="452737" />
	</node>
	<node id="-197782" lat="59.2902249966" lon="10.3036472301">
		<tag k="amenity" v="nursing_home" />
		<tag k="name" v="Granly sykehjem" />
		<tag k="ssr:stedsnr" v="452682" />
	</node>
	<node id="-197780" lat="59.2931027734" lon="10.4955027849">
		<tag k="name" v="Skallevoll" />
		<tag k="place" v="farm" />
		<tag k="ssr:stedsnr" v="451883" />
	</node>
	<node id="-197779" lat="59.3193777808" lon="10.5054944526">
		<tag k="name" v="Haugen" />
		<tag k="place" v="farm" />
		<tag k="ssr:stedsnr" v="451214" />
	</node>
	<node id="-197776" lat="59.3067222231" lon="10.4544305611">
		<tag k="alt_name" v="Lille Oseberg" />
		<tag k="fixme" v="consider place=hamlet" />
		<tag k="name" v="Oseberg" />
		<tag k="place" v="farm" />
		<tag k="ssr:stedsnr" v="450798" />
	</node>
	<node id="-197775" lat="59.2961833334" lon="10.4562250085">
		<tag k="fixme" v="consider place=hamlet" />
		<tag k="name" v="Haug Basberg" />
		<tag k="place" v="farm" />
		<tag k="ssr:stedsnr" v="450793" />
	</node>
	<node id="-197774" lat="59.3102861132" lon="10.4399472276">
		<tag k="name" v="Roberg" />
		<tag k="place" v="farm" />
		<tag k="ssr:stedsnr" v="450791" />
	</node>
	<node id="-197772" lat="59.299222221" lon="10.4024611147">
		<tag k="amenity" v="school" />
		<tag k="name" v="Berg arbeidsskole" />
		<tag k="ssr:stedsnr" v="450787" />
	</node>
	<node id="-197771" lat="59.3066527758" lon="10.433450004">
		<tag k="name" v="Skava" />
		<tag k="place" v="isolated_dwelling" />
		<tag k="ssr:stedsnr" v="450785" />
	</node>
	<node id="-197769" lat="59.2701305588" lon="10.4687055551">
		<tag k="name" v="Slagen bo- og servicesenter" />
		<tag k="ssr:stedsnr" v="450774" />
		<tag k="tourism" v="guest_house" />
	</node>
	<node id="-197766" lat="59.2848111072" lon="10.488005556">
		<tag k="amenity" v="school" />
		<tag k="name" v="Ringshaug skole" />
		<tag k="ssr:stedsnr" v="450755" />
	</node>
	<node id="-197765" lat="59.2763222198" lon="10.4433361074">
		<tag k="name" v="Døsserød" />
		<tag k="place" v="farm" />
		<tag k="ssr:stedsnr" v="450747" />
	</node>
	<node id="-197764" lat="59.2758750032" lon="10.4861805527">
		<tag k="name" v="Gårdbo" />
		<tag k="place" v="farm" />
		<tag k="ssr:stedsnr" v="450745" />
	</node>
	<node id="-197758" lat="59.2896388877" lon="10.3544249957">
		<tag k="name" v="Kjærnes" />
		<tag k="place" v="farm" />
		<tag k="ssr:stedsnr" v="427638" />
	</node>
	<node id="-197757" lat="59.3021638914" lon="10.4888499951">
		<tag k="name" v="Innlaget" />
		<tag k="place" v="farm" />
		<tag k="ssr:stedsnr" v="427623" />
	</node>
	<node id="-197756" lat="59.3103677414" lon="10.5048283069">
		<tag k="fixme" v="consider place=hamlet" />
		<tag k="name" v="Korterød" />
		<tag k="place" v="farm" />
		<tag k="ssr:stedsnr" v="427613" />
	</node>
	<node id="-197755" lat="59.3137749986" lon="10.4039916655">
		<tag k="fixme" v="consider place=hamlet" />
		<tag k="name" v="Kruke" />
		<tag k="place" v="farm" />
		<tag k="ssr:stedsnr" v="427610" />
	</node>
	<node id="-197754" lat="59.3156555597" lon="10.368455554">
		<tag k="fixme" v="consider place=hamlet" />
		<tag k="name" v="Gulli" />
		<tag k="place" v="farm" />
		<tag k="ssr:stedsnr" v="427608" />
	</node>
	<node id="-197747" lat="59.2860194472" lon="10.4325583379">
		<tag k="name" v="Trettepletten" />
		<tag k="place" v="farm" />
		<tag k="ssr:stedsnr" v="267989" />
	</node>
	<node id="-197745" lat="59.2966305547" lon="10.4689277694">
		<tag k="alt_name" v="Nordre Ilebrekke" />
		<tag k="fixme" v="consider place=hamlet" />
		<tag k="name" v="Ilebrekke" />
		<tag k="place" v="farm" />
		<tag k="ssr:stedsnr" v="267789" />
	</node>
	<node id="-197744" lat="59.3147249961" lon="10.4392388923">
		<tag k="name" v="Roberg" />
		<tag k="place" v="hamlet" />
		<tag k="ssr:stedsnr" v="267786" />
	</node>
	<node id="-197742" lat="59.2937154093" lon="10.4244271915">
		<tag k="amenity" v="school" />
		<tag k="fixme" v="multiple name tags, choose one and add the other to alt_name" />
		<tag k="name" v="Eik skole;Mortenåsen skole" />
		<tag k="ssr:stedsnr" v="267776" />
	</node>
	<node id="-197741" lat="59.3111027755" lon="10.4147111122">
		<tag k="alt_name" v="Søndre Rakås" />
		<tag k="name" v="Rakkås" />
		<tag k="place" v="locality" />
		<tag k="ssr:stedsnr" v="267769" />
	</node>
	<node id="-197739" lat="59.2536555526" lon="10.4503888905">
		<tag k="name" v="Teigen" />
		<tag k="place" v="isolated_dwelling" />
		<tag k="ssr:stedsnr" v="267746" />
	</node>
	<node id="-197738" lat="59.2443083304" lon="10.3560972247">
		<tag k="name" v="Robergåsen" />
		<tag k="place" v="village" />
		<tag k="ssr:stedsnr" v="263013" />
	</node>
	<node id="-197735" lat="59.2566361106" lon="10.4772000003">
		<tag k="name" v="Narverød" />
		<tag k="place" v="isolated_dwelling" />
		<tag k="ssr:stedsnr" v="246651" />
	</node>
	<node id="-197734" lat="59.2664249964" lon="10.3740805622">
		<tag k="fixme" v="consider place=hamlet" />
		<tag k="name" v="Smørberg" />
		<tag k="place" v="farm" />
		<tag k="ssr:stedsnr" v="246638" />
	</node>
	<node id="-197732" lat="59.2919472218" lon="10.4630138913">
		<tag k="alt_name" v="Undeberg" />
		<tag k="fixme" v="consider place=hamlet" />
		<tag k="name" v="Unneberg" />
		<tag k="place" v="farm" />
		<tag k="ssr:stedsnr" v="245630" />
	</node>
	<node id="-197731" lat="59.3146527735" lon="10.419208341">
		<tag k="name" v="Rakkås" />
		<tag k="place" v="farm" />
		<tag k="ssr:stedsnr" v="245620" />
	</node>
	<node id="-197730" lat="59.3088666685" lon="10.4994055482">
		<tag k="fixme" v="consider place=hamlet" />
		<tag k="name" v="Tverved" />
		<tag k="place" v="farm" />
		<tag k="ssr:stedsnr" v="245615" />
	</node>
	<node id="-197729" lat="59.3005527818" lon="10.4541805578">
		<tag k="alt_name" v="Nordre Basberg" />
		<tag k="fixme" v="consider place=hamlet" />
		<tag k="name" v="Basberg" />
		<tag k="place" v="farm" />
		<tag k="ssr:stedsnr" v="245610" />
	</node>
	<node id="-197728" lat="59.3005527763" lon="10.4678472237">
		<tag k="alt_name" v="Søndre Hassum" />
		<tag k="fixme" v="consider place=hamlet" />
		<tag k="name" v="Hassum" />
		<tag k="place" v="farm" />
		<tag k="ssr:stedsnr" v="245612" />
	</node>
	<node id="-197727" lat="59.3205361075" lon="10.4887416621">
		<tag k="fixme" v="consider place=hamlet" />
		<tag k="name" v="Adamsrød" />
		<tag k="place" v="farm" />
		<tag k="ssr:stedsnr" v="245593" />
	</node>
	<node id="-197726" lat="59.3206916658" lon="10.3488555584">
		<tag k="name" v="Rastad" />
		<tag k="place" v="farm" />
		<tag k="ssr:stedsnr" v="245585" />
	</node>
	<node id="-197725" lat="59.3273472189" lon="10.4698499984">
		<tag k="alt_name" v="Rørås" />
		<tag k="name" v="Rørås, m" />
		<tag k="place" v="farm" />
		<tag k="ssr:stedsnr" v="245581" />
	</node>
	<node id="-197724" lat="59.3259777761" lon="10.4223194473">
		<tag k="fixme" v="consider place=hamlet" />
		<tag k="name" v="Høifødt" />
		<tag k="place" v="farm" />
		<tag k="ssr:stedsnr" v="245579" />
	</node>
	<node id="-197723" lat="59.3334397094" lon="10.4229594274">
		<tag k="fixme" v="consider place=hamlet" />
		<tag k="name" v="Sanderød" />
		<tag k="place" v="farm" />
		<tag k="ssr:stedsnr" v="245577" />
	</node>
	<node id="-197722" lat="59.3370805589" lon="10.4428249991">
		<tag k="name" v="Myra" />
		<tag k="place" v="farm" />
		<tag k="ssr:stedsnr" v="245576" />
	</node>
	<node id="-197718" lat="59.315463891" lon="10.4943388902">
		<tag k="name" v="Tufta" />
		<tag k="place" v="isolated_dwelling" />
		<tag k="ssr:stedsnr" v="238909" />
	</node>
	<node id="-197715" lat="59.262961113" lon="10.4429194434">
		<tag k="name" v="Nedre Råel" />
		<tag k="place" v="quarter" />
		<tag k="ssr:stedsnr" v="238333" />
	</node>
	<node id="-197706" lat="59.3423277818" lon="10.3678611127">
		<tag k="fixme" v="consider place=hamlet" />
		<tag k="name" v="Undrum søndre" />
		<tag k="place" v="farm" />
		<tag k="ssr:stedsnr" v="209801" />
	</node>
	<node id="-197704" lat="59.2934472189" lon="10.3348027803">
		<tag k="alt_name" v="Søndre Låne" />
		<tag k="fixme" v="consider place=hamlet" />
		<tag k="name" v="Låne S" />
		<tag k="place" v="farm" />
		<tag k="ssr:stedsnr" v="209756" />
	</node>
	<node id="-197702" lat="59.2942888855" lon="10.3526444381">
		<tag k="name" v="Vestfold fylkesvegvesen" />
		<tag k="place" v="quarter" />
		<tag k="ssr:stedsnr" v="209741" />
	</node>
	<node id="-197698" lat="59.3123944406" lon="10.5142666711">
		<tag k="name" v="Essoraffineriet" />
		<tag k="place" v="quarter" />
		<tag k="ssr:stedsnr" v="209196" />
	</node>
	<node id="-197697" lat="59.312777777" lon="10.5067777784">
		<tag k="name" v="Åsen" />
		<tag k="place" v="farm" />
		<tag k="ssr:stedsnr" v="209193" />
	</node>
	<node id="-197694" lat="59.2824944445" lon="10.4029944461">
		<tag k="name" v="Kjelle" />
		<tag k="place" v="isolated_dwelling" />
		<tag k="ssr:stedsnr" v="207987" />
	</node>
	<node id="-197693" lat="59.304977775" lon="10.4538750031">
		<tag k="fixme" v="consider place=hamlet" />
		<tag k="name" v="Bø" />
		<tag k="place" v="farm" />
		<tag k="ssr:stedsnr" v="207796" />
	</node>
	<node id="-197692" lat="59.2952638866" lon="10.4504833345">
		<tag k="name" v="Basberg" />
		<tag k="place" v="farm" />
		<tag k="ssr:stedsnr" v="207794" />
	</node>
	<node id="-197691" lat="59.3056666666" lon="10.4413083263">
		<tag k="name" v="Skjolden" />
		<tag k="place" v="farm" />
		<tag k="ssr:stedsnr" v="207786" />
	</node>
	<node id="-197690" lat="59.3002166639" lon="10.3906194383">
		<tag k="name" v="Hestehagen" />
		<tag k="place" v="farm" />
		<tag k="ssr:stedsnr" v="207784" />
	</node>
	<node id="-197689" lat="59.3266555597" lon="10.451966674">
		<tag k="name" v="Rom" />
		<tag k="place" v="farm" />
		<tag k="ssr:stedsnr" v="207774" />
	</node>
	<node id="-197688" lat="59.2530000005" lon="10.4606833352">
		<tag k="name" v="Dyet" />
		<tag k="place" v="farm" />
		<tag k="ssr:stedsnr" v="207762" />
	</node>
	<node id="-197687" lat="59.2571222222" lon="10.4743916656">
		<tag k="amenity" v="school" />
		<tag k="name" v="Husvik skole" />
		<tag k="ssr:stedsnr" v="207758" />
	</node>
	<node id="-197686" lat="59.2691055594" lon="10.4524361165">
		<tag k="name" v="Rød" />
		<tag k="place" v="isolated_dwelling" />
		<tag k="ssr:stedsnr" v="207747" />
	</node>
	<node id="-197685" lat="59.2788111102" lon="10.449638893">
		<tag k="amenity" v="school" />
		<tag k="name" v="Sandeåsen skole" />
		<tag k="ssr:stedsnr" v="207733" />
	</node>
	<node id="-197682" lat="59.2834944419" lon="10.4624583251">
		<tag k="name" v="Linnom" />
		<tag k="place" v="farm" />
		<tag k="ssr:stedsnr" v="207724" />
	</node>
	<node id="-197679" lat="59.255583558" lon="10.3711582268">
		<tag k="fixme" v="consider place=suburb, village or hamlet" />
		<tag k="name" v="Rakkevik" />
		<tag k="place" v="quarter" />
		<tag k="ssr:stedsnr" v="185617" />
	</node>
	<node id="-197678" lat="59.2599555547" lon="10.4566611155">
		<tag k="name" v="Snippen" />
		<tag k="place" v="farm" />
		<tag k="ssr:stedsnr" v="185613" />
	</node>
	<node id="-197677" lat="59.30300278" lon="10.5103138875">
		<tag k="name" v="Bolsrød" />
		<tag k="place" v="locality" />
		<tag k="ssr:stedsnr" v="184640" />
	</node>
	<node id="-197676" lat="59.3035555572" lon="10.3726777833">
		<tag k="fixme" v="consider place=hamlet" />
		<tag k="name" v="Rise" />
		<tag k="place" v="farm" />
		<tag k="ssr:stedsnr" v="184634" />
	</node>
	<node id="-197675" lat="59.3042249977" lon="10.3612166624">
		<tag k="fixme" v="consider place=hamlet" />
		<tag k="name" v="Fyllpå" />
		<tag k="place" v="farm" />
		<tag k="ssr:stedsnr" v="184631" />
	</node>
	<node id="-197674" lat="59.2982083333" lon="10.5157916604">
		<tag k="alt_name" v="Karlsvika, nordre" />
		<tag k="name" v="Nordre Karlsvika" />
		<tag k="place" v="farm" />
		<tag k="ssr:stedsnr" v="184659" />
	</node>
	<node id="-197673" lat="59.3240361098" lon="10.45314723">
		<tag k="alt_name" v="Rom, østre;Rom Østre" />
		<tag k="fixme" v="consider place=hamlet" />
		<tag k="name" v="Østre Rom" />
		<tag k="place" v="farm" />
		<tag k="ssr:stedsnr" v="184609" />
	</node>
	<node id="-197672" lat="59.3241305529" lon="10.4335611106">
		<tag k="fixme" v="consider place=hamlet" />
		<tag k="name" v="Kaltvedt" />
		<tag k="place" v="farm" />
		<tag k="ssr:stedsnr" v="184607" />
	</node>
	<node id="-197671" lat="59.3419166625" lon="10.4197472188">
		<tag k="alt_name" v="Jareteigen N;Nordre Jareteigen" />
		<tag k="fixme" v="consider place=hamlet" />
		<tag k="name" v="Jareteigen" />
		<tag k="place" v="farm" />
		<tag k="ssr:stedsnr" v="184586" />
	</node>
	<node id="-197669" lat="59.274277778" lon="10.3995111086">
		<tag k="amenity" v="university" />
		<tag k="name" v="Maritim skole" />
		<tag k="ssr:stedsnr" v="177556" />
	</node>
	<node id="-197661" lat="59.3018555513" lon="10.2929194493">
		<tag k="name" v="Tønsberg fyllplass" />
		<tag k="place" v="quarter" />
		<tag k="ssr:stedsnr" v="153930" />
	</node>
	<node id="-197659" lat="59.3369583363" lon="10.3674138947">
		<tag k="name" v="Undrum mellom" />
		<tag k="place" v="farm" />
		<tag k="ssr:stedsnr" v="148824" />
	</node>
	<node id="-197658" lat="59.3385527736" lon="10.3691222271">
		<tag k="name" v="Undrum søndre" />
		<tag k="place" v="farm" />
		<tag k="ssr:stedsnr" v="148821" />
	</node>
	<node id="-197657" lat="59.3396749996" lon="10.3695916707">
		<tag k="name" v="Undrum søndre" />
		<tag k="place" v="farm" />
		<tag k="ssr:stedsnr" v="148820" />
	</node>
	<node id="-197655" lat="59.3318222234" lon="10.378988896">
		<tag k="name" v="Tveiten" />
		<tag k="place" v="farm" />
		<tag k="ssr:stedsnr" v="148766" />
	</node>
	<node id="-197646" lat="59.2792666639" lon="10.4667388875">
		<tag k="fixme" v="consider place=hamlet" />
		<tag k="name" v="Åsmundrød" />
		<tag k="place" v="farm" />
		<tag k="ssr:stedsnr" v="146736" />
	</node>
	<node id="-197645" lat="59.2780333335" lon="10.4009805582">
		<tag k="name" v="Korten" />
		<tag k="place" v="quarter" />
		<tag k="ssr:stedsnr" v="146725" />
	</node>
	<node id="-197644" lat="59.2903972232" lon="10.3443888808">
		<tag k="name" v="Broen" />
		<tag k="place" v="farm" />
		<tag k="ssr:stedsnr" v="146382" />
	</node>
	<node id="-197643" lat="59.2859499981" lon="10.3346555621">
		<tag k="amenity" v="prison" />
		<tag k="name" v="Sem fengsel" />
		<tag k="ssr:stedsnr" v="146374" />
	</node>
	<node id="-197642" lat="59.2913277748" lon="10.3625999955">
		<tag k="name" v="Kjærnes" />
		<tag k="place" v="locality" />
		<tag k="ssr:stedsnr" v="146372" />
	</node>
	<node id="-197641" lat="59.2847888855" lon="10.342291659">
		<tag k="name" v="Auli" />
		<tag k="place" v="farm" />
		<tag k="ssr:stedsnr" v="124827" />
	</node>
	<node id="-197640" lat="59.2569916678" lon="10.4463111125">
		<tag k="fixme" v="consider place=hamlet" />
		<tag k="name" v="Teigen" />
		<tag k="place" v="farm" />
		<tag k="ssr:stedsnr" v="124619" />
	</node>
	<node id="-197639" lat="59.2531507516" lon="10.4606471">
		<tag k="name" v="Nordre Nes" />
		<tag k="old_name" v="Nes" />
		<tag k="place" v="farm" />
		<tag k="ssr:stedsnr" v="124618" />
	</node>
	<node id="-197638" lat="59.2730333291" lon="10.4917749917">
		<tag k="name" v="Furulund" />
		<tag k="place" v="isolated_dwelling" />
		<tag k="ssr:stedsnr" v="124608" />
	</node>
	<node id="-197636" lat="59.2824972238" lon="10.4482166675">
		<tag k="fixme" v="consider place=hamlet" />
		<tag k="name" v="Sande" />
		<tag k="place" v="farm" />
		<tag k="ssr:stedsnr" v="124581" />
	</node>
	<node id="-197635" lat="59.2643944475" lon="10.3396833382">
		<tag k="alt_name" v="Aker gård" />
		<tag k="fixme" v="consider place=hamlet" />
		<tag k="name" v="Aker" />
		<tag k="place" v="farm" />
		<tag k="ssr:stedsnr" v="123884" />
	</node>
	<node id="-197634" lat="59.3081305571" lon="10.3544361055">
		<tag k="name" v="Fadum" />
		<tag k="place" v="farm" />
		<tag k="ssr:stedsnr" v="123681" />
	</node>
	<node id="-197633" lat="59.301150832" lon="10.374619992">
		<tag k="name" v="Hasle" />
		<tag k="place" v="isolated_dwelling" />
		<tag k="ssr:stedsnr" v="123671" />
	</node>
	<node id="-197627" lat="59.3401305569" lon="10.4279555509">
		<tag k="fixme" v="consider place=hamlet" />
		<tag k="name" v="Lestestad" />
		<tag k="place" v="farm" />
		<tag k="ssr:stedsnr" v="89420" />
	</node>
	<node id="-197626" lat="59.3275500011" lon="10.4946944462">
		<tag k="alt_name" v="Markebo" />
		<tag k="name" v="Markebu" />
		<tag k="place" v="farm" />
		<tag k="ssr:stedsnr" v="89140" />
	</node>
	<node id="-197624" lat="59.3197916669" lon="10.3597833409">
		<tag k="name" v="Ødegården" />
		<tag k="place" v="farm" />
		<tag k="ssr:stedsnr" v="88730" />
	</node>
	<node id="-197623" lat="59.3103055555" lon="10.2812083337">
		<tag k="name" v="Svetterød" />
		<tag k="place" v="farm" />
		<tag k="ssr:stedsnr" v="88715" />
	</node>
	<node id="-197622" lat="59.2842750001" lon="10.3343777782">
		<tag k="name" v="Aulerød" />
		<tag k="place" v="quarter" />
		<tag k="ssr:stedsnr" v="88633" />
	</node>
	<node id="-197620" lat="59.3030138866" lon="10.5013805546">
		<tag k="name" v="Teigen" />
		<tag k="place" v="quarter" />
		<tag k="ssr:stedsnr" v="87173" />
	</node>
	<node id="-197619" lat="59.3124305566" lon="10.4521472296">
		<tag k="name" v="Lie" />
		<tag k="place" v="farm" />
		<tag k="ssr:stedsnr" v="86804" />
	</node>
	<node id="-197618" lat="59.2972500017" lon="10.4290888889">
		<tag k="alt_name" v="Eik Søndre" />
		<tag k="fixme" v="consider place=hamlet" />
		<tag k="name" v="Eik" />
		<tag k="place" v="farm" />
		<tag k="ssr:stedsnr" v="86794" />
	</node>
	<node id="-197617" lat="59.2658249976" lon="10.472130548">
		<tag k="alt_name" v="Mellem Ulleviken" />
		<tag k="fixme" v="consider place=hamlet" />
		<tag k="name" v="Ullevika" />
		<tag k="place" v="farm" />
		<tag k="ssr:stedsnr" v="86761" />
	</node>
	<node id="-197613" lat="59.3152638864" lon="10.492052779">
		<tag k="name" v="Knatten" />
		<tag k="place" v="farm" />
		<tag k="ssr:stedsnr" v="85738" />
	</node>
	<node id="-197612" lat="59.3330888882" lon="10.4892472214">
		<tag k="name" v="Saltkopp" />
		<tag k="place" v="isolated_dwelling" />
		<tag k="ssr:stedsnr" v="85732" />
	</node>
	<node id="-197609" lat="59.2765861138" lon="10.4789472182">
		<tag k="fixme" v="consider place=suburb, village or hamlet" />
		<tag k="name" v="Gårdbo" />
		<tag k="place" v="quarter" />
		<tag k="ssr:stedsnr" v="85700" />
	</node>
	<node id="-197607" lat="59.2740805513" lon="10.4504916604">
		<tag k="fixme" v="consider place=hamlet" />
		<tag k="name" v="Olsrød" />
		<tag k="place" v="farm" />
		<tag k="ssr:stedsnr" v="64664" />
	</node>
	<node id="-197606" lat="59.3118555534" lon="10.3777888928">
		<tag k="fixme" v="consider place=hamlet" />
		<tag k="name" v="Emmerød" />
		<tag k="place" v="farm" />
		<tag k="ssr:stedsnr" v="63635" />
	</node>
	<node id="-197605" lat="59.3030250026" lon="10.3539750077">
		<tag k="alt_name" v="Fadum S;Søndre Fadum" />
		<tag k="fixme" v="consider place=hamlet" />
		<tag k="name" v="Fadum" />
		<tag k="place" v="farm" />
		<tag k="ssr:stedsnr" v="63630" />
	</node>
	<node id="-197604" lat="59.2988805587" lon="10.4076083259">
		<tag k="alt_name" v="Søndre Berg" />
		<tag k="name" v="Berg" />
		<tag k="place" v="locality" />
		<tag k="ssr:stedsnr" v="63628" />
	</node>
	<node id="-197603" lat="59.3197388917" lon="10.4064861085">
		<tag k="name" v="Rakkås" />
		<tag k="place" v="farm" />
		<tag k="ssr:stedsnr" v="63624" />
	</node>
	<node id="-197602" lat="59.3197611149" lon="10.4503638958">
		<tag k="alt_name" v="Rom Østre;Søndre Rom" />
		<tag k="fixme" v="consider place=hamlet" />
		<tag k="name" v="Rom" />
		<tag k="place" v="farm" />
		<tag k="ssr:stedsnr" v="63625" />
	</node>
	<node id="-197601" lat="59.3384666621" lon="10.3949527846">
		<tag k="alt_name" v="Brekke, nordre;Brekke N;Vestre Brekke" />
		<tag k="fixme" v="consider place=hamlet" />
		<tag k="name" v="Nordre Brekke" />
		<tag k="place" v="farm" />
		<tag k="ssr:stedsnr" v="63607" />
	</node>
	<node id="-197599" lat="59.3428888895" lon="10.4713972161">
		<tag k="alt_name" v="Nordre Teigen" />
		<tag k="fixme" v="consider place=hamlet" />
		<tag k="name" v="Teigen" />
		<tag k="place" v="farm" />
		<tag k="ssr:stedsnr" v="63600" />
	</node>
	<node id="-197598" lat="59.347905556" lon="10.4346277839">
		<tag k="alt_name" v="Søndre Kjær" />
		<tag k="fixme" v="consider place=hamlet" />
		<tag k="name" v="Kjær" />
		<tag k="place" v="farm" />
		<tag k="ssr:stedsnr" v="63590" />
	</node>
	<node id="-197595" lat="59.2436972188" lon="10.3569166723">
		<tag k="name" v="Roberg" />
		<tag k="place" v="farm" />
		<tag k="ssr:stedsnr" v="57119" />
	</node>
	<node id="-197590" lat="59.2740249974" lon="10.4601388842">
		<tag k="amenity" v="school" />
		<tag k="name" v="Presterød skole" />
		<tag k="ssr:stedsnr" v="267721" />
	</node>
	<node id="-197588" lat="59.318049999" lon="10.4958638806">
		<tag k="name" v="Ereppløkka" />
		<tag k="place" v="farm" />
		<tag k="ssr:stedsnr" v="28139" />
	</node>
	<node id="-197585" lat="59.315705556" lon="10.5063111065">
		<tag k="fixme" v="consider place=hamlet" />
		<tag k="name" v="Åsen" />
		<tag k="place" v="farm" />
		<tag k="ssr:stedsnr" v="27168" />
	</node>
	<node id="-197584" lat="59.3068249961" lon="10.5005888818">
		<tag k="name" v="Tverved" />
		<tag k="place" v="farm" />
		<tag k="ssr:stedsnr" v="27156" />
	</node>
	<node id="-197580" lat="59.3002850414" lon="10.4249077421">
		<tag k="alt_name" v="Eik Mellem" />
		<tag k="name" v="Eik mellom" />
		<tag k="place" v="locality" />
		<tag k="ssr:stedsnr" v="25802" />
	</node>
	<node id="-197579" lat="59.3283194439" lon="10.4411138875">
		<tag k="alt_name" v="Nordvestre Rom" />
		<tag k="fixme" v="consider place=hamlet" />
		<tag k="name" v="Rom vestre" />
		<tag k="place" v="farm" />
		<tag k="ssr:stedsnr" v="25794" />
	</node>
	<node id="-197578" lat="59.2592916633" lon="10.4627527788">
		<tag k="name" v="Bulowstua" />
		<tag k="place" v="isolated_dwelling" />
		<tag k="ssr:stedsnr" v="25788" />
	</node>
	<node id="-197576" lat="59.2649200287" lon="10.3996655411">
		<tag k="name" v="Kaldnes" />
		<tag k="place" v="quarter" />
		<tag k="ssr:stedsnr" v="25764" />
	</node>
	<node id="-197568" lat="59.2593916656" lon="10.3609083356">
		<tag k="name" v="Vear" />
		<tag k="place" v="village" />
		<tag k="ssr:stedsnr" v="25390" />
	</node>
	<node id="-197567" lat="59.2595638881" lon="10.3718527699">
		<tag k="alt_name" v="Rakkevig" />
		<tag k="name" v="Rakkevik" />
		<tag k="place" v="isolated_dwelling" />
		<tag k="ssr:stedsnr" v="25388" />
	</node>
	<node id="-197566" lat="59.2881249958" lon="10.4871750068">
		<tag k="name" v="Basbergrønningen" />
		<tag k="place" v="quarter" />
		<tag k="ssr:stedsnr" v="21049" />
	</node>
	<node id="-197564" lat="59.2808611124" lon="10.2902416623">
		<tag k="fixme" v="consider place=hamlet" />
		<tag k="name" v="Tveitan" />
		<tag k="place" v="farm" />
		<tag k="ssr:stedsnr" v="3857" />
	</node>
	<node id="-197563" lat="59.2822972245" lon="10.3300361162">
		<tag k="name" v="Sem" />
		<tag k="place" v="village" />
		<tag k="ssr:stedsnr" v="3854" />
	</node>
	<node id="-197562" lat="59.3047888927" lon="10.29111112">
		<tag k="fixme" v="consider place=hamlet" />
		<tag k="name" v="Taranrød" />
		<tag k="place" v="farm" />
		<tag k="ssr:stedsnr" v="3825" />
	</node>
	<node id="-197561" lat="59.3174333338" lon="10.3331277696">
		<tag k="fixme" v="multiple name tags, choose one and add the other to alt_name; consider place=hamlet" />
		<tag k="name" v="Søndre Freste;Freste S." />
		<tag k="place" v="farm" />
		<tag k="ssr:stedsnr" v="3782" />
	</node>
	<node id="-197560" lat="59.2710361152" lon="10.4448749955">
		<tag k="fixme" v="consider place=hamlet" />
		<tag k="name" v="Presterød" />
		<tag k="place" v="farm" />
		<tag k="ssr:stedsnr" v="3627" />
	</node>
	<node id="-197559" lat="59.2754749986" lon="10.3464527837">
		<tag k="fixme" v="consider place=hamlet" />
		<tag k="name" v="Manum" />
		<tag k="place" v="farm" />
		<tag k="ssr:stedsnr" v="3625" />
	</node>
	<node id="-197558" lat="59.2514999997" lon="10.3436111037">
		<tag k="alt_name" v="Råstad N" />
		<tag k="name" v="Råstad" />
		<tag k="place" v="farm" />
		<tag k="ssr:stedsnr" v="3622" />
	</node>
	<node id="-197556" lat="59.2801913389" lon="10.4605147758">
		<tag k="fixme" v="consider place=hamlet" />
		<tag k="name" v="Gauterød" />
		<tag k="place" v="farm" />
		<tag k="ssr:stedsnr" v="3607" />
	</node>
	<node id="-197555" lat="59.3065777743" lon="10.4610500056">
		<tag k="fixme" v="consider place=hamlet" />
		<tag k="name" v="Horgen" />
		<tag k="place" v="farm" />
		<tag k="ssr:stedsnr" v="2649" />
	</node>
	<node id="-197554" lat="59.3047111094" lon="10.3982249954">
		<tag k="alt_name" v="Berg, nordre;Berg" />
		<tag k="fixme" v="consider place=hamlet" />
		<tag k="name" v="Nordre Berg" />
		<tag k="place" v="farm" />
		<tag k="ssr:stedsnr" v="2644" />
	</node>
	<node id="-197553" lat="59.3147527738" lon="10.4500277831">
		<tag k="alt_name" v="Lie" />
		<tag k="fixme" v="consider place=hamlet" />
		<tag k="name" v="Li" />
		<tag k="place" v="farm" />
		<tag k="ssr:stedsnr" v="2635" />
	</node>
	<node id="-197552" lat="59.3243555556" lon="10.389788891">
		<tag k="fixme" v="consider place=hamlet" />
		<tag k="name" v="Sverstad" />
		<tag k="place" v="farm" />
		<tag k="ssr:stedsnr" v="2618" />
	</node>
	<node id="-197551" lat="59.3368055511" lon="10.4147000003">
		<tag k="fixme" v="consider place=hamlet" />
		<tag k="name" v="Røsland" />
		<tag k="place" v="farm" />
		<tag k="ssr:stedsnr" v="2608" />
	</node>
	<node id="-197550" lat="59.344599996" lon="10.3700249942">
		<tag k="alt_name" v="Undrum nordre" />
		<tag k="fixme" v="consider place=hamlet" />
		<tag k="name" v="Undrum" />
		<tag k="place" v="farm" />
		<tag k="ssr:stedsnr" v="2598" />
	</node>
	<node id="-197549" lat="59.3428055588" lon="10.4547388878">
		<tag k="name" v="Bollerød" />
		<tag k="place" v="farm" />
		<tag k="ssr:stedsnr" v="2596" />
	</node>
	<node id="-197545" lat="59.2708688042" lon="10.311119216">
		<tag k="name" v="Brensrød" />
		<tag k="place" v="locality" />
		<tag k="ssr:stedsnr" v="985036" />
	</node>
	<node id="-197544" lat="59.2441359819" lon="10.4750947212">
		<tag k="name" v="Jersø" />
		<tag k="place" v="locality" />
		<tag k="ssr:stedsnr" v="985035" />
	</node>
	<node id="-197543" lat="59.245658514" lon="10.5029404096">
		<tag k="name" v="Torgersøya" />
		<tag k="place" v="locality" />
		<tag k="ssr:stedsnr" v="985034" />
	</node>
	<node id="-197542" lat="59.2384888609" lon="10.4607864835">
		<tag k="name" v="Husøy" />
		<tag k="place" v="locality" />
		<tag k="ssr:stedsnr" v="985032" />
	</node>
	<node id="-197541" lat="59.2536895872" lon="10.4662544878">
		<tag k="fixme" v="consider place=hamlet" />
		<tag k="name" v="Husvik" />
		<tag k="place" v="farm" />
		<tag k="ssr:stedsnr" v="985031" />
	</node>
	<node id="-197540" lat="59.2662822863" lon="10.4415658157">
		<tag k="name" v="Nedre Råel" />
		<tag k="place" v="locality" />
		<tag k="ssr:stedsnr" v="985030" />
	</node>
	<node id="-197539" lat="59.2691791451" lon="10.4508026711">
		<tag k="fixme" v="consider place=hamlet" />
		<tag k="name" v="Øvre Råel" />
		<tag k="place" v="farm" />
		<tag k="ssr:stedsnr" v="985029" />
	</node>
	<node id="-197538" lat="59.2878865881" lon="10.469819151">
		<tag k="name" v="Bekketjønnmyra" />
		<tag k="place" v="locality" />
		<tag k="ssr:stedsnr" v="985028" />
	</node>
	<node id="-197537" lat="59.2678527072" lon="10.4638188511">
		<tag k="name" v="Ulleviksrydningen" />
		<tag k="place" v="isolated_dwelling" />
		<tag k="ssr:stedsnr" v="985027" />
	</node>
	<node id="-197536" lat="59.2596492504" lon="10.4977355256">
		<tag k="name" v="Vallø" />
		<tag k="place" v="locality" />
		<tag k="ssr:stedsnr" v="985026" />
	</node>
	<node id="-197535" lat="59.2838888166" lon="10.4937390978">
		<tag k="fixme" v="consider place=hamlet" />
		<tag k="name" v="Ringshaug" />
		<tag k="place" v="farm" />
		<tag k="ssr:stedsnr" v="985025" />
	</node>
	<node id="-197534" lat="59.3035244682" lon="10.5044883712">
		<tag k="name" v="Bolsrød" />
		<tag k="place" v="locality" />
		<tag k="ssr:stedsnr" v="985024" />
	</node>
	<node id="-197533" lat="59.3056484374" lon="10.5169059782">
		<tag k="name" v="Nordre Karlsviken" />
		<tag k="place" v="locality" />
		<tag k="ssr:stedsnr" v="984987" />
	</node>
	<node id="-197532" lat="59.3214300618" lon="10.470726497">
		<tag k="name" v="Rørås" />
		<tag k="place" v="hamlet" />
		<tag k="ssr:stedsnr" v="984983" />
	</node>
	<node id="-197531" lat="59.3210756046" lon="10.4490947886">
		<tag k="name" v="Østre Rom" />
		<tag k="place" v="hamlet" />
		<tag k="ssr:stedsnr" v="984950" />
	</node>
	<node id="-197530" lat="59.3256331878" lon="10.4413128399">
		<tag k="name" v="Vestre Rom" />
		<tag k="place" v="hamlet" />
		<tag k="ssr:stedsnr" v="984949" />
	</node>
	<node id="-197529" lat="59.3249437241" lon="10.4364208537">
		<tag k="fixme" v="consider place=hamlet" />
		<tag k="name" v="Mellem Rom" />
		<tag k="place" v="farm" />
		<tag k="ssr:stedsnr" v="984948" />
	</node>
	<node id="-197528" lat="59.3221184338" lon="10.4497927826">
		<tag k="fixme" v="consider place=hamlet" />
		<tag k="name" v="Mellem Rom" />
		<tag k="place" v="farm" />
		<tag k="ssr:stedsnr" v="984947" />
	</node>
	<node id="-197526" lat="59.3193107724" lon="10.4342276255">
		<tag k="fixme" v="consider place=hamlet" />
		<tag k="name" v="Vestre Roberg" />
		<tag k="place" v="farm" />
		<tag k="ssr:stedsnr" v="984945" />
	</node>
	<node id="-197525" lat="59.3059795225" lon="10.4395390523">
		<tag k="name" v="Lille Roberg" />
		<tag k="place" v="locality" />
		<tag k="ssr:stedsnr" v="984943" />
	</node>
	<node id="-197524" lat="59.3066484295" lon="10.4390094275">
		<tag k="fixme" v="consider place=hamlet" />
		<tag k="name" v="Østre Roberg" />
		<tag k="place" v="farm" />
		<tag k="ssr:stedsnr" v="984941" />
	</node>
	<node id="-197523" lat="59.3070961981" lon="10.441048832">
		<tag k="fixme" v="consider place=hamlet" />
		<tag k="name" v="Søndre Roberg" />
		<tag k="place" v="farm" />
		<tag k="ssr:stedsnr" v="984939" />
	</node>
	<node id="-197522" lat="59.3040208849" lon="10.444616324">
		<tag k="fixme" v="consider place=hamlet" />
		<tag k="name" v="Klokkeråsen" />
		<tag k="place" v="farm" />
		<tag k="ssr:stedsnr" v="984938" />
	</node>
	<node id="-197521" lat="59.3104157124" lon="10.4723094955">
		<tag k="fixme" v="consider place=hamlet" />
		<tag k="name" v="Nordre Bø" />
		<tag k="place" v="farm" />
		<tag k="ssr:stedsnr" v="984936" />
	</node>
	<node id="-197520" lat="59.3032692281" lon="10.4681212962">
		<tag k="name" v="Hassum" />
		<tag k="place" v="hamlet" />
		<tag k="ssr:stedsnr" v="984934" />
	</node>
	<node id="-197519" lat="59.306096157" lon="10.4666975342">
		<tag k="fixme" v="consider place=hamlet" />
		<tag k="name" v="Nordre Hassum" />
		<tag k="place" v="farm" />
		<tag k="ssr:stedsnr" v="984933" />
	</node>
	<node id="-197518" lat="59.294247409" lon="10.4704258411">
		<tag k="name" v="Ilebrekke" />
		<tag k="place" v="hamlet" />
		<tag k="ssr:stedsnr" v="984932" />
	</node>
	<node id="-197517" lat="59.2973499261" lon="10.4550229352">
		<tag k="name" v="Basberg" />
		<tag k="place" v="hamlet" />
		<tag k="ssr:stedsnr" v="984929" />
	</node>
	<node id="-197516" lat="59.2988476708" lon="10.4541456837">
		<tag k="fixme" v="consider place=hamlet" />
		<tag k="name" v="Lille Basberg" />
		<tag k="place" v="farm" />
		<tag k="ssr:stedsnr" v="984928" />
	</node>
	<node id="-197515" lat="59.2941561379" lon="10.4568971036">
		<tag k="fixme" v="consider place=hamlet" />
		<tag k="name" v="Søndre Basberg" />
		<tag k="place" v="farm" />
		<tag k="ssr:stedsnr" v="984927" />
	</node>
	<node id="-197514" lat="59.2942070531" lon="10.4405156941">
		<tag k="name" v="Velle" />
		<tag k="place" v="hamlet" />
		<tag k="ssr:stedsnr" v="984926" />
	</node>
	<node id="-197513" lat="59.2930472695" lon="10.4385417784">
		<tag k="fixme" v="consider place=hamlet" />
		<tag k="name" v="Søndre Velle" />
		<tag k="place" v="farm" />
		<tag k="ssr:stedsnr" v="984925" />
	</node>
	<node id="-197512" lat="59.2993506808" lon="10.4280006177">
		<tag k="name" v="Eik" />
		<tag k="place" v="hamlet" />
		<tag k="ssr:stedsnr" v="984921" />
	</node>
	<node id="-197511" lat="59.3420087054" lon="10.4175938573">
		<tag k="name" v="Jareteigen" />
		<tag k="place" v="hamlet" />
		<tag k="ssr:stedsnr" v="984863" />
	</node>
	<node id="-197510" lat="59.3170388427" lon="10.3882333862">
		<tag k="name" v="Barkåker" />
		<tag k="place" v="locality" />
		<tag k="ssr:stedsnr" v="984859" />
	</node>
	<node id="-197509" lat="59.2603321884" lon="10.3538080035">
		<tag k="name" v="Eldre" />
		<tag k="place" v="isolated_dwelling" />
		<tag k="ssr:stedsnr" v="984820" />
	</node>
	<node id="-197508" lat="59.2839179289" lon="10.3334103578">
		<tag k="fixme" v="consider place=hamlet" />
		<tag k="name" v="Aulerød" />
		<tag k="place" v="farm" />
		<tag k="ssr:stedsnr" v="984818" />
	</node>
	<node id="-197507" lat="59.2850402799" lon="10.3128446624">
		<tag k="name" v="Hesby" />
		<tag k="place" v="hamlet" />
		<tag k="ssr:stedsnr" v="984805" />
	</node>
	<node id="-197506" lat="59.2845487151" lon="10.3096384676">
		<tag k="fixme" v="consider place=hamlet" />
		<tag k="name" v="Mellem Hesby" />
		<tag k="place" v="farm" />
		<tag k="ssr:stedsnr" v="984783" />
	</node>
	<node id="-197505" lat="59.2902384953" lon="10.3205297915">
		<tag k="name" v="Lensberg" />
		<tag k="place" v="hamlet" />
		<tag k="ssr:stedsnr" v="984781" />
	</node>
	<node id="-197504" lat="59.2910690427" lon="10.3219540112">
		<tag k="fixme" v="consider place=hamlet" />
		<tag k="name" v="Øvre Lendsberg" />
		<tag k="place" v="farm" />
		<tag k="ssr:stedsnr" v="984780" />
	</node>
	<node id="-197503" lat="59.2992892016" lon="10.3231714303">
		<tag k="name" v="Grette" />
		<tag k="place" v="hamlet" />
		<tag k="ssr:stedsnr" v="984779" />
	</node>
	<node id="-197502" lat="59.2969826849" lon="10.3213267387">
		<tag k="fixme" v="consider place=hamlet" />
		<tag k="name" v="Øvre Grette" />
		<tag k="place" v="farm" />
		<tag k="ssr:stedsnr" v="984778" />
	</node>
	<node id="-197501" lat="59.3062031342" lon="10.3549544762">
		<tag k="name" v="Fadum" />
		<tag k="place" v="hamlet" />
		<tag k="ssr:stedsnr" v="984777" />
	</node>
	<node id="-197500" lat="59.295984486" lon="10.3554544719">
		<tag k="fixme" v="consider place=hamlet" />
		<tag k="name" v="Søndre Ås" />
		<tag k="place" v="farm" />
		<tag k="ssr:stedsnr" v="984776" />
	</node>
	<node id="-197499" lat="59.2997623689" lon="10.3605017503">
		<tag k="fixme" v="consider place=hamlet" />
		<tag k="name" v="Nordre Ås" />
		<tag k="place" v="farm" />
		<tag k="ssr:stedsnr" v="984775" />
	</node>
	<node id="-197498" lat="59.3208193455" lon="10.3809588388">
		<tag k="name" v="Eikeberg" />
		<tag k="place" v="hamlet" />
		<tag k="ssr:stedsnr" v="984751" />
	</node>
	<node id="-197497" lat="59.3214278201" lon="10.3798905646">
		<tag k="fixme" v="consider place=hamlet" />
		<tag k="name" v="Søndre Eikeberg" />
		<tag k="place" v="farm" />
		<tag k="ssr:stedsnr" v="984749" />
	</node>
	<node id="-197496" lat="59.3392595214" lon="10.3740714201">
		<tag k="name" v="Undrum" />
		<tag k="place" v="hamlet" />
		<tag k="ssr:stedsnr" v="984721" />
	</node>
	<node id="-197488" lat="59.3203947082" lon="10.4967125584">
		<tag k="alt_name" v="Bøengen" />
		<tag k="fixme" v="consider place=hamlet" />
		<tag k="name" v="Bøeng" />
		<tag k="place" v="farm" />
		<tag k="ssr:stedsnr" v="392848" />
	</node>
	<node id="-197484" lat="59.3278611097" lon="10.3555249935">
		<tag k="fixme" v="consider place=hamlet" />
		<tag k="name" v="Rastad" />
		<tag k="place" v="farm" />
		<tag k="ssr:stedsnr" v="391781" />
	</node>
	<node id="-197482" lat="59.2957444471" lon="10.3323138952">
		<tag k="fixme" v="consider place=hamlet" />
		<tag k="name" v="Låne mellom" />
		<tag k="place" v="farm" />
		<tag k="ssr:stedsnr" v="391770" />
	</node>
	<node id="-197480" lat="59.3432416688" lon="10.4548916688">
		<tag k="fixme" v="consider place=hamlet" />
		<tag k="name" v="Spettås" />
		<tag k="place" v="farm" />
		<tag k="ssr:stedsnr" v="389817" />
	</node>
	<node id="-197479" lat="59.2697825185" lon="10.4609011362">
		<tag k="amenity" v="school" />
		<tag k="name" v="Presterød ungd.skole" />
		<tag k="ssr:stedsnr" v="389754" />
	</node>
	<node id="-197477" lat="59.301680552" lon="10.427327781">
		<tag k="fixme" v="consider place=hamlet" />
		<tag k="name" v="Lofseik" />
		<tag k="place" v="farm" />
		<tag k="ssr:stedsnr" v="388771" />
	</node>
	<node id="-197476" lat="59.3048638885" lon="10.4133527821">
		<tag k="fixme" v="consider place=hamlet" />
		<tag k="name" v="Bruserød" />
		<tag k="place" v="farm" />
		<tag k="ssr:stedsnr" v="388760" />
	</node>
	<node id="-197474" lat="59.3243055527" lon="10.4780444422">
		<tag k="name" v="Grønseth" />
		<tag k="place" v="farm" />
		<tag k="ssr:stedsnr" v="388751" />
	</node>
	<node id="-197473" lat="59.2489722228" lon="10.3583805582">
		<tag k="name" v="Vearåsen" />
		<tag k="place" v="quarter" />
		<tag k="ssr:stedsnr" v="384054" />
	</node>
	<node id="-197472" lat="59.274563887" lon="10.3326666724">
		<tag k="name" v="Løkeberg" />
		<tag k="place" v="farm" />
		<tag k="ssr:stedsnr" v="367882" />
	</node>
	<node id="-197471" lat="59.3013499991" lon="10.3170611033">
		<tag k="alt_name" v="Pande" />
		<tag k="fixme" v="consider place=hamlet" />
		<tag k="name" v="Panne" />
		<tag k="place" v="farm" />
		<tag k="ssr:stedsnr" v="367802" />
	</node>
	<node id="-197470" lat="59.2817638897" lon="10.4380583376">
		<tag k="name" v="Sundekilden" />
		<tag k="place" v="farm" />
		<tag k="ssr:stedsnr" v="367621" />
	</node>
	<node id="-197468" lat="59.2951083317" lon="10.4406916631">
		<tag k="alt_name" v="Nordre Velle" />
		<tag k="fixme" v="consider place=hamlet" />
		<tag k="name" v="Velle" />
		<tag k="place" v="farm" />
		<tag k="ssr:stedsnr" v="366656" />
	</node>
	<node id="-197467" lat="59.2953000014" lon="10.5151888808">
		<tag k="alt_name" v="Karlsvika, s" />
		<tag k="name" v="Søndre Karlsvika" />
		<tag k="place" v="farm" />
		<tag k="ssr:stedsnr" v="366652" />
	</node>
	<node id="-197466" lat="59.294241669" lon="10.34918334">
		<tag k="alt_name" v="Ås" />
		<tag k="fixme" v="consider place=hamlet" />
		<tag k="name" v="Ås, s" />
		<tag k="place" v="farm" />
		<tag k="ssr:stedsnr" v="366650" />
	</node>
	<node id="-197465" lat="59.3199472258" lon="10.4700027766">
		<tag k="alt_name" v="Rørås, s;Rørås" />
		<tag k="fixme" v="consider place=hamlet" />
		<tag k="name" v="Søndre Rørås" />
		<tag k="place" v="farm" />
		<tag k="ssr:stedsnr" v="366626" />
	</node>
	<node id="-197464" lat="59.3147361137" lon="10.5056166673">
		<tag k="name" v="Åsen" />
		<tag k="place" v="farm" />
		<tag k="ssr:stedsnr" v="366623" />
	</node>
	<node id="-197463" lat="59.3153222253" lon="10.4847583355">
		<tag k="alt_name" v="Stusrød;Studsrød" />
		<tag k="name" v="Stusrøa" />
		<tag k="place" v="farm" />
		<tag k="ssr:stedsnr" v="366622" />
	</node>
	<node id="-197462" lat="59.3222111142" lon="10.3973111145">
		<tag k="alt_name" v="Brekke S" />
		<tag k="name" v="Brekke" />
		<tag k="place" v="farm" />
		<tag k="ssr:stedsnr" v="366613" />
	</node>
	<node id="-197460" lat="59.2471416684" lon="10.457858329">
		<tag k="fixme" v="consider place=hamlet" />
		<tag k="name" v="Søndre Nes" />
		<tag k="place" v="farm" />
		<tag k="ssr:stedsnr" v="365005" />
	</node>
	<node id="-197450" lat="59.2842861097" lon="10.4003333246">
		<tag k="amenity" v="school" />
		<tag k="name" v="Kjelle ungd.skole" />
		<tag k="ssr:stedsnr" v="328985" />
	</node>
	<node id="-197449" lat="59.3083416634" lon="10.4593833385">
		<tag k="name" v="Nygård" />
		<tag k="place" v="farm" />
		<tag k="ssr:stedsnr" v="328795" />
	</node>
	<node id="-197446" lat="59.3337916625" lon="10.4657527706">
		<tag k="fixme" v="consider place=hamlet" />
		<tag k="name" v="Hallingrød" />
		<tag k="place" v="farm" />
		<tag k="ssr:stedsnr" v="328763" />
	</node>
	<node id="-197445" lat="59.3306777777" lon="10.4061833342">
		<tag k="fixme" v="consider place=hamlet" />
		<tag k="name" v="Skotte" />
		<tag k="place" v="farm" />
		<tag k="ssr:stedsnr" v="328760" />
	</node>
	<node id="-197444" lat="59.269950001" lon="10.4813611194">
		<tag k="name" v="Krøgerløkka" />
		<tag k="place" v="quarter" />
		<tag k="ssr:stedsnr" v="328747" />
	</node>
	<node id="-197443" lat="59.2807972199" lon="10.4870166595">
		<tag k="fixme" v="consider place=hamlet" />
		<tag k="name" v="Ringshaug" />
		<tag k="place" v="village" />
		<tag k="ssr:stedsnr" v="328734" />
	</node>
	<node id="-197442" lat="59.2750249994" lon="10.4356833377">
		<tag k="name" v="Presterød" />
		<tag k="place" v="farm" />
		<tag k="ssr:stedsnr" v="328727" />
	</node>
	<node id="-197441" lat="59.2760361124" lon="10.4120166614">
		<tag k="leisure" v="pitch" />
		<tag k="name" v="Gamleidretten" />
		<tag k="ssr:stedsnr" v="328723" />
	</node>
	<node id="-197440" lat="59.3075194479" lon="10.4290527693">
		<tag k="name" v="Nordre Eik" />
		<tag k="place" v="quarter" />
		<tag k="ssr:stedsnr" v="324028" />
	</node>
	<node id="-197433" lat="59.2917499987" lon="10.3194805581">
		<tag k="alt_name" v="Nedre Lensberg" />
		<tag k="fixme" v="consider place=hamlet" />
		<tag k="name" v="Lensberg" />
		<tag k="place" v="farm" />
		<tag k="ssr:stedsnr" v="306864" />
	</node>
	<node id="-197430" lat="59.2833138932" lon="10.3535750004">
		<tag k="name" v="Aulilund" />
		<tag k="place" v="farm" />
		<tag k="ssr:stedsnr" v="306588" />
	</node>
	<node id="-197429" lat="59.3262694447" lon="10.4396027822">
		<tag k="alt_name" v="Rom, vestre;Rom Vestre" />
		<tag k="fixme" v="consider place=hamlet" />
		<tag k="name" v="Vestre Rom" />
		<tag k="place" v="farm" />
		<tag k="ssr:stedsnr" v="306563" />
	</node>
	<node id="-197428" lat="59.3347361077" lon="10.3786166718">
		<tag k="name" v="Tveiten" />
		<tag k="place" v="farm" />
		<tag k="ssr:stedsnr" v="306560" />
	</node>
	<node id="-197427" lat="59.3390611154" lon="10.4764888864">
		<tag k="alt_name" v="Stang" />
		<tag k="fixme" v="consider place=hamlet" />
		<tag k="name" v="Lille Stang" />
		<tag k="place" v="farm" />
		<tag k="ssr:stedsnr" v="306557" />
	</node>
	<node id="-197426" lat="59.3070638917" lon="10.3397805606">
		<tag k="alt_name" v="Åleborgen" />
		<tag k="fixme" v="consider place=hamlet" />
		<tag k="name" v="Åleborga" />
		<tag k="place" v="farm" />
		<tag k="ssr:stedsnr" v="306824" />
	</node>
	<node id="-197424" lat="59.3512111103" lon="10.4179749917">
		<tag k="fixme" v="consider place=hamlet" />
		<tag k="name" v="Myre" />
		<tag k="place" v="farm" />
		<tag k="ssr:stedsnr" v="305628" />
	</node>
</osm>
