<?xml version="1.0" encoding="UTF-8"?>
<osm generator="osmapis" version="0.6">
	<node id="-197759" lat="59.3247416689" lon="10.3720361178">
		<tag k="name" v="Eikebergmyra" />
		<tag k="place" v="locality" />
		<tag k="ssr:stedsnr" v="937782" />
	</node>
	<node id="-197628" lat="59.2861749963" lon="10.4093444499">
		<tag k="name" v="Grevskogen" />
		<tag k="place" v="locality" />
		<tag k="ssr:stedsnr" v="692981" />
	</node>
	<node id="-197755" lat="59.2968527774" lon="10.5108361168">
		<tag k="name" v="Skogsnaret" />
		<tag k="place" v="locality" />
		<tag k="ssr:stedsnr" v="937218" />
	</node>
	<node id="-197749" lat="59.2808305528" lon="10.4079944525">
		<tag k="name" v="Stenmalen" />
		<tag k="place" v="locality" />
		<tag k="ssr:stedsnr" v="935744" />
	</node>
	<node id="-197361" lat="59.3306166706" lon="10.3591138813">
		<tag k="name" v="Myra" />
		<tag k="place" v="locality" />
		<tag k="ssr:stedsnr" v="148767" />
	</node>
	<node id="-197356" lat="59.3044611112" lon="10.4211833256">
		<tag k="name" v="Lørte" />
		<tag k="place" v="locality" />
		<tag k="ssr:stedsnr" v="146764" />
	</node>
	<node id="-197482" lat="59.3066916654" lon="10.4785666738">
		<tag k="name" v="Stormyra" />
		<tag k="natural" v="wetland" />
		<tag k="ssr:stedsnr" v="450804" />
	</node>
	<node id="-197468" lat="59.2796444421" lon="10.3769305549">
		<tag k="name" v="Ilene" />
		<tag k="place" v="locality" />
		<tag k="ssr:stedsnr" v="450403" />
	</node>
	<node id="-197722" lat="59.2569138895" lon="10.3545444505">
		<tag k="name" v="Vearmyr" />
		<tag k="natural" v="wetland" />
		<tag k="ssr:stedsnr" v="875409" />
	</node>
	<node id="-197588" lat="59.3372999959" lon="10.4711361022">
		<tag k="name" v="Romsrydningen" />
		<tag k="place" v="locality" />
		<tag k="ssr:stedsnr" v="631828" />
	</node>
	<node id="-197454" lat="59.2491694445" lon="10.3680916638">
		<tag k="name" v="Sjuestokkskogen" />
		<tag k="place" v="locality" />
		<tag k="ssr:stedsnr" v="268430" />
	</node>
	<node id="-197706" lat="59.2861888877" lon="10.3779527825">
		<tag k="name" v="Gullkrona" />
		<tag k="place" v="locality" />
		<tag k="ssr:stedsnr" v="874409" />
	</node>
	<node id="-197320" lat="59.2836361116" lon="10.4204277762">
		<tag k="name" v="Byskogen" />
		<tag k="place" v="locality" />
		<tag k="ssr:stedsnr" v="86733" />
	</node>
	<node id="-197445" lat="59.3285222226" lon="10.396341659">
		<tag k="name" v="Dammen" />
		<tag k="place" v="locality" />
		<tag k="ssr:stedsnr" v="267750" />
	</node>
	<node id="-197418" lat="59.3196277816" lon="10.3755805597">
		<tag k="name" v="Eikebergmyrbrua" />
		<tag k="place" v="locality" />
		<tag k="ssr:stedsnr" v="236033" />
	</node>
	<node id="-197280" lat="59.2858694471" lon="10.4708138902">
		<tag k="name" v="Bekketjønnmyra" />
		<tag k="natural" v="wetland" />
		<tag k="ssr:stedsnr" v="25756" />
	</node>
	<node id="-197404" lat="59.3204277807" lon="10.4981833409">
		<tag k="landuse" v="meadow" />
		<tag k="name" v="Strandeng" />
		<tag k="ssr:stedsnr" v="209198" />
	</node>
	<node id="-197466" lat="59.261191666" lon="10.3580944472">
		<tag k="name" v="Firingsmyrene" />
		<tag k="natural" v="wetland" />
		<tag k="ssr:stedsnr" v="450389" />
	</node>
	<node id="-197656" lat="59.2776166679" lon="10.3226138827">
		<tag k="name" v="Lasken" />
		<tag k="place" v="locality" />
		<tag k="ssr:stedsnr" v="755673" />
	</node>
	<node id="-197653" lat="59.3033472182" lon="10.3891999983">
		<tag k="name" v="Hestehagen" />
		<tag k="place" v="locality" />
		<tag k="ssr:stedsnr" v="753767" />
	</node>
	<node id="-197652" lat="59.3105944484" lon="10.4092944451">
		<tag k="name" v="Bruserød" />
		<tag k="place" v="locality" />
		<tag k="ssr:stedsnr" v="753765" />
	</node>
	<node id="-197646" lat="59.2656718479" lon="10.3697652772">
		<tag k="name" v="Smørbergrønningen" />
		<tag k="place" v="locality" />
		<tag k="ssr:stedsnr" v="753347" />
	</node>
	<node id="-197515" lat="59.3329000025" lon="10.4551111067">
		<tag k="name" v="Romsmyra" />
		<tag k="natural" v="wetland" />
		<tag k="ssr:stedsnr" v="510795" />
	</node>
	<node id="-197635" lat="59.3098305536" lon="10.514011106">
		<tag k="name" v="Bakkeskog" />
		<tag k="place" v="locality" />
		<tag k="ssr:stedsnr" v="723799" />
	</node>
</osm>
