<?xml version="1.0" encoding="UTF-8"?>
<<<<<<< HEAD
<osm version="0.6" generator="osmapis">
	<node lat="59.70190555714932" lon="10.923388886075552" id="-14458">
		<tag k="name" v="Follo" />
		<tag k="ssr:date" v="2019-12-27" />
		<tag k="ssr:gruppe" v="terrengområder" />
		<tag k="ssr:hovedgruppe" v="terreng" />
		<tag k="ssr:stedsnr" v="267868" />
		<tag k="ssr:type" v="landskapsområde" />
	</node>
	<node lat="59.66365555462645" lon="10.791008341857909" id="-14515">
		<tag k="alt_name" v="Ås" />
		<tag k="name" v="Ås kommune" />
		<tag k="ssr:date" v="2019-12-27" />
		<tag k="ssr:gruppe" v="administrativeIndelinger" />
		<tag k="ssr:hovedgruppe" v="offentligAdministrasjon" />
		<tag k="ssr:stedsnr" v="388749" />
		<tag k="ssr:type" v="kommune" />
	</node>
	<node lat="59.75199722517107" lon="10.742802779293871" id="-14601">
		<tag k="name" v="Oppegårdveien" />
		<tag k="ssr:date" v="2019-12-27" />
		<tag k="ssr:gruppe" v="veg" />
		<tag k="ssr:hovedgruppe" v="infrastruktur" />
		<tag k="ssr:stedsnr" v="629829" />
		<tag k="ssr:type" v="vegstrekning" />
	</node>
	<node lat="59.73950277356496" lon="10.770908326501775" id="-14629">
		<tag k="name" v="Vinterbro" />
		<tag k="ssr:date" v="2021-06-08" />
=======
<osm generator="osmapis" version="0.6">
	<node id="-246304" lat="59.9116896876" lon="10.7581882267">
		<tag k="name" v="Viken fylke" />
		<tag k="ssr:date" v="2020-01-13" />
>>>>>>> e1d4bc35ff8a6074a6f2e91616a996b547c36f15
		<tag k="ssr:gruppe" v="administrativeIndelinger" />
		<tag k="ssr:hovedgruppe" v="offentligAdministrasjon" />
		<tag k="ssr:stedsnr" v="752664" />
		<tag k="ssr:type" v="poststed" />
	</node>
<<<<<<< HEAD
	<node lat="59.69448792862015" lon="10.827970460931116" id="-14711">
		<tag k="name" v="Kjølstadveien" />
=======
	<node id="-246303" lat="59.7523736855" lon="10.7306527481">
		<tag k="name" v="Brenningsmyrveien" />
>>>>>>> e1d4bc35ff8a6074a6f2e91616a996b547c36f15
		<tag k="ssr:date" v="2019-12-27" />
		<tag k="ssr:gruppe" v="veg" />
		<tag k="ssr:hovedgruppe" v="infrastruktur" />
		<tag k="ssr:stedsnr" v="987410" />
		<tag k="ssr:type" v="adressenavn" />
	</node>
<<<<<<< HEAD
	<node lat="59.66518027380223" lon="10.760970499507184" id="-14713">
		<tag k="name" v="Oluf Thesens vei" />
=======
	<node id="-246302" lat="59.6664990571" lon="10.7657622602">
		<tag k="name" v="Ragnhild Sundbys plass" />
>>>>>>> e1d4bc35ff8a6074a6f2e91616a996b547c36f15
		<tag k="ssr:date" v="2019-12-27" />
		<tag k="ssr:gruppe" v="veg" />
		<tag k="ssr:hovedgruppe" v="infrastruktur" />
		<tag k="ssr:stedsnr" v="989809" />
		<tag k="ssr:type" v="adressenavn" />
	</node>
<<<<<<< HEAD
	<node lat="59.670186842669835" lon="10.76203215800704" id="-14714">
=======
	<node id="-246301" lat="59.6701868427" lon="10.762032158">
>>>>>>> e1d4bc35ff8a6074a6f2e91616a996b547c36f15
		<tag k="name" v="Elizabeth Stephansens vei" />
		<tag k="ssr:date" v="2019-12-27" />
		<tag k="ssr:gruppe" v="veg" />
		<tag k="ssr:hovedgruppe" v="infrastruktur" />
		<tag k="ssr:stedsnr" v="989810" />
		<tag k="ssr:type" v="adressenavn" />
	</node>
<<<<<<< HEAD
	<node lat="59.66649905705602" lon="10.76576226024147" id="-14715">
		<tag k="name" v="Ragnhild Sundbys plass" />
=======
	<node id="-246300" lat="59.6651802738" lon="10.7609704995">
		<tag k="name" v="Oluf Thesens vei" />
>>>>>>> e1d4bc35ff8a6074a6f2e91616a996b547c36f15
		<tag k="ssr:date" v="2019-12-27" />
		<tag k="ssr:gruppe" v="veg" />
		<tag k="ssr:hovedgruppe" v="infrastruktur" />
		<tag k="ssr:stedsnr" v="989811" />
		<tag k="ssr:type" v="adressenavn" />
	</node>
<<<<<<< HEAD
	<node lat="59.70190555714932" lon="10.923388886075552" id="-15004">
		<tag k="name" v="Søndre Follo prosti" />
		<tag k="ssr:date" v="2021-06-08" />
		<tag k="ssr:gruppe" v="administrativeIndelinger" />
		<tag k="ssr:hovedgruppe" v="offentligAdministrasjon" />
		<tag k="ssr:stedsnr" v="967401" />
		<tag k="ssr:type" v="annenAdministrativInndeling" />
	</node>
	<node lat="59.7171278967475" lon="10.801573620710686" id="-15006">
		<tag k="name" v="Skifabrikksvingen" />
=======
	<node id="-246299" lat="59.6944879286" lon="10.8279704609">
		<tag k="name" v="Kjølstadveien" />
>>>>>>> e1d4bc35ff8a6074a6f2e91616a996b547c36f15
		<tag k="ssr:date" v="2019-12-27" />
		<tag k="ssr:gruppe" v="veg" />
		<tag k="ssr:hovedgruppe" v="infrastruktur" />
		<tag k="ssr:stedsnr" v="984890" />
		<tag k="ssr:type" v="adressenavn" />
	</node>
<<<<<<< HEAD
	<node lat="59.71750275356632" lon="10.803709752550247" id="-15007">
=======
	<node id="-246298" lat="59.7175027536" lon="10.8037097526">
>>>>>>> e1d4bc35ff8a6074a6f2e91616a996b547c36f15
		<tag k="name" v="Hagen Johansens vei" />
		<tag k="ssr:date" v="2019-12-27" />
		<tag k="ssr:gruppe" v="veg" />
		<tag k="ssr:hovedgruppe" v="infrastruktur" />
		<tag k="ssr:stedsnr" v="984891" />
		<tag k="ssr:type" v="adressenavn" />
	</node>
<<<<<<< HEAD
	<node lat="59.72023458170972" lon="10.810269305777606" id="-15008">
		<tag k="name" v="Bekkestien" />
=======
	<node id="-246297" lat="59.7171278967" lon="10.8015736207">
		<tag k="name" v="Skifabrikksvingen" />
>>>>>>> e1d4bc35ff8a6074a6f2e91616a996b547c36f15
		<tag k="ssr:date" v="2019-12-27" />
		<tag k="ssr:gruppe" v="veg" />
		<tag k="ssr:hovedgruppe" v="infrastruktur" />
		<tag k="ssr:stedsnr" v="1067235" />
		<tag k="ssr:type" v="adressenavn" />
	</node>
<<<<<<< HEAD
	<node lat="59.75237368553825" lon="10.730652748081956" id="-15009">
		<tag k="name" v="Brenningsmyrveien" />
		<tag k="ssr:date" v="2019-12-27" />
		<tag k="ssr:gruppe" v="veg" />
		<tag k="ssr:hovedgruppe" v="infrastruktur" />
		<tag k="ssr:stedsnr" v="1073241" />
		<tag k="ssr:type" v="adressenavn" />
	</node>
	<node lat="59.91168968762522" lon="10.758188226721538" id="-15010">
		<tag k="name" v="Viken fylke" />
		<tag k="ssr:date" v="2021-06-08" />
=======
	<node id="-245751" lat="59.7019055571" lon="10.9233888861">
		<tag k="name" v="Follo" />
		<tag k="ssr:date" v="2019-12-27" />
		<tag k="ssr:gruppe" v="terrengområder" />
		<tag k="ssr:hovedgruppe" v="terreng" />
		<tag k="ssr:stedsnr" v="267868" />
		<tag k="ssr:type" v="landskapsområde" />
	</node>
	<node id="-246228" lat="59.7395027736" lon="10.7709083265">
		<tag k="name" v="Vinterbro" />
		<tag k="ssr:date" v="2019-12-27" />
>>>>>>> e1d4bc35ff8a6074a6f2e91616a996b547c36f15
		<tag k="ssr:gruppe" v="administrativeIndelinger" />
		<tag k="ssr:hovedgruppe" v="offentligAdministrasjon" />
		<tag k="ssr:stedsnr" v="1074403" />
		<tag k="ssr:type" v="fylke" />
	</node>
<<<<<<< HEAD
	<node lat="59.75957496100711" lon="10.775907797913755" id="-15012">
		<tag k="name" v="Hjulet" />
		<tag k="ssr:date" v="2020-09-08" />
		<tag k="ssr:gruppe" v="veg" />
		<tag k="ssr:hovedgruppe" v="infrastruktur" />
		<tag k="ssr:stedsnr" v="1078206" />
		<tag k="ssr:type" v="adressenavn" />
	</node>
	<node lat="59.66042865348621" lon="10.810617604528776" id="-15013">
		<tag k="name" v="Sørbråtan" />
		<tag k="ssr:date" v="2020-10-29" />
=======
	<node id="-246295" lat="59.7019055571" lon="10.9233888861">
		<tag k="name" v="Søndre Follo prosti" />
		<tag k="ssr:date" v="2019-12-27" />
		<tag k="ssr:gruppe" v="administrativeIndelinger" />
		<tag k="ssr:hovedgruppe" v="offentligAdministrasjon" />
		<tag k="ssr:stedsnr" v="967401" />
		<tag k="ssr:type" v="annenAdministrativInndeling" />
	</node>
	<node id="-246143" lat="59.6636555546" lon="10.7910083419">
		<tag k="alt_name" v="Ås" />
		<tag k="name" v="Ås kommune" />
		<tag k="ssr:date" v="2019-12-27" />
		<tag k="ssr:gruppe" v="administrativeIndelinger" />
		<tag k="ssr:hovedgruppe" v="offentligAdministrasjon" />
		<tag k="ssr:stedsnr" v="388749" />
		<tag k="ssr:type" v="kommune" />
	</node>
	<node id="-246204" lat="59.7519972252" lon="10.7428027793">
		<tag k="name" v="Oppegårdveien" />
		<tag k="ssr:date" v="2019-12-27" />
>>>>>>> e1d4bc35ff8a6074a6f2e91616a996b547c36f15
		<tag k="ssr:gruppe" v="veg" />
		<tag k="ssr:hovedgruppe" v="infrastruktur" />
		<tag k="ssr:stedsnr" v="1078254" />
		<tag k="ssr:type" v="adressenavn" />
	</node>
	<node id="-245989" lat="59.7202345817" lon="10.8102693058">
		<tag k="name" v="Bekkestien" />
		<tag k="ssr:date" v="2019-12-27" />
		<tag k="ssr:gruppe" v="veg" />
		<tag k="ssr:hovedgruppe" v="infrastruktur" />
		<tag k="ssr:stedsnr" v="1067235" />
		<tag k="ssr:type" v="adressenavn" />
	</node>
	<node id="-246305" lat="69.6388889725" lon="30.5666644427">
		<tag k="fixme" v="multiple name tags, choose one and add the other to alt_name" />
		<tag k="loc_name:se" v="Norgga gonagasriika" />
		<tag k="loc_name:sma" v="Nöörjen gånkarïjhke" />
		<tag k="loc_name:smj" v="Vuona gånågisrijkka" />
		<tag k="name" v="Noreg;Norge" />
		<tag k="name:en" v="Norway" />
		<tag k="name:no" v="Noreg;Norge" />
		<tag k="ssr:date" v="2020-06-04" />
		<tag k="ssr:gruppe" v="administrativeIndelinger" />
		<tag k="ssr:hovedgruppe" v="offentligAdministrasjon" />
		<tag k="ssr:stedsnr" v="26330" />
		<tag k="ssr:type" v="nasjon" />
	</node>
</osm>
