<?xml version="1.0" encoding="UTF-8"?>
<osm version="0.6" generator="osmapis">
	<node id="31264165" lat="70.3701861" lon="31.1077198" version="13" timestamp="2022-07-11T05:15:03Z" changeset="123454572" uid="3497659" user="NKA">
		<tag k="loc_name:se" v="Várggát" />
		<tag k="name" v="Vardø - Vuorea" />
		<tag k="name:ckb" v="ڤاردۆ" />
		<tag k="name:fi" v="Vuoreija" />
		<tag k="name:fkv" v="Vuorea" />
		<tag k="name:no" v="Vardø" />
		<tag k="name:ru" v="Вардё" />
		<tag k="old_name:sv" v="Vardohus" />
		<tag k="place" v="town" />
		<tag k="population" v="1745" />
		<tag k="population:date" v="2021-01-01" />
		<tag k="ref:ssb_tettsted" v="8511" />
		<tag k="source:population" v="SSB - befolkning i tettstedet" />
		<tag k="ssr:stedsnr" v="263614" />
		<tag k="wikidata" v="Q7915572" />
	</node>
	<node id="1361663890" lat="70.2848664" lon="30.9991594" version="5" timestamp="2022-07-11T05:15:03Z" changeset="123454572" uid="3497659" user="NKA">
		<tag k="alt_name:no" v="Kiberg, yt;Ytre Kiberg" />
		<tag k="name" v="Kiberg - Kiiperi" />
		<tag k="name:fkv" v="Kiiperi" />
		<tag k="name:no" v="Kiberg" />
		<tag k="name:ru" v="Киберг" />
		<tag k="place" v="village" />
		<tag k="population" v="202" />
		<tag k="population:date" v="2020-01-01" />
		<tag k="ref:ssb_tettsted" v="8512" />
		<tag k="source:population" v="SSB - befolkning i tettstedet" />
		<tag k="ssr:stedsnr" v="202520" />
	</node>
	<node id="1815543402" lat="70.3630071" lon="31.0187757" version="2" timestamp="2022-07-11T05:15:03Z" changeset="123454572" uid="3497659" user="NKA">
		<tag k="name" v="Svartnes" />
		<tag k="place" v="hamlet" />
		<tag k="ssr:stedsnr" v="688619" />
	</node>
	<node id="1815543403" lat="70.2742715" lon="30.9430343" version="3" timestamp="2022-07-11T05:15:03Z" changeset="123454572" uid="3497659" user="NKA">
		<tag k="alt_name:no" v="Kiberg, in" />
		<tag k="loc_name:fkv" v="Sisä-Kiiperi" />
		<tag k="name" v="Indre Kiberg" />
		<tag k="name:no" v="Indre Kiberg" />
		<tag k="place" v="hamlet" />
		<tag k="ssr:stedsnr" v="808489" />
	</node>
	<node id="1815543404" lat="70.2664434" lon="30.858956" version="2" timestamp="2022-07-11T05:15:03Z" changeset="123454572" uid="3497659" user="NKA">
		<tag k="name" v="Kramvik" />
		<tag k="place" v="hamlet" />
		<tag k="ssr:stedsnr" v="383536" />
	</node>
	<node id="1815543414" lat="70.3854302" lon="31.0215439" version="2" timestamp="2022-07-11T05:15:03Z" changeset="123454572" uid="3497659" user="NKA">
		<tag k="name" v="Smelror" />
		<tag k="place" v="hamlet" />
		<tag k="ssr:stedsnr" v="755402" />
	</node>
	<node id="1815543418" lat="70.245605" lon="30.5328847" version="2" timestamp="2022-07-11T05:15:03Z" changeset="123454572" uid="3497659" user="NKA">
		<tag k="name" v="Komagvær - Kumaveri" />
		<tag k="name:fkv" v="Kumaveri" />
		<tag k="name:no" v="Komagvær" />
		<tag k="place" v="village" />
		<tag k="ssr:stedsnr" v="20524" />
	</node>
	<node id="5863410610" lat="70.3007896" lon="31.009953" version="2" timestamp="2022-01-26T06:08:00Z" changeset="116609992" uid="3497659" user="NKA">
		<tag k="junction" v="yes" />
		<tag k="name" v="Mollvikkrysset" />
		<tag k="ssr:stedsnr" v="288977" />
	</node>
	<node id="9880272643" lat="70.226134" lon="30.4904181" version="1" timestamp="2022-07-11T05:15:03Z" changeset="123454572" uid="3497659" user="NKA">
		<tag k="name" v="Tyrolheim" />
		<tag k="place" v="isolated_dwelling" />
		<tag k="ssr:stedsnr" v="202511" />
	</node>
	<node id="9880272644" lat="70.3750343" lon="31.1173313" version="1" timestamp="2022-07-11T05:15:03Z" changeset="123454572" uid="3497659" user="NKA">
		<tag k="name" v="Vestervågen" />
		<tag k="place" v="suburb" />
		<tag k="ssr:stedsnr" v="167997" />
	</node>
	<node id="9880272645" lat="70.366299" lon="31.1150515" version="1" timestamp="2022-07-11T05:15:03Z" changeset="123454572" uid="3497659" user="NKA">
		<tag k="name" v="Østervågen" />
		<tag k="place" v="suburb" />
		<tag k="ssr:stedsnr" v="228960" />
	</node>
	<node id="9880272646" lat="70.2736734" lon="30.9040058" version="1" timestamp="2022-07-11T05:15:03Z" changeset="123454572" uid="3497659" user="NKA">
		<tag k="name" v="Solstad" />
		<tag k="place" v="farm" />
		<tag k="ssr:stedsnr" v="774942" />
	</node>
	<node id="9880272647" lat="70.4369704" lon="30.9632548" version="1" timestamp="2022-07-11T05:15:03Z" changeset="123454572" uid="3497659" user="NKA">
		<tag k="name" v="Kavringen" />
		<tag k="place" v="farm" />
		<tag k="ssr:stedsnr" v="512416" />
	</node>
	<node id="9880272648" lat="70.4396386" lon="30.8562954" version="1" timestamp="2022-07-11T05:15:03Z" changeset="123454572" uid="3497659" user="NKA">
		<tag k="name" v="Prestnæringen" />
		<tag k="place" v="hamlet" />
		<tag k="ssr:stedsnr" v="384551" />
	</node>
	<node id="9880272649" lat="70.4265785" lon="30.7160751" version="1" timestamp="2022-07-11T05:15:03Z" changeset="123454572" uid="3497659" user="NKA">
		<tag k="name" v="Vesterelva" />
		<tag k="place" v="hamlet" />
		<tag k="ssr:stedsnr" v="207642" />
	</node>
	<node id="9880272650" lat="70.4208363" lon="30.7956889" version="1" timestamp="2022-07-11T05:15:03Z" changeset="123454572" uid="3497659" user="NKA">
		<tag k="name" v="Persfjord" />
		<tag k="place" v="hamlet" />
		<tag k="ssr:stedsnr" v="930593" />
	</node>
	<node id="9880272651" lat="70.4268083" lon="30.7652729" version="1" timestamp="2022-07-11T05:15:03Z" changeset="123454572" uid="3497659" user="NKA">
		<tag k="name" v="Hamna" />
		<tag k="place" v="hamlet" />
		<tag k="ssr:stedsnr" v="20611" />
	</node>
	<node id="3607895287" lat="70.2418975" lon="30.517391" version="2" timestamp="2018-08-28T13:08:07Z" changeset="62071066" uid="8470372" user="Entur AS | Angie Torres" />
	<node id="5863416300" lat="70.2418601" lon="30.5172923" version="1" timestamp="2018-08-28T13:05:31Z" changeset="62070950" uid="8470372" user="Entur AS | Angie Torres" />
	<node id="5863417749" lat="70.2423583" lon="30.5186061" version="1" timestamp="2018-08-28T13:05:53Z" changeset="62070950" uid="8470372" user="Entur AS | Angie Torres" />
	<way id="355184432" version="4" timestamp="2022-01-21T07:16:18Z" changeset="116415148" uid="3497659" user="NKA">
		<tag k="bicycle" v="yes" />
		<tag k="bridge" v="yes" />
		<tag k="foot" v="yes" />
		<tag k="highway" v="trunk" />
		<tag k="layer" v="1" />
		<tag k="maxspeed" v="80" />
		<tag k="name" v="Komagbrua" />
		<tag k="ref" v="E 75" />
		<tag k="ssr:stedsnr" v="713043" />
		<nd ref="5863416300" />
		<nd ref="3607895287" />
		<nd ref="5863417749" />
	</way>
</osm>
