<?xml version="1.0" encoding="UTF-8"?>
<osm generator="osmapis" version="0.6">
	<node id="-294889" lat="58.1444888908" lon="8.28318611706">
		<tag k="loc_name" v="Kvalsholmen lykt" />
		<tag k="name" v="Kvalsholmen" />
		<tag k="old_name" v="Kvalholmen" />
		<tag k="ssr:date" v="2016-05-10" />
		<tag k="ssr:gruppe" v="navigasjon" />
		<tag k="ssr:hovedgruppe" v="infrastruktur" />
		<tag k="ssr:stedsnr" v="182532" />
		<tag k="ssr:type" v="fyrlykt" />
	</node>
	<node id="-295832" lat="58.249716668" lon="8.37851388227">
		<tag k="loc_name" v="Lillesand" />
		<tag k="name" v="Lillesand kommune" />
		<tag k="ssr:date" v="2016-05-10" />
		<tag k="ssr:gruppe" v="administrativeIndelinger" />
		<tag k="ssr:hovedgruppe" v="offentligAdministrasjon" />
		<tag k="ssr:stedsnr" v="630404" />
		<tag k="ssr:type" v="kommune" />
	</node>
	<node id="-294344" lat="58.2278643444" lon="8.25472942567">
		<tag k="name" v="Røynåsveien" />
		<tag k="ssr:date" v="2019-05-31" />
		<tag k="ssr:gruppe" v="veg" />
		<tag k="ssr:hovedgruppe" v="infrastruktur" />
		<tag k="ssr:stedsnr" v="991220" />
		<tag k="ssr:type" v="adressenavn" />
	</node>
	<node id="-294343" lat="58.2539365707" lon="8.42112801143">
		<tag k="name" v="Langedal" />
		<tag k="ssr:date" v="2019-03-21" />
		<tag k="ssr:gruppe" v="veg" />
		<tag k="ssr:hovedgruppe" v="infrastruktur" />
		<tag k="ssr:stedsnr" v="990652" />
		<tag k="ssr:type" v="adressetilleggsnavn" />
	</node>
	<node id="-294341" lat="58.2869341268" lon="8.43116081033">
		<tag k="name" v="Vatneveien" />
		<tag k="ssr:date" v="2019-05-31" />
		<tag k="ssr:gruppe" v="veg" />
		<tag k="ssr:hovedgruppe" v="infrastruktur" />
		<tag k="ssr:stedsnr" v="989934" />
		<tag k="ssr:type" v="adressenavn" />
	</node>
	<node id="-294340" lat="58.1130128098" lon="8.21119500769">
		<tag k="name" v="Ytre Ulvøya" />
		<tag k="ssr:date" v="2019-05-31" />
		<tag k="ssr:gruppe" v="veg" />
		<tag k="ssr:hovedgruppe" v="infrastruktur" />
		<tag k="ssr:stedsnr" v="989473" />
		<tag k="ssr:type" v="adressenavn" />
	</node>
	<node id="-294339" lat="58.1697689506" lon="8.24796579623">
		<tag k="name" v="Strandeveien" />
		<tag k="ssr:date" v="2019-05-31" />
		<tag k="ssr:gruppe" v="veg" />
		<tag k="ssr:hovedgruppe" v="infrastruktur" />
		<tag k="ssr:stedsnr" v="989401" />
		<tag k="ssr:type" v="adressenavn" />
	</node>
	<node id="-294338" lat="58.2380769648" lon="8.30325314489">
		<tag k="name" v="Skytterheia" />
		<tag k="ssr:date" v="2019-05-31" />
		<tag k="ssr:gruppe" v="veg" />
		<tag k="ssr:hovedgruppe" v="infrastruktur" />
		<tag k="ssr:stedsnr" v="989392" />
		<tag k="ssr:type" v="adressenavn" />
	</node>
	<node id="-294337" lat="58.1726496792" lon="8.23544369758">
		<tag k="name" v="Røsnesveien" />
		<tag k="ssr:date" v="2019-05-31" />
		<tag k="ssr:gruppe" v="veg" />
		<tag k="ssr:hovedgruppe" v="infrastruktur" />
		<tag k="ssr:stedsnr" v="989359" />
		<tag k="ssr:type" v="adressenavn" />
	</node>
	<node id="-294336" lat="58.2390918972" lon="8.36712035893">
		<tag k="name" v="Nordre Bergshaven" />
		<tag k="ssr:date" v="2019-05-31" />
		<tag k="ssr:gruppe" v="veg" />
		<tag k="ssr:hovedgruppe" v="infrastruktur" />
		<tag k="ssr:stedsnr" v="989339" />
		<tag k="ssr:type" v="adressenavn" />
	</node>
	<node id="-294335" lat="58.1712220111" lon="8.23253338021">
		<tag k="name" v="Naudodden" />
		<tag k="ssr:date" v="2019-05-31" />
		<tag k="ssr:gruppe" v="veg" />
		<tag k="ssr:hovedgruppe" v="infrastruktur" />
		<tag k="ssr:stedsnr" v="989335" />
		<tag k="ssr:type" v="adressenavn" />
	</node>
	<node id="-294334" lat="58.2591284298" lon="8.3813508598">
		<tag k="name" v="Lille Solkollen" />
		<tag k="ssr:date" v="2019-05-31" />
		<tag k="ssr:gruppe" v="veg" />
		<tag k="ssr:hovedgruppe" v="infrastruktur" />
		<tag k="ssr:stedsnr" v="989295" />
		<tag k="ssr:type" v="adressenavn" />
	</node>
	<node id="-294333" lat="58.2395524827" lon="8.29714368367">
		<tag k="name" v="Legdene" />
		<tag k="ssr:date" v="2019-05-31" />
		<tag k="ssr:gruppe" v="veg" />
		<tag k="ssr:hovedgruppe" v="infrastruktur" />
		<tag k="ssr:stedsnr" v="989294" />
		<tag k="ssr:type" v="adressenavn" />
	</node>
	<node id="-294332" lat="58.116854069" lon="8.2106858">
		<tag k="name" v="Kampedalsveien" />
		<tag k="ssr:date" v="2019-05-31" />
		<tag k="ssr:gruppe" v="veg" />
		<tag k="ssr:hovedgruppe" v="infrastruktur" />
		<tag k="ssr:stedsnr" v="989285" />
		<tag k="ssr:type" v="adressenavn" />
	</node>
	<node id="-294331" lat="58.2756465042" lon="8.41383199335">
		<tag k="name" v="Høyåsen" />
		<tag k="ssr:date" v="2019-05-31" />
		<tag k="ssr:gruppe" v="veg" />
		<tag k="ssr:hovedgruppe" v="infrastruktur" />
		<tag k="ssr:stedsnr" v="989280" />
		<tag k="ssr:type" v="adressenavn" />
	</node>
	<node id="-294330" lat="58.2013475589" lon="8.26917869649">
		<tag k="name" v="Høresteinen" />
		<tag k="ssr:date" v="2019-05-31" />
		<tag k="ssr:gruppe" v="veg" />
		<tag k="ssr:hovedgruppe" v="infrastruktur" />
		<tag k="ssr:stedsnr" v="989223" />
		<tag k="ssr:type" v="adressenavn" />
	</node>
	<node id="-294329" lat="58.2023734499" lon="8.27740968144">
		<tag k="name" v="Ingridsnes" />
		<tag k="ssr:date" v="2019-05-31" />
		<tag k="ssr:gruppe" v="veg" />
		<tag k="ssr:hovedgruppe" v="infrastruktur" />
		<tag k="ssr:stedsnr" v="989222" />
		<tag k="ssr:type" v="adressenavn" />
	</node>
	<node id="-294328" lat="58.2523004928" lon="8.39983705384">
		<tag k="name" v="Krågevigodden" />
		<tag k="ssr:date" v="2019-05-31" />
		<tag k="ssr:gruppe" v="veg" />
		<tag k="ssr:hovedgruppe" v="infrastruktur" />
		<tag k="ssr:stedsnr" v="989219" />
		<tag k="ssr:type" v="adressenavn" />
	</node>
	<node id="-296350" lat="58.2006666665" lon="8.34381388273">
		<tag k="name" v="Øvre Stutti" />
		<tag k="ssr:date" v="2016-05-11" />
		<tag k="ssr:gruppe" v="veg" />
		<tag k="ssr:hovedgruppe" v="infrastruktur" />
		<tag k="ssr:stedsnr" v="831897" />
		<tag k="ssr:type" v="adressetilleggsnavn" />
	</node>
	<node id="-296370" lat="58.240344448" lon="8.42100554881">
		<tag k="name" v="Humlesund" />
		<tag k="ssr:date" v="2016-05-11" />
		<tag k="ssr:gruppe" v="navigasjon" />
		<tag k="ssr:hovedgruppe" v="infrastruktur" />
		<tag k="ssr:stedsnr" v="850290" />
		<tag k="ssr:type" v="fyrlykt" />
	</node>
	<node id="-294321" lat="58.1887018216" lon="8.34627821885">
		<tag k="name" v="Risholmskjervarden" />
		<tag k="ssr:date" v="2018-03-02" />
		<tag k="ssr:gruppe" v="navigasjon" />
		<tag k="ssr:hovedgruppe" v="infrastruktur" />
		<tag k="ssr:stedsnr" v="982624" />
		<tag k="ssr:type" v="sjøvarde" />
	</node>
	<node id="-294320" lat="58.1899507187" lon="8.36008643025">
		<tag k="name" v="Klubbholmen varde" />
		<tag k="ssr:date" v="2018-03-01" />
		<tag k="ssr:gruppe" v="navigasjon" />
		<tag k="ssr:hovedgruppe" v="infrastruktur" />
		<tag k="ssr:stedsnr" v="982608" />
		<tag k="ssr:type" v="sjøvarde" />
	</node>
	<node id="-294313" lat="58.199107998" lon="8.40930059037">
		<tag k="name" v="Langbåen varde" />
		<tag k="ssr:date" v="2018-02-23" />
		<tag k="ssr:gruppe" v="navigasjon" />
		<tag k="ssr:hovedgruppe" v="infrastruktur" />
		<tag k="ssr:stedsnr" v="982426" />
		<tag k="ssr:type" v="sjøvarde" />
	</node>
	<node id="-294312" lat="58.1438656556" lon="8.28380677976">
		<tag k="name" v="Store Kvalsholmen varde" />
		<tag k="ssr:date" v="2018-02-23" />
		<tag k="ssr:gruppe" v="navigasjon" />
		<tag k="ssr:hovedgruppe" v="infrastruktur" />
		<tag k="ssr:stedsnr" v="982423" />
		<tag k="ssr:type" v="sjøvarde" />
	</node>
	<node id="-294311" lat="58.1857039569" lon="8.35823974364">
		<tag k="name" v="Nødingen merke" />
		<tag k="ssr:date" v="2018-02-23" />
		<tag k="ssr:gruppe" v="navigasjon" />
		<tag k="ssr:hovedgruppe" v="infrastruktur" />
		<tag k="ssr:stedsnr" v="982422" />
		<tag k="ssr:type" v="båke" />
	</node>
	<node id="-294310" lat="58.1484240548" lon="8.31301769093">
		<tag k="name" v="Tronderøyholmen varde" />
		<tag k="ssr:date" v="2018-02-23" />
		<tag k="ssr:gruppe" v="navigasjon" />
		<tag k="ssr:hovedgruppe" v="infrastruktur" />
		<tag k="ssr:stedsnr" v="982421" />
		<tag k="ssr:type" v="sjøvarde" />
	</node>
	<node id="-294309" lat="58.1828047294" lon="8.31696329451">
		<tag k="name" v="Ågerøyveien" />
		<tag k="ssr:date" v="2019-12-13" />
		<tag k="ssr:gruppe" v="veg" />
		<tag k="ssr:hovedgruppe" v="infrastruktur" />
		<tag k="ssr:stedsnr" v="1074265" />
		<tag k="ssr:type" v="adressenavn" />
	</node>
	<node id="-294308" lat="58.2347028106" lon="8.36674581087">
		<tag k="name" v="Slåttholmen" />
		<tag k="ssr:date" v="2019-12-13" />
		<tag k="ssr:gruppe" v="veg" />
		<tag k="ssr:hovedgruppe" v="infrastruktur" />
		<tag k="ssr:stedsnr" v="1074261" />
		<tag k="ssr:type" v="adressenavn" />
	</node>
	<node id="-294307" lat="58.2449213007" lon="8.45063990887">
		<tag k="name" v="Lyngholmen" />
		<tag k="ssr:date" v="2019-12-13" />
		<tag k="ssr:gruppe" v="veg" />
		<tag k="ssr:hovedgruppe" v="infrastruktur" />
		<tag k="ssr:stedsnr" v="1074257" />
		<tag k="ssr:type" v="adressenavn" />
	</node>
	<node id="-294306" lat="58.174130334" lon="8.28478303975">
		<tag k="name" v="Auen Vasiusholmen" />
		<tag k="ssr:date" v="2019-12-13" />
		<tag k="ssr:gruppe" v="veg" />
		<tag k="ssr:hovedgruppe" v="infrastruktur" />
		<tag k="ssr:stedsnr" v="1074256" />
		<tag k="ssr:type" v="adressenavn" />
	</node>
	<node id="-294305" lat="58.2404321237" lon="8.4010594764">
		<tag k="name" v="Tjuvholmen" />
		<tag k="ssr:date" v="2019-12-13" />
		<tag k="ssr:gruppe" v="veg" />
		<tag k="ssr:hovedgruppe" v="infrastruktur" />
		<tag k="ssr:stedsnr" v="1074255" />
		<tag k="ssr:type" v="adressenavn" />
	</node>
	<node id="-294304" lat="58.2292931464" lon="8.42023250589">
		<tag k="name" v="Store Malmen" />
		<tag k="ssr:date" v="2019-12-13" />
		<tag k="ssr:gruppe" v="veg" />
		<tag k="ssr:hovedgruppe" v="infrastruktur" />
		<tag k="ssr:stedsnr" v="1074254" />
		<tag k="ssr:type" v="adressenavn" />
	</node>
	<node id="-294303" lat="58.186543591" lon="8.35562258084">
		<tag k="name" v="Eivindsholmen" />
		<tag k="ssr:date" v="2019-12-13" />
		<tag k="ssr:gruppe" v="veg" />
		<tag k="ssr:hovedgruppe" v="infrastruktur" />
		<tag k="ssr:stedsnr" v="1074252" />
		<tag k="ssr:type" v="adressenavn" />
	</node>
	<node id="-294302" lat="58.2337450483" lon="8.38312102703">
		<tag k="name" v="Skauerøya" />
		<tag k="ssr:date" v="2019-12-13" />
		<tag k="ssr:gruppe" v="veg" />
		<tag k="ssr:hovedgruppe" v="infrastruktur" />
		<tag k="ssr:stedsnr" v="1074251" />
		<tag k="ssr:type" v="adressenavn" />
	</node>
	<node id="-294301" lat="58.1940034611" lon="8.33898744051">
		<tag k="name" v="Ullerøya" />
		<tag k="ssr:date" v="2019-12-13" />
		<tag k="ssr:gruppe" v="veg" />
		<tag k="ssr:hovedgruppe" v="infrastruktur" />
		<tag k="ssr:stedsnr" v="1074250" />
		<tag k="ssr:type" v="adressenavn" />
	</node>
	<node id="-294300" lat="58.196195508" lon="8.32873983852">
		<tag k="name" v="Hellersøya" />
		<tag k="ssr:date" v="2019-12-13" />
		<tag k="ssr:gruppe" v="veg" />
		<tag k="ssr:hovedgruppe" v="infrastruktur" />
		<tag k="ssr:stedsnr" v="1074249" />
		<tag k="ssr:type" v="adressenavn" />
	</node>
	<node id="-294299" lat="58.191904291" lon="8.3447245756">
		<tag k="name" v="Gaupholmen" />
		<tag k="ssr:date" v="2019-12-13" />
		<tag k="ssr:gruppe" v="veg" />
		<tag k="ssr:hovedgruppe" v="infrastruktur" />
		<tag k="ssr:stedsnr" v="1074248" />
		<tag k="ssr:type" v="adressenavn" />
	</node>
	<node id="-294298" lat="58.2075696108" lon="8.31406085336">
		<tag k="name" v="Fjelldalsøya" />
		<tag k="ssr:date" v="2019-12-13" />
		<tag k="ssr:gruppe" v="veg" />
		<tag k="ssr:hovedgruppe" v="infrastruktur" />
		<tag k="ssr:stedsnr" v="1074247" />
		<tag k="ssr:type" v="adressenavn" />
	</node>
	<node id="-294297" lat="58.2095908728" lon="8.32253084306">
		<tag k="name" v="Grisøya" />
		<tag k="ssr:date" v="2019-12-13" />
		<tag k="ssr:gruppe" v="veg" />
		<tag k="ssr:hovedgruppe" v="infrastruktur" />
		<tag k="ssr:stedsnr" v="1074246" />
		<tag k="ssr:type" v="adressenavn" />
	</node>
	<node id="-294296" lat="58.2018513991" lon="8.32820780291">
		<tag k="name" v="Kraksøya" />
		<tag k="ssr:date" v="2019-12-13" />
		<tag k="ssr:gruppe" v="veg" />
		<tag k="ssr:hovedgruppe" v="infrastruktur" />
		<tag k="ssr:stedsnr" v="1074245" />
		<tag k="ssr:type" v="adressenavn" />
	</node>
	<node id="-294295" lat="58.2079428772" lon="8.32511479223">
		<tag k="name" v="Haukholmen" />
		<tag k="ssr:date" v="2019-12-13" />
		<tag k="ssr:gruppe" v="veg" />
		<tag k="ssr:hovedgruppe" v="infrastruktur" />
		<tag k="ssr:stedsnr" v="1074244" />
		<tag k="ssr:type" v="adressenavn" />
	</node>
	<node id="-294294" lat="58.1929310707" lon="8.34878805506">
		<tag k="name" v="Grisholmen" />
		<tag k="ssr:date" v="2019-12-13" />
		<tag k="ssr:gruppe" v="veg" />
		<tag k="ssr:hovedgruppe" v="infrastruktur" />
		<tag k="ssr:stedsnr" v="1074243" />
		<tag k="ssr:type" v="adressenavn" />
	</node>
	<node id="-294293" lat="58.1636444164" lon="8.28091443286">
		<tag k="name" v="Småholmane" />
		<tag k="ssr:date" v="2019-12-13" />
		<tag k="ssr:gruppe" v="veg" />
		<tag k="ssr:hovedgruppe" v="infrastruktur" />
		<tag k="ssr:stedsnr" v="1074242" />
		<tag k="ssr:type" v="adressenavn" />
	</node>
	<node id="-294292" lat="58.1962244402" lon="8.3172565149">
		<tag k="name" v="Lille Beltesholmen" />
		<tag k="ssr:date" v="2019-12-13" />
		<tag k="ssr:gruppe" v="veg" />
		<tag k="ssr:hovedgruppe" v="infrastruktur" />
		<tag k="ssr:stedsnr" v="1074241" />
		<tag k="ssr:type" v="adressenavn" />
	</node>
	<node id="-294291" lat="58.1944472618" lon="8.32086284353">
		<tag k="name" v="Store Belesholmen" />
		<tag k="ssr:date" v="2019-12-13" />
		<tag k="ssr:gruppe" v="veg" />
		<tag k="ssr:hovedgruppe" v="infrastruktur" />
		<tag k="ssr:stedsnr" v="1074240" />
		<tag k="ssr:type" v="adressenavn" />
	</node>
	<node id="-294290" lat="58.1875639609" lon="8.35313805156">
		<tag k="name" v="Vannholmen" />
		<tag k="ssr:date" v="2019-12-13" />
		<tag k="ssr:gruppe" v="veg" />
		<tag k="ssr:hovedgruppe" v="infrastruktur" />
		<tag k="ssr:stedsnr" v="1074239" />
		<tag k="ssr:type" v="adressenavn" />
	</node>
	<node id="-294289" lat="58.1786696009" lon="8.28537202358">
		<tag k="name" v="Lille Krossholmen" />
		<tag k="ssr:date" v="2019-12-13" />
		<tag k="ssr:gruppe" v="veg" />
		<tag k="ssr:hovedgruppe" v="infrastruktur" />
		<tag k="ssr:stedsnr" v="1074238" />
		<tag k="ssr:type" v="adressenavn" />
	</node>
	<node id="-294288" lat="58.1762700758" lon="8.29808668281">
		<tag k="name" v="Buhusholmen" />
		<tag k="ssr:date" v="2019-12-13" />
		<tag k="ssr:gruppe" v="veg" />
		<tag k="ssr:hovedgruppe" v="infrastruktur" />
		<tag k="ssr:stedsnr" v="1074236" />
		<tag k="ssr:type" v="adressenavn" />
	</node>
	<node id="-294287" lat="58.197476934" lon="8.3333089415">
		<tag k="name" v="Store Kattholmen" />
		<tag k="ssr:date" v="2019-12-13" />
		<tag k="ssr:gruppe" v="veg" />
		<tag k="ssr:hovedgruppe" v="infrastruktur" />
		<tag k="ssr:stedsnr" v="1074235" />
		<tag k="ssr:type" v="adressenavn" />
	</node>
	<node id="-294286" lat="58.2008672366" lon="8.3120633213">
		<tag k="name" v="Jonsøya" />
		<tag k="ssr:date" v="2019-12-13" />
		<tag k="ssr:gruppe" v="veg" />
		<tag k="ssr:hovedgruppe" v="infrastruktur" />
		<tag k="ssr:stedsnr" v="1074234" />
		<tag k="ssr:type" v="adressenavn" />
	</node>
	<node id="-294285" lat="58.2437554202" lon="8.39154949142">
		<tag k="name" v="Lille Lamholmen" />
		<tag k="ssr:date" v="2019-12-13" />
		<tag k="ssr:gruppe" v="veg" />
		<tag k="ssr:hovedgruppe" v="infrastruktur" />
		<tag k="ssr:stedsnr" v="1074233" />
		<tag k="ssr:type" v="adressenavn" />
	</node>
	<node id="-294284" lat="58.1808424943" lon="8.29655121496">
		<tag k="name" v="Furøya" />
		<tag k="ssr:date" v="2019-12-13" />
		<tag k="ssr:gruppe" v="veg" />
		<tag k="ssr:hovedgruppe" v="infrastruktur" />
		<tag k="ssr:stedsnr" v="1074232" />
		<tag k="ssr:type" v="adressenavn" />
	</node>
	<node id="-294283" lat="58.1843050175" lon="8.31219623222">
		<tag k="name" v="Furøysundveien" />
		<tag k="ssr:date" v="2019-12-13" />
		<tag k="ssr:gruppe" v="veg" />
		<tag k="ssr:hovedgruppe" v="infrastruktur" />
		<tag k="ssr:stedsnr" v="1074230" />
		<tag k="ssr:type" v="adressenavn" />
	</node>
	<node id="-294282" lat="58.2610731959" lon="8.37492603618">
		<tag k="name" v="Bjørkestølveien" />
		<tag k="ssr:date" v="2019-12-13" />
		<tag k="ssr:gruppe" v="veg" />
		<tag k="ssr:hovedgruppe" v="infrastruktur" />
		<tag k="ssr:stedsnr" v="1074229" />
		<tag k="ssr:type" v="adressenavn" />
	</node>
	<node id="-294281" lat="58.2204116438" lon="8.38411837045">
		<tag k="name" v="Ronnsholmen" />
		<tag k="ssr:date" v="2019-12-13" />
		<tag k="ssr:gruppe" v="veg" />
		<tag k="ssr:hovedgruppe" v="infrastruktur" />
		<tag k="ssr:stedsnr" v="1074228" />
		<tag k="ssr:type" v="adressenavn" />
	</node>
	<node id="-294280" lat="58.2265477279" lon="8.38069202082">
		<tag k="name" v="Asperøya" />
		<tag k="ssr:date" v="2019-12-13" />
		<tag k="ssr:gruppe" v="veg" />
		<tag k="ssr:hovedgruppe" v="infrastruktur" />
		<tag k="ssr:stedsnr" v="1074226" />
		<tag k="ssr:type" v="adressenavn" />
	</node>
	<node id="-294279" lat="58.2437042747" lon="8.39972675635">
		<tag k="name" v="Svinøya" />
		<tag k="ssr:date" v="2019-12-13" />
		<tag k="ssr:gruppe" v="veg" />
		<tag k="ssr:hovedgruppe" v="infrastruktur" />
		<tag k="ssr:stedsnr" v="1074225" />
		<tag k="ssr:type" v="adressenavn" />
	</node>
	<node id="-294278" lat="58.2453952356" lon="8.43572705092">
		<tag k="name" v="Skjødøya" />
		<tag k="ssr:date" v="2019-12-13" />
		<tag k="ssr:gruppe" v="veg" />
		<tag k="ssr:hovedgruppe" v="infrastruktur" />
		<tag k="ssr:stedsnr" v="1074223" />
		<tag k="ssr:type" v="adressenavn" />
	</node>
	<node id="-294277" lat="58.2428548703" lon="8.45050152284">
		<tag k="name" v="Lille Lyngholmen" />
		<tag k="ssr:date" v="2019-12-13" />
		<tag k="ssr:gruppe" v="veg" />
		<tag k="ssr:hovedgruppe" v="infrastruktur" />
		<tag k="ssr:stedsnr" v="1074222" />
		<tag k="ssr:type" v="adressenavn" />
	</node>
	<node id="-294276" lat="58.2383107391" lon="8.39879597124">
		<tag k="name" v="Langøya" />
		<tag k="ssr:date" v="2019-12-13" />
		<tag k="ssr:gruppe" v="veg" />
		<tag k="ssr:hovedgruppe" v="infrastruktur" />
		<tag k="ssr:stedsnr" v="1074220" />
		<tag k="ssr:type" v="adressenavn" />
	</node>
	<node id="-294275" lat="58.1780937846" lon="8.30306660101">
		<tag k="name" v="Sandholmen" />
		<tag k="ssr:date" v="2019-12-13" />
		<tag k="ssr:gruppe" v="veg" />
		<tag k="ssr:hovedgruppe" v="infrastruktur" />
		<tag k="ssr:stedsnr" v="1074219" />
		<tag k="ssr:type" v="adressenavn" />
	</node>
	<node id="-294274" lat="58.1848950235" lon="8.31167465273">
		<tag k="name" v="Sømmingveien" />
		<tag k="ssr:date" v="2019-12-12" />
		<tag k="ssr:gruppe" v="veg" />
		<tag k="ssr:hovedgruppe" v="infrastruktur" />
		<tag k="ssr:stedsnr" v="1074202" />
		<tag k="ssr:type" v="adressenavn" />
	</node>
	<node id="-294273" lat="58.1859261324" lon="8.31634854779">
		<tag k="name" v="Vardvigveien" />
		<tag k="ssr:date" v="2019-12-12" />
		<tag k="ssr:gruppe" v="veg" />
		<tag k="ssr:hovedgruppe" v="infrastruktur" />
		<tag k="ssr:stedsnr" v="1074200" />
		<tag k="ssr:type" v="adressenavn" />
	</node>
	<node id="-294272" lat="58.189838592" lon="8.31231044672">
		<tag k="name" v="Løggenesveien" />
		<tag k="ssr:date" v="2019-12-12" />
		<tag k="ssr:gruppe" v="veg" />
		<tag k="ssr:hovedgruppe" v="infrastruktur" />
		<tag k="ssr:stedsnr" v="1074197" />
		<tag k="ssr:type" v="adressenavn" />
	</node>
	<node id="-294271" lat="58.2603861814" lon="8.39746996243">
		<tag k="name" v="Fasterdamveien" />
		<tag k="ssr:date" v="2019-12-12" />
		<tag k="ssr:gruppe" v="veg" />
		<tag k="ssr:hovedgruppe" v="infrastruktur" />
		<tag k="ssr:stedsnr" v="1074193" />
		<tag k="ssr:type" v="adressenavn" />
	</node>
	<node id="-294270" lat="58.1833884355" lon="8.31546196702">
		<tag k="name" v="Stranda" />
		<tag k="ssr:date" v="2019-12-12" />
		<tag k="ssr:gruppe" v="veg" />
		<tag k="ssr:hovedgruppe" v="infrastruktur" />
		<tag k="ssr:stedsnr" v="1074201" />
		<tag k="ssr:type" v="adressenavn" />
	</node>
	<node id="-294269" lat="58.1883034419" lon="8.31412591083">
		<tag k="name" v="Tåreslandsveien" />
		<tag k="ssr:date" v="2019-12-12" />
		<tag k="ssr:gruppe" v="veg" />
		<tag k="ssr:hovedgruppe" v="infrastruktur" />
		<tag k="ssr:stedsnr" v="1074199" />
		<tag k="ssr:type" v="adressenavn" />
	</node>
	<node id="-294268" lat="58.1871688906" lon="8.31027012015">
		<tag k="name" v="Flekken" />
		<tag k="ssr:date" v="2019-12-12" />
		<tag k="ssr:gruppe" v="veg" />
		<tag k="ssr:hovedgruppe" v="infrastruktur" />
		<tag k="ssr:stedsnr" v="1074198" />
		<tag k="ssr:type" v="adressenavn" />
	</node>
	<node id="-294267" lat="58.1832310114" lon="8.3145807159">
		<tag k="name" v="Søversvigveien" />
		<tag k="ssr:date" v="2019-12-12" />
		<tag k="ssr:gruppe" v="veg" />
		<tag k="ssr:hovedgruppe" v="infrastruktur" />
		<tag k="ssr:stedsnr" v="1074196" />
		<tag k="ssr:type" v="adressenavn" />
	</node>
	<node id="-294266" lat="58.1836380221" lon="8.31343351222">
		<tag k="name" v="Skaftestien" />
		<tag k="ssr:date" v="2019-12-12" />
		<tag k="ssr:gruppe" v="veg" />
		<tag k="ssr:hovedgruppe" v="infrastruktur" />
		<tag k="ssr:stedsnr" v="1074195" />
		<tag k="ssr:type" v="adressenavn" />
	</node>
	<node id="-294265" lat="58.2368044512" lon="8.30050204391">
		<tag k="name" v="Brønningsmyr" />
		<tag k="ssr:date" v="2019-12-12" />
		<tag k="ssr:gruppe" v="veg" />
		<tag k="ssr:hovedgruppe" v="infrastruktur" />
		<tag k="ssr:stedsnr" v="1074194" />
		<tag k="ssr:type" v="adressenavn" />
	</node>
	<node id="-294264" lat="58.1976996051" lon="8.3521372736">
		<tag k="name" v="Brekka" />
		<tag k="ssr:date" v="2019-12-12" />
		<tag k="ssr:gruppe" v="veg" />
		<tag k="ssr:hovedgruppe" v="infrastruktur" />
		<tag k="ssr:stedsnr" v="1074192" />
		<tag k="ssr:type" v="adressenavn" />
	</node>
	<node id="-294263" lat="58.1981246548" lon="8.3527079579">
		<tag k="name" v="Brekkelia" />
		<tag k="ssr:date" v="2019-12-12" />
		<tag k="ssr:gruppe" v="veg" />
		<tag k="ssr:hovedgruppe" v="infrastruktur" />
		<tag k="ssr:stedsnr" v="1074190" />
		<tag k="ssr:type" v="adressenavn" />
	</node>
	<node id="-294262" lat="58.1689987571" lon="8.22991871282">
		<tag k="name" v="Vibeveien" />
		<tag k="ssr:date" v="2019-12-12" />
		<tag k="ssr:gruppe" v="veg" />
		<tag k="ssr:hovedgruppe" v="infrastruktur" />
		<tag k="ssr:stedsnr" v="1074188" />
		<tag k="ssr:type" v="adressenavn" />
	</node>
	<node id="-294261" lat="58.2563301455" lon="8.39155557629">
		<tag k="name" v="Heldalsveien" />
		<tag k="ssr:date" v="2019-12-12" />
		<tag k="ssr:gruppe" v="veg" />
		<tag k="ssr:hovedgruppe" v="infrastruktur" />
		<tag k="ssr:stedsnr" v="1074186" />
		<tag k="ssr:type" v="adressenavn" />
	</node>
	<node id="-294260" lat="58.2194756197" lon="8.34055676382">
		<tag k="name" v="Karistangen" />
		<tag k="ssr:date" v="2019-12-12" />
		<tag k="ssr:gruppe" v="veg" />
		<tag k="ssr:hovedgruppe" v="infrastruktur" />
		<tag k="ssr:stedsnr" v="1074185" />
		<tag k="ssr:type" v="adressenavn" />
	</node>
	<node id="-294259" lat="58.2714623603" lon="8.41413976459">
		<tag k="name" v="Heldal" />
		<tag k="ssr:date" v="2019-12-12" />
		<tag k="ssr:gruppe" v="veg" />
		<tag k="ssr:hovedgruppe" v="infrastruktur" />
		<tag k="ssr:stedsnr" v="1074183" />
		<tag k="ssr:type" v="adressenavn" />
	</node>
	<node id="-294258" lat="58.2776585655" lon="8.41976639883">
		<tag k="name" v="Østre Kaldvell" />
		<tag k="ssr:date" v="2019-12-12" />
		<tag k="ssr:gruppe" v="veg" />
		<tag k="ssr:hovedgruppe" v="infrastruktur" />
		<tag k="ssr:stedsnr" v="1074182" />
		<tag k="ssr:type" v="adressenavn" />
	</node>
	<node id="-294257" lat="58.2283666989" lon="8.35263416252">
		<tag k="name" v="Grønnviga" />
		<tag k="ssr:date" v="2019-12-12" />
		<tag k="ssr:gruppe" v="veg" />
		<tag k="ssr:hovedgruppe" v="infrastruktur" />
		<tag k="ssr:stedsnr" v="1074180" />
		<tag k="ssr:type" v="adressenavn" />
	</node>
	<node id="-294256" lat="58.2623577435" lon="8.43273059716">
		<tag k="name" v="Sildeholmen" />
		<tag k="ssr:date" v="2019-12-12" />
		<tag k="ssr:gruppe" v="veg" />
		<tag k="ssr:hovedgruppe" v="infrastruktur" />
		<tag k="ssr:stedsnr" v="1074179" />
		<tag k="ssr:type" v="adressenavn" />
	</node>
	<node id="-294255" lat="58.2001489303" lon="8.3204988437">
		<tag k="name" v="Krossundholmen" />
		<tag k="ssr:date" v="2019-12-12" />
		<tag k="ssr:gruppe" v="veg" />
		<tag k="ssr:hovedgruppe" v="infrastruktur" />
		<tag k="ssr:stedsnr" v="1074178" />
		<tag k="ssr:type" v="adressenavn" />
	</node>
	<node id="-294254" lat="58.2499194915" lon="8.44332186115">
		<tag k="name" v="Rissholmen" />
		<tag k="ssr:date" v="2019-12-12" />
		<tag k="ssr:gruppe" v="veg" />
		<tag k="ssr:hovedgruppe" v="infrastruktur" />
		<tag k="ssr:stedsnr" v="1074177" />
		<tag k="ssr:type" v="adressenavn" />
	</node>
	<node id="-294253" lat="58.1720657043" lon="8.29306950589">
		<tag k="name" v="Kalvøya" />
		<tag k="ssr:date" v="2019-12-12" />
		<tag k="ssr:gruppe" v="veg" />
		<tag k="ssr:hovedgruppe" v="infrastruktur" />
		<tag k="ssr:stedsnr" v="1074176" />
		<tag k="ssr:type" v="adressenavn" />
	</node>
	<node id="-294252" lat="58.2314215064" lon="8.40453181692">
		<tag k="name" v="Saltholmen" />
		<tag k="ssr:date" v="2019-12-12" />
		<tag k="ssr:gruppe" v="veg" />
		<tag k="ssr:hovedgruppe" v="infrastruktur" />
		<tag k="ssr:stedsnr" v="1074175" />
		<tag k="ssr:type" v="adressenavn" />
	</node>
	<node id="-294251" lat="58.1771356684" lon="8.28412761228">
		<tag k="name" v="Store Krossholmen" />
		<tag k="ssr:date" v="2019-12-12" />
		<tag k="ssr:gruppe" v="veg" />
		<tag k="ssr:hovedgruppe" v="infrastruktur" />
		<tag k="ssr:stedsnr" v="1074174" />
		<tag k="ssr:type" v="adressenavn" />
	</node>
	<node id="-294250" lat="58.2377632116" lon="8.42622558323">
		<tag k="name" v="Humleøya" />
		<tag k="ssr:date" v="2019-12-12" />
		<tag k="ssr:gruppe" v="veg" />
		<tag k="ssr:hovedgruppe" v="infrastruktur" />
		<tag k="ssr:stedsnr" v="1074173" />
		<tag k="ssr:type" v="adressenavn" />
	</node>
	<node id="-294249" lat="58.2405702035" lon="8.41173624811">
		<tag k="name" v="Bergsøya" />
		<tag k="ssr:date" v="2019-12-12" />
		<tag k="ssr:gruppe" v="veg" />
		<tag k="ssr:hovedgruppe" v="infrastruktur" />
		<tag k="ssr:stedsnr" v="1074172" />
		<tag k="ssr:type" v="adressenavn" />
	</node>
	<node id="-294248" lat="58.2456948821" lon="8.39330496106">
		<tag k="name" v="Lamholmen" />
		<tag k="ssr:date" v="2019-12-12" />
		<tag k="ssr:gruppe" v="veg" />
		<tag k="ssr:hovedgruppe" v="infrastruktur" />
		<tag k="ssr:stedsnr" v="1074168" />
		<tag k="ssr:type" v="adressenavn" />
	</node>
	<node id="-294247" lat="58.2423999646" lon="8.40894688538">
		<tag k="name" v="Bukkholmen" />
		<tag k="ssr:date" v="2019-12-12" />
		<tag k="ssr:gruppe" v="veg" />
		<tag k="ssr:hovedgruppe" v="infrastruktur" />
		<tag k="ssr:stedsnr" v="1074167" />
		<tag k="ssr:type" v="adressenavn" />
	</node>
	<node id="-294246" lat="58.2073765944" lon="8.32844381931">
		<tag k="name" v="Rossnes" />
		<tag k="old_name" v="Røssnes" />
		<tag k="ssr:date" v="2019-12-12" />
		<tag k="ssr:gruppe" v="veg" />
		<tag k="ssr:hovedgruppe" v="infrastruktur" />
		<tag k="ssr:stedsnr" v="1074139" />
		<tag k="ssr:type" v="adressenavn" />
	</node>
	<node id="-294245" lat="58.1500883342" lon="8.25859166204">
		<tag k="name" v="Sandøya" />
		<tag k="ssr:date" v="2019-12-12" />
		<tag k="ssr:gruppe" v="veg" />
		<tag k="ssr:hovedgruppe" v="infrastruktur" />
		<tag k="ssr:stedsnr" v="1074138" />
		<tag k="ssr:type" v="adressenavn" />
	</node>
	<node id="-294244" lat="58.2226207094" lon="8.36599293551">
		<tag k="name" v="Vassdalsveien" />
		<tag k="ssr:date" v="2019-12-11" />
		<tag k="ssr:gruppe" v="veg" />
		<tag k="ssr:hovedgruppe" v="infrastruktur" />
		<tag k="ssr:stedsnr" v="1074059" />
		<tag k="ssr:type" v="adressenavn" />
	</node>
	<node id="-294240" lat="58.2753888888" lon="8.41670000673">
		<tag k="name" v="Lille Savemyr" />
		<tag k="ssr:date" v="2019-05-31" />
		<tag k="ssr:gruppe" v="veg" />
		<tag k="ssr:hovedgruppe" v="infrastruktur" />
		<tag k="ssr:stedsnr" v="891601" />
		<tag k="ssr:type" v="adressenavn" />
	</node>
	<node id="-294233" lat="58.2384841199" lon="8.34841675546">
		<tag k="name" v="Sangereidlia" />
		<tag k="ssr:date" v="2019-05-31" />
		<tag k="ssr:gruppe" v="veg" />
		<tag k="ssr:hovedgruppe" v="infrastruktur" />
		<tag k="ssr:stedsnr" v="1054952" />
		<tag k="ssr:type" v="adressenavn" />
	</node>
	<node id="-294232" lat="58.2376761874" lon="8.34903277473">
		<tag k="name" v="Korvtjønnveien" />
		<tag k="ssr:date" v="2019-05-31" />
		<tag k="ssr:gruppe" v="veg" />
		<tag k="ssr:hovedgruppe" v="infrastruktur" />
		<tag k="ssr:stedsnr" v="1054951" />
		<tag k="ssr:type" v="adressenavn" />
	</node>
	<node id="-294231" lat="58.2372977027" lon="8.33743297945">
		<tag k="name" v="Justøyveien" />
		<tag k="ssr:date" v="2019-05-31" />
		<tag k="ssr:gruppe" v="veg" />
		<tag k="ssr:hovedgruppe" v="infrastruktur" />
		<tag k="ssr:stedsnr" v="1054950" />
		<tag k="ssr:type" v="adressenavn" />
	</node>
	<node id="-294230" lat="58.1962712999" lon="8.3512208331">
		<tag k="name" v="Skibsheia" />
		<tag k="ssr:date" v="2019-05-31" />
		<tag k="ssr:gruppe" v="veg" />
		<tag k="ssr:hovedgruppe" v="infrastruktur" />
		<tag k="ssr:stedsnr" v="1054948" />
		<tag k="ssr:type" v="adressenavn" />
	</node>
	<node id="-294229" lat="58.2149429855" lon="8.37332001272">
		<tag k="name" v="Saltvigveien" />
		<tag k="ssr:date" v="2019-05-31" />
		<tag k="ssr:gruppe" v="veg" />
		<tag k="ssr:hovedgruppe" v="infrastruktur" />
		<tag k="ssr:stedsnr" v="1054947" />
		<tag k="ssr:type" v="adressenavn" />
	</node>
	<node id="-294228" lat="58.1848819605" lon="8.28159103299">
		<tag k="name" v="Floddemyrheia" />
		<tag k="ssr:date" v="2019-05-31" />
		<tag k="ssr:gruppe" v="veg" />
		<tag k="ssr:hovedgruppe" v="infrastruktur" />
		<tag k="ssr:stedsnr" v="1054946" />
		<tag k="ssr:type" v="adressenavn" />
	</node>
	<node id="-294227" lat="58.2202042077" lon="8.37396609541">
		<tag k="name" v="Døttesundveien" />
		<tag k="ssr:date" v="2019-05-31" />
		<tag k="ssr:gruppe" v="veg" />
		<tag k="ssr:hovedgruppe" v="infrastruktur" />
		<tag k="ssr:stedsnr" v="1054945" />
		<tag k="ssr:type" v="adressenavn" />
	</node>
	<node id="-295199" lat="58.194894448" lon="8.38796110598">
		<tag k="name" v="Reierskjer" />
		<tag k="ssr:date" v="2016-05-10" />
		<tag k="ssr:gruppe" v="navigasjon" />
		<tag k="ssr:hovedgruppe" v="infrastruktur" />
		<tag k="ssr:stedsnr" v="425419" />
		<tag k="ssr:type" v="fyrlykt" />
	</node>
	<node id="-295689" lat="58.1914611133" lon="8.35820278005">
		<tag k="alt_name" v="Brekkestø lykt" />
		<tag k="name" v="Brekkestø" />
		<tag k="ssr:date" v="2016-05-10" />
		<tag k="ssr:gruppe" v="navigasjon" />
		<tag k="ssr:hovedgruppe" v="infrastruktur" />
		<tag k="ssr:stedsnr" v="606407" />
		<tag k="ssr:type" v="fyrlykt" />
	</node>
	<node id="-295677" lat="58.166336107" lon="8.2601750059">
		<tag k="name" v="Kvanneidlia" />
		<tag k="ssr:date" v="2019-05-31" />
		<tag k="ssr:gruppe" v="veg" />
		<tag k="ssr:hovedgruppe" v="infrastruktur" />
		<tag k="ssr:stedsnr" v="604000" />
		<tag k="ssr:type" v="adressenavn" />
	</node>
	<node id="-294107" lat="58.2083130378" lon="8.37673813888">
		<tag k="name" v="Jerikohavn" />
		<tag k="ssr:date" v="2019-05-31" />
		<tag k="ssr:gruppe" v="veg" />
		<tag k="ssr:hovedgruppe" v="infrastruktur" />
		<tag k="ssr:stedsnr" v="1054644" />
		<tag k="ssr:type" v="adressenavn" />
	</node>
	<node id="-294106" lat="58.2210794876" lon="8.3108892685">
		<tag k="name" v="Kosvigveien" />
		<tag k="ssr:date" v="2019-05-31" />
		<tag k="ssr:gruppe" v="veg" />
		<tag k="ssr:hovedgruppe" v="infrastruktur" />
		<tag k="ssr:stedsnr" v="1054620" />
		<tag k="ssr:type" v="adressenavn" />
	</node>
	<node id="-294105" lat="58.1820204539" lon="8.26646345447">
		<tag k="name" v="Haugevigkilen" />
		<tag k="ssr:date" v="2019-05-31" />
		<tag k="ssr:gruppe" v="veg" />
		<tag k="ssr:hovedgruppe" v="infrastruktur" />
		<tag k="ssr:stedsnr" v="1054616" />
		<tag k="ssr:type" v="adressenavn" />
	</node>
	<node id="-294104" lat="58.2783975976" lon="8.32341711071">
		<tag k="name" v="Grimenesveien" />
		<tag k="ssr:date" v="2019-05-31" />
		<tag k="ssr:gruppe" v="veg" />
		<tag k="ssr:hovedgruppe" v="infrastruktur" />
		<tag k="ssr:stedsnr" v="1054612" />
		<tag k="ssr:type" v="adressenavn" />
	</node>
	<node id="-294103" lat="58.1476512787" lon="8.20732008479">
		<tag k="name" v="Hæstadneset" />
		<tag k="ssr:date" v="2019-05-31" />
		<tag k="ssr:gruppe" v="veg" />
		<tag k="ssr:hovedgruppe" v="infrastruktur" />
		<tag k="ssr:stedsnr" v="1054611" />
		<tag k="ssr:type" v="adressenavn" />
	</node>
	<node id="-294102" lat="58.1825879844" lon="8.15624107797">
		<tag k="name" v="Travparkveien" />
		<tag k="ssr:date" v="2019-05-31" />
		<tag k="ssr:gruppe" v="veg" />
		<tag k="ssr:hovedgruppe" v="infrastruktur" />
		<tag k="ssr:stedsnr" v="1054919" />
		<tag k="ssr:type" v="adressenavn" />
	</node>
	<node id="-294101" lat="58.1293381717" lon="8.22690727792">
		<tag k="name" v="Sandeheia" />
		<tag k="ssr:date" v="2019-05-31" />
		<tag k="ssr:gruppe" v="veg" />
		<tag k="ssr:hovedgruppe" v="infrastruktur" />
		<tag k="ssr:stedsnr" v="1054917" />
		<tag k="ssr:type" v="adressenavn" />
	</node>
	<node id="-295839" lat="58.2314333372" lon="8.40500834163">
		<tag k="alt_name" v="Saltholmen" />
		<tag k="name" v="Saltholmen lykt" />
		<tag k="ssr:date" v="2016-05-10" />
		<tag k="ssr:gruppe" v="navigasjon" />
		<tag k="ssr:hovedgruppe" v="infrastruktur" />
		<tag k="ssr:stedsnr" v="667282" />
		<tag k="ssr:type" v="fyrlykt" />
	</node>
	<node id="-294055" lat="58.1303666659" lon="8.25139444944">
		<tag k="name" v="Sverrvigodden lykt" />
		<tag k="ssr:date" v="2018-03-14" />
		<tag k="ssr:gruppe" v="navigasjon" />
		<tag k="ssr:hovedgruppe" v="infrastruktur" />
		<tag k="ssr:stedsnr" v="328004" />
		<tag k="ssr:type" v="fyrlykt" />
	</node>
	<node id="-296348" lat="58.1340277774" lon="8.25547778103">
		<tag k="alt_name" v="Nattviktangen" />
		<tag k="loc_name" v="Natvigtangen lykt" />
		<tag k="name" v="Natvigtangen" />
		<tag k="ssr:date" v="2016-05-11" />
		<tag k="ssr:gruppe" v="navigasjon" />
		<tag k="ssr:hovedgruppe" v="infrastruktur" />
		<tag k="ssr:stedsnr" v="813003" />
		<tag k="ssr:type" v="fyrlykt" />
	</node>
	<node id="-295021" lat="58.2403444428" lon="8.42102222371">
		<tag k="name" v="Gåsen" />
		<tag k="ssr:date" v="2016-05-10" />
		<tag k="ssr:gruppe" v="navigasjon" />
		<tag k="ssr:hovedgruppe" v="infrastruktur" />
		<tag k="ssr:stedsnr" v="206015" />
		<tag k="ssr:type" v="fyrlykt" />
	</node>
	<node id="-296036" lat="58.1780749991" lon="8.31598888165">
		<tag k="name" v="Ågerøya" />
		<tag k="old_name" v="Akerøy;Ågerøy" />
		<tag k="ssr:date" v="2016-05-11" />
		<tag k="ssr:gruppe" v="navigasjon" />
		<tag k="ssr:hovedgruppe" v="infrastruktur" />
		<tag k="ssr:stedsnr" v="728579" />
		<tag k="ssr:type" v="fyrlykt" />
	</node>
	<node id="-296525" lat="58.2698472208" lon="8.32714166334">
		<tag k="name" v="Storemyrheia" />
		<tag k="ssr:date" v="2019-05-31" />
		<tag k="ssr:gruppe" v="veg" />
		<tag k="ssr:hovedgruppe" v="infrastruktur" />
		<tag k="ssr:stedsnr" v="903594" />
		<tag k="ssr:type" v="adressenavn" />
	</node>
	<node id="-295498" lat="58.13216667" lon="8.25991389684">
		<tag k="name" v="Spaknesskjærane" />
		<tag k="old_name" v="Spagnesskjær" />
		<tag k="ssr:date" v="2016-05-10" />
		<tag k="ssr:gruppe" v="navigasjon" />
		<tag k="ssr:hovedgruppe" v="infrastruktur" />
		<tag k="ssr:stedsnr" v="510004" />
		<tag k="ssr:type" v="fyrlykt" />
	</node>
	<node id="-296003" lat="58.2224803561" lon="8.47034357566">
		<tag k="loc_name" v="Gåsa lykt" />
		<tag k="name" v="Gåsa" />
		<tag k="ssr:date" v="2018-02-23" />
		<tag k="ssr:gruppe" v="navigasjon" />
		<tag k="ssr:hovedgruppe" v="infrastruktur" />
		<tag k="ssr:stedsnr" v="724615" />
		<tag k="ssr:type" v="lanterne" />
	</node>
	<node id="-296001" lat="58.1872666632" lon="8.16408888357">
		<tag k="name" v="Snelldalen" />
		<tag k="ssr:date" v="2019-05-31" />
		<tag k="ssr:gruppe" v="veg" />
		<tag k="ssr:hovedgruppe" v="infrastruktur" />
		<tag k="ssr:stedsnr" v="723704" />
		<tag k="ssr:type" v="adressenavn" />
	</node>
</osm>
