<?xml version="1.0" encoding="UTF-8"?>
<osm generator="osmapis" version="0.6">
	<node id="-794624" lat="70.210544443" lon="22.1504054978">
		<tag k="fixme" v="consider natural=peak for the most distinct mountains in the district" />
		<tag k="name" v="Birošvárri" />
		<tag k="name:se" v="Birošvárri" />
		<tag k="natural" v="hill" />
		<tag k="old_name:se" v="Birušvarri" />
		<tag k="place" v="locality" />
		<tag k="ssr:stedsnr" v="869285" />
	</node>
	<node id="-794621" lat="70.3472666661" lon="21.8006249589">
		<tag k="name" v="Kleiva" />
		<tag k="natural" v="slope" />
		<tag k="place" v="locality" />
		<tag k="ssr:stedsnr" v="869280" />
	</node>
	<node id="-794620" lat="70.3496583321" lon="21.7884805119">
		<tag k="name" v="Stuorasildi" />
		<tag k="name:se" v="Stuorasildi" />
		<tag k="natural" v="valley" />
		<tag k="place" v="locality" />
		<tag k="ssr:stedsnr" v="869279" />
	</node>
	<node id="-794618" lat="70.2485555577" lon="21.3034110852">
		<tag k="fixme" v="consider natural=peak for the most distinct mountains in the district" />
		<tag k="name" v="Sandfjellet" />
		<tag k="natural" v="hill" />
		<tag k="place" v="locality" />
		<tag k="ssr:stedsnr" v="869154" />
	</node>
	<node id="-794105" lat="70.2589527816" lon="21.8106333054">
		<tag k="name" v="Øverloftan" />
		<tag k="place" v="locality" />
		<tag k="ssr:stedsnr" v="29848" />
	</node>
	<node id="-794103" lat="70.3121166659" lon="21.7235749786">
		<tag k="fixme" v="consider natural=peak for the most distinct mountains in the district" />
		<tag k="name" v="Sunnáčohkka" />
		<tag k="name:se" v="Sunnáčohkka" />
		<tag k="natural" v="hill" />
		<tag k="old_name:se" v="Sunnačåkka;Sunnačohkka" />
		<tag k="place" v="locality" />
		<tag k="ssr:stedsnr" v="20269" />
	</node>
	<node id="-794614" lat="70.2547277762" lon="21.5462666213">
		<tag k="fixme" v="consider natural=peak for the most distinct mountains in the district" />
		<tag k="name" v="Reinfjellet - Gaskavárri" />
		<tag k="name:no" v="Reinfjellet" />
		<tag k="name:se" v="Gaskavárri" />
		<tag k="natural" v="hill" />
		<tag k="old_name:se" v="Gaskavarri" />
		<tag k="place" v="locality" />
		<tag k="ssr:stedsnr" v="868262" />
	</node>
	<node id="-794100" lat="70.308525002" lon="21.9783610697">
		<tag k="fixme" v="consider natural=peak for the most distinct mountains in the district" />
		<tag k="name" v="Rokkenestinden" />
		<tag k="natural" v="hill" />
		<tag k="place" v="locality" />
		<tag k="ssr:stedsnr" v="20235" />
	</node>
	<node id="-794099" lat="70.3087972237" lon="21.9267638392">
		<tag k="name" v="Øradalen - Eavrovággi" />
		<tag k="name:no" v="Øradalen" />
		<tag k="name:se" v="Eavrovággi" />
		<tag k="natural" v="valley" />
		<tag k="old_name:se" v="Ævruvaggi" />
		<tag k="place" v="locality" />
		<tag k="ssr:stedsnr" v="20234" />
	</node>
	<node id="-794097" lat="70.2648027773" lon="21.9464221749">
		<tag k="name" v="Ullsfjorddalen - Ullovuonvággi" />
		<tag k="name:no" v="Ullsfjorddalen" />
		<tag k="name:se" v="Ullovuonvággi" />
		<tag k="natural" v="valley" />
		<tag k="old_name:se" v="Ulluvuonvaggi" />
		<tag k="place" v="locality" />
		<tag k="ssr:stedsnr" v="20227" />
	</node>
	<node id="-794096" lat="70.2712416706" lon="22.0501110682">
		<tag k="fixme" v="consider natural=peak for the most distinct mountains in the district" />
		<tag k="name" v="Sommarnesfjellet" />
		<tag k="natural" v="hill" />
		<tag k="place" v="locality" />
		<tag k="ssr:stedsnr" v="20226" />
	</node>
	<node id="-794604" lat="70.3335611163" lon="21.4153860777">
		<tag k="name" v="Klokkerlien" />
		<tag k="natural" v="slope" />
		<tag k="place" v="locality" />
		<tag k="ssr:stedsnr" v="835152" />
	</node>
	<node id="-794603" lat="70.3453833326" lon="21.4133610697">
		<tag k="name" v="Saulien" />
		<tag k="natural" v="slope" />
		<tag k="place" v="locality" />
		<tag k="ssr:stedsnr" v="835164" />
	</node>
	<node id="-794601" lat="70.3360888862" lon="21.4570277415">
		<tag k="name" v="Prestebergan" />
		<tag k="natural" v="hill" />
		<tag k="place" v="locality" />
		<tag k="ssr:stedsnr" v="835159" />
	</node>
	<node id="-794599" lat="70.1995555597" lon="21.8821860821">
		<tag k="fixme" v="consider natural=peak for the most distinct mountains in the district" />
		<tag k="name" v="Tverfjordjøkelen" />
		<tag k="natural" v="hill" />
		<tag k="place" v="locality" />
		<tag k="ssr:stedsnr" v="822947" />
	</node>
	<node id="-794086" lat="70.3158833303" lon="21.5218721917">
		<tag k="name" v="Kviteberget" />
		<tag k="natural" v="hill" />
		<tag k="place" v="locality" />
		<tag k="ssr:stedsnr" v="19328" />
	</node>
	<node id="-794085" lat="70.2810916681" lon="21.5117249682">
		<tag k="name" v="Barbrodalen" />
		<tag k="natural" v="valley" />
		<tag k="place" v="locality" />
		<tag k="ssr:stedsnr" v="19324" />
	</node>
	<node id="-794082" lat="70.270816671" lon="21.4961471837">
		<tag k="name" v="Tverrberget" />
		<tag k="natural" v="hill" />
		<tag k="place" v="locality" />
		<tag k="ssr:stedsnr" v="19273" />
	</node>
	<node id="-794593" lat="70.1987694444" lon="21.6384583012">
		<tag k="fixme" v="consider natural=peak for the most distinct mountains in the district" />
		<tag k="name" v="Middagsfjellet" />
		<tag k="natural" v="hill" />
		<tag k="place" v="locality" />
		<tag k="ssr:stedsnr" v="815285" />
	</node>
	<node id="-794079" lat="70.1624833383" lon="22.1879499598">
		<tag k="name" v="Juovvavággi" />
		<tag k="name:se" v="Juovvavággi" />
		<tag k="natural" v="valley" />
		<tag k="old_name:se" v="Juovvavaggi" />
		<tag k="place" v="locality" />
		<tag k="ssr:stedsnr" v="19253" />
	</node>
	<node id="-794078" lat="70.1682888875" lon="21.7652749529">
		<tag k="name" v="Trolldalen - Skuonasvággi" />
		<tag k="name:no" v="Trolldalen" />
		<tag k="name:se" v="Skuonasvággi" />
		<tag k="natural" v="valley" />
		<tag k="old_name:se" v="Skuonasvaggi" />
		<tag k="place" v="locality" />
		<tag k="ssr:stedsnr" v="19248" />
	</node>
	<node id="-794589" lat="70.0922444421" lon="22.3023166259">
		<tag k="fixme" v="consider natural=peak for the most distinct mountains in the district" />
		<tag k="name" v="Stortinden - Ruoššavárri" />
		<tag k="name:no" v="Stortinden" />
		<tag k="name:se" v="Ruoššavárri" />
		<tag k="natural" v="hill" />
		<tag k="old_name:se" v="Ruoššavarri" />
		<tag k="place" v="locality" />
		<tag k="ssr:stedsnr" v="813376" />
	</node>
	<node id="-794588" lat="70.2324055556" lon="21.6059360839">
		<tag k="name" v="Bjørndalen - Stuorajárvággi" />
		<tag k="name:no" v="Bjørndalen" />
		<tag k="name:se" v="Stuorajárvággi" />
		<tag k="natural" v="valley" />
		<tag k="old_name:se" v="Stuorajarvaggi" />
		<tag k="place" v="locality" />
		<tag k="ssr:stedsnr" v="813101" />
	</node>
	<node id="-794073" lat="70.3892138916" lon="21.7039277596">
		<tag k="name" v="Mylingstinden" />
		<tag k="natural" v="hill" />
		<tag k="place" v="locality" />
		<tag k="ssr:stedsnr" v="930309" />
	</node>
	<node id="-794584" lat="70.328575003" lon="21.7097249582">
		<tag k="fixme" v="consider natural=peak for the most distinct mountains in the district" />
		<tag k="name" v="Svartfjellet" />
		<tag k="natural" v="hill" />
		<tag k="place" v="locality" />
		<tag k="ssr:stedsnr" v="809294" />
	</node>
	<node id="-794582" lat="70.3404027793" lon="22.3527832758">
		<tag k="fixme" v="consider natural=peak for the most distinct mountains in the district" />
		<tag k="name" v="Stjernfoten" />
		<tag k="natural" v="hill" />
		<tag k="place" v="locality" />
		<tag k="ssr:stedsnr" v="809154" />
	</node>
	<node id="-794577" lat="70.2309250013" lon="22.2344499414">
		<tag k="fixme" v="consider natural=peak for the most distinct mountains in the district" />
		<tag k="name" v="Slettafjellet" />
		<tag k="natural" v="hill" />
		<tag k="place" v="locality" />
		<tag k="ssr:stedsnr" v="808470" />
	</node>
	<node id="-794064" lat="70.2745027779" lon="21.7260471813">
		<tag k="fixme" v="consider natural=peak for the most distinct mountains in the district" />
		<tag k="name" v="Storfjellet" />
		<tag k="natural" v="hill" />
		<tag k="place" v="locality" />
		<tag k="ssr:stedsnr" v="870257" />
	</node>
	<node id="-794573" lat="70.2275888868" lon="22.2264888495">
		<tag k="name" v="Slettadalen" />
		<tag k="natural" v="valley" />
		<tag k="place" v="locality" />
		<tag k="ssr:stedsnr" v="808381" />
	</node>
	<node id="-794018" lat="70.2921722206" lon="21.7224110841">
		<tag k="fixme" v="consider natural=peak for the most distinct mountains in the district" />
		<tag k="name" v="Langfjellet" />
		<tag k="natural" v="hill" />
		<tag k="place" v="locality" />
		<tag k="ssr:stedsnr" v="930248" />
	</node>
	<node id="-794570" lat="70.2411916677" lon="21.8914416388">
		<tag k="name" v="Markusdalen" />
		<tag k="natural" v="valley" />
		<tag k="place" v="locality" />
		<tag k="ssr:stedsnr" v="808358" />
	</node>
	<node id="-794569" lat="70.2467416648" lon="21.6473888578">
		<tag k="name" v="Earvárgaska" />
		<tag k="name:se" v="Earvárgaska" />
		<tag k="natural" v="valley" />
		<tag k="old_name:se" v="Ærvargaska" />
		<tag k="place" v="locality" />
		<tag k="ssr:stedsnr" v="808350" />
	</node>
	<node id="-794056" lat="70.3685388932" lon="21.420869432">
		<tag k="alt_name" v="Storskardet" />
		<tag k="name" v="Storskaret" />
		<tag k="natural" v="valley" />
		<tag k="place" v="locality" />
		<tag k="ssr:stedsnr" v="943550" />
	</node>
	<node id="-793676" lat="70.3320250027" lon="21.4084860799">
		<tag k="name" v="Kløfta" />
		<tag k="natural" v="valley" />
		<tag k="place" v="locality" />
		<tag k="ssr:stedsnr" v="107116" />
	</node>
	<node id="-794050" lat="70.2994416644" lon="21.5551082961">
		<tag k="name" v="Kubakken" />
		<tag k="natural" v="slope" />
		<tag k="place" v="locality" />
		<tag k="ssr:stedsnr" v="939860" />
	</node>
	<node id="-794558" lat="70.1868499968" lon="21.8770582999">
		<tag k="fixme" v="consider natural=peak for the most distinct mountains in the district" />
		<tag k="name" v="Hundbergfjellet" />
		<tag k="natural" v="hill" />
		<tag k="place" v="locality" />
		<tag k="ssr:stedsnr" v="808245" />
	</node>
	<node id="-793759" lat="70.3325999978" lon="21.4236471845">
		<tag k="name" v="Korset" />
		<tag k="natural" v="hill" />
		<tag k="place" v="locality" />
		<tag k="ssr:stedsnr" v="228154" />
	</node>
	<node id="-794552" lat="70.1945000015" lon="21.3916805288">
		<tag k="fixme" v="consider natural=peak for the most distinct mountains in the district" />
		<tag k="name" v="Sukkertind" />
		<tag k="natural" v="hill" />
		<tag k="place" v="locality" />
		<tag k="ssr:stedsnr" v="808156" />
	</node>
	<node id="-794038" lat="70.1158388911" lon="22.4681582813">
		<tag k="fixme" v="consider natural=peak for the most distinct mountains in the district" />
		<tag k="name" v="Slettfjellet - Ákšovuonvárri" />
		<tag k="name:no" v="Slettfjellet" />
		<tag k="name:se" v="Ákšovuonvárri" />
		<tag k="natural" v="hill" />
		<tag k="old_name:se" v="Akšuvuonvarri" />
		<tag k="place" v="locality" />
		<tag k="ssr:stedsnr" v="930582" />
	</node>
	<node id="-794035" lat="70.2763749988" lon="22.0262999452">
		<tag k="fixme" v="consider natural=peak for the most distinct mountains in the district" />
		<tag k="name" v="Middagsfjellet" />
		<tag k="natural" v="hill" />
		<tag k="place" v="locality" />
		<tag k="ssr:stedsnr" v="930549" />
	</node>
	<node id="-794546" lat="70.2907555606" lon="21.9415916338">
		<tag k="name" v="Jommedalen" />
		<tag k="natural" v="valley" />
		<tag k="place" v="locality" />
		<tag k="ssr:stedsnr" v="809259" />
	</node>
	<node id="-794611" lat="70.1557777812" lon="22.3605666307">
		<tag k="name" v="Sloppa" />
		<tag k="natural" v="valley" />
		<tag k="place" v="locality" />
		<tag k="ssr:stedsnr" v="835538" />
	</node>
	<node id="-794542" lat="70.2371722266" lon="21.2460444117">
		<tag k="name" v="Nordskaret" />
		<tag k="natural" v="valley" />
		<tag k="place" v="locality" />
		<tag k="ssr:stedsnr" v="774199" />
	</node>
	<node id="-793999" lat="70.2811555553" lon="21.6897055289">
		<tag k="name" v="Finnsnesdalen" />
		<tag k="natural" v="valley" />
		<tag k="place" v="locality" />
		<tag k="ssr:stedsnr" v="809235" />
	</node>
	<node id="-794027" lat="70.2615250012" lon="21.7067666441">
		<tag k="fixme" v="consider natural=peak for the most distinct mountains in the district" />
		<tag k="name" v="Bukkeskinnfjellet - Lávkevárri" />
		<tag k="name:no" v="Bukkeskinnfjellet" />
		<tag k="name:se" v="Lávkevárri" />
		<tag k="natural" v="hill" />
		<tag k="old_name:se" v="Lavkevarri" />
		<tag k="place" v="locality" />
		<tag k="ssr:stedsnr" v="930202" />
	</node>
	<node id="-794538" lat="70.3610416672" lon="21.4046138732">
		<tag k="name" v="Fjellavløsningshøyden" />
		<tag k="natural" v="hill" />
		<tag k="place" v="locality" />
		<tag k="ssr:stedsnr" v="774126" />
	</node>
	<node id="-794025" lat="70.3585138885" lon="21.7060166327">
		<tag k="fixme" v="consider natural=peak for the most distinct mountains in the district" />
		<tag k="name" v="Avløysingsfjellet" />
		<tag k="natural" v="hill" />
		<tag k="place" v="locality" />
		<tag k="ssr:stedsnr" v="930274" />
	</node>
	<node id="-794024" lat="70.2157694469" lon="21.6563833001">
		<tag k="fixme" v="consider natural=peak for the most distinct mountains in the district" />
		<tag k="name" v="Jerngeita" />
		<tag k="natural" v="hill" />
		<tag k="place" v="locality" />
		<tag k="ssr:stedsnr" v="930265" />
	</node>
	<node id="-794023" lat="70.2120805583" lon="22.0134221875">
		<tag k="fixme" v="consider natural=peak for the most distinct mountains in the district" />
		<tag k="name" v="Garntindan" />
		<tag k="natural" v="hill" />
		<tag k="place" v="locality" />
		<tag k="ssr:stedsnr" v="930262" />
	</node>
	<node id="-794534" lat="70.2847194482" lon="21.5485777385">
		<tag k="fixme" v="consider natural=peak for the most distinct mountains in the district" />
		<tag k="name" v="Okshalsen" />
		<tag k="natural" v="hill" />
		<tag k="place" v="locality" />
		<tag k="ssr:stedsnr" v="757841" />
	</node>
	<node id="-794533" lat="70.2997527766" lon="21.5485305361">
		<tag k="name" v="Slettbakken" />
		<tag k="natural" v="slope" />
		<tag k="place" v="locality" />
		<tag k="ssr:stedsnr" v="757837" />
	</node>
	<node id="-794019" lat="70.2952138903" lon="22.0450221796">
		<tag k="alt_name" v="Skolttind" />
		<tag k="fixme" v="consider natural=peak for the most distinct mountains in the district" />
		<tag k="name" v="Mollviktinden" />
		<tag k="natural" v="hill" />
		<tag k="place" v="locality" />
		<tag k="ssr:stedsnr" v="930251" />
	</node>
	<node id="-794530" lat="70.3043527801" lon="22.0845082969">
		<tag k="name" v="Nuven" />
		<tag k="natural" v="hill" />
		<tag k="place" v="locality" />
		<tag k="ssr:stedsnr" v="748239" />
	</node>
	<node id="-794529" lat="70.2711250039" lon="22.0083138638">
		<tag k="fixme" v="consider natural=peak for the most distinct mountains in the district" />
		<tag k="name" v="Nuvva" />
		<tag k="name:se" v="Nuvva" />
		<tag k="natural" v="hill" />
		<tag k="place" v="locality" />
		<tag k="ssr:stedsnr" v="748236" />
	</node>
	<node id="-794015" lat="70.1738277759" lon="22.3814138317">
		<tag k="fixme" v="consider natural=peak for the most distinct mountains in the district" />
		<tag k="name" v="Riiddiidrášša" />
		<tag k="name:se" v="Riiddiidrášša" />
		<tag k="natural" v="hill" />
		<tag k="old_name:se" v="Riidiidrašša" />
		<tag k="place" v="locality" />
		<tag k="ssr:stedsnr" v="929402" />
	</node>
	<node id="-794014" lat="70.1595444451" lon="22.312783291">
		<tag k="name" v="Bjørneskardet" />
		<tag k="natural" v="valley" />
		<tag k="place" v="locality" />
		<tag k="ssr:stedsnr" v="929398" />
	</node>
	<node id="-794013" lat="70.1562555609" lon="22.4607916089">
		<tag k="name" v="Storvikdalen - Stuorvikvággi" />
		<tag k="name:no" v="Storvikdalen" />
		<tag k="name:se" v="Stuorvikvággi" />
		<tag k="natural" v="valley" />
		<tag k="old_name:se" v="Stuorvikvaggi" />
		<tag k="place" v="locality" />
		<tag k="ssr:stedsnr" v="929394" />
	</node>
	<node id="-794524" lat="70.3114472221" lon="21.7641971848">
		<tag k="name" v="Stordalen" />
		<tag k="natural" v="valley" />
		<tag k="place" v="locality" />
		<tag k="ssr:stedsnr" v="748273" />
	</node>
	<node id="-794523" lat="70.3607388895" lon="21.7272082879">
		<tag k="name" v="Ytterværdalen" />
		<tag k="natural" v="valley" />
		<tag k="place" v="locality" />
		<tag k="ssr:stedsnr" v="748269" />
	</node>
	<node id="-794522" lat="70.2526888905" lon="22.3757249636">
		<tag k="name" v="Grasdalen - Rássevággi" />
		<tag k="name:no" v="Grasdalen" />
		<tag k="name:se" v="Rássevággi" />
		<tag k="natural" v="valley" />
		<tag k="place" v="locality" />
		<tag k="ssr:stedsnr" v="748084" />
	</node>
	<node id="-794521" lat="70.1185361082" lon="22.4148110603">
		<tag k="fixme" v="consider natural=peak for the most distinct mountains in the district" />
		<tag k="name" v="Rundfjellet - Gaskahárji" />
		<tag k="name:no" v="Rundfjellet" />
		<tag k="name:se" v="Gaskahárji" />
		<tag k="natural" v="hill" />
		<tag k="old_name:se" v="Gaskaharji" />
		<tag k="place" v="locality" />
		<tag k="ssr:stedsnr" v="747547" />
	</node>
	<node id="-794519" lat="70.1053166653" lon="22.4575693944">
		<tag k="name" v="Giđđavággi" />
		<tag k="name:se" v="Giđđavággi" />
		<tag k="natural" v="valley" />
		<tag k="old_name:se" v="Giđđavaggi" />
		<tag k="place" v="locality" />
		<tag k="ssr:stedsnr" v="747524" />
	</node>
	<node id="-794518" lat="70.1347777823" lon="22.5227082772">
		<tag k="name" v="Ingadalen - Iŋggávággi" />
		<tag k="name:no" v="Ingadalen" />
		<tag k="name:se" v="Iŋggávággi" />
		<tag k="natural" v="valley" />
		<tag k="old_name:se" v="Ingavaggi" />
		<tag k="place" v="locality" />
		<tag k="ssr:stedsnr" v="747410" />
	</node>
	<node id="-794005" lat="70.1335694446" lon="22.1725777389">
		<tag k="name" v="Kjosdalen" />
		<tag k="natural" v="valley" />
		<tag k="place" v="locality" />
		<tag k="ssr:stedsnr" v="929253" />
	</node>
	<node id="-794000" lat="70.2708777786" lon="22.1989443912">
		<tag k="fixme" v="consider natural=peak for the most distinct mountains in the district" />
		<tag k="name" v="Kollaren - Goallár" />
		<tag k="name:no" v="Kollaren" />
		<tag k="name:se" v="Goallár" />
		<tag k="natural" v="hill" />
		<tag k="old_name:se" v="Goallar" />
		<tag k="place" v="locality" />
		<tag k="ssr:stedsnr" v="809238" />
	</node>
	<node id="-794511" lat="70.2391500022" lon="21.9035249717">
		<tag k="fixme" v="consider natural=peak for the most distinct mountains in the district" />
		<tag k="name" v="Tverrfjelllet" />
		<tag k="natural" v="hill" />
		<tag k="place" v="locality" />
		<tag k="ssr:stedsnr" v="747357" />
	</node>
	<node id="-794510" lat="70.2987722245" lon="22.4816777181">
		<tag k="name" v="Oaggunluokmuotki" />
		<tag k="name:se" v="Oaggunluokmuotki" />
		<tag k="natural" v="valley" />
		<tag k="old_name:se" v="Oaggonluokmuotki" />
		<tag k="place" v="locality" />
		<tag k="ssr:stedsnr" v="747101" />
	</node>
	<node id="-794509" lat="70.2749055565" lon="22.2200832801">
		<tag k="name" v="Skittenvikdalen" />
		<tag k="natural" v="valley" />
		<tag k="place" v="locality" />
		<tag k="ssr:stedsnr" v="747085" />
	</node>
	<node id="-794508" lat="70.2736166642" lon="22.2565749513">
		<tag k="fixme" v="consider natural=peak for the most distinct mountains in the district" />
		<tag k="name" v="Klubbnesviktinden - Linjárčohkka" />
		<tag k="name:no" v="Klubbnesviktinden" />
		<tag k="name:se" v="Linjárčohkka" />
		<tag k="natural" v="hill" />
		<tag k="old_name:se" v="Linjarčåkka" />
		<tag k="place" v="locality" />
		<tag k="ssr:stedsnr" v="747081" />
	</node>
	<node id="-793994" lat="70.1198916685" lon="22.3278777313">
		<tag k="name" v="Goalsohkarvággi" />
		<tag k="name:se" v="Goalsohkarvággi" />
		<tag k="natural" v="valley" />
		<tag k="old_name:se" v="Goalsåkkarvaggi" />
		<tag k="place" v="locality" />
		<tag k="ssr:stedsnr" v="747554" />
	</node>
	<node id="-794007" lat="70.1085805594" lon="22.2096832912">
		<tag k="name" v="Livcovággi" />
		<tag k="name:se" v="Livcovággi" />
		<tag k="natural" v="valley" />
		<tag k="old_name:se" v="Livcuvaggi" />
		<tag k="place" v="locality" />
		<tag k="ssr:stedsnr" v="929267" />
	</node>
	<node id="-794504" lat="70.1166166703" lon="22.5246443943">
		<tag k="name" v="Lendingen" />
		<tag k="natural" v="slope" />
		<tag k="place" v="locality" />
		<tag k="ssr:stedsnr" v="652608" />
	</node>
	<node id="-793991" lat="70.1504611104" lon="21.8152777314">
		<tag k="name" v="Nordmanndalen" />
		<tag k="natural" v="valley" />
		<tag k="place" v="locality" />
		<tag k="ssr:stedsnr" v="747263" />
	</node>
	<node id="-794501" lat="70.2239277796" lon="21.1896277439">
		<tag k="name" v="Rundhaugen" />
		<tag k="natural" v="hill" />
		<tag k="place" v="locality" />
		<tag k="ssr:stedsnr" v="652178" />
	</node>
	<node id="-794006" lat="70.259941668" lon="21.5611221938">
		<tag k="name" v="Sisnjunni" />
		<tag k="name:se" v="Sisnjunni" />
		<tag k="natural" v="hill" />
		<tag k="place" v="locality" />
		<tag k="ssr:stedsnr" v="929256" />
	</node>
	<node id="-793986" lat="70.1183166718" lon="22.5196305031">
		<tag k="name" v="Jansberget" />
		<tag k="natural" v="hill" />
		<tag k="place" v="locality" />
		<tag k="ssr:stedsnr" v="896676" />
	</node>
	<node id="-794493" lat="70.2407777749" lon="22.228466631">
		<tag k="fixme" v="consider natural=peak for the most distinct mountains in the district" />
		<tag k="name" v="Skatviktinden - Goađđá" />
		<tag k="name:no" v="Skatviktinden" />
		<tag k="name:se" v="Goađđá" />
		<tag k="natural" v="hill" />
		<tag k="old_name:se" v="Goađđa" />
		<tag k="place" v="locality" />
		<tag k="ssr:stedsnr" v="630427" />
	</node>
	<node id="-794491" lat="70.1135861098" lon="22.3589721578">
		<tag k="fixme" v="consider natural=peak for the most distinct mountains in the district" />
		<tag k="name" v="Goalsohkarvárri" />
		<tag k="name:se" v="Goalsohkarvárri" />
		<tag k="natural" v="hill" />
		<tag k="old_name:se" v="Goalsåkkarvarri" />
		<tag k="place" v="locality" />
		<tag k="ssr:stedsnr" v="626581" />
	</node>
	<node id="-793978" lat="70.2368194464" lon="21.2598194158">
		<tag k="name" v="Trollvikskaret" />
		<tag k="natural" v="valley" />
		<tag k="place" v="locality" />
		<tag k="ssr:stedsnr" v="895189" />
	</node>
	<node id="-794202" lat="70.3314416661" lon="22.4107499531">
		<tag k="fixme" v="consider natural=peak for the most distinct mountains in the district" />
		<tag k="name" v="Eliasen - Elijas" />
		<tag k="name:no" v="Eliasen" />
		<tag k="name:se" v="Elijas" />
		<tag k="natural" v="hill" />
		<tag k="place" v="locality" />
		<tag k="ssr:stedsnr" v="141129" />
	</node>
	<node id="-794488" lat="70.2330527771" lon="21.9987555278">
		<tag k="fixme" v="consider natural=peak for the most distinct mountains in the district" />
		<tag k="name" v="Svartfjellet - Čáhppesčohkka" />
		<tag k="name:no" v="Svartfjellet" />
		<tag k="name:se" v="Čáhppesčohkka" />
		<tag k="natural" v="hill" />
		<tag k="old_name:se" v="Čappesčåkka" />
		<tag k="place" v="locality" />
		<tag k="ssr:stedsnr" v="626412" />
	</node>
	<node id="-793975" lat="70.2276416658" lon="21.234888864">
		<tag k="name" v="Rundhaugen" />
		<tag k="natural" v="hill" />
		<tag k="place" v="locality" />
		<tag k="ssr:stedsnr" v="713206" />
	</node>
	<node id="-794089" lat="70.3882361108" lon="21.422397204">
		<tag k="alt_name" v="Krykkjeberget" />
		<tag k="name" v="Krykjeberget" />
		<tag k="natural" v="hill" />
		<tag k="place" v="locality" />
		<tag k="ssr:stedsnr" v="19357" />
	</node>
	<node id="-794482" lat="70.3068083351" lon="21.3775972043">
		<tag k="fixme" v="consider natural=peak for the most distinct mountains in the district" />
		<tag k="name" v="Varden" />
		<tag k="natural" v="hill" />
		<tag k="place" v="locality" />
		<tag k="ssr:stedsnr" v="626376" />
	</node>
	<node id="-794480" lat="70.3271972195" lon="21.4105999635">
		<tag k="alt_name" v="Avløsningen" />
		<tag k="name" v="Fjellavløysingen" />
		<tag k="natural" v="hill" />
		<tag k="place" v="locality" />
		<tag k="ssr:stedsnr" v="626350" />
	</node>
	<node id="-793963" lat="70.2777333305" lon="21.5717638661">
		<tag k="name" v="Langryggen" />
		<tag k="natural" v="slope" />
		<tag k="place" v="locality" />
		<tag k="ssr:stedsnr" v="880655" />
	</node>
	<node id="-793740" lat="70.3823027763" lon="21.4173888687">
		<tag k="fixme" v="consider natural=peak for the most distinct mountains in the district" />
		<tag k="name" v="Kobbekeilfjellet" />
		<tag k="natural" v="hill" />
		<tag k="place" v="locality" />
		<tag k="ssr:stedsnr" v="289132" />
	</node>
	<node id="-793960" lat="70.2857972203" lon="21.5455055218">
		<tag k="name" v="Kvitheia" />
		<tag k="natural" v="hill" />
		<tag k="place" v="locality" />
		<tag k="ssr:stedsnr" v="878883" />
	</node>
	<node id="-794065" lat="70.3097000036" lon="22.0714971838">
		<tag k="fixme" v="consider natural=peak for the most distinct mountains in the district" />
		<tag k="name" v="Nuvneskollen - Nuvavárri" />
		<tag k="name:no" v="Nuvneskollen" />
		<tag k="name:se" v="Nuvavárri" />
		<tag k="natural" v="hill" />
		<tag k="old_name:se" v="Nuvavarri" />
		<tag k="place" v="locality" />
		<tag k="ssr:stedsnr" v="870261" />
	</node>
	<node id="-794470" lat="70.2006361116" lon="22.087569389">
		<tag k="fixme" v="consider natural=peak for the most distinct mountains in the district" />
		<tag k="name" v="Middagstind" />
		<tag k="natural" v="hill" />
		<tag k="place" v="locality" />
		<tag k="ssr:stedsnr" v="626273" />
	</node>
	<node id="-794469" lat="70.1997805586" lon="21.7119916289">
		<tag k="fixme" v="consider natural=peak for the most distinct mountains in the district" />
		<tag k="name" v="Viđolbmočohkat" />
		<tag k="name:se" v="Viđolbmočohkat" />
		<tag k="natural" v="hill" />
		<tag k="old_name:se" v="Viđålbmučåkkat" />
		<tag k="place" v="locality" />
		<tag k="ssr:stedsnr" v="626268" />
	</node>
	<node id="-794468" lat="70.3498277777" lon="21.7646221783">
		<tag k="name" v="Sildadalen - Sirddavággi" />
		<tag k="name:no" v="Sildadalen" />
		<tag k="name:se" v="Sirddavággi" />
		<tag k="natural" v="valley" />
		<tag k="old_name:se" v="Sirdavaggi" />
		<tag k="place" v="locality" />
		<tag k="ssr:stedsnr" v="626266" />
	</node>
	<node id="-794465" lat="70.2918500059" lon="21.8774721808">
		<tag k="alt_name:no" v="Hunddalen, yt" />
		<tag k="name" v="Ytre Hunddalen - Olggut Beatnatgohpi" />
		<tag k="name:no" v="Ytre Hunddalen" />
		<tag k="name:se" v="Olggut Beatnatgohpi" />
		<tag k="natural" v="valley" />
		<tag k="old_name:se" v="Bædnatgåppi ålgut" />
		<tag k="place" v="locality" />
		<tag k="ssr:stedsnr" v="626262" />
	</node>
	<node id="-794462" lat="70.2703333391" lon="21.8553944046">
		<tag k="name" v="Ersdalen - Heasttalvággi" />
		<tag k="name:no" v="Ersdalen" />
		<tag k="name:se" v="Heasttalvággi" />
		<tag k="natural" v="valley" />
		<tag k="old_name:se" v="Hæstalvaggi" />
		<tag k="place" v="locality" />
		<tag k="ssr:stedsnr" v="626246" />
	</node>
	<node id="-793946" lat="70.1538305547" lon="22.3226360494">
		<tag k="name" v="Skardberget" />
		<tag k="natural" v="hill" />
		<tag k="place" v="locality" />
		<tag k="ssr:stedsnr" v="713494" />
	</node>
	<node id="-794457" lat="70.2564444447" lon="22.1681471866">
		<tag k="fixme" v="consider natural=peak for the most distinct mountains in the district" />
		<tag k="name" v="Smaltind" />
		<tag k="natural" v="hill" />
		<tag k="place" v="locality" />
		<tag k="ssr:stedsnr" v="626232" />
	</node>
	<node id="-793943" lat="70.2358805564" lon="21.2468249823">
		<tag k="name" v="Buskaret" />
		<tag k="natural" v="valley" />
		<tag k="place" v="locality" />
		<tag k="ssr:stedsnr" v="713186" />
	</node>
	<node id="-793941" lat="70.1707555549" lon="21.8053277273">
		<tag k="name" v="Indre Trolldalen" />
		<tag k="natural" v="valley" />
		<tag k="place" v="locality" />
		<tag k="ssr:stedsnr" v="578926" />
	</node>
	<node id="-794452" lat="70.2438694442" lon="22.3868027327">
		<tag k="name" v="Rássevággi" />
		<tag k="name:se" v="Rássevággi" />
		<tag k="natural" v="valley" />
		<tag k="old_name:se" v="Rassevaggi" />
		<tag k="place" v="locality" />
		<tag k="ssr:stedsnr" v="625472" />
	</node>
	<node id="-794451" lat="70.2629388889" lon="21.3820221878">
		<tag k="fixme" v="consider natural=peak for the most distinct mountains in the district" />
		<tag k="name" v="Isfjellet" />
		<tag k="natural" v="hill" />
		<tag k="place" v="locality" />
		<tag k="ssr:stedsnr" v="625293" />
	</node>
	<node id="-794447" lat="70.1535888926" lon="21.8884416342">
		<tag k="fixme" v="consider natural=peak for the most distinct mountains in the district" />
		<tag k="name" v="Ámmagáisá" />
		<tag k="name:se" v="Ámmagáisá" />
		<tag k="natural" v="hill" />
		<tag k="old_name:se" v="Ammagaisa" />
		<tag k="place" v="locality" />
		<tag k="ssr:stedsnr" v="625277" />
	</node>
	<node id="-794446" lat="70.201813893" lon="21.3596083166">
		<tag k="name" v="Daudmannsdalen" />
		<tag k="natural" v="valley" />
		<tag k="place" v="locality" />
		<tag k="ssr:stedsnr" v="625177" />
	</node>
	<node id="-794443" lat="70.1846166681" lon="21.4921638588">
		<tag k="name" v="Bjørnlihaugen" />
		<tag k="natural" v="hill" />
		<tag k="place" v="locality" />
		<tag k="ssr:stedsnr" v="625165" />
	</node>
	<node id="-793930" lat="70.1180083336" lon="22.5718054926">
		<tag k="name" v="Skárpavággi" />
		<tag k="name:se" v="Skárpavággi" />
		<tag k="natural" v="valley" />
		<tag k="old_name:se" v="Skarpavaggi" />
		<tag k="place" v="locality" />
		<tag k="ssr:stedsnr" v="687564" />
	</node>
	<node id="-793958" lat="70.3344361087" lon="21.4009721846">
		<tag k="name" v="Skarvesteinen" />
		<tag k="natural" v="hill" />
		<tag k="place" v="locality" />
		<tag k="ssr:stedsnr" v="653129" />
	</node>
	<node id="-794440" lat="70.2271444469" lon="21.5309805356">
		<tag k="name" v="Buktedalen" />
		<tag k="natural" v="valley" />
		<tag k="place" v="locality" />
		<tag k="ssr:stedsnr" v="625121" />
	</node>
	<node id="-793996" lat="70.2879222203" lon="21.9055499682">
		<tag k="fixme" v="consider natural=peak for the most distinct mountains in the district" />
		<tag k="name" v="Gunnartinden" />
		<tag k="natural" v="hill" />
		<tag k="place" v="locality" />
		<tag k="ssr:stedsnr" v="748255" />
	</node>
	<node id="-793925" lat="70.1583750045" lon="22.3600249487">
		<tag k="name" v="Liafjellet" />
		<tag k="natural" v="hill" />
		<tag k="place" v="locality" />
		<tag k="ssr:stedsnr" v="687411" />
	</node>
	<node id="-793924" lat="70.1559138938" lon="22.3281554987">
		<tag k="name" v="Bárdi" />
		<tag k="name:se" v="Bárdi" />
		<tag k="natural" v="hill" />
		<tag k="old_name:se" v="Bardi" />
		<tag k="place" v="locality" />
		<tag k="ssr:stedsnr" v="687409" />
	</node>
	<node id="-793923" lat="70.2406666687" lon="22.1533527238">
		<tag k="alt_name" v="Breidtind" />
		<tag k="fixme" v="consider natural=peak for the most distinct mountains in the district" />
		<tag k="name" v="Breitind" />
		<tag k="natural" v="hill" />
		<tag k="place" v="locality" />
		<tag k="ssr:stedsnr" v="687377" />
	</node>
	<node id="-794434" lat="70.3455638922" lon="21.4177055159">
		<tag k="name" v="Sauhallen" />
		<tag k="natural" v="hill" />
		<tag k="place" v="locality" />
		<tag k="ssr:stedsnr" v="592164" />
	</node>
	<node id="-793825" lat="70.1553722209" lon="22.3750332845">
		<tag k="name" v="Vasslien" />
		<tag k="natural" v="slope" />
		<tag k="place" v="locality" />
		<tag k="ssr:stedsnr" v="470496" />
	</node>
	<node id="-793919" lat="70.3076277768" lon="21.4911555299">
		<tag k="name" v="Svartoksen" />
		<tag k="natural" v="hill" />
		<tag k="place" v="locality" />
		<tag k="ssr:stedsnr" v="687342" />
	</node>
	<node id="-793916" lat="70.3441888929" lon="21.4217916518">
		<tag k="alt_name" v="Rekskardet" />
		<tag k="name" v="Rekskaret" />
		<tag k="natural" v="valley" />
		<tag k="place" v="locality" />
		<tag k="ssr:stedsnr" v="687331" />
	</node>
	<node id="-793738" lat="70.2401944498" lon="21.2527333007">
		<tag k="name" v="Bollvikhaugen" />
		<tag k="natural" v="hill" />
		<tag k="place" v="locality" />
		<tag k="ssr:stedsnr" v="288191" />
	</node>
	<node id="-794333" lat="70.2144722211" lon="22.1228832779">
		<tag k="name" v="Fjorddalen - Cuokcavuonvággi" />
		<tag k="name:no" v="Fjorddalen" />
		<tag k="name:se" v="Cuokcavuonvággi" />
		<tag k="natural" v="valley" />
		<tag k="old_name:se" v="Cuokcavuonvaggi" />
		<tag k="place" v="locality" />
		<tag k="ssr:stedsnr" v="383283" />
	</node>
	<node id="-794424" lat="70.2886972256" lon="22.180077725">
		<tag k="name" v="Vannbergan" />
		<tag k="natural" v="hill" />
		<tag k="place" v="locality" />
		<tag k="ssr:stedsnr" v="577784" />
	</node>
	<node id="-794421" lat="70.3213638879" lon="21.550741646">
		<tag k="name" v="Kvalen" />
		<tag k="natural" v="hill" />
		<tag k="place" v="locality" />
		<tag k="ssr:stedsnr" v="575838" />
	</node>
	<node id="-793908" lat="70.2104805562" lon="21.7616499652">
		<tag k="name" v="Kråkberget - Gáranasbákti" />
		<tag k="name:no" v="Kråkberget" />
		<tag k="name:se" v="Gáranasbákti" />
		<tag k="natural" v="hill" />
		<tag k="old_name:se" v="Garanasbakti" />
		<tag k="place" v="locality" />
		<tag k="ssr:stedsnr" v="687257" />
	</node>
	<node id="-794419" lat="70.2135111118" lon="21.6526166237">
		<tag k="fixme" v="consider natural=peak for the most distinct mountains in the district" />
		<tag k="name" v="Tinnan" />
		<tag k="natural" v="hill" />
		<tag k="ssr:stedsnr" v="574929" />
	</node>
	<node id="-794417" lat="70.3046361175" lon="22.4217305001">
		<tag k="fixme" v="consider natural=peak for the most distinct mountains in the district" />
		<tag k="name" v="Helletinden - Heallogáisá" />
		<tag k="name:no" v="Helletinden" />
		<tag k="name:se" v="Heallogáisá" />
		<tag k="natural" v="hill" />
		<tag k="old_name:se" v="Hællugaisa" />
		<tag k="place" v="locality" />
		<tag k="ssr:stedsnr" v="571118" />
	</node>
	<node id="-793992" lat="70.1735333322" lon="22.3129055">
		<tag k="alt_name" v="Ranhaugen" />
		<tag k="name" v="Ramnhaugen" />
		<tag k="natural" v="hill" />
		<tag k="place" v="locality" />
		<tag k="ssr:stedsnr" v="747405" />
	</node>
	<node id="-794413" lat="70.1954388924" lon="21.5948471889">
		<tag k="name" v="Bjørndalen - Muottavággi" />
		<tag k="name:no" v="Bjørndalen" />
		<tag k="name:se" v="Muottavággi" />
		<tag k="natural" v="valley" />
		<tag k="old_name:se" v="Muoddavaggi" />
		<tag k="place" v="locality" />
		<tag k="ssr:stedsnr" v="570349" />
	</node>
	<node id="-794412" lat="70.3232083336" lon="21.9695444041">
		<tag k="fixme" v="consider natural=peak for the most distinct mountains in the district" />
		<tag k="name" v="Staurfjellet" />
		<tag k="natural" v="hill" />
		<tag k="place" v="locality" />
		<tag k="ssr:stedsnr" v="566298" />
	</node>
	<node id="-794411" lat="70.3202916709" lon="21.9787166422">
		<tag k="name" v="Gammelværdalen - Lávvordatvággi" />
		<tag k="name:no" v="Gammelværdalen" />
		<tag k="name:se" v="Lávvordatvággi" />
		<tag k="natural" v="valley" />
		<tag k="old_name:se" v="Lavvurdatvaggi" />
		<tag k="place" v="locality" />
		<tag k="ssr:stedsnr" v="566296" />
	</node>
	<node id="-793898" lat="70.1813611172" lon="22.3253499438">
		<tag k="name" v="Knappen" />
		<tag k="natural" v="hill" />
		<tag k="place" v="locality" />
		<tag k="ssr:stedsnr" v="686398" />
	</node>
	<node id="-794409" lat="70.3021222238" lon="22.047266628">
		<tag k="name" v="Falkberget" />
		<tag k="natural" v="hill" />
		<tag k="place" v="locality" />
		<tag k="ssr:stedsnr" v="566250" />
	</node>
	<node id="-794408" lat="70.2711749998" lon="21.7288499538">
		<tag k="name" v="Máttaskoarru" />
		<tag k="name:se" v="Máttaskoarru" />
		<tag k="natural" v="valley" />
		<tag k="old_name:se" v="Maddaskoarro" />
		<tag k="place" v="locality" />
		<tag k="ssr:stedsnr" v="566246" />
	</node>
	<node id="-794407" lat="70.2719416709" lon="21.7114749553">
		<tag k="name" v="Stuoravuonroggi" />
		<tag k="name:se" v="Stuoravuonroggi" />
		<tag k="natural" v="valley" />
		<tag k="old_name:se" v="Stuoravuonråggi" />
		<tag k="place" v="locality" />
		<tag k="ssr:stedsnr" v="566242" />
	</node>
	<node id="-794406" lat="70.2752305552" lon="21.8901555108">
		<tag k="fixme" v="multiple name tags, choose one and add the other to alt_name; consider natural=peak for the most distinct mountains in the district" />
		<tag k="name" v="Beatnatgohppi;Beatnatgobirášša" />
		<tag k="name:se" v="Beatnatgohppi;Beatnatgobirášša" />
		<tag k="natural" v="hill" />
		<tag k="old_name:se" v="Bædnatgåbirašša;Bædnagoppe" />
		<tag k="place" v="locality" />
		<tag k="ssr:stedsnr" v="566238" />
	</node>
	<node id="-793893" lat="70.2104250002" lon="21.3793499851">
		<tag k="fixme" v="consider natural=peak for the most distinct mountains in the district" />
		<tag k="name" v="Støltind" />
		<tag k="natural" v="hill" />
		<tag k="place" v="locality" />
		<tag k="ssr:stedsnr" v="686173" />
	</node>
	<node id="-793892" lat="70.2063861114" lon="21.4666305274">
		<tag k="name" v="Brosmeberget" />
		<tag k="natural" v="hill" />
		<tag k="place" v="locality" />
		<tag k="ssr:stedsnr" v="686171" />
	</node>
	<node id="-793891" lat="70.2037444433" lon="21.4404055383">
		<tag k="fixme" v="consider natural=peak for the most distinct mountains in the district" />
		<tag k="name" v="Riebangáisá" />
		<tag k="name:se" v="Riebangáisá" />
		<tag k="natural" v="hill" />
		<tag k="old_name:se" v="Riebangaisa" />
		<tag k="place" v="locality" />
		<tag k="ssr:stedsnr" v="686165" />
	</node>
	<node id="-793890" lat="70.2370749971" lon="21.3640971923">
		<tag k="fixme" v="consider natural=peak for the most distinct mountains in the district" />
		<tag k="name" v="Stølfjellet - Skerttetnjunni" />
		<tag k="name:no" v="Stølfjellet" />
		<tag k="name:se" v="Skerttetnjunni" />
		<tag k="natural" v="hill" />
		<tag k="old_name:se" v="Skertetnjunni" />
		<tag k="place" v="locality" />
		<tag k="ssr:stedsnr" v="686118" />
	</node>
	<node id="-793889" lat="70.2226277814" lon="21.3082138538">
		<tag k="fixme" v="consider natural=peak for the most distinct mountains in the district" />
		<tag k="name" v="Andsnesfjellet" />
		<tag k="natural" v="hill" />
		<tag k="place" v="locality" />
		<tag k="ssr:stedsnr" v="686114" />
	</node>
	<node id="-794400" lat="70.2498138917" lon="21.6226110749">
		<tag k="name" v="Svartbergflaten" />
		<tag k="natural" v="hill" />
		<tag k="place" v="locality" />
		<tag k="ssr:stedsnr" v="565344" />
	</node>
	<node id="-794398" lat="70.2853111082" lon="21.5287360833">
		<tag k="name" v="Hettekeildalen" />
		<tag k="natural" v="valley" />
		<tag k="place" v="locality" />
		<tag k="ssr:stedsnr" v="565283" />
	</node>
	<node id="-794396" lat="70.1775861106" lon="21.7665332969">
		<tag k="name" v="Skardet" />
		<tag k="natural" v="valley" />
		<tag k="place" v="locality" />
		<tag k="ssr:stedsnr" v="565259" />
	</node>
	<node id="-793883" lat="70.3650361163" lon="21.4465221891">
		<tag k="name" v="Storsletta" />
		<tag k="place" v="locality" />
		<tag k="ssr:stedsnr" v="457520" />
	</node>
	<node id="-793903" lat="70.2170861125" lon="21.933822176">
		<tag k="alt_name:no" v="Tverrfjorddalen, nordre" />
		<tag k="name" v="Nordre Tverrfjorddalen - Sámevuonvággi" />
		<tag k="name:no" v="Nordre Tverrfjorddalen" />
		<tag k="name:se" v="Sámevuonvággi" />
		<tag k="natural" v="valley" />
		<tag k="old_name:se" v="Samevuonvaggi" />
		<tag k="place" v="locality" />
		<tag k="ssr:stedsnr" v="687246" />
	</node>
	<node id="-793719" lat="70.3172916697" lon="21.6937749612">
		<tag k="name" v="Bukkelidalen" />
		<tag k="natural" v="valley" />
		<tag k="place" v="locality" />
		<tag k="ssr:stedsnr" v="263309" />
	</node>
	<node id="-793878" lat="70.3053527751" lon="21.9551360779">
		<tag k="fixme" v="consider natural=peak for the most distinct mountains in the district" />
		<tag k="name" v="Lørsnesfjellet" />
		<tag k="natural" v="hill" />
		<tag k="place" v="locality" />
		<tag k="ssr:stedsnr" v="518876" />
	</node>
	<node id="-794389" lat="70.2640500022" lon="21.8906110734">
		<tag k="fixme" v="consider natural=peak for the most distinct mountains in the district" />
		<tag k="name" v="Tverrflåget" />
		<tag k="natural" v="hill" />
		<tag k="place" v="locality" />
		<tag k="ssr:stedsnr" v="565191" />
	</node>
	<node id="-793876" lat="70.294452775" lon="21.5437110733">
		<tag k="name" v="Lilledalen" />
		<tag k="natural" v="valley" />
		<tag k="place" v="locality" />
		<tag k="ssr:stedsnr" v="514827" />
	</node>
	<node id="-793875" lat="70.2473833374" lon="21.8030916378">
		<tag k="fixme" v="consider natural=peak for the most distinct mountains in the district" />
		<tag k="name" v="Lille-Kollaren" />
		<tag k="natural" v="hill" />
		<tag k="place" v="locality" />
		<tag k="ssr:stedsnr" v="513537" />
	</node>
	<node id="-793987" lat="70.2257305543" lon="21.5025027372">
		<tag k="name" v="Middagshaugen" />
		<tag k="natural" v="hill" />
		<tag k="place" v="locality" />
		<tag k="ssr:stedsnr" v="747110" />
	</node>
	<node id="-793871" lat="70.1951777753" lon="21.5698721852">
		<tag k="fixme" v="consider natural=peak for the most distinct mountains in the district" />
		<tag k="name" v="Middagsfjellet - Geretgáisá" />
		<tag k="name:no" v="Middagsfjellet" />
		<tag k="name:se" v="Geretgáisá" />
		<tag k="natural" v="hill" />
		<tag k="old_name:se" v="Geretgaisa" />
		<tag k="place" v="locality" />
		<tag k="ssr:stedsnr" v="509152" />
	</node>
	<node id="-793869" lat="70.2992944429" lon="21.5369972007">
		<tag k="fixme" v="consider natural=peak for the most distinct mountains in the district" />
		<tag k="name" v="Storaksla - Njárgavárri" />
		<tag k="name:no" v="Storaksla" />
		<tag k="name:se" v="Njárgavárri" />
		<tag k="natural" v="hill" />
		<tag k="old_name:se" v="Njargavarri" />
		<tag k="place" v="locality" />
		<tag k="ssr:stedsnr" v="505352" />
	</node>
	<node id="-794379" lat="70.2145749988" lon="22.4050749532">
		<tag k="name" v="Fasttalvággi" />
		<tag k="name:se" v="Fasttalvággi" />
		<tag k="natural" v="valley" />
		<tag k="old_name:se" v="Fastalvaggi" />
		<tag k="place" v="locality" />
		<tag k="ssr:stedsnr" v="564382" />
	</node>
	<node id="-793866" lat="70.2588305565" lon="22.1315388581">
		<tag k="name" v="Skavdalen - Čuita" />
		<tag k="name:no" v="Skavdalen" />
		<tag k="name:se" v="Čuita" />
		<tag k="natural" v="valley" />
		<tag k="place" v="locality" />
		<tag k="ssr:stedsnr" v="505226" />
	</node>
	<node id="-793900" lat="70.0770333356" lon="22.2167027363">
		<tag k="fixme" v="consider natural=peak for the most distinct mountains in the district" />
		<tag k="name" v="Ruselvtind" />
		<tag k="natural" v="hill" />
		<tag k="place" v="locality" />
		<tag k="ssr:stedsnr" v="686457" />
	</node>
	<node id="-793862" lat="70.2105305605" lon="22.1690110593">
		<tag k="name" v="Tverrfjorddalen - Doaresvuonvággi" />
		<tag k="name:no" v="Tverrfjorddalen" />
		<tag k="name:se" v="Doaresvuonvággi" />
		<tag k="natural" v="valley" />
		<tag k="old_name:se" v="Doaresvuonvaggi" />
		<tag k="place" v="locality" />
		<tag k="ssr:stedsnr" v="505266" />
	</node>
	<node id="-794070" lat="70.2995527758" lon="22.459466621">
		<tag k="fixme" v="consider natural=peak for the most distinct mountains in the district" />
		<tag k="name" v="Moltebergtoppen" />
		<tag k="natural" v="hill" />
		<tag k="place" v="locality" />
		<tag k="ssr:stedsnr" v="930126" />
	</node>
	<node id="-794539" lat="70.3510388866" lon="21.4411082901">
		<tag k="name" v="Bjørndalen" />
		<tag k="natural" v="valley" />
		<tag k="place" v="locality" />
		<tag k="ssr:stedsnr" v="774167" />
	</node>
	<node id="-793899" lat="70.1667638921" lon="22.3537888302">
		<tag k="name" v="Hávnnavággi" />
		<tag k="name:se" v="Hávnnavággi" />
		<tag k="natural" v="valley" />
		<tag k="old_name:se" v="Havnavaggi" />
		<tag k="place" v="locality" />
		<tag k="ssr:stedsnr" v="686420" />
	</node>
	<node id="-793728" lat="70.1564138913" lon="22.5506527169">
		<tag k="fixme" v="consider natural=peak for the most distinct mountains in the district" />
		<tag k="name" v="Langfjordfjellet - Láhttárvárri" />
		<tag k="name:no" v="Langfjordfjellet" />
		<tag k="name:se" v="Láhttárvárri" />
		<tag k="natural" v="hill" />
		<tag k="old_name:se" v="Lattarvarri" />
		<tag k="place" v="locality" />
		<tag k="ssr:stedsnr" v="146367" />
	</node>
	<node id="-794366" lat="70.3375055562" lon="21.4570333115">
		<tag k="name" v="Ulichlien" />
		<tag k="natural" v="slope" />
		<tag k="place" v="locality" />
		<tag k="ssr:stedsnr" v="410156" />
	</node>
	<node id="-793850" lat="70.2304916653" lon="21.6751610812">
		<tag k="fixme" v="multiple name tags, choose one and add the other to alt_name; consider natural=peak for the most distinct mountains in the district" />
		<tag k="name" v="Bjørnviktind;Offirfjellet" />
		<tag k="natural" v="hill" />
		<tag k="place" v="locality" />
		<tag k="ssr:stedsnr" v="504347" />
	</node>
	<node id="-793849" lat="70.2473944483" lon="22.0402166296">
		<tag k="name" v="Brattnesdalen - Ráhttonasvággi" />
		<tag k="name:no" v="Brattnesdalen" />
		<tag k="name:se" v="Ráhttonasvággi" />
		<tag k="natural" v="valley" />
		<tag k="old_name:se" v="Rattunasvaggi" />
		<tag k="place" v="locality" />
		<tag k="ssr:stedsnr" v="504346" />
	</node>
	<node id="-793846" lat="70.1362111119" lon="22.1426305099">
		<tag k="fixme" v="consider natural=peak for the most distinct mountains in the district" />
		<tag k="name" v="Hárji" />
		<tag k="name:se" v="Hárji" />
		<tag k="natural" v="hill" />
		<tag k="old_name:se" v="Harji" />
		<tag k="place" v="locality" />
		<tag k="ssr:stedsnr" v="504250" />
	</node>
	<node id="-793845" lat="70.2570083341" lon="21.3593805206">
		<tag k="name" v="Skjerdingdalen - Skerttetvággi" />
		<tag k="name:no" v="Skjerdingdalen" />
		<tag k="name:se" v="Skerttetvággi" />
		<tag k="natural" v="valley" />
		<tag k="old_name:se" v="Skertetvaggi" />
		<tag k="place" v="locality" />
		<tag k="ssr:stedsnr" v="504249" />
	</node>
	<node id="-794354" lat="70.3161777835" lon="21.5522749664">
		<tag k="fixme" v="consider natural=peak for the most distinct mountains in the district" />
		<tag k="name" v="Øraksla" />
		<tag k="natural" v="hill" />
		<tag k="place" v="locality" />
		<tag k="ssr:stedsnr" v="393834" />
	</node>
	<node id="-794353" lat="70.278786113" lon="21.5534305346">
		<tag k="name" v="Mikkelliene" />
		<tag k="natural" v="slope" />
		<tag k="place" v="locality" />
		<tag k="ssr:stedsnr" v="393861" />
	</node>
	<node id="-793840" lat="70.2188555606" lon="21.2576249736">
		<tag k="alt_name" v="Kista" />
		<tag k="name" v="Hatten" />
		<tag k="natural" v="hill" />
		<tag k="place" v="locality" />
		<tag k="ssr:stedsnr" v="504156" />
	</node>
	<node id="-793839" lat="70.1930222251" lon="21.4672749805">
		<tag k="name" v="Langdalen" />
		<tag k="natural" v="valley" />
		<tag k="place" v="locality" />
		<tag k="ssr:stedsnr" v="504143" />
	</node>
	<node id="-793836" lat="70.3311444488" lon="21.7685055201">
		<tag k="fixme" v="consider natural=peak for the most distinct mountains in the district" />
		<tag k="name" v="Kleivfjellet" />
		<tag k="natural" v="hill" />
		<tag k="place" v="locality" />
		<tag k="ssr:stedsnr" v="384264" />
	</node>
	<node id="-793835" lat="70.2283166675" lon="22.3645332846">
		<tag k="name" v="Vassdalen" />
		<tag k="natural" v="valley" />
		<tag k="place" v="locality" />
		<tag k="ssr:stedsnr" v="349634" />
	</node>
	<node id="-793895" lat="70.1215638889" lon="21.8714666262">
		<tag k="fixme" v="consider natural=peak for the most distinct mountains in the district" />
		<tag k="name" v="Storfjellet" />
		<tag k="natural" v="hill" />
		<tag k="place" v="locality" />
		<tag k="ssr:stedsnr" v="686269" />
	</node>
	<node id="-794342" lat="70.1279305525" lon="22.4208721783">
		<tag k="name" v="Sarvvesvággi" />
		<tag k="name:se" v="Sarvvesvággi" />
		<tag k="natural" v="valley" />
		<tag k="old_name:se" v="Sarvesvaggi" />
		<tag k="place" v="locality" />
		<tag k="ssr:stedsnr" v="383440" />
	</node>
	<node id="-794341" lat="70.1582527819" lon="22.4856554914">
		<tag k="fixme" v="consider natural=peak for the most distinct mountains in the district" />
		<tag k="name" v="Hesjenesfjellet - Stuorvikhárji" />
		<tag k="name:no" v="Hesjenesfjellet" />
		<tag k="name:se" v="Stuorvikhárji" />
		<tag k="natural" v="hill" />
		<tag k="old_name:se" v="Stuorvikharji" />
		<tag k="place" v="locality" />
		<tag k="ssr:stedsnr" v="383428" />
	</node>
	<node id="-793828" lat="70.2411749977" lon="21.270302742">
		<tag k="fixme" v="consider natural=peak for the most distinct mountains in the district" />
		<tag k="name" v="Nakken" />
		<tag k="natural" v="hill" />
		<tag k="place" v="locality" />
		<tag k="ssr:stedsnr" v="322122" />
	</node>
	<node id="-793826" lat="70.3445444499" lon="21.4124638524">
		<tag k="name" v="Rødberg" />
		<tag k="natural" v="hill" />
		<tag k="place" v="locality" />
		<tag k="ssr:stedsnr" v="471158" />
	</node>
	<node id="-794337" lat="70.3390527749" lon="21.4138444234">
		<tag k="fixme" v="consider natural=peak for the most distinct mountains in the district" />
		<tag k="name" v="Rektind" />
		<tag k="natural" v="hill" />
		<tag k="place" v="locality" />
		<tag k="ssr:stedsnr" v="383328" />
	</node>
	<node id="-794336" lat="70.3838750005" lon="21.7105360917">
		<tag k="fixme" v="consider natural=peak for the most distinct mountains in the district" />
		<tag k="name" v="Stortinden" />
		<tag k="natural" v="hill" />
		<tag k="place" v="locality" />
		<tag k="ssr:stedsnr" v="383317" />
	</node>
	<node id="-794405" lat="70.2740861103" lon="21.8889166397">
		<tag k="fixme" v="consider natural=peak for the most distinct mountains in the district" />
		<tag k="name" v="Hunddalfjellan" />
		<tag k="natural" v="hill" />
		<tag k="place" v="locality" />
		<tag k="ssr:stedsnr" v="566237" />
	</node>
	<node id="-794332" lat="70.2173277796" lon="22.153591623">
		<tag k="name" v="Magnusskardet - Mávnnosčahca" />
		<tag k="name:no" v="Magnusskardet" />
		<tag k="name:se" v="Mávnnosčahca" />
		<tag k="natural" v="valley" />
		<tag k="old_name:se" v="Mavnusčacca" />
		<tag k="place" v="locality" />
		<tag k="ssr:stedsnr" v="383276" />
	</node>
	<node id="-794331" lat="70.253683337" lon="22.1814888434">
		<tag k="name" v="Isdalen" />
		<tag k="natural" v="valley" />
		<tag k="place" v="locality" />
		<tag k="ssr:stedsnr" v="383235" />
	</node>
	<node id="-794330" lat="70.1894861138" lon="21.49327498">
		<tag k="name" v="Rabben" />
		<tag k="natural" v="hill" />
		<tag k="place" v="locality" />
		<tag k="ssr:stedsnr" v="383185" />
	</node>
	<node id="-793722" lat="70.2437638891" lon="21.9455138402">
		<tag k="fixme" v="consider natural=peak for the most distinct mountains in the district" />
		<tag k="name" v="Storfjellet - Vággevuođočohkka" />
		<tag k="name:no" v="Storfjellet" />
		<tag k="name:se" v="Vággevuođočohkka" />
		<tag k="natural" v="hill" />
		<tag k="old_name:se" v="Vaggevuođučåkka" />
		<tag k="place" v="locality" />
		<tag k="ssr:stedsnr" v="267308" />
	</node>
	<node id="-794328" lat="70.228361111" lon="21.3963638477">
		<tag k="name" v="Støldalen" />
		<tag k="natural" v="valley" />
		<tag k="place" v="locality" />
		<tag k="ssr:stedsnr" v="383123" />
	</node>
	<node id="-794327" lat="70.2775305598" lon="22.2714027249">
		<tag k="name" v="Sanddalen" />
		<tag k="natural" v="valley" />
		<tag k="place" v="locality" />
		<tag k="ssr:stedsnr" v="383108" />
	</node>
	<node id="-794340" lat="70.3108111143" lon="21.491877758">
		<tag k="name" v="Lauksletta" />
		<tag k="place" v="locality" />
		<tag k="ssr:stedsnr" v="383349" />
	</node>
	<node id="-794305" lat="70.2902166672" lon="21.5006721829">
		<tag k="fixme" v="consider natural=peak for the most distinct mountains in the district" />
		<tag k="name" v="Seavššnjárga" />
		<tag k="name:se" v="Seavššnjárga" />
		<tag k="natural" v="hill" />
		<tag k="old_name:se" v="Sævšnjarga" />
		<tag k="place" v="locality" />
		<tag k="ssr:stedsnr" v="323329" />
	</node>
	<node id="-794321" lat="70.361350006" lon="21.4305860734">
		<tag k="name" v="Ytterværdalen" />
		<tag k="natural" v="valley" />
		<tag k="place" v="locality" />
		<tag k="ssr:stedsnr" v="349145" />
	</node>
	<node id="-794320" lat="70.3400611151" lon="21.4494999637">
		<tag k="name" v="Møneshøyden" />
		<tag k="natural" v="hill" />
		<tag k="place" v="locality" />
		<tag k="ssr:stedsnr" v="349193" />
	</node>
	<node id="-794077" lat="70.2118583349" lon="22.0846916302">
		<tag k="fixme" v="consider natural=peak for the most distinct mountains in the district" />
		<tag k="name" v="Midtfjellet - Vuonahárji" />
		<tag k="name:no" v="Midtfjellet" />
		<tag k="name:se" v="Vuonahárji" />
		<tag k="natural" v="hill" />
		<tag k="old_name:se" v="Vuonaharji" />
		<tag k="place" v="locality" />
		<tag k="ssr:stedsnr" v="19231" />
	</node>
	<node id="-793803" lat="70.0744305607" lon="22.1655777428">
		<tag k="fixme" v="consider natural=peak for the most distinct mountains in the district" />
		<tag k="name" v="Ruselvfjellet - Ruoššavárri" />
		<tag k="name:no" v="Ruselvfjellet" />
		<tag k="name:se" v="Ruoššavárri" />
		<tag k="natural" v="hill" />
		<tag k="old_name:se" v="Ruoššavarri" />
		<tag k="place" v="locality" />
		<tag k="ssr:stedsnr" v="449172" />
	</node>
	<node id="-794313" lat="70.3639305568" lon="21.4001110748">
		<tag k="alt_name" v="Fjellavløsningen" />
		<tag k="name" v="Fjellavløysingen" />
		<tag k="natural" v="hill" />
		<tag k="place" v="locality" />
		<tag k="ssr:stedsnr" v="336537" />
	</node>
	<node id="-794311" lat="70.2331361111" lon="21.8018221751">
		<tag k="name" v="Fruvikskaret" />
		<tag k="natural" v="valley" />
		<tag k="place" v="locality" />
		<tag k="ssr:stedsnr" v="332854" />
	</node>
	<node id="-794309" lat="70.1103472211" lon="22.4920860559">
		<tag k="fixme" v="consider natural=peak for the most distinct mountains in the district" />
		<tag k="name" v="Giđđavárri" />
		<tag k="name:se" v="Giđđavárri" />
		<tag k="natural" v="hill" />
		<tag k="old_name:se" v="Giđđavarri" />
		<tag k="place" v="locality" />
		<tag k="ssr:stedsnr" v="323559" />
	</node>
	<node id="-793793" lat="70.1137388938" lon="22.5391388228">
		<tag k="name" v="Čoallemohkki" />
		<tag k="name:se" v="Čoallemohkki" />
		<tag k="natural" v="valley" />
		<tag k="old_name:se" v="Čoallemåkki" />
		<tag k="place" v="locality" />
		<tag k="ssr:stedsnr" v="444530" />
	</node>
	<node id="-793791" lat="70.0968444511" lon="22.4150249405">
		<tag k="fixme" v="consider natural=peak for the most distinct mountains in the district" />
		<tag k="name" v="Dáhpeluovttvárri" />
		<tag k="name:se" v="Dáhpeluovttvárri" />
		<tag k="natural" v="hill" />
		<tag k="old_name:se" v="Dappeluovtvarri;Dappeluovárri" />
		<tag k="place" v="locality" />
		<tag k="ssr:stedsnr" v="444523" />
	</node>
	<node id="-793790" lat="70.0910666705" lon="22.5329443858">
		<tag k="fixme" v="consider natural=peak for the most distinct mountains in the district" />
		<tag k="name" v="Rivarfjellet - Riidavárri" />
		<tag k="name:no" v="Rivarfjellet" />
		<tag k="name:se" v="Riidavárri" />
		<tag k="natural" v="hill" />
		<tag k="old_name:se" v="Riidavarri" />
		<tag k="place" v="locality" />
		<tag k="ssr:stedsnr" v="444514" />
	</node>
	<node id="-793940" lat="70.1450416635" lon="22.2227582943">
		<tag k="fixme" v="consider natural=peak for the most distinct mountains in the district" />
		<tag k="name" v="Vátteshárji" />
		<tag k="name:se" v="Vátteshárji" />
		<tag k="natural" v="hill" />
		<tag k="old_name:se" v="Vaddesharji" />
		<tag k="place" v="locality" />
		<tag k="ssr:stedsnr" v="565409" />
	</node>
	<node id="-793788" lat="70.2408138941" lon="22.3838666214">
		<tag k="name" v="Rássoalgi" />
		<tag k="name:se" v="Rássoalgi" />
		<tag k="natural" v="hill" />
		<tag k="old_name:se" v="Rassoalgi" />
		<tag k="place" v="locality" />
		<tag k="ssr:stedsnr" v="444476" />
	</node>
	<node id="-794058" lat="70.2066472207" lon="22.2664749587">
		<tag k="name" v="Hella" />
		<tag k="place" v="locality" />
		<tag k="ssr:stedsnr" v="944299" />
	</node>
	<node id="-793786" lat="70.1706027814" lon="22.2292110632">
		<tag k="name" v="Storelvdalen - Stuorajuovva" />
		<tag k="name:no" v="Storelvdalen" />
		<tag k="name:se" v="Stuorajuovva" />
		<tag k="natural" v="valley" />
		<tag k="place" v="locality" />
		<tag k="ssr:stedsnr" v="444399" />
	</node>
	<node id="-793784" lat="70.1629722215" lon="22.4631693851">
		<tag k="fixme" v="consider natural=peak for the most distinct mountains in the district" />
		<tag k="name" v="Rundfjellet" />
		<tag k="natural" v="hill" />
		<tag k="place" v="locality" />
		<tag k="ssr:stedsnr" v="444388" />
	</node>
	<node id="-793783" lat="70.2353416714" lon="22.031374969">
		<tag k="fixme" v="consider natural=peak for the most distinct mountains in the district" />
		<tag k="name" v="Myrnesfjellet" />
		<tag k="natural" v="hill" />
		<tag k="place" v="locality" />
		<tag k="ssr:stedsnr" v="444355" />
	</node>
	<node id="-793782" lat="70.2353361154" lon="21.8188194032">
		<tag k="fixme" v="consider natural=peak for the most distinct mountains in the district" />
		<tag k="name" v="Kollaren" />
		<tag k="natural" v="hill" />
		<tag k="place" v="locality" />
		<tag k="ssr:stedsnr" v="444345" />
	</node>
	<node id="-793781" lat="70.2472111105" lon="21.9244027349">
		<tag k="name" v="Markusskardet" />
		<tag k="natural" v="valley" />
		<tag k="place" v="locality" />
		<tag k="ssr:stedsnr" v="444337" />
	</node>
	<node id="-793780" lat="70.2875722196" lon="21.4966527403">
		<tag k="name" v="Skablia" />
		<tag k="natural" v="slope" />
		<tag k="place" v="locality" />
		<tag k="ssr:stedsnr" v="444307" />
	</node>
	<node id="-793886" lat="70.111427781" lon="21.8761916339">
		<tag k="fixme" v="multiple name tags, choose one and add the other to alt_name; consider natural=peak for the most distinct mountains in the district" />
		<tag k="name" v="Svartfjellet - Odcavonacharje;Riššagáisá" />
		<tag k="name:no" v="Svartfjellet" />
		<tag k="name:se" v="Odcavonacharje;Riššagáisá" />
		<tag k="natural" v="hill" />
		<tag k="old_name:se" v="Riššagaisa" />
		<tag k="place" v="locality" />
		<tag k="ssr:stedsnr" v="512519" />
	</node>
	<node id="-794076" lat="70.2203611089" lon="21.4772388658">
		<tag k="name" v="Klubben" />
		<tag k="natural" v="hill" />
		<tag k="place" v="locality" />
		<tag k="ssr:stedsnr" v="19173" />
	</node>
	<node id="-794288" lat="70.0555333332" lon="22.2449832724">
		<tag k="name" v="Russelvdalen - Ruoššavággi" />
		<tag k="name:no" v="Russelvdalen" />
		<tag k="name:se" v="Ruoššavággi" />
		<tag k="natural" v="valley" />
		<tag k="old_name:se" v="Ruoššavaggi" />
		<tag k="place" v="locality" />
		<tag k="ssr:stedsnr" v="322497" />
	</node>
	<node id="-794287" lat="70.1338194474" lon="22.268794408">
		<tag k="name" v="Tverrlandet - Doaresgáddi" />
		<tag k="name:no" v="Tverrlandet" />
		<tag k="name:se" v="Doaresgáddi" />
		<tag k="natural" v="slope" />
		<tag k="old_name:se" v="Doaresgaddi" />
		<tag k="place" v="locality" />
		<tag k="ssr:stedsnr" v="322424" />
	</node>
	<node id="-794285" lat="70.1735805557" lon="22.3499027335">
		<tag k="fixme" v="consider natural=peak for the most distinct mountains in the district" />
		<tag k="name" v="Dellafjell - Dealljá" />
		<tag k="name:no" v="Dellafjell" />
		<tag k="name:se" v="Dealljá" />
		<tag k="natural" v="hill" />
		<tag k="old_name:se" v="Dællja" />
		<tag k="place" v="locality" />
		<tag k="ssr:stedsnr" v="322409" />
	</node>
	<node id="-793772" lat="70.2103916641" lon="22.038452744">
		<tag k="loc_name:no" v="Eggdalen" />
		<tag k="name" v="Sørfjorddalen - Orjježiidvággi" />
		<tag k="name:no" v="Sørfjorddalen" />
		<tag k="name:se" v="Orjježiidvággi" />
		<tag k="natural" v="valley" />
		<tag k="old_name:se" v="Årježiidvaggi" />
		<tag k="place" v="locality" />
		<tag k="ssr:stedsnr" v="444228" />
	</node>
	<node id="-793771" lat="70.2090083367" lon="21.71366941">
		<tag k="fixme" v="consider natural=peak for the most distinct mountains in the district" />
		<tag k="name" v="Kollaren" />
		<tag k="natural" v="hill" />
		<tag k="place" v="locality" />
		<tag k="ssr:stedsnr" v="444226" />
	</node>
	<node id="-794282" lat="70.2046861137" lon="22.3737666189">
		<tag k="fixme" v="consider natural=peak for the most distinct mountains in the district" />
		<tag k="name" v="Danielfjellet - Dánelvárri" />
		<tag k="name:no" v="Danielfjellet" />
		<tag k="name:se" v="Dánelvárri" />
		<tag k="natural" v="hill" />
		<tag k="old_name:se" v="Danielvarri" />
		<tag k="place" v="locality" />
		<tag k="ssr:stedsnr" v="322399" />
	</node>
	<node id="-794281" lat="70.192166668" lon="22.2271082893">
		<tag k="alt_name:no" v="Hellafjellet" />
		<tag k="fixme" v="consider natural=peak for the most distinct mountains in the district" />
		<tag k="name" v="Hellefjellet - Healluidvárri" />
		<tag k="name:no" v="Hellefjellet" />
		<tag k="name:se" v="Healluidvárri" />
		<tag k="natural" v="hill" />
		<tag k="old_name:se" v="Hælloidvarri" />
		<tag k="place" v="locality" />
		<tag k="ssr:stedsnr" v="322394" />
	</node>
	<node id="-793768" lat="70.2579249977" lon="21.8357333045">
		<tag k="fixme" v="consider natural=peak for the most distinct mountains in the district" />
		<tag k="name" v="Gullmundstinden" />
		<tag k="natural" v="hill" />
		<tag k="place" v="locality" />
		<tag k="ssr:stedsnr" v="444185" />
	</node>
	<node id="-793841" lat="70.061472225" lon="22.2265166111">
		<tag k="fixme" v="consider natural=peak for the most distinct mountains in the district" />
		<tag k="name" v="Russelvfjellet" />
		<tag k="natural" v="hill" />
		<tag k="place" v="locality" />
		<tag k="ssr:stedsnr" v="394309" />
	</node>
	<node id="-794277" lat="70.3538777773" lon="21.4300499757">
		<tag k="name" v="Matmorstuva" />
		<tag k="natural" v="hill" />
		<tag k="place" v="locality" />
		<tag k="ssr:stedsnr" v="322300" />
	</node>
	<node id="-794276" lat="70.353919444" lon="21.4012999816">
		<tag k="name" v="Pipersberget" />
		<tag k="natural" v="hill" />
		<tag k="place" v="locality" />
		<tag k="ssr:stedsnr" v="322295" />
	</node>
	<node id="-794274" lat="70.1200277758" lon="22.1183721813">
		<tag k="fixme" v="consider natural=peak for the most distinct mountains in the district" />
		<tag k="name" v="Fjelltindnasen - Gáisánjunni" />
		<tag k="name:no" v="Fjelltindnasen" />
		<tag k="name:se" v="Gáisánjunni" />
		<tag k="natural" v="hill" />
		<tag k="place" v="locality" />
		<tag k="ssr:stedsnr" v="322267" />
	</node>
	<node id="-794273" lat="70.1433527794" lon="21.8066360651">
		<tag k="fixme" v="consider natural=peak for the most distinct mountains in the district" />
		<tag k="name" v="Mannhaletind" />
		<tag k="natural" v="hill" />
		<tag k="place" v="locality" />
		<tag k="ssr:stedsnr" v="322258" />
	</node>
	<node id="-794272" lat="70.1281111098" lon="21.8564888467">
		<tag k="fixme" v="consider natural=peak for the most distinct mountains in the district" />
		<tag k="name" v="Middagsfjellet" />
		<tag k="natural" v="hill" />
		<tag k="place" v="locality" />
		<tag k="ssr:stedsnr" v="322254" />
	</node>
	<node id="-794271" lat="70.2592416636" lon="21.373383299">
		<tag k="fixme" v="consider natural=peak for the most distinct mountains in the district" />
		<tag k="name" v="Flatfjellet" />
		<tag k="natural" v="hill" />
		<tag k="place" v="locality" />
		<tag k="ssr:stedsnr" v="322249" />
	</node>
	<node id="-793755" lat="70.2752388944" lon="21.5641027436">
		<tag k="name" v="Svinersteinnasen" />
		<tag k="place" v="locality" />
		<tag k="ssr:stedsnr" v="212618" />
	</node>
	<node id="-794263" lat="70.288866667" lon="22.1993527328">
		<tag k="name" v="Gargolandet" />
		<tag k="natural" v="cliff" />
		<tag k="ssr:stedsnr" v="213780" />
	</node>
	<node id="-794262" lat="70.228786109" lon="21.8079055108">
		<tag k="name" v="Sloppeskårra" />
		<tag k="natural" v="valley" />
		<tag k="place" v="locality" />
		<tag k="ssr:stedsnr" v="211881" />
	</node>
	<node id="-793748" lat="70.2636750032" lon="22.1271166371">
		<tag k="fixme" v="consider natural=peak for the most distinct mountains in the district" />
		<tag k="name" v="Lausfjellet - Luovosvárri" />
		<tag k="name:no" v="Lausfjellet" />
		<tag k="name:se" v="Luovosvárri" />
		<tag k="natural" v="hill" />
		<tag k="old_name:se" v="Luovusvarri" />
		<tag k="place" v="locality" />
		<tag k="ssr:stedsnr" v="202206" />
	</node>
	<node id="-793747" lat="70.2697833315" lon="21.4065333168">
		<tag k="fixme" v="consider natural=peak for the most distinct mountains in the district" />
		<tag k="name" v="Kjæresnesaksla" />
		<tag k="natural" v="hill" />
		<tag k="place" v="locality" />
		<tag k="ssr:stedsnr" v="201272" />
	</node>
	<node id="-793751" lat="70.2711750016" lon="21.9167860658">
		<tag k="name" v="Hentodalen - Henddovággi" />
		<tag k="name:no" v="Hentodalen" />
		<tag k="name:se" v="Henddovággi" />
		<tag k="natural" v="valley" />
		<tag k="old_name:se" v="Henduvaggi" />
		<tag k="place" v="locality" />
		<tag k="ssr:stedsnr" v="202229" />
	</node>
	<node id="-793744" lat="70.169688885" lon="21.8794944167">
		<tag k="name" v="Isdalen - Iisavággi" />
		<tag k="name:no" v="Isdalen" />
		<tag k="name:se" v="Iisavággi" />
		<tag k="natural" v="valley" />
		<tag k="old_name:se" v="Iisavaggi" />
		<tag k="place" v="locality" />
		<tag k="ssr:stedsnr" v="201256" />
	</node>
	<node id="-794254" lat="70.315175" lon="21.9953749546">
		<tag k="fixme" v="consider natural=peak for the most distinct mountains in the district" />
		<tag k="name" v="Gammelværnesa" />
		<tag k="natural" v="hill" />
		<tag k="place" v="locality" />
		<tag k="ssr:stedsnr" v="202278" />
	</node>
	<node id="-794252" lat="70.3513277797" lon="21.7278888577">
		<tag k="fixme" v="consider natural=peak for the most distinct mountains in the district" />
		<tag k="name" v="Stallfjellet - Stálljoalgi" />
		<tag k="name:no" v="Stallfjellet" />
		<tag k="name:se" v="Stálljoalgi" />
		<tag k="natural" v="hill" />
		<tag k="old_name:se" v="Stalljoalgi" />
		<tag k="place" v="locality" />
		<tag k="ssr:stedsnr" v="202264" />
	</node>
	<node id="-793739" lat="70.3549194454" lon="21.4465749844">
		<tag k="name" v="Storsletta" />
		<tag k="place" v="locality" />
		<tag k="ssr:stedsnr" v="289180" />
	</node>
	<node id="-794250" lat="70.2911277772" lon="21.9185221784">
		<tag k="fixme" v="consider natural=peak for the most distinct mountains in the district" />
		<tag k="name" v="Eavročahca" />
		<tag k="name:se" v="Eavročahca" />
		<tag k="natural" v="hill" />
		<tag k="old_name:se" v="Ævručacca" />
		<tag k="place" v="locality" />
		<tag k="ssr:stedsnr" v="202250" />
	</node>
	<node id="-793737" lat="70.2419722204" lon="21.2558027624">
		<tag k="name" v="Arndal" />
		<tag k="natural" v="valley" />
		<tag k="place" v="locality" />
		<tag k="ssr:stedsnr" v="288188" />
	</node>
	<node id="-794211" lat="70.3226222239" lon="21.7162027399">
		<tag k="fixme" v="consider natural=peak for the most distinct mountains in the district" />
		<tag k="name" v="Skárfageađgi" />
		<tag k="name:se" v="Skárfageađgi" />
		<tag k="natural" v="hill" />
		<tag k="old_name:se" v="Skarfagæđgi" />
		<tag k="place" v="locality" />
		<tag k="ssr:stedsnr" v="141296" />
	</node>
	<node id="-794245" lat="70.125647228" lon="22.5652221594">
		<tag k="fixme" v="consider natural=peak for the most distinct mountains in the district" />
		<tag k="name" v="Jiehtanasnjunni" />
		<tag k="name:se" v="Jiehtanasnjunni" />
		<tag k="natural" v="hill" />
		<tag k="old_name:se" v="Jiettanasnjunni" />
		<tag k="place" v="locality" />
		<tag k="ssr:stedsnr" v="201523" />
	</node>
	<node id="-794243" lat="70.1564972222" lon="22.5040832712">
		<tag k="name" v="Krekendalen - Nieidavággi" />
		<tag k="name:no" v="Krekendalen" />
		<tag k="name:se" v="Nieidavággi" />
		<tag k="natural" v="valley" />
		<tag k="old_name:se" v="Nieidavaggi" />
		<tag k="place" v="locality" />
		<tag k="ssr:stedsnr" v="201385" />
	</node>
	<node id="-794279" lat="70.2134750053" lon="22.2542999572">
		<tag k="alt_name" v="Litletind" />
		<tag k="fixme" v="consider natural=peak for the most distinct mountains in the district" />
		<tag k="name" v="Lilletind" />
		<tag k="natural" v="hill" />
		<tag k="place" v="locality" />
		<tag k="ssr:stedsnr" v="322368" />
	</node>
	<node id="-794241" lat="70.2300277813" lon="21.72358607">
		<tag k="name" v="Laukberget - Lávkebákti" />
		<tag k="name:no" v="Laukberget" />
		<tag k="name:se" v="Lávkebákti" />
		<tag k="natural" v="hill" />
		<tag k="old_name:se" v="Lavkebakti" />
		<tag k="place" v="locality" />
		<tag k="ssr:stedsnr" v="201354" />
	</node>
	<node id="-794240" lat="70.2322444502" lon="21.8785332875">
		<tag k="name" v="Jogavággi" />
		<tag k="name:se" v="Jogavággi" />
		<tag k="natural" v="valley" />
		<tag k="old_name:se" v="Jågavaggi" />
		<tag k="place" v="locality" />
		<tag k="ssr:stedsnr" v="201351" />
	</node>
	<node id="-794234" lat="70.1482944509" lon="22.1875582784">
		<tag k="name" v="Báhccavuonvággi" />
		<tag k="name:se" v="Báhccavuonvággi" />
		<tag k="natural" v="valley" />
		<tag k="old_name:se" v="Baccavuonvaggi" />
		<tag k="place" v="locality" />
		<tag k="ssr:stedsnr" v="201250" />
	</node>
	<node id="-794233" lat="70.1989111097" lon="21.8600527342">
		<tag k="name" v="Skognesdalen - Gaskavággi" />
		<tag k="name:no" v="Skognesdalen" />
		<tag k="name:se" v="Gaskavággi" />
		<tag k="natural" v="valley" />
		<tag k="old_name:se" v="Gaskavaggi" />
		<tag k="place" v="locality" />
		<tag k="ssr:stedsnr" v="201248" />
	</node>
	<node id="-794232" lat="70.2122305534" lon="21.7246166289">
		<tag k="name" v="Andersdalen" />
		<tag k="natural" v="valley" />
		<tag k="place" v="locality" />
		<tag k="ssr:stedsnr" v="201234" />
	</node>
	<node id="-794231" lat="70.2265861158" lon="22.1444971829">
		<tag k="fixme" v="consider natural=peak for the most distinct mountains in the district" />
		<tag k="name" v="Sukkertoppen" />
		<tag k="natural" v="hill" />
		<tag k="place" v="locality" />
		<tag k="ssr:stedsnr" v="201230" />
	</node>
	<node id="-794230" lat="70.2179944435" lon="21.233711081">
		<tag k="name" v="Svadalen" />
		<tag k="natural" v="valley" />
		<tag k="place" v="locality" />
		<tag k="ssr:stedsnr" v="201174" />
	</node>
	<node id="-794229" lat="70.2163777797" lon="21.411824961">
		<tag k="name" v="Svartdalen" />
		<tag k="natural" v="valley" />
		<tag k="place" v="locality" />
		<tag k="ssr:stedsnr" v="201170" />
	</node>
	<node id="-794228" lat="70.1887222204" lon="21.4526777441">
		<tag k="name" v="Sevdnjesvággi" />
		<tag k="name:se" v="Sevdnjesvággi" />
		<tag k="natural" v="valley" />
		<tag k="old_name:se" v="Sevdnjesvaggi" />
		<tag k="place" v="locality" />
		<tag k="ssr:stedsnr" v="201152" />
	</node>
	<node id="-793767" lat="70.1955361083" lon="21.4351916334">
		<tag k="fixme" v="consider natural=peak for the most distinct mountains in the district" />
		<tag k="name" v="Brosmebergtind" />
		<tag k="natural" v="hill" />
		<tag k="place" v="locality" />
		<tag k="ssr:stedsnr" v="444163" />
	</node>
	<node id="-794643" lat="70.3862027827" lon="21.42093886">
		<tag k="name" v="Skagshøgda" />
		<tag k="natural" v="hill" />
		<tag k="place" v="locality" />
		<tag k="ssr:stedsnr" v="956160" />
	</node>
	<node id="-794223" lat="70.2358638884" lon="21.2323305215">
		<tag k="name" v="Skjåvikhalsen" />
		<tag k="natural" v="valley" />
		<tag k="place" v="locality" />
		<tag k="ssr:stedsnr" v="167194" />
	</node>
	<node id="-794526" lat="70.3261416689" lon="21.9901749686">
		<tag k="name" v="Havdal" />
		<tag k="natural" v="valley" />
		<tag k="place" v="locality" />
		<tag k="ssr:stedsnr" v="748282" />
	</node>
	<node id="-794625" lat="70.3733111091" lon="21.7308749548">
		<tag k="name" v="Tverrberget" />
		<tag k="natural" v="hill" />
		<tag k="place" v="locality" />
		<tag k="ssr:stedsnr" v="869288" />
	</node>
	<node id="-793706" lat="70.1620138929" lon="22.3568055022">
		<tag k="fixme" v="consider natural=peak for the most distinct mountains in the district" />
		<tag k="name" v="Bjørneskardfjellet - Riiddiidhárji" />
		<tag k="name:no" v="Bjørneskardfjellet" />
		<tag k="name:se" v="Riiddiidhárji" />
		<tag k="natural" v="hill" />
		<tag k="old_name:se" v="Riidiidharji" />
		<tag k="place" v="locality" />
		<tag k="ssr:stedsnr" v="262427" />
	</node>
	<node id="-793704" lat="70.2083076727" lon="22.244080524">
		<tag k="fixme" v="multiple name tags, choose one and add the other to alt_name; consider natural=peak for the most distinct mountains in the district" />
		<tag k="name" v="Middagstind;Storetind" />
		<tag k="natural" v="hill" />
		<tag k="place" v="locality" />
		<tag k="ssr:stedsnr" v="262416" />
	</node>
	<node id="-793703" lat="70.2191749989" lon="22.3589499588">
		<tag k="fixme" v="consider natural=peak for the most distinct mountains in the district" />
		<tag k="name" v="Vassdalstinden" />
		<tag k="natural" v="hill" />
		<tag k="place" v="locality" />
		<tag k="ssr:stedsnr" v="262392" />
	</node>
	<node id="-794212" lat="70.3267638931" lon="21.6928749687">
		<tag k="name" v="Bukkelia" />
		<tag k="natural" v="slope" />
		<tag k="place" v="locality" />
		<tag k="ssr:stedsnr" v="141299" />
	</node>
	<node id="-793699" lat="70.1369750031" lon="21.786061073">
		<tag k="fixme" v="consider natural=peak for the most distinct mountains in the district" />
		<tag k="name" v="Kassefjellet" />
		<tag k="natural" v="hill" />
		<tag k="place" v="locality" />
		<tag k="ssr:stedsnr" v="262276" />
	</node>
	<node id="-793697" lat="70.3768000059" lon="21.7169499618">
		<tag k="fixme" v="consider natural=peak for the most distinct mountains in the district" />
		<tag k="name" v="Litletind" />
		<tag k="natural" v="hill" />
		<tag k="place" v="locality" />
		<tag k="ssr:stedsnr" v="262257" />
	</node>
	<node id="-793695" lat="70.1969861101" lon="21.6625527562">
		<tag k="alt_name:no" v="Tverrfjorddalen, s" />
		<tag k="name" v="Søndre Tverrfjorddalen - Bártnatvuonvággi" />
		<tag k="name:no" v="Søndre Tverrfjorddalen" />
		<tag k="name:se" v="Bártnatvuonvággi" />
		<tag k="natural" v="valley" />
		<tag k="old_name:se" v="Bardnatvuonvaggi" />
		<tag k="place" v="locality" />
		<tag k="ssr:stedsnr" v="262253" />
	</node>
	<node id="-793693" lat="70.3436361106" lon="21.708527744">
		<tag k="fixme" v="consider natural=peak for the most distinct mountains in the district" />
		<tag k="name" v="Tverrfjellet" />
		<tag k="natural" v="hill" />
		<tag k="place" v="locality" />
		<tag k="ssr:stedsnr" v="262248" />
	</node>
	<node id="-793690" lat="70.2635472262" lon="22.051338843">
		<tag k="name" v="Elvbuktdalen - Junttevággi" />
		<tag k="name:no" v="Elvbuktdalen" />
		<tag k="name:se" v="Junttevággi" />
		<tag k="natural" v="valley" />
		<tag k="old_name:se" v="Juntevaggi" />
		<tag k="place" v="locality" />
		<tag k="ssr:stedsnr" v="262212" />
	</node>
	<node id="-793684" lat="70.2240111097" lon="21.2974333079">
		<tag k="fixme" v="consider natural=peak for the most distinct mountains in the district" />
		<tag k="name" v="Silvetvárri" />
		<tag k="name:se" v="Silvetvárri" />
		<tag k="natural" v="hill" />
		<tag k="old_name:se" v="Silvetvarri;Silvvetvárri" />
		<tag k="place" v="locality" />
		<tag k="ssr:stedsnr" v="262132" />
	</node>
	<node id="-794195" lat="70.1845944448" lon="22.3561721756">
		<tag k="name" v="Fruvikdalen" />
		<tag k="natural" v="valley" />
		<tag k="place" v="locality" />
		<tag k="ssr:stedsnr" v="140399" />
	</node>
	<node id="-793681" lat="70.260263886" lon="22.2482305074">
		<tag k="fixme" v="consider natural=peak for the most distinct mountains in the district" />
		<tag k="name" v="Sommersettinden" />
		<tag k="natural" v="hill" />
		<tag k="place" v="locality" />
		<tag k="ssr:stedsnr" v="262079" />
	</node>
	<node id="-794040" lat="70.2808194436" lon="21.5558055354">
		<tag k="name" v="Langryggen" />
		<tag k="natural" v="ridge" />
		<tag k="place" v="locality" />
		<tag k="ssr:stedsnr" v="818865" />
	</node>
	<node id="-793678" lat="70.3535805576" lon="21.4366583027">
		<tag k="name" v="Storslettbenken" />
		<tag k="natural" v="hill" />
		<tag k="place" v="locality" />
		<tag k="ssr:stedsnr" v="107120" />
	</node>
	<node id="-794188" lat="70.3080805573" lon="21.5341166498">
		<tag k="alt_name" v="Prestelvfjellet" />
		<tag k="fixme" v="consider natural=peak for the most distinct mountains in the district" />
		<tag k="name" v="Prestelifjellet" />
		<tag k="natural" v="hill" />
		<tag k="place" v="locality" />
		<tag k="ssr:stedsnr" v="140347" />
	</node>
	<node id="-794226" lat="70.1777944426" lon="22.1367110744">
		<tag k="fixme" v="consider natural=peak for the most distinct mountains in the district" />
		<tag k="name" v="Loppatinden - Láhpičohkka - Lappeanlaki" />
		<tag k="name:fkv" v="Lappeanlaki" />
		<tag k="name:no" v="Loppatinden" />
		<tag k="name:se" v="Láhpičohkka" />
		<tag k="natural" v="hill" />
		<tag k="place" v="locality" />
		<tag k="ssr:stedsnr" v="171942" />
	</node>
	<node id="-794183" lat="70.2319083316" lon="21.4831832923">
		<tag k="name" v="Prestelia" />
		<tag k="natural" v="slope" />
		<tag k="place" v="locality" />
		<tag k="ssr:stedsnr" v="140107" />
	</node>
	<node id="-793953" lat="70.3222027825" lon="21.5566471957">
		<tag k="name" v="Henningkeilskolten" />
		<tag k="natural" v="hill" />
		<tag k="place" v="locality" />
		<tag k="ssr:stedsnr" v="635810" />
	</node>
	<node id="-793667" lat="70.3344999976" lon="21.4314860709">
		<tag k="name" v="Sanddalen" />
		<tag k="natural" v="valley" />
		<tag k="place" v="locality" />
		<tag k="ssr:stedsnr" v="228150" />
	</node>
	<node id="-793666" lat="70.3321277796" lon="21.4231833167">
		<tag k="name" v="Eskjæret" />
		<tag k="natural" v="valley" />
		<tag k="place" v="locality" />
		<tag k="ssr:stedsnr" v="228149" />
	</node>
	<node id="-793867" lat="70.2868388902" lon="22.0591721879">
		<tag k="name" v="Mollvikdalen" />
		<tag k="natural" v="valley" />
		<tag k="place" v="locality" />
		<tag k="ssr:stedsnr" v="505236" />
	</node>
	<node id="-793661" lat="70.2309027754" lon="21.3093499682">
		<tag k="name" v="Saulia" />
		<tag k="natural" v="slope" />
		<tag k="place" v="locality" />
		<tag k="ssr:stedsnr" v="19115" />
	</node>
	<node id="-793765" lat="70.2322138866" lon="21.2519110829">
		<tag k="name" v="Dalskardet" />
		<tag k="natural" v="valley" />
		<tag k="place" v="locality" />
		<tag k="ssr:stedsnr" v="444122" />
	</node>
	<node id="-794165" lat="70.1744416691" lon="21.7929222001">
		<tag k="name" v="Ytre Trolldalen" />
		<tag k="natural" v="valley" />
		<tag k="place" v="locality" />
		<tag k="ssr:stedsnr" v="93903" />
	</node>
	<node id="-793799" lat="70.2796138874" lon="21.9691055155">
		<tag k="name" v="Ullsfjordbotn" />
		<tag k="natural" v="valley" />
		<tag k="place" v="locality" />
		<tag k="ssr:stedsnr" v="445231" />
	</node>
	<node id="-794160" lat="70.2998500016" lon="21.551430517">
		<tag k="name" v="Storhammeren" />
		<tag k="natural" v="slope" />
		<tag k="place" v="locality" />
		<tag k="ssr:stedsnr" v="90835" />
	</node>
	<node id="-794191" lat="70.2441388932" lon="21.6316777575">
		<tag k="name" v="Svartbergdalen" />
		<tag k="natural" v="valley" />
		<tag k="place" v="locality" />
		<tag k="ssr:stedsnr" v="140371" />
	</node>
	<node id="-794156" lat="70.3139861083" lon="21.9532444147">
		<tag k="fixme" v="consider natural=peak for the most distinct mountains in the district" />
		<tag k="name" v="Svarthauet" />
		<tag k="natural" v="hill" />
		<tag k="place" v="locality" />
		<tag k="ssr:stedsnr" v="81295" />
	</node>
	<node id="-794153" lat="70.3010388945" lon="21.9099944062">
		<tag k="fixme" v="consider natural=peak for the most distinct mountains in the district" />
		<tag k="name" v="Eavrrovárri" />
		<tag k="name:se" v="Eavrrovárri" />
		<tag k="natural" v="hill" />
		<tag k="old_name:se" v="Ævruvarri" />
		<tag k="place" v="locality" />
		<tag k="ssr:stedsnr" v="81263" />
	</node>
	<node id="-794152" lat="70.2675805528" lon="21.8907221919">
		<tag k="fixme" v="consider natural=peak for the most distinct mountains in the district" />
		<tag k="name" v="Huva" />
		<tag k="natural" v="hill" />
		<tag k="place" v="locality" />
		<tag k="ssr:stedsnr" v="81256" />
	</node>
	<node id="-794151" lat="70.2648999976" lon="22.1960416116">
		<tag k="name" v="Jomfrudalen - Rivgovággi" />
		<tag k="name:no" v="Jomfrudalen" />
		<tag k="name:se" v="Rivgovággi" />
		<tag k="natural" v="valley" />
		<tag k="old_name:se" v="Rivguvaggi" />
		<tag k="place" v="locality" />
		<tag k="ssr:stedsnr" v="81226" />
	</node>
	<node id="-794150" lat="70.1185361118" lon="22.3575888356">
		<tag k="fixme" v="consider natural=peak for the most distinct mountains in the district" />
		<tag k="name" v="Auskarnesfjellet - Goalsohkarhárji" />
		<tag k="name:no" v="Auskarnesfjellet" />
		<tag k="name:se" v="Goalsohkarhárji" />
		<tag k="natural" v="hill" />
		<tag k="old_name:se" v="Goalsåkkarharji" />
		<tag k="place" v="locality" />
		<tag k="ssr:stedsnr" v="80563" />
	</node>
	<node id="-793777" lat="70.2587250029" lon="21.4052666452">
		<tag k="fixme" v="consider natural=peak for the most distinct mountains in the district" />
		<tag k="name" v="Rabben" />
		<tag k="natural" v="hill" />
		<tag k="place" v="locality" />
		<tag k="ssr:stedsnr" v="444265" />
	</node>
	<node id="-794148" lat="70.2457666664" lon="22.3638444033">
		<tag k="fixme" v="consider natural=peak for the most distinct mountains in the district" />
		<tag k="name" v="Øksfjordfjellet - Stuibmehárji" />
		<tag k="name:no" v="Øksfjordfjellet" />
		<tag k="name:se" v="Stuibmehárji" />
		<tag k="natural" v="hill" />
		<tag k="old_name:se" v="Stuibmeharji" />
		<tag k="place" v="locality" />
		<tag k="ssr:stedsnr" v="80493" />
	</node>
	<node id="-794145" lat="70.2176305604" lon="22.4025138364">
		<tag k="name" v="Fasttalbahta" />
		<tag k="name:se" v="Fasttalbahta" />
		<tag k="natural" v="valley" />
		<tag k="old_name:se" v="Fastalbatta" />
		<tag k="place" v="locality" />
		<tag k="ssr:stedsnr" v="80391" />
	</node>
	<node id="-794655" lat="70.1924694467" lon="21.5406083094">
		<tag k="fixme" v="consider natural=peak for the most distinct mountains in the district" />
		<tag k="name" v="Kjerringa - Čáhppesčohkka" />
		<tag k="name:no" v="Kjerringa" />
		<tag k="name:se" v="Čáhppesčohkka" />
		<tag k="natural" v="hill" />
		<tag k="old_name:se" v="Čappesčåkka" />
		<tag k="place" v="locality" />
		<tag k="ssr:stedsnr" v="383183" />
	</node>
	<node id="-794629" lat="70.1827222257" lon="22.4385555038">
		<tag k="fixme" v="consider natural=peak for the most distinct mountains in the district" />
		<tag k="name" v="Fasttalrášša" />
		<tag k="name:se" v="Fasttalrášša" />
		<tag k="natural" v="hill" />
		<tag k="old_name:se" v="Fastalrašša" />
		<tag k="place" v="locality" />
		<tag k="ssr:stedsnr" v="869436" />
	</node>
	<node id="-794458" lat="70.2850444469" lon="21.8652138443">
		<tag k="alt_name:no" v="Hunddalen, in" />
		<tag k="name" v="Indre Hunddalen - Siskkit Beatnatgohpi" />
		<tag k="name:no" v="Indre Hunddalen" />
		<tag k="name:se" v="Siskkit Beatnatgohpi" />
		<tag k="natural" v="valley" />
		<tag k="old_name:se" v="Bædnatgåppi siskit" />
		<tag k="place" v="locality" />
		<tag k="ssr:stedsnr" v="626236" />
	</node>
	<node id="-794545" lat="70.2379694455" lon="22.0774360714">
		<tag k="name" v="Kokberget" />
		<tag k="natural" v="hill" />
		<tag k="place" v="locality" />
		<tag k="ssr:stedsnr" v="774350" />
	</node>
	<node id="-794648" lat="70.1569916683" lon="22.412552724">
		<tag k="name" v="Lialandet" />
		<tag k="place" v="locality" />
		<tag k="ssr:stedsnr" v="956549" />
	</node>
	<node id="-794135" lat="70.1542416712" lon="22.1727971697">
		<tag k="fixme" v="consider natural=peak for the most distinct mountains in the district" />
		<tag k="name" v="Báhccavuonhárji" />
		<tag k="name:se" v="Báhccavuonhárji" />
		<tag k="natural" v="hill" />
		<tag k="old_name:se" v="Baccavuonharji" />
		<tag k="place" v="locality" />
		<tag k="ssr:stedsnr" v="80285" />
	</node>
	<node id="-794133" lat="70.1665555544" lon="21.6805666435">
		<tag k="fixme" v="consider natural=peak for the most distinct mountains in the district" />
		<tag k="name" v="Čáhppesvárri" />
		<tag k="name:se" v="Čáhppesvárri" />
		<tag k="natural" v="hill" />
		<tag k="old_name:se" v="Čappesvarri" />
		<tag k="place" v="locality" />
		<tag k="ssr:stedsnr" v="80277" />
	</node>
	<node id="-794644" lat="70.3408500017" lon="21.4121777479">
		<tag k="fixme" v="consider natural=peak for the most distinct mountains in the district" />
		<tag k="name" v="Brurfjellet" />
		<tag k="natural" v="hill" />
		<tag k="place" v="locality" />
		<tag k="ssr:stedsnr" v="956167" />
	</node>
	<node id="-794030" lat="70.2065888928" lon="22.0078721761">
		<tag k="name" v="Sámevuončahca" />
		<tag k="name:se" v="Sámevuončahca" />
		<tag k="natural" v="valley" />
		<tag k="old_name:se" v="Samnevuončacca" />
		<tag k="place" v="locality" />
		<tag k="ssr:stedsnr" v="930276" />
	</node>
	<node id="-794129" lat="70.1759277819" lon="21.6127027492">
		<tag k="name" v="Modersliv" />
		<tag k="natural" v="valley" />
		<tag k="place" v="locality" />
		<tag k="ssr:stedsnr" v="80179" />
	</node>
	<node id="-794128" lat="70.2426472248" lon="21.6149555296">
		<tag k="name" v="Svartberget - Čáhppesbákti" />
		<tag k="name:no" v="Svartberget" />
		<tag k="name:se" v="Čáhppesbákti" />
		<tag k="natural" v="hill" />
		<tag k="old_name:se" v="Čappesbakti" />
		<tag k="place" v="locality" />
		<tag k="ssr:stedsnr" v="80155" />
	</node>
	<node id="-794127" lat="70.2399444457" lon="21.5572999617">
		<tag k="name" v="Sandlandsdalen" />
		<tag k="natural" v="valley" />
		<tag k="place" v="locality" />
		<tag k="ssr:stedsnr" v="80151" />
	</node>
	<node id="-793773" lat="70.1895611163" lon="21.8510305211">
		<tag k="name" v="Hundbergaksla" />
		<tag k="natural" v="hill" />
		<tag k="place" v="locality" />
		<tag k="ssr:stedsnr" v="444244" />
	</node>
	<node id="-794121" lat="70.1553666716" lon="22.4081916215">
		<tag k="name" v="Skredholla" />
		<tag k="natural" v="valley" />
		<tag k="place" v="locality" />
		<tag k="ssr:stedsnr" v="46563" />
	</node>
	<node id="-794113" lat="70.3218944436" lon="22.364986062">
		<tag k="name" v="Kjeila" />
		<tag k="natural" v="valley" />
		<tag k="place" v="locality" />
		<tag k="ssr:stedsnr" v="34933" />
	</node>
	<node id="-794114" lat="70.236419445" lon="21.2461666475">
		<tag k="name" v="Kløften" />
		<tag k="natural" v="valley" />
		<tag k="place" v="locality" />
		<tag k="ssr:stedsnr" v="45185" />
	</node>
	<node id="-794283" lat="70.1489250028" lon="22.2414499621">
		<tag k="name" v="Boaresboadnji" />
		<tag k="name:se" v="Boaresboadnji" />
		<tag k="natural" v="hill" />
		<tag k="place" v="locality" />
		<tag k="ssr:stedsnr" v="322403" />
	</node>
</osm>
