<?xml version="1.0" encoding="UTF-8"?>
<<<<<<< HEAD
<osm version="0.6" generator="osmapis">
	<node lat="70.32013055668688" lon="21.5632360749855" id="-44092">
		<tag k="fixme" v="verify maritime location" />
		<tag k="mooring" v="yes" />
		<tag k="name" v="Ørastøa" />
		<tag k="place" v="locality" />
		<tag k="ssr:stedsnr" v="455504" />
	</node>
	<node lat="70.1250527780214" lon="22.517983286103696" id="-44277">
		<tag k="man_made" v="quay" />
		<tag k="name" v="Butikkaia" />
		<tag k="place" v="locality" />
		<tag k="ssr:stedsnr" v="695523" />
	</node>
	<node lat="70.2427527772834" lon="22.348388846541155" id="-44323">
=======
<osm generator="osmapis" version="0.6">
	<node id="-900572" lat="70.2268083372" lon="21.6596582909">
		<tag k="highway" v="path" />
		<tag k="name" v="Reinvegen - Geinnodat" />
		<tag k="name:no" v="Reinvegen" />
		<tag k="name:se" v="Geinnodat" />
		<tag k="old_name:se" v="Geinudat" />
		<tag k="ssr:stedsnr" v="323377" />
	</node>
	<node id="-900313" lat="70.2427527773" lon="22.3483888465">
>>>>>>> e1d4bc35ff8a6074a6f2e91616a996b547c36f15
		<tag k="landuse" v="harbour" />
		<tag k="name" v="Øksfjord havn" />
		<tag k="seamark:type" v="harbour" />
		<tag k="ssr:stedsnr" v="835611" />
	</node>
<<<<<<< HEAD
	<node lat="70.22680833720688" lon="21.659658290889247" id="-44592">
		<tag k="highway" v="path" />
		<tag k="name" v="Reinvegen - Geinnodat" />
		<tag k="name:no" v="Reinvegen" />
		<tag k="name:se" v="Geinnodat" />
		<tag k="old_name:se" v="Geinudat" />
		<tag k="ssr:stedsnr" v="323377" />
	</node>
	<node lat="70.18886666609546" lon="21.761008289427778" id="-44594">
=======
	<node id="-900564" lat="70.1888666661" lon="21.7610082894">
>>>>>>> e1d4bc35ff8a6074a6f2e91616a996b547c36f15
		<tag k="highway" v="path" />
		<tag k="name" v="Rødveien - Ruksesbálggis" />
		<tag k="name:no" v="Rødveien" />
		<tag k="name:se" v="Ruksesbálggis" />
		<tag k="old_name:se" v="Ruksesbalgis" />
		<tag k="ssr:stedsnr" v="323278" />
	</node>
<<<<<<< HEAD
	<node lat="70.3039083350427" lon="21.557008295859347" id="-44913">
=======
	<node id="-900304" lat="70.303908335" lon="21.5570082959">
>>>>>>> e1d4bc35ff8a6074a6f2e91616a996b547c36f15
		<tag k="fixme" v="verify maritime location" />
		<tag k="mooring" v="yes" />
		<tag k="name" v="Havsteinen" />
		<tag k="place" v="locality" />
		<tag k="ssr:stedsnr" v="818860" />
	</node>
<<<<<<< HEAD
	<node lat="70.29368333430078" lon="21.558269417244286" id="-44958">
=======
	<node id="-900236" lat="70.125052778" lon="22.5179832861">
		<tag k="man_made" v="quay" />
		<tag k="name" v="Butikkaia" />
		<tag k="place" v="locality" />
		<tag k="ssr:stedsnr" v="695523" />
	</node>
	<node id="-900074" lat="70.3201305567" lon="21.563236075">
>>>>>>> e1d4bc35ff8a6074a6f2e91616a996b547c36f15
		<tag k="fixme" v="verify maritime location" />
		<tag k="mooring" v="yes" />
		<tag k="name" v="Kjeila" />
		<tag k="place" v="locality" />
		<tag k="ssr:stedsnr" v="939864" />
	</node>
	<node id="-900316" lat="70.2936833343" lon="21.5582694172">
		<tag k="fixme" v="verify maritime location" />
		<tag k="mooring" v="yes" />
		<tag k="name" v="Kjeila" />
		<tag k="place" v="locality" />
		<tag k="ssr:stedsnr" v="939864" />
	</node>
</osm>
