<?xml version="1.0" encoding="UTF-8"?>
<<<<<<< HEAD
<osm version="0.6" generator="osmapis">
	<node lat="70.27110556045554" lon="22.24056107236778" id="-43987">
		<tag k="name" v="Arntovatnet" />
		<tag k="natural" v="water" />
		<tag k="ssr:stedsnr" v="20093" />
	</node>
	<node lat="70.23970277874423" lon="21.330288873954185" id="-44005">
		<tag k="alt_name" v="Trollvikvatnet, l" />
		<tag k="name" v="Lille Trollvikvatnet" />
		<tag k="natural" v="water" />
		<tag k="ssr:stedsnr" v="80143" />
	</node>
	<node lat="70.22223055833582" lon="22.3872804943977" id="-44011">
		<tag k="name" v="Vassdalsvatnet - Fasttaljávri" />
		<tag k="name:no" v="Vassdalsvatnet" />
		<tag k="name:se" v="Fasttaljávri" />
		<tag k="natural" v="water" />
		<tag k="old_name:se" v="Fastaljavri" />
		<tag k="ssr:stedsnr" v="80393" />
		<tag k="water" v="lake" />
	</node>
	<node lat="70.17157222713547" lon="21.863724969356436" id="-44015">
		<tag k="name" v="Iselva" />
		<tag k="ssr:stedsnr" v="93783" />
		<tag k="waterway" v="river" />
	</node>
	<node lat="70.23963889124313" lon="22.373527720010596" id="-44036">
		<tag k="name" v="Rassevaggeidet" />
		<tag k="place" v="locality" />
		<tag k="ssr:stedsnr" v="167625" />
	</node>
	<node lat="70.24333333134592" lon="21.384216638517785" id="-44041">
		<tag k="name" v="Skjerdingdalsvatnet" />
		<tag k="natural" v="water" />
		<tag k="ssr:stedsnr" v="262138" />
	</node>
	<node lat="70.21673055823057" lon="21.33078608832067" id="-44046">
		<tag k="alt_name" v="Trollvikvatnet, store" />
		<tag k="loc_name" v="Trollvikvatnet" />
		<tag k="name" v="Store Trollvikvatnet" />
		<tag k="natural" v="water" />
		<tag k="ssr:stedsnr" v="262186" />
		<tag k="water" v="lake" />
	</node>
	<node lat="70.26267499941848" lon="22.178011053109095" id="-44050">
		<tag k="loc_name:no" v="Jomfruvatnet" />
		<tag k="loc_name:se" v="Rivgujavri" />
		<tag k="name" v="Rivgojávri" />
		<tag k="name:se" v="Rivgojávri" />
		<tag k="natural" v="water" />
		<tag k="ssr:stedsnr" v="262215" />
		<tag k="water" v="lake" />
	</node>
	<node lat="70.21107500140921" lon="21.98558329058168" id="-44055">
		<tag k="alt_name:no" v="Tverrfjordvatnet, nordre" />
		<tag k="name" v="Nordre Tverrfjordvatnet - Sámevuonjávri" />
		<tag k="name:no" v="Nordre Tverrfjordvatnet" />
		<tag k="name:se" v="Sámevuonjávri" />
		<tag k="natural" v="water" />
		<tag k="old_name:se" v="Samevuonjavri" />
		<tag k="ssr:stedsnr" v="262254" />
	</node>
	<node lat="70.24221944257728" lon="22.037044407647205" id="-44061">
		<tag k="name" v="Svartfjellvatnet - Ráhttonasjávri" />
		<tag k="name:no" v="Svartfjellvatnet" />
		<tag k="name:se" v="Ráhttonasjávri" />
		<tag k="natural" v="water" />
		<tag k="old_name:se" v="Rattunasjavri" />
		<tag k="ssr:stedsnr" v="262366" />
	</node>
	<node lat="70.25455277734127" lon="21.594299965771025" id="-44065">
		<tag k="name" v="Storelva" />
		<tag k="ssr:stedsnr" v="262537" />
		<tag k="waterway" v="river" />
	</node>
	<node lat="70.27502500172092" lon="21.839705520902037" id="-44104">
		<tag k="name" v="Eirselva" />
		<tag k="ssr:stedsnr" v="457871" />
		<tag k="waterway" v="river" />
	</node>
	<node lat="70.23158055891702" lon="22.068836064176914" id="-44117">
		<tag k="name" v="Sørbotnelva" />
		<tag k="ssr:stedsnr" v="289114" />
		<tag k="waterway" v="river" />
	</node>
	<node lat="70.12617222725669" lon="22.263136056680683" id="-44127">
		<tag k="name" v="Tverrelva" />
		<tag k="ssr:stedsnr" v="331496" />
		<tag k="waterway" v="river" />
	</node>
	<node lat="70.09941388735237" lon="22.5930777121403" id="-44137">
		<tag k="name" v="Kjellarvatnet - Geallárjávri" />
		<tag k="name:no" v="Kjellarvatnet" />
		<tag k="name:se" v="Geallárjávri" />
		<tag k="natural" v="water" />
		<tag k="old_name:se" v="Gællarjavri" />
		<tag k="ssr:stedsnr" v="383559" />
	</node>
	<node lat="70.14998888853208" lon="22.469272157841228" id="-44138">
		<tag k="name" v="Krekenelva" />
		<tag k="ssr:stedsnr" v="383455" />
		<tag k="waterway" v="river" />
	</node>
	<node lat="70.22499722347189" lon="21.252166642021983" id="-44151">
		<tag k="name" v="Kjerringelva" />
		<tag k="ssr:stedsnr" v="444116" />
		<tag k="waterway" v="river" />
	</node>
	<node lat="70.28006389420354" lon="21.73983608031489" id="-44160">
		<tag k="name" v="Geitelva - Gáicajohka" />
		<tag k="name:no" v="Geitelva" />
		<tag k="name:se" v="Gáicajohka" />
		<tag k="old_name:se" v="Gaicajåkka" />
		<tag k="ssr:stedsnr" v="445229" />
		<tag k="waterway" v="stream" />
	</node>
	<node lat="70.29476944900956" lon="21.55535553470514" id="-44166">
		<tag k="name" v="Drikkelva" />
		<tag k="ssr:stedsnr" v="454867" />
		<tag k="waterway" v="stream" />
	</node>
	<node lat="70.2083499982626" lon="22.04885827682488" id="-44178">
		<tag k="loc_name" v="Eggvatnet" />
		<tag k="name" v="Tenvatnet" />
		<tag k="natural" v="water" />
		<tag k="ssr:stedsnr" v="505269" />
	</node>
	<node lat="70.30373055757053" lon="21.736202746983523" id="-44179">
		<tag k="name" v="Røsnesvatna" />
		<tag k="natural" v="water" />
		<tag k="ssr:stedsnr" v="505274" />
	</node>
	<node lat="70.19865833540716" lon="21.927769415861064" id="-44180">
		<tag k="name" v="Svartvatnet" />
		<tag k="natural" v="water" />
		<tag k="ssr:stedsnr" v="505278" />
		<tag k="water" v="lake" />
	</node>
	<node lat="70.22006110902814" lon="22.207619397018355" id="-44202">
		<tag k="name" v="Tverrfjordvatnet" />
		<tag k="natural" v="water" />
		<tag k="ssr:stedsnr" v="687251" />
	</node>
	<node lat="70.21911389346437" lon="21.621230520481326" id="-44203">
		<tag k="name" v="Bjørndalvatna" />
		<tag k="natural" v="water" />
		<tag k="ssr:stedsnr" v="687252" />
		<tag k="water" v="lake" />
	</node>
	<node lat="70.36261111213719" lon="21.435466647224548" id="-44208">
		<tag k="name" v="Krakelva" />
		<tag k="ssr:stedsnr" v="687323" />
		<tag k="waterway" v="stream" />
	</node>
	<node lat="70.24929166986081" lon="21.84924719737497" id="-44216">
		<tag k="name" v="Svartvatnet" />
		<tag k="natural" v="water" />
		<tag k="ssr:stedsnr" v="687371" />
	</node>
	<node lat="70.10279999808711" lon="22.378308288412814" id="-44221">
		<tag k="name" v="Ternevatnet - Čearretjávri" />
		<tag k="name:no" v="Ternevatnet" />
		<tag k="name:se" v="Čearretjávri" />
=======
<osm generator="osmapis" version="0.6">
	<node id="-900088" lat="70.2315805589" lon="22.0688360642">
		<tag k="name" v="Sørbotnelva" />
		<tag k="ssr:stedsnr" v="289114" />
		<tag k="waterway" v="river" />
	</node>
	<node id="-900077" lat="70.2750250017" lon="21.8397055209">
		<tag k="name" v="Eirselva" />
		<tag k="ssr:stedsnr" v="457871" />
		<tag k="waterway" v="river" />
	</node>
	<node id="-900072" lat="70.294769449" lon="21.5553555347">
		<tag k="name" v="Drikkelva" />
		<tag k="ssr:stedsnr" v="454867" />
		<tag k="waterway" v="stream" />
	</node>
	<node id="-900067" lat="70.3641111088" lon="21.7189305249">
		<tag k="name" v="Ytterværvatnet" />
		<tag k="natural" v="water" />
		<tag k="ssr:stedsnr" v="445273" />
	</node>
	<node id="-900065" lat="70.3328861148" lon="21.7155360664">
		<tag k="name" v="Tverrdalsvatnet" />
		<tag k="natural" v="water" />
		<tag k="ssr:stedsnr" v="445262" />
	</node>
	<node id="-900575" lat="70.1261722273" lon="22.2631360567">
		<tag k="name" v="Tverrelva" />
		<tag k="ssr:stedsnr" v="331496" />
		<tag k="waterway" v="river" />
	</node>
	<node id="-900573" lat="70.1152138923" lon="22.335013841">
		<tag k="name" v="Kolsokkerelva - Goalsohkarjohka" />
		<tag k="name:no" v="Kolsokkerelva" />
		<tag k="name:se" v="Goalsohkarjohka" />
		<tag k="old_name:se" v="Goalsåkkarjåkka" />
		<tag k="ssr:stedsnr" v="323555" />
		<tag k="waterway" v="river" />
	</node>
	<node id="-900571" lat="70.3128527764" lon="21.3724999787">
		<tag k="name" v="Kalvvatnet" />
		<tag k="natural" v="water" />
		<tag k="ssr:stedsnr" v="323331" />
	</node>
	<node id="-900054" lat="70.2476722193" lon="22.3828971772">
		<tag k="alt_name:se" v="Rássevákkejávri" />
		<tag k="name" v="Grasdalsvatnet - Rássejávri" />
		<tag k="name:no" v="Grasdalsvatnet" />
		<tag k="name:se" v="Rássejávri" />
		<tag k="natural" v="water" />
		<tag k="old_name:se" v="Rassejavri" />
		<tag k="ssr:stedsnr" v="444478" />
	</node>
	<node id="-900563" lat="70.2020277748" lon="21.6786916425">
		<tag k="alt_name:no" v="Rundvatnet, l" />
		<tag k="name" v="Lille Rundvatnet - Unna Jorbajávrráš" />
		<tag k="name:no" v="Lille Rundvatnet" />
		<tag k="name:se" v="Unna Jorbajávrráš" />
		<tag k="natural" v="water" />
		<tag k="old_name:se" v="Jårbajavraš unna" />
		<tag k="ssr:stedsnr" v="323268" />
	</node>
	<node id="-900559" lat="70.3055277799" lon="22.0726138456">
		<tag k="name" v="Mollvikvatnet" />
		<tag k="natural" v="water" />
		<tag k="ssr:stedsnr" v="323243" />
	</node>
	<node id="-900040" lat="70.2652000002" lon="21.3910249691">
		<tag k="name" v="Iselva" />
		<tag k="ssr:stedsnr" v="444262" />
		<tag k="waterway" v="stream" />
	</node>
	<node id="-900549" lat="70.1586472255" lon="22.4478388299">
		<tag k="name" v="Storvikdalvatnet" />
		<tag k="natural" v="water" />
		<tag k="ssr:stedsnr" v="322405" />
	</node>
	<node id="-900028" lat="70.2249972235" lon="21.252166642">
		<tag k="name" v="Kjerringelva" />
		<tag k="ssr:stedsnr" v="444116" />
		<tag k="waterway" v="river" />
	</node>
	<node id="-900534" lat="70.171394442" lon="22.2430749497">
		<tag k="name" v="Storelva" />
		<tag k="ssr:stedsnr" v="216250" />
		<tag k="waterway" v="river" />
	</node>
	<node id="-900524" lat="70.2867861153" lon="21.5547777413">
		<tag k="name" v="Hettekeilelva" />
		<tag k="ssr:stedsnr" v="211861" />
		<tag k="waterway" v="stream" />
	</node>
	<node id="-900011" lat="70.1281861093" lon="21.868499956">
		<tag k="name" v="Storfjellvatnan" />
		<tag k="natural" v="water" />
		<tag k="ssr:stedsnr" v="201269" />
	</node>
	<node id="-900010" lat="70.1287805529" lon="21.8337666263">
		<tag k="name" v="Førstevatnet" />
		<tag k="natural" v="water" />
		<tag k="ssr:stedsnr" v="201258" />
	</node>
	<node id="-900490" lat="70.2704222204" lon="22.0779443896">
		<tag k="name" v="Gresselva" />
		<tag k="ssr:stedsnr" v="168326" />
		<tag k="waterway" v="stream" />
	</node>
	<node id="-900489" lat="70.2396388912" lon="22.37352772">
		<tag k="name" v="Rassevaggeidet" />
		<tag k="natural" v="strait" />
		<tag k="ssr:stedsnr" v="167625" />
	</node>
	<node id="-899976" lat="70.2545527773" lon="21.5942999658">
		<tag k="name" v="Storelva" />
		<tag k="ssr:stedsnr" v="262537" />
		<tag k="waterway" v="river" />
	</node>
	<node id="-899967" lat="70.2422194426" lon="22.0370444076">
		<tag k="name" v="Svartfjellvatnet - Ráhttonasjávri" />
		<tag k="name:no" v="Svartfjellvatnet" />
		<tag k="name:se" v="Ráhttonasjávri" />
		<tag k="natural" v="water" />
		<tag k="old_name:se" v="Rattunasjavri" />
		<tag k="ssr:stedsnr" v="262366" />
	</node>
	<node id="-900757" lat="70.1094527818" lon="22.4089082751">
		<tag k="name" v="Langvatnet - Guhkesjávri" />
		<tag k="name:no" v="Langvatnet" />
		<tag k="name:se" v="Guhkesjávri" />
>>>>>>> e1d4bc35ff8a6074a6f2e91616a996b547c36f15
		<tag k="natural" v="water" />
		<tag k="old_name:se" v="Gukkesjavri" />
		<tag k="ssr:stedsnr" v="626582" />
		<tag k="water" v="lake" />
	</node>
<<<<<<< HEAD
	<node lat="70.11322499939992" lon="22.44427772946182" id="-44222">
		<tag k="name" v="Sørelvvatnet - Giđđajávri" />
		<tag k="name:no" v="Sørelvvatnet" />
		<tag k="name:se" v="Giđđajávri" />
		<tag k="natural" v="water" />
		<tag k="old_name:se" v="Giđđajavri" />
		<tag k="ssr:stedsnr" v="687561" />
		<tag k="water" v="lake" />
	</node>
	<node lat="70.13414444239547" lon="22.518113837358943" id="-44224">
		<tag k="name" v="Ingaelva" />
		<tag k="ssr:stedsnr" v="687582" />
		<tag k="waterway" v="stream" />
	</node>
	<node lat="70.35354166899018" lon="21.416944409368952" id="-44231">
		<tag k="name" v="Heiavatnet" />
=======
	<node id="-899961" lat="70.2110750014" lon="21.9855832906">
		<tag k="alt_name:no" v="Tverrfjordvatnet, nordre" />
		<tag k="name" v="Nordre Tverrfjordvatnet - Sámevuonjávri" />
		<tag k="name:no" v="Nordre Tverrfjordvatnet" />
		<tag k="name:se" v="Sámevuonjávri" />
		<tag k="natural" v="water" />
		<tag k="old_name:se" v="Samevuonjavri" />
		<tag k="ssr:stedsnr" v="262254" />
	</node>
	<node id="-899957" lat="70.2626749994" lon="22.1780110531">
		<tag k="loc_name:no" v="Jomfruvatnet" />
		<tag k="loc_name:se" v="Rivgujavri" />
		<tag k="name" v="Rivgojávri" />
		<tag k="name:se" v="Rivgojávri" />
		<tag k="natural" v="water" />
		<tag k="ssr:stedsnr" v="262215" />
		<tag k="water" v="lake" />
	</node>
	<node id="-899953" lat="70.2167305582" lon="21.3307860883">
		<tag k="alt_name" v="Trollvikvatnet, store" />
		<tag k="loc_name" v="Trollvikvatnet" />
		<tag k="name" v="Store Trollvikvatnet" />
		<tag k="natural" v="water" />
		<tag k="ssr:stedsnr" v="262186" />
		<tag k="water" v="lake" />
	</node>
	<node id="-900463" lat="70.163675" lon="22.3917749509">
		<tag k="name" v="Hávnnavákkejávri" />
		<tag k="name:se" v="Hávnnavákkejávri" />
>>>>>>> e1d4bc35ff8a6074a6f2e91616a996b547c36f15
		<tag k="natural" v="water" />
		<tag k="old_name:se" v="Havnavaggejavri" />
		<tag k="ssr:stedsnr" v="140417" />
	</node>
<<<<<<< HEAD
	<node lat="70.2257388919592" lon="21.70350551706438" id="-44259">
		<tag k="alt_name" v="Pannareidet" />
		<tag k="name" v="Bjørnvikeidet" />
		<tag k="place" v="locality" />
		<tag k="ssr:stedsnr" v="626416" />
	</node>
	<node lat="70.23878055512924" lon="22.106527741117446" id="-44264">
		<tag k="name" v="Maristøa" />
		<tag k="natural" v="beach" />
		<tag k="ssr:stedsnr" v="639412" />
	</node>
	<node lat="70.22007499983447" lon="22.220877732756115" id="-44268">
		<tag k="name" v="Tverrfjordelva" />
		<tag k="ssr:stedsnr" v="653114" />
		<tag k="waterway" v="stream" />
	</node>
	<node lat="70.17645833710844" lon="22.248558280309737" id="-44317">
		<tag k="alt_name" v="Småelven" />
		<tag k="name" v="Småelvan" />
		<tag k="ssr:stedsnr" v="823239" />
		<tag k="waterway" v="stream" />
	</node>
	<node lat="70.24281389289786" lon="21.838819422643155" id="-44333">
		<tag k="name" v="Bergsfjordvatnet" />
		<tag k="natural" v="water" />
		<tag k="ssr:stedsnr" v="929341" />
		<tag k="water" v="lake" />
	</node>
	<node lat="70.33617500181998" lon="21.73539162605077" id="-44347">
		<tag k="name" v="Rundvatnet" />
		<tag k="natural" v="water" />
		<tag k="ssr:stedsnr" v="930258" />
	</node>
	<node lat="70.17691110927595" lon="21.64094718113914" id="-44357">
		<tag k="name" v="Lovttajávri" />
		<tag k="name:se" v="Lovttajávri" />
		<tag k="natural" v="water" />
		<tag k="old_name:se" v="Låvtajavri;Lovtajávri" />
		<tag k="ssr:stedsnr" v="930284" />
		<tag k="water" v="lake" />
	</node>
	<node lat="70.05924722537488" lon="22.234891610490127" id="-44364">
		<tag k="name" v="Russelva - Ruoššajohka" />
		<tag k="name:no" v="Russelva" />
		<tag k="name:se" v="Ruoššajohka" />
		<tag k="old_name:se" v="Ruoššajåkka" />
		<tag k="ssr:stedsnr" v="931464" />
		<tag k="waterway" v="river" />
	</node>
	<node lat="70.21422777793737" lon="21.72294996672493" id="-44366">
		<tag k="name" v="Anderselva" />
		<tag k="ssr:stedsnr" v="878914" />
		<tag k="waterway" v="stream" />
	</node>
	<node lat="70.2372027799317" lon="22.10917495117183" id="-44372">
		<tag k="name" v="Fjordelva" />
		<tag k="ssr:stedsnr" v="895315" />
		<tag k="waterway" v="river" />
	</node>
	<node lat="70.22673333730583" lon="21.229408323273717" id="-44398">
		<tag k="name" v="Lillevannet" />
		<tag k="natural" v="water" />
		<tag k="ssr:stedsnr" v="956225" />
	</node>
	<node lat="70.19633055253894" lon="21.611905515991314" id="-44401">
		<tag k="alt_name" v="Bjørnevannet" />
		<tag k="name" v="Bjørnvatna" />
		<tag k="natural" v="water" />
		<tag k="ssr:stedsnr" v="19161" />
		<tag k="water" v="lake" />
	</node>
	<node lat="70.11434444618342" lon="21.842249953071672" id="-44407">
		<tag k="name" v="Tredjevatnet" />
		<tag k="natural" v="water" />
		<tag k="ssr:stedsnr" v="19265" />
		<tag k="water" v="lake" />
	</node>
	<node lat="70.16822222679055" lon="22.492577731378258" id="-44439">
		<tag k="name" v="Krekenvatnet - Nieidajávri" />
		<tag k="name:no" v="Krekenvatnet" />
		<tag k="name:se" v="Nieidajávri" />
		<tag k="natural" v="water" />
		<tag k="old_name:se" v="Nieidajavri" />
		<tag k="ssr:stedsnr" v="80419" />
		<tag k="water" v="lake" />
	</node>
	<node lat="70.34461110962296" lon="21.756308285932015" id="-44445">
		<tag k="name" v="Laksevatnet - Luossajávri" />
		<tag k="name:no" v="Laksevatnet" />
		<tag k="name:se" v="Luossajávri" />
		<tag k="natural" v="water" />
		<tag k="old_name:se" v="Luossajavri" />
		<tag k="ssr:stedsnr" v="80263" />
	</node>
	<node lat="70.12525555714086" lon="21.841866635326117" id="-44451">
		<tag k="name" v="Andrevatnet" />
		<tag k="natural" v="water" />
		<tag k="ssr:stedsnr" v="80293" />
	</node>
	<node lat="70.10849167233503" lon="22.547402728968752" id="-44456">
		<tag k="name" v="Nordelva - Muotkejohka" />
		<tag k="name:no" v="Nordelva" />
		<tag k="name:se" v="Muotkejohka" />
		<tag k="old_name:se" v="Muotkejåkka" />
		<tag k="ssr:stedsnr" v="80553" />
		<tag k="waterway" v="stream" />
	</node>
	<node lat="70.28816388823283" lon="21.751199976052618" id="-44461">
		<tag k="name" v="Daudmannsvatnet - Jámetjávri" />
		<tag k="name:no" v="Daudmannsvatnet" />
		<tag k="name:se" v="Jámetjávri" />
		<tag k="natural" v="water" />
		<tag k="old_name:se" v="Jametjavri" />
		<tag k="ssr:stedsnr" v="81268" />
		<tag k="water" v="lake" />
	</node>
	<node lat="70.26230000363545" lon="21.792547196514814" id="-44486">
		<tag k="name" v="Hummelvikvatnet" />
		<tag k="natural" v="water" />
		<tag k="ssr:stedsnr" v="140198" />
		<tag k="water" v="lake" />
	</node>
	<node lat="70.16367500004358" lon="22.391774950862537" id="-44490">
		<tag k="name" v="Hávnnavákkejávri" />
		<tag k="name:se" v="Hávnnavákkejávri" />
		<tag k="natural" v="water" />
		<tag k="old_name:se" v="Havnavaggejavri" />
		<tag k="ssr:stedsnr" v="140417" />
	</node>
	<node lat="70.27042222040656" lon="22.07794438959531" id="-44519">
		<tag k="name" v="Gresselva" />
		<tag k="ssr:stedsnr" v="168326" />
		<tag k="waterway" v="stream" />
	</node>
	<node lat="70.12878055292857" lon="21.833766626285353" id="-44538">
		<tag k="name" v="Førstevatnet" />
		<tag k="natural" v="water" />
		<tag k="ssr:stedsnr" v="201258" />
	</node>
	<node lat="70.1281861092631" lon="21.868499955961877" id="-44539">
		<tag k="name" v="Storfjellvatnan" />
		<tag k="natural" v="water" />
		<tag k="ssr:stedsnr" v="201269" />
	</node>
	<node lat="70.28678611528069" lon="21.55477774130973" id="-44554">
		<tag k="name" v="Hettekeilelva" />
		<tag k="ssr:stedsnr" v="211861" />
		<tag k="waterway" v="stream" />
	</node>
	<node lat="70.17139444197149" lon="22.24307494972135" id="-44560">
		<tag k="name" v="Storelva" />
		<tag k="ssr:stedsnr" v="216250" />
		<tag k="waterway" v="river" />
	</node>
	<node lat="70.15864722554609" lon="22.447838829905642" id="-44587">
		<tag k="name" v="Storvikdalvatnet" />
		<tag k="natural" v="water" />
		<tag k="ssr:stedsnr" v="322405" />
	</node>
	<node lat="70.30552777985126" lon="22.07261384560106" id="-44599">
		<tag k="name" v="Mollvikvatnet" />
		<tag k="natural" v="water" />
		<tag k="ssr:stedsnr" v="323243" />
	</node>
	<node lat="70.31285277639812" lon="21.372499978715695" id="-44606">
		<tag k="name" v="Kalvvatnet" />
		<tag k="natural" v="water" />
		<tag k="ssr:stedsnr" v="323331" />
	</node>
	<node lat="70.20202777479948" lon="21.67869164252905" id="-44607">
		<tag k="alt_name:no" v="Rundvatnet, l" />
		<tag k="name" v="Lille Rundvatnet - Unna Jorbajávrráš" />
		<tag k="name:no" v="Lille Rundvatnet" />
		<tag k="name:se" v="Unna Jorbajávrráš" />
=======
	<node id="-899950" lat="70.2433333313" lon="21.3842166385">
		<tag k="name" v="Skjerdingdalsvatnet" />
		<tag k="natural" v="water" />
		<tag k="ssr:stedsnr" v="262138" />
	</node>
	<node id="-900754" lat="70.225738892" lon="21.7035055171">
		<tag k="alt_name" v="Pannareidet" />
		<tag k="name" v="Bjørnvikeidet" />
		<tag k="natural" v="strait" />
		<tag k="ssr:stedsnr" v="626416" />
	</node>
	<node id="-899940" lat="70.1682222268" lon="22.4925777314">
		<tag k="name" v="Krekenvatnet - Nieidajávri" />
		<tag k="name:no" v="Krekenvatnet" />
		<tag k="name:se" v="Nieidajávri" />
		<tag k="natural" v="water" />
		<tag k="old_name:se" v="Nieidajavri" />
		<tag k="ssr:stedsnr" v="80419" />
		<tag k="water" v="lake" />
	</node>
	<node id="-900449" lat="70.2623000036" lon="21.7925471965">
		<tag k="name" v="Hummelvikvatnet" />
		<tag k="natural" v="water" />
		<tag k="ssr:stedsnr" v="140198" />
		<tag k="water" v="lake" />
	</node>
	<node id="-900427" lat="70.1715722271" lon="21.8637249694">
		<tag k="name" v="Iselva" />
		<tag k="ssr:stedsnr" v="93783" />
		<tag k="waterway" v="river" />
	</node>
	<node id="-900419" lat="70.2881638882" lon="21.7511999761">
		<tag k="name" v="Daudmannsvatnet - Jámetjávri" />
		<tag k="name:no" v="Daudmannsvatnet" />
		<tag k="name:se" v="Jámetjávri" />
		<tag k="natural" v="water" />
		<tag k="old_name:se" v="Jametjavri" />
		<tag k="ssr:stedsnr" v="81268" />
		<tag k="water" v="lake" />
	</node>
	<node id="-900414" lat="70.1084916723" lon="22.547402729">
		<tag k="name" v="Nordelva - Muotkejohka" />
		<tag k="name:no" v="Nordelva" />
		<tag k="name:se" v="Muotkejohka" />
		<tag k="old_name:se" v="Muotkejåkka" />
		<tag k="ssr:stedsnr" v="80553" />
		<tag k="waterway" v="stream" />
	</node>
	<node id="-900411" lat="70.2222305583" lon="22.3872804944">
		<tag k="name" v="Vassdalsvatnet - Fasttaljávri" />
		<tag k="name:no" v="Vassdalsvatnet" />
		<tag k="name:se" v="Fasttaljávri" />
		<tag k="natural" v="water" />
		<tag k="old_name:se" v="Fastaljavri" />
		<tag k="ssr:stedsnr" v="80393" />
		<tag k="water" v="lake" />
	</node>
	<node id="-900063" lat="70.2800638942" lon="21.7398360803">
		<tag k="name" v="Geitelva - Gáicajohka" />
		<tag k="name:no" v="Geitelva" />
		<tag k="name:se" v="Gáicajohka" />
		<tag k="old_name:se" v="Gaicajåkka" />
		<tag k="ssr:stedsnr" v="445229" />
		<tag k="waterway" v="stream" />
	</node>
	<node id="-900402" lat="70.1252555571" lon="21.8418666353">
		<tag k="name" v="Andrevatnet" />
		<tag k="natural" v="water" />
		<tag k="ssr:stedsnr" v="80293" />
	</node>
	<node id="-900912" lat="70.2267333373" lon="21.2294083233">
		<tag k="name" v="Lillevannet" />
		<tag k="natural" v="water" />
		<tag k="ssr:stedsnr" v="956225" />
	</node>
	<node id="-900317" lat="70.2195722198" lon="21.701463858">
		<tag k="name" v="Sør Tverrfjordelva" />
		<tag k="ssr:stedsnr" v="939902" />
		<tag k="waterway" v="river" />
	</node>
	<node id="-900396" lat="70.3446111096" lon="21.7563082859">
		<tag k="name" v="Laksevatnet - Luossajávri" />
		<tag k="name:no" v="Laksevatnet" />
		<tag k="name:se" v="Luossajávri" />
		<tag k="natural" v="water" />
		<tag k="old_name:se" v="Luossajavri" />
		<tag k="ssr:stedsnr" v="80263" />
	</node>
	<node id="-900904" lat="70.2704222229" lon="22.1390249632">
		<tag k="name" v="Jomfrudalselva" />
		<tag k="ssr:stedsnr" v="956356" />
		<tag k="waterway" v="river" />
	</node>
	<node id="-900390" lat="70.2397027787" lon="21.330288874">
		<tag k="alt_name" v="Trollvikvatnet, l" />
		<tag k="name" v="Lille Trollvikvatnet" />
		<tag k="natural" v="water" />
		<tag k="ssr:stedsnr" v="80143" />
	</node>
	<node id="-900899" lat="70.1203194461" lon="22.2223027344">
		<tag k="alt_name" v="Kjoselva, austre" />
		<tag k="name" v="Austre Kjoselva" />
		<tag k="ssr:stedsnr" v="869602" />
		<tag k="waterway" v="river" />
	</node>
	<node id="-900893" lat="70.3035166684" lon="21.496874966">
		<tag k="name" v="Laukslettvatnet" />
		<tag k="natural" v="water" />
		<tag k="ssr:stedsnr" v="869368" />
	</node>
	<node id="-900888" lat="70.3524305597" lon="21.7623860828">
		<tag k="name" v="Stallelva" />
		<tag k="ssr:stedsnr" v="869283" />
		<tag k="waterway" v="river" />
	</node>
	<node id="-900887" lat="70.1973111099" lon="21.6811138454">
		<tag k="name" v="Ternvatnet - Čearretjávri" />
		<tag k="name:no" v="Ternvatnet" />
		<tag k="name:se" v="Čearretjávri" />
		<tag k="natural" v="water" />
		<tag k="old_name:se" v="Čærretjavri" />
		<tag k="ssr:stedsnr" v="869281" />
	</node>
	<node id="-900359" lat="70.2711055605" lon="22.2405610724">
		<tag k="name" v="Arntovatnet" />
		<tag k="natural" v="water" />
		<tag k="ssr:stedsnr" v="20093" />
	</node>
	<node id="-900870" lat="70.2508888943" lon="22.0842138476">
		<tag k="name" v="Brattneselva" />
		<tag k="ssr:stedsnr" v="835324" />
		<tag k="waterway" v="river" />
	</node>
	<node id="-900865" lat="70.1764583371" lon="22.2485582803">
		<tag k="alt_name" v="Småelven" />
		<tag k="name" v="Småelvan" />
		<tag k="ssr:stedsnr" v="823239" />
		<tag k="waterway" v="stream" />
	</node>
	<node id="-900862" lat="70.2138833306" lon="21.6827166288">
		<tag k="name" v="Beskodet" />
		<tag k="natural" v="cape" />
		<tag k="ssr:stedsnr" v="818898" />
	</node>
	<node id="-900345" lat="70.1143444462" lon="21.8422499531">
		<tag k="name" v="Tredjevatnet" />
		<tag k="natural" v="water" />
		<tag k="ssr:stedsnr" v="19265" />
		<tag k="water" v="lake" />
	</node>
	<node id="-900340" lat="70.1963305525" lon="21.611905516">
		<tag k="alt_name" v="Bjørnevannet" />
		<tag k="name" v="Bjørnvatna" />
		<tag k="natural" v="water" />
		<tag k="ssr:stedsnr" v="19161" />
		<tag k="water" v="lake" />
	</node>
	<node id="-900844" lat="70.133275002" lon="22.5328582853">
		<tag k="name" v="Hoplielva" />
		<tag k="ssr:stedsnr" v="808549" />
		<tag k="waterway" v="stream" />
	</node>
	<node id="-900829" lat="70.2792805603" lon="21.5324610724">
		<tag k="name" v="Svartskogelva" />
		<tag k="ssr:stedsnr" v="808273" />
		<tag k="waterway" v="stream" />
	</node>
	<node id="-900826" lat="70.2627000039" lon="21.5854277501">
		<tag k="name" v="Langvatnet - Seakkajávri" />
		<tag k="name:no" v="Langvatnet" />
		<tag k="name:se" v="Seakkajávri" />
		<tag k="natural" v="water" />
		<tag k="old_name:se" v="Sæggajavri" />
		<tag k="ssr:stedsnr" v="808264" />
		<tag k="water" v="lake" />
	</node>
	<node id="-900824" lat="70.1909888863" lon="21.6882166321">
		<tag k="alt_name:no" v="Rundvatnet, store" />
		<tag k="name" v="Store Rundvatnet - Stuora Jorbajávri" />
		<tag k="name:no" v="Store Rundvatnet" />
		<tag k="name:se" v="Stuora Jorbajávri" />
>>>>>>> e1d4bc35ff8a6074a6f2e91616a996b547c36f15
		<tag k="natural" v="water" />
		<tag k="old_name:se" v="Jårbajavri stuora" />
		<tag k="ssr:stedsnr" v="808251" />
		<tag k="water" v="lake" />
	</node>
<<<<<<< HEAD
	<node lat="70.11521389230613" lon="22.335013840982153" id="-44608">
		<tag k="name" v="Kolsokkerelva - Goalsohkarjohka" />
		<tag k="name:no" v="Kolsokkerelva" />
		<tag k="name:se" v="Goalsohkarjohka" />
		<tag k="old_name:se" v="Goalsåkkarjåkka" />
		<tag k="ssr:stedsnr" v="323555" />
		<tag k="waterway" v="river" />
	</node>
	<node lat="70.11794722279808" lon="22.375933273353045" id="-44643">
		<tag k="name" v="Rundvatnet - Goalsohkarjávri" />
		<tag k="name:no" v="Rundvatnet" />
		<tag k="name:se" v="Goalsohkarjávri" />
		<tag k="natural" v="water" />
		<tag k="old_name:se" v="Goalsåkkarjavri" />
		<tag k="ssr:stedsnr" v="383576" />
		<tag k="water" v="lake" />
	</node>
	<node lat="70.12460277701092" lon="22.368516601778417" id="-44644">
		<tag k="name" v="Trollbottvatnet - Stálojávri" />
		<tag k="name:no" v="Trollbottvatnet" />
		<tag k="name:se" v="Stálojávri" />
		<tag k="natural" v="water" />
		<tag k="old_name:se" v="Stalujavri" />
		<tag k="ssr:stedsnr" v="383586" />
	</node>
	<node lat="70.26520000017804" lon="21.391024969094524" id="-44670">
		<tag k="name" v="Iselva" />
		<tag k="ssr:stedsnr" v="444262" />
		<tag k="waterway" v="stream" />
	</node>
	<node lat="70.24767221927897" lon="22.382897177165464" id="-44684">
		<tag k="alt_name:se" v="Rássevákkejávri" />
		<tag k="name" v="Grasdalsvatnet - Rássejávri" />
		<tag k="name:no" v="Grasdalsvatnet" />
		<tag k="name:se" v="Rássejávri" />
		<tag k="natural" v="water" />
		<tag k="old_name:se" v="Rassejavri" />
		<tag k="ssr:stedsnr" v="444478" />
	</node>
	<node lat="70.33288611483162" lon="21.71553606636397" id="-44689">
		<tag k="name" v="Tverrdalsvatnet" />
		<tag k="natural" v="water" />
		<tag k="ssr:stedsnr" v="445262" />
	</node>
	<node lat="70.36411110875804" lon="21.718930524917603" id="-44691">
		<tag k="name" v="Ytterværvatnet" />
		<tag k="natural" v="water" />
		<tag k="ssr:stedsnr" v="445273" />
	</node>
	<node lat="70.16486944747531" lon="21.811674965859595" id="-44696">
		<tag k="name" v="Grønnesvatnet" />
		<tag k="natural" v="water" />
		<tag k="ssr:stedsnr" v="504241" />
	</node>
	<node lat="70.28818055493421" lon="21.53852218943348" id="-44712">
		<tag k="name" v="Lomevatnet" />
		<tag k="natural" v="water" />
		<tag k="ssr:stedsnr" v="505350" />
	</node>
	<node lat="70.30591111629123" lon="21.551013854043664" id="-44721">
		<tag k="name" v="Prestelva" />
		<tag k="ssr:stedsnr" v="514832" />
		<tag k="waterway" v="stream" />
	</node>
	<node lat="70.07796111674129" lon="22.2269971807721" id="-44733">
		<tag k="name" v="Ruoššavákkejávri" />
		<tag k="name:se" v="Ruoššavákkejávri" />
		<tag k="natural" v="water" />
		<tag k="old_name:se" v="Ruoššavaggejavri" />
		<tag k="ssr:stedsnr" v="564537" />
	</node>
	<node lat="70.09537222367075" lon="22.481874953250696" id="-44734">
		<tag k="name" v="Sørelva - Giđđajohka" />
		<tag k="name:no" v="Sørelva" />
		<tag k="name:se" v="Giđđajohka" />
		<tag k="old_name:se" v="Giđđajåkka" />
		<tag k="ssr:stedsnr" v="564547" />
		<tag k="waterway" v="stream" />
	</node>
	<node lat="70.33156666341594" lon="21.737344417051688" id="-44742">
		<tag k="name" v="Svartvatnet - Čáhppesjávri" />
		<tag k="name:no" v="Svartvatnet" />
		<tag k="name:se" v="Čáhppesjávri" />
		<tag k="natural" v="water" />
		<tag k="old_name:se" v="Čappesjavri" />
		<tag k="ssr:stedsnr" v="565244" />
		<tag k="water" v="lake" />
	</node>
	<node lat="70.34404999785049" lon="21.74183884219254" id="-44745">
		<tag k="name" v="Lomvatnet" />
		<tag k="natural" v="water" />
		<tag k="ssr:stedsnr" v="565251" />
	</node>
	<node lat="70.22915833167501" lon="22.368272177343417" id="-44776">
		<tag k="name" v="Vassdalselva" />
		<tag k="ssr:stedsnr" v="592623" />
		<tag k="waterway" v="river" />
	</node>
	<node lat="70.2004361103891" lon="21.39923329802252" id="-44781">
		<tag k="name" v="Daudmannsvatna" />
		<tag k="natural" v="water" />
		<tag k="ssr:stedsnr" v="625172" />
	</node>
	<node lat="70.34723611390606" lon="21.427091648851775" id="-44802">
=======
	<node id="-900822" lat="70.1722138917" lon="21.7025666466">
		<tag k="name" v="Jøkelvatnet - Jiehkevuolesjávri" />
		<tag k="name:no" v="Jøkelvatnet" />
		<tag k="name:se" v="Jiehkevuolesjávri" />
		<tag k="natural" v="water" />
		<tag k="old_name:se" v="Jiekkevuolesjavri" />
		<tag k="ssr:stedsnr" v="808243" />
	</node>
	<node id="-900820" lat="70.1989638926" lon="21.8274999618">
		<tag k="name" v="Storelva" />
		<tag k="ssr:stedsnr" v="808235" />
		<tag k="waterway" v="stream" />
	</node>
	<node id="-900819" lat="70.2107666674" lon="21.6773832901">
		<tag k="alt_name:no" v="Førstevatnet" />
		<tag k="name" v="Storvatnet - Stuorajávri" />
		<tag k="name:no" v="Storvatnet" />
		<tag k="name:se" v="Stuorajávri" />
		<tag k="natural" v="water" />
		<tag k="old_name:se" v="Stuorajavri" />
		<tag k="ssr:stedsnr" v="808228" />
		<tag k="water" v="lake" />
	</node>
	<node id="-900306" lat="70.0592472254" lon="22.2348916105">
		<tag k="name" v="Russelva - Ruoššajohka" />
		<tag k="name:no" v="Russelva" />
		<tag k="name:se" v="Ruoššajohka" />
		<tag k="old_name:se" v="Ruoššajåkka" />
		<tag k="ssr:stedsnr" v="931464" />
		<tag k="waterway" v="river" />
	</node>
	<node id="-900816" lat="70.2438444462" lon="21.5724694121">
		<tag k="name" v="Sandlandsvatnet" />
		<tag k="natural" v="water" />
		<tag k="ssr:stedsnr" v="808121" />
		<tag k="water" v="lake" />
	</node>
	<node id="-900815" lat="70.2430972222" lon="21.2976444124">
		<tag k="alt_name:no" v="Svartvannet" />
		<tag k="name" v="Svartvatnet - Čáhppesjávri" />
		<tag k="name:no" v="Svartvatnet" />
		<tag k="name:se" v="Čáhppesjávri" />
		<tag k="natural" v="water" />
		<tag k="old_name:se" v="Čappesjavri" />
		<tag k="ssr:stedsnr" v="808117" />
	</node>
	<node id="-900813" lat="70.3425638919" lon="21.7270777339">
		<tag k="name" v="Fjelltindvatnet" />
		<tag k="natural" v="water" />
		<tag k="ssr:stedsnr" v="809272" />
	</node>
	<node id="-900812" lat="70.3372499976" lon="21.7416110699">
		<tag k="name" v="Litlevatnet" />
		<tag k="natural" v="water" />
		<tag k="ssr:stedsnr" v="809266" />
	</node>
	<node id="-900297" lat="70.1769111093" lon="21.6409471811">
		<tag k="name" v="Lovttajávri" />
		<tag k="name:se" v="Lovttajávri" />
		<tag k="natural" v="water" />
		<tag k="old_name:se" v="Låvtajavri;Lovtajávri" />
		<tag k="ssr:stedsnr" v="930284" />
		<tag k="water" v="lake" />
	</node>
	<node id="-900286" lat="70.3361750018" lon="21.7353916261">
		<tag k="name" v="Rundvatnet" />
		<tag k="natural" v="water" />
		<tag k="ssr:stedsnr" v="930258" />
	</node>
	<node id="-900274" lat="70.2428138929" lon="21.8388194226">
		<tag k="name" v="Bergsfjordvatnet" />
		<tag k="natural" v="water" />
		<tag k="ssr:stedsnr" v="929341" />
		<tag k="water" v="lake" />
	</node>
	<node id="-900262" lat="70.2458305537" lon="21.3324499658">
		<tag k="name" v="Trollvikelva" />
		<tag k="ssr:stedsnr" v="748505" />
		<tag k="waterway" v="river" />
	</node>
	<node id="-900761" lat="70.2387805551" lon="22.1065277411">
		<tag k="name" v="Maristøa" />
		<tag k="natural" v="beach" />
		<tag k="ssr:stedsnr" v="639412" />
	</node>
	<node id="-900245" lat="70.2372027799" lon="22.1091749512">
		<tag k="name" v="Fjordelva" />
		<tag k="ssr:stedsnr" v="895315" />
		<tag k="waterway" v="river" />
	</node>
	<node id="-900242" lat="70.3334694485" lon="21.4358055277">
		<tag k="name" v="Sandelva" />
		<tag k="ssr:stedsnr" v="713156" />
		<tag k="waterway" v="stream" />
	</node>
	<node id="-900746" lat="70.3472361139" lon="21.4270916489">
>>>>>>> e1d4bc35ff8a6074a6f2e91616a996b547c36f15
		<tag k="name" v="Høystakkelva" />
		<tag k="ssr:stedsnr" v="626364" />
		<tag k="waterway" v="stream" />
	</node>
<<<<<<< HEAD
	<node lat="70.20281944499634" lon="21.739544399125833" id="-44810">
		<tag k="name" v="Andersdalsvatna" />
		<tag k="natural" v="water" />
		<tag k="ssr:stedsnr" v="626277" />
		<tag k="water" v="lake" />
	</node>
	<node lat="70.10945278182788" lon="22.40890827513936" id="-44817">
		<tag k="name" v="Langvatnet - Guhkesjávri" />
		<tag k="name:no" v="Langvatnet" />
		<tag k="name:se" v="Guhkesjávri" />
		<tag k="natural" v="water" />
		<tag k="old_name:se" v="Gukkesjavri" />
		<tag k="ssr:stedsnr" v="626582" />
		<tag k="water" v="lake" />
	</node>
	<node lat="70.33346944853099" lon="21.435805527666933" id="-44835">
		<tag k="name" v="Sandelva" />
		<tag k="ssr:stedsnr" v="713156" />
		<tag k="waterway" v="stream" />
	</node>
	<node lat="70.24583055370978" lon="21.33244996576826" id="-44859">
		<tag k="name" v="Trollvikelva" />
		<tag k="ssr:stedsnr" v="748505" />
		<tag k="waterway" v="river" />
	</node>
	<node lat="70.2430972222146" lon="21.297644412374172" id="-44869">
		<tag k="alt_name:no" v="Svartvannet" />
		<tag k="name" v="Svartvatnet - Čáhppesjávri" />
		<tag k="name:no" v="Svartvatnet" />
		<tag k="name:se" v="Čáhppesjávri" />
		<tag k="natural" v="water" />
		<tag k="old_name:se" v="Čappesjavri" />
		<tag k="ssr:stedsnr" v="808117" />
	</node>
	<node lat="70.24384444619034" lon="21.572469412095884" id="-44870">
		<tag k="name" v="Sandlandsvatnet" />
		<tag k="natural" v="water" />
		<tag k="ssr:stedsnr" v="808121" />
		<tag k="water" v="lake" />
	</node>
	<node lat="70.17221389165815" lon="21.702566646568407" id="-44872">
		<tag k="name" v="Jøkelvatnet - Jiehkevuolesjávri" />
		<tag k="name:no" v="Jøkelvatnet" />
		<tag k="name:se" v="Jiehkevuolesjávri" />
		<tag k="natural" v="water" />
		<tag k="old_name:se" v="Jiekkevuolesjavri" />
		<tag k="ssr:stedsnr" v="808243" />
	</node>
	<node lat="70.19098888632367" lon="21.68821663209006" id="-44874">
		<tag k="alt_name:no" v="Rundvatnet, store" />
		<tag k="name" v="Store Rundvatnet - Stuora Jorbajávri" />
		<tag k="name:no" v="Store Rundvatnet" />
		<tag k="name:se" v="Stuora Jorbajávri" />
		<tag k="natural" v="water" />
		<tag k="old_name:se" v="Jårbajavri stuora" />
		<tag k="ssr:stedsnr" v="808251" />
		<tag k="water" v="lake" />
	</node>
	<node lat="70.21076666742167" lon="21.677383290099666" id="-44876">
		<tag k="alt_name:no" v="Førstevatnet" />
		<tag k="name" v="Storvatnet - Stuorajávri" />
		<tag k="name:no" v="Storvatnet" />
		<tag k="name:se" v="Stuorajávri" />
		<tag k="natural" v="water" />
		<tag k="old_name:se" v="Stuorajavri" />
		<tag k="ssr:stedsnr" v="808228" />
		<tag k="water" v="lake" />
	</node>
	<node lat="70.19896389256235" lon="21.827499961786064" id="-44877">
		<tag k="name" v="Storelva" />
		<tag k="ssr:stedsnr" v="808235" />
		<tag k="waterway" v="stream" />
	</node>
	<node lat="70.26270000387223" lon="21.58542775014091" id="-44883">
		<tag k="name" v="Langvatnet - Seakkajávri" />
		<tag k="name:no" v="Langvatnet" />
		<tag k="name:se" v="Seakkajávri" />
		<tag k="natural" v="water" />
		<tag k="old_name:se" v="Sæggajavri" />
		<tag k="ssr:stedsnr" v="808264" />
		<tag k="water" v="lake" />
	</node>
	<node lat="70.27928056029478" lon="21.53246107241074" id="-44886">
		<tag k="name" v="Svartskogelva" />
		<tag k="ssr:stedsnr" v="808273" />
		<tag k="waterway" v="stream" />
	</node>
	<node lat="70.13327500198734" lon="22.532858285289876" id="-44896">
		<tag k="name" v="Hoplielva" />
		<tag k="ssr:stedsnr" v="808549" />
		<tag k="waterway" v="stream" />
	</node>
	<node lat="70.3372499976072" lon="21.741611069947872" id="-44900">
		<tag k="name" v="Litlevatnet" />
		<tag k="natural" v="water" />
		<tag k="ssr:stedsnr" v="809266" />
	</node>
	<node lat="70.34256389186599" lon="21.72707773394444" id="-44901">
		<tag k="name" v="Fjelltindvatnet" />
		<tag k="natural" v="water" />
		<tag k="ssr:stedsnr" v="809272" />
	</node>
	<node lat="70.21388333064323" lon="21.68271662880859" id="-44916">
		<tag k="name" v="Beskodet" />
		<tag k="natural" v="cape" />
		<tag k="ssr:stedsnr" v="818898" />
	</node>
	<node lat="70.25088889427123" lon="22.08421384762256" id="-44922">
		<tag k="name" v="Brattneselva" />
		<tag k="ssr:stedsnr" v="835324" />
		<tag k="waterway" v="river" />
	</node>
	<node lat="70.12031944605398" lon="22.222302734362305" id="-44930">
		<tag k="alt_name" v="Kjoselva, austre" />
		<tag k="name" v="Austre Kjoselva" />
		<tag k="ssr:stedsnr" v="869602" />
		<tag k="waterway" v="river" />
	</node>
	<node lat="70.19731110986727" lon="21.68111384535246" id="-44936">
		<tag k="name" v="Ternvatnet - Čearretjávri" />
		<tag k="name:no" v="Ternvatnet" />
		<tag k="name:se" v="Čearretjávri" />
=======
	<node id="-900227" lat="70.2142277779" lon="21.7229499667">
		<tag k="name" v="Anderselva" />
		<tag k="ssr:stedsnr" v="878914" />
		<tag k="waterway" v="stream" />
	</node>
	<node id="-900737" lat="70.202819445" lon="21.7395443991">
		<tag k="name" v="Andersdalsvatna" />
		<tag k="natural" v="water" />
		<tag k="ssr:stedsnr" v="626277" />
		<tag k="water" v="lake" />
	</node>
	<node id="-900222" lat="70.2200749998" lon="22.2208777328">
		<tag k="name" v="Tverrfjordelva" />
		<tag k="ssr:stedsnr" v="653114" />
		<tag k="waterway" v="stream" />
	</node>
	<node id="-900710" lat="70.2004361104" lon="21.399233298">
		<tag k="name" v="Daudmannsvatna" />
		<tag k="natural" v="water" />
		<tag k="ssr:stedsnr" v="625172" />
	</node>
	<node id="-900196" lat="70.1341444424" lon="22.5181138374">
		<tag k="name" v="Ingaelva" />
		<tag k="ssr:stedsnr" v="687582" />
		<tag k="waterway" v="stream" />
	</node>
	<node id="-900194" lat="70.1132249994" lon="22.4442777295">
		<tag k="name" v="Sørelvvatnet - Giđđajávri" />
		<tag k="name:no" v="Sørelvvatnet" />
		<tag k="name:se" v="Giđđajávri" />
		<tag k="natural" v="water" />
		<tag k="old_name:se" v="Giđđajavri" />
		<tag k="ssr:stedsnr" v="687561" />
		<tag k="water" v="lake" />
	</node>
	<node id="-900193" lat="70.1027999981" lon="22.3783082884">
		<tag k="name" v="Ternevatnet - Čearretjávri" />
		<tag k="name:no" v="Ternevatnet" />
		<tag k="name:se" v="Čearretjávri" />
		<tag k="natural" v="water" />
		<tag k="old_name:se" v="Čærretjavri" />
		<tag k="ssr:stedsnr" v="687543" />
		<tag k="water" v="lake" />
	</node>
	<node id="-900702" lat="70.2291583317" lon="22.3682721773">
		<tag k="name" v="Vassdalselva" />
		<tag k="ssr:stedsnr" v="592623" />
		<tag k="waterway" v="river" />
	</node>
	<node id="-900187" lat="70.2492916699" lon="21.8492471974">
		<tag k="name" v="Svartvatnet" />
		<tag k="natural" v="water" />
		<tag k="ssr:stedsnr" v="687371" />
	</node>
	<node id="-900179" lat="70.3626111121" lon="21.4354666472">
		<tag k="name" v="Krakelva" />
		<tag k="ssr:stedsnr" v="687323" />
		<tag k="waterway" v="stream" />
	</node>
	<node id="-900171" lat="70.2191138935" lon="21.6212305205">
		<tag k="name" v="Bjørndalvatna" />
		<tag k="natural" v="water" />
		<tag k="ssr:stedsnr" v="687252" />
		<tag k="water" v="lake" />
	</node>
	<node id="-900170" lat="70.220061109" lon="22.207619397">
		<tag k="name" v="Tverrfjordvatnet" />
		<tag k="natural" v="water" />
		<tag k="ssr:stedsnr" v="687251" />
	</node>
	<node id="-900664" lat="70.353541669" lon="21.4169444094">
		<tag k="name" v="Heiavatnet" />
		<tag k="natural" v="water" />
		<tag k="ssr:stedsnr" v="565317" />
	</node>
	<node id="-900659" lat="70.3440499979" lon="21.7418388422">
		<tag k="name" v="Lomvatnet" />
		<tag k="natural" v="water" />
		<tag k="ssr:stedsnr" v="565251" />
	</node>
	<node id="-900656" lat="70.3315666634" lon="21.7373444171">
		<tag k="name" v="Svartvatnet - Čáhppesjávri" />
		<tag k="name:no" v="Svartvatnet" />
		<tag k="name:se" v="Čáhppesjávri" />
		<tag k="natural" v="water" />
		<tag k="old_name:se" v="Čappesjavri" />
		<tag k="ssr:stedsnr" v="565244" />
		<tag k="water" v="lake" />
	</node>
	<node id="-900142" lat="70.3059111163" lon="21.551013854">
		<tag k="name" v="Prestelva" />
		<tag k="ssr:stedsnr" v="514832" />
		<tag k="waterway" v="stream" />
	</node>
	<node id="-900647" lat="70.0953722237" lon="22.4818749533">
		<tag k="name" v="Sørelva - Giđđajohka" />
		<tag k="name:no" v="Sørelva" />
		<tag k="name:se" v="Giđđajohka" />
		<tag k="old_name:se" v="Giđđajåkka" />
		<tag k="ssr:stedsnr" v="564547" />
		<tag k="waterway" v="stream" />
	</node>
	<node id="-900646" lat="70.0779611167" lon="22.2269971808">
		<tag k="name" v="Ruoššavákkejávri" />
		<tag k="name:se" v="Ruoššavákkejávri" />
		<tag k="natural" v="water" />
		<tag k="old_name:se" v="Ruoššavaggejavri" />
		<tag k="ssr:stedsnr" v="564537" />
	</node>
	<node id="-900133" lat="70.2881805549" lon="21.5385221894">
		<tag k="name" v="Lomevatnet" />
>>>>>>> e1d4bc35ff8a6074a6f2e91616a996b547c36f15
		<tag k="natural" v="water" />
		<tag k="ssr:stedsnr" v="505350" />
	</node>
<<<<<<< HEAD
	<node lat="70.35243055966511" lon="21.762386082795963" id="-44937">
		<tag k="name" v="Stallelva" />
		<tag k="ssr:stedsnr" v="869283" />
		<tag k="waterway" v="river" />
	</node>
	<node lat="70.30351666838996" lon="21.496874966045464" id="-44942">
		<tag k="name" v="Laukslettvatnet" />
		<tag k="natural" v="water" />
		<tag k="ssr:stedsnr" v="869368" />
	</node>
	<node lat="70.21957221981802" lon="21.701463857955687" id="-44956">
		<tag k="name" v="Sør Tverrfjordelva" />
		<tag k="ssr:stedsnr" v="939902" />
		<tag k="waterway" v="river" />
	</node>
	<node lat="70.2704222228686" lon="22.139024963168495" id="-44971">
		<tag k="name" v="Jomfrudalselva" />
		<tag k="ssr:stedsnr" v="956356" />
=======
	<node id="-900130" lat="70.1986583354" lon="21.9277694159">
		<tag k="name" v="Svartvatnet" />
		<tag k="natural" v="water" />
		<tag k="ssr:stedsnr" v="505278" />
		<tag k="water" v="lake" />
	</node>
	<node id="-900129" lat="70.3037305576" lon="21.736202747">
		<tag k="name" v="Røsnesvatna" />
		<tag k="natural" v="water" />
		<tag k="ssr:stedsnr" v="505274" />
	</node>
	<node id="-900128" lat="70.2083499983" lon="22.0488582768">
		<tag k="loc_name" v="Eggvatnet" />
		<tag k="name" v="Tenvatnet" />
		<tag k="natural" v="water" />
		<tag k="ssr:stedsnr" v="505269" />
	</node>
	<node id="-900109" lat="70.1648694475" lon="21.8116749659">
		<tag k="name" v="Grønnesvatnet" />
		<tag k="natural" v="water" />
		<tag k="ssr:stedsnr" v="504241" />
	</node>
	<node id="-900614" lat="70.124602777" lon="22.3685166018">
		<tag k="name" v="Trollbottvatnet - Stálojávri" />
		<tag k="name:no" v="Trollbottvatnet" />
		<tag k="name:se" v="Stálojávri" />
		<tag k="natural" v="water" />
		<tag k="old_name:se" v="Stalujavri" />
		<tag k="ssr:stedsnr" v="383586" />
	</node>
	<node id="-900613" lat="70.1179472228" lon="22.3759332734">
		<tag k="name" v="Rundvatnet - Goalsohkarjávri" />
		<tag k="name:no" v="Rundvatnet" />
		<tag k="name:se" v="Goalsohkarjávri" />
		<tag k="natural" v="water" />
		<tag k="old_name:se" v="Goalsåkkarjavri" />
		<tag k="ssr:stedsnr" v="383576" />
		<tag k="water" v="lake" />
	</node>
	<node id="-900612" lat="70.0994138874" lon="22.5930777121">
		<tag k="name" v="Kjellarvatnet - Geallárjávri" />
		<tag k="name:no" v="Kjellarvatnet" />
		<tag k="name:se" v="Geallárjávri" />
		<tag k="natural" v="water" />
		<tag k="old_name:se" v="Gællarjavri" />
		<tag k="ssr:stedsnr" v="383559" />
	</node>
	<node id="-900609" lat="70.1499888885" lon="22.4692721578">
		<tag k="name" v="Krekenelva" />
		<tag k="ssr:stedsnr" v="383455" />
>>>>>>> e1d4bc35ff8a6074a6f2e91616a996b547c36f15
		<tag k="waterway" v="river" />
	</node>
</osm>
