<?xml version="1.0" encoding="UTF-8"?>
<<<<<<< HEAD
<osm version="0.6" generator="osmapis">
	<node lat="70.16445507863844" lon="22.306392464757792" id="-43984">
		<tag k="alt_name" v="Porkevika" />
		<tag k="loc_name" v="Purkevika" />
		<tag k="name" v="Purkevik" />
		<tag k="place" v="farm" />
		<tag k="ssr:stedsnr" v="19406" />
	</node>
	<node lat="70.3054333327174" lon="21.39186663745156" id="-44009">
		<tag k="name" v="Været" />
		<tag k="place" v="isolated_dwelling" />
		<tag k="ssr:stedsnr" v="80342" />
	</node>
	<node lat="70.23306647586962" lon="22.2679291143983" id="-44012">
		<tag k="name" v="Bukta" />
		<tag k="place" v="isolated_dwelling" />
		<tag k="ssr:stedsnr" v="80489" />
	</node>
	<node lat="70.22972500220482" lon="22.335694407847072" id="-44019">
		<tag k="name" v="Presteng" />
		<tag k="place" v="farm" />
		<tag k="ssr:stedsnr" v="107612" />
	</node>
	<node lat="70.24441944916217" lon="21.78063053317435" id="-44023">
		<tag k="name" v="Leirvik" />
		<tag k="place" v="farm" />
		<tag k="ssr:stedsnr" v="140374" />
	</node>
	<node lat="70.2239666680498" lon="22.235233293941523" id="-44024">
		<tag k="name" v="Sletta" />
		<tag k="place" v="hamlet" />
		<tag k="ssr:stedsnr" v="140392" />
	</node>
	<node lat="70.2659916710297" lon="21.79464442076349" id="-44031">
		<tag k="name" v="Hummelvika" />
		<tag k="place" v="isolated_dwelling" />
		<tag k="ssr:stedsnr" v="141232" />
	</node>
	<node lat="70.21769444035588" lon="21.482824978202526" id="-44045">
		<tag k="alt_name" v="Tofta" />
		<tag k="name" v="Toften" />
		<tag k="place" v="farm" />
		<tag k="ssr:stedsnr" v="262185" />
	</node>
	<node lat="70.35383055616064" lon="21.79482496575914" id="-44053">
		<tag k="name" v="Ivervær" />
		<tag k="place" v="locality" />
		<tag k="ssr:stedsnr" v="262250" />
	</node>
	<node lat="70.16163728513631" lon="22.23975640681397" id="-44060">
		<tag k="name" v="Langstrand" />
		<tag k="place" v="farm" />
		<tag k="ssr:stedsnr" v="262432" />
	</node>
	<node lat="70.17134999631702" lon="22.314299960136033" id="-44063">
		<tag k="name" v="Ytrehamna" />
		<tag k="place" v="isolated_dwelling" />
		<tag k="ssr:stedsnr" v="262436" />
	</node>
	<node lat="70.12926111698633" lon="22.51647771843752" id="-44068">
		<tag k="fixme" v="multiple name tags, choose one and add the other to alt_name" />
		<tag k="name" v="Krabbetoft;Rappstofta" />
		<tag k="place" v="farm" />
		<tag k="ssr:stedsnr" v="262576" />
	</node>
	<node lat="70.22350464307213" lon="21.472857737743734" id="-44070">
		<tag k="name" v="Vollan" />
		<tag k="place" v="isolated_dwelling" />
		<tag k="ssr:stedsnr" v="201111" />
	</node>
	<node lat="70.25763333729233" lon="22.352866624540034" id="-44080">
		<tag k="name" v="Ystnes" />
		<tag k="place" v="quarter" />
		<tag k="ssr:stedsnr" v="208807" />
	</node>
	<node lat="70.28449166540811" lon="21.487408316258197" id="-44087">
		<tag k="name" v="Hettekeila" />
		<tag k="place" v="locality" />
		<tag k="ssr:stedsnr" v="215977" />
	</node>
	<node lat="70.32848611273815" lon="21.424241626516302" id="-44096">
		<tag k="name" v="Loppasand" />
		<tag k="place" v="farm" />
		<tag k="ssr:stedsnr" v="262304" />
	</node>
	<node lat="70.13835000513916" lon="22.483544393786026" id="-44110">
		<tag k="name" v="Stranda" />
		<tag k="place" v="farm" />
		<tag k="ssr:stedsnr" v="269826" />
	</node>
	<node lat="70.31928610882484" lon="21.566936079359646" id="-44112">
		<tag k="barrier" v="fence" />
		<tag k="name" v="Mallafora" />
		<tag k="ssr:stedsnr" v="273503" />
	</node>
	<node lat="70.27266389054816" lon="22.139149954072167" id="-44114">
		<tag k="name" v="Jakobseng" />
		<tag k="place" v="farm" />
		<tag k="ssr:stedsnr" v="277420" />
	</node>
	<node lat="70.30039803123717" lon="22.091258543901105" id="-44147">
		<tag k="alt_name" v="Mollvik, store" />
		<tag k="fixme" v="multiple name tags, choose one and add the other to alt_name" />
		<tag k="loc_name" v="Mollvik" />
		<tag k="name" v="Moldvik;Store Mollvik" />
		<tag k="place" v="locality" />
		<tag k="ssr:stedsnr" v="486247" />
	</node>
	<node lat="70.22311111702538" lon="22.23361106508801" id="-44170">
		<tag k="name" v="Fjellstad" />
		<tag k="place" v="farm" />
		<tag k="ssr:stedsnr" v="459263" />
	</node>
	<node lat="70.15711111034456" lon="22.30061661685461" id="-44171">
		<tag k="name" v="Gamvik" />
		<tag k="place" v="locality" />
		<tag k="ssr:stedsnr" v="459319" />
	</node>
	<node lat="70.22352500120057" lon="22.335499961255515" id="-44175">
		<tag k="name" v="Rosenby" />
		<tag k="place" v="farm" />
		<tag k="ssr:stedsnr" v="504367" />
	</node>
	<node lat="70.23073055983609" lon="22.364169405904015" id="-44176">
		<tag k="fixme" v="consider place=hamlet" />
		<tag k="name" v="Vassdalen" />
		<tag k="place" v="village" />
		<tag k="ssr:stedsnr" v="504378" />
	</node>
	<node lat="70.31709444382777" lon="21.535669422724354" id="-44185">
		<tag k="name" v="Bankekeila" />
		<tag k="place" v="locality" />
		<tag k="ssr:stedsnr" v="518968" />
	</node>
	<node lat="70.22110555371718" lon="22.249777739203324" id="-44186">
		<tag k="name" v="Sandnes" />
		<tag k="place" v="farm" />
		<tag k="ssr:stedsnr" v="519961" />
	</node>
	<node lat="70.2672500025595" lon="21.60278608079699" id="-44196">
		<tag k="fixme" v="consider place=hamlet" />
		<tag k="name" v="Sandland - Sáttomohgáddi" />
		<tag k="name:no" v="Sandland" />
		<tag k="name:se" v="Sáttomohgáddi" />
		<tag k="old_name:se" v="Saddumåkgaddi" />
		<tag k="place" v="village" />
		<tag k="ssr:stedsnr" v="686266" />
	</node>
	<node lat="70.26951389041626" lon="22.1160360816782" id="-44225">
		<tag k="fixme" v="consider place=hamlet" />
		<tag k="name" v="Nuvsvåg" />
		<tag k="place" v="village" />
		<tag k="ssr:stedsnr" v="688251" />
	</node>
	<node lat="70.25514166657639" lon="22.274022188168505" id="-44229">
		<tag k="name" v="Vengelvika" />
		<tag k="place" v="farm" />
		<tag k="ssr:stedsnr" v="565078" />
	</node>
	<node lat="70.25062778417565" lon="22.269313834932284" id="-44302">
		<tag k="name" v="Vinterset" />
		<tag k="place" v="locality" />
		<tag k="ssr:stedsnr" v="756507" />
	</node>
	<node lat="70.26363055511115" lon="22.277255517364466" id="-44304">
		<tag k="name" v="Sommarset" />
		<tag k="place" v="farm" />
		<tag k="ssr:stedsnr" v="762059" />
	</node>
	<node lat="70.1160229955345" lon="22.527694564097377" id="-44310">
		<tag k="name" v="Lendingen" />
		<tag k="place" v="locality" />
		<tag k="ssr:stedsnr" v="808531" />
	</node>
	<node lat="70.3164499969848" lon="22.008058304689975" id="-44314">
		<tag k="name" v="Gammelvær" />
		<tag k="place" v="locality" />
		<tag k="ssr:stedsnr" v="809285" />
	</node>
	<node lat="70.34265277606829" lon="21.44604163973146" id="-44320">
		<tag k="fixme" v="consider place=hamlet" />
		<tag k="name" v="Mevær" />
		<tag k="place" v="village" />
		<tag k="ssr:stedsnr" v="835163" />
	</node>
	<node lat="70.36449952170638" lon="21.446354792615715" id="-44335">
		<tag k="name" v="Kraken" />
		<tag k="place" v="farm" />
		<tag k="ssr:stedsnr" v="929287" />
	</node>
	<node lat="70.23956008814591" lon="22.350473972996152" id="-44338">
		<tag k="name" v="Øksfjord - Ákšovuotna" />
		<tag k="name:no" v="Øksfjord" />
		<tag k="name:se" v="Ákšovuotna" />
		<tag k="old_name:se" v="Akšuvuodna" />
		<tag k="place" v="village" />
		<tag k="ssr:stedsnr" v="929466" />
	</node>
	<node lat="70.10878056012973" lon="22.527730495423672" id="-44344">
		<tag k="fixme" v="consider place=hamlet" />
		<tag k="name" v="Øksfjordbotn" />
		<tag k="place" v="village" />
		<tag k="ssr:stedsnr" v="869469" />
	</node>
	<node lat="70.15048889236546" lon="22.442727735658792" id="-44346">
		<tag k="name" v="Storvik" />
		<tag k="place" v="farm" />
		<tag k="ssr:stedsnr" v="869479" />
	</node>
	<node lat="70.26916944565528" lon="22.114241631104665" id="-44348">
		<tag k="name" v="Steinnes" />
		<tag k="place" v="farm" />
		<tag k="ssr:stedsnr" v="930200" />
	</node>
	<node lat="70.28207777817312" lon="21.685924965018593" id="-44350">
		<tag k="alt_name" v="Sommarsæle" />
		<tag k="name" v="Sommarsete" />
=======
<osm generator="osmapis" version="0.6">
	<node id="-900604" lat="70.3682111164" lon="21.4380388507">
		<tag k="name" v="Yttervær" />
>>>>>>> e1d4bc35ff8a6074a6f2e91616a996b547c36f15
		<tag k="place" v="locality" />
		<tag k="ssr:stedsnr" v="930221" />
	</node>
<<<<<<< HEAD
	<node lat="70.2195861110612" lon="21.714094398206665" id="-44361">
		<tag k="alt_name" v="Sør Tverrfjord" />
		<tag k="fixme" v="consider place=hamlet" />
		<tag k="name" v="Sør-Tverrfjord" />
		<tag k="place" v="village" />
		<tag k="ssr:stedsnr" v="930392" />
	</node>
	<node lat="70.2895305555278" lon="22.457380508023718" id="-44370">
		<tag k="name" v="Agonluft" />
		<tag k="place" v="locality" />
		<tag k="ssr:stedsnr" v="884924" />
	</node>
	<node lat="70.23566667073028" lon="21.234522201918626" id="-44381">
		<tag k="name" v="Skjåvik" />
		<tag k="place" v="farm" />
		<tag k="ssr:stedsnr" v="929122" />
	</node>
	<node lat="70.14116111227248" lon="22.477905509610615" id="-44384">
		<tag k="name" v="Bukta" />
		<tag k="place" v="isolated_dwelling" />
		<tag k="ssr:stedsnr" v="929415" />
	</node>
	<node lat="70.34325000180269" lon="21.454233313130253" id="-44393">
		<tag k="alt_name" v="Mønes Vestre" />
		<tag k="name" v="Mønes" />
		<tag k="place" v="farm" />
		<tag k="ssr:stedsnr" v="937124" />
	</node>
	<node lat="70.23505277920796" lon="21.236902758001907" id="-44404">
		<tag k="fixme" v="consider place=hamlet" />
		<tag k="name" v="Andsnes" />
		<tag k="place" v="village" />
		<tag k="ssr:stedsnr" v="19121" />
	</node>
	<node lat="70.31826190145858" lon="21.568250426351735" id="-44417">
		<tag k="name" v="Øra - Eavru" />
		<tag k="name:no" v="Øra" />
		<tag k="name:se" v="Eavru" />
		<tag k="old_name:se" v="Ævro" />
		<tag k="place" v="farm" />
		<tag k="ssr:stedsnr" v="19338" />
	</node>
	<node lat="70.33379722275261" lon="21.450677739464105" id="-44433">
		<tag k="fixme" v="consider place=hamlet" />
		<tag k="name" v="Loppa" />
		<tag k="place" v="village" />
		<tag k="ssr:stedsnr" v="46151" />
	</node>
	<node lat="70.24646667059454" lon="21.431791632030308" id="-44441">
		<tag k="name" v="Neset" />
=======
	<node id="-900087" lat="70.1571111103" lon="22.3006166169">
		<tag k="name" v="Gamvik" />
		<tag k="place" v="locality" />
		<tag k="ssr:stedsnr" v="459319" />
	</node>
	<node id="-900086" lat="70.223111117" lon="22.2336110651">
		<tag k="name" v="Fjellstad" />
		<tag k="place" v="farm" />
		<tag k="ssr:stedsnr" v="459263" />
	</node>
	<node id="-900085" lat="70.2726638905" lon="22.1391499541">
		<tag k="name" v="Jakobseng" />
		<tag k="place" v="farm" />
		<tag k="ssr:stedsnr" v="277420" />
	</node>
	<node id="-900084" lat="70.3192861088" lon="21.5669360794">
		<tag k="barrier" v="fence" />
		<tag k="name" v="Mallafora" />
		<tag k="ssr:stedsnr" v="273503" />
	</node>
	<node id="-900079" lat="70.2468638869" lon="22.1090055244">
		<tag k="name" v="Litlejorda" />
		<tag k="place" v="isolated_dwelling" />
		<tag k="ssr:stedsnr" v="458430" />
	</node>
	<node id="-900582" lat="70.1934111168" lon="21.7758805114">
		<tag k="name" v="Sommarsæte" />
		<tag k="place" v="locality" />
		<tag k="ssr:stedsnr" v="336934" />
	</node>
	<node id="-900060" lat="70.1212805611" lon="22.4991277327">
		<tag k="name" v="Sørstrand" />
		<tag k="place" v="isolated_dwelling" />
		<tag k="ssr:stedsnr" v="444546" />
	</node>
	<node id="-900041" lat="70.2630361107" lon="21.4259110837">
		<tag k="name" v="Molla" />
		<tag k="place" v="locality" />
		<tag k="ssr:stedsnr" v="444264" />
	</node>
	<node id="-900031" lat="70.2359500028" lon="21.4222388708">
		<tag k="alt_name" v="Skavnak" />
		<tag k="name" v="Skavnakk" />
>>>>>>> e1d4bc35ff8a6074a6f2e91616a996b547c36f15
		<tag k="place" v="hamlet" />
		<tag k="ssr:stedsnr" v="80149" />
	</node>
<<<<<<< HEAD
	<node lat="70.2378955088194" lon="22.09800704722624" id="-44455">
		<tag k="name" v="Sandbakken" />
		<tag k="place" v="locality" />
		<tag k="ssr:stedsnr" v="80381" />
	</node>
	<node lat="70.24174721982952" lon="22.11103607307886" id="-44472">
		<tag k="name" v="Leirbukt" />
		<tag k="place" v="farm" />
		<tag k="ssr:stedsnr" v="94455" />
	</node>
	<node lat="70.18324444652784" lon="22.33007495505357" id="-44488">
		<tag k="name" v="Fruvik" />
		<tag k="place" v="hamlet" />
		<tag k="ssr:stedsnr" v="140400" />
	</node>
	<node lat="70.31848611732894" lon="21.926633288863425" id="-44502">
		<tag k="alt_name" v="Storengen" />
		<tag k="name" v="Storenga" />
=======
	<node id="-900533" lat="70.2844916654" lon="21.4874083163">
		<tag k="name" v="Hettekeila" />
		<tag k="place" v="isolated_dwelling" />
		<tag k="ssr:stedsnr" v="215977" />
	</node>
	<node id="-900018" lat="70.2336111127" lon="21.4180555325">
		<tag k="name" v="Stølen" />
		<tag k="place" v="isolated_dwelling" />
		<tag k="ssr:stedsnr" v="210515" />
	</node>
	<node id="-900015" lat="70.2890240507" lon="21.9945360184">
		<tag k="name" v="Fjordtun" />
>>>>>>> e1d4bc35ff8a6074a6f2e91616a996b547c36f15
		<tag k="place" v="locality" />
		<tag k="ssr:stedsnr" v="141286" />
	</node>
<<<<<<< HEAD
	<node lat="70.18970833490796" lon="22.33323883981235" id="-44524">
		<tag k="name" v="Seljevoll" />
		<tag k="place" v="farm" />
		<tag k="ssr:stedsnr" v="201375" />
	</node>
	<node lat="70.28819999652211" lon="21.556883301595043" id="-44530">
=======
	<node id="-900523" lat="70.2576333373" lon="22.3528666245">
		<tag k="name" v="Ystnes" />
		<tag k="place" v="quarter" />
		<tag k="ssr:stedsnr" v="208807" />
	</node>
	<node id="-900008" lat="70.2881999965" lon="21.5568833016">
>>>>>>> e1d4bc35ff8a6074a6f2e91616a996b547c36f15
		<tag k="name" v="Bogen - Boavva" />
		<tag k="name:no" v="Bogen" />
		<tag k="name:se" v="Boavva" />
		<tag k="place" v="hamlet" />
		<tag k="ssr:stedsnr" v="201314" />
	</node>
<<<<<<< HEAD
	<node lat="70.24933611246426" lon="21.791952729578338" id="-44534">
=======
	<node id="-900507" lat="70.1897083349" lon="22.3332388398">
		<tag k="name" v="Seljevoll" />
		<tag k="place" v="farm" />
		<tag k="ssr:stedsnr" v="201375" />
	</node>
	<node id="-900503" lat="70.2493361125" lon="21.7919527296">
>>>>>>> e1d4bc35ff8a6074a6f2e91616a996b547c36f15
		<tag k="fixme" v="consider place=hamlet" />
		<tag k="name" v="Bergsfjord" />
		<tag k="place" v="village" />
		<tag k="ssr:stedsnr" v="201340" />
	</node>
<<<<<<< HEAD
	<node lat="70.28902405067527" lon="21.994536018424917" id="-44545">
		<tag k="name" v="Fjordtun" />
		<tag k="place" v="locality" />
		<tag k="ssr:stedsnr" v="202216" />
	</node>
	<node lat="70.23361111274431" lon="21.418055532522253" id="-44553">
		<tag k="name" v="Stølen" />
		<tag k="place" v="isolated_dwelling" />
		<tag k="ssr:stedsnr" v="210515" />
	</node>
	<node lat="70.193411116814" lon="21.77588051136007" id="-44615">
		<tag k="name" v="Sommarsæte" />
		<tag k="place" v="locality" />
		<tag k="ssr:stedsnr" v="336934" />
	</node>
	<node lat="70.36821111644494" lon="21.43803885072006" id="-44636">
		<tag k="name" v="Yttervær" />
		<tag k="place" v="locality" />
		<tag k="ssr:stedsnr" v="383338" />
	</node>
	<node lat="70.21627500245415" lon="21.7231555104587" id="-44651">
		<tag k="name" v="Sør Tverrfjorden" />
=======
	<node id="-899990" lat="70.1383500051" lon="22.4835443938">
		<tag k="name" v="Stranda" />
		<tag k="place" v="farm" />
		<tag k="ssr:stedsnr" v="269826" />
	</node>
	<node id="-900492" lat="70.2234916689" lon="21.4728777372">
		<tag k="name" v="Vollan" />
		<tag k="place" v="isolated_dwelling" />
		<tag k="ssr:stedsnr" v="201111" />
	</node>
	<node id="-899979" lat="70.129261117" lon="22.5164777184">
		<tag k="fixme" v="multiple name tags, choose one and add the other to alt_name" />
		<tag k="name" v="Krabbetoft;Rappstofta" />
		<tag k="place" v="farm" />
		<tag k="ssr:stedsnr" v="262576" />
	</node>
	<node id="-899973" lat="70.1713499963" lon="22.3142999601">
		<tag k="name" v="Ytrehamna" />
		<tag k="place" v="isolated_dwelling" />
		<tag k="ssr:stedsnr" v="262436" />
	</node>
	<node id="-899972" lat="70.1616249975" lon="22.239524961">
		<tag k="name" v="Langstrand" />
		<tag k="place" v="isolated_dwelling" />
		<tag k="ssr:stedsnr" v="262432" />
	</node>
	<node id="-899965" lat="70.3284861127" lon="21.4242416265">
		<tag k="name" v="Loppasand" />
>>>>>>> e1d4bc35ff8a6074a6f2e91616a996b547c36f15
		<tag k="place" v="farm" />
		<tag k="ssr:stedsnr" v="397420" />
	</node>
<<<<<<< HEAD
	<node lat="70.23595000283821" lon="21.42223887081861" id="-44667">
		<tag k="alt_name" v="Skavnak" />
		<tag k="name" v="Skavnakk" />
		<tag k="place" v="hamlet" />
		<tag k="ssr:stedsnr" v="444123" />
	</node>
	<node lat="70.26303611065482" lon="21.42591108365342" id="-44671">
		<tag k="name" v="Molla" />
=======
	<node id="-900475" lat="70.3184861173" lon="21.9266332889">
		<tag k="alt_name" v="Storengen" />
		<tag k="name" v="Storenga" />
>>>>>>> e1d4bc35ff8a6074a6f2e91616a996b547c36f15
		<tag k="place" v="locality" />
		<tag k="ssr:stedsnr" v="444264" />
	</node>
<<<<<<< HEAD
	<node lat="70.12128056107349" lon="22.499127732684556" id="-44685">
		<tag k="name" v="Sørstrand" />
		<tag k="place" v="isolated_dwelling" />
		<tag k="ssr:stedsnr" v="444546" />
	</node>
	<node lat="70.35432919911153" lon="21.446491092867895" id="-44703">
		<tag k="name" v="Bjørndalen" />
		<tag k="place" v="farm" />
		<tag k="ssr:stedsnr" v="504297" />
	</node>
	<node lat="70.262827776318" lon="22.27651105291043" id="-44708">
		<tag k="alt_name" v="Klubbnesvik" />
		<tag k="name" v="Klubbnesvika" />
=======
	<node id="-900471" lat="70.265991671" lon="21.7946444208">
		<tag k="name" v="Hummelvika" />
		<tag k="place" v="isolated_dwelling" />
		<tag k="ssr:stedsnr" v="141232" />
	</node>
	<node id="-899952" lat="70.2176944404" lon="21.4828249782">
		<tag k="alt_name" v="Tofta" />
		<tag k="name" v="Toften" />
		<tag k="place" v="farm" />
		<tag k="ssr:stedsnr" v="262185" />
	</node>
	<node id="-900461" lat="70.1832444465" lon="22.3300749551">
		<tag k="name" v="Fruvik" />
		<tag k="place" v="hamlet" />
		<tag k="ssr:stedsnr" v="140400" />
	</node>
	<node id="-900459" lat="70.1802000002" lon="22.32724994">
		<tag k="name" v="Hallsteinvik" />
		<tag k="place" v="isolated_dwelling" />
		<tag k="ssr:stedsnr" v="140396" />
	</node>
	<node id="-900458" lat="70.223966668" lon="22.2352332939">
		<tag k="name" v="Sletta" />
>>>>>>> e1d4bc35ff8a6074a6f2e91616a996b547c36f15
		<tag k="place" v="hamlet" />
		<tag k="ssr:stedsnr" v="505090" />
	</node>
<<<<<<< HEAD
	<node lat="70.1261464692474" lon="22.52010342440491" id="-44714">
		<tag k="name" v="Seivika" />
=======
	<node id="-900457" lat="70.2444194492" lon="21.7806305332">
		<tag k="name" v="Leirvik" />
>>>>>>> e1d4bc35ff8a6074a6f2e91616a996b547c36f15
		<tag k="place" v="farm" />
		<tag k="ssr:stedsnr" v="505563" />
	</node>
<<<<<<< HEAD
	<node lat="70.26186944383143" lon="22.083252740155615" id="-44737">
		<tag k="name" v="Elvebukt" />
		<tag k="place" v="farm" />
		<tag k="ssr:stedsnr" v="565190" />
	</node>
	<node lat="70.37162222565438" lon="21.74214996940672" id="-44746">
		<tag k="name" v="Teistmolla" />
=======
	<node id="-900444" lat="70.2297250022" lon="22.3356944078">
		<tag k="name" v="Presteng" />
		<tag k="place" v="isolated_dwelling" />
		<tag k="ssr:stedsnr" v="107612" />
	</node>
	<node id="-899928" lat="70.1642027767" lon="22.3024082719">
		<tag k="alt_name" v="Porkevika" />
		<tag k="loc_name" v="Purkevika" />
		<tag k="name" v="Purkevik" />
>>>>>>> e1d4bc35ff8a6074a6f2e91616a996b547c36f15
		<tag k="place" v="isolated_dwelling" />
		<tag k="ssr:stedsnr" v="565256" />
	</node>
<<<<<<< HEAD
	<node lat="70.2389749981303" lon="22.109658280642478" id="-44750">
		<tag k="name" v="Botn" />
		<tag k="place" v="farm" />
		<tag k="ssr:stedsnr" v="565356" />
	</node>
	<node lat="70.17154841802788" lon="22.314773257102477" id="-44751">
		<tag k="loc_name" v="Hamna" />
		<tag k="name" v="Indrehamna" />
=======
	<node id="-899927" lat="70.2350527792" lon="21.236902758">
		<tag k="fixme" v="consider place=hamlet" />
		<tag k="name" v="Andsnes" />
		<tag k="place" v="village" />
		<tag k="ssr:stedsnr" v="19121" />
	</node>
	<node id="-900433" lat="70.2417472198" lon="22.1110360731">
		<tag k="name" v="Leirbukt" />
>>>>>>> e1d4bc35ff8a6074a6f2e91616a996b547c36f15
		<tag k="place" v="farm" />
		<tag k="ssr:stedsnr" v="565400" />
	</node>
<<<<<<< HEAD
	<node lat="70.12614958614029" lon="22.336522545093903" id="-44753">
		<tag k="name" v="Kolsokker - Goalsohkar" />
		<tag k="name:no" v="Kolsokker" />
		<tag k="name:se" v="Goalsohkar" />
		<tag k="old_name:se" v="Goalsåkkar" />
		<tag k="place" v="locality" />
		<tag k="ssr:stedsnr" v="565559" />
	</node>
	<node lat="70.21311111142862" lon="21.49458886623859" id="-44768">
		<tag k="name" v="Bukta" />
		<tag k="place" v="locality" />
		<tag k="ssr:stedsnr" v="579577" />
	</node>
	<node lat="70.19394962092302" lon="22.333131503667605" id="-44775">
		<tag k="name" v="Solstad" />
=======
	<node id="-900918" lat="69.6807751959" lon="19.0868014399">
		<tag k="fixme" v="consider place=hamlet" />
		<tag k="name" v="Krokelv" />
		<tag k="place" v="farm" />
		<tag k="ssr:stedsnr" v="1076826" />
	</node>
	<node id="-900412" lat="70.2330777781" lon="22.2678888513">
		<tag k="name" v="Bukta" />
		<tag k="place" v="isolated_dwelling" />
		<tag k="ssr:stedsnr" v="80489" />
	</node>
	<node id="-900409" lat="70.237700001" lon="22.0956082822">
		<tag k="name" v="Sandbakken" />
		<tag k="place" v="isolated_dwelling" />
		<tag k="ssr:stedsnr" v="80381" />
	</node>
	<node id="-900406" lat="70.3054333327" lon="21.3918666375">
		<tag k="name" v="Været" />
>>>>>>> e1d4bc35ff8a6074a6f2e91616a996b547c36f15
		<tag k="place" v="isolated_dwelling" />
		<tag k="ssr:stedsnr" v="592413" />
	</node>
<<<<<<< HEAD
	<node lat="70.26596987496059" lon="22.083064947307122" id="-44796">
		<tag k="name" v="Elvestrand" />
		<tag k="place" v="locality" />
		<tag k="ssr:stedsnr" v="626245" />
	</node>
	<node lat="70.34298055318854" lon="21.457974976094864" id="-44800">
		<tag k="name" v="Mevær" />
=======
	<node id="-900917" lat="69.6548386171" lon="18.9540555979">
		<tag k="amenity" v="school" />
		<tag k="name" v="Ishavsbyen videregående skole" />
		<tag k="ssr:stedsnr" v="1075695" />
	</node>
	<node id="-900915" lat="70.2208388304" lon="21.7102915149">
		<tag k="name" v="Dalbakken" />
>>>>>>> e1d4bc35ff8a6074a6f2e91616a996b547c36f15
		<tag k="place" v="farm" />
		<tag k="ssr:stedsnr" v="626347" />
	</node>
<<<<<<< HEAD
	<node lat="70.1444138932313" lon="22.46549716715541" id="-44825">
		<tag k="name" v="Kreken" />
=======
	<node id="-900914" lat="70.2690761682" lon="22.1350922056">
		<tag k="name" v="Elvemo" />
>>>>>>> e1d4bc35ff8a6074a6f2e91616a996b547c36f15
		<tag k="place" v="farm" />
		<tag k="ssr:stedsnr" v="652503" />
	</node>
<<<<<<< HEAD
	<node lat="70.22936389033309" lon="22.333816610314564" id="-44828">
		<tag k="name" v="Prestesteinen" />
		<tag k="place" v="isolated_dwelling" />
		<tag k="ssr:stedsnr" v="652581" />
	</node>
	<node lat="70.11408611581038" lon="22.517147173560573" id="-44842">
		<tag k="name" v="Stubakken" />
		<tag k="place" v="farm" />
		<tag k="ssr:stedsnr" v="747539" />
	</node>
	<node lat="70.33358538708046" lon="21.45089059664606" id="-44844">
		<tag k="name" v="Solberg" />
		<tag k="place" v="farm" />
		<tag k="ssr:stedsnr" v="747301" />
	</node>
	<node lat="70.20338328577321" lon="22.33662452347567" id="-44846">
		<tag k="name" v="Mariteng - Dálvesadji" />
		<tag k="name:no" v="Mariteng" />
		<tag k="name:se" v="Dálvesadji" />
		<tag k="old_name:se" v="Dalvesaddji" />
		<tag k="place" v="isolated_dwelling" />
		<tag k="ssr:stedsnr" v="747394" />
	</node>
	<node lat="70.27592500179213" lon="21.845024958267032" id="-44853">
		<tag k="alt_name" v="Sommarsæte" />
=======
	<node id="-900391" lat="70.2464666706" lon="21.431791632">
		<tag k="name" v="Neset" />
		<tag k="place" v="hamlet" />
		<tag k="ssr:stedsnr" v="80149" />
	</node>
	<node id="-900898" lat="70.1504888924" lon="22.4427277357">
		<tag k="name" v="Storvik" />
		<tag k="place" v="farm" />
		<tag k="ssr:stedsnr" v="869479" />
	</node>
	<node id="-900384" lat="70.3337972228" lon="21.4506777395">
		<tag k="fixme" v="consider place=hamlet" />
		<tag k="name" v="Loppa" />
		<tag k="place" v="village" />
		<tag k="ssr:stedsnr" v="46151" />
	</node>
	<node id="-900892" lat="70.3497805565" lon="21.4395083064">
		<tag k="alt_name" v="Pinelia" />
		<tag k="name" v="Pinlia" />
		<tag k="place" v="farm" />
		<tag k="ssr:stedsnr" v="869358" />
	</node>
	<node id="-900882" lat="70.2223527755" lon="21.1935888726">
		<tag k="name" v="Roaldsvika" />
		<tag k="place" v="locality" />
		<tag k="ssr:stedsnr" v="869137" />
	</node>
	<node id="-900867" lat="70.3426527761" lon="21.4460416397">
		<tag k="fixme" v="consider place=hamlet" />
		<tag k="name" v="Mevær" />
		<tag k="place" v="village" />
		<tag k="ssr:stedsnr" v="835163" />
	</node>
	<node id="-900352" lat="70.3182777823" lon="21.5682916299">
		<tag k="name" v="Øra - Eavru" />
		<tag k="name:no" v="Øra" />
		<tag k="name:se" v="Eavru" />
		<tag k="old_name:se" v="Ævro" />
		<tag k="place" v="isolated_dwelling" />
		<tag k="ssr:stedsnr" v="19338" />
	</node>
	<node id="-900339" lat="70.3432500018" lon="21.4542333131">
		<tag k="alt_name" v="Mønes Vestre" />
		<tag k="name" v="Mønes" />
		<tag k="place" v="farm" />
		<tag k="ssr:stedsnr" v="937124" />
	</node>
	<node id="-900337" lat="70.2820777782" lon="21.685924965">
		<tag k="alt_name" v="Sommarsæle" />
>>>>>>> e1d4bc35ff8a6074a6f2e91616a996b547c36f15
		<tag k="name" v="Sommarsete" />
		<tag k="place" v="locality" />
		<tag k="ssr:stedsnr" v="748226" />
	</node>
<<<<<<< HEAD
	<node lat="70.23598889310878" lon="21.486988867912245" id="-44868">
		<tag k="name" v="Molla" />
		<tag k="place" v="locality" />
		<tag k="ssr:stedsnr" v="808116" />
	</node>
	<node lat="70.20938888604441" lon="21.49904996060443" id="-44875">
		<tag k="fixme" v="multiple name tags, choose one and add the other to alt_name" />
		<tag k="name" v="Håkjerringvik;Innerbukt" />
		<tag k="place" v="farm" />
		<tag k="ssr:stedsnr" v="808161" />
	</node>
	<node lat="70.13919722159737" lon="21.86088052015114" id="-44885">
		<tag k="fixme" v="consider place=hamlet" />
		<tag k="name" v="Langfjordhamn" />
		<tag k="place" v="village" />
		<tag k="ssr:stedsnr" v="808266" />
	</node>
	<node lat="70.13871841215901" lon="22.374178445385205" id="-44894">
=======
	<node id="-900848" lat="70.316449997" lon="22.0080583047">
		<tag k="name" v="Gammelvær" />
		<tag k="place" v="locality" />
		<tag k="ssr:stedsnr" v="809285" />
	</node>
	<node id="-900333" lat="70.1411611123" lon="22.4779055096">
		<tag k="name" v="Bukta" />
		<tag k="place" v="isolated_dwelling" />
		<tag k="ssr:stedsnr" v="929415" />
	</node>
	<node id="-900332" lat="70.2895305555" lon="22.457380508">
		<tag k="name" v="Agonluft" />
		<tag k="place" v="locality" />
		<tag k="ssr:stedsnr" v="884924" />
	</node>
	<node id="-900843" lat="70.116399999" lon="22.527013828">
		<tag k="name" v="Lendingen" />
		<tag k="place" v="isolated_dwelling" />
		<tag k="ssr:stedsnr" v="808531" />
	</node>
	<node id="-900841" lat="70.1387222197" lon="22.3741916181">
>>>>>>> e1d4bc35ff8a6074a6f2e91616a996b547c36f15
		<tag k="alt_name" v="Tyteby" />
		<tag k="name" v="Tuteby" />
		<tag k="place" v="locality" />
		<tag k="ssr:stedsnr" v="808411" />
	</node>
<<<<<<< HEAD
	<node lat="70.21578564767717" lon="22.33523296196029" id="-44928">
		<tag k="alt_name" v="Sommareng" />
		<tag k="name" v="Blombakk" />
		<tag k="place" v="farm" />
		<tag k="ssr:stedsnr" v="868360" />
	</node>
	<node lat="70.22235277550003" lon="21.193588872569663" id="-44931">
		<tag k="name" v="Roaldsvika" />
		<tag k="place" v="locality" />
		<tag k="ssr:stedsnr" v="869137" />
	</node>
	<node lat="70.34978055648214" lon="21.439508306414304" id="-44941">
		<tag k="alt_name" v="Pinelia" />
		<tag k="name" v="Pinlia" />
		<tag k="place" v="farm" />
		<tag k="ssr:stedsnr" v="869358" />
	</node>
	<node lat="70.27737778096213" lon="21.69001385650188" id="-44945">
=======
	<node id="-900328" lat="70.277377781" lon="21.6900138565">
>>>>>>> e1d4bc35ff8a6074a6f2e91616a996b547c36f15
		<tag k="alt_name" v="Vintersæte" />
		<tag k="name" v="Vintersete" />
		<tag k="place" v="locality" />
		<tag k="ssr:stedsnr" v="870253" />
	</node>
<<<<<<< HEAD
	<node lat="70.1260839334784" lon="22.32890173632373" id="-44953">
		<tag k="name" v="Sørvik" />
		<tag k="place" v="farm" />
		<tag k="ssr:stedsnr" v="884226" />
	</node>
	<node lat="70.31757777558707" lon="21.56295275061384" id="-44959">
		<tag k="barrier" v="fence" />
		<tag k="name" v="Ørfora" />
		<tag k="ssr:stedsnr" v="940493" />
	</node>
	<node lat="70.26907616820282" lon="22.13509220556714" id="-44973">
		<tag k="name" v="Elvemo" />
		<tag k="place" v="farm" />
		<tag k="ssr:stedsnr" v="973411" />
	</node>
	<node lat="70.22083883035232" lon="21.710291514944014" id="-44974">
		<tag k="name" v="Dalbakken" />
		<tag k="place" v="farm" />
		<tag k="ssr:stedsnr" v="973412" />
	</node>
	<node lat="69.65483861708206" lon="18.954055597917613" id="-44976">
		<tag k="amenity" v="school" />
		<tag k="name" v="Ishavsbyen videregående skole" />
		<tag k="ssr:stedsnr" v="1075695" />
=======
	<node id="-900327" lat="70.214980558" lon="22.3369888362">
		<tag k="alt_name" v="Sommareng" />
		<tag k="name" v="Blombakk" />
		<tag k="place" v="isolated_dwelling" />
		<tag k="ssr:stedsnr" v="868360" />
>>>>>>> e1d4bc35ff8a6074a6f2e91616a996b547c36f15
	</node>
	<node id="-900318" lat="70.3175777756" lon="21.5629527506">
		<tag k="barrier" v="fence" />
		<tag k="name" v="Ørfora" />
		<tag k="ssr:stedsnr" v="940493" />
	</node>
	<node id="-900828" lat="70.1391972216" lon="21.8608805202">
		<tag k="fixme" v="consider place=hamlet" />
		<tag k="name" v="Langfjordhamn" />
		<tag k="place" v="village" />
		<tag k="ssr:stedsnr" v="808266" />
	</node>
	<node id="-900818" lat="70.209388886" lon="21.4990499606">
		<tag k="fixme" v="multiple name tags, choose one and add the other to alt_name" />
		<tag k="name" v="Håkjerringvik;Innerbukt" />
		<tag k="place" v="farm" />
		<tag k="ssr:stedsnr" v="808161" />
	</node>
	<node id="-900814" lat="70.2359888931" lon="21.4869888679">
		<tag k="name" v="Molla" />
		<tag k="place" v="locality" />
		<tag k="ssr:stedsnr" v="808116" />
	</node>
	<node id="-900298" lat="70.2195861111" lon="21.7140943982">
		<tag k="alt_name" v="Sør Tverrfjord" />
		<tag k="fixme" v="consider place=hamlet" />
		<tag k="name" v="Sør-Tverrfjord" />
		<tag k="place" v="village" />
		<tag k="ssr:stedsnr" v="930392" />
	</node>
	<node id="-899959" lat="70.3538305562" lon="21.7948249658">
		<tag k="name" v="Ivervær" />
		<tag k="place" v="isolated_dwelling" />
		<tag k="ssr:stedsnr" v="262250" />
	</node>
	<node id="-900291" lat="70.2691694457" lon="22.1142416311">
		<tag k="name" v="Steinnes" />
		<tag k="place" v="farm" />
		<tag k="ssr:stedsnr" v="930200" />
	</node>
	<node id="-900896" lat="70.1087805601" lon="22.5277304954">
		<tag k="fixme" v="consider place=hamlet" />
		<tag k="name" v="Øksfjordbotn" />
		<tag k="place" v="village" />
		<tag k="ssr:stedsnr" v="869469" />
	</node>
	<node id="-900797" lat="70.2506277842" lon="22.2693138349">
		<tag k="name" v="Vinterset" />
		<tag k="place" v="locality" />
		<tag k="ssr:stedsnr" v="756507" />
	</node>
	<node id="-900793" lat="70.2759250018" lon="21.8450249583">
		<tag k="alt_name" v="Sommarsæte" />
		<tag k="name" v="Sommarsete" />
		<tag k="place" v="locality" />
		<tag k="ssr:stedsnr" v="748226" />
	</node>
	<node id="-900790" lat="70.3107361098" lon="22.0051277422">
		<tag k="name" v="Killenga" />
		<tag k="place" v="isolated_dwelling" />
		<tag k="ssr:stedsnr" v="748277" />
	</node>
	<node id="-900277" lat="70.3644944496" lon="21.4463305249">
		<tag k="name" v="Kraken" />
		<tag k="place" v="isolated_dwelling" />
		<tag k="ssr:stedsnr" v="929287" />
	</node>
	<node id="-900785" lat="70.1140861158" lon="22.5171471736">
		<tag k="name" v="Stubakken" />
		<tag k="place" v="farm" />
		<tag k="ssr:stedsnr" v="747539" />
	</node>
	<node id="-900637" lat="70.2211055537" lon="22.2497777392">
		<tag k="name" v="Sandnes" />
		<tag k="place" v="farm" />
		<tag k="ssr:stedsnr" v="519961" />
	</node>
	<node id="-900780" lat="70.3335853871" lon="21.4508905966">
		<tag k="name" v="Solberg" />
		<tag k="place" v="farm" />
		<tag k="ssr:stedsnr" v="747301" />
	</node>
	<node id="-900779" lat="70.203394449" lon="22.3366360584">
		<tag k="name" v="Mariteng - Dálvesadji" />
		<tag k="name:no" v="Mariteng" />
		<tag k="name:se" v="Dálvesadji" />
		<tag k="old_name:se" v="Dalvesaddji" />
		<tag k="place" v="isolated_dwelling" />
		<tag k="ssr:stedsnr" v="747394" />
	</node>
	<node id="-900263" lat="70.2636305551" lon="22.2772555174">
		<tag k="name" v="Sommarset" />
		<tag k="place" v="isolated_dwelling" />
		<tag k="ssr:stedsnr" v="762059" />
	</node>
	<node id="-900768" lat="70.2293638903" lon="22.3338166103">
		<tag k="name" v="Prestesteinen" />
		<tag k="place" v="isolated_dwelling" />
		<tag k="ssr:stedsnr" v="652581" />
	</node>
	<node id="-900743" lat="70.3429805532" lon="21.4579749761">
		<tag k="name" v="Mevær" />
		<tag k="place" v="farm" />
		<tag k="ssr:stedsnr" v="626347" />
	</node>
	<node id="-900230" lat="70.1260444436" lon="22.3287193869">
		<tag k="name" v="Sørvik" />
		<tag k="place" v="isolated_dwelling" />
		<tag k="ssr:stedsnr" v="884226" />
	</node>
	<node id="-900221" lat="70.1444138932" lon="22.4654971672">
		<tag k="name" v="Kreken" />
		<tag k="place" v="isolated_dwelling" />
		<tag k="ssr:stedsnr" v="652503" />
	</node>
	<node id="-900726" lat="70.2662833356" lon="22.0831138392">
		<tag k="name" v="Elvestrand" />
		<tag k="place" v="isolated_dwelling" />
		<tag k="ssr:stedsnr" v="626245" />
	</node>
	<node id="-900207" lat="70.1939583353" lon="22.3332999432">
		<tag k="name" v="Solstad" />
		<tag k="place" v="isolated_dwelling" />
		<tag k="ssr:stedsnr" v="592413" />
	</node>
	<node id="-900197" lat="70.2695138904" lon="22.1160360817">
		<tag k="fixme" v="consider place=hamlet" />
		<tag k="name" v="Nuvsvåg" />
		<tag k="place" v="village" />
		<tag k="ssr:stedsnr" v="688251" />
	</node>
	<node id="-900624" lat="70.2162750025" lon="21.7231555105">
		<tag k="name" v="Sør Tverrfjorden" />
		<tag k="place" v="farm" />
		<tag k="ssr:stedsnr" v="397420" />
	</node>
	<node id="-900281" lat="70.2395600881" lon="22.350473973">
		<tag k="name" v="Øksfjord - Ákšovuotna" />
		<tag k="name:no" v="Øksfjord" />
		<tag k="name:se" v="Ákšovuotna" />
		<tag k="old_name:se" v="Akšuvuodna" />
		<tag k="place" v="village" />
		<tag k="ssr:stedsnr" v="929466" />
	</node>
	<node id="-900692" lat="70.2131111114" lon="21.4945888662">
		<tag k="name" v="Bukta" />
		<tag k="place" v="locality" />
		<tag k="ssr:stedsnr" v="579577" />
	</node>
	<node id="-900159" lat="70.2672500026" lon="21.6027860808">
		<tag k="fixme" v="consider place=hamlet" />
		<tag k="name" v="Sandland - Sáttomohgáddi" />
		<tag k="name:no" v="Sandland" />
		<tag k="name:se" v="Sáttomohgáddi" />
		<tag k="old_name:se" v="Saddumåkgaddi" />
		<tag k="place" v="village" />
		<tag k="ssr:stedsnr" v="686266" />
	</node>
	<node id="-900669" lat="70.1281083376" lon="22.3350082874">
		<tag k="name" v="Kolsokker - Goalsohkar" />
		<tag k="name:no" v="Kolsokker" />
		<tag k="name:se" v="Goalsohkar" />
		<tag k="old_name:se" v="Goalsåkkar" />
		<tag k="place" v="isolated_dwelling" />
		<tag k="ssr:stedsnr" v="565559" />
	</node>
	<node id="-900667" lat="70.1674999978" lon="22.311499943">
		<tag k="loc_name" v="Hamna" />
		<tag k="name" v="Indrehamna" />
		<tag k="place" v="isolated_dwelling" />
		<tag k="ssr:stedsnr" v="565400" />
	</node>
	<node id="-900666" lat="70.2389749981" lon="22.1096582806">
		<tag k="name" v="Botn" />
		<tag k="place" v="farm" />
		<tag k="ssr:stedsnr" v="565356" />
	</node>
	<node id="-900660" lat="70.3716222257" lon="21.7421499694">
		<tag k="name" v="Teistmolla" />
		<tag k="place" v="isolated_dwelling" />
		<tag k="ssr:stedsnr" v="565256" />
	</node>
	<node id="-900144" lat="70.3170944438" lon="21.5356694227">
		<tag k="name" v="Bankekeila" />
		<tag k="place" v="locality" />
		<tag k="ssr:stedsnr" v="518968" />
	</node>
	<node id="-900653" lat="70.2618694438" lon="22.0832527402">
		<tag k="name" v="Elvebukt" />
		<tag k="place" v="farm" />
		<tag k="ssr:stedsnr" v="565190" />
	</node>
	<node id="-900648" lat="70.2551416666" lon="22.2740221882">
		<tag k="name" v="Vengelvika" />
		<tag k="place" v="isolated_dwelling" />
		<tag k="ssr:stedsnr" v="565078" />
	</node>
	<node id="-900135" lat="70.1261111133" lon="22.519936054">
		<tag k="name" v="Seivika" />
		<tag k="place" v="isolated_dwelling" />
		<tag k="ssr:stedsnr" v="505563" />
	</node>
	<node id="-900125" lat="70.2628277763" lon="22.2765110529">
		<tag k="alt_name" v="Klubbnesvik" />
		<tag k="name" v="Klubbnesvika" />
		<tag k="place" v="hamlet" />
		<tag k="ssr:stedsnr" v="505090" />
	</node>
	<node id="-900118" lat="70.2307305598" lon="22.3641694059">
		<tag k="fixme" v="consider place=hamlet" />
		<tag k="name" v="Vassdalen" />
		<tag k="place" v="village" />
		<tag k="ssr:stedsnr" v="504378" />
	</node>
	<node id="-900117" lat="70.2235250012" lon="22.3354999613">
		<tag k="name" v="Rosenby" />
		<tag k="place" v="isolated_dwelling" />
		<tag k="ssr:stedsnr" v="504367" />
	</node>
	<node id="-900112" lat="70.3543111151" lon="21.4465499642">
		<tag k="name" v="Bjørndalen" />
		<tag k="place" v="isolated_dwelling" />
		<tag k="ssr:stedsnr" v="504297" />
	</node>
	<node id="-900268" lat="70.2356666707" lon="21.2345222019">
		<tag k="name" v="Skjåvik" />
		<tag k="place" v="farm" />
		<tag k="ssr:stedsnr" v="929122" />
	</node>
	<node id="-900099" lat="70.2974388934" lon="22.0892221905">
		<tag k="alt_name" v="Mollvik, store" />
		<tag k="fixme" v="multiple name tags, choose one and add the other to alt_name" />
		<tag k="loc_name" v="Mollvik" />
		<tag k="name" v="Moldvik;Store Mollvik" />
		<tag k="place" v="isolated_dwelling" />
		<tag k="ssr:stedsnr" v="486247" />
	</node>
</osm>
