<?xml version="1.0" encoding="UTF-8"?>
<<<<<<< HEAD
<osm version="0.6" generator="osmapis">
	<node lat="70.13386667239897" lon="22.497772170528723" id="-43985">
		<tag k="name" v="Hamnbuktklubben" />
		<tag k="natural" v="cape" />
		<tag k="ssr:stedsnr" v="19412" />
	</node>
	<node lat="70.13921944789591" lon="22.34183049587014" id="-43986">
		<tag k="alt_name:no" v="Auskarnes" />
		<tag k="name" v="Auskarneset - Hávskárnjárga" />
		<tag k="name:no" v="Auskarneset" />
		<tag k="name:se" v="Hávskárnjárga" />
		<tag k="natural" v="cape" />
		<tag k="old_name:se" v="Havskarnjarga" />
		<tag k="ssr:stedsnr" v="19418" />
	</node>
	<node lat="70.29988888956676" lon="21.98959996038909" id="-43988">
		<tag k="name" v="Sommarnes" />
		<tag k="natural" v="cape" />
		<tag k="ssr:stedsnr" v="20244" />
	</node>
	<node lat="70.33600277677206" lon="22.323833271880698" id="-43990">
		<tag k="name" v="Kvalgrunnen" />
		<tag k="natural" v="shoal" />
		<tag k="place" v="locality" />
		<tag k="ssr:stedsnr" v="20142" />
	</node>
	<node lat="70.36967222417839" lon="21.70004162233441" id="-43991">
		<tag k="alt_name" v="Avløysningsbukta" />
		<tag k="name" v="Avløysingsbukta" />
		<tag k="natural" v="bay" />
		<tag k="ssr:stedsnr" v="20262" />
	</node>
	<node lat="70.31500833265774" lon="21.90063328726323" id="-43993">
		<tag k="name" v="Ørnesgrunnen" />
		<tag k="natural" v="shoal" />
		<tag k="place" v="locality" />
		<tag k="ssr:stedsnr" v="20278" />
	</node>
	<node lat="70.2555444415296" lon="22.2755860733405" id="-43994">
		<tag k="name" v="Vengelvika" />
		<tag k="natural" v="bay" />
		<tag k="ssr:stedsnr" v="31767" />
	</node>
	<node lat="70.2242805571488" lon="21.185041649580917" id="-43998">
		<tag k="name" v="Koppmolfjæra" />
		<tag k="natural" v="bay" />
		<tag k="ssr:stedsnr" v="45205" />
	</node>
	<node lat="70.23421388635529" lon="21.217438858551283" id="-43999">
		<tag k="fixme" v="consider seamark:type=rock or natural=shoal" />
		<tag k="name" v="Tømmervikflua" />
		<tag k="place" v="islet" />
		<tag k="ssr:stedsnr" v="45220" />
	</node>
	<node lat="70.18036667154189" lon="22.3252860757725" id="-44000">
		<tag k="name" v="Halsteinvika" />
		<tag k="natural" v="bay" />
		<tag k="ssr:stedsnr" v="45275" />
	</node>
	<node lat="70.32979722799823" lon="21.97383050750266" id="-44001">
		<tag k="fixme" v="consider seamark:type=rock or natural=shoal" />
		<tag k="name" v="Rundskjæret" />
		<tag k="place" v="islet" />
		<tag k="ssr:stedsnr" v="52901" />
	</node>
	<node lat="70.47187222675834" lon="21.358008296791503" id="-44002">
		<tag k="name" v="Brokskallen" />
		<tag k="natural" v="shoal" />
		<tag k="place" v="locality" />
		<tag k="ssr:stedsnr" v="56780" />
	</node>
	<node lat="70.28790555411896" lon="22.231294403136527" id="-44003">
		<tag k="name" v="Skittenvikneset" />
		<tag k="natural" v="cape" />
		<tag k="ssr:stedsnr" v="80116" />
	</node>
	<node lat="70.31800833324809" lon="21.367855538638157" id="-44007">
		<tag k="name" v="Kløftodden" />
		<tag k="natural" v="cape" />
		<tag k="ssr:stedsnr" v="80339" />
	</node>
	<node lat="70.31449999746584" lon="21.35036385337228" id="-44008">
		<tag k="name" v="Kvalmollodden" />
		<tag k="natural" v="cape" />
		<tag k="ssr:stedsnr" v="80341" />
	</node>
	<node lat="70.1805472210098" lon="22.250286049740847" id="-44017">
		<tag k="name" v="Lanabukta" />
		<tag k="natural" v="bay" />
		<tag k="ssr:stedsnr" v="107273" />
	</node>
	<node lat="70.16732778147689" lon="22.310452735920403" id="-44018">
		<tag k="name" v="Indre Hamna" />
		<tag k="natural" v="bay" />
		<tag k="ssr:stedsnr" v="107279" />
	</node>
	<node lat="70.27754722631055" lon="22.297852726948822" id="-44021">
		<tag k="name" v="Klubbskjæret" />
		<tag k="natural" v="cape" />
		<tag k="ssr:stedsnr" v="140087" />
	</node>
	<node lat="70.26335555247353" lon="21.209430524001824" id="-44027">
		<tag k="fixme" v="consider seamark:type=rock or natural=shoal" />
		<tag k="name" v="Skolten" />
		<tag k="place" v="islet" />
		<tag k="ssr:stedsnr" v="140294" />
	</node>
	<node lat="70.26306110794707" lon="21.34015830800279" id="-44028">
		<tag k="fixme" v="consider seamark:type=rock or natural=shoal" />
		<tag k="name" v="Svartoksskjæret - Čáhppesvuoksá" />
		<tag k="name:no" v="Svartoksskjæret" />
		<tag k="name:se" v="Čáhppesvuoksá" />
		<tag k="old_name:se" v="Čappesvuoksa" />
		<tag k="place" v="islet" />
		<tag k="ssr:stedsnr" v="140298" />
	</node>
	<node lat="70.2508750011515" lon="22.272236065764467" id="-44029">
		<tag k="name" v="Vinterneset" />
		<tag k="natural" v="cape" />
		<tag k="ssr:stedsnr" v="141088" />
	</node>
	<node lat="70.26152778201065" lon="21.627613846978846" id="-44030">
		<tag k="alt_name" v="Svartebergneset" />
		<tag k="name" v="Svartbergneset" />
		<tag k="natural" v="cape" />
		<tag k="ssr:stedsnr" v="141203" />
	</node>
	<node lat="70.37644166693362" lon="21.43792219869442" id="-44033">
		<tag k="name" v="Ytterværet" />
		<tag k="natural" v="bay" />
		<tag k="ssr:stedsnr" v="153549" />
	</node>
	<node lat="70.23673333088638" lon="21.209472187134807" id="-44034">
		<tag k="name" v="Litlegrunnen" />
		<tag k="natural" v="shoal" />
		<tag k="place" v="locality" />
		<tag k="ssr:stedsnr" v="154150" />
	</node>
	<node lat="70.15875555695584" lon="22.299108277184015" id="-44035">
		<tag k="name" v="Gamviknes" />
		<tag k="natural" v="cape" />
		<tag k="ssr:stedsnr" v="167268" />
	</node>
	<node lat="70.14847500593126" lon="22.43918327631937" id="-44037">
		<tag k="name" v="Storvikklubben" />
		<tag k="natural" v="cape" />
		<tag k="ssr:stedsnr" v="167568" />
	</node>
	<node lat="70.28134166900466" lon="22.27406106501129" id="-44038">
		<tag k="name" v="Sandbukta - Čeavrresgohppi" />
		<tag k="name:no" v="Sandbukta" />
		<tag k="name:se" v="Čeavrresgohppi" />
		<tag k="natural" v="bay" />
		<tag k="old_name:se" v="Čævresgåppi" />
		<tag k="ssr:stedsnr" v="262096" />
	</node>
	<node lat="70.15396111557054" lon="21.85384440077846" id="-44040">
		<tag k="name" v="Hjellnes" />
		<tag k="natural" v="cape" />
		<tag k="ssr:stedsnr" v="261270" />
	</node>
	<node lat="70.2428999995304" lon="21.494677736027075" id="-44042">
		<tag k="name" v="Langstrand" />
		<tag k="natural" v="beach" />
		<tag k="ssr:stedsnr" v="262140" />
	</node>
	<node lat="70.26050277730194" lon="22.356869408037635" id="-44044">
		<tag k="name" v="Ystnesholmen" />
		<tag k="natural" v="cape" />
		<tag k="old_name" v="Ysnesholmen" />
		<tag k="ssr:stedsnr" v="262081" />
	</node>
	<node lat="70.2610972270579" lon="21.773552752643464" id="-44047">
		<tag k="fixme" v="consider seamark:type=rock or natural=shoal" />
		<tag k="name" v="Fluskjæret" />
		<tag k="place" v="islet" />
		<tag k="ssr:stedsnr" v="262211" />
	</node>
	<node lat="70.25439999854802" lon="21.717597188775844" id="-44049">
		<tag k="name" v="Storvika" />
		<tag k="natural" v="bay" />
		<tag k="ssr:stedsnr" v="262214" />
	</node>
	<node lat="70.35864444459857" lon="21.41389997366472" id="-44051">
		<tag k="name" v="Loppa - Láhppi" />
		<tag k="name:no" v="Loppa" />
		<tag k="name:se" v="Láhppi" />
		<tag k="old_name:se" v="Lappi" />
		<tag k="place" v="island" />
		<tag k="ssr:stedsnr" v="262312" />
	</node>
	<node lat="70.17598333485314" lon="21.793974959051926" id="-44057">
		<tag k="alt_name" v="Trolldalsbukta, yt" />
		<tag k="name" v="Ytre Trolldalsbukta" />
		<tag k="natural" v="bay" />
		<tag k="ssr:stedsnr" v="262265" />
	</node>
	<node lat="70.24915278329787" lon="22.345336068399956" id="-44064">
		<tag k="name" v="Saltnes" />
		<tag k="natural" v="cape" />
		<tag k="ssr:stedsnr" v="262517" />
	</node>
	<node lat="70.12303055815613" lon="22.520647169142457" id="-44066">
		<tag k="name" v="Storsteinnes" />
		<tag k="natural" v="cape" />
		<tag k="ssr:stedsnr" v="262564" />
	</node>
	<node lat="70.12767500373525" lon="22.465686070639315" id="-44067">
		<tag k="name" v="Kåvikneset" />
		<tag k="natural" v="cape" />
		<tag k="ssr:stedsnr" v="262570" />
	</node>
	<node lat="70.32416110821715" lon="22.338449956559547" id="-44069">
		<tag k="name" v="Kariholmgrunnen" />
		<tag k="natural" v="shoal" />
		<tag k="place" v="locality" />
		<tag k="ssr:stedsnr" v="263157" />
	</node>
	<node lat="70.39029444735668" lon="21.712205532854938" id="-44073">
		<tag k="name" v="Spiidnegeailu" />
		<tag k="name:se" v="Spiidnegeailu" />
		<tag k="natural" v="cape" />
		<tag k="old_name:se" v="Spiidnegæilo" />
		<tag k="ssr:stedsnr" v="202306" />
	</node>
	<node lat="70.25822777574666" lon="22.351572176536852" id="-44074">
		<tag k="alt_name" v="Ystnes" />
		<tag k="name" v="Ystneset" />
		<tag k="natural" v="cape" />
		<tag k="ssr:stedsnr" v="202091" />
	</node>
	<node lat="70.35691110967521" lon="21.793824971211595" id="-44077">
		<tag k="alt_name" v="Holøyra" />
		<tag k="name" v="Holøra" />
		<tag k="natural" v="cape" />
		<tag k="ssr:stedsnr" v="202261" />
	</node>
	<node lat="70.13903333069334" lon="22.403758282888422" id="-44079">
		<tag k="name" v="Skognes - Vuovdenjárga" />
		<tag k="name:no" v="Skognes" />
		<tag k="name:se" v="Vuovdenjárga" />
		<tag k="natural" v="cape" />
		<tag k="old_name:se" v="Vuovdenjarga" />
		<tag k="ssr:stedsnr" v="207289" />
	</node>
	<node lat="70.24304445030545" lon="21.776266624229397" id="-44081">
		<tag k="name" v="Leirvika" />
		<tag k="natural" v="bay" />
		<tag k="ssr:stedsnr" v="211878" />
	</node>
	<node lat="70.31801944444159" lon="21.581613859048918" id="-44083">
		<tag k="bay" v="fjord" />
		<tag k="name" v="Bogfjorden" />
		<tag k="natural" v="bay" />
		<tag k="ssr:stedsnr" v="212510" />
	</node>
	<node lat="70.25285555921184" lon="22.351624950220152" id="-44085">
		<tag k="name" v="Kjeila" />
		<tag k="natural" v="bay" />
		<tag k="ssr:stedsnr" v="213794" />
	</node>
	<node lat="70.15469999976551" lon="22.314166606527937" id="-44089">
		<tag k="name" v="Skardbukta" />
		<tag k="natural" v="bay" />
		<tag k="ssr:stedsnr" v="228535" />
	</node>
	<node lat="70.2467250007243" lon="21.20016107540105" id="-44090">
		<tag k="name" v="Skjervøybåen" />
		<tag k="place" v="locality" />
		<tag k="seamark:type" v="rock" />
		<tag k="ssr:stedsnr" v="449455" />
	</node>
	<node lat="70.23532778092577" lon="21.78501942253569" id="-44091">
		<tag k="name" v="Sundby" />
		<tag k="natural" v="bay" />
		<tag k="ssr:stedsnr" v="454885" />
	</node>
	<node lat="70.20874999989068" lon="22.336599943772775" id="-44094">
		<tag k="alt_name" v="Sommarnes" />
		<tag k="name" v="Sommarneset" />
		<tag k="natural" v="cape" />
		<tag k="ssr:stedsnr" v="262417" />
	</node>
	<node lat="70.1547055538326" lon="22.361419391408717" id="-44095">
		<tag k="name" v="Slåppa - Riiddiidgáddi" />
		<tag k="name:no" v="Slåppa" />
		<tag k="name:se" v="Riiddiidgáddi" />
		<tag k="natural" v="beach" />
		<tag k="old_name:se" v="Riidiidgaddi" />
		<tag k="ssr:stedsnr" v="262445" />
	</node>
	<node lat="70.34135833219112" lon="22.30069162572251" id="-44097">
		<tag k="name" v="Eggegrunnen" />
		<tag k="natural" v="shoal" />
		<tag k="place" v="locality" />
		<tag k="ssr:stedsnr" v="263169" />
	</node>
	<node lat="70.3105222195229" lon="22.043799970369758" id="-44098">
		<tag k="name" v="Nuvnes - Junttenjárga" />
		<tag k="name:no" v="Nuvnes" />
		<tag k="name:se" v="Junttenjárga" />
		<tag k="natural" v="cape" />
		<tag k="old_name:se" v="Juntenjarga" />
		<tag k="ssr:stedsnr" v="263305" />
	</node>
	<node lat="70.3265138901447" lon="21.939358297684272" id="-44101">
		<tag k="name" v="Lávvordatnjárga" />
		<tag k="name:se" v="Lávvordatnjárga" />
		<tag k="natural" v="cape" />
		<tag k="old_name:se" v="Lavvurdatnjarga" />
		<tag k="ssr:stedsnr" v="263314" />
	</node>
	<node lat="70.29502778036812" lon="22.088811078876915" id="-44102">
		<tag k="alt_name" v="Mollvika, store" />
		<tag k="name" v="Store Mollvika" />
		<tag k="natural" v="bay" />
		<tag k="ssr:stedsnr" v="263278" />
	</node>
	<node lat="70.23195833208298" lon="21.214163870834437" id="-44105">
		<tag k="name" v="Svartoksen" />
		<tag k="natural" v="cape" />
		<tag k="ssr:stedsnr" v="458132" />
	</node>
	<node lat="70.26304444576346" lon="22.10682495171198" id="-44108">
		<tag k="name" v="Hansanes" />
		<tag k="natural" v="cape" />
		<tag k="ssr:stedsnr" v="458441" />
	</node>
	<node lat="70.25536666792709" lon="21.760358294622197" id="-44111">
		<tag k="fixme" v="consider seamark:type=rock or natural=shoal" />
		<tag k="name" v="Løktholmskjæret" />
		<tag k="place" v="islet" />
		<tag k="ssr:stedsnr" v="271909" />
	</node>
	<node lat="70.24260000407209" lon="21.712577742530673" id="-44113">
		<tag k="name" v="Teistodden" />
		<tag k="natural" v="cape" />
		<tag k="ssr:stedsnr" v="276208" />
	</node>
	<node lat="70.28446389002818" lon="22.09772495849813" id="-44120">
		<tag k="fixme" v="consider seamark:type=rock or natural=shoal" />
		<tag k="name" v="Sommarnesskjæret" />
		<tag k="place" v="islet" />
		<tag k="ssr:stedsnr" v="289326" />
	</node>
	<node lat="70.25908333597282" lon="21.78316384911053" id="-44122">
		<tag k="alt_name" v="Vedhalsneset" />
		<tag k="name" v="Vedhalsen" />
		<tag k="natural" v="cape" />
		<tag k="ssr:stedsnr" v="323219" />
	</node>
	<node lat="70.25081666956189" lon="21.783519404440874" id="-44123">
		<tag k="alt_name" v="Sjåholmen" />
		<tag k="name" v="Skjåholmen" />
		<tag k="place" v="islet" />
		<tag k="ssr:stedsnr" v="323227" />
	</node>
	<node lat="70.28315469804083" lon="21.48696545575945" id="-44124">
		<tag k="name" v="Hettekeila - Heahtegeailu" />
		<tag k="name:no" v="Hettekeila" />
		<tag k="name:se" v="Heahtegeailu" />
		<tag k="natural" v="bay" />
		<tag k="old_name:se" v="Hættegæilo" />
		<tag k="ssr:stedsnr" v="323327" />
	</node>
	<node lat="70.33615278042565" lon="21.584419413978893" id="-44129">
		<tag k="name" v="Nordholmodden" />
		<tag k="natural" v="cape" />
		<tag k="ssr:stedsnr" v="333608" />
	</node>
	<node lat="70.18238889065303" lon="22.250872165414606" id="-44130">
		<tag k="name" v="Olabukta" />
		<tag k="natural" v="bay" />
		<tag k="ssr:stedsnr" v="471436" />
	</node>
	<node lat="70.31420278088336" lon="21.35131664770196" id="-44132">
		<tag k="name" v="Nordre Kvalmål" />
		<tag k="natural" v="bay" />
		<tag k="ssr:stedsnr" v="336903" />
	</node>
	<node lat="70.37582778248381" lon="21.731252749601815" id="-44133">
		<tag k="name" v="Teistemola" />
		<tag k="natural" v="bay" />
		<tag k="ssr:stedsnr" v="336906" />
	</node>
	<node lat="70.24349167062596" lon="21.755524969118486" id="-44134">
		<tag k="name" v="Leirholmgrunnen" />
		<tag k="natural" v="shoal" />
		<tag k="place" v="locality" />
		<tag k="ssr:stedsnr" v="337211" />
	</node>
	<node lat="70.22388055615176" lon="21.753216633108185" id="-44135">
		<tag k="name" v="Skjånesgrunnen" />
		<tag k="natural" v="shoal" />
		<tag k="place" v="locality" />
		<tag k="ssr:stedsnr" v="337215" />
	</node>
	<node lat="70.30848610847477" lon="22.156452742165296" id="-44139">
		<tag k="name" v="Storbåen" />
		<tag k="natural" v="shoal" />
		<tag k="place" v="locality" />
		<tag k="ssr:stedsnr" v="384249" />
	</node>
	<node lat="70.32249166948993" lon="21.55875830386322" id="-44142">
		<tag k="name" v="Nordre Henningkeila" />
		<tag k="natural" v="bay" />
		<tag k="ssr:stedsnr" v="393835" />
	</node>
	<node lat="70.32927499781513" lon="21.57309441016112" id="-44144">
		<tag k="name" v="Sørkeila" />
		<tag k="natural" v="bay" />
		<tag k="ssr:stedsnr" v="394596" />
	</node>
	<node lat="70.33393611131496" lon="21.57921663074881" id="-44145">
		<tag k="name" v="Bragnelen" />
		<tag k="natural" v="beach" />
		<tag k="ssr:stedsnr" v="394603" />
	</node>
	<node lat="70.25950277838005" lon="21.696741639580473" id="-44146">
		<tag k="name" v="Sildspordgrunnen" />
		<tag k="natural" v="shoal" />
		<tag k="place" v="locality" />
		<tag k="ssr:stedsnr" v="397237" />
	</node>
	<node lat="70.16530278071345" lon="22.30649441044119" id="-44148">
		<tag k="name" v="Seistrand" />
		<tag k="natural" v="bay" />
		<tag k="ssr:stedsnr" v="410248" />
	</node>
	<node lat="70.25016666899538" lon="22.106438841741436" id="-44149">
		<tag k="name" v="Rastein" />
		<tag k="natural" v="cape" />
		<tag k="ssr:stedsnr" v="410328" />
	</node>
	<node lat="70.11772778430245" lon="22.53637216407961" id="-44150">
		<tag k="name" v="Revnes" />
		<tag k="natural" v="cape" />
		<tag k="ssr:stedsnr" v="410628" />
	</node>
	<node lat="70.1335500031148" lon="22.427999956344166" id="-44155">
		<tag k="alt_name" v="Skognes, l" />
		<tag k="name" v="Lille Skogneset" />
		<tag k="natural" v="cape" />
		<tag k="ssr:stedsnr" v="444404" />
	</node>
	<node lat="70.11876666717046" lon="22.517294401062227" id="-44158">
		<tag k="name" v="Mulju" />
		<tag k="name:se" v="Mulju" />
		<tag k="natural" v="cape" />
		<tag k="old_name:se" v="Muljo" />
		<tag k="ssr:stedsnr" v="444534" />
	</node>
	<node lat="70.26301389274043" lon="21.70231940958809" id="-44159">
		<tag k="name" v="Vassvik" />
		<tag k="natural" v="bay" />
		<tag k="ssr:stedsnr" v="445213" />
	</node>
	<node lat="70.21080000199375" lon="21.828102745640344" id="-44162">
		<tag k="name" v="Neset" />
		<tag k="natural" v="cape" />
		<tag k="ssr:stedsnr" v="445524" />
	</node>
	<node lat="70.23409444492387" lon="21.2232972057518" id="-44164">
		<tag k="name" v="Laksvika" />
		<tag k="natural" v="bay" />
		<tag k="ssr:stedsnr" v="449472" />
	</node>
	<node lat="70.22325277494451" lon="21.193052741715032" id="-44165">
		<tag k="name" v="Brynnilsundet" />
		<tag k="natural" v="strait" />
		<tag k="ssr:stedsnr" v="449487" />
	</node>
	<node lat="70.34314444610756" lon="21.46411108697618" id="-44169">
		<tag k="name" v="Mønesodden" />
		<tag k="natural" v="cape" />
		<tag k="ssr:stedsnr" v="458523" />
	</node>
	<node lat="70.23036944376614" lon="21.796086078110065" id="-44172">
		<tag k="name" v="Fruvika" />
		<tag k="natural" v="bay" />
		<tag k="ssr:stedsnr" v="272840" />
	</node>
	<node lat="70.23990833178404" lon="21.232169413057083" id="-44173">
		<tag k="name" v="Andsnesodden" />
		<tag k="natural" v="cape" />
		<tag k="ssr:stedsnr" v="504105" />
	</node>
	<node lat="70.15546388808488" lon="22.237049941453925" id="-44174">
		<tag k="name" v="Arnnesbukta - Báhccavuotna" />
		<tag k="name:no" v="Arnnesbukta" />
		<tag k="name:se" v="Báhccavuotna" />
=======
<osm generator="osmapis" version="0.6">
	<node id="-900911" lat="70.2428166694" lon="21.2562638643">
		<tag k="name" v="Høykeila" />
		<tag k="natural" v="bay" />
		<tag k="ssr:stedsnr" v="956203" />
	</node>
	<node id="-900910" lat="70.2402194456" lon="21.2461333122">
		<tag k="name" v="Nordoddevik" />
		<tag k="natural" v="bay" />
		<tag k="ssr:stedsnr" v="956202" />
	</node>
	<node id="-900907" lat="70.2186750015" lon="22.2314916092">
		<tag k="name" v="Tverrfjordbotn" />
		<tag k="natural" v="bay" />
		<tag k="ssr:stedsnr" v="956143" />
	</node>
	<node id="-900906" lat="70.3651000006" lon="21.448105534">
		<tag k="name" v="Krakodden" />
		<tag k="natural" v="cape" />
		<tag k="ssr:stedsnr" v="956133" />
	</node>
	<node id="-900903" lat="70.2308444434" lon="21.2076694263">
		<tag k="fixme" v="consider seamark:type=rock or natural=shoal" />
		<tag k="name" v="Laukvikskjæret" />
		<tag k="place" v="islet" />
		<tag k="ssr:stedsnr" v="874518" />
	</node>
	<node id="-900902" lat="70.261183334" lon="21.0106110868">
		<tag k="name" v="Steinskallen" />
		<tag k="natural" v="shoal" />
		<tag k="place" v="locality" />
		<tag k="ssr:stedsnr" v="874498" />
	</node>
	<node id="-900901" lat="70.2807611086" lon="21.6789582912">
		<tag k="alt_name:no" v="Finneset" />
		<tag k="name" v="Finnsnes - Dálvesadji" />
		<tag k="name:no" v="Finnsnes" />
		<tag k="name:se" v="Dálvesadji" />
		<tag k="natural" v="cape" />
		<tag k="old_name:se" v="Dalvesaddji" />
		<tag k="ssr:stedsnr" v="870245" />
	</node>
	<node id="-900900" lat="70.2643750049" lon="21.726652754">
		<tag k="name" v="Trettenengneset" />
		<tag k="natural" v="cape" />
		<tag k="ssr:stedsnr" v="870233" />
	</node>
	<node id="-900897" lat="70.1542083331" lon="22.4082444043">
		<tag k="name" v="Njuorjjogohppi" />
		<tag k="name:se" v="Njuorjjogohppi" />
		<tag k="natural" v="bay" />
		<tag k="old_name:se" v="Njuorjugåppi" />
		<tag k="ssr:stedsnr" v="869478" />
	</node>
	<node id="-900895" lat="70.1966166667" lon="22.3328388275">
		<tag k="name" v="Danielsnes - Dánelnjárga" />
		<tag k="name:no" v="Danielsnes" />
		<tag k="name:se" v="Dánelnjárga" />
		<tag k="natural" v="cape" />
		<tag k="old_name:se" v="Danelnjarga" />
		<tag k="ssr:stedsnr" v="869443" />
	</node>
	<node id="-900891" lat="70.3558499998" lon="21.3839333137">
		<tag k="alt_name" v="Svarthellaren" />
		<tag k="name" v="Svarthelleren" />
		<tag k="natural" v="cape" />
		<tag k="ssr:stedsnr" v="869356" />
	</node>
	<node id="-900884" lat="70.2044722183" lon="21.4721138628">
		<tag k="alt_name" v="Rennesodden" />
		<tag k="name" v="Revnes" />
		<tag k="natural" v="cape" />
		<tag k="ssr:stedsnr" v="869197" />
	</node>
	<node id="-900881" lat="70.2586166658" lon="22.2752332865">
		<tag k="name" v="Elvvika" />
		<tag k="natural" v="bay" />
		<tag k="ssr:stedsnr" v="869097" />
	</node>
	<node id="-900880" lat="70.2561722204" lon="21.2013499693">
		<tag k="name" v="Notlegget" />
		<tag k="natural" v="shoal" />
		<tag k="place" v="locality" />
		<tag k="ssr:stedsnr" v="868268" />
	</node>
	<node id="-900878" lat="70.2883833344" lon="22.1581277366">
		<tag k="fixme" v="multiple name tags, choose one and add the other to alt_name" />
		<tag k="name" v="Klubben;Nuvsvågklubben" />
		<tag k="natural" v="cape" />
		<tag k="ssr:stedsnr" v="851206" />
	</node>
	<node id="-900877" lat="70.2304722263" lon="22.2633027341">
		<tag k="name" v="Sirinesbukta" />
		<tag k="natural" v="bay" />
		<tag k="ssr:stedsnr" v="835632" />
	</node>
	<node id="-900875" lat="70.276369448" lon="22.0852916232">
		<tag k="name" v="Sommarneslandet" />
		<tag k="natural" v="beach" />
		<tag k="place" v="locality" />
		<tag k="ssr:stedsnr" v="835344" />
	</node>
	<node id="-900874" lat="70.2406027788" lon="21.2358555245">
		<tag k="fixme" v="consider seamark:type=rock or natural=shoal" />
		<tag k="name" v="Kristiansundskjæret" />
		<tag k="place" v="islet" />
		<tag k="ssr:stedsnr" v="835194" />
	</node>
	<node id="-900873" lat="70.2380194443" lon="21.2418416352">
		<tag k="fixme" v="consider seamark:type=rock or natural=shoal" />
		<tag k="name" v="Kvalhollskjæret" />
		<tag k="place" v="islet" />
		<tag k="ssr:stedsnr" v="835192" />
	</node>
	<node id="-900872" lat="70.2390222213" lon="21.2370555235">
		<tag k="name" v="Søroddevik" />
		<tag k="natural" v="bay" />
		<tag k="ssr:stedsnr" v="835189" />
	</node>
	<node id="-900871" lat="70.2566694418" lon="22.1067221726">
		<tag k="name" v="Lillebukt" />
		<tag k="natural" v="bay" />
		<tag k="ssr:stedsnr" v="835329" />
	</node>
	<node id="-900863" lat="70.280219442" lon="21.9549638594">
		<tag k="name" v="Ulsfjordbotn" />
		<tag k="natural" v="bay" />
		<tag k="ssr:stedsnr" v="821894" />
	</node>
	<node id="-900861" lat="70.2342472244" lon="21.7840999585">
		<tag k="name" v="Breines" />
		<tag k="natural" v="cape" />
		<tag k="ssr:stedsnr" v="818875" />
	</node>
	<node id="-900860" lat="70.2964638862" lon="22.0099138571">
		<tag k="name" v="Fjellfinneset" />
		<tag k="natural" v="cape" />
		<tag k="ssr:stedsnr" v="817496" />
	</node>
	<node id="-900859" lat="70.2657250023" lon="21.7907888413">
		<tag k="name" v="Hummelviklandet" />
		<tag k="natural" v="cape" />
		<tag k="ssr:stedsnr" v="817491" />
	</node>
	<node id="-900857" lat="70.2430999989" lon="21.2306082958">
		<tag k="name" v="Seksfamnersgrunnen" />
		<tag k="natural" v="shoal" />
		<tag k="place" v="locality" />
		<tag k="ssr:stedsnr" v="813445" />
	</node>
	<node id="-900856" lat="70.2350055533" lon="21.219769423">
		<tag k="name" v="Laksvikodden" />
		<tag k="natural" v="cape" />
		<tag k="ssr:stedsnr" v="813394" />
	</node>
	<node id="-900855" lat="70.2309638889" lon="21.1890666392">
		<tag k="fixme" v="consider seamark:type=rock or natural=shoal" />
		<tag k="name" v="Brynnilskjæret" />
		<tag k="place" v="islet" />
		<tag k="ssr:stedsnr" v="813390" />
	</node>
	<node id="-900852" lat="70.2806611162" lon="21.9516777348">
		<tag k="fixme" v="multiple name tags, choose one and add the other to alt_name" />
		<tag k="name" v="Klubben;Lille Skolten" />
		<tag k="natural" v="cape" />
		<tag k="ssr:stedsnr" v="809543" />
	</node>
	<node id="-900851" lat="70.3364472203" lon="21.9481833053">
		<tag k="name" v="Lørsnesbåen" />
		<tag k="natural" v="shoal" />
		<tag k="place" v="locality" />
		<tag k="ssr:stedsnr" v="809299" />
	</node>
	<node id="-900850" lat="70.3288861139" lon="21.9488638534">
		<tag k="name" v="Lørsnes" />
		<tag k="natural" v="cape" />
		<tag k="ssr:stedsnr" v="809297" />
	</node>
	<node id="-900846" lat="70.323163887" lon="22.3566805154">
		<tag k="name" v="Gáicagohppi" />
		<tag k="name:se" v="Gáicagohppi" />
		<tag k="natural" v="bay" />
		<tag k="old_name:se" v="Gaicagåppi" />
		<tag k="ssr:stedsnr" v="809146" />
	</node>
	<node id="-900845" lat="70.2529194501" lon="22.2739277228">
		<tag k="alt_name" v="Kattvika" />
		<tag k="name" v="Kappvika" />
		<tag k="natural" v="bay" />
		<tag k="ssr:stedsnr" v="809083" />
	</node>
	<node id="-900840" lat="70.1698472262" lon="22.3129610557">
		<tag k="name" v="Ytre Hamna - Goalvagohppi" />
		<tag k="name:no" v="Ytre Hamna" />
		<tag k="name:se" v="Goalvagohppi" />
		<tag k="natural" v="bay" />
		<tag k="old_name:se" v="Goalvagåppi" />
		<tag k="ssr:stedsnr" v="808405" />
	</node>
	<node id="-900839" lat="70.1899944494" lon="22.2600332863">
		<tag k="alt_name:no" v="Hellalandet" />
		<tag k="name" v="Hellelandet - Healluidgáddi" />
		<tag k="name:no" v="Hellelandet" />
		<tag k="name:se" v="Healluidgáddi" />
		<tag k="natural" v="beach" />
		<tag k="old_name:se" v="Hælloidgaddi" />
		<tag k="place" v="locality" />
		<tag k="ssr:stedsnr" v="808391" />
	</node>
	<node id="-900837" lat="70.2338194412" lon="21.7202666334">
		<tag k="fixme" v="multiple name tags, choose one and add the other to alt_name" />
		<tag k="name" v="Pannarodden;Ranseren - Bánnár" />
		<tag k="name:no" v="Pannarodden;Ranseren" />
		<tag k="name:se" v="Bánnár" />
		<tag k="natural" v="cape" />
		<tag k="old_name:se" v="Bannar" />
		<tag k="ssr:stedsnr" v="808363" />
	</node>
	<node id="-900836" lat="70.4417611148" lon="21.1333444277">
		<tag k="alt_name" v="Loppahavet" />
		<tag k="name" v="Lopphavet" />
		<tag k="place" v="locality" />
		<tag k="ssr:stedsnr" v="808359" />
	</node>
	<node id="-900833" lat="70.3232194455" lon="21.563983294">
		<tag k="name" v="Ørodden" />
		<tag k="natural" v="cape" />
		<tag k="ssr:stedsnr" v="808331" />
	</node>
	<node id="-900832" lat="70.3176611101" lon="21.3720332937">
		<tag k="name" v="Elven" />
		<tag k="natural" v="bay" />
		<tag k="ssr:stedsnr" v="808328" />
	</node>
	<node id="-900831" lat="70.3106944437" lon="21.4391916313">
		<tag k="name" v="Loppesveet" />
		<tag k="natural" v="strait" />
		<tag k="ssr:stedsnr" v="808324" />
	</node>
	<node id="-900830" lat="70.3010111159" lon="21.355558297">
		<tag k="name" v="Sluppen" />
		<tag k="natural" v="cape" />
		<tag k="ssr:stedsnr" v="808319" />
	</node>
	<node id="-900827" lat="70.2569472231" lon="21.1907221991">
		<tag k="name" v="Stabben" />
		<tag k="natural" v="shoal" />
		<tag k="place" v="locality" />
		<tag k="ssr:stedsnr" v="808265" />
	</node>
	<node id="-900825" lat="70.1535833355" lon="21.8400638658">
		<tag k="name" v="Nordmannsbukta" />
		<tag k="natural" v="bay" />
		<tag k="ssr:stedsnr" v="808257" />
	</node>
	<node id="-900821" lat="70.2086027827" lon="21.8206694107">
		<tag k="alt_name" v="Snappeneset" />
		<tag k="name" v="Snappen" />
		<tag k="natural" v="cape" />
		<tag k="ssr:stedsnr" v="808240" />
	</node>
	<node id="-900809" lat="70.2273027768" lon="21.2126860888">
		<tag k="name" v="Løkvikfjæra" />
		<tag k="natural" v="bay" />
		<tag k="ssr:stedsnr" v="774216" />
	</node>
	<node id="-900808" lat="70.2215972237" lon="21.1912499729">
		<tag k="name" v="Roaldvik" />
		<tag k="natural" v="bay" />
		<tag k="ssr:stedsnr" v="774214" />
	</node>
	<node id="-900806" lat="70.2354055578" lon="21.2248527515">
		<tag k="name" v="Skjåvik" />
		<tag k="natural" v="bay" />
		<tag k="ssr:stedsnr" v="774195" />
	</node>
	<node id="-900805" lat="70.3460277754" lon="21.4069527445">
		<tag k="name" v="Lille Buvika" />
		<tag k="natural" v="bay" />
		<tag k="ssr:stedsnr" v="774168" />
	</node>
	<node id="-900802" lat="70.2735638937" lon="22.1215444116">
		<tag k="alt_name" v="Lille Skolten" />
		<tag k="name" v="Lilleskolten" />
		<tag k="natural" v="cape" />
		<tag k="ssr:stedsnr" v="762415" />
	</node>
	<node id="-900801" lat="70.2055916706" lon="21.4833221881">
		<tag k="name" v="Skjåneset" />
		<tag k="natural" v="cape" />
		<tag k="ssr:stedsnr" v="761576" />
	</node>
	<node id="-900800" lat="70.3163222251" lon="21.5686360876">
		<tag k="name" v="Øralandet" />
		<tag k="natural" v="beach" />
		<tag k="place" v="locality" />
		<tag k="ssr:stedsnr" v="758646" />
	</node>
	<node id="-900796" lat="70.2499750009" lon="21.0066277523">
		<tag k="name" v="Eirskallen" />
		<tag k="natural" v="shoal" />
		<tag k="place" v="locality" />
		<tag k="ssr:stedsnr" v="752455" />
	</node>
	<node id="-900792" lat="70.2616916661" lon="21.6501583048">
		<tag k="name" v="Svartberggrunnen" />
		<tag k="natural" v="shoal" />
		<tag k="place" v="locality" />
		<tag k="ssr:stedsnr" v="748201" />
	</node>
	<node id="-900782" lat="70.317350004" lon="21.5240860956">
		<tag k="name" v="Bankekeila" />
		<tag k="natural" v="bay" />
		<tag k="ssr:stedsnr" v="747332" />
	</node>
	<node id="-900778" lat="70.2254861149" lon="22.2570638427">
		<tag k="bay" v="fjord" />
		<tag k="name" v="Tverrfjorden - Doaresvuotna" />
		<tag k="name:no" v="Tverrfjorden" />
		<tag k="name:se" v="Doaresvuotna" />
		<tag k="natural" v="bay" />
		<tag k="old_name:se" v="Doaresvuodna" />
		<tag k="ssr:stedsnr" v="747373" />
	</node>
	<node id="-900777" lat="70.2155750008" lon="22.2716499612">
		<tag k="name" v="Olaneset" />
		<tag k="natural" v="cape" />
		<tag k="ssr:stedsnr" v="747368" />
	</node>
	<node id="-900772" lat="70.2746833327" lon="22.2875055031">
		<tag k="name" v="Øksfjordklubben" />
		<tag k="natural" v="cape" />
		<tag k="ssr:stedsnr" v="747080" />
	</node>
	<node id="-900771" lat="70.2620222222" lon="22.1069555033">
		<tag k="name" v="Engnes" />
		<tag k="natural" v="cape" />
		<tag k="ssr:stedsnr" v="653300" />
	</node>
	<node id="-900770" lat="70.1293166686" lon="22.4970221764">
		<tag k="name" v="Øksfjordbotn" />
		<tag k="natural" v="bay" />
		<tag k="ssr:stedsnr" v="652625" />
	</node>
	<node id="-900767" lat="70.1545583391" lon="22.2512221717">
		<tag k="fixme" v="consider seamark:type=rock or natural=shoal" />
		<tag k="name" v="Arnnesskjæret" />
		<tag k="place" v="islet" />
		<tag k="ssr:stedsnr" v="652220" />
	</node>
	<node id="-900763" lat="70.2518111113" lon="21.2740360859">
		<tag k="fixme" v="consider seamark:type=rock or natural=shoal" />
		<tag k="name" v="Brudeskjæret" />
		<tag k="place" v="islet" />
		<tag k="ssr:stedsnr" v="640633" />
	</node>
	<node id="-900762" lat="70.1244833318" lon="22.5022082848">
		<tag k="alt_name" v="Holmen" />
		<tag k="name" v="Botnholmen" />
		<tag k="place" v="islet" />
		<tag k="ssr:stedsnr" v="640358" />
	</node>
	<node id="-900760" lat="70.3896027811" lon="21.7130305347">
		<tag k="name" v="Stortindkeila" />
		<tag k="natural" v="bay" />
		<tag k="ssr:stedsnr" v="638909" />
	</node>
	<node id="-900759" lat="70.2457638866" lon="21.7798666345">
		<tag k="name" v="Sandnes" />
		<tag k="natural" v="cape" />
		<tag k="ssr:stedsnr" v="635837" />
	</node>
	<node id="-900755" lat="70.1523500021" lon="22.3236749547">
		<tag k="name" v="Skardbergodden" />
		<tag k="natural" v="cape" />
		<tag k="ssr:stedsnr" v="626470" />
	</node>
	<node id="-900752" lat="70.2346416659" lon="22.0774221742">
		<tag k="alt_name" v="Sørbotn" />
		<tag k="name" v="Nuvsfjordbotn" />
		<tag k="natural" v="bay" />
		<tag k="ssr:stedsnr" v="626411" />
	</node>
	<node id="-900751" lat="70.2400750017" lon="21.7798888416">
		<tag k="name" v="Bukta" />
		<tag k="natural" v="bay" />
		<tag k="ssr:stedsnr" v="626408" />
	</node>
	<node id="-900750" lat="70.272608335" lon="22.0886777309">
		<tag k="bay" v="fjord" />
		<tag k="name" v="Nuvsfjorden - Cuokcavuotna" />
		<tag k="name:no" v="Nuvsfjorden" />
		<tag k="name:se" v="Cuokcavuotna" />
		<tag k="natural" v="bay" />
		<tag k="old_name:se" v="Cuokcavuodna" />
		<tag k="ssr:stedsnr" v="626406" />
	</node>
	<node id="-900749" lat="70.2530083384" lon="21.72033607">
		<tag k="name" v="Marøya - Máreaddju" />
		<tag k="name:no" v="Marøya" />
		<tag k="name:se" v="Máreaddju" />
		<tag k="old_name:se" v="Maræddjo" />
		<tag k="place" v="island" />
		<tag k="ssr:stedsnr" v="626393" />
	</node>
	<node id="-900748" lat="70.3186611161" lon="21.5693388615">
		<tag k="name" v="Ørodden" />
		<tag k="natural" v="cape" />
		<tag k="ssr:stedsnr" v="626378" />
	</node>
	<node id="-900744" lat="70.323613892" lon="21.4119444301">
		<tag k="alt_name" v="Avløysingodden;Avløsningsodden" />
		<tag k="name" v="Fjellavløysingodden" />
		<tag k="natural" v="cape" />
		<tag k="ssr:stedsnr" v="626349" />
	</node>
	<node id="-900742" lat="70.3311111082" lon="21.5793499734">
		<tag k="name" v="Marholmen" />
		<tag k="place" v="island" />
		<tag k="ssr:stedsnr" v="626346" />
	</node>
	<node id="-900741" lat="70.3864750034" lon="21.7033666236">
		<tag k="name" v="Litleskardet" />
		<tag k="natural" v="bay" />
		<tag k="ssr:stedsnr" v="626328" />
	</node>
	<node id="-900740" lat="70.3274750014" lon="21.7981527557">
		<tag k="name" v="Larsvær" />
		<tag k="natural" v="cape" />
		<tag k="ssr:stedsnr" v="626292" />
	</node>
	<node id="-900739" lat="70.3144555541" lon="21.6835860777">
		<tag k="name" v="Per Olsaværet" />
		<tag k="natural" v="cape" />
		<tag k="ssr:stedsnr" v="626289" />
	</node>
	<node id="-900738" lat="70.3813638924" lon="21.7248693996">
		<tag k="name" v="Skárfageađgi" />
		<tag k="name:se" v="Skárfageađgi" />
		<tag k="natural" v="cape" />
		<tag k="old_name:se" v="Skarfagæđgi" />
		<tag k="ssr:stedsnr" v="626278" />
	</node>
	<node id="-900736" lat="70.3658722232" lon="21.7584583086">
		<tag k="name" v="Yttervær" />
		<tag k="natural" v="cape" />
		<tag k="ssr:stedsnr" v="626274" />
	</node>
	<node id="-900732" lat="70.2179777805" lon="21.7602388459">
		<tag k="alt_name:no" v="Skjåneset" />
		<tag k="name" v="Skjånes - Báiskenjárga" />
		<tag k="name:no" v="Skjånes" />
		<tag k="name:se" v="Báiskenjárga" />
		<tag k="natural" v="cape" />
		<tag k="old_name:se" v="Baiskenjarga" />
		<tag k="ssr:stedsnr" v="626265" />
	</node>
	<node id="-900731" lat="70.2942888899" lon="21.7979721981">
		<tag k="alt_name" v="Røysnesbåen" />
		<tag k="name" v="Røsnesbåen" />
		<tag k="natural" v="shoal" />
		<tag k="place" v="locality" />
		<tag k="ssr:stedsnr" v="626263" />
	</node>
	<node id="-900729" lat="70.3042111139" lon="22.169786079">
		<tag k="name" v="Breitindgrunnen" />
		<tag k="natural" v="shoal" />
		<tag k="place" v="locality" />
		<tag k="ssr:stedsnr" v="626253" />
	</node>
	<node id="-900728" lat="70.3043777784" lon="22.1556999518">
		<tag k="name" v="Smaltindgrunnen" />
		<tag k="natural" v="shoal" />
		<tag k="place" v="locality" />
		<tag k="ssr:stedsnr" v="626252" />
	</node>
	<node id="-900725" lat="70.2812583362" lon="21.9621388397">
		<tag k="fixme" v="multiple name tags, choose one and add the other to alt_name" />
		<tag k="name" v="Kobbeneset;Solnes" />
		<tag k="natural" v="cape" />
		<tag k="ssr:stedsnr" v="626241" />
	</node>
	<node id="-900724" lat="70.2790138858" lon="21.7551749753">
		<tag k="alt_name:no" v="Urdnes" />
		<tag k="name" v="Urdneset - Juovvanjárga" />
		<tag k="name:no" v="Urdneset" />
		<tag k="name:se" v="Juovvanjárga" />
		<tag k="natural" v="cape" />
		<tag k="old_name:se" v="Juovvanjarga" />
		<tag k="ssr:stedsnr" v="626239" />
	</node>
	<node id="-900721" lat="70.2575361138" lon="21.7280582884">
		<tag k="name" v="Klæbugrunnen" />
		<tag k="natural" v="shoal" />
		<tag k="place" v="locality" />
		<tag k="ssr:stedsnr" v="626222" />
	</node>
	<node id="-900720" lat="70.3295194488" lon="22.3455082797">
		<tag k="name" v="Kariholmen - Gáirosuolu" />
		<tag k="name:no" v="Kariholmen" />
		<tag k="name:se" v="Gáirosuolu" />
		<tag k="old_name:se" v="Gairusuolo" />
		<tag k="place" v="islet" />
		<tag k="ssr:stedsnr" v="626161" />
	</node>
	<node id="-900719" lat="70.333202777" lon="22.3375888476">
		<tag k="fixme" v="consider seamark:type=rock or natural=shoal" />
		<tag k="name" v="Skarvskjæret" />
		<tag k="place" v="islet" />
		<tag k="ssr:stedsnr" v="626156" />
	</node>
	<node id="-900718" lat="70.297255555" lon="22.397236052">
		<tag k="name" v="Hella - Heallu" />
		<tag k="name:no" v="Hella" />
		<tag k="name:se" v="Heallu" />
		<tag k="natural" v="cape" />
		<tag k="old_name:se" v="Hællo" />
		<tag k="ssr:stedsnr" v="626144" />
	</node>
	<node id="-900715" lat="70.2651027737" lon="21.2120249809">
		<tag k="fixme" v="consider seamark:type=rock or natural=shoal" />
		<tag k="name" v="Svartskjæret - Čáhppeslássát" />
		<tag k="name:no" v="Svartskjæret" />
		<tag k="name:se" v="Čáhppeslássát" />
		<tag k="old_name:se" v="Čappeslassat" />
		<tag k="place" v="islet" />
		<tag k="ssr:stedsnr" v="625290" />
	</node>
	<node id="-900714" lat="70.2539000003" lon="21.2867277396">
		<tag k="name" v="Uerbukta" />
		<tag k="natural" v="bay" />
		<tag k="ssr:stedsnr" v="625287" />
	</node>
	<node id="-900713" lat="70.1473138943" lon="21.8496221773">
		<tag k="name" v="Stuoravuonbahta" />
		<tag k="name:se" v="Stuoravuonbahta" />
		<tag k="natural" v="bay" />
		<tag k="old_name:se" v="Stuoravuonbatta" />
		<tag k="ssr:stedsnr" v="625282" />
	</node>
	<node id="-900709" lat="70.1992333376" lon="21.4703777618">
		<tag k="name" v="Kjosen" />
		<tag k="natural" v="bay" />
		<tag k="ssr:stedsnr" v="625170" />
	</node>
	<node id="-900707" lat="70.2529305581" lon="21.2827944222">
		<tag k="name" v="Lundkeila" />
		<tag k="natural" v="bay" />
		<tag k="ssr:stedsnr" v="625138" />
	</node>
	<node id="-900706" lat="70.2337055552" lon="21.4539777486">
		<tag k="bay" v="fjord" />
		<tag k="name" v="Frakkfjorden" />
		<tag k="natural" v="bay" />
		<tag k="ssr:stedsnr" v="625131" />
	</node>
	<node id="-900704" lat="70.1171527777" lon="22.5090805015">
		<tag k="name" v="Boikagohppi" />
		<tag k="name:se" v="Boikagohppi" />
		<tag k="natural" v="bay" />
		<tag k="ssr:stedsnr" v="592666" />
	</node>
	<node id="-900703" lat="70.1254527821" lon="22.4870138468">
		<tag k="fixme" v="consider seamark:type=rock or natural=shoal" />
		<tag k="name" v="Kobbholskjæret" />
		<tag k="place" v="islet" />
		<tag k="ssr:stedsnr" v="592664" />
	</node>
	<node id="-900701" lat="70.2754500018" lon="22.1267444103">
		<tag k="name" v="Bukta" />
>>>>>>> e1d4bc35ff8a6074a6f2e91616a996b547c36f15
		<tag k="natural" v="bay" />
		<tag k="ssr:stedsnr" v="592339" />
	</node>
<<<<<<< HEAD
	<node lat="70.22817500163731" lon="21.13905831165844" id="-44181">
		<tag k="name" v="Øver-Brynnilskallen" />
		<tag k="natural" v="shoal" />
		<tag k="place" v="locality" />
		<tag k="ssr:stedsnr" v="510500" />
	</node>
	<node lat="70.31185556074449" lon="21.564816631209446" id="-44183">
		<tag k="name" v="Stellet" />
		<tag k="natural" v="beach" />
		<tag k="ssr:stedsnr" v="515629" />
	</node>
	<node lat="70.43712222406698" lon="21.170891648462856" id="-44187">
		<tag k="name" v="Lopphavet" />
		<tag k="natural" v="reef" />
		<tag k="ssr:stedsnr" v="526215" />
	</node>
	<node lat="70.13513055833762" lon="22.494724939093746" id="-44193">
		<tag k="name" v="Leirvika" />
		<tag k="natural" v="bay" />
		<tag k="ssr:stedsnr" v="531673" />
	</node>
	<node lat="70.2239027752898" lon="22.268397184683916" id="-44194">
		<tag k="name" v="Tverrfjordneset - Doaresvuonnjárga" />
		<tag k="name:no" v="Tverrfjordneset" />
		<tag k="name:se" v="Doaresvuonnjárga" />
		<tag k="natural" v="cape" />
		<tag k="old_name:se" v="Doaresvuonnjarga" />
		<tag k="ssr:stedsnr" v="686388" />
	</node>
	<node lat="70.23254999691882" lon="22.33549995442135" id="-44195">
		<tag k="alt_name" v="Finnes" />
		<tag k="name" v="Finneset" />
		<tag k="natural" v="cape" />
		<tag k="ssr:stedsnr" v="686392" />
	</node>
	<node lat="70.24280000043967" lon="22.274319404539515" id="-44200">
		<tag k="name" v="Skatvikneset" />
		<tag k="natural" v="cape" />
		<tag k="ssr:stedsnr" v="686500" />
	</node>
	<node lat="70.34331111129394" lon="21.80678331053997" id="-44201">
		<tag k="name" v="Kleivneset" />
		<tag k="natural" v="cape" />
		<tag k="ssr:stedsnr" v="687247" />
	</node>
	<node lat="70.3592333351797" lon="21.687883297194297" id="-44204">
		<tag k="name" v="Kråa" />
		<tag k="natural" v="bay" />
		<tag k="ssr:stedsnr" v="687254" />
	</node>
	<node lat="70.3328444454491" lon="21.396799972164107" id="-44206">
		<tag k="alt_name" v="Rektindnes" />
		<tag k="name" v="Rektindneset" />
		<tag k="natural" v="cape" />
		<tag k="ssr:stedsnr" v="687313" />
	</node>
	<node lat="70.33064166417873" lon="21.415024970840154" id="-44207">
		<tag k="alt_name" v="Rosmålvika;Rossmollvika" />
		<tag k="name" v="Rossmolvika" />
		<tag k="natural" v="bay" />
		<tag k="ssr:stedsnr" v="687319" />
	</node>
	<node lat="70.34926666334302" lon="21.389938860123532" id="-44209">
		<tag k="alt_name" v="Singsodden" />
		<tag k="name" v="Sfingsodden" />
		<tag k="natural" v="cape" />
		<tag k="ssr:stedsnr" v="687326" />
	</node>
	<node lat="70.24828889068138" lon="21.66876108777664" id="-44214">
		<tag k="alt_name" v="Bjørnvika, yt" />
		<tag k="name" v="Ytre Bjørnvika" />
		<tag k="natural" v="bay" />
		<tag k="ssr:stedsnr" v="687365" />
	</node>
	<node lat="70.24848611276431" lon="21.7684888599182" id="-44215">
		<tag k="name" v="Langholmen" />
		<tag k="place" v="islet" />
		<tag k="ssr:stedsnr" v="687366" />
	</node>
	<node lat="70.12930833514226" lon="22.329849941245264" id="-44219">
		<tag k="name" v="Kolsokkerbukta" />
		<tag k="natural" v="bay" />
		<tag k="ssr:stedsnr" v="687419" />
	</node>
	<node lat="70.1519000039074" lon="22.42909994766836" id="-44220">
		<tag k="alt_name" v="Rypnes" />
		<tag k="name" v="Rypenes" />
		<tag k="natural" v="cape" />
		<tag k="ssr:stedsnr" v="687427" />
	</node>
	<node lat="70.28509999826933" lon="21.952141620610657" id="-44226">
		<tag k="name" v="Torbenes" />
		<tag k="natural" v="cape" />
		<tag k="ssr:stedsnr" v="688271" />
	</node>
	<node lat="70.29556944256048" lon="21.221897192382684" id="-44227">
		<tag k="name" v="Lille-Kjelhaugen" />
		<tag k="natural" v="shoal" />
		<tag k="place" v="locality" />
		<tag k="ssr:stedsnr" v="692458" />
	</node>
	<node lat="70.26380555732625" lon="21.15521943163449" id="-44228">
		<tag k="name" v="Amundsbåen" />
		<tag k="place" v="locality" />
		<tag k="seamark:type" v="rock" />
		<tag k="ssr:stedsnr" v="692459" />
	</node>
	<node lat="70.28968611176445" lon="22.452538834438958" id="-44230">
=======
	<node id="-900700" lat="70.2879166699" lon="22.1481527402">
		<tag k="name" v="Kjeila" />
		<tag k="natural" v="bay" />
		<tag k="ssr:stedsnr" v="592335" />
	</node>
	<node id="-900698" lat="70.3660666638" lon="21.4035666487">
		<tag k="name" v="Ryggholla" />
		<tag k="natural" v="bay" />
		<tag k="ssr:stedsnr" v="592123" />
	</node>
	<node id="-900697" lat="70.3755305544" lon="21.4371805205">
		<tag k="name" v="Yttervær" />
		<tag k="natural" v="cape" />
		<tag k="ssr:stedsnr" v="592121" />
	</node>
	<node id="-900696" lat="70.3877916635" lon="21.4354416442">
		<tag k="name" v="Torvekeila" />
		<tag k="natural" v="bay" />
		<tag k="ssr:stedsnr" v="592118" />
	</node>
	<node id="-900694" lat="70.3135555581" lon="21.3914138752">
		<tag k="name" v="Berteslåtodden" />
		<tag k="natural" v="cape" />
		<tag k="ssr:stedsnr" v="579917" />
	</node>
	<node id="-900693" lat="70.2221444461" lon="21.7921610746">
		<tag k="name" v="Sloppegrunnen" />
		<tag k="natural" v="shoal" />
		<tag k="place" v="locality" />
		<tag k="ssr:stedsnr" v="579587" />
	</node>
	<node id="-900690" lat="70.2642222199" lon="22.2821749627">
		<tag k="name" v="Klubbnesvika" />
		<tag k="natural" v="bay" />
		<tag k="ssr:stedsnr" v="577788" />
	</node>
	<node id="-900688" lat="70.3330861158" lon="21.5815610857">
		<tag k="name" v="Nordholmen" />
		<tag k="place" v="islet" />
		<tag k="ssr:stedsnr" v="576626" />
	</node>
	<node id="-900687" lat="70.229199998" lon="21.7969610718">
		<tag k="name" v="Kjellnes" />
		<tag k="natural" v="cape" />
		<tag k="ssr:stedsnr" v="575849" />
	</node>
	<node id="-900685" lat="70.2399583307" lon="21.7749666211">
		<tag k="name" v="Leirviknes" />
		<tag k="natural" v="cape" />
		<tag k="ssr:stedsnr" v="575856" />
	</node>
	<node id="-900683" lat="70.1354416657" lon="22.2334277307">
		<tag k="bay" v="fjord" />
		<tag k="name" v="Kjøsen - Livcu" />
		<tag k="name:no" v="Kjøsen" />
		<tag k="name:se" v="Livcu" />
		<tag k="natural" v="bay" />
		<tag k="old_name:se" v="Livco" />
		<tag k="ssr:stedsnr" v="574542" />
	</node>
	<node id="-900681" lat="70.238244448" lon="21.1603277628">
		<tag k="name" v="Haukøygrunnen" />
		<tag k="natural" v="shoal" />
		<tag k="place" v="locality" />
		<tag k="ssr:stedsnr" v="570433" />
	</node>
	<node id="-900680" lat="70.2812277777" lon="21.2164305229">
		<tag k="name" v="Svartskjærryggen" />
		<tag k="place" v="locality" />
		<tag k="ssr:stedsnr" v="570423" />
	</node>
	<node id="-900679" lat="70.2367972225" lon="21.2244971997">
		<tag k="name" v="Skjåvikodden" />
		<tag k="natural" v="cape" />
		<tag k="ssr:stedsnr" v="570387" />
	</node>
	<node id="-900675" lat="70.3111777825" lon="21.9005971802">
		<tag k="name" v="Ørneset" />
		<tag k="natural" v="cape" />
		<tag k="ssr:stedsnr" v="566294" />
	</node>
	<node id="-900668" lat="70.133086117" lon="22.303691611">
		<tag k="alt_name" v="Tennskjeret" />
		<tag k="fixme" v="consider seamark:type=rock or natural=shoal" />
		<tag k="name" v="Ternskjæret" />
		<tag k="place" v="islet" />
		<tag k="ssr:stedsnr" v="565401" />
	</node>
	<node id="-900662" lat="70.1884388934" lon="21.8231999702">
		<tag k="name" v="Hundberget - Loainjárga" />
		<tag k="name:no" v="Hundberget" />
		<tag k="name:se" v="Loainjárga" />
		<tag k="natural" v="cape" />
		<tag k="old_name:se" v="Loainjarga" />
		<tag k="ssr:stedsnr" v="565261" />
	</node>
	<node id="-900658" lat="70.2198222229" lon="21.7465805123">
		<tag k="name" v="Steinneset - Čiehkanjárga" />
		<tag k="name:no" v="Steinneset" />
		<tag k="name:se" v="Čiehkanjárga" />
		<tag k="natural" v="cape" />
		<tag k="old_name:se" v="Čiekkanjarga" />
		<tag k="ssr:stedsnr" v="565249" />
	</node>
	<node id="-900657" lat="70.2190750042" lon="21.7218221881">
		<tag k="name" v="Bártnatvuotna" />
		<tag k="name:se" v="Bártnatvuotna" />
		<tag k="natural" v="bay" />
		<tag k="old_name:se" v="Bardnatvuodna" />
		<tag k="ssr:stedsnr" v="565248" />
	</node>
	<node id="-900655" lat="70.2570305569" lon="21.7261749702">
		<tag k="fixme" v="consider seamark:type=rock or natural=shoal" />
		<tag k="name" v="Klæbuskjæret" />
		<tag k="place" v="islet" />
		<tag k="ssr:stedsnr" v="565193" />
	</node>
	<node id="-900652" lat="70.262322222" lon="21.7853110685">
		<tag k="name" v="Lille-Hummelvika" />
		<tag k="natural" v="bay" />
		<tag k="ssr:stedsnr" v="565188" />
	</node>
	<node id="-900651" lat="70.1930000027" lon="21.4888860699">
		<tag k="bay" v="fjord" />
		<tag k="name" v="Frakkfjordbotn" />
		<tag k="natural" v="bay" />
		<tag k="ssr:stedsnr" v="565154" />
	</node>
	<node id="-900650" lat="70.2896861118" lon="22.4525388344">
>>>>>>> e1d4bc35ff8a6074a6f2e91616a996b547c36f15
		<tag k="name" v="Gammen - Oaggunluokta" />
		<tag k="name:no" v="Gammen" />
		<tag k="name:se" v="Oaggunluokta" />
		<tag k="natural" v="bay" />
		<tag k="old_name:se" v="Oaggonluokta" />
		<tag k="ssr:stedsnr" v="565103" />
	</node>
<<<<<<< HEAD
	<node lat="70.22919999802724" lon="21.796961071755515" id="-44238">
		<tag k="name" v="Kjellnes" />
		<tag k="natural" v="cape" />
		<tag k="ssr:stedsnr" v="575849" />
	</node>
	<node lat="70.23995833072584" lon="21.774966621131902" id="-44239">
		<tag k="name" v="Leirviknes" />
		<tag k="natural" v="cape" />
		<tag k="ssr:stedsnr" v="575856" />
	</node>
	<node lat="70.31355555809897" lon="21.39141387515901" id="-44241">
		<tag k="name" v="Berteslåtodden" />
		<tag k="natural" v="cape" />
		<tag k="ssr:stedsnr" v="579917" />
	</node>
	<node lat="70.31936388605114" lon="21.546394412215815" id="-44243">
		<tag k="name" v="Nordre Bankekeila" />
		<tag k="natural" v="bay" />
		<tag k="ssr:stedsnr" v="696861" />
	</node>
	<node lat="70.12545278213078" lon="22.4870138467823" id="-44245">
		<tag k="fixme" v="consider seamark:type=rock or natural=shoal" />
		<tag k="name" v="Kobbholskjæret" />
		<tag k="place" v="islet" />
		<tag k="ssr:stedsnr" v="592664" />
	</node>
	<node lat="70.1171527776893" lon="22.509080501548766" id="-44246">
		<tag k="name" v="Boikagohppi" />
		<tag k="name:se" v="Boikagohppi" />
		<tag k="natural" v="bay" />
		<tag k="ssr:stedsnr" v="592666" />
	</node>
	<node lat="70.19751389383903" lon="22.26721105408507" id="-44247">
		<tag k="fixme" v="consider seamark:type=rock or natural=shoal" />
		<tag k="name" v="Hellandskjæret" />
		<tag k="place" v="islet" />
		<tag k="ssr:stedsnr" v="701349" />
	</node>
	<node lat="70.24151666803164" lon="21.24940831403266" id="-44248">
		<tag k="alt_name" v="Bollvikodden" />
		<tag k="name" v="Nordodden" />
		<tag k="natural" v="cape" />
		<tag k="ssr:stedsnr" v="701639" />
	</node>
	<node lat="70.14731389427193" lon="21.849622177347776" id="-44250">
		<tag k="name" v="Stuoravuonbahta" />
		<tag k="name:se" v="Stuoravuonbahta" />
		<tag k="natural" v="bay" />
		<tag k="old_name:se" v="Stuoravuonbatta" />
		<tag k="ssr:stedsnr" v="625282" />
	</node>
	<node lat="70.25390000025182" lon="21.286727739599" id="-44251">
		<tag k="name" v="Uerbukta" />
		<tag k="natural" v="bay" />
		<tag k="ssr:stedsnr" v="625287" />
	</node>
	<node lat="70.26510277371335" lon="21.212024980916215" id="-44252">
		<tag k="fixme" v="consider seamark:type=rock or natural=shoal" />
		<tag k="name" v="Svartskjæret - Čáhppeslássát" />
		<tag k="name:no" v="Svartskjæret" />
		<tag k="name:se" v="Čáhppeslássát" />
		<tag k="old_name:se" v="Čappeslassat" />
		<tag k="place" v="islet" />
		<tag k="ssr:stedsnr" v="625290" />
	</node>
	<node lat="70.33320277696271" lon="22.33758884758406" id="-44253">
		<tag k="fixme" v="consider seamark:type=rock or natural=shoal" />
		<tag k="name" v="Skarvskjæret" />
		<tag k="place" v="islet" />
		<tag k="ssr:stedsnr" v="626156" />
	</node>
	<node lat="70.3295194488096" lon="22.345508279683568" id="-44254">
		<tag k="name" v="Kariholmen - Gáirosuolu" />
		<tag k="name:no" v="Kariholmen" />
		<tag k="name:se" v="Gáirosuolu" />
		<tag k="old_name:se" v="Gairusuolo" />
		<tag k="place" v="islet" />
		<tag k="ssr:stedsnr" v="626161" />
	</node>
	<node lat="70.272608334987" lon="22.088677730943637" id="-44255">
		<tag k="bay" v="fjord" />
		<tag k="name" v="Nuvsfjorden - Cuokcavuotna" />
		<tag k="name:no" v="Nuvsfjorden" />
		<tag k="name:se" v="Cuokcavuotna" />
		<tag k="natural" v="bay" />
		<tag k="old_name:se" v="Cuokcavuodna" />
		<tag k="ssr:stedsnr" v="626406" />
	</node>
	<node lat="70.24007500165031" lon="21.779888841588214" id="-44256">
		<tag k="name" v="Bukta" />
		<tag k="natural" v="bay" />
		<tag k="ssr:stedsnr" v="626408" />
	</node>
	<node lat="70.2346416658929" lon="22.077422174157473" id="-44257">
		<tag k="alt_name" v="Sørbotn" />
		<tag k="name" v="Nuvsfjordbotn" />
		<tag k="natural" v="bay" />
		<tag k="ssr:stedsnr" v="626411" />
	</node>
	<node lat="70.13463888892468" lon="22.270083290429334" id="-44261">
		<tag k="name" v="Sommarneset - Lássánjárga" />
		<tag k="name:no" v="Sommarneset" />
		<tag k="name:se" v="Lássánjárga" />
		<tag k="natural" v="cape" />
		<tag k="old_name:se" v="Lassanjarga" />
		<tag k="ssr:stedsnr" v="627462" />
	</node>
	<node lat="70.18797222754125" lon="22.29692773367522" id="-44262">
		<tag k="bay" v="fjord" />
		<tag k="name" v="Øksfjorden - Ákšovuotna" />
		<tag k="name:no" v="Øksfjorden" />
		<tag k="name:se" v="Ákšovuotna" />
		<tag k="natural" v="bay" />
		<tag k="old_name:se" v="Akšuvuodna" />
		<tag k="ssr:stedsnr" v="627463" />
	</node>
	<node lat="70.1868777761508" lon="22.33017218138509" id="-44266">
		<tag k="name" v="Tønnes" />
		<tag k="natural" v="cape" />
		<tag k="ssr:stedsnr" v="652336" />
	</node>
	<node lat="70.18270000110815" lon="22.32646661456087" id="-44267">
		<tag k="name" v="Fruvika" />
		<tag k="natural" v="bay" />
		<tag k="ssr:stedsnr" v="652338" />
	</node>
	<node lat="70.2657583349846" lon="22.285888853068446" id="-44270">
		<tag k="name" v="Russeberget" />
		<tag k="natural" v="cape" />
		<tag k="ssr:stedsnr" v="687101" />
	</node>
	<node lat="70.27334166650489" lon="21.41585275656292" id="-44272">
		<tag k="alt_name" v="Kjerrisneset" />
		<tag k="name" v="Kjæresnes" />
		<tag k="natural" v="cape" />
		<tag k="ssr:stedsnr" v="687291" />
	</node>
	<node lat="70.29773333569064" lon="21.474344419168048" id="-44273">
		<tag k="name" v="Meurtan" />
		<tag k="natural" v="cape" />
		<tag k="ssr:stedsnr" v="687337" />
	</node>
	<node lat="70.30135689516796" lon="21.384358146826198" id="-44274">
		<tag k="fixme" v="multiple name tags, choose one and add the other to alt_name" />
		<tag k="name" v="Mariliodden;Kalvodden" />
		<tag k="natural" v="cape" />
		<tag k="ssr:stedsnr" v="687341" />
	</node>
	<node lat="70.23090278302833" lon="21.21316385846679" id="-44276">
		<tag k="name" v="Svartoksen" />
		<tag k="natural" v="bay" />
		<tag k="ssr:stedsnr" v="692424" />
	</node>
	<node lat="70.28576389000061" lon="21.564869417910575" id="-44280">
		<tag k="name" v="Persneset" />
		<tag k="natural" v="cape" />
		<tag k="ssr:stedsnr" v="697604" />
	</node>
	<node lat="70.24201388993029" lon="21.252861092759247" id="-44285">
		<tag k="name" v="Bollvika" />
		<tag k="natural" v="bay" />
		<tag k="ssr:stedsnr" v="713188" />
	</node>
	<node lat="70.24978889242382" lon="21.27090829605292" id="-44286">
		<tag k="name" v="Nordlundkeila" />
		<tag k="natural" v="bay" />
		<tag k="ssr:stedsnr" v="713190" />
	</node>
	<node lat="70.14040833384617" lon="22.476927723786112" id="-44288">
		<tag k="name" v="Buktaklubben" />
		<tag k="natural" v="cape" />
		<tag k="ssr:stedsnr" v="713533" />
	</node>
	<node lat="70.27152222189622" lon="22.133988850215097" id="-44289">
		<tag k="name" v="Storsanden" />
		<tag k="natural" v="cape" />
		<tag k="ssr:stedsnr" v="714283" />
	</node>
	<node lat="70.25323611503744" lon="21.78341107673396" id="-44291">
		<tag k="name" v="Skippernes" />
		<tag k="natural" v="cape" />
		<tag k="ssr:stedsnr" v="747208" />
	</node>
	<node lat="70.34625832987741" lon="21.446252751129766" id="-44294">
		<tag k="alt_name" v="Meværet" />
		<tag k="name" v="Meværbukta" />
		<tag k="natural" v="bay" />
		<tag k="ssr:stedsnr" v="747303" />
	</node>
	<node lat="70.21557500078943" lon="22.271649961186398" id="-44295">
		<tag k="name" v="Olaneset" />
		<tag k="natural" v="cape" />
		<tag k="ssr:stedsnr" v="747368" />
	</node>
	<node lat="70.22548611494852" lon="22.257063842703253" id="-44296">
		<tag k="bay" v="fjord" />
		<tag k="name" v="Tverrfjorden - Doaresvuotna" />
		<tag k="name:no" v="Tverrfjorden" />
		<tag k="name:se" v="Doaresvuotna" />
		<tag k="natural" v="bay" />
		<tag k="old_name:se" v="Doaresvuodna" />
		<tag k="ssr:stedsnr" v="747373" />
	</node>
	<node lat="70.39139444202713" lon="21.707297196355864" id="-44297">
		<tag k="name" v="Svinkeila" />
		<tag k="natural" v="bay" />
		<tag k="ssr:stedsnr" v="748307" />
	</node>
	<node lat="70.2499750008723" lon="21.006627752327983" id="-44301">
		<tag k="name" v="Eirskallen" />
		<tag k="natural" v="shoal" />
		<tag k="place" v="locality" />
		<tag k="ssr:stedsnr" v="752455" />
	</node>
	<node lat="70.31632222512461" lon="21.568636087638257" id="-44303">
		<tag k="name" v="Øralandet" />
		<tag k="natural" v="beach" />
		<tag k="ssr:stedsnr" v="758646" />
	</node>
	<node lat="70.27356389367503" lon="22.121544411638038" id="-44305">
		<tag k="alt_name" v="Lille Skolten" />
		<tag k="name" v="Lilleskolten" />
		<tag k="natural" v="cape" />
		<tag k="ssr:stedsnr" v="762415" />
	</node>
	<node lat="70.34602777539467" lon="21.406952744461197" id="-44307">
		<tag k="name" v="Lille Buvika" />
		<tag k="natural" v="bay" />
		<tag k="ssr:stedsnr" v="774168" />
	</node>
	<node lat="70.22159722367562" lon="21.191249972876292" id="-44308">
		<tag k="name" v="Roaldvik" />
		<tag k="natural" v="bay" />
		<tag k="ssr:stedsnr" v="774214" />
	</node>
	<node lat="70.2273027768168" lon="21.212686088832335" id="-44309">
		<tag k="name" v="Løkvikfjæra" />
		<tag k="natural" v="bay" />
		<tag k="ssr:stedsnr" v="774216" />
	</node>
	<node lat="70.25291945013595" lon="22.27392772276935" id="-44311">
		<tag k="alt_name" v="Kattvika" />
		<tag k="name" v="Kappvika" />
		<tag k="natural" v="bay" />
		<tag k="ssr:stedsnr" v="809083" />
	</node>
	<node lat="70.28066111615715" lon="21.95167773480205" id="-44315">
		<tag k="fixme" v="multiple name tags, choose one and add the other to alt_name" />
		<tag k="name" v="Klubben;Lille Skolten" />
		<tag k="natural" v="cape" />
		<tag k="ssr:stedsnr" v="809543" />
	</node>
	<node lat="70.25437499705136" lon="22.085936066327378" id="-44316">
		<tag k="name" v="Brattneset" />
		<tag k="natural" v="cape" />
		<tag k="ssr:stedsnr" v="822424" />
	</node>
	<node lat="70.2271833331005" lon="21.20994442998418" id="-44322">
		<tag k="name" v="Kleppfiskfjæra" />
		<tag k="natural" v="bay" />
		<tag k="ssr:stedsnr" v="835214" />
	</node>
	<node lat="70.23047222626877" lon="22.26330273406668" id="-44325">
		<tag k="name" v="Sirinesbukta" />
		<tag k="natural" v="bay" />
		<tag k="ssr:stedsnr" v="835632" />
	</node>
	<node lat="70.25666944181485" lon="22.106722172638484" id="-44326">
		<tag k="name" v="Lillebukt" />
		<tag k="natural" v="bay" />
		<tag k="ssr:stedsnr" v="835329" />
	</node>
	<node lat="70.28838333439916" lon="22.158127736639745" id="-44327">
		<tag k="fixme" v="multiple name tags, choose one and add the other to alt_name" />
		<tag k="name" v="Nuvsvågklubben;Klubben" />
		<tag k="natural" v="cape" />
		<tag k="ssr:stedsnr" v="851206" />
	</node>
	<node lat="70.17177500007914" lon="21.808483292912904" id="-44328">
		<tag k="alt_name" v="Trolldalsbukta, in" />
		<tag k="name" v="Indre Trolldalsbukta" />
		<tag k="natural" v="bay" />
		<tag k="ssr:stedsnr" v="929238" />
	</node>
	<node lat="70.34238055741172" lon="21.45842218286232" id="-44332">
		<tag k="name" v="Mønes" />
		<tag k="natural" v="cape" />
		<tag k="ssr:stedsnr" v="929279" />
	</node>
	<node lat="70.24379444380496" lon="22.087127740189647" id="-44334">
		<tag k="name" v="Myrnes" />
		<tag k="natural" v="cape" />
		<tag k="ssr:stedsnr" v="929342" />
	</node>
	<node lat="70.23212500306262" lon="22.35094995504153" id="-44336">
		<tag k="name" v="Vassdalsbotn" />
		<tag k="natural" v="bay" />
		<tag k="ssr:stedsnr" v="929370" />
	</node>
	<node lat="70.31464444954585" lon="22.37611383843152" id="-44339">
		<tag k="name" v="Raudberget" />
		<tag k="natural" v="cape" />
		<tag k="ssr:stedsnr" v="930125" />
	</node>
	<node lat="70.33435277893243" lon="22.346647178612795" id="-44341">
		<tag k="name" v="Seikeila" />
		<tag k="natural" v="bay" />
		<tag k="ssr:stedsnr" v="930129" />
	</node>
	<node lat="70.19661666673639" lon="22.332838827518028" id="-44343">
		<tag k="name" v="Danielsnes - Dánelnjárga" />
		<tag k="name:no" v="Danielsnes" />
		<tag k="name:se" v="Dánelnjárga" />
=======
	<node id="-900649" lat="70.2842444447" lon="22.2632027372">
		<tag k="name" v="Kvalneset" />
		<tag k="natural" v="cape" />
		<tag k="ssr:stedsnr" v="565093" />
	</node>
	<node id="-900645" lat="70.224780555" lon="22.3541555044">
		<tag k="name" v="Sápmelašnjárga" />
		<tag k="name:se" v="Sápmelašnjárga" />
		<tag k="natural" v="cape" />
		<tag k="old_name:se" v="Sabmelašnjarga" />
		<tag k="ssr:stedsnr" v="564391" />
	</node>
	<node id="-900643" lat="70.1709444462" lon="21.857769415">
		<tag k="name" v="Isdalbukta" />
		<tag k="natural" v="bay" />
		<tag k="ssr:stedsnr" v="564264" />
	</node>
	<node id="-900640" lat="70.1351305583" lon="22.4947249391">
		<tag k="name" v="Leirvika" />
		<tag k="natural" v="bay" />
		<tag k="ssr:stedsnr" v="531673" />
	</node>
	<node id="-900639" lat="70.4371222241" lon="21.1708916485">
		<tag k="name" v="Lopphavet" />
		<tag k="natural" v="reef" />
		<tag k="place" v="locality" />
		<tag k="ssr:stedsnr" v="526215" />
	</node>
	<node id="-900635" lat="70.250166669" lon="22.1064388417">
		<tag k="name" v="Rastein" />
		<tag k="natural" v="cape" />
		<tag k="ssr:stedsnr" v="410328" />
	</node>
	<node id="-900634" lat="70.1653027807" lon="22.3064944104">
		<tag k="name" v="Seistrand" />
		<tag k="natural" v="bay" />
		<tag k="ssr:stedsnr" v="410248" />
	</node>
	<node id="-900633" lat="70.2277750038" lon="21.1790805215">
		<tag k="name" v="Krykkjebenkan" />
		<tag k="natural" v="bay" />
		<tag k="ssr:stedsnr" v="410223" />
	</node>
	<node id="-900632" lat="70.2277999976" lon="21.2078860919">
		<tag k="name" v="Løkvikodden" />
		<tag k="natural" v="cape" />
		<tag k="ssr:stedsnr" v="410196" />
	</node>
	<node id="-900630" lat="70.1177277843" lon="22.5363721641">
		<tag k="name" v="Revnes" />
		<tag k="natural" v="cape" />
		<tag k="ssr:stedsnr" v="410628" />
	</node>
	<node id="-900629" lat="70.2378305549" lon="21.2426332987">
		<tag k="name" v="Kvalhollet" />
		<tag k="natural" v="bay" />
		<tag k="ssr:stedsnr" v="409238" />
	</node>
	<node id="-900628" lat="70.2380222214" lon="21.2265777643">
		<tag k="name" v="Nordreskjåvik" />
		<tag k="natural" v="bay" />
		<tag k="ssr:stedsnr" v="409223" />
	</node>
	<node id="-900627" lat="70.2436194447" lon="22.3439388505">
		<tag k="fixme" v="consider seamark:type=rock or natural=shoal" />
		<tag k="name" v="Øksfjordskjæret" />
		<tag k="place" v="islet" />
		<tag k="ssr:stedsnr" v="398620" />
	</node>
	<node id="-900625" lat="70.2180250008" lon="21.8306582919">
		<tag k="name" v="Urdneset" />
		<tag k="natural" v="cape" />
		<tag k="ssr:stedsnr" v="397570" />
	</node>
	<node id="-900623" lat="70.2595027784" lon="21.6967416396">
		<tag k="name" v="Sildspordgrunnen" />
		<tag k="natural" v="shoal" />
		<tag k="place" v="locality" />
		<tag k="ssr:stedsnr" v="397237" />
	</node>
	<node id="-900622" lat="70.3237388922" lon="22.0028721814">
		<tag k="name" v="Gammelværneset" />
		<tag k="natural" v="cape" />
		<tag k="ssr:stedsnr" v="396857" />
	</node>
	<node id="-900621" lat="70.3292749978" lon="21.5730944102">
		<tag k="name" v="Sørkeila" />
		<tag k="natural" v="bay" />
		<tag k="ssr:stedsnr" v="394596" />
	</node>
	<node id="-900620" lat="70.3224916695" lon="21.5587583039">
		<tag k="name" v="Nordre Henningkeila" />
		<tag k="natural" v="bay" />
		<tag k="ssr:stedsnr" v="393835" />
	</node>
	<node id="-900617" lat="70.3084861085" lon="22.1564527422">
		<tag k="name" v="Storbåen" />
		<tag k="natural" v="shoal" />
		<tag k="place" v="locality" />
		<tag k="ssr:stedsnr" v="384249" />
	</node>
	<node id="-900616" lat="70.2596722277" lon="21.6998416321">
		<tag k="name" v="Sildsporden - Gálvegeahči" />
		<tag k="name:no" v="Sildsporden" />
		<tag k="name:se" v="Gálvegeahči" />
		<tag k="natural" v="cape" />
		<tag k="old_name:se" v="Galvegæčči" />
		<tag k="ssr:stedsnr" v="384215" />
	</node>
	<node id="-900615" lat="70.2595361107" lon="21.7078471999">
		<tag k="name" v="Sildspordsundet - Nuorri" />
		<tag k="name:no" v="Sildspordsundet" />
		<tag k="name:se" v="Nuorri" />
		<tag k="natural" v="strait" />
		<tag k="ssr:stedsnr" v="384214" />
	</node>
	<node id="-900611" lat="70.2367555526" lon="22.2752721752">
		<tag k="name" v="Lilla" />
		<tag k="natural" v="cape" />
		<tag k="ssr:stedsnr" v="383520" />
	</node>
	<node id="-900610" lat="70.2379305554" lon="22.7192055019">
		<tag k="alt_name:no" v="Stjernøysundet" />
		<tag k="bay" v="fjord" />
		<tag k="name" v="Stjernsundet - Joahkku" />
		<tag k="name:no" v="Stjernsundet" />
		<tag k="name:se" v="Joahkku" />
		<tag k="natural" v="bay" />
		<tag k="old_name:se" v="Joakko" />
		<tag k="ssr:stedsnr" v="383518" />
	</node>
	<node id="-900608" lat="70.1293500031" lon="22.2321999624">
		<tag k="name" v="Storbukta" />
		<tag k="natural" v="bay" />
		<tag k="ssr:stedsnr" v="383448" />
	</node>
	<node id="-900603" lat="70.3378749973" lon="21.5844860817">
		<tag k="name" v="Marholmgrunnen" />
		<tag k="natural" v="shoal" />
		<tag k="place" v="locality" />
		<tag k="ssr:stedsnr" v="383336" />
	</node>
	<node id="-900600" lat="70.2683666711" lon="21.213936086">
		<tag k="name" v="Flua" />
		<tag k="natural" v="shoal" />
		<tag k="place" v="locality" />
		<tag k="ssr:stedsnr" v="383311" />
	</node>
	<node id="-900599" lat="70.2571249978" lon="21.2007360818">
		<tag k="fixme" v="consider seamark:type=rock or natural=shoal" />
		<tag k="name" v="Fløskjæret - Doadjenlásis" />
		<tag k="name:no" v="Fløskjæret" />
		<tag k="name:se" v="Doadjenlásis" />
		<tag k="old_name:se" v="Doaddjenlasis" />
		<tag k="place" v="islet" />
		<tag k="ssr:stedsnr" v="383305" />
	</node>
	<node id="-900594" lat="70.2244638935" lon="21.1846916348">
		<tag k="name" v="Brynnilsbukta" />
		<tag k="natural" v="bay" />
		<tag k="ssr:stedsnr" v="383128" />
	</node>
	<node id="-900590" lat="70.2773722256" lon="22.1362221846">
		<tag k="name" v="Klemetnes" />
		<tag k="natural" v="bay" />
		<tag k="ssr:stedsnr" v="350285" />
	</node>
	<node id="-900589" lat="70.1575111097" lon="22.2547027252">
		<tag k="name" v="Arnenesbåen" />
		<tag k="place" v="locality" />
		<tag k="seamark:type" v="rock" />
		<tag k="ssr:stedsnr" v="349891" />
	</node>
	<node id="-900588" lat="70.2722972242" lon="22.1277666374">
		<tag k="name" v="Holmen" />
		<tag k="natural" v="cape" />
		<tag k="ssr:stedsnr" v="349385" />
	</node>
	<node id="-900587" lat="70.1966222248" lon="22.2664944077">
		<tag k="name" v="Hellanes" />
		<tag k="natural" v="cape" />
		<tag k="ssr:stedsnr" v="349488" />
	</node>
	<node id="-900584" lat="70.2238805562" lon="21.7532166331">
		<tag k="name" v="Skjånesgrunnen" />
		<tag k="natural" v="shoal" />
		<tag k="place" v="locality" />
		<tag k="ssr:stedsnr" v="337215" />
	</node>
	<node id="-900583" lat="70.2434916706" lon="21.7555249691">
		<tag k="name" v="Leirholmgrunnen" />
		<tag k="natural" v="shoal" />
		<tag k="place" v="locality" />
		<tag k="ssr:stedsnr" v="337211" />
	</node>
	<node id="-900581" lat="70.3758277825" lon="21.7312527496">
		<tag k="name" v="Teistemola" />
		<tag k="natural" v="bay" />
		<tag k="ssr:stedsnr" v="336906" />
	</node>
	<node id="-900580" lat="70.3142027809" lon="21.3513166477">
		<tag k="name" v="Nordre Kvalmål" />
		<tag k="natural" v="bay" />
		<tag k="ssr:stedsnr" v="336903" />
	</node>
	<node id="-900579" lat="70.3079527803" lon="21.350783304">
		<tag k="name" v="Søndre Kvalmål" />
		<tag k="natural" v="bay" />
		<tag k="ssr:stedsnr" v="336896" />
	</node>
	<node id="-900577" lat="70.2703527814" lon="21.805941644">
		<tag k="fixme" v="consider seamark:type=rock or natural=shoal" />
		<tag k="name" v="Myrstein" />
		<tag k="place" v="islet" />
		<tag k="ssr:stedsnr" v="332863" />
	</node>
	<node id="-900569" lat="70.2830611114" lon="21.4866110725">
		<tag k="name" v="Hettekeila - Heahtegeailu" />
		<tag k="name:no" v="Hettekeila" />
		<tag k="name:se" v="Heahtegeailu" />
		<tag k="natural" v="bay" />
		<tag k="old_name:se" v="Hættegæilo" />
		<tag k="ssr:stedsnr" v="323327" />
	</node>
	<node id="-900568" lat="70.321327782" lon="21.3980471969">
		<tag k="name" v="Kalvesundet" />
		<tag k="natural" v="strait" />
		<tag k="ssr:stedsnr" v="323318" />
	</node>
	<node id="-900567" lat="70.3292333321" lon="21.9773055059">
		<tag k="name" v="Malgygerneset" />
		<tag k="natural" v="cape" />
		<tag k="ssr:stedsnr" v="323287" />
	</node>
	<node id="-900566" lat="70.3304888875" lon="21.9776555171">
		<tag k="fixme" v="consider seamark:type=rock or natural=shoal" />
		<tag k="name" v="Lørsnesskjæret" />
		<tag k="place" v="islet" />
		<tag k="ssr:stedsnr" v="323285" />
	</node>
	<node id="-900565" lat="70.3216000022" lon="21.7398360757">
		<tag k="name" v="Silda - Sildi" />
		<tag k="name:no" v="Silda" />
		<tag k="name:se" v="Sildi" />
		<tag k="place" v="island" />
		<tag k="ssr:stedsnr" v="323282" />
	</node>
	<node id="-900562" lat="70.346130557" lon="21.6936999558">
		<tag k="name" v="Styrmannsbukta" />
		<tag k="natural" v="bay" />
		<tag k="ssr:stedsnr" v="323259" />
	</node>
	<node id="-900561" lat="70.2983861085" lon="21.7772110713">
		<tag k="alt_name" v="Røysnes" />
		<tag k="name" v="Røsnes" />
		<tag k="natural" v="cape" />
		<tag k="ssr:stedsnr" v="323248" />
	</node>
	<node id="-900560" lat="70.3054777786" lon="22.0080388581">
		<tag k="name" v="Rokkenes" />
		<tag k="natural" v="cape" />
		<tag k="ssr:stedsnr" v="323246" />
	</node>
	<node id="-900558" lat="70.2697583349" lon="21.6976249798">
		<tag k="name" v="Molla" />
		<tag k="natural" v="beach" />
		<tag k="place" v="locality" />
		<tag k="ssr:stedsnr" v="323236" />
	</node>
	<node id="-900557" lat="70.2832555586" lon="22.136399947">
		<tag k="name" v="Samuelsnes - Sámmolnjárga" />
		<tag k="name:no" v="Samuelsnes" />
		<tag k="name:se" v="Sámmolnjárga" />
		<tag k="natural" v="cape" />
		<tag k="old_name:se" v="Sammulnjarga" />
		<tag k="ssr:stedsnr" v="323233" />
	</node>
	<node id="-900556" lat="70.2562888874" lon="21.7863832972">
		<tag k="alt_name" v="Jøvika" />
		<tag k="name" v="Juvika" />
		<tag k="natural" v="bay" />
		<tag k="ssr:stedsnr" v="323230" />
	</node>
	<node id="-900555" lat="70.2508166696" lon="21.7835194044">
		<tag k="alt_name" v="Sjåholmen" />
		<tag k="name" v="Skjåholmen" />
		<tag k="place" v="islet" />
		<tag k="ssr:stedsnr" v="323227" />
	</node>
	<node id="-900554" lat="70.259083336" lon="21.7831638491">
		<tag k="alt_name" v="Vedhalsneset" />
		<tag k="name" v="Vedhalsen" />
		<tag k="natural" v="cape" />
		<tag k="ssr:stedsnr" v="323219" />
	</node>
	<node id="-900551" lat="70.1330999985" lon="22.3175499599">
		<tag k="name" v="Brenneset" />
		<tag k="natural" v="cape" />
		<tag k="ssr:stedsnr" v="322417" />
	</node>
	<node id="-900545" lat="70.1742638944" lon="22.3156249512">
		<tag k="alt_name" v="Ranhaugbukta" />
		<tag k="name" v="Hellevika" />
		<tag k="natural" v="bay" />
		<tag k="ssr:stedsnr" v="322383" />
	</node>
	<node id="-900543" lat="70.2337333349" lon="21.7063027372">
		<tag k="alt_name" v="Bjørnvika, in" />
		<tag k="name" v="Indre Bjørnvika" />
		<tag k="natural" v="bay" />
		<tag k="ssr:stedsnr" v="322356" />
	</node>
	<node id="-900540" lat="70.2704222202" lon="21.6028055233">
		<tag k="alt_name" v="Purkneset" />
		<tag k="name" v="Purkenes" />
		<tag k="natural" v="cape" />
		<tag k="ssr:stedsnr" v="322271" />
	</node>
	<node id="-900531" lat="70.262425004" lon="21.7680277443">
		<tag k="name" v="Fluskjæret" />
		<tag k="natural" v="shoal" />
		<tag k="place" v="locality" />
		<tag k="ssr:stedsnr" v="215234" />
	</node>
	<node id="-900530" lat="70.3874416695" lon="21.7172249788">
		<tag k="name" v="Skarvsteinen" />
		<tag k="natural" v="cape" />
		<tag k="ssr:stedsnr" v="214936" />
	</node>
	<node id="-900529" lat="70.2528555592" lon="22.3516249502">
		<tag k="name" v="Kjeila" />
		<tag k="natural" v="bay" />
		<tag k="ssr:stedsnr" v="213794" />
	</node>
	<node id="-900526" lat="70.2430444503" lon="21.7762666242">
		<tag k="name" v="Leirvika" />
		<tag k="natural" v="bay" />
		<tag k="ssr:stedsnr" v="211878" />
	</node>
	<node id="-900525" lat="70.3168250035" lon="21.5146721966">
		<tag k="alt_name" v="Kvitbergodden" />
		<tag k="name" v="Kvitebergodden" />
		<tag k="natural" v="cape" />
		<tag k="ssr:stedsnr" v="211864" />
	</node>
	<node id="-900522" lat="70.1390333307" lon="22.4037582829">
		<tag k="name" v="Skognes - Vuovdenjárga" />
		<tag k="name:no" v="Skognes" />
		<tag k="name:se" v="Vuovdenjárga" />
		<tag k="natural" v="cape" />
		<tag k="old_name:se" v="Vuovdenjarga" />
		<tag k="ssr:stedsnr" v="207289" />
	</node>
	<node id="-900521" lat="70.2610305526" lon="21.2347888748">
		<tag k="name" v="Svartskjærdjupta" />
		<tag k="place" v="locality" />
		<tag k="ssr:stedsnr" v="206450" />
	</node>
	<node id="-900520" lat="70.3902944474" lon="21.7122055329">
		<tag k="name" v="Spiidnegeailu" />
		<tag k="name:se" v="Spiidnegeailu" />
		<tag k="natural" v="cape" />
		<tag k="old_name:se" v="Spiidnegæilo" />
		<tag k="ssr:stedsnr" v="202306" />
	</node>
	<node id="-900518" lat="70.2636972264" lon="21.7508721784">
		<tag k="bay" v="fjord" />
		<tag k="name" v="Bergsfjorden" />
		<tag k="natural" v="bay" />
		<tag k="ssr:stedsnr" v="202272" />
	</node>
	<node id="-900516" lat="70.3569111097" lon="21.7938249712">
		<tag k="alt_name" v="Holøyra" />
		<tag k="name" v="Holøra" />
		<tag k="natural" v="cape" />
		<tag k="ssr:stedsnr" v="202261" />
	</node>
	<node id="-900513" lat="70.2849277765" lon="22.228011078">
		<tag k="name" v="Skittenvika" />
		<tag k="natural" v="bay" />
		<tag k="ssr:stedsnr" v="202116" />
	</node>
	<node id="-900512" lat="70.2845777826" lon="22.2568055047">
		<tag k="name" v="Kvalkeila - Bossogeailu" />
		<tag k="name:no" v="Kvalkeila" />
		<tag k="name:se" v="Bossogeailu" />
		<tag k="natural" v="bay" />
		<tag k="old_name:se" v="Båssugæilo" />
		<tag k="ssr:stedsnr" v="202108" />
	</node>
	<node id="-900511" lat="70.2582277757" lon="22.3515721765">
		<tag k="alt_name" v="Ystnes" />
		<tag k="name" v="Ystneset" />
>>>>>>> e1d4bc35ff8a6074a6f2e91616a996b547c36f15
		<tag k="natural" v="cape" />
		<tag k="ssr:stedsnr" v="202091" />
	</node>
<<<<<<< HEAD
	<node lat="70.15420833313918" lon="22.40824440432445" id="-44345">
		<tag k="name" v="Njuorjjogohppi" />
		<tag k="name:se" v="Njuorjjogohppi" />
		<tag k="natural" v="bay" />
		<tag k="old_name:se" v="Njuorjugåppi" />
		<tag k="ssr:stedsnr" v="869478" />
	</node>
	<node lat="70.21430000455143" lon="21.863977744171716" id="-44351">
		<tag k="alt_name:no" v="Tverrfjorden, nordre" />
		<tag k="name" v="Nordre Tverrfjorden - Sámevuotna" />
		<tag k="name:no" v="Nordre Tverrfjorden" />
		<tag k="name:se" v="Sámevuotna" />
		<tag k="natural" v="bay" />
		<tag k="old_name:se" v="Samevuodna" />
		<tag k="ssr:stedsnr" v="930261" />
	</node>
	<node lat="70.30301388958621" lon="21.679324955779194" id="-44356">
		<tag k="name" v="Høgstein" />
		<tag k="natural" v="cape" />
		<tag k="ssr:stedsnr" v="930281" />
	</node>
	<node lat="70.37980555714651" lon="21.710113868304788" id="-44359">
		<tag k="name" v="Storskardet" />
		<tag k="natural" v="bay" />
		<tag k="ssr:stedsnr" v="930315" />
	</node>
	<node lat="70.32217500288645" lon="21.55512219223831" id="-44360">
		<tag k="name" v="Henningkeila" />
		<tag k="natural" v="bay" />
		<tag k="ssr:stedsnr" v="930336" />
	</node>
	<node lat="70.09842222310401" lon="22.377072178149326" id="-44362">
		<tag k="name" v="Bálggatnjárga" />
		<tag k="name:se" v="Bálggatnjárga" />
		<tag k="natural" v="cape" />
		<tag k="old_name:se" v="Balgatnjarga" />
		<tag k="ssr:stedsnr" v="930569" />
	</node>
	<node lat="70.27572222096906" lon="22.111174962491553" id="-44365">
		<tag k="name" v="Storskolten" />
		<tag k="natural" v="cape" />
		<tag k="ssr:stedsnr" v="878569" />
	</node>
	<node lat="70.13190555724164" lon="22.31105827799564" id="-44368">
		<tag k="name" v="Elvevika" />
		<tag k="natural" v="bay" />
		<tag k="ssr:stedsnr" v="884222" />
	</node>
	<node lat="70.22268611294406" lon="21.17796663316209" id="-44369">
		<tag k="name" v="Brynnilsflua" />
		<tag k="natural" v="shoal" />
		<tag k="place" v="locality" />
		<tag k="ssr:stedsnr" v="934484" />
	</node>
	<node lat="70.23302777521687" lon="21.211491645163687" id="-44371">
		<tag k="fixme" v="consider seamark:type=rock or natural=shoal" />
		<tag k="name" v="Tømmervikskjæret" />
		<tag k="place" v="islet" />
		<tag k="ssr:stedsnr" v="895205" />
	</node>
	<node lat="70.3889944491156" lon="21.43114164914852" id="-44373">
		<tag k="name" v="Joholla" />
		<tag k="natural" v="bay" />
		<tag k="ssr:stedsnr" v="896105" />
	</node>
	<node lat="70.17544444722178" lon="22.31175829054206" id="-44375">
		<tag k="fixme" v="consider seamark:type=rock or natural=shoal" />
		<tag k="name" v="Ranhaugskjæret" />
		<tag k="place" v="islet" />
		<tag k="ssr:stedsnr" v="896260" />
	</node>
	<node lat="70.23299166668683" lon="22.27005550404875" id="-44376">
		<tag k="name" v="Sennabukt" />
		<tag k="natural" v="bay" />
		<tag k="ssr:stedsnr" v="896640" />
	</node>
	<node lat="70.1570777761594" lon="22.299055492492485" id="-44378">
		<tag k="name" v="Gamvik" />
		<tag k="natural" v="bay" />
		<tag k="ssr:stedsnr" v="896505" />
	</node>
	<node lat="70.22741666654655" lon="21.21188608679598" id="-44379">
		<tag k="name" v="Laukvika" />
		<tag k="natural" v="bay" />
		<tag k="ssr:stedsnr" v="929120" />
	</node>
	<node lat="70.23169166493174" lon="21.217888853836243" id="-44380">
		<tag k="name" v="Tømmervika" />
		<tag k="natural" v="bay" />
		<tag k="ssr:stedsnr" v="929121" />
	</node>
	<node lat="70.30266389055332" lon="22.093088836845126" id="-44385">
		<tag k="name" v="Molvikneset" />
		<tag k="natural" v="cape" />
		<tag k="ssr:stedsnr" v="930246" />
	</node>
	<node lat="70.29626944932619" lon="22.009258292413566" id="-44388">
		<tag k="name" v="Kjellfinneset" />
		<tag k="natural" v="cape" />
		<tag k="ssr:stedsnr" v="930253" />
	</node>
	<node lat="70.28397778074083" lon="22.094883285322442" id="-44389">
		<tag k="name" v="Sommarnes" />
		<tag k="natural" v="cape" />
		<tag k="ssr:stedsnr" v="930548" />
	</node>
	<node lat="70.13811111054027" lon="22.482513836454057" id="-44391">
		<tag k="name" v="Stranda" />
		<tag k="natural" v="cape" />
		<tag k="ssr:stedsnr" v="930453" />
	</node>
	<node lat="70.39142500450976" lon="21.70293052745588" id="-44392">
		<tag k="name" v="Sildmylingen - Diidna" />
		<tag k="name:no" v="Sildmylingen" />
		<tag k="name:se" v="Diidna" />
		<tag k="natural" v="cape" />
		<tag k="ssr:stedsnr" v="936789" />
	</node>
	<node lat="70.26795555233667" lon="21.611408297628678" id="-44395">
		<tag k="name" v="Ytre Fallet" />
		<tag k="natural" v="shoal" />
		<tag k="place" v="locality" />
		<tag k="ssr:stedsnr" v="944530" />
	</node>
	<node lat="70.24021944558781" lon="21.24613331219305" id="-44396">
		<tag k="name" v="Nordoddevik" />
		<tag k="natural" v="bay" />
		<tag k="ssr:stedsnr" v="956202" />
	</node>
	<node lat="70.24281666937542" lon="21.256263864322573" id="-44397">
		<tag k="name" v="Høykeila" />
		<tag k="natural" v="bay" />
		<tag k="ssr:stedsnr" v="956203" />
	</node>
	<node lat="70.28751666898917" lon="22.168166632657236" id="-44400">
		<tag k="name" v="Trollvika" />
		<tag k="natural" v="bay" />
		<tag k="ssr:stedsnr" v="20214" />
	</node>
	<node lat="70.2646833326157" lon="21.3473332942798" id="-44408">
		<tag k="name" v="Svartoksen" />
		<tag k="natural" v="cape" />
		<tag k="ssr:stedsnr" v="19266" />
	</node>
	<node lat="70.24127500265143" lon="21.705844422420792" id="-44410">
		<tag k="name" v="Innersundet" />
		<tag k="natural" v="strait" />
		<tag k="ssr:stedsnr" v="19352" />
	</node>
	<node lat="70.34750277742232" lon="21.40372497716426" id="-44413">
		<tag k="name" v="Buvika" />
		<tag k="natural" v="bay" />
		<tag k="ssr:stedsnr" v="19313" />
	</node>
	<node lat="70.2278000019015" lon="21.813958298557115" id="-44418">
		<tag k="name" v="Sloppelandet" />
		<tag k="natural" v="beach" />
		<tag k="ssr:stedsnr" v="19361" />
	</node>
	<node lat="70.31679166659185" lon="22.663258277083965" id="-44419">
		<tag k="alt_name:no" v="Stjernøy" />
		<tag k="name" v="Stjernøya - Stierdná" />
		<tag k="name:no" v="Stjernøya" />
		<tag k="name:se" v="Stierdná" />
		<tag k="old_name:se" v="Stierdna" />
		<tag k="place" v="island" />
		<tag k="ssr:stedsnr" v="19466" />
	</node>
	<node lat="70.30422777837848" lon="22.02624719526325" id="-44422">
		<tag k="name" v="Skolten - Skoalta" />
		<tag k="name:no" v="Skolten" />
		<tag k="name:se" v="Skoalta" />
		<tag k="natural" v="cape" />
		<tag k="ssr:stedsnr" v="20233" />
	</node>
	<node lat="70.26305278278801" lon="21.785194406403704" id="-44426">
		<tag k="name" v="Neset" />
		<tag k="natural" v="cape" />
		<tag k="ssr:stedsnr" v="29863" />
	</node>
	<node lat="70.23787222165797" lon="22.09521661813847" id="-44427">
		<tag k="name" v="Sandbakknes" />
		<tag k="natural" v="cape" />
		<tag k="ssr:stedsnr" v="33433" />
	</node>
	<node lat="70.27046944771877" lon="21.602777760228385" id="-44428">
		<tag k="name" v="Kvalbeinneset" />
		<tag k="natural" v="cape" />
		<tag k="ssr:stedsnr" v="32533" />
	</node>
	<node lat="70.23539722391646" lon="21.720366625682534" id="-44429">
		<tag k="fixme" v="consider seamark:type=rock or natural=shoal" />
		<tag k="name" v="Pannarskjæret" />
		<tag k="place" v="islet" />
		<tag k="ssr:stedsnr" v="33188" />
	</node>
	<node lat="70.26351111407979" lon="21.78234440000073" id="-44430">
		<tag k="name" v="Dragnelen" />
		<tag k="natural" v="shoal" />
		<tag k="place" v="locality" />
		<tag k="ssr:stedsnr" v="33234" />
	</node>
	<node lat="70.27106388981908" lon="22.12844163574507" id="-44434">
		<tag k="name" v="Sandvik" />
		<tag k="natural" v="bay" />
		<tag k="ssr:stedsnr" v="46342" />
	</node>
	<node lat="70.1524444435113" lon="22.321994402368194" id="-44435">
		<tag k="name" v="Vinegohppi" />
		<tag k="name:se" v="Vinegohppi" />
		<tag k="natural" v="bay" />
		<tag k="ssr:stedsnr" v="46541" />
	</node>
	<node lat="70.15400833540153" lon="22.394899949276233" id="-44436">
		<tag k="name" v="Kobbevikneset" />
		<tag k="natural" v="cape" />
		<tag k="ssr:stedsnr" v="46542" />
	</node>
	<node lat="70.15433055523803" lon="22.304799961998146" id="-44438">
		<tag k="alt_name" v="Steinviknes" />
		<tag k="name" v="Steinvikneset" />
		<tag k="natural" v="cape" />
		<tag k="ssr:stedsnr" v="80411" />
	</node>
	<node lat="70.26212778271821" lon="21.722536081118257" id="-44440">
		<tag k="name" v="Trettnes" />
		<tag k="natural" v="cape" />
		<tag k="ssr:stedsnr" v="80231" />
	</node>
	<node lat="70.33652499667461" lon="21.691611076858152" id="-44446">
		<tag k="name" v="Kommelskardet" />
		<tag k="natural" v="bay" />
		<tag k="ssr:stedsnr" v="80265" />
	</node>
	<node lat="70.17779444162562" lon="21.842349957334616" id="-44448">
		<tag k="name" v="Oterneset" />
		<tag k="natural" v="cape" />
		<tag k="ssr:stedsnr" v="80280" />
	</node>
	<node lat="70.25305555257958" lon="21.319674975178483" id="-44450">
		<tag k="name" v="Trollvika" />
		<tag k="natural" v="bay" />
		<tag k="ssr:stedsnr" v="80292" />
	</node>
	<node lat="70.25670277583019" lon="21.297286089363602" id="-44452">
		<tag k="alt_name" v="Ueren, nordre" />
		<tag k="fixme" v="multiple name tags, choose one and add the other to alt_name" />
		<tag k="name" v="Auraren;Nordre Ueren" />
		<tag k="natural" v="cape" />
		<tag k="ssr:stedsnr" v="80295" />
	</node>
	<node lat="70.38892777955643" lon="21.336499974161306" id="-44453">
		<tag k="name" v="Loppebåen" />
		<tag k="natural" v="shoal" />
		<tag k="place" v="locality" />
		<tag k="ssr:stedsnr" v="80377" />
	</node>
	<node lat="70.29238055852274" lon="22.150724956085828" id="-44462">
		<tag k="name" v="Landbåen" />
		<tag k="natural" v="shoal" />
		<tag k="place" v="locality" />
		<tag k="ssr:stedsnr" v="81270" />
	</node>
	<node lat="70.31050000325287" lon="21.009308323237516" id="-44463">
		<tag k="name" v="Tomasskallen" />
		<tag k="natural" v="shoal" />
		<tag k="place" v="locality" />
		<tag k="ssr:stedsnr" v="85393" />
	</node>
	<node lat="70.24234999924016" lon="21.026505539634364" id="-44464">
		<tag k="name" v="Ytter-Larven" />
		<tag k="natural" v="shoal" />
		<tag k="place" v="locality" />
		<tag k="ssr:stedsnr" v="85396" />
	</node>
	<node lat="70.38424722322716" lon="21.42860553419846" id="-44465">
		<tag k="name" v="Skaga" />
		<tag k="natural" v="cape" />
		<tag k="ssr:stedsnr" v="89525" />
	</node>
	<node lat="70.36089166475288" lon="21.453077760164714" id="-44467">
		<tag k="name" v="Krakodden" />
		<tag k="natural" v="cape" />
		<tag k="ssr:stedsnr" v="93450" />
	</node>
	<node lat="70.3158638924489" lon="21.682905514223137" id="-44469">
		<tag k="name" v="Per-Olsavær" />
		<tag k="natural" v="bay" />
		<tag k="ssr:stedsnr" v="93852" />
	</node>
	<node lat="70.23769444378813" lon="21.77561385079937" id="-44471">
		<tag k="name" v="Leirbuktskjæret" />
		<tag k="natural" v="shoal" />
		<tag k="place" v="locality" />
		<tag k="ssr:stedsnr" v="94256" />
	</node>
	<node lat="70.28892222142784" lon="22.232274948659782" id="-44473">
		<tag k="fixme" v="consider seamark:type=rock or natural=shoal" />
		<tag k="name" v="Oterskjæret" />
		<tag k="place" v="islet" />
		<tag k="ssr:stedsnr" v="95376" />
	</node>
	<node lat="70.31153055838688" lon="21.490311095043747" id="-44474">
		<tag k="name" v="Sørodden" />
		<tag k="natural" v="cape" />
		<tag k="ssr:stedsnr" v="94984" />
	</node>
	<node lat="70.23405555869653" lon="22.07068606067535" id="-44477">
		<tag k="name" v="Holmen" />
		<tag k="natural" v="cape" />
		<tag k="ssr:stedsnr" v="106334" />
	</node>
	<node lat="70.23254167006226" lon="21.213786075766322" id="-44478">
		<tag k="name" v="Tømmervikodden" />
		<tag k="natural" v="cape" />
		<tag k="ssr:stedsnr" v="106215" />
	</node>
	<node lat="70.33065555450304" lon="21.431352737578834" id="-44480">
		<tag k="name" v="Loppasanden" />
		<tag k="natural" v="beach" />
		<tag k="ssr:stedsnr" v="107117" />
	</node>
	<node lat="70.25849722359041" lon="22.083288850046618" id="-44482">
		<tag k="name" v="Brattnesbukta" />
		<tag k="natural" v="bay" />
		<tag k="ssr:stedsnr" v="107315" />
	</node>
	<node lat="70.15515000469125" lon="22.30255272509253" id="-44483">
		<tag k="name" v="Steinvik" />
		<tag k="natural" v="bay" />
		<tag k="ssr:stedsnr" v="107494" />
	</node>
	<node lat="70.16122777781754" lon="22.289466625936235" id="-44484">
		<tag k="fixme" v="consider seamark:type=rock or natural=shoal" />
		<tag k="name" v="Bardiskjæret" />
		<tag k="place" v="islet" />
		<tag k="ssr:stedsnr" v="107251" />
	</node>
	<node lat="70.12690555847304" lon="22.51778882317928" id="-44485">
		<tag k="name" v="Seivikbukta" />
		<tag k="natural" v="bay" />
		<tag k="ssr:stedsnr" v="116963" />
	</node>
	<node lat="70.19601110913932" lon="21.821452740246052" id="-44487">
		<tag k="name" v="Skogneset" />
		<tag k="natural" v="cape" />
		<tag k="ssr:stedsnr" v="140259" />
	</node>
	<node lat="70.15214722099209" lon="22.246933289229045" id="-44489">
		<tag k="alt_name:no" v="Arneneset" />
		<tag k="name" v="Arnnes - Báhccavuonnjárga" />
		<tag k="name:no" v="Arnnes" />
		<tag k="name:se" v="Báhccavuonnjárga" />
		<tag k="natural" v="cape" />
		<tag k="old_name:se" v="Baccavuonnjarga" />
		<tag k="ssr:stedsnr" v="140411" />
	</node>
	<node lat="70.28721111613875" lon="21.560063849180832" id="-44492">
		<tag k="name" v="Bogen - Boavagáddi" />
		<tag k="name:no" v="Bogen" />
		<tag k="name:se" v="Boavagáddi" />
		<tag k="natural" v="beach" />
		<tag k="old_name:se" v="Boavagaddi" />
		<tag k="ssr:stedsnr" v="140350" />
	</node>
	<node lat="70.31855000354706" lon="21.535699985146653" id="-44493">
		<tag k="name" v="Kvalen" />
		<tag k="natural" v="cape" />
		<tag k="ssr:stedsnr" v="140360" />
	</node>
	<node lat="70.119763889805" lon="22.531016618494927" id="-44495">
		<tag k="name" v="Øyra" />
		<tag k="natural" v="cape" />
		<tag k="ssr:stedsnr" v="140535" />
	</node>
	<node lat="70.28605555833457" lon="21.76246107005858" id="-44496">
		<tag k="name" v="Jámetgohppi" />
		<tag k="name:se" v="Jámetgohppi" />
		<tag k="natural" v="bay" />
		<tag k="old_name:se" v="Jametgåppi" />
		<tag k="ssr:stedsnr" v="141256" />
	</node>
	<node lat="70.37055555490684" lon="21.680997193976285" id="-44497">
		<tag k="fixme" v="consider seamark:type=rock or natural=shoal" />
		<tag k="name" v="Balskjæret" />
		<tag k="place" v="islet" />
		<tag k="ssr:stedsnr" v="141280" />
	</node>
	<node lat="70.33898333886752" lon="22.33587217460747" id="-44499">
		<tag k="name" v="Kvalbåen" />
		<tag k="natural" v="shoal" />
		<tag k="place" v="locality" />
		<tag k="ssr:stedsnr" v="141156" />
	</node>
	<node lat="70.28861111066861" lon="22.091158298841247" id="-44500">
		<tag k="alt_name" v="Mollvika, l" />
		<tag k="name" v="Lille Mollvika" />
		<tag k="natural" v="bay" />
		<tag k="ssr:stedsnr" v="141222" />
	</node>
	<node lat="70.36810833739848" lon="21.67969996867447" id="-44501">
		<tag k="alt_name" v="Avløysningen" />
		<tag k="name" v="Avløysingen" />
		<tag k="natural" v="cape" />
		<tag k="ssr:stedsnr" v="141282" />
	</node>
	<node lat="70.3286638902468" lon="22.049733281320865" id="-44505">
		<tag k="name" v="Kanesgrunnen" />
		<tag k="natural" v="shoal" />
		<tag k="place" v="locality" />
		<tag k="ssr:stedsnr" v="141301" />
	</node>
	<node lat="70.29166111099117" lon="21.98047772905703" id="-44506">
		<tag k="bay" v="fjord" />
		<tag k="name" v="Ullsfjorden - Ullovuotna" />
		<tag k="name:no" v="Ullsfjorden" />
		<tag k="name:se" v="Ullovuotna" />
		<tag k="natural" v="bay" />
		<tag k="old_name:se" v="Ulluvuodna" />
		<tag k="ssr:stedsnr" v="141528" />
	</node>
	<node lat="70.30914722248454" lon="21.229894432718442" id="-44507">
		<tag k="name" v="Kalvbåen" />
		<tag k="place" v="locality" />
		<tag k="seamark:type" v="rock" />
		<tag k="ssr:stedsnr" v="145475" />
	</node>
	<node lat="70.23391111174557" lon="21.13242219704606" id="-44508">
		<tag k="name" v="Bortre Brynnilskallen" />
		<tag k="natural" v="shoal" />
		<tag k="place" v="locality" />
		<tag k="ssr:stedsnr" v="145485" />
	</node>
	<node lat="70.26685833551832" lon="21.793424967246157" id="-44510">
		<tag k="name" v="Hummelvika" />
		<tag k="natural" v="bay" />
		<tag k="ssr:stedsnr" v="149494" />
	</node>
	<node lat="70.23835277524101" lon="21.778608287831894" id="-44511">
		<tag k="fixme" v="multiple name tags, choose one and add the other to alt_name" />
		<tag k="name" v="Buktenes;Hjellneset" />
		<tag k="natural" v="cape" />
		<tag k="ssr:stedsnr" v="150844" />
	</node>
	<node lat="70.32488611112741" lon="21.568369414753906" id="-44512">
		<tag k="name" v="Holmsundet" />
		<tag k="natural" v="strait" />
		<tag k="ssr:stedsnr" v="151611" />
	</node>
	<node lat="70.22351944786502" lon="21.42916386751957" id="-44513">
		<tag k="name" v="Tandebukta" />
		<tag k="natural" v="bay" />
		<tag k="ssr:stedsnr" v="154594" />
	</node>
	<node lat="70.20493055752189" lon="21.817247193057224" id="-44514">
		<tag k="name" v="Skogneset" />
		<tag k="natural" v="cape" />
		<tag k="ssr:stedsnr" v="154937" />
	</node>
	<node lat="70.1387666679191" lon="22.390630505190092" id="-44517">
		<tag k="name" v="Store Skognesbukt" />
		<tag k="natural" v="bay" />
		<tag k="ssr:stedsnr" v="167554" />
	</node>
	<node lat="70.12315555963372" lon="22.493649939454688" id="-44518">
		<tag k="name" v="Holmbukt" />
		<tag k="natural" v="bay" />
		<tag k="ssr:stedsnr" v="167653" />
	</node>
	<node lat="70.24181388612581" lon="21.76733607015201" id="-44521">
		<tag k="name" v="Vindholmen" />
		<tag k="place" v="islet" />
		<tag k="ssr:stedsnr" v="201344" />
	</node>
	<node lat="70.31012777865755" lon="21.364549983390226" id="-44531">
		<tag k="name" v="Loppekalven - Gálbi" />
		<tag k="name:no" v="Loppekalven" />
		<tag k="name:se" v="Gálbi" />
		<tag k="old_name:se" v="Galbi" />
		<tag k="place" v="island" />
		<tag k="ssr:stedsnr" v="201322" />
	</node>
	<node lat="70.30655277609387" lon="21.349122184824637" id="-44532">
		<tag k="name" v="Kvalmolla" />
		<tag k="natural" v="cape" />
		<tag k="ssr:stedsnr" v="201325" />
	</node>
	<node lat="70.24406666894734" lon="21.760566632386393" id="-44533">
		<tag k="name" v="Leirholmen" />
		<tag k="place" v="islet" />
		<tag k="ssr:stedsnr" v="201339" />
	</node>
	<node lat="70.15445555858012" lon="22.392686062256022" id="-44541">
		<tag k="name" v="Kobbevika" />
		<tag k="natural" v="bay" />
		<tag k="ssr:stedsnr" v="201409" />
	</node>
	<node lat="70.28457778258885" lon="22.256805504665493" id="-44543">
		<tag k="name" v="Kvalkeila - Bossogeailu" />
		<tag k="name:no" v="Kvalkeila" />
		<tag k="name:se" v="Bossogeailu" />
		<tag k="natural" v="bay" />
		<tag k="old_name:se" v="Båssugæilo" />
		<tag k="ssr:stedsnr" v="202108" />
	</node>
	<node lat="70.2849277765062" lon="22.22801107796487" id="-44544">
		<tag k="name" v="Skittenvika" />
		<tag k="natural" v="bay" />
		<tag k="ssr:stedsnr" v="202116" />
	</node>
	<node lat="70.29441666385154" lon="21.773427739814483" id="-44547">
		<tag k="name" v="Johkagohppi" />
		<tag k="name:se" v="Johkagohppi" />
		<tag k="natural" v="bay" />
		<tag k="old_name:se" v="Jåkkagåppi" />
		<tag k="ssr:stedsnr" v="202237" />
	</node>
	<node lat="70.26369722636116" lon="21.750872178424313" id="-44550">
		<tag k="bay" v="fjord" />
		<tag k="name" v="Bergsfjorden" />
		<tag k="natural" v="bay" />
		<tag k="ssr:stedsnr" v="202272" />
	</node>
	<node lat="70.31682500352804" lon="21.514672196634724" id="-44555">
		<tag k="alt_name" v="Kvitbergodden" />
		<tag k="name" v="Kvitebergodden" />
		<tag k="natural" v="cape" />
		<tag k="ssr:stedsnr" v="211864" />
	</node>
	<node lat="70.38744166949873" lon="21.717224978771753" id="-44557">
		<tag k="name" v="Skarvsteinen" />
		<tag k="natural" v="cape" />
		<tag k="ssr:stedsnr" v="214936" />
	</node>
	<node lat="70.26242500404891" lon="21.768027744273354" id="-44558">
		<tag k="name" v="Fluskjæret" />
		<tag k="natural" v="shoal" />
		<tag k="place" v="locality" />
		<tag k="ssr:stedsnr" v="215234" />
	</node>
	<node lat="70.16276389384858" lon="22.29648328784097" id="-44559">
		<tag k="alt_name:no" v="Bardines" />
		<tag k="name" v="Bardineset - Bárdi" />
		<tag k="name:no" v="Bardineset" />
		<tag k="name:se" v="Bárdi" />
		<tag k="natural" v="cape" />
		<tag k="ssr:stedsnr" v="216312" />
	</node>
	<node lat="70.3850972223681" lon="21.43775829465554" id="-44562">
		<tag k="name" v="Stiodden" />
		<tag k="natural" v="cape" />
		<tag k="ssr:stedsnr" v="228123" />
	</node>
	<node lat="70.34595833456007" lon="21.439747202380936" id="-44566">
		<tag k="name" v="Pina" />
		<tag k="natural" v="beach" />
		<tag k="ssr:stedsnr" v="228161" />
	</node>
	<node lat="70.16036389054148" lon="22.298524945906667" id="-44567">
		<tag k="name" v="Steinbukta" />
		<tag k="natural" v="bay" />
		<tag k="ssr:stedsnr" v="228254" />
	</node>
	<node lat="70.33083611163266" lon="21.57806386501519" id="-44568">
		<tag k="name" v="Midtholmen" />
		<tag k="place" v="islet" />
		<tag k="ssr:stedsnr" v="273612" />
	</node>
	<node lat="70.24762500267441" lon="22.34558051738373" id="-44569">
		<tag k="name" v="Saltnesvika" />
		<tag k="natural" v="bay" />
		<tag k="ssr:stedsnr" v="274744" />
	</node>
	<node lat="70.18164166557327" lon="22.25008883334074" id="-44570">
		<tag k="name" v="Lona" />
		<tag k="natural" v="cape" />
		<tag k="ssr:stedsnr" v="277251" />
	</node>
	<node lat="70.22074166908095" lon="22.247849955564885" id="-44571">
		<tag k="name" v="Sandnes" />
		<tag k="natural" v="cape" />
		<tag k="ssr:stedsnr" v="289448" />
	</node>
	<node lat="70.27042222015176" lon="21.602805523279983" id="-44581">
		<tag k="alt_name" v="Purkneset" />
		<tag k="name" v="Purkenes" />
		<tag k="natural" v="cape" />
		<tag k="ssr:stedsnr" v="322271" />
	</node>
	<node lat="70.23373333488618" lon="21.706302737155745" id="-44582">
		<tag k="alt_name" v="Bjørnvika, in" />
		<tag k="name" v="Indre Bjørnvika" />
		<tag k="natural" v="bay" />
		<tag k="ssr:stedsnr" v="322356" />
	</node>
	<node lat="70.17426389443676" lon="22.31562495116049" id="-44583">
		<tag k="alt_name" v="Ranhaugbukta" />
		<tag k="name" v="Hellevika" />
		<tag k="natural" v="bay" />
		<tag k="ssr:stedsnr" v="322383" />
	</node>
	<node lat="70.13309999854599" lon="22.317549959893682" id="-44589">
		<tag k="name" v="Brenneset" />
		<tag k="natural" v="cape" />
		<tag k="ssr:stedsnr" v="322417" />
	</node>
	<node lat="70.26009722615424" lon="22.366358288672473" id="-44593">
		<tag k="fixme" v="consider seamark:type=rock or natural=shoal" />
		<tag k="name" v="Småskjæran" />
		<tag k="place" v="islet" />
		<tag k="ssr:stedsnr" v="323107" />
	</node>
	<node lat="70.32160000223564" lon="21.73983607569109" id="-44595">
		<tag k="name" v="Silda - Sildi" />
		<tag k="name:no" v="Silda" />
		<tag k="name:se" v="Sildi" />
		<tag k="place" v="island" />
		<tag k="ssr:stedsnr" v="323282" />
	</node>
	<node lat="70.25628888741699" lon="21.786383297181047" id="-44596">
		<tag k="alt_name" v="Jøvika" />
		<tag k="name" v="Juvika" />
		<tag k="natural" v="bay" />
		<tag k="ssr:stedsnr" v="323230" />
	</node>
	<node lat="70.28325555861258" lon="22.13639994698435" id="-44597">
		<tag k="name" v="Samuelsnes - Sámmolnjárga" />
		<tag k="name:no" v="Samuelsnes" />
		<tag k="name:se" v="Sámmolnjárga" />
		<tag k="natural" v="cape" />
		<tag k="old_name:se" v="Sammulnjarga" />
		<tag k="ssr:stedsnr" v="323233" />
	</node>
	<node lat="70.2697583348581" lon="21.697624979792966" id="-44598">
		<tag k="name" v="Molla" />
		<tag k="natural" v="beach" />
		<tag k="ssr:stedsnr" v="323236" />
	</node>
	<node lat="70.3054777785581" lon="22.00803885813267" id="-44600">
		<tag k="name" v="Rokkenes" />
		<tag k="natural" v="cape" />
		<tag k="ssr:stedsnr" v="323246" />
	</node>
	<node lat="70.29838610849967" lon="21.777211071277915" id="-44601">
		<tag k="alt_name" v="Røysnes" />
		<tag k="name" v="Røsnes" />
		<tag k="natural" v="cape" />
		<tag k="ssr:stedsnr" v="323248" />
	</node>
	<node lat="70.34613055701396" lon="21.693699955798667" id="-44602">
		<tag k="name" v="Styrmannsbukta" />
		<tag k="natural" v="bay" />
		<tag k="ssr:stedsnr" v="323259" />
	</node>
	<node lat="70.33048888750216" lon="21.97765551711803" id="-44603">
		<tag k="fixme" v="consider seamark:type=rock or natural=shoal" />
		<tag k="name" v="Lørsnesskjæret" />
		<tag k="place" v="islet" />
		<tag k="ssr:stedsnr" v="323285" />
	</node>
	<node lat="70.32923333206477" lon="21.977305505893415" id="-44604">
		<tag k="name" v="Malgygerneset" />
		<tag k="natural" v="cape" />
		<tag k="ssr:stedsnr" v="323287" />
	</node>
	<node lat="70.32132778198748" lon="21.398047196872685" id="-44605">
		<tag k="name" v="Kalvesundet" />
		<tag k="natural" v="strait" />
		<tag k="ssr:stedsnr" v="323318" />
	</node>
	<node lat="70.26197499670681" lon="21.609858305096378" id="-44610">
		<tag k="name" v="Sandlandsanden" />
		<tag k="natural" v="beach" />
		<tag k="ssr:stedsnr" v="332829" />
	</node>
	<node lat="70.29521111311645" lon="21.557388871576638" id="-44611">
		<tag k="name" v="Hundbergodden" />
		<tag k="natural" v="cape" />
		<tag k="ssr:stedsnr" v="332838" />
	</node>
	<node lat="70.27035278144942" lon="21.805941643991375" id="-44613">
		<tag k="fixme" v="consider seamark:type=rock or natural=shoal" />
		<tag k="name" v="Myrstein" />
		<tag k="place" v="islet" />
		<tag k="ssr:stedsnr" v="332863" />
	</node>
	<node lat="70.30795278031486" lon="21.350783303979842" id="-44614">
		<tag k="name" v="Søndre Kvalmål" />
		<tag k="natural" v="bay" />
		<tag k="ssr:stedsnr" v="336896" />
	</node>
	<node lat="70.27229722415984" lon="22.127766637419544" id="-44617">
		<tag k="name" v="Holmen" />
		<tag k="natural" v="cape" />
		<tag k="ssr:stedsnr" v="349385" />
	</node>
	<node lat="70.19662222479039" lon="22.266494407653116" id="-44619">
		<tag k="name" v="Hellanes" />
		<tag k="natural" v="cape" />
		<tag k="ssr:stedsnr" v="349488" />
	</node>
	<node lat="70.15751110972005" lon="22.25470272518923" id="-44621">
		<tag k="name" v="Arnenesbåen" />
		<tag k="place" v="locality" />
		<tag k="seamark:type" v="rock" />
		<tag k="ssr:stedsnr" v="349891" />
	</node>
	<node lat="70.2773722255738" lon="22.136222184560165" id="-44622">
		<tag k="name" v="Klemetnes" />
		<tag k="natural" v="bay" />
		<tag k="ssr:stedsnr" v="350285" />
	</node>
	<node lat="70.22446389345315" lon="21.18469163481969" id="-44625">
		<tag k="name" v="Brynnilsbukta" />
		<tag k="natural" v="bay" />
		<tag k="ssr:stedsnr" v="383128" />
	</node>
	<node lat="70.25712499775945" lon="21.20073608179837" id="-44629">
		<tag k="fixme" v="consider seamark:type=rock or natural=shoal" />
		<tag k="name" v="Fløskjæret - Doadjenlásis" />
		<tag k="name:no" v="Fløskjæret" />
		<tag k="name:se" v="Doadjenlásis" />
		<tag k="old_name:se" v="Doaddjenlasis" />
		<tag k="place" v="islet" />
		<tag k="ssr:stedsnr" v="383305" />
	</node>
	<node lat="70.26836667108972" lon="21.213936085970374" id="-44630">
		<tag k="name" v="Flua" />
		<tag k="natural" v="shoal" />
		<tag k="place" v="locality" />
		<tag k="ssr:stedsnr" v="383311" />
	</node>
	<node lat="70.3378749972635" lon="21.584486081678744" id="-44635">
		<tag k="name" v="Marholmgrunnen" />
		<tag k="natural" v="shoal" />
		<tag k="place" v="locality" />
		<tag k="ssr:stedsnr" v="383336" />
	</node>
	<node lat="70.12935000310137" lon="22.232199962376274" id="-44640">
		<tag k="name" v="Storbukta" />
		<tag k="natural" v="bay" />
		<tag k="ssr:stedsnr" v="383448" />
	</node>
	<node lat="70.23793055541881" lon="22.719205501949528" id="-44641">
		<tag k="alt_name:no" v="Stjernøysundet" />
		<tag k="bay" v="fjord" />
		<tag k="name" v="Stjernsundet - Joahkku" />
		<tag k="name:no" v="Stjernsundet" />
		<tag k="name:se" v="Joahkku" />
		<tag k="natural" v="bay" />
		<tag k="old_name:se" v="Joakko" />
		<tag k="ssr:stedsnr" v="383518" />
	</node>
	<node lat="70.23675555263311" lon="22.275272175200826" id="-44642">
		<tag k="name" v="Lilla" />
		<tag k="natural" v="cape" />
		<tag k="ssr:stedsnr" v="383520" />
	</node>
	<node lat="70.25953611072072" lon="21.70784719992206" id="-44645">
		<tag k="name" v="Sildspordsundet - Nuorri" />
		<tag k="name:no" v="Sildspordsundet" />
		<tag k="name:se" v="Nuorri" />
		<tag k="natural" v="strait" />
		<tag k="ssr:stedsnr" v="384214" />
	</node>
	<node lat="70.25967222770016" lon="21.69984163206404" id="-44646">
		<tag k="name" v="Sildsporden - Gálvegeahči" />
		<tag k="name:no" v="Sildsporden" />
		<tag k="name:se" v="Gálvegeahči" />
		<tag k="natural" v="cape" />
		<tag k="old_name:se" v="Galvegæčči" />
		<tag k="ssr:stedsnr" v="384215" />
	</node>
	<node lat="70.3130388938532" lon="22.068694399640037" id="-44647">
		<tag k="name" v="Nuven" />
		<tag k="natural" v="cape" />
		<tag k="ssr:stedsnr" v="384287" />
	</node>
	<node lat="70.22680556007754" lon="21.184294430181644" id="-44648">
		<tag k="name" v="Brynnilen - Brunjal" />
		<tag k="name:no" v="Brynnilen" />
		<tag k="name:se" v="Brunjal" />
		<tag k="place" v="island" />
		<tag k="ssr:stedsnr" v="388455" />
	</node>
	<node lat="70.32373889219386" lon="22.00287218138367" id="-44650">
		<tag k="name" v="Gammelværneset" />
		<tag k="natural" v="cape" />
		<tag k="ssr:stedsnr" v="396857" />
	</node>
	<node lat="70.21802500082721" lon="21.830658291852554" id="-44652">
		<tag k="name" v="Urdneset" />
		<tag k="natural" v="cape" />
		<tag k="ssr:stedsnr" v="397570" />
	</node>
	<node lat="70.24361944467995" lon="22.34393885054015" id="-44654">
		<tag k="fixme" v="consider seamark:type=rock or natural=shoal" />
		<tag k="name" v="Øksfjordskjæret" />
		<tag k="place" v="islet" />
		<tag k="ssr:stedsnr" v="398620" />
	</node>
	<node lat="70.23802222139537" lon="21.226577764308267" id="-44655">
		<tag k="name" v="Nordreskjåvik" />
		<tag k="natural" v="bay" />
		<tag k="ssr:stedsnr" v="409223" />
	</node>
	<node lat="70.23783055486139" lon="21.24263329865448" id="-44656">
		<tag k="name" v="Kvalhollet" />
		<tag k="natural" v="bay" />
		<tag k="ssr:stedsnr" v="409238" />
	</node>
	<node lat="70.2277999976052" lon="21.207886091897336" id="-44658">
		<tag k="name" v="Løkvikodden" />
=======
	<node id="-900509" lat="70.1544555586" lon="22.3926860623">
		<tag k="name" v="Kobbevika" />
		<tag k="natural" v="bay" />
		<tag k="ssr:stedsnr" v="201409" />
	</node>
	<node id="-900504" lat="70.2418138861" lon="21.7673360702">
		<tag k="name" v="Vindholmen" />
		<tag k="place" v="islet" />
		<tag k="ssr:stedsnr" v="201344" />
	</node>
	<node id="-900502" lat="70.2440666689" lon="21.7605666324">
		<tag k="name" v="Leirholmen" />
		<tag k="place" v="islet" />
		<tag k="ssr:stedsnr" v="201339" />
	</node>
	<node id="-900501" lat="70.3065527761" lon="21.3491221848">
		<tag k="name" v="Kvalmolla" />
		<tag k="natural" v="cape" />
		<tag k="ssr:stedsnr" v="201325" />
	</node>
	<node id="-900500" lat="70.3101277787" lon="21.3645499834">
		<tag k="name" v="Loppekalven - Gálbi" />
		<tag k="name:no" v="Loppekalven" />
		<tag k="name:se" v="Gálbi" />
		<tag k="old_name:se" v="Galbi" />
		<tag k="place" v="island" />
		<tag k="ssr:stedsnr" v="201322" />
	</node>
	<node id="-900486" lat="70.2049305575" lon="21.8172471931">
		<tag k="name" v="Skogneset" />
		<tag k="natural" v="cape" />
		<tag k="ssr:stedsnr" v="154937" />
	</node>
	<node id="-900485" lat="70.2235194479" lon="21.4291638675">
		<tag k="name" v="Tandebukta" />
		<tag k="natural" v="bay" />
		<tag k="ssr:stedsnr" v="154594" />
	</node>
	<node id="-900484" lat="70.2367333309" lon="21.2094721871">
		<tag k="name" v="Litlegrunnen" />
		<tag k="natural" v="shoal" />
		<tag k="place" v="locality" />
		<tag k="ssr:stedsnr" v="154150" />
	</node>
	<node id="-900483" lat="70.3764416669" lon="21.4379221987">
		<tag k="name" v="Ytterværet" />
		<tag k="natural" v="bay" />
		<tag k="ssr:stedsnr" v="153549" />
	</node>
	<node id="-900482" lat="70.2383527752" lon="21.7786082878">
		<tag k="fixme" v="multiple name tags, choose one and add the other to alt_name" />
		<tag k="name" v="Buktenes;Hjellneset" />
		<tag k="natural" v="cape" />
		<tag k="ssr:stedsnr" v="150844" />
	</node>
	<node id="-900481" lat="70.2668583355" lon="21.7934249672">
		<tag k="name" v="Hummelvika" />
		<tag k="natural" v="bay" />
		<tag k="ssr:stedsnr" v="149494" />
	</node>
	<node id="-900479" lat="70.291661111" lon="21.9804777291">
		<tag k="bay" v="fjord" />
		<tag k="name" v="Ullsfjorden - Ullovuotna" />
		<tag k="name:no" v="Ullsfjorden" />
		<tag k="name:se" v="Ullovuotna" />
		<tag k="natural" v="bay" />
		<tag k="old_name:se" v="Ulluvuodna" />
		<tag k="ssr:stedsnr" v="141528" />
	</node>
	<node id="-900478" lat="70.3286638902" lon="22.0497332813">
		<tag k="name" v="Kanesgrunnen" />
		<tag k="natural" v="shoal" />
		<tag k="place" v="locality" />
		<tag k="ssr:stedsnr" v="141301" />
	</node>
	<node id="-900474" lat="70.3681083374" lon="21.6796999687">
		<tag k="alt_name" v="Avløysningen" />
		<tag k="name" v="Avløysingen" />
		<tag k="natural" v="cape" />
		<tag k="ssr:stedsnr" v="141282" />
	</node>
	<node id="-900473" lat="70.3705555549" lon="21.680997194">
		<tag k="fixme" v="consider seamark:type=rock or natural=shoal" />
		<tag k="name" v="Balskjæret" />
		<tag k="place" v="islet" />
		<tag k="ssr:stedsnr" v="141280" />
	</node>
	<node id="-900472" lat="70.2860555583" lon="21.7624610701">
		<tag k="name" v="Jámetgohppi" />
		<tag k="name:se" v="Jámetgohppi" />
		<tag k="natural" v="bay" />
		<tag k="old_name:se" v="Jametgåppi" />
		<tag k="ssr:stedsnr" v="141256" />
	</node>
	<node id="-900470" lat="70.2886111107" lon="22.0911582988">
		<tag k="alt_name" v="Mollvika, l" />
		<tag k="name" v="Lille Mollvika" />
		<tag k="natural" v="bay" />
		<tag k="ssr:stedsnr" v="141222" />
	</node>
	<node id="-900469" lat="70.261527782" lon="21.627613847">
		<tag k="alt_name" v="Svartebergneset" />
		<tag k="name" v="Svartbergneset" />
		<tag k="natural" v="cape" />
		<tag k="ssr:stedsnr" v="141203" />
	</node>
	<node id="-900468" lat="70.3389833389" lon="22.3358721746">
		<tag k="name" v="Kvalbåen" />
		<tag k="natural" v="shoal" />
		<tag k="place" v="locality" />
		<tag k="ssr:stedsnr" v="141156" />
	</node>
	<node id="-900466" lat="70.2508750012" lon="22.2722360658">
		<tag k="name" v="Vinterneset" />
		<tag k="natural" v="cape" />
		<tag k="ssr:stedsnr" v="141088" />
	</node>
	<node id="-900465" lat="70.1197638898" lon="22.5310166185">
		<tag k="name" v="Øyra" />
		<tag k="natural" v="cape" />
		<tag k="ssr:stedsnr" v="140535" />
	</node>
	<node id="-900462" lat="70.152147221" lon="22.2469332892">
		<tag k="alt_name:no" v="Arneneset" />
		<tag k="name" v="Arnnes - Báhccavuonnjárga" />
		<tag k="name:no" v="Arnnes" />
		<tag k="name:se" v="Báhccavuonnjárga" />
		<tag k="natural" v="cape" />
		<tag k="old_name:se" v="Baccavuonnjarga" />
		<tag k="ssr:stedsnr" v="140411" />
	</node>
	<node id="-900455" lat="70.3185500035" lon="21.5356999851">
		<tag k="name" v="Kvalen" />
		<tag k="natural" v="cape" />
		<tag k="ssr:stedsnr" v="140360" />
	</node>
	<node id="-900454" lat="70.2872111161" lon="21.5600638492">
		<tag k="name" v="Bogen - Boavagáddi" />
		<tag k="name:no" v="Bogen" />
		<tag k="name:se" v="Boavagáddi" />
		<tag k="natural" v="beach" />
		<tag k="old_name:se" v="Boavagaddi" />
		<tag k="place" v="locality" />
		<tag k="ssr:stedsnr" v="140350" />
	</node>
	<node id="-900452" lat="70.2630611079" lon="21.340158308">
		<tag k="fixme" v="consider seamark:type=rock or natural=shoal" />
		<tag k="name" v="Svartoksskjæret - Čáhppesvuoksá" />
		<tag k="name:no" v="Svartoksskjæret" />
		<tag k="name:se" v="Čáhppesvuoksá" />
		<tag k="old_name:se" v="Čappesvuoksa" />
		<tag k="place" v="islet" />
		<tag k="ssr:stedsnr" v="140298" />
	</node>
	<node id="-900451" lat="70.2633555525" lon="21.209430524">
		<tag k="fixme" v="consider seamark:type=rock or natural=shoal" />
		<tag k="name" v="Skolten" />
		<tag k="place" v="islet" />
		<tag k="ssr:stedsnr" v="140294" />
	</node>
	<node id="-900450" lat="70.1960111091" lon="21.8214527402">
		<tag k="name" v="Skogneset" />
		<tag k="natural" v="cape" />
		<tag k="ssr:stedsnr" v="140259" />
	</node>
	<node id="-900447" lat="70.2775472263" lon="22.2978527269">
		<tag k="name" v="Klubbskjæret" />
		<tag k="natural" v="cape" />
		<tag k="ssr:stedsnr" v="140087" />
	</node>
	<node id="-900446" lat="70.2339111117" lon="21.132422197">
		<tag k="name" v="Bortre Brynnilskallen" />
		<tag k="natural" v="shoal" />
		<tag k="place" v="locality" />
		<tag k="ssr:stedsnr" v="145485" />
	</node>
	<node id="-900445" lat="70.1269055585" lon="22.5177888232">
		<tag k="name" v="Seivikbukta" />
		<tag k="natural" v="bay" />
		<tag k="ssr:stedsnr" v="116963" />
	</node>
	<node id="-900443" lat="70.1551500047" lon="22.3025527251">
		<tag k="name" v="Steinvik" />
		<tag k="natural" v="bay" />
		<tag k="ssr:stedsnr" v="107494" />
	</node>
	<node id="-900442" lat="70.2584972236" lon="22.08328885">
		<tag k="name" v="Brattnesbukta" />
		<tag k="natural" v="bay" />
		<tag k="ssr:stedsnr" v="107315" />
	</node>
	<node id="-900441" lat="70.1673277815" lon="22.3104527359">
		<tag k="name" v="Indre Hamna" />
		<tag k="natural" v="bay" />
		<tag k="ssr:stedsnr" v="107279" />
	</node>
	<node id="-900440" lat="70.180547221" lon="22.2502860497">
		<tag k="name" v="Lanabukta" />
		<tag k="natural" v="bay" />
		<tag k="ssr:stedsnr" v="107273" />
	</node>
	<node id="-900439" lat="70.2340555587" lon="22.0706860607">
		<tag k="name" v="Holmen" />
		<tag k="natural" v="cape" />
		<tag k="ssr:stedsnr" v="106334" />
	</node>
	<node id="-900438" lat="70.2325416701" lon="21.2137860758">
		<tag k="name" v="Tømmervikodden" />
		<tag k="natural" v="cape" />
		<tag k="ssr:stedsnr" v="106215" />
	</node>
	<node id="-900435" lat="70.2889222214" lon="22.2322749487">
		<tag k="fixme" v="consider seamark:type=rock or natural=shoal" />
		<tag k="name" v="Oterskjæret" />
		<tag k="place" v="islet" />
		<tag k="ssr:stedsnr" v="95376" />
	</node>
	<node id="-900434" lat="70.3115305584" lon="21.490311095">
		<tag k="name" v="Sørodden" />
		<tag k="natural" v="cape" />
		<tag k="ssr:stedsnr" v="94984" />
	</node>
	<node id="-900432" lat="70.2376944438" lon="21.7756138508">
		<tag k="name" v="Leirbuktskjæret" />
		<tag k="natural" v="shoal" />
		<tag k="place" v="locality" />
		<tag k="ssr:stedsnr" v="94256" />
	</node>
	<node id="-900429" lat="70.3158638924" lon="21.6829055142">
		<tag k="name" v="Per-Olsavær" />
		<tag k="natural" v="bay" />
		<tag k="ssr:stedsnr" v="93852" />
	</node>
	<node id="-900426" lat="70.3608916648" lon="21.4530777602">
		<tag k="name" v="Krakodden" />
		<tag k="natural" v="cape" />
		<tag k="ssr:stedsnr" v="93450" />
	</node>
	<node id="-900424" lat="70.3842472232" lon="21.4286055342">
		<tag k="name" v="Skaga" />
		<tag k="natural" v="cape" />
		<tag k="ssr:stedsnr" v="89525" />
	</node>
	<node id="-900423" lat="70.2423499992" lon="21.0265055396">
		<tag k="name" v="Ytter-Larven" />
		<tag k="natural" v="shoal" />
		<tag k="place" v="locality" />
		<tag k="ssr:stedsnr" v="85396" />
	</node>
	<node id="-900422" lat="70.3105000033" lon="21.0093083232">
		<tag k="name" v="Tomasskallen" />
		<tag k="natural" v="shoal" />
		<tag k="place" v="locality" />
		<tag k="ssr:stedsnr" v="85393" />
	</node>
	<node id="-900420" lat="70.2923805585" lon="22.1507249561">
		<tag k="name" v="Landbåen" />
		<tag k="natural" v="shoal" />
		<tag k="place" v="locality" />
		<tag k="ssr:stedsnr" v="81270" />
	</node>
	<node id="-900407" lat="70.3889277796" lon="21.3364999742">
		<tag k="name" v="Loppebåen" />
		<tag k="natural" v="shoal" />
		<tag k="place" v="locality" />
		<tag k="ssr:stedsnr" v="80377" />
	</node>
	<node id="-900405" lat="70.3144999975" lon="21.3503638534">
		<tag k="name" v="Kvalmollodden" />
		<tag k="natural" v="cape" />
		<tag k="ssr:stedsnr" v="80341" />
	</node>
	<node id="-900404" lat="70.3180083332" lon="21.3678555386">
		<tag k="name" v="Kløftodden" />
		<tag k="natural" v="cape" />
		<tag k="ssr:stedsnr" v="80339" />
	</node>
	<node id="-900403" lat="70.2567027758" lon="21.2972860894">
		<tag k="alt_name" v="Ueren, nordre" />
		<tag k="fixme" v="multiple name tags, choose one and add the other to alt_name" />
		<tag k="name" v="Auraren;Nordre Ueren" />
		<tag k="natural" v="cape" />
		<tag k="ssr:stedsnr" v="80295" />
	</node>
	<node id="-900401" lat="70.2530555526" lon="21.3196749752">
		<tag k="name" v="Trollvika" />
		<tag k="natural" v="bay" />
		<tag k="ssr:stedsnr" v="80292" />
	</node>
	<node id="-900399" lat="70.1777944416" lon="21.8423499573">
		<tag k="name" v="Oterneset" />
		<tag k="natural" v="cape" />
		<tag k="ssr:stedsnr" v="80280" />
	</node>
	<node id="-900397" lat="70.3365249967" lon="21.6916110769">
		<tag k="name" v="Kommelskardet" />
		<tag k="natural" v="bay" />
		<tag k="ssr:stedsnr" v="80265" />
	</node>
	<node id="-900395" lat="70.2621277827" lon="21.7225360811">
		<tag k="name" v="Trettnes" />
		<tag k="natural" v="cape" />
		<tag k="ssr:stedsnr" v="80231" />
	</node>
	<node id="-900388" lat="70.2879055541" lon="22.2312944031">
		<tag k="name" v="Skittenvikneset" />
		<tag k="natural" v="cape" />
		<tag k="ssr:stedsnr" v="80116" />
	</node>
	<node id="-900385" lat="70.2710638898" lon="22.1284416357">
		<tag k="name" v="Sandvik" />
		<tag k="natural" v="bay" />
		<tag k="ssr:stedsnr" v="46342" />
	</node>
	<node id="-900383" lat="70.1803666715" lon="22.3252860758">
		<tag k="name" v="Halsteinvika" />
		<tag k="natural" v="bay" />
		<tag k="ssr:stedsnr" v="45275" />
	</node>
	<node id="-900382" lat="70.2342138864" lon="21.2174388586">
		<tag k="fixme" v="consider seamark:type=rock or natural=shoal" />
		<tag k="name" v="Tømmervikflua" />
		<tag k="place" v="islet" />
		<tag k="ssr:stedsnr" v="45220" />
	</node>
	<node id="-900381" lat="70.2242805571" lon="21.1850416496">
		<tag k="name" v="Koppmolfjæra" />
		<tag k="natural" v="bay" />
		<tag k="ssr:stedsnr" v="45205" />
	</node>
	<node id="-900377" lat="70.2378722217" lon="22.0952166181">
		<tag k="name" v="Sandbakknes" />
		<tag k="natural" v="cape" />
		<tag k="ssr:stedsnr" v="33433" />
	</node>
	<node id="-900375" lat="70.2635111141" lon="21.7823444">
		<tag k="name" v="Dragnelen" />
		<tag k="natural" v="shoal" />
		<tag k="place" v="locality" />
		<tag k="ssr:stedsnr" v="33234" />
	</node>
	<node id="-900374" lat="70.2353972239" lon="21.7203666257">
		<tag k="fixme" v="consider seamark:type=rock or natural=shoal" />
		<tag k="name" v="Pannarskjæret" />
		<tag k="place" v="islet" />
		<tag k="ssr:stedsnr" v="33188" />
	</node>
	<node id="-900373" lat="70.2704694477" lon="21.6027777602">
		<tag k="name" v="Kvalbeinneset" />
		<tag k="natural" v="cape" />
		<tag k="ssr:stedsnr" v="32533" />
	</node>
	<node id="-900372" lat="70.2555444415" lon="22.2755860733">
		<tag k="name" v="Vengelvika" />
		<tag k="natural" v="bay" />
		<tag k="ssr:stedsnr" v="31767" />
	</node>
	<node id="-900371" lat="70.2630527828" lon="21.7851944064">
		<tag k="name" v="Neset" />
		<tag k="natural" v="cape" />
		<tag k="ssr:stedsnr" v="29863" />
	</node>
	<node id="-900369" lat="70.3150083327" lon="21.9006332873">
		<tag k="name" v="Ørnesgrunnen" />
		<tag k="natural" v="shoal" />
		<tag k="place" v="locality" />
		<tag k="ssr:stedsnr" v="20278" />
	</node>
	<node id="-900367" lat="70.3696722242" lon="21.7000416223">
		<tag k="alt_name" v="Avløysningsbukta" />
		<tag k="name" v="Avløysingsbukta" />
		<tag k="natural" v="bay" />
		<tag k="ssr:stedsnr" v="20262" />
	</node>
	<node id="-900366" lat="70.2998888896" lon="21.9895999604">
		<tag k="name" v="Sommarnes" />
		<tag k="natural" v="cape" />
		<tag k="ssr:stedsnr" v="20244" />
	</node>
	<node id="-900363" lat="70.3042277784" lon="22.0262471953">
		<tag k="name" v="Skolten - Skoalta" />
		<tag k="name:no" v="Skolten" />
		<tag k="name:se" v="Skoalta" />
		<tag k="natural" v="cape" />
		<tag k="ssr:stedsnr" v="20233" />
	</node>
	<node id="-900360" lat="70.287516669" lon="22.1681666327">
		<tag k="name" v="Trollvika" />
		<tag k="natural" v="bay" />
		<tag k="ssr:stedsnr" v="20214" />
	</node>
	<node id="-900358" lat="70.3360027768" lon="22.3238332719">
		<tag k="name" v="Kvalgrunnen" />
		<tag k="natural" v="shoal" />
		<tag k="place" v="locality" />
		<tag k="ssr:stedsnr" v="20142" />
	</node>
	<node id="-900357" lat="70.3167916666" lon="22.6632582771">
		<tag k="alt_name:no" v="Stjernøy" />
		<tag k="name" v="Stjernøya - Stierdná" />
		<tag k="name:no" v="Stjernøya" />
		<tag k="name:se" v="Stierdná" />
		<tag k="old_name:se" v="Stierdna" />
		<tag k="place" v="island" />
		<tag k="ssr:stedsnr" v="19466" />
	</node>
	<node id="-900356" lat="70.1392194479" lon="22.3418304959">
		<tag k="alt_name:no" v="Auskarnes" />
		<tag k="name" v="Auskarneset - Hávskárnjárga" />
		<tag k="name:no" v="Auskarneset" />
		<tag k="name:se" v="Hávskárnjárga" />
		<tag k="natural" v="cape" />
		<tag k="old_name:se" v="Havskarnjarga" />
		<tag k="ssr:stedsnr" v="19418" />
	</node>
	<node id="-900355" lat="70.2278000019" lon="21.8139582986">
		<tag k="name" v="Sloppelandet" />
		<tag k="natural" v="beach" />
		<tag k="place" v="locality" />
		<tag k="ssr:stedsnr" v="19361" />
	</node>
	<node id="-900353" lat="70.2412750027" lon="21.7058444224">
		<tag k="name" v="Innersundet" />
		<tag k="natural" v="strait" />
		<tag k="ssr:stedsnr" v="19352" />
	</node>
	<node id="-900348" lat="70.3475027774" lon="21.4037249772">
		<tag k="name" v="Buvika" />
		<tag k="natural" v="bay" />
		<tag k="ssr:stedsnr" v="19313" />
	</node>
	<node id="-900346" lat="70.2646833326" lon="21.3473332943">
		<tag k="name" v="Svartoksen" />
		<tag k="natural" v="cape" />
		<tag k="ssr:stedsnr" v="19266" />
	</node>
	<node id="-900336" lat="70.3343527789" lon="22.3466471786">
		<tag k="name" v="Seikeila" />
		<tag k="natural" v="bay" />
		<tag k="ssr:stedsnr" v="930129" />
	</node>
	<node id="-900334" lat="70.3146444495" lon="22.3761138384">
		<tag k="name" v="Raudberget" />
		<tag k="natural" v="cape" />
		<tag k="ssr:stedsnr" v="930125" />
	</node>
	<node id="-900331" lat="70.1319055572" lon="22.311058278">
		<tag k="name" v="Elvevika" />
		<tag k="natural" v="bay" />
		<tag k="ssr:stedsnr" v="884222" />
	</node>
	<node id="-900326" lat="70.2603305583" lon="21.4296388745">
		<tag k="name" v="Ørntuva" />
		<tag k="natural" v="cape" />
		<tag k="ssr:stedsnr" v="944562" />
	</node>
	<node id="-900325" lat="70.2679555523" lon="21.6114082976">
		<tag k="name" v="Ytre Fallet" />
		<tag k="natural" v="shoal" />
		<tag k="place" v="locality" />
		<tag k="ssr:stedsnr" v="944530" />
	</node>
	<node id="-900324" lat="70.2636111146" lon="21.6103499744">
		<tag k="name" v="Sandlandsbukta" />
		<tag k="natural" v="bay" />
		<tag k="ssr:stedsnr" v="944527" />
	</node>
	<node id="-900322" lat="70.3099555568" lon="22.0061082928">
		<tag k="name" v="Eddisbukta" />
		<tag k="natural" v="bay" />
		<tag k="ssr:stedsnr" v="943879" />
	</node>
	<node id="-900320" lat="70.2367777755" lon="22.0834694038">
		<tag k="bay" v="fjord" />
		<tag k="name" v="Sørfjorden" />
		<tag k="natural" v="bay" />
		<tag k="ssr:stedsnr" v="943409" />
	</node>
	<node id="-900319" lat="70.3268166691" lon="21.5731610687">
		<tag k="name" v="Søndre Marholmen" />
		<tag k="place" v="islet" />
		<tag k="ssr:stedsnr" v="940594" />
	</node>
	<node id="-900312" lat="70.1765166671" lon="22.3218944067">
		<tag k="name" v="Leirvika" />
		<tag k="natural" v="bay" />
		<tag k="ssr:stedsnr" v="835275" />
	</node>
	<node id="-900311" lat="70.2271833331" lon="21.20994443">
		<tag k="name" v="Kleppfiskfjæra" />
		<tag k="natural" v="bay" />
		<tag k="ssr:stedsnr" v="835214" />
	</node>
	<node id="-900309" lat="70.3914250045" lon="21.7029305275">
		<tag k="name" v="Sildmylingen - Diidna" />
		<tag k="name:no" v="Sildmylingen" />
		<tag k="name:se" v="Diidna" />
		<tag k="natural" v="cape" />
		<tag k="ssr:stedsnr" v="936789" />
	</node>
	<node id="-900308" lat="70.2226861129" lon="21.1779666332">
		<tag k="name" v="Brynnilsflua" />
		<tag k="natural" v="shoal" />
		<tag k="place" v="locality" />
		<tag k="ssr:stedsnr" v="934484" />
	</node>
	<node id="-900307" lat="70.2543749971" lon="22.0859360663">
		<tag k="name" v="Brattneset" />
		<tag k="natural" v="cape" />
		<tag k="ssr:stedsnr" v="822424" />
	</node>
	<node id="-900302" lat="70.0984222231" lon="22.3770721781">
		<tag k="name" v="Bálggatnjárga" />
		<tag k="name:se" v="Bálggatnjárga" />
		<tag k="natural" v="cape" />
		<tag k="old_name:se" v="Balgatnjarga" />
		<tag k="ssr:stedsnr" v="930569" />
	</node>
	<node id="-900301" lat="70.1381111105" lon="22.4825138365">
		<tag k="name" v="Stranda" />
		<tag k="natural" v="cape" />
		<tag k="ssr:stedsnr" v="930453" />
	</node>
	<node id="-900299" lat="70.2839777807" lon="22.0948832853">
		<tag k="name" v="Sommarnes" />
		<tag k="natural" v="cape" />
		<tag k="ssr:stedsnr" v="930548" />
	</node>
	<node id="-900296" lat="70.3030138896" lon="21.6793249558">
		<tag k="name" v="Høgstein" />
		<tag k="natural" v="cape" />
		<tag k="ssr:stedsnr" v="930281" />
	</node>
	<node id="-900294" lat="70.3221750029" lon="21.5551221922">
		<tag k="name" v="Henningkeila" />
		<tag k="natural" v="bay" />
		<tag k="ssr:stedsnr" v="930336" />
	</node>
	<node id="-900293" lat="70.3798055571" lon="21.7101138683">
		<tag k="name" v="Storskardet" />
		<tag k="natural" v="bay" />
		<tag k="ssr:stedsnr" v="930315" />
	</node>
	<node id="-900287" lat="70.2143000046" lon="21.8639777442">
		<tag k="alt_name:no" v="Tverrfjorden, nordre" />
		<tag k="name" v="Nordre Tverrfjorden - Sámevuotna" />
		<tag k="name:no" v="Nordre Tverrfjorden" />
		<tag k="name:se" v="Sámevuotna" />
		<tag k="natural" v="bay" />
		<tag k="old_name:se" v="Samevuodna" />
		<tag k="ssr:stedsnr" v="930261" />
	</node>
	<node id="-900285" lat="70.2962694493" lon="22.0092582924">
		<tag k="name" v="Kjellfinneset" />
		<tag k="natural" v="cape" />
		<tag k="ssr:stedsnr" v="930253" />
	</node>
	<node id="-900282" lat="70.3026638906" lon="22.0930888368">
		<tag k="name" v="Molvikneset" />
		<tag k="natural" v="cape" />
		<tag k="ssr:stedsnr" v="930246" />
	</node>
	<node id="-900276" lat="70.2321250031" lon="22.350949955">
		<tag k="name" v="Vassdalsbotn" />
		<tag k="natural" v="bay" />
		<tag k="ssr:stedsnr" v="929370" />
	</node>
	<node id="-900275" lat="70.2437944438" lon="22.0871277402">
		<tag k="name" v="Myrnes" />
		<tag k="natural" v="cape" />
		<tag k="ssr:stedsnr" v="929342" />
	</node>
	<node id="-900273" lat="70.3423805574" lon="21.4584221829">
		<tag k="name" v="Mønes" />
		<tag k="natural" v="cape" />
		<tag k="ssr:stedsnr" v="929279" />
	</node>
	<node id="-900269" lat="70.1717750001" lon="21.8084832929">
		<tag k="alt_name" v="Trolldalsbukta, in" />
		<tag k="name" v="Indre Trolldalsbukta" />
		<tag k="natural" v="bay" />
		<tag k="ssr:stedsnr" v="929238" />
	</node>
	<node id="-900267" lat="70.2316916649" lon="21.2178888538">
		<tag k="name" v="Tømmervika" />
		<tag k="natural" v="bay" />
		<tag k="ssr:stedsnr" v="929121" />
	</node>
	<node id="-900266" lat="70.2274166665" lon="21.2118860868">
		<tag k="name" v="Laukvika" />
		<tag k="natural" v="bay" />
		<tag k="ssr:stedsnr" v="929120" />
	</node>
	<node id="-900260" lat="70.391394442" lon="21.7072971964">
		<tag k="name" v="Svinkeila" />
		<tag k="natural" v="bay" />
		<tag k="ssr:stedsnr" v="748307" />
	</node>
	<node id="-900258" lat="70.3788583293" lon="21.4130777605">
		<tag k="name" v="Kobbekeila" />
		<tag k="natural" v="bay" />
		<tag k="ssr:stedsnr" v="747353" />
	</node>
	<node id="-900255" lat="70.253236115" lon="21.7834110767">
		<tag k="name" v="Skippernes" />
>>>>>>> e1d4bc35ff8a6074a6f2e91616a996b547c36f15
		<tag k="natural" v="cape" />
		<tag k="ssr:stedsnr" v="747208" />
	</node>
<<<<<<< HEAD
	<node lat="70.22777500383052" lon="21.179080521538697" id="-44659">
		<tag k="name" v="Krykkjebenkan" />
		<tag k="natural" v="bay" />
		<tag k="ssr:stedsnr" v="410223" />
	</node>
	<node lat="70.25459167167047" lon="21.76297774784402" id="-44661">
		<tag k="name" v="Lyktholmen" />
		<tag k="place" v="islet" />
		<tag k="ssr:stedsnr" v="444192" />
	</node>
	<node lat="70.25477499806655" lon="22.107611070279663" id="-44662">
		<tag k="alt_name" v="Bukkenes" />
		<tag k="name" v="Bukkeneset" />
		<tag k="natural" v="cape" />
		<tag k="ssr:stedsnr" v="444193" />
	</node>
	<node lat="70.22346666568828" lon="21.199352763058613" id="-44665">
		<tag k="name" v="Skomakarbukta" />
		<tag k="natural" v="bay" />
		<tag k="ssr:stedsnr" v="444119" />
	</node>
	<node lat="70.1357944483503" lon="22.21364163153849" id="-44669">
		<tag k="name" v="Steinkjøsen - Livcu" />
		<tag k="name:no" v="Steinkjøsen" />
		<tag k="name:se" v="Livcu" />
		<tag k="natural" v="bay" />
		<tag k="old_name:se" v="Livco" />
		<tag k="ssr:stedsnr" v="444257" />
	</node>
	<node lat="70.29505277554367" lon="21.65787217799309" id="-44675">
		<tag k="bay" v="fjord" />
		<tag k="name" v="Sandlandsfjorden" />
		<tag k="natural" v="bay" />
		<tag k="ssr:stedsnr" v="444300" />
	</node>
	<node lat="70.10277221972885" lon="22.585416608943806" id="-44682">
		<tag k="name" v="Rivarbukteidet - Vuojatluovttmuotki" />
		<tag k="name:no" v="Rivarbukteidet" />
		<tag k="name:se" v="Vuojatluovttmuotki" />
		<tag k="old_name:se" v="Vuojatluovtmuotki" />
		<tag k="place" v="locality" />
		<tag k="ssr:stedsnr" v="444527" />
	</node>
	<node lat="70.16012778072583" lon="22.66332215760155" id="-44686">
		<tag k="name" v="Joahkonjárga" />
		<tag k="name:se" v="Joahkonjárga" />
		<tag k="natural" v="cape" />
		<tag k="old_name:se" v="Joakkunjarga" />
		<tag k="ssr:stedsnr" v="444650" />
	</node>
	<node lat="70.25810277785202" lon="22.415769381447173" id="-44687">
		<tag k="fixme" v="consider seamark:type=rock or natural=shoal" />
		<tag k="name" v="Skarvskjæret" />
		<tag k="place" v="islet" />
		<tag k="ssr:stedsnr" v="445096" />
	</node>
	<node lat="70.3090027784893" lon="22.383261052068907" id="-44688">
		<tag k="name" v="Flatberget" />
		<tag k="natural" v="cape" />
		<tag k="ssr:stedsnr" v="445124" />
	</node>
	<node lat="70.36166666972142" lon="21.776238857944293" id="-44690">
		<tag k="name" v="Kvalmanneset" />
		<tag k="natural" v="cape" />
		<tag k="ssr:stedsnr" v="445269" />
	</node>
	<node lat="70.14612222630048" lon="22.444824959993596" id="-44692">
		<tag k="name" v="Hesjenes - Skadjanjárga" />
		<tag k="name:no" v="Hesjenes" />
		<tag k="name:se" v="Skadjanjárga" />
		<tag k="natural" v="cape" />
		<tag k="old_name:se" v="Skaddjanjarga" />
		<tag k="ssr:stedsnr" v="504430" />
	</node>
	<node lat="70.16922500613671" lon="21.83009439989271" id="-44695">
		<tag k="name" v="Grønneset" />
		<tag k="natural" v="cape" />
		<tag k="ssr:stedsnr" v="504226" />
	</node>
	<node lat="70.24763333716167" lon="21.774741642262512" id="-44699">
		<tag k="name" v="Kuholmen" />
		<tag k="place" v="islet" />
		<tag k="ssr:stedsnr" v="504342" />
	</node>
	<node lat="70.38926666944378" lon="21.433283311160782" id="-44702">
		<tag k="name" v="Skagsodden" />
		<tag k="natural" v="cape" />
		<tag k="ssr:stedsnr" v="504349" />
	</node>
	<node lat="70.23099444241534" lon="22.269483286733614" id="-44704">
		<tag k="alt_name" v="Sirines" />
		<tag k="name" v="Sirineset" />
		<tag k="natural" v="cape" />
		<tag k="ssr:stedsnr" v="504379" />
	</node>
	<node lat="70.19840833802913" lon="22.334116628012495" id="-44705">
		<tag k="name" v="Danielsbukt - Dánelgohppi" />
		<tag k="name:no" v="Danielsbukt" />
		<tag k="name:se" v="Dánelgohppi" />
		<tag k="natural" v="bay" />
		<tag k="old_name:se" v="Danelgåppi" />
		<tag k="ssr:stedsnr" v="504392" />
	</node>
	<node lat="70.13345278060828" lon="22.502066606488015" id="-44706">
		<tag k="name" v="Hamnebukta" />
		<tag k="natural" v="bay" />
		<tag k="ssr:stedsnr" v="504415" />
	</node>
	<node lat="70.2438999988006" lon="22.270374952138454" id="-44707">
		<tag k="name" v="Skatvika" />
		<tag k="natural" v="bay" />
		<tag k="ssr:stedsnr" v="504484" />
	</node>
	<node lat="70.25548611087238" lon="22.383819405271772" id="-44709">
		<tag k="name" v="Grasdalsbukta - Rássevákkeluokta" />
		<tag k="name:no" v="Grasdalsbukta" />
		<tag k="name:se" v="Rássevákkeluokta" />
		<tag k="natural" v="bay" />
		<tag k="ssr:stedsnr" v="505098" />
	</node>
	<node lat="70.33286388811544" lon="21.13843885768808" id="-44716">
		<tag k="name" v="Peder Hansaskallen" />
		<tag k="natural" v="shoal" />
		<tag k="place" v="locality" />
		<tag k="ssr:stedsnr" v="510484" />
	</node>
	<node lat="70.31898055565102" lon="21.117061094564548" id="-44717">
		<tag k="name" v="Kvænangsgrunnen" />
		<tag k="natural" v="shoal" />
		<tag k="place" v="locality" />
		<tag k="ssr:stedsnr" v="510488" />
	</node>
	<node lat="70.23608889329371" lon="21.23792221018119" id="-44718">
		<tag k="name" v="Andsneskeila" />
		<tag k="natural" v="bay" />
		<tag k="ssr:stedsnr" v="510506" />
	</node>
	<node lat="70.23271388844479" lon="21.788083302106052" id="-44722">
		<tag k="name" v="Kuveien" />
		<tag k="natural" v="cape" />
		<tag k="ssr:stedsnr" v="514853" />
	</node>
	<node lat="70.24296666521643" lon="21.238108306590206" id="-44723">
		<tag k="name" v="Grunnflua" />
		<tag k="natural" v="shoal" />
		<tag k="place" v="locality" />
		<tag k="ssr:stedsnr" v="519595" />
	</node>
	<node lat="70.24701111314107" lon="21.263686078705206" id="-44726">
		<tag k="name" v="Sørlundkeila" />
		<tag k="natural" v="bay" />
		<tag k="ssr:stedsnr" v="531186" />
	</node>
	<node lat="70.17094444619009" lon="21.85776941503463" id="-44730">
		<tag k="name" v="Isdalbukta" />
		<tag k="natural" v="bay" />
		<tag k="ssr:stedsnr" v="564264" />
	</node>
	<node lat="70.22478055503124" lon="22.354155504432075" id="-44732">
		<tag k="name" v="Sápmelašnjárga" />
		<tag k="name:se" v="Sápmelašnjárga" />
		<tag k="natural" v="cape" />
		<tag k="old_name:se" v="Sabmelašnjarga" />
		<tag k="ssr:stedsnr" v="564391" />
	</node>
	<node lat="70.28424444468939" lon="22.26320273717344" id="-44735">
		<tag k="name" v="Kvalneset" />
		<tag k="natural" v="cape" />
		<tag k="ssr:stedsnr" v="565093" />
	</node>
	<node lat="70.26232222200134" lon="21.785311068523864" id="-44736">
		<tag k="name" v="Lille-Hummelvika" />
		<tag k="natural" v="bay" />
		<tag k="ssr:stedsnr" v="565188" />
	</node>
	<node lat="70.25703055694339" lon="21.726174970215332" id="-44739">
		<tag k="fixme" v="consider seamark:type=rock or natural=shoal" />
		<tag k="name" v="Klæbuskjæret" />
		<tag k="place" v="islet" />
		<tag k="ssr:stedsnr" v="565193" />
	</node>
	<node lat="70.19300000274131" lon="21.488886069913857" id="-44740">
		<tag k="bay" v="fjord" />
		<tag k="name" v="Frakkfjordbotn" />
		<tag k="natural" v="bay" />
		<tag k="ssr:stedsnr" v="565154" />
	</node>
	<node lat="70.21907500416188" lon="21.721822188099317" id="-44743">
		<tag k="name" v="Bártnatvuotna" />
		<tag k="name:se" v="Bártnatvuotna" />
		<tag k="natural" v="bay" />
		<tag k="old_name:se" v="Bardnatvuodna" />
		<tag k="ssr:stedsnr" v="565248" />
	</node>
	<node lat="70.21982222292847" lon="21.746580512262423" id="-44744">
		<tag k="name" v="Steinneset - Čiehkanjárga" />
		<tag k="name:no" v="Steinneset" />
		<tag k="name:se" v="Čiehkanjárga" />
		<tag k="natural" v="cape" />
		<tag k="old_name:se" v="Čiekkanjarga" />
		<tag k="ssr:stedsnr" v="565249" />
	</node>
	<node lat="70.18843889337607" lon="21.823199970222024" id="-44748">
		<tag k="name" v="Hundberget - Loainjárga" />
		<tag k="name:no" v="Hundberget" />
		<tag k="name:se" v="Loainjárga" />
		<tag k="natural" v="cape" />
		<tag k="old_name:se" v="Loainjarga" />
		<tag k="ssr:stedsnr" v="565261" />
	</node>
	<node lat="70.13308611702176" lon="22.303691611012184" id="-44752">
		<tag k="alt_name" v="Tennskjeret" />
		<tag k="fixme" v="consider seamark:type=rock or natural=shoal" />
		<tag k="name" v="Ternskjæret" />
		<tag k="place" v="islet" />
		<tag k="ssr:stedsnr" v="565401" />
	</node>
	<node lat="70.31117778253457" lon="21.90059718016584" id="-44756">
		<tag k="name" v="Ørneset" />
		<tag k="natural" v="cape" />
		<tag k="ssr:stedsnr" v="566294" />
	</node>
	<node lat="70.2367972225471" lon="21.224497199734824" id="-44759">
		<tag k="name" v="Skjåvikodden" />
		<tag k="natural" v="cape" />
		<tag k="ssr:stedsnr" v="570387" />
	</node>
	<node lat="70.23824444797967" lon="21.160327762765263" id="-44760">
		<tag k="name" v="Haukøygrunnen" />
		<tag k="natural" v="shoal" />
		<tag k="place" v="locality" />
		<tag k="ssr:stedsnr" v="570433" />
	</node>
	<node lat="70.13544166567114" lon="22.23342773073687" id="-44761">
		<tag k="bay" v="fjord" />
		<tag k="name" v="Kjøsen - Livcu" />
		<tag k="name:no" v="Kjøsen" />
		<tag k="name:se" v="Livcu" />
		<tag k="natural" v="bay" />
		<tag k="old_name:se" v="Livco" />
		<tag k="ssr:stedsnr" v="574542" />
	</node>
	<node lat="70.3330861158284" lon="21.58156108569934" id="-44764">
		<tag k="name" v="Nordholmen" />
		<tag k="place" v="islet" />
		<tag k="ssr:stedsnr" v="576626" />
	</node>
	<node lat="70.2642222198514" lon="22.282174962652487" id="-44766">
		<tag k="name" v="Klubbnesvika" />
		<tag k="natural" v="bay" />
		<tag k="ssr:stedsnr" v="577788" />
	</node>
	<node lat="70.22214444613483" lon="21.7921610745792" id="-44769">
		<tag k="name" v="Sloppegrunnen" />
		<tag k="natural" v="shoal" />
		<tag k="place" v="locality" />
		<tag k="ssr:stedsnr" v="579587" />
	</node>
	<node lat="70.38779166354394" lon="21.435441644218304" id="-44770">
		<tag k="name" v="Torvekeila" />
		<tag k="natural" v="bay" />
		<tag k="ssr:stedsnr" v="592118" />
	</node>
	<node lat="70.37553055442459" lon="21.437180520475017" id="-44771">
		<tag k="name" v="Yttervær" />
		<tag k="natural" v="cape" />
		<tag k="ssr:stedsnr" v="592121" />
	</node>
	<node lat="70.36606666379255" lon="21.4035666487499" id="-44772">
		<tag k="name" v="Ryggholla" />
		<tag k="natural" v="bay" />
		<tag k="ssr:stedsnr" v="592123" />
	</node>
	<node lat="70.28791666986622" lon="22.148152740191147" id="-44773">
		<tag k="name" v="Kjeila" />
		<tag k="natural" v="bay" />
		<tag k="ssr:stedsnr" v="592335" />
	</node>
	<node lat="70.27545000184294" lon="22.12674441028571" id="-44774">
		<tag k="name" v="Bukta" />
		<tag k="natural" v="bay" />
		<tag k="ssr:stedsnr" v="592339" />
	</node>
	<node lat="70.23370555519965" lon="21.45397774861218" id="-44778">
		<tag k="bay" v="fjord" />
		<tag k="name" v="Frakkfjorden" />
		<tag k="natural" v="bay" />
		<tag k="ssr:stedsnr" v="625131" />
	</node>
	<node lat="70.19923333755607" lon="21.470377761841345" id="-44780">
		<tag k="name" v="Kjosen" />
		<tag k="natural" v="bay" />
		<tag k="ssr:stedsnr" v="625170" />
	</node>
	<node lat="70.2529305581097" lon="21.28279442215724" id="-44783">
		<tag k="name" v="Lundkeila" />
		<tag k="natural" v="bay" />
		<tag k="ssr:stedsnr" v="625138" />
	</node>
	<node lat="70.304377778418" lon="22.15569995184507" id="-44786">
		<tag k="name" v="Smaltindgrunnen" />
		<tag k="natural" v="shoal" />
		<tag k="place" v="locality" />
		<tag k="ssr:stedsnr" v="626252" />
	</node>
	<node lat="70.30421111394708" lon="22.169786079034665" id="-44787">
		<tag k="name" v="Breitindgrunnen" />
		<tag k="natural" v="shoal" />
		<tag k="place" v="locality" />
		<tag k="ssr:stedsnr" v="626253" />
	</node>
	<node lat="70.29428888992936" lon="21.797972198131735" id="-44789">
		<tag k="alt_name" v="Røysnesbåen" />
		<tag k="name" v="Røsnesbåen" />
		<tag k="natural" v="shoal" />
		<tag k="place" v="locality" />
		<tag k="ssr:stedsnr" v="626263" />
	</node>
	<node lat="70.29725555502282" lon="22.397236052031786" id="-44790">
		<tag k="name" v="Hella - Heallu" />
		<tag k="name:no" v="Hella" />
		<tag k="name:se" v="Heallu" />
		<tag k="natural" v="cape" />
		<tag k="old_name:se" v="Hællo" />
		<tag k="ssr:stedsnr" v="626144" />
	</node>
	<node lat="70.25753611379614" lon="21.728058288353644" id="-44791">
		<tag k="name" v="Klæbugrunnen" />
		<tag k="natural" v="shoal" />
		<tag k="place" v="locality" />
		<tag k="ssr:stedsnr" v="626222" />
	</node>
	<node lat="70.27901388578707" lon="21.75517497526012" id="-44794">
		<tag k="alt_name:no" v="Urdnes" />
		<tag k="name" v="Urdneset - Juovvanjárga" />
		<tag k="name:no" v="Urdneset" />
		<tag k="name:se" v="Juovvanjárga" />
		<tag k="natural" v="cape" />
		<tag k="old_name:se" v="Juovvanjarga" />
		<tag k="ssr:stedsnr" v="626239" />
	</node>
	<node lat="70.28125833622582" lon="21.962138839677397" id="-44795">
		<tag k="fixme" v="multiple name tags, choose one and add the other to alt_name" />
		<tag k="name" v="Solnes;Kobbeneset" />
		<tag k="natural" v="cape" />
		<tag k="ssr:stedsnr" v="626241" />
	</node>
	<node lat="70.38647500343143" lon="21.703366623617608" id="-44798">
		<tag k="name" v="Litleskardet" />
		<tag k="natural" v="bay" />
		<tag k="ssr:stedsnr" v="626328" />
	</node>
	<node lat="70.33111110818268" lon="21.579349973437182" id="-44799">
		<tag k="name" v="Marholmen" />
		<tag k="place" v="island" />
		<tag k="ssr:stedsnr" v="626346" />
	</node>
	<node lat="70.3236138920049" lon="21.41194443012439" id="-44801">
		<tag k="alt_name" v="Avløysingodden;Avløsningsodden" />
		<tag k="name" v="Fjellavløysingodden" />
		<tag k="natural" v="cape" />
		<tag k="ssr:stedsnr" v="626349" />
	</node>
	<node lat="70.31866111614907" lon="21.569338861517327" id="-44804">
		<tag k="name" v="Ørodden" />
		<tag k="natural" v="cape" />
		<tag k="ssr:stedsnr" v="626378" />
	</node>
	<node lat="70.21797778051835" lon="21.760238845882196" id="-44805">
		<tag k="alt_name:no" v="Skjåneset" />
		<tag k="name" v="Skjånes - Báiskenjárga" />
		<tag k="name:no" v="Skjånes" />
		<tag k="name:se" v="Báiskenjárga" />
		<tag k="natural" v="cape" />
		<tag k="old_name:se" v="Baiskenjarga" />
		<tag k="ssr:stedsnr" v="626265" />
	</node>
	<node lat="70.36587222315143" lon="21.75845830863383" id="-44809">
		<tag k="name" v="Yttervær" />
		<tag k="natural" v="cape" />
		<tag k="ssr:stedsnr" v="626274" />
	</node>
	<node lat="70.38136389236318" lon="21.72486939957905" id="-44811">
		<tag k="name" v="Skárfageađgi" />
		<tag k="name:se" v="Skárfageađgi" />
		<tag k="natural" v="cape" />
		<tag k="old_name:se" v="Skarfagæđgi" />
		<tag k="ssr:stedsnr" v="626278" />
	</node>
	<node lat="70.31445555408277" lon="21.683586077700355" id="-44812">
		<tag k="name" v="Per Olsaværet" />
		<tag k="natural" v="cape" />
		<tag k="ssr:stedsnr" v="626289" />
	</node>
	<node lat="70.32747500136965" lon="21.79815275568674" id="-44813">
		<tag k="name" v="Larsvær" />
		<tag k="natural" v="cape" />
		<tag k="ssr:stedsnr" v="626292" />
	</node>
	<node lat="70.25300833837063" lon="21.72033606997156" id="-44814">
		<tag k="name" v="Marøya - Máreaddju" />
		<tag k="name:no" v="Marøya" />
		<tag k="name:se" v="Máreaddju" />
		<tag k="old_name:se" v="Maræddjo" />
		<tag k="place" v="island" />
		<tag k="ssr:stedsnr" v="626393" />
	</node>
	<node lat="70.15235000208061" lon="22.323674954748814" id="-44815">
		<tag k="name" v="Skardbergodden" />
		<tag k="natural" v="cape" />
		<tag k="ssr:stedsnr" v="626470" />
	</node>
	<node lat="70.21349999801187" lon="21.78970274975321" id="-44818">
		<tag k="bay" v="fjord" />
		<tag k="name" v="Langfjorden - Stuoravuotna" />
		<tag k="name:no" v="Langfjorden" />
		<tag k="name:se" v="Stuoravuotna" />
		<tag k="natural" v="bay" />
		<tag k="old_name:se" v="Stuoravuodna" />
		<tag k="ssr:stedsnr" v="627518" />
	</node>
	<node lat="70.24576388664224" lon="21.779866634522303" id="-44820">
		<tag k="name" v="Sandnes" />
		<tag k="natural" v="cape" />
		<tag k="ssr:stedsnr" v="635837" />
	</node>
	<node lat="70.38960278110578" lon="21.713030534740863" id="-44821">
		<tag k="name" v="Stortindkeila" />
		<tag k="natural" v="bay" />
		<tag k="ssr:stedsnr" v="638909" />
	</node>
	<node lat="70.1244833317805" lon="22.502208284794342" id="-44822">
		<tag k="alt_name" v="Holmen" />
		<tag k="name" v="Botnholmen" />
		<tag k="place" v="islet" />
		<tag k="ssr:stedsnr" v="640358" />
	</node>
	<node lat="70.25181111129069" lon="21.274036085883846" id="-44823">
		<tag k="fixme" v="consider seamark:type=rock or natural=shoal" />
		<tag k="name" v="Brudeskjæret" />
		<tag k="place" v="islet" />
		<tag k="ssr:stedsnr" v="640633" />
	</node>
	<node lat="70.15455833905746" lon="22.251222171692138" id="-44827">
		<tag k="fixme" v="consider seamark:type=rock or natural=shoal" />
		<tag k="name" v="Arnnesskjæret" />
		<tag k="place" v="islet" />
		<tag k="ssr:stedsnr" v="652220" />
	</node>
	<node lat="70.12931666864657" lon="22.49702217637262" id="-44830">
		<tag k="name" v="Øksfjordbotn" />
		<tag k="natural" v="bay" />
		<tag k="ssr:stedsnr" v="652625" />
	</node>
	<node lat="70.26202222219608" lon="22.10695550325424" id="-44832">
		<tag k="name" v="Engnes" />
		<tag k="natural" v="cape" />
		<tag k="ssr:stedsnr" v="653300" />
	</node>
	<node lat="70.20689444364521" lon="22.268238852096818" id="-44833">
		<tag k="name" v="Skredholla" />
		<tag k="natural" v="bay" />
		<tag k="ssr:stedsnr" v="713447" />
	</node>
	<node lat="70.14959444580643" lon="22.438205501782953" id="-44834">
		<tag k="name" v="Storvika" />
		<tag k="natural" v="bay" />
		<tag k="ssr:stedsnr" v="713541" />
	</node>
	<node lat="70.27468333270592" lon="22.28750550309311" id="-44836">
		<tag k="name" v="Øksfjordklubben" />
		<tag k="natural" v="cape" />
		<tag k="ssr:stedsnr" v="747080" />
	</node>
	<node lat="70.37073888619048" lon="21.418502752206905" id="-44845">
		<tag k="name" v="Storskardet" />
		<tag k="natural" v="bay" />
		<tag k="ssr:stedsnr" v="747312" />
	</node>
	<node lat="70.31735000397525" lon="21.52408609556494" id="-44848">
		<tag k="name" v="Bankekeila" />
		<tag k="natural" v="bay" />
		<tag k="ssr:stedsnr" v="747332" />
	</node>
	<node lat="70.37885832926058" lon="21.41307776047775" id="-44849">
		<tag k="name" v="Kobbekeila" />
		<tag k="natural" v="bay" />
		<tag k="ssr:stedsnr" v="747353" />
	</node>
	<node lat="70.26169166606184" lon="21.65015830478036" id="-44857">
		<tag k="name" v="Svartberggrunnen" />
		<tag k="natural" v="shoal" />
		<tag k="place" v="locality" />
		<tag k="ssr:stedsnr" v="748201" />
	</node>
	<node lat="70.20559167059291" lon="21.48332218812117" id="-44862">
		<tag k="name" v="Skjåneset" />
		<tag k="natural" v="cape" />
		<tag k="ssr:stedsnr" v="761576" />
	</node>
	<node lat="70.23540555776064" lon="21.224852751544763" id="-44864">
		<tag k="name" v="Skjåvik" />
		<tag k="natural" v="bay" />
		<tag k="ssr:stedsnr" v="774195" />
	</node>
	<node lat="70.20860278273234" lon="21.820669410749264" id="-44871">
		<tag k="alt_name" v="Snappeneset" />
		<tag k="name" v="Snappen" />
		<tag k="natural" v="cape" />
		<tag k="ssr:stedsnr" v="808240" />
	</node>
	<node lat="70.3010111159489" lon="21.355558296957316" id="-44878">
		<tag k="name" v="Sluppen" />
		<tag k="natural" v="cape" />
		<tag k="ssr:stedsnr" v="808319" />
	</node>
	<node lat="70.3106944436731" lon="21.439191631258804" id="-44879">
		<tag k="name" v="Loppesveet" />
		<tag k="natural" v="strait" />
		<tag k="ssr:stedsnr" v="808324" />
	</node>
	<node lat="70.31766111006294" lon="21.372033293699563" id="-44880">
		<tag k="name" v="Elven" />
		<tag k="natural" v="bay" />
		<tag k="ssr:stedsnr" v="808328" />
	</node>
	<node lat="70.32321944547378" lon="21.56398329402749" id="-44881">
		<tag k="name" v="Ørodden" />
		<tag k="natural" v="cape" />
		<tag k="ssr:stedsnr" v="808331" />
	</node>
	<node lat="70.15358333546692" lon="21.840063865836374" id="-44882">
		<tag k="name" v="Nordmannsbukta" />
		<tag k="natural" v="bay" />
		<tag k="ssr:stedsnr" v="808257" />
	</node>
	<node lat="70.25694722306537" lon="21.190722199072017" id="-44884">
		<tag k="name" v="Stabben" />
		<tag k="natural" v="shoal" />
		<tag k="place" v="locality" />
		<tag k="ssr:stedsnr" v="808265" />
	</node>
	<node lat="70.44176111481191" lon="21.133344427653814" id="-44889">
		<tag k="alt_name" v="Loppahavet" />
		<tag k="name" v="Lopphavet" />
		<tag k="natural" v="bay" />
		<tag k="ssr:stedsnr" v="808359" />
	</node>
	<node lat="70.23381944120398" lon="21.72026663335097" id="-44890">
		<tag k="fixme" v="multiple name tags, choose one and add the other to alt_name" />
		<tag k="name" v="Pannarodden;Ranseren - Bánnár" />
		<tag k="name:no" v="Pannarodden;Ranseren" />
		<tag k="name:se" v="Bánnár" />
		<tag k="natural" v="cape" />
		<tag k="old_name:se" v="Bannar" />
		<tag k="ssr:stedsnr" v="808363" />
	</node>
	<node lat="70.1899944494446" lon="22.260033286291794" id="-44892">
		<tag k="alt_name:no" v="Hellalandet" />
		<tag k="name" v="Hellelandet - Healluidgáddi" />
		<tag k="name:no" v="Hellelandet" />
		<tag k="name:se" v="Healluidgáddi" />
		<tag k="natural" v="beach" />
		<tag k="old_name:se" v="Hælloidgaddi" />
		<tag k="ssr:stedsnr" v="808391" />
	</node>
	<node lat="70.16984722623475" lon="22.312961055744093" id="-44893">
		<tag k="name" v="Ytre Hamna - Goalvagohppi" />
		<tag k="name:no" v="Ytre Hamna" />
		<tag k="name:se" v="Goalvagohppi" />
		<tag k="natural" v="bay" />
		<tag k="old_name:se" v="Goalvagåppi" />
		<tag k="ssr:stedsnr" v="808405" />
	</node>
	<node lat="70.3231638869762" lon="22.356680515390003" id="-44897">
		<tag k="name" v="Gáicagohppi" />
		<tag k="name:se" v="Gáicagohppi" />
		<tag k="natural" v="bay" />
		<tag k="old_name:se" v="Gaicagåppi" />
		<tag k="ssr:stedsnr" v="809146" />
	</node>
	<node lat="70.32888611386493" lon="21.94886385336477" id="-44903">
		<tag k="name" v="Lørsnes" />
		<tag k="natural" v="cape" />
		<tag k="ssr:stedsnr" v="809297" />
	</node>
	<node lat="70.33644722032545" lon="21.948183305295895" id="-44904">
		<tag k="name" v="Lørsnesbåen" />
		<tag k="natural" v="shoal" />
		<tag k="place" v="locality" />
		<tag k="ssr:stedsnr" v="809299" />
	</node>
	<node lat="70.23096388888614" lon="21.189066639241222" id="-44907">
		<tag k="fixme" v="consider seamark:type=rock or natural=shoal" />
		<tag k="name" v="Brynnilskjæret" />
		<tag k="place" v="islet" />
		<tag k="ssr:stedsnr" v="813390" />
	</node>
	<node lat="70.23500555334432" lon="21.21976942298813" id="-44908">
		<tag k="name" v="Laksvikodden" />
		<tag k="natural" v="cape" />
		<tag k="ssr:stedsnr" v="813394" />
	</node>
	<node lat="70.24309999885105" lon="21.230608295849052" id="-44909">
		<tag k="name" v="Seksfamnersgrunnen" />
		<tag k="natural" v="shoal" />
		<tag k="place" v="locality" />
		<tag k="ssr:stedsnr" v="813445" />
	</node>
	<node lat="70.2657250022681" lon="21.790788841322843" id="-44911">
		<tag k="name" v="Hummelviklandet" />
		<tag k="natural" v="cape" />
		<tag k="ssr:stedsnr" v="817491" />
	</node>
	<node lat="70.29646388616214" lon="22.0099138570851" id="-44912">
		<tag k="name" v="Fjellfinneset" />
		<tag k="natural" v="cape" />
		<tag k="ssr:stedsnr" v="817496" />
	</node>
	<node lat="70.23424722441037" lon="21.784099958523274" id="-44915">
		<tag k="name" v="Breines" />
		<tag k="natural" v="cape" />
		<tag k="ssr:stedsnr" v="818875" />
	</node>
	<node lat="70.28021944198255" lon="21.954963859407815" id="-44917">
		<tag k="name" v="Ulsfjordbotn" />
		<tag k="natural" v="bay" />
		<tag k="ssr:stedsnr" v="821894" />
	</node>
	<node lat="70.2390222212773" lon="21.23705552351247" id="-44919">
		<tag k="name" v="Søroddevik" />
		<tag k="natural" v="bay" />
		<tag k="ssr:stedsnr" v="835189" />
	</node>
	<node lat="70.23801944431953" lon="21.241841635231566" id="-44920">
		<tag k="fixme" v="consider seamark:type=rock or natural=shoal" />
		<tag k="name" v="Kvalhollskjæret" />
		<tag k="place" v="islet" />
		<tag k="ssr:stedsnr" v="835192" />
	</node>
	<node lat="70.24060277877018" lon="21.23585552452613" id="-44921">
		<tag k="fixme" v="consider seamark:type=rock or natural=shoal" />
		<tag k="name" v="Kristiansundskjæret" />
		<tag k="place" v="islet" />
		<tag k="ssr:stedsnr" v="835194" />
	</node>
	<node lat="70.17651666708409" lon="22.32189440674667" id="-44923">
		<tag k="name" v="Leirvika" />
		<tag k="natural" v="bay" />
		<tag k="ssr:stedsnr" v="835275" />
	</node>
	<node lat="70.27636944798763" lon="22.085291623168263" id="-44924">
		<tag k="name" v="Sommarneslandet" />
		<tag k="natural" v="beach" />
		<tag k="ssr:stedsnr" v="835344" />
	</node>
	<node lat="70.2561722204448" lon="21.201349969315064" id="-44927">
		<tag k="name" v="Notlegget" />
		<tag k="natural" v="shoal" />
		<tag k="place" v="locality" />
		<tag k="ssr:stedsnr" v="868268" />
	</node>
	<node lat="70.25861666577009" lon="22.27523328646546" id="-44929">
		<tag k="name" v="Elvvika" />
		<tag k="natural" v="bay" />
		<tag k="ssr:stedsnr" v="869097" />
	</node>
	<node lat="70.20447221833571" lon="21.47211386278859" id="-44933">
		<tag k="alt_name" v="Rennesodden" />
		<tag k="name" v="Revnes" />
		<tag k="natural" v="cape" />
		<tag k="ssr:stedsnr" v="869197" />
	</node>
	<node lat="70.35584999977544" lon="21.383933313716227" id="-44940">
		<tag k="alt_name" v="Svarthellaren" />
		<tag k="name" v="Svarthelleren" />
		<tag k="natural" v="cape" />
		<tag k="ssr:stedsnr" v="869356" />
	</node>
	<node lat="70.26437500489014" lon="21.726652754026404" id="-44943">
		<tag k="name" v="Trettenengneset" />
		<tag k="natural" v="cape" />
		<tag k="ssr:stedsnr" v="870233" />
	</node>
	<node lat="70.28076110860015" lon="21.678958291178134" id="-44944">
		<tag k="alt_name:no" v="Finneset" />
		<tag k="name" v="Finnsnes - Dálvesadji" />
		<tag k="name:no" v="Finnsnes" />
		<tag k="name:se" v="Dálvesadji" />
		<tag k="natural" v="cape" />
		<tag k="old_name:se" v="Dalvesaddji" />
		<tag k="ssr:stedsnr" v="870245" />
	</node>
	<node lat="70.23084444343549" lon="21.207669426298555" id="-44948">
		<tag k="fixme" v="consider seamark:type=rock or natural=shoal" />
		<tag k="name" v="Laukvikskjæret" />
		<tag k="place" v="islet" />
		<tag k="ssr:stedsnr" v="874518" />
	</node>
	<node lat="70.26118333395357" lon="21.01061108682289" id="-44949">
		<tag k="name" v="Steinskallen" />
		<tag k="natural" v="shoal" />
		<tag k="place" v="locality" />
		<tag k="ssr:stedsnr" v="874498" />
	</node>
	<node lat="70.31834722030521" lon="21.537558306723618" id="-44951">
		<tag k="name" v="Søndre Bankekeila" />
		<tag k="natural" v="bay" />
		<tag k="ssr:stedsnr" v="878884" />
	</node>
	<node lat="70.33035833327979" lon="21.434780538802304" id="-44952">
		<tag k="name" v="Sanden" />
		<tag k="natural" v="bay" />
		<tag k="ssr:stedsnr" v="883934" />
	</node>
	<node lat="70.17312500042901" lon="22.311269392011916" id="-44954">
		<tag k="name" v="Ramnøy" />
		<tag k="natural" v="cape" />
		<tag k="ssr:stedsnr" v="884291" />
	</node>
	<node lat="70.12066111021312" lon="22.527341608109477" id="-44955">
		<tag k="name" v="Midtnes" />
		<tag k="natural" v="cape" />
		<tag k="ssr:stedsnr" v="884292" />
	</node>
	<node lat="70.32681666912465" lon="21.573161068740347" id="-44960">
		<tag k="name" v="Søndre Marholmen" />
		<tag k="place" v="islet" />
		<tag k="ssr:stedsnr" v="940594" />
	</node>
	<node lat="70.23677777554069" lon="22.08346940381815" id="-44962">
		<tag k="bay" v="fjord" />
		<tag k="name" v="Sørfjorden" />
		<tag k="natural" v="bay" />
		<tag k="ssr:stedsnr" v="943409" />
	</node>
	<node lat="70.2603305583097" lon="21.429638874549788" id="-44963">
		<tag k="name" v="Ørntuva" />
		<tag k="natural" v="cape" />
		<tag k="ssr:stedsnr" v="944562" />
	</node>
	<node lat="70.30995555678976" lon="22.006108292816663" id="-44964">
		<tag k="name" v="Eddisbukta" />
		<tag k="natural" v="bay" />
		<tag k="ssr:stedsnr" v="943879" />
	</node>
	<node lat="70.26361111464252" lon="21.61034997437113" id="-44966">
		<tag k="name" v="Sandlandsbukta" />
		<tag k="natural" v="bay" />
		<tag k="ssr:stedsnr" v="944527" />
	</node>
	<node lat="70.36510000058627" lon="21.448105534007016" id="-44967">
		<tag k="name" v="Krakodden" />
		<tag k="natural" v="cape" />
		<tag k="ssr:stedsnr" v="956133" />
	</node>
	<node lat="70.2186750014664" lon="22.23149160915972" id="-44968">
		<tag k="name" v="Tverrfjordbotn" />
		<tag k="natural" v="bay" />
		<tag k="ssr:stedsnr" v="956143" />
=======
	<node id="-900254" lat="70.3707388862" lon="21.4185027522">
		<tag k="name" v="Storskardet" />
		<tag k="natural" v="bay" />
		<tag k="ssr:stedsnr" v="747312" />
	</node>
	<node id="-900253" lat="70.3462583299" lon="21.4462527511">
		<tag k="alt_name" v="Meværet" />
		<tag k="name" v="Meværbukta" />
		<tag k="natural" v="bay" />
		<tag k="ssr:stedsnr" v="747303" />
	</node>
	<node id="-900250" lat="70.2329916667" lon="22.270055504">
		<tag k="name" v="Sennabukt" />
		<tag k="natural" v="bay" />
		<tag k="ssr:stedsnr" v="896640" />
	</node>
	<node id="-900249" lat="70.1570777762" lon="22.2990554925">
		<tag k="name" v="Gamvik" />
		<tag k="natural" v="bay" />
		<tag k="ssr:stedsnr" v="896505" />
	</node>
	<node id="-900248" lat="70.1754444472" lon="22.3117582905">
		<tag k="fixme" v="consider seamark:type=rock or natural=shoal" />
		<tag k="name" v="Ranhaugskjæret" />
		<tag k="place" v="islet" />
		<tag k="ssr:stedsnr" v="896260" />
	</node>
	<node id="-900246" lat="70.3889944491" lon="21.4311416491">
		<tag k="name" v="Joholla" />
		<tag k="natural" v="bay" />
		<tag k="ssr:stedsnr" v="896105" />
	</node>
	<node id="-900244" lat="70.2330277752" lon="21.2114916452">
		<tag k="fixme" v="consider seamark:type=rock or natural=shoal" />
		<tag k="name" v="Tømmervikskjæret" />
		<tag k="place" v="islet" />
		<tag k="ssr:stedsnr" v="895205" />
	</node>
	<node id="-900241" lat="70.2068944436" lon="22.2682388521">
		<tag k="name" v="Skredholla" />
		<tag k="natural" v="bay" />
		<tag k="ssr:stedsnr" v="713447" />
	</node>
	<node id="-900237" lat="70.28576389" lon="21.5648694179">
		<tag k="name" v="Persneset" />
		<tag k="natural" v="cape" />
		<tag k="ssr:stedsnr" v="697604" />
	</node>
	<node id="-900235" lat="70.2638055573" lon="21.1552194316">
		<tag k="name" v="Amundsbåen" />
		<tag k="place" v="locality" />
		<tag k="seamark:type" v="rock" />
		<tag k="ssr:stedsnr" v="692459" />
	</node>
	<node id="-900234" lat="70.2955694426" lon="21.2218971924">
		<tag k="name" v="Lille-Kjelhaugen" />
		<tag k="natural" v="shoal" />
		<tag k="place" v="locality" />
		<tag k="ssr:stedsnr" v="692458" />
	</node>
	<node id="-900233" lat="70.230902783" lon="21.2131638585">
		<tag k="name" v="Svartoksen" />
		<tag k="natural" v="bay" />
		<tag k="ssr:stedsnr" v="692424" />
	</node>
	<node id="-900232" lat="70.1206611102" lon="22.5273416081">
		<tag k="name" v="Midtnes" />
		<tag k="natural" v="cape" />
		<tag k="ssr:stedsnr" v="884292" />
	</node>
	<node id="-900231" lat="70.1731250004" lon="22.311269392">
		<tag k="name" v="Ramnøy" />
		<tag k="natural" v="cape" />
		<tag k="ssr:stedsnr" v="884291" />
	</node>
	<node id="-900229" lat="70.3303583333" lon="21.4347805388">
		<tag k="name" v="Sanden" />
		<tag k="natural" v="bay" />
		<tag k="ssr:stedsnr" v="883934" />
	</node>
	<node id="-900226" lat="70.3183472203" lon="21.5375583067">
		<tag k="name" v="Søndre Bankekeila" />
		<tag k="natural" v="bay" />
		<tag k="ssr:stedsnr" v="878884" />
	</node>
	<node id="-900224" lat="70.275722221" lon="22.1111749625">
		<tag k="name" v="Storskolten" />
		<tag k="natural" v="cape" />
		<tag k="ssr:stedsnr" v="878569" />
	</node>
	<node id="-900220" lat="70.1827000011" lon="22.3264666146">
		<tag k="name" v="Fruvika" />
		<tag k="natural" v="bay" />
		<tag k="ssr:stedsnr" v="652338" />
	</node>
	<node id="-900219" lat="70.1868777762" lon="22.3301721814">
		<tag k="name" v="Tønnes" />
		<tag k="natural" v="cape" />
		<tag k="ssr:stedsnr" v="652336" />
	</node>
	<node id="-900217" lat="70.1879722275" lon="22.2969277337">
		<tag k="bay" v="fjord" />
		<tag k="name" v="Øksfjorden - Ákšovuotna" />
		<tag k="name:no" v="Øksfjorden" />
		<tag k="name:se" v="Ákšovuotna" />
		<tag k="natural" v="bay" />
		<tag k="old_name:se" v="Akšuvuodna" />
		<tag k="ssr:stedsnr" v="627463" />
	</node>
	<node id="-900216" lat="70.1346388889" lon="22.2700832904">
		<tag k="name" v="Sommarneset - Lássánjárga" />
		<tag k="name:no" v="Sommarneset" />
		<tag k="name:se" v="Lássánjárga" />
		<tag k="natural" v="cape" />
		<tag k="old_name:se" v="Lassanjarga" />
		<tag k="ssr:stedsnr" v="627462" />
	</node>
	<node id="-900215" lat="70.213499998" lon="21.7897027498">
		<tag k="bay" v="fjord" />
		<tag k="name" v="Langfjorden - Stuoravuotna" />
		<tag k="name:no" v="Langfjorden" />
		<tag k="name:se" v="Stuoravuotna" />
		<tag k="natural" v="bay" />
		<tag k="old_name:se" v="Stuoravuodna" />
		<tag k="ssr:stedsnr" v="627518" />
	</node>
	<node id="-900214" lat="70.2715222219" lon="22.1339888502">
		<tag k="name" v="Storsanden" />
		<tag k="natural" v="cape" />
		<tag k="ssr:stedsnr" v="714283" />
	</node>
	<node id="-900213" lat="70.1495944458" lon="22.4382055018">
		<tag k="name" v="Storvika" />
		<tag k="natural" v="bay" />
		<tag k="ssr:stedsnr" v="713541" />
	</node>
	<node id="-900212" lat="70.1404083338" lon="22.4769277238">
		<tag k="name" v="Buktaklubben" />
		<tag k="natural" v="cape" />
		<tag k="ssr:stedsnr" v="713533" />
	</node>
	<node id="-900210" lat="70.2497888924" lon="21.2709082961">
		<tag k="name" v="Nordlundkeila" />
		<tag k="natural" v="bay" />
		<tag k="ssr:stedsnr" v="713190" />
	</node>
	<node id="-900209" lat="70.2420138899" lon="21.2528610928">
		<tag k="name" v="Bollvika" />
		<tag k="natural" v="bay" />
		<tag k="ssr:stedsnr" v="713188" />
	</node>
	<node id="-900204" lat="70.241516668" lon="21.249408314">
		<tag k="alt_name" v="Bollvikodden" />
		<tag k="name" v="Nordodden" />
		<tag k="natural" v="cape" />
		<tag k="ssr:stedsnr" v="701639" />
	</node>
	<node id="-900203" lat="70.1975138938" lon="22.2672110541">
		<tag k="fixme" v="consider seamark:type=rock or natural=shoal" />
		<tag k="name" v="Hellandskjæret" />
		<tag k="place" v="islet" />
		<tag k="ssr:stedsnr" v="701349" />
	</node>
	<node id="-900201" lat="70.3193638861" lon="21.5463944122">
		<tag k="name" v="Nordre Bankekeila" />
		<tag k="natural" v="bay" />
		<tag k="ssr:stedsnr" v="696861" />
	</node>
	<node id="-900200" lat="70.2470111131" lon="21.2636860787">
		<tag k="name" v="Sørlundkeila" />
		<tag k="natural" v="bay" />
		<tag k="ssr:stedsnr" v="531186" />
	</node>
	<node id="-900198" lat="70.2850999983" lon="21.9521416206">
		<tag k="name" v="Torbenes" />
		<tag k="natural" v="cape" />
		<tag k="ssr:stedsnr" v="688271" />
	</node>
	<node id="-900192" lat="70.1519000039" lon="22.4290999477">
		<tag k="alt_name" v="Rypnes" />
		<tag k="name" v="Rypenes" />
		<tag k="natural" v="cape" />
		<tag k="ssr:stedsnr" v="687427" />
	</node>
	<node id="-900191" lat="70.1293083351" lon="22.3298499412">
		<tag k="name" v="Kolsokkerbukta" />
		<tag k="natural" v="bay" />
		<tag k="ssr:stedsnr" v="687419" />
	</node>
	<node id="-900186" lat="70.2484861128" lon="21.7684888599">
		<tag k="name" v="Langholmen" />
		<tag k="place" v="islet" />
		<tag k="ssr:stedsnr" v="687366" />
	</node>
	<node id="-900185" lat="70.2482888907" lon="21.6687610878">
		<tag k="alt_name" v="Bjørnvika, yt" />
		<tag k="name" v="Ytre Bjørnvika" />
		<tag k="natural" v="bay" />
		<tag k="ssr:stedsnr" v="687365" />
	</node>
	<node id="-900183" lat="70.3016444425" lon="21.3880555157">
		<tag k="fixme" v="multiple name tags, choose one and add the other to alt_name" />
		<tag k="name" v="Kalvodden;Mariliodden" />
		<tag k="natural" v="cape" />
		<tag k="ssr:stedsnr" v="687341" />
	</node>
	<node id="-900182" lat="70.2977333357" lon="21.4743444192">
		<tag k="name" v="Meurtan" />
		<tag k="natural" v="cape" />
		<tag k="ssr:stedsnr" v="687337" />
	</node>
	<node id="-900180" lat="70.3492666633" lon="21.3899388601">
		<tag k="alt_name" v="Singsodden" />
		<tag k="name" v="Sfingsodden" />
		<tag k="natural" v="cape" />
		<tag k="ssr:stedsnr" v="687326" />
	</node>
	<node id="-900178" lat="70.3306416642" lon="21.4150249708">
		<tag k="alt_name" v="Rosmålvika;Rossmollvika" />
		<tag k="name" v="Rossmolvika" />
		<tag k="natural" v="bay" />
		<tag k="ssr:stedsnr" v="687319" />
	</node>
	<node id="-900177" lat="70.3328444454" lon="21.3967999722">
		<tag k="alt_name" v="Rektindnes" />
		<tag k="name" v="Rektindneset" />
		<tag k="natural" v="cape" />
		<tag k="ssr:stedsnr" v="687313" />
	</node>
	<node id="-900175" lat="70.2733416665" lon="21.4158527566">
		<tag k="alt_name" v="Kjerrisneset" />
		<tag k="name" v="Kjæresnes" />
		<tag k="natural" v="cape" />
		<tag k="ssr:stedsnr" v="687291" />
	</node>
	<node id="-900172" lat="70.3592333352" lon="21.6878832972">
		<tag k="name" v="Kråa" />
		<tag k="natural" v="bay" />
		<tag k="ssr:stedsnr" v="687254" />
	</node>
	<node id="-900169" lat="70.3433111113" lon="21.8067833105">
		<tag k="name" v="Kleivneset" />
		<tag k="natural" v="cape" />
		<tag k="ssr:stedsnr" v="687247" />
	</node>
	<node id="-900167" lat="70.265758335" lon="22.2858888531">
		<tag k="name" v="Russeberget" />
		<tag k="natural" v="cape" />
		<tag k="ssr:stedsnr" v="687101" />
	</node>
	<node id="-900166" lat="70.2428000004" lon="22.2743194045">
		<tag k="name" v="Skatvikneset" />
		<tag k="natural" v="cape" />
		<tag k="ssr:stedsnr" v="686500" />
	</node>
	<node id="-900162" lat="70.2325499969" lon="22.3354999544">
		<tag k="alt_name" v="Finnes" />
		<tag k="name" v="Finneset" />
		<tag k="natural" v="cape" />
		<tag k="ssr:stedsnr" v="686392" />
	</node>
	<node id="-900161" lat="70.2239027753" lon="22.2683971847">
		<tag k="name" v="Tverrfjordneset - Doaresvuonnjárga" />
		<tag k="name:no" v="Tverrfjordneset" />
		<tag k="name:se" v="Doaresvuonnjárga" />
		<tag k="natural" v="cape" />
		<tag k="old_name:se" v="Doaresvuonnjarga" />
		<tag k="ssr:stedsnr" v="686388" />
	</node>
	<node id="-900153" lat="70.3118555607" lon="21.5648166312">
		<tag k="name" v="Stellet" />
		<tag k="natural" v="beach" />
		<tag k="place" v="locality" />
		<tag k="ssr:stedsnr" v="515629" />
	</node>
	<node id="-900152" lat="70.2327138884" lon="21.7880833021">
		<tag k="name" v="Kuveien" />
		<tag k="natural" v="cape" />
		<tag k="ssr:stedsnr" v="514853" />
	</node>
	<node id="-900150" lat="70.2360888933" lon="21.2379222102">
		<tag k="name" v="Andsneskeila" />
		<tag k="natural" v="bay" />
		<tag k="ssr:stedsnr" v="510506" />
	</node>
	<node id="-900149" lat="70.2399083318" lon="21.2321694131">
		<tag k="name" v="Andsnesodden" />
		<tag k="natural" v="cape" />
		<tag k="ssr:stedsnr" v="504105" />
	</node>
	<node id="-900147" lat="70.210800002" lon="21.8281027456">
		<tag k="name" v="Neset" />
		<tag k="natural" v="cape" />
		<tag k="ssr:stedsnr" v="445524" />
	</node>
	<node id="-900146" lat="70.2630138927" lon="21.7023194096">
		<tag k="name" v="Vassvik" />
		<tag k="natural" v="bay" />
		<tag k="ssr:stedsnr" v="445213" />
	</node>
	<node id="-900145" lat="70.3090027785" lon="22.3832610521">
		<tag k="name" v="Flatberget" />
		<tag k="natural" v="cape" />
		<tag k="ssr:stedsnr" v="445124" />
	</node>
	<node id="-900139" lat="70.2281750016" lon="21.1390583117">
		<tag k="name" v="Øver-Brynnilskallen" />
		<tag k="natural" v="shoal" />
		<tag k="place" v="locality" />
		<tag k="ssr:stedsnr" v="510500" />
	</node>
	<node id="-900138" lat="70.3189805557" lon="21.1170610946">
		<tag k="name" v="Kvænangsgrunnen" />
		<tag k="natural" v="shoal" />
		<tag k="place" v="locality" />
		<tag k="ssr:stedsnr" v="510488" />
	</node>
	<node id="-900137" lat="70.3328638881" lon="21.1384388577">
		<tag k="name" v="Peder Hansaskallen" />
		<tag k="natural" v="shoal" />
		<tag k="place" v="locality" />
		<tag k="ssr:stedsnr" v="510484" />
	</node>
	<node id="-900126" lat="70.2554861109" lon="22.3838194053">
		<tag k="name" v="Grasdalsbukta - Rássevákkeluokta" />
		<tag k="name:no" v="Grasdalsbukta" />
		<tag k="name:se" v="Rássevákkeluokta" />
		<tag k="natural" v="bay" />
		<tag k="ssr:stedsnr" v="505098" />
	</node>
	<node id="-900124" lat="70.2438999988" lon="22.2703749521">
		<tag k="name" v="Skatvika" />
		<tag k="natural" v="bay" />
		<tag k="ssr:stedsnr" v="504484" />
	</node>
	<node id="-900123" lat="70.1461222263" lon="22.44482496">
		<tag k="name" v="Hesjenes - Skadjanjárga" />
		<tag k="name:no" v="Hesjenes" />
		<tag k="name:se" v="Skadjanjárga" />
		<tag k="natural" v="cape" />
		<tag k="old_name:se" v="Skaddjanjarga" />
		<tag k="ssr:stedsnr" v="504430" />
	</node>
	<node id="-900122" lat="70.1334527806" lon="22.5020666065">
		<tag k="name" v="Hamnebukta" />
		<tag k="natural" v="bay" />
		<tag k="ssr:stedsnr" v="504415" />
	</node>
	<node id="-900121" lat="70.1554638881" lon="22.2370499415">
		<tag k="name" v="Arnnesbukta - Báhccavuotna" />
		<tag k="name:no" v="Arnnesbukta" />
		<tag k="name:se" v="Báhccavuotna" />
		<tag k="natural" v="bay" />
		<tag k="old_name:se" v="Baccavuodna" />
		<tag k="ssr:stedsnr" v="504403" />
	</node>
	<node id="-900120" lat="70.198408338" lon="22.334116628">
		<tag k="name" v="Danielsbukt - Dánelgohppi" />
		<tag k="name:no" v="Danielsbukt" />
		<tag k="name:se" v="Dánelgohppi" />
		<tag k="natural" v="bay" />
		<tag k="old_name:se" v="Danelgåppi" />
		<tag k="ssr:stedsnr" v="504392" />
	</node>
	<node id="-900119" lat="70.2309944424" lon="22.2694832867">
		<tag k="alt_name" v="Sirines" />
		<tag k="name" v="Sirineset" />
		<tag k="natural" v="cape" />
		<tag k="ssr:stedsnr" v="504379" />
	</node>
	<node id="-900116" lat="70.3892666694" lon="21.4332833112">
		<tag k="name" v="Skagsodden" />
		<tag k="natural" v="cape" />
		<tag k="ssr:stedsnr" v="504349" />
	</node>
	<node id="-900113" lat="70.2476333372" lon="21.7747416423">
		<tag k="name" v="Kuholmen" />
		<tag k="place" v="islet" />
		<tag k="ssr:stedsnr" v="504342" />
	</node>
	<node id="-900108" lat="70.1692250061" lon="21.8300943999">
		<tag k="name" v="Grønneset" />
		<tag k="natural" v="cape" />
		<tag k="ssr:stedsnr" v="504226" />
	</node>
	<node id="-900107" lat="70.3339361113" lon="21.5792166307">
		<tag k="name" v="Bragnelen" />
		<tag k="natural" v="beach" />
		<tag k="place" v="locality" />
		<tag k="ssr:stedsnr" v="394603" />
	</node>
	<node id="-900103" lat="70.2268055601" lon="21.1842944302">
		<tag k="name" v="Brynnilen - Brunjal" />
		<tag k="name:no" v="Brynnilen" />
		<tag k="name:se" v="Brunjal" />
		<tag k="place" v="island" />
		<tag k="ssr:stedsnr" v="388455" />
	</node>
	<node id="-900102" lat="70.3130388939" lon="22.0686943996">
		<tag k="name" v="Nuven" />
		<tag k="natural" v="cape" />
		<tag k="ssr:stedsnr" v="384287" />
	</node>
	<node id="-900098" lat="70.3361527804" lon="21.584419414">
		<tag k="name" v="Nordholmodden" />
		<tag k="natural" v="cape" />
		<tag k="ssr:stedsnr" v="333608" />
	</node>
	<node id="-900097" lat="70.2952111131" lon="21.5573888716">
		<tag k="name" v="Hundbergodden" />
		<tag k="natural" v="cape" />
		<tag k="ssr:stedsnr" v="332838" />
	</node>
	<node id="-900096" lat="70.2619749967" lon="21.6098583051">
		<tag k="name" v="Sandlandsanden" />
		<tag k="natural" v="beach" />
		<tag k="place" v="locality" />
		<tag k="ssr:stedsnr" v="332829" />
	</node>
	<node id="-900095" lat="70.2600972262" lon="22.3663582887">
		<tag k="fixme" v="consider seamark:type=rock or natural=shoal" />
		<tag k="name" v="Småskjæran" />
		<tag k="place" v="islet" />
		<tag k="ssr:stedsnr" v="323107" />
	</node>
	<node id="-900094" lat="70.2429666652" lon="21.2381083066">
		<tag k="name" v="Grunnflua" />
		<tag k="natural" v="shoal" />
		<tag k="place" v="locality" />
		<tag k="ssr:stedsnr" v="519595" />
	</node>
	<node id="-900092" lat="70.1823888907" lon="22.2508721654">
		<tag k="name" v="Olabukta" />
		<tag k="natural" v="bay" />
		<tag k="ssr:stedsnr" v="471436" />
	</node>
	<node id="-900083" lat="70.3308361116" lon="21.578063865">
		<tag k="name" v="Midtholmen" />
		<tag k="place" v="islet" />
		<tag k="ssr:stedsnr" v="273612" />
	</node>
	<node id="-900082" lat="70.3431444461" lon="21.464111087">
		<tag k="name" v="Mønesodden" />
		<tag k="natural" v="cape" />
		<tag k="ssr:stedsnr" v="458523" />
	</node>
	<node id="-900081" lat="70.2553666679" lon="21.7603582946">
		<tag k="fixme" v="consider seamark:type=rock or natural=shoal" />
		<tag k="name" v="Løktholmskjæret" />
		<tag k="place" v="islet" />
		<tag k="ssr:stedsnr" v="271909" />
	</node>
	<node id="-900080" lat="70.2630444458" lon="22.1068249517">
		<tag k="name" v="Hansanes" />
		<tag k="natural" v="cape" />
		<tag k="ssr:stedsnr" v="458441" />
	</node>
	<node id="-900078" lat="70.2319583321" lon="21.2141638708">
		<tag k="name" v="Svartoksen" />
		<tag k="natural" v="cape" />
		<tag k="ssr:stedsnr" v="458132" />
	</node>
	<node id="-900073" lat="70.2353277809" lon="21.7850194225">
		<tag k="name" v="Sundby" />
		<tag k="natural" v="bay" />
		<tag k="ssr:stedsnr" v="454885" />
	</node>
	<node id="-900071" lat="70.2232527749" lon="21.1930527417">
		<tag k="name" v="Brynnilsundet" />
		<tag k="natural" v="strait" />
		<tag k="ssr:stedsnr" v="449487" />
	</node>
	<node id="-900070" lat="70.2340944449" lon="21.2232972058">
		<tag k="name" v="Laksvika" />
		<tag k="natural" v="bay" />
		<tag k="ssr:stedsnr" v="449472" />
	</node>
	<node id="-900069" lat="70.2467250007" lon="21.2001610754">
		<tag k="name" v="Skjervøybåen" />
		<tag k="place" v="locality" />
		<tag k="seamark:type" v="rock" />
		<tag k="ssr:stedsnr" v="449455" />
	</node>
	<node id="-900066" lat="70.3616666697" lon="21.7762388579">
		<tag k="name" v="Kvalmanneset" />
		<tag k="natural" v="cape" />
		<tag k="ssr:stedsnr" v="445269" />
	</node>
	<node id="-900062" lat="70.2581027779" lon="22.4157693814">
		<tag k="fixme" v="consider seamark:type=rock or natural=shoal" />
		<tag k="name" v="Skarvskjæret" />
		<tag k="place" v="islet" />
		<tag k="ssr:stedsnr" v="445096" />
	</node>
	<node id="-900061" lat="70.1601277807" lon="22.6633221576">
		<tag k="name" v="Joahkonjárga" />
		<tag k="name:se" v="Joahkonjárga" />
		<tag k="natural" v="cape" />
		<tag k="old_name:se" v="Joakkunjarga" />
		<tag k="ssr:stedsnr" v="444650" />
	</node>
	<node id="-900059" lat="70.1187666672" lon="22.5172944011">
		<tag k="name" v="Mulju" />
		<tag k="name:se" v="Mulju" />
		<tag k="natural" v="cape" />
		<tag k="old_name:se" v="Muljo" />
		<tag k="ssr:stedsnr" v="444534" />
	</node>
	<node id="-900057" lat="70.1027722197" lon="22.5854166089">
		<tag k="name" v="Rivarbukteidet - Vuojatluovttmuotki" />
		<tag k="name:no" v="Rivarbukteidet" />
		<tag k="name:se" v="Vuojatluovttmuotki" />
		<tag k="old_name:se" v="Vuojatluovtmuotki" />
		<tag k="place" v="locality" />
		<tag k="ssr:stedsnr" v="444527" />
	</node>
	<node id="-900052" lat="70.1335500031" lon="22.4279999563">
		<tag k="alt_name" v="Skognes, l" />
		<tag k="name" v="Lille Skogneset" />
		<tag k="natural" v="cape" />
		<tag k="ssr:stedsnr" v="444404" />
	</node>
	<node id="-900044" lat="70.2950527755" lon="21.657872178">
		<tag k="bay" v="fjord" />
		<tag k="name" v="Sandlandsfjorden" />
		<tag k="natural" v="bay" />
		<tag k="ssr:stedsnr" v="444300" />
	</node>
	<node id="-900039" lat="70.1357944484" lon="22.2136416315">
		<tag k="name" v="Steinkjøsen - Livcu" />
		<tag k="name:no" v="Steinkjøsen" />
		<tag k="name:se" v="Livcu" />
		<tag k="natural" v="bay" />
		<tag k="old_name:se" v="Livco" />
		<tag k="ssr:stedsnr" v="444257" />
	</node>
	<node id="-900035" lat="70.2547749981" lon="22.1076110703">
		<tag k="alt_name" v="Bukkenes" />
		<tag k="name" v="Bukkeneset" />
		<tag k="natural" v="cape" />
		<tag k="ssr:stedsnr" v="444193" />
	</node>
	<node id="-900034" lat="70.2545916717" lon="21.7629777478">
		<tag k="name" v="Lyktholmen" />
		<tag k="place" v="islet" />
		<tag k="ssr:stedsnr" v="444192" />
	</node>
	<node id="-900029" lat="70.2234666657" lon="21.1993527631">
		<tag k="name" v="Skomakarbukta" />
		<tag k="natural" v="bay" />
		<tag k="ssr:stedsnr" v="444119" />
	</node>
	<node id="-900027" lat="70.1603638905" lon="22.2985249459">
		<tag k="name" v="Steinbukta" />
		<tag k="natural" v="bay" />
		<tag k="ssr:stedsnr" v="228254" />
	</node>
	<node id="-900025" lat="70.3459583346" lon="21.4397472024">
		<tag k="name" v="Pina" />
		<tag k="natural" v="beach" />
		<tag k="place" v="locality" />
		<tag k="ssr:stedsnr" v="228161" />
	</node>
	<node id="-900023" lat="70.3850972224" lon="21.4377582947">
		<tag k="name" v="Stiodden" />
		<tag k="natural" v="cape" />
		<tag k="ssr:stedsnr" v="228123" />
	</node>
	<node id="-900021" lat="70.1627638938" lon="22.2964832878">
		<tag k="alt_name:no" v="Bardines" />
		<tag k="name" v="Bardineset - Bárdi" />
		<tag k="name:no" v="Bardineset" />
		<tag k="name:se" v="Bárdi" />
		<tag k="natural" v="cape" />
		<tag k="ssr:stedsnr" v="216312" />
	</node>
	<node id="-900019" lat="70.3180194444" lon="21.581613859">
		<tag k="bay" v="fjord" />
		<tag k="name" v="Bogfjorden" />
		<tag k="natural" v="bay" />
		<tag k="ssr:stedsnr" v="212510" />
	</node>
	<node id="-900017" lat="70.2944166639" lon="21.7734277398">
		<tag k="name" v="Johkagohppi" />
		<tag k="name:se" v="Johkagohppi" />
		<tag k="natural" v="bay" />
		<tag k="old_name:se" v="Jåkkagåppi" />
		<tag k="ssr:stedsnr" v="202237" />
	</node>
	<node id="-900007" lat="70.2207416691" lon="22.2478499556">
		<tag k="name" v="Sandnes" />
		<tag k="natural" v="cape" />
		<tag k="ssr:stedsnr" v="289448" />
	</node>
	<node id="-900006" lat="70.28446389" lon="22.0977249585">
		<tag k="fixme" v="consider seamark:type=rock or natural=shoal" />
		<tag k="name" v="Sommarnesskjæret" />
		<tag k="place" v="islet" />
		<tag k="ssr:stedsnr" v="289326" />
	</node>
	<node id="-900001" lat="70.1231555596" lon="22.4936499395">
		<tag k="name" v="Holmbukt" />
		<tag k="natural" v="bay" />
		<tag k="ssr:stedsnr" v="167653" />
	</node>
	<node id="-900000" lat="70.1484750059" lon="22.4391832763">
		<tag k="name" v="Storvikklubben" />
		<tag k="natural" v="cape" />
		<tag k="ssr:stedsnr" v="167568" />
	</node>
	<node id="-899999" lat="70.1387666679" lon="22.3906305052">
		<tag k="name" v="Store Skognesbukt" />
		<tag k="natural" v="bay" />
		<tag k="ssr:stedsnr" v="167554" />
	</node>
	<node id="-899998" lat="70.158755557" lon="22.2991082772">
		<tag k="name" v="Gamviknes" />
		<tag k="natural" v="cape" />
		<tag k="ssr:stedsnr" v="167268" />
	</node>
	<node id="-899997" lat="70.1816416656" lon="22.2500888333">
		<tag k="name" v="Lona" />
		<tag k="natural" v="cape" />
		<tag k="ssr:stedsnr" v="277251" />
	</node>
	<node id="-899996" lat="70.2426000041" lon="21.7125777425">
		<tag k="name" v="Teistodden" />
		<tag k="natural" v="cape" />
		<tag k="ssr:stedsnr" v="276208" />
	</node>
	<node id="-899995" lat="70.3248861111" lon="21.5683694148">
		<tag k="name" v="Holmsundet" />
		<tag k="natural" v="strait" />
		<tag k="ssr:stedsnr" v="151611" />
	</node>
	<node id="-899994" lat="70.2476250027" lon="22.3455805174">
		<tag k="name" v="Saltnesvika" />
		<tag k="natural" v="bay" />
		<tag k="ssr:stedsnr" v="274744" />
	</node>
	<node id="-899992" lat="70.3091472225" lon="21.2298944327">
		<tag k="name" v="Kalvbåen" />
		<tag k="place" v="locality" />
		<tag k="seamark:type" v="rock" />
		<tag k="ssr:stedsnr" v="145475" />
	</node>
	<node id="-899991" lat="70.2303694438" lon="21.7960860781">
		<tag k="name" v="Fruvika" />
		<tag k="natural" v="bay" />
		<tag k="ssr:stedsnr" v="272840" />
	</node>
	<node id="-899986" lat="70.3265138901" lon="21.9393582977">
		<tag k="name" v="Lávvordatnjárga" />
		<tag k="name:se" v="Lávvordatnjárga" />
		<tag k="natural" v="cape" />
		<tag k="old_name:se" v="Lavvurdatnjarga" />
		<tag k="ssr:stedsnr" v="263314" />
	</node>
	<node id="-899983" lat="70.3105222195" lon="22.0437999704">
		<tag k="name" v="Nuvnes - Junttenjárga" />
		<tag k="name:no" v="Nuvnes" />
		<tag k="name:se" v="Junttenjárga" />
		<tag k="natural" v="cape" />
		<tag k="old_name:se" v="Juntenjarga" />
		<tag k="ssr:stedsnr" v="263305" />
	</node>
	<node id="-899982" lat="70.2950277804" lon="22.0888110789">
		<tag k="alt_name" v="Mollvika, store" />
		<tag k="name" v="Store Mollvika" />
		<tag k="natural" v="bay" />
		<tag k="ssr:stedsnr" v="263278" />
	</node>
	<node id="-899981" lat="70.3413583322" lon="22.3006916257">
		<tag k="name" v="Eggegrunnen" />
		<tag k="natural" v="shoal" />
		<tag k="place" v="locality" />
		<tag k="ssr:stedsnr" v="263169" />
	</node>
	<node id="-899980" lat="70.3241611082" lon="22.3384499566">
		<tag k="name" v="Kariholmgrunnen" />
		<tag k="natural" v="shoal" />
		<tag k="place" v="locality" />
		<tag k="ssr:stedsnr" v="263157" />
	</node>
	<node id="-899978" lat="70.1276750037" lon="22.4656860706">
		<tag k="name" v="Kåvikneset" />
		<tag k="natural" v="cape" />
		<tag k="ssr:stedsnr" v="262570" />
	</node>
	<node id="-899977" lat="70.1230305582" lon="22.5206471691">
		<tag k="name" v="Storsteinnes" />
		<tag k="natural" v="cape" />
		<tag k="ssr:stedsnr" v="262564" />
	</node>
	<node id="-899975" lat="70.2491527833" lon="22.3453360684">
		<tag k="name" v="Saltnes" />
		<tag k="natural" v="cape" />
		<tag k="ssr:stedsnr" v="262517" />
	</node>
	<node id="-899974" lat="70.1547055538" lon="22.3614193914">
		<tag k="name" v="Slåppa - Riiddiidgáddi" />
		<tag k="name:no" v="Slåppa" />
		<tag k="name:se" v="Riiddiidgáddi" />
		<tag k="natural" v="beach" />
		<tag k="old_name:se" v="Riidiidgaddi" />
		<tag k="place" v="locality" />
		<tag k="ssr:stedsnr" v="262445" />
	</node>
	<node id="-899970" lat="70.2087499999" lon="22.3365999438">
		<tag k="alt_name" v="Sommarnes" />
		<tag k="name" v="Sommarneset" />
		<tag k="natural" v="cape" />
		<tag k="ssr:stedsnr" v="262417" />
	</node>
	<node id="-899966" lat="70.3586444446" lon="21.4138999737">
		<tag k="name" v="Loppa - Láhppi" />
		<tag k="name:no" v="Loppa" />
		<tag k="name:se" v="Láhppi" />
		<tag k="old_name:se" v="Lappi" />
		<tag k="place" v="island" />
		<tag k="ssr:stedsnr" v="262312" />
	</node>
	<node id="-899963" lat="70.1759833349" lon="21.7939749591">
		<tag k="alt_name" v="Trolldalsbukta, yt" />
		<tag k="name" v="Ytre Trolldalsbukta" />
		<tag k="natural" v="bay" />
		<tag k="ssr:stedsnr" v="262265" />
	</node>
	<node id="-899956" lat="70.2543999985" lon="21.7175971888">
		<tag k="name" v="Storvika" />
		<tag k="natural" v="bay" />
		<tag k="ssr:stedsnr" v="262214" />
	</node>
	<node id="-899954" lat="70.2610972271" lon="21.7735527526">
		<tag k="fixme" v="consider seamark:type=rock or natural=shoal" />
		<tag k="name" v="Fluskjæret" />
		<tag k="place" v="islet" />
		<tag k="ssr:stedsnr" v="262211" />
	</node>
	<node id="-899951" lat="70.2428999995" lon="21.494677736">
		<tag k="name" v="Langstrand" />
		<tag k="natural" v="beach" />
		<tag k="place" v="locality" />
		<tag k="ssr:stedsnr" v="262140" />
	</node>
	<node id="-899948" lat="70.281341669" lon="22.274061065">
		<tag k="name" v="Sandbukta - Čeavrresgohppi" />
		<tag k="name:no" v="Sandbukta" />
		<tag k="name:se" v="Čeavrresgohppi" />
		<tag k="natural" v="bay" />
		<tag k="old_name:se" v="Čævresgåppi" />
		<tag k="ssr:stedsnr" v="262096" />
	</node>
	<node id="-899947" lat="70.2605027773" lon="22.356869408">
		<tag k="name" v="Ystnesholmen" />
		<tag k="natural" v="cape" />
		<tag k="old_name" v="Ysnesholmen" />
		<tag k="ssr:stedsnr" v="262081" />
	</node>
	<node id="-899945" lat="70.1539611156" lon="21.8538444008">
		<tag k="name" v="Hjellnes" />
		<tag k="natural" v="cape" />
		<tag k="ssr:stedsnr" v="261270" />
	</node>
	<node id="-899944" lat="70.1612277778" lon="22.2894666259">
		<tag k="fixme" v="consider seamark:type=rock or natural=shoal" />
		<tag k="name" v="Bardiskjæret" />
		<tag k="place" v="islet" />
		<tag k="ssr:stedsnr" v="107251" />
	</node>
	<node id="-899942" lat="70.3306555545" lon="21.4313527376">
		<tag k="name" v="Loppasanden" />
		<tag k="natural" v="beach" />
		<tag k="place" v="locality" />
		<tag k="ssr:stedsnr" v="107117" />
	</node>
	<node id="-899939" lat="70.1543305552" lon="22.304799962">
		<tag k="alt_name" v="Steinviknes" />
		<tag k="name" v="Steinvikneset" />
		<tag k="natural" v="cape" />
		<tag k="ssr:stedsnr" v="80411" />
	</node>
	<node id="-899938" lat="70.4718722268" lon="21.3580082968">
		<tag k="name" v="Brokskallen" />
		<tag k="natural" v="shoal" />
		<tag k="place" v="locality" />
		<tag k="ssr:stedsnr" v="56780" />
	</node>
	<node id="-899937" lat="70.329797228" lon="21.9738305075">
		<tag k="fixme" v="consider seamark:type=rock or natural=shoal" />
		<tag k="name" v="Rundskjæret" />
		<tag k="place" v="islet" />
		<tag k="ssr:stedsnr" v="52901" />
	</node>
	<node id="-899936" lat="70.1540083354" lon="22.3948999493">
		<tag k="name" v="Kobbevikneset" />
		<tag k="natural" v="cape" />
		<tag k="ssr:stedsnr" v="46542" />
	</node>
	<node id="-899935" lat="70.1524444435" lon="22.3219944024">
		<tag k="name" v="Vinegohppi" />
		<tag k="name:se" v="Vinegohppi" />
		<tag k="natural" v="bay" />
		<tag k="ssr:stedsnr" v="46541" />
	</node>
	<node id="-899933" lat="70.1546999998" lon="22.3141666065">
		<tag k="name" v="Skardbukta" />
		<tag k="natural" v="bay" />
		<tag k="ssr:stedsnr" v="228535" />
	</node>
	<node id="-899929" lat="70.1338666724" lon="22.4977721705">
		<tag k="name" v="Hamnbuktklubben" />
		<tag k="natural" v="cape" />
		<tag k="ssr:stedsnr" v="19412" />
>>>>>>> e1d4bc35ff8a6074a6f2e91616a996b547c36f15
	</node>
</osm>
