<?xml version="1.0" encoding="UTF-8"?>
<osm version="0.6" generator="osmapis">
	<node lat="59.087777779794024" lon="10.238888881692214" id="-48139">
		<tag k="name" v="Krakken" />
		<tag k="ssr:date" v="2019-12-27" />
		<tag k="ssr:gruppe" v="sjøbunn" />
		<tag k="ssr:hovedgruppe" v="sjø" />
		<tag k="ssr:stedsnr" v="119781" />
		<tag k="ssr:type" v="bakketoppISjø" />
	</node>
	<node lat="59.096602782203725" lon="10.23852221884945" id="-48422">
		<tag k="name" v="Asneset" />
		<tag k="ssr:date" v="2019-12-27" />
		<tag k="ssr:gruppe" v="navigasjon" />
		<tag k="ssr:hovedgruppe" v="infrastruktur" />
		<tag k="ssr:stedsnr" v="297904" />
		<tag k="ssr:type" v="fyrlykt" />
	</node>
	<node lat="59.12883333065729" lon="10.219694439365409" id="-48911">
		<tag k="loc_name" v="Sandefjord" />
		<tag k="name" v="Sandefjord kommune" />
		<tag k="ssr:date" v="2019-12-27" />
		<tag k="ssr:gruppe" v="administrativeIndelinger" />
		<tag k="ssr:hovedgruppe" v="offentligAdministrasjon" />
		<tag k="ssr:stedsnr" v="752262" />
		<tag k="ssr:type" v="kommune" />
	</node>
	<node lat="59.2167368064333" lon="10.330955838807283" id="-51512">
		<tag k="name" v="Lundenåsen" />
		<tag k="ssr:date" v="2020-09-09" />
		<tag k="ssr:gruppe" v="veg" />
		<tag k="ssr:hovedgruppe" v="infrastruktur" />
		<tag k="ssr:stedsnr" v="1078217" />
		<tag k="ssr:type" v="adressenavn" />
	</node>
	<node lat="59.15178607069885" lon="10.235294337871006" id="-51518">
		<tag k="name" v="Sandskjærlia" />
		<tag k="ssr:date" v="2021-01-29" />
		<tag k="ssr:gruppe" v="veg" />
		<tag k="ssr:hovedgruppe" v="infrastruktur" />
		<tag k="ssr:stedsnr" v="1079802" />
		<tag k="ssr:type" v="adressenavn" />
	</node>
	<node lat="59.151381065454835" lon="10.234627046746825" id="-51519">
		<tag k="name" v="Sandskjæråsen" />
		<tag k="ssr:date" v="2021-01-29" />
		<tag k="ssr:gruppe" v="veg" />
		<tag k="ssr:hovedgruppe" v="infrastruktur" />
		<tag k="ssr:stedsnr" v="1079803" />
		<tag k="ssr:type" v="adressenavn" />
	</node>
	<node lat="59.149846053543826" lon="10.2447902794204" id="-51520">
		<tag k="name" v="Dverdalsåsen" />
		<tag k="ssr:date" v="2021-01-29" />
		<tag k="ssr:gruppe" v="veg" />
		<tag k="ssr:hovedgruppe" v="infrastruktur" />
		<tag k="ssr:stedsnr" v="1079808" />
		<tag k="ssr:type" v="adressenavn" />
	</node>
	<node lat="59.14094035223179" lon="10.267988218910988" id="-51523">
		<tag k="name" v="Dronninga" />
		<tag k="ssr:date" v="2021-05-19" />
		<tag k="ssr:gruppe" v="veg" />
		<tag k="ssr:hovedgruppe" v="infrastruktur" />
		<tag k="ssr:stedsnr" v="1081283" />
		<tag k="ssr:type" v="adressenavn" />
	</node>
	<node lat="59.196068175991506" lon="10.232353929172344" id="-51524">
		<tag k="name" v="Fevangløkka" />
		<tag k="ssr:date" v="2021-05-19" />
		<tag k="ssr:gruppe" v="veg" />
		<tag k="ssr:hovedgruppe" v="infrastruktur" />
		<tag k="ssr:stedsnr" v="1081284" />
		<tag k="ssr:type" v="adressenavn" />
	</node>
</osm>
