<?xml version="1.0" encoding="UTF-8"?>
<<<<<<< HEAD
<osm version="0.6" generator="osmapis">
	<node lat="60.08010277970695" lon="10.451333327132025" id="-18917">
		<tag k="name" v="Noreledningen" />
		<tag k="ssr:date" v="2019-12-27" />
		<tag k="ssr:gruppe" v="energi" />
		<tag k="ssr:hovedgruppe" v="infrastruktur" />
		<tag k="ssr:stedsnr" v="270898" />
		<tag k="ssr:type" v="kraftledning" />
	</node>
	<node lat="60.17943333324349" lon="9.621233329208264" id="-19145">
		<tag k="name" v="Krødsherad kommune" />
		<tag k="ssr:date" v="2019-12-27" />
		<tag k="ssr:gruppe" v="administrativeIndelinger" />
		<tag k="ssr:hovedgruppe" v="offentligAdministrasjon" />
		<tag k="ssr:stedsnr" v="630091" />
		<tag k="ssr:type" v="kommune" />
	</node>
	<node lat="60.212156041882864" lon="9.569418392143374" id="-19307">
		<tag k="name" v="Langlia" />
		<tag k="ssr:date" v="2019-12-27" />
		<tag k="ssr:gruppe" v="veg" />
		<tag k="ssr:hovedgruppe" v="infrastruktur" />
		<tag k="ssr:stedsnr" v="983925" />
		<tag k="ssr:type" v="adressenavn" />
	</node>
	<node lat="60.21263368447105" lon="9.569011643682689" id="-19308">
		<tag k="name" v="Leiken" />
		<tag k="ssr:date" v="2019-12-27" />
		<tag k="ssr:gruppe" v="veg" />
		<tag k="ssr:hovedgruppe" v="infrastruktur" />
		<tag k="ssr:stedsnr" v="983926" />
		<tag k="ssr:type" v="adressenavn" />
	</node>
	<node lat="60.228339538083155" lon="9.522868853545754" id="-19309">
		<tag k="name" v="Leineseterstien" />
		<tag k="ssr:date" v="2020-05-28" />
		<tag k="ssr:gruppe" v="veg" />
		<tag k="ssr:hovedgruppe" v="infrastruktur" />
		<tag k="ssr:stedsnr" v="983928" />
		<tag k="ssr:type" v="adressenavn" />
	</node>
	<node lat="60.22375193258655" lon="9.518102612046318" id="-19310">
		<tag k="name" v="Leppejuvstien" />
		<tag k="ssr:date" v="2019-12-27" />
		<tag k="ssr:gruppe" v="veg" />
		<tag k="ssr:hovedgruppe" v="infrastruktur" />
		<tag k="ssr:stedsnr" v="983931" />
		<tag k="ssr:type" v="adressenavn" />
	</node>
	<node lat="60.21230666250481" lon="9.569890160102105" id="-19311">
		<tag k="name" v="Midttunet" />
		<tag k="ssr:date" v="2019-12-27" />
		<tag k="ssr:gruppe" v="veg" />
		<tag k="ssr:hovedgruppe" v="infrastruktur" />
		<tag k="ssr:stedsnr" v="983942" />
		<tag k="ssr:type" v="adressenavn" />
	</node>
	<node lat="60.214011109385616" lon="9.570262593847184" id="-19312">
		<tag k="name" v="Bortigardtunet" />
		<tag k="ssr:date" v="2019-12-27" />
		<tag k="ssr:gruppe" v="veg" />
		<tag k="ssr:hovedgruppe" v="infrastruktur" />
		<tag k="ssr:stedsnr" v="983816" />
		<tag k="ssr:type" v="adressenavn" />
	</node>
	<node lat="60.29741051605251" lon="9.544288213779947" id="-19313">
		<tag k="name" v="Fjellheimveien" />
		<tag k="ssr:date" v="2019-12-27" />
		<tag k="ssr:gruppe" v="veg" />
		<tag k="ssr:hovedgruppe" v="infrastruktur" />
		<tag k="ssr:stedsnr" v="983840" />
		<tag k="ssr:type" v="adressenavn" />
	</node>
	<node lat="60.22171977325391" lon="9.558646120205864" id="-19314">
		<tag k="name" v="Fjellvåkveien" />
		<tag k="ssr:date" v="2019-12-27" />
=======
<osm generator="osmapis" version="0.6">
	<node id="-285568" lat="60.2206714735" lon="9.55844960118">
		<tag k="name" v="Tiurveien" />
		<tag k="ssr:date" v="2020-02-18" />
>>>>>>> e1d4bc35ff8a6074a6f2e91616a996b547c36f15
		<tag k="ssr:gruppe" v="veg" />
		<tag k="ssr:hovedgruppe" v="infrastruktur" />
		<tag k="ssr:stedsnr" v="983842" />
		<tag k="ssr:type" v="adressenavn" />
	</node>
<<<<<<< HEAD
	<node lat="60.25939355560526" lon="9.742487196685902" id="-19315">
		<tag k="name" v="Haugerudkleiva" />
		<tag k="ssr:date" v="2019-12-27" />
=======
	<node id="-285567" lat="60.2194482127" lon="9.56507314476">
		<tag k="name" v="Lirypeveien" />
		<tag k="ssr:date" v="2020-02-18" />
>>>>>>> e1d4bc35ff8a6074a6f2e91616a996b547c36f15
		<tag k="ssr:gruppe" v="veg" />
		<tag k="ssr:hovedgruppe" v="infrastruktur" />
		<tag k="ssr:stedsnr" v="983888" />
		<tag k="ssr:type" v="adressenavn" />
	</node>
<<<<<<< HEAD
	<node lat="60.19021436248815" lon="9.553746916131878" id="-19316">
		<tag k="name" v="Henålia" />
		<tag k="ssr:date" v="2019-12-27" />
=======
	<node id="-285566" lat="60.1442386422" lon="9.72905154331">
		<tag k="name" v="Granboveien" />
		<tag k="ssr:date" v="2020-02-18" />
>>>>>>> e1d4bc35ff8a6074a6f2e91616a996b547c36f15
		<tag k="ssr:gruppe" v="veg" />
		<tag k="ssr:hovedgruppe" v="infrastruktur" />
		<tag k="ssr:stedsnr" v="983896" />
		<tag k="ssr:type" v="adressenavn" />
	</node>
<<<<<<< HEAD
	<node lat="60.16127782632579" lon="9.806719385661307" id="-19317">
		<tag k="name" v="Hukseterveien" />
		<tag k="ssr:date" v="2019-12-27" />
=======
	<node id="-285565" lat="60.2087567335" lon="9.77651738316">
		<tag k="name" v="Aureveien" />
		<tag k="ssr:date" v="2020-02-18" />
>>>>>>> e1d4bc35ff8a6074a6f2e91616a996b547c36f15
		<tag k="ssr:gruppe" v="veg" />
		<tag k="ssr:hovedgruppe" v="infrastruktur" />
		<tag k="ssr:stedsnr" v="983904" />
		<tag k="ssr:type" v="adressenavn" />
	</node>
<<<<<<< HEAD
	<node lat="60.2132031971983" lon="9.570212478563386" id="-19318">
		<tag k="name" v="Øvregrenda" />
		<tag k="ssr:date" v="2019-12-27" />
=======
	<node id="-285564" lat="60.2208291866" lon="9.56277596312">
		<tag k="name" v="Blåmeisveien" />
		<tag k="ssr:date" v="2020-02-18" />
>>>>>>> e1d4bc35ff8a6074a6f2e91616a996b547c36f15
		<tag k="ssr:gruppe" v="veg" />
		<tag k="ssr:hovedgruppe" v="infrastruktur" />
		<tag k="ssr:stedsnr" v="984121" />
		<tag k="ssr:type" v="adressenavn" />
	</node>
<<<<<<< HEAD
	<node lat="60.213124146059435" lon="9.571889287473505" id="-19319">
		<tag k="name" v="Bekkelia" />
		<tag k="ssr:date" v="2019-12-27" />
=======
	<node id="-285563" lat="60.1808733835" lon="9.6245668868">
		<tag k="name" v="Ungbirkveien" />
		<tag k="ssr:date" v="2020-02-18" />
>>>>>>> e1d4bc35ff8a6074a6f2e91616a996b547c36f15
		<tag k="ssr:gruppe" v="veg" />
		<tag k="ssr:hovedgruppe" v="infrastruktur" />
		<tag k="ssr:stedsnr" v="984310" />
		<tag k="ssr:type" v="adressenavn" />
	</node>
<<<<<<< HEAD
	<node lat="60.21435392155467" lon="9.569889587004692" id="-19874">
		<tag k="name" v="Nordafortunet" />
		<tag k="ssr:date" v="2019-12-27" />
=======
	<node id="-285562" lat="60.186360467" lon="9.55353561473">
		<tag k="name" v="Nedre Tørkopplia" />
		<tag k="ssr:date" v="2020-02-18" />
>>>>>>> e1d4bc35ff8a6074a6f2e91616a996b547c36f15
		<tag k="ssr:gruppe" v="veg" />
		<tag k="ssr:hovedgruppe" v="infrastruktur" />
		<tag k="ssr:stedsnr" v="983960" />
		<tag k="ssr:type" v="adressenavn" />
	</node>
<<<<<<< HEAD
	<node lat="60.20435802463067" lon="9.570365671923865" id="-19875">
		<tag k="name" v="Nordre Damtjennhaugen" />
		<tag k="ssr:date" v="2019-12-27" />
=======
	<node id="-285561" lat="60.1651409657" lon="9.72187627847">
		<tag k="name" v="Slevikveien" />
		<tag k="ssr:date" v="2020-02-18" />
>>>>>>> e1d4bc35ff8a6074a6f2e91616a996b547c36f15
		<tag k="ssr:gruppe" v="veg" />
		<tag k="ssr:hovedgruppe" v="infrastruktur" />
		<tag k="ssr:stedsnr" v="983964" />
		<tag k="ssr:type" v="adressenavn" />
	</node>
<<<<<<< HEAD
	<node lat="60.22292759427876" lon="9.561807425735564" id="-19876">
		<tag k="name" v="Norefjellstua" />
		<tag k="ssr:date" v="2019-12-27" />
=======
	<node id="-285560" lat="60.1833677245" lon="9.60950097073">
		<tag k="name" v="Øvre Noreveien" />
		<tag k="ssr:date" v="2020-02-18" />
>>>>>>> e1d4bc35ff8a6074a6f2e91616a996b547c36f15
		<tag k="ssr:gruppe" v="veg" />
		<tag k="ssr:hovedgruppe" v="infrastruktur" />
		<tag k="ssr:stedsnr" v="983967" />
		<tag k="ssr:type" v="adressenavn" />
	</node>
<<<<<<< HEAD
	<node lat="60.19774965458438" lon="9.555479102113484" id="-19877">
		<tag k="name" v="Noreseterstien" />
		<tag k="ssr:date" v="2019-12-27" />
		<tag k="ssr:gruppe" v="veg" />
		<tag k="ssr:hovedgruppe" v="infrastruktur" />
		<tag k="ssr:stedsnr" v="983974" />
		<tag k="ssr:type" v="adressenavn" />
	</node>
	<node lat="60.21252431643695" lon="9.569388686425892" id="-19878">
		<tag k="name" v="Orrelia" />
		<tag k="ssr:date" v="2019-12-27" />
		<tag k="ssr:gruppe" v="veg" />
		<tag k="ssr:hovedgruppe" v="infrastruktur" />
		<tag k="ssr:stedsnr" v="983981" />
		<tag k="ssr:type" v="adressenavn" />
	</node>
	<node lat="60.22610983739977" lon="9.521316974695534" id="-19879">
		<tag k="name" v="Bøsetra fjellandsby" />
		<tag k="ssr:date" v="2019-12-27" />
		<tag k="ssr:gruppe" v="veg" />
		<tag k="ssr:hovedgruppe" v="infrastruktur" />
		<tag k="ssr:stedsnr" v="983828" />
		<tag k="ssr:type" v="adressenavn" />
	</node>
	<node lat="60.21311139476155" lon="9.570680053735865" id="-19880">
		<tag k="name" v="Fuglemyra" />
		<tag k="ssr:date" v="2019-12-27" />
		<tag k="ssr:gruppe" v="veg" />
		<tag k="ssr:hovedgruppe" v="infrastruktur" />
		<tag k="ssr:stedsnr" v="983851" />
		<tag k="ssr:type" v="adressenavn" />
	</node>
	<node lat="60.22196767627143" lon="9.598576561307837" id="-19881">
		<tag k="name" v="Tømmeråsen" />
		<tag k="ssr:date" v="2019-12-27" />
		<tag k="ssr:gruppe" v="veg" />
		<tag k="ssr:hovedgruppe" v="infrastruktur" />
		<tag k="ssr:stedsnr" v="984096" />
		<tag k="ssr:type" v="adressenavn" />
	</node>
	<node lat="60.18717115332853" lon="9.555715107155638" id="-19882">
		<tag k="name" v="Tørkopplia" />
		<tag k="ssr:date" v="2019-12-27" />
		<tag k="ssr:gruppe" v="veg" />
		<tag k="ssr:hovedgruppe" v="infrastruktur" />
		<tag k="ssr:stedsnr" v="984097" />
		<tag k="ssr:type" v="adressenavn" />
	</node>
	<node lat="60.212413629637076" lon="9.57007246142187" id="-19883">
		<tag k="name" v="Vesletunet" />
		<tag k="ssr:date" v="2019-12-27" />
		<tag k="ssr:gruppe" v="veg" />
		<tag k="ssr:hovedgruppe" v="infrastruktur" />
		<tag k="ssr:stedsnr" v="984104" />
		<tag k="ssr:type" v="adressenavn" />
	</node>
	<node lat="60.21341311323816" lon="9.569422137325288" id="-19884">
		<tag k="name" v="Vestafortunet" />
=======
	<node id="-285559" lat="60.2354134492" lon="9.60199966935">
		<tag k="name" v="Lia" />
		<tag k="ssr:date" v="2020-02-18" />
		<tag k="ssr:gruppe" v="veg" />
		<tag k="ssr:hovedgruppe" v="infrastruktur" />
		<tag k="ssr:stedsnr" v="1075283" />
		<tag k="ssr:type" v="adressenavn" />
	</node>
	<node id="-285558" lat="60.0789251122" lon="9.7511494766">
		<tag k="name" v="Finnerudlia" />
		<tag k="ssr:date" v="2020-02-18" />
		<tag k="ssr:gruppe" v="veg" />
		<tag k="ssr:hovedgruppe" v="infrastruktur" />
		<tag k="ssr:stedsnr" v="1075282" />
		<tag k="ssr:type" v="adressenavn" />
	</node>
	<node id="-285557" lat="60.1848571828" lon="9.61557008462">
		<tag k="name" v="Salsteinodden" />
		<tag k="ssr:date" v="2020-02-18" />
		<tag k="ssr:gruppe" v="veg" />
		<tag k="ssr:hovedgruppe" v="infrastruktur" />
		<tag k="ssr:stedsnr" v="1075284" />
		<tag k="ssr:type" v="adressenavn" />
	</node>
	<node id="-285556" lat="60.2242448794" lon="9.51695350238">
		<tag k="name" v="Midtre Bukkespranget" />
		<tag k="ssr:date" v="2020-02-18" />
		<tag k="ssr:gruppe" v="veg" />
		<tag k="ssr:hovedgruppe" v="infrastruktur" />
		<tag k="ssr:stedsnr" v="1075281" />
		<tag k="ssr:type" v="adressenavn" />
	</node>
	<node id="-285555" lat="60.2239389186" lon="9.51749400066">
		<tag k="name" v="Nedre Bukkespranget" />
		<tag k="ssr:date" v="2020-02-18" />
		<tag k="ssr:gruppe" v="veg" />
		<tag k="ssr:hovedgruppe" v="infrastruktur" />
		<tag k="ssr:stedsnr" v="1075279" />
		<tag k="ssr:type" v="adressenavn" />
	</node>
	<node id="-285554" lat="60.1215458704" lon="9.74671325688">
		<tag k="name" v="Øvre Glesneveien" />
		<tag k="ssr:date" v="2020-02-18" />
		<tag k="ssr:gruppe" v="veg" />
		<tag k="ssr:hovedgruppe" v="infrastruktur" />
		<tag k="ssr:stedsnr" v="1075280" />
		<tag k="ssr:type" v="adressenavn" />
	</node>
	<node id="-285553" lat="59.9116896876" lon="10.7581882267">
		<tag k="name" v="Viken fylke" />
		<tag k="ssr:date" v="2020-01-13" />
		<tag k="ssr:gruppe" v="administrativeIndelinger" />
		<tag k="ssr:hovedgruppe" v="offentligAdministrasjon" />
		<tag k="ssr:stedsnr" v="1074403" />
		<tag k="ssr:type" v="fylke" />
	</node>
	<node id="-284921" lat="60.1977496546" lon="9.55547910211">
		<tag k="name" v="Noreseterstien" />
		<tag k="ssr:date" v="2019-12-27" />
		<tag k="ssr:gruppe" v="veg" />
		<tag k="ssr:hovedgruppe" v="infrastruktur" />
		<tag k="ssr:stedsnr" v="983974" />
		<tag k="ssr:type" v="adressenavn" />
	</node>
	<node id="-285546" lat="60.2143803204" lon="9.51743146835">
		<tag k="name" v="Søre Skulkarås" />
>>>>>>> e1d4bc35ff8a6074a6f2e91616a996b547c36f15
		<tag k="ssr:date" v="2019-12-27" />
		<tag k="ssr:gruppe" v="veg" />
		<tag k="ssr:hovedgruppe" v="infrastruktur" />
		<tag k="ssr:stedsnr" v="984105" />
		<tag k="ssr:type" v="adressenavn" />
	</node>
<<<<<<< HEAD
	<node lat="60.20468399479269" lon="9.565536524507973" id="-19885">
		<tag k="name" v="Ølløkmyra" />
=======
	<node id="-285545" lat="60.2017522308" lon="9.57078945454">
		<tag k="name" v="Søre Damtjennhaugen" />
>>>>>>> e1d4bc35ff8a6074a6f2e91616a996b547c36f15
		<tag k="ssr:date" v="2019-12-27" />
		<tag k="ssr:gruppe" v="veg" />
		<tag k="ssr:hovedgruppe" v="infrastruktur" />
		<tag k="ssr:stedsnr" v="984108" />
		<tag k="ssr:type" v="adressenavn" />
	</node>
<<<<<<< HEAD
	<node lat="60.27678091607634" lon="9.571065457555392" id="-19886">
		<tag k="name" v="Østenseterveien" />
=======
	<node id="-285544" lat="60.2919619022" lon="9.63120292153">
		<tag k="name" v="Luteveien" />
>>>>>>> e1d4bc35ff8a6074a6f2e91616a996b547c36f15
		<tag k="ssr:date" v="2019-12-27" />
		<tag k="ssr:gruppe" v="veg" />
		<tag k="ssr:hovedgruppe" v="infrastruktur" />
		<tag k="ssr:stedsnr" v="984110" />
		<tag k="ssr:type" v="adressenavn" />
	</node>
<<<<<<< HEAD
	<node lat="60.21276889098172" lon="9.570980864630501" id="-19887">
		<tag k="name" v="Sandumlia" />
=======
	<node id="-285543" lat="60.2199170871" lon="9.51829479212">
		<tag k="name" v="Huldrakollstien" />
>>>>>>> e1d4bc35ff8a6074a6f2e91616a996b547c36f15
		<tag k="ssr:date" v="2019-12-27" />
		<tag k="ssr:gruppe" v="veg" />
		<tag k="ssr:hovedgruppe" v="infrastruktur" />
		<tag k="ssr:stedsnr" v="984050" />
		<tag k="ssr:type" v="adressenavn" />
	</node>
<<<<<<< HEAD
	<node lat="60.15479425478498" lon="9.745459195930154" id="-19888">
		<tag k="name" v="Skinnessundbakken" />
=======
	<node id="-285540" lat="60.2134762522" lon="9.57144428866">
		<tag k="name" v="Solbakken" />
>>>>>>> e1d4bc35ff8a6074a6f2e91616a996b547c36f15
		<tag k="ssr:date" v="2019-12-27" />
		<tag k="ssr:gruppe" v="veg" />
		<tag k="ssr:hovedgruppe" v="infrastruktur" />
		<tag k="ssr:stedsnr" v="984057" />
		<tag k="ssr:type" v="adressenavn" />
	</node>
<<<<<<< HEAD
	<node lat="60.212882992872906" lon="9.569503172294931" id="-19889">
=======
	<node id="-285539" lat="60.2128829929" lon="9.56950317229">
>>>>>>> e1d4bc35ff8a6074a6f2e91616a996b547c36f15
		<tag k="name" v="Snippen" />
		<tag k="ssr:date" v="2019-12-27" />
		<tag k="ssr:gruppe" v="veg" />
		<tag k="ssr:hovedgruppe" v="infrastruktur" />
		<tag k="ssr:stedsnr" v="984066" />
		<tag k="ssr:type" v="adressenavn" />
	</node>
<<<<<<< HEAD
	<node lat="60.213476252232006" lon="9.571444288662413" id="-19890">
		<tag k="name" v="Solbakken" />
=======
	<node id="-285538" lat="60.1547942548" lon="9.74545919593">
		<tag k="name" v="Skinnessundbakken" />
>>>>>>> e1d4bc35ff8a6074a6f2e91616a996b547c36f15
		<tag k="ssr:date" v="2019-12-27" />
		<tag k="ssr:gruppe" v="veg" />
		<tag k="ssr:hovedgruppe" v="infrastruktur" />
		<tag k="ssr:stedsnr" v="984069" />
		<tag k="ssr:type" v="adressenavn" />
	</node>
<<<<<<< HEAD
	<node lat="60.214168764083176" lon="9.571185652914748" id="-19891">
		<tag k="name" v="Svingen" />
=======
	<node id="-285537" lat="60.212768891" lon="9.57098086463">
		<tag k="name" v="Sandumlia" />
>>>>>>> e1d4bc35ff8a6074a6f2e91616a996b547c36f15
		<tag k="ssr:date" v="2019-12-27" />
		<tag k="ssr:gruppe" v="veg" />
		<tag k="ssr:hovedgruppe" v="infrastruktur" />
		<tag k="ssr:stedsnr" v="984084" />
		<tag k="ssr:type" v="adressenavn" />
	</node>
<<<<<<< HEAD
	<node lat="60.213717739548095" lon="9.571665033033195" id="-19892">
		<tag k="name" v="Sønnafortunet" />
		<tag k="ssr:date" v="2019-12-27" />
		<tag k="ssr:gruppe" v="veg" />
		<tag k="ssr:hovedgruppe" v="infrastruktur" />
		<tag k="ssr:stedsnr" v="984087" />
		<tag k="ssr:type" v="adressenavn" />
	</node>
	<node lat="60.21991708710487" lon="9.518294792121523" id="-19895">
		<tag k="name" v="Huldrakollstien" />
=======
	<node id="-285536" lat="60.2043580246" lon="9.57036567192">
		<tag k="name" v="Nordre Damtjennhaugen" />
		<tag k="ssr:date" v="2019-12-27" />
		<tag k="ssr:gruppe" v="veg" />
		<tag k="ssr:hovedgruppe" v="infrastruktur" />
		<tag k="ssr:stedsnr" v="983964" />
		<tag k="ssr:type" v="adressenavn" />
	</node>
	<node id="-285535" lat="60.2767809161" lon="9.57106545756">
		<tag k="name" v="Østenseterveien" />
>>>>>>> e1d4bc35ff8a6074a6f2e91616a996b547c36f15
		<tag k="ssr:date" v="2019-12-27" />
		<tag k="ssr:gruppe" v="veg" />
		<tag k="ssr:hovedgruppe" v="infrastruktur" />
		<tag k="ssr:stedsnr" v="987698" />
		<tag k="ssr:type" v="adressenavn" />
	</node>
<<<<<<< HEAD
	<node lat="60.291961902162846" lon="9.631202921532061" id="-19896">
		<tag k="name" v="Luteveien" />
=======
	<node id="-285534" lat="60.2046839948" lon="9.56553652451">
		<tag k="name" v="Ølløkmyra" />
>>>>>>> e1d4bc35ff8a6074a6f2e91616a996b547c36f15
		<tag k="ssr:date" v="2019-12-27" />
		<tag k="ssr:gruppe" v="veg" />
		<tag k="ssr:hovedgruppe" v="infrastruktur" />
		<tag k="ssr:stedsnr" v="987699" />
		<tag k="ssr:type" v="adressenavn" />
	</node>
<<<<<<< HEAD
	<node lat="60.2017522307617" lon="9.570789454538897" id="-19897">
		<tag k="name" v="Søre Damtjennhaugen" />
=======
	<node id="-285533" lat="60.2134131132" lon="9.56942213733">
		<tag k="name" v="Vestafortunet" />
>>>>>>> e1d4bc35ff8a6074a6f2e91616a996b547c36f15
		<tag k="ssr:date" v="2019-12-27" />
		<tag k="ssr:gruppe" v="veg" />
		<tag k="ssr:hovedgruppe" v="infrastruktur" />
		<tag k="ssr:stedsnr" v="987705" />
		<tag k="ssr:type" v="adressenavn" />
	</node>
<<<<<<< HEAD
	<node lat="60.214380320431445" lon="9.517431468352052" id="-19898">
		<tag k="name" v="Søre Skulkarås" />
=======
	<node id="-285532" lat="60.2124136296" lon="9.57007246142">
		<tag k="name" v="Vesletunet" />
>>>>>>> e1d4bc35ff8a6074a6f2e91616a996b547c36f15
		<tag k="ssr:date" v="2019-12-27" />
		<tag k="ssr:gruppe" v="veg" />
		<tag k="ssr:hovedgruppe" v="infrastruktur" />
		<tag k="ssr:stedsnr" v="987706" />
		<tag k="ssr:type" v="adressenavn" />
	</node>
<<<<<<< HEAD
	<node lat="59.91168968762522" lon="10.758188226721538" id="-19905">
		<tag k="name" v="Viken fylke" />
		<tag k="ssr:date" v="2021-06-08" />
		<tag k="ssr:gruppe" v="administrativeIndelinger" />
		<tag k="ssr:hovedgruppe" v="offentligAdministrasjon" />
		<tag k="ssr:stedsnr" v="1074403" />
		<tag k="ssr:type" v="fylke" />
	</node>
	<node lat="60.1215458703718" lon="9.746713256881177" id="-19906">
		<tag k="name" v="Øvre Glesneveien" />
		<tag k="ssr:date" v="2020-02-18" />
=======
	<node id="-285531" lat="60.1871711533" lon="9.55571510716">
		<tag k="name" v="Tørkopplia" />
		<tag k="ssr:date" v="2019-12-27" />
>>>>>>> e1d4bc35ff8a6074a6f2e91616a996b547c36f15
		<tag k="ssr:gruppe" v="veg" />
		<tag k="ssr:hovedgruppe" v="infrastruktur" />
		<tag k="ssr:stedsnr" v="1075280" />
		<tag k="ssr:type" v="adressenavn" />
	</node>
<<<<<<< HEAD
	<node lat="60.22393891859142" lon="9.517494000655566" id="-19907">
		<tag k="name" v="Nedre Bukkespranget" />
		<tag k="ssr:date" v="2020-02-18" />
=======
	<node id="-285530" lat="60.2219676763" lon="9.59857656131">
		<tag k="name" v="Tømmeråsen" />
		<tag k="ssr:date" v="2019-12-27" />
>>>>>>> e1d4bc35ff8a6074a6f2e91616a996b547c36f15
		<tag k="ssr:gruppe" v="veg" />
		<tag k="ssr:hovedgruppe" v="infrastruktur" />
		<tag k="ssr:stedsnr" v="1075279" />
		<tag k="ssr:type" v="adressenavn" />
	</node>
<<<<<<< HEAD
	<node lat="60.2242448794454" lon="9.516953502381075" id="-19908">
		<tag k="name" v="Midtre Bukkespranget" />
		<tag k="ssr:date" v="2020-02-18" />
=======
	<node id="-285529" lat="60.2137177395" lon="9.57166503303">
		<tag k="name" v="Sønnafortunet" />
		<tag k="ssr:date" v="2019-12-27" />
>>>>>>> e1d4bc35ff8a6074a6f2e91616a996b547c36f15
		<tag k="ssr:gruppe" v="veg" />
		<tag k="ssr:hovedgruppe" v="infrastruktur" />
		<tag k="ssr:stedsnr" v="1075281" />
		<tag k="ssr:type" v="adressenavn" />
	</node>
<<<<<<< HEAD
	<node lat="60.184857182822576" lon="9.615570084615335" id="-19909">
		<tag k="name" v="Salsteinodden" />
		<tag k="ssr:date" v="2020-02-18" />
=======
	<node id="-285528" lat="60.2141687641" lon="9.57118565291">
		<tag k="name" v="Svingen" />
		<tag k="ssr:date" v="2019-12-27" />
>>>>>>> e1d4bc35ff8a6074a6f2e91616a996b547c36f15
		<tag k="ssr:gruppe" v="veg" />
		<tag k="ssr:hovedgruppe" v="infrastruktur" />
		<tag k="ssr:stedsnr" v="1075284" />
		<tag k="ssr:type" v="adressenavn" />
	</node>
<<<<<<< HEAD
	<node lat="60.078925112217604" lon="9.751149476602798" id="-19910">
		<tag k="name" v="Finnerudlia" />
		<tag k="ssr:date" v="2020-02-18" />
=======
	<node id="-285527" lat="60.1612778263" lon="9.80671938566">
		<tag k="name" v="Hukseterveien" />
		<tag k="ssr:date" v="2019-12-27" />
>>>>>>> e1d4bc35ff8a6074a6f2e91616a996b547c36f15
		<tag k="ssr:gruppe" v="veg" />
		<tag k="ssr:hovedgruppe" v="infrastruktur" />
		<tag k="ssr:stedsnr" v="1075282" />
		<tag k="ssr:type" v="adressenavn" />
	</node>
<<<<<<< HEAD
	<node lat="60.235413449228105" lon="9.601999669345762" id="-19911">
		<tag k="name" v="Lia" />
		<tag k="ssr:date" v="2020-02-18" />
=======
	<node id="-285526" lat="60.1902143625" lon="9.55374691613">
		<tag k="name" v="Henålia" />
		<tag k="ssr:date" v="2019-12-27" />
>>>>>>> e1d4bc35ff8a6074a6f2e91616a996b547c36f15
		<tag k="ssr:gruppe" v="veg" />
		<tag k="ssr:hovedgruppe" v="infrastruktur" />
		<tag k="ssr:stedsnr" v="1075283" />
		<tag k="ssr:type" v="adressenavn" />
	</node>
<<<<<<< HEAD
	<node lat="60.183367724450974" lon="9.609500970733459" id="-19912">
		<tag k="name" v="Øvre Noreveien" />
		<tag k="ssr:date" v="2020-02-18" />
=======
	<node id="-285525" lat="60.2143539216" lon="9.569889587">
		<tag k="name" v="Nordafortunet" />
		<tag k="ssr:date" v="2019-12-27" />
>>>>>>> e1d4bc35ff8a6074a6f2e91616a996b547c36f15
		<tag k="ssr:gruppe" v="veg" />
		<tag k="ssr:hovedgruppe" v="infrastruktur" />
		<tag k="ssr:stedsnr" v="1075287" />
		<tag k="ssr:type" v="adressenavn" />
	</node>
<<<<<<< HEAD
	<node lat="60.165140965728746" lon="9.721876278466869" id="-19913">
		<tag k="name" v="Slevikveien" />
		<tag k="ssr:date" v="2020-02-18" />
		<tag k="ssr:gruppe" v="veg" />
		<tag k="ssr:hovedgruppe" v="infrastruktur" />
		<tag k="ssr:stedsnr" v="1075285" />
		<tag k="ssr:type" v="adressenavn" />
	</node>
	<node lat="60.18636046696333" lon="9.553535614732109" id="-19914">
		<tag k="name" v="Nedre Tørkopplia" />
		<tag k="ssr:date" v="2020-02-18" />
=======
	<node id="-285524" lat="60.2123066625" lon="9.5698901601">
		<tag k="name" v="Midttunet" />
		<tag k="ssr:date" v="2019-12-27" />
		<tag k="ssr:gruppe" v="veg" />
		<tag k="ssr:hovedgruppe" v="infrastruktur" />
		<tag k="ssr:stedsnr" v="983942" />
		<tag k="ssr:type" v="adressenavn" />
	</node>
	<node id="-285523" lat="60.2131113948" lon="9.57068005374">
		<tag k="name" v="Fuglemyra" />
		<tag k="ssr:date" v="2019-12-27" />
>>>>>>> e1d4bc35ff8a6074a6f2e91616a996b547c36f15
		<tag k="ssr:gruppe" v="veg" />
		<tag k="ssr:hovedgruppe" v="infrastruktur" />
		<tag k="ssr:stedsnr" v="1075286" />
		<tag k="ssr:type" v="adressenavn" />
	</node>
<<<<<<< HEAD
	<node lat="60.180873383464366" lon="9.624566886798322" id="-19915">
		<tag k="name" v="Ungbirkveien" />
		<tag k="ssr:date" v="2020-02-18" />
=======
	<node id="-285522" lat="60.2217197733" lon="9.55864612021">
		<tag k="name" v="Fjellvåkveien" />
		<tag k="ssr:date" v="2019-12-27" />
>>>>>>> e1d4bc35ff8a6074a6f2e91616a996b547c36f15
		<tag k="ssr:gruppe" v="veg" />
		<tag k="ssr:hovedgruppe" v="infrastruktur" />
		<tag k="ssr:stedsnr" v="1075288" />
		<tag k="ssr:type" v="adressenavn" />
	</node>
<<<<<<< HEAD
	<node lat="60.22082918655503" lon="9.562775963123784" id="-19916">
		<tag k="name" v="Blåmeisveien" />
		<tag k="ssr:date" v="2020-02-18" />
=======
	<node id="-285521" lat="60.2974105161" lon="9.54428821378">
		<tag k="name" v="Fjellheimveien" />
		<tag k="ssr:date" v="2019-12-27" />
>>>>>>> e1d4bc35ff8a6074a6f2e91616a996b547c36f15
		<tag k="ssr:gruppe" v="veg" />
		<tag k="ssr:hovedgruppe" v="infrastruktur" />
		<tag k="ssr:stedsnr" v="1075292" />
		<tag k="ssr:type" v="adressenavn" />
	</node>
<<<<<<< HEAD
	<node lat="60.208756733464995" lon="9.776517383156298" id="-19917">
		<tag k="name" v="Aureveien" />
		<tag k="ssr:date" v="2020-02-18" />
		<tag k="ssr:gruppe" v="veg" />
=======
	<node id="-284920" lat="60.2229275943" lon="9.56180742574">
		<tag k="name" v="Norefjellstua" />
		<tag k="ssr:date" v="2019-12-27" />
		<tag k="ssr:gruppe" v="veg" />
		<tag k="ssr:hovedgruppe" v="infrastruktur" />
		<tag k="ssr:stedsnr" v="983967" />
		<tag k="ssr:type" v="adressenavn" />
	</node>
	<node id="-284494" lat="60.0801027797" lon="10.4513333271">
		<tag k="name" v="Noreledningen" />
		<tag k="ssr:date" v="2019-12-27" />
		<tag k="ssr:gruppe" v="energi" />
>>>>>>> e1d4bc35ff8a6074a6f2e91616a996b547c36f15
		<tag k="ssr:hovedgruppe" v="infrastruktur" />
		<tag k="ssr:stedsnr" v="1075289" />
		<tag k="ssr:type" v="adressenavn" />
	</node>
<<<<<<< HEAD
	<node lat="60.144238642202765" lon="9.729051543314032" id="-19918">
		<tag k="name" v="Granboveien" />
		<tag k="ssr:date" v="2020-02-18" />
		<tag k="ssr:gruppe" v="veg" />
		<tag k="ssr:hovedgruppe" v="infrastruktur" />
		<tag k="ssr:stedsnr" v="1075291" />
		<tag k="ssr:type" v="adressenavn" />
	</node>
	<node lat="60.21944821266126" lon="9.565073144759179" id="-19919">
		<tag k="name" v="Lirypeveien" />
		<tag k="ssr:date" v="2020-02-18" />
		<tag k="ssr:gruppe" v="veg" />
		<tag k="ssr:hovedgruppe" v="infrastruktur" />
		<tag k="ssr:stedsnr" v="1075293" />
		<tag k="ssr:type" v="adressenavn" />
	</node>
	<node lat="60.220671473548144" lon="9.558449601176285" id="-19920">
		<tag k="name" v="Tiurveien" />
		<tag k="ssr:date" v="2020-02-18" />
		<tag k="ssr:gruppe" v="veg" />
		<tag k="ssr:hovedgruppe" v="infrastruktur" />
		<tag k="ssr:stedsnr" v="1075294" />
=======
	<node id="-284924" lat="60.2131241461" lon="9.57188928747">
		<tag k="name" v="Bekkelia" />
		<tag k="ssr:date" v="2019-12-27" />
		<tag k="ssr:gruppe" v="veg" />
		<tag k="ssr:hovedgruppe" v="infrastruktur" />
		<tag k="ssr:stedsnr" v="984310" />
		<tag k="ssr:type" v="adressenavn" />
	</node>
	<node id="-284919" lat="60.2237519326" lon="9.51810261205">
		<tag k="name" v="Leppejuvstien" />
		<tag k="ssr:date" v="2019-12-27" />
		<tag k="ssr:gruppe" v="veg" />
		<tag k="ssr:hovedgruppe" v="infrastruktur" />
		<tag k="ssr:stedsnr" v="983931" />
		<tag k="ssr:type" v="adressenavn" />
	</node>
	<node id="-285383" lat="60.1794333332" lon="9.62123332921">
		<tag k="name" v="Krødsherad kommune" />
		<tag k="ssr:date" v="2019-12-27" />
		<tag k="ssr:gruppe" v="administrativeIndelinger" />
		<tag k="ssr:hovedgruppe" v="offentligAdministrasjon" />
		<tag k="ssr:stedsnr" v="630091" />
		<tag k="ssr:type" v="kommune" />
	</node>
	<node id="-284918" lat="60.2283395381" lon="9.52286885355">
		<tag k="name" v="Leineseterstien" />
		<tag k="ssr:date" v="2020-05-28" />
		<tag k="ssr:gruppe" v="veg" />
		<tag k="ssr:hovedgruppe" v="infrastruktur" />
		<tag k="ssr:stedsnr" v="983928" />
		<tag k="ssr:type" v="adressenavn" />
	</node>
	<node id="-284917" lat="60.2126336845" lon="9.56901164368">
		<tag k="name" v="Leiken" />
		<tag k="ssr:date" v="2019-12-27" />
		<tag k="ssr:gruppe" v="veg" />
		<tag k="ssr:hovedgruppe" v="infrastruktur" />
		<tag k="ssr:stedsnr" v="983926" />
		<tag k="ssr:type" v="adressenavn" />
	</node>
	<node id="-284916" lat="60.2121560419" lon="9.56941839214">
		<tag k="name" v="Langlia" />
		<tag k="ssr:date" v="2019-12-27" />
		<tag k="ssr:gruppe" v="veg" />
		<tag k="ssr:hovedgruppe" v="infrastruktur" />
		<tag k="ssr:stedsnr" v="983925" />
		<tag k="ssr:type" v="adressenavn" />
	</node>
	<node id="-284915" lat="60.2593935556" lon="9.74248719669">
		<tag k="name" v="Haugerudkleiva" />
		<tag k="ssr:date" v="2019-12-27" />
		<tag k="ssr:gruppe" v="veg" />
		<tag k="ssr:hovedgruppe" v="infrastruktur" />
		<tag k="ssr:stedsnr" v="983888" />
		<tag k="ssr:type" v="adressenavn" />
	</node>
	<node id="-284923" lat="60.2132031972" lon="9.57021247856">
		<tag k="name" v="Øvregrenda" />
		<tag k="ssr:date" v="2019-12-27" />
		<tag k="ssr:gruppe" v="veg" />
		<tag k="ssr:hovedgruppe" v="infrastruktur" />
		<tag k="ssr:stedsnr" v="984121" />
		<tag k="ssr:type" v="adressenavn" />
	</node>
	<node id="-284914" lat="60.2261098374" lon="9.5213169747">
		<tag k="name" v="Bøsetra fjellandsby" />
		<tag k="ssr:date" v="2019-12-27" />
		<tag k="ssr:gruppe" v="veg" />
		<tag k="ssr:hovedgruppe" v="infrastruktur" />
		<tag k="ssr:stedsnr" v="983828" />
>>>>>>> e1d4bc35ff8a6074a6f2e91616a996b547c36f15
		<tag k="ssr:type" v="adressenavn" />
	</node>
	<node id="-284913" lat="60.2140111094" lon="9.57026259385">
		<tag k="name" v="Bortigardtunet" />
		<tag k="ssr:date" v="2019-12-27" />
		<tag k="ssr:gruppe" v="veg" />
		<tag k="ssr:hovedgruppe" v="infrastruktur" />
		<tag k="ssr:stedsnr" v="983816" />
		<tag k="ssr:type" v="adressenavn" />
	</node>
	<node id="-284922" lat="60.2125243164" lon="9.56938868643">
		<tag k="name" v="Orrelia" />
		<tag k="ssr:date" v="2019-12-27" />
		<tag k="ssr:gruppe" v="veg" />
		<tag k="ssr:hovedgruppe" v="infrastruktur" />
		<tag k="ssr:stedsnr" v="983981" />
		<tag k="ssr:type" v="adressenavn" />
	</node>
	<node id="-285569" lat="69.6388889725" lon="30.5666644427">
		<tag k="fixme" v="multiple name tags, choose one and add the other to alt_name" />
		<tag k="loc_name:se" v="Norgga gonagasriika" />
		<tag k="loc_name:sma" v="Nöörjen gånkarïjhke" />
		<tag k="loc_name:smj" v="Vuona gånågisrijkka" />
		<tag k="name" v="Noreg;Norge" />
		<tag k="name:en" v="Norway" />
		<tag k="name:no" v="Noreg;Norge" />
		<tag k="ssr:date" v="2020-06-04" />
		<tag k="ssr:gruppe" v="administrativeIndelinger" />
		<tag k="ssr:hovedgruppe" v="offentligAdministrasjon" />
		<tag k="ssr:stedsnr" v="26330" />
		<tag k="ssr:type" v="nasjon" />
	</node>
</osm>
