<?xml version="1.0" encoding="UTF-8"?>
<osm generator="osmapis" version="0.6">
	<node id="-770133" lat="69.6657111107" lon="20.4876694273">
		<tag k="name" v="Olderelva" />
		<tag k="name:no" v="Olderelva" />
		<tag k="ssr:stedsnr" v="504579" />
		<tag k="waterway" v="stream" />
	</node>
	<node id="-769690" lat="69.604083331" lon="20.7490110943">
		<tag k="name" v="Dálvvesváhjávri - Olderdalsvatnet - Talosvankanjärvi" />
		<tag k="name:fkv" v="Talosvankanjärvi" />
		<tag k="name:no" v="Olderdalsvatnet" />
		<tag k="name:se" v="Dálvvesváhjávri" />
		<tag k="natural" v="water" />
		<tag k="ssr:stedsnr" v="140651" />
		<tag k="water" v="lake" />
	</node>
	<node id="-770644" lat="69.4213305589" lon="20.5693055263">
		<tag k="name" v="Buvrresavu" />
		<tag k="name:se" v="Buvrresavu" />
		<tag k="natural" v="water" />
		<tag k="ssr:stedsnr" v="782877" />
		<tag k="water" v="lake" />
	</node>
	<node id="-769521" lat="69.5147333337" lon="20.7908472104">
		<tag k="name" v="Hánnošjohka" />
		<tag k="name:se" v="Hánnošjohka" />
		<tag k="ssr:stedsnr" v="54380" />
		<tag k="waterway" v="stream" />
	</node>
	<node id="-769512" lat="69.5183833324" lon="20.5216444238">
		<tag k="name" v="Hánssasavu" />
		<tag k="name:se" v="Hánssasavu" />
		<tag k="natural" v="water" />
		<tag k="ssr:stedsnr" v="54116" />
		<tag k="water" v="lake" />
	</node>
	<node id="-770534" lat="69.5872833343" lon="20.577391649">
		<tag k="name" v="Lássejohka" />
		<tag k="name:se" v="Lássejohka" />
		<tag k="ssr:stedsnr" v="721670" />
		<tag k="waterway" v="stream" />
	</node>
	<node id="-769508" lat="69.4869305582" lon="20.8283222002">
		<tag k="name" v="Geađgeláddu" />
		<tag k="name:se" v="Geađgeláddu" />
		<tag k="natural" v="water" />
		<tag k="ssr:stedsnr" v="53519" />
		<tag k="water" v="lake" />
	</node>
	<node id="-770530" lat="69.5154833344" lon="20.6069972052">
		<tag k="name" v="Rássejohka" />
		<tag k="name:se" v="Rássejohka" />
		<tag k="ssr:stedsnr" v="721793" />
		<tag k="waterway" v="stream" />
	</node>
	<node id="-769505" lat="69.4000361101" lon="20.9821971899">
		<tag k="name" v="Gorži" />
		<tag k="name:se" v="Gorži" />
		<tag k="natural" v="waterfall" />
		<tag k="ssr:stedsnr" v="53480" />
	</node>
	<node id="-771036" lat="69.6141888849" lon="20.4967805466">
		<tag k="name" v="Møllelva" />
		<tag k="name:no" v="Møllelva" />
		<tag k="ssr:stedsnr" v="964936" />
		<tag k="waterway" v="stream" />
	</node>
	<node id="-769274" lat="69.6133055554" lon="20.6726388738">
		<tag k="name" v="Vuolit Riđajohka - Nedre Riddajokka" />
		<tag k="name:no" v="Nedre Riddajokka" />
		<tag k="name:se" v="Vuolit Riđajohka" />
		<tag k="ssr:stedsnr" v="357758" />
		<tag k="waterway" v="stream" />
	</node>
	<node id="-769497" lat="69.4752333383" lon="20.5260305321">
		<tag k="name" v="Niibefielbmá" />
		<tag k="name:se" v="Niibefielbmá" />
		<tag k="ssr:stedsnr" v="53196" />
		<tag k="waterway" v="stream" />
	</node>
	<node id="-769496" lat="69.5388444477" lon="20.5298749783">
		<tag k="name" v="Guordas" />
		<tag k="name:se" v="Guordas" />
		<tag k="natural" v="bay" />
		<tag k="ssr:stedsnr" v="53164" />
	</node>
	<node id="-769956" lat="69.5012361115" lon="20.812699973">
		<tag k="name" v="Ruovdeája" />
		<tag k="name:se" v="Ruovdeája" />
		<tag k="ssr:stedsnr" v="417516" />
		<tag k="waterway" v="stream" />
	</node>
	<node id="-769494" lat="69.5255861133" lon="20.5091610957">
		<tag k="name" v="Leaibejohka" />
		<tag k="name:se" v="Leaibejohka" />
		<tag k="ssr:stedsnr" v="53109" />
		<tag k="waterway" v="stream" />
	</node>
	<node id="-770516" lat="69.473333332" lon="20.8961749668">
		<tag k="name" v="Guolejohsuolu" />
		<tag k="name:se" v="Guolejohsuolu" />
		<tag k="place" v="islet" />
		<tag k="ssr:stedsnr" v="721243" />
	</node>
	<node id="-770183" lat="69.5263638883" lon="20.3796916383">
		<tag k="name" v="Huppaselva" />
		<tag k="name:no" v="Huppaselva" />
		<tag k="ssr:stedsnr" v="539162" />
		<tag k="waterway" v="stream" />
	</node>
	<node id="-770512" lat="69.4930527758" lon="20.5129499703">
		<tag k="name" v="Geassenjárga" />
		<tag k="name:se" v="Geassenjárga" />
		<tag k="natural" v="cape" />
		<tag k="ssr:stedsnr" v="721185" />
	</node>
	<node id="-771023" lat="69.5111222235" lon="20.6749944163">
		<tag k="name" v="Uhcanjirranjohka" />
		<tag k="name:se" v="Uhcanjirranjohka" />
		<tag k="ssr:stedsnr" v="964742" />
		<tag k="waterway" v="stream" />
	</node>
	<node id="-771022" lat="69.6051888869" lon="20.5756999856">
		<tag k="name" v="Miellenjárga" />
		<tag k="name:se" v="Miellenjárga" />
		<tag k="natural" v="cape" />
		<tag k="ssr:stedsnr" v="964674" />
	</node>
	<node id="-769993" lat="69.4592333351" lon="20.9219833176">
		<tag k="name" v="Stuora-eatnu" />
		<tag k="name:se" v="Stuora-eatnu" />
		<tag k="ssr:stedsnr" v="418333" />
		<tag k="waterway" v="river" />
	</node>
	<node id="-769480" lat="69.4549611108" lon="21.0245999615">
		<tag k="name" v="Hánskejávrrit" />
		<tag k="name:se" v="Hánskejávrrit" />
		<tag k="natural" v="water" />
		<tag k="ssr:stedsnr" v="19745" />
		<tag k="water" v="lake" />
	</node>
	<node id="-770502" lat="69.5323305518" lon="20.5294805445">
		<tag k="name" v="Buvrisavu" />
		<tag k="name:se" v="Buvrisavu" />
		<tag k="natural" v="water" />
		<tag k="ssr:stedsnr" v="721125" />
		<tag k="water" v="lake" />
	</node>
	<node id="-771012" lat="69.5218499972" lon="20.5230777656">
		<tag k="name" v="Millosavu" />
		<tag k="name:se" v="Millosavu" />
		<tag k="natural" v="water" />
		<tag k="ssr:stedsnr" v="964133" />
		<tag k="water" v="lake" />
	</node>
	<node id="-770499" lat="69.5223194403" lon="20.5250138768">
		<tag k="name" v="Biedenjárga" />
		<tag k="name:se" v="Biedenjárga" />
		<tag k="natural" v="cape" />
		<tag k="ssr:stedsnr" v="721088" />
	</node>
	<node id="-769474" lat="69.5766694495" lon="20.5889416412">
		<tag k="name" v="Noammerjohka - Nommedalselva - Numerovankanjoki" />
		<tag k="name:fkv" v="Numerovankanjoki" />
		<tag k="name:no" v="Nommedalselva" />
		<tag k="name:se" v="Noammerjohka" />
		<tag k="ssr:stedsnr" v="19655" />
		<tag k="waterway" v="river" />
	</node>
	<node id="-769472" lat="69.6106972249" lon="20.5131027555">
		<tag k="name" v="Doarrunjohka - Doronelva - Toronjoki" />
		<tag k="name:fkv" v="Toronjoki" />
		<tag k="name:no" v="Doronelva" />
		<tag k="name:se" v="Doarrunjohka" />
		<tag k="ssr:stedsnr" v="19646" />
		<tag k="waterway" v="stream" />
	</node>
	<node id="-769983" lat="69.5071972205" lon="20.5268083015">
		<tag k="name" v="Čáhcenjárga" />
		<tag k="name:se" v="Čáhcenjárga" />
		<tag k="natural" v="cape" />
		<tag k="ssr:stedsnr" v="418064" />
	</node>
	<node id="-769463" lat="69.6553916673" lon="20.4827888622">
		<tag k="name" v="Šleađđojohka - Slædjokkelva" />
		<tag k="name:no" v="Slædjokkelva" />
		<tag k="name:se" v="Šleađđojohka" />
		<tag k="ssr:stedsnr" v="19560" />
		<tag k="waterway" v="stream" />
	</node>
	<node id="-769459" lat="69.6638500053" lon="20.727124971">
		<tag k="name" v="Mohcehatčazajávrrit - Nordmannvikvatnan" />
		<tag k="name:no" v="Nordmannvikvatnan" />
		<tag k="name:se" v="Mohcehatčazajávrrit" />
		<tag k="natural" v="water" />
		<tag k="ssr:stedsnr" v="19546" />
	</node>
	<node id="-769454" lat="69.4128416671" lon="20.8993249633">
		<tag k="name" v="Moskkujávri" />
		<tag k="name:se" v="Moskkujávri" />
		<tag k="natural" v="water" />
		<tag k="ssr:stedsnr" v="19501" />
	</node>
	<node id="-769965" lat="69.4674750013" lon="20.5324860921">
		<tag k="name" v="Váddjafielbmá" />
		<tag k="name:se" v="Váddjafielbmá" />
		<tag k="ssr:stedsnr" v="417192" />
		<tag k="waterway" v="stream" />
	</node>
	<node id="-769452" lat="69.3864472254" lon="21.0322722063">
		<tag k="loc_name:fkv" v="Kuolasjoki;Kuulasjoki" />
		<tag k="name" v="Guolášjohka" />
		<tag k="name:se" v="Guolášjohka" />
		<tag k="old_name:se" v="Guolasjohka" />
		<tag k="ssr:stedsnr" v="19494" />
		<tag k="waterway" v="river" />
	</node>
	<node id="-769451" lat="69.3831111163" lon="20.9158694165">
		<tag k="name" v="Magervatnet" />
		<tag k="name:no" v="Magervatnet" />
		<tag k="natural" v="water" />
		<tag k="ssr:stedsnr" v="19491" />
		<tag k="water" v="lake" />
	</node>
	<node id="-770474" lat="69.5032499998" lon="20.3630444378">
		<tag k="fixme" v="multiple name tags, choose one and add the other to alt_name" />
		<tag k="name" v="Buljohka;Bullojohka - Pullujoki" />
		<tag k="name:fkv" v="Pullujoki" />
		<tag k="name:se" v="Buljohka;Bullojohka" />
		<tag k="ssr:stedsnr" v="686859" />
		<tag k="waterway" v="river" />
	</node>
	<node id="-770985" lat="69.4810805574" lon="20.5138083188">
		<tag k="name" v="Suonjonjárga" />
		<tag k="name:se" v="Suonjonjárga" />
		<tag k="natural" v="cape" />
		<tag k="ssr:stedsnr" v="963164" />
	</node>
	<node id="-769448" lat="69.4819500013" lon="20.3990277704">
		<tag k="name" v="Hengelva" />
		<tag k="name:no" v="Hengelva" />
		<tag k="ssr:stedsnr" v="19287" />
		<tag k="waterway" v="stream" />
	</node>
	<node id="-770470" lat="69.3353499983" lon="21.1567083101">
		<tag k="name" v="Lágosjohka" />
		<tag k="name:se" v="Lágosjohka" />
		<tag k="ssr:stedsnr" v="686672" />
		<tag k="waterway" v="stream" />
	</node>
	<node id="-769444" lat="69.3109000008" lon="21.0794694061">
		<tag k="name" v="Márfejohka" />
		<tag k="name:se" v="Márfejohka" />
		<tag k="ssr:stedsnr" v="18622" />
		<tag k="waterway" v="river" />
	</node>
	<node id="-770979" lat="69.4212888885" lon="20.5737333156">
		<tag k="name" v="Ápmelašnjárga" />
		<tag k="name:se" v="Ápmelašnjárga" />
		<tag k="natural" v="cape" />
		<tag k="ssr:stedsnr" v="952577" />
	</node>
	<node id="-770465" lat="69.4453805558" lon="20.5300833076">
		<tag k="name" v="Dimbbarjohka - Tømmerelva" />
		<tag k="name:no" v="Tømmerelva" />
		<tag k="name:se" v="Dimbbarjohka" />
		<tag k="ssr:stedsnr" v="686603" />
		<tag k="waterway" v="stream" />
	</node>
	<node id="-769440" lat="69.2980611143" lon="20.9635166318">
		<tag k="name" v="Gaskkamus Smuolkojávri" />
		<tag k="name:se" v="Gaskkamus Smuolkojávri" />
		<tag k="natural" v="water" />
		<tag k="old_name:se" v="Smuolkojávri, gaskkamus" />
		<tag k="ssr:stedsnr" v="18498" />
		<tag k="water" v="lake" />
	</node>
	<node id="-770288" lat="69.5187027756" lon="20.5206110872">
		<tag k="loc_name:se" v="Gárjjusnjárga" />
		<tag k="name" v="Gárjelnjárga" />
		<tag k="name:se" v="Gárjelnjárga" />
		<tag k="natural" v="cape" />
		<tag k="ssr:stedsnr" v="599056" />
	</node>
	<node id="-769438" lat="69.6103648111" lon="20.6749008862">
		<tag k="name" v="Stineellesullot" />
		<tag k="name:se" v="Stineellesullot" />
		<tag k="place" v="islet" />
		<tag k="ssr:stedsnr" v="989661" />
	</node>
	<node id="-770461" lat="69.3601249994" lon="20.5768555343">
		<tag k="name" v="Fávrrosvárjohka" />
		<tag k="name:se" v="Fávrrosvárjohka" />
		<tag k="ssr:stedsnr" v="686571" />
		<tag k="waterway" v="stream" />
	</node>
	<node id="-770460" lat="69.3935833313" lon="20.8611305217">
		<tag k="name" v="Moskkuráššajohka" />
		<tag k="name:se" v="Moskkuráššajohka" />
		<tag k="ssr:stedsnr" v="686520" />
		<tag k="waterway" v="stream" />
	</node>
	<node id="-769947" lat="69.4924333373" lon="21.1136083022">
		<tag k="name" v="Stuora Njuorjojávri" />
		<tag k="name:se" v="Stuora Njuorjojávri" />
		<tag k="natural" v="water" />
		<tag k="old_name:se" v="Njuorjojávri, stuora;Njuorjojávri" />
		<tag k="ssr:stedsnr" v="261677" />
		<tag k="water" v="lake" />
	</node>
	<node id="-769942" lat="69.5304805571" lon="20.6988611009">
		<tag k="name" v="Lássejohka - Lassielva" />
		<tag k="name:no" v="Lassielva" />
		<tag k="name:se" v="Lássejohka" />
		<tag k="ssr:stedsnr" v="261642" />
		<tag k="waterway" v="stream" />
	</node>
	<node id="-769177" lat="69.488358336" lon="20.8855416439">
		<tag k="name" v="Heaikajohka" />
		<tag k="name:se" v="Heaikajohka" />
		<tag k="ssr:stedsnr" v="297284" />
		<tag k="waterway" v="stream" />
	</node>
	<node id="-769938" lat="69.3558805533" lon="20.9108110734">
		<tag k="name" v="Unna Njárggajávri" />
		<tag k="name:se" v="Unna Njárggajávri" />
		<tag k="natural" v="water" />
		<tag k="old_name:se" v="Njárggajávri, unna" />
		<tag k="ssr:stedsnr" v="261574" />
	</node>
	<node id="-769936" lat="69.4192638917" lon="20.9432860808">
		<tag k="name" v="Sorbmejohka - Ørnedalselva" />
		<tag k="name:no" v="Ørnedalselva" />
		<tag k="name:se" v="Sorbmejohka" />
		<tag k="ssr:stedsnr" v="261533" />
		<tag k="waterway" v="stream" />
	</node>
	<node id="-770956" lat="69.2523499997" lon="21.0641999613">
		<tag k="name" v="Guovddesjohka" />
		<tag k="name:se" v="Guovddesjohka" />
		<tag k="ssr:stedsnr" v="929628" />
		<tag k="waterway" v="stream" />
	</node>
	<node id="-769930" lat="69.4977666632" lon="20.3701833168">
		<tag k="name" v="Ytterelva" />
		<tag k="name:no" v="Ytterelva" />
		<tag k="ssr:stedsnr" v="261280" />
		<tag k="waterway" v="stream" />
	</node>
	<node id="-769929" lat="69.465874998" lon="20.3361555293">
		<tag k="name" v="Reavčájohka - Revdalselva" />
		<tag k="name:no" v="Revdalselva" />
		<tag k="name:se" v="Reavčájohka" />
		<tag k="ssr:stedsnr" v="261247" />
		<tag k="waterway" v="stream" />
	</node>
	<node id="-769416" lat="69.4864545387" lon="20.8552807792">
		<tag k="name" v="Ribatmohkki" />
		<tag k="name:se" v="Ribatmohkki" />
		<tag k="natural" v="bay" />
		<tag k="ssr:stedsnr" v="983748" />
	</node>
	<node id="-770131" lat="69.3546055584" lon="20.949341648">
		<tag k="name" v="Unna Goddejávri" />
		<tag k="name:se" v="Unna Goddejávri" />
		<tag k="natural" v="water" />
		<tag k="old_name:se" v="Goddejávri, unna" />
		<tag k="ssr:stedsnr" v="504563" />
	</node>
	<node id="-770945" lat="69.3231777792" lon="20.7419583051">
		<tag k="name" v="Olmmáijávri" />
		<tag k="name:se" v="Olmmáijávri" />
		<tag k="natural" v="water" />
		<tag k="ssr:stedsnr" v="929527" />
		<tag k="water" v="lake" />
	</node>
	<node id="-770944" lat="69.3315861134" lon="20.891716654">
		<tag k="name" v="Duolbajohka" />
		<tag k="name:se" v="Duolbajohka" />
		<tag k="ssr:stedsnr" v="929526" />
		<tag k="waterway" v="river" />
	</node>
	<node id="-770942" lat="69.4288888941" lon="20.7670333103">
		<tag k="name" v="Čáhppesjávri" />
		<tag k="name:se" v="Čáhppesjávri" />
		<tag k="natural" v="water" />
		<tag k="ssr:stedsnr" v="929506" />
		<tag k="water" v="lake" />
	</node>
	<node id="-769405" lat="69.6024472248" lon="20.5447721939">
		<tag k="name" v="Elveholmen" />
		<tag k="name:no" v="Elveholmen" />
		<tag k="place" v="islet" />
		<tag k="ssr:stedsnr" v="478960" />
	</node>
	<node id="-769404" lat="69.6532277786" lon="20.4784860965">
		<tag k="name" v="Mølnelva" />
		<tag k="name:no" v="Mølnelva" />
		<tag k="ssr:stedsnr" v="478946" />
		<tag k="waterway" v="stream" />
	</node>
	<node id="-770938" lat="69.2886694434" lon="20.9402527416">
		<tag k="name" v="Bajimus Smuolkojávri" />
		<tag k="name:se" v="Bajimus Smuolkojávri" />
		<tag k="natural" v="water" />
		<tag k="old_name:se" v="Smuolkojávrrit, bajimus" />
		<tag k="ssr:stedsnr" v="928669" />
		<tag k="water" v="lake" />
	</node>
	<node id="-769401" lat="69.3814416632" lon="20.5664110954">
		<tag k="name" v="Grønnhøydenelva" />
		<tag k="name:no" v="Grønnhøydenelva" />
		<tag k="ssr:stedsnr" v="478924" />
		<tag k="waterway" v="stream" />
	</node>
	<node id="-769400" lat="69.4131249982" lon="20.5725527575">
		<tag k="name" v="Antasnjárga" />
		<tag k="name:se" v="Antasnjárga" />
		<tag k="natural" v="cape" />
		<tag k="ssr:stedsnr" v="478916" />
	</node>
	<node id="-770421" lat="69.6026694407" lon="20.5688833237">
		<tag k="name" v="Luopmejohka" />
		<tag k="name:se" v="Luopmejohka" />
		<tag k="ssr:stedsnr" v="660701" />
		<tag k="waterway" v="stream" />
	</node>
	<node id="-770420" lat="69.6041722184" lon="20.5567444254">
		<tag k="name" v="Savvon" />
		<tag k="name:se" v="Savvon" />
		<tag k="natural" v="water" />
		<tag k="ssr:stedsnr" v="660700" />
		<tag k="water" v="lake" />
	</node>
	<node id="-770707" lat="69.3471333345" lon="20.647499971">
		<tag k="name" v="Čazajohka" />
		<tag k="name:se" v="Čazajohka" />
		<tag k="ssr:stedsnr" v="808546" />
		<tag k="waterway" v="stream" />
	</node>
	<node id="-770962" lat="69.5103027815" lon="20.5118138829">
		<tag k="loc_name:no" v="Jávrrijávri" />
		<tag k="loc_name:se" v="Vatnet" />
		<tag k="name" v="Jávri - Vatnet" />
		<tag k="name:no" v="Vatnet" />
		<tag k="name:se" v="Jávri" />
		<tag k="natural" v="water" />
		<tag k="ssr:stedsnr" v="929719" />
	</node>
	<node id="-769897" lat="69.6435444491" lon="20.4760722109">
		<tag k="name" v="Skarvelva" />
		<tag k="name:no" v="Skarvelva" />
		<tag k="ssr:stedsnr" v="236953" />
		<tag k="waterway" v="stream" />
	</node>
	<node id="-770407" lat="69.4899277825" lon="20.5090305401">
		<tag k="name" v="Jakobneset" />
		<tag k="name:no" v="Jakobneset" />
		<tag k="natural" v="cape" />
		<tag k="ssr:stedsnr" v="660202" />
	</node>
	<node id="-770363" lat="69.3766555574" lon="21.1330249599">
		<tag k="name" v="Gaskkamus Áhkkejávri" />
		<tag k="name:se" v="Gaskkamus Áhkkejávri" />
		<tag k="natural" v="water" />
		<tag k="old_name:se" v="Áhkkejávri, gaskkamus" />
		<tag k="ssr:stedsnr" v="625624" />
		<tag k="water" v="lake" />
	</node>
	<node id="-769888" lat="69.6098638934" lon="20.6291499887">
		<tag k="name" v="Guhkesláddu - Langtjønna" />
		<tag k="name:no" v="Langtjønna" />
		<tag k="name:se" v="Guhkesláddu" />
		<tag k="natural" v="water" />
		<tag k="ssr:stedsnr" v="236785" />
	</node>
	<node id="-770960" lat="69.5629611117" lon="20.443258317">
		<tag k="name" v="Latnjejohka - Bjørkelva" />
		<tag k="name:no" v="Bjørkelva" />
		<tag k="name:se" v="Latnjejohka" />
		<tag k="ssr:stedsnr" v="929649" />
		<tag k="waterway" v="stream" />
	</node>
	<node id="-770398" lat="69.5291222217" lon="20.5170471959">
		<tag k="name" v="Fielejohka" />
		<tag k="name:se" v="Fielejohka" />
		<tag k="ssr:stedsnr" v="660106" />
		<tag k="waterway" v="stream" />
	</node>
	<node id="-770909" lat="69.380525004" lon="20.5764555313">
		<tag k="name" v="Skáidi" />
		<tag k="name:se" v="Skáidi" />
		<tag k="natural" v="cape" />
		<tag k="ssr:stedsnr" v="904937" />
	</node>
	<node id="-769884" lat="69.5634472202" lon="20.60062499">
		<tag k="name" v="Kielva" />
		<tag k="name:no" v="Kielva" />
		<tag k="ssr:stedsnr" v="236724" />
		<tag k="waterway" v="stream" />
	</node>
	<node id="-769371" lat="69.4983666711" lon="20.5180999856">
		<tag k="name" v="Báhppasavu" />
		<tag k="name:se" v="Báhppasavu" />
		<tag k="natural" v="water" />
		<tag k="ssr:stedsnr" v="478068" />
		<tag k="water" v="lake" />
	</node>
	<node id="-769370" lat="69.5085027813" lon="20.5254472091">
		<tag k="name" v="Sáttosavu" />
		<tag k="name:se" v="Sáttosavu" />
		<tag k="natural" v="water" />
		<tag k="ssr:stedsnr" v="478063" />
		<tag k="water" v="lake" />
	</node>
	<node id="-770532" lat="69.3813250007" lon="21.0432805286">
		<tag k="name" v="Gussagurragorži" />
		<tag k="name:se" v="Gussagurragorži" />
		<tag k="natural" v="waterfall" />
		<tag k="ssr:stedsnr" v="721421" />
	</node>
	<node id="-769877" lat="69.4880583348" lon="20.8929583174">
		<tag k="name" v="Gihtel-Ellejohka - Ellenelva" />
		<tag k="name:no" v="Ellenelva" />
		<tag k="name:se" v="Gihtel-Ellejohka" />
		<tag k="ssr:stedsnr" v="236285" />
		<tag k="waterway" v="stream" />
	</node>
	<node id="-769364" lat="69.524913887" lon="20.7713305408">
		<tag k="name" v="Millojohka - Møllelva" />
		<tag k="name:no" v="Møllelva" />
		<tag k="name:se" v="Millojohka" />
		<tag k="ssr:stedsnr" v="477441" />
		<tag k="waterway" v="stream" />
	</node>
	<node id="-770898" lat="69.5445777828" lon="20.646127748">
		<tag k="name" v="Bjerkelielva" />
		<tag k="name:no" v="Bjerkelielva" />
		<tag k="ssr:stedsnr" v="904794" />
		<tag k="waterway" v="stream" />
	</node>
	<node id="-770897" lat="69.6113250022" lon="20.6884333156">
		<tag k="name" v="Bajit Riđajohka - Øvre Riddajokka" />
		<tag k="name:no" v="Øvre Riddajokka" />
		<tag k="name:se" v="Bajit Riđajohka" />
		<tag k="ssr:stedsnr" v="904785" />
		<tag k="waterway" v="stream" />
	</node>
	<node id="-770980" lat="69.4300833334" lon="20.9690388674">
		<tag k="name" v="Leaibenjárga" />
		<tag k="name:se" v="Leaibenjárga" />
		<tag k="natural" v="cape" />
		<tag k="ssr:stedsnr" v="963316" />
	</node>
	<node id="-770383" lat="69.4792388914" lon="20.5198749758">
		<tag k="name" v="Njirranfielbmá" />
		<tag k="name:se" v="Njirranfielbmá" />
		<tag k="ssr:stedsnr" v="648602" />
		<tag k="waterway" v="stream" />
	</node>
	<node id="-770377" lat="69.5520333327" lon="20.6479277688">
		<tag k="name" v="Doaresjohka - Tverrelva" />
		<tag k="name:no" v="Tverrelva" />
		<tag k="name:se" v="Doaresjohka" />
		<tag k="ssr:stedsnr" v="626690" />
		<tag k="waterway" v="stream" />
	</node>
	<node id="-769863" lat="69.6739722273" lon="20.5140666386">
		<tag k="name" v="Hersemokka" />
		<tag k="name:no" v="Hersemokka" />
		<tag k="natural" v="bay" />
		<tag k="ssr:stedsnr" v="235984" />
	</node>
	<node id="-770374" lat="69.5232138902" lon="20.4761388586">
		<tag k="name" v="Doaresjohka - Tverrelva" />
		<tag k="name:no" v="Tverrelva" />
		<tag k="name:se" v="Doaresjohka" />
		<tag k="ssr:stedsnr" v="626462" />
		<tag k="waterway" v="stream" />
	</node>
	<node id="-770885" lat="69.4607055557" lon="20.9249416482">
		<tag k="name" v="Uvresuolu" />
		<tag k="name:se" v="Uvresuolu" />
		<tag k="place" v="islet" />
		<tag k="ssr:stedsnr" v="904349" />
	</node>
	<node id="-770371" lat="69.4070249987" lon="21.0227249631">
		<tag k="name" v="Sabasjohka" />
		<tag k="name:se" v="Sabasjohka" />
		<tag k="ssr:stedsnr" v="625745" />
		<tag k="waterway" v="river" />
	</node>
	<node id="-770365" lat="69.293180559" lon="21.0916388613">
		<tag k="name" v="Márfejávri" />
		<tag k="name:se" v="Márfejávri" />
		<tag k="natural" v="water" />
		<tag k="ssr:stedsnr" v="625653" />
		<tag k="water" v="lake" />
	</node>
	<node id="-770875" lat="69.509258336" lon="20.5263527562">
		<tag k="name" v="Gieddenjárga" />
		<tag k="name:se" v="Gieddenjárga" />
		<tag k="natural" v="cape" />
		<tag k="ssr:stedsnr" v="904134" />
	</node>
	<node id="-769338" lat="69.5042833313" lon="20.7594972099">
		<tag k="alt_name:no" v="Melkeelva" />
		<tag k="name" v="Mielkejohka - Melkelva" />
		<tag k="name:no" v="Melkelva" />
		<tag k="name:se" v="Mielkejohka" />
		<tag k="ssr:stedsnr" v="382683" />
		<tag k="waterway" v="stream" />
	</node>
	<node id="-770873" lat="69.5248972196" lon="20.543144424">
		<tag k="name" v="Sommerelva" />
		<tag k="name:no" v="Sommerelva" />
		<tag k="ssr:stedsnr" v="904123" />
		<tag k="waterway" v="stream" />
	</node>
	<node id="-769848" lat="69.4441611097" lon="20.5441694339">
		<tag k="name" v="Vállasfielbmá" />
		<tag k="name:se" v="Vállasfielbmá" />
		<tag k="ssr:stedsnr" v="235227" />
		<tag k="waterway" v="stream" />
	</node>
	<node id="-770871" lat="69.5492166655" lon="20.5221083024">
		<tag k="name" v="Duvdnejohka" />
		<tag k="name:se" v="Duvdnejohka" />
		<tag k="ssr:stedsnr" v="904001" />
		<tag k="waterway" v="stream" />
	</node>
	<node id="-770870" lat="69.6027305515" lon="20.5438416538">
		<tag k="name" v="Mølleholmen" />
		<tag k="name:no" v="Mølleholmen" />
		<tag k="place" v="islet" />
		<tag k="ssr:stedsnr" v="903957" />
	</node>
	<node id="-770356" lat="69.4972333372" lon="20.7791722139">
		<tag k="alt_name:no" v="Iselva, yt" />
		<tag k="loc_name:se" v="Davit Iisajohka;Olggut Iisajohka" />
		<tag k="name" v="Davit Jiekŋajohka - Ytre Iselva" />
		<tag k="name:no" v="Ytre Iselva" />
		<tag k="name:se" v="Davit Jiekŋajohka" />
		<tag k="ssr:stedsnr" v="625564" />
		<tag k="waterway" v="stream" />
	</node>
	<node id="-769331" lat="69.5342999972" lon="20.7744083084">
		<tag k="name" v="Nieidajohka - Trollvikelva" />
		<tag k="name:no" v="Trollvikelva" />
		<tag k="name:se" v="Nieidajohka" />
		<tag k="ssr:stedsnr" v="382613" />
		<tag k="waterway" v="river" />
	</node>
	<node id="-770353" lat="69.3689138891" lon="20.7895360849">
		<tag k="name" v="Viessogielasjávri" />
		<tag k="name:se" v="Viessogielasjávri" />
		<tag k="natural" v="water" />
		<tag k="ssr:stedsnr" v="625543" />
	</node>
	<node id="-770864" lat="69.4400805525" lon="20.9530527538">
		<tag k="name" v="Hánskkesuolu" />
		<tag k="name:se" v="Hánskkesuolu" />
		<tag k="place" v="islet" />
		<tag k="ssr:stedsnr" v="903432" />
	</node>
	<node id="-770861" lat="69.492391667" lon="20.5204583214">
		<tag k="name" v="Guhkesnjárga" />
		<tag k="name:se" v="Guhkesnjárga" />
		<tag k="natural" v="cape" />
		<tag k="ssr:stedsnr" v="903191" />
	</node>
	<node id="-769324" lat="69.4496722254" lon="20.9191333143">
		<tag k="fixme" v="multiple name tags, choose one and add the other to alt_name" />
		<tag k="name" v="Boršojohka;Boršu" />
		<tag k="name:se" v="Boršojohka;Boršu" />
		<tag k="ssr:stedsnr" v="382523" />
		<tag k="waterway" v="stream" />
	</node>
	<node id="-769323" lat="69.4594583362" lon="20.3321110927">
		<tag k="name" v="Innerelva" />
		<tag k="name:no" v="Innerelva" />
		<tag k="ssr:stedsnr" v="382245" />
		<tag k="waterway" v="stream" />
	</node>
	<node id="-770695" lat="69.5444861138" lon="20.8841999797">
		<tag k="name" v="Nieidajávri" />
		<tag k="name:se" v="Nieidajávri" />
		<tag k="natural" v="water" />
		<tag k="ssr:stedsnr" v="807612" />
	</node>
	<node id="-770856" lat="69.5595388861" lon="20.5225194274">
		<tag k="loc_name:no" v="Davvegietjohka" />
		<tag k="name" v="Yttergårdselva" />
		<tag k="name:no" v="Yttergårdselva" />
		<tag k="ssr:stedsnr" v="903009" />
		<tag k="waterway" v="stream" />
	</node>
	<node id="-770524" lat="69.6108722255" lon="20.643149979">
		<tag k="name" v="Hundeneset" />
		<tag k="name:no" v="Hundeneset" />
		<tag k="natural" v="cape" />
		<tag k="ssr:stedsnr" v="721753" />
	</node>
	<node id="-770865" lat="69.439138894" lon="20.9591277515">
		<tag k="name" v="Rušenjárga" />
		<tag k="name:se" v="Rušenjárga" />
		<tag k="natural" v="cape" />
		<tag k="ssr:stedsnr" v="903431" />
	</node>
	<node id="-770352" lat="69.4316583345" lon="20.9075472061">
		<tag k="name" v="Siskkit Boršojávri" />
		<tag k="name:se" v="Siskkit Boršojávri" />
		<tag k="natural" v="water" />
		<tag k="old_name:se" v="Boršojávri, siskkit" />
		<tag k="ssr:stedsnr" v="625514" />
	</node>
	<node id="-769328" lat="69.4576499984" lon="20.725219417">
		<tag k="name" v="Moldojohka" />
		<tag k="name:se" v="Moldojohka" />
		<tag k="ssr:stedsnr" v="382583" />
		<tag k="waterway" v="stream" />
	</node>
	<node id="-769822" lat="69.4811194414" lon="20.837341645">
		<tag k="alt_name:no" v="Okselva" />
		<tag k="name" v="Vuoksájohka - Okseelva" />
		<tag k="name:no" v="Okseelva" />
		<tag k="name:se" v="Vuoksájohka" />
		<tag k="ssr:stedsnr" v="201570" />
		<tag k="waterway" v="stream" />
	</node>
	<node id="-769821" lat="69.4666194477" lon="20.6958444178">
		<tag k="name" v="Bievlajávri" />
		<tag k="name:se" v="Bievlajávri" />
		<tag k="natural" v="water" />
		<tag k="ssr:stedsnr" v="201566" />
		<tag k="water" v="lake" />
	</node>
	<node id="-769818" lat="69.6514916717" lon="20.620280535">
		<tag k="fixme" v="multiple name tags, choose one and add the other to alt_name" />
		<tag k="name" v="Dážavákkijohka - Vikelva;Nordmannvikelva;Storelva" />
		<tag k="name:no" v="Vikelva;Nordmannvikelva;Storelva" />
		<tag k="name:se" v="Dážavákkijohka" />
		<tag k="ssr:stedsnr" v="201544" />
		<tag k="waterway" v="river" />
	</node>
	<node id="-770839" lat="69.6793944418" lon="20.5126527683">
		<tag k="fixme" v="multiple name tags, choose one and add the other to alt_name" />
		<tag k="name" v="Karenelva;Nordmannvikelva" />
		<tag k="name:no" v="Karenelva;Nordmannvikelva" />
		<tag k="ssr:stedsnr" v="869607" />
		<tag k="waterway" v="stream" />
	</node>
	<node id="-769813" lat="69.3786249983" lon="20.5880527621">
		<tag k="name" v="Olmmáivátskáidi" />
		<tag k="name:se" v="Olmmáivátskáidi" />
		<tag k="natural" v="cape" />
		<tag k="ssr:stedsnr" v="201473" />
	</node>
	<node id="-769811" lat="69.3417277801" lon="21.0737805298">
		<tag k="name" v="Sinaidmohkki" />
		<tag k="name:se" v="Sinaidmohkki" />
		<tag k="natural" v="bay" />
		<tag k="ssr:stedsnr" v="200669" />
	</node>
	<node id="-769810" lat="69.3507944481" lon="21.1224388607">
		<tag k="name" v="Stuoranjárga" />
		<tag k="name:se" v="Stuoranjárga" />
		<tag k="natural" v="cape" />
		<tag k="ssr:stedsnr" v="200665" />
	</node>
	<node id="-770833" lat="69.2696083328" lon="20.971124983">
		<tag k="name" v="Njárgajávri" />
		<tag k="name:se" v="Njárgajávri" />
		<tag k="natural" v="water" />
		<tag k="ssr:stedsnr" v="868647" />
	</node>
	<node id="-770320" lat="69.556352782" lon="20.6247444303">
		<tag k="name" v="Guortesjohka" />
		<tag k="name:se" v="Guortesjohka" />
		<tag k="ssr:stedsnr" v="600737" />
		<tag k="waterway" v="stream" />
	</node>
	<node id="-769807" lat="69.4164499995" lon="20.6239110973">
		<tag k="name" v="Ápmelašjohka" />
		<tag k="name:se" v="Ápmelašjohka" />
		<tag k="ssr:stedsnr" v="200541" />
		<tag k="waterway" v="stream" />
	</node>
	<node id="-770829" lat="69.5520333327" lon="20.6479277688">
		<tag k="alt_name:no" v="Ordavatnet" />
		<tag k="name" v="Ordajávri - Årdavatnet" />
		<tag k="name:no" v="Årdavatnet" />
		<tag k="name:se" v="Ordajávri" />
		<tag k="natural" v="water" />
		<tag k="ssr:stedsnr" v="868635" />
	</node>
	<node id="-770825" lat="69.5353305588" lon="20.4984055271">
		<tag k="name" v="Geađgejohka - Steinelva" />
		<tag k="name:no" v="Steinelva" />
		<tag k="name:se" v="Geađgejohka" />
		<tag k="ssr:stedsnr" v="868590" />
		<tag k="waterway" v="stream" />
	</node>
	<node id="-770348" lat="69.3683250018" lon="21.1323083152">
		<tag k="name" v="Vuolimus Áhkkejávri" />
		<tag k="name:se" v="Vuolimus Áhkkejávri" />
		<tag k="natural" v="water" />
		<tag k="old_name:se" v="Áhkkejávri, vuolimus" />
		<tag k="ssr:stedsnr" v="624617" />
		<tag k="water" v="lake" />
	</node>
	<node id="-770309" lat="69.508663887" lon="20.7983527615">
		<tag k="name" v="Skožžajohka" />
		<tag k="name:se" v="Skožžajohka" />
		<tag k="ssr:stedsnr" v="599497" />
		<tag k="waterway" v="stream" />
	</node>
	<node id="-770820" lat="69.4655249989" lon="20.9122805212">
		<tag k="name" v="Gáivuoneatnu - Kåfjordelva" />
		<tag k="name:no" v="Kåfjordelva" />
		<tag k="name:se" v="Gáivuoneatnu" />
		<tag k="ssr:stedsnr" v="868566" />
		<tag k="waterway" v="river" />
	</node>
	<node id="-770816" lat="69.4977138915" lon="20.6460888738">
		<tag k="alt_name:no" v="Tverrelva, nedre" />
		<tag k="name" v="Doaresjohka - Nedre Tverrelva" />
		<tag k="name:no" v="Nedre Tverrelva" />
		<tag k="name:se" v="Doaresjohka" />
		<tag k="ssr:stedsnr" v="868550" />
		<tag k="waterway" v="stream" />
	</node>
	<node id="-770261" lat="69.506927781" lon="20.6889471939">
		<tag k="name" v="Boađđojohka - Båelva" />
		<tag k="name:no" v="Båelva" />
		<tag k="name:se" v="Boađđojohka" />
		<tag k="ssr:stedsnr" v="564703" />
		<tag k="waterway" v="stream" />
	</node>
	<node id="-770298" lat="69.4916638878" lon="20.5333666384">
		<tag k="name" v="Golgi" />
		<tag k="name:se" v="Golgi" />
		<tag k="natural" v="spring" />
		<tag k="ssr:stedsnr" v="599149" />
	</node>
	<node id="-770297" lat="69.4904138921" lon="20.5160527706">
		<tag k="name" v="Gihcenjárga" />
		<tag k="name:se" v="Gihcenjárga" />
		<tag k="natural" v="cape" />
		<tag k="ssr:stedsnr" v="599148" />
	</node>
	<node id="-770295" lat="69.5338111086" lon="20.5129972096">
		<tag k="name" v="Jorranjohka" />
		<tag k="name:se" v="Jorranjohka" />
		<tag k="ssr:stedsnr" v="599123" />
		<tag k="waterway" v="stream" />
	</node>
	<node id="-770810" lat="69.4513999989" lon="20.9788055307">
		<tag k="name" v="Hánskejohka" />
		<tag k="name:se" v="Hánskejohka" />
		<tag k="ssr:stedsnr" v="868522" />
		<tag k="waterway" v="stream" />
	</node>
	<node id="-769235" lat="69.5513138891" lon="20.3929527529">
		<tag k="name" v="Speinabitelva" />
		<tag k="name:no" v="Speinabitelva" />
		<tag k="ssr:stedsnr" v="330064" />
		<tag k="waterway" v="river" />
	</node>
	<node id="-769264" lat="69.6131805567" lon="20.5043666611">
		<tag k="name" v="Lallasjohka" />
		<tag k="name:se" v="Lallasjohka" />
		<tag k="ssr:stedsnr" v="357019" />
		<tag k="waterway" v="stream" />
	</node>
	<node id="-770263" lat="69.5152972184" lon="20.3949416477">
		<tag k="fixme" v="multiple name tags, choose one and add the other to alt_name" />
		<tag k="name" v="Krokelva;Sandneselva" />
		<tag k="name:no" v="Krokelva;Sandneselva" />
		<tag k="ssr:stedsnr" v="564873" />
		<tag k="waterway" v="stream" />
	</node>
	<node id="-770285" lat="69.527819444" lon="20.7324860829">
		<tag k="loc_name:no" v="Forneselva;Fyenelva" />
		<tag k="loc_name:se" v="Fyenajohka" />
		<tag k="name" v="Luotejohka" />
		<tag k="name:se" v="Luotejohka" />
		<tag k="ssr:stedsnr" v="598552" />
		<tag k="waterway" v="stream" />
	</node>
	<node id="-769575" lat="69.4761888927" lon="20.4698333089">
		<tag k="name" v="Áhkávátjohka" />
		<tag k="name:se" v="Áhkávátjohka" />
		<tag k="ssr:stedsnr" v="79589" />
		<tag k="waterway" v="river" />
	</node>
	<node id="-769767" lat="69.3819805561" lon="20.5735277657">
		<tag k="name" v="Skáidenjunni" />
		<tag k="name:se" v="Skáidenjunni" />
		<tag k="natural" v="cape" />
		<tag k="ssr:stedsnr" v="175915" />
	</node>
	<node id="-769829" lat="69.5153500011" lon="20.9172194229">
		<tag k="name" v="Badjánanjohka - Røyselva" />
		<tag k="name:no" v="Røyselva" />
		<tag k="name:se" v="Badjánanjohka" />
		<tag k="ssr:stedsnr" v="201722" />
		<tag k="waterway" v="stream" />
	</node>
	<node id="-769243" lat="69.5361972266" lon="20.533086098">
		<tag k="name" v="Duolbanjohka" />
		<tag k="name:se" v="Duolbanjohka" />
		<tag k="ssr:stedsnr" v="356153" />
		<tag k="waterway" v="stream" />
	</node>
	<node id="-769242" lat="69.5207083305" lon="20.525638876">
		<tag k="name" v="Millonjárga" />
		<tag k="name:se" v="Millonjárga" />
		<tag k="natural" v="cape" />
		<tag k="ssr:stedsnr" v="356111" />
	</node>
	<node id="-770181" lat="69.5251416718" lon="20.5274110921">
		<tag k="name" v="Nuohttesavu" />
		<tag k="name:se" v="Nuohttesavu" />
		<tag k="natural" v="water" />
		<tag k="ssr:stedsnr" v="539089" />
		<tag k="water" v="lake" />
	</node>
	<node id="-770775" lat="69.7190638931" lon="20.5378499785">
		<tag k="name" v="Engeneselva" />
		<tag k="name:no" v="Engeneselva" />
		<tag k="ssr:stedsnr" v="843923" />
		<tag k="waterway" v="stream" />
	</node>
	<node id="-770774" lat="69.4190555564" lon="20.5704722122">
		<tag k="name" v="Ruovddášnjárga" />
		<tag k="name:se" v="Ruovddášnjárga" />
		<tag k="natural" v="cape" />
		<tag k="ssr:stedsnr" v="843908" />
	</node>
	<node id="-769749" lat="69.6118555592" lon="20.6692916527">
		<tag k="name" v="Bártnasavvon" />
		<tag k="name:se" v="Bártnasavvon" />
		<tag k="natural" v="water" />
		<tag k="ssr:stedsnr" v="175782" />
		<tag k="water" v="lake" />
	</node>
	<node id="-769747" lat="69.4621583293" lon="20.9548444269">
		<tag k="name" v="Golgibáktijohka" />
		<tag k="name:se" v="Golgibáktijohka" />
		<tag k="ssr:stedsnr" v="175350" />
		<tag k="waterway" v="stream" />
	</node>
	<node id="-770257" lat="69.2894500052" lon="21.1291860856">
		<tag k="name" v="Bižusjohka" />
		<tag k="name:se" v="Bižusjohka" />
		<tag k="ssr:stedsnr" v="564651" />
		<tag k="waterway" v="river" />
	</node>
	<node id="-770936" lat="69.3006027805" lon="20.8623749888">
		<tag k="name" v="Ráššanibbajávri" />
		<tag k="name:se" v="Ráššanibbajávri" />
		<tag k="natural" v="water" />
		<tag k="ssr:stedsnr" v="928496" />
	</node>
	<node id="-769230" lat="69.3902444438" lon="21.1265610716">
		<tag k="name" v="Áhkkejohka" />
		<tag k="name:se" v="Áhkkejohka" />
		<tag k="ssr:stedsnr" v="322650" />
		<tag k="waterway" v="stream" />
	</node>
	<node id="-770253" lat="69.356025002" lon="21.1511527621">
		<tag k="name" v="Julaidanluokta" />
		<tag k="name:se" v="Julaidanluokta" />
		<tag k="natural" v="bay" />
		<tag k="ssr:stedsnr" v="564629" />
	</node>
	<node id="-770252" lat="69.5427250008" lon="20.4665499797">
		<tag k="name" v="Gorsajohka" />
		<tag k="name:se" v="Gorsajohka" />
		<tag k="ssr:stedsnr" v="564627" />
		<tag k="waterway" v="stream" />
	</node>
	<node id="-770251" lat="69.5466833355" lon="20.8121888549">
		<tag k="loc_name:se" v="Doaresjohka" />
		<tag k="name" v="Tverrelva" />
		<tag k="name:no" v="Tverrelva" />
		<tag k="ssr:stedsnr" v="564622" />
		<tag k="waterway" v="stream" />
	</node>
	<node id="-770250" lat="69.4844527764" lon="20.9056472075">
		<tag k="name" v="Ruovddášjohka" />
		<tag k="name:se" v="Ruovddášjohka" />
		<tag k="ssr:stedsnr" v="564616" />
		<tag k="waterway" v="stream" />
	</node>
	<node id="-769223" lat="69.53411389" lon="20.5276361054">
		<tag k="alt_name:se" v="Olmmáivátjohka" />
		<tag k="name" v="Olmmáiváteatnu - Manndalselva" />
		<tag k="name:no" v="Manndalselva" />
		<tag k="name:se" v="Olmmáiváteatnu" />
		<tag k="ssr:stedsnr" v="322592" />
		<tag k="waterway" v="river" />
	</node>
	<node id="-770243" lat="69.740505554" lon="20.5455027608">
		<tag k="name" v="Storelva" />
		<tag k="name:no" v="Storelva" />
		<tag k="ssr:stedsnr" v="564590" />
		<tag k="waterway" v="stream" />
	</node>
	<node id="-769730" lat="69.5171555558" lon="20.5256666478">
		<tag k="name" v="Bieragieddnjárga" />
		<tag k="name:se" v="Bieragieddnjárga" />
		<tag k="natural" v="cape" />
		<tag k="ssr:stedsnr" v="175098" />
	</node>
	<node id="-769729" lat="69.5201027784" lon="20.5277249743">
		<tag k="name" v="Láiresavu" />
		<tag k="name:se" v="Láiresavu" />
		<tag k="natural" v="water" />
		<tag k="ssr:stedsnr" v="175092" />
		<tag k="water" v="lake" />
	</node>
	<node id="-769216" lat="69.3603083378" lon="20.9153610834">
		<tag k="name" v="Lávvojávri" />
		<tag k="name:se" v="Lávvojávri" />
		<tag k="natural" v="water" />
		<tag k="ssr:stedsnr" v="322550" />
	</node>
	<node id="-769215" lat="69.4220861142" lon="20.9781277655">
		<tag k="name" v="Goikegorsa - Tørrfossen" />
		<tag k="name:no" v="Tørrfossen" />
		<tag k="name:se" v="Goikegorsa" />
		<tag k="natural" v="waterfall" />
		<tag k="ssr:stedsnr" v="322518" />
	</node>
	<node id="-769214" lat="69.4076694421" lon="20.7541666336">
		<tag k="name" v="Čiččenjávri" />
		<tag k="name:se" v="Čiččenjávri" />
		<tag k="natural" v="water" />
		<tag k="ssr:stedsnr" v="322516" />
		<tag k="water" v="lake" />
	</node>
	<node id="-769213" lat="69.387558335" lon="20.6056916445">
		<tag k="name" v="Uhcanjárggašjohka" />
		<tag k="name:se" v="Uhcanjárggašjohka" />
		<tag k="ssr:stedsnr" v="322504" />
		<tag k="waterway" v="stream" />
	</node>
	<node id="-769211" lat="69.3593861163" lon="21.103555531">
		<tag k="name" v="Julaidanjávri" />
		<tag k="name:se" v="Julaidanjávri" />
		<tag k="natural" v="water" />
		<tag k="ssr:stedsnr" v="321598" />
	</node>
	<node id="-770079" lat="69.3414194471" lon="20.6375110953">
		<tag k="name" v="Čazajávri" />
		<tag k="name:se" v="Čazajávri" />
		<tag k="natural" v="water" />
		<tag k="ssr:stedsnr" v="444539" />
	</node>
	<node id="-769718" lat="69.466330555" lon="20.5404555455">
		<tag k="name" v="Gálasavvon" />
		<tag k="name:se" v="Gálasavvon" />
		<tag k="natural" v="water" />
		<tag k="ssr:stedsnr" v="174213" />
		<tag k="water" v="lake" />
	</node>
	<node id="-770505" lat="69.4793444436" lon="20.5275249713">
		<tag k="name" v="Guvtesjohka" />
		<tag k="name:se" v="Guvtesjohka" />
		<tag k="ssr:stedsnr" v="721137" />
		<tag k="waterway" v="stream" />
	</node>
	<node id="-769716" lat="69.4825083343" lon="20.5169972134">
		<tag k="name" v="Liigesuolu" />
		<tag k="name:se" v="Liigesuolu" />
		<tag k="place" v="islet" />
		<tag k="ssr:stedsnr" v="174185" />
	</node>
	<node id="-769359" lat="69.5246583336" lon="20.5243944387">
		<tag k="name" v="Gorži - Fossen" />
		<tag k="name:no" v="Fossen" />
		<tag k="name:se" v="Gorži" />
		<tag k="natural" v="waterfall" />
		<tag k="ssr:stedsnr" v="403994" />
	</node>
	<node id="-770734" lat="69.3782444421" lon="21.0180888616">
		<tag k="name" v="Unna Ruonasjohka" />
		<tag k="name:se" v="Unna Ruonasjohka" />
		<tag k="ssr:stedsnr" v="842444" />
		<tag k="waterway" v="stream" />
	</node>
	<node id="-770077" lat="69.4692750018" lon="21.0503499805">
		<tag k="name" v="Boatkajávrrit" />
		<tag k="name:se" v="Boatkajávrrit" />
		<tag k="natural" v="water" />
		<tag k="ssr:stedsnr" v="443699" />
		<tag k="water" v="lake" />
	</node>
	<node id="-770907" lat="69.4048305547" lon="20.5620444297">
		<tag k="name" v="Njiccennjárga" />
		<tag k="name:se" v="Njiccennjárga" />
		<tag k="natural" v="cape" />
		<tag k="ssr:stedsnr" v="904929" />
	</node>
	<node id="-770726" lat="69.5317000014" lon="20.5378749913">
		<tag k="name" v="Guhkesnjárga" />
		<tag k="name:se" v="Guhkesnjárga" />
		<tag k="natural" v="cape" />
		<tag k="ssr:stedsnr" v="842154" />
	</node>
	<node id="-770725" lat="69.5321916653" lon="20.5336860847">
		<tag k="name" v="Rehkuvdnu" />
		<tag k="name:se" v="Rehkuvdnu" />
		<tag k="natural" v="bay" />
		<tag k="ssr:stedsnr" v="842147" />
	</node>
	<node id="-769185" lat="69.529458332" lon="20.7097138781">
		<tag k="loc_name:no" v="Sågeselva" />
		<tag k="loc_name:se" v="Coagesjohka" />
		<tag k="name" v="Coagasjohka" />
		<tag k="name:se" v="Coagasjohka" />
		<tag k="ssr:stedsnr" v="297816" />
		<tag k="waterway" v="stream" />
	</node>
	<node id="-769696" lat="69.4738833329" lon="20.9335833089">
		<tag k="name" v="Skáidejohka" />
		<tag k="name:se" v="Skáidejohka" />
		<tag k="old_name:se" v="Skáidijohka" />
		<tag k="ssr:stedsnr" v="140595" />
		<tag k="waterway" v="stream" />
	</node>
	<node id="-769693" lat="69.6373527762" lon="20.4696055471">
		<tag k="name" v="Russelva" />
		<tag k="name:no" v="Russelva" />
		<tag k="ssr:stedsnr" v="140575" />
		<tag k="waterway" v="stream" />
	</node>
	<node id="-769691" lat="69.4954944435" lon="20.7870694279">
		<tag k="alt_name:no" v="Iselva, in" />
		<tag k="loc_name:se" v="Siskkit Iisajohka" />
		<tag k="name" v="Jiekŋajohka - Indre Iselva" />
		<tag k="name:no" v="Indre Iselva" />
		<tag k="name:se" v="Jiekŋajohka" />
		<tag k="ssr:stedsnr" v="140555" />
		<tag k="waterway" v="stream" />
	</node>
	<node id="-770202" lat="69.4127027774" lon="20.5694777577">
		<tag k="name" v="Uhcanjárga" />
		<tag k="name:se" v="Uhcanjárga" />
		<tag k="natural" v="cape" />
		<tag k="ssr:stedsnr" v="539905" />
	</node>
	<node id="-769689" lat="69.4017749987" lon="21.0522777484">
		<tag k="name" v="Sabetjávri" />
		<tag k="name:se" v="Sabetjávri" />
		<tag k="natural" v="water" />
		<tag k="ssr:stedsnr" v="140640" />
	</node>
	<node id="-771008" lat="69.7351083352" lon="20.5250027508">
		<tag k="name" v="Mølnelva" />
		<tag k="name:no" v="Mølnelva" />
		<tag k="ssr:stedsnr" v="963909" />
		<tag k="waterway" v="stream" />
	</node>
	<node id="-769175" lat="69.4728527787" lon="20.9370610887">
		<tag k="name" v="Skáidi" />
		<tag k="name:se" v="Skáidi" />
		<tag k="natural" v="cape" />
		<tag k="ssr:stedsnr" v="297260" />
	</node>
	<node id="-769684" lat="69.3602666652" lon="20.9641249623">
		<tag k="name" v="Roannajávri" />
		<tag k="name:se" v="Roannajávri" />
		<tag k="natural" v="water" />
		<tag k="ssr:stedsnr" v="140541" />
	</node>
	<node id="-769683" lat="69.4480638916" lon="20.9216666451">
		<tag k="alt_name:no" v="Båršo, litle" />
		<tag k="name" v="Uhca Boršu - Litle Båršo" />
		<tag k="name:no" v="Litle Båršo" />
		<tag k="name:se" v="Uhca Boršu" />
		<tag k="ssr:stedsnr" v="140505" />
		<tag k="waterway" v="stream" />
	</node>
	<node id="-769681" lat="69.4502083374" lon="20.5892860953">
		<tag k="alt_name:se" v="Rastteváddjafielbmá" />
		<tag k="name" v="Rastteváddjajohka" />
		<tag k="name:se" v="Rastteváddjajohka" />
		<tag k="ssr:stedsnr" v="140503" />
		<tag k="waterway" v="stream" />
	</node>
	<node id="-769680" lat="69.3746750012" lon="20.9662527518">
		<tag k="name" v="Unna-Goddejohka" />
		<tag k="name:se" v="Unna-Goddejohka" />
		<tag k="ssr:stedsnr" v="140478" />
		<tag k="waterway" v="stream" />
	</node>
	<node id="-770703" lat="69.3164555582" lon="21.0212971969">
		<tag k="name" v="Vuolimus Smuolkojávri" />
		<tag k="name:se" v="Vuolimus Smuolkojávri" />
		<tag k="natural" v="water" />
		<tag k="old_name:se" v="Smuolkojávri, vuolimus" />
		<tag k="ssr:stedsnr" v="807661" />
		<tag k="water" v="lake" />
	</node>
	<node id="-769676" lat="69.359463886" lon="21.0831249818">
		<tag k="name" v="Guolassáiva" />
		<tag k="name:se" v="Guolassáiva" />
		<tag k="natural" v="water" />
		<tag k="ssr:stedsnr" v="139632" />
	</node>
	<node id="-769159" lat="69.5062166656" lon="20.8085638747">
		<tag k="fixme" v="multiple name tags, choose one and add the other to alt_name" />
		<tag k="name" v="Náhkkejohka;Siskkitájajohka" />
		<tag k="name:se" v="Náhkkejohka;Siskkitájajohka" />
		<tag k="ssr:stedsnr" v="296450" />
		<tag k="waterway" v="stream" />
	</node>
	<node id="-770241" lat="69.482877781" lon="20.4448749958">
		<tag k="name" v="Doaresjohka - Tverrelva" />
		<tag k="name:no" v="Tverrelva" />
		<tag k="name:se" v="Doaresjohka" />
		<tag k="ssr:stedsnr" v="564573" />
		<tag k="waterway" v="stream" />
	</node>
	<node id="-769156" lat="69.4457999994" lon="20.5530444127">
		<tag k="name" v="Áitegállusuolu" />
		<tag k="name:se" v="Áitegállusuolu" />
		<tag k="place" v="islet" />
		<tag k="ssr:stedsnr" v="296182" />
	</node>
	<node id="-770070" lat="69.3419250017" lon="21.1161249666">
		<tag k="loc_name:fkv" v="Kuolas;Kuulas" />
		<tag k="name" v="Guolasjávri" />
		<tag k="name:se" v="Guolasjávri" />
		<tag k="natural" v="water" />
		<tag k="ssr:stedsnr" v="443657" />
		<tag k="water" v="lake" />
	</node>
	<node id="-770690" lat="69.3523138941" lon="20.5542055357">
		<tag k="name" v="Fávrrosvárjávrrit" />
		<tag k="name:se" v="Fávrrosvárjávrrit" />
		<tag k="natural" v="water" />
		<tag k="ssr:stedsnr" v="807549" />
		<tag k="water" v="lake" />
	</node>
	<node id="-769151" lat="69.4857722256" lon="20.5137277732">
		<tag k="name" v="Mohkijávri" />
		<tag k="name:se" v="Mohkijávri" />
		<tag k="natural" v="water" />
		<tag k="ssr:stedsnr" v="296129" />
	</node>
	<node id="-770174" lat="69.4963666678" lon="20.829883298">
		<tag k="name" v="Jeaggejohka" />
		<tag k="name:se" v="Jeaggejohka" />
		<tag k="ssr:stedsnr" v="538621" />
		<tag k="waterway" v="stream" />
	</node>
	<node id="-769301" lat="69.5125527799" lon="20.511397198">
		<tag k="loc_name:se" v="Vanneelva" />
		<tag k="name" v="Jávrejohka" />
		<tag k="name:se" v="Jávrejohka" />
		<tag k="ssr:stedsnr" v="363487" />
		<tag k="waterway" v="stream" />
	</node>
	<node id="-770172" lat="69.4947805585" lon="20.8633805308">
		<tag k="name" v="Gáldojohka" />
		<tag k="name:se" v="Gáldojohka" />
		<tag k="ssr:stedsnr" v="538520" />
		<tag k="waterway" v="stream" />
	</node>
	<node id="-769147" lat="69.526744448" lon="20.5364194217">
		<tag k="name" v="Goržžinjárga" />
		<tag k="name:se" v="Goržžinjárga" />
		<tag k="natural" v="cape" />
		<tag k="ssr:stedsnr" v="296082" />
	</node>
	<node id="-770169" lat="69.533683334" lon="20.5314999914">
		<tag k="name" v="Čáhcesuolu" />
		<tag k="name:se" v="Čáhcesuolu" />
		<tag k="natural" v="cape" />
		<tag k="ssr:stedsnr" v="538141" />
	</node>
	<node id="-769144" lat="69.5700166678" lon="20.5044194162">
		<tag k="name" v="Guorttesjohka" />
		<tag k="name:se" v="Guorttesjohka" />
		<tag k="ssr:stedsnr" v="296064" />
		<tag k="waterway" v="stream" />
	</node>
	<node id="-769141" lat="69.5296999998" lon="20.7549583196">
		<tag k="name" v="Geađgejohka" />
		<tag k="name:se" v="Geađgejohka" />
		<tag k="ssr:stedsnr" v="295571" />
		<tag k="waterway" v="stream" />
	</node>
	<node id="-769336" lat="69.3344750054" lon="21.090636076">
		<tag k="name" v="Márfeluokta" />
		<tag k="name:se" v="Márfeluokta" />
		<tag k="natural" v="bay" />
		<tag k="ssr:stedsnr" v="382646" />
	</node>
	<node id="-770163" lat="69.5059250004" lon="20.8476971892">
		<tag k="name" v="Juopmitája" />
		<tag k="name:se" v="Juopmitája" />
		<tag k="natural" v="spring" />
		<tag k="ssr:stedsnr" v="539409" />
	</node>
	<node id="-769138" lat="69.5250527819" lon="20.7598777615">
		<tag k="name" v="Alvejohka" />
		<tag k="name:se" v="Alvejohka" />
		<tag k="ssr:stedsnr" v="295431" />
		<tag k="waterway" v="stream" />
	</node>
	<node id="-770835" lat="69.4770833375" lon="21.0445555302">
		<tag k="name" v="Njuorjojohka" />
		<tag k="name:se" v="Njuorjojohka" />
		<tag k="ssr:stedsnr" v="868686" />
		<tag k="waterway" v="river" />
	</node>
	<node id="-770834" lat="69.4895027825" lon="21.1492833091">
		<tag k="name" v="Bajit Njuorjojávri" />
		<tag k="name:se" v="Bajit Njuorjojávri" />
		<tag k="natural" v="water" />
		<tag k="old_name:se" v="Njuorjojávri, bajit" />
		<tag k="ssr:stedsnr" v="868655" />
		<tag k="water" v="lake" />
	</node>
	<node id="-770853" lat="69.4930666626" lon="20.8146916533">
		<tag k="name" v="Langåsajorpmit" />
		<tag k="name:no" v="Langåsajorpmit" />
		<tag k="place" v="locality" />
		<tag k="ssr:stedsnr" v="902621" />
	</node>
	<node id="-769641" lat="69.6118666717" lon="20.6560694144">
		<tag k="name" v="Ádjatmohkki" />
		<tag k="name:se" v="Ádjatmohkki" />
		<tag k="natural" v="water" />
		<tag k="old_name:se" v="Ájamohkki" />
		<tag k="ssr:stedsnr" v="115757" />
		<tag k="water" v="lake" />
	</node>
	<node id="-770151" lat="69.5089194449" lon="20.4713416455">
		<tag k="name" v="Stuorrajohka - Storelva" />
		<tag k="name:no" v="Storelva" />
		<tag k="name:se" v="Stuorrajohka" />
		<tag k="ssr:stedsnr" v="504729" />
		<tag k="waterway" v="stream" />
	</node>
	<node id="-769638" lat="69.5116972208" lon="20.6706333161">
		<tag k="name" v="Stuoranjirranjohka" />
		<tag k="name:se" v="Stuoranjirranjohka" />
		<tag k="ssr:stedsnr" v="115742" />
		<tag k="waterway" v="stream" />
	</node>
	<node id="-770150" lat="69.519605559" lon="20.9426944299">
		<tag k="name" v="Hearrávátskáidi" />
		<tag k="name:se" v="Hearrávátskáidi" />
		<tag k="natural" v="cape" />
		<tag k="ssr:stedsnr" v="504726" />
	</node>
	<node id="-770239" lat="69.3370777833" lon="20.6646027482">
		<tag k="name" v="Guhkolašjávri - Langvatnet" />
		<tag k="name:no" v="Langvatnet" />
		<tag k="name:se" v="Guhkolašjávri" />
		<tag k="natural" v="water" />
		<tag k="ssr:stedsnr" v="564565" />
	</node>
	<node id="-769966" lat="69.4957000004" lon="20.5173138707">
		<tag k="name" v="Gáhkkorjávri" />
		<tag k="name:se" v="Gáhkkorjávri" />
		<tag k="natural" v="water" />
		<tag k="ssr:stedsnr" v="417208" />
	</node>
	<node id="-769627" lat="69.4210361142" lon="20.9717305267">
		<tag k="name" v="Stálljasavvon" />
		<tag k="name:se" v="Stálljasavvon" />
		<tag k="natural" v="water" />
		<tag k="ssr:stedsnr" v="115296" />
		<tag k="water" v="lake" />
	</node>
	<node id="-770137" lat="69.4580083305" lon="20.5066749878">
		<tag k="name" v="Váddásjohka" />
		<tag k="name:se" v="Váddásjohka" />
		<tag k="ssr:stedsnr" v="504608" />
		<tag k="waterway" v="stream" />
	</node>
	<node id="-770645" lat="69.4439777769" lon="20.5567805313">
		<tag k="name" v="Áitegállunjárga" />
		<tag k="name:se" v="Áitegállunjárga" />
		<tag k="natural" v="cape" />
		<tag k="ssr:stedsnr" v="782887" />
	</node>
	<node id="-770409" lat="69.4734666661" lon="20.8899138721">
		<tag k="name" v="Rihtaidsuolu" />
		<tag k="name:se" v="Rihtaidsuolu" />
		<tag k="place" v="islet" />
		<tag k="ssr:stedsnr" v="660271" />
	</node>
	<node id="-770643" lat="69.5155305546" lon="20.6236138741">
		<tag k="name" v="Fossen" />
		<tag k="name:no" v="Fossen" />
		<tag k="natural" v="waterfall" />
		<tag k="ssr:stedsnr" v="782846" />
	</node>
	<node id="-770130" lat="69.3429777821" lon="20.9414527643">
		<tag k="name" v="Goddejávri" />
		<tag k="name:se" v="Goddejávri" />
		<tag k="natural" v="water" />
		<tag k="ssr:stedsnr" v="504562" />
		<tag k="water" v="lake" />
	</node>
	<node id="-770127" lat="69.394174999" lon="20.5350611">
		<tag k="name" v="Čearpmatjohka" />
		<tag k="name:se" v="Čearpmatjohka" />
		<tag k="ssr:stedsnr" v="504520" />
		<tag k="waterway" v="stream" />
	</node>
	<node id="-770126" lat="69.3934944433" lon="20.9669277533">
		<tag k="name" v="Magerjohka - Magerelva" />
		<tag k="name:no" v="Magerelva" />
		<tag k="name:se" v="Magerjohka" />
		<tag k="ssr:stedsnr" v="504513" />
		<tag k="waterway" v="river" />
	</node>
	<node id="-769611" lat="69.4855611141" lon="20.5356472074">
		<tag k="name" v="Geađgejohka" />
		<tag k="name:se" v="Geađgejohka" />
		<tag k="ssr:stedsnr" v="114151" />
		<tag k="waterway" v="stream" />
	</node>
	<node id="-770626" lat="69.5252750031" lon="20.5334777503">
		<tag k="name" v="Šnjierral" />
		<tag k="name:se" v="Šnjierral" />
		<tag k="natural" v="water" />
		<tag k="ssr:stedsnr" v="782097" />
		<tag k="water" v="lake" />
	</node>
	<node id="-770622" lat="69.7532027789" lon="20.5274194347">
		<tag k="name" v="Leirvågelva" />
		<tag k="name:no" v="Leirvågelva" />
		<tag k="ssr:stedsnr" v="781922" />
		<tag k="waterway" v="stream" />
	</node>
	<node id="-770621" lat="69.7538694404" lon="20.5319860959">
		<tag k="name" v="Lille leirvågelva" />
		<tag k="name:no" v="Lille leirvågelva" />
		<tag k="ssr:stedsnr" v="781918" />
		<tag k="waterway" v="stream" />
	</node>
	<node id="-769595" lat="69.6561750039" lon="20.7459583149">
		<tag k="name" v="Rundvatnet" />
		<tag k="name:no" v="Rundvatnet" />
		<tag k="natural" v="water" />
		<tag k="ssr:stedsnr" v="80591" />
	</node>
	<node id="-770399" lat="69.5139833367" lon="20.5262222034">
		<tag k="name" v="Goahtegieddnjárga" />
		<tag k="name:se" v="Goahtegieddnjárga" />
		<tag k="natural" v="cape" />
		<tag k="ssr:stedsnr" v="660116" />
	</node>
	<node id="-769592" lat="69.722958336" lon="20.5351527589">
		<tag k="fixme" v="multiple name tags, choose one and add the other to alt_name" />
		<tag k="name" v="Samferelva;Sandforelva" />
		<tag k="name:no" v="Samferelva;Sandforelva" />
		<tag k="ssr:stedsnr" v="80621" />
		<tag k="waterway" v="stream" />
	</node>
	<node id="-770687" lat="69.4174638922" lon="20.5582444228">
		<tag k="name" v="Ruovddášjohka" />
		<tag k="name:se" v="Ruovddášjohka" />
		<tag k="ssr:stedsnr" v="807511" />
		<tag k="waterway" v="stream" />
	</node>
	<node id="-769584" lat="69.2743249979" lon="21.0588166427">
		<tag k="name" v="Jeavasjávri" />
		<tag k="name:se" v="Jeavasjávri" />
		<tag k="natural" v="water" />
		<tag k="ssr:stedsnr" v="79623" />
		<tag k="water" v="lake" />
	</node>
	<node id="-769580" lat="69.5557749994" lon="20.8881305221">
		<tag k="name" v="Holmevatnet" />
		<tag k="name:no" v="Holmevatnet" />
		<tag k="natural" v="water" />
		<tag k="ssr:stedsnr" v="79608" />
	</node>
	<node id="-770055" lat="69.4410833384" lon="20.8773805278">
		<tag k="name" v="Boršojávri" />
		<tag k="name:se" v="Boršojávri" />
		<tag k="natural" v="water" />
		<tag k="ssr:stedsnr" v="443527" />
	</node>
	<node id="-769372" lat="69.5802111153" lon="20.4724888687">
		<tag k="name" v="Galbmaádja" />
		<tag k="name:se" v="Galbmaádja" />
		<tag k="natural" v="spring" />
		<tag k="ssr:stedsnr" v="478079" />
	</node>
	<node id="-769574" lat="69.471208339" lon="20.9564082992">
		<tag k="fixme" v="multiple name tags, choose one and add the other to alt_name" />
		<tag k="name" v="Njuorjojohka;Nuorejohka - Kobbelva" />
		<tag k="name:no" v="Kobbelva" />
		<tag k="name:se" v="Njuorjojohka;Nuorejohka" />
		<tag k="ssr:stedsnr" v="79584" />
		<tag k="waterway" v="stream" />
	</node>
	<node id="-770254" lat="69.3558194437" lon="21.1140249778">
		<tag k="name" v="Stuoraluokta" />
		<tag k="name:se" v="Stuoraluokta" />
		<tag k="natural" v="bay" />
		<tag k="ssr:stedsnr" v="564631" />
	</node>
	<node id="-769572" lat="69.4657500025" lon="20.6453527462">
		<tag k="name" v="Muohtavátjohka" />
		<tag k="name:se" v="Muohtavátjohka" />
		<tag k="ssr:stedsnr" v="79572" />
		<tag k="waterway" v="river" />
	</node>
	<node id="-770595" lat="69.5125027778" lon="20.4697499863">
		<tag k="name" v="Goikejohka - Tørrelva" />
		<tag k="name:no" v="Tørrelva" />
		<tag k="name:se" v="Goikejohka" />
		<tag k="ssr:stedsnr" v="747725" />
		<tag k="waterway" v="stream" />
	</node>
	<node id="-770594" lat="69.5051138932" lon="20.6127805277">
		<tag k="name" v="Skárfváhjohka - Skardalselva" />
		<tag k="name:no" v="Skardalselva" />
		<tag k="name:se" v="Skárfváhjohka" />
		<tag k="ssr:stedsnr" v="747719" />
		<tag k="waterway" v="river" />
	</node>
	<node id="-769569" lat="69.3257111091" lon="20.793588857">
		<tag k="name" v="Duolbajávrrit" />
		<tag k="name:se" v="Duolbajávrrit" />
		<tag k="natural" v="water" />
		<tag k="ssr:stedsnr" v="79535" />
	</node>
	<node id="-769568" lat="69.3340361099" lon="20.9849749687">
		<tag k="name" v="Goddejohka" />
		<tag k="name:se" v="Goddejohka" />
		<tag k="ssr:stedsnr" v="79530" />
		<tag k="waterway" v="river" />
	</node>
	<node id="-769567" lat="69.317283332" lon="20.973058307">
		<tag k="name" v="Smuolkojohka" />
		<tag k="name:se" v="Smuolkojohka" />
		<tag k="ssr:stedsnr" v="79524" />
		<tag k="waterway" v="river" />
	</node>
	<node id="-770590" lat="69.3987666665" lon="21.0530527566">
		<tag k="name" v="Sabetjohka" />
		<tag k="name:se" v="Sabetjohka" />
		<tag k="ssr:stedsnr" v="747641" />
		<tag k="waterway" v="stream" />
	</node>
	<node id="-770821" lat="69.4718555554" lon="20.6469194289">
		<tag k="alt_name:no" v="Tverrelva, øvre" />
		<tag k="name" v="Bievlačazajohka - Øvre Tverrelva" />
		<tag k="name:no" v="Øvre Tverrelva" />
		<tag k="name:se" v="Bievlačazajohka" />
		<tag k="ssr:stedsnr" v="868568" />
		<tag k="waterway" v="stream" />
	</node>
	<node id="-770588" lat="69.5506500038" lon="20.7271999916">
		<tag k="name" v="Uhcavákkášjávri - Litledalsvatnet" />
		<tag k="name:no" v="Litledalsvatnet" />
		<tag k="name:se" v="Uhcavákkášjávri" />
		<tag k="natural" v="water" />
		<tag k="ssr:stedsnr" v="747631" />
	</node>
	<node id="-770585" lat="69.734830553" lon="20.5515610965">
		<tag k="name" v="Joelva" />
		<tag k="name:no" v="Joelva" />
		<tag k="ssr:stedsnr" v="747597" />
		<tag k="waterway" v="stream" />
	</node>
	<node id="-770582" lat="69.6453861087" lon="20.4820666598">
		<tag k="name" v="Skardelva" />
		<tag k="name:no" v="Skardelva" />
		<tag k="ssr:stedsnr" v="747571" />
		<tag k="waterway" v="stream" />
	</node>
	<node id="-770773" lat="69.4231472211" lon="20.5679694168">
		<tag k="name" v="Ápmelašsavu" />
		<tag k="name:se" v="Ápmelašsavu" />
		<tag k="natural" v="water" />
		<tag k="ssr:stedsnr" v="843906" />
		<tag k="water" v="lake" />
	</node>
	<node id="-770577" lat="69.3600805552" lon="20.8611944324">
		<tag k="name" v="Viessogielasjohka" />
		<tag k="name:se" v="Viessogielasjohka" />
		<tag k="ssr:stedsnr" v="747553" />
		<tag k="waterway" v="stream" />
	</node>
	<node id="-770576" lat="69.3785305613" lon="20.6074610821">
		<tag k="name" v="Vuopmegeašjohka" />
		<tag k="name:se" v="Vuopmegeašjohka" />
		<tag k="ssr:stedsnr" v="747484" />
		<tag k="waterway" v="stream" />
	</node>
	<node id="-770168" lat="69.5081972216" lon="20.815788863">
		<tag k="name" v="Davitájajohka" />
		<tag k="name:se" v="Davitájajohka" />
		<tag k="ssr:stedsnr" v="539445" />
		<tag k="waterway" v="stream" />
	</node>
	<node id="-770477" lat="69.6042305565" lon="20.5745388741">
		<tag k="name" v="Dálvvesváhjohka - Olderdalselva - Talosvankanjoki" />
		<tag k="name:fkv" v="Talosvankanjoki" />
		<tag k="name:no" v="Olderdalselva" />
		<tag k="name:se" v="Dálvvesváhjohka" />
		<tag k="ssr:stedsnr" v="687664" />
		<tag k="waterway" v="river" />
	</node>
	<node id="-770059" lat="69.5372500029" lon="20.4803027653">
		<tag k="name" v="Steinvatnet" />
		<tag k="name:no" v="Steinvatnet" />
		<tag k="natural" v="water" />
		<tag k="ssr:stedsnr" v="443602" />
	</node>
	<node id="-770570" lat="69.4427611105" lon="20.9507527523">
		<tag k="name" v="Oterholmen" />
		<tag k="name:no" v="Oterholmen" />
		<tag k="place" v="islet" />
		<tag k="ssr:stedsnr" v="746529" />
	</node>
	<node id="-770569" lat="69.4400694447" lon="20.9310055381">
		<tag k="alt_name:no" v="Boršo, indre" />
		<tag k="name" v="Siskkit Boršu - Indre Boršo" />
		<tag k="name:no" v="Indre Boršo" />
		<tag k="name:se" v="Siskkit Boršu" />
		<tag k="ssr:stedsnr" v="746528" />
		<tag k="waterway" v="stream" />
	</node>
	<node id="-770567" lat="69.3925111157" lon="20.7818471991">
		<tag k="name" v="Moskkuráššajávri" />
		<tag k="name:se" v="Moskkuráššajávri" />
		<tag k="natural" v="water" />
		<tag k="ssr:stedsnr" v="746514" />
		<tag k="water" v="lake" />
	</node>
	<node id="-770052" lat="69.4622888856" lon="20.3979666479">
		<tag k="name" v="Reavčájávrrit - Revdalsvatnet" />
		<tag k="name:no" v="Revdalsvatnet" />
		<tag k="name:se" v="Reavčájávrrit" />
		<tag k="natural" v="water" />
		<tag k="ssr:stedsnr" v="443250" />
	</node>
</osm>
