<?xml version="1.0" encoding="UTF-8"?>
<osm generator="osmapis" version="0.6">
	<node id="-771579" lat="69.6785583345" lon="20.5019499731">
		<tag k="fixme" v="consider place=hamlet" />
		<tag k="name" v="Dážavággi - Nordmannvik - Viikka" />
		<tag k="name:fkv" v="Viikka" />
		<tag k="name:no" v="Nordmannvik" />
		<tag k="name:se" v="Dážavággi" />
		<tag k="place" v="village" />
		<tag k="ssr:stedsnr" v="512834" />
	</node>
	<node id="-771577" lat="69.5259527741" lon="20.5261166545">
		<tag k="name" v="Gorži - Fossen" />
		<tag k="name:no" v="Fossen" />
		<tag k="name:se" v="Gorži" />
		<tag k="place" v="hamlet" />
		<tag k="ssr:stedsnr" v="508396" />
	</node>
	<node id="-771257" lat="69.5342833367" lon="20.5347305489">
		<tag k="fixme" v="consider place=hamlet" />
		<tag k="name" v="Olmmáivággi - Manndalen - Olmavankka" />
		<tag k="name:fkv" v="Olmavankka" />
		<tag k="name:no" v="Manndalen" />
		<tag k="name:se" v="Olmmáivággi" />
		<tag k="place" v="village" />
		<tag k="ssr:stedsnr" v="204639" />
	</node>
	<node id="-772083" lat="69.5160833355" lon="20.6191305457">
		<tag k="fixme" v="consider place=hamlet" />
		<tag k="name" v="Skárfvággi - Skardalen - Skaarfvankka" />
		<tag k="name:fkv" v="Skaarfvankka" />
		<tag k="name:no" v="Skardalen" />
		<tag k="name:se" v="Skárfvággi" />
		<tag k="place" v="farm" />
		<tag k="ssr:stedsnr" v="788617" />
	</node>
	<node id="-771570" lat="69.5707083341" lon="20.5934638743">
		<tag k="name" v="Heggelund" />
		<tag k="name:no" v="Heggelund" />
		<tag k="place" v="farm" />
		<tag k="ssr:stedsnr" v="504684" />
	</node>
	<node id="-771569" lat="69.5938750018" lon="20.5569944164">
		<tag k="name" v="Solset" />
		<tag k="name:no" v="Solset" />
		<tag k="place" v="farm" />
		<tag k="ssr:stedsnr" v="504662" />
	</node>
	<node id="-771566" lat="69.5314055582" lon="20.6647944294">
		<tag k="loc_name:se" v="Jorbabákti;Jorbaorrit" />
		<tag k="name" v="Rundberg" />
		<tag k="name:no" v="Rundberg" />
		<tag k="place" v="farm" />
		<tag k="ssr:stedsnr" v="504647" />
	</node>
	<node id="-771563" lat="69.5347138933" lon="20.5437055423">
		<tag k="name" v="Austgård" />
		<tag k="name:no" v="Austgård" />
		<tag k="place" v="farm" />
		<tag k="ssr:stedsnr" v="504630" />
	</node>
	<node id="-771561" lat="69.4758027479" lon="20.8875786298">
		<tag k="name" v="Miellenjunni - Melen" />
		<tag k="name:no" v="Melen" />
		<tag k="name:se" v="Miellenjunni" />
		<tag k="old_name:no" v="Myrset" />
		<tag k="place" v="farm" />
		<tag k="ssr:stedsnr" v="504614" />
	</node>
	<node id="-772072" lat="69.6070944463" lon="20.5339999886">
		<tag k="fixme" v="consider place=hamlet" />
		<tag k="name" v="Leaibevuovdi - Olderdalen - Talosvankka" />
		<tag k="name:fkv" v="Talosvankka" />
		<tag k="name:no" v="Olderdalen" />
		<tag k="name:se" v="Leaibevuovdi" />
		<tag k="old_name:se" v="Dálvvesvággi" />
		<tag k="place" v="farm" />
		<tag k="ssr:stedsnr" v="787877" />
	</node>
	<node id="-770812" lat="69.4511622143" lon="20.5483469718">
		<tag k="name" v="Dalheim" />
		<tag k="name:no" v="Dalheim" />
		<tag k="place" v="farm" />
		<tag k="ssr:stedsnr" v="79571" />
	</node>
	<node id="-771555" lat="69.4895444449" lon="20.5261805271">
		<tag k="name" v="Dallund" />
		<tag k="name:no" v="Dallund" />
		<tag k="place" v="farm" />
		<tag k="ssr:stedsnr" v="504570" />
	</node>
	<node id="-770811" lat="69.4509255886" lon="20.5490821102">
		<tag k="name" v="Elvelund" />
		<tag k="name:no" v="Elvelund" />
		<tag k="place" v="farm" />
		<tag k="ssr:stedsnr" v="625586" />
	</node>
	<node id="-771551" lat="69.4233416662" lon="20.5661833108">
		<tag k="name" v="Ápmelašsæter" />
		<tag k="name:no" v="Ápmelašsæter" />
		<tag k="old_name:no" v="Ápmelássæter" />
		<tag k="place" v="isolated_dwelling" />
		<tag k="ssr:stedsnr" v="504530" />
	</node>
	<node id="-770725" lat="69.4952999986" lon="20.5046110877">
		<tag k="fixme" v="consider place=hamlet" />
		<tag k="name" v="Áhkkavággi - Kjerringdalen" />
		<tag k="name:no" v="Kjerringdalen" />
		<tag k="name:se" v="Áhkkavággi" />
		<tag k="place" v="farm" />
		<tag k="ssr:stedsnr" v="386205" />
	</node>
	<node id="-771035" lat="69.4831444427" lon="20.5186749927">
		<tag k="name" v="Rávra" />
		<tag k="name:se" v="Rávra" />
		<tag k="old_name:no" v="Sommerlien" />
		<tag k="place" v="farm" />
		<tag k="ssr:stedsnr" v="100963" />
	</node>
	<node id="-770522" lat="69.5665500012" lon="20.391516656">
		<tag k="name" v="Sommarsetet" />
		<tag k="name:no" v="Sommarsetet" />
		<tag k="place" v="farm" />
		<tag k="ssr:stedsnr" v="296068" />
	</node>
	<node id="-771544" lat="69.5809748787" lon="20.4016627463">
		<tag k="alt_name:no" v="Lian" />
		<tag k="fixme" v="consider place=hamlet" />
		<tag k="name" v="Duhkkagieddi - Lia - Tuhkakenttä" />
		<tag k="name:fkv" v="Tuhkakenttä" />
		<tag k="name:no" v="Lia" />
		<tag k="name:se" v="Duhkkagieddi" />
		<tag k="place" v="farm" />
		<tag k="ssr:stedsnr" v="503953" />
	</node>
	<node id="-771543" lat="69.5179583312" lon="20.6307249747">
		<tag k="name" v="Skardalen" />
		<tag k="name:no" v="Skardalen" />
		<tag k="place" v="farm" />
		<tag k="ssr:stedsnr" v="485579" />
	</node>
	<node id="-771542" lat="69.4950833301" lon="20.8358666415">
		<tag k="amenity" v="kindergarten" />
		<tag k="name" v="Biertavári mánáidgárdi - Birtavarre barnehage - Pirttavaaran lastentaras" />
		<tag k="name:fkv" v="Pirttavaaran lastentaras" />
		<tag k="name:no" v="Birtavarre barnehage" />
		<tag k="name:se" v="Biertavári mánáidgárdi" />
		<tag k="ssr:stedsnr" v="485251" />
	</node>
	<node id="-771028" lat="69.7430749986" lon="20.5031110804">
		<tag k="name" v="Ytre Hammarvik" />
		<tag k="name:no" v="Ytre Hammarvik" />
		<tag k="place" v="farm" />
		<tag k="ssr:stedsnr" v="86295" />
	</node>
	<node id="-771027" lat="69.6147055592" lon="20.4865721988">
		<tag k="name" v="Pervoll" />
		<tag k="name:no" v="Pervoll" />
		<tag k="place" v="farm" />
		<tag k="ssr:stedsnr" v="80663" />
	</node>
	<node id="-771026" lat="69.6029844455" lon="20.5370538693">
		<tag k="fixme" v="multiple name tags, choose one and add the other to alt_name" />
		<tag k="name" v="Dálusvággi;Dálvvesvággi - Olderdalen - Talosvankka" />
		<tag k="name:fkv" v="Talosvankka" />
		<tag k="name:no" v="Olderdalen" />
		<tag k="name:se" v="Dálusvággi;Dálvvesvággi" />
		<tag k="place" v="village" />
		<tag k="ssr:stedsnr" v="80657" />
	</node>
	<node id="-771491" lat="69.5230583315" lon="20.5325138725">
		<tag k="name" v="Fossen" />
		<tag k="name:no" v="Fossen" />
		<tag k="old_name:se" v="Gorži" />
		<tag k="place" v="farm" />
		<tag k="ssr:stedsnr" v="443621" />
	</node>
	<node id="-770512" lat="69.5162972189" lon="20.5147805445">
		<tag k="name" v="Gáiskevállas" />
		<tag k="name:se" v="Gáiskevállas" />
		<tag k="place" v="hamlet" />
		<tag k="ssr:stedsnr" v="284367" />
	</node>
	<node id="-771535" lat="69.5245611147" lon="20.7634416427">
		<tag k="amenity" v="school" />
		<tag k="name" v="Ruollaluovtta skovla - Trollvik skole" />
		<tag k="name:no" v="Trollvik skole" />
		<tag k="name:se" v="Ruollaluovtta skovla" />
		<tag k="ssr:stedsnr" v="484880" />
	</node>
	<node id="-771022" lat="69.7540055567" lon="20.4936527497">
		<tag k="fixme" v="consider place=hamlet" />
		<tag k="name" v="Čietnjalluokta - Djupvik - Siennalahti" />
		<tag k="name:fkv" v="Siennalahti" />
		<tag k="name:no" v="Djupvik" />
		<tag k="name:se" v="Čietnjalluokta" />
		<tag k="place" v="farm" />
		<tag k="ssr:stedsnr" v="80617" />
	</node>
	<node id="-771021" lat="69.7376333369" lon="20.5229805463">
		<tag k="alt_name:no" v="Hammarvik" />
		<tag k="name" v="Hammarvika" />
		<tag k="name:no" v="Hammarvika" />
		<tag k="place" v="farm" />
		<tag k="ssr:stedsnr" v="80616" />
	</node>
	<node id="-771020" lat="69.7320500029" lon="20.5255610964">
		<tag k="name" v="Jovollen" />
		<tag k="name:no" v="Jovollen" />
		<tag k="place" v="farm" />
		<tag k="ssr:stedsnr" v="80615" />
	</node>
	<node id="-771490" lat="69.5417944435" lon="20.5460999699">
		<tag k="alt_name:no" v="Løkvoll" />
		<tag k="fixme" v="consider place=suburb, village or hamlet" />
		<tag k="name" v="Lávkgieddi - Løkvollen" />
		<tag k="name:no" v="Løkvollen" />
		<tag k="name:se" v="Lávkgieddi" />
		<tag k="place" v="quarter" />
		<tag k="ssr:stedsnr" v="443617" />
	</node>
	<node id="-771018" lat="69.7438083376" lon="20.4984110907">
		<tag k="name" v="Lyngslett" />
		<tag k="name:no" v="Lyngslett" />
		<tag k="place" v="farm" />
		<tag k="ssr:stedsnr" v="80604" />
	</node>
	<node id="-771017" lat="69.5087972233" lon="20.5338499876">
		<tag k="name" v="Vollnes" />
		<tag k="name:no" v="Vollnes" />
		<tag k="place" v="farm" />
		<tag k="ssr:stedsnr" v="79682" />
	</node>
	<node id="-772257" lat="69.4763416637" lon="20.8934777615">
		<tag k="name" v="Oldervoll" />
		<tag k="name:no" v="Oldervoll" />
		<tag k="place" v="farm" />
		<tag k="ssr:stedsnr" v="871181" />
	</node>
	<node id="-771012" lat="69.5223138934" lon="20.5421055312">
		<tag k="name" v="Steinmoen" />
		<tag k="name:no" v="Steinmoen" />
		<tag k="place" v="farm" />
		<tag k="ssr:stedsnr" v="79615" />
	</node>
	<node id="-771010" lat="69.5477555558" lon="20.5283388736">
		<tag k="name" v="Øvergård" />
		<tag k="name:no" v="Øvergård" />
		<tag k="place" v="farm" />
		<tag k="ssr:stedsnr" v="79607" />
	</node>
	<node id="-771007" lat="69.5367750043" lon="20.5482138793">
		<tag k="name" v="Moen" />
		<tag k="name:no" v="Moen" />
		<tag k="place" v="farm" />
		<tag k="ssr:stedsnr" v="79598" />
	</node>
	<node id="-771004" lat="69.4774638921" lon="20.8674833023">
		<tag k="name" v="Breidvoll" />
		<tag k="name:no" v="Breidvoll" />
		<tag k="place" v="farm" />
		<tag k="ssr:stedsnr" v="79579" />
	</node>
	<node id="-771515" lat="69.5973527751" lon="20.5510499735">
		<tag k="loc_name:no" v="Suleng" />
		<tag k="name" v="Soleng" />
		<tag k="name:no" v="Soleng" />
		<tag k="place" v="hamlet" />
		<tag k="ssr:stedsnr" v="454797" />
	</node>
	<node id="-771002" lat="69.4534500035" lon="20.9411860958">
		<tag k="name" v="Skogheim" />
		<tag k="name:no" v="Skogheim" />
		<tag k="place" v="farm" />
		<tag k="ssr:stedsnr" v="79570" />
	</node>
	<node id="-771513" lat="69.5290231561" lon="20.3762030551">
		<tag k="name" v="Nordnes" />
		<tag k="name:no" v="Nordnes" />
		<tag k="old_name:no" v="Indre Nordnes" />
		<tag k="place" v="farm" />
		<tag k="ssr:stedsnr" v="451835" />
	</node>
	<node id="-771510" lat="69.4938861103" lon="20.8409583218">
		<tag k="loc_name:se" v="Reatkáčorru" />
		<tag k="name" v="Einebakken" />
		<tag k="name:no" v="Einebakken" />
		<tag k="place" v="farm" />
		<tag k="ssr:stedsnr" v="447171" />
	</node>
	<node id="-771509" lat="69.7487638931" lon="20.4986499807">
		<tag k="fixme" v="consider place=hamlet" />
		<tag k="name" v="Čietnjalluokta - Djupvik - Siennalahti" />
		<tag k="name:fkv" v="Siennalahti" />
		<tag k="name:no" v="Djupvik" />
		<tag k="name:se" v="Čietnjalluokta" />
		<tag k="place" v="village" />
		<tag k="ssr:stedsnr" v="444930" />
	</node>
	<node id="-771508" lat="69.6088638915" lon="20.5143555389">
		<tag k="name" v="Ytsteby" />
		<tag k="name:no" v="Ytsteby" />
		<tag k="place" v="farm" />
		<tag k="ssr:stedsnr" v="444660" />
	</node>
	<node id="-771571" lat="69.50168333" lon="20.8151416484">
		<tag k="alt_name:no" v="Bakkemo" />
		<tag k="name" v="Bakkemoen" />
		<tag k="name:no" v="Bakkemoen" />
		<tag k="place" v="farm" />
		<tag k="ssr:stedsnr" v="504720" />
	</node>
	<node id="-771502" lat="69.5007906552" lon="20.349299443">
		<tag k="loc_name:no" v="Brennelv" />
		<tag k="name" v="Buljohka - Bolljokk - Pullujoki" />
		<tag k="name:fkv" v="Pullujoki" />
		<tag k="name:no" v="Bolljokk" />
		<tag k="name:se" v="Buljohka" />
		<tag k="old_name:no" v="Brattvoll" />
		<tag k="place" v="farm" />
		<tag k="ssr:stedsnr" v="443855" />
	</node>
	<node id="-772012" lat="69.5401555546" lon="20.5517638688">
		<tag k="alt_name:no" v="Løkvoll" />
		<tag k="loc_name:se" v="Lávotgieddi" />
		<tag k="name" v="Løkvollen" />
		<tag k="name:no" v="Løkvollen" />
		<tag k="old_name:se" v="Lávkgieddi" />
		<tag k="place" v="farm" />
		<tag k="ssr:stedsnr" v="750310" />
	</node>
	<node id="-772009" lat="69.5866333358" lon="20.573477762">
		<tag k="name" v="Solli" />
		<tag k="name:no" v="Solli" />
		<tag k="place" v="farm" />
		<tag k="ssr:stedsnr" v="747674" />
	</node>
	<node id="-770983" lat="69.6410972241" lon="20.483811092">
		<tag k="name" v="Ytsteby - Junttaniemi" />
		<tag k="name:fkv" v="Junttaniemi" />
		<tag k="name:no" v="Ytsteby" />
		<tag k="place" v="farm" />
		<tag k="ssr:stedsnr" v="60645" />
	</node>
	<node id="-771494" lat="69.5268277832" lon="20.5262555304">
		<tag k="name" v="Solmo" />
		<tag k="name:no" v="Solmo" />
		<tag k="place" v="farm" />
		<tag k="ssr:stedsnr" v="443630" />
	</node>
	<node id="-771493" lat="69.5193055556" lon="20.5123499877">
		<tag k="name" v="Oppervoll" />
		<tag k="name:no" v="Oppervoll" />
		<tag k="place" v="farm" />
		<tag k="ssr:stedsnr" v="443623" />
	</node>
	<node id="-771492" lat="69.5151277747" lon="20.511086087">
		<tag k="name" v="Skogvang" />
		<tag k="name:no" v="Skogvang" />
		<tag k="place" v="farm" />
		<tag k="ssr:stedsnr" v="443620" />
	</node>
	<node id="-772003" lat="69.479513892" lon="20.8826110859">
		<tag k="name" v="Kåfjordelva" />
		<tag k="name:no" v="Kåfjordelva" />
		<tag k="place" v="farm" />
		<tag k="ssr:stedsnr" v="747612" />
	</node>
	<node id="-772002" lat="69.689024996" lon="20.5142249866">
		<tag k="name" v="Strandli" />
		<tag k="name:no" v="Strandli" />
		<tag k="place" v="farm" />
		<tag k="ssr:stedsnr" v="747608" />
	</node>
	<node id="-771483" lat="69.4874220589" lon="20.8551908868">
		<tag k="loc_name:se" v="Johkagieddi" />
		<tag k="name" v="Elvenes" />
		<tag k="name:no" v="Elvenes" />
		<tag k="place" v="farm" />
		<tag k="ssr:stedsnr" v="443598" />
	</node>
	<node id="-771487" lat="69.5466277792" lon="20.528174976">
		<tag k="name" v="Elvenes" />
		<tag k="name:no" v="Elvenes" />
		<tag k="place" v="farm" />
		<tag k="ssr:stedsnr" v="443611" />
	</node>
	<node id="-771486" lat="69.529586112" lon="20.5244861025">
		<tag k="name" v="Sandmelen" />
		<tag k="name:no" v="Sandmelen" />
		<tag k="place" v="farm" />
		<tag k="ssr:stedsnr" v="443608" />
	</node>
	<node id="-771997" lat="69.6619583353" lon="20.4741249902">
		<tag k="name" v="Bakkemo" />
		<tag k="name:no" v="Bakkemo" />
		<tag k="place" v="farm" />
		<tag k="ssr:stedsnr" v="747565" />
	</node>
	<node id="-771996" lat="69.6603250031" lon="20.4744027628">
		<tag k="name" v="Sieidigieddi - Seitikenttä" />
		<tag k="name:fkv" v="Seitikenttä" />
		<tag k="name:se" v="Sieidigieddi" />
		<tag k="place" v="hamlet" />
		<tag k="ssr:stedsnr" v="747563" />
	</node>
	<node id="-771995" lat="69.6776027797" lon="20.499699982">
		<tag k="name" v="Strandvoll" />
		<tag k="name:no" v="Strandvoll" />
		<tag k="place" v="farm" />
		<tag k="ssr:stedsnr" v="747560" />
	</node>
	<node id="-771482" lat="69.4749161013" lon="20.9103789856">
		<tag k="alt_name:no" v="Skatvollen" />
		<tag k="fixme" v="consider place=hamlet" />
		<tag k="name" v="Guollejohka - Skattvollen" />
		<tag k="name:no" v="Skattvollen" />
		<tag k="name:se" v="Guollejohka" />
		<tag k="place" v="farm" />
		<tag k="ssr:stedsnr" v="443595" />
	</node>
	<node id="-771481" lat="69.4810388878" lon="20.8608332997">
		<tag k="name" v="Holmen" />
		<tag k="name:no" v="Holmen" />
		<tag k="place" v="farm" />
		<tag k="ssr:stedsnr" v="443593" />
	</node>
	<node id="-771479" lat="69.4182138924" lon="20.5691360851">
		<tag k="name" v="Ruovddášsæter" />
		<tag k="name:se" v="Ruovddášsæter" />
		<tag k="old_name:se" v="Ruovdašsæter" />
		<tag k="place" v="isolated_dwelling" />
		<tag k="ssr:stedsnr" v="443519" />
	</node>
	<node id="-771990" lat="69.5310999969" lon="20.5484499705">
		<tag k="name" v="Manndalen" />
		<tag k="name:no" v="Manndalen" />
		<tag k="place" v="farm" />
		<tag k="ssr:stedsnr" v="746630" />
	</node>
	<node id="-771464" lat="69.7536416641" lon="20.4931666464">
		<tag k="name" v="Djupvik" />
		<tag k="name:no" v="Djupvik" />
		<tag k="old_name:no" v="Øvergård" />
		<tag k="place" v="farm" />
		<tag k="ssr:stedsnr" v="424648" />
	</node>
	<node id="-772486" lat="69.5323746779" lon="20.3763187592">
		<tag k="name" v="Nordnes" />
		<tag k="place" v="farm" />
		<tag k="ssr:stedsnr" v="972078" />
	</node>
	<node id="-772485" lat="69.5282940133" lon="20.3758111307">
		<tag k="name" v="Nordnes" />
		<tag k="place" v="farm" />
		<tag k="ssr:stedsnr" v="971897" />
	</node>
	<node id="-772484" lat="69.5313266127" lon="20.3776459077">
		<tag k="fixme" v="consider place=hamlet" />
		<tag k="name" v="Nordnes - Nuorttaš - Norttoniemi" />
		<tag k="name:fkv" v="Norttoniemi" />
		<tag k="name:no" v="Nordnes" />
		<tag k="name:se" v="Nuorttaš" />
		<tag k="old_name:se" v="Nuortaš" />
		<tag k="place" v="farm" />
		<tag k="ssr:stedsnr" v="971880" />
	</node>
	<node id="-771458" lat="69.6047722239" lon="20.5359749693">
		<tag k="amenity" v="school" />
		<tag k="name" v="Dálusvákki skovla - Olderdalen skole - Talusvankan koulu" />
		<tag k="name:fkv" v="Talusvankan koulu" />
		<tag k="name:no" v="Olderdalen skole" />
		<tag k="name:se" v="Dálusvákki skovla" />
		<tag k="ssr:stedsnr" v="424317" />
	</node>
	<node id="-772469" lat="69.6101194462" lon="20.506605536">
		<tag k="name" v="Ytsteby" />
		<tag k="name:no" v="Ytsteby" />
		<tag k="place" v="farm" />
		<tag k="ssr:stedsnr" v="970259" />
	</node>
	<node id="-772468" lat="69.6152361129" lon="20.4878222167">
		<tag k="name" v="Ytsteby" />
		<tag k="name:no" v="Ytsteby" />
		<tag k="place" v="farm" />
		<tag k="ssr:stedsnr" v="970257" />
	</node>
	<node id="-771218" lat="69.67048056" lon="20.4943944189">
		<tag k="name" v="Nordmannvik" />
		<tag k="name:no" v="Nordmannvik" />
		<tag k="place" v="farm" />
		<tag k="ssr:stedsnr" v="181754" />
	</node>
	<node id="-770917" lat="69.5660888927" lon="20.5949027535">
		<tag k="name" v="Kroken" />
		<tag k="name:no" v="Kroken" />
		<tag k="place" v="hamlet" />
		<tag k="ssr:stedsnr" v="29784" />
	</node>
	<node id="-770914" lat="69.5295611084" lon="20.5268138706">
		<tag k="name" v="Gáiskeriidi" />
		<tag k="name:se" v="Gáiskeriidi" />
		<tag k="place" v="hamlet" />
		<tag k="ssr:stedsnr" v="22354" />
	</node>
	<node id="-770913" lat="69.483933338" lon="20.8642444259">
		<tag k="name" v="Holmenes" />
		<tag k="name:no" v="Holmenes" />
		<tag k="place" v="farm" />
		<tag k="ssr:stedsnr" v="22181" />
	</node>
	<node id="-770911" lat="69.5224805592" lon="20.7717555244">
		<tag k="name" v="Slettvoll" />
		<tag k="name:no" v="Slettvoll" />
		<tag k="place" v="farm" />
		<tag k="ssr:stedsnr" v="19730" />
	</node>
	<node id="-770910" lat="69.5125999992" lon="20.5402555386">
		<tag k="name" v="Slettvollen" />
		<tag k="name:no" v="Slettvollen" />
		<tag k="place" v="farm" />
		<tag k="ssr:stedsnr" v="19728" />
	</node>
	<node id="-770909" lat="69.5103527821" lon="20.5032277708">
		<tag k="fixme" v="consider place=hamlet" />
		<tag k="name" v="Jávri - Vatnet" />
		<tag k="name:no" v="Vatnet" />
		<tag k="name:se" v="Jávri" />
		<tag k="place" v="farm" />
		<tag k="ssr:stedsnr" v="19725" />
	</node>
	<node id="-770908" lat="69.5791305598" lon="20.5863360845">
		<tag k="name" v="Molund" />
		<tag k="name:no" v="Molund" />
		<tag k="place" v="farm" />
		<tag k="ssr:stedsnr" v="19669" />
	</node>
	<node id="-770907" lat="69.5541055545" lon="20.5334777509">
		<tag k="name" v="Teigen" />
		<tag k="name:no" v="Teigen" />
		<tag k="place" v="farm" />
		<tag k="ssr:stedsnr" v="19659" />
	</node>
	<node id="-770903" lat="69.5291000031" lon="20.5280138632">
		<tag k="name" v="Solbakken" />
		<tag k="name:no" v="Solbakken" />
		<tag k="place" v="farm" />
		<tag k="ssr:stedsnr" v="19631" />
	</node>
	<node id="-770901" lat="69.5164388924" lon="20.5132555506">
		<tag k="name" v="Elvevoll" />
		<tag k="name:no" v="Elvevoll" />
		<tag k="place" v="farm" />
		<tag k="ssr:stedsnr" v="19624" />
	</node>
	<node id="-770900" lat="69.516375005" lon="20.5417972044">
		<tag k="name" v="Einerbakken" />
		<tag k="name:no" v="Einerbakken" />
		<tag k="place" v="farm" />
		<tag k="ssr:stedsnr" v="19622" />
	</node>
	<node id="-770898" lat="69.4650638845" lon="20.5316166567">
		<tag k="name" v="Rognli" />
		<tag k="name:no" v="Rognli" />
		<tag k="place" v="farm" />
		<tag k="ssr:stedsnr" v="19578" />
	</node>
	<node id="-770897" lat="69.4566833334" lon="20.9359444299">
		<tag k="name" v="Mellomjorda" />
		<tag k="name:no" v="Mellomjorda" />
		<tag k="place" v="farm" />
		<tag k="ssr:stedsnr" v="19573" />
	</node>
	<node id="-770896" lat="69.6170500004" lon="20.482730528">
		<tag k="name" v="Liljestøl" />
		<tag k="name:no" v="Liljestøl" />
		<tag k="place" v="farm" />
		<tag k="ssr:stedsnr" v="19562" />
	</node>
	<node id="-771213" lat="69.6080083326" lon="20.5429333053">
		<tag k="name" v="Olderdalen" />
		<tag k="name:no" v="Olderdalen" />
		<tag k="place" v="farm" />
		<tag k="ssr:stedsnr" v="181696" />
	</node>
	<node id="-772427" lat="69.5228" lon="20.5403194172">
		<tag k="name" v="Samulsiida" />
		<tag k="name:se" v="Samulsiida" />
		<tag k="place" v="locality" />
		<tag k="ssr:stedsnr" v="964137" />
	</node>
	<node id="-771127" lat="69.7565777772" lon="20.4768888714">
		<tag k="name" v="Fredly" />
		<tag k="name:no" v="Fredly" />
		<tag k="place" v="farm" />
		<tag k="ssr:stedsnr" v="140923" />
	</node>
	<node id="-771907" lat="69.4631055557" lon="20.5392722012">
		<tag k="name" v="Váddjá" />
		<tag k="name:se" v="Váddjá" />
		<tag k="place" v="hamlet" />
		<tag k="ssr:stedsnr" v="707959" />
	</node>
	<node id="-771906" lat="69.4816694478" lon="20.5240416537">
		<tag k="name" v="Rávra" />
		<tag k="name:se" v="Rávra" />
		<tag k="place" v="hamlet" />
		<tag k="ssr:stedsnr" v="707955" />
	</node>
	<node id="-770613" lat="69.5230555549" lon="20.7436222029">
		<tag k="name" v="Oksnes" />
		<tag k="name:no" v="Oksnes" />
		<tag k="place" v="hamlet" />
		<tag k="ssr:stedsnr" v="330820" />
	</node>
	<node id="-771387" lat="69.4888666706" lon="20.8466916483">
		<tag k="name" v="Stornes" />
		<tag k="name:no" v="Stornes" />
		<tag k="place" v="hamlet" />
		<tag k="ssr:stedsnr" v="417538" />
	</node>
	<node id="-770874" lat="69.5387166724" lon="20.5520416389">
		<tag k="name" v="Løkvollen" />
		<tag k="name:no" v="Løkvollen" />
		<tag k="place" v="farm" />
		<tag k="ssr:stedsnr" v="18585" />
	</node>
	<node id="-770783" lat="69.5162972189" lon="20.5147805445">
		<tag k="name" v="Gáiskevállas" />
		<tag k="name:se" v="Gáiskevállas" />
		<tag k="place" v="hamlet" />
		<tag k="ssr:stedsnr" v="891404" />
	</node>
	<node id="-771892" lat="69.7506777751" lon="20.4993583081">
		<tag k="loc_name:no" v="Bakken" />
		<tag k="name" v="Haugatun" />
		<tag k="name:no" v="Haugatun" />
		<tag k="place" v="farm" />
		<tag k="ssr:stedsnr" v="686911" />
	</node>
	<node id="-771379" lat="69.5183611076" lon="20.6304416494">
		<tag k="fixme" v="consider place=hamlet" />
		<tag k="name" v="Skárfvággi - Skardalen - Skaarfvankka" />
		<tag k="name:fkv" v="Skaarfvankka" />
		<tag k="name:no" v="Skardalen" />
		<tag k="name:se" v="Skárfvággi" />
		<tag k="place" v="village" />
		<tag k="ssr:stedsnr" v="265701" />
	</node>
	<node id="-770866" lat="69.4820693557" lon="20.8590183293">
		<tag k="name" v="Miessegieddi - Holmen" />
		<tag k="name:no" v="Holmen" />
		<tag k="name:se" v="Miessegieddi" />
		<tag k="place" v="hamlet" />
		<tag k="ssr:stedsnr" v="987543" />
	</node>
	<node id="-771889" lat="69.550350005" lon="20.5313499787">
		<tag k="name" v="Joramo" />
		<tag k="name:no" v="Joramo" />
		<tag k="place" v="farm" />
		<tag k="ssr:stedsnr" v="686676" />
	</node>
	<node id="-770864" lat="69.5854602958" lon="20.4008181745">
		<tag k="fixme" v="multiple name tags, choose one and add the other to alt_name; consider place=hamlet" />
		<tag k="name" v="Geahči;Njárgageahči - Odden" />
		<tag k="name:no" v="Odden" />
		<tag k="name:se" v="Geahči;Njárgageahči" />
		<tag k="place" v="farm" />
		<tag k="ssr:stedsnr" v="984257" />
	</node>
	<node id="-771375" lat="69.5776888859" lon="20.4021916459">
		<tag k="name" v="Bukta" />
		<tag k="name:no" v="Bukta" />
		<tag k="place" v="farm" />
		<tag k="ssr:stedsnr" v="261963" />
	</node>
	<node id="-770862" lat="69.5006210335" lon="20.3491418616">
		<tag k="fixme" v="multiple name tags, choose one and add the other to alt_name" />
		<tag k="name" v="Buljohka;Bullojohka - Pullujoki" />
		<tag k="name:fkv" v="Pullujoki" />
		<tag k="name:se" v="Buljohka;Bullojohka" />
		<tag k="place" v="hamlet" />
		<tag k="ssr:stedsnr" v="984254" />
	</node>
	<node id="-770860" lat="69.470156394" lon="20.9225796794">
		<tag k="name" v="Vállasčorru - Wallasbakken" />
		<tag k="name:no" v="Wallasbakken" />
		<tag k="name:se" v="Vállasčorru" />
		<tag k="place" v="farm" />
		<tag k="ssr:stedsnr" v="984238" />
	</node>
	<node id="-771378" lat="69.4612833361" lon="20.9361499721">
		<tag k="fixme" v="consider place=hamlet" />
		<tag k="name" v="Vállas - Kåfjorddalen" />
		<tag k="name:no" v="Kåfjorddalen" />
		<tag k="name:se" v="Vállas" />
		<tag k="place" v="village" />
		<tag k="ssr:stedsnr" v="264181" />
	</node>
	<node id="-771882" lat="69.6664750026" lon="20.478661096">
		<tag k="name" v="Olderen" />
		<tag k="name:no" v="Olderen" />
		<tag k="place" v="farm" />
		<tag k="ssr:stedsnr" v="686584" />
	</node>
	<node id="-771881" lat="69.4952694458" lon="20.5284166517">
		<tag k="name" v="Solberg" />
		<tag k="name:no" v="Solberg" />
		<tag k="place" v="farm" />
		<tag k="ssr:stedsnr" v="686574" />
	</node>
	<node id="-771367" lat="69.5258861151" lon="20.5469999869">
		<tag k="name" v="Lia" />
		<tag k="name:no" v="Lia" />
		<tag k="place" v="farm" />
		<tag k="ssr:stedsnr" v="261638" />
	</node>
	<node id="-770854" lat="69.4739009812" lon="20.9110309329">
		<tag k="name" v="Skattvollen" />
		<tag k="name:no" v="Skattvollen" />
		<tag k="place" v="farm" />
		<tag k="ssr:stedsnr" v="983858" />
	</node>
	<node id="-771365" lat="69.7439583337" lon="20.5146083125">
		<tag k="name" v="Bjørkli" />
		<tag k="name:no" v="Bjørkli" />
		<tag k="place" v="farm" />
		<tag k="ssr:stedsnr" v="261593" />
	</node>
	<node id="-771876" lat="69.4950944483" lon="20.8358444219">
		<tag k="name" v="Hellestad" />
		<tag k="name:se" v="Hellestad" />
		<tag k="place" v="farm" />
		<tag k="ssr:stedsnr" v="667720" />
	</node>
	<node id="-771875" lat="69.6127861113" lon="20.4930222078">
		<tag k="name" v="Ytsteby" />
		<tag k="name:no" v="Ytsteby" />
		<tag k="place" v="farm" />
		<tag k="ssr:stedsnr" v="667623" />
	</node>
	<node id="-772385" lat="69.7354657965" lon="20.5219256202">
		<tag k="name" v="Engenes" />
		<tag k="name:no" v="Engenes" />
		<tag k="place" v="farm" />
		<tag k="ssr:stedsnr" v="935242" />
	</node>
	<node id="-772384" lat="69.4907194436" lon="20.8273972092">
		<tag k="alt_name:no" v="Nyvoll" />
		<tag k="name" v="Nyvollen" />
		<tag k="name:no" v="Nyvollen" />
		<tag k="place" v="farm" />
		<tag k="ssr:stedsnr" v="933202" />
	</node>
	<node id="-771888" lat="69.5611083338" lon="20.5989999863">
		<tag k="name" v="Strand" />
		<tag k="name:no" v="Strand" />
		<tag k="place" v="farm" />
		<tag k="ssr:stedsnr" v="686673" />
	</node>
	<node id="-772381" lat="69.3826527799" lon="20.5720555418">
		<tag k="name" v="Manndalen" />
		<tag k="name:no" v="Manndalen" />
		<tag k="place" v="farm" />
		<tag k="ssr:stedsnr" v="931933" />
	</node>
	<node id="-772378" lat="69.5159444413" lon="20.7838694328">
		<tag k="name" v="Steinset" />
		<tag k="name:no" v="Steinset" />
		<tag k="place" v="farm" />
		<tag k="ssr:stedsnr" v="929727" />
	</node>
	<node id="-770863" lat="69.4679010623" lon="20.3269874274">
		<tag k="fixme" v="consider place=hamlet" />
		<tag k="name" v="Reavčá - Revdalen - Revtsa" />
		<tag k="name:fkv" v="Revtsa" />
		<tag k="name:no" v="Revdalen" />
		<tag k="name:se" v="Reavčá" />
		<tag k="place" v="farm" />
		<tag k="ssr:stedsnr" v="984255" />
	</node>
	<node id="-772375" lat="69.583194442" lon="20.5809138624">
		<tag k="name" v="Slettvoll" />
		<tag k="name:no" v="Slettvoll" />
		<tag k="place" v="farm" />
		<tag k="ssr:stedsnr" v="929664" />
	</node>
	<node id="-771350" lat="69.4684499994" lon="20.924397189">
		<tag k="name" v="Lauvli" />
		<tag k="name:no" v="Lauvli" />
		<tag k="place" v="farm" />
		<tag k="ssr:stedsnr" v="261603" />
	</node>
	<node id="-772373" lat="69.5976138924" lon="20.5495499788">
		<tag k="name" v="Solberg" />
		<tag k="name:no" v="Solberg" />
		<tag k="place" v="farm" />
		<tag k="ssr:stedsnr" v="929636" />
	</node>
	<node id="-771886" lat="69.5169750041" lon="20.5401388709">
		<tag k="fixme" v="multiple name tags, choose one and add the other to alt_name; consider place=hamlet" />
		<tag k="loc_name:no" v="Gamvoll" />
		<tag k="name" v="Goahtegieddi - Storvollen;Storvoll" />
		<tag k="name:no" v="Storvollen;Storvoll" />
		<tag k="name:se" v="Goahtegieddi" />
		<tag k="place" v="farm" />
		<tag k="ssr:stedsnr" v="686643" />
	</node>
	<node id="-772369" lat="69.525881309" lon="20.7280511273">
		<tag k="fixme" v="consider place=hamlet" />
		<tag k="name" v="Coagesnjárga - Bakkejord" />
		<tag k="name:no" v="Bakkejord" />
		<tag k="name:se" v="Coagesnjárga" />
		<tag k="place" v="farm" />
		<tag k="ssr:stedsnr" v="929623" />
	</node>
	<node id="-772368" lat="69.5194750006" lon="20.5412277678">
		<tag k="name" v="Lia" />
		<tag k="name:no" v="Lia" />
		<tag k="place" v="farm" />
		<tag k="ssr:stedsnr" v="929614" />
	</node>
	<node id="-772367" lat="69.4827916636" lon="20.8768388669">
		<tag k="name" v="Melnes" />
		<tag k="name:no" v="Melnes" />
		<tag k="place" v="farm" />
		<tag k="ssr:stedsnr" v="929600" />
	</node>
	<node id="-772366" lat="69.4735083307" lon="20.9172999634">
		<tag k="name" v="Bergheim" />
		<tag k="name:no" v="Bergheim" />
		<tag k="place" v="farm" />
		<tag k="ssr:stedsnr" v="929593" />
	</node>
	<node id="-770705" lat="69.4810749966" lon="20.858022204">
		<tag k="name" v="Holmeslett" />
		<tag k="name:no" v="Holmeslett" />
		<tag k="place" v="farm" />
		<tag k="ssr:stedsnr" v="382605" />
	</node>
	<node id="-772364" lat="69.7278361079" lon="20.5246305307">
		<tag k="name" v="Bergenes" />
		<tag k="name:no" v="Bergenes" />
		<tag k="place" v="farm" />
		<tag k="ssr:stedsnr" v="929581" />
	</node>
	<node id="-771339" lat="69.6120749956" lon="20.5253083245">
		<tag k="name" v="Ytsteby" />
		<tag k="name:no" v="Ytsteby" />
		<tag k="place" v="farm" />
		<tag k="ssr:stedsnr" v="242635" />
	</node>
	<node id="-771884" lat="69.4633861079" lon="20.5364638662">
		<tag k="name" v="Váddá" />
		<tag k="name:se" v="Váddá" />
		<tag k="place" v="farm" />
		<tag k="ssr:stedsnr" v="686605" />
	</node>
	<node id="-772357" lat="69.4418666642" lon="20.5579999759">
		<tag k="name" v="Valsborg" />
		<tag k="name:no" v="Valsborg" />
		<tag k="place" v="farm" />
		<tag k="ssr:stedsnr" v="929512" />
	</node>
	<node id="-771371" lat="69.5917080652" lon="20.5632292677">
		<tag k="name" v="Åsli" />
		<tag k="name:no" v="Åsli" />
		<tag k="place" v="farm" />
		<tag k="ssr:stedsnr" v="261658" />
	</node>
	<node id="-770875" lat="69.5328805599" lon="20.5480888756">
		<tag k="name" v="Myreng" />
		<tag k="name:no" v="Myreng" />
		<tag k="place" v="farm" />
		<tag k="ssr:stedsnr" v="18588" />
	</node>
	<node id="-772349" lat="69.6603916645" lon="20.4740333103">
		<tag k="name" v="Indre Nordmannvik" />
		<tag k="name:no" v="Indre Nordmannvik" />
		<tag k="place" v="farm" />
		<tag k="ssr:stedsnr" v="910727" />
	</node>
	<node id="-772348" lat="69.6810527775" lon="20.5073416518">
		<tag k="name" v="Nordmannvik ytre" />
		<tag k="name:no" v="Nordmannvik ytre" />
		<tag k="place" v="farm" />
		<tag k="ssr:stedsnr" v="910661" />
	</node>
	<node id="-772347" lat="69.6326972264" lon="20.470144419">
		<tag k="fixme" v="multiple name tags, choose one and add the other to alt_name" />
		<tag k="name" v="Bergan;Ytsteby" />
		<tag k="name:no" v="Bergan;Ytsteby" />
		<tag k="place" v="farm" />
		<tag k="ssr:stedsnr" v="910655" />
	</node>
	<node id="-770810" lat="69.6980709484" lon="20.5207781678">
		<tag k="name" v="Solhaug" />
		<tag k="name:no" v="Solhaug" />
		<tag k="place" v="farm" />
		<tag k="ssr:stedsnr" v="80627" />
	</node>
	<node id="-770809" lat="69.5348346013" lon="20.6581258953">
		<tag k="name" v="Langnes" />
		<tag k="name:no" v="Langnes" />
		<tag k="place" v="farm" />
		<tag k="ssr:stedsnr" v="1073043" />
	</node>
	<node id="-770807" lat="69.4902697563" lon="20.8366430203">
		<tag k="name" v="Haugli" />
		<tag k="name:no" v="Haugli" />
		<tag k="place" v="farm" />
		<tag k="ssr:stedsnr" v="564574" />
	</node>
	<node id="-770805" lat="69.6002441752" lon="20.5458420233">
		<tag k="fixme" v="consider place=hamlet" />
		<tag k="name" v="Suleng" />
		<tag k="name:no" v="Suleng" />
		<tag k="place" v="farm" />
		<tag k="ssr:stedsnr" v="1072954" />
	</node>
	<node id="-770604" lat="69.5360638891" lon="20.6521888805">
		<tag k="loc_name:se" v="Sámmolsiida" />
		<tag k="name" v="Brattland" />
		<tag k="name:no" v="Brattland" />
		<tag k="place" v="farm" />
		<tag k="ssr:stedsnr" v="322637" />
	</node>
	<node id="-770801" lat="69.4609594331" lon="20.9353773156">
		<tag k="name" v="Seljeli" />
		<tag k="name:no" v="Seljeli" />
		<tag k="place" v="farm" />
		<tag k="ssr:stedsnr" v="444580" />
	</node>
	<node id="-770800" lat="69.5911008186" lon="20.5608304567">
		<tag k="fixme" v="consider place=hamlet" />
		<tag k="name" v="Storslett" />
		<tag k="name:no" v="Storslett" />
		<tag k="place" v="farm" />
		<tag k="ssr:stedsnr" v="478710" />
	</node>
	<node id="-770797" lat="69.5113809089" lon="20.6760804655">
		<tag k="fixme" v="consider place=hamlet" />
		<tag k="name" v="Iisavárri - Isfjell" />
		<tag k="name:no" v="Isfjell" />
		<tag k="name:se" v="Iisavárri" />
		<tag k="place" v="farm" />
		<tag k="ssr:stedsnr" v="1072874" />
	</node>
	<node id="-770794" lat="69.6014142829" lon="20.5434561283">
		<tag k="name" v="Mielli - Suleng" />
		<tag k="name:no" v="Suleng" />
		<tag k="name:se" v="Mielli" />
		<tag k="place" v="farm" />
		<tag k="ssr:stedsnr" v="504657" />
	</node>
	<node id="-770793" lat="69.5135600942" lon="20.5087918398">
		<tag k="name" v="Vatnet" />
		<tag k="name:no" v="Vatnet" />
		<tag k="place" v="farm" />
		<tag k="ssr:stedsnr" v="1072863" />
	</node>
	<node id="-770792" lat="69.5019024956" lon="20.8150618443">
		<tag k="fixme" v="consider place=hamlet" />
		<tag k="name" v="Goikečorru - Bakkemoen" />
		<tag k="name:no" v="Bakkemoen" />
		<tag k="name:se" v="Goikečorru" />
		<tag k="place" v="farm" />
		<tag k="ssr:stedsnr" v="1072859" />
	</node>
	<node id="-770791" lat="69.5290047436" lon="20.6737288694">
		<tag k="fixme" v="consider place=hamlet" />
		<tag k="name" v="Áibanášši - Langnes" />
		<tag k="name:no" v="Langnes" />
		<tag k="name:se" v="Áibanášši" />
		<tag k="place" v="farm" />
		<tag k="ssr:stedsnr" v="139640" />
	</node>
	<node id="-770789" lat="69.5151077925" lon="20.7846172651">
		<tag k="fixme" v="consider place=hamlet" />
		<tag k="name" v="Pertenga - Bartagieddi - Perttukenttä" />
		<tag k="name:fkv" v="Perttukenttä" />
		<tag k="name:no" v="Pertenga" />
		<tag k="name:se" v="Bartagieddi" />
		<tag k="place" v="farm" />
		<tag k="ssr:stedsnr" v="1072767" />
	</node>
	<node id="-771366" lat="69.5172500029" lon="20.6346888831">
		<tag k="name" v="Nymoen" />
		<tag k="name:no" v="Nymoen" />
		<tag k="place" v="farm" />
		<tag k="ssr:stedsnr" v="261632" />
	</node>
	<node id="-770857" lat="69.4910812328" lon="20.8246201936">
		<tag k="fixme" v="consider place=hamlet" />
		<tag k="name" v="Ođđagieddi - Nyvollen" />
		<tag k="name:no" v="Nyvollen" />
		<tag k="name:se" v="Ođđagieddi" />
		<tag k="place" v="farm" />
		<tag k="ssr:stedsnr" v="983953" />
	</node>
	<node id="-771295" lat="69.5200055587" lon="20.5450666421">
		<tag k="name" v="Hánnosiida" />
		<tag k="name:se" v="Hánnosiida" />
		<tag k="place" v="locality" />
		<tag k="ssr:stedsnr" v="236113" />
	</node>
	<node id="-770782" lat="69.5447250024" lon="20.5280999855">
		<tag k="name" v="Miellegieddi" />
		<tag k="name:se" v="Miellegieddi" />
		<tag k="place" v="hamlet" />
		<tag k="ssr:stedsnr" v="889330" />
	</node>
	<node id="-770853" lat="69.4765413209" lon="20.8918970614">
		<tag k="name" v="Skattvollen" />
		<tag k="name:no" v="Skattvollen" />
		<tag k="place" v="farm" />
		<tag k="ssr:stedsnr" v="983857" />
	</node>
	<node id="-770601" lat="69.4556555596" lon="20.9380388571">
		<tag k="name" v="Fagerli" />
		<tag k="name:no" v="Fagerli" />
		<tag k="place" v="farm" />
		<tag k="ssr:stedsnr" v="322594" />
	</node>
	<node id="-772388" lat="69.5854944411" lon="20.4020138641">
		<tag k="name" v="Odden" />
		<tag k="name:no" v="Odden" />
		<tag k="place" v="farm" />
		<tag k="ssr:stedsnr" v="937853" />
	</node>
	<node id="-771798" lat="69.4735666693" lon="20.9084888605">
		<tag k="fixme" v="consider place=hamlet" />
		<tag k="name" v="Guollejohka - Skattvollen" />
		<tag k="name:no" v="Skattvollen" />
		<tag k="name:se" v="Guollejohka" />
		<tag k="place" v="village" />
		<tag k="ssr:stedsnr" v="628190" />
	</node>
	<node id="-771794" lat="69.6341750047" lon="20.466974973">
		<tag k="name" v="Bergjord" />
		<tag k="name:no" v="Bergjord" />
		<tag k="place" v="farm" />
		<tag k="ssr:stedsnr" v="626621" />
	</node>
	<node id="-770851" lat="69.4820830663" lon="20.8546677936">
		<tag k="fixme" v="consider place=hamlet" />
		<tag k="name" v="Miessegieddi - Holmen" />
		<tag k="name:no" v="Holmen" />
		<tag k="name:se" v="Miessegieddi" />
		<tag k="place" v="farm" />
		<tag k="ssr:stedsnr" v="983752" />
	</node>
	<node id="-771791" lat="69.5176249985" lon="20.7815388636">
		<tag k="name" v="Moberg" />
		<tag k="name:no" v="Moberg" />
		<tag k="place" v="farm" />
		<tag k="ssr:stedsnr" v="625746" />
	</node>
	<node id="-771788" lat="69.5113750002" lon="20.7929027507">
		<tag k="alt_name:no" v="Bakkemoen, yt" />
		<tag k="name" v="Ytre Bakkemo" />
		<tag k="name:no" v="Ytre Bakkemo" />
		<tag k="place" v="farm" />
		<tag k="ssr:stedsnr" v="625738" />
	</node>
	<node id="-771783" lat="69.5426194453" lon="20.6348555407">
		<tag k="alt_name:no" v="Bjørkli;Bjørklid" />
		<tag k="name" v="Bjerkeli" />
		<tag k="name:no" v="Bjerkeli" />
		<tag k="place" v="farm" />
		<tag k="ssr:stedsnr" v="625627" />
	</node>
	<node id="-771781" lat="69.6858277749" lon="20.5094277614">
		<tag k="name" v="Varteig" />
		<tag k="name:no" v="Varteig" />
		<tag k="place" v="farm" />
		<tag k="ssr:stedsnr" v="625613" />
	</node>
	<node id="-771780" lat="69.487066664" lon="20.8618777432">
		<tag k="name" v="Aspelund" />
		<tag k="name:no" v="Aspelund" />
		<tag k="place" v="farm" />
		<tag k="ssr:stedsnr" v="625614" />
	</node>
	<node id="-771779" lat="69.4638305583" lon="20.9341833161">
		<tag k="name" v="Solberg" />
		<tag k="name:no" v="Solberg" />
		<tag k="place" v="farm" />
		<tag k="ssr:stedsnr" v="625601" />
	</node>
	<node id="-771778" lat="69.4623055594" lon="20.9365972108">
		<tag k="name" v="Bakkevoll" />
		<tag k="name:no" v="Bakkevoll" />
		<tag k="place" v="farm" />
		<tag k="ssr:stedsnr" v="625599" />
	</node>
	<node id="-771019" lat="69.746574999" lon="20.4951249866">
		<tag k="name" v="Lund" />
		<tag k="name:no" v="Lund" />
		<tag k="place" v="farm" />
		<tag k="ssr:stedsnr" v="80606" />
	</node>
	<node id="-771264" lat="69.7188666202" lon="20.5253045808">
		<tag k="name" v="Engenes" />
		<tag k="name:no" v="Engenes" />
		<tag k="place" v="hamlet" />
		<tag k="ssr:stedsnr" v="269021" />
	</node>
	<node id="-771104" lat="69.440205553" lon="20.5613277443">
		<tag k="name" v="Brustraum" />
		<tag k="name:no" v="Brustraum" />
		<tag k="place" v="isolated_dwelling" />
		<tag k="ssr:stedsnr" v="139544" />
	</node>
	<node id="-771262" lat="69.5259361085" lon="20.5275277612">
		<tag k="alt_name:no" v="Goržži mánáidgárdi" />
		<tag k="amenity" v="kindergarten" />
		<tag k="name" v="Fossen barnehage" />
		<tag k="name:no" v="Fossen barnehage" />
		<tag k="ssr:stedsnr" v="222307" />
	</node>
	<node id="-770677" lat="69.517338888" lon="20.630074969">
		<tag k="name" v="Skardalen" />
		<tag k="name:no" v="Skardalen" />
		<tag k="place" v="farm" />
		<tag k="ssr:stedsnr" v="363574" />
	</node>
	<node id="-771260" lat="69.5252027758" lon="20.7589805407">
		<tag k="fixme" v="consider place=hamlet" />
		<tag k="name" v="Ruollaluokta - Trollvik" />
		<tag k="name:no" v="Trollvik" />
		<tag k="name:se" v="Ruollaluokta" />
		<tag k="place" v="village" />
		<tag k="ssr:stedsnr" v="210789" />
	</node>
	<node id="-772383" lat="69.4945805556" lon="20.5047166402">
		<tag k="name" v="Kjerringdalen" />
		<tag k="name:no" v="Kjerringdalen" />
		<tag k="place" v="hamlet" />
		<tag k="ssr:stedsnr" v="933184" />
	</node>
	<node id="-771256" lat="69.5024027773" lon="20.3497610995">
		<tag k="name" v="Brennes" />
		<tag k="name:no" v="Brennes" />
		<tag k="place" v="isolated_dwelling" />
		<tag k="ssr:stedsnr" v="201862" />
	</node>
	<node id="-771766" lat="69.7525638916" lon="20.4940027491">
		<tag k="name" v="Djupvik" />
		<tag k="name:no" v="Djupvik" />
		<tag k="place" v="farm" />
		<tag k="ssr:stedsnr" v="606323" />
	</node>
	<node id="-771765" lat="69.4933916701" lon="20.8382805309">
		<tag k="amenity" v="nursing_home" />
		<tag k="fixme" v="multiple name tags, choose one and add the other to alt_name" />
		<tag k="name" v="Gáivuona dearvvasvuođaguovddaš;Kåfjord helsesenter - Kaivuonon tervhyssentteri" />
		<tag k="name:fkv" v="Kaivuonon tervhyssentteri" />
		<tag k="name:se" v="Gáivuona dearvvasvuođaguovddaš;Kåfjord helsesenter" />
		<tag k="ssr:stedsnr" v="606243" />
	</node>
	<node id="-771252" lat="69.4843805532" lon="20.5290027675">
		<tag k="name" v="Skogly" />
		<tag k="name:no" v="Skogly" />
		<tag k="place" v="farm" />
		<tag k="ssr:stedsnr" v="201580" />
	</node>
	<node id="-771251" lat="69.4751138909" lon="20.9128499813">
		<tag k="name" v="Ringstad" />
		<tag k="name:no" v="Ringstad" />
		<tag k="place" v="farm" />
		<tag k="ssr:stedsnr" v="201576" />
	</node>
	<node id="-771250" lat="69.7042360694" lon="20.5273667102">
		<tag k="name" v="Myreng" />
		<tag k="name:no" v="Myreng" />
		<tag k="place" v="farm" />
		<tag k="ssr:stedsnr" v="201573" />
	</node>
	<node id="-770787" lat="69.5243604252" lon="20.7091152114">
		<tag k="name" v="Sågesnes" />
		<tag k="name:no" v="Sågesnes" />
		<tag k="place" v="farm" />
		<tag k="ssr:stedsnr" v="1071920" />
	</node>
	<node id="-771243" lat="69.4974527785" lon="20.5039110885">
		<tag k="name" v="Nordheim" />
		<tag k="name:no" v="Nordheim" />
		<tag k="place" v="farm" />
		<tag k="ssr:stedsnr" v="201541" />
	</node>
	<node id="-770979" lat="69.6925416705" lon="20.5172221958">
		<tag k="name" v="Olggut Dážavággi - Ytre Nordmannvik" />
		<tag k="name:no" v="Ytre Nordmannvik" />
		<tag k="name:se" v="Olggut Dážavággi" />
		<tag k="place" v="hamlet" />
		<tag k="ssr:stedsnr" v="60338" />
	</node>
	<node id="-771239" lat="69.5687611148" lon="20.594158321">
		<tag k="name" v="Kroken" />
		<tag k="name:no" v="Kroken" />
		<tag k="place" v="farm" />
		<tag k="ssr:stedsnr" v="201646" />
	</node>
	<node id="-770855" lat="69.4745710411" lon="20.9041115064">
		<tag k="name" v="Skattvollen" />
		<tag k="name:no" v="Skattvollen" />
		<tag k="place" v="farm" />
		<tag k="ssr:stedsnr" v="983859" />
	</node>
	<node id="-771749" lat="69.4955250003" lon="20.8342916518">
		<tag k="name" v="Myrberg" />
		<tag k="name:no" v="Myrberg" />
		<tag k="old_name:no" v="Jeaggeduohki" />
		<tag k="place" v="farm" />
		<tag k="ssr:stedsnr" v="605272" />
	</node>
	<node id="-771235" lat="69.4342999997" lon="20.5590944156">
		<tag k="name" v="Vállasnjárga" />
		<tag k="name:se" v="Vállasnjárga" />
		<tag k="place" v="isolated_dwelling" />
		<tag k="ssr:stedsnr" v="200547" />
	</node>
	<node id="-770721" lat="69.6864027799" lon="20.513499978">
		<tag k="fixme" v="consider place=hamlet" />
		<tag k="name" v="Olggut Dážavággi - Ytre Nordmannvik" />
		<tag k="name:no" v="Ytre Nordmannvik" />
		<tag k="name:se" v="Olggut Dážavággi" />
		<tag k="place" v="farm" />
		<tag k="ssr:stedsnr" v="383629" />
	</node>
	<node id="-770719" lat="69.6512027777" lon="20.6272388791">
		<tag k="name" v="Gaukneset" />
		<tag k="name:no" v="Gaukneset" />
		<tag k="place" v="isolated_dwelling" />
		<tag k="ssr:stedsnr" v="383603" />
	</node>
	<node id="-770716" lat="69.5662638893" lon="20.3903305401">
		<tag k="fixme" v="multiple name tags, choose one and add the other to alt_name" />
		<tag k="name" v="Jettan;Jiehtanas" />
		<tag k="name:se" v="Jettan;Jiehtanas" />
		<tag k="place" v="farm" />
		<tag k="ssr:stedsnr" v="382921" />
	</node>
	<node id="-771354" lat="69.5419305584" lon="20.5530499934">
		<tag k="name" v="Leirvollen" />
		<tag k="name:no" v="Leirvollen" />
		<tag k="place" v="farm" />
		<tag k="ssr:stedsnr" v="261626" />
	</node>
	<node id="-770714" lat="69.5077527762" lon="20.5411249673">
		<tag k="name" v="Åsheim" />
		<tag k="name:no" v="Åsheim" />
		<tag k="place" v="farm" />
		<tag k="ssr:stedsnr" v="382694" />
	</node>
	<node id="-771374" lat="69.5035500035" lon="20.5364305458">
		<tag k="name" v="Haglund" />
		<tag k="name:no" v="Haglund" />
		<tag k="place" v="farm" />
		<tag k="ssr:stedsnr" v="261687" />
	</node>
	<node id="-770709" lat="69.5250605696" lon="20.6996116072">
		<tag k="name" v="Bakkejord" />
		<tag k="name:no" v="Bakkejord" />
		<tag k="place" v="farm" />
		<tag k="ssr:stedsnr" v="382631" />
	</node>
	<node id="-770708" lat="69.5445499998" lon="20.5290610935">
		<tag k="name" v="Sandmelen" />
		<tag k="name:no" v="Sandmelen" />
		<tag k="place" v="farm" />
		<tag k="ssr:stedsnr" v="382625" />
	</node>
	<node id="-772242" lat="69.5259805515" lon="20.7156777607">
		<tag k="name" v="Åsheim" />
		<tag k="name:no" v="Åsheim" />
		<tag k="place" v="farm" />
		<tag k="ssr:stedsnr" v="868622" />
	</node>
	<node id="-772241" lat="69.5432388912" lon="20.5541527669">
		<tag k="name" v="Løkvollen" />
		<tag k="name:no" v="Løkvollen" />
		<tag k="place" v="farm" />
		<tag k="ssr:stedsnr" v="868605" />
	</node>
	<node id="-771110" lat="69.4951694461" lon="20.8303611007">
		<tag k="fixme" v="multiple name tags, choose one and add the other to alt_name; consider place=hamlet" />
		<tag k="name" v="Biertavárri;Gáivuonbahta - Birtavarre - Pirttavaara;Kaivuono" />
		<tag k="name:fkv" v="Pirttavaara;Kaivuono" />
		<tag k="name:no" v="Birtavarre" />
		<tag k="name:se" v="Biertavárri;Gáivuonbahta" />
		<tag k="place" v="village" />
		<tag k="ssr:stedsnr" v="140552" />
	</node>
	<node id="-770769" lat="69.5253999975" lon="20.6861249897">
		<tag k="name" v="Langnes" />
		<tag k="name:no" v="Langnes" />
		<tag k="place" v="farm" />
		<tag k="ssr:stedsnr" v="478819" />
	</node>
	<node id="-772238" lat="69.6948499964" lon="20.5170055457">
		<tag k="name" v="Bergli" />
		<tag k="name:no" v="Bergli" />
		<tag k="place" v="farm" />
		<tag k="ssr:stedsnr" v="868585" />
	</node>
	<node id="-772237" lat="69.7007499996" lon="20.5241999814">
		<tag k="name" v="Skogheim" />
		<tag k="name:no" v="Skogheim" />
		<tag k="place" v="farm" />
		<tag k="ssr:stedsnr" v="868583" />
	</node>
	<node id="-771212" lat="69.6316888918" lon="20.4698833071">
		<tag k="name" v="Ytsteby" />
		<tag k="name:no" v="Ytsteby" />
		<tag k="place" v="farm" />
		<tag k="ssr:stedsnr" v="181665" />
	</node>
	<node id="-770696" lat="69.5151611123" lon="20.5394610984">
		<tag k="name" v="Goahtegieddi" />
		<tag k="name:se" v="Goahtegieddi" />
		<tag k="place" v="hamlet" />
		<tag k="ssr:stedsnr" v="363971" />
	</node>
	<node id="-770726" lat="69.5244250013" lon="20.6916972031">
		<tag k="name" v="Langnes" />
		<tag k="name:no" v="Langnes" />
		<tag k="place" v="hamlet" />
		<tag k="ssr:stedsnr" v="392816" />
	</node>
	<node id="-771710" lat="69.5083888892" lon="20.5042055479">
		<tag k="name" v="Vannbakken" />
		<tag k="name:no" v="Vannbakken" />
		<tag k="place" v="farm" />
		<tag k="ssr:stedsnr" v="599060" />
	</node>
	<node id="-770595" lat="69.6651777821" lon="20.484480546">
		<tag k="fixme" v="consider place=hamlet" />
		<tag k="name" v="Siskkit Dážavággi - Indre Nordmannvik" />
		<tag k="name:no" v="Indre Nordmannvik" />
		<tag k="name:se" v="Siskkit Dážavággi" />
		<tag k="place" v="farm" />
		<tag k="ssr:stedsnr" v="322563" />
	</node>
	<node id="-771193" lat="69.3874361078" lon="20.5673610897">
		<tag k="name" v="Rissegoahti" />
		<tag k="name:se" v="Rissegoahti" />
		<tag k="place" v="locality" />
		<tag k="ssr:stedsnr" v="175913" />
	</node>
	<node id="-770680" lat="69.6032194488" lon="20.5392611025">
		<tag k="name" v="Olderdalen" />
		<tag k="name:no" v="Olderdalen" />
		<tag k="place" v="farm" />
		<tag k="ssr:stedsnr" v="363637" />
	</node>
	<node id="-770679" lat="69.6043333324" lon="20.5444527649">
		<tag k="name" v="Olderdalen" />
		<tag k="name:no" v="Olderdalen" />
		<tag k="place" v="farm" />
		<tag k="ssr:stedsnr" v="363638" />
	</node>
	<node id="-770678" lat="69.6259527761" lon="20.4855555471">
		<tag k="name" v="Ytsteby" />
		<tag k="name:no" v="Ytsteby" />
		<tag k="place" v="farm" />
		<tag k="ssr:stedsnr" v="363623" />
	</node>
	<node id="-771701" lat="69.5223000018" lon="20.7743805438">
		<tag k="name" v="Bergmo" />
		<tag k="name:no" v="Bergmo" />
		<tag k="place" v="farm" />
		<tag k="ssr:stedsnr" v="598373" />
	</node>
	<node id="-771700" lat="69.5905555538" lon="20.5634860987">
		<tag k="name" v="Sommernes" />
		<tag k="name:no" v="Sommernes" />
		<tag k="place" v="farm" />
		<tag k="ssr:stedsnr" v="595970" />
	</node>
	<node id="-771696" lat="69.4954027821" lon="20.5030749928">
		<tag k="name" v="Áhkávággi - Kjerringdalen" />
		<tag k="name:no" v="Kjerringdalen" />
		<tag k="name:se" v="Áhkávággi" />
		<tag k="place" v="hamlet" />
		<tag k="ssr:stedsnr" v="587639" />
	</node>
	<node id="-772207" lat="69.6694999981" lon="20.4938555392">
		<tag k="fixme" v="consider place=hamlet" />
		<tag k="name" v="Olggutgáddi - Ytre Kåfjord - Ulkuranta" />
		<tag k="name:fkv" v="Ulkuranta" />
		<tag k="name:no" v="Ytre Kåfjord" />
		<tag k="name:se" v="Olggutgáddi" />
		<tag k="place" v="village" />
		<tag k="ssr:stedsnr" v="849345" />
	</node>
	<node id="-772206" lat="69.607136113" lon="20.5267083261">
		<tag k="amenity" v="kindergarten" />
		<tag k="fixme" v="multiple name tags, choose one and add the other to alt_name" />
		<tag k="name" v="Dálusvákki mánáidgárdi;Olderdalen barnehage;Talosvankan lastentaras" />
		<tag k="name:no" v="Dálusvákki mánáidgárdi;Olderdalen barnehage;Talosvankan lastentaras" />
		<tag k="ssr:stedsnr" v="849335" />
	</node>
	<node id="-772201" lat="69.4933305599" lon="20.5252833233">
		<tag k="name" v="Ruohtu" />
		<tag k="name:se" v="Ruohtu" />
		<tag k="place" v="hamlet" />
		<tag k="ssr:stedsnr" v="848959" />
	</node>
	<node id="-771687" lat="69.6287555596" lon="20.4712499934">
		<tag k="name" v="Sagatun" />
		<tag k="name:no" v="Sagatun" />
		<tag k="place" v="farm" />
		<tag k="ssr:stedsnr" v="565600" />
	</node>
	<node id="-771686" lat="69.6594972228" lon="20.4741360999">
		<tag k="name" v="Steinli" />
		<tag k="name:no" v="Steinli" />
		<tag k="place" v="farm" />
		<tag k="ssr:stedsnr" v="565581" />
	</node>
	<node id="-772197" lat="69.4756500026" lon="20.5294111006">
		<tag k="name" v="Skuole" />
		<tag k="name:se" v="Skuole" />
		<tag k="place" v="hamlet" />
		<tag k="ssr:stedsnr" v="847566" />
	</node>
	<node id="-770660" lat="69.7050944422" lon="20.5272444282">
		<tag k="name" v="Indre Hammarvik" />
		<tag k="name:no" v="Indre Hammarvik" />
		<tag k="place" v="farm" />
		<tag k="ssr:stedsnr" v="357983" />
	</node>
	<node id="-771681" lat="69.5841027812" lon="20.5800472009">
		<tag k="alt_name:no" v="Storslett" />
		<tag k="name" v="Storsletta" />
		<tag k="name:no" v="Storsletta" />
		<tag k="place" v="farm" />
		<tag k="ssr:stedsnr" v="564669" />
	</node>
	<node id="-771680" lat="69.5518000031" lon="20.5318249866">
		<tag k="name" v="Sámmolvárri - Samuelsberg" />
		<tag k="name:no" v="Samuelsberg" />
		<tag k="name:se" v="Sámmolvárri" />
		<tag k="place" v="farm" />
		<tag k="ssr:stedsnr" v="564665" />
	</node>
	<node id="-770655" lat="69.4031527811" lon="20.5625361025">
		<tag k="name" v="Háldegoahti" />
		<tag k="name:se" v="Háldegoahti" />
		<tag k="place" v="locality" />
		<tag k="ssr:stedsnr" v="357902" />
	</node>
	<node id="-770603" lat="69.4876555585" lon="20.5256999747">
		<tag k="name" v="Bjerkelund" />
		<tag k="name:no" v="Bjerkelund" />
		<tag k="place" v="farm" />
		<tag k="ssr:stedsnr" v="322623" />
	</node>
	<node id="-771676" lat="69.5148638855" lon="20.6443027615">
		<tag k="name" v="Sommarset" />
		<tag k="name:no" v="Sommarset" />
		<tag k="place" v="farm" />
		<tag k="ssr:stedsnr" v="564637" />
	</node>
	<node id="-770715" lat="69.5235666643" lon="20.7445360954">
		<tag k="name" v="Grønvoll" />
		<tag k="name:no" v="Grønvoll" />
		<tag k="place" v="farm" />
		<tag k="ssr:stedsnr" v="382697" />
	</node>
	<node id="-771670" lat="69.4733444471" lon="20.9004499806">
		<tag k="name" v="Nordheim" />
		<tag k="name:no" v="Nordheim" />
		<tag k="place" v="farm" />
		<tag k="ssr:stedsnr" v="564609" />
	</node>
	<node id="-771669" lat="69.4650305538" lon="20.9356027531">
		<tag k="fixme" v="consider place=hamlet" />
		<tag k="name" v="Kåfjorddalen" />
		<tag k="name:no" v="Kåfjorddalen" />
		<tag k="place" v="farm" />
		<tag k="ssr:stedsnr" v="564601" />
	</node>
	<node id="-772263" lat="69.5238250012" lon="20.7482638707">
		<tag k="name" v="Grunnvåg" />
		<tag k="name:no" v="Grunnvåg" />
		<tag k="place" v="farm" />
		<tag k="ssr:stedsnr" v="902462" />
	</node>
	<node id="-771125" lat="69.5009249972" lon="20.5359138632">
		<tag k="name" v="Fjellstad" />
		<tag k="name:no" v="Fjellstad" />
		<tag k="place" v="farm" />
		<tag k="ssr:stedsnr" v="140715" />
	</node>
	<node id="-770852" lat="69.4802569759" lon="20.8683619876">
		<tag k="name" v="Holmen" />
		<tag k="name:no" v="Holmen" />
		<tag k="place" v="farm" />
		<tag k="ssr:stedsnr" v="983755" />
	</node>
	<node id="-771340" lat="69.6054722191" lon="20.5297583247">
		<tag k="name" v="Olderdalen" />
		<tag k="name:no" v="Olderdalen" />
		<tag k="place" v="farm" />
		<tag k="ssr:stedsnr" v="242644" />
	</node>
	<node id="-771135" lat="69.5692166647" lon="20.5912388652">
		<tag k="name" v="Numedal" />
		<tag k="name:no" v="Numedal" />
		<tag k="place" v="farm" />
		<tag k="ssr:stedsnr" v="150744" />
	</node>
	<node id="-771134" lat="69.6158194482" lon="20.4867083226">
		<tag k="name" v="Junttanjárga - Ysteby - Junttaniemi" />
		<tag k="name:fkv" v="Junttaniemi" />
		<tag k="name:no" v="Ysteby" />
		<tag k="name:se" v="Junttanjárga" />
		<tag k="place" v="hamlet" />
		<tag k="ssr:stedsnr" v="150718" />
	</node>
	<node id="-771133" lat="69.5197027773" lon="20.3606888841">
		<tag k="name" v="Sandnes" />
		<tag k="name:no" v="Sandnes" />
		<tag k="place" v="farm" />
		<tag k="ssr:stedsnr" v="147995" />
	</node>
	<node id="-771131" lat="69.5515083341" lon="20.5332583024">
		<tag k="loc_name:se" v="Buaresfiervá;Fiervá" />
		<tag k="name" v="Samuelsberg - Olmavankka" />
		<tag k="name:fkv" v="Olmavankka" />
		<tag k="name:no" v="Samuelsberg" />
		<tag k="place" v="hamlet" />
		<tag k="ssr:stedsnr" v="143662" />
	</node>
	<node id="-770617" lat="69.5335277766" lon="20.5471360992">
		<tag k="loc_name:se" v="Badjeljeaggi" />
		<tag k="name" v="Øvermyra" />
		<tag k="name:no" v="Øvermyra" />
		<tag k="place" v="hamlet" />
		<tag k="ssr:stedsnr" v="343563" />
	</node>
	<node id="-771128" lat="69.5305694413" lon="20.5467388759">
		<tag k="name" v="Olmmáivággi - Manndalen" />
		<tag k="name:no" v="Manndalen" />
		<tag k="name:se" v="Olmmáivággi" />
		<tag k="place" v="farm" />
		<tag k="ssr:stedsnr" v="141001" />
	</node>
	<node id="-772276" lat="69.4911861099" lon="20.5193083092">
		<tag k="name" v="Dalen" />
		<tag k="name:no" v="Dalen" />
		<tag k="place" v="farm" />
		<tag k="ssr:stedsnr" v="903195" />
	</node>
	<node id="-771126" lat="69.7577527817" lon="20.4670694298">
		<tag k="name" v="Bakkenes" />
		<tag k="name:no" v="Bakkenes" />
		<tag k="place" v="farm" />
		<tag k="ssr:stedsnr" v="140922" />
	</node>
	<node id="-771637" lat="69.6929583374" lon="20.517719436">
		<tag k="name" v="Ytre Nordmannvik" />
		<tag k="name:no" v="Ytre Nordmannvik" />
		<tag k="place" v="farm" />
		<tag k="ssr:stedsnr" v="545653" />
	</node>
	<node id="-770611" lat="69.4839322728" lon="20.871865728">
		<tag k="name" v="Nyborg" />
		<tag k="name:no" v="Nyborg" />
		<tag k="place" v="farm" />
		<tag k="ssr:stedsnr" v="325178" />
	</node>
	<node id="-771122" lat="69.7489083353" lon="20.4909749771">
		<tag k="name" v="Åsheim" />
		<tag k="name:no" v="Åsheim" />
		<tag k="place" v="farm" />
		<tag k="ssr:stedsnr" v="140580" />
	</node>
	<node id="-770609" lat="69.5087000021" lon="20.7970833137">
		<tag k="name" v="Myrhaug" />
		<tag k="name:no" v="Myrhaug" />
		<tag k="place" v="farm" />
		<tag k="ssr:stedsnr" v="322715" />
	</node>
	<node id="-770608" lat="69.560574997" lon="20.5306305474">
		<tag k="loc_name:se" v="Davvekenttä" />
		<tag k="name" v="Davoigieddi - Yttergård" />
		<tag k="name:no" v="Yttergård" />
		<tag k="name:se" v="Davoigieddi" />
		<tag k="place" v="farm" />
		<tag k="ssr:stedsnr" v="322665" />
	</node>
	<node id="-772232" lat="69.4477638926" lon="20.5540166551">
		<tag k="name" v="Mortensæter" />
		<tag k="name:no" v="Mortensæter" />
		<tag k="place" v="isolated_dwelling" />
		<tag k="ssr:stedsnr" v="868561" />
	</node>
	<node id="-770606" lat="69.3945499963" lon="21.0239999838">
		<tag k="name" v="Sabetjohka" />
		<tag k="name:se" v="Sabetjohka" />
		<tag k="place" v="locality" />
		<tag k="ssr:stedsnr" v="322643" />
	</node>
	<node id="-771116" lat="69.5241635575" lon="20.6929729232">
		<tag k="name" v="Langnesbukt" />
		<tag k="name:no" v="Langnesbukt" />
		<tag k="place" v="farm" />
		<tag k="ssr:stedsnr" v="140636" />
	</node>
	<node id="-771762" lat="69.4507944402" lon="20.549102767">
		<tag k="name" v="Cuoppogieddi" />
		<tag k="name:se" v="Cuoppogieddi" />
		<tag k="place" v="hamlet" />
		<tag k="ssr:stedsnr" v="605894" />
	</node>
	<node id="-771113" lat="69.6750388869" lon="20.5005499778">
		<tag k="alt_name:no" v="Lyngmo" />
		<tag k="name" v="Lyngmoen" />
		<tag k="name:no" v="Lyngmoen" />
		<tag k="place" v="farm" />
		<tag k="ssr:stedsnr" v="140551" />
	</node>
	<node id="-772136" lat="69.5148083328" lon="20.7840333127">
		<tag k="alt_name:no" v="Perteng" />
		<tag k="loc_name:fkv" v="Perttukenttä" />
		<tag k="name" v="Pertenga" />
		<tag k="name:no" v="Pertenga" />
		<tag k="place" v="hamlet" />
		<tag k="ssr:stedsnr" v="811654" />
	</node>
	<node id="-772134" lat="69.5261333381" lon="20.5259583089">
		<tag k="amenity" v="school" />
		<tag k="fixme" v="multiple name tags, choose one and add the other to alt_name" />
		<tag k="name" v="Olmavankan koulu;Olmmáivákki skovla - Manndalen skole" />
		<tag k="name:no" v="Manndalen skole" />
		<tag k="name:se" v="Olmavankan koulu;Olmmáivákki skovla" />
		<tag k="ssr:stedsnr" v="810962" />
	</node>
	<node id="-772133" lat="69.6144999995" lon="20.4906083239">
		<tag k="name" v="Lauvbakken" />
		<tag k="name:no" v="Lauvbakken" />
		<tag k="place" v="farm" />
		<tag k="ssr:stedsnr" v="808661" />
	</node>
	<node id="-772131" lat="69.4656611126" lon="20.9331110983">
		<tag k="name" v="Mellomjorda" />
		<tag k="name:no" v="Mellomjorda" />
		<tag k="place" v="farm" />
		<tag k="ssr:stedsnr" v="808599" />
	</node>
	<node id="-771106" lat="69.5250055546" lon="20.7541610795">
		<tag k="name" v="Berg" />
		<tag k="name:no" v="Berg" />
		<tag k="place" v="farm" />
		<tag k="ssr:stedsnr" v="139643" />
	</node>
	<node id="-772129" lat="69.7416805534" lon="20.5086999879">
		<tag k="name" v="Hammarvollen" />
		<tag k="name:no" v="Hammarvollen" />
		<tag k="place" v="farm" />
		<tag k="ssr:stedsnr" v="808592" />
	</node>
	<node id="-772128" lat="69.6315083363" lon="20.4692805282">
		<tag k="fixme" v="multiple name tags, choose one and add the other to alt_name; consider place=hamlet" />
		<tag k="name" v="Junttaniemi;Junttanjárga - Ytsteby" />
		<tag k="name:no" v="Ytsteby" />
		<tag k="name:se" v="Junttaniemi;Junttanjárga" />
		<tag k="place" v="farm" />
		<tag k="ssr:stedsnr" v="808584" />
	</node>
	<node id="-772127" lat="69.6681" lon="20.592049989">
		<tag k="name" v="Sløkvollen" />
		<tag k="name:no" v="Sløkvollen" />
		<tag k="place" v="isolated_dwelling" />
		<tag k="ssr:stedsnr" v="808568" />
	</node>
	<node id="-770786" lat="69.5258778992" lon="20.7265006264">
		<tag k="name" v="Indre Bakkejord" />
		<tag k="name:no" v="Indre Bakkejord" />
		<tag k="place" v="farm" />
		<tag k="ssr:stedsnr" v="1071919" />
	</node>
	<node id="-770587" lat="69.6134916688" lon="20.5094916407">
		<tag k="name" v="Ytsteby" />
		<tag k="name:no" v="Ytsteby" />
		<tag k="place" v="farm" />
		<tag k="ssr:stedsnr" v="303668" />
	</node>
	<node id="-772118" lat="69.5257388892" lon="20.7106360828">
		<tag k="alt_name:no" v="Fossheim" />
		<tag k="name" v="Fosshaug" />
		<tag k="name:no" v="Fosshaug" />
		<tag k="place" v="farm" />
		<tag k="ssr:stedsnr" v="807641" />
	</node>
	<node id="-772117" lat="69.5254416667" lon="20.7634861">
		<tag k="fixme" v="consider place=hamlet" />
		<tag k="name" v="Nieidaluokta - Trollvik" />
		<tag k="name:no" v="Trollvik" />
		<tag k="name:se" v="Nieidaluokta" />
		<tag k="place" v="farm" />
		<tag k="ssr:stedsnr" v="807638" />
	</node>
	<node id="-772116" lat="69.5202722211" lon="20.6185110814">
		<tag k="name" v="Urdli" />
		<tag k="name:no" v="Urdli" />
		<tag k="place" v="farm" />
		<tag k="ssr:stedsnr" v="807634" />
	</node>
	<node id="-772115" lat="69.5199750036" lon="20.536636093">
		<tag k="name" v="Åkerbakken" />
		<tag k="name:no" v="Åkerbakken" />
		<tag k="place" v="farm" />
		<tag k="ssr:stedsnr" v="807626" />
	</node>
	<node id="-772114" lat="69.5439250035" lon="20.5253833241">
		<tag k="name" v="Bergli" />
		<tag k="name:no" v="Bergli" />
		<tag k="place" v="farm" />
		<tag k="ssr:stedsnr" v="807624" />
	</node>
	<node id="-771335" lat="69.6703527775" lon="20.4944916589">
		<tag k="name" v="Siskkit Dážavággi - Indre Nordmannvik" />
		<tag k="name:no" v="Indre Nordmannvik" />
		<tag k="name:se" v="Siskkit Dážavággi" />
		<tag k="place" v="hamlet" />
		<tag k="ssr:stedsnr" v="242315" />
	</node>
	<node id="-772112" lat="69.5254777794" lon="20.5218027705">
		<tag k="name" v="Fossheim" />
		<tag k="name:no" v="Fossheim" />
		<tag k="place" v="farm" />
		<tag k="ssr:stedsnr" v="807615" />
	</node>
	<node id="-772109" lat="69.4719111106" lon="20.9243749631">
		<tag k="fixme" v="consider place=hamlet" />
		<tag k="name" v="Skáiddivuolli - Kilen" />
		<tag k="name:no" v="Kilen" />
		<tag k="name:se" v="Skáiddivuolli" />
		<tag k="place" v="farm" />
		<tag k="ssr:stedsnr" v="807601" />
	</node>
	<node id="-772108" lat="69.4760675213" lon="20.8961699144">
		<tag k="alt_name:no" v="Lillebakken" />
		<tag k="name" v="Litlebakken" />
		<tag k="name:no" v="Litlebakken" />
		<tag k="place" v="farm" />
		<tag k="ssr:stedsnr" v="807599" />
	</node>
	<node id="-772107" lat="69.49349445" lon="20.5266166409">
		<tag k="name" v="Dalen" />
		<tag k="name:no" v="Dalen" />
		<tag k="old_name:se" v="Ruohtu" />
		<tag k="place" v="farm" />
		<tag k="ssr:stedsnr" v="807556" />
	</node>
	<node id="-770865" lat="69.4868883311" lon="20.8574668678">
		<tag k="name" v="Ribatmohkki" />
		<tag k="name:se" v="Ribatmohkki" />
		<tag k="place" v="hamlet" />
		<tag k="ssr:stedsnr" v="987542" />
	</node>
	<node id="-770577" lat="69.5131055593" lon="20.5018305377">
		<tag k="name" v="Jávri - Vatnet" />
		<tag k="name:no" v="Vatnet" />
		<tag k="name:se" v="Jávri" />
		<tag k="place" v="farm" />
		<tag k="ssr:stedsnr" v="302536" />
	</node>
	<node id="-772102" lat="69.4003416634" lon="20.560149981">
		<tag k="name" v="Čearpmatgieddi" />
		<tag k="name:se" v="Čearpmatgieddi" />
		<tag k="place" v="isolated_dwelling" />
		<tag k="ssr:stedsnr" v="807504" />
	</node>
	<node id="-772100" lat="69.465883334" lon="20.9268221935">
		<tag k="name" v="Lauvli" />
		<tag k="name:no" v="Lauvli" />
		<tag k="place" v="farm" />
		<tag k="ssr:stedsnr" v="807087" />
	</node>
	<node id="-771587" lat="69.5066500043" lon="20.803594421">
		<tag k="name" v="Bakke" />
		<tag k="name:no" v="Bakke" />
		<tag k="place" v="farm" />
		<tag k="ssr:stedsnr" v="539439" />
	</node>
	<node id="-771233" lat="69.4209983362" lon="20.96915511">
		<tag k="name" v="Ankerlia" />
		<tag k="name:no" v="Ankerlia" />
		<tag k="place" v="locality" />
		<tag k="ssr:stedsnr" v="200542" />
	</node>
</osm>
