<?xml version="1.0" encoding="UTF-8"?>
<osm generator="osmapis" version="0.6">
	<node id="-770308" lat="69.49950278" lon="20.8294999861">
		<tag k="highway" v="path" />
		<tag k="name" v="Speidnabálggis" />
		<tag k="name:se" v="Speidnabálggis" />
		<tag k="ssr:stedsnr" v="599478" />
	</node>
	<node id="-769498" lat="69.5272722227" lon="20.7703055383">
		<tag k="highway" v="path" />
		<tag k="name" v="Bajit Čunobálggis" />
		<tag k="name:se" v="Bajit Čunobálggis" />
		<tag k="ssr:stedsnr" v="53422" />
	</node>
	<node id="-769241" lat="69.515083336" lon="20.6408388805">
		<tag k="layer" v="-1" />
		<tag k="name" v="Skárfvákkitunealla - Skardalstunnelen" />
		<tag k="name:no" v="Skardalstunnelen" />
		<tag k="name:se" v="Skárfvákkitunealla" />
		<tag k="ssr:stedsnr" v="347745" />
		<tag k="tunnel" v="yes" />
	</node>
	<node id="-769751" lat="69.5473194425" lon="20.6449805284">
		<tag k="highway" v="path" />
		<tag k="name" v="Ordaveien" />
		<tag k="name:no" v="Ordaveien" />
		<tag k="ssr:stedsnr" v="175793" />
	</node>
	<node id="-770390" lat="69.5276333293" lon="20.7336916555">
		<tag k="highway" v="path" />
		<tag k="name" v="Čunobálggis" />
		<tag k="name:se" v="Čunobálggis" />
		<tag k="ssr:stedsnr" v="659440" />
	</node>
	<node id="-770005" lat="69.5396277748" lon="20.6553860845">
		<tag k="highway" v="path" />
		<tag k="loc_name:se" v="Ordavegen" />
		<tag k="name" v="Ordabálggis" />
		<tag k="name:se" v="Ordabálggis" />
		<tag k="ssr:stedsnr" v="418793" />
	</node>
	<node id="-769746" lat="69.4167722198" lon="20.9561360889">
		<tag k="highway" v="path" />
		<tag k="name" v="Guhkessviŋga" />
		<tag k="name:se" v="Guhkessviŋga" />
		<tag k="ssr:stedsnr" v="175305" />
	</node>
	<node id="-769388" lat="69.5136638905" lon="20.7967694105">
		<tag k="highway" v="path" />
		<tag k="name" v="Boares-Issáhabálggis" />
		<tag k="name:se" v="Boares-Issáhabálggis" />
		<tag k="ssr:stedsnr" v="478501" />
	</node>
	<node id="-770866" lat="69.4006805567" lon="20.9861444309">
		<tag k="highway" v="path" />
		<tag k="name" v="Fossevegen" />
		<tag k="name:no" v="Fossevegen" />
		<tag k="ssr:stedsnr" v="903447" />
	</node>
	<node id="-769642" lat="69.5340805581" lon="20.6656999775">
		<tag k="highway" v="path" />
		<tag k="loc_name:no" v="Øverveien" />
		<tag k="loc_name:se" v="Badjebálggis" />
		<tag k="name" v="Hammarveien" />
		<tag k="name:no" v="Hammarveien" />
		<tag k="ssr:stedsnr" v="115786" />
	</node>
	<node id="-770732" lat="69.5260277793" lon="20.740755526">
		<tag k="highway" v="path" />
		<tag k="name" v="Bálggessuorgi" />
		<tag k="name:se" v="Bálggessuorgi" />
		<tag k="ssr:stedsnr" v="842422" />
	</node>
	<node id="-770277" lat="69.5274777784" lon="20.7759138764">
		<tag k="highway" v="path" />
		<tag k="name" v="Ceakkobálggis" />
		<tag k="name:se" v="Ceakkobálggis" />
		<tag k="ssr:stedsnr" v="598417" />
	</node>
	<node id="-769380" lat="69.4137555581" lon="20.9378471973">
		<tag k="highway" v="path" />
		<tag k="name" v="Moskogáisabálggis" />
		<tag k="name:se" v="Moskogáisabálggis" />
		<tag k="ssr:stedsnr" v="478305" />
	</node>
	<node id="-769411" lat="69.5124611132" lon="20.7232583061">
		<tag k="layer" v="-1" />
		<tag k="name" v="Iisaváritunealla - Isfjelltunnelen" />
		<tag k="name:no" v="Isfjelltunnelen" />
		<tag k="name:se" v="Iisaváritunealla" />
		<tag k="ssr:stedsnr" v="895714" />
		<tag k="tunnel" v="yes" />
	</node>
</osm>
