<?xml version="1.0" encoding="UTF-8"?>
<osm version="0.6" generator="osmapis">
	<node lat="63.104946917037964" lon="9.325147755861567" id="-98860">
		<tag k="name" v="Tisetvegen" />
		<tag k="ssr:date" v="2019-05-30" />
		<tag k="ssr:gruppe" v="veg" />
		<tag k="ssr:hovedgruppe" v="infrastruktur" />
		<tag k="ssr:stedsnr" v="40817" />
		<tag k="ssr:type" v="adressenavn" />
	</node>
	<node lat="63.131578591609184" lon="9.34101084505563" id="-98901">
		<tag k="name" v="Halgunsetvegen" />
		<tag k="ssr:date" v="2019-05-30" />
		<tag k="ssr:gruppe" v="veg" />
		<tag k="ssr:hovedgruppe" v="infrastruktur" />
		<tag k="ssr:stedsnr" v="100208" />
		<tag k="ssr:type" v="adressenavn" />
	</node>
	<node lat="63.04692568694962" lon="9.161897626128841" id="-98902">
		<tag k="name" v="Limerholtet" />
		<tag k="ssr:date" v="2019-05-30" />
		<tag k="ssr:gruppe" v="veg" />
		<tag k="ssr:hovedgruppe" v="infrastruktur" />
		<tag k="ssr:stedsnr" v="101820" />
		<tag k="ssr:type" v="adressenavn" />
	</node>
	<node lat="62.99590019509388" lon="9.497706264095994" id="-98967">
		<tag k="name" v="Vålåskarsvegen" />
		<tag k="ssr:date" v="2019-05-30" />
		<tag k="ssr:gruppe" v="veg" />
		<tag k="ssr:hovedgruppe" v="infrastruktur" />
		<tag k="ssr:stedsnr" v="161773" />
		<tag k="ssr:type" v="adressenavn" />
	</node>
	<node lat="63.119175068607454" lon="9.337823560819004" id="-98968">
		<tag k="name" v="Rørdalsvegen" />
		<tag k="ssr:date" v="2019-05-30" />
		<tag k="ssr:gruppe" v="veg" />
		<tag k="ssr:hovedgruppe" v="infrastruktur" />
		<tag k="ssr:stedsnr" v="161800" />
		<tag k="ssr:type" v="adressenavn" />
	</node>
	<node lat="63.04754786604025" lon="9.203184189889539" id="-99010">
		<tag k="name" v="Brustøgguvegen" />
		<tag k="ssr:date" v="2019-05-30" />
		<tag k="ssr:gruppe" v="veg" />
		<tag k="ssr:hovedgruppe" v="infrastruktur" />
		<tag k="ssr:stedsnr" v="222202" />
		<tag k="ssr:type" v="adressenavn" />
	</node>
	<node lat="63.04143393488607" lon="9.148204420849776" id="-99011">
		<tag k="name" v="Bøludalsvegen" />
		<tag k="ssr:date" v="2019-05-30" />
		<tag k="ssr:gruppe" v="veg" />
		<tag k="ssr:hovedgruppe" v="infrastruktur" />
		<tag k="ssr:stedsnr" v="222203" />
		<tag k="ssr:type" v="adressenavn" />
	</node>
	<node lat="63.034777750808246" lon="9.11035565432109" id="-99012">
		<tag k="name" v="Aunvegen" />
		<tag k="ssr:date" v="2019-05-30" />
		<tag k="ssr:gruppe" v="veg" />
		<tag k="ssr:hovedgruppe" v="infrastruktur" />
		<tag k="ssr:stedsnr" v="222205" />
		<tag k="ssr:type" v="adressenavn" />
	</node>
	<node lat="63.049241451656144" lon="9.213650111608244" id="-99063">
		<tag k="name" v="Rindalsvegen" />
		<tag k="ssr:date" v="2019-05-30" />
		<tag k="ssr:gruppe" v="veg" />
		<tag k="ssr:hovedgruppe" v="infrastruktur" />
		<tag k="ssr:stedsnr" v="283817" />
		<tag k="ssr:type" v="adressenavn" />
	</node>
	<node lat="63.05877015735877" lon="9.19488828446685" id="-99065">
		<tag k="name" v="Sjølsvollvegen" />
		<tag k="ssr:date" v="2019-05-30" />
		<tag k="ssr:gruppe" v="veg" />
		<tag k="ssr:hovedgruppe" v="infrastruktur" />
		<tag k="ssr:stedsnr" v="283794" />
		<tag k="ssr:type" v="adressenavn" />
	</node>
	<node lat="63.07073314873113" lon="9.279870498516754" id="-99111">
		<tag k="name" v="Alshogdvegen" />
		<tag k="ssr:date" v="2019-05-30" />
		<tag k="ssr:gruppe" v="veg" />
		<tag k="ssr:hovedgruppe" v="infrastruktur" />
		<tag k="ssr:stedsnr" v="464239" />
		<tag k="ssr:type" v="adressenavn" />
	</node>
	<node lat="63.147017483078145" lon="9.391728233378416" id="-99112">
		<tag k="name" v="Hermundslivegen" />
		<tag k="ssr:date" v="2019-05-30" />
		<tag k="ssr:gruppe" v="veg" />
		<tag k="ssr:hovedgruppe" v="infrastruktur" />
		<tag k="ssr:stedsnr" v="464241" />
		<tag k="ssr:type" v="adressenavn" />
	</node>
	<node lat="63.02553146363115" lon="9.345372870642887" id="-99113">
		<tag k="name" v="Haltlivegen" />
		<tag k="ssr:date" v="2019-05-30" />
		<tag k="ssr:gruppe" v="veg" />
		<tag k="ssr:hovedgruppe" v="infrastruktur" />
		<tag k="ssr:stedsnr" v="464245" />
		<tag k="ssr:type" v="adressenavn" />
	</node>
	<node lat="63.09830232442319" lon="9.324849117314264" id="-99148">
		<tag k="name" v="Lomunddalsvegen" />
		<tag k="ssr:date" v="2019-05-30" />
		<tag k="ssr:gruppe" v="veg" />
		<tag k="ssr:hovedgruppe" v="infrastruktur" />
		<tag k="ssr:stedsnr" v="343831" />
		<tag k="ssr:type" v="adressenavn" />
	</node>
	<node lat="63.096666640651094" lon="9.23320982256829" id="-99199">
		<tag k="name" v="Løfallvegen" />
		<tag k="ssr:date" v="2019-05-30" />
		<tag k="ssr:gruppe" v="veg" />
		<tag k="ssr:hovedgruppe" v="infrastruktur" />
		<tag k="ssr:stedsnr" v="404791" />
		<tag k="ssr:type" v="adressenavn" />
	</node>
	<node lat="63.0956560040824" lon="9.273737551348294" id="-99351">
		<tag k="name" v="Liagrendvegen" />
		<tag k="ssr:date" v="2019-05-30" />
		<tag k="ssr:gruppe" v="veg" />
		<tag k="ssr:hovedgruppe" v="infrastruktur" />
		<tag k="ssr:stedsnr" v="604152" />
		<tag k="ssr:type" v="adressenavn" />
	</node>
	<node lat="63.04749121420309" lon="9.19659653934328" id="-99429">
		<tag k="name" v="Sagagrendvegen" />
		<tag k="ssr:date" v="2019-05-30" />
		<tag k="ssr:gruppe" v="veg" />
		<tag k="ssr:hovedgruppe" v="infrastruktur" />
		<tag k="ssr:stedsnr" v="707793" />
		<tag k="ssr:type" v="adressenavn" />
	</node>
	<node lat="63.06086791376318" lon="9.21834033501236" id="-99431">
		<tag k="name" v="Grønlivegen" />
		<tag k="ssr:date" v="2019-05-30" />
		<tag k="ssr:gruppe" v="veg" />
		<tag k="ssr:hovedgruppe" v="infrastruktur" />
		<tag k="ssr:stedsnr" v="707246" />
		<tag k="ssr:type" v="adressenavn" />
	</node>
	<node lat="63.051701063906684" lon="9.223441450807789" id="-99435">
		<tag k="name" v="Rindalsholtvegen" />
		<tag k="ssr:date" v="2019-05-30" />
		<tag k="ssr:gruppe" v="veg" />
		<tag k="ssr:hovedgruppe" v="infrastruktur" />
		<tag k="ssr:stedsnr" v="890832" />
		<tag k="ssr:type" v="adressenavn" />
	</node>
	<node lat="63.09394571767362" lon="9.26419645893848" id="-99484">
		<tag k="name" v="Løfallivegen" />
		<tag k="ssr:date" v="2019-05-30" />
		<tag k="ssr:gruppe" v="veg" />
		<tag k="ssr:hovedgruppe" v="infrastruktur" />
		<tag k="ssr:stedsnr" v="707823" />
		<tag k="ssr:type" v="adressenavn" />
	</node>
	<node lat="63.04092074872664" lon="9.210368444951808" id="-99531">
		<tag k="name" v="Langlivegen" />
		<tag k="ssr:date" v="2019-05-30" />
		<tag k="ssr:gruppe" v="veg" />
		<tag k="ssr:hovedgruppe" v="infrastruktur" />
		<tag k="ssr:stedsnr" v="908147" />
		<tag k="ssr:type" v="adressenavn" />
	</node>
	<node lat="63.02619339217622" lon="9.319674677966809" id="-99579">
		<tag k="name" v="Gammelgata" />
		<tag k="ssr:date" v="2019-05-30" />
		<tag k="ssr:gruppe" v="veg" />
		<tag k="ssr:hovedgruppe" v="infrastruktur" />
		<tag k="ssr:stedsnr" v="829224" />
		<tag k="ssr:type" v="adressenavn" />
	</node>
	<node lat="63.101690152077964" lon="9.406735429428233" id="-99635">
		<tag k="name" v="Grøsetvegen" />
		<tag k="ssr:date" v="2019-05-30" />
		<tag k="ssr:gruppe" v="veg" />
		<tag k="ssr:hovedgruppe" v="infrastruktur" />
		<tag k="ssr:stedsnr" v="889222" />
		<tag k="ssr:type" v="adressenavn" />
	</node>
	<node lat="63.047658864344385" lon="9.206933388111343" id="-99636">
		<tag k="name" v="Bergmovegen" />
		<tag k="ssr:date" v="2019-05-30" />
		<tag k="ssr:gruppe" v="veg" />
		<tag k="ssr:hovedgruppe" v="infrastruktur" />
		<tag k="ssr:stedsnr" v="889227" />
		<tag k="ssr:type" v="adressenavn" />
	</node>
	<node lat="63.05166549962429" lon="9.169736124956133" id="-99679">
		<tag k="name" v="Librekkvegen" />
		<tag k="ssr:date" v="2019-05-30" />
		<tag k="ssr:gruppe" v="veg" />
		<tag k="ssr:hovedgruppe" v="infrastruktur" />
		<tag k="ssr:stedsnr" v="950779" />
		<tag k="ssr:type" v="adressenavn" />
	</node>
	<node lat="63.13205756312496" lon="9.336312865053916" id="-99737">
		<tag k="name" v="Møkkelgardsvegen" />
		<tag k="ssr:date" v="2019-05-30" />
		<tag k="ssr:gruppe" v="veg" />
		<tag k="ssr:hovedgruppe" v="infrastruktur" />
		<tag k="ssr:stedsnr" v="40835" />
		<tag k="ssr:type" v="adressenavn" />
	</node>
	<node lat="63.03588132191854" lon="9.273652882238956" id="-99738">
		<tag k="name" v="Røsvegen" />
		<tag k="ssr:date" v="2019-05-30" />
		<tag k="ssr:gruppe" v="veg" />
		<tag k="ssr:hovedgruppe" v="infrastruktur" />
		<tag k="ssr:stedsnr" v="40837" />
		<tag k="ssr:type" v="adressenavn" />
	</node>
	<node lat="63.094754149719535" lon="9.281089440626639" id="-99801">
		<tag k="name" v="Elvahusvegen" />
		<tag k="ssr:date" v="2019-05-30" />
		<tag k="ssr:gruppe" v="veg" />
		<tag k="ssr:hovedgruppe" v="infrastruktur" />
		<tag k="ssr:stedsnr" v="100198" />
		<tag k="ssr:type" v="adressenavn" />
	</node>
	<node lat="63.05132818529365" lon="9.172917310108511" id="-99802">
		<tag k="name" v="Burshølvegen" />
		<tag k="ssr:date" v="2019-05-30" />
		<tag k="ssr:gruppe" v="veg" />
		<tag k="ssr:hovedgruppe" v="infrastruktur" />
		<tag k="ssr:stedsnr" v="100199" />
		<tag k="ssr:type" v="adressenavn" />
	</node>
	<node lat="63.055102776831376" lon="9.212744453334562" id="-99828">
		<tag k="name" v="Rindal kommune" />
		<tag k="ssr:date" v="2019-01-06" />
		<tag k="ssr:gruppe" v="administrativeIndelinger" />
		<tag k="ssr:hovedgruppe" v="offentligAdministrasjon" />
		<tag k="ssr:stedsnr" v="146657" />
		<tag k="ssr:type" v="kommune" />
	</node>
	<node lat="63.08991920007356" lon="9.254870807615559" id="-99874">
		<tag k="name" v="Holtvegen" />
		<tag k="ssr:date" v="2019-05-30" />
		<tag k="ssr:gruppe" v="veg" />
		<tag k="ssr:hovedgruppe" v="infrastruktur" />
		<tag k="ssr:stedsnr" v="161249" />
		<tag k="ssr:type" v="adressenavn" />
	</node>
	<node lat="63.04745553899618" lon="9.217089151487858" id="-99962">
		<tag k="name" v="Industrivegen" />
		<tag k="ssr:date" v="2019-05-30" />
		<tag k="ssr:gruppe" v="veg" />
		<tag k="ssr:hovedgruppe" v="infrastruktur" />
		<tag k="ssr:stedsnr" v="222231" />
		<tag k="ssr:type" v="adressenavn" />
	</node>
	<node lat="63.16664649369859" lon="9.446385750604332" id="-99963">
		<tag k="name" v="Jolivegen" />
		<tag k="ssr:date" v="2019-05-30" />
		<tag k="ssr:gruppe" v="veg" />
		<tag k="ssr:hovedgruppe" v="infrastruktur" />
		<tag k="ssr:stedsnr" v="222232" />
		<tag k="ssr:type" v="adressenavn" />
	</node>
	<node lat="63.048051459281396" lon="9.170547581324161" id="-99964">
		<tag k="name" v="Bolmvegen" />
		<tag k="ssr:date" v="2019-05-30" />
		<tag k="ssr:gruppe" v="veg" />
		<tag k="ssr:hovedgruppe" v="infrastruktur" />
		<tag k="ssr:stedsnr" v="222201" />
		<tag k="ssr:type" v="adressenavn" />
	</node>
	<node lat="63.043038204762446" lon="9.122455917620785" id="-100106">
		<tag k="name" v="Almbergskleiva" />
		<tag k="ssr:date" v="2019-05-30" />
		<tag k="ssr:gruppe" v="veg" />
		<tag k="ssr:hovedgruppe" v="infrastruktur" />
		<tag k="ssr:stedsnr" v="343222" />
		<tag k="ssr:type" v="adressenavn" />
	</node>
	<node lat="63.03225795325276" lon="9.10680427055459" id="-100107">
		<tag k="name" v="Rindalslina" />
		<tag k="ssr:date" v="2019-05-30" />
		<tag k="ssr:gruppe" v="veg" />
		<tag k="ssr:hovedgruppe" v="infrastruktur" />
		<tag k="ssr:stedsnr" v="343838" />
		<tag k="ssr:type" v="adressenavn" />
	</node>
	<node lat="63.06086791376318" lon="9.21834033501236" id="-100113">
		<tag k="name" v="Mjohølvegen" />
		<tag k="ssr:date" v="2019-05-30" />
		<tag k="ssr:gruppe" v="veg" />
		<tag k="ssr:hovedgruppe" v="infrastruktur" />
		<tag k="ssr:stedsnr" v="362142" />
		<tag k="ssr:type" v="adressenavn" />
	</node>
	<node lat="63.05164546413315" lon="9.188029775159848" id="-100257">
		<tag k="name" v="Rinnvollvegen" />
		<tag k="ssr:date" v="2019-05-30" />
		<tag k="ssr:gruppe" v="veg" />
		<tag k="ssr:hovedgruppe" v="infrastruktur" />
		<tag k="ssr:stedsnr" v="525799" />
		<tag k="ssr:type" v="adressenavn" />
	</node>
	<node lat="63.10235365393729" lon="9.391623315660425" id="-100258">
		<tag k="name" v="Simonsetvegen" />
		<tag k="ssr:date" v="2019-05-30" />
		<tag k="ssr:gruppe" v="veg" />
		<tag k="ssr:hovedgruppe" v="infrastruktur" />
		<tag k="ssr:stedsnr" v="525757" />
		<tag k="ssr:type" v="adressenavn" />
	</node>
	<node lat="63.06716315506893" lon="9.218562947088508" id="-100266">
		<tag k="name" v="Landsemnvegen" />
		<tag k="ssr:date" v="2019-05-30" />
		<tag k="ssr:gruppe" v="veg" />
		<tag k="ssr:hovedgruppe" v="infrastruktur" />
		<tag k="ssr:stedsnr" v="544124" />
		<tag k="ssr:type" v="adressenavn" />
	</node>
	<node lat="63.07483983152673" lon="9.21083286594102" id="-100343">
		<tag k="name" v="Bjørnåsvegen" />
		<tag k="ssr:date" v="2019-05-30" />
		<tag k="ssr:gruppe" v="veg" />
		<tag k="ssr:hovedgruppe" v="infrastruktur" />
		<tag k="ssr:stedsnr" v="585198" />
		<tag k="ssr:type" v="adressenavn" />
	</node>
	<node lat="63.05092626813415" lon="9.171000053584946" id="-100462">
		<tag k="name" v="Almbergsvegen" />
		<tag k="ssr:date" v="2019-05-30" />
		<tag k="ssr:gruppe" v="veg" />
		<tag k="ssr:hovedgruppe" v="infrastruktur" />
		<tag k="ssr:stedsnr" v="768232" />
		<tag k="ssr:type" v="adressenavn" />
	</node>
	<node lat="63.04498392792721" lon="9.262619258655274" id="-100536">
		<tag k="name" v="Løsetvegen" />
		<tag k="ssr:date" v="2019-05-30" />
		<tag k="ssr:gruppe" v="veg" />
		<tag k="ssr:hovedgruppe" v="infrastruktur" />
		<tag k="ssr:stedsnr" v="829820" />
		<tag k="ssr:type" v="adressenavn" />
	</node>
	<node lat="63.01169272287822" lon="9.444546212875405" id="-100537">
		<tag k="name" v="Romundstadbygdvegen" />
		<tag k="ssr:date" v="2019-05-30" />
		<tag k="ssr:gruppe" v="veg" />
		<tag k="ssr:hovedgruppe" v="infrastruktur" />
		<tag k="ssr:stedsnr" v="829826" />
		<tag k="ssr:type" v="adressenavn" />
	</node>
	<node lat="63.04154964081769" lon="9.249935389560756" id="-100539">
		<tag k="name" v="Liavegen" />
		<tag k="ssr:date" v="2019-05-30" />
		<tag k="ssr:gruppe" v="veg" />
		<tag k="ssr:hovedgruppe" v="infrastruktur" />
		<tag k="ssr:stedsnr" v="848141" />
		<tag k="ssr:type" v="adressenavn" />
	</node>
	<node lat="64.014446801577" lon="11.48188662926966" id="-100668">
		<tag k="name" v="Trøndelag fylke - Trööndelagen fylhke" />
		<tag k="name:no" v="Trøndelag fylke" />
		<tag k="name:sma" v="Trööndelagen fylhke" />
		<tag k="ssr:date" v="2021-06-08" />
		<tag k="ssr:gruppe" v="administrativeIndelinger" />
		<tag k="ssr:hovedgruppe" v="offentligAdministrasjon" />
		<tag k="ssr:stedsnr" v="980645" />
		<tag k="ssr:type" v="fylke" />
	</node>
	<node lat="63.05830408939228" lon="9.208602614663281" id="-100670">
		<tag k="name" v="Skulegata" />
		<tag k="ssr:date" v="2019-05-30" />
		<tag k="ssr:gruppe" v="veg" />
		<tag k="ssr:hovedgruppe" v="infrastruktur" />
		<tag k="ssr:stedsnr" v="1024004" />
		<tag k="ssr:type" v="adressenavn" />
	</node>
	<node lat="63.057018739831115" lon="9.207799647902208" id="-100671">
		<tag k="name" v="Skvampeltårnvegen" />
		<tag k="ssr:date" v="2019-05-30" />
		<tag k="ssr:gruppe" v="veg" />
		<tag k="ssr:hovedgruppe" v="infrastruktur" />
		<tag k="ssr:stedsnr" v="1024005" />
		<tag k="ssr:type" v="adressenavn" />
	</node>
	<node lat="63.05674761233153" lon="9.212179129355913" id="-100672">
		<tag k="name" v="Nordlivegen" />
		<tag k="ssr:date" v="2019-05-30" />
		<tag k="ssr:gruppe" v="veg" />
		<tag k="ssr:hovedgruppe" v="infrastruktur" />
		<tag k="ssr:stedsnr" v="1024007" />
		<tag k="ssr:type" v="adressenavn" />
	</node>
	<node lat="63.05159261230041" lon="9.207478768662218" id="-100673">
		<tag k="name" v="Gammelvegen" />
		<tag k="ssr:date" v="2019-05-30" />
		<tag k="ssr:gruppe" v="veg" />
		<tag k="ssr:hovedgruppe" v="infrastruktur" />
		<tag k="ssr:stedsnr" v="1024008" />
		<tag k="ssr:type" v="adressenavn" />
	</node>
	<node lat="63.05299615454969" lon="9.210851060422907" id="-100674">
		<tag k="name" v="Bogavegen" />
		<tag k="ssr:date" v="2019-05-30" />
		<tag k="ssr:gruppe" v="veg" />
		<tag k="ssr:hovedgruppe" v="infrastruktur" />
		<tag k="ssr:stedsnr" v="1024011" />
		<tag k="ssr:type" v="adressenavn" />
	</node>
	<node lat="63.056356980789545" lon="9.211568272319095" id="-100675">
		<tag k="name" v="Aldersheimsvegen" />
		<tag k="ssr:date" v="2019-05-30" />
		<tag k="ssr:gruppe" v="veg" />
		<tag k="ssr:hovedgruppe" v="infrastruktur" />
		<tag k="ssr:stedsnr" v="1024012" />
		<tag k="ssr:type" v="adressenavn" />
	</node>
	<node lat="63.05136550678933" lon="9.212584015694627" id="-100676">
		<tag k="name" v="Kirkevegen" />
		<tag k="ssr:date" v="2019-05-30" />
		<tag k="ssr:gruppe" v="veg" />
		<tag k="ssr:hovedgruppe" v="infrastruktur" />
		<tag k="ssr:stedsnr" v="1024013" />
		<tag k="ssr:type" v="adressenavn" />
	</node>
	<node lat="63.05553241181765" lon="9.212906598874957" id="-100677">
		<tag k="name" v="Idrettsgata" />
		<tag k="ssr:date" v="2019-05-30" />
		<tag k="ssr:gruppe" v="veg" />
		<tag k="ssr:hovedgruppe" v="infrastruktur" />
		<tag k="ssr:stedsnr" v="1024015" />
		<tag k="ssr:type" v="adressenavn" />
	</node>
	<node lat="63.05545608752463" lon="9.211479847826872" id="-100678">
		<tag k="name" v="Martinus Viks veg" />
		<tag k="ssr:date" v="2019-05-30" />
		<tag k="ssr:gruppe" v="veg" />
		<tag k="ssr:hovedgruppe" v="infrastruktur" />
		<tag k="ssr:stedsnr" v="1024016" />
		<tag k="ssr:type" v="adressenavn" />
	</node>
	<node lat="63.05367601400855" lon="9.215247351186264" id="-100679">
		<tag k="name" v="Skifaret" />
		<tag k="ssr:date" v="2019-05-30" />
		<tag k="ssr:gruppe" v="veg" />
		<tag k="ssr:hovedgruppe" v="infrastruktur" />
		<tag k="ssr:stedsnr" v="1024018" />
		<tag k="ssr:type" v="adressenavn" />
	</node>
	<node lat="63.055150317350524" lon="9.218993815627487" id="-100680">
		<tag k="name" v="Ringvegen" />
		<tag k="ssr:date" v="2019-05-30" />
		<tag k="ssr:gruppe" v="veg" />
		<tag k="ssr:hovedgruppe" v="infrastruktur" />
		<tag k="ssr:stedsnr" v="1024019" />
		<tag k="ssr:type" v="adressenavn" />
	</node>
	<node lat="63.059710264896005" lon="9.215818315845121" id="-100681">
		<tag k="name" v="Myrvegen" />
		<tag k="ssr:date" v="2019-05-30" />
		<tag k="ssr:gruppe" v="veg" />
		<tag k="ssr:hovedgruppe" v="infrastruktur" />
		<tag k="ssr:stedsnr" v="1024020" />
		<tag k="ssr:type" v="adressenavn" />
	</node>
	<node lat="63.05365054173122" lon="9.213492354820966" id="-100682">
		<tag k="name" v="Trollfaret" />
		<tag k="ssr:date" v="2019-05-30" />
		<tag k="ssr:gruppe" v="veg" />
		<tag k="ssr:hovedgruppe" v="infrastruktur" />
		<tag k="ssr:stedsnr" v="1024023" />
		<tag k="ssr:type" v="adressenavn" />
	</node>
	<node lat="63.0604025897018" lon="9.213561060580108" id="-100683">
		<tag k="name" v="Melasvingen" />
		<tag k="ssr:date" v="2019-05-30" />
		<tag k="ssr:gruppe" v="veg" />
		<tag k="ssr:hovedgruppe" v="infrastruktur" />
		<tag k="ssr:stedsnr" v="1024024" />
		<tag k="ssr:type" v="adressenavn" />
	</node>
	<node lat="63.05955292330393" lon="9.213428643502114" id="-100684">
		<tag k="name" v="Revfaret" />
		<tag k="ssr:date" v="2019-05-30" />
		<tag k="ssr:gruppe" v="veg" />
		<tag k="ssr:hovedgruppe" v="infrastruktur" />
		<tag k="ssr:stedsnr" v="1024026" />
		<tag k="ssr:type" v="adressenavn" />
	</node>
	<node lat="63.057070942984836" lon="9.209697734164317" id="-100685">
		<tag k="name" v="Harevegen" />
		<tag k="ssr:date" v="2019-05-30" />
		<tag k="ssr:gruppe" v="veg" />
		<tag k="ssr:hovedgruppe" v="infrastruktur" />
		<tag k="ssr:stedsnr" v="1024028" />
		<tag k="ssr:type" v="adressenavn" />
	</node>
	<node lat="63.0586504846737" lon="9.21073999848412" id="-100686">
		<tag k="name" v="Skulebakken" />
		<tag k="ssr:date" v="2019-05-30" />
		<tag k="ssr:gruppe" v="veg" />
		<tag k="ssr:hovedgruppe" v="infrastruktur" />
		<tag k="ssr:stedsnr" v="1024029" />
		<tag k="ssr:type" v="adressenavn" />
	</node>
	<node lat="63.061130816035956" lon="9.225135766889908" id="-100687">
		<tag k="name" v="Askildsåvegen" />
		<tag k="ssr:date" v="2019-05-30" />
		<tag k="ssr:gruppe" v="veg" />
		<tag k="ssr:hovedgruppe" v="infrastruktur" />
		<tag k="ssr:stedsnr" v="1024030" />
		<tag k="ssr:type" v="adressenavn" />
	</node>
	<node lat="63.055254411802125" lon="9.21518179987154" id="-100688">
		<tag k="name" v="Sjukeheimsvegen" />
		<tag k="ssr:date" v="2019-05-30" />
		<tag k="ssr:gruppe" v="veg" />
		<tag k="ssr:hovedgruppe" v="infrastruktur" />
		<tag k="ssr:stedsnr" v="1024031" />
		<tag k="ssr:type" v="adressenavn" />
	</node>
	<node lat="63.05645883662362" lon="9.208873900374858" id="-100689">
		<tag k="name" v="Rørgata" />
		<tag k="ssr:date" v="2019-05-30" />
		<tag k="ssr:gruppe" v="veg" />
		<tag k="ssr:hovedgruppe" v="infrastruktur" />
		<tag k="ssr:stedsnr" v="1024033" />
		<tag k="ssr:type" v="adressenavn" />
	</node>
	<node lat="63.128714927692236" lon="9.329320107941369" id="-100690">
		<tag k="name" v="Toråvegen" />
		<tag k="ssr:date" v="2019-05-30" />
		<tag k="ssr:gruppe" v="veg" />
		<tag k="ssr:hovedgruppe" v="infrastruktur" />
		<tag k="ssr:stedsnr" v="1024035" />
		<tag k="ssr:type" v="adressenavn" />
	</node>
	<node lat="63.09510244626737" lon="9.279275219320375" id="-100691">
		<tag k="name" v="Torvmyrvegen" />
		<tag k="ssr:date" v="2019-05-30" />
		<tag k="ssr:gruppe" v="veg" />
		<tag k="ssr:hovedgruppe" v="infrastruktur" />
		<tag k="ssr:stedsnr" v="1024037" />
		<tag k="ssr:type" v="adressenavn" />
	</node>
	<node lat="63.04446645989155" lon="9.191867656954692" id="-100692">
		<tag k="name" v="Tunvegen" />
		<tag k="ssr:date" v="2019-05-30" />
		<tag k="ssr:gruppe" v="veg" />
		<tag k="ssr:hovedgruppe" v="infrastruktur" />
		<tag k="ssr:stedsnr" v="1024038" />
		<tag k="ssr:type" v="adressenavn" />
	</node>
	<node lat="63.04563760228846" lon="9.188062912077157" id="-100693">
		<tag k="name" v="Moanvegen" />
		<tag k="ssr:date" v="2019-05-30" />
		<tag k="ssr:gruppe" v="veg" />
		<tag k="ssr:hovedgruppe" v="infrastruktur" />
		<tag k="ssr:stedsnr" v="1024040" />
		<tag k="ssr:type" v="adressenavn" />
	</node>
	<node lat="63.04414229543272" lon="9.195701543141718" id="-100694">
		<tag k="name" v="Furuvegen" />
		<tag k="ssr:date" v="2019-05-30" />
		<tag k="ssr:gruppe" v="veg" />
		<tag k="ssr:hovedgruppe" v="infrastruktur" />
		<tag k="ssr:stedsnr" v="1024041" />
		<tag k="ssr:type" v="adressenavn" />
	</node>
	<node lat="63.04412631256491" lon="9.193964858268215" id="-100695">
		<tag k="name" v="Tømmervegen" />
		<tag k="ssr:date" v="2019-05-30" />
		<tag k="ssr:gruppe" v="veg" />
		<tag k="ssr:hovedgruppe" v="infrastruktur" />
		<tag k="ssr:stedsnr" v="1024043" />
		<tag k="ssr:type" v="adressenavn" />
	</node>
	<node lat="63.05830408939228" lon="9.208602614663281" id="-100696">
		<tag k="name" v="Vestrevegen" />
		<tag k="ssr:date" v="2019-05-30" />
		<tag k="ssr:gruppe" v="veg" />
		<tag k="ssr:hovedgruppe" v="infrastruktur" />
		<tag k="ssr:stedsnr" v="1024044" />
		<tag k="ssr:type" v="adressenavn" />
	</node>
	<node lat="63.10048367112646" lon="9.327803972811205" id="-100697">
		<tag k="name" v="Grindvegen" />
		<tag k="ssr:date" v="2019-05-30" />
		<tag k="ssr:gruppe" v="veg" />
		<tag k="ssr:hovedgruppe" v="infrastruktur" />
		<tag k="ssr:stedsnr" v="1024046" />
		<tag k="ssr:type" v="adressenavn" />
	</node>
	<node lat="63.05782140596239" lon="9.20548568394212" id="-100698">
		<tag k="name" v="Ekornvegen" />
		<tag k="ssr:date" v="2019-05-30" />
		<tag k="ssr:gruppe" v="veg" />
		<tag k="ssr:hovedgruppe" v="infrastruktur" />
		<tag k="ssr:stedsnr" v="1024048" />
		<tag k="ssr:type" v="adressenavn" />
	</node>
	<node lat="63.058758560889544" lon="9.203948367414254" id="-100699">
		<tag k="name" v="Elgvegen" />
		<tag k="ssr:date" v="2019-05-30" />
		<tag k="ssr:gruppe" v="veg" />
		<tag k="ssr:hovedgruppe" v="infrastruktur" />
		<tag k="ssr:stedsnr" v="1024050" />
		<tag k="ssr:type" v="adressenavn" />
	</node>
	<node lat="63.05825442697599" lon="9.202863170301354" id="-100700">
		<tag k="name" v="Hjortvegen" />
		<tag k="ssr:date" v="2019-05-30" />
		<tag k="ssr:gruppe" v="veg" />
		<tag k="ssr:hovedgruppe" v="infrastruktur" />
		<tag k="ssr:stedsnr" v="1024051" />
		<tag k="ssr:type" v="adressenavn" />
	</node>
	<node lat="63.057841522353954" lon="9.204572154797402" id="-100701">
		<tag k="name" v="Rådyrvegen" />
		<tag k="ssr:date" v="2019-05-30" />
		<tag k="ssr:gruppe" v="veg" />
		<tag k="ssr:hovedgruppe" v="infrastruktur" />
		<tag k="ssr:stedsnr" v="1024053" />
		<tag k="ssr:type" v="adressenavn" />
	</node>
	<node lat="63.06095193339603" lon="9.21967990421419" id="-100702">
		<tag k="name" v="Jøåbakken" />
		<tag k="ssr:date" v="2019-05-30" />
		<tag k="ssr:gruppe" v="veg" />
		<tag k="ssr:hovedgruppe" v="infrastruktur" />
		<tag k="ssr:stedsnr" v="1024055" />
		<tag k="ssr:type" v="adressenavn" />
	</node>
	<node lat="63.04602834781648" lon="9.235007881138667" id="-100703">
		<tag k="name" v="Blokkåløvegen" />
		<tag k="ssr:date" v="2019-05-30" />
		<tag k="ssr:gruppe" v="veg" />
		<tag k="ssr:hovedgruppe" v="infrastruktur" />
		<tag k="ssr:stedsnr" v="1024057" />
		<tag k="ssr:type" v="adressenavn" />
	</node>
	<node lat="63.04486645673221" lon="9.205897361986679" id="-100704">
		<tag k="name" v="Postvegen" />
		<tag k="ssr:date" v="2019-05-30" />
		<tag k="ssr:gruppe" v="veg" />
		<tag k="ssr:hovedgruppe" v="infrastruktur" />
		<tag k="ssr:stedsnr" v="1024059" />
		<tag k="ssr:type" v="adressenavn" />
	</node>
	<node lat="63.05711013048058" lon="9.206181060321791" id="-100705">
		<tag k="name" v="Nordlisvingen" />
		<tag k="ssr:date" v="2019-05-30" />
		<tag k="ssr:gruppe" v="veg" />
		<tag k="ssr:hovedgruppe" v="infrastruktur" />
		<tag k="ssr:stedsnr" v="1024061" />
		<tag k="ssr:type" v="adressenavn" />
	</node>
	<node lat="63.056411215634704" lon="9.193891857901376" id="-100706">
		<tag k="name" v="Tuvholtvegen" />
		<tag k="ssr:date" v="2019-05-30" />
		<tag k="ssr:gruppe" v="veg" />
		<tag k="ssr:hovedgruppe" v="infrastruktur" />
		<tag k="ssr:stedsnr" v="1024062" />
		<tag k="ssr:type" v="adressenavn" />
	</node>
	<node lat="63.057700381340794" lon="9.192432289054732" id="-100707">
		<tag k="name" v="Nysetervegen" />
		<tag k="ssr:date" v="2019-05-30" />
		<tag k="ssr:gruppe" v="veg" />
		<tag k="ssr:hovedgruppe" v="infrastruktur" />
		<tag k="ssr:stedsnr" v="1024064" />
		<tag k="ssr:type" v="adressenavn" />
	</node>
	<node lat="63.05657526554961" lon="9.194774732560697" id="-100708">
		<tag k="name" v="Løåvegen" />
		<tag k="ssr:date" v="2019-05-30" />
		<tag k="ssr:gruppe" v="veg" />
		<tag k="ssr:hovedgruppe" v="infrastruktur" />
		<tag k="ssr:stedsnr" v="1024066" />
		<tag k="ssr:type" v="adressenavn" />
	</node>
	<node lat="63.05525726536877" lon="9.21151151751176" id="-100709">
		<tag k="name" v="Lykkjavegen" />
		<tag k="ssr:date" v="2019-05-30" />
		<tag k="ssr:gruppe" v="veg" />
		<tag k="ssr:hovedgruppe" v="infrastruktur" />
		<tag k="ssr:stedsnr" v="1024069" />
		<tag k="ssr:type" v="adressenavn" />
	</node>
	<node lat="63.04752747329162" lon="9.203303684007329" id="-100710">
		<tag k="name" v="Bjergvegen" />
		<tag k="ssr:date" v="2019-05-30" />
		<tag k="ssr:gruppe" v="veg" />
		<tag k="ssr:hovedgruppe" v="infrastruktur" />
		<tag k="ssr:stedsnr" v="1025900" />
		<tag k="ssr:type" v="adressenavn" />
	</node>
	<node lat="63.04655267348058" lon="9.230265926056367" id="-100711">
		<tag k="name" v="Løsetvollvegen" />
		<tag k="ssr:date" v="2019-05-30" />
		<tag k="ssr:gruppe" v="veg" />
		<tag k="ssr:hovedgruppe" v="infrastruktur" />
		<tag k="ssr:stedsnr" v="1025965" />
		<tag k="ssr:type" v="adressenavn" />
	</node>
	<node lat="63.01736560338089" lon="9.317815633957746" id="-100712">
		<tag k="name" v="Granadalsvegen" />
		<tag k="ssr:date" v="2019-05-30" />
		<tag k="ssr:gruppe" v="veg" />
		<tag k="ssr:hovedgruppe" v="infrastruktur" />
		<tag k="ssr:stedsnr" v="1025967" />
		<tag k="ssr:type" v="adressenavn" />
	</node>
	<node lat="63.07826921689718" lon="9.303826723676895" id="-100713">
		<tag k="name" v="Krokstadvegen" />
		<tag k="ssr:date" v="2019-05-30" />
		<tag k="ssr:gruppe" v="veg" />
		<tag k="ssr:hovedgruppe" v="infrastruktur" />
		<tag k="ssr:stedsnr" v="1025971" />
		<tag k="ssr:type" v="adressenavn" />
	</node>
	<node lat="63.05366724152401" lon="9.21667428307792" id="-100714">
		<tag k="name" v="Trollheimsvingen" />
		<tag k="ssr:date" v="2019-05-30" />
		<tag k="ssr:gruppe" v="veg" />
		<tag k="ssr:hovedgruppe" v="infrastruktur" />
		<tag k="ssr:stedsnr" v="1025976" />
		<tag k="ssr:type" v="adressenavn" />
	</node>
	<node lat="63.05038624193717" lon="9.213355005849914" id="-100715">
		<tag k="name" v="Seljebrekka" />
		<tag k="ssr:date" v="2019-05-30" />
		<tag k="ssr:gruppe" v="veg" />
		<tag k="ssr:hovedgruppe" v="infrastruktur" />
		<tag k="ssr:stedsnr" v="1025985" />
		<tag k="ssr:type" v="adressenavn" />
	</node>
	<node lat="63.06096415537104" lon="9.19211475676616" id="-100716">
		<tag k="name" v="Grytbakkvegen" />
		<tag k="ssr:date" v="2019-05-30" />
		<tag k="ssr:gruppe" v="veg" />
		<tag k="ssr:hovedgruppe" v="infrastruktur" />
		<tag k="ssr:stedsnr" v="1025916" />
		<tag k="ssr:type" v="adressenavn" />
	</node>
	<node lat="63.0580828268943" lon="9.156073798966172" id="-100725">
		<tag k="name" v="Kårliåsen" />
		<tag k="ssr:date" v="2021-04-21" />
		<tag k="ssr:gruppe" v="veg" />
		<tag k="ssr:hovedgruppe" v="infrastruktur" />
		<tag k="ssr:stedsnr" v="1080934" />
		<tag k="ssr:type" v="adressenavn" />
	</node>
	<node lat="63.13115160789924" lon="9.418044122701039" id="-100726">
		<tag k="name" v="Rørvassvegen" />
		<tag k="ssr:date" v="2021-04-21" />
		<tag k="ssr:gruppe" v="veg" />
		<tag k="ssr:hovedgruppe" v="infrastruktur" />
		<tag k="ssr:stedsnr" v="1080933" />
		<tag k="ssr:type" v="adressenavn" />
	</node>
	<node lat="63.2053565836295" lon="9.323102174393227" id="-100727">
		<tag k="name" v="Jøssåvollveien" />
		<tag k="ssr:date" v="2021-04-21" />
		<tag k="ssr:gruppe" v="veg" />
		<tag k="ssr:hovedgruppe" v="infrastruktur" />
		<tag k="ssr:stedsnr" v="1080958" />
		<tag k="ssr:type" v="adressenavn" />
	</node>
	<node lat="63.03919217239734" lon="9.389284780291952" id="-100728">
		<tag k="name" v="Stokkvatnet" />
		<tag k="ssr:date" v="2021-04-21" />
		<tag k="ssr:gruppe" v="veg" />
		<tag k="ssr:hovedgruppe" v="infrastruktur" />
		<tag k="ssr:stedsnr" v="1080956" />
		<tag k="ssr:type" v="adressenavn" />
	</node>
	<node lat="62.987526701789115" lon="9.407096233661019" id="-100729">
		<tag k="name" v="Litlhøylødalen" />
		<tag k="ssr:date" v="2021-04-21" />
		<tag k="ssr:gruppe" v="veg" />
		<tag k="ssr:hovedgruppe" v="infrastruktur" />
		<tag k="ssr:stedsnr" v="1080957" />
		<tag k="ssr:type" v="adressenavn" />
	</node>
	<node lat="62.978882227896065" lon="9.33385624335575" id="-100730">
		<tag k="name" v="Helgetunmarka" />
		<tag k="ssr:date" v="2021-04-21" />
		<tag k="ssr:gruppe" v="veg" />
		<tag k="ssr:hovedgruppe" v="infrastruktur" />
		<tag k="ssr:stedsnr" v="1080959" />
		<tag k="ssr:type" v="adressenavn" />
	</node>
	<node lat="63.043198744130066" lon="9.106145250645014" id="-100731">
		<tag k="name" v="Austre Nordmarksvegen" />
		<tag k="ssr:date" v="2021-04-21" />
		<tag k="ssr:gruppe" v="veg" />
		<tag k="ssr:hovedgruppe" v="infrastruktur" />
		<tag k="ssr:stedsnr" v="1080960" />
		<tag k="ssr:type" v="adressenavn" />
	</node>
	<node lat="62.98618747020322" lon="9.432257717356048" id="-100732">
		<tag k="name" v="Snurruåsen" />
		<tag k="ssr:date" v="2021-04-21" />
		<tag k="ssr:gruppe" v="veg" />
		<tag k="ssr:hovedgruppe" v="infrastruktur" />
		<tag k="ssr:stedsnr" v="1080961" />
		<tag k="ssr:type" v="adressenavn" />
	</node>
	<node lat="63.017414959387146" lon="9.317795389423402" id="-100733">
		<tag k="name" v="Bjønnalia" />
		<tag k="ssr:date" v="2021-04-21" />
		<tag k="ssr:gruppe" v="veg" />
		<tag k="ssr:hovedgruppe" v="infrastruktur" />
		<tag k="ssr:stedsnr" v="1080962" />
		<tag k="ssr:type" v="adressenavn" />
	</node>
	<node lat="63.05851382025837" lon="9.15769209648786" id="-100734">
		<tag k="name" v="Tørsåsen" />
		<tag k="ssr:date" v="2021-04-21" />
		<tag k="ssr:gruppe" v="veg" />
		<tag k="ssr:hovedgruppe" v="infrastruktur" />
		<tag k="ssr:stedsnr" v="1080935" />
		<tag k="ssr:type" v="adressenavn" />
	</node>
	<node lat="63.06552027677744" lon="9.140515334724718" id="-100735">
		<tag k="name" v="Gammelseterøyan" />
		<tag k="ssr:date" v="2021-04-21" />
		<tag k="ssr:gruppe" v="veg" />
		<tag k="ssr:hovedgruppe" v="infrastruktur" />
		<tag k="ssr:stedsnr" v="1080936" />
		<tag k="ssr:type" v="adressenavn" />
	</node>
	<node lat="62.999946849795116" lon="9.491431954635393" id="-100736">
		<tag k="name" v="Reslia" />
		<tag k="ssr:date" v="2021-04-21" />
		<tag k="ssr:gruppe" v="veg" />
		<tag k="ssr:hovedgruppe" v="infrastruktur" />
		<tag k="ssr:stedsnr" v="1080938" />
		<tag k="ssr:type" v="adressenavn" />
	</node>
	<node lat="63.07684900536503" lon="9.090884790523567" id="-100737">
		<tag k="name" v="Finnråa" />
		<tag k="ssr:date" v="2021-04-21" />
		<tag k="ssr:gruppe" v="veg" />
		<tag k="ssr:hovedgruppe" v="infrastruktur" />
		<tag k="ssr:stedsnr" v="1080937" />
		<tag k="ssr:type" v="adressenavn" />
	</node>
	<node lat="62.98688544570224" lon="9.422503150176235" id="-100738">
		<tag k="name" v="Rindåsen" />
		<tag k="ssr:date" v="2021-04-21" />
		<tag k="ssr:gruppe" v="veg" />
		<tag k="ssr:hovedgruppe" v="infrastruktur" />
		<tag k="ssr:stedsnr" v="1080942" />
		<tag k="ssr:type" v="adressenavn" />
	</node>
	<node lat="62.996630268903246" lon="9.430742060610338" id="-100739">
		<tag k="name" v="Langtjønnåsen" />
		<tag k="ssr:date" v="2021-04-21" />
		<tag k="ssr:gruppe" v="veg" />
		<tag k="ssr:hovedgruppe" v="infrastruktur" />
		<tag k="ssr:stedsnr" v="1080939" />
		<tag k="ssr:type" v="adressenavn" />
	</node>
	<node lat="62.99655864204521" lon="9.431125942112926" id="-100740">
		<tag k="name" v="Hølstovegen" />
		<tag k="ssr:date" v="2021-04-21" />
		<tag k="ssr:gruppe" v="veg" />
		<tag k="ssr:hovedgruppe" v="infrastruktur" />
		<tag k="ssr:stedsnr" v="1080940" />
		<tag k="ssr:type" v="adressenavn" />
	</node>
	<node lat="62.98518761935706" lon="9.443440647567742" id="-100741">
		<tag k="name" v="Langvatnet" />
		<tag k="ssr:date" v="2021-04-21" />
		<tag k="ssr:gruppe" v="veg" />
		<tag k="ssr:hovedgruppe" v="infrastruktur" />
		<tag k="ssr:stedsnr" v="1080941" />
		<tag k="ssr:type" v="adressenavn" />
	</node>
	<node lat="62.98901752684667" lon="9.429604693952335" id="-100742">
		<tag k="name" v="Langvassvegen" />
		<tag k="ssr:date" v="2021-04-21" />
		<tag k="ssr:gruppe" v="veg" />
		<tag k="ssr:hovedgruppe" v="infrastruktur" />
		<tag k="ssr:stedsnr" v="1080943" />
		<tag k="ssr:type" v="adressenavn" />
	</node>
	<node lat="63.10033409472407" lon="9.352212117727818" id="-100743">
		<tag k="name" v="Furuhaugmarka" />
		<tag k="ssr:date" v="2021-04-21" />
		<tag k="ssr:gruppe" v="veg" />
		<tag k="ssr:hovedgruppe" v="infrastruktur" />
		<tag k="ssr:stedsnr" v="1080945" />
		<tag k="ssr:type" v="adressenavn" />
	</node>
	<node lat="63.006644608729935" lon="9.446233597572206" id="-100744">
		<tag k="name" v="Almdalsvegen" />
		<tag k="ssr:date" v="2021-04-21" />
		<tag k="ssr:gruppe" v="veg" />
		<tag k="ssr:hovedgruppe" v="infrastruktur" />
		<tag k="ssr:stedsnr" v="1080944" />
		<tag k="ssr:type" v="adressenavn" />
	</node>
	<node lat="63.0969886033356" lon="9.431449253203589" id="-100745">
		<tag k="name" v="Snausvegen" />
		<tag k="ssr:date" v="2021-04-21" />
		<tag k="ssr:gruppe" v="veg" />
		<tag k="ssr:hovedgruppe" v="infrastruktur" />
		<tag k="ssr:stedsnr" v="1080948" />
		<tag k="ssr:type" v="adressenavn" />
	</node>
	<node lat="63.10216678417784" lon="9.391234727044775" id="-100746">
		<tag k="name" v="Linkvegen" />
		<tag k="ssr:date" v="2021-04-21" />
		<tag k="ssr:gruppe" v="veg" />
		<tag k="ssr:hovedgruppe" v="infrastruktur" />
		<tag k="ssr:stedsnr" v="1080946" />
		<tag k="ssr:type" v="adressenavn" />
	</node>
	<node lat="63.08656355664031" lon="9.401206529940357" id="-100747">
		<tag k="name" v="Stakkengvegen" />
		<tag k="ssr:date" v="2021-04-21" />
		<tag k="ssr:gruppe" v="veg" />
		<tag k="ssr:hovedgruppe" v="infrastruktur" />
		<tag k="ssr:stedsnr" v="1080947" />
		<tag k="ssr:type" v="adressenavn" />
	</node>
	<node lat="63.13217305480914" lon="9.316021229800358" id="-100748">
		<tag k="name" v="Austre Fossdalen" />
		<tag k="ssr:date" v="2021-04-21" />
		<tag k="ssr:gruppe" v="veg" />
		<tag k="ssr:hovedgruppe" v="infrastruktur" />
		<tag k="ssr:stedsnr" v="1080949" />
		<tag k="ssr:type" v="adressenavn" />
	</node>
	<node lat="63.13574667243773" lon="9.067567215182516" id="-100749">
		<tag k="name" v="Fossdalsveien" />
		<tag k="ssr:date" v="2021-04-21" />
		<tag k="ssr:gruppe" v="veg" />
		<tag k="ssr:hovedgruppe" v="infrastruktur" />
		<tag k="ssr:stedsnr" v="1080950" />
		<tag k="ssr:type" v="adressenavn" />
	</node>
	<node lat="63.03974522977474" lon="9.211291362416913" id="-100750">
		<tag k="name" v="Langlimarka" />
		<tag k="ssr:date" v="2021-04-21" />
		<tag k="ssr:gruppe" v="veg" />
		<tag k="ssr:hovedgruppe" v="infrastruktur" />
		<tag k="ssr:stedsnr" v="1080954" />
		<tag k="ssr:type" v="adressenavn" />
	</node>
	<node lat="63.04661427315822" lon="9.107095355011872" id="-100751">
		<tag k="name" v="Nordvoll" />
		<tag k="ssr:date" v="2021-04-21" />
		<tag k="ssr:gruppe" v="veg" />
		<tag k="ssr:hovedgruppe" v="infrastruktur" />
		<tag k="ssr:stedsnr" v="1080951" />
		<tag k="ssr:type" v="adressenavn" />
	</node>
	<node lat="62.99672601928315" lon="9.153843430623706" id="-100752">
		<tag k="name" v="Folddalsvegen" />
		<tag k="ssr:date" v="2021-04-21" />
		<tag k="ssr:gruppe" v="veg" />
		<tag k="ssr:hovedgruppe" v="infrastruktur" />
		<tag k="ssr:stedsnr" v="1080953" />
		<tag k="ssr:type" v="adressenavn" />
	</node>
	<node lat="63.029022041848414" lon="9.45279062220901" id="-100753">
		<tag k="name" v="Krokvatnet" />
		<tag k="ssr:date" v="2021-04-21" />
		<tag k="ssr:gruppe" v="veg" />
		<tag k="ssr:hovedgruppe" v="infrastruktur" />
		<tag k="ssr:stedsnr" v="1080955" />
		<tag k="ssr:type" v="adressenavn" />
	</node>
</osm>
