<?xml version="1.0" encoding="UTF-8"?>
<osm generator="osmapis" version="0.6">
	<node id="-749184" lat="69.1252861123" lon="18.2704083372">
		<tag k="ford" v="yes" />
		<tag k="name" v="Jordbru" />
		<tag k="place" v="locality" />
		<tag k="ssr:stedsnr" v="663266" />
	</node>
	<node id="-748928" lat="69.1282027801" lon="18.2749444342">
		<tag k="ford" v="yes" />
		<tag k="name" v="Jordbru" />
		<tag k="place" v="locality" />
		<tag k="ssr:stedsnr" v="233288" />
	</node>
	<node id="-749374" lat="69.1036916633" lon="18.2429972118">
		<tag k="highway" v="path" />
		<tag k="name" v="Svartvassveien" />
		<tag k="ssr:stedsnr" v="904492" />
	</node>
	<node id="-749178" lat="69.1307083304" lon="18.1439972076">
		<tag k="highway" v="path" />
		<tag k="name" v="Kleivmyrveien" />
		<tag k="ssr:stedsnr" v="661887" />
	</node>
	<node id="-748889" lat="69.1868472182" lon="18.0929944503">
		<tag k="ford" v="yes" />
		<tag k="name" v="Vaet" />
		<tag k="place" v="locality" />
		<tag k="ssr:stedsnr" v="176642" />
	</node>
	<node id="-749235" lat="69.1161333353" lon="18.1646694525">
		<tag k="fixme" v="consider highway=path" />
		<tag k="highway" v="track" />
		<tag k="name" v="Tuvmyrveien" />
		<tag k="ssr:stedsnr" v="722849" />
	</node>
	<node id="-748971" lat="69.1217527801" lon="18.0648361012">
		<tag k="ford" v="yes" />
		<tag k="name" v="Jordbrua" />
		<tag k="place" v="locality" />
		<tag k="ssr:stedsnr" v="479872" />
	</node>
	<node id="-748687" lat="69.1453888859" lon="17.9504861037">
		<tag k="layer" v="-1" />
		<tag k="name" v="Bjørgatunnelen" />
		<tag k="ssr:stedsnr" v="363575" />
		<tag k="tunnel" v="yes" />
	</node>
	<node id="-748814" lat="69.1454277803" lon="17.9428777792">
		<tag k="fixme" v="verify maritime location" />
		<tag k="mooring" v="yes" />
		<tag k="name" v="Skjåstøa" />
		<tag k="place" v="locality" />
		<tag k="ssr:stedsnr" v="111121" />
	</node>
	<node id="-749292" lat="69.1160111103" lon="18.2324527745">
		<tag k="highway" v="path" />
		<tag k="name" v="Liveien" />
		<tag k="ssr:stedsnr" v="785333" />
	</node>
	<node id="-748779" lat="69.1394583353" lon="18.102000001">
		<tag k="highway" v="path" />
		<tag k="name" v="Brattstien" />
		<tag k="ssr:stedsnr" v="55857" />
	</node>
	<node id="-749185" lat="69.11155" lon="18.2261083359">
		<tag k="highway" v="path" />
		<tag k="name" v="Fjellveien" />
		<tag k="ssr:stedsnr" v="663336" />
	</node>
</osm>
