<?xml version="1.0" encoding="UTF-8"?>
<osm generator="osmapis" version="0.6">
	<node id="-747517" lat="69.1529611077" lon="18.1573777669">
		<tag k="name" v="Nordgård" />
		<tag k="place" v="farm" />
		<tag k="ssr:stedsnr" v="139542" />
	</node>
	<node id="-747516" lat="69.1582138915" lon="18.1658055563">
		<tag k="name" v="Leirbogen" />
		<tag k="place" v="farm" />
		<tag k="ssr:stedsnr" v="139543" />
	</node>
	<node id="-748027" lat="69.2041111117" lon="18.2352694361">
		<tag k="name" v="Seljemoen" />
		<tag k="place" v="hamlet" />
		<tag k="ssr:stedsnr" v="879067" />
	</node>
	<node id="-747514" lat="69.2083666684" lon="18.2084277725">
		<tag k="name" v="Langnes" />
		<tag k="place" v="farm" />
		<tag k="ssr:stedsnr" v="138727" />
	</node>
	<node id="-748015" lat="69.0456194478" lon="17.96164166">
		<tag k="alt_name" v="Vestgård, nedre" />
		<tag k="name" v="Nedre Vestgård" />
		<tag k="old_name" v="Vestgård" />
		<tag k="place" v="farm" />
		<tag k="ssr:stedsnr" v="868315" />
	</node>
	<node id="-748014" lat="69.0450083293" lon="17.9689388781">
		<tag k="alt_name" v="Sandmoen" />
		<tag k="name" v="Sandmo" />
		<tag k="place" v="farm" />
		<tag k="ssr:stedsnr" v="868316" />
	</node>
	<node id="-748006" lat="69.2113055525" lon="18.2718138718">
		<tag k="name" v="Grønvold Vestre" />
		<tag k="place" v="farm" />
		<tag k="ssr:stedsnr" v="846209" />
	</node>
	<node id="-748002" lat="69.1363944448" lon="18.149574993">
		<tag k="name" v="Finntjeldet" />
		<tag k="place" v="locality" />
		<tag k="ssr:stedsnr" v="844860" />
	</node>
	<node id="-747481" lat="69.0625583331" lon="18.2004360997">
		<tag k="name" v="Lynghaug" />
		<tag k="place" v="isolated_dwelling" />
		<tag k="ssr:stedsnr" v="79875" />
	</node>
	<node id="-747988" lat="69.157622223" lon="18.1926527632">
		<tag k="leisure" v="pitch" />
		<tag k="name" v="Spika" />
		<tag k="ssr:stedsnr" v="841306" />
	</node>
	<node id="-747986" lat="69.1290583341" lon="17.9796888862">
		<tag k="name" v="Brakka" />
		<tag k="place" v="locality" />
		<tag k="ssr:stedsnr" v="840111" />
	</node>
	<node id="-747471" lat="69.1411888895" lon="18.1707527754">
		<tag k="name" v="Liland" />
		<tag k="place" v="farm" />
		<tag k="ssr:stedsnr" v="79517" />
	</node>
	<node id="-747470" lat="69.1351833339" lon="18.0872527698">
		<tag k="name" v="Fjellstad" />
		<tag k="place" v="isolated_dwelling" />
		<tag k="ssr:stedsnr" v="79514" />
	</node>
	<node id="-747469" lat="69.1325749961" lon="18.0821750001">
		<tag k="name" v="Vikbakken" />
		<tag k="place" v="farm" />
		<tag k="ssr:stedsnr" v="79515" />
	</node>
	<node id="-747466" lat="69.0456361089" lon="17.9616277802">
		<tag k="name" v="Kjerreng" />
		<tag k="place" v="farm" />
		<tag k="ssr:stedsnr" v="79316" />
	</node>
	<node id="-747465" lat="69.1456882681" lon="17.9394805432">
		<tag k="alt_name:no" v="Bjørgen" />
		<tag k="fixme" v="consider place=hamlet" />
		<tag k="loc_name:se" v="Bearja" />
		<tag k="name" v="Bjørga" />
		<tag k="name:no" v="Bjørga" />
		<tag k="place" v="farm" />
		<tag k="ssr:stedsnr" v="79287" />
	</node>
	<node id="-747975" lat="69.123727779" lon="18.1763361076">
		<tag k="name" v="Vårum" />
		<tag k="place" v="farm" />
		<tag k="ssr:stedsnr" v="807564" />
	</node>
	<node id="-747972" lat="69.1099777787" lon="18.2147305479">
		<tag k="alt_name" v="Åsmo" />
		<tag k="name" v="Åsmoen" />
		<tag k="place" v="farm" />
		<tag k="ssr:stedsnr" v="807557" />
	</node>
	<node id="-747969" lat="69.1493833319" lon="18.0044277814">
		<tag k="name" v="Sildvika" />
		<tag k="place" v="farm" />
		<tag k="ssr:stedsnr" v="807518" />
	</node>
	<node id="-747455" lat="69.1477972245" lon="18.1520166583">
		<tag k="name" v="Nordstraumen" />
		<tag k="place" v="farm" />
		<tag k="ssr:stedsnr" v="55875" />
	</node>
	<node id="-747964" lat="69.204075005" lon="18.2185222118">
		<tag k="name" v="Holtet" />
		<tag k="place" v="farm" />
		<tag k="ssr:stedsnr" v="806743" />
	</node>
	<node id="-747451" lat="69.1323138852" lon="18.1655666673">
		<tag k="name" v="Storneset" />
		<tag k="place" v="farm" />
		<tag k="ssr:stedsnr" v="55863" />
	</node>
	<node id="-747449" lat="69.1421111114" lon="18.1517249896">
		<tag k="name" v="Haugen" />
		<tag k="place" v="farm" />
		<tag k="ssr:stedsnr" v="55853" />
	</node>
	<node id="-747448" lat="69.172086108" lon="18.0891111004">
		<tag k="name" v="Valen" />
		<tag k="place" v="farm" />
		<tag k="ssr:stedsnr" v="55686" />
	</node>
	<node id="-747438" lat="69.0427611136" lon="17.9885861095">
		<tag k="name" v="Westgård" />
		<tag k="place" v="farm" />
		<tag k="ssr:stedsnr" v="52058" />
	</node>
	<node id="-747436" lat="69.0883916667" lon="17.9895472124">
		<tag k="name" v="Reinakslen" />
		<tag k="place" v="farm" />
		<tag k="ssr:stedsnr" v="52038" />
	</node>
	<node id="-747420" lat="69.1792944432" lon="18.0590277754">
		<tag k="name" v="Grunnreis" />
		<tag k="old_name" v="Grunnreisa" />
		<tag k="place" v="hamlet" />
		<tag k="ssr:stedsnr" v="26901" />
	</node>
	<node id="-747428" lat="69.1097083303" lon="18.00215833">
		<tag k="name" v="Skøelvdalen" />
		<tag k="place" v="farm" />
		<tag k="ssr:stedsnr" v="51106" />
	</node>
	<node id="-747419" lat="69.1443444447" lon="17.9410416691">
		<tag k="name" v="Bjørga" />
		<tag k="place" v="hamlet" />
		<tag k="ssr:stedsnr" v="26725" />
	</node>
	<node id="-747934" lat="69.0969916636" lon="17.9951527665">
		<tag k="name" v="Solberg" />
		<tag k="place" v="farm" />
		<tag k="ssr:stedsnr" v="756356" />
	</node>
	<node id="-747932" lat="69.045338891" lon="17.9248888896">
		<tag k="name" v="Østlund" />
		<tag k="place" v="farm" />
		<tag k="ssr:stedsnr" v="748251" />
	</node>
	<node id="-747931" lat="69.0495583304" lon="17.9405027633">
		<tag k="name" v="Tangen" />
		<tag k="place" v="farm" />
		<tag k="ssr:stedsnr" v="748250" />
	</node>
	<node id="-747418" lat="69.0398666679" lon="18.0165388824">
		<tag k="name" v="Nygård" />
		<tag k="place" v="isolated_dwelling" />
		<tag k="ssr:stedsnr" v="19902" />
	</node>
	<node id="-747410" lat="69.1765694425" lon="18.0834916671">
		<tag k="alt_name" v="Tømmervik" />
		<tag k="fixme" v="consider place=hamlet" />
		<tag k="name" v="Tømmervika" />
		<tag k="place" v="farm" />
		<tag k="ssr:stedsnr" v="18665" />
	</node>
	<node id="-747409" lat="69.2173777776" lon="18.3011777775">
		<tag k="name" v="Grønvoll" />
		<tag k="place" v="farm" />
		<tag k="ssr:stedsnr" v="18642" />
	</node>
	<node id="-747408" lat="69.0926138891" lon="18.3424555397">
		<tag k="name" v="Nordhus" />
		<tag k="place" v="farm" />
		<tag k="ssr:stedsnr" v="18570" />
	</node>
	<node id="-747407" lat="69.0816666645" lon="18.1792416674">
		<tag k="alt_name" v="Sørfossmoen" />
		<tag k="name" v="Sørforsmoen" />
		<tag k="place" v="farm" />
		<tag k="ssr:stedsnr" v="18566" />
	</node>
	<node id="-747406" lat="69.080977779" lon="18.1949972263">
		<tag k="name" v="Sæterslett" />
		<tag k="place" v="farm" />
		<tag k="ssr:stedsnr" v="18565" />
	</node>
	<node id="-747404" lat="69.1120611139" lon="18.1979277842">
		<tag k="name" v="Øvermoen" />
		<tag k="place" v="farm" />
		<tag k="ssr:stedsnr" v="18528" />
	</node>
	<node id="-747402" lat="69.1598805584" lon="18.1553250005">
		<tag k="name" v="Tunvoll" />
		<tag k="place" v="farm" />
		<tag k="ssr:stedsnr" v="18469" />
	</node>
	<node id="-747400" lat="69.1012222243" lon="17.9965777687">
		<tag k="name" v="Slettnes" />
		<tag k="place" v="isolated_dwelling" />
		<tag k="ssr:stedsnr" v="18241" />
	</node>
	<node id="-747909" lat="69.1439222199" lon="18.1429472294">
		<tag k="name" v="Sørstraumen" />
		<tag k="place" v="quarter" />
		<tag k="ssr:stedsnr" v="722900" />
	</node>
	<node id="-747755" lat="69.1519750038" lon="18.1931527666">
		<tag k="name" v="Nordli" />
		<tag k="place" v="farm" />
		<tag k="ssr:stedsnr" v="564544" />
	</node>
	<node id="-747904" lat="69.1641944464" lon="18.1086722158">
		<tag k="name" v="Forøen" />
		<tag k="place" v="farm" />
		<tag k="ssr:stedsnr" v="722684" />
	</node>
	<node id="-747898" lat="69.0934972199" lon="18.30286665">
		<tag k="name" v="Skomakerrommet" />
		<tag k="place" v="locality" />
		<tag k="ssr:stedsnr" v="722366" />
	</node>
	<node id="-747583" lat="69.1091027749" lon="18.0241361175">
		<tag k="name" v="Skoglund" />
		<tag k="place" v="farm" />
		<tag k="ssr:stedsnr" v="200579" />
	</node>
	<node id="-747383" lat="69.2069861096" lon="18.2507555535">
		<tag k="name" v="Reinelv" />
		<tag k="place" v="hamlet" />
		<tag k="ssr:stedsnr" v="390814" />
	</node>
	<node id="-747382" lat="69.1447138892" lon="18.1329583298">
		<tag k="name" v="Sørstraumen" />
		<tag k="place" v="quarter" />
		<tag k="ssr:stedsnr" v="389517" />
	</node>
	<node id="-747381" lat="69.048983334" lon="17.9337777686">
		<tag k="alt_name" v="Slettlien" />
		<tag k="name" v="Slettli" />
		<tag k="place" v="farm" />
		<tag k="ssr:stedsnr" v="384247" />
	</node>
	<node id="-747373" lat="69.0872388865" lon="18.3537499831">
		<tag k="alt_name" v="Nysted" />
		<tag k="name" v="Nystad" />
		<tag k="place" v="farm" />
		<tag k="ssr:stedsnr" v="382587" />
	</node>
	<node id="-747922" lat="69.0511972239" lon="17.9360694371">
		<tag k="name" v="Nyli" />
		<tag k="place" v="farm" />
		<tag k="ssr:stedsnr" v="746327" />
	</node>
	<node id="-747881" lat="69.1700055565" lon="18.1159722261">
		<tag k="alt_name" v="Djupvåg" />
		<tag k="name" v="Djupvågen" />
		<tag k="place" v="farm" />
		<tag k="ssr:stedsnr" v="686736" />
	</node>
	<node id="-747368" lat="69.1339111084" lon="18.187930538">
		<tag k="alt_name" v="Varnes" />
		<tag k="name" v="Vardnes" />
		<tag k="place" v="farm" />
		<tag k="ssr:stedsnr" v="382527" />
	</node>
	<node id="-747367" lat="69.1520944456" lon="17.9853305438">
		<tag k="name" v="Yttervik" />
		<tag k="place" v="farm" />
		<tag k="ssr:stedsnr" v="382305" />
	</node>
	<node id="-747878" lat="69.0813249966" lon="18.3627972169">
		<tag k="name" v="Nesvollen" />
		<tag k="place" v="farm" />
		<tag k="ssr:stedsnr" v="686622" />
	</node>
	<node id="-747365" lat="69.0933388914" lon="17.9898666631">
		<tag k="name" v="Dalgård" />
		<tag k="place" v="farm" />
		<tag k="ssr:stedsnr" v="382239" />
	</node>
	<node id="-747875" lat="69.0978388865" lon="18.27097222">
		<tag k="name" v="Rabban" />
		<tag k="place" v="isolated_dwelling" />
		<tag k="ssr:stedsnr" v="686587" />
	</node>
	<node id="-747874" lat="69.1120611117" lon="18.220200005">
		<tag k="fixme" v="multiple name tags, choose one and add the other to alt_name" />
		<tag k="name" v="Finnset;Øvre Finnset" />
		<tag k="place" v="farm" />
		<tag k="ssr:stedsnr" v="686577" />
	</node>
	<node id="-747360" lat="69.206752776" lon="18.2438361056">
		<tag k="name" v="Reinelvmoen" />
		<tag k="place" v="farm" />
		<tag k="ssr:stedsnr" v="360227" />
	</node>
	<node id="-747354" lat="69.1175638925" lon="18.4088944314">
		<tag k="historic" v="shieling" />
		<tag k="name" v="Nystedsætra" />
		<tag k="place" v="locality" />
		<tag k="ssr:stedsnr" v="357899" />
	</node>
	<node id="-747865" lat="69.2124250026" lon="18.278377767">
		<tag k="fixme" v="multiple name tags, choose one and add the other to alt_name" />
		<tag k="name" v="Grønvold Mellem;Grønvoll" />
		<tag k="place" v="farm" />
		<tag k="ssr:stedsnr" v="685683" />
	</node>
	<node id="-747864" lat="69.2077277767" lon="18.2549000073">
		<tag k="alt_name" v="Rensvold" />
		<tag k="name" v="Reinsvoll" />
		<tag k="place" v="farm" />
		<tag k="ssr:stedsnr" v="685681" />
	</node>
	<node id="-747350" lat="69.0924555528" lon="18.0326972122">
		<tag k="name" v="Skaret" />
		<tag k="place" v="hamlet" />
		<tag k="ssr:stedsnr" v="357877" />
	</node>
	<node id="-747861" lat="69.1284999999" lon="18.0447499964">
		<tag k="name" v="Lavollen" />
		<tag k="place" v="farm" />
		<tag k="ssr:stedsnr" v="685552" />
	</node>
	<node id="-747860" lat="69.1264333331" lon="18.2174749957">
		<tag k="name" v="Lundberg" />
		<tag k="place" v="farm" />
		<tag k="ssr:stedsnr" v="685542" />
	</node>
	<node id="-747343" lat="69.1010166664" lon="17.9999666674">
		<tag k="name" v="Lunde" />
		<tag k="place" v="hamlet" />
		<tag k="ssr:stedsnr" v="355036" />
	</node>
	<node id="-747333" lat="69.1967944436" lon="18.0666166706">
		<tag k="alt_name" v="Hemmingsjord" />
		<tag k="fixme" v="consider place=hamlet" />
		<tag k="name" v="Hemmingsjorda" />
		<tag k="place" v="village" />
		<tag k="ssr:stedsnr" v="329494" />
	</node>
	<node id="-747332" lat="69.0864361098" lon="18.2353277841">
		<tag k="name" v="Sætermoen" />
		<tag k="place" v="farm" />
		<tag k="ssr:stedsnr" v="322604" />
	</node>
	<node id="-747330" lat="69.0798111142" lon="18.1807222252">
		<tag k="name" v="Sørforslia" />
		<tag k="place" v="farm" />
		<tag k="ssr:stedsnr" v="322593" />
	</node>
	<node id="-747841" lat="69.0738694456" lon="18.1904416641">
		<tag k="name" v="Storforsli" />
		<tag k="place" v="farm" />
		<tag k="ssr:stedsnr" v="661330" />
	</node>
	<node id="-747325" lat="69.1152750036" lon="18.0294750093">
		<tag k="name" v="Forsmoen" />
		<tag k="place" v="farm" />
		<tag k="ssr:stedsnr" v="321542" />
	</node>
	<node id="-747323" lat="69.1295805521" lon="18.2103805583">
		<tag k="name" v="Follstad" />
		<tag k="place" v="farm" />
		<tag k="ssr:stedsnr" v="321518" />
	</node>
	<node id="-747317" lat="69.1129749968" lon="18.2134083366">
		<tag k="name" v="Finnsete" />
		<tag k="place" v="locality" />
		<tag k="ssr:stedsnr" v="57330" />
	</node>
	<node id="-747316" lat="69.1180166649" lon="18.2221805445">
		<tag k="name" v="Finnset" />
		<tag k="place" v="farm" />
		<tag k="ssr:stedsnr" v="299382" />
	</node>
	<node id="-747571" lat="69.1281166643" lon="18.2040305616">
		<tag k="name" v="Vollstad" />
		<tag k="place" v="farm" />
		<tag k="ssr:stedsnr" v="178349" />
	</node>
	<node id="-747823" lat="69.0764305526" lon="18.1942722165">
		<tag k="name" v="Rabbåsen" />
		<tag k="place" v="hamlet" />
		<tag k="ssr:stedsnr" v="633949" />
	</node>
	<node id="-747309" lat="69.124941667" lon="18.379955563">
		<tag k="name" v="Pellestua" />
		<tag k="place" v="locality" />
		<tag k="ssr:stedsnr" v="297911" />
	</node>
	<node id="-747306" lat="69.1349999998" lon="18.0514722153">
		<tag k="name" v="Skøelven" />
		<tag k="place" v="farm" />
		<tag k="ssr:stedsnr" v="297884" />
	</node>
	<node id="-747815" lat="69.080713892" lon="18.2429444376">
		<tag k="name" v="Høgli" />
		<tag k="place" v="farm" />
		<tag k="ssr:stedsnr" v="625617" />
	</node>
	<node id="-747809" lat="69.1072249953" lon="18.0093305611">
		<tag k="name" v="Lyshaugen" />
		<tag k="place" v="farm" />
		<tag k="ssr:stedsnr" v="625555" />
	</node>
	<node id="-747808" lat="69.1469277763" lon="18.1805472269">
		<tag k="name" v="Slettvoll" />
		<tag k="place" v="farm" />
		<tag k="ssr:stedsnr" v="625531" />
	</node>
	<node id="-747295" lat="69.0826472213" lon="18.0442527732">
		<tag k="name" v="Sætermoen" />
		<tag k="place" v="farm" />
		<tag k="ssr:stedsnr" v="296914" />
	</node>
	<node id="-747799" lat="69.1321249987" lon="18.1635277776">
		<tag k="name" v="Sørstraumen" />
		<tag k="place" v="farm" />
		<tag k="ssr:stedsnr" v="624556" />
	</node>
	<node id="-747785" lat="69.0796777824" lon="17.9769527665">
		<tag k="name" v="Kvilstad" />
		<tag k="place" v="locality" />
		<tag k="ssr:stedsnr" v="597037" />
	</node>
	<node id="-747779" lat="69.035288893" lon="18.039347214">
		<tag k="name" v="Kvannjorda" />
		<tag k="place" v="locality" />
		<tag k="ssr:stedsnr" v="596147" />
	</node>
	<node id="-747768" lat="69.169908335" lon="18.1149277721">
		<tag k="name" v="Djupvåg" />
		<tag k="place" v="hamlet" />
		<tag k="ssr:stedsnr" v="572921" />
	</node>
	<node id="-747765" lat="69.1894499952" lon="18.058155561">
		<tag k="name" v="Kongsvika" />
		<tag k="place" v="farm" />
		<tag k="ssr:stedsnr" v="564694" />
	</node>
	<node id="-747763" lat="69.0764750024" lon="18.1943555456">
		<tag k="name" v="Rabbåsen" />
		<tag k="place" v="farm" />
		<tag k="ssr:stedsnr" v="564615" />
	</node>
	<node id="-747757" lat="69.1317222233" lon="18.0503916603">
		<tag k="alt_name" v="Skøelv" />
		<tag k="fixme" v="consider place=hamlet" />
		<tag k="name" v="Skøelva" />
		<tag k="place" v="village" />
		<tag k="ssr:stedsnr" v="564558" />
	</node>
	<node id="-747474" lat="69.1194333369" lon="18.1833499916">
		<tag k="alt_name" v="Garmo" />
		<tag k="name" v="Gardmoen" />
		<tag k="place" v="farm" />
		<tag k="ssr:stedsnr" v="79549" />
	</node>
	<node id="-747753" lat="69.1623333361" lon="18.0921277668">
		<tag k="name" v="Forøya" />
		<tag k="place" v="farm" />
		<tag k="ssr:stedsnr" v="564526" />
	</node>
	<node id="-747752" lat="69.1612611101" lon="18.1344500022">
		<tag k="fixme" v="consider place=hamlet" />
		<tag k="loc_name:se" v="Guhtesjovrá" />
		<tag k="name" v="Gottersjorda" />
		<tag k="name:no" v="Gottersjorda" />
		<tag k="place" v="village" />
		<tag k="ssr:stedsnr" v="564523" />
	</node>
	<node id="-747880" lat="69.1786333374" lon="18.0709388899">
		<tag k="name" v="Grunnreisa" />
		<tag k="place" v="farm" />
		<tag k="ssr:stedsnr" v="686725" />
	</node>
	<node id="-747983" lat="69.0581777747" lon="18.4591750035">
		<tag k="name" v="Amundrommet" />
		<tag k="place" v="locality" />
		<tag k="ssr:stedsnr" v="826641" />
	</node>
	<node id="-747894" lat="69.1293000011" lon="18.3989805437">
		<tag k="historic" v="shieling" />
		<tag k="name" v="Veltasætra" />
		<tag k="place" v="locality" />
		<tag k="ssr:stedsnr" v="719346" />
	</node>
	<node id="-747707" lat="69.0993166708" lon="18.3135805556">
		<tag k="name" v="Solstad" />
		<tag k="place" v="isolated_dwelling" />
		<tag k="ssr:stedsnr" v="504586" />
	</node>
	<node id="-747703" lat="69.1551888845" lon="18.1771888867">
		<tag k="alt_name" v="Storflata" />
		<tag k="name" v="Storflaten" />
		<tag k="place" v="farm" />
		<tag k="ssr:stedsnr" v="504539" />
	</node>
	<node id="-747700" lat="69.051352779" lon="17.9449860963">
		<tag k="name" v="Heimdal" />
		<tag k="place" v="farm" />
		<tag k="ssr:stedsnr" v="504311" />
	</node>
	<node id="-747692" lat="69.0996472222" lon="18.0285777782">
		<tag k="alt_name" v="Skjelhaug" />
		<tag k="name" v="Skjellhaug" />
		<tag k="place" v="farm" />
		<tag k="ssr:stedsnr" v="503552" />
	</node>
	<node id="-747688" lat="69.1218500018" lon="18.0395999901">
		<tag k="name" v="Rognlia" />
		<tag k="place" v="farm" />
		<tag k="ssr:stedsnr" v="503526" />
	</node>
	<node id="-747687" lat="69.1263833309" lon="18.2108750076">
		<tag k="alt_name" v="Rørsletta" />
		<tag k="name" v="Røyrslett" />
		<tag k="place" v="farm" />
		<tag k="ssr:stedsnr" v="503521" />
	</node>
	<node id="-747681" lat="69.1132833365" lon="18.2074416651">
		<tag k="name" v="Moen" />
		<tag k="place" v="farm" />
		<tag k="ssr:stedsnr" v="481294" />
	</node>
	<node id="-747676" lat="69.1470749989" lon="18.0562638751">
		<tag k="fixme" v="consider place=hamlet" />
		<tag k="name" v="Smørsgård" />
		<tag k="place" v="village" />
		<tag k="ssr:stedsnr" v="451936" />
	</node>
	<node id="-747675" lat="69.1604051553" lon="18.121713773">
		<tag k="alt_name" v="Gottersjorden" />
		<tag k="name" v="Gottersjord" />
		<tag k="old_name" v="Gottersjorda" />
		<tag k="place" v="farm" />
		<tag k="ssr:stedsnr" v="451930" />
	</node>
	<node id="-747672" lat="69.0635805552" lon="18.3874388968">
		<tag k="name" v="Sørhus" />
		<tag k="place" v="isolated_dwelling" />
		<tag k="ssr:stedsnr" v="443876" />
	</node>
	<node id="-747671" lat="69.1751833358" lon="18.1308277876">
		<tag k="alt_name" v="Sørmo" />
		<tag k="name" v="Sørmoen" />
		<tag k="place" v="farm" />
		<tag k="ssr:stedsnr" v="443708" />
	</node>
	<node id="-747669" lat="69.1043944451" lon="18.19643055">
		<tag k="name" v="Sørforsbogen" />
		<tag k="place" v="farm" />
		<tag k="ssr:stedsnr" v="443577" />
	</node>
	<node id="-747668" lat="69.0967250032" lon="18.3273555543">
		<tag k="name" v="Nyhus" />
		<tag k="place" v="farm" />
		<tag k="ssr:stedsnr" v="443567" />
	</node>
	<node id="-747665" lat="69.1254111088" lon="18.035136112">
		<tag k="name" v="Pålsjorda" />
		<tag k="place" v="farm" />
		<tag k="ssr:stedsnr" v="443550" />
	</node>
	<node id="-747662" lat="69.1493750009" lon="18.1800583307">
		<tag k="name" v="Steinsland" />
		<tag k="place" v="farm" />
		<tag k="ssr:stedsnr" v="443533" />
	</node>
	<node id="-747654" lat="69.1755027758" lon="18.1262694364">
		<tag k="name" v="Nordmo" />
		<tag k="place" v="farm" />
		<tag k="ssr:stedsnr" v="419671" />
	</node>
	<node id="-747883" lat="69.1081694446" lon="18.0144000051">
		<tag k="name" v="Lyshaugen" />
		<tag k="place" v="hamlet" />
		<tag k="ssr:stedsnr" v="696382" />
	</node>
	<node id="-747643" lat="69.0775472191" lon="18.3736444421">
		<tag k="name" v="Fagerheim" />
		<tag k="place" v="farm" />
		<tag k="ssr:stedsnr" v="479913" />
	</node>
	<node id="-747639" lat="69.1790805531" lon="18.0643055597">
		<tag k="name" v="Grunnreisen" />
		<tag k="place" v="farm" />
		<tag k="ssr:stedsnr" v="479703" />
	</node>
	<node id="-747634" lat="69.0406444471" lon="18.0082333229">
		<tag k="alt_name" v="Austgård" />
		<tag k="name" v="Østgård" />
		<tag k="place" v="farm" />
		<tag k="ssr:stedsnr" v="261868" />
	</node>
	<node id="-747631" lat="69.0959333364" lon="18.1923222203">
		<tag k="name" v="Sørfossbogen" />
		<tag k="place" v="hamlet" />
		<tag k="ssr:stedsnr" v="479495" />
	</node>
	<node id="-747629" lat="69.1170805592" lon="18.0372222197">
		<tag k="name" v="Fossbakken" />
		<tag k="place" v="farm" />
		<tag k="ssr:stedsnr" v="261582" />
	</node>
	<node id="-747628" lat="69.1165333315" lon="18.2011333182">
		<tag k="name" v="Nermoen" />
		<tag k="place" v="farm" />
		<tag k="ssr:stedsnr" v="261579" />
	</node>
	<node id="-747626" lat="69.1260749989" lon="18.0486833416">
		<tag k="name" v="Åsland" />
		<tag k="place" v="farm" />
		<tag k="ssr:stedsnr" v="261569" />
	</node>
	<node id="-747452" lat="69.1350444451" lon="18.1673277649">
		<tag k="name" v="Lund" />
		<tag k="place" v="farm" />
		<tag k="ssr:stedsnr" v="55869" />
	</node>
	<node id="-747621" lat="69.0761638869" lon="18.182058318">
		<tag k="name" v="Solheim" />
		<tag k="place" v="farm" />
		<tag k="ssr:stedsnr" v="261614" />
	</node>
	<node id="-748132" lat="69.1444224436" lon="17.9425212701">
		<tag k="alt_name" v="Bjørgja" />
		<tag k="name" v="Bjørga" />
		<tag k="place" v="farm" />
		<tag k="ssr:stedsnr" v="971913" />
	</node>
	<node id="-748131" lat="69.1605798556" lon="18.1497027557">
		<tag k="name" v="Gottersjord" />
		<tag k="place" v="farm" />
		<tag k="ssr:stedsnr" v="971910" />
	</node>
	<node id="-748130" lat="69.1615588148" lon="18.1487992441">
		<tag k="name" v="Gottersjord" />
		<tag k="place" v="farm" />
		<tag k="ssr:stedsnr" v="971909" />
	</node>
	<node id="-748129" lat="69.1621876473" lon="18.138508795">
		<tag k="name" v="Gottersjord" />
		<tag k="place" v="farm" />
		<tag k="ssr:stedsnr" v="971908" />
	</node>
	<node id="-748128" lat="69.1618677155" lon="18.146061154">
		<tag k="name" v="Gottersjord" />
		<tag k="place" v="farm" />
		<tag k="ssr:stedsnr" v="971907" />
	</node>
	<node id="-748127" lat="69.1596740858" lon="18.1552162484">
		<tag k="name" v="Gottersjord" />
		<tag k="place" v="farm" />
		<tag k="ssr:stedsnr" v="971906" />
	</node>
	<node id="-748126" lat="69.1616508813" lon="18.1277088995">
		<tag k="name" v="Gottersjord" />
		<tag k="place" v="farm" />
		<tag k="ssr:stedsnr" v="971903" />
	</node>
	<node id="-748133" lat="69.0994223996" lon="18.1917165137">
		<tag k="fixme" v="consider place=hamlet" />
		<tag k="name" v="Sørforsbogen" />
		<tag k="place" v="farm" />
		<tag k="ssr:stedsnr" v="974164" />
	</node>
	<node id="-747619" lat="69.213886115" lon="18.2869472258">
		<tag k="name" v="Fagerlund" />
		<tag k="place" v="farm" />
		<tag k="ssr:stedsnr" v="260741" />
	</node>
	<node id="-748112" lat="69.1153444429" lon="18.0154499874">
		<tag k="name" v="Høgmoen" />
		<tag k="place" v="farm" />
		<tag k="ssr:stedsnr" v="965841" />
	</node>
	<node id="-747618" lat="69.1480916706" lon="18.1742250085">
		<tag k="name" v="Steinhaug" />
		<tag k="place" v="farm" />
		<tag k="ssr:stedsnr" v="239350" />
	</node>
	<node id="-747921" lat="69.0437944491" lon="17.9825888779">
		<tag k="alt_name" v="Vestgård, øvre" />
		<tag k="name" v="Øvre Vestgård" />
		<tag k="place" v="farm" />
		<tag k="ssr:stedsnr" v="746316" />
	</node>
	<node id="-747587" lat="69.1452638876" lon="18.1529194347">
		<tag k="name" v="Sørreisa - Orjješ-Ráisa" />
		<tag k="name:no" v="Sørreisa" />
		<tag k="name:se" v="Orjješ-Ráisa" />
		<tag k="old_name:se" v="Årjesraisa" />
		<tag k="place" v="village" />
		<tag k="ssr:stedsnr" v="205564" />
	</node>
	<node id="-747584" lat="69.089274997" lon="18.0356416566">
		<tag k="name" v="Middagsmoen" />
		<tag k="place" v="farm" />
		<tag k="ssr:stedsnr" v="200591" />
	</node>
	<node id="-747872" lat="69.1454138907" lon="18.054224991">
		<tag k="fixme" v="consider place=hamlet" />
		<tag k="name" v="Smørsgård" />
		<tag k="place" v="farm" />
		<tag k="ssr:stedsnr" v="686528" />
	</node>
	<node id="-747578" lat="69.1266000039" lon="18.169908334">
		<tag k="name" v="Bråten" />
		<tag k="place" v="farm" />
		<tag k="ssr:stedsnr" v="200566" />
	</node>
	<node id="-748089" lat="69.0467111127" lon="17.9587833224">
		<tag k="name" v="Gumpedalen" />
		<tag k="place" v="hamlet" />
		<tag k="ssr:stedsnr" v="939445" />
	</node>
	<node id="-747575" lat="69.087680553" lon="18.2330722258">
		<tag k="name" v="Sæterli" />
		<tag k="place" v="farm" />
		<tag k="ssr:stedsnr" v="200614" />
	</node>
	<node id="-747573" lat="69.0967361152" lon="17.9948360989">
		<tag k="alt_name" v="Solborg" />
		<tag k="name" v="Solborgtun" />
		<tag k="place" v="farm" />
		<tag k="ssr:stedsnr" v="200255" />
	</node>
	<node id="-748084" lat="69.0840527777" lon="18.2266611123">
		<tag k="name" v="Sæterlibakken" />
		<tag k="place" v="farm" />
		<tag k="ssr:stedsnr" v="929573" />
	</node>
	<node id="-748083" lat="69.1415777818" lon="18.1715749986">
		<tag k="fixme" v="consider place=hamlet" />
		<tag k="name" v="Nordstraumen" />
		<tag k="place" v="village" />
		<tag k="ssr:stedsnr" v="929520" />
	</node>
	<node id="-748078" lat="69.1519083376" lon="17.990769434">
		<tag k="name" v="Innervik" />
		<tag k="place" v="farm" />
		<tag k="ssr:stedsnr" v="929270" />
	</node>
	<node id="-748125" lat="69.1618715358" lon="18.1249084136">
		<tag k="fixme" v="consider place=hamlet" />
		<tag k="loc_name:se" v="Guhtesjovrá" />
		<tag k="name" v="Gottersjorda" />
		<tag k="name:no" v="Gottersjorda" />
		<tag k="place" v="farm" />
		<tag k="ssr:stedsnr" v="971899" />
	</node>
	<node id="-747562" lat="69.1707499993" lon="18.0950138931">
		<tag k="name" v="Myrbakken" />
		<tag k="place" v="farm" />
		<tag k="ssr:stedsnr" v="176651" />
	</node>
	<node id="-747561" lat="69.1725194415" lon="18.1180111017">
		<tag k="amenity" v="school" />
		<tag k="name" v="Vågtun skole" />
		<tag k="ssr:stedsnr" v="176641" />
	</node>
	<node id="-748072" lat="69.193125001" lon="18.060408342">
		<tag k="name" v="Søvika" />
		<tag k="place" v="isolated_dwelling" />
		<tag k="ssr:stedsnr" v="928682" />
	</node>
	<node id="-748071" lat="69.1986611108" lon="18.0702527627">
		<tag k="alt_name" v="Hemmingsjorden" />
		<tag k="name" v="Hemingjord" />
		<tag k="place" v="farm" />
		<tag k="ssr:stedsnr" v="928680" />
	</node>
	<node id="-748070" lat="69.2048694418" lon="18.234611108">
		<tag k="name" v="Seljemoen" />
		<tag k="place" v="farm" />
		<tag k="ssr:stedsnr" v="928676" />
	</node>
	<node id="-748069" lat="69.1181305561" lon="18.4024638756">
		<tag k="name" v="Nordhussætra" />
		<tag k="place" v="locality" />
		<tag k="ssr:stedsnr" v="928559" />
	</node>
	<node id="-748067" lat="69.1197361076" lon="18.2074499847">
		<tag k="name" v="Finnset" />
		<tag k="place" v="farm" />
		<tag k="ssr:stedsnr" v="928544" />
	</node>
	<node id="-748063" lat="69.1357111141" lon="18.1868055515">
		<tag k="name" v="Nordstraumen" />
		<tag k="place" v="farm" />
		<tag k="ssr:stedsnr" v="906370" />
	</node>
	<node id="-747866" lat="69.2050083324" lon="18.2619972145">
		<tag k="name" v="Reinelvmoen" />
		<tag k="place" v="farm" />
		<tag k="ssr:stedsnr" v="685692" />
	</node>
	<node id="-747536" lat="69.1625027817" lon="18.092002788">
		<tag k="name" v="Furøy" />
		<tag k="old_name" v="Forøya" />
		<tag k="place" v="hamlet" />
		<tag k="ssr:stedsnr" v="147910" />
	</node>
	<node id="-747531" lat="69.1355250016" lon="18.1482805442">
		<tag k="name" v="Nyeng" />
		<tag k="place" v="farm" />
		<tag k="ssr:stedsnr" v="140512" />
	</node>
	<node id="-747530" lat="69.1380250046" lon="18.1516222199">
		<tag k="name" v="Litleng" />
		<tag k="place" v="farm" />
		<tag k="ssr:stedsnr" v="140510" />
	</node>
	<node id="-747527" lat="69.0964249965" lon="18.0262666744">
		<tag k="name" v="Skogstad" />
		<tag k="place" v="farm" />
		<tag k="ssr:stedsnr" v="139596" />
	</node>
	<node id="-747862" lat="69.1327111087" lon="18.0709666588">
		<tag k="alt_name" v="Bakkejorden;Bakkejord" />
		<tag k="name" v="Bakkejorda" />
		<tag k="place" v="farm" />
		<tag k="ssr:stedsnr" v="685554" />
	</node>
	<node id="-747521" lat="69.0782222246" lon="18.2011499938">
		<tag k="name" v="Fugleli" />
		<tag k="place" v="farm" />
		<tag k="ssr:stedsnr" v="139614" />
	</node>
</osm>
