<?xml version="1.0" encoding="UTF-8"?>
<osm version="0.6" generator="osmapis">
	<node lat="59.979164106813855" lon="5.383562324410185" id="-72247">
		<tag k="alt_name" v="Landrøypynten" />
		<tag k="name" v="Landrøypynten lykt" />
		<tag k="ssr:date" v="2020-09-08" />
		<tag k="ssr:gruppe" v="navigasjon" />
		<tag k="ssr:hovedgruppe" v="infrastruktur" />
		<tag k="ssr:stedsnr" v="307186" />
		<tag k="ssr:type" v="fyrlykt" />
	</node>
	<node lat="60.052859070466916" lon="5.705304055905054" id="-72285">
		<tag k="alt_name" v="Lokksund, nordre" />
		<tag k="name" v="Nordra Lukksundet lykt" />
		<tag k="ssr:date" v="2019-12-27" />
		<tag k="ssr:gruppe" v="navigasjon" />
		<tag k="ssr:hovedgruppe" v="infrastruktur" />
		<tag k="ssr:stedsnr" v="341242" />
		<tag k="ssr:type" v="fyrlykt" />
	</node>
	<node lat="60.053622222109546" lon="5.355955564308234" id="-72557">
		<tag k="name" v="Raunestøa" />
		<tag k="ssr:date" v="2019-12-27" />
		<tag k="ssr:gruppe" v="sjøbunn" />
		<tag k="ssr:hovedgruppe" v="sjø" />
		<tag k="ssr:stedsnr" v="583847" />
		<tag k="ssr:type" v="søkkISjø" />
	</node>
	<node lat="59.97871389312632" lon="5.381941658887715" id="-72717">
		<tag k="name" v="Landråpyntlykta" />
		<tag k="ssr:date" v="2019-12-27" />
		<tag k="ssr:gruppe" v="navigasjon" />
		<tag k="ssr:hovedgruppe" v="infrastruktur" />
		<tag k="ssr:stedsnr" v="765209" />
		<tag k="ssr:type" v="fyrlykt" />
	</node>
	<node lat="60.07953333680116" lon="5.685813892937547" id="-72955">
		<tag k="alt_name" v="Malkenes" />
		<tag k="name" v="Malkenes lykt" />
		<tag k="ssr:date" v="2019-12-27" />
		<tag k="ssr:gruppe" v="navigasjon" />
		<tag k="ssr:hovedgruppe" v="infrastruktur" />
		<tag k="ssr:stedsnr" v="4447" />
		<tag k="ssr:type" v="fyrlykt" />
	</node>
	<node lat="59.95224444801305" lon="5.503969444547608" id="-73008">
		<tag k="name" v="Gryta" />
		<tag k="ssr:date" v="2019-12-27" />
		<tag k="ssr:gruppe" v="sjøbunn" />
		<tag k="ssr:hovedgruppe" v="sjø" />
		<tag k="ssr:stedsnr" v="37648" />
		<tag k="ssr:type" v="søkkISjø" />
	</node>
	<node lat="59.89298611544373" lon="5.625477780737693" id="-73271">
		<tag k="name" v="Storleitet" />
		<tag k="ssr:date" v="2019-12-27" />
		<tag k="ssr:gruppe" v="sjøbunn" />
		<tag k="ssr:hovedgruppe" v="sjø" />
		<tag k="ssr:stedsnr" v="220769" />
		<tag k="ssr:type" v="bankeISjø" />
	</node>
	<node lat="59.90819468419387" lon="5.52754845101142" id="-73360">
		<tag k="alt_name" v="Skor" />
		<tag k="name" v="Skor lykt" />
		<tag k="old_name" v="Skorslykta" />
		<tag k="ssr:date" v="2020-09-08" />
		<tag k="ssr:gruppe" v="navigasjon" />
		<tag k="ssr:hovedgruppe" v="infrastruktur" />
		<tag k="ssr:stedsnr" v="340763" />
		<tag k="ssr:type" v="fyrlykt" />
	</node>
	<node lat="60.05413623895279" lon="5.531151303619132" id="-73408">
		<tag k="alt_name" v="Presteskjer" />
		<tag k="name" v="Prestaskjeret lykt" />
		<tag k="old_name" v="Presteskjær" />
		<tag k="ssr:date" v="2020-09-03" />
		<tag k="ssr:gruppe" v="navigasjon" />
		<tag k="ssr:hovedgruppe" v="infrastruktur" />
		<tag k="ssr:stedsnr" v="369262" />
		<tag k="ssr:type" v="fyrlykt" />
	</node>
	<node lat="60.00578611511439" lon="5.50019722268632" id="-73617">
		<tag k="alt_name" v="Tysnes" />
		<tag k="name" v="Tysnes kommune" />
		<tag k="ssr:date" v="2019-12-27" />
		<tag k="ssr:gruppe" v="administrativeIndelinger" />
		<tag k="ssr:hovedgruppe" v="offentligAdministrasjon" />
		<tag k="ssr:stedsnr" v="602079" />
		<tag k="ssr:type" v="kommune" />
	</node>
	<node lat="59.99094722467735" lon="5.695275005841249" id="-73710">
		<tag k="name" v="Oterhola" />
		<tag k="ssr:date" v="2019-12-27" />
		<tag k="ssr:gruppe" v="sjøbunn" />
		<tag k="ssr:hovedgruppe" v="sjø" />
		<tag k="ssr:stedsnr" v="644750" />
		<tag k="ssr:type" v="søkkISjø" />
	</node>
	<node lat="59.980054096933735" lon="5.496879049368316" id="-73803">
		<tag k="name" v="Neshamnvegen" />
		<tag k="ssr:date" v="2019-12-27" />
		<tag k="ssr:gruppe" v="veg" />
		<tag k="ssr:hovedgruppe" v="infrastruktur" />
		<tag k="ssr:stedsnr" v="788385" />
		<tag k="ssr:type" v="adressenavn" />
	</node>
	<node lat="60.02197876505819" lon="5.34021071211375" id="-73811">
		<tag k="alt_name" v="Rommeledneset" />
		<tag k="name" v="Rommelines" />
		<tag k="old_name" v="Romelinneset" />
		<tag k="ssr:date" v="2020-09-08" />
		<tag k="ssr:gruppe" v="navigasjon" />
		<tag k="ssr:hovedgruppe" v="infrastruktur" />
		<tag k="ssr:stedsnr" v="793242" />
		<tag k="ssr:type" v="fyrlykt" />
	</node>
	<node lat="60.04010719347617" lon="5.523272493920732" id="-74020">
		<tag k="name" v="Klypesbekken" />
		<tag k="ssr:date" v="2019-12-27" />
		<tag k="ssr:gruppe" v="veg" />
		<tag k="ssr:hovedgruppe" v="infrastruktur" />
		<tag k="ssr:stedsnr" v="1036963" />
		<tag k="ssr:type" v="adressenavn" />
	</node>
	<node lat="60.03916458854608" lon="5.523656348746414" id="-74021">
		<tag k="name" v="Stølsvegen" />
		<tag k="ssr:date" v="2019-12-27" />
		<tag k="ssr:gruppe" v="veg" />
		<tag k="ssr:hovedgruppe" v="infrastruktur" />
		<tag k="ssr:stedsnr" v="1036965" />
		<tag k="ssr:type" v="adressenavn" />
	</node>
	<node lat="60.04096449255187" lon="5.533190904589432" id="-74022">
		<tag k="name" v="Gjerstadneset" />
		<tag k="ssr:date" v="2019-12-27" />
		<tag k="ssr:gruppe" v="veg" />
		<tag k="ssr:hovedgruppe" v="infrastruktur" />
		<tag k="ssr:stedsnr" v="1036988" />
		<tag k="ssr:type" v="adressenavn" />
	</node>
	<node lat="60.03922166913095" lon="5.539801199737056" id="-74023">
		<tag k="name" v="Amundsstølen" />
		<tag k="ssr:date" v="2019-12-27" />
		<tag k="ssr:gruppe" v="veg" />
		<tag k="ssr:hovedgruppe" v="infrastruktur" />
		<tag k="ssr:stedsnr" v="1036990" />
		<tag k="ssr:type" v="adressenavn" />
	</node>
	<node lat="60.043026904776546" lon="5.522073995300785" id="-74024">
		<tag k="name" v="Engjelsvegen" />
		<tag k="ssr:date" v="2019-12-27" />
		<tag k="ssr:gruppe" v="veg" />
		<tag k="ssr:hovedgruppe" v="infrastruktur" />
		<tag k="ssr:stedsnr" v="1036992" />
		<tag k="ssr:type" v="adressenavn" />
	</node>
	<node lat="60.04348528499991" lon="5.522948331311097" id="-74025">
		<tag k="name" v="Vågsneset" />
		<tag k="ssr:date" v="2019-12-27" />
		<tag k="ssr:gruppe" v="veg" />
		<tag k="ssr:hovedgruppe" v="infrastruktur" />
		<tag k="ssr:stedsnr" v="1036994" />
		<tag k="ssr:type" v="adressenavn" />
	</node>
	<node lat="60.024901702842826" lon="5.509484783903996" id="-74026">
		<tag k="name" v="Anderslandsvegen" />
		<tag k="ssr:date" v="2019-12-27" />
		<tag k="ssr:gruppe" v="veg" />
		<tag k="ssr:hovedgruppe" v="infrastruktur" />
		<tag k="ssr:stedsnr" v="1036996" />
		<tag k="ssr:type" v="adressenavn" />
	</node>
	<node lat="60.04322766175853" lon="5.522999325437618" id="-74027">
		<tag k="name" v="Hegglandsvegen" />
		<tag k="ssr:date" v="2019-12-27" />
		<tag k="ssr:gruppe" v="veg" />
		<tag k="ssr:hovedgruppe" v="infrastruktur" />
		<tag k="ssr:stedsnr" v="1036998" />
		<tag k="ssr:type" v="adressenavn" />
	</node>
	<node lat="60.007427959583076" lon="5.499592045948624" id="-74028">
		<tag k="name" v="Hollekjevegen" />
		<tag k="ssr:date" v="2019-12-27" />
		<tag k="ssr:gruppe" v="veg" />
		<tag k="ssr:hovedgruppe" v="infrastruktur" />
		<tag k="ssr:stedsnr" v="1036999" />
		<tag k="ssr:type" v="adressenavn" />
	</node>
	<node lat="60.012191118551655" lon="5.506930815910885" id="-74029">
		<tag k="name" v="Dalsvegen" />
		<tag k="ssr:date" v="2019-12-27" />
		<tag k="ssr:gruppe" v="veg" />
		<tag k="ssr:hovedgruppe" v="infrastruktur" />
		<tag k="ssr:stedsnr" v="1037001" />
		<tag k="ssr:type" v="adressenavn" />
	</node>
	<node lat="60.049669026598174" lon="5.516363044261308" id="-74030">
		<tag k="name" v="Bjørkheimsvegen" />
		<tag k="ssr:date" v="2019-12-27" />
		<tag k="ssr:gruppe" v="veg" />
		<tag k="ssr:hovedgruppe" v="infrastruktur" />
		<tag k="ssr:stedsnr" v="1037004" />
		<tag k="ssr:type" v="adressenavn" />
	</node>
	<node lat="60.049482297844726" lon="5.517256043153609" id="-74031">
		<tag k="name" v="Båtastøvegen" />
		<tag k="ssr:date" v="2019-12-27" />
		<tag k="ssr:gruppe" v="veg" />
		<tag k="ssr:hovedgruppe" v="infrastruktur" />
		<tag k="ssr:stedsnr" v="1037006" />
		<tag k="ssr:type" v="adressenavn" />
	</node>
	<node lat="60.05019104231332" lon="5.512832607423378" id="-74032">
		<tag k="name" v="Bakarvegen" />
		<tag k="ssr:date" v="2019-12-27" />
		<tag k="ssr:gruppe" v="veg" />
		<tag k="ssr:hovedgruppe" v="infrastruktur" />
		<tag k="ssr:stedsnr" v="1037008" />
		<tag k="ssr:type" v="adressenavn" />
	</node>
	<node lat="60.050006474055685" lon="5.515053948659311" id="-74033">
		<tag k="name" v="Sjoarvegen" />
		<tag k="ssr:date" v="2019-12-27" />
		<tag k="ssr:gruppe" v="veg" />
		<tag k="ssr:hovedgruppe" v="infrastruktur" />
		<tag k="ssr:stedsnr" v="1037010" />
		<tag k="ssr:type" v="adressenavn" />
	</node>
	<node lat="60.04657908563415" lon="5.521856393844459" id="-74034">
		<tag k="name" v="Nedre Klokkargarden" />
		<tag k="ssr:date" v="2019-12-27" />
		<tag k="ssr:gruppe" v="veg" />
		<tag k="ssr:hovedgruppe" v="infrastruktur" />
		<tag k="ssr:stedsnr" v="1037012" />
		<tag k="ssr:type" v="adressenavn" />
	</node>
	<node lat="60.04084471161291" lon="5.520908974957604" id="-74035">
		<tag k="name" v="Landavegen" />
		<tag k="ssr:date" v="2019-12-27" />
		<tag k="ssr:gruppe" v="veg" />
		<tag k="ssr:hovedgruppe" v="infrastruktur" />
		<tag k="ssr:stedsnr" v="1037014" />
		<tag k="ssr:type" v="adressenavn" />
	</node>
	<node lat="60.048632761601226" lon="5.519935468803866" id="-74036">
		<tag k="name" v="Peralivegen" />
		<tag k="ssr:date" v="2019-12-27" />
		<tag k="ssr:gruppe" v="veg" />
		<tag k="ssr:hovedgruppe" v="infrastruktur" />
		<tag k="ssr:stedsnr" v="1037016" />
		<tag k="ssr:type" v="adressenavn" />
	</node>
	<node lat="60.047181262176714" lon="5.520019117206985" id="-74037">
		<tag k="name" v="Øvre Klokkargarden" />
		<tag k="ssr:date" v="2019-12-27" />
		<tag k="ssr:gruppe" v="veg" />
		<tag k="ssr:hovedgruppe" v="infrastruktur" />
		<tag k="ssr:stedsnr" v="1037018" />
		<tag k="ssr:type" v="adressenavn" />
	</node>
	<node lat="60.059887699695835" lon="5.6406476832411805" id="-74038">
		<tag k="name" v="Øvra Lunde" />
		<tag k="ssr:date" v="2019-12-27" />
		<tag k="ssr:gruppe" v="veg" />
		<tag k="ssr:hovedgruppe" v="infrastruktur" />
		<tag k="ssr:stedsnr" v="1037021" />
		<tag k="ssr:type" v="adressenavn" />
	</node>
	<node lat="60.059672077686834" lon="5.6387105757727936" id="-74039">
		<tag k="name" v="Haugavegen" />
		<tag k="ssr:date" v="2019-12-27" />
		<tag k="ssr:gruppe" v="veg" />
		<tag k="ssr:hovedgruppe" v="infrastruktur" />
		<tag k="ssr:stedsnr" v="1037024" />
		<tag k="ssr:type" v="adressenavn" />
	</node>
	<node lat="60.059368059599194" lon="5.637124777760692" id="-74040">
		<tag k="name" v="Nedra Lunde" />
		<tag k="ssr:date" v="2019-12-27" />
		<tag k="ssr:gruppe" v="veg" />
		<tag k="ssr:hovedgruppe" v="infrastruktur" />
		<tag k="ssr:stedsnr" v="1037027" />
		<tag k="ssr:type" v="adressenavn" />
	</node>
	<node lat="60.06142734454025" lon="5.658347027558597" id="-74041">
		<tag k="name" v="Lynghaugane" />
		<tag k="ssr:date" v="2019-12-27" />
		<tag k="ssr:gruppe" v="veg" />
		<tag k="ssr:hovedgruppe" v="infrastruktur" />
		<tag k="ssr:stedsnr" v="1037032" />
		<tag k="ssr:type" v="adressenavn" />
	</node>
	<node lat="60.06127116485244" lon="5.65648557901541" id="-74042">
		<tag k="name" v="Kattanesvegen" />
		<tag k="ssr:date" v="2019-12-27" />
		<tag k="ssr:gruppe" v="veg" />
		<tag k="ssr:hovedgruppe" v="infrastruktur" />
		<tag k="ssr:stedsnr" v="1037035" />
		<tag k="ssr:type" v="adressenavn" />
	</node>
	<node lat="60.060814083047674" lon="5.648503778820901" id="-74043">
		<tag k="name" v="Malkenesvegen" />
		<tag k="ssr:date" v="2019-12-27" />
		<tag k="ssr:gruppe" v="veg" />
		<tag k="ssr:hovedgruppe" v="infrastruktur" />
		<tag k="ssr:stedsnr" v="1037087" />
		<tag k="ssr:type" v="adressenavn" />
	</node>
	<node lat="60.03786679658047" lon="5.672795519180535" id="-74044">
		<tag k="name" v="Vevatne" />
		<tag k="ssr:date" v="2019-12-27" />
		<tag k="ssr:gruppe" v="veg" />
		<tag k="ssr:hovedgruppe" v="infrastruktur" />
		<tag k="ssr:stedsnr" v="1037090" />
		<tag k="ssr:type" v="adressenavn" />
	</node>
	<node lat="60.04050231385374" lon="5.530753174989218" id="-74045">
		<tag k="name" v="Grovarvegen" />
		<tag k="ssr:date" v="2019-12-27" />
		<tag k="ssr:gruppe" v="veg" />
		<tag k="ssr:hovedgruppe" v="infrastruktur" />
		<tag k="ssr:stedsnr" v="1036967" />
		<tag k="ssr:type" v="adressenavn" />
	</node>
	<node lat="60.039422425155784" lon="5.523120902311266" id="-74046">
		<tag k="name" v="Vågsmarka" />
		<tag k="ssr:date" v="2019-12-27" />
		<tag k="ssr:gruppe" v="veg" />
		<tag k="ssr:hovedgruppe" v="infrastruktur" />
		<tag k="ssr:stedsnr" v="1036969" />
		<tag k="ssr:type" v="adressenavn" />
	</node>
	<node lat="60.04536608305912" lon="5.522737087566998" id="-74047">
		<tag k="name" v="Teiglandsvegen" />
		<tag k="ssr:date" v="2019-12-27" />
		<tag k="ssr:gruppe" v="veg" />
		<tag k="ssr:hovedgruppe" v="infrastruktur" />
		<tag k="ssr:stedsnr" v="1036971" />
		<tag k="ssr:type" v="adressenavn" />
	</node>
	<node lat="60.05096960822311" lon="5.505799230957631" id="-74048">
		<tag k="name" v="Spannsteigen" />
		<tag k="ssr:date" v="2019-12-27" />
		<tag k="ssr:gruppe" v="veg" />
		<tag k="ssr:hovedgruppe" v="infrastruktur" />
		<tag k="ssr:stedsnr" v="1036973" />
		<tag k="ssr:type" v="adressenavn" />
	</node>
	<node lat="60.038699514261474" lon="5.526848260253673" id="-74049">
		<tag k="name" v="Vågsåsen" />
		<tag k="ssr:date" v="2019-12-27" />
		<tag k="ssr:gruppe" v="veg" />
		<tag k="ssr:hovedgruppe" v="infrastruktur" />
		<tag k="ssr:stedsnr" v="1036975" />
		<tag k="ssr:type" v="adressenavn" />
	</node>
	<node lat="60.0367470898727" lon="5.525709016631636" id="-74050">
		<tag k="name" v="Grønåsen" />
		<tag k="ssr:date" v="2019-12-27" />
		<tag k="ssr:gruppe" v="veg" />
		<tag k="ssr:hovedgruppe" v="infrastruktur" />
		<tag k="ssr:stedsnr" v="1036978" />
		<tag k="ssr:type" v="adressenavn" />
	</node>
	<node lat="60.060814083047674" lon="5.648503778820901" id="-74051">
		<tag k="name" v="Vevatnevegen" />
		<tag k="ssr:date" v="2019-12-27" />
		<tag k="ssr:gruppe" v="veg" />
		<tag k="ssr:hovedgruppe" v="infrastruktur" />
		<tag k="ssr:stedsnr" v="1037038" />
		<tag k="ssr:type" v="adressenavn" />
	</node>
	<node lat="60.07409803397498" lon="5.6766377928346685" id="-74052">
		<tag k="name" v="Sundavegen" />
		<tag k="ssr:date" v="2019-12-27" />
		<tag k="ssr:gruppe" v="veg" />
		<tag k="ssr:hovedgruppe" v="infrastruktur" />
		<tag k="ssr:stedsnr" v="1037041" />
		<tag k="ssr:type" v="adressenavn" />
	</node>
	<node lat="60.04356102897619" lon="5.565637863916404" id="-74053">
		<tag k="name" v="Godøysundvegen" />
		<tag k="ssr:date" v="2019-12-27" />
		<tag k="ssr:gruppe" v="veg" />
		<tag k="ssr:hovedgruppe" v="infrastruktur" />
		<tag k="ssr:stedsnr" v="1037043" />
		<tag k="ssr:type" v="adressenavn" />
	</node>
	<node lat="60.05366091325051" lon="5.556798918148862" id="-74054">
		<tag k="name" v="Tysnesvegen" />
		<tag k="ssr:date" v="2019-12-27" />
		<tag k="ssr:gruppe" v="veg" />
		<tag k="ssr:hovedgruppe" v="infrastruktur" />
		<tag k="ssr:stedsnr" v="1037045" />
		<tag k="ssr:type" v="adressenavn" />
	</node>
	<node lat="60.0570172346948" lon="5.5996596366337705" id="-74055">
		<tag k="name" v="Humlevikvegen" />
		<tag k="ssr:date" v="2019-12-27" />
		<tag k="ssr:gruppe" v="veg" />
		<tag k="ssr:hovedgruppe" v="infrastruktur" />
		<tag k="ssr:stedsnr" v="1037047" />
		<tag k="ssr:type" v="adressenavn" />
	</node>
	<node lat="60.04309026776331" lon="5.5618509100762825" id="-74056">
		<tag k="name" v="Sæbergvegen" />
		<tag k="ssr:date" v="2019-12-27" />
		<tag k="ssr:gruppe" v="veg" />
		<tag k="ssr:hovedgruppe" v="infrastruktur" />
		<tag k="ssr:stedsnr" v="1037050" />
		<tag k="ssr:type" v="adressenavn" />
	</node>
	<node lat="60.05619667140899" lon="5.634441916122934" id="-74057">
		<tag k="name" v="Lundahagen" />
		<tag k="ssr:date" v="2019-12-27" />
		<tag k="ssr:gruppe" v="veg" />
		<tag k="ssr:hovedgruppe" v="infrastruktur" />
		<tag k="ssr:stedsnr" v="1037053" />
		<tag k="ssr:type" v="adressenavn" />
	</node>
	<node lat="60.056982917709455" lon="5.63565285524716" id="-74058">
		<tag k="name" v="Vassneset" />
		<tag k="ssr:date" v="2019-12-27" />
		<tag k="ssr:gruppe" v="veg" />
		<tag k="ssr:hovedgruppe" v="infrastruktur" />
		<tag k="ssr:stedsnr" v="1037056" />
		<tag k="ssr:type" v="adressenavn" />
	</node>
	<node lat="60.05688328695702" lon="5.601245940688028" id="-74059">
		<tag k="name" v="Skjepavikjo" />
		<tag k="ssr:date" v="2019-12-27" />
		<tag k="ssr:gruppe" v="veg" />
		<tag k="ssr:hovedgruppe" v="infrastruktur" />
		<tag k="ssr:stedsnr" v="1037058" />
		<tag k="ssr:type" v="adressenavn" />
	</node>
	<node lat="60.05106701915721" lon="5.621280587685946" id="-74060">
		<tag k="name" v="Myrdalsvegen" />
		<tag k="ssr:date" v="2019-12-27" />
		<tag k="ssr:gruppe" v="veg" />
		<tag k="ssr:hovedgruppe" v="infrastruktur" />
		<tag k="ssr:stedsnr" v="1037060" />
		<tag k="ssr:type" v="adressenavn" />
	</node>
	<node lat="59.962286490992774" lon="5.637759063470722" id="-74061">
		<tag k="name" v="Vattedalsvegen" />
		<tag k="ssr:date" v="2019-12-27" />
		<tag k="ssr:gruppe" v="veg" />
		<tag k="ssr:hovedgruppe" v="infrastruktur" />
		<tag k="ssr:stedsnr" v="1037063" />
		<tag k="ssr:type" v="adressenavn" />
	</node>
	<node lat="59.94700518527234" lon="5.628077857861011" id="-74062">
		<tag k="name" v="Flakkavågsvegen" />
		<tag k="ssr:date" v="2019-12-27" />
		<tag k="ssr:gruppe" v="veg" />
		<tag k="ssr:hovedgruppe" v="infrastruktur" />
		<tag k="ssr:stedsnr" v="1037066" />
		<tag k="ssr:type" v="adressenavn" />
	</node>
	<node lat="59.99287795139675" lon="5.68328721470025" id="-74063">
		<tag k="name" v="Årbakkavegen" />
		<tag k="ssr:date" v="2019-12-27" />
		<tag k="ssr:gruppe" v="veg" />
		<tag k="ssr:hovedgruppe" v="infrastruktur" />
		<tag k="ssr:stedsnr" v="1037068" />
		<tag k="ssr:type" v="adressenavn" />
	</node>
	<node lat="59.9725741314147" lon="5.650913518859009" id="-74064">
		<tag k="name" v="Onarheimsvegen" />
		<tag k="ssr:date" v="2019-12-27" />
		<tag k="ssr:gruppe" v="veg" />
		<tag k="ssr:hovedgruppe" v="infrastruktur" />
		<tag k="ssr:stedsnr" v="1037072" />
		<tag k="ssr:type" v="adressenavn" />
	</node>
	<node lat="59.950845988907865" lon="5.6271767723314206" id="-74065">
		<tag k="name" v="Hagaresvegen" />
		<tag k="ssr:date" v="2019-12-27" />
		<tag k="ssr:gruppe" v="veg" />
		<tag k="ssr:hovedgruppe" v="infrastruktur" />
		<tag k="ssr:stedsnr" v="1037075" />
		<tag k="ssr:type" v="adressenavn" />
	</node>
	<node lat="59.939459349047695" lon="5.619316861245147" id="-74066">
		<tag k="name" v="Espevikvegen" />
		<tag k="ssr:date" v="2019-12-27" />
		<tag k="ssr:gruppe" v="veg" />
		<tag k="ssr:hovedgruppe" v="infrastruktur" />
		<tag k="ssr:stedsnr" v="1037079" />
		<tag k="ssr:type" v="adressenavn" />
	</node>
	<node lat="59.956240554674004" lon="5.6180002557006" id="-74067">
		<tag k="name" v="Fjellvegen" />
		<tag k="ssr:date" v="2019-12-27" />
		<tag k="ssr:gruppe" v="veg" />
		<tag k="ssr:hovedgruppe" v="infrastruktur" />
		<tag k="ssr:stedsnr" v="1037082" />
		<tag k="ssr:type" v="adressenavn" />
	</node>
	<node lat="59.94901765881489" lon="5.629833164231884" id="-74068">
		<tag k="name" v="Eikene" />
		<tag k="ssr:date" v="2019-12-27" />
		<tag k="ssr:gruppe" v="veg" />
		<tag k="ssr:hovedgruppe" v="infrastruktur" />
		<tag k="ssr:stedsnr" v="1037084" />
		<tag k="ssr:type" v="adressenavn" />
	</node>
	<node lat="60.06702514626672" lon="5.65401159493331" id="-74069">
		<tag k="name" v="Lundakamben" />
		<tag k="ssr:date" v="2019-12-27" />
		<tag k="ssr:gruppe" v="veg" />
		<tag k="ssr:hovedgruppe" v="infrastruktur" />
		<tag k="ssr:stedsnr" v="1037093" />
		<tag k="ssr:type" v="adressenavn" />
	</node>
	<node lat="60.074273722232235" lon="5.676578718352072" id="-74070">
		<tag k="name" v="Garden" />
		<tag k="ssr:date" v="2019-12-27" />
		<tag k="ssr:gruppe" v="veg" />
		<tag k="ssr:hovedgruppe" v="infrastruktur" />
		<tag k="ssr:stedsnr" v="1037096" />
		<tag k="ssr:type" v="adressenavn" />
	</node>
	<node lat="59.996579276454035" lon="5.692991506665995" id="-74071">
		<tag k="name" v="Liastrando" />
		<tag k="ssr:date" v="2019-12-27" />
		<tag k="ssr:gruppe" v="veg" />
		<tag k="ssr:hovedgruppe" v="infrastruktur" />
		<tag k="ssr:stedsnr" v="1037099" />
		<tag k="ssr:type" v="adressenavn" />
	</node>
	<node lat="59.99287795139675" lon="5.68328721470025" id="-74072">
		<tag k="name" v="Liavegen" />
		<tag k="ssr:date" v="2019-12-27" />
		<tag k="ssr:gruppe" v="veg" />
		<tag k="ssr:hovedgruppe" v="infrastruktur" />
		<tag k="ssr:stedsnr" v="1037102" />
		<tag k="ssr:type" v="adressenavn" />
	</node>
	<node lat="60.03735539541614" lon="5.6730759536649735" id="-74073">
		<tag k="name" v="Vetlabølsvegen" />
		<tag k="ssr:date" v="2019-12-27" />
		<tag k="ssr:gruppe" v="veg" />
		<tag k="ssr:hovedgruppe" v="infrastruktur" />
		<tag k="ssr:stedsnr" v="1037105" />
		<tag k="ssr:type" v="adressenavn" />
	</node>
	<node lat="60.006159279431024" lon="5.693017399602363" id="-74074">
		<tag k="name" v="Hovlandsstrando" />
		<tag k="ssr:date" v="2019-12-27" />
		<tag k="ssr:gruppe" v="veg" />
		<tag k="ssr:hovedgruppe" v="infrastruktur" />
		<tag k="ssr:stedsnr" v="1037108" />
		<tag k="ssr:type" v="adressenavn" />
	</node>
	<node lat="59.933494713582824" lon="5.520526405123704" id="-74075">
		<tag k="name" v="Årvika" />
		<tag k="ssr:date" v="2019-12-27" />
		<tag k="ssr:gruppe" v="veg" />
		<tag k="ssr:hovedgruppe" v="infrastruktur" />
		<tag k="ssr:stedsnr" v="1037386" />
		<tag k="ssr:type" v="adressenavn" />
	</node>
	<node lat="59.91783413814841" lon="5.64667397545078" id="-74076">
		<tag k="name" v="Ånuglo" />
		<tag k="ssr:date" v="2019-12-27" />
		<tag k="ssr:gruppe" v="veg" />
		<tag k="ssr:hovedgruppe" v="infrastruktur" />
		<tag k="ssr:stedsnr" v="1037388" />
		<tag k="ssr:type" v="adressenavn" />
	</node>
	<node lat="59.99028610300207" lon="5.437867319133613" id="-74077">
		<tag k="name" v="Fureholmen" />
		<tag k="ssr:date" v="2019-12-27" />
		<tag k="ssr:gruppe" v="veg" />
		<tag k="ssr:hovedgruppe" v="infrastruktur" />
		<tag k="ssr:stedsnr" v="1037391" />
		<tag k="ssr:type" v="adressenavn" />
	</node>
	<node lat="59.996790641142944" lon="5.488955286155009" id="-74078">
		<tag k="name" v="Bjørnavågen" />
		<tag k="ssr:date" v="2019-12-27" />
		<tag k="ssr:gruppe" v="veg" />
		<tag k="ssr:hovedgruppe" v="infrastruktur" />
		<tag k="ssr:stedsnr" v="1037396" />
		<tag k="ssr:type" v="adressenavn" />
	</node>
	<node lat="59.99028610300207" lon="5.437867319133613" id="-74079">
		<tag k="name" v="Mjølkevika" />
		<tag k="ssr:date" v="2019-12-27" />
		<tag k="ssr:gruppe" v="veg" />
		<tag k="ssr:hovedgruppe" v="infrastruktur" />
		<tag k="ssr:stedsnr" v="1037399" />
		<tag k="ssr:type" v="adressenavn" />
	</node>
	<node lat="60.060947301730145" lon="5.635152928126126" id="-74080">
		<tag k="name" v="Lundaneset" />
		<tag k="ssr:date" v="2019-12-27" />
		<tag k="ssr:gruppe" v="veg" />
		<tag k="ssr:hovedgruppe" v="infrastruktur" />
		<tag k="ssr:stedsnr" v="1037401" />
		<tag k="ssr:type" v="adressenavn" />
	</node>
	<node lat="60.06099106934928" lon="5.635098635372608" id="-74081">
		<tag k="name" v="Koløysundet" />
		<tag k="ssr:date" v="2019-12-27" />
		<tag k="ssr:gruppe" v="veg" />
		<tag k="ssr:hovedgruppe" v="infrastruktur" />
		<tag k="ssr:stedsnr" v="1037402" />
		<tag k="ssr:type" v="adressenavn" />
	</node>
	<node lat="60.00567604863462" lon="5.694405350430485" id="-74082">
		<tag k="name" v="Petersholmen" />
		<tag k="ssr:date" v="2019-12-27" />
		<tag k="ssr:gruppe" v="veg" />
		<tag k="ssr:hovedgruppe" v="infrastruktur" />
		<tag k="ssr:stedsnr" v="1037405" />
		<tag k="ssr:type" v="adressenavn" />
	</node>
	<node lat="60.01467396543641" lon="5.395342823047224" id="-74083">
		<tag k="name" v="Åsneset" />
		<tag k="ssr:date" v="2019-12-27" />
		<tag k="ssr:gruppe" v="veg" />
		<tag k="ssr:hovedgruppe" v="infrastruktur" />
		<tag k="ssr:stedsnr" v="1037420" />
		<tag k="ssr:type" v="adressenavn" />
	</node>
	<node lat="60.0203028539315" lon="5.432614637435759" id="-74084">
		<tag k="name" v="Søreidsvika" />
		<tag k="ssr:date" v="2019-12-27" />
		<tag k="ssr:gruppe" v="veg" />
		<tag k="ssr:hovedgruppe" v="infrastruktur" />
		<tag k="ssr:stedsnr" v="1037423" />
		<tag k="ssr:type" v="adressenavn" />
	</node>
	<node lat="60.0739924279812" lon="5.430843011631104" id="-74085">
		<tag k="name" v="Kuvågen" />
		<tag k="ssr:date" v="2019-12-27" />
		<tag k="ssr:gruppe" v="veg" />
		<tag k="ssr:hovedgruppe" v="infrastruktur" />
		<tag k="ssr:stedsnr" v="1037425" />
		<tag k="ssr:type" v="adressenavn" />
	</node>
	<node lat="60.015966391086984" lon="5.543811433679747" id="-74086">
		<tag k="name" v="Buldo" />
		<tag k="ssr:date" v="2019-12-27" />
		<tag k="ssr:gruppe" v="veg" />
		<tag k="ssr:hovedgruppe" v="infrastruktur" />
		<tag k="ssr:stedsnr" v="1037509" />
		<tag k="ssr:type" v="adressenavn" />
	</node>
	<node lat="60.0611798581298" lon="5.594408619790375" id="-74087">
		<tag k="name" v="Salpevika" />
		<tag k="ssr:date" v="2019-12-27" />
		<tag k="ssr:gruppe" v="veg" />
		<tag k="ssr:hovedgruppe" v="infrastruktur" />
		<tag k="ssr:stedsnr" v="1037510" />
		<tag k="ssr:type" v="adressenavn" />
	</node>
	<node lat="60.06327028664174" lon="5.563078408524157" id="-74088">
		<tag k="name" v="Leirvikeskjeret" />
		<tag k="ssr:date" v="2019-12-27" />
		<tag k="ssr:gruppe" v="veg" />
		<tag k="ssr:hovedgruppe" v="infrastruktur" />
		<tag k="ssr:stedsnr" v="1037511" />
		<tag k="ssr:type" v="adressenavn" />
	</node>
	<node lat="60.021885413043556" lon="5.686659167559288" id="-74089">
		<tag k="name" v="Etlådne" />
		<tag k="ssr:date" v="2019-12-27" />
		<tag k="ssr:gruppe" v="veg" />
		<tag k="ssr:hovedgruppe" v="infrastruktur" />
		<tag k="ssr:stedsnr" v="1037512" />
		<tag k="ssr:type" v="adressenavn" />
	</node>
	<node lat="59.99416891186359" lon="5.60010827557953" id="-74090">
		<tag k="name" v="Grovatnet" />
		<tag k="ssr:date" v="2019-12-27" />
		<tag k="ssr:gruppe" v="veg" />
		<tag k="ssr:hovedgruppe" v="infrastruktur" />
		<tag k="ssr:stedsnr" v="1037513" />
		<tag k="ssr:type" v="adressenavn" />
	</node>
	<node lat="60.03326389206954" lon="5.675706403225617" id="-74091">
		<tag k="name" v="Ådnastegen" />
		<tag k="ssr:date" v="2019-12-27" />
		<tag k="ssr:gruppe" v="veg" />
		<tag k="ssr:hovedgruppe" v="infrastruktur" />
		<tag k="ssr:stedsnr" v="1037514" />
		<tag k="ssr:type" v="adressenavn" />
	</node>
	<node lat="60.01593140063117" lon="5.543727603706756" id="-74092">
		<tag k="name" v="Huldastølen" />
		<tag k="ssr:date" v="2019-12-27" />
		<tag k="ssr:gruppe" v="veg" />
		<tag k="ssr:hovedgruppe" v="infrastruktur" />
		<tag k="ssr:stedsnr" v="1037515" />
		<tag k="ssr:type" v="adressenavn" />
	</node>
	<node lat="60.01590135611657" lon="5.543655896149848" id="-74093">
		<tag k="name" v="Gjerstadstølen" />
		<tag k="ssr:date" v="2019-12-27" />
		<tag k="ssr:gruppe" v="veg" />
		<tag k="ssr:hovedgruppe" v="infrastruktur" />
		<tag k="ssr:stedsnr" v="1037517" />
		<tag k="ssr:type" v="adressenavn" />
	</node>
	<node lat="59.99270659026611" lon="5.539794057967148" id="-74094">
		<tag k="name" v="Gjellefall" />
		<tag k="ssr:date" v="2019-12-27" />
		<tag k="ssr:gruppe" v="veg" />
		<tag k="ssr:hovedgruppe" v="infrastruktur" />
		<tag k="ssr:stedsnr" v="1037883" />
		<tag k="ssr:type" v="adressenavn" />
	</node>
	<node lat="59.91065239070273" lon="5.637514047665086" id="-74095">
		<tag k="name" v="Barmen" />
		<tag k="ssr:date" v="2019-12-27" />
		<tag k="ssr:gruppe" v="veg" />
		<tag k="ssr:hovedgruppe" v="infrastruktur" />
		<tag k="ssr:stedsnr" v="1037890" />
		<tag k="ssr:type" v="adressenavn" />
	</node>
	<node lat="59.97324005893147" lon="5.422444693696873" id="-74096">
		<tag k="name" v="Vestre Li" />
		<tag k="ssr:date" v="2019-12-27" />
		<tag k="ssr:gruppe" v="veg" />
		<tag k="ssr:hovedgruppe" v="infrastruktur" />
		<tag k="ssr:stedsnr" v="1037894" />
		<tag k="ssr:type" v="adressenavn" />
	</node>
	<node lat="59.94174221923883" lon="5.481133727724066" id="-74097">
		<tag k="name" v="Nesøyvegen" />
		<tag k="ssr:date" v="2019-12-27" />
		<tag k="ssr:gruppe" v="veg" />
		<tag k="ssr:hovedgruppe" v="infrastruktur" />
		<tag k="ssr:stedsnr" v="1037898" />
		<tag k="ssr:type" v="adressenavn" />
	</node>
	<node lat="59.95667245898004" lon="5.635720573544955" id="-74098">
		<tag k="name" v="Henningshagen" />
		<tag k="ssr:date" v="2019-12-27" />
		<tag k="ssr:gruppe" v="veg" />
		<tag k="ssr:hovedgruppe" v="infrastruktur" />
		<tag k="ssr:stedsnr" v="1037902" />
		<tag k="ssr:type" v="adressenavn" />
	</node>
	<node lat="59.90911955680366" lon="5.5990879209339" id="-74099">
		<tag k="name" v="Hetlelivegen" />
		<tag k="ssr:date" v="2019-12-27" />
		<tag k="ssr:gruppe" v="veg" />
		<tag k="ssr:hovedgruppe" v="infrastruktur" />
		<tag k="ssr:stedsnr" v="1037906" />
		<tag k="ssr:type" v="adressenavn" />
	</node>
	<node lat="60.03474300561867" lon="5.514046452939534" id="-74100">
		<tag k="name" v="Dallandsvegen" />
		<tag k="ssr:date" v="2019-12-27" />
		<tag k="ssr:gruppe" v="veg" />
		<tag k="ssr:hovedgruppe" v="infrastruktur" />
		<tag k="ssr:stedsnr" v="1037910" />
		<tag k="ssr:type" v="adressenavn" />
	</node>
	<node lat="59.9965010617951" lon="5.494190301348069" id="-74101">
		<tag k="name" v="Eidabrekko" />
		<tag k="ssr:date" v="2019-12-27" />
		<tag k="ssr:gruppe" v="veg" />
		<tag k="ssr:hovedgruppe" v="infrastruktur" />
		<tag k="ssr:stedsnr" v="1037916" />
		<tag k="ssr:type" v="adressenavn" />
	</node>
	<node lat="60.04239681965554" lon="5.549534986126049" id="-74102">
		<tag k="name" v="Lensmannsgarden" />
		<tag k="ssr:date" v="2019-12-27" />
		<tag k="ssr:gruppe" v="veg" />
		<tag k="ssr:hovedgruppe" v="infrastruktur" />
		<tag k="ssr:stedsnr" v="1037938" />
		<tag k="ssr:type" v="adressenavn" />
	</node>
	<node lat="60.04353516578077" lon="5.51859302638087" id="-74103">
		<tag k="name" v="Krokavegen" />
		<tag k="ssr:date" v="2019-12-27" />
		<tag k="ssr:gruppe" v="veg" />
		<tag k="ssr:hovedgruppe" v="infrastruktur" />
		<tag k="ssr:stedsnr" v="1037971" />
		<tag k="ssr:type" v="adressenavn" />
	</node>
	<node lat="60.07323670968957" lon="5.428832172823148" id="-74104">
		<tag k="name" v="Enesvegen" />
		<tag k="ssr:date" v="2019-12-27" />
		<tag k="ssr:gruppe" v="veg" />
		<tag k="ssr:hovedgruppe" v="infrastruktur" />
		<tag k="ssr:stedsnr" v="1037919" />
		<tag k="ssr:type" v="adressenavn" />
	</node>
	<node lat="60.07372965191043" lon="5.68469529009249" id="-74105">
		<tag k="name" v="Skotet" />
		<tag k="ssr:date" v="2019-12-27" />
		<tag k="ssr:gruppe" v="veg" />
		<tag k="ssr:hovedgruppe" v="infrastruktur" />
		<tag k="ssr:stedsnr" v="1037922" />
		<tag k="ssr:type" v="adressenavn" />
	</node>
	<node lat="60.05994883196712" lon="5.641788802704773" id="-74106">
		<tag k="name" v="Bakkavegen" />
		<tag k="ssr:date" v="2019-12-27" />
		<tag k="ssr:gruppe" v="veg" />
		<tag k="ssr:hovedgruppe" v="infrastruktur" />
		<tag k="ssr:stedsnr" v="1037926" />
		<tag k="ssr:type" v="adressenavn" />
	</node>
	<node lat="60.00883769635511" lon="5.497824146170806" id="-74107">
		<tag k="name" v="Myklestadvegen" />
		<tag k="ssr:date" v="2019-12-27" />
		<tag k="ssr:gruppe" v="veg" />
		<tag k="ssr:hovedgruppe" v="infrastruktur" />
		<tag k="ssr:stedsnr" v="1037930" />
		<tag k="ssr:type" v="adressenavn" />
	</node>
	<node lat="59.98550096353673" lon="5.497134476355262" id="-74108">
		<tag k="name" v="Støle" />
		<tag k="ssr:date" v="2019-12-27" />
		<tag k="ssr:gruppe" v="veg" />
		<tag k="ssr:hovedgruppe" v="infrastruktur" />
		<tag k="ssr:stedsnr" v="1037934" />
		<tag k="ssr:type" v="adressenavn" />
	</node>
	<node lat="59.954259135663186" lon="5.482099771751581" id="-74109">
		<tag k="name" v="Kongsvikvegen" />
		<tag k="ssr:date" v="2019-12-27" />
		<tag k="ssr:gruppe" v="veg" />
		<tag k="ssr:hovedgruppe" v="infrastruktur" />
		<tag k="ssr:stedsnr" v="1038091" />
		<tag k="ssr:type" v="adressenavn" />
	</node>
	<node lat="59.943705952605065" lon="5.482310282547009" id="-74110">
		<tag k="name" v="Øvrebøvegen" />
		<tag k="ssr:date" v="2019-12-27" />
		<tag k="ssr:gruppe" v="veg" />
		<tag k="ssr:hovedgruppe" v="infrastruktur" />
		<tag k="ssr:stedsnr" v="1038094" />
		<tag k="ssr:type" v="adressenavn" />
	</node>
	<node lat="59.97135720628862" lon="5.494797548547252" id="-74111">
		<tag k="name" v="Høviskelandsvegen" />
		<tag k="ssr:date" v="2019-12-27" />
		<tag k="ssr:gruppe" v="veg" />
		<tag k="ssr:hovedgruppe" v="infrastruktur" />
		<tag k="ssr:stedsnr" v="1038097" />
		<tag k="ssr:type" v="adressenavn" />
	</node>
	<node lat="59.96835717245919" lon="5.470393789819482" id="-74112">
		<tag k="name" v="Kleppa" />
		<tag k="ssr:date" v="2019-12-27" />
		<tag k="ssr:gruppe" v="veg" />
		<tag k="ssr:hovedgruppe" v="infrastruktur" />
		<tag k="ssr:stedsnr" v="1038099" />
		<tag k="ssr:type" v="adressenavn" />
	</node>
	<node lat="59.99728534893819" lon="5.494839866811145" id="-74113">
		<tag k="name" v="Heningen" />
		<tag k="ssr:date" v="2019-12-27" />
		<tag k="ssr:gruppe" v="veg" />
		<tag k="ssr:hovedgruppe" v="infrastruktur" />
		<tag k="ssr:stedsnr" v="1038102" />
		<tag k="ssr:type" v="adressenavn" />
	</node>
	<node lat="59.99893838161768" lon="5.49599836113642" id="-74114">
		<tag k="name" v="Tomyro" />
		<tag k="ssr:date" v="2019-12-27" />
		<tag k="ssr:gruppe" v="veg" />
		<tag k="ssr:hovedgruppe" v="infrastruktur" />
		<tag k="ssr:stedsnr" v="1038105" />
		<tag k="ssr:type" v="adressenavn" />
	</node>
	<node lat="59.98975896837617" lon="5.49370481239006" id="-74115">
		<tag k="name" v="Jensvoll" />
		<tag k="ssr:date" v="2019-12-27" />
		<tag k="ssr:gruppe" v="veg" />
		<tag k="ssr:hovedgruppe" v="infrastruktur" />
		<tag k="ssr:stedsnr" v="1038108" />
		<tag k="ssr:type" v="adressenavn" />
	</node>
	<node lat="59.99684398123214" lon="5.494462354462651" id="-74116">
		<tag k="name" v="Jensvollsbrekko" />
		<tag k="ssr:date" v="2019-12-27" />
		<tag k="ssr:gruppe" v="veg" />
		<tag k="ssr:hovedgruppe" v="infrastruktur" />
		<tag k="ssr:stedsnr" v="1038111" />
		<tag k="ssr:type" v="adressenavn" />
	</node>
	<node lat="59.90943305348418" lon="5.581297303910371" id="-74117">
		<tag k="name" v="Gangstøvegen" />
		<tag k="ssr:date" v="2019-12-27" />
		<tag k="ssr:gruppe" v="veg" />
		<tag k="ssr:hovedgruppe" v="infrastruktur" />
		<tag k="ssr:stedsnr" v="1038114" />
		<tag k="ssr:type" v="adressenavn" />
	</node>
	<node lat="59.89415693174806" lon="5.5645541959574985" id="-74118">
		<tag k="name" v="Langenuvegen" />
		<tag k="ssr:date" v="2019-12-27" />
		<tag k="ssr:gruppe" v="veg" />
		<tag k="ssr:hovedgruppe" v="infrastruktur" />
		<tag k="ssr:stedsnr" v="1038117" />
		<tag k="ssr:type" v="adressenavn" />
	</node>
	<node lat="59.93299095666954" lon="5.629648347760503" id="-74119">
		<tag k="name" v="Sletteskogsvegen" />
		<tag k="ssr:date" v="2019-12-27" />
		<tag k="ssr:gruppe" v="veg" />
		<tag k="ssr:hovedgruppe" v="infrastruktur" />
		<tag k="ssr:stedsnr" v="1038120" />
		<tag k="ssr:type" v="adressenavn" />
	</node>
	<node lat="59.92091475035621" lon="5.595512607410472" id="-74120">
		<tag k="name" v="Skorpevegen" />
		<tag k="ssr:date" v="2019-12-27" />
		<tag k="ssr:gruppe" v="veg" />
		<tag k="ssr:hovedgruppe" v="infrastruktur" />
		<tag k="ssr:stedsnr" v="1038123" />
		<tag k="ssr:type" v="adressenavn" />
	</node>
	<node lat="59.980054096933735" lon="5.496879049368316" id="-74121">
		<tag k="name" v="Uggdalsvegen" />
		<tag k="ssr:date" v="2019-12-27" />
		<tag k="ssr:gruppe" v="veg" />
		<tag k="ssr:hovedgruppe" v="infrastruktur" />
		<tag k="ssr:stedsnr" v="1038128" />
		<tag k="ssr:type" v="adressenavn" />
	</node>
	<node lat="60.00144179774266" lon="5.374781267755175" id="-74122">
		<tag k="name" v="Sundavågen" />
		<tag k="ssr:date" v="2019-12-27" />
		<tag k="ssr:gruppe" v="veg" />
		<tag k="ssr:hovedgruppe" v="infrastruktur" />
		<tag k="ssr:stedsnr" v="1038137" />
		<tag k="ssr:type" v="adressenavn" />
	</node>
	<node lat="60.012360955683825" lon="5.366713147220333" id="-74123">
		<tag k="name" v="Rekstravegen" />
		<tag k="ssr:date" v="2019-12-27" />
		<tag k="ssr:gruppe" v="veg" />
		<tag k="ssr:hovedgruppe" v="infrastruktur" />
		<tag k="ssr:stedsnr" v="1038140" />
		<tag k="ssr:type" v="adressenavn" />
	</node>
	<node lat="59.971610352966955" lon="5.420664628145556" id="-74124">
		<tag k="name" v="Hillesvikvegen" />
		<tag k="ssr:date" v="2019-12-27" />
		<tag k="ssr:gruppe" v="veg" />
		<tag k="ssr:hovedgruppe" v="infrastruktur" />
		<tag k="ssr:stedsnr" v="1038143" />
		<tag k="ssr:type" v="adressenavn" />
	</node>
	<node lat="59.9800985546736" lon="5.4016222229556705" id="-74125">
		<tag k="name" v="Landeråvegen" />
		<tag k="ssr:date" v="2019-12-27" />
		<tag k="ssr:gruppe" v="veg" />
		<tag k="ssr:hovedgruppe" v="infrastruktur" />
		<tag k="ssr:stedsnr" v="1038146" />
		<tag k="ssr:type" v="adressenavn" />
	</node>
	<node lat="60.01961415608549" lon="5.394514240347736" id="-74126">
		<tag k="name" v="Åsvågen" />
		<tag k="ssr:date" v="2019-12-27" />
		<tag k="ssr:gruppe" v="veg" />
		<tag k="ssr:hovedgruppe" v="infrastruktur" />
		<tag k="ssr:stedsnr" v="1038149" />
		<tag k="ssr:type" v="adressenavn" />
	</node>
	<node lat="60.01969865237457" lon="5.402042017044425" id="-74127">
		<tag k="name" v="Øvra Haukafær" />
		<tag k="ssr:date" v="2019-12-27" />
		<tag k="ssr:gruppe" v="veg" />
		<tag k="ssr:hovedgruppe" v="infrastruktur" />
		<tag k="ssr:stedsnr" v="1038152" />
		<tag k="ssr:type" v="adressenavn" />
	</node>
	<node lat="60.012360955683825" lon="5.366713147220333" id="-74128">
		<tag k="name" v="Flygansvær" />
		<tag k="ssr:date" v="2019-12-27" />
		<tag k="ssr:gruppe" v="veg" />
		<tag k="ssr:hovedgruppe" v="infrastruktur" />
		<tag k="ssr:stedsnr" v="1038155" />
		<tag k="ssr:type" v="adressenavn" />
	</node>
	<node lat="60.0210907030406" lon="5.3824273077290075" id="-74129">
		<tag k="name" v="Frøkedalen" />
		<tag k="ssr:date" v="2019-12-27" />
		<tag k="ssr:gruppe" v="veg" />
		<tag k="ssr:hovedgruppe" v="infrastruktur" />
		<tag k="ssr:stedsnr" v="1038158" />
		<tag k="ssr:type" v="adressenavn" />
	</node>
	<node lat="60.007427959583076" lon="5.499592045948624" id="-74130">
		<tag k="name" v="Uggdalsdalen" />
		<tag k="ssr:date" v="2019-12-27" />
		<tag k="ssr:gruppe" v="veg" />
		<tag k="ssr:hovedgruppe" v="infrastruktur" />
		<tag k="ssr:stedsnr" v="1038160" />
		<tag k="ssr:type" v="adressenavn" />
	</node>
	<node lat="59.9765063345235" lon="5.584708193247756" id="-74131">
		<tag k="name" v="Solheimsdalen" />
		<tag k="ssr:date" v="2019-12-27" />
		<tag k="ssr:gruppe" v="veg" />
		<tag k="ssr:hovedgruppe" v="infrastruktur" />
		<tag k="ssr:stedsnr" v="1038163" />
		<tag k="ssr:type" v="adressenavn" />
	</node>
	<node lat="59.99873567362794" lon="5.497211367966183" id="-74132">
		<tag k="name" v="Øvregato" />
		<tag k="ssr:date" v="2019-12-27" />
		<tag k="ssr:gruppe" v="veg" />
		<tag k="ssr:hovedgruppe" v="infrastruktur" />
		<tag k="ssr:stedsnr" v="1038167" />
		<tag k="ssr:type" v="adressenavn" />
	</node>
	<node lat="59.997240367963585" lon="5.494102266725537" id="-74133">
		<tag k="name" v="Sauabakkane" />
		<tag k="ssr:date" v="2019-12-27" />
		<tag k="ssr:gruppe" v="veg" />
		<tag k="ssr:hovedgruppe" v="infrastruktur" />
		<tag k="ssr:stedsnr" v="1038170" />
		<tag k="ssr:type" v="adressenavn" />
	</node>
	<node lat="59.98157795163724" lon="5.4277103214026265" id="-74134">
		<tag k="name" v="Færavågvegen" />
		<tag k="ssr:date" v="2019-12-27" />
		<tag k="ssr:gruppe" v="veg" />
		<tag k="ssr:hovedgruppe" v="infrastruktur" />
		<tag k="ssr:stedsnr" v="1038173" />
		<tag k="ssr:type" v="adressenavn" />
	</node>
	<node lat="59.978969772232915" lon="5.424112589707184" id="-74135">
		<tag k="name" v="Bårdsundvegen" />
		<tag k="ssr:date" v="2019-12-27" />
		<tag k="ssr:gruppe" v="veg" />
		<tag k="ssr:hovedgruppe" v="infrastruktur" />
		<tag k="ssr:stedsnr" v="1038176" />
		<tag k="ssr:type" v="adressenavn" />
	</node>
	<node lat="60.00918042880132" lon="5.499942535101224" id="-74136">
		<tag k="name" v="Heiavegen" />
		<tag k="ssr:date" v="2019-12-27" />
		<tag k="ssr:gruppe" v="veg" />
		<tag k="ssr:hovedgruppe" v="infrastruktur" />
		<tag k="ssr:stedsnr" v="1038179" />
		<tag k="ssr:type" v="adressenavn" />
	</node>
	<node lat="59.98868305276023" lon="5.494092000262204" id="-74137">
		<tag k="name" v="Amlandsvegen" />
		<tag k="ssr:date" v="2019-12-27" />
		<tag k="ssr:gruppe" v="veg" />
		<tag k="ssr:hovedgruppe" v="infrastruktur" />
		<tag k="ssr:stedsnr" v="1038182" />
		<tag k="ssr:type" v="adressenavn" />
	</node>
	<node lat="60.058334752743434" lon="5.373512753504839" id="-74138">
		<tag k="name" v="Kaldafossvegen" />
		<tag k="ssr:date" v="2019-12-27" />
		<tag k="ssr:gruppe" v="veg" />
		<tag k="ssr:hovedgruppe" v="infrastruktur" />
		<tag k="ssr:stedsnr" v="1038185" />
		<tag k="ssr:type" v="adressenavn" />
	</node>
	<node lat="59.89983008086562" lon="5.645839316003943" id="-74139">
		<tag k="name" v="Flornesvegen" />
		<tag k="ssr:date" v="2019-12-27" />
		<tag k="ssr:gruppe" v="veg" />
		<tag k="ssr:hovedgruppe" v="infrastruktur" />
		<tag k="ssr:stedsnr" v="1038238" />
		<tag k="ssr:type" v="adressenavn" />
	</node>
	<node lat="59.991761002731394" lon="5.684619505077976" id="-74140">
		<tag k="name" v="Årbakkaheio" />
		<tag k="ssr:date" v="2019-12-27" />
		<tag k="ssr:gruppe" v="veg" />
		<tag k="ssr:hovedgruppe" v="infrastruktur" />
		<tag k="ssr:stedsnr" v="1038241" />
		<tag k="ssr:type" v="adressenavn" />
	</node>
	<node lat="59.93283325419937" lon="5.6301723812194036" id="-74141">
		<tag k="name" v="Elsåkerneset" />
		<tag k="ssr:date" v="2019-12-27" />
		<tag k="ssr:gruppe" v="veg" />
		<tag k="ssr:hovedgruppe" v="infrastruktur" />
		<tag k="ssr:stedsnr" v="1038244" />
		<tag k="ssr:type" v="adressenavn" />
	</node>
	<node lat="60.0415254573957" lon="5.5409165826855125" id="-74142">
		<tag k="name" v="Øvre Gjerstad" />
		<tag k="ssr:date" v="2019-12-27" />
		<tag k="ssr:gruppe" v="veg" />
		<tag k="ssr:hovedgruppe" v="infrastruktur" />
		<tag k="ssr:stedsnr" v="1038247" />
		<tag k="ssr:type" v="adressenavn" />
	</node>
	<node lat="60.0751729756909" lon="5.362115158043493" id="-74143">
		<tag k="name" v="Svarvahella" />
		<tag k="ssr:date" v="2019-12-27" />
		<tag k="ssr:gruppe" v="veg" />
		<tag k="ssr:hovedgruppe" v="infrastruktur" />
		<tag k="ssr:stedsnr" v="1038250" />
		<tag k="ssr:type" v="adressenavn" />
	</node>
	<node lat="60.039619632847" lon="5.535199334108803" id="-74144">
		<tag k="name" v="Geilavegen" />
		<tag k="ssr:date" v="2019-12-27" />
		<tag k="ssr:gruppe" v="veg" />
		<tag k="ssr:hovedgruppe" v="infrastruktur" />
		<tag k="ssr:stedsnr" v="1038253" />
		<tag k="ssr:type" v="adressenavn" />
	</node>
	<node lat="60.05039798244774" lon="5.63104483164563" id="-74145">
		<tag k="name" v="Lundavegen" />
		<tag k="ssr:date" v="2019-12-27" />
		<tag k="ssr:gruppe" v="veg" />
		<tag k="ssr:hovedgruppe" v="infrastruktur" />
		<tag k="ssr:stedsnr" v="1038256" />
		<tag k="ssr:type" v="adressenavn" />
	</node>
	<node lat="59.88983015583706" lon="5.558289609816416" id="-74146">
		<tag k="name" v="Hodnanesvegen" />
		<tag k="ssr:date" v="2019-12-27" />
		<tag k="ssr:gruppe" v="veg" />
		<tag k="ssr:hovedgruppe" v="infrastruktur" />
		<tag k="ssr:stedsnr" v="1038259" />
		<tag k="ssr:type" v="adressenavn" />
	</node>
	<node lat="59.93401367452798" lon="5.523498740908064" id="-74147">
		<tag k="name" v="Øyjordsvegen" />
		<tag k="ssr:date" v="2019-12-27" />
		<tag k="ssr:gruppe" v="veg" />
		<tag k="ssr:hovedgruppe" v="infrastruktur" />
		<tag k="ssr:stedsnr" v="1038262" />
		<tag k="ssr:type" v="adressenavn" />
	</node>
	<node lat="59.934566769641904" lon="5.528575060934801" id="-74148">
		<tag k="name" v="Øklandsvegen" />
		<tag k="ssr:date" v="2019-12-27" />
		<tag k="ssr:gruppe" v="veg" />
		<tag k="ssr:hovedgruppe" v="infrastruktur" />
		<tag k="ssr:stedsnr" v="1038265" />
		<tag k="ssr:type" v="adressenavn" />
	</node>
	<node lat="60.07409803397498" lon="5.6766377928346685" id="-74149">
		<tag k="name" v="Vikavegen" />
		<tag k="ssr:date" v="2019-12-27" />
		<tag k="ssr:gruppe" v="veg" />
		<tag k="ssr:hovedgruppe" v="infrastruktur" />
		<tag k="ssr:stedsnr" v="1038268" />
		<tag k="ssr:type" v="adressenavn" />
	</node>
	<node lat="60.05838724165749" lon="5.649364272688718" id="-74150">
		<tag k="name" v="Kattaland" />
		<tag k="ssr:date" v="2019-12-27" />
		<tag k="ssr:gruppe" v="veg" />
		<tag k="ssr:hovedgruppe" v="infrastruktur" />
		<tag k="ssr:stedsnr" v="1038272" />
		<tag k="ssr:type" v="adressenavn" />
	</node>
	<node lat="59.983450153669374" lon="5.577668487166143" id="-74151">
		<tag k="name" v="Singelstad" />
		<tag k="ssr:date" v="2019-12-27" />
		<tag k="ssr:gruppe" v="veg" />
		<tag k="ssr:hovedgruppe" v="infrastruktur" />
		<tag k="ssr:stedsnr" v="1038275" />
		<tag k="ssr:type" v="adressenavn" />
	</node>
	<node lat="60.058117956157254" lon="5.635950461799083" id="-74152">
		<tag k="name" v="Apalvikvegen" />
		<tag k="ssr:date" v="2019-12-27" />
		<tag k="ssr:gruppe" v="veg" />
		<tag k="ssr:hovedgruppe" v="infrastruktur" />
		<tag k="ssr:stedsnr" v="1038278" />
		<tag k="ssr:type" v="adressenavn" />
	</node>
	<node lat="59.93940493527632" lon="5.518210804936068" id="-74153">
		<tag k="name" v="Flatråkervegen" />
		<tag k="ssr:date" v="2019-12-27" />
		<tag k="ssr:gruppe" v="veg" />
		<tag k="ssr:hovedgruppe" v="infrastruktur" />
		<tag k="ssr:stedsnr" v="1038131" />
		<tag k="ssr:type" v="adressenavn" />
	</node>
	<node lat="59.94359637873077" lon="5.524389994843749" id="-74154">
		<tag k="name" v="Nordbustaddalen" />
		<tag k="ssr:date" v="2019-12-27" />
		<tag k="ssr:gruppe" v="veg" />
		<tag k="ssr:hovedgruppe" v="infrastruktur" />
		<tag k="ssr:stedsnr" v="1038134" />
		<tag k="ssr:type" v="adressenavn" />
	</node>
	<node lat="60.057197899569374" lon="5.362182659449222" id="-74155">
		<tag k="name" v="Søra Gjøvåg" />
		<tag k="ssr:date" v="2019-12-27" />
		<tag k="ssr:gruppe" v="veg" />
		<tag k="ssr:hovedgruppe" v="infrastruktur" />
		<tag k="ssr:stedsnr" v="1038188" />
		<tag k="ssr:type" v="adressenavn" />
	</node>
	<node lat="60.059771780274325" lon="5.409584550660848" id="-74156">
		<tag k="name" v="Eldholmsvegen" />
		<tag k="ssr:date" v="2019-12-27" />
		<tag k="ssr:gruppe" v="veg" />
		<tag k="ssr:hovedgruppe" v="infrastruktur" />
		<tag k="ssr:stedsnr" v="1038191" />
		<tag k="ssr:type" v="adressenavn" />
	</node>
	<node lat="60.07634807572051" lon="5.394298957675997" id="-74157">
		<tag k="name" v="Eldholmsvågen" />
		<tag k="ssr:date" v="2019-12-27" />
		<tag k="ssr:gruppe" v="veg" />
		<tag k="ssr:hovedgruppe" v="infrastruktur" />
		<tag k="ssr:stedsnr" v="1038194" />
		<tag k="ssr:type" v="adressenavn" />
	</node>
	<node lat="60.07196509027367" lon="5.672373738593762" id="-74158">
		<tag k="name" v="Svenavegen" />
		<tag k="ssr:date" v="2019-12-27" />
		<tag k="ssr:gruppe" v="veg" />
		<tag k="ssr:hovedgruppe" v="infrastruktur" />
		<tag k="ssr:stedsnr" v="1038197" />
		<tag k="ssr:type" v="adressenavn" />
	</node>
	<node lat="60.043123763912405" lon="5.554825963787219" id="-74159">
		<tag k="name" v="Stora Gjersvik" />
		<tag k="ssr:date" v="2019-12-27" />
		<tag k="ssr:gruppe" v="veg" />
		<tag k="ssr:hovedgruppe" v="infrastruktur" />
		<tag k="ssr:stedsnr" v="1038200" />
		<tag k="ssr:type" v="adressenavn" />
	</node>
	<node lat="59.919830285837506" lon="5.645617164476821" id="-74160">
		<tag k="name" v="Østerspollen" />
		<tag k="ssr:date" v="2019-12-27" />
		<tag k="ssr:gruppe" v="veg" />
		<tag k="ssr:hovedgruppe" v="infrastruktur" />
		<tag k="ssr:stedsnr" v="1038203" />
		<tag k="ssr:type" v="adressenavn" />
	</node>
	<node lat="60.07503946854766" lon="5.675506617925087" id="-74161">
		<tag k="name" v="Oterurane" />
		<tag k="ssr:date" v="2019-12-27" />
		<tag k="ssr:gruppe" v="veg" />
		<tag k="ssr:hovedgruppe" v="infrastruktur" />
		<tag k="ssr:stedsnr" v="1038206" />
		<tag k="ssr:type" v="adressenavn" />
	</node>
	<node lat="60.0308457135252" lon="5.4344704026697395" id="-74162">
		<tag k="name" v="Gjellandsvegen" />
		<tag k="ssr:date" v="2019-12-27" />
		<tag k="ssr:gruppe" v="veg" />
		<tag k="ssr:hovedgruppe" v="infrastruktur" />
		<tag k="ssr:stedsnr" v="1038209" />
		<tag k="ssr:type" v="adressenavn" />
	</node>
	<node lat="60.02065166756359" lon="5.4055076702274105" id="-74163">
		<tag k="name" v="Haukafærvågen" />
		<tag k="ssr:date" v="2019-12-27" />
		<tag k="ssr:gruppe" v="veg" />
		<tag k="ssr:hovedgruppe" v="infrastruktur" />
		<tag k="ssr:stedsnr" v="1038214" />
		<tag k="ssr:type" v="adressenavn" />
	</node>
	<node lat="60.02119766458987" lon="5.433947507857637" id="-74164">
		<tag k="name" v="Ersværvågen" />
		<tag k="ssr:date" v="2019-12-27" />
		<tag k="ssr:gruppe" v="veg" />
		<tag k="ssr:hovedgruppe" v="infrastruktur" />
		<tag k="ssr:stedsnr" v="1038217" />
		<tag k="ssr:type" v="adressenavn" />
	</node>
	<node lat="60.05977611819877" lon="5.414224797935357" id="-74165">
		<tag k="name" v="Hopssundvegen" />
		<tag k="ssr:date" v="2019-12-27" />
		<tag k="ssr:gruppe" v="veg" />
		<tag k="ssr:hovedgruppe" v="infrastruktur" />
		<tag k="ssr:stedsnr" v="1038220" />
		<tag k="ssr:type" v="adressenavn" />
	</node>
	<node lat="60.06886327684091" lon="5.431733009732261" id="-74166">
		<tag k="name" v="Vernøyvegen" />
		<tag k="ssr:date" v="2019-12-27" />
		<tag k="ssr:gruppe" v="veg" />
		<tag k="ssr:hovedgruppe" v="infrastruktur" />
		<tag k="ssr:stedsnr" v="1038223" />
		<tag k="ssr:type" v="adressenavn" />
	</node>
	<node lat="60.05977611819877" lon="5.414224797935357" id="-74167">
		<tag k="name" v="Gjøvågsvegen" />
		<tag k="ssr:date" v="2019-12-27" />
		<tag k="ssr:gruppe" v="veg" />
		<tag k="ssr:hovedgruppe" v="infrastruktur" />
		<tag k="ssr:stedsnr" v="1038226" />
		<tag k="ssr:type" v="adressenavn" />
	</node>
	<node lat="60.040663539425466" lon="5.432659992896935" id="-74168">
		<tag k="name" v="Raftåsvegen" />
		<tag k="ssr:date" v="2019-12-27" />
		<tag k="ssr:gruppe" v="veg" />
		<tag k="ssr:hovedgruppe" v="infrastruktur" />
		<tag k="ssr:stedsnr" v="1038229" />
		<tag k="ssr:type" v="adressenavn" />
	</node>
	<node lat="59.98928802784569" lon="5.686594819001338" id="-74169">
		<tag k="name" v="Årbakkahagen" />
		<tag k="ssr:date" v="2019-12-27" />
		<tag k="ssr:gruppe" v="veg" />
		<tag k="ssr:hovedgruppe" v="infrastruktur" />
		<tag k="ssr:stedsnr" v="1038232" />
		<tag k="ssr:type" v="adressenavn" />
	</node>
	<node lat="59.92470377196752" lon="5.636382949064474" id="-74170">
		<tag k="name" v="Nyborg" />
		<tag k="ssr:date" v="2019-12-27" />
		<tag k="ssr:gruppe" v="veg" />
		<tag k="ssr:hovedgruppe" v="infrastruktur" />
		<tag k="ssr:stedsnr" v="1038235" />
		<tag k="ssr:type" v="adressenavn" />
	</node>
	<node lat="60.38666587132831" lon="5.332557531214444" id="-74171">
		<tag k="name" v="Vestland fylke" />
		<tag k="ssr:date" v="2022-01-03" />
		<tag k="ssr:gruppe" v="administrativeIndelinger" />
		<tag k="ssr:hovedgruppe" v="offentligAdministrasjon" />
		<tag k="ssr:stedsnr" v="1074408" />
		<tag k="ssr:type" v="fylke" />
	</node>
</osm>
