<?xml version="1.0" encoding="UTF-8"?>
<osm generator="osmapis" version="0.6">
	<node id="-619520" lat="60.5088388923" lon="6.42359999718">
		<tag k="name" v="Fossteino" />
		<tag k="natural" v="stone" />
		<tag k="ssr:stedsnr" v="591554" />
	</node>
	<node id="-615422" lat="60.9036666694" lon="6.73992221807">
		<tag k="name" v="Krusamyri" />
		<tag k="natural" v="wetland" />
		<tag k="ssr:stedsnr" v="470143" />
	</node>
	<node id="-616445" lat="60.616513885" lon="6.15220555134">
		<tag k="name" v="Hagen" />
		<tag k="place" v="locality" />
		<tag k="ssr:stedsnr" v="734173" />
	</node>
	<node id="-620027" lat="60.8258555553" lon="6.40426388371">
		<tag k="name" v="Hiuri" />
		<tag k="natural" v="scree" />
		<tag k="ssr:stedsnr" v="797505" />
	</node>
	<node id="-619000" lat="60.9015388857" lon="6.70050277728">
		<tag k="name" v="Haugamyrane" />
		<tag k="natural" v="wetland" />
		<tag k="ssr:stedsnr" v="409214" />
	</node>
	<node id="-616950" lat="60.6231499999" lon="5.93095000378">
		<tag k="name" v="Vetlesløken" />
		<tag k="natural" v="wetland" />
		<tag k="ssr:stedsnr" v="795213" />
	</node>
	<node id="-618482" lat="60.6717166684" lon="6.226425007">
		<tag k="historic" v="shieling" />
		<tag k="name" v="Fljote" />
		<tag k="place" v="locality" />
		<tag k="ssr:stedsnr" v="309336" />
	</node>
	<node id="-616945" lat="60.6754777781" lon="6.00173888092">
		<tag k="historic" v="shieling" />
		<tag k="name" v="Rørgostølen" />
		<tag k="place" v="locality" />
		<tag k="ssr:stedsnr" v="795007" />
	</node>
	<node id="-618992" lat="60.8491055577" lon="6.71208334169">
		<tag k="name" v="Bjørnamyri" />
		<tag k="natural" v="wetland" />
		<tag k="ssr:stedsnr" v="409011" />
	</node>
	<node id="-617511" lat="60.5638166662" lon="6.69360832699">
		<tag k="name" v="Nesheimshagen" />
		<tag k="place" v="locality" />
		<tag k="ssr:stedsnr" v="7864" />
	</node>
	<node id="-614893" lat="60.5838916637" lon="6.49211110561">
		<tag k="name" v="Demmo" />
		<tag k="natural" v="wetland" />
		<tag k="ssr:stedsnr" v="250664" />
	</node>
	<node id="-618988" lat="60.6775972265" lon="6.45108888826">
		<tag k="name" v="Katturane" />
		<tag k="natural" v="scree" />
		<tag k="ssr:stedsnr" v="409346" />
	</node>
	<node id="-616939" lat="60.9358638921" lon="6.70833333951">
		<tag k="name" v="Gråsteinane" />
		<tag k="natural" v="stone" />
		<tag k="ssr:stedsnr" v="919884" />
	</node>
	<node id="-616938" lat="60.9394305586" lon="6.70351666112">
		<tag k="historic" v="shieling" />
		<tag k="name" v="Salen" />
		<tag k="place" v="locality" />
		<tag k="ssr:stedsnr" v="919878" />
	</node>
	<node id="-614888" lat="60.5914249964" lon="6.34345834056">
		<tag k="historic" v="shieling" />
		<tag k="name" v="Rapjane" />
		<tag k="place" v="locality" />
		<tag k="ssr:stedsnr" v="250642" />
	</node>
	<node id="-618983" lat="60.7002805562" lon="6.72515555769">
		<tag k="name" v="Langamyri" />
		<tag k="natural" v="wetland" />
		<tag k="ssr:stedsnr" v="409290" />
	</node>
	<node id="-618981" lat="60.461836107" lon="6.63212499419">
		<tag k="name" v="Matur" />
		<tag k="natural" v="scree" />
		<tag k="old_name" v="Maturd" />
		<tag k="ssr:stedsnr" v="408240" />
	</node>
	<node id="-619492" lat="60.6777111108" lon="6.67458888784">
		<tag k="name" v="Vetramyri" />
		<tag k="natural" v="wetland" />
		<tag k="ssr:stedsnr" v="591167" />
	</node>
	<node id="-617955" lat="60.638933332" lon="6.52113889303">
		<tag k="landuse" v="quarry" />
		<tag k="name" v="Bjørke sandtak" />
		<tag k="ssr:stedsnr" v="107382" />
	</node>
	<node id="-617952" lat="60.6835666627" lon="6.59216666424">
		<tag k="name" v="Årstræmyri" />
		<tag k="natural" v="wetland" />
		<tag k="ssr:stedsnr" v="107326" />
	</node>
	<node id="-616927" lat="60.7962583307" lon="6.47634444556">
		<tag k="name" v="Storemyri" />
		<tag k="natural" v="wetland" />
		<tag k="ssr:stedsnr" v="918996" />
	</node>
	<node id="-614877" lat="60.6544694411" lon="6.30986944715">
		<tag k="name" v="Grønemyri" />
		<tag k="natural" v="wetland" />
		<tag k="ssr:stedsnr" v="81937" />
	</node>
	<node id="-619846" lat="60.6117361113" lon="6.20775555844">
		<tag k="name" v="Øykjadalsmyri" />
		<tag k="natural" v="wetland" />
		<tag k="ssr:stedsnr" v="749239" />
	</node>
	<node id="-618967" lat="60.4717222249" lon="6.73856666684">
		<tag k="name" v="Jordbærsteinane" />
		<tag k="natural" v="stone" />
		<tag k="ssr:stedsnr" v="402731" />
	</node>
	<node id="-615894" lat="60.6477444477" lon="6.21432500666">
		<tag k="name" v="Mjølstølsteigen" />
		<tag k="place" v="locality" />
		<tag k="ssr:stedsnr" v="445114" />
	</node>
	<node id="-618963" lat="60.6811583324" lon="6.3468805621">
		<tag k="name" v="Lausesteinen" />
		<tag k="natural" v="stone" />
		<tag k="ssr:stedsnr" v="385955" />
	</node>
	<node id="-617426" lat="60.6637666668" lon="6.34381388437">
		<tag k="name" v="Hellersmyrane" />
		<tag k="natural" v="wetland" />
		<tag k="ssr:stedsnr" v="6313" />
	</node>
	<node id="-616401" lat="60.6365055564" lon="6.2939777806">
		<tag k="name" v="Kjeaset" />
		<tag k="place" v="locality" />
		<tag k="ssr:stedsnr" v="627081" />
	</node>
	<node id="-619984" lat="60.7033611084" lon="6.12062499176">
		<tag k="name" v="Furuteigen" />
		<tag k="place" v="locality" />
		<tag k="ssr:stedsnr" v="795525" />
	</node>
	<node id="-616952" lat="60.6239055594" lon="6.06005555975">
		<tag k="name" v="Hernesløkene" />
		<tag k="natural" v="wetland" />
		<tag k="ssr:stedsnr" v="795223" />
	</node>
	<node id="-617934" lat="60.5757027761" lon="6.4581222215">
		<tag k="name" v="Rjoateigen" />
		<tag k="place" v="locality" />
		<tag k="ssr:stedsnr" v="106786" />
	</node>
	<node id="-615372" lat="60.6663472205" lon="6.77213610532">
		<tag k="historic" v="shieling" />
		<tag k="name" v="Vetleheggstølen" />
		<tag k="place" v="locality" />
		<tag k="ssr:stedsnr" v="288205" />
	</node>
	<node id="-617417" lat="60.6262027823" lon="6.11683055923">
		<tag k="historic" v="shieling" />
		<tag k="name" v="Nyestølen" />
		<tag k="place" v="locality" />
		<tag k="ssr:stedsnr" v="6204" />
	</node>
	<node id="-617415" lat="60.6194194443" lon="6.02632499289">
		<tag k="historic" v="shieling" />
		<tag k="name" v="Nakkastølen" />
		<tag k="place" v="locality" />
		<tag k="ssr:stedsnr" v="6197" />
	</node>
	<node id="-617926" lat="60.6823333331" lon="6.46681110376">
		<tag k="name" v="Otersteinen" />
		<tag k="natural" v="stone" />
		<tag k="ssr:stedsnr" v="106479" />
	</node>
	<node id="-618949" lat="60.6566138928" lon="6.33808333333">
		<tag k="name" v="Blokkemyri" />
		<tag k="natural" v="wetland" />
		<tag k="ssr:stedsnr" v="384907" />
	</node>
	<node id="-616438" lat="60.656022224" lon="5.99353889193">
		<tag k="name" v="Fuglamyrane" />
		<tag k="natural" v="wetland" />
		<tag k="ssr:stedsnr" v="734046" />
	</node>
	<node id="-618432" lat="60.6419472181" lon="5.99662499421">
		<tag k="name" v="Skredene" />
		<tag k="natural" v="scree" />
		<tag k="ssr:stedsnr" v="203699" />
	</node>
	<node id="-616383" lat="60.8099833359" lon="6.63364166195">
		<tag k="historic" v="shieling" />
		<tag k="name" v="Ørnagard" />
		<tag k="place" v="locality" />
		<tag k="ssr:stedsnr" v="615772" />
	</node>
	<node id="-614645" lat="60.5110250038" lon="6.69013611454">
		<tag k="name" v="Bruresengi" />
		<tag k="place" v="locality" />
		<tag k="ssr:stedsnr" v="226561" />
	</node>
	<node id="-616380" lat="60.8187916686" lon="6.6248972203">
		<tag k="historic" v="shieling" />
		<tag k="name" v="Breng" />
		<tag k="place" v="locality" />
		<tag k="ssr:stedsnr" v="615763" />
	</node>
	<node id="-619450" lat="60.5724361135" lon="6.80674721952">
		<tag k="name" v="Gråurane" />
		<tag k="natural" v="scree" />
		<tag k="ssr:stedsnr" v="584892" />
	</node>
	<node id="-618425" lat="60.6061305551" lon="5.99888055955">
		<tag k="name" v="Storemyri" />
		<tag k="natural" v="wetland" />
		<tag k="ssr:stedsnr" v="203661" />
	</node>
	<node id="-617912" lat="60.6024666625" lon="6.45135555161">
		<tag k="alt_name" v="Himleshagen" />
		<tag k="name" v="Himleshagane" />
		<tag k="place" v="locality" />
		<tag k="ssr:stedsnr" v="107655" />
	</node>
	<node id="-616887" lat="60.5416361107" lon="6.09755000891">
		<tag k="name" v="Kvanngjelsmyri" />
		<tag k="natural" v="wetland" />
		<tag k="ssr:stedsnr" v="916850" />
	</node>
	<node id="-619958" lat="60.5957444427" lon="6.06406111009">
		<tag k="name" v="Løkene" />
		<tag k="natural" v="wetland" />
		<tag k="ssr:stedsnr" v="795287" />
	</node>
	<node id="-617909" lat="60.696083332" lon="6.68938610808">
		<tag k="name" v="Flekamyri" />
		<tag k="natural" v="wetland" />
		<tag k="ssr:stedsnr" v="106303" />
	</node>
	<node id="-619444" lat="60.4683416705" lon="6.72722221644">
		<tag k="name" v="Storsteinsmyri" />
		<tag k="natural" v="wetland" />
		<tag k="ssr:stedsnr" v="584696" />
	</node>
	<node id="-616879" lat="60.7159583293" lon="6.14838333813">
		<tag k="historic" v="shieling" />
		<tag k="name" v="Tostølen" />
		<tag k="place" v="locality" />
		<tag k="ssr:stedsnr" v="916449" />
	</node>
	<node id="-620189" lat="60.6580750044" lon="6.02277778523">
		<tag k="name" v="Storemyri" />
		<tag k="natural" v="wetland" />
		<tag k="ssr:stedsnr" v="856045" />
	</node>
	<node id="-614898" lat="60.5615222178" lon="6.6802194432">
		<tag k="name" v="Urdalsskreda" />
		<tag k="natural" v="scree" />
		<tag k="ssr:stedsnr" v="250844" />
	</node>
	<node id="-618469" lat="60.6494194487" lon="5.86087499675">
		<tag k="historic" v="shieling" />
		<tag k="name" v="Hermundsdalsstølen" />
		<tag k="place" v="locality" />
		<tag k="ssr:stedsnr" v="309082" />
	</node>
	<node id="-618408" lat="60.6164027765" lon="6.13748888381">
		<tag k="name" v="Køyta" />
		<tag k="natural" v="wetland" />
		<tag k="ssr:stedsnr" v="203273" />
	</node>
	<node id="-615335" lat="60.6169055538" lon="6.19156388037">
		<tag k="name" v="Tjørnamyrane" />
		<tag k="natural" v="wetland" />
		<tag k="ssr:stedsnr" v="446260" />
	</node>
	<node id="-615332" lat="60.6240444473" lon="6.26383610628">
		<tag k="name" v="Skjeldahagen" />
		<tag k="place" v="locality" />
		<tag k="ssr:stedsnr" v="446253" />
	</node>
	<node id="-618915" lat="60.6391277777" lon="6.2211527722">
		<tag k="name" v="Kalvhagen" />
		<tag k="place" v="locality" />
		<tag k="ssr:stedsnr" v="384142" />
	</node>
	<node id="-618914" lat="60.6415138917" lon="6.21544444311">
		<tag k="name" v="Bjørndalsteigen" />
		<tag k="place" v="locality" />
		<tag k="ssr:stedsnr" v="384139" />
	</node>
	<node id="-615838" lat="60.712588887" lon="6.73684167257">
		<tag k="name" v="Fellesteinen" />
		<tag k="natural" v="stone" />
		<tag k="ssr:stedsnr" v="409307" />
	</node>
	<node id="-615493" lat="60.5291194469" lon="6.46726944115">
		<tag k="name" v="Kolamyri" />
		<tag k="natural" v="wetland" />
		<tag k="ssr:stedsnr" v="470801" />
	</node>
	<node id="-617884" lat="60.8354361141" lon="6.62716389431">
		<tag k="name" v="Fyrdesteinane" />
		<tag k="natural" v="stone" />
		<tag k="ssr:stedsnr" v="105888" />
	</node>
	<node id="-619419" lat="60.6581305546" lon="6.35032777922">
		<tag k="name" v="Hovdamyrane" />
		<tag k="natural" v="wetland" />
		<tag k="ssr:stedsnr" v="566924" />
	</node>
	<node id="-615834" lat="60.5633444432" lon="6.73865833861">
		<tag k="name" v="Øyjordi" />
		<tag k="place" v="locality" />
		<tag k="ssr:stedsnr" v="403813" />
	</node>
	<node id="-619929" lat="60.5179777788" lon="6.49680556298">
		<tag k="alt_name" v="Rongateigane" />
		<tag k="name" v="Rangateigane" />
		<tag k="place" v="locality" />
		<tag k="ssr:stedsnr" v="774632" />
	</node>
	<node id="-615320" lat="60.6423055597" lon="6.17909721555">
		<tag k="name" v="Ospeflaten" />
		<tag k="place" v="locality" />
		<tag k="ssr:stedsnr" v="446131" />
	</node>
	<node id="-615748" lat="60.5965638867" lon="6.26946388025">
		<tag k="name" v="Lurren" />
		<tag k="natural" v="stone" />
		<tag k="ssr:stedsnr" v="385058" />
	</node>
	<node id="-615150" lat="60.5204672388" lon="6.47695574342">
		<tag k="historic" v="shieling" />
		<tag k="loc_name" v="Stakkstøet" />
		<tag k="name" v="Stakkstølen" />
		<tag k="place" v="locality" />
		<tag k="ssr:stedsnr" v="167817" />
	</node>
	<node id="-618383" lat="60.5995000015" lon="6.33248889453">
		<tag k="name" v="Vetlestølsmyri" />
		<tag k="natural" v="wetland" />
		<tag k="ssr:stedsnr" v="202903" />
	</node>
	<node id="-618382" lat="60.8105861134" lon="6.63366111597">
		<tag k="name" v="Orreskogane" />
		<tag k="place" v="locality" />
		<tag k="ssr:stedsnr" v="202255" />
	</node>
	<node id="-617353" lat="60.6282805588" lon="6.35352777805">
		<tag k="name" v="Vegmyri" />
		<tag k="natural" v="wetland" />
		<tag k="ssr:stedsnr" v="931915" />
	</node>
	<node id="-617964" lat="60.597524999" lon="6.4054111062">
		<tag k="name" v="Godmyri" />
		<tag k="natural" v="wetland" />
		<tag k="ssr:stedsnr" v="107653" />
	</node>
	<node id="-619397" lat="60.8291361129" lon="6.68155556268">
		<tag k="name" v="Stalheimshagen" />
		<tag k="place" v="locality" />
		<tag k="ssr:stedsnr" v="566380" />
	</node>
	<node id="-617348" lat="60.7239222213" lon="6.11134166789">
		<tag k="name" v="Stølsmyri" />
		<tag k="natural" v="wetland" />
		<tag k="ssr:stedsnr" v="931533" />
	</node>
	<node id="-618371" lat="60.6130833322" lon="6.26036943625">
		<tag k="name" v="Vetlastølsmyri" />
		<tag k="natural" v="wetland" />
		<tag k="ssr:stedsnr" v="203044" />
	</node>
	<node id="-616427" lat="60.6622472216" lon="6.3164416703">
		<tag k="name" v="Munkasteinen" />
		<tag k="natural" v="stone" />
		<tag k="ssr:stedsnr" v="627954" />
	</node>
	<node id="-619392" lat="60.8537333291" lon="6.43922500446">
		<tag k="name" v="Geituri" />
		<tag k="natural" v="scree" />
		<tag k="ssr:stedsnr" v="566366" />
	</node>
	<node id="-616317" lat="60.6158722259" lon="6.45287222903">
		<tag k="name" v="Perstveiti" />
		<tag k="place" v="locality" />
		<tag k="ssr:stedsnr" v="713547" />
	</node>
	<node id="-618875" lat="60.6209027781" lon="6.60676667487">
		<tag k="name" v="Svartadiket" />
		<tag k="natural" v="wetland" />
		<tag k="ssr:stedsnr" v="371900" />
	</node>
	<node id="-616314" lat="60.6207388867" lon="6.45236388161">
		<tag k="name" v="Rongveshagane" />
		<tag k="place" v="locality" />
		<tag k="ssr:stedsnr" v="713528" />
	</node>
	<node id="-619385" lat="60.8160583293" lon="6.56553055178">
		<tag k="name" v="Giljaslåttene" />
		<tag k="place" v="locality" />
		<tag k="ssr:stedsnr" v="566287" />
	</node>
	<node id="-617334" lat="60.6425277736" lon="6.26101388278">
		<tag k="name" v="Espelandstræet" />
		<tag k="place" v="locality" />
		<tag k="ssr:stedsnr" v="931027" />
	</node>
	<node id="-615795" lat="60.6398500008" lon="5.95479723066">
		<tag k="name" v="Øyri" />
		<tag k="place" v="locality" />
		<tag k="ssr:stedsnr" v="506661" />
	</node>
	<node id="-619890" lat="60.7366583346" lon="6.67449722331">
		<tag k="historic" v="shieling" />
		<tag k="name" v="Fjellset" />
		<tag k="place" v="locality" />
		<tag k="ssr:stedsnr" v="773243" />
	</node>
	<node id="-616595" lat="60.5373416685" lon="6.39942499302">
		<tag k="name" v="Raudskreduna" />
		<tag k="natural" v="scree" />
		<tag k="ssr:stedsnr" v="674618" />
	</node>
	<node id="-618864" lat="60.550011107" lon="6.33196665813">
		<tag k="name" v="Timeglaset" />
		<tag k="natural" v="stone" />
		<tag k="ssr:stedsnr" v="371586" />
	</node>
	<node id="-619375" lat="60.6258583361" lon="6.26989443924">
		<tag k="name" v="Storamyri" />
		<tag k="natural" v="wetland" />
		<tag k="ssr:stedsnr" v="566215" />
	</node>
	<node id="-619374" lat="60.6195416689" lon="6.20235000494">
		<tag k="name" v="Hola" />
		<tag k="natural" v="wetland" />
		<tag k="ssr:stedsnr" v="566205" />
	</node>
	<node id="-616813" lat="60.5636111143" lon="6.68069166966">
		<tag k="name" v="Urdals Skreda" />
		<tag k="natural" v="scree" />
		<tag k="ssr:stedsnr" v="766930" />
	</node>
	<node id="-616300" lat="60.6625444435" lon="6.71383888523">
		<tag k="historic" v="shieling" />
		<tag k="name" v="Hermannsstølen" />
		<tag k="place" v="locality" />
		<tag k="ssr:stedsnr" v="713242" />
	</node>
	<node id="-615784" lat="60.6157388917" lon="6.17262222371">
		<tag k="name" v="Øykjadalsmyri" />
		<tag k="natural" v="wetland" />
		<tag k="ssr:stedsnr" v="506210" />
	</node>
	<node id="-619416" lat="60.6605222207" lon="5.90062222824">
		<tag k="name" v="Utløbøen" />
		<tag k="place" v="locality" />
		<tag k="ssr:stedsnr" v="566878" />
	</node>
	<node id="-619877" lat="60.6081583303" lon="6.72160556194">
		<tag k="name" v="Budeiemyri" />
		<tag k="natural" v="wetland" />
		<tag k="ssr:stedsnr" v="767833" />
	</node>
	<node id="-614756" lat="60.5346250019" lon="6.68117499669">
		<tag k="name" v="Storemyr" />
		<tag k="natural" v="wetland" />
		<tag k="ssr:stedsnr" v="67801" />
	</node>
	<node id="-617275" lat="60.6400250006" lon="6.13109444439">
		<tag k="historic" v="shieling" />
		<tag k="name" v="Kvilekvålstølen" />
		<tag k="place" v="locality" />
		<tag k="ssr:stedsnr" v="916119" />
	</node>
	<node id="-619358" lat="60.6486861122" lon="6.23595555046">
		<tag k="name" v="Øyane" />
		<tag k="place" v="locality" />
		<tag k="ssr:stedsnr" v="566019" />
	</node>
	<node id="-619493" lat="60.6809555538" lon="6.66143889344">
		<tag k="name" v="Øvrehagen" />
		<tag k="place" v="locality" />
		<tag k="ssr:stedsnr" v="591185" />
	</node>
	<node id="-619356" lat="60.6589416675" lon="6.1822888976">
		<tag k="name" v="Svartemyrane" />
		<tag k="natural" v="wetland" />
		<tag k="ssr:stedsnr" v="566008" />
	</node>
	<node id="-619355" lat="60.6530361087" lon="6.20027222009">
		<tag k="name" v="Lausesteinen" />
		<tag k="natural" v="stone" />
		<tag k="ssr:stedsnr" v="566007" />
	</node>
	<node id="-615770" lat="60.8494611094" lon="6.51884443742">
		<tag k="name" v="Gråsteinane" />
		<tag k="natural" v="stone" />
		<tag k="ssr:stedsnr" v="506361" />
	</node>
	<node id="-616793" lat="60.6261555558" lon="6.26246110964">
		<tag k="name" v="Graskjelda" />
		<tag k="natural" v="wetland" />
		<tag k="ssr:stedsnr" v="749231" />
	</node>
	<node id="-619352" lat="60.7847388858" lon="6.54463332562">
		<tag k="historic" v="shieling" />
		<tag k="name" v="Fjellet" />
		<tag k="place" v="locality" />
		<tag k="ssr:stedsnr" v="554981" />
	</node>
	<node id="-615767" lat="60.8105861085" lon="6.59498610388">
		<tag k="name" v="Holemyri" />
		<tag k="natural" v="wetland" />
		<tag k="ssr:stedsnr" v="506296" />
	</node>
	<node id="-619861" lat="60.604655553" lon="6.18974167002">
		<tag k="name" v="Gilbakkamarki" />
		<tag k="place" v="locality" />
		<tag k="ssr:stedsnr" v="749963" />
	</node>
	<node id="-616788" lat="60.6308222189" lon="6.31887222737">
		<tag k="landuse" v="meadow" />
		<tag k="name" v="Vekahagen" />
		<tag k="ssr:stedsnr" v="749071" />
	</node>
	<node id="-615763" lat="60.5992055596" lon="6.23657221499">
		<tag k="name" v="Sausmyrane" />
		<tag k="natural" v="wetland" />
		<tag k="ssr:stedsnr" v="506042" />
	</node>
	<node id="-617298" lat="60.6404083308" lon="6.37895000885">
		<tag k="name" v="Finnesdemma" />
		<tag k="natural" v="wetland" />
		<tag k="ssr:stedsnr" v="917206" />
	</node>
	<node id="-614737" lat="60.6368027747" lon="6.21654443806">
		<tag k="name" v="Røysmyri" />
		<tag k="natural" v="wetland" />
		<tag k="ssr:stedsnr" v="67123" />
	</node>
	<node id="-619856" lat="60.6380749971" lon="6.00976945169">
		<tag k="name" v="Stølsmarki" />
		<tag k="place" v="locality" />
		<tag k="ssr:stedsnr" v="749689" />
	</node>
	<node id="-616504" lat="60.6256611071" lon="6.45319165805">
		<tag k="name" v="Storehagen" />
		<tag k="place" v="locality" />
		<tag k="ssr:stedsnr" v="651870" />
	</node>
	<node id="-616782" lat="60.6486388927" lon="6.22387222415">
		<tag k="name" v="Stokkamyri" />
		<tag k="natural" v="wetland" />
		<tag k="ssr:stedsnr" v="749107" />
	</node>
	<node id="-618829" lat="60.6851249988" lon="6.08204443675">
		<tag k="historic" v="shieling" />
		<tag k="name" v="Flansåsstølen" />
		<tag k="place" v="locality" />
		<tag k="ssr:stedsnr" v="370547" />
	</node>
	<node id="-618682" lat="60.4581888868" lon="6.72770277445">
		<tag k="name" v="Strykkedalsmyri" />
		<tag k="natural" v="wetland" />
		<tag k="ssr:stedsnr" v="341745" />
	</node>
	<node id="-615755" lat="60.6336583334" lon="6.20281665912">
		<tag k="name" v="Ho" />
		<tag k="place" v="locality" />
		<tag k="ssr:stedsnr" v="506139" />
	</node>
	<node id="-617271" lat="60.6678333378" lon="6.20865833996">
		<tag k="historic" v="shieling" />
		<tag k="name" v="Fjelastølen" />
		<tag k="place" v="locality" />
		<tag k="ssr:stedsnr" v="916010" />
	</node>
	<node id="-617100" lat="60.6787194424" lon="6.66207500035">
		<tag k="name" v="Nedrehagen" />
		<tag k="place" v="locality" />
		<tag k="ssr:stedsnr" v="834225" />
	</node>
	<node id="-620358" lat="60.5302833352" lon="6.47671944158">
		<tag k="name" v="Gjellandsteigen" />
		<tag k="place" v="locality" />
		<tag k="ssr:stedsnr" v="955952" />
	</node>
	<node id="-616260" lat="60.6577361109" lon="6.56747222809">
		<tag k="name" v="Orrehjellsmyri" />
		<tag k="natural" v="wetland" />
		<tag k="ssr:stedsnr" v="591340" />
	</node>
	<node id="-616259" lat="60.6898472189" lon="6.58817222403">
		<tag k="historic" v="shieling" />
		<tag k="name" v="Vetlestølen" />
		<tag k="place" v="locality" />
		<tag k="ssr:stedsnr" v="591306" />
	</node>
	<node id="-615745" lat="60.6070666706" lon="6.32291387959">
		<tag k="name" v="Storemyri" />
		<tag k="natural" v="wetland" />
		<tag k="ssr:stedsnr" v="384882" />
	</node>
	<node id="-619837" lat="60.6027416697" lon="6.36402500496">
		<tag k="name" v="Kvålsteigen" />
		<tag k="place" v="locality" />
		<tag k="ssr:stedsnr" v="748891" />
	</node>
	<node id="-617787" lat="60.8946777809" lon="6.72553888277">
		<tag k="name" v="Haugamyrane" />
		<tag k="natural" v="wetland" />
		<tag k="ssr:stedsnr" v="69866" />
	</node>
	<node id="-619834" lat="60.6498055552" lon="6.15095554964">
		<tag k="name" v="Hagen" />
		<tag k="place" v="locality" />
		<tag k="ssr:stedsnr" v="748747" />
	</node>
	<node id="-614712" lat="60.4485972228" lon="6.64963611347">
		<tag k="name" v="Hagen" />
		<tag k="place" v="locality" />
		<tag k="ssr:stedsnr" v="39703" />
	</node>
	<node id="-619319" lat="60.5392361138" lon="6.76885555533">
		<tag k="name" v="Leiken" />
		<tag k="natural" v="wetland" />
		<tag k="ssr:stedsnr" v="553791" />
	</node>
	<node id="-618806" lat="60.6039500027" lon="6.00180277302">
		<tag k="historic" v="shieling" />
		<tag k="name" v="Gamlestølen" />
		<tag k="place" v="locality" />
		<tag k="ssr:stedsnr" v="370274" />
	</node>
	<node id="-615817" lat="60.6438111132" lon="6.3522444384">
		<tag k="name" v="Moltemyri" />
		<tag k="natural" v="wetland" />
		<tag k="ssr:stedsnr" v="506962" />
	</node>
	<node id="-618799" lat="60.63164167" lon="6.11592777436">
		<tag k="name" v="Kalvhagen" />
		<tag k="place" v="locality" />
		<tag k="ssr:stedsnr" v="370185" />
	</node>
	<node id="-616236" lat="60.4641611117" lon="6.66382777972">
		<tag k="name" v="Hamreskredane" />
		<tag k="natural" v="scree" />
		<tag k="ssr:stedsnr" v="706746" />
	</node>
	<node id="-615559" lat="60.5009638902" lon="6.70159444828">
		<tag k="name" v="Selstodskreda" />
		<tag k="natural" v="scree" />
		<tag k="ssr:stedsnr" v="552025" />
	</node>
	<node id="-615576" lat="60.6430777799" lon="5.88266944919">
		<tag k="name" v="Gotna" />
		<tag k="natural" v="wetland" />
		<tag k="ssr:stedsnr" v="491077" />
	</node>
	<node id="-615204" lat="60.6456527772" lon="6.50092778468">
		<tag k="name" v="Hagen" />
		<tag k="place" v="locality" />
		<tag k="ssr:stedsnr" v="288413" />
	</node>
	<node id="-614691" lat="60.5935527795" lon="6.41029443638">
		<tag k="name" v="Gråurane" />
		<tag k="natural" v="scree" />
		<tag k="ssr:stedsnr" v="228712" />
	</node>
	<node id="-614619" lat="60.5548444469" lon="6.76733889098">
		<tag k="name" v="Fjellmyr" />
		<tag k="natural" v="wetland" />
		<tag k="ssr:stedsnr" v="221772" />
	</node>
	<node id="-617008" lat="60.6357500043" lon="6.20909444185">
		<tag k="name" v="Stigsmyri" />
		<tag k="natural" v="wetland" />
		<tag k="ssr:stedsnr" v="810138" />
	</node>
	<node id="-618782" lat="60.6665944404" lon="6.06088610333">
		<tag k="historic" v="shieling" />
		<tag k="name" v="Fadnesstølen" />
		<tag k="place" v="locality" />
		<tag k="ssr:stedsnr" v="370013" />
	</node>
	<node id="-616325" lat="60.6112416666" lon="6.55627221599">
		<tag k="name" v="Storemyri" />
		<tag k="natural" v="wetland" />
		<tag k="ssr:stedsnr" v="713685" />
	</node>
	<node id="-620315" lat="60.8465250032" lon="6.54692778046">
		<tag k="name" v="Godamyri" />
		<tag k="natural" v="wetland" />
		<tag k="ssr:stedsnr" v="955102" />
	</node>
	<node id="-618595" lat="60.6129222225" lon="6.31155000355">
		<tag k="name" v="Tveitane" />
		<tag k="place" v="locality" />
		<tag k="ssr:stedsnr" v="323099" />
	</node>
	<node id="-618775" lat="60.5445777772" lon="6.1890500075">
		<tag k="alt_name" v="Sveindalen, øvre" />
		<tag k="historic" v="shieling" />
		<tag k="name" v="Sveindalen" />
		<tag k="place" v="locality" />
		<tag k="ssr:stedsnr" v="356840" />
	</node>
	<node id="-616722" lat="60.5185638851" lon="6.49007500334">
		<tag k="name" v="Fuglamyri" />
		<tag k="natural" v="wetland" />
		<tag k="ssr:stedsnr" v="895775" />
	</node>
	<node id="-614673" lat="60.7234527736" lon="6.63292222319">
		<tag k="name" v="Jonsstølen" />
		<tag k="natural" v="scree" />
		<tag k="ssr:stedsnr" v="227396" />
	</node>
	<node id="-617517" lat="60.6705555572" lon="6.69844166988">
		<tag k="name" v="Tjørnamyrane" />
		<tag k="natural" v="wetland" />
		<tag k="ssr:stedsnr" v="7988" />
	</node>
	<node id="-620300" lat="60.6064833305" lon="6.17592777301">
		<tag k="name" v="Langamyri" />
		<tag k="natural" v="wetland" />
		<tag k="ssr:stedsnr" v="870945" />
	</node>
	<node id="-615554" lat="60.9148444416" lon="6.70832778675">
		<tag k="name" v="Vedasteinen" />
		<tag k="natural" v="stone" />
		<tag k="ssr:stedsnr" v="349014" />
	</node>
	<node id="-614666" lat="60.7229819454" lon="6.90358810084">
		<tag k="historic" v="shieling" />
		<tag k="name" v="Hellestølen" />
		<tag k="place" v="locality" />
		<tag k="ssr:stedsnr" v="227261" />
	</node>
	<node id="-616201" lat="60.6638583319" lon="6.41246944171">
		<tag k="name" v="Håmyrane" />
		<tag k="natural" v="wetland" />
		<tag k="ssr:stedsnr" v="552319" />
	</node>
	<node id="-619271" lat="60.5863194442" lon="6.20222777257">
		<tag k="name" v="Håmyrane" />
		<tag k="natural" v="wetland" />
		<tag k="ssr:stedsnr" v="552243" />
	</node>
	<node id="-617222" lat="60.6213055559" lon="6.20591944511">
		<tag k="name" v="Tjørnamyrane" />
		<tag k="natural" v="wetland" />
		<tag k="ssr:stedsnr" v="870220" />
	</node>
	<node id="-618244" lat="60.6132944426" lon="6.13411667307">
		<tag k="historic" v="shieling" />
		<tag k="name" v="Hagastølen" />
		<tag k="place" v="locality" />
		<tag k="ssr:stedsnr" v="188195" />
	</node>
	<node id="-614870" lat="60.6033972265" lon="6.27819721746">
		<tag k="name" v="Furekampen" />
		<tag k="place" v="locality" />
		<tag k="ssr:stedsnr" v="82034" />
	</node>
	<node id="-620172" lat="60.6839777823" lon="6.56510833151">
		<tag k="historic" v="shieling" />
		<tag k="name" v="Plassastølen" />
		<tag k="place" v="locality" />
		<tag k="ssr:stedsnr" v="835442" />
	</node>
	<node id="-619264" lat="60.5978805569" lon="5.96545555885">
		<tag k="historic" v="shieling" />
		<tag k="name" v="Bolstadstølen" />
		<tag k="place" v="locality" />
		<tag k="ssr:stedsnr" v="552260" />
	</node>
	<node id="-617215" lat="60.5944111084" lon="6.26388332478">
		<tag k="name" v="Kapitalen" />
		<tag k="natural" v="stone" />
		<tag k="ssr:stedsnr" v="870055" />
	</node>
	<node id="-614654" lat="60.906719444" lon="6.74159167521">
		<tag k="name" v="Storuri" />
		<tag k="natural" v="scree" />
		<tag k="ssr:stedsnr" v="227175" />
	</node>
	<node id="-619773" lat="60.6490555585" lon="6.42357499711">
		<tag k="name" v="Roteigane" />
		<tag k="place" v="locality" />
		<tag k="ssr:stedsnr" v="652686" />
	</node>
	<node id="-614652" lat="60.8635250016" lon="6.60700000825">
		<tag k="name" v="Gråsteinane" />
		<tag k="natural" v="stone" />
		<tag k="ssr:stedsnr" v="227108" />
	</node>
	<node id="-614651" lat="60.8681916694" lon="6.55164167043">
		<tag k="name" v="Reppamyrane" />
		<tag k="natural" v="wetland" />
		<tag k="ssr:stedsnr" v="227056" />
	</node>
	<node id="-616063" lat="60.5884749985" lon="6.36627777309">
		<tag k="name" v="Maksam" />
		<tag k="place" v="locality" />
		<tag k="ssr:stedsnr" v="506926" />
	</node>
	<node id="-615124" lat="60.6763194474" lon="6.43674723098">
		<tag k="historic" v="shieling" />
		<tag k="name" v="Grovstølen" />
		<tag k="place" v="locality" />
		<tag k="ssr:stedsnr" v="166500" />
	</node>
	<node id="-615158" lat="60.4530194466" lon="6.73651943923">
		<tag k="name" v="Bjørnesteinen" />
		<tag k="natural" v="stone" />
		<tag k="ssr:stedsnr" v="281699" />
	</node>
	<node id="-618229" lat="60.6614611138" lon="6.1190027726">
		<tag k="name" v="Øyjordi" />
		<tag k="place" v="locality" />
		<tag k="ssr:stedsnr" v="188038" />
	</node>
	<node id="-616762" lat="60.8061999959" lon="6.31419443831">
		<tag k="historic" v="shieling" />
		<tag k="name" v="Kvitanosstølen" />
		<tag k="place" v="locality" />
		<tag k="ssr:stedsnr" v="736505" />
	</node>
	<node id="-616691" lat="60.7133250037" lon="6.72101389409">
		<tag k="name" v="Gråurane" />
		<tag k="natural" v="scree" />
		<tag k="ssr:stedsnr" v="895288" />
	</node>
	<node id="-614778" lat="60.6030027794" lon="6.14442500126">
		<tag k="historic" v="shieling" />
		<tag k="name" v="Flagastølen" />
		<tag k="place" v="locality" />
		<tag k="ssr:stedsnr" v="248190" />
	</node>
	<node id="-616403" lat="60.6177722184" lon="6.21079723009">
		<tag k="name" v="Hagane" />
		<tag k="place" v="locality" />
		<tag k="ssr:stedsnr" v="627215" />
	</node>
	<node id="-616688" lat="60.6910583291" lon="6.67404166903">
		<tag k="name" v="Hyttemyri" />
		<tag k="natural" v="wetland" />
		<tag k="ssr:stedsnr" v="895263" />
	</node>
	<node id="-614639" lat="60.6824388848" lon="5.97596389334">
		<tag k="name" v="Smettesteinen" />
		<tag k="natural" v="stone" />
		<tag k="ssr:stedsnr" v="21709" />
	</node>
	<node id="-619758" lat="60.8954027754" lon="6.48622778102">
		<tag k="historic" v="shieling" />
		<tag k="name" v="Utegardstølen" />
		<tag k="place" v="locality" />
		<tag k="ssr:stedsnr" v="652137" />
	</node>
	<node id="-620269" lat="60.8009249999" lon="6.51128888963">
		<tag k="name" v="Sundsmorki" />
		<tag k="place" v="locality" />
		<tag k="ssr:stedsnr" v="870188" />
	</node>
	<node id="-615939" lat="60.6051416683" lon="6.16474999112">
		<tag k="historic" v="shieling" />
		<tag k="name" v="Trænsstølen" />
		<tag k="place" v="locality" />
		<tag k="ssr:stedsnr" v="673208" />
	</node>
	<node id="-620266" lat="60.6229611121" lon="6.23842221611">
		<tag k="name" v="Krossmyri" />
		<tag k="natural" v="wetland" />
		<tag k="ssr:stedsnr" v="870228" />
	</node>
	<node id="-616681" lat="60.9008138932" lon="6.72366667104">
		<tag k="name" v="Tjørnemyrane" />
		<tag k="natural" v="wetland" />
		<tag k="ssr:stedsnr" v="895175" />
	</node>
	<node id="-617704" lat="60.571949998" lon="6.5703444521">
		<tag k="historic" v="shieling" />
		<tag k="name" v="Myraseta" />
		<tag k="place" v="locality" />
		<tag k="ssr:stedsnr" v="46670" />
	</node>
	<node id="-616679" lat="60.8905944428" lon="6.72319444836">
		<tag k="name" v="Øygardsmyrane" />
		<tag k="natural" v="wetland" />
		<tag k="ssr:stedsnr" v="895169" />
	</node>
	<node id="-614630" lat="60.6030805529" lon="6.30535833048">
		<tag k="name" v="Kringla" />
		<tag k="natural" v="wetland" />
		<tag k="ssr:stedsnr" v="20902" />
	</node>
	<node id="-617701" lat="60.6232444437" lon="6.6082416653">
		<tag k="name" v="Kalvuri" />
		<tag k="natural" v="scree" />
		<tag k="ssr:stedsnr" v="46647" />
	</node>
	<node id="-617699" lat="60.4819687917" lon="6.4131335658">
		<tag k="alt_name" v="Steinset" />
		<tag k="historic" v="shieling" />
		<tag k="name" v="Steinsete" />
		<tag k="place" v="locality" />
		<tag k="ssr:stedsnr" v="46619" />
	</node>
	<node id="-618619" lat="60.6208055517" lon="6.16529722452">
		<tag k="name" v="Svangamarki" />
		<tag k="natural" v="wetland" />
		<tag k="ssr:stedsnr" v="324206" />
	</node>
	<node id="-616026" lat="60.8487749981" lon="6.44411110661">
		<tag k="name" v="Flatmyrane" />
		<tag k="natural" v="wetland" />
		<tag k="ssr:stedsnr" v="676549" />
	</node>
	<node id="-615647" lat="60.5976305564" lon="6.29047500705">
		<tag k="historic" v="shieling" />
		<tag k="name" v="Øyane" />
		<tag k="place" v="locality" />
		<tag k="ssr:stedsnr" v="492602" />
	</node>
	<node id="-618206" lat="60.5968638851" lon="6.47572500736">
		<tag k="name" v="Herreshagane" />
		<tag k="place" v="locality" />
		<tag k="ssr:stedsnr" v="167637" />
	</node>
	<node id="-615133" lat="60.5630083362" lon="6.2197888828">
		<tag k="name" v="Lausesteinen" />
		<tag k="natural" v="stone" />
		<tag k="ssr:stedsnr" v="166975" />
	</node>
	<node id="-615644" lat="60.5378000029" lon="6.49821666243">
		<tag k="name" v="Vieren" />
		<tag k="natural" v="wetland" />
		<tag k="ssr:stedsnr" v="492573" />
	</node>
	<node id="-618715" lat="60.8575277819" lon="6.56183610418">
		<tag k="name" v="Langhaugmyrane" />
		<tag k="natural" v="wetland" />
		<tag k="ssr:stedsnr" v="348078" />
	</node>
	<node id="-618714" lat="60.8610972213" lon="6.56949167188">
		<tag k="name" v="Gråsteinane" />
		<tag k="natural" v="stone" />
		<tag k="ssr:stedsnr" v="348074" />
	</node>
	<node id="-616399" lat="60.6511222232" lon="6.2196611162">
		<tag k="name" v="Træsmyrane" />
		<tag k="natural" v="wetland" />
		<tag k="ssr:stedsnr" v="627062" />
	</node>
	<node id="-618712" lat="60.8860666665" lon="6.63763056087">
		<tag k="name" v="Storemyri" />
		<tag k="natural" v="wetland" />
		<tag k="ssr:stedsnr" v="348062" />
	</node>
	<node id="-619223" lat="60.7011111086" lon="6.52833611426">
		<tag k="name" v="Felemyri" />
		<tag k="natural" v="wetland" />
		<tag k="ssr:stedsnr" v="531433" />
	</node>
	<node id="-619221" lat="60.6821361142" lon="6.53435277735">
		<tag k="name" v="Stokkamyri" />
		<tag k="natural" v="wetland" />
		<tag k="ssr:stedsnr" v="531421" />
	</node>
	<node id="-617684" lat="60.9260461563" lon="6.74489538063">
		<tag k="name" v="Kåsteinskyrkja" />
		<tag k="natural" v="stone" />
		<tag k="ssr:stedsnr" v="46001" />
	</node>
	<node id="-617093" lat="60.4634944402" lon="6.74019167175">
		<tag k="name" v="Arnfinnsmyri" />
		<tag k="natural" v="wetland" />
		<tag k="ssr:stedsnr" v="827731" />
	</node>
	<node id="-616847" lat="60.8375249984" lon="6.60314444812">
		<tag k="name" v="Frusteinen" />
		<tag k="natural" v="stone" />
		<tag k="ssr:stedsnr" v="773854" />
	</node>
	<node id="-616656" lat="60.7344277821" lon="6.51770277304">
		<tag k="name" v="Haugamyrane" />
		<tag k="natural" v="wetland" />
		<tag k="ssr:stedsnr" v="712961" />
	</node>
	<node id="-616655" lat="60.82495" lon="6.63543332546">
		<tag k="name" v="Galthaugsmyrane" />
		<tag k="natural" v="wetland" />
		<tag k="ssr:stedsnr" v="894895" />
	</node>
	<node id="-618190" lat="60.8441666694" lon="6.69038888684">
		<tag k="name" v="Sivleshagen" />
		<tag k="place" v="locality" />
		<tag k="ssr:stedsnr" v="167123" />
	</node>
	<node id="-619725" lat="60.4376138903" lon="6.6937888806">
		<tag k="name" v="Klovsteinen" />
		<tag k="natural" v="stone" />
		<tag k="ssr:stedsnr" v="645633" />
	</node>
	<node id="-617676" lat="60.7253749995" lon="6.66683888673">
		<tag k="historic" v="shieling" />
		<tag k="name" v="Jonsstølen" />
		<tag k="place" v="locality" />
		<tag k="ssr:stedsnr" v="45904" />
	</node>
	<node id="-615626" lat="60.6999222195" lon="6.13686110642">
		<tag k="historic" v="shieling" />
		<tag k="name" v="Lurastølen" />
		<tag k="place" v="locality" />
		<tag k="ssr:stedsnr" v="492435" />
	</node>
	<node id="-616649" lat="60.6104805516" lon="6.44254443718">
		<tag k="name" v="Rokneshagane" />
		<tag k="place" v="locality" />
		<tag k="ssr:stedsnr" v="894870" />
	</node>
	<node id="-619207" lat="60.67935833" lon="6.66775833105">
		<tag k="name" v="Nyhagen" />
		<tag k="place" v="locality" />
		<tag k="ssr:stedsnr" v="531197" />
	</node>
	<node id="-619206" lat="60.7441277774" lon="6.67018610774">
		<tag k="historic" v="shieling" />
		<tag k="name" v="Jonsstølen" />
		<tag k="place" v="locality" />
		<tag k="ssr:stedsnr" v="530899" />
	</node>
	<node id="-618181" lat="60.6615861086" lon="6.44800277101">
		<tag k="name" v="Myrane" />
		<tag k="natural" v="wetland" />
		<tag k="ssr:stedsnr" v="166412" />
	</node>
	<node id="-617156" lat="60.6463305602" lon="6.36356111837">
		<tag k="historic" v="shieling" />
		<tag k="name" v="Kiseldur" />
		<tag k="place" v="locality" />
		<tag k="ssr:stedsnr" v="856260" />
	</node>
	<node id="-615404" lat="60.6033861107" lon="6.8061777863">
		<tag k="name" v="Moltesteinen" />
		<tag k="natural" v="stone" />
		<tag k="ssr:stedsnr" v="463824" />
	</node>
	<node id="-617665" lat="60.5269722217" lon="6.4707749963">
		<tag k="name" v="Hellandsteinen" />
		<tag k="natural" v="stone" />
		<tag k="ssr:stedsnr" v="45542" />
	</node>
	<node id="-614739" lat="60.6441388929" lon="6.17343610586">
		<tag k="name" v="Øyjordi" />
		<tag k="place" v="locality" />
		<tag k="ssr:stedsnr" v="67130" />
	</node>
	<node id="-618174" lat="60.6167361085" lon="6.44860833732">
		<tag k="name" v="Songveshagane" />
		<tag k="place" v="locality" />
		<tag k="ssr:stedsnr" v="166520" />
	</node>
	<node id="-615029" lat="60.6040472221" lon="6.29267778573">
		<tag k="name" v="Søteigane" />
		<tag k="place" v="locality" />
		<tag k="ssr:stedsnr" v="263900" />
	</node>
	<node id="-617228" lat="60.5834111111" lon="6.77928610239">
		<tag k="name" v="Kallhagen" />
		<tag k="place" v="locality" />
		<tag k="ssr:stedsnr" v="949780" />
	</node>
	<node id="-617146" lat="60.6140527784" lon="6.18748889304">
		<tag k="name" v="Stormyrane" />
		<tag k="natural" v="wetland" />
		<tag k="ssr:stedsnr" v="856170" />
	</node>
	<node id="-618169" lat="60.8712888927" lon="6.53668888818">
		<tag k="name" v="Reppasteinen" />
		<tag k="natural" v="stone" />
		<tag k="ssr:stedsnr" v="166042" />
	</node>
	<node id="-618167" lat="60.8778333318" lon="6.55790555305">
		<tag k="name" v="Flisramsmyrane" />
		<tag k="natural" v="wetland" />
		<tag k="ssr:stedsnr" v="166027" />
	</node>
	<node id="-620090" lat="60.6157527804" lon="6.27006388535">
		<tag k="name" v="Krokamyrane" />
		<tag k="natural" v="wetland" />
		<tag k="ssr:stedsnr" v="810059" />
	</node>
	<node id="-618162" lat="60.4792138871" lon="6.68731943647">
		<tag k="name" v="Kvilemyra" />
		<tag k="natural" v="wetland" />
		<tag k="ssr:stedsnr" v="160788" />
	</node>
	<node id="-619695" lat="60.6203777785" lon="5.99001667299">
		<tag k="name" v="Skaramyri" />
		<tag k="natural" v="wetland" />
		<tag k="ssr:stedsnr" v="627873" />
	</node>
	<node id="-615086" lat="60.8123305599" lon="6.49677776919">
		<tag k="name" v="Myrane" />
		<tag k="natural" v="wetland" />
		<tag k="ssr:stedsnr" v="129517" />
	</node>
	<node id="-617245" lat="60.6273972205" lon="6.36398611376">
		<tag k="name" v="Orremyri" />
		<tag k="natural" v="wetland" />
		<tag k="ssr:stedsnr" v="870904" />
	</node>
	<node id="-615289" lat="60.8558444482" lon="6.49367500529">
		<tag k="name" v="Årmotssteinen" />
		<tag k="natural" v="stone" />
		<tag k="ssr:stedsnr" v="445351" />
	</node>
	<node id="-615282" lat="60.8344416644" lon="6.47069165947">
		<tag k="name" v="Bygdatroi" />
		<tag k="place" v="locality" />
		<tag k="ssr:stedsnr" v="445248" />
	</node>
	<node id="-616106" lat="60.6211944487" lon="6.23136111982">
		<tag k="name" v="Løkjamyri" />
		<tag k="natural" v="wetland" />
		<tag k="ssr:stedsnr" v="688229" />
	</node>
	<node id="-619689" lat="60.8194916708" lon="6.47935555027">
		<tag k="name" v="Utløbøen" />
		<tag k="place" v="locality" />
		<tag k="ssr:stedsnr" v="627344" />
	</node>
	<node id="-619688" lat="60.8156027803" lon="6.56986111769">
		<tag k="name" v="Halvkommediket" />
		<tag k="natural" v="wetland" />
		<tag k="ssr:stedsnr" v="627301" />
	</node>
	<node id="-618151" lat="60.6310555574" lon="6.35282222036">
		<tag k="name" v="Persmyri" />
		<tag k="natural" v="wetland" />
		<tag k="ssr:stedsnr" v="142965" />
	</node>
	<node id="-614945" lat="60.4924694475" lon="6.59117500464">
		<tag k="name" v="Haugamyrane" />
		<tag k="natural" v="wetland" />
		<tag k="ssr:stedsnr" v="99152" />
	</node>
	<node id="-618182" lat="60.6202250045" lon="6.47043889011">
		<tag k="historic" v="shieling" />
		<tag k="name" v="Perstølen" />
		<tag k="place" v="locality" />
		<tag k="ssr:stedsnr" v="166598" />
	</node>
	<node id="-616098" lat="60.733736113" lon="6.43760833304">
		<tag k="name" v="Storrmyrane" />
		<tag k="natural" v="wetland" />
		<tag k="ssr:stedsnr" v="688194" />
	</node>
	<node id="-616731" lat="60.851916671" lon="6.67396667505">
		<tag k="historic" v="shieling" />
		<tag k="name" v="Sivles-Vetlestølen" />
		<tag k="place" v="locality" />
		<tag k="ssr:stedsnr" v="896096" />
	</node>
	<node id="-616155" lat="60.5976333304" lon="6.3905861052">
		<tag k="name" v="Storamyri" />
		<tag k="natural" v="wetland" />
		<tag k="ssr:stedsnr" v="688880" />
	</node>
	<node id="-619677" lat="60.7952138879" lon="6.62515833378">
		<tag k="name" v="Midtbakkane" />
		<tag k="place" v="locality" />
		<tag k="ssr:stedsnr" v="627175" />
	</node>
	<node id="-615376" lat="60.6889611108" lon="6.6579833305">
		<tag k="name" v="Kambamyrane" />
		<tag k="natural" v="wetland" />
		<tag k="ssr:stedsnr" v="288264" />
	</node>
	<node id="-615578" lat="60.6360166658" lon="6.12390276903">
		<tag k="historic" v="shieling" />
		<tag k="name" v="Skorvestølen" />
		<tag k="place" v="locality" />
		<tag k="ssr:stedsnr" v="491162" />
	</node>
	<node id="-616088" lat="60.7277194447" lon="6.4513527859">
		<tag k="name" v="Bardet" />
		<tag k="place" v="locality" />
		<tag k="ssr:stedsnr" v="688162" />
	</node>
	<node id="-619159" lat="60.7753166707" lon="6.17699999915">
		<tag k="name" v="Myrhjellane" />
		<tag k="natural" v="wetland" />
		<tag k="ssr:stedsnr" v="433731" />
	</node>
	<node id="-616085" lat="60.6322305538" lon="6.21810277491">
		<tag k="name" v="Storesteinen" />
		<tag k="natural" v="stone" />
		<tag k="ssr:stedsnr" v="688133" />
	</node>
	<node id="-619668" lat="60.6124861068" lon="6.54119167096">
		<tag k="name" v="Bjørgamarki" />
		<tag k="place" v="locality" />
		<tag k="ssr:stedsnr" v="627258" />
	</node>
	<node id="-619667" lat="60.6118805572" lon="6.46082221883">
		<tag k="name" v="Håmyrane" />
		<tag k="natural" v="wetland" />
		<tag k="ssr:stedsnr" v="627255" />
	</node>
	<node id="-616082" lat="60.6389750021" lon="6.1806750061">
		<tag k="name" v="Asketeigen" />
		<tag k="place" v="locality" />
		<tag k="ssr:stedsnr" v="688128" />
	</node>
	<node id="-617105" lat="60.6597194401" lon="6.57461667333">
		<tag k="name" v="Tjernsetemyri" />
		<tag k="natural" v="wetland" />
		<tag k="ssr:stedsnr" v="834316" />
	</node>
	<node id="-617615" lat="60.443072223" lon="6.71002500518">
		<tag k="name" v="Øyjordi" />
		<tag k="place" v="locality" />
		<tag k="ssr:stedsnr" v="39695" />
	</node>
	<node id="-620173" lat="60.6828972242" lon="6.54680832896">
		<tag k="name" v="Langamyri" />
		<tag k="natural" v="wetland" />
		<tag k="ssr:stedsnr" v="835447" />
	</node>
	<node id="-618636" lat="60.8047555521" lon="6.47633333339">
		<tag k="name" v="Styrkårsletta" />
		<tag k="place" v="locality" />
		<tag k="ssr:stedsnr" v="324345" />
	</node>
	<node id="-617611" lat="60.56858333" lon="6.72259167574">
		<tag k="name" v="Lysteinen" />
		<tag k="natural" v="stone" />
		<tag k="ssr:stedsnr" v="38884" />
	</node>
	<node id="-616074" lat="60.6462527772" lon="6.32698888289">
		<tag k="landuse" v="meadow" />
		<tag k="name" v="Bjørkehagen" />
		<tag k="ssr:stedsnr" v="688060" />
	</node>
	<node id="-616215" lat="60.8105416657" lon="6.49062777064">
		<tag k="name" v="Hestaskreda" />
		<tag k="natural" v="scree" />
		<tag k="ssr:stedsnr" v="567310" />
	</node>
	<node id="-618631" lat="60.8279027806" lon="6.46713333666">
		<tag k="name" v="Flisramshaugen" />
		<tag k="place" v="locality" />
		<tag k="ssr:stedsnr" v="324271" />
	</node>
	<node id="-619898" lat="60.5676444464" lon="6.47465277886">
		<tag k="historic" v="shieling" />
		<tag k="name" v="Vetlestølen" />
		<tag k="place" v="locality" />
		<tag k="ssr:stedsnr" v="773535" />
	</node>
	<node id="-617621" lat="60.4873694444" lon="6.66970000323">
		<tag k="name" v="Hamrehagen" />
		<tag k="place" v="locality" />
		<tag k="ssr:stedsnr" v="44520" />
	</node>
	<node id="-617090" lat="60.457525004" lon="6.66054166605">
		<tag k="name" v="Krokur" />
		<tag k="natural" v="scree" />
		<tag k="ssr:stedsnr" v="827716" />
	</node>
	<node id="-618249" lat="60.6457694477" lon="6.31063889203">
		<tag k="name" v="Fljåmyrane" />
		<tag k="natural" v="wetland" />
		<tag k="ssr:stedsnr" v="188290" />
	</node>
	<node id="-620160" lat="60.6236249971" lon="6.10266388585">
		<tag k="historic" v="shieling" />
		<tag k="name" v="Gamlestølen" />
		<tag k="place" v="locality" />
		<tag k="ssr:stedsnr" v="834995" />
	</node>
	<node id="-616896" lat="60.6578750013" lon="6.47997500303">
		<tag k="name" v="Håmyrane" />
		<tag k="natural" v="wetland" />
		<tag k="ssr:stedsnr" v="917236" />
	</node>
	<node id="-618110" lat="60.6316500015" lon="6.31328888174">
		<tag k="name" v="Røtesmyrane" />
		<tag k="natural" v="wetland" />
		<tag k="ssr:stedsnr" v="142086" />
	</node>
	<node id="-618109" lat="60.6424277776" lon="6.34002221817">
		<tag k="name" v="Bergamyri" />
		<tag k="natural" v="wetland" />
		<tag k="ssr:stedsnr" v="142083" />
	</node>
	<node id="-615879" lat="60.7534500018" lon="6.15186666725">
		<tag k="historic" v="shieling" />
		<tag k="name" v="Rapp" />
		<tag k="place" v="locality" />
		<tag k="ssr:stedsnr" v="433649" />
	</node>
	<node id="-615032" lat="60.6673527795" lon="6.36431388561">
		<tag k="name" v="Myrkreii" />
		<tag k="natural" v="stone" />
		<tag k="ssr:stedsnr" v="263926" />
	</node>
	<node id="-617079" lat="60.5984249959" lon="6.37239721579">
		<tag k="name" v="Fuglamyri" />
		<tag k="natural" v="wetland" />
		<tag k="ssr:stedsnr" v="931892" />
	</node>
	<node id="-617590" lat="60.6148805517" lon="5.978027773">
		<tag k="name" v="Løkjamyrane" />
		<tag k="natural" v="wetland" />
		<tag k="ssr:stedsnr" v="21647" />
	</node>
	<node id="-618613" lat="60.7286527752" lon="6.4295750005">
		<tag k="name" v="Øvrestølsøyni" />
		<tag k="natural" v="wetland" />
		<tag k="ssr:stedsnr" v="324147" />
	</node>
	<node id="-618610" lat="60.6381500011" lon="6.19859721807">
		<tag k="landuse" v="meadow" />
		<tag k="name" v="Moen" />
		<tag k="ssr:stedsnr" v="324122" />
	</node>
	<node id="-615537" lat="60.7286666702" lon="6.4822305484">
		<tag k="name" v="Vetlehagen" />
		<tag k="place" v="locality" />
		<tag k="ssr:stedsnr" v="348707" />
	</node>
	<node id="-618608" lat="60.6472111074" lon="6.20883888047">
		<tag k="name" v="Tjørnamyri" />
		<tag k="natural" v="wetland" />
		<tag k="ssr:stedsnr" v="324106" />
	</node>
	<node id="-620143" lat="60.8826111134" lon="6.71892221705">
		<tag k="historic" v="shieling" />
		<tag k="name" v="Vårstølen" />
		<tag k="place" v="locality" />
		<tag k="ssr:stedsnr" v="834119" />
	</node>
	<node id="-618112" lat="60.6307833295" lon="6.21968611856">
		<tag k="name" v="Stabollen" />
		<tag k="natural" v="stone" />
		<tag k="ssr:stedsnr" v="142146" />
	</node>
	<node id="-620141" lat="60.8552444484" lon="6.57420000156">
		<tag k="name" v="Lambasteinen" />
		<tag k="natural" v="stone" />
		<tag k="ssr:stedsnr" v="834100" />
	</node>
	<node id="-615019" lat="60.7000527734" lon="6.12723054854">
		<tag k="name" v="Svartediket" />
		<tag k="natural" v="wetland" />
		<tag k="ssr:stedsnr" v="263756" />
	</node>
	<node id="-618602" lat="60.5861111137" lon="6.27886388836">
		<tag k="name" v="Lausesteinen" />
		<tag k="natural" v="stone" />
		<tag k="ssr:stedsnr" v="324030" />
	</node>
	<node id="-617319" lat="60.7744500045" lon="6.6033666686">
		<tag k="name" v="Grønemyri" />
		<tag k="natural" v="wetland" />
		<tag k="ssr:stedsnr" v="918818" />
	</node>
	<node id="-615528" lat="60.6786944416" lon="6.74664722364">
		<tag k="name" v="Reimeshagen" />
		<tag k="place" v="locality" />
		<tag k="ssr:stedsnr" v="348219" />
	</node>
	<node id="-618089" lat="60.8089111101" lon="6.5617611162">
		<tag k="name" v="Kostastømyri" />
		<tag k="natural" v="wetland" />
		<tag k="ssr:stedsnr" v="141273" />
	</node>
	<node id="-615523" lat="60.8184333318" lon="6.473405562">
		<tag k="name" v="Høgabardet" />
		<tag k="place" v="locality" />
		<tag k="ssr:stedsnr" v="324335" />
	</node>
	<node id="-619646" lat="60.6292757186" lon="6.80356107776">
		<tag k="name" v="Olsskavlen" />
		<tag k="natural" v="glacier" />
		<tag k="ssr:stedsnr" v="613905" />
	</node>
	<node id="-618593" lat="60.7827055528" lon="6.60486944662">
		<tag k="name" v="Slingsmyrane" />
		<tag k="natural" v="wetland" />
		<tag k="ssr:stedsnr" v="324154" />
	</node>
	<node id="-617573" lat="60.6169000032" lon="6.24704444481">
		<tag k="name" v="Olmos" />
		<tag k="natural" v="wetland" />
		<tag k="ssr:stedsnr" v="21054" />
	</node>
	<node id="-616313" lat="60.7055888865" lon="6.46665278194">
		<tag k="name" v="Nyastølsmyrane" />
		<tag k="natural" v="wetland" />
		<tag k="ssr:stedsnr" v="713519" />
	</node>
	<node id="-620122" lat="60.4958805557" lon="6.65202778634">
		<tag k="name" v="Harabåsen" />
		<tag k="natural" v="wetland" />
		<tag k="ssr:stedsnr" v="828694" />
	</node>
	<node id="-619609" lat="60.6824666666" lon="6.02429167372">
		<tag k="historic" v="shieling" />
		<tag k="name" v="Geilastølen" />
		<tag k="place" v="locality" />
		<tag k="ssr:stedsnr" v="613498" />
	</node>
	<node id="-616079" lat="60.6460166636" lon="6.23105833731">
		<tag k="name" v="Kringlemyri" />
		<tag k="natural" v="wetland" />
		<tag k="ssr:stedsnr" v="688097" />
	</node>
	<node id="-617099" lat="60.6851333293" lon="6.65051943923">
		<tag k="name" v="Klovsteinane" />
		<tag k="natural" v="stone" />
		<tag k="ssr:stedsnr" v="834222" />
	</node>
	<node id="-617046" lat="60.6916527791" lon="5.98595555871">
		<tag k="name" v="Stormyri" />
		<tag k="natural" v="wetland" />
		<tag k="ssr:stedsnr" v="931729" />
	</node>
	<node id="-616377" lat="60.7593222187" lon="6.11059444651">
		<tag k="historic" v="shieling" />
		<tag k="name" v="Ljosvasstølen" />
		<tag k="place" v="locality" />
		<tag k="ssr:stedsnr" v="615639" />
	</node>
	<node id="-614904" lat="60.7654194451" lon="6.94306110683">
		<tag k="name" v="Grånosmyrane" />
		<tag k="natural" v="wetland" />
		<tag k="ssr:stedsnr" v="251207" />
	</node>
	<node id="-617041" lat="60.8504500014" lon="6.44808889027">
		<tag k="name" v="Tuftene" />
		<tag k="place" v="locality" />
		<tag k="ssr:stedsnr" v="931381" />
	</node>
	<node id="-617324" lat="60.8537499969" lon="6.45365000536">
		<tag k="name" v="Hyrtamyrane" />
		<tag k="natural" v="wetland" />
		<tag k="ssr:stedsnr" v="919565" />
	</node>
	<node id="-620110" lat="60.6734361077" lon="6.36005556016">
		<tag k="name" v="Dalskyrkja" />
		<tag k="natural" v="stone" />
		<tag k="ssr:stedsnr" v="810957" />
	</node>
	<node id="-616525" lat="60.6975111098" lon="6.67998610372">
		<tag k="name" v="Torgilsmyrane" />
		<tag k="natural" v="wetland" />
		<tag k="ssr:stedsnr" v="652268" />
	</node>
	<node id="-617547" lat="60.782350004" lon="6.59496944554">
		<tag k="name" v="Troi" />
		<tag k="place" v="locality" />
		<tag k="ssr:stedsnr" v="20138" />
	</node>
	<node id="-616440" lat="60.500372223" lon="6.66169999599">
		<tag k="name" v="Daurmålssteinen" />
		<tag k="natural" v="stone" />
		<tag k="ssr:stedsnr" v="646713" />
	</node>
	<node id="-617740" lat="60.7000888902" lon="6.10650833882">
		<tag k="name" v="Hagamyri" />
		<tag k="natural" v="wetland" />
		<tag k="ssr:stedsnr" v="67493" />
	</node>
	<node id="-614982" lat="60.8035305599" lon="6.51307222751">
		<tag k="name" v="Fuglleikane" />
		<tag k="natural" v="wetland" />
		<tag k="ssr:stedsnr" v="263189" />
	</node>
	<node id="-616646" lat="60.6385" lon="6.41689445017">
		<tag k="name" v="Slåttena" />
		<tag k="place" v="locality" />
		<tag k="ssr:stedsnr" v="712229" />
	</node>
	<node id="-615464" lat="60.693911107" lon="6.44847222939">
		<tag k="name" v="Steinane" />
		<tag k="natural" v="stone" />
		<tag k="ssr:stedsnr" v="470416" />
	</node>
	<node id="-616407" lat="60.8602333307" lon="6.51771111369">
		<tag k="name" v="Stølsmarki" />
		<tag k="place" v="locality" />
		<tag k="ssr:stedsnr" v="627360" />
	</node>
	<node id="-617025" lat="60.7837555572" lon="6.60894443576">
		<tag k="name" v="Hovdamyrane" />
		<tag k="natural" v="wetland" />
		<tag k="ssr:stedsnr" v="931169" />
	</node>
	<node id="-614975" lat="60.6503222188" lon="6.21960278655">
		<tag k="name" v="Træsmyrane" />
		<tag k="natural" v="wetland" />
		<tag k="ssr:stedsnr" v="263117" />
	</node>
	<node id="-618081" lat="60.7893722265" lon="6.60955556228">
		<tag k="name" v="Troi" />
		<tag k="place" v="locality" />
		<tag k="ssr:stedsnr" v="141155" />
	</node>
	<node id="-619389" lat="60.8201500019" lon="6.46925832557">
		<tag k="name" v="Floten" />
		<tag k="place" v="locality" />
		<tag k="ssr:stedsnr" v="566353" />
	</node>
	<node id="-616506" lat="60.8344027747" lon="6.62110277312">
		<tag k="name" v="Barnavollen" />
		<tag k="place" v="locality" />
		<tag k="ssr:stedsnr" v="651886" />
	</node>
	<node id="-619576" lat="60.5904500007" lon="6.14362500339">
		<tag k="historic" v="shieling" />
		<tag k="name" v="Selset" />
		<tag k="place" v="locality" />
		<tag k="ssr:stedsnr" v="612242" />
	</node>
	<node id="-617908" lat="60.6907916676" lon="6.66953334021">
		<tag k="name" v="Fuglemyri" />
		<tag k="natural" v="wetland" />
		<tag k="ssr:stedsnr" v="106289" />
	</node>
	<node id="-619061" lat="60.5892861096" lon="6.42178055964">
		<tag k="historic" v="shieling" />
		<tag k="name" v="Rosetstølen" />
		<tag k="place" v="locality" />
		<tag k="ssr:stedsnr" v="410771" />
	</node>
	<node id="-617109" lat="60.5228638927" lon="6.47325277764">
		<tag k="name" v="Himlesteigen" />
		<tag k="place" v="locality" />
		<tag k="ssr:stedsnr" v="834573" />
	</node>
	<node id="-617445" lat="60.7131333366" lon="6.11430278373">
		<tag k="name" v="Skogen" />
		<tag k="place" v="locality" />
		<tag k="ssr:stedsnr" v="6461" />
	</node>
	<node id="-619053" lat="60.7007361071" lon="6.52049444073">
		<tag k="name" v="Middagssteinen" />
		<tag k="natural" v="stone" />
		<tag k="ssr:stedsnr" v="410432" />
	</node>
	<node id="-619052" lat="60.7065999962" lon="6.63284167237">
		<tag k="name" v="Jonsstølen" />
		<tag k="natural" v="wetland" />
		<tag k="ssr:stedsnr" v="410426" />
	</node>
	<node id="-617001" lat="60.6124944487" lon="6.14443610292">
		<tag k="name" v="Bergsteigen" />
		<tag k="place" v="locality" />
		<tag k="ssr:stedsnr" v="809210" />
	</node>
	<node id="-616488" lat="60.5993499963" lon="6.66851388047">
		<tag k="name" v="Tingsteinen" />
		<tag k="natural" v="stone" />
		<tag k="ssr:stedsnr" v="734877" />
	</node>
	<node id="-619047" lat="60.6768388875" lon="6.53013888131">
		<tag k="name" v="Storemyri" />
		<tag k="natural" v="wetland" />
		<tag k="ssr:stedsnr" v="410342" />
	</node>
	<node id="-615971" lat="60.6316500004" lon="6.37120556361">
		<tag k="historic" v="shieling" />
		<tag k="name" v="Heggjavad" />
		<tag k="place" v="locality" />
		<tag k="ssr:stedsnr" v="673720" />
	</node>
	<node id="-614946" lat="60.465722223" lon="6.72011667055">
		<tag k="name" v="Moltemyrane" />
		<tag k="natural" v="wetland" />
		<tag k="ssr:stedsnr" v="99705" />
	</node>
	<node id="-620065" lat="60.7352833317" lon="6.45491111442">
		<tag k="name" v="Buleguna" />
		<tag k="natural" v="wetland" />
		<tag k="ssr:stedsnr" v="809182" />
	</node>
	<node id="-619049" lat="60.6838555575" lon="6.58525277266">
		<tag k="name" v="Storamyri" />
		<tag k="natural" v="wetland" />
		<tag k="ssr:stedsnr" v="410349" />
	</node>
	<node id="-615063" lat="60.6653944426" lon="6.34528889072">
		<tag k="name" v="Dalsmyrane" />
		<tag k="natural" v="wetland" />
		<tag k="ssr:stedsnr" v="127313" />
	</node>
	<node id="-619354" lat="60.665227779" lon="6.23449165996">
		<tag k="name" v="Ryssesteinane" />
		<tag k="natural" v="stone" />
		<tag k="ssr:stedsnr" v="566001" />
	</node>
	<node id="-617498" lat="60.6121805565" lon="6.24973333358">
		<tag k="name" v="Langemyri" />
		<tag k="natural" v="wetland" />
		<tag k="ssr:stedsnr" v="7711" />
	</node>
	<node id="-618159" lat="60.6077277768" lon="6.71551388893">
		<tag k="name" v="Diket" />
		<tag k="natural" v="wetland" />
		<tag k="ssr:stedsnr" v="160763" />
	</node>
	<node id="-615447" lat="60.676272221" lon="6.74328333788">
		<tag k="name" v="Stokkamyri" />
		<tag k="natural" v="wetland" />
		<tag k="ssr:stedsnr" v="470190" />
	</node>
	<node id="-615296" lat="60.8069444435" lon="6.574091665">
		<tag k="name" v="Fuglleikane" />
		<tag k="natural" v="wetland" />
		<tag k="ssr:stedsnr" v="445379" />
	</node>
	<node id="-620053" lat="60.640769447" lon="6.27191388114">
		<tag k="name" v="Kaldemyrane" />
		<tag k="natural" v="wetland" />
		<tag k="ssr:stedsnr" v="809021" />
	</node>
	<node id="-620049" lat="60.8239027765" lon="6.46879167027">
		<tag k="name" v="Nesheimshagen" />
		<tag k="place" v="locality" />
		<tag k="ssr:stedsnr" v="809263" />
	</node>
	<node id="-620123" lat="60.5114111078" lon="6.6642027729">
		<tag k="name" v="Salttunna" />
		<tag k="natural" v="stone" />
		<tag k="ssr:stedsnr" v="828710" />
	</node>
	<node id="-615768" lat="60.8175361134" lon="6.47844723077">
		<tag k="name" v="Krokane" />
		<tag k="place" v="locality" />
		<tag k="ssr:stedsnr" v="506332" />
	</node>
	<node id="-617486" lat="60.59854167" lon="6.31214999363">
		<tag k="historic" v="shieling" />
		<tag k="name" v="Flyane" />
		<tag k="place" v="locality" />
		<tag k="ssr:stedsnr" v="7618" />
	</node>
	<node id="-616449" lat="60.5956555589" lon="6.18943054793">
		<tag k="historic" v="shieling" />
		<tag k="name" v="Brusetlii" />
		<tag k="place" v="locality" />
		<tag k="ssr:stedsnr" v="734211" />
	</node>
	<node id="-618507" lat="60.6870388923" lon="6.09810000309">
		<tag k="name" v="Hylma" />
		<tag k="place" v="locality" />
		<tag k="ssr:stedsnr" v="309531" />
	</node>
	<node id="-615433" lat="60.7079388889" lon="6.65072222175">
		<tag k="historic" v="shieling" />
		<tag k="name" v="Jonsstølen" />
		<tag k="place" v="locality" />
		<tag k="ssr:stedsnr" v="469921" />
	</node>
	<node id="-620342" lat="60.7275194404" lon="6.47591111984">
		<tag k="historic" v="shieling" />
		<tag k="name" v="Mjølstølen" />
		<tag k="place" v="locality" />
		<tag k="ssr:stedsnr" v="955724" />
	</node>
	<node id="-619526" lat="60.6680555567" lon="6.49993888145">
		<tag k="name" v="Løkjamyri" />
		<tag k="natural" v="wetland" />
		<tag k="ssr:stedsnr" v="591688" />
	</node>
	<node id="-616199" lat="60.6543611126" lon="6.2386888968">
		<tag k="historic" v="shieling" />
		<tag k="name" v="Nyestølen" />
		<tag k="place" v="locality" />
		<tag k="ssr:stedsnr" v="552313" />
	</node>
	<node id="-619524" lat="60.6455944477" lon="6.42219999723">
		<tag k="name" v="Slåttehagen" />
		<tag k="place" v="locality" />
		<tag k="ssr:stedsnr" v="591676" />
	</node>
	<node id="-618070" lat="60.8321055569" lon="6.63780276894">
		<tag k="historic" v="shieling" />
		<tag k="name" v="Skjolset" />
		<tag k="place" v="locality" />
		<tag k="ssr:stedsnr" v="130769" />
	</node>
	<node id="-619521" lat="60.6143888883" lon="6.47655555081">
		<tag k="name" v="Langamyrane" />
		<tag k="natural" v="wetland" />
		<tag k="ssr:stedsnr" v="591590" />
	</node>
</osm>
