<?xml version="1.0" encoding="UTF-8"?>
<osm version="0.6" generator="osmapis">
	<node lat="60.7689611138362" lon="6.489338889756696" id="-35046">
		<tag k="bridge" v="yes" />
		<tag k="layer" v="1" />
		<tag k="name" v="Skromle" />
		<tag k="ssr:stedsnr" v="46172" />
	</node>
	<node lat="60.75659999995295" lon="6.133447222404501" id="-35048">
		<tag k="bridge" v="yes" />
		<tag k="layer" v="1" />
		<tag k="name" v="Ormeset" />
		<tag k="ssr:stedsnr" v="46177" />
	</node>
	<node lat="60.62889722090826" lon="6.261655551449505" id="-35049">
		<tag k="bridge" v="yes" />
		<tag k="layer" v="1" />
		<tag k="name" v="Suto" />
		<tag k="ssr:stedsnr" v="46183" />
	</node>
	<node lat="60.63868889304451" lon="6.2487583349598115" id="-35054">
		<tag k="bridge" v="yes" />
		<tag k="layer" v="1" />
		<tag k="name" v="Berge" />
		<tag k="ssr:stedsnr" v="46804" />
	</node>
	<node lat="60.58610000127208" lon="6.637524992121904" id="-35055">
		<tag k="bridge" v="yes" />
		<tag k="layer" v="1" />
		<tag k="name" v="Skjervet" />
		<tag k="ssr:stedsnr" v="46806" />
	</node>
	<node lat="60.590233330606765" lon="6.527908341576648" id="-35137">
		<tag k="highway" v="path" />
		<tag k="name" v="Harkakleivi" />
		<tag k="ssr:stedsnr" v="82015" />
	</node>
	<node lat="60.45838333119823" lon="6.5923527859532305" id="-35266">
		<tag k="bridge" v="yes" />
		<tag k="layer" v="1" />
		<tag k="name" v="Naustvik" />
		<tag k="ssr:stedsnr" v="107807" />
	</node>
	<node lat="60.52951111494429" lon="6.72823611389167" id="-35267">
		<tag k="bridge" v="yes" />
		<tag k="layer" v="1" />
		<tag k="name" v="Hyrpo" />
		<tag k="ssr:stedsnr" v="107823" />
	</node>
	<node lat="60.693955551176415" lon="6.840483336848366" id="-35293">
		<tag k="name" v="Mjølfjell stasjon" />
		<tag k="railway" v="station" />
		<tag k="ssr:stedsnr" v="249944" />
		<tag k="train" v="yes" />
	</node>
	<node lat="60.607238892164204" lon="6.579672213835142" id="-35498">
		<tag k="bridge" v="yes" />
		<tag k="layer" v="1" />
		<tag k="name" v="Heimetun" />
		<tag k="ssr:stedsnr" v="168156" />
	</node>
	<node lat="60.53464999866267" lon="6.07577500149658" id="-35499">
		<tag k="bridge" v="yes" />
		<tag k="layer" v="1" />
		<tag k="name" v="Svartsgrov" />
		<tag k="ssr:stedsnr" v="168177" />
	</node>
	<node lat="60.59517500267416" lon="6.822072223842964" id="-35500">
		<tag k="bridge" v="yes" />
		<tag k="layer" v="1" />
		<tag k="name" v="Espeland" />
		<tag k="ssr:stedsnr" v="168809" />
	</node>
	<node lat="60.63193055992734" lon="6.22130000203532" id="-35588">
		<tag k="highway" v="path" />
		<tag k="name" v="Kyrkjevegen" />
		<tag k="ssr:stedsnr" v="263142" />
	</node>
	<node lat="60.592069445987384" lon="6.273338896510564" id="-35651">
		<tag k="highway" v="path" />
		<tag k="name" v="Tjørnavegen" />
		<tag k="ssr:stedsnr" v="203063" />
	</node>
	<node lat="60.63550278015908" lon="6.451877781077698" id="-35720">
		<tag k="bridge" v="yes" />
		<tag k="layer" v="1" />
		<tag k="name" v="Brynagjelet" />
		<tag k="ssr:stedsnr" v="228831" />
	</node>
	<node lat="60.68116110687766" lon="6.7406999935645455" id="-35721">
		<tag k="bridge" v="yes" />
		<tag k="layer" v="1" />
		<tag k="name" v="Brekke" />
		<tag k="ssr:stedsnr" v="228832" />
	</node>
	<node lat="60.636430552034156" lon="6.439622222632844" id="-35723">
		<tag k="bridge" v="yes" />
		<tag k="layer" v="1" />
		<tag k="name" v="Strandelva" />
		<tag k="ssr:stedsnr" v="229186" />
	</node>
	<node lat="60.705680557064795" lon="6.8952166687878504" id="-35823">
		<tag k="bridge" v="yes" />
		<tag k="layer" v="1" />
		<tag k="name" v="Keep Smiling" />
		<tag k="ssr:stedsnr" v="289135" />
	</node>
	<node lat="60.62185555532728" lon="6.280266663264648" id="-35824">
		<tag k="bridge" v="yes" />
		<tag k="layer" v="1" />
		<tag k="name" v="Grimastad" />
		<tag k="ssr:stedsnr" v="289139" />
	</node>
	<node lat="60.9072944410523" lon="6.4923222249797625" id="-35966">
		<tag k="highway" v="path" />
		<tag k="name" v="Knappevegen" />
		<tag k="ssr:stedsnr" v="470153" />
	</node>
	<node lat="60.5319361095069" lon="6.47527222904093" id="-35967">
		<tag k="bridge" v="yes" />
		<tag k="layer" v="1" />
		<tag k="name" v="Nyestøl" />
		<tag k="ssr:stedsnr" v="470156" />
	</node>
	<node lat="60.558935751893344" lon="6.728349850726063" id="-35997">
		<tag k="bridge" v="yes" />
		<tag k="layer" v="1" />
		<tag k="name" v="Trå" />
		<tag k="ssr:stedsnr" v="470792" />
	</node>
	<node lat="60.72886111010704" lon="6.134661106084575" id="-36004">
		<tag k="bridge" v="yes" />
		<tag k="layer" v="1" />
		<tag k="name" v="Straume" />
		<tag k="ssr:stedsnr" v="471188" />
	</node>
	<node lat="60.684263889768076" lon="6.811466673930941" id="-36005">
		<tag k="bridge" v="yes" />
		<tag k="layer" v="1" />
		<tag k="name" v="Egereidet" />
		<tag k="ssr:stedsnr" v="471800" />
	</node>
	<node lat="60.636127779704196" lon="6.466108336424053" id="-36049">
		<tag k="bridge" v="yes" />
		<tag k="layer" v="1" />
		<tag k="name" v="Palmafoss" />
		<tag k="ssr:stedsnr" v="349204" />
	</node>
	<node lat="60.657961107569584" lon="6.4170861079537245" id="-36053">
		<tag k="bridge" v="yes" />
		<tag k="layer" v="1" />
		<tag k="name" v="Bavallsbrua" />
		<tag k="ssr:stedsnr" v="349809" />
	</node>
	<node lat="60.571672224848925" lon="6.690425006408714" id="-36054">
		<tag k="bridge" v="yes" />
		<tag k="layer" v="1" />
		<tag k="name" v="Seims" />
		<tag k="ssr:stedsnr" v="349814" />
	</node>
	<node lat="60.83855000238256" lon="6.6962999922053665" id="-36057">
		<tag k="bridge" v="yes" />
		<tag k="layer" v="1" />
		<tag k="name" v="Stalheimselv" />
		<tag k="ssr:stedsnr" v="350155" />
	</node>
	<node lat="60.49642499939781" lon="6.667727778919888" id="-36058">
		<tag k="bridge" v="yes" />
		<tag k="layer" v="1" />
		<tag k="name" v="Haukanesberget" />
		<tag k="ssr:stedsnr" v="350802" />
	</node>
	<node lat="60.67818611058124" lon="6.664480552416733" id="-36176">
		<tag k="fixme" v="consider highway=path" />
		<tag k="highway" v="track" />
		<tag k="name" v="Krokvegen" />
		<tag k="ssr:stedsnr" v="409239" />
	</node>
	<node lat="60.645325001602856" lon="6.507047226937678" id="-36190">
		<tag k="name" v="Ygre stasjon" />
		<tag k="railway" v="station" />
		<tag k="ssr:stedsnr" v="409453" />
		<tag k="train" v="yes" />
	</node>
	<node lat="60.589366666095714" lon="6.463830562904383" id="-36224">
		<tag k="bridge" v="yes" />
		<tag k="layer" v="1" />
		<tag k="name" v="Haugsklopp" />
		<tag k="ssr:stedsnr" v="411154" />
	</node>
	<node lat="60.58406944589348" lon="6.206227772477493" id="-36225">
		<tag k="bridge" v="yes" />
		<tag k="layer" v="1" />
		<tag k="name" v="Hodnaberg" />
		<tag k="ssr:stedsnr" v="411156" />
	</node>
	<node lat="60.61930832941573" lon="6.375291661212207" id="-36226">
		<tag k="bridge" v="yes" />
		<tag k="layer" v="1" />
		<tag k="name" v="Kvåle" />
		<tag k="ssr:stedsnr" v="411162" />
	</node>
	<node lat="60.650077780845976" lon="6.111158330938353" id="-36227">
		<tag k="bridge" v="yes" />
		<tag k="layer" v="1" />
		<tag k="name" v="Stampenes" />
		<tag k="ssr:stedsnr" v="411165" />
	</node>
	<node lat="60.79154444006457" lon="6.507433331687199" id="-36228">
		<tag k="bridge" v="yes" />
		<tag k="layer" v="1" />
		<tag k="name" v="Draugsvoll" />
		<tag k="ssr:stedsnr" v="411791" />
	</node>
	<node lat="60.707466663911816" lon="6.318463892916115" id="-36430">
		<tag k="highway" v="path" />
		<tag k="name" v="Gamle Volavegen" />
		<tag k="ssr:stedsnr" v="674320" />
	</node>
	<node lat="60.55737500303987" lon="6.466863893303987" id="-36488">
		<tag k="ford" v="yes" />
		<tag k="name" v="Gratlavad" />
		<tag k="place" v="locality" />
		<tag k="ssr:stedsnr" v="470519" />
	</node>
	<node lat="60.67512500144307" lon="6.6991194401553535" id="-36501">
		<tag k="bridge" v="yes" />
		<tag k="layer" v="1" />
		<tag k="name" v="Skiple" />
		<tag k="ssr:stedsnr" v="471175" />
	</node>
	<node lat="60.61824444178833" lon="6.2844666739909405" id="-36502">
		<tag k="bridge" v="yes" />
		<tag k="layer" v="1" />
		<tag k="name" v="Saue" />
		<tag k="ssr:stedsnr" v="471176" />
	</node>
	<node lat="60.6016388905869" lon="6.353183329831171" id="-36503">
		<tag k="bridge" v="yes" />
		<tag k="layer" v="1" />
		<tag k="name" v="Teigagrova" />
		<tag k="ssr:stedsnr" v="471185" />
	</node>
	<node lat="60.68662222571878" lon="6.830008342189739" id="-36684">
		<tag k="bridge" v="yes" />
		<tag k="layer" v="1" />
		<tag k="name" v="Almenningen" />
		<tag k="ssr:stedsnr" v="531804" />
	</node>
	<node lat="60.57716111276365" lon="6.680455548371255" id="-36685">
		<tag k="bridge" v="yes" />
		<tag k="layer" v="1" />
		<tag k="name" v="Kvernbekk" />
		<tag k="ssr:stedsnr" v="532790" />
	</node>
	<node lat="60.75431666735049" lon="6.628475008406989" id="-36751">
		<tag k="ford" v="yes" />
		<tag k="name" v="Krokavadet" />
		<tag k="place" v="locality" />
		<tag k="ssr:stedsnr" v="554197" />
	</node>
	<node lat="60.86101388878904" lon="6.480386118810229" id="-36796">
		<tag k="highway" v="path" />
		<tag k="name" v="Budeievegen" />
		<tag k="ssr:stedsnr" v="688353" />
	</node>
	<node lat="60.64264722132317" lon="6.236988883478294" id="-36900">
		<tag k="bridge" v="yes" />
		<tag k="layer" v="1" />
		<tag k="name" v="Hovda" />
		<tag k="ssr:stedsnr" v="592161" />
	</node>
	<node lat="60.695358337779176" lon="6.847641663293197" id="-36901">
		<tag k="bridge" v="yes" />
		<tag k="layer" v="1" />
		<tag k="name" v="Mjølfjell" />
		<tag k="ssr:stedsnr" v="592171" />
	</node>
	<node lat="60.78092500084369" lon="6.5703444460728635" id="-36902">
		<tag k="bridge" v="yes" />
		<tag k="layer" v="1" />
		<tag k="name" v="Langjola" />
		<tag k="ssr:stedsnr" v="592176" />
	</node>
	<node lat="60.75012499790999" lon="6.500691667494294" id="-36903">
		<tag k="bridge" v="yes" />
		<tag k="layer" v="1" />
		<tag k="name" v="Skogstad" />
		<tag k="ssr:stedsnr" v="592178" />
	</node>
	<node lat="60.45667221864439" lon="6.581463880736738" id="-36904">
		<tag k="bridge" v="yes" />
		<tag k="layer" v="1" />
		<tag k="name" v="Hagen" />
		<tag k="ssr:stedsnr" v="592864" />
	</node>
	<node lat="60.48457777581961" lon="6.684833341665122" id="-37020">
		<tag k="highway" v="path" />
		<tag k="name" v="Bjønnstien" />
		<tag k="ssr:stedsnr" v="705868" />
	</node>
	<node lat="60.647769442742984" lon="6.106516674728842" id="-37089">
		<tag k="bridge" v="yes" />
		<tag k="layer" v="1" />
		<tag k="name" v="Væle" />
		<tag k="ssr:stedsnr" v="653109" />
	</node>
	<node lat="60.679538889528295" lon="6.593208331770015" id="-37217">
		<tag k="name" v="Urdland stasjon" />
		<tag k="railway" v="station" />
		<tag k="ssr:stedsnr" v="895347" />
		<tag k="train" v="yes" />
	</node>
	<node lat="60.634455555859375" lon="6.466072226904306" id="-37224">
		<tag k="name" v="Palmafossen" />
		<tag k="railway" v="station" />
		<tag k="ssr:stedsnr" v="895440" />
		<tag k="train" v="yes" />
	</node>
	<node lat="60.58549398714087" lon="6.612764506605939" id="-37251">
		<tag k="bridge" v="yes" />
		<tag k="layer" v="1" />
		<tag k="name" v="Svelgane Nedre" />
		<tag k="ssr:stedsnr" v="896828" />
	</node>
	<node lat="60.5619250035918" lon="6.732516665869084" id="-37252">
		<tag k="bridge" v="yes" />
		<tag k="layer" v="1" />
		<tag k="name" v="Trågjel" />
		<tag k="ssr:stedsnr" v="896830" />
	</node>
	<node lat="60.464025000569286" lon="6.60611667552838" id="-37253">
		<tag k="bridge" v="yes" />
		<tag k="layer" v="1" />
		<tag k="name" v="Saltskår" />
		<tag k="ssr:stedsnr" v="896833" />
	</node>
	<node lat="60.50268055857678" lon="6.680755549060487" id="-37254">
		<tag k="bridge" v="yes" />
		<tag k="layer" v="1" />
		<tag k="name" v="Haukanes" />
		<tag k="ssr:stedsnr" v="896846" />
	</node>
	<node lat="60.55507111720667" lon="6.730285464632994" id="-37300">
		<tag k="bridge" v="yes" />
		<tag k="layer" v="1" />
		<tag k="name" v="Kyrkje-Elv" />
		<tag k="ssr:stedsnr" v="713805" />
	</node>
	<node lat="60.654969448012665" lon="6.445358324719333" id="-37304">
		<tag k="bridge" v="yes" />
		<tag k="layer" v="1" />
		<tag k="name" v="Kvitheim" />
		<tag k="ssr:stedsnr" v="714131" />
	</node>
	<node lat="60.472024995782796" lon="6.612686114412581" id="-37305">
		<tag k="amenity" v="ferry_terminal" />
		<tag k="name" v="Kvanndal ferjekai" />
		<tag k="ssr:stedsnr" v="714806" />
	</node>
	<node lat="60.64618055964778" lon="6.135188889469283" id="-37455">
		<tag k="bridge" v="yes" />
		<tag k="layer" v="1" />
		<tag k="name" v="Skorve" />
		<tag k="ssr:stedsnr" v="775155" />
	</node>
	<node lat="60.67831944544456" lon="6.75308334084593" id="-37456">
		<tag k="bridge" v="yes" />
		<tag k="layer" v="1" />
		<tag k="name" v="Reime" />
		<tag k="ssr:stedsnr" v="775158" />
	</node>
	<node lat="60.91002500344608" lon="6.4565277779680645" id="-37457">
		<tag k="bridge" v="yes" />
		<tag k="layer" v="1" />
		<tag k="name" v="Veagrov" />
		<tag k="ssr:stedsnr" v="775165" />
	</node>
	<node lat="60.631761113016836" lon="6.35509444400595" id="-37629">
		<tag k="highway" v="path" />
		<tag k="name" v="Årsvegen" />
		<tag k="ssr:stedsnr" v="810963" />
	</node>
	<node lat="60.60303888927629" lon="6.362616674735057" id="-37672">
		<tag k="bridge" v="yes" />
		<tag k="layer" v="1" />
		<tag k="name" v="Vannjola" />
		<tag k="ssr:stedsnr" v="836132" />
	</node>
	<node lat="60.470661111828505" lon="6.608541672316805" id="-37673">
		<tag k="bridge" v="yes" />
		<tag k="layer" v="1" />
		<tag k="name" v="Kvanndal" />
		<tag k="ssr:stedsnr" v="836812" />
	</node>
	<node lat="60.49113640574915" lon="6.496705692778803" id="-37677">
		<tag k="man_made" v="cairn" />
		<tag k="name" v="Grim" />
		<tag k="place" v="locality" />
		<tag k="ssr:stedsnr" v="855791" />
	</node>
	<node lat="60.656897218488595" lon="6.326016671818332" id="-37758">
		<tag k="highway" v="path" />
		<tag k="name" v="Bustigen" />
		<tag k="ssr:stedsnr" v="870913" />
	</node>
	<node lat="60.792349996128465" lon="6.673527774852653" id="-37803">
		<tag k="highway" v="path" />
		<tag k="name" v="Stølavegen" />
		<tag k="ssr:stedsnr" v="931372" />
	</node>
	<node lat="60.60982777677387" lon="6.342580553972429" id="-37864">
		<tag k="bridge" v="yes" />
		<tag k="layer" v="1" />
		<tag k="name" v="Vindsand" />
		<tag k="ssr:stedsnr" v="896116" />
	</node>
	<node lat="60.675569440213984" lon="6.096780563863496" id="-37865">
		<tag k="bridge" v="yes" />
		<tag k="layer" v="1" />
		<tag k="name" v="Mestad" />
		<tag k="ssr:stedsnr" v="896157" />
	</node>
	<node lat="60.72219721962534" lon="6.494372229015807" id="-37866">
		<tag k="bridge" v="yes" />
		<tag k="layer" v="1" />
		<tag k="name" v="Leidal" />
		<tag k="ssr:stedsnr" v="896160" />
	</node>
	<node lat="60.63100555643793" lon="6.275755558337098" id="-37867">
		<tag k="bridge" v="yes" />
		<tag k="layer" v="1" />
		<tag k="name" v="Liland" />
		<tag k="ssr:stedsnr" v="896161" />
	</node>
	<node lat="60.80642222247928" lon="6.661066664274953" id="-37868">
		<tag k="bridge" v="yes" />
		<tag k="layer" v="1" />
		<tag k="name" v="Lunde" />
		<tag k="ssr:stedsnr" v="896163" />
	</node>
	<node lat="60.803061114642624" lon="6.499261116777391" id="-37869">
		<tag k="bridge" v="yes" />
		<tag k="layer" v="1" />
		<tag k="name" v="Ulvundsøy" />
		<tag k="ssr:stedsnr" v="896180" />
	</node>
	<node lat="60.48795555700626" lon="6.64832500030955" id="-38009">
		<tag k="bridge" v="yes" />
		<tag k="layer" v="1" />
		<tag k="name" v="Folkedal" />
		<tag k="ssr:stedsnr" v="957815" />
	</node>
	<node lat="60.68018930225928" lon="6.627495667558174" id="-38022">
		<tag k="name" v="Øyeflaten haldeplass" />
		<tag k="railway" v="halt" />
		<tag k="ssr:stedsnr" v="989649" />
		<tag k="train" v="yes" />
	</node>
	<node lat="60.57793888725406" lon="6.679499994606712" id="-38025">
		<tag k="bridge" v="yes" />
		<tag k="layer" v="1" />
		<tag k="name" v="Skorvo" />
		<tag k="ssr:stedsnr" v="228821" />
	</node>
	<node lat="60.85523611346144" lon="6.470741671234847" id="-38165">
		<tag k="highway" v="path" />
		<tag k="name" v="Leinevegen" />
		<tag k="ssr:stedsnr" v="21358" />
	</node>
	<node lat="60.64459722607392" lon="6.354172214693677" id="-38179">
		<tag k="highway" v="path" />
		<tag k="name" v="Kvitingsvegen" />
		<tag k="ssr:stedsnr" v="21953" />
	</node>
	<node lat="60.6289983270605" lon="6.4100885868080795" id="-38183">
		<tag k="name" v="Voss stasjon" />
		<tag k="railway" v="station" />
		<tag k="ssr:stedsnr" v="37236" />
		<tag k="train" v="yes" />
	</node>
	<node lat="60.54604722359643" lon="6.64867223001077" id="-38386">
		<tag k="highway" v="path" />
		<tag k="name" v="Nautastien" />
		<tag k="ssr:stedsnr" v="99940" />
	</node>
	<node lat="60.64224721890384" lon="6.230547215986579" id="-38420">
		<tag k="bridge" v="yes" />
		<tag k="layer" v="1" />
		<tag k="name" v="Vesterheim" />
		<tag k="ssr:stedsnr" v="107096" />
	</node>
	<node lat="60.64726667003193" lon="6.104266674697105" id="-38421">
		<tag k="bridge" v="yes" />
		<tag k="layer" v="1" />
		<tag k="name" v="Vossedalselva" />
		<tag k="ssr:stedsnr" v="107097" />
	</node>
	<node lat="60.545783337367034" lon="6.670952780239553" id="-38587">
		<tag k="highway" v="path" />
		<tag k="name" v="Horgastien" />
		<tag k="ssr:stedsnr" v="159869" />
	</node>
	<node lat="60.54418332955426" lon="6.664327770999726" id="-38588">
		<tag k="highway" v="path" />
		<tag k="name" v="Midtstien" />
		<tag k="ssr:stedsnr" v="159870" />
	</node>
	<node lat="60.54477778070559" lon="6.682941669761014" id="-38603">
		<tag k="highway" v="path" />
		<tag k="name" v="Jennstegane" />
		<tag k="ssr:stedsnr" v="160772" />
	</node>
	<node lat="60.78238333110189" lon="6.558675001586926" id="-38641">
		<tag k="bridge" v="yes" />
		<tag k="layer" v="1" />
		<tag k="name" v="Osa" />
		<tag k="ssr:stedsnr" v="167188" />
	</node>
	<node lat="60.86297777498895" lon="6.496113893386783" id="-38654">
		<tag k="bridge" v="yes" />
		<tag k="layer" v="1" />
		<tag k="name" v="Fossegrov" />
		<tag k="ssr:stedsnr" v="168790" />
	</node>
	<node lat="60.87342222016092" lon="6.498872217458385" id="-38655">
		<tag k="bridge" v="yes" />
		<tag k="layer" v="1" />
		<tag k="name" v="Kvitagrov" />
		<tag k="ssr:stedsnr" v="168150" />
	</node>
	<node lat="60.773902774562195" lon="6.485691669936268" id="-38656">
		<tag k="bridge" v="yes" />
		<tag k="layer" v="1" />
		<tag k="name" v="Hole" />
		<tag k="ssr:stedsnr" v="168152" />
	</node>
	<node lat="60.797002775708826" lon="6.519130549665408" id="-38740">
		<tag k="highway" v="path" />
		<tag k="name" v="Kvinnestigen" />
		<tag k="ssr:stedsnr" v="203220" />
	</node>
	<node lat="60.84843888695013" lon="6.453933334401386" id="-38770">
		<tag k="ford" v="yes" />
		<tag k="name" v="Nyavadet" />
		<tag k="place" v="locality" />
		<tag k="ssr:stedsnr" v="203382" />
	</node>
</osm>
