<?xml version="1.0" encoding="UTF-8"?>
<osm version="0.6" generator="osmapis">
	<node lat="60.4694999979691" lon="6.481933333168535" id="-29897">
		<tag k="fixme" v="consider natural=peak for the most distinct mountains in the district" />
		<tag k="name" v="Grubbafjellet" />
		<tag k="natural" v="hill" />
		<tag k="place" v="locality" />
		<tag k="ssr:stedsnr" v="5210" />
	</node>
	<node lat="60.63305555613527" lon="6.0524583417076805" id="-29903">
		<tag k="name" v="Bjørnsgjelet" />
		<tag k="natural" v="valley" />
		<tag k="place" v="locality" />
		<tag k="ssr:stedsnr" v="6156" />
	</node>
	<node lat="60.61830278028268" lon="6.123333335027014" id="-29905">
		<tag k="name" v="Skirveggjaskardet" />
		<tag k="natural" v="valley" />
		<tag k="place" v="locality" />
		<tag k="ssr:stedsnr" v="6168" />
	</node>
	<node lat="60.66386110976311" lon="6.28856943702773" id="-29908">
		<tag k="fixme" v="consider natural=peak for the most distinct mountains in the district" />
		<tag k="name" v="Frilieggi" />
		<tag k="natural" v="hill" />
		<tag k="place" v="locality" />
		<tag k="ssr:stedsnr" v="6315" />
	</node>
	<node lat="60.67885277663141" lon="6.399999991354988" id="-29909">
		<tag k="fixme" v="consider natural=peak for the most distinct mountains in the district" />
		<tag k="name" v="Langahorgi" />
		<tag k="natural" v="hill" />
		<tag k="place" v="locality" />
		<tag k="ssr:stedsnr" v="6321" />
	</node>
	<node lat="60.676341670320504" lon="6.294094450137261" id="-29911">
		<tag k="name" v="Sledavarden" />
		<tag k="natural" v="hill" />
		<tag k="place" v="locality" />
		<tag k="ssr:stedsnr" v="6325" />
	</node>
	<node lat="60.62545277395404" lon="6.101702775872562" id="-29915">
		<tag k="name" v="Lammahaugane" />
		<tag k="natural" v="hill" />
		<tag k="place" v="locality" />
		<tag k="ssr:stedsnr" v="6201" />
	</node>
	<node lat="60.64227500152002" lon="6.284861113229331" id="-29916">
		<tag k="fixme" v="consider natural=peak for the most distinct mountains in the district" />
		<tag k="name" v="Lomknausen" />
		<tag k="natural" v="hill" />
		<tag k="place" v="locality" />
		<tag k="ssr:stedsnr" v="6277" />
	</node>
	<node lat="60.57998610917892" lon="6.559638895912851" id="-29920">
		<tag k="fixme" v="consider natural=peak for the most distinct mountains in the district" />
		<tag k="name" v="Vardafjellet" />
		<tag k="natural" v="hill" />
		<tag k="place" v="locality" />
		<tag k="ssr:stedsnr" v="6594" />
	</node>
	<node lat="60.5289750011925" lon="6.083861102624037" id="-29923">
		<tag k="name" v="Hallene" />
		<tag k="natural" v="slope" />
		<tag k="place" v="locality" />
		<tag k="ssr:stedsnr" v="6811" />
	</node>
	<node lat="60.566255556622615" lon="6.206827779678655" id="-29924">
		<tag k="fixme" v="consider natural=peak for the most distinct mountains in the district" />
		<tag k="name" v="Åsen" />
		<tag k="natural" v="hill" />
		<tag k="place" v="locality" />
		<tag k="ssr:stedsnr" v="6872" />
	</node>
	<node lat="60.64797499802396" lon="5.930419441119928" id="-29930">
		<tag k="name" v="Grøndalen" />
		<tag k="natural" v="valley" />
		<tag k="place" v="locality" />
		<tag k="ssr:stedsnr" v="7001" />
	</node>
	<node lat="60.529138892763115" lon="6.390622224955414" id="-29931">
		<tag k="fixme" v="consider natural=peak for the most distinct mountains in the district" />
		<tag k="name" v="Skjemmuna" />
		<tag k="natural" v="hill" />
		<tag k="place" v="locality" />
		<tag k="ssr:stedsnr" v="7501" />
	</node>
	<node lat="60.58806388539627" lon="6.250866673617711" id="-29940">
		<tag k="fixme" v="consider natural=peak for the most distinct mountains in the district" />
		<tag k="name" v="Tjørnahorgi" />
		<tag k="natural" v="hill" />
		<tag k="place" v="locality" />
		<tag k="ssr:stedsnr" v="7626" />
	</node>
	<node lat="60.60566944879725" lon="6.517119440875783" id="-29941">
		<tag k="name" v="Hesthaugane" />
		<tag k="natural" v="hill" />
		<tag k="place" v="locality" />
		<tag k="ssr:stedsnr" v="7628" />
	</node>
	<node lat="60.58716666879952" lon="6.564597222492295" id="-29945">
		<tag k="name" v="Langesetskaret" />
		<tag k="natural" v="valley" />
		<tag k="place" v="locality" />
		<tag k="ssr:stedsnr" v="7661" />
	</node>
	<node lat="60.61866944435022" lon="6.475627780609544" id="-29949">
		<tag k="name" v="Nonshaugane" />
		<tag k="natural" v="hill" />
		<tag k="place" v="locality" />
		<tag k="ssr:stedsnr" v="7721" />
	</node>
	<node lat="60.62566666369446" lon="6.544449998037695" id="-29950">
		<tag k="name" v="Løypet" />
		<tag k="natural" v="slope" />
		<tag k="place" v="locality" />
		<tag k="ssr:stedsnr" v="7730" />
	</node>
	<node lat="60.55089722187785" lon="6.820380553424778" id="-29951">
		<tag k="name" v="Øvre Skjelmarhaugen" />
		<tag k="natural" v="hill" />
		<tag k="place" v="locality" />
		<tag k="ssr:stedsnr" v="7796" />
	</node>
	<node lat="60.5609083316724" lon="6.621744450611483" id="-29953">
		<tag k="name" v="Lyklaknappen" />
		<tag k="natural" v="hill" />
		<tag k="place" v="locality" />
		<tag k="ssr:stedsnr" v="7855" />
	</node>
	<node lat="60.87094444029404" lon="6.339761117230672" id="-29957">
		<tag k="fixme" v="consider natural=peak for the most distinct mountains in the district" />
		<tag k="name" v="Horgi" />
		<tag k="natural" v="hill" />
		<tag k="place" v="locality" />
		<tag k="ssr:stedsnr" v="8591" />
	</node>
	<node lat="60.88164444443206" lon="6.389813891645316" id="-29958">
		<tag k="fixme" v="consider natural=peak for the most distinct mountains in the district" />
		<tag k="name" v="Tverrgavlane" />
		<tag k="natural" v="hill" />
		<tag k="place" v="locality" />
		<tag k="ssr:stedsnr" v="8597" />
	</node>
	<node lat="60.61233611154607" lon="6.31797500856192" id="-29963">
		<tag k="name" v="Dagestadhagane" />
		<tag k="natural" v="slope" />
		<tag k="place" v="locality" />
		<tag k="ssr:stedsnr" v="20087" />
	</node>
	<node lat="60.51279444548061" lon="6.287288884649188" id="-29964">
		<tag k="name" v="Bukanolten" />
		<tag k="natural" v="ridge" />
		<tag k="place" v="locality" />
		<tag k="ssr:stedsnr" v="20202" />
	</node>
	<node lat="60.83295000198839" lon="6.518311106459177" id="-29965">
		<tag k="name" v="Bordi" />
		<tag k="natural" v="slope" />
		<tag k="place" v="locality" />
		<tag k="ssr:stedsnr" v="20243" />
	</node>
	<node lat="60.78408610986345" lon="6.607188893573268" id="-29967">
		<tag k="name" v="Hestahaugen" />
		<tag k="natural" v="hill" />
		<tag k="place" v="locality" />
		<tag k="ssr:stedsnr" v="20145" />
	</node>
	<node lat="60.81015277724346" lon="6.5700111175682565" id="-29968">
		<tag k="name" v="Stølshaugbrekkene" />
		<tag k="natural" v="slope" />
		<tag k="place" v="locality" />
		<tag k="ssr:stedsnr" v="20259" />
	</node>
	<node lat="60.820052779376155" lon="6.577191673715752" id="-29969">
		<tag k="name" v="Vetle-Svarthammaren" />
		<tag k="natural" v="hill" />
		<tag k="place" v="locality" />
		<tag k="ssr:stedsnr" v="20263" />
	</node>
	<node lat="60.61358889032169" lon="6.165966658080373" id="-29973">
		<tag k="name" v="Turrehaugen" />
		<tag k="natural" v="hill" />
		<tag k="place" v="locality" />
		<tag k="ssr:stedsnr" v="21239" />
	</node>
	<node lat="60.614963888009264" lon="6.1381972232364586" id="-29974">
		<tag k="name" v="Tungeteigen" />
		<tag k="natural" v="slope" />
		<tag k="place" v="locality" />
		<tag k="ssr:stedsnr" v="21243" />
	</node>
	<node lat="60.61328055929383" lon="6.220911109741322" id="-29975">
		<tag k="name" v="Teltberget" />
		<tag k="natural" v="hill" />
		<tag k="place" v="locality" />
		<tag k="ssr:stedsnr" v="21249" />
	</node>
	<node lat="60.6408777818888" lon="5.894300002265902" id="-29976">
		<tag k="name" v="Løypet" />
		<tag k="natural" v="valley" />
		<tag k="place" v="locality" />
		<tag k="ssr:stedsnr" v="20939" />
	</node>
	<node lat="60.658266669600444" lon="5.924275000909371" id="-29977">
		<tag k="name" v="Fagerteigen" />
		<tag k="natural" v="slope" />
		<tag k="place" v="locality" />
		<tag k="ssr:stedsnr" v="20946" />
	</node>
	<node lat="60.59730278153478" lon="6.1927583278106875" id="-29978">
		<tag k="name" v="Bruhaugen" />
		<tag k="natural" v="hill" />
		<tag k="place" v="locality" />
		<tag k="ssr:stedsnr" v="20950" />
	</node>
	<node lat="60.718858331012704" lon="6.121555548302842" id="-29981">
		<tag k="name" v="Kvitlane" />
		<tag k="natural" v="slope" />
		<tag k="place" v="locality" />
		<tag k="ssr:stedsnr" v="21534" />
	</node>
	<node lat="60.67196389157065" lon="6.066322228632164" id="-29982">
		<tag k="name" v="Svedne" />
		<tag k="natural" v="slope" />
		<tag k="place" v="locality" />
		<tag k="ssr:stedsnr" v="21701" />
	</node>
	<node lat="60.681063889779416" lon="5.955730557460805" id="-29983">
		<tag k="name" v="Skorvedalen" />
		<tag k="natural" v="valley" />
		<tag k="place" v="locality" />
		<tag k="ssr:stedsnr" v="21707" />
	</node>
	<node lat="60.63867500179968" lon="6.07641665964725" id="-29985">
		<tag k="name" v="Kattagili" />
		<tag k="natural" v="gorge" />
		<tag k="ssr:stedsnr" v="21683" />
	</node>
	<node lat="60.677386109827424" lon="6.008672227448911" id="-29986">
		<tag k="name" v="Flisebakkane" />
		<tag k="natural" v="slope" />
		<tag k="place" v="locality" />
		<tag k="ssr:stedsnr" v="21812" />
	</node>
	<node lat="60.66695277707096" lon="6.387925007074756" id="-29988">
		<tag k="name" v="Middagshola" />
		<tag k="natural" v="valley" />
		<tag k="place" v="locality" />
		<tag k="ssr:stedsnr" v="21902" />
	</node>
	<node lat="60.45829444478089" lon="6.632894443316193" id="-29990">
		<tag k="name" v="Bjørgi" />
		<tag k="natural" v="slope" />
		<tag k="place" v="locality" />
		<tag k="ssr:stedsnr" v="22203" />
	</node>
	<node lat="60.44829722561743" lon="6.6821166601582735" id="-29992">
		<tag k="name" v="Kleivaskar" />
		<tag k="natural" v="hill" />
		<tag k="place" v="locality" />
		<tag k="ssr:stedsnr" v="38601" />
	</node>
	<node lat="60.47583055623432" lon="6.7477444389378105" id="-29993">
		<tag k="name" v="Bulegena" />
		<tag k="place" v="locality" />
		<tag k="ssr:stedsnr" v="38704" />
	</node>
	<node lat="60.45915000447721" lon="6.736738887886008" id="-29994">
		<tag k="name" v="Nabbahaugane" />
		<tag k="natural" v="hill" />
		<tag k="place" v="locality" />
		<tag k="ssr:stedsnr" v="38710" />
	</node>
	<node lat="60.47510277693595" lon="6.758402773362084" id="-29995">
		<tag k="name" v="Bukkaskorane" />
		<tag k="natural" v="hill" />
		<tag k="place" v="locality" />
		<tag k="ssr:stedsnr" v="38720" />
	</node>
	<node lat="60.59056388534622" lon="6.674574998212898" id="-29997">
		<tag k="name" v="Drevdalen" />
		<tag k="natural" v="valley" />
		<tag k="place" v="locality" />
		<tag k="ssr:stedsnr" v="38903" />
	</node>
	<node lat="60.50351944688834" lon="6.703911115222543" id="-29998">
		<tag k="name" v="Breiskårsnuten" />
		<tag k="natural" v="hill" />
		<tag k="place" v="locality" />
		<tag k="ssr:stedsnr" v="38907" />
	</node>
	<node lat="60.50984444342571" lon="6.711152774085852" id="-29999">
		<tag k="name" v="Langedalsberget" />
		<tag k="natural" v="hill" />
		<tag k="place" v="locality" />
		<tag k="ssr:stedsnr" v="38909" />
	</node>
	<node lat="60.60685833549474" lon="6.701602773425509" id="-30002">
		<tag k="name" v="Nollen" />
		<tag k="natural" v="ridge" />
		<tag k="place" v="locality" />
		<tag k="ssr:stedsnr" v="38806" />
	</node>
	<node lat="60.58028332909502" lon="6.711113896726333" id="-30003">
		<tag k="name" v="Tryglaskar" />
		<tag k="natural" v="valley" />
		<tag k="place" v="locality" />
		<tag k="ssr:stedsnr" v="38816" />
	</node>
	<node lat="60.61856944170741" lon="6.739283332419324" id="-30004">
		<tag k="name" v="Våi" />
		<tag k="natural" v="slope" />
		<tag k="place" v="locality" />
		<tag k="ssr:stedsnr" v="38821" />
	</node>
	<node lat="60.55200833023389" lon="6.792336120250002" id="-30005">
		<tag k="alt_name" v="Skårane" />
		<tag k="name" v="Skorane" />
		<tag k="natural" v="hill" />
		<tag k="place" v="locality" />
		<tag k="ssr:stedsnr" v="38859" />
	</node>
	<node lat="60.767747218037336" lon="6.611536107686475" id="-30009">
		<tag k="name" v="Mølmagrønbakkane" />
		<tag k="natural" v="slope" />
		<tag k="place" v="locality" />
		<tag k="ssr:stedsnr" v="44898" />
	</node>
	<node lat="60.68478611416653" lon="6.731313896078522" id="-30010">
		<tag k="name" v="Sverrdalen" />
		<tag k="natural" v="valley" />
		<tag k="place" v="locality" />
		<tag k="ssr:stedsnr" v="44911" />
	</node>
	<node lat="60.89771667058098" lon="6.62909166414534" id="-30011">
		<tag k="name" v="Brotet" />
		<tag k="place" v="locality" />
		<tag k="ssr:stedsnr" v="45101" />
	</node>
	<node lat="60.890905552825394" lon="6.705555555927613" id="-30012">
		<tag k="name" v="Stølslii" />
		<tag k="natural" v="slope" />
		<tag k="place" v="locality" />
		<tag k="ssr:stedsnr" v="45173" />
	</node>
	<node lat="60.89945833003178" lon="6.7130444483076985" id="-30014">
		<tag k="name" v="Hogsteren" />
		<tag k="place" v="locality" />
		<tag k="ssr:stedsnr" v="45177" />
	</node>
	<node lat="60.89631389338372" lon="6.711561115755465" id="-30015">
		<tag k="name" v="Nåsolii" />
		<tag k="natural" v="slope" />
		<tag k="place" v="locality" />
		<tag k="ssr:stedsnr" v="45179" />
	</node>
	<node lat="60.90262618474782" lon="6.741213572486467" id="-30016">
		<tag k="name" v="Hondahola" />
		<tag k="place" v="locality" />
		<tag k="ssr:stedsnr" v="45181" />
	</node>
	<node lat="60.678797220174744" lon="6.630438883426362" id="-30017">
		<tag k="name" v="Øyeflaten" />
		<tag k="place" v="locality" />
		<tag k="ssr:stedsnr" v="45186" />
	</node>
	<node lat="60.6802888862964" lon="6.648069451605212" id="-30018">
		<tag k="name" v="Storskori" />
		<tag k="place" v="locality" />
		<tag k="ssr:stedsnr" v="45190" />
	</node>
	<node lat="60.695819218187474" lon="6.681509984028789" id="-30019">
		<tag k="name" v="Sygnaberdshovden" />
		<tag k="natural" v="hill" />
		<tag k="place" v="locality" />
		<tag k="ssr:stedsnr" v="45302" />
	</node>
	<node lat="60.86661667005604" lon="6.601402768701524" id="-30020">
		<tag k="name" v="Hoven" />
		<tag k="place" v="locality" />
		<tag k="ssr:stedsnr" v="45075" />
	</node>
	<node lat="60.69818333627584" lon="6.697247213624849" id="-30021">
		<tag k="name" v="Dryftabotn" />
		<tag k="natural" v="valley" />
		<tag k="place" v="locality" />
		<tag k="ssr:stedsnr" v="45287" />
	</node>
	<node lat="60.56566944596282" lon="6.426272223703929" id="-30023">
		<tag k="name" v="Bjørgi" />
		<tag k="natural" v="hill" />
		<tag k="place" v="locality" />
		<tag k="ssr:stedsnr" v="45520" />
	</node>
	<node lat="60.564524997293795" lon="6.427699997014169" id="-30024">
		<tag k="name" v="Sletteli" />
		<tag k="natural" v="slope" />
		<tag k="place" v="locality" />
		<tag k="ssr:stedsnr" v="45522" />
	</node>
	<node lat="60.58381111086845" lon="6.490716673092286" id="-30025">
		<tag k="name" v="Kvasshaugane" />
		<tag k="natural" v="hill" />
		<tag k="place" v="locality" />
		<tag k="ssr:stedsnr" v="45523" />
	</node>
	<node lat="60.645055558214466" lon="6.515413889708988" id="-30027">
		<tag k="name" v="Kristitræet" />
		<tag k="place" v="locality" />
		<tag k="ssr:stedsnr" v="45472" />
	</node>
	<node lat="60.5427249971274" lon="6.210466662364265" id="-30030">
		<tag k="name" v="Hardingaskaret" />
		<tag k="natural" v="valley" />
		<tag k="place" v="locality" />
		<tag k="ssr:stedsnr" v="45951" />
	</node>
	<node lat="60.572033332969355" lon="6.195536108281889" id="-30031">
		<tag k="name" v="Hjellane" />
		<tag k="place" v="locality" />
		<tag k="ssr:stedsnr" v="45976" />
	</node>
	<node lat="60.614558336375595" lon="6.092711116646348" id="-30032">
		<tag k="name" v="Belaskaret" />
		<tag k="natural" v="valley" />
		<tag k="place" v="locality" />
		<tag k="ssr:stedsnr" v="45989" />
	</node>
	<node lat="60.621655556575774" lon="6.104249991108827" id="-30033">
		<tag k="name" v="Småholena" />
		<tag k="place" v="locality" />
		<tag k="ssr:stedsnr" v="45991" />
	</node>
	<node lat="60.592802775255784" lon="6.480069444022954" id="-30040">
		<tag k="name" v="Slettaberget" />
		<tag k="natural" v="hill" />
		<tag k="place" v="locality" />
		<tag k="ssr:stedsnr" v="46711" />
	</node>
	<node lat="60.557116667094014" lon="6.502369443195093" id="-30041">
		<tag k="name" v="Gråknausen" />
		<tag k="natural" v="hill" />
		<tag k="place" v="locality" />
		<tag k="ssr:stedsnr" v="46726" />
	</node>
	<node lat="60.64190277645924" lon="5.934508326112449" id="-30051">
		<tag k="fixme" v="consider natural=peak for the most distinct mountains in the district" />
		<tag k="name" v="Flåtaberget" />
		<tag k="natural" v="hill" />
		<tag k="place" v="locality" />
		<tag k="ssr:stedsnr" v="67113" />
	</node>
	<node lat="60.63532500339841" lon="6.2136027784087275" id="-30055">
		<tag k="name" v="Knoltane" />
		<tag k="natural" v="hill" />
		<tag k="place" v="locality" />
		<tag k="ssr:stedsnr" v="67124" />
	</node>
	<node lat="60.63576388918037" lon="6.115808327278593" id="-30057">
		<tag k="name" v="Snøbandslii" />
		<tag k="natural" v="slope" />
		<tag k="place" v="locality" />
		<tag k="ssr:stedsnr" v="67131" />
	</node>
	<node lat="60.71837500198622" lon="5.9247805472075585" id="-30064">
		<tag k="name" v="Dyretørne" />
		<tag k="natural" v="valley" />
		<tag k="place" v="locality" />
		<tag k="ssr:stedsnr" v="67444" />
	</node>
	<node lat="60.65500277902985" lon="6.292080551447803" id="-30065">
		<tag k="name" v="Storhaugen" />
		<tag k="natural" v="hill" />
		<tag k="place" v="locality" />
		<tag k="ssr:stedsnr" v="67303" />
	</node>
	<node lat="60.68248889042594" lon="6.418024992311881" id="-30068">
		<tag k="fixme" v="consider natural=peak for the most distinct mountains in the district" />
		<tag k="name" v="Nonpresten" />
		<tag k="natural" v="hill" />
		<tag k="place" v="locality" />
		<tag k="ssr:stedsnr" v="67324" />
	</node>
	<node lat="60.74536666655397" lon="6.210666670681028" id="-30069">
		<tag k="fixme" v="consider natural=peak for the most distinct mountains in the district" />
		<tag k="name" v="Storenolten" />
		<tag k="natural" v="hill" />
		<tag k="place" v="locality" />
		<tag k="ssr:stedsnr" v="67391" />
	</node>
	<node lat="60.69562778135981" lon="5.90384444221095" id="-30071">
		<tag k="name" v="Stoadalen" />
		<tag k="natural" v="valley" />
		<tag k="place" v="locality" />
		<tag k="ssr:stedsnr" v="67505" />
	</node>
	<node lat="60.56559166991921" lon="6.572202778047433" id="-30076">
		<tag k="name" v="Storhaugen" />
		<tag k="natural" v="hill" />
		<tag k="place" v="locality" />
		<tag k="ssr:stedsnr" v="67608" />
	</node>
	<node lat="60.53783610751837" lon="6.2026444493067325" id="-30078">
		<tag k="name" v="Seljebotnen" />
		<tag k="natural" v="valley" />
		<tag k="place" v="locality" />
		<tag k="ssr:stedsnr" v="67806" />
	</node>
	<node lat="60.561724998513675" lon="6.387775004457718" id="-30080">
		<tag k="fixme" v="consider natural=peak for the most distinct mountains in the district" />
		<tag k="name" v="Sandfjellet" />
		<tag k="natural" v="hill" />
		<tag k="place" v="locality" />
		<tag k="ssr:stedsnr" v="67590" />
	</node>
	<node lat="60.62511666794757" lon="6.484100004901676" id="-30086">
		<tag k="name" v="Kvitli" />
		<tag k="natural" v="slope" />
		<tag k="place" v="locality" />
		<tag k="ssr:stedsnr" v="67740" />
	</node>
	<node lat="60.548288890766905" lon="6.089911104327436" id="-30088">
		<tag k="alt_name" v="Kvanngjeli" />
		<tag k="loc_name" v="Kvanngili" />
		<tag k="name" v="Kvanngjelet" />
		<tag k="natural" v="valley" />
		<tag k="place" v="locality" />
		<tag k="ssr:stedsnr" v="67794" />
	</node>
	<node lat="60.511452781582044" lon="6.506933332016542" id="-30090">
		<tag k="fixme" v="consider natural=peak for the most distinct mountains in the district" />
		<tag k="name" v="Svinanakken" />
		<tag k="natural" v="hill" />
		<tag k="place" v="locality" />
		<tag k="ssr:stedsnr" v="68537" />
	</node>
	<node lat="60.82679166220691" lon="6.323449993385187" id="-30095">
		<tag k="name" v="Torvedalen" />
		<tag k="natural" v="valley" />
		<tag k="place" v="locality" />
		<tag k="ssr:stedsnr" v="69610" />
	</node>
	<node lat="60.77206944528357" lon="6.662922218189286" id="-30097">
		<tag k="fixme" v="consider natural=peak for the most distinct mountains in the district" />
		<tag k="name" v="Middagshovden" />
		<tag k="natural" v="hill" />
		<tag k="place" v="locality" />
		<tag k="ssr:stedsnr" v="69782" />
	</node>
	<node lat="60.813394448649085" lon="6.809850002351021" id="-30098">
		<tag k="fixme" v="consider natural=peak for the most distinct mountains in the district" />
		<tag k="loc_name" v="Koldenuten" />
		<tag k="name" v="Kaldanuten" />
		<tag k="natural" v="hill" />
		<tag k="place" v="locality" />
		<tag k="ssr:stedsnr" v="69788" />
	</node>
	<node lat="60.754011109718164" lon="6.15792499732485" id="-30100">
		<tag k="fixme" v="consider natural=peak for the most distinct mountains in the district" />
		<tag k="name" v="Svartenipa" />
		<tag k="natural" v="hill" />
		<tag k="place" v="locality" />
		<tag k="ssr:stedsnr" v="69699" />
	</node>
	<node lat="60.83935277870292" lon="6.607766671093517" id="-30101">
		<tag k="name" v="Skjolsetdalen" />
		<tag k="natural" v="valley" />
		<tag k="place" v="locality" />
		<tag k="ssr:stedsnr" v="69829" />
	</node>
	<node lat="60.87111666587864" lon="6.745122228819052" id="-30103">
		<tag k="fixme" v="consider natural=peak for the most distinct mountains in the district" />
		<tag k="name" v="Vardanosi" />
		<tag k="natural" v="hill" />
		<tag k="place" v="locality" />
		<tag k="ssr:stedsnr" v="69843" />
	</node>
	<node lat="60.771738891784686" lon="6.241825001470195" id="-30105">
		<tag k="name" v="Breihjellen" />
		<tag k="natural" v="slope" />
		<tag k="place" v="locality" />
		<tag k="ssr:stedsnr" v="69979" />
	</node>
	<node lat="60.67168055958045" lon="6.212466674438718" id="-30108">
		<tag k="name" v="Skorslii" />
		<tag k="natural" v="slope" />
		<tag k="place" v="locality" />
		<tag k="ssr:stedsnr" v="81005" />
	</node>
	<node lat="60.652338887028534" lon="6.213377776954116" id="-30109">
		<tag k="name" v="Brislingaskarvet" />
		<tag k="natural" v="hill" />
		<tag k="place" v="locality" />
		<tag k="ssr:stedsnr" v="81008" />
	</node>
	<node lat="60.651816665931484" lon="6.284072221939821" id="-30110">
		<tag k="name" v="Bjørndalen" />
		<tag k="natural" v="valley" />
		<tag k="place" v="locality" />
		<tag k="ssr:stedsnr" v="81012" />
	</node>
	<node lat="60.65537777795006" lon="6.230725003659891" id="-30111">
		<tag k="name" v="Botnane" />
		<tag k="natural" v="valley" />
		<tag k="place" v="locality" />
		<tag k="ssr:stedsnr" v="81013" />
	</node>
	<node lat="60.67159722199821" lon="6.262041658572705" id="-30112">
		<tag k="name" v="Fangdalsleitet" />
		<tag k="natural" v="slope" />
		<tag k="place" v="locality" />
		<tag k="ssr:stedsnr" v="81014" />
	</node>
	<node lat="60.647719448496524" lon="6.240866661067703" id="-30113">
		<tag k="name" v="Fyre" />
		<tag k="natural" v="slope" />
		<tag k="place" v="locality" />
		<tag k="ssr:stedsnr" v="81020" />
	</node>
	<node lat="60.63603611548091" lon="6.251469451605889" id="-30114">
		<tag k="name" v="Lidalen" />
		<tag k="natural" v="valley" />
		<tag k="place" v="locality" />
		<tag k="ssr:stedsnr" v="81029" />
	</node>
	<node lat="60.629630559168085" lon="6.242697229317119" id="-30115">
		<tag k="name" v="Flagateigane" />
		<tag k="natural" v="slope" />
		<tag k="place" v="locality" />
		<tag k="ssr:stedsnr" v="81108" />
	</node>
	<node lat="60.624475002257334" lon="6.194919446967612" id="-30116">
		<tag k="name" v="Karitræet" />
		<tag k="natural" v="slope" />
		<tag k="place" v="locality" />
		<tag k="ssr:stedsnr" v="81206" />
	</node>
	<node lat="60.61836666504304" lon="6.22300000730481" id="-30117">
		<tag k="fixme" v="consider natural=peak for the most distinct mountains in the district" />
		<tag k="name" v="Tunåsen" />
		<tag k="natural" v="hill" />
		<tag k="place" v="locality" />
		<tag k="ssr:stedsnr" v="81208" />
	</node>
	<node lat="60.82838889055973" lon="6.425869451827084" id="-30118">
		<tag k="name" v="Hjellaberget" />
		<tag k="natural" v="hill" />
		<tag k="place" v="locality" />
		<tag k="ssr:stedsnr" v="81244" />
	</node>
	<node lat="60.81429166697077" lon="6.672352774249354" id="-30121">
		<tag k="name" v="Bjørkehaugen" />
		<tag k="natural" v="hill" />
		<tag k="place" v="locality" />
		<tag k="ssr:stedsnr" v="81385" />
	</node>
	<node lat="60.60714722399538" lon="6.519669437282022" id="-30124">
		<tag k="name" v="Tjørehelleren" />
		<tag k="place" v="locality" />
		<tag k="ssr:stedsnr" v="81822" />
	</node>
	<node lat="60.74706944214537" lon="6.129572220389507" id="-30128">
		<tag k="name" v="Ryssebotnen" />
		<tag k="natural" v="valley" />
		<tag k="place" v="locality" />
		<tag k="ssr:stedsnr" v="81742" />
	</node>
	<node lat="60.651552779839" lon="6.384400007881401" id="-30130">
		<tag k="name" v="Valbergsnuten" />
		<tag k="natural" v="hill" />
		<tag k="place" v="locality" />
		<tag k="ssr:stedsnr" v="81921" />
	</node>
	<node lat="60.66541666988712" lon="6.362630555249429" id="-30131">
		<tag k="name" v="Raundalen" />
		<tag k="natural" v="valley" />
		<tag k="place" v="locality" />
		<tag k="ssr:stedsnr" v="81922" />
	</node>
	<node lat="60.72292221993167" lon="6.441272229091991" id="-30133">
		<tag k="name" v="Brukalii" />
		<tag k="natural" v="slope" />
		<tag k="place" v="locality" />
		<tag k="ssr:stedsnr" v="82141" />
	</node>
	<node lat="60.807452781987315" lon="6.502491668453223" id="-30134">
		<tag k="name" v="Tryningahaugen" />
		<tag k="natural" v="hill" />
		<tag k="place" v="locality" />
		<tag k="ssr:stedsnr" v="82311" />
	</node>
	<node lat="60.72008055116728" lon="6.116411107977797" id="-30137">
		<tag k="name" v="Ljosaberget" />
		<tag k="natural" v="hill" />
		<tag k="place" v="locality" />
		<tag k="ssr:stedsnr" v="82505" />
	</node>
	<node lat="60.67316666908823" lon="5.897688894098531" id="-30139">
		<tag k="name" v="Hyttedalen" />
		<tag k="natural" v="valley" />
		<tag k="place" v="locality" />
		<tag k="ssr:stedsnr" v="248001" />
	</node>
	<node lat="60.66405832935502" lon="5.952250006698829" id="-30140">
		<tag k="name" v="Leinene" />
		<tag k="natural" v="slope" />
		<tag k="place" v="locality" />
		<tag k="ssr:stedsnr" v="248046" />
	</node>
	<node lat="60.45039166777282" lon="6.658027778163511" id="-30141">
		<tag k="name" v="Gråberg" />
		<tag k="natural" v="hill" />
		<tag k="place" v="locality" />
		<tag k="ssr:stedsnr" v="99602" />
	</node>
	<node lat="60.45080277609291" lon="6.672044449114049" id="-30142">
		<tag k="name" v="Storagjel" />
		<tag k="natural" v="gorge" />
		<tag k="ssr:stedsnr" v="99609" />
	</node>
	<node lat="60.639130552664696" lon="5.908102785096155" id="-30144">
		<tag k="name" v="Raudaberget" />
		<tag k="natural" v="hill" />
		<tag k="place" v="locality" />
		<tag k="ssr:stedsnr" v="248095" />
	</node>
	<node lat="60.60835555831621" lon="6.193205553452696" id="-30147">
		<tag k="name" v="Hotten" />
		<tag k="natural" v="slope" />
		<tag k="place" v="locality" />
		<tag k="ssr:stedsnr" v="248195" />
	</node>
	<node lat="60.481424998132866" lon="6.779325008736839" id="-30149">
		<tag k="fixme" v="consider natural=peak for the most distinct mountains in the district" />
		<tag k="name" v="Nedstafjell" />
		<tag k="natural" v="hill" />
		<tag k="place" v="locality" />
		<tag k="ssr:stedsnr" v="99718" />
	</node>
	<node lat="60.45799444485691" lon="6.751888897442574" id="-30150">
		<tag k="name" v="Persdalen" />
		<tag k="natural" v="valley" />
		<tag k="place" v="locality" />
		<tag k="ssr:stedsnr" v="99720" />
	</node>
	<node lat="60.57638333371215" lon="6.624027783557926" id="-30152">
		<tag k="name" v="Kamben" />
		<tag k="natural" v="ridge" />
		<tag k="place" v="locality" />
		<tag k="ssr:stedsnr" v="99802" />
	</node>
	<node lat="60.57319166340528" lon="6.737930558194559" id="-30153">
		<tag k="name" v="Lussiskår" />
		<tag k="place" v="locality" />
		<tag k="ssr:stedsnr" v="99809" />
	</node>
	<node lat="60.61503332899266" lon="6.702194438326453" id="-30154">
		<tag k="name" v="Langhaug" />
		<tag k="natural" v="hill" />
		<tag k="place" v="locality" />
		<tag k="ssr:stedsnr" v="99823" />
	</node>
	<node lat="60.61372221838619" lon="6.680697227880231" id="-30155">
		<tag k="name" v="Hengelii" />
		<tag k="natural" v="slope" />
		<tag k="place" v="locality" />
		<tag k="ssr:stedsnr" v="99826" />
	</node>
	<node lat="60.553977779513524" lon="6.765419442007543" id="-30156">
		<tag k="name" v="Djupedal" />
		<tag k="natural" v="valley" />
		<tag k="place" v="locality" />
		<tag k="ssr:stedsnr" v="99860" />
	</node>
	<node lat="60.483766663671574" lon="6.6414972216734345" id="-30158">
		<tag k="name" v="Langaberg" />
		<tag k="natural" v="hill" />
		<tag k="place" v="locality" />
		<tag k="ssr:stedsnr" v="99868" />
	</node>
	<node lat="60.56913333486631" lon="6.649988887807674" id="-30159">
		<tag k="fixme" v="consider natural=peak for the most distinct mountains in the district" />
		<tag k="name" v="Dosafjell" />
		<tag k="natural" v="hill" />
		<tag k="place" v="locality" />
		<tag k="ssr:stedsnr" v="99881" />
	</node>
	<node lat="60.47462777982393" lon="6.544691670392155" id="-30160">
		<tag k="name" v="Molthaug" />
		<tag k="natural" v="hill" />
		<tag k="place" v="locality" />
		<tag k="ssr:stedsnr" v="99910" />
	</node>
	<node lat="60.57913611079238" lon="6.6576666668546105" id="-30162">
		<tag k="name" v="Nova" />
		<tag k="natural" v="hill" />
		<tag k="place" v="locality" />
		<tag k="ssr:stedsnr" v="99918" />
	</node>
	<node lat="60.53115555787668" lon="6.701705560841886" id="-30163">
		<tag k="name" v="Svortesvå" />
		<tag k="natural" v="hill" />
		<tag k="place" v="locality" />
		<tag k="ssr:stedsnr" v="99931" />
	</node>
	<node lat="60.588074997015894" lon="5.948530562687257" id="-30164">
		<tag k="fixme" v="consider natural=peak for the most distinct mountains in the district" />
		<tag k="name" v="Såta" />
		<tag k="natural" v="hill" />
		<tag k="place" v="locality" />
		<tag k="ssr:stedsnr" v="248238" />
	</node>
	<node lat="60.715641664838486" lon="6.023633340426632" id="-30168">
		<tag k="fixme" v="consider natural=peak for the most distinct mountains in the district" />
		<tag k="name" v="Raudsethorgi" />
		<tag k="natural" v="hill" />
		<tag k="place" v="locality" />
		<tag k="ssr:stedsnr" v="248441" />
	</node>
	<node lat="60.509536108837665" lon="6.799719440756059" id="-30170">
		<tag k="fixme" v="consider natural=peak for the most distinct mountains in the district" />
		<tag k="name" v="Dosafjellet" />
		<tag k="natural" v="hill" />
		<tag k="place" v="locality" />
		<tag k="ssr:stedsnr" v="249026" />
	</node>
	<node lat="60.67756666839835" lon="6.101608336851411" id="-30172">
		<tag k="name" v="Teigdalen" />
		<tag k="natural" v="valley" />
		<tag k="place" v="locality" />
		<tag k="ssr:stedsnr" v="249031" />
	</node>
	<node lat="60.665758332861344" lon="6.203399997551816" id="-30174">
		<tag k="name" v="Storhaugen" />
		<tag k="natural" v="hill" />
		<tag k="place" v="locality" />
		<tag k="ssr:stedsnr" v="249053" />
	</node>
	<node lat="60.647452775887416" lon="6.173427770304828" id="-30180">
		<tag k="fixme" v="consider natural=peak for the most distinct mountains in the district" />
		<tag k="name" v="Geitlesåsen" />
		<tag k="natural" v="hill" />
		<tag k="place" v="locality" />
		<tag k="ssr:stedsnr" v="249082" />
	</node>
	<node lat="60.60950000282066" lon="6.014080561211618" id="-30185">
		<tag k="name" v="Øykjabotseggane" />
		<tag k="natural" v="ridge" />
		<tag k="place" v="locality" />
		<tag k="ssr:stedsnr" v="249192" />
	</node>
	<node lat="60.66967222373292" lon="6.549277770082384" id="-30186">
		<tag k="name" v="Rastalii" />
		<tag k="natural" v="slope" />
		<tag k="place" v="locality" />
		<tag k="ssr:stedsnr" v="249268" />
	</node>
	<node lat="60.65746110715366" lon="6.29224999888284" id="-30187">
		<tag k="name" v="Svarthamrane" />
		<tag k="natural" v="hill" />
		<tag k="place" v="locality" />
		<tag k="ssr:stedsnr" v="249272" />
	</node>
	<node lat="60.61509444172714" lon="6.416319437582047" id="-30189">
		<tag k="name" v="Jernesmoen" />
		<tag k="place" v="locality" />
		<tag k="ssr:stedsnr" v="105310" />
	</node>
	<node lat="60.73832777353539" lon="6.565275002613607" id="-30192">
		<tag k="name" v="Langedalen" />
		<tag k="natural" v="valley" />
		<tag k="place" v="locality" />
		<tag k="ssr:stedsnr" v="249357" />
	</node>
	<node lat="60.711108329209424" lon="6.572899993196199" id="-30196">
		<tag k="name" v="Dyrgardshovden" />
		<tag k="natural" v="hill" />
		<tag k="place" v="locality" />
		<tag k="ssr:stedsnr" v="105883" />
	</node>
	<node lat="60.74172778178769" lon="6.556416669431016" id="-30197">
		<tag k="name" v="Brunena" />
		<tag k="place" v="locality" />
		<tag k="ssr:stedsnr" v="105884" />
	</node>
	<node lat="60.85222222093961" lon="6.714997227038685" id="-30199">
		<tag k="name" v="Kaldeskreda" />
		<tag k="natural" v="valley" />
		<tag k="place" v="locality" />
		<tag k="ssr:stedsnr" v="106008" />
	</node>
	<node lat="60.735077774460535" lon="6.522352782030371" id="-30200">
		<tag k="name" v="Vardhovden" />
		<tag k="natural" v="hill" />
		<tag k="place" v="locality" />
		<tag k="ssr:stedsnr" v="249358" />
	</node>
	<node lat="60.74668889225884" lon="6.579249999442193" id="-30201">
		<tag k="name" v="Monsdalen" />
		<tag k="natural" v="valley" />
		<tag k="place" v="locality" />
		<tag k="ssr:stedsnr" v="249365" />
	</node>
	<node lat="60.70634444792623" lon="6.439774998745133" id="-30203">
		<tag k="fixme" v="consider natural=peak for the most distinct mountains in the district" />
		<tag k="name" v="Svartahorgi" />
		<tag k="natural" v="hill" />
		<tag k="place" v="locality" />
		<tag k="ssr:stedsnr" v="249339" />
	</node>
	<node lat="60.717102774039006" lon="6.51845555382382" id="-30204">
		<tag k="name" v="Hefteshjellane" />
		<tag k="place" v="locality" />
		<tag k="ssr:stedsnr" v="249342" />
	</node>
	<node lat="60.87081944025477" lon="6.630633333397987" id="-30207">
		<tag k="name" v="Vehaug" />
		<tag k="natural" v="hill" />
		<tag k="place" v="locality" />
		<tag k="ssr:stedsnr" v="106080" />
	</node>
	<node lat="60.861552782041464" lon="6.5337083317282705" id="-30208">
		<tag k="name" v="Røvhaugen" />
		<tag k="natural" v="hill" />
		<tag k="place" v="locality" />
		<tag k="ssr:stedsnr" v="106083" />
	</node>
	<node lat="60.73880277355402" lon="6.205091674397295" id="-30209">
		<tag k="name" v="Flathaug" />
		<tag k="natural" v="hill" />
		<tag k="place" v="locality" />
		<tag k="ssr:stedsnr" v="249384" />
	</node>
	<node lat="60.68709999992621" lon="6.84943332607908" id="-30211">
		<tag k="name" v="Markahaug" />
		<tag k="natural" v="hill" />
		<tag k="place" v="locality" />
		<tag k="ssr:stedsnr" v="106223" />
	</node>
	<node lat="60.86644721897685" lon="6.571511114966774" id="-30213">
		<tag k="name" v="Rundehaugen" />
		<tag k="natural" v="hill" />
		<tag k="place" v="locality" />
		<tag k="ssr:stedsnr" v="106173" />
	</node>
	<node lat="60.89804722087904" lon="6.727938893994203" id="-30214">
		<tag k="name" v="Nosøyni" />
		<tag k="place" v="locality" />
		<tag k="ssr:stedsnr" v="106177" />
	</node>
	<node lat="60.692347224641594" lon="6.842402774144732" id="-30215">
		<tag k="name" v="Løkjatræet" />
		<tag k="natural" v="slope" />
		<tag k="place" v="locality" />
		<tag k="ssr:stedsnr" v="106234" />
	</node>
	<node lat="60.68448610803368" lon="6.6900194450070805" id="-30216">
		<tag k="name" v="Tortnaskorane" />
		<tag k="place" v="locality" />
		<tag k="ssr:stedsnr" v="106287" />
	</node>
	<node lat="60.71309444394045" lon="6.6984055590003715" id="-30219">
		<tag k="name" v="Langeskarvi" />
		<tag k="natural" v="hill" />
		<tag k="place" v="locality" />
		<tag k="ssr:stedsnr" v="106304" />
	</node>
	<node lat="60.560791667187445" lon="6.4986999922354824" id="-30225">
		<tag k="name" v="Oksafletane" />
		<tag k="place" v="locality" />
		<tag k="ssr:stedsnr" v="106518" />
	</node>
	<node lat="60.692824997603736" lon="6.149455559468001" id="-30226">
		<tag k="fixme" v="consider natural=peak for the most distinct mountains in the district" />
		<tag k="name" v="Auborranipa" />
		<tag k="natural" v="hill" />
		<tag k="place" v="locality" />
		<tag k="ssr:stedsnr" v="249490" />
	</node>
	<node lat="60.70680277703995" lon="6.453480563652556" id="-30227">
		<tag k="name" v="Gaukaberget" />
		<tag k="natural" v="hill" />
		<tag k="place" v="locality" />
		<tag k="ssr:stedsnr" v="106444" />
	</node>
	<node lat="60.73826110843967" lon="5.9607194488537445" id="-30230">
		<tag k="fixme" v="consider natural=peak for the most distinct mountains in the district" />
		<tag k="name" v="Stordalsnjuken" />
		<tag k="natural" v="hill" />
		<tag k="place" v="locality" />
		<tag k="ssr:stedsnr" v="249403" />
	</node>
	<node lat="60.724600003415325" lon="5.952419437396281" id="-30231">
		<tag k="fixme" v="consider natural=peak for the most distinct mountains in the district" />
		<tag k="name" v="Norddalsfjellet" />
		<tag k="natural" v="hill" />
		<tag k="place" v="locality" />
		<tag k="ssr:stedsnr" v="249422" />
	</node>
	<node lat="60.72919722137408" lon="6.470874998237436" id="-30232">
		<tag k="name" v="Prestgrinda" />
		<tag k="place" v="locality" />
		<tag k="ssr:stedsnr" v="106721" />
	</node>
	<node lat="60.543844442831066" lon="6.252294447551908" id="-30235">
		<tag k="name" v="Rindane" />
		<tag k="natural" v="hill" />
		<tag k="place" v="locality" />
		<tag k="ssr:stedsnr" v="106973" />
	</node>
	<node lat="60.91026388928674" lon="6.736616662993457" id="-30238">
		<tag k="name" v="Øvsteholten" />
		<tag k="place" v="locality" />
		<tag k="ssr:stedsnr" v="107005" />
	</node>
	<node lat="60.907913888776534" lon="6.737969440143699" id="-30239">
		<tag k="name" v="Kvitaberget" />
		<tag k="place" v="locality" />
		<tag k="ssr:stedsnr" v="107006" />
	</node>
	<node lat="60.91023055436508" lon="6.712269450363652" id="-30240">
		<tag k="name" v="Gardaleitet" />
		<tag k="natural" v="slope" />
		<tag k="place" v="locality" />
		<tag k="ssr:stedsnr" v="107020" />
	</node>
	<node lat="60.71367499786261" lon="6.77429443615174" id="-30241">
		<tag k="fixme" v="consider natural=peak for the most distinct mountains in the district" />
		<tag k="name" v="Åmidlenutane" />
		<tag k="natural" v="hill" />
		<tag k="place" v="locality" />
		<tag k="ssr:stedsnr" v="249541" />
	</node>
	<node lat="60.73625833057769" lon="6.732100006377103" id="-30242">
		<tag k="fixme" v="consider natural=peak for the most distinct mountains in the district" />
		<tag k="name" v="Kaldafjellet" />
		<tag k="natural" v="hill" />
		<tag k="place" v="locality" />
		<tag k="ssr:stedsnr" v="249542" />
	</node>
	<node lat="60.74422222492341" lon="6.826677783275712" id="-30243">
		<tag k="fixme" v="consider natural=peak for the most distinct mountains in the district" />
		<tag k="name" v="Grodjuvenuten" />
		<tag k="natural" v="hill" />
		<tag k="place" v="locality" />
		<tag k="ssr:stedsnr" v="249544" />
	</node>
	<node lat="60.7463055597331" lon="6.5707722187155255" id="-30245">
		<tag k="name" v="Brokane" />
		<tag k="place" v="locality" />
		<tag k="ssr:stedsnr" v="107330" />
	</node>
	<node lat="60.781563887560345" lon="6.742686118097873" id="-30248">
		<tag k="name" v="Ådnakkadalen" />
		<tag k="natural" v="valley" />
		<tag k="place" v="locality" />
		<tag k="ssr:stedsnr" v="107221" />
	</node>
	<node lat="60.57693055891676" lon="6.377455548980388" id="-30250">
		<tag k="name" v="Svidene" />
		<tag k="natural" v="slope" />
		<tag k="place" v="locality" />
		<tag k="ssr:stedsnr" v="249567" />
	</node>
	<node lat="60.56348610682425" lon="6.489916668922534" id="-30253">
		<tag k="name" v="Litraknappen" />
		<tag k="natural" v="hill" />
		<tag k="place" v="locality" />
		<tag k="ssr:stedsnr" v="249589" />
	</node>
	<node lat="60.61791111377726" lon="6.597997223763408" id="-30254">
		<tag k="name" v="Eirikstunlii" />
		<tag k="natural" v="slope" />
		<tag k="place" v="locality" />
		<tag k="ssr:stedsnr" v="107616" />
	</node>
	<node lat="60.787730555829924" lon="6.777772229858102" id="-30255">
		<tag k="fixme" v="consider natural=peak for the most distinct mountains in the district" />
		<tag k="name" v="Bjørndalskamben" />
		<tag k="natural" v="hill" />
		<tag k="place" v="locality" />
		<tag k="ssr:stedsnr" v="107806" />
	</node>
	<node lat="60.596800001728454" lon="6.230586109841176" id="-30260">
		<tag k="fixme" v="consider natural=peak for the most distinct mountains in the district" />
		<tag k="name" v="Ragnarvarden" />
		<tag k="natural" v="hill" />
		<tag k="place" v="locality" />
		<tag k="ssr:stedsnr" v="249623" />
	</node>
	<node lat="60.596866665471296" lon="6.300908335557102" id="-30263">
		<tag k="fixme" v="consider natural=peak for the most distinct mountains in the district" />
		<tag k="name" v="Nyvlingen" />
		<tag k="natural" v="hill" />
		<tag k="place" v="locality" />
		<tag k="ssr:stedsnr" v="249637" />
	</node>
	<node lat="60.6367500001983" lon="6.30245554791751" id="-30265">
		<tag k="name" v="Geithaugane" />
		<tag k="natural" v="hill" />
		<tag k="place" v="locality" />
		<tag k="ssr:stedsnr" v="249675" />
	</node>
	<node lat="60.62464166237652" lon="6.515894443391205" id="-30270">
		<tag k="name" v="Vivåskamben" />
		<tag k="natural" v="hill" />
		<tag k="place" v="locality" />
		<tag k="ssr:stedsnr" v="249729" />
	</node>
	<node lat="60.53508055178447" lon="6.751297225464999" id="-30275">
		<tag k="name" v="Jukelsklepp" />
		<tag k="natural" v="hill" />
		<tag k="place" v="locality" />
		<tag k="ssr:stedsnr" v="249779" />
	</node>
	<node lat="60.534361110920656" lon="6.702580552440357" id="-30276">
		<tag k="name" v="Gili" />
		<tag k="natural" v="gorge" />
		<tag k="ssr:stedsnr" v="249785" />
	</node>
	<node lat="60.539566663165374" lon="6.634072223259826" id="-30277">
		<tag k="name" v="Vetlahorgi" />
		<tag k="natural" v="hill" />
		<tag k="place" v="locality" />
		<tag k="ssr:stedsnr" v="249792" />
	</node>
	<node lat="60.581727780411704" lon="6.756341662423054" id="-30278">
		<tag k="name" v="Langhaug" />
		<tag k="natural" v="hill" />
		<tag k="place" v="locality" />
		<tag k="ssr:stedsnr" v="249829" />
	</node>
	<node lat="60.55225000340705" lon="6.201066673106262" id="-30279">
		<tag k="name" v="Harkalii" />
		<tag k="natural" v="slope" />
		<tag k="place" v="locality" />
		<tag k="ssr:stedsnr" v="249832" />
	</node>
	<node lat="60.61946944516361" lon="6.8230138936691365" id="-30282">
		<tag k="name" v="Trollabotnen" />
		<tag k="natural" v="valley" />
		<tag k="place" v="locality" />
		<tag k="ssr:stedsnr" v="249874" />
	</node>
	<node lat="60.59979166893497" lon="6.725605551303921" id="-30285">
		<tag k="name" v="Kleivabakken" />
		<tag k="natural" v="slope" />
		<tag k="place" v="locality" />
		<tag k="ssr:stedsnr" v="249922" />
	</node>
	<node lat="60.691702775165716" lon="6.713183339909308" id="-30287">
		<tag k="name" v="Pikhaug" />
		<tag k="natural" v="hill" />
		<tag k="place" v="locality" />
		<tag k="ssr:stedsnr" v="249978" />
	</node>
	<node lat="60.658361110446215" lon="6.370313886820187" id="-30290">
		<tag k="fixme" v="consider natural=peak for the most distinct mountains in the district" />
		<tag k="name" v="Slettafjellet" />
		<tag k="natural" v="hill" />
		<tag k="place" v="locality" />
		<tag k="ssr:stedsnr" v="250012" />
	</node>
	<node lat="60.522738892091205" lon="6.700069449379597" id="-30293">
		<tag k="name" v="Ådnagavlen" />
		<tag k="natural" v="ridge" />
		<tag k="place" v="locality" />
		<tag k="ssr:stedsnr" v="250061" />
	</node>
	<node lat="60.52300833696454" lon="6.589575001688732" id="-30296">
		<tag k="name" v="Djupegili" />
		<tag k="natural" v="gorge" />
		<tag k="ssr:stedsnr" v="250516" />
	</node>
	<node lat="60.59005000129799" lon="6.447819436018841" id="-30298">
		<tag k="name" v="Bordalen" />
		<tag k="natural" v="valley" />
		<tag k="place" v="locality" />
		<tag k="ssr:stedsnr" v="250650" />
	</node>
	<node lat="60.594450000859055" lon="6.373422217959263" id="-30299">
		<tag k="name" v="Stølshaugen" />
		<tag k="natural" v="hill" />
		<tag k="place" v="locality" />
		<tag k="ssr:stedsnr" v="250654" />
	</node>
	<node lat="60.58970555552491" lon="6.511844443181014" id="-30301">
		<tag k="name" v="Klenaskaret" />
		<tag k="natural" v="valley" />
		<tag k="place" v="locality" />
		<tag k="ssr:stedsnr" v="250661" />
	</node>
	<node lat="60.58334444363546" lon="6.422658341141032" id="-30303">
		<tag k="name" v="Løkjabotnen" />
		<tag k="natural" v="valley" />
		<tag k="place" v="locality" />
		<tag k="ssr:stedsnr" v="250676" />
	</node>
	<node lat="60.57840833686344" lon="6.348927770253051" id="-30304">
		<tag k="name" v="Olsokebotnen" />
		<tag k="natural" v="valley" />
		<tag k="place" v="locality" />
		<tag k="ssr:stedsnr" v="250677" />
	</node>
	<node lat="60.64534166516508" lon="6.593127775733289" id="-30308">
		<tag k="name" v="Budalen" />
		<tag k="natural" v="valley" />
		<tag k="place" v="locality" />
		<tag k="ssr:stedsnr" v="250868" />
	</node>
	<node lat="60.80893611227428" lon="6.492038879905574" id="-30318">
		<tag k="name" v="Ulvundslii" />
		<tag k="natural" v="slope" />
		<tag k="place" v="locality" />
		<tag k="ssr:stedsnr" v="251542" />
	</node>
	<node lat="60.798341664886024" lon="6.373952775571893" id="-30319">
		<tag k="fixme" v="consider natural=peak for the most distinct mountains in the district" />
		<tag k="name" v="Reppeggi" />
		<tag k="natural" v="hill" />
		<tag k="place" v="locality" />
		<tag k="ssr:stedsnr" v="251547" />
	</node>
	<node lat="60.84676111097173" lon="6.349652779378413" id="-30321">
		<tag k="name" v="Asbjørgdalen" />
		<tag k="natural" v="valley" />
		<tag k="place" v="locality" />
		<tag k="ssr:stedsnr" v="251560" />
	</node>
	<node lat="60.84299166834801" lon="6.536383324922232" id="-30322">
		<tag k="fixme" v="consider natural=peak for the most distinct mountains in the district" />
		<tag k="name" v="Nuken" />
		<tag k="natural" v="hill" />
		<tag k="place" v="locality" />
		<tag k="ssr:stedsnr" v="251564" />
	</node>
	<node lat="60.83993888638899" lon="6.548638889535391" id="-30324">
		<tag k="name" v="Oksli" />
		<tag k="natural" v="slope" />
		<tag k="place" v="locality" />
		<tag k="ssr:stedsnr" v="251576" />
	</node>
	<node lat="60.820624996926426" lon="6.525958327132107" id="-30325">
		<tag k="fixme" v="consider natural=peak for the most distinct mountains in the district" />
		<tag k="name" v="Bjørnfjellet" />
		<tag k="natural" v="hill" />
		<tag k="place" v="locality" />
		<tag k="ssr:stedsnr" v="251533" />
	</node>
	<node lat="60.869577780633" lon="6.449477781144815" id="-30328">
		<tag k="name" v="Kråholet" />
		<tag k="natural" v="valley" />
		<tag k="place" v="locality" />
		<tag k="ssr:stedsnr" v="251607" />
	</node>
	<node lat="60.8436000002422" lon="6.374261114075651" id="-30329">
		<tag k="fixme" v="consider natural=peak for the most distinct mountains in the district" />
		<tag k="name" v="Brattebakkseggi" />
		<tag k="natural" v="hill" />
		<tag k="place" v="locality" />
		<tag k="ssr:stedsnr" v="251611" />
	</node>
	<node lat="60.76951388960208" lon="6.163841666881651" id="-30331">
		<tag k="name" v="Stordalen" />
		<tag k="natural" v="valley" />
		<tag k="place" v="locality" />
		<tag k="ssr:stedsnr" v="251735" />
	</node>
	<node lat="60.75710277784932" lon="6.196094446562793" id="-30332">
		<tag k="name" v="Graseggi" />
		<tag k="natural" v="hill" />
		<tag k="place" v="locality" />
		<tag k="ssr:stedsnr" v="251691" />
	</node>
	<node lat="60.81944166358198" lon="6.889661111871262" id="-30335">
		<tag k="name" v="Såteskaret" />
		<tag k="natural" v="valley" />
		<tag k="place" v="locality" />
		<tag k="ssr:stedsnr" v="251794" />
	</node>
	<node lat="60.812658337406354" lon="6.601263891614342" id="-30336">
		<tag k="name" v="Grytelii" />
		<tag k="natural" v="slope" />
		<tag k="place" v="locality" />
		<tag k="ssr:stedsnr" v="251822" />
	</node>
	<node lat="60.886913885450404" lon="6.742794443406421" id="-30341">
		<tag k="name" v="Slettedalen" />
		<tag k="natural" v="valley" />
		<tag k="place" v="locality" />
		<tag k="ssr:stedsnr" v="251867" />
	</node>
	<node lat="60.95183055490866" lon="6.6912277817103964" id="-30345">
		<tag k="name" v="Sandbotnen" />
		<tag k="natural" v="valley" />
		<tag k="place" v="locality" />
		<tag k="ssr:stedsnr" v="251919" />
	</node>
	<node lat="60.94840000042418" lon="6.682869437906429" id="-30346">
		<tag k="name" v="Salabakkane" />
		<tag k="natural" v="slope" />
		<tag k="place" v="locality" />
		<tag k="ssr:stedsnr" v="251921" />
	</node>
	<node lat="60.94555277814899" lon="6.676224996805138" id="-30347">
		<tag k="name" v="Berdalsskavlen" />
		<tag k="natural" v="slope" />
		<tag k="place" v="locality" />
		<tag k="ssr:stedsnr" v="251922" />
	</node>
	<node lat="60.663691664509834" lon="5.879666669950416" id="-30356">
		<tag k="fixme" v="consider natural=peak for the most distinct mountains in the district" />
		<tag k="name" v="Aldalsaksli" />
		<tag k="natural" v="hill" />
		<tag k="place" v="locality" />
		<tag k="ssr:stedsnr" v="127059" />
	</node>
	<node lat="60.59573333183925" lon="6.145133339394553" id="-30359">
		<tag k="name" v="Hattaberget" />
		<tag k="natural" v="hill" />
		<tag k="place" v="locality" />
		<tag k="ssr:stedsnr" v="127213" />
	</node>
	<node lat="60.61038889242457" lon="5.943041663363988" id="-30362">
		<tag k="name" v="Brislingabotnen" />
		<tag k="natural" v="valley" />
		<tag k="place" v="locality" />
		<tag k="ssr:stedsnr" v="127224" />
	</node>
	<node lat="60.614302775762525" lon="6.03287221332682" id="-30363">
		<tag k="name" v="Storesteinane" />
		<tag k="natural" v="valley" />
		<tag k="place" v="locality" />
		<tag k="ssr:stedsnr" v="127240" />
	</node>
	<node lat="60.58299999919817" lon="6.214333340157008" id="-30364">
		<tag k="name" v="Gaupeskardet" />
		<tag k="natural" v="valley" />
		<tag k="place" v="locality" />
		<tag k="ssr:stedsnr" v="127251" />
	</node>
	<node lat="60.64360000050148" lon="6.074819446014161" id="-30366">
		<tag k="name" v="Tjørnadalen" />
		<tag k="natural" v="valley" />
		<tag k="place" v="locality" />
		<tag k="ssr:stedsnr" v="127120" />
	</node>
	<node lat="60.626627777733034" lon="6.0306444480373536" id="-30368">
		<tag k="name" v="Nonhaugane" />
		<tag k="natural" v="hill" />
		<tag k="place" v="locality" />
		<tag k="ssr:stedsnr" v="127145" />
	</node>
	<node lat="60.62561666520008" lon="5.984008341058945" id="-30370">
		<tag k="name" v="Tuftedalen" />
		<tag k="natural" v="valley" />
		<tag k="place" v="locality" />
		<tag k="ssr:stedsnr" v="127190" />
	</node>
	<node lat="60.67894444389035" lon="6.561744441784472" id="-30375">
		<tag k="name" v="Raundalen" />
		<tag k="natural" v="valley" />
		<tag k="place" v="locality" />
		<tag k="ssr:stedsnr" v="127317" />
	</node>
	<node lat="60.699238884851816" lon="5.9558277833404585" id="-30378">
		<tag k="fixme" v="consider natural=peak for the most distinct mountains in the district" />
		<tag k="name" v="Nordeggi" />
		<tag k="natural" v="hill" />
		<tag k="place" v="locality" />
		<tag k="ssr:stedsnr" v="127501" />
	</node>
	<node lat="60.61946389099827" lon="6.774869443722682" id="-30383">
		<tag k="name" v="Seldalen" />
		<tag k="natural" v="valley" />
		<tag k="place" v="locality" />
		<tag k="ssr:stedsnr" v="127893" />
	</node>
	<node lat="60.519466663270954" lon="6.505499993979747" id="-30388">
		<tag k="name" v="Angunnagili" />
		<tag k="natural" v="gorge" />
		<tag k="ssr:stedsnr" v="128508" />
	</node>
	<node lat="60.51922778032451" lon="6.521241669884348" id="-30389">
		<tag k="name" v="Hanseladalen" />
		<tag k="natural" v="valley" />
		<tag k="place" v="locality" />
		<tag k="ssr:stedsnr" v="128514" />
	</node>
	<node lat="60.62475833192375" lon="6.559727773543954" id="-30394">
		<tag k="name" v="Skredbergsnolten" />
		<tag k="natural" v="hill" />
		<tag k="place" v="locality" />
		<tag k="ssr:stedsnr" v="128738" />
	</node>
	<node lat="60.52588889188029" lon="6.297424998121074" id="-30395">
		<tag k="fixme" v="consider natural=peak for the most distinct mountains in the district" />
		<tag k="name" v="Slettefjellet" />
		<tag k="natural" v="hill" />
		<tag k="place" v="locality" />
		<tag k="ssr:stedsnr" v="128495" />
	</node>
	<node lat="60.528699996897444" lon="6.400041667674635" id="-30396">
		<tag k="fixme" v="consider natural=peak for the most distinct mountains in the district" />
		<tag k="name" v="Fuglahorgi" />
		<tag k="natural" v="hill" />
		<tag k="place" v="locality" />
		<tag k="ssr:stedsnr" v="128499" />
	</node>
	<node lat="60.64376388638413" lon="6.827449998338485" id="-30399">
		<tag k="name" v="Vetlebotnen" />
		<tag k="natural" v="valley" />
		<tag k="place" v="locality" />
		<tag k="ssr:stedsnr" v="128983" />
	</node>
	<node lat="60.581716670404084" lon="6.636463893983809" id="-30400">
		<tag k="name" v="Seglberget" />
		<tag k="natural" v="hill" />
		<tag k="place" v="locality" />
		<tag k="ssr:stedsnr" v="128842" />
	</node>
	<node lat="60.6364055516064" lon="6.778836103169559" id="-30401">
		<tag k="name" v="Rastaklov" />
		<tag k="natural" v="ridge" />
		<tag k="place" v="locality" />
		<tag k="ssr:stedsnr" v="128889" />
	</node>
	<node lat="60.81536111480782" lon="6.415394439341882" id="-30402">
		<tag k="name" v="Tveitelii" />
		<tag k="natural" v="slope" />
		<tag k="place" v="locality" />
		<tag k="ssr:stedsnr" v="129505" />
	</node>
	<node lat="60.80284722113748" lon="6.30914443676754" id="-30403">
		<tag k="name" v="Kvitanosdalen" />
		<tag k="natural" v="valley" />
		<tag k="place" v="locality" />
		<tag k="ssr:stedsnr" v="129509" />
	</node>
	<node lat="60.81223610799199" lon="6.451491664749693" id="-30407">
		<tag k="name" v="Strandalii" />
		<tag k="natural" v="slope" />
		<tag k="place" v="locality" />
		<tag k="ssr:stedsnr" v="129514" />
	</node>
	<node lat="60.84084999962109" lon="6.327375005663323" id="-30413">
		<tag k="name" v="Raunebrekkene" />
		<tag k="natural" v="slope" />
		<tag k="place" v="locality" />
		<tag k="ssr:stedsnr" v="130515" />
	</node>
	<node lat="60.848227779036186" lon="6.589594435601088" id="-30414">
		<tag k="name" v="Geitaberget" />
		<tag k="natural" v="hill" />
		<tag k="place" v="locality" />
		<tag k="ssr:stedsnr" v="130530" />
	</node>
	<node lat="60.85445393015134" lon="6.7340412596678885" id="-30415">
		<tag k="fixme" v="consider natural=peak for the most distinct mountains in the district" />
		<tag k="name" v="Jordalsnuten" />
		<tag k="natural" v="hill" />
		<tag k="place" v="locality" />
		<tag k="ssr:stedsnr" v="130784" />
	</node>
	<node lat="60.812391669462954" lon="6.645599994066263" id="-30420">
		<tag k="name" v="Fuglhovden" />
		<tag k="natural" v="hill" />
		<tag k="place" v="locality" />
		<tag k="ssr:stedsnr" v="141382" />
	</node>
	<node lat="60.82690450775377" lon="6.654460912679017" id="-30421">
		<tag k="loc_name" v="Kanningahaugen" />
		<tag k="name" v="Kannigahaugen" />
		<tag k="natural" v="hill" />
		<tag k="place" v="locality" />
		<tag k="ssr:stedsnr" v="141389" />
	</node>
	<node lat="60.61609722450737" lon="6.352044441350966" id="-30424">
		<tag k="name" v="Hagliberget" />
		<tag k="natural" v="hill" />
		<tag k="place" v="locality" />
		<tag k="ssr:stedsnr" v="141893" />
	</node>
	<node lat="60.59638889322109" lon="6.1833361139016985" id="-30427">
		<tag k="name" v="Krokane" />
		<tag k="natural" v="hill" />
		<tag k="place" v="locality" />
		<tag k="ssr:stedsnr" v="141936" />
	</node>
	<node lat="60.6273833307474" lon="6.324344437877245" id="-30428">
		<tag k="name" v="Nallen" />
		<tag k="natural" v="slope" />
		<tag k="place" v="locality" />
		<tag k="ssr:stedsnr" v="142102" />
	</node>
	<node lat="60.8049472181255" lon="6.508149992129767" id="-30429">
		<tag k="name" v="Kjerringhaugen" />
		<tag k="natural" v="hill" />
		<tag k="place" v="locality" />
		<tag k="ssr:stedsnr" v="142333" />
	</node>
	<node lat="60.80515555425411" lon="6.4996666624793065" id="-30430">
		<tag k="name" v="Øyaberget" />
		<tag k="natural" v="hill" />
		<tag k="place" v="locality" />
		<tag k="ssr:stedsnr" v="142335" />
	</node>
	<node lat="60.67168888680438" lon="5.976447223638639" id="-30432">
		<tag k="fixme" v="consider natural=peak for the most distinct mountains in the district" />
		<tag k="name" v="Flatafjellet" />
		<tag k="natural" v="hill" />
		<tag k="place" v="locality" />
		<tag k="ssr:stedsnr" v="142630" />
	</node>
	<node lat="60.66401110845619" lon="6.349633335075965" id="-30433">
		<tag k="name" v="Glup" />
		<tag k="place" v="locality" />
		<tag k="ssr:stedsnr" v="142911" />
	</node>
	<node lat="60.655269440205565" lon="6.349444446986375" id="-30434">
		<tag k="name" v="Furehammaren" />
		<tag k="natural" v="hill" />
		<tag k="place" v="locality" />
		<tag k="ssr:stedsnr" v="142913" />
	</node>
	<node lat="60.6686277738306" lon="6.335388883401409" id="-30436">
		<tag k="name" v="Hellebakkane" />
		<tag k="natural" v="slope" />
		<tag k="place" v="locality" />
		<tag k="ssr:stedsnr" v="142923" />
	</node>
	<node lat="60.656522222618925" lon="6.330347221823043" id="-30437">
		<tag k="name" v="Slettelii" />
		<tag k="natural" v="slope" />
		<tag k="place" v="locality" />
		<tag k="ssr:stedsnr" v="142930" />
	</node>
	<node lat="60.67131388867024" lon="6.291069443077535" id="-30438">
		<tag k="name" v="Grønhaugen" />
		<tag k="natural" v="hill" />
		<tag k="place" v="locality" />
		<tag k="ssr:stedsnr" v="142945" />
	</node>
	<node lat="60.60224999906968" lon="6.198694442067961" id="-30439">
		<tag k="name" v="Budalen" />
		<tag k="natural" v="valley" />
		<tag k="place" v="locality" />
		<tag k="ssr:stedsnr" v="142949" />
	</node>
	<node lat="60.86051389000342" lon="6.421605552566568" id="-30441">
		<tag k="name" v="Vetleknausen" />
		<tag k="natural" v="hill" />
		<tag k="place" v="locality" />
		<tag k="ssr:stedsnr" v="324360" />
	</node>
	<node lat="60.4413416695467" lon="6.663341673967163" id="-30442">
		<tag k="name" v="Labbasta" />
		<tag k="natural" v="slope" />
		<tag k="place" v="locality" />
		<tag k="ssr:stedsnr" v="165216" />
	</node>
	<node lat="60.68499722523355" lon="5.990341674482151" id="-30443">
		<tag k="name" v="Glimeskargili" />
		<tag k="natural" v="gorge" />
		<tag k="ssr:stedsnr" v="324704" />
	</node>
	<node lat="60.551191669232054" lon="6.135058331385486" id="-30445">
		<tag k="name" v="Liabaret" />
		<tag k="place" v="locality" />
		<tag k="ssr:stedsnr" v="166065" />
	</node>
	<node lat="60.868902777058324" lon="6.633911110304784" id="-30446">
		<tag k="name" v="Årmot" />
		<tag k="place" v="locality" />
		<tag k="ssr:stedsnr" v="166077" />
	</node>
	<node lat="60.6773388933392" lon="6.645288895280468" id="-30447">
		<tag k="name" v="Lid skule" />
		<tag k="place" v="locality" />
		<tag k="ssr:stedsnr" v="166209" />
	</node>
	<node lat="60.90231388774472" lon="6.634830560688525" id="-30448">
		<tag k="name" v="Øvstebotn" />
		<tag k="natural" v="valley" />
		<tag k="place" v="locality" />
		<tag k="ssr:stedsnr" v="166106" />
	</node>
	<node lat="60.88391110901267" lon="6.647994450097704" id="-30449">
		<tag k="name" v="Ringheimsøyni" />
		<tag k="place" v="locality" />
		<tag k="ssr:stedsnr" v="166111" />
	</node>
	<node lat="60.6361722240401" lon="6.487791660857628" id="-30450">
		<tag k="name" v="Leikeshovden" />
		<tag k="natural" v="hill" />
		<tag k="place" v="locality" />
		<tag k="ssr:stedsnr" v="166167" />
	</node>
	<node lat="60.50849166631324" lon="6.485208334613903" id="-30452">
		<tag k="name" v="Hamragjelet" />
		<tag k="natural" v="valley" />
		<tag k="place" v="locality" />
		<tag k="ssr:stedsnr" v="166610" />
	</node>
	<node lat="60.73495277756207" lon="6.478813882215816" id="-30456">
		<tag k="name" v="Bordena" />
		<tag k="place" v="locality" />
		<tag k="ssr:stedsnr" v="166711" />
	</node>
	<node lat="60.72817777537603" lon="6.4839666587352065" id="-30457">
		<tag k="name" v="Kjegjerdena" />
		<tag k="place" v="locality" />
		<tag k="ssr:stedsnr" v="166713" />
	</node>
	<node lat="60.702549998624114" lon="6.535627784338565" id="-30460">
		<tag k="name" v="Midmorgehaugen" />
		<tag k="natural" v="hill" />
		<tag k="place" v="locality" />
		<tag k="ssr:stedsnr" v="166875" />
	</node>
	<node lat="60.84194444514529" lon="6.599288897540732" id="-30461">
		<tag k="name" v="Vardagrobetne" />
		<tag k="place" v="locality" />
		<tag k="ssr:stedsnr" v="166879" />
	</node>
	<node lat="60.91524444085629" lon="6.74550000617454" id="-30463">
		<tag k="name" v="Ytste Teigen" />
		<tag k="place" v="locality" />
		<tag k="ssr:stedsnr" v="167015" />
	</node>
	<node lat="60.835688886073136" lon="6.555091667740648" id="-30464">
		<tag k="name" v="Larstræet" />
		<tag k="place" v="locality" />
		<tag k="ssr:stedsnr" v="166922" />
	</node>
	<node lat="60.77483888459259" lon="6.6006361144415" id="-30465">
		<tag k="name" v="Tjørnhaugane" />
		<tag k="natural" v="hill" />
		<tag k="place" v="locality" />
		<tag k="ssr:stedsnr" v="166927" />
	</node>
	<node lat="60.866322225652915" lon="6.7207166636369795" id="-30468">
		<tag k="name" v="Storskreda" />
		<tag k="natural" v="valley" />
		<tag k="place" v="locality" />
		<tag k="ssr:stedsnr" v="167109" />
	</node>
	<node lat="60.84981666424632" lon="6.6947305604660166" id="-30469">
		<tag k="name" v="Høgehaugen" />
		<tag k="natural" v="hill" />
		<tag k="place" v="locality" />
		<tag k="ssr:stedsnr" v="167113" />
	</node>
	<node lat="60.68049444289039" lon="6.726538895098488" id="-30471">
		<tag k="name" v="Langehjellen" />
		<tag k="place" v="locality" />
		<tag k="ssr:stedsnr" v="167127" />
	</node>
	<node lat="60.68630278081174" lon="6.656416662757141" id="-30472">
		<tag k="fixme" v="consider natural=peak for the most distinct mountains in the district" />
		<tag k="name" v="Tinden" />
		<tag k="natural" v="hill" />
		<tag k="place" v="locality" />
		<tag k="ssr:stedsnr" v="167205" />
	</node>
	<node lat="60.68538055503335" lon="6.820950004993338" id="-30473">
		<tag k="name" v="Austmannaholen" />
		<tag k="natural" v="valley" />
		<tag k="place" v="locality" />
		<tag k="ssr:stedsnr" v="167225" />
	</node>
	<node lat="60.64946666625015" lon="6.731961105409551" id="-30476">
		<tag k="name" v="Fribottseggi" />
		<tag k="place" v="locality" />
		<tag k="ssr:stedsnr" v="167261" />
	</node>
	<node lat="60.71193888459609" lon="6.642955553715558" id="-30477">
		<tag k="name" v="Husaleitet" />
		<tag k="natural" v="slope" />
		<tag k="place" v="locality" />
		<tag k="ssr:stedsnr" v="167262" />
	</node>
	<node lat="60.69006388805698" lon="6.685169436464763" id="-30478">
		<tag k="name" v="Vetle Brattebakken" />
		<tag k="natural" v="slope" />
		<tag k="place" v="locality" />
		<tag k="ssr:stedsnr" v="167302" />
	</node>
	<node lat="60.64268888675193" lon="6.630527779637376" id="-30481">
		<tag k="name" v="Vetabrekkena" />
		<tag k="natural" v="slope" />
		<tag k="place" v="locality" />
		<tag k="ssr:stedsnr" v="167460" />
	</node>
	<node lat="60.50369166269326" lon="6.512188894672769" id="-30483">
		<tag k="fixme" v="consider natural=peak for the most distinct mountains in the district" />
		<tag k="name" v="Hals" />
		<tag k="natural" v="hill" />
		<tag k="place" v="locality" />
		<tag k="ssr:stedsnr" v="167622" />
	</node>
	<node lat="60.513263891365895" lon="6.494300000071596" id="-30484">
		<tag k="name" v="Ljoshaugen" />
		<tag k="natural" v="hill" />
		<tag k="place" v="locality" />
		<tag k="ssr:stedsnr" v="167812" />
	</node>
	<node lat="60.562211111773614" lon="6.55660555267198" id="-30486">
		<tag k="fixme" v="consider natural=peak for the most distinct mountains in the district" />
		<tag k="name" v="Høgalifjellet" />
		<tag k="natural" v="hill" />
		<tag k="place" v="locality" />
		<tag k="ssr:stedsnr" v="167716" />
	</node>
	<node lat="60.570108334062915" lon="6.46789999549282" id="-30487">
		<tag k="name" v="Heiane" />
		<tag k="natural" v="hill" />
		<tag k="place" v="locality" />
		<tag k="ssr:stedsnr" v="167767" />
	</node>
	<node lat="60.657047225434276" lon="6.104241673189584" id="-30491">
		<tag k="name" v="Styveshaugen" />
		<tag k="natural" v="hill" />
		<tag k="place" v="locality" />
		<tag k="ssr:stedsnr" v="324709" />
	</node>
	<node lat="60.59233055891725" lon="6.1925916624069215" id="-30492">
		<tag k="name" v="Slanten" />
		<tag k="natural" v="hill" />
		<tag k="place" v="locality" />
		<tag k="ssr:stedsnr" v="324940" />
	</node>
	<node lat="60.66220278180504" lon="6.347055558563511" id="-30496">
		<tag k="name" v="Langetoni" />
		<tag k="natural" v="hill" />
		<tag k="place" v="locality" />
		<tag k="ssr:stedsnr" v="263925" />
	</node>
	<node lat="60.485399996399515" lon="6.717055555228526" id="-30501">
		<tag k="name" v="Verkadalsnuten" />
		<tag k="natural" v="hill" />
		<tag k="place" v="locality" />
		<tag k="ssr:stedsnr" v="187394" />
	</node>
	<node lat="60.48550000287892" lon="6.699169449576216" id="-30504">
		<tag k="name" v="Verkadalslii" />
		<tag k="natural" v="slope" />
		<tag k="place" v="locality" />
		<tag k="ssr:stedsnr" v="187402" />
	</node>
	<node lat="60.67046111441212" lon="5.968475004316822" id="-30505">
		<tag k="name" v="Øykjakvilet" />
		<tag k="natural" v="hill" />
		<tag k="place" v="locality" />
		<tag k="ssr:stedsnr" v="188006" />
	</node>
	<node lat="60.66704999860056" lon="6.100063881342559" id="-30506">
		<tag k="name" v="Fadnesbotnen" />
		<tag k="natural" v="valley" />
		<tag k="place" v="locality" />
		<tag k="ssr:stedsnr" v="188007" />
	</node>
	<node lat="60.64688333189921" lon="5.933505554021938" id="-30508">
		<tag k="fixme" v="consider natural=peak for the most distinct mountains in the district" />
		<tag k="name" v="Eggene" />
		<tag k="natural" v="hill" />
		<tag k="place" v="locality" />
		<tag k="ssr:stedsnr" v="188080" />
	</node>
	<node lat="60.625025004420024" lon="6.09446110821225" id="-30510">
		<tag k="fixme" v="consider natural=peak for the most distinct mountains in the district" />
		<tag k="name" v="Grautaleitet" />
		<tag k="natural" v="hill" />
		<tag k="place" v="locality" />
		<tag k="ssr:stedsnr" v="188218" />
	</node>
	<node lat="60.63805555895809" lon="5.973238888666786" id="-30514">
		<tag k="name" v="Driva" />
		<tag k="natural" v="hill" />
		<tag k="place" v="locality" />
		<tag k="ssr:stedsnr" v="188114" />
	</node>
	<node lat="60.611574999761025" lon="6.117788879895446" id="-30517">
		<tag k="fixme" v="consider natural=peak for the most distinct mountains in the district" />
		<tag k="name" v="Middagsknolten" />
		<tag k="natural" v="hill" />
		<tag k="place" v="locality" />
		<tag k="ssr:stedsnr" v="188193" />
	</node>
	<node lat="60.67141388949927" lon="6.411019448034477" id="-30521">
		<tag k="name" v="Klepp" />
		<tag k="natural" v="hill" />
		<tag k="place" v="locality" />
		<tag k="ssr:stedsnr" v="188322" />
	</node>
	<node lat="60.67704999785405" lon="6.371941661298648" id="-30522">
		<tag k="name" v="Dalsbotnen" />
		<tag k="natural" v="valley" />
		<tag k="place" v="locality" />
		<tag k="ssr:stedsnr" v="188324" />
	</node>
	<node lat="60.7044861151042" lon="6.156174994747563" id="-30527">
		<tag k="fixme" v="consider natural=peak for the most distinct mountains in the district" />
		<tag k="name" v="Raudhamrane" />
		<tag k="natural" v="hill" />
		<tag k="place" v="locality" />
		<tag k="ssr:stedsnr" v="188492" />
	</node>
	<node lat="60.71204166488237" lon="6.081413881208013" id="-30528">
		<tag k="name" v="Blomdalen" />
		<tag k="natural" v="valley" />
		<tag k="place" v="locality" />
		<tag k="ssr:stedsnr" v="188494" />
	</node>
	<node lat="60.567299998057734" lon="6.3221138829099175" id="-30529">
		<tag k="name" v="Ulvaskaret" />
		<tag k="natural" v="valley" />
		<tag k="place" v="locality" />
		<tag k="ssr:stedsnr" v="188618" />
	</node>
	<node lat="60.57473610815867" lon="6.524113884370397" id="-30531">
		<tag k="name" v="Vireskaret" />
		<tag k="natural" v="valley" />
		<tag k="place" v="locality" />
		<tag k="ssr:stedsnr" v="188623" />
	</node>
	<node lat="60.438272223629625" lon="6.686213893426227" id="-30532">
		<tag k="name" v="Måni" />
		<tag k="natural" v="ridge" />
		<tag k="place" v="locality" />
		<tag k="ssr:stedsnr" v="188369" />
	</node>
	<node lat="60.72281111154331" lon="6.347902774676936" id="-30534">
		<tag k="name" v="Holmane" />
		<tag k="place" v="locality" />
		<tag k="ssr:stedsnr" v="188390" />
	</node>
	<node lat="60.70384166795606" lon="6.0597000044461" id="-30536">
		<tag k="fixme" v="consider natural=peak for the most distinct mountains in the district" />
		<tag k="name" v="Blåvasshorgi" />
		<tag k="natural" v="hill" />
		<tag k="place" v="locality" />
		<tag k="ssr:stedsnr" v="188513" />
	</node>
	<node lat="60.49250833103332" lon="6.421005547496665" id="-30539">
		<tag k="fixme" v="consider natural=peak for the most distinct mountains in the district" />
		<tag k="name" v="Grånolten" />
		<tag k="natural" v="hill" />
		<tag k="place" v="locality" />
		<tag k="ssr:stedsnr" v="188803" />
	</node>
	<node lat="60.60409721905036" lon="6.708844448450177" id="-30542">
		<tag k="name" v="Nollen" />
		<tag k="natural" v="hill" />
		<tag k="place" v="locality" />
		<tag k="ssr:stedsnr" v="188896" />
	</node>
	<node lat="60.59034166861278" lon="6.718016658527517" id="-30545">
		<tag k="name" v="Øykjasteinshaugen" />
		<tag k="natural" v="hill" />
		<tag k="place" v="locality" />
		<tag k="ssr:stedsnr" v="188920" />
	</node>
	<node lat="60.70027382708859" lon="6.696853719765236" id="-30547">
		<tag k="name" v="Magliberget" />
		<tag k="natural" v="hill" />
		<tag k="place" v="locality" />
		<tag k="ssr:stedsnr" v="189506" />
	</node>
	<node lat="60.71493888467938" lon="6.738536111721892" id="-30549">
		<tag k="name" v="Brekkebotnen" />
		<tag k="natural" v="valley" />
		<tag k="place" v="locality" />
		<tag k="ssr:stedsnr" v="189519" />
	</node>
	<node lat="60.724005552625634" lon="6.93535277581548" id="-30550">
		<tag k="name" v="Storebotnen" />
		<tag k="natural" v="valley" />
		<tag k="place" v="locality" />
		<tag k="ssr:stedsnr" v="189525" />
	</node>
	<node lat="60.57226388938563" lon="6.800786114949763" id="-30554">
		<tag k="name" v="Middagsmannen" />
		<tag k="natural" v="hill" />
		<tag k="place" v="locality" />
		<tag k="ssr:stedsnr" v="189862" />
	</node>
	<node lat="60.60603888838942" lon="6.315216663772238" id="-30556">
		<tag k="name" v="Langeflaten" />
		<tag k="natural" v="slope" />
		<tag k="place" v="locality" />
		<tag k="ssr:stedsnr" v="189720" />
	</node>
	<node lat="60.531974999125715" lon="6.705627779573283" id="-30559">
		<tag k="name" v="Haukadalen" />
		<tag k="natural" v="valley" />
		<tag k="place" v="locality" />
		<tag k="ssr:stedsnr" v="189767" />
	</node>
	<node lat="60.66193611075702" lon="6.269897214295915" id="-30561">
		<tag k="name" v="Listreddalen" />
		<tag k="natural" v="valley" />
		<tag k="place" v="locality" />
		<tag k="ssr:stedsnr" v="263021" />
	</node>
	<node lat="60.92126110751946" lon="6.459299996017958" id="-30562">
		<tag k="name" v="Tuvo" />
		<tag k="natural" v="hill" />
		<tag k="place" v="locality" />
		<tag k="ssr:stedsnr" v="190615" />
	</node>
	<node lat="60.613305557553396" lon="6.22956667203074" id="-30565">
		<tag k="name" v="Karislåtta" />
		<tag k="natural" v="slope" />
		<tag k="place" v="locality" />
		<tag k="ssr:stedsnr" v="263052" />
	</node>
	<node lat="60.61754166952796" lon="6.2498249990778785" id="-30566">
		<tag k="fixme" v="consider natural=peak for the most distinct mountains in the district" />
		<tag k="name" v="Åsen" />
		<tag k="natural" v="hill" />
		<tag k="place" v="locality" />
		<tag k="ssr:stedsnr" v="263053" />
	</node>
	<node lat="60.60981666998343" lon="6.22872500300066" id="-30567">
		<tag k="name" v="Brekketeigen" />
		<tag k="natural" v="slope" />
		<tag k="place" v="locality" />
		<tag k="ssr:stedsnr" v="263055" />
	</node>
	<node lat="60.812913890511155" lon="6.40593611668494" id="-30568">
		<tag k="fixme" v="consider natural=peak for the most distinct mountains in the district" />
		<tag k="name" v="Flatafjellet" />
		<tag k="natural" v="hill" />
		<tag k="place" v="locality" />
		<tag k="ssr:stedsnr" v="190523" />
	</node>
	<node lat="60.85237500246813" lon="6.333333332381869" id="-30570">
		<tag k="name" v="Grøndalen" />
		<tag k="natural" v="valley" />
		<tag k="place" v="locality" />
		<tag k="ssr:stedsnr" v="190581" />
	</node>
	<node lat="60.88434166913916" lon="6.761402768678213" id="-30573">
		<tag k="fixme" v="consider natural=peak for the most distinct mountains in the district" />
		<tag k="name" v="Nipa" />
		<tag k="natural" v="hill" />
		<tag k="place" v="locality" />
		<tag k="ssr:stedsnr" v="190868" />
	</node>
	<node lat="60.90110277356448" lon="6.647783325689942" id="-30574">
		<tag k="fixme" v="consider natural=peak for the most distinct mountains in the district" />
		<tag k="name" v="Russanosi" />
		<tag k="natural" v="hill" />
		<tag k="place" v="locality" />
		<tag k="ssr:stedsnr" v="190871" />
	</node>
	<node lat="60.919652774428016" lon="6.745033337925924" id="-30576">
		<tag k="name" v="Stolen" />
		<tag k="place" v="locality" />
		<tag k="ssr:stedsnr" v="190878" />
	</node>
	<node lat="60.916394448046624" lon="6.600736109000701" id="-30577">
		<tag k="fixme" v="consider natural=peak for the most distinct mountains in the district" />
		<tag k="name" v="Viksetnipa" />
		<tag k="natural" v="hill" />
		<tag k="place" v="locality" />
		<tag k="ssr:stedsnr" v="190880" />
	</node>
	<node lat="60.64961388559351" lon="6.296505556775434" id="-30579">
		<tag k="name" v="Storhaugabrekkuna" />
		<tag k="natural" v="slope" />
		<tag k="place" v="locality" />
		<tag k="ssr:stedsnr" v="263143" />
	</node>
	<node lat="60.785144448516" lon="6.61008888584151" id="-30581">
		<tag k="name" v="Hovdahaugen" />
		<tag k="natural" v="hill" />
		<tag k="place" v="locality" />
		<tag k="ssr:stedsnr" v="190771" />
	</node>
	<node lat="60.786666664197675" lon="6.816105549846859" id="-30583">
		<tag k="name" v="Kvitaherbyrget" />
		<tag k="natural" v="ridge" />
		<tag k="place" v="locality" />
		<tag k="ssr:stedsnr" v="190775" />
	</node>
	<node lat="60.63512499832127" lon="6.222136113225648" id="-30587">
		<tag k="name" v="Leitet" />
		<tag k="natural" v="hill" />
		<tag k="place" v="locality" />
		<tag k="ssr:stedsnr" v="263140" />
	</node>
	<node lat="60.62453845264008" lon="6.182159398011231" id="-30588">
		<tag k="name" v="Skyljehovden" />
		<tag k="natural" v="hill" />
		<tag k="place" v="locality" />
		<tag k="ssr:stedsnr" v="263215" />
	</node>
	<node lat="60.62614166451628" lon="6.198525008596062" id="-30589">
		<tag k="name" v="Sekk" />
		<tag k="natural" v="hill" />
		<tag k="place" v="locality" />
		<tag k="ssr:stedsnr" v="263217" />
	</node>
	<node lat="60.80268055529302" lon="6.51794445222405" id="-30594">
		<tag k="name" v="Vinjalii" />
		<tag k="natural" v="slope" />
		<tag k="place" v="locality" />
		<tag k="ssr:stedsnr" v="263190" />
	</node>
	<node lat="60.77500555538519" lon="6.566180560384927" id="-30595">
		<tag k="name" v="Tunga" />
		<tag k="natural" v="slope" />
		<tag k="place" v="locality" />
		<tag k="ssr:stedsnr" v="263262" />
	</node>
	<node lat="60.77399444222293" lon="6.5794888944781205" id="-30596">
		<tag k="name" v="Hovdane" />
		<tag k="natural" v="hill" />
		<tag k="place" v="locality" />
		<tag k="ssr:stedsnr" v="263263" />
	</node>
	<node lat="60.54923948113101" lon="6.452016109917497" id="-30599">
		<tag k="name" v="Stolpadalen" />
		<tag k="natural" v="valley" />
		<tag k="place" v="locality" />
		<tag k="ssr:stedsnr" v="263238" />
	</node>
	<node lat="60.7541333293448" lon="6.223475008817592" id="-30601">
		<tag k="name" v="Sandaskreiane" />
		<tag k="natural" v="slope" />
		<tag k="place" v="locality" />
		<tag k="ssr:stedsnr" v="191920" />
	</node>
	<node lat="60.839722222216835" lon="6.4901055493725766" id="-30602">
		<tag k="name" v="Geitajukulen" />
		<tag k="natural" v="hill" />
		<tag k="place" v="locality" />
		<tag k="ssr:stedsnr" v="263279" />
	</node>
	<node lat="60.836074996142266" lon="6.47957499207046" id="-30603">
		<tag k="name" v="Leitet" />
		<tag k="natural" v="hill" />
		<tag k="place" v="locality" />
		<tag k="ssr:stedsnr" v="263280" />
	</node>
	<node lat="60.7958500019622" lon="6.639861107239995" id="-30606">
		<tag k="name" v="Kamben" />
		<tag k="natural" v="hill" />
		<tag k="place" v="locality" />
		<tag k="ssr:stedsnr" v="263379" />
	</node>
	<node lat="60.59105833294378" lon="5.989599996796016" id="-30607">
		<tag k="fixme" v="consider natural=peak for the most distinct mountains in the district" />
		<tag k="name" v="Flatafjellet" />
		<tag k="natural" v="hill" />
		<tag k="place" v="locality" />
		<tag k="ssr:stedsnr" v="263648" />
	</node>
	<node lat="60.60989166643418" lon="5.981547214106542" id="-30608">
		<tag k="name" v="Hesjabotnen" />
		<tag k="natural" v="valley" />
		<tag k="place" v="locality" />
		<tag k="ssr:stedsnr" v="263654" />
	</node>
	<node lat="60.652341667682876" lon="5.9538444373286845" id="-30609">
		<tag k="name" v="Toni" />
		<tag k="natural" v="hill" />
		<tag k="place" v="locality" />
		<tag k="ssr:stedsnr" v="263662" />
	</node>
	<node lat="60.64483888928828" lon="5.98265556244828" id="-30616">
		<tag k="name" v="Instestrandi" />
		<tag k="natural" v="slope" />
		<tag k="place" v="locality" />
		<tag k="ssr:stedsnr" v="263678" />
	</node>
	<node lat="60.65848888863733" lon="6.108630555166954" id="-30619">
		<tag k="name" v="Tveiti" />
		<tag k="natural" v="valley" />
		<tag k="place" v="locality" />
		<tag k="ssr:stedsnr" v="263723" />
	</node>
	<node lat="60.62665833009366" lon="5.970219440962568" id="-30620">
		<tag k="name" v="Gjøtta" />
		<tag k="natural" v="hill" />
		<tag k="place" v="locality" />
		<tag k="ssr:stedsnr" v="263849" />
	</node>
	<node lat="60.62042778199787" lon="5.982491667977514" id="-30621">
		<tag k="name" v="Bakkafloten" />
		<tag k="natural" v="slope" />
		<tag k="place" v="locality" />
		<tag k="ssr:stedsnr" v="263853" />
	</node>
	<node lat="60.623555556745444" lon="5.975961116585186" id="-30622">
		<tag k="name" v="Gardlii" />
		<tag k="natural" v="slope" />
		<tag k="place" v="locality" />
		<tag k="ssr:stedsnr" v="263858" />
	</node>
	<node lat="60.6229166678716" lon="5.9172222269963815" id="-30623">
		<tag k="name" v="Godfarbotnen" />
		<tag k="natural" v="valley" />
		<tag k="place" v="locality" />
		<tag k="ssr:stedsnr" v="263868" />
	</node>
	<node lat="60.66876110712984" lon="6.298588894308085" id="-30625">
		<tag k="fixme" v="consider natural=peak for the most distinct mountains in the district" />
		<tag k="name" v="Tunnasetfjellet" />
		<tag k="natural" v="hill" />
		<tag k="place" v="locality" />
		<tag k="ssr:stedsnr" v="263946" />
	</node>
	<node lat="60.59271111399072" lon="6.770991671407645" id="-30627">
		<tag k="name" v="Gunnarhaug" />
		<tag k="natural" v="hill" />
		<tag k="place" v="locality" />
		<tag k="ssr:stedsnr" v="264143" />
	</node>
	<node lat="60.87497777772703" lon="6.5001222222228705" id="-30628">
		<tag k="fixme" v="consider natural=peak for the most distinct mountains in the district" />
		<tag k="name" v="Britalarsolanobbi" />
		<tag k="natural" v="hill" />
		<tag k="place" v="locality" />
		<tag k="ssr:stedsnr" v="264161" />
	</node>
	<node lat="60.74865555741707" lon="6.458194452521326" id="-30629">
		<tag k="name" v="Langehaugen" />
		<tag k="natural" v="hill" />
		<tag k="place" v="locality" />
		<tag k="ssr:stedsnr" v="264133" />
	</node>
	<node lat="60.68291666968188" lon="6.385911102438761" id="-30633">
		<tag k="name" v="Vådalen" />
		<tag k="natural" v="valley" />
		<tag k="place" v="locality" />
		<tag k="ssr:stedsnr" v="264954" />
	</node>
	<node lat="60.66824444791018" lon="6.281041667194457" id="-30636">
		<tag k="name" v="Listredgavlen" />
		<tag k="place" v="locality" />
		<tag k="ssr:stedsnr" v="202001" />
	</node>
	<node lat="60.52899721931019" lon="6.3333333368513545" id="-30638">
		<tag k="name" v="Tverrdalen" />
		<tag k="natural" v="valley" />
		<tag k="place" v="locality" />
		<tag k="ssr:stedsnr" v="202198" />
	</node>
	<node lat="60.611936107901315" lon="6.2973555501827985" id="-30639">
		<tag k="name" v="Jokroi" />
		<tag k="place" v="locality" />
		<tag k="ssr:stedsnr" v="202094" />
	</node>
	<node lat="60.59813055978622" lon="6.283180557439268" id="-30642">
		<tag k="name" v="Godeplassen" />
		<tag k="place" v="locality" />
		<tag k="ssr:stedsnr" v="203065" />
	</node>
	<node lat="60.60333888479463" lon="6.316080558886534" id="-30644">
		<tag k="name" v="Tjørestigen" />
		<tag k="natural" v="hill" />
		<tag k="place" v="locality" />
		<tag k="ssr:stedsnr" v="202905" />
	</node>
	<node lat="60.77170555928241" lon="6.468816664200727" id="-30648">
		<tag k="name" v="Hagahovden" />
		<tag k="natural" v="hill" />
		<tag k="place" v="locality" />
		<tag k="ssr:stedsnr" v="203204" />
	</node>
	<node lat="60.619319444388395" lon="6.118355554967775" id="-30652">
		<tag k="name" v="Fletane" />
		<tag k="natural" v="slope" />
		<tag k="place" v="locality" />
		<tag k="ssr:stedsnr" v="203280" />
	</node>
	<node lat="60.82263889316923" lon="6.496638892742104" id="-30653">
		<tag k="name" v="Raudskallen" />
		<tag k="natural" v="hill" />
		<tag k="place" v="locality" />
		<tag k="ssr:stedsnr" v="203286" />
	</node>
	<node lat="60.81696666816282" lon="6.507200003138218" id="-30654">
		<tag k="name" v="Øyasetdalen" />
		<tag k="natural" v="valley" />
		<tag k="place" v="locality" />
		<tag k="ssr:stedsnr" v="203339" />
	</node>
	<node lat="60.81724166524548" lon="6.508197227150703" id="-30655">
		<tag k="name" v="Leitet" />
		<tag k="natural" v="hill" />
		<tag k="place" v="locality" />
		<tag k="ssr:stedsnr" v="203342" />
	</node>
	<node lat="60.86439444084204" lon="6.47844166123355" id="-30656">
		<tag k="name" v="Halsteinshaugen" />
		<tag k="natural" v="hill" />
		<tag k="place" v="locality" />
		<tag k="ssr:stedsnr" v="203353" />
	</node>
	<node lat="60.688491662513805" lon="6.751541675379734" id="-30658">
		<tag k="name" v="Tjørnahaugane" />
		<tag k="natural" v="hill" />
		<tag k="place" v="locality" />
		<tag k="ssr:stedsnr" v="203656" />
	</node>
	<node lat="60.680972218694194" lon="6.031011103445025" id="-30663">
		<tag k="name" v="Gamlastølsberget" />
		<tag k="natural" v="hill" />
		<tag k="place" v="locality" />
		<tag k="ssr:stedsnr" v="203818" />
	</node>
	<node lat="60.687338884602774" lon="6.008494440005132" id="-30664">
		<tag k="fixme" v="consider natural=peak for the most distinct mountains in the district" />
		<tag k="name" v="Taulafjellet" />
		<tag k="natural" v="hill" />
		<tag k="place" v="locality" />
		<tag k="ssr:stedsnr" v="203706" />
	</node>
	<node lat="60.66981944873613" lon="6.054980562512738" id="-30665">
		<tag k="name" v="Skogahaugen" />
		<tag k="natural" v="hill" />
		<tag k="place" v="locality" />
		<tag k="ssr:stedsnr" v="203708" />
	</node>
	<node lat="60.714966663572206" lon="6.130322224859185" id="-30666">
		<tag k="name" v="Sandbrekkene" />
		<tag k="natural" v="slope" />
		<tag k="place" v="locality" />
		<tag k="ssr:stedsnr" v="203732" />
	</node>
	<node lat="60.64391944054975" lon="6.137230548530538" id="-30667">
		<tag k="name" v="Snikkarhjellen" />
		<tag k="place" v="locality" />
		<tag k="ssr:stedsnr" v="203742" />
	</node>
	<node lat="60.748866664455846" lon="6.126533329154182" id="-30668">
		<tag k="name" v="Solhjellen" />
		<tag k="place" v="locality" />
		<tag k="ssr:stedsnr" v="203747" />
	</node>
	<node lat="60.68228332974403" lon="6.125616658542336" id="-30669">
		<tag k="name" v="Høgebrekkene" />
		<tag k="natural" v="slope" />
		<tag k="place" v="locality" />
		<tag k="ssr:stedsnr" v="203749" />
	</node>
	<node lat="60.67286111126781" lon="6.105141657766211" id="-30670">
		<tag k="name" v="Hjellen" />
		<tag k="place" v="locality" />
		<tag k="ssr:stedsnr" v="203750" />
	</node>
	<node lat="60.710494442931356" lon="6.641255546584882" id="-30672">
		<tag k="name" v="Jonsstølsdalen" />
		<tag k="natural" v="valley" />
		<tag k="place" v="locality" />
		<tag k="ssr:stedsnr" v="270344" />
	</node>
	<node lat="60.443838893003935" lon="6.698269437662782" id="-30673">
		<tag k="name" v="Midtflot" />
		<tag k="place" v="locality" />
		<tag k="ssr:stedsnr" v="220722" />
	</node>
	<node lat="60.48436666279983" lon="6.668608341639004" id="-30677">
		<tag k="name" v="Bjønnskårane" />
		<tag k="place" v="locality" />
		<tag k="ssr:stedsnr" v="221822" />
	</node>
	<node lat="60.482377773675665" lon="6.666113880664992" id="-30678">
		<tag k="name" v="Gråsteg" />
		<tag k="place" v="locality" />
		<tag k="ssr:stedsnr" v="221824" />
	</node>
	<node lat="60.90073888670548" lon="6.625258332673297" id="-30681">
		<tag k="name" v="Nukane" />
		<tag k="place" v="locality" />
		<tag k="ssr:stedsnr" v="227111" />
	</node>
	<node lat="60.68113888941759" lon="6.845350000477271" id="-30682">
		<tag k="fixme" v="consider natural=peak for the most distinct mountains in the district" />
		<tag k="name" v="Nuten" />
		<tag k="natural" v="hill" />
		<tag k="place" v="locality" />
		<tag k="ssr:stedsnr" v="227231" />
	</node>
	<node lat="60.678291668093" lon="6.848630548425187" id="-30683">
		<tag k="name" v="Skaret" />
		<tag k="natural" v="valley" />
		<tag k="place" v="locality" />
		<tag k="ssr:stedsnr" v="227233" />
	</node>
	<node lat="60.69117500246823" lon="6.704300007988333" id="-30684">
		<tag k="name" v="Aurevasshaugen" />
		<tag k="natural" v="hill" />
		<tag k="place" v="locality" />
		<tag k="ssr:stedsnr" v="227209" />
	</node>
	<node lat="60.674191666811645" lon="6.668611119820188" id="-30685">
		<tag k="name" v="Stekkaberget" />
		<tag k="place" v="locality" />
		<tag k="ssr:stedsnr" v="227210" />
	</node>
	<node lat="60.684005554552115" lon="6.642080562219314" id="-30686">
		<tag k="name" v="Kvålsberget" />
		<tag k="natural" v="hill" />
		<tag k="place" v="locality" />
		<tag k="ssr:stedsnr" v="227211" />
	</node>
	<node lat="60.903261111644184" lon="6.482241666472142" id="-30687">
		<tag k="name" v="Holeberget" />
		<tag k="place" v="locality" />
		<tag k="ssr:stedsnr" v="227182" />
	</node>
	<node lat="60.668894441521545" lon="6.583161120150763" id="-30688">
		<tag k="name" v="Kvanngjeli" />
		<tag k="natural" v="valley" />
		<tag k="place" v="locality" />
		<tag k="ssr:stedsnr" v="227385" />
	</node>
	<node lat="60.72196389029606" lon="6.587511105109997" id="-30689">
		<tag k="name" v="Hunden" />
		<tag k="place" v="locality" />
		<tag k="ssr:stedsnr" v="227393" />
	</node>
	<node lat="60.55772499584843" lon="6.449002782301053" id="-30691">
		<tag k="name" v="Skredena" />
		<tag k="natural" v="hill" />
		<tag k="place" v="locality" />
		<tag k="ssr:stedsnr" v="227532" />
	</node>
	<node lat="60.691427780191724" lon="6.657830549896203" id="-30693">
		<tag k="name" v="Hellerane" />
		<tag k="place" v="locality" />
		<tag k="ssr:stedsnr" v="227284" />
	</node>
	<node lat="60.692622225465186" lon="6.648058333874905" id="-30694">
		<tag k="name" v="Dosahovden" />
		<tag k="natural" v="hill" />
		<tag k="place" v="locality" />
		<tag k="ssr:stedsnr" v="227300" />
	</node>
	<node lat="60.60640000340605" lon="6.456844435369185" id="-30699">
		<tag k="fixme" v="consider natural=peak for the most distinct mountains in the district" />
		<tag k="name" v="Himlesåsen" />
		<tag k="natural" v="hill" />
		<tag k="place" v="locality" />
		<tag k="ssr:stedsnr" v="227843" />
	</node>
	<node lat="60.82580832894694" lon="6.721922226065071" id="-30700">
		<tag k="name" v="Øvste Tuftena" />
		<tag k="place" v="locality" />
		<tag k="ssr:stedsnr" v="227883" />
	</node>
	<node lat="60.69964166488202" lon="6.661352769063007" id="-30701">
		<tag k="name" v="Høghaug" />
		<tag k="natural" v="hill" />
		<tag k="place" v="locality" />
		<tag k="ssr:stedsnr" v="227897" />
	</node>
	<node lat="60.621980553746475" lon="6.068455555151461" id="-30702">
		<tag k="name" v="Knappene" />
		<tag k="place" v="locality" />
		<tag k="ssr:stedsnr" v="227992" />
	</node>
	<node lat="60.63763055177863" lon="6.638294439302413" id="-30704">
		<tag k="name" v="Vetlabrekkuna" />
		<tag k="natural" v="slope" />
		<tag k="place" v="locality" />
		<tag k="ssr:stedsnr" v="228233" />
	</node>
	<node lat="60.51060000194466" lon="6.40589166689152" id="-30705">
		<tag k="fixme" v="consider natural=peak for the most distinct mountains in the district" />
		<tag k="name" v="Toftanipa" />
		<tag k="natural" v="hill" />
		<tag k="place" v="locality" />
		<tag k="ssr:stedsnr" v="228236" />
	</node>
	<node lat="60.63018611327748" lon="6.525122229302264" id="-30706">
		<tag k="name" v="Kvisli" />
		<tag k="natural" v="slope" />
		<tag k="place" v="locality" />
		<tag k="ssr:stedsnr" v="228407" />
	</node>
	<node lat="60.58133611177702" lon="6.570930551388641" id="-30708">
		<tag k="fixme" v="consider natural=peak for the most distinct mountains in the district" />
		<tag k="name" v="Langesetfjellet" />
		<tag k="natural" v="hill" />
		<tag k="place" v="locality" />
		<tag k="ssr:stedsnr" v="228715" />
	</node>
	<node lat="60.58300278205818" lon="6.535566662751209" id="-30712">
		<tag k="name" v="Håsetkleivane" />
		<tag k="natural" v="slope" />
		<tag k="place" v="locality" />
		<tag k="ssr:stedsnr" v="228800" />
	</node>
	<node lat="60.916984812031714" lon="6.447192430879246" id="-30714">
		<tag k="loc_name" v="Vikafjellet;Vikjafjellet" />
		<tag k="name" v="Vikafjell" />
		<tag k="natural" v="mountain_range" />
		<tag k="ssr:stedsnr" v="449641" />
	</node>
	<node lat="60.84243333239725" lon="6.653216659366877" id="-30716">
		<tag k="fixme" v="consider natural=peak for the most distinct mountains in the district" />
		<tag k="loc_name" v="Stalheimsnuten" />
		<tag k="name" v="Brekkenipa" />
		<tag k="natural" v="hill" />
		<tag k="place" v="locality" />
		<tag k="ssr:stedsnr" v="494777" />
	</node>
	<node lat="60.72236388561892" lon="6.032624997057797" id="-30721">
		<tag k="name" v="Larslii" />
		<tag k="natural" v="slope" />
		<tag k="place" v="locality" />
		<tag k="ssr:stedsnr" v="248414" />
	</node>
	<node lat="60.589638887540744" lon="6.6176416636832744" id="-30726">
		<tag k="name" v="Kamben" />
		<tag k="natural" v="ridge" />
		<tag k="place" v="locality" />
		<tag k="ssr:stedsnr" v="248948" />
	</node>
	<node lat="60.59460555399339" lon="6.124527781321627" id="-30728">
		<tag k="name" v="Kyrabotnen" />
		<tag k="natural" v="valley" />
		<tag k="place" v="locality" />
		<tag k="ssr:stedsnr" v="249205" />
	</node>
	<node lat="60.58546666558344" lon="6.12648888671932" id="-30729">
		<tag k="name" v="Manndomsgjelet" />
		<tag k="natural" v="valley" />
		<tag k="place" v="locality" />
		<tag k="ssr:stedsnr" v="249206" />
	</node>
	<node lat="60.652305552200104" lon="6.47023332748499" id="-30730">
		<tag k="fixme" v="consider natural=peak for the most distinct mountains in the district" />
		<tag k="name" v="Storåsen" />
		<tag k="natural" v="hill" />
		<tag k="place" v="locality" />
		<tag k="ssr:stedsnr" v="249262" />
	</node>
	<node lat="60.693036111844776" lon="6.559925008082628" id="-30732">
		<tag k="name" v="Lauvhovden" />
		<tag k="natural" v="hill" />
		<tag k="place" v="locality" />
		<tag k="ssr:stedsnr" v="249311" />
	</node>
	<node lat="60.67618610744237" lon="6.22724444150865" id="-30733">
		<tag k="name" v="Skansen" />
		<tag k="natural" v="ridge" />
		<tag k="place" v="locality" />
		<tag k="ssr:stedsnr" v="249313" />
	</node>
	<node lat="60.66063055736963" lon="6.221886102754831" id="-30734">
		<tag k="fixme" v="consider natural=peak for the most distinct mountains in the district" />
		<tag k="name" v="Nobbi" />
		<tag k="natural" v="hill" />
		<tag k="place" v="locality" />
		<tag k="ssr:stedsnr" v="263085" />
	</node>
	<node lat="60.77070000324596" lon="6.466674993006125" id="-30736">
		<tag k="name" v="Melandshovden" />
		<tag k="natural" v="hill" />
		<tag k="place" v="locality" />
		<tag k="ssr:stedsnr" v="263210" />
	</node>
	<node lat="60.789108334540835" lon="6.614930559211088" id="-30737">
		<tag k="name" v="Gryvlet" />
		<tag k="natural" v="slope" />
		<tag k="place" v="locality" />
		<tag k="ssr:stedsnr" v="263170" />
	</node>
	<node lat="60.81573055659018" lon="6.622838897975329" id="-30740">
		<tag k="name" v="Samsotlehaugane" />
		<tag k="natural" v="hill" />
		<tag k="place" v="locality" />
		<tag k="ssr:stedsnr" v="263312" />
	</node>
	<node lat="60.80538888870221" lon="6.603827780440837" id="-30741">
		<tag k="name" v="Kvasshaug" />
		<tag k="natural" v="hill" />
		<tag k="place" v="locality" />
		<tag k="ssr:stedsnr" v="263294" />
	</node>
	<node lat="60.816294443884644" lon="6.538538895321186" id="-30742">
		<tag k="name" v="Svortebotnen" />
		<tag k="natural" v="valley" />
		<tag k="place" v="locality" />
		<tag k="ssr:stedsnr" v="263301" />
	</node>
	<node lat="60.806397224785805" lon="6.578491659828189" id="-30743">
		<tag k="name" v="Kvernhusholene" />
		<tag k="natural" v="valley" />
		<tag k="place" v="locality" />
		<tag k="ssr:stedsnr" v="263390" />
	</node>
	<node lat="60.72238871146706" lon="6.157459933204105" id="-30744">
		<tag k="name" v="Kljåsteinberget" />
		<tag k="natural" v="hill" />
		<tag k="place" v="locality" />
		<tag k="ssr:stedsnr" v="263542" />
	</node>
	<node lat="60.663572221808465" lon="6.062349993549397" id="-30745">
		<tag k="name" v="Vetledalen" />
		<tag k="natural" v="valley" />
		<tag k="place" v="locality" />
		<tag k="ssr:stedsnr" v="263702" />
	</node>
	<node lat="60.68810555807494" lon="5.952047220461" id="-30747">
		<tag k="name" v="Maureskarvet" />
		<tag k="natural" v="hill" />
		<tag k="place" v="locality" />
		<tag k="ssr:stedsnr" v="263689" />
	</node>
	<node lat="60.64624166778094" lon="6.0046777853867095" id="-30748">
		<tag k="name" v="Vassendaberget" />
		<tag k="natural" v="hill" />
		<tag k="place" v="locality" />
		<tag k="ssr:stedsnr" v="263694" />
	</node>
	<node lat="60.64306110811069" lon="6.020000001507843" id="-30749">
		<tag k="name" v="Godfarskolten" />
		<tag k="natural" v="ridge" />
		<tag k="place" v="locality" />
		<tag k="ssr:stedsnr" v="263699" />
	</node>
	<node lat="60.59771389176753" lon="6.2951500062598305" id="-30751">
		<tag k="name" v="Sekken" />
		<tag k="natural" v="valley" />
		<tag k="place" v="locality" />
		<tag k="ssr:stedsnr" v="263883" />
	</node>
	<node lat="60.59564167040491" lon="6.289075008236683" id="-30752">
		<tag k="name" v="Verken" />
		<tag k="natural" v="slope" />
		<tag k="place" v="locality" />
		<tag k="ssr:stedsnr" v="263884" />
	</node>
	<node lat="60.606555553911726" lon="6.294375000629695" id="-30754">
		<tag k="name" v="Svartaberget" />
		<tag k="natural" v="hill" />
		<tag k="place" v="locality" />
		<tag k="ssr:stedsnr" v="263892" />
	</node>
	<node lat="60.61978333041901" lon="6.353119437699975" id="-30755">
		<tag k="name" v="Hagli" />
		<tag k="natural" v="slope" />
		<tag k="place" v="locality" />
		<tag k="ssr:stedsnr" v="263910" />
	</node>
	<node lat="60.61770833513854" lon="6.342124992984552" id="-30756">
		<tag k="name" v="Ryssaberget" />
		<tag k="natural" v="hill" />
		<tag k="place" v="locality" />
		<tag k="ssr:stedsnr" v="264080" />
	</node>
	<node lat="60.62532222394425" lon="6.335669443701421" id="-30757">
		<tag k="name" v="Djukasteinsberget" />
		<tag k="natural" v="hill" />
		<tag k="place" v="locality" />
		<tag k="ssr:stedsnr" v="264084" />
	</node>
	<node lat="60.604061107938534" lon="6.182036110346923" id="-30758">
		<tag k="name" v="Stigane" />
		<tag k="place" v="locality" />
		<tag k="ssr:stedsnr" v="264944" />
	</node>
	<node lat="60.43749722649053" lon="6.684358330010628" id="-30760">
		<tag k="name" v="Berjaflot" />
		<tag k="natural" v="ridge" />
		<tag k="place" v="locality" />
		<tag k="ssr:stedsnr" v="281609" />
	</node>
	<node lat="60.468236110893784" lon="6.716094439896184" id="-30761">
		<tag k="fixme" v="consider natural=peak for the most distinct mountains in the district" />
		<tag k="name" v="Gallsflåten" />
		<tag k="natural" v="hill" />
		<tag k="place" v="locality" />
		<tag k="ssr:stedsnr" v="281706" />
	</node>
	<node lat="60.45697175464198" lon="6.746268088223897" id="-30762">
		<tag k="name" v="Hetledalen" />
		<tag k="natural" v="valley" />
		<tag k="place" v="locality" />
		<tag k="ssr:stedsnr" v="281714" />
	</node>
	<node lat="60.469830558679185" lon="6.73121666892078" id="-30763">
		<tag k="name" v="Urdalsbrotet" />
		<tag k="natural" v="valley" />
		<tag k="place" v="locality" />
		<tag k="ssr:stedsnr" v="281715" />
	</node>
	<node lat="60.615852775716164" lon="6.689236104651355" id="-30764">
		<tag k="name" v="Øvsteskar" />
		<tag k="natural" v="valley" />
		<tag k="place" v="locality" />
		<tag k="ssr:stedsnr" v="281803" />
	</node>
	<node lat="60.489836107123324" lon="6.684650000088232" id="-30765">
		<tag k="name" v="Konestølen" />
		<tag k="place" v="locality" />
		<tag k="ssr:stedsnr" v="281813" />
	</node>
	<node lat="60.54471944229569" lon="6.666469449245563" id="-30766">
		<tag k="name" v="Bettene" />
		<tag k="place" v="locality" />
		<tag k="ssr:stedsnr" v="281816" />
	</node>
	<node lat="60.50750555825511" lon="6.7050416655743685" id="-30767">
		<tag k="name" v="Øvre Koldehjellen" />
		<tag k="place" v="locality" />
		<tag k="ssr:stedsnr" v="281817" />
	</node>
	<node lat="60.62299999659733" lon="6.667991664316246" id="-30768">
		<tag k="name" v="Hengsdalsskar" />
		<tag k="natural" v="valley" />
		<tag k="place" v="locality" />
		<tag k="ssr:stedsnr" v="281820" />
	</node>
	<node lat="60.6175888844918" lon="6.663119442648158" id="-30769">
		<tag k="name" v="Reisneskar" />
		<tag k="natural" v="valley" />
		<tag k="place" v="locality" />
		<tag k="ssr:stedsnr" v="281821" />
	</node>
	<node lat="60.5031916658451" lon="6.718505547633187" id="-30770">
		<tag k="fixme" v="consider natural=peak for the most distinct mountains in the district" />
		<tag k="name" v="Veslahorga" />
		<tag k="natural" v="hill" />
		<tag k="place" v="locality" />
		<tag k="ssr:stedsnr" v="281825" />
	</node>
	<node lat="60.54828611480531" lon="6.699977777255009" id="-30771">
		<tag k="name" v="Nesheimslia" />
		<tag k="natural" v="slope" />
		<tag k="place" v="locality" />
		<tag k="ssr:stedsnr" v="281881" />
	</node>
	<node lat="60.59060555617085" lon="6.68915000117365" id="-30772">
		<tag k="name" v="Furuhaugen" />
		<tag k="natural" v="hill" />
		<tag k="place" v="locality" />
		<tag k="ssr:stedsnr" v="281882" />
	</node>
	<node lat="60.56539722289231" lon="6.737308335062298" id="-30773">
		<tag k="name" v="Leina" />
		<tag k="place" v="locality" />
		<tag k="ssr:stedsnr" v="281884" />
	</node>
	<node lat="60.56427778019519" lon="6.733216670936709" id="-30774">
		<tag k="name" v="Treldalen" />
		<tag k="natural" v="valley" />
		<tag k="place" v="locality" />
		<tag k="ssr:stedsnr" v="281887" />
	</node>
	<node lat="60.484747223875395" lon="6.630075001749205" id="-30777">
		<tag k="name" v="Geitaskarberg" />
		<tag k="natural" v="hill" />
		<tag k="place" v="locality" />
		<tag k="ssr:stedsnr" v="281923" />
	</node>
	<node lat="60.6388194465081" lon="6.408013890517857" id="-30780">
		<tag k="name" v="Rennefloten" />
		<tag k="place" v="locality" />
		<tag k="ssr:stedsnr" v="287292" />
	</node>
	<node lat="60.605691670694796" lon="6.46596388919872" id="-30784">
		<tag k="name" v="Himlesleitet" />
		<tag k="natural" v="slope" />
		<tag k="place" v="locality" />
		<tag k="ssr:stedsnr" v="287809" />
	</node>
	<node lat="60.589183330861424" lon="6.560583328002695" id="-30785">
		<tag k="name" v="Bidningadalen" />
		<tag k="natural" v="valley" />
		<tag k="place" v="locality" />
		<tag k="ssr:stedsnr" v="287778" />
	</node>
	<node lat="60.82909166589315" lon="6.5796388961472365" id="-30786">
		<tag k="name" v="Nolten" />
		<tag k="place" v="locality" />
		<tag k="ssr:stedsnr" v="287883" />
	</node>
	<node lat="60.87715000129963" lon="6.553419445907431" id="-30787">
		<tag k="name" v="Botn" />
		<tag k="natural" v="valley" />
		<tag k="place" v="locality" />
		<tag k="ssr:stedsnr" v="288038" />
	</node>
	<node lat="60.57943333272905" lon="6.145336110972495" id="-30788">
		<tag k="name" v="Ljosvatnahaugen" />
		<tag k="natural" v="hill" />
		<tag k="place" v="locality" />
		<tag k="ssr:stedsnr" v="288080" />
	</node>
	<node lat="60.86508611280098" lon="6.606936108698385" id="-30789">
		<tag k="name" v="Kvannbakkane" />
		<tag k="natural" v="slope" />
		<tag k="place" v="locality" />
		<tag k="ssr:stedsnr" v="288082" />
	</node>
	<node lat="60.86372777953415" lon="6.58302500621791" id="-30790">
		<tag k="name" v="Novi" />
		<tag k="place" v="locality" />
		<tag k="ssr:stedsnr" v="288091" />
	</node>
	<node lat="60.76673333623989" lon="6.621469450955903" id="-30792">
		<tag k="fixme" v="consider natural=peak for the most distinct mountains in the district" />
		<tag k="name" v="Malmagrønsnosi" />
		<tag k="natural" v="hill" />
		<tag k="place" v="locality" />
		<tag k="ssr:stedsnr" v="287933" />
	</node>
	<node lat="60.682864570458875" lon="6.709917149342212" id="-30793">
		<tag k="name" v="Gråskallen" />
		<tag k="natural" v="hill" />
		<tag k="place" v="locality" />
		<tag k="ssr:stedsnr" v="288141" />
	</node>
	<node lat="60.90063889325516" lon="6.733852785381246" id="-30794">
		<tag k="name" v="Skinnhuehaugen" />
		<tag k="natural" v="hill" />
		<tag k="place" v="locality" />
		<tag k="ssr:stedsnr" v="288182" />
	</node>
	<node lat="60.666594444414784" lon="6.41938610994568" id="-30795">
		<tag k="name" v="Hovden" />
		<tag k="natural" v="hill" />
		<tag k="place" v="locality" />
		<tag k="ssr:stedsnr" v="288380" />
	</node>
	<node lat="60.640202775185614" lon="6.407591670316507" id="-30799">
		<tag k="name" v="Breitoni" />
		<tag k="place" v="locality" />
		<tag k="ssr:stedsnr" v="288431" />
	</node>
	<node lat="60.580861114779886" lon="6.489836114548053" id="-30801">
		<tag k="name" v="Svartaberget" />
		<tag k="natural" v="hill" />
		<tag k="place" v="locality" />
		<tag k="ssr:stedsnr" v="288501" />
	</node>
	<node lat="60.721736111437906" lon="6.482963893458886" id="-30802">
		<tag k="name" v="Smoget" />
		<tag k="natural" v="valley" />
		<tag k="place" v="locality" />
		<tag k="ssr:stedsnr" v="288681" />
	</node>
	<node lat="60.57098611075557" lon="6.6158472188535065" id="-30803">
		<tag k="name" v="Svartaberget" />
		<tag k="natural" v="hill" />
		<tag k="place" v="locality" />
		<tag k="ssr:stedsnr" v="288697" />
	</node>
	<node lat="60.56586111050816" lon="6.609430547011902" id="-30804">
		<tag k="name" v="Fylstoni" />
		<tag k="place" v="locality" />
		<tag k="ssr:stedsnr" v="288700" />
	</node>
	<node lat="60.90912777637766" lon="6.746397219483378" id="-30805">
		<tag k="name" v="Heimsteløteigen" />
		<tag k="place" v="locality" />
		<tag k="ssr:stedsnr" v="289005" />
	</node>
	<node lat="60.89281666908278" lon="6.64970833575909" id="-30806">
		<tag k="name" v="Kråkenosi" />
		<tag k="place" v="locality" />
		<tag k="ssr:stedsnr" v="289026" />
	</node>
	<node lat="60.87932222544814" lon="6.7482388928638555" id="-30807">
		<tag k="fixme" v="consider natural=peak for the most distinct mountains in the district" />
		<tag k="name" v="Såta" />
		<tag k="natural" v="hill" />
		<tag k="place" v="locality" />
		<tag k="ssr:stedsnr" v="289091" />
	</node>
	<node lat="60.873530560105586" lon="6.723886119725311" id="-30808">
		<tag k="name" v="Våghammaren" />
		<tag k="natural" v="hill" />
		<tag k="place" v="locality" />
		<tag k="ssr:stedsnr" v="289097" />
	</node>
	<node lat="60.87307499681327" lon="6.734094438769632" id="-30809">
		<tag k="name" v="Vardanabakkane" />
		<tag k="natural" v="slope" />
		<tag k="place" v="locality" />
		<tag k="ssr:stedsnr" v="289098" />
	</node>
	<node lat="60.54958610673873" lon="6.219316665123288" id="-30811">
		<tag k="fixme" v="consider natural=peak for the most distinct mountains in the district" />
		<tag k="name" v="Grånolten" />
		<tag k="natural" v="hill" />
		<tag k="place" v="locality" />
		<tag k="ssr:stedsnr" v="288976" />
	</node>
	<node lat="60.813411110894016" lon="6.707330552209737" id="-30812">
		<tag k="name" v="Rusta" />
		<tag k="place" v="locality" />
		<tag k="ssr:stedsnr" v="288982" />
	</node>
	<node lat="60.74199166326423" lon="6.588302781646252" id="-30815">
		<tag k="fixme" v="consider natural=peak for the most distinct mountains in the district" />
		<tag k="name" v="Remlevarden" />
		<tag k="natural" v="hill" />
		<tag k="place" v="locality" />
		<tag k="ssr:stedsnr" v="289302" />
	</node>
	<node lat="60.50395555870807" lon="6.4722833270146145" id="-30816">
		<tag k="name" v="Bjørnamyrsleitet" />
		<tag k="natural" v="slope" />
		<tag k="place" v="locality" />
		<tag k="ssr:stedsnr" v="289627" />
	</node>
	<node lat="60.460888887040014" lon="6.644444449264812" id="-30818">
		<tag k="fixme" v="consider natural=peak for the most distinct mountains in the district" />
		<tag k="name" v="Skarpasteinsfjellet" />
		<tag k="natural" v="hill" />
		<tag k="place" v="locality" />
		<tag k="ssr:stedsnr" v="463645" />
	</node>
	<node lat="60.46222500205614" lon="6.724844443737015" id="-30819">
		<tag k="name" v="Vindhovd" />
		<tag k="place" v="locality" />
		<tag k="ssr:stedsnr" v="463648" />
	</node>
	<node lat="60.613572223507525" lon="6.7217472163452765" id="-30820">
		<tag k="fixme" v="consider natural=peak for the most distinct mountains in the district" />
		<tag k="name" v="Lianuten" />
		<tag k="natural" v="hill" />
		<tag k="place" v="locality" />
		<tag k="ssr:stedsnr" v="463790" />
	</node>
	<node lat="60.458775000355" lon="6.596997220395787" id="-30821">
		<tag k="name" v="Løflaten" />
		<tag k="natural" v="slope" />
		<tag k="place" v="locality" />
		<tag k="ssr:stedsnr" v="463795" />
	</node>
	<node lat="60.57000832944325" lon="6.730783328484315" id="-30822">
		<tag k="name" v="Nodlane" />
		<tag k="natural" v="hill" />
		<tag k="place" v="locality" />
		<tag k="ssr:stedsnr" v="463813" />
	</node>
	<node lat="60.555569446225036" lon="6.795747215950422" id="-30824">
		<tag k="name" v="Kjerringahaugen" />
		<tag k="natural" v="hill" />
		<tag k="place" v="locality" />
		<tag k="ssr:stedsnr" v="463833" />
	</node>
	<node lat="60.61229166345066" lon="6.746119441723771" id="-30825">
		<tag k="name" v="Ennelii" />
		<tag k="natural" v="slope" />
		<tag k="place" v="locality" />
		<tag k="ssr:stedsnr" v="463837" />
	</node>
	<node lat="60.61630555861731" lon="6.744700008151938" id="-30826">
		<tag k="name" v="Tunga" />
		<tag k="place" v="locality" />
		<tag k="ssr:stedsnr" v="463840" />
	</node>
	<node lat="60.49681638867565" lon="6.638809159410499" id="-30827">
		<tag k="name" v="Folkedal" />
		<tag k="natural" v="valley" />
		<tag k="place" v="locality" />
		<tag k="ssr:stedsnr" v="463848" />
	</node>
	<node lat="60.485783337085266" lon="6.671177784781018" id="-30828">
		<tag k="name" v="Salttunneskåra" />
		<tag k="place" v="locality" />
		<tag k="ssr:stedsnr" v="463850" />
	</node>
	<node lat="60.588483329271824" lon="6.669147217013221" id="-30829">
		<tag k="name" v="Høybakken" />
		<tag k="natural" v="slope" />
		<tag k="place" v="locality" />
		<tag k="ssr:stedsnr" v="463880" />
	</node>
	<node lat="60.60009444440813" lon="6.674361107568853" id="-30830">
		<tag k="name" v="Fyllsdalen" />
		<tag k="natural" v="valley" />
		<tag k="place" v="locality" />
		<tag k="ssr:stedsnr" v="463884" />
	</node>
	<node lat="60.59697222139622" lon="6.720291669502568" id="-30832">
		<tag k="fixme" v="consider natural=peak for the most distinct mountains in the district" />
		<tag k="name" v="Svarthammarlia" />
		<tag k="natural" v="hill" />
		<tag k="place" v="locality" />
		<tag k="ssr:stedsnr" v="463885" />
	</node>
	<node lat="60.46322777624015" lon="6.555922221532989" id="-30834">
		<tag k="fixme" v="consider natural=peak for the most distinct mountains in the district" />
		<tag k="name" v="Notten" />
		<tag k="natural" v="hill" />
		<tag k="place" v="locality" />
		<tag k="ssr:stedsnr" v="463941" />
	</node>
</osm>
