<?xml version="1.0" encoding="UTF-8"?>
<osm version="0.6" generator="osmapis">
	<node lat="60.46108333593662" lon="6.600805555662142" id="-34908">
		<tag k="fixme" v="consider place=hamlet" />
		<tag k="name" v="Håstabba" />
		<tag k="place" v="farm" />
		<tag k="ssr:stedsnr" v="5307" />
	</node>
	<node lat="60.461763889873204" lon="6.750038897751008" id="-34909">
		<tag k="name" v="Utitun" />
		<tag k="place" v="farm" />
		<tag k="ssr:stedsnr" v="5303" />
	</node>
	<node lat="60.65273303392655" lon="6.1312735787552475" id="-34912">
		<tag k="fixme" v="consider place=hamlet" />
		<tag k="name" v="Elge" />
		<tag k="place" v="farm" />
		<tag k="ssr:stedsnr" v="6102" />
	</node>
	<node lat="60.61633333113893" lon="6.137983326700947" id="-34914">
		<tag k="name" v="Køyto" />
		<tag k="place" v="locality" />
		<tag k="ssr:stedsnr" v="6167" />
	</node>
	<node lat="60.65602289769168" lon="6.1808798046118385" id="-34922">
		<tag k="fixme" v="consider place=hamlet" />
		<tag k="name" v="Kolle" />
		<tag k="place" v="farm" />
		<tag k="ssr:stedsnr" v="6063" />
	</node>
	<node lat="60.6609861087797" lon="5.900950004735949" id="-34923">
		<tag k="name" v="Vestrheim" />
		<tag k="place" v="locality" />
		<tag k="ssr:stedsnr" v="6065" />
	</node>
	<node lat="60.645227399996955" lon="5.996684721368815" id="-34924">
		<tag k="fixme" v="consider place=hamlet" />
		<tag k="name" v="Vassenden" />
		<tag k="place" v="farm" />
		<tag k="ssr:stedsnr" v="6074" />
	</node>
	<node lat="60.62647136125953" lon="6.280592197377414" id="-34932">
		<tag k="fixme" v="consider place=hamlet" />
		<tag k="name" v="Skjelde" />
		<tag k="place" v="farm" />
		<tag k="ssr:stedsnr" v="6716" />
	</node>
	<node lat="60.59735277789722" lon="6.677080561610036" id="-34937">
		<tag k="fixme" v="multiple name tags, choose one and add the other to alt_name" />
		<tag k="historic" v="shieling" />
		<tag k="name" v="Skårsstølen;Liaset" />
		<tag k="place" v="isolated_dwelling" />
		<tag k="ssr:stedsnr" v="6893" />
	</node>
	<node lat="60.518147225369745" lon="6.634652780193244" id="-34938">
		<tag k="historic" v="shieling" />
		<tag k="name" v="Mikkjelstøl" />
		<tag k="place" v="isolated_dwelling" />
		<tag k="ssr:stedsnr" v="7051" />
	</node>
	<node lat="60.610786925148396" lon="6.42941849454808" id="-34943">
		<tag k="name" v="Rokne" />
		<tag k="place" v="farm" />
		<tag k="ssr:stedsnr" v="7601" />
	</node>
	<node lat="60.60944545059042" lon="6.341762270490132" id="-34944">
		<tag k="fixme" v="consider place=hamlet" />
		<tag k="name" v="Midttun" />
		<tag k="place" v="farm" />
		<tag k="ssr:stedsnr" v="7605" />
	</node>
	<node lat="60.60761666443567" lon="6.381450003142925" id="-34945">
		<tag k="name" v="Glimme" />
		<tag k="place" v="farm" />
		<tag k="ssr:stedsnr" v="7606" />
	</node>
	<node lat="60.61592100832412" lon="6.518082234711264" id="-34946">
		<tag k="fixme" v="consider place=hamlet" />
		<tag k="name" v="Oppheim" />
		<tag k="place" v="farm" />
		<tag k="ssr:stedsnr" v="7611" />
	</node>
	<node lat="60.61057354934109" lon="6.591115362833479" id="-34948">
		<tag k="fixme" v="consider place=hamlet" />
		<tag k="name" v="Tveiti" />
		<tag k="place" v="farm" />
		<tag k="ssr:stedsnr" v="7622" />
	</node>
	<node lat="60.60184062191483" lon="6.580312180307244" id="-34949">
		<tag k="fixme" v="consider place=hamlet" />
		<tag k="name" v="Håtveiti" />
		<tag k="place" v="farm" />
		<tag k="ssr:stedsnr" v="7624" />
	</node>
	<node lat="60.60371722867409" lon="6.550753501030879" id="-34952">
		<tag k="fixme" v="consider place=hamlet" />
		<tag k="name" v="Istad" />
		<tag k="place" v="farm" />
		<tag k="ssr:stedsnr" v="7629" />
	</node>
	<node lat="60.59195438690784" lon="6.460535441080405" id="-34953">
		<tag k="fixme" v="consider place=hamlet" />
		<tag k="name" v="Vele" />
		<tag k="place" v="farm" />
		<tag k="ssr:stedsnr" v="7632" />
	</node>
	<node lat="60.59422678639416" lon="6.576652376569108" id="-34954">
		<tag k="fixme" v="consider place=hamlet" />
		<tag k="name" v="Flatlandsmoen" />
		<tag k="place" v="farm" />
		<tag k="ssr:stedsnr" v="7646" />
	</node>
	<node lat="60.58634444382855" lon="6.537044437923939" id="-34956">
		<tag k="historic" v="shieling" />
		<tag k="name" v="Løkjane" />
		<tag k="place" v="isolated_dwelling" />
		<tag k="ssr:stedsnr" v="7663" />
	</node>
	<node lat="60.621574999784194" lon="6.376277775804183" id="-34958">
		<tag k="name" v="Gullfjordungen" />
		<tag k="place" v="hamlet" />
		<tag k="ssr:stedsnr" v="7714" />
	</node>
	<node lat="60.66888132961913" lon="6.774970285598075" id="-34966">
		<tag k="fixme" v="consider place=hamlet" />
		<tag k="name" v="Voll" />
		<tag k="place" v="farm" />
		<tag k="ssr:stedsnr" v="7997" />
	</node>
	<node lat="60.797549999831205" lon="6.587374992073721" id="-34969">
		<tag k="name" v="Høgtun" />
		<tag k="place" v="farm" />
		<tag k="ssr:stedsnr" v="8988" />
	</node>
	<node lat="60.76771110840303" lon="6.4928749950706415" id="-34970">
		<tag k="name" v="Humlabrekkhaugen" />
		<tag k="place" v="farm" />
		<tag k="ssr:stedsnr" v="9944" />
	</node>
	<node lat="60.76734402045934" lon="6.459331812703536" id="-34971">
		<tag k="fixme" v="consider place=hamlet" />
		<tag k="name" v="Igdetveit" />
		<tag k="place" v="farm" />
		<tag k="ssr:stedsnr" v="9950" />
	</node>
	<node lat="60.721466354545385" lon="6.501842636838681" id="-34982">
		<tag k="name" v="Øvre Leidal" />
		<tag k="place" v="farm" />
		<tag k="ssr:stedsnr" v="21238" />
	</node>
	<node lat="60.81112222619511" lon="6.505352776777769" id="-34990">
		<tag k="historic" v="shieling" />
		<tag k="name" v="Øyaset" />
		<tag k="place" v="isolated_dwelling" />
		<tag k="ssr:stedsnr" v="21342" />
	</node>
	<node lat="60.65323468264543" lon="6.5191696745483005" id="-34997">
		<tag k="name" v="Øvre Grauo" />
		<tag k="place" v="farm" />
		<tag k="ssr:stedsnr" v="21791" />
	</node>
	<node lat="60.664774349304686" lon="5.911438046718898" id="-34999">
		<tag k="fixme" v="consider place=hamlet" />
		<tag k="name" v="Aldalen" />
		<tag k="place" v="farm" />
		<tag k="ssr:stedsnr" v="21937" />
	</node>
	<node lat="60.68502629112797" lon="6.738791071160923" id="-35001">
		<tag k="fixme" v="consider place=hamlet" />
		<tag k="name" v="Brekke" />
		<tag k="place" v="farm" />
		<tag k="ssr:stedsnr" v="25487" />
	</node>
	<node lat="60.46220000333485" lon="6.728005560599178" id="-35011">
		<tag k="historic" v="shieling" />
		<tag k="name" v="Fonnastøl" />
		<tag k="place" v="isolated_dwelling" />
		<tag k="ssr:stedsnr" v="38697" />
	</node>
	<node lat="60.88639721860218" lon="6.702388891734816" id="-35023">
		<tag k="historic" v="shieling" />
		<tag k="name" v="Svoleset" />
		<tag k="place" v="isolated_dwelling" />
		<tag k="ssr:stedsnr" v="45175" />
	</node>
	<node lat="60.68449722235819" lon="6.674152771260779" id="-35032">
		<tag k="name" v="Vetle Skiple" />
		<tag k="place" v="farm" />
		<tag k="ssr:stedsnr" v="45290" />
	</node>
	<node lat="60.666855554301534" lon="6.474277784649976" id="-35038">
		<tag k="name" v="Plassateigen" />
		<tag k="place" v="farm" />
		<tag k="ssr:stedsnr" v="45692" />
	</node>
	<node lat="60.61558888503257" lon="6.3197444464258306" id="-35056">
		<tag k="name" v="Jensbu" />
		<tag k="place" v="isolated_dwelling" />
		<tag k="ssr:stedsnr" v="59015" />
	</node>
	<node lat="60.55663332913382" lon="6.583624999566099" id="-35057">
		<tag k="name" v="Nylenda" />
		<tag k="place" v="farm" />
		<tag k="ssr:stedsnr" v="288718" />
	</node>
	<node lat="60.4470194405499" lon="6.6417694367100335" id="-35058">
		<tag k="fixme" v="consider place=hamlet" />
		<tag k="name" v="Naustflot" />
		<tag k="place" v="farm" />
		<tag k="ssr:stedsnr" v="66325" />
	</node>
	<node lat="60.650505554759945" lon="6.074302781331173" id="-35060">
		<tag k="name" v="Storevikane" />
		<tag k="place" v="farm" />
		<tag k="ssr:stedsnr" v="67110" />
	</node>
	<node lat="60.636598483812406" lon="6.105331217689554" id="-35068">
		<tag k="fixme" v="consider place=hamlet" />
		<tag k="name" v="Mykkeltveit" />
		<tag k="place" v="farm" />
		<tag k="ssr:stedsnr" v="67133" />
	</node>
	<node lat="60.66791602267087" lon="6.536290976341708" id="-35071">
		<tag k="name" v="Klyve" />
		<tag k="place" v="hamlet" />
		<tag k="ssr:stedsnr" v="67299" />
	</node>
	<node lat="60.66017569484442" lon="6.393508690041086" id="-35076">
		<tag k="historic" v="shieling" />
		<tag k="name" v="Nyestølen" />
		<tag k="place" v="isolated_dwelling" />
		<tag k="ssr:stedsnr" v="67307" />
	</node>
	<node lat="60.66165832916511" lon="6.353063897147057" id="-35077">
		<tag k="historic" v="shieling" />
		<tag k="name" v="Kviting" />
		<tag k="place" v="isolated_dwelling" />
		<tag k="ssr:stedsnr" v="67309" />
	</node>
	<node lat="60.68730555815055" lon="5.898305558344698" id="-35082">
		<tag k="historic" v="shieling" />
		<tag k="name" v="Vidbotnen" />
		<tag k="place" v="isolated_dwelling" />
		<tag k="ssr:stedsnr" v="67506" />
	</node>
	<node lat="60.63339148032508" lon="6.252066057104048" id="-35091">
		<tag k="name" v="Flaga" />
		<tag k="place" v="hamlet" />
		<tag k="ssr:stedsnr" v="67702" />
	</node>
	<node lat="60.63820555333524" lon="6.452774997381467" id="-35092">
		<tag k="fixme" v="consider place=hamlet" />
		<tag k="name" v="Tvilde" />
		<tag k="place" v="farm" />
		<tag k="ssr:stedsnr" v="67709" />
	</node>
	<node lat="60.63854999681803" lon="6.5314333303424" id="-35093">
		<tag k="fixme" v="consider place=hamlet" />
		<tag k="name" v="Bjørke" />
		<tag k="place" v="farm" />
		<tag k="ssr:stedsnr" v="67715" />
	</node>
	<node lat="60.6284615404853" lon="6.50911526801675" id="-35094">
		<tag k="name" v="Takla" />
		<tag k="place" v="hamlet" />
		<tag k="ssr:stedsnr" v="67732" />
	</node>
	<node lat="60.61782614100497" lon="6.3685495852001806" id="-35095">
		<tag k="fixme" v="consider place=hamlet" />
		<tag k="name" v="Kvåle" />
		<tag k="place" v="farm" />
		<tag k="ssr:stedsnr" v="67736" />
	</node>
	<node lat="60.614002774686234" lon="6.708194450296924" id="-35099">
		<tag k="historic" v="shieling" />
		<tag k="name" v="Aunaset" />
		<tag k="place" v="isolated_dwelling" />
		<tag k="ssr:stedsnr" v="67898" />
	</node>
	<node lat="60.5698499964447" lon="6.661916669022258" id="-35103">
		<tag k="historic" v="shieling" />
		<tag k="name" v="Njuk" />
		<tag k="place" v="isolated_dwelling" />
		<tag k="ssr:stedsnr" v="68809" />
	</node>
	<node lat="60.75646666385444" lon="6.124488887199017" id="-35106">
		<tag k="historic" v="shieling" />
		<tag k="name" v="Ormaset" />
		<tag k="place" v="isolated_dwelling" />
		<tag k="ssr:stedsnr" v="69701" />
	</node>
	<node lat="60.87140277896974" lon="6.5545527762592375" id="-35109">
		<tag k="historic" v="shieling" />
		<tag k="name" v="Reppane" />
		<tag k="place" v="isolated_dwelling" />
		<tag k="ssr:stedsnr" v="69628" />
	</node>
	<node lat="60.84340277921185" lon="6.915816668049622" id="-35112">
		<tag k="fixme" v="consider tourism=alpine_hut or tourism=chalet" />
		<tag k="name" v="Grindaflethytta" />
		<tag k="ssr:stedsnr" v="69835" />
		<tag k="tourism" v="wilderness_hut" />
	</node>
	<node lat="60.78077856723818" lon="6.4706663456475875" id="-35116">
		<tag k="fixme" v="consider place=hamlet" />
		<tag k="name" v="Tveito" />
		<tag k="place" v="farm" />
		<tag k="ssr:stedsnr" v="69980" />
	</node>
	<node lat="60.6034027788576" lon="6.591127781821624" id="-35117">
		<tag k="name" v="Fenno" />
		<tag k="place" v="hamlet" />
		<tag k="ssr:stedsnr" v="242706" />
	</node>
	<node lat="60.5979804972999" lon="6.451671965428861" id="-35135">
		<tag k="fixme" v="consider place=hamlet" />
		<tag k="name" v="Øvre Himle" />
		<tag k="place" v="farm" />
		<tag k="ssr:stedsnr" v="81823" />
	</node>
	<node lat="60.68091548464521" lon="6.58203935008957" id="-35148">
		<tag k="alt_name" v="Davidhaugen" />
		<tag k="fixme" v="consider place=hamlet" />
		<tag k="name" v="Davidhaug" />
		<tag k="old_name" v="Urland" />
		<tag k="place" v="farm" />
		<tag k="ssr:stedsnr" v="86574" />
	</node>
	<node lat="60.64033291288687" lon="5.866024146084126" id="-35155">
		<tag k="fixme" v="consider place=hamlet" />
		<tag k="name" v="Hermundsdalen" />
		<tag k="place" v="farm" />
		<tag k="ssr:stedsnr" v="248097" />
	</node>
	<node lat="60.46919952122314" lon="6.753571099099299" id="-35161">
		<tag k="name" v="Oppsåta" />
		<tag k="place" v="farm" />
		<tag k="ssr:stedsnr" v="99726" />
	</node>
	<node lat="60.71049444775869" lon="6.094516657951437" id="-35177">
		<tag k="historic" v="shieling" />
		<tag k="name" v="Sevaldstadstølen" />
		<tag k="place" v="isolated_dwelling" />
		<tag k="ssr:stedsnr" v="248439" />
	</node>
	<node lat="60.62667426477301" lon="6.391365146948475" id="-35179">
		<tag k="fixme" v="consider place=hamlet" />
		<tag k="name" v="Seim" />
		<tag k="place" v="farm" />
		<tag k="ssr:stedsnr" v="248740" />
	</node>
	<node lat="60.67145158341813" lon="6.012689317756642" id="-35181">
		<tag k="fixme" v="consider place=hamlet" />
		<tag k="name" v="Geilane" />
		<tag k="place" v="farm" />
		<tag k="ssr:stedsnr" v="249029" />
	</node>
	<node lat="60.65509141779823" lon="6.088363872300531" id="-35183">
		<tag k="fixme" v="consider place=hamlet" />
		<tag k="name" v="Fadnes" />
		<tag k="place" v="farm" />
		<tag k="ssr:stedsnr" v="249033" />
	</node>
	<node lat="60.661661833008765" lon="6.177190334303619" id="-35186">
		<tag k="fixme" v="consider place=hamlet" />
		<tag k="name" v="Edal" />
		<tag k="place" v="farm" />
		<tag k="ssr:stedsnr" v="249039" />
	</node>
	<node lat="60.571256500687156" lon="6.69869755692444" id="-35188">
		<tag k="fixme" v="consider place=suburb, village or hamlet" />
		<tag k="name" v="Øvre Vassenden" />
		<tag k="place" v="quarter" />
		<tag k="ssr:stedsnr" v="249809" />
	</node>
	<node lat="60.5303000034107" lon="6.694863882818879" id="-35189">
		<tag k="alt_name" v="Midås" />
		<tag k="fixme" v="consider place=hamlet" />
		<tag k="name" v="Medås" />
		<tag k="place" v="farm" />
		<tag k="ssr:stedsnr" v="249058" />
	</node>
	<node lat="60.63915049967428" lon="5.9490395407738195" id="-35192">
		<tag k="fixme" v="consider place=hamlet" />
		<tag k="name" v="Bolstad" />
		<tag k="place" v="farm" />
		<tag k="ssr:stedsnr" v="249095" />
	</node>
	<node lat="60.641696349730076" lon="6.319232863860769" id="-35200">
		<tag k="fixme" v="consider place=hamlet" />
		<tag k="name" v="Giljarhus" />
		<tag k="place" v="farm" />
		<tag k="ssr:stedsnr" v="249234" />
	</node>
	<node lat="60.726786111623824" lon="6.4521805537673185" id="-35201">
		<tag k="historic" v="shieling" />
		<tag k="name" v="Preststølen" />
		<tag k="place" v="isolated_dwelling" />
		<tag k="ssr:stedsnr" v="249351" />
	</node>
	<node lat="60.64626627899595" lon="6.493161870915976" id="-35203">
		<tag k="fixme" v="consider place=hamlet" />
		<tag k="name" v="Fjose" />
		<tag k="place" v="farm" />
		<tag k="ssr:stedsnr" v="249240" />
	</node>
	<node lat="60.64873791663182" lon="6.4980811221639785" id="-35204">
		<tag k="fixme" v="consider place=hamlet" />
		<tag k="name" v="Tøn" />
		<tag k="place" v="farm" />
		<tag k="ssr:stedsnr" v="249241" />
	</node>
	<node lat="60.9010000025502" lon="6.483536118395501" id="-35216">
		<tag k="name" v="Hola" />
		<tag k="place" v="farm" />
		<tag k="ssr:stedsnr" v="106063" />
	</node>
	<node lat="60.658350003881225" lon="6.4049361100064255" id="-35231">
		<tag k="historic" v="shieling" />
		<tag k="name" v="Tråstølen" />
		<tag k="place" v="isolated_dwelling" />
		<tag k="ssr:stedsnr" v="106387" />
	</node>
	<node lat="60.61100833743661" lon="6.420986114061653" id="-35234">
		<tag k="name" v="Breidablik" />
		<tag k="place" v="farm" />
		<tag k="ssr:stedsnr" v="106506" />
	</node>
	<node lat="60.826324998094215" lon="6.74612222025918" id="-35244">
		<tag k="historic" v="shieling" />
		<tag k="name" v="Øvsthusstølen" />
		<tag k="place" v="isolated_dwelling" />
		<tag k="ssr:stedsnr" v="106903" />
	</node>
	<node lat="60.56807501068208" lon="6.4688707758544295" id="-35261">
		<tag k="fixme" v="consider place=hamlet" />
		<tag k="name" v="Øvre Kvitno" />
		<tag k="place" v="farm" />
		<tag k="ssr:stedsnr" v="249581" />
	</node>
	<node lat="60.54890140231128" lon="6.467328298156693" id="-35262">
		<tag k="fixme" v="consider place=hamlet" />
		<tag k="name" v="Jeraldstveiti" />
		<tag k="place" v="farm" />
		<tag k="ssr:stedsnr" v="249585" />
	</node>
	<node lat="60.60583251745277" lon="6.347602566955587" id="-35268">
		<tag k="fixme" v="consider place=hamlet" />
		<tag k="name" v="Nesthus" />
		<tag k="place" v="farm" />
		<tag k="ssr:stedsnr" v="249607" />
	</node>
	<node lat="60.61365957577071" lon="6.50637979294929" id="-35271">
		<tag k="name" v="Skutle" />
		<tag k="place" v="hamlet" />
		<tag k="ssr:stedsnr" v="249627" />
	</node>
	<node lat="60.63486944750878" lon="6.440911107239643" id="-35277">
		<tag k="landuse" v="military" />
		<tag k="name" v="Tvildemoen" />
		<tag k="ssr:stedsnr" v="249682" />
	</node>
	<node lat="60.639166666907236" lon="6.4639333307761415" id="-35278">
		<tag k="name" v="Gjerdåker" />
		<tag k="place" v="farm" />
		<tag k="ssr:stedsnr" v="249685" />
	</node>
	<node lat="60.54482777661517" lon="6.633577784236033" id="-35281">
		<tag k="historic" v="shieling" />
		<tag k="name" v="Langedalen" />
		<tag k="place" v="isolated_dwelling" />
		<tag k="ssr:stedsnr" v="249742" />
	</node>
	<node lat="60.679988885565116" lon="6.6827027845635945" id="-35294">
		<tag k="name" v="Skiple" />
		<tag k="place" v="farm" />
		<tag k="ssr:stedsnr" v="249951" />
	</node>
	<node lat="60.687644440752386" lon="6.814669437974611" id="-35296">
		<tag k="historic" v="shieling" />
		<tag k="name" v="Grytestølen" />
		<tag k="place" v="isolated_dwelling" />
		<tag k="ssr:stedsnr" v="249939" />
	</node>
	<node lat="60.75989619551073" lon="6.499939894355376" id="-35304">
		<tag k="fixme" v="consider place=hamlet" />
		<tag k="name" v="Indre Kvormo" />
		<tag k="place" v="farm" />
		<tag k="ssr:stedsnr" v="113925" />
	</node>
	<node lat="60.525455551694634" lon="6.461422222521022" id="-35305">
		<tag k="name" v="Kulset" />
		<tag k="place" v="farm" />
		<tag k="ssr:stedsnr" v="250494" />
	</node>
	<node lat="60.628711108580205" lon="6.633774994228585" id="-35319">
		<tag k="historic" v="shieling" />
		<tag k="name" v="Steindro" />
		<tag k="place" v="isolated_dwelling" />
		<tag k="ssr:stedsnr" v="250885" />
	</node>
	<node lat="60.68253333391603" lon="6.807452777111109" id="-35320">
		<tag k="historic" v="shieling" />
		<tag k="name" v="Grauastølen" />
		<tag k="place" v="isolated_dwelling" />
		<tag k="ssr:stedsnr" v="250942" />
	</node>
	<node lat="60.668336109554154" lon="6.6314694368296045" id="-35322">
		<tag k="historic" v="shieling" />
		<tag k="name" v="Liaset" />
		<tag k="place" v="isolated_dwelling" />
		<tag k="ssr:stedsnr" v="250983" />
	</node>
	<node lat="60.76217777353759" lon="6.677666670850635" id="-35325">
		<tag k="historic" v="shieling" />
		<tag k="name" v="Prinsabotn" />
		<tag k="place" v="isolated_dwelling" />
		<tag k="ssr:stedsnr" v="251216" />
	</node>
	<node lat="60.86293611493661" lon="6.4952277711022415" id="-35340">
		<tag k="name" v="Helgatun" />
		<tag k="place" v="isolated_dwelling" />
		<tag k="ssr:stedsnr" v="251615" />
	</node>
	<node lat="60.85111944525751" lon="6.674288881377894" id="-35348">
		<tag k="historic" v="shieling" />
		<tag k="name" v="Vetlestølen" />
		<tag k="place" v="isolated_dwelling" />
		<tag k="ssr:stedsnr" v="251830" />
	</node>
	<node lat="60.92298888942738" lon="6.708630551049133" id="-35350">
		<tag k="name" v="Berdalen" />
		<tag k="place" v="locality" />
		<tag k="ssr:stedsnr" v="251896" />
	</node>
	<node lat="60.901890689267596" lon="6.730471713209078" id="-35352">
		<tag k="alt_name" v="Nåsen" />
		<tag k="fixme" v="consider place=hamlet" />
		<tag k="name" v="Nosi" />
		<tag k="place" v="farm" />
		<tag k="ssr:stedsnr" v="251878" />
	</node>
	<node lat="60.758841669798784" lon="6.580663881334167" id="-35353">
		<tag k="historic" v="shieling" />
		<tag k="name" v="Nyestølen" />
		<tag k="place" v="isolated_dwelling" />
		<tag k="ssr:stedsnr" v="251954" />
	</node>
	<node lat="60.77565546972072" lon="6.428219850346295" id="-35358">
		<tag k="fixme" v="consider place=hamlet" />
		<tag k="name" v="Lund" />
		<tag k="place" v="farm" />
		<tag k="ssr:stedsnr" v="251985" />
	</node>
	<node lat="60.783701867746345" lon="6.581962418997833" id="-35359">
		<tag k="name" v="Hemre" />
		<tag k="place" v="hamlet" />
		<tag k="ssr:stedsnr" v="251986" />
	</node>
	<node lat="60.78544999800795" lon="6.403877786092094" id="-35360">
		<tag k="historic" v="shieling" />
		<tag k="name" v="Steinset" />
		<tag k="place" v="isolated_dwelling" />
		<tag k="ssr:stedsnr" v="251992" />
	</node>
	<node lat="60.75268977029973" lon="6.502835129697903" id="-35361">
		<tag k="alt_name" v="Birkely" />
		<tag k="loc_name" v="Perstegen;Persteigen;Bjørkeli" />
		<tag k="name" v="Byrkjeli" />
		<tag k="place" v="farm" />
		<tag k="ssr:stedsnr" v="251960" />
	</node>
	<node lat="60.77676111425741" lon="6.489227772095867" id="-35363">
		<tag k="name" v="Kroken" />
		<tag k="place" v="farm" />
		<tag k="ssr:stedsnr" v="251979" />
	</node>
	<node lat="60.5963618107544" lon="6.19619328221153" id="-35371">
		<tag k="fixme" v="consider place=hamlet" />
		<tag k="name" v="Narheim" />
		<tag k="place" v="farm" />
		<tag k="ssr:stedsnr" v="127223" />
	</node>
	<node lat="60.6365836162108" lon="6.041271565443213" id="-35375">
		<tag k="fixme" v="consider place=hamlet" />
		<tag k="name" v="Nakka" />
		<tag k="place" v="farm" />
		<tag k="ssr:stedsnr" v="127116" />
	</node>
	<node lat="60.63900277989887" lon="5.992380562917046" id="-35377">
		<tag k="historic" v="shieling" />
		<tag k="name" v="Vassendastølen" />
		<tag k="place" v="isolated_dwelling" />
		<tag k="ssr:stedsnr" v="127123" />
	</node>
	<node lat="60.6203500007846" lon="6.019699993151549" id="-35381">
		<tag k="name" v="Vikastølen" />
		<tag k="place" v="locality" />
		<tag k="ssr:stedsnr" v="127196" />
	</node>
	<node lat="60.6547388915465" lon="6.323052777031821" id="-35382">
		<tag k="historic" v="shieling" />
		<tag k="name" v="Buneld" />
		<tag k="place" v="isolated_dwelling" />
		<tag k="ssr:stedsnr" v="127305" />
	</node>
	<node lat="60.661305552517305" lon="6.4230694466332405" id="-35383">
		<tag k="fixme" v="consider place=hamlet" />
		<tag k="name" v="Grevle" />
		<tag k="place" v="farm" />
		<tag k="ssr:stedsnr" v="127310" />
	</node>
	<node lat="60.733391669206654" lon="6.1276166703067885" id="-35386">
		<tag k="name" v="Lii" />
		<tag k="place" v="farm" />
		<tag k="ssr:stedsnr" v="127447" />
	</node>
	<node lat="60.70241944318311" lon="5.974866662559447" id="-35387">
		<tag k="historic" v="shieling" />
		<tag k="name" v="Øykholmane" />
		<tag k="place" v="isolated_dwelling" />
		<tag k="ssr:stedsnr" v="127498" />
	</node>
	<node lat="60.69131029757543" lon="6.4641418013930485" id="-35389">
		<tag k="fixme" v="consider place=hamlet" />
		<tag k="name" v="Staup" />
		<tag k="place" v="farm" />
		<tag k="ssr:stedsnr" v="127343" />
	</node>
	<node lat="60.696872219773084" lon="6.459788895084198" id="-35390">
		<tag k="historic" v="shieling" />
		<tag k="name" v="Bergsstølen" />
		<tag k="place" v="isolated_dwelling" />
		<tag k="ssr:stedsnr" v="127352" />
	</node>
	<node lat="60.73929444177208" lon="6.305550003831646" id="-35391">
		<tag k="fixme" v="consider tourism=alpine_hut or tourism=chalet" />
		<tag k="name" v="Volahytta" />
		<tag k="ssr:stedsnr" v="127391" />
		<tag k="tourism" v="wilderness_hut" />
	</node>
	<node lat="60.64619999966447" lon="6.585402776188608" id="-35395">
		<tag k="historic" v="shieling" />
		<tag k="name" v="Øvraset" />
		<tag k="place" v="isolated_dwelling" />
		<tag k="ssr:stedsnr" v="127740" />
	</node>
	<node lat="60.627776560172" lon="6.278076492344179" id="-35396">
		<tag k="fixme" v="consider place=hamlet" />
		<tag k="name" v="Liland" />
		<tag k="place" v="farm" />
		<tag k="ssr:stedsnr" v="127745" />
	</node>
	<node lat="60.59412500428785" lon="6.670700007356447" id="-35397">
		<tag k="historic" v="shieling" />
		<tag k="name" v="Bjørndalen" />
		<tag k="place" v="isolated_dwelling" />
		<tag k="ssr:stedsnr" v="127920" />
	</node>
	<node lat="60.55770555135688" lon="6.564222214074465" id="-35402">
		<tag k="historic" v="shieling" />
		<tag k="name" v="Byrset" />
		<tag k="place" v="isolated_dwelling" />
		<tag k="ssr:stedsnr" v="128592" />
	</node>
	<node lat="60.606860369641595" lon="6.39064729646828" id="-35407">
		<tag k="fixme" v="consider place=hamlet" />
		<tag k="name" v="Sætre" />
		<tag k="place" v="farm" />
		<tag k="ssr:stedsnr" v="128611" />
	</node>
	<node lat="60.58581944465704" lon="6.573661111206258" id="-35408">
		<tag k="historic" v="shieling" />
		<tag k="name" v="Gulset" />
		<tag k="place" v="isolated_dwelling" />
		<tag k="ssr:stedsnr" v="128665" />
	</node>
	<node lat="60.8854166632388" lon="6.654761105097411" id="-35414">
		<tag k="historic" v="shieling" />
		<tag k="name" v="Kinnarbakken" />
		<tag k="place" v="isolated_dwelling" />
		<tag k="ssr:stedsnr" v="129826" />
	</node>
	<node lat="60.925752779684366" lon="6.746225005129235" id="-35416">
		<tag k="historic" v="shieling" />
		<tag k="name" v="Kåstein" />
		<tag k="place" v="isolated_dwelling" />
		<tag k="ssr:stedsnr" v="129855" />
	</node>
	<node lat="60.75179879603104" lon="6.502743082736023" id="-35419">
		<tag k="fixme" v="consider place=hamlet" />
		<tag k="name" v="Skogstad" />
		<tag k="place" v="farm" />
		<tag k="ssr:stedsnr" v="129933" />
	</node>
	<node lat="60.791641662257334" lon="6.56582138478869" id="-35420">
		<tag k="fixme" v="consider place=hamlet" />
		<tag k="name" v="Sundsvål" />
		<tag k="place" v="farm" />
		<tag k="ssr:stedsnr" v="129986" />
	</node>
	<node lat="60.78915000359485" lon="6.448713886348578" id="-35421">
		<tag k="name" v="Breiaset" />
		<tag k="place" v="locality" />
		<tag k="ssr:stedsnr" v="129998" />
	</node>
	<node lat="60.84911571083497" lon="6.480514146199604" id="-35422">
		<tag k="fixme" v="consider place=hamlet" />
		<tag k="name" v="Bystølen" />
		<tag k="place" v="farm" />
		<tag k="ssr:stedsnr" v="130514" />
	</node>
	<node lat="60.78472777582473" lon="6.56456944267587" id="-35426">
		<tag k="name" v="Framnes" />
		<tag k="place" v="farm" />
		<tag k="ssr:stedsnr" v="130974" />
	</node>
	<node lat="60.59887542741168" lon="6.448766240230766" id="-35433">
		<tag k="fixme" v="consider place=hamlet" />
		<tag k="name" v="Nedre Himle" />
		<tag k="place" v="farm" />
		<tag k="ssr:stedsnr" v="141794" />
	</node>
	<node lat="60.7256111088869" lon="6.111694446995965" id="-35441">
		<tag k="historic" v="shieling" />
		<tag k="name" v="Langelandsstølen" />
		<tag k="place" v="isolated_dwelling" />
		<tag k="ssr:stedsnr" v="142481" />
	</node>
	<node lat="60.54779721945156" lon="6.112644445657402" id="-35454">
		<tag k="historic" v="shieling" />
		<tag k="name" v="Hamlagrø" />
		<tag k="place" v="isolated_dwelling" />
		<tag k="ssr:stedsnr" v="166063" />
	</node>
	<node lat="60.71879166228441" lon="6.49391667077219" id="-35465">
		<tag k="name" v="Moheim" />
		<tag k="place" v="farm" />
		<tag k="ssr:stedsnr" v="166706" />
	</node>
	<node lat="60.626977781954814" lon="6.426611109568721" id="-35468">
		<tag k="amenity" v="school" />
		<tag k="name" v="Voss gymnas" />
		<tag k="ssr:stedsnr" v="166860" />
	</node>
	<node lat="60.89906944795087" lon="6.499238883321532" id="-35484">
		<tag k="name" v="Bjørndalen" />
		<tag k="place" v="farm" />
		<tag k="ssr:stedsnr" v="167226" />
	</node>
	<node lat="60.53353055618832" lon="6.075688884402517" id="-35504">
		<tag k="name" v="Solhaug" />
		<tag k="place" v="isolated_dwelling" />
		<tag k="ssr:stedsnr" v="180012" />
	</node>
	<node lat="60.45781944679807" lon="6.711427768750729" id="-35510">
		<tag k="historic" v="shieling" />
		<tag k="name" v="Oksastølen" />
		<tag k="place" v="isolated_dwelling" />
		<tag k="ssr:stedsnr" v="187316" />
	</node>
	<node lat="60.45766944835515" lon="6.589288883595392" id="-35513">
		<tag k="fixme" v="consider place=hamlet" />
		<tag k="name" v="Naustvik" />
		<tag k="place" v="farm" />
		<tag k="ssr:stedsnr" v="187228" />
	</node>
	<node lat="60.50127222614461" lon="6.628155561650772" id="-35517">
		<tag k="alt_name" v="Folkedal, øvre" />
		<tag k="fixme" v="consider place=hamlet" />
		<tag k="name" v="Øvre Folkedal" />
		<tag k="place" v="farm" />
		<tag k="ssr:stedsnr" v="188018" />
	</node>
	<node lat="60.65113888938922" lon="6.112933324707137" id="-35521">
		<tag k="name" v="Stigen" />
		<tag k="place" v="farm" />
		<tag k="ssr:stedsnr" v="188104" />
	</node>
	<node lat="60.64838728834217" lon="6.080067902207449" id="-35522">
		<tag k="fixme" v="consider place=hamlet" />
		<tag k="name" v="Hernes" />
		<tag k="place" v="farm" />
		<tag k="ssr:stedsnr" v="188106" />
	</node>
	<node lat="60.636277774178055" lon="5.955699991951996" id="-35523">
		<tag k="name" v="Flåti" />
		<tag k="place" v="farm" />
		<tag k="ssr:stedsnr" v="188110" />
	</node>
	<node lat="60.66615185244742" lon="6.5136126241346375" id="-35529">
		<tag k="fixme" v="consider place=hamlet" />
		<tag k="name" v="Repål" />
		<tag k="place" v="farm" />
		<tag k="ssr:stedsnr" v="188310" />
	</node>
	<node lat="60.74785000163398" lon="6.411338894909436" id="-35533">
		<tag k="historic" v="shieling" />
		<tag k="name" v="Tjørni" />
		<tag k="place" v="isolated_dwelling" />
		<tag k="ssr:stedsnr" v="188405" />
	</node>
	<node lat="60.74686389078104" lon="6.168888896222211" id="-35534">
		<tag k="name" v="Horgaset" />
		<tag k="place" v="locality" />
		<tag k="ssr:stedsnr" v="188412" />
	</node>
	<node lat="60.73574584001241" lon="6.152767066310698" id="-35535">
		<tag k="fixme" v="consider place=hamlet" />
		<tag k="name" v="Århus" />
		<tag k="place" v="farm" />
		<tag k="ssr:stedsnr" v="188415" />
	</node>
	<node lat="60.57720060523646" lon="6.472820636740543" id="-35540">
		<tag k="fixme" v="consider place=hamlet" />
		<tag k="name" v="Fære" />
		<tag k="place" v="farm" />
		<tag k="ssr:stedsnr" v="188620" />
	</node>
	<node lat="60.70254369793743" lon="6.112763961280906" id="-35547">
		<tag k="fixme" v="consider place=hamlet" />
		<tag k="name" v="Sevaldstad" />
		<tag k="place" v="farm" />
		<tag k="ssr:stedsnr" v="188514" />
	</node>
	<node lat="60.562733337409234" lon="6.175613880284293" id="-35551">
		<tag k="historic" v="shieling" />
		<tag k="name" v="Bjørndalen" />
		<tag k="place" v="isolated_dwelling" />
		<tag k="ssr:stedsnr" v="188879" />
	</node>
	<node lat="60.59853889284586" lon="6.644697219016055" id="-35553">
		<tag k="alt_name" v="Jøretveitane" />
		<tag k="historic" v="shieling" />
		<tag k="name" v="Jørdretveiti" />
		<tag k="place" v="isolated_dwelling" />
		<tag k="ssr:stedsnr" v="188897" />
	</node>
	<node lat="60.593675001058664" lon="6.6919555465126095" id="-35554">
		<tag k="historic" v="shieling" />
		<tag k="name" v="Tveiti" />
		<tag k="place" v="isolated_dwelling" />
		<tag k="ssr:stedsnr" v="188917" />
	</node>
	<node lat="60.591560338263044" lon="6.803456085386949" id="-35556">
		<tag k="fixme" v="consider place=hamlet" />
		<tag k="name" v="Espeland" />
		<tag k="place" v="farm" />
		<tag k="ssr:stedsnr" v="188927" />
	</node>
	<node lat="60.722069444013144" lon="6.907202779864912" id="-35558">
		<tag k="historic" v="shieling" />
		<tag k="name" v="Borgarebu" />
		<tag k="place" v="isolated_dwelling" />
		<tag k="ssr:stedsnr" v="189518" />
	</node>
	<node lat="60.591463226766784" lon="6.419142846465989" id="-35561">
		<tag k="name" v="Roset" />
		<tag k="place" v="isolated_dwelling" />
		<tag k="ssr:stedsnr" v="189615" />
	</node>
	<node lat="60.59775853405131" lon="6.4365950151015205" id="-35562">
		<tag k="fixme" v="consider place=hamlet" />
		<tag k="name" v="Dymbe" />
		<tag k="place" v="farm" />
		<tag k="ssr:stedsnr" v="189616" />
	</node>
	<node lat="60.541623038449515" lon="6.731721729343698" id="-35567">
		<tag k="fixme" v="consider place=hamlet" />
		<tag k="name" v="Hause" />
		<tag k="place" v="farm" />
		<tag k="ssr:stedsnr" v="189726" />
	</node>
	<node lat="60.53080277426247" lon="6.675547227137253" id="-35570">
		<tag k="historic" v="shieling" />
		<tag k="name" v="Skålsete" />
		<tag k="place" v="isolated_dwelling" />
		<tag k="ssr:stedsnr" v="189773" />
	</node>
	<node lat="60.90584999768215" lon="6.46718333094539" id="-35573">
		<tag k="historic" v="shieling" />
		<tag k="name" v="Presthaugen" />
		<tag k="place" v="isolated_dwelling" />
		<tag k="ssr:stedsnr" v="190619" />
	</node>
	<node lat="60.79499722234927" lon="6.689152780937105" id="-35581">
		<tag k="name" v="Brandset" />
		<tag k="place" v="farm" />
		<tag k="ssr:stedsnr" v="190802" />
	</node>
	<node lat="60.871277774591555" lon="6.627613896908264" id="-35582">
		<tag k="historic" v="shieling" />
		<tag k="name" v="Botnen" />
		<tag k="place" v="isolated_dwelling" />
		<tag k="ssr:stedsnr" v="190864" />
	</node>
	<node lat="60.89825833544621" lon="6.709316661690342" id="-35585">
		<tag k="historic" v="shieling" />
		<tag k="name" v="Haugane" />
		<tag k="place" v="isolated_dwelling" />
		<tag k="ssr:stedsnr" v="190874" />
	</node>
	<node lat="60.78915710266649" lon="6.600318146944911" id="-35592">
		<tag k="fixme" v="consider place=hamlet" />
		<tag k="name" v="Grindaland" />
		<tag k="place" v="farm" />
		<tag k="ssr:stedsnr" v="190772" />
	</node>
	<node lat="60.776957171570075" lon="6.474797525169015" id="-35594">
		<tag k="fixme" v="consider place=hamlet" />
		<tag k="name" v="Stora Høn" />
		<tag k="place" v="farm" />
		<tag k="ssr:stedsnr" v="190962" />
	</node>
	<node lat="60.80410278007867" lon="6.641502776096379" id="-35601">
		<tag k="name" v="Haugsvik" />
		<tag k="place" v="isolated_dwelling" />
		<tag k="ssr:stedsnr" v="191727" />
	</node>
	<node lat="60.81850620783896" lon="6.719029860352966" id="-35602">
		<tag k="fixme" v="consider place=hamlet" />
		<tag k="name" v="Øvsthus" />
		<tag k="place" v="farm" />
		<tag k="ssr:stedsnr" v="191756" />
	</node>
	<node lat="60.691599872687476" lon="6.463865353915731" id="-35607">
		<tag k="name" v="Ytre Staup" />
		<tag k="place" v="farm" />
		<tag k="ssr:stedsnr" v="263229" />
	</node>
	<node lat="60.765220019744305" lon="6.567811164027716" id="-35610">
		<tag k="fixme" v="consider place=hamlet" />
		<tag k="name" v="Markusteigen" />
		<tag k="place" v="farm" />
		<tag k="ssr:stedsnr" v="191918" />
	</node>
	<node lat="60.85229722084766" lon="6.483433339329391" id="-35615">
		<tag k="name" v="Vårstølshaugen" />
		<tag k="place" v="farm" />
		<tag k="ssr:stedsnr" v="263372" />
	</node>
	<node lat="60.68416111550216" lon="6.605322221826235" id="-35620">
		<tag k="historic" v="shieling" />
		<tag k="name" v="Skorstølen" />
		<tag k="place" v="isolated_dwelling" />
		<tag k="ssr:stedsnr" v="263664" />
	</node>
	<node lat="60.65695555116639" lon="6.799491664358771" id="-35627">
		<tag k="historic" v="shieling" />
		<tag k="name" v="Vollbotnen" />
		<tag k="place" v="isolated_dwelling" />
		<tag k="ssr:stedsnr" v="263681" />
	</node>
	<node lat="60.65594444595936" lon="6.318658326595458" id="-35634">
		<tag k="historic" v="shieling" />
		<tag k="name" v="Sæves-Nyaset" />
		<tag k="place" v="isolated_dwelling" />
		<tag k="ssr:stedsnr" v="263945" />
	</node>
	<node lat="60.638627797602666" lon="6.427565695998843" id="-35641">
		<tag k="name" v="Store Ringheim" />
		<tag k="place" v="farm" />
		<tag k="ssr:stedsnr" v="264795" />
	</node>
	<node lat="60.64497715741142" lon="6.429991314409924" id="-35642">
		<tag k="name" v="Litle Ringheim" />
		<tag k="place" v="farm" />
		<tag k="ssr:stedsnr" v="264798" />
	</node>
	<node lat="60.63685555217106" lon="6.401172227097636" id="-35644">
		<tag k="historic" v="shieling" />
		<tag k="name" v="Skitset" />
		<tag k="place" v="isolated_dwelling" />
		<tag k="ssr:stedsnr" v="264962" />
	</node>
	<node lat="60.6413333290437" lon="6.255358331335363" id="-35650">
		<tag k="historic" v="shieling" />
		<tag k="name" v="Vetlestølen" />
		<tag k="place" v="isolated_dwelling" />
		<tag k="ssr:stedsnr" v="203040" />
	</node>
	<node lat="60.668119442394925" lon="6.663263889592555" id="-35669">
		<tag k="historic" v="shieling" />
		<tag k="name" v="Toppen" />
		<tag k="place" v="isolated_dwelling" />
		<tag k="ssr:stedsnr" v="203657" />
	</node>
	<node lat="60.68578055572852" lon="6.080566670728097" id="-35681">
		<tag k="historic" v="shieling" />
		<tag k="name" v="Gamlestølen" />
		<tag k="place" v="isolated_dwelling" />
		<tag k="ssr:stedsnr" v="203758" />
	</node>
	<node lat="60.581850001890594" lon="6.655852772566675" id="-35684">
		<tag k="historic" v="shieling" />
		<tag k="name" v="Skattastøl" />
		<tag k="place" v="isolated_dwelling" />
		<tag k="ssr:stedsnr" v="220907" />
	</node>
	<node lat="60.54195555185883" lon="6.684666673526219" id="-35686">
		<tag k="historic" v="shieling" />
		<tag k="name" v="Nedsta Grjostøl" />
		<tag k="place" v="isolated_dwelling" />
		<tag k="ssr:stedsnr" v="221784" />
	</node>
	<node lat="60.67068611171256" lon="6.502408330664235" id="-35707">
		<tag k="name" v="Lunden" />
		<tag k="place" v="farm" />
		<tag k="ssr:stedsnr" v="227684" />
	</node>
	<node lat="60.72933333425702" lon="6.503388891212955" id="-35708">
		<tag k="name" v="Koltveit" />
		<tag k="place" v="farm" />
		<tag k="ssr:stedsnr" v="227693" />
	</node>
	<node lat="60.608372219214004" lon="6.562816671360663" id="-35719">
		<tag k="name" v="Røvesløken" />
		<tag k="place" v="farm" />
		<tag k="ssr:stedsnr" v="228812" />
	</node>
	<node lat="60.81423333706815" lon="6.655302775535537" id="-35725">
		<tag k="name" v="Høgset" />
		<tag k="place" v="locality" />
		<tag k="ssr:stedsnr" v="494773" />
	</node>
	<node lat="60.4783333332223" lon="6.7497138971481485" id="-35730">
		<tag k="historic" v="shieling" />
		<tag k="name" v="Stokkrå" />
		<tag k="place" v="isolated_dwelling" />
		<tag k="ssr:stedsnr" v="248413" />
	</node>
	<node lat="60.72007487412393" lon="6.128323075711771" id="-35732">
		<tag k="fixme" v="consider place=hamlet" />
		<tag k="name" v="Langeland" />
		<tag k="place" v="farm" />
		<tag k="ssr:stedsnr" v="248417" />
	</node>
	<node lat="60.76915277537187" lon="6.475955562090382" id="-35745">
		<tag k="fixme" v="consider place=hamlet" />
		<tag k="name" v="Straume" />
		<tag k="place" v="farm" />
		<tag k="ssr:stedsnr" v="263208" />
	</node>
	<node lat="60.77938889340544" lon="6.496702780150076" id="-35749">
		<tag k="name" v="Lomsdalen" />
		<tag k="place" v="farm" />
		<tag k="ssr:stedsnr" v="263196" />
	</node>
	<node lat="60.61586640721132" lon="6.501837429631768" id="-35760">
		<tag k="fixme" v="consider place=hamlet" />
		<tag k="name" v="Øvre Skutle" />
		<tag k="place" v="farm" />
		<tag k="ssr:stedsnr" v="263808" />
	</node>
	<node lat="60.594291667811135" lon="6.362538890381219" id="-35763">
		<tag k="historic" v="shieling" />
		<tag k="name" v="Nedstestølen" />
		<tag k="place" v="isolated_dwelling" />
		<tag k="ssr:stedsnr" v="263888" />
	</node>
	<node lat="60.4601138907091" lon="6.588761108076588" id="-35788">
		<tag k="historic" v="shieling" />
		<tag k="name" v="Litlastøl" />
		<tag k="place" v="isolated_dwelling" />
		<tag k="ssr:stedsnr" v="281925" />
	</node>
	<node lat="60.57854166529785" lon="6.468627770083117" id="-35807">
		<tag k="name" v="Helland" />
		<tag k="place" v="farm" />
		<tag k="ssr:stedsnr" v="288513" />
	</node>
	<node lat="60.67387528776362" lon="5.952498706672816" id="-35845">
		<tag k="fixme" v="consider place=hamlet" />
		<tag k="name" v="Mæland" />
		<tag k="place" v="farm" />
		<tag k="ssr:stedsnr" v="309005" />
	</node>
	<node lat="60.66182499974743" lon="5.963063889753277" id="-35846">
		<tag k="historic" v="shieling" />
		<tag k="name" v="Dunsen" />
		<tag k="place" v="isolated_dwelling" />
		<tag k="ssr:stedsnr" v="309049" />
	</node>
	<node lat="60.62938860510804" lon="6.157130800105568" id="-35849">
		<tag k="fixme" v="consider place=hamlet" />
		<tag k="name" v="Øvre Skjervo" />
		<tag k="place" v="farm" />
		<tag k="ssr:stedsnr" v="309182" />
	</node>
	<node lat="60.68611496876198" lon="6.538793562013131" id="-35852">
		<tag k="historic" v="shieling" />
		<tag k="name" v="Skjevlingen" />
		<tag k="place" v="isolated_dwelling" />
		<tag k="ssr:stedsnr" v="309347" />
	</node>
	<node lat="60.688552620320124" lon="6.571353647049046" id="-35853">
		<tag k="fixme" v="consider place=hamlet" />
		<tag k="name" v="Røyrlii" />
		<tag k="place" v="farm" />
		<tag k="ssr:stedsnr" v="309348" />
	</node>
	<node lat="60.68988475039483" lon="6.498578555175276" id="-35854">
		<tag k="fixme" v="consider place=hamlet" />
		<tag k="name" v="Oppkvitno" />
		<tag k="place" v="farm" />
		<tag k="ssr:stedsnr" v="309350" />
	</node>
	<node lat="60.465608328910555" lon="6.747444443185991" id="-35856">
		<tag k="name" v="Solbakken" />
		<tag k="place" v="farm" />
		<tag k="ssr:stedsnr" v="309355" />
	</node>
	<node lat="60.46523611086103" lon="6.75043610408652" id="-35857">
		<tag k="fixme" v="consider place=hamlet" />
		<tag k="name" v="Djønno" />
		<tag k="place" v="village" />
		<tag k="ssr:stedsnr" v="309358" />
	</node>
	<node lat="60.72014999590598" lon="6.430680552866323" id="-35858">
		<tag k="historic" v="shieling" />
		<tag k="name" v="Kroni" />
		<tag k="place" v="isolated_dwelling" />
		<tag k="ssr:stedsnr" v="309385" />
	</node>
	<node lat="60.696201610066744" lon="6.105096802202491" id="-35861">
		<tag k="fixme" v="consider place=hamlet" />
		<tag k="name" v="Ro" />
		<tag k="place" v="farm" />
		<tag k="ssr:stedsnr" v="309515" />
	</node>
	<node lat="60.722155557185715" lon="5.992269439775546" id="-35867">
		<tag k="historic" v="shieling" />
		<tag k="name" v="Stordalen" />
		<tag k="place" v="isolated_dwelling" />
		<tag k="ssr:stedsnr" v="309468" />
	</node>
	<node lat="60.584629693406" lon="6.671195666913425" id="-35871">
		<tag k="name" v="Spildo" />
		<tag k="place" v="hamlet" />
		<tag k="ssr:stedsnr" v="309918" />
	</node>
	<node lat="60.66922034368813" lon="6.442676661116251" id="-35880">
		<tag k="fixme" v="consider place=hamlet" />
		<tag k="name" v="Æn" />
		<tag k="place" v="farm" />
		<tag k="ssr:stedsnr" v="310286" />
	</node>
	<node lat="60.63978765569312" lon="6.327571111758893" id="-35892">
		<tag k="fixme" v="consider place=hamlet" />
		<tag k="name" v="Gjerstad" />
		<tag k="place" v="farm" />
		<tag k="ssr:stedsnr" v="310703" />
	</node>
	<node lat="60.636066663945954" lon="6.344719449872544" id="-35893">
		<tag k="historic" v="shieling" />
		<tag k="name" v="Bjørnavad" />
		<tag k="place" v="isolated_dwelling" />
		<tag k="ssr:stedsnr" v="310705" />
	</node>
	<node lat="60.64263056002798" lon="6.485388897350873" id="-35894">
		<tag k="name" v="Melve" />
		<tag k="place" v="farm" />
		<tag k="ssr:stedsnr" v="310707" />
	</node>
	<node lat="60.63024104744934" lon="6.5329898722874855" id="-35896">
		<tag k="fixme" v="consider place=hamlet" />
		<tag k="name" v="Møn" />
		<tag k="place" v="farm" />
		<tag k="ssr:stedsnr" v="310726" />
	</node>
	<node lat="60.62276725551688" lon="6.281351735813702" id="-35897">
		<tag k="fixme" v="consider place=hamlet" />
		<tag k="name" v="Grimastad" />
		<tag k="place" v="farm" />
		<tag k="ssr:stedsnr" v="310736" />
	</node>
	<node lat="60.78146666644817" lon="6.729399999242338" id="-35904">
		<tag k="historic" v="shieling" />
		<tag k="name" v="Nyestølen" />
		<tag k="place" v="isolated_dwelling" />
		<tag k="ssr:stedsnr" v="311802" />
	</node>
	<node lat="60.91183611017659" lon="6.7034361196582" id="-35908">
		<tag k="historic" v="shieling" />
		<tag k="name" v="Øyastølen" />
		<tag k="place" v="isolated_dwelling" />
		<tag k="ssr:stedsnr" v="311891" />
	</node>
	<node lat="60.82356944552647" lon="6.332605551442555" id="-35912">
		<tag k="fixme" v="consider tourism=alpine_hut or tourism=chalet" />
		<tag k="name" v="Torvedalshytta" />
		<tag k="old_name" v="Torvedalen th" />
		<tag k="ssr:stedsnr" v="312565" />
		<tag k="tourism" v="wilderness_hut" />
	</node>
	<node lat="60.78494993236251" lon="6.471831132279879" id="-35919">
		<tag k="fixme" v="consider place=hamlet" />
		<tag k="name" v="Gilbakken" />
		<tag k="place" v="farm" />
		<tag k="ssr:stedsnr" v="312984" />
	</node>
	<node lat="60.61649290885443" lon="6.546872624924445" id="-35921">
		<tag k="fixme" v="consider place=hamlet" />
		<tag k="name" v="Opeland" />
		<tag k="place" v="farm" />
		<tag k="ssr:stedsnr" v="323806" />
	</node>
	<node lat="60.66720692700981" lon="6.53839470381614" id="-35945">
		<tag k="name" v="Nedre Klyve" />
		<tag k="place" v="farm" />
		<tag k="ssr:stedsnr" v="324763" />
	</node>
	<node lat="60.61865277777279" lon="6.364688881983729" id="-35947">
		<tag k="historic" v="shieling" />
		<tag k="name" v="Mjølstølen" />
		<tag k="place" v="isolated_dwelling" />
		<tag k="ssr:stedsnr" v="324880" />
	</node>
	<node lat="60.56470613257863" lon="6.468165904687901" id="-35948">
		<tag k="fixme" v="consider place=hamlet" />
		<tag k="name" v="Nedre Kvitno" />
		<tag k="place" v="farm" />
		<tag k="ssr:stedsnr" v="325009" />
	</node>
	<node lat="60.59297800138301" lon="6.471122848749837" id="-35949">
		<tag k="fixme" v="consider place=hamlet" />
		<tag k="name" v="Nedre Herre" />
		<tag k="place" v="farm" />
		<tag k="ssr:stedsnr" v="325010" />
	</node>
	<node lat="60.701771399912495" lon="6.891451676290592" id="-35957">
		<tag k="alt_name" v="Kårdal Pensjonat" />
		<tag k="name" v="Kårdal fjellstove" />
		<tag k="ssr:stedsnr" v="469844" />
		<tag k="tourism" v="guest_house" />
	</node>
	<node lat="60.61128200337423" lon="6.433036752628065" id="-35959">
		<tag k="name" v="Midtre Rokne" />
		<tag k="place" v="farm" />
		<tag k="ssr:stedsnr" v="469993" />
	</node>
	<node lat="60.902991665630324" lon="6.735080562153649" id="-35965">
		<tag k="name" v="Myratunet" />
		<tag k="place" v="farm" />
		<tag k="ssr:stedsnr" v="470145" />
	</node>
	<node lat="60.66682777447505" lon="6.520425008792839" id="-35978">
		<tag k="name" v="Dokkatræet" />
		<tag k="place" v="farm" />
		<tag k="ssr:stedsnr" v="470289" />
	</node>
	<node lat="60.63867222658954" lon="6.413277784392944" id="-35980">
		<tag k="name" v="Skjor" />
		<tag k="place" v="farm" />
		<tag k="ssr:stedsnr" v="470446" />
	</node>
	<node lat="60.675375001830915" lon="6.496141667650735" id="-35986">
		<tag k="fixme" v="consider place=hamlet" />
		<tag k="name" v="Almeland" />
		<tag k="place" v="farm" />
		<tag k="ssr:stedsnr" v="470458" />
	</node>
	<node lat="60.627836114475684" lon="6.417686118353493" id="-35996">
		<tag k="name" v="Tinghuset" />
		<tag k="place" v="square" />
		<tag k="ssr:stedsnr" v="470729" />
	</node>
	<node lat="60.61578511205596" lon="6.517670187397658" id="-36003">
		<tag k="name" v="Oppheim" />
		<tag k="place" v="farm" />
		<tag k="ssr:stedsnr" v="470957" />
	</node>
	<node lat="60.47234166963542" lon="6.594138893855749" id="-36011">
		<tag k="historic" v="shieling" />
		<tag k="name" v="Håstabbastølen" />
		<tag k="place" v="isolated_dwelling" />
		<tag k="ssr:stedsnr" v="341910" />
	</node>
	<node lat="60.68791666861751" lon="6.457366661015692" id="-36028">
		<tag k="name" v="Blikberg" />
		<tag k="place" v="farm" />
		<tag k="ssr:stedsnr" v="348464" />
	</node>
	<node lat="60.6449498957959" lon="6.432899912145675" id="-36031">
		<tag k="name" v="Vetle Ringheim" />
		<tag k="place" v="farm" />
		<tag k="ssr:stedsnr" v="348681" />
	</node>
	<node lat="60.818108330099115" lon="6.7073555556952416" id="-36038">
		<tag k="historic" v="shieling" />
		<tag k="name" v="Vårstølen" />
		<tag k="place" v="isolated_dwelling" />
		<tag k="ssr:stedsnr" v="348975" />
	</node>
	<node lat="60.90789999623955" lon="6.754536120478904" id="-36047">
		<tag k="name" v="Svendo" />
		<tag k="place" v="farm" />
		<tag k="ssr:stedsnr" v="349012" />
	</node>
	<node lat="60.48986944233648" lon="6.644797219890392" id="-36061">
		<tag k="fixme" v="consider place=hamlet" />
		<tag k="name" v="Folkedal" />
		<tag k="place" v="village" />
		<tag k="ssr:stedsnr" v="369376" />
	</node>
	<node lat="60.67929166753128" lon="6.19179166697494" id="-36065">
		<tag k="historic" v="shieling" />
		<tag k="name" v="Kvitlastølen" />
		<tag k="place" v="isolated_dwelling" />
		<tag k="ssr:stedsnr" v="370021" />
	</node>
	<node lat="60.680154570660285" lon="6.1163460217778995" id="-36066">
		<tag k="fixme" v="consider place=hamlet" />
		<tag k="name" v="Akslebjørg" />
		<tag k="place" v="farm" />
		<tag k="ssr:stedsnr" v="370036" />
	</node>
	<node lat="60.66344191508641" lon="6.184308000452168" id="-36069">
		<tag k="fixme" v="consider place=hamlet" />
		<tag k="name" v="Steine" />
		<tag k="place" v="farm" />
		<tag k="ssr:stedsnr" v="370073" />
	</node>
	<node lat="60.61947549189583" lon="6.2223339216320355" id="-36070">
		<tag k="fixme" v="consider place=hamlet" />
		<tag k="name" v="Ukvitno" />
		<tag k="place" v="farm" />
		<tag k="ssr:stedsnr" v="370164" />
	</node>
	<node lat="60.64535833581162" lon="6.446316672588763" id="-36074">
		<tag k="name" v="Lundarheim" />
		<tag k="place" v="farm" />
		<tag k="ssr:stedsnr" v="370302" />
	</node>
	<node lat="60.646942864992454" lon="6.4911651747104635" id="-36075">
		<tag k="name" v="Vinjo" />
		<tag k="place" v="hamlet" />
		<tag k="ssr:stedsnr" v="370303" />
	</node>
	<node lat="60.655541671054934" lon="6.30220000561552" id="-36077">
		<tag k="historic" v="shieling" />
		<tag k="name" v="Mjølkråni" />
		<tag k="place" v="isolated_dwelling" />
		<tag k="ssr:stedsnr" v="370326" />
	</node>
	<node lat="60.70365833150085" lon="6.490394442444093" id="-36083">
		<tag k="fixme" v="consider place=hamlet" />
		<tag k="name" v="Reppen" />
		<tag k="place" v="village" />
		<tag k="ssr:stedsnr" v="370387" />
	</node>
	<node lat="60.59652499676663" lon="5.999569443057451" id="-36085">
		<tag k="historic" v="shieling" />
		<tag k="name" v="Leinaselet" />
		<tag k="place" v="isolated_dwelling" />
		<tag k="ssr:stedsnr" v="370277" />
	</node>
	<node lat="60.643174529462435" lon="6.4963656185785235" id="-36093">
		<tag k="fixme" v="consider place=hamlet" />
		<tag k="name" v="Hylle" />
		<tag k="place" v="farm" />
		<tag k="ssr:stedsnr" v="370708" />
	</node>
	<node lat="60.64229334922042" lon="6.482113341968621" id="-36094">
		<tag k="fixme" v="consider place=hamlet" />
		<tag k="name" v="Endeve" />
		<tag k="place" v="farm" />
		<tag k="ssr:stedsnr" v="370712" />
	</node>
	<node lat="60.64311389068054" lon="6.556127772219726" id="-36095">
		<tag k="name" v="Sollii" />
		<tag k="place" v="farm" />
		<tag k="ssr:stedsnr" v="370716" />
	</node>
	<node lat="60.62491735074857" lon="6.277865356514005" id="-36096">
		<tag k="fixme" v="consider place=hamlet" />
		<tag k="name" v="Lunde" />
		<tag k="place" v="farm" />
		<tag k="ssr:stedsnr" v="370723" />
	</node>
	<node lat="60.54303055163768" lon="6.724074999173209" id="-36097">
		<tag k="fixme" v="consider place=hamlet" />
		<tag k="name" v="Hausnes" />
		<tag k="place" v="farm" />
		<tag k="ssr:stedsnr" v="370770" />
	</node>
	<node lat="60.612048860457726" lon="6.343708833070656" id="-36105">
		<tag k="fixme" v="consider place=hamlet" />
		<tag k="name" v="Vinsand" />
		<tag k="place" v="farm" />
		<tag k="ssr:stedsnr" v="371619" />
	</node>
	<node lat="60.594266665023625" lon="6.531636112529895" id="-36109">
		<tag k="historic" v="shieling" />
		<tag k="name" v="Liaset" />
		<tag k="place" v="isolated_dwelling" />
		<tag k="ssr:stedsnr" v="371656" />
	</node>
	<node lat="60.58434743406397" lon="6.444270970216435" id="-36110">
		<tag k="fixme" v="consider place=hamlet" />
		<tag k="name" v="Tillung" />
		<tag k="place" v="farm" />
		<tag k="ssr:stedsnr" v="371663" />
	</node>
	<node lat="60.89922499590411" lon="6.500788880768692" id="-36118">
		<tag k="historic" v="shieling" />
		<tag k="name" v="Bjørndalen" />
		<tag k="place" v="isolated_dwelling" />
		<tag k="ssr:stedsnr" v="372573" />
	</node>
	<node lat="60.920519446822254" lon="6.495411113731696" id="-36119">
		<tag k="alt_name" v="Grungen, vetle" />
		<tag k="historic" v="shieling" />
		<tag k="name" v="Vetle Grungen" />
		<tag k="place" v="isolated_dwelling" />
		<tag k="ssr:stedsnr" v="372626" />
	</node>
	<node lat="60.900205559141604" lon="6.460769435346048" id="-36121">
		<tag k="historic" v="shieling" />
		<tag k="name" v="Finnbuene" />
		<tag k="place" v="isolated_dwelling" />
		<tag k="ssr:stedsnr" v="372631" />
	</node>
	<node lat="60.79676388773213" lon="6.62977499877622" id="-36124">
		<tag k="name" v="Sæli" />
		<tag k="place" v="farm" />
		<tag k="ssr:stedsnr" v="372798" />
	</node>
	<node lat="60.76184322444141" lon="6.477383117664777" id="-36127">
		<tag k="fixme" v="consider place=hamlet" />
		<tag k="name" v="Rødno" />
		<tag k="place" v="farm" />
		<tag k="ssr:stedsnr" v="372959" />
	</node>
	<node lat="60.80304166338007" lon="6.587494448612347" id="-36139">
		<tag k="historic" v="shieling" />
		<tag k="name" v="Uresåsen" />
		<tag k="place" v="isolated_dwelling" />
		<tag k="ssr:stedsnr" v="384262" />
	</node>
	<node lat="60.666333332989325" lon="6.1547166617701174" id="-36140">
		<tag k="historic" v="shieling" />
		<tag k="name" v="Nedre Skorset" />
		<tag k="place" v="isolated_dwelling" />
		<tag k="ssr:stedsnr" v="384711" />
	</node>
	<node lat="60.665480559644394" lon="6.108222227804241" id="-36141">
		<tag k="historic" v="shieling" />
		<tag k="name" v="Mjølstølen" />
		<tag k="place" v="isolated_dwelling" />
		<tag k="ssr:stedsnr" v="384721" />
	</node>
	<node lat="60.67252222472087" lon="6.01488055581156" id="-36146">
		<tag k="historic" v="shieling" />
		<tag k="name" v="Haugen" />
		<tag k="place" v="isolated_dwelling" />
		<tag k="ssr:stedsnr" v="384805" />
	</node>
	<node lat="60.67883888990083" lon="6.010883326663365" id="-36149">
		<tag k="historic" v="shieling" />
		<tag k="name" v="Grønehaugen" />
		<tag k="place" v="isolated_dwelling" />
		<tag k="ssr:stedsnr" v="384800" />
	</node>
	<node lat="60.70231666978909" lon="6.926555560623334" id="-36167">
		<tag k="fixme" v="consider place=hamlet" />
		<tag k="name" v="Kleivane" />
		<tag k="place" v="farm" />
		<tag k="ssr:stedsnr" v="391191" />
	</node>
	<node lat="60.658974997946174" lon="6.530844449348474" id="-36184">
		<tag k="name" v="Kraktveit" />
		<tag k="place" v="farm" />
		<tag k="ssr:stedsnr" v="409321" />
	</node>
	<node lat="60.64656666588887" lon="6.506733326961448" id="-36192">
		<tag k="name" v="Hylleshagen" />
		<tag k="place" v="farm" />
		<tag k="ssr:stedsnr" v="409457" />
	</node>
	<node lat="60.61745833522248" lon="6.431852775295327" id="-36195">
		<tag k="name" v="Songvesborgi" />
		<tag k="place" v="farm" />
		<tag k="ssr:stedsnr" v="409507" />
	</node>
	<node lat="60.60968333670326" lon="6.555991670132793" id="-36204">
		<tag k="name" v="Øyjordi" />
		<tag k="place" v="farm" />
		<tag k="ssr:stedsnr" v="409839" />
	</node>
	<node lat="60.63665888371144" lon="6.571388228143034" id="-36213">
		<tag k="fixme" v="consider place=hamlet" />
		<tag k="name" v="Skjervet" />
		<tag k="place" v="farm" />
		<tag k="ssr:stedsnr" v="410393" />
	</node>
	<node lat="60.67409166677856" lon="6.537763885362869" id="-36216">
		<tag k="historic" v="shieling" />
		<tag k="name" v="Øvrestølen" />
		<tag k="place" v="isolated_dwelling" />
		<tag k="ssr:stedsnr" v="410344" />
	</node>
	<node lat="60.58957500231573" lon="6.472983334408512" id="-36220">
		<tag k="name" v="Kvernhushagane" />
		<tag k="place" v="farm" />
		<tag k="ssr:stedsnr" v="410606" />
	</node>
	<node lat="60.62368889033095" lon="6.424197221382495" id="-36222">
		<tag k="name" v="Prestegardsmoen" />
		<tag k="place" v="farm" />
		<tag k="ssr:stedsnr" v="410646" />
	</node>
	<node lat="60.65233942667209" lon="6.147096187994198" id="-36241">
		<tag k="fixme" v="consider place=hamlet" />
		<tag k="name" v="Muggås" />
		<tag k="place" v="farm" />
		<tag k="ssr:stedsnr" v="431100" />
	</node>
	<node lat="60.60054166480213" lon="6.018216668493431" id="-36242">
		<tag k="historic" v="shieling" />
		<tag k="name" v="Vibotnen" />
		<tag k="place" v="isolated_dwelling" />
		<tag k="ssr:stedsnr" v="431259" />
	</node>
	<node lat="60.638174998660816" lon="6.173800007095992" id="-36244">
		<tag k="name" v="Saghaugen" />
		<tag k="place" v="farm" />
		<tag k="ssr:stedsnr" v="491165" />
	</node>
	<node lat="60.648483335168585" lon="6.518413879724785" id="-36264">
		<tag k="fixme" v="consider place=hamlet" />
		<tag k="name" v="Osgjerd" />
		<tag k="place" v="farm" />
		<tag k="ssr:stedsnr" v="431711" />
	</node>
	<node lat="60.63495125241826" lon="6.312594541070644" id="-36266">
		<tag k="name" v="Røte" />
		<tag k="place" v="hamlet" />
		<tag k="ssr:stedsnr" v="431718" />
	</node>
	<node lat="60.64151388900114" lon="6.573277786838863" id="-36267">
		<tag k="historic" v="shieling" />
		<tag k="name" v="Holo" />
		<tag k="place" v="isolated_dwelling" />
		<tag k="ssr:stedsnr" v="431730" />
	</node>
	<node lat="60.614068648700325" lon="6.329672693002336" id="-36269">
		<tag k="fixme" v="consider place=hamlet" />
		<tag k="name" v="Roe" />
		<tag k="place" v="farm" />
		<tag k="ssr:stedsnr" v="431756" />
	</node>
	<node lat="60.56136111352333" lon="6.212869442122661" id="-36272">
		<tag k="alt_name" v="Hornaberg" />
		<tag k="historic" v="shieling" />
		<tag k="name" v="Hodnaberg" />
		<tag k="place" v="isolated_dwelling" />
		<tag k="ssr:stedsnr" v="431886" />
	</node>
	<node lat="60.44210000341165" lon="6.707080553380319" id="-36278">
		<tag k="fixme" v="consider place=hamlet" />
		<tag k="name" v="Vikane" />
		<tag k="place" v="farm" />
		<tag k="ssr:stedsnr" v="491362" />
	</node>
	<node lat="60.61490500795238" lon="6.426035488947597" id="-36289">
		<tag k="fixme" v="consider place=hamlet" />
		<tag k="name" v="Gjernes" />
		<tag k="place" v="farm" />
		<tag k="ssr:stedsnr" v="432605" />
	</node>
	<node lat="60.61404359187144" lon="6.35655949851381" id="-36290">
		<tag k="fixme" v="consider place=hamlet" />
		<tag k="name" v="Hellesnes" />
		<tag k="place" v="farm" />
		<tag k="ssr:stedsnr" v="432610" />
	</node>
	<node lat="60.60458544197895" lon="6.537631397624217" id="-36292">
		<tag k="fixme" v="consider place=hamlet" />
		<tag k="name" v="Mala" />
		<tag k="place" v="farm" />
		<tag k="ssr:stedsnr" v="432629" />
	</node>
	<node lat="60.884025000340294" lon="6.6544027812413695" id="-36300">
		<tag k="historic" v="shieling" />
		<tag k="name" v="Ringheimsøyni" />
		<tag k="place" v="isolated_dwelling" />
		<tag k="ssr:stedsnr" v="433838" />
	</node>
	<node lat="60.55043055979917" lon="6.191591659350269" id="-36302">
		<tag k="alt_name" v="Sveindalen, nedre" />
		<tag k="historic" v="shieling" />
		<tag k="name" v="Nedre Sveindalen" />
		<tag k="place" v="isolated_dwelling" />
		<tag k="ssr:stedsnr" v="491818" />
	</node>
	<node lat="60.65296388777846" lon="5.898608339001403" id="-36306">
		<tag k="name" v="Leitet" />
		<tag k="place" v="isolated_dwelling" />
		<tag k="ssr:stedsnr" v="492058" />
	</node>
	<node lat="60.80723096007171" lon="6.630032850021933" id="-36307">
		<tag k="fixme" v="consider place=hamlet" />
		<tag k="name" v="Ettesvoll" />
		<tag k="place" v="farm" />
		<tag k="ssr:stedsnr" v="434722" />
	</node>
	<node lat="60.65925397153016" lon="6.421773479322924" id="-36309">
		<tag k="fixme" v="consider place=hamlet" />
		<tag k="name" v="Skjerpe" />
		<tag k="place" v="farm" />
		<tag k="ssr:stedsnr" v="492231" />
	</node>
	<node lat="60.661544447428284" lon="6.545669443569355" id="-36310">
		<tag k="fixme" v="consider place=hamlet" />
		<tag k="name" v="Selheim" />
		<tag k="place" v="farm" />
		<tag k="ssr:stedsnr" v="492244" />
	</node>
	<node lat="60.54870098082556" lon="6.737975097893253" id="-36326">
		<tag k="alt_name" v="Vinddal" />
		<tag k="fixme" v="consider place=hamlet" />
		<tag k="name" v="Vindal" />
		<tag k="place" v="farm" />
		<tag k="ssr:stedsnr" v="492738" />
	</node>
	<node lat="60.54208055405345" lon="6.641622213556846" id="-36327">
		<tag k="historic" v="shieling" />
		<tag k="name" v="Nyastøl" />
		<tag k="place" v="isolated_dwelling" />
		<tag k="ssr:stedsnr" v="492743" />
	</node>
	<node lat="60.62519167067666" lon="6.655644444637661" id="-36329">
		<tag k="historic" v="shieling" />
		<tag k="name" v="Skytjeset" />
		<tag k="place" v="isolated_dwelling" />
		<tag k="ssr:stedsnr" v="492884" />
	</node>
	<node lat="60.566411106833435" lon="6.725216670259779" id="-36330">
		<tag k="name" v="Flætene" />
		<tag k="place" v="farm" />
		<tag k="ssr:stedsnr" v="492844" />
	</node>
	<node lat="60.66966944459135" lon="6.75311389113049" id="-36333">
		<tag k="historic" v="shieling" />
		<tag k="name" v="Heggjastølen" />
		<tag k="place" v="isolated_dwelling" />
		<tag k="ssr:stedsnr" v="492992" />
	</node>
	<node lat="60.798130551199776" lon="6.659588884115129" id="-36342">
		<tag k="historic" v="shieling" />
		<tag k="name" v="Haugsstølen" />
		<tag k="place" v="isolated_dwelling" />
		<tag k="ssr:stedsnr" v="493794" />
	</node>
	<node lat="60.65003554468906" lon="6.023303974931272" id="-36343">
		<tag k="fixme" v="consider place=hamlet" />
		<tag k="name" v="Øreviki" />
		<tag k="place" v="farm" />
		<tag k="ssr:stedsnr" v="552077" />
	</node>
	<node lat="60.79689615591766" lon="6.5758468242175105" id="-36344">
		<tag k="fixme" v="consider place=hamlet" />
		<tag k="name" v="Berge" />
		<tag k="place" v="farm" />
		<tag k="ssr:stedsnr" v="493992" />
	</node>
	<node lat="60.53084444022228" lon="6.474466661072782" id="-36350">
		<tag k="historic" v="shieling" />
		<tag k="name" v="Nyestølen" />
		<tag k="place" v="isolated_dwelling" />
		<tag k="ssr:stedsnr" v="445208" />
	</node>
	<node lat="60.80367499773225" lon="6.569869439047892" id="-36354">
		<tag k="historic" v="shieling" />
		<tag k="name" v="Tveiti" />
		<tag k="place" v="isolated_dwelling" />
		<tag k="ssr:stedsnr" v="445375" />
	</node>
	<node lat="60.76662656111894" lon="6.473501700655431" id="-36359">
		<tag k="fixme" v="consider place=hamlet" />
		<tag k="name" v="Nedre Meland" />
		<tag k="place" v="farm" />
		<tag k="ssr:stedsnr" v="494958" />
	</node>
	<node lat="60.51727992279954" lon="6.480698900913468" id="-36366">
		<tag k="fixme" v="consider place=hamlet" />
		<tag k="name" v="Nedre Rong" />
		<tag k="place" v="farm" />
		<tag k="ssr:stedsnr" v="446029" />
	</node>
	<node lat="60.64206944170754" lon="6.42784444866407" id="-36377">
		<tag k="name" v="Nedre Ringheim" />
		<tag k="place" v="farm" />
		<tag k="ssr:stedsnr" v="446791" />
	</node>
	<node lat="60.46952777720672" lon="6.710311119457378" id="-36382">
		<tag k="historic" v="shieling" />
		<tag k="name" v="Larsbu" />
		<tag k="place" v="isolated_dwelling" />
		<tag k="ssr:stedsnr" v="447192" />
	</node>
	<node lat="60.68479444012128" lon="6.675677769465714" id="-36384">
		<tag k="name" v="Skiple" />
		<tag k="place" v="farm" />
		<tag k="ssr:stedsnr" v="450585" />
	</node>
	<node lat="60.757636219127335" lon="6.5015797633905565" id="-36385">
		<tag k="name" v="Kvormo" />
		<tag k="place" v="hamlet" />
		<tag k="ssr:stedsnr" v="452915" />
	</node>
	<node lat="60.47722499715161" lon="6.544413892566739" id="-36386">
		<tag k="historic" v="shieling" />
		<tag k="name" v="Fossdalen" />
		<tag k="place" v="isolated_dwelling" />
		<tag k="ssr:stedsnr" v="672199" />
	</node>
	<node lat="60.648743477735266" lon="5.96122462045151" id="-36391">
		<tag k="fixme" v="consider place=hamlet" />
		<tag k="name" v="Fyre" />
		<tag k="place" v="farm" />
		<tag k="ssr:stedsnr" v="673083" />
	</node>
	<node lat="60.58338055411848" lon="6.170174994997296" id="-36392">
		<tag k="historic" v="shieling" />
		<tag k="name" v="Lundaholmen" />
		<tag k="place" v="isolated_dwelling" />
		<tag k="ssr:stedsnr" v="673243" />
	</node>
	<node lat="60.58004444685865" lon="6.204999991267587" id="-36393">
		<tag k="alt_name" v="Skjerstølen" />
		<tag k="historic" v="shieling" />
		<tag k="name" v="Skirstølen" />
		<tag k="place" v="isolated_dwelling" />
		<tag k="ssr:stedsnr" v="673253" />
	</node>
	<node lat="60.458438016382004" lon="6.64041692633437" id="-36397">
		<tag k="historic" v="shieling" />
		<tag k="name" v="Vindhovden" />
		<tag k="place" v="isolated_dwelling" />
		<tag k="ssr:stedsnr" v="673346" />
	</node>
	<node lat="60.73507777609844" lon="6.473775004462417" id="-36400">
		<tag k="historic" v="shieling" />
		<tag k="name" v="Afdalsstølen" />
		<tag k="place" v="isolated_dwelling" />
		<tag k="ssr:stedsnr" v="673377" />
	</node>
	<node lat="60.74654999720915" lon="6.470777774719867" id="-36401">
		<tag k="historic" v="shieling" />
		<tag k="name" v="Hydningastølen" />
		<tag k="place" v="isolated_dwelling" />
		<tag k="ssr:stedsnr" v="673383" />
	</node>
	<node lat="60.46962500295047" lon="6.644369445119251" id="-36404">
		<tag k="name" v="Teigen" />
		<tag k="place" v="locality" />
		<tag k="ssr:stedsnr" v="673436" />
	</node>
	<node lat="60.68466218847634" lon="6.492512627983779" id="-36413">
		<tag k="fixme" v="consider place=hamlet" />
		<tag k="name" v="Nedkvitno" />
		<tag k="place" v="farm" />
		<tag k="ssr:stedsnr" v="674294" />
	</node>
	<node lat="60.649537560612664" lon="6.037213603707463" id="-36417">
		<tag k="fixme" v="consider place=hamlet" />
		<tag k="name" v="Bergstad" />
		<tag k="place" v="farm" />
		<tag k="ssr:stedsnr" v="674061" />
	</node>
	<node lat="60.6281666667938" lon="6.007527770116262" id="-36420">
		<tag k="historic" v="shieling" />
		<tag k="name" v="Jørnevikstølen" />
		<tag k="place" v="isolated_dwelling" />
		<tag k="ssr:stedsnr" v="674141" />
	</node>
	<node lat="60.58183888538172" lon="6.633547230601704" id="-36427">
		<tag k="historic" v="shieling" />
		<tag k="name" v="Solbjørgo" />
		<tag k="place" v="isolated_dwelling" />
		<tag k="ssr:stedsnr" v="463777" />
	</node>
	<node lat="60.56048333310599" lon="6.727922219728538" id="-36431">
		<tag k="fixme" v="consider place=hamlet" />
		<tag k="name" v="Trå" />
		<tag k="place" v="farm" />
		<tag k="ssr:stedsnr" v="463859" />
	</node>
	<node lat="60.57927500113077" lon="6.511291673057248" id="-36437">
		<tag k="historic" v="shieling" />
		<tag k="name" v="Otledalen" />
		<tag k="place" v="isolated_dwelling" />
		<tag k="ssr:stedsnr" v="674572" />
	</node>
	<node lat="60.6052921759645" lon="6.411358734301922" id="-36447">
		<tag k="fixme" v="consider place=hamlet" />
		<tag k="name" v="Tungeteigen" />
		<tag k="place" v="farm" />
		<tag k="ssr:stedsnr" v="674643" />
	</node>
	<node lat="60.62792686574013" lon="6.528606566267932" id="-36448">
		<tag k="name" v="Mønshaugen" />
		<tag k="place" v="farm" />
		<tag k="ssr:stedsnr" v="674735" />
	</node>
	<node lat="60.65029386779894" lon="6.535552388237238" id="-36449">
		<tag k="fixme" v="consider place=hamlet" />
		<tag k="name" v="Tundal" />
		<tag k="place" v="farm" />
		<tag k="ssr:stedsnr" v="674693" />
	</node>
	<node lat="60.61999890489232" lon="6.2838019518683" id="-36450">
		<tag k="name" v="Saue" />
		<tag k="place" v="hamlet" />
		<tag k="ssr:stedsnr" v="674740" />
	</node>
	<node lat="60.62088719478758" lon="6.515834424086772" id="-36451">
		<tag k="fixme" v="consider place=hamlet" />
		<tag k="name" v="Vivås" />
		<tag k="place" v="farm" />
		<tag k="ssr:stedsnr" v="674747" />
	</node>
	<node lat="60.68110057175393" lon="6.636821030882922" id="-36457">
		<tag k="fixme" v="consider place=hamlet" />
		<tag k="name" v="Kvåle" />
		<tag k="place" v="farm" />
		<tag k="ssr:stedsnr" v="674926" />
	</node>
	<node lat="60.6770421533601" lon="6.819170094915589" id="-36458">
		<tag k="fixme" v="consider place=hamlet" />
		<tag k="name" v="Hagen" />
		<tag k="place" v="farm" />
		<tag k="ssr:stedsnr" v="674942" />
	</node>
	<node lat="60.900818882155" lon="6.485872753073298" id="-36460">
		<tag k="fixme" v="consider place=hamlet" />
		<tag k="name" v="Kvassdalen" />
		<tag k="place" v="farm" />
		<tag k="ssr:stedsnr" v="469069" />
	</node>
	<node lat="60.50834999867427" lon="6.470483325196495" id="-36463">
		<tag k="historic" v="shieling" />
		<tag k="name" v="Haugamoen" />
		<tag k="place" v="isolated_dwelling" />
		<tag k="ssr:stedsnr" v="675534" />
	</node>
	<node lat="60.55585555657119" lon="6.465058338691222" id="-36487">
		<tag k="historic" v="shieling" />
		<tag k="name" v="Vælestølen" />
		<tag k="place" v="isolated_dwelling" />
		<tag k="ssr:stedsnr" v="470518" />
	</node>
	<node lat="60.82543333118051" lon="6.680802776753682" id="-36507">
		<tag k="name" v="Brattland" />
		<tag k="place" v="farm" />
		<tag k="ssr:stedsnr" v="676777" />
	</node>
	<node lat="60.770012343603725" lon="6.453096598649989" id="-36511">
		<tag k="fixme" v="consider place=hamlet" />
		<tag k="name" v="Arnetveit" />
		<tag k="place" v="farm" />
		<tag k="ssr:stedsnr" v="676960" />
	</node>
	<node lat="60.775332231571355" lon="6.437557812968814" id="-36515">
		<tag k="fixme" v="consider place=hamlet" />
		<tag k="name" v="Fjeli" />
		<tag k="place" v="farm" />
		<tag k="ssr:stedsnr" v="676974" />
	</node>
	<node lat="60.6733739094786" lon="6.081850250787527" id="-36523">
		<tag k="fixme" v="consider place=hamlet" />
		<tag k="name" v="Brunborg" />
		<tag k="place" v="farm" />
		<tag k="ssr:stedsnr" v="491024" />
	</node>
	<node lat="60.67346110821218" lon="6.331561110579749" id="-36529">
		<tag k="historic" v="shieling" />
		<tag k="name" v="Hellu" />
		<tag k="place" v="isolated_dwelling" />
		<tag k="ssr:stedsnr" v="491317" />
	</node>
	<node lat="60.73353610710523" lon="6.185569452438407" id="-36535">
		<tag k="historic" v="shieling" />
		<tag k="name" v="Teiten" />
		<tag k="place" v="isolated_dwelling" />
		<tag k="ssr:stedsnr" v="491416" />
	</node>
	<node lat="60.694458332720956" lon="6.106088889597312" id="-36537">
		<tag k="name" v="Fasteland" />
		<tag k="place" v="farm" />
		<tag k="ssr:stedsnr" v="491507" />
	</node>
	<node lat="60.68887268199352" lon="5.969642278150041" id="-36542">
		<tag k="fixme" v="consider place=hamlet" />
		<tag k="name" v="Øvstedalen" />
		<tag k="place" v="farm" />
		<tag k="ssr:stedsnr" v="491490" />
	</node>
	<node lat="60.69120871557498" lon="6.113503520159741" id="-36544">
		<tag k="fixme" v="consider place=hamlet" />
		<tag k="name" v="Luren" />
		<tag k="place" v="farm" />
		<tag k="ssr:stedsnr" v="491501" />
	</node>
	<node lat="60.52028055509682" lon="6.091841674122746" id="-36545">
		<tag k="historic" v="shieling" />
		<tag k="name" v="Grønestad" />
		<tag k="place" v="isolated_dwelling" />
		<tag k="ssr:stedsnr" v="491783" />
	</node>
	<node lat="60.586557677654966" lon="6.6558519933740845" id="-36547">
		<tag k="fixme" v="consider place=hamlet" />
		<tag k="name" v="Klyve" />
		<tag k="place" v="farm" />
		<tag k="ssr:stedsnr" v="491915" />
	</node>
	<node lat="60.59770555692639" lon="6.6349666652860035" id="-36551">
		<tag k="fixme" v="consider place=hamlet" />
		<tag k="name" v="Skaftedal" />
		<tag k="place" v="farm" />
		<tag k="ssr:stedsnr" v="491886" />
	</node>
	<node lat="60.65728610735156" lon="6.561788881445961" id="-36556">
		<tag k="historic" v="shieling" />
		<tag k="name" v="Gamle Meringastølen" />
		<tag k="place" v="isolated_dwelling" />
		<tag k="ssr:stedsnr" v="492222" />
	</node>
	<node lat="60.66835555409246" lon="6.3484833329198205" id="-36557">
		<tag k="historic" v="shieling" />
		<tag k="name" v="Dale" />
		<tag k="place" v="isolated_dwelling" />
		<tag k="ssr:stedsnr" v="492273" />
	</node>
	<node lat="60.71714722574686" lon="6.600102777684729" id="-36564">
		<tag k="historic" v="shieling" />
		<tag k="name" v="Gudmundsset" />
		<tag k="place" v="isolated_dwelling" />
		<tag k="ssr:stedsnr" v="492521" />
	</node>
	<node lat="60.5974833338719" lon="6.3942749951208695" id="-36566">
		<tag k="historic" v="shieling" />
		<tag k="name" v="Hindartveit" />
		<tag k="place" v="isolated_dwelling" />
		<tag k="ssr:stedsnr" v="492607" />
	</node>
	<node lat="60.59852085534727" lon="6.449909541996083" id="-36568">
		<tag k="name" v="Himle" />
		<tag k="place" v="farm" />
		<tag k="ssr:stedsnr" v="492611" />
	</node>
	<node lat="60.594674231540836" lon="6.468710885994472" id="-36570">
		<tag k="fixme" v="consider place=hamlet" />
		<tag k="name" v="Herre" />
		<tag k="place" v="farm" />
		<tag k="ssr:stedsnr" v="492626" />
	</node>
	<node lat="60.63280600574727" lon="6.231989164513021" id="-36571">
		<tag k="fixme" v="consider place=hamlet" />
		<tag k="name" v="Seim" />
		<tag k="place" v="farm" />
		<tag k="ssr:stedsnr" v="492671" />
	</node>
	<node lat="60.630547224397375" lon="6.285741673222802" id="-36572">
		<tag k="fixme" v="consider place=hamlet" />
		<tag k="name" v="Bulken" />
		<tag k="place" v="village" />
		<tag k="ssr:stedsnr" v="492678" />
	</node>
	<node lat="60.63374444655861" lon="6.503563883165075" id="-36573">
		<tag k="landuse" v="military" />
		<tag k="name" v="Bømoen" />
		<tag k="ssr:stedsnr" v="492689" />
	</node>
	<node lat="60.6434138875364" lon="6.5755666667288235" id="-36574">
		<tag k="historic" v="shieling" />
		<tag k="name" v="Horald" />
		<tag k="place" v="isolated_dwelling" />
		<tag k="ssr:stedsnr" v="492692" />
	</node>
	<node lat="60.570508334020325" lon="6.610130564515434" id="-36577">
		<tag k="name" v="Bulkuhagen" />
		<tag k="place" v="farm" />
		<tag k="ssr:stedsnr" v="492816" />
	</node>
	<node lat="60.580075004133896" lon="6.777230550133626" id="-36578">
		<tag k="fixme" v="consider place=hamlet" />
		<tag k="name" v="Dale" />
		<tag k="place" v="farm" />
		<tag k="ssr:stedsnr" v="492826" />
	</node>
	<node lat="60.616799843451496" lon="6.303791316444907" id="-36582">
		<tag k="fixme" v="consider place=hamlet" />
		<tag k="name" v="Eimstad" />
		<tag k="place" v="farm" />
		<tag k="ssr:stedsnr" v="492716" />
	</node>
	<node lat="60.623352099025546" lon="6.380580785562948" id="-36583">
		<tag k="fixme" v="consider place=hamlet" />
		<tag k="name" v="Lydvo" />
		<tag k="place" v="farm" />
		<tag k="ssr:stedsnr" v="492721" />
	</node>
	<node lat="60.623401660116535" lon="6.487501946525111" id="-36584">
		<tag k="fixme" v="consider place=hamlet" />
		<tag k="name" v="Vike" />
		<tag k="place" v="farm" />
		<tag k="ssr:stedsnr" v="492723" />
	</node>
	<node lat="60.81218610850825" lon="6.551905562792435" id="-36594">
		<tag k="historic" v="shieling" />
		<tag k="name" v="Svorto" />
		<tag k="place" v="isolated_dwelling" />
		<tag k="ssr:stedsnr" v="493517" />
	</node>
	<node lat="60.779538893233635" lon="6.678688885363346" id="-36598">
		<tag k="name" v="Brandsetstølen" />
		<tag k="place" v="locality" />
		<tag k="ssr:stedsnr" v="493778" />
	</node>
	<node lat="60.87110277652938" lon="6.644666675001531" id="-36599">
		<tag k="historic" v="shieling" />
		<tag k="name" v="Mulen" />
		<tag k="place" v="isolated_dwelling" />
		<tag k="ssr:stedsnr" v="493837" />
	</node>
	<node lat="60.8940277798153" lon="6.6356583363552835" id="-36601">
		<tag k="name" v="Vikset" />
		<tag k="place" v="farm" />
		<tag k="ssr:stedsnr" v="493871" />
	</node>
	<node lat="60.75907777884601" lon="6.506661117442225" id="-36605">
		<tag k="name" v="Kvarmastølen" />
		<tag k="place" v="farm" />
		<tag k="ssr:stedsnr" v="494943" />
	</node>
	<node lat="60.762419444561324" lon="6.561905549751725" id="-36608">
		<tag k="historic" v="shieling" />
		<tag k="name" v="Vetlestølen" />
		<tag k="place" v="isolated_dwelling" />
		<tag k="ssr:stedsnr" v="494950" />
	</node>
	<node lat="60.66893983003565" lon="6.535417396322498" id="-36636">
		<tag k="name" v="Øvre Klyve" />
		<tag k="place" v="farm" />
		<tag k="ssr:stedsnr" v="506767" />
	</node>
	<node lat="60.628713884849226" lon="6.510080560731316" id="-36637">
		<tag k="name" v="Takla" />
		<tag k="place" v="farm" />
		<tag k="ssr:stedsnr" v="506776" />
	</node>
	<node lat="60.57473610754468" lon="6.770405547482982" id="-36640">
		<tag k="historic" v="shieling" />
		<tag k="name" v="Litlastøl" />
		<tag k="place" v="isolated_dwelling" />
		<tag k="ssr:stedsnr" v="507124" />
	</node>
	<node lat="60.88611389161387" lon="6.653175006062519" id="-36649">
		<tag k="name" v="Aurland" />
		<tag k="place" v="farm" />
		<tag k="ssr:stedsnr" v="530127" />
	</node>
	<node lat="60.66255277508134" lon="6.449094449572796" id="-36656">
		<tag k="name" v="Hagen" />
		<tag k="place" v="farm" />
		<tag k="ssr:stedsnr" v="530415" />
	</node>
	<node lat="60.643291667857454" lon="6.4870944452304204" id="-36666">
		<tag k="name" v="Melve" />
		<tag k="place" v="farm" />
		<tag k="ssr:stedsnr" v="530483" />
	</node>
	<node lat="60.46390277369576" lon="6.550333333298891" id="-36686">
		<tag k="historic" v="shieling" />
		<tag k="name" v="Helleren" />
		<tag k="place" v="isolated_dwelling" />
		<tag k="ssr:stedsnr" v="551202" />
	</node>
	<node lat="60.48018611481646" lon="6.658675006860078" id="-36688">
		<tag k="fixme" v="consider place=hamlet" />
		<tag k="name" v="Hamre" />
		<tag k="place" v="farm" />
		<tag k="ssr:stedsnr" v="551417" />
	</node>
	<node lat="60.59229999835528" lon="6.680369451303914" id="-36690">
		<tag k="fixme" v="consider place=hamlet" />
		<tag k="name" v="Skår" />
		<tag k="place" v="farm" />
		<tag k="ssr:stedsnr" v="551914" />
	</node>
	<node lat="60.659100001796425" lon="6.098749998869695" id="-36695">
		<tag k="name" v="Åsly" />
		<tag k="place" v="farm" />
		<tag k="ssr:stedsnr" v="552054" />
	</node>
	<node lat="60.65233333697581" lon="6.102530563359803" id="-36696">
		<tag k="name" v="Solviki" />
		<tag k="place" v="farm" />
		<tag k="ssr:stedsnr" v="552101" />
	</node>
	<node lat="60.610119444198084" lon="5.908591663268547" id="-36699">
		<tag k="name" v="Fribotnen" />
		<tag k="place" v="locality" />
		<tag k="ssr:stedsnr" v="552226" />
	</node>
	<node lat="60.65964690016306" lon="6.460154455807887" id="-36706">
		<tag k="fixme" v="consider place=hamlet" />
		<tag k="name" v="Øvsthus" />
		<tag k="place" v="farm" />
		<tag k="ssr:stedsnr" v="552304" />
	</node>
	<node lat="60.660544446491194" lon="6.453922215120488" id="-36710">
		<tag k="fixme" v="consider place=hamlet" />
		<tag k="name" v="Kvitheim" />
		<tag k="place" v="village" />
		<tag k="ssr:stedsnr" v="552325" />
	</node>
	<node lat="60.69456388965477" lon="6.1256611189385355" id="-36719">
		<tag k="historic" v="shieling" />
		<tag k="name" v="Flathaugen" />
		<tag k="place" v="isolated_dwelling" />
		<tag k="ssr:stedsnr" v="552555" />
	</node>
	<node lat="60.61630860990566" lon="6.544315584540131" id="-36729">
		<tag k="name" v="Opeland" />
		<tag k="place" v="farm" />
		<tag k="ssr:stedsnr" v="553635" />
	</node>
	<node lat="60.67616112170267" lon="6.61479985121493" id="-36739">
		<tag k="fixme" v="consider place=hamlet" />
		<tag k="name" v="Lindberg" />
		<tag k="place" v="farm" />
		<tag k="ssr:stedsnr" v="553938" />
	</node>
	<node lat="60.795183333505875" lon="6.525991667504215" id="-36746">
		<tag k="fixme" v="consider place=hamlet" />
		<tag k="name" v="Øvre Vinjo" />
		<tag k="place" v="farm" />
		<tag k="ssr:stedsnr" v="688165" />
	</node>
	<node lat="60.86838055446939" lon="6.494638896700907" id="-36754">
		<tag k="historic" v="shieling" />
		<tag k="name" v="Nyestølen" />
		<tag k="place" v="isolated_dwelling" />
		<tag k="ssr:stedsnr" v="688181" />
	</node>
	<node lat="60.80715585101792" lon="6.646219122927303" id="-36757">
		<tag k="fixme" v="consider place=hamlet" />
		<tag k="name" v="Hauge" />
		<tag k="place" v="farm" />
		<tag k="ssr:stedsnr" v="554807" />
	</node>
	<node lat="60.7922027749729" lon="6.684266670432969" id="-36758">
		<tag k="name" v="Ljosno" />
		<tag k="place" v="farm" />
		<tag k="ssr:stedsnr" v="554810" />
	</node>
	<node lat="60.84503794099918" lon="6.466807891473081" id="-36764">
		<tag k="fixme" v="consider place=hamlet" />
		<tag k="name" v="Overland" />
		<tag k="place" v="farm" />
		<tag k="ssr:stedsnr" v="554575" />
	</node>
	<node lat="60.72247023723526" lon="6.474878169066305" id="-36769">
		<tag k="fixme" v="consider place=hamlet" />
		<tag k="name" v="Indre Afdal" />
		<tag k="place" v="farm" />
		<tag k="ssr:stedsnr" v="688216" />
	</node>
	<node lat="60.62661667030387" lon="6.229072220804374" id="-36772">
		<tag k="historic" v="shieling" />
		<tag k="name" v="Øvre" />
		<tag k="place" v="isolated_dwelling" />
		<tag k="ssr:stedsnr" v="688225" />
	</node>
	<node lat="60.76160000183363" lon="6.42605000416416" id="-36775">
		<tag k="historic" v="shieling" />
		<tag k="name" v="Liastølen" />
		<tag k="place" v="isolated_dwelling" />
		<tag k="ssr:stedsnr" v="554969" />
	</node>
	<node lat="60.78566666860015" lon="6.498475008102504" id="-36777">
		<tag k="name" v="Fredheim" />
		<tag k="place" v="farm" />
		<tag k="ssr:stedsnr" v="554987" />
	</node>
	<node lat="60.787644395093444" lon="6.48905129585955" id="-36780">
		<tag k="fixme" v="consider place=hamlet" />
		<tag k="name" v="Ytre Sundve" />
		<tag k="place" v="farm" />
		<tag k="ssr:stedsnr" v="688256" />
	</node>
	<node lat="60.80396111367675" lon="6.6041888969807845" id="-36786">
		<tag k="historic" v="shieling" />
		<tag k="name" v="Velle" />
		<tag k="place" v="isolated_dwelling" />
		<tag k="ssr:stedsnr" v="688277" />
	</node>
	<node lat="60.846102774557096" lon="6.475902782712578" id="-36797">
		<tag k="name" v="Myri" />
		<tag k="place" v="farm" />
		<tag k="ssr:stedsnr" v="688361" />
	</node>
	<node lat="60.651636640977415" lon="6.522010040448782" id="-36806">
		<tag k="name" v="Nedre Graue" />
		<tag k="place" v="farm" />
		<tag k="ssr:stedsnr" v="688802" />
	</node>
	<node lat="60.61324340828169" lon="6.505072863848915" id="-36807">
		<tag k="fixme" v="consider place=hamlet" />
		<tag k="name" v="Nedre Skutle" />
		<tag k="place" v="farm" />
		<tag k="ssr:stedsnr" v="688814" />
	</node>
	<node lat="60.679739064964025" lon="6.587022696598207" id="-36813">
		<tag k="fixme" v="consider place=hamlet" />
		<tag k="name" v="Vetle Grove" />
		<tag k="place" v="farm" />
		<tag k="ssr:stedsnr" v="688774" />
	</node>
	<node lat="60.805002777900924" lon="6.606427774194506" id="-36832">
		<tag k="historic" v="shieling" />
		<tag k="name" v="Lønastølane" />
		<tag k="place" v="isolated_dwelling" />
		<tag k="ssr:stedsnr" v="566276" />
	</node>
	<node lat="60.66057500261607" lon="6.453313896121755" id="-36844">
		<tag k="name" v="Nedre Dukstad" />
		<tag k="place" v="farm" />
		<tag k="ssr:stedsnr" v="566772" />
	</node>
	<node lat="60.62114166613564" lon="5.937905552214912" id="-36845">
		<tag k="historic" v="shieling" />
		<tag k="name" v="Ytstestølen" />
		<tag k="place" v="isolated_dwelling" />
		<tag k="ssr:stedsnr" v="566861" />
	</node>
	<node lat="60.63744880542152" lon="6.471114114177467" id="-36851">
		<tag k="name" v="Palmafossen" />
		<tag k="place" v="farm" />
		<tag k="ssr:stedsnr" v="567767" />
	</node>
	<node lat="60.45106389152382" lon="6.70742778349736" id="-36853">
		<tag k="historic" v="shieling" />
		<tag k="name" v="Vikastølen" />
		<tag k="place" v="isolated_dwelling" />
		<tag k="ssr:stedsnr" v="568226" />
	</node>
	<node lat="60.71394444773831" lon="6.485955558055449" id="-36890">
		<tag k="name" v="Telland" />
		<tag k="place" v="farm" />
		<tag k="ssr:stedsnr" v="591422" />
	</node>
	<node lat="60.62784444718486" lon="6.414855555429808" id="-36892">
		<tag k="name" v="Holbergsplassen" />
		<tag k="place" v="square" />
		<tag k="ssr:stedsnr" v="591520" />
	</node>
	<node lat="60.82795555857979" lon="6.563077775801761" id="-36897">
		<tag k="alt_name" v="Marsteinstølen" />
		<tag k="historic" v="shieling" />
		<tag k="name" v="Martheimstølen" />
		<tag k="place" v="isolated_dwelling" />
		<tag k="ssr:stedsnr" v="591773" />
	</node>
	<node lat="60.6373273213544" lon="5.8910726038852514" id="-36910">
		<tag k="fixme" v="consider place=hamlet" />
		<tag k="name" v="Tysso" />
		<tag k="place" v="farm" />
		<tag k="ssr:stedsnr" v="612129" />
	</node>
	<node lat="60.62700623621235" lon="6.3222724889160515" id="-36914">
		<tag k="fixme" v="consider place=hamlet" />
		<tag k="name" v="Veka" />
		<tag k="place" v="farm" />
		<tag k="ssr:stedsnr" v="612730" />
	</node>
	<node lat="60.62452982567948" lon="6.330597120096948" id="-36915">
		<tag k="fixme" v="consider place=hamlet" />
		<tag k="name" v="Djukastein" />
		<tag k="place" v="farm" />
		<tag k="ssr:stedsnr" v="612732" />
	</node>
	<node lat="60.62708233032423" lon="6.3824731266507815" id="-36916">
		<tag k="fixme" v="consider place=hamlet" />
		<tag k="name" v="Brekku" />
		<tag k="place" v="farm" />
		<tag k="ssr:stedsnr" v="612735" />
	</node>
	<node lat="60.533017351125004" lon="6.747783273426764" id="-36921">
		<tag k="fixme" v="consider place=hamlet" />
		<tag k="name" v="Tveito" />
		<tag k="place" v="farm" />
		<tag k="ssr:stedsnr" v="613061" />
	</node>
	<node lat="60.62305408212623" lon="5.961684954716105" id="-36924">
		<tag k="alt_name" v="Rasdalen, nedre" />
		<tag k="fixme" v="consider place=hamlet" />
		<tag k="name" v="Nedre Rasdalen" />
		<tag k="place" v="farm" />
		<tag k="ssr:stedsnr" v="613166" />
	</node>
	<node lat="60.68230766258299" lon="6.573824930211037" id="-36928">
		<tag k="fixme" v="consider place=hamlet" />
		<tag k="name" v="Brattåker" />
		<tag k="place" v="farm" />
		<tag k="ssr:stedsnr" v="613313" />
	</node>
	<node lat="60.69564550176564" lon="6.496122241815263" id="-36930">
		<tag k="fixme" v="consider place=hamlet" />
		<tag k="name" v="Nesheim" />
		<tag k="place" v="farm" />
		<tag k="ssr:stedsnr" v="613323" />
	</node>
	<node lat="60.642219340027495" lon="6.2383166238287115" id="-36931">
		<tag k="fixme" v="consider place=hamlet" />
		<tag k="name" v="Hovda" />
		<tag k="place" v="farm" />
		<tag k="ssr:stedsnr" v="613257" />
	</node>
	<node lat="60.66210555385634" lon="6.531224994987385" id="-36933">
		<tag k="fixme" v="consider place=hamlet" />
		<tag k="name" v="Kvarakvål" />
		<tag k="place" v="farm" />
		<tag k="ssr:stedsnr" v="613273" />
	</node>
	<node lat="60.551324928637385" lon="6.576035317803751" id="-36936">
		<tag k="historic" v="shieling" />
		<tag k="name" v="Skamdalen" />
		<tag k="place" v="isolated_dwelling" />
		<tag k="ssr:stedsnr" v="613608" />
	</node>
	<node lat="60.729878190360715" lon="6.4943772331475635" id="-36937">
		<tag k="fixme" v="consider place=hamlet" />
		<tag k="name" v="Gjøstein" />
		<tag k="place" v="farm" />
		<tag k="ssr:stedsnr" v="613359" />
	</node>
	<node lat="60.54340555359285" lon="6.5142305562572576" id="-36947">
		<tag k="historic" v="shieling" />
		<tag k="name" v="Veskre" />
		<tag k="place" v="isolated_dwelling" />
		<tag k="ssr:stedsnr" v="613597" />
	</node>
	<node lat="60.53848055706795" lon="6.570677786175549" id="-36948">
		<tag k="historic" v="shieling" />
		<tag k="name" v="Helgaset" />
		<tag k="place" v="isolated_dwelling" />
		<tag k="ssr:stedsnr" v="613598" />
	</node>
	<node lat="60.53423611511618" lon="6.693474996039545" id="-36963">
		<tag k="fixme" v="consider place=hamlet" />
		<tag k="name" v="Havås" />
		<tag k="place" v="farm" />
		<tag k="ssr:stedsnr" v="613790" />
	</node>
	<node lat="60.684865449380005" lon="6.672329005415234" id="-36966">
		<tag k="fixme" v="consider place=hamlet" />
		<tag k="name" v="Sygnaberde" />
		<tag k="place" v="farm" />
		<tag k="ssr:stedsnr" v="613952" />
	</node>
	<node lat="60.685008356608066" lon="6.676576187937672" id="-36967">
		<tag k="name" v="Øyjord" />
		<tag k="place" v="farm" />
		<tag k="ssr:stedsnr" v="613963" />
	</node>
	<node lat="60.806002491476" lon="6.637844069163474" id="-36976">
		<tag k="fixme" v="consider place=hamlet" />
		<tag k="name" v="Kvamme" />
		<tag k="place" v="farm" />
		<tag k="ssr:stedsnr" v="615753" />
	</node>
	<node lat="60.627108336017365" lon="6.399477777014808" id="-36982">
		<tag k="name" v="Svartenakken" />
		<tag k="place" v="farm" />
		<tag k="ssr:stedsnr" v="704229" />
	</node>
	<node lat="60.69124022581845" lon="6.469471380255302" id="-36997">
		<tag k="name" v="Vestre Løno" />
		<tag k="place" v="farm" />
		<tag k="ssr:stedsnr" v="627223" />
	</node>
	<node lat="60.7673750011534" lon="6.476080552210997" id="-36998">
		<tag k="fixme" v="consider place=hamlet" />
		<tag k="name" v="Øvre Meland" />
		<tag k="place" v="farm" />
		<tag k="ssr:stedsnr" v="627250" />
	</node>
	<node lat="60.70006602786462" lon="6.684827055919854" id="-37001">
		<tag k="historic" v="shieling" />
		<tag k="name" v="Sygnaberdsstølen" />
		<tag k="place" v="isolated_dwelling" />
		<tag k="ssr:stedsnr" v="627661" />
	</node>
	<node lat="60.5859399120594" lon="6.442780239313869" id="-37010">
		<tag k="name" v="Indre Tillung" />
		<tag k="place" v="farm" />
		<tag k="ssr:stedsnr" v="628008" />
	</node>
	<node lat="60.6473702417052" lon="6.517903227322192" id="-37011">
		<tag k="name" v="Ygre" />
		<tag k="place" v="farm" />
		<tag k="ssr:stedsnr" v="627795" />
	</node>
	<node lat="60.49451111384029" lon="6.639461117013683" id="-37019">
		<tag k="alt_name" v="Hessjiljane" />
		<tag k="name" v="Hesgiljane" />
		<tag k="place" v="farm" />
		<tag k="ssr:stedsnr" v="705866" />
	</node>
	<node lat="60.49520833147549" lon="6.651163894735102" id="-37049">
		<tag k="historic" v="shieling" />
		<tag k="name" v="Kleppe" />
		<tag k="place" v="isolated_dwelling" />
		<tag k="ssr:stedsnr" v="706753" />
	</node>
	<node lat="60.83060555818056" lon="6.629613889337488" id="-37059">
		<tag k="historic" v="shieling" />
		<tag k="name" v="Nyestølen" />
		<tag k="place" v="isolated_dwelling" />
		<tag k="ssr:stedsnr" v="651888" />
	</node>
	<node lat="60.666334862835875" lon="6.154172558563121" id="-37090">
		<tag k="historic" v="shieling" />
		<tag k="name" v="Muggåsstølen" />
		<tag k="place" v="isolated_dwelling" />
		<tag k="ssr:stedsnr" v="673014" />
	</node>
	<node lat="60.60395555205787" lon="6.147800004225601" id="-37094">
		<tag k="historic" v="shieling" />
		<tag k="name" v="Svangastølen" />
		<tag k="place" v="isolated_dwelling" />
		<tag k="ssr:stedsnr" v="673214" />
	</node>
	<node lat="60.63621971866996" lon="6.156361383527424" id="-37103">
		<tag k="fixme" v="consider place=hamlet" />
		<tag k="name" v="Solarås" />
		<tag k="place" v="farm" />
		<tag k="ssr:stedsnr" v="673173" />
	</node>
	<node lat="60.62446388648528" lon="6.263800004706492" id="-37108">
		<tag k="name" v="Skjeldehagen" />
		<tag k="place" v="farm" />
		<tag k="ssr:stedsnr" v="673710" />
	</node>
	<node lat="60.625947566445106" lon="6.3248408346189775" id="-37109">
		<tag k="fixme" v="consider place=hamlet" />
		<tag k="name" v="Bø" />
		<tag k="place" v="farm" />
		<tag k="ssr:stedsnr" v="673715" />
	</node>
	<node lat="60.51969999879585" lon="6.764552769456729" id="-37112">
		<tag k="historic" v="shieling" />
		<tag k="name" v="Stokksel" />
		<tag k="place" v="isolated_dwelling" />
		<tag k="ssr:stedsnr" v="674028" />
	</node>
	<node lat="60.52324721805345" lon="6.7161194383052525" id="-37114">
		<tag k="name" v="Eide" />
		<tag k="place" v="village" />
		<tag k="ssr:stedsnr" v="674036" />
	</node>
	<node lat="60.61381666858492" lon="6.632763890671521" id="-37115">
		<tag k="historic" v="shieling" />
		<tag k="name" v="Dalset" />
		<tag k="place" v="isolated_dwelling" />
		<tag k="ssr:stedsnr" v="673910" />
	</node>
	<node lat="60.65135000083794" lon="6.342402779777061" id="-37120">
		<tag k="historic" v="shieling" />
		<tag k="name" v="Nyaset" />
		<tag k="place" v="isolated_dwelling" />
		<tag k="ssr:stedsnr" v="674271" />
	</node>
	<node lat="60.66945843142116" lon="6.511643170414693" id="-37121">
		<tag k="name" v="Nedra Kyte" />
		<tag k="place" v="farm" />
		<tag k="ssr:stedsnr" v="674274" />
	</node>
	<node lat="60.70525423920145" lon="6.492116342074754" id="-37122">
		<tag k="fixme" v="consider place=hamlet" />
		<tag k="name" v="Grjotland" />
		<tag k="place" v="farm" />
		<tag k="ssr:stedsnr" v="674307" />
	</node>
	<node lat="60.70514166545597" lon="6.478194447255829" id="-37123">
		<tag k="fixme" v="consider place=hamlet" />
		<tag k="name" v="Høyland" />
		<tag k="place" v="farm" />
		<tag k="ssr:stedsnr" v="674313" />
	</node>
	<node lat="60.61496269436595" lon="6.439678714377596" id="-37130">
		<tag k="fixme" v="consider place=hamlet" />
		<tag k="name" v="Sonve" />
		<tag k="place" v="farm" />
		<tag k="ssr:stedsnr" v="674622" />
	</node>
	<node lat="60.591305903674744" lon="6.469674213182055" id="-37133">
		<tag k="fixme" v="consider place=hamlet" />
		<tag k="name" v="Litlere" />
		<tag k="place" v="farm" />
		<tag k="ssr:stedsnr" v="674661" />
	</node>
	<node lat="60.56155277994575" lon="6.242950004439684" id="-37135">
		<tag k="fixme" v="consider tourism=alpine_hut or tourism=chalet" />
		<tag k="name" v="Torfinnsheim" />
		<tag k="old_name" v="Torfinnsheim th" />
		<tag k="ssr:stedsnr" v="674563" />
		<tag k="tourism" v="wilderness_hut" />
	</node>
	<node lat="60.63450205872123" lon="6.3236976929289" id="-37139">
		<tag k="fixme" v="consider place=hamlet" />
		<tag k="name" v="Gjerme" />
		<tag k="place" v="farm" />
		<tag k="ssr:stedsnr" v="674708" />
	</node>
	<node lat="60.62185525253846" lon="6.540445173163179" id="-37140">
		<tag k="fixme" v="consider place=hamlet" />
		<tag k="name" v="Veiso" />
		<tag k="place" v="farm" />
		<tag k="ssr:stedsnr" v="674750" />
	</node>
	<node lat="60.55369999971687" lon="6.744930562390531" id="-37142">
		<tag k="fixme" v="consider place=hamlet" />
		<tag k="name" v="Velkje" />
		<tag k="place" v="farm" />
		<tag k="ssr:stedsnr" v="674772" />
	</node>
	<node lat="60.6664638921584" lon="6.774680550637666" id="-37145">
		<tag k="historic" v="shieling" />
		<tag k="name" v="Vetlaheggstølen" />
		<tag k="place" v="isolated_dwelling" />
		<tag k="ssr:stedsnr" v="674998" />
	</node>
	<node lat="60.56120555308555" lon="6.708299997396735" id="-37148">
		<tag k="fixme" v="consider place=hamlet" />
		<tag k="name" v="Nesheim" />
		<tag k="place" v="farm" />
		<tag k="ssr:stedsnr" v="674860" />
	</node>
	<node lat="60.82963055570345" lon="6.439472228871233" id="-37149">
		<tag k="name" v="Tveitastølen" />
		<tag k="place" v="farm" />
		<tag k="ssr:stedsnr" v="675520" />
	</node>
	<node lat="60.58547118927797" lon="6.461327176387836" id="-37151">
		<tag k="fixme" v="consider place=hamlet" />
		<tag k="name" v="Helland" />
		<tag k="place" v="farm" />
		<tag k="ssr:stedsnr" v="675693" />
	</node>
	<node lat="60.79231497933371" lon="6.6197352891337085" id="-37153">
		<tag k="fixme" v="consider place=hamlet" />
		<tag k="name" v="Selland" />
		<tag k="place" v="farm" />
		<tag k="ssr:stedsnr" v="675806" />
	</node>
	<node lat="60.58764999978999" lon="6.553288895823917" id="-37155">
		<tag k="name" v="Helgaset" />
		<tag k="place" v="farm" />
		<tag k="ssr:stedsnr" v="675706" />
	</node>
	<node lat="60.79741309393298" lon="6.548738597582052" id="-37158">
		<tag k="fixme" v="consider place=hamlet" />
		<tag k="name" v="Finne" />
		<tag k="place" v="farm" />
		<tag k="ssr:stedsnr" v="676538" />
	</node>
	<node lat="60.84456753674676" lon="6.469593580132488" id="-37160">
		<tag k="fixme" v="consider place=hamlet" />
		<tag k="name" v="Myrland" />
		<tag k="place" v="farm" />
		<tag k="ssr:stedsnr" v="676554" />
	</node>
	<node lat="60.85397500343235" lon="6.442002775549537" id="-37161">
		<tag k="historic" v="shieling" />
		<tag k="name" v="Myrkvesstølen" />
		<tag k="place" v="isolated_dwelling" />
		<tag k="ssr:stedsnr" v="676586" />
	</node>
	<node lat="60.847252778942455" lon="6.876838896765719" id="-37163">
		<tag k="historic" v="shieling" />
		<tag k="name" v="Fyresstølen" />
		<tag k="place" v="isolated_dwelling" />
		<tag k="ssr:stedsnr" v="676798" />
	</node>
	<node lat="60.69717499655783" lon="6.842547217747935" id="-37175">
		<tag k="historic" v="shieling" />
		<tag k="name" v="Klyvsstølen" />
		<tag k="place" v="isolated_dwelling" />
		<tag k="ssr:stedsnr" v="688653" />
	</node>
	<node lat="60.626233332453495" lon="5.939769437041539" id="-37177">
		<tag k="historic" v="shieling" />
		<tag k="name" v="Vetlestølen" />
		<tag k="place" v="isolated_dwelling" />
		<tag k="ssr:stedsnr" v="688842" />
	</node>
	<node lat="60.62467500378356" lon="5.9681777749432925" id="-37178">
		<tag k="historic" v="shieling" />
		<tag k="name" v="Mjølstølen" />
		<tag k="place" v="isolated_dwelling" />
		<tag k="ssr:stedsnr" v="688845" />
	</node>
	<node lat="60.60931010056357" lon="6.43380441264786" id="-37179">
		<tag k="fixme" v="consider place=hamlet" />
		<tag k="name" v="Store Rokne" />
		<tag k="place" v="farm" />
		<tag k="ssr:stedsnr" v="688812" />
	</node>
	<node lat="60.62843680490228" lon="6.507815411871277" id="-37184">
		<tag k="fixme" v="consider place=hamlet" />
		<tag k="name" v="Ytre Takla" />
		<tag k="place" v="farm" />
		<tag k="ssr:stedsnr" v="688794" />
	</node>
	<node lat="60.67725000119473" lon="6.755069449755018" id="-37192">
		<tag k="name" v="Hegg" />
		<tag k="place" v="farm" />
		<tag k="ssr:stedsnr" v="693589" />
	</node>
	<node lat="60.6190194403944" lon="6.482772223735295" id="-37227">
		<tag k="name" v="Kolltveit" />
		<tag k="place" v="farm" />
		<tag k="ssr:stedsnr" v="895576" />
	</node>
	<node lat="60.65764166878576" lon="6.486938887564851" id="-37234">
		<tag k="name" v="Øyjordi" />
		<tag k="place" v="farm" />
		<tag k="ssr:stedsnr" v="895687" />
	</node>
	<node lat="60.627725004338956" lon="6.4255972143029565" id="-37237">
		<tag k="name" v="Vadet" />
		<tag k="place" v="farm" />
		<tag k="ssr:stedsnr" v="895601" />
	</node>
	<node lat="60.56759166233098" lon="6.7432333328016965" id="-37262">
		<tag k="name" v="Allmenningane" />
		<tag k="place" v="locality" />
		<tag k="ssr:stedsnr" v="706763" />
	</node>
	<node lat="60.66430000410663" lon="6.564466666915911" id="-37269">
		<tag k="name" v="Mæringabrukane" />
		<tag k="place" v="farm" />
		<tag k="ssr:stedsnr" v="712290" />
	</node>
	<node lat="60.75887500236045" lon="6.5812500063232955" id="-37275">
		<tag k="historic" v="shieling" />
		<tag k="name" v="Markhusstølen" />
		<tag k="place" v="isolated_dwelling" />
		<tag k="ssr:stedsnr" v="712931" />
	</node>
	<node lat="60.682375000150685" lon="6.559427777257635" id="-37288">
		<tag k="historic" v="shieling" />
		<tag k="name" v="Klyvsstølen" />
		<tag k="place" v="isolated_dwelling" />
		<tag k="ssr:stedsnr" v="713404" />
	</node>
	<node lat="60.47955000200585" lon="6.626230555209453" id="-37310">
		<tag k="historic" v="shieling" />
		<tag k="name" v="Håli" />
		<tag k="place" v="isolated_dwelling" />
		<tag k="ssr:stedsnr" v="733389" />
	</node>
	<node lat="60.66338611393286" lon="6.116800004831957" id="-37311">
		<tag k="historic" v="shieling" />
		<tag k="name" v="Styvesstølen" />
		<tag k="place" v="isolated_dwelling" />
		<tag k="ssr:stedsnr" v="734037" />
	</node>
	<node lat="60.61336111187399" lon="5.939252779440222" id="-37317">
		<tag k="name" v="Mork" />
		<tag k="place" v="isolated_dwelling" />
		<tag k="ssr:stedsnr" v="734224" />
	</node>
	<node lat="60.6567666641266" lon="6.5624305482889635" id="-37321">
		<tag k="historic" v="shieling" />
		<tag k="name" v="Grettestølen" />
		<tag k="place" v="isolated_dwelling" />
		<tag k="ssr:stedsnr" v="734293" />
	</node>
	<node lat="60.633148429729005" lon="6.272983127200236" id="-37330">
		<tag k="fixme" v="consider place=hamlet" />
		<tag k="name" v="Haga" />
		<tag k="place" v="farm" />
		<tag k="ssr:stedsnr" v="734707" />
	</node>
	<node lat="60.636980962512574" lon="6.314444897770367" id="-37331">
		<tag k="fixme" v="consider place=hamlet" />
		<tag k="name" v="Sæve" />
		<tag k="place" v="farm" />
		<tag k="ssr:stedsnr" v="734710" />
	</node>
	<node lat="60.62672103347352" lon="6.37925641917557" id="-37334">
		<tag k="fixme" v="consider place=hamlet" />
		<tag k="name" v="Bauthus" />
		<tag k="place" v="farm" />
		<tag k="ssr:stedsnr" v="734726" />
	</node>
	<node lat="60.619369444183654" lon="6.640344439980319" id="-37335">
		<tag k="historic" v="shieling" />
		<tag k="name" v="Latebakken" />
		<tag k="place" v="isolated_dwelling" />
		<tag k="ssr:stedsnr" v="734894" />
	</node>
	<node lat="60.60815740642158" lon="6.400683775448308" id="-37340">
		<tag k="fixme" v="consider place=hamlet" />
		<tag k="name" v="Tyrlingen" />
		<tag k="place" v="farm" />
		<tag k="ssr:stedsnr" v="735612" />
	</node>
	<node lat="60.55109999988325" lon="6.456180552012685" id="-37343">
		<tag k="historic" v="shieling" />
		<tag k="name" v="Øvrestølen" />
		<tag k="place" v="isolated_dwelling" />
		<tag k="ssr:stedsnr" v="735585" />
	</node>
	<node lat="60.619009441626375" lon="6.543668221129591" id="-37347">
		<tag k="fixme" v="consider place=hamlet" />
		<tag k="name" v="Stuvarjo" />
		<tag k="place" v="farm" />
		<tag k="ssr:stedsnr" v="735728" />
	</node>
	<node lat="60.60830833412171" lon="6.343819441778865" id="-37348">
		<tag k="fixme" v="consider place=hamlet" />
		<tag k="name" v="Gossland" />
		<tag k="place" v="village" />
		<tag k="ssr:stedsnr" v="735735" />
	</node>
	<node lat="60.6200000034489" lon="6.559438897440903" id="-37349">
		<tag k="historic" v="shieling" />
		<tag k="name" v="Opelandsstølen" />
		<tag k="place" v="isolated_dwelling" />
		<tag k="ssr:stedsnr" v="735736" />
	</node>
	<node lat="60.56761666872423" lon="6.628005555915539" id="-37352">
		<tag k="historic" v="shieling" />
		<tag k="name" v="Lyklaset" />
		<tag k="place" v="isolated_dwelling" />
		<tag k="ssr:stedsnr" v="735806" />
	</node>
	<node lat="60.570283330540526" lon="6.697200007229196" id="-37354">
		<tag k="alt_name" v="Seim" />
		<tag k="fixme" v="consider place=hamlet" />
		<tag k="name" v="Nedre Seim" />
		<tag k="place" v="farm" />
		<tag k="ssr:stedsnr" v="735811" />
	</node>
	<node lat="60.57762777622528" lon="6.75065834194796" id="-37355">
		<tag k="name" v="Olavstølen" />
		<tag k="place" v="locality" />
		<tag k="ssr:stedsnr" v="735821" />
	</node>
	<node lat="60.5751662335742" lon="6.606252705890231" id="-37356">
		<tag k="fixme" v="consider place=hamlet" />
		<tag k="name" v="Bulko" />
		<tag k="place" v="farm" />
		<tag k="ssr:stedsnr" v="735827" />
	</node>
	<node lat="60.5799583309796" lon="6.676008335325965" id="-37357">
		<tag k="fixme" v="consider place=hamlet" />
		<tag k="name" v="Haugen" />
		<tag k="place" v="farm" />
		<tag k="ssr:stedsnr" v="735830" />
	</node>
	<node lat="60.67337211636357" lon="6.809403539262036" id="-37359">
		<tag k="fixme" v="consider place=hamlet" />
		<tag k="name" v="Eggjareir" />
		<tag k="place" v="farm" />
		<tag k="ssr:stedsnr" v="735990" />
	</node>
	<node lat="60.799171656483246" lon="6.454151124502383" id="-37366">
		<tag k="fixme" v="consider place=hamlet" />
		<tag k="name" v="Engjaland" />
		<tag k="place" v="farm" />
		<tag k="ssr:stedsnr" v="736518" />
	</node>
	<node lat="60.778500004378586" lon="6.453049993344387" id="-37371">
		<tag k="name" v="Tuftene" />
		<tag k="place" v="locality" />
		<tag k="ssr:stedsnr" v="736970" />
	</node>
	<node lat="60.76622959478305" lon="6.469794474452672" id="-37373">
		<tag k="fixme" v="consider place=hamlet" />
		<tag k="name" v="Holo" />
		<tag k="place" v="farm" />
		<tag k="ssr:stedsnr" v="737961" />
	</node>
	<node lat="60.61261784386837" lon="6.433665141087108" id="-37382">
		<tag k="fixme" v="consider place=hamlet" />
		<tag k="name" v="Litle Rokne" />
		<tag k="place" v="farm" />
		<tag k="ssr:stedsnr" v="748819" />
	</node>
	<node lat="60.569696287907604" lon="6.458009161448769" id="-37387">
		<tag k="name" v="Midtre Rjodo" />
		<tag k="place" v="farm" />
		<tag k="ssr:stedsnr" v="749003" />
	</node>
	<node lat="60.63007500034426" lon="6.3019500020158645" id="-37391">
		<tag k="name" v="Monsbakken" />
		<tag k="place" v="farm" />
		<tag k="ssr:stedsnr" v="749070" />
	</node>
	<node lat="60.72370277901645" lon="6.497886116066265" id="-37393">
		<tag k="name" v="Nedre Leidal" />
		<tag k="place" v="farm" />
		<tag k="ssr:stedsnr" v="749212" />
	</node>
	<node lat="60.64877669522633" lon="6.496796343783297" id="-37407">
		<tag k="fixme" v="consider place=hamlet" />
		<tag k="name" v="Tøn" />
		<tag k="place" v="farm" />
		<tag k="ssr:stedsnr" v="749808" />
	</node>
	<node lat="60.639294442759535" lon="6.474091671349818" id="-37408">
		<tag k="fixme" v="consider place=hamlet" />
		<tag k="name" v="Rykke" />
		<tag k="place" v="farm" />
		<tag k="ssr:stedsnr" v="749818" />
	</node>
	<node lat="60.63887222357891" lon="5.95818332892843" id="-37411">
		<tag k="fixme" v="consider place=hamlet" />
		<tag k="name" v="Bolstadøyri" />
		<tag k="place" v="village" />
		<tag k="ssr:stedsnr" v="752129" />
	</node>
	<node lat="60.45179999979614" lon="6.646333333780895" id="-37412">
		<tag k="historic" v="shieling" />
		<tag k="name" v="Mjøstølen" />
		<tag k="place" v="isolated_dwelling" />
		<tag k="ssr:stedsnr" v="766591" />
	</node>
	<node lat="60.59277499813612" lon="6.690969444297212" id="-37417">
		<tag k="historic" v="shieling" />
		<tag k="name" v="Nyatræet" />
		<tag k="place" v="isolated_dwelling" />
		<tag k="ssr:stedsnr" v="766853" />
	</node>
	<node lat="60.84223882328717" lon="6.703580000411318" id="-37429">
		<tag k="fixme" v="consider place=hamlet" />
		<tag k="name" v="Stalheimsøyane" />
		<tag k="place" v="farm" />
		<tag k="ssr:stedsnr" v="773169" />
	</node>
	<node lat="60.57800277580584" lon="6.435349993371507" id="-37431">
		<tag k="historic" v="shieling" />
		<tag k="name" v="Tillungstølen" />
		<tag k="place" v="isolated_dwelling" />
		<tag k="ssr:stedsnr" v="773523" />
	</node>
	<node lat="60.70685833377711" lon="6.471119440611155" id="-37434">
		<tag k="name" v="Slette" />
		<tag k="place" v="farm" />
		<tag k="ssr:stedsnr" v="773488" />
	</node>
	<node lat="60.55097372954322" lon="6.575160384963032" id="-37440">
		<tag k="historic" v="shieling" />
		<tag k="name" v="Skamdalen" />
		<tag k="place" v="isolated_dwelling" />
		<tag k="ssr:stedsnr" v="773921" />
	</node>
	<node lat="60.47321944747487" lon="6.778963887516403" id="-37458">
		<tag k="name" v="Nedre Kaland" />
		<tag k="place" v="farm" />
		<tag k="ssr:stedsnr" v="787994" />
	</node>
	<node lat="60.44943055544603" lon="6.727219444980918" id="-37464">
		<tag k="name" v="Åkre" />
		<tag k="place" v="farm" />
		<tag k="ssr:stedsnr" v="794304" />
	</node>
	<node lat="60.47132500193084" lon="6.609661119085528" id="-37466">
		<tag k="alt_name" v="Kvandal" />
		<tag k="fixme" v="consider place=hamlet" />
		<tag k="name" v="Kvanndal" />
		<tag k="place" v="farm" />
		<tag k="ssr:stedsnr" v="794409" />
	</node>
	<node lat="60.66687777662831" lon="6.1522805595875285" id="-37469">
		<tag k="historic" v="shieling" />
		<tag k="name" v="Elgestølen" />
		<tag k="place" v="isolated_dwelling" />
		<tag k="ssr:stedsnr" v="795015" />
	</node>
	<node lat="60.65777500443055" lon="6.268474998193036" id="-37472">
		<tag k="historic" v="shieling" />
		<tag k="name" v="Listred" />
		<tag k="place" v="isolated_dwelling" />
		<tag k="ssr:stedsnr" v="795315" />
	</node>
	<node lat="60.66480570599729" lon="6.337998866448377" id="-37474">
		<tag k="fixme" v="consider place=hamlet" />
		<tag k="name" v="Arhelleren" />
		<tag k="place" v="farm" />
		<tag k="ssr:stedsnr" v="795329" />
	</node>
	<node lat="60.69336110734248" lon="6.582708329760128" id="-37478">
		<tag k="name" v="Fagnastølen" />
		<tag k="place" v="farm" />
		<tag k="ssr:stedsnr" v="795362" />
	</node>
	<node lat="60.71082500281139" lon="6.005358331562078" id="-37481">
		<tag k="historic" v="shieling" />
		<tag k="name" v="Raudstølen" />
		<tag k="place" v="isolated_dwelling" />
		<tag k="ssr:stedsnr" v="795508" />
	</node>
	<node lat="60.635541247908066" lon="6.3281289913580805" id="-37486">
		<tag k="fixme" v="consider place=hamlet" />
		<tag k="name" v="Dolve" />
		<tag k="place" v="farm" />
		<tag k="ssr:stedsnr" v="795704" />
	</node>
	<node lat="60.644555558548774" lon="6.487049991155145" id="-37487">
		<tag k="fixme" v="consider place=hamlet" />
		<tag k="name" v="Tjukkebygdi" />
		<tag k="place" v="village" />
		<tag k="ssr:stedsnr" v="795709" />
	</node>
	<node lat="60.62753095228915" lon="6.310295883454932" id="-37488">
		<tag k="name" v="Rekve" />
		<tag k="place" v="hamlet" />
		<tag k="ssr:stedsnr" v="795721" />
	</node>
	<node lat="60.6290178782676" lon="6.381905577200762" id="-37490">
		<tag k="fixme" v="consider place=hamlet" />
		<tag k="name" v="Raudstad" />
		<tag k="place" v="farm" />
		<tag k="ssr:stedsnr" v="795727" />
	</node>
	<node lat="60.626527961842" lon="6.338180664641112" id="-37491">
		<tag k="fixme" v="consider place=hamlet" />
		<tag k="name" v="Yksnabjørg" />
		<tag k="place" v="farm" />
		<tag k="ssr:stedsnr" v="795731" />
	</node>
	<node lat="60.726900002161834" lon="6.01959999175875" id="-37495">
		<tag k="historic" v="shieling" />
		<tag k="name" v="Kringsdalen" />
		<tag k="place" v="isolated_dwelling" />
		<tag k="ssr:stedsnr" v="795472" />
	</node>
	<node lat="60.561544446248384" lon="6.433463891937507" id="-37497">
		<tag k="historic" v="shieling" />
		<tag k="name" v="Tesdalsstølen" />
		<tag k="place" v="isolated_dwelling" />
		<tag k="ssr:stedsnr" v="795621" />
	</node>
	<node lat="60.503894445775174" lon="6.613725008215454" id="-37502">
		<tag k="historic" v="shieling" />
		<tag k="name" v="Helgastøl" />
		<tag k="place" v="isolated_dwelling" />
		<tag k="ssr:stedsnr" v="796026" />
	</node>
	<node lat="60.58768055723456" lon="6.764713882207744" id="-37503">
		<tag k="historic" v="shieling" />
		<tag k="name" v="Olavstøl" />
		<tag k="place" v="isolated_dwelling" />
		<tag k="ssr:stedsnr" v="795919" />
	</node>
	<node lat="60.607090178515975" lon="6.407385198160701" id="-37507">
		<tag k="fixme" v="consider place=hamlet" />
		<tag k="name" v="Mølsterteigen" />
		<tag k="place" v="farm" />
		<tag k="ssr:stedsnr" v="796632" />
	</node>
	<node lat="60.70088610733108" lon="6.891591665878959" id="-37512">
		<tag k="name" v="Kårdal" />
		<tag k="place" v="farm" />
		<tag k="ssr:stedsnr" v="796959" />
	</node>
	<node lat="60.57734444026888" lon="6.674499999054145" id="-37515">
		<tag k="fixme" v="consider place=hamlet" />
		<tag k="name" v="Såkvitno" />
		<tag k="place" v="farm" />
		<tag k="ssr:stedsnr" v="796851" />
	</node>
	<node lat="60.84400833274026" lon="6.5061000009022285" id="-37517">
		<tag k="historic" v="shieling" />
		<tag k="name" v="Svoleset" />
		<tag k="place" v="isolated_dwelling" />
		<tag k="ssr:stedsnr" v="797550" />
	</node>
	<node lat="60.824344443414915" lon="6.480938880955504" id="-37519">
		<tag k="historic" v="shieling" />
		<tag k="name" v="Fossen" />
		<tag k="place" v="isolated_dwelling" />
		<tag k="ssr:stedsnr" v="797507" />
	</node>
	<node lat="60.80839444509556" lon="6.5175666648836605" id="-37523">
		<tag k="historic" v="shieling" />
		<tag k="name" v="Vinjahaugen" />
		<tag k="place" v="isolated_dwelling" />
		<tag k="ssr:stedsnr" v="797526" />
	</node>
	<node lat="60.754924997407855" lon="6.5617388902540155" id="-37529">
		<tag k="historic" v="shieling" />
		<tag k="name" v="Raunestølen" />
		<tag k="place" v="isolated_dwelling" />
		<tag k="ssr:stedsnr" v="797920" />
	</node>
	<node lat="60.90187777763919" lon="6.782624997527283" id="-37531">
		<tag k="historic" v="shieling" />
		<tag k="name" v="Busteinen" />
		<tag k="place" v="isolated_dwelling" />
		<tag k="ssr:stedsnr" v="797852" />
	</node>
	<node lat="60.49872338458779" lon="6.717740523371645" id="-37536">
		<tag k="historic" v="shieling" />
		<tag k="name" v="Bjørndalen" />
		<tag k="place" v="isolated_dwelling" />
		<tag k="ssr:stedsnr" v="915395" />
	</node>
	<node lat="60.623038887195825" lon="5.983338896579426" id="-37542">
		<tag k="name" v="Tuftene" />
		<tag k="place" v="farm" />
		<tag k="ssr:stedsnr" v="916185" />
	</node>
	<node lat="60.62254444333634" lon="6.018908326596652" id="-37543">
		<tag k="historic" v="shieling" />
		<tag k="name" v="Vetlevikstølen" />
		<tag k="place" v="isolated_dwelling" />
		<tag k="ssr:stedsnr" v="916189" />
	</node>
	<node lat="60.666902782106646" lon="6.579772228514947" id="-37544">
		<tag k="historic" v="shieling" />
		<tag k="name" v="Nye Meringastølen" />
		<tag k="place" v="isolated_dwelling" />
		<tag k="ssr:stedsnr" v="916283" />
	</node>
	<node lat="60.58780000019872" lon="6.6490000042635" id="-37546">
		<tag k="alt_name" v="Jøre" />
		<tag k="fixme" v="consider place=hamlet" />
		<tag k="name" v="Jørdre" />
		<tag k="place" v="farm" />
		<tag k="ssr:stedsnr" v="916924" />
	</node>
	<node lat="60.58888610837369" lon="6.786361120340702" id="-37547">
		<tag k="historic" v="shieling" />
		<tag k="name" v="Liasete" />
		<tag k="place" v="isolated_dwelling" />
		<tag k="ssr:stedsnr" v="916933" />
	</node>
	<node lat="60.69868904799179" lon="6.576313156908733" id="-37555">
		<tag k="fixme" v="consider place=hamlet" />
		<tag k="name" v="Kvitno" />
		<tag k="place" v="farm" />
		<tag k="ssr:stedsnr" v="916339" />
	</node>
	<node lat="60.65663055234243" lon="6.432416669907187" id="-37559">
		<tag k="fixme" v="consider place=hamlet" />
		<tag k="name" v="Borstrondi" />
		<tag k="place" v="village" />
		<tag k="ssr:stedsnr" v="916297" />
	</node>
	<node lat="60.734870242784545" lon="6.142357678900666" id="-37560">
		<tag k="fixme" v="consider place=hamlet" />
		<tag k="name" v="Brekkhus" />
		<tag k="place" v="farm" />
		<tag k="ssr:stedsnr" v="916400" />
	</node>
	<node lat="60.60415277422951" lon="6.675766672611685" id="-37563">
		<tag k="historic" v="shieling" />
		<tag k="name" v="Fogerlii" />
		<tag k="place" v="isolated_dwelling" />
		<tag k="ssr:stedsnr" v="916888" />
	</node>
	<node lat="60.65959402756189" lon="5.995374193636415" id="-37574">
		<tag k="fixme" v="consider place=hamlet" />
		<tag k="name" v="Rørgo" />
		<tag k="place" v="farm" />
		<tag k="ssr:stedsnr" v="917031" />
	</node>
	<node lat="60.592741664684056" lon="6.3720833310129175" id="-37576">
		<tag k="historic" v="shieling" />
		<tag k="name" v="Smågiljane" />
		<tag k="place" v="isolated_dwelling" />
		<tag k="ssr:stedsnr" v="917633" />
	</node>
	<node lat="60.64143620029927" lon="6.488240506989567" id="-37578">
		<tag k="name" v="Bø" />
		<tag k="place" v="farm" />
		<tag k="ssr:stedsnr" v="917684" />
	</node>
	<node lat="60.61630325577473" lon="6.31451817605039" id="-37579">
		<tag k="fixme" v="consider place=hamlet" />
		<tag k="name" v="Dagestad" />
		<tag k="place" v="farm" />
		<tag k="ssr:stedsnr" v="917714" />
	</node>
	<node lat="60.65596666894545" lon="6.426608339884478" id="-37580">
		<tag k="name" v="Bavallen" />
		<tag k="place" v="farm" />
		<tag k="ssr:stedsnr" v="917232" />
	</node>
	<node lat="60.613280198996776" lon="6.580268100372798" id="-37586">
		<tag k="fixme" v="consider place=hamlet" />
		<tag k="name" v="Hildestveiti" />
		<tag k="place" v="farm" />
		<tag k="ssr:stedsnr" v="917603" />
	</node>
	<node lat="60.77312222552143" lon="6.565672220732337" id="-37591">
		<tag k="name" v="Holsane" />
		<tag k="place" v="farm" />
		<tag k="ssr:stedsnr" v="809240" />
	</node>
	<node lat="60.54927878357555" lon="6.727477607411523" id="-37594">
		<tag k="name" v="Tveiti" />
		<tag k="place" v="locality" />
		<tag k="ssr:stedsnr" v="917744" />
	</node>
	<node lat="60.682188839632076" lon="6.62239360044841" id="-37603">
		<tag k="fixme" v="consider place=hamlet" />
		<tag k="name" v="Bø" />
		<tag k="place" v="farm" />
		<tag k="ssr:stedsnr" v="917930" />
	</node>
	<node lat="60.644122226194874" lon="6.602299995929508" id="-37620">
		<tag k="historic" v="shieling" />
		<tag k="name" v="Nyestølen" />
		<tag k="place" v="isolated_dwelling" />
		<tag k="ssr:stedsnr" v="917979" />
	</node>
	<node lat="60.67157500389245" lon="6.814352782753512" id="-37622">
		<tag k="historic" v="shieling" />
		<tag k="name" v="Nordheimsstølen" />
		<tag k="place" v="isolated_dwelling" />
		<tag k="ssr:stedsnr" v="917995" />
	</node>
	<node lat="60.8279101211273" lon="6.440046005031493" id="-37631">
		<tag k="fixme" v="consider place=hamlet" />
		<tag k="name" v="Tveito" />
		<tag k="place" v="farm" />
		<tag k="ssr:stedsnr" v="918557" />
	</node>
	<node lat="60.81656781528926" lon="6.469590471444593" id="-37633">
		<tag k="fixme" v="consider place=hamlet" />
		<tag k="name" v="Nesheim" />
		<tag k="place" v="farm" />
		<tag k="ssr:stedsnr" v="918568" />
	</node>
	<node lat="60.88138610689874" lon="6.340425000161066" id="-37636">
		<tag k="historic" v="shieling" />
		<tag k="name" v="Skjervheims-Grøndalen" />
		<tag k="place" v="isolated_dwelling" />
		<tag k="ssr:stedsnr" v="918634" />
	</node>
	<node lat="60.78868332996004" lon="6.622194435845792" id="-37638">
		<tag k="historic" v="shieling" />
		<tag k="name" v="Vetlestølen" />
		<tag k="place" v="isolated_dwelling" />
		<tag k="ssr:stedsnr" v="918806" />
	</node>
	<node lat="60.79706667115597" lon="6.5477444531234505" id="-37641">
		<tag k="name" v="Vinjahagen" />
		<tag k="place" v="farm" />
		<tag k="ssr:stedsnr" v="918995" />
	</node>
	<node lat="60.84416111426379" lon="6.718475002542573" id="-37648">
		<tag k="name" v="Stalheimsøyni" />
		<tag k="place" v="isolated_dwelling" />
		<tag k="ssr:stedsnr" v="919777" />
	</node>
	<node lat="60.7850878014955" lon="6.479649995863584" id="-37653">
		<tag k="fixme" v="consider place=hamlet" />
		<tag k="name" v="Herheim" />
		<tag k="place" v="farm" />
		<tag k="ssr:stedsnr" v="919965" />
	</node>
	<node lat="60.5729561356777" lon="6.80370317024404" id="-37667">
		<tag k="name" v="Hausnestuftene" />
		<tag k="place" v="locality" />
		<tag k="ssr:stedsnr" v="972328" />
	</node>
	<node lat="60.47231666369723" lon="6.408249994218013" id="-37675">
		<tag k="name" v="Reinsdyrhytta" />
		<tag k="place" v="isolated_dwelling" />
		<tag k="ssr:stedsnr" v="855220" />
	</node>
	<node lat="60.589122217847816" lon="6.6977055497980755" id="-37678">
		<tag k="historic" v="shieling" />
		<tag k="name" v="Dale" />
		<tag k="place" v="isolated_dwelling" />
		<tag k="ssr:stedsnr" v="855909" />
	</node>
	<node lat="60.63794999942861" lon="6.1731277860929055" id="-37682">
		<tag k="name" v="Geitle" />
		<tag k="place" v="farm" />
		<tag k="ssr:stedsnr" v="856104" />
	</node>
	<node lat="60.640433331010655" lon="5.972152781565358" id="-37683">
		<tag k="name" v="Strandi" />
		<tag k="place" v="farm" />
		<tag k="ssr:stedsnr" v="856119" />
	</node>
	<node lat="60.62646944513846" lon="6.11643889572049" id="-37686">
		<tag k="historic" v="shieling" />
		<tag k="name" v="Mykkeltveitstølen" />
		<tag k="place" v="isolated_dwelling" />
		<tag k="ssr:stedsnr" v="856194" />
	</node>
	<node lat="60.66610823610414" lon="6.432075213643748" id="-37687">
		<tag k="fixme" v="consider place=hamlet" />
		<tag k="name" v="Flatekvål" />
		<tag k="place" v="farm" />
		<tag k="ssr:stedsnr" v="856309" />
	</node>
	<node lat="60.63513610931553" lon="5.868016658729646" id="-37691">
		<tag k="name" v="Hermundsdalsfeti" />
		<tag k="place" v="locality" />
		<tag k="ssr:stedsnr" v="856095" />
	</node>
	<node lat="60.57849999932565" lon="6.216233340773006" id="-37693">
		<tag k="historic" v="shieling" />
		<tag k="name" v="Flataøyni" />
		<tag k="place" v="isolated_dwelling" />
		<tag k="ssr:stedsnr" v="856240" />
	</node>
	<node lat="60.64628765178303" lon="6.26518094241225" id="-37694">
		<tag k="fixme" v="consider place=hamlet" />
		<tag k="name" v="Bergslia" />
		<tag k="place" v="farm" />
		<tag k="ssr:stedsnr" v="856284" />
	</node>
	<node lat="60.65778622943322" lon="6.437598774548007" id="-37695">
		<tag k="fixme" v="consider place=hamlet" />
		<tag k="name" v="Skulestad" />
		<tag k="place" v="farm" />
		<tag k="ssr:stedsnr" v="856290" />
	</node>
	<node lat="60.72941388823765" lon="6.523008327853778" id="-37701">
		<tag k="historic" v="shieling" />
		<tag k="name" v="Gilset" />
		<tag k="place" v="isolated_dwelling" />
		<tag k="ssr:stedsnr" v="856394" />
	</node>
	<node lat="60.714327773482594" lon="6.653880555484702" id="-37705">
		<tag k="historic" v="shieling" />
		<tag k="name" v="Jonsstølen" />
		<tag k="place" v="isolated_dwelling" />
		<tag k="ssr:stedsnr" v="856597" />
	</node>
	<node lat="60.63735561877868" lon="6.229490619969539" id="-37706">
		<tag k="fixme" v="consider place=hamlet" />
		<tag k="name" v="Eide" />
		<tag k="place" v="farm" />
		<tag k="ssr:stedsnr" v="856703" />
	</node>
	<node lat="60.6184462088494" lon="6.2912268606598944" id="-37707">
		<tag k="fixme" v="consider place=hamlet" />
		<tag k="name" v="Mosafinn" />
		<tag k="place" v="farm" />
		<tag k="ssr:stedsnr" v="856737" />
	</node>
	<node lat="60.52168611544487" lon="6.722047213732967" id="-37713">
		<tag k="alt_name" v="Ravnestrand;Røynstrond" />
		<tag k="name" v="Røynstrand" />
		<tag k="place" v="hamlet" />
		<tag k="ssr:stedsnr" v="857039" />
	</node>
	<node lat="60.51478055358629" lon="6.558572218916567" id="-37717">
		<tag k="historic" v="shieling" />
		<tag k="name" v="Allmenningane" />
		<tag k="place" v="isolated_dwelling" />
		<tag k="ssr:stedsnr" v="857532" />
	</node>
	<node lat="60.58835833349939" lon="6.590219451487035" id="-37722">
		<tag k="historic" v="shieling" />
		<tag k="name" v="Vindberg" />
		<tag k="place" v="isolated_dwelling" />
		<tag k="ssr:stedsnr" v="857682" />
	</node>
	<node lat="60.570183330814274" lon="6.688263884225236" id="-37723">
		<tag k="name" v="Moen" />
		<tag k="place" v="farm" />
		<tag k="ssr:stedsnr" v="857807" />
	</node>
	<node lat="60.69415494086437" lon="6.863017147092995" id="-37724">
		<tag k="fixme" v="consider place=hamlet" />
		<tag k="name" v="Hellene" />
		<tag k="place" v="farm" />
		<tag k="ssr:stedsnr" v="857930" />
	</node>
	<node lat="60.656430553423384" lon="6.6992666749430105" id="-37725">
		<tag k="historic" v="shieling" />
		<tag k="name" v="Horndalen" />
		<tag k="place" v="isolated_dwelling" />
		<tag k="ssr:stedsnr" v="857972" />
	</node>
	<node lat="60.663099998791516" lon="6.6832138809996" id="-37728">
		<tag k="historic" v="shieling" />
		<tag k="name" v="Bjørnset" />
		<tag k="place" v="isolated_dwelling" />
		<tag k="ssr:stedsnr" v="858000" />
	</node>
	<node lat="60.84152777693903" lon="6.697299996718214" id="-37734">
		<tag k="name" v="Sivlesøyni" />
		<tag k="place" v="farm" />
		<tag k="ssr:stedsnr" v="858823" />
	</node>
	<node lat="60.83626388835447" lon="6.679897231160653" id="-37735">
		<tag k="name" v="Stalheim" />
		<tag k="place" v="hamlet" />
		<tag k="ssr:stedsnr" v="858830" />
	</node>
	<node lat="60.794243518989916" lon="6.5745504561084696" id="-37738">
		<tag k="name" v="Oppheim" />
		<tag k="place" v="hamlet" />
		<tag k="ssr:stedsnr" v="858987" />
	</node>
	<node lat="60.7917111112931" lon="6.610497221043296" id="-37740">
		<tag k="name" v="Haugen" />
		<tag k="place" v="farm" />
		<tag k="ssr:stedsnr" v="870170" />
	</node>
	<node lat="60.61825432471042" lon="6.544243630301044" id="-37755">
		<tag k="name" v="Litle Stuvarjo" />
		<tag k="place" v="farm" />
		<tag k="ssr:stedsnr" v="870787" />
	</node>
	<node lat="60.6474472214472" lon="5.973930554223437" id="-37761">
		<tag k="fixme" v="consider place=hamlet" />
		<tag k="name" v="Rongo" />
		<tag k="place" v="farm" />
		<tag k="ssr:stedsnr" v="870663" />
	</node>
	<node lat="60.5960664590984" lon="6.452396593773287" id="-37764">
		<tag k="name" v="Himle" />
		<tag k="place" v="farm" />
		<tag k="ssr:stedsnr" v="870806" />
	</node>
	<node lat="60.64791944453887" lon="6.2450166631458055" id="-37776">
		<tag k="historic" v="shieling" />
		<tag k="name" v="Lissheims-Vetlestølen" />
		<tag k="place" v="isolated_dwelling" />
		<tag k="ssr:stedsnr" v="931020" />
	</node>
	<node lat="60.64035277519181" lon="6.300327775142028" id="-37781">
		<tag k="historic" v="shieling" />
		<tag k="name" v="Vetlestølen" />
		<tag k="place" v="isolated_dwelling" />
		<tag k="ssr:stedsnr" v="931072" />
	</node>
	<node lat="60.635311115379714" lon="6.335758337062768" id="-37783">
		<tag k="name" v="Rudningen" />
		<tag k="place" v="farm" />
		<tag k="ssr:stedsnr" v="931077" />
	</node>
	<node lat="60.81375555673039" lon="6.491058336606355" id="-37797">
		<tag k="historic" v="shieling" />
		<tag k="name" v="Nedste Ulvundsstølen" />
		<tag k="place" v="isolated_dwelling" />
		<tag k="ssr:stedsnr" v="931343" />
	</node>
	<node lat="60.671188887672386" lon="6.076786114154509" id="-37820">
		<tag k="historic" v="shieling" />
		<tag k="name" v="Øyjordi" />
		<tag k="place" v="isolated_dwelling" />
		<tag k="ssr:stedsnr" v="931721" />
	</node>
	<node lat="60.552650004013586" lon="6.635119448802751" id="-37825">
		<tag k="historic" v="shieling" />
		<tag k="name" v="Horgastølen" />
		<tag k="place" v="isolated_dwelling" />
		<tag k="ssr:stedsnr" v="932131" />
	</node>
	<node lat="60.56177222458406" lon="6.2424694369249805" id="-37844">
		<tag k="name" v="Torfinnsheimen" />
		<tag k="place" v="farm" />
		<tag k="ssr:stedsnr" v="894969" />
	</node>
	<node lat="60.682002779201426" lon="6.617175008218695" id="-37851">
		<tag k="name" v="Ljostreet" />
		<tag k="place" v="farm" />
		<tag k="ssr:stedsnr" v="895317" />
	</node>
	<node lat="60.627313891040124" lon="6.415361115821444" id="-37852">
		<tag k="name" v="Prestegardslandet" />
		<tag k="place" v="farm" />
		<tag k="ssr:stedsnr" v="895507" />
	</node>
	<node lat="60.46953333625902" lon="6.748991663582546" id="-37873">
		<tag k="alt_name" v="Kalhagen" />
		<tag k="name" v="Kalvhagen" />
		<tag k="place" v="farm" />
		<tag k="ssr:stedsnr" v="915406" />
	</node>
	<node lat="60.47353439421952" lon="6.77532728199352" id="-37874">
		<tag k="name" v="Kaland" />
		<tag k="place" v="farm" />
		<tag k="ssr:stedsnr" v="915407" />
	</node>
	<node lat="60.64071018374624" lon="6.03732593021743" id="-37878">
		<tag k="fixme" v="consider place=hamlet" />
		<tag k="name" v="Storevikane" />
		<tag k="place" v="farm" />
		<tag k="ssr:stedsnr" v="916125" />
	</node>
	<node lat="60.67472497974138" lon="6.4483521468157" id="-37884">
		<tag k="name" v="Nordrekvål" />
		<tag k="place" v="farm" />
		<tag k="ssr:stedsnr" v="916326" />
	</node>
	<node lat="60.68598610715703" lon="6.448591663089439" id="-37885">
		<tag k="historic" v="shieling" />
		<tag k="name" v="Rot" />
		<tag k="place" v="isolated_dwelling" />
		<tag k="ssr:stedsnr" v="916330" />
	</node>
	<node lat="60.74644314666664" lon="6.5146433988093655" id="-37887">
		<tag k="fixme" v="multiple name tags, choose one and add the other to alt_name" />
		<tag k="historic" v="shieling" />
		<tag k="loc_name" v="Helset;Skorset" />
		<tag k="name" v="Leidalsstølen;Skårset" />
		<tag k="place" v="isolated_dwelling" />
		<tag k="ssr:stedsnr" v="916384" />
	</node>
	<node lat="60.74800277435558" lon="6.5638777855557136" id="-37888">
		<tag k="historic" v="shieling" />
		<tag k="name" v="Langedalsstølen" />
		<tag k="place" v="isolated_dwelling" />
		<tag k="ssr:stedsnr" v="916385" />
	</node>
	<node lat="60.64147801383021" lon="6.232398948351136" id="-37903">
		<tag k="fixme" v="consider place=hamlet" />
		<tag k="name" v="Vestrheim" />
		<tag k="place" v="farm" />
		<tag k="ssr:stedsnr" v="917219" />
	</node>
	<node lat="60.639559349290835" lon="6.247420416760177" id="-37904">
		<tag k="fixme" v="consider place=hamlet" />
		<tag k="name" v="Berge" />
		<tag k="place" v="farm" />
		<tag k="ssr:stedsnr" v="917225" />
	</node>
	<node lat="60.6162686410321" lon="6.527907369959753" id="-37908">
		<tag k="fixme" v="consider place=hamlet" />
		<tag k="name" v="Bjørgo" />
		<tag k="place" v="farm" />
		<tag k="ssr:stedsnr" v="917609" />
	</node>
	<node lat="60.60084460068794" lon="6.431718030900277" id="-37909">
		<tag k="fixme" v="consider place=hamlet" />
		<tag k="name" v="Tveito" />
		<tag k="place" v="farm" />
		<tag k="ssr:stedsnr" v="917615" />
	</node>
	<node lat="60.697799997921" lon="6.69075833034508" id="-37911">
		<tag k="historic" v="shieling" />
		<tag k="name" v="Vatnaset" />
		<tag k="place" v="isolated_dwelling" />
		<tag k="ssr:stedsnr" v="917527" />
	</node>
	<node lat="60.578894441019465" lon="6.539291666996861" id="-37914">
		<tag k="historic" v="shieling" />
		<tag k="name" v="Håset" />
		<tag k="place" v="isolated_dwelling" />
		<tag k="ssr:stedsnr" v="917555" />
	</node>
	<node lat="60.55583610806985" lon="6.278702776698977" id="-37916">
		<tag k="name" v="Grøno" />
		<tag k="place" v="isolated_dwelling" />
		<tag k="ssr:stedsnr" v="917566" />
	</node>
	<node lat="60.5575143752528" lon="6.582074199275071" id="-37920">
		<tag k="fixme" v="consider place=hamlet" />
		<tag k="name" v="Grønlii" />
		<tag k="place" v="farm" />
		<tag k="ssr:stedsnr" v="917585" />
	</node>
	<node lat="60.574325544364285" lon="6.690901364726114" id="-37923">
		<tag k="name" v="Seim" />
		<tag k="place" v="hamlet" />
		<tag k="ssr:stedsnr" v="917817" />
	</node>
	<node lat="60.84323197751848" lon="6.465401110973572" id="-37927">
		<tag k="name" v="Hyrt" />
		<tag k="place" v="hamlet" />
		<tag k="ssr:stedsnr" v="919545" />
	</node>
	<node lat="60.80685209643535" lon="6.641635957725831" id="-37929">
		<tag k="fixme" v="consider place=hamlet" />
		<tag k="name" v="Rygg" />
		<tag k="place" v="farm" />
		<tag k="ssr:stedsnr" v="919743" />
	</node>
	<node lat="60.80227421464445" lon="6.614424544463594" id="-37930">
		<tag k="fixme" v="consider place=hamlet" />
		<tag k="name" v="Løn" />
		<tag k="place" v="farm" />
		<tag k="ssr:stedsnr" v="919744" />
	</node>
	<node lat="60.87775832982546" lon="6.721311107778122" id="-37932">
		<tag k="name" v="Jordalen" />
		<tag k="place" v="hamlet" />
		<tag k="ssr:stedsnr" v="919829" />
	</node>
	<node lat="60.60976388725184" lon="6.275722215477476" id="-37936">
		<tag k="historic" v="shieling" />
		<tag k="name" v="Småstølane" />
		<tag k="place" v="isolated_dwelling" />
		<tag k="ssr:stedsnr" v="931041" />
	</node>
	<node lat="60.76874721945507" lon="6.474116672058797" id="-37947">
		<tag k="fixme" v="consider place=hamlet" />
		<tag k="name" v="Hydningen" />
		<tag k="place" v="farm" />
		<tag k="ssr:stedsnr" v="931195" />
	</node>
	<node lat="60.66943554125201" lon="6.509987545994758" id="-37950">
		<tag k="name" v="Nedra Kyte" />
		<tag k="place" v="farm" />
		<tag k="ssr:stedsnr" v="931569" />
	</node>
	<node lat="60.62605243413778" lon="6.442103215536503" id="-37951">
		<tag k="fixme" v="consider place=hamlet" />
		<tag k="name" v="Indre Haugo" />
		<tag k="place" v="farm" />
		<tag k="ssr:stedsnr" v="931570" />
	</node>
	<node lat="60.70821666842556" lon="6.594366668318859" id="-37953">
		<tag k="historic" v="shieling" />
		<tag k="name" v="Furteset" />
		<tag k="place" v="isolated_dwelling" />
		<tag k="ssr:stedsnr" v="931639" />
	</node>
	<node lat="60.712100004486835" lon="6.610575003669803" id="-37954">
		<tag k="historic" v="shieling" />
		<tag k="name" v="Breiset" />
		<tag k="place" v="isolated_dwelling" />
		<tag k="ssr:stedsnr" v="931645" />
	</node>
	<node lat="60.628626380603194" lon="6.510615585664624" id="-37958">
		<tag k="fixme" v="consider place=hamlet" />
		<tag k="name" v="Indre Takla" />
		<tag k="place" v="farm" />
		<tag k="ssr:stedsnr" v="931816" />
	</node>
	<node lat="60.66936111433535" lon="6.509633338911785" id="-37960">
		<tag k="name" v="Nedre Kyte" />
		<tag k="place" v="farm" />
		<tag k="ssr:stedsnr" v="931795" />
	</node>
	<node lat="60.573812333503064" lon="6.459798533720181" id="-37971">
		<tag k="name" v="Nedre Rjodo" />
		<tag k="place" v="farm" />
		<tag k="ssr:stedsnr" v="932015" />
	</node>
	<node lat="60.4694249986965" lon="6.606263882844334" id="-37982">
		<tag k="name" v="Sanden" />
		<tag k="place" v="farm" />
		<tag k="ssr:stedsnr" v="954195" />
	</node>
	<node lat="60.63950555265007" lon="6.534855561018136" id="-37987">
		<tag k="name" v="Bjørkehagen" />
		<tag k="place" v="farm" />
		<tag k="ssr:stedsnr" v="955158" />
	</node>
	<node lat="60.653922222315956" lon="6.572108336159725" id="-37988">
		<tag k="historic" v="shieling" />
		<tag k="name" v="Gjøtveit" />
		<tag k="place" v="isolated_dwelling" />
		<tag k="ssr:stedsnr" v="955346" />
	</node>
	<node lat="60.48683099743648" lon="6.5295655687585965" id="-38012">
		<tag k="historic" v="shieling" />
		<tag k="name" v="Herdabreidstølen" />
		<tag k="place" v="isolated_dwelling" />
		<tag k="ssr:stedsnr" v="983482" />
	</node>
	<node lat="60.52400169973087" lon="6.725478805729218" id="-38013">
		<tag k="fixme" v="consider place=hamlet" />
		<tag k="name" v="Øvre Røynstrand" />
		<tag k="place" v="farm" />
		<tag k="ssr:stedsnr" v="987779" />
	</node>
	<node lat="60.57625866430275" lon="6.6874157749992325" id="-38014">
		<tag k="fixme" v="consider place=hamlet" />
		<tag k="name" v="Øvre Seim" />
		<tag k="place" v="farm" />
		<tag k="ssr:stedsnr" v="987780" />
	</node>
	<node lat="60.679819500787524" lon="6.5850798951760465" id="-38016">
		<tag k="fixme" v="consider place=hamlet" />
		<tag k="name" v="Lassehaug" />
		<tag k="place" v="farm" />
		<tag k="ssr:stedsnr" v="989085" />
	</node>
	<node lat="60.67969593950936" lon="6.603757298990363" id="-38017">
		<tag k="fixme" v="consider place=hamlet" />
		<tag k="name" v="Kolvelien" />
		<tag k="place" v="farm" />
		<tag k="ssr:stedsnr" v="989086" />
	</node>
	<node lat="60.68378259670981" lon="6.6769128194142535" id="-38018">
		<tag k="name" v="Skiple" />
		<tag k="place" v="hamlet" />
		<tag k="ssr:stedsnr" v="989087" />
	</node>
	<node lat="60.67500486043017" lon="6.757266441174067" id="-38019">
		<tag k="name" v="Hegg" />
		<tag k="place" v="hamlet" />
		<tag k="ssr:stedsnr" v="989088" />
	</node>
	<node lat="60.68720707497339" lon="6.8142356762480185" id="-38020">
		<tag k="fixme" v="consider place=hamlet" />
		<tag k="name" v="Nygryten" />
		<tag k="place" v="farm" />
		<tag k="ssr:stedsnr" v="989089" />
	</node>
	<node lat="60.79639309043566" lon="6.552583388825824" id="-38021">
		<tag k="name" v="Bidne" />
		<tag k="place" v="hamlet" />
		<tag k="ssr:stedsnr" v="989269" />
	</node>
	<node lat="60.66020054815933" lon="6.432585447667778" id="-38028">
		<tag k="fixme" v="consider place=hamlet" />
		<tag k="name" v="Fitjo" />
		<tag k="place" v="farm" />
		<tag k="ssr:stedsnr" v="6300" />
	</node>
	<node lat="60.52406666258736" lon="6.719313884871577" id="-38029">
		<tag k="fixme" v="consider place=hamlet" />
		<tag k="name" v="Granvin" />
		<tag k="place" v="village" />
		<tag k="ssr:stedsnr" v="7070" />
	</node>
	<node lat="60.64913610744285" lon="6.007905547062624" id="-38036">
		<tag k="name" v="Sanden" />
		<tag k="place" v="isolated_dwelling" />
		<tag k="ssr:stedsnr" v="6076" />
	</node>
	<node lat="60.62168957358681" lon="6.188851933455513" id="-38046">
		<tag k="fixme" v="consider place=hamlet" />
		<tag k="name" v="Skylje" />
		<tag k="place" v="farm" />
		<tag k="ssr:stedsnr" v="6140" />
	</node>
	<node lat="60.60509999772708" lon="6.18271110610703" id="-38052">
		<tag k="name" v="Brattabø" />
		<tag k="place" v="farm" />
		<tag k="ssr:stedsnr" v="6208" />
	</node>
	<node lat="60.71467777997599" lon="6.4650888955722765" id="-38058">
		<tag k="historic" v="shieling" />
		<tag k="name" v="Afdalsstølen" />
		<tag k="place" v="isolated_dwelling" />
		<tag k="ssr:stedsnr" v="6367" />
	</node>
	<node lat="60.730761108397154" lon="6.227491674965715" id="-38062">
		<tag k="historic" v="shieling" />
		<tag k="name" v="Kolls-Fannadalen" />
		<tag k="place" v="isolated_dwelling" />
		<tag k="ssr:stedsnr" v="6390" />
	</node>
	<node lat="60.700700002371214" lon="6.574130550464667" id="-38068">
		<tag k="historic" v="shieling" />
		<tag k="name" v="Grauastølen" />
		<tag k="place" v="isolated_dwelling" />
		<tag k="ssr:stedsnr" v="6343" />
	</node>
	<node lat="60.60059999708284" lon="6.822511117714083" id="-38076">
		<tag k="historic" v="shieling" />
		<tag k="name" v="Botnen" />
		<tag k="place" v="isolated_dwelling" />
		<tag k="ssr:stedsnr" v="6936" />
	</node>
	<node lat="60.58988341708508" lon="6.627982386566445" id="-38077">
		<tag k="fixme" v="consider place=hamlet" />
		<tag k="name" v="Moo" />
		<tag k="place" v="farm" />
		<tag k="ssr:stedsnr" v="6945" />
	</node>
	<node lat="60.5430999979984" lon="6.692877773292456" id="-38080">
		<tag k="fixme" v="consider place=hamlet" />
		<tag k="name" v="Taskjelle" />
		<tag k="place" v="farm" />
		<tag k="ssr:stedsnr" v="6765" />
	</node>
	<node lat="60.51198611014107" lon="6.673738889108531" id="-38084">
		<tag k="historic" v="shieling" />
		<tag k="name" v="Steinsete" />
		<tag k="place" v="isolated_dwelling" />
		<tag k="ssr:stedsnr" v="7036" />
	</node>
	<node lat="60.58627499970366" lon="6.8094194381121635" id="-38085">
		<tag k="historic" v="shieling" />
		<tag k="name" v="Nyastøl" />
		<tag k="place" v="isolated_dwelling" />
		<tag k="ssr:stedsnr" v="7818" />
	</node>
	<node lat="60.55525555646622" lon="6.599666668773748" id="-38086">
		<tag k="historic" v="shieling" />
		<tag k="name" v="Hola" />
		<tag k="place" v="isolated_dwelling" />
		<tag k="ssr:stedsnr" v="7837" />
	</node>
	<node lat="60.5764250020359" lon="6.801452776856004" id="-38088">
		<tag k="historic" v="shieling" />
		<tag k="name" v="Geituri" />
		<tag k="place" v="isolated_dwelling" />
		<tag k="ssr:stedsnr" v="7869" />
	</node>
	<node lat="60.53406666432506" lon="6.638941669827399" id="-38108">
		<tag k="historic" v="shieling" />
		<tag k="name" v="Olastøl" />
		<tag k="place" v="isolated_dwelling" />
		<tag k="ssr:stedsnr" v="7789" />
	</node>
	<node lat="60.80940277737755" lon="6.281594441683685" id="-38117">
		<tag k="historic" v="shieling" />
		<tag k="name" v="Sødalen" />
		<tag k="place" v="isolated_dwelling" />
		<tag k="ssr:stedsnr" v="8537" />
	</node>
	<node lat="60.85812937461331" lon="6.500191941735907" id="-38118">
		<tag k="fixme" v="consider place=hamlet" />
		<tag k="name" v="Årmot" />
		<tag k="place" v="farm" />
		<tag k="ssr:stedsnr" v="8557" />
	</node>
	<node lat="60.85604444132167" lon="6.575502770388557" id="-38119">
		<tag k="historic" v="shieling" />
		<tag k="name" v="Kvanndalen" />
		<tag k="place" v="isolated_dwelling" />
		<tag k="ssr:stedsnr" v="8559" />
	</node>
	<node lat="60.83293080653545" lon="6.464843283347716" id="-38131">
		<tag k="fixme" v="consider place=hamlet" />
		<tag k="name" v="Bygd" />
		<tag k="place" v="farm" />
		<tag k="ssr:stedsnr" v="9550" />
	</node>
	<node lat="60.79906111281206" lon="6.594975008812361" id="-38139">
		<tag k="name" v="Urheim" />
		<tag k="place" v="farm" />
		<tag k="ssr:stedsnr" v="20156" />
	</node>
	<node lat="60.727594443550146" lon="6.438708330553856" id="-38140">
		<tag k="historic" v="shieling" />
		<tag k="name" v="Øvrestølen" />
		<tag k="place" v="isolated_dwelling" />
		<tag k="ssr:stedsnr" v="20136" />
	</node>
	<node lat="60.62585833434504" lon="6.350124991846915" id="-38145">
		<tag k="historic" v="shieling" />
		<tag k="name" v="Hellesnesfloren" />
		<tag k="place" v="isolated_dwelling" />
		<tag k="ssr:stedsnr" v="20904" />
	</node>
	<node lat="60.65472092526288" lon="6.104884953664823" id="-38150">
		<tag k="fixme" v="consider place=hamlet" />
		<tag k="name" v="Styve" />
		<tag k="place" v="farm" />
		<tag k="ssr:stedsnr" v="20733" />
	</node>
	<node lat="60.589786115265454" lon="6.456274997835196" id="-38151">
		<tag k="name" v="Nedre Vele" />
		<tag k="place" v="farm" />
		<tag k="ssr:stedsnr" v="21010" />
	</node>
	<node lat="60.63831111552292" lon="6.248541662842984" id="-38152">
		<tag k="fixme" v="consider place=hamlet" />
		<tag k="name" v="Bergshaugen" />
		<tag k="place" v="farm" />
		<tag k="ssr:stedsnr" v="21033" />
	</node>
	<node lat="60.63166388515859" lon="6.275305553141576" id="-38154">
		<tag k="fixme" v="consider place=hamlet" />
		<tag k="name" v="Vassenden" />
		<tag k="place" v="farm" />
		<tag k="ssr:stedsnr" v="21117" />
	</node>
	<node lat="60.67325181444919" lon="6.449743219527522" id="-38173">
		<tag k="name" v="Nordrekvål" />
		<tag k="place" v="farm" />
		<tag k="ssr:stedsnr" v="21770" />
	</node>
	<node lat="60.57747777600399" lon="6.7787444396529475" id="-38181">
		<tag k="fixme" v="consider place=hamlet" />
		<tag k="name" v="Kyrkjeteigen" />
		<tag k="place" v="farm" />
		<tag k="ssr:stedsnr" v="27349" />
	</node>
	<node lat="60.79184722058604" lon="6.508505554750144" id="-38182">
		<tag k="fixme" v="consider place=hamlet" />
		<tag k="name" v="Vinje" />
		<tag k="place" v="village" />
		<tag k="ssr:stedsnr" v="31756" />
	</node>
	<node lat="60.67398610677093" lon="6.706752780889138" id="-38197">
		<tag k="name" v="Bakken" />
		<tag k="place" v="farm" />
		<tag k="ssr:stedsnr" v="45139" />
	</node>
	<node lat="60.674857420058416" lon="6.44872897004834" id="-38223">
		<tag k="fixme" v="consider place=hamlet" />
		<tag k="name" v="Nordrekvål" />
		<tag k="place" v="farm" />
		<tag k="ssr:stedsnr" v="45413" />
	</node>
	<node lat="60.57350555691193" lon="6.605583330821948" id="-38228">
		<tag k="name" v="Ysteteigen" />
		<tag k="place" v="farm" />
		<tag k="ssr:stedsnr" v="45710" />
	</node>
	<node lat="60.5762194420741" lon="6.604811102859068" id="-38229">
		<tag k="name" v="Nylenda" />
		<tag k="place" v="farm" />
		<tag k="ssr:stedsnr" v="45711" />
	</node>
	<node lat="60.70782500142179" lon="6.463275006114009" id="-38231">
		<tag k="name" v="Løyning" />
		<tag k="place" v="farm" />
		<tag k="ssr:stedsnr" v="45456" />
	</node>
	<node lat="60.630372219435976" lon="6.468488890948991" id="-38232">
		<tag k="name" v="Lid" />
		<tag k="place" v="hamlet" />
		<tag k="ssr:stedsnr" v="45460" />
	</node>
	<node lat="60.68889721842241" lon="6.550688882608981" id="-38248">
		<tag k="historic" v="shieling" />
		<tag k="name" v="Singeset" />
		<tag k="place" v="isolated_dwelling" />
		<tag k="ssr:stedsnr" v="46438" />
	</node>
	<node lat="60.63439166455936" lon="6.182900002746356" id="-38261">
		<tag k="name" v="Haugen" />
		<tag k="place" v="isolated_dwelling" />
		<tag k="ssr:stedsnr" v="67172" />
	</node>
	<node lat="60.61384745692649" lon="6.1938874358022495" id="-38264">
		<tag k="fixme" v="consider place=hamlet" />
		<tag k="name" v="Skjeldal" />
		<tag k="place" v="farm" />
		<tag k="ssr:stedsnr" v="67183" />
	</node>
	<node lat="60.67209999732037" lon="6.158669440143834" id="-38269">
		<tag k="name" v="Småtuftene" />
		<tag k="place" v="locality" />
		<tag k="ssr:stedsnr" v="67022" />
	</node>
	<node lat="60.67878333179287" lon="6.161283339750321" id="-38270">
		<tag k="name" v="Skorset" />
		<tag k="place" v="locality" />
		<tag k="ssr:stedsnr" v="67024" />
	</node>
	<node lat="60.67059444045054" lon="6.043750000106872" id="-38271">
		<tag k="historic" v="shieling" />
		<tag k="name" v="Bjørgastølen" />
		<tag k="place" v="isolated_dwelling" />
		<tag k="ssr:stedsnr" v="67036" />
	</node>
	<node lat="60.57760555688261" lon="6.094119440392607" id="-38273">
		<tag k="historic" v="shieling" />
		<tag k="name" v="Lonaselet" />
		<tag k="place" v="isolated_dwelling" />
		<tag k="ssr:stedsnr" v="67253" />
	</node>
	<node lat="60.614966910650615" lon="5.973463047919701" id="-38277">
		<tag k="alt_name" v="Rasdalen, øvre" />
		<tag k="fixme" v="consider place=hamlet" />
		<tag k="name" v="Øvre Rasdalen" />
		<tag k="place" v="farm" />
		<tag k="ssr:stedsnr" v="67203" />
	</node>
	<node lat="60.54413055989099" lon="6.704022226467683" id="-38279">
		<tag k="name" v="Sellandsteigen" />
		<tag k="old_name" v="Grimsteigen" />
		<tag k="place" v="farm" />
		<tag k="ssr:stedsnr" v="67759" />
	</node>
	<node lat="60.6917730957984" lon="6.469615237348577" id="-38284">
		<tag k="name" v="Løno" />
		<tag k="place" v="hamlet" />
		<tag k="ssr:stedsnr" v="67339" />
	</node>
	<node lat="60.722217702881025" lon="6.499135723784216" id="-38291">
		<tag k="name" v="Leidal" />
		<tag k="place" v="hamlet" />
		<tag k="ssr:stedsnr" v="67361" />
	</node>
	<node lat="60.747111109360816" lon="6.444052777723441" id="-38295">
		<tag k="historic" v="shieling" />
		<tag k="name" v="Ænsstølen" />
		<tag k="place" v="isolated_dwelling" />
		<tag k="ssr:stedsnr" v="67388" />
	</node>
	<node lat="60.509741665097195" lon="6.529838882990158" id="-38296">
		<tag k="historic" v="shieling" />
		<tag k="name" v="Øyaset" />
		<tag k="place" v="isolated_dwelling" />
		<tag k="ssr:stedsnr" v="67577" />
	</node>
	<node lat="60.60762222426268" lon="6.749322222488489" id="-38301">
		<tag k="historic" v="shieling" />
		<tag k="name" v="Fagnastøl" />
		<tag k="place" v="isolated_dwelling" />
		<tag k="ssr:stedsnr" v="67879" />
	</node>
	<node lat="60.59331707092153" lon="6.635166581881901" id="-38302">
		<tag k="fixme" v="consider place=hamlet" />
		<tag k="name" v="Brekke" />
		<tag k="place" v="farm" />
		<tag k="ssr:stedsnr" v="67885" />
	</node>
	<node lat="60.60018428914517" lon="6.350404077265368" id="-38307">
		<tag k="fixme" v="consider place=hamlet" />
		<tag k="name" v="Ullestadteigen" />
		<tag k="place" v="farm" />
		<tag k="ssr:stedsnr" v="68654" />
	</node>
	<node lat="60.588191666302" lon="6.355800004628624" id="-38309">
		<tag k="historic" v="shieling" />
		<tag k="name" v="Teigarapjane" />
		<tag k="place" v="isolated_dwelling" />
		<tag k="ssr:stedsnr" v="68673" />
	</node>
	<node lat="60.807194447895334" lon="6.375508341355537" id="-38312">
		<tag k="name" v="Svoltebu" />
		<tag k="place" v="isolated_dwelling" />
		<tag k="ssr:stedsnr" v="69552" />
	</node>
	<node lat="60.80629166755241" lon="6.45584444890659" id="-38313">
		<tag k="historic" v="shieling" />
		<tag k="name" v="Sundvesstølen" />
		<tag k="place" v="isolated_dwelling" />
		<tag k="ssr:stedsnr" v="69555" />
	</node>
	<node lat="60.80301319403039" lon="6.498436757234068" id="-38315">
		<tag k="fixme" v="consider place=hamlet" />
		<tag k="name" v="Ulvundsøyni" />
		<tag k="place" v="farm" />
		<tag k="ssr:stedsnr" v="69567" />
	</node>
	<node lat="60.543600003373044" lon="6.228369440604979" id="-38316">
		<tag k="historic" v="shieling" />
		<tag k="name" v="Kvålsdalen" />
		<tag k="place" v="isolated_dwelling" />
		<tag k="ssr:stedsnr" v="68617" />
	</node>
	<node lat="60.761229742615484" lon="6.567314834138831" id="-38319">
		<tag k="fixme" v="consider place=hamlet" />
		<tag k="name" v="Tufto" />
		<tag k="place" v="farm" />
		<tag k="ssr:stedsnr" v="69944" />
	</node>
	<node lat="60.84506462691449" lon="6.471419464042869" id="-38323">
		<tag k="fixme" v="consider place=hamlet" />
		<tag k="name" v="Helgeland" />
		<tag k="place" v="farm" />
		<tag k="ssr:stedsnr" v="69589" />
	</node>
	<node lat="60.78645277488767" lon="6.627572228144129" id="-38326">
		<tag k="historic" v="shieling" />
		<tag k="name" v="Lintua" />
		<tag k="place" v="isolated_dwelling" />
		<tag k="ssr:stedsnr" v="69775" />
	</node>
	<node lat="60.77636400966796" lon="6.774563328680241" id="-38327">
		<tag k="name" v="Bjørndalen" />
		<tag k="place" v="isolated_dwelling" />
		<tag k="ssr:stedsnr" v="69777" />
	</node>
	<node lat="60.869549999536055" lon="6.653033337793575" id="-38328">
		<tag k="historic" v="shieling" />
		<tag k="name" v="Brattebakken" />
		<tag k="place" v="isolated_dwelling" />
		<tag k="ssr:stedsnr" v="69844" />
	</node>
	<node lat="60.79831170425964" lon="6.591138874928471" id="-38331">
		<tag k="fixme" v="consider place=hamlet" />
		<tag k="name" v="Ure" />
		<tag k="place" v="farm" />
		<tag k="ssr:stedsnr" v="69989" />
	</node>
	<node lat="60.79701835237664" lon="6.587040664874795" id="-38332">
		<tag k="fixme" v="consider place=hamlet" />
		<tag k="name" v="Vetleteigen" />
		<tag k="place" v="farm" />
		<tag k="ssr:stedsnr" v="69990" />
	</node>
	<node lat="60.623049649168806" lon="6.503625957738024" id="-38333">
		<tag k="fixme" v="consider place=hamlet" />
		<tag k="name" v="Nedre Auro" />
		<tag k="place" v="farm" />
		<tag k="ssr:stedsnr" v="81794" />
	</node>
	<node lat="60.64756389186527" lon="6.4925249999309615" id="-38334">
		<tag k="name" v="Øvre Vinjo" />
		<tag k="place" v="farm" />
		<tag k="ssr:stedsnr" v="81798" />
	</node>
	<node lat="60.784013869531734" lon="6.480193384766423" id="-38340">
		<tag k="fixme" v="consider place=hamlet" />
		<tag k="name" v="Sausjord" />
		<tag k="place" v="farm" />
		<tag k="ssr:stedsnr" v="81189" />
	</node>
	<node lat="60.656850001792094" lon="5.955786103431012" id="-38345">
		<tag k="historic" v="shieling" />
		<tag k="name" v="Liastølen" />
		<tag k="place" v="isolated_dwelling" />
		<tag k="ssr:stedsnr" v="81669" />
	</node>
	<node lat="60.81893332993002" lon="6.465125004467983" id="-38352">
		<tag k="name" v="Kalvhagen" />
		<tag k="place" v="farm" />
		<tag k="ssr:stedsnr" v="81369" />
	</node>
	<node lat="60.653749996020146" lon="6.000863894422517" id="-38363">
		<tag k="name" v="Stigen" />
		<tag k="place" v="farm" />
		<tag k="ssr:stedsnr" v="81689" />
	</node>
	<node lat="60.63675555324889" lon="6.376063885071158" id="-38371">
		<tag k="historic" v="shieling" />
		<tag k="name" v="Klepp" />
		<tag k="place" v="isolated_dwelling" />
		<tag k="ssr:stedsnr" v="81956" />
	</node>
	<node lat="60.639475000193244" lon="6.476527775004313" id="-38378">
		<tag k="name" v="Nedre Rykke" />
		<tag k="place" v="farm" />
		<tag k="ssr:stedsnr" v="82792" />
	</node>
	<node lat="60.60520833574246" lon="6.600486108886454" id="-38379">
		<tag k="name" v="Øvre Fenno" />
		<tag k="place" v="farm" />
		<tag k="ssr:stedsnr" v="88283" />
	</node>
	<node lat="60.63160555886552" lon="6.443619444266753" id="-38394">
		<tag k="name" v="Brynavollen" />
		<tag k="place" v="farm" />
		<tag k="ssr:stedsnr" v="106463" />
	</node>
	<node lat="60.69418144205218" lon="6.582712838913759" id="-38422">
		<tag k="alt_name" v="Fagnastølen" />
		<tag k="fixme" v="consider place=hamlet" />
		<tag k="name" v="Fagnastøl" />
		<tag k="place" v="farm" />
		<tag k="ssr:stedsnr" v="106354" />
	</node>
	<node lat="60.67266111007648" lon="6.565280562280842" id="-38424">
		<tag k="historic" v="shieling" />
		<tag k="name" v="Mæringen" />
		<tag k="place" v="isolated_dwelling" />
		<tag k="ssr:stedsnr" v="106359" />
	</node>
	<node lat="60.67476666770151" lon="5.926511119785742" id="-38444">
		<tag k="historic" v="shieling" />
		<tag k="name" v="Melandsstølen" />
		<tag k="place" v="isolated_dwelling" />
		<tag k="ssr:stedsnr" v="127008" />
	</node>
	<node lat="60.4845750023827" lon="6.646652770848309" id="-38447">
		<tag k="name" v="Hagen" />
		<tag k="place" v="isolated_dwelling" />
		<tag k="ssr:stedsnr" v="126407" />
	</node>
	<node lat="60.47943888680646" lon="6.668775000047335" id="-38450">
		<tag k="historic" v="shieling" />
		<tag k="name" v="Seljesete" />
		<tag k="place" v="isolated_dwelling" />
		<tag k="ssr:stedsnr" v="126430" />
	</node>
	<node lat="60.649562795865315" lon="6.159094904639313" id="-38452">
		<tag k="fixme" v="consider place=hamlet" />
		<tag k="name" v="Bjørgås" />
		<tag k="place" v="farm" />
		<tag k="ssr:stedsnr" v="127087" />
	</node>
	<node lat="60.6372027802235" lon="6.152138895026808" id="-38454">
		<tag k="name" v="Jenstræet" />
		<tag k="place" v="farm" />
		<tag k="ssr:stedsnr" v="127164" />
	</node>
	<node lat="60.63508731247994" lon="6.166697713307725" id="-38455">
		<tag k="fixme" v="consider place=hamlet" />
		<tag k="name" v="Nedre Skjervo" />
		<tag k="place" v="farm" />
		<tag k="ssr:stedsnr" v="127166" />
	</node>
	<node lat="60.68042244498842" lon="6.087075901645729" id="-38460">
		<tag k="fixme" v="consider place=hamlet" />
		<tag k="name" v="Flansås" />
		<tag k="place" v="farm" />
		<tag k="ssr:stedsnr" v="127026" />
	</node>
	<node lat="60.66139444455068" lon="6.105736117249307" id="-38462">
		<tag k="name" v="Styvestræet" />
		<tag k="place" v="farm" />
		<tag k="ssr:stedsnr" v="127039" />
	</node>
	<node lat="60.61452500194417" lon="6.079244453114111" id="-38466">
		<tag k="historic" v="shieling" />
		<tag k="name" v="Vossedalstølen" />
		<tag k="place" v="isolated_dwelling" />
		<tag k="ssr:stedsnr" v="127237" />
	</node>
	<node lat="60.65811294754837" lon="6.452290188992596" id="-38467">
		<tag k="fixme" v="consider place=hamlet" />
		<tag k="name" v="Dukstad" />
		<tag k="place" v="farm" />
		<tag k="ssr:stedsnr" v="127296" />
	</node>
	<node lat="60.65374999809756" lon="6.450724991700259" id="-38468">
		<tag k="fixme" v="consider place=hamlet" />
		<tag k="name" v="Lofthus" />
		<tag k="place" v="farm" />
		<tag k="ssr:stedsnr" v="127297" />
	</node>
	<node lat="60.6609388856445" lon="6.305455554784763" id="-38469">
		<tag k="historic" v="shieling" />
		<tag k="name" v="Tunnaset" />
		<tag k="place" v="isolated_dwelling" />
		<tag k="ssr:stedsnr" v="127321" />
	</node>
	<node lat="60.676988402733436" lon="6.482158580824333" id="-38470">
		<tag k="fixme" v="consider place=hamlet" />
		<tag k="name" v="Hegle" />
		<tag k="place" v="farm" />
		<tag k="ssr:stedsnr" v="127326" />
	</node>
	<node lat="60.646526885242736" lon="6.486564089295347" id="-38472">
		<tag k="fixme" v="consider place=hamlet" />
		<tag k="name" v="Helleve" />
		<tag k="place" v="farm" />
		<tag k="ssr:stedsnr" v="127286" />
	</node>
	<node lat="60.723904789129044" lon="6.48841342444044" id="-38474">
		<tag k="fixme" v="consider place=hamlet" />
		<tag k="name" v="Tvinno" />
		<tag k="place" v="farm" />
		<tag k="ssr:stedsnr" v="127367" />
	</node>
	<node lat="60.71745000124064" lon="6.30340000023009" id="-38475">
		<tag k="historic" v="shieling" />
		<tag k="name" v="Volo" />
		<tag k="place" v="isolated_dwelling" />
		<tag k="ssr:stedsnr" v="127371" />
	</node>
	<node lat="60.73144803826333" lon="6.499044029071186" id="-38476">
		<tag k="fixme" v="consider place=hamlet" />
		<tag k="name" v="Hustveit" />
		<tag k="place" v="farm" />
		<tag k="ssr:stedsnr" v="127373" />
	</node>
	<node lat="60.736797219021206" lon="6.364586102972386" id="-38478">
		<tag k="fixme" v="consider tourism=alpine_hut or tourism=chalet" />
		<tag k="name" v="Tvinnestølen" />
		<tag k="ssr:stedsnr" v="127382" />
		<tag k="tourism" v="wilderness_hut" />
	</node>
	<node lat="60.69462169331415" lon="6.1170326109651505" id="-38484">
		<tag k="fixme" v="consider place=hamlet" />
		<tag k="name" v="To" />
		<tag k="place" v="farm" />
		<tag k="ssr:stedsnr" v="127525" />
	</node>
	<node lat="60.637418931206284" lon="6.25751403119431" id="-38487">
		<tag k="fixme" v="consider place=hamlet" />
		<tag k="name" v="Væte" />
		<tag k="place" v="farm" />
		<tag k="ssr:stedsnr" v="127728" />
	</node>
	<node lat="60.60738597038101" lon="6.42504864196682" id="-38491">
		<tag k="fixme" v="consider place=hamlet" />
		<tag k="name" v="Gjelle" />
		<tag k="place" v="farm" />
		<tag k="ssr:stedsnr" v="128621" />
	</node>
	<node lat="60.59091781552812" lon="6.465140541756466" id="-38492">
		<tag k="fixme" v="consider place=hamlet" />
		<tag k="name" v="Haug" />
		<tag k="place" v="farm" />
		<tag k="ssr:stedsnr" v="128630" />
	</node>
	<node lat="60.5621833314056" lon="6.4546722192802255" id="-38494">
		<tag k="historic" v="shieling" />
		<tag k="name" v="Kjennstølen" />
		<tag k="place" v="isolated_dwelling" />
		<tag k="ssr:stedsnr" v="128571" />
	</node>
	<node lat="60.564332745063744" lon="6.452850379344921" id="-38495">
		<tag k="fixme" v="consider place=hamlet" />
		<tag k="name" v="Tesdalen" />
		<tag k="place" v="farm" />
		<tag k="ssr:stedsnr" v="128574" />
	</node>
	<node lat="60.621879662950484" lon="6.333702011846354" id="-38500">
		<tag k="name" v="Honve" />
		<tag k="place" v="hamlet" />
		<tag k="ssr:stedsnr" v="128719" />
	</node>
	<node lat="60.68154618644182" lon="6.629359661597429" id="-38503">
		<tag k="fixme" v="consider place=hamlet" />
		<tag k="name" v="Li" />
		<tag k="place" v="farm" />
		<tag k="ssr:stedsnr" v="128953" />
	</node>
	<node lat="60.556681646376205" lon="6.733134705578524" id="-38507">
		<tag k="alt_name" v="Granvin, store" />
		<tag k="fixme" v="consider place=hamlet" />
		<tag k="loc_name" v="Storegraven" />
		<tag k="name" v="Store Granvin" />
		<tag k="place" v="farm" />
		<tag k="ssr:stedsnr" v="128776" />
	</node>
	<node lat="60.689033329386305" lon="6.841980549960411" id="-38508">
		<tag k="historic" v="shieling" />
		<tag k="name" v="Urlandsstølen" />
		<tag k="place" v="isolated_dwelling" />
		<tag k="ssr:stedsnr" v="128926" />
	</node>
	<node lat="60.818580552605376" lon="6.6842111078174415" id="-38519">
		<tag k="name" v="Kleivastølen" />
		<tag k="place" v="locality" />
		<tag k="ssr:stedsnr" v="130748" />
	</node>
	<node lat="60.8476444489412" lon="6.711413888721122" id="-38521">
		<tag k="alt_name" v="Nåla" />
		<tag k="name" v="Nåli" />
		<tag k="place" v="locality" />
		<tag k="ssr:stedsnr" v="130757" />
	</node>
	<node lat="60.76734166570522" lon="6.579138893321855" id="-38523">
		<tag k="historic" v="shieling" />
		<tag k="name" v="Furestølen" />
		<tag k="place" v="isolated_dwelling" />
		<tag k="ssr:stedsnr" v="130941" />
	</node>
	<node lat="60.77002500135788" lon="6.549455560780672" id="-38524">
		<tag k="historic" v="shieling" />
		<tag k="name" v="Øyjordsstølen" />
		<tag k="place" v="isolated_dwelling" />
		<tag k="ssr:stedsnr" v="130950" />
	</node>
	<node lat="60.76991232370247" lon="6.477555009675226" id="-38525">
		<tag k="fixme" v="consider place=hamlet" />
		<tag k="name" v="Brattholo" />
		<tag k="place" v="farm" />
		<tag k="ssr:stedsnr" v="130955" />
	</node>
	<node lat="60.79226388840652" lon="6.568658330478464" id="-38541">
		<tag k="fixme" v="consider place=hamlet" />
		<tag k="name" v="Oppheimsvangen" />
		<tag k="place" v="farm" />
		<tag k="ssr:stedsnr" v="141147" />
	</node>
	<node lat="60.626758330555326" lon="6.437366669170314" id="-38548">
		<tag k="name" v="Nedre Haugo" />
		<tag k="place" v="farm" />
		<tag k="ssr:stedsnr" v="141766" />
	</node>
	<node lat="60.6166694437994" lon="5.971522223929354" id="-38567">
		<tag k="name" v="Rasdalen" />
		<tag k="place" v="farm" />
		<tag k="ssr:stedsnr" v="142613" />
	</node>
	<node lat="60.598465463773444" lon="6.0086501175957014" id="-38571">
		<tag k="historic" v="shieling" />
		<tag k="name" v="Røyrbakkestølen" />
		<tag k="place" v="isolated_dwelling" />
		<tag k="ssr:stedsnr" v="142642" />
	</node>
	<node lat="60.692377775118516" lon="6.1270666596664825" id="-38579">
		<tag k="historic" v="shieling" />
		<tag k="name" v="Teina" />
		<tag k="place" v="isolated_dwelling" />
		<tag k="ssr:stedsnr" v="142754" />
	</node>
	<node lat="60.672805442961284" lon="6.454347340478051" id="-38580">
		<tag k="name" v="Nordrekvål" />
		<tag k="place" v="farm" />
		<tag k="ssr:stedsnr" v="142778" />
	</node>
	<node lat="60.6711357178853" lon="6.512633033823092" id="-38581">
		<tag k="name" v="Øvre Kyte" />
		<tag k="place" v="farm" />
		<tag k="ssr:stedsnr" v="142782" />
	</node>
	<node lat="60.54135277357262" lon="6.677372228498203" id="-38601">
		<tag k="historic" v="shieling" />
		<tag k="name" v="Øvsta Grostøl" />
		<tag k="place" v="isolated_dwelling" />
		<tag k="ssr:stedsnr" v="160724" />
	</node>
	<node lat="60.45457778105029" lon="6.500908335053906" id="-38607">
		<tag k="historic" v="shieling" />
		<tag k="name" v="Urastøl" />
		<tag k="place" v="isolated_dwelling" />
		<tag k="ssr:stedsnr" v="160819" />
	</node>
	<node lat="60.68006666694417" lon="6.7164638917763275" id="-38633">
		<tag k="name" v="Slåtta" />
		<tag k="place" v="isolated_dwelling" />
		<tag k="ssr:stedsnr" v="167128" />
	</node>
	<node lat="60.683836113434424" lon="6.60545833242511" id="-38635">
		<tag k="name" v="Skorset" />
		<tag k="place" v="farm" />
		<tag k="ssr:stedsnr" v="167342" />
	</node>
	<node lat="60.756747219899005" lon="6.571800007028095" id="-38637">
		<tag k="historic" v="shieling" />
		<tag k="name" v="Tuftestølen" />
		<tag k="place" v="isolated_dwelling" />
		<tag k="ssr:stedsnr" v="167353" />
	</node>
	<node lat="60.706563889934756" lon="6.570830551499524" id="-38644">
		<tag k="name" v="Dyrgard" />
		<tag k="place" v="farm" />
		<tag k="ssr:stedsnr" v="167454" />
	</node>
	<node lat="60.61700278044736" lon="6.1797444448821395" id="-38660">
		<tag k="name" v="Trænsli" />
		<tag k="place" v="farm" />
		<tag k="ssr:stedsnr" v="188198" />
	</node>
	<node lat="60.644085562124" lon="6.159214096638288" id="-38667">
		<tag k="fixme" v="consider place=hamlet" />
		<tag k="name" v="Kvilekvål" />
		<tag k="place" v="farm" />
		<tag k="ssr:stedsnr" v="188133" />
	</node>
	<node lat="60.640676917387914" lon="6.147178838340188" id="-38668">
		<tag k="fixme" v="consider place=hamlet" />
		<tag k="name" v="Hyljarås" />
		<tag k="place" v="farm" />
		<tag k="ssr:stedsnr" v="188137" />
	</node>
	<node lat="60.64197754710216" lon="6.022262039982015" id="-38669">
		<tag k="fixme" v="consider place=hamlet" />
		<tag k="name" v="Vetleviki" />
		<tag k="place" v="farm" />
		<tag k="ssr:stedsnr" v="188145" />
	</node>
	<node lat="60.64415555929802" lon="6.482908342083649" id="-38671">
		<tag k="fixme" v="consider place=hamlet" />
		<tag k="name" v="Kvåle" />
		<tag k="place" v="farm" />
		<tag k="ssr:stedsnr" v="188282" />
	</node>
	<node lat="60.8521749973594" lon="6.564177786277047" id="-38677">
		<tag k="historic" v="shieling" />
		<tag k="name" v="Steinset" />
		<tag k="place" v="isolated_dwelling" />
		<tag k="ssr:stedsnr" v="190540" />
	</node>
	<node lat="60.70240833227247" lon="6.56196110364277" id="-38679">
		<tag k="historic" v="shieling" />
		<tag k="name" v="Fjosstølen" />
		<tag k="place" v="isolated_dwelling" />
		<tag k="ssr:stedsnr" v="188352" />
	</node>
	<node lat="60.637418359043224" lon="6.470742389049199" id="-38688">
		<tag k="name" v="Palmafossen" />
		<tag k="place" v="farm" />
		<tag k="ssr:stedsnr" v="188734" />
	</node>
	<node lat="60.556188891935115" lon="6.421263892817109" id="-38696">
		<tag k="historic" v="shieling" />
		<tag k="name" v="Roksbotnen" />
		<tag k="place" v="isolated_dwelling" />
		<tag k="ssr:stedsnr" v="189543" />
	</node>
	<node lat="60.50080833362069" lon="6.466408326772627" id="-38701">
		<tag k="historic" v="shieling" />
		<tag k="name" v="Løkjane" />
		<tag k="place" v="isolated_dwelling" />
		<tag k="ssr:stedsnr" v="189484" />
	</node>
	<node lat="60.61307475926761" lon="6.521218728482556" id="-38707">
		<tag k="fixme" v="consider place=hamlet" />
		<tag k="name" v="Grove" />
		<tag k="place" v="farm" />
		<tag k="ssr:stedsnr" v="189594" />
	</node>
	<node lat="60.60551944068822" lon="6.582999994619838" id="-38708">
		<tag k="name" v="Nedre Fenno" />
		<tag k="place" v="farm" />
		<tag k="ssr:stedsnr" v="189600" />
	</node>
	<node lat="60.628621669874306" lon="6.494446491177076" id="-38709">
		<tag k="fixme" v="consider place=hamlet" />
		<tag k="name" v="Rene" />
		<tag k="place" v="farm" />
		<tag k="ssr:stedsnr" v="189698" />
	</node>
	<node lat="60.55910477793653" lon="6.730521980526352" id="-38715">
		<tag k="alt_name" v="Granvin, l;Lillegraven" />
		<tag k="fixme" v="consider place=hamlet" />
		<tag k="name" v="Litle Granvin" />
		<tag k="place" v="farm" />
		<tag k="ssr:stedsnr" v="189834" />
	</node>
	<node lat="60.6699444412046" lon="6.613597223120116" id="-38721">
		<tag k="historic" v="shieling" />
		<tag k="name" v="Lindbergsstølen" />
		<tag k="place" v="isolated_dwelling" />
		<tag k="ssr:stedsnr" v="189983" />
	</node>
	<node lat="60.67113333500591" lon="6.766149997039309" id="-38723">
		<tag k="name" v="Hegg" />
		<tag k="place" v="farm" />
		<tag k="ssr:stedsnr" v="189952" />
	</node>
	<node lat="60.86118611574009" lon="6.537136119642874" id="-38725">
		<tag k="historic" v="shieling" />
		<tag k="name" v="Revhaugen" />
		<tag k="place" v="isolated_dwelling" />
		<tag k="ssr:stedsnr" v="190592" />
	</node>
	<node lat="60.793227778462736" lon="6.486413889276977" id="-38729">
		<tag k="historic" v="shieling" />
		<tag k="name" v="Vetlestølen" />
		<tag k="place" v="isolated_dwelling" />
		<tag k="ssr:stedsnr" v="190983" />
	</node>
	<node lat="60.78947499609798" lon="6.423066665641641" id="-38730">
		<tag k="historic" v="shieling" />
		<tag k="name" v="Kaset" />
		<tag k="place" v="isolated_dwelling" />
		<tag k="ssr:stedsnr" v="190987" />
	</node>
	<node lat="60.80336394605974" lon="6.618996455698711" id="-38733">
		<tag k="fixme" v="consider place=hamlet" />
		<tag k="name" v="Heggland" />
		<tag k="place" v="farm" />
		<tag k="ssr:stedsnr" v="191729" />
	</node>
	<node lat="60.76471565894543" lon="6.454373135648809" id="-38736">
		<tag k="fixme" v="consider place=hamlet" />
		<tag k="name" v="Selje" />
		<tag k="place" v="farm" />
		<tag k="ssr:stedsnr" v="191931" />
	</node>
	<node lat="60.81038333433363" lon="6.628880561883397" id="-38748">
		<tag k="historic" v="shieling" />
		<tag k="name" v="Kvamsstølen" />
		<tag k="place" v="isolated_dwelling" />
		<tag k="ssr:stedsnr" v="202254" />
	</node>
	<node lat="60.69319334294674" lon="6.472958890019" id="-38757">
		<tag k="name" v="Austre Løno" />
		<tag k="place" v="farm" />
		<tag k="ssr:stedsnr" v="203241" />
	</node>
	<node lat="60.65030763570497" lon="6.512161470898498" id="-38776">
		<tag k="name" v="Litle Grauo" />
		<tag k="place" v="farm" />
		<tag k="ssr:stedsnr" v="203798" />
	</node>
	<node lat="60.67806213932383" lon="6.516090877341188" id="-38782">
		<tag k="name" v="Nedre Lemme" />
		<tag k="place" v="farm" />
		<tag k="ssr:stedsnr" v="203768" />
	</node>
</osm>
