<?xml version="1.0" encoding="UTF-8"?>
<osm version="0.6" generator="osmapis">
	<node lat="60.4694999979691" lon="6.481933333168535" id="-29897">
		<tag k="fixme" v="consider natural=peak for the most distinct mountains in the district" />
		<tag k="name" v="Grubbafjellet" />
		<tag k="natural" v="hill" />
		<tag k="place" v="locality" />
		<tag k="ssr:stedsnr" v="5210" />
	</node>
	<node lat="60.46108333593662" lon="6.600805555662142" id="-29898">
		<tag k="fixme" v="consider place=hamlet" />
		<tag k="name" v="Håstabba" />
		<tag k="place" v="farm" />
		<tag k="ssr:stedsnr" v="5307" />
	</node>
	<node lat="60.461763889873204" lon="6.750038897751008" id="-29899">
		<tag k="name" v="Utitun" />
		<tag k="place" v="farm" />
		<tag k="ssr:stedsnr" v="5303" />
	</node>
	<node lat="60.446726756064216" lon="6.724732643797395" id="-29900">
		<tag k="name" v="Askeviki" />
		<tag k="natural" v="bay" />
		<tag k="ssr:stedsnr" v="5316" />
	</node>
	<node lat="60.64888889029997" lon="6.13486389445164" id="-29901">
		<tag k="name" v="Skorvelvi" />
		<tag k="ssr:stedsnr" v="6101" />
		<tag k="waterway" v="river" />
	</node>
	<node lat="60.65273303392655" lon="6.1312735787552475" id="-29902">
		<tag k="fixme" v="consider place=hamlet" />
		<tag k="name" v="Elge" />
		<tag k="place" v="farm" />
		<tag k="ssr:stedsnr" v="6102" />
	</node>
	<node lat="60.63305555613527" lon="6.0524583417076805" id="-29903">
		<tag k="name" v="Bjørnsgjelet" />
		<tag k="natural" v="valley" />
		<tag k="place" v="locality" />
		<tag k="ssr:stedsnr" v="6156" />
	</node>
	<node lat="60.61633333113893" lon="6.137983326700947" id="-29904">
		<tag k="name" v="Køyto" />
		<tag k="place" v="locality" />
		<tag k="ssr:stedsnr" v="6167" />
	</node>
	<node lat="60.61830278028268" lon="6.123333335027014" id="-29905">
		<tag k="name" v="Skirveggjaskardet" />
		<tag k="natural" v="valley" />
		<tag k="place" v="locality" />
		<tag k="ssr:stedsnr" v="6168" />
	</node>
	<node lat="60.61278611109773" lon="6.204013888573339" id="-29906">
		<tag k="name" v="Sytjørni" />
		<tag k="natural" v="water" />
		<tag k="ssr:stedsnr" v="6174" />
	</node>
	<node lat="60.66376666676298" lon="6.343813884374045" id="-29907">
		<tag k="name" v="Hellersmyrane" />
		<tag k="natural" v="wetland" />
		<tag k="ssr:stedsnr" v="6313" />
	</node>
	<node lat="60.66386110976311" lon="6.28856943702773" id="-29908">
		<tag k="fixme" v="consider natural=peak for the most distinct mountains in the district" />
		<tag k="name" v="Frilieggi" />
		<tag k="natural" v="hill" />
		<tag k="place" v="locality" />
		<tag k="ssr:stedsnr" v="6315" />
	</node>
	<node lat="60.67885277663141" lon="6.399999991354988" id="-29909">
		<tag k="fixme" v="consider natural=peak for the most distinct mountains in the district" />
		<tag k="name" v="Langahorgi" />
		<tag k="natural" v="hill" />
		<tag k="place" v="locality" />
		<tag k="ssr:stedsnr" v="6321" />
	</node>
	<node lat="60.68310000420758" lon="6.474827786424651" id="-29910">
		<tag k="name" v="Lønavatnet" />
		<tag k="natural" v="water" />
		<tag k="ssr:stedsnr" v="6324" />
		<tag k="water" v="lake" />
	</node>
	<node lat="60.676341670320504" lon="6.294094450137261" id="-29911">
		<tag k="name" v="Sledavarden" />
		<tag k="natural" v="hill" />
		<tag k="place" v="locality" />
		<tag k="ssr:stedsnr" v="6325" />
	</node>
	<node lat="60.65602289769168" lon="6.1808798046118385" id="-29912">
		<tag k="fixme" v="consider place=hamlet" />
		<tag k="name" v="Kolle" />
		<tag k="place" v="farm" />
		<tag k="ssr:stedsnr" v="6063" />
	</node>
	<node lat="60.6609861087797" lon="5.900950004735949" id="-29913">
		<tag k="name" v="Vestrheim" />
		<tag k="place" v="locality" />
		<tag k="ssr:stedsnr" v="6065" />
	</node>
	<node lat="60.645227399996955" lon="5.996684721368815" id="-29914">
		<tag k="fixme" v="consider place=hamlet" />
		<tag k="name" v="Vassenden" />
		<tag k="place" v="farm" />
		<tag k="ssr:stedsnr" v="6074" />
	</node>
	<node lat="60.62545277395404" lon="6.101702775872562" id="-29915">
		<tag k="name" v="Lammahaugane" />
		<tag k="natural" v="hill" />
		<tag k="place" v="locality" />
		<tag k="ssr:stedsnr" v="6201" />
	</node>
	<node lat="60.64227500152002" lon="6.284861113229331" id="-29916">
		<tag k="fixme" v="consider natural=peak for the most distinct mountains in the district" />
		<tag k="name" v="Lomknausen" />
		<tag k="natural" v="hill" />
		<tag k="place" v="locality" />
		<tag k="ssr:stedsnr" v="6277" />
	</node>
	<node lat="60.712777774503095" lon="5.94757776892032" id="-29917">
		<tag k="name" v="Lonane" />
		<tag k="place" v="locality" />
		<tag k="ssr:stedsnr" v="6469" />
	</node>
	<node lat="60.70869166475821" lon="5.957519444388912" id="-29918">
		<tag k="name" v="Norddalselvi" />
		<tag k="ssr:stedsnr" v="6471" />
		<tag k="waterway" v="stream" />
	</node>
	<node lat="60.70905173434748" lon="6.054187171250563" id="-29919">
		<tag k="alt_name" v="Blåvatnet, øvre" />
		<tag k="name" v="Øvra Blåvatnet" />
		<tag k="natural" v="water" />
		<tag k="ssr:stedsnr" v="6477" />
	</node>
	<node lat="60.57998610917892" lon="6.559638895912851" id="-29920">
		<tag k="fixme" v="consider natural=peak for the most distinct mountains in the district" />
		<tag k="name" v="Vardafjellet" />
		<tag k="natural" v="hill" />
		<tag k="place" v="locality" />
		<tag k="ssr:stedsnr" v="6594" />
	</node>
	<node lat="60.57702500243821" lon="6.446694436759705" id="-29921">
		<tag k="name" v="Merkesdalsgrovi" />
		<tag k="ssr:stedsnr" v="6599" />
		<tag k="waterway" v="stream" />
	</node>
	<node lat="60.62647136125953" lon="6.280592197377414" id="-29922">
		<tag k="fixme" v="consider place=hamlet" />
		<tag k="name" v="Skjelde" />
		<tag k="place" v="farm" />
		<tag k="ssr:stedsnr" v="6716" />
	</node>
	<node lat="60.5289750011925" lon="6.083861102624037" id="-29923">
		<tag k="name" v="Hallene" />
		<tag k="natural" v="slope" />
		<tag k="place" v="locality" />
		<tag k="ssr:stedsnr" v="6811" />
	</node>
	<node lat="60.566255556622615" lon="6.206827779678655" id="-29924">
		<tag k="fixme" v="consider natural=peak for the most distinct mountains in the district" />
		<tag k="name" v="Åsen" />
		<tag k="natural" v="hill" />
		<tag k="place" v="locality" />
		<tag k="ssr:stedsnr" v="6872" />
	</node>
	<node lat="60.56574444075804" lon="6.174000001771969" id="-29925">
		<tag k="name" v="Kvernhusgrovi" />
		<tag k="ssr:stedsnr" v="6874" />
		<tag k="waterway" v="stream" />
	</node>
	<node lat="60.609766668040194" lon="6.638852777113286" id="-29926">
		<tag k="name" v="Skaftedalselvi" />
		<tag k="ssr:stedsnr" v="6891" />
		<tag k="waterway" v="river" />
	</node>
	<node lat="60.59735277789722" lon="6.677080561610036" id="-29927">
		<tag k="fixme" v="multiple name tags, choose one and add the other to alt_name" />
		<tag k="historic" v="shieling" />
		<tag k="name" v="Skårsstølen;Liaset" />
		<tag k="place" v="isolated_dwelling" />
		<tag k="ssr:stedsnr" v="6893" />
	</node>
	<node lat="60.518147225369745" lon="6.634652780193244" id="-29928">
		<tag k="historic" v="shieling" />
		<tag k="name" v="Mikkjelstøl" />
		<tag k="place" v="isolated_dwelling" />
		<tag k="ssr:stedsnr" v="7051" />
	</node>
	<node lat="60.51323002348843" lon="6.632387441903791" id="-29929">
		<tag k="name" v="Svortetjørn" />
		<tag k="natural" v="water" />
		<tag k="ssr:stedsnr" v="7053" />
	</node>
	<node lat="60.64797499802396" lon="5.930419441119928" id="-29930">
		<tag k="name" v="Grøndalen" />
		<tag k="natural" v="valley" />
		<tag k="place" v="locality" />
		<tag k="ssr:stedsnr" v="7001" />
	</node>
	<node lat="60.529138892763115" lon="6.390622224955414" id="-29931">
		<tag k="fixme" v="consider natural=peak for the most distinct mountains in the district" />
		<tag k="name" v="Skjemmuna" />
		<tag k="natural" v="hill" />
		<tag k="place" v="locality" />
		<tag k="ssr:stedsnr" v="7501" />
	</node>
	<node lat="60.50657777933305" lon="6.415791670539501" id="-29932">
		<tag k="name" v="Vetlavatnet" />
		<tag k="natural" v="water" />
		<tag k="ssr:stedsnr" v="7505" />
		<tag k="water" v="lake" />
	</node>
	<node lat="60.610786925148396" lon="6.42941849454808" id="-29933">
		<tag k="name" v="Rokne" />
		<tag k="place" v="farm" />
		<tag k="ssr:stedsnr" v="7601" />
	</node>
	<node lat="60.60944545059042" lon="6.341762270490132" id="-29934">
		<tag k="fixme" v="consider place=hamlet" />
		<tag k="name" v="Midttun" />
		<tag k="place" v="farm" />
		<tag k="ssr:stedsnr" v="7605" />
	</node>
	<node lat="60.60761666443567" lon="6.381450003142925" id="-29935">
		<tag k="name" v="Glimme" />
		<tag k="place" v="farm" />
		<tag k="ssr:stedsnr" v="7606" />
	</node>
	<node lat="60.61592100832412" lon="6.518082234711264" id="-29936">
		<tag k="fixme" v="consider place=hamlet" />
		<tag k="name" v="Oppheim" />
		<tag k="place" v="farm" />
		<tag k="ssr:stedsnr" v="7611" />
	</node>
	<node lat="60.59854167003156" lon="6.312149993627487" id="-29937">
		<tag k="historic" v="shieling" />
		<tag k="name" v="Flyane" />
		<tag k="place" v="locality" />
		<tag k="ssr:stedsnr" v="7618" />
	</node>
	<node lat="60.61057354934109" lon="6.591115362833479" id="-29938">
		<tag k="fixme" v="consider place=hamlet" />
		<tag k="name" v="Tveiti" />
		<tag k="place" v="farm" />
		<tag k="ssr:stedsnr" v="7622" />
	</node>
	<node lat="60.60184062191483" lon="6.580312180307244" id="-29939">
		<tag k="fixme" v="consider place=hamlet" />
		<tag k="name" v="Håtveiti" />
		<tag k="place" v="farm" />
		<tag k="ssr:stedsnr" v="7624" />
	</node>
	<node lat="60.58806388539627" lon="6.250866673617711" id="-29940">
		<tag k="fixme" v="consider natural=peak for the most distinct mountains in the district" />
		<tag k="name" v="Tjørnahorgi" />
		<tag k="natural" v="hill" />
		<tag k="place" v="locality" />
		<tag k="ssr:stedsnr" v="7626" />
	</node>
	<node lat="60.60566944879725" lon="6.517119440875783" id="-29941">
		<tag k="name" v="Hesthaugane" />
		<tag k="natural" v="hill" />
		<tag k="place" v="locality" />
		<tag k="ssr:stedsnr" v="7628" />
	</node>
	<node lat="60.60371722867409" lon="6.550753501030879" id="-29942">
		<tag k="fixme" v="consider place=hamlet" />
		<tag k="name" v="Istad" />
		<tag k="place" v="farm" />
		<tag k="ssr:stedsnr" v="7629" />
	</node>
	<node lat="60.59195438690784" lon="6.460535441080405" id="-29943">
		<tag k="fixme" v="consider place=hamlet" />
		<tag k="name" v="Vele" />
		<tag k="place" v="farm" />
		<tag k="ssr:stedsnr" v="7632" />
	</node>
	<node lat="60.59422678639416" lon="6.576652376569108" id="-29944">
		<tag k="fixme" v="consider place=hamlet" />
		<tag k="name" v="Flatlandsmoen" />
		<tag k="place" v="farm" />
		<tag k="ssr:stedsnr" v="7646" />
	</node>
	<node lat="60.58716666879952" lon="6.564597222492295" id="-29945">
		<tag k="name" v="Langesetskaret" />
		<tag k="natural" v="valley" />
		<tag k="place" v="locality" />
		<tag k="ssr:stedsnr" v="7661" />
	</node>
	<node lat="60.58634444382855" lon="6.537044437923939" id="-29946">
		<tag k="historic" v="shieling" />
		<tag k="name" v="Løkjane" />
		<tag k="place" v="isolated_dwelling" />
		<tag k="ssr:stedsnr" v="7663" />
	</node>
	<node lat="60.61218055649736" lon="6.249733333575635" id="-29947">
		<tag k="name" v="Langemyri" />
		<tag k="natural" v="wetland" />
		<tag k="ssr:stedsnr" v="7711" />
	</node>
	<node lat="60.621574999784194" lon="6.376277775804183" id="-29948">
		<tag k="name" v="Gullfjordungen" />
		<tag k="place" v="hamlet" />
		<tag k="ssr:stedsnr" v="7714" />
	</node>
	<node lat="60.61866944435022" lon="6.475627780609544" id="-29949">
		<tag k="name" v="Nonshaugane" />
		<tag k="natural" v="hill" />
		<tag k="place" v="locality" />
		<tag k="ssr:stedsnr" v="7721" />
	</node>
	<node lat="60.62566666369446" lon="6.544449998037695" id="-29950">
		<tag k="name" v="Løypet" />
		<tag k="natural" v="slope" />
		<tag k="place" v="locality" />
		<tag k="ssr:stedsnr" v="7730" />
	</node>
	<node lat="60.55089722187785" lon="6.820380553424778" id="-29951">
		<tag k="name" v="Øvre Skjelmarhaugen" />
		<tag k="natural" v="hill" />
		<tag k="place" v="locality" />
		<tag k="ssr:stedsnr" v="7796" />
	</node>
	<node lat="60.562780683936374" lon="6.7844068773350665" id="-29952">
		<tag k="name" v="Lyngerstjørn" />
		<tag k="natural" v="water" />
		<tag k="ssr:stedsnr" v="7847" />
	</node>
	<node lat="60.5609083316724" lon="6.621744450611483" id="-29953">
		<tag k="name" v="Lyklaknappen" />
		<tag k="natural" v="hill" />
		<tag k="place" v="locality" />
		<tag k="ssr:stedsnr" v="7855" />
	</node>
	<node lat="60.566054085224735" lon="6.641849357203897" id="-29954">
		<tag k="name" v="Krokavatnet" />
		<tag k="natural" v="water" />
		<tag k="ssr:stedsnr" v="7858" />
		<tag k="water" v="lake" />
	</node>
	<node lat="60.686514220014246" lon="6.703288946326142" id="-29955">
		<tag k="name" v="Hovdatjørni" />
		<tag k="natural" v="water" />
		<tag k="ssr:stedsnr" v="7963" />
	</node>
	<node lat="60.66888132961913" lon="6.774970285598075" id="-29956">
		<tag k="fixme" v="consider place=hamlet" />
		<tag k="name" v="Voll" />
		<tag k="place" v="farm" />
		<tag k="ssr:stedsnr" v="7997" />
	</node>
	<node lat="60.87094444029404" lon="6.339761117230672" id="-29957">
		<tag k="fixme" v="consider natural=peak for the most distinct mountains in the district" />
		<tag k="name" v="Horgi" />
		<tag k="natural" v="hill" />
		<tag k="place" v="locality" />
		<tag k="ssr:stedsnr" v="8591" />
	</node>
	<node lat="60.88164444443206" lon="6.389813891645316" id="-29958">
		<tag k="fixme" v="consider natural=peak for the most distinct mountains in the district" />
		<tag k="name" v="Tverrgavlane" />
		<tag k="natural" v="hill" />
		<tag k="place" v="locality" />
		<tag k="ssr:stedsnr" v="8597" />
	</node>
	<node lat="60.797549999831205" lon="6.587374992073721" id="-29959">
		<tag k="name" v="Høgtun" />
		<tag k="place" v="farm" />
		<tag k="ssr:stedsnr" v="8988" />
	</node>
	<node lat="60.76771110840303" lon="6.4928749950706415" id="-29960">
		<tag k="name" v="Humlabrekkhaugen" />
		<tag k="place" v="farm" />
		<tag k="ssr:stedsnr" v="9944" />
	</node>
	<node lat="60.76734402045934" lon="6.459331812703536" id="-29961">
		<tag k="fixme" v="consider place=hamlet" />
		<tag k="name" v="Igdetveit" />
		<tag k="place" v="farm" />
		<tag k="ssr:stedsnr" v="9950" />
	</node>
	<node lat="60.65642500017547" lon="6.240350004381461" id="-29962">
		<tag k="name" v="Madlielvi" />
		<tag k="ssr:stedsnr" v="20010" />
		<tag k="waterway" v="river" />
	</node>
	<node lat="60.61233611154607" lon="6.31797500856192" id="-29963">
		<tag k="name" v="Dagestadhagane" />
		<tag k="natural" v="slope" />
		<tag k="place" v="locality" />
		<tag k="ssr:stedsnr" v="20087" />
	</node>
	<node lat="60.51279444548061" lon="6.287288884649188" id="-29964">
		<tag k="name" v="Bukanolten" />
		<tag k="natural" v="ridge" />
		<tag k="place" v="locality" />
		<tag k="ssr:stedsnr" v="20202" />
	</node>
	<node lat="60.83295000198839" lon="6.518311106459177" id="-29965">
		<tag k="name" v="Bordi" />
		<tag k="natural" v="slope" />
		<tag k="place" v="locality" />
		<tag k="ssr:stedsnr" v="20243" />
	</node>
	<node lat="60.782350003997614" lon="6.594969445540183" id="-29966">
		<tag k="name" v="Troi" />
		<tag k="place" v="locality" />
		<tag k="ssr:stedsnr" v="20138" />
	</node>
	<node lat="60.78408610986345" lon="6.607188893573268" id="-29967">
		<tag k="name" v="Hestahaugen" />
		<tag k="natural" v="hill" />
		<tag k="place" v="locality" />
		<tag k="ssr:stedsnr" v="20145" />
	</node>
	<node lat="60.81015277724346" lon="6.5700111175682565" id="-29968">
		<tag k="name" v="Stølshaugbrekkene" />
		<tag k="natural" v="slope" />
		<tag k="place" v="locality" />
		<tag k="ssr:stedsnr" v="20259" />
	</node>
	<node lat="60.820052779376155" lon="6.577191673715752" id="-29969">
		<tag k="name" v="Vetle-Svarthammaren" />
		<tag k="natural" v="hill" />
		<tag k="place" v="locality" />
		<tag k="ssr:stedsnr" v="20263" />
	</node>
	<node lat="60.65995555372221" lon="6.097772214936062" id="-29970">
		<tag k="name" v="Kvernagrovi" />
		<tag k="ssr:stedsnr" v="20737" />
		<tag k="waterway" v="river" />
	</node>
	<node lat="60.64524999954344" lon="6.264705546942772" id="-29971">
		<tag k="name" v="Bergselvi" />
		<tag k="ssr:stedsnr" v="21038" />
		<tag k="waterway" v="river" />
	</node>
	<node lat="60.721466354545385" lon="6.501842636838681" id="-29972">
		<tag k="name" v="Øvre Leidal" />
		<tag k="place" v="farm" />
		<tag k="ssr:stedsnr" v="21238" />
	</node>
	<node lat="60.61358889032169" lon="6.165966658080373" id="-29973">
		<tag k="name" v="Turrehaugen" />
		<tag k="natural" v="hill" />
		<tag k="place" v="locality" />
		<tag k="ssr:stedsnr" v="21239" />
	</node>
	<node lat="60.614963888009264" lon="6.1381972232364586" id="-29974">
		<tag k="name" v="Tungeteigen" />
		<tag k="natural" v="slope" />
		<tag k="place" v="locality" />
		<tag k="ssr:stedsnr" v="21243" />
	</node>
	<node lat="60.61328055929383" lon="6.220911109741322" id="-29975">
		<tag k="name" v="Teltberget" />
		<tag k="natural" v="hill" />
		<tag k="place" v="locality" />
		<tag k="ssr:stedsnr" v="21249" />
	</node>
	<node lat="60.6408777818888" lon="5.894300002265902" id="-29976">
		<tag k="name" v="Løypet" />
		<tag k="natural" v="valley" />
		<tag k="place" v="locality" />
		<tag k="ssr:stedsnr" v="20939" />
	</node>
	<node lat="60.658266669600444" lon="5.924275000909371" id="-29977">
		<tag k="name" v="Fagerteigen" />
		<tag k="natural" v="slope" />
		<tag k="place" v="locality" />
		<tag k="ssr:stedsnr" v="20946" />
	</node>
	<node lat="60.59730278153478" lon="6.1927583278106875" id="-29978">
		<tag k="name" v="Bruhaugen" />
		<tag k="natural" v="hill" />
		<tag k="place" v="locality" />
		<tag k="ssr:stedsnr" v="20950" />
	</node>
	<node lat="60.8142888880542" lon="6.478202786935068" id="-29979">
		<tag k="name" v="Merkesgrovi" />
		<tag k="ssr:stedsnr" v="21338" />
		<tag k="waterway" v="river" />
	</node>
	<node lat="60.81112222619511" lon="6.505352776777769" id="-29980">
		<tag k="historic" v="shieling" />
		<tag k="name" v="Øyaset" />
		<tag k="place" v="isolated_dwelling" />
		<tag k="ssr:stedsnr" v="21342" />
	</node>
	<node lat="60.718858331012704" lon="6.121555548302842" id="-29981">
		<tag k="name" v="Kvitlane" />
		<tag k="natural" v="slope" />
		<tag k="place" v="locality" />
		<tag k="ssr:stedsnr" v="21534" />
	</node>
	<node lat="60.67196389157065" lon="6.066322228632164" id="-29982">
		<tag k="name" v="Svedne" />
		<tag k="natural" v="slope" />
		<tag k="place" v="locality" />
		<tag k="ssr:stedsnr" v="21701" />
	</node>
	<node lat="60.681063889779416" lon="5.955730557460805" id="-29983">
		<tag k="name" v="Skorvedalen" />
		<tag k="natural" v="valley" />
		<tag k="place" v="locality" />
		<tag k="ssr:stedsnr" v="21707" />
	</node>
	<node lat="60.682438884819284" lon="5.975963893336275" id="-29984">
		<tag k="name" v="Smettesteinen" />
		<tag k="natural" v="stone" />
		<tag k="ssr:stedsnr" v="21709" />
	</node>
	<node lat="60.63867500179968" lon="6.07641665964725" id="-29985">
		<tag k="name" v="Kattagili" />
		<tag k="natural" v="gorge" />
		<tag k="ssr:stedsnr" v="21683" />
	</node>
	<node lat="60.677386109827424" lon="6.008672227448911" id="-29986">
		<tag k="name" v="Flisebakkane" />
		<tag k="natural" v="slope" />
		<tag k="place" v="locality" />
		<tag k="ssr:stedsnr" v="21812" />
	</node>
	<node lat="60.65323468264543" lon="6.5191696745483005" id="-29987">
		<tag k="name" v="Øvre Grauo" />
		<tag k="place" v="farm" />
		<tag k="ssr:stedsnr" v="21791" />
	</node>
	<node lat="60.66695277707096" lon="6.387925007074756" id="-29988">
		<tag k="name" v="Middagshola" />
		<tag k="natural" v="valley" />
		<tag k="place" v="locality" />
		<tag k="ssr:stedsnr" v="21902" />
	</node>
	<node lat="60.664774349304686" lon="5.911438046718898" id="-29989">
		<tag k="fixme" v="consider place=hamlet" />
		<tag k="name" v="Aldalen" />
		<tag k="place" v="farm" />
		<tag k="ssr:stedsnr" v="21937" />
	</node>
	<node lat="60.45829444478089" lon="6.632894443316193" id="-29990">
		<tag k="name" v="Bjørgi" />
		<tag k="natural" v="slope" />
		<tag k="place" v="locality" />
		<tag k="ssr:stedsnr" v="22203" />
	</node>
	<node lat="60.68502629112797" lon="6.738791071160923" id="-29991">
		<tag k="fixme" v="consider place=hamlet" />
		<tag k="name" v="Brekke" />
		<tag k="place" v="farm" />
		<tag k="ssr:stedsnr" v="25487" />
	</node>
	<node lat="60.44829722561743" lon="6.6821166601582735" id="-29992">
		<tag k="name" v="Kleivaskar" />
		<tag k="natural" v="hill" />
		<tag k="place" v="locality" />
		<tag k="ssr:stedsnr" v="38601" />
	</node>
	<node lat="60.47583055623432" lon="6.7477444389378105" id="-29993">
		<tag k="name" v="Bulegena" />
		<tag k="place" v="locality" />
		<tag k="ssr:stedsnr" v="38704" />
	</node>
	<node lat="60.45915000447721" lon="6.736738887886008" id="-29994">
		<tag k="name" v="Nabbahaugane" />
		<tag k="natural" v="hill" />
		<tag k="place" v="locality" />
		<tag k="ssr:stedsnr" v="38710" />
	</node>
	<node lat="60.47510277693595" lon="6.758402773362084" id="-29995">
		<tag k="name" v="Bukkaskorane" />
		<tag k="natural" v="hill" />
		<tag k="place" v="locality" />
		<tag k="ssr:stedsnr" v="38720" />
	</node>
	<node lat="60.458365513889525" lon="6.7557032150456" id="-29996">
		<tag k="name" v="Persviki" />
		<tag k="natural" v="bay" />
		<tag k="ssr:stedsnr" v="38723" />
	</node>
	<node lat="60.59056388534622" lon="6.674574998212898" id="-29997">
		<tag k="name" v="Drevdalen" />
		<tag k="natural" v="valley" />
		<tag k="place" v="locality" />
		<tag k="ssr:stedsnr" v="38903" />
	</node>
	<node lat="60.50351944688834" lon="6.703911115222543" id="-29998">
		<tag k="name" v="Breiskårsnuten" />
		<tag k="natural" v="hill" />
		<tag k="place" v="locality" />
		<tag k="ssr:stedsnr" v="38907" />
	</node>
	<node lat="60.50984444342571" lon="6.711152774085852" id="-29999">
		<tag k="name" v="Langedalsberget" />
		<tag k="natural" v="hill" />
		<tag k="place" v="locality" />
		<tag k="ssr:stedsnr" v="38909" />
	</node>
	<node lat="60.4901421085396" lon="6.615974095540714" id="-30000">
		<tag k="name" v="Kalvbakketjørnane" />
		<tag k="natural" v="water" />
		<tag k="ssr:stedsnr" v="38914" />
		<tag k="water" v="lake" />
	</node>
	<node lat="60.46220000333485" lon="6.728005560599178" id="-30001">
		<tag k="historic" v="shieling" />
		<tag k="name" v="Fonnastøl" />
		<tag k="place" v="isolated_dwelling" />
		<tag k="ssr:stedsnr" v="38697" />
	</node>
	<node lat="60.60685833549474" lon="6.701602773425509" id="-30002">
		<tag k="name" v="Nollen" />
		<tag k="natural" v="ridge" />
		<tag k="place" v="locality" />
		<tag k="ssr:stedsnr" v="38806" />
	</node>
	<node lat="60.58028332909502" lon="6.711113896726333" id="-30003">
		<tag k="name" v="Tryglaskar" />
		<tag k="natural" v="valley" />
		<tag k="place" v="locality" />
		<tag k="ssr:stedsnr" v="38816" />
	</node>
	<node lat="60.61856944170741" lon="6.739283332419324" id="-30004">
		<tag k="name" v="Våi" />
		<tag k="natural" v="slope" />
		<tag k="place" v="locality" />
		<tag k="ssr:stedsnr" v="38821" />
	</node>
	<node lat="60.55200833023389" lon="6.792336120250002" id="-30005">
		<tag k="alt_name" v="Skårane" />
		<tag k="name" v="Skorane" />
		<tag k="natural" v="hill" />
		<tag k="place" v="locality" />
		<tag k="ssr:stedsnr" v="38859" />
	</node>
	<node lat="60.448597222756476" lon="6.6496361134688975" id="-30007">
		<tag k="name" v="Hagen" />
		<tag k="place" v="locality" />
		<tag k="ssr:stedsnr" v="39703" />
	</node>
	<node lat="60.452916663462595" lon="6.628438896631715" id="-30008">
		<tag k="name" v="Lindehola" />
		<tag k="natural" v="bay" />
		<tag k="ssr:stedsnr" v="39763" />
	</node>
	<node lat="60.767747218037336" lon="6.611536107686475" id="-30009">
		<tag k="name" v="Mølmagrønbakkane" />
		<tag k="natural" v="slope" />
		<tag k="place" v="locality" />
		<tag k="ssr:stedsnr" v="44898" />
	</node>
	<node lat="60.68478611416653" lon="6.731313896078522" id="-30010">
		<tag k="name" v="Sverrdalen" />
		<tag k="natural" v="valley" />
		<tag k="place" v="locality" />
		<tag k="ssr:stedsnr" v="44911" />
	</node>
	<node lat="60.89771667058098" lon="6.62909166414534" id="-30011">
		<tag k="name" v="Brotet" />
		<tag k="place" v="locality" />
		<tag k="ssr:stedsnr" v="45101" />
	</node>
	<node lat="60.890905552825394" lon="6.705555555927613" id="-30012">
		<tag k="name" v="Stølslii" />
		<tag k="natural" v="slope" />
		<tag k="place" v="locality" />
		<tag k="ssr:stedsnr" v="45173" />
	</node>
	<node lat="60.88639721860218" lon="6.702388891734816" id="-30013">
		<tag k="historic" v="shieling" />
		<tag k="name" v="Svoleset" />
		<tag k="place" v="isolated_dwelling" />
		<tag k="ssr:stedsnr" v="45175" />
	</node>
	<node lat="60.89945833003178" lon="6.7130444483076985" id="-30014">
		<tag k="name" v="Hogsteren" />
		<tag k="place" v="locality" />
		<tag k="ssr:stedsnr" v="45177" />
	</node>
	<node lat="60.89631389338372" lon="6.711561115755465" id="-30015">
		<tag k="name" v="Nåsolii" />
		<tag k="natural" v="slope" />
		<tag k="place" v="locality" />
		<tag k="ssr:stedsnr" v="45179" />
	</node>
	<node lat="60.90262618474782" lon="6.741213572486467" id="-30016">
		<tag k="name" v="Hondahola" />
		<tag k="place" v="locality" />
		<tag k="ssr:stedsnr" v="45181" />
	</node>
	<node lat="60.678797220174744" lon="6.630438883426362" id="-30017">
		<tag k="name" v="Øyeflaten" />
		<tag k="place" v="locality" />
		<tag k="ssr:stedsnr" v="45186" />
	</node>
	<node lat="60.6802888862964" lon="6.648069451605212" id="-30018">
		<tag k="name" v="Storskori" />
		<tag k="place" v="locality" />
		<tag k="ssr:stedsnr" v="45190" />
	</node>
	<node lat="60.695819218187474" lon="6.681509984028789" id="-30019">
		<tag k="name" v="Sygnaberdshovden" />
		<tag k="natural" v="hill" />
		<tag k="place" v="locality" />
		<tag k="ssr:stedsnr" v="45302" />
	</node>
	<node lat="60.86661667005604" lon="6.601402768701524" id="-30020">
		<tag k="name" v="Hoven" />
		<tag k="place" v="locality" />
		<tag k="ssr:stedsnr" v="45075" />
	</node>
	<node lat="60.69818333627584" lon="6.697247213624849" id="-30021">
		<tag k="name" v="Dryftabotn" />
		<tag k="natural" v="valley" />
		<tag k="place" v="locality" />
		<tag k="ssr:stedsnr" v="45287" />
	</node>
	<node lat="60.68449722235819" lon="6.674152771260779" id="-30022">
		<tag k="name" v="Vetle Skiple" />
		<tag k="place" v="farm" />
		<tag k="ssr:stedsnr" v="45290" />
	</node>
	<node lat="60.56566944596282" lon="6.426272223703929" id="-30023">
		<tag k="name" v="Bjørgi" />
		<tag k="natural" v="hill" />
		<tag k="place" v="locality" />
		<tag k="ssr:stedsnr" v="45520" />
	</node>
	<node lat="60.564524997293795" lon="6.427699997014169" id="-30024">
		<tag k="name" v="Sletteli" />
		<tag k="natural" v="slope" />
		<tag k="place" v="locality" />
		<tag k="ssr:stedsnr" v="45522" />
	</node>
	<node lat="60.58381111086845" lon="6.490716673092286" id="-30025">
		<tag k="name" v="Kvasshaugane" />
		<tag k="natural" v="hill" />
		<tag k="place" v="locality" />
		<tag k="ssr:stedsnr" v="45523" />
	</node>
	<node lat="60.72258924659292" lon="6.498798279322832" id="-30026">
		<tag k="name" v="Leidalsgrovi" />
		<tag k="ssr:stedsnr" v="45702" />
		<tag k="waterway" v="stream" />
	</node>
	<node lat="60.645055558214466" lon="6.515413889708988" id="-30027">
		<tag k="name" v="Kristitræet" />
		<tag k="place" v="locality" />
		<tag k="ssr:stedsnr" v="45472" />
	</node>
	<node lat="60.666855554301534" lon="6.474277784649976" id="-30028">
		<tag k="name" v="Plassateigen" />
		<tag k="place" v="farm" />
		<tag k="ssr:stedsnr" v="45692" />
	</node>
	<node lat="60.72537499945934" lon="6.666838886731986" id="-30029">
		<tag k="historic" v="shieling" />
		<tag k="name" v="Jonsstølen" />
		<tag k="place" v="locality" />
		<tag k="ssr:stedsnr" v="45904" />
	</node>
	<node lat="60.5427249971274" lon="6.210466662364265" id="-30030">
		<tag k="name" v="Hardingaskaret" />
		<tag k="natural" v="valley" />
		<tag k="place" v="locality" />
		<tag k="ssr:stedsnr" v="45951" />
	</node>
	<node lat="60.572033332969355" lon="6.195536108281889" id="-30031">
		<tag k="name" v="Hjellane" />
		<tag k="place" v="locality" />
		<tag k="ssr:stedsnr" v="45976" />
	</node>
	<node lat="60.614558336375595" lon="6.092711116646348" id="-30032">
		<tag k="name" v="Belaskaret" />
		<tag k="natural" v="valley" />
		<tag k="place" v="locality" />
		<tag k="ssr:stedsnr" v="45989" />
	</node>
	<node lat="60.621655556575774" lon="6.104249991108827" id="-30033">
		<tag k="name" v="Småholena" />
		<tag k="place" v="locality" />
		<tag k="ssr:stedsnr" v="45991" />
	</node>
	<node lat="60.834029251484154" lon="6.728635960908163" id="-30034">
		<tag k="name" v="Nipetjørnane" />
		<tag k="natural" v="water" />
		<tag k="ssr:stedsnr" v="45881" />
		<tag k="water" v="lake" />
	</node>
	<node lat="60.92604615626017" lon="6.74489538063046" id="-30035">
		<tag k="name" v="Kåsteinskyrkja" />
		<tag k="natural" v="stone" />
		<tag k="ssr:stedsnr" v="46001" />
	</node>
	<node lat="60.7689611138362" lon="6.489338889756696" id="-30036">
		<tag k="bridge" v="yes" />
		<tag k="layer" v="1" />
		<tag k="name" v="Skromle" />
		<tag k="ssr:stedsnr" v="46172" />
	</node>
	<node lat="60.49677778106115" lon="6.469025006713074" id="-30037">
		<tag k="loc_name" v="Grungo" />
		<tag k="name" v="Kaldåni" />
		<tag k="ssr:stedsnr" v="46174" />
		<tag k="waterway" v="stream" />
	</node>
	<node lat="60.75659999995295" lon="6.133447222404501" id="-30038">
		<tag k="bridge" v="yes" />
		<tag k="layer" v="1" />
		<tag k="name" v="Ormeset" />
		<tag k="ssr:stedsnr" v="46177" />
	</node>
	<node lat="60.62889722090826" lon="6.261655551449505" id="-30039">
		<tag k="bridge" v="yes" />
		<tag k="layer" v="1" />
		<tag k="name" v="Suto" />
		<tag k="ssr:stedsnr" v="46183" />
	</node>
	<node lat="60.592802775255784" lon="6.480069444022954" id="-30040">
		<tag k="name" v="Slettaberget" />
		<tag k="natural" v="hill" />
		<tag k="place" v="locality" />
		<tag k="ssr:stedsnr" v="46711" />
	</node>
	<node lat="60.557116667094014" lon="6.502369443195093" id="-30041">
		<tag k="name" v="Gråknausen" />
		<tag k="natural" v="hill" />
		<tag k="place" v="locality" />
		<tag k="ssr:stedsnr" v="46726" />
	</node>
	<node lat="60.48196879169349" lon="6.413133565798743" id="-30042">
		<tag k="alt_name" v="Steinset" />
		<tag k="historic" v="shieling" />
		<tag k="loc_name" v="Steinselet" />
		<tag k="name" v="Steinsete" />
		<tag k="place" v="locality" />
		<tag k="ssr:stedsnr" v="46619" />
	</node>
	<node lat="60.57194999798173" lon="6.570344452104525" id="-30043">
		<tag k="historic" v="shieling" />
		<tag k="name" v="Myraseta" />
		<tag k="place" v="locality" />
		<tag k="ssr:stedsnr" v="46670" />
	</node>
	<node lat="60.63868889304451" lon="6.2487583349598115" id="-30044">
		<tag k="bridge" v="yes" />
		<tag k="layer" v="1" />
		<tag k="name" v="Berge" />
		<tag k="ssr:stedsnr" v="46804" />
	</node>
	<node lat="60.58610000127208" lon="6.637524992121904" id="-30045">
		<tag k="bridge" v="yes" />
		<tag k="layer" v="1" />
		<tag k="name" v="Skjervet" />
		<tag k="ssr:stedsnr" v="46806" />
	</node>
	<node lat="60.61558888503257" lon="6.3197444464258306" id="-30046">
		<tag k="name" v="Jensbu" />
		<tag k="place" v="isolated_dwelling" />
		<tag k="ssr:stedsnr" v="59015" />
	</node>
	<node lat="60.55663332913382" lon="6.583624999566099" id="-30047">
		<tag k="name" v="Nylenda" />
		<tag k="place" v="farm" />
		<tag k="ssr:stedsnr" v="288718" />
	</node>
	<node lat="60.4470194405499" lon="6.6417694367100335" id="-30048">
		<tag k="fixme" v="consider place=hamlet" />
		<tag k="name" v="Naustflot" />
		<tag k="place" v="farm" />
		<tag k="ssr:stedsnr" v="66325" />
	</node>
	<node lat="60.475672218661586" lon="6.650174993137451" id="-30049">
		<tag k="bay" v="fjord" />
		<tag k="name" v="Granvinsfjorden" />
		<tag k="natural" v="bay" />
		<tag k="ssr:stedsnr" v="66402" />
	</node>
	<node lat="60.650505554759945" lon="6.074302781331173" id="-30050">
		<tag k="name" v="Storevikane" />
		<tag k="place" v="farm" />
		<tag k="ssr:stedsnr" v="67110" />
	</node>
	<node lat="60.64190277645924" lon="5.934508326112449" id="-30051">
		<tag k="fixme" v="consider natural=peak for the most distinct mountains in the district" />
		<tag k="name" v="Flåtaberget" />
		<tag k="natural" v="hill" />
		<tag k="place" v="locality" />
		<tag k="ssr:stedsnr" v="67113" />
	</node>
	<node lat="60.6367638903691" lon="5.917727783122016" id="-30052">
		<tag k="name" v="Viggjaneset" />
		<tag k="natural" v="cape" />
		<tag k="ssr:stedsnr" v="67116" />
	</node>
	<node lat="60.63313055971684" lon="6.206175003913058" id="-30053">
		<tag k="name" v="Hohølen" />
		<tag k="place" v="locality" />
		<tag k="ssr:stedsnr" v="67121" />
	</node>
	<node lat="60.63680277472456" lon="6.216544438057405" id="-30054">
		<tag k="name" v="Røysmyri" />
		<tag k="natural" v="wetland" />
		<tag k="ssr:stedsnr" v="67123" />
	</node>
	<node lat="60.63532500339841" lon="6.2136027784087275" id="-30055">
		<tag k="name" v="Knoltane" />
		<tag k="natural" v="hill" />
		<tag k="place" v="locality" />
		<tag k="ssr:stedsnr" v="67124" />
	</node>
	<node lat="60.644138892879084" lon="6.1734361058558695" id="-30056">
		<tag k="name" v="Øyjordi" />
		<tag k="place" v="locality" />
		<tag k="ssr:stedsnr" v="67130" />
	</node>
	<node lat="60.63576388918037" lon="6.115808327278593" id="-30057">
		<tag k="name" v="Snøbandslii" />
		<tag k="natural" v="slope" />
		<tag k="place" v="locality" />
		<tag k="ssr:stedsnr" v="67131" />
	</node>
	<node lat="60.636598483812406" lon="6.105331217689554" id="-30058">
		<tag k="fixme" v="consider place=hamlet" />
		<tag k="name" v="Mykkeltveit" />
		<tag k="place" v="farm" />
		<tag k="ssr:stedsnr" v="67133" />
	</node>
	<node lat="60.63665832986143" lon="6.200802778971034" id="-30059">
		<tag k="name" v="Vosso" />
		<tag k="ssr:stedsnr" v="67134" />
		<tag k="waterway" v="river" />
	</node>
	<node lat="60.65580000173269" lon="6.139852776027912" id="-30060">
		<tag k="name" v="Muggåselvi" />
		<tag k="ssr:stedsnr" v="67052" />
		<tag k="waterway" v="river" />
	</node>
	<node lat="60.66791602267087" lon="6.536290976341708" id="-30061">
		<tag k="name" v="Klyve" />
		<tag k="place" v="hamlet" />
		<tag k="ssr:stedsnr" v="67299" />
	</node>
	<node lat="60.73846933920372" lon="6.106350970273261" id="-30062">
		<tag k="name" v="Søtevatnet" />
		<tag k="natural" v="water" />
		<tag k="ssr:stedsnr" v="67425" />
	</node>
	<node lat="60.73318889191561" lon="6.127858324626396" id="-30063">
		<tag k="name" v="Kvernagrovi" />
		<tag k="ssr:stedsnr" v="67434" />
		<tag k="waterway" v="stream" />
	</node>
	<node lat="60.71837500198622" lon="5.9247805472075585" id="-30064">
		<tag k="name" v="Dyretørne" />
		<tag k="natural" v="valley" />
		<tag k="place" v="locality" />
		<tag k="ssr:stedsnr" v="67444" />
	</node>
	<node lat="60.65500277902985" lon="6.292080551447803" id="-30065">
		<tag k="name" v="Storhaugen" />
		<tag k="natural" v="hill" />
		<tag k="place" v="locality" />
		<tag k="ssr:stedsnr" v="67303" />
	</node>
	<node lat="60.66017569484442" lon="6.393508690041086" id="-30066">
		<tag k="historic" v="shieling" />
		<tag k="name" v="Nyestølen" />
		<tag k="place" v="isolated_dwelling" />
		<tag k="ssr:stedsnr" v="67307" />
	</node>
	<node lat="60.66165832916511" lon="6.353063897147057" id="-30067">
		<tag k="historic" v="shieling" />
		<tag k="name" v="Kviting" />
		<tag k="place" v="isolated_dwelling" />
		<tag k="ssr:stedsnr" v="67309" />
	</node>
	<node lat="60.68248889042594" lon="6.418024992311881" id="-30068">
		<tag k="fixme" v="consider natural=peak for the most distinct mountains in the district" />
		<tag k="name" v="Nonpresten" />
		<tag k="natural" v="hill" />
		<tag k="place" v="locality" />
		<tag k="ssr:stedsnr" v="67324" />
	</node>
	<node lat="60.74536666655397" lon="6.210666670681028" id="-30069">
		<tag k="fixme" v="consider natural=peak for the most distinct mountains in the district" />
		<tag k="name" v="Storenolten" />
		<tag k="natural" v="hill" />
		<tag k="place" v="locality" />
		<tag k="ssr:stedsnr" v="67391" />
	</node>
	<node lat="60.68437778119256" lon="6.260758340747037" id="-30070">
		<tag k="name" v="Raudbergselvi" />
		<tag k="ssr:stedsnr" v="67345" />
		<tag k="waterway" v="river" />
	</node>
	<node lat="60.69562778135981" lon="5.90384444221095" id="-30071">
		<tag k="name" v="Stoadalen" />
		<tag k="natural" v="valley" />
		<tag k="place" v="locality" />
		<tag k="ssr:stedsnr" v="67505" />
	</node>
	<node lat="60.68730555815055" lon="5.898305558344698" id="-30072">
		<tag k="historic" v="shieling" />
		<tag k="name" v="Vidbotnen" />
		<tag k="place" v="isolated_dwelling" />
		<tag k="ssr:stedsnr" v="67506" />
	</node>
	<node lat="60.695063888096" lon="6.091755552027019" id="-30073">
		<tag k="name" v="Skarvagrovi" />
		<tag k="ssr:stedsnr" v="67515" />
		<tag k="waterway" v="river" />
	</node>
	<node lat="60.68571357368319" lon="5.983947689011866" id="-30074">
		<tag k="name" v="Fossen" />
		<tag k="natural" v="waterfall" />
		<tag k="ssr:stedsnr" v="67521" />
	</node>
	<node lat="60.70008889017671" lon="6.1065083388174735" id="-30075">
		<tag k="name" v="Hagamyri" />
		<tag k="natural" v="wetland" />
		<tag k="ssr:stedsnr" v="67493" />
	</node>
	<node lat="60.56559166991921" lon="6.572202778047433" id="-30076">
		<tag k="name" v="Storhaugen" />
		<tag k="natural" v="hill" />
		<tag k="place" v="locality" />
		<tag k="ssr:stedsnr" v="67608" />
	</node>
	<node lat="60.53462500186179" lon="6.6811749966902" id="-30077">
		<tag k="name" v="Storemyr" />
		<tag k="natural" v="wetland" />
		<tag k="ssr:stedsnr" v="67801" />
	</node>
	<node lat="60.53783610751837" lon="6.2026444493067325" id="-30078">
		<tag k="name" v="Seljebotnen" />
		<tag k="natural" v="valley" />
		<tag k="place" v="locality" />
		<tag k="ssr:stedsnr" v="67806" />
	</node>
	<node lat="60.542441666808664" lon="6.10371389427337" id="-30079">
		<tag k="name" v="Vieråni" />
		<tag k="ssr:stedsnr" v="67838" />
		<tag k="waterway" v="stream" />
	</node>
	<node lat="60.561724998513675" lon="6.387775004457718" id="-30080">
		<tag k="fixme" v="consider natural=peak for the most distinct mountains in the district" />
		<tag k="name" v="Sandfjellet" />
		<tag k="natural" v="hill" />
		<tag k="place" v="locality" />
		<tag k="ssr:stedsnr" v="67590" />
	</node>
	<node lat="60.63339148032508" lon="6.252066057104048" id="-30081">
		<tag k="name" v="Flaga" />
		<tag k="place" v="hamlet" />
		<tag k="ssr:stedsnr" v="67702" />
	</node>
	<node lat="60.63820555333524" lon="6.452774997381467" id="-30082">
		<tag k="fixme" v="consider place=hamlet" />
		<tag k="name" v="Tvilde" />
		<tag k="place" v="farm" />
		<tag k="ssr:stedsnr" v="67709" />
	</node>
	<node lat="60.63854999681803" lon="6.5314333303424" id="-30083">
		<tag k="fixme" v="consider place=hamlet" />
		<tag k="name" v="Bjørke" />
		<tag k="place" v="farm" />
		<tag k="ssr:stedsnr" v="67715" />
	</node>
	<node lat="60.6284615404853" lon="6.50911526801675" id="-30084">
		<tag k="name" v="Takla" />
		<tag k="place" v="hamlet" />
		<tag k="ssr:stedsnr" v="67732" />
	</node>
	<node lat="60.61782614100497" lon="6.3685495852001806" id="-30085">
		<tag k="fixme" v="consider place=hamlet" />
		<tag k="name" v="Kvåle" />
		<tag k="place" v="farm" />
		<tag k="ssr:stedsnr" v="67736" />
	</node>
	<node lat="60.62511666794757" lon="6.484100004901676" id="-30086">
		<tag k="name" v="Kvitli" />
		<tag k="natural" v="slope" />
		<tag k="place" v="locality" />
		<tag k="ssr:stedsnr" v="67740" />
	</node>
	<node lat="60.612044441911344" lon="6.288397218036917" id="-30087">
		<tag k="name" v="Mosafinnselvi" />
		<tag k="ssr:stedsnr" v="67746" />
		<tag k="waterway" v="stream" />
	</node>
	<node lat="60.548288890766905" lon="6.089911104327436" id="-30088">
		<tag k="alt_name" v="Kvanngjeli" />
		<tag k="loc_name" v="Kvanngili" />
		<tag k="name" v="Kvanngjelet" />
		<tag k="natural" v="valley" />
		<tag k="place" v="locality" />
		<tag k="ssr:stedsnr" v="67794" />
	</node>
	<node lat="60.614002774686234" lon="6.708194450296924" id="-30089">
		<tag k="historic" v="shieling" />
		<tag k="name" v="Aunaset" />
		<tag k="place" v="isolated_dwelling" />
		<tag k="ssr:stedsnr" v="67898" />
	</node>
	<node lat="60.511452781582044" lon="6.506933332016542" id="-30090">
		<tag k="fixme" v="consider natural=peak for the most distinct mountains in the district" />
		<tag k="name" v="Svinanakken" />
		<tag k="natural" v="hill" />
		<tag k="place" v="locality" />
		<tag k="ssr:stedsnr" v="68537" />
	</node>
	<node lat="60.54756430880009" lon="6.553635151318584" id="-30091">
		<tag k="name" v="Svartatjørni" />
		<tag k="natural" v="water" />
		<tag k="ssr:stedsnr" v="68607" />
	</node>
	<node lat="60.694338891634274" lon="6.90586943794394" id="-30092">
		<tag k="name" v="Skredteigselvi" />
		<tag k="ssr:stedsnr" v="68927" />
		<tag k="waterway" v="river" />
	</node>
	<node lat="60.5698499964447" lon="6.661916669022258" id="-30093">
		<tag k="historic" v="shieling" />
		<tag k="name" v="Njuk" />
		<tag k="place" v="isolated_dwelling" />
		<tag k="ssr:stedsnr" v="68809" />
	</node>
	<node lat="60.83735941716814" lon="6.519269595304145" id="-30094">
		<tag k="name" v="Stora Vasstjørni" />
		<tag k="natural" v="water" />
		<tag k="ssr:stedsnr" v="69605" />
	</node>
	<node lat="60.82679166220691" lon="6.323449993385187" id="-30095">
		<tag k="name" v="Torvedalen" />
		<tag k="natural" v="valley" />
		<tag k="place" v="locality" />
		<tag k="ssr:stedsnr" v="69610" />
	</node>
	<node lat="60.75646666385444" lon="6.124488887199017" id="-30096">
		<tag k="historic" v="shieling" />
		<tag k="name" v="Ormaset" />
		<tag k="place" v="isolated_dwelling" />
		<tag k="ssr:stedsnr" v="69701" />
	</node>
	<node lat="60.77206944528357" lon="6.662922218189286" id="-30097">
		<tag k="fixme" v="consider natural=peak for the most distinct mountains in the district" />
		<tag k="name" v="Middagshovden" />
		<tag k="natural" v="hill" />
		<tag k="place" v="locality" />
		<tag k="ssr:stedsnr" v="69782" />
	</node>
	<node lat="60.813394448649085" lon="6.809850002351021" id="-30098">
		<tag k="fixme" v="consider natural=peak for the most distinct mountains in the district" />
		<tag k="loc_name" v="Koldenuten" />
		<tag k="name" v="Kaldanuten" />
		<tag k="natural" v="hill" />
		<tag k="place" v="locality" />
		<tag k="ssr:stedsnr" v="69788" />
	</node>
	<node lat="60.87140277896974" lon="6.5545527762592375" id="-30099">
		<tag k="historic" v="shieling" />
		<tag k="name" v="Reppane" />
		<tag k="place" v="isolated_dwelling" />
		<tag k="ssr:stedsnr" v="69628" />
	</node>
	<node lat="60.754011109718164" lon="6.15792499732485" id="-30100">
		<tag k="fixme" v="consider natural=peak for the most distinct mountains in the district" />
		<tag k="name" v="Svartenipa" />
		<tag k="natural" v="hill" />
		<tag k="place" v="locality" />
		<tag k="ssr:stedsnr" v="69699" />
	</node>
	<node lat="60.83935277870292" lon="6.607766671093517" id="-30101">
		<tag k="name" v="Skjolsetdalen" />
		<tag k="natural" v="valley" />
		<tag k="place" v="locality" />
		<tag k="ssr:stedsnr" v="69829" />
	</node>
	<node lat="60.84340277921185" lon="6.915816668049622" id="-30102">
		<tag k="fixme" v="consider tourism=alpine_hut or tourism=chalet" />
		<tag k="name" v="Grindaflethytta" />
		<tag k="ssr:stedsnr" v="69835" />
		<tag k="tourism" v="wilderness_hut" />
	</node>
	<node lat="60.87111666587864" lon="6.745122228819052" id="-30103">
		<tag k="fixme" v="consider natural=peak for the most distinct mountains in the district" />
		<tag k="name" v="Vardanosi" />
		<tag k="natural" v="hill" />
		<tag k="place" v="locality" />
		<tag k="ssr:stedsnr" v="69843" />
	</node>
	<node lat="60.9299583308874" lon="6.7027222142069744" id="-30104">
		<tag k="name" v="Berdalselvi" />
		<tag k="ssr:stedsnr" v="69895" />
		<tag k="waterway" v="stream" />
	</node>
	<node lat="60.771738891784686" lon="6.241825001470195" id="-30105">
		<tag k="name" v="Breihjellen" />
		<tag k="natural" v="slope" />
		<tag k="place" v="locality" />
		<tag k="ssr:stedsnr" v="69979" />
	</node>
	<node lat="60.78077856723818" lon="6.4706663456475875" id="-30106">
		<tag k="fixme" v="consider place=hamlet" />
		<tag k="name" v="Tveito" />
		<tag k="place" v="farm" />
		<tag k="ssr:stedsnr" v="69980" />
	</node>
	<node lat="60.6034027788576" lon="6.591127781821624" id="-30107">
		<tag k="name" v="Fenno" />
		<tag k="place" v="hamlet" />
		<tag k="ssr:stedsnr" v="242706" />
	</node>
	<node lat="60.67168055958045" lon="6.212466674438718" id="-30108">
		<tag k="name" v="Skorslii" />
		<tag k="natural" v="slope" />
		<tag k="place" v="locality" />
		<tag k="ssr:stedsnr" v="81005" />
	</node>
	<node lat="60.652338887028534" lon="6.213377776954116" id="-30109">
		<tag k="name" v="Brislingaskarvet" />
		<tag k="natural" v="hill" />
		<tag k="place" v="locality" />
		<tag k="ssr:stedsnr" v="81008" />
	</node>
	<node lat="60.651816665931484" lon="6.284072221939821" id="-30110">
		<tag k="name" v="Bjørndalen" />
		<tag k="natural" v="valley" />
		<tag k="place" v="locality" />
		<tag k="ssr:stedsnr" v="81012" />
	</node>
	<node lat="60.65537777795006" lon="6.230725003659891" id="-30111">
		<tag k="name" v="Botnane" />
		<tag k="natural" v="valley" />
		<tag k="place" v="locality" />
		<tag k="ssr:stedsnr" v="81013" />
	</node>
	<node lat="60.67159722199821" lon="6.262041658572705" id="-30112">
		<tag k="name" v="Fangdalsleitet" />
		<tag k="natural" v="slope" />
		<tag k="place" v="locality" />
		<tag k="ssr:stedsnr" v="81014" />
	</node>
	<node lat="60.647719448496524" lon="6.240866661067703" id="-30113">
		<tag k="name" v="Fyre" />
		<tag k="natural" v="slope" />
		<tag k="place" v="locality" />
		<tag k="ssr:stedsnr" v="81020" />
	</node>
	<node lat="60.63603611548091" lon="6.251469451605889" id="-30114">
		<tag k="name" v="Lidalen" />
		<tag k="natural" v="valley" />
		<tag k="place" v="locality" />
		<tag k="ssr:stedsnr" v="81029" />
	</node>
	<node lat="60.629630559168085" lon="6.242697229317119" id="-30115">
		<tag k="name" v="Flagateigane" />
		<tag k="natural" v="slope" />
		<tag k="place" v="locality" />
		<tag k="ssr:stedsnr" v="81108" />
	</node>
	<node lat="60.624475002257334" lon="6.194919446967612" id="-30116">
		<tag k="name" v="Karitræet" />
		<tag k="natural" v="slope" />
		<tag k="place" v="locality" />
		<tag k="ssr:stedsnr" v="81206" />
	</node>
	<node lat="60.61836666504304" lon="6.22300000730481" id="-30117">
		<tag k="fixme" v="consider natural=peak for the most distinct mountains in the district" />
		<tag k="name" v="Tunåsen" />
		<tag k="natural" v="hill" />
		<tag k="place" v="locality" />
		<tag k="ssr:stedsnr" v="81208" />
	</node>
	<node lat="60.82838889055973" lon="6.425869451827084" id="-30118">
		<tag k="name" v="Hjellaberget" />
		<tag k="natural" v="hill" />
		<tag k="place" v="locality" />
		<tag k="ssr:stedsnr" v="81244" />
	</node>
	<node lat="60.80547777513336" lon="6.447886111003522" id="-30119">
		<tag k="name" v="Klettagrovi" />
		<tag k="ssr:stedsnr" v="81249" />
		<tag k="waterway" v="river" />
	</node>
	<node lat="60.761372223742995" lon="6.513938882644615" id="-30120">
		<tag k="name" v="Kvarmagrovi" />
		<tag k="ssr:stedsnr" v="81200" />
		<tag k="waterway" v="river" />
	</node>
	<node lat="60.81429166697077" lon="6.672352774249354" id="-30121">
		<tag k="name" v="Bjørkehaugen" />
		<tag k="natural" v="hill" />
		<tag k="place" v="locality" />
		<tag k="ssr:stedsnr" v="81385" />
	</node>
	<node lat="60.72885277950551" lon="6.165486108933971" id="-30122">
		<tag k="name" v="Harkamarkgrovi" />
		<tag k="ssr:stedsnr" v="81529" />
		<tag k="waterway" v="stream" />
	</node>
	<node lat="60.72370000105784" lon="6.127997228183362" id="-30123">
		<tag k="name" v="Hyljaneset" />
		<tag k="natural" v="cape" />
		<tag k="ssr:stedsnr" v="81531" />
	</node>
	<node lat="60.60714722399538" lon="6.519669437282022" id="-30124">
		<tag k="name" v="Tjørehelleren" />
		<tag k="place" v="locality" />
		<tag k="ssr:stedsnr" v="81822" />
	</node>
	<node lat="60.5979804972999" lon="6.451671965428861" id="-30125">
		<tag k="fixme" v="consider place=hamlet" />
		<tag k="name" v="Øvre Himle" />
		<tag k="place" v="farm" />
		<tag k="ssr:stedsnr" v="81823" />
	</node>
	<node lat="60.61288055543396" lon="6.353238893504893" id="-30126">
		<tag k="name" v="Hellesneset" />
		<tag k="natural" v="cape" />
		<tag k="ssr:stedsnr" v="81896" />
	</node>
	<node lat="60.590233330606765" lon="6.527908341576648" id="-30127">
		<tag k="highway" v="path" />
		<tag k="name" v="Harkakleivi" />
		<tag k="ssr:stedsnr" v="82015" />
	</node>
	<node lat="60.74706944214537" lon="6.129572220389507" id="-30128">
		<tag k="name" v="Ryssebotnen" />
		<tag k="natural" v="valley" />
		<tag k="place" v="locality" />
		<tag k="ssr:stedsnr" v="81742" />
	</node>
	<node lat="60.67901388625096" lon="6.108866662895625" id="-30129">
		<tag k="name" v="Midtgrovi" />
		<tag k="ssr:stedsnr" v="81744" />
		<tag k="waterway" v="river" />
	</node>
	<node lat="60.651552779839" lon="6.384400007881401" id="-30130">
		<tag k="name" v="Valbergsnuten" />
		<tag k="natural" v="hill" />
		<tag k="place" v="locality" />
		<tag k="ssr:stedsnr" v="81921" />
	</node>
	<node lat="60.66541666988712" lon="6.362630555249429" id="-30131">
		<tag k="name" v="Raundalen" />
		<tag k="natural" v="valley" />
		<tag k="place" v="locality" />
		<tag k="ssr:stedsnr" v="81922" />
	</node>
	<node lat="60.654469441067675" lon="6.309869447151437" id="-30132">
		<tag k="name" v="Grønemyri" />
		<tag k="natural" v="wetland" />
		<tag k="ssr:stedsnr" v="81937" />
	</node>
	<node lat="60.72292221993167" lon="6.441272229091991" id="-30133">
		<tag k="name" v="Brukalii" />
		<tag k="natural" v="slope" />
		<tag k="place" v="locality" />
		<tag k="ssr:stedsnr" v="82141" />
	</node>
	<node lat="60.807452781987315" lon="6.502491668453223" id="-30134">
		<tag k="name" v="Tryningahaugen" />
		<tag k="natural" v="hill" />
		<tag k="place" v="locality" />
		<tag k="ssr:stedsnr" v="82311" />
	</node>
	<node lat="60.80184444814128" lon="6.480336103961093" id="-30135">
		<tag k="name" v="Tvagrovi" />
		<tag k="ssr:stedsnr" v="82316" />
		<tag k="waterway" v="river" />
	</node>
	<node lat="60.60339722647302" lon="6.278197217459419" id="-30136">
		<tag k="name" v="Furekampen" />
		<tag k="place" v="locality" />
		<tag k="ssr:stedsnr" v="82034" />
	</node>
	<node lat="60.72008055116728" lon="6.116411107977797" id="-30137">
		<tag k="name" v="Ljosaberget" />
		<tag k="natural" v="hill" />
		<tag k="place" v="locality" />
		<tag k="ssr:stedsnr" v="82505" />
	</node>
	<node lat="60.68091548464521" lon="6.58203935008957" id="-30138">
		<tag k="alt_name" v="Davidhaugen" />
		<tag k="fixme" v="consider place=hamlet" />
		<tag k="name" v="Davidhaug" />
		<tag k="old_name" v="Urland" />
		<tag k="place" v="farm" />
		<tag k="ssr:stedsnr" v="86574" />
	</node>
	<node lat="60.67316666908823" lon="5.897688894098531" id="-30139">
		<tag k="name" v="Hyttedalen" />
		<tag k="natural" v="valley" />
		<tag k="place" v="locality" />
		<tag k="ssr:stedsnr" v="248001" />
	</node>
	<node lat="60.66405832935502" lon="5.952250006698829" id="-30140">
		<tag k="name" v="Leinene" />
		<tag k="natural" v="slope" />
		<tag k="place" v="locality" />
		<tag k="ssr:stedsnr" v="248046" />
	</node>
	<node lat="60.45039166777282" lon="6.658027778163511" id="-30141">
		<tag k="name" v="Gråberg" />
		<tag k="natural" v="hill" />
		<tag k="place" v="locality" />
		<tag k="ssr:stedsnr" v="99602" />
	</node>
	<node lat="60.45080277609291" lon="6.672044449114049" id="-30142">
		<tag k="name" v="Storagjel" />
		<tag k="natural" v="gorge" />
		<tag k="ssr:stedsnr" v="99609" />
	</node>
	<node lat="60.63867777572783" lon="5.930902771068514" id="-30143">
		<tag k="name" v="Ormagytneset" />
		<tag k="natural" v="cape" />
		<tag k="ssr:stedsnr" v="248094" />
	</node>
	<node lat="60.639130552664696" lon="5.908102785096155" id="-30144">
		<tag k="name" v="Raudaberget" />
		<tag k="natural" v="hill" />
		<tag k="place" v="locality" />
		<tag k="ssr:stedsnr" v="248095" />
	</node>
	<node lat="60.64033291288687" lon="5.866024146084126" id="-30145">
		<tag k="fixme" v="consider place=hamlet" />
		<tag k="name" v="Hermundsdalen" />
		<tag k="place" v="farm" />
		<tag k="ssr:stedsnr" v="248097" />
	</node>
	<node lat="60.60300277935131" lon="6.1444250012581705" id="-30146">
		<tag k="historic" v="shieling" />
		<tag k="name" v="Flagastølen" />
		<tag k="place" v="locality" />
		<tag k="ssr:stedsnr" v="248190" />
	</node>
	<node lat="60.60835555831621" lon="6.193205553452696" id="-30147">
		<tag k="name" v="Hotten" />
		<tag k="natural" v="slope" />
		<tag k="place" v="locality" />
		<tag k="ssr:stedsnr" v="248195" />
	</node>
	<node lat="60.465722222969504" lon="6.720116670547797" id="-30148">
		<tag k="name" v="Moltemyrane" />
		<tag k="natural" v="wetland" />
		<tag k="ssr:stedsnr" v="99705" />
	</node>
	<node lat="60.481424998132866" lon="6.779325008736839" id="-30149">
		<tag k="fixme" v="consider natural=peak for the most distinct mountains in the district" />
		<tag k="name" v="Nedstafjell" />
		<tag k="natural" v="hill" />
		<tag k="place" v="locality" />
		<tag k="ssr:stedsnr" v="99718" />
	</node>
	<node lat="60.45799444485691" lon="6.751888897442574" id="-30150">
		<tag k="name" v="Persdalen" />
		<tag k="natural" v="valley" />
		<tag k="place" v="locality" />
		<tag k="ssr:stedsnr" v="99720" />
	</node>
	<node lat="60.46919952122314" lon="6.753571099099299" id="-30151">
		<tag k="name" v="Oppsåta" />
		<tag k="place" v="farm" />
		<tag k="ssr:stedsnr" v="99726" />
	</node>
	<node lat="60.57638333371215" lon="6.624027783557926" id="-30152">
		<tag k="name" v="Kamben" />
		<tag k="natural" v="ridge" />
		<tag k="place" v="locality" />
		<tag k="ssr:stedsnr" v="99802" />
	</node>
	<node lat="60.57319166340528" lon="6.737930558194559" id="-30153">
		<tag k="name" v="Lussiskår" />
		<tag k="place" v="locality" />
		<tag k="ssr:stedsnr" v="99809" />
	</node>
	<node lat="60.61503332899266" lon="6.702194438326453" id="-30154">
		<tag k="name" v="Langhaug" />
		<tag k="natural" v="hill" />
		<tag k="place" v="locality" />
		<tag k="ssr:stedsnr" v="99823" />
	</node>
	<node lat="60.61372221838619" lon="6.680697227880231" id="-30155">
		<tag k="name" v="Hengelii" />
		<tag k="natural" v="slope" />
		<tag k="place" v="locality" />
		<tag k="ssr:stedsnr" v="99826" />
	</node>
	<node lat="60.553977779513524" lon="6.765419442007543" id="-30156">
		<tag k="name" v="Djupedal" />
		<tag k="natural" v="valley" />
		<tag k="place" v="locality" />
		<tag k="ssr:stedsnr" v="99860" />
	</node>
	<node lat="60.611133331454134" lon="6.735650000353892" id="-30157">
		<tag k="name" v="Våarstigen" />
		<tag k="ssr:stedsnr" v="99863" />
		<tag k="waterway" v="stream" />
	</node>
	<node lat="60.483766663671574" lon="6.6414972216734345" id="-30158">
		<tag k="name" v="Langaberg" />
		<tag k="natural" v="hill" />
		<tag k="place" v="locality" />
		<tag k="ssr:stedsnr" v="99868" />
	</node>
	<node lat="60.56913333486631" lon="6.649988887807674" id="-30159">
		<tag k="fixme" v="consider natural=peak for the most distinct mountains in the district" />
		<tag k="name" v="Dosafjell" />
		<tag k="natural" v="hill" />
		<tag k="place" v="locality" />
		<tag k="ssr:stedsnr" v="99881" />
	</node>
	<node lat="60.47462777982393" lon="6.544691670392155" id="-30160">
		<tag k="name" v="Molthaug" />
		<tag k="natural" v="hill" />
		<tag k="place" v="locality" />
		<tag k="ssr:stedsnr" v="99910" />
	</node>
	<node lat="60.5181596119365" lon="6.6228151623248515" id="-30161">
		<tag k="name" v="Grisatjørn" />
		<tag k="natural" v="water" />
		<tag k="ssr:stedsnr" v="99916" />
	</node>
	<node lat="60.57913611079238" lon="6.6576666668546105" id="-30162">
		<tag k="name" v="Nova" />
		<tag k="natural" v="hill" />
		<tag k="place" v="locality" />
		<tag k="ssr:stedsnr" v="99918" />
	</node>
	<node lat="60.53115555787668" lon="6.701705560841886" id="-30163">
		<tag k="name" v="Svortesvå" />
		<tag k="natural" v="hill" />
		<tag k="place" v="locality" />
		<tag k="ssr:stedsnr" v="99931" />
	</node>
	<node lat="60.588074997015894" lon="5.948530562687257" id="-30164">
		<tag k="fixme" v="consider natural=peak for the most distinct mountains in the district" />
		<tag k="name" v="Såta" />
		<tag k="natural" v="hill" />
		<tag k="place" v="locality" />
		<tag k="ssr:stedsnr" v="248238" />
	</node>
	<node lat="60.59838677503334" lon="6.041647682933142" id="-30165">
		<tag k="name" v="Osskardtjørni" />
		<tag k="natural" v="water" />
		<tag k="ssr:stedsnr" v="248245" />
	</node>
	<node lat="60.62880000262883" lon="5.942911113401876" id="-30166">
		<tag k="name" v="Geitelvi" />
		<tag k="ssr:stedsnr" v="249131" />
		<tag k="waterway" v="river" />
	</node>
	<node lat="60.71049444775869" lon="6.094516657951437" id="-30167">
		<tag k="historic" v="shieling" />
		<tag k="name" v="Sevaldstadstølen" />
		<tag k="place" v="isolated_dwelling" />
		<tag k="ssr:stedsnr" v="248439" />
	</node>
	<node lat="60.715641664838486" lon="6.023633340426632" id="-30168">
		<tag k="fixme" v="consider natural=peak for the most distinct mountains in the district" />
		<tag k="name" v="Raudsethorgi" />
		<tag k="natural" v="hill" />
		<tag k="place" v="locality" />
		<tag k="ssr:stedsnr" v="248441" />
	</node>
	<node lat="60.62667426477301" lon="6.391365146948475" id="-30169">
		<tag k="fixme" v="consider place=hamlet" />
		<tag k="name" v="Seim" />
		<tag k="place" v="farm" />
		<tag k="ssr:stedsnr" v="248740" />
	</node>
	<node lat="60.509536108837665" lon="6.799719440756059" id="-30170">
		<tag k="fixme" v="consider natural=peak for the most distinct mountains in the district" />
		<tag k="name" v="Dosafjellet" />
		<tag k="natural" v="hill" />
		<tag k="place" v="locality" />
		<tag k="ssr:stedsnr" v="249026" />
	</node>
	<node lat="60.67145158341813" lon="6.012689317756642" id="-30171">
		<tag k="fixme" v="consider place=hamlet" />
		<tag k="name" v="Geilane" />
		<tag k="place" v="farm" />
		<tag k="ssr:stedsnr" v="249029" />
	</node>
	<node lat="60.67756666839835" lon="6.101608336851411" id="-30172">
		<tag k="name" v="Teigdalen" />
		<tag k="natural" v="valley" />
		<tag k="place" v="locality" />
		<tag k="ssr:stedsnr" v="249031" />
	</node>
	<node lat="60.65509141779823" lon="6.088363872300531" id="-30173">
		<tag k="fixme" v="consider place=hamlet" />
		<tag k="name" v="Fadnes" />
		<tag k="place" v="farm" />
		<tag k="ssr:stedsnr" v="249033" />
	</node>
	<node lat="60.665758332861344" lon="6.203399997551816" id="-30174">
		<tag k="name" v="Storhaugen" />
		<tag k="natural" v="hill" />
		<tag k="place" v="locality" />
		<tag k="ssr:stedsnr" v="249053" />
	</node>
	<node lat="60.525690515273276" lon="6.611632483619473" id="-30175">
		<tag k="name" v="Hardingatjørni" />
		<tag k="natural" v="water" />
		<tag k="ssr:stedsnr" v="249055" />
	</node>
	<node lat="60.661661833008765" lon="6.177190334303619" id="-30176">
		<tag k="fixme" v="consider place=hamlet" />
		<tag k="name" v="Edal" />
		<tag k="place" v="farm" />
		<tag k="ssr:stedsnr" v="249039" />
	</node>
	<node lat="60.54592698066757" lon="6.795468270921468" id="-30177">
		<tag k="name" v="Lomtjørn" />
		<tag k="natural" v="water" />
		<tag k="ssr:stedsnr" v="249799" />
	</node>
	<node lat="60.571256500687156" lon="6.69869755692444" id="-30178">
		<tag k="fixme" v="consider place=suburb, village or hamlet" />
		<tag k="name" v="Øvre Vassenden" />
		<tag k="place" v="quarter" />
		<tag k="ssr:stedsnr" v="249809" />
	</node>
	<node lat="60.5303000034107" lon="6.694863882818879" id="-30179">
		<tag k="alt_name" v="Midås" />
		<tag k="fixme" v="consider place=hamlet" />
		<tag k="name" v="Medås" />
		<tag k="place" v="farm" />
		<tag k="ssr:stedsnr" v="249058" />
	</node>
	<node lat="60.647452775887416" lon="6.173427770304828" id="-30180">
		<tag k="fixme" v="consider natural=peak for the most distinct mountains in the district" />
		<tag k="name" v="Geitlesåsen" />
		<tag k="natural" v="hill" />
		<tag k="place" v="locality" />
		<tag k="ssr:stedsnr" v="249082" />
	</node>
	<node lat="60.647558331357715" lon="6.087874992888172" id="-30181">
		<tag k="name" v="Naustviki" />
		<tag k="natural" v="bay" />
		<tag k="ssr:stedsnr" v="249091" />
	</node>
	<node lat="60.63915049967428" lon="5.9490395407738195" id="-30182">
		<tag k="fixme" v="consider place=hamlet" />
		<tag k="name" v="Bolstad" />
		<tag k="place" v="farm" />
		<tag k="ssr:stedsnr" v="249095" />
	</node>
	<node lat="60.617055558995595" lon="5.975375000805709" id="-30183">
		<tag k="name" v="Rasdalsvatnet" />
		<tag k="natural" v="water" />
		<tag k="ssr:stedsnr" v="249166" />
		<tag k="water" v="lake" />
	</node>
	<node lat="60.6080250028816" lon="5.938074996351666" id="-30184">
		<tag k="name" v="Morkabekken" />
		<tag k="ssr:stedsnr" v="249190" />
		<tag k="waterway" v="stream" />
	</node>
	<node lat="60.60950000282066" lon="6.014080561211618" id="-30185">
		<tag k="name" v="Øykjabotseggane" />
		<tag k="natural" v="ridge" />
		<tag k="place" v="locality" />
		<tag k="ssr:stedsnr" v="249192" />
	</node>
	<node lat="60.66967222373292" lon="6.549277770082384" id="-30186">
		<tag k="name" v="Rastalii" />
		<tag k="natural" v="slope" />
		<tag k="place" v="locality" />
		<tag k="ssr:stedsnr" v="249268" />
	</node>
	<node lat="60.65746110715366" lon="6.29224999888284" id="-30187">
		<tag k="name" v="Svarthamrane" />
		<tag k="natural" v="hill" />
		<tag k="place" v="locality" />
		<tag k="ssr:stedsnr" v="249272" />
	</node>
	<node lat="60.64104444593921" lon="6.49934723037924" id="-30188">
		<tag k="name" v="Løken" />
		<tag k="ssr:stedsnr" v="105303" />
		<tag k="waterway" v="stream" />
	</node>
	<node lat="60.61509444172714" lon="6.416319437582047" id="-30189">
		<tag k="name" v="Jernesmoen" />
		<tag k="place" v="locality" />
		<tag k="ssr:stedsnr" v="105310" />
	</node>
	<node lat="60.641696349730076" lon="6.319232863860769" id="-30190">
		<tag k="fixme" v="consider place=hamlet" />
		<tag k="name" v="Giljarhus" />
		<tag k="place" v="farm" />
		<tag k="ssr:stedsnr" v="249234" />
	</node>
	<node lat="60.726786111623824" lon="6.4521805537673185" id="-30191">
		<tag k="historic" v="shieling" />
		<tag k="name" v="Preststølen" />
		<tag k="place" v="isolated_dwelling" />
		<tag k="ssr:stedsnr" v="249351" />
	</node>
	<node lat="60.73832777353539" lon="6.565275002613607" id="-30192">
		<tag k="name" v="Langedalen" />
		<tag k="natural" v="valley" />
		<tag k="place" v="locality" />
		<tag k="ssr:stedsnr" v="249357" />
	</node>
	<node lat="60.64626627899595" lon="6.493161870915976" id="-30193">
		<tag k="fixme" v="consider place=hamlet" />
		<tag k="name" v="Fjose" />
		<tag k="place" v="farm" />
		<tag k="ssr:stedsnr" v="249240" />
	</node>
	<node lat="60.64873791663182" lon="6.4980811221639785" id="-30194">
		<tag k="fixme" v="consider place=hamlet" />
		<tag k="name" v="Tøn" />
		<tag k="place" v="farm" />
		<tag k="ssr:stedsnr" v="249241" />
	</node>
	<node lat="60.75053297682258" lon="6.601119131139396" id="-30195">
		<tag k="name" v="Sauatjørnane" />
		<tag k="natural" v="water" />
		<tag k="ssr:stedsnr" v="105838" />
		<tag k="water" v="lake" />
	</node>
	<node lat="60.711108329209424" lon="6.572899993196199" id="-30196">
		<tag k="name" v="Dyrgardshovden" />
		<tag k="natural" v="hill" />
		<tag k="place" v="locality" />
		<tag k="ssr:stedsnr" v="105883" />
	</node>
	<node lat="60.74172778178769" lon="6.556416669431016" id="-30197">
		<tag k="name" v="Brunena" />
		<tag k="place" v="locality" />
		<tag k="ssr:stedsnr" v="105884" />
	</node>
	<node lat="60.835436114134396" lon="6.627163894306443" id="-30198">
		<tag k="name" v="Fyrdesteinane" />
		<tag k="natural" v="stone" />
		<tag k="ssr:stedsnr" v="105888" />
	</node>
	<node lat="60.85222222093961" lon="6.714997227038685" id="-30199">
		<tag k="name" v="Kaldeskreda" />
		<tag k="natural" v="valley" />
		<tag k="place" v="locality" />
		<tag k="ssr:stedsnr" v="106008" />
	</node>
	<node lat="60.735077774460535" lon="6.522352782030371" id="-30200">
		<tag k="name" v="Vardhovden" />
		<tag k="natural" v="hill" />
		<tag k="place" v="locality" />
		<tag k="ssr:stedsnr" v="249358" />
	</node>
	<node lat="60.74668889225884" lon="6.579249999442193" id="-30201">
		<tag k="name" v="Monsdalen" />
		<tag k="natural" v="valley" />
		<tag k="place" v="locality" />
		<tag k="ssr:stedsnr" v="249365" />
	</node>
	<node lat="60.70634444792623" lon="6.439774998745133" id="-30203">
		<tag k="fixme" v="consider natural=peak for the most distinct mountains in the district" />
		<tag k="name" v="Svartahorgi" />
		<tag k="natural" v="hill" />
		<tag k="place" v="locality" />
		<tag k="ssr:stedsnr" v="249339" />
	</node>
	<node lat="60.717102774039006" lon="6.51845555382382" id="-30204">
		<tag k="name" v="Hefteshjellane" />
		<tag k="place" v="locality" />
		<tag k="ssr:stedsnr" v="249342" />
	</node>
	<node lat="60.89738889271886" lon="6.664455564402474" id="-30205">
		<tag k="name" v="Kinnarbakkelvi" />
		<tag k="ssr:stedsnr" v="106044" />
		<tag k="waterway" v="river" />
	</node>
	<node lat="60.9010000025502" lon="6.483536118395501" id="-30206">
		<tag k="name" v="Hola" />
		<tag k="place" v="farm" />
		<tag k="ssr:stedsnr" v="106063" />
	</node>
	<node lat="60.87081944025477" lon="6.630633333397987" id="-30207">
		<tag k="name" v="Vehaug" />
		<tag k="natural" v="hill" />
		<tag k="place" v="locality" />
		<tag k="ssr:stedsnr" v="106080" />
	</node>
	<node lat="60.861552782041464" lon="6.5337083317282705" id="-30208">
		<tag k="name" v="Røvhaugen" />
		<tag k="natural" v="hill" />
		<tag k="place" v="locality" />
		<tag k="ssr:stedsnr" v="106083" />
	</node>
	<node lat="60.73880277355402" lon="6.205091674397295" id="-30209">
		<tag k="name" v="Flathaug" />
		<tag k="natural" v="hill" />
		<tag k="place" v="locality" />
		<tag k="ssr:stedsnr" v="249384" />
	</node>
	<node lat="60.70676944888472" lon="5.931080558430847" id="-30210">
		<tag k="name" v="Raudskredtjørni" />
		<tag k="natural" v="water" />
		<tag k="ssr:stedsnr" v="249454" />
	</node>
	<node lat="60.68709999992621" lon="6.84943332607908" id="-30211">
		<tag k="name" v="Markahaug" />
		<tag k="natural" v="hill" />
		<tag k="place" v="locality" />
		<tag k="ssr:stedsnr" v="106223" />
	</node>
	<node lat="60.87473333585253" lon="6.619086110106965" id="-30212">
		<tag k="name" v="Sambotno" />
		<tag k="ssr:stedsnr" v="106171" />
		<tag k="waterway" v="river" />
	</node>
	<node lat="60.86644721897685" lon="6.571511114966774" id="-30213">
		<tag k="name" v="Rundehaugen" />
		<tag k="natural" v="hill" />
		<tag k="place" v="locality" />
		<tag k="ssr:stedsnr" v="106173" />
	</node>
	<node lat="60.89804722087904" lon="6.727938893994203" id="-30214">
		<tag k="name" v="Nosøyni" />
		<tag k="place" v="locality" />
		<tag k="ssr:stedsnr" v="106177" />
	</node>
	<node lat="60.692347224641594" lon="6.842402774144732" id="-30215">
		<tag k="name" v="Løkjatræet" />
		<tag k="natural" v="slope" />
		<tag k="place" v="locality" />
		<tag k="ssr:stedsnr" v="106234" />
	</node>
	<node lat="60.68448610803368" lon="6.6900194450070805" id="-30216">
		<tag k="name" v="Tortnaskorane" />
		<tag k="place" v="locality" />
		<tag k="ssr:stedsnr" v="106287" />
	</node>
	<node lat="60.690791667556304" lon="6.669533340208951" id="-30217">
		<tag k="name" v="Fuglemyri" />
		<tag k="natural" v="wetland" />
		<tag k="ssr:stedsnr" v="106289" />
	</node>
	<node lat="60.69608333199323" lon="6.689386108082914" id="-30218">
		<tag k="name" v="Flekamyri" />
		<tag k="natural" v="wetland" />
		<tag k="ssr:stedsnr" v="106303" />
	</node>
	<node lat="60.71309444394045" lon="6.6984055590003715" id="-30219">
		<tag k="name" v="Langeskarvi" />
		<tag k="natural" v="hill" />
		<tag k="place" v="locality" />
		<tag k="ssr:stedsnr" v="106304" />
	</node>
	<node lat="60.705677773776905" lon="6.7264583418815524" id="-30220">
		<tag k="name" v="Fjellstølselvi" />
		<tag k="ssr:stedsnr" v="106306" />
		<tag k="waterway" v="river" />
	</node>
	<node lat="60.658350003881225" lon="6.4049361100064255" id="-30221">
		<tag k="historic" v="shieling" />
		<tag k="name" v="Tråstølen" />
		<tag k="place" v="isolated_dwelling" />
		<tag k="ssr:stedsnr" v="106387" />
	</node>
	<node lat="60.663630558730134" lon="6.44259721309243" id="-30222">
		<tag k="name" v="Lambatangen" />
		<tag k="natural" v="cape" />
		<tag k="ssr:stedsnr" v="106389" />
	</node>
	<node lat="60.67061944624577" lon="6.436936104920194" id="-30223">
		<tag k="name" v="Ænsgrovi" />
		<tag k="ssr:stedsnr" v="106393" />
		<tag k="waterway" v="stream" />
	</node>
	<node lat="60.61100833743661" lon="6.420986114061653" id="-30224">
		<tag k="name" v="Breidablik" />
		<tag k="place" v="farm" />
		<tag k="ssr:stedsnr" v="106506" />
	</node>
	<node lat="60.560791667187445" lon="6.4986999922354824" id="-30225">
		<tag k="name" v="Oksafletane" />
		<tag k="place" v="locality" />
		<tag k="ssr:stedsnr" v="106518" />
	</node>
	<node lat="60.692824997603736" lon="6.149455559468001" id="-30226">
		<tag k="fixme" v="consider natural=peak for the most distinct mountains in the district" />
		<tag k="name" v="Auborranipa" />
		<tag k="natural" v="hill" />
		<tag k="place" v="locality" />
		<tag k="ssr:stedsnr" v="249490" />
	</node>
	<node lat="60.70680277703995" lon="6.453480563652556" id="-30227">
		<tag k="name" v="Gaukaberget" />
		<tag k="natural" v="hill" />
		<tag k="place" v="locality" />
		<tag k="ssr:stedsnr" v="106444" />
	</node>
	<node lat="60.68583888934387" lon="6.467863888783625" id="-30228">
		<tag k="name" v="Fagersanden" />
		<tag k="natural" v="beach" />
		<tag k="ssr:stedsnr" v="106478" />
	</node>
	<node lat="60.682333333115245" lon="6.466811103761723" id="-30229">
		<tag k="name" v="Otersteinen" />
		<tag k="natural" v="stone" />
		<tag k="ssr:stedsnr" v="106479" />
	</node>
	<node lat="60.73826110843967" lon="5.9607194488537445" id="-30230">
		<tag k="fixme" v="consider natural=peak for the most distinct mountains in the district" />
		<tag k="name" v="Stordalsnjuken" />
		<tag k="natural" v="hill" />
		<tag k="place" v="locality" />
		<tag k="ssr:stedsnr" v="249403" />
	</node>
	<node lat="60.724600003415325" lon="5.952419437396281" id="-30231">
		<tag k="fixme" v="consider natural=peak for the most distinct mountains in the district" />
		<tag k="name" v="Norddalsfjellet" />
		<tag k="natural" v="hill" />
		<tag k="place" v="locality" />
		<tag k="ssr:stedsnr" v="249422" />
	</node>
	<node lat="60.72919722137408" lon="6.470874998237436" id="-30232">
		<tag k="name" v="Prestgrinda" />
		<tag k="place" v="locality" />
		<tag k="ssr:stedsnr" v="106721" />
	</node>
	<node lat="60.575702776115165" lon="6.458122221501535" id="-30233">
		<tag k="name" v="Rjoateigen" />
		<tag k="place" v="locality" />
		<tag k="ssr:stedsnr" v="106786" />
	</node>
	<node lat="60.826324998094215" lon="6.74612222025918" id="-30234">
		<tag k="historic" v="shieling" />
		<tag k="name" v="Øvsthusstølen" />
		<tag k="place" v="isolated_dwelling" />
		<tag k="ssr:stedsnr" v="106903" />
	</node>
	<node lat="60.543844442831066" lon="6.252294447551908" id="-30235">
		<tag k="name" v="Rindane" />
		<tag k="natural" v="hill" />
		<tag k="place" v="locality" />
		<tag k="ssr:stedsnr" v="106973" />
	</node>
	<node lat="60.77511388712773" lon="6.779213896562321" id="-30236">
		<tag k="name" v="Bjørndalselvi" />
		<tag k="ssr:stedsnr" v="106976" />
		<tag k="waterway" v="river" />
	</node>
	<node lat="60.55210555807473" lon="6.1852222167741235" id="-30237">
		<tag k="name" v="Hattviki" />
		<tag k="natural" v="bay" />
		<tag k="ssr:stedsnr" v="106977" />
	</node>
	<node lat="60.91026388928674" lon="6.736616662993457" id="-30238">
		<tag k="name" v="Øvsteholten" />
		<tag k="place" v="locality" />
		<tag k="ssr:stedsnr" v="107005" />
	</node>
	<node lat="60.907913888776534" lon="6.737969440143699" id="-30239">
		<tag k="name" v="Kvitaberget" />
		<tag k="place" v="locality" />
		<tag k="ssr:stedsnr" v="107006" />
	</node>
	<node lat="60.91023055436508" lon="6.712269450363652" id="-30240">
		<tag k="name" v="Gardaleitet" />
		<tag k="natural" v="slope" />
		<tag k="place" v="locality" />
		<tag k="ssr:stedsnr" v="107020" />
	</node>
	<node lat="60.71367499786261" lon="6.77429443615174" id="-30241">
		<tag k="fixme" v="consider natural=peak for the most distinct mountains in the district" />
		<tag k="name" v="Åmidlenutane" />
		<tag k="natural" v="hill" />
		<tag k="place" v="locality" />
		<tag k="ssr:stedsnr" v="249541" />
	</node>
	<node lat="60.73625833057769" lon="6.732100006377103" id="-30242">
		<tag k="fixme" v="consider natural=peak for the most distinct mountains in the district" />
		<tag k="name" v="Kaldafjellet" />
		<tag k="natural" v="hill" />
		<tag k="place" v="locality" />
		<tag k="ssr:stedsnr" v="249542" />
	</node>
	<node lat="60.74422222492341" lon="6.826677783275712" id="-30243">
		<tag k="fixme" v="consider natural=peak for the most distinct mountains in the district" />
		<tag k="name" v="Grodjuvenuten" />
		<tag k="natural" v="hill" />
		<tag k="place" v="locality" />
		<tag k="ssr:stedsnr" v="249544" />
	</node>
	<node lat="60.68356666272247" lon="6.592166664238612" id="-30244">
		<tag k="name" v="Årstræmyri" />
		<tag k="natural" v="wetland" />
		<tag k="ssr:stedsnr" v="107326" />
	</node>
	<node lat="60.7463055597331" lon="6.5707722187155255" id="-30245">
		<tag k="name" v="Brokane" />
		<tag k="place" v="locality" />
		<tag k="ssr:stedsnr" v="107330" />
	</node>
	<node lat="60.70232132549373" lon="6.687587174388568" id="-30246">
		<tag k="name" v="Iglatjørni" />
		<tag k="natural" v="water" />
		<tag k="ssr:stedsnr" v="249557" />
	</node>
	<node lat="60.57328888489323" lon="6.574708332455221" id="-30247">
		<tag k="name" v="Langesetvatnet" />
		<tag k="natural" v="water" />
		<tag k="ssr:stedsnr" v="249562" />
		<tag k="water" v="lake" />
	</node>
	<node lat="60.781563887560345" lon="6.742686118097873" id="-30248">
		<tag k="name" v="Ådnakkadalen" />
		<tag k="natural" v="valley" />
		<tag k="place" v="locality" />
		<tag k="ssr:stedsnr" v="107221" />
	</node>
	<node lat="60.69953055732117" lon="6.567661107881726" id="-30249">
		<tag k="name" v="Tvagroi" />
		<tag k="ssr:stedsnr" v="107427" />
		<tag k="waterway" v="stream" />
	</node>
	<node lat="60.57693055891676" lon="6.377455548980388" id="-30250">
		<tag k="name" v="Svidene" />
		<tag k="natural" v="slope" />
		<tag k="place" v="locality" />
		<tag k="ssr:stedsnr" v="249567" />
	</node>
	<node lat="60.56807501068208" lon="6.4688707758544295" id="-30251">
		<tag k="fixme" v="consider place=hamlet" />
		<tag k="name" v="Øvre Kvitno" />
		<tag k="place" v="farm" />
		<tag k="ssr:stedsnr" v="249581" />
	</node>
	<node lat="60.54890140231128" lon="6.467328298156693" id="-30252">
		<tag k="fixme" v="consider place=hamlet" />
		<tag k="name" v="Jeraldstveiti" />
		<tag k="place" v="farm" />
		<tag k="ssr:stedsnr" v="249585" />
	</node>
	<node lat="60.56348610682425" lon="6.489916668922534" id="-30253">
		<tag k="name" v="Litraknappen" />
		<tag k="natural" v="hill" />
		<tag k="place" v="locality" />
		<tag k="ssr:stedsnr" v="249589" />
	</node>
	<node lat="60.61791111377726" lon="6.597997223763408" id="-30254">
		<tag k="name" v="Eirikstunlii" />
		<tag k="natural" v="slope" />
		<tag k="place" v="locality" />
		<tag k="ssr:stedsnr" v="107616" />
	</node>
	<node lat="60.787730555829924" lon="6.777772229858102" id="-30255">
		<tag k="fixme" v="consider natural=peak for the most distinct mountains in the district" />
		<tag k="name" v="Bjørndalskamben" />
		<tag k="natural" v="hill" />
		<tag k="place" v="locality" />
		<tag k="ssr:stedsnr" v="107806" />
	</node>
	<node lat="60.45838333119823" lon="6.5923527859532305" id="-30256">
		<tag k="bridge" v="yes" />
		<tag k="layer" v="1" />
		<tag k="name" v="Naustvik" />
		<tag k="ssr:stedsnr" v="107807" />
	</node>
	<node lat="60.52951111494429" lon="6.72823611389167" id="-30257">
		<tag k="bridge" v="yes" />
		<tag k="layer" v="1" />
		<tag k="name" v="Hyrpo" />
		<tag k="ssr:stedsnr" v="107823" />
	</node>
	<node lat="60.60583251745277" lon="6.347602566955587" id="-30258">
		<tag k="fixme" v="consider place=hamlet" />
		<tag k="name" v="Nesthus" />
		<tag k="place" v="farm" />
		<tag k="ssr:stedsnr" v="249607" />
	</node>
	<node lat="60.59900391720841" lon="6.239608278237006" id="-30259">
		<tag k="name" v="Hammarstjørni" />
		<tag k="natural" v="water" />
		<tag k="ssr:stedsnr" v="249620" />
	</node>
	<node lat="60.596800001728454" lon="6.230586109841176" id="-30260">
		<tag k="fixme" v="consider natural=peak for the most distinct mountains in the district" />
		<tag k="name" v="Ragnarvarden" />
		<tag k="natural" v="hill" />
		<tag k="place" v="locality" />
		<tag k="ssr:stedsnr" v="249623" />
	</node>
	<node lat="60.61365957577071" lon="6.50637979294929" id="-30261">
		<tag k="name" v="Skutle" />
		<tag k="place" v="hamlet" />
		<tag k="ssr:stedsnr" v="249627" />
	</node>
	<node lat="60.59682500348823" lon="6.418805556465329" id="-30262">
		<tag k="name" v="Tveitagrovi" />
		<tag k="ssr:stedsnr" v="249635" />
		<tag k="waterway" v="river" />
	</node>
	<node lat="60.596866665471296" lon="6.300908335557102" id="-30263">
		<tag k="fixme" v="consider natural=peak for the most distinct mountains in the district" />
		<tag k="name" v="Nyvlingen" />
		<tag k="natural" v="hill" />
		<tag k="place" v="locality" />
		<tag k="ssr:stedsnr" v="249637" />
	</node>
	<node lat="60.596850001922704" lon="6.366175000061385" id="-30264">
		<tag k="name" v="Vangjolo" />
		<tag k="ssr:stedsnr" v="249641" />
		<tag k="waterway" v="stream" />
	</node>
	<node lat="60.6367500001983" lon="6.30245554791751" id="-30265">
		<tag k="name" v="Geithaugane" />
		<tag k="natural" v="hill" />
		<tag k="place" v="locality" />
		<tag k="ssr:stedsnr" v="249675" />
	</node>
	<node lat="60.63770833791557" lon="6.321325008586034" id="-30266">
		<tag k="name" v="Dyrvo" />
		<tag k="ssr:stedsnr" v="249680" />
		<tag k="waterway" v="river" />
	</node>
	<node lat="60.63486944750878" lon="6.440911107239643" id="-30267">
		<tag k="landuse" v="military" />
		<tag k="name" v="Tvildemoen" />
		<tag k="ssr:stedsnr" v="249682" />
	</node>
	<node lat="60.639166666907236" lon="6.4639333307761415" id="-30268">
		<tag k="name" v="Gjerdåker" />
		<tag k="place" v="farm" />
		<tag k="ssr:stedsnr" v="249685" />
	</node>
	<node lat="60.61865000293774" lon="6.325036104652718" id="-30269">
		<tag k="name" v="Vangsvatnet" />
		<tag k="natural" v="water" />
		<tag k="ssr:stedsnr" v="249714" />
		<tag k="water" v="lake" />
	</node>
	<node lat="60.62464166237652" lon="6.515894443391205" id="-30270">
		<tag k="name" v="Vivåskamben" />
		<tag k="natural" v="hill" />
		<tag k="place" v="locality" />
		<tag k="ssr:stedsnr" v="249729" />
	</node>
	<node lat="60.54482777661517" lon="6.633577784236033" id="-30271">
		<tag k="historic" v="shieling" />
		<tag k="name" v="Langedalen" />
		<tag k="place" v="isolated_dwelling" />
		<tag k="ssr:stedsnr" v="249742" />
	</node>
	<node lat="60.55122570325519" lon="6.781679673399415" id="-30272">
		<tag k="name" v="Søkkja" />
		<tag k="natural" v="water" />
		<tag k="ssr:stedsnr" v="249760" />
	</node>
	<node lat="60.55420000178676" lon="6.754363893998661" id="-30273">
		<tag k="name" v="Bjørndalsbekken" />
		<tag k="ssr:stedsnr" v="249761" />
		<tag k="waterway" v="stream" />
	</node>
	<node lat="60.55522777733324" lon="6.739716662390675" id="-30274">
		<tag k="name" v="Kyrkjeelvi" />
		<tag k="ssr:stedsnr" v="249764" />
		<tag k="waterway" v="river" />
	</node>
	<node lat="60.53508055178447" lon="6.751297225464999" id="-30275">
		<tag k="name" v="Jukelsklepp" />
		<tag k="natural" v="hill" />
		<tag k="place" v="locality" />
		<tag k="ssr:stedsnr" v="249779" />
	</node>
	<node lat="60.534361110920656" lon="6.702580552440357" id="-30276">
		<tag k="name" v="Gili" />
		<tag k="natural" v="gorge" />
		<tag k="ssr:stedsnr" v="249785" />
	</node>
	<node lat="60.539566663165374" lon="6.634072223259826" id="-30277">
		<tag k="name" v="Vetlahorgi" />
		<tag k="natural" v="hill" />
		<tag k="place" v="locality" />
		<tag k="ssr:stedsnr" v="249792" />
	</node>
	<node lat="60.581727780411704" lon="6.756341662423054" id="-30278">
		<tag k="name" v="Langhaug" />
		<tag k="natural" v="hill" />
		<tag k="place" v="locality" />
		<tag k="ssr:stedsnr" v="249829" />
	</node>
	<node lat="60.55225000340705" lon="6.201066673106262" id="-30279">
		<tag k="name" v="Harkalii" />
		<tag k="natural" v="slope" />
		<tag k="place" v="locality" />
		<tag k="ssr:stedsnr" v="249832" />
	</node>
	<node lat="60.58098055941511" lon="6.80479443684195" id="-30280">
		<tag k="name" v="Skarafjellsbekken" />
		<tag k="ssr:stedsnr" v="249833" />
		<tag k="waterway" v="stream" />
	</node>
	<node lat="60.55302627553824" lon="6.119397319636666" id="-30281">
		<tag k="name" v="Svinåni" />
		<tag k="ssr:stedsnr" v="249837" />
		<tag k="waterway" v="stream" />
	</node>
	<node lat="60.61946944516361" lon="6.8230138936691365" id="-30282">
		<tag k="name" v="Trollabotnen" />
		<tag k="natural" v="valley" />
		<tag k="place" v="locality" />
		<tag k="ssr:stedsnr" v="249874" />
	</node>
	<node lat="60.693955551176415" lon="6.840483336848366" id="-30283">
		<tag k="name" v="Mjølfjell stasjon" />
		<tag k="railway" v="station" />
		<tag k="ssr:stedsnr" v="249944" />
		<tag k="train" v="yes" />
	</node>
	<node lat="60.679988885565116" lon="6.6827027845635945" id="-30284">
		<tag k="name" v="Skiple" />
		<tag k="place" v="farm" />
		<tag k="ssr:stedsnr" v="249951" />
	</node>
	<node lat="60.59979166893497" lon="6.725605551303921" id="-30285">
		<tag k="name" v="Kleivabakken" />
		<tag k="natural" v="slope" />
		<tag k="place" v="locality" />
		<tag k="ssr:stedsnr" v="249922" />
	</node>
	<node lat="60.687644440752386" lon="6.814669437974611" id="-30286">
		<tag k="historic" v="shieling" />
		<tag k="name" v="Grytestølen" />
		<tag k="place" v="isolated_dwelling" />
		<tag k="ssr:stedsnr" v="249939" />
	</node>
	<node lat="60.691702775165716" lon="6.713183339909308" id="-30287">
		<tag k="name" v="Pikhaug" />
		<tag k="natural" v="hill" />
		<tag k="place" v="locality" />
		<tag k="ssr:stedsnr" v="249978" />
	</node>
	<node lat="60.68977788706791" lon="6.714604729289404" id="-30288">
		<tag k="name" v="Ljosatjørni" />
		<tag k="natural" v="water" />
		<tag k="ssr:stedsnr" v="249981" />
	</node>
	<node lat="60.624761107811" lon="6.108436120005051" id="-30289">
		<tag k="name" v="Tverrelvi" />
		<tag k="ssr:stedsnr" v="250003" />
		<tag k="waterway" v="stream" />
	</node>
	<node lat="60.658361110446215" lon="6.370313886820187" id="-30290">
		<tag k="fixme" v="consider natural=peak for the most distinct mountains in the district" />
		<tag k="name" v="Slettafjellet" />
		<tag k="natural" v="hill" />
		<tag k="place" v="locality" />
		<tag k="ssr:stedsnr" v="250012" />
	</node>
	<node lat="60.53994444656982" lon="6.079736108847086" id="-30291">
		<tag k="name" v="Svartagrovi" />
		<tag k="ssr:stedsnr" v="250023" />
		<tag k="waterway" v="stream" />
	</node>
	<node lat="60.512016022270814" lon="6.618520757208296" id="-30292">
		<tag k="name" v="Lomtjørn" />
		<tag k="natural" v="water" />
		<tag k="ssr:stedsnr" v="250029" />
	</node>
	<node lat="60.522738892091205" lon="6.700069449379597" id="-30293">
		<tag k="name" v="Ådnagavlen" />
		<tag k="natural" v="ridge" />
		<tag k="place" v="locality" />
		<tag k="ssr:stedsnr" v="250061" />
	</node>
	<node lat="60.75989619551073" lon="6.499939894355376" id="-30294">
		<tag k="fixme" v="consider place=hamlet" />
		<tag k="name" v="Indre Kvormo" />
		<tag k="place" v="farm" />
		<tag k="ssr:stedsnr" v="113925" />
	</node>
	<node lat="60.525455551694634" lon="6.461422222521022" id="-30295">
		<tag k="name" v="Kulset" />
		<tag k="place" v="farm" />
		<tag k="ssr:stedsnr" v="250494" />
	</node>
	<node lat="60.52300833696454" lon="6.589575001688732" id="-30296">
		<tag k="name" v="Djupegili" />
		<tag k="natural" v="gorge" />
		<tag k="ssr:stedsnr" v="250516" />
	</node>
	<node lat="60.59142499639821" lon="6.343458340562984" id="-30297">
		<tag k="historic" v="shieling" />
		<tag k="name" v="Rapjane" />
		<tag k="place" v="locality" />
		<tag k="ssr:stedsnr" v="250642" />
	</node>
	<node lat="60.59005000129799" lon="6.447819436018841" id="-30298">
		<tag k="name" v="Bordalen" />
		<tag k="natural" v="valley" />
		<tag k="place" v="locality" />
		<tag k="ssr:stedsnr" v="250650" />
	</node>
	<node lat="60.594450000859055" lon="6.373422217959263" id="-30299">
		<tag k="name" v="Stølshaugen" />
		<tag k="natural" v="hill" />
		<tag k="place" v="locality" />
		<tag k="ssr:stedsnr" v="250654" />
	</node>
	<node lat="60.593513890281635" lon="6.518616674596207" id="-30300">
		<tag k="name" v="Gryvlestjørni" />
		<tag k="natural" v="water" />
		<tag k="ssr:stedsnr" v="250660" />
	</node>
	<node lat="60.58970555552491" lon="6.511844443181014" id="-30301">
		<tag k="name" v="Klenaskaret" />
		<tag k="natural" v="valley" />
		<tag k="place" v="locality" />
		<tag k="ssr:stedsnr" v="250661" />
	</node>
	<node lat="60.58389166371763" lon="6.492111105614388" id="-30302">
		<tag k="name" v="Demmo" />
		<tag k="natural" v="wetland" />
		<tag k="ssr:stedsnr" v="250664" />
	</node>
	<node lat="60.58334444363546" lon="6.422658341141032" id="-30303">
		<tag k="name" v="Løkjabotnen" />
		<tag k="natural" v="valley" />
		<tag k="place" v="locality" />
		<tag k="ssr:stedsnr" v="250676" />
	</node>
	<node lat="60.57840833686344" lon="6.348927770253051" id="-30304">
		<tag k="name" v="Olsokebotnen" />
		<tag k="natural" v="valley" />
		<tag k="place" v="locality" />
		<tag k="ssr:stedsnr" v="250677" />
	</node>
	<node lat="60.573812857025494" lon="6.22290648230473" id="-30305">
		<tag k="fixme" v="multiple name tags, choose one and add the other to alt_name" />
		<tag k="name" v="Kluftatjørni;Torfinnstjørni" />
		<tag k="natural" v="water" />
		<tag k="ssr:stedsnr" v="250682" />
	</node>
	<node lat="60.5615222177595" lon="6.680219443204726" id="-30306">
		<tag k="name" v="Urdalsskreda" />
		<tag k="natural" v="scree" />
		<tag k="ssr:stedsnr" v="250844" />
	</node>
	<node lat="60.55528908396154" lon="6.730949213315048" id="-30307">
		<tag k="alt_name" v="Granvin" />
		<tag k="amenity" v="place_of_worship" />
		<tag k="denomination" v="lutheran" />
		<tag k="name" v="Granvin kyrkje" />
		<tag k="religion" v="christian" />
		<tag k="ssr:stedsnr" v="250771" />
	</node>
	<node lat="60.64534166516508" lon="6.593127775733289" id="-30308">
		<tag k="name" v="Budalen" />
		<tag k="natural" v="valley" />
		<tag k="place" v="locality" />
		<tag k="ssr:stedsnr" v="250868" />
	</node>
	<node lat="60.628711108580205" lon="6.633774994228585" id="-30309">
		<tag k="historic" v="shieling" />
		<tag k="name" v="Steindro" />
		<tag k="place" v="isolated_dwelling" />
		<tag k="ssr:stedsnr" v="250885" />
	</node>
	<node lat="60.68253333391603" lon="6.807452777111109" id="-30310">
		<tag k="historic" v="shieling" />
		<tag k="name" v="Grauastølen" />
		<tag k="place" v="isolated_dwelling" />
		<tag k="ssr:stedsnr" v="250942" />
	</node>
	<node lat="60.652663888892164" lon="6.855038894657168" id="-30311">
		<tag k="name" v="Trollavatnet" />
		<tag k="natural" v="water" />
		<tag k="ssr:stedsnr" v="250970" />
		<tag k="water" v="lake" />
	</node>
	<node lat="60.668336109554154" lon="6.6314694368296045" id="-30312">
		<tag k="historic" v="shieling" />
		<tag k="name" v="Liaset" />
		<tag k="place" v="isolated_dwelling" />
		<tag k="ssr:stedsnr" v="250983" />
	</node>
	<node lat="60.76541944513247" lon="6.9430611068277965" id="-30313">
		<tag k="name" v="Grånosmyrane" />
		<tag k="natural" v="wetland" />
		<tag k="ssr:stedsnr" v="251207" />
	</node>
	<node lat="60.77374444577066" lon="6.746605547013508" id="-30314">
		<tag k="name" v="Bjørndalstjørni" />
		<tag k="natural" v="water" />
		<tag k="ssr:stedsnr" v="251215" />
	</node>
	<node lat="60.76217777353759" lon="6.677666670850635" id="-30315">
		<tag k="historic" v="shieling" />
		<tag k="name" v="Prinsabotn" />
		<tag k="place" v="isolated_dwelling" />
		<tag k="ssr:stedsnr" v="251216" />
	</node>
	<node lat="60.76745000113814" lon="6.6850000058009496" id="-30316">
		<tag k="name" v="Prinsabotnelvi" />
		<tag k="ssr:stedsnr" v="251217" />
		<tag k="waterway" v="stream" />
	</node>
	<node lat="60.80537499901623" lon="6.377919448966399" id="-30317">
		<tag k="name" v="Mykjedalsvatnet" />
		<tag k="natural" v="water" />
		<tag k="ssr:stedsnr" v="251535" />
		<tag k="water" v="lake" />
	</node>
	<node lat="60.80893611227428" lon="6.492038879905574" id="-30318">
		<tag k="name" v="Ulvundslii" />
		<tag k="natural" v="slope" />
		<tag k="place" v="locality" />
		<tag k="ssr:stedsnr" v="251542" />
	</node>
	<node lat="60.798341664886024" lon="6.373952775571893" id="-30319">
		<tag k="fixme" v="consider natural=peak for the most distinct mountains in the district" />
		<tag k="name" v="Reppeggi" />
		<tag k="natural" v="hill" />
		<tag k="place" v="locality" />
		<tag k="ssr:stedsnr" v="251547" />
	</node>
	<node lat="60.85387499710125" lon="6.529174991092954" id="-30320">
		<tag k="alt_name" v="Djupegroi" />
		<tag k="name" v="Djupegrovi" />
		<tag k="ssr:stedsnr" v="251552" />
		<tag k="waterway" v="stream" />
	</node>
	<node lat="60.84676111097173" lon="6.349652779378413" id="-30321">
		<tag k="name" v="Asbjørgdalen" />
		<tag k="natural" v="valley" />
		<tag k="place" v="locality" />
		<tag k="ssr:stedsnr" v="251560" />
	</node>
	<node lat="60.84299166834801" lon="6.536383324922232" id="-30322">
		<tag k="fixme" v="consider natural=peak for the most distinct mountains in the district" />
		<tag k="name" v="Nuken" />
		<tag k="natural" v="hill" />
		<tag k="place" v="locality" />
		<tag k="ssr:stedsnr" v="251564" />
	</node>
	<node lat="60.83490537424684" lon="6.31289964066038" id="-30323">
		<tag k="name" v="Kleivatjørni" />
		<tag k="natural" v="water" />
		<tag k="ssr:stedsnr" v="251571" />
	</node>
	<node lat="60.83993888638899" lon="6.548638889535391" id="-30324">
		<tag k="name" v="Oksli" />
		<tag k="natural" v="slope" />
		<tag k="place" v="locality" />
		<tag k="ssr:stedsnr" v="251576" />
	</node>
	<node lat="60.820624996926426" lon="6.525958327132107" id="-30325">
		<tag k="fixme" v="consider natural=peak for the most distinct mountains in the district" />
		<tag k="name" v="Bjørnfjellet" />
		<tag k="natural" v="hill" />
		<tag k="place" v="locality" />
		<tag k="ssr:stedsnr" v="251533" />
	</node>
	<node lat="60.86691960637112" lon="6.319627219961987" id="-30326">
		<tag k="name" v="Langavatnet" />
		<tag k="natural" v="water" />
		<tag k="ssr:stedsnr" v="251599" />
		<tag k="water" v="lake" />
	</node>
	<node lat="60.872036468071165" lon="6.370339311867785" id="-30327">
		<tag k="name" v="Grøndalsvatnet" />
		<tag k="natural" v="water" />
		<tag k="ssr:stedsnr" v="251600" />
		<tag k="water" v="lake" />
	</node>
	<node lat="60.869577780633" lon="6.449477781144815" id="-30328">
		<tag k="name" v="Kråholet" />
		<tag k="natural" v="valley" />
		<tag k="place" v="locality" />
		<tag k="ssr:stedsnr" v="251607" />
	</node>
	<node lat="60.8436000002422" lon="6.374261114075651" id="-30329">
		<tag k="fixme" v="consider natural=peak for the most distinct mountains in the district" />
		<tag k="name" v="Brattebakkseggi" />
		<tag k="natural" v="hill" />
		<tag k="place" v="locality" />
		<tag k="ssr:stedsnr" v="251611" />
	</node>
	<node lat="60.86293611493661" lon="6.4952277711022415" id="-30330">
		<tag k="name" v="Helgatun" />
		<tag k="place" v="isolated_dwelling" />
		<tag k="ssr:stedsnr" v="251615" />
	</node>
	<node lat="60.76951388960208" lon="6.163841666881651" id="-30331">
		<tag k="name" v="Stordalen" />
		<tag k="natural" v="valley" />
		<tag k="place" v="locality" />
		<tag k="ssr:stedsnr" v="251735" />
	</node>
	<node lat="60.75710277784932" lon="6.196094446562793" id="-30332">
		<tag k="name" v="Graseggi" />
		<tag k="natural" v="hill" />
		<tag k="place" v="locality" />
		<tag k="ssr:stedsnr" v="251691" />
	</node>
	<node lat="60.76166454572006" lon="6.18530605989903" id="-30333">
		<tag k="name" v="Horgasettjørni" />
		<tag k="natural" v="water" />
		<tag k="ssr:stedsnr" v="251692" />
	</node>
	<node lat="60.81401111218772" lon="6.8712083394396535" id="-30334">
		<tag k="name" v="Såtevatnet" />
		<tag k="natural" v="water" />
		<tag k="ssr:stedsnr" v="251793" />
		<tag k="water" v="lake" />
	</node>
	<node lat="60.81944166358198" lon="6.889661111871262" id="-30335">
		<tag k="name" v="Såteskaret" />
		<tag k="natural" v="valley" />
		<tag k="place" v="locality" />
		<tag k="ssr:stedsnr" v="251794" />
	</node>
	<node lat="60.812658337406354" lon="6.601263891614342" id="-30336">
		<tag k="name" v="Grytelii" />
		<tag k="natural" v="slope" />
		<tag k="place" v="locality" />
		<tag k="ssr:stedsnr" v="251822" />
	</node>
	<node lat="60.875030009691656" lon="6.357597149980359" id="-30337">
		<tag k="name" v="Svartavatnet" />
		<tag k="natural" v="water" />
		<tag k="ssr:stedsnr" v="251829" />
		<tag k="water" v="lake" />
	</node>
	<node lat="60.85111944525751" lon="6.674288881377894" id="-30338">
		<tag k="historic" v="shieling" />
		<tag k="name" v="Vetlestølen" />
		<tag k="place" v="isolated_dwelling" />
		<tag k="ssr:stedsnr" v="251830" />
	</node>
	<node lat="60.84725966360216" lon="6.3216323148190785" id="-30339">
		<tag k="name" v="Grøndalsvatnet" />
		<tag k="natural" v="water" />
		<tag k="ssr:stedsnr" v="251833" />
		<tag k="water" v="lake" />
	</node>
	<node lat="60.92298888942738" lon="6.708630551049133" id="-30340">
		<tag k="name" v="Berdalen" />
		<tag k="place" v="locality" />
		<tag k="ssr:stedsnr" v="251896" />
	</node>
	<node lat="60.886913885450404" lon="6.742794443406421" id="-30341">
		<tag k="name" v="Slettedalen" />
		<tag k="natural" v="valley" />
		<tag k="place" v="locality" />
		<tag k="ssr:stedsnr" v="251867" />
	</node>
	<node lat="60.901890689267596" lon="6.730471713209078" id="-30342">
		<tag k="alt_name" v="Nåsen" />
		<tag k="fixme" v="consider place=hamlet" />
		<tag k="name" v="Nosi" />
		<tag k="place" v="farm" />
		<tag k="ssr:stedsnr" v="251878" />
	</node>
	<node lat="60.758841669798784" lon="6.580663881334167" id="-30343">
		<tag k="historic" v="shieling" />
		<tag k="name" v="Nyestølen" />
		<tag k="place" v="isolated_dwelling" />
		<tag k="ssr:stedsnr" v="251954" />
	</node>
	<node lat="60.94117499936401" lon="6.695766664131655" id="-30344">
		<tag k="name" v="Salagrovi" />
		<tag k="ssr:stedsnr" v="251911" />
		<tag k="waterway" v="stream" />
	</node>
	<node lat="60.95183055490866" lon="6.6912277817103964" id="-30345">
		<tag k="name" v="Sandbotnen" />
		<tag k="natural" v="valley" />
		<tag k="place" v="locality" />
		<tag k="ssr:stedsnr" v="251919" />
	</node>
	<node lat="60.94840000042418" lon="6.682869437906429" id="-30346">
		<tag k="name" v="Salabakkane" />
		<tag k="natural" v="slope" />
		<tag k="place" v="locality" />
		<tag k="ssr:stedsnr" v="251921" />
	</node>
	<node lat="60.94555277814899" lon="6.676224996805138" id="-30347">
		<tag k="name" v="Berdalsskavlen" />
		<tag k="natural" v="slope" />
		<tag k="place" v="locality" />
		<tag k="ssr:stedsnr" v="251922" />
	</node>
	<node lat="60.77565546972072" lon="6.428219850346295" id="-30348">
		<tag k="fixme" v="consider place=hamlet" />
		<tag k="name" v="Lund" />
		<tag k="place" v="farm" />
		<tag k="ssr:stedsnr" v="251985" />
	</node>
	<node lat="60.783701867746345" lon="6.581962418997833" id="-30349">
		<tag k="name" v="Hemre" />
		<tag k="place" v="hamlet" />
		<tag k="ssr:stedsnr" v="251986" />
	</node>
	<node lat="60.78544999800795" lon="6.403877786092094" id="-30350">
		<tag k="historic" v="shieling" />
		<tag k="name" v="Steinset" />
		<tag k="place" v="isolated_dwelling" />
		<tag k="ssr:stedsnr" v="251992" />
	</node>
	<node lat="60.75268977029973" lon="6.502835129697903" id="-30351">
		<tag k="alt_name" v="Birkely" />
		<tag k="loc_name" v="Perstegen;Persteigen;Bjørkeli" />
		<tag k="name" v="Byrkjeli" />
		<tag k="place" v="farm" />
		<tag k="ssr:stedsnr" v="251960" />
	</node>
	<node lat="60.77803332919019" lon="6.509725007246692" id="-30352">
		<tag k="name" v="Kjeldåi" />
		<tag k="ssr:stedsnr" v="251976" />
		<tag k="waterway" v="stream" />
	</node>
	<node lat="60.77676111425741" lon="6.489227772095867" id="-30353">
		<tag k="name" v="Kroken" />
		<tag k="place" v="farm" />
		<tag k="ssr:stedsnr" v="251979" />
	</node>
	<node lat="60.48178333082802" lon="6.58618889045641" id="-30354">
		<tag k="name" v="Stølsbekken" />
		<tag k="ssr:stedsnr" v="126207" />
		<tag k="waterway" v="stream" />
	</node>
	<node lat="60.476488946178655" lon="6.5560818678143375" id="-30355">
		<tag k="alt_name" v="Svartetjørni" />
		<tag k="name" v="Svortetjørn" />
		<tag k="natural" v="water" />
		<tag k="ssr:stedsnr" v="126211" />
	</node>
	<node lat="60.663691664509834" lon="5.879666669950416" id="-30356">
		<tag k="fixme" v="consider natural=peak for the most distinct mountains in the district" />
		<tag k="name" v="Aldalsaksli" />
		<tag k="natural" v="hill" />
		<tag k="place" v="locality" />
		<tag k="ssr:stedsnr" v="127059" />
	</node>
	<node lat="60.63974444515407" lon="5.949127786302456" id="-30357">
		<tag k="name" v="Tangen" />
		<tag k="natural" v="cape" />
		<tag k="ssr:stedsnr" v="127095" />
	</node>
	<node lat="60.64039166729953" lon="5.95342777172094" id="-30358">
		<tag k="amenity" v="place_of_worship" />
		<tag k="fixme" v="specify religion=*, denomination=*, building=* etc" />
		<tag k="name" v="Bolstadøyri bedehus" />
		<tag k="ssr:stedsnr" v="127096" />
	</node>
	<node lat="60.59573333183925" lon="6.145133339394553" id="-30359">
		<tag k="name" v="Hattaberget" />
		<tag k="natural" v="hill" />
		<tag k="place" v="locality" />
		<tag k="ssr:stedsnr" v="127213" />
	</node>
	<node lat="60.606097226067625" lon="6.21074166283357" id="-30360">
		<tag k="name" v="Demmetjørni" />
		<tag k="natural" v="water" />
		<tag k="ssr:stedsnr" v="127222" />
		<tag k="water" v="lake" />
	</node>
	<node lat="60.5963618107544" lon="6.19619328221153" id="-30361">
		<tag k="fixme" v="consider place=hamlet" />
		<tag k="name" v="Narheim" />
		<tag k="place" v="farm" />
		<tag k="ssr:stedsnr" v="127223" />
	</node>
	<node lat="60.61038889242457" lon="5.943041663363988" id="-30362">
		<tag k="name" v="Brislingabotnen" />
		<tag k="natural" v="valley" />
		<tag k="place" v="locality" />
		<tag k="ssr:stedsnr" v="127224" />
	</node>
	<node lat="60.614302775762525" lon="6.03287221332682" id="-30363">
		<tag k="name" v="Storesteinane" />
		<tag k="natural" v="valley" />
		<tag k="place" v="locality" />
		<tag k="ssr:stedsnr" v="127240" />
	</node>
	<node lat="60.58299999919817" lon="6.214333340157008" id="-30364">
		<tag k="name" v="Gaupeskardet" />
		<tag k="natural" v="valley" />
		<tag k="place" v="locality" />
		<tag k="ssr:stedsnr" v="127251" />
	</node>
	<node lat="60.6365836162108" lon="6.041271565443213" id="-30365">
		<tag k="fixme" v="consider place=hamlet" />
		<tag k="name" v="Nakka" />
		<tag k="place" v="farm" />
		<tag k="ssr:stedsnr" v="127116" />
	</node>
	<node lat="60.64360000050148" lon="6.074819446014161" id="-30366">
		<tag k="name" v="Tjørnadalen" />
		<tag k="natural" v="valley" />
		<tag k="place" v="locality" />
		<tag k="ssr:stedsnr" v="127120" />
	</node>
	<node lat="60.63900277989887" lon="5.992380562917046" id="-30367">
		<tag k="historic" v="shieling" />
		<tag k="name" v="Vassendastølen" />
		<tag k="place" v="isolated_dwelling" />
		<tag k="ssr:stedsnr" v="127123" />
	</node>
	<node lat="60.626627777733034" lon="6.0306444480373536" id="-30368">
		<tag k="name" v="Nonhaugane" />
		<tag k="natural" v="hill" />
		<tag k="place" v="locality" />
		<tag k="ssr:stedsnr" v="127145" />
	</node>
	<node lat="60.63323055197648" lon="6.124013884492279" id="-30369">
		<tag k="name" v="Teigdalsallmenningen" />
		<tag k="place" v="locality" />
		<tag k="ssr:stedsnr" v="127160" />
	</node>
	<node lat="60.62561666520008" lon="5.984008341058945" id="-30370">
		<tag k="name" v="Tuftedalen" />
		<tag k="natural" v="valley" />
		<tag k="place" v="locality" />
		<tag k="ssr:stedsnr" v="127190" />
	</node>
	<node lat="60.6203500007846" lon="6.019699993151549" id="-30371">
		<tag k="name" v="Vikastølen" />
		<tag k="place" v="locality" />
		<tag k="ssr:stedsnr" v="127196" />
	</node>
	<node lat="60.6547388915465" lon="6.323052777031821" id="-30372">
		<tag k="historic" v="shieling" />
		<tag k="name" v="Buneld" />
		<tag k="place" v="isolated_dwelling" />
		<tag k="ssr:stedsnr" v="127305" />
	</node>
	<node lat="60.661305552517305" lon="6.4230694466332405" id="-30373">
		<tag k="fixme" v="consider place=hamlet" />
		<tag k="name" v="Grevle" />
		<tag k="place" v="farm" />
		<tag k="ssr:stedsnr" v="127310" />
	</node>
	<node lat="60.66539444259097" lon="6.3452888907212115" id="-30374">
		<tag k="name" v="Dalsmyrane" />
		<tag k="natural" v="wetland" />
		<tag k="ssr:stedsnr" v="127313" />
	</node>
	<node lat="60.67894444389035" lon="6.561744441784472" id="-30375">
		<tag k="name" v="Raundalen" />
		<tag k="natural" v="valley" />
		<tag k="place" v="locality" />
		<tag k="ssr:stedsnr" v="127317" />
	</node>
	<node lat="60.733391669206654" lon="6.1276166703067885" id="-30376">
		<tag k="name" v="Lii" />
		<tag k="place" v="farm" />
		<tag k="ssr:stedsnr" v="127447" />
	</node>
	<node lat="60.70241944318311" lon="5.974866662559447" id="-30377">
		<tag k="historic" v="shieling" />
		<tag k="name" v="Øykholmane" />
		<tag k="place" v="isolated_dwelling" />
		<tag k="ssr:stedsnr" v="127498" />
	</node>
	<node lat="60.699238884851816" lon="5.9558277833404585" id="-30378">
		<tag k="fixme" v="consider natural=peak for the most distinct mountains in the district" />
		<tag k="name" v="Nordeggi" />
		<tag k="natural" v="hill" />
		<tag k="place" v="locality" />
		<tag k="ssr:stedsnr" v="127501" />
	</node>
	<node lat="60.69131029757543" lon="6.4641418013930485" id="-30379">
		<tag k="fixme" v="consider place=hamlet" />
		<tag k="name" v="Staup" />
		<tag k="place" v="farm" />
		<tag k="ssr:stedsnr" v="127343" />
	</node>
	<node lat="60.696872219773084" lon="6.459788895084198" id="-30380">
		<tag k="historic" v="shieling" />
		<tag k="name" v="Bergsstølen" />
		<tag k="place" v="isolated_dwelling" />
		<tag k="ssr:stedsnr" v="127352" />
	</node>
	<node lat="60.73929444177208" lon="6.305550003831646" id="-30381">
		<tag k="fixme" v="consider tourism=alpine_hut or tourism=chalet" />
		<tag k="name" v="Volahytta" />
		<tag k="ssr:stedsnr" v="127391" />
		<tag k="tourism" v="wilderness_hut" />
	</node>
	<node lat="60.70823547648869" lon="6.171984210124041" id="-30382">
		<tag k="name" v="Auborratjørnane" />
		<tag k="natural" v="water" />
		<tag k="ssr:stedsnr" v="127508" />
		<tag k="water" v="lake" />
	</node>
	<node lat="60.61946389099827" lon="6.774869443722682" id="-30383">
		<tag k="name" v="Seldalen" />
		<tag k="natural" v="valley" />
		<tag k="place" v="locality" />
		<tag k="ssr:stedsnr" v="127893" />
	</node>
	<node lat="60.634788885777404" lon="6.008274998110897" id="-30384">
		<tag k="name" v="Tverrelvi" />
		<tag k="ssr:stedsnr" v="128005" />
		<tag k="waterway" v="river" />
	</node>
	<node lat="60.64619999966447" lon="6.585402776188608" id="-30385">
		<tag k="historic" v="shieling" />
		<tag k="name" v="Øvraset" />
		<tag k="place" v="isolated_dwelling" />
		<tag k="ssr:stedsnr" v="127740" />
	</node>
	<node lat="60.627776560172" lon="6.278076492344179" id="-30386">
		<tag k="fixme" v="consider place=hamlet" />
		<tag k="name" v="Liland" />
		<tag k="place" v="farm" />
		<tag k="ssr:stedsnr" v="127745" />
	</node>
	<node lat="60.59412500428785" lon="6.670700007356447" id="-30387">
		<tag k="historic" v="shieling" />
		<tag k="name" v="Bjørndalen" />
		<tag k="place" v="isolated_dwelling" />
		<tag k="ssr:stedsnr" v="127920" />
	</node>
	<node lat="60.519466663270954" lon="6.505499993979747" id="-30388">
		<tag k="name" v="Angunnagili" />
		<tag k="natural" v="gorge" />
		<tag k="ssr:stedsnr" v="128508" />
	</node>
	<node lat="60.51922778032451" lon="6.521241669884348" id="-30389">
		<tag k="name" v="Hanseladalen" />
		<tag k="natural" v="valley" />
		<tag k="place" v="locality" />
		<tag k="ssr:stedsnr" v="128514" />
	</node>
	<node lat="60.55349999971501" lon="6.501000007687064" id="-30390">
		<tag k="name" v="Gryvlesgrovi" />
		<tag k="ssr:stedsnr" v="128586" />
		<tag k="waterway" v="river" />
	</node>
	<node lat="60.54483333720623" lon="6.2442250035304765" id="-30391">
		<tag k="name" v="Vassviki" />
		<tag k="natural" v="bay" />
		<tag k="ssr:stedsnr" v="128591" />
	</node>
	<node lat="60.55770555135688" lon="6.564222214074465" id="-30392">
		<tag k="historic" v="shieling" />
		<tag k="name" v="Byrset" />
		<tag k="place" v="isolated_dwelling" />
		<tag k="ssr:stedsnr" v="128592" />
	</node>
	<node lat="60.53261906995867" lon="6.252965599552227" id="-30393">
		<tag k="name" v="Sauatjørni" />
		<tag k="natural" v="water" />
		<tag k="ssr:stedsnr" v="128599" />
	</node>
	<node lat="60.62475833192375" lon="6.559727773543954" id="-30394">
		<tag k="name" v="Skredbergsnolten" />
		<tag k="natural" v="hill" />
		<tag k="place" v="locality" />
		<tag k="ssr:stedsnr" v="128738" />
	</node>
	<node lat="60.52588889188029" lon="6.297424998121074" id="-30395">
		<tag k="fixme" v="consider natural=peak for the most distinct mountains in the district" />
		<tag k="name" v="Slettefjellet" />
		<tag k="natural" v="hill" />
		<tag k="place" v="locality" />
		<tag k="ssr:stedsnr" v="128495" />
	</node>
	<node lat="60.528699996897444" lon="6.400041667674635" id="-30396">
		<tag k="fixme" v="consider natural=peak for the most distinct mountains in the district" />
		<tag k="name" v="Fuglahorgi" />
		<tag k="natural" v="hill" />
		<tag k="place" v="locality" />
		<tag k="ssr:stedsnr" v="128499" />
	</node>
	<node lat="60.606860369641595" lon="6.39064729646828" id="-30397">
		<tag k="fixme" v="consider place=hamlet" />
		<tag k="name" v="Sætre" />
		<tag k="place" v="farm" />
		<tag k="ssr:stedsnr" v="128611" />
	</node>
	<node lat="60.58581944465704" lon="6.573661111206258" id="-30398">
		<tag k="historic" v="shieling" />
		<tag k="name" v="Gulset" />
		<tag k="place" v="isolated_dwelling" />
		<tag k="ssr:stedsnr" v="128665" />
	</node>
	<node lat="60.64376388638413" lon="6.827449998338485" id="-30399">
		<tag k="name" v="Vetlebotnen" />
		<tag k="natural" v="valley" />
		<tag k="place" v="locality" />
		<tag k="ssr:stedsnr" v="128983" />
	</node>
	<node lat="60.581716670404084" lon="6.636463893983809" id="-30400">
		<tag k="name" v="Seglberget" />
		<tag k="natural" v="hill" />
		<tag k="place" v="locality" />
		<tag k="ssr:stedsnr" v="128842" />
	</node>
	<node lat="60.6364055516064" lon="6.778836103169559" id="-30401">
		<tag k="name" v="Rastaklov" />
		<tag k="natural" v="ridge" />
		<tag k="place" v="locality" />
		<tag k="ssr:stedsnr" v="128889" />
	</node>
	<node lat="60.81536111480782" lon="6.415394439341882" id="-30402">
		<tag k="name" v="Tveitelii" />
		<tag k="natural" v="slope" />
		<tag k="place" v="locality" />
		<tag k="ssr:stedsnr" v="129505" />
	</node>
	<node lat="60.80284722113748" lon="6.30914443676754" id="-30403">
		<tag k="name" v="Kvitanosdalen" />
		<tag k="natural" v="valley" />
		<tag k="place" v="locality" />
		<tag k="ssr:stedsnr" v="129509" />
	</node>
	<node lat="60.8854166632388" lon="6.654761105097411" id="-30404">
		<tag k="historic" v="shieling" />
		<tag k="name" v="Kinnarbakken" />
		<tag k="place" v="isolated_dwelling" />
		<tag k="ssr:stedsnr" v="129826" />
	</node>
	<node lat="60.90911081519032" lon="6.814338206766429" id="-30405">
		<tag k="name" v="Slettedalstjørni" />
		<tag k="natural" v="water" />
		<tag k="ssr:stedsnr" v="129843" />
	</node>
	<node lat="60.925752779684366" lon="6.746225005129235" id="-30406">
		<tag k="historic" v="shieling" />
		<tag k="name" v="Kåstein" />
		<tag k="place" v="isolated_dwelling" />
		<tag k="ssr:stedsnr" v="129855" />
	</node>
	<node lat="60.81223610799199" lon="6.451491664749693" id="-30407">
		<tag k="name" v="Strandalii" />
		<tag k="natural" v="slope" />
		<tag k="place" v="locality" />
		<tag k="ssr:stedsnr" v="129514" />
	</node>
	<node lat="60.812330559850736" lon="6.496777769189282" id="-30408">
		<tag k="name" v="Myrane" />
		<tag k="natural" v="wetland" />
		<tag k="ssr:stedsnr" v="129517" />
	</node>
	<node lat="60.75179879603104" lon="6.502743082736023" id="-30409">
		<tag k="fixme" v="consider place=hamlet" />
		<tag k="name" v="Skogstad" />
		<tag k="place" v="farm" />
		<tag k="ssr:stedsnr" v="129933" />
	</node>
	<node lat="60.791641662257334" lon="6.56582138478869" id="-30410">
		<tag k="fixme" v="consider place=hamlet" />
		<tag k="name" v="Sundsvål" />
		<tag k="place" v="farm" />
		<tag k="ssr:stedsnr" v="129986" />
	</node>
	<node lat="60.78915000359485" lon="6.448713886348578" id="-30411">
		<tag k="name" v="Breiaset" />
		<tag k="place" v="locality" />
		<tag k="ssr:stedsnr" v="129998" />
	</node>
	<node lat="60.84911571083497" lon="6.480514146199604" id="-30412">
		<tag k="fixme" v="consider place=hamlet" />
		<tag k="name" v="Bystølen" />
		<tag k="place" v="farm" />
		<tag k="ssr:stedsnr" v="130514" />
	</node>
	<node lat="60.84084999962109" lon="6.327375005663323" id="-30413">
		<tag k="name" v="Raunebrekkene" />
		<tag k="natural" v="slope" />
		<tag k="place" v="locality" />
		<tag k="ssr:stedsnr" v="130515" />
	</node>
	<node lat="60.848227779036186" lon="6.589594435601088" id="-30414">
		<tag k="name" v="Geitaberget" />
		<tag k="natural" v="hill" />
		<tag k="place" v="locality" />
		<tag k="ssr:stedsnr" v="130530" />
	</node>
	<node lat="60.85445393015134" lon="6.7340412596678885" id="-30415">
		<tag k="fixme" v="consider natural=peak for the most distinct mountains in the district" />
		<tag k="name" v="Jordalsnuten" />
		<tag k="natural" v="hill" />
		<tag k="place" v="locality" />
		<tag k="ssr:stedsnr" v="130784" />
	</node>
	<node lat="60.78472777582473" lon="6.56456944267587" id="-30416">
		<tag k="name" v="Framnes" />
		<tag k="place" v="farm" />
		<tag k="ssr:stedsnr" v="130974" />
	</node>
	<node lat="60.62374166435906" lon="6.318122214974849" id="-30417">
		<tag k="name" v="Bøjaviki" />
		<tag k="natural" v="bay" />
		<tag k="ssr:stedsnr" v="141095" />
	</node>
	<node lat="60.61436389173057" lon="6.2996388878430984" id="-30418">
		<tag k="name" v="Eimstadelvi" />
		<tag k="ssr:stedsnr" v="141096" />
		<tag k="waterway" v="river" />
	</node>
	<node lat="60.613758332750386" lon="6.306827777860869" id="-30419">
		<tag k="name" v="Leitagrovi" />
		<tag k="ssr:stedsnr" v="141099" />
		<tag k="waterway" v="river" />
	</node>
	<node lat="60.812391669462954" lon="6.645599994066263" id="-30420">
		<tag k="name" v="Fuglhovden" />
		<tag k="natural" v="hill" />
		<tag k="place" v="locality" />
		<tag k="ssr:stedsnr" v="141382" />
	</node>
	<node lat="60.82690450775377" lon="6.654460912679017" id="-30421">
		<tag k="loc_name" v="Kanningahaugen" />
		<tag k="name" v="Kannigahaugen" />
		<tag k="natural" v="hill" />
		<tag k="place" v="locality" />
		<tag k="ssr:stedsnr" v="141389" />
	</node>
	<node lat="60.642972224711585" lon="6.154899991413238" id="-30422">
		<tag k="name" v="Midtøyni" />
		<tag k="place" v="island" />
		<tag k="ssr:stedsnr" v="141692" />
	</node>
	<node lat="60.59887542741168" lon="6.448766240230766" id="-30423">
		<tag k="fixme" v="consider place=hamlet" />
		<tag k="name" v="Nedre Himle" />
		<tag k="place" v="farm" />
		<tag k="ssr:stedsnr" v="141794" />
	</node>
	<node lat="60.61609722450737" lon="6.352044441350966" id="-30424">
		<tag k="name" v="Hagliberget" />
		<tag k="natural" v="hill" />
		<tag k="place" v="locality" />
		<tag k="ssr:stedsnr" v="141893" />
	</node>
	<node lat="60.64242777756521" lon="6.340022218173419" id="-30425">
		<tag k="name" v="Bergamyri" />
		<tag k="natural" v="wetland" />
		<tag k="ssr:stedsnr" v="142083" />
	</node>
	<node lat="60.63165000153593" lon="6.31328888174315" id="-30426">
		<tag k="name" v="Røtesmyrane" />
		<tag k="natural" v="wetland" />
		<tag k="ssr:stedsnr" v="142086" />
	</node>
	<node lat="60.59638889322109" lon="6.1833361139016985" id="-30427">
		<tag k="name" v="Krokane" />
		<tag k="natural" v="hill" />
		<tag k="place" v="locality" />
		<tag k="ssr:stedsnr" v="141936" />
	</node>
	<node lat="60.6273833307474" lon="6.324344437877245" id="-30428">
		<tag k="name" v="Nallen" />
		<tag k="natural" v="slope" />
		<tag k="place" v="locality" />
		<tag k="ssr:stedsnr" v="142102" />
	</node>
	<node lat="60.8049472181255" lon="6.508149992129767" id="-30429">
		<tag k="name" v="Kjerringhaugen" />
		<tag k="natural" v="hill" />
		<tag k="place" v="locality" />
		<tag k="ssr:stedsnr" v="142333" />
	</node>
	<node lat="60.80515555425411" lon="6.4996666624793065" id="-30430">
		<tag k="name" v="Øyaberget" />
		<tag k="natural" v="hill" />
		<tag k="place" v="locality" />
		<tag k="ssr:stedsnr" v="142335" />
	</node>
	<node lat="60.7256111088869" lon="6.111694446995965" id="-30431">
		<tag k="historic" v="shieling" />
		<tag k="name" v="Langelandsstølen" />
		<tag k="place" v="isolated_dwelling" />
		<tag k="ssr:stedsnr" v="142481" />
	</node>
	<node lat="60.67168888680438" lon="5.976447223638639" id="-30432">
		<tag k="fixme" v="consider natural=peak for the most distinct mountains in the district" />
		<tag k="name" v="Flatafjellet" />
		<tag k="natural" v="hill" />
		<tag k="place" v="locality" />
		<tag k="ssr:stedsnr" v="142630" />
	</node>
	<node lat="60.66401110845619" lon="6.349633335075965" id="-30433">
		<tag k="name" v="Glup" />
		<tag k="place" v="locality" />
		<tag k="ssr:stedsnr" v="142911" />
	</node>
	<node lat="60.655269440205565" lon="6.349444446986375" id="-30434">
		<tag k="name" v="Furehammaren" />
		<tag k="natural" v="hill" />
		<tag k="place" v="locality" />
		<tag k="ssr:stedsnr" v="142913" />
	</node>
	<node lat="60.66042500443337" lon="6.359108339982014" id="-30435">
		<tag k="name" v="Kvitingsgrovi" />
		<tag k="ssr:stedsnr" v="142915" />
		<tag k="waterway" v="river" />
	</node>
	<node lat="60.6686277738306" lon="6.335388883401409" id="-30436">
		<tag k="name" v="Hellebakkane" />
		<tag k="natural" v="slope" />
		<tag k="place" v="locality" />
		<tag k="ssr:stedsnr" v="142923" />
	</node>
	<node lat="60.656522222618925" lon="6.330347221823043" id="-30437">
		<tag k="name" v="Slettelii" />
		<tag k="natural" v="slope" />
		<tag k="place" v="locality" />
		<tag k="ssr:stedsnr" v="142930" />
	</node>
	<node lat="60.67131388867024" lon="6.291069443077535" id="-30438">
		<tag k="name" v="Grønhaugen" />
		<tag k="natural" v="hill" />
		<tag k="place" v="locality" />
		<tag k="ssr:stedsnr" v="142945" />
	</node>
	<node lat="60.60224999906968" lon="6.198694442067961" id="-30439">
		<tag k="name" v="Budalen" />
		<tag k="natural" v="valley" />
		<tag k="place" v="locality" />
		<tag k="ssr:stedsnr" v="142949" />
	</node>
	<node lat="60.726463892327956" lon="6.447947230547228" id="-30440">
		<tag k="name" v="Øvrestølselvi" />
		<tag k="ssr:stedsnr" v="324142" />
		<tag k="waterway" v="river" />
	</node>
	<node lat="60.86051389000342" lon="6.421605552566568" id="-30441">
		<tag k="name" v="Vetleknausen" />
		<tag k="natural" v="hill" />
		<tag k="place" v="locality" />
		<tag k="ssr:stedsnr" v="324360" />
	</node>
	<node lat="60.4413416695467" lon="6.663341673967163" id="-30442">
		<tag k="name" v="Labbasta" />
		<tag k="natural" v="slope" />
		<tag k="place" v="locality" />
		<tag k="ssr:stedsnr" v="165216" />
	</node>
	<node lat="60.68499722523355" lon="5.990341674482151" id="-30443">
		<tag k="name" v="Glimeskargili" />
		<tag k="natural" v="gorge" />
		<tag k="ssr:stedsnr" v="324704" />
	</node>
	<node lat="60.54779721945156" lon="6.112644445657402" id="-30444">
		<tag k="historic" v="shieling" />
		<tag k="name" v="Hamlagrø" />
		<tag k="place" v="isolated_dwelling" />
		<tag k="ssr:stedsnr" v="166063" />
	</node>
	<node lat="60.551191669232054" lon="6.135058331385486" id="-30445">
		<tag k="name" v="Liabaret" />
		<tag k="place" v="locality" />
		<tag k="ssr:stedsnr" v="166065" />
	</node>
	<node lat="60.868902777058324" lon="6.633911110304784" id="-30446">
		<tag k="name" v="Årmot" />
		<tag k="place" v="locality" />
		<tag k="ssr:stedsnr" v="166077" />
	</node>
	<node lat="60.6773388933392" lon="6.645288895280468" id="-30447">
		<tag k="name" v="Lid skule" />
		<tag k="place" v="locality" />
		<tag k="ssr:stedsnr" v="166209" />
	</node>
	<node lat="60.90231388774472" lon="6.634830560688525" id="-30448">
		<tag k="name" v="Øvstebotn" />
		<tag k="natural" v="valley" />
		<tag k="place" v="locality" />
		<tag k="ssr:stedsnr" v="166106" />
	</node>
	<node lat="60.88391110901267" lon="6.647994450097704" id="-30449">
		<tag k="name" v="Ringheimsøyni" />
		<tag k="place" v="locality" />
		<tag k="ssr:stedsnr" v="166111" />
	</node>
	<node lat="60.6361722240401" lon="6.487791660857628" id="-30450">
		<tag k="name" v="Leikeshovden" />
		<tag k="natural" v="hill" />
		<tag k="place" v="locality" />
		<tag k="ssr:stedsnr" v="166167" />
	</node>
	<node lat="60.66158610861298" lon="6.44800277101492" id="-30451">
		<tag k="name" v="Myrane" />
		<tag k="natural" v="wetland" />
		<tag k="ssr:stedsnr" v="166412" />
	</node>
	<node lat="60.50849166631324" lon="6.485208334613903" id="-30452">
		<tag k="name" v="Hamragjelet" />
		<tag k="natural" v="valley" />
		<tag k="place" v="locality" />
		<tag k="ssr:stedsnr" v="166610" />
	</node>
	<node lat="60.69506110666049" lon="6.463330549305407" id="-30453">
		<tag k="name" v="Breimo" />
		<tag k="ssr:stedsnr" v="166504" />
		<tag k="waterway" v="river" />
	</node>
	<node lat="60.62707500147882" lon="6.464172223150626" id="-30454">
		<tag k="name" v="Kvernagrovi" />
		<tag k="ssr:stedsnr" v="166513" />
		<tag k="waterway" v="stream" />
	</node>
	<node lat="60.71879166228441" lon="6.49391667077219" id="-30455">
		<tag k="name" v="Moheim" />
		<tag k="place" v="farm" />
		<tag k="ssr:stedsnr" v="166706" />
	</node>
	<node lat="60.73495277756207" lon="6.478813882215816" id="-30456">
		<tag k="name" v="Bordena" />
		<tag k="place" v="locality" />
		<tag k="ssr:stedsnr" v="166711" />
	</node>
	<node lat="60.72817777537603" lon="6.4839666587352065" id="-30457">
		<tag k="name" v="Kjegjerdena" />
		<tag k="place" v="locality" />
		<tag k="ssr:stedsnr" v="166713" />
	</node>
	<node lat="60.626977781954814" lon="6.426611109568721" id="-30458">
		<tag k="amenity" v="school" />
		<tag k="name" v="Voss gymnas" />
		<tag k="ssr:stedsnr" v="166860" />
	</node>
	<node lat="60.63184910195388" lon="6.618366663967627" id="-30459">
		<tag k="name" v="Hovenoltvatnet" />
		<tag k="natural" v="water" />
		<tag k="ssr:stedsnr" v="166865" />
		<tag k="water" v="lake" />
	</node>
	<node lat="60.702549998624114" lon="6.535627784338565" id="-30460">
		<tag k="name" v="Midmorgehaugen" />
		<tag k="natural" v="hill" />
		<tag k="place" v="locality" />
		<tag k="ssr:stedsnr" v="166875" />
	</node>
	<node lat="60.84194444514529" lon="6.599288897540732" id="-30461">
		<tag k="name" v="Vardagrobetne" />
		<tag k="place" v="locality" />
		<tag k="ssr:stedsnr" v="166879" />
	</node>
	<node lat="60.827622218610685" lon="6.62126389664964" id="-30462">
		<tag k="name" v="Galtåni" />
		<tag k="ssr:stedsnr" v="166880" />
		<tag k="waterway" v="river" />
	</node>
	<node lat="60.91524444085629" lon="6.74550000617454" id="-30463">
		<tag k="name" v="Ytste Teigen" />
		<tag k="place" v="locality" />
		<tag k="ssr:stedsnr" v="167015" />
	</node>
	<node lat="60.835688886073136" lon="6.555091667740648" id="-30464">
		<tag k="name" v="Larstræet" />
		<tag k="place" v="locality" />
		<tag k="ssr:stedsnr" v="166922" />
	</node>
	<node lat="60.77483888459259" lon="6.6006361144415" id="-30465">
		<tag k="name" v="Tjørnhaugane" />
		<tag k="natural" v="hill" />
		<tag k="place" v="locality" />
		<tag k="ssr:stedsnr" v="166927" />
	</node>
	<node lat="60.56300833617772" lon="6.219788882799066" id="-30466">
		<tag k="name" v="Lausesteinen" />
		<tag k="natural" v="stone" />
		<tag k="ssr:stedsnr" v="166975" />
	</node>
	<node lat="60.81704444769509" lon="6.721944441709493" id="-30467">
		<tag k="name" v="Kvernhusgroi" />
		<tag k="ssr:stedsnr" v="166982" />
		<tag k="waterway" v="river" />
	</node>
	<node lat="60.866322225652915" lon="6.7207166636369795" id="-30468">
		<tag k="name" v="Storskreda" />
		<tag k="natural" v="valley" />
		<tag k="place" v="locality" />
		<tag k="ssr:stedsnr" v="167109" />
	</node>
	<node lat="60.84981666424632" lon="6.6947305604660166" id="-30469">
		<tag k="name" v="Høgehaugen" />
		<tag k="natural" v="hill" />
		<tag k="place" v="locality" />
		<tag k="ssr:stedsnr" v="167113" />
	</node>
	<node lat="60.844166669431154" lon="6.69038888684449" id="-30470">
		<tag k="name" v="Sivleshagen" />
		<tag k="place" v="locality" />
		<tag k="ssr:stedsnr" v="167123" />
	</node>
	<node lat="60.68049444289039" lon="6.726538895098488" id="-30471">
		<tag k="name" v="Langehjellen" />
		<tag k="place" v="locality" />
		<tag k="ssr:stedsnr" v="167127" />
	</node>
	<node lat="60.68630278081174" lon="6.656416662757141" id="-30472">
		<tag k="fixme" v="consider natural=peak for the most distinct mountains in the district" />
		<tag k="name" v="Tinden" />
		<tag k="natural" v="hill" />
		<tag k="place" v="locality" />
		<tag k="ssr:stedsnr" v="167205" />
	</node>
	<node lat="60.68538055503335" lon="6.820950004993338" id="-30473">
		<tag k="name" v="Austmannaholen" />
		<tag k="natural" v="valley" />
		<tag k="place" v="locality" />
		<tag k="ssr:stedsnr" v="167225" />
	</node>
	<node lat="60.89906944795087" lon="6.499238883321532" id="-30474">
		<tag k="name" v="Bjørndalen" />
		<tag k="place" v="farm" />
		<tag k="ssr:stedsnr" v="167226" />
	</node>
	<node lat="60.71104166651822" lon="6.640797222150873" id="-30475">
		<tag k="name" v="Bukkafossen" />
		<tag k="natural" v="waterfall" />
		<tag k="ssr:stedsnr" v="167260" />
	</node>
	<node lat="60.64946666625015" lon="6.731961105409551" id="-30476">
		<tag k="name" v="Fribottseggi" />
		<tag k="place" v="locality" />
		<tag k="ssr:stedsnr" v="167261" />
	</node>
	<node lat="60.71193888459609" lon="6.642955553715558" id="-30477">
		<tag k="name" v="Husaleitet" />
		<tag k="natural" v="slope" />
		<tag k="place" v="locality" />
		<tag k="ssr:stedsnr" v="167262" />
	</node>
	<node lat="60.69006388805698" lon="6.685169436464763" id="-30478">
		<tag k="name" v="Vetle Brattebakken" />
		<tag k="natural" v="slope" />
		<tag k="place" v="locality" />
		<tag k="ssr:stedsnr" v="167302" />
	</node>
	<node lat="60.69510278168069" lon="6.6687361078067084" id="-30479">
		<tag k="name" v="Stølsgroi" />
		<tag k="ssr:stedsnr" v="167304" />
		<tag k="waterway" v="stream" />
	</node>
	<node lat="60.654019446266815" lon="6.110963884423113" id="-30480">
		<tag k="name" v="Geitdalsgrovi" />
		<tag k="ssr:stedsnr" v="324707" />
		<tag k="waterway" v="river" />
	</node>
	<node lat="60.64268888675193" lon="6.630527779637376" id="-30481">
		<tag k="name" v="Vetabrekkena" />
		<tag k="natural" v="slope" />
		<tag k="place" v="locality" />
		<tag k="ssr:stedsnr" v="167460" />
	</node>
	<node lat="60.644383330075826" lon="6.617999997033907" id="-30482">
		<tag k="name" v="Høljagrovi" />
		<tag k="ssr:stedsnr" v="167465" />
		<tag k="waterway" v="stream" />
	</node>
	<node lat="60.50369166269326" lon="6.512188894672769" id="-30483">
		<tag k="fixme" v="consider natural=peak for the most distinct mountains in the district" />
		<tag k="name" v="Hals" />
		<tag k="natural" v="hill" />
		<tag k="place" v="locality" />
		<tag k="ssr:stedsnr" v="167622" />
	</node>
	<node lat="60.513263891365895" lon="6.494300000071596" id="-30484">
		<tag k="name" v="Ljoshaugen" />
		<tag k="natural" v="hill" />
		<tag k="place" v="locality" />
		<tag k="ssr:stedsnr" v="167812" />
	</node>
	<node lat="60.57226666306928" lon="6.478030560154177" id="-30485">
		<tag k="name" v="Dammatoni" />
		<tag k="ssr:stedsnr" v="167712" />
		<tag k="waterway" v="stream" />
	</node>
	<node lat="60.562211111773614" lon="6.55660555267198" id="-30486">
		<tag k="fixme" v="consider natural=peak for the most distinct mountains in the district" />
		<tag k="name" v="Høgalifjellet" />
		<tag k="natural" v="hill" />
		<tag k="place" v="locality" />
		<tag k="ssr:stedsnr" v="167716" />
	</node>
	<node lat="60.570108334062915" lon="6.46789999549282" id="-30487">
		<tag k="name" v="Heiane" />
		<tag k="natural" v="hill" />
		<tag k="place" v="locality" />
		<tag k="ssr:stedsnr" v="167767" />
	</node>
	<node lat="60.607238892164204" lon="6.579672213835142" id="-30488">
		<tag k="bridge" v="yes" />
		<tag k="layer" v="1" />
		<tag k="name" v="Heimetun" />
		<tag k="ssr:stedsnr" v="168156" />
	</node>
	<node lat="60.53464999866267" lon="6.07577500149658" id="-30489">
		<tag k="bridge" v="yes" />
		<tag k="layer" v="1" />
		<tag k="name" v="Svartsgrov" />
		<tag k="ssr:stedsnr" v="168177" />
	</node>
	<node lat="60.59517500267416" lon="6.822072223842964" id="-30490">
		<tag k="bridge" v="yes" />
		<tag k="layer" v="1" />
		<tag k="name" v="Espeland" />
		<tag k="ssr:stedsnr" v="168809" />
	</node>
	<node lat="60.657047225434276" lon="6.104241673189584" id="-30491">
		<tag k="name" v="Styveshaugen" />
		<tag k="natural" v="hill" />
		<tag k="place" v="locality" />
		<tag k="ssr:stedsnr" v="324709" />
	</node>
	<node lat="60.59233055891725" lon="6.1925916624069215" id="-30492">
		<tag k="name" v="Slanten" />
		<tag k="natural" v="hill" />
		<tag k="place" v="locality" />
		<tag k="ssr:stedsnr" v="324940" />
	</node>
	<node lat="60.53353055618832" lon="6.075688884402517" id="-30494">
		<tag k="name" v="Solhaug" />
		<tag k="place" v="isolated_dwelling" />
		<tag k="ssr:stedsnr" v="180012" />
	</node>
	<node lat="60.604047222081526" lon="6.292677785725335" id="-30495">
		<tag k="name" v="Søteigane" />
		<tag k="place" v="locality" />
		<tag k="ssr:stedsnr" v="263900" />
	</node>
	<node lat="60.66220278180504" lon="6.347055558563511" id="-30496">
		<tag k="name" v="Langetoni" />
		<tag k="natural" v="hill" />
		<tag k="place" v="locality" />
		<tag k="ssr:stedsnr" v="263925" />
	</node>
	<node lat="60.66735277945756" lon="6.364313885610701" id="-30497">
		<tag k="name" v="Myrkreii" />
		<tag k="natural" v="stone" />
		<tag k="ssr:stedsnr" v="263926" />
	</node>
	<node lat="60.46486944278301" lon="6.630544451904122" id="-30498">
		<tag k="name" v="Byre" />
		<tag k="natural" v="cape" />
		<tag k="ssr:stedsnr" v="187309" />
	</node>
	<node lat="60.44497059747781" lon="6.659924306030301" id="-30499">
		<tag k="name" v="Kalvviki" />
		<tag k="natural" v="bay" />
		<tag k="ssr:stedsnr" v="187314" />
	</node>
	<node lat="60.45781944679807" lon="6.711427768750729" id="-30500">
		<tag k="historic" v="shieling" />
		<tag k="name" v="Oksastølen" />
		<tag k="place" v="isolated_dwelling" />
		<tag k="ssr:stedsnr" v="187316" />
	</node>
	<node lat="60.485399996399515" lon="6.717055555228526" id="-30501">
		<tag k="name" v="Verkadalsnuten" />
		<tag k="natural" v="hill" />
		<tag k="place" v="locality" />
		<tag k="ssr:stedsnr" v="187394" />
	</node>
	<node lat="60.49411666917053" lon="6.6774638918797455" id="-30502">
		<tag k="alt_name" v="Startanes" />
		<tag k="name" v="Startaneset" />
		<tag k="natural" v="cape" />
		<tag k="ssr:stedsnr" v="187397" />
	</node>
	<node lat="60.45766944835515" lon="6.589288883595392" id="-30503">
		<tag k="fixme" v="consider place=hamlet" />
		<tag k="name" v="Naustvik" />
		<tag k="place" v="farm" />
		<tag k="ssr:stedsnr" v="187228" />
	</node>
	<node lat="60.48550000287892" lon="6.699169449576216" id="-30504">
		<tag k="name" v="Verkadalslii" />
		<tag k="natural" v="slope" />
		<tag k="place" v="locality" />
		<tag k="ssr:stedsnr" v="187402" />
	</node>
	<node lat="60.67046111441212" lon="5.968475004316822" id="-30505">
		<tag k="name" v="Øykjakvilet" />
		<tag k="natural" v="hill" />
		<tag k="place" v="locality" />
		<tag k="ssr:stedsnr" v="188006" />
	</node>
	<node lat="60.66704999860056" lon="6.100063881342559" id="-30506">
		<tag k="name" v="Fadnesbotnen" />
		<tag k="natural" v="valley" />
		<tag k="place" v="locality" />
		<tag k="ssr:stedsnr" v="188007" />
	</node>
	<node lat="60.50127222614461" lon="6.628155561650772" id="-30507">
		<tag k="alt_name" v="Folkedal, øvre" />
		<tag k="fixme" v="consider place=hamlet" />
		<tag k="name" v="Øvre Folkedal" />
		<tag k="place" v="farm" />
		<tag k="ssr:stedsnr" v="188018" />
	</node>
	<node lat="60.64688333189921" lon="5.933505554021938" id="-30508">
		<tag k="fixme" v="consider natural=peak for the most distinct mountains in the district" />
		<tag k="name" v="Eggene" />
		<tag k="natural" v="hill" />
		<tag k="place" v="locality" />
		<tag k="ssr:stedsnr" v="188080" />
	</node>
	<node lat="60.659655552677954" lon="5.892583335956457" id="-30509">
		<tag k="name" v="Botnatjørni" />
		<tag k="natural" v="water" />
		<tag k="ssr:stedsnr" v="188090" />
	</node>
	<node lat="60.625025004420024" lon="6.09446110821225" id="-30510">
		<tag k="fixme" v="consider natural=peak for the most distinct mountains in the district" />
		<tag k="name" v="Grautaleitet" />
		<tag k="natural" v="hill" />
		<tag k="place" v="locality" />
		<tag k="ssr:stedsnr" v="188218" />
	</node>
	<node lat="60.65113888938922" lon="6.112933324707137" id="-30511">
		<tag k="name" v="Stigen" />
		<tag k="place" v="farm" />
		<tag k="ssr:stedsnr" v="188104" />
	</node>
	<node lat="60.64838728834217" lon="6.080067902207449" id="-30512">
		<tag k="fixme" v="consider place=hamlet" />
		<tag k="name" v="Hernes" />
		<tag k="place" v="farm" />
		<tag k="ssr:stedsnr" v="188106" />
	</node>
	<node lat="60.636277774178055" lon="5.955699991951996" id="-30513">
		<tag k="name" v="Flåti" />
		<tag k="place" v="farm" />
		<tag k="ssr:stedsnr" v="188110" />
	</node>
	<node lat="60.63805555895809" lon="5.973238888666786" id="-30514">
		<tag k="name" v="Driva" />
		<tag k="natural" v="hill" />
		<tag k="place" v="locality" />
		<tag k="ssr:stedsnr" v="188114" />
	</node>
	<node lat="60.63286666762963" lon="5.901025004685115" id="-30515">
		<tag k="name" v="Tysseneset" />
		<tag k="natural" v="cape" />
		<tag k="ssr:stedsnr" v="188126" />
	</node>
	<node lat="60.63506944181627" lon="6.08459166893324" id="-30516">
		<tag k="name" v="Vetlestølselvi" />
		<tag k="ssr:stedsnr" v="188173" />
		<tag k="waterway" v="stream" />
	</node>
	<node lat="60.611574999761025" lon="6.117788879895446" id="-30517">
		<tag k="fixme" v="consider natural=peak for the most distinct mountains in the district" />
		<tag k="name" v="Middagsknolten" />
		<tag k="natural" v="hill" />
		<tag k="place" v="locality" />
		<tag k="ssr:stedsnr" v="188193" />
	</node>
	<node lat="60.613294442621324" lon="6.134116673069944" id="-30518">
		<tag k="historic" v="shieling" />
		<tag k="name" v="Hagastølen" />
		<tag k="place" v="locality" />
		<tag k="ssr:stedsnr" v="188195" />
	</node>
	<node lat="60.66615185244742" lon="6.5136126241346375" id="-30519">
		<tag k="fixme" v="consider place=hamlet" />
		<tag k="name" v="Repål" />
		<tag k="place" v="farm" />
		<tag k="ssr:stedsnr" v="188310" />
	</node>
	<node lat="60.675783339948026" lon="6.523208397895869" id="-30520">
		<tag k="name" v="Lemmestjørni" />
		<tag k="natural" v="water" />
		<tag k="ssr:stedsnr" v="188312" />
	</node>
	<node lat="60.67141388949927" lon="6.411019448034477" id="-30521">
		<tag k="name" v="Klepp" />
		<tag k="natural" v="hill" />
		<tag k="place" v="locality" />
		<tag k="ssr:stedsnr" v="188322" />
	</node>
	<node lat="60.67704999785405" lon="6.371941661298648" id="-30522">
		<tag k="name" v="Dalsbotnen" />
		<tag k="natural" v="valley" />
		<tag k="place" v="locality" />
		<tag k="ssr:stedsnr" v="188324" />
	</node>
	<node lat="60.74785000163398" lon="6.411338894909436" id="-30523">
		<tag k="historic" v="shieling" />
		<tag k="name" v="Tjørni" />
		<tag k="place" v="isolated_dwelling" />
		<tag k="ssr:stedsnr" v="188405" />
	</node>
	<node lat="60.74686389078104" lon="6.168888896222211" id="-30524">
		<tag k="name" v="Horgaset" />
		<tag k="place" v="locality" />
		<tag k="ssr:stedsnr" v="188412" />
	</node>
	<node lat="60.73574584001241" lon="6.152767066310698" id="-30525">
		<tag k="fixme" v="consider place=hamlet" />
		<tag k="name" v="Århus" />
		<tag k="place" v="farm" />
		<tag k="ssr:stedsnr" v="188415" />
	</node>
	<node lat="60.715116795720384" lon="5.994611447455447" id="-30526">
		<tag k="name" v="Tjørnalitjørni" />
		<tag k="natural" v="water" />
		<tag k="ssr:stedsnr" v="188477" />
	</node>
	<node lat="60.7044861151042" lon="6.156174994747563" id="-30527">
		<tag k="fixme" v="consider natural=peak for the most distinct mountains in the district" />
		<tag k="name" v="Raudhamrane" />
		<tag k="natural" v="hill" />
		<tag k="place" v="locality" />
		<tag k="ssr:stedsnr" v="188492" />
	</node>
	<node lat="60.71204166488237" lon="6.081413881208013" id="-30528">
		<tag k="name" v="Blomdalen" />
		<tag k="natural" v="valley" />
		<tag k="place" v="locality" />
		<tag k="ssr:stedsnr" v="188494" />
	</node>
	<node lat="60.567299998057734" lon="6.3221138829099175" id="-30529">
		<tag k="name" v="Ulvaskaret" />
		<tag k="natural" v="valley" />
		<tag k="place" v="locality" />
		<tag k="ssr:stedsnr" v="188618" />
	</node>
	<node lat="60.57720060523646" lon="6.472820636740543" id="-30530">
		<tag k="fixme" v="consider place=hamlet" />
		<tag k="name" v="Fære" />
		<tag k="place" v="farm" />
		<tag k="ssr:stedsnr" v="188620" />
	</node>
	<node lat="60.57473610815867" lon="6.524113884370397" id="-30531">
		<tag k="name" v="Vireskaret" />
		<tag k="natural" v="valley" />
		<tag k="place" v="locality" />
		<tag k="ssr:stedsnr" v="188623" />
	</node>
	<node lat="60.438272223629625" lon="6.686213893426227" id="-30532">
		<tag k="name" v="Måni" />
		<tag k="natural" v="ridge" />
		<tag k="place" v="locality" />
		<tag k="ssr:stedsnr" v="188369" />
	</node>
	<node lat="60.73290833308542" lon="6.537616659692139" id="-30533">
		<tag k="name" v="Skorsetvatnet" />
		<tag k="natural" v="water" />
		<tag k="ssr:stedsnr" v="188386" />
		<tag k="water" v="lake" />
	</node>
	<node lat="60.72281111154331" lon="6.347902774676936" id="-30534">
		<tag k="name" v="Holmane" />
		<tag k="place" v="locality" />
		<tag k="ssr:stedsnr" v="188390" />
	</node>
	<node lat="60.702211107039105" lon="5.97924999381904" id="-30535">
		<tag k="name" v="Øykholmvatnet" />
		<tag k="natural" v="water" />
		<tag k="ssr:stedsnr" v="188506" />
	</node>
	<node lat="60.70384166795606" lon="6.0597000044461" id="-30536">
		<tag k="fixme" v="consider natural=peak for the most distinct mountains in the district" />
		<tag k="name" v="Blåvasshorgi" />
		<tag k="natural" v="hill" />
		<tag k="place" v="locality" />
		<tag k="ssr:stedsnr" v="188513" />
	</node>
	<node lat="60.70254369793743" lon="6.112763961280906" id="-30537">
		<tag k="fixme" v="consider place=hamlet" />
		<tag k="name" v="Sevaldstad" />
		<tag k="place" v="farm" />
		<tag k="ssr:stedsnr" v="188514" />
	</node>
	<node lat="60.50928763594382" lon="6.567499780438259" id="-30538">
		<tag k="name" v="Rusketjørni" />
		<tag k="natural" v="water" />
		<tag k="ssr:stedsnr" v="188591" />
	</node>
	<node lat="60.49250833103332" lon="6.421005547496665" id="-30539">
		<tag k="fixme" v="consider natural=peak for the most distinct mountains in the district" />
		<tag k="name" v="Grånolten" />
		<tag k="natural" v="hill" />
		<tag k="place" v="locality" />
		<tag k="ssr:stedsnr" v="188803" />
	</node>
	<node lat="60.55306388851645" lon="6.763727770645253" id="-30540">
		<tag k="name" v="Djupadalsbekken" />
		<tag k="ssr:stedsnr" v="188804" />
		<tag k="waterway" v="stream" />
	</node>
	<node lat="60.562733337409234" lon="6.175613880284293" id="-30541">
		<tag k="historic" v="shieling" />
		<tag k="name" v="Bjørndalen" />
		<tag k="place" v="isolated_dwelling" />
		<tag k="ssr:stedsnr" v="188879" />
	</node>
	<node lat="60.60409721905036" lon="6.708844448450177" id="-30542">
		<tag k="name" v="Nollen" />
		<tag k="natural" v="hill" />
		<tag k="place" v="locality" />
		<tag k="ssr:stedsnr" v="188896" />
	</node>
	<node lat="60.59853889284586" lon="6.644697219016055" id="-30543">
		<tag k="alt_name" v="Jøretveitane" />
		<tag k="historic" v="shieling" />
		<tag k="name" v="Jørdretveiti" />
		<tag k="place" v="isolated_dwelling" />
		<tag k="ssr:stedsnr" v="188897" />
	</node>
	<node lat="60.593675001058664" lon="6.6919555465126095" id="-30544">
		<tag k="historic" v="shieling" />
		<tag k="name" v="Tveiti" />
		<tag k="place" v="isolated_dwelling" />
		<tag k="ssr:stedsnr" v="188917" />
	</node>
	<node lat="60.59034166861278" lon="6.718016658527517" id="-30545">
		<tag k="name" v="Øykjasteinshaugen" />
		<tag k="natural" v="hill" />
		<tag k="place" v="locality" />
		<tag k="ssr:stedsnr" v="188920" />
	</node>
	<node lat="60.591560338263044" lon="6.803456085386949" id="-30546">
		<tag k="fixme" v="consider place=hamlet" />
		<tag k="name" v="Espeland" />
		<tag k="place" v="farm" />
		<tag k="ssr:stedsnr" v="188927" />
	</node>
	<node lat="60.70027382708859" lon="6.696853719765236" id="-30547">
		<tag k="name" v="Magliberget" />
		<tag k="natural" v="hill" />
		<tag k="place" v="locality" />
		<tag k="ssr:stedsnr" v="189506" />
	</node>
	<node lat="60.722069444013144" lon="6.907202779864912" id="-30548">
		<tag k="historic" v="shieling" />
		<tag k="name" v="Borgarebu" />
		<tag k="place" v="isolated_dwelling" />
		<tag k="ssr:stedsnr" v="189518" />
	</node>
	<node lat="60.71493888467938" lon="6.738536111721892" id="-30549">
		<tag k="name" v="Brekkebotnen" />
		<tag k="natural" v="valley" />
		<tag k="place" v="locality" />
		<tag k="ssr:stedsnr" v="189519" />
	</node>
	<node lat="60.724005552625634" lon="6.93535277581548" id="-30550">
		<tag k="name" v="Storebotnen" />
		<tag k="natural" v="valley" />
		<tag k="place" v="locality" />
		<tag k="ssr:stedsnr" v="189525" />
	</node>
	<node lat="60.591463226766784" lon="6.419142846465989" id="-30551">
		<tag k="name" v="Roset" />
		<tag k="place" v="isolated_dwelling" />
		<tag k="ssr:stedsnr" v="189615" />
	</node>
	<node lat="60.59775853405131" lon="6.4365950151015205" id="-30552">
		<tag k="fixme" v="consider place=hamlet" />
		<tag k="name" v="Dymbe" />
		<tag k="place" v="farm" />
		<tag k="ssr:stedsnr" v="189616" />
	</node>
	<node lat="60.549166668729825" lon="6.619852784794256" id="-30553">
		<tag k="name" v="Tjørola-holmen" />
		<tag k="place" v="islet" />
		<tag k="ssr:stedsnr" v="189832" />
	</node>
	<node lat="60.57226388938563" lon="6.800786114949763" id="-30554">
		<tag k="name" v="Middagsmannen" />
		<tag k="natural" v="hill" />
		<tag k="place" v="locality" />
		<tag k="ssr:stedsnr" v="189862" />
	</node>
	<node lat="60.65385277929217" lon="6.216511104598886" id="-30555">
		<tag k="name" v="Gastgjevaren" />
		<tag k="ssr:stedsnr" v="263007" />
		<tag k="waterway" v="stream" />
	</node>
	<node lat="60.60603888838942" lon="6.315216663772238" id="-30556">
		<tag k="name" v="Langeflaten" />
		<tag k="natural" v="slope" />
		<tag k="place" v="locality" />
		<tag k="ssr:stedsnr" v="189720" />
	</node>
	<node lat="60.541623038449515" lon="6.731721729343698" id="-30557">
		<tag k="fixme" v="consider place=hamlet" />
		<tag k="name" v="Hause" />
		<tag k="place" v="farm" />
		<tag k="ssr:stedsnr" v="189726" />
	</node>
	<node lat="60.53896666629246" lon="6.756388884423674" id="-30558">
		<tag k="name" v="Tveitelvi" />
		<tag k="ssr:stedsnr" v="189763" />
		<tag k="waterway" v="river" />
	</node>
	<node lat="60.531974999125715" lon="6.705627779573283" id="-30559">
		<tag k="name" v="Haukadalen" />
		<tag k="natural" v="valley" />
		<tag k="place" v="locality" />
		<tag k="ssr:stedsnr" v="189767" />
	</node>
	<node lat="60.53080277426247" lon="6.675547227137253" id="-30560">
		<tag k="historic" v="shieling" />
		<tag k="name" v="Skålsete" />
		<tag k="place" v="isolated_dwelling" />
		<tag k="ssr:stedsnr" v="189773" />
	</node>
	<node lat="60.66193611075702" lon="6.269897214295915" id="-30561">
		<tag k="name" v="Listreddalen" />
		<tag k="natural" v="valley" />
		<tag k="place" v="locality" />
		<tag k="ssr:stedsnr" v="263021" />
	</node>
	<node lat="60.92126110751946" lon="6.459299996017958" id="-30562">
		<tag k="name" v="Tuvo" />
		<tag k="natural" v="hill" />
		<tag k="place" v="locality" />
		<tag k="ssr:stedsnr" v="190615" />
	</node>
	<node lat="60.90584999768215" lon="6.46718333094539" id="-30563">
		<tag k="historic" v="shieling" />
		<tag k="name" v="Presthaugen" />
		<tag k="place" v="isolated_dwelling" />
		<tag k="ssr:stedsnr" v="190619" />
	</node>
	<node lat="60.909116645918566" lon="6.442575180835892" id="-30564">
		<tag k="name" v="Vetlavatnet" />
		<tag k="natural" v="water" />
		<tag k="ssr:stedsnr" v="190621" />
	</node>
	<node lat="60.613305557553396" lon="6.22956667203074" id="-30565">
		<tag k="name" v="Karislåtta" />
		<tag k="natural" v="slope" />
		<tag k="place" v="locality" />
		<tag k="ssr:stedsnr" v="263052" />
	</node>
	<node lat="60.61754166952796" lon="6.2498249990778785" id="-30566">
		<tag k="fixme" v="consider natural=peak for the most distinct mountains in the district" />
		<tag k="name" v="Åsen" />
		<tag k="natural" v="hill" />
		<tag k="place" v="locality" />
		<tag k="ssr:stedsnr" v="263053" />
	</node>
	<node lat="60.60981666998343" lon="6.22872500300066" id="-30567">
		<tag k="name" v="Brekketeigen" />
		<tag k="natural" v="slope" />
		<tag k="place" v="locality" />
		<tag k="ssr:stedsnr" v="263055" />
	</node>
	<node lat="60.812913890511155" lon="6.40593611668494" id="-30568">
		<tag k="fixme" v="consider natural=peak for the most distinct mountains in the district" />
		<tag k="name" v="Flatafjellet" />
		<tag k="natural" v="hill" />
		<tag k="place" v="locality" />
		<tag k="ssr:stedsnr" v="190523" />
	</node>
	<node lat="60.883652246381835" lon="6.397717464083554" id="-30569">
		<tag k="name" v="Holmavatnet" />
		<tag k="natural" v="water" />
		<tag k="ssr:stedsnr" v="190570" />
	</node>
	<node lat="60.85237500246813" lon="6.333333332381869" id="-30570">
		<tag k="name" v="Grøndalen" />
		<tag k="natural" v="valley" />
		<tag k="place" v="locality" />
		<tag k="ssr:stedsnr" v="190581" />
	</node>
	<node lat="60.79499722234927" lon="6.689152780937105" id="-30571">
		<tag k="name" v="Brandset" />
		<tag k="place" v="farm" />
		<tag k="ssr:stedsnr" v="190802" />
	</node>
	<node lat="60.871277774591555" lon="6.627613896908264" id="-30572">
		<tag k="historic" v="shieling" />
		<tag k="name" v="Botnen" />
		<tag k="place" v="isolated_dwelling" />
		<tag k="ssr:stedsnr" v="190864" />
	</node>
	<node lat="60.88434166913916" lon="6.761402768678213" id="-30573">
		<tag k="fixme" v="consider natural=peak for the most distinct mountains in the district" />
		<tag k="name" v="Nipa" />
		<tag k="natural" v="hill" />
		<tag k="place" v="locality" />
		<tag k="ssr:stedsnr" v="190868" />
	</node>
	<node lat="60.90110277356448" lon="6.647783325689942" id="-30574">
		<tag k="fixme" v="consider natural=peak for the most distinct mountains in the district" />
		<tag k="name" v="Russanosi" />
		<tag k="natural" v="hill" />
		<tag k="place" v="locality" />
		<tag k="ssr:stedsnr" v="190871" />
	</node>
	<node lat="60.89825833544621" lon="6.709316661690342" id="-30575">
		<tag k="historic" v="shieling" />
		<tag k="name" v="Haugane" />
		<tag k="place" v="isolated_dwelling" />
		<tag k="ssr:stedsnr" v="190874" />
	</node>
	<node lat="60.919652774428016" lon="6.745033337925924" id="-30576">
		<tag k="name" v="Stolen" />
		<tag k="place" v="locality" />
		<tag k="ssr:stedsnr" v="190878" />
	</node>
	<node lat="60.916394448046624" lon="6.600736109000701" id="-30577">
		<tag k="fixme" v="consider natural=peak for the most distinct mountains in the district" />
		<tag k="name" v="Viksetnipa" />
		<tag k="natural" v="hill" />
		<tag k="place" v="locality" />
		<tag k="ssr:stedsnr" v="190880" />
	</node>
	<node lat="60.63193055992734" lon="6.22130000203532" id="-30578">
		<tag k="highway" v="path" />
		<tag k="name" v="Kyrkjevegen" />
		<tag k="ssr:stedsnr" v="263142" />
	</node>
	<node lat="60.64961388559351" lon="6.296505556775434" id="-30579">
		<tag k="name" v="Storhaugabrekkuna" />
		<tag k="natural" v="slope" />
		<tag k="place" v="locality" />
		<tag k="ssr:stedsnr" v="263143" />
	</node>
	<node lat="60.78610833062469" lon="6.621947213991367" id="-30580">
		<tag k="name" v="Sellandselvi" />
		<tag k="ssr:stedsnr" v="190769" />
		<tag k="waterway" v="river" />
	</node>
	<node lat="60.785144448516" lon="6.61008888584151" id="-30581">
		<tag k="name" v="Hovdahaugen" />
		<tag k="natural" v="hill" />
		<tag k="place" v="locality" />
		<tag k="ssr:stedsnr" v="190771" />
	</node>
	<node lat="60.78915710266649" lon="6.600318146944911" id="-30582">
		<tag k="fixme" v="consider place=hamlet" />
		<tag k="name" v="Grindaland" />
		<tag k="place" v="farm" />
		<tag k="ssr:stedsnr" v="190772" />
	</node>
	<node lat="60.786666664197675" lon="6.816105549846859" id="-30583">
		<tag k="name" v="Kvitaherbyrget" />
		<tag k="natural" v="ridge" />
		<tag k="place" v="locality" />
		<tag k="ssr:stedsnr" v="190775" />
	</node>
	<node lat="60.776957171570075" lon="6.474797525169015" id="-30584">
		<tag k="fixme" v="consider place=hamlet" />
		<tag k="name" v="Stora Høn" />
		<tag k="place" v="farm" />
		<tag k="ssr:stedsnr" v="190962" />
	</node>
	<node lat="60.65032221884844" lon="6.21960278655464" id="-30585">
		<tag k="name" v="Træsmyrane" />
		<tag k="natural" v="wetland" />
		<tag k="ssr:stedsnr" v="263117" />
	</node>
	<node lat="60.637716662473046" lon="6.2083361126493415" id="-30586">
		<tag k="name" v="Bjørgrovi" />
		<tag k="ssr:stedsnr" v="263137" />
		<tag k="waterway" v="river" />
	</node>
	<node lat="60.63512499832127" lon="6.222136113225648" id="-30587">
		<tag k="name" v="Leitet" />
		<tag k="natural" v="hill" />
		<tag k="place" v="locality" />
		<tag k="ssr:stedsnr" v="263140" />
	</node>
	<node lat="60.62453845264008" lon="6.182159398011231" id="-30588">
		<tag k="name" v="Skyljehovden" />
		<tag k="natural" v="hill" />
		<tag k="place" v="locality" />
		<tag k="ssr:stedsnr" v="263215" />
	</node>
	<node lat="60.62614166451628" lon="6.198525008596062" id="-30589">
		<tag k="name" v="Sekk" />
		<tag k="natural" v="hill" />
		<tag k="place" v="locality" />
		<tag k="ssr:stedsnr" v="263217" />
	</node>
	<node lat="60.852674996574606" lon="6.494550000249737" id="-30590">
		<tag k="name" v="Myrkdalselvi" />
		<tag k="ssr:stedsnr" v="191512" />
		<tag k="waterway" v="river" />
	</node>
	<node lat="60.80410278007867" lon="6.641502776096379" id="-30591">
		<tag k="name" v="Haugsvik" />
		<tag k="place" v="isolated_dwelling" />
		<tag k="ssr:stedsnr" v="191727" />
	</node>
	<node lat="60.81850620783896" lon="6.719029860352966" id="-30592">
		<tag k="fixme" v="consider place=hamlet" />
		<tag k="name" v="Øvsthus" />
		<tag k="place" v="farm" />
		<tag k="ssr:stedsnr" v="191756" />
	</node>
	<node lat="60.803530559862146" lon="6.513072227510021" id="-30593">
		<tag k="name" v="Fuglleikane" />
		<tag k="natural" v="wetland" />
		<tag k="ssr:stedsnr" v="263189" />
	</node>
	<node lat="60.80268055529302" lon="6.51794445222405" id="-30594">
		<tag k="name" v="Vinjalii" />
		<tag k="natural" v="slope" />
		<tag k="place" v="locality" />
		<tag k="ssr:stedsnr" v="263190" />
	</node>
	<node lat="60.77500555538519" lon="6.566180560384927" id="-30595">
		<tag k="name" v="Tunga" />
		<tag k="natural" v="slope" />
		<tag k="place" v="locality" />
		<tag k="ssr:stedsnr" v="263262" />
	</node>
	<node lat="60.77399444222293" lon="6.5794888944781205" id="-30596">
		<tag k="name" v="Hovdane" />
		<tag k="natural" v="hill" />
		<tag k="place" v="locality" />
		<tag k="ssr:stedsnr" v="263263" />
	</node>
	<node lat="60.691599872687476" lon="6.463865353915731" id="-30597">
		<tag k="name" v="Ytre Staup" />
		<tag k="place" v="farm" />
		<tag k="ssr:stedsnr" v="263229" />
	</node>
	<node lat="60.61019722639044" lon="6.195205547632697" id="-30598">
		<tag k="name" v="Storagrovi" />
		<tag k="ssr:stedsnr" v="263233" />
		<tag k="waterway" v="river" />
	</node>
	<node lat="60.54923948113101" lon="6.452016109917497" id="-30599">
		<tag k="name" v="Stolpadalen" />
		<tag k="natural" v="valley" />
		<tag k="place" v="locality" />
		<tag k="ssr:stedsnr" v="263238" />
	</node>
	<node lat="60.765220019744305" lon="6.567811164027716" id="-30600">
		<tag k="fixme" v="consider place=hamlet" />
		<tag k="name" v="Markusteigen" />
		<tag k="place" v="farm" />
		<tag k="ssr:stedsnr" v="191918" />
	</node>
	<node lat="60.7541333293448" lon="6.223475008817592" id="-30601">
		<tag k="name" v="Sandaskreiane" />
		<tag k="natural" v="slope" />
		<tag k="place" v="locality" />
		<tag k="ssr:stedsnr" v="191920" />
	</node>
	<node lat="60.839722222216835" lon="6.4901055493725766" id="-30602">
		<tag k="name" v="Geitajukulen" />
		<tag k="natural" v="hill" />
		<tag k="place" v="locality" />
		<tag k="ssr:stedsnr" v="263279" />
	</node>
	<node lat="60.836074996142266" lon="6.47957499207046" id="-30603">
		<tag k="name" v="Leitet" />
		<tag k="natural" v="hill" />
		<tag k="place" v="locality" />
		<tag k="ssr:stedsnr" v="263280" />
	</node>
	<node lat="60.826369444400484" lon="6.475016674930505" id="-30604">
		<tag k="name" v="Flisramsgrovi" />
		<tag k="ssr:stedsnr" v="263286" />
		<tag k="waterway" v="river" />
	</node>
	<node lat="60.85229722084766" lon="6.483433339329391" id="-30605">
		<tag k="name" v="Vårstølshaugen" />
		<tag k="place" v="farm" />
		<tag k="ssr:stedsnr" v="263372" />
	</node>
	<node lat="60.7958500019622" lon="6.639861107239995" id="-30606">
		<tag k="name" v="Kamben" />
		<tag k="natural" v="hill" />
		<tag k="place" v="locality" />
		<tag k="ssr:stedsnr" v="263379" />
	</node>
	<node lat="60.59105833294378" lon="5.989599996796016" id="-30607">
		<tag k="fixme" v="consider natural=peak for the most distinct mountains in the district" />
		<tag k="name" v="Flatafjellet" />
		<tag k="natural" v="hill" />
		<tag k="place" v="locality" />
		<tag k="ssr:stedsnr" v="263648" />
	</node>
	<node lat="60.60989166643418" lon="5.981547214106542" id="-30608">
		<tag k="name" v="Hesjabotnen" />
		<tag k="natural" v="valley" />
		<tag k="place" v="locality" />
		<tag k="ssr:stedsnr" v="263654" />
	</node>
	<node lat="60.652341667682876" lon="5.9538444373286845" id="-30609">
		<tag k="name" v="Toni" />
		<tag k="natural" v="hill" />
		<tag k="place" v="locality" />
		<tag k="ssr:stedsnr" v="263662" />
	</node>
	<node lat="60.68416111550216" lon="6.605322221826235" id="-30610">
		<tag k="historic" v="shieling" />
		<tag k="name" v="Skorstølen" />
		<tag k="place" v="isolated_dwelling" />
		<tag k="ssr:stedsnr" v="263664" />
	</node>
	<node lat="60.603811114750776" lon="6.0173944441293035" id="-30611">
		<tag k="name" v="Kyratjørni" />
		<tag k="natural" v="water" />
		<tag k="ssr:stedsnr" v="263670" />
	</node>
	<node lat="60.64445833136548" lon="6.149111103988263" id="-30612">
		<tag k="name" v="Neset" />
		<tag k="natural" v="cape" />
		<tag k="ssr:stedsnr" v="263743" />
	</node>
	<node lat="60.700052773382104" lon="6.127230548543437" id="-30613">
		<tag k="name" v="Svartediket" />
		<tag k="natural" v="wetland" />
		<tag k="ssr:stedsnr" v="263756" />
	</node>
	<node lat="60.64933869357901" lon="6.632133047028451" id="-30614">
		<tag k="name" v="Rjupetjørnane" />
		<tag k="natural" v="water" />
		<tag k="ssr:stedsnr" v="263675" />
		<tag k="water" v="lake" />
	</node>
	<node lat="60.663002775610565" lon="6.731358325389849" id="-30615">
		<tag k="name" v="Dyrebotto" />
		<tag k="ssr:stedsnr" v="263676" />
		<tag k="waterway" v="river" />
	</node>
	<node lat="60.64483888928828" lon="5.98265556244828" id="-30616">
		<tag k="name" v="Instestrandi" />
		<tag k="natural" v="slope" />
		<tag k="place" v="locality" />
		<tag k="ssr:stedsnr" v="263678" />
	</node>
	<node lat="60.65695555116639" lon="6.799491664358771" id="-30617">
		<tag k="historic" v="shieling" />
		<tag k="name" v="Vollbotnen" />
		<tag k="place" v="isolated_dwelling" />
		<tag k="ssr:stedsnr" v="263681" />
	</node>
	<node lat="60.64280278179506" lon="5.968786108063992" id="-30618">
		<tag k="name" v="Langhølen" />
		<tag k="place" v="locality" />
		<tag k="ssr:stedsnr" v="263682" />
	</node>
	<node lat="60.65848888863733" lon="6.108630555166954" id="-30619">
		<tag k="name" v="Tveiti" />
		<tag k="natural" v="valley" />
		<tag k="place" v="locality" />
		<tag k="ssr:stedsnr" v="263723" />
	</node>
	<node lat="60.62665833009366" lon="5.970219440962568" id="-30620">
		<tag k="name" v="Gjøtta" />
		<tag k="natural" v="hill" />
		<tag k="place" v="locality" />
		<tag k="ssr:stedsnr" v="263849" />
	</node>
	<node lat="60.62042778199787" lon="5.982491667977514" id="-30621">
		<tag k="name" v="Bakkafloten" />
		<tag k="natural" v="slope" />
		<tag k="place" v="locality" />
		<tag k="ssr:stedsnr" v="263853" />
	</node>
	<node lat="60.623555556745444" lon="5.975961116585186" id="-30622">
		<tag k="name" v="Gardlii" />
		<tag k="natural" v="slope" />
		<tag k="place" v="locality" />
		<tag k="ssr:stedsnr" v="263858" />
	</node>
	<node lat="60.6229166678716" lon="5.9172222269963815" id="-30623">
		<tag k="name" v="Godfarbotnen" />
		<tag k="natural" v="valley" />
		<tag k="place" v="locality" />
		<tag k="ssr:stedsnr" v="263868" />
	</node>
	<node lat="60.65594444595936" lon="6.318658326595458" id="-30624">
		<tag k="historic" v="shieling" />
		<tag k="name" v="Sæves-Nyaset" />
		<tag k="place" v="isolated_dwelling" />
		<tag k="ssr:stedsnr" v="263945" />
	</node>
	<node lat="60.66876110712984" lon="6.298588894308085" id="-30625">
		<tag k="fixme" v="consider natural=peak for the most distinct mountains in the district" />
		<tag k="name" v="Tunnasetfjellet" />
		<tag k="natural" v="hill" />
		<tag k="place" v="locality" />
		<tag k="ssr:stedsnr" v="263946" />
	</node>
	<node lat="60.81988055530394" lon="6.636752774598952" id="-30626">
		<tag k="name" v="Brengsgrovi" />
		<tag k="ssr:stedsnr" v="264276" />
		<tag k="waterway" v="river" />
	</node>
	<node lat="60.59271111399072" lon="6.770991671407645" id="-30627">
		<tag k="name" v="Gunnarhaug" />
		<tag k="natural" v="hill" />
		<tag k="place" v="locality" />
		<tag k="ssr:stedsnr" v="264143" />
	</node>
	<node lat="60.87497777772703" lon="6.5001222222228705" id="-30628">
		<tag k="fixme" v="consider natural=peak for the most distinct mountains in the district" />
		<tag k="name" v="Britalarsolanobbi" />
		<tag k="natural" v="hill" />
		<tag k="place" v="locality" />
		<tag k="ssr:stedsnr" v="264161" />
	</node>
	<node lat="60.74865555741707" lon="6.458194452521326" id="-30629">
		<tag k="name" v="Langehaugen" />
		<tag k="natural" v="hill" />
		<tag k="place" v="locality" />
		<tag k="ssr:stedsnr" v="264133" />
	</node>
	<node lat="60.87846388708868" lon="6.5095250014939445" id="-30630">
		<tag k="name" v="Storelvi" />
		<tag k="ssr:stedsnr" v="264171" />
		<tag k="waterway" v="river" />
	</node>
	<node lat="60.638627797602666" lon="6.427565695998843" id="-30631">
		<tag k="name" v="Store Ringheim" />
		<tag k="place" v="farm" />
		<tag k="ssr:stedsnr" v="264795" />
	</node>
	<node lat="60.64497715741142" lon="6.429991314409924" id="-30632">
		<tag k="name" v="Litle Ringheim" />
		<tag k="place" v="farm" />
		<tag k="ssr:stedsnr" v="264798" />
	</node>
	<node lat="60.68291666968188" lon="6.385911102438761" id="-30633">
		<tag k="name" v="Vådalen" />
		<tag k="natural" v="valley" />
		<tag k="place" v="locality" />
		<tag k="ssr:stedsnr" v="264954" />
	</node>
	<node lat="60.63685555217106" lon="6.401172227097636" id="-30634">
		<tag k="historic" v="shieling" />
		<tag k="name" v="Skitset" />
		<tag k="place" v="isolated_dwelling" />
		<tag k="ssr:stedsnr" v="264962" />
	</node>
	<node lat="60.456738886735344" lon="6.646466671960015" id="-30635">
		<tag k="name" v="Kvernabekken" />
		<tag k="ssr:stedsnr" v="265233" />
		<tag k="waterway" v="stream" />
	</node>
	<node lat="60.66824444791018" lon="6.281041667194457" id="-30636">
		<tag k="name" v="Listredgavlen" />
		<tag k="place" v="locality" />
		<tag k="ssr:stedsnr" v="202001" />
	</node>
	<node lat="60.78826111250599" lon="6.6047277817580055" id="-30637">
		<tag k="name" v="Høydalsgrovi" />
		<tag k="ssr:stedsnr" v="202149" />
		<tag k="waterway" v="river" />
	</node>
	<node lat="60.52899721931019" lon="6.3333333368513545" id="-30638">
		<tag k="name" v="Tverrdalen" />
		<tag k="natural" v="valley" />
		<tag k="place" v="locality" />
		<tag k="ssr:stedsnr" v="202198" />
	</node>
	<node lat="60.611936107901315" lon="6.2973555501827985" id="-30639">
		<tag k="name" v="Jokroi" />
		<tag k="place" v="locality" />
		<tag k="ssr:stedsnr" v="202094" />
	</node>
	<node lat="60.6413333290437" lon="6.255358331335363" id="-30640">
		<tag k="historic" v="shieling" />
		<tag k="name" v="Vetlestølen" />
		<tag k="place" v="isolated_dwelling" />
		<tag k="ssr:stedsnr" v="203040" />
	</node>
	<node lat="60.592069445987384" lon="6.273338896510564" id="-30641">
		<tag k="highway" v="path" />
		<tag k="name" v="Tjørnavegen" />
		<tag k="ssr:stedsnr" v="203063" />
	</node>
	<node lat="60.59813055978622" lon="6.283180557439268" id="-30642">
		<tag k="name" v="Godeplassen" />
		<tag k="place" v="locality" />
		<tag k="ssr:stedsnr" v="203065" />
	</node>
	<node lat="60.59950000149172" lon="6.332488894532014" id="-30643">
		<tag k="name" v="Vetlestølsmyri" />
		<tag k="natural" v="wetland" />
		<tag k="ssr:stedsnr" v="202903" />
	</node>
	<node lat="60.60333888479463" lon="6.316080558886534" id="-30644">
		<tag k="name" v="Tjørestigen" />
		<tag k="natural" v="hill" />
		<tag k="place" v="locality" />
		<tag k="ssr:stedsnr" v="202905" />
	</node>
	<node lat="60.622050003025315" lon="6.326072218654579" id="-30645">
		<tag k="name" v="Byrkjafiti" />
		<tag k="natural" v="cape" />
		<tag k="ssr:stedsnr" v="203104" />
	</node>
	<node lat="60.62173610794615" lon="6.287749992473274" id="-30646">
		<tag k="name" v="Fiti" />
		<tag k="natural" v="cape" />
		<tag k="ssr:stedsnr" v="203106" />
	</node>
	<node lat="60.77878888731114" lon="6.465383340780143" id="-30647">
		<tag k="name" v="Hønselvi" />
		<tag k="ssr:stedsnr" v="203202" />
		<tag k="waterway" v="river" />
	</node>
	<node lat="60.77170555928241" lon="6.468816664200727" id="-30648">
		<tag k="name" v="Hagahovden" />
		<tag k="natural" v="hill" />
		<tag k="place" v="locality" />
		<tag k="ssr:stedsnr" v="203204" />
	</node>
	<node lat="60.83624166747776" lon="6.429841661922622" id="-30649">
		<tag k="name" v="Skakkefossen" />
		<tag k="natural" v="waterfall" />
		<tag k="ssr:stedsnr" v="203271" />
	</node>
	<node lat="60.61640277653245" lon="6.137488883814459" id="-30650">
		<tag k="name" v="Køyta" />
		<tag k="natural" v="wetland" />
		<tag k="ssr:stedsnr" v="203273" />
	</node>
	<node lat="60.625261112697885" lon="6.1208888809214175" id="-30651">
		<tag k="name" v="Hallrapagrovi" />
		<tag k="ssr:stedsnr" v="203278" />
		<tag k="waterway" v="river" />
	</node>
	<node lat="60.619319444388395" lon="6.118355554967775" id="-30652">
		<tag k="name" v="Fletane" />
		<tag k="natural" v="slope" />
		<tag k="place" v="locality" />
		<tag k="ssr:stedsnr" v="203280" />
	</node>
	<node lat="60.82263889316923" lon="6.496638892742104" id="-30653">
		<tag k="name" v="Raudskallen" />
		<tag k="natural" v="hill" />
		<tag k="place" v="locality" />
		<tag k="ssr:stedsnr" v="203286" />
	</node>
	<node lat="60.81696666816282" lon="6.507200003138218" id="-30654">
		<tag k="name" v="Øyasetdalen" />
		<tag k="natural" v="valley" />
		<tag k="place" v="locality" />
		<tag k="ssr:stedsnr" v="203339" />
	</node>
	<node lat="60.81724166524548" lon="6.508197227150703" id="-30655">
		<tag k="name" v="Leitet" />
		<tag k="natural" v="hill" />
		<tag k="place" v="locality" />
		<tag k="ssr:stedsnr" v="203342" />
	</node>
	<node lat="60.86439444084204" lon="6.47844166123355" id="-30656">
		<tag k="name" v="Halsteinshaugen" />
		<tag k="natural" v="hill" />
		<tag k="place" v="locality" />
		<tag k="ssr:stedsnr" v="203353" />
	</node>
	<node lat="60.69621075391965" lon="6.877063458812992" id="-30657">
		<tag k="name" v="Ringtjørni" />
		<tag k="natural" v="water" />
		<tag k="ssr:stedsnr" v="203640" />
	</node>
	<node lat="60.688491662513805" lon="6.751541675379734" id="-30658">
		<tag k="name" v="Tjørnahaugane" />
		<tag k="natural" v="hill" />
		<tag k="place" v="locality" />
		<tag k="ssr:stedsnr" v="203656" />
	</node>
	<node lat="60.668119442394925" lon="6.663263889592555" id="-30659">
		<tag k="historic" v="shieling" />
		<tag k="name" v="Toppen" />
		<tag k="place" v="isolated_dwelling" />
		<tag k="ssr:stedsnr" v="203657" />
	</node>
	<node lat="60.63006944055182" lon="6.010019442364612" id="-30660">
		<tag k="name" v="Nyegardsgrovi" />
		<tag k="ssr:stedsnr" v="203691" />
		<tag k="waterway" v="river" />
	</node>
	<node lat="60.6459722256712" lon="6.039372219595589" id="-30661">
		<tag k="name" v="Bergstadneset" />
		<tag k="natural" v="cape" />
		<tag k="ssr:stedsnr" v="203692" />
	</node>
	<node lat="60.64194721814216" lon="5.996624994209596" id="-30662">
		<tag k="name" v="Skredene" />
		<tag k="natural" v="scree" />
		<tag k="ssr:stedsnr" v="203699" />
	</node>
	<node lat="60.680972218694194" lon="6.031011103445025" id="-30663">
		<tag k="name" v="Gamlastølsberget" />
		<tag k="natural" v="hill" />
		<tag k="place" v="locality" />
		<tag k="ssr:stedsnr" v="203818" />
	</node>
	<node lat="60.687338884602774" lon="6.008494440005132" id="-30664">
		<tag k="fixme" v="consider natural=peak for the most distinct mountains in the district" />
		<tag k="name" v="Taulafjellet" />
		<tag k="natural" v="hill" />
		<tag k="place" v="locality" />
		<tag k="ssr:stedsnr" v="203706" />
	</node>
	<node lat="60.66981944873613" lon="6.054980562512738" id="-30665">
		<tag k="name" v="Skogahaugen" />
		<tag k="natural" v="hill" />
		<tag k="place" v="locality" />
		<tag k="ssr:stedsnr" v="203708" />
	</node>
	<node lat="60.714966663572206" lon="6.130322224859185" id="-30666">
		<tag k="name" v="Sandbrekkene" />
		<tag k="natural" v="slope" />
		<tag k="place" v="locality" />
		<tag k="ssr:stedsnr" v="203732" />
	</node>
	<node lat="60.64391944054975" lon="6.137230548530538" id="-30667">
		<tag k="name" v="Snikkarhjellen" />
		<tag k="place" v="locality" />
		<tag k="ssr:stedsnr" v="203742" />
	</node>
	<node lat="60.748866664455846" lon="6.126533329154182" id="-30668">
		<tag k="name" v="Solhjellen" />
		<tag k="place" v="locality" />
		<tag k="ssr:stedsnr" v="203747" />
	</node>
	<node lat="60.68228332974403" lon="6.125616658542336" id="-30669">
		<tag k="name" v="Høgebrekkene" />
		<tag k="natural" v="slope" />
		<tag k="place" v="locality" />
		<tag k="ssr:stedsnr" v="203749" />
	</node>
	<node lat="60.67286111126781" lon="6.105141657766211" id="-30670">
		<tag k="name" v="Hjellen" />
		<tag k="place" v="locality" />
		<tag k="ssr:stedsnr" v="203750" />
	</node>
	<node lat="60.68578055572852" lon="6.080566670728097" id="-30671">
		<tag k="historic" v="shieling" />
		<tag k="name" v="Gamlestølen" />
		<tag k="place" v="isolated_dwelling" />
		<tag k="ssr:stedsnr" v="203758" />
	</node>
	<node lat="60.710494442931356" lon="6.641255546584882" id="-30672">
		<tag k="name" v="Jonsstølsdalen" />
		<tag k="natural" v="valley" />
		<tag k="place" v="locality" />
		<tag k="ssr:stedsnr" v="270344" />
	</node>
	<node lat="60.443838893003935" lon="6.698269437662782" id="-30673">
		<tag k="name" v="Midtflot" />
		<tag k="place" v="locality" />
		<tag k="ssr:stedsnr" v="220722" />
	</node>
	<node lat="60.581850001890594" lon="6.655852772566675" id="-30674">
		<tag k="historic" v="shieling" />
		<tag k="name" v="Skattastøl" />
		<tag k="place" v="isolated_dwelling" />
		<tag k="ssr:stedsnr" v="220907" />
	</node>
	<node lat="60.554844446918054" lon="6.76733889098294" id="-30675">
		<tag k="name" v="Fjellmyr" />
		<tag k="natural" v="wetland" />
		<tag k="ssr:stedsnr" v="221772" />
	</node>
	<node lat="60.54195555185883" lon="6.684666673526219" id="-30676">
		<tag k="historic" v="shieling" />
		<tag k="name" v="Nedsta Grjostøl" />
		<tag k="place" v="isolated_dwelling" />
		<tag k="ssr:stedsnr" v="221784" />
	</node>
	<node lat="60.48436666279983" lon="6.668608341639004" id="-30677">
		<tag k="name" v="Bjønnskårane" />
		<tag k="place" v="locality" />
		<tag k="ssr:stedsnr" v="221822" />
	</node>
	<node lat="60.482377773675665" lon="6.666113880664992" id="-30678">
		<tag k="name" v="Gråsteg" />
		<tag k="place" v="locality" />
		<tag k="ssr:stedsnr" v="221824" />
	</node>
	<node lat="60.5830349814844" lon="6.013044533961162" id="-30679">
		<tag k="loc_name" v="Gråvotni" />
		<tag k="name" v="Gråvatni" />
		<tag k="natural" v="water" />
		<tag k="ssr:stedsnr" v="226971" />
		<tag k="water" v="lake" />
	</node>
	<node lat="60.86352500162754" lon="6.607000008254999" id="-30680">
		<tag k="name" v="Gråsteinane" />
		<tag k="natural" v="stone" />
		<tag k="ssr:stedsnr" v="227108" />
	</node>
	<node lat="60.90073888670548" lon="6.625258332673297" id="-30681">
		<tag k="name" v="Nukane" />
		<tag k="place" v="locality" />
		<tag k="ssr:stedsnr" v="227111" />
	</node>
	<node lat="60.68113888941759" lon="6.845350000477271" id="-30682">
		<tag k="fixme" v="consider natural=peak for the most distinct mountains in the district" />
		<tag k="name" v="Nuten" />
		<tag k="natural" v="hill" />
		<tag k="place" v="locality" />
		<tag k="ssr:stedsnr" v="227231" />
	</node>
	<node lat="60.678291668093" lon="6.848630548425187" id="-30683">
		<tag k="name" v="Skaret" />
		<tag k="natural" v="valley" />
		<tag k="place" v="locality" />
		<tag k="ssr:stedsnr" v="227233" />
	</node>
	<node lat="60.69117500246823" lon="6.704300007988333" id="-30684">
		<tag k="name" v="Aurevasshaugen" />
		<tag k="natural" v="hill" />
		<tag k="place" v="locality" />
		<tag k="ssr:stedsnr" v="227209" />
	</node>
	<node lat="60.674191666811645" lon="6.668611119820188" id="-30685">
		<tag k="name" v="Stekkaberget" />
		<tag k="place" v="locality" />
		<tag k="ssr:stedsnr" v="227210" />
	</node>
	<node lat="60.684005554552115" lon="6.642080562219314" id="-30686">
		<tag k="name" v="Kvålsberget" />
		<tag k="natural" v="hill" />
		<tag k="place" v="locality" />
		<tag k="ssr:stedsnr" v="227211" />
	</node>
	<node lat="60.903261111644184" lon="6.482241666472142" id="-30687">
		<tag k="name" v="Holeberget" />
		<tag k="place" v="locality" />
		<tag k="ssr:stedsnr" v="227182" />
	</node>
	<node lat="60.668894441521545" lon="6.583161120150763" id="-30688">
		<tag k="name" v="Kvanngjeli" />
		<tag k="natural" v="valley" />
		<tag k="place" v="locality" />
		<tag k="ssr:stedsnr" v="227385" />
	</node>
	<node lat="60.72196389029606" lon="6.587511105109997" id="-30689">
		<tag k="name" v="Hunden" />
		<tag k="place" v="locality" />
		<tag k="ssr:stedsnr" v="227393" />
	</node>
	<node lat="60.723452773640865" lon="6.632922223194928" id="-30690">
		<tag k="name" v="Jonsstølen" />
		<tag k="natural" v="scree" />
		<tag k="ssr:stedsnr" v="227396" />
	</node>
	<node lat="60.55772499584843" lon="6.449002782301053" id="-30691">
		<tag k="name" v="Skredena" />
		<tag k="natural" v="hill" />
		<tag k="place" v="locality" />
		<tag k="ssr:stedsnr" v="227532" />
	</node>
	<node lat="60.56919999643937" lon="6.4469194414903415" id="-30692">
		<tag k="name" v="Kvernhusgrovi" />
		<tag k="ssr:stedsnr" v="227551" />
		<tag k="waterway" v="stream" />
	</node>
	<node lat="60.691427780191724" lon="6.657830549896203" id="-30693">
		<tag k="name" v="Hellerane" />
		<tag k="place" v="locality" />
		<tag k="ssr:stedsnr" v="227284" />
	</node>
	<node lat="60.692622225465186" lon="6.648058333874905" id="-30694">
		<tag k="name" v="Dosahovden" />
		<tag k="natural" v="hill" />
		<tag k="place" v="locality" />
		<tag k="ssr:stedsnr" v="227300" />
	</node>
	<node lat="60.79246488218056" lon="6.511052528409834" id="-30695">
		<tag k="alt_name" v="Vinje" />
		<tag k="amenity" v="place_of_worship" />
		<tag k="denomination" v="lutheran" />
		<tag k="name" v="Vinje kyrkje" />
		<tag k="religion" v="christian" />
		<tag k="ssr:stedsnr" v="271838" />
	</node>
	<node lat="60.54665555486706" lon="6.589550000640588" id="-30696">
		<tag k="name" v="Horgasetgroi" />
		<tag k="ssr:stedsnr" v="227733" />
		<tag k="waterway" v="river" />
	</node>
	<node lat="60.67068611171256" lon="6.502408330664235" id="-30697">
		<tag k="name" v="Lunden" />
		<tag k="place" v="farm" />
		<tag k="ssr:stedsnr" v="227684" />
	</node>
	<node lat="60.72933333425702" lon="6.503388891212955" id="-30698">
		<tag k="name" v="Koltveit" />
		<tag k="place" v="farm" />
		<tag k="ssr:stedsnr" v="227693" />
	</node>
	<node lat="60.60640000340605" lon="6.456844435369185" id="-30699">
		<tag k="fixme" v="consider natural=peak for the most distinct mountains in the district" />
		<tag k="name" v="Himlesåsen" />
		<tag k="natural" v="hill" />
		<tag k="place" v="locality" />
		<tag k="ssr:stedsnr" v="227843" />
	</node>
	<node lat="60.82580832894694" lon="6.721922226065071" id="-30700">
		<tag k="name" v="Øvste Tuftena" />
		<tag k="place" v="locality" />
		<tag k="ssr:stedsnr" v="227883" />
	</node>
	<node lat="60.69964166488202" lon="6.661352769063007" id="-30701">
		<tag k="name" v="Høghaug" />
		<tag k="natural" v="hill" />
		<tag k="place" v="locality" />
		<tag k="ssr:stedsnr" v="227897" />
	</node>
	<node lat="60.621980553746475" lon="6.068455555151461" id="-30702">
		<tag k="name" v="Knappene" />
		<tag k="place" v="locality" />
		<tag k="ssr:stedsnr" v="227992" />
	</node>
	<node lat="60.87838332940809" lon="6.7118555573414636" id="-30703">
		<tag k="name" v="Vetlehammargroi" />
		<tag k="ssr:stedsnr" v="228105" />
		<tag k="waterway" v="stream" />
	</node>
	<node lat="60.63763055177863" lon="6.638294439302413" id="-30704">
		<tag k="name" v="Vetlabrekkuna" />
		<tag k="natural" v="slope" />
		<tag k="place" v="locality" />
		<tag k="ssr:stedsnr" v="228233" />
	</node>
	<node lat="60.51060000194466" lon="6.40589166689152" id="-30705">
		<tag k="fixme" v="consider natural=peak for the most distinct mountains in the district" />
		<tag k="name" v="Toftanipa" />
		<tag k="natural" v="hill" />
		<tag k="place" v="locality" />
		<tag k="ssr:stedsnr" v="228236" />
	</node>
	<node lat="60.63018611327748" lon="6.525122229302264" id="-30706">
		<tag k="name" v="Kvisli" />
		<tag k="natural" v="slope" />
		<tag k="place" v="locality" />
		<tag k="ssr:stedsnr" v="228407" />
	</node>
	<node lat="60.59355277949274" lon="6.410294436375619" id="-30707">
		<tag k="name" v="Gråurane" />
		<tag k="natural" v="scree" />
		<tag k="ssr:stedsnr" v="228712" />
	</node>
	<node lat="60.58133611177702" lon="6.570930551388641" id="-30708">
		<tag k="fixme" v="consider natural=peak for the most distinct mountains in the district" />
		<tag k="name" v="Langesetfjellet" />
		<tag k="natural" v="hill" />
		<tag k="place" v="locality" />
		<tag k="ssr:stedsnr" v="228715" />
	</node>
	<node lat="60.608372219214004" lon="6.562816671360663" id="-30709">
		<tag k="name" v="Røvesløken" />
		<tag k="place" v="farm" />
		<tag k="ssr:stedsnr" v="228812" />
	</node>
	<node lat="60.63550278015908" lon="6.451877781077698" id="-30710">
		<tag k="bridge" v="yes" />
		<tag k="layer" v="1" />
		<tag k="name" v="Brynagjelet" />
		<tag k="ssr:stedsnr" v="228831" />
	</node>
	<node lat="60.68116110687766" lon="6.7406999935645455" id="-30711">
		<tag k="bridge" v="yes" />
		<tag k="layer" v="1" />
		<tag k="name" v="Brekke" />
		<tag k="ssr:stedsnr" v="228832" />
	</node>
	<node lat="60.58300278205818" lon="6.535566662751209" id="-30712">
		<tag k="name" v="Håsetkleivane" />
		<tag k="natural" v="slope" />
		<tag k="place" v="locality" />
		<tag k="ssr:stedsnr" v="228800" />
	</node>
	<node lat="60.636430552034156" lon="6.439622222632844" id="-30713">
		<tag k="bridge" v="yes" />
		<tag k="layer" v="1" />
		<tag k="name" v="Strandelva" />
		<tag k="ssr:stedsnr" v="229186" />
	</node>
	<node lat="60.916984812031714" lon="6.447192430879246" id="-30714">
		<tag k="loc_name" v="Vikafjellet;Vikjafjellet" />
		<tag k="name" v="Vikafjell" />
		<tag k="natural" v="mountain_range" />
		<tag k="ssr:stedsnr" v="449641" />
	</node>
	<node lat="60.81423333706815" lon="6.655302775535537" id="-30715">
		<tag k="name" v="Høgset" />
		<tag k="place" v="locality" />
		<tag k="ssr:stedsnr" v="494773" />
	</node>
	<node lat="60.84243333239725" lon="6.653216659366877" id="-30716">
		<tag k="fixme" v="consider natural=peak for the most distinct mountains in the district" />
		<tag k="loc_name" v="Stalheimsnuten" />
		<tag k="name" v="Brekkenipa" />
		<tag k="natural" v="hill" />
		<tag k="place" v="locality" />
		<tag k="ssr:stedsnr" v="494777" />
	</node>
	<node lat="60.47616581592584" lon="6.569444240970608" id="-30718">
		<tag k="alt_name" v="Kvandalsvatnet" />
		<tag k="name" v="Kvanndalsvatnet" />
		<tag k="natural" v="water" />
		<tag k="ssr:stedsnr" v="248214" />
	</node>
	<node lat="60.42977777902457" lon="6.634949999127394" id="-30719">
		<tag k="bay" v="fjord" />
		<tag k="name" v="Utnefjorden" />
		<tag k="natural" v="bay" />
		<tag k="ssr:stedsnr" v="248317" />
	</node>
	<node lat="60.4783333332223" lon="6.7497138971481485" id="-30720">
		<tag k="historic" v="shieling" />
		<tag k="name" v="Stokkrå" />
		<tag k="place" v="isolated_dwelling" />
		<tag k="ssr:stedsnr" v="248413" />
	</node>
	<node lat="60.72236388561892" lon="6.032624997057797" id="-30721">
		<tag k="name" v="Larslii" />
		<tag k="natural" v="slope" />
		<tag k="place" v="locality" />
		<tag k="ssr:stedsnr" v="248414" />
	</node>
	<node lat="60.72007487412393" lon="6.128323075711771" id="-30722">
		<tag k="fixme" v="consider place=hamlet" />
		<tag k="name" v="Langeland" />
		<tag k="place" v="farm" />
		<tag k="ssr:stedsnr" v="248417" />
	</node>
	<node lat="60.58453889192403" lon="6.018505563730935" id="-30723">
		<tag k="alt_name" v="Gråvatni, midtre" />
		<tag k="loc_name" v="Midtre Gråvatnet" />
		<tag k="name" v="Midtre Gråvatni" />
		<tag k="natural" v="water" />
		<tag k="ssr:stedsnr" v="248869" />
		<tag k="water" v="lake" />
	</node>
	<node lat="60.58148785607774" lon="5.997737445525425" id="-30724">
		<tag k="alt_name" v="Gråvatni, nordre" />
		<tag k="loc_name" v="Nordre Gråvatnet;Nedsta Gråvatnet;Nedre Gråvatnet" />
		<tag k="name" v="Nordre Gråvatni" />
		<tag k="natural" v="water" />
		<tag k="ssr:stedsnr" v="248870" />
		<tag k="water" v="lake" />
	</node>
	<node lat="60.587119442807285" lon="6.616333331742741" id="-30725">
		<tag k="name" v="Moavatnet" />
		<tag k="natural" v="water" />
		<tag k="ssr:stedsnr" v="248947" />
		<tag k="water" v="lake" />
	</node>
	<node lat="60.589638887540744" lon="6.6176416636832744" id="-30726">
		<tag k="name" v="Kamben" />
		<tag k="natural" v="ridge" />
		<tag k="place" v="locality" />
		<tag k="ssr:stedsnr" v="248948" />
	</node>
	<node lat="60.63939999873965" lon="6.049205554160125" id="-30727">
		<tag k="name" v="Nakkagjelelvi" />
		<tag k="ssr:stedsnr" v="249116" />
		<tag k="waterway" v="stream" />
	</node>
	<node lat="60.59460555399339" lon="6.124527781321627" id="-30728">
		<tag k="name" v="Kyrabotnen" />
		<tag k="natural" v="valley" />
		<tag k="place" v="locality" />
		<tag k="ssr:stedsnr" v="249205" />
	</node>
	<node lat="60.58546666558344" lon="6.12648888671932" id="-30729">
		<tag k="name" v="Manndomsgjelet" />
		<tag k="natural" v="valley" />
		<tag k="place" v="locality" />
		<tag k="ssr:stedsnr" v="249206" />
	</node>
	<node lat="60.652305552200104" lon="6.47023332748499" id="-30730">
		<tag k="fixme" v="consider natural=peak for the most distinct mountains in the district" />
		<tag k="name" v="Storåsen" />
		<tag k="natural" v="hill" />
		<tag k="place" v="locality" />
		<tag k="ssr:stedsnr" v="249262" />
	</node>
	<node lat="60.66791111439852" lon="6.4974944493529305" id="-30731">
		<tag k="name" v="Djupavadet" />
		<tag k="ssr:stedsnr" v="249285" />
		<tag k="waterway" v="stream" />
	</node>
	<node lat="60.693036111844776" lon="6.559925008082628" id="-30732">
		<tag k="name" v="Lauvhovden" />
		<tag k="natural" v="hill" />
		<tag k="place" v="locality" />
		<tag k="ssr:stedsnr" v="249311" />
	</node>
	<node lat="60.67618610744237" lon="6.22724444150865" id="-30733">
		<tag k="name" v="Skansen" />
		<tag k="natural" v="ridge" />
		<tag k="place" v="locality" />
		<tag k="ssr:stedsnr" v="249313" />
	</node>
	<node lat="60.66063055736963" lon="6.221886102754831" id="-30734">
		<tag k="fixme" v="consider natural=peak for the most distinct mountains in the district" />
		<tag k="name" v="Nobbi" />
		<tag k="natural" v="hill" />
		<tag k="place" v="locality" />
		<tag k="ssr:stedsnr" v="263085" />
	</node>
	<node lat="60.76915277537187" lon="6.475955562090382" id="-30735">
		<tag k="fixme" v="consider place=hamlet" />
		<tag k="name" v="Straume" />
		<tag k="place" v="farm" />
		<tag k="ssr:stedsnr" v="263208" />
	</node>
	<node lat="60.77070000324596" lon="6.466674993006125" id="-30736">
		<tag k="name" v="Melandshovden" />
		<tag k="natural" v="hill" />
		<tag k="place" v="locality" />
		<tag k="ssr:stedsnr" v="263210" />
	</node>
	<node lat="60.789108334540835" lon="6.614930559211088" id="-30737">
		<tag k="name" v="Gryvlet" />
		<tag k="natural" v="slope" />
		<tag k="place" v="locality" />
		<tag k="ssr:stedsnr" v="263170" />
	</node>
	<node lat="60.78747499991388" lon="6.601683330259699" id="-30738">
		<tag k="name" v="Elvi" />
		<tag k="ssr:stedsnr" v="263171" />
		<tag k="waterway" v="river" />
	</node>
	<node lat="60.77938889340544" lon="6.496702780150076" id="-30739">
		<tag k="name" v="Lomsdalen" />
		<tag k="place" v="farm" />
		<tag k="ssr:stedsnr" v="263196" />
	</node>
	<node lat="60.81573055659018" lon="6.622838897975329" id="-30740">
		<tag k="name" v="Samsotlehaugane" />
		<tag k="natural" v="hill" />
		<tag k="place" v="locality" />
		<tag k="ssr:stedsnr" v="263312" />
	</node>
	<node lat="60.80538888870221" lon="6.603827780440837" id="-30741">
		<tag k="name" v="Kvasshaug" />
		<tag k="natural" v="hill" />
		<tag k="place" v="locality" />
		<tag k="ssr:stedsnr" v="263294" />
	</node>
	<node lat="60.816294443884644" lon="6.538538895321186" id="-30742">
		<tag k="name" v="Svortebotnen" />
		<tag k="natural" v="valley" />
		<tag k="place" v="locality" />
		<tag k="ssr:stedsnr" v="263301" />
	</node>
	<node lat="60.806397224785805" lon="6.578491659828189" id="-30743">
		<tag k="name" v="Kvernhusholene" />
		<tag k="natural" v="valley" />
		<tag k="place" v="locality" />
		<tag k="ssr:stedsnr" v="263390" />
	</node>
	<node lat="60.72238871146706" lon="6.157459933204105" id="-30744">
		<tag k="name" v="Kljåsteinberget" />
		<tag k="natural" v="hill" />
		<tag k="place" v="locality" />
		<tag k="ssr:stedsnr" v="263542" />
	</node>
	<node lat="60.663572221808465" lon="6.062349993549397" id="-30745">
		<tag k="name" v="Vetledalen" />
		<tag k="natural" v="valley" />
		<tag k="place" v="locality" />
		<tag k="ssr:stedsnr" v="263702" />
	</node>
	<node lat="60.683366668071066" lon="5.979913885122101" id="-30746">
		<tag k="name" v="Smettesbekken" />
		<tag k="ssr:stedsnr" v="263710" />
		<tag k="waterway" v="stream" />
	</node>
	<node lat="60.68810555807494" lon="5.952047220461" id="-30747">
		<tag k="name" v="Maureskarvet" />
		<tag k="natural" v="hill" />
		<tag k="place" v="locality" />
		<tag k="ssr:stedsnr" v="263689" />
	</node>
	<node lat="60.64624166778094" lon="6.0046777853867095" id="-30748">
		<tag k="name" v="Vassendaberget" />
		<tag k="natural" v="hill" />
		<tag k="place" v="locality" />
		<tag k="ssr:stedsnr" v="263694" />
	</node>
	<node lat="60.64306110811069" lon="6.020000001507843" id="-30749">
		<tag k="name" v="Godfarskolten" />
		<tag k="natural" v="ridge" />
		<tag k="place" v="locality" />
		<tag k="ssr:stedsnr" v="263699" />
	</node>
	<node lat="60.61586640721132" lon="6.501837429631768" id="-30750">
		<tag k="fixme" v="consider place=hamlet" />
		<tag k="name" v="Øvre Skutle" />
		<tag k="place" v="farm" />
		<tag k="ssr:stedsnr" v="263808" />
	</node>
	<node lat="60.59771389176753" lon="6.2951500062598305" id="-30751">
		<tag k="name" v="Sekken" />
		<tag k="natural" v="valley" />
		<tag k="place" v="locality" />
		<tag k="ssr:stedsnr" v="263883" />
	</node>
	<node lat="60.59564167040491" lon="6.289075008236683" id="-30752">
		<tag k="name" v="Verken" />
		<tag k="natural" v="slope" />
		<tag k="place" v="locality" />
		<tag k="ssr:stedsnr" v="263884" />
	</node>
	<node lat="60.594291667811135" lon="6.362538890381219" id="-30753">
		<tag k="historic" v="shieling" />
		<tag k="name" v="Nedstestølen" />
		<tag k="place" v="isolated_dwelling" />
		<tag k="ssr:stedsnr" v="263888" />
	</node>
	<node lat="60.606555553911726" lon="6.294375000629695" id="-30754">
		<tag k="name" v="Svartaberget" />
		<tag k="natural" v="hill" />
		<tag k="place" v="locality" />
		<tag k="ssr:stedsnr" v="263892" />
	</node>
	<node lat="60.61978333041901" lon="6.353119437699975" id="-30755">
		<tag k="name" v="Hagli" />
		<tag k="natural" v="slope" />
		<tag k="place" v="locality" />
		<tag k="ssr:stedsnr" v="263910" />
	</node>
	<node lat="60.61770833513854" lon="6.342124992984552" id="-30756">
		<tag k="name" v="Ryssaberget" />
		<tag k="natural" v="hill" />
		<tag k="place" v="locality" />
		<tag k="ssr:stedsnr" v="264080" />
	</node>
	<node lat="60.62532222394425" lon="6.335669443701421" id="-30757">
		<tag k="name" v="Djukasteinsberget" />
		<tag k="natural" v="hill" />
		<tag k="place" v="locality" />
		<tag k="ssr:stedsnr" v="264084" />
	</node>
	<node lat="60.604061107938534" lon="6.182036110346923" id="-30758">
		<tag k="name" v="Stigane" />
		<tag k="place" v="locality" />
		<tag k="ssr:stedsnr" v="264944" />
	</node>
	<node lat="60.430863885048645" lon="6.700297224045985" id="-30759">
		<tag k="name" v="Slåttenes" />
		<tag k="natural" v="cape" />
		<tag k="ssr:stedsnr" v="271821" />
	</node>
	<node lat="60.43749722649053" lon="6.684358330010628" id="-30760">
		<tag k="name" v="Berjaflot" />
		<tag k="natural" v="ridge" />
		<tag k="place" v="locality" />
		<tag k="ssr:stedsnr" v="281609" />
	</node>
	<node lat="60.468236110893784" lon="6.716094439896184" id="-30761">
		<tag k="fixme" v="consider natural=peak for the most distinct mountains in the district" />
		<tag k="name" v="Gallsflåten" />
		<tag k="natural" v="hill" />
		<tag k="place" v="locality" />
		<tag k="ssr:stedsnr" v="281706" />
	</node>
	<node lat="60.45697175464198" lon="6.746268088223897" id="-30762">
		<tag k="name" v="Hetledalen" />
		<tag k="natural" v="valley" />
		<tag k="place" v="locality" />
		<tag k="ssr:stedsnr" v="281714" />
	</node>
	<node lat="60.469830558679185" lon="6.73121666892078" id="-30763">
		<tag k="name" v="Urdalsbrotet" />
		<tag k="natural" v="valley" />
		<tag k="place" v="locality" />
		<tag k="ssr:stedsnr" v="281715" />
	</node>
	<node lat="60.615852775716164" lon="6.689236104651355" id="-30764">
		<tag k="name" v="Øvsteskar" />
		<tag k="natural" v="valley" />
		<tag k="place" v="locality" />
		<tag k="ssr:stedsnr" v="281803" />
	</node>
	<node lat="60.489836107123324" lon="6.684650000088232" id="-30765">
		<tag k="name" v="Konestølen" />
		<tag k="place" v="locality" />
		<tag k="ssr:stedsnr" v="281813" />
	</node>
	<node lat="60.54471944229569" lon="6.666469449245563" id="-30766">
		<tag k="name" v="Bettene" />
		<tag k="place" v="locality" />
		<tag k="ssr:stedsnr" v="281816" />
	</node>
	<node lat="60.50750555825511" lon="6.7050416655743685" id="-30767">
		<tag k="name" v="Øvre Koldehjellen" />
		<tag k="place" v="locality" />
		<tag k="ssr:stedsnr" v="281817" />
	</node>
	<node lat="60.62299999659733" lon="6.667991664316246" id="-30768">
		<tag k="name" v="Hengsdalsskar" />
		<tag k="natural" v="valley" />
		<tag k="place" v="locality" />
		<tag k="ssr:stedsnr" v="281820" />
	</node>
	<node lat="60.6175888844918" lon="6.663119442648158" id="-30769">
		<tag k="name" v="Reisneskar" />
		<tag k="natural" v="valley" />
		<tag k="place" v="locality" />
		<tag k="ssr:stedsnr" v="281821" />
	</node>
	<node lat="60.5031916658451" lon="6.718505547633187" id="-30770">
		<tag k="fixme" v="consider natural=peak for the most distinct mountains in the district" />
		<tag k="name" v="Veslahorga" />
		<tag k="natural" v="hill" />
		<tag k="place" v="locality" />
		<tag k="ssr:stedsnr" v="281825" />
	</node>
	<node lat="60.54828611480531" lon="6.699977777255009" id="-30771">
		<tag k="name" v="Nesheimslia" />
		<tag k="natural" v="slope" />
		<tag k="place" v="locality" />
		<tag k="ssr:stedsnr" v="281881" />
	</node>
	<node lat="60.59060555617085" lon="6.68915000117365" id="-30772">
		<tag k="name" v="Furuhaugen" />
		<tag k="natural" v="hill" />
		<tag k="place" v="locality" />
		<tag k="ssr:stedsnr" v="281882" />
	</node>
	<node lat="60.56539722289231" lon="6.737308335062298" id="-30773">
		<tag k="name" v="Leina" />
		<tag k="place" v="locality" />
		<tag k="ssr:stedsnr" v="281884" />
	</node>
	<node lat="60.56427778019519" lon="6.733216670936709" id="-30774">
		<tag k="name" v="Treldalen" />
		<tag k="natural" v="valley" />
		<tag k="place" v="locality" />
		<tag k="ssr:stedsnr" v="281887" />
	</node>
	<node lat="60.454627774250305" lon="6.572888888959692" id="-30775">
		<tag k="name" v="Høneviknes" />
		<tag k="natural" v="cape" />
		<tag k="ssr:stedsnr" v="281917" />
	</node>
	<node lat="60.45465000117017" lon="6.5593499969030615" id="-30776">
		<tag k="fixme" v="consider seamark:type=rock or natural=shoal" />
		<tag k="loc_name" v="Bjørgaskjeret" />
		<tag k="name" v="Bjørgaskjær" />
		<tag k="place" v="islet" />
		<tag k="ssr:stedsnr" v="281920" />
	</node>
	<node lat="60.484747223875395" lon="6.630075001749205" id="-30777">
		<tag k="name" v="Geitaskarberg" />
		<tag k="natural" v="hill" />
		<tag k="place" v="locality" />
		<tag k="ssr:stedsnr" v="281923" />
	</node>
	<node lat="60.4601138907091" lon="6.588761108076588" id="-30778">
		<tag k="historic" v="shieling" />
		<tag k="name" v="Litlastøl" />
		<tag k="place" v="isolated_dwelling" />
		<tag k="ssr:stedsnr" v="281925" />
	</node>
	<node lat="60.81316944252345" lon="6.71200555199319" id="-30779">
		<tag k="name" v="Rustaelvi" />
		<tag k="ssr:stedsnr" v="461193" />
		<tag k="waterway" v="river" />
	</node>
	<node lat="60.6388194465081" lon="6.408013890517857" id="-30780">
		<tag k="name" v="Rennefloten" />
		<tag k="place" v="locality" />
		<tag k="ssr:stedsnr" v="287292" />
	</node>
	<node lat="60.69511679789648" lon="6.545020156606754" id="-30781">
		<tag k="name" v="Vetla Gråskallatjørni" />
		<tag k="natural" v="water" />
		<tag k="ssr:stedsnr" v="287297" />
	</node>
	<node lat="60.67220000447593" lon="6.446194442089021" id="-30782">
		<tag k="name" v="Nordrekvålsgrovi" />
		<tag k="ssr:stedsnr" v="287380" />
		<tag k="waterway" v="stream" />
	</node>
	<node lat="60.652550001421375" lon="6.567061111462444" id="-30783">
		<tag k="name" v="Tverberggrovi" />
		<tag k="ssr:stedsnr" v="287385" />
		<tag k="waterway" v="stream" />
	</node>
	<node lat="60.605691670694796" lon="6.46596388919872" id="-30784">
		<tag k="name" v="Himlesleitet" />
		<tag k="natural" v="slope" />
		<tag k="place" v="locality" />
		<tag k="ssr:stedsnr" v="287809" />
	</node>
	<node lat="60.589183330861424" lon="6.560583328002695" id="-30785">
		<tag k="name" v="Bidningadalen" />
		<tag k="natural" v="valley" />
		<tag k="place" v="locality" />
		<tag k="ssr:stedsnr" v="287778" />
	</node>
	<node lat="60.82909166589315" lon="6.5796388961472365" id="-30786">
		<tag k="name" v="Nolten" />
		<tag k="place" v="locality" />
		<tag k="ssr:stedsnr" v="287883" />
	</node>
	<node lat="60.87715000129963" lon="6.553419445907431" id="-30787">
		<tag k="name" v="Botn" />
		<tag k="natural" v="valley" />
		<tag k="place" v="locality" />
		<tag k="ssr:stedsnr" v="288038" />
	</node>
	<node lat="60.57943333272905" lon="6.145336110972495" id="-30788">
		<tag k="name" v="Ljosvatnahaugen" />
		<tag k="natural" v="hill" />
		<tag k="place" v="locality" />
		<tag k="ssr:stedsnr" v="288080" />
	</node>
	<node lat="60.86508611280098" lon="6.606936108698385" id="-30789">
		<tag k="name" v="Kvannbakkane" />
		<tag k="natural" v="slope" />
		<tag k="place" v="locality" />
		<tag k="ssr:stedsnr" v="288082" />
	</node>
	<node lat="60.86372777953415" lon="6.58302500621791" id="-30790">
		<tag k="name" v="Novi" />
		<tag k="place" v="locality" />
		<tag k="ssr:stedsnr" v="288091" />
	</node>
	<node lat="60.66634722052021" lon="6.772136105318202" id="-30791">
		<tag k="historic" v="shieling" />
		<tag k="name" v="Vetleheggstølen" />
		<tag k="place" v="locality" />
		<tag k="ssr:stedsnr" v="288205" />
	</node>
	<node lat="60.76673333623989" lon="6.621469450955903" id="-30792">
		<tag k="fixme" v="consider natural=peak for the most distinct mountains in the district" />
		<tag k="name" v="Malmagrønsnosi" />
		<tag k="natural" v="hill" />
		<tag k="place" v="locality" />
		<tag k="ssr:stedsnr" v="287933" />
	</node>
	<node lat="60.682864570458875" lon="6.709917149342212" id="-30793">
		<tag k="name" v="Gråskallen" />
		<tag k="natural" v="hill" />
		<tag k="place" v="locality" />
		<tag k="ssr:stedsnr" v="288141" />
	</node>
	<node lat="60.90063889325516" lon="6.733852785381246" id="-30794">
		<tag k="name" v="Skinnhuehaugen" />
		<tag k="natural" v="hill" />
		<tag k="place" v="locality" />
		<tag k="ssr:stedsnr" v="288182" />
	</node>
	<node lat="60.666594444414784" lon="6.41938610994568" id="-30795">
		<tag k="name" v="Hovden" />
		<tag k="natural" v="hill" />
		<tag k="place" v="locality" />
		<tag k="ssr:stedsnr" v="288380" />
	</node>
	<node lat="60.56125555362709" lon="6.438600004790314" id="-30796">
		<tag k="name" v="Fossagrovi" />
		<tag k="ssr:stedsnr" v="288507" />
		<tag k="waterway" v="stream" />
	</node>
	<node lat="60.57854166529785" lon="6.468627770083117" id="-30797">
		<tag k="name" v="Helland" />
		<tag k="place" v="farm" />
		<tag k="ssr:stedsnr" v="288513" />
	</node>
	<node lat="60.64565277723714" lon="6.500927784684728" id="-30798">
		<tag k="name" v="Hagen" />
		<tag k="place" v="locality" />
		<tag k="ssr:stedsnr" v="288413" />
	</node>
	<node lat="60.640202775185614" lon="6.407591670316507" id="-30799">
		<tag k="name" v="Breitoni" />
		<tag k="place" v="locality" />
		<tag k="ssr:stedsnr" v="288431" />
	</node>
	<node lat="60.557377780163776" lon="6.491088888271544" id="-30800">
		<tag k="name" v="Budalsgrovi" />
		<tag k="ssr:stedsnr" v="288488" />
		<tag k="waterway" v="stream" />
	</node>
	<node lat="60.580861114779886" lon="6.489836114548053" id="-30801">
		<tag k="name" v="Svartaberget" />
		<tag k="natural" v="hill" />
		<tag k="place" v="locality" />
		<tag k="ssr:stedsnr" v="288501" />
	</node>
	<node lat="60.721736111437906" lon="6.482963893458886" id="-30802">
		<tag k="name" v="Smoget" />
		<tag k="natural" v="valley" />
		<tag k="place" v="locality" />
		<tag k="ssr:stedsnr" v="288681" />
	</node>
	<node lat="60.57098611075557" lon="6.6158472188535065" id="-30803">
		<tag k="name" v="Svartaberget" />
		<tag k="natural" v="hill" />
		<tag k="place" v="locality" />
		<tag k="ssr:stedsnr" v="288697" />
	</node>
	<node lat="60.56586111050816" lon="6.609430547011902" id="-30804">
		<tag k="name" v="Fylstoni" />
		<tag k="place" v="locality" />
		<tag k="ssr:stedsnr" v="288700" />
	</node>
	<node lat="60.90912777637766" lon="6.746397219483378" id="-30805">
		<tag k="name" v="Heimsteløteigen" />
		<tag k="place" v="locality" />
		<tag k="ssr:stedsnr" v="289005" />
	</node>
	<node lat="60.89281666908278" lon="6.64970833575909" id="-30806">
		<tag k="name" v="Kråkenosi" />
		<tag k="place" v="locality" />
		<tag k="ssr:stedsnr" v="289026" />
	</node>
	<node lat="60.87932222544814" lon="6.7482388928638555" id="-30807">
		<tag k="fixme" v="consider natural=peak for the most distinct mountains in the district" />
		<tag k="name" v="Såta" />
		<tag k="natural" v="hill" />
		<tag k="place" v="locality" />
		<tag k="ssr:stedsnr" v="289091" />
	</node>
	<node lat="60.873530560105586" lon="6.723886119725311" id="-30808">
		<tag k="name" v="Våghammaren" />
		<tag k="natural" v="hill" />
		<tag k="place" v="locality" />
		<tag k="ssr:stedsnr" v="289097" />
	</node>
	<node lat="60.87307499681327" lon="6.734094438769632" id="-30809">
		<tag k="name" v="Vardanabakkane" />
		<tag k="natural" v="slope" />
		<tag k="place" v="locality" />
		<tag k="ssr:stedsnr" v="289098" />
	</node>
	<node lat="60.69525555828189" lon="6.481474993369341" id="-30810">
		<tag k="fixme" v="consider boundary=protected_area and relevant protect_class if not nature reserve" />
		<tag k="leisure" v="nature_reserve" />
		<tag k="name" v="Lønaøyane naturreservat" />
		<tag k="ssr:stedsnr" v="289211" />
	</node>
	<node lat="60.54958610673873" lon="6.219316665123288" id="-30811">
		<tag k="fixme" v="consider natural=peak for the most distinct mountains in the district" />
		<tag k="name" v="Grånolten" />
		<tag k="natural" v="hill" />
		<tag k="place" v="locality" />
		<tag k="ssr:stedsnr" v="288976" />
	</node>
	<node lat="60.813411110894016" lon="6.707330552209737" id="-30812">
		<tag k="name" v="Rusta" />
		<tag k="place" v="locality" />
		<tag k="ssr:stedsnr" v="288982" />
	</node>
	<node lat="60.705680557064795" lon="6.8952166687878504" id="-30813">
		<tag k="bridge" v="yes" />
		<tag k="layer" v="1" />
		<tag k="name" v="Keep Smiling" />
		<tag k="ssr:stedsnr" v="289135" />
	</node>
	<node lat="60.62185555532728" lon="6.280266663264648" id="-30814">
		<tag k="bridge" v="yes" />
		<tag k="layer" v="1" />
		<tag k="name" v="Grimastad" />
		<tag k="ssr:stedsnr" v="289139" />
	</node>
	<node lat="60.74199166326423" lon="6.588302781646252" id="-30815">
		<tag k="fixme" v="consider natural=peak for the most distinct mountains in the district" />
		<tag k="name" v="Remlevarden" />
		<tag k="natural" v="hill" />
		<tag k="place" v="locality" />
		<tag k="ssr:stedsnr" v="289302" />
	</node>
	<node lat="60.50395555870807" lon="6.4722833270146145" id="-30816">
		<tag k="name" v="Bjørnamyrsleitet" />
		<tag k="natural" v="slope" />
		<tag k="place" v="locality" />
		<tag k="ssr:stedsnr" v="289627" />
	</node>
	<node lat="60.447142510499624" lon="6.654226211847364" id="-30817">
		<tag k="name" v="Tjoflotviki" />
		<tag k="natural" v="bay" />
		<tag k="ssr:stedsnr" v="463640" />
	</node>
	<node lat="60.460888887040014" lon="6.644444449264812" id="-30818">
		<tag k="fixme" v="consider natural=peak for the most distinct mountains in the district" />
		<tag k="name" v="Skarpasteinsfjellet" />
		<tag k="natural" v="hill" />
		<tag k="place" v="locality" />
		<tag k="ssr:stedsnr" v="463645" />
	</node>
	<node lat="60.46222500205614" lon="6.724844443737015" id="-30819">
		<tag k="name" v="Vindhovd" />
		<tag k="place" v="locality" />
		<tag k="ssr:stedsnr" v="463648" />
	</node>
	<node lat="60.613572223507525" lon="6.7217472163452765" id="-30820">
		<tag k="fixme" v="consider natural=peak for the most distinct mountains in the district" />
		<tag k="name" v="Lianuten" />
		<tag k="natural" v="hill" />
		<tag k="place" v="locality" />
		<tag k="ssr:stedsnr" v="463790" />
	</node>
	<node lat="60.458775000355" lon="6.596997220395787" id="-30821">
		<tag k="name" v="Løflaten" />
		<tag k="natural" v="slope" />
		<tag k="place" v="locality" />
		<tag k="ssr:stedsnr" v="463795" />
	</node>
	<node lat="60.57000832944325" lon="6.730783328484315" id="-30822">
		<tag k="name" v="Nodlane" />
		<tag k="natural" v="hill" />
		<tag k="place" v="locality" />
		<tag k="ssr:stedsnr" v="463813" />
	</node>
	<node lat="60.603386110746115" lon="6.806177786298646" id="-30823">
		<tag k="name" v="Moltesteinen" />
		<tag k="natural" v="stone" />
		<tag k="ssr:stedsnr" v="463824" />
	</node>
	<node lat="60.555569446225036" lon="6.795747215950422" id="-30824">
		<tag k="name" v="Kjerringahaugen" />
		<tag k="natural" v="hill" />
		<tag k="place" v="locality" />
		<tag k="ssr:stedsnr" v="463833" />
	</node>
	<node lat="60.61229166345066" lon="6.746119441723771" id="-30825">
		<tag k="name" v="Ennelii" />
		<tag k="natural" v="slope" />
		<tag k="place" v="locality" />
		<tag k="ssr:stedsnr" v="463837" />
	</node>
	<node lat="60.61630555861731" lon="6.744700008151938" id="-30826">
		<tag k="name" v="Tunga" />
		<tag k="place" v="locality" />
		<tag k="ssr:stedsnr" v="463840" />
	</node>
	<node lat="60.49681638867565" lon="6.638809159410499" id="-30827">
		<tag k="name" v="Folkedal" />
		<tag k="natural" v="valley" />
		<tag k="place" v="locality" />
		<tag k="ssr:stedsnr" v="463848" />
	</node>
	<node lat="60.485783337085266" lon="6.671177784781018" id="-30828">
		<tag k="name" v="Salttunneskåra" />
		<tag k="place" v="locality" />
		<tag k="ssr:stedsnr" v="463850" />
	</node>
	<node lat="60.588483329271824" lon="6.669147217013221" id="-30829">
		<tag k="name" v="Høybakken" />
		<tag k="natural" v="slope" />
		<tag k="place" v="locality" />
		<tag k="ssr:stedsnr" v="463880" />
	</node>
	<node lat="60.60009444440813" lon="6.674361107568853" id="-30830">
		<tag k="name" v="Fyllsdalen" />
		<tag k="natural" v="valley" />
		<tag k="place" v="locality" />
		<tag k="ssr:stedsnr" v="463884" />
	</node>
	<node lat="60.573863893291055" lon="6.653761118540496" id="-30831">
		<tag k="name" v="Kvernabekken" />
		<tag k="ssr:stedsnr" v="463913" />
		<tag k="waterway" v="stream" />
	</node>
	<node lat="60.59697222139622" lon="6.720291669502568" id="-30832">
		<tag k="fixme" v="consider natural=peak for the most distinct mountains in the district" />
		<tag k="name" v="Svarthammarlia" />
		<tag k="natural" v="hill" />
		<tag k="place" v="locality" />
		<tag k="ssr:stedsnr" v="463885" />
	</node>
	<node lat="60.46971944483538" lon="6.556388890840468" id="-30833">
		<tag k="name" v="Mitto" />
		<tag k="natural" v="water" />
		<tag k="ssr:stedsnr" v="463900" />
	</node>
	<node lat="60.46322777624015" lon="6.555922221532989" id="-30834">
		<tag k="fixme" v="consider natural=peak for the most distinct mountains in the district" />
		<tag k="name" v="Notten" />
		<tag k="natural" v="hill" />
		<tag k="place" v="locality" />
		<tag k="ssr:stedsnr" v="463941" />
	</node>
</osm>
