<?xml version="1.0" encoding="UTF-8"?>
<osm version="0.6" generator="osmapis">
	<node lat="60.446726756064216" lon="6.724732643797395" id="-71131">
		<tag k="name" v="Askeviki" />
		<tag k="natural" v="bay" />
		<tag k="ssr:stedsnr" v="5316" />
	</node>
	<node lat="60.458365513889525" lon="6.7557032150456" id="-71227">
		<tag k="name" v="Persviki" />
		<tag k="natural" v="bay" />
		<tag k="ssr:stedsnr" v="38723" />
	</node>
	<node lat="60.452916663462595" lon="6.628438896631715" id="-71239">
		<tag k="name" v="Lindehola" />
		<tag k="natural" v="bay" />
		<tag k="ssr:stedsnr" v="39763" />
	</node>
	<node lat="60.63867777572783" lon="5.930902771068514" id="-71379">
		<tag k="name" v="Ormagytneset" />
		<tag k="natural" v="cape" />
		<tag k="ssr:stedsnr" v="248094" />
	</node>
	<node lat="60.49411666917053" lon="6.6774638918797455" id="-71745">
		<tag k="alt_name" v="Startanes" />
		<tag k="name" v="Startaneset" />
		<tag k="natural" v="cape" />
		<tag k="ssr:stedsnr" v="187397" />
	</node>
	<node lat="60.42977777902457" lon="6.634949999127394" id="-71964">
		<tag k="bay" v="fjord" />
		<tag k="name" v="Utnefjorden" />
		<tag k="natural" v="bay" />
		<tag k="ssr:stedsnr" v="248317" />
	</node>
	<node lat="60.430863885048645" lon="6.700297224045985" id="-72004">
		<tag k="name" v="Slåttenes" />
		<tag k="natural" v="cape" />
		<tag k="ssr:stedsnr" v="271821" />
	</node>
	<node lat="60.454627774250305" lon="6.572888888959692" id="-72020">
		<tag k="name" v="Høneviknes" />
		<tag k="natural" v="cape" />
		<tag k="ssr:stedsnr" v="281917" />
	</node>
	<node lat="60.45465000117017" lon="6.5593499969030615" id="-72021">
		<tag k="fixme" v="consider seamark:type=rock or natural=shoal" />
		<tag k="loc_name" v="Bjørgaskjeret" />
		<tag k="name" v="Bjørgaskjær" />
		<tag k="place" v="islet" />
		<tag k="ssr:stedsnr" v="281920" />
	</node>
	<node lat="60.447142510499624" lon="6.654226211847364" id="-72066">
		<tag k="name" v="Tjoflotviki" />
		<tag k="natural" v="bay" />
		<tag k="ssr:stedsnr" v="463640" />
	</node>
	<node lat="60.475558333905354" lon="6.6319500022984705" id="-72161">
		<tag k="name" v="Skakkakjeft" />
		<tag k="natural" v="cape" />
		<tag k="ssr:stedsnr" v="468500" />
	</node>
	<node lat="60.52123611410637" lon="6.708624996521506" id="-72249">
		<tag k="alt_name" v="Hamnaneset" />
		<tag k="name" v="Havnanes" />
		<tag k="natural" v="cape" />
		<tag k="ssr:stedsnr" v="341900" />
	</node>
	<node lat="60.50573888822982" lon="6.687419438280276" id="-72253">
		<tag k="name" v="Storenes" />
		<tag k="natural" v="cape" />
		<tag k="ssr:stedsnr" v="341914" />
	</node>
	<node lat="60.463463885015024" lon="6.606400007959379" id="-72255">
		<tag k="name" v="Saltskår" />
		<tag k="natural" v="cape" />
		<tag k="ssr:stedsnr" v="341931" />
	</node>
	<node lat="60.44640000177055" lon="6.501213886681833" id="-72303">
		<tag k="alt_name" v="Uraneset" />
		<tag k="name" v="Uranes" />
		<tag k="natural" v="cape" />
		<tag k="old_name" v="Urdanes" />
		<tag k="ssr:stedsnr" v="369222" />
	</node>
	<node lat="60.452047219007596" lon="6.630261116334107" id="-72530">
		<tag k="alt_name" v="Furenes" />
		<tag k="name" v="Fureneset" />
		<tag k="natural" v="cape" />
		<tag k="ssr:stedsnr" v="491343" />
	</node>
	<node lat="60.44024104126134" lon="6.710353656130243" id="-72536">
		<tag k="name" v="Vikabukti" />
		<tag k="natural" v="bay" />
		<tag k="ssr:stedsnr" v="491361" />
	</node>
	<node lat="60.46991389281198" lon="6.758774998363489" id="-72655">
		<tag k="name" v="Angersnes" />
		<tag k="natural" v="cape" />
		<tag k="ssr:stedsnr" v="673342" />
	</node>
	<node lat="60.47241262171039" lon="6.767847465753349" id="-72665">
		<tag k="name" v="Titleviki" />
		<tag k="natural" v="bay" />
		<tag k="ssr:stedsnr" v="673441" />
	</node>
	<node lat="60.51702500401407" lon="6.710916663799387" id="-72912">
		<tag k="name" v="Gryteviki" />
		<tag k="natural" v="bay" />
		<tag k="old_name" v="Grytevik" />
		<tag k="ssr:stedsnr" v="529513" />
	</node>
	<node lat="60.429308337635824" lon="6.68234167413332" id="-73181">
		<tag k="name" v="Eikenes" />
		<tag k="natural" v="cape" />
		<tag k="ssr:stedsnr" v="612379" />
	</node>
	<node lat="60.48291666731488" lon="6.6471972212675245" id="-73286">
		<tag k="alt_name" v="Fisk" />
		<tag k="name" v="Fiskarnes" />
		<tag k="natural" v="cape" />
		<tag k="ssr:stedsnr" v="705863" />
	</node>
	<node lat="60.504150002941806" lon="6.696952780410171" id="-73299">
		<tag k="name" v="Selstå" />
		<tag k="natural" v="bay" />
		<tag k="ssr:stedsnr" v="644937" />
	</node>
	<node lat="60.4398940552555" lon="6.704786374471429" id="-73301">
		<tag k="name" v="Sandviki" />
		<tag k="natural" v="bay" />
		<tag k="ssr:stedsnr" v="645629" />
	</node>
	<node lat="60.45797499908708" lon="6.535558333039882" id="-73469">
		<tag k="name" v="Lussandviki" />
		<tag k="natural" v="bay" />
		<tag k="old_name" v="Lussandvik" />
		<tag k="ssr:stedsnr" v="894231" />
	</node>
	<node lat="60.44439722022858" lon="6.525641674136613" id="-73533">
		<tag k="bay" v="fjord" />
		<tag k="name" v="Indre Samlafjorden" />
		<tag k="natural" v="bay" />
		<tag k="ssr:stedsnr" v="705926" />
	</node>
	<node lat="60.49974444117235" lon="6.677994440640896" id="-73535">
		<tag k="name" v="Haukanes" />
		<tag k="natural" v="cape" />
		<tag k="ssr:stedsnr" v="705907" />
	</node>
	<node lat="60.43354321529203" lon="6.703137863139826" id="-73539">
		<tag k="name" v="Porsviki" />
		<tag k="natural" v="bay" />
		<tag k="ssr:stedsnr" v="706880" />
	</node>
	<node lat="59.94999999761597" lon="5.708333330211666" id="-73748">
		<tag k="bay" v="fjord" />
		<tag k="name" v="Hardangerfjorden" />
		<tag k="natural" v="bay" />
		<tag k="ssr:stedsnr" v="793474" />
	</node>
	<node lat="60.63513333306538" lon="5.904147215280307" id="-73828">
		<tag k="name" v="Holderviki" />
		<tag k="natural" v="bay" />
		<tag k="ssr:stedsnr" v="916102" />
	</node>
	<node lat="60.45897221794167" lon="6.602127781228509" id="-73844">
		<tag k="name" v="Håstabbaneset" />
		<tag k="natural" v="cape" />
		<tag k="ssr:stedsnr" v="916345" />
	</node>
	<node lat="60.49531111400805" lon="6.681108324692102" id="-73950">
		<tag k="name" v="Henriksvika" />
		<tag k="natural" v="bay" />
		<tag k="ssr:stedsnr" v="827868" />
	</node>
	<node lat="60.45920998710308" lon="6.7552314616884015" id="-74327">
		<tag k="name" v="Insta Djønnaneset" />
		<tag k="natural" v="cape" />
		<tag k="ssr:stedsnr" v="990829" />
	</node>
	<node lat="60.451661111776176" lon="6.509483328227489" id="-74505">
		<tag k="name" v="Lussandstrondi" />
		<tag k="natural" v="beach" />
		<tag k="ssr:stedsnr" v="44227" />
	</node>
	<node lat="60.47091944777711" lon="6.614577769871973" id="-74506">
		<tag k="name" v="Kvanndalsbukti" />
		<tag k="natural" v="bay" />
		<tag k="old_name" v="Kvanndalsbukt" />
		<tag k="ssr:stedsnr" v="44228" />
	</node>
	<node lat="60.45153998173862" lon="6.73158768989963" id="-74507">
		<tag k="name" v="Røviki" />
		<tag k="natural" v="bay" />
		<tag k="old_name" v="Røvika" />
		<tag k="ssr:stedsnr" v="44263" />
	</node>
	<node lat="60.643758334970684" lon="5.949452778183775" id="-74705">
		<tag k="name" v="Bolstadstrandi" />
		<tag k="natural" v="beach" />
		<tag k="ssr:stedsnr" v="105707" />
	</node>
	<node lat="60.472955557662644" lon="6.783974991847127" id="-74900">
		<tag k="fixme" v="consider seamark:type=rock or natural=shoal" />
		<tag k="name" v="Svaleskjer" />
		<tag k="place" v="islet" />
		<tag k="ssr:stedsnr" v="159754" />
	</node>
	<node lat="60.45537778087535" lon="6.547616674696336" id="-74906">
		<tag k="name" v="Båtonnshola" />
		<tag k="natural" v="bay" />
		<tag k="ssr:stedsnr" v="159904" />
	</node>
	<node lat="60.44023270184025" lon="6.7103905439790585" id="-74922">
		<tag k="name" v="Vikabukti" />
		<tag k="natural" v="bay" />
		<tag k="old_name" v="Vikabukt" />
		<tag k="ssr:stedsnr" v="165253" />
	</node>
	<node lat="60.52173055804456" lon="6.7161083300627125" id="-74923">
		<tag k="name" v="Toresbryggja" />
		<tag k="natural" v="cape" />
		<tag k="ssr:stedsnr" v="165604" />
	</node>
	<node lat="60.50162222488533" lon="6.679341661746566" id="-75113">
		<tag k="name" v="Salbuviki" />
		<tag k="natural" v="bay" />
		<tag k="old_name" v="Salbuvik" />
		<tag k="ssr:stedsnr" v="220901" />
	</node>
	<node lat="60.46865272583862" lon="6.756454209769663" id="-75169">
		<tag k="loc_name" v="Russviki" />
		<tag k="name" v="Rusviki" />
		<tag k="natural" v="bay" />
		<tag k="old_name" v="Rossviki;Rusvik" />
		<tag k="ssr:stedsnr" v="281728" />
	</node>
	<node lat="60.472243338239196" lon="6.7701739683709325" id="-75170">
		<tag k="name" v="Kvernasanden" />
		<tag k="natural" v="bay" />
		<tag k="ssr:stedsnr" v="281731" />
	</node>
	<node lat="60.49088333506171" lon="6.655847216854959" id="-75382">
		<tag k="alt_name" v="Kaltangen" />
		<tag k="name" v="Kalvatangen" />
		<tag k="natural" v="cape" />
		<tag k="ssr:stedsnr" v="341869" />
	</node>
	<node lat="60.47364927003593" lon="6.790637437317632" id="-75590">
		<tag k="name" v="Stigagjelsneset" />
		<tag k="natural" v="cape" />
		<tag k="ssr:stedsnr" v="402742" />
	</node>
	<node lat="60.46700277669955" lon="6.755480562993205" id="-75591">
		<tag k="fixme" v="consider seamark:type=rock or natural=shoal" />
		<tag k="name" v="Tangskjer" />
		<tag k="place" v="islet" />
		<tag k="ssr:stedsnr" v="402744" />
	</node>
	<node lat="60.44875616744525" lon="6.729026611605615" id="-75593">
		<tag k="name" v="Åkreneset" />
		<tag k="natural" v="cape" />
		<tag k="ssr:stedsnr" v="402705" />
	</node>
	<node lat="60.45517499989067" lon="6.546227776564978" id="-75599">
		<tag k="name" v="Neset" />
		<tag k="natural" v="cape" />
		<tag k="ssr:stedsnr" v="402905" />
	</node>
	<node lat="60.4554277798935" lon="6.549027784376341" id="-75866">
		<tag k="name" v="Golten" />
		<tag k="natural" v="cape" />
		<tag k="ssr:stedsnr" v="523897" />
	</node>
	<node lat="60.458670930137444" lon="6.754562746839781" id="-76150">
		<tag k="name" v="Djønnaneset" />
		<tag k="natural" v="cape" />
		<tag k="ssr:stedsnr" v="612361" />
	</node>
	<node lat="60.455816668967366" lon="6.5502277761776195" id="-76263">
		<tag k="name" v="Djupeviki" />
		<tag k="natural" v="bay" />
		<tag k="old_name" v="Djupevik" />
		<tag k="ssr:stedsnr" v="644903" />
	</node>
	<node lat="60.46765833372339" lon="6.755605548940415" id="-76267">
		<tag k="fixme" v="consider seamark:type=rock or natural=shoal" />
		<tag k="name" v="Kvitaskjer" />
		<tag k="place" v="islet" />
		<tag k="ssr:stedsnr" v="644733" />
	</node>
	<node lat="60.497472222107746" lon="6.673180562380805" id="-76335">
		<tag k="name" v="Ytrabøneset" />
		<tag k="natural" v="cape" />
		<tag k="ssr:stedsnr" v="711519" />
	</node>
	<node lat="60.466911912528495" lon="6.762394829176518" id="-76416">
		<tag k="name" v="Djønnabukti" />
		<tag k="natural" v="bay" />
		<tag k="ssr:stedsnr" v="734365" />
	</node>
	<node lat="60.47333951058118" lon="6.786558329270031" id="-76532">
		<tag k="name" v="Vassviki" />
		<tag k="natural" v="bay" />
		<tag k="ssr:stedsnr" v="766722" />
	</node>
	<node lat="60.476891669973234" lon="6.654666674747425" id="-76539">
		<tag k="name" v="Geilaviki" />
		<tag k="natural" v="bay" />
		<tag k="old_name" v="Geilavika" />
		<tag k="ssr:stedsnr" v="766932" />
	</node>
	<node lat="60.457506207154935" lon="6.755270668760547" id="-76540">
		<tag k="name" v="Ytsta Djønnaneset" />
		<tag k="natural" v="cape" />
		<tag k="ssr:stedsnr" v="767732" />
	</node>
	<node lat="60.458769446152814" lon="6.602761104295436" id="-76740">
		<tag k="alt_name" v="Håstabbanes" />
		<tag k="name" v="Håstabbenes" />
		<tag k="natural" v="cape" />
		<tag k="ssr:stedsnr" v="817793" />
	</node>
	<node lat="60.44599374269148" lon="6.495186151191777" id="-76756">
		<tag k="alt_name" v="Urdaviki" />
		<tag k="name" v="Uravika" />
		<tag k="natural" v="bay" />
		<tag k="ssr:stedsnr" v="833485" />
	</node>
	<node lat="60.49475832915623" lon="6.661741664070438" id="-76757">
		<tag k="name" v="Bergskro" />
		<tag k="natural" v="cape" />
		<tag k="ssr:stedsnr" v="833538" />
	</node>
	<node lat="60.496434357641746" lon="6.671375845071295" id="-77010">
		<tag k="name" v="Haukanesneset" />
		<tag k="natural" v="cape" />
		<tag k="ssr:stedsnr" v="948942" />
	</node>
	<node lat="60.51340833116787" lon="6.691861106079045" id="-77019">
		<tag k="name" v="Vossaholet" />
		<tag k="natural" v="bay" />
		<tag k="old_name" v="Vosseholet" />
		<tag k="ssr:stedsnr" v="954525" />
	</node>
	<node lat="60.437426337328354" lon="6.702927276189839" id="-77571">
		<tag k="name" v="Mjøstølsviki" />
		<tag k="natural" v="bay" />
		<tag k="ssr:stedsnr" v="1072145" />
	</node>
</osm>
