<?xml version="1.0" encoding="UTF-8"?>
<osm version="0.6" generator="osmapis">
	<node lat="60.64888889029997" lon="6.13486389445164" id="-34324">
		<tag k="name" v="Skorvelvi" />
		<tag k="ssr:stedsnr" v="6101" />
		<tag k="waterway" v="river" />
	</node>
	<node lat="60.61278611109773" lon="6.204013888573339" id="-34329">
		<tag k="name" v="Sytjørni" />
		<tag k="natural" v="water" />
		<tag k="ssr:stedsnr" v="6174" />
	</node>
	<node lat="60.68310000420758" lon="6.474827786424651" id="-34333">
		<tag k="name" v="Lønavatnet" />
		<tag k="natural" v="water" />
		<tag k="ssr:stedsnr" v="6324" />
		<tag k="water" v="lake" />
	</node>
	<node lat="60.712777774503095" lon="5.94757776892032" id="-34340">
		<tag k="name" v="Lonane" />
		<tag k="place" v="locality" />
		<tag k="ssr:stedsnr" v="6469" />
	</node>
	<node lat="60.70869166475821" lon="5.957519444388912" id="-34341">
		<tag k="name" v="Norddalselvi" />
		<tag k="ssr:stedsnr" v="6471" />
		<tag k="waterway" v="stream" />
	</node>
	<node lat="60.70905173434748" lon="6.054187171250563" id="-34342">
		<tag k="alt_name" v="Blåvatnet, øvre" />
		<tag k="name" v="Øvra Blåvatnet" />
		<tag k="natural" v="water" />
		<tag k="ssr:stedsnr" v="6477" />
	</node>
	<node lat="60.57702500243821" lon="6.446694436759705" id="-34344">
		<tag k="name" v="Merkesdalsgrovi" />
		<tag k="ssr:stedsnr" v="6599" />
		<tag k="waterway" v="stream" />
	</node>
	<node lat="60.56574444075804" lon="6.174000001771969" id="-34348">
		<tag k="name" v="Kvernhusgrovi" />
		<tag k="ssr:stedsnr" v="6874" />
		<tag k="waterway" v="stream" />
	</node>
	<node lat="60.609766668040194" lon="6.638852777113286" id="-34349">
		<tag k="name" v="Skaftedalselvi" />
		<tag k="ssr:stedsnr" v="6891" />
		<tag k="waterway" v="river" />
	</node>
	<node lat="60.51323002348843" lon="6.632387441903791" id="-34352">
		<tag k="name" v="Svortetjørn" />
		<tag k="natural" v="water" />
		<tag k="ssr:stedsnr" v="7053" />
	</node>
	<node lat="60.50657777933305" lon="6.415791670539501" id="-34355">
		<tag k="name" v="Vetlavatnet" />
		<tag k="natural" v="water" />
		<tag k="ssr:stedsnr" v="7505" />
		<tag k="water" v="lake" />
	</node>
	<node lat="60.562780683936374" lon="6.7844068773350665" id="-34375">
		<tag k="name" v="Lyngerstjørn" />
		<tag k="natural" v="water" />
		<tag k="ssr:stedsnr" v="7847" />
	</node>
	<node lat="60.566054085224735" lon="6.641849357203897" id="-34377">
		<tag k="name" v="Krokavatnet" />
		<tag k="natural" v="water" />
		<tag k="ssr:stedsnr" v="7858" />
		<tag k="water" v="lake" />
	</node>
	<node lat="60.686514220014246" lon="6.703288946326142" id="-34378">
		<tag k="name" v="Hovdatjørni" />
		<tag k="natural" v="water" />
		<tag k="ssr:stedsnr" v="7963" />
	</node>
	<node lat="60.65642500017547" lon="6.240350004381461" id="-34385">
		<tag k="name" v="Madlielvi" />
		<tag k="ssr:stedsnr" v="20010" />
		<tag k="waterway" v="river" />
	</node>
	<node lat="60.65995555372221" lon="6.097772214936062" id="-34393">
		<tag k="name" v="Kvernagrovi" />
		<tag k="ssr:stedsnr" v="20737" />
		<tag k="waterway" v="river" />
	</node>
	<node lat="60.64524999954344" lon="6.264705546942772" id="-34394">
		<tag k="name" v="Bergselvi" />
		<tag k="ssr:stedsnr" v="21038" />
		<tag k="waterway" v="river" />
	</node>
	<node lat="60.8142888880542" lon="6.478202786935068" id="-34402">
		<tag k="name" v="Merkesgrovi" />
		<tag k="ssr:stedsnr" v="21338" />
		<tag k="waterway" v="river" />
	</node>
	<node lat="60.4901421085396" lon="6.615974095540714" id="-34423">
		<tag k="name" v="Kalvbakketjørnane" />
		<tag k="natural" v="water" />
		<tag k="ssr:stedsnr" v="38914" />
		<tag k="water" v="lake" />
	</node>
	<node lat="60.72258924659292" lon="6.498798279322832" id="-34449">
		<tag k="name" v="Leidalsgrovi" />
		<tag k="ssr:stedsnr" v="45702" />
		<tag k="waterway" v="stream" />
	</node>
	<node lat="60.834029251484154" lon="6.728635960908163" id="-34457">
		<tag k="name" v="Nipetjørnane" />
		<tag k="natural" v="water" />
		<tag k="ssr:stedsnr" v="45881" />
		<tag k="water" v="lake" />
	</node>
	<node lat="60.49677778106115" lon="6.469025006713074" id="-34460">
		<tag k="loc_name" v="Grungo" />
		<tag k="name" v="Kaldåni" />
		<tag k="ssr:stedsnr" v="46174" />
		<tag k="waterway" v="stream" />
	</node>
	<node lat="60.63313055971684" lon="6.206175003913058" id="-34476">
		<tag k="name" v="Hohølen" />
		<tag k="place" v="locality" />
		<tag k="ssr:stedsnr" v="67121" />
	</node>
	<node lat="60.63665832986143" lon="6.200802778971034" id="-34482">
		<tag k="name" v="Vosso" />
		<tag k="ssr:stedsnr" v="67134" />
		<tag k="waterway" v="river" />
	</node>
	<node lat="60.65580000173269" lon="6.139852776027912" id="-34483">
		<tag k="name" v="Muggåselvi" />
		<tag k="ssr:stedsnr" v="67052" />
		<tag k="waterway" v="river" />
	</node>
	<node lat="60.73846933920372" lon="6.106350970273261" id="-34485">
		<tag k="name" v="Søtevatnet" />
		<tag k="natural" v="water" />
		<tag k="ssr:stedsnr" v="67425" />
	</node>
	<node lat="60.73318889191561" lon="6.127858324626396" id="-34486">
		<tag k="name" v="Kvernagrovi" />
		<tag k="ssr:stedsnr" v="67434" />
		<tag k="waterway" v="stream" />
	</node>
	<node lat="60.68437778119256" lon="6.260758340747037" id="-34493">
		<tag k="name" v="Raudbergselvi" />
		<tag k="ssr:stedsnr" v="67345" />
		<tag k="waterway" v="river" />
	</node>
	<node lat="60.695063888096" lon="6.091755552027019" id="-34496">
		<tag k="name" v="Skarvagrovi" />
		<tag k="ssr:stedsnr" v="67515" />
		<tag k="waterway" v="river" />
	</node>
	<node lat="60.68571357368319" lon="5.983947689011866" id="-34497">
		<tag k="name" v="Fossen" />
		<tag k="natural" v="waterfall" />
		<tag k="ssr:stedsnr" v="67521" />
	</node>
	<node lat="60.542441666808664" lon="6.10371389427337" id="-34502">
		<tag k="name" v="Vieråni" />
		<tag k="ssr:stedsnr" v="67838" />
		<tag k="waterway" v="stream" />
	</node>
	<node lat="60.612044441911344" lon="6.288397218036917" id="-34510">
		<tag k="name" v="Mosafinnselvi" />
		<tag k="ssr:stedsnr" v="67746" />
		<tag k="waterway" v="stream" />
	</node>
	<node lat="60.54756430880009" lon="6.553635151318584" id="-34514">
		<tag k="name" v="Svartatjørni" />
		<tag k="natural" v="water" />
		<tag k="ssr:stedsnr" v="68607" />
	</node>
	<node lat="60.694338891634274" lon="6.90586943794394" id="-34515">
		<tag k="name" v="Skredteigselvi" />
		<tag k="ssr:stedsnr" v="68927" />
		<tag k="waterway" v="river" />
	</node>
	<node lat="60.83735941716814" lon="6.519269595304145" id="-34517">
		<tag k="name" v="Stora Vasstjørni" />
		<tag k="natural" v="water" />
		<tag k="ssr:stedsnr" v="69605" />
	</node>
	<node lat="60.9299583308874" lon="6.7027222142069744" id="-34527">
		<tag k="name" v="Berdalselvi" />
		<tag k="ssr:stedsnr" v="69895" />
		<tag k="waterway" v="stream" />
	</node>
	<node lat="60.80547777513336" lon="6.447886111003522" id="-34542">
		<tag k="name" v="Klettagrovi" />
		<tag k="ssr:stedsnr" v="81249" />
		<tag k="waterway" v="river" />
	</node>
	<node lat="60.761372223742995" lon="6.513938882644615" id="-34543">
		<tag k="name" v="Kvarmagrovi" />
		<tag k="ssr:stedsnr" v="81200" />
		<tag k="waterway" v="river" />
	</node>
	<node lat="60.72885277950551" lon="6.165486108933971" id="-34545">
		<tag k="name" v="Harkamarkgrovi" />
		<tag k="ssr:stedsnr" v="81529" />
		<tag k="waterway" v="stream" />
	</node>
	<node lat="60.72370000105784" lon="6.127997228183362" id="-34546">
		<tag k="name" v="Hyljaneset" />
		<tag k="natural" v="cape" />
		<tag k="ssr:stedsnr" v="81531" />
	</node>
	<node lat="60.61288055543396" lon="6.353238893504893" id="-34549">
		<tag k="name" v="Hellesneset" />
		<tag k="natural" v="cape" />
		<tag k="ssr:stedsnr" v="81896" />
	</node>
	<node lat="60.67901388625096" lon="6.108866662895625" id="-34552">
		<tag k="name" v="Midtgrovi" />
		<tag k="ssr:stedsnr" v="81744" />
		<tag k="waterway" v="river" />
	</node>
	<node lat="60.80184444814128" lon="6.480336103961093" id="-34558">
		<tag k="name" v="Tvagrovi" />
		<tag k="ssr:stedsnr" v="82316" />
		<tag k="waterway" v="river" />
	</node>
	<node lat="60.611133331454134" lon="6.735650000353892" id="-34580">
		<tag k="name" v="Våarstigen" />
		<tag k="ssr:stedsnr" v="99863" />
		<tag k="waterway" v="stream" />
	</node>
	<node lat="60.5181596119365" lon="6.6228151623248515" id="-34584">
		<tag k="name" v="Grisatjørn" />
		<tag k="natural" v="water" />
		<tag k="ssr:stedsnr" v="99916" />
	</node>
	<node lat="60.59838677503334" lon="6.041647682933142" id="-34588">
		<tag k="name" v="Osskardtjørni" />
		<tag k="natural" v="water" />
		<tag k="ssr:stedsnr" v="248245" />
	</node>
	<node lat="60.62880000262883" lon="5.942911113401876" id="-34589">
		<tag k="name" v="Geitelvi" />
		<tag k="ssr:stedsnr" v="249131" />
		<tag k="waterway" v="river" />
	</node>
	<node lat="60.525690515273276" lon="6.611632483619473" id="-34598">
		<tag k="name" v="Hardingatjørni" />
		<tag k="natural" v="water" />
		<tag k="ssr:stedsnr" v="249055" />
	</node>
	<node lat="60.54592698066757" lon="6.795468270921468" id="-34600">
		<tag k="name" v="Lomtjørn" />
		<tag k="natural" v="water" />
		<tag k="ssr:stedsnr" v="249799" />
	</node>
	<node lat="60.647558331357715" lon="6.087874992888172" id="-34604">
		<tag k="name" v="Naustviki" />
		<tag k="natural" v="bay" />
		<tag k="ssr:stedsnr" v="249091" />
	</node>
	<node lat="60.617055558995595" lon="5.975375000805709" id="-34606">
		<tag k="name" v="Rasdalsvatnet" />
		<tag k="natural" v="water" />
		<tag k="ssr:stedsnr" v="249166" />
		<tag k="water" v="lake" />
	</node>
	<node lat="60.6080250028816" lon="5.938074996351666" id="-34607">
		<tag k="name" v="Morkabekken" />
		<tag k="ssr:stedsnr" v="249190" />
		<tag k="waterway" v="stream" />
	</node>
	<node lat="60.64104444593921" lon="6.49934723037924" id="-34611">
		<tag k="name" v="Løken" />
		<tag k="ssr:stedsnr" v="105303" />
		<tag k="waterway" v="stream" />
	</node>
	<node lat="60.75053297682258" lon="6.601119131139396" id="-34618">
		<tag k="name" v="Sauatjørnane" />
		<tag k="natural" v="water" />
		<tag k="ssr:stedsnr" v="105838" />
		<tag k="water" v="lake" />
	</node>
	<node lat="60.89738889271886" lon="6.664455564402474" id="-34628">
		<tag k="name" v="Kinnarbakkelvi" />
		<tag k="ssr:stedsnr" v="106044" />
		<tag k="waterway" v="river" />
	</node>
	<node lat="60.70676944888472" lon="5.931080558430847" id="-34633">
		<tag k="name" v="Raudskredtjørni" />
		<tag k="natural" v="water" />
		<tag k="ssr:stedsnr" v="249454" />
	</node>
	<node lat="60.87473333585253" lon="6.619086110106965" id="-34635">
		<tag k="name" v="Sambotno" />
		<tag k="ssr:stedsnr" v="106171" />
		<tag k="waterway" v="river" />
	</node>
	<node lat="60.705677773776905" lon="6.7264583418815524" id="-34643">
		<tag k="name" v="Fjellstølselvi" />
		<tag k="ssr:stedsnr" v="106306" />
		<tag k="waterway" v="river" />
	</node>
	<node lat="60.663630558730134" lon="6.44259721309243" id="-34645">
		<tag k="name" v="Lambatangen" />
		<tag k="natural" v="cape" />
		<tag k="ssr:stedsnr" v="106389" />
	</node>
	<node lat="60.67061944624577" lon="6.436936104920194" id="-34646">
		<tag k="name" v="Ænsgrovi" />
		<tag k="ssr:stedsnr" v="106393" />
		<tag k="waterway" v="stream" />
	</node>
	<node lat="60.68583888934387" lon="6.467863888783625" id="-34651">
		<tag k="name" v="Fagersanden" />
		<tag k="natural" v="beach" />
		<tag k="ssr:stedsnr" v="106478" />
	</node>
	<node lat="60.77511388712773" lon="6.779213896562321" id="-34659">
		<tag k="name" v="Bjørndalselvi" />
		<tag k="ssr:stedsnr" v="106976" />
		<tag k="waterway" v="river" />
	</node>
	<node lat="60.55210555807473" lon="6.1852222167741235" id="-34660">
		<tag k="name" v="Hattviki" />
		<tag k="natural" v="bay" />
		<tag k="ssr:stedsnr" v="106977" />
	</node>
	<node lat="60.70232132549373" lon="6.687587174388568" id="-34669">
		<tag k="name" v="Iglatjørni" />
		<tag k="natural" v="water" />
		<tag k="ssr:stedsnr" v="249557" />
	</node>
	<node lat="60.57328888489323" lon="6.574708332455221" id="-34670">
		<tag k="name" v="Langesetvatnet" />
		<tag k="natural" v="water" />
		<tag k="ssr:stedsnr" v="249562" />
		<tag k="water" v="lake" />
	</node>
	<node lat="60.69953055732117" lon="6.567661107881726" id="-34672">
		<tag k="name" v="Tvagroi" />
		<tag k="ssr:stedsnr" v="107427" />
		<tag k="waterway" v="stream" />
	</node>
	<node lat="60.59900391720841" lon="6.239608278237006" id="-34682">
		<tag k="name" v="Hammarstjørni" />
		<tag k="natural" v="water" />
		<tag k="ssr:stedsnr" v="249620" />
	</node>
	<node lat="60.59682500348823" lon="6.418805556465329" id="-34685">
		<tag k="name" v="Tveitagrovi" />
		<tag k="ssr:stedsnr" v="249635" />
		<tag k="waterway" v="river" />
	</node>
	<node lat="60.596850001922704" lon="6.366175000061385" id="-34687">
		<tag k="name" v="Vangjolo" />
		<tag k="ssr:stedsnr" v="249641" />
		<tag k="waterway" v="stream" />
	</node>
	<node lat="60.63770833791557" lon="6.321325008586034" id="-34689">
		<tag k="name" v="Dyrvo" />
		<tag k="ssr:stedsnr" v="249680" />
		<tag k="waterway" v="river" />
	</node>
	<node lat="60.61865000293774" lon="6.325036104652718" id="-34692">
		<tag k="name" v="Vangsvatnet" />
		<tag k="natural" v="water" />
		<tag k="ssr:stedsnr" v="249714" />
		<tag k="water" v="lake" />
	</node>
	<node lat="60.55122570325519" lon="6.781679673399415" id="-34695">
		<tag k="name" v="Søkkja" />
		<tag k="natural" v="water" />
		<tag k="ssr:stedsnr" v="249760" />
	</node>
	<node lat="60.55420000178676" lon="6.754363893998661" id="-34696">
		<tag k="name" v="Bjørndalsbekken" />
		<tag k="ssr:stedsnr" v="249761" />
		<tag k="waterway" v="stream" />
	</node>
	<node lat="60.55522777733324" lon="6.739716662390675" id="-34697">
		<tag k="name" v="Kyrkjeelvi" />
		<tag k="ssr:stedsnr" v="249764" />
		<tag k="waterway" v="river" />
	</node>
	<node lat="60.58098055941511" lon="6.80479443684195" id="-34703">
		<tag k="name" v="Skarafjellsbekken" />
		<tag k="ssr:stedsnr" v="249833" />
		<tag k="waterway" v="stream" />
	</node>
	<node lat="60.55302627553824" lon="6.119397319636666" id="-34704">
		<tag k="name" v="Svinåni" />
		<tag k="ssr:stedsnr" v="249837" />
		<tag k="waterway" v="stream" />
	</node>
	<node lat="60.68977788706791" lon="6.714604729289404" id="-34711">
		<tag k="name" v="Ljosatjørni" />
		<tag k="natural" v="water" />
		<tag k="ssr:stedsnr" v="249981" />
	</node>
	<node lat="60.624761107811" lon="6.108436120005051" id="-34712">
		<tag k="name" v="Tverrelvi" />
		<tag k="ssr:stedsnr" v="250003" />
		<tag k="waterway" v="stream" />
	</node>
	<node lat="60.53994444656982" lon="6.079736108847086" id="-34714">
		<tag k="name" v="Svartagrovi" />
		<tag k="ssr:stedsnr" v="250023" />
		<tag k="waterway" v="stream" />
	</node>
	<node lat="60.512016022270814" lon="6.618520757208296" id="-34715">
		<tag k="name" v="Lomtjørn" />
		<tag k="natural" v="water" />
		<tag k="ssr:stedsnr" v="250029" />
	</node>
	<node lat="60.593513890281635" lon="6.518616674596207" id="-34723">
		<tag k="name" v="Gryvlestjørni" />
		<tag k="natural" v="water" />
		<tag k="ssr:stedsnr" v="250660" />
	</node>
	<node lat="60.573812857025494" lon="6.22290648230473" id="-34728">
		<tag k="fixme" v="multiple name tags, choose one and add the other to alt_name" />
		<tag k="name" v="Kluftatjørni;Torfinnstjørni" />
		<tag k="natural" v="water" />
		<tag k="ssr:stedsnr" v="250682" />
	</node>
	<node lat="60.652663888892164" lon="6.855038894657168" id="-34734">
		<tag k="name" v="Trollavatnet" />
		<tag k="natural" v="water" />
		<tag k="ssr:stedsnr" v="250970" />
		<tag k="water" v="lake" />
	</node>
	<node lat="60.77374444577066" lon="6.746605547013508" id="-34737">
		<tag k="name" v="Bjørndalstjørni" />
		<tag k="natural" v="water" />
		<tag k="ssr:stedsnr" v="251215" />
	</node>
	<node lat="60.76745000113814" lon="6.6850000058009496" id="-34739">
		<tag k="name" v="Prinsabotnelvi" />
		<tag k="ssr:stedsnr" v="251217" />
		<tag k="waterway" v="stream" />
	</node>
	<node lat="60.80537499901623" lon="6.377919448966399" id="-34740">
		<tag k="name" v="Mykjedalsvatnet" />
		<tag k="natural" v="water" />
		<tag k="ssr:stedsnr" v="251535" />
		<tag k="water" v="lake" />
	</node>
	<node lat="60.85387499710125" lon="6.529174991092954" id="-34743">
		<tag k="alt_name" v="Djupegroi" />
		<tag k="name" v="Djupegrovi" />
		<tag k="ssr:stedsnr" v="251552" />
		<tag k="waterway" v="stream" />
	</node>
	<node lat="60.83490537424684" lon="6.31289964066038" id="-34746">
		<tag k="name" v="Kleivatjørni" />
		<tag k="natural" v="water" />
		<tag k="ssr:stedsnr" v="251571" />
	</node>
	<node lat="60.86691960637112" lon="6.319627219961987" id="-34749">
		<tag k="name" v="Langavatnet" />
		<tag k="natural" v="water" />
		<tag k="ssr:stedsnr" v="251599" />
		<tag k="water" v="lake" />
	</node>
	<node lat="60.872036468071165" lon="6.370339311867785" id="-34750">
		<tag k="name" v="Grøndalsvatnet" />
		<tag k="natural" v="water" />
		<tag k="ssr:stedsnr" v="251600" />
		<tag k="water" v="lake" />
	</node>
	<node lat="60.76166454572006" lon="6.18530605989903" id="-34756">
		<tag k="name" v="Horgasettjørni" />
		<tag k="natural" v="water" />
		<tag k="ssr:stedsnr" v="251692" />
	</node>
	<node lat="60.81401111218772" lon="6.8712083394396535" id="-34757">
		<tag k="name" v="Såtevatnet" />
		<tag k="natural" v="water" />
		<tag k="ssr:stedsnr" v="251793" />
		<tag k="water" v="lake" />
	</node>
	<node lat="60.875030009691656" lon="6.357597149980359" id="-34760">
		<tag k="name" v="Svartavatnet" />
		<tag k="natural" v="water" />
		<tag k="ssr:stedsnr" v="251829" />
		<tag k="water" v="lake" />
	</node>
	<node lat="60.84725966360216" lon="6.3216323148190785" id="-34762">
		<tag k="name" v="Grøndalsvatnet" />
		<tag k="natural" v="water" />
		<tag k="ssr:stedsnr" v="251833" />
		<tag k="water" v="lake" />
	</node>
	<node lat="60.94117499936401" lon="6.695766664131655" id="-34767">
		<tag k="name" v="Salagrovi" />
		<tag k="ssr:stedsnr" v="251911" />
		<tag k="waterway" v="stream" />
	</node>
	<node lat="60.77803332919019" lon="6.509725007246692" id="-34775">
		<tag k="name" v="Kjeldåi" />
		<tag k="ssr:stedsnr" v="251976" />
		<tag k="waterway" v="stream" />
	</node>
	<node lat="60.48178333082802" lon="6.58618889045641" id="-34777">
		<tag k="name" v="Stølsbekken" />
		<tag k="ssr:stedsnr" v="126207" />
		<tag k="waterway" v="stream" />
	</node>
	<node lat="60.476488946178655" lon="6.5560818678143375" id="-34778">
		<tag k="alt_name" v="Svartetjørni" />
		<tag k="name" v="Svortetjørn" />
		<tag k="natural" v="water" />
		<tag k="ssr:stedsnr" v="126211" />
	</node>
	<node lat="60.606097226067625" lon="6.21074166283357" id="-34783">
		<tag k="name" v="Demmetjørni" />
		<tag k="natural" v="water" />
		<tag k="ssr:stedsnr" v="127222" />
		<tag k="water" v="lake" />
	</node>
	<node lat="60.70823547648869" lon="6.171984210124041" id="-34805">
		<tag k="name" v="Auborratjørnane" />
		<tag k="natural" v="water" />
		<tag k="ssr:stedsnr" v="127508" />
		<tag k="water" v="lake" />
	</node>
	<node lat="60.634788885777404" lon="6.008274998110897" id="-34807">
		<tag k="name" v="Tverrelvi" />
		<tag k="ssr:stedsnr" v="128005" />
		<tag k="waterway" v="river" />
	</node>
	<node lat="60.55349999971501" lon="6.501000007687064" id="-34813">
		<tag k="name" v="Gryvlesgrovi" />
		<tag k="ssr:stedsnr" v="128586" />
		<tag k="waterway" v="river" />
	</node>
	<node lat="60.54483333720623" lon="6.2442250035304765" id="-34814">
		<tag k="name" v="Vassviki" />
		<tag k="natural" v="bay" />
		<tag k="ssr:stedsnr" v="128591" />
	</node>
	<node lat="60.53261906995867" lon="6.252965599552227" id="-34816">
		<tag k="name" v="Sauatjørni" />
		<tag k="natural" v="water" />
		<tag k="ssr:stedsnr" v="128599" />
	</node>
	<node lat="60.90911081519032" lon="6.814338206766429" id="-34828">
		<tag k="name" v="Slettedalstjørni" />
		<tag k="natural" v="water" />
		<tag k="ssr:stedsnr" v="129843" />
	</node>
	<node lat="60.62374166435906" lon="6.318122214974849" id="-34840">
		<tag k="name" v="Bøjaviki" />
		<tag k="natural" v="bay" />
		<tag k="ssr:stedsnr" v="141095" />
	</node>
	<node lat="60.61436389173057" lon="6.2996388878430984" id="-34841">
		<tag k="name" v="Eimstadelvi" />
		<tag k="ssr:stedsnr" v="141096" />
		<tag k="waterway" v="river" />
	</node>
	<node lat="60.613758332750386" lon="6.306827777860869" id="-34842">
		<tag k="name" v="Leitagrovi" />
		<tag k="ssr:stedsnr" v="141099" />
		<tag k="waterway" v="river" />
	</node>
	<node lat="60.642972224711585" lon="6.154899991413238" id="-34845">
		<tag k="name" v="Midtøyni" />
		<tag k="place" v="island" />
		<tag k="ssr:stedsnr" v="141692" />
	</node>
	<node lat="60.66042500443337" lon="6.359108339982014" id="-34858">
		<tag k="name" v="Kvitingsgrovi" />
		<tag k="ssr:stedsnr" v="142915" />
		<tag k="waterway" v="river" />
	</node>
	<node lat="60.726463892327956" lon="6.447947230547228" id="-34863">
		<tag k="name" v="Øvrestølselvi" />
		<tag k="ssr:stedsnr" v="324142" />
		<tag k="waterway" v="river" />
	</node>
	<node lat="60.69506110666049" lon="6.463330549305407" id="-34876">
		<tag k="name" v="Breimo" />
		<tag k="ssr:stedsnr" v="166504" />
		<tag k="waterway" v="river" />
	</node>
	<node lat="60.62707500147882" lon="6.464172223150626" id="-34877">
		<tag k="name" v="Kvernagrovi" />
		<tag k="ssr:stedsnr" v="166513" />
		<tag k="waterway" v="stream" />
	</node>
	<node lat="60.63184910195388" lon="6.618366663967627" id="-34882">
		<tag k="name" v="Hovenoltvatnet" />
		<tag k="natural" v="water" />
		<tag k="ssr:stedsnr" v="166865" />
		<tag k="water" v="lake" />
	</node>
	<node lat="60.827622218610685" lon="6.62126389664964" id="-34885">
		<tag k="name" v="Galtåni" />
		<tag k="ssr:stedsnr" v="166880" />
		<tag k="waterway" v="river" />
	</node>
	<node lat="60.81704444769509" lon="6.721944441709493" id="-34890">
		<tag k="name" v="Kvernhusgroi" />
		<tag k="ssr:stedsnr" v="166982" />
		<tag k="waterway" v="river" />
	</node>
	<node lat="60.71104166651822" lon="6.640797222150873" id="-34898">
		<tag k="name" v="Bukkafossen" />
		<tag k="natural" v="waterfall" />
		<tag k="ssr:stedsnr" v="167260" />
	</node>
	<node lat="60.69510278168069" lon="6.6687361078067084" id="-34902">
		<tag k="name" v="Stølsgroi" />
		<tag k="ssr:stedsnr" v="167304" />
		<tag k="waterway" v="stream" />
	</node>
	<node lat="60.654019446266815" lon="6.110963884423113" id="-34903">
		<tag k="name" v="Geitdalsgrovi" />
		<tag k="ssr:stedsnr" v="324707" />
		<tag k="waterway" v="river" />
	</node>
	<node lat="60.644383330075826" lon="6.617999997033907" id="-34905">
		<tag k="name" v="Høljagrovi" />
		<tag k="ssr:stedsnr" v="167465" />
		<tag k="waterway" v="stream" />
	</node>
	<node lat="60.57226666306928" lon="6.478030560154177" id="-34908">
		<tag k="name" v="Dammatoni" />
		<tag k="ssr:stedsnr" v="167712" />
		<tag k="waterway" v="stream" />
	</node>
	<node lat="60.659655552677954" lon="5.892583335956457" id="-34932">
		<tag k="name" v="Botnatjørni" />
		<tag k="natural" v="water" />
		<tag k="ssr:stedsnr" v="188090" />
	</node>
	<node lat="60.63506944181627" lon="6.08459166893324" id="-34939">
		<tag k="name" v="Vetlestølselvi" />
		<tag k="ssr:stedsnr" v="188173" />
		<tag k="waterway" v="stream" />
	</node>
	<node lat="60.675783339948026" lon="6.523208397895869" id="-34943">
		<tag k="name" v="Lemmestjørni" />
		<tag k="natural" v="water" />
		<tag k="ssr:stedsnr" v="188312" />
	</node>
	<node lat="60.715116795720384" lon="5.994611447455447" id="-34949">
		<tag k="name" v="Tjørnalitjørni" />
		<tag k="natural" v="water" />
		<tag k="ssr:stedsnr" v="188477" />
	</node>
	<node lat="60.73290833308542" lon="6.537616659692139" id="-34956">
		<tag k="name" v="Skorsetvatnet" />
		<tag k="natural" v="water" />
		<tag k="ssr:stedsnr" v="188386" />
		<tag k="water" v="lake" />
	</node>
	<node lat="60.702211107039105" lon="5.97924999381904" id="-34958">
		<tag k="name" v="Øykholmvatnet" />
		<tag k="natural" v="water" />
		<tag k="ssr:stedsnr" v="188506" />
	</node>
	<node lat="60.50928763594382" lon="6.567499780438259" id="-34961">
		<tag k="name" v="Rusketjørni" />
		<tag k="natural" v="water" />
		<tag k="ssr:stedsnr" v="188591" />
	</node>
	<node lat="60.55306388851645" lon="6.763727770645253" id="-34963">
		<tag k="name" v="Djupadalsbekken" />
		<tag k="ssr:stedsnr" v="188804" />
		<tag k="waterway" v="stream" />
	</node>
	<node lat="60.549166668729825" lon="6.619852784794256" id="-34976">
		<tag k="name" v="Tjørola-holmen" />
		<tag k="place" v="islet" />
		<tag k="ssr:stedsnr" v="189832" />
	</node>
	<node lat="60.65385277929217" lon="6.216511104598886" id="-34978">
		<tag k="name" v="Gastgjevaren" />
		<tag k="ssr:stedsnr" v="263007" />
		<tag k="waterway" v="stream" />
	</node>
	<node lat="60.53896666629246" lon="6.756388884423674" id="-34981">
		<tag k="name" v="Tveitelvi" />
		<tag k="ssr:stedsnr" v="189763" />
		<tag k="waterway" v="river" />
	</node>
	<node lat="60.909116645918566" lon="6.442575180835892" id="-34987">
		<tag k="name" v="Vetlavatnet" />
		<tag k="natural" v="water" />
		<tag k="ssr:stedsnr" v="190621" />
	</node>
	<node lat="60.883652246381835" lon="6.397717464083554" id="-34992">
		<tag k="name" v="Holmavatnet" />
		<tag k="natural" v="water" />
		<tag k="ssr:stedsnr" v="190570" />
	</node>
	<node lat="60.78610833062469" lon="6.621947213991367" id="-35003">
		<tag k="name" v="Sellandselvi" />
		<tag k="ssr:stedsnr" v="190769" />
		<tag k="waterway" v="river" />
	</node>
	<node lat="60.637716662473046" lon="6.2083361126493415" id="-35009">
		<tag k="name" v="Bjørgrovi" />
		<tag k="ssr:stedsnr" v="263137" />
		<tag k="waterway" v="river" />
	</node>
	<node lat="60.852674996574606" lon="6.494550000249737" id="-35013">
		<tag k="name" v="Myrkdalselvi" />
		<tag k="ssr:stedsnr" v="191512" />
		<tag k="waterway" v="river" />
	</node>
	<node lat="60.61019722639044" lon="6.195205547632697" id="-35021">
		<tag k="name" v="Storagrovi" />
		<tag k="ssr:stedsnr" v="263233" />
		<tag k="waterway" v="river" />
	</node>
	<node lat="60.826369444400484" lon="6.475016674930505" id="-35027">
		<tag k="name" v="Flisramsgrovi" />
		<tag k="ssr:stedsnr" v="263286" />
		<tag k="waterway" v="river" />
	</node>
	<node lat="60.603811114750776" lon="6.0173944441293035" id="-35034">
		<tag k="name" v="Kyratjørni" />
		<tag k="natural" v="water" />
		<tag k="ssr:stedsnr" v="263670" />
	</node>
	<node lat="60.64445833136548" lon="6.149111103988263" id="-35035">
		<tag k="name" v="Neset" />
		<tag k="natural" v="cape" />
		<tag k="ssr:stedsnr" v="263743" />
	</node>
	<node lat="60.64933869357901" lon="6.632133047028451" id="-35037">
		<tag k="name" v="Rjupetjørnane" />
		<tag k="natural" v="water" />
		<tag k="ssr:stedsnr" v="263675" />
		<tag k="water" v="lake" />
	</node>
	<node lat="60.663002775610565" lon="6.731358325389849" id="-35038">
		<tag k="name" v="Dyrebotto" />
		<tag k="ssr:stedsnr" v="263676" />
		<tag k="waterway" v="river" />
	</node>
	<node lat="60.64280278179506" lon="5.968786108063992" id="-35041">
		<tag k="name" v="Langhølen" />
		<tag k="place" v="locality" />
		<tag k="ssr:stedsnr" v="263682" />
	</node>
	<node lat="60.81988055530394" lon="6.636752774598952" id="-35049">
		<tag k="name" v="Brengsgrovi" />
		<tag k="ssr:stedsnr" v="264276" />
		<tag k="waterway" v="river" />
	</node>
	<node lat="60.87846388708868" lon="6.5095250014939445" id="-35053">
		<tag k="name" v="Storelvi" />
		<tag k="ssr:stedsnr" v="264171" />
		<tag k="waterway" v="river" />
	</node>
	<node lat="60.456738886735344" lon="6.646466671960015" id="-35058">
		<tag k="name" v="Kvernabekken" />
		<tag k="ssr:stedsnr" v="265233" />
		<tag k="waterway" v="stream" />
	</node>
	<node lat="60.78826111250599" lon="6.6047277817580055" id="-35060">
		<tag k="name" v="Høydalsgrovi" />
		<tag k="ssr:stedsnr" v="202149" />
		<tag k="waterway" v="river" />
	</node>
	<node lat="60.622050003025315" lon="6.326072218654579" id="-35068">
		<tag k="name" v="Byrkjafiti" />
		<tag k="natural" v="cape" />
		<tag k="ssr:stedsnr" v="203104" />
	</node>
	<node lat="60.62173610794615" lon="6.287749992473274" id="-35069">
		<tag k="name" v="Fiti" />
		<tag k="natural" v="cape" />
		<tag k="ssr:stedsnr" v="203106" />
	</node>
	<node lat="60.77878888731114" lon="6.465383340780143" id="-35070">
		<tag k="name" v="Hønselvi" />
		<tag k="ssr:stedsnr" v="203202" />
		<tag k="waterway" v="river" />
	</node>
	<node lat="60.83624166747776" lon="6.429841661922622" id="-35072">
		<tag k="name" v="Skakkefossen" />
		<tag k="natural" v="waterfall" />
		<tag k="ssr:stedsnr" v="203271" />
	</node>
	<node lat="60.625261112697885" lon="6.1208888809214175" id="-35074">
		<tag k="name" v="Hallrapagrovi" />
		<tag k="ssr:stedsnr" v="203278" />
		<tag k="waterway" v="river" />
	</node>
	<node lat="60.69621075391965" lon="6.877063458812992" id="-35080">
		<tag k="name" v="Ringtjørni" />
		<tag k="natural" v="water" />
		<tag k="ssr:stedsnr" v="203640" />
	</node>
	<node lat="60.63006944055182" lon="6.010019442364612" id="-35083">
		<tag k="name" v="Nyegardsgrovi" />
		<tag k="ssr:stedsnr" v="203691" />
		<tag k="waterway" v="river" />
	</node>
	<node lat="60.6459722256712" lon="6.039372219595589" id="-35084">
		<tag k="name" v="Bergstadneset" />
		<tag k="natural" v="cape" />
		<tag k="ssr:stedsnr" v="203692" />
	</node>
	<node lat="60.5830349814844" lon="6.013044533961162" id="-35102">
		<tag k="loc_name" v="Gråvotni" />
		<tag k="name" v="Gråvatni" />
		<tag k="natural" v="water" />
		<tag k="ssr:stedsnr" v="226971" />
		<tag k="water" v="lake" />
	</node>
	<node lat="60.56919999643937" lon="6.4469194414903415" id="-35115">
		<tag k="name" v="Kvernhusgrovi" />
		<tag k="ssr:stedsnr" v="227551" />
		<tag k="waterway" v="stream" />
	</node>
	<node lat="60.54665555486706" lon="6.589550000640588" id="-35119">
		<tag k="name" v="Horgasetgroi" />
		<tag k="ssr:stedsnr" v="227733" />
		<tag k="waterway" v="river" />
	</node>
	<node lat="60.87838332940809" lon="6.7118555573414636" id="-35126">
		<tag k="name" v="Vetlehammargroi" />
		<tag k="ssr:stedsnr" v="228105" />
		<tag k="waterway" v="stream" />
	</node>
	<node lat="60.47616581592584" lon="6.569444240970608" id="-35141">
		<tag k="alt_name" v="Kvandalsvatnet" />
		<tag k="name" v="Kvanndalsvatnet" />
		<tag k="natural" v="water" />
		<tag k="ssr:stedsnr" v="248214" />
	</node>
	<node lat="60.58453889192403" lon="6.018505563730935" id="-35146">
		<tag k="alt_name" v="Gråvatni, midtre" />
		<tag k="loc_name" v="Midtre Gråvatnet" />
		<tag k="name" v="Midtre Gråvatni" />
		<tag k="natural" v="water" />
		<tag k="ssr:stedsnr" v="248869" />
		<tag k="water" v="lake" />
	</node>
	<node lat="60.58148785607774" lon="5.997737445525425" id="-35147">
		<tag k="alt_name" v="Gråvatni, nordre" />
		<tag k="loc_name" v="Nordre Gråvatnet;Nedsta Gråvatnet;Nedre Gråvatnet" />
		<tag k="name" v="Nordre Gråvatni" />
		<tag k="natural" v="water" />
		<tag k="ssr:stedsnr" v="248870" />
		<tag k="water" v="lake" />
	</node>
	<node lat="60.587119442807285" lon="6.616333331742741" id="-35148">
		<tag k="name" v="Moavatnet" />
		<tag k="natural" v="water" />
		<tag k="ssr:stedsnr" v="248947" />
		<tag k="water" v="lake" />
	</node>
	<node lat="60.63939999873965" lon="6.049205554160125" id="-35150">
		<tag k="name" v="Nakkagjelelvi" />
		<tag k="ssr:stedsnr" v="249116" />
		<tag k="waterway" v="stream" />
	</node>
	<node lat="60.66791111439852" lon="6.4974944493529305" id="-35154">
		<tag k="name" v="Djupavadet" />
		<tag k="ssr:stedsnr" v="249285" />
		<tag k="waterway" v="stream" />
	</node>
	<node lat="60.78747499991388" lon="6.601683330259699" id="-35161">
		<tag k="name" v="Elvi" />
		<tag k="ssr:stedsnr" v="263171" />
		<tag k="waterway" v="river" />
	</node>
	<node lat="60.683366668071066" lon="5.979913885122101" id="-35169">
		<tag k="name" v="Smettesbekken" />
		<tag k="ssr:stedsnr" v="263710" />
		<tag k="waterway" v="stream" />
	</node>
	<node lat="60.81316944252345" lon="6.71200555199319" id="-35202">
		<tag k="name" v="Rustaelvi" />
		<tag k="ssr:stedsnr" v="461193" />
		<tag k="waterway" v="river" />
	</node>
	<node lat="60.69511679789648" lon="6.545020156606754" id="-35204">
		<tag k="name" v="Vetla Gråskallatjørni" />
		<tag k="natural" v="water" />
		<tag k="ssr:stedsnr" v="287297" />
	</node>
	<node lat="60.67220000447593" lon="6.446194442089021" id="-35205">
		<tag k="name" v="Nordrekvålsgrovi" />
		<tag k="ssr:stedsnr" v="287380" />
		<tag k="waterway" v="stream" />
	</node>
	<node lat="60.652550001421375" lon="6.567061111462444" id="-35206">
		<tag k="name" v="Tverberggrovi" />
		<tag k="ssr:stedsnr" v="287385" />
		<tag k="waterway" v="stream" />
	</node>
	<node lat="60.56125555362709" lon="6.438600004790314" id="-35219">
		<tag k="name" v="Fossagrovi" />
		<tag k="ssr:stedsnr" v="288507" />
		<tag k="waterway" v="stream" />
	</node>
	<node lat="60.557377780163776" lon="6.491088888271544" id="-35223">
		<tag k="name" v="Budalsgrovi" />
		<tag k="ssr:stedsnr" v="288488" />
		<tag k="waterway" v="stream" />
	</node>
	<node lat="60.573863893291055" lon="6.653761118540496" id="-35254">
		<tag k="name" v="Kvernabekken" />
		<tag k="ssr:stedsnr" v="463913" />
		<tag k="waterway" v="stream" />
	</node>
	<node lat="60.46971944483538" lon="6.556388890840468" id="-35256">
		<tag k="name" v="Mitto" />
		<tag k="natural" v="water" />
		<tag k="ssr:stedsnr" v="463900" />
	</node>
	<node lat="60.71775833643992" lon="6.251055563943766" id="-35272">
		<tag k="name" v="Grasdalsvatnet" />
		<tag k="natural" v="water" />
		<tag k="ssr:stedsnr" v="309386" />
		<tag k="water" v="lake" />
	</node>
	<node lat="60.539255555344596" lon="6.1237499991945334" id="-35282">
		<tag k="name" v="Holmabukti" />
		<tag k="natural" v="bay" />
		<tag k="ssr:stedsnr" v="309832" />
	</node>
	<node lat="60.61923055621967" lon="6.742166664975151" id="-35283">
		<tag k="name" v="Våarelvi" />
		<tag k="ssr:stedsnr" v="309904" />
		<tag k="waterway" v="river" />
	</node>
	<node lat="60.54753015404079" lon="6.536067440592947" id="-35285">
		<tag k="name" v="Langatjørni" />
		<tag k="natural" v="water" />
		<tag k="ssr:stedsnr" v="310005" />
	</node>
	<node lat="60.536090351471834" lon="6.347571847524579" id="-35297">
		<tag k="name" v="Stora Torfinnsdalsvatnet" />
		<tag k="natural" v="water" />
		<tag k="ssr:stedsnr" v="310627" />
		<tag k="water" v="lake" />
	</node>
	<node lat="60.51457500247966" lon="6.261430553427096" id="-35298">
		<tag k="name" v="Svartavatnet" />
		<tag k="natural" v="water" />
		<tag k="ssr:stedsnr" v="310513" />
	</node>
	<node lat="60.50807499891874" lon="6.505752784779415" id="-35301">
		<tag k="name" v="Dalelvi" />
		<tag k="ssr:stedsnr" v="310529" />
		<tag k="waterway" v="stream" />
	</node>
	<node lat="60.53774722313018" lon="6.722544440542731" id="-35311">
		<tag k="name" v="Stuvanes" />
		<tag k="natural" v="cape" />
		<tag k="ssr:stedsnr" v="310793" />
	</node>
	<node lat="60.55287683115293" lon="6.605136294406781" id="-35315">
		<tag k="name" v="Svartatjørni" />
		<tag k="natural" v="water" />
		<tag k="ssr:stedsnr" v="310842" />
	</node>
	<node lat="60.8341846140381" lon="6.848269478437284" id="-35326">
		<tag k="name" v="Vedasteinsvatnet" />
		<tag k="natural" v="water" />
		<tag k="ssr:stedsnr" v="312754" />
		<tag k="water" v="lake" />
	</node>
	<node lat="60.77423055384368" lon="6.545191666971868" id="-35329">
		<tag k="name" v="Fjellagrovi" />
		<tag k="ssr:stedsnr" v="312968" />
		<tag k="waterway" v="stream" />
	</node>
	<node lat="60.63352221961489" lon="6.258708336884097" id="-35339">
		<tag k="name" v="Flagahølen" />
		<tag k="place" v="locality" />
		<tag k="ssr:stedsnr" v="324092" />
	</node>
	<node lat="60.87151389013149" lon="6.4719111054721" id="-35349">
		<tag k="name" v="Vetlafeissgrovi" />
		<tag k="ssr:stedsnr" v="324170" />
		<tag k="waterway" v="river" />
	</node>
	<node lat="60.798077779751004" lon="6.50696944046161" id="-35352">
		<tag k="name" v="Djupedalsgrovi" />
		<tag k="ssr:stedsnr" v="324188" />
		<tag k="waterway" v="river" />
	</node>
	<node lat="60.840425003047194" lon="6.68811943812213" id="-35353">
		<tag k="name" v="Sivlefossen" />
		<tag k="natural" v="waterfall" />
		<tag k="ssr:stedsnr" v="324373" />
	</node>
	<node lat="60.87642499828765" lon="6.723211108667946" id="-35357">
		<tag k="name" v="Hjellagroi" />
		<tag k="ssr:stedsnr" v="469059" />
		<tag k="waterway" v="stream" />
	</node>
	<node lat="60.64543888509213" lon="5.881866667944415" id="-35359">
		<tag k="alt_name" v="Tjørni" />
		<tag k="name" v="Tyssetjørni" />
		<tag k="natural" v="water" />
		<tag k="ssr:stedsnr" v="324869" />
	</node>
	<node lat="60.60927222227194" lon="6.354463897447881" id="-35363">
		<tag k="name" v="Årsvoki" />
		<tag k="place" v="locality" />
		<tag k="ssr:stedsnr" v="324902" />
	</node>
	<node lat="60.597642452127346" lon="6.493365050953879" id="-35369">
		<tag k="name" v="Lomtjørni" />
		<tag k="natural" v="water" />
		<tag k="ssr:stedsnr" v="469838" />
	</node>
	<node lat="60.88241110784604" lon="6.731844450289676" id="-35382">
		<tag k="name" v="Fossen" />
		<tag k="natural" v="waterfall" />
		<tag k="ssr:stedsnr" v="470089" />
	</node>
	<node lat="60.685972220244075" lon="6.661955559706852" id="-35385">
		<tag k="name" v="Midtbergsgrovi" />
		<tag k="ssr:stedsnr" v="470174" />
		<tag k="waterway" v="stream" />
	</node>
	<node lat="60.90088611389402" lon="6.50046945164471" id="-35390">
		<tag k="name" v="Bjørndøla" />
		<tag k="ssr:stedsnr" v="470208" />
		<tag k="waterway" v="river" />
	</node>
	<node lat="60.573255558527784" lon="6.477005557109217" id="-35398">
		<tag k="name" v="Kvitnagrovi" />
		<tag k="ssr:stedsnr" v="470549" />
		<tag k="waterway" v="stream" />
	</node>
	<node lat="60.675069446582796" lon="6.452905550145914" id="-35400">
		<tag k="name" v="Husagrovi" />
		<tag k="ssr:stedsnr" v="470471" />
		<tag k="waterway" v="stream" />
	</node>
	<node lat="60.60799166343338" lon="6.408463884320058" id="-35405">
		<tag k="name" v="Tomaso" />
		<tag k="ssr:stedsnr" v="470508" />
		<tag k="waterway" v="stream" />
	</node>
	<node lat="60.80537222221002" lon="6.679736119762419" id="-35414">
		<tag k="name" v="Ljoselvi" />
		<tag k="ssr:stedsnr" v="470882" />
		<tag k="waterway" v="river" />
	</node>
	<node lat="60.6863194476754" lon="6.670216658212027" id="-35438">
		<tag k="name" v="Sygnaberdsgrovi" />
		<tag k="ssr:stedsnr" v="348279" />
		<tag k="waterway" v="stream" />
	</node>
	<node lat="60.5585103610694" lon="6.420033836144196" id="-35446">
		<tag k="name" v="Tverrelvi" />
		<tag k="ssr:stedsnr" v="348956" />
		<tag k="waterway" v="stream" />
	</node>
	<node lat="60.55795555512754" lon="6.198947223193237" id="-35449">
		<tag k="name" v="Rasbareneset" />
		<tag k="natural" v="cape" />
		<tag k="ssr:stedsnr" v="348972" />
	</node>
	<node lat="60.876488886264816" lon="6.711852779934819" id="-35453">
		<tag k="name" v="Gjøttegroi" />
		<tag k="ssr:stedsnr" v="349117" />
		<tag k="waterway" v="stream" />
	</node>
	<node lat="60.831141662647326" lon="6.559433332182461" id="-35454">
		<tag k="name" v="Skredbullagroi" />
		<tag k="ssr:stedsnr" v="348864" />
		<tag k="waterway" v="river" />
	</node>
	<node lat="60.833583336802945" lon="6.5644527775521455" id="-35455">
		<tag k="name" v="Sundsvollselvi" />
		<tag k="ssr:stedsnr" v="348867" />
		<tag k="waterway" v="river" />
	</node>
	<node lat="60.7758388929385" lon="6.737572229637432" id="-35458">
		<tag k="name" v="Brandsetelvi" />
		<tag k="ssr:stedsnr" v="348876" />
		<tag k="waterway" v="river" />
	</node>
	<node lat="60.74907222549954" lon="6.513180562122123" id="-35463">
		<tag k="loc_name" v="Skorsetgrovi" />
		<tag k="name" v="Skårsetgroa" />
		<tag k="ssr:stedsnr" v="349258" />
		<tag k="waterway" v="river" />
	</node>
	<node lat="60.51509166615367" lon="6.508544440396419" id="-35468">
		<tag k="name" v="Følaskagrovi" />
		<tag k="ssr:stedsnr" v="349818" />
		<tag k="waterway" v="stream" />
	</node>
	<node lat="60.49550000435415" lon="6.639600004178716" id="-35472">
		<tag k="alt_name" v="Folkedalselva" />
		<tag k="name" v="Folkedalselvi" />
		<tag k="ssr:stedsnr" v="359820" />
		<tag k="waterway" v="river" />
	</node>
	<node lat="60.66753441977846" lon="5.99239637845837" id="-35481">
		<tag k="name" v="Munkatjørnane" />
		<tag k="natural" v="water" />
		<tag k="ssr:stedsnr" v="370065" />
		<tag k="water" v="lake" />
	</node>
	<node lat="60.68790039375656" lon="6.537426328721606" id="-35492">
		<tag k="name" v="Skjevlingstjørni" />
		<tag k="natural" v="water" />
		<tag k="ssr:stedsnr" v="370365" />
	</node>
	<node lat="60.70131388542727" lon="6.583449993080329" id="-35493">
		<tag k="name" v="Fagnastølselvi" />
		<tag k="ssr:stedsnr" v="370376" />
		<tag k="waterway" v="stream" />
	</node>
	<node lat="60.700223484019475" lon="6.525808708093774" id="-35495">
		<tag k="name" v="Nykkjatjørni" />
		<tag k="natural" v="water" />
		<tag k="ssr:stedsnr" v="370380" />
	</node>
	<node lat="60.74626944220417" lon="6.75211111834353" id="-35502">
		<tag k="name" v="Grodjuvevatnet" />
		<tag k="natural" v="water" />
		<tag k="ssr:stedsnr" v="370569" />
		<tag k="water" v="lake" />
	</node>
	<node lat="60.71730555923196" lon="6.91525000472605" id="-35505">
		<tag k="name" v="Gamlestølselvi" />
		<tag k="ssr:stedsnr" v="370581" />
		<tag k="waterway" v="river" />
	</node>
	<node lat="60.521541667991315" lon="6.076674997053328" id="-35512">
		<tag k="name" v="Osen" />
		<tag k="natural" v="bay" />
		<tag k="ssr:stedsnr" v="370810" />
	</node>
	<node lat="60.62544833745591" lon="6.823059237428579" id="-35513">
		<tag k="name" v="Trollavatnet" />
		<tag k="natural" v="water" />
		<tag k="ssr:stedsnr" v="370914" />
		<tag k="water" v="lake" />
	</node>
	<node lat="60.556737802962466" lon="6.484368794194004" id="-35520">
		<tag k="name" v="Brislingatjørni" />
		<tag k="natural" v="water" />
		<tag k="ssr:stedsnr" v="371570" />
	</node>
	<node lat="60.57622513577557" lon="6.8279251321212096" id="-35525">
		<tag k="name" v="Tjørnane" />
		<tag k="natural" v="water" />
		<tag k="ssr:stedsnr" v="371871" />
		<tag k="water" v="lake" />
	</node>
	<node lat="60.84263511431678" lon="6.5122011200740735" id="-35529">
		<tag k="name" v="Vetla Vasstjørni" />
		<tag k="natural" v="water" />
		<tag k="ssr:stedsnr" v="372567" />
	</node>
	<node lat="60.914174515098956" lon="6.491501271686355" id="-35533">
		<tag k="alt_name" v="Grungavatnet, vetle" />
		<tag k="name" v="Vetla Grungavatnet" />
		<tag k="natural" v="water" />
		<tag k="ssr:stedsnr" v="372627" />
	</node>
	<node lat="60.75161779870633" lon="6.372408989466204" id="-35539">
		<tag k="name" v="Svortetjørni" />
		<tag k="natural" v="water" />
		<tag k="ssr:stedsnr" v="372952" />
	</node>
	<node lat="60.78751388674046" lon="6.509702775567515" id="-35549">
		<tag k="name" v="Løkjelvi" />
		<tag k="ssr:stedsnr" v="384198" />
		<tag k="waterway" v="river" />
	</node>
	<node lat="60.84824999761373" lon="6.463311116565673" id="-35550">
		<tag k="name" v="Overlandsgrovi" />
		<tag k="ssr:stedsnr" v="384350" />
		<tag k="waterway" v="river" />
	</node>
	<node lat="60.669711107806954" lon="6.6009027829318825" id="-35556">
		<tag k="name" v="Jussdølo" />
		<tag k="ssr:stedsnr" v="384648" />
		<tag k="waterway" v="river" />
	</node>
	<node lat="60.68832687704621" lon="6.06110212149437" id="-35561">
		<tag k="name" v="Horgatjørni" />
		<tag k="natural" v="water" />
		<tag k="ssr:stedsnr" v="384745" />
	</node>
	<node lat="60.66453611133439" lon="6.346602783287796" id="-35563">
		<tag k="name" v="Krokane" />
		<tag k="natural" v="cape" />
		<tag k="ssr:stedsnr" v="384903" />
	</node>
	<node lat="60.661336108225846" lon="5.9070194372464275" id="-35569">
		<tag k="name" v="Rotaneset" />
		<tag k="natural" v="cape" />
		<tag k="ssr:stedsnr" v="384848" />
	</node>
	<node lat="60.632425001104636" lon="6.337980557364727" id="-35575">
		<tag k="name" v="Vekagrovi" />
		<tag k="ssr:stedsnr" v="385096" />
		<tag k="waterway" v="river" />
	</node>
	<node lat="60.724302780371204" lon="6.128052768770657" id="-35576">
		<tag k="name" v="Stølsøyni" />
		<tag k="place" v="island" />
		<tag k="ssr:stedsnr" v="385501" />
	</node>
	<node lat="60.56563888841377" lon="6.696911109239614" id="-35584">
		<tag k="name" v="Kattaråa" />
		<tag k="ssr:stedsnr" v="403786" />
		<tag k="waterway" v="river" />
	</node>
	<node lat="60.58984444849747" lon="6.800633328701247" id="-35585">
		<tag k="name" v="Kaldhusnes" />
		<tag k="natural" v="cape" />
		<tag k="ssr:stedsnr" v="403832" />
	</node>
	<node lat="60.45184722637372" lon="6.496016674346718" id="-35586">
		<tag k="loc_name" v="Urafossen" />
		<tag k="name" v="Urdafossen" />
		<tag k="natural" v="waterfall" />
		<tag k="ssr:stedsnr" v="408109" />
	</node>
	<node lat="60.580369447301756" lon="6.165669446072965" id="-35588">
		<tag k="name" v="Holmen" />
		<tag k="place" v="islet" />
		<tag k="ssr:stedsnr" v="409090" />
	</node>
	<node lat="60.69385208359785" lon="6.440340868976797" id="-35601">
		<tag k="name" v="Tjørni" />
		<tag k="natural" v="water" />
		<tag k="ssr:stedsnr" v="409439" />
	</node>
	<node lat="60.695691668305386" lon="6.477252778261356" id="-35606">
		<tag k="name" v="Lønaøyane" />
		<tag k="place" v="island" />
		<tag k="ssr:stedsnr" v="409496" />
	</node>
	<node lat="60.51165540404601" lon="6.449475416500689" id="-35611">
		<tag k="name" v="Rundatjørni" />
		<tag k="natural" v="water" />
		<tag k="ssr:stedsnr" v="409548" />
	</node>
	<node lat="60.66598888741424" lon="5.936883324853878" id="-35645">
		<tag k="name" v="Stølsgrovi" />
		<tag k="ssr:stedsnr" v="491051" />
		<tag k="waterway" v="river" />
	</node>
	<node lat="60.66208889199916" lon="5.918166675049544" id="-35646">
		<tag k="name" v="Slipetjørni" />
		<tag k="natural" v="water" />
		<tag k="ssr:stedsnr" v="491053" />
	</node>
	<node lat="60.64621666915646" lon="6.026188890156352" id="-35648">
		<tag k="name" v="Krossneset" />
		<tag k="natural" v="cape" />
		<tag k="ssr:stedsnr" v="491065" />
	</node>
	<node lat="60.65303333035223" lon="5.901477786032096" id="-35651">
		<tag k="name" v="Svartavatnet" />
		<tag k="natural" v="water" />
		<tag k="ssr:stedsnr" v="431043" />
		<tag k="water" v="lake" />
	</node>
	<node lat="60.64506944453796" lon="6.156330547969206" id="-35653">
		<tag k="name" v="Hagagrovi" />
		<tag k="ssr:stedsnr" v="431099" />
		<tag k="waterway" v="river" />
	</node>
	<node lat="60.66339166744956" lon="6.319413889094836" id="-35662">
		<tag k="name" v="Fosselvi" />
		<tag k="ssr:stedsnr" v="431324" />
		<tag k="waterway" v="river" />
	</node>
	<node lat="60.70048333650872" lon="6.4793666646689045" id="-35664">
		<tag k="name" v="Øyane" />
		<tag k="place" v="island" />
		<tag k="ssr:stedsnr" v="431348" />
	</node>
	<node lat="60.642149999795336" lon="6.276963889986026" id="-35669">
		<tag k="name" v="Demmetjørni" />
		<tag k="natural" v="water" />
		<tag k="ssr:stedsnr" v="431291" />
	</node>
	<node lat="60.57723819459892" lon="6.575965640147232" id="-35674">
		<tag k="name" v="Kyrauga" />
		<tag k="natural" v="water" />
		<tag k="ssr:stedsnr" v="431587" />
	</node>
	<node lat="60.56819835486644" lon="6.423995396967012" id="-35675">
		<tag k="name" v="Kalvatjørni" />
		<tag k="natural" v="water" />
		<tag k="ssr:stedsnr" v="431597" />
	</node>
	<node lat="60.5751705843194" lon="6.403726605397761" id="-35676">
		<tag k="name" v="Fiskatjørni" />
		<tag k="natural" v="water" />
		<tag k="ssr:stedsnr" v="431600" />
	</node>
	<node lat="60.65287500232488" lon="6.569749994808817" id="-35678">
		<tag k="name" v="Tverrbergsgrovi" />
		<tag k="ssr:stedsnr" v="431713" />
		<tag k="waterway" v="river" />
	</node>
</osm>
