<?xml version="1.0" encoding="UTF-8"?>
<osm generator="osmapis" version="0.6">
	<node id="-392368" lat="58.813697097" lon="5.72264278254">
		<tag k="name" v="Vagletunet" />
		<tag k="ssr:date" v="2019-05-30" />
		<tag k="ssr:gruppe" v="veg" />
		<tag k="ssr:hovedgruppe" v="infrastruktur" />
		<tag k="ssr:stedsnr" v="1036953" />
		<tag k="ssr:type" v="adressenavn" />
	</node>
	<node id="-392372" lat="58.9264453872" lon="5.9704456108">
		<tag k="name" v="Storasundveien" />
		<tag k="ssr:date" v="2019-05-30" />
		<tag k="ssr:gruppe" v="veg" />
		<tag k="ssr:hovedgruppe" v="infrastruktur" />
		<tag k="ssr:stedsnr" v="1036866" />
		<tag k="ssr:type" v="adressenavn" />
	</node>
	<node id="-393747" lat="58.9717333352" lon="5.87990554672">
		<tag k="name" v="Tingholmen" />
		<tag k="ssr:date" v="2016-05-11" />
		<tag k="ssr:gruppe" v="navigasjon" />
		<tag k="ssr:hovedgruppe" v="infrastruktur" />
		<tag k="ssr:stedsnr" v="729787" />
		<tag k="ssr:type" v="fyrlykt" />
	</node>
	<node id="-392395" lat="58.8273728554" lon="5.70743284292">
		<tag k="name" v="Åsetunet" />
		<tag k="ssr:date" v="2019-05-31" />
		<tag k="ssr:gruppe" v="veg" />
		<tag k="ssr:hovedgruppe" v="infrastruktur" />
		<tag k="ssr:stedsnr" v="1040390" />
		<tag k="ssr:type" v="adressenavn" />
	</node>
	<node id="-393422" lat="58.9330055536" lon="5.9929249931">
		<tag k="alt_name" v="Aspøy" />
		<tag k="name" v="Aspøy lykt" />
		<tag k="old_name" v="Aspøyna" />
		<tag k="ssr:date" v="2016-05-10" />
		<tag k="ssr:gruppe" v="navigasjon" />
		<tag k="ssr:hovedgruppe" v="infrastruktur" />
		<tag k="ssr:stedsnr" v="547735" />
		<tag k="ssr:type" v="fyrlykt" />
	</node>
	<node id="-392657" lat="58.8299644334" lon="5.72907052875">
		<tag k="name" v="Kvernsteinkroken" />
		<tag k="ssr:date" v="2019-05-30" />
		<tag k="ssr:gruppe" v="veg" />
		<tag k="ssr:hovedgruppe" v="infrastruktur" />
		<tag k="ssr:stedsnr" v="1035052" />
		<tag k="ssr:type" v="adressenavn" />
	</node>
	<node id="-392656" lat="58.8084213342" lon="5.71663790149">
		<tag k="name" v="Kjeldebakken" />
		<tag k="ssr:date" v="2019-05-30" />
		<tag k="ssr:gruppe" v="veg" />
		<tag k="ssr:hovedgruppe" v="infrastruktur" />
		<tag k="ssr:stedsnr" v="1034932" />
		<tag k="ssr:type" v="adressenavn" />
	</node>
	<node id="-392655" lat="58.8316595044" lon="5.76672010681">
		<tag k="name" v="Kodleberget" />
		<tag k="ssr:date" v="2019-05-30" />
		<tag k="ssr:gruppe" v="veg" />
		<tag k="ssr:hovedgruppe" v="infrastruktur" />
		<tag k="ssr:stedsnr" v="1034796" />
		<tag k="ssr:type" v="adressenavn" />
	</node>
	<node id="-392654" lat="58.829774921" lon="5.72694945261">
		<tag k="name" v="Jonastunet" />
		<tag k="ssr:date" v="2019-05-30" />
		<tag k="ssr:gruppe" v="veg" />
		<tag k="ssr:hovedgruppe" v="infrastruktur" />
		<tag k="ssr:stedsnr" v="1034604" />
		<tag k="ssr:type" v="adressenavn" />
	</node>
	<node id="-392653" lat="58.9104848642" lon="5.96625897725">
		<tag k="name" v="Holavigbakken" />
		<tag k="ssr:date" v="2019-05-30" />
		<tag k="ssr:gruppe" v="veg" />
		<tag k="ssr:hovedgruppe" v="infrastruktur" />
		<tag k="ssr:stedsnr" v="1032226" />
		<tag k="ssr:type" v="adressenavn" />
	</node>
	<node id="-392652" lat="58.9119997038" lon="5.96502115326">
		<tag k="name" v="Foreknuten" />
		<tag k="ssr:date" v="2019-05-30" />
		<tag k="ssr:gruppe" v="veg" />
		<tag k="ssr:hovedgruppe" v="infrastruktur" />
		<tag k="ssr:stedsnr" v="1031617" />
		<tag k="ssr:type" v="adressenavn" />
	</node>
	<node id="-392651" lat="58.7792293785" lon="5.81485811995">
		<tag k="name" v="Granlisvingen" />
		<tag k="ssr:date" v="2019-05-30" />
		<tag k="ssr:gruppe" v="veg" />
		<tag k="ssr:hovedgruppe" v="infrastruktur" />
		<tag k="ssr:stedsnr" v="1031726" />
		<tag k="ssr:type" v="adressenavn" />
	</node>
	<node id="-392650" lat="58.79937475" lon="5.77951639243">
		<tag k="name" v="Gamle Åslandsveien" />
		<tag k="ssr:date" v="2019-05-30" />
		<tag k="ssr:gruppe" v="veg" />
		<tag k="ssr:hovedgruppe" v="infrastruktur" />
		<tag k="ssr:stedsnr" v="1031534" />
		<tag k="ssr:type" v="adressenavn" />
	</node>
	<node id="-392649" lat="58.9420091549" lon="5.87339273062">
		<tag k="name" v="Espefjellveien" />
		<tag k="ssr:date" v="2019-05-30" />
		<tag k="ssr:gruppe" v="veg" />
		<tag k="ssr:hovedgruppe" v="infrastruktur" />
		<tag k="ssr:stedsnr" v="1031476" />
		<tag k="ssr:type" v="adressenavn" />
	</node>
	<node id="-392648" lat="58.8271654179" lon="5.73459477215">
		<tag k="name" v="Faksavolltunet" />
		<tag k="ssr:date" v="2019-05-30" />
		<tag k="ssr:gruppe" v="veg" />
		<tag k="ssr:hovedgruppe" v="infrastruktur" />
		<tag k="ssr:stedsnr" v="1031429" />
		<tag k="ssr:type" v="adressenavn" />
	</node>
	<node id="-392647" lat="58.9200012096" lon="5.96466789359">
		<tag k="name" v="Eskelandsveien" />
		<tag k="ssr:date" v="2019-05-30" />
		<tag k="ssr:gruppe" v="veg" />
		<tag k="ssr:hovedgruppe" v="infrastruktur" />
		<tag k="ssr:stedsnr" v="1031349" />
		<tag k="ssr:type" v="adressenavn" />
	</node>
	<node id="-392646" lat="58.8511004622" lon="5.76439137466">
		<tag k="name" v="Engrappveien" />
		<tag k="ssr:date" v="2019-05-30" />
		<tag k="ssr:gruppe" v="veg" />
		<tag k="ssr:hovedgruppe" v="infrastruktur" />
		<tag k="ssr:stedsnr" v="1030978" />
		<tag k="ssr:type" v="adressenavn" />
	</node>
	<node id="-392645" lat="58.8285218367" lon="5.74922761938">
		<tag k="name" v="Bekkedalen" />
		<tag k="ssr:date" v="2019-05-30" />
		<tag k="ssr:gruppe" v="veg" />
		<tag k="ssr:hovedgruppe" v="infrastruktur" />
		<tag k="ssr:stedsnr" v="1027916" />
		<tag k="ssr:type" v="adressenavn" />
	</node>
	<node id="-392644" lat="58.9196875901" lon="5.86483798782">
		<tag k="name" v="Bergliotstien" />
		<tag k="ssr:date" v="2019-05-30" />
		<tag k="ssr:gruppe" v="veg" />
		<tag k="ssr:hovedgruppe" v="infrastruktur" />
		<tag k="ssr:stedsnr" v="1027219" />
		<tag k="ssr:type" v="adressenavn" />
	</node>
	<node id="-392643" lat="58.8622071289" lon="5.74515439188">
		<tag k="name" v="Altonagata" />
		<tag k="ssr:date" v="2019-05-30" />
		<tag k="ssr:gruppe" v="veg" />
		<tag k="ssr:hovedgruppe" v="infrastruktur" />
		<tag k="ssr:stedsnr" v="1026072" />
		<tag k="ssr:type" v="adressenavn" />
	</node>
	<node id="-392642" lat="58.8385125623" lon="5.778940273">
		<tag k="name" v="Langaberget" />
		<tag k="ssr:date" v="2019-05-30" />
		<tag k="ssr:gruppe" v="veg" />
		<tag k="ssr:hovedgruppe" v="infrastruktur" />
		<tag k="ssr:stedsnr" v="1035241" />
		<tag k="ssr:type" v="adressenavn" />
	</node>
	<node id="-392641" lat="58.7802322095" lon="5.81292463561">
		<tag k="name" v="Granlistien" />
		<tag k="ssr:date" v="2019-05-30" />
		<tag k="ssr:gruppe" v="veg" />
		<tag k="ssr:hovedgruppe" v="infrastruktur" />
		<tag k="ssr:stedsnr" v="1031749" />
		<tag k="ssr:type" v="adressenavn" />
	</node>
	<node id="-392383" lat="58.8297222234" lon="5.72762777762">
		<tag k="name" v="Jonashagen" />
		<tag k="ssr:date" v="2019-05-30" />
		<tag k="ssr:gruppe" v="veg" />
		<tag k="ssr:hovedgruppe" v="infrastruktur" />
		<tag k="ssr:stedsnr" v="282678" />
		<tag k="ssr:type" v="adressenavn" />
	</node>
	<node id="-392510" lat="58.8126500032" lon="5.74872777038">
		<tag k="name" v="Kreklingstien" />
		<tag k="ssr:date" v="2019-05-30" />
		<tag k="ssr:gruppe" v="veg" />
		<tag k="ssr:hovedgruppe" v="infrastruktur" />
		<tag k="ssr:stedsnr" v="358547" />
		<tag k="ssr:type" v="adressenavn" />
	</node>
	<node id="-392370" lat="58.8298900338" lon="5.70650573513">
		<tag k="name" v="Rindahagen" />
		<tag k="ssr:date" v="2019-05-30" />
		<tag k="ssr:gruppe" v="veg" />
		<tag k="ssr:hovedgruppe" v="infrastruktur" />
		<tag k="ssr:stedsnr" v="1036721" />
		<tag k="ssr:type" v="adressenavn" />
	</node>
	<node id="-392378" lat="58.8304682993" lon="5.70835062512">
		<tag k="name" v="Vindmøllhagen" />
		<tag k="ssr:date" v="2019-05-30" />
		<tag k="ssr:gruppe" v="veg" />
		<tag k="ssr:hovedgruppe" v="infrastruktur" />
		<tag k="ssr:stedsnr" v="1037439" />
		<tag k="ssr:type" v="adressenavn" />
	</node>
	<node id="-392377" lat="58.8384153342" lon="5.70697894559">
		<tag k="name" v="Turkisveien" />
		<tag k="ssr:date" v="2019-05-30" />
		<tag k="ssr:gruppe" v="veg" />
		<tag k="ssr:hovedgruppe" v="infrastruktur" />
		<tag k="ssr:stedsnr" v="1037328" />
		<tag k="ssr:type" v="adressenavn" />
	</node>
	<node id="-394160" lat="60.8816104596" lon="6.30047518531">
		<tag k="name" v="Vestlandet" />
		<tag k="ssr:date" v="2019-01-06" />
		<tag k="ssr:gruppe" v="administrativeIndelinger" />
		<tag k="ssr:hovedgruppe" v="offentligAdministrasjon" />
		<tag k="ssr:stedsnr" v="974777" />
		<tag k="ssr:type" v="annenAdministrativInndeling" />
	</node>
	<node id="-392375" lat="58.8385200317" lon="5.77787159346">
		<tag k="name" v="Vedafjellveien" />
		<tag k="ssr:date" v="2019-05-30" />
		<tag k="ssr:gruppe" v="veg" />
		<tag k="ssr:hovedgruppe" v="infrastruktur" />
		<tag k="ssr:stedsnr" v="1037109" />
		<tag k="ssr:type" v="adressenavn" />
	</node>
	<node id="-392630" lat="58.8488385935" lon="5.72722869046">
		<tag k="name" v="Nygårdshøyden" />
		<tag k="ssr:date" v="2019-11-25" />
		<tag k="ssr:gruppe" v="veg" />
		<tag k="ssr:hovedgruppe" v="infrastruktur" />
		<tag k="ssr:stedsnr" v="1073506" />
		<tag k="ssr:type" v="adressenavn" />
	</node>
	<node id="-392373" lat="58.9444160037" lon="5.88710403304">
		<tag k="name" v="Søravatnet" />
		<tag k="ssr:date" v="2019-05-30" />
		<tag k="ssr:gruppe" v="veg" />
		<tag k="ssr:hovedgruppe" v="infrastruktur" />
		<tag k="ssr:stedsnr" v="1036898" />
		<tag k="ssr:type" v="adressenavn" />
	</node>
	<node id="-392374" lat="58.8052043608" lon="5.72160849637">
		<tag k="name" v="Vaglemoen" />
		<tag k="ssr:date" v="2019-05-30" />
		<tag k="ssr:gruppe" v="veg" />
		<tag k="ssr:hovedgruppe" v="infrastruktur" />
		<tag k="ssr:stedsnr" v="1036954" />
		<tag k="ssr:type" v="adressenavn" />
	</node>
	<node id="-392371" lat="58.8531835514" lon="5.74152005366">
		<tag k="name" v="Rådhusgata" />
		<tag k="ssr:date" v="2019-05-30" />
		<tag k="ssr:gruppe" v="veg" />
		<tag k="ssr:hovedgruppe" v="infrastruktur" />
		<tag k="ssr:stedsnr" v="1036754" />
		<tag k="ssr:type" v="adressenavn" />
	</node>
	<node id="-392882" lat="58.8120833325" lon="5.74765556031">
		<tag k="name" v="Mikkelsbærstien" />
		<tag k="ssr:date" v="2019-05-30" />
		<tag k="ssr:gruppe" v="veg" />
		<tag k="ssr:hovedgruppe" v="infrastruktur" />
		<tag k="ssr:stedsnr" v="116537" />
		<tag k="ssr:type" v="adressenavn" />
	</node>
	<node id="-392881" lat="58.8131638915" lon="5.73705555362">
		<tag k="name" v="Tranebærstien" />
		<tag k="ssr:date" v="2019-05-30" />
		<tag k="ssr:gruppe" v="veg" />
		<tag k="ssr:hovedgruppe" v="infrastruktur" />
		<tag k="ssr:stedsnr" v="116536" />
		<tag k="ssr:type" v="adressenavn" />
	</node>
	<node id="-392880" lat="58.8904277804" lon="5.71562221689">
		<tag k="name" v="Ålgårdsveien" />
		<tag k="ssr:date" v="2019-05-30" />
		<tag k="ssr:gruppe" v="veg" />
		<tag k="ssr:hovedgruppe" v="infrastruktur" />
		<tag k="ssr:stedsnr" v="115238" />
		<tag k="ssr:type" v="adressenavn" />
	</node>
	<node id="-392623" lat="58.8651062679" lon="5.73894789858">
		<tag k="name" v="Dirdalsgata" />
		<tag k="ssr:date" v="2019-08-27" />
		<tag k="ssr:gruppe" v="veg" />
		<tag k="ssr:hovedgruppe" v="infrastruktur" />
		<tag k="ssr:stedsnr" v="1072392" />
		<tag k="ssr:type" v="adressenavn" />
	</node>
	<node id="-392622" lat="58.8365767278" lon="5.75487666933">
		<tag k="name" v="Svebastadveien" />
		<tag k="ssr:date" v="2019-08-27" />
		<tag k="ssr:gruppe" v="veg" />
		<tag k="ssr:hovedgruppe" v="infrastruktur" />
		<tag k="ssr:stedsnr" v="1072391" />
		<tag k="ssr:type" v="adressenavn" />
	</node>
	<node id="-392621" lat="58.8411446091" lon="5.73572297946">
		<tag k="name" v="Sleipners gate" />
		<tag k="ssr:date" v="2019-08-27" />
		<tag k="ssr:gruppe" v="veg" />
		<tag k="ssr:hovedgruppe" v="infrastruktur" />
		<tag k="ssr:stedsnr" v="1072390" />
		<tag k="ssr:type" v="adressenavn" />
	</node>
	<node id="-392620" lat="58.8476419486" lon="5.72505248877">
		<tag k="name" v="Nygårdshøgda" />
		<tag k="ssr:date" v="2019-08-27" />
		<tag k="ssr:gruppe" v="veg" />
		<tag k="ssr:hovedgruppe" v="infrastruktur" />
		<tag k="ssr:stedsnr" v="1072389" />
		<tag k="ssr:type" v="adressenavn" />
	</node>
	<node id="-392619" lat="58.8667545154" lon="5.74051053768">
		<tag k="name" v="Flørliveien" />
		<tag k="ssr:date" v="2019-08-27" />
		<tag k="ssr:gruppe" v="veg" />
		<tag k="ssr:hovedgruppe" v="infrastruktur" />
		<tag k="ssr:stedsnr" v="1072388" />
		<tag k="ssr:type" v="adressenavn" />
	</node>
	<node id="-392625" lat="58.852280114" lon="5.76032669777">
		<tag k="name" v="Øygardsbakken" />
		<tag k="ssr:date" v="2019-08-27" />
		<tag k="ssr:gruppe" v="veg" />
		<tag k="ssr:hovedgruppe" v="infrastruktur" />
		<tag k="ssr:stedsnr" v="1072394" />
		<tag k="ssr:type" v="adressenavn" />
	</node>
	<node id="-392390" lat="58.9103339784" lon="5.96553564247">
		<tag k="name" v="Ørnasteinen" />
		<tag k="ssr:date" v="2019-05-30" />
		<tag k="ssr:gruppe" v="veg" />
		<tag k="ssr:hovedgruppe" v="infrastruktur" />
		<tag k="ssr:stedsnr" v="1038968" />
		<tag k="ssr:type" v="adressenavn" />
	</node>
	<node id="-392993" lat="58.8294444429" lon="5.72838333593">
		<tag k="name" v="Harahaugane" />
		<tag k="ssr:date" v="2019-05-30" />
		<tag k="ssr:gruppe" v="veg" />
		<tag k="ssr:hovedgruppe" v="infrastruktur" />
		<tag k="ssr:stedsnr" v="160676" />
		<tag k="ssr:type" v="adressenavn" />
	</node>
	<node id="-392624" lat="58.8672579554" lon="5.73909233754">
		<tag k="name" v="Flørlibakken" />
		<tag k="ssr:date" v="2019-08-27" />
		<tag k="ssr:gruppe" v="veg" />
		<tag k="ssr:hovedgruppe" v="infrastruktur" />
		<tag k="ssr:stedsnr" v="1072393" />
		<tag k="ssr:type" v="adressenavn" />
	</node>
	<node id="-392369" lat="58.8306726136" lon="5.70783374604">
		<tag k="name" v="Rinda" />
		<tag k="ssr:date" v="2019-05-30" />
		<tag k="ssr:gruppe" v="veg" />
		<tag k="ssr:hovedgruppe" v="infrastruktur" />
		<tag k="ssr:stedsnr" v="1036720" />
		<tag k="ssr:type" v="adressenavn" />
	</node>
	<node id="-392367" lat="58.8310032202" lon="5.65614571805">
		<tag k="name" v="Malminhagen" />
		<tag k="ssr:date" v="2019-05-30" />
		<tag k="ssr:gruppe" v="veg" />
		<tag k="ssr:hovedgruppe" v="infrastruktur" />
		<tag k="ssr:stedsnr" v="1036111" />
		<tag k="ssr:type" v="adressenavn" />
	</node>
	<node id="-393495" lat="58.8126805539" lon="5.73710000636">
		<tag k="name" v="Lonastien" />
		<tag k="ssr:date" v="2019-05-30" />
		<tag k="ssr:gruppe" v="veg" />
		<tag k="ssr:hovedgruppe" v="infrastruktur" />
		<tag k="ssr:stedsnr" v="601522" />
		<tag k="ssr:type" v="adressenavn" />
	</node>
	<node id="-392366" lat="58.9380220377" lon="5.87389276377">
		<tag k="name" v="Krambuneset" />
		<tag k="ssr:date" v="2019-05-30" />
		<tag k="ssr:gruppe" v="veg" />
		<tag k="ssr:hovedgruppe" v="infrastruktur" />
		<tag k="ssr:stedsnr" v="1035310" />
		<tag k="ssr:type" v="adressenavn" />
	</node>
	<node id="-392961" lat="58.847594448" lon="5.72856110977">
		<tag k="alt_name" v="Sandnes" />
		<tag k="name" v="Sandnes kommune" />
		<tag k="ssr:date" v="2017-04-04" />
		<tag k="ssr:gruppe" v="administrativeIndelinger" />
		<tag k="ssr:hovedgruppe" v="offentligAdministrasjon" />
		<tag k="ssr:stedsnr" v="144894" />
		<tag k="ssr:type" v="kommune" />
	</node>
</osm>
