<?xml version="1.0" encoding="UTF-8"?>
<osm version="0.6" generator="osmapis">
	<node id="38439792" lat="63.7648387" lon="9.8085579" version="6" timestamp="2021-10-29T06:11:26Z" changeset="113107708" uid="3497659" user="NKA">
		<tag k="alt_name" v="Botngård" />
		<tag k="name" v="Bjugn" />
		<tag k="place" v="village" />
		<tag k="population" v="1343" />
		<tag k="population:date" v="2021-01-01" />
		<tag k="ref:ssb_tettsted" v="6571" />
		<tag k="source:population" v="SSB - befolkning i tettstedet" />
		<tag k="ssr:stedsnr" v="741267" />
	</node>
	<node id="6488506112" lat="63.8667746" lon="9.8902691" version="2" timestamp="2022-01-26T07:15:22Z" changeset="116611310" uid="3497659" user="NKA">
		<tag k="junction" v="yes" />
		<tag k="name" v="Oldkrysset" />
		<tag k="ssr:stedsnr" v="273317" />
	</node>
	<node id="7289589774" lat="63.650506" lon="9.551443" version="1" timestamp="2020-03-12T20:46:20Z" changeset="82130053" uid="3497659" user="NKA" />
	<node id="7289590062" lat="63.650385" lon="9.551325" version="1" timestamp="2020-03-12T20:46:20Z" changeset="82130053" uid="3497659" user="NKA" />
	<node id="6483612567" lat="63.7691909" lon="9.7580791" version="1" timestamp="2019-05-19T10:41:05Z" changeset="70406680" uid="395141" user="Tractor" />
	<node id="6483612568" lat="63.7691393" lon="9.7582692" version="1" timestamp="2019-05-19T10:41:05Z" changeset="70406680" uid="395141" user="Tractor" />
	<node id="6483612579" lat="63.7692268" lon="9.7579675" version="1" timestamp="2019-05-19T10:41:05Z" changeset="70406680" uid="395141" user="Tractor" />
	<node id="6483613456" lat="63.7691078" lon="9.7584001" version="1" timestamp="2019-05-19T10:41:18Z" changeset="70406680" uid="395141" user="Tractor" />
	<node id="5536829391" lat="63.7640645" lon="9.8084499" version="2" timestamp="2019-05-19T11:28:05Z" changeset="70407677" uid="395141" user="Tractor" />
	<node id="6483707682" lat="63.7639452" lon="9.8083642" version="1" timestamp="2019-05-19T11:28:03Z" changeset="70407677" uid="395141" user="Tractor" />
	<node id="6483707683" lat="63.7638894" lon="9.8083141" version="1" timestamp="2019-05-19T11:28:03Z" changeset="70407677" uid="395141" user="Tractor" />
	<node id="6489250830" lat="63.8514044" lon="9.749804" version="1" timestamp="2019-05-21T19:41:42Z" changeset="70491069" uid="395141" user="Tractor" />
	<node id="6489250831" lat="63.8514542" lon="9.7495802" version="1" timestamp="2019-05-21T19:41:42Z" changeset="70491069" uid="395141" user="Tractor" />
	<node id="6489249481" lat="63.8432813" lon="9.8107256" version="1" timestamp="2019-05-21T19:41:25Z" changeset="70491069" uid="395141" user="Tractor" />
	<node id="6488989272" lat="63.843043" lon="9.8117143" version="1" timestamp="2019-05-21T18:10:48Z" changeset="70488720" uid="395141" user="Tractor" />
	<node id="6488506082" lat="63.8841571" lon="9.8535086" version="2" timestamp="2021-06-28T18:28:12Z" changeset="107104598" uid="11927357" user="Martials" />
	<node id="6488506990" lat="63.8835472" lon="9.8550818" version="2" timestamp="2021-06-28T18:28:12Z" changeset="107104598" uid="11927357" user="Martials" />
	<node id="6487918487" lat="63.8395046" lon="9.8915535" version="1" timestamp="2019-05-21T11:53:00Z" changeset="70475396" uid="395141" user="Tractor" />
	<node id="6487918648" lat="63.8396919" lon="9.891948" version="1" timestamp="2019-05-21T11:53:02Z" changeset="70475396" uid="395141" user="Tractor" />
	<node id="6488504950" lat="63.8476688" lon="9.8899827" version="1" timestamp="2019-05-21T15:44:53Z" changeset="70483557" uid="395141" user="Tractor" />
	<node id="6488510923" lat="63.8477243" lon="9.8898998" version="2" timestamp="2022-01-24T21:00:15Z" changeset="116559033" uid="3497659" user="NKA" />
	<node id="6488510924" lat="63.8477736" lon="9.8898371" version="1" timestamp="2019-05-21T15:45:40Z" changeset="70483557" uid="395141" user="Tractor" />
	<node id="6488510925" lat="63.8478201" lon="9.8897901" version="1" timestamp="2019-05-21T15:45:40Z" changeset="70483557" uid="395141" user="Tractor" />
	<node id="6488505123" lat="63.8704838" lon="9.9329716" version="1" timestamp="2019-05-21T15:44:55Z" changeset="70483557" uid="395141" user="Tractor" />
	<node id="6488505167" lat="63.8704557" lon="9.9326417" version="1" timestamp="2019-05-21T15:44:56Z" changeset="70483557" uid="395141" user="Tractor" />
	<way id="175890723" version="6" timestamp="2022-01-24T21:00:15Z" changeset="116559033" uid="3497659" user="NKA">
		<tag k="bridge" v="yes" />
		<tag k="highway" v="secondary" />
		<tag k="layer" v="1" />
		<tag k="maxspeed" v="50" />
		<tag k="name" v="Gartbrua" />
		<tag k="ref" v="6400" />
		<tag k="ssr:stedsnr" v="338933" />
		<nd ref="7289589774" />
		<nd ref="7289590062" />
	</way>
	<way id="175917274" version="4" timestamp="2022-01-24T21:00:15Z" changeset="116559033" uid="3497659" user="NKA">
		<tag k="bridge" v="yes" />
		<tag k="highway" v="primary" />
		<tag k="layer" v="1" />
		<tag k="maxheight" v="4.0" />
		<tag k="maxspeed" v="60" />
		<tag k="name" v="Jøssundbrua" />
		<tag k="ref" v="721" />
		<tag k="ssr:stedsnr" v="515604" />
		<nd ref="6489249481" />
		<nd ref="6488989272" />
	</way>
	<way id="330368131" version="4" timestamp="2022-01-24T21:00:15Z" changeset="116559033" uid="3497659" user="NKA">
		<tag k="bridge" v="yes" />
		<tag k="highway" v="primary" />
		<tag k="layer" v="1" />
		<tag k="maxspeed" v="50" />
		<tag k="name" v="Botngårdsbrua" />
		<tag k="ref" v="721" />
		<tag k="ssr:stedsnr" v="880488" />
		<nd ref="6483707683" />
		<nd ref="6483707682" />
		<nd ref="5536829391" />
	</way>
	<way id="691014545" version="2" timestamp="2022-01-24T21:00:15Z" changeset="116559033" uid="3497659" user="NKA">
		<tag k="bridge" v="yes" />
		<tag k="highway" v="primary" />
		<tag k="layer" v="1" />
		<tag k="maxspeed" v="80" />
		<tag k="name" v="Mølnargårdsbrua" />
		<tag k="ref" v="721" />
		<tag k="ssr:stedsnr" v="462991" />
		<nd ref="6483613456" />
		<nd ref="6483612568" />
		<nd ref="6483612567" />
		<nd ref="6483612579" />
	</way>
	<way id="691417426" version="2" timestamp="2022-01-24T21:00:15Z" changeset="116559033" uid="3497659" user="NKA">
		<tag k="bridge" v="yes" />
		<tag k="highway" v="primary" />
		<tag k="layer" v="1" />
		<tag k="maxspeed" v="80" />
		<tag k="name" v="Vassosbrua" />
		<tag k="ref" v="721" />
		<tag k="ssr:stedsnr" v="698559" />
		<nd ref="6487918648" />
		<nd ref="6487918487" />
	</way>
	<way id="691469868" version="2" timestamp="2022-01-24T21:00:15Z" changeset="116559033" uid="3497659" user="NKA">
		<tag k="bridge" v="yes" />
		<tag k="highway" v="secondary" />
		<tag k="layer" v="1" />
		<tag k="maxspeed" v="50" />
		<tag k="name" v="Oldbrua" />
		<tag k="ref" v="6342" />
		<tag k="ssr:stedsnr" v="30584" />
		<nd ref="6488505167" />
		<nd ref="6488505123" />
	</way>
	<way id="691469885" version="2" timestamp="2022-01-24T21:00:15Z" changeset="116559033" uid="3497659" user="NKA">
		<tag k="bridge" v="yes" />
		<tag k="highway" v="secondary" />
		<tag k="layer" v="1" />
		<tag k="maxspeed" v="50" />
		<tag k="name" v="Lysøybrua" />
		<tag k="ref" v="6344" />
		<tag k="ssr:stedsnr" v="394346" />
		<nd ref="6488506990" />
		<nd ref="6488506082" />
	</way>
	<way id="691469981" version="2" timestamp="2022-01-24T21:00:15Z" changeset="116559033" uid="3497659" user="NKA">
		<tag k="bridge" v="yes" />
		<tag k="highway" v="primary" />
		<tag k="layer" v="1" />
		<tag k="maxspeed" v="60" />
		<tag k="name" v="Teksdalsbrua" />
		<tag k="ref" v="721" />
		<tag k="ssr:stedsnr" v="38993" />
		<nd ref="6488510925" />
		<nd ref="6488510924" />
		<nd ref="6488510923" />
		<nd ref="6488504950" />
	</way>
	<way id="691520344" version="2" timestamp="2022-01-24T21:00:15Z" changeset="116559033" uid="3497659" user="NKA">
		<tag k="bridge" v="yes" />
		<tag k="highway" v="primary" />
		<tag k="layer" v="1" />
		<tag k="maxspeed" v="50" />
		<tag k="name" v="Sandnesbrua" />
		<tag k="ref" v="721" />
		<tag k="ssr:stedsnr" v="30728" />
		<nd ref="6489250831" />
		<nd ref="6489250830" />
	</way>
</osm>
