<?xml version="1.0" encoding="UTF-8"?>
<osm generator="osmapis" version="0.6">
	<node id="-10365" lat="63.4307222204" lon="8.06127778">
		<tag k="name" v="Dølden" />
		<tag k="natural" v="wetland" />
		<tag k="ssr:stedsnr" v="293517" />
	</node>
	<node id="-11896" lat="63.3732277783" lon="8.12508332778">
		<tag k="name" v="Kongsmyra" />
		<tag k="natural" v="wetland" />
		<tag k="ssr:stedsnr" v="619881" />
	</node>
	<node id="-11251" lat="63.3861694406" lon="7.87406667355">
		<tag k="name" v="Ramndalsmyra" />
		<tag k="natural" v="wetland" />
		<tag k="ssr:stedsnr" v="111391" />
	</node>
	<node id="-12002" lat="63.3792666684" lon="8.04770554757">
		<tag k="name" v="Kyssvassmyra" />
		<tag k="natural" v="wetland" />
		<tag k="ssr:stedsnr" v="779946" />
	</node>
	<node id="-11483" lat="63.3951638871" lon="7.96161110711">
		<tag k="name" v="Toppmyran" />
		<tag k="natural" v="wetland" />
		<tag k="ssr:stedsnr" v="316692" />
	</node>
	<node id="-11993" lat="63.4318277806" lon="7.90832499729">
		<tag k="name" v="Kattuggelmyra" />
		<tag k="natural" v="wetland" />
		<tag k="ssr:stedsnr" v="779311" />
	</node>
	<node id="-11736" lat="63.3453055556" lon="7.96900277111">
		<tag k="name" v="Småskogan" />
		<tag k="place" v="locality" />
		<tag k="ssr:stedsnr" v="536926" />
	</node>
	<node id="-10680" lat="63.4055722226" lon="8.03409722285">
		<tag k="name" v="Moldvassheia" />
		<tag k="place" v="locality" />
		<tag k="ssr:stedsnr" v="680707" />
	</node>
	<node id="-11726" lat="63.3620055528" lon="7.95790833451">
		<tag k="name" v="Røkmyra" />
		<tag k="natural" v="wetland" />
		<tag k="ssr:stedsnr" v="536510" />
	</node>
	<node id="-11212" lat="63.3634583316" lon="7.93198610432">
		<tag k="name" v="Røkmyran" />
		<tag k="natural" v="wetland" />
		<tag k="ssr:stedsnr" v="73861" />
	</node>
	<node id="-12107" lat="63.341352782" lon="7.94903054596">
		<tag k="name" v="Nessaplassen" />
		<tag k="place" v="locality" />
		<tag k="ssr:stedsnr" v="840540" />
	</node>
	<node id="-11723" lat="63.441216667" lon="7.97333055091">
		<tag k="name" v="Kolbergmyra" />
		<tag k="natural" v="wetland" />
		<tag k="ssr:stedsnr" v="536291" />
	</node>
	<node id="-10684" lat="63.4128444467" lon="8.01074166556">
		<tag k="name" v="Hopesingsmyra" />
		<tag k="natural" v="wetland" />
		<tag k="ssr:stedsnr" v="680721" />
	</node>
	<node id="-11832" lat="63.4281472265" lon="8.085199995">
		<tag k="name" v="Sørgård" />
		<tag k="place" v="locality" />
		<tag k="ssr:stedsnr" v="597879" />
	</node>
	<node id="-11062" lat="63.4033944448" lon="8.11335277741">
		<tag k="name" v="Lyngheia" />
		<tag k="place" v="locality" />
		<tag k="ssr:stedsnr" v="923677" />
	</node>
	<node id="-11054" lat="63.3150500029" lon="8.03061110578">
		<tag k="name" v="Dymyra" />
		<tag k="natural" v="wetland" />
		<tag k="ssr:stedsnr" v="901704" />
	</node>
	<node id="-11180" lat="63.2893305591" lon="8.04641665868">
		<tag k="name" v="Korsmyran" />
		<tag k="natural" v="wetland" />
		<tag k="ssr:stedsnr" v="51378" />
	</node>
	<node id="-10538" lat="63.3702055562" lon="8.09702500382">
		<tag k="name" v="Kongsvassmyra" />
		<tag k="natural" v="wetland" />
		<tag k="ssr:stedsnr" v="354952" />
	</node>
	<node id="-11175" lat="63.3868333353" lon="7.90263611178">
		<tag k="name" v="Kattuggelmyra" />
		<tag k="natural" v="wetland" />
		<tag k="ssr:stedsnr" v="50013" />
	</node>
	<node id="-10787" lat="63.393683332" lon="8.18366667507">
		<tag k="name" v="Tavelsteinen" />
		<tag k="natural" v="stone" />
		<tag k="ssr:stedsnr" v="597113" />
	</node>
	<node id="-10401" lat="63.3948555539" lon="7.92720833618">
		<tag k="name" v="Singsmyran" />
		<tag k="natural" v="wetland" />
		<tag k="ssr:stedsnr" v="233011" />
	</node>
	<node id="-10526" lat="63.3132194484" lon="8.04082778613">
		<tag k="name" v="Gullvardmyra" />
		<tag k="natural" v="wetland" />
		<tag k="ssr:stedsnr" v="476685" />
	</node>
	<node id="-10501" lat="63.4167444423" lon="8.03789166982">
		<tag k="name" v="Frostmyran" />
		<tag k="natural" v="wetland" />
		<tag k="ssr:stedsnr" v="475872" />
	</node>
	<node id="-10210" lat="63.3681750033" lon="8.14747223133">
		<tag k="name" v="Hyttrabben" />
		<tag k="place" v="locality" />
		<tag k="ssr:stedsnr" v="234154" />
	</node>
	<node id="-12050" lat="63.3657305551" lon="8.15444165744">
		<tag k="name" v="Lomsøymyra" />
		<tag k="natural" v="wetland" />
		<tag k="ssr:stedsnr" v="802842" />
	</node>
	<node id="-11531" lat="63.3923333324" lon="8.17489443482">
		<tag k="name" v="Vasslimyra" />
		<tag k="natural" v="wetland" />
		<tag k="ssr:stedsnr" v="354128" />
	</node>
	<node id="-11013" lat="63.4217805539" lon="7.99461665761">
		<tag k="name" v="Singsmyra" />
		<tag k="natural" v="wetland" />
		<tag k="ssr:stedsnr" v="840003" />
	</node>
</osm>
