<?xml version="1.0" encoding="UTF-8"?>
<osm version="0.6" generator="osmapis">
	<node lat="63.402088892999366" lon="7.855372216603464" id="-9551">
		<tag k="name" v="Ørnhaugvatnet" />
		<tag k="natural" v="water" />
		<tag k="ssr:stedsnr" v="232377" />
		<tag k="water" v="lake" />
	</node>
	<node lat="63.34439444734709" lon="8.019102775303665" id="-9556">
		<tag k="name" v="Teinosneset" />
		<tag k="natural" v="cape" />
		<tag k="ssr:stedsnr" v="233486" />
	</node>
	<node lat="63.37254166919013" lon="7.932663885995623" id="-9557">
		<tag k="name" v="Steintjørna" />
		<tag k="natural" v="water" />
		<tag k="ssr:stedsnr" v="233540" />
	</node>
	<node lat="63.40462777903579" lon="8.086750006805689" id="-9562">
		<tag k="name" v="Litlorta" />
		<tag k="natural" v="water" />
		<tag k="ssr:stedsnr" v="233870" />
	</node>
	<node lat="63.38840000416291" lon="7.9122916658305975" id="-9578">
		<tag k="name" v="Kattuggelvatnet" />
		<tag k="natural" v="water" />
		<tag k="ssr:stedsnr" v="50011" />
		<tag k="water" v="lake" />
	</node>
	<node lat="63.389741669142495" lon="7.869463893856124" id="-9580">
		<tag k="name" v="Øver Treldalsvatnet" />
		<tag k="natural" v="water" />
		<tag k="ssr:stedsnr" v="50401" />
		<tag k="water" v="lake" />
	</node>
	<node lat="63.423588893408194" lon="7.955002781844849" id="-9584">
		<tag k="name" v="Vester Singsvatnet" />
		<tag k="natural" v="water" />
		<tag k="ssr:stedsnr" v="51013" />
		<tag k="water" v="lake" />
	</node>
	<node lat="63.40978611153387" lon="7.953508339963354" id="-9644">
		<tag k="name" v="Mellomvatnet" />
		<tag k="natural" v="water" />
		<tag k="ssr:stedsnr" v="112013" />
		<tag k="water" v="lake" />
	</node>
	<node lat="63.38197222600495" lon="7.944111116419649" id="-9646">
		<tag k="name" v="Tverrelva" />
		<tag k="ssr:stedsnr" v="112524" />
		<tag k="waterway" v="river" />
	</node>
	<node lat="63.35711944097154" lon="7.943616673215123" id="-9675">
		<tag k="name" v="Hindåa" />
		<tag k="ssr:stedsnr" v="134856" />
		<tag k="waterway" v="stream" />
	</node>
	<node lat="63.36627500380797" lon="8.122813894212543" id="-9711">
		<tag k="fixme" v="multiple name tags, choose one and add the other to alt_name" />
		<tag k="name" v="Lebestjørna;Lebergstjørna" />
		<tag k="natural" v="water" />
		<tag k="ssr:stedsnr" v="256778" />
	</node>
	<node lat="63.36043610888288" lon="7.842116666281695" id="-9735">
		<tag k="name" v="Tuvtjørna" />
		<tag k="natural" v="water" />
		<tag k="ssr:stedsnr" v="172907" />
	</node>
	<node lat="63.45702500180847" lon="8.006261110869632" id="-9736">
		<tag k="name" v="Stortjørna" />
		<tag k="natural" v="water" />
		<tag k="ssr:stedsnr" v="173102" />
	</node>
	<node lat="63.43827500098421" lon="7.949230561276893" id="-9755">
		<tag k="name" v="Trettordbekken" />
		<tag k="ssr:stedsnr" v="232286" />
		<tag k="waterway" v="stream" />
	</node>
	<node lat="63.38838611186888" lon="7.833666670301325" id="-9757">
		<tag k="name" v="Øver Kjempegreftvatnet" />
		<tag k="natural" v="water" />
		<tag k="ssr:stedsnr" v="232290" />
		<tag k="water" v="lake" />
	</node>
	<node lat="63.36222222426143" lon="7.904450004873393" id="-9758">
		<tag k="name" v="Holbekktjørna" />
		<tag k="natural" v="water" />
		<tag k="ssr:stedsnr" v="232616" />
	</node>
	<node lat="63.37003611224169" lon="7.871297223425707" id="-9759">
		<tag k="name" v="Sørtjørna" />
		<tag k="natural" v="water" />
		<tag k="ssr:stedsnr" v="232528" />
	</node>
	<node lat="63.412438892102735" lon="7.810861113003107" id="-9761">
		<tag k="name" v="Sandtjørna" />
		<tag k="natural" v="water" />
		<tag k="ssr:stedsnr" v="232809" />
	</node>
	<node lat="63.38593889249097" lon="8.132405550561838" id="-9770">
		<tag k="name" v="Svartvatnet" />
		<tag k="natural" v="water" />
		<tag k="ssr:stedsnr" v="233107" />
		<tag k="water" v="lake" />
	</node>
	<node lat="63.34648055493269" lon="7.950611114955227" id="-9776">
		<tag k="name" v="Ner Oterbekktjørna" />
		<tag k="natural" v="water" />
		<tag k="ssr:stedsnr" v="233926" />
	</node>
	<node lat="63.42386388457373" lon="7.934130553719197" id="-9818">
		<tag k="name" v="Ørnolvatnet" />
		<tag k="natural" v="water" />
		<tag k="ssr:stedsnr" v="294009" />
		<tag k="water" v="lake" />
	</node>
	<node lat="63.453436115377556" lon="8.006430555016745" id="-9822">
		<tag k="name" v="Nørd Gulltjørna" />
		<tag k="natural" v="water" />
		<tag k="ssr:stedsnr" v="294103" />
	</node>
	<node lat="63.384688889616804" lon="7.927030560158602" id="-9829">
		<tag k="name" v="Ytter Klakkavatnet" />
		<tag k="natural" v="water" />
		<tag k="ssr:stedsnr" v="294515" />
		<tag k="water" v="lake" />
	</node>
	<node lat="63.38018611085588" lon="7.971833324028866" id="-9830">
		<tag k="name" v="Øver Fuggelvågvatnet" />
		<tag k="natural" v="water" />
		<tag k="ssr:stedsnr" v="294523" />
		<tag k="water" v="lake" />
	</node>
	<node lat="63.39514444797055" lon="7.908838881783016" id="-9862">
		<tag k="name" v="Ner Singsvatnet" />
		<tag k="natural" v="water" />
		<tag k="ssr:stedsnr" v="353014" />
		<tag k="water" v="lake" />
	</node>
	<node lat="63.35939444320435" lon="7.899322222966774" id="-9864">
		<tag k="name" v="Kvernavatnet" />
		<tag k="natural" v="water" />
		<tag k="ssr:stedsnr" v="353668" />
	</node>
	<node lat="63.426725000501065" lon="8.114574996678641" id="-9866">
		<tag k="name" v="Tverrbekken" />
		<tag k="ssr:stedsnr" v="354878" />
		<tag k="waterway" v="stream" />
	</node>
	<node lat="63.343058335552094" lon="7.9959333369422305" id="-9882">
		<tag k="name" v="Fløtjørna" />
		<tag k="natural" v="water" />
		<tag k="ssr:stedsnr" v="475924" />
	</node>
	<node lat="63.40689722139483" lon="7.796122226522929" id="-9910">
		<tag k="name" v="Maflotjørna" />
		<tag k="natural" v="water" />
		<tag k="ssr:stedsnr" v="415845" />
	</node>
	<node lat="63.35961388815395" lon="8.025605555309673" id="-9935">
		<tag k="name" v="Maurdalsbekken" />
		<tag k="ssr:stedsnr" v="438807" />
		<tag k="waterway" v="stream" />
	</node>
	<node lat="63.34312500148066" lon="7.953277777236303" id="-9953">
		<tag k="name" v="Skiftebekken" />
		<tag k="ssr:stedsnr" v="475919" />
		<tag k="waterway" v="stream" />
	</node>
	<node lat="63.35104722101571" lon="7.947344452472756" id="-9954">
		<tag k="name" v="Straumskaga" />
		<tag k="ssr:stedsnr" v="475920" />
		<tag k="waterway" v="stream" />
	</node>
	<node lat="63.38273055665369" lon="8.145272227950608" id="-9960">
		<tag k="name" v="Roksvågelva" />
		<tag k="ssr:stedsnr" v="476157" />
		<tag k="waterway" v="stream" />
	</node>
	<node lat="63.38803055744461" lon="7.860852787400244" id="-10038">
		<tag k="name" v="Ner Treldalsvatnet" />
		<tag k="natural" v="water" />
		<tag k="ssr:stedsnr" v="535418" />
		<tag k="water" v="lake" />
	</node>
	<node lat="63.413216666710255" lon="8.135463894057677" id="-10043">
		<tag k="name" v="Rokstadelva" />
		<tag k="ssr:stedsnr" v="536021" />
		<tag k="waterway" v="stream" />
	</node>
	<node lat="63.4337694469658" lon="8.130233325411602" id="-10044">
		<tag k="name" v="Eatjørna" />
		<tag k="natural" v="water" />
		<tag k="ssr:stedsnr" v="536121" />
	</node>
	<node lat="63.374183337019794" lon="7.817424992770207" id="-10047">
		<tag k="name" v="Nøkksjøen" />
		<tag k="natural" v="water" />
		<tag k="ssr:stedsnr" v="536577" />
		<tag k="water" v="lake" />
	</node>
	<node lat="63.37170833781011" lon="7.817975006802397" id="-10048">
		<tag k="name" v="Dansarvollvatnet" />
		<tag k="natural" v="water" />
		<tag k="ssr:stedsnr" v="536581" />
	</node>
	<node lat="63.42474722189723" lon="8.106944442762225" id="-10051">
		<tag k="name" v="Steintjørna" />
		<tag k="natural" v="water" />
		<tag k="ssr:stedsnr" v="536909" />
	</node>
	<node lat="63.33829722383637" lon="8.053702774250382" id="-10052">
		<tag k="name" v="Eltjørna" />
		<tag k="natural" v="water" />
		<tag k="ssr:stedsnr" v="537721" />
	</node>
	<node lat="63.42748333743738" lon="8.111727776335856" id="-10070">
		<tag k="name" v="Roksvågelva" />
		<tag k="ssr:stedsnr" v="558720" />
		<tag k="waterway" v="stream" />
	</node>
	<node lat="63.44517499620977" lon="7.967422214920384" id="-10095">
		<tag k="name" v="Kolbergtjørna" />
		<tag k="natural" v="water" />
		<tag k="ssr:stedsnr" v="596299" />
	</node>
	<node lat="63.45355277815242" lon="7.9762999981292015" id="-10101">
		<tag k="name" v="Ørntuvtjørna" />
		<tag k="natural" v="water" />
		<tag k="ssr:stedsnr" v="597105" />
	</node>
	<node lat="63.3963222255444" lon="8.186288892885626" id="-10108">
		<tag k="name" v="Aukvatnet" />
		<tag k="natural" v="water" />
		<tag k="ssr:stedsnr" v="597121" />
	</node>
	<node lat="63.37813888776634" lon="7.960944439147591" id="-10113">
		<tag k="name" v="Ner Fuggelvågvatnet" />
		<tag k="natural" v="water" />
		<tag k="ssr:stedsnr" v="597506" />
		<tag k="water" v="lake" />
	</node>
	<node lat="63.37908888546735" lon="7.946436104847132" id="-10114">
		<tag k="name" v="Fuggelvågelva" />
		<tag k="ssr:stedsnr" v="597509" />
		<tag k="waterway" v="river" />
	</node>
	<node lat="63.41060833258685" lon="8.114811120042864" id="-10135">
		<tag k="name" v="Rokstadelva" />
		<tag k="ssr:stedsnr" v="619683" />
		<tag k="waterway" v="river" />
	</node>
	<node lat="63.397080554139585" lon="7.8158722128953535" id="-10172">
		<tag k="name" v="Måstjørna" />
		<tag k="natural" v="water" />
		<tag k="ssr:stedsnr" v="656291" />
	</node>
	<node lat="63.345661109513685" lon="7.9557749976473415" id="-10179">
		<tag k="name" v="Øver Oterbekktjørna" />
		<tag k="natural" v="water" />
		<tag k="ssr:stedsnr" v="657887" />
	</node>
	<node lat="63.42650555383755" lon="7.946766662727483" id="-10181">
		<tag k="name" v="Ytter Grunnvågtjørna" />
		<tag k="natural" v="water" />
		<tag k="ssr:stedsnr" v="658007" />
	</node>
	<node lat="63.416277778145854" lon="7.915511119096309" id="-10185">
		<tag k="name" v="Røyrtjørna" />
		<tag k="natural" v="water" />
		<tag k="ssr:stedsnr" v="658001" />
	</node>
	<node lat="63.43716944602086" lon="7.9512694388196685" id="-10234">
		<tag k="name" v="Trettordvatnet" />
		<tag k="natural" v="water" />
		<tag k="ssr:stedsnr" v="718293" />
		<tag k="water" v="lake" />
	</node>
	<node lat="63.39656111406045" lon="7.829466666414514" id="-10235">
		<tag k="name" v="Sandtjørna" />
		<tag k="natural" v="water" />
		<tag k="ssr:stedsnr" v="899291" />
	</node>
	<node lat="63.38026389149361" lon="7.823463889481561" id="-10236">
		<tag k="name" v="Kråkvikvatnet" />
		<tag k="natural" v="water" />
		<tag k="ssr:stedsnr" v="718572" />
	</node>
	<node lat="63.35829444115526" lon="7.970811107051098" id="-10238">
		<tag k="name" v="Mevatnet" />
		<tag k="natural" v="water" />
		<tag k="ssr:stedsnr" v="718910" />
		<tag k="water" v="lake" />
	</node>
	<node lat="63.40216944316914" lon="8.154772213334047" id="-10243">
		<tag k="name" v="Langtjørna" />
		<tag k="natural" v="water" />
		<tag k="ssr:stedsnr" v="719377" />
	</node>
	<node lat="63.40339721983518" lon="8.152980557348075" id="-10298">
		<tag k="name" v="Langtjørnhaugen" />
		<tag k="natural" v="water" />
		<tag k="ssr:stedsnr" v="779411" />
	</node>
	<node lat="63.42812777581147" lon="8.029861103588772" id="-10301">
		<tag k="name" v="Trollfuggeltjørna" />
		<tag k="natural" v="water" />
		<tag k="ssr:stedsnr" v="779859" />
	</node>
	<node lat="63.35333333412479" lon="8.130655545973982" id="-10335">
		<tag k="alt_name" v="Nelvikvatnet" />
		<tag k="name" v="Kvernavatnet" />
		<tag k="natural" v="water" />
		<tag k="ssr:stedsnr" v="802867" />
	</node>
	<node lat="63.44381667059654" lon="8.118958341429213" id="-10339">
		<tag k="name" v="Reiråelva" />
		<tag k="ssr:stedsnr" v="802767" />
		<tag k="waterway" v="stream" />
	</node>
	<node lat="63.36053889281641" lon="8.112333331398293" id="-10383">
		<tag k="name" v="Ytterelva" />
		<tag k="ssr:stedsnr" v="923843" />
		<tag k="waterway" v="stream" />
	</node>
	<node lat="63.36314167009161" lon="7.925397216155392" id="-10387">
		<tag k="name" v="Kutjørna" />
		<tag k="natural" v="water" />
		<tag k="ssr:stedsnr" v="839675" />
	</node>
	<node lat="63.36205000424157" lon="7.883349997249056" id="-10388">
		<tag k="name" v="Litlvatnet" />
		<tag k="natural" v="water" />
		<tag k="ssr:stedsnr" v="839677" />
		<tag k="water" v="lake" />
	</node>
	<node lat="63.4220611144134" lon="7.948616664467348" id="-10431">
		<tag k="name" v="Inner Grunnvågtjørna" />
		<tag k="natural" v="water" />
		<tag k="ssr:stedsnr" v="901008" />
	</node>
	<node lat="63.3902166691914" lon="8.094222223172773" id="-10438">
		<tag k="name" v="Litlsvartvatnet" />
		<tag k="natural" v="water" />
		<tag k="ssr:stedsnr" v="901862" />
		<tag k="water" v="lake" />
	</node>
	<node lat="63.44923889322834" lon="8.038575009859898" id="-10484">
		<tag k="name" v="Inner Langhaugtjørna" />
		<tag k="natural" v="water" />
		<tag k="ssr:stedsnr" v="961510" />
	</node>
	<node lat="63.43920555932222" lon="7.972677785529668" id="-10485">
		<tag k="name" v="Kolbergvatnet" />
		<tag k="natural" v="water" />
		<tag k="ssr:stedsnr" v="961286" />
		<tag k="water" v="lake" />
	</node>
	<node lat="63.37106944603922" lon="8.15170555259436" id="-10488">
		<tag k="name" v="Guritjørna" />
		<tag k="natural" v="water" />
		<tag k="ssr:stedsnr" v="962137" />
	</node>
	<node lat="63.384138892033036" lon="8.148519446528105" id="-10563">
		<tag k="name" v="Aurebekken" />
		<tag k="ssr:stedsnr" v="13651" />
		<tag k="waterway" v="stream" />
	</node>
	<node lat="63.39485278132202" lon="7.830661120151254" id="-10593">
		<tag k="name" v="Lomtjørna" />
		<tag k="natural" v="water" />
		<tag k="ssr:stedsnr" v="50287" />
	</node>
	<node lat="63.436188886982634" lon="7.95391110910707" id="-10595">
		<tag k="name" v="Mellomvatnet" />
		<tag k="natural" v="water" />
		<tag k="ssr:stedsnr" v="51334" />
	</node>
	<node lat="63.36047221876873" lon="8.124597221650019" id="-10604">
		<tag k="name" v="Pessvatnet" />
		<tag k="natural" v="water" />
		<tag k="ssr:stedsnr" v="51939" />
	</node>
	<node lat="63.43982777934784" lon="8.094352784938499" id="-10656">
		<tag k="name" v="Auster Aurehaugtjørna" />
		<tag k="natural" v="water" />
		<tag k="ssr:stedsnr" v="106324" />
	</node>
	<node lat="63.37330555754568" lon="7.841152775487338" id="-10660">
		<tag k="name" v="Sør Hjellbergvatnet" />
		<tag k="natural" v="water" />
		<tag k="ssr:stedsnr" v="111558" />
		<tag k="water" v="lake" />
	</node>
	<node lat="63.36853889332021" lon="7.837924992732506" id="-10662">
		<tag k="name" v="Sandtjørna" />
		<tag k="natural" v="water" />
		<tag k="ssr:stedsnr" v="111561" />
	</node>
	<node lat="63.31235555749271" lon="8.05103055974144" id="-10668">
		<tag k="name" v="Nørdholmtjørna" />
		<tag k="natural" v="water" />
		<tag k="ssr:stedsnr" v="112688" />
	</node>
	<node lat="63.38847499802541" lon="8.116099998061042" id="-10671">
		<tag k="name" v="Harabekken" />
		<tag k="ssr:stedsnr" v="112847" />
		<tag k="waterway" v="stream" />
	</node>
	<node lat="63.421850000403445" lon="8.01358055024837" id="-10672">
		<tag k="name" v="Jakopvassbekken" />
		<tag k="ssr:stedsnr" v="112854" />
		<tag k="waterway" v="stream" />
	</node>
	<node lat="63.38528055448892" lon="7.83116388521283" id="-10749">
		<tag k="name" v="Ner Kjempegreftvatnet" />
		<tag k="natural" v="water" />
		<tag k="ssr:stedsnr" v="171275" />
		<tag k="water" v="lake" />
	</node>
	<node lat="63.44401667027348" lon="8.02998333365815" id="-10756">
		<tag k="name" v="Skulhaugtjørna" />
		<tag k="natural" v="water" />
		<tag k="ssr:stedsnr" v="172542" />
	</node>
	<node lat="63.368705553326286" lon="7.92231111994334" id="-10757">
		<tag k="name" v="Andskottjørna" />
		<tag k="natural" v="water" />
		<tag k="ssr:stedsnr" v="172548" />
	</node>
	<node lat="63.38378055149072" lon="7.904147217640327" id="-10758">
		<tag k="name" v="Rørtjørna" />
		<tag k="natural" v="water" />
		<tag k="ssr:stedsnr" v="172551" />
	</node>
	<node lat="63.37307778181926" lon="7.949405547300346" id="-10759">
		<tag k="name" v="Ytter Røkvatnet" />
		<tag k="natural" v="water" />
		<tag k="ssr:stedsnr" v="172552" />
		<tag k="water" v="lake" />
	</node>
	<node lat="63.40578611441436" lon="8.083174998238212" id="-10763">
		<tag k="name" v="Stororta" />
		<tag k="natural" v="water" />
		<tag k="ssr:stedsnr" v="172887" />
	</node>
	<node lat="63.393475001228126" lon="7.818102769238108" id="-10861">
		<tag k="name" v="Steintjørna" />
		<tag k="natural" v="water" />
		<tag k="ssr:stedsnr" v="292268" />
	</node>
	<node lat="63.36471110959514" lon="7.922036104514448" id="-10870">
		<tag k="name" v="Husmannstjørna" />
		<tag k="natural" v="water" />
		<tag k="ssr:stedsnr" v="294590" />
	</node>
	<node lat="63.33322500046121" lon="7.9925361168616496" id="-10871">
		<tag k="name" v="Rangvågtjørna" />
		<tag k="natural" v="water" />
		<tag k="ssr:stedsnr" v="294557" />
	</node>
	<node lat="63.396861113648896" lon="8.101897229711026" id="-10873">
		<tag k="name" v="Litlvasskaget" />
		<tag k="natural" v="cape" />
		<tag k="ssr:stedsnr" v="294853" />
	</node>
	<node lat="63.4471027764395" lon="8.10674444576219" id="-10951">
		<tag k="name" v="Grøntjørna" />
		<tag k="natural" v="water" />
		<tag k="ssr:stedsnr" v="348329" />
	</node>
	<node lat="63.40748611205473" lon="7.797349995976331" id="-10962">
		<tag k="name" v="Sjøtjørna" />
		<tag k="natural" v="water" />
		<tag k="ssr:stedsnr" v="354827" />
	</node>
	<node lat="63.410827777904984" lon="7.807069444428248" id="-10963">
		<tag k="name" v="Høgdalstjørna" />
		<tag k="natural" v="water" />
		<tag k="ssr:stedsnr" v="354829" />
	</node>
	<node lat="63.42243333323471" lon="8.023805548398574" id="-10965">
		<tag k="name" v="Jakopvatnet" />
		<tag k="natural" v="water" />
		<tag k="ssr:stedsnr" v="354862" />
		<tag k="water" v="lake" />
	</node>
	<node lat="63.449500000412776" lon="8.035366661002275" id="-11044">
		<tag k="name" v="Ytter Langhaugtjørna" />
		<tag k="natural" v="water" />
		<tag k="ssr:stedsnr" v="415474" />
	</node>
	<node lat="63.38350277988956" lon="7.8237194430074855" id="-11049">
		<tag k="name" v="Jamtvatnet" />
		<tag k="natural" v="water" />
		<tag k="ssr:stedsnr" v="415595" />
	</node>
	<node lat="63.36599166769555" lon="7.916119438747565" id="-11050">
		<tag k="name" v="Nøkktjørna" />
		<tag k="natural" v="water" />
		<tag k="ssr:stedsnr" v="415604" />
	</node>
	<node lat="63.42398888851404" lon="8.078655553469858" id="-11053">
		<tag k="name" v="Krustjørna" />
		<tag k="natural" v="water" />
		<tag k="ssr:stedsnr" v="415900" />
	</node>
	<node lat="63.40983888501481" lon="8.066499996152633" id="-11054">
		<tag k="name" v="Stakabekken" />
		<tag k="ssr:stedsnr" v="415924" />
		<tag k="waterway" v="stream" />
	</node>
	<node lat="63.45502500381233" lon="8.093897221399272" id="-11056">
		<tag k="name" v="Tverrbekken" />
		<tag k="ssr:stedsnr" v="416022" />
		<tag k="waterway" v="stream" />
	</node>
	<node lat="63.37947221885463" lon="7.967400000273163" id="-11075">
		<tag k="name" v="Fuglvågvatna" />
		<tag k="natural" v="water" />
		<tag k="ssr:stedsnr" v="437823" />
	</node>
	<node lat="63.37242777880728" lon="7.933333339101236" id="-11134">
		<tag k="name" v="Røkhaugvatna" />
		<tag k="natural" v="water" />
		<tag k="ssr:stedsnr" v="498884" />
	</node>
	<node lat="63.32175555358965" lon="7.814055556069049" id="-11150">
		<tag k="name" v="Flattjørna" />
		<tag k="natural" v="water" />
		<tag k="ssr:stedsnr" v="522653" />
	</node>
	<node lat="63.3960861097095" lon="7.818372230286114" id="-11153">
		<tag k="name" v="Måsvatnet" />
		<tag k="natural" v="water" />
		<tag k="ssr:stedsnr" v="535301" />
		<tag k="water" v="lake" />
	</node>
	<node lat="63.36124444341975" lon="7.899930546839536" id="-11154">
		<tag k="name" v="Svålåtjørna" />
		<tag k="natural" v="water" />
		<tag k="ssr:stedsnr" v="535659" />
	</node>
	<node lat="63.42202777822369" lon="7.955566667311842" id="-11160">
		<tag k="name" v="Auster Singsvatnet" />
		<tag k="natural" v="water" />
		<tag k="ssr:stedsnr" v="536015" />
		<tag k="water" v="lake" />
	</node>
	<node lat="63.40078611303273" lon="8.13693332745911" id="-11162">
		<tag k="name" v="Kalddalsvatnet" />
		<tag k="natural" v="water" />
		<tag k="ssr:stedsnr" v="536404" />
		<tag k="water" v="lake" />
	</node>
	<node lat="63.38142499837008" lon="8.134175003538589" id="-11189">
		<tag k="name" v="Aurevatnet" />
		<tag k="natural" v="water" />
		<tag k="ssr:stedsnr" v="558875" />
	</node>
	<node lat="63.373313887379766" lon="8.165158331768136" id="-11191">
		<tag k="name" v="Teinoselva" />
		<tag k="ssr:stedsnr" v="558886" />
		<tag k="waterway" v="river" />
	</node>
	<node lat="63.328383335429486" lon="8.027661119385183" id="-11204">
		<tag k="name" v="Sandvatnet" />
		<tag k="natural" v="water" />
		<tag k="ssr:stedsnr" v="558820" />
	</node>
	<node lat="63.435944445953716" lon="8.086319438868927" id="-11237">
		<tag k="name" v="Vester Aurehaugtjørna" />
		<tag k="natural" v="water" />
		<tag k="ssr:stedsnr" v="591295" />
	</node>
	<node lat="63.36196111012512" lon="7.828438897601988" id="-11241">
		<tag k="name" v="Ostjørna" />
		<tag k="natural" v="water" />
		<tag k="ssr:stedsnr" v="596899" />
	</node>
	<node lat="63.433702780548494" lon="8.123422217372722" id="-11302">
		<tag k="name" v="Raundvardtjørna" />
		<tag k="natural" v="water" />
		<tag k="ssr:stedsnr" v="652381" />
	</node>
	<node lat="63.3577361135126" lon="7.915394448276539" id="-11306">
		<tag k="name" v="Eid" />
		<tag k="place" v="locality" />
		<tag k="ssr:stedsnr" v="656702" />
	</node>
	<node lat="63.438866664368085" lon="7.998830564713412" id="-11310">
		<tag k="name" v="Steintjørna" />
		<tag k="natural" v="water" />
		<tag k="ssr:stedsnr" v="657302" />
	</node>
	<node lat="63.400800003853035" lon="7.847091664321316" id="-11311">
		<tag k="name" v="Grønholvatnet" />
		<tag k="natural" v="water" />
		<tag k="ssr:stedsnr" v="657447" />
		<tag k="water" v="lake" />
	</node>
	<node lat="63.37338611258423" lon="7.813483325528869" id="-11313">
		<tag k="name" v="Stortjørna" />
		<tag k="natural" v="water" />
		<tag k="ssr:stedsnr" v="657581" />
	</node>
	<node lat="63.42052222354816" lon="8.081916657084111" id="-11316">
		<tag k="name" v="Rokstadtjørna" />
		<tag k="natural" v="water" />
		<tag k="ssr:stedsnr" v="657854" />
	</node>
	<node lat="63.36209166630682" lon="7.846083328547894" id="-11317">
		<tag k="name" v="Otertjørna" />
		<tag k="natural" v="water" />
		<tag k="ssr:stedsnr" v="657874" />
	</node>
	<node lat="63.33956111378371" lon="7.967727767883462" id="-11325">
		<tag k="name" v="Rundhaugvatnet" />
		<tag k="natural" v="water" />
		<tag k="ssr:stedsnr" v="658544" />
		<tag k="water" v="lake" />
	</node>
	<node lat="63.345686114594784" lon="8.026213881314568" id="-11334">
		<tag k="name" v="Teinosen" />
		<tag k="natural" v="bay" />
		<tag k="ssr:stedsnr" v="718459" />
	</node>
	<node lat="63.32761666958867" lon="7.979522220303314" id="-11357">
		<tag k="name" v="Steinvatnet" />
		<tag k="natural" v="water" />
		<tag k="ssr:stedsnr" v="740767" />
	</node>
	<node lat="63.377358330800114" lon="7.810344436539387" id="-11403">
		<tag k="name" v="Korsvollvatnet" />
		<tag k="natural" v="water" />
		<tag k="ssr:stedsnr" v="764585" />
		<tag k="water" v="lake" />
	</node>
	<node lat="63.45813333209148" lon="7.994197218271151" id="-11416">
		<tag k="name" v="Fløtjørna" />
		<tag k="natural" v="water" />
		<tag k="ssr:stedsnr" v="779088" />
	</node>
	<node lat="63.428505553641344" lon="7.986513893922285" id="-11418">
		<tag k="name" v="Hopaelva" />
		<tag k="ssr:stedsnr" v="779297" />
		<tag k="waterway" v="river" />
	</node>
	<node lat="63.37274722560013" lon="8.04978055346515" id="-11455">
		<tag k="name" v="Svartvatnet" />
		<tag k="natural" v="water" />
		<tag k="ssr:stedsnr" v="802893" />
	</node>
	<node lat="63.391222220708954" lon="8.193375007082297" id="-11464">
		<tag k="name" v="Vassdya" />
		<tag k="natural" v="water" />
		<tag k="ssr:stedsnr" v="802688" />
	</node>
	<node lat="63.44619999990131" lon="8.024405547217437" id="-11494">
		<tag k="name" v="Aratjørna" />
		<tag k="natural" v="water" />
		<tag k="ssr:stedsnr" v="840509" />
	</node>
	<node lat="63.37953055846487" lon="7.924613883270064" id="-11495">
		<tag k="name" v="Innder Klakkavatnet" />
		<tag k="natural" v="water" />
		<tag k="ssr:stedsnr" v="840514" />
		<tag k="water" v="lake" />
	</node>
	<node lat="63.38318055889421" lon="8.076994438705096" id="-11503">
		<tag k="name" v="Kongsvasstjørnen" />
		<tag k="natural" v="water" />
		<tag k="ssr:stedsnr" v="840952" />
	</node>
	<node lat="63.39587777885819" lon="7.8427333367503245" id="-11588">
		<tag k="name" v="Kvernavatnet" />
		<tag k="natural" v="water" />
		<tag k="ssr:stedsnr" v="947005" />
		<tag k="water" v="lake" />
	</node>
	<node lat="63.43614722339356" lon="8.119694452865726" id="-11599">
		<tag k="name" v="Eatjørna" />
		<tag k="natural" v="water" />
		<tag k="ssr:stedsnr" v="955421" />
	</node>
	<node lat="63.315661114189325" lon="8.041674993888352" id="-11601">
		<tag k="name" v="Aravatnet" />
		<tag k="natural" v="water" />
		<tag k="ssr:stedsnr" v="961727" />
	</node>
	<node lat="63.451036115313066" lon="7.997463882906683" id="-11603">
		<tag k="name" v="Sør Gulltjørna" />
		<tag k="natural" v="water" />
		<tag k="ssr:stedsnr" v="961074" />
	</node>
	<node lat="63.355416665675826" lon="8.020719443382355" id="-11606">
		<tag k="name" v="Tverrbekken" />
		<tag k="ssr:stedsnr" v="961461" />
		<tag k="waterway" v="stream" />
	</node>
	<node lat="63.34340000207697" lon="7.967413888322182" id="-11610">
		<tag k="name" v="Langvatnet" />
		<tag k="natural" v="water" />
		<tag k="ssr:stedsnr" v="961933" />
		<tag k="water" v="lake" />
	</node>
	<node lat="63.41563055231956" lon="7.865991669554614" id="-11614">
		<tag k="name" v="Lomtjørna" />
		<tag k="natural" v="water" />
		<tag k="ssr:stedsnr" v="961861" />
	</node>
</osm>
