<?xml version="1.0" encoding="UTF-8"?>
<osm version="0.6" generator="osmapis">
	<node lat="63.51940277962216" lon="7.953763881861479" id="-5822">
		<tag k="name" v="Ny Jord" />
		<tag k="place" v="locality" />
		<tag k="ssr:stedsnr" v="268961" />
	</node>
	<node lat="63.46591666984705" lon="8.013322227073033" id="-5900">
		<tag k="amenity" v="place_of_worship" />
		<tag k="denomination" v="lutheran" />
		<tag k="name" v="Hopen" />
		<tag k="religion" v="christian" />
		<tag k="ssr:stedsnr" v="476003" />
	</node>
	<node lat="63.51799444800478" lon="7.953936106997823" id="-5918">
		<tag k="name" v="Femminuttplana" />
		<tag k="place" v="locality" />
		<tag k="ssr:stedsnr" v="389917" />
	</node>
	<node lat="63.33398967913051" lon="8.065555844248918" id="-5947">
		<tag k="amenity" v="place_of_worship" />
		<tag k="denomination" v="lutheran" />
		<tag k="name" v="Edøy" />
		<tag k="religion" v="christian" />
		<tag k="ssr:stedsnr" v="437755" />
	</node>
	<node lat="63.51918598737044" lon="7.9567617930415" id="-6663">
		<tag k="name" v="Brenneriet" />
		<tag k="place" v="locality" />
		<tag k="ssr:stedsnr" v="86956" />
	</node>
	<node lat="63.40650833284119" lon="7.805358343069584" id="-7127">
		<tag k="amenity" v="place_of_worship" />
		<tag k="denomination" v="lutheran" />
		<tag k="name" v="Brattvær" />
		<tag k="religion" v="christian" />
		<tag k="ssr:stedsnr" v="497639" />
	</node>
	<node lat="63.28558888839658" lon="8.131541662350138" id="-7181">
		<tag k="amenity" v="place_of_worship" />
		<tag k="denomination" v="lutheran" />
		<tag k="name" v="Edøy" />
		<tag k="religion" v="christian" />
		<tag k="ssr:stedsnr" v="536739" />
	</node>
	<node lat="63.518063891125" lon="7.953452780617075" id="-7309">
		<tag k="name" v="Sanden" />
		<tag k="ssr:stedsnr" v="631949" />
		<tag k="tourism" v="museum" />
	</node>
	<node lat="63.51864444431196" lon="7.950908324469189" id="-7415">
		<tag k="amenity" v="community_centre" />
		<tag k="name" v="Baptisthuset" />
		<tag k="ssr:stedsnr" v="753875" />
	</node>
</osm>
