<?xml version="1.0" encoding="UTF-8"?>
<osm version="0.6" generator="osmapis">
	<node lat="63.477108329896986" lon="7.992413886593068" id="-9789">
		<tag k="bridge" v="yes" />
		<tag k="layer" v="1" />
		<tag k="name" v="Verjeskiftbrua" />
		<tag k="ssr:stedsnr" v="91709" />
	</node>
	<node lat="63.4304749978076" lon="8.143644450259785" id="-9790">
		<tag k="bridge" v="yes" />
		<tag k="layer" v="1" />
		<tag k="name" v="Buktabrua" />
		<tag k="ssr:stedsnr" v="91767" />
	</node>
	<node lat="63.51669166664701" lon="7.9580111048773805" id="-9870">
		<tag k="bridge" v="yes" />
		<tag k="layer" v="1" />
		<tag k="name" v="Lissbrua" />
		<tag k="ssr:stedsnr" v="152715" />
	</node>
	<node lat="63.458713887339016" lon="8.027511112019974" id="-9871">
		<tag k="bridge" v="yes" />
		<tag k="layer" v="1" />
		<tag k="name" v="Austre Hopabrua" />
		<tag k="ssr:stedsnr" v="152763" />
	</node>
	<node lat="63.5184305553188" lon="7.9557499951292945" id="-9942">
		<tag k="landuse" v="harbour" />
		<tag k="name" v="Hamna" />
		<tag k="seamark:type" v="harbour" />
		<tag k="ssr:stedsnr" v="450934" />
	</node>
	<node lat="63.516149997393406" lon="7.956952768214153" id="-9943">
		<tag k="bridge" v="yes" />
		<tag k="layer" v="1" />
		<tag k="name" v="Langbrua" />
		<tag k="ssr:stedsnr" v="455676" />
	</node>
	<node lat="63.304869440948316" lon="8.093855554623511" id="-9944">
		<tag k="bridge" v="yes" />
		<tag k="layer" v="1" />
		<tag k="name" v="Hestøysundbrua" />
		<tag k="ssr:stedsnr" v="455833" />
	</node>
	<node lat="63.3814361121385" lon="8.104627783243135" id="-10039">
		<tag k="ford" v="yes" />
		<tag k="name" v="Kongsvadet" />
		<tag k="place" v="locality" />
		<tag k="ssr:stedsnr" v="475977" />
	</node>
	<node lat="63.50471111483151" lon="7.974697213483386" id="-10192">
		<tag k="bridge" v="yes" />
		<tag k="layer" v="1" />
		<tag k="name" v="Larsbrua" />
		<tag k="ssr:stedsnr" v="516676" />
	</node>
	<node lat="63.52089318272171" lon="7.9511021287023" id="-10244">
		<tag k="man_made" v="breakwater" />
		<tag k="name" v="Moloen" />
		<tag k="place" v="locality" />
		<tag k="ssr:stedsnr" v="571941" />
	</node>
	<node lat="63.39156944674423" lon="7.822180556333241" id="-10382">
		<tag k="bridge" v="yes" />
		<tag k="layer" v="1" />
		<tag k="name" v="Skomsøyvågbrua" />
		<tag k="ssr:stedsnr" v="698807" />
	</node>
	<node lat="63.310133329196745" lon="8.060688897062397" id="-10383">
		<tag k="bridge" v="yes" />
		<tag k="layer" v="1" />
		<tag k="name" v="Dampleibrua" />
		<tag k="ssr:stedsnr" v="698821" />
	</node>
	<node lat="63.28704722115815" lon="8.1344972269018" id="-10398">
		<tag k="fixme" v="verify maritime location" />
		<tag k="mooring" v="yes" />
		<tag k="name" v="Klokkarstøa" />
		<tag k="place" v="locality" />
		<tag k="ssr:stedsnr" v="718708" />
	</node>
	<node lat="63.336791669053966" lon="8.094186114175825" id="-10452">
		<tag k="bridge" v="yes" />
		<tag k="layer" v="1" />
		<tag k="name" v="Straumabrua" />
		<tag k="ssr:stedsnr" v="758756" />
	</node>
	<node lat="63.518111114375905" lon="7.956283338598957" id="-10502">
		<tag k="man_made" v="quay" />
		<tag k="name" v="Vasskaia" />
		<tag k="place" v="locality" />
		<tag k="ssr:stedsnr" v="814930" />
	</node>
	<node lat="63.37874166882587" lon="7.944400003373547" id="-10902">
		<tag k="bridge" v="yes" />
		<tag k="layer" v="1" />
		<tag k="name" v="Fuglvågbrua" />
		<tag k="ssr:stedsnr" v="151843" />
	</node>
	<node lat="63.40953333078716" lon="7.9227027777157035" id="-10934">
		<tag k="landuse" v="industrial" />
		<tag k="name" v="Smøla vindpark" />
		<tag k="power" v="plant" />
		<tag k="ssr:stedsnr" v="174683" />
	</node>
	<node lat="63.46180833639362" lon="7.996552768519363" id="-10997">
		<tag k="bridge" v="yes" />
		<tag k="layer" v="1" />
		<tag k="name" v="Kvalpøybrua" />
		<tag k="ssr:stedsnr" v="213717" />
	</node>
	<node lat="63.32336110946458" lon="8.046949998406697" id="-11010">
		<tag k="bridge" v="yes" />
		<tag k="layer" v="1" />
		<tag k="name" v="Kallarsundbrua" />
		<tag k="ssr:stedsnr" v="273851" />
	</node>
	<node lat="63.35696111233302" lon="7.942458336123806" id="-11011">
		<tag k="bridge" v="yes" />
		<tag k="layer" v="1" />
		<tag k="name" v="Hinnåbrua" />
		<tag k="ssr:stedsnr" v="273852" />
	</node>
	<node lat="63.51999444110924" lon="7.948958331452849" id="-11097">
		<tag k="man_made" v="quay" />
		<tag k="name" v="Rødvingbrygga" />
		<tag k="place" v="locality" />
		<tag k="ssr:stedsnr" v="328880" />
	</node>
	<node lat="63.520230557362154" lon="7.9536361166557965" id="-11187">
		<tag k="man_made" v="quay" />
		<tag k="name" v="Dampkaia" />
		<tag k="place" v="locality" />
		<tag k="ssr:stedsnr" v="389876" />
	</node>
	<node lat="63.45872222670651" lon="8.027272221755746" id="-11189">
		<tag k="bridge" v="yes" />
		<tag k="layer" v="1" />
		<tag k="name" v="Vestre Hopabrua" />
		<tag k="ssr:stedsnr" v="394739" />
	</node>
	<node lat="63.39081111119667" lon="8.165544445826313" id="-11190">
		<tag k="bridge" v="yes" />
		<tag k="layer" v="1" />
		<tag k="name" v="Indre Roksvågbrua" />
		<tag k="ssr:stedsnr" v="394748" />
	</node>
	<node lat="63.296136114635786" lon="8.114797216167263" id="-11307">
		<tag k="bridge" v="yes" />
		<tag k="layer" v="1" />
		<tag k="name" v="Kulisvabrua" />
		<tag k="ssr:stedsnr" v="516186" />
	</node>
	<node lat="63.39369721924495" lon="7.813238898798765" id="-11313">
		<tag k="bridge" v="yes" />
		<tag k="layer" v="1" />
		<tag k="name" v="Litlbrua" />
		<tag k="ssr:stedsnr" v="535297" />
	</node>
	<node lat="63.372497221075754" lon="7.83818888148736" id="-11559">
		<tag k="bridge" v="yes" />
		<tag k="layer" v="1" />
		<tag k="name" v="Hjellbergbrua" />
		<tag k="ssr:stedsnr" v="758836" />
	</node>
	<node lat="63.28630035356259" lon="8.136906757933463" id="-11560">
		<tag k="alt_name" v="Edøy ferjekai" />
		<tag k="amenity" v="ferry_terminal" />
		<tag k="name" v="Edøya ferjekai" />
		<tag k="ssr:stedsnr" v="762325" />
	</node>
	<node lat="63.31687587367653" lon="8.227514422156451" id="-11900">
		<tag k="name" v="Kattholmflaket" />
		<tag k="place" v="locality" />
		<tag k="ssr:stedsnr" v="1078741" />
	</node>
</osm>
