<?xml version="1.0" encoding="UTF-8"?>
<<<<<<< HEAD
<osm version="0.6" generator="osmapis">
	<node lat="63.35603889115012" lon="7.982891662332743" id="-6892">
		<tag k="name" v="Bærskardhaugen" />
		<tag k="natural" v="hill" />
		<tag k="place" v="locality" />
		<tag k="ssr:stedsnr" v="13828" />
	</node>
	<node lat="63.40343611123439" lon="7.861311119897445" id="-6894">
		<tag k="name" v="Vester Kløfthaugen" />
		<tag k="natural" v="hill" />
		<tag k="place" v="locality" />
		<tag k="ssr:stedsnr" v="232379" />
	</node>
	<node lat="63.39513889170523" lon="7.861263879710671" id="-6895">
		<tag k="name" v="Merradalshaugen" />
		<tag k="natural" v="hill" />
		<tag k="place" v="locality" />
		<tag k="ssr:stedsnr" v="232376" />
	</node>
	<node lat="63.42150833008917" lon="7.9106805627318115" id="-6897">
		<tag k="name" v="Rognberget" />
		<tag k="natural" v="hill" />
		<tag k="place" v="locality" />
		<tag k="ssr:stedsnr" v="233001" />
	</node>
	<node lat="63.39721944597162" lon="8.124041675175372" id="-6906">
		<tag k="name" v="Langdalen" />
		<tag k="natural" v="valley" />
		<tag k="place" v="locality" />
		<tag k="ssr:stedsnr" v="233868" />
	</node>
	<node lat="63.402688885747644" lon="8.095133324796347" id="-6908">
		<tag k="name" v="Litlvasshaugen" />
		<tag k="natural" v="hill" />
		<tag k="place" v="locality" />
		<tag k="ssr:stedsnr" v="233872" />
	</node>
	<node lat="63.362130555564484" lon="8.172880558366131" id="-6911">
		<tag k="name" v="Pikvarden" />
		<tag k="natural" v="hill" />
		<tag k="place" v="locality" />
		<tag k="ssr:stedsnr" v="234213" />
	</node>
	<node lat="63.39294722551481" lon="7.865624996358825" id="-6926">
		<tag k="name" v="Snaphaugen" />
		<tag k="natural" v="hill" />
		<tag k="place" v="locality" />
		<tag k="ssr:stedsnr" v="50402" />
	</node>
	<node lat="63.42711389138487" lon="7.9234444350007065" id="-6928">
		<tag k="name" v="Ørnvarden" />
		<tag k="natural" v="hill" />
		<tag k="place" v="locality" />
		<tag k="ssr:stedsnr" v="51007" />
	</node>
	<node lat="63.3952999969884" lon="8.12949999165698" id="-6931">
		<tag k="name" v="Ånvassrabben" />
=======
<osm generator="osmapis" version="0.6">
	<node id="-93184" lat="63.4012055581" lon="7.85688889147">
		<tag k="name" v="Ørnhaugen" />
		<tag k="natural" v="hill" />
		<tag k="place" v="locality" />
		<tag k="ssr:stedsnr" v="778413" />
	</node>
	<node id="-93182" lat="63.4301277749" lon="8.10623055489">
		<tag k="name" v="Svarturda" />
		<tag k="natural" v="hill" />
		<tag k="place" v="locality" />
		<tag k="ssr:stedsnr" v="773412" />
	</node>
	<node id="-91818" lat="63.4124444413" lon="7.99200276817">
		<tag k="name" v="Pilskrokhaugen" />
		<tag k="natural" v="hill" />
		<tag k="place" v="locality" />
		<tag k="ssr:stedsnr" v="658002" />
	</node>
	<node id="-91641" lat="63.3966611115" lon="7.83645554746">
		<tag k="name" v="Teinhaugen" />
		<tag k="natural" v="hill" />
		<tag k="place" v="locality" />
		<tag k="ssr:stedsnr" v="461011" />
	</node>
	<node id="-92660" lat="63.3034527743" lon="8.10218054825">
		<tag k="name" v="Tittinghaugen" />
		<tag k="natural" v="hill" />
		<tag k="place" v="locality" />
		<tag k="ssr:stedsnr" v="315951" />
	</node>
	<node id="-91731" lat="63.3942722255" lon="7.88512499258">
		<tag k="name" v="Vistillen" />
		<tag k="natural" v="hill" />
		<tag k="place" v="locality" />
		<tag k="ssr:stedsnr" v="353013" />
	</node>
	<node id="-91986" lat="63.3861388854" lon="8.16654167675">
		<tag k="name" v="Ytter Åndalstuva" />
		<tag k="natural" v="hill" />
		<tag k="place" v="locality" />
		<tag k="ssr:stedsnr" v="597117" />
	</node>
	<node id="-92583" lat="63.4588777754" lon="8.00810278159">
		<tag k="name" v="Hopadalen" />
		<tag k="natural" v="valley" />
		<tag k="place" v="locality" />
		<tag k="ssr:stedsnr" v="173003" />
	</node>
	<node id="-92135" lat="63.366563891" lon="8.18493888273">
		<tag k="name" v="Marithaugen" />
>>>>>>> e1d4bc35ff8a6074a6f2e91616a996b547c36f15
		<tag k="natural" v="hill" />
		<tag k="place" v="locality" />
		<tag k="ssr:stedsnr" v="780132" />
	</node>
<<<<<<< HEAD
	<node lat="63.391336110485796" lon="8.140697226191403" id="-6932">
		<tag k="name" v="Eiriktjørnhaugen" />
		<tag k="natural" v="hill" />
		<tag k="place" v="locality" />
		<tag k="ssr:stedsnr" v="51120" />
	</node>
	<node lat="63.42804166275044" lon="8.10342777586737" id="-6937">
		<tag k="name" v="Ørnstrupen" />
		<tag k="natural" v="hill" />
		<tag k="place" v="locality" />
		<tag k="ssr:stedsnr" v="51888" />
	</node>
	<node lat="63.33170833529753" lon="8.037188898512692" id="-6939">
		<tag k="name" v="Singshaugen" />
		<tag k="natural" v="hill" />
		<tag k="place" v="locality" />
		<tag k="ssr:stedsnr" v="52721" />
	</node>
	<node lat="63.35583332925274" lon="7.959252774743445" id="-6966">
		<tag k="name" v="Nausthaugberga" />
		<tag k="natural" v="hill" />
		<tag k="place" v="locality" />
		<tag k="ssr:stedsnr" v="74819" />
	</node>
	<node lat="63.38642777651751" lon="7.837541661907404" id="-6983">
		<tag k="name" v="Kjempegrefthaugen" />
		<tag k="natural" v="hill" />
		<tag k="place" v="locality" />
		<tag k="ssr:stedsnr" v="110284" />
	</node>
	<node lat="63.45435000191965" lon="7.969611107130135" id="-6986">
		<tag k="name" v="Ørntuva" />
		<tag k="natural" v="hill" />
		<tag k="place" v="locality" />
		<tag k="ssr:stedsnr" v="112121" />
	</node>
	<node lat="63.4548583296277" lon="8.082430550323066" id="-6990">
		<tag k="name" v="Tuvhaugen" />
		<tag k="natural" v="hill" />
		<tag k="place" v="locality" />
		<tag k="ssr:stedsnr" v="112026" />
	</node>
	<node lat="63.4448722179873" lon="8.113713887847837" id="-7042">
		<tag k="name" v="Ramberga" />
		<tag k="natural" v="hill" />
		<tag k="place" v="locality" />
		<tag k="ssr:stedsnr" v="255746" />
	</node>
	<node lat="63.43434722008352" lon="7.926633332502009" id="-7076">
		<tag k="name" v="Einesvarden" />
		<tag k="natural" v="hill" />
		<tag k="place" v="locality" />
		<tag k="ssr:stedsnr" v="172317" />
	</node>
	<node lat="63.40162222116672" lon="8.128502777995072" id="-7077">
		<tag k="name" v="Ørnhaugen" />
		<tag k="natural" v="hill" />
		<tag k="place" v="locality" />
		<tag k="ssr:stedsnr" v="172412" />
	</node>
	<node lat="63.418786112177564" lon="7.847416660496357" id="-7093">
		<tag k="name" v="Grønhaugen" />
		<tag k="natural" v="hill" />
		<tag k="place" v="locality" />
		<tag k="ssr:stedsnr" v="219015" />
	</node>
	<node lat="63.43204721834084" lon="7.90181111180039" id="-7098">
		<tag k="name" v="Kattuggelhammaren" />
		<tag k="natural" v="hill" />
		<tag k="place" v="locality" />
		<tag k="ssr:stedsnr" v="232302" />
	</node>
	<node lat="63.417286115219454" lon="7.919980559162525" id="-7108">
		<tag k="name" v="Sandvasshaugen" />
		<tag k="natural" v="hill" />
		<tag k="place" v="locality" />
		<tag k="ssr:stedsnr" v="233002" />
	</node>
	<node lat="63.423391669327" lon="7.902577778756047" id="-7109">
		<tag k="name" v="Kvernahaugen" />
		<tag k="natural" v="hill" />
		<tag k="place" v="locality" />
		<tag k="ssr:stedsnr" v="233006" />
	</node>
	<node lat="63.42402777971851" lon="7.89163333730141" id="-7110">
		<tag k="name" v="Nørd Falkhaugen" />
		<tag k="natural" v="hill" />
		<tag k="place" v="locality" />
		<tag k="ssr:stedsnr" v="233009" />
	</node>
	<node lat="63.42365278174077" lon="8.142138881619676" id="-7112">
		<tag k="name" v="Bergedalsberget" />
		<tag k="natural" v="hill" />
		<tag k="place" v="locality" />
		<tag k="ssr:stedsnr" v="233028" />
	</node>
	<node lat="63.45072222567798" lon="8.074077779690686" id="-7113">
		<tag k="name" v="Ormhaugen" />
		<tag k="natural" v="hill" />
		<tag k="place" v="locality" />
		<tag k="ssr:stedsnr" v="233032" />
	</node>
	<node lat="63.4611388857075" lon="8.039172224787354" id="-7114">
		<tag k="name" v="Tuva" />
		<tag k="natural" v="hill" />
		<tag k="place" v="locality" />
		<tag k="ssr:stedsnr" v="233106" />
	</node>
	<node lat="63.32572500441844" lon="7.986472222775476" id="-7119">
		<tag k="name" v="Svahaugen" />
		<tag k="natural" v="hill" />
		<tag k="place" v="locality" />
		<tag k="ssr:stedsnr" v="233580" />
	</node>
	<node lat="63.34820833721721" lon="7.960830553939675" id="-7120">
		<tag k="name" v="Sauøyslættet" />
		<tag k="place" v="locality" />
		<tag k="ssr:stedsnr" v="233924" />
	</node>
	<node lat="63.374458337362285" lon="8.172147220276784" id="-7123">
		<tag k="name" v="Heggdalshammaren" />
		<tag k="natural" v="hill" />
		<tag k="place" v="locality" />
		<tag k="ssr:stedsnr" v="234137" />
	</node>
	<node lat="63.45364166686746" lon="8.064280550090023" id="-7164">
		<tag k="name" v="Torvhaugen" />
		<tag k="natural" v="hill" />
		<tag k="place" v="locality" />
		<tag k="ssr:stedsnr" v="294027" />
	</node>
	<node lat="63.36731944225301" lon="8.186433332174655" id="-7168">
		<tag k="name" v="Ytter Skardhaugen" />
		<tag k="natural" v="hill" />
		<tag k="place" v="locality" />
		<tag k="ssr:stedsnr" v="294113" />
	</node>
	<node lat="63.37491944516152" lon="8.188516661803924" id="-7169">
		<tag k="name" v="Teineshaugen" />
		<tag k="natural" v="hill" />
		<tag k="place" v="locality" />
		<tag k="ssr:stedsnr" v="294126" />
	</node>
	<node lat="63.368300003948036" lon="8.175672214981262" id="-7170">
		<tag k="name" v="Fjøshaugen" />
		<tag k="natural" v="hill" />
		<tag k="place" v="locality" />
		<tag k="ssr:stedsnr" v="294129" />
	</node>
	<node lat="63.40052777760523" lon="8.160327770860107" id="-7171">
		<tag k="name" v="Kalddalshaugen" />
		<tag k="natural" v="hill" />
		<tag k="place" v="locality" />
		<tag k="ssr:stedsnr" v="294415" />
	</node>
	<node lat="63.372516664765904" lon="7.913791657836279" id="-7173">
		<tag k="name" v="Andskottet" />
		<tag k="natural" v="hill" />
		<tag k="place" v="locality" />
		<tag k="ssr:stedsnr" v="294511" />
	</node>
	<node lat="63.42283611508779" lon="8.073080561365504" id="-7177">
		<tag k="name" v="Fagerhaugen" />
		<tag k="natural" v="hill" />
		<tag k="place" v="locality" />
		<tag k="ssr:stedsnr" v="294880" />
	</node>
	<node lat="63.30345277434635" lon="8.102180548246873" id="-7186">
		<tag k="name" v="Tittinghaugen" />
		<tag k="natural" v="hill" />
		<tag k="place" v="locality" />
		<tag k="ssr:stedsnr" v="315951" />
	</node>
	<node lat="63.39427222549874" lon="7.885124992582963" id="-7206">
		<tag k="name" v="Vistillen" />
		<tag k="natural" v="hill" />
		<tag k="place" v="locality" />
		<tag k="ssr:stedsnr" v="353013" />
	</node>
	<node lat="63.450561113976285" lon="8.087166668597483" id="-7212">
		<tag k="name" v="Lamhaugan" />
		<tag k="natural" v="hill" />
		<tag k="place" v="locality" />
		<tag k="ssr:stedsnr" v="355022" />
	</node>
	<node lat="63.39184444703658" lon="7.907052784506009" id="-7215">
		<tag k="name" v="Hådalen" />
		<tag k="natural" v="valley" />
		<tag k="place" v="locality" />
		<tag k="ssr:stedsnr" v="475022" />
	</node>
	<node lat="63.39820832969686" lon="7.943419451346358" id="-7216">
		<tag k="name" v="Sørsjursvarden" />
		<tag k="natural" v="hill" />
		<tag k="place" v="locality" />
		<tag k="ssr:stedsnr" v="475026" />
	</node>
	<node lat="63.28480833155403" lon="8.042544449741438" id="-7218">
		<tag k="name" v="Tjuvholberga" />
		<tag k="natural" v="hill" />
		<tag k="place" v="locality" />
		<tag k="ssr:stedsnr" v="475284" />
	</node>
	<node lat="63.44017777944748" lon="8.023658339773519" id="-7220">
		<tag k="name" v="Småstålberget" />
		<tag k="natural" v="hill" />
		<tag k="place" v="locality" />
		<tag k="ssr:stedsnr" v="475513" />
	</node>
	<node lat="63.423400003825044" lon="7.888661106377716" id="-7225">
		<tag k="name" v="Sør Falkhaugen" />
		<tag k="natural" v="hill" />
		<tag k="place" v="locality" />
		<tag k="ssr:stedsnr" v="476005" />
	</node>
	<node lat="63.45845555960022" lon="8.028700006143287" id="-7226">
		<tag k="name" v="Dalen" />
		<tag k="natural" v="valley" />
		<tag k="place" v="locality" />
		<tag k="ssr:stedsnr" v="476131" />
	</node>
	<node lat="63.42370278071808" lon="7.960347219938688" id="-7229">
		<tag k="name" v="Langhaugen" />
		<tag k="natural" v="hill" />
		<tag k="place" v="locality" />
		<tag k="ssr:stedsnr" v="476015" />
	</node>
	<node lat="63.38017500033377" lon="7.921063893592216" id="-7232">
		<tag k="name" v="Vassurdvarden" />
		<tag k="natural" v="hill" />
		<tag k="place" v="locality" />
		<tag k="ssr:stedsnr" v="476492" />
	</node>
	<node lat="63.31744166815486" lon="8.051669442340417" id="-7236">
		<tag k="name" v="Roparhaugen" />
		<tag k="natural" v="hill" />
		<tag k="place" v="locality" />
		<tag k="ssr:stedsnr" v="476690" />
	</node>
	<node lat="63.3312999987058" lon="7.994038887242317" id="-7253">
		<tag k="name" v="Fjøshaugen" />
		<tag k="natural" v="hill" />
		<tag k="place" v="locality" />
		<tag k="ssr:stedsnr" v="415582" />
	</node>
	<node lat="63.33824999800217" lon="7.963874990694036" id="-7254">
		<tag k="name" v="Rundhaugen" />
		<tag k="natural" v="hill" />
		<tag k="place" v="locality" />
		<tag k="ssr:stedsnr" v="415584" />
	</node>
	<node lat="63.34460277654874" lon="7.9994277803147975" id="-7257">
		<tag k="name" v="Nord Hallaren" />
		<tag k="natural" v="hill" />
		<tag k="place" v="locality" />
		<tag k="ssr:stedsnr" v="415937" />
	</node>
	<node lat="63.45249722249285" lon="8.049983324239195" id="-7258">
		<tag k="name" v="Øver Stamberghaugen" />
		<tag k="natural" v="hill" />
		<tag k="place" v="locality" />
		<tag k="ssr:stedsnr" v="416095" />
	</node>
	<node lat="63.36383611019938" lon="8.011805564460731" id="-7279">
		<tag k="fixme" v="consider natural=peak for the most distinct mountains in the district" />
		<tag k="name" v="Sjøåsen" />
		<tag k="natural" v="hill" />
		<tag k="place" v="locality" />
		<tag k="ssr:stedsnr" v="438802" />
	</node>
	<node lat="63.39666111153828" lon="7.836455547457248" id="-7284">
		<tag k="name" v="Teinhaugen" />
		<tag k="natural" v="hill" />
		<tag k="place" v="locality" />
		<tag k="ssr:stedsnr" v="461011" />
	</node>
	<node lat="63.447374996958374" lon="7.9679500006822375" id="-7291">
		<tag k="name" v="Kolbergtuva" />
		<tag k="natural" v="hill" />
		<tag k="place" v="locality" />
		<tag k="ssr:stedsnr" v="475304" />
	</node>
	<node lat="63.4419194406149" lon="7.961897219851812" id="-7292">
		<tag k="name" v="Kolberget" />
		<tag k="natural" v="hill" />
		<tag k="place" v="locality" />
		<tag k="ssr:stedsnr" v="475306" />
	</node>
	<node lat="63.41693055664382" lon="7.868530564123281" id="-7294">
		<tag k="name" v="Dalastrupen" />
		<tag k="natural" v="valley" />
		<tag k="place" v="locality" />
		<tag k="ssr:stedsnr" v="475816" />
	</node>
	<node lat="63.41109166590131" lon="7.815069452134884" id="-7295">
		<tag k="name" v="Andahaugen" />
		<tag k="natural" v="hill" />
		<tag k="place" v="locality" />
		<tag k="ssr:stedsnr" v="475822" />
	</node>
	<node lat="63.393122223410906" lon="8.18054999708537" id="-7303">
		<tag k="name" v="Vasslihaugen" />
		<tag k="natural" v="hill" />
		<tag k="place" v="locality" />
		<tag k="ssr:stedsnr" v="476123" />
	</node>
	<node lat="63.395941666827746" lon="8.188391667507723" id="-7304">
		<tag k="name" v="Vollhaugen" />
		<tag k="natural" v="hill" />
		<tag k="place" v="locality" />
		<tag k="ssr:stedsnr" v="476127" />
	</node>
	<node lat="63.361244440424585" lon="8.180438891467588" id="-7307">
		<tag k="name" v="Vestivarden" />
		<tag k="natural" v="hill" />
		<tag k="place" v="locality" />
		<tag k="ssr:stedsnr" v="476211" />
	</node>
	<node lat="63.326841665413305" lon="8.028308328436193" id="-7308">
		<tag k="name" v="Larshammaren" />
=======
	<node id="-93158" lat="63.349469444" lon="8.02015277582">
		<tag k="fixme" v="consider natural=peak for the most distinct mountains in the district" />
		<tag k="name" v="Høgåsen" />
		<tag k="natural" v="hill" />
		<tag k="place" v="locality" />
		<tag k="ssr:stedsnr" v="741871" />
	</node>
	<node id="-91814" lat="63.4099305533" lon="7.81213055922">
		<tag k="name" v="Bergvikdalen" />
		<tag k="natural" v="valley" />
		<tag k="place" v="locality" />
		<tag k="ssr:stedsnr" v="657800" />
	</node>
	<node id="-92129" lat="63.4280666633" lon="7.99372778382">
		<tag k="name" v="Vester Måbergstua" />
		<tag k="natural" v="hill" />
		<tag k="place" v="locality" />
		<tag k="ssr:stedsnr" v="909776" />
	</node>
	<node id="-92124" lat="63.3457416697" lon="7.86484722508">
		<tag k="name" v="Steinnesberget" />
		<tag k="natural" v="hill" />
		<tag k="place" v="locality" />
		<tag k="ssr:stedsnr" v="741816" />
	</node>
	<node id="-93146" lat="63.3009861134" lon="8.09800832944">
		<tag k="name" v="Kulihaugan" />
		<tag k="natural" v="hill" />
		<tag k="place" v="locality" />
		<tag k="ssr:stedsnr" v="740952" />
	</node>
	<node id="-93143" lat="63.3077333296" lon="8.01235278487">
		<tag k="name" v="Rossvollberget" />
		<tag k="natural" v="hill" />
		<tag k="place" v="locality" />
		<tag k="ssr:stedsnr" v="740942" />
	</node>
	<node id="-93141" lat="63.2937805546" lon="8.15110554654">
		<tag k="name" v="Storvarden" />
		<tag k="natural" v="hill" />
		<tag k="place" v="locality" />
		<tag k="ssr:stedsnr" v="740930" />
	</node>
	<node id="-91603" lat="63.4611388857" lon="8.03917222479">
		<tag k="name" v="Tuva" />
		<tag k="natural" v="hill" />
		<tag k="place" v="locality" />
		<tag k="ssr:stedsnr" v="233106" />
	</node>
	<node id="-91602" lat="63.4507222257" lon="8.07407777969">
		<tag k="name" v="Ormhaugen" />
		<tag k="natural" v="hill" />
		<tag k="place" v="locality" />
		<tag k="ssr:stedsnr" v="233032" />
	</node>
	<node id="-91601" lat="63.4236527817" lon="8.14213888162">
		<tag k="name" v="Bergedalsberget" />
		<tag k="natural" v="hill" />
		<tag k="place" v="locality" />
		<tag k="ssr:stedsnr" v="233028" />
	</node>
	<node id="-91384" lat="63.3951388917" lon="7.86126387971">
		<tag k="name" v="Merradalshaugen" />
		<tag k="natural" v="hill" />
		<tag k="place" v="locality" />
		<tag k="ssr:stedsnr" v="232376" />
	</node>
	<node id="-91598" lat="63.4240277797" lon="7.8916333373">
		<tag k="name" v="Nørd Falkhaugen" />
		<tag k="natural" v="hill" />
		<tag k="place" v="locality" />
		<tag k="ssr:stedsnr" v="233009" />
	</node>
	<node id="-91597" lat="63.4233916693" lon="7.90257777876">
		<tag k="name" v="Kvernahaugen" />
		<tag k="natural" v="hill" />
		<tag k="place" v="locality" />
		<tag k="ssr:stedsnr" v="233006" />
	</node>
	<node id="-91596" lat="63.4172861152" lon="7.91998055916">
		<tag k="name" v="Sandvasshaugen" />
		<tag k="natural" v="hill" />
		<tag k="place" v="locality" />
		<tag k="ssr:stedsnr" v="233002" />
	</node>
	<node id="-92932" lat="63.4265111125" lon="8.12044721946">
		<tag k="name" v="Sauvardhaugen" />
		<tag k="natural" v="hill" />
		<tag k="place" v="locality" />
		<tag k="ssr:stedsnr" v="536882" />
	</node>
	<node id="-91592" lat="63.4320472183" lon="7.9018111118">
		<tag k="name" v="Kattuggelhammaren" />
		<tag k="natural" v="hill" />
		<tag k="place" v="locality" />
		<tag k="ssr:stedsnr" v="232302" />
	</node>
	<node id="-91588" lat="63.4438035894" lon="8.10793096213">
		<tag k="name" v="Skardvarden" />
		<tag k="natural" v="hill" />
		<tag k="place" v="locality" />
		<tag k="ssr:stedsnr" v="297308" />
	</node>
	<node id="-91587" lat="63.3741388913" lon="8.10696110594">
		<tag k="name" v="Kongshaugen" />
		<tag k="natural" v="hill" />
		<tag k="place" v="locality" />
		<tag k="ssr:stedsnr" v="294960" />
	</node>
	<node id="-92098" lat="63.3429166627" lon="7.98984443948">
		<tag k="name" v="Storhaugen" />
		<tag k="natural" v="hill" />
		<tag k="place" v="locality" />
		<tag k="ssr:stedsnr" v="901930" />
	</node>
	<node id="-91585" lat="63.4228361151" lon="8.07308056137">
		<tag k="name" v="Fagerhaugen" />
		<tag k="natural" v="hill" />
		<tag k="place" v="locality" />
		<tag k="ssr:stedsnr" v="294880" />
	</node>
	<node id="-91583" lat="63.3994333347" lon="8.07455832989">
		<tag k="name" v="Pilsdalen" />
		<tag k="natural" v="valley" />
		<tag k="old_name" v="Piladalen" />
		<tag k="place" v="locality" />
		<tag k="ssr:stedsnr" v="294852" />
	</node>
	<node id="-92094" lat="63.2904027769" lon="8.05973889351">
		<tag k="name" v="Buskardhaugen" />
		<tag k="natural" v="hill" />
		<tag k="place" v="locality" />
		<tag k="ssr:stedsnr" v="901334" />
	</node>
	<node id="-92093" lat="63.3537555533" lon="8.18876389127">
		<tag k="name" v="Skiftingshammaren" />
		<tag k="natural" v="hill" />
		<tag k="place" v="locality" />
		<tag k="ssr:stedsnr" v="901199" />
	</node>
	<node id="-92091" lat="63.4324166705" lon="8.13649721874">
		<tag k="name" v="Småhaugen" />
		<tag k="natural" v="hill" />
		<tag k="place" v="locality" />
		<tag k="ssr:stedsnr" v="901091" />
	</node>
	<node id="-92088" lat="63.4245666647" lon="7.8663888792">
		<tag k="name" v="Varhaugen" />
		<tag k="natural" v="hill" />
		<tag k="place" v="locality" />
		<tag k="ssr:stedsnr" v="900828" />
	</node>
	<node id="-91575" lat="63.3683000039" lon="8.17567221498">
		<tag k="name" v="Fjøshaugen" />
		<tag k="natural" v="hill" />
		<tag k="place" v="locality" />
		<tag k="ssr:stedsnr" v="294129" />
	</node>
	<node id="-91574" lat="63.3749194452" lon="8.1885166618">
		<tag k="name" v="Teineshaugen" />
		<tag k="natural" v="hill" />
		<tag k="place" v="locality" />
		<tag k="ssr:stedsnr" v="294126" />
	</node>
	<node id="-91721" lat="63.3801750003" lon="7.92106389359">
		<tag k="name" v="Vassurdvarden" />
		<tag k="natural" v="hill" />
		<tag k="place" v="locality" />
		<tag k="ssr:stedsnr" v="476492" />
	</node>
	<node id="-91570" lat="63.4536416669" lon="8.06428055009">
		<tag k="name" v="Torvhaugen" />
		<tag k="natural" v="hill" />
		<tag k="place" v="locality" />
		<tag k="ssr:stedsnr" v="294027" />
	</node>
	<node id="-92079" lat="63.3319027742" lon="7.98137499791">
		<tag k="name" v="Rangvågdalen" />
		<tag k="natural" v="valley" />
		<tag k="place" v="locality" />
		<tag k="ssr:stedsnr" v="718560" />
	</node>
	<node id="-91566" lat="63.4227694402" lon="7.87038888345">
		<tag k="name" v="Fantetua" />
		<tag k="natural" v="hill" />
		<tag k="place" v="locality" />
		<tag k="ssr:stedsnr" v="293833" />
	</node>
	<node id="-92077" lat="63.4473222191" lon="8.08319443717">
		<tag k="name" v="Størhamhaugen" />
		<tag k="natural" v="hill" />
		<tag k="place" v="locality" />
		<tag k="ssr:stedsnr" v="895311" />
	</node>
	<node id="-93100" lat="63.356724998" lon="8.17233610497">
		<tag k="name" v="Nelvikberget" />
		<tag k="natural" v="hill" />
		<tag k="place" v="locality" />
		<tag k="ssr:stedsnr" v="620828" />
	</node>
	<node id="-92586" lat="63.366427782" lon="8.19109444348">
		<tag k="name" v="Pikhaugen" />
		<tag k="natural" v="hill" />
		<tag k="place" v="locality" />
		<tag k="ssr:stedsnr" v="173108" />
	</node>
	<node id="-91561" lat="63.4342749992" lon="7.88700832458">
		<tag k="name" v="Flataukan" />
		<tag k="place" v="locality" />
		<tag k="ssr:stedsnr" v="293363" />
	</node>
	<node id="-93095" lat="63.374497222" lon="8.15082499988">
		<tag k="name" v="Kjerkjehaugen" />
		<tag k="natural" v="hill" />
		<tag k="place" v="locality" />
		<tag k="ssr:stedsnr" v="619889" />
	</node>
	<node id="-92582" lat="63.3629722212" lon="8.12765278631">
		<tag k="name" v="Litlhatten" />
		<tag k="natural" v="hill" />
		<tag k="place" v="locality" />
		<tag k="ssr:stedsnr" v="172943" />
	</node>
	<node id="-93091" lat="63.3526138896" lon="8.00623610426">
		<tag k="name" v="Valmyrrabben" />
		<tag k="natural" v="hill" />
		<tag k="place" v="locality" />
		<tag k="ssr:stedsnr" v="619863" />
	</node>
	<node id="-92576" lat="63.4095583335" lon="7.80643333016">
		<tag k="name" v="Skarpnestuva" />
		<tag k="natural" v="hill" />
		<tag k="place" v="locality" />
		<tag k="ssr:stedsnr" v="172850" />
	</node>
	<node id="-92575" lat="63.3503666623" lon="8.05390000598">
		<tag k="name" v="Småramberga" />
		<tag k="natural" v="hill" />
		<tag k="place" v="locality" />
		<tag k="ssr:stedsnr" v="172444" />
	</node>
	<node id="-92574" lat="63.356300004" lon="8.05237222234">
		<tag k="name" v="Litlramberget" />
		<tag k="natural" v="hill" />
		<tag k="place" v="locality" />
		<tag k="ssr:stedsnr" v="172441" />
	</node>
	<node id="-92573" lat="63.4016222212" lon="8.128502778">
		<tag k="name" v="Ørnhaugen" />
		<tag k="natural" v="hill" />
		<tag k="place" v="locality" />
		<tag k="ssr:stedsnr" v="172412" />
	</node>
	<node id="-92572" lat="63.4343472201" lon="7.9266333325">
		<tag k="name" v="Einesvarden" />
		<tag k="natural" v="hill" />
		<tag k="place" v="locality" />
		<tag k="ssr:stedsnr" v="172317" />
	</node>
	<node id="-93082" lat="63.4095333308" lon="7.92270277772">
		<tag k="name" v="Gammeldamstua" />
		<tag k="natural" v="hill" />
		<tag k="place" v="locality" />
		<tag k="ssr:stedsnr" v="619687" />
	</node>
	<node id="-92565" lat="63.3976055544" lon="7.819402777">
		<tag k="name" v="Blåbærhaugen" />
		<tag k="natural" v="hill" />
		<tag k="place" v="locality" />
		<tag k="ssr:stedsnr" v="171283" />
	</node>
	<node id="-92049" lat="63.4344444425" lon="7.96317776906">
		<tag k="fixme" v="consider natural=peak for the most distinct mountains in the district" />
		<tag k="name" v="Langåsen" />
		<tag k="natural" v="hill" />
		<tag k="place" v="locality" />
		<tag k="ssr:stedsnr" v="680758" />
	</node>
	<node id="-92560" lat="63.4328055543" lon="8.11734167319">
		<tag k="name" v="Raudvarden" />
		<tag k="natural" v="hill" />
		<tag k="place" v="locality" />
		<tag k="ssr:stedsnr" v="166426" />
	</node>
	<node id="-92559" lat="63.4450111128" lon="8.09720554916">
		<tag k="name" v="Hundtjørnrabben" />
		<tag k="natural" v="hill" />
		<tag k="place" v="locality" />
		<tag k="ssr:stedsnr" v="166335" />
	</node>
	<node id="-91681" lat="63.3658722265" lon="7.96485000591">
		<tag k="name" v="Langbergtua" />
>>>>>>> e1d4bc35ff8a6074a6f2e91616a996b547c36f15
		<tag k="natural" v="hill" />
		<tag k="place" v="locality" />
		<tag k="ssr:stedsnr" v="316856" />
	</node>
<<<<<<< HEAD
	<node lat="63.336777776211285" lon="7.991941664506527" id="-7320">
		<tag k="name" v="Storsetberget" />
		<tag k="natural" v="hill" />
		<tag k="place" v="locality" />
		<tag k="ssr:stedsnr" v="679732" />
	</node>
	<node lat="63.44270826624518" lon="8.108687707447173" id="-7340">
		<tag k="name" v="Ørntua" />
		<tag k="natural" v="hill" />
		<tag k="place" v="locality" />
		<tag k="ssr:stedsnr" v="680783" />
	</node>
	<node lat="63.43128333060438" lon="8.00858332426364" id="-7343">
		<tag k="alt_name" v="Måbergstua" />
		<tag k="name" v="Vetta" />
		<tag k="natural" v="hill" />
		<tag k="place" v="locality" />
		<tag k="ssr:stedsnr" v="680757" />
	</node>
	<node lat="63.40439444743242" lon="7.852988895781969" id="-7384">
		<tag k="name" v="Langvasstuva" />
		<tag k="natural" v="hill" />
		<tag k="place" v="locality" />
		<tag k="ssr:stedsnr" v="535422" />
	</node>
	<node lat="63.41265833619639" lon="7.925719450066061" id="-7387">
		<tag k="name" v="Sletringsdalen" />
		<tag k="natural" v="valley" />
		<tag k="place" v="locality" />
		<tag k="ssr:stedsnr" v="536003" />
	</node>
	<node lat="63.39829166413794" lon="8.132913887420736" id="-7390">
		<tag k="name" v="Store Klepselhaugen" />
		<tag k="natural" v="hill" />
		<tag k="place" v="locality" />
		<tag k="ssr:stedsnr" v="536125" />
	</node>
	<node lat="63.42651111253826" lon="8.120447219457162" id="-7394">
		<tag k="name" v="Sauvardhaugen" />
		<tag k="natural" v="hill" />
		<tag k="place" v="locality" />
		<tag k="ssr:stedsnr" v="536882" />
	</node>
	<node lat="63.460036113673596" lon="8.109944443966453" id="-7395">
		<tag k="name" v="Jørnsletta" />
		<tag k="place" v="locality" />
		<tag k="ssr:stedsnr" v="537023" />
	</node>
	<node lat="63.34958333290705" lon="8.035133335078484" id="-7442">
		<tag k="name" v="Juthaugen" />
		<tag k="natural" v="hill" />
		<tag k="place" v="locality" />
		<tag k="ssr:stedsnr" v="596400" />
	</node>
	<node lat="63.41048888842146" lon="7.846808328705362" id="-7443">
		<tag k="name" v="Svidhaugen" />
		<tag k="natural" v="hill" />
		<tag k="place" v="locality" />
		<tag k="ssr:stedsnr" v="596805" />
	</node>
	<node lat="63.436161114109545" lon="8.137725009688618" id="-7450">
		<tag k="name" v="Ytter Turhaugen" />
		<tag k="natural" v="hill" />
		<tag k="place" v="locality" />
		<tag k="ssr:stedsnr" v="597110" />
	</node>
	<node lat="63.386138885384106" lon="8.16654167674818" id="-7452">
		<tag k="name" v="Ytter Åndalstuva" />
		<tag k="natural" v="hill" />
		<tag k="place" v="locality" />
		<tag k="ssr:stedsnr" v="597117" />
	</node>
	<node lat="63.37495833459638" lon="8.149133334416772" id="-7454">
		<tag k="name" v="Alvestadryggen" />
		<tag k="natural" v="ridge" />
		<tag k="place" v="locality" />
		<tag k="ssr:stedsnr" v="597156" />
	</node>
	<node lat="63.375122220238104" lon="8.198952784617411" id="-7457">
		<tag k="name" v="Litlgrønhaugen" />
		<tag k="natural" v="hill" />
		<tag k="place" v="locality" />
		<tag k="ssr:stedsnr" v="597162" />
	</node>
	<node lat="63.33307222555648" lon="8.022819443254345" id="-7461">
		<tag k="name" v="Laughaugen" />
		<tag k="natural" v="hill" />
		<tag k="place" v="locality" />
		<tag k="ssr:stedsnr" v="597758" />
	</node>
	<node lat="63.34387222061632" lon="7.991530560681223" id="-7464">
		<tag k="name" v="Sør Hallaren" />
		<tag k="natural" v="hill" />
		<tag k="place" v="locality" />
		<tag k="ssr:stedsnr" v="597927" />
	</node>
	<node lat="63.40953333078716" lon="7.9227027777157035" id="-7481">
		<tag k="name" v="Gammeldamstua" />
		<tag k="natural" v="hill" />
		<tag k="place" v="locality" />
		<tag k="ssr:stedsnr" v="619687" />
	</node>
	<node lat="63.3567249980489" lon="8.172336104970277" id="-7492">
		<tag k="name" v="Nelvikberget" />
		<tag k="natural" v="hill" />
		<tag k="place" v="locality" />
		<tag k="ssr:stedsnr" v="620828" />
	</node>
	<node lat="63.35152222129518" lon="7.997377787756872" id="-7522">
		<tag k="name" v="Musåsvarden" />
		<tag k="natural" v="hill" />
		<tag k="place" v="locality" />
		<tag k="ssr:stedsnr" v="657909" />
	</node>
	<node lat="63.357905558594496" lon="7.9823055517218595" id="-7523">
		<tag k="name" v="Mevassdalen" />
		<tag k="natural" v="valley" />
		<tag k="place" v="locality" />
		<tag k="ssr:stedsnr" v="657910" />
	</node>
	<node lat="63.42725277725457" lon="7.895322225246806" id="-7525">
		<tag k="name" v="Skjelvågdalshaugen" />
		<tag k="natural" v="hill" />
		<tag k="place" v="locality" />
		<tag k="ssr:stedsnr" v="658005" />
	</node>
	<node lat="63.452044443190196" lon="8.12465556304518" id="-7527">
		<tag k="name" v="Storhaugen" />
		<tag k="natural" v="hill" />
		<tag k="place" v="locality" />
		<tag k="ssr:stedsnr" v="658010" />
	</node>
	<node lat="63.45195278222163" lon="8.040308332865127" id="-7528">
		<tag k="name" v="Hansavarden" />
		<tag k="natural" v="hill" />
		<tag k="place" v="locality" />
		<tag k="ssr:stedsnr" v="658098" />
	</node>
	<node lat="63.412444441304245" lon="7.992002768171694" id="-7531">
		<tag k="name" v="Pilskrokhaugen" />
		<tag k="natural" v="hill" />
		<tag k="place" v="locality" />
		<tag k="ssr:stedsnr" v="658002" />
	</node>
	<node lat="63.350191667790504" lon="8.130186118163268" id="-7532">
		<tag k="name" v="Roparberget" />
		<tag k="natural" v="hill" />
		<tag k="place" v="locality" />
		<tag k="ssr:stedsnr" v="658231" />
	</node>
	<node lat="63.31736110754532" lon="8.036266664926993" id="-7533">
		<tag k="name" v="Ørntuva" />
		<tag k="natural" v="hill" />
		<tag k="place" v="locality" />
		<tag k="ssr:stedsnr" v="658690" />
	</node>
	<node lat="63.43444444247021" lon="7.9631777690595005" id="-7555">
		<tag k="fixme" v="consider natural=peak for the most distinct mountains in the district" />
		<tag k="name" v="Langåsen" />
		<tag k="natural" v="hill" />
		<tag k="place" v="locality" />
		<tag k="ssr:stedsnr" v="680758" />
	</node>
	<node lat="63.42474722189723" lon="8.106944442762225" id="-7585">
		<tag k="name" v="Ytter Tverrbakkhaugen" />
		<tag k="natural" v="hill" />
		<tag k="place" v="locality" />
		<tag k="ssr:stedsnr" v="718881" />
	</node>
	<node lat="63.3885861133153" lon="8.148002768899325" id="-7586">
		<tag k="name" v="Grøntjørnhaugen" />
		<tag k="natural" v="hill" />
		<tag k="place" v="locality" />
		<tag k="ssr:stedsnr" v="719107" />
	</node>
	<node lat="63.387294443647406" lon="8.1845916606223" id="-7589">
		<tag k="name" v="Sørvarden" />
=======
	<node id="-91884" lat="63.4202444443" lon="7.97197223139">
		<tag k="name" v="Mikkelvarden" />
		<tag k="natural" v="hill" />
		<tag k="place" v="locality" />
		<tag k="ssr:stedsnr" v="497679" />
	</node>
	<node id="-92033" lat="63.4542805591" lon="8.01690277283">
		<tag k="name" v="Hopesletta" />
		<tag k="place" v="locality" />
		<tag k="ssr:stedsnr" v="658126" />
	</node>
	<node id="-92031" lat="63.3859138881" lon="8.14432500534">
		<tag k="name" v="Dikmyrvarden" />
		<tag k="natural" v="hill" />
		<tag k="place" v="locality" />
		<tag k="ssr:stedsnr" v="658120" />
	</node>
	<node id="-92030" lat="63.3967361118" lon="8.17386111272">
		<tag k="name" v="Hamnahaugen" />
		<tag k="natural" v="hill" />
		<tag k="place" v="locality" />
		<tag k="ssr:stedsnr" v="658118" />
	</node>
	<node id="-92540" lat="63.3734361104" lon="8.15691388668">
		<tag k="name" v="Heggjedalen" />
		<tag k="natural" v="valley" />
		<tag k="place" v="locality" />
		<tag k="ssr:stedsnr" v="134894" />
	</node>
	<node id="-92026" lat="63.3579055586" lon="7.98230555172">
		<tag k="name" v="Mevassdalen" />
		<tag k="natural" v="valley" />
		<tag k="place" v="locality" />
		<tag k="ssr:stedsnr" v="657910" />
	</node>
	<node id="-92025" lat="63.3515222213" lon="7.99737778776">
		<tag k="name" v="Musåsvarden" />
		<tag k="natural" v="hill" />
		<tag k="place" v="locality" />
		<tag k="ssr:stedsnr" v="657909" />
	</node>
	<node id="-92024" lat="63.4293611107" lon="7.87737776834">
		<tag k="name" v="Litltuva" />
		<tag k="natural" v="hill" />
		<tag k="place" v="locality" />
		<tag k="ssr:stedsnr" v="657329" />
	</node>
	<node id="-92533" lat="63.3598999972" lon="8.18913611981">
		<tag k="name" v="Knubbeltua" />
		<tag k="natural" v="hill" />
		<tag k="place" v="locality" />
		<tag k="ssr:stedsnr" v="134836" />
	</node>
	<node id="-92531" lat="63.3619833312" lon="8.13885832836">
		<tag k="name" v="Hyttrabben" />
		<tag k="natural" v="hill" />
		<tag k="place" v="locality" />
		<tag k="ssr:stedsnr" v="134831" />
	</node>
	<node id="-91565" lat="63.4099499971" lon="7.80306389269">
		<tag k="name" v="Johanhaugen" />
		<tag k="natural" v="hill" />
		<tag k="place" v="locality" />
		<tag k="ssr:stedsnr" v="293821" />
	</node>
	<node id="-91709" lat="63.4237027807" lon="7.96034721994">
		<tag k="name" v="Langhaugen" />
		<tag k="natural" v="hill" />
		<tag k="place" v="locality" />
		<tag k="ssr:stedsnr" v="476015" />
	</node>
	<node id="-92086" lat="63.3965277734" lon="7.89844999083">
		<tag k="name" v="Seterdalen" />
		<tag k="natural" v="valley" />
		<tag k="place" v="locality" />
		<tag k="ssr:stedsnr" v="900029" />
	</node>
	<node id="-91498" lat="63.4548583296" lon="8.08243055032">
		<tag k="name" v="Tuvhaugen" />
		<tag k="natural" v="hill" />
		<tag k="place" v="locality" />
		<tag k="ssr:stedsnr" v="112026" />
	</node>
	<node id="-93032" lat="63.3438722206" lon="7.99153056068">
		<tag k="name" v="Sør Hallaren" />
		<tag k="natural" v="hill" />
		<tag k="place" v="locality" />
		<tag k="ssr:stedsnr" v="597927" />
	</node>
	<node id="-93029" lat="63.4140638855" lon="8.02813610399">
		<tag k="name" v="Frostadhaugen" />
		<tag k="natural" v="hill" />
		<tag k="place" v="locality" />
		<tag k="ssr:stedsnr" v="597859" />
	</node>
	<node id="-92004" lat="63.4097749999" lon="7.98109167525">
		<tag k="name" v="Storhallaren" />
		<tag k="place" v="locality" />
		<tag k="ssr:stedsnr" v="719002" />
	</node>
	<node id="-93027" lat="63.3330722256" lon="8.02281944325">
		<tag k="name" v="Laughaugen" />
		<tag k="natural" v="hill" />
		<tag k="place" v="locality" />
		<tag k="ssr:stedsnr" v="597758" />
	</node>
	<node id="-92000" lat="63.4247472219" lon="8.10694444276">
		<tag k="name" v="Ytter Tverrbakkhaugen" />
		<tag k="natural" v="hill" />
		<tag k="place" v="locality" />
		<tag k="ssr:stedsnr" v="718881" />
	</node>
	<node id="-92048" lat="63.4312833306" lon="8.00858332426">
		<tag k="alt_name" v="Måbergstua" />
		<tag k="name" v="Vetta" />
		<tag k="natural" v="hill" />
		<tag k="place" v="locality" />
		<tag k="ssr:stedsnr" v="680757" />
	</node>
	<node id="-93022" lat="63.3751222202" lon="8.19895278462">
		<tag k="name" v="Litlgrønhaugen" />
		<tag k="natural" v="hill" />
		<tag k="place" v="locality" />
		<tag k="ssr:stedsnr" v="597162" />
	</node>
	<node id="-91996" lat="63.3821222193" lon="7.94928889721">
		<tag k="fixme" v="consider natural=peak for the most distinct mountains in the district" />
		<tag k="name" v="Fuggelåsen" />
		<tag k="natural" v="hill" />
		<tag k="place" v="locality" />
		<tag k="ssr:stedsnr" v="718544" />
	</node>
	<node id="-91995" lat="63.3764583304" lon="7.9397972265">
		<tag k="name" v="Sølvberget" />
		<tag k="natural" v="hill" />
		<tag k="place" v="locality" />
		<tag k="ssr:stedsnr" v="718543" />
	</node>
	<node id="-91993" lat="63.4330111112" lon="7.88232221596">
		<tag k="name" v="Tyttebærhaugen" />
		<tag k="natural" v="hill" />
		<tag k="place" v="locality" />
		<tag k="ssr:stedsnr" v="718318" />
	</node>
	<node id="-91479" lat="63.444872218" lon="8.11371388785">
		<tag k="name" v="Ramberga" />
		<tag k="natural" v="hill" />
		<tag k="place" v="locality" />
		<tag k="ssr:stedsnr" v="255746" />
	</node>
	<node id="-93014" lat="63.4063305548" lon="7.79793334319">
		<tag k="name" v="Brandhaugen" />
		<tag k="natural" v="hill" />
		<tag k="place" v="locality" />
		<tag k="ssr:stedsnr" v="596787" />
	</node>
	<node id="-93013" lat="63.3495833329" lon="8.03513333508">
		<tag k="name" v="Juthaugen" />
		<tag k="natural" v="hill" />
		<tag k="place" v="locality" />
		<tag k="ssr:stedsnr" v="596400" />
	</node>
	<node id="-93010" lat="63.3852777806" lon="7.87304443586">
		<tag k="name" v="Ramndalshaugen" />
>>>>>>> e1d4bc35ff8a6074a6f2e91616a996b547c36f15
		<tag k="natural" v="hill" />
		<tag k="place" v="locality" />
		<tag k="ssr:stedsnr" v="596384" />
	</node>
<<<<<<< HEAD
	<node lat="63.39652777339539" lon="7.898449990833616" id="-7592">
		<tag k="name" v="Seterdalen" />
		<tag k="natural" v="valley" />
		<tag k="place" v="locality" />
		<tag k="ssr:stedsnr" v="900029" />
	</node>
	<node lat="63.41855833318094" lon="7.867399995184818" id="-7594">
		<tag k="name" v="Høgstivarden" />
		<tag k="natural" v="hill" />
		<tag k="place" v="locality" />
		<tag k="ssr:stedsnr" v="900825" />
	</node>
	<node lat="63.42456666466064" lon="7.866388879195361" id="-7595">
		<tag k="name" v="Varhaugen" />
		<tag k="natural" v="hill" />
		<tag k="place" v="locality" />
		<tag k="ssr:stedsnr" v="900828" />
	</node>
	<node lat="63.365527780434114" lon="8.189183335275484" id="-7598">
		<tag k="name" v="Skardhammaren" />
		<tag k="natural" v="hill" />
		<tag k="place" v="locality" />
		<tag k="ssr:stedsnr" v="901113" />
	</node>
	<node lat="63.43241667047636" lon="8.136497218743973" id="-7600">
		<tag k="name" v="Småhaugen" />
		<tag k="natural" v="hill" />
		<tag k="place" v="locality" />
		<tag k="ssr:stedsnr" v="901091" />
	</node>
	<node lat="63.35375555327216" lon="8.188763891271881" id="-7603">
		<tag k="name" v="Skiftingshammaren" />
		<tag k="natural" v="hill" />
		<tag k="place" v="locality" />
		<tag k="ssr:stedsnr" v="901199" />
	</node>
	<node lat="63.290402776929355" lon="8.059738893512302" id="-7604">
		<tag k="name" v="Buskardhaugen" />
		<tag k="natural" v="hill" />
		<tag k="place" v="locality" />
		<tag k="ssr:stedsnr" v="901334" />
	</node>
	<node lat="63.355486108427286" lon="7.95868610535046" id="-7606">
		<tag k="name" v="Nausthaugen" />
=======
	<node id="-92387" lat="63.4280416628" lon="8.10342777587">
		<tag k="name" v="Ørnstrupen" />
		<tag k="natural" v="hill" />
		<tag k="place" v="locality" />
		<tag k="ssr:stedsnr" v="51888" />
	</node>
	<node id="-91984" lat="63.4361611141" lon="8.13772500969">
		<tag k="name" v="Ytter Turhaugen" />
		<tag k="natural" v="hill" />
		<tag k="place" v="locality" />
		<tag k="ssr:stedsnr" v="597110" />
	</node>
	<node id="-92491" lat="63.4086555525" lon="7.81856667069">
		<tag k="name" v="Haukarhaugan" />
		<tag k="natural" v="hill" />
		<tag k="place" v="locality" />
		<tag k="ssr:stedsnr" v="133634" />
	</node>
	<node id="-93237" lat="63.2835388847" lon="8.02594167352">
		<tag k="name" v="Skagahaugen" />
		<tag k="natural" v="hill" />
		<tag k="place" v="locality" />
		<tag k="ssr:stedsnr" v="801915" />
	</node>
	<node id="-91999" lat="63.4078083324" lon="8.04918888661">
		<tag k="name" v="Moldvassheia" />
		<tag k="natural" v="hill" />
		<tag k="place" v="locality" />
		<tag k="ssr:stedsnr" v="718853" />
	</node>
	<node id="-92469" lat="63.3743083293" lon="8.11635555175">
		<tag k="name" v="Nørd Kongshaugen" />
		<tag k="natural" v="hill" />
		<tag k="place" v="locality" />
		<tag k="ssr:stedsnr" v="112954" />
	</node>
	<node id="-92467" lat="63.4226305577" lon="8.03803889795">
		<tag k="name" v="Frostmyrbekken" />
		<tag k="natural" v="valley" />
		<tag k="place" v="locality" />
		<tag k="ssr:stedsnr" v="112858" />
	</node>
	<node id="-92279" lat="63.3953805521" lon="8.14554444035">
		<tag k="name" v="Ytter Kvilarhaugen" />
>>>>>>> e1d4bc35ff8a6074a6f2e91616a996b547c36f15
		<tag k="natural" v="hill" />
		<tag k="place" v="locality" />
		<tag k="ssr:stedsnr" v="901922" />
	</node>
<<<<<<< HEAD
	<node lat="63.34291666271659" lon="7.989844439483995" id="-7608">
		<tag k="name" v="Storhaugen" />
		<tag k="natural" v="hill" />
		<tag k="place" v="locality" />
		<tag k="ssr:stedsnr" v="901930" />
	</node>
	<node lat="63.293780554635" lon="8.151105546537586" id="-7623">
		<tag k="name" v="Storvarden" />
		<tag k="natural" v="hill" />
		<tag k="place" v="locality" />
		<tag k="ssr:stedsnr" v="740930" />
	</node>
	<node lat="63.43012777486091" lon="8.106230554887107" id="-7641">
		<tag k="name" v="Svarturda" />
		<tag k="natural" v="hill" />
		<tag k="place" v="locality" />
		<tag k="ssr:stedsnr" v="773412" />
	</node>
	<node lat="63.40120555809112" lon="7.8568888914679675" id="-7642">
		<tag k="name" v="Ørnhaugen" />
		<tag k="natural" v="hill" />
		<tag k="place" v="locality" />
		<tag k="ssr:stedsnr" v="778413" />
	</node>
	<node lat="63.3950333326403" lon="8.057322213477185" id="-7645">
		<tag k="name" v="Pilsdalen" />
		<tag k="natural" v="valley" />
		<tag k="place" v="locality" />
		<tag k="ssr:stedsnr" v="779851" />
	</node>
	<node lat="63.38095277494937" lon="8.114052779757861" id="-7647">
		<tag k="name" v="Slettahaugen" />
		<tag k="natural" v="hill" />
		<tag k="place" v="locality" />
		<tag k="ssr:stedsnr" v="779951" />
	</node>
	<node lat="63.42806666328993" lon="7.993727783818876" id="-7649">
		<tag k="name" v="Vester Måbergstua" />
		<tag k="natural" v="hill" />
		<tag k="place" v="locality" />
		<tag k="ssr:stedsnr" v="909776" />
	</node>
	<node lat="63.337230554950956" lon="7.862188882136012" id="-7659">
		<tag k="name" v="Møtua" />
		<tag k="natural" v="hill" />
		<tag k="place" v="locality" />
		<tag k="ssr:stedsnr" v="801773" />
	</node>
	<node lat="63.283538884735" lon="8.025941673521903" id="-7663">
		<tag k="name" v="Skagahaugen" />
		<tag k="natural" v="hill" />
		<tag k="place" v="locality" />
		<tag k="ssr:stedsnr" v="801915" />
	</node>
	<node lat="63.42075832963629" lon="7.873322213422242" id="-7670">
		<tag k="name" v="Dyrnestua" />
		<tag k="natural" v="hill" />
		<tag k="place" v="locality" />
		<tag k="ssr:stedsnr" v="801694" />
	</node>
	<node lat="63.38015555383666" lon="8.163680565254172" id="-7682">
		<tag k="name" v="Åndalstuån" />
		<tag k="natural" v="hill" />
		<tag k="place" v="locality" />
		<tag k="ssr:stedsnr" v="802881" />
	</node>
	<node lat="63.41870555243191" lon="7.966208338901226" id="-7736">
		<tag k="name" v="Rundhaugen" />
		<tag k="natural" v="hill" />
		<tag k="place" v="locality" />
		<tag k="ssr:stedsnr" v="840008" />
	</node>
	<node lat="63.35949166694167" lon="8.085858335072771" id="-7763">
		<tag k="name" v="Maurdalen" />
		<tag k="natural" v="valley" />
		<tag k="place" v="locality" />
		<tag k="ssr:stedsnr" v="863795" />
	</node>
	<node lat="63.447322219142656" lon="8.083194437173912" id="-7774">
		<tag k="name" v="Størhamhaugen" />
		<tag k="natural" v="hill" />
		<tag k="place" v="locality" />
		<tag k="ssr:stedsnr" v="895311" />
	</node>
	<node lat="63.28530555114268" lon="8.0404249929592" id="-7778">
		<tag k="name" v="Sveskarhaugen" />
		<tag k="natural" v="hill" />
		<tag k="place" v="locality" />
		<tag k="ssr:stedsnr" v="901260" />
	</node>
	<node lat="63.44664722238364" lon="8.038949995266792" id="-7779">
		<tag k="name" v="Langhaugen" />
		<tag k="natural" v="hill" />
		<tag k="place" v="locality" />
		<tag k="ssr:stedsnr" v="901453" />
	</node>
	<node lat="63.28906388563818" lon="8.054750001078729" id="-7806">
		<tag k="name" v="Ramndalshaugen" />
		<tag k="natural" v="hill" />
		<tag k="place" v="locality" />
		<tag k="ssr:stedsnr" v="923920" />
	</node>
	<node lat="63.51807499588262" lon="7.949630557472126" id="-7810">
		<tag k="name" v="Varden" />
		<tag k="natural" v="hill" />
		<tag k="place" v="locality" />
		<tag k="ssr:stedsnr" v="935909" />
	</node>
	<node lat="63.51841944404618" lon="7.953705564093625" id="-7811">
		<tag k="name" v="Nerpalla" />
		<tag k="place" v="locality" />
		<tag k="ssr:stedsnr" v="935939" />
	</node>
	<node lat="63.396072220155226" lon="7.8236333419071" id="-7822">
		<tag k="name" v="Høberga" />
		<tag k="natural" v="hill" />
		<tag k="place" v="locality" />
		<tag k="ssr:stedsnr" v="960286" />
	</node>
	<node lat="63.39393055474346" lon="8.17504166604218" id="-7824">
		<tag k="name" v="Torhushaugen" />
		<tag k="natural" v="hill" />
		<tag k="place" v="locality" />
		<tag k="ssr:stedsnr" v="961107" />
	</node>
	<node lat="63.39538055210197" lon="8.145544440348978" id="-7825">
		<tag k="name" v="Ytter Kvilarhaugen" />
		<tag k="natural" v="hill" />
		<tag k="place" v="locality" />
		<tag k="ssr:stedsnr" v="961112" />
	</node>
	<node lat="63.43464444070379" lon="8.136897220868873" id="-7827">
		<tag k="name" v="Tuvhaugen" />
		<tag k="natural" v="hill" />
		<tag k="place" v="locality" />
		<tag k="ssr:stedsnr" v="961101" />
	</node>
	<node lat="63.43311111012083" lon="7.911366672786553" id="-7828">
		<tag k="name" v="Kattuggelberget" />
		<tag k="natural" v="hill" />
		<tag k="place" v="locality" />
		<tag k="ssr:stedsnr" v="961308" />
	</node>
	<node lat="63.308019441517445" lon="8.011249992871369" id="-7831">
		<tag k="fixme" v="multiple name tags, choose one and add the other to alt_name" />
		<tag k="loc_name" v="Storvarden" />
		<tag k="name" v="Rossvollhaugen;Rosvollberget;Rossvollberget" />
		<tag k="natural" v="hill" />
		<tag k="place" v="locality" />
		<tag k="ssr:stedsnr" v="961711" />
	</node>
	<node lat="63.37141666471477" lon="8.150183333633706" id="-7832">
		<tag k="name" v="Øver Gurihaugen" />
		<tag k="natural" v="hill" />
		<tag k="place" v="locality" />
		<tag k="ssr:stedsnr" v="962135" />
	</node>
	<node lat="63.29792534808703" lon="8.168062097674836" id="-7834">
		<tag k="name" v="Skutneshaugen" />
		<tag k="natural" v="hill" />
		<tag k="place" v="locality" />
		<tag k="ssr:stedsnr" v="964312" />
	</node>
	<node lat="63.40097222068443" lon="7.856019448856955" id="-7886">
		<tag k="name" v="Ørntua" />
		<tag k="natural" v="hill" />
		<tag k="place" v="locality" />
		<tag k="ssr:stedsnr" v="12650" />
	</node>
	<node lat="63.420974815673546" lon="8.123044569717125" id="-7892">
		<tag k="name" v="Tverrbakkhaugen" />
		<tag k="natural" v="hill" />
		<tag k="place" v="locality" />
		<tag k="ssr:stedsnr" v="12683" />
	</node>
	<node lat="63.38159444290407" lon="7.856149997570249" id="-7915">
		<tag k="name" v="Daudmannshaugen" />
		<tag k="natural" v="hill" />
		<tag k="place" v="locality" />
		<tag k="ssr:stedsnr" v="13842" />
	</node>
	<node lat="63.5185194437192" lon="7.953516665899333" id="-7920">
		<tag k="name" v="Palla" />
		<tag k="natural" v="ridge" />
		<tag k="place" v="locality" />
		<tag k="ssr:stedsnr" v="25962" />
	</node>
	<node lat="63.43053055880988" lon="7.920563892331508" id="-7938">
		<tag k="name" v="Stølvarden" />
		<tag k="natural" v="hill" />
		<tag k="place" v="locality" />
		<tag k="ssr:stedsnr" v="51352" />
	</node>
	<node lat="63.377836114051355" lon="7.902588898401917" id="-7940">
		<tag k="name" v="Kvistvågdalen" />
		<tag k="natural" v="valley" />
		<tag k="place" v="locality" />
		<tag k="ssr:stedsnr" v="51552" />
	</node>
	<node lat="63.37054166451627" lon="7.8795833295506466" id="-7941">
		<tag k="name" v="Haukarberget" />
		<tag k="natural" v="hill" />
		<tag k="place" v="locality" />
		<tag k="ssr:stedsnr" v="51553" />
	</node>
	<node lat="63.38419722480166" lon="7.897341667882459" id="-7942">
		<tag k="name" v="Kvistvågberget" />
		<tag k="natural" v="hill" />
		<tag k="place" v="locality" />
		<tag k="ssr:stedsnr" v="51557" />
	</node>
	<node lat="63.41302777573381" lon="7.81869444969925" id="-7943">
		<tag k="name" v="Sandtjørnhaugen" />
		<tag k="natural" v="hill" />
		<tag k="place" v="locality" />
		<tag k="ssr:stedsnr" v="51859" />
	</node>
	<node lat="63.382474999766465" lon="8.081602779143399" id="-7947">
		<tag k="name" v="Litl Kongensdalen" />
		<tag k="natural" v="valley" />
		<tag k="place" v="locality" />
		<tag k="ssr:stedsnr" v="51961" />
	</node>
	<node lat="63.374980551575014" lon="8.084280555628839" id="-7948">
		<tag k="name" v="Kongensdalen" />
		<tag k="natural" v="valley" />
		<tag k="place" v="locality" />
		<tag k="ssr:stedsnr" v="51962" />
	</node>
	<node lat="63.37905833434443" lon="7.835605560814994" id="-7962">
		<tag k="name" v="Såthaugen" />
		<tag k="natural" v="hill" />
		<tag k="place" v="locality" />
		<tag k="ssr:stedsnr" v="73638" />
	</node>
	<node lat="63.38792222622758" lon="8.11078888398831" id="-7963">
		<tag k="name" v="Ånhaugen" />
		<tag k="natural" v="hill" />
		<tag k="place" v="locality" />
		<tag k="ssr:stedsnr" v="73647" />
	</node>
	<node lat="63.3939694421504" lon="7.82953611741495" id="-7999">
		<tag k="name" v="Kuhaugen" />
		<tag k="natural" v="hill" />
		<tag k="place" v="locality" />
		<tag k="ssr:stedsnr" v="110291" />
	</node>
	<node lat="63.37242222387686" lon="7.86641665952328" id="-8001">
		<tag k="name" v="Dyvarden" />
		<tag k="natural" v="hill" />
		<tag k="place" v="locality" />
		<tag k="ssr:stedsnr" v="111553" />
	</node>
	<node lat="63.36607222637129" lon="7.844947230579164" id="-8003">
		<tag k="name" v="Ørnhaugen" />
		<tag k="natural" v="hill" />
		<tag k="place" v="locality" />
		<tag k="ssr:stedsnr" v="111560" />
	</node>
	<node lat="63.41877777859146" lon="7.8587277829904805" id="-8006">
		<tag k="name" v="Middagsvarden" />
		<tag k="natural" v="hill" />
		<tag k="place" v="locality" />
		<tag k="ssr:stedsnr" v="111799" />
	</node>
	<node lat="63.42263055770028" lon="8.038038897946716" id="-8015">
		<tag k="name" v="Frostmyrbekken" />
		<tag k="natural" v="valley" />
		<tag k="place" v="locality" />
		<tag k="ssr:stedsnr" v="112858" />
	</node>
	<node lat="63.374308329301655" lon="8.116355551749653" id="-8017">
		<tag k="name" v="Nørd Kongshaugen" />
		<tag k="natural" v="hill" />
		<tag k="place" v="locality" />
		<tag k="ssr:stedsnr" v="112954" />
	</node>
	<node lat="63.408655552470655" lon="7.818566670686878" id="-8028">
		<tag k="name" v="Haukarhaugan" />
		<tag k="natural" v="hill" />
		<tag k="place" v="locality" />
		<tag k="ssr:stedsnr" v="133634" />
	</node>
	<node lat="63.3619833312109" lon="8.138858328357475" id="-8068">
		<tag k="name" v="Hyttrabben" />
		<tag k="natural" v="hill" />
		<tag k="place" v="locality" />
		<tag k="ssr:stedsnr" v="134831" />
	</node>
	<node lat="63.35989999720092" lon="8.18913611980835" id="-8070">
		<tag k="name" v="Knubbeltua" />
		<tag k="natural" v="hill" />
		<tag k="place" v="locality" />
		<tag k="ssr:stedsnr" v="134836" />
	</node>
	<node lat="63.37343611036988" lon="8.156913886680012" id="-8077">
		<tag k="name" v="Heggjedalen" />
		<tag k="natural" v="valley" />
		<tag k="place" v="locality" />
		<tag k="ssr:stedsnr" v="134894" />
	</node>
	<node lat="63.44501111277686" lon="8.097205549160565" id="-8089">
		<tag k="name" v="Hundtjørnrabben" />
		<tag k="natural" v="hill" />
		<tag k="place" v="locality" />
		<tag k="ssr:stedsnr" v="166335" />
	</node>
	<node lat="63.43280555434779" lon="8.117341673188776" id="-8090">
		<tag k="name" v="Raudvarden" />
		<tag k="natural" v="hill" />
		<tag k="place" v="locality" />
		<tag k="ssr:stedsnr" v="166426" />
	</node>
	<node lat="63.397605554378224" lon="7.8194027769989845" id="-8093">
		<tag k="name" v="Blåbærhaugen" />
		<tag k="natural" v="hill" />
		<tag k="place" v="locality" />
		<tag k="ssr:stedsnr" v="171283" />
	</node>
	<node lat="63.356300004012745" lon="8.052372222337487" id="-8096">
		<tag k="name" v="Litlramberget" />
		<tag k="natural" v="hill" />
		<tag k="place" v="locality" />
		<tag k="ssr:stedsnr" v="172441" />
	</node>
	<node lat="63.35036666228153" lon="8.053900005981198" id="-8097">
		<tag k="name" v="Småramberga" />
		<tag k="natural" v="hill" />
		<tag k="place" v="locality" />
		<tag k="ssr:stedsnr" v="172444" />
	</node>
	<node lat="63.3629722212023" lon="8.12765278630984" id="-8103">
		<tag k="name" v="Litlhatten" />
		<tag k="natural" v="hill" />
		<tag k="place" v="locality" />
		<tag k="ssr:stedsnr" v="172943" />
	</node>
	<node lat="63.40955833345847" lon="7.806433330159167" id="-8104">
		<tag k="name" v="Skarpnestuva" />
		<tag k="natural" v="hill" />
		<tag k="place" v="locality" />
		<tag k="ssr:stedsnr" v="172850" />
	</node>
	<node lat="63.458877775356186" lon="8.008102781590795" id="-8106">
		<tag k="name" v="Hopadalen" />
		<tag k="natural" v="valley" />
=======
	<node id="-92381" lat="63.3841972248" lon="7.89734166788">
		<tag k="name" v="Kvistvågberget" />
		<tag k="natural" v="hill" />
		<tag k="place" v="locality" />
		<tag k="ssr:stedsnr" v="51557" />
	</node>
	<node id="-91698" lat="63.4110916659" lon="7.81506945213">
		<tag k="name" v="Andahaugen" />
		<tag k="natural" v="hill" />
		<tag k="place" v="locality" />
		<tag k="ssr:stedsnr" v="475822" />
	</node>
	<node id="-91944" lat="63.3082694473" lon="8.19956666607">
		<tag k="name" v="Sandbukthaugen" />
		<tag k="natural" v="hill" />
		<tag k="place" v="locality" />
		<tag k="ssr:stedsnr" v="558953" />
	</node>
	<node id="-92455" lat="63.4187777786" lon="7.85872778299">
		<tag k="name" v="Middagsvarden" />
		<tag k="natural" v="hill" />
		<tag k="place" v="locality" />
		<tag k="ssr:stedsnr" v="111799" />
	</node>
	<node id="-91697" lat="63.4169305566" lon="7.86853056412">
		<tag k="name" v="Dalastrupen" />
		<tag k="natural" v="valley" />
		<tag k="place" v="locality" />
		<tag k="ssr:stedsnr" v="475816" />
	</node>
	<node id="-92452" lat="63.3660722264" lon="7.84494723058">
		<tag k="name" v="Ørnhaugen" />
		<tag k="natural" v="hill" />
		<tag k="place" v="locality" />
		<tag k="ssr:stedsnr" v="111560" />
	</node>
	<node id="-92450" lat="63.3724222239" lon="7.86641665952">
		<tag k="name" v="Dyvarden" />
		<tag k="natural" v="hill" />
		<tag k="place" v="locality" />
		<tag k="ssr:stedsnr" v="111553" />
	</node>
	<node id="-92379" lat="63.3778361141" lon="7.9025888984">
		<tag k="name" v="Kvistvågdalen" />
		<tag k="natural" v="valley" />
		<tag k="place" v="locality" />
		<tag k="ssr:stedsnr" v="51552" />
	</node>
	<node id="-92447" lat="63.3939694422" lon="7.82953611741">
		<tag k="name" v="Kuhaugen" />
		<tag k="natural" v="hill" />
		<tag k="place" v="locality" />
		<tag k="ssr:stedsnr" v="110291" />
	</node>
	<node id="-92446" lat="63.3864277765" lon="7.83754166191">
		<tag k="name" v="Kjempegrefthaugen" />
		<tag k="natural" v="hill" />
		<tag k="place" v="locality" />
		<tag k="ssr:stedsnr" v="110284" />
	</node>
	<node id="-91419" lat="63.4305305588" lon="7.92056389233">
		<tag k="name" v="Stølvarden" />
		<tag k="natural" v="hill" />
		<tag k="place" v="locality" />
		<tag k="ssr:stedsnr" v="51352" />
	</node>
	<node id="-91418" lat="63.3913361105" lon="8.14069722619">
		<tag k="name" v="Eiriktjørnhaugen" />
		<tag k="natural" v="hill" />
		<tag k="place" v="locality" />
		<tag k="ssr:stedsnr" v="51120" />
	</node>
	<node id="-91417" lat="63.395299997" lon="8.12949999166">
		<tag k="name" v="Ånvassrabben" />
		<tag k="natural" v="hill" />
		<tag k="place" v="locality" />
		<tag k="ssr:stedsnr" v="51118" />
	</node>
	<node id="-91415" lat="63.4271138914" lon="7.923444435">
		<tag k="name" v="Ørnvarden" />
		<tag k="natural" v="hill" />
		<tag k="place" v="locality" />
		<tag k="ssr:stedsnr" v="51007" />
	</node>
	<node id="-91413" lat="63.3929472255" lon="7.86562499636">
		<tag k="name" v="Snaphaugen" />
		<tag k="natural" v="hill" />
		<tag k="place" v="locality" />
		<tag k="ssr:stedsnr" v="50402" />
	</node>
	<node id="-91409" lat="63.3621305556" lon="8.17288055837">
		<tag k="name" v="Pikvarden" />
		<tag k="natural" v="hill" />
		<tag k="place" v="locality" />
		<tag k="ssr:stedsnr" v="234213" />
	</node>
	<node id="-91920" lat="63.4454416661" lon="8.06000556295">
		<tag k="name" v="Litlhaugen" />
		<tag k="natural" v="hill" />
		<tag k="place" v="locality" />
		<tag k="ssr:stedsnr" v="536434" />
	</node>
	<node id="-91407" lat="63.3744583374" lon="8.17214722028">
		<tag k="name" v="Heggdalshammaren" />
		<tag k="natural" v="hill" />
		<tag k="place" v="locality" />
		<tag k="ssr:stedsnr" v="234137" />
	</node>
	<node id="-91612" lat="63.4026888857" lon="8.0951333248">
		<tag k="name" v="Litlvasshaugen" />
		<tag k="natural" v="hill" />
		<tag k="place" v="locality" />
		<tag k="ssr:stedsnr" v="233872" />
	</node>
	<node id="-92877" lat="63.2854222221" lon="8.0402138902">
		<tag k="name" v="Tjuvholberga" />
		<tag k="natural" v="hill" />
		<tag k="place" v="locality" />
		<tag k="ssr:stedsnr" v="437883" />
	</node>
	<node id="-92428" lat="63.3558333293" lon="7.95925277474">
		<tag k="name" v="Nausthaugberga" />
		<tag k="natural" v="hill" />
		<tag k="place" v="locality" />
		<tag k="ssr:stedsnr" v="74819" />
	</node>
	<node id="-92939" lat="63.3648861092" lon="8.14484167492">
		<tag k="name" v="Folkedalen" />
		<tag k="natural" v="valley" />
		<tag k="place" v="locality" />
		<tag k="ssr:stedsnr" v="537140" />
	</node>
	<node id="-91914" lat="63.4125333333" lon="8.13428888837">
		<tag k="name" v="Ytter Kvernhushaugen" />
		<tag k="natural" v="hill" />
		<tag k="place" v="locality" />
		<tag k="ssr:stedsnr" v="536022" />
	</node>
	<node id="-92937" lat="63.3695722242" lon="8.15785278038">
		<tag k="name" v="Ner Gurihaugen" />
		<tag k="natural" v="hill" />
		<tag k="place" v="locality" />
		<tag k="ssr:stedsnr" v="537123" />
	</node>
	<node id="-91400" lat="63.3257250044" lon="7.98647222278">
		<tag k="name" v="Svahaugen" />
		<tag k="natural" v="hill" />
		<tag k="place" v="locality" />
		<tag k="ssr:stedsnr" v="233580" />
	</node>
	<node id="-91911" lat="63.4126583362" lon="7.92571945007">
		<tag k="name" v="Sletringsdalen" />
		<tag k="natural" v="valley" />
		<tag k="place" v="locality" />
		<tag k="ssr:stedsnr" v="536003" />
	</node>
	<node id="-91396" lat="63.4215083301" lon="7.91068056273">
		<tag k="name" v="Rognberget" />
		<tag k="natural" v="hill" />
		<tag k="place" v="locality" />
		<tag k="ssr:stedsnr" v="233001" />
	</node>
	<node id="-92931" lat="63.4596555565" lon="8.10798334076">
		<tag k="name" v="Jørnhaugen" />
		<tag k="natural" v="hill" />
		<tag k="place" v="locality" />
		<tag k="ssr:stedsnr" v="537028" />
	</node>
	<node id="-92930" lat="63.4600361137" lon="8.10994444397">
		<tag k="name" v="Jørnsletta" />
		<tag k="place" v="locality" />
		<tag k="ssr:stedsnr" v="537023" />
	</node>
	<node id="-92928" lat="63.288008331" lon="8.13066111382">
		<tag k="name" v="Likhaugen" />
		<tag k="natural" v="hill" />
		<tag k="place" v="locality" />
		<tag k="ssr:stedsnr" v="536736" />
	</node>
	<node id="-92923" lat="63.4404194476" lon="8.00943055276">
		<tag k="name" v="Svarthaugen" />
		<tag k="natural" v="hill" />
		<tag k="place" v="locality" />
		<tag k="ssr:stedsnr" v="536500" />
	</node>
	<node id="-91386" lat="63.4034361112" lon="7.8613111199">
		<tag k="name" v="Vester Kløfthaugen" />
		<tag k="natural" v="hill" />
		<tag k="place" v="locality" />
		<tag k="ssr:stedsnr" v="232379" />
	</node>
	<node id="-92920" lat="63.3982916641" lon="8.13291388742">
		<tag k="name" v="Store Klepselhaugen" />
		<tag k="natural" v="hill" />
		<tag k="place" v="locality" />
		<tag k="ssr:stedsnr" v="536125" />
	</node>
	<node id="-92913" lat="63.4043944474" lon="7.85298889578">
		<tag k="name" v="Langvasstuva" />
		<tag k="natural" v="hill" />
		<tag k="place" v="locality" />
		<tag k="ssr:stedsnr" v="535422" />
	</node>
	<node id="-92399" lat="63.3879222262" lon="8.11078888399">
		<tag k="name" v="Ånhaugen" />
		<tag k="natural" v="hill" />
		<tag k="place" v="locality" />
		<tag k="ssr:stedsnr" v="73647" />
	</node>
	<node id="-92396" lat="63.3790583343" lon="7.83560556081">
		<tag k="name" v="Såthaugen" />
		<tag k="natural" v="hill" />
		<tag k="place" v="locality" />
		<tag k="ssr:stedsnr" v="73638" />
	</node>
	<node id="-92391" lat="63.3317083353" lon="8.03718889851">
		<tag k="name" v="Singshaugen" />
		<tag k="natural" v="hill" />
		<tag k="place" v="locality" />
		<tag k="ssr:stedsnr" v="52721" />
	</node>
	<node id="-92389" lat="63.3749805516" lon="8.08428055563">
		<tag k="name" v="Kongensdalen" />
		<tag k="natural" v="valley" />
		<tag k="place" v="locality" />
		<tag k="ssr:stedsnr" v="51962" />
	</node>
	<node id="-92388" lat="63.3824749998" lon="8.08160277914">
		<tag k="name" v="Litl Kongensdalen" />
		<tag k="natural" v="valley" />
		<tag k="place" v="locality" />
		<tag k="ssr:stedsnr" v="51961" />
	</node>
	<node id="-93411" lat="63.3714166647" lon="8.15018333363">
		<tag k="name" v="Øver Gurihaugen" />
		<tag k="natural" v="hill" />
		<tag k="place" v="locality" />
		<tag k="ssr:stedsnr" v="962135" />
	</node>
	<node id="-91362" lat="63.4187861122" lon="7.8474166605">
		<tag k="name" v="Grønhaugen" />
		<tag k="natural" v="hill" />
		<tag k="place" v="locality" />
		<tag k="ssr:stedsnr" v="219015" />
	</node>
	<node id="-91873" lat="63.4427082662" lon="8.10868770745">
		<tag k="name" v="Ørntua" />
		<tag k="natural" v="hill" />
		<tag k="place" v="locality" />
		<tag k="ssr:stedsnr" v="680783" />
	</node>
	<node id="-92896" lat="63.3638361102" lon="8.01180556446">
		<tag k="fixme" v="consider natural=peak for the most distinct mountains in the district" />
		<tag k="name" v="Sjøåsen" />
		<tag k="natural" v="hill" />
		<tag k="place" v="locality" />
		<tag k="ssr:stedsnr" v="438802" />
	</node>
	<node id="-93407" lat="63.3169777745" lon="8.02978887934">
		<tag k="name" v="Sveabakken" />
		<tag k="natural" v="slope" />
		<tag k="place" v="locality" />
		<tag k="ssr:stedsnr" v="961717" />
	</node>
	<node id="-93406" lat="63.3080194415" lon="8.01124999287">
		<tag k="name" v="Rossvollhaugen" />
		<tag k="natural" v="hill" />
		<tag k="place" v="locality" />
		<tag k="ssr:stedsnr" v="961711" />
	</node>
	<node id="-92893" lat="63.3457972215" lon="8.09624444188">
		<tag k="name" v="Leirviktua" />
		<tag k="natural" v="hill" />
		<tag k="place" v="locality" />
		<tag k="ssr:stedsnr" v="438781" />
	</node>
	<node id="-92380" lat="63.3705416645" lon="7.87958332955">
		<tag k="name" v="Haukarberget" />
		<tag k="natural" v="hill" />
		<tag k="place" v="locality" />
		<tag k="ssr:stedsnr" v="51553" />
	</node>
	<node id="-93403" lat="63.4331111101" lon="7.91136667279">
		<tag k="name" v="Kattuggelberget" />
		<tag k="natural" v="hill" />
		<tag k="place" v="locality" />
		<tag k="ssr:stedsnr" v="961308" />
	</node>
	<node id="-93402" lat="63.362047218" lon="8.0619166713">
		<tag k="name" v="Maurdalstuva" />
		<tag k="natural" v="hill" />
		<tag k="place" v="locality" />
		<tag k="ssr:stedsnr" v="961435" />
	</node>
	<node id="-93400" lat="63.2927388877" lon="8.0424083413">
		<tag k="name" v="Skardvåghammaren" />
		<tag k="natural" v="hill" />
		<tag k="place" v="locality" />
		<tag k="ssr:stedsnr" v="961281" />
	</node>
	<node id="-93399" lat="63.4346444407" lon="8.13689722087">
		<tag k="name" v="Tuvhaugen" />
		<tag k="natural" v="hill" />
		<tag k="place" v="locality" />
		<tag k="ssr:stedsnr" v="961101" />
	</node>
	<node id="-93396" lat="63.3960722202" lon="7.82363334191">
		<tag k="name" v="Høberga" />
		<tag k="natural" v="hill" />
		<tag k="place" v="locality" />
		<tag k="ssr:stedsnr" v="960286" />
	</node>
	<node id="-93390" lat="63.5173861113" lon="7.94804999333">
		<tag k="name" v="Storvarden" />
		<tag k="natural" v="hill" />
		<tag k="place" v="locality" />
		<tag k="ssr:stedsnr" v="874941" />
	</node>
	<node id="-93389" lat="63.3594916669" lon="8.08585833507">
		<tag k="name" v="Maurdalen" />
		<tag k="natural" v="valley" />
		<tag k="place" v="locality" />
		<tag k="ssr:stedsnr" v="863795" />
	</node>
	<node id="-91682" lat="63.3616000009" lon="8.06512222912">
		<tag k="name" v="Maurdalstua" />
		<tag k="natural" v="hill" />
		<tag k="place" v="locality" />
		<tag k="ssr:stedsnr" v="316858" />
	</node>
	<node id="-92874" lat="63.3692444421" lon="7.94007221258">
		<tag k="name" v="Røkhaugen" />
		<tag k="natural" v="hill" />
		<tag k="place" v="locality" />
		<tag k="ssr:stedsnr" v="437839" />
	</node>
	<node id="-92873" lat="63.385616663" lon="8.18298887933">
		<tag k="name" v="Bekkedalen" />
		<tag k="natural" v="valley" />
		<tag k="place" v="locality" />
		<tag k="ssr:stedsnr" v="437827" />
	</node>
	<node id="-92871" lat="63.4492083319" lon="8.019030557">
		<tag k="name" v="Årvoksberget" />
		<tag k="natural" v="hill" />
		<tag k="place" v="locality" />
		<tag k="ssr:stedsnr" v="437747" />
	</node>
	<node id="-92357" lat="63.5185194437" lon="7.9535166659">
		<tag k="name" v="Palla" />
		<tag k="natural" v="ridge" />
		<tag k="place" v="locality" />
		<tag k="ssr:stedsnr" v="25962" />
	</node>
	<node id="-92278" lat="63.3939305547" lon="8.17504166604">
		<tag k="name" v="Torhushaugen" />
		<tag k="natural" v="hill" />
		<tag k="place" v="locality" />
		<tag k="ssr:stedsnr" v="961107" />
	</node>
	<node id="-91838" lat="63.3268416654" lon="8.02830832844">
		<tag k="name" v="Larshammaren" />
		<tag k="natural" v="hill" />
		<tag k="place" v="locality" />
		<tag k="ssr:stedsnr" v="476759" />
	</node>
	<node id="-92349" lat="63.3815944429" lon="7.85614999757">
		<tag k="name" v="Daudmannshaugen" />
		<tag k="natural" v="hill" />
		<tag k="place" v="locality" />
		<tag k="ssr:stedsnr" v="13842" />
	</node>
	<node id="-91850" lat="63.3367777762" lon="7.99194166451">
		<tag k="name" v="Storsetberget" />
		<tag k="natural" v="hill" />
>>>>>>> e1d4bc35ff8a6074a6f2e91616a996b547c36f15
		<tag k="place" v="locality" />
		<tag k="ssr:stedsnr" v="679732" />
	</node>
<<<<<<< HEAD
	<node lat="63.366427782005225" lon="8.191094443479445" id="-8108">
		<tag k="name" v="Pikhaugen" />
		<tag k="natural" v="hill" />
		<tag k="place" v="locality" />
		<tag k="ssr:stedsnr" v="173108" />
	</node>
	<node lat="63.38106666805861" lon="8.15268333762125" id="-8110">
		<tag k="name" v="Johaugen" />
		<tag k="natural" v="hill" />
		<tag k="place" v="locality" />
		<tag k="ssr:stedsnr" v="173136" />
	</node>
	<node lat="63.43933889288734" lon="8.091272229759989" id="-8201">
		<tag k="name" v="Aurehaugan" />
		<tag k="natural" v="hill" />
		<tag k="place" v="locality" />
		<tag k="ssr:stedsnr" v="288316" />
	</node>
	<node lat="63.43427499917249" lon="7.8870083245797495" id="-8204">
		<tag k="name" v="Flataukan" />
		<tag k="place" v="locality" />
		<tag k="ssr:stedsnr" v="293363" />
	</node>
	<node lat="63.40994999713523" lon="7.803063892688364" id="-8208">
		<tag k="name" v="Johanhaugen" />
		<tag k="natural" v="hill" />
		<tag k="place" v="locality" />
		<tag k="ssr:stedsnr" v="293821" />
	</node>
	<node lat="63.42276944017556" lon="7.87038888345282" id="-8209">
		<tag k="name" v="Fantetua" />
		<tag k="natural" v="hill" />
		<tag k="place" v="locality" />
		<tag k="ssr:stedsnr" v="293833" />
	</node>
	<node lat="63.33014166474093" lon="8.056791664938038" id="-8210">
		<tag k="name" v="Rabben" />
		<tag k="natural" v="hill" />
		<tag k="place" v="locality" />
		<tag k="ssr:stedsnr" v="294744" />
	</node>
	<node lat="63.39943333470979" lon="8.07455832988652" id="-8214">
		<tag k="name" v="Pilsdalen" />
		<tag k="natural" v="valley" />
		<tag k="old_name" v="Piladalen" />
		<tag k="place" v="locality" />
		<tag k="ssr:stedsnr" v="294852" />
	</node>
	<node lat="63.35908055863507" lon="8.096477776982649" id="-8216">
		<tag k="name" v="Ørnhaugen" />
		<tag k="natural" v="hill" />
		<tag k="place" v="locality" />
		<tag k="ssr:stedsnr" v="294944" />
	</node>
	<node lat="63.374138891268494" lon="8.106961105943522" id="-8217">
		<tag k="name" v="Kongshaugen" />
		<tag k="natural" v="hill" />
		<tag k="place" v="locality" />
		<tag k="ssr:stedsnr" v="294960" />
	</node>
	<node lat="63.44380358938228" lon="8.107930962127178" id="-8218">
		<tag k="name" v="Skardvarden" />
		<tag k="natural" v="hill" />
		<tag k="place" v="locality" />
		<tag k="ssr:stedsnr" v="297308" />
	</node>
	<node lat="63.36587222654931" lon="7.964850005908091" id="-8267">
		<tag k="name" v="Langbergtua" />
		<tag k="natural" v="hill" />
		<tag k="place" v="locality" />
		<tag k="ssr:stedsnr" v="316856" />
	</node>
	<node lat="63.36160000090994" lon="8.065122229117618" id="-8268">
		<tag k="name" v="Maurdalstua" />
		<tag k="natural" v="hill" />
		<tag k="place" v="locality" />
		<tag k="ssr:stedsnr" v="316858" />
	</node>
	<node lat="63.36350555411492" lon="8.046325005348159" id="-8269">
		<tag k="name" v="Torshaugen" />
		<tag k="natural" v="hill" />
		<tag k="place" v="locality" />
		<tag k="ssr:stedsnr" v="316859" />
	</node>
	<node lat="63.357402776260564" lon="8.059980554361797" id="-8271">
		<tag k="name" v="Rambergtua" />
		<tag k="natural" v="hill" />
		<tag k="place" v="locality" />
		<tag k="ssr:stedsnr" v="316876" />
	</node>
	<node lat="63.518527776318564" lon="7.953702783925022" id="-8277">
		<tag k="name" v="Øverpalla" />
		<tag k="place" v="locality" />
		<tag k="ssr:stedsnr" v="328928" />
	</node>
	<node lat="63.38660833775721" lon="7.812997212233567" id="-8294">
		<tag k="name" v="Tombakhaugen" />
		<tag k="natural" v="hill" />
		<tag k="place" v="locality" />
		<tag k="ssr:stedsnr" v="353314" />
	</node>
	<node lat="63.40023055707336" lon="7.829594454334384" id="-8295">
		<tag k="name" v="Kavikhaugen" />
		<tag k="natural" v="hill" />
		<tag k="place" v="locality" />
		<tag k="ssr:stedsnr" v="353321" />
	</node>
	<node lat="63.425138888174686" lon="7.948511111894086" id="-8296">
		<tag k="name" v="Grunnvågvarden" />
		<tag k="natural" v="hill" />
		<tag k="place" v="locality" />
		<tag k="ssr:stedsnr" v="354014" />
	</node>
	<node lat="63.426380554304714" lon="8.1577777804867" id="-8297">
		<tag k="name" v="Langhaugvikan" />
		<tag k="natural" v="hill" />
		<tag k="place" v="locality" />
		<tag k="ssr:stedsnr" v="354021" />
	</node>
	<node lat="63.35405555146261" lon="8.011905564057992" id="-8300">
		<tag k="name" v="Gammelsmedhaugen" />
		<tag k="natural" v="hill" />
		<tag k="place" v="locality" />
		<tag k="ssr:stedsnr" v="354463" />
	</node>
	<node lat="63.42040555161772" lon="7.867005546465341" id="-8306">
		<tag k="name" v="Dalavarden" />
		<tag k="natural" v="hill" />
		<tag k="place" v="locality" />
		<tag k="ssr:stedsnr" v="354832" />
	</node>
	<node lat="63.36604722240613" lon="8.082277775699104" id="-8309">
		<tag k="name" v="Seterdalsberget" />
		<tag k="natural" v="hill" />
		<tag k="place" v="locality" />
		<tag k="ssr:stedsnr" v="354967" />
	</node>
	<node lat="63.45879444110127" lon="8.020094439759122" id="-8310">
		<tag k="name" v="Kasthaugan" />
		<tag k="natural" v="hill" />
		<tag k="place" v="locality" />
		<tag k="ssr:stedsnr" v="355133" />
	</node>
	<node lat="63.37956944579623" lon="8.019488886328283" id="-8348">
		<tag k="name" v="Sandvasstua" />
		<tag k="natural" v="hill" />
		<tag k="place" v="locality" />
		<tag k="ssr:stedsnr" v="376850" />
	</node>
	<node lat="63.295208334560975" lon="8.048722215566528" id="-8354">
		<tag k="name" v="Straumneshaugan" />
		<tag k="natural" v="hill" />
		<tag k="place" v="locality" />
		<tag k="ssr:stedsnr" v="376969" />
	</node>
	<node lat="63.35970277349888" lon="7.930050004469158" id="-8381">
		<tag k="name" v="Ørbekkhaugen" />
		<tag k="natural" v="hill" />
		<tag k="place" v="locality" />
		<tag k="ssr:stedsnr" v="414662" />
	</node>
	<node lat="63.40846389204373" lon="8.152116666853471" id="-8387">
		<tag k="name" v="Nonshaugen" />
		<tag k="natural" v="hill" />
		<tag k="place" v="locality" />
		<tag k="ssr:stedsnr" v="415024" />
	</node>
	<node lat="63.45623888979126" lon="7.9877083233649016" id="-8388">
		<tag k="name" v="Aunvågvarden" />
		<tag k="natural" v="hill" />
		<tag k="place" v="locality" />
		<tag k="ssr:stedsnr" v="415099" />
	</node>
	<node lat="63.29186666738876" lon="8.064486110798065" id="-8390">
		<tag k="name" v="Fjøshaugen" />
		<tag k="natural" v="hill" />
		<tag k="place" v="locality" />
		<tag k="ssr:stedsnr" v="415368" />
	</node>
	<node lat="63.42639999559909" lon="7.869541660600646" id="-8393">
		<tag k="name" v="Stortua" />
		<tag k="natural" v="hill" />
		<tag k="place" v="locality" />
		<tag k="ssr:stedsnr" v="415852" />
	</node>
	<node lat="63.3182611133202" lon="8.026880554966104" id="-8400">
		<tag k="name" v="Skoghaugen" />
		<tag k="natural" v="hill" />
		<tag k="place" v="locality" />
		<tag k="ssr:stedsnr" v="416654" />
	</node>
	<node lat="63.3760222226114" lon="7.800386117872305" id="-8403">
		<tag k="name" v="Steinsøynesberget" />
		<tag k="natural" v="hill" />
		<tag k="place" v="locality" />
		<tag k="ssr:stedsnr" v="437625" />
	</node>
	<node lat="63.44920833185294" lon="8.019030557004974" id="-8416">
		<tag k="name" v="Årvoksberget" />
		<tag k="natural" v="hill" />
		<tag k="place" v="locality" />
		<tag k="ssr:stedsnr" v="437747" />
	</node>
	<node lat="63.38561666302847" lon="8.182988879325006" id="-8418">
		<tag k="name" v="Bekkedalen" />
		<tag k="natural" v="valley" />
		<tag k="place" v="locality" />
		<tag k="ssr:stedsnr" v="437827" />
	</node>
	<node lat="63.36924444207078" lon="7.940072212577183" id="-8424">
		<tag k="name" v="Røkhaugen" />
		<tag k="natural" v="hill" />
		<tag k="place" v="locality" />
		<tag k="ssr:stedsnr" v="437839" />
	</node>
	<node lat="63.34579722153594" lon="8.096244441876129" id="-8434">
		<tag k="name" v="Leirviktua" />
		<tag k="natural" v="hill" />
		<tag k="place" v="locality" />
		<tag k="ssr:stedsnr" v="438781" />
	</node>
	<node lat="63.42024444429888" lon="7.971972231387758" id="-8441">
		<tag k="name" v="Mikkelvarden" />
		<tag k="natural" v="hill" />
		<tag k="place" v="locality" />
		<tag k="ssr:stedsnr" v="497679" />
	</node>
	<node lat="63.399805556945005" lon="7.99457500671728" id="-8470">
		<tag k="name" v="Pilstua" />
		<tag k="natural" v="hill" />
		<tag k="place" v="locality" />
		<tag k="ssr:stedsnr" v="498679" />
	</node>
	<node lat="63.343497219607634" lon="8.140711118115512" id="-8484">
		<tag k="name" v="Einbakkan" />
		<tag k="natural" v="hill" />
		<tag k="place" v="locality" />
		<tag k="ssr:stedsnr" v="498834" />
	</node>
	<node lat="63.4125333332737" lon="8.134288888365827" id="-8497">
		<tag k="name" v="Ytter Kvernhushaugen" />
		<tag k="natural" v="hill" />
		<tag k="place" v="locality" />
		<tag k="ssr:stedsnr" v="536022" />
	</node>
	<node lat="63.41741666984774" lon="8.141594444891693" id="-8498">
		<tag k="name" v="Husvarden" />
		<tag k="natural" v="hill" />
		<tag k="place" v="locality" />
		<tag k="ssr:stedsnr" v="536024" />
	</node>
	<node lat="63.44544166609452" lon="8.06000556294625" id="-8506">
		<tag k="name" v="Litlhaugen" />
		<tag k="natural" v="hill" />
		<tag k="place" v="locality" />
		<tag k="ssr:stedsnr" v="536434" />
	</node>
	<node lat="63.44041944758552" lon="8.009430552755424" id="-8507">
		<tag k="name" v="Svarthaugen" />
		<tag k="natural" v="hill" />
		<tag k="place" v="locality" />
		<tag k="ssr:stedsnr" v="536500" />
	</node>
	<node lat="63.28800833095648" lon="8.130661113821304" id="-8511">
		<tag k="name" v="Likhaugen" />
		<tag k="natural" v="hill" />
		<tag k="place" v="locality" />
		<tag k="ssr:stedsnr" v="536736" />
	</node>
	<node lat="63.45965555654785" lon="8.107983340760933" id="-8515">
		<tag k="name" v="Jørnhaugen" />
		<tag k="natural" v="hill" />
		<tag k="place" v="locality" />
		<tag k="ssr:stedsnr" v="537028" />
	</node>
	<node lat="63.36957222421832" lon="8.157852780380011" id="-8517">
		<tag k="name" v="Ner Gurihaugen" />
		<tag k="natural" v="hill" />
		<tag k="place" v="locality" />
		<tag k="ssr:stedsnr" v="537123" />
	</node>
	<node lat="63.364886109154305" lon="8.144841674919817" id="-8519">
		<tag k="name" v="Folkedalen" />
		<tag k="natural" v="valley" />
		<tag k="place" v="locality" />
		<tag k="ssr:stedsnr" v="537140" />
	</node>
	<node lat="63.384986109342975" lon="8.200966668060364" id="-8520">
		<tag k="name" v="Askhaugen" />
		<tag k="natural" v="hill" />
		<tag k="place" v="locality" />
		<tag k="ssr:stedsnr" v="537144" />
	</node>
	<node lat="63.30826944725808" lon="8.199566666070496" id="-8553">
		<tag k="name" v="Sandbukthaugen" />
		<tag k="natural" v="hill" />
		<tag k="place" v="locality" />
		<tag k="ssr:stedsnr" v="558953" />
	</node>
	<node lat="63.3852777805582" lon="7.873044435862004" id="-8580">
		<tag k="name" v="Ramndalshaugen" />
		<tag k="natural" v="hill" />
		<tag k="place" v="locality" />
		<tag k="ssr:stedsnr" v="596384" />
	</node>
	<node lat="63.40633055481548" lon="7.7979333431856945" id="-8582">
		<tag k="name" v="Brandhaugen" />
		<tag k="natural" v="hill" />
		<tag k="place" v="locality" />
		<tag k="ssr:stedsnr" v="596787" />
	</node>
	<node lat="63.41406388546169" lon="8.028136103985124" id="-8584">
		<tag k="name" v="Frostadhaugen" />
		<tag k="natural" v="hill" />
		<tag k="place" v="locality" />
		<tag k="ssr:stedsnr" v="597859" />
	</node>
	<node lat="63.374497222035856" lon="8.150824999883785" id="-8622">
		<tag k="name" v="Kjerkjehaugen" />
		<tag k="natural" v="hill" />
		<tag k="place" v="locality" />
		<tag k="ssr:stedsnr" v="619889" />
	</node>
	<node lat="63.35261388964791" lon="8.006236104262936" id="-8630">
		<tag k="name" v="Valmyrrabben" />
		<tag k="natural" v="hill" />
		<tag k="place" v="locality" />
		<tag k="ssr:stedsnr" v="619863" />
	</node>
	<node lat="63.36463055699166" lon="8.182852785108587" id="-8650">
		<tag k="name" v="Bryggehaugen" />
		<tag k="natural" v="hill" />
		<tag k="place" v="locality" />
		<tag k="ssr:stedsnr" v="658147" />
	</node>
	<node lat="63.42936111068604" lon="7.877377768344622" id="-8654">
		<tag k="name" v="Litltuva" />
		<tag k="natural" v="hill" />
		<tag k="place" v="locality" />
		<tag k="ssr:stedsnr" v="657329" />
	</node>
	<node lat="63.40993055326959" lon="7.812130559219911" id="-8656">
		<tag k="name" v="Bergvikdalen" />
		<tag k="natural" v="valley" />
		<tag k="place" v="locality" />
		<tag k="ssr:stedsnr" v="657800" />
	</node>
	<node lat="63.425322220614454" lon="8.136900001998665" id="-8661">
		<tag k="name" v="Rundhaugen" />
		<tag k="natural" v="hill" />
		<tag k="place" v="locality" />
		<tag k="ssr:stedsnr" v="658018" />
	</node>
	<node lat="63.39673611178072" lon="8.17386111272279" id="-8662">
		<tag k="name" v="Hamnahaugen" />
=======
	<node id="-92346" lat="63.3560388912" lon="7.98289166233">
		<tag k="name" v="Bærskardhaugen" />
		<tag k="natural" v="hill" />
		<tag k="place" v="locality" />
		<tag k="ssr:stedsnr" v="13828" />
	</node>
	<node id="-91423" lat="63.4130277757" lon="7.8186944497">
		<tag k="name" v="Sandtjørnhaugen" />
		<tag k="natural" v="hill" />
		<tag k="place" v="locality" />
		<tag k="ssr:stedsnr" v="51859" />
	</node>
	<node id="-91764" lat="63.3998055569" lon="7.99457500672">
		<tag k="name" v="Pilstua" />
		<tag k="natural" v="hill" />
		<tag k="place" v="locality" />
		<tag k="ssr:stedsnr" v="498679" />
	</node>
	<node id="-91610" lat="63.397219446" lon="8.12404167518">
		<tag k="name" v="Langdalen" />
		<tag k="natural" v="valley" />
		<tag k="place" v="locality" />
		<tag k="ssr:stedsnr" v="233868" />
	</node>
	<node id="-91827" lat="63.3501916678" lon="8.13018611816">
		<tag k="name" v="Roparberget" />
		<tag k="natural" v="hill" />
		<tag k="place" v="locality" />
		<tag k="ssr:stedsnr" v="658231" />
	</node>
	<node id="-91825" lat="63.364630557" lon="8.18285278511">
		<tag k="name" v="Bryggehaugen" />
		<tag k="natural" v="hill" />
		<tag k="place" v="locality" />
		<tag k="ssr:stedsnr" v="658147" />
	</node>
	<node id="-91823" lat="63.4253222206" lon="8.136900002">
		<tag k="name" v="Rundhaugen" />
		<tag k="natural" v="hill" />
		<tag k="place" v="locality" />
		<tag k="ssr:stedsnr" v="658018" />
	</node>
	<node id="-91821" lat="63.4520444432" lon="8.12465556305">
		<tag k="name" v="Storhaugen" />
		<tag k="natural" v="hill" />
		<tag k="place" v="locality" />
		<tag k="ssr:stedsnr" v="658010" />
	</node>
	<node id="-91819" lat="63.4272527773" lon="7.89532222525">
		<tag k="name" v="Skjelvågdalshaugen" />
		<tag k="natural" v="hill" />
		<tag k="place" v="locality" />
		<tag k="ssr:stedsnr" v="658005" />
	</node>
	<node id="-92842" lat="63.3182611133" lon="8.02688055497">
		<tag k="name" v="Skoghaugen" />
		<tag k="natural" v="hill" />
		<tag k="place" v="locality" />
		<tag k="ssr:stedsnr" v="416654" />
	</node>
	<node id="-92840" lat="63.4524972225" lon="8.04998332424">
		<tag k="name" v="Øver Stamberghaugen" />
		<tag k="natural" v="hill" />
		<tag k="place" v="locality" />
		<tag k="ssr:stedsnr" v="416095" />
	</node>
	<node id="-91815" lat="63.4519527822" lon="8.04030833287">
		<tag k="name" v="Hansavarden" />
		<tag k="natural" v="hill" />
		<tag k="place" v="locality" />
		<tag k="ssr:stedsnr" v="658098" />
	</node>
	<node id="-92838" lat="63.3446027765" lon="7.99942778031">
		<tag k="name" v="Nord Hallaren" />
		<tag k="natural" v="hill" />
		<tag k="place" v="locality" />
		<tag k="ssr:stedsnr" v="415937" />
	</node>
	<node id="-92323" lat="63.4209748157" lon="8.12304456972">
		<tag k="name" v="Tverrbakkhaugen" />
		<tag k="natural" v="hill" />
		<tag k="place" v="locality" />
		<tag k="ssr:stedsnr" v="12683" />
	</node>
	<node id="-91659" lat="63.3725166648" lon="7.91379165784">
		<tag k="name" v="Andskottet" />
		<tag k="natural" v="hill" />
		<tag k="place" v="locality" />
		<tag k="ssr:stedsnr" v="294511" />
	</node>
	<node id="-92833" lat="63.4263999956" lon="7.8695416606">
		<tag k="name" v="Stortua" />
		<tag k="natural" v="hill" />
		<tag k="place" v="locality" />
		<tag k="ssr:stedsnr" v="415852" />
	</node>
	<node id="-92320" lat="63.4009722207" lon="7.85601944886">
		<tag k="name" v="Ørntua" />
		<tag k="natural" v="hill" />
		<tag k="place" v="locality" />
		<tag k="ssr:stedsnr" v="12650" />
	</node>
	<node id="-92829" lat="63.338249998" lon="7.96387499069">
		<tag k="name" v="Rundhaugen" />
		<tag k="natural" v="hill" />
		<tag k="place" v="locality" />
		<tag k="ssr:stedsnr" v="415584" />
	</node>
	<node id="-92828" lat="63.3312999987" lon="7.99403888724">
		<tag k="name" v="Fjøshaugen" />
		<tag k="natural" v="hill" />
		<tag k="place" v="locality" />
		<tag k="ssr:stedsnr" v="415582" />
	</node>
	<node id="-91404" lat="63.3482083372" lon="7.96083055394">
		<tag k="name" v="Sauøyslættet" />
		<tag k="place" v="locality" />
		<tag k="ssr:stedsnr" v="233924" />
	</node>
	<node id="-92825" lat="63.2918666674" lon="8.0644861108">
		<tag k="name" v="Fjøshaugen" />
		<tag k="natural" v="hill" />
		<tag k="place" v="locality" />
		<tag k="ssr:stedsnr" v="415368" />
	</node>
	<node id="-93224" lat="63.4207583296" lon="7.87332221342">
		<tag k="name" v="Dyrnestua" />
		<tag k="natural" v="hill" />
		<tag k="place" v="locality" />
		<tag k="ssr:stedsnr" v="801694" />
	</node>
	<node id="-92820" lat="63.4562388898" lon="7.98770832336">
		<tag k="name" v="Aunvågvarden" />
		<tag k="natural" v="hill" />
		<tag k="place" v="locality" />
		<tag k="ssr:stedsnr" v="415099" />
	</node>
	<node id="-92817" lat="63.408463892" lon="8.15211666685">
		<tag k="name" v="Nonshaugen" />
		<tag k="natural" v="hill" />
		<tag k="place" v="locality" />
		<tag k="ssr:stedsnr" v="415024" />
	</node>
	<node id="-92812" lat="63.3597027735" lon="7.93005000447">
		<tag k="name" v="Ørbekkhaugen" />
		<tag k="natural" v="hill" />
		<tag k="place" v="locality" />
		<tag k="ssr:stedsnr" v="414662" />
	</node>
	<node id="-91586" lat="63.3590805586" lon="8.09647777698">
		<tag k="name" v="Ørnhaugen" />
		<tag k="natural" v="hill" />
		<tag k="place" v="locality" />
		<tag k="ssr:stedsnr" v="294944" />
	</node>
	<node id="-91783" lat="63.3434972196" lon="8.14071111812">
		<tag k="name" v="Einbakkan" />
		<tag k="natural" v="hill" />
		<tag k="place" v="locality" />
		<tag k="ssr:stedsnr" v="498834" />
	</node>
	<node id="-92285" lat="63.2979253481" lon="8.16806209767">
		<tag k="name" v="Skutneshaugen" />
		<tag k="natural" v="hill" />
		<tag k="place" v="locality" />
		<tag k="ssr:stedsnr" v="964312" />
	</node>
	<node id="-92284" lat="63.4524083354" lon="8.09125832494">
		<tag k="name" v="Mjølkhaugen" />
		<tag k="natural" v="hill" />
		<tag k="place" v="locality" />
		<tag k="ssr:stedsnr" v="962020" />
	</node>
	<node id="-93307" lat="63.4136361156" lon="7.80989444497">
		<tag k="name" v="Barhaugen" />
		<tag k="natural" v="hill" />
		<tag k="place" v="locality" />
		<tag k="ssr:stedsnr" v="840848" />
	</node>
	<node id="-93306" lat="63.413299997" lon="7.85940833602">
		<tag k="name" v="Andahaugen" />
		<tag k="natural" v="hill" />
		<tag k="place" v="locality" />
		<tag k="ssr:stedsnr" v="840839" />
	</node>
	<node id="-93304" lat="63.336938886" lon="7.97946666528">
		<tag k="name" v="Nisvågøya" />
		<tag k="natural" v="valley" />
		<tag k="place" v="locality" />
		<tag k="ssr:stedsnr" v="840539" />
	</node>
	<node id="-93303" lat="63.3778722234" lon="7.85250276781">
		<tag k="name" v="St. Midthaugen" />
		<tag k="natural" v="hill" />
		<tag k="place" v="locality" />
		<tag k="ssr:stedsnr" v="840570" />
	</node>
	<node id="-93302" lat="63.3721388875" lon="7.83847499338">
		<tag k="name" v="Kvernaberget" />
		<tag k="natural" v="hill" />
		<tag k="place" v="locality" />
		<tag k="ssr:stedsnr" v="840568" />
	</node>
	<node id="-93301" lat="63.3658000021" lon="7.86829721292">
		<tag k="name" v="Støberget" />
		<tag k="natural" v="hill" />
		<tag k="place" v="locality" />
		<tag k="ssr:stedsnr" v="840564" />
	</node>
	<node id="-93300" lat="63.3528472253" lon="8.02688333158">
		<tag k="name" v="Grønhaugen" />
		<tag k="natural" v="hill" />
		<tag k="place" v="locality" />
		<tag k="ssr:stedsnr" v="840445" />
	</node>
	<node id="-91582" lat="63.3301416647" lon="8.05679166494">
		<tag k="name" v="Rabben" />
		<tag k="natural" v="hill" />
		<tag k="place" v="locality" />
		<tag k="ssr:stedsnr" v="294744" />
	</node>
	<node id="-92784" lat="63.2952083346" lon="8.04872221557">
		<tag k="name" v="Straumneshaugan" />
		<tag k="natural" v="hill" />
		<tag k="place" v="locality" />
		<tag k="ssr:stedsnr" v="376969" />
	</node>
	<node id="-92008" lat="63.3872944436" lon="8.18459166062">
		<tag k="name" v="Sørvarden" />
		<tag k="natural" v="hill" />
		<tag k="place" v="locality" />
		<tag k="ssr:stedsnr" v="719380" />
	</node>
	<node id="-92267" lat="63.518419444" lon="7.95370556409">
		<tag k="name" v="Nerpalla" />
		<tag k="place" v="locality" />
		<tag k="ssr:stedsnr" v="935939" />
	</node>
	<node id="-92776" lat="63.3795694458" lon="8.01948888633">
		<tag k="name" v="Sandvasstua" />
		<tag k="natural" v="hill" />
		<tag k="place" v="locality" />
		<tag k="ssr:stedsnr" v="376850" />
	</node>
	<node id="-91829" lat="63.3173611075" lon="8.03626666493">
		<tag k="name" v="Ørntuva" />
		<tag k="natural" v="hill" />
		<tag k="place" v="locality" />
		<tag k="ssr:stedsnr" v="658690" />
	</node>
	<node id="-92262" lat="63.5180749959" lon="7.94963055747">
		<tag k="name" v="Varden" />
		<tag k="natural" v="hill" />
		<tag k="place" v="locality" />
		<tag k="ssr:stedsnr" v="935909" />
	</node>
	<node id="-92254" lat="63.3554861084" lon="7.95868610535">
		<tag k="name" v="Nausthaugen" />
		<tag k="natural" v="hill" />
		<tag k="place" v="locality" />
		<tag k="ssr:stedsnr" v="901922" />
	</node>
	<node id="-92005" lat="63.3885861133" lon="8.1480027689">
		<tag k="name" v="Grøntjørnhaugen" />
		<tag k="natural" v="hill" />
		<tag k="place" v="locality" />
		<tag k="ssr:stedsnr" v="719107" />
	</node>
	<node id="-92251" lat="63.4466472224" lon="8.03894999527">
		<tag k="name" v="Langhaugen" />
		<tag k="natural" v="hill" />
		<tag k="place" v="locality" />
		<tag k="ssr:stedsnr" v="901453" />
	</node>
	<node id="-92250" lat="63.2853055511" lon="8.04042499296">
		<tag k="name" v="Sveskarhaugen" />
		<tag k="natural" v="hill" />
		<tag k="place" v="locality" />
		<tag k="ssr:stedsnr" v="901260" />
	</node>
	<node id="-91735" lat="63.4204055516" lon="7.86700554647">
		<tag k="name" v="Dalavarden" />
		<tag k="natural" v="hill" />
		<tag k="place" v="locality" />
		<tag k="ssr:stedsnr" v="354832" />
	</node>
	<node id="-92857" lat="63.3760222226" lon="7.80038611787">
		<tag k="name" v="Steinsøynesberget" />
		<tag k="natural" v="hill" />
		<tag k="place" v="locality" />
		<tag k="ssr:stedsnr" v="437625" />
	</node>
	<node id="-92244" lat="63.3655277804" lon="8.18918333528">
		<tag k="name" v="Skardhammaren" />
		<tag k="natural" v="hill" />
		<tag k="place" v="locality" />
		<tag k="ssr:stedsnr" v="901113" />
	</node>
	<node id="-92243" lat="63.4185583332" lon="7.86739999518">
		<tag k="name" v="Høgstivarden" />
		<tag k="natural" v="hill" />
		<tag k="place" v="locality" />
		<tag k="ssr:stedsnr" v="900825" />
	</node>
	<node id="-91730" lat="63.5185277763" lon="7.95370278393">
		<tag k="name" v="Øverpalla" />
		<tag k="place" v="locality" />
		<tag k="ssr:stedsnr" v="328928" />
	</node>
	<node id="-92003" lat="63.4246055553" lon="7.91068889818">
		<tag k="name" v="Buskhaugen" />
		<tag k="natural" v="hill" />
		<tag k="place" v="locality" />
		<tag k="ssr:stedsnr" v="719001" />
	</node>
	<node id="-91576" lat="63.4005277776" lon="8.16032777086">
		<tag k="name" v="Kalddalshaugen" />
		<tag k="natural" v="hill" />
		<tag k="place" v="locality" />
		<tag k="ssr:stedsnr" v="294415" />
	</node>
	<node id="-91725" lat="63.3174416682" lon="8.05166944234">
		<tag k="name" v="Roparhaugen" />
		<tag k="natural" v="hill" />
		<tag k="place" v="locality" />
		<tag k="ssr:stedsnr" v="476690" />
	</node>
	<node id="-93260" lat="63.3738833377" lon="8.00712222977">
		<tag k="name" v="Høgstabben" />
		<tag k="natural" v="hill" />
		<tag k="place" v="locality" />
		<tag k="ssr:stedsnr" v="802894" />
	</node>
	<node id="-93257" lat="63.3801555538" lon="8.16368056525">
		<tag k="name" v="Åndalstuån" />
		<tag k="natural" v="hill" />
		<tag k="place" v="locality" />
		<tag k="ssr:stedsnr" v="802881" />
	</node>
	<node id="-91720" lat="63.3612444404" lon="8.18043889147">
		<tag k="name" v="Vestivarden" />
		<tag k="natural" v="hill" />
		<tag k="place" v="locality" />
		<tag k="ssr:stedsnr" v="476211" />
	</node>
	<node id="-92940" lat="63.3849861093" lon="8.20096666806">
		<tag k="name" v="Askhaugen" />
		<tag k="natural" v="hill" />
		<tag k="place" v="locality" />
		<tag k="ssr:stedsnr" v="537144" />
	</node>
	<node id="-91717" lat="63.4584555596" lon="8.02870000614">
		<tag k="name" v="Dalen" />
		<tag k="natural" v="valley" />
		<tag k="place" v="locality" />
		<tag k="ssr:stedsnr" v="476131" />
	</node>
	<node id="-91716" lat="63.3959416668" lon="8.18839166751">
		<tag k="name" v="Vollhaugen" />
		<tag k="natural" v="hill" />
		<tag k="place" v="locality" />
		<tag k="ssr:stedsnr" v="476127" />
	</node>
	<node id="-91715" lat="63.3931222234" lon="8.18054999709">
		<tag k="name" v="Vasslihaugen" />
>>>>>>> e1d4bc35ff8a6074a6f2e91616a996b547c36f15
		<tag k="natural" v="hill" />
		<tag k="place" v="locality" />
		<tag k="ssr:stedsnr" v="476123" />
	</node>
<<<<<<< HEAD
	<node lat="63.3859138881332" lon="8.144325005344848" id="-8663">
		<tag k="name" v="Dikmyrvarden" />
		<tag k="natural" v="hill" />
		<tag k="place" v="locality" />
		<tag k="ssr:stedsnr" v="658120" />
	</node>
	<node lat="63.45428055911144" lon="8.016902772825803" id="-8665">
		<tag k="name" v="Hopesletta" />
		<tag k="place" v="locality" />
		<tag k="ssr:stedsnr" v="658126" />
	</node>
	<node lat="63.433011111197914" lon="7.8823222159592286" id="-8675">
		<tag k="name" v="Tyttebærhaugen" />
		<tag k="natural" v="hill" />
		<tag k="place" v="locality" />
		<tag k="ssr:stedsnr" v="718318" />
	</node>
	<node lat="63.37645833038314" lon="7.939797226504306" id="-8677">
		<tag k="name" v="Sølvberget" />
		<tag k="natural" v="hill" />
		<tag k="place" v="locality" />
		<tag k="ssr:stedsnr" v="718543" />
	</node>
	<node lat="63.38212221933206" lon="7.9492888972148865" id="-8678">
		<tag k="fixme" v="consider natural=peak for the most distinct mountains in the district" />
		<tag k="name" v="Fuggelåsen" />
		<tag k="natural" v="hill" />
		<tag k="place" v="locality" />
		<tag k="ssr:stedsnr" v="718544" />
	</node>
	<node lat="63.33190277419014" lon="7.981374997906018" id="-8679">
		<tag k="name" v="Rangvågdalen" />
		<tag k="natural" v="valley" />
		<tag k="place" v="locality" />
		<tag k="ssr:stedsnr" v="718560" />
	</node>
	<node lat="63.39296389307355" lon="8.109116657632034" id="-8681">
		<tag k="name" v="Langdalshaugen" />
		<tag k="natural" v="hill" />
		<tag k="place" v="locality" />
		<tag k="ssr:stedsnr" v="718836" />
	</node>
	<node lat="63.40780833243854" lon="8.049188886610203" id="-8682">
		<tag k="name" v="Moldvassheia" />
		<tag k="natural" v="hill" />
		<tag k="place" v="locality" />
		<tag k="ssr:stedsnr" v="718853" />
	</node>
	<node lat="63.4246055552549" lon="7.910688898180061" id="-8683">
		<tag k="name" v="Buskhaugen" />
		<tag k="natural" v="hill" />
		<tag k="place" v="locality" />
		<tag k="ssr:stedsnr" v="719001" />
	</node>
	<node lat="63.40977499986025" lon="7.981091675249547" id="-8684">
		<tag k="name" v="Storhallaren" />
=======
	<node id="-91915" lat="63.4174166698" lon="8.14159444489">
		<tag k="name" v="Husvarden" />
		<tag k="natural" v="hill" />
		<tag k="place" v="locality" />
		<tag k="ssr:stedsnr" v="536024" />
	</node>
	<node id="-92736" lat="63.4587944411" lon="8.02009443976">
		<tag k="name" v="Kasthaugan" />
		<tag k="natural" v="hill" />
		<tag k="place" v="locality" />
		<tag k="ssr:stedsnr" v="355133" />
	</node>
	<node id="-92735" lat="63.450561114" lon="8.0871666686">
		<tag k="name" v="Lamhaugan" />
		<tag k="natural" v="hill" />
		<tag k="place" v="locality" />
		<tag k="ssr:stedsnr" v="355022" />
	</node>
	<node id="-92734" lat="63.3660472224" lon="8.0822777757">
		<tag k="name" v="Seterdalsberget" />
		<tag k="natural" v="hill" />
		<tag k="place" v="locality" />
		<tag k="ssr:stedsnr" v="354967" />
	</node>
	<node id="-93365" lat="63.2934777791" lon="8.06683054627">
		<tag k="name" v="Haukarhaugen" />
		<tag k="natural" v="hill" />
		<tag k="place" v="locality" />
		<tag k="ssr:stedsnr" v="862916" />
	</node>
	<node id="-91708" lat="63.4234000038" lon="7.88866110638">
		<tag k="name" v="Sør Falkhaugen" />
		<tag k="natural" v="hill" />
		<tag k="place" v="locality" />
		<tag k="ssr:stedsnr" v="476005" />
	</node>
	<node id="-92219" lat="63.3201722233" lon="8.03407777589">
		<tag k="name" v="Skogsletta" />
		<tag k="place" v="locality" />
		<tag k="ssr:stedsnr" v="841668" />
	</node>
	<node id="-92730" lat="63.3540555515" lon="8.01190556406">
		<tag k="name" v="Gammelsmedhaugen" />
		<tag k="natural" v="hill" />
		<tag k="place" v="locality" />
		<tag k="ssr:stedsnr" v="354463" />
	</node>
	<node id="-92217" lat="63.3719388897" lon="8.07985556245">
		<tag k="name" v="Setervarden" />
		<tag k="natural" v="hill" />
		<tag k="place" v="locality" />
		<tag k="ssr:stedsnr" v="840955" />
	</node>
	<node id="-92726" lat="63.4263805543" lon="8.15777778049">
		<tag k="name" v="Langhaugvikan" />
		<tag k="natural" v="hill" />
		<tag k="place" v="locality" />
		<tag k="ssr:stedsnr" v="354021" />
	</node>
	<node id="-92725" lat="63.4251388882" lon="7.94851111189">
		<tag k="name" v="Grunnvågvarden" />
		<tag k="natural" v="hill" />
		<tag k="place" v="locality" />
		<tag k="ssr:stedsnr" v="354014" />
	</node>
	<node id="-92212" lat="63.4187055524" lon="7.9662083389">
		<tag k="name" v="Rundhaugen" />
		<tag k="natural" v="hill" />
>>>>>>> e1d4bc35ff8a6074a6f2e91616a996b547c36f15
		<tag k="place" v="locality" />
		<tag k="ssr:stedsnr" v="840008" />
	</node>
<<<<<<< HEAD
	<node lat="63.30098611344588" lon="8.09800832943516" id="-8714">
		<tag k="name" v="Kulihaugan" />
		<tag k="natural" v="hill" />
		<tag k="place" v="locality" />
		<tag k="ssr:stedsnr" v="740952" />
	</node>
	<node lat="63.34574166968946" lon="7.8648472250829755" id="-8724">
		<tag k="name" v="Steinnesberget" />
		<tag k="natural" v="hill" />
		<tag k="place" v="locality" />
		<tag k="ssr:stedsnr" v="741816" />
	</node>
	<node lat="63.349469444040196" lon="8.020152775823721" id="-8737">
		<tag k="fixme" v="consider natural=peak for the most distinct mountains in the district" />
		<tag k="name" v="Høgåsen" />
		<tag k="natural" v="hill" />
		<tag k="place" v="locality" />
		<tag k="ssr:stedsnr" v="741871" />
	</node>
	<node lat="63.43425833184628" lon="7.971727780461473" id="-8759">
		<tag k="name" v="Korsvassvarden" />
		<tag k="natural" v="hill" />
		<tag k="place" v="locality" />
		<tag k="ssr:stedsnr" v="779295" />
	</node>
	<node lat="63.379108332595614" lon="7.815427770884738" id="-8764">
		<tag k="name" v="Smådalshaugen" />
		<tag k="natural" v="hill" />
		<tag k="place" v="locality" />
		<tag k="ssr:stedsnr" v="779564" />
	</node>
	<node lat="63.39799722186901" lon="8.058047221549543" id="-8766">
		<tag k="name" v="Pilsbakkan" />
		<tag k="natural" v="slope" />
		<tag k="place" v="locality" />
		<tag k="ssr:stedsnr" v="779847" />
	</node>
	<node lat="63.36656389096048" lon="8.184938882733626" id="-8768">
		<tag k="name" v="Marithaugen" />
		<tag k="natural" v="hill" />
		<tag k="place" v="locality" />
		<tag k="ssr:stedsnr" v="780132" />
	</node>
	<node lat="63.28727222185758" lon="8.047111108464774" id="-8780">
		<tag k="name" v="Ørnklakken" />
		<tag k="natural" v="hill" />
		<tag k="place" v="locality" />
		<tag k="ssr:stedsnr" v="801901" />
	</node>
	<node lat="63.37388333774272" lon="8.00712222977492" id="-8798">
		<tag k="name" v="Høgstabben" />
		<tag k="natural" v="hill" />
		<tag k="place" v="locality" />
		<tag k="ssr:stedsnr" v="802894" />
	</node>
	<node lat="63.352847225305354" lon="8.026883331576549" id="-8835">
		<tag k="name" v="Grønhaugen" />
		<tag k="natural" v="hill" />
		<tag k="place" v="locality" />
		<tag k="ssr:stedsnr" v="840445" />
	</node>
	<node lat="63.336938886024406" lon="7.979466665283088" id="-8838">
		<tag k="name" v="Nisvågøya" />
		<tag k="natural" v="valley" />
		<tag k="place" v="locality" />
		<tag k="ssr:stedsnr" v="840539" />
	</node>
	<node lat="63.36580000211893" lon="7.868297212920288" id="-8840">
		<tag k="name" v="Støberget" />
		<tag k="natural" v="hill" />
		<tag k="place" v="locality" />
		<tag k="ssr:stedsnr" v="840564" />
	</node>
	<node lat="63.372138887486514" lon="7.8384749933780515" id="-8841">
		<tag k="name" v="Kvernaberget" />
		<tag k="natural" v="hill" />
		<tag k="place" v="locality" />
		<tag k="ssr:stedsnr" v="840568" />
	</node>
	<node lat="63.3778722234254" lon="7.85250276781365" id="-8842">
		<tag k="name" v="St. Midthaugen" />
		<tag k="natural" v="hill" />
		<tag k="place" v="locality" />
		<tag k="ssr:stedsnr" v="840570" />
	</node>
	<node lat="63.413299997033086" lon="7.859408336015281" id="-8843">
		<tag k="name" v="Andahaugen" />
		<tag k="natural" v="hill" />
		<tag k="place" v="locality" />
		<tag k="ssr:stedsnr" v="840839" />
	</node>
	<node lat="63.4136361156076" lon="7.809894444967385" id="-8844">
		<tag k="name" v="Barhaugen" />
		<tag k="natural" v="hill" />
		<tag k="place" v="locality" />
		<tag k="ssr:stedsnr" v="840848" />
	</node>
	<node lat="63.371938889662204" lon="8.079855562445251" id="-8846">
		<tag k="name" v="Setervarden" />
		<tag k="natural" v="hill" />
		<tag k="place" v="locality" />
		<tag k="ssr:stedsnr" v="840955" />
	</node>
	<node lat="63.32017222325934" lon="8.034077775888704" id="-8850">
		<tag k="name" v="Skogsletta" />
		<tag k="place" v="locality" />
		<tag k="ssr:stedsnr" v="841668" />
	</node>
	<node lat="63.29347777914581" lon="8.06683054627112" id="-8884">
		<tag k="name" v="Haukarhaugen" />
		<tag k="natural" v="hill" />
		<tag k="place" v="locality" />
		<tag k="ssr:stedsnr" v="862916" />
	</node>
	<node lat="63.51738611133019" lon="7.948049993329408" id="-8908">
		<tag k="name" v="Storvarden" />
		<tag k="natural" v="hill" />
		<tag k="place" v="locality" />
		<tag k="ssr:stedsnr" v="874941" />
	</node>
	<node lat="63.31697777446678" lon="8.029788879343064" id="-8942">
		<tag k="name" v="Sveabakken" />
		<tag k="natural" v="slope" />
		<tag k="place" v="locality" />
		<tag k="ssr:stedsnr" v="961717" />
	</node>
	<node lat="63.292738887712765" lon="8.04240834129573" id="-8946">
		<tag k="name" v="Skardvåghammaren" />
		<tag k="natural" v="hill" />
		<tag k="place" v="locality" />
		<tag k="ssr:stedsnr" v="961281" />
	</node>
	<node lat="63.36204721801747" lon="8.061916671301057" id="-8947">
		<tag k="name" v="Maurdalstuva" />
		<tag k="natural" v="hill" />
		<tag k="place" v="locality" />
		<tag k="ssr:stedsnr" v="961435" />
	</node>
	<node lat="63.452408335428714" lon="8.091258324938037" id="-8955">
		<tag k="name" v="Mjølkhaugen" />
		<tag k="natural" v="hill" />
		<tag k="place" v="locality" />
		<tag k="ssr:stedsnr" v="962020" />
=======
	<node id="-91998" lat="63.3929638931" lon="8.10911665763">
		<tag k="name" v="Langdalshaugen" />
		<tag k="natural" v="hill" />
		<tag k="place" v="locality" />
		<tag k="ssr:stedsnr" v="718836" />
	</node>
	<node id="-93234" lat="63.2872722219" lon="8.04711110846">
		<tag k="name" v="Ørnklakken" />
		<tag k="natural" v="hill" />
		<tag k="place" v="locality" />
		<tag k="ssr:stedsnr" v="801901" />
	</node>
	<node id="-92721" lat="63.3866083378" lon="7.81299721223">
		<tag k="name" v="Tombakhaugen" />
		<tag k="natural" v="hill" />
		<tag k="place" v="locality" />
		<tag k="ssr:stedsnr" v="353314" />
	</node>
	<node id="-91573" lat="63.3673194423" lon="8.18643333217">
		<tag k="name" v="Ytter Skardhaugen" />
		<tag k="natural" v="hill" />
		<tag k="place" v="locality" />
		<tag k="ssr:stedsnr" v="294113" />
	</node>
	<node id="-91694" lat="63.4401777794" lon="8.02365833977">
		<tag k="name" v="Småstålberget" />
		<tag k="natural" v="hill" />
		<tag k="place" v="locality" />
		<tag k="ssr:stedsnr" v="475513" />
	</node>
	<node id="-91692" lat="63.4419194406" lon="7.96189721985">
		<tag k="name" v="Kolberget" />
		<tag k="natural" v="hill" />
		<tag k="place" v="locality" />
		<tag k="ssr:stedsnr" v="475306" />
	</node>
	<node id="-91691" lat="63.447374997" lon="7.96795000068">
		<tag k="name" v="Kolbergtuva" />
		<tag k="natural" v="hill" />
		<tag k="place" v="locality" />
		<tag k="ssr:stedsnr" v="475304" />
	</node>
	<node id="-91690" lat="63.2848083316" lon="8.04254444974">
		<tag k="name" v="Tjuvholberga" />
		<tag k="natural" v="hill" />
		<tag k="place" v="locality" />
		<tag k="ssr:stedsnr" v="475284" />
	</node>
	<node id="-91688" lat="63.3982083297" lon="7.94341945135">
		<tag k="name" v="Sørsjursvarden" />
		<tag k="natural" v="hill" />
		<tag k="place" v="locality" />
		<tag k="ssr:stedsnr" v="475026" />
	</node>
	<node id="-91687" lat="63.391844447" lon="7.90705278451">
		<tag k="name" v="Hådalen" />
		<tag k="natural" v="valley" />
		<tag k="place" v="locality" />
		<tag k="ssr:stedsnr" v="475022" />
	</node>
	<node id="-92197" lat="63.337230555" lon="7.86218888214">
		<tag k="name" v="Møtua" />
		<tag k="natural" v="hill" />
		<tag k="place" v="locality" />
		<tag k="ssr:stedsnr" v="801773" />
	</node>
	<node id="-91683" lat="63.3635055541" lon="8.04632500535">
		<tag k="name" v="Torshaugen" />
		<tag k="natural" v="hill" />
		<tag k="place" v="locality" />
		<tag k="ssr:stedsnr" v="316859" />
	</node>
	<node id="-92722" lat="63.4002305571" lon="7.82959445433">
		<tag k="name" v="Kavikhaugen" />
		<tag k="natural" v="hill" />
		<tag k="place" v="locality" />
		<tag k="ssr:stedsnr" v="353321" />
	</node>
	<node id="-93019" lat="63.3749583346" lon="8.14913333442">
		<tag k="name" v="Alvestadryggen" />
		<tag k="natural" v="ridge" />
		<tag k="place" v="locality" />
		<tag k="ssr:stedsnr" v="597156" />
	</node>
	<node id="-92456" lat="63.4543500019" lon="7.96961110713">
		<tag k="name" v="Ørntuva" />
		<tag k="natural" v="hill" />
		<tag k="place" v="locality" />
		<tag k="ssr:stedsnr" v="112121" />
	</node>
	<node id="-92183" lat="63.2890638856" lon="8.05475000108">
		<tag k="name" v="Ramndalshaugen" />
		<tag k="natural" v="hill" />
		<tag k="place" v="locality" />
		<tag k="ssr:stedsnr" v="923920" />
	</node>
	<node id="-93201" lat="63.3809527749" lon="8.11405277976">
		<tag k="name" v="Slettahaugen" />
		<tag k="natural" v="hill" />
		<tag k="place" v="locality" />
		<tag k="ssr:stedsnr" v="779951" />
	</node>
	<node id="-93198" lat="63.3950333326" lon="8.05732221348">
		<tag k="name" v="Pilsdalen" />
		<tag k="natural" v="valley" />
		<tag k="place" v="locality" />
		<tag k="ssr:stedsnr" v="779851" />
	</node>
	<node id="-93197" lat="63.3979972219" lon="8.05804722155">
		<tag k="name" v="Pilsbakkan" />
		<tag k="natural" v="slope" />
		<tag k="place" v="locality" />
		<tag k="ssr:stedsnr" v="779847" />
	</node>
	<node id="-92684" lat="63.3574027763" lon="8.05998055436">
		<tag k="name" v="Rambergtua" />
		<tag k="natural" v="hill" />
		<tag k="place" v="locality" />
		<tag k="ssr:stedsnr" v="316876" />
	</node>
	<node id="-93195" lat="63.3791083326" lon="7.81542777088">
		<tag k="name" v="Smådalshaugen" />
		<tag k="natural" v="hill" />
		<tag k="place" v="locality" />
		<tag k="ssr:stedsnr" v="779564" />
	</node>
	<node id="-93015" lat="63.4104888884" lon="7.84680832871">
		<tag k="name" v="Svidhaugen" />
		<tag k="natural" v="hill" />
		<tag k="place" v="locality" />
		<tag k="ssr:stedsnr" v="596805" />
	</node>
	<node id="-91656" lat="63.4393388929" lon="8.09127222976">
		<tag k="name" v="Aurehaugan" />
		<tag k="natural" v="hill" />
		<tag k="place" v="locality" />
		<tag k="ssr:stedsnr" v="288316" />
	</node>
	<node id="-92588" lat="63.3810666681" lon="8.15268333762">
		<tag k="name" v="Johaugen" />
		<tag k="natural" v="hill" />
		<tag k="place" v="locality" />
		<tag k="ssr:stedsnr" v="173136" />
	</node>
	<node id="-93188" lat="63.4342583318" lon="7.97172778046">
		<tag k="name" v="Korsvassvarden" />
		<tag k="natural" v="hill" />
		<tag k="place" v="locality" />
		<tag k="ssr:stedsnr" v="779295" />
>>>>>>> e1d4bc35ff8a6074a6f2e91616a996b547c36f15
	</node>
</osm>
