<?xml version="1.0" encoding="UTF-8"?>
<osm version="0.6" generator="osmapis">
	<node lat="63.46216944146568" lon="8.07301667501651" id="-9537">
		<tag k="name" v="Svinøya" />
		<tag k="place" v="islet" />
		<tag k="ssr:stedsnr" v="12521" />
	</node>
	<node lat="63.46267499752874" lon="7.9847666739999426" id="-9538">
		<tag k="fixme" v="multiple name tags, choose one and add the other to alt_name" />
		<tag k="name" v="Kvolpøya;Kvalpøya" />
		<tag k="place" v="islet" />
		<tag k="ssr:stedsnr" v="12522" />
	</node>
	<node lat="63.32161666705772" lon="7.67585000923903" id="-9540">
		<tag k="name" v="Steinbåen" />
		<tag k="natural" v="shoal" />
		<tag k="place" v="locality" />
		<tag k="ssr:stedsnr" v="12601" />
	</node>
	<node lat="63.35241389277886" lon="7.7615555520089154" id="-9546">
		<tag k="name" v="Maltsekken" />
		<tag k="place" v="islet" />
		<tag k="ssr:stedsnr" v="13823" />
	</node>
	<node lat="63.47131666950938" lon="8.111922223083706" id="-9553">
		<tag k="fixme" v="consider seamark:type=rock or natural=shoal" />
		<tag k="name" v="Ternskjeret" />
		<tag k="place" v="islet" />
		<tag k="ssr:stedsnr" v="233024" />
	</node>
	<node lat="63.447213889591175" lon="8.153841676657525" id="-9554">
		<tag k="name" v="Reiraklakkan" />
		<tag k="place" v="islet" />
		<tag k="ssr:stedsnr" v="233117" />
	</node>
	<node lat="63.32489166287064" lon="7.982969449877367" id="-9558">
		<tag k="fixme" v="consider seamark:type=rock or natural=shoal" />
		<tag k="name" v="Sørvikskjeret" />
		<tag k="place" v="islet" />
		<tag k="ssr:stedsnr" v="233577" />
	</node>
	<node lat="63.32496111348488" lon="8.172699997685932" id="-9559">
		<tag k="name" v="Nørd Krongelholmen" />
		<tag k="place" v="islet" />
		<tag k="ssr:stedsnr" v="233713" />
	</node>
	<node lat="63.3445166637667" lon="7.900975001916696" id="-9560">
		<tag k="name" v="Lauvøyvågen" />
		<tag k="natural" v="bay" />
		<tag k="ssr:stedsnr" v="233723" />
	</node>
	<node lat="63.31879444518991" lon="8.046805548826216" id="-9564">
		<tag k="name" v="Greftskaget" />
		<tag k="natural" v="bay" />
		<tag k="ssr:stedsnr" v="233727" />
	</node>
	<node lat="63.54056388692453" lon="8.010302772261118" id="-9569">
		<tag k="name" v="Sørgrunnen" />
		<tag k="natural" v="shoal" />
		<tag k="place" v="locality" />
		<tag k="ssr:stedsnr" v="27403" />
	</node>
	<node lat="63.428486114411136" lon="8.204091665863581" id="-9572">
		<tag k="name" v="Indre Storbåen" />
		<tag k="natural" v="shoal" />
		<tag k="place" v="locality" />
		<tag k="ssr:stedsnr" v="37402" />
	</node>
	<node lat="63.45687500158238" lon="8.169647225747497" id="-9573">
		<tag k="name" v="Vestre Reiflua" />
		<tag k="natural" v="shoal" />
		<tag k="place" v="locality" />
		<tag k="ssr:stedsnr" v="37659" />
	</node>
	<node lat="63.31659722232815" lon="7.803383329798167" id="-9574">
		<tag k="name" v="Nørd Pimpstein" />
		<tag k="place" v="islet" />
		<tag k="ssr:stedsnr" v="37673" />
	</node>
	<node lat="63.3288277793893" lon="7.844452779717399" id="-9575">
		<tag k="name" v="Slagdønn" />
		<tag k="place" v="islet" />
		<tag k="ssr:stedsnr" v="37675" />
	</node>
	<node lat="63.51469722657659" lon="7.942461106996511" id="-9576">
		<tag k="fixme" v="consider seamark:type=rock or natural=shoal" />
		<tag k="name" v="Skuskjæret" />
		<tag k="place" v="islet" />
		<tag k="ssr:stedsnr" v="37709" />
	</node>
	<node lat="63.5113722227875" lon="7.943147220786931" id="-9577">
		<tag k="name" v="Fauskan" />
		<tag k="natural" v="shoal" />
		<tag k="place" v="locality" />
		<tag k="ssr:stedsnr" v="37710" />
	</node>
	<node lat="63.401841667929375" lon="7.786400006700478" id="-9582">
		<tag k="name" v="Leikhuva" />
		<tag k="place" v="islet" />
		<tag k="ssr:stedsnr" v="50410" />
	</node>
	<node lat="63.41741389271651" lon="8.167619436520127" id="-9585">
		<tag k="fixme" v="consider seamark:type=rock or natural=shoal" />
		<tag k="name" v="Gullklumpen" />
		<tag k="place" v="islet" />
		<tag k="ssr:stedsnr" v="51024" />
	</node>
	<node lat="63.32103610874921" lon="7.981427786846168" id="-9589">
		<tag k="fixme" v="consider seamark:type=rock or natural=shoal" />
		<tag k="name" v="Draget" />
		<tag k="place" v="islet" />
		<tag k="ssr:stedsnr" v="51581" />
	</node>
	<node lat="63.367977779790984" lon="7.827122230449965" id="-9590">
		<tag k="name" v="Kuholman" />
		<tag k="place" v="islet" />
		<tag k="ssr:stedsnr" v="51621" />
	</node>
	<node lat="63.46403333419199" lon="7.805969451847576" id="-9591">
		<tag k="name" v="Rognklovningen" />
		<tag k="place" v="islet" />
		<tag k="ssr:stedsnr" v="51825" />
	</node>
	<node lat="63.52379722058412" lon="7.9516944451398945" id="-9593">
		<tag k="fixme" v="consider seamark:type=rock or natural=shoal" />
		<tag k="name" v="Auster Tjeldskjeret" />
		<tag k="place" v="islet" />
		<tag k="ssr:stedsnr" v="51918" />
	</node>
	<node lat="63.44710833607744" lon="7.925363883571643" id="-9597">
		<tag k="alt_name" v="Litlnesøya" />
		<tag k="name" v="Torvøyan" />
		<tag k="place" v="islet" />
		<tag k="ssr:stedsnr" v="73528" />
	</node>
	<node lat="63.30612777720562" lon="7.676419453928871" id="-9600">
		<tag k="name" v="Litletaren" />
		<tag k="natural" v="shoal" />
		<tag k="place" v="locality" />
		<tag k="ssr:stedsnr" v="73619" />
	</node>
	<node lat="63.292450000880656" lon="7.7135500049686305" id="-9601">
		<tag k="fixme" v="consider seamark:type=rock or natural=shoal" />
		<tag k="name" v="Kjekråka" />
		<tag k="place" v="islet" />
		<tag k="ssr:stedsnr" v="73621" />
	</node>
	<node lat="63.482269448150355" lon="7.708036105993791" id="-9602">
		<tag k="name" v="Isklakken" />
		<tag k="natural" v="shoal" />
		<tag k="place" v="locality" />
		<tag k="ssr:stedsnr" v="73627" />
	</node>
	<node lat="63.40937222641446" lon="8.187758337473078" id="-9603">
		<tag k="name" v="Svinøya" />
		<tag k="place" v="islet" />
		<tag k="ssr:stedsnr" v="73662" />
	</node>
	<node lat="63.43259444205737" lon="7.7917249995274815" id="-9608">
		<tag k="fixme" v="consider seamark:type=rock or natural=shoal" />
		<tag k="name" v="Kalvøydraget" />
		<tag k="place" v="islet" />
		<tag k="ssr:stedsnr" v="73727" />
	</node>
	<node lat="63.324422221918724" lon="7.810380560993797" id="-9615">
		<tag k="alt_name" v="Store Tranøya" />
		<tag k="name" v="Tranøya" />
		<tag k="place" v="island" />
		<tag k="ssr:stedsnr" v="73778" />
	</node>
	<node lat="63.29458333318099" lon="7.986555564667472" id="-9616">
		<tag k="name" v="Olderøya" />
		<tag k="place" v="island" />
		<tag k="ssr:stedsnr" v="73913" />
	</node>
	<node lat="63.328227776764294" lon="7.796683334472389" id="-9617">
		<tag k="name" v="Rundholmen" />
		<tag k="place" v="islet" />
		<tag k="ssr:stedsnr" v="73808" />
	</node>
	<node lat="63.295724997714" lon="7.937705551552578" id="-9618">
		<tag k="name" v="Rognholmdraget" />
		<tag k="place" v="islet" />
		<tag k="ssr:stedsnr" v="73969" />
	</node>
	<node lat="63.53205277709182" lon="7.9571611159196785" id="-9620">
		<tag k="fixme" v="consider seamark:type=rock or natural=shoal" />
		<tag k="name" v="Vestgjegla" />
		<tag k="place" v="islet" />
		<tag k="ssr:stedsnr" v="74164" />
	</node>
	<node lat="63.2908611113821" lon="7.684802770758606" id="-9630">
		<tag k="name" v="Angelskjærfluan" />
		<tag k="natural" v="shoal" />
		<tag k="place" v="locality" />
		<tag k="ssr:stedsnr" v="97261" />
	</node>
	<node lat="63.240961113139946" lon="7.831933342334156" id="-9631">
		<tag k="fixme" v="consider seamark:type=rock or natural=shoal" />
		<tag k="name" v="Skarvbergtaren" />
		<tag k="place" v="islet" />
		<tag k="ssr:stedsnr" v="97268" />
	</node>
	<node lat="63.24887500320782" lon="7.718794451102613" id="-9632">
		<tag k="name" v="Indre Gåsefluan" />
		<tag k="natural" v="shoal" />
		<tag k="place" v="locality" />
		<tag k="ssr:stedsnr" v="97302" />
	</node>
	<node lat="63.497358329493714" lon="8.175180552084598" id="-9633">
		<tag k="name" v="Seiskallan" />
		<tag k="natural" v="shoal" />
		<tag k="place" v="locality" />
		<tag k="ssr:stedsnr" v="97784" />
	</node>
	<node lat="63.325780558158655" lon="7.796966663976719" id="-9634">
		<tag k="name" v="Litle Valøya" />
		<tag k="place" v="islet" />
		<tag k="ssr:stedsnr" v="98203" />
	</node>
	<node lat="63.48643055959273" lon="7.766183342295011" id="-9635">
		<tag k="name" v="Skjerbåen" />
		<tag k="natural" v="shoal" />
		<tag k="place" v="locality" />
		<tag k="ssr:stedsnr" v="98920" />
	</node>
	<node lat="63.48607777736665" lon="7.755455564568543" id="-9636">
		<tag k="name" v="Sletningen" />
		<tag k="natural" v="strait" />
		<tag k="ssr:stedsnr" v="98921" />
	</node>
	<node lat="63.50302777878926" lon="7.702097213944725" id="-9637">
		<tag k="name" v="Berget" />
		<tag k="natural" v="shoal" />
		<tag k="place" v="locality" />
		<tag k="ssr:stedsnr" v="98923" />
	</node>
	<node lat="63.35665833560049" lon="7.909519441906009" id="-9639">
		<tag k="name" v="Valen" />
		<tag k="natural" v="bay" />
		<tag k="ssr:stedsnr" v="110706" />
	</node>
	<node lat="63.29921944396571" lon="8.057988886065692" id="-9640">
		<tag k="name" v="Straumsneset" />
		<tag k="natural" v="cape" />
		<tag k="ssr:stedsnr" v="110631" />
	</node>
	<node lat="63.40302777702084" lon="8.169991666142792" id="-9642">
		<tag k="name" v="Litlholmen" />
		<tag k="place" v="islet" />
		<tag k="ssr:stedsnr" v="112125" />
	</node>
	<node lat="63.427122218757155" lon="7.906900006250006" id="-9643">
		<tag k="name" v="Vorbusvågen" />
		<tag k="natural" v="bay" />
		<tag k="ssr:stedsnr" v="112005" />
	</node>
	<node lat="63.324341667754574" lon="7.9728611162359355" id="-9647">
		<tag k="fixme" v="consider seamark:type=rock or natural=shoal" />
		<tag k="name" v="Masterskjeret" />
		<tag k="place" v="islet" />
		<tag k="ssr:stedsnr" v="112541" />
	</node>
	<node lat="63.31067500430628" lon="7.728544442452383" id="-9648">
		<tag k="alt_name" v="Leiskjæret, litle" />
		<tag k="fixme" v="consider seamark:type=rock or natural=shoal" />
		<tag k="name" v="Litle Leiskjæret" />
		<tag k="place" v="islet" />
		<tag k="ssr:stedsnr" v="114404" />
	</node>
	<node lat="63.35481111470554" lon="8.221994449176984" id="-9649">
		<tag k="name" v="Brettingen" />
		<tag k="place" v="islet" />
		<tag k="ssr:stedsnr" v="133208" />
	</node>
	<node lat="63.454777774048026" lon="7.901308326386313" id="-9654">
		<tag k="alt_name" v="Monsøyhauet" />
		<tag k="name" v="Monsøyhovudet" />
		<tag k="place" v="islet" />
		<tag k="ssr:stedsnr" v="133457" />
	</node>
	<node lat="63.3417111153044" lon="7.712725002391834" id="-9661">
		<tag k="name" v="Urstarene" />
		<tag k="natural" v="shoal" />
		<tag k="place" v="locality" />
		<tag k="ssr:stedsnr" v="133566" />
	</node>
	<node lat="63.526022218012926" lon="7.977166659636266" id="-9664">
		<tag k="fixme" v="consider seamark:type=rock or natural=shoal" />
		<tag k="name" v="Kråka" />
		<tag k="place" v="islet" />
		<tag k="ssr:stedsnr" v="134202" />
	</node>
	<node lat="63.502261111263564" lon="7.949508324699103" id="-9665">
		<tag k="fixme" v="consider seamark:type=rock or natural=shoal" />
		<tag k="name" v="Kråka" />
		<tag k="place" v="islet" />
		<tag k="ssr:stedsnr" v="134209" />
	</node>
	<node lat="63.50511389288347" lon="7.896580556978504" id="-9666">
		<tag k="alt_name" v="Veidahølen" />
		<tag k="bay" v="fjord" />
		<tag k="name" v="Veiahølen" />
		<tag k="natural" v="bay" />
		<tag k="ssr:stedsnr" v="134210" />
	</node>
	<node lat="63.510972220507085" lon="8.034194438400158" id="-9667">
		<tag k="name" v="Langfallet" />
		<tag k="natural" v="shoal" />
		<tag k="place" v="locality" />
		<tag k="ssr:stedsnr" v="134211" />
	</node>
	<node lat="63.29881388692986" lon="8.039244436252911" id="-9669">
		<tag k="name" v="Svelunn" />
		<tag k="place" v="islet" />
		<tag k="ssr:stedsnr" v="133955" />
	</node>
	<node lat="63.29655277766118" lon="7.745680547659733" id="-9670">
		<tag k="alt_name" v="Kaukaran" />
		<tag k="fixme" v="consider seamark:type=rock or natural=shoal" />
		<tag k="name" v="Kaukaren" />
		<tag k="place" v="islet" />
		<tag k="ssr:stedsnr" v="133958" />
	</node>
	<node lat="63.271077780262" lon="7.756755557062517" id="-9674">
		<tag k="name" v="Singsøydraget" />
		<tag k="place" v="islet" />
		<tag k="ssr:stedsnr" v="134908" />
	</node>
	<node lat="63.319038893143336" lon="7.761291673740796" id="-9682">
		<tag k="fixme" v="consider seamark:type=rock or natural=shoal" />
		<tag k="name" v="Fuglåsen" />
		<tag k="place" v="islet" />
		<tag k="ssr:stedsnr" v="254951" />
	</node>
	<node lat="63.34627499904725" lon="7.706224992948038" id="-9685">
		<tag k="name" v="Oddehølen" />
		<tag k="natural" v="strait" />
		<tag k="ssr:stedsnr" v="255607" />
	</node>
	<node lat="63.3326888846785" lon="7.715605548992426" id="-9686">
		<tag k="alt_name" v="Sortnleiskjæret" />
		<tag k="fixme" v="consider seamark:type=rock or natural=shoal" />
		<tag k="name" v="Sortnleiskjeret" />
		<tag k="place" v="islet" />
		<tag k="ssr:stedsnr" v="255610" />
	</node>
	<node lat="63.40868333059827" lon="7.776991661121521" id="-9687">
		<tag k="name" v="Vinøya" />
		<tag k="place" v="islet" />
		<tag k="ssr:stedsnr" v="255685" />
	</node>
	<node lat="63.236805552689326" lon="7.6829194419288305" id="-9689">
		<tag k="bay" v="fjord" />
		<tag k="name" v="Griphølen" />
		<tag k="natural" v="bay" />
		<tag k="ssr:stedsnr" v="255693" />
	</node>
	<node lat="63.46532777546574" lon="7.815969453652339" id="-9691">
		<tag k="name" v="Burøya" />
		<tag k="place" v="islet" />
		<tag k="ssr:stedsnr" v="255557" />
	</node>
	<node lat="63.471199997179426" lon="7.758991672252098" id="-9692">
		<tag k="name" v="Skardskjerdingen" />
		<tag k="place" v="islet" />
		<tag k="ssr:stedsnr" v="255559" />
	</node>
	<node lat="63.511108333716706" lon="8.047797229839498" id="-9708">
		<tag k="name" v="Heltarene" />
		<tag k="natural" v="shoal" />
		<tag k="place" v="locality" />
		<tag k="ssr:stedsnr" v="256183" />
	</node>
	<node lat="63.506630554608094" lon="8.092288886124829" id="-9713">
		<tag k="name" v="Halvorskallen" />
		<tag k="natural" v="shoal" />
		<tag k="place" v="locality" />
		<tag k="ssr:stedsnr" v="256834" />
	</node>
	<node lat="63.50365833645273" lon="8.006958337601148" id="-9714">
		<tag k="alt_name" v="Tøgerskjeret" />
		<tag k="fixme" v="consider seamark:type=rock or natural=shoal" />
		<tag k="name" v="Tøgerskjæret" />
		<tag k="place" v="islet" />
		<tag k="ssr:stedsnr" v="256836" />
	</node>
	<node lat="63.343500000021606" lon="7.801319447836638" id="-9715">
		<tag k="name" v="Buøya" />
		<tag k="place" v="islet" />
		<tag k="ssr:stedsnr" v="256745" />
	</node>
	<node lat="63.304222224902745" lon="7.750238882579069" id="-9718">
		<tag k="name" v="Kjeøysvaet" />
		<tag k="natural" v="bay" />
		<tag k="ssr:stedsnr" v="157216" />
	</node>
	<node lat="63.40549166971195" lon="7.661052778788339" id="-9719">
		<tag k="name" v="Kleiva" />
		<tag k="natural" v="shoal" />
		<tag k="place" v="locality" />
		<tag k="ssr:stedsnr" v="158008" />
	</node>
	<node lat="63.52527778183747" lon="8.080319440737014" id="-9720">
		<tag k="name" v="Ongelskallen" />
		<tag k="natural" v="shoal" />
		<tag k="place" v="locality" />
		<tag k="ssr:stedsnr" v="157778" />
	</node>
	<node lat="63.50797222033907" lon="8.006086111333413" id="-9721">
		<tag k="name" v="Lønnfallet" />
		<tag k="natural" v="shoal" />
		<tag k="place" v="locality" />
		<tag k="ssr:stedsnr" v="157798" />
	</node>
	<node lat="63.32355277544607" lon="8.102394453822123" id="-9722">
		<tag k="name" v="Kalvøygrunnen" />
		<tag k="natural" v="shoal" />
		<tag k="place" v="locality" />
		<tag k="ssr:stedsnr" v="158160" />
	</node>
	<node lat="63.3161138871535" lon="8.058174990478129" id="-9723">
		<tag k="name" v="Singsøya" />
		<tag k="place" v="islet" />
		<tag k="ssr:stedsnr" v="158167" />
	</node>
	<node lat="63.27324999889249" lon="8.039922229061764" id="-9724">
		<tag k="fixme" v="consider seamark:type=rock or natural=shoal" />
		<tag k="name" v="Rismyrskjæret" />
		<tag k="place" v="islet" />
		<tag k="ssr:stedsnr" v="158199" />
	</node>
	<node lat="63.50519722457863" lon="7.944458327354285" id="-9725">
		<tag k="name" v="Presttaren" />
		<tag k="natural" v="shoal" />
		<tag k="place" v="locality" />
		<tag k="ssr:stedsnr" v="158701" />
	</node>
	<node lat="63.49439444436635" lon="7.707227768470104" id="-9726">
		<tag k="name" v="Ytre Flua" />
		<tag k="natural" v="shoal" />
		<tag k="place" v="locality" />
		<tag k="ssr:stedsnr" v="158952" />
	</node>
	<node lat="63.39383610706377" lon="7.7965916680548215" id="-9728">
		<tag k="name" v="Teistholmen" />
		<tag k="place" v="islet" />
		<tag k="ssr:stedsnr" v="171414" />
	</node>
	<node lat="63.39805277712778" lon="8.179433324071915" id="-9729">
		<tag k="name" v="Garnholmen" />
		<tag k="place" v="islet" />
		<tag k="ssr:stedsnr" v="172102" />
	</node>
	<node lat="63.46844999812256" lon="7.987716659112476" id="-9730">
		<tag k="name" v="Måøysundholmen" />
		<tag k="place" v="islet" />
		<tag k="ssr:stedsnr" v="172106" />
	</node>
	<node lat="63.321036111466555" lon="8.057333342059902" id="-9737">
		<tag k="fixme" v="consider seamark:type=rock or natural=shoal" />
		<tag k="name" v="Kroksundskjeret" />
		<tag k="place" v="islet" />
		<tag k="ssr:stedsnr" v="173455" />
	</node>
	<node lat="63.471652774339574" lon="7.975397214945478" id="-9738">
		<tag k="name" v="Tjeldholmen" />
		<tag k="place" v="islet" />
		<tag k="ssr:stedsnr" v="173921" />
	</node>
	<node lat="63.34383055670434" lon="7.79261387938805" id="-9743">
		<tag k="name" v="Postdraget" />
		<tag k="place" v="islet" />
		<tag k="ssr:stedsnr" v="195802" />
	</node>
	<node lat="63.32640000214325" lon="8.104280559271247" id="-9744">
		<tag k="name" v="Værøya" />
		<tag k="place" v="islet" />
		<tag k="ssr:stedsnr" v="195983" />
	</node>
	<node lat="63.51997777848716" lon="7.838533338607951" id="-9745">
		<tag k="fixme" v="consider seamark:type=rock or natural=shoal" />
		<tag k="name" v="Hu" />
		<tag k="place" v="islet" />
		<tag k="ssr:stedsnr" v="270401" />
	</node>
	<node lat="63.41636111280154" lon="8.161844441561998" id="-9747">
		<tag k="name" v="Rokstadbukta" />
		<tag k="natural" v="bay" />
		<tag k="ssr:stedsnr" v="218383" />
	</node>
	<node lat="63.51043333582852" lon="8.073422228097982" id="-9749">
		<tag k="name" v="Langskallen" />
		<tag k="natural" v="shoal" />
		<tag k="place" v="locality" />
		<tag k="ssr:stedsnr" v="218781" />
	</node>
	<node lat="63.51872778091278" lon="7.9425333408686924" id="-9750">
		<tag k="fixme" v="consider seamark:type=rock or natural=shoal" />
		<tag k="name" v="Ytre Revaskjæret" />
		<tag k="place" v="islet" />
		<tag k="ssr:stedsnr" v="219725" />
	</node>
	<node lat="63.3147888917519" lon="7.803980555784826" id="-9751">
		<tag k="name" v="Sør Pimpstein" />
		<tag k="place" v="islet" />
		<tag k="ssr:stedsnr" v="219688" />
	</node>
	<node lat="63.465472226181255" lon="7.728199994523604" id="-9752">
		<tag k="name" v="Indre Smoksbåen" />
		<tag k="natural" v="shoal" />
		<tag k="place" v="locality" />
		<tag k="ssr:stedsnr" v="219922" />
	</node>
	<node lat="63.31501666402601" lon="7.990830553854289" id="-9754">
		<tag k="name" v="Kvernavågen" />
		<tag k="natural" v="bay" />
		<tag k="ssr:stedsnr" v="232284" />
	</node>
	<node lat="63.38608888960271" lon="7.808988888931064" id="-9756">
		<tag k="name" v="Sandvågen" />
		<tag k="natural" v="bay" />
		<tag k="ssr:stedsnr" v="232287" />
	</node>
	<node lat="63.42601389041184" lon="7.847677768223779" id="-9760">
		<tag k="name" v="Dyrnesvågen" />
		<tag k="natural" v="bay" />
		<tag k="ssr:stedsnr" v="232804" />
	</node>
	<node lat="63.353363885744145" lon="7.74701945106777" id="-9762">
		<tag k="name" v="Singsdraget" />
		<tag k="natural" v="bay" />
		<tag k="ssr:stedsnr" v="232883" />
	</node>
	<node lat="63.4694638845357" lon="8.03549999029831" id="-9771">
		<tag k="fixme" v="consider seamark:type=rock or natural=shoal" />
		<tag k="name" v="Småtangskjera" />
		<tag k="place" v="islet" />
		<tag k="ssr:stedsnr" v="233136" />
	</node>
	<node lat="63.47070277526496" lon="8.028644435959635" id="-9772">
		<tag k="fixme" v="consider seamark:type=rock or natural=shoal" />
		<tag k="name" v="Vaskjeret" />
		<tag k="place" v="islet" />
		<tag k="ssr:stedsnr" v="233138" />
	</node>
	<node lat="63.370463885740804" lon="7.895774994974612" id="-9773">
		<tag k="name" v="Andskottskaga" />
		<tag k="natural" v="cape" />
		<tag k="ssr:stedsnr" v="233536" />
	</node>
	<node lat="63.51819722172504" lon="7.951719453173162" id="-9777">
		<tag k="name" v="Sivertsvågen" />
		<tag k="natural" v="bay" />
		<tag k="ssr:stedsnr" v="233945" />
	</node>
	<node lat="63.62639167100395" lon="7.9880666683749135" id="-9785">
		<tag k="bay" v="fjord" />
		<tag k="name" v="Gapet" />
		<tag k="natural" v="bay" />
		<tag k="ssr:stedsnr" v="255177" />
	</node>
	<node lat="63.449827782205276" lon="7.921691665619944" id="-9788">
		<tag k="fixme" v="consider seamark:type=rock or natural=shoal" />
		<tag k="name" v="Monsøysteinen" />
		<tag k="place" v="islet" />
		<tag k="ssr:stedsnr" v="255509" />
	</node>
	<node lat="63.4773777793639" lon="7.763641656750662" id="-9790">
		<tag k="fixme" v="consider seamark:type=rock or natural=shoal" />
		<tag k="name" v="Kjeltaren" />
		<tag k="place" v="islet" />
		<tag k="ssr:stedsnr" v="255568" />
	</node>
	<node lat="63.32278888650195" lon="7.716744448634962" id="-9792">
		<tag k="name" v="Skauven" />
		<tag k="place" v="islet" />
		<tag k="ssr:stedsnr" v="255614" />
	</node>
	<node lat="63.32373610893861" lon="8.081944444446997" id="-9799">
		<tag k="name" v="Bommen" />
		<tag k="place" v="islet" />
		<tag k="ssr:stedsnr" v="255982" />
	</node>
	<node lat="63.34943888732193" lon="7.853233336262602" id="-9802">
		<tag k="name" v="Småvågane" />
		<tag k="natural" v="bay" />
		<tag k="ssr:stedsnr" v="460097" />
	</node>
	<node lat="63.254877779028696" lon="7.71970555529671" id="-9803">
		<tag k="name" v="Langtaren" />
		<tag k="natural" v="shoal" />
		<tag k="place" v="locality" />
		<tag k="ssr:stedsnr" v="279295" />
	</node>
	<node lat="63.25888333748914" lon="7.781066676272311" id="-9804">
		<tag k="name" v="Lyngtaren" />
		<tag k="natural" v="shoal" />
		<tag k="place" v="locality" />
		<tag k="ssr:stedsnr" v="279297" />
	</node>
	<node lat="63.49156110667445" lon="7.9903499911810085" id="-9806">
		<tag k="fixme" v="consider seamark:type=rock or natural=shoal" />
		<tag k="name" v="Sørknubben" />
		<tag k="place" v="islet" />
		<tag k="ssr:stedsnr" v="280706" />
	</node>
	<node lat="63.37971944046956" lon="7.709708342625006" id="-9808">
		<tag k="name" v="Indre Hornbåen" />
		<tag k="natural" v="shoal" />
		<tag k="place" v="locality" />
		<tag k="ssr:stedsnr" v="461053" />
	</node>
	<node lat="63.37231111245358" lon="7.910638883979639" id="-9809">
		<tag k="name" v="Andskotstraumen" />
		<tag k="natural" v="strait" />
		<tag k="ssr:stedsnr" v="461085" />
	</node>
	<node lat="63.31761388851695" lon="7.670566664204495" id="-9811">
		<tag k="name" v="Steinstaren" />
		<tag k="natural" v="shoal" />
		<tag k="old_name" v="Steintaren" />
		<tag k="place" v="locality" />
		<tag k="ssr:stedsnr" v="461227" />
	</node>
	<node lat="63.257513888765445" lon="7.80263888538632" id="-9812">
		<tag k="name" v="Vestre Saueflua" />
		<tag k="natural" v="shoal" />
		<tag k="place" v="locality" />
		<tag k="ssr:stedsnr" v="461277" />
	</node>
	<node lat="63.373461114692745" lon="7.792672223006933" id="-9813">
		<tag k="name" v="Straumskaget" />
		<tag k="natural" v="cape" />
		<tag k="ssr:stedsnr" v="461617" />
	</node>
	<node lat="63.51439166374784" lon="7.9921972299447015" id="-9814">
		<tag k="name" v="Bjørnbåen" />
		<tag k="natural" v="shoal" />
		<tag k="place" v="locality" />
		<tag k="ssr:stedsnr" v="461691" />
	</node>
	<node lat="63.51159721965258" lon="8.102383342650299" id="-9815">
		<tag k="name" v="Ufsgrunnen" />
		<tag k="natural" v="shoal" />
		<tag k="place" v="locality" />
		<tag k="ssr:stedsnr" v="461785" />
	</node>
	<node lat="63.50151389038474" lon="7.940397214741166" id="-9816">
		<tag k="fixme" v="consider seamark:type=rock or natural=shoal" />
		<tag k="name" v="Søre Kråkskjæret" />
		<tag k="place" v="islet" />
		<tag k="ssr:stedsnr" v="461788" />
	</node>
	<node lat="63.44866111017231" lon="7.791349997567306" id="-9817">
		<tag k="name" v="Storøya" />
		<tag k="place" v="islet" />
		<tag k="ssr:stedsnr" v="461948" />
	</node>
	<node lat="63.357430555147914" lon="7.8193972202470885" id="-9820">
		<tag k="name" v="Kråkøya" />
		<tag k="place" v="island" />
		<tag k="ssr:stedsnr" v="293902" />
	</node>
	<node lat="63.35736944167138" lon="7.784933332196605" id="-9821">
		<tag k="name" v="Kvitskillingan" />
		<tag k="place" v="islet" />
		<tag k="ssr:stedsnr" v="293928" />
	</node>
	<node lat="63.32344166270249" lon="8.04605277488392" id="-9827">
		<tag k="name" v="Kallarsundet" />
		<tag k="natural" v="strait" />
		<tag k="ssr:stedsnr" v="294509" />
	</node>
	<node lat="63.31595555171398" lon="8.002427769383456" id="-9831">
		<tag k="name" v="Breineset" />
		<tag k="natural" v="cape" />
		<tag k="ssr:stedsnr" v="294707" />
	</node>
	<node lat="63.32239166332014" lon="7.779438888032023" id="-9833">
		<tag k="name" v="Spilvaløya" />
		<tag k="place" v="island" />
		<tag k="ssr:stedsnr" v="462675" />
	</node>
	<node lat="63.32260277373844" lon="7.801686110866847" id="-9834">
		<tag k="name" v="Sunnmørsholmen" />
		<tag k="place" v="islet" />
		<tag k="ssr:stedsnr" v="462679" />
	</node>
	<node lat="63.33050833605347" lon="7.948944435831512" id="-9838">
		<tag k="name" v="Langøya" />
		<tag k="place" v="islet" />
		<tag k="ssr:stedsnr" v="315756" />
	</node>
	<node lat="63.47731944457452" lon="7.754611106657755" id="-9845">
		<tag k="fixme" v="consider seamark:type=rock or natural=shoal" />
		<tag k="name" v="Hilbåen" />
		<tag k="place" v="islet" />
		<tag k="ssr:stedsnr" v="316613" />
	</node>
	<node lat="63.30284999927163" lon="7.698499997295656" id="-9846">
		<tag k="alt_name" v="Hilbåleia" />
		<tag k="name" v="Hillbåleia" />
		<tag k="natural" v="strait" />
		<tag k="ssr:stedsnr" v="316648" />
	</node>
	<node lat="63.42858888908058" lon="7.68694445012301" id="-9847">
		<tag k="name" v="Storfallet" />
		<tag k="natural" v="shoal" />
		<tag k="place" v="locality" />
		<tag k="ssr:stedsnr" v="316662" />
	</node>
	<node lat="63.36118888688186" lon="7.819236105842635" id="-9853">
		<tag k="name" v="Storøya" />
		<tag k="place" v="islet" />
		<tag k="ssr:stedsnr" v="316906" />
	</node>
	<node lat="63.483522224559835" lon="8.170880548417086" id="-9855">
		<tag k="name" v="Nordre Ytstflua" />
		<tag k="natural" v="shoal" />
		<tag k="old_name" v="Nordre Ystflua" />
		<tag k="place" v="locality" />
		<tag k="ssr:stedsnr" v="339758" />
	</node>
	<node lat="63.49386111299414" lon="7.835436112713277" id="-9856">
		<tag k="name" v="Grunna" />
		<tag k="natural" v="shoal" />
		<tag k="place" v="locality" />
		<tag k="ssr:stedsnr" v="339947" />
	</node>
	<node lat="63.26823889106677" lon="8.021077787262842" id="-9857">
		<tag k="name" v="Ytre Mannsholmflua" />
		<tag k="natural" v="shoal" />
		<tag k="place" v="locality" />
		<tag k="ssr:stedsnr" v="340159" />
	</node>
	<node lat="63.52554166914542" lon="7.973647222291807" id="-9858">
		<tag k="fixme" v="consider seamark:type=rock or natural=shoal" />
		<tag k="name" v="Tenndragskjæret" />
		<tag k="place" v="islet" />
		<tag k="ssr:stedsnr" v="340649" />
	</node>
	<node lat="63.42448332929308" lon="7.751155559054588" id="-9859">
		<tag k="name" v="Råskjerbåan" />
		<tag k="natural" v="shoal" />
		<tag k="place" v="locality" />
		<tag k="ssr:stedsnr" v="340899" />
	</node>
	<node lat="63.33111666575979" lon="7.780605564014124" id="-9860">
		<tag k="alt_name" v="Oterholmen, l" />
		<tag k="name" v="Litle Oterholmen" />
		<tag k="place" v="islet" />
		<tag k="ssr:stedsnr" v="351068" />
	</node>
	<node lat="63.40080833574728" lon="7.796827768522802" id="-9863">
		<tag k="name" v="Ytter Dyrøydraget" />
		<tag k="place" v="islet" />
		<tag k="ssr:stedsnr" v="353411" />
	</node>
	<node lat="63.46047221868724" lon="7.9935444436361855" id="-9865">
		<tag k="name" v="Kvalpøystraumen" />
		<tag k="natural" v="strait" />
		<tag k="ssr:stedsnr" v="354112" />
	</node>
	<node lat="63.358494443162435" lon="8.190111107234852" id="-9868">
		<tag k="name" v="Danmarksholmen" />
		<tag k="place" v="islet" />
		<tag k="ssr:stedsnr" v="355223" />
	</node>
	<node lat="63.3281638897159" lon="8.124774999843376" id="-9869">
		<tag k="name" v="Auster Torbeinsholmen" />
		<tag k="place" v="islet" />
		<tag k="ssr:stedsnr" v="355718" />
	</node>
	<node lat="63.46829444348038" lon="7.87345555689519" id="-9872">
		<tag k="name" v="Hummarholman" />
		<tag k="place" v="islet" />
		<tag k="ssr:stedsnr" v="475079" />
	</node>
	<node lat="63.45348333271642" lon="7.863977777505227" id="-9874">
		<tag k="fixme" v="consider seamark:type=rock or natural=shoal" />
		<tag k="name" v="Steinløysa" />
		<tag k="place" v="islet" />
		<tag k="ssr:stedsnr" v="475448" />
	</node>
	<node lat="63.47558055245274" lon="7.91076111196495" id="-9876">
		<tag k="fixme" v="consider seamark:type=rock or natural=shoal" />
		<tag k="name" v="Leiskjeret" />
		<tag k="place" v="islet" />
		<tag k="ssr:stedsnr" v="475797" />
	</node>
	<node lat="63.346402779484656" lon="7.805336109960051" id="-9883">
		<tag k="fixme" v="consider seamark:type=rock or natural=shoal" />
		<tag k="name" v="Skjelskjera" />
		<tag k="place" v="islet" />
		<tag k="ssr:stedsnr" v="475933" />
	</node>
	<node lat="63.373819440562585" lon="8.210813898932473" id="-9886">
		<tag k="name" v="Åstasundet" />
		<tag k="natural" v="strait" />
		<tag k="ssr:stedsnr" v="476155" />
	</node>
	<node lat="63.333549996665084" lon="7.9647611136411856" id="-9888">
		<tag k="name" v="Nisvågøya" />
		<tag k="place" v="islet" />
		<tag k="ssr:stedsnr" v="476530" />
	</node>
	<node lat="63.31826666972266" lon="8.054972215772588" id="-9889">
		<tag k="name" v="Litlheggøya" />
		<tag k="place" v="island" />
		<tag k="ssr:stedsnr" v="476677" />
	</node>
	<node lat="63.472611112280035" lon="7.997519450907076" id="-9895">
		<tag k="name" v="Hattmåsøya" />
		<tag k="place" v="islet" />
		<tag k="ssr:stedsnr" v="376534" />
	</node>
	<node lat="63.343019444799744" lon="7.892708337913012" id="-9898">
		<tag k="name" v="Lauvøyvalen" />
		<tag k="natural" v="bay" />
		<tag k="ssr:stedsnr" v="400078" />
	</node>
	<node lat="63.40414444324684" lon="8.173833333407698" id="-9899">
		<tag k="name" v="Bukkholmen" />
		<tag k="place" v="islet" />
		<tag k="ssr:stedsnr" v="400402" />
	</node>
	<node lat="63.27948888589802" lon="8.026755565154366" id="-9900">
		<tag k="name" v="Stamsmeden" />
		<tag k="natural" v="shoal" />
		<tag k="place" v="locality" />
		<tag k="ssr:stedsnr" v="401189" />
	</node>
	<node lat="63.447349998514" lon="8.17838333967739" id="-9901">
		<tag k="name" v="Storgrunnen" />
		<tag k="natural" v="shoal" />
		<tag k="place" v="locality" />
		<tag k="ssr:stedsnr" v="401634" />
	</node>
	<node lat="63.45499166633746" lon="7.970786104664137" id="-9902">
		<tag k="name" v="Ørntuvvågen" />
		<tag k="natural" v="bay" />
		<tag k="ssr:stedsnr" v="415089" />
	</node>
	<node lat="63.27847222302122" lon="8.009863885877769" id="-9904">
		<tag k="name" v="Mannsholman" />
		<tag k="place" v="islet" />
		<tag k="ssr:stedsnr" v="415286" />
	</node>
	<node lat="63.43942500190312" lon="7.891947228595921" id="-9905">
		<tag k="name" v="Stornesaukan" />
		<tag k="place" v="islet" />
		<tag k="ssr:stedsnr" v="415336" />
	</node>
	<node lat="63.43472500109955" lon="7.900202787511956" id="-9906">
		<tag k="name" v="Moltebærholman" />
		<tag k="place" v="islet" />
		<tag k="ssr:stedsnr" v="415343" />
	</node>
	<node lat="63.322769448601996" lon="7.997786106871659" id="-9907">
		<tag k="fixme" v="consider seamark:type=rock or natural=shoal" />
		<tag k="name" v="Klåskjeret" />
		<tag k="place" v="islet" />
		<tag k="ssr:stedsnr" v="415344" />
	</node>
	<node lat="63.34547500270967" lon="7.980963894949656" id="-9911">
		<tag k="name" v="Kobbflua" />
		<tag k="natural" v="shoal" />
		<tag k="place" v="locality" />
		<tag k="ssr:stedsnr" v="415935" />
	</node>
	<node lat="63.36461944837046" lon="7.705861102660045" id="-9916">
		<tag k="alt_name" v="Langfallskjæra" />
		<tag k="name" v="Langfallskjeret" />
		<tag k="natural" v="shoal" />
		<tag k="place" v="locality" />
		<tag k="ssr:stedsnr" v="437600" />
	</node>
	<node lat="63.336452782134245" lon="7.673850007466593" id="-9917">
		<tag k="name" v="Endrebåen" />
		<tag k="natural" v="shoal" />
		<tag k="place" v="locality" />
		<tag k="ssr:stedsnr" v="437601" />
	</node>
	<node lat="63.31623610726705" lon="7.7137416687187175" id="-9919">
		<tag k="alt_name" v="Spanskskjæret" />
		<tag k="fixme" v="consider seamark:type=rock or natural=shoal" />
		<tag k="name" v="Spanskskjeret" />
		<tag k="place" v="islet" />
		<tag k="ssr:stedsnr" v="437603" />
	</node>
	<node lat="63.401794444301245" lon="7.821149997045921" id="-9923">
		<tag k="name" v="Aukan" />
		<tag k="place" v="islet" />
		<tag k="ssr:stedsnr" v="437669" />
	</node>
	<node lat="63.336641663449655" lon="7.913366676605114" id="-9925">
		<tag k="name" v="Steinbergøya" />
		<tag k="place" v="islet" />
		<tag k="ssr:stedsnr" v="437803" />
	</node>
	<node lat="63.30239444610682" lon="8.115080559959821" id="-9933">
		<tag k="name" v="Hestholmen" />
		<tag k="place" v="islet" />
		<tag k="ssr:stedsnr" v="437958" />
	</node>
	<node lat="63.40001388855657" lon="8.166105553325403" id="-9940">
		<tag k="name" v="Roksvågen" />
		<tag k="natural" v="bay" />
		<tag k="ssr:stedsnr" v="461408" />
	</node>
	<node lat="63.38233332930732" lon="8.236658334340824" id="-9941">
		<tag k="name" v="Dyrøyklubben" />
		<tag k="natural" v="cape" />
		<tag k="ssr:stedsnr" v="461581" />
	</node>
	<node lat="63.31759166675307" lon="7.820424993227645" id="-9942">
		<tag k="name" v="Litltranøyholmen" />
		<tag k="place" v="islet" />
		<tag k="ssr:stedsnr" v="461661" />
	</node>
	<node lat="63.288561111385434" lon="7.939886119282729" id="-9943">
		<tag k="name" v="Høgøya" />
		<tag k="place" v="islet" />
		<tag k="ssr:stedsnr" v="462162" />
	</node>
	<node lat="63.30470555749831" lon="7.785377786830315" id="-9944">
		<tag k="name" v="Skardholmen" />
		<tag k="place" v="islet" />
		<tag k="ssr:stedsnr" v="462658" />
	</node>
	<node lat="63.44488889325761" lon="7.7391166693734785" id="-9945">
		<tag k="name" v="Balsfallet" />
		<tag k="natural" v="shoal" />
		<tag k="place" v="locality" />
		<tag k="ssr:stedsnr" v="462909" />
	</node>
	<node lat="63.32459999610028" lon="8.164519438931904" id="-9948">
		<tag k="name" v="Sør Krongelholmen" />
		<tag k="place" v="islet" />
		<tag k="ssr:stedsnr" v="475669" />
	</node>
	<node lat="63.3674611069781" lon="7.883455565677556" id="-9951">
		<tag k="name" v="Klakkavågen" />
		<tag k="natural" v="bay" />
		<tag k="ssr:stedsnr" v="475908" />
	</node>
	<node lat="63.45983888965217" lon="7.973041672252701" id="-9956">
		<tag k="name" v="Enkmannstraumen" />
		<tag k="natural" v="strait" />
		<tag k="ssr:stedsnr" v="476110" />
	</node>
	<node lat="63.453741668910794" lon="7.9551277855831675" id="-9957">
		<tag k="name" v="Storstraumøya" />
		<tag k="place" v="island" />
		<tag k="ssr:stedsnr" v="476115" />
	</node>
	<node lat="63.40658055912261" lon="8.194102769614858" id="-9961">
		<tag k="name" v="Lyngværet" />
		<tag k="place" v="islet" />
		<tag k="ssr:stedsnr" v="476060" />
	</node>
	<node lat="63.47690000350835" lon="7.939269453523073" id="-9964">
		<tag k="fixme" v="consider seamark:type=rock or natural=shoal" />
		<tag k="name" v="Låsdublet" />
		<tag k="place" v="islet" />
		<tag k="ssr:stedsnr" v="476928" />
	</node>
	<node lat="63.472366662790996" lon="7.992897217027729" id="-9965">
		<tag k="fixme" v="consider seamark:type=rock or natural=shoal" />
		<tag k="name" v="Ternskjera" />
		<tag k="place" v="islet" />
		<tag k="ssr:stedsnr" v="476934" />
	</node>
	<node lat="63.3137583342619" lon="7.724174994647026" id="-9966">
		<tag k="alt_name" v="Leiskjæret, store" />
		<tag k="fixme" v="consider seamark:type=rock or natural=shoal" />
		<tag k="name" v="Store Leiskjæret" />
		<tag k="place" v="islet" />
		<tag k="ssr:stedsnr" v="478377" />
	</node>
	<node lat="63.31876111240364" lon="8.229355549275324" id="-9967">
		<tag k="name" v="Kattholmflua" />
		<tag k="natural" v="shoal" />
		<tag k="place" v="locality" />
		<tag k="ssr:stedsnr" v="679148" />
	</node>
	<node lat="63.389108333968416" lon="7.802580558384894" id="-9972">
		<tag k="name" v="Sørøya" />
		<tag k="place" v="islet" />
		<tag k="ssr:stedsnr" v="680688" />
	</node>
	<node lat="63.3354611112665" lon="8.110949997524507" id="-9976">
		<tag k="name" v="Straumøya" />
		<tag k="place" v="islet" />
		<tag k="ssr:stedsnr" v="679734" />
	</node>
	<node lat="63.420633332975164" lon="7.727800000434433" id="-9979">
		<tag k="alt_name" v="Skjerjebåan" />
		<tag k="fixme" v="consider seamark:type=rock or natural=shoal" />
		<tag k="name" v="Skjerjebåen" />
		<tag k="place" v="islet" />
		<tag k="ssr:stedsnr" v="679683" />
	</node>
	<node lat="63.42282500378315" lon="7.835533323921458" id="-9980">
		<tag k="name" v="Båtneset" />
		<tag k="natural" v="cape" />
		<tag k="ssr:stedsnr" v="679688" />
	</node>
	<node lat="63.33557777738672" lon="7.882605549475525" id="-9984">
		<tag k="name" v="Breddøya" />
		<tag k="place" v="islet" />
		<tag k="ssr:stedsnr" v="679775" />
	</node>
	<node lat="63.54604166410225" lon="7.856424991604234" id="-9988">
		<tag k="alt_name" v="Nordre Nubben" />
		<tag k="name" v="Nubben" />
		<tag k="natural" v="shoal" />
		<tag k="place" v="locality" />
		<tag k="ssr:stedsnr" v="680178" />
	</node>
	<node lat="63.52839999861528" lon="7.959466660606263" id="-9989">
		<tag k="alt_name" v="Senholman" />
		<tag k="name" v="Seneholman" />
		<tag k="place" v="islet" />
		<tag k="ssr:stedsnr" v="680189" />
	</node>
	<node lat="63.34486667112701" lon="8.245319449254135" id="-9991">
		<tag k="name" v="Hestholmen" />
		<tag k="place" v="islet" />
		<tag k="ssr:stedsnr" v="680242" />
	</node>
	<node lat="63.34936389018252" lon="8.280191660389804" id="-9992">
		<tag k="alt_name" v="Nørflua" />
		<tag k="name" v="Nordflua" />
		<tag k="natural" v="shoal" />
		<tag k="place" v="locality" />
		<tag k="ssr:stedsnr" v="680244" />
	</node>
	<node lat="63.22666666941254" lon="7.869280558321483" id="-9993">
		<tag k="alt_name" v="Båeflua" />
		<tag k="name" v="Boflua" />
		<tag k="natural" v="shoal" />
		<tag k="place" v="locality" />
		<tag k="ssr:stedsnr" v="680440" />
	</node>
	<node lat="63.464827775671424" lon="7.823955547318698" id="-10005">
		<tag k="bay" v="fjord" />
		<tag k="name" v="Andholmdraget" />
		<tag k="natural" v="bay" />
		<tag k="ssr:stedsnr" v="497535" />
	</node>
	<node lat="63.384266666671756" lon="7.68965278096113" id="-10008">
		<tag k="alt_name" v="Pusbåen, yt;Ytre Pusbåen" />
		<tag k="name" v="Indre Rusbåan" />
		<tag k="natural" v="shoal" />
		<tag k="place" v="locality" />
		<tag k="ssr:stedsnr" v="497594" />
	</node>
	<node lat="63.33278333515302" lon="7.80791666357421" id="-10013">
		<tag k="name" v="Rundmåsøya" />
		<tag k="place" v="islet" />
		<tag k="ssr:stedsnr" v="497805" />
	</node>
	<node lat="63.37371389113652" lon="7.776899996598011" id="-10017">
		<tag k="name" v="Pinøya" />
		<tag k="place" v="islet" />
		<tag k="ssr:stedsnr" v="498665" />
	</node>
	<node lat="63.43257221903643" lon="7.828566671626564" id="-10020">
		<tag k="name" v="Skrubbholmen" />
		<tag k="place" v="islet" />
		<tag k="ssr:stedsnr" v="498749" />
	</node>
	<node lat="63.45168611163295" lon="7.947411104559892" id="-10021">
		<tag k="name" v="Lauvøya" />
		<tag k="place" v="islet" />
		<tag k="ssr:stedsnr" v="498772" />
	</node>
	<node lat="63.28185833676826" lon="8.028288886782976" id="-10023">
		<tag k="name" v="Kuliskaget" />
		<tag k="natural" v="cape" />
		<tag k="ssr:stedsnr" v="498944" />
	</node>
	<node lat="63.27755832905085" lon="7.962036117797517" id="-10024">
		<tag k="name" v="Buarnøya" />
		<tag k="place" v="island" />
		<tag k="ssr:stedsnr" v="498951" />
	</node>
	<node lat="63.35427499601521" lon="7.743208335017658" id="-10026">
		<tag k="fixme" v="consider seamark:type=rock or natural=shoal" />
		<tag k="name" v="Singsdraget" />
		<tag k="place" v="islet" />
		<tag k="ssr:stedsnr" v="498844" />
	</node>
	<node lat="63.34893611463916" lon="7.790322227946693" id="-10028">
		<tag k="bay" v="fjord" />
		<tag k="name" v="Olsøysvaet" />
		<tag k="natural" v="bay" />
		<tag k="ssr:stedsnr" v="498847" />
	</node>
	<node lat="63.34326944145965" lon="7.844986114815812" id="-10032">
		<tag k="name" v="Ytre Steinnesvågen" />
		<tag k="natural" v="bay" />
		<tag k="ssr:stedsnr" v="521063" />
	</node>
	<node lat="63.358627774845466" lon="7.801672215659266" id="-10033">
		<tag k="name" v="Litle Skabbersøya" />
		<tag k="place" v="islet" />
		<tag k="ssr:stedsnr" v="521071" />
	</node>
	<node lat="63.387336110710365" lon="8.193344437737446" id="-10034">
		<tag k="name" v="Dyrsprangbukta" />
		<tag k="natural" v="bay" />
		<tag k="ssr:stedsnr" v="521561" />
	</node>
	<node lat="63.270630559650265" lon="8.045308338345777" id="-10035">
		<tag k="name" v="Grunnflua" />
		<tag k="natural" v="shoal" />
		<tag k="place" v="locality" />
		<tag k="ssr:stedsnr" v="522188" />
	</node>
	<node lat="63.427080551857884" lon="7.904874991369632" id="-10036">
		<tag k="name" v="Kvernavågen" />
		<tag k="natural" v="bay" />
		<tag k="ssr:stedsnr" v="522867" />
	</node>
	<node lat="63.38521666875044" lon="7.753347223179418" id="-10037">
		<tag k="name" v="Auster Ballskjeggøya" />
		<tag k="place" v="islet" />
		<tag k="ssr:stedsnr" v="535413" />
	</node>
	<node lat="63.34717500244201" lon="7.923616664902766" id="-10040">
		<tag k="name" v="Straumøyan" />
		<tag k="place" v="island" />
		<tag k="ssr:stedsnr" v="535676" />
	</node>
	<node lat="63.35384722276721" lon="7.933738892298615" id="-10041">
		<tag k="name" v="Sutøyklakken" />
		<tag k="place" v="islet" />
		<tag k="ssr:stedsnr" v="535678" />
	</node>
	<node lat="63.43694166676853" lon="7.9033888811468715" id="-10046">
		<tag k="name" v="Teistholmen" />
		<tag k="place" v="islet" />
		<tag k="ssr:stedsnr" v="536318" />
	</node>
	<node lat="63.32122500375692" lon="8.031472213340095" id="-10053">
		<tag k="name" v="Kalvøyvalen" />
		<tag k="natural" v="shoal" />
		<tag k="place" v="locality" />
		<tag k="ssr:stedsnr" v="537471" />
	</node>
	<node lat="63.489266665487435" lon="7.970505558392117" id="-10054">
		<tag k="name" v="Tjørnøyan" />
		<tag k="place" v="island" />
		<tag k="ssr:stedsnr" v="537912" />
	</node>
	<node lat="63.47607222445692" lon="7.974494442566255" id="-10055">
		<tag k="fixme" v="consider seamark:type=rock or natural=shoal" />
		<tag k="name" v="Svansøydraget" />
		<tag k="place" v="islet" />
		<tag k="ssr:stedsnr" v="537914" />
	</node>
	<node lat="63.51796666851724" lon="7.961366660240583" id="-10056">
		<tag k="fixme" v="consider seamark:type=rock or natural=shoal" />
		<tag k="name" v="Inner Solaklakken" />
		<tag k="place" v="islet" />
		<tag k="ssr:stedsnr" v="537921" />
	</node>
	<node lat="63.27353333459183" lon="7.759300002964716" id="-10057">
		<tag k="name" v="Tørrisøya" />
		<tag k="place" v="islet" />
		<tag k="ssr:stedsnr" v="552931" />
	</node>
	<node lat="63.40580278098538" lon="7.67849444766758" id="-10060">
		<tag k="name" v="Rebbåfallet" />
		<tag k="natural" v="shoal" />
		<tag k="place" v="locality" />
		<tag k="ssr:stedsnr" v="558646" />
	</node>
	<node lat="63.451444440136015" lon="7.8754027844000385" id="-10064">
		<tag k="fixme" v="consider seamark:type=rock or natural=shoal" />
		<tag k="name" v="Steinløysa" />
		<tag k="place" v="islet" />
		<tag k="ssr:stedsnr" v="558542" />
	</node>
	<node lat="63.48423333763994" lon="8.166925004514175" id="-10066">
		<tag k="bay" v="fjord" />
		<tag k="name" v="Ramsøyfjorden" />
		<tag k="natural" v="bay" />
		<tag k="ssr:stedsnr" v="558597" />
	</node>
	<node lat="63.42522777513698" lon="7.8111111120074135" id="-10071">
		<tag k="fixme" v="consider seamark:type=rock or natural=shoal" />
		<tag k="name" v="Galten" />
		<tag k="place" v="islet" />
		<tag k="ssr:stedsnr" v="558741" />
	</node>
	<node lat="63.427499999959466" lon="7.828891671270919" id="-10073">
		<tag k="alt_name" v="Garnskjæra" />
		<tag k="fixme" v="consider seamark:type=rock or natural=shoal" />
		<tag k="name" v="Garnskjera" />
		<tag k="place" v="islet" />
		<tag k="ssr:stedsnr" v="558752" />
	</node>
	<node lat="63.320036114350195" lon="8.084555556441815" id="-10078">
		<tag k="name" v="Heggøya" />
		<tag k="place" v="islet" />
		<tag k="ssr:stedsnr" v="558992" />
	</node>
	<node lat="63.363308334368014" lon="7.75982777875114" id="-10085">
		<tag k="name" v="Steinbergholman" />
		<tag k="place" v="islet" />
		<tag k="ssr:stedsnr" v="581105" />
	</node>
	<node lat="63.41580555215541" lon="8.171274993682289" id="-10086">
		<tag k="name" v="Kjesundet" />
		<tag k="natural" v="strait" />
		<tag k="ssr:stedsnr" v="581399" />
	</node>
	<node lat="63.289422220113934" lon="7.954391663506564" id="-10087">
		<tag k="name" v="Nordre Gangnesholman" />
		<tag k="place" v="islet" />
		<tag k="ssr:stedsnr" v="582195" />
	</node>
	<node lat="63.276613891899906" lon="7.931155546062512" id="-10088">
		<tag k="name" v="Blåsværflua" />
		<tag k="natural" v="shoal" />
		<tag k="place" v="locality" />
		<tag k="ssr:stedsnr" v="582298" />
	</node>
	<node lat="63.43519444824926" lon="8.217836110671609" id="-10089">
		<tag k="name" v="Litle Råsberget" />
		<tag k="natural" v="shoal" />
		<tag k="place" v="locality" />
		<tag k="ssr:stedsnr" v="582468" />
	</node>
	<node lat="63.50137222237151" lon="7.96406665813054" id="-10090">
		<tag k="name" v="Kaggholmtaren" />
		<tag k="natural" v="shoal" />
		<tag k="place" v="locality" />
		<tag k="ssr:stedsnr" v="582722" />
	</node>
	<node lat="63.52252499937641" lon="8.003991658428328" id="-10091">
		<tag k="name" v="Rønsøyflua" />
		<tag k="natural" v="shoal" />
		<tag k="place" v="locality" />
		<tag k="ssr:stedsnr" v="582794" />
	</node>
	<node lat="63.33120555622625" lon="7.8372833263714945" id="-10092">
		<tag k="name" v="Prekstolen" />
		<tag k="place" v="islet" />
		<tag k="ssr:stedsnr" v="583656" />
	</node>
	<node lat="63.42213889251703" lon="7.837066665646534" id="-10093">
		<tag k="name" v="Båtnesbukta" />
		<tag k="natural" v="bay" />
		<tag k="ssr:stedsnr" v="583897" />
	</node>
	<node lat="63.48709166249756" lon="8.043794446281272" id="-10094">
		<tag k="alt_name" v="Nilsleiskjeret" />
		<tag k="fixme" v="consider seamark:type=rock or natural=shoal" />
		<tag k="name" v="Nilsleiskjæra" />
		<tag k="place" v="islet" />
		<tag k="ssr:stedsnr" v="590324" />
	</node>
	<node lat="63.40035000443739" lon="7.788272222084778" id="-10096">
		<tag k="name" v="Litlberget" />
		<tag k="place" v="islet" />
		<tag k="ssr:stedsnr" v="596399" />
	</node>
	<node lat="63.46678055921727" lon="8.082363880473517" id="-10099">
		<tag k="fixme" v="consider seamark:type=rock or natural=shoal" />
		<tag k="name" v="Stornotskjeret" />
		<tag k="place" v="islet" />
		<tag k="ssr:stedsnr" v="597010" />
	</node>
	<node lat="63.43416111408454" lon="8.171597222004557" id="-10102">
		<tag k="name" v="Hårvoksterholmen" />
		<tag k="place" v="islet" />
		<tag k="ssr:stedsnr" v="597106" />
	</node>
	<node lat="63.452330556068766" lon="7.956791670682691" id="-10103">
		<tag k="name" v="Trettholmen" />
		<tag k="place" v="islet" />
		<tag k="ssr:stedsnr" v="597107" />
	</node>
	<node lat="63.46614722479279" lon="7.998419451143032" id="-10104">
		<tag k="name" v="Einbærholmen" />
		<tag k="place" v="islet" />
		<tag k="ssr:stedsnr" v="597109" />
	</node>
	<node lat="63.38366944476996" lon="8.2022555501407" id="-10110">
		<tag k="name" v="Hestvika" />
		<tag k="natural" v="bay" />
		<tag k="ssr:stedsnr" v="597157" />
	</node>
	<node lat="63.37811388607048" lon="8.193994440415453" id="-10111">
		<tag k="name" v="Teinosvågen" />
		<tag k="natural" v="bay" />
		<tag k="ssr:stedsnr" v="597159" />
	</node>
	<node lat="63.28466666431511" lon="8.132286115941389" id="-10115">
		<tag k="name" v="Skjæla" />
		<tag k="natural" v="cape" />
		<tag k="ssr:stedsnr" v="597755" />
	</node>
	<node lat="63.32798333495324" lon="8.066674998576707" id="-10117">
		<tag k="name" v="Draga" />
		<tag k="natural" v="strait" />
		<tag k="ssr:stedsnr" v="597761" />
	</node>
	<node lat="63.52402222083789" lon="7.948794444927981" id="-10118">
		<tag k="fixme" v="consider seamark:type=rock or natural=shoal" />
		<tag k="name" v="Vester Tjeldskjeret" />
		<tag k="place" v="islet" />
		<tag k="ssr:stedsnr" v="597925" />
	</node>
	<node lat="63.46870833199066" lon="8.137175003433688" id="-10122">
		<tag k="name" v="Fanodden" />
		<tag k="natural" v="cape" />
		<tag k="ssr:stedsnr" v="618532" />
	</node>
	<node lat="63.26818333526263" lon="7.764850005075418" id="-10125">
		<tag k="name" v="Storøya" />
		<tag k="place" v="islet" />
		<tag k="ssr:stedsnr" v="618874" />
	</node>
	<node lat="63.30599722058909" lon="7.76949445012331" id="-10126">
		<tag k="name" v="Masterholmdraget" />
		<tag k="place" v="islet" />
		<tag k="ssr:stedsnr" v="618986" />
	</node>
	<node lat="63.52605277380744" lon="7.994013897114642" id="-10129">
		<tag k="fixme" v="consider seamark:type=rock or natural=shoal" />
		<tag k="name" v="Skjerjebåen" />
		<tag k="place" v="islet" />
		<tag k="ssr:stedsnr" v="619205" />
	</node>
	<node lat="63.52342222571698" lon="7.957374997434328" id="-10130">
		<tag k="name" v="Munkholmen" />
		<tag k="place" v="islet" />
		<tag k="ssr:stedsnr" v="619206" />
	</node>
	<node lat="63.40193332890113" lon="7.772755555219692" id="-10137">
		<tag k="name" v="Slagsøya" />
		<tag k="place" v="islet" />
		<tag k="ssr:stedsnr" v="619689" />
	</node>
	<node lat="63.33341267843191" lon="8.130379068462476" id="-10138">
		<tag k="name" v="Hestøya" />
		<tag k="place" v="islet" />
		<tag k="ssr:stedsnr" v="619807" />
	</node>
	<node lat="63.321741666802964" lon="7.837202787177989" id="-10139">
		<tag k="name" v="Hovalangen" />
		<tag k="place" v="islet" />
		<tag k="ssr:stedsnr" v="619814" />
	</node>
	<node lat="63.48146944100574" lon="7.975969451450354" id="-10140">
		<tag k="fixme" v="consider seamark:type=rock or natural=shoal" />
		<tag k="name" v="Ausa" />
		<tag k="place" v="islet" />
		<tag k="ssr:stedsnr" v="619579" />
	</node>
	<node lat="63.41710330438559" lon="7.808188681345951" id="-10142">
		<tag k="name" v="Trossøya" />
		<tag k="place" v="islet" />
		<tag k="ssr:stedsnr" v="619703" />
	</node>
	<node lat="63.2708527815606" lon="7.723261117834762" id="-10145">
		<tag k="name" v="Hesten" />
		<tag k="natural" v="shoal" />
		<tag k="place" v="locality" />
		<tag k="ssr:stedsnr" v="619911" />
	</node>
	<node lat="63.28755278169635" lon="7.733711113614856" id="-10148">
		<tag k="fixme" v="consider seamark:type=rock or natural=shoal" />
		<tag k="name" v="Nordre Eisteinskjæra" />
		<tag k="place" v="islet" />
		<tag k="ssr:stedsnr" v="703297" />
	</node>
	<node lat="63.31033055648323" lon="7.679941673551376" id="-10149">
		<tag k="fixme" v="consider seamark:type=rock or natural=shoal" />
		<tag k="name" v="Fluskjæret" />
		<tag k="place" v="islet" />
		<tag k="ssr:stedsnr" v="703301" />
	</node>
	<node lat="63.30694166560259" lon="7.685147216905375" id="-10150">
		<tag k="name" v="Ytre Hilbåen" />
		<tag k="natural" v="shoal" />
		<tag k="place" v="locality" />
		<tag k="ssr:stedsnr" v="703302" />
	</node>
	<node lat="63.39403332946161" lon="8.185913885378199" id="-10151">
		<tag k="name" v="Kobbvågen" />
		<tag k="natural" v="bay" />
		<tag k="ssr:stedsnr" v="703439" />
	</node>
	<node lat="63.4752833369782" lon="8.169675002341808" id="-10152">
		<tag k="name" v="Meflua" />
		<tag k="natural" v="shoal" />
		<tag k="place" v="locality" />
		<tag k="ssr:stedsnr" v="703782" />
	</node>
	<node lat="63.47174444389889" lon="8.04683888478909" id="-10153">
		<tag k="name" v="Joflua" />
		<tag k="natural" v="shoal" />
		<tag k="place" v="locality" />
		<tag k="ssr:stedsnr" v="703789" />
	</node>
	<node lat="63.4022166688387" lon="7.832047213172429" id="-10154">
		<tag k="name" v="Langvassvågen" />
		<tag k="natural" v="bay" />
		<tag k="ssr:stedsnr" v="704022" />
	</node>
	<node lat="63.41378333241886" lon="7.81843611286601" id="-10155">
		<tag k="name" v="Vollvågen" />
		<tag k="natural" v="bay" />
		<tag k="ssr:stedsnr" v="704025" />
	</node>
	<node lat="63.377866662178356" lon="7.779702773212406" id="-10157">
		<tag k="name" v="Benkjestokken" />
		<tag k="place" v="islet" />
		<tag k="ssr:stedsnr" v="704560" />
	</node>
	<node lat="63.525455554938624" lon="7.969166665977031" id="-10158">
		<tag k="name" v="Sildsundet" />
		<tag k="natural" v="strait" />
		<tag k="ssr:stedsnr" v="704633" />
	</node>
	<node lat="63.51278055368184" lon="7.98009444015037" id="-10159">
		<tag k="name" v="Nordre Vattholmen" />
		<tag k="place" v="islet" />
		<tag k="ssr:stedsnr" v="704641" />
	</node>
	<node lat="63.53520833166255" lon="7.8285000006629915" id="-10160">
		<tag k="name" v="Brørne" />
		<tag k="natural" v="shoal" />
		<tag k="place" v="locality" />
		<tag k="ssr:stedsnr" v="704896" />
	</node>
	<node lat="63.54364722405695" lon="7.842902783036483" id="-10161">
		<tag k="name" v="Saltfluan" />
		<tag k="natural" v="shoal" />
		<tag k="place" v="locality" />
		<tag k="ssr:stedsnr" v="704897" />
	</node>
	<node lat="63.48196666925259" lon="7.848688883731398" id="-10162">
		<tag k="name" v="Torskholmbåan" />
		<tag k="natural" v="shoal" />
		<tag k="place" v="locality" />
		<tag k="ssr:stedsnr" v="704956" />
	</node>
	<node lat="63.46060278192311" lon="7.837349999346066" id="-10164">
		<tag k="name" v="Olaskjær" />
		<tag k="natural" v="shoal" />
		<tag k="place" v="locality" />
		<tag k="ssr:stedsnr" v="705255" />
	</node>
	<node lat="63.30263055652895" lon="7.844558333150102" id="-10166">
		<tag k="fixme" v="consider seamark:type=rock or natural=shoal" />
		<tag k="name" v="Høgskjæret" />
		<tag k="place" v="islet" />
		<tag k="ssr:stedsnr" v="642224" />
	</node>
	<node lat="63.39169722623971" lon="7.839699994839021" id="-10167">
		<tag k="name" v="Kjempekreftvågen" />
		<tag k="natural" v="bay" />
		<tag k="ssr:stedsnr" v="643005" />
	</node>
	<node lat="63.38260278192331" lon="7.666899999530412" id="-10168">
		<tag k="name" v="Rusbåskallen" />
		<tag k="natural" v="shoal" />
		<tag k="place" v="locality" />
		<tag k="ssr:stedsnr" v="643077" />
	</node>
	<node lat="63.28664721996531" lon="7.945380548997888" id="-10169">
		<tag k="name" v="Søre Gangnesholman" />
		<tag k="place" v="islet" />
		<tag k="ssr:stedsnr" v="643203" />
	</node>
	<node lat="63.26394443999379" lon="8.012594442326343" id="-10170">
		<tag k="name" v="Langtaren" />
		<tag k="natural" v="shoal" />
		<tag k="place" v="locality" />
		<tag k="ssr:stedsnr" v="643177" />
	</node>
	<node lat="63.32571389320285" lon="7.801383332584432" id="-10171">
		<tag k="fixme" v="consider seamark:type=rock or natural=shoal" />
		<tag k="name" v="Småskjera" />
		<tag k="place" v="islet" />
		<tag k="ssr:stedsnr" v="643673" />
	</node>
	<node lat="63.39494444081367" lon="7.793286107995428" id="-10173">
		<tag k="name" v="Høgholmen" />
		<tag k="place" v="islet" />
		<tag k="ssr:stedsnr" v="657433" />
	</node>
	<node lat="63.39625000399477" lon="7.800841659615318" id="-10174">
		<tag k="name" v="Sør Dyrøyskaget" />
		<tag k="natural" v="cape" />
		<tag k="ssr:stedsnr" v="657435" />
	</node>
	<node lat="63.44121110845623" lon="7.900452774815436" id="-10175">
		<tag k="fixme" v="consider seamark:type=rock or natural=shoal" />
		<tag k="name" v="Landego" />
		<tag k="place" v="islet" />
		<tag k="ssr:stedsnr" v="657319" />
	</node>
	<node lat="63.46452222668007" lon="8.033355560834055" id="-10184">
		<tag k="fixme" v="consider seamark:type=rock or natural=shoal" />
		<tag k="name" v="Gulklakken" />
		<tag k="place" v="islet" />
		<tag k="ssr:stedsnr" v="658100" />
	</node>
	<node lat="63.324083337069325" lon="8.207333336471397" id="-10192">
		<tag k="name" v="Fruhamnskaget" />
		<tag k="natural" v="cape" />
		<tag k="ssr:stedsnr" v="679966" />
	</node>
	<node lat="63.318355555064045" lon="7.812666672302333" id="-10195">
		<tag k="name" v="Aukan" />
		<tag k="place" v="islet" />
		<tag k="ssr:stedsnr" v="679972" />
	</node>
	<node lat="63.31557499837512" lon="7.7926194466561425" id="-10196">
		<tag k="name" v="Sveøya" />
		<tag k="place" v="islet" />
		<tag k="ssr:stedsnr" v="679973" />
	</node>
	<node lat="63.47782222456941" lon="7.953336103802754" id="-10200">
		<tag k="fixme" v="consider seamark:type=rock or natural=shoal" />
		<tag k="name" v="Gråøydraget" />
		<tag k="place" v="islet" />
		<tag k="ssr:stedsnr" v="680630" />
	</node>
	<node lat="63.39201388979233" lon="7.699986110618222" id="-10201">
		<tag k="name" v="Pinøyflua" />
		<tag k="natural" v="shoal" />
		<tag k="place" v="locality" />
		<tag k="ssr:stedsnr" v="680680" />
	</node>
	<node lat="63.369791664179026" lon="7.698149999611641" id="-10202">
		<tag k="alt_name" v="Brosmann" />
		<tag k="name" v="Brosmannskjera" />
		<tag k="natural" v="shoal" />
		<tag k="place" v="locality" />
		<tag k="ssr:stedsnr" v="680682" />
	</node>
	<node lat="63.404255559867885" lon="7.781966666962695" id="-10207">
		<tag k="name" v="Flatøya" />
		<tag k="place" v="islet" />
		<tag k="ssr:stedsnr" v="680712" />
	</node>
	<node lat="63.440150004354734" lon="7.950541676159266" id="-10214">
		<tag k="fixme" v="multiple name tags, choose one and add the other to alt_name" />
		<tag k="name" v="Tretturdskaget;Trettordskaget" />
		<tag k="natural" v="cape" />
		<tag k="ssr:stedsnr" v="680777" />
	</node>
	<node lat="63.356258337727276" lon="7.858616665981773" id="-10216">
		<tag k="name" v="Kalvøya" />
		<tag k="place" v="islet" />
		<tag k="ssr:stedsnr" v="680868" />
	</node>
	<node lat="63.464686111519676" lon="8.088744452321974" id="-10223">
		<tag k="name" v="Øyabukta" />
		<tag k="natural" v="bay" />
		<tag k="ssr:stedsnr" v="702810" />
	</node>
	<node lat="63.28028611100423" lon="7.882394450556406" id="-10224">
		<tag k="name" v="Bomholmen" />
		<tag k="place" v="islet" />
		<tag k="ssr:stedsnr" v="703308" />
	</node>
	<node lat="63.32863888560474" lon="7.787641662124785" id="-10225">
		<tag k="fixme" v="consider seamark:type=rock or natural=shoal" />
		<tag k="name" v="Spongskjæra" />
		<tag k="place" v="islet" />
		<tag k="ssr:stedsnr" v="704209" />
	</node>
	<node lat="63.285483336312396" lon="8.07941110915776" id="-10226">
		<tag k="name" v="Håskjertaren" />
		<tag k="natural" v="shoal" />
		<tag k="place" v="locality" />
		<tag k="ssr:stedsnr" v="704173" />
	</node>
	<node lat="63.29221388666267" lon="8.044874991734385" id="-10227">
		<tag k="name" v="Skardvågen" />
		<tag k="natural" v="bay" />
		<tag k="ssr:stedsnr" v="704176" />
	</node>
	<node lat="63.48742499624284" lon="7.823408340890022" id="-10229">
		<tag k="name" v="Kråkskjerfluan" />
		<tag k="natural" v="shoal" />
		<tag k="place" v="locality" />
		<tag k="ssr:stedsnr" v="704958" />
	</node>
	<node lat="63.48049999647019" lon="7.746802774770445" id="-10230">
		<tag k="name" v="Djuphesten" />
		<tag k="natural" v="shoal" />
		<tag k="place" v="locality" />
		<tag k="ssr:stedsnr" v="705925" />
	</node>
	<node lat="63.49247500257224" lon="7.7736944470642" id="-10231">
		<tag k="name" v="Konten" />
		<tag k="natural" v="shoal" />
		<tag k="place" v="locality" />
		<tag k="ssr:stedsnr" v="705931" />
	</node>
	<node lat="63.45639166474294" lon="7.959458342692434" id="-10232">
		<tag k="name" v="Litlstraumøya" />
		<tag k="place" v="island" />
		<tag k="ssr:stedsnr" v="718111" />
	</node>
	<node lat="63.450200002199225" lon="7.9494888833249515" id="-10233">
		<tag k="name" v="Fossvollklakken" />
		<tag k="natural" v="shoal" />
		<tag k="place" v="locality" />
		<tag k="ssr:stedsnr" v="718113" />
	</node>
	<node lat="63.35035833103522" lon="7.969947213992829" id="-10239">
		<tag k="name" v="Kuvika" />
		<tag k="natural" v="bay" />
		<tag k="ssr:stedsnr" v="718913" />
	</node>
	<node lat="63.369369441190045" lon="8.2032083369573" id="-10242">
		<tag k="name" v="Aukbukta" />
		<tag k="natural" v="bay" />
		<tag k="ssr:stedsnr" v="719141" />
	</node>
	<node lat="63.29616944652361" lon="8.112561114668935" id="-10245">
		<tag k="name" v="Nausthaugtaren" />
		<tag k="natural" v="shoal" />
		<tag k="place" v="locality" />
		<tag k="ssr:stedsnr" v="899628" />
	</node>
	<node lat="63.35408055219511" lon="7.887986105876649" id="-10246">
		<tag k="name" v="Jøsundet" />
		<tag k="natural" v="strait" />
		<tag k="ssr:stedsnr" v="899688" />
	</node>
	<node lat="63.388688892179104" lon="8.199983334003203" id="-10251">
		<tag k="name" v="Bremnesvågen" />
		<tag k="natural" v="bay" />
		<tag k="ssr:stedsnr" v="901040" />
	</node>
	<node lat="63.4671388889686" lon="8.003538886177255" id="-10252">
		<tag k="fixme" v="consider seamark:type=rock or natural=shoal" />
		<tag k="name" v="Haugaskjera" />
		<tag k="place" v="islet" />
		<tag k="ssr:stedsnr" v="901101" />
	</node>
	<node lat="63.4706805531002" lon="7.961130562817001" id="-10254">
		<tag k="name" v="Blomsterholmen" />
		<tag k="place" v="islet" />
		<tag k="ssr:stedsnr" v="901089" />
	</node>
	<node lat="63.35184166262176" lon="8.255297223039024" id="-10256">
		<tag k="name" v="Remmingen" />
		<tag k="place" v="islet" />
		<tag k="ssr:stedsnr" v="901208" />
	</node>
	<node lat="63.34786666971068" lon="8.254775009329512" id="-10257">
		<tag k="name" v="Remmingen" />
		<tag k="place" v="islet" />
		<tag k="ssr:stedsnr" v="901209" />
	</node>
	<node lat="63.32336111437103" lon="7.994786111612989" id="-10260">
		<tag k="name" v="Rangnesvågen" />
		<tag k="natural" v="bay" />
		<tag k="ssr:stedsnr" v="901543" />
	</node>
	<node lat="63.348361110846184" lon="7.938038894290531" id="-10262">
		<tag k="name" v="Kroksjurskaga" />
		<tag k="natural" v="cape" />
		<tag k="ssr:stedsnr" v="901929" />
	</node>
	<node lat="63.47846111474635" lon="7.977949993183424" id="-10264">
		<tag k="name" v="Verjeskiftet" />
		<tag k="natural" v="bay" />
		<tag k="ssr:stedsnr" v="901942" />
	</node>
	<node lat="63.3092444483133" lon="8.133088884311979" id="-10279">
		<tag k="name" v="Henningsholmen" />
		<tag k="place" v="islet" />
		<tag k="ssr:stedsnr" v="740934" />
	</node>
	<node lat="63.2973055567211" lon="8.004949991370102" id="-10280">
		<tag k="name" v="Håholmen" />
		<tag k="place" v="islet" />
		<tag k="ssr:stedsnr" v="740944" />
	</node>
	<node lat="63.31030277931567" lon="7.818047224074182" id="-10281">
		<tag k="fixme" v="consider seamark:type=rock or natural=shoal" />
		<tag k="name" v="Singsøydraget" />
		<tag k="place" v="islet" />
		<tag k="ssr:stedsnr" v="740993" />
	</node>
	<node lat="63.53751388612098" lon="7.822894443416881" id="-10282">
		<tag k="fixme" v="consider seamark:type=rock or natural=shoal" />
		<tag k="name" v="Flesa" />
		<tag k="place" v="islet" />
		<tag k="ssr:stedsnr" v="741198" />
	</node>
	<node lat="63.39309999712766" lon="8.20170834225732" id="-10283">
		<tag k="name" v="Bremnesskaget" />
		<tag k="natural" v="cape" />
		<tag k="ssr:stedsnr" v="741706" />
	</node>
	<node lat="63.54511944310295" lon="8.020205550174909" id="-10289">
		<tag k="name" v="Nordgrunnen" />
		<tag k="natural" v="shoal" />
		<tag k="place" v="locality" />
		<tag k="ssr:stedsnr" v="755404" />
	</node>
	<node lat="63.537544441733665" lon="7.964144453251802" id="-10290">
		<tag k="name" v="Skagflua" />
		<tag k="natural" v="shoal" />
		<tag k="place" v="locality" />
		<tag k="ssr:stedsnr" v="755406" />
	</node>
	<node lat="63.2734694406988" lon="7.860136113717604" id="-10292">
		<tag k="name" v="Dusflua" />
		<tag k="natural" v="shoal" />
		<tag k="place" v="locality" />
		<tag k="ssr:stedsnr" v="764241" />
	</node>
	<node lat="63.321377781757484" lon="7.836811107561738" id="-10293">
		<tag k="name" v="Kløvholmdraga" />
		<tag k="natural" v="strait" />
		<tag k="ssr:stedsnr" v="764658" />
	</node>
	<node lat="63.41396389336315" lon="7.679186119557879" id="-10294">
		<tag k="name" v="Grunnfallet" />
		<tag k="natural" v="shoal" />
		<tag k="place" v="locality" />
		<tag k="ssr:stedsnr" v="765005" />
	</node>
	<node lat="63.310261114510716" lon="7.785499999395427" id="-10295">
		<tag k="name" v="Vardholmen" />
		<tag k="place" v="islet" />
		<tag k="ssr:stedsnr" v="765646" />
	</node>
	<node lat="63.33046388675141" lon="7.950197222896811" id="-10299">
		<tag k="name" v="Ørnholmen" />
		<tag k="place" v="islet" />
		<tag k="ssr:stedsnr" v="779550" />
	</node>
	<node lat="63.314749999510255" lon="8.06319167454837" id="-10303">
		<tag k="name" v="Tyttebærholmen" />
		<tag k="place" v="islet" />
		<tag k="ssr:stedsnr" v="780609" />
	</node>
	<node lat="63.27202499768627" lon="8.149633338456677" id="-10307">
		<tag k="bay" v="fjord" />
		<tag k="name" v="Edøyfjorden" />
		<tag k="natural" v="bay" />
		<tag k="ssr:stedsnr" v="801371" />
	</node>
	<node lat="63.39963610919651" lon="7.675616664649665" id="-10311">
		<tag k="name" v="Rebbåen" />
		<tag k="natural" v="shoal" />
		<tag k="place" v="locality" />
		<tag k="ssr:stedsnr" v="801606" />
	</node>
	<node lat="63.38836666588906" lon="7.674777785022319" id="-10312">
		<tag k="alt_name" v="Pusbåen, in;Indre Pusbåen" />
		<tag k="name" v="Ytre Rusbåan" />
		<tag k="natural" v="shoal" />
		<tag k="place" v="locality" />
		<tag k="ssr:stedsnr" v="801612" />
	</node>
	<node lat="63.2870194406668" lon="7.811563879863648" id="-10316">
		<tag k="name" v="Buøyaukan" />
		<tag k="place" v="islet" />
		<tag k="ssr:stedsnr" v="801905" />
	</node>
	<node lat="63.51134166946053" lon="7.8263027804913605" id="-10326">
		<tag k="fixme" v="consider seamark:type=rock or natural=shoal" />
		<tag k="name" v="Kobbskaget" />
		<tag k="place" v="islet" />
		<tag k="ssr:stedsnr" v="802217" />
	</node>
	<node lat="63.369124996718256" lon="8.2248277872055" id="-10327">
		<tag k="alt_name" v="Åstøyfluan" />
		<tag k="name" v="Åstøyflua" />
		<tag k="natural" v="shoal" />
		<tag k="place" v="locality" />
		<tag k="ssr:stedsnr" v="802223" />
	</node>
	<node lat="63.36638252631882" lon="7.786314775703611" id="-10329">
		<tag k="name" v="Steinsøya" />
		<tag k="place" v="island" />
		<tag k="ssr:stedsnr" v="802268" />
	</node>
	<node lat="63.481308330867506" lon="7.991111115046941" id="-10331">
		<tag k="name" v="Flatøya" />
		<tag k="place" v="islet" />
		<tag k="ssr:stedsnr" v="802609" />
	</node>
	<node lat="63.478902777556826" lon="8.002797226910404" id="-10332">
		<tag k="fixme" v="consider seamark:type=rock or natural=shoal" />
		<tag k="name" v="Gulklakken" />
		<tag k="place" v="islet" />
		<tag k="ssr:stedsnr" v="802610" />
	</node>
	<node lat="63.478477779037256" lon="7.780877786655285" id="-10333">
		<tag k="fixme" v="consider seamark:type=rock or natural=shoal" />
		<tag k="name" v="Jarfluene" />
		<tag k="place" v="islet" />
		<tag k="ssr:stedsnr" v="802616" />
	</node>
	<node lat="63.35168888643588" lon="8.175438897876422" id="-10336">
		<tag k="name" v="Langneset" />
		<tag k="natural" v="cape" />
		<tag k="ssr:stedsnr" v="802874" />
	</node>
	<node lat="63.372236108874674" lon="7.7249416720704245" id="-10338">
		<tag k="fixme" v="consider seamark:type=rock or natural=shoal" />
		<tag k="name" v="Gryta" />
		<tag k="place" v="islet" />
		<tag k="ssr:stedsnr" v="802884" />
	</node>
	<node lat="63.501738891791256" lon="8.067272212749444" id="-10340">
		<tag k="name" v="Klebåflua" />
		<tag k="natural" v="shoal" />
		<tag k="place" v="locality" />
		<tag k="ssr:stedsnr" v="802903" />
	</node>
	<node lat="63.50354167090086" lon="7.97481667318076" id="-10342">
		<tag k="name" v="Vattholmen" />
		<tag k="place" v="islet" />
		<tag k="ssr:stedsnr" v="817082" />
	</node>
	<node lat="63.347438891215354" lon="7.725502770643202" id="-10343">
		<tag k="name" v="Hølbåen" />
		<tag k="natural" v="shoal" />
		<tag k="place" v="locality" />
		<tag k="ssr:stedsnr" v="825078" />
	</node>
	<node lat="63.50104722254528" lon="8.093313879581938" id="-10344">
		<tag k="name" v="Gjesingflua" />
		<tag k="natural" v="shoal" />
		<tag k="place" v="locality" />
		<tag k="ssr:stedsnr" v="825768" />
	</node>
	<node lat="63.39690833113022" lon="7.668519438723009" id="-10345">
		<tag k="name" v="Rebbåskallen" />
		<tag k="natural" v="shoal" />
		<tag k="place" v="locality" />
		<tag k="ssr:stedsnr" v="826073" />
	</node>
	<node lat="63.37700277455354" lon="7.675522214884193" id="-10346">
		<tag k="name" v="Kårskallen" />
		<tag k="natural" v="shoal" />
		<tag k="place" v="locality" />
		<tag k="ssr:stedsnr" v="826082" />
	</node>
	<node lat="63.37526944807584" lon="7.700105562499654" id="-10347">
		<tag k="fixme" v="consider seamark:type=rock or natural=shoal" />
		<tag k="name" v="Tjukkbåskjæra" />
		<tag k="place" v="islet" />
		<tag k="ssr:stedsnr" v="826083" />
	</node>
	<node lat="63.33379444835831" lon="7.960011119237079" id="-10348">
		<tag k="name" v="Rangstraumen" />
		<tag k="natural" v="strait" />
		<tag k="ssr:stedsnr" v="826174" />
	</node>
	<node lat="63.32240833576202" lon="7.999175004709512" id="-10349">
		<tag k="name" v="Kallarsunda" />
		<tag k="natural" v="strait" />
		<tag k="ssr:stedsnr" v="826177" />
	</node>
	<node lat="63.54988055569773" lon="7.8379611114845575" id="-10350">
		<tag k="name" v="Skjælflua" />
		<tag k="natural" v="shoal" />
		<tag k="place" v="locality" />
		<tag k="ssr:stedsnr" v="826921" />
	</node>
	<node lat="63.43469721789323" lon="7.922061105144909" id="-10351">
		<tag k="name" v="Mjølstadvågen" />
		<tag k="natural" v="bay" />
		<tag k="ssr:stedsnr" v="826875" />
	</node>
	<node lat="63.46963055162907" lon="7.7296583245241655" id="-10356">
		<tag k="alt_name" v="Ytre Smoksbåen" />
		<tag k="name" v="Smoksbåen" />
		<tag k="natural" v="shoal" />
		<tag k="place" v="locality" />
		<tag k="ssr:stedsnr" v="922526" />
	</node>
	<node lat="63.343436108067195" lon="8.23976389368238" id="-10370">
		<tag k="name" v="Slettholmen" />
		<tag k="place" v="islet" />
		<tag k="ssr:stedsnr" v="923252" />
	</node>
	<node lat="63.345177779609784" lon="8.239516659973749" id="-10371">
		<tag k="name" v="Korsholmen" />
		<tag k="place" v="islet" />
		<tag k="ssr:stedsnr" v="923255" />
	</node>
	<node lat="63.336024998805996" lon="8.211300000439822" id="-10372">
		<tag k="name" v="Lauvøya" />
		<tag k="place" v="island" />
		<tag k="ssr:stedsnr" v="923265" />
	</node>
	<node lat="63.357413893031364" lon="7.679699995420488" id="-10376">
		<tag k="name" v="Ytreflua" />
		<tag k="natural" v="shoal" />
		<tag k="place" v="locality" />
		<tag k="ssr:stedsnr" v="923617" />
	</node>
	<node lat="63.43961944484682" lon="7.7901472237745555" id="-10380">
		<tag k="name" v="Tenndraget" />
		<tag k="place" v="islet" />
		<tag k="ssr:stedsnr" v="923758" />
	</node>
	<node lat="63.31722221870042" lon="7.983916661868519" id="-10386">
		<tag k="fixme" v="consider seamark:type=rock or natural=shoal" />
		<tag k="name" v="Haraldskjeret" />
		<tag k="place" v="islet" />
		<tag k="ssr:stedsnr" v="839294" />
	</node>
	<node lat="63.405936106735226" lon="8.189602778394418" id="-10389">
		<tag k="name" v="Sørlyngværet" />
		<tag k="place" v="islet" />
		<tag k="ssr:stedsnr" v="840107" />
	</node>
	<node lat="63.429349995827046" lon="7.90001388034869" id="-10392">
		<tag k="name" v="Storholmen" />
		<tag k="place" v="islet" />
		<tag k="ssr:stedsnr" v="840312" />
	</node>
	<node lat="63.46707222528885" lon="8.01916389527633" id="-10393">
		<tag k="name" v="Skagaholmen" />
		<tag k="place" v="islet" />
		<tag k="ssr:stedsnr" v="841129" />
	</node>
	<node lat="63.54341666228062" lon="7.796674999310099" id="-10394">
		<tag k="alt_name" v="Torrisgrunn" />
		<tag k="name" v="Tørresgrunnen" />
		<tag k="natural" v="shoal" />
		<tag k="place" v="locality" />
		<tag k="ssr:stedsnr" v="862200" />
	</node>
	<node lat="63.560222225137984" lon="7.857227774178679" id="-10395">
		<tag k="name" v="Storbåen" />
		<tag k="natural" v="shoal" />
		<tag k="place" v="locality" />
		<tag k="ssr:stedsnr" v="862202" />
	</node>
	<node lat="63.45806944139373" lon="7.816408330043941" id="-10397">
		<tag k="name" v="Stormåsøya" />
		<tag k="place" v="islet" />
		<tag k="ssr:stedsnr" v="862508" />
	</node>
	<node lat="63.46496666349581" lon="7.966386107698092" id="-10400">
		<tag k="name" v="Måøya" />
		<tag k="place" v="island" />
		<tag k="ssr:stedsnr" v="862514" />
	</node>
	<node lat="63.47141944745975" lon="8.119341665379814" id="-10401">
		<tag k="name" v="Rottøya" />
		<tag k="place" v="islet" />
		<tag k="ssr:stedsnr" v="862520" />
	</node>
	<node lat="63.47536110895089" lon="7.784883326127647" id="-10403">
		<tag k="fixme" v="consider seamark:type=rock or natural=shoal" />
		<tag k="name" v="Nubben" />
		<tag k="place" v="islet" />
		<tag k="ssr:stedsnr" v="862550" />
	</node>
	<node lat="63.43811389326403" lon="7.683161107289893" id="-10404">
		<tag k="alt_name" v="Skatvengen" />
		<tag k="name" v="Skatbåvingen" />
		<tag k="natural" v="shoal" />
		<tag k="place" v="locality" />
		<tag k="ssr:stedsnr" v="862599" />
	</node>
	<node lat="63.410550002670014" lon="7.668725004290602" id="-10405">
		<tag k="name" v="Torskflua" />
		<tag k="natural" v="shoal" />
		<tag k="place" v="locality" />
		<tag k="ssr:stedsnr" v="862601" />
	</node>
	<node lat="63.35733611409532" lon="7.839983335654164" id="-10411">
		<tag k="name" v="Vorpa" />
		<tag k="natural" v="cape" />
		<tag k="ssr:stedsnr" v="862879" />
	</node>
	<node lat="63.298644443000555" lon="7.7704861050814324" id="-10412">
		<tag k="name" v="Kjeøydraget" />
		<tag k="place" v="islet" />
		<tag k="ssr:stedsnr" v="862966" />
	</node>
	<node lat="63.31661369646469" lon="8.023535381914371" id="-10415">
		<tag k="name" v="Rossvoll" />
		<tag k="old_name" v="Rosvolløya;Rossvolløya" />
		<tag k="place" v="island" />
		<tag k="ssr:stedsnr" v="862996" />
	</node>
	<node lat="63.507830558005395" lon="7.8382611174948975" id="-10417">
		<tag k="fixme" v="consider seamark:type=rock or natural=shoal" />
		<tag k="name" v="Svartbakkskjera" />
		<tag k="place" v="islet" />
		<tag k="ssr:stedsnr" v="863187" />
	</node>
	<node lat="63.51936666970722" lon="7.945061107123649" id="-10419">
		<tag k="name" v="Singsholmen" />
		<tag k="place" v="islet" />
		<tag k="ssr:stedsnr" v="877414" />
	</node>
	<node lat="63.40404166927657" lon="8.205130552977012" id="-10420">
		<tag k="name" v="Langtaran" />
		<tag k="natural" v="shoal" />
		<tag k="place" v="locality" />
		<tag k="ssr:stedsnr" v="885410" />
	</node>
	<node lat="63.40071944285702" lon="7.740455555536048" id="-10421">
		<tag k="name" v="Hallertaren" />
		<tag k="natural" v="shoal" />
		<tag k="place" v="locality" />
		<tag k="ssr:stedsnr" v="886002" />
	</node>
	<node lat="63.32720832978525" lon="8.215674994193854" id="-10422">
		<tag k="name" v="Ytre Kattholmen" />
		<tag k="place" v="islet" />
		<tag k="ssr:stedsnr" v="886106" />
	</node>
	<node lat="63.331872226381556" lon="8.171952780522144" id="-10423">
		<tag k="name" v="Tremannsbåen" />
		<tag k="place" v="locality" />
		<tag k="seamark:type" v="rock" />
		<tag k="ssr:stedsnr" v="886107" />
	</node>
	<node lat="63.40279722588818" lon="7.8207694413239555" id="-10424">
		<tag k="name" v="Aukavågen" />
		<tag k="natural" v="bay" />
		<tag k="ssr:stedsnr" v="886026" />
	</node>
	<node lat="63.27638610869867" lon="7.877063894643275" id="-10425">
		<tag k="name" v="Joøyflua" />
		<tag k="natural" v="shoal" />
		<tag k="place" v="locality" />
		<tag k="ssr:stedsnr" v="886265" />
	</node>
	<node lat="63.491380559820335" lon="7.9687055530285145" id="-10426">
		<tag k="name" v="Søre Tjørnøyan" />
		<tag k="place" v="islet" />
		<tag k="ssr:stedsnr" v="886703" />
	</node>
	<node lat="63.48049999647019" lon="7.746802774770445" id="-10427">
		<tag k="name" v="Hesten" />
		<tag k="natural" v="shoal" />
		<tag k="place" v="locality" />
		<tag k="ssr:stedsnr" v="887931" />
	</node>
	<node lat="63.49155833040126" lon="7.716133337989002" id="-10428">
		<tag k="name" v="Midtre Flua" />
		<tag k="natural" v="shoal" />
		<tag k="place" v="locality" />
		<tag k="ssr:stedsnr" v="887936" />
	</node>
	<node lat="63.40183333512171" lon="7.797286110596494" id="-10430">
		<tag k="name" v="Lyngholmen" />
		<tag k="place" v="islet" />
		<tag k="ssr:stedsnr" v="900407" />
	</node>
	<node lat="63.466072219253014" lon="8.083072213103735" id="-10432">
		<tag k="fixme" v="consider seamark:type=rock or natural=shoal" />
		<tag k="name" v="Litlnotskjeret" />
		<tag k="place" v="islet" />
		<tag k="ssr:stedsnr" v="901014" />
	</node>
	<node lat="63.38465277640181" lon="8.214347226685558" id="-10435">
		<tag k="name" v="Nord Dyrøysundet" />
		<tag k="natural" v="strait" />
		<tag k="ssr:stedsnr" v="901154" />
	</node>
	<node lat="63.459236111952066" lon="7.971969443978972" id="-10444">
		<tag k="name" v="Kalvøya" />
		<tag k="place" v="islet" />
		<tag k="ssr:stedsnr" v="922492" />
	</node>
	<node lat="63.41121667021449" lon="7.777163893979069" id="-10449">
		<tag k="name" v="Tjuvøya" />
		<tag k="place" v="islet" />
		<tag k="ssr:stedsnr" v="922680" />
	</node>
	<node lat="63.475222223196575" lon="7.9464666659834915" id="-10452">
		<tag k="name" v="Gråøya" />
		<tag k="place" v="islet" />
		<tag k="ssr:stedsnr" v="923605" />
	</node>
	<node lat="63.312024998388715" lon="7.6645750039122404" id="-10454">
		<tag k="name" v="Valøybåen" />
		<tag k="natural" v="shoal" />
		<tag k="place" v="locality" />
		<tag k="ssr:stedsnr" v="923624" />
	</node>
	<node lat="63.322452774789866" lon="7.749186108543246" id="-10459">
		<tag k="bay" v="fjord" />
		<tag k="name" v="Valøysvaet" />
		<tag k="natural" v="bay" />
		<tag k="ssr:stedsnr" v="923785" />
	</node>
	<node lat="63.50200277848195" lon="7.983269450922456" id="-10464">
		<tag k="alt_name" v="Ytre Ranværet;Ranværet, yt" />
		<tag k="name" v="Ytre Rannværet" />
		<tag k="place" v="islet" />
		<tag k="ssr:stedsnr" v="923885" />
	</node>
	<node lat="63.341313888511884" lon="7.723075009924946" id="-10468">
		<tag k="name" v="Manndraperen" />
		<tag k="natural" v="shoal" />
		<tag k="place" v="locality" />
		<tag k="ssr:stedsnr" v="946104" />
	</node>
	<node lat="63.280280553497654" lon="7.7871000029734825" id="-10469">
		<tag k="name" v="Omsundflua" />
		<tag k="natural" v="shoal" />
		<tag k="place" v="locality" />
		<tag k="ssr:stedsnr" v="946094" />
	</node>
	<node lat="63.30556110978876" lon="7.728050004448412" id="-10470">
		<tag k="fixme" v="consider seamark:type=rock or natural=shoal" />
		<tag k="name" v="Nordre Brattleiskjæra" />
		<tag k="place" v="islet" />
		<tag k="ssr:stedsnr" v="946193" />
	</node>
	<node lat="63.28143611487596" lon="7.9606222149656825" id="-10471">
		<tag k="fixme" v="consider seamark:type=rock or natural=shoal" />
		<tag k="name" v="Langskjæret" />
		<tag k="place" v="islet" />
		<tag k="ssr:stedsnr" v="947186" />
	</node>
	<node lat="63.4975166653207" lon="7.9535000069047" id="-10472">
		<tag k="name" v="Djupsundet" />
		<tag k="natural" v="strait" />
		<tag k="ssr:stedsnr" v="947677" />
	</node>
	<node lat="63.484936110408306" lon="8.031599996204875" id="-10475">
		<tag k="fixme" v="consider seamark:type=rock or natural=shoal" />
		<tag k="name" v="Hundskjera" />
		<tag k="place" v="islet" />
		<tag k="ssr:stedsnr" v="955299" />
	</node>
	<node lat="63.4336222222743" lon="8.164024995656577" id="-10476">
		<tag k="alt_name" v="Vester Veitholmen" />
		<tag k="name" v="Søre Veitholmen" />
		<tag k="place" v="islet" />
		<tag k="ssr:stedsnr" v="957602" />
	</node>
	<node lat="63.402994443878356" lon="7.789977769989858" id="-10478">
		<tag k="name" v="Ytter Lauvholmen" />
		<tag k="place" v="islet" />
		<tag k="ssr:stedsnr" v="960404" />
	</node>
	<node lat="63.40510833020993" lon="8.180663896262466" id="-10481">
		<tag k="fixme" v="consider seamark:type=rock or natural=shoal" />
		<tag k="name" v="Easkjeret" />
		<tag k="place" v="islet" />
		<tag k="ssr:stedsnr" v="961093" />
	</node>
	<node lat="63.34226111206451" lon="8.236536117685333" id="-10531">
		<tag k="name" v="Purkholmen" />
		<tag k="place" v="islet" />
		<tag k="ssr:stedsnr" v="12220" />
	</node>
	<node lat="63.2993944413103" lon="7.783375005901941" id="-10536">
		<tag k="name" v="Kjeøya" />
		<tag k="place" v="islet" />
		<tag k="ssr:stedsnr" v="12964" />
	</node>
	<node lat="63.448230246542394" lon="7.889340478802836" id="-10540">
		<tag k="alt_name" v="Mongsøya" />
		<tag k="name" v="Monsøya" />
		<tag k="place" v="island" />
		<tag k="ssr:stedsnr" v="12499" />
	</node>
	<node lat="63.472352776939076" lon="7.872374990141521" id="-10542">
		<tag k="name" v="Storbuktøya" />
		<tag k="place" v="islet" />
		<tag k="ssr:stedsnr" v="12532" />
	</node>
	<node lat="63.391602774048486" lon="7.769574995822884" id="-10543">
		<tag k="alt_name" v="Skjeløya" />
		<tag k="name" v="Skjøløya" />
		<tag k="place" v="islet" />
		<tag k="ssr:stedsnr" v="12637" />
	</node>
	<node lat="63.3931666688513" lon="7.830891672186437" id="-10545">
		<tag k="name" v="Skomsøyvågen" />
		<tag k="natural" v="bay" />
		<tag k="ssr:stedsnr" v="12651" />
	</node>
	<node lat="63.48755555567047" lon="8.057175000045039" id="-10548">
		<tag k="fixme" v="consider seamark:type=rock or natural=shoal" />
		<tag k="name" v="Balen" />
		<tag k="place" v="islet" />
		<tag k="ssr:stedsnr" v="12574" />
	</node>
	<node lat="63.4406361080678" lon="7.924341660813932" id="-10553">
		<tag k="name" v="Kuøya" />
		<tag k="place" v="islet" />
		<tag k="ssr:stedsnr" v="12736" />
	</node>
	<node lat="63.474252781561596" lon="7.813191661222013" id="-10556">
		<tag k="fixme" v="consider seamark:type=rock or natural=shoal" />
		<tag k="name" v="Grøndraget" />
		<tag k="place" v="islet" />
		<tag k="ssr:stedsnr" v="13592" />
	</node>
	<node lat="63.43549722196687" lon="7.841875001730206" id="-10564">
		<tag k="name" v="Sandøya" />
		<tag k="place" v="islet" />
		<tag k="ssr:stedsnr" v="13734" />
	</node>
	<node lat="63.43381944522719" lon="7.896658332986901" id="-10565">
		<tag k="name" v="Skjølvågen" />
		<tag k="natural" v="bay" />
		<tag k="ssr:stedsnr" v="13739" />
	</node>
	<node lat="63.362369444520006" lon="7.8620138879677075" id="-10566">
		<tag k="name" v="Klakken" />
		<tag k="natural" v="cape" />
		<tag k="ssr:stedsnr" v="13861" />
	</node>
	<node lat="63.50721666628813" lon="8.019111116971137" id="-10567">
		<tag k="alt_name" v="Svartskjeret, nordre" />
		<tag k="fixme" v="consider seamark:type=rock or natural=shoal" />
		<tag k="name" v="Nordre Svartskjæret" />
		<tag k="place" v="islet" />
		<tag k="ssr:stedsnr" v="13862" />
	</node>
	<node lat="63.371319444041326" lon="7.767922228418324" id="-10576">
		<tag k="alt_name" v="Svetangen" />
		<tag k="fixme" v="consider seamark:type=rock or natural=shoal" />
		<tag k="name" v="Sveatangen" />
		<tag k="place" v="islet" />
		<tag k="ssr:stedsnr" v="13849" />
	</node>
	<node lat="63.395133334347676" lon="8.20567500446411" id="-10579">
		<tag k="name" v="Garnflua" />
		<tag k="natural" v="shoal" />
		<tag k="place" v="locality" />
		<tag k="ssr:stedsnr" v="36369" />
	</node>
	<node lat="63.27857777808786" lon="7.777205554330155" id="-10580">
		<tag k="name" v="Esmanflua" />
		<tag k="natural" v="shoal" />
		<tag k="place" v="locality" />
		<tag k="ssr:stedsnr" v="36090" />
	</node>
	<node lat="63.32267222379258" lon="7.86438056083948" id="-10581">
		<tag k="name" v="Håvatangan" />
		<tag k="natural" v="shoal" />
		<tag k="place" v="locality" />
		<tag k="ssr:stedsnr" v="36237" />
	</node>
	<node lat="63.26811388833144" lon="7.934797214211937" id="-10582">
		<tag k="fixme" v="consider seamark:type=rock or natural=shoal" />
		<tag k="name" v="Svalbakskjæra" />
		<tag k="place" v="islet" />
		<tag k="ssr:stedsnr" v="36240" />
	</node>
	<node lat="63.249252776748236" lon="7.742955554078882" id="-10583">
		<tag k="alt_name" v="Skjeringtaren" />
		<tag k="name" v="Skjæringtaren" />
		<tag k="natural" v="shoal" />
		<tag k="place" v="locality" />
		<tag k="ssr:stedsnr" v="36253" />
	</node>
	<node lat="63.35379166723249" lon="8.187969438199929" id="-10584">
		<tag k="name" v="Skipneshammaren" />
		<tag k="natural" v="cape" />
		<tag k="ssr:stedsnr" v="36499" />
	</node>
	<node lat="63.317325000059135" lon="7.81250833836064" id="-10585">
		<tag k="fixme" v="consider seamark:type=rock or natural=shoal" />
		<tag k="name" v="Klakkan" />
		<tag k="place" v="islet" />
		<tag k="ssr:stedsnr" v="36584" />
	</node>
	<node lat="63.472711107753675" lon="8.15808888804884" id="-10586">
		<tag k="name" v="Austre Skitåskjæret" />
		<tag k="natural" v="shoal" />
		<tag k="place" v="locality" />
		<tag k="ssr:stedsnr" v="36773" />
	</node>
	<node lat="63.3213888897487" lon="7.843955553619224" id="-10587">
		<tag k="name" v="Kløvholmen" />
		<tag k="place" v="islet" />
		<tag k="ssr:stedsnr" v="36632" />
	</node>
	<node lat="63.24956666861933" lon="7.97118610597241" id="-10588">
		<tag k="name" v="Kutmannsflua" />
		<tag k="natural" v="shoal" />
		<tag k="place" v="locality" />
		<tag k="ssr:stedsnr" v="37182" />
	</node>
	<node lat="63.276188886065384" lon="7.856802775851892" id="-10589">
		<tag k="name" v="Kuholmen" />
		<tag k="place" v="islet" />
		<tag k="ssr:stedsnr" v="37690" />
	</node>
	<node lat="63.43538055219297" lon="8.160488889174525" id="-10590">
		<tag k="name" v="Litle Veitholman" />
		<tag k="place" v="islet" />
		<tag k="ssr:stedsnr" v="37656" />
	</node>
	<node lat="63.43537499877334" lon="8.170149999527549" id="-10591">
		<tag k="name" v="Store Veitholman" />
		<tag k="place" v="islet" />
		<tag k="ssr:stedsnr" v="37657" />
	</node>
	<node lat="63.48166389189431" lon="7.9224583390848835" id="-10594">
		<tag k="fixme" v="consider seamark:type=rock or natural=shoal" />
		<tag k="name" v="Storgårskjæret" />
		<tag k="place" v="islet" />
		<tag k="ssr:stedsnr" v="50735" />
	</node>
	<node lat="63.43656111158518" lon="7.926397221330817" id="-10597">
		<tag k="name" v="Einesvågen" />
		<tag k="natural" v="bay" />
		<tag k="ssr:stedsnr" v="51354" />
	</node>
	<node lat="63.47339444875135" lon="7.991680560775295" id="-10602">
		<tag k="name" v="Tjøroholmen" />
		<tag k="place" v="islet" />
		<tag k="ssr:stedsnr" v="51934" />
	</node>
	<node lat="63.520591667930404" lon="7.956786103478716" id="-10603">
		<tag k="fixme" v="consider seamark:type=rock or natural=shoal" />
		<tag k="name" v="Persklakken" />
		<tag k="place" v="islet" />
		<tag k="ssr:stedsnr" v="51936" />
	</node>
	<node lat="63.385447222935994" lon="8.205025005927402" id="-10607">
		<tag k="fixme" v="consider seamark:type=rock or natural=shoal" />
		<tag k="name" v="Gaffelskjeret" />
		<tag k="place" v="islet" />
		<tag k="ssr:stedsnr" v="52159" />
	</node>
	<node lat="63.32208332930935" lon="8.049000009016492" id="-10608">
		<tag k="name" v="Smølamannsøya" />
		<tag k="place" v="island" />
		<tag k="ssr:stedsnr" v="52446" />
	</node>
	<node lat="63.33209444754522" lon="8.22857778252828" id="-10609">
		<tag k="name" v="Isaksholmen" />
		<tag k="place" v="islet" />
		<tag k="ssr:stedsnr" v="73134" />
	</node>
	<node lat="63.45936388548427" lon="7.886005554964184" id="-10613">
		<tag k="bay" v="fjord" />
		<tag k="name" v="Lyngøydraget" />
		<tag k="natural" v="bay" />
		<tag k="ssr:stedsnr" v="73539" />
	</node>
	<node lat="63.46304297714098" lon="8.114371743210185" id="-10614">
		<tag k="name" v="Holmen" />
		<tag k="place" v="islet" />
		<tag k="ssr:stedsnr" v="73543" />
	</node>
	<node lat="63.46417777446971" lon="8.079711110042838" id="-10615">
		<tag k="name" v="Øya" />
		<tag k="place" v="islet" />
		<tag k="ssr:stedsnr" v="73545" />
	</node>
	<node lat="63.39190555978722" lon="7.762136110096054" id="-10622">
		<tag k="name" v="Balborholmen" />
		<tag k="place" v="islet" />
		<tag k="ssr:stedsnr" v="73655" />
	</node>
	<node lat="63.399455556496264" lon="7.758127780416703" id="-10623">
		<tag k="alt_name" v="Simonsøya" />
		<tag k="name" v="Simåsøya" />
		<tag k="place" v="islet" />
		<tag k="ssr:stedsnr" v="73656" />
	</node>
	<node lat="63.44667499662765" lon="7.855738890580912" id="-10625">
		<tag k="alt_name" v="Singsdraget" />
		<tag k="name" v="Måsdraget" />
		<tag k="place" v="islet" />
		<tag k="ssr:stedsnr" v="73745" />
	</node>
	<node lat="63.25254166740441" lon="7.824491663248864" id="-10634">
		<tag k="alt_name" v="Sauøya" />
		<tag k="name" v="Saueholmen" />
		<tag k="place" v="islet" />
		<tag k="ssr:stedsnr" v="73898" />
	</node>
	<node lat="63.28620278099863" lon="7.802183336595772" id="-10635">
		<tag k="name" v="Buøya" />
		<tag k="place" v="islet" />
		<tag k="ssr:stedsnr" v="73915" />
	</node>
	<node lat="63.505811113315296" lon="7.974613889174931" id="-10643">
		<tag k="alt_name" v="Skinnstakkholmen" />
		<tag k="name" v="Skinnstakken" />
		<tag k="place" v="islet" />
		<tag k="ssr:stedsnr" v="74861" />
	</node>
	<node lat="63.39322500223283" lon="8.214474993861302" id="-10646">
		<tag k="name" v="Grunnflua" />
		<tag k="natural" v="shoal" />
		<tag k="place" v="locality" />
		<tag k="ssr:stedsnr" v="96401" />
	</node>
	<node lat="63.39486667099523" lon="8.188511114429526" id="-10647">
		<tag k="name" v="Stråklandet" />
		<tag k="natural" v="cape" />
		<tag k="ssr:stedsnr" v="96409" />
	</node>
	<node lat="63.47673333685771" lon="8.068430557538575" id="-10648">
		<tag k="name" v="Rognkaka" />
		<tag k="natural" v="shoal" />
		<tag k="place" v="locality" />
		<tag k="ssr:stedsnr" v="96782" />
	</node>
	<node lat="63.25933889264722" lon="8.018988882652653" id="-10649">
		<tag k="name" v="Indre Mannsholmflua" />
		<tag k="natural" v="shoal" />
		<tag k="place" v="locality" />
		<tag k="ssr:stedsnr" v="97141" />
	</node>
	<node lat="63.31212499879038" lon="7.664452774670466" id="-10650">
		<tag k="name" v="Valøybåsteinen" />
		<tag k="place" v="locality" />
		<tag k="seamark:type" v="rock" />
		<tag k="ssr:stedsnr" v="97227" />
	</node>
	<node lat="63.26525555747069" lon="7.769438896751286" id="-10651">
		<tag k="fixme" v="consider seamark:type=rock or natural=shoal" />
		<tag k="name" v="Landvindskjæra" />
		<tag k="place" v="islet" />
		<tag k="ssr:stedsnr" v="97299" />
	</node>
	<node lat="63.43255277764808" lon="8.204199990530585" id="-10652">
		<tag k="name" v="Ytre Storbåen" />
		<tag k="natural" v="shoal" />
		<tag k="place" v="locality" />
		<tag k="ssr:stedsnr" v="97393" />
	</node>
	<node lat="63.45632777941728" lon="7.73632778052167" id="-10653">
		<tag k="name" v="Rebbåleia" />
		<tag k="natural" v="strait" />
		<tag k="ssr:stedsnr" v="97952" />
	</node>
	<node lat="63.4746393500213" lon="7.842083342808873" id="-10654">
		<tag k="name" v="Torskholmen" />
		<tag k="natural" v="shoal" />
		<tag k="place" v="locality" />
		<tag k="ssr:stedsnr" v="99238" />
	</node>
	<node lat="63.49928055403613" lon="7.699616667519859" id="-10655">
		<tag k="name" v="Ytre Hausen" />
		<tag k="natural" v="shoal" />
		<tag k="place" v="locality" />
		<tag k="ssr:stedsnr" v="98926" />
	</node>
	<node lat="63.39770278152477" lon="8.184058326422937" id="-10665">
		<tag k="name" v="Langholmen" />
		<tag k="place" v="islet" />
		<tag k="ssr:stedsnr" v="112145" />
	</node>
	<node lat="63.407352779007915" lon="8.16491666024727" id="-10666">
		<tag k="name" v="Djupvika" />
		<tag k="natural" v="bay" />
		<tag k="ssr:stedsnr" v="112041" />
	</node>
	<node lat="63.32907500010953" lon="7.9719527784514845" id="-10667">
		<tag k="name" v="Sørneset" />
		<tag k="natural" v="cape" />
		<tag k="ssr:stedsnr" v="112546" />
	</node>
	<node lat="63.31276944628863" lon="8.067125001060253" id="-10669">
		<tag k="fixme" v="consider seamark:type=rock or natural=shoal" />
		<tag k="name" v="Sandskjera" />
		<tag k="place" v="islet" />
		<tag k="ssr:stedsnr" v="112694" />
	</node>
	<node lat="63.331594443806644" lon="8.093102772505405" id="-10670">
		<tag k="name" v="Ytter Klovågen" />
		<tag k="natural" v="bay" />
		<tag k="ssr:stedsnr" v="112752" />
	</node>
	<node lat="63.526519443457445" lon="7.968313893837245" id="-10674">
		<tag k="fixme" v="consider seamark:type=rock or natural=shoal" />
		<tag k="name" v="SIldsundskjeret" />
		<tag k="place" v="islet" />
		<tag k="ssr:stedsnr" v="112935" />
	</node>
	<node lat="63.47460555734887" lon="7.6933250069432075" id="-10676">
		<tag k="name" v="Revet" />
		<tag k="natural" v="shoal" />
		<tag k="place" v="locality" />
		<tag k="ssr:stedsnr" v="133582" />
	</node>
	<node lat="63.46691388628957" lon="7.888502787426674" id="-10677">
		<tag k="name" v="Baholman" />
		<tag k="place" v="islet" />
		<tag k="ssr:stedsnr" v="133491" />
	</node>
	<node lat="63.24848888573425" lon="7.829377770426073" id="-10681">
		<tag k="name" v="Solværet" />
		<tag k="place" v="island" />
		<tag k="ssr:stedsnr" v="133349" />
	</node>
	<node lat="63.483505557567014" lon="7.812966658894167" id="-10685">
		<tag k="alt_name" v="Kråkskjæret" />
		<tag k="fixme" v="consider seamark:type=rock or natural=shoal" />
		<tag k="name" v="Kråka" />
		<tag k="place" v="islet" />
		<tag k="ssr:stedsnr" v="133551" />
	</node>
	<node lat="63.40578333385905" lon="7.7851861166342635" id="-10688">
		<tag k="name" v="Skarpen" />
		<tag k="place" v="islet" />
		<tag k="ssr:stedsnr" v="133639" />
	</node>
	<node lat="63.418755553644104" lon="8.17721666502709" id="-10689">
		<tag k="name" v="Kjeøya" />
		<tag k="place" v="islet" />
		<tag k="ssr:stedsnr" v="133643" />
	</node>
	<node lat="63.33039722168528" lon="7.815586118288037" id="-10692">
		<tag k="name" v="Flatmåsøya" />
		<tag k="place" v="islet" />
		<tag k="ssr:stedsnr" v="133795" />
	</node>
	<node lat="63.438949997620036" lon="7.6967361142075665" id="-10693">
		<tag k="alt_name" v="Skatbåen, yt" />
		<tag k="name" v="Ytre Skatbåen" />
		<tag k="natural" v="shoal" />
		<tag k="place" v="locality" />
		<tag k="ssr:stedsnr" v="133584" />
	</node>
	<node lat="63.39086388730497" lon="7.689869436929523" id="-10694">
		<tag k="name" v="Halsbåen" />
		<tag k="natural" v="shoal" />
		<tag k="place" v="locality" />
		<tag k="ssr:stedsnr" v="133589" />
	</node>
	<node lat="63.383811115103654" lon="7.714052782564689" id="-10695">
		<tag k="name" v="Balskjeggbåen" />
		<tag k="natural" v="shoal" />
		<tag k="place" v="locality" />
		<tag k="ssr:stedsnr" v="133591" />
	</node>
	<node lat="63.44014166784927" lon="7.724327770759631" id="-10698">
		<tag k="alt_name" v="Belgen" />
		<tag k="fixme" v="consider seamark:type=rock or natural=shoal" />
		<tag k="name" v="Brattværbelgen" />
		<tag k="place" v="islet" />
		<tag k="ssr:stedsnr" v="133722" />
	</node>
	<node lat="63.33409721893096" lon="8.22261943523451" id="-10701">
		<tag k="name" v="Lauvøysvaet" />
		<tag k="natural" v="strait" />
		<tag k="ssr:stedsnr" v="133979" />
	</node>
	<node lat="63.28768888911515" lon="7.788822231339014" id="-10706">
		<tag k="name" v="Hallarøya" />
		<tag k="place" v="island" />
		<tag k="ssr:stedsnr" v="133920" />
	</node>
	<node lat="63.274702778677266" lon="7.900886101351161" id="-10711">
		<tag k="bay" v="fjord" />
		<tag k="name" v="Blåsværsvaet" />
		<tag k="natural" v="bay" />
		<tag k="ssr:stedsnr" v="133932" />
	</node>
	<node lat="63.3118583309283" lon="7.802416660683623" id="-10714">
		<tag k="fixme" v="consider seamark:type=rock or natural=shoal" />
		<tag k="name" v="Bismaren" />
		<tag k="place" v="islet" />
		<tag k="ssr:stedsnr" v="133997" />
	</node>
	<node lat="63.542361111436" lon="7.851944442644812" id="-10716">
		<tag k="alt_name" v="Hilverskjeret" />
		<tag k="name" v="Hilverskjæret" />
		<tag k="natural" v="shoal" />
		<tag k="place" v="locality" />
		<tag k="ssr:stedsnr" v="134187" />
	</node>
	<node lat="63.51933055791359" lon="7.99153888278843" id="-10717">
		<tag k="alt_name" v="Rønsøyskjera" />
		<tag k="fixme" v="consider seamark:type=rock or natural=shoal" />
		<tag k="name" v="Rønsøyskjæra" />
		<tag k="place" v="islet" />
		<tag k="ssr:stedsnr" v="134198" />
	</node>
	<node lat="63.44262777871186" lon="7.932366667355689" id="-10718">
		<tag k="name" v="Lauvøya" />
		<tag k="place" v="islet" />
		<tag k="ssr:stedsnr" v="134288" />
	</node>
	<node lat="63.37770277490655" lon="7.76910832529664" id="-10722">
		<tag k="name" v="Støvlsøya" />
		<tag k="place" v="islet" />
		<tag k="ssr:stedsnr" v="134662" />
	</node>
	<node lat="63.434697218981896" lon="7.740805553892704" id="-10724">
		<tag k="fixme" v="consider seamark:type=rock or natural=shoal" />
		<tag k="name" v="Flatbelgen" />
		<tag k="place" v="islet" />
		<tag k="ssr:stedsnr" v="134738" />
	</node>
	<node lat="63.509674999875045" lon="7.840961114801351" id="-10740">
		<tag k="fixme" v="consider seamark:type=rock or natural=shoal" />
		<tag k="name" v="Skarvknollan" />
		<tag k="place" v="islet" />
		<tag k="ssr:stedsnr" v="148400" />
	</node>
	<node lat="63.239680555216495" lon="7.772438898218985" id="-10742">
		<tag k="name" v="Gjæslingfallet" />
		<tag k="natural" v="shoal" />
		<tag k="place" v="locality" />
		<tag k="ssr:stedsnr" v="157225" />
	</node>
	<node lat="63.26864166487828" lon="7.824158327132149" id="-10743">
		<tag k="fixme" v="consider seamark:type=rock or natural=shoal" />
		<tag k="name" v="Glea" />
		<tag k="place" v="islet" />
		<tag k="ssr:stedsnr" v="157227" />
	</node>
	<node lat="63.4151083291887" lon="8.219702773432102" id="-10744">
		<tag k="name" v="Hermannsko" />
		<tag k="natural" v="shoal" />
		<tag k="place" v="locality" />
		<tag k="ssr:stedsnr" v="157366" />
	</node>
	<node lat="63.423402778615205" lon="7.792616669225348" id="-10745">
		<tag k="name" v="Galten" />
		<tag k="natural" v="shoal" />
		<tag k="place" v="locality" />
		<tag k="ssr:stedsnr" v="158034" />
	</node>
	<node lat="63.50634722610342" lon="7.899327767796128" id="-10746">
		<tag k="name" v="Låsgrunnen" />
		<tag k="natural" v="shoal" />
		<tag k="place" v="locality" />
		<tag k="ssr:stedsnr" v="158926" />
	</node>
	<node lat="63.40314166272787" lon="8.191725009814709" id="-10750">
		<tag k="fixme" v="consider seamark:type=rock or natural=shoal" />
		<tag k="name" v="Skomakaren" />
		<tag k="place" v="islet" />
		<tag k="ssr:stedsnr" v="172101" />
	</node>
	<node lat="63.35649722196867" lon="7.880949992462242" id="-10752">
		<tag k="name" v="Hallarbukta" />
		<tag k="natural" v="bay" />
		<tag k="ssr:stedsnr" v="171699" />
	</node>
	<node lat="63.352516662413784" lon="7.897802787266929" id="-10753">
		<tag k="fixme" v="consider seamark:type=rock or natural=shoal" />
		<tag k="name" v="Storskjeret" />
		<tag k="place" v="islet" />
		<tag k="ssr:stedsnr" v="171701" />
	</node>
	<node lat="63.345352779557025" lon="7.939405552006462" id="-10760">
		<tag k="name" v="Langskaga" />
		<tag k="natural" v="cape" />
		<tag k="ssr:stedsnr" v="172928" />
	</node>
	<node lat="63.3914888933982" lon="8.193344448550473" id="-10765">
		<tag k="name" v="Kobbvågen" />
		<tag k="natural" v="bay" />
		<tag k="ssr:stedsnr" v="173035" />
	</node>
	<node lat="63.368386110310105" lon="8.206891676570047" id="-10767">
		<tag k="fixme" v="consider seamark:type=rock or natural=shoal" />
		<tag k="name" v="Aukskjera" />
		<tag k="place" v="islet" />
		<tag k="ssr:stedsnr" v="173135" />
	</node>
	<node lat="63.325716666587496" lon="8.030077780494043" id="-10769">
		<tag k="name" v="Sandvassholman" />
		<tag k="place" v="islet" />
		<tag k="ssr:stedsnr" v="173447" />
	</node>
	<node lat="63.318233329389464" lon="8.079333333778521" id="-10770">
		<tag k="name" v="Rognholmen" />
		<tag k="place" v="islet" />
		<tag k="ssr:stedsnr" v="173626" />
	</node>
	<node lat="63.318158329762376" lon="8.062294445517267" id="-10771">
		<tag k="name" v="Heggøya" />
		<tag k="place" v="island" />
		<tag k="ssr:stedsnr" v="173638" />
	</node>
	<node lat="63.23513610732676" lon="7.9182555607347105" id="-10778">
		<tag k="name" v="Elvikflua" />
		<tag k="natural" v="shoal" />
		<tag k="place" v="locality" />
		<tag k="ssr:stedsnr" v="194339" />
	</node>
	<node lat="63.459113888154974" lon="7.950308333850495" id="-10781">
		<tag k="name" v="Valøya" />
		<tag k="place" v="islet" />
		<tag k="ssr:stedsnr" v="194454" />
	</node>
	<node lat="63.456566665996704" lon="7.959208341255306" id="-10782">
		<tag k="name" v="Postøya" />
		<tag k="place" v="islet" />
		<tag k="ssr:stedsnr" v="194469" />
	</node>
	<node lat="63.47443055131824" lon="7.987138888554581" id="-10783">
		<tag k="name" v="Kråkøya" />
		<tag k="place" v="islet" />
		<tag k="ssr:stedsnr" v="195571" />
	</node>
	<node lat="63.49566666513204" lon="8.073416662964041" id="-10787">
		<tag k="fixme" v="consider seamark:type=rock or natural=shoal" />
		<tag k="name" v="Klebåen" />
		<tag k="place" v="islet" />
		<tag k="ssr:stedsnr" v="194532" />
	</node>
	<node lat="63.35170000133233" lon="7.706641658222608" id="-10789">
		<tag k="fixme" v="consider seamark:type=rock or natural=shoal" />
		<tag k="name" v="Balsingskjera" />
		<tag k="place" v="islet" />
		<tag k="ssr:stedsnr" v="194548" />
	</node>
	<node lat="63.31803888491364" lon="7.701725002405337" id="-10790">
		<tag k="name" v="Valøyoddleia" />
		<tag k="natural" v="strait" />
		<tag k="ssr:stedsnr" v="194555" />
	</node>
	<node lat="63.44353055563106" lon="7.960061117915957" id="-10798">
		<tag k="name" v="Brennskaget" />
		<tag k="natural" v="cape" />
		<tag k="ssr:stedsnr" v="194716" />
	</node>
	<node lat="63.43883888727819" lon="7.893238890651222" id="-10799">
		<tag k="fixme" v="consider seamark:type=rock or natural=shoal" />
		<tag k="name" v="Storaukan" />
		<tag k="place" v="islet" />
		<tag k="ssr:stedsnr" v="194719" />
	</node>
	<node lat="63.45299721810042" lon="7.953380556180618" id="-10800">
		<tag k="name" v="Straumøya" />
		<tag k="place" v="islet" />
		<tag k="ssr:stedsnr" v="194724" />
	</node>
	<node lat="63.26455277706592" lon="7.761019434690791" id="-10806">
		<tag k="fixme" v="consider seamark:type=rock or natural=shoal" />
		<tag k="name" v="Pina" />
		<tag k="place" v="islet" />
		<tag k="ssr:stedsnr" v="194859" />
	</node>
	<node lat="63.29016944171377" lon="8.021727769813353" id="-10807">
		<tag k="name" v="Ellevsøya" />
		<tag k="place" v="island" />
		<tag k="ssr:stedsnr" v="194907" />
	</node>
	<node lat="63.30579999628105" lon="8.095502778455295" id="-10811">
		<tag k="name" v="Hestøysundet" />
		<tag k="natural" v="strait" />
		<tag k="ssr:stedsnr" v="194927" />
	</node>
	<node lat="63.536111113540045" lon="7.787500008083671" id="-10819">
		<tag k="name" v="Flaksbåen" />
		<tag k="natural" v="shoal" />
		<tag k="place" v="locality" />
		<tag k="ssr:stedsnr" v="195181" />
	</node>
	<node lat="63.52624166891234" lon="7.949049996964084" id="-10820">
		<tag k="alt_name" v="Gjeglaskjera" />
		<tag k="fixme" v="consider seamark:type=rock or natural=shoal" />
		<tag k="name" v="Gjeglaskjæra" />
		<tag k="place" v="islet" />
		<tag k="ssr:stedsnr" v="195189" />
	</node>
	<node lat="63.53337500204815" lon="7.96978332489499" id="-10821">
		<tag k="alt_name" v="Langbåknollane" />
		<tag k="fixme" v="consider seamark:type=rock or natural=shoal" />
		<tag k="name" v="Langbåknollan" />
		<tag k="place" v="islet" />
		<tag k="ssr:stedsnr" v="195191" />
	</node>
	<node lat="63.5130888860731" lon="7.94241943650157" id="-10822">
		<tag k="alt_name" v="Leiskjeret" />
		<tag k="fixme" v="consider seamark:type=rock or natural=shoal" />
		<tag k="name" v="Leiskjæret" />
		<tag k="place" v="islet" />
		<tag k="ssr:stedsnr" v="195204" />
	</node>
	<node lat="63.3830833291106" lon="7.78544445177336" id="-10824">
		<tag k="name" v="Storbåtøya" />
		<tag k="place" v="islet" />
		<tag k="ssr:stedsnr" v="195645" />
	</node>
	<node lat="63.435319440804825" lon="7.885116667042737" id="-10826">
		<tag k="name" v="Storneset" />
		<tag k="natural" v="cape" />
		<tag k="ssr:stedsnr" v="195726" />
	</node>
	<node lat="63.504452774320036" lon="8.02047221256744" id="-10829">
		<tag k="alt_name" v="Tuskjeret" />
		<tag k="fixme" v="consider seamark:type=rock or natural=shoal" />
		<tag k="name" v="Tuskjæret" />
		<tag k="place" v="islet" />
		<tag k="ssr:stedsnr" v="195877" />
	</node>
	<node lat="63.527519442017436" lon="8.073088898364785" id="-10835">
		<tag k="name" v="Onglan" />
		<tag k="natural" v="shoal" />
		<tag k="place" v="locality" />
		<tag k="ssr:stedsnr" v="209419" />
	</node>
	<node lat="63.35094999995909" lon="7.814980557520557" id="-10837">
		<tag k="name" v="Ellingsøyflua" />
		<tag k="natural" v="shoal" />
		<tag k="old_name" v="Elungsøyflua" />
		<tag k="place" v="locality" />
		<tag k="ssr:stedsnr" v="218064" />
	</node>
	<node lat="63.23705555592765" lon="7.788633332575767" id="-10838">
		<tag k="name" v="Gjæslingan" />
		<tag k="place" v="islet" />
		<tag k="ssr:stedsnr" v="218255" />
	</node>
	<node lat="63.26000833345053" lon="7.8696333404561685" id="-10839">
		<tag k="name" v="Stabburstaren" />
		<tag k="natural" v="shoal" />
		<tag k="place" v="locality" />
		<tag k="ssr:stedsnr" v="218258" />
	</node>
	<node lat="63.37641389137979" lon="7.796627770862505" id="-10840">
		<tag k="name" v="Grøftsundet" />
		<tag k="natural" v="strait" />
		<tag k="ssr:stedsnr" v="219614" />
	</node>
	<node lat="63.50983610679509" lon="7.976261106794864" id="-10841">
		<tag k="name" v="Søre Vattholmen" />
		<tag k="place" v="islet" />
		<tag k="ssr:stedsnr" v="219696" />
	</node>
	<node lat="63.45574999943932" lon="7.724116672304873" id="-10842">
		<tag k="name" v="Tarjolen" />
		<tag k="natural" v="shoal" />
		<tag k="place" v="locality" />
		<tag k="ssr:stedsnr" v="218940" />
	</node>
	<node lat="63.48235555941437" lon="8.171055552180292" id="-10843">
		<tag k="name" v="Søre Ytstflua" />
		<tag k="natural" v="shoal" />
		<tag k="old_name" v="Søre Ystflua" />
		<tag k="place" v="locality" />
		<tag k="ssr:stedsnr" v="218771" />
	</node>
	<node lat="63.46108055888083" lon="8.080836109495179" id="-10844">
		<tag k="name" v="Langnesvågen" />
		<tag k="natural" v="bay" />
		<tag k="ssr:stedsnr" v="218849" />
	</node>
	<node lat="63.43777777580815" lon="8.182247218344365" id="-10845">
		<tag k="fixme" v="consider seamark:type=rock or natural=shoal" />
		<tag k="name" v="Litlskjæret" />
		<tag k="place" v="islet" />
		<tag k="ssr:stedsnr" v="219666" />
	</node>
	<node lat="63.426266670019025" lon="7.8400833306918845" id="-10846">
		<tag k="name" v="Stokkholmen" />
		<tag k="place" v="islet" />
		<tag k="ssr:stedsnr" v="219897" />
	</node>
	<node lat="63.414102778597275" lon="8.232749990450985" id="-10851">
		<tag k="name" v="Roksvågberga" />
		<tag k="natural" v="shoal" />
		<tag k="place" v="locality" />
		<tag k="ssr:stedsnr" v="278446" />
	</node>
	<node lat="63.3438388905383" lon="7.929638890279617" id="-10852">
		<tag k="fixme" v="consider seamark:type=rock or natural=shoal" />
		<tag k="name" v="Jøkjerka" />
		<tag k="place" v="islet" />
		<tag k="ssr:stedsnr" v="279531" />
	</node>
	<node lat="63.44913888790461" lon="7.813249990659336" id="-10853">
		<tag k="name" v="Frisholmen" />
		<tag k="place" v="islet" />
		<tag k="ssr:stedsnr" v="279951" />
	</node>
	<node lat="63.38188551161947" lon="7.69388890606885" id="-10854">
		<tag k="name" v="Rusbåleia" />
		<tag k="natural" v="strait" />
		<tag k="ssr:stedsnr" v="280052" />
	</node>
	<node lat="63.373691666649115" lon="7.800763886293716" id="-10855">
		<tag k="name" v="Leira" />
		<tag k="natural" v="bay" />
		<tag k="ssr:stedsnr" v="280057" />
	</node>
	<node lat="63.49502778110326" lon="7.960319444509692" id="-10856">
		<tag k="fixme" v="consider seamark:type=rock or natural=shoal" />
		<tag k="name" v="Steinskjæret" />
		<tag k="place" v="islet" />
		<tag k="ssr:stedsnr" v="280715" />
	</node>
	<node lat="63.52285277480435" lon="7.998391667499644" id="-10857">
		<tag k="fixme" v="consider seamark:type=rock or natural=shoal" />
		<tag k="name" v="Trollhauet" />
		<tag k="place" v="islet" />
		<tag k="ssr:stedsnr" v="280666" />
	</node>
	<node lat="63.49856111273505" lon="7.951133332358486" id="-10858">
		<tag k="fixme" v="consider seamark:type=rock or natural=shoal" />
		<tag k="name" v="Seiskjæret" />
		<tag k="place" v="islet" />
		<tag k="ssr:stedsnr" v="280723" />
	</node>
	<node lat="63.449508329595155" lon="7.797444441998306" id="-10865">
		<tag k="name" v="Storvassøyan" />
		<tag k="place" v="islet" />
		<tag k="ssr:stedsnr" v="293796" />
	</node>
	<node lat="63.40661388699294" lon="8.185494452389163" id="-10869">
		<tag k="name" v="Vernamannstein" />
		<tag k="place" v="islet" />
		<tag k="ssr:stedsnr" v="294086" />
	</node>
	<node lat="63.46416666949701" lon="8.052063886194025" id="-10880">
		<tag k="name" v="Bjøringsøya" />
		<tag k="place" v="islet" />
		<tag k="ssr:stedsnr" v="315516" />
	</node>
	<node lat="63.40506666323468" lon="7.720761115967183" id="-10882">
		<tag k="fixme" v="consider seamark:type=rock or natural=shoal" />
		<tag k="name" v="Svartoksen" />
		<tag k="place" v="islet" />
		<tag k="ssr:stedsnr" v="315678" />
	</node>
	<node lat="63.413033335370336" lon="7.78924444085065" id="-10887">
		<tag k="name" v="Svanøya" />
		<tag k="place" v="islet" />
		<tag k="ssr:stedsnr" v="315696" />
	</node>
	<node lat="63.26613888601389" lon="7.87421389570735" id="-10888">
		<tag k="name" v="Rotværdraget" />
		<tag k="place" v="islet" />
		<tag k="ssr:stedsnr" v="315883" />
	</node>
	<node lat="63.311658335003074" lon="8.181391661094047" id="-10891">
		<tag k="name" v="Grønskaget" />
		<tag k="natural" v="cape" />
		<tag k="ssr:stedsnr" v="315930" />
	</node>
	<node lat="63.294116667367845" lon="7.724066673928476" id="-10893">
		<tag k="fixme" v="consider seamark:type=rock or natural=shoal" />
		<tag k="name" v="Kvalen" />
		<tag k="place" v="islet" />
		<tag k="ssr:stedsnr" v="315933" />
	</node>
	<node lat="63.3632916646398" lon="7.875033333155498" id="-10897">
		<tag k="name" v="Klakkavågen" />
		<tag k="natural" v="bay" />
		<tag k="ssr:stedsnr" v="316895" />
	</node>
	<node lat="63.50313611565596" lon="8.084705561941549" id="-10898">
		<tag k="alt_name" v="Gjesingbåan" />
		<tag k="name" v="Gjesingbåane" />
		<tag k="natural" v="shoal" />
		<tag k="place" v="locality" />
		<tag k="ssr:stedsnr" v="316911" />
	</node>
	<node lat="63.50413055841368" lon="7.979416664132141" id="-10901">
		<tag k="alt_name" v="Ranværstuva" />
		<tag k="name" v="Rannværstuva" />
		<tag k="place" v="islet" />
		<tag k="ssr:stedsnr" v="316916" />
	</node>
	<node lat="63.524891670326845" lon="7.963113894966993" id="-10902">
		<tag k="alt_name" v="Nordre Høgholman" />
		<tag k="name" v="Høyholman" />
		<tag k="place" v="islet" />
		<tag k="ssr:stedsnr" v="316189" />
	</node>
	<node lat="63.473066667387606" lon="7.844750006298267" id="-10908">
		<tag k="name" v="Timeglaset" />
		<tag k="place" v="islet" />
		<tag k="ssr:stedsnr" v="316617" />
	</node>
	<node lat="63.474377778580575" lon="7.9020416712357795" id="-10909">
		<tag k="alt_name" v="Trittilan" />
		<tag k="fixme" v="consider seamark:type=rock or natural=shoal" />
		<tag k="name" v="Trittilen" />
		<tag k="place" v="islet" />
		<tag k="ssr:stedsnr" v="316620" />
	</node>
	<node lat="63.49600278049258" lon="7.9814749926165796" id="-10911">
		<tag k="name" v="Ørnøya" />
		<tag k="place" v="islet" />
		<tag k="ssr:stedsnr" v="316624" />
	</node>
	<node lat="63.35914999934932" lon="7.709386118234652" id="-10912">
		<tag k="fixme" v="consider seamark:type=rock or natural=shoal" />
		<tag k="name" v="Djupnakken" />
		<tag k="place" v="islet" />
		<tag k="ssr:stedsnr" v="316632" />
	</node>
	<node lat="63.355758333065" lon="7.7026611192738175" id="-10913">
		<tag k="alt_name" v="Silsingskjæret" />
		<tag k="name" v="Silsingodden" />
		<tag k="place" v="islet" />
		<tag k="ssr:stedsnr" v="316634" />
	</node>
	<node lat="63.45466110823408" lon="7.85546110808887" id="-10916">
		<tag k="fixme" v="consider seamark:type=rock or natural=shoal" />
		<tag k="name" v="Leikua" />
		<tag k="place" v="islet" />
		<tag k="ssr:stedsnr" v="316578" />
	</node>
	<node lat="63.42607500316587" lon="7.708022231560178" id="-10917">
		<tag k="fixme" v="consider seamark:type=rock or natural=shoal" />
		<tag k="name" v="Oddebelgen" />
		<tag k="place" v="islet" />
		<tag k="ssr:stedsnr" v="316663" />
	</node>
	<node lat="63.41576944877503" lon="7.670063889114758" id="-10918">
		<tag k="name" v="Åløyflua" />
		<tag k="natural" v="shoal" />
		<tag k="place" v="locality" />
		<tag k="ssr:stedsnr" v="316665" />
	</node>
	<node lat="63.4055305576973" lon="7.698674995221754" id="-10919">
		<tag k="name" v="Flåtaren" />
		<tag k="natural" v="shoal" />
		<tag k="place" v="locality" />
		<tag k="ssr:stedsnr" v="316666" />
	</node>
	<node lat="63.37722500253793" lon="7.698074994644104" id="-10920">
		<tag k="name" v="Steinstaren" />
		<tag k="natural" v="shoal" />
		<tag k="place" v="locality" />
		<tag k="ssr:stedsnr" v="316671" />
	</node>
	<node lat="63.284208332515156" lon="7.868841673925062" id="-10932">
		<tag k="name" v="Nordøya" />
		<tag k="place" v="islet" />
		<tag k="ssr:stedsnr" v="316959" />
	</node>
	<node lat="63.27377777844471" lon="7.761919448661169" id="-10933">
		<tag k="name" v="Tørrisøya" />
		<tag k="place" v="islet" />
		<tag k="ssr:stedsnr" v="316931" />
	</node>
	<node lat="63.351769448189884" lon="7.706744444935774" id="-10939">
		<tag k="fixme" v="consider seamark:type=rock or natural=shoal" />
		<tag k="name" v="Manuelskjæret" />
		<tag k="place" v="islet" />
		<tag k="ssr:stedsnr" v="339076" />
	</node>
	<node lat="63.36380278132178" lon="7.8533388837397675" id="-10940">
		<tag k="name" v="Klakkøya" />
		<tag k="place" v="islet" />
		<tag k="ssr:stedsnr" v="339087" />
	</node>
	<node lat="63.27309999895879" lon="7.782119441200414" id="-10941">
		<tag k="name" v="Ivarflua" />
		<tag k="place" v="locality" />
		<tag k="seamark:type" v="rock" />
		<tag k="ssr:stedsnr" v="339280" />
	</node>
	<node lat="63.38057777693224" lon="8.24932777526044" id="-10942">
		<tag k="name" v="Ånskjærflua" />
		<tag k="natural" v="shoal" />
		<tag k="old_name" v="Ånskjerflua" />
		<tag k="place" v="locality" />
		<tag k="ssr:stedsnr" v="339535" />
	</node>
	<node lat="63.449627781049536" lon="7.716888886137874" id="-10943">
		<tag k="name" v="Balskjerveita" />
		<tag k="natural" v="strait" />
		<tag k="ssr:stedsnr" v="339935" />
	</node>
	<node lat="63.45077500314788" lon="7.8122194408644425" id="-10944">
		<tag k="name" v="Mokkeløya" />
		<tag k="place" v="islet" />
		<tag k="ssr:stedsnr" v="339936" />
	</node>
	<node lat="63.42219722043494" lon="7.659211113653625" id="-10945">
		<tag k="name" v="Målsgrunnen" />
		<tag k="natural" v="shoal" />
		<tag k="place" v="locality" />
		<tag k="ssr:stedsnr" v="340003" />
	</node>
	<node lat="63.50897222231005" lon="7.99254721586751" id="-10946">
		<tag k="fixme" v="consider seamark:type=rock or natural=shoal" />
		<tag k="name" v="Ytre Leiskjæret" />
		<tag k="place" v="islet" />
		<tag k="ssr:stedsnr" v="340663" />
	</node>
	<node lat="63.4646611128857" lon="8.114969442618106" id="-10947">
		<tag k="name" v="Steinsøysundet" />
		<tag k="natural" v="strait" />
		<tag k="ssr:stedsnr" v="340822" />
	</node>
	<node lat="63.42948888818761" lon="7.866086117683282" id="-10948">
		<tag k="name" v="Nørvågen" />
		<tag k="natural" v="bay" />
		<tag k="ssr:stedsnr" v="340885" />
	</node>
	<node lat="63.4851055557942" lon="7.849527775114944" id="-10949">
		<tag k="name" v="Nubben" />
		<tag k="natural" v="shoal" />
		<tag k="place" v="locality" />
		<tag k="ssr:stedsnr" v="340970" />
	</node>
	<node lat="63.49046111004336" lon="7.714075001755981" id="-10950">
		<tag k="name" v="Indre Flua" />
		<tag k="natural" v="shoal" />
		<tag k="place" v="locality" />
		<tag k="ssr:stedsnr" v="340941" />
	</node>
	<node lat="63.40926388964154" lon="8.16510278054513" id="-10956">
		<tag k="name" v="Breivika" />
		<tag k="natural" v="bay" />
		<tag k="ssr:stedsnr" v="354027" />
	</node>
	<node lat="63.32325555169737" lon="8.029330547857246" id="-10959">
		<tag k="name" v="Kalvøya" />
		<tag k="place" v="island" />
		<tag k="ssr:stedsnr" v="355451" />
	</node>
	<node lat="63.32376666541832" lon="8.025352783758187" id="-10960">
		<tag k="name" v="Kalvøyaukan" />
		<tag k="place" v="island" />
		<tag k="ssr:stedsnr" v="355453" />
	</node>
	<node lat="63.28515277847686" lon="8.133338889894668" id="-10961">
		<tag k="name" v="Blåhytten" />
		<tag k="natural" v="cape" />
		<tag k="ssr:stedsnr" v="354741" />
	</node>
	<node lat="63.46978333244779" lon="8.006633323778813" id="-10969">
		<tag k="fixme" v="consider seamark:type=rock or natural=shoal" />
		<tag k="name" v="Hattmåsøyskjera" />
		<tag k="place" v="islet" />
		<tag k="ssr:stedsnr" v="355135" />
	</node>
	<node lat="63.230866664682964" lon="7.9034666598121905" id="-10971">
		<tag k="name" v="Grunnflua" />
		<tag k="natural" v="shoal" />
		<tag k="place" v="locality" />
		<tag k="ssr:stedsnr" v="376411" />
	</node>
	<node lat="63.47189444682763" lon="7.8233027833246975" id="-10974">
		<tag k="alt_name" v="Nordre Trittilen" />
		<tag k="name" v="Trittilen" />
		<tag k="place" v="islet" />
		<tag k="ssr:stedsnr" v="376565" />
	</node>
	<node lat="63.436116669068184" lon="7.700013898081389" id="-10976">
		<tag k="alt_name" v="Skatbåen, in" />
		<tag k="name" v="Indre Skatbåen" />
		<tag k="natural" v="shoal" />
		<tag k="place" v="locality" />
		<tag k="ssr:stedsnr" v="376621" />
	</node>
	<node lat="63.37640277454651" lon="7.7904277842510306" id="-10977">
		<tag k="name" v="Buøya" />
		<tag k="place" v="islet" />
		<tag k="ssr:stedsnr" v="376628" />
	</node>
	<node lat="63.326274999708" lon="7.7110611168327425" id="-10982">
		<tag k="name" v="Langflua" />
		<tag k="natural" v="shoal" />
		<tag k="place" v="locality" />
		<tag k="ssr:stedsnr" v="376607" />
	</node>
	<node lat="63.31399166448595" lon="7.678174993729156" id="-10983">
		<tag k="name" v="Valøyodden" />
		<tag k="place" v="islet" />
		<tag k="ssr:stedsnr" v="376611" />
	</node>
	<node lat="63.403213888720636" lon="8.192277775732117" id="-10984">
		<tag k="fixme" v="consider seamark:type=rock or natural=shoal" />
		<tag k="name" v="Langtaren" />
		<tag k="place" v="islet" />
		<tag k="ssr:stedsnr" v="376672" />
	</node>
	<node lat="63.38545329417838" lon="8.0076044334457" id="-10988">
		<tag k="name" v="Smøla" />
		<tag k="place" v="island" />
		<tag k="ssr:stedsnr" v="376644" />
	</node>
	<node lat="63.39512306902272" lon="8.193911874404558" id="-10990">
		<tag k="name" v="Rognholmen" />
		<tag k="place" v="islet" />
		<tag k="ssr:stedsnr" v="376653" />
	</node>
	<node lat="63.39575555326266" lon="8.187483341545315" id="-10991">
		<tag k="name" v="Vollskaget" />
		<tag k="natural" v="cape" />
		<tag k="ssr:stedsnr" v="376654" />
	</node>
	<node lat="63.396608335477566" lon="7.757969453074964" id="-10994">
		<tag k="name" v="Grøndraget" />
		<tag k="place" v="islet" />
		<tag k="ssr:stedsnr" v="376665" />
	</node>
	<node lat="63.43161944752852" lon="7.8975055484189225" id="-10997">
		<tag k="name" v="Ramnøya" />
		<tag k="place" v="islet" />
		<tag k="ssr:stedsnr" v="376748" />
	</node>
	<node lat="63.3430138899636" lon="8.199063887290441" id="-10998">
		<tag k="name" v="Orta" />
		<tag k="place" v="island" />
		<tag k="ssr:stedsnr" v="376824" />
	</node>
	<node lat="63.33614444226026" lon="8.098344441249546" id="-11001">
		<tag k="name" v="Storstraumen" />
		<tag k="natural" v="bay" />
		<tag k="ssr:stedsnr" v="376791" />
	</node>
	<node lat="63.29046944439622" lon="8.004025001394936" id="-11008">
		<tag k="name" v="Hoøya" />
		<tag k="place" v="island" />
		<tag k="ssr:stedsnr" v="376925" />
	</node>
	<node lat="63.299558335481336" lon="8.162466662902444" id="-11009">
		<tag k="name" v="Edøya" />
		<tag k="place" v="island" />
		<tag k="ssr:stedsnr" v="376941" />
	</node>
	<node lat="63.30226111408653" lon="7.946222219748363" id="-11011">
		<tag k="name" v="Tjørnøya" />
		<tag k="place" v="islet" />
		<tag k="ssr:stedsnr" v="376960" />
	</node>
	<node lat="63.51334444571264" lon="7.987691660286868" id="-11016">
		<tag k="alt_name" v="Bjørnbuskjeret" />
		<tag k="fixme" v="consider seamark:type=rock or natural=shoal" />
		<tag k="name" v="Bjørnbåskjæret" />
		<tag k="place" v="islet" />
		<tag k="ssr:stedsnr" v="377162" />
	</node>
	<node lat="63.32878889276447" lon="8.058616664706989" id="-11017">
		<tag k="name" v="Rangnes" />
		<tag k="natural" v="cape" />
		<tag k="ssr:stedsnr" v="377223" />
	</node>
	<node lat="63.358886112026184" lon="8.193802784171865" id="-11023">
		<tag k="name" v="Tromma" />
		<tag k="natural" v="cape" />
		<tag k="ssr:stedsnr" v="377799" />
	</node>
	<node lat="63.3125916688607" lon="7.83541944653172" id="-11030">
		<tag k="fixme" v="consider seamark:type=rock or natural=shoal" />
		<tag k="name" v="Purkholmen" />
		<tag k="place" v="islet" />
		<tag k="ssr:stedsnr" v="400244" />
	</node>
	<node lat="63.28836666634698" lon="7.842258341230463" id="-11031">
		<tag k="name" v="Storholman" />
		<tag k="place" v="islet" />
		<tag k="ssr:stedsnr" v="400247" />
	</node>
	<node lat="63.37145833215178" lon="7.806966660697591" id="-11032">
		<tag k="name" v="Leirsundet" />
		<tag k="natural" v="strait" />
		<tag k="ssr:stedsnr" v="400596" />
	</node>
	<node lat="63.345311111544326" lon="8.19921945402868" id="-11033">
		<tag k="name" v="Ortflua" />
		<tag k="natural" v="shoal" />
		<tag k="place" v="locality" />
		<tag k="ssr:stedsnr" v="400556" />
	</node>
	<node lat="63.530872220098445" lon="7.934038888918687" id="-11034">
		<tag k="name" v="Ørklakken" />
		<tag k="natural" v="shoal" />
		<tag k="place" v="locality" />
		<tag k="ssr:stedsnr" v="400989" />
	</node>
	<node lat="63.45040277352385" lon="7.755841660234082" id="-11035">
		<tag k="name" v="Langtaran" />
		<tag k="natural" v="shoal" />
		<tag k="place" v="locality" />
		<tag k="ssr:stedsnr" v="400945" />
	</node>
	<node lat="63.38323333619014" lon="7.735138896543503" id="-11036">
		<tag k="fixme" v="consider seamark:type=rock or natural=shoal" />
		<tag k="name" v="Leiaskjæret" />
		<tag k="place" v="islet" />
		<tag k="ssr:stedsnr" v="401065" />
	</node>
	<node lat="63.42699722238446" lon="8.210863889915604" id="-11037">
		<tag k="name" v="Stabbflua" />
		<tag k="natural" v="shoal" />
		<tag k="place" v="locality" />
		<tag k="ssr:stedsnr" v="401390" />
	</node>
	<node lat="63.350349998459684" lon="7.901313881690174" id="-11040">
		<tag k="name" v="Sundvolen" />
		<tag k="natural" v="strait" />
		<tag k="ssr:stedsnr" v="414668" />
	</node>
	<node lat="63.35703055456101" lon="7.924416664414549" id="-11041">
		<tag k="name" v="Smalsundet" />
		<tag k="natural" v="strait" />
		<tag k="ssr:stedsnr" v="414673" />
	</node>
	<node lat="63.482447222723074" lon="7.91447777647738" id="-11043">
		<tag k="fixme" v="consider seamark:type=rock or natural=shoal" />
		<tag k="name" v="Gåsskjersteinen" />
		<tag k="place" v="islet" />
		<tag k="ssr:stedsnr" v="414773" />
	</node>
	<node lat="63.386769446214366" lon="8.18643610973342" id="-11047">
		<tag k="name" v="Bremneset" />
		<tag k="natural" v="cape" />
		<tag k="ssr:stedsnr" v="415432" />
	</node>
	<node lat="63.4204416691115" lon="7.82421388943012" id="-11052">
		<tag k="name" v="Utstrand" />
		<tag k="natural" v="beach" />
		<tag k="ssr:stedsnr" v="415856" />
	</node>
	<node lat="63.51981666756905" lon="7.949844439934351" id="-11055">
		<tag k="fixme" v="consider seamark:type=rock or natural=shoal" />
		<tag k="name" v="Bakkaklakken" />
		<tag k="place" v="islet" />
		<tag k="ssr:stedsnr" v="415947" />
	</node>
	<node lat="63.32054999957303" lon="8.125361108705876" id="-11057">
		<tag k="name" v="Smørholmen" />
		<tag k="place" v="island" />
		<tag k="ssr:stedsnr" v="416631" />
	</node>
	<node lat="63.49407500208297" lon="7.707219447114508" id="-11059">
		<tag k="alt_name" v="Brattværstaran" />
		<tag k="name" v="Brattværstarene" />
		<tag k="natural" v="shoal" />
		<tag k="place" v="locality" />
		<tag k="ssr:stedsnr" v="437615" />
	</node>
	<node lat="63.38116666872948" lon="7.7039388933443345" id="-11060">
		<tag k="alt_name" v="Hornbåen, yt" />
		<tag k="name" v="Ytre Hornbåen" />
		<tag k="natural" v="shoal" />
		<tag k="place" v="locality" />
		<tag k="ssr:stedsnr" v="437623" />
	</node>
	<node lat="63.3784388851136" lon="7.779638879047357" id="-11062">
		<tag k="name" v="Steinbergøya" />
		<tag k="place" v="islet" />
		<tag k="ssr:stedsnr" v="437628" />
	</node>
	<node lat="63.406911109093066" lon="7.7660944480353304" id="-11065">
		<tag k="name" v="Miløya" />
		<tag k="place" v="islet" />
		<tag k="ssr:stedsnr" v="437671" />
	</node>
	<node lat="63.480074998458385" lon="8.16184722003238" id="-11067">
		<tag k="name" v="Skjerjebåen" />
		<tag k="natural" v="shoal" />
		<tag k="place" v="locality" />
		<tag k="ssr:stedsnr" v="437569" />
	</node>
	<node lat="63.4776944479446" lon="8.178722221533972" id="-11068">
		<tag k="fixme" v="consider seamark:type=rock or natural=shoal" />
		<tag k="name" v="Mefjordbåen" />
		<tag k="place" v="islet" />
		<tag k="ssr:stedsnr" v="437571" />
	</node>
	<node lat="63.47494722424149" lon="7.973974994286594" id="-11070">
		<tag k="name" v="Svansøya" />
		<tag k="place" v="islet" />
		<tag k="ssr:stedsnr" v="437585" />
	</node>
	<node lat="63.45328889091882" lon="7.982649993709263" id="-11073">
		<tag k="name" v="Aunvågen" />
		<tag k="natural" v="bay" />
		<tag k="ssr:stedsnr" v="437742" />
	</node>
	<node lat="63.534872226515915" lon="7.943824993568113" id="-11085">
		<tag k="name" v="Skansflua" />
		<tag k="natural" v="shoal" />
		<tag k="place" v="locality" />
		<tag k="ssr:stedsnr" v="438151" />
	</node>
	<node lat="63.5240361147731" lon="7.974141675698329" id="-11086">
		<tag k="name" v="Tenndraget" />
		<tag k="place" v="islet" />
		<tag k="ssr:stedsnr" v="438161" />
	</node>
	<node lat="63.51808888650296" lon="7.943719446657698" id="-11087">
		<tag k="alt_name" v="Revaskjeret" />
		<tag k="fixme" v="multiple name tags, choose one and add the other to alt_name; consider seamark:type=rock or natural=shoal" />
		<tag k="name" v="Indre Revaskjæret;Revaskjæret" />
		<tag k="place" v="islet" />
		<tag k="ssr:stedsnr" v="438171" />
	</node>
	<node lat="63.51251944555218" lon="7.847538892440245" id="-11088">
		<tag k="name" v="Kjølen" />
		<tag k="place" v="islet" />
		<tag k="ssr:stedsnr" v="438172" />
	</node>
	<node lat="63.3344166642229" lon="7.8637333357513794" id="-11090">
		<tag k="name" v="Jøa" />
		<tag k="place" v="island" />
		<tag k="ssr:stedsnr" v="438770" />
	</node>
	<node lat="63.33986110974888" lon="7.945366669958891" id="-11094">
		<tag k="name" v="Bøverøysundet" />
		<tag k="natural" v="strait" />
		<tag k="ssr:stedsnr" v="438785" />
	</node>
	<node lat="63.35763333277384" lon="8.196394435197636" id="-11095">
		<tag k="name" v="Trommestikka" />
		<tag k="place" v="islet" />
		<tag k="ssr:stedsnr" v="438839" />
	</node>
	<node lat="63.453797223780036" lon="7.744961121052557" id="-11102">
		<tag k="fixme" v="consider seamark:type=rock or natural=shoal" />
		<tag k="name" v="Litlbåen" />
		<tag k="place" v="islet" />
		<tag k="ssr:stedsnr" v="497485" />
	</node>
	<node lat="63.33339722117183" lon="7.702511107543088" id="-11105">
		<tag k="name" v="Sortna" />
		<tag k="place" v="islet" />
		<tag k="ssr:stedsnr" v="497573" />
	</node>
	<node lat="63.48868333006999" lon="7.698549995868618" id="-11106">
		<tag k="name" v="Hysklakken" />
		<tag k="natural" v="shoal" />
		<tag k="place" v="locality" />
		<tag k="ssr:stedsnr" v="497584" />
	</node>
	<node lat="63.446630554913085" lon="7.7065111021480135" id="-11107">
		<tag k="name" v="Breidflua" />
		<tag k="natural" v="shoal" />
		<tag k="place" v="locality" />
		<tag k="ssr:stedsnr" v="497589" />
	</node>
	<node lat="63.26938056004211" lon="7.7722500016805345" id="-11110">
		<tag k="name" v="Lyngværøya" />
		<tag k="place" v="islet" />
		<tag k="ssr:stedsnr" v="497877" />
	</node>
	<node lat="63.29366666603858" lon="7.902897225068682" id="-11114">
		<tag k="name" v="Torvholmdraget" />
		<tag k="place" v="islet" />
		<tag k="ssr:stedsnr" v="497966" />
	</node>
	<node lat="63.306824997316234" lon="8.090241676371456" id="-11119">
		<tag k="name" v="Hestøya" />
		<tag k="place" v="islet" />
		<tag k="ssr:stedsnr" v="497934" />
	</node>
	<node lat="63.308808329130684" lon="8.178919435396736" id="-11121">
		<tag k="name" v="Edøyvalen" />
		<tag k="natural" v="bay" />
		<tag k="ssr:stedsnr" v="497939" />
	</node>
	<node lat="63.450952776804805" lon="7.832927787068785" id="-11123">
		<tag k="name" v="Eindraget" />
		<tag k="place" v="islet" />
		<tag k="ssr:stedsnr" v="498570" />
	</node>
	<node lat="63.26008610977016" lon="7.6986111095430605" id="-11126">
		<tag k="name" v="Havtaren" />
		<tag k="natural" v="shoal" />
		<tag k="place" v="locality" />
		<tag k="ssr:stedsnr" v="498617" />
	</node>
	<node lat="63.37592500353111" lon="7.938627769525663" id="-11130">
		<tag k="name" v="Fuglvågen" />
		<tag k="natural" v="bay" />
		<tag k="ssr:stedsnr" v="498865" />
	</node>
	<node lat="63.2837666635929" lon="7.801608343172565" id="-11136">
		<tag k="name" v="Skarvberga" />
		<tag k="place" v="islet" />
		<tag k="ssr:stedsnr" v="498959" />
	</node>
	<node lat="63.32817499906703" lon="8.019480546516945" id="-11139">
		<tag k="alt_name" v="Skarnegardvågen" />
		<tag k="name" v="Skarpegardvågen" />
		<tag k="natural" v="bay" />
		<tag k="ssr:stedsnr" v="498810" />
	</node>
	<node lat="63.34304166491759" lon="7.905291659497457" id="-11141">
		<tag k="name" v="Lauvøya" />
		<tag k="place" v="island" />
		<tag k="ssr:stedsnr" v="498813" />
	</node>
	<node lat="63.54083889335739" lon="7.923788894717283" id="-11145">
		<tag k="name" v="Ufsgrunnen" />
		<tag k="natural" v="shoal" />
		<tag k="place" v="locality" />
		<tag k="ssr:stedsnr" v="512408" />
	</node>
	<node lat="63.28847222014423" lon="7.7637444500035455" id="-11147">
		<tag k="name" v="Knutsbåan" />
		<tag k="natural" v="shoal" />
		<tag k="place" v="locality" />
		<tag k="ssr:stedsnr" v="521235" />
	</node>
	<node lat="63.45781944709664" lon="8.024916669432878" id="-11148">
		<tag k="name" v="Nordbakkvågen" />
		<tag k="natural" v="bay" />
		<tag k="ssr:stedsnr" v="521793" />
	</node>
	<node lat="63.30421666502471" lon="8.008702774827885" id="-11149">
		<tag k="name" v="Purkholmen" />
		<tag k="place" v="islet" />
		<tag k="ssr:stedsnr" v="522189" />
	</node>
	<node lat="63.508105558882214" lon="7.954219452979363" id="-11151">
		<tag k="name" v="Russerfløan" />
		<tag k="natural" v="shoal" />
		<tag k="place" v="locality" />
		<tag k="ssr:stedsnr" v="522694" />
	</node>
	<node lat="63.42407500017052" lon="8.163225006002797" id="-11158">
		<tag k="name" v="Ossarholmen" />
		<tag k="place" v="islet" />
		<tag k="ssr:stedsnr" v="536028" />
	</node>
	<node lat="63.414786110640165" lon="8.16806112072283" id="-11159">
		<tag k="name" v="Liltlbreivika" />
		<tag k="natural" v="bay" />
		<tag k="ssr:stedsnr" v="536030" />
	</node>
	<node lat="63.32431944258169" lon="7.990341663943589" id="-11167">
		<tag k="name" v="Klåskjeret" />
		<tag k="place" v="islet" />
		<tag k="ssr:stedsnr" v="536538" />
	</node>
	<node lat="63.3407944416839" lon="8.154630557359914" id="-11170">
		<tag k="name" v="Steinneset" />
		<tag k="natural" v="cape" />
		<tag k="ssr:stedsnr" v="536682" />
	</node>
	<node lat="63.4151833296302" lon="7.806541674524842" id="-11171">
		<tag k="name" v="Vollvågen" />
		<tag k="natural" v="bay" />
		<tag k="ssr:stedsnr" v="536823" />
	</node>
	<node lat="63.4597611075475" lon="8.08502499735829" id="-11174">
		<tag k="name" v="Nesavågen" />
		<tag k="natural" v="bay" />
		<tag k="ssr:stedsnr" v="537034" />
	</node>
	<node lat="63.370094440668055" lon="8.217194441446752" id="-11176">
		<tag k="fixme" v="consider seamark:type=rock or natural=shoal" />
		<tag k="name" v="Åstaskjeret" />
		<tag k="place" v="islet" />
		<tag k="ssr:stedsnr" v="537139" />
	</node>
	<node lat="63.46698888575317" lon="8.011744438352338" id="-11179">
		<tag k="name" v="Skjerkneset" />
		<tag k="natural" v="cape" />
		<tag k="ssr:stedsnr" v="537113" />
	</node>
	<node lat="63.32490833053313" lon="8.071219453902865" id="-11180">
		<tag k="name" v="Bukkholmen" />
		<tag k="place" v="islet" />
		<tag k="ssr:stedsnr" v="537731" />
	</node>
	<node lat="63.32006666238204" lon="7.793091663681727" id="-11183">
		<tag k="name" v="Lamøya" />
		<tag k="place" v="islet" />
		<tag k="ssr:stedsnr" v="557970" />
	</node>
	<node lat="63.229116662952734" lon="7.915038890109995" id="-11184">
		<tag k="name" v="Grunnflua" />
		<tag k="natural" v="shoal" />
		<tag k="place" v="locality" />
		<tag k="ssr:stedsnr" v="558160" />
	</node>
	<node lat="63.44554444004653" lon="7.917961101727791" id="-11186">
		<tag k="alt_name" v="Fugløya" />
		<tag k="name" v="Fuglhausen" />
		<tag k="place" v="islet" />
		<tag k="ssr:stedsnr" v="558782" />
	</node>
	<node lat="63.45812777970214" lon="7.9061333326011685" id="-11193">
		<tag k="alt_name" v="Monsøyvaet;Mongsøysvaet" />
		<tag k="bay" v="fjord" />
		<tag k="name" v="Monsøysvaet" />
		<tag k="natural" v="bay" />
		<tag k="ssr:stedsnr" v="558549" />
	</node>
	<node lat="63.45909166603688" lon="7.8755055560997125" id="-11194">
		<tag k="name" v="Lyngøya" />
		<tag k="place" v="islet" />
		<tag k="ssr:stedsnr" v="558550" />
	</node>
	<node lat="63.46635277691696" lon="8.00371665959105" id="-11196">
		<tag k="name" v="Skjøttøya" />
		<tag k="place" v="islet" />
		<tag k="ssr:stedsnr" v="558561" />
	</node>
	<node lat="63.27272500291328" lon="7.671152777937767" id="-11197">
		<tag k="name" v="Kjefallet" />
		<tag k="natural" v="shoal" />
		<tag k="place" v="locality" />
		<tag k="ssr:stedsnr" v="558616" />
	</node>
	<node lat="63.328638885902386" lon="7.702444450500738" id="-11199">
		<tag k="name" v="Sortnleia" />
		<tag k="natural" v="strait" />
		<tag k="ssr:stedsnr" v="558629" />
	</node>
	<node lat="63.31013888699942" lon="7.698627778228916" id="-11200">
		<tag k="fixme" v="consider seamark:type=rock or natural=shoal" />
		<tag k="name" v="Landvindskjeret" />
		<tag k="place" v="islet" />
		<tag k="ssr:stedsnr" v="558632" />
	</node>
	<node lat="63.299288891747146" lon="7.702627773930829" id="-11201">
		<tag k="name" v="Angelskjera" />
		<tag k="natural" v="shoal" />
		<tag k="place" v="locality" />
		<tag k="ssr:stedsnr" v="558638" />
	</node>
	<node lat="63.38915506224253" lon="7.792271914183263" id="-11206">
		<tag k="name" v="Lyngøya" />
		<tag k="place" v="islet" />
		<tag k="ssr:stedsnr" v="558659" />
	</node>
	<node lat="63.30153610754786" lon="7.811008338209725" id="-11212">
		<tag k="name" v="Gardsøya" />
		<tag k="place" v="islet" />
		<tag k="ssr:stedsnr" v="558954" />
	</node>
	<node lat="63.309097225411556" lon="8.148825008868007" id="-11216">
		<tag k="name" v="Kulisvaet" />
		<tag k="natural" v="strait" />
		<tag k="ssr:stedsnr" v="558921" />
	</node>
	<node lat="63.32668333105402" lon="8.089516666811758" id="-11218">
		<tag k="name" v="Straumsvaet" />
		<tag k="natural" v="strait" />
		<tag k="ssr:stedsnr" v="558984" />
	</node>
	<node lat="63.521416669395244" lon="7.947216660958958" id="-11219">
		<tag k="alt_name" v="Tjeldskjeret" />
		<tag k="fixme" v="consider seamark:type=rock or natural=shoal" />
		<tag k="name" v="Tjeldskjæret" />
		<tag k="place" v="islet" />
		<tag k="ssr:stedsnr" v="559160" />
	</node>
	<node lat="63.509419448422406" lon="7.985055554745825" id="-11223">
		<tag k="alt_name" v="Leiskjera" />
		<tag k="fixme" v="consider seamark:type=rock or natural=shoal" />
		<tag k="name" v="Leiskjæra" />
		<tag k="place" v="islet" />
		<tag k="ssr:stedsnr" v="559874" />
	</node>
	<node lat="63.506844445744846" lon="7.9391333358668765" id="-11225">
		<tag k="name" v="Kråkbåan" />
		<tag k="place" v="locality" />
		<tag k="seamark:type" v="rock" />
		<tag k="ssr:stedsnr" v="573111" />
	</node>
	<node lat="63.50229722455331" lon="7.81675000401633" id="-11226">
		<tag k="name" v="Båan" />
		<tag k="natural" v="shoal" />
		<tag k="place" v="locality" />
		<tag k="ssr:stedsnr" v="573376" />
	</node>
	<node lat="63.28118610701628" lon="8.099147228349521" id="-11227">
		<tag k="name" v="Bjørnholmsundet" />
		<tag k="natural" v="strait" />
		<tag k="ssr:stedsnr" v="582126" />
	</node>
	<node lat="63.33240555114282" lon="7.9748999917973675" id="-11228">
		<tag k="name" v="Rangvågen" />
		<tag k="natural" v="bay" />
		<tag k="ssr:stedsnr" v="582167" />
	</node>
	<node lat="63.30145832941956" lon="7.729788889548909" id="-11229">
		<tag k="fixme" v="consider seamark:type=rock or natural=shoal" />
		<tag k="name" v="Tuskjæret" />
		<tag k="place" v="islet" />
		<tag k="ssr:stedsnr" v="582277" />
	</node>
	<node lat="63.30359166459578" lon="7.695774991907705" id="-11230">
		<tag k="name" v="Hilbåfluan" />
		<tag k="natural" v="shoal" />
		<tag k="place" v="locality" />
		<tag k="ssr:stedsnr" v="582279" />
	</node>
	<node lat="63.268816669121335" lon="7.75081387896174" id="-11231">
		<tag k="name" v="Flisvær" />
		<tag k="place" v="islet" />
		<tag k="ssr:stedsnr" v="582282" />
	</node>
	<node lat="63.428808335475374" lon="8.163363892848222" id="-11232">
		<tag k="name" v="Førsneset" />
		<tag k="natural" v="cape" />
		<tag k="ssr:stedsnr" v="582389" />
	</node>
	<node lat="63.50010277926124" lon="7.814230547128077" id="-11233">
		<tag k="name" v="Flua" />
		<tag k="natural" v="shoal" />
		<tag k="place" v="locality" />
		<tag k="ssr:stedsnr" v="582959" />
	</node>
	<node lat="63.556983336139425" lon="7.856191669072635" id="-11234">
		<tag k="name" v="Skagbåen" />
		<tag k="natural" v="shoal" />
		<tag k="place" v="locality" />
		<tag k="ssr:stedsnr" v="583913" />
	</node>
	<node lat="63.5312611096194" lon="7.798213893406256" id="-11235">
		<tag k="name" v="Langkniven" />
		<tag k="natural" v="shoal" />
		<tag k="place" v="locality" />
		<tag k="ssr:stedsnr" v="583914" />
	</node>
	<node lat="63.398961107401504" lon="7.792544454462138" id="-11239">
		<tag k="name" v="Inner Lauvholmen" />
		<tag k="place" v="islet" />
		<tag k="ssr:stedsnr" v="596398" />
	</node>
	<node lat="63.333622226513825" lon="8.186808327458024" id="-11243">
		<tag k="fixme" v="consider seamark:type=rock or natural=shoal" />
		<tag k="name" v="Steinvarden" />
		<tag k="place" v="islet" />
		<tag k="ssr:stedsnr" v="597698" />
	</node>
	<node lat="63.51535555952811" lon="7.9613250082910225" id="-11244">
		<tag k="fixme" v="consider seamark:type=rock or natural=shoal" />
		<tag k="name" v="Synner Klakkskjeret" />
		<tag k="place" v="islet" />
		<tag k="ssr:stedsnr" v="597950" />
	</node>
	<node lat="63.4751694458769" lon="7.938391657867791" id="-11246">
		<tag k="fixme" v="consider seamark:type=rock or natural=shoal" />
		<tag k="name" v="Abrahamskjera" />
		<tag k="place" v="islet" />
		<tag k="ssr:stedsnr" v="597941" />
	</node>
	<node lat="63.47590277787574" lon="7.981297221819047" id="-11247">
		<tag k="name" v="Høgholmen" />
		<tag k="place" v="islet" />
		<tag k="ssr:stedsnr" v="597944" />
	</node>
	<node lat="63.27079722120066" lon="7.809122213887162" id="-11255">
		<tag k="name" v="Kvaldraget" />
		<tag k="place" v="islet" />
		<tag k="ssr:stedsnr" v="618865" />
	</node>
	<node lat="63.269341663920265" lon="7.861852779838314" id="-11259">
		<tag k="name" v="Arabolten" />
		<tag k="place" v="islet" />
		<tag k="ssr:stedsnr" v="618870" />
	</node>
	<node lat="63.3056944403263" lon="7.9928083419720934" id="-11261">
		<tag k="name" v="Flaska" />
		<tag k="natural" v="cape" />
		<tag k="ssr:stedsnr" v="618943" />
	</node>
	<node lat="63.32208610740688" lon="8.2247749921384" id="-11262">
		<tag k="alt_name" v="Indre Kattholmen" />
		<tag k="name" v="Kattholmen" />
		<tag k="place" v="islet" />
		<tag k="ssr:stedsnr" v="619188" />
	</node>
	<node lat="63.527691669190396" lon="7.857986120278979" id="-11263">
		<tag k="alt_name" v="Nordomskjera" />
		<tag k="fixme" v="consider seamark:type=rock or natural=shoal" />
		<tag k="name" v="Nordholmskjæra" />
		<tag k="place" v="islet" />
		<tag k="ssr:stedsnr" v="619197" />
	</node>
	<node lat="63.273488887536935" lon="7.692705546348235" id="-11265">
		<tag k="name" v="Steinbåen" />
		<tag k="natural" v="shoal" />
		<tag k="place" v="locality" />
		<tag k="ssr:stedsnr" v="619601" />
	</node>
	<node lat="63.45659167048415" lon="7.908358339684776" id="-11267">
		<tag k="fixme" v="consider seamark:type=rock or natural=shoal" />
		<tag k="name" v="Bomma" />
		<tag k="place" v="islet" />
		<tag k="ssr:stedsnr" v="619549" />
	</node>
	<node lat="63.454822224987076" lon="7.814477780634886" id="-11268">
		<tag k="name" v="Steggeløya" />
		<tag k="place" v="islet" />
		<tag k="ssr:stedsnr" v="619553" />
	</node>
	<node lat="63.29513611187886" lon="7.697211104356118" id="-11270">
		<tag k="name" v="Revskjeret" />
		<tag k="natural" v="shoal" />
		<tag k="place" v="locality" />
		<tag k="ssr:stedsnr" v="619632" />
	</node>
	<node lat="63.42148888787174" lon="7.6828249982773915" id="-11271">
		<tag k="name" v="Staveitflua" />
		<tag k="natural" v="shoal" />
		<tag k="place" v="locality" />
		<tag k="ssr:stedsnr" v="619641" />
	</node>
	<node lat="63.397744441250246" lon="7.68072777336703" id="-11272">
		<tag k="name" v="Rebbåflua" />
		<tag k="natural" v="shoal" />
		<tag k="place" v="locality" />
		<tag k="ssr:stedsnr" v="619643" />
	</node>
	<node lat="63.39891388708483" lon="7.696572212992809" id="-11273">
		<tag k="alt_name" v="Hillbåan" />
		<tag k="name" v="Hillbåen" />
		<tag k="natural" v="shoal" />
		<tag k="place" v="locality" />
		<tag k="ssr:stedsnr" v="619645" />
	</node>
	<node lat="63.50303888956898" lon="8.017225003740107" id="-11281">
		<tag k="alt_name" v="Svartskjeret, store" />
		<tag k="fixme" v="consider seamark:type=rock or natural=shoal" />
		<tag k="name" v="Store Svartskjæret" />
		<tag k="place" v="islet" />
		<tag k="ssr:stedsnr" v="619900" />
	</node>
	<node lat="63.350249997165385" lon="7.902741660252083" id="-11287">
		<tag k="name" v="Litlstraumen" />
		<tag k="natural" v="strait" />
		<tag k="ssr:stedsnr" v="619861" />
	</node>
	<node lat="63.52217499701204" lon="8.07929443733914" id="-11293">
		<tag k="name" v="Storgrunnen" />
		<tag k="natural" v="shoal" />
		<tag k="place" v="locality" />
		<tag k="ssr:stedsnr" v="633425" />
	</node>
	<node lat="63.4039638867522" lon="8.21381945120884" id="-11294">
		<tag k="name" v="Langtareberget" />
		<tag k="natural" v="shoal" />
		<tag k="place" v="locality" />
		<tag k="ssr:stedsnr" v="642400" />
	</node>
	<node lat="63.25970833456926" lon="7.8545444347479485" id="-11295">
		<tag k="name" v="Kalven" />
		<tag k="place" v="islet" />
		<tag k="ssr:stedsnr" v="642245" />
	</node>
	<node lat="63.50797222033907" lon="8.006086111333413" id="-11296">
		<tag k="name" v="Langtaren" />
		<tag k="natural" v="shoal" />
		<tag k="place" v="locality" />
		<tag k="ssr:stedsnr" v="642757" />
	</node>
	<node lat="63.43044722506442" lon="8.208266676029744" id="-11297">
		<tag k="name" v="Austre Storbåen" />
		<tag k="natural" v="shoal" />
		<tag k="place" v="locality" />
		<tag k="ssr:stedsnr" v="643371" />
	</node>
	<node lat="63.43876666428437" lon="8.213247231287582" id="-11298">
		<tag k="name" v="Råsberget" />
		<tag k="natural" v="shoal" />
		<tag k="place" v="locality" />
		<tag k="ssr:stedsnr" v="643641" />
	</node>
	<node lat="63.45604166328878" lon="8.2075194509989" id="-11299">
		<tag k="name" v="Austre Reiflua" />
		<tag k="natural" v="shoal" />
		<tag k="place" v="locality" />
		<tag k="ssr:stedsnr" v="643647" />
	</node>
	<node lat="63.52270277507944" lon="7.96192778310035" id="-11300">
		<tag k="name" v="Munkholmdraget" />
		<tag k="place" v="islet" />
		<tag k="ssr:stedsnr" v="643652" />
	</node>
	<node lat="63.48876666724265" lon="7.810822212160098" id="-11301">
		<tag k="name" v="Kråkfallet" />
		<tag k="natural" v="shoal" />
		<tag k="place" v="locality" />
		<tag k="ssr:stedsnr" v="643968" />
	</node>
	<node lat="63.33329722499007" lon="8.236261103291634" id="-11303">
		<tag k="name" v="Nørholmen" />
		<tag k="place" v="islet" />
		<tag k="ssr:stedsnr" v="653951" />
	</node>
	<node lat="63.280930558446556" lon="7.949972216952244" id="-11304">
		<tag k="name" v="Blåsværsvaet" />
		<tag k="natural" v="bay" />
		<tag k="ssr:stedsnr" v="656277" />
	</node>
	<node lat="63.35266944715202" lon="7.892024994464045" id="-11305">
		<tag k="fixme" v="consider seamark:type=rock or natural=shoal" />
		<tag k="name" v="Hattskjeret" />
		<tag k="place" v="islet" />
		<tag k="ssr:stedsnr" v="656693" />
	</node>
	<node lat="63.387794444771764" lon="8.201188882420645" id="-11307">
		<tag k="name" v="Futholmen" />
		<tag k="place" v="islet" />
		<tag k="ssr:stedsnr" v="658045" />
	</node>
	<node lat="63.382144447819144" lon="8.202644438421812" id="-11309">
		<tag k="name" v="Spelskaget" />
		<tag k="natural" v="cape" />
		<tag k="ssr:stedsnr" v="658164" />
	</node>
	<node lat="63.48629444153083" lon="7.914333337797088" id="-11315">
		<tag k="fixme" v="consider seamark:type=rock or natural=shoal" />
		<tag k="name" v="Brattgåsskjeret" />
		<tag k="place" v="islet" />
		<tag k="ssr:stedsnr" v="657765" />
	</node>
	<node lat="63.46739722598889" lon="8.076722214755797" id="-11318">
		<tag k="fixme" v="consider seamark:type=rock or natural=shoal" />
		<tag k="name" v="Guriskjeret" />
		<tag k="place" v="islet" />
		<tag k="ssr:stedsnr" v="658017" />
	</node>
	<node lat="63.37235833204384" lon="7.909616673844778" id="-11324">
		<tag k="name" v="Andskottet" />
		<tag k="place" v="islet" />
		<tag k="ssr:stedsnr" v="658479" />
	</node>
	<node lat="63.33972500208056" lon="7.947519443154066" id="-11326">
		<tag k="name" v="Båtskaget" />
		<tag k="natural" v="cape" />
		<tag k="ssr:stedsnr" v="658548" />
	</node>
	<node lat="63.21984166991572" lon="7.761819442827398" id="-11330">
		<tag k="name" v="Nordre Godtaren" />
		<tag k="natural" v="shoal" />
		<tag k="place" v="locality" />
		<tag k="ssr:stedsnr" v="716320" />
	</node>
	<node lat="63.27321111008098" lon="7.943633326283216" id="-11331">
		<tag k="name" v="Storblåsværet" />
		<tag k="natural" v="bay" />
		<tag k="ssr:stedsnr" v="717287" />
	</node>
	<node lat="63.31923611364506" lon="7.998313880746322" id="-11332">
		<tag k="name" v="Gjølvøyvågen" />
		<tag k="natural" v="bay" />
		<tag k="ssr:stedsnr" v="717290" />
	</node>
	<node lat="63.33989999782069" lon="7.949552775024922" id="-11338">
		<tag k="fixme" v="consider seamark:type=rock or natural=shoal" />
		<tag k="name" v="Farbrorskjeret" />
		<tag k="place" v="islet" />
		<tag k="ssr:stedsnr" v="718562" />
	</node>
	<node lat="63.36451111377168" lon="8.200880557727984" id="-11343">
		<tag k="fixme" v="consider seamark:type=rock or natural=shoal" />
		<tag k="name" v="Jakopspålen" />
		<tag k="place" v="islet" />
		<tag k="ssr:stedsnr" v="719154" />
	</node>
	<node lat="63.3183555573896" lon="8.066663893033077" id="-11344">
		<tag k="name" v="Lauvholmen" />
		<tag k="place" v="islet" />
		<tag k="ssr:stedsnr" v="719638" />
	</node>
	<node lat="63.31127500436191" lon="8.053836111723705" id="-11345">
		<tag k="name" v="Nørdholmen" />
		<tag k="place" v="islet" />
		<tag k="ssr:stedsnr" v="719650" />
	</node>
	<node lat="63.47011388700254" lon="8.108577782942902" id="-11348">
		<tag k="name" v="Steinsøya" />
		<tag k="place" v="island" />
		<tag k="ssr:stedsnr" v="740523" />
	</node>
	<node lat="63.406991667893024" lon="7.771058328763937" id="-11350">
		<tag k="fixme" v="multiple name tags, choose one and add the other to alt_name" />
		<tag k="name" v="Sjauøya;Skjåøya" />
		<tag k="place" v="islet" />
		<tag k="ssr:stedsnr" v="740652" />
	</node>
	<node lat="63.26735555234947" lon="7.670244441356357" id="-11364">
		<tag k="alt_name" v="Lønntaren" />
		<tag k="name" v="Løntaren" />
		<tag k="natural" v="shoal" />
		<tag k="place" v="locality" />
		<tag k="ssr:stedsnr" v="740564" />
	</node>
	<node lat="63.401088887171866" lon="8.184730548742468" id="-11367">
		<tag k="fixme" v="multiple name tags, choose one and add the other to alt_name" />
		<tag k="name" v="Tennholmen;Ternholmen" />
		<tag k="place" v="islet" />
		<tag k="ssr:stedsnr" v="740627" />
	</node>
	<node lat="63.271897224051365" lon="7.972344434601164" id="-11369">
		<tag k="name" v="Arnøykalven" />
		<tag k="place" v="islet" />
		<tag k="ssr:stedsnr" v="740868" />
	</node>
	<node lat="63.32915277850589" lon="8.10671110254095" id="-11374">
		<tag k="name" v="Leirvikneset" />
		<tag k="natural" v="cape" />
		<tag k="ssr:stedsnr" v="740972" />
	</node>
	<node lat="63.331375003173974" lon="8.196669436061395" id="-11375">
		<tag k="name" v="Lauvøykalven" />
		<tag k="place" v="islet" />
		<tag k="ssr:stedsnr" v="740978" />
	</node>
	<node lat="63.520013888729956" lon="7.838572218057701" id="-11377">
		<tag k="name" v="Remman" />
		<tag k="place" v="island" />
		<tag k="ssr:stedsnr" v="741217" />
	</node>
	<node lat="63.504911111107255" lon="7.846919435183928" id="-11378">
		<tag k="alt_name" v="Seiskjera" />
		<tag k="fixme" v="consider seamark:type=rock or natural=shoal" />
		<tag k="name" v="Seiskjæra" />
		<tag k="place" v="islet" />
		<tag k="ssr:stedsnr" v="741221" />
	</node>
	<node lat="63.515330552329516" lon="7.80497221634237" id="-11379">
		<tag k="alt_name" v="Brørne" />
		<tag k="name" v="Brødrene" />
		<tag k="natural" v="shoal" />
		<tag k="place" v="locality" />
		<tag k="ssr:stedsnr" v="741227" />
	</node>
	<node lat="63.34007777352628" lon="7.81085277460314" id="-11383">
		<tag k="name" v="Trettøya" />
		<tag k="place" v="islet" />
		<tag k="ssr:stedsnr" v="741818" />
	</node>
	<node lat="63.43494999820641" lon="7.929405559658136" id="-11386">
		<tag k="name" v="Einneset" />
		<tag k="natural" v="cape" />
		<tag k="ssr:stedsnr" v="741762" />
	</node>
	<node lat="63.44244444802806" lon="8.171766661625067" id="-11389">
		<tag k="fixme" v="consider seamark:type=rock or natural=shoal" />
		<tag k="name" v="Fuglåsen" />
		<tag k="place" v="islet" />
		<tag k="ssr:stedsnr" v="741778" />
	</node>
	<node lat="63.349755551684716" lon="7.934733331266241" id="-11391">
		<tag k="name" v="Storstraumen" />
		<tag k="natural" v="strait" />
		<tag k="ssr:stedsnr" v="741863" />
	</node>
	<node lat="63.35219444770907" lon="7.941716675960295" id="-11392">
		<tag k="name" v="Sørøya" />
		<tag k="place" v="islet" />
		<tag k="ssr:stedsnr" v="741865" />
	</node>
	<node lat="63.35232221843879" lon="7.915472223940098" id="-11393">
		<tag k="name" v="Jøstøløya" />
		<tag k="place" v="island" />
		<tag k="ssr:stedsnr" v="741867" />
	</node>
	<node lat="63.37308333223056" lon="7.893130559501567" id="-11400">
		<tag k="name" v="Kvistvågen" />
		<tag k="natural" v="bay" />
		<tag k="ssr:stedsnr" v="764085" />
	</node>
	<node lat="63.25699166770604" lon="7.820786111278768" id="-11401">
		<tag k="name" v="Austre Saueflua" />
		<tag k="natural" v="shoal" />
		<tag k="place" v="locality" />
		<tag k="ssr:stedsnr" v="764238" />
	</node>
	<node lat="63.32631111467943" lon="7.753933336867328" id="-11402">
		<tag k="name" v="Skipstaren" />
		<tag k="natural" v="shoal" />
		<tag k="place" v="locality" />
		<tag k="ssr:stedsnr" v="764185" />
	</node>
	<node lat="63.37549443996347" lon="7.756261107840407" id="-11404">
		<tag k="fixme" v="consider seamark:type=rock or natural=shoal" />
		<tag k="name" v="Singskjerka" />
		<tag k="place" v="islet" />
		<tag k="ssr:stedsnr" v="764586" />
	</node>
	<node lat="63.53324444725273" lon="7.9753194530699005" id="-11405">
		<tag k="name" v="Langbåen" />
		<tag k="natural" v="shoal" />
		<tag k="place" v="locality" />
		<tag k="ssr:stedsnr" v="764988" />
	</node>
	<node lat="63.49622777695569" lon="7.704555546180142" id="-11406">
		<tag k="name" v="Indre Hausen" />
		<tag k="natural" v="shoal" />
		<tag k="place" v="locality" />
		<tag k="ssr:stedsnr" v="765942" />
	</node>
	<node lat="63.51324166939057" lon="7.963155546251086" id="-11407">
		<tag k="name" v="Gultjørnsvaet" />
		<tag k="natural" v="shoal" />
		<tag k="place" v="locality" />
		<tag k="ssr:stedsnr" v="765661" />
	</node>
	<node lat="63.32722500427478" lon="7.802130553690469" id="-11408">
		<tag k="fixme" v="consider seamark:type=rock or natural=shoal" />
		<tag k="name" v="Straumskjeret" />
		<tag k="place" v="islet" />
		<tag k="ssr:stedsnr" v="765662" />
	</node>
	<node lat="63.44874166820138" lon="8.152616659085552" id="-11409">
		<tag k="name" v="Nordklakken" />
		<tag k="place" v="islet" />
		<tag k="ssr:stedsnr" v="765625" />
	</node>
	<node lat="63.523636113992204" lon="7.937505553041678" id="-11410">
		<tag k="name" v="Kolbeinstaren" />
		<tag k="natural" v="shoal" />
		<tag k="place" v="locality" />
		<tag k="ssr:stedsnr" v="765630" />
	</node>
	<node lat="63.430316666471164" lon="7.849461115502542" id="-11411">
		<tag k="name" v="Kalvøysundet" />
		<tag k="natural" v="strait" />
		<tag k="ssr:stedsnr" v="765875" />
	</node>
	<node lat="63.479661114369314" lon="7.7206833249441" id="-11412">
		<tag k="name" v="Folafoten" />
		<tag k="natural" v="shoal" />
		<tag k="place" v="locality" />
		<tag k="ssr:stedsnr" v="765926" />
	</node>
	<node lat="63.244991666177505" lon="7.854091670948458" id="-11413">
		<tag k="fixme" v="consider seamark:type=rock or natural=shoal" />
		<tag k="name" v="Indre Haugskjæra" />
		<tag k="place" v="islet" />
		<tag k="ssr:stedsnr" v="777240" />
	</node>
	<node lat="63.39562222163576" lon="7.79501389342485" id="-11414">
		<tag k="name" v="Lyngholmen" />
		<tag k="place" v="islet" />
		<tag k="ssr:stedsnr" v="778425" />
	</node>
	<node lat="63.40879999766371" lon="8.165825000993763" id="-11415">
		<tag k="name" v="Breivikholmen" />
		<tag k="place" v="islet" />
		<tag k="ssr:stedsnr" v="779035" />
	</node>
	<node lat="63.29257777990365" lon="8.089477782356447" id="-11419">
		<tag k="name" v="Naustvika" />
		<tag k="natural" v="bay" />
		<tag k="ssr:stedsnr" v="779305" />
	</node>
	<node lat="63.43112777841313" lon="7.900624992228692" id="-11421">
		<tag k="name" v="Ramnklovningen" />
		<tag k="place" v="islet" />
		<tag k="ssr:stedsnr" v="779325" />
	</node>
	<node lat="63.367655553808454" lon="7.830008335064762" id="-11423">
		<tag k="name" v="Åbråttholmen" />
		<tag k="place" v="islet" />
		<tag k="ssr:stedsnr" v="779578" />
	</node>
	<node lat="63.319733333517206" lon="8.052561105617666" id="-11427">
		<tag k="name" v="Djupdalsholman" />
		<tag k="place" v="islet" />
		<tag k="ssr:stedsnr" v="780632" />
	</node>
	<node lat="63.30299444759141" lon="7.6858416696983145" id="-11431">
		<tag k="alt_name" v="Indre Hilbåen" />
		<tag k="name" v="Hillbåen" />
		<tag k="natural" v="shoal" />
		<tag k="place" v="locality" />
		<tag k="ssr:stedsnr" v="801582" />
	</node>
	<node lat="63.48593055744217" lon="7.700719439429027" id="-11432">
		<tag k="name" v="Melklakken" />
		<tag k="natural" v="shoal" />
		<tag k="place" v="locality" />
		<tag k="ssr:stedsnr" v="801594" />
	</node>
	<node lat="63.45760833436047" lon="7.712555558060155" id="-11433">
		<tag k="name" v="Brattværsfallet" />
		<tag k="natural" v="shoal" />
		<tag k="place" v="locality" />
		<tag k="ssr:stedsnr" v="801598" />
	</node>
	<node lat="63.41864722346444" lon="8.19605000148704" id="-11435">
		<tag k="name" v="Brettingen" />
		<tag k="place" v="islet" />
		<tag k="ssr:stedsnr" v="801649" />
	</node>
	<node lat="63.42733888710458" lon="7.804833338894451" id="-11436">
		<tag k="name" v="Langøya" />
		<tag k="place" v="islet" />
		<tag k="ssr:stedsnr" v="801699" />
	</node>
	<node lat="63.41303611036448" lon="7.8003194392500985" id="-11440">
		<tag k="name" v="Aukøya" />
		<tag k="place" v="islet" />
		<tag k="ssr:stedsnr" v="801660" />
	</node>
	<node lat="63.42456388660112" lon="8.19474167584913" id="-11441">
		<tag k="fixme" v="consider seamark:type=rock or natural=shoal" />
		<tag k="name" v="Gardsbåen" />
		<tag k="place" v="islet" />
		<tag k="ssr:stedsnr" v="801663" />
	</node>
	<node lat="63.27383096555147" lon="7.981493331326781" id="-11447">
		<tag k="name" v="Arnøya" />
		<tag k="place" v="island" />
		<tag k="ssr:stedsnr" v="801862" />
	</node>
	<node lat="63.277911108509905" lon="8.106822223378348" id="-11448">
		<tag k="name" v="Edøyskaget" />
		<tag k="natural" v="cape" />
		<tag k="ssr:stedsnr" v="801864" />
	</node>
	<node lat="63.28036666333426" lon="7.866522221485211" id="-11449">
		<tag k="name" v="Joøya" />
		<tag k="place" v="islet" />
		<tag k="ssr:stedsnr" v="801927" />
	</node>
	<node lat="63.275058328971625" lon="7.757338898537083" id="-11450">
		<tag k="name" v="Sandøya" />
		<tag k="place" v="islet" />
		<tag k="ssr:stedsnr" v="801929" />
	</node>
	<node lat="63.308311112080084" lon="8.073255549646813" id="-11452">
		<tag k="name" v="Lamøya" />
		<tag k="place" v="islet" />
		<tag k="ssr:stedsnr" v="801940" />
	</node>
	<node lat="63.37068889273017" lon="8.205149998400323" id="-11458">
		<tag k="name" v="Aukøya" />
		<tag k="natural" v="cape" />
		<tag k="ssr:stedsnr" v="802897" />
	</node>
	<node lat="63.35554722465091" lon="7.762641672839072" id="-11468">
		<tag k="name" v="Odden" />
		<tag k="place" v="islet" />
		<tag k="ssr:stedsnr" v="802849" />
	</node>
	<node lat="63.33050277927378" lon="7.671569444285257" id="-11473">
		<tag k="name" v="Åmundfluan" />
		<tag k="natural" v="shoal" />
		<tag k="place" v="locality" />
		<tag k="ssr:stedsnr" v="825158" />
	</node>
	<node lat="63.27783888661137" lon="7.953575006859311" id="-11474">
		<tag k="fixme" v="consider seamark:type=rock or natural=shoal" />
		<tag k="name" v="Svartskjæra" />
		<tag k="place" v="islet" />
		<tag k="ssr:stedsnr" v="825222" />
	</node>
	<node lat="63.31616388472838" lon="7.739380546346307" id="-11475">
		<tag k="name" v="Dolsebåen" />
		<tag k="place" v="locality" />
		<tag k="seamark:type" v="rock" />
		<tag k="ssr:stedsnr" v="825167" />
	</node>
	<node lat="63.248527774162184" lon="7.812250005971143" id="-11476">
		<tag k="fixme" v="consider seamark:type=rock or natural=shoal" />
		<tag k="name" v="Gulaskjæra" />
		<tag k="place" v="islet" />
		<tag k="ssr:stedsnr" v="825196" />
	</node>
	<node lat="63.293624998187354" lon="7.8463166621054015" id="-11477">
		<tag k="name" v="Søre Steinsvær" />
		<tag k="place" v="islet" />
		<tag k="ssr:stedsnr" v="825211" />
	</node>
	<node lat="63.40061110681027" lon="8.193233325649427" id="-11478">
		<tag k="bay" v="fjord" />
		<tag k="name" v="Bremnessvaet" />
		<tag k="natural" v="bay" />
		<tag k="ssr:stedsnr" v="825355" />
	</node>
	<node lat="63.51285277742999" lon="7.859866658303682" id="-11479">
		<tag k="name" v="Kjøltaren" />
		<tag k="natural" v="shoal" />
		<tag k="place" v="locality" />
		<tag k="ssr:stedsnr" v="825923" />
	</node>
	<node lat="63.52370278052653" lon="7.873324996455594" id="-11480">
		<tag k="name" v="Nubban" />
		<tag k="natural" v="shoal" />
		<tag k="place" v="locality" />
		<tag k="ssr:stedsnr" v="825929" />
	</node>
	<node lat="63.42538055760814" lon="7.780169451160434" id="-11483">
		<tag k="name" v="Kvaløyhylla" />
		<tag k="natural" v="shoal" />
		<tag k="place" v="locality" />
		<tag k="ssr:stedsnr" v="826036" />
	</node>
	<node lat="63.36526111154071" lon="8.278197223291281" id="-11484">
		<tag k="name" v="Remmingskjærflua" />
		<tag k="natural" v="shoal" />
		<tag k="place" v="locality" />
		<tag k="ssr:stedsnr" v="826269" />
	</node>
	<node lat="63.31980832990384" lon="7.805236117246647" id="-11485">
		<tag k="fixme" v="consider seamark:type=rock or natural=shoal" />
		<tag k="name" v="Tuvskjeret" />
		<tag k="place" v="islet" />
		<tag k="ssr:stedsnr" v="826674" />
	</node>
	<node lat="63.43741111448652" lon="7.9415027688134225" id="-11486">
		<tag k="name" v="Skaga" />
		<tag k="natural" v="cape" />
		<tag k="ssr:stedsnr" v="826897" />
	</node>
	<node lat="63.363755294890524" lon="8.281948592856972" id="-11489">
		<tag k="fixme" v="consider seamark:type=rock or natural=shoal" />
		<tag k="name" v="Remmingskjæret" />
		<tag k="place" v="islet" />
		<tag k="ssr:stedsnr" v="836938" />
	</node>
	<node lat="63.24750000366673" lon="7.853494440248928" id="-11490">
		<tag k="fixme" v="consider seamark:type=rock or natural=shoal" />
		<tag k="name" v="Ytre Haugskjæra" />
		<tag k="place" v="islet" />
		<tag k="ssr:stedsnr" v="838280" />
	</node>
	<node lat="63.26396666922657" lon="8.05034999982707" id="-11491">
		<tag k="name" v="Kjønrøksflua" />
		<tag k="place" v="locality" />
		<tag k="seamark:type" v="rock" />
		<tag k="ssr:stedsnr" v="838284" />
	</node>
	<node lat="63.45053055169617" lon="7.980611112645258" id="-11492">
		<tag k="name" v="Aravågen" />
		<tag k="natural" v="bay" />
		<tag k="ssr:stedsnr" v="840084" />
	</node>
	<node lat="63.45809444062249" lon="8.068841664092561" id="-11505">
		<tag k="name" v="Innervalen" />
		<tag k="natural" v="shoal" />
		<tag k="place" v="locality" />
		<tag k="ssr:stedsnr" v="841024" />
	</node>
	<node lat="63.46370833395899" lon="8.10658056370789" id="-11506">
		<tag k="name" v="Øra" />
		<tag k="natural" v="cape" />
		<tag k="ssr:stedsnr" v="841040" />
	</node>
	<node lat="63.37120833615735" lon="8.211211102229086" id="-11507">
		<tag k="name" v="Hårkollsøypynten" />
		<tag k="natural" v="cape" />
		<tag k="ssr:stedsnr" v="841164" />
	</node>
	<node lat="63.38445278084235" lon="8.205469452280655" id="-11509">
		<tag k="name" v="Sør Dyrøysundet" />
		<tag k="natural" v="strait" />
		<tag k="ssr:stedsnr" v="841185" />
	</node>
	<node lat="63.383194442457885" lon="8.225274991702763" id="-11510">
		<tag k="name" v="Skjelsandbukta" />
		<tag k="natural" v="bay" />
		<tag k="ssr:stedsnr" v="841186" />
	</node>
	<node lat="63.548597226371506" lon="7.832558323946373" id="-11511">
		<tag k="alt_name" v="Skjælgrunn" />
		<tag k="name" v="Sjælgrunnen" />
		<tag k="natural" v="shoal" />
		<tag k="place" v="locality" />
		<tag k="ssr:stedsnr" v="862194" />
	</node>
	<node lat="63.487736111310454" lon="7.949016662775971" id="-11516">
		<tag k="alt_name" v="Iselihauet" />
		<tag k="fixme" v="consider seamark:type=rock or natural=shoal" />
		<tag k="name" v="Esingbalen" />
		<tag k="place" v="islet" />
		<tag k="ssr:stedsnr" v="862580" />
	</node>
	<node lat="63.32103055791707" lon="7.701808334579094" id="-11517">
		<tag k="alt_name" v="Mattisskjæret" />
		<tag k="fixme" v="consider seamark:type=rock or natural=shoal" />
		<tag k="name" v="Mattisskjeret" />
		<tag k="place" v="islet" />
		<tag k="ssr:stedsnr" v="862585" />
	</node>
	<node lat="63.47582777690118" lon="7.707380548229271" id="-11518">
		<tag k="name" v="Grunnflua" />
		<tag k="natural" v="shoal" />
		<tag k="place" v="locality" />
		<tag k="ssr:stedsnr" v="862597" />
	</node>
	<node lat="63.3809138908434" lon="7.779174992474688" id="-11527">
		<tag k="fixme" v="consider seamark:type=rock or natural=shoal" />
		<tag k="name" v="Draget" />
		<tag k="place" v="islet" />
		<tag k="ssr:stedsnr" v="862613" />
	</node>
	<node lat="63.32453611449416" lon="7.793083327659297" id="-11535">
		<tag k="alt_name" v="Store Valøya" />
		<tag k="name" v="Valøya" />
		<tag k="place" v="island" />
		<tag k="ssr:stedsnr" v="862773" />
	</node>
	<node lat="63.339325003287044" lon="8.14688611765886" id="-11536">
		<tag k="name" v="Leirholmen" />
		<tag k="place" v="islet" />
		<tag k="ssr:stedsnr" v="862775" />
	</node>
	<node lat="63.33466944206174" lon="7.786747213754793" id="-11539">
		<tag k="fixme" v="consider seamark:type=rock or natural=shoal" />
		<tag k="name" v="Klakken" />
		<tag k="place" v="islet" />
		<tag k="ssr:stedsnr" v="862835" />
	</node>
	<node lat="63.290024998075296" lon="7.91871111780471" id="-11543">
		<tag k="fixme" v="consider seamark:type=rock or natural=shoal" />
		<tag k="name" v="Leikua" />
		<tag k="place" v="islet" />
		<tag k="ssr:stedsnr" v="862920" />
	</node>
	<node lat="63.36737777573935" lon="7.848377770682834" id="-11547">
		<tag k="name" v="Øyavågen" />
		<tag k="natural" v="bay" />
		<tag k="ssr:stedsnr" v="862866" />
	</node>
	<node lat="63.31115278113551" lon="7.98934444934352" id="-11550">
		<tag k="name" v="Flakaneset" />
		<tag k="natural" v="cape" />
		<tag k="ssr:stedsnr" v="862958" />
	</node>
	<node lat="63.32058055848475" lon="8.131630558303078" id="-11552">
		<tag k="name" v="Smørholmen" />
		<tag k="place" v="islet" />
		<tag k="ssr:stedsnr" v="862990" />
	</node>
	<node lat="63.320374995694486" lon="8.114149990176555" id="-11554">
		<tag k="name" v="Kalvøya" />
		<tag k="place" v="islet" />
		<tag k="ssr:stedsnr" v="862992" />
	</node>
	<node lat="63.519008329308946" lon="7.970080565511768" id="-11558">
		<tag k="fixme" v="consider seamark:type=rock or natural=shoal" />
		<tag k="name" v="Ramnklovningen" />
		<tag k="place" v="islet" />
		<tag k="ssr:stedsnr" v="863173" />
	</node>
	<node lat="63.34413889297595" lon="7.8188972315222705" id="-11559">
		<tag k="name" v="Klauvøya" />
		<tag k="place" v="islet" />
		<tag k="ssr:stedsnr" v="863761" />
	</node>
	<node lat="63.355963892155884" lon="7.814813883069071" id="-11560">
		<tag k="alt_name" v="Store Skabbersøya" />
		<tag k="name" v="Skabbersøya" />
		<tag k="place" v="islet" />
		<tag k="ssr:stedsnr" v="863808" />
	</node>
	<node lat="63.34386666830994" lon="8.026516676486596" id="-11563">
		<tag k="name" v="Teigneset" />
		<tag k="natural" v="cape" />
		<tag k="ssr:stedsnr" v="863774" />
	</node>
	<node lat="63.48916389155495" lon="7.911516658354823" id="-11568">
		<tag k="fixme" v="consider seamark:type=rock or natural=shoal" />
		<tag k="name" v="Klavaskjæret" />
		<tag k="place" v="islet" />
		<tag k="ssr:stedsnr" v="885993" />
	</node>
	<node lat="63.3200416696071" lon="8.000872215985279" id="-11569">
		<tag k="name" v="Jølvøya" />
		<tag k="place" v="islet" />
		<tag k="ssr:stedsnr" v="886154" />
	</node>
	<node lat="63.31980555995408" lon="7.8153916676582975" id="-11570">
		<tag k="name" v="Klakkaholmen" />
		<tag k="place" v="islet" />
		<tag k="ssr:stedsnr" v="886638" />
	</node>
	<node lat="63.51209166593798" lon="7.999633339088086" id="-11571">
		<tag k="name" v="Ytre Langtareflua" />
		<tag k="natural" v="shoal" />
		<tag k="place" v="locality" />
		<tag k="ssr:stedsnr" v="886680" />
	</node>
	<node lat="63.50854722271223" lon="7.854572218832608" id="-11573">
		<tag k="fixme" v="consider seamark:type=rock or natural=shoal" />
		<tag k="name" v="Johanskjæret" />
		<tag k="place" v="islet" />
		<tag k="ssr:stedsnr" v="886917" />
	</node>
	<node lat="63.312219448029204" lon="7.783863895680281" id="-11574">
		<tag k="fixme" v="consider seamark:type=rock or natural=shoal" />
		<tag k="name" v="Åbrandskjeret" />
		<tag k="place" v="islet" />
		<tag k="ssr:stedsnr" v="887690" />
	</node>
	<node lat="63.503699996506526" lon="7.688263891843716" id="-11575">
		<tag k="name" v="Gallusgrunna" />
		<tag k="natural" v="shoal" />
		<tag k="place" v="locality" />
		<tag k="ssr:stedsnr" v="887939" />
	</node>
	<node lat="63.50184444338021" lon="7.816766668298201" id="-11581">
		<tag k="name" v="Båen" />
		<tag k="place" v="locality" />
		<tag k="seamark:type" v="rock" />
		<tag k="ssr:stedsnr" v="938100" />
	</node>
	<node lat="63.3514666708859" lon="7.694186111152902" id="-11582">
		<tag k="fixme" v="consider seamark:type=rock or natural=shoal" />
		<tag k="name" v="Silsingodden" />
		<tag k="place" v="islet" />
		<tag k="ssr:stedsnr" v="946051" />
	</node>
	<node lat="63.352569444278636" lon="7.857405558744773" id="-11583">
		<tag k="name" v="Vambusundet" />
		<tag k="natural" v="strait" />
		<tag k="ssr:stedsnr" v="946063" />
	</node>
	<node lat="63.260399999480924" lon="7.823975002500284" id="-11584">
		<tag k="name" v="Grunntaren" />
		<tag k="natural" v="shoal" />
		<tag k="place" v="locality" />
		<tag k="ssr:stedsnr" v="946232" />
	</node>
	<node lat="63.26581666684992" lon="7.820008339316425" id="-11585">
		<tag k="fixme" v="consider seamark:type=rock or natural=shoal" />
		<tag k="name" v="Gleskjæra" />
		<tag k="place" v="islet" />
		<tag k="ssr:stedsnr" v="946251" />
	</node>
	<node lat="63.27121944157243" lon="7.692472222871818" id="-11586">
		<tag k="name" v="Steinbåflua" />
		<tag k="natural" v="shoal" />
		<tag k="place" v="locality" />
		<tag k="ssr:stedsnr" v="946253" />
	</node>
	<node lat="63.26395277628601" lon="7.695850004425879" id="-11587">
		<tag k="name" v="Gåsefluan" />
		<tag k="natural" v="shoal" />
		<tag k="place" v="locality" />
		<tag k="ssr:stedsnr" v="946255" />
	</node>
	<node lat="63.44927222204095" lon="8.137380565416771" id="-11590">
		<tag k="name" v="Reiråvågen" />
		<tag k="natural" v="bay" />
		<tag k="ssr:stedsnr" v="947624" />
	</node>
	<node lat="63.377866662178356" lon="7.779702773212406" id="-11591">
		<tag k="name" v="Danielskjeret" />
		<tag k="place" v="islet" />
		<tag k="ssr:stedsnr" v="947567" />
	</node>
	<node lat="63.52458055476038" lon="7.986186103024235" id="-11592">
		<tag k="fixme" v="consider seamark:type=rock or natural=shoal" />
		<tag k="name" v="Raudaskjæret" />
		<tag k="place" v="islet" />
		<tag k="ssr:stedsnr" v="947644" />
	</node>
	<node lat="63.3209861132981" lon="7.775638898262393" id="-11593">
		<tag k="name" v="Aukan" />
		<tag k="place" v="islet" />
		<tag k="ssr:stedsnr" v="947655" />
	</node>
	<node lat="63.42599722258446" lon="7.7293277712336375" id="-11594">
		<tag k="name" v="Steinbåen" />
		<tag k="natural" v="shoal" />
		<tag k="place" v="locality" />
		<tag k="ssr:stedsnr" v="947891" />
	</node>
	<node lat="63.53167777375488" lon="7.865872215310186" id="-11595">
		<tag k="name" v="Nordholmnubben" />
		<tag k="natural" v="shoal" />
		<tag k="place" v="locality" />
		<tag k="ssr:stedsnr" v="947915" />
	</node>
	<node lat="63.49088888746803" lon="7.797280558482405" id="-11596">
		<tag k="name" v="Ufsfallet" />
		<tag k="natural" v="shoal" />
		<tag k="place" v="locality" />
		<tag k="ssr:stedsnr" v="947957" />
	</node>
	<node lat="63.48476111464967" lon="7.868091675923071" id="-11597">
		<tag k="name" v="Kassibåen" />
		<tag k="natural" v="shoal" />
		<tag k="place" v="locality" />
		<tag k="ssr:stedsnr" v="947964" />
	</node>
	<node lat="63.49244166514552" lon="7.917986102499037" id="-11602">
		<tag k="fixme" v="consider seamark:type=rock or natural=shoal" />
		<tag k="name" v="Håskjera" />
		<tag k="place" v="islet" />
		<tag k="ssr:stedsnr" v="960756" />
	</node>
	<node lat="63.33617222334563" lon="8.086469436329294" id="-11608">
		<tag k="name" v="Inner Klovågen" />
		<tag k="natural" v="bay" />
		<tag k="ssr:stedsnr" v="962743" />
	</node>
	<node lat="63.349697225669836" lon="7.960649997268774" id="-11609">
		<tag k="name" v="Sauøya" />
		<tag k="place" v="island" />
		<tag k="ssr:stedsnr" v="961927" />
	</node>
	<node lat="63.46842499637582" lon="8.124747214703756" id="-11611">
		<tag k="name" v="Nordvågen" />
		<tag k="natural" v="bay" />
		<tag k="ssr:stedsnr" v="962016" />
	</node>
	<node lat="63.471369445233" lon="8.106344442174432" id="-11612">
		<tag k="name" v="Einbærholmane" />
		<tag k="place" v="islet" />
		<tag k="ssr:stedsnr" v="962019" />
	</node>
	<node lat="63.308545233927816" lon="8.22273806825318" id="-11738">
		<tag k="name" v="Kyrhaugholman" />
		<tag k="place" v="islet" />
		<tag k="ssr:stedsnr" v="1078740" />
	</node>
</osm>
