<?xml version="1.0" encoding="UTF-8"?>
<osm version="0.6" generator="osmapis">
	<node lat="63.4509805537292" lon="8.131622219714064" id="-9555">
		<tag k="name" v="Hønsvik" />
		<tag k="place" v="farm" />
		<tag k="ssr:stedsnr" v="233053" />
	</node>
	<node lat="63.36487793645156" lon="8.178030744682903" id="-9567">
		<tag k="fixme" v="consider place=hamlet" />
		<tag k="name" v="Hellesfjorden" />
		<tag k="place" v="farm" />
		<tag k="ssr:stedsnr" v="234215" />
	</node>
	<node lat="63.45939890102484" lon="8.116989864449108" id="-9596">
		<tag k="name" v="Haugen" />
		<tag k="place" v="farm" />
		<tag k="ssr:stedsnr" v="73526" />
	</node>
	<node lat="63.41950555361246" lon="8.06003055917936" id="-9604">
		<tag k="name" v="Moldstad" />
		<tag k="place" v="farm" />
		<tag k="ssr:stedsnr" v="73680" />
	</node>
	<node lat="63.427486110615796" lon="8.03616388382167" id="-9605">
		<tag k="name" v="Myrvang" />
		<tag k="place" v="farm" />
		<tag k="ssr:stedsnr" v="73702" />
	</node>
	<node lat="63.418655910710825" lon="7.822041085592956" id="-9606">
		<tag k="fixme" v="consider place=hamlet" />
		<tag k="name" v="Råket" />
		<tag k="place" v="farm" />
		<tag k="ssr:stedsnr" v="73714" />
	</node>
	<node lat="63.4332999987761" lon="8.05601111720624" id="-9607">
		<tag k="name" v="Moldstad" />
		<tag k="place" v="farm" />
		<tag k="ssr:stedsnr" v="73716" />
	</node>
	<node lat="63.433058337117146" lon="7.873880555575722" id="-9609">
		<tag k="name" v="Vika" />
		<tag k="place" v="farm" />
		<tag k="ssr:stedsnr" v="73731" />
	</node>
	<node lat="63.443997917647884" lon="8.142783563835893" id="-9610">
		<tag k="name" v="Knubben" />
		<tag k="place" v="farm" />
		<tag k="ssr:stedsnr" v="73739" />
	</node>
	<node lat="63.400911112967385" lon="8.068766673547781" id="-9694">
		<tag k="name" v="Bergli" />
		<tag k="place" v="farm" />
		<tag k="ssr:stedsnr" v="255652" />
	</node>
	<node lat="63.431227778474245" lon="8.084958340021927" id="-9696">
		<tag k="name" v="Rypdal" />
		<tag k="place" v="farm" />
		<tag k="ssr:stedsnr" v="255730" />
	</node>
	<node lat="63.36460277463964" lon="7.835991668527491" id="-9702">
		<tag k="name" v="Solhei" />
		<tag k="place" v="farm" />
		<tag k="ssr:stedsnr" v="255897" />
	</node>
	<node lat="63.32027499665213" lon="8.213266674562096" id="-9707">
		<tag k="name" v="Varden" />
		<tag k="place" v="farm" />
		<tag k="ssr:stedsnr" v="255991" />
	</node>
	<node lat="63.42283889140073" lon="7.850241661809516" id="-9733">
		<tag k="amenity" v="school" />
		<tag k="name" v="Bakkemyra" />
		<tag k="ssr:stedsnr" v="172858" />
	</node>
	<node lat="63.406200004123434" lon="8.052411102426003" id="-9734">
		<tag k="name" v="Moldvatnet" />
		<tag k="place" v="farm" />
		<tag k="ssr:stedsnr" v="172873" />
	</node>
	<node lat="63.45776570605781" lon="8.118694072750687" id="-9787">
		<tag k="fixme" v="consider place=hamlet" />
		<tag k="name" v="Skaget" />
		<tag k="place" v="farm" />
		<tag k="ssr:stedsnr" v="255506" />
	</node>
	<node lat="63.43186666465062" lon="8.093894444978227" id="-9852">
		<tag k="name" v="Kvilarhaugen" />
		<tag k="place" v="farm" />
		<tag k="ssr:stedsnr" v="316759" />
	</node>
	<node lat="63.46288889002257" lon="8.10965832543771" id="-9885">
		<tag k="fixme" v="consider place=hamlet" />
		<tag k="name" v="Holmen" />
		<tag k="place" v="farm" />
		<tag k="ssr:stedsnr" v="476031" />
	</node>
	<node lat="63.42941388833703" lon="8.142691666488856" id="-9903">
		<tag k="name" v="Inner Roksvågen" />
		<tag k="place" v="farm" />
		<tag k="ssr:stedsnr" v="415098" />
	</node>
	<node lat="63.32775555706197" lon="8.053005546065634" id="-9914">
		<tag k="amenity" v="school" />
		<tag k="name" v="Rangnes" />
		<tag k="ssr:stedsnr" v="416712" />
	</node>
	<node lat="63.40531944613016" lon="8.149552770175696" id="-9922">
		<tag k="name" v="Øverli" />
		<tag k="place" v="farm" />
		<tag k="ssr:stedsnr" v="437657" />
	</node>
	<node lat="63.427961113568145" lon="8.065705561478751" id="-9924">
		<tag k="name" v="Flate" />
		<tag k="place" v="farm" />
		<tag k="ssr:stedsnr" v="437701" />
	</node>
	<node lat="63.41251111241779" lon="8.069172219591433" id="-9952">
		<tag k="name" v="Stakkhaugen" />
		<tag k="place" v="farm" />
		<tag k="ssr:stedsnr" v="475909" />
	</node>
	<node lat="63.45821944444971" lon="8.04612499831002" id="-9955">
		<tag k="name" v="Øver Stamberghaugen" />
		<tag k="place" v="isolated_dwelling" />
		<tag k="ssr:stedsnr" v="476104" />
	</node>
	<node lat="63.43754722539088" lon="8.144588886861413" id="-9997">
		<tag k="name" v="Nordvika" />
		<tag k="place" v="hamlet" />
		<tag k="ssr:stedsnr" v="680752" />
	</node>
	<node lat="63.35481388540891" lon="8.138991673535498" id="-10001">
		<tag k="name" v="Elverhøy" />
		<tag k="place" v="farm" />
		<tag k="ssr:stedsnr" v="680877" />
	</node>
	<node lat="63.33918888787597" lon="8.056880558587949" id="-10009">
		<tag k="name" v="Fredly" />
		<tag k="place" v="farm" />
		<tag k="ssr:stedsnr" v="497749" />
	</node>
	<node lat="63.42981944140651" lon="8.057447220041096" id="-10019">
		<tag k="name" v="Wullum" />
		<tag k="place" v="farm" />
		<tag k="ssr:stedsnr" v="498745" />
	</node>
	<node lat="63.368941669578525" lon="8.143730554669872" id="-10030">
		<tag k="name" v="Vollstad" />
		<tag k="place" v="farm" />
		<tag k="ssr:stedsnr" v="498888" />
	</node>
	<node lat="63.4166828115419" lon="8.031793844680243" id="-10067">
		<tag k="name" v="Skjølstad" />
		<tag k="place" v="farm" />
		<tag k="ssr:stedsnr" v="558708" />
	</node>
	<node lat="63.425636113694075" lon="7.853394450531958" id="-10075">
		<tag k="fixme" v="consider place=hamlet" />
		<tag k="name" v="Dyrnes" />
		<tag k="place" v="village" />
		<tag k="ssr:stedsnr" v="558754" />
	</node>
	<node lat="63.36300277676256" lon="7.830158328151704" id="-10076">
		<tag k="name" v="Nystua" />
		<tag k="place" v="farm" />
		<tag k="ssr:stedsnr" v="558890" />
	</node>
	<node lat="63.466930583416406" lon="8.098692715772126" id="-10100">
		<tag k="fixme" v="consider place=hamlet" />
		<tag k="name" v="Holberg" />
		<tag k="place" v="farm" />
		<tag k="ssr:stedsnr" v="597012" />
	</node>
	<node lat="63.45632778197153" lon="8.118974991905878" id="-10144">
		<tag k="name" v="Nygård" />
		<tag k="place" v="farm" />
		<tag k="ssr:stedsnr" v="619784" />
	</node>
	<node lat="63.424019440138224" lon="7.823263894200209" id="-10165">
		<tag k="fixme" v="consider place=hamlet" />
		<tag k="name" v="Indre Råkholmen" />
		<tag k="place" v="farm" />
		<tag k="ssr:stedsnr" v="705902" />
	</node>
	<node lat="63.51362222212807" lon="7.954158336859304" id="-10176">
		<tag k="fixme" v="consider place=suburb, village or hamlet" />
		<tag k="name" v="Ytter Innveien" />
		<tag k="place" v="quarter" />
		<tag k="ssr:stedsnr" v="657622" />
	</node>
	<node lat="63.32323872261158" lon="7.784853419201435" id="-10203">
		<tag k="name" v="Spilvalen" />
		<tag k="place" v="farm" />
		<tag k="ssr:stedsnr" v="680808" />
	</node>
	<node lat="63.43136666739788" lon="8.055574990701164" id="-10212">
		<tag k="name" v="Dølstad" />
		<tag k="place" v="farm" />
		<tag k="ssr:stedsnr" v="680768" />
	</node>
	<node lat="63.29685562907415" lon="8.088387563882879" id="-10218">
		<tag k="fixme" v="consider place=hamlet" />
		<tag k="name" v="Kuli" />
		<tag k="place" v="farm" />
		<tag k="ssr:stedsnr" v="680978" />
	</node>
	<node lat="63.51457499995495" lon="7.955150007773886" id="-10248">
		<tag k="amenity" v="school" />
		<tag k="name" v="Veidholmen skule" />
		<tag k="ssr:stedsnr" v="900649" />
	</node>
	<node lat="63.295786112408926" lon="8.163911103438654" id="-10277">
		<tag k="name" v="Norddal" />
		<tag k="place" v="farm" />
		<tag k="ssr:stedsnr" v="740919" />
	</node>
	<node lat="63.42756388495627" lon="8.069386105229873" id="-10323">
		<tag k="name" v="Midttun" />
		<tag k="place" v="farm" />
		<tag k="ssr:stedsnr" v="801684" />
	</node>
	<node lat="63.42901111147215" lon="8.076691658808521" id="-10357">
		<tag k="name" v="Kvam" />
		<tag k="place" v="farm" />
		<tag k="ssr:stedsnr" v="922687" />
	</node>
	<node lat="63.312938891367274" lon="8.031791657043721" id="-10363">
		<tag k="name" v="Leirmyra" />
		<tag k="place" v="farm" />
		<tag k="ssr:stedsnr" v="922998" />
	</node>
	<node lat="63.40102222401512" lon="8.065180548636695" id="-10377">
		<tag k="name" v="Pilsbakk" />
		<tag k="old_name" v="Pilsbekk;Pilsbekken" />
		<tag k="place" v="farm" />
		<tag k="ssr:stedsnr" v="923665" />
	</node>
	<node lat="63.32621944410518" lon="8.047638887806555" id="-10381">
		<tag k="name" v="Valen" />
		<tag k="place" v="farm" />
		<tag k="ssr:stedsnr" v="923802" />
	</node>
	<node lat="63.355566670145606" lon="8.147486118475205" id="-10384">
		<tag k="alt_name" v="Nerdvika" />
		<tag k="fixme" v="consider place=hamlet" />
		<tag k="name" v="Nelvika" />
		<tag k="place" v="village" />
		<tag k="ssr:stedsnr" v="923855" />
	</node>
	<node lat="63.45810555782976" lon="8.046227780382804" id="-10398">
		<tag k="name" v="Bukta" />
		<tag k="place" v="isolated_dwelling" />
		<tag k="ssr:stedsnr" v="862510" />
	</node>
	<node lat="63.45754999976262" lon="8.023519446193612" id="-10399">
		<tag k="name" v="Varden" />
		<tag k="place" v="isolated_dwelling" />
		<tag k="ssr:stedsnr" v="862513" />
	</node>
	<node lat="63.28673386064122" lon="8.128123085102004" id="-10437">
		<tag k="fixme" v="consider place=hamlet" />
		<tag k="name" v="Edøy" />
		<tag k="place" v="farm" />
		<tag k="ssr:stedsnr" v="901753" />
	</node>
	<node lat="63.407424996780776" lon="8.073930557681251" id="-10439">
		<tag k="name" v="Moldvatnet" />
		<tag k="place" v="farm" />
		<tag k="ssr:stedsnr" v="901902" />
	</node>
	<node lat="63.46539444563378" lon="8.014366658017105" id="-10443">
		<tag k="name" v="Hopen" />
		<tag k="place" v="village" />
		<tag k="ssr:stedsnr" v="922488" />
	</node>
	<node lat="63.331474996363106" lon="8.052038882563384" id="-10447">
		<tag k="name" v="Tallerås" />
		<tag k="place" v="farm" />
		<tag k="ssr:stedsnr" v="922730" />
	</node>
	<node lat="63.411197219610926" lon="8.14026666436077" id="-10458">
		<tag k="name" v="Oppheim" />
		<tag k="place" v="farm" />
		<tag k="ssr:stedsnr" v="923679" />
	</node>
	<node lat="63.32663888996811" lon="8.049883339108883" id="-10462">
		<tag k="name" v="Risvika" />
		<tag k="place" v="farm" />
		<tag k="ssr:stedsnr" v="923803" />
	</node>
	<node lat="63.33123055285832" lon="8.065588887198045" id="-10463">
		<tag k="name" v="Rabben" />
		<tag k="place" v="farm" />
		<tag k="ssr:stedsnr" v="923808" />
	</node>
	<node lat="63.375892452911955" lon="8.204309905192021" id="-10496">
		<tag k="name" v="Vikan industriområde" />
		<tag k="place" v="quarter" />
		<tag k="ssr:stedsnr" v="976400" />
	</node>
	<node lat="63.464566194689446" lon="8.016285767842287" id="-10515">
		<tag k="fixme" v="consider place=hamlet" />
		<tag k="name" v="Hopen" />
		<tag k="place" v="farm" />
		<tag k="ssr:stedsnr" v="980213" />
	</node>
	<node lat="63.45796619667009" lon="8.044790547784014" id="-10516">
		<tag k="fixme" v="consider place=hamlet" />
		<tag k="name" v="Rambergshaugen" />
		<tag k="place" v="farm" />
		<tag k="ssr:stedsnr" v="980217" />
	</node>
	<node lat="63.46634068943964" lon="8.100268285401302" id="-10518">
		<tag k="fixme" v="consider place=hamlet" />
		<tag k="name" v="Steinsøysundet" />
		<tag k="place" v="farm" />
		<tag k="ssr:stedsnr" v="980221" />
	</node>
	<node lat="63.468591818967354" lon="8.116991765355799" id="-10519">
		<tag k="fixme" v="consider place=hamlet" />
		<tag k="name" v="Steinsøya" />
		<tag k="place" v="farm" />
		<tag k="ssr:stedsnr" v="980224" />
	</node>
	<node lat="63.46026456053819" lon="8.112774548849295" id="-10520">
		<tag k="name" v="Bekken" />
		<tag k="place" v="farm" />
		<tag k="ssr:stedsnr" v="980235" />
	</node>
	<node lat="63.35683916942171" lon="7.894796391671761" id="-10522">
		<tag k="fixme" v="consider place=hamlet" />
		<tag k="name" v="Jøstølen" />
		<tag k="place" v="farm" />
		<tag k="ssr:stedsnr" v="980153" />
	</node>
	<node lat="63.28238354270753" lon="7.8418993425982375" id="-10524">
		<tag k="fixme" v="consider place=hamlet" />
		<tag k="name" v="Sandværet" />
		<tag k="place" v="farm" />
		<tag k="ssr:stedsnr" v="980156" />
	</node>
	<node lat="63.261587578468315" lon="7.857481139561126" id="-10525">
		<tag k="fixme" v="consider place=hamlet" />
		<tag k="name" v="Rotværet" />
		<tag k="place" v="farm" />
		<tag k="ssr:stedsnr" v="980157" />
	</node>
	<node lat="63.24938043165056" lon="7.8312265589824515" id="-10526">
		<tag k="fixme" v="consider place=hamlet" />
		<tag k="name" v="Solværet" />
		<tag k="place" v="farm" />
		<tag k="ssr:stedsnr" v="980158" />
	</node>
	<node lat="63.2879945144019" lon="7.78878077183873" id="-10527">
		<tag k="fixme" v="consider place=hamlet" />
		<tag k="name" v="Hallarøya" />
		<tag k="place" v="farm" />
		<tag k="ssr:stedsnr" v="980160" />
	</node>
	<node lat="63.324414727446786" lon="7.81037631790989" id="-10528">
		<tag k="fixme" v="consider place=hamlet" />
		<tag k="name" v="Tranøya" />
		<tag k="place" v="farm" />
		<tag k="ssr:stedsnr" v="980161" />
	</node>
	<node lat="63.363100714268306" lon="7.86338340410158" id="-10529">
		<tag k="fixme" v="consider place=hamlet" />
		<tag k="name" v="Klakkan" />
		<tag k="place" v="farm" />
		<tag k="ssr:stedsnr" v="980162" />
	</node>
	<node lat="63.3604324525711" lon="7.831768374778654" id="-10530">
		<tag k="fixme" v="consider place=hamlet" />
		<tag k="name" v="Ersneset" />
		<tag k="place" v="farm" />
		<tag k="ssr:stedsnr" v="980163" />
	</node>
	<node lat="63.41457222112519" lon="8.025883343289184" id="-10549">
		<tag k="fixme" v="multiple name tags, choose one and add the other to alt_name" />
		<tag k="name" v="Frosta;Frostad" />
		<tag k="place" v="farm" />
		<tag k="ssr:stedsnr" v="12681" />
	</node>
	<node lat="63.41730000048367" lon="8.02839444418529" id="-10551">
		<tag k="name" v="Nerheim" />
		<tag k="place" v="farm" />
		<tag k="ssr:stedsnr" v="12687" />
	</node>
	<node lat="63.37914722007483" lon="8.19145277045924" id="-10575">
		<tag k="name" v="Teinosen" />
		<tag k="place" v="farm" />
		<tag k="ssr:stedsnr" v="13845" />
	</node>
	<node lat="63.333319448519426" lon="8.058311117837636" id="-10627">
		<tag k="name" v="Heimdal" />
		<tag k="place" v="farm" />
		<tag k="ssr:stedsnr" v="73755" />
	</node>
	<node lat="63.368930559084575" lon="8.141811107895645" id="-10633">
		<tag k="name" v="Alvestad" />
		<tag k="place" v="farm" />
		<tag k="ssr:stedsnr" v="73855" />
	</node>
	<node lat="63.431541665719784" lon="7.858069449119235" id="-10663">
		<tag k="name" v="Nordstrand" />
		<tag k="place" v="farm" />
		<tag k="ssr:stedsnr" v="111754" />
	</node>
	<node lat="63.407969446026826" lon="8.142625002559443" id="-10680">
		<tag k="name" v="Lyngmo" />
		<tag k="place" v="farm" />
		<tag k="ssr:stedsnr" v="133623" />
	</node>
	<node lat="63.42053888482684" lon="8.041386115157795" id="-10691">
		<tag k="name" v="Gåsebekk" />
		<tag k="place" v="farm" />
		<tag k="ssr:stedsnr" v="133684" />
	</node>
	<node lat="63.30468889004802" lon="8.182247225484694" id="-10707">
		<tag k="name" v="Kveldro" />
		<tag k="place" v="farm" />
		<tag k="ssr:stedsnr" v="133925" />
	</node>
	<node lat="63.285010720246845" lon="8.129986616967118" id="-10709">
		<tag k="name" v="Edøy" />
		<tag k="place" v="farm" />
		<tag k="ssr:stedsnr" v="133927" />
	</node>
	<node lat="63.41200277560026" lon="8.074194441828112" id="-10777">
		<tag k="name" v="Alfheim" />
		<tag k="place" v="farm" />
		<tag k="ssr:stedsnr" v="194646" />
	</node>
	<node lat="63.32834167022653" lon="8.040202780635992" id="-10796">
		<tag k="name" v="Gullbøen" />
		<tag k="place" v="farm" />
		<tag k="ssr:stedsnr" v="194759" />
	</node>
	<node lat="63.383700005995195" lon="7.796395763018029" id="-10863">
		<tag k="fixme" v="consider place=hamlet" />
		<tag k="name" v="Steinsøyneset" />
		<tag k="place" v="farm" />
		<tag k="ssr:stedsnr" v="293452" />
	</node>
	<node lat="63.298427781882175" lon="8.1764222181206" id="-10877">
		<tag k="name" v="Grønbukta" />
		<tag k="place" v="farm" />
		<tag k="ssr:stedsnr" v="315921" />
	</node>
	<node lat="63.4160138873209" lon="8.134213895310515" id="-10883">
		<tag k="name" v="Lyngheim" />
		<tag k="place" v="farm" />
		<tag k="ssr:stedsnr" v="315682" />
	</node>
	<node lat="63.41906944738225" lon="8.037949995374085" id="-10885">
		<tag k="name" v="Frostmo" />
		<tag k="place" v="farm" />
		<tag k="ssr:stedsnr" v="315686" />
	</node>
	<node lat="63.32219166499525" lon="8.206008330444726" id="-10889">
		<tag k="name" v="Fruhamna" />
		<tag k="place" v="farm" />
		<tag k="ssr:stedsnr" v="315985" />
	</node>
	<node lat="63.356411114784954" lon="7.891652787069048" id="-10900">
		<tag k="fixme" v="consider place=hamlet" />
		<tag k="name" v="Jøstølen" />
		<tag k="place" v="village" />
		<tag k="ssr:stedsnr" v="316914" />
	</node>
	<node lat="63.44346111329004" lon="8.059966659889316" id="-10914">
		<tag k="name" v="Holmstad" />
		<tag k="place" v="farm" />
		<tag k="ssr:stedsnr" v="316770" />
	</node>
	<node lat="63.34727777432915" lon="8.150127782375225" id="-10924">
		<tag k="name" v="Steingarden" />
		<tag k="place" v="locality" />
		<tag k="ssr:stedsnr" v="316849" />
	</node>
	<node lat="63.430788887705084" lon="8.07537222099815" id="-10996">
		<tag k="name" v="Nordal" />
		<tag k="place" v="farm" />
		<tag k="ssr:stedsnr" v="376737" />
	</node>
	<node lat="63.3394868835236" lon="8.140230538165625" id="-11020">
		<tag k="name" v="Algarheim" />
		<tag k="place" v="farm" />
		<tag k="ssr:stedsnr" v="377777" />
	</node>
	<node lat="63.34905411782986" lon="7.887580105808196" id="-11025">
		<tag k="fixme" v="consider place=hamlet" />
		<tag k="name" v="Jøa" />
		<tag k="place" v="farm" />
		<tag k="ssr:stedsnr" v="377805" />
	</node>
	<node lat="63.39674166490403" lon="8.16691944806386" id="-11064">
		<tag k="name" v="Hopmarka" />
		<tag k="place" v="farm" />
		<tag k="ssr:stedsnr" v="437641" />
	</node>
	<node lat="63.42380555319691" lon="8.049311105951613" id="-11100">
		<tag k="name" v="Kryssmo" />
		<tag k="place" v="farm" />
		<tag k="ssr:stedsnr" v="497682" />
	</node>
	<node lat="63.42980043911454" lon="8.136513859575318" id="-11101">
		<tag k="alt_name" v="Roksvåg, ytre" />
		<tag k="fixme" v="consider place=hamlet" />
		<tag k="name" v="Ytre Roksvåg" />
		<tag k="place" v="farm" />
		<tag k="ssr:stedsnr" v="497689" />
	</node>
	<node lat="63.40738889156654" lon="8.074122224855211" id="-11127">
		<tag k="name" v="Jutulheimen" />
		<tag k="place" v="farm" />
		<tag k="ssr:stedsnr" v="498699" />
	</node>
	<node lat="63.51881111533935" lon="7.953927783516133" id="-11144">
		<tag k="name" v="Havkroa" />
		<tag k="ssr:stedsnr" v="510917" />
		<tag k="tourism" v="guest_house" />
	</node>
	<node lat="63.42470555870327" lon="8.154747221664298" id="-11157">
		<tag k="amenity" v="school" />
		<tag k="name" v="Austsmøla" />
		<tag k="ssr:stedsnr" v="536025" />
	</node>
	<node lat="63.51025278095603" lon="7.968130554365635" id="-11168">
		<tag k="fixme" v="consider place=suburb, village or hamlet" />
		<tag k="name" v="Inner Innveien" />
		<tag k="place" v="quarter" />
		<tag k="ssr:stedsnr" v="536641" />
	</node>
	<node lat="63.32073617660759" lon="7.801221398484493" id="-11182">
		<tag k="name" v="Sørheim" />
		<tag k="place" v="locality" />
		<tag k="ssr:stedsnr" v="557968" />
	</node>
	<node lat="63.38003716382877" lon="8.195509742107971" id="-11188">
		<tag k="fixme" v="consider place=hamlet" />
		<tag k="name" v="Vikan" />
		<tag k="place" v="farm" />
		<tag k="ssr:stedsnr" v="558874" />
	</node>
	<node lat="63.368294440279996" lon="7.875555565275593" id="-11190">
		<tag k="name" v="Stølen" />
		<tag k="place" v="farm" />
		<tag k="ssr:stedsnr" v="558880" />
	</node>
	<node lat="63.4030888917066" lon="8.144533341366554" id="-11208">
		<tag k="name" v="Nyvoll" />
		<tag k="place" v="farm" />
		<tag k="ssr:stedsnr" v="558679" />
	</node>
	<node lat="63.35128055456074" lon="8.141077779376209" id="-11221">
		<tag k="name" v="Heimly" />
		<tag k="place" v="farm" />
		<tag k="ssr:stedsnr" v="559828" />
	</node>
	<node lat="63.41643781281312" lon="8.153949228895852" id="-11256">
		<tag k="fixme" v="consider place=hamlet" />
		<tag k="name" v="Rokstad" />
		<tag k="place" v="farm" />
		<tag k="ssr:stedsnr" v="618662" />
	</node>
	<node lat="63.425938893094404" lon="8.055372221890245" id="-11257">
		<tag k="fixme" v="multiple name tags, choose one and add the other to alt_name; consider place=hamlet" />
		<tag k="name" v="Frostaheia;Frostadheia" />
		<tag k="place" v="village" />
		<tag k="ssr:stedsnr" v="618668" />
	</node>
	<node lat="63.391056209184995" lon="8.154647823537443" id="-11274">
		<tag k="name" v="Reitdalen" />
		<tag k="place" v="farm" />
		<tag k="ssr:stedsnr" v="619653" />
	</node>
	<node lat="63.36673611325894" lon="7.864680560372656" id="-11277">
		<tag k="name" v="Skardet" />
		<tag k="place" v="farm" />
		<tag k="ssr:stedsnr" v="619877" />
	</node>
	<node lat="63.36536389250875" lon="7.871572223462435" id="-11278">
		<tag k="name" v="Stranda" />
		<tag k="place" v="farm" />
		<tag k="ssr:stedsnr" v="619878" />
	</node>
	<node lat="63.43026388991072" lon="8.032705546846671" id="-11283">
		<tag k="name" v="Vestli" />
		<tag k="place" v="farm" />
		<tag k="ssr:stedsnr" v="619745" />
	</node>
	<node lat="63.42996666704556" lon="8.05540000332279" id="-11284">
		<tag k="name" v="Romstad" />
		<tag k="place" v="farm" />
		<tag k="ssr:stedsnr" v="619752" />
	</node>
	<node lat="63.46283092512953" lon="8.003223381387372" id="-11322">
		<tag k="fixme" v="consider place=hamlet" />
		<tag k="name" v="Hopshaugen" />
		<tag k="place" v="farm" />
		<tag k="ssr:stedsnr" v="658122" />
	</node>
	<node lat="63.413902778958246" lon="8.139444441016236" id="-11352">
		<tag k="name" v="Rokstad" />
		<tag k="place" v="farm" />
		<tag k="ssr:stedsnr" v="740670" />
	</node>
	<node lat="63.45453332906477" lon="8.06648333303585" id="-11353">
		<tag k="name" v="Elverum" />
		<tag k="place" v="farm" />
		<tag k="ssr:stedsnr" v="740744" />
	</node>
	<node lat="63.332163853298006" lon="8.074430702831796" id="-11355">
		<tag k="fixme" v="consider place=hamlet" />
		<tag k="name" v="Straumen" />
		<tag k="place" v="village" />
		<tag k="ssr:stedsnr" v="740752" />
	</node>
	<node lat="63.349019440616814" lon="7.985297225218919" id="-11394">
		<tag k="alt_name" v="Skjølberg" />
		<tag k="name" v="Djupvika" />
		<tag k="place" v="farm" />
		<tag k="ssr:stedsnr" v="741869" />
	</node>
	<node lat="63.30632500437908" lon="8.170169453434703" id="-11453">
		<tag k="name" v="Dambukta" />
		<tag k="place" v="farm" />
		<tag k="ssr:stedsnr" v="801941" />
	</node>
	<node lat="63.29519444525381" lon="8.150305558093438" id="-11454">
		<tag k="name" v="Utheim" />
		<tag k="place" v="farm" />
		<tag k="ssr:stedsnr" v="801963" />
	</node>
	<node lat="63.432477775598" lon="8.057722218923836" id="-11460">
		<tag k="name" v="Bjørge" />
		<tag k="place" v="farm" />
		<tag k="ssr:stedsnr" v="802751" />
	</node>
	<node lat="63.3279683446369" lon="7.992239250234914" id="-11471">
		<tag k="fixme" v="consider place=hamlet" />
		<tag k="loc_name" v="Rangneset" />
		<tag k="name" v="Rangnes" />
		<tag k="place" v="farm" />
		<tag k="ssr:stedsnr" v="814895" />
	</node>
	<node lat="63.41988888586006" lon="8.034136108096908" id="-11519">
		<tag k="name" v="Liset" />
		<tag k="place" v="farm" />
		<tag k="ssr:stedsnr" v="862674" />
	</node>
	<node lat="63.41234999746167" lon="7.831111102167689" id="-11520">
		<tag k="name" v="Vollan" />
		<tag k="place" v="isolated_dwelling" />
		<tag k="ssr:stedsnr" v="862675" />
	</node>
	<node lat="63.4509555533178" lon="8.12822500229689" id="-11525">
		<tag k="name" v="Bakken" />
		<tag k="place" v="farm" />
		<tag k="ssr:stedsnr" v="862755" />
	</node>
	<node lat="63.3380194441831" lon="8.09678889670656" id="-11534">
		<tag k="name" v="Bekken" />
		<tag k="place" v="farm" />
		<tag k="ssr:stedsnr" v="862763" />
	</node>
	<node lat="63.30167222037263" lon="8.190133329043816" id="-11545">
		<tag k="name" v="Valen" />
		<tag k="place" v="farm" />
		<tag k="ssr:stedsnr" v="862929" />
	</node>
	<node lat="63.462624996542694" lon="8.107950009353434" id="-11572">
		<tag k="name" v="Holmen" />
		<tag k="place" v="farm" />
		<tag k="ssr:stedsnr" v="886825" />
	</node>
	<node lat="63.30426994597123" lon="8.083794889838698" id="-11679">
		<tag k="fixme" v="consider place=hamlet" />
		<tag k="name" v="Hestøya" />
		<tag k="place" v="farm" />
		<tag k="ssr:stedsnr" v="980129" />
	</node>
	<node lat="63.29132418997236" lon="8.026661071784353" id="-11680">
		<tag k="fixme" v="consider place=hamlet" />
		<tag k="name" v="Ellevsøya" />
		<tag k="place" v="farm" />
		<tag k="ssr:stedsnr" v="980130" />
	</node>
	<node lat="63.275920676250145" lon="7.980998427820037" id="-11681">
		<tag k="fixme" v="consider place=hamlet" />
		<tag k="name" v="Arnøya" />
		<tag k="place" v="farm" />
		<tag k="ssr:stedsnr" v="980131" />
	</node>
	<node lat="63.33166902316884" lon="8.078536015342914" id="-11683">
		<tag k="fixme" v="consider place=hamlet" />
		<tag k="name" v="Straumen" />
		<tag k="place" v="farm" />
		<tag k="ssr:stedsnr" v="980135" />
	</node>
	<node lat="63.36278750277755" lon="7.782076925922049" id="-11684">
		<tag k="fixme" v="consider place=hamlet" />
		<tag k="name" v="Skillingan" />
		<tag k="place" v="farm" />
		<tag k="ssr:stedsnr" v="980172" />
	</node>
	<node lat="63.404718996194426" lon="7.810411291433054" id="-11685">
		<tag k="fixme" v="consider place=hamlet" />
		<tag k="name" v="Skarpneset" />
		<tag k="place" v="farm" />
		<tag k="ssr:stedsnr" v="980179" />
	</node>
	<node lat="63.42264227754557" lon="7.833750892693163" id="-11686">
		<tag k="fixme" v="consider place=hamlet" />
		<tag k="name" v="Båtneset" />
		<tag k="place" v="farm" />
		<tag k="ssr:stedsnr" v="980184" />
	</node>
	<node lat="63.42540465564505" lon="7.857335967041739" id="-11687">
		<tag k="fixme" v="consider place=hamlet" />
		<tag k="name" v="Dyrnes" />
		<tag k="place" v="farm" />
		<tag k="ssr:stedsnr" v="980185" />
	</node>
	<node lat="63.356077582827865" lon="7.764006764297511" id="-11688">
		<tag k="name" v="Odden" />
		<tag k="place" v="locality" />
		<tag k="ssr:stedsnr" v="980187" />
	</node>
	<node lat="63.45348642564458" lon="7.812447789359973" id="-11689">
		<tag k="fixme" v="consider place=hamlet" />
		<tag k="name" v="Brattværet" />
		<tag k="place" v="farm" />
		<tag k="ssr:stedsnr" v="980194" />
	</node>
	<node lat="63.448141902115815" lon="7.889384889124053" id="-11690">
		<tag k="fixme" v="consider place=hamlet" />
		<tag k="name" v="Monsøya" />
		<tag k="place" v="farm" />
		<tag k="ssr:stedsnr" v="980196" />
	</node>
	<node lat="63.4397801480985" lon="7.911236015881614" id="-11691">
		<tag k="fixme" v="consider place=hamlet" />
		<tag k="name" v="Litlneset" />
		<tag k="place" v="farm" />
		<tag k="ssr:stedsnr" v="980198" />
	</node>
	<node lat="63.51900608507695" lon="7.952823095792828" id="-11692">
		<tag k="fixme" v="consider place=hamlet" />
		<tag k="name" v="Veiholmen" />
		<tag k="place" v="farm" />
		<tag k="ssr:stedsnr" v="980208" />
	</node>
	<node lat="63.33932194801791" lon="8.121861577993913" id="-11694">
		<tag k="name" v="Leirvika" />
		<tag k="place" v="farm" />
		<tag k="ssr:stedsnr" v="983634" />
	</node>
	<node lat="63.338411979710756" lon="8.124269915623573" id="-11695">
		<tag k="name" v="Leirvika" />
		<tag k="place" v="farm" />
		<tag k="ssr:stedsnr" v="983635" />
	</node>
	<node lat="63.338050584092244" lon="8.123060326830988" id="-11696">
		<tag k="name" v="Leirvika" />
		<tag k="place" v="farm" />
		<tag k="ssr:stedsnr" v="983636" />
	</node>
	<node lat="63.44530831687026" lon="8.138769594859019" id="-11740">
		<tag k="name" v="Havnvik" />
		<tag k="place" v="farm" />
		<tag k="ssr:stedsnr" v="1082059" />
	</node>
</osm>
