<?xml version="1.0" encoding="UTF-8"?>
<osm version="0.6" generator="osmapis">
	<node lat="65.10617222102285" lon="13.340844439752988" id="-14899">
		<tag k="name" v="Storbekken" />
		<tag k="ssr:stedsnr" v="14621" />
		<tag k="waterway" v="stream" />
	</node>
	<node lat="65.15022778039798" lon="13.5282666605545" id="-14901">
		<tag k="name" v="Orrekelva" />
		<tag k="ssr:stedsnr" v="14665" />
		<tag k="waterway" v="river" />
	</node>
	<node lat="65.16884166368592" lon="13.411402786226107" id="-14902">
		<tag k="name" v="Dåammajaevrie" />
		<tag k="name:no" v="Tomasvatnet" />
		<tag k="name:sma" v="Dåammajaevrie" />
		<tag k="natural" v="water" />
		<tag k="ssr:stedsnr" v="14678" />
		<tag k="water" v="lake" />
	</node>
	<node lat="65.53886944439249" lon="13.399191673831716" id="-14908">
		<tag k="name" v="Svenningdalsholmen" />
		<tag k="place" v="islet" />
		<tag k="ssr:stedsnr" v="15374" />
	</node>
	<node lat="65.53759167024766" lon="13.321052779103416" id="-14909">
		<tag k="name" v="Hestmyrbekken" />
		<tag k="ssr:stedsnr" v="15376" />
		<tag k="waterway" v="stream" />
	</node>
	<node lat="65.73691111370154" lon="13.480377784553687" id="-14915">
		<tag k="name" v="Holmvasselva - Såaloejaevrienjohke" />
		<tag k="name:no" v="Holmvasselva" />
		<tag k="name:sma" v="Såaloejaevrienjohke" />
		<tag k="ssr:stedsnr" v="15818" />
		<tag k="waterway" v="river" />
	</node>
	<node lat="65.17429999717243" lon="13.391574996748371" id="-14918">
		<tag k="name" v="Tomasvasselva" />
		<tag k="ssr:stedsnr" v="15722" />
		<tag k="waterway" v="stream" />
	</node>
	<node lat="65.4754833377101" lon="13.236458331290349" id="-14930">
		<tag k="name" v="Feitskardelva" />
		<tag k="ssr:stedsnr" v="16967" />
		<tag k="waterway" v="river" />
	</node>
	<node lat="65.31467222523271" lon="13.35648332638094" id="-14931">
		<tag k="name" v="Nordmannbukta" />
		<tag k="natural" v="bay" />
		<tag k="ssr:stedsnr" v="16870" />
	</node>
	<node lat="65.68074722002666" lon="13.247949998133375" id="-14951">
		<tag k="name" v="Fallan" />
		<tag k="natural" v="water" />
		<tag k="ssr:stedsnr" v="33566" />
		<tag k="water" v="lake" />
	</node>
	<node lat="65.54368611376871" lon="13.390008324264427" id="-14957">
		<tag k="name" v="Risøra" />
		<tag k="place" v="islet" />
		<tag k="ssr:stedsnr" v="33996" />
	</node>
	<node lat="65.4353833345991" lon="13.01117499749008" id="-14963">
		<tag k="name" v="Grunnvatnet" />
		<tag k="natural" v="water" />
		<tag k="ssr:stedsnr" v="76112" />
	</node>
	<node lat="65.54417778134268" lon="13.359922218772233" id="-14964">
		<tag k="name" v="Stengvassbekken" />
		<tag k="ssr:stedsnr" v="76318" />
		<tag k="waterway" v="stream" />
	</node>
	<node lat="65.56163333405715" lon="13.678880551551886" id="-14967">
		<tag k="name" v="Falkgjottjønna" />
		<tag k="natural" v="water" />
		<tag k="ssr:stedsnr" v="76324" />
	</node>
	<node lat="65.56575277495011" lon="13.681097230437036" id="-14972">
		<tag k="name" v="Falkgjotbekken" />
		<tag k="ssr:stedsnr" v="76605" />
		<tag k="waterway" v="stream" />
	</node>
	<node lat="65.67061666716535" lon="13.541533332220148" id="-14975">
		<tag k="alt_name" v="Gluggvatnet, nedre;Nedre Gluggvatnet" />
		<tag k="name" v="Nergluggvatnet" />
		<tag k="natural" v="water" />
		<tag k="ssr:stedsnr" v="76552" />
	</node>
	<node lat="65.64847778065453" lon="13.291624993124223" id="-14976">
		<tag k="alt_name" v="Ytra, l" />
		<tag k="name" v="Lilleytra" />
		<tag k="ssr:stedsnr" v="76563" />
		<tag k="waterway" v="stream" />
	</node>
	<node lat="65.68423889108207" lon="13.459433329474278" id="-14980">
		<tag k="alt_name" v="Svartvatnet, s" />
		<tag k="name" v="Søre Svartvatnet" />
		<tag k="natural" v="water" />
		<tag k="ssr:stedsnr" v="76709" />
		<tag k="water" v="lake" />
	</node>
	<node lat="65.25478889145835" lon="13.836774994043026" id="-14982">
		<tag k="alt_name" v="Måsskardvatnet, austre" />
		<tag k="name" v="Austre Måsskardvatnet" />
		<tag k="natural" v="water" />
		<tag k="ssr:stedsnr" v="76722" />
		<tag k="water" v="lake" />
	</node>
	<node lat="65.61554721952574" lon="13.27491666755677" id="-14984">
		<tag k="alt_name" v="Mølnbekken" />
		<tag k="name" v="Møllbekken" />
		<tag k="ssr:stedsnr" v="76758" />
		<tag k="waterway" v="stream" />
	</node>
	<node lat="65.31235833068598" lon="13.55358333220959" id="-14985">
		<tag k="name" v="Simskardbukta" />
		<tag k="natural" v="bay" />
		<tag k="ssr:stedsnr" v="76859" />
	</node>
	<node lat="65.38479722548925" lon="13.682591662504281" id="-14986">
		<tag k="alt_name:sma" v="Luspiendurrienjohke, jillie" />
		<tag k="fixme" v="multiple name:no tags, choose one and add the other to alt_name:no" />
		<tag k="name" v="Jillie Luspiendurrienjohke" />
		<tag k="name:no" v="Vestre Laupskardelva;Laupskardelva, vestre;Løypskardelva" />
		<tag k="name:sma" v="Jillie Luspiendurrienjohke" />
		<tag k="ssr:stedsnr" v="76901" />
		<tag k="waterway" v="river" />
	</node>
	<node lat="65.46943055251948" lon="13.377969450983953" id="-15003">
		<tag k="name" v="Mølnbekken" />
		<tag k="ssr:stedsnr" v="94707" />
		<tag k="waterway" v="stream" />
	</node>
	<node lat="65.31553888499408" lon="13.20832778772888" id="-15013">
		<tag k="name" v="Bjørkåstjønna" />
		<tag k="natural" v="water" />
		<tag k="ssr:stedsnr" v="136060" />
	</node>
	<node lat="65.55798889143826" lon="13.56412222566269" id="-15019">
		<tag k="name" v="Småtjønna" />
		<tag k="natural" v="water" />
		<tag k="ssr:stedsnr" v="136361" />
	</node>
	<node lat="65.16305833494116" lon="13.149113882980282" id="-15023">
		<tag k="name" v="Sealmanjaevrie" />
		<tag k="name:sma" v="Sealmanjaevrie" />
		<tag k="natural" v="water" />
		<tag k="ssr:stedsnr" v="136557" />
	</node>
	<node lat="65.65266666897149" lon="13.590508328795526" id="-15024">
		<tag k="name" v="Blanktjønna" />
		<tag k="natural" v="water" />
		<tag k="ssr:stedsnr" v="136563" />
	</node>
	<node lat="65.24602222314884" lon="13.440533325683113" id="-15028">
		<tag k="loc_name:no" v="Øver-Fiplingvatnet" />
		<tag k="name" v="Eerhtsjaevrie" />
		<tag k="name:no" v="Øvre Fiplingvatnet" />
		<tag k="name:sma" v="Eerhtsjaevrie" />
		<tag k="natural" v="water" />
		<tag k="ssr:stedsnr" v="136746" />
		<tag k="water" v="lake" />
	</node>
	<node lat="65.32813333319406" lon="13.261044444015873" id="-15033">
		<tag k="name" v="Gåsvasselva - Sarvejællanjohke" />
		<tag k="name:no" v="Gåsvasselva" />
		<tag k="name:sma" v="Sarvejællanjohke" />
		<tag k="ssr:stedsnr" v="136660" />
		<tag k="waterway" v="river" />
	</node>
	<node lat="65.2247250005081" lon="13.764777772447358" id="-15034">
		<tag k="name" v="Kvigvatnet - Voenjelenjaevrie" />
		<tag k="name:no" v="Kvigvatnet" />
		<tag k="name:sma" v="Voenjelenjaevrie" />
		<tag k="natural" v="water" />
		<tag k="ssr:stedsnr" v="136847" />
		<tag k="water" v="lake" />
	</node>
	<node lat="65.68412500027871" lon="13.272027772676223" id="-15051">
		<tag k="name" v="Ytterholsbekken" />
		<tag k="ssr:stedsnr" v="155442" />
		<tag k="waterway" v="stream" />
	</node>
	<node lat="65.54084721882029" lon="13.39295278168529" id="-15060">
		<tag k="name" v="Stranda" />
		<tag k="natural" v="beach" />
		<tag k="ssr:stedsnr" v="156000" />
	</node>
	<node lat="65.39633333229489" lon="13.636219442839487" id="-15063">
		<tag k="name" v="Storholmen" />
		<tag k="place" v="islet" />
		<tag k="ssr:stedsnr" v="157858" />
	</node>
	<node lat="65.64402777562752" lon="13.431411118291082" id="-15076">
		<tag k="name" v="Vesterlibekken" />
		<tag k="ssr:stedsnr" v="258498" />
		<tag k="waterway" v="stream" />
	</node>
	<node lat="65.53395833208951" lon="13.46625277560917" id="-15083">
		<tag k="name" v="Joibekken" />
		<tag k="ssr:stedsnr" v="258342" />
		<tag k="waterway" v="stream" />
	</node>
	<node lat="65.60368611522813" lon="13.580844444029335" id="-15087">
		<tag k="name" v="Storfisktjønnan" />
		<tag k="natural" v="water" />
		<tag k="ssr:stedsnr" v="258621" />
		<tag k="water" v="lake" />
	</node>
	<node lat="65.60423888576507" lon="13.489494452798304" id="-15088">
		<tag k="name" v="Kringletjønnan" />
		<tag k="natural" v="water" />
		<tag k="ssr:stedsnr" v="258627" />
		<tag k="water" v="lake" />
	</node>
	<node lat="65.73521944754242" lon="13.535980554253673" id="-15090">
		<tag k="name" v="Meskienjaevrie" />
		<tag k="name:sma" v="Meskienjaevrie" />
		<tag k="natural" v="water" />
		<tag k="ssr:stedsnr" v="258728" />
	</node>
	<node lat="65.72613888519814" lon="13.498625005435994" id="-15092">
		<tag k="alt_name:no" v="Svartvatnet, nordre" />
		<tag k="name" v="Nordre Svartvatnet - Tjeehpesjaevrie" />
		<tag k="name:no" v="Nordre Svartvatnet" />
		<tag k="name:sma" v="Tjeehpesjaevrie" />
		<tag k="natural" v="water" />
		<tag k="ssr:stedsnr" v="258737" />
		<tag k="water" v="lake" />
	</node>
	<node lat="65.37286944486655" lon="13.56659166831213" id="-15096">
		<tag k="name" v="Guevtelenjaevrie" />
		<tag k="name:no" v="Stortjønna" />
		<tag k="name:sma" v="Guevtelenjaevrie" />
		<tag k="natural" v="water" />
		<tag k="ssr:stedsnr" v="258900" />
	</node>
	<node lat="65.5865444404226" lon="13.515919449015376" id="-15121">
		<tag k="name" v="Svarttjønna" />
		<tag k="natural" v="water" />
		<tag k="ssr:stedsnr" v="197607" />
	</node>
	<node lat="65.53409166294152" lon="13.729008324177308" id="-15133">
		<tag k="name" v="Stillelva" />
		<tag k="ssr:stedsnr" v="198766" />
		<tag k="waterway" v="river" />
	</node>
	<node lat="65.48620555207266" lon="13.657913890781401" id="-15169">
		<tag k="name" v="Trettengbekken" />
		<tag k="ssr:stedsnr" v="216807" />
		<tag k="waterway" v="stream" />
	</node>
	<node lat="65.53260000401401" lon="13.392822216641385" id="-15171">
		<tag k="name" v="Båfjellmoholmen" />
		<tag k="place" v="islet" />
		<tag k="ssr:stedsnr" v="216593" />
	</node>
	<node lat="65.59950000013201" lon="13.402524996084308" id="-15175">
		<tag k="name" v="Kvannmyrbekken" />
		<tag k="ssr:stedsnr" v="216875" />
		<tag k="waterway" v="stream" />
	</node>
	<node lat="65.45825277829539" lon="13.590025008980746" id="-15177">
		<tag k="name" v="Kappfjellelva" />
		<tag k="ssr:stedsnr" v="217430" />
		<tag k="waterway" v="river" />
	</node>
	<node lat="65.51468888906189" lon="13.50626945415642" id="-15178">
		<tag k="name" v="Vassbekken" />
		<tag k="ssr:stedsnr" v="217678" />
		<tag k="waterway" v="stream" />
	</node>
	<node lat="65.1190000008785" lon="13.241319447729811" id="-15200">
		<tag k="name" v="Nordvatnet" />
		<tag k="natural" v="water" />
		<tag k="ssr:stedsnr" v="257707" />
	</node>
	<node lat="65.38070000123685" lon="13.175200000523708" id="-15202">
		<tag k="name" v="Bijjiejaevrie" />
		<tag k="name:sma" v="Bijjiejaevrie" />
		<tag k="natural" v="water" />
		<tag k="ssr:stedsnr" v="258102" />
		<tag k="water" v="lake" />
	</node>
	<node lat="65.55980555260115" lon="13.756983327179567" id="-15204">
		<tag k="name" v="Storvassbekken" />
		<tag k="ssr:stedsnr" v="258204" />
		<tag k="waterway" v="stream" />
	</node>
	<node lat="65.67041944409563" lon="13.56252776864244" id="-15208">
		<tag k="name" v="Osen" />
		<tag k="place" v="locality" />
		<tag k="ssr:stedsnr" v="258532" />
	</node>
	<node lat="65.63996111470915" lon="13.287477770234112" id="-15211">
		<tag k="name" v="Svarttjønna" />
		<tag k="natural" v="water" />
		<tag k="ssr:stedsnr" v="258553" />
	</node>
	<node lat="65.61172778000041" lon="13.538788898214774" id="-15214">
		<tag k="name" v="Steinfjelltjønna" />
		<tag k="natural" v="water" />
		<tag k="ssr:stedsnr" v="258603" />
	</node>
	<node lat="65.74167500098646" lon="13.50467776751468" id="-15215">
		<tag k="name" v="Klypfjelltjønnbekken - Glunhkienjohke" />
		<tag k="name:no" v="Klypfjelltjønnbekken" />
		<tag k="name:sma" v="Glunhkienjohke" />
		<tag k="ssr:stedsnr" v="258665" />
		<tag k="waterway" v="stream" />
	</node>
	<node lat="65.61130833732054" lon="13.291444441781358" id="-15243">
		<tag k="name" v="Dalforsen" />
		<tag k="natural" v="waterfall" />
		<tag k="ssr:stedsnr" v="459193" />
	</node>
	<node lat="65.47093333219856" lon="13.605886114913869" id="-15245">
		<tag k="name" v="Krokbekken" />
		<tag k="ssr:stedsnr" v="459389" />
		<tag k="waterway" v="stream" />
	</node>
	<node lat="65.6365083310855" lon="13.26702777055033" id="-15250">
		<tag k="name" v="Gammeljordstryket" />
		<tag k="ssr:stedsnr" v="276324" />
		<tag k="waterway" v="rapids" />
	</node>
	<node lat="65.68312222175506" lon="13.522950007180388" id="-15259">
		<tag k="name" v="Jamtfjellelva" />
		<tag k="ssr:stedsnr" v="278724" />
		<tag k="waterway" v="river" />
	</node>
	<node lat="65.66689444466991" lon="13.525847231235106" id="-15270">
		<tag k="name" v="Taumbekken" />
		<tag k="ssr:stedsnr" v="318544" />
		<tag k="waterway" v="stream" />
	</node>
	<node lat="65.66706944496643" lon="13.576516658473468" id="-15271">
		<tag k="name" v="Grasgjota" />
		<tag k="ssr:stedsnr" v="318545" />
		<tag k="waterway" v="stream" />
	</node>
	<node lat="65.40782222242635" lon="13.159374994970914" id="-15279">
		<tag k="name" v="Sealmanvatnet - Sealmanjaevrie" />
		<tag k="name:no" v="Sealmanvatnet" />
		<tag k="name:sma" v="Sealmanjaevrie" />
		<tag k="natural" v="water" />
		<tag k="ssr:stedsnr" v="319094" />
	</node>
	<node lat="65.61099999691902" lon="13.294877783387987" id="-15280">
		<tag k="alt_name" v="Lilleelva" />
		<tag k="name" v="Litlelva" />
		<tag k="ssr:stedsnr" v="319593" />
		<tag k="waterway" v="stream" />
	</node>
	<node lat="65.70643333237322" lon="13.404200001867832" id="-15281">
		<tag k="name" v="Åsskardtjønnan - Vaajjanjaevrie" />
		<tag k="name:no" v="Åsskardtjønnan" />
		<tag k="name:sma" v="Vaajjanjaevrie" />
		<tag k="natural" v="water" />
		<tag k="ssr:stedsnr" v="319686" />
		<tag k="water" v="lake" />
	</node>
	<node lat="65.68087499611532" lon="13.522544446282254" id="-15282">
		<tag k="name" v="Jamtneset" />
		<tag k="natural" v="cape" />
		<tag k="ssr:stedsnr" v="319699" />
	</node>
	<node lat="65.35244722633367" lon="13.539113883051204" id="-15285">
		<tag k="name" v="Gåetiebealanjaevrie" />
		<tag k="name:no" v="Sørtjønna" />
		<tag k="name:sma" v="Gåetiebealanjaevrie" />
		<tag k="natural" v="water" />
		<tag k="ssr:stedsnr" v="319889" />
	</node>
	<node lat="65.45464166816757" lon="13.394488884623732" id="-15305">
		<tag k="name" v="Storholmen" />
		<tag k="place" v="islet" />
		<tag k="ssr:stedsnr" v="337195" />
	</node>
	<node lat="65.58736666619839" lon="13.419850010430423" id="-15310">
		<tag k="name" v="Mølnbekken" />
		<tag k="ssr:stedsnr" v="337911" />
		<tag k="waterway" v="stream" />
	</node>
	<node lat="65.35239721842709" lon="13.238202784765013" id="-15316">
		<tag k="name" v="Gåsvatnet - Sarvejællanjaevrie" />
		<tag k="name:no" v="Gåsvatnet" />
		<tag k="name:sma" v="Sarvejællanjaevrie" />
		<tag k="natural" v="water" />
		<tag k="ssr:stedsnr" v="379121" />
		<tag k="water" v="lake" />
	</node>
	<node lat="65.6339861087368" lon="13.620394433860426" id="-15319">
		<tag k="name" v="Snelielva" />
		<tag k="ssr:stedsnr" v="379505" />
		<tag k="waterway" v="stream" />
	</node>
	<node lat="65.62140277847777" lon="13.416169434017695" id="-15320">
		<tag k="name" v="Almdalsforsen" />
		<tag k="natural" v="waterfall" />
		<tag k="ssr:stedsnr" v="379510" />
	</node>
	<node lat="65.63448888475648" lon="13.50600555009192" id="-15324">
		<tag k="name" v="Langtjønna - Årroejaevrie" />
		<tag k="name:no" v="Langtjønna" />
		<tag k="name:sma" v="Årroejaevrie" />
		<tag k="natural" v="water" />
		<tag k="ssr:stedsnr" v="379473" />
	</node>
	<node lat="65.63548889146907" lon="13.625386115021083" id="-15325">
		<tag k="name" v="Finnbekken" />
		<tag k="ssr:stedsnr" v="379482" />
		<tag k="waterway" v="stream" />
	</node>
	<node lat="65.71276388579237" lon="13.54376388645584" id="-15327">
		<tag k="name" v="Jamtfjellelva - Njaarkenjohke" />
		<tag k="name:no" v="Jamtfjellelva" />
		<tag k="name:sma" v="Njaarkenjohke" />
		<tag k="ssr:stedsnr" v="379711" />
		<tag k="waterway" v="river" />
	</node>
	<node lat="65.42256388726864" lon="13.391947211320629" id="-15329">
		<tag k="alt_name" v="Svenningdalselva" />
		<tag k="name" v="Svenningelva" />
		<tag k="ssr:stedsnr" v="379913" />
		<tag k="waterway" v="river" />
	</node>
	<node lat="65.45782778136049" lon="13.743077781477222" id="-15331">
		<tag k="name" v="Vinterskardelva" />
		<tag k="ssr:stedsnr" v="379818" />
		<tag k="waterway" v="stream" />
	</node>
	<node lat="65.51156944086108" lon="13.38434722670432" id="-15347">
		<tag k="name" v="Stavassia" />
		<tag k="place" v="locality" />
		<tag k="ssr:stedsnr" v="397329" />
	</node>
	<node lat="65.39471944203247" lon="13.655400008157665" id="-15358">
		<tag k="name" v="Storlabekken" />
		<tag k="ssr:stedsnr" v="399839" />
		<tag k="waterway" v="stream" />
	</node>
	<node lat="65.24413611377513" lon="13.952480550321093" id="-15363">
		<tag k="name" v="Sijdurrienjohke" />
		<tag k="name:no" v="Simskardelva" />
		<tag k="name:sma" v="Sijdurrienjohke" />
		<tag k="ssr:stedsnr" v="439847" />
		<tag k="waterway" v="river" />
	</node>
	<node lat="65.55194999833564" lon="13.763986116891234" id="-15368">
		<tag k="name" v="Trolldalsbekken" />
		<tag k="ssr:stedsnr" v="440240" />
		<tag k="waterway" v="stream" />
	</node>
	<node lat="65.6318527805635" lon="13.301438890007233" id="-15378">
		<tag k="fixme" v="multiple name tags, choose one and add the other to alt_name" />
		<tag k="name" v="Mølltjønna;Mølntjønna" />
		<tag k="natural" v="water" />
		<tag k="ssr:stedsnr" v="440513" />
	</node>
	<node lat="65.61354722323834" lon="13.682688898612124" id="-15383">
		<tag k="name" v="Krokvatnet - Tjyjsejaevrie" />
		<tag k="name:no" v="Krokvatnet" />
		<tag k="name:sma" v="Tjyjsejaevrie" />
		<tag k="natural" v="water" />
		<tag k="ssr:stedsnr" v="440589" />
		<tag k="water" v="lake" />
	</node>
	<node lat="65.59796666413722" lon="13.414561107629426" id="-15384">
		<tag k="name" v="Stormobekken" />
		<tag k="ssr:stedsnr" v="440610" />
		<tag k="waterway" v="stream" />
	</node>
	<node lat="65.67198610728799" lon="13.396658321844361" id="-15389">
		<tag k="name" v="Krokbekken" />
		<tag k="ssr:stedsnr" v="440691" />
		<tag k="waterway" v="stream" />
	</node>
	<node lat="65.53054166339209" lon="13.426374994268835" id="-15409">
		<tag k="name" v="Troia" />
		<tag k="place" v="locality" />
		<tag k="ssr:stedsnr" v="458420" />
	</node>
	<node lat="65.63189722421828" lon="13.255036113989494" id="-15411">
		<tag k="name" v="Lauvdalsbekken" />
		<tag k="ssr:stedsnr" v="458802" />
		<tag k="waterway" v="stream" />
	</node>
	<node lat="65.60592221986418" lon="13.318111117116874" id="-15418">
		<tag k="name" v="Holmen" />
		<tag k="place" v="islet" />
		<tag k="ssr:stedsnr" v="459181" />
	</node>
	<node lat="65.62717499674146" lon="13.41918055160411" id="-15422">
		<tag k="name" v="Rauforsen" />
		<tag k="natural" v="waterfall" />
		<tag k="ssr:stedsnr" v="459669" />
	</node>
	<node lat="65.1387555588024" lon="13.58383054591823" id="-15430">
		<tag k="name" v="Orrekvatnet - Urrehkedurrienjaevrie" />
		<tag k="name:no" v="Orrekvatnet" />
		<tag k="name:sma" v="Urrehkedurrienjaevrie" />
		<tag k="natural" v="water" />
		<tag k="ssr:stedsnr" v="500742" />
		<tag k="water" v="lake" />
	</node>
	<node lat="65.2362888852752" lon="13.555580554085617" id="-15432">
		<tag k="name" v="Båarhkenjaavretjh" />
		<tag k="name:sma" v="Båarhkenjaavretjh" />
		<tag k="natural" v="water" />
		<tag k="old_name:sma" v="Baarkenjaavretjh" />
		<tag k="ssr:stedsnr" v="500801" />
		<tag k="water" v="lake" />
	</node>
	<node lat="65.40630000177345" lon="13.671991662734031" id="-15436">
		<tag k="name" v="Sagbekken" />
		<tag k="ssr:stedsnr" v="500936" />
		<tag k="waterway" v="stream" />
	</node>
	<node lat="65.39868055346416" lon="13.358591662994224" id="-15437">
		<tag k="name" v="Brennåsbekken" />
		<tag k="ssr:stedsnr" v="500939" />
		<tag k="waterway" v="stream" />
	</node>
	<node lat="65.75502499921846" lon="13.444313890196744" id="-15444">
		<tag k="name" v="Tjåelmienjohke" />
		<tag k="name:sma" v="Tjåelmienjohke" />
		<tag k="ssr:stedsnr" v="501643" />
		<tag k="waterway" v="stream" />
	</node>
	<node lat="65.6314749984479" lon="13.28105555368849" id="-15446">
		<tag k="alt_name" v="Mølnbekken" />
		<tag k="name" v="Møllbekken" />
		<tag k="ssr:stedsnr" v="501739" />
		<tag k="waterway" v="stream" />
	</node>
	<node lat="65.49124444412713" lon="13.410566658456885" id="-15452">
		<tag k="name" v="Kroken" />
		<tag k="ssr:stedsnr" v="501982" />
		<tag k="waterway" v="river" />
	</node>
	<node lat="65.59459166675632" lon="13.694127788221246" id="-15456">
		<tag k="name" v="Store Fjellbekktjønna" />
		<tag k="natural" v="water" />
		<tag k="ssr:stedsnr" v="682632" />
	</node>
	<node lat="65.16577778005713" lon="13.701475005112648" id="-15462">
		<tag k="name" v="Vajavatnet - Vaajjanjaevrie" />
		<tag k="name:no" v="Vajavatnet" />
		<tag k="name:sma" v="Vaajjanjaevrie" />
		<tag k="natural" v="water" />
		<tag k="ssr:stedsnr" v="682763" />
		<tag k="water" v="lake" />
	</node>
	<node lat="65.43139999672732" lon="13.556863884139403" id="-15472">
		<tag k="name" v="Kappskardbekken" />
		<tag k="ssr:stedsnr" v="682951" />
		<tag k="waterway" v="stream" />
	</node>
	<node lat="65.33957499636165" lon="13.17344722777016" id="-15481">
		<tag k="name" v="Jienemesdurrienjohke" />
		<tag k="name:no" v="Jordbruelva" />
		<tag k="name:sma" v="Jienemesdurrienjohke" />
		<tag k="ssr:stedsnr" v="683001" />
		<tag k="waterway" v="river" />
	</node>
	<node lat="65.37665000215004" lon="13.201963886748114" id="-15484">
		<tag k="name" v="Gaskejaevrie" />
		<tag k="name:sma" v="Gaskejaevrie" />
		<tag k="natural" v="water" />
		<tag k="ssr:stedsnr" v="683097" />
	</node>
	<node lat="65.74944166988556" lon="13.485944446583247" id="-15500">
		<tag k="name" v="Ømmervåkja - Tjåelmie" />
		<tag k="name:no" v="Ømmervåkja" />
		<tag k="name:sma" v="Tjåelmie" />
		<tag k="place" v="locality" />
		<tag k="ssr:stedsnr" v="683635" />
	</node>
	<node lat="65.69458055783164" lon="13.63399722964444" id="-15501">
		<tag k="name" v="Raudvatnet - Raavrejaevrie" />
		<tag k="name:no" v="Raudvatnet" />
		<tag k="name:sma" v="Raavrejaevrie" />
		<tag k="natural" v="water" />
		<tag k="ssr:stedsnr" v="683686" />
		<tag k="water" v="lake" />
	</node>
	<node lat="65.38886090525804" lon="13.364947372730683" id="-15506">
		<tag k="name" v="Vasselva" />
		<tag k="ssr:stedsnr" v="683891" />
		<tag k="waterway" v="river" />
	</node>
	<node lat="65.6801805544417" lon="13.253813882047417" id="-15513">
		<tag k="name" v="Stordalsbekken" />
		<tag k="ssr:stedsnr" v="519470" />
		<tag k="waterway" v="stream" />
	</node>
	<node lat="65.66594999921588" lon="13.555299990761144" id="-15517">
		<tag k="alt_name" v="Gluggvatnet, øvre;Øvre Gluggvatnet" />
		<tag k="name" v="Øvergluggvatnet" />
		<tag k="natural" v="water" />
		<tag k="ssr:stedsnr" v="560538" />
		<tag k="water" v="lake" />
	</node>
	<node lat="65.15743055969533" lon="13.788186114974712" id="-15521">
		<tag k="alt_name:sma" v="Bissiejohke" />
		<tag k="name" v="Bissiedurrienjohke" />
		<tag k="name:no" v="Bisseggelva" />
		<tag k="name:sma" v="Bissiedurrienjohke" />
		<tag k="ssr:stedsnr" v="560827" />
		<tag k="waterway" v="river" />
	</node>
	<node lat="65.61460833435869" lon="13.316052785968019" id="-15555">
		<tag k="name" v="Osdalsbekken" />
		<tag k="ssr:stedsnr" v="580003" />
		<tag k="waterway" v="stream" />
	</node>
	<node lat="65.62303055407877" lon="13.287358333770715" id="-15565">
		<tag k="name" v="Storvika" />
		<tag k="natural" v="bay" />
		<tag k="ssr:stedsnr" v="580108" />
	</node>
	<node lat="65.68061111172167" lon="13.519283338375184" id="-15568">
		<tag k="name" v="Jamtfjellnesan" />
		<tag k="natural" v="cape" />
		<tag k="ssr:stedsnr" v="581697" />
	</node>
	<node lat="65.55999721766972" lon="13.706758339175757" id="-15573">
		<tag k="name" v="Pålholbekken" />
		<tag k="ssr:stedsnr" v="700354" />
		<tag k="waterway" v="stream" />
	</node>
	<node lat="65.65742500010488" lon="13.282477781483037" id="-15581">
		<tag k="name" v="Hannabekkhola" />
		<tag k="place" v="locality" />
		<tag k="ssr:stedsnr" v="701498" />
	</node>
	<node lat="65.62636667084031" lon="13.265672226304751" id="-15587">
		<tag k="name" v="Lillebekken" />
		<tag k="ssr:stedsnr" v="701809" />
		<tag k="waterway" v="stream" />
	</node>
	<node lat="65.54636389186014" lon="13.390311101943151" id="-15591">
		<tag k="name" v="Lilleholmen" />
		<tag k="place" v="islet" />
		<tag k="ssr:stedsnr" v="701989" />
	</node>
	<node lat="65.65055555241095" lon="13.277491660955617" id="-15593">
		<tag k="name" v="Ytra" />
		<tag k="ssr:stedsnr" v="621602" />
		<tag k="waterway" v="stream" />
	</node>
	<node lat="65.5932222184963" lon="13.729319443683345" id="-15602">
		<tag k="name" v="Ostjønnbekken" />
		<tag k="ssr:stedsnr" v="622016" />
		<tag k="waterway" v="stream" />
	</node>
	<node lat="65.56121388937514" lon="13.60573611118239" id="-15605">
		<tag k="name" v="Nernestjønna" />
		<tag k="natural" v="water" />
		<tag k="ssr:stedsnr" v="622311" />
	</node>
	<node lat="65.6015361104209" lon="13.663227770007417" id="-15607">
		<tag k="name" v="Nesttjønna - Vueliejaevrie" />
		<tag k="name:no" v="Nesttjønna" />
		<tag k="name:sma" v="Vueliejaevrie" />
		<tag k="natural" v="water" />
		<tag k="ssr:stedsnr" v="622605" />
	</node>
	<node lat="65.77473610950584" lon="13.55847222410336" id="-15608">
		<tag k="name" v="Gjøbergtjønna" />
		<tag k="natural" v="water" />
		<tag k="ssr:stedsnr" v="622562" />
	</node>
	<node lat="65.62232499546747" lon="13.303055561279084" id="-15637">
		<tag k="name" v="Osen" />
		<tag k="natural" v="bay" />
		<tag k="ssr:stedsnr" v="640129" />
	</node>
	<node lat="65.50009721925127" lon="13.39488334112233" id="-15638">
		<tag k="name" v="Fløttneset" />
		<tag k="natural" v="cape" />
		<tag k="ssr:stedsnr" v="640311" />
	</node>
	<node lat="65.62631666541547" lon="13.274622219551656" id="-15643">
		<tag k="name" v="Risøra" />
		<tag k="natural" v="shoal" />
		<tag k="place" v="locality" />
		<tag k="ssr:stedsnr" v="640375" />
	</node>
	<node lat="65.43236944790885" lon="13.65980555213029" id="-15650">
		<tag k="name" v="Ol-Gregsa-bekken" />
		<tag k="ssr:stedsnr" v="641233" />
		<tag k="waterway" v="stream" />
	</node>
	<node lat="65.63860833669902" lon="13.495030560622075" id="-15660">
		<tag k="name" v="Nordtjønna" />
		<tag k="natural" v="water" />
		<tag k="ssr:stedsnr" v="682558" />
	</node>
	<node lat="65.64151388479921" lon="13.527838883846025" id="-15664">
		<tag k="name" v="Grasbakktjønna" />
		<tag k="natural" v="water" />
		<tag k="ssr:stedsnr" v="682578" />
	</node>
	<node lat="65.65903400066884" lon="13.56621113211014" id="-15666">
		<tag k="alt_name:no" v="Fiskelauselva" />
		<tag k="name" v="Fisklauselva - Guelehtsjaevrienjohke" />
		<tag k="name:no" v="Fisklauselva" />
		<tag k="name:sma" v="Guelehtsjaevrienjohke" />
		<tag k="ssr:stedsnr" v="682616" />
		<tag k="waterway" v="river" />
	</node>
	<node lat="65.36050555455384" lon="13.735569447712496" id="-15668">
		<tag k="name" v="Laupskardvatnet - Luspienjaevrie" />
		<tag k="name:no" v="Laupskardvatnet" />
		<tag k="name:sma" v="Luspienjaevrie" />
		<tag k="natural" v="water" />
		<tag k="ssr:stedsnr" v="682821" />
	</node>
	<node lat="65.529902774701" lon="13.672261105288865" id="-15670">
		<tag k="name" v="Dalebekken" />
		<tag k="ssr:stedsnr" v="683316" />
		<tag k="waterway" v="stream" />
	</node>
	<node lat="65.52930000308326" lon="13.44695277559893" id="-15671">
		<tag k="name" v="Storforsen" />
		<tag k="natural" v="waterfall" />
		<tag k="ssr:stedsnr" v="683327" />
	</node>
	<node lat="65.72985000240783" lon="13.449066666023814" id="-15675">
		<tag k="name" v="Raastejohke" />
		<tag k="name:sma" v="Raastejohke" />
		<tag k="ssr:stedsnr" v="683721" />
		<tag k="waterway" v="stream" />
	</node>
	<node lat="65.7188555514771" lon="13.495325007819226" id="-15677">
		<tag k="name" v="Maadtegenjohke" />
		<tag k="name:sma" v="Maadtegenjohke" />
		<tag k="ssr:stedsnr" v="683727" />
		<tag k="waterway" v="stream" />
	</node>
	<node lat="65.28778888448124" lon="13.435349998534564" id="-15680">
		<tag k="name" v="Sagbekken" />
		<tag k="ssr:stedsnr" v="683856" />
		<tag k="waterway" v="stream" />
	</node>
	<node lat="65.62129444783935" lon="13.303602786951382" id="-15700">
		<tag k="name" v="Nesan" />
		<tag k="natural" v="cape" />
		<tag k="ssr:stedsnr" v="701108" />
	</node>
	<node lat="65.62051110784893" lon="13.287847218791896" id="-15702">
		<tag k="name" v="Møllbekken" />
		<tag k="ssr:stedsnr" v="701062" />
		<tag k="waterway" v="stream" />
	</node>
	<node lat="65.64659166907248" lon="13.42145556293008" id="-15709">
		<tag k="name" v="Tullneset" />
		<tag k="natural" v="cape" />
		<tag k="ssr:stedsnr" v="701619" />
	</node>
	<node lat="65.530347224064" lon="13.391983330437522" id="-15710">
		<tag k="name" v="Neset" />
		<tag k="natural" v="cape" />
		<tag k="ssr:stedsnr" v="701660" />
	</node>
	<node lat="65.48272222587183" lon="13.640661100915706" id="-15715">
		<tag k="name" v="Storbekken" />
		<tag k="ssr:stedsnr" v="702813" />
		<tag k="waterway" v="stream" />
	</node>
	<node lat="65.52297778129228" lon="13.565274990538258" id="-15718">
		<tag k="name" v="Svartvassia" />
		<tag k="place" v="locality" />
		<tag k="ssr:stedsnr" v="703210" />
	</node>
	<node lat="65.41566944338224" lon="13.659905564524344" id="-15719">
		<tag k="name" v="Nerosen" />
		<tag k="natural" v="bay" />
		<tag k="ssr:stedsnr" v="703215" />
	</node>
	<node lat="65.11652777873832" lon="13.209458330087992" id="-15723">
		<tag k="name" v="Jervheimtjønnan" />
		<tag k="natural" v="water" />
		<tag k="ssr:stedsnr" v="742538" />
		<tag k="water" v="lake" />
	</node>
	<node lat="65.58890555770364" lon="13.550075011137167" id="-15730">
		<tag k="name" v="Austerauget" />
		<tag k="natural" v="water" />
		<tag k="ssr:stedsnr" v="743627" />
	</node>
	<node lat="65.59178055257846" lon="13.53332222770358" id="-15731">
		<tag k="name" v="Røyrtjønna" />
		<tag k="natural" v="water" />
		<tag k="ssr:stedsnr" v="743629" />
	</node>
	<node lat="65.59339722475195" lon="13.571119453972889" id="-15735">
		<tag k="name" v="Midtre Klovtjønna" />
		<tag k="natural" v="water" />
		<tag k="ssr:stedsnr" v="743583" />
	</node>
	<node lat="65.21701944513717" lon="13.11477223087328" id="-15736">
		<tag k="name" v="Holmtjønna" />
		<tag k="natural" v="water" />
		<tag k="ssr:stedsnr" v="743585" />
	</node>
	<node lat="65.67190277360422" lon="13.269344437386028" id="-15739">
		<tag k="alt_name" v="Mølnbekken" />
		<tag k="name" v="Møllbekken" />
		<tag k="ssr:stedsnr" v="743709" />
		<tag k="waterway" v="stream" />
	</node>
	<node lat="65.49499166373114" lon="13.266725004614358" id="-15743">
		<tag k="name" v="Stavvatnet" />
		<tag k="natural" v="water" />
		<tag k="ssr:stedsnr" v="743979" />
	</node>
	<node lat="65.67707777743973" lon="13.243252776312543" id="-15759">
		<tag k="name" v="Stiholbekken" />
		<tag k="ssr:stedsnr" v="761522" />
		<tag k="waterway" v="stream" />
	</node>
	<node lat="65.16702777981007" lon="13.309752781370896" id="-15769">
		<tag k="name" v="Maajehjaevrie" />
		<tag k="name:no" v="Majavatnet" />
		<tag k="name:sma" v="Maajehjaevrie" />
		<tag k="natural" v="water" />
		<tag k="ssr:stedsnr" v="803719" />
		<tag k="water" v="lake" />
	</node>
	<node lat="65.53908055159144" lon="13.666319443364847" id="-15775">
		<tag k="name" v="Nylabekken" />
		<tag k="ssr:stedsnr" v="804366" />
		<tag k="waterway" v="stream" />
	</node>
	<node lat="65.59248888448548" lon="13.30510278345426" id="-15805">
		<tag k="name" v="Bjørkneselva" />
		<tag k="ssr:stedsnr" v="823364" />
		<tag k="waterway" v="river" />
	</node>
	<node lat="65.63297500409406" lon="13.443147230710995" id="-15806">
		<tag k="name" v="Stillsundholman" />
		<tag k="place" v="islet" />
		<tag k="ssr:stedsnr" v="823563" />
	</node>
	<node lat="65.64754166868686" lon="13.422608335917522" id="-15808">
		<tag k="name" v="Vesterelva" />
		<tag k="ssr:stedsnr" v="823571" />
		<tag k="waterway" v="river" />
	</node>
	<node lat="65.7432333373215" lon="13.44114721787729" id="-15812">
		<tag k="name" v="Melketjønnan - Buhtjemejaevrie" />
		<tag k="name:no" v="Melketjønnan" />
		<tag k="name:sma" v="Buhtjemejaevrie" />
		<tag k="natural" v="water" />
		<tag k="ssr:stedsnr" v="926636" />
		<tag k="water" v="lake" />
	</node>
	<node lat="65.55953055525525" lon="13.500097222715352" id="-15815">
		<tag k="name" v="Holmtjønna" />
		<tag k="natural" v="water" />
		<tag k="ssr:stedsnr" v="925367" />
	</node>
	<node lat="65.65652499749748" lon="13.27988055222708" id="-15817">
		<tag k="name" v="Hannabekken" />
		<tag k="ssr:stedsnr" v="925584" />
		<tag k="waterway" v="stream" />
	</node>
	<node lat="65.63898333061955" lon="13.242041670669128" id="-15819">
		<tag k="name" v="Svalbekken" />
		<tag k="ssr:stedsnr" v="925588" />
		<tag k="waterway" v="stream" />
	</node>
	<node lat="65.59677221954284" lon="13.703758328744149" id="-15823">
		<tag k="name" v="Litle Fjellbekktjønna" />
		<tag k="natural" v="water" />
		<tag k="ssr:stedsnr" v="925617" />
	</node>
	<node lat="65.56430555739068" lon="13.393080550094552" id="-15824">
		<tag k="name" v="Fellingforsholmen" />
		<tag k="place" v="islet" />
		<tag k="ssr:stedsnr" v="925620" />
	</node>
	<node lat="65.55852222252234" lon="13.714694441288199" id="-15829">
		<tag k="name" v="Pålholtjønna" />
		<tag k="natural" v="water" />
		<tag k="ssr:stedsnr" v="848104" />
	</node>
	<node lat="65.41863889173312" lon="13.569152779598436" id="-15833">
		<tag k="name" v="Litlengåsbekken" />
		<tag k="ssr:stedsnr" v="925947" />
		<tag k="waterway" v="stream" />
	</node>
	<node lat="65.62614999773093" lon="13.240813886015692" id="-15839">
		<tag k="name" v="Leirbekken" />
		<tag k="ssr:stedsnr" v="926490" />
		<tag k="waterway" v="stream" />
	</node>
	<node lat="65.62150833174941" lon="13.559972227554722" id="-15842">
		<tag k="name" v="Steinfjellbekken - Gierkietjahkenjohke" />
		<tag k="name:no" v="Steinfjellbekken" />
		<tag k="name:sma" v="Gierkietjahkenjohke" />
		<tag k="ssr:stedsnr" v="926588" />
		<tag k="waterway" v="stream" />
	</node>
	<node lat="65.25195277693491" lon="13.237891671260885" id="-15845">
		<tag k="name" v="Ohtje Såaloehjaevrie" />
		<tag k="name:no" v="Litlholmvatnet" />
		<tag k="name:sma" v="Ohtje Såaloehjaevrie" />
		<tag k="natural" v="water" />
		<tag k="ssr:stedsnr" v="926833" />
	</node>
	<node lat="65.70687499800573" lon="13.42867778760976" id="-15848">
		<tag k="name" v="Åsskardelva - Vaajjanjohke" />
		<tag k="name:no" v="Åsskardelva" />
		<tag k="name:sma" v="Vaajjanjohke" />
		<tag k="ssr:stedsnr" v="926740" />
		<tag k="waterway" v="river" />
	</node>
	<node lat="65.36031666687585" lon="13.488711114201339" id="-15849">
		<tag k="name" v="Gabtedurrienjaevrie" />
		<tag k="name:no" v="Breiskardvatnet" />
		<tag k="name:sma" v="Gabtedurrienjaevrie" />
		<tag k="natural" v="water" />
		<tag k="ssr:stedsnr" v="926896" />
	</node>
	<node lat="65.49482222337141" lon="13.368152777786099" id="-15860">
		<tag k="name" v="Langvassbekken" />
		<tag k="ssr:stedsnr" v="883208" />
		<tag k="waterway" v="stream" />
	</node>
	<node lat="65.4556416702609" lon="13.368461106047302" id="-15863">
		<tag k="name" v="Skardforsen" />
		<tag k="natural" v="waterfall" />
		<tag k="ssr:stedsnr" v="883257" />
	</node>
	<node lat="65.5335083354485" lon="13.539172215215872" id="-15868">
		<tag k="name" v="Nerneset" />
		<tag k="natural" v="cape" />
		<tag k="ssr:stedsnr" v="884798" />
	</node>
	<node lat="65.53128055507383" lon="13.5025833357609" id="-15887">
		<tag k="name" v="Skomibekken" />
		<tag k="ssr:stedsnr" v="926320" />
		<tag k="waterway" v="stream" />
	</node>
	<node lat="65.62771111227909" lon="13.511116674225798" id="-15893">
		<tag k="name" v="Småtjønnan" />
		<tag k="natural" v="water" />
		<tag k="ssr:stedsnr" v="926511" />
		<tag k="water" v="lake" />
	</node>
	<node lat="65.62959722550494" lon="13.49236111554843" id="-15894">
		<tag k="name" v="Sørtjønna" />
		<tag k="natural" v="water" />
		<tag k="ssr:stedsnr" v="926512" />
	</node>
	<node lat="65.2730583300927" lon="13.325836104037116" id="-15898">
		<tag k="loc_name:sma" v="Tjievriesjaevrie" />
		<tag k="name" v="Skearoesjaevrie" />
		<tag k="name:no" v="Kjerringvatnet" />
		<tag k="name:sma" v="Skearoesjaevrie" />
		<tag k="natural" v="water" />
		<tag k="ssr:stedsnr" v="926866" />
		<tag k="water" v="lake" />
	</node>
	<node lat="65.4534833361698" lon="13.390877770650969" id="-15916">
		<tag k="name" v="Blåfjellneset" />
		<tag k="natural" v="cape" />
		<tag k="ssr:stedsnr" v="944204" />
	</node>
	<node lat="65.6538333294681" lon="13.280730544401804" id="-15918">
		<tag k="name" v="Dinabekken" />
		<tag k="ssr:stedsnr" v="944485" />
		<tag k="waterway" v="stream" />
	</node>
	<node lat="65.65926666270029" lon="13.565652767809832" id="-15931">
		<tag k="name" v="Storforsen" />
		<tag k="natural" v="waterfall" />
		<tag k="ssr:stedsnr" v="946685" />
	</node>
	<node lat="65.19378889019515" lon="13.542824993150498" id="-15976">
		<tag k="name" v="Kuvatnet - Guvsehkenjaevrie" />
		<tag k="name:no" v="Kuvatnet" />
		<tag k="name:sma" v="Guvsehkenjaevrie" />
		<tag k="natural" v="water" />
		<tag k="ssr:stedsnr" v="15732" />
		<tag k="water" v="lake" />
	</node>
	<node lat="65.25166111435666" lon="13.764841670486797" id="-15978">
		<tag k="alt_name:no" v="Måsskardvatnet, vestre" />
		<tag k="name" v="Vestre Måsskardvatnet - Moevsdurrienjaevrie" />
		<tag k="name:no" v="Vestre Måsskardvatnet" />
		<tag k="name:sma" v="Moevsdurrienjaevrie" />
		<tag k="natural" v="water" />
		<tag k="ssr:stedsnr" v="15748" />
		<tag k="water" v="lake" />
	</node>
	<node lat="65.64839999637636" lon="13.491641655641617" id="-15982">
		<tag k="name" v="Leita" />
		<tag k="ssr:stedsnr" v="15545" />
		<tag k="waterway" v="stream" />
	</node>
	<node lat="65.61418610919537" lon="13.371355558419724" id="-15984">
		<tag k="name" v="Skardbekken" />
		<tag k="ssr:stedsnr" v="15559" />
		<tag k="waterway" v="stream" />
	</node>
	<node lat="65.62553889327788" lon="13.30838889307307" id="-15985">
		<tag k="name" v="Svallbekken" />
		<tag k="ssr:stedsnr" v="15561" />
		<tag k="waterway" v="stream" />
	</node>
	<node lat="65.62564166281875" lon="13.64073610800687" id="-15986">
		<tag k="name" v="Rømmartjønna - Rapmerejaevrie" />
		<tag k="name:no" v="Rømmartjønna" />
		<tag k="name:sma" v="Rapmerejaevrie" />
		<tag k="natural" v="water" />
		<tag k="ssr:stedsnr" v="15562" />
	</node>
	<node lat="65.66475741354184" lon="13.416191331058894" id="-15987">
		<tag k="fixme" v="multiple name tags, choose one and add the other to alt_name" />
		<tag k="name" v="Sør Tverrelva;Tverrelva" />
		<tag k="ssr:stedsnr" v="15576" />
		<tag k="waterway" v="stream" />
	</node>
	<node lat="65.57201666499485" lon="13.481997216076566" id="-15994">
		<tag k="name" v="Risryggbekken" />
		<tag k="ssr:stedsnr" v="15600" />
		<tag k="waterway" v="stream" />
	</node>
	<node lat="65.57111111487193" lon="13.565658327026881" id="-15995">
		<tag k="name" v="Tuvtjønna" />
		<tag k="natural" v="water" />
		<tag k="ssr:stedsnr" v="15627" />
	</node>
	<node lat="65.63842777575536" lon="13.418700002166014" id="-15997">
		<tag k="name" v="Mølnbekken" />
		<tag k="ssr:stedsnr" v="15789" />
		<tag k="waterway" v="stream" />
	</node>
	<node lat="65.47918333217586" lon="13.761808334042763" id="-15998">
		<tag k="name" v="Sommarskardelva" />
		<tag k="ssr:stedsnr" v="15868" />
		<tag k="waterway" v="stream" />
	</node>
	<node lat="65.57179166914217" lon="13.397069454841047" id="-16018">
		<tag k="name" v="Fellingforsen" />
		<tag k="natural" v="waterfall" />
		<tag k="ssr:stedsnr" v="33459" />
	</node>
	<node lat="65.62275555832963" lon="13.420519434215425" id="-16023">
		<tag k="name" v="Storforsen" />
		<tag k="natural" v="waterfall" />
		<tag k="ssr:stedsnr" v="33944" />
	</node>
	<node lat="65.64056389001401" lon="13.42379444703079" id="-16032">
		<tag k="name" v="Nesbekken" />
		<tag k="ssr:stedsnr" v="34457" />
		<tag k="waterway" v="stream" />
	</node>
	<node lat="65.59930833421629" lon="13.395663881969051" id="-16035">
		<tag k="name" v="Tjyvholet" />
		<tag k="place" v="locality" />
		<tag k="ssr:stedsnr" v="34858" />
	</node>
	<node lat="65.66467778202082" lon="13.570572213127967" id="-16037">
		<tag k="name" v="Mølnbekken" />
		<tag k="ssr:stedsnr" v="35693" />
		<tag k="waterway" v="stream" />
	</node>
	<node lat="65.66867222500122" lon="13.294936103234614" id="-16041">
		<tag k="name" v="Svallbekken" />
		<tag k="ssr:stedsnr" v="39039" />
		<tag k="waterway" v="stream" />
	</node>
	<node lat="65.23634999992964" lon="13.608444450190447" id="-16046">
		<tag k="name" v="Rørskardelva - Raavredendurrienjohke" />
		<tag k="name:no" v="Rørskardelva" />
		<tag k="name:sma" v="Raavredendurrienjohke" />
		<tag k="ssr:stedsnr" v="75763" />
		<tag k="waterway" v="river" />
	</node>
	<node lat="65.34851944378562" lon="13.362088893473302" id="-16065">
		<tag k="name" v="Svijjege" />
		<tag k="name:no" v="Litlsvenningvatnet" />
		<tag k="name:sma" v="Svijjege" />
		<tag k="natural" v="water" />
		<tag k="ssr:stedsnr" v="76887" />
		<tag k="water" v="lake" />
	</node>
	<node lat="65.24318945209002" lon="13.306838974451908" id="-16069">
		<tag k="name" v="Sohkerde" />
		<tag k="name:no" v="Sefrivatnet" />
		<tag k="name:sma" v="Sohkerde" />
		<tag k="natural" v="water" />
		<tag k="ssr:stedsnr" v="76835" />
		<tag k="water" v="lake" />
	</node>
	<node lat="65.41403055214744" lon="13.61741943567434" id="-16071">
		<tag k="name" v="Oksholet" />
		<tag k="natural" v="water" />
		<tag k="ssr:stedsnr" v="76919" />
	</node>
	<node lat="65.48050833124294" lon="13.383125001007976" id="-16090">
		<tag k="name" v="Karidalsbekken" />
		<tag k="ssr:stedsnr" v="94158" />
		<tag k="waterway" v="stream" />
	</node>
	<node lat="65.46100833428616" lon="13.635075005860687" id="-16101">
		<tag k="name" v="Djupbekken" />
		<tag k="ssr:stedsnr" v="95027" />
		<tag k="waterway" v="stream" />
	</node>
	<node lat="65.6132722259389" lon="13.322433331692245" id="-16102">
		<tag k="name" v="Jonsokslettbekken" />
		<tag k="ssr:stedsnr" v="95028" />
		<tag k="waterway" v="stream" />
	</node>
	<node lat="65.62242222411044" lon="13.270655557241636" id="-16105">
		<tag k="name" v="Dalbekken" />
		<tag k="ssr:stedsnr" v="95108" />
		<tag k="waterway" v="stream" />
	</node>
	<node lat="65.66565000329051" lon="13.579394448405155" id="-16110">
		<tag k="name" v="Appfjellbekken" />
		<tag k="ssr:stedsnr" v="96655" />
		<tag k="waterway" v="stream" />
	</node>
	<node lat="65.66407778111783" lon="13.26715555235341" id="-16112">
		<tag k="name" v="Kløvbekken" />
		<tag k="ssr:stedsnr" v="100049" />
		<tag k="waterway" v="stream" />
	</node>
	<node lat="65.60291666768535" lon="13.730799995761325" id="-16117">
		<tag k="name" v="Røyetjønna" />
		<tag k="natural" v="water" />
		<tag k="ssr:stedsnr" v="136122" />
	</node>
	<node lat="65.61785278210503" lon="13.621916657788647" id="-16126">
		<tag k="name" v="Snelitjønna - Båvnetjænna" />
		<tag k="name:no" v="Snelitjønna" />
		<tag k="name:sma" v="Båvnetjænna" />
		<tag k="natural" v="water" />
		<tag k="ssr:stedsnr" v="136626" />
	</node>
	<node lat="65.58364721983524" lon="13.566447217425766" id="-16128">
		<tag k="name" v="Grunntjønna" />
		<tag k="natural" v="water" />
		<tag k="ssr:stedsnr" v="136584" />
	</node>
	<node lat="65.56596389284638" lon="13.582730550353228" id="-16129">
		<tag k="name" v="Tuvtjønnbekken" />
		<tag k="ssr:stedsnr" v="136590" />
		<tag k="waterway" v="stream" />
	</node>
	<node lat="65.52311111067056" lon="13.608061101032993" id="-16142">
		<tag k="name" v="Bjorbekken" />
		<tag k="ssr:stedsnr" v="137334" />
		<tag k="waterway" v="stream" />
	</node>
	<node lat="65.59967778233839" lon="13.716177772185915" id="-16144">
		<tag k="alt_name" v="Holmvatnet, l" />
		<tag k="name" v="Litle Holmvatnet" />
		<tag k="natural" v="water" />
		<tag k="ssr:stedsnr" v="137589" />
	</node>
	<node lat="65.59578889261631" lon="13.61627222570285" id="-16145">
		<tag k="name" v="Pilfjellelva" />
		<tag k="ssr:stedsnr" v="137594" />
		<tag k="waterway" v="stream" />
	</node>
	<node lat="65.59823259372725" lon="13.681101757775274" id="-16146">
		<tag k="name" v="Holmvatnet - Såålejaevrie" />
		<tag k="name:no" v="Holmvatnet" />
		<tag k="name:sma" v="Såålejaevrie" />
		<tag k="natural" v="water" />
		<tag k="ssr:stedsnr" v="137596" />
	</node>
	<node lat="65.67517500166765" lon="13.29133056605408" id="-16148">
		<tag k="alt_name" v="Sæterbekken" />
		<tag k="name" v="Seterbekken" />
		<tag k="ssr:stedsnr" v="137671" />
		<tag k="waterway" v="stream" />
	</node>
	<node lat="65.33037500373631" lon="13.618438889859357" id="-16151">
		<tag k="name" v="Møllebekken" />
		<tag k="ssr:stedsnr" v="137870" />
		<tag k="waterway" v="stream" />
	</node>
	<node lat="65.62339444828184" lon="13.288800008583596" id="-16176">
		<tag k="name" v="Storviknasen" />
		<tag k="natural" v="cape" />
		<tag k="ssr:stedsnr" v="155116" />
	</node>
	<node lat="65.51870555949817" lon="13.554233327305635" id="-16193">
		<tag k="name" v="Stabbia" />
		<tag k="place" v="locality" />
		<tag k="ssr:stedsnr" v="156722" />
	</node>
	<node lat="65.66836944078076" lon="13.544219436266458" id="-16194">
		<tag k="name" v="Mellomvasstraumen" />
		<tag k="ssr:stedsnr" v="157668" />
		<tag k="waterway" v="rapids" />
	</node>
	<node lat="65.65552499560388" lon="13.223930561751045" id="-16197">
		<tag k="name" v="Tvillingbekken" />
		<tag k="ssr:stedsnr" v="197585" />
		<tag k="waterway" v="stream" />
	</node>
	<node lat="65.1286916695372" lon="13.215355562925788" id="-16198">
		<tag k="name" v="Vesterelva" />
		<tag k="ssr:stedsnr" v="196511" />
		<tag k="waterway" v="river" />
	</node>
	<node lat="65.15138610877342" lon="13.323566670907063" id="-16201">
		<tag k="name" v="Grannestangen" />
		<tag k="natural" v="cape" />
		<tag k="ssr:stedsnr" v="196687" />
	</node>
	<node lat="65.33330555933172" lon="13.514613878847774" id="-16205">
		<tag k="name" v="Tøymskardvatnet" />
		<tag k="natural" v="water" />
		<tag k="ssr:stedsnr" v="197894" />
	</node>
	<node lat="65.56369444390072" lon="13.47520000098091" id="-16211">
		<tag k="name" v="Risryggtjønnan" />
		<tag k="natural" v="water" />
		<tag k="ssr:stedsnr" v="197616" />
		<tag k="water" v="lake" />
	</node>
	<node lat="65.66543333106625" lon="13.377113891810247" id="-16214">
		<tag k="name" v="Fallmoskardelva - Båarhkenjohke" />
		<tag k="name:no" v="Fallmoskardelva" />
		<tag k="name:sma" v="Båarhkenjohke" />
		<tag k="ssr:stedsnr" v="197590" />
		<tag k="waterway" v="stream" />
	</node>
	<node lat="65.7491333335019" lon="13.581547214116316" id="-16215">
		<tag k="name" v="Jamtfjelldalstjønna - Njaarkenjaevrie" />
		<tag k="name:no" v="Jamtfjelldalstjønna" />
		<tag k="name:sma" v="Njaarkenjaevrie" />
		<tag k="natural" v="water" />
		<tag k="ssr:stedsnr" v="197688" />
	</node>
	<node lat="65.41907777719739" lon="13.684777775326218" id="-16220">
		<tag k="alt_name:no" v="Storvegskarelva" />
		<tag k="alt_name:sma" v="Gyöjnedhjohke" />
		<tag k="name" v="Storvegskardelva - Gyöjnedhdurrienjohke" />
		<tag k="name:no" v="Storvegskardelva" />
		<tag k="name:sma" v="Gyöjnedhdurrienjohke" />
		<tag k="ssr:stedsnr" v="197937" />
		<tag k="waterway" v="stream" />
	</node>
	<node lat="65.44446388570348" lon="13.3997583409216" id="-16228">
		<tag k="name" v="Sørneset" />
		<tag k="natural" v="cape" />
		<tag k="ssr:stedsnr" v="197963" />
	</node>
	<node lat="65.60396111085318" lon="13.669869437232954" id="-16236">
		<tag k="name" v="Kroktjønnelva" />
		<tag k="ssr:stedsnr" v="198602" />
		<tag k="waterway" v="stream" />
	</node>
	<node lat="65.63873333372365" lon="13.41681388250825" id="-16270">
		<tag k="name" v="Merraforsen" />
		<tag k="natural" v="waterfall" />
		<tag k="ssr:stedsnr" v="217541" />
	</node>
	<node lat="65.6406805574427" lon="13.283155546958294" id="-16273">
		<tag k="name" v="Svarttjønnbekken" />
		<tag k="ssr:stedsnr" v="276315" />
		<tag k="waterway" v="stream" />
	</node>
	<node lat="65.61657777931502" lon="13.408511103678308" id="-16280">
		<tag k="name" v="Brugjotholmane" />
		<tag k="place" v="islet" />
		<tag k="ssr:stedsnr" v="276965" />
	</node>
	<node lat="65.47109444138964" lon="13.651088887256853" id="-16283">
		<tag k="name" v="Kløvforsen" />
		<tag k="natural" v="waterfall" />
		<tag k="ssr:stedsnr" v="277038" />
	</node>
	<node lat="65.57266666862942" lon="13.597191659287326" id="-16302">
		<tag k="name" v="Finnkotbekken" />
		<tag k="ssr:stedsnr" v="318594" />
		<tag k="waterway" v="stream" />
	</node>
	<node lat="65.58982221962594" lon="13.56775277053976" id="-16303">
		<tag k="name" v="Nedre Klovtjønna" />
		<tag k="natural" v="water" />
		<tag k="ssr:stedsnr" v="318624" />
	</node>
	<node lat="65.59693332947504" lon="13.57493888745129" id="-16304">
		<tag k="name" v="Øvre Klovtjønna" />
		<tag k="natural" v="water" />
		<tag k="ssr:stedsnr" v="318626" />
	</node>
	<node lat="65.55509166829876" lon="13.409183328860825" id="-16306">
		<tag k="name" v="Almdalselva" />
		<tag k="ssr:stedsnr" v="318330" />
		<tag k="waterway" v="stream" />
	</node>
	<node lat="65.56310833378372" lon="13.58275556039667" id="-16307">
		<tag k="name" v="Svarttjønnbekken" />
		<tag k="ssr:stedsnr" v="318334" />
		<tag k="waterway" v="stream" />
	</node>
	<node lat="65.42615833617063" lon="13.060463891519683" id="-16308">
		<tag k="name" v="Elgviddvatnet" />
		<tag k="natural" v="water" />
		<tag k="ssr:stedsnr" v="318087" />
		<tag k="water" v="lake" />
	</node>
	<node lat="65.58696666685061" lon="13.670741660526765" id="-16315">
		<tag k="name" v="Fjellbekken" />
		<tag k="ssr:stedsnr" v="318574" />
		<tag k="waterway" v="stream" />
	</node>
	<node lat="65.58488611088985" lon="13.558433334763258" id="-16316">
		<tag k="name" v="Milstøttjønna" />
		<tag k="natural" v="water" />
		<tag k="ssr:stedsnr" v="318576" />
	</node>
	<node lat="65.24232222304482" lon="13.143925007356467" id="-16317">
		<tag k="name" v="Namnlausa - Årrahguevtelenjaevrie" />
		<tag k="name:no" v="Namnlausa" />
		<tag k="name:sma" v="Årrahguevtelenjaevrie" />
		<tag k="natural" v="water" />
		<tag k="ssr:stedsnr" v="318579" />
		<tag k="water" v="lake" />
	</node>
	<node lat="65.58001389015418" lon="13.536830560434403" id="-16318">
		<tag k="name" v="Stortjønna - Guevtelsjaevrie" />
		<tag k="name:no" v="Stortjønna" />
		<tag k="name:sma" v="Guevtelsjaevrie" />
		<tag k="natural" v="water" />
		<tag k="ssr:stedsnr" v="318583" />
	</node>
	<node lat="65.62207778141519" lon="13.263266676876531" id="-16329">
		<tag k="name" v="Rognlibekken" />
		<tag k="ssr:stedsnr" v="319508" />
		<tag k="waterway" v="stream" />
	</node>
	<node lat="65.67991111375078" lon="13.573758335249783" id="-16333">
		<tag k="name" v="Dølibekken" />
		<tag k="ssr:stedsnr" v="319721" />
		<tag k="waterway" v="stream" />
	</node>
	<node lat="65.72575555992965" lon="13.59163887898925" id="-16334">
		<tag k="name" v="Laptenjaavretje" />
		<tag k="name:sma" v="Laptenjaavretje" />
		<tag k="natural" v="water" />
		<tag k="ssr:stedsnr" v="319722" />
	</node>
	<node lat="65.26614167099707" lon="13.398338882857557" id="-16338">
		<tag k="name" v="Båarhkenjaevrie" />
		<tag k="name:no" v="Jervskardtjønna" />
		<tag k="name:sma" v="Båarhkenjaevrie" />
		<tag k="natural" v="water" />
		<tag k="ssr:stedsnr" v="319868" />
	</node>
	<node lat="65.61841666731779" lon="13.51590000214076" id="-16343">
		<tag k="name" v="Sørelva" />
		<tag k="ssr:stedsnr" v="319761" />
		<tag k="waterway" v="river" />
	</node>
	<node lat="65.48993332995246" lon="13.363744439590516" id="-16346">
		<tag k="name" v="Langvatnet" />
		<tag k="natural" v="water" />
		<tag k="ssr:stedsnr" v="319979" />
	</node>
	<node lat="65.6711833343278" lon="13.238155566248432" id="-16366">
		<tag k="name" v="Sølvskålhola" />
		<tag k="place" v="locality" />
		<tag k="ssr:stedsnr" v="337463" />
	</node>
	<node lat="65.64686388954749" lon="13.471999990217796" id="-16368">
		<tag k="name" v="Vadmoholman" />
		<tag k="place" v="islet" />
		<tag k="ssr:stedsnr" v="337566" />
	</node>
	<node lat="65.24366666354508" lon="13.428491675404903" id="-16388">
		<tag k="name" v="Jannesnjuana" />
		<tag k="name:sma" v="Jannesnjuana" />
		<tag k="natural" v="cape" />
		<tag k="ssr:stedsnr" v="378748" />
	</node>
	<node lat="65.74856666468577" lon="13.45736943645509" id="-16389">
		<tag k="name" v="Gluhpienjohke" />
		<tag k="name:sma" v="Gluhpienjohke" />
		<tag k="ssr:stedsnr" v="379638" />
		<tag k="waterway" v="stream" />
	</node>
	<node lat="65.72632499956906" lon="13.215577780404905" id="-16392">
		<tag k="name" v="Vefsna - Vaapstenjeanoe" />
		<tag k="name:no" v="Vefsna" />
		<tag k="name:sma" v="Vaapstenjeanoe" />
		<tag k="ssr:stedsnr" v="379733" />
		<tag k="waterway" v="river" />
	</node>
	<node lat="65.54324999789358" lon="13.592386119824301" id="-16393">
		<tag k="name" v="Svartvasselva - Tjeehpesjaevrienjohke" />
		<tag k="name:no" v="Svartvasselva" />
		<tag k="name:sma" v="Tjeehpesjaevrienjohke" />
		<tag k="ssr:stedsnr" v="379737" />
		<tag k="waterway" v="river" />
	</node>
	<node lat="65.53345278021058" lon="13.654144453828163" id="-16398">
		<tag k="name" v="Lomtjønna" />
		<tag k="natural" v="water" />
		<tag k="ssr:stedsnr" v="379337" />
	</node>
	<node lat="65.6047777743818" lon="13.38489999339823" id="-16401">
		<tag k="fixme" v="multiple name tags, choose one and add the other to alt_name" />
		<tag k="name" v="Mølnbekken;Haugmølnbekken" />
		<tag k="ssr:stedsnr" v="379498" />
		<tag k="waterway" v="stream" />
	</node>
	<node lat="65.59057777504054" lon="13.646849991032878" id="-16403">
		<tag k="name" v="Nestvasselva" />
		<tag k="ssr:stedsnr" v="379565" />
		<tag k="waterway" v="stream" />
	</node>
	<node lat="65.22775555698368" lon="13.101958325818343" id="-16404">
		<tag k="name" v="Jienemesguevtelenjohke" />
		<tag k="name:sma" v="Jienemesguevtelenjohke" />
		<tag k="ssr:stedsnr" v="379566" />
		<tag k="waterway" v="river" />
	</node>
	<node lat="65.56146388575553" lon="13.57095000029001" id="-16405">
		<tag k="name" v="Svarttjønna" />
		<tag k="natural" v="water" />
		<tag k="ssr:stedsnr" v="379567" />
	</node>
	<node lat="65.57224444143408" lon="13.650749998571019" id="-16407">
		<tag k="name" v="Lomtjønna" />
		<tag k="natural" v="water" />
		<tag k="ssr:stedsnr" v="379573" />
	</node>
	<node lat="65.60385555169542" lon="13.302008333241817" id="-16409">
		<tag k="alt_name" v="Bjordalselva" />
		<tag k="name" v="Bjorelva" />
		<tag k="ssr:stedsnr" v="379579" />
		<tag k="waterway" v="river" />
	</node>
	<node lat="65.58488333225169" lon="13.284927775086372" id="-16413">
		<tag k="name" v="Storskogbekken" />
		<tag k="ssr:stedsnr" v="379599" />
		<tag k="waterway" v="stream" />
	</node>
	<node lat="65.69750278058281" lon="13.448561114265475" id="-16415">
		<tag k="name" v="Osbekken" />
		<tag k="ssr:stedsnr" v="379673" />
		<tag k="waterway" v="stream" />
	</node>
	<node lat="65.32547222351963" lon="13.354966670582515" id="-16425">
		<tag k="name" v="Svijjege" />
		<tag k="name:no" v="Storsvenningvatnet" />
		<tag k="name:sma" v="Svijjege" />
		<tag k="natural" v="water" />
		<tag k="ssr:stedsnr" v="379858" />
		<tag k="water" v="lake" />
	</node>
	<node lat="65.42392777476094" lon="13.671230548205315" id="-16448">
		<tag k="name" v="Storforsen" />
		<tag k="natural" v="waterfall" />
		<tag k="ssr:stedsnr" v="391366" />
	</node>
	<node lat="65.57022499813345" lon="13.738627787570326" id="-16450">
		<tag k="name" v="Kroktjønnbekken" />
		<tag k="ssr:stedsnr" v="396293" />
		<tag k="waterway" v="stream" />
	</node>
	<node lat="65.48257500164074" lon="13.404744455047984" id="-16453">
		<tag k="name" v="Høgåsbekken" />
		<tag k="ssr:stedsnr" v="397165" />
		<tag k="waterway" v="stream" />
	</node>
	<node lat="65.53583333295403" lon="13.394291676748281" id="-16459">
		<tag k="name" v="Troforsen" />
		<tag k="ssr:stedsnr" v="397669" />
		<tag k="waterway" v="rapids" />
	</node>
	<node lat="65.621280553946" lon="13.40529444826477" id="-16461">
		<tag k="name" v="Moldbakktjønna" />
		<tag k="natural" v="water" />
		<tag k="ssr:stedsnr" v="397957" />
	</node>
	<node lat="65.2203138846194" lon="13.336444451895852" id="-16476">
		<tag k="alt_name:sma" v="Maajehjaevrie, ohtje" />
		<tag k="name" v="Ohtje Maajehjaevrie" />
		<tag k="name:no" v="Litl-Majavatnet" />
		<tag k="name:sma" v="Ohtje Maajehjaevrie" />
		<tag k="natural" v="water" />
		<tag k="ssr:stedsnr" v="439723" />
		<tag k="water" v="lake" />
	</node>
	<node lat="65.22352777984388" lon="13.202949998237807" id="-16483">
		<tag k="name" v="Såaloehmehkienjohke" />
		<tag k="name:no" v="Holmvasselva" />
		<tag k="name:sma" v="Såaloehmehkienjohke" />
		<tag k="ssr:stedsnr" v="439570" />
		<tag k="waterway" v="river" />
	</node>
	<node lat="65.11769166919586" lon="13.609477771223897" id="-16484">
		<tag k="name" v="Langvatnet - Bliehrehke" />
		<tag k="name:no" v="Langvatnet" />
		<tag k="name:sma" v="Bliehrehke" />
		<tag k="natural" v="water" />
		<tag k="ssr:stedsnr" v="439669" />
		<tag k="water" v="lake" />
	</node>
	<node lat="65.63298333343299" lon="13.632102788534056" id="-16488">
		<tag k="name" v="Rømmarbekken - Rapmerejaevrienjohke" />
		<tag k="name:no" v="Rømmarbekken" />
		<tag k="name:sma" v="Rapmerejaevrienjohke" />
		<tag k="ssr:stedsnr" v="440532" />
		<tag k="waterway" v="stream" />
	</node>
	<node lat="65.65644722548599" lon="13.480025004159172" id="-16489">
		<tag k="name" v="Gluggvasselva" />
		<tag k="ssr:stedsnr" v="440534" />
		<tag k="waterway" v="river" />
	</node>
	<node lat="65.65639999890007" lon="13.532452777338303" id="-16490">
		<tag k="name" v="Langtjønnbekken" />
		<tag k="ssr:stedsnr" v="440536" />
		<tag k="waterway" v="stream" />
	</node>
	<node lat="65.65131944626404" lon="13.534833325149997" id="-16495">
		<tag k="name" v="Litllangtjønna" />
		<tag k="natural" v="water" />
		<tag k="ssr:stedsnr" v="440561" />
	</node>
	<node lat="65.18389444702191" lon="13.630825008235647" id="-16498">
		<tag k="name" v="Dorrekselva" />
		<tag k="ssr:stedsnr" v="440668" />
		<tag k="waterway" v="river" />
	</node>
	<node lat="65.34142777498845" lon="13.493408329516724" id="-16504">
		<tag k="name" v="Mealhkoenjohke" />
		<tag k="name:sma" v="Mealhkoenjohke" />
		<tag k="ssr:stedsnr" v="440872" />
		<tag k="waterway" v="stream" />
	</node>
	<node lat="65.45483611214549" lon="13.25092221276539" id="-16507">
		<tag k="name" v="Langskardelva" />
		<tag k="ssr:stedsnr" v="440965" />
		<tag k="waterway" v="river" />
	</node>
	<node lat="65.11785277769077" lon="13.650763887657615" id="-16512">
		<tag k="name" v="Jengelvatnet - Giengelvihke" />
		<tag k="name:no" v="Jengelvatnet" />
		<tag k="name:sma" v="Giengelvihke" />
		<tag k="natural" v="water" />
		<tag k="ssr:stedsnr" v="499615" />
		<tag k="water" v="lake" />
	</node>
	<node lat="65.472661113526" lon="13.189374997127493" id="-16515">
		<tag k="name" v="Feitskardvatnet - Buejtiesdurrienjaevrie" />
		<tag k="name:no" v="Feitskardvatnet" />
		<tag k="name:sma" v="Buejtiesdurrienjaevrie" />
		<tag k="natural" v="water" />
		<tag k="ssr:stedsnr" v="500079" />
		<tag k="water" v="lake" />
	</node>
	<node lat="65.52087221856485" lon="13.42554165710851" id="-16520">
		<tag k="name" v="Kråtjønna" />
		<tag k="natural" v="water" />
		<tag k="ssr:stedsnr" v="501358" />
	</node>
	<node lat="65.5806194423147" lon="13.587833331778512" id="-16522">
		<tag k="name" v="Nordfjelltjønna" />
		<tag k="natural" v="water" />
		<tag k="ssr:stedsnr" v="500645" />
	</node>
	<node lat="65.22150000358151" lon="13.175055557705294" id="-16523">
		<tag k="alt_name:no" v="Holmvatnet, store" />
		<tag k="name" v="Store Holmvatnet - Såålejaevrie" />
		<tag k="name:no" v="Store Holmvatnet" />
		<tag k="name:sma" v="Såålejaevrie" />
		<tag k="natural" v="water" />
		<tag k="ssr:stedsnr" v="500653" />
		<tag k="water" v="lake" />
	</node>
	<node lat="65.59932777478343" lon="13.286527785532003" id="-16538">
		<tag k="name" v="Krokbekken" />
		<tag k="ssr:stedsnr" v="501569" />
		<tag k="waterway" v="stream" />
	</node>
	<node lat="65.67056944412106" lon="13.242052772204566" id="-16539">
		<tag k="name" v="Smådalsbekken" />
		<tag k="ssr:stedsnr" v="501688" />
		<tag k="waterway" v="stream" />
	</node>
	<node lat="65.76461389220471" lon="13.533036119109632" id="-16543">
		<tag k="name" v="Vekthustjønna" />
		<tag k="natural" v="water" />
		<tag k="ssr:stedsnr" v="501660" />
	</node>
	<node lat="65.35004244548558" lon="13.586534176518526" id="-16548">
		<tag k="loc_name:no" v="Ner-Fiplingvatnet" />
		<tag k="name" v="Fijhpelogkoe" />
		<tag k="name:no" v="Nedre Fiplingvatnet" />
		<tag k="name:sma" v="Fijhpelogkoe" />
		<tag k="natural" v="water" />
		<tag k="ssr:stedsnr" v="501871" />
		<tag k="water" v="lake" />
	</node>
	<node lat="65.36165555992304" lon="13.545013892891284" id="-16550">
		<tag k="name" v="Guhkiesjaevrie" />
		<tag k="name:no" v="Smaltjønna" />
		<tag k="name:sma" v="Guhkiesjaevrie" />
		<tag k="natural" v="water" />
		<tag k="ssr:stedsnr" v="501886" />
	</node>
	<node lat="65.51408055665466" lon="13.39779166322001" id="-16574">
		<tag k="name" v="Kvannholet" />
		<tag k="place" v="locality" />
		<tag k="ssr:stedsnr" v="519294" />
	</node>
	<node lat="65.51261944618095" lon="13.38765000473724" id="-16575">
		<tag k="name" v="Granneset" />
		<tag k="natural" v="cape" />
		<tag k="ssr:stedsnr" v="519298" />
	</node>
	<node lat="65.64537499615504" lon="13.471800001503121" id="-16594">
		<tag k="name" v="Nils-Klemsoforsen" />
		<tag k="natural" v="waterfall" />
		<tag k="ssr:stedsnr" v="520599" />
	</node>
	<node lat="65.668697222769" lon="13.558016675559902" id="-16600">
		<tag k="name" v="Tangen" />
		<tag k="natural" v="cape" />
		<tag k="ssr:stedsnr" v="521688" />
	</node>
	<node lat="65.56537777874081" lon="13.72976389649613" id="-16604">
		<tag k="name" v="Åsmyrtjønnan" />
		<tag k="natural" v="water" />
		<tag k="ssr:stedsnr" v="537050" />
		<tag k="water" v="lake" />
	</node>
	<node lat="65.56488889095407" lon="13.729027768175278" id="-16605">
		<tag k="name" v="Åsmyrtjønna" />
		<tag k="natural" v="water" />
		<tag k="ssr:stedsnr" v="537779" />
	</node>
	<node lat="65.66482777488287" lon="13.57876111624691" id="-16608">
		<tag k="name" v="Mølntjønna" />
		<tag k="natural" v="water" />
		<tag k="ssr:stedsnr" v="560542" />
	</node>
	<node lat="65.12018611159996" lon="13.118238880251004" id="-16612">
		<tag k="name" v="Stordalsflyin - Njöölvenvealma" />
		<tag k="name:no" v="Stordalsflyin" />
		<tag k="name:sma" v="Njöölvenvealma" />
		<tag k="natural" v="water" />
		<tag k="ssr:stedsnr" v="560570" />
	</node>
	<node lat="65.64027500006563" lon="13.582213888718227" id="-16637">
		<tag k="name" v="Fiskelausvatnet - Guelehtsjaevrie" />
		<tag k="name:no" v="Fiskelausvatnet" />
		<tag k="name:sma" v="Guelehtsjaevrie" />
		<tag k="natural" v="water" />
		<tag k="ssr:stedsnr" v="561509" />
		<tag k="water" v="lake" />
	</node>
	<node lat="65.65050277617856" lon="13.25067501055351" id="-16643">
		<tag k="name" v="Grasørbekken" />
		<tag k="ssr:stedsnr" v="561556" />
		<tag k="waterway" v="stream" />
	</node>
	<node lat="65.59990000295184" lon="13.395905551159665" id="-16645">
		<tag k="name" v="Tjuvholforsen" />
		<tag k="natural" v="waterfall" />
		<tag k="ssr:stedsnr" v="561633" />
	</node>
	<node lat="65.73952222032338" lon="13.449755564715067" id="-16646">
		<tag k="name" v="Melktjønnbekken - Luspienjohke" />
		<tag k="name:no" v="Melktjønnbekken" />
		<tag k="name:sma" v="Luspienjohke" />
		<tag k="ssr:stedsnr" v="561731" />
		<tag k="waterway" v="stream" />
	</node>
	<node lat="65.68116666265269" lon="13.426716674187691" id="-16651">
		<tag k="name" v="Falldalsbekken" />
		<tag k="ssr:stedsnr" v="561718" />
		<tag k="waterway" v="stream" />
	</node>
	<node lat="65.56435277583725" lon="13.753661105684484" id="-16652">
		<tag k="name" v="Gabpenjaevrie - Storvatnet" />
		<tag k="name:no" v="Storvatnet" />
		<tag k="name:sma" v="Gabpenjaevrie" />
		<tag k="natural" v="water" />
		<tag k="ssr:stedsnr" v="561779" />
		<tag k="water" v="lake" />
	</node>
	<node lat="65.40465000136881" lon="13.597566677651958" id="-16659">
		<tag k="name" v="Søre Langtjønna - Guertiesjaevrie" />
		<tag k="name:no" v="Søre Langtjønna" />
		<tag k="name:sma" v="Guertiesjaevrie" />
		<tag k="natural" v="water" />
		<tag k="ssr:stedsnr" v="561909" />
	</node>
	<node lat="65.49865555934356" lon="13.365180547524194" id="-16661">
		<tag k="alt_name" v="Gåstjønna" />
		<tag k="name" v="Yttertjønna" />
		<tag k="natural" v="water" />
		<tag k="ssr:stedsnr" v="561982" />
	</node>
	<node lat="65.5711666643442" lon="13.3989805609138" id="-16697">
		<tag k="name" v="Granholmen" />
		<tag k="place" v="islet" />
		<tag k="ssr:stedsnr" v="579458" />
	</node>
	<node lat="65.65335555980315" lon="13.258105552378153" id="-16709">
		<tag k="name" v="Møllbekken" />
		<tag k="ssr:stedsnr" v="580377" />
		<tag k="waterway" v="stream" />
	</node>
	<node lat="65.43756111020922" lon="13.6880472212054" id="-16711">
		<tag k="name" v="Sagarbekken" />
		<tag k="ssr:stedsnr" v="581309" />
		<tag k="waterway" v="stream" />
	</node>
	<node lat="65.67039444835399" lon="13.553527776099136" id="-16712">
		<tag k="name" v="Grønnvika" />
		<tag k="natural" v="bay" />
		<tag k="ssr:stedsnr" v="581685" />
	</node>
	<node lat="65.49686666442192" lon="13.677422220713257" id="-16713">
		<tag k="name" v="Storforsan" />
		<tag k="natural" v="waterfall" />
		<tag k="ssr:stedsnr" v="585092" />
	</node>
	<node lat="65.64522777693762" lon="13.410466661188861" id="-16726">
		<tag k="name" v="Brennbekken" />
		<tag k="ssr:stedsnr" v="621599" />
		<tag k="waterway" v="stream" />
	</node>
	<node lat="65.64563333661523" lon="13.498888882593542" id="-16731">
		<tag k="name" v="Leitjønna" />
		<tag k="natural" v="water" />
		<tag k="ssr:stedsnr" v="621562" />
	</node>
	<node lat="65.25364857062644" lon="13.457286211620199" id="-16737">
		<tag k="name" v="Eerhtssååle" />
		<tag k="name:no" v="Storholmen" />
		<tag k="name:sma" v="Eerhtssååle" />
		<tag k="place" v="island" />
		<tag k="ssr:stedsnr" v="621860" />
	</node>
	<node lat="65.57194722565838" lon="13.736569445690106" id="-16738">
		<tag k="name" v="Kroktjønna" />
		<tag k="natural" v="water" />
		<tag k="ssr:stedsnr" v="622035" />
	</node>
	<node lat="65.34465000210874" lon="13.478952770556461" id="-16745">
		<tag k="alt_name:sma" v="Ohtje Vinhtsdurrienjaevrie" />
		<tag k="name" v="Båtskardvatnet - Vinhtsdurrienjaevrie, ohtje" />
		<tag k="name:no" v="Båtskardvatnet" />
		<tag k="name:sma" v="Vinhtsdurrienjaevrie, ohtje" />
		<tag k="natural" v="water" />
		<tag k="ssr:stedsnr" v="622891" />
	</node>
	<node lat="65.65951110872594" lon="13.491905545236458" id="-16770">
		<tag k="name" v="Sovarnesbekken" />
		<tag k="ssr:stedsnr" v="640533" />
		<tag k="waterway" v="river" />
	</node>
	<node lat="65.68527222238157" lon="13.244638890819513" id="-16773">
		<tag k="name" v="Turmoia" />
		<tag k="natural" v="water" />
		<tag k="ssr:stedsnr" v="640500" />
		<tag k="water" v="lake" />
	</node>
	<node lat="65.53197500315464" lon="13.395638886312684" id="-16774">
		<tag k="name" v="Holmsundet" />
		<tag k="natural" v="strait" />
		<tag k="ssr:stedsnr" v="640649" />
	</node>
	<node lat="65.6120611131897" lon="13.423391658585224" id="-16776">
		<tag k="name" v="Kvannmyrbekken" />
		<tag k="ssr:stedsnr" v="640943" />
		<tag k="waterway" v="stream" />
	</node>
	<node lat="65.63978333236119" lon="13.458966667071518" id="-16780">
		<tag k="name" v="Jordholman" />
		<tag k="place" v="islet" />
		<tag k="ssr:stedsnr" v="641556" />
	</node>
	<node lat="65.5371500036147" lon="13.542236102135636" id="-16781">
		<tag k="name" v="Olaneset" />
		<tag k="natural" v="cape" />
		<tag k="ssr:stedsnr" v="641794" />
	</node>
	<node lat="65.09615833715169" lon="13.34755277372615" id="-16792">
		<tag k="name" v="Smeelehjaevrie" />
		<tag k="name:no" v="Smalvatnet" />
		<tag k="name:sma" v="Smeelehjaevrie" />
		<tag k="natural" v="water" />
		<tag k="ssr:stedsnr" v="742660" />
		<tag k="water" v="lake" />
	</node>
	<node lat="65.69238055275072" lon="13.463891676032384" id="-16797">
		<tag k="name" v="Svartvasselva - Tjeehpesjaevrienjohke" />
		<tag k="name:no" v="Svartvasselva" />
		<tag k="name:sma" v="Tjeehpesjaevrienjohke" />
		<tag k="ssr:stedsnr" v="743754" />
		<tag k="waterway" v="river" />
	</node>
	<node lat="65.70464999788723" lon="13.527622229766195" id="-16798">
		<tag k="name" v="Stilleelva" />
		<tag k="ssr:stedsnr" v="743755" />
		<tag k="waterway" v="river" />
	</node>
	<node lat="65.53335833306029" lon="13.41954445313072" id="-16808">
		<tag k="fixme" v="multiple name tags, choose one and add the other to alt_name" />
		<tag k="name" v="Almvassbekken;Almbekken" />
		<tag k="ssr:stedsnr" v="743367" />
		<tag k="waterway" v="stream" />
	</node>
	<node lat="65.54621944134895" lon="13.6375472122137" id="-16810">
		<tag k="alt_name" v="Lillevasselva" />
		<tag k="name" v="Litlvasselva" />
		<tag k="ssr:stedsnr" v="743375" />
		<tag k="waterway" v="stream" />
	</node>
	<node lat="65.6320166705174" lon="13.53716111490713" id="-16811">
		<tag k="name" v="Stortjønna" />
		<tag k="natural" v="water" />
		<tag k="ssr:stedsnr" v="743531" />
	</node>
	<node lat="65.65140277795062" lon="13.421683334813222" id="-16814">
		<tag k="alt_name" v="Johansæterforsen" />
		<tag k="name" v="Johanseterforsen" />
		<tag k="natural" v="waterfall" />
		<tag k="ssr:stedsnr" v="743561" />
	</node>
	<node lat="65.7442277743405" lon="13.483158342113901" id="-16816">
		<tag k="name" v="Holmvatnet - Såaloejaevrie" />
		<tag k="name:no" v="Holmvatnet" />
		<tag k="name:sma" v="Såaloejaevrie" />
		<tag k="natural" v="water" />
		<tag k="ssr:stedsnr" v="743668" />
		<tag k="water" v="lake" />
	</node>
	<node lat="65.59264444365373" lon="13.453461113958062" id="-16818">
		<tag k="name" v="Leitjønna" />
		<tag k="natural" v="water" />
		<tag k="ssr:stedsnr" v="743622" />
	</node>
	<node lat="65.68395833246925" lon="13.193075007890517" id="-16828">
		<tag k="name" v="Brennhaugbekken" />
		<tag k="ssr:stedsnr" v="743868" />
		<tag k="waterway" v="stream" />
	</node>
	<node lat="65.41589166687676" lon="13.429202770803576" id="-16830">
		<tag k="name" v="Storskardbekken" />
		<tag k="ssr:stedsnr" v="743930" />
		<tag k="waterway" v="stream" />
	</node>
	<node lat="65.60382222070994" lon="13.680541659851798" id="-16841">
		<tag k="name" v="Midtlivatnet - Vaadtijentjænna" />
		<tag k="name:no" v="Midtlivatnet" />
		<tag k="name:sma" v="Vaadtijentjænna" />
		<tag k="natural" v="water" />
		<tag k="ssr:stedsnr" v="744587" />
	</node>
	<node lat="65.68955277461403" lon="13.593455556127992" id="-16844">
		<tag k="alt_name" v="Raudvassåsbekken" />
		<tag k="name" v="Rauvassåsbekken" />
		<tag k="ssr:stedsnr" v="744659" />
		<tag k="waterway" v="stream" />
	</node>
	<node lat="65.56508888918384" lon="13.739311110844975" id="-16866">
		<tag k="name" v="Åstjønnbekken" />
		<tag k="ssr:stedsnr" v="760336" />
		<tag k="waterway" v="stream" />
	</node>
	<node lat="65.60799444364648" lon="13.33033055068455" id="-16875">
		<tag k="name" v="Holmdalsbekken" />
		<tag k="ssr:stedsnr" v="762188" />
		<tag k="waterway" v="stream" />
	</node>
	<node lat="65.51522499964939" lon="13.407438886758465" id="-16876">
		<tag k="name" v="Krengeltjønna" />
		<tag k="natural" v="water" />
		<tag k="ssr:stedsnr" v="762260" />
	</node>
	<node lat="65.66001110776605" lon="13.270700004390104" id="-16883">
		<tag k="name" v="Hibekken" />
		<tag k="ssr:stedsnr" v="762390" />
		<tag k="waterway" v="stream" />
	</node>
	<node lat="65.10394444043432" lon="13.34807778589525" id="-16892">
		<tag k="name" v="Kvennfossen" />
		<tag k="natural" v="waterfall" />
		<tag k="ssr:stedsnr" v="773362" />
	</node>
	<node lat="65.16795833603652" lon="13.528069434888414" id="-16895">
		<tag k="name" v="Storelva - Smeelehjohke" />
		<tag k="name:no" v="Storelva" />
		<tag k="name:sma" v="Smeelehjohke" />
		<tag k="ssr:stedsnr" v="803761" />
		<tag k="waterway" v="river" />
	</node>
	<node lat="65.76355833208436" lon="13.548300003014642" id="-16905">
		<tag k="name" v="Klubbfjelltjønna - Glunhkienjaevrie" />
		<tag k="name:no" v="Klubbfjelltjønna" />
		<tag k="name:sma" v="Glunhkienjaevrie" />
		<tag k="natural" v="water" />
		<tag k="ssr:stedsnr" v="804708" />
	</node>
	<node lat="65.73806110882443" lon="13.603138888418425" id="-16913">
		<tag k="name" v="Laptenjaevrie" />
		<tag k="name:sma" v="Laptenjaevrie" />
		<tag k="natural" v="water" />
		<tag k="ssr:stedsnr" v="804737" />
	</node>
	<node lat="65.19749444639633" lon="13.147175003957978" id="-16919">
		<tag k="name" v="Måstjønna - Briennedurrienjaevrie" />
		<tag k="name:no" v="Måstjønna" />
		<tag k="name:sma" v="Briennedurrienjaevrie" />
		<tag k="natural" v="water" />
		<tag k="ssr:stedsnr" v="804556" />
	</node>
	<node lat="65.66234444703791" lon="13.36066112234007" id="-16921">
		<tag k="name" v="Fallmoskardtjønna - Båarhkenjaevrie" />
		<tag k="name:no" v="Fallmoskardtjønna" />
		<tag k="name:sma" v="Båarhkenjaevrie" />
		<tag k="natural" v="water" />
		<tag k="ssr:stedsnr" v="804569" />
	</node>
	<node lat="65.58395833754909" lon="13.636894445739353" id="-16925">
		<tag k="name" v="Svartvatnet - Tjeehpesjaevrie" />
		<tag k="name:no" v="Svartvatnet" />
		<tag k="name:sma" v="Tjeehpesjaevrie" />
		<tag k="natural" v="water" />
		<tag k="ssr:stedsnr" v="804594" />
	</node>
	<node lat="65.23569166547878" lon="13.090719450413479" id="-16926">
		<tag k="name" v="Jienemesdurrienjaevrie" />
		<tag k="name:sma" v="Jienemesdurrienjaevrie" />
		<tag k="natural" v="water" />
		<tag k="ssr:stedsnr" v="804597" />
	</node>
	<node lat="65.1889777753773" lon="13.756200002187216" id="-16931">
		<tag k="alt_name:sma" v="Bissiejaevrie, vuelie" />
		<tag k="name" v="Vuelie Bissiejaevrie" />
		<tag k="name:no" v="Søre Bisseggvatnet" />
		<tag k="name:sma" v="Vuelie Bissiejaevrie" />
		<tag k="natural" v="water" />
		<tag k="ssr:stedsnr" v="804835" />
		<tag k="water" v="lake" />
	</node>
	<node lat="65.40177222347923" lon="13.408488899210314" id="-16934">
		<tag k="name" v="Rapbekken" />
		<tag k="ssr:stedsnr" v="804922" />
		<tag k="waterway" v="stream" />
	</node>
	<node lat="65.44578333321657" lon="13.620294442540866" id="-16938">
		<tag k="name" v="Nordre Langtjønna" />
		<tag k="natural" v="water" />
		<tag k="ssr:stedsnr" v="804936" />
	</node>
	<node lat="65.2188666638882" lon="13.72980000948724" id="-16996">
		<tag k="name" v="Bissiejaevrie" />
		<tag k="name:no" v="Nordre Bisseggvatnet" />
		<tag k="name:sma" v="Bissiejaevrie" />
		<tag k="natural" v="water" />
		<tag k="ssr:stedsnr" v="864774" />
		<tag k="water" v="lake" />
	</node>
	<node lat="65.29816944544203" lon="13.35588055143813" id="-17003">
		<tag k="name" v="Hallvardtjønna" />
		<tag k="natural" v="water" />
		<tag k="ssr:stedsnr" v="865861" />
	</node>
	<node lat="65.28793611468436" lon="13.670463889819171" id="-17004">
		<tag k="name" v="Golverskardelva - Gåelviendurrienjohke" />
		<tag k="name:no" v="Golverskardelva" />
		<tag k="name:sma" v="Gåelviendurrienjohke" />
		<tag k="ssr:stedsnr" v="865864" />
		<tag k="waterway" v="river" />
	</node>
	<node lat="65.5344166638842" lon="13.560516666800538" id="-17005">
		<tag k="alt_name" v="Bjørnbekken" />
		<tag k="name" v="Bjønnbekken" />
		<tag k="ssr:stedsnr" v="865369" />
		<tag k="waterway" v="stream" />
	</node>
	<node lat="65.53721110996428" lon="13.362975008469185" id="-17006">
		<tag k="name" v="Storlarsbekken" />
		<tag k="ssr:stedsnr" v="865379" />
		<tag k="waterway" v="stream" />
	</node>
	<node lat="65.51918333612907" lon="13.367516668830586" id="-17009">
		<tag k="name" v="Øvergårdselva" />
		<tag k="ssr:stedsnr" v="865415" />
		<tag k="waterway" v="stream" />
	</node>
	<node lat="65.62960555205954" lon="13.560002781498445" id="-17011">
		<tag k="name" v="Langtjønnelva - Årroejaevrienjohke" />
		<tag k="name:no" v="Langtjønnelva" />
		<tag k="name:sma" v="Årroejaevrienjohke" />
		<tag k="ssr:stedsnr" v="865550" />
		<tag k="waterway" v="river" />
	</node>
	<node lat="65.65696944466293" lon="13.524286111846793" id="-17012">
		<tag k="name" v="Antontjønna" />
		<tag k="natural" v="water" />
		<tag k="ssr:stedsnr" v="865583" />
		<tag k="water" v="pond" />
	</node>
	<node lat="65.58906388686023" lon="13.419547225461988" id="-17018">
		<tag k="name" v="Rabekken" />
		<tag k="ssr:stedsnr" v="865625" />
		<tag k="waterway" v="stream" />
	</node>
	<node lat="65.59894444751747" lon="13.535772229446899" id="-17020">
		<tag k="name" v="Klovtjønnan" />
		<tag k="natural" v="water" />
		<tag k="ssr:stedsnr" v="865634" />
		<tag k="water" v="lake" />
	</node>
	<node lat="65.32420000426679" lon="13.291472213783054" id="-17021">
		<tag k="name" v="Sarvejællanjohke" />
		<tag k="name:no" v="Gåsvasselva" />
		<tag k="name:sma" v="Sarvejællanjohke" />
		<tag k="ssr:stedsnr" v="865662" />
		<tag k="waterway" v="river" />
	</node>
	<node lat="65.34238333740659" lon="13.377724999239613" id="-17027">
		<tag k="name" v="Vinhtsdurrienjaevrie" />
		<tag k="name:no" v="Båtskardvatnet" />
		<tag k="name:sma" v="Vinhtsdurrienjaevrie" />
		<tag k="natural" v="water" />
		<tag k="ssr:stedsnr" v="865889" />
	</node>
	<node lat="65.6366972235037" lon="13.260130549641136" id="-17061">
		<tag k="name" v="Møllebekken" />
		<tag k="ssr:stedsnr" v="883469" />
		<tag k="waterway" v="stream" />
	</node>
	<node lat="65.57271111533605" lon="13.408355558020483" id="-17067">
		<tag k="name" v="Lillebekken" />
		<tag k="ssr:stedsnr" v="883525" />
		<tag k="waterway" v="stream" />
	</node>
	<node lat="65.46506388790499" lon="13.384866665976766" id="-17068">
		<tag k="name" v="Libekken" />
		<tag k="ssr:stedsnr" v="883731" />
		<tag k="waterway" v="stream" />
	</node>
	<node lat="65.6538027816853" lon="13.267355553222371" id="-17077">
		<tag k="name" v="Laneset" />
		<tag k="natural" v="cape" />
		<tag k="ssr:stedsnr" v="884386" />
	</node>
	<node lat="65.63291944066484" lon="13.418936116563248" id="-17078">
		<tag k="name" v="Troforsen" />
		<tag k="natural" v="waterfall" />
		<tag k="ssr:stedsnr" v="884474" />
	</node>
	<node lat="65.64650555651438" lon="13.314822214489084" id="-17080">
		<tag k="name" v="Storskogtjønna" />
		<tag k="natural" v="water" />
		<tag k="ssr:stedsnr" v="884343" />
	</node>
	<node lat="65.51549444622857" lon="13.396486109118063" id="-17098">
		<tag k="name" v="Kvannholstryket" />
		<tag k="ssr:stedsnr" v="944301" />
		<tag k="waterway" v="rapids" />
	</node>
	<node lat="65.50750555745199" lon="13.392797223825625" id="-17099">
		<tag k="name" v="Storforsen" />
		<tag k="natural" v="waterfall" />
		<tag k="ssr:stedsnr" v="944326" />
	</node>
	<node lat="65.53059722248133" lon="13.431972224170867" id="-17106">
		<tag k="name" v="Troa" />
		<tag k="place" v="locality" />
		<tag k="ssr:stedsnr" v="944409" />
	</node>
	<node lat="65.52913610790212" lon="13.451263889416921" id="-17107">
		<tag k="name" v="Joia" />
		<tag k="place" v="locality" />
		<tag k="ssr:stedsnr" v="944413" />
	</node>
	<node lat="65.65105555699861" lon="13.266449995459949" id="-17108">
		<tag k="name" v="Bjorhola" />
		<tag k="place" v="locality" />
		<tag k="ssr:stedsnr" v="944505" />
	</node>
	<node lat="65.46592222635532" lon="13.590208339686564" id="-17114">
		<tag k="name" v="Mølnbekken" />
		<tag k="ssr:stedsnr" v="945386" />
		<tag k="waterway" v="stream" />
	</node>
	<node lat="65.52734166341484" lon="13.50687500472515" id="-17115">
		<tag k="name" v="Skomia" />
		<tag k="natural" v="water" />
		<tag k="ssr:stedsnr" v="945815" />
		<tag k="water" v="lake" />
	</node>
</osm>
