<?xml version="1.0" encoding="UTF-8"?>
<osm version="0.6" generator="osmapis">
	<node lat="65.5590472247554" lon="13.39614999504105" id="-8115">
		<tag k="name" v="Almdalsneset" />
		<tag k="place" v="farm" />
		<tag k="ssr:stedsnr" v="15612" />
	</node>
	<node lat="65.20522499703843" lon="13.382441673742111" id="-8127">
		<tag k="name" v="Myrstad" />
		<tag k="place" v="farm" />
		<tag k="ssr:stedsnr" v="15767" />
	</node>
	<node lat="65.52793888477966" lon="13.47299999655983" id="-8129">
		<tag k="name" v="Barstad" />
		<tag k="place" v="isolated_dwelling" />
		<tag k="ssr:stedsnr" v="16312" />
	</node>
	<node lat="65.60245833551033" lon="13.34055000773943" id="-8130">
		<tag k="name" v="Limoen" />
		<tag k="place" v="farm" />
		<tag k="ssr:stedsnr" v="16563" />
	</node>
	<node lat="65.25662777525592" lon="13.318072211449437" id="-8136">
		<tag k="name" v="Jernbanehytta" />
		<tag k="place" v="isolated_dwelling" />
		<tag k="ssr:stedsnr" v="25187" />
	</node>
	<node lat="65.54537777543607" lon="13.394236106227394" id="-8159">
		<tag k="name" v="Nyheim" />
		<tag k="place" v="isolated_dwelling" />
		<tag k="ssr:stedsnr" v="33989" />
	</node>
	<node lat="65.5264666649795" lon="13.529816666032158" id="-8161">
		<tag k="name" v="Høglia" />
		<tag k="place" v="farm" />
		<tag k="ssr:stedsnr" v="34801" />
	</node>
	<node lat="65.52596666432186" lon="13.568500007581784" id="-8173">
		<tag k="alt_name" v="Brubakk" />
		<tag k="name" v="Brubakken" />
		<tag k="place" v="isolated_dwelling" />
		<tag k="ssr:stedsnr" v="76362" />
	</node>
	<node lat="65.57496388579354" lon="13.39909443554801" id="-8176">
		<tag k="name" v="Kvannslettmoen" />
		<tag k="place" v="farm" />
		<tag k="ssr:stedsnr" v="76610" />
	</node>
	<node lat="65.12417222222692" lon="13.380458334034033" id="-8177">
		<tag k="name" v="Vårtun" />
		<tag k="place" v="farm" />
		<tag k="ssr:stedsnr" v="76666" />
	</node>
	<node lat="65.37785277825364" lon="13.35870832868523" id="-8190">
		<tag k="name" v="Vasselv" />
		<tag k="place" v="farm" />
		<tag k="ssr:stedsnr" v="76902" />
	</node>
	<node lat="65.67754166770187" lon="13.246816669314406" id="-8205">
		<tag k="name" v="Fallan hyttegrend" />
		<tag k="place" v="neighbourhood" />
		<tag k="ssr:stedsnr" v="94533" />
	</node>
	<node lat="65.58540277910589" lon="13.398199990694023" id="-8210">
		<tag k="name" v="Øvergården" />
		<tag k="place" v="farm" />
		<tag k="ssr:stedsnr" v="94938" />
	</node>
	<node lat="65.55144999879613" lon="13.395786114842444" id="-8223">
		<tag k="fixme" v="consider place=hamlet" />
		<tag k="name" v="Fellingfors" />
		<tag k="place" v="farm" />
		<tag k="ssr:stedsnr" v="136366" />
	</node>
	<node lat="65.52488611008566" lon="13.51846110312256" id="-8238">
		<tag k="alt_name" v="Båfjellmoen, austre;Båfjellmo Austre" />
		<tag k="fixme" v="consider place=hamlet" />
		<tag k="name" v="Austre Båfjellmo" />
		<tag k="place" v="farm" />
		<tag k="ssr:stedsnr" v="137349" />
	</node>
	<node lat="65.60292222640297" lon="13.296563898224106" id="-8257">
		<tag k="historic" v="shieling" />
		<tag k="name" v="Gammelsetra" />
		<tag k="place" v="isolated_dwelling" />
		<tag k="ssr:stedsnr" v="155377" />
	</node>
	<node lat="65.53356666778745" lon="13.408863897202309" id="-8260">
		<tag k="fixme" v="consider place=suburb, village or hamlet" />
		<tag k="name" v="Aspneset" />
		<tag k="place" v="quarter" />
		<tag k="ssr:stedsnr" v="155610" />
	</node>
	<node lat="65.20931110768339" lon="13.38243610536205" id="-8272">
		<tag k="name" v="Nygård" />
		<tag k="place" v="isolated_dwelling" />
		<tag k="ssr:stedsnr" v="257788" />
	</node>
	<node lat="65.14633055963368" lon="13.330583343160178" id="-8274">
		<tag k="name" v="Grannes" />
		<tag k="place" v="isolated_dwelling" />
		<tag k="ssr:stedsnr" v="257743" />
	</node>
	<node lat="65.6340916683549" lon="13.398327773007326" id="-8277">
		<tag k="name" v="Haugsætra" />
		<tag k="place" v="isolated_dwelling" />
		<tag k="ssr:stedsnr" v="258492" />
	</node>
	<node lat="65.62768377124088" lon="13.278093086042098" id="-8278">
		<tag k="alt_name" v="Laksfors, øvre" />
		<tag k="fixme" v="consider place=hamlet" />
		<tag k="name" v="Øvre Laksfors" />
		<tag k="old_name" v="Laksfors" />
		<tag k="place" v="farm" />
		<tag k="ssr:stedsnr" v="258494" />
	</node>
	<node lat="65.5333499967908" lon="13.406311119400312" id="-8285">
		<tag k="name" v="Trofors" />
		<tag k="place" v="village" />
		<tag k="ssr:stedsnr" v="258341" />
	</node>
	<node lat="65.58763888975822" lon="13.379166676383214" id="-8289">
		<tag k="name" v="Elverum" />
		<tag k="place" v="farm" />
		<tag k="ssr:stedsnr" v="258614" />
	</node>
	<node lat="65.48061389030644" lon="13.644916668487518" id="-8300">
		<tag k="alt_name" v="Storbekken" />
		<tag k="name" v="Storbakken" />
		<tag k="place" v="farm" />
		<tag k="ssr:stedsnr" v="258965" />
	</node>
	<node lat="65.48748696799774" lon="13.292834156458591" id="-8304">
		<tag k="fixme" v="consider place=hamlet" />
		<tag k="name" v="Stavvassdalen" />
		<tag k="place" v="farm" />
		<tag k="ssr:stedsnr" v="258983" />
	</node>
	<node lat="65.25413611118485" lon="13.42796389458454" id="-8307">
		<tag k="name" v="Myrrud" />
		<tag k="place" v="farm" />
		<tag k="ssr:stedsnr" v="258842" />
	</node>
	<node lat="65.17464722634584" lon="13.441747225660794" id="-8309">
		<tag k="name" v="Finnkottomta" />
		<tag k="place" v="locality" />
		<tag k="ssr:stedsnr" v="174022" />
	</node>
	<node lat="65.55645555237402" lon="13.388611121042437" id="-8317">
		<tag k="name" v="Høgtun" />
		<tag k="place" v="farm" />
		<tag k="ssr:stedsnr" v="197365" />
	</node>
	<node lat="65.1192002266307" lon="13.337683955339847" id="-8326">
		<tag k="fixme" v="consider place=hamlet" />
		<tag k="name" v="Stortjønnlia" />
		<tag k="place" v="farm" />
		<tag k="ssr:stedsnr" v="197719" />
	</node>
	<node lat="65.18014444614816" lon="13.42152222922952" id="-8327">
		<tag k="name" v="Nordgård" />
		<tag k="place" v="farm" />
		<tag k="ssr:stedsnr" v="197722" />
	</node>
	<node lat="65.4546166710922" lon="13.398686111699922" id="-8337">
		<tag k="name" v="Moen" />
		<tag k="place" v="farm" />
		<tag k="ssr:stedsnr" v="198959" />
	</node>
	<node lat="65.46414494374645" lon="13.392321782991758" id="-8338">
		<tag k="fixme" v="consider place=hamlet" />
		<tag k="name" v="Nedre Hjortskardmoen" />
		<tag k="place" v="farm" />
		<tag k="ssr:stedsnr" v="198971" />
	</node>
	<node lat="65.5630694469768" lon="13.402880548060642" id="-8365">
		<tag k="name" v="Nordheim" />
		<tag k="place" v="farm" />
		<tag k="ssr:stedsnr" v="216426" />
	</node>
	<node lat="65.52135277673322" lon="13.39707221206157" id="-8371">
		<tag k="name" v="Minne" />
		<tag k="place" v="isolated_dwelling" />
		<tag k="ssr:stedsnr" v="216607" />
	</node>
	<node lat="65.6599318803565" lon="13.263534494457236" id="-8413">
		<tag k="fixme" v="consider place=hamlet" />
		<tag k="name" v="Spølremma" />
		<tag k="place" v="farm" />
		<tag k="ssr:stedsnr" v="258542" />
	</node>
	<node lat="65.50363888931814" lon="13.430652782259902" id="-8416">
		<tag k="name" v="Båfjellmosetra" />
		<tag k="place" v="locality" />
		<tag k="ssr:stedsnr" v="258272" />
	</node>
	<node lat="65.40986388499569" lon="13.657727786515125" id="-8422">
		<tag k="name" v="Rabben" />
		<tag k="place" v="farm" />
		<tag k="ssr:stedsnr" v="258920" />
	</node>
	<node lat="65.42950833415074" lon="13.393455552901381" id="-8424">
		<tag k="name" v="Hopaneset" />
		<tag k="place" v="farm" />
		<tag k="ssr:stedsnr" v="458130" />
	</node>
	<node lat="65.42901111174983" lon="13.665797218377316" id="-8429">
		<tag k="name" v="Fiplingtun" />
		<tag k="place" v="isolated_dwelling" />
		<tag k="ssr:stedsnr" v="458636" />
	</node>
	<node lat="65.53483611292451" lon="13.39493333504746" id="-8430">
		<tag k="name" v="Fossevangen" />
		<tag k="place" v="farm" />
		<tag k="ssr:stedsnr" v="458684" />
	</node>
	<node lat="65.38962499729887" lon="13.62083055793062" id="-8450">
		<tag k="name" v="Bjerkli" />
		<tag k="place" v="farm" />
		<tag k="ssr:stedsnr" v="459544" />
	</node>
	<node lat="65.53454444370452" lon="13.403999990508636" id="-8456">
		<tag k="fixme" v="consider place=suburb, village or hamlet" />
		<tag k="name" v="Vegset" />
		<tag k="place" v="quarter" />
		<tag k="ssr:stedsnr" v="276707" />
	</node>
	<node lat="65.52422777379718" lon="13.527588898571068" id="-8460">
		<tag k="name" v="Gammelgården" />
		<tag k="place" v="farm" />
		<tag k="ssr:stedsnr" v="277841" />
	</node>
	<node lat="65.52149444645401" lon="13.546930560911754" id="-8461">
		<tag k="name" v="Utigarden" />
		<tag k="place" v="farm" />
		<tag k="ssr:stedsnr" v="278711" />
	</node>
	<node lat="65.48706944195884" lon="13.291288887569518" id="-8469">
		<tag k="fixme" v="consider tourism=alpine_hut or tourism=chalet" />
		<tag k="name" v="Stavassgården" />
		<tag k="ssr:stedsnr" v="465960" />
		<tag k="tourism" v="wilderness_hut" />
	</node>
	<node lat="65.38359166366484" lon="13.616588897597364" id="-8480">
		<tag k="name" v="Strandli" />
		<tag k="place" v="farm" />
		<tag k="ssr:stedsnr" v="318918" />
	</node>
	<node lat="65.51941235889845" lon="13.569708861152607" id="-8506">
		<tag k="fixme" v="consider place=hamlet" />
		<tag k="name" v="Stormoen" />
		<tag k="place" v="farm" />
		<tag k="ssr:stedsnr" v="337043" />
	</node>
	<node lat="65.57256388534218" lon="13.397172223763699" id="-8510">
		<tag k="alt_name" v="Fellingforsmo" />
		<tag k="name" v="Fellingforsmoen" />
		<tag k="place" v="farm" />
		<tag k="ssr:stedsnr" v="337404" />
	</node>
	<node lat="65.1502777748573" lon="13.270863879462741" id="-8517">
		<tag k="name" v="Mellingsbukta" />
		<tag k="place" v="isolated_dwelling" />
		<tag k="ssr:stedsnr" v="378734" />
	</node>
	<node lat="65.51703611483887" lon="13.575261102767449" id="-8520">
		<tag k="alt_name" v="Stormoen, austre;Stormoen" />
		<tag k="name" v="Stormo Austre" />
		<tag k="place" v="farm" />
		<tag k="ssr:stedsnr" v="379361" />
	</node>
	<node lat="65.41240822162969" lon="13.388528616810246" id="-8533">
		<tag k="alt_name" v="Kappskarmo" />
		<tag k="fixme" v="consider place=hamlet" />
		<tag k="name" v="Kappskardmoen" />
		<tag k="place" v="farm" />
		<tag k="ssr:stedsnr" v="379919" />
	</node>
	<node lat="65.44952221857287" lon="13.387480557088667" id="-8547">
		<tag k="name" v="Myrli" />
		<tag k="place" v="isolated_dwelling" />
		<tag k="ssr:stedsnr" v="397015" />
	</node>
	<node lat="65.40977500005425" lon="13.381052787601464" id="-8548">
		<tag k="name" v="Innigarden" />
		<tag k="place" v="farm" />
		<tag k="ssr:stedsnr" v="397110" />
	</node>
	<node lat="65.57646388783019" lon="13.401175003779764" id="-8551">
		<tag k="name" v="Erikstad" />
		<tag k="place" v="farm" />
		<tag k="ssr:stedsnr" v="397448" />
	</node>
	<node lat="65.15369722516554" lon="13.405558331958673" id="-8564">
		<tag k="name" v="Berntvoll" />
		<tag k="place" v="isolated_dwelling" />
		<tag k="ssr:stedsnr" v="439705" />
	</node>
	<node lat="65.54545278152303" lon="13.398786104090545" id="-8574">
		<tag k="name" v="Solstad" />
		<tag k="place" v="farm" />
		<tag k="ssr:stedsnr" v="440347" />
	</node>
	<node lat="65.52951340926424" lon="13.395454339584699" id="-8577">
		<tag k="fixme" v="consider place=hamlet" />
		<tag k="name" v="Båfjellmoen" />
		<tag k="place" v="farm" />
		<tag k="ssr:stedsnr" v="440389" />
	</node>
	<node lat="65.51766389093837" lon="13.564186105889105" id="-8578">
		<tag k="alt_name" v="Stormoen, vestre" />
		<tag k="name" v="Stormo Vestre" />
		<tag k="place" v="farm" />
		<tag k="ssr:stedsnr" v="440391" />
	</node>
	<node lat="65.5235249998974" lon="13.39485276740418" id="-8579">
		<tag k="alt_name" v="Fossheim" />
		<tag k="name" v="Forsheim" />
		<tag k="place" v="farm" />
		<tag k="ssr:stedsnr" v="440401" />
	</node>
	<node lat="65.62262500144523" lon="13.431433333394795" id="-8582">
		<tag k="name" v="Almmoen" />
		<tag k="place" v="isolated_dwelling" />
		<tag k="ssr:stedsnr" v="440518" />
	</node>
	<node lat="65.64932222497704" lon="13.419736114830172" id="-8585">
		<tag k="alt_name" v="Johansætra" />
		<tag k="name" v="Johansetra" />
		<tag k="place" v="isolated_dwelling" />
		<tag k="ssr:stedsnr" v="440555" />
	</node>
	<node lat="65.44520277828352" lon="13.66843055512776" id="-8595">
		<tag k="name" v="Sørbakk" />
		<tag k="place" v="farm" />
		<tag k="ssr:stedsnr" v="440939" />
	</node>
	<node lat="65.37966666629829" lon="13.63473056577654" id="-8597">
		<tag k="name" v="Nordli" />
		<tag k="place" v="farm" />
		<tag k="ssr:stedsnr" v="440891" />
	</node>
	<node lat="65.33827499635144" lon="13.60045832946189" id="-8604">
		<tag k="name" v="Finnkottomta" />
		<tag k="place" v="locality" />
		<tag k="ssr:stedsnr" v="451406" />
	</node>
	<node lat="65.43303055642302" lon="13.396524992818199" id="-8610">
		<tag k="name" v="Stuvneset" />
		<tag k="place" v="farm" />
		<tag k="ssr:stedsnr" v="458005" />
	</node>
	<node lat="65.59517778137648" lon="13.377591668603195" id="-8616">
		<tag k="name" v="Strandmoen" />
		<tag k="place" v="farm" />
		<tag k="ssr:stedsnr" v="458923" />
	</node>
	<node lat="65.55168611331538" lon="13.39334443862428" id="-8619">
		<tag k="name" v="Nerigarden" />
		<tag k="place" v="farm" />
		<tag k="ssr:stedsnr" v="458979" />
	</node>
	<node lat="65.40364721862402" lon="13.665080557139994" id="-8638">
		<tag k="alt_name" v="Skredsletta" />
		<tag k="name" v="Skreslett" />
		<tag k="place" v="farm" />
		<tag k="ssr:stedsnr" v="500931" />
	</node>
	<node lat="65.52782088277311" lon="13.500684751833075" id="-8644">
		<tag k="name" v="Skomstad" />
		<tag k="place" v="locality" />
		<tag k="ssr:stedsnr" v="501329" />
	</node>
	<node lat="65.5258666649093" lon="13.572294450539948" id="-8646">
		<tag k="name" v="Tangen" />
		<tag k="place" v="farm" />
		<tag k="ssr:stedsnr" v="501333" />
	</node>
	<node lat="65.30989444727065" lon="13.558697226251368" id="-8651">
		<tag k="name" v="Granlia" />
		<tag k="place" v="farm" />
		<tag k="ssr:stedsnr" v="501834" />
	</node>
	<node lat="65.52273784648789" lon="13.532420745967856" id="-8656">
		<tag k="alt_name" v="Fjellbekkmo" />
		<tag k="fixme" v="consider place=hamlet" />
		<tag k="name" v="Fjellbekkmoen" />
		<tag k="place" v="farm" />
		<tag k="ssr:stedsnr" v="744316" />
	</node>
	<node lat="65.24606944473466" lon="13.422041666304034" id="-8667">
		<tag k="name" v="Jensnes" />
		<tag k="place" v="isolated_dwelling" />
		<tag k="ssr:stedsnr" v="682774" />
	</node>
	<node lat="65.16763611302603" lon="13.369086113392358" id="-8668">
		<tag k="name" v="Majavatn - Maajehjaevrie" />
		<tag k="name:no" v="Majavatn" />
		<tag k="name:sma" v="Maajehjaevrie" />
		<tag k="place" v="village" />
		<tag k="ssr:stedsnr" v="682742" />
	</node>
	<node lat="65.44004166222638" lon="13.452686112209232" id="-8678">
		<tag k="name" v="Kløva" />
		<tag k="place" v="farm" />
		<tag k="ssr:stedsnr" v="682962" />
	</node>
	<node lat="65.46053332936482" lon="13.406472216380541" id="-8679">
		<tag k="name" v="Stormobakken" />
		<tag k="place" v="farm" />
		<tag k="ssr:stedsnr" v="682964" />
	</node>
	<node lat="65.53691666702092" lon="13.685005552700916" id="-8688">
		<tag k="name" v="Seteråsen" />
		<tag k="place" v="isolated_dwelling" />
		<tag k="ssr:stedsnr" v="683299" />
	</node>
	<node lat="65.5223638851712" lon="13.69941944099333" id="-8689">
		<tag k="alt_name" v="Fagerli Nedre" />
		<tag k="name" v="Nedre Fagerli" />
		<tag k="place" v="farm" />
		<tag k="ssr:stedsnr" v="683345" />
	</node>
	<node lat="65.60759166680513" lon="13.320799990789897" id="-8699">
		<tag k="alt_name" v="Granli" />
		<tag k="name" v="Granlia" />
		<tag k="place" v="farm" />
		<tag k="ssr:stedsnr" v="683575" />
	</node>
	<node lat="65.15399722087896" lon="13.359288887756085" id="-8721">
		<tag k="name" v="Skogsand" />
		<tag k="place" v="isolated_dwelling" />
		<tag k="ssr:stedsnr" v="560700" />
	</node>
	<node lat="65.56704167089262" lon="13.404375004546104" id="-8752">
		<tag k="name" v="Granly" />
		<tag k="place" v="farm" />
		<tag k="ssr:stedsnr" v="579550" />
	</node>
	<node lat="65.46852157209896" lon="13.692367469845276" id="-8759">
		<tag k="name" v="Dalen" />
		<tag k="place" v="farm" />
		<tag k="ssr:stedsnr" v="580013" />
	</node>
	<node lat="65.59643610956793" lon="13.38613334016384" id="-8762">
		<tag k="name" v="Haugbakken" />
		<tag k="place" v="farm" />
		<tag k="ssr:stedsnr" v="579907" />
	</node>
	<node lat="65.59584166577295" lon="13.385033322520561" id="-8774">
		<tag k="loc_name" v="Grøftholen" />
		<tag k="name" v="Haugen" />
		<tag k="place" v="farm" />
		<tag k="ssr:stedsnr" v="605323" />
	</node>
	<node lat="65.65747500368991" lon="13.41895833969845" id="-8785">
		<tag k="historic" v="shieling" />
		<tag k="name" v="Nord-gammelsetra" />
		<tag k="place" v="isolated_dwelling" />
		<tag k="ssr:stedsnr" v="701641" />
	</node>
	<node lat="65.59246667087672" lon="13.398502782533566" id="-8791">
		<tag k="name" v="Elvetun" />
		<tag k="place" v="farm" />
		<tag k="ssr:stedsnr" v="701895" />
	</node>
	<node lat="65.37190277799971" lon="13.59948056199749" id="-8811">
		<tag k="name" v="Kvitsand" />
		<tag k="place" v="farm" />
		<tag k="ssr:stedsnr" v="622908" />
	</node>
	<node lat="65.59308611194224" lon="13.390186111246676" id="-8846">
		<tag k="name" v="Haugtun" />
		<tag k="place" v="farm" />
		<tag k="ssr:stedsnr" v="640894" />
	</node>
	<node lat="65.58986944761187" lon="13.374683328257618" id="-8848">
		<tag k="name" v="Myrmoen" />
		<tag k="place" v="farm" />
		<tag k="ssr:stedsnr" v="640907" />
	</node>
	<node lat="65.55446111477254" lon="13.39483888102754" id="-8850">
		<tag k="name" v="Nermoen" />
		<tag k="place" v="farm" />
		<tag k="ssr:stedsnr" v="640977" />
	</node>
	<node lat="65.63707500268772" lon="13.45046944473635" id="-8864">
		<tag k="name" v="Smørvikhytta" />
		<tag k="place" v="isolated_dwelling" />
		<tag k="ssr:stedsnr" v="682563" />
	</node>
	<node lat="65.63340397712383" lon="13.265756129033095" id="-8865">
		<tag k="alt_name" v="Laksfors, nedre" />
		<tag k="fixme" v="consider place=hamlet" />
		<tag k="name" v="Nedre Laksfors" />
		<tag k="place" v="farm" />
		<tag k="ssr:stedsnr" v="682576" />
	</node>
	<node lat="65.52678610966048" lon="13.484083337692201" id="-8874">
		<tag k="alt_name" v="Straumstad" />
		<tag k="name" v="Strømstad" />
		<tag k="place" v="farm" />
		<tag k="ssr:stedsnr" v="683330" />
	</node>
	<node lat="65.6752000006636" lon="13.256219444094091" id="-8875">
		<tag k="alt_name" v="Fallmoen, nedre;Nedre Fallmoen" />
		<tag k="name" v="Nedre Fallmo" />
		<tag k="place" v="farm" />
		<tag k="ssr:stedsnr" v="683703" />
	</node>
	<node lat="65.66872500422568" lon="13.265352770874944" id="-8876">
		<tag k="alt_name" v="Fallmoen, øvre;Øvre Fallmoen" />
		<tag k="name" v="Øvre Fallmo" />
		<tag k="place" v="farm" />
		<tag k="ssr:stedsnr" v="683712" />
	</node>
	<node lat="65.46520278078755" lon="13.632547232131664" id="-8885">
		<tag k="name" v="Bruholen" />
		<tag k="place" v="farm" />
		<tag k="ssr:stedsnr" v="683953" />
	</node>
	<node lat="65.49822500089022" lon="13.384586103628134" id="-8908">
		<tag k="name" v="Myrvoll" />
		<tag k="place" v="isolated_dwelling" />
		<tag k="ssr:stedsnr" v="701362" />
	</node>
	<node lat="65.58658055546017" lon="13.39361945402398" id="-8913">
		<tag k="name" v="Solvang" />
		<tag k="place" v="farm" />
		<tag k="ssr:stedsnr" v="701910" />
	</node>
	<node lat="65.46358333036595" lon="13.690024997606054" id="-8914">
		<tag k="name" v="Vollenden" />
		<tag k="place" v="farm" />
		<tag k="ssr:stedsnr" v="702021" />
	</node>
	<node lat="65.55009166860518" lon="13.396055559817176" id="-8915">
		<tag k="name" v="Lillemoen" />
		<tag k="place" v="farm" />
		<tag k="ssr:stedsnr" v="701970" />
	</node>
	<node lat="65.63786110981859" lon="13.412722217645653" id="-8929">
		<tag k="alt_name" v="Gammelhaugsætra" />
		<tag k="name" v="Gammelsetra" />
		<tag k="place" v="isolated_dwelling" />
		<tag k="ssr:stedsnr" v="743510" />
	</node>
	<node lat="65.58641388452982" lon="13.39313056276108" id="-8948">
		<tag k="fixme" v="consider place=hamlet" />
		<tag k="loc_name:sma" v="Gaala" />
		<tag k="name" v="Grane" />
		<tag k="name:no" v="Grane" />
		<tag k="place" v="village" />
		<tag k="ssr:stedsnr" v="744577" />
	</node>
	<node lat="65.59252973897692" lon="13.388639426580212" id="-8969">
		<tag k="fixme" v="consider place=hamlet" />
		<tag k="name" v="Gluggvasshaugen" />
		<tag k="place" v="farm" />
		<tag k="ssr:stedsnr" v="787315" />
	</node>
	<node lat="65.30702366378989" lon="13.567285061993754" id="-8981">
		<tag k="fixme" v="consider place=hamlet" />
		<tag k="name" v="Simskardet" />
		<tag k="place" v="farm" />
		<tag k="ssr:stedsnr" v="804855" />
	</node>
	<node lat="65.26315421559363" lon="13.337234149450827" id="-8982">
		<tag k="fixme" v="consider place=hamlet" />
		<tag k="name" v="Kjerringvatnet" />
		<tag k="place" v="farm" />
		<tag k="ssr:stedsnr" v="804863" />
	</node>
	<node lat="65.4607472218881" lon="13.395527768319107" id="-8999">
		<tag k="name" v="Båtneset" />
		<tag k="place" v="farm" />
		<tag k="ssr:stedsnr" v="822222" />
	</node>
	<node lat="65.41172777737492" lon="13.6426999973565" id="-9012">
		<tag k="name" v="Haugen" />
		<tag k="place" v="farm" />
		<tag k="ssr:stedsnr" v="824209" />
	</node>
	<node lat="65.15238888624584" lon="13.35494999795781" id="-9027">
		<tag k="name" v="Majastua" />
		<tag k="place" v="isolated_dwelling" />
		<tag k="ssr:stedsnr" v="925751" />
	</node>
	<node lat="65.41236506182607" lon="13.642079578129316" id="-9034">
		<tag k="fixme" v="consider place=hamlet" />
		<tag k="name" v="Fiplingkroken" />
		<tag k="place" v="farm" />
		<tag k="ssr:stedsnr" v="925945" />
	</node>
	<node lat="65.42810833385657" lon="13.66436388809279" id="-9036">
		<tag k="alt_name" v="Nordmoen" />
		<tag k="name" v="Nordmo" />
		<tag k="place" v="farm" />
		<tag k="ssr:stedsnr" v="925949" />
	</node>
	<node lat="65.35978055253375" lon="13.380761119184271" id="-9060">
		<tag k="name" v="Slorby" />
		<tag k="place" v="locality" />
		<tag k="ssr:stedsnr" v="878904" />
	</node>
	<node lat="65.23150277508799" lon="13.348022229287087" id="-9072">
		<tag k="building" v="civic" />
		<tag k="name" v="Kappfjellibrakka" />
		<tag k="ssr:stedsnr" v="934710" />
	</node>
	<node lat="65.2145472195597" lon="13.353113892018996" id="-9073">
		<tag k="building" v="civic" />
		<tag k="name" v="Kappfjellia" />
		<tag k="ssr:stedsnr" v="934718" />
	</node>
	<node lat="65.50018888876662" lon="13.66945000748243" id="-9078">
		<tag k="name" v="Hallingsetra" />
		<tag k="place" v="locality" />
		<tag k="ssr:stedsnr" v="889099" />
	</node>
	<node lat="65.13484166926717" lon="13.345141674398715" id="-9081">
		<tag k="name" v="Langås" />
		<tag k="place" v="farm" />
		<tag k="ssr:stedsnr" v="925721" />
	</node>
	<node lat="65.17940833663778" lon="13.37356111147736" id="-9083">
		<tag k="name" v="Villmoen" />
		<tag k="place" v="isolated_dwelling" />
		<tag k="ssr:stedsnr" v="925741" />
	</node>
	<node lat="65.53879722442821" lon="13.679127780992069" id="-9087">
		<tag k="name" v="Åsheim" />
		<tag k="place" v="isolated_dwelling" />
		<tag k="ssr:stedsnr" v="926313" />
	</node>
	<node lat="65.5444361069363" lon="13.709866675981134" id="-9090">
		<tag k="alt_name" v="Bratting" />
		<tag k="name" v="Bratteng" />
		<tag k="place" v="farm" />
		<tag k="ssr:stedsnr" v="926329" />
	</node>
	<node lat="65.52045181052904" lon="13.601599871935404" id="-9091">
		<tag k="alt_name" v="Bjorbekkmo" />
		<tag k="fixme" v="consider place=hamlet" />
		<tag k="name" v="Bjorbekkmoen" />
		<tag k="place" v="farm" />
		<tag k="ssr:stedsnr" v="926357" />
	</node>
	<node lat="65.62303055629347" lon="13.435944453698736" id="-9092">
		<tag k="name" v="Sletta" />
		<tag k="place" v="isolated_dwelling" />
		<tag k="ssr:stedsnr" v="926503" />
	</node>
	<node lat="65.6311611120046" lon="13.383686102677332" id="-9093">
		<tag k="name" v="Nilsfinnlia" />
		<tag k="place" v="isolated_dwelling" />
		<tag k="ssr:stedsnr" v="926509" />
	</node>
	<node lat="65.63193707119031" lon="13.44585794936603" id="-9097">
		<tag k="alt_name" v="Haustreisa" />
		<tag k="fixme" v="consider place=hamlet" />
		<tag k="name" v="Østre Haustreisa" />
		<tag k="old_name" v="Vestre Haustreis" />
		<tag k="place" v="farm" />
		<tag k="ssr:stedsnr" v="926766" />
	</node>
	<node lat="65.58628888856796" lon="13.39909722429335" id="-9121">
		<tag k="name" v="Lavollen" />
		<tag k="place" v="farm" />
		<tag k="ssr:stedsnr" v="944910" />
	</node>
	<node lat="65.59097499948994" lon="13.376758336620114" id="-9122">
		<tag k="name" v="Innigarden" />
		<tag k="place" v="farm" />
		<tag k="ssr:stedsnr" v="944914" />
	</node>
	<node lat="65.34083055803697" lon="13.25429721338238" id="-9133">
		<tag k="fixme" v="consider tourism=alpine_hut or tourism=chalet" />
		<tag k="name" v="Gåsvasstua" />
		<tag k="ssr:stedsnr" v="948527" />
		<tag k="tourism" v="wilderness_hut" />
	</node>
	<node lat="65.66066111336947" lon="13.264161112519403" id="-9134">
		<tag k="fixme" v="consider tourism=alpine_hut or tourism=chalet" />
		<tag k="name" v="Spølremma skogstue" />
		<tag k="ssr:stedsnr" v="950732" />
		<tag k="tourism" v="wilderness_hut" />
	</node>
	<node lat="65.4250675454728" lon="13.387454217923054" id="-9137">
		<tag k="name" v="Hjortskardmoen" />
		<tag k="place" v="hamlet" />
		<tag k="ssr:stedsnr" v="980976" />
	</node>
	<node lat="65.39982300465483" lon="13.378552676427093" id="-9138">
		<tag k="name" v="Øvre Hjortskardmoen" />
		<tag k="place" v="farm" />
		<tag k="ssr:stedsnr" v="980981" />
	</node>
	<node lat="65.43946884717829" lon="13.397395788376398" id="-9139">
		<tag k="name" v="Nedre Hjortskardmoen" />
		<tag k="place" v="farm" />
		<tag k="ssr:stedsnr" v="981190" />
	</node>
	<node lat="65.67351452414358" lon="13.258842219881224" id="-9140">
		<tag k="fixme" v="consider place=hamlet" />
		<tag k="name" v="Fallmoen" />
		<tag k="place" v="farm" />
		<tag k="ssr:stedsnr" v="990399" />
	</node>
	<node lat="65.61999375726977" lon="13.293825998613258" id="-9141">
		<tag k="name" v="Nordre Laksforsmo" />
		<tag k="place" v="farm" />
		<tag k="ssr:stedsnr" v="990413" />
	</node>
	<node lat="65.45710141065156" lon="13.467828968018402" id="-9143">
		<tag k="fixme" v="consider place=hamlet" />
		<tag k="name" v="Båfjelldalen" />
		<tag k="place" v="farm" />
		<tag k="ssr:stedsnr" v="990416" />
	</node>
	<node lat="65.3143011783765" lon="13.216564961706707" id="-9144">
		<tag k="name" v="Bjørkåsen" />
		<tag k="place" v="locality" />
		<tag k="ssr:stedsnr" v="990417" />
	</node>
	<node lat="65.47403756245673" lon="13.624407962292077" id="-9145">
		<tag k="fixme" v="consider place=hamlet" />
		<tag k="name" v="Litlfiplingdalen" />
		<tag k="place" v="farm" />
		<tag k="ssr:stedsnr" v="990419" />
	</node>
	<node lat="65.52365324787797" lon="13.701510325808352" id="-9146">
		<tag k="fixme" v="consider place=hamlet" />
		<tag k="name" v="Fagerlia" />
		<tag k="place" v="farm" />
		<tag k="ssr:stedsnr" v="990422" />
	</node>
	<node lat="65.54683745066524" lon="13.63796986171617" id="-9147">
		<tag k="name" v="Stillelvåsen" />
		<tag k="place" v="locality" />
		<tag k="ssr:stedsnr" v="990423" />
	</node>
	<node lat="65.12753437570568" lon="13.385245079186003" id="-9148">
		<tag k="name" v="Smalvassdalen" />
		<tag k="place" v="locality" />
		<tag k="ssr:stedsnr" v="990424" />
	</node>
	<node lat="65.1892583307027" lon="13.371355563876545" id="-9151">
		<tag k="name" v="Sveumdalen" />
		<tag k="place" v="isolated_dwelling" />
		<tag k="ssr:stedsnr" v="15729" />
	</node>
	<node lat="65.45540555744871" lon="13.674316673555115" id="-9157">
		<tag k="name" v="Åsen" />
		<tag k="place" v="farm" />
		<tag k="ssr:stedsnr" v="15949" />
	</node>
	<node lat="65.43315691658081" lon="13.401645963725898" id="-9158">
		<tag k="name" v="Strendene" />
		<tag k="place" v="farm" />
		<tag k="ssr:stedsnr" v="15951" />
	</node>
	<node lat="65.58697217337033" lon="13.648187300924484" id="-9169">
		<tag k="fixme" v="consider place=hamlet" />
		<tag k="name" v="Svartvatnet" />
		<tag k="place" v="farm" />
		<tag k="ssr:stedsnr" v="15594" />
	</node>
	<node lat="65.59241388595191" lon="13.340133325685295" id="-9177">
		<tag k="name" v="Dalen" />
		<tag k="place" v="farm" />
		<tag k="ssr:stedsnr" v="16578" />
	</node>
	<node lat="65.60373611388287" lon="13.411777773269316" id="-9178">
		<tag k="name" v="Nordlund" />
		<tag k="place" v="farm" />
		<tag k="ssr:stedsnr" v="16585" />
	</node>
	<node lat="65.68216111276993" lon="13.259588884308041" id="-9180">
		<tag k="alt_name" v="Stormoen" />
		<tag k="name" v="Stormo" />
		<tag k="place" v="farm" />
		<tag k="ssr:stedsnr" v="16688" />
	</node>
	<node lat="65.17094444362505" lon="13.422411109204017" id="-9187">
		<tag k="name" v="Storbekktangen" />
		<tag k="place" v="locality" />
		<tag k="ssr:stedsnr" v="27152" />
	</node>
	<node lat="65.44143611347029" lon="13.398041667852015" id="-9196">
		<tag k="name" v="Engset" />
		<tag k="place" v="farm" />
		<tag k="ssr:stedsnr" v="33028" />
	</node>
	<node lat="65.62735000204624" lon="13.281611101574718" id="-9207">
		<tag k="name" v="Bakken" />
		<tag k="place" v="isolated_dwelling" />
		<tag k="ssr:stedsnr" v="34342" />
	</node>
	<node lat="65.62972222298147" lon="13.443224998160977" id="-9210">
		<tag k="name" v="Østre Hausreis" />
		<tag k="place" v="farm" />
		<tag k="ssr:stedsnr" v="34559" />
	</node>
	<node lat="65.22237777822579" lon="13.395658334599677" id="-9225">
		<tag k="fixme" v="consider place=hamlet" />
		<tag k="name" v="Bjortjønnlia" />
		<tag k="place" v="farm" />
		<tag k="ssr:stedsnr" v="75788" />
	</node>
	<node lat="65.42505555544909" lon="13.65868055648873" id="-9249">
		<tag k="name" v="Leira" />
		<tag k="place" v="farm" />
		<tag k="ssr:stedsnr" v="76923" />
	</node>
	<node lat="65.24802500432517" lon="13.334302769567735" id="-9250">
		<tag k="historic" v="shieling" />
		<tag k="name" v="Setran" />
		<tag k="place" v="isolated_dwelling" />
		<tag k="ssr:stedsnr" v="85138" />
	</node>
	<node lat="65.57179167047674" lon="13.401541660087476" id="-9271">
		<tag k="name" v="Osbakken" />
		<tag k="place" v="farm" />
		<tag k="ssr:stedsnr" v="94486" />
	</node>
	<node lat="65.62391666494302" lon="13.294630554475505" id="-9280">
		<tag k="name" v="Fossedur" />
		<tag k="place" v="farm" />
		<tag k="ssr:stedsnr" v="95088" />
	</node>
	<node lat="65.7607555534878" lon="13.542744445793689" id="-9291">
		<tag k="fixme" v="consider tourism=alpine_hut or tourism=chalet" />
		<tag k="name" v="Klubbfjelltjønnhytta - Glunhkienjaevriehæhtjoe" />
		<tag k="name:no" v="Klubbfjelltjønnhytta" />
		<tag k="name:sma" v="Glunhkienjaevriehæhtjoe" />
		<tag k="old_name:no" v="Klubbfjelltjørnhytta" />
		<tag k="ssr:stedsnr" v="119457" />
		<tag k="tourism" v="wilderness_hut" />
	</node>
	<node lat="65.49845251076964" lon="13.717187637993053" id="-9318">
		<tag k="fixme" v="consider place=hamlet" />
		<tag k="name" v="Jerpåsen" />
		<tag k="place" v="farm" />
		<tag k="ssr:stedsnr" v="136982" />
	</node>
	<node lat="65.26625139718801" lon="13.447303147273365" id="-9326">
		<tag k="fixme" v="consider place=hamlet" />
		<tag k="name" v="Kvannlia - Eerhtsege" />
		<tag k="name:no" v="Kvannlia" />
		<tag k="name:sma" v="Eerhtsege" />
		<tag k="place" v="farm" />
		<tag k="ssr:stedsnr" v="137831" />
	</node>
	<node lat="65.47140555141576" lon="13.64187221557477" id="-9329">
		<tag k="name" v="Kvitstrand" />
		<tag k="place" v="farm" />
		<tag k="ssr:stedsnr" v="137953" />
	</node>
	<node lat="65.47154420718415" lon="13.649599892079866" id="-9330">
		<tag k="name" v="Kløvforsen" />
		<tag k="place" v="farm" />
		<tag k="ssr:stedsnr" v="137956" />
	</node>
	<node lat="65.45669722053195" lon="13.39914166875022" id="-9331">
		<tag k="name" v="Innigarden" />
		<tag k="place" v="farm" />
		<tag k="ssr:stedsnr" v="137960" />
	</node>
	<node lat="65.44281110767668" lon="13.391133325713021" id="-9351">
		<tag k="name" v="Vang" />
		<tag k="place" v="farm" />
		<tag k="ssr:stedsnr" v="155018" />
	</node>
	<node lat="65.58563888759545" lon="13.31628054540143" id="-9357">
		<tag k="name" v="Granåsen skogstue" />
		<tag k="place" v="isolated_dwelling" />
		<tag k="ssr:stedsnr" v="155126" />
	</node>
	<node lat="65.57706944700863" lon="13.401911110734636" id="-9362">
		<tag k="name" v="Granheim" />
		<tag k="place" v="farm" />
		<tag k="ssr:stedsnr" v="155393" />
	</node>
	<node lat="65.59719444370789" lon="13.386608331749134" id="-9364">
		<tag k="alt_name" v="Tempelhaug" />
		<tag k="name" v="Tempelhaugen" />
		<tag k="place" v="farm" />
		<tag k="ssr:stedsnr" v="155881" />
	</node>
	<node lat="65.59307222462539" lon="13.393308343976516" id="-9365">
		<tag k="name" v="Solhaugen" />
		<tag k="place" v="farm" />
		<tag k="ssr:stedsnr" v="155889" />
	</node>
	<node lat="65.58691388681014" lon="13.396316673887625" id="-9366">
		<tag k="name" v="Bleikvoll" />
		<tag k="place" v="farm" />
		<tag k="ssr:stedsnr" v="155905" />
	</node>
	<node lat="65.54666111250121" lon="13.396930564270692" id="-9368">
		<tag k="name" v="Stia" />
		<tag k="place" v="farm" />
		<tag k="ssr:stedsnr" v="155989" />
	</node>
	<node lat="65.15348055267351" lon="13.218549989809974" id="-9380">
		<tag k="name" v="Storlistua" />
		<tag k="place" v="isolated_dwelling" />
		<tag k="ssr:stedsnr" v="196696" />
	</node>
	<node lat="65.61934699436627" lon="13.294808287526706" id="-9387">
		<tag k="fixme" v="consider place=hamlet" />
		<tag k="name" v="Laksforsmoen" />
		<tag k="place" v="farm" />
		<tag k="ssr:stedsnr" v="197564" />
	</node>
	<node lat="65.41647499879326" lon="13.674166658728216" id="-9398">
		<tag k="name" v="Urda" />
		<tag k="place" v="farm" />
		<tag k="ssr:stedsnr" v="197939" />
	</node>
	<node lat="65.4213111080396" lon="13.67455555739891" id="-9399">
		<tag k="name" v="Bakken" />
		<tag k="place" v="farm" />
		<tag k="ssr:stedsnr" v="197945" />
	</node>
	<node lat="65.43311667062844" lon="13.656211106025642" id="-9401">
		<tag k="alt_name" v="Myra" />
		<tag k="name" v="Myren" />
		<tag k="place" v="farm" />
		<tag k="ssr:stedsnr" v="197950" />
	</node>
	<node lat="65.44857222007816" lon="13.399391669290981" id="-9404">
		<tag k="name" v="Storsveet" />
		<tag k="place" v="farm" />
		<tag k="ssr:stedsnr" v="197961" />
	</node>
	<node lat="65.52303333551119" lon="13.376525010844777" id="-9409">
		<tag k="name" v="Vollåsen" />
		<tag k="place" v="farm" />
		<tag k="ssr:stedsnr" v="198338" />
	</node>
	<node lat="65.59843072250668" lon="13.339521164012721" id="-9410">
		<tag k="alt_name" v="Lia" />
		<tag k="fixme" v="consider place=hamlet" />
		<tag k="name" v="Lien" />
		<tag k="place" v="farm" />
		<tag k="ssr:stedsnr" v="198595" />
	</node>
	<node lat="65.59514127797557" lon="13.33946270723585" id="-9411">
		<tag k="alt_name" v="Valrygg" />
		<tag k="fixme" v="consider place=hamlet" />
		<tag k="name" v="Valryggen" />
		<tag k="place" v="farm" />
		<tag k="ssr:stedsnr" v="198597" />
	</node>
	<node lat="65.17172500146302" lon="13.447499995114105" id="-9430">
		<tag k="name" v="Finnkottomta" />
		<tag k="place" v="locality" />
		<tag k="ssr:stedsnr" v="210192" />
	</node>
	<node lat="65.45315833118839" lon="13.398005557165147" id="-9435">
		<tag k="name" v="Lilleenget" />
		<tag k="place" v="farm" />
		<tag k="ssr:stedsnr" v="216162" />
	</node>
	<node lat="65.52255555924772" lon="13.529897214605889" id="-9442">
		<tag k="name" v="Engelskvillaen" />
		<tag k="place" v="isolated_dwelling" />
		<tag k="ssr:stedsnr" v="216845" />
	</node>
	<node lat="65.55398055242632" lon="13.387638892252236" id="-9444">
		<tag k="name" v="Neset" />
		<tag k="place" v="farm" />
		<tag k="ssr:stedsnr" v="216966" />
	</node>
	<node lat="65.5617518948037" lon="13.401946059973437" id="-9453">
		<tag k="name" v="Moheim" />
		<tag k="place" v="farm" />
		<tag k="ssr:stedsnr" v="276553" />
	</node>
	<node lat="65.46870000176763" lon="13.653111113228157" id="-9463">
		<tag k="name" v="Møllfarsen" />
		<tag k="place" v="farm" />
		<tag k="ssr:stedsnr" v="277189" />
	</node>
	<node lat="65.62864166553962" lon="13.439108325771077" id="-9466">
		<tag k="name" v="Gammelgarden" />
		<tag k="place" v="farm" />
		<tag k="ssr:stedsnr" v="277453" />
	</node>
	<node lat="65.63619822187056" lon="13.441693823958175" id="-9475">
		<tag k="fixme" v="consider place=hamlet" />
		<tag k="name" v="Vestre Haustreisa" />
		<tag k="place" v="farm" />
		<tag k="ssr:stedsnr" v="318523" />
	</node>
	<node lat="65.50648333711264" lon="13.396036113041244" id="-9487">
		<tag k="name" v="Fløtnes" />
		<tag k="place" v="farm" />
		<tag k="ssr:stedsnr" v="318361" />
	</node>
	<node lat="65.52236110856533" lon="13.65023056412321" id="-9502">
		<tag k="name" v="Veltan" />
		<tag k="place" v="isolated_dwelling" />
		<tag k="ssr:stedsnr" v="319355" />
	</node>
	<node lat="65.59374166561682" lon="13.388622216802593" id="-9504">
		<tag k="alt_name" v="Gluggvasshaugen" />
		<tag k="name" v="Oppigarden" />
		<tag k="place" v="farm" />
		<tag k="ssr:stedsnr" v="319607" />
	</node>
	<node lat="65.67141666824052" lon="13.260594435393367" id="-9508">
		<tag k="name" v="Ostun" />
		<tag k="place" v="farm" />
		<tag k="ssr:stedsnr" v="319720" />
	</node>
	<node lat="65.32380855870798" lon="13.534402909421635" id="-9516">
		<tag k="fixme" v="consider place=hamlet" />
		<tag k="name" v="Tøymskardlia" />
		<tag k="place" v="farm" />
		<tag k="ssr:stedsnr" v="319879" />
	</node>
	<node lat="65.47242778245645" lon="13.619311101244712" id="-9521">
		<tag k="name" v="Lia" />
		<tag k="place" v="farm" />
		<tag k="ssr:stedsnr" v="319970" />
	</node>
	<node lat="65.43981667002487" lon="13.392938896335759" id="-9538">
		<tag k="name" v="Vevang" />
		<tag k="place" v="farm" />
		<tag k="ssr:stedsnr" v="337027" />
	</node>
	<node lat="65.56865277750752" lon="13.402833341927716" id="-9543">
		<tag k="name" v="Skogmo" />
		<tag k="place" v="farm" />
		<tag k="ssr:stedsnr" v="337473" />
	</node>
	<node lat="65.52993611139928" lon="13.3963888898725" id="-9545">
		<tag k="name" v="Utigarden" />
		<tag k="place" v="farm" />
		<tag k="ssr:stedsnr" v="337630" />
	</node>
	<node lat="65.39235555587014" lon="13.622980554571413" id="-9554">
		<tag k="name" v="Nyheim" />
		<tag k="place" v="farm" />
		<tag k="ssr:stedsnr" v="338532" />
	</node>
	<node lat="65.13120277454546" lon="13.391816671019798" id="-9566">
		<tag k="name" v="Sole" />
		<tag k="place" v="farm" />
		<tag k="ssr:stedsnr" v="379641" />
	</node>
	<node lat="65.61491944182245" lon="13.357099996701548" id="-9576">
		<tag k="alt_name" v="Lisætra" />
		<tag k="name" v="Lisetra" />
		<tag k="place" v="isolated_dwelling" />
		<tag k="ssr:stedsnr" v="379491" />
	</node>
	<node lat="65.56859444151677" lon="13.40209723113627" id="-9584">
		<tag k="name" v="Skogstad" />
		<tag k="place" v="farm" />
		<tag k="ssr:stedsnr" v="379577" />
	</node>
	<node lat="65.59772777483869" lon="13.325513890918492" id="-9586">
		<tag k="name" v="Valstad" />
		<tag k="place" v="farm" />
		<tag k="ssr:stedsnr" v="379581" />
	</node>
	<node lat="65.60986666284333" lon="13.312769446614926" id="-9587">
		<tag k="alt_name" v="Høgmoen" />
		<tag k="name" v="Høgmo" />
		<tag k="place" v="farm" />
		<tag k="ssr:stedsnr" v="379590" />
	</node>
	<node lat="65.45500555435646" lon="13.46636666922468" id="-9602">
		<tag k="name" v="Moen" />
		<tag k="place" v="farm" />
		<tag k="ssr:stedsnr" v="379937" />
	</node>
	<node lat="65.56806388686138" lon="13.441697215166942" id="-9611">
		<tag k="historic" v="shieling" />
		<tag k="name" v="Fellingforssetra" />
		<tag k="place" v="isolated_dwelling" />
		<tag k="ssr:stedsnr" v="390034" />
	</node>
	<node lat="65.46687221844066" lon="13.402074989644934" id="-9631">
		<tag k="name" v="Kroken" />
		<tag k="place" v="farm" />
		<tag k="ssr:stedsnr" v="397689" />
	</node>
	<node lat="65.56310000248597" lon="13.403175006353555" id="-9634">
		<tag k="name" v="Olsrud" />
		<tag k="place" v="farm" />
		<tag k="ssr:stedsnr" v="397518" />
	</node>
	<node lat="65.58972500289713" lon="13.38883888467732" id="-9640">
		<tag k="name" v="Granheim" />
		<tag k="place" v="farm" />
		<tag k="ssr:stedsnr" v="397922" />
	</node>
	<node lat="65.67100833286652" lon="13.556538886872236" id="-9646">
		<tag k="name" v="Gluggvatnet" />
		<tag k="place" v="locality" />
		<tag k="ssr:stedsnr" v="399671" />
	</node>
	<node lat="65.44442500303113" lon="13.401327786689011" id="-9648">
		<tag k="name" v="Svenningdal campingplass" />
		<tag k="ssr:stedsnr" v="404095" />
		<tag k="tourism" v="camp_site" />
	</node>
	<node lat="65.51584721857172" lon="13.548888897134903" id="-9656">
		<tag k="name" v="Skoglund" />
		<tag k="place" v="farm" />
		<tag k="ssr:stedsnr" v="440282" />
	</node>
	<node lat="65.35317406043247" lon="13.609434015109779" id="-9680">
		<tag k="fixme" v="consider place=hamlet" />
		<tag k="name" v="Bustadmoen" />
		<tag k="place" v="farm" />
		<tag k="ssr:stedsnr" v="440883" />
	</node>
	<node lat="65.45772777459749" lon="13.40272777996487" id="-9681">
		<tag k="alt_name" v="Svenningdalen, øvre;Svenningdal Øvre" />
		<tag k="fixme" v="consider place=hamlet" />
		<tag k="name" v="Øvre Svenningdalen" />
		<tag k="place" v="farm" />
		<tag k="ssr:stedsnr" v="440961" />
	</node>
	<node lat="65.14795833272159" lon="13.351044434540519" id="-9685">
		<tag k="name" v="Skogstrand" />
		<tag k="place" v="isolated_dwelling" />
		<tag k="ssr:stedsnr" v="499653" />
	</node>
	<node lat="65.50386666915333" lon="13.322263879880564" id="-9692">
		<tag k="name" v="Øvre Svenningdalsætra" />
		<tag k="place" v="locality" />
		<tag k="ssr:stedsnr" v="500315" />
	</node>
	<node lat="65.52186360385673" lon="13.548856044722418" id="-9693">
		<tag k="alt_name" v="Stabbforsmo" />
		<tag k="fixme" v="consider place=hamlet" />
		<tag k="name" v="Stabbforsmoen" />
		<tag k="place" v="farm" />
		<tag k="ssr:stedsnr" v="501342" />
	</node>
	<node lat="65.13691388503605" lon="13.353177771188328" id="-9702">
		<tag k="name" v="Majahaugen" />
		<tag k="place" v="farm" />
		<tag k="ssr:stedsnr" v="500745" />
	</node>
	<node lat="65.17928888545235" lon="13.419502783432712" id="-9705">
		<tag k="name" v="Øyum" />
		<tag k="place" v="farm" />
		<tag k="ssr:stedsnr" v="500760" />
	</node>
	<node lat="65.18059114313667" lon="13.419398599846545" id="-9706">
		<tag k="fixme" v="consider place=hamlet" />
		<tag k="name" v="Tomaslia" />
		<tag k="place" v="farm" />
		<tag k="ssr:stedsnr" v="500761" />
	</node>
	<node lat="65.6118500010164" lon="13.422241657847813" id="-9717">
		<tag k="name" v="Graneskogen" />
		<tag k="place" v="isolated_dwelling" />
		<tag k="ssr:stedsnr" v="501577" />
	</node>
	<node lat="65.42496944226973" lon="13.660697226555513" id="-9743">
		<tag k="alt_name" v="Leira" />
		<tag k="name" v="Leiren" />
		<tag k="place" v="hamlet" />
		<tag k="ssr:stedsnr" v="513054" />
	</node>
	<node lat="65.5606972207602" lon="13.401852774255367" id="-9751">
		<tag k="name" v="Nyrud" />
		<tag k="place" v="farm" />
		<tag k="ssr:stedsnr" v="519489" />
	</node>
	<node lat="65.67727222241216" lon="13.25996389881551" id="-9752">
		<tag k="name" v="Buvang" />
		<tag k="place" v="farm" />
		<tag k="ssr:stedsnr" v="519491" />
	</node>
	<node lat="65.52915833118618" lon="13.396355564029399" id="-9765">
		<tag k="name" v="Innigarden" />
		<tag k="place" v="farm" />
		<tag k="ssr:stedsnr" v="519655" />
	</node>
	<node lat="65.51958610683445" lon="13.542300001521461" id="-9770">
		<tag k="name" v="Øverbakken" />
		<tag k="place" v="farm" />
		<tag k="ssr:stedsnr" v="520698" />
	</node>
	<node lat="65.52054722329372" lon="13.553508342245616" id="-9771">
		<tag k="name" v="Stabbimo" />
		<tag k="place" v="farm" />
		<tag k="ssr:stedsnr" v="520742" />
	</node>
	<node lat="65.17098611237915" lon="13.433830566052196" id="-9795">
		<tag k="name" v="Hesjarvollen" />
		<tag k="place" v="locality" />
		<tag k="ssr:stedsnr" v="560707" />
	</node>
	<node lat="65.45658611007714" lon="13.470049998252223" id="-9800">
		<tag k="name" v="Heimgarden" />
		<tag k="place" v="farm" />
		<tag k="ssr:stedsnr" v="560952" />
	</node>
	<node lat="65.46170833041971" lon="13.671422220293547" id="-9801">
		<tag k="name" v="Hammaren" />
		<tag k="place" v="farm" />
		<tag k="ssr:stedsnr" v="560954" />
	</node>
	<node lat="65.56377500003292" lon="13.403827782112199" id="-9816">
		<tag k="name" v="Nystad" />
		<tag k="place" v="farm" />
		<tag k="ssr:stedsnr" v="561581" />
	</node>
	<node lat="65.29995833254993" lon="13.34141944855517" id="-9837">
		<tag k="name" v="Svenningrud" />
		<tag k="place" v="farm" />
		<tag k="ssr:stedsnr" v="561858" />
	</node>
	<node lat="65.46468610806731" lon="13.597733342822442" id="-9883">
		<tag k="name" v="Derut" />
		<tag k="place" v="farm" />
		<tag k="ssr:stedsnr" v="580375" />
	</node>
	<node lat="65.40951263895366" lon="13.379807269544617" id="-9894">
		<tag k="fixme" v="consider place=hamlet" />
		<tag k="name" v="Øvre Hjortskardmoen" />
		<tag k="place" v="farm" />
		<tag k="ssr:stedsnr" v="621942" />
	</node>
	<node lat="65.43749721848533" lon="13.692808341840621" id="-9895">
		<tag k="alt_name" v="Langlia" />
		<tag k="name" v="Langli" />
		<tag k="place" v="farm" />
		<tag k="ssr:stedsnr" v="621951" />
	</node>
	<node lat="65.66473848292765" lon="13.427430525367846" id="-9900">
		<tag k="fixme" v="consider place=hamlet" />
		<tag k="name" v="Nygården" />
		<tag k="place" v="farm" />
		<tag k="ssr:stedsnr" v="621593" />
	</node>
	<node lat="65.57822777794986" lon="13.400661110752772" id="-9908">
		<tag k="name" v="Lamoen" />
		<tag k="place" v="farm" />
		<tag k="ssr:stedsnr" v="621640" />
	</node>
	<node lat="65.51692508462288" lon="13.6908229843844" id="-9915">
		<tag k="fixme" v="consider place=hamlet" />
		<tag k="name" v="Hallingen" />
		<tag k="place" v="farm" />
		<tag k="ssr:stedsnr" v="622348" />
	</node>
	<node lat="65.5181787217178" lon="13.624054558413848" id="-9916">
		<tag k="alt_name" v="Kløvimo" />
		<tag k="fixme" v="consider place=hamlet" />
		<tag k="name" v="Kløvimoen" />
		<tag k="place" v="farm" />
		<tag k="ssr:stedsnr" v="622355" />
	</node>
	<node lat="65.30711110932197" lon="13.311538880081232" id="-9917">
		<tag k="name" v="Holmvassåsen" />
		<tag k="place" v="farm" />
		<tag k="ssr:stedsnr" v="622839" />
	</node>
	<node lat="65.46462500077874" lon="13.59711110381327" id="-9923">
		<tag k="name" v="Kilhaugen" />
		<tag k="place" v="farm" />
		<tag k="ssr:stedsnr" v="622954" />
	</node>
	<node lat="65.46760270266188" lon="13.693120691128673" id="-9924">
		<tag k="fixme" v="consider place=hamlet" />
		<tag k="name" v="Storfiplingdalen" />
		<tag k="place" v="farm" />
		<tag k="ssr:stedsnr" v="622955" />
	</node>
	<node lat="65.45866111455521" lon="13.398086112632445" id="-9925">
		<tag k="name" v="Utigarden" />
		<tag k="place" v="farm" />
		<tag k="ssr:stedsnr" v="622957" />
	</node>
	<node lat="65.32882777398332" lon="13.380338893752603" id="-9941">
		<tag k="name" v="Bergertomta" />
		<tag k="place" v="locality" />
		<tag k="ssr:stedsnr" v="634921" />
	</node>
	<node lat="65.28520555889735" lon="13.659091672138697" id="-9960">
		<tag k="fixme" v="consider tourism=alpine_hut or tourism=chalet" />
		<tag k="name" v="Simskardhytta" />
		<tag k="ssr:stedsnr" v="644465" />
		<tag k="tourism" v="wilderness_hut" />
	</node>
	<node lat="65.58377499985669" lon="13.393294446434608" id="-9964">
		<tag k="name" v="Grane" />
		<tag k="place" v="farm" />
		<tag k="ssr:stedsnr" v="725460" />
	</node>
	<node lat="65.1421416699846" lon="13.351958323361139" id="-9966">
		<tag k="name" v="Skogtun" />
		<tag k="place" v="isolated_dwelling" />
		<tag k="ssr:stedsnr" v="742651" />
	</node>
	<node lat="65.22268553363999" lon="13.360815028893075" id="-9975">
		<tag k="fixme" v="consider place=hamlet" />
		<tag k="name" v="Kappfjellia" />
		<tag k="place" v="farm" />
		<tag k="ssr:stedsnr" v="743758" />
	</node>
	<node lat="65.54442777396996" lon="13.39669167343994" id="-9980">
		<tag k="name" v="Solheim" />
		<tag k="place" v="farm" />
		<tag k="ssr:stedsnr" v="743348" />
	</node>
	<node lat="65.54908551720409" lon="13.387943100678541" id="-9981">
		<tag k="fixme" v="consider place=hamlet" />
		<tag k="name" v="Nedre Svenningdalen" />
		<tag k="place" v="farm" />
		<tag k="ssr:stedsnr" v="743351" />
	</node>
	<node lat="65.35185121624798" lon="13.341771633337641" id="-9999">
		<tag k="fixme" v="consider place=hamlet" />
		<tag k="name" v="Holmvassdalen" />
		<tag k="place" v="farm" />
		<tag k="ssr:stedsnr" v="743895" />
	</node>
	<node lat="65.38650833253736" lon="13.366647212064592" id="-10000">
		<tag k="name" v="Brenna" />
		<tag k="place" v="farm" />
		<tag k="ssr:stedsnr" v="743914" />
	</node>
	<node lat="65.41490833184919" lon="13.390477767330855" id="-10006">
		<tag k="alt_name" v="Åsmo" />
		<tag k="name" v="Åsmoen" />
		<tag k="place" v="farm" />
		<tag k="ssr:stedsnr" v="743932" />
	</node>
	<node lat="65.47845315238932" lon="13.706264569993868" id="-10011">
		<tag k="fixme" v="consider place=hamlet" />
		<tag k="name" v="Forshaugen" />
		<tag k="place" v="farm" />
		<tag k="ssr:stedsnr" v="743965" />
	</node>
	<node lat="65.59137026792023" lon="13.378584006517896" id="-10014">
		<tag k="fixme" v="consider place=hamlet" />
		<tag k="name" v="Finnsåsen" />
		<tag k="place" v="farm" />
		<tag k="ssr:stedsnr" v="744582" />
	</node>
	<node lat="65.60033333745928" lon="13.382311111691932" id="-10017">
		<tag k="name" v="Brenna" />
		<tag k="place" v="farm" />
		<tag k="ssr:stedsnr" v="744590" />
	</node>
	<node lat="65.46575832941193" lon="13.671063898942714" id="-10023">
		<tag k="alt_name" v="Bjørkesletta" />
		<tag k="name" v="Bjørkeslett" />
		<tag k="place" v="farm" />
		<tag k="ssr:stedsnr" v="744953" />
	</node>
	<node lat="65.13386389178976" lon="13.410150002174666" id="-10037">
		<tag k="historic" v="shieling" />
		<tag k="name" v="Asbjørnsetra" />
		<tag k="place" v="isolated_dwelling" />
		<tag k="ssr:stedsnr" v="755127" />
	</node>
	<node lat="65.43549444182409" lon="13.397777773399826" id="-10042">
		<tag k="name" v="Heggneset" />
		<tag k="place" v="farm" />
		<tag k="ssr:stedsnr" v="761034" />
	</node>
	<node lat="65.41124444547262" lon="13.382077777331103" id="-10043">
		<tag k="name" v="Utigarden" />
		<tag k="place" v="farm" />
		<tag k="ssr:stedsnr" v="761114" />
	</node>
	<node lat="65.53592777691188" lon="13.390824993201871" id="-10048">
		<tag k="name" v="Troforsen" />
		<tag k="place" v="farm" />
		<tag k="ssr:stedsnr" v="761687" />
	</node>
	<node lat="65.593977778152" lon="13.30086389602109" id="-10052">
		<tag k="historic" v="shieling" />
		<tag k="name" v="Bjordalssætra" />
		<tag k="place" v="isolated_dwelling" />
		<tag k="ssr:stedsnr" v="762364" />
	</node>
	<node lat="65.56220833792891" lon="13.40302221899513" id="-10053">
		<tag k="name" v="Dalbu" />
		<tag k="place" v="farm" />
		<tag k="ssr:stedsnr" v="762419" />
	</node>
	<node lat="65.58501388779682" lon="13.40034444357364" id="-10062">
		<tag k="name" v="Bakken" />
		<tag k="place" v="farm" />
		<tag k="ssr:stedsnr" v="762920" />
	</node>
	<node lat="65.31794444831323" lon="13.558966670314902" id="-10073">
		<tag k="name" v="Nyrud" />
		<tag k="place" v="farm" />
		<tag k="ssr:stedsnr" v="804870" />
	</node>
	<node lat="65.1754583369545" lon="13.37352500689206" id="-10083">
		<tag k="name" v="Flyum" />
		<tag k="place" v="farm" />
		<tag k="ssr:stedsnr" v="804719" />
	</node>
	<node lat="65.68302514242565" lon="13.242048841729012" id="-10084">
		<tag k="alt_name" v="Turmo" />
		<tag k="fixme" v="consider place=hamlet" />
		<tag k="name" v="Turmoen" />
		<tag k="place" v="farm" />
		<tag k="ssr:stedsnr" v="804720" />
	</node>
	<node lat="65.52959166523333" lon="13.455791658533533" id="-10091">
		<tag k="name" v="Joibakken" />
		<tag k="place" v="isolated_dwelling" />
		<tag k="ssr:stedsnr" v="804384" />
	</node>
	<node lat="65.51031944722875" lon="13.34562500007977" id="-10092">
		<tag k="name" v="Litlevassetra" />
		<tag k="place" v="isolated_dwelling" />
		<tag k="ssr:stedsnr" v="804394" />
	</node>
	<node lat="65.41254166843677" lon="13.669125003651883" id="-10110">
		<tag k="name" v="Nerosen" />
		<tag k="place" v="farm" />
		<tag k="ssr:stedsnr" v="804925" />
	</node>
	<node lat="65.4331333364263" lon="13.676061101959348" id="-10112">
		<tag k="alt_name" v="Sagarmoen" />
		<tag k="name" v="Sagarmo" />
		<tag k="place" v="farm" />
		<tag k="ssr:stedsnr" v="804933" />
	</node>
	<node lat="65.44175277724061" lon="13.66569722341528" id="-10114">
		<tag k="name" v="Storselja" />
		<tag k="place" v="farm" />
		<tag k="ssr:stedsnr" v="804939" />
	</node>
	<node lat="65.4380083294694" lon="13.678338879129395" id="-10115">
		<tag k="alt_name" v="Elvebakkmyra" />
		<tag k="name" v="Elvebakkmyr" />
		<tag k="place" v="farm" />
		<tag k="ssr:stedsnr" v="804940" />
	</node>
	<node lat="65.42644166674715" lon="13.399083333982322" id="-10116">
		<tag k="name" v="Åseng" />
		<tag k="place" v="farm" />
		<tag k="ssr:stedsnr" v="804947" />
	</node>
	<node lat="65.5919722239868" lon="13.376288880709225" id="-10150">
		<tag k="name" v="Utigarden" />
		<tag k="place" v="farm" />
		<tag k="ssr:stedsnr" v="823875" />
	</node>
	<node lat="65.59523611538613" lon="13.372841670417555" id="-10151">
		<tag k="name" v="Storsletta" />
		<tag k="place" v="farm" />
		<tag k="ssr:stedsnr" v="823877" />
	</node>
	<node lat="65.59020277582071" lon="13.400127784013598" id="-10152">
		<tag k="name" v="Steinbakken" />
		<tag k="place" v="farm" />
		<tag k="ssr:stedsnr" v="823883" />
	</node>
	<node lat="65.52186388456936" lon="13.552044448173783" id="-10157">
		<tag k="name" v="Innigarden" />
		<tag k="place" v="farm" />
		<tag k="ssr:stedsnr" v="824688" />
	</node>
	<node lat="65.5834416659453" lon="13.39296944143737" id="-10161">
		<tag k="fixme" v="consider place=hamlet" />
		<tag k="loc_name:sma" v="Gaala" />
		<tag k="name" v="Grane" />
		<tag k="name:no" v="Grane" />
		<tag k="place" v="farm" />
		<tag k="ssr:stedsnr" v="847521" />
	</node>
	<node lat="65.10539166830011" lon="13.330991675092102" id="-10167">
		<tag k="name" v="Tjønnerud" />
		<tag k="place" v="farm" />
		<tag k="ssr:stedsnr" v="864721" />
	</node>
	<node lat="65.1891166668536" lon="13.31753333959641" id="-10168">
		<tag k="name" v="Engelskvillaen" />
		<tag k="place" v="isolated_dwelling" />
		<tag k="ssr:stedsnr" v="864732" />
	</node>
	<node lat="65.52779721927531" lon="13.478286106804019" id="-10182">
		<tag k="name" v="Granmoen" />
		<tag k="place" v="farm" />
		<tag k="ssr:stedsnr" v="865395" />
	</node>
	<node lat="65.61992778104155" lon="13.307224990203908" id="-10185">
		<tag k="name" v="Bjørklund" />
		<tag k="place" v="farm" />
		<tag k="ssr:stedsnr" v="865535" />
	</node>
	<node lat="65.60368333611422" lon="13.326569444779167" id="-10192">
		<tag k="name" v="Fagerstad" />
		<tag k="place" v="farm" />
		<tag k="ssr:stedsnr" v="865621" />
	</node>
	<node lat="65.38925555590647" lon="13.650341660923864" id="-10203">
		<tag k="alt_name" v="Løypskarmo" />
		<tag k="name" v="Laupskardmoen" />
		<tag k="place" v="farm" />
		<tag k="ssr:stedsnr" v="865901" />
	</node>
	<node lat="65.41863055142994" lon="13.48217222024449" id="-10208">
		<tag k="historic" v="shieling" />
		<tag k="name" v="Svenningdalssæter" />
		<tag k="place" v="isolated_dwelling" />
		<tag k="ssr:stedsnr" v="865933" />
	</node>
	<node lat="65.45815833137871" lon="13.39107499016503" id="-10239">
		<tag k="name" v="Olderbakken" />
		<tag k="place" v="farm" />
		<tag k="ssr:stedsnr" v="883236" />
	</node>
	<node lat="65.59463888552912" lon="13.384313881251963" id="-10247">
		<tag k="name" v="Motangen" />
		<tag k="place" v="farm" />
		<tag k="ssr:stedsnr" v="883944" />
	</node>
	<node lat="65.62536110779688" lon="13.284194453762295" id="-10277">
		<tag k="name" v="Laksfors" />
		<tag k="place" v="farm" />
		<tag k="ssr:stedsnr" v="944444" />
	</node>
	<node lat="65.55438055920754" lon="13.397911114411542" id="-10288">
		<tag k="name" v="Øvermoen" />
		<tag k="place" v="farm" />
		<tag k="ssr:stedsnr" v="944973" />
	</node>
	<node lat="65.51815833609" lon="13.609711107895805" id="-10291">
		<tag k="name" v="Heggtun" />
		<tag k="place" v="isolated_dwelling" />
		<tag k="ssr:stedsnr" v="945925" />
	</node>
	<node lat="65.59110856497797" lon="13.389753357028608" id="-10293">
		<tag k="name" v="Grane" />
		<tag k="place" v="farm" />
		<tag k="ssr:stedsnr" v="967467" />
	</node>
	<node lat="65.43918186248644" lon="13.40539566133283" id="-10295">
		<tag k="fixme" v="consider place=suburb, village or hamlet" />
		<tag k="name" v="Svenningdalen - Svætnoevuemie" />
		<tag k="name:no" v="Svenningdalen" />
		<tag k="name:sma" v="Svætnoevuemie" />
		<tag k="place" v="quarter" />
		<tag k="ssr:stedsnr" v="1074495" />
	</node>
	<node lat="65.6350872274589" lon="13.442712183149705" id="-10296">
		<tag k="name" v="Haustreisa" />
		<tag k="place" v="hamlet" />
		<tag k="ssr:stedsnr" v="1075756" />
	</node>
	<node lat="65.6550661037658" lon="13.235830563227971" id="-10297">
		<tag k="name" v="Spølremma" />
		<tag k="old_name" v="Spelremmen" />
		<tag k="place" v="farm" />
		<tag k="ssr:stedsnr" v="1077514" />
	</node>
	<node lat="65.66064071267824" lon="13.264712511851341" id="-10298">
		<tag k="name" v="Spølremma" />
		<tag k="place" v="farm" />
		<tag k="ssr:stedsnr" v="1077515" />
	</node>
	<node lat="65.46444437330207" lon="13.657394645473694" id="-10300">
		<tag k="name" v="Fiplingdalen - Feelpehtvuemie" />
		<tag k="name:no" v="Fiplingdalen" />
		<tag k="name:sma" v="Feelpehtvuemie" />
		<tag k="place" v="hamlet" />
		<tag k="ssr:stedsnr" v="1078752" />
	</node>
	<node lat="65.32418269443659" lon="13.571466020857299" id="-10302">
		<tag k="fixme" v="consider tourism=alpine_hut or tourism=chalet" />
		<tag k="name" v="Bustadmohytta" />
		<tag k="ssr:stedsnr" v="1081055" />
		<tag k="tourism" v="wilderness_hut" />
	</node>
</osm>
