<?xml version="1.0" encoding="UTF-8"?>
<osm generator="osmapis" version="0.6">
	<node id="-14079" lat="65.5989138884" lon="13.3010083316">
		<tag k="highway" v="path" />
		<tag k="name" v="Bjordalsvegen" />
		<tag k="ssr:stedsnr" v="155384" />
	</node>
	<node id="-12734" lat="65.164363892" lon="13.3676499972">
		<tag k="name" v="Majavatn stasjon" />
		<tag k="railway" v="station" />
		<tag k="ssr:stedsnr" v="257727" />
		<tag k="train" v="yes" />
	</node>
	<node id="-13691" lat="65.6175833316" lon="13.3064972223">
		<tag k="highway" v="rest_area" />
		<tag k="name" v="Laksforsen" />
		<tag k="ssr:stedsnr" v="848803" />
	</node>
	<node id="-13887" lat="65.6705583342" lon="13.5659416723">
		<tag k="highway" v="path" />
		<tag k="name" v="Grasgjotvegen" />
		<tag k="ssr:stedsnr" v="35745" />
	</node>
	<node id="-13847" lat="65.4495805575" lon="13.4469777742">
		<tag k="highway" v="path" />
		<tag k="name" v="Svenningvegen" />
		<tag k="ssr:stedsnr" v="27369" />
	</node>
	<node id="-14132" lat="65.4340638889" lon="13.3944694447">
		<tag k="name" v="Svenningdalen stasjon" />
		<tag k="railway" v="station" />
		<tag k="ssr:stedsnr" v="197953" />
		<tag k="train" v="yes" />
	</node>
	<node id="-13171" lat="65.1740777786" lon="13.4384305453">
		<tag k="highway" v="path" />
		<tag k="name" v="BÃ¸rgefjellvegen" />
		<tag k="ssr:stedsnr" v="513249" />
	</node>
	<node id="-14288" lat="65.3761305553" lon="13.3638500026">
		<tag k="junction" v="yes" />
		<tag k="name" v="Toskrysset" />
		<tag k="place" v="locality" />
		<tag k="ssr:stedsnr" v="362766" />
	</node>
	<node id="-12814" lat="65.5129916648" lon="13.5660277806">
		<tag k="highway" v="path" />
		<tag k="name" v="Setervegen" />
		<tag k="ssr:stedsnr" v="147107" />
	</node>
	<node id="-14442" lat="65.5377249971" lon="13.3822444431">
		<tag k="alt_name" v="Trofors" />
		<tag k="name" v="Trofors stasjon" />
		<tag k="railway" v="station" />
		<tag k="ssr:stedsnr" v="561346" />
		<tag k="train" v="yes" />
	</node>
	<node id="-12727" lat="65.3311611085" lon="13.53622777">
		<tag k="highway" v="path" />
		<tag k="name" v="Fjellvegen" />
		<tag k="ssr:stedsnr" v="86407" />
	</node>
	<node id="-13063" lat="65.3768000004" lon="13.3635500059">
		<tag k="highway" v="rest_area" />
		<tag k="name" v="Vasselva" />
		<tag k="ssr:stedsnr" v="301819" />
	</node>
	<node id="-13350" lat="65.1694083376" lon="13.4579833275">
		<tag k="highway" v="path" />
		<tag k="name" v="Jengelvegen" />
		<tag k="ssr:stedsnr" v="560708" />
	</node>
</osm>
