<?xml version="1.0" encoding="UTF-8"?>
<osm version="0.6" generator="osmapis">
	<node lat="65.55171388687027" lon="13.685555554032252" id="-14960">
		<tag k="name" v="Stormyra" />
		<tag k="natural" v="wetland" />
		<tag k="ssr:stedsnr" v="241091" />
	</node>
	<node lat="65.56348055374126" lon="13.703827779209426" id="-14983">
		<tag k="name" v="Langmyra" />
		<tag k="natural" v="wetland" />
		<tag k="ssr:stedsnr" v="76747" />
	</node>
	<node lat="65.63781666897732" lon="13.419966657086114" id="-15010">
		<tag k="name" v="Brumyra" />
		<tag k="natural" v="wetland" />
		<tag k="ssr:stedsnr" v="95479" />
	</node>
	<node lat="65.4867555561142" lon="13.652333331031056" id="-15059">
		<tag k="landuse" v="meadow" />
		<tag k="name" v="Trettenget" />
		<tag k="ssr:stedsnr" v="155817" />
	</node>
	<node lat="65.55092500323808" lon="13.372750000918872" id="-15081">
		<tag k="name" v="Stormyra" />
		<tag k="natural" v="wetland" />
		<tag k="ssr:stedsnr" v="258336" />
	</node>
	<node lat="65.46418333618017" lon="13.668258341399238" id="-15158">
		<tag k="name" v="Småbrumyra" />
		<tag k="natural" v="wetland" />
		<tag k="ssr:stedsnr" v="216014" />
	</node>
	<node lat="65.45940277720895" lon="13.604777784304916" id="-15176">
		<tag k="landuse" v="meadow" />
		<tag k="name" v="Langnesenget" />
		<tag k="ssr:stedsnr" v="217427" />
	</node>
	<node lat="65.12514166644556" lon="13.458830547151809" id="-15201">
		<tag k="name" v="Storelvmyran" />
		<tag k="natural" v="wetland" />
		<tag k="ssr:stedsnr" v="257722" />
	</node>
	<node lat="65.47246389308495" lon="13.663927773176775" id="-15239">
		<tag k="name" v="Saumyra" />
		<tag k="natural" v="wetland" />
		<tag k="ssr:stedsnr" v="459014" />
	</node>
	<node lat="65.65906389220812" lon="13.28417499815769" id="-15244">
		<tag k="name" v="Hannabekkmyra" />
		<tag k="natural" v="wetland" />
		<tag k="ssr:stedsnr" v="459382" />
	</node>
	<node lat="65.44781666806449" lon="13.386069439434754" id="-15248">
		<tag k="name" v="Blåfjellmyran" />
		<tag k="natural" v="wetland" />
		<tag k="ssr:stedsnr" v="276026" />
	</node>
	<node lat="65.6499194406111" lon="13.403755545637553" id="-15251">
		<tag k="name" v="Stigermyra" />
		<tag k="natural" v="wetland" />
		<tag k="ssr:stedsnr" v="276671" />
	</node>
	<node lat="65.49097777917358" lon="13.660994438305968" id="-15256">
		<tag k="landuse" v="meadow" />
		<tag k="name" v="Tjønnlienget" />
		<tag k="ssr:stedsnr" v="277838" />
	</node>
	<node lat="65.5532277811265" lon="13.73505555255058" id="-15359">
		<tag k="name" v="Vakkertausmyran" />
		<tag k="natural" v="wetland" />
		<tag k="ssr:stedsnr" v="423096" />
	</node>
	<node lat="65.60620000196664" lon="13.296766669166098" id="-15417">
		<tag k="name" v="Stormyra" />
		<tag k="natural" v="wetland" />
		<tag k="ssr:stedsnr" v="459180" />
	</node>
	<node lat="65.48619167109065" lon="13.665602781074933" id="-15516">
		<tag k="landuse" v="meadow" />
		<tag k="name" v="Holmenget" />
		<tag k="ssr:stedsnr" v="520861" />
	</node>
	<node lat="65.59008333219353" lon="13.406008327673247" id="-15561">
		<tag k="name" v="Tistelgjøten" />
		<tag k="place" v="locality" />
		<tag k="ssr:stedsnr" v="579925" />
	</node>
	<node lat="65.61247222127965" lon="13.28116388121484" id="-15576">
		<tag k="name" v="Tjønnmyra" />
		<tag k="natural" v="wetland" />
		<tag k="ssr:stedsnr" v="701209" />
	</node>
	<node lat="65.4714972264927" lon="13.391777784137382" id="-15586">
		<tag k="name" v="Skjeftemyra" />
		<tag k="natural" v="wetland" />
		<tag k="ssr:stedsnr" v="701687" />
	</node>
	<node lat="65.5467166645203" lon="13.415836118153571" id="-15590">
		<tag k="name" v="Torvmyra" />
		<tag k="natural" v="wetland" />
		<tag k="ssr:stedsnr" v="701983" />
	</node>
	<node lat="65.46704722286934" lon="13.592188881434604" id="-15592">
		<tag k="landuse" v="meadow" />
		<tag k="name" v="Haremoenget" />
		<tag k="ssr:stedsnr" v="702393" />
	</node>
	<node lat="65.63386110871387" lon="13.41088056404152" id="-15600">
		<tag k="name" v="Finnmyra" />
		<tag k="natural" v="wetland" />
		<tag k="ssr:stedsnr" v="702508" />
	</node>
	<node lat="65.53623333513637" lon="13.558191661676577" id="-15611">
		<tag k="name" v="Gamarka" />
		<tag k="place" v="locality" />
		<tag k="ssr:stedsnr" v="702802" />
	</node>
	<node lat="65.65364444294221" lon="13.413808327221673" id="-15642">
		<tag k="name" v="Langmyra" />
		<tag k="natural" v="wetland" />
		<tag k="ssr:stedsnr" v="640626" />
	</node>
	<node lat="65.63140277334664" lon="13.31280555554046" id="-15707">
		<tag k="name" v="Stormyra" />
		<tag k="natural" v="wetland" />
		<tag k="ssr:stedsnr" v="701377" />
	</node>
	<node lat="65.414805554589" lon="13.659691672535626" id="-15717">
		<tag k="name" v="Storsteinmyra" />
		<tag k="natural" v="wetland" />
		<tag k="ssr:stedsnr" v="703204" />
	</node>
	<node lat="65.52732778131444" lon="13.545063894695227" id="-15745">
		<tag k="name" v="Tjeldtjønnmyra" />
		<tag k="natural" v="wetland" />
		<tag k="ssr:stedsnr" v="744297" />
	</node>
	<node lat="65.52254444297287" lon="13.410347212029862" id="-15760">
		<tag k="name" v="Fuglåsmyra" />
		<tag k="natural" v="wetland" />
		<tag k="ssr:stedsnr" v="761711" />
	</node>
	<node lat="65.46557499600128" lon="13.65912222487752" id="-15762">
		<tag k="name" v="Åsmyra" />
		<tag k="natural" v="wetland" />
		<tag k="ssr:stedsnr" v="762013" />
	</node>
	<node lat="65.5384861142627" lon="13.421224996877951" id="-15804">
		<tag k="name" v="Raumyra" />
		<tag k="natural" v="wetland" />
		<tag k="ssr:stedsnr" v="823607" />
	</node>
	<node lat="65.6172194475543" lon="13.364605556051988" id="-15809">
		<tag k="name" v="Forrhaugenget" />
		<tag k="place" v="locality" />
		<tag k="ssr:stedsnr" v="823925" />
	</node>
	<node lat="65.58196388750069" lon="13.602219454205468" id="-15822">
		<tag k="name" v="Nordfjellmyran" />
		<tag k="natural" v="wetland" />
		<tag k="ssr:stedsnr" v="925606" />
	</node>
	<node lat="65.55596666259285" lon="13.691794451679552" id="-15830">
		<tag k="name" v="Spelmyra" />
		<tag k="natural" v="wetland" />
		<tag k="ssr:stedsnr" v="848105" />
	</node>
	<node lat="65.53129721793869" lon="13.39653611371011" id="-15865">
		<tag k="name" v="Risøra" />
		<tag k="place" v="locality" />
		<tag k="ssr:stedsnr" v="883701" />
	</node>
	<node lat="65.47123959196188" lon="13.64589022991853" id="-15866">
		<tag k="name" v="Kvitstrandmyra" />
		<tag k="natural" v="wetland" />
		<tag k="ssr:stedsnr" v="884046" />
	</node>
	<node lat="65.43718055886183" lon="13.664130560962855" id="-15870">
		<tag k="name" v="Rundmyra" />
		<tag k="natural" v="wetland" />
		<tag k="ssr:stedsnr" v="885312" />
	</node>
	<node lat="65.65950277627083" lon="13.244863884497555" id="-15915">
		<tag k="name" v="Vassmyra" />
		<tag k="natural" v="wetland" />
		<tag k="ssr:stedsnr" v="944307" />
	</node>
	<node lat="65.62142222496824" lon="13.377625005469861" id="-15923">
		<tag k="name" v="Skardengan" />
		<tag k="place" v="locality" />
		<tag k="ssr:stedsnr" v="944938" />
	</node>
	<node lat="65.64077500398186" lon="13.429461114262507" id="-15983">
		<tag k="name" v="Nesmyra" />
		<tag k="natural" v="wetland" />
		<tag k="ssr:stedsnr" v="15548" />
	</node>
	<node lat="65.65206111020356" lon="13.486083340201645" id="-15990">
		<tag k="name" v="Vadmomyra" />
		<tag k="natural" v="wetland" />
		<tag k="ssr:stedsnr" v="15588" />
	</node>
	<node lat="65.6777138877428" lon="13.531805557487804" id="-16002">
		<tag k="name" v="Dølimyra" />
		<tag k="natural" v="wetland" />
		<tag k="ssr:stedsnr" v="16683" />
	</node>
	<node lat="65.51969444786455" lon="13.389577784733618" id="-16021">
		<tag k="name" v="Svenningelvøra" />
		<tag k="place" v="locality" />
		<tag k="ssr:stedsnr" v="33689" />
	</node>
	<node lat="65.6627472211811" lon="13.493086104996605" id="-16031">
		<tag k="name" v="Sovarnesmyra" />
		<tag k="natural" v="wetland" />
		<tag k="ssr:stedsnr" v="34451" />
	</node>
	<node lat="65.6374277759666" lon="13.263452786014636" id="-16091">
		<tag k="name" v="Gammeljordet" />
		<tag k="place" v="locality" />
		<tag k="ssr:stedsnr" v="94336" />
	</node>
	<node lat="65.62973889121338" lon="13.409100002122779" id="-16107">
		<tag k="landuse" v="meadow" />
		<tag k="name" v="Tjønnenget" />
		<tag k="ssr:stedsnr" v="95640" />
	</node>
	<node lat="65.53173611532083" lon="13.570186101012299" id="-16109">
		<tag k="name" v="Svartmyra" />
		<tag k="natural" v="wetland" />
		<tag k="ssr:stedsnr" v="96201" />
	</node>
	<node lat="65.64373610840542" lon="13.434077787846888" id="-16123">
		<tag k="name" v="Vesterliskogen" />
		<tag k="place" v="locality" />
		<tag k="ssr:stedsnr" v="136532" />
	</node>
	<node lat="65.5664638909802" lon="13.730794452488878" id="-16173">
		<tag k="name" v="Åsmyra" />
		<tag k="natural" v="wetland" />
		<tag k="ssr:stedsnr" v="153327" />
	</node>
	<node lat="65.63893889247979" lon="13.285097221012554" id="-16182">
		<tag k="name" v="Svarttjønnmyra" />
		<tag k="natural" v="wetland" />
		<tag k="ssr:stedsnr" v="155260" />
	</node>
	<node lat="65.50166110787528" lon="13.405488898898628" id="-16184">
		<tag k="name" v="Hestmyra" />
		<tag k="natural" v="wetland" />
		<tag k="ssr:stedsnr" v="155282" />
	</node>
	<node lat="65.4713083341703" lon="13.412894441476707" id="-16186">
		<tag k="name" v="Møsmyra" />
		<tag k="natural" v="wetland" />
		<tag k="ssr:stedsnr" v="155643" />
	</node>
	<node lat="65.39642777911978" lon="13.652533337703371" id="-16195">
		<tag k="name" v="Reinlortmyra" />
		<tag k="natural" v="wetland" />
		<tag k="ssr:stedsnr" v="157842" />
	</node>
	<node lat="65.63659722338768" lon="13.30791388651956" id="-16260">
		<tag k="name" v="Storskogen" />
		<tag k="place" v="locality" />
		<tag k="ssr:stedsnr" v="216309" />
	</node>
	<node lat="65.39899999582384" lon="13.644283333622223" id="-16272">
		<tag k="name" v="Osmyran" />
		<tag k="natural" v="wetland" />
		<tag k="ssr:stedsnr" v="218848" />
	</node>
	<node lat="65.61298889218801" lon="13.374794445417512" id="-16275">
		<tag k="name" v="Himmeriksmyra" />
		<tag k="natural" v="wetland" />
		<tag k="ssr:stedsnr" v="276334" />
	</node>
	<node lat="65.46336944074402" lon="13.638038880443702" id="-16281">
		<tag k="name" v="Djupbekkmyra" />
		<tag k="natural" v="wetland" />
		<tag k="ssr:stedsnr" v="277035" />
	</node>
	<node lat="65.6634055529062" lon="13.255855562965285" id="-16284">
		<tag k="name" v="Skogengmyra" />
		<tag k="natural" v="wetland" />
		<tag k="ssr:stedsnr" v="277259" />
	</node>
	<node lat="65.65585000262355" lon="13.30864721479792" id="-16288">
		<tag k="name" v="Storura" />
		<tag k="natural" v="scree" />
		<tag k="ssr:stedsnr" v="277354" />
	</node>
	<node lat="65.53988889208436" lon="13.727172223693438" id="-16310">
		<tag k="name" v="Fagerlibrannen" />
		<tag k="place" v="locality" />
		<tag k="ssr:stedsnr" v="318171" />
	</node>
	<node lat="65.67203055517935" lon="13.284136105879096" id="-16331">
		<tag k="name" v="Stormyra" />
		<tag k="natural" v="wetland" />
		<tag k="ssr:stedsnr" v="319715" />
	</node>
	<node lat="65.53560000001855" lon="13.412055556771792" id="-16370">
		<tag k="name" v="Stormyra" />
		<tag k="natural" v="wetland" />
		<tag k="ssr:stedsnr" v="337631" />
	</node>
	<node lat="65.55499166929873" lon="13.399825008097238" id="-16372">
		<tag k="name" v="Lillesveet" />
		<tag k="place" v="locality" />
		<tag k="ssr:stedsnr" v="337972" />
	</node>
	<node lat="65.41711944486848" lon="13.647291676589564" id="-16373">
		<tag k="name" v="Stormyra" />
		<tag k="natural" v="wetland" />
		<tag k="ssr:stedsnr" v="338136" />
	</node>
	<node lat="65.4646749999788" lon="13.614825010275382" id="-16376">
		<tag k="landuse" v="meadow" />
		<tag k="name" v="Nylaenget" />
		<tag k="ssr:stedsnr" v="338484" />
	</node>
	<node lat="65.45600277433525" lon="13.629127787153742" id="-16377">
		<tag k="landuse" v="meadow" />
		<tag k="name" v="Finnbrøstenget" />
		<tag k="ssr:stedsnr" v="338485" />
	</node>
	<node lat="65.69669167099198" lon="13.416480555129285" id="-16414">
		<tag k="name" v="Vaajjanbluevie" />
		<tag k="name:sma" v="Vaajjanbluevie" />
		<tag k="natural" v="wetland" />
		<tag k="ssr:stedsnr" v="379672" />
	</node>
	<node lat="65.66072778182529" lon="13.41326667580134" id="-16418">
		<tag k="name" v="Stormyra" />
		<tag k="natural" v="wetland" />
		<tag k="ssr:stedsnr" v="379534" />
	</node>
	<node lat="65.55519166818421" lon="13.406497224136857" id="-16463">
		<tag k="name" v="Knutmoneset" />
		<tag k="place" v="locality" />
		<tag k="ssr:stedsnr" v="397975" />
	</node>
	<node lat="65.50653055879528" lon="13.752600009775913" id="-16485">
		<tag k="name" v="Sompebluevie" />
		<tag k="name:sma" v="Sompebluevie" />
		<tag k="natural" v="wetland" />
		<tag k="ssr:stedsnr" v="440168" />
	</node>
	<node lat="65.57345278204038" lon="13.67706666190964" id="-16525">
		<tag k="name" v="Langmyra" />
		<tag k="natural" v="wetland" />
		<tag k="ssr:stedsnr" v="500659" />
	</node>
	<node lat="65.473122224591" lon="13.640963881628602" id="-16572">
		<tag k="name" v="Tortenbakkmyra" />
		<tag k="natural" v="wetland" />
		<tag k="ssr:stedsnr" v="519044" />
	</node>
	<node lat="65.44762500223048" lon="13.409791665538782" id="-16573">
		<tag k="name" v="Stormyra" />
		<tag k="natural" v="wetland" />
		<tag k="ssr:stedsnr" v="519045" />
	</node>
	<node lat="65.63790833295293" lon="13.307413881529747" id="-16583">
		<tag k="name" v="Nertjærfatmyra" />
		<tag k="natural" v="wetland" />
		<tag k="ssr:stedsnr" v="519358" />
	</node>
	<node lat="65.65531666944442" lon="13.256708326533808" id="-16585">
		<tag k="name" v="Øverlimyra" />
		<tag k="natural" v="wetland" />
		<tag k="ssr:stedsnr" v="519450" />
	</node>
	<node lat="65.65319444186711" lon="13.28072500874342" id="-16586">
		<tag k="name" v="Dinamyra" />
		<tag k="natural" v="wetland" />
		<tag k="ssr:stedsnr" v="519455" />
	</node>
	<node lat="65.4200638864241" lon="13.66149166802026" id="-16592">
		<tag k="name" v="Isterkjerrmyra" />
		<tag k="natural" v="wetland" />
		<tag k="ssr:stedsnr" v="520157" />
	</node>
	<node lat="65.44890555661402" lon="13.672830556405176" id="-16593">
		<tag k="name" v="Stormyra" />
		<tag k="natural" v="wetland" />
		<tag k="ssr:stedsnr" v="520296" />
	</node>
	<node lat="65.49031389265579" lon="13.661999999290297" id="-16599">
		<tag k="name" v="Langmyra" />
		<tag k="natural" v="wetland" />
		<tag k="ssr:stedsnr" v="520858" />
	</node>
	<node lat="65.63892777350956" lon="13.296444445148614" id="-16691">
		<tag k="name" v="Kumyra" />
		<tag k="natural" v="wetland" />
		<tag k="ssr:stedsnr" v="579379" />
	</node>
	<node lat="65.68076944567841" lon="13.26836943705196" id="-16692">
		<tag k="name" v="Hestmyra" />
		<tag k="natural" v="wetland" />
		<tag k="ssr:stedsnr" v="579538" />
	</node>
	<node lat="65.64645833535978" lon="13.414105563789484" id="-16693">
		<tag k="name" v="Finnstadmmyra" />
		<tag k="natural" v="wetland" />
		<tag k="ssr:stedsnr" v="579665" />
	</node>
	<node lat="65.5786972220617" lon="13.369166657118882" id="-16698">
		<tag k="name" v="Kringelmomyra" />
		<tag k="natural" v="wetland" />
		<tag k="ssr:stedsnr" v="579487" />
	</node>
	<node lat="65.63047777377082" lon="13.26946665960678" id="-16705">
		<tag k="name" v="Leirbekkøra" />
		<tag k="place" v="locality" />
		<tag k="ssr:stedsnr" v="580283" />
	</node>
	<node lat="65.409922223415" lon="13.63827223317383" id="-16710">
		<tag k="name" v="Langmyra" />
		<tag k="natural" v="wetland" />
		<tag k="ssr:stedsnr" v="581204" />
	</node>
	<node lat="65.59095278012403" lon="13.361255545522827" id="-16722">
		<tag k="name" v="Jensmyra" />
		<tag k="natural" v="wetland" />
		<tag k="ssr:stedsnr" v="622600" />
	</node>
	<node lat="65.56569999611183" lon="13.364119450764264" id="-16732">
		<tag k="name" v="Hestmyrskogan" />
		<tag k="place" v="locality" />
		<tag k="ssr:stedsnr" v="621633" />
	</node>
	<node lat="65.5606833316224" lon="13.725075001372435" id="-16768">
		<tag k="name" v="Jalmyra" />
		<tag k="natural" v="wetland" />
		<tag k="ssr:stedsnr" v="639352" />
	</node>
	<node lat="65.64935388780376" lon="13.264010151477544" id="-16769">
		<tag k="name" v="Grasøra" />
		<tag k="place" v="locality" />
		<tag k="ssr:stedsnr" v="640463" />
	</node>
	<node lat="65.59264722470546" lon="13.30998610983367" id="-16772">
		<tag k="name" v="Bjønmyra" />
		<tag k="natural" v="wetland" />
		<tag k="ssr:stedsnr" v="640400" />
	</node>
	<node lat="65.52327777752245" lon="13.501541666985219" id="-16784">
		<tag k="name" v="Småmyran" />
		<tag k="natural" v="wetland" />
		<tag k="ssr:stedsnr" v="641802" />
	</node>
	<node lat="65.21764167060816" lon="13.404591657529982" id="-16801">
		<tag k="name" v="Jannesnjuananvaegkie" />
		<tag k="name:no" v="Bjortjønnmyran" />
		<tag k="name:sma" v="Jannesnjuananvaegkie" />
		<tag k="natural" v="wetland" />
		<tag k="ssr:stedsnr" v="743761" />
	</node>
	<node lat="65.47478611197512" lon="13.641288894112321" id="-16880">
		<tag k="name" v="Tortenbakkmyra" />
		<tag k="natural" v="wetland" />
		<tag k="ssr:stedsnr" v="762827" />
	</node>
	<node lat="65.64831667104093" lon="13.463641667786126" id="-16884">
		<tag k="name" v="Nordmyra" />
		<tag k="natural" v="wetland" />
		<tag k="ssr:stedsnr" v="762464" />
	</node>
	<node lat="65.62874722139561" lon="13.30601389881336" id="-16904">
		<tag k="name" v="Finnkotmyra" />
		<tag k="natural" v="wetland" />
		<tag k="ssr:stedsnr" v="804550" />
	</node>
	<node lat="65.29650075131993" lon="13.528454093756675" id="-16929">
		<tag k="name" v="Sijdurrienvaegkie" />
		<tag k="name:no" v="Simskardmyra" />
		<tag k="name:sma" v="Sijdurrienvaegkie" />
		<tag k="natural" v="wetland" />
		<tag k="ssr:stedsnr" v="804646" />
	</node>
	<node lat="65.63796389346068" lon="13.312949997816059" id="-16963">
		<tag k="name" v="Øvertjærfatmyra" />
		<tag k="natural" v="wetland" />
		<tag k="ssr:stedsnr" v="822393" />
	</node>
	<node lat="65.68320277737584" lon="13.231183331446447" id="-16968">
		<tag k="name" v="Fjellmyra" />
		<tag k="natural" v="wetland" />
		<tag k="ssr:stedsnr" v="822537" />
	</node>
	<node lat="65.60625555267988" lon="13.281230565635974" id="-17016">
		<tag k="name" v="Geitklauvmyra" />
		<tag k="natural" v="wetland" />
		<tag k="ssr:stedsnr" v="865618" />
	</node>
	<node lat="65.68542499717607" lon="13.622777785677325" id="-17022">
		<tag k="name" v="Dølibekkmyran" />
		<tag k="natural" v="wetland" />
		<tag k="ssr:stedsnr" v="865729" />
	</node>
	<node lat="65.38641944564529" lon="13.628341657577609" id="-17029">
		<tag k="name" v="Nordlistormyra" />
		<tag k="natural" v="wetland" />
		<tag k="ssr:stedsnr" v="865903" />
	</node>
	<node lat="65.5059527774453" lon="13.409149991455896" id="-17065">
		<tag k="name" v="Tjønnmyra" />
		<tag k="natural" v="wetland" />
		<tag k="ssr:stedsnr" v="883381" />
	</node>
	<node lat="65.61410000374931" lon="13.292775002060955" id="-17101">
		<tag k="name" v="Lillemyra" />
		<tag k="natural" v="wetland" />
		<tag k="ssr:stedsnr" v="944046" />
	</node>
	<node lat="65.65508611052326" lon="13.289016669121365" id="-17103">
		<tag k="name" v="Fjellmyra" />
		<tag k="natural" v="wetland" />
		<tag k="ssr:stedsnr" v="944450" />
	</node>
	<node lat="65.53495833682989" lon="13.36714444650294" id="-17105">
		<tag k="name" v="Oksmyra" />
		<tag k="natural" v="wetland" />
		<tag k="ssr:stedsnr" v="944659" />
	</node>
</osm>
