<?xml version="1.0" encoding="UTF-8"?>
<osm version="0.6" generator="osmapis">
	<node lat="60.6115972215209" lon="5.505350003452703" id="-73067">
		<tag k="alt_name" v="Bernestangen" />
		<tag k="name" v="Bernestangen lykt" />
		<tag k="ssr:date" v="2019-12-27" />
		<tag k="ssr:gruppe" v="navigasjon" />
		<tag k="ssr:hovedgruppe" v="infrastruktur" />
		<tag k="ssr:stedsnr" v="67743" />
		<tag k="ssr:type" v="fyrlykt" />
	</node>
	<node lat="60.52388888853411" lon="5.505536109967278" id="-73225">
		<tag k="alt_name" v="Osterøy" />
		<tag k="name" v="Osterøy kommune" />
		<tag k="ssr:date" v="2019-12-27" />
		<tag k="ssr:gruppe" v="administrativeIndelinger" />
		<tag k="ssr:hovedgruppe" v="offentligAdministrasjon" />
		<tag k="ssr:stedsnr" v="449943" />
		<tag k="ssr:type" v="kommune" />
	</node>
	<node lat="60.61178333384152" lon="5.504041673628778" id="-73363">
		<tag k="name" v="Osterhavnneset lykt" />
		<tag k="ssr:date" v="2019-12-27" />
		<tag k="ssr:gruppe" v="navigasjon" />
		<tag k="ssr:hovedgruppe" v="infrastruktur" />
		<tag k="ssr:stedsnr" v="409512" />
		<tag k="ssr:type" v="fyrlykt" />
	</node>
	<node lat="60.439082506392424" lon="5.609771774455026" id="-73495">
		<tag k="alt_name" v="Stokkenes" />
		<tag k="name" v="Stokkenes lykt" />
		<tag k="ssr:date" v="2020-09-08" />
		<tag k="ssr:gruppe" v="navigasjon" />
		<tag k="ssr:hovedgruppe" v="infrastruktur" />
		<tag k="ssr:stedsnr" v="589854" />
		<tag k="ssr:type" v="fyrlykt" />
	</node>
	<node lat="60.526492418379156" lon="5.498261619361459" id="-73795">
		<tag k="name" v="Nausthaugen" />
		<tag k="ssr:date" v="2019-12-27" />
		<tag k="ssr:gruppe" v="veg" />
		<tag k="ssr:hovedgruppe" v="infrastruktur" />
		<tag k="ssr:stedsnr" v="971923" />
		<tag k="ssr:type" v="adressenavn" />
	</node>
	<node lat="60.5716334246446" lon="5.4660582496825105" id="-73796">
		<tag k="name" v="Helldalskaien" />
		<tag k="ssr:date" v="2019-12-27" />
		<tag k="ssr:gruppe" v="veg" />
		<tag k="ssr:hovedgruppe" v="infrastruktur" />
		<tag k="ssr:stedsnr" v="971924" />
		<tag k="ssr:type" v="adressenavn" />
	</node>
	<node lat="60.50998090482626" lon="5.449961896940214" id="-73797">
		<tag k="name" v="Storkjelda" />
		<tag k="ssr:date" v="2019-12-27" />
		<tag k="ssr:gruppe" v="veg" />
		<tag k="ssr:hovedgruppe" v="infrastruktur" />
		<tag k="ssr:stedsnr" v="971927" />
		<tag k="ssr:type" v="adressenavn" />
	</node>
	<node lat="60.50859927889625" lon="5.4512635925347945" id="-73798">
		<tag k="name" v="Godversstykket" />
		<tag k="ssr:date" v="2019-12-27" />
		<tag k="ssr:gruppe" v="veg" />
		<tag k="ssr:hovedgruppe" v="infrastruktur" />
		<tag k="ssr:stedsnr" v="971928" />
		<tag k="ssr:type" v="adressenavn" />
	</node>
	<node lat="60.50822891409562" lon="5.451191990411961" id="-73799">
		<tag k="name" v="Nova" />
		<tag k="ssr:date" v="2019-12-27" />
		<tag k="ssr:gruppe" v="veg" />
		<tag k="ssr:hovedgruppe" v="infrastruktur" />
		<tag k="ssr:stedsnr" v="971929" />
		<tag k="ssr:type" v="adressenavn" />
	</node>
	<node lat="60.50763142115523" lon="5.452090637253813" id="-73800">
		<tag k="name" v="Træshaugledet" />
		<tag k="ssr:date" v="2019-12-27" />
		<tag k="ssr:gruppe" v="veg" />
		<tag k="ssr:hovedgruppe" v="infrastruktur" />
		<tag k="ssr:stedsnr" v="971930" />
		<tag k="ssr:type" v="adressenavn" />
	</node>
	<node lat="60.50611376339457" lon="5.420106659996758" id="-73801">
		<tag k="name" v="Runnhovda" />
		<tag k="ssr:date" v="2019-12-27" />
		<tag k="ssr:gruppe" v="veg" />
		<tag k="ssr:hovedgruppe" v="infrastruktur" />
		<tag k="ssr:stedsnr" v="971932" />
		<tag k="ssr:type" v="adressenavn" />
	</node>
	<node lat="60.46428610952216" lon="5.459274995860441" id="-73828">
		<tag k="name" v="Votløyna lykt" />
		<tag k="ssr:date" v="2019-12-27" />
		<tag k="ssr:gruppe" v="navigasjon" />
		<tag k="ssr:hovedgruppe" v="infrastruktur" />
		<tag k="ssr:stedsnr" v="36383" />
		<tag k="ssr:type" v="fyrlykt" />
	</node>
	<node lat="60.42841255907855" lon="5.533723229349013" id="-73831">
		<tag k="alt_name" v="Kvitsteinhella" />
		<tag k="name" v="Kvitsteinhella lykt" />
		<tag k="ssr:date" v="2020-09-08" />
		<tag k="ssr:gruppe" v="navigasjon" />
		<tag k="ssr:hovedgruppe" v="infrastruktur" />
		<tag k="ssr:stedsnr" v="43837" />
		<tag k="ssr:type" v="fyrlykt" />
	</node>
	<node lat="60.46584583973422" lon="5.6979957768096465" id="-73832">
		<tag k="alt_name" v="Ulsnesøy" />
		<tag k="name" v="Ulsnesøy lykt" />
		<tag k="ssr:date" v="2020-09-08" />
		<tag k="ssr:gruppe" v="navigasjon" />
		<tag k="ssr:hovedgruppe" v="infrastruktur" />
		<tag k="ssr:stedsnr" v="43843" />
		<tag k="ssr:type" v="fyrlykt" />
	</node>
	<node lat="60.66625923859181" lon="5.610132574469574" id="-74159">
		<tag k="name" v="Askjelneset lykt" />
		<tag k="old_name" v="Askildsnes;Askilnes" />
		<tag k="ssr:date" v="2020-09-03" />
		<tag k="ssr:gruppe" v="navigasjon" />
		<tag k="ssr:hovedgruppe" v="infrastruktur" />
		<tag k="ssr:stedsnr" v="391673" />
		<tag k="ssr:type" v="fyrlykt" />
	</node>
	<node lat="60.474742760067805" lon="5.688876887919825" id="-74624">
		<tag k="name" v="Neskaivegen" />
		<tag k="ssr:date" v="2019-12-27" />
		<tag k="ssr:gruppe" v="veg" />
		<tag k="ssr:hovedgruppe" v="infrastruktur" />
		<tag k="ssr:stedsnr" v="1039686" />
		<tag k="ssr:type" v="adressenavn" />
	</node>
	<node lat="60.49764755022298" lon="5.667854276447028" id="-74625">
		<tag k="name" v="Båtaleitet" />
		<tag k="ssr:date" v="2019-12-27" />
		<tag k="ssr:gruppe" v="veg" />
		<tag k="ssr:hovedgruppe" v="infrastruktur" />
		<tag k="ssr:stedsnr" v="1039687" />
		<tag k="ssr:type" v="adressenavn" />
	</node>
	<node lat="60.496275308355315" lon="5.668920834313456" id="-74626">
		<tag k="name" v="Båtaleitshaugen" />
		<tag k="ssr:date" v="2019-12-27" />
		<tag k="ssr:gruppe" v="veg" />
		<tag k="ssr:hovedgruppe" v="infrastruktur" />
		<tag k="ssr:stedsnr" v="1039688" />
		<tag k="ssr:type" v="adressenavn" />
	</node>
	<node lat="60.51307343135038" lon="5.444662987894914" id="-74627">
		<tag k="name" v="Kvernhusrinden" />
		<tag k="ssr:date" v="2019-12-27" />
		<tag k="ssr:gruppe" v="veg" />
		<tag k="ssr:hovedgruppe" v="infrastruktur" />
		<tag k="ssr:stedsnr" v="1039689" />
		<tag k="ssr:type" v="adressenavn" />
	</node>
	<node lat="60.512810139401594" lon="5.444533770091674" id="-74628">
		<tag k="name" v="Loftåsrinden" />
		<tag k="ssr:date" v="2019-12-27" />
		<tag k="ssr:gruppe" v="veg" />
		<tag k="ssr:hovedgruppe" v="infrastruktur" />
		<tag k="ssr:stedsnr" v="1039690" />
		<tag k="ssr:type" v="adressenavn" />
	</node>
	<node lat="60.51150769904345" lon="5.44754975915009" id="-74629">
		<tag k="name" v="Loftåsvegen" />
		<tag k="ssr:date" v="2019-12-27" />
		<tag k="ssr:gruppe" v="veg" />
		<tag k="ssr:hovedgruppe" v="infrastruktur" />
		<tag k="ssr:stedsnr" v="1039691" />
		<tag k="ssr:type" v="adressenavn" />
	</node>
	<node lat="60.51172487719748" lon="5.445126137284795" id="-74630">
		<tag k="name" v="Loftåslia" />
		<tag k="ssr:date" v="2019-12-27" />
		<tag k="ssr:gruppe" v="veg" />
		<tag k="ssr:hovedgruppe" v="infrastruktur" />
		<tag k="ssr:stedsnr" v="1039692" />
		<tag k="ssr:type" v="adressenavn" />
	</node>
	<node lat="60.50296476547112" lon="5.437428261882581" id="-74631">
		<tag k="name" v="Maurhaugen" />
		<tag k="ssr:date" v="2019-12-27" />
		<tag k="ssr:gruppe" v="veg" />
		<tag k="ssr:hovedgruppe" v="infrastruktur" />
		<tag k="ssr:stedsnr" v="1039693" />
		<tag k="ssr:type" v="adressenavn" />
	</node>
	<node lat="60.50130062795658" lon="5.440367373554494" id="-74632">
		<tag k="name" v="Nedsterinden" />
		<tag k="ssr:date" v="2019-12-27" />
		<tag k="ssr:gruppe" v="veg" />
		<tag k="ssr:hovedgruppe" v="infrastruktur" />
		<tag k="ssr:stedsnr" v="1039694" />
		<tag k="ssr:type" v="adressenavn" />
	</node>
	<node lat="60.494430597265946" lon="5.456752421982213" id="-74633">
		<tag k="name" v="Brakvatnevegen" />
		<tag k="ssr:date" v="2019-12-27" />
		<tag k="ssr:gruppe" v="veg" />
		<tag k="ssr:hovedgruppe" v="infrastruktur" />
		<tag k="ssr:stedsnr" v="1039695" />
		<tag k="ssr:type" v="adressenavn" />
	</node>
	<node lat="60.49363178128696" lon="5.469286596843534" id="-74634">
		<tag k="name" v="Daltveit" />
		<tag k="ssr:date" v="2019-12-27" />
		<tag k="ssr:gruppe" v="veg" />
		<tag k="ssr:hovedgruppe" v="infrastruktur" />
		<tag k="ssr:stedsnr" v="1039696" />
		<tag k="ssr:type" v="adressenavn" />
	</node>
	<node lat="60.506330522436365" lon="5.47243658531328" id="-74635">
		<tag k="name" v="Follfotvegen" />
		<tag k="ssr:date" v="2019-12-27" />
		<tag k="ssr:gruppe" v="veg" />
		<tag k="ssr:hovedgruppe" v="infrastruktur" />
		<tag k="ssr:stedsnr" v="1039698" />
		<tag k="ssr:type" v="adressenavn" />
	</node>
	<node lat="60.486429715239844" lon="5.502691483851776" id="-74636">
		<tag k="name" v="Hansdalsvegen" />
		<tag k="ssr:date" v="2019-12-27" />
		<tag k="ssr:gruppe" v="veg" />
		<tag k="ssr:hovedgruppe" v="infrastruktur" />
		<tag k="ssr:stedsnr" v="1039700" />
		<tag k="ssr:type" v="adressenavn" />
	</node>
	<node lat="60.50286721116128" lon="5.487710854015994" id="-74637">
		<tag k="name" v="Kleivelandsvegen" />
		<tag k="ssr:date" v="2019-12-27" />
		<tag k="ssr:gruppe" v="veg" />
		<tag k="ssr:hovedgruppe" v="infrastruktur" />
		<tag k="ssr:stedsnr" v="1039702" />
		<tag k="ssr:type" v="adressenavn" />
	</node>
	<node lat="60.446953865050055" lon="5.500379581628203" id="-74638">
		<tag k="name" v="Skålvikvegen" />
		<tag k="ssr:date" v="2019-12-27" />
		<tag k="ssr:gruppe" v="veg" />
		<tag k="ssr:hovedgruppe" v="infrastruktur" />
		<tag k="ssr:stedsnr" v="1039636" />
		<tag k="ssr:type" v="adressenavn" />
	</node>
	<node lat="60.45812211419089" lon="5.488023574616287" id="-74639">
		<tag k="name" v="Sundlandsvegen" />
		<tag k="ssr:date" v="2019-12-27" />
		<tag k="ssr:gruppe" v="veg" />
		<tag k="ssr:hovedgruppe" v="infrastruktur" />
		<tag k="ssr:stedsnr" v="1039637" />
		<tag k="ssr:type" v="adressenavn" />
	</node>
	<node lat="60.45582494211487" lon="5.492418479556174" id="-74640">
		<tag k="name" v="Nedre Verkane" />
		<tag k="ssr:date" v="2019-12-27" />
		<tag k="ssr:gruppe" v="veg" />
		<tag k="ssr:hovedgruppe" v="infrastruktur" />
		<tag k="ssr:stedsnr" v="1039638" />
		<tag k="ssr:type" v="adressenavn" />
	</node>
	<node lat="60.44713855753585" lon="5.506571408637672" id="-74641">
		<tag k="name" v="Åsheimbrekkene" />
		<tag k="ssr:date" v="2019-12-27" />
		<tag k="ssr:gruppe" v="veg" />
		<tag k="ssr:hovedgruppe" v="infrastruktur" />
		<tag k="ssr:stedsnr" v="1039639" />
		<tag k="ssr:type" v="adressenavn" />
	</node>
	<node lat="60.45011635612074" lon="5.5022173970507" id="-74642">
		<tag k="name" v="Skipahjellen" />
		<tag k="ssr:date" v="2019-12-27" />
		<tag k="ssr:gruppe" v="veg" />
		<tag k="ssr:hovedgruppe" v="infrastruktur" />
		<tag k="ssr:stedsnr" v="1039640" />
		<tag k="ssr:type" v="adressenavn" />
	</node>
	<node lat="60.448599677640765" lon="5.499096502386789" id="-74643">
		<tag k="name" v="Leiknesflaten" />
		<tag k="ssr:date" v="2019-12-27" />
		<tag k="ssr:gruppe" v="veg" />
		<tag k="ssr:hovedgruppe" v="infrastruktur" />
		<tag k="ssr:stedsnr" v="1039641" />
		<tag k="ssr:type" v="adressenavn" />
	</node>
	<node lat="60.45240477112389" lon="5.496213758328758" id="-74644">
		<tag k="name" v="Haus" />
		<tag k="ssr:date" v="2019-12-27" />
		<tag k="ssr:gruppe" v="veg" />
		<tag k="ssr:hovedgruppe" v="infrastruktur" />
		<tag k="ssr:stedsnr" v="1039642" />
		<tag k="ssr:type" v="adressenavn" />
	</node>
	<node lat="60.478895228786776" lon="5.54101011745736" id="-74645">
		<tag k="name" v="Træstallvegen" />
		<tag k="ssr:date" v="2019-12-27" />
		<tag k="ssr:gruppe" v="veg" />
		<tag k="ssr:hovedgruppe" v="infrastruktur" />
		<tag k="ssr:stedsnr" v="1039643" />
		<tag k="ssr:type" v="adressenavn" />
	</node>
	<node lat="60.462881945189146" lon="5.563755962800442" id="-74646">
		<tag k="name" v="Austadvegen" />
		<tag k="ssr:date" v="2019-12-27" />
		<tag k="ssr:gruppe" v="veg" />
		<tag k="ssr:hovedgruppe" v="infrastruktur" />
		<tag k="ssr:stedsnr" v="1039644" />
		<tag k="ssr:type" v="adressenavn" />
	</node>
	<node lat="60.48609850035708" lon="5.546419991126863" id="-74647">
		<tag k="name" v="Krossåsen" />
		<tag k="ssr:date" v="2019-12-27" />
		<tag k="ssr:gruppe" v="veg" />
		<tag k="ssr:hovedgruppe" v="infrastruktur" />
		<tag k="ssr:stedsnr" v="1039645" />
		<tag k="ssr:type" v="adressenavn" />
	</node>
	<node lat="60.60447698794205" lon="5.544947098298966" id="-74648">
		<tag k="name" v="Drangevågen" />
		<tag k="ssr:date" v="2019-12-27" />
		<tag k="ssr:gruppe" v="veg" />
		<tag k="ssr:hovedgruppe" v="infrastruktur" />
		<tag k="ssr:stedsnr" v="1039646" />
		<tag k="ssr:type" v="adressenavn" />
	</node>
	<node lat="60.470394647778356" lon="5.473608041430785" id="-74649">
		<tag k="name" v="Askeland" />
		<tag k="ssr:date" v="2019-12-27" />
		<tag k="ssr:gruppe" v="veg" />
		<tag k="ssr:hovedgruppe" v="infrastruktur" />
		<tag k="ssr:stedsnr" v="1039647" />
		<tag k="ssr:type" v="adressenavn" />
	</node>
	<node lat="60.5962516790496" lon="5.55032254520193" id="-74650">
		<tag k="name" v="Austre Kleppsvegen" />
		<tag k="ssr:date" v="2019-12-27" />
		<tag k="ssr:gruppe" v="veg" />
		<tag k="ssr:hovedgruppe" v="infrastruktur" />
		<tag k="ssr:stedsnr" v="1039649" />
		<tag k="ssr:type" v="adressenavn" />
	</node>
	<node lat="60.55305212137602" lon="5.463290471792368" id="-74651">
		<tag k="name" v="Bysheimkleivane" />
		<tag k="ssr:date" v="2019-12-27" />
		<tag k="ssr:gruppe" v="veg" />
		<tag k="ssr:hovedgruppe" v="infrastruktur" />
		<tag k="ssr:stedsnr" v="1039650" />
		<tag k="ssr:type" v="adressenavn" />
	</node>
	<node lat="60.59415812226794" lon="5.518008360827042" id="-74652">
		<tag k="name" v="Hanstveitvegen" />
		<tag k="ssr:date" v="2019-12-27" />
		<tag k="ssr:gruppe" v="veg" />
		<tag k="ssr:hovedgruppe" v="infrastruktur" />
		<tag k="ssr:stedsnr" v="1039651" />
		<tag k="ssr:type" v="adressenavn" />
	</node>
	<node lat="60.59174077725644" lon="5.525465963242151" id="-74653">
		<tag k="name" v="Smøyatunvegen" />
		<tag k="ssr:date" v="2019-12-27" />
		<tag k="ssr:gruppe" v="veg" />
		<tag k="ssr:hovedgruppe" v="infrastruktur" />
		<tag k="ssr:stedsnr" v="1039652" />
		<tag k="ssr:type" v="adressenavn" />
	</node>
	<node lat="60.66439537320281" lon="5.618918132614181" id="-74654">
		<tag k="name" v="Askjelneset" />
		<tag k="ssr:date" v="2019-12-27" />
		<tag k="ssr:gruppe" v="veg" />
		<tag k="ssr:hovedgruppe" v="infrastruktur" />
		<tag k="ssr:stedsnr" v="1039653" />
		<tag k="ssr:type" v="adressenavn" />
	</node>
	<node lat="60.526368695057485" lon="5.495116319358244" id="-74655">
		<tag k="name" v="Lonevågen" />
		<tag k="ssr:date" v="2019-12-27" />
		<tag k="ssr:gruppe" v="veg" />
		<tag k="ssr:hovedgruppe" v="infrastruktur" />
		<tag k="ssr:stedsnr" v="1039654" />
		<tag k="ssr:type" v="adressenavn" />
	</node>
	<node lat="60.52327793812132" lon="5.504608676915524" id="-74656">
		<tag k="name" v="Geitaryggen" />
		<tag k="ssr:date" v="2019-12-27" />
		<tag k="ssr:gruppe" v="veg" />
		<tag k="ssr:hovedgruppe" v="infrastruktur" />
		<tag k="ssr:stedsnr" v="1039656" />
		<tag k="ssr:type" v="adressenavn" />
	</node>
	<node lat="60.47282425626762" lon="5.52806569724294" id="-74657">
		<tag k="name" v="Rødlandshaugen" />
		<tag k="ssr:date" v="2019-12-27" />
		<tag k="ssr:gruppe" v="veg" />
		<tag k="ssr:hovedgruppe" v="infrastruktur" />
		<tag k="ssr:stedsnr" v="1039657" />
		<tag k="ssr:type" v="adressenavn" />
	</node>
	<node lat="60.4699922089171" lon="5.5373767486839895" id="-74658">
		<tag k="name" v="Rødlandsflaten" />
		<tag k="ssr:date" v="2019-12-27" />
		<tag k="ssr:gruppe" v="veg" />
		<tag k="ssr:hovedgruppe" v="infrastruktur" />
		<tag k="ssr:stedsnr" v="1039658" />
		<tag k="ssr:type" v="adressenavn" />
	</node>
	<node lat="60.44162817946985" lon="5.525836723082263" id="-74659">
		<tag k="name" v="Vikno" />
		<tag k="ssr:date" v="2019-12-27" />
		<tag k="ssr:gruppe" v="veg" />
		<tag k="ssr:hovedgruppe" v="infrastruktur" />
		<tag k="ssr:stedsnr" v="1039659" />
		<tag k="ssr:type" v="adressenavn" />
	</node>
	<node lat="60.45129507531163" lon="5.520163977974646" id="-74660">
		<tag k="name" v="Mjeldavegen" />
		<tag k="ssr:date" v="2019-12-27" />
		<tag k="ssr:gruppe" v="veg" />
		<tag k="ssr:hovedgruppe" v="infrastruktur" />
		<tag k="ssr:stedsnr" v="1039660" />
		<tag k="ssr:type" v="adressenavn" />
	</node>
	<node lat="60.47267424585696" lon="5.625884157302277" id="-74661">
		<tag k="name" v="Skaftådalen" />
		<tag k="ssr:date" v="2019-12-27" />
		<tag k="ssr:gruppe" v="veg" />
		<tag k="ssr:hovedgruppe" v="infrastruktur" />
		<tag k="ssr:stedsnr" v="1039661" />
		<tag k="ssr:type" v="adressenavn" />
	</node>
	<node lat="60.491899264549765" lon="5.568328759722914" id="-74662">
		<tag k="name" v="Hartveitmarka" />
		<tag k="ssr:date" v="2019-12-27" />
		<tag k="ssr:gruppe" v="veg" />
		<tag k="ssr:hovedgruppe" v="infrastruktur" />
		<tag k="ssr:stedsnr" v="1039662" />
		<tag k="ssr:type" v="adressenavn" />
	</node>
	<node lat="60.44651544507179" lon="5.500067624129153" id="-74663">
		<tag k="name" v="Leiknesfjøra" />
		<tag k="ssr:date" v="2019-12-27" />
		<tag k="ssr:gruppe" v="veg" />
		<tag k="ssr:hovedgruppe" v="infrastruktur" />
		<tag k="ssr:stedsnr" v="1039635" />
		<tag k="ssr:type" v="adressenavn" />
	</node>
	<node lat="60.68883827573351" lon="5.6424661576982675" id="-74664">
		<tag k="name" v="Heimvika" />
		<tag k="ssr:date" v="2019-12-27" />
		<tag k="ssr:gruppe" v="veg" />
		<tag k="ssr:hovedgruppe" v="infrastruktur" />
		<tag k="ssr:stedsnr" v="1039663" />
		<tag k="ssr:type" v="adressenavn" />
	</node>
	<node lat="60.52394830367716" lon="5.513936491246834" id="-74665">
		<tag k="name" v="Kjørrgrova" />
		<tag k="ssr:date" v="2019-12-27" />
		<tag k="ssr:gruppe" v="veg" />
		<tag k="ssr:hovedgruppe" v="infrastruktur" />
		<tag k="ssr:stedsnr" v="1039664" />
		<tag k="ssr:type" v="adressenavn" />
	</node>
	<node lat="60.52607530006768" lon="5.494616083993321" id="-74666">
		<tag k="name" v="Vågavegen" />
		<tag k="ssr:date" v="2019-12-27" />
		<tag k="ssr:gruppe" v="veg" />
		<tag k="ssr:hovedgruppe" v="infrastruktur" />
		<tag k="ssr:stedsnr" v="1039666" />
		<tag k="ssr:type" v="adressenavn" />
	</node>
	<node lat="60.52522868237479" lon="5.494214898129771" id="-74667">
		<tag k="name" v="Lonaneset" />
		<tag k="ssr:date" v="2019-12-27" />
		<tag k="ssr:gruppe" v="veg" />
		<tag k="ssr:hovedgruppe" v="infrastruktur" />
		<tag k="ssr:stedsnr" v="1039667" />
		<tag k="ssr:type" v="adressenavn" />
	</node>
	<node lat="60.46806114916321" lon="5.699862416860403" id="-74668">
		<tag k="name" v="Olsnesøyna" />
		<tag k="ssr:date" v="2019-12-27" />
		<tag k="ssr:gruppe" v="veg" />
		<tag k="ssr:hovedgruppe" v="infrastruktur" />
		<tag k="ssr:stedsnr" v="1039668" />
		<tag k="ssr:type" v="adressenavn" />
	</node>
	<node lat="60.48085159410325" lon="5.683833679828605" id="-74669">
		<tag k="name" v="Framigarden" />
		<tag k="ssr:date" v="2019-12-27" />
		<tag k="ssr:gruppe" v="veg" />
		<tag k="ssr:hovedgruppe" v="infrastruktur" />
		<tag k="ssr:stedsnr" v="1039669" />
		<tag k="ssr:type" v="adressenavn" />
	</node>
	<node lat="60.478760371763165" lon="5.538253859401882" id="-74670">
		<tag k="name" v="Vevlevegen" />
		<tag k="ssr:date" v="2019-12-27" />
		<tag k="ssr:gruppe" v="veg" />
		<tag k="ssr:hovedgruppe" v="infrastruktur" />
		<tag k="ssr:stedsnr" v="1039670" />
		<tag k="ssr:type" v="adressenavn" />
	</node>
	<node lat="60.50504834910417" lon="5.474330255128975" id="-74671">
		<tag k="name" v="Haugo" />
		<tag k="ssr:date" v="2019-12-27" />
		<tag k="ssr:gruppe" v="veg" />
		<tag k="ssr:hovedgruppe" v="infrastruktur" />
		<tag k="ssr:stedsnr" v="1039672" />
		<tag k="ssr:type" v="adressenavn" />
	</node>
	<node lat="60.52274000096873" lon="5.492629916963826" id="-74672">
		<tag k="name" v="Kårvika" />
		<tag k="ssr:date" v="2019-12-27" />
		<tag k="ssr:gruppe" v="veg" />
		<tag k="ssr:hovedgruppe" v="infrastruktur" />
		<tag k="ssr:stedsnr" v="1039674" />
		<tag k="ssr:type" v="adressenavn" />
	</node>
	<node lat="60.504931580665776" lon="5.517454870447477" id="-74673">
		<tag k="name" v="Bruleitevegen" />
		<tag k="ssr:date" v="2019-12-27" />
		<tag k="ssr:gruppe" v="veg" />
		<tag k="ssr:hovedgruppe" v="infrastruktur" />
		<tag k="ssr:stedsnr" v="1039675" />
		<tag k="ssr:type" v="adressenavn" />
	</node>
	<node lat="60.509134581044364" lon="5.659622890399843" id="-74674">
		<tag k="name" v="Geitåna" />
		<tag k="ssr:date" v="2019-12-27" />
		<tag k="ssr:gruppe" v="veg" />
		<tag k="ssr:hovedgruppe" v="infrastruktur" />
		<tag k="ssr:stedsnr" v="1039676" />
		<tag k="ssr:type" v="adressenavn" />
	</node>
	<node lat="60.50295308192644" lon="5.662256921639126" id="-74675">
		<tag k="name" v="Sluppatjørna" />
		<tag k="ssr:date" v="2019-12-27" />
		<tag k="ssr:gruppe" v="veg" />
		<tag k="ssr:hovedgruppe" v="infrastruktur" />
		<tag k="ssr:stedsnr" v="1039678" />
		<tag k="ssr:type" v="adressenavn" />
	</node>
	<node lat="60.50439636018342" lon="5.537924063857401" id="-74676">
		<tag k="name" v="Solbjørgsdalen" />
		<tag k="ssr:date" v="2019-12-27" />
		<tag k="ssr:gruppe" v="veg" />
		<tag k="ssr:hovedgruppe" v="infrastruktur" />
		<tag k="ssr:stedsnr" v="1039680" />
		<tag k="ssr:type" v="adressenavn" />
	</node>
	<node lat="60.519072842718224" lon="5.644434559869271" id="-74677">
		<tag k="name" v="Blomdalsvegen" />
		<tag k="ssr:date" v="2019-12-27" />
		<tag k="ssr:gruppe" v="veg" />
		<tag k="ssr:hovedgruppe" v="infrastruktur" />
		<tag k="ssr:stedsnr" v="1039682" />
		<tag k="ssr:type" v="adressenavn" />
	</node>
	<node lat="60.475212050752994" lon="5.704849456574686" id="-74678">
		<tag k="name" v="Olsnesvegen" />
		<tag k="ssr:date" v="2019-12-27" />
		<tag k="ssr:gruppe" v="veg" />
		<tag k="ssr:hovedgruppe" v="infrastruktur" />
		<tag k="ssr:stedsnr" v="1039684" />
		<tag k="ssr:type" v="adressenavn" />
	</node>
	<node lat="60.54135624038438" lon="5.347505277761819" id="-74679">
		<tag k="name" v="Oldrane" />
		<tag k="ssr:date" v="2019-12-27" />
		<tag k="ssr:gruppe" v="veg" />
		<tag k="ssr:hovedgruppe" v="infrastruktur" />
		<tag k="ssr:stedsnr" v="1039736" />
		<tag k="ssr:type" v="adressenavn" />
	</node>
	<node lat="60.544913788618764" lon="5.358384839475599" id="-74680">
		<tag k="name" v="Hammarsdalen" />
		<tag k="ssr:date" v="2019-12-27" />
		<tag k="ssr:gruppe" v="veg" />
		<tag k="ssr:hovedgruppe" v="infrastruktur" />
		<tag k="ssr:stedsnr" v="1039737" />
		<tag k="ssr:type" v="adressenavn" />
	</node>
	<node lat="60.55526011987344" lon="5.426154314863602" id="-74681">
		<tag k="name" v="Raknesvågen" />
		<tag k="ssr:date" v="2019-12-27" />
		<tag k="ssr:gruppe" v="veg" />
		<tag k="ssr:hovedgruppe" v="infrastruktur" />
		<tag k="ssr:stedsnr" v="1039738" />
		<tag k="ssr:type" v="adressenavn" />
	</node>
	<node lat="60.55791837000423" lon="5.429595562971397" id="-74682">
		<tag k="name" v="Lammanesvegen" />
		<tag k="ssr:date" v="2019-12-27" />
		<tag k="ssr:gruppe" v="veg" />
		<tag k="ssr:hovedgruppe" v="infrastruktur" />
		<tag k="ssr:stedsnr" v="1039739" />
		<tag k="ssr:type" v="adressenavn" />
	</node>
	<node lat="60.543263696758935" lon="5.4104964279141985" id="-74683">
		<tag k="name" v="Byrkjelandsvegen" />
		<tag k="ssr:date" v="2019-12-27" />
		<tag k="ssr:gruppe" v="veg" />
		<tag k="ssr:hovedgruppe" v="infrastruktur" />
		<tag k="ssr:stedsnr" v="1039740" />
		<tag k="ssr:type" v="adressenavn" />
	</node>
	<node lat="60.55253395759699" lon="5.415245180634203" id="-74684">
		<tag k="name" v="Hjellvikåsen" />
		<tag k="ssr:date" v="2019-12-27" />
		<tag k="ssr:gruppe" v="veg" />
		<tag k="ssr:hovedgruppe" v="infrastruktur" />
		<tag k="ssr:stedsnr" v="1039741" />
		<tag k="ssr:type" v="adressenavn" />
	</node>
	<node lat="60.47927032565406" lon="5.691753708826307" id="-74685">
		<tag k="name" v="Bruvikdalsvegen" />
		<tag k="ssr:date" v="2019-12-27" />
		<tag k="ssr:gruppe" v="veg" />
		<tag k="ssr:hovedgruppe" v="infrastruktur" />
		<tag k="ssr:stedsnr" v="1039744" />
		<tag k="ssr:type" v="adressenavn" />
	</node>
	<node lat="60.45315120706758" lon="5.496130989310917" id="-74686">
		<tag k="name" v="Votlavegen" />
		<tag k="ssr:date" v="2019-12-27" />
		<tag k="ssr:gruppe" v="veg" />
		<tag k="ssr:hovedgruppe" v="infrastruktur" />
		<tag k="ssr:stedsnr" v="1039748" />
		<tag k="ssr:type" v="adressenavn" />
	</node>
	<node lat="60.45379863084063" lon="5.538008079339796" id="-74687">
		<tag k="name" v="Mjelddalen" />
		<tag k="ssr:date" v="2019-12-27" />
		<tag k="ssr:gruppe" v="veg" />
		<tag k="ssr:hovedgruppe" v="infrastruktur" />
		<tag k="ssr:stedsnr" v="1039750" />
		<tag k="ssr:type" v="adressenavn" />
	</node>
	<node lat="60.43191134159883" lon="5.537431861424205" id="-74688">
		<tag k="name" v="Bruvikvegen" />
		<tag k="ssr:date" v="2019-12-27" />
		<tag k="ssr:gruppe" v="veg" />
		<tag k="ssr:hovedgruppe" v="infrastruktur" />
		<tag k="ssr:stedsnr" v="1039751" />
		<tag k="ssr:type" v="adressenavn" />
	</node>
	<node lat="60.430278218021094" lon="5.5358161620681" id="-74689">
		<tag k="name" v="Hausvegen" />
		<tag k="ssr:date" v="2019-12-27" />
		<tag k="ssr:gruppe" v="veg" />
		<tag k="ssr:hovedgruppe" v="infrastruktur" />
		<tag k="ssr:stedsnr" v="1039753" />
		<tag k="ssr:type" v="adressenavn" />
	</node>
	<node lat="60.550101008351874" lon="5.410122450929779" id="-74690">
		<tag k="name" v="Sandane" />
		<tag k="ssr:date" v="2019-12-27" />
		<tag k="ssr:gruppe" v="veg" />
		<tag k="ssr:hovedgruppe" v="infrastruktur" />
		<tag k="ssr:stedsnr" v="1039761" />
		<tag k="ssr:type" v="adressenavn" />
	</node>
	<node lat="60.511607748857436" lon="5.486418920442366" id="-74691">
		<tag k="name" v="Raknesvegen" />
		<tag k="ssr:date" v="2019-12-27" />
		<tag k="ssr:gruppe" v="veg" />
		<tag k="ssr:hovedgruppe" v="infrastruktur" />
		<tag k="ssr:stedsnr" v="1039762" />
		<tag k="ssr:type" v="adressenavn" />
	</node>
	<node lat="60.50413479937606" lon="5.419505368630693" id="-74692">
		<tag k="name" v="Hamrenesvegen" />
		<tag k="ssr:date" v="2019-12-27" />
		<tag k="ssr:gruppe" v="veg" />
		<tag k="ssr:hovedgruppe" v="infrastruktur" />
		<tag k="ssr:stedsnr" v="1039764" />
		<tag k="ssr:type" v="adressenavn" />
	</node>
	<node lat="60.50972724301574" lon="5.437480688283009" id="-74693">
		<tag k="name" v="Hjellvikvegen" />
		<tag k="ssr:date" v="2019-12-27" />
		<tag k="ssr:gruppe" v="veg" />
		<tag k="ssr:hovedgruppe" v="infrastruktur" />
		<tag k="ssr:stedsnr" v="1039766" />
		<tag k="ssr:type" v="adressenavn" />
	</node>
	<node lat="60.604221816479566" lon="5.5047239722307415" id="-74694">
		<tag k="name" v="Bernes" />
		<tag k="ssr:date" v="2019-12-27" />
		<tag k="ssr:gruppe" v="veg" />
		<tag k="ssr:hovedgruppe" v="infrastruktur" />
		<tag k="ssr:stedsnr" v="1039767" />
		<tag k="ssr:type" v="adressenavn" />
	</node>
	<node lat="60.61226082425036" lon="5.599028098805357" id="-74695">
		<tag k="name" v="Osvassvegen" />
		<tag k="ssr:date" v="2019-12-27" />
		<tag k="ssr:gruppe" v="veg" />
		<tag k="ssr:hovedgruppe" v="infrastruktur" />
		<tag k="ssr:stedsnr" v="1039768" />
		<tag k="ssr:type" v="adressenavn" />
	</node>
	<node lat="60.60355857493805" lon="5.51493739049442" id="-74696">
		<tag k="name" v="Bernesvika" />
		<tag k="ssr:date" v="2019-12-27" />
		<tag k="ssr:gruppe" v="veg" />
		<tag k="ssr:hovedgruppe" v="infrastruktur" />
		<tag k="ssr:stedsnr" v="1039769" />
		<tag k="ssr:type" v="adressenavn" />
	</node>
	<node lat="60.426367371599426" lon="5.535754082851849" id="-74697">
		<tag k="name" v="Osterøyvegen" />
		<tag k="ssr:date" v="2019-12-27" />
		<tag k="ssr:gruppe" v="veg" />
		<tag k="ssr:hovedgruppe" v="infrastruktur" />
		<tag k="ssr:stedsnr" v="1039772" />
		<tag k="ssr:type" v="adressenavn" />
	</node>
	<node lat="60.50672262557636" lon="5.482112326356599" id="-74698">
		<tag k="name" v="Valestrandsvegen" />
		<tag k="ssr:date" v="2019-12-27" />
		<tag k="ssr:gruppe" v="veg" />
		<tag k="ssr:hovedgruppe" v="infrastruktur" />
		<tag k="ssr:stedsnr" v="1039774" />
		<tag k="ssr:type" v="adressenavn" />
	</node>
	<node lat="60.508389397761704" lon="5.510176184617187" id="-74699">
		<tag k="name" v="Revheimsvegen" />
		<tag k="ssr:date" v="2019-12-27" />
		<tag k="ssr:gruppe" v="veg" />
		<tag k="ssr:hovedgruppe" v="infrastruktur" />
		<tag k="ssr:stedsnr" v="1039776" />
		<tag k="ssr:type" v="adressenavn" />
	</node>
	<node lat="60.59651367545109" lon="5.52986392916255" id="-74700">
		<tag k="name" v="Bernesvegen" />
		<tag k="ssr:date" v="2019-12-27" />
		<tag k="ssr:gruppe" v="veg" />
		<tag k="ssr:hovedgruppe" v="infrastruktur" />
		<tag k="ssr:stedsnr" v="1039778" />
		<tag k="ssr:type" v="adressenavn" />
	</node>
	<node lat="60.52334892550324" lon="5.509764951022935" id="-74701">
		<tag k="name" v="Fotlandsvegen" />
		<tag k="ssr:date" v="2019-12-27" />
		<tag k="ssr:gruppe" v="veg" />
		<tag k="ssr:hovedgruppe" v="infrastruktur" />
		<tag k="ssr:stedsnr" v="1039780" />
		<tag k="ssr:type" v="adressenavn" />
	</node>
	<node lat="60.46882151548859" lon="5.538938814993739" id="-74702">
		<tag k="name" v="Gjerstadvegen" />
		<tag k="ssr:date" v="2019-12-27" />
		<tag k="ssr:gruppe" v="veg" />
		<tag k="ssr:hovedgruppe" v="infrastruktur" />
		<tag k="ssr:stedsnr" v="1039782" />
		<tag k="ssr:type" v="adressenavn" />
	</node>
	<node lat="60.568547995261454" lon="5.455505810315981" id="-74703">
		<tag k="name" v="Fjellskålnesvegen" />
		<tag k="ssr:date" v="2019-12-27" />
		<tag k="ssr:gruppe" v="veg" />
		<tag k="ssr:hovedgruppe" v="infrastruktur" />
		<tag k="ssr:stedsnr" v="1039783" />
		<tag k="ssr:type" v="adressenavn" />
	</node>
	<node lat="60.56619641343334" lon="5.452681282096683" id="-74704">
		<tag k="name" v="Fjellskål" />
		<tag k="ssr:date" v="2019-12-27" />
		<tag k="ssr:gruppe" v="veg" />
		<tag k="ssr:hovedgruppe" v="infrastruktur" />
		<tag k="ssr:stedsnr" v="1039785" />
		<tag k="ssr:type" v="adressenavn" />
	</node>
	<node lat="60.50402690513654" lon="5.4786947629926335" id="-74705">
		<tag k="name" v="Klubbelivegen" />
		<tag k="ssr:date" v="2019-12-27" />
		<tag k="ssr:gruppe" v="veg" />
		<tag k="ssr:hovedgruppe" v="infrastruktur" />
		<tag k="ssr:stedsnr" v="1039704" />
		<tag k="ssr:type" v="adressenavn" />
	</node>
	<node lat="60.514929018050886" lon="5.445722316462318" id="-74706">
		<tag k="name" v="Burkelandsvegen" />
		<tag k="ssr:date" v="2019-12-27" />
		<tag k="ssr:gruppe" v="veg" />
		<tag k="ssr:hovedgruppe" v="infrastruktur" />
		<tag k="ssr:stedsnr" v="1039706" />
		<tag k="ssr:type" v="adressenavn" />
	</node>
	<node lat="60.50633002408407" lon="5.469518950484619" id="-74707">
		<tag k="name" v="Hodlebrautsvegen" />
		<tag k="ssr:date" v="2019-12-27" />
		<tag k="ssr:gruppe" v="veg" />
		<tag k="ssr:hovedgruppe" v="infrastruktur" />
		<tag k="ssr:stedsnr" v="1039707" />
		<tag k="ssr:type" v="adressenavn" />
	</node>
	<node lat="60.50825592946569" lon="5.4681793661177975" id="-74708">
		<tag k="name" v="Osterøytunet" />
		<tag k="ssr:date" v="2019-12-27" />
		<tag k="ssr:gruppe" v="veg" />
		<tag k="ssr:hovedgruppe" v="infrastruktur" />
		<tag k="ssr:stedsnr" v="1039709" />
		<tag k="ssr:type" v="adressenavn" />
	</node>
	<node lat="60.5065472068589" lon="5.427041091432184" id="-74709">
		<tag k="name" v="Eidsbrekka" />
		<tag k="ssr:date" v="2019-12-27" />
		<tag k="ssr:gruppe" v="veg" />
		<tag k="ssr:hovedgruppe" v="infrastruktur" />
		<tag k="ssr:stedsnr" v="1039711" />
		<tag k="ssr:type" v="adressenavn" />
	</node>
	<node lat="60.50546622929545" lon="5.419532939211543" id="-74710">
		<tag k="name" v="Lerkhaugen" />
		<tag k="ssr:date" v="2019-12-27" />
		<tag k="ssr:gruppe" v="veg" />
		<tag k="ssr:hovedgruppe" v="infrastruktur" />
		<tag k="ssr:stedsnr" v="1039712" />
		<tag k="ssr:type" v="adressenavn" />
	</node>
	<node lat="60.50620268430356" lon="5.4259027361719765" id="-74711">
		<tag k="name" v="Eide" />
		<tag k="ssr:date" v="2019-12-27" />
		<tag k="ssr:gruppe" v="veg" />
		<tag k="ssr:hovedgruppe" v="infrastruktur" />
		<tag k="ssr:stedsnr" v="1039713" />
		<tag k="ssr:type" v="adressenavn" />
	</node>
	<node lat="60.50522000248504" lon="5.42549893183361" id="-74712">
		<tag k="name" v="Eidsgotene" />
		<tag k="ssr:date" v="2019-12-27" />
		<tag k="ssr:gruppe" v="veg" />
		<tag k="ssr:hovedgruppe" v="infrastruktur" />
		<tag k="ssr:stedsnr" v="1039714" />
		<tag k="ssr:type" v="adressenavn" />
	</node>
	<node lat="60.52907074216068" lon="5.358867884119549" id="-74713">
		<tag k="name" v="Eikeland" />
		<tag k="ssr:date" v="2019-12-27" />
		<tag k="ssr:gruppe" v="veg" />
		<tag k="ssr:hovedgruppe" v="infrastruktur" />
		<tag k="ssr:stedsnr" v="1039715" />
		<tag k="ssr:type" v="adressenavn" />
	</node>
	<node lat="60.542889730052" lon="5.3517508409010155" id="-74714">
		<tag k="name" v="Prestabakken" />
		<tag k="ssr:date" v="2019-12-27" />
		<tag k="ssr:gruppe" v="veg" />
		<tag k="ssr:hovedgruppe" v="infrastruktur" />
		<tag k="ssr:stedsnr" v="1039716" />
		<tag k="ssr:type" v="adressenavn" />
	</node>
	<node lat="60.517761903035236" lon="5.395379994699016" id="-74715">
		<tag k="name" v="Skorahaugane" />
		<tag k="ssr:date" v="2019-12-27" />
		<tag k="ssr:gruppe" v="veg" />
		<tag k="ssr:hovedgruppe" v="infrastruktur" />
		<tag k="ssr:stedsnr" v="1039717" />
		<tag k="ssr:type" v="adressenavn" />
	</node>
	<node lat="60.51044246297161" lon="5.411558522103078" id="-74716">
		<tag k="name" v="Skoravegen" />
		<tag k="ssr:date" v="2019-12-27" />
		<tag k="ssr:gruppe" v="veg" />
		<tag k="ssr:hovedgruppe" v="infrastruktur" />
		<tag k="ssr:stedsnr" v="1039718" />
		<tag k="ssr:type" v="adressenavn" />
	</node>
	<node lat="60.49999212347167" lon="5.437187949257602" id="-74717">
		<tag k="name" v="Reigstadåsen" />
		<tag k="ssr:date" v="2019-12-27" />
		<tag k="ssr:gruppe" v="veg" />
		<tag k="ssr:hovedgruppe" v="infrastruktur" />
		<tag k="ssr:stedsnr" v="1039719" />
		<tag k="ssr:type" v="adressenavn" />
	</node>
	<node lat="60.49634770477664" lon="5.444365590311396" id="-74718">
		<tag k="name" v="Åsen" />
		<tag k="ssr:date" v="2019-12-27" />
		<tag k="ssr:gruppe" v="veg" />
		<tag k="ssr:hovedgruppe" v="infrastruktur" />
		<tag k="ssr:stedsnr" v="1039720" />
		<tag k="ssr:type" v="adressenavn" />
	</node>
	<node lat="60.49952666464345" lon="5.446797327777231" id="-74719">
		<tag k="name" v="Vardalsvegen" />
		<tag k="ssr:date" v="2019-12-27" />
		<tag k="ssr:gruppe" v="veg" />
		<tag k="ssr:hovedgruppe" v="infrastruktur" />
		<tag k="ssr:stedsnr" v="1039721" />
		<tag k="ssr:type" v="adressenavn" />
	</node>
	<node lat="60.502721378590394" lon="5.433982078377272" id="-74720">
		<tag k="name" v="Bullaåsen" />
		<tag k="ssr:date" v="2019-12-27" />
		<tag k="ssr:gruppe" v="veg" />
		<tag k="ssr:hovedgruppe" v="infrastruktur" />
		<tag k="ssr:stedsnr" v="1039722" />
		<tag k="ssr:type" v="adressenavn" />
	</node>
	<node lat="60.50532129114196" lon="5.428984531734989" id="-74721">
		<tag k="name" v="Bullavegen" />
		<tag k="ssr:date" v="2019-12-27" />
		<tag k="ssr:gruppe" v="veg" />
		<tag k="ssr:hovedgruppe" v="infrastruktur" />
		<tag k="ssr:stedsnr" v="1039723" />
		<tag k="ssr:type" v="adressenavn" />
	</node>
	<node lat="60.50569003205206" lon="5.426781810213793" id="-74722">
		<tag k="name" v="Eidsbakkane" />
		<tag k="ssr:date" v="2019-12-27" />
		<tag k="ssr:gruppe" v="veg" />
		<tag k="ssr:hovedgruppe" v="infrastruktur" />
		<tag k="ssr:stedsnr" v="1039724" />
		<tag k="ssr:type" v="adressenavn" />
	</node>
	<node lat="60.49705633913882" lon="5.432528968951094" id="-74723">
		<tag k="name" v="Reigstadflaten" />
		<tag k="ssr:date" v="2019-12-27" />
		<tag k="ssr:gruppe" v="veg" />
		<tag k="ssr:hovedgruppe" v="infrastruktur" />
		<tag k="ssr:stedsnr" v="1039725" />
		<tag k="ssr:type" v="adressenavn" />
	</node>
	<node lat="60.49403923153923" lon="5.428393659312524" id="-74724">
		<tag k="name" v="Reigstadvegen" />
		<tag k="ssr:date" v="2019-12-27" />
		<tag k="ssr:gruppe" v="veg" />
		<tag k="ssr:hovedgruppe" v="infrastruktur" />
		<tag k="ssr:stedsnr" v="1039726" />
		<tag k="ssr:type" v="adressenavn" />
	</node>
	<node lat="60.55372822444096" lon="5.430960732168935" id="-74725">
		<tag k="name" v="Raknes" />
		<tag k="ssr:date" v="2019-12-27" />
		<tag k="ssr:gruppe" v="veg" />
		<tag k="ssr:hovedgruppe" v="infrastruktur" />
		<tag k="ssr:stedsnr" v="1039727" />
		<tag k="ssr:type" v="adressenavn" />
	</node>
	<node lat="60.53525066346678" lon="5.4418223831634736" id="-74726">
		<tag k="name" v="Børtveit" />
		<tag k="ssr:date" v="2019-12-27" />
		<tag k="ssr:gruppe" v="veg" />
		<tag k="ssr:hovedgruppe" v="infrastruktur" />
		<tag k="ssr:stedsnr" v="1039728" />
		<tag k="ssr:type" v="adressenavn" />
	</node>
	<node lat="60.556339129957806" lon="5.413956614916724" id="-74727">
		<tag k="name" v="Eldsnesvegen" />
		<tag k="ssr:date" v="2019-12-27" />
		<tag k="ssr:gruppe" v="veg" />
		<tag k="ssr:hovedgruppe" v="infrastruktur" />
		<tag k="ssr:stedsnr" v="1039729" />
		<tag k="ssr:type" v="adressenavn" />
	</node>
	<node lat="60.55432660078479" lon="5.4333207605742935" id="-74728">
		<tag k="name" v="Steinanesvegen" />
		<tag k="ssr:date" v="2019-12-27" />
		<tag k="ssr:gruppe" v="veg" />
		<tag k="ssr:hovedgruppe" v="infrastruktur" />
		<tag k="ssr:stedsnr" v="1039730" />
		<tag k="ssr:type" v="adressenavn" />
	</node>
	<node lat="60.46971962205987" lon="5.565411350224301" id="-74729">
		<tag k="name" v="Vedavegen" />
		<tag k="ssr:date" v="2019-12-27" />
		<tag k="ssr:gruppe" v="veg" />
		<tag k="ssr:hovedgruppe" v="infrastruktur" />
		<tag k="ssr:stedsnr" v="1039731" />
		<tag k="ssr:type" v="adressenavn" />
	</node>
	<node lat="60.5154260613971" lon="5.4829261404106315" id="-74730">
		<tag k="name" v="Borgo" />
		<tag k="ssr:date" v="2019-12-27" />
		<tag k="ssr:gruppe" v="veg" />
		<tag k="ssr:hovedgruppe" v="infrastruktur" />
		<tag k="ssr:stedsnr" v="1039732" />
		<tag k="ssr:type" v="adressenavn" />
	</node>
	<node lat="60.499464377434585" lon="5.549633843808058" id="-74731">
		<tag k="name" v="Gjerstad" />
		<tag k="ssr:date" v="2019-12-27" />
		<tag k="ssr:gruppe" v="veg" />
		<tag k="ssr:hovedgruppe" v="infrastruktur" />
		<tag k="ssr:stedsnr" v="1039733" />
		<tag k="ssr:type" v="adressenavn" />
	</node>
	<node lat="60.50105554313133" lon="5.427687373681518" id="-74732">
		<tag k="name" v="Kalvtrævegen" />
		<tag k="ssr:date" v="2019-12-27" />
		<tag k="ssr:gruppe" v="veg" />
		<tag k="ssr:hovedgruppe" v="infrastruktur" />
		<tag k="ssr:stedsnr" v="1039734" />
		<tag k="ssr:type" v="adressenavn" />
	</node>
	<node lat="60.53172617152928" lon="5.4247107276053494" id="-74733">
		<tag k="name" v="Horsåsvegen" />
		<tag k="ssr:date" v="2019-12-27" />
		<tag k="ssr:gruppe" v="veg" />
		<tag k="ssr:hovedgruppe" v="infrastruktur" />
		<tag k="ssr:stedsnr" v="1039735" />
		<tag k="ssr:type" v="adressenavn" />
	</node>
	<node lat="60.577459627792415" lon="5.467969968670673" id="-74734">
		<tag k="name" v="Hoshovde" />
		<tag k="ssr:date" v="2019-12-27" />
		<tag k="ssr:gruppe" v="veg" />
		<tag k="ssr:hovedgruppe" v="infrastruktur" />
		<tag k="ssr:stedsnr" v="1039786" />
		<tag k="ssr:type" v="adressenavn" />
	</node>
	<node lat="60.554516337618686" lon="5.473123298187678" id="-74735">
		<tag k="name" v="Litland" />
		<tag k="ssr:date" v="2019-12-27" />
		<tag k="ssr:gruppe" v="veg" />
		<tag k="ssr:hovedgruppe" v="infrastruktur" />
		<tag k="ssr:stedsnr" v="1039787" />
		<tag k="ssr:type" v="adressenavn" />
	</node>
	<node lat="60.55083057500008" lon="5.459710881356846" id="-74736">
		<tag k="name" v="Bysheim" />
		<tag k="ssr:date" v="2019-12-27" />
		<tag k="ssr:gruppe" v="veg" />
		<tag k="ssr:hovedgruppe" v="infrastruktur" />
		<tag k="ssr:stedsnr" v="1039788" />
		<tag k="ssr:type" v="adressenavn" />
	</node>
	<node lat="60.55580559763649" lon="5.481944545698575" id="-74737">
		<tag k="name" v="Røsslandsvegen" />
		<tag k="ssr:date" v="2019-12-27" />
		<tag k="ssr:gruppe" v="veg" />
		<tag k="ssr:hovedgruppe" v="infrastruktur" />
		<tag k="ssr:stedsnr" v="1039789" />
		<tag k="ssr:type" v="adressenavn" />
	</node>
	<node lat="60.59140479412731" lon="5.522297987394664" id="-74738">
		<tag k="name" v="Hanstveitmyra" />
		<tag k="ssr:date" v="2019-12-27" />
		<tag k="ssr:gruppe" v="veg" />
		<tag k="ssr:hovedgruppe" v="infrastruktur" />
		<tag k="ssr:stedsnr" v="1039790" />
		<tag k="ssr:type" v="adressenavn" />
	</node>
	<node lat="60.58596083623966" lon="5.535479705099719" id="-74739">
		<tag k="name" v="Straumane" />
		<tag k="ssr:date" v="2019-12-27" />
		<tag k="ssr:gruppe" v="veg" />
		<tag k="ssr:hovedgruppe" v="infrastruktur" />
		<tag k="ssr:stedsnr" v="1039791" />
		<tag k="ssr:type" v="adressenavn" />
	</node>
	<node lat="60.61767155641752" lon="5.584499075725565" id="-74740">
		<tag k="name" v="Knuthaugsvegen" />
		<tag k="ssr:date" v="2019-12-27" />
		<tag k="ssr:gruppe" v="veg" />
		<tag k="ssr:hovedgruppe" v="infrastruktur" />
		<tag k="ssr:stedsnr" v="1039793" />
		<tag k="ssr:type" v="adressenavn" />
	</node>
	<node lat="60.61800015191225" lon="5.582950686386641" id="-74741">
		<tag k="name" v="Stormyrsvegen" />
		<tag k="ssr:date" v="2019-12-27" />
		<tag k="ssr:gruppe" v="veg" />
		<tag k="ssr:hovedgruppe" v="infrastruktur" />
		<tag k="ssr:stedsnr" v="1039794" />
		<tag k="ssr:type" v="adressenavn" />
	</node>
	<node lat="60.57511817659723" lon="5.558590287297111" id="-74742">
		<tag k="name" v="Varevegen" />
		<tag k="ssr:date" v="2019-12-27" />
		<tag k="ssr:gruppe" v="veg" />
		<tag k="ssr:hovedgruppe" v="infrastruktur" />
		<tag k="ssr:stedsnr" v="1039795" />
		<tag k="ssr:type" v="adressenavn" />
	</node>
	<node lat="60.596402473343076" lon="5.490040564422938" id="-74743">
		<tag k="name" v="Gatland" />
		<tag k="ssr:date" v="2019-12-27" />
		<tag k="ssr:gruppe" v="veg" />
		<tag k="ssr:hovedgruppe" v="infrastruktur" />
		<tag k="ssr:stedsnr" v="1039797" />
		<tag k="ssr:type" v="adressenavn" />
	</node>
	<node lat="60.592522108740056" lon="5.539666973603541" id="-74744">
		<tag k="name" v="Vestre Kleppsvegen" />
		<tag k="ssr:date" v="2019-12-27" />
		<tag k="ssr:gruppe" v="veg" />
		<tag k="ssr:hovedgruppe" v="infrastruktur" />
		<tag k="ssr:stedsnr" v="1039798" />
		<tag k="ssr:type" v="adressenavn" />
	</node>
	<node lat="60.580104272196834" lon="5.544427778897712" id="-74745">
		<tag k="name" v="Herlandsfossen" />
		<tag k="ssr:date" v="2019-12-27" />
		<tag k="ssr:gruppe" v="veg" />
		<tag k="ssr:hovedgruppe" v="infrastruktur" />
		<tag k="ssr:stedsnr" v="1039799" />
		<tag k="ssr:type" v="adressenavn" />
	</node>
	<node lat="60.52589243027206" lon="5.510226763223463" id="-74746">
		<tag k="name" v="Rambergsstølen" />
		<tag k="ssr:date" v="2019-12-27" />
		<tag k="ssr:gruppe" v="veg" />
		<tag k="ssr:hovedgruppe" v="infrastruktur" />
		<tag k="ssr:stedsnr" v="1039800" />
		<tag k="ssr:type" v="adressenavn" />
	</node>
	<node lat="60.524940445152104" lon="5.50962527206665" id="-74747">
		<tag k="name" v="Rambergsbrekka" />
		<tag k="ssr:date" v="2019-12-27" />
		<tag k="ssr:gruppe" v="veg" />
		<tag k="ssr:hovedgruppe" v="infrastruktur" />
		<tag k="ssr:stedsnr" v="1039801" />
		<tag k="ssr:type" v="adressenavn" />
	</node>
	<node lat="60.52837773981144" lon="5.625542172249726" id="-74748">
		<tag k="name" v="Njåstadvegen" />
		<tag k="ssr:date" v="2019-12-27" />
		<tag k="ssr:gruppe" v="veg" />
		<tag k="ssr:hovedgruppe" v="infrastruktur" />
		<tag k="ssr:stedsnr" v="1039803" />
		<tag k="ssr:type" v="adressenavn" />
	</node>
	<node lat="60.52395852310517" lon="5.5123133350584155" id="-74749">
		<tag k="name" v="Rambergsvegen" />
		<tag k="ssr:date" v="2019-12-27" />
		<tag k="ssr:gruppe" v="veg" />
		<tag k="ssr:hovedgruppe" v="infrastruktur" />
		<tag k="ssr:stedsnr" v="1039805" />
		<tag k="ssr:type" v="adressenavn" />
	</node>
	<node lat="60.51709135745021" lon="5.518900333377746" id="-74750">
		<tag k="name" v="Rymleheia" />
		<tag k="ssr:date" v="2019-12-27" />
		<tag k="ssr:gruppe" v="veg" />
		<tag k="ssr:hovedgruppe" v="infrastruktur" />
		<tag k="ssr:stedsnr" v="1039806" />
		<tag k="ssr:type" v="adressenavn" />
	</node>
	<node lat="60.50448829905889" lon="5.543146861604352" id="-74751">
		<tag k="name" v="Solbjørg" />
		<tag k="ssr:date" v="2019-12-27" />
		<tag k="ssr:gruppe" v="veg" />
		<tag k="ssr:hovedgruppe" v="infrastruktur" />
		<tag k="ssr:stedsnr" v="1039808" />
		<tag k="ssr:type" v="adressenavn" />
	</node>
	<node lat="60.509816496940026" lon="5.553168445283208" id="-74752">
		<tag k="name" v="Hagebøvegen" />
		<tag k="ssr:date" v="2019-12-27" />
		<tag k="ssr:gruppe" v="veg" />
		<tag k="ssr:hovedgruppe" v="infrastruktur" />
		<tag k="ssr:stedsnr" v="1039810" />
		<tag k="ssr:type" v="adressenavn" />
	</node>
	<node lat="60.49583276121099" lon="5.569417907938836" id="-74753">
		<tag k="name" v="Hovdavegen" />
		<tag k="ssr:date" v="2019-12-27" />
		<tag k="ssr:gruppe" v="veg" />
		<tag k="ssr:hovedgruppe" v="infrastruktur" />
		<tag k="ssr:stedsnr" v="1039812" />
		<tag k="ssr:type" v="adressenavn" />
	</node>
	<node lat="60.5683474438309" lon="5.483430980812055" id="-74754">
		<tag k="name" v="Kossdalsvegen" />
		<tag k="ssr:date" v="2019-12-27" />
		<tag k="ssr:gruppe" v="veg" />
		<tag k="ssr:hovedgruppe" v="infrastruktur" />
		<tag k="ssr:stedsnr" v="1039814" />
		<tag k="ssr:type" v="adressenavn" />
	</node>
	<node lat="60.53762369991268" lon="5.503286362249945" id="-74755">
		<tag k="name" v="Åsgardane" />
		<tag k="ssr:date" v="2019-12-27" />
		<tag k="ssr:gruppe" v="veg" />
		<tag k="ssr:hovedgruppe" v="infrastruktur" />
		<tag k="ssr:stedsnr" v="1039816" />
		<tag k="ssr:type" v="adressenavn" />
	</node>
	<node lat="60.57468774754455" lon="5.482282995936987" id="-74756">
		<tag k="name" v="Øvsthusvegen" />
		<tag k="ssr:date" v="2019-12-27" />
		<tag k="ssr:gruppe" v="veg" />
		<tag k="ssr:hovedgruppe" v="infrastruktur" />
		<tag k="ssr:stedsnr" v="1039817" />
		<tag k="ssr:type" v="adressenavn" />
	</node>
	<node lat="60.57008356040981" lon="5.486473421306403" id="-74757">
		<tag k="name" v="Tveitavegen" />
		<tag k="ssr:date" v="2019-12-27" />
		<tag k="ssr:gruppe" v="veg" />
		<tag k="ssr:hovedgruppe" v="infrastruktur" />
		<tag k="ssr:stedsnr" v="1039818" />
		<tag k="ssr:type" v="adressenavn" />
	</node>
	<node lat="60.54165660002188" lon="5.539459959111003" id="-74758">
		<tag k="name" v="Langelandsvegen" />
		<tag k="ssr:date" v="2019-12-27" />
		<tag k="ssr:gruppe" v="veg" />
		<tag k="ssr:hovedgruppe" v="infrastruktur" />
		<tag k="ssr:stedsnr" v="1039819" />
		<tag k="ssr:type" v="adressenavn" />
	</node>
	<node lat="60.53282273434866" lon="5.538638385604335" id="-74759">
		<tag k="name" v="Svenheimsvegen" />
		<tag k="ssr:date" v="2019-12-27" />
		<tag k="ssr:gruppe" v="veg" />
		<tag k="ssr:hovedgruppe" v="infrastruktur" />
		<tag k="ssr:stedsnr" v="1039820" />
		<tag k="ssr:type" v="adressenavn" />
	</node>
	<node lat="60.56775351658692" lon="5.553335142191121" id="-74760">
		<tag k="name" v="Selvika" />
		<tag k="ssr:date" v="2019-12-27" />
		<tag k="ssr:gruppe" v="veg" />
		<tag k="ssr:hovedgruppe" v="infrastruktur" />
		<tag k="ssr:stedsnr" v="1039821" />
		<tag k="ssr:type" v="adressenavn" />
	</node>
	<node lat="60.53999047605275" lon="5.563472412240881" id="-74761">
		<tag k="name" v="Kalleklauvvegen" />
		<tag k="ssr:date" v="2019-12-27" />
		<tag k="ssr:gruppe" v="veg" />
		<tag k="ssr:hovedgruppe" v="infrastruktur" />
		<tag k="ssr:stedsnr" v="1039822" />
		<tag k="ssr:type" v="adressenavn" />
	</node>
	<node lat="60.502826197558186" lon="5.500896901649268" id="-74765">
		<tag k="name" v="Vevleheiane" />
		<tag k="ssr:date" v="2019-12-27" />
		<tag k="ssr:gruppe" v="veg" />
		<tag k="ssr:hovedgruppe" v="infrastruktur" />
		<tag k="ssr:stedsnr" v="1073515" />
		<tag k="ssr:type" v="adressenavn" />
	</node>
	<node lat="60.52070373883141" lon="5.5088308076358325" id="-74766">
		<tag k="name" v="Fugledalsvegen" />
		<tag k="ssr:date" v="2019-12-27" />
		<tag k="ssr:gruppe" v="veg" />
		<tag k="ssr:hovedgruppe" v="infrastruktur" />
		<tag k="ssr:stedsnr" v="1073777" />
		<tag k="ssr:type" v="adressenavn" />
	</node>
	<node lat="60.520983465344315" lon="5.505099376744615" id="-74767">
		<tag k="name" v="Fugledalsåsen" />
		<tag k="ssr:date" v="2019-12-27" />
		<tag k="ssr:gruppe" v="veg" />
		<tag k="ssr:hovedgruppe" v="infrastruktur" />
		<tag k="ssr:stedsnr" v="1073778" />
		<tag k="ssr:type" v="adressenavn" />
	</node>
	<node lat="60.38666587132831" lon="5.332557531214444" id="-74768">
		<tag k="name" v="Vestland fylke" />
		<tag k="ssr:date" v="2022-01-03" />
		<tag k="ssr:gruppe" v="administrativeIndelinger" />
		<tag k="ssr:hovedgruppe" v="offentligAdministrasjon" />
		<tag k="ssr:stedsnr" v="1074408" />
		<tag k="ssr:type" v="fylke" />
	</node>
	<node lat="60.47785885995407" lon="5.691876322483185" id="-74770">
		<tag k="name" v="Håhaugen" />
		<tag k="ssr:date" v="2020-04-23" />
		<tag k="ssr:gruppe" v="veg" />
		<tag k="ssr:hovedgruppe" v="infrastruktur" />
		<tag k="ssr:stedsnr" v="1076565" />
		<tag k="ssr:type" v="adressenavn" />
	</node>
</osm>
