<?xml version="1.0" encoding="UTF-8"?>
<osm generator="osmapis" version="0.6">
	<node id="-430583" lat="58.8704833338" lon="9.47834444383">
		<tag k="name" v="Sauøya" />
		<tag k="ssr:date" v="2019-12-27" />
		<tag k="ssr:gruppe" v="veg" />
		<tag k="ssr:hovedgruppe" v="infrastruktur" />
		<tag k="ssr:stedsnr" v="60369" />
		<tag k="ssr:type" v="adressenavn" />
	</node>
	<node id="-430584" lat="58.9325861129" lon="9.38701110699">
		<tag k="name" v="Hullvann" />
		<tag k="ssr:date" v="2019-12-27" />
		<tag k="ssr:gruppe" v="veg" />
		<tag k="ssr:hovedgruppe" v="infrastruktur" />
		<tag k="ssr:stedsnr" v="60371" />
		<tag k="ssr:type" v="adressenavn" />
	</node>
	<node id="-431566" lat="58.8508750023" lon="9.45391388122">
		<tag k="alt_name" v="Stavseng lykt" />
		<tag k="name" v="Stavseng" />
		<tag k="old_name" v="Stavseng fyr" />
		<tag k="ssr:date" v="2020-01-20" />
		<tag k="ssr:gruppe" v="navigasjon" />
		<tag k="ssr:hovedgruppe" v="infrastruktur" />
		<tag k="ssr:stedsnr" v="608762" />
		<tag k="ssr:type" v="fyrlykt" />
	</node>
	<node id="-429074" lat="58.8801444418" lon="9.44364722047">
		<tag k="name" v="Bærøytangen" />
		<tag k="ssr:date" v="2019-12-27" />
		<tag k="ssr:gruppe" v="veg" />
		<tag k="ssr:hovedgruppe" v="infrastruktur" />
		<tag k="ssr:stedsnr" v="241967" />
		<tag k="ssr:type" v="adressenavn" />
	</node>
	<node id="-431220" lat="58.8044805572" lon="9.40219721756">
		<tag k="name" v="Haslumkilen" />
		<tag k="ssr:date" v="2019-12-27" />
		<tag k="ssr:gruppe" v="veg" />
		<tag k="ssr:hovedgruppe" v="infrastruktur" />
		<tag k="ssr:stedsnr" v="363361" />
		<tag k="ssr:type" v="adressenavn" />
	</node>
	<node id="-431218" lat="58.9160694451" lon="9.53181389635">
		<tag k="name" v="Risøy ø pynt" />
		<tag k="ssr:date" v="2019-12-27" />
		<tag k="ssr:gruppe" v="navigasjon" />
		<tag k="ssr:hovedgruppe" v="infrastruktur" />
		<tag k="ssr:stedsnr" v="357362" />
		<tag k="ssr:type" v="fyrlykt" />
	</node>
	<node id="-430419" lat="58.8723564533" lon="9.50813111057">
		<tag k="name" v="Rytterholmane" />
		<tag k="ssr:date" v="2019-12-27" />
		<tag k="ssr:gruppe" v="veg" />
		<tag k="ssr:hovedgruppe" v="infrastruktur" />
		<tag k="ssr:stedsnr" v="1049675" />
		<tag k="ssr:type" v="adressenavn" />
	</node>
	<node id="-429807" lat="58.9216000018" lon="9.53643056257">
		<tag k="name" v="Eksefjorden" />
		<tag k="ssr:date" v="2019-12-27" />
		<tag k="ssr:gruppe" v="veg" />
		<tag k="ssr:hovedgruppe" v="infrastruktur" />
		<tag k="ssr:stedsnr" v="728396" />
		<tag k="ssr:type" v="adressenavn" />
	</node>
	<node id="-429549" lat="58.8855916633" lon="9.43689999933">
		<tag k="name" v="Skarholmane" />
		<tag k="ssr:date" v="2019-12-27" />
		<tag k="ssr:gruppe" v="veg" />
		<tag k="ssr:hovedgruppe" v="infrastruktur" />
		<tag k="ssr:stedsnr" v="666958" />
		<tag k="ssr:type" v="adressenavn" />
	</node>
	<node id="-429804" lat="58.8577055534" lon="9.58149165984">
		<tag k="name" v="Djupodden" />
		<tag k="ssr:date" v="2019-12-27" />
		<tag k="ssr:gruppe" v="navigasjon" />
		<tag k="ssr:hovedgruppe" v="infrastruktur" />
		<tag k="ssr:stedsnr" v="631706" />
		<tag k="ssr:type" v="fyrlykt" />
	</node>
	<node id="-431979" lat="58.8370535012" lon="9.55371715165">
		<tag k="name" v="Skaddehalsen" />
		<tag k="ssr:date" v="2020-01-15" />
		<tag k="ssr:gruppe" v="navigasjon" />
		<tag k="ssr:hovedgruppe" v="infrastruktur" />
		<tag k="ssr:stedsnr" v="1074549" />
		<tag k="ssr:type" v="båke" />
	</node>
	<node id="-431978" lat="58.87893693" lon="9.51710054527">
		<tag k="name" v="Mefjordskjærbåen" />
		<tag k="ssr:date" v="2020-01-14" />
		<tag k="ssr:gruppe" v="navigasjon" />
		<tag k="ssr:hovedgruppe" v="infrastruktur" />
		<tag k="ssr:stedsnr" v="1074548" />
		<tag k="ssr:type" v="jernstang" />
	</node>
	<node id="-431977" lat="58.8709501074" lon="9.53514667347">
		<tag k="name" v="Hellesengholmbåen" />
		<tag k="ssr:date" v="2020-01-14" />
		<tag k="ssr:gruppe" v="navigasjon" />
		<tag k="ssr:hovedgruppe" v="infrastruktur" />
		<tag k="ssr:stedsnr" v="1074547" />
		<tag k="ssr:type" v="stake" />
	</node>
	<node id="-431976" lat="58.8711028605" lon="9.53678502989">
		<tag k="name" v="Larsholmrabben" />
		<tag k="ssr:date" v="2020-01-14" />
		<tag k="ssr:gruppe" v="navigasjon" />
		<tag k="ssr:hovedgruppe" v="infrastruktur" />
		<tag k="ssr:stedsnr" v="1074546" />
		<tag k="ssr:type" v="stake" />
	</node>
	<node id="-431973" lat="58.8544529604" lon="9.57508147963">
		<tag k="name" v="Djupodden" />
		<tag k="ssr:date" v="2020-01-13" />
		<tag k="ssr:gruppe" v="navigasjon" />
		<tag k="ssr:hovedgruppe" v="infrastruktur" />
		<tag k="ssr:stedsnr" v="1074527" />
		<tag k="ssr:type" v="lanterne" />
	</node>
	<node id="-431971" lat="58.8582235735" lon="9.56477348246">
		<tag k="alt_name" v="Stangholmen" />
		<tag k="name" v="Stangholmen båke" />
		<tag k="ssr:date" v="2020-01-13" />
		<tag k="ssr:gruppe" v="navigasjon" />
		<tag k="ssr:hovedgruppe" v="infrastruktur" />
		<tag k="ssr:stedsnr" v="1074520" />
		<tag k="ssr:type" v="båke" />
	</node>
	<node id="-431969" lat="58.9273062452" lon="9.65166129006">
		<tag k="name" v="Flesbåen jernstang" />
		<tag k="ssr:date" v="2020-01-09" />
		<tag k="ssr:gruppe" v="navigasjon" />
		<tag k="ssr:hovedgruppe" v="infrastruktur" />
		<tag k="ssr:stedsnr" v="1074503" />
		<tag k="ssr:type" v="jernstang" />
	</node>
	<node id="-431967" lat="59.2161476784" lon="9.61110301692">
		<tag k="name" v="Vestfold og Telemark fylke" />
		<tag k="ssr:date" v="2020-01-13" />
		<tag k="ssr:gruppe" v="administrativeIndelinger" />
		<tag k="ssr:hovedgruppe" v="offentligAdministrasjon" />
		<tag k="ssr:stedsnr" v="1073927" />
		<tag k="ssr:type" v="fylke" />
	</node>
	<node id="-431966" lat="58.8797222015" lon="9.41410308058">
		<tag k="name" v="Malmhella" />
		<tag k="ssr:date" v="2019-12-27" />
		<tag k="ssr:gruppe" v="veg" />
		<tag k="ssr:hovedgruppe" v="infrastruktur" />
		<tag k="ssr:stedsnr" v="1049578" />
		<tag k="ssr:type" v="adressenavn" />
	</node>
	<node id="-431965" lat="58.9440968703" lon="9.37532225437">
		<tag k="name" v="Auråen" />
		<tag k="ssr:date" v="2019-12-27" />
		<tag k="ssr:gruppe" v="veg" />
		<tag k="ssr:hovedgruppe" v="infrastruktur" />
		<tag k="ssr:stedsnr" v="1049494" />
		<tag k="ssr:type" v="adressenavn" />
	</node>
	<node id="-431964" lat="58.8436080227" lon="9.52745484233">
		<tag k="name" v="Østre Rauane" />
		<tag k="ssr:date" v="2019-12-27" />
		<tag k="ssr:gruppe" v="veg" />
		<tag k="ssr:hovedgruppe" v="infrastruktur" />
		<tag k="ssr:stedsnr" v="1049662" />
		<tag k="ssr:type" v="adressenavn" />
	</node>
	<node id="-431963" lat="58.8902074999" lon="9.36805814366">
		<tag k="name" v="Kjøyteveien" />
		<tag k="ssr:date" v="2019-12-27" />
		<tag k="ssr:gruppe" v="veg" />
		<tag k="ssr:hovedgruppe" v="infrastruktur" />
		<tag k="ssr:stedsnr" v="1049563" />
		<tag k="ssr:type" v="adressenavn" />
	</node>
	<node id="-431962" lat="58.8540083454" lon="9.49139447342">
		<tag k="name" v="Dønvika" />
		<tag k="ssr:date" v="2019-12-27" />
		<tag k="ssr:gruppe" v="veg" />
		<tag k="ssr:hovedgruppe" v="infrastruktur" />
		<tag k="ssr:stedsnr" v="1049541" />
		<tag k="ssr:type" v="adressenavn" />
	</node>
	<node id="-430415" lat="58.9070989027" lon="9.55770376849">
		<tag k="name" v="Fluer" />
		<tag k="ssr:date" v="2019-12-27" />
		<tag k="ssr:gruppe" v="veg" />
		<tag k="ssr:hovedgruppe" v="infrastruktur" />
		<tag k="ssr:stedsnr" v="1049669" />
		<tag k="ssr:type" v="adressenavn" />
	</node>
	<node id="-430424" lat="58.8745601726" lon="9.53141002471">
		<tag k="name" v="Oterøy" />
		<tag k="ssr:date" v="2019-12-27" />
		<tag k="ssr:gruppe" v="veg" />
		<tag k="ssr:hovedgruppe" v="infrastruktur" />
		<tag k="ssr:stedsnr" v="1049683" />
		<tag k="ssr:type" v="adressenavn" />
	</node>
	<node id="-430423" lat="58.9024315566" lon="9.53926657397">
		<tag k="name" v="Østre Gumøy" />
		<tag k="ssr:date" v="2019-12-27" />
		<tag k="ssr:gruppe" v="veg" />
		<tag k="ssr:hovedgruppe" v="infrastruktur" />
		<tag k="ssr:stedsnr" v="1049681" />
		<tag k="ssr:type" v="adressenavn" />
	</node>
	<node id="-430422" lat="58.875916391" lon="9.55343136015">
		<tag k="name" v="Røsholmen" />
		<tag k="ssr:date" v="2019-12-27" />
		<tag k="ssr:gruppe" v="veg" />
		<tag k="ssr:hovedgruppe" v="infrastruktur" />
		<tag k="ssr:stedsnr" v="1049680" />
		<tag k="ssr:type" v="adressenavn" />
	</node>
	<node id="-430421" lat="58.8843790198" lon="9.57285058428">
		<tag k="name" v="Stutsholmen" />
		<tag k="ssr:date" v="2019-12-27" />
		<tag k="ssr:gruppe" v="veg" />
		<tag k="ssr:hovedgruppe" v="infrastruktur" />
		<tag k="ssr:stedsnr" v="1049679" />
		<tag k="ssr:type" v="adressenavn" />
	</node>
	<node id="-430420" lat="58.8830807878" lon="9.54513060006">
		<tag k="name" v="Buholmen" />
		<tag k="ssr:date" v="2019-12-27" />
		<tag k="ssr:gruppe" v="veg" />
		<tag k="ssr:hovedgruppe" v="infrastruktur" />
		<tag k="ssr:stedsnr" v="1049678" />
		<tag k="ssr:type" v="adressenavn" />
	</node>
	<node id="-431571" lat="58.8367035381" lon="9.46433607881">
		<tag k="alt_name" v="Strømtangen fyr" />
		<tag k="name" v="Strømtangen" />
		<tag k="ssr:date" v="2019-12-27" />
		<tag k="ssr:gruppe" v="navigasjon" />
		<tag k="ssr:hovedgruppe" v="infrastruktur" />
		<tag k="ssr:stedsnr" v="608744" />
		<tag k="ssr:type" v="fyrstasjon" />
	</node>
	<node id="-430418" lat="58.8832314239" lon="9.5305108464">
		<tag k="name" v="Geitholmsunda" />
		<tag k="ssr:date" v="2019-12-27" />
		<tag k="ssr:gruppe" v="veg" />
		<tag k="ssr:hovedgruppe" v="infrastruktur" />
		<tag k="ssr:stedsnr" v="1049674" />
		<tag k="ssr:type" v="adressenavn" />
	</node>
	<node id="-430417" lat="58.9010262995" lon="9.6465453819">
		<tag k="name" v="Stråholmen" />
		<tag k="ssr:date" v="2019-12-27" />
		<tag k="ssr:gruppe" v="veg" />
		<tag k="ssr:hovedgruppe" v="infrastruktur" />
		<tag k="ssr:stedsnr" v="1049672" />
		<tag k="ssr:type" v="adressenavn" />
	</node>
	<node id="-430416" lat="58.900345948" lon="9.58139182652">
		<tag k="name" v="Arøy" />
		<tag k="ssr:date" v="2019-12-27" />
		<tag k="ssr:gruppe" v="veg" />
		<tag k="ssr:hovedgruppe" v="infrastruktur" />
		<tag k="ssr:stedsnr" v="1049670" />
		<tag k="ssr:type" v="adressenavn" />
	</node>
	<node id="-431951" lat="58.7775512218" lon="9.29830919103">
		<tag k="name" v="Hødnebøveien" />
		<tag k="ssr:date" v="2019-12-27" />
		<tag k="ssr:gruppe" v="veg" />
		<tag k="ssr:hovedgruppe" v="infrastruktur" />
		<tag k="ssr:stedsnr" v="973880" />
		<tag k="ssr:type" v="adressenavn" />
	</node>
	<node id="-431950" lat="58.9170444485" lon="9.50312499532">
		<tag k="name" v="Bjelviksund" />
		<tag k="ssr:date" v="2019-12-27" />
		<tag k="ssr:gruppe" v="veg" />
		<tag k="ssr:hovedgruppe" v="infrastruktur" />
		<tag k="ssr:stedsnr" v="970650" />
		<tag k="ssr:type" v="adressenavn" />
	</node>
	<node id="-431949" lat="58.9155777749" lon="9.52211666981">
		<tag k="name" v="Risøy" />
		<tag k="ssr:date" v="2019-12-27" />
		<tag k="ssr:gruppe" v="veg" />
		<tag k="ssr:hovedgruppe" v="infrastruktur" />
		<tag k="ssr:stedsnr" v="970647" />
		<tag k="ssr:type" v="adressenavn" />
	</node>
	<node id="-431948" lat="58.8763361074" lon="9.46965000579">
		<tag k="name" v="Østre Bærøy" />
		<tag k="ssr:date" v="2019-12-27" />
		<tag k="ssr:gruppe" v="veg" />
		<tag k="ssr:hovedgruppe" v="infrastruktur" />
		<tag k="ssr:stedsnr" v="969952" />
		<tag k="ssr:type" v="adressenavn" />
	</node>
	<node id="-431947" lat="58.873466666" lon="9.5436638844">
		<tag k="name" v="Hasseldalsunda" />
		<tag k="ssr:date" v="2019-12-27" />
		<tag k="ssr:gruppe" v="veg" />
		<tag k="ssr:hovedgruppe" v="infrastruktur" />
		<tag k="ssr:stedsnr" v="969949" />
		<tag k="ssr:type" v="adressenavn" />
	</node>
	<node id="-431946" lat="58.8642027766" lon="9.57177777902">
		<tag k="name" v="Jomfrulandsrenna" />
		<tag k="ssr:date" v="2019-12-27" />
		<tag k="ssr:gruppe" v="veg" />
		<tag k="ssr:hovedgruppe" v="infrastruktur" />
		<tag k="ssr:stedsnr" v="969948" />
		<tag k="ssr:type" v="adressenavn" />
	</node>
	<node id="-431945" lat="58.9094444407" lon="9.56280277562">
		<tag k="name" v="Store Fluer" />
		<tag k="ssr:date" v="2019-12-27" />
		<tag k="ssr:gruppe" v="navigasjon" />
		<tag k="ssr:hovedgruppe" v="infrastruktur" />
		<tag k="ssr:stedsnr" v="964393" />
		<tag k="ssr:type" v="fyrlykt" />
	</node>
	<node id="-430408" lat="58.859964237" lon="9.37895323418">
		<tag k="name" v="Lille Kirkholmen" />
		<tag k="ssr:date" v="2019-12-27" />
		<tag k="ssr:gruppe" v="veg" />
		<tag k="ssr:hovedgruppe" v="infrastruktur" />
		<tag k="ssr:stedsnr" v="1049530" />
		<tag k="ssr:type" v="adressenavn" />
	</node>
	<node id="-430412" lat="58.8333028692" lon="9.48705831502">
		<tag k="name" v="Vestre Rauane" />
		<tag k="ssr:date" v="2019-12-27" />
		<tag k="ssr:gruppe" v="veg" />
		<tag k="ssr:hovedgruppe" v="infrastruktur" />
		<tag k="ssr:stedsnr" v="1049665" />
		<tag k="ssr:type" v="adressenavn" />
	</node>
	<node id="-430411" lat="58.8508105553" lon="9.48272694431">
		<tag k="name" v="Ærøy" />
		<tag k="ssr:date" v="2019-12-27" />
		<tag k="ssr:gruppe" v="veg" />
		<tag k="ssr:hovedgruppe" v="infrastruktur" />
		<tag k="ssr:stedsnr" v="1049664" />
		<tag k="ssr:type" v="adressenavn" />
	</node>
	<node id="-430410" lat="58.8602436077" lon="9.39069257363">
		<tag k="name" v="Kirkholmen" />
		<tag k="ssr:date" v="2019-12-27" />
		<tag k="ssr:gruppe" v="veg" />
		<tag k="ssr:hovedgruppe" v="infrastruktur" />
		<tag k="ssr:stedsnr" v="1049536" />
		<tag k="ssr:type" v="adressenavn" />
	</node>
	<node id="-431671" lat="58.8867194431" lon="9.62239444803">
		<tag k="name" v="Slepa" />
		<tag k="ssr:date" v="2019-12-27" />
		<tag k="ssr:gruppe" v="navigasjon" />
		<tag k="ssr:hovedgruppe" v="infrastruktur" />
		<tag k="ssr:stedsnr" v="752937" />
		<tag k="ssr:type" v="lanterne" />
	</node>
	<node id="-431798" lat="58.9053833302" lon="9.54230556187">
		<tag k="name" v="Kreppa" />
		<tag k="ssr:date" v="2019-12-27" />
		<tag k="ssr:gruppe" v="navigasjon" />
		<tag k="ssr:hovedgruppe" v="infrastruktur" />
		<tag k="ssr:stedsnr" v="795450" />
		<tag k="ssr:type" v="lanterne" />
	</node>
	<node id="-430409" lat="58.8609533275" lon="9.40805400061">
		<tag k="name" v="Furuholmen" />
		<tag k="ssr:date" v="2019-12-27" />
		<tag k="ssr:gruppe" v="veg" />
		<tag k="ssr:hovedgruppe" v="infrastruktur" />
		<tag k="ssr:stedsnr" v="1049534" />
		<tag k="ssr:type" v="adressenavn" />
	</node>
	<node id="-429106" lat="58.8857027791" lon="9.45938611791">
		<tag k="name" v="Skjensundet" />
		<tag k="ssr:date" v="2019-12-27" />
		<tag k="ssr:gruppe" v="navigasjon" />
		<tag k="ssr:hovedgruppe" v="infrastruktur" />
		<tag k="ssr:stedsnr" v="453788" />
		<tag k="ssr:type" v="fyrlykt" />
	</node>
	<node id="-431409" lat="58.8528472221" lon="9.32407221959">
		<tag k="name" v="Kilsfjorden" />
		<tag k="ssr:date" v="2019-12-27" />
		<tag k="ssr:gruppe" v="veg" />
		<tag k="ssr:hovedgruppe" v="infrastruktur" />
		<tag k="ssr:stedsnr" v="545349" />
		<tag k="ssr:type" v="adressenavn" />
	</node>
	<node id="-430151" lat="58.8650888865" lon="9.59637777217">
		<tag k="name" v="Jomfruland" />
		<tag k="old_name" v="Jomfruland fyr" />
		<tag k="ssr:date" v="2019-12-27" />
		<tag k="ssr:gruppe" v="navigasjon" />
		<tag k="ssr:hovedgruppe" v="infrastruktur" />
		<tag k="ssr:stedsnr" v="911945" />
		<tag k="ssr:type" v="fyrstasjon" />
	</node>
	<node id="-431918" lat="58.8994416687" lon="9.46788055865">
		<tag k="name" v="Kjerringholmen" />
		<tag k="ssr:date" v="2019-12-27" />
		<tag k="ssr:gruppe" v="veg" />
		<tag k="ssr:hovedgruppe" v="infrastruktur" />
		<tag k="ssr:stedsnr" v="849888" />
		<tag k="ssr:type" v="adressenavn" />
	</node>
	<node id="-430636" lat="58.9005222237" lon="9.52119443743">
		<tag k="name" v="Sundgårdsholmen" />
		<tag k="ssr:date" v="2019-12-27" />
		<tag k="ssr:gruppe" v="navigasjon" />
		<tag k="ssr:hovedgruppe" v="infrastruktur" />
		<tag k="ssr:stedsnr" v="89769" />
		<tag k="ssr:type" v="fyrlykt" />
	</node>
	<node id="-430414" lat="58.9163099184" lon="9.61944946191">
		<tag k="name" v="Askholmane" />
		<tag k="ssr:date" v="2019-12-27" />
		<tag k="ssr:gruppe" v="veg" />
		<tag k="ssr:hovedgruppe" v="infrastruktur" />
		<tag k="ssr:stedsnr" v="1049667" />
		<tag k="ssr:type" v="adressenavn" />
	</node>
	<node id="-430375" lat="58.9161583328" lon="9.5318305601">
		<tag k="name" v="Risøy ø pynt" />
		<tag k="ssr:date" v="2019-12-27" />
		<tag k="ssr:gruppe" v="navigasjon" />
		<tag k="ssr:hovedgruppe" v="infrastruktur" />
		<tag k="ssr:stedsnr" v="874966" />
		<tag k="ssr:type" v="fyrlykt" />
	</node>
	<node id="-431654" lat="58.8589222209" lon="9.42866389714">
		<tag k="name" v="Buttebåen" />
		<tag k="ssr:date" v="2019-12-27" />
		<tag k="ssr:gruppe" v="navigasjon" />
		<tag k="ssr:hovedgruppe" v="infrastruktur" />
		<tag k="ssr:stedsnr" v="752438" />
		<tag k="ssr:type" v="fyrlykt" />
	</node>
	<node id="-430625" lat="58.8144055563" lon="9.47838610312">
		<tag k="alt_name" v="Knubbehausen lykt" />
		<tag k="name" v="Knubbehausen" />
		<tag k="ssr:date" v="2019-12-27" />
		<tag k="ssr:gruppe" v="navigasjon" />
		<tag k="ssr:hovedgruppe" v="infrastruktur" />
		<tag k="ssr:stedsnr" v="85500" />
		<tag k="ssr:type" v="fyrlykt" />
	</node>
	<node id="-431776" lat="58.8645916709" lon="9.36539444932">
		<tag k="name" v="Rekevika" />
		<tag k="ssr:date" v="2019-12-27" />
		<tag k="ssr:gruppe" v="veg" />
		<tag k="ssr:hovedgruppe" v="infrastruktur" />
		<tag k="ssr:stedsnr" v="788876" />
		<tag k="ssr:type" v="adressenavn" />
	</node>
	<node id="-429387" lat="58.9342888869" lon="9.47912776975">
		<tag k="name" v="Fossingfjorden" />
		<tag k="ssr:date" v="2019-12-27" />
		<tag k="ssr:gruppe" v="navigasjon" />
		<tag k="ssr:hovedgruppe" v="infrastruktur" />
		<tag k="ssr:stedsnr" v="513750" />
		<tag k="ssr:type" v="lanterne" />
	</node>
	<node id="-429592" lat="58.9663749986" lon="9.36424445014">
		<tag k="name" v="Langsjø" />
		<tag k="ssr:date" v="2019-12-27" />
		<tag k="ssr:gruppe" v="veg" />
		<tag k="ssr:hovedgruppe" v="infrastruktur" />
		<tag k="ssr:stedsnr" v="485313" />
		<tag k="ssr:type" v="adressenavn" />
	</node>
	<node id="-429591" lat="58.8537055561" lon="9.37879722553">
		<tag k="name" v="Søndre Tåtøy" />
		<tag k="ssr:date" v="2019-12-27" />
		<tag k="ssr:gruppe" v="veg" />
		<tag k="ssr:hovedgruppe" v="infrastruktur" />
		<tag k="ssr:stedsnr" v="485311" />
		<tag k="ssr:type" v="adressenavn" />
	</node>
	<node id="-431254" lat="58.8679111103" lon="9.4110138812">
		<tag k="alt_name" v="Kragerø" />
		<tag k="name" v="Kragerø kommune" />
		<tag k="ssr:date" v="2019-12-27" />
		<tag k="ssr:gruppe" v="administrativeIndelinger" />
		<tag k="ssr:hovedgruppe" v="offentligAdministrasjon" />
		<tag k="ssr:stedsnr" v="388369" />
		<tag k="ssr:type" v="kommune" />
	</node>
	<node id="-429264" lat="58.8645444473" lon="9.4385416752">
		<tag k="name" v="Nessundholmane" />
		<tag k="ssr:date" v="2019-12-27" />
		<tag k="ssr:gruppe" v="veg" />
		<tag k="ssr:hovedgruppe" v="infrastruktur" />
		<tag k="ssr:stedsnr" v="302960" />
		<tag k="ssr:type" v="adressenavn" />
	</node>
	<node id="-431378" lat="58.864663891" lon="9.45858610633">
		<tag k="name" v="Skåtøysund" />
		<tag k="ssr:date" v="2019-12-27" />
		<tag k="ssr:gruppe" v="veg" />
		<tag k="ssr:hovedgruppe" v="infrastruktur" />
		<tag k="ssr:stedsnr" v="424961" />
		<tag k="ssr:type" v="adressenavn" />
	</node>
	<node id="-431377" lat="58.8754222213" lon="9.47619166191">
		<tag k="name" v="Saltskjærholmen" />
		<tag k="ssr:date" v="2019-12-27" />
		<tag k="ssr:gruppe" v="veg" />
		<tag k="ssr:hovedgruppe" v="infrastruktur" />
		<tag k="ssr:stedsnr" v="424413" />
		<tag k="ssr:type" v="adressenavn" />
	</node>
	<node id="-431376" lat="58.8951888911" lon="9.50232221901">
		<tag k="name" v="Svaneflekken" />
		<tag k="ssr:date" v="2019-12-27" />
		<tag k="ssr:gruppe" v="navigasjon" />
		<tag k="ssr:hovedgruppe" v="infrastruktur" />
		<tag k="ssr:stedsnr" v="418368" />
		<tag k="ssr:type" v="lanterne" />
	</node>
	<node id="-429784" lat="58.8667898327" lon="9.4234255648">
		<tag k="name" v="Kragerø havnefyr" />
		<tag k="ssr:date" v="2020-01-16" />
		<tag k="ssr:gruppe" v="navigasjon" />
		<tag k="ssr:hovedgruppe" v="infrastruktur" />
		<tag k="ssr:stedsnr" v="599409" />
		<tag k="ssr:type" v="fyrlykt" />
	</node>
	<node id="-432014" lat="69.6388889725" lon="30.5666644427">
		<tag k="fixme" v="multiple name tags, choose one and add the other to alt_name" />
		<tag k="loc_name:se" v="Norgga gonagasriika" />
		<tag k="loc_name:sma" v="Nöörjen gånkarïjhke" />
		<tag k="loc_name:smj" v="Vuona gånågisrijkka" />
		<tag k="name" v="Noreg;Norge" />
		<tag k="name:en" v="Norway" />
		<tag k="name:no" v="Noreg;Norge" />
		<tag k="ssr:date" v="2020-06-04" />
		<tag k="ssr:gruppe" v="administrativeIndelinger" />
		<tag k="ssr:hovedgruppe" v="offentligAdministrasjon" />
		<tag k="ssr:stedsnr" v="26330" />
		<tag k="ssr:type" v="nasjon" />
	</node>
	<node id="-430413" lat="58.8674835391" lon="9.53997997656">
		<tag k="name" v="Jesper" />
		<tag k="ssr:date" v="2019-12-27" />
		<tag k="ssr:gruppe" v="veg" />
		<tag k="ssr:hovedgruppe" v="infrastruktur" />
		<tag k="ssr:stedsnr" v="1049666" />
		<tag k="ssr:type" v="adressenavn" />
	</node>
	<node id="-432004" lat="58.7994542546" lon="9.43368250671">
		<tag k="name" v="Nordre Hund jernstang" />
		<tag k="ssr:date" v="2020-01-28" />
		<tag k="ssr:gruppe" v="navigasjon" />
		<tag k="ssr:hovedgruppe" v="infrastruktur" />
		<tag k="ssr:stedsnr" v="1074746" />
		<tag k="ssr:type" v="jernstang" />
	</node>
</osm>
