<?xml version="1.0" encoding="UTF-8"?>
<<<<<<< HEAD
<osm version="0.6" generator="osmapis">
	<node lat="60.283621111941244" lon="11.541073166218906" id="-19122">
		<tag k="fixme" v="consider boundary=protected_area and relevant protect_class if not nature reserve" />
		<tag k="leisure" v="nature_reserve" />
		<tag k="name" v="Ertsrudberget naturreservat" />
		<tag k="ssr:stedsnr" v="981237" />
=======
<osm generator="osmapis" version="0.6">
	<node id="-318042" lat="60.1268805573" lon="11.7527499923">
		<tag k="fixme" v="specify shooting=range, clay_pigeon etc" />
		<tag k="leisure" v="pitch" />
		<tag k="name" v="KorsflÃ¸yta" />
		<tag k="sport" v="shooting" />
		<tag k="ssr:stedsnr" v="588483" />
>>>>>>> e1d4bc35ff8a6074a6f2e91616a996b547c36f15
	</node>
	<node id="-318418" lat="60.2836211119" lon="11.5410731662">
		<tag k="fixme" v="consider boundary=protected_area and relevant protect_class if not nature reserve" />
		<tag k="leisure" v="nature_reserve" />
		<tag k="name" v="Ertsrudberget naturreservat" />
		<tag k="ssr:stedsnr" v="981237" />
	</node>
</osm>
