<?xml version="1.0" encoding="UTF-8"?>
<osm version="0.6" generator="osmapis">
	<node lat="60.148074995946914" lon="11.7543555611181" id="-18045">
		<tag k="name" v="Mjøgsjøbekken" />
		<tag k="ssr:stedsnr" v="5627" />
		<tag k="waterway" v="stream" />
	</node>
	<node lat="60.3315333354627" lon="11.84368888102596" id="-18052">
		<tag k="name" v="Mjøgsjøen" />
		<tag k="natural" v="water" />
		<tag k="ssr:stedsnr" v="6305" />
	</node>
	<node lat="60.11439647827112" lon="11.771140663572444" id="-18054">
		<tag k="name" v="Sæterlisjøen" />
		<tag k="natural" v="water" />
		<tag k="ssr:stedsnr" v="6712" />
		<tag k="water" v="lake" />
	</node>
	<node lat="60.17563611388918" lon="11.679500002946662" id="-18055">
		<tag k="name" v="Røystjennet" />
		<tag k="natural" v="water" />
		<tag k="ssr:stedsnr" v="6879" />
	</node>
	<node lat="60.36617499968978" lon="11.789022217225606" id="-18057">
		<tag k="alt_name" v="Kuggerudsåa" />
		<tag k="name" v="Kugga" />
		<tag k="ssr:stedsnr" v="6906" />
		<tag k="waterway" v="river" />
	</node>
	<node lat="60.31326111055508" lon="11.67261665902685" id="-18066">
		<tag k="name" v="Aurneset" />
		<tag k="natural" v="cape" />
		<tag k="ssr:stedsnr" v="40981" />
	</node>
	<node lat="60.138666663988566" lon="11.784916659368623" id="-18080">
		<tag k="name" v="Skårilldammen" />
		<tag k="ssr:stedsnr" v="43532" />
		<tag k="waterway" v="dam" />
	</node>
	<node lat="60.14795555717445" lon="11.695516663025646" id="-18086">
		<tag k="name" v="Gjeddevassdammen" />
		<tag k="ssr:stedsnr" v="239220" />
		<tag k="waterway" v="dam" />
	</node>
	<node lat="60.27306111397793" lon="11.89879722733273" id="-18088">
		<tag k="name" v="Storbekken" />
		<tag k="ssr:stedsnr" v="240257" />
		<tag k="waterway" v="stream" />
	</node>
	<node lat="60.13540000093693" lon="11.846097217293357" id="-18092">
		<tag k="name" v="Hamnbergsbekken" />
		<tag k="ssr:stedsnr" v="239650" />
		<tag k="waterway" v="stream" />
	</node>
	<node lat="60.33466944442644" lon="11.773691673460814" id="-18114">
		<tag k="name" v="Åkroken" />
		<tag k="place" v="locality" />
		<tag k="ssr:stedsnr" v="59303" />
	</node>
	<node lat="60.24303888894846" lon="11.899327768821044" id="-18125">
		<tag k="name" v="Svarttjennet" />
		<tag k="natural" v="water" />
		<tag k="ssr:stedsnr" v="66023" />
	</node>
	<node lat="60.161888890195385" lon="11.77667221560605" id="-18133">
		<tag k="name" v="Okseauget" />
		<tag k="natural" v="water" />
		<tag k="ssr:stedsnr" v="66611" />
	</node>
	<node lat="60.1373055575604" lon="11.790691660970465" id="-18135">
		<tag k="name" v="Skårillen" />
		<tag k="natural" v="water" />
		<tag k="ssr:stedsnr" v="66643" />
		<tag k="water" v="lake" />
	</node>
	<node lat="60.12551944460364" lon="11.713630557086127" id="-18138">
		<tag k="name" v="Storglåmtjenn" />
		<tag k="natural" v="water" />
		<tag k="ssr:stedsnr" v="66671" />
	</node>
	<node lat="60.12132222091979" lon="11.806011111836874" id="-18140">
		<tag k="name" v="Holtjenn" />
		<tag k="natural" v="water" />
		<tag k="ssr:stedsnr" v="66683" />
	</node>
	<node lat="60.11758333288385" lon="11.706405547652855" id="-18141">
		<tag k="name" v="Kroktjenn" />
		<tag k="natural" v="water" />
		<tag k="ssr:stedsnr" v="66687" />
	</node>
	<node lat="60.292824996238856" lon="11.907511108357287" id="-18152">
		<tag k="name" v="Piparrudbekken" />
		<tag k="ssr:stedsnr" v="248477" />
		<tag k="waterway" v="stream" />
	</node>
	<node lat="60.156819443830976" lon="11.916736111235199" id="-18153">
		<tag k="name" v="Klomma" />
		<tag k="ssr:stedsnr" v="248576" />
		<tag k="waterway" v="stream" />
	</node>
	<node lat="60.09269999714588" lon="11.844749994416418" id="-18163">
		<tag k="name" v="Aurekulpen" />
		<tag k="natural" v="water" />
		<tag k="ssr:stedsnr" v="102748" />
		<tag k="water" v="lake" />
	</node>
	<node lat="60.17794166957537" lon="11.817533334151014" id="-18174">
		<tag k="name" v="Villbergsbekken" />
		<tag k="ssr:stedsnr" v="104302" />
		<tag k="waterway" v="stream" />
	</node>
	<node lat="60.265750000270124" lon="11.750272225566821" id="-18176">
		<tag k="name" v="Sloa" />
		<tag k="ssr:stedsnr" v="249508" />
		<tag k="waterway" v="stream" />
	</node>
	<node lat="60.27645278078907" lon="11.75082222426653" id="-18180">
		<tag k="name" v="Nordsettjennet" />
		<tag k="natural" v="water" />
		<tag k="ssr:stedsnr" v="249552" />
	</node>
	<node lat="60.30322499683175" lon="11.540674990975546" id="-18187">
		<tag k="name" v="Bemla" />
		<tag k="ssr:stedsnr" v="249976" />
		<tag k="waterway" v="stream" />
	</node>
	<node lat="60.318930556423275" lon="11.67030278652523" id="-18190">
		<tag k="name" v="Seimsjøen" />
		<tag k="natural" v="water" />
		<tag k="ssr:stedsnr" v="249990" />
		<tag k="water" v="lake" />
	</node>
	<node lat="60.19734444566086" lon="11.66264999203275" id="-18211">
		<tag k="name" v="Stuabekken" />
		<tag k="ssr:stedsnr" v="119177" />
		<tag k="waterway" v="stream" />
	</node>
	<node lat="60.27609444660966" lon="11.84902221356145" id="-18217">
		<tag k="name" v="Legdebekken" />
		<tag k="ssr:stedsnr" v="120387" />
		<tag k="waterway" v="stream" />
	</node>
	<node lat="60.105097225996595" lon="11.79404722885347" id="-18222">
		<tag k="name" v="Merratjennet" />
		<tag k="natural" v="water" />
		<tag k="ssr:stedsnr" v="126694" />
	</node>
	<node lat="60.33660555179605" lon="11.676663879784188" id="-18246">
		<tag k="name" v="Hestneset" />
		<tag k="natural" v="cape" />
		<tag k="ssr:stedsnr" v="178571" />
	</node>
	<node lat="60.08827777446542" lon="11.811849998343831" id="-18255">
		<tag k="name" v="Igletjenn" />
		<tag k="natural" v="water" />
		<tag k="ssr:stedsnr" v="187723" />
	</node>
	<node lat="60.308158331783105" lon="11.601072230190198" id="-18265">
		<tag k="name" v="Størja" />
		<tag k="ssr:stedsnr" v="188975" />
		<tag k="waterway" v="stream" />
	</node>
	<node lat="60.31726389182021" lon="11.66393888866907" id="-18273">
		<tag k="name" v="Hølnabben" />
		<tag k="natural" v="cape" />
		<tag k="ssr:stedsnr" v="222982" />
	</node>
	<node lat="60.33951944125027" lon="11.651541659309283" id="-18291">
		<tag k="name" v="Søsundet" />
		<tag k="natural" v="strait" />
		<tag k="ssr:stedsnr" v="239587" />
	</node>
	<node lat="60.34226388586224" lon="11.64676665739102" id="-18292">
		<tag k="name" v="Kålhagen" />
		<tag k="natural" v="cape" />
		<tag k="ssr:stedsnr" v="239591" />
	</node>
	<node lat="60.080983336123055" lon="11.78101945022132" id="-18297">
		<tag k="name" v="De tre årene" />
		<tag k="ssr:stedsnr" v="239727" />
		<tag k="waterway" v="rapids" />
	</node>
	<node lat="60.23988333024118" lon="11.854499999515049" id="-18309">
		<tag k="name" v="Grimslandsvatnet" />
		<tag k="natural" v="water" />
		<tag k="ssr:stedsnr" v="248053" />
	</node>
	<node lat="60.09740000333539" lon="11.865347213677047" id="-18312">
		<tag k="alt_name" v="Gørputt, østre" />
		<tag k="name" v="Østre Gørputten" />
		<tag k="natural" v="water" />
		<tag k="ssr:stedsnr" v="248519" />
	</node>
	<node lat="60.0801444450127" lon="11.848580557821325" id="-18314">
		<tag k="name" v="Nestreia" />
		<tag k="natural" v="water" />
		<tag k="ssr:stedsnr" v="248704" />
	</node>
	<node lat="60.11657778173623" lon="11.716063886703381" id="-18316">
		<tag k="name" v="Vesle Eventjennet" />
		<tag k="natural" v="water" />
		<tag k="ssr:stedsnr" v="248708" />
	</node>
	<node lat="60.19986110770538" lon="11.682605561386765" id="-18329">
		<tag k="name" v="Nilsfløyta" />
		<tag k="ssr:stedsnr" v="248799" />
		<tag k="waterway" v="stream" />
	</node>
	<node lat="60.304380555867034" lon="11.727911111606808" id="-18340">
		<tag k="name" v="Teglverksvika" />
		<tag k="natural" v="bay" />
		<tag k="ssr:stedsnr" v="283977" />
	</node>
	<node lat="60.3362833348742" lon="11.663672227431608" id="-18348">
		<tag k="name" v="Grunnsjøen" />
		<tag k="natural" v="water" />
		<tag k="ssr:stedsnr" v="286526" />
		<tag k="water" v="lake" />
	</node>
	<node lat="60.309758329474114" lon="11.847738879600412" id="-18353">
		<tag k="name" v="Oksauet" />
		<tag k="natural" v="water" />
		<tag k="ssr:stedsnr" v="298426" />
		<tag k="water" v="pond" />
	</node>
	<node lat="60.297980552601075" lon="11.764211111515502" id="-18362">
		<tag k="name" v="Pilterudsila" />
		<tag k="natural" v="spring" />
		<tag k="ssr:stedsnr" v="300507" />
	</node>
	<node lat="60.122894447786315" lon="11.684216670079081" id="-18369">
		<tag k="name" v="Vesle Klartjenna" />
		<tag k="natural" v="water" />
		<tag k="ssr:stedsnr" v="464243" />
	</node>
	<node lat="60.35548888515808" lon="11.64498611259545" id="-18371">
		<tag k="name" v="Aurn" />
		<tag k="natural" v="bay" />
		<tag k="ssr:stedsnr" v="464795" />
	</node>
	<node lat="60.34884166949843" lon="11.627300001251681" id="-18372">
		<tag k="name" v="Kristiansholmen" />
		<tag k="place" v="islet" />
		<tag k="ssr:stedsnr" v="464746" />
	</node>
	<node lat="60.3482916665214" lon="11.631794444170074" id="-18373">
		<tag k="name" v="Nord-Nora" />
		<tag k="natural" v="water" />
		<tag k="ssr:stedsnr" v="464752" />
	</node>
	<node lat="60.36190277400872" lon="11.633805562845144" id="-18374">
		<tag k="name" v="Harahella" />
		<tag k="natural" v="cape" />
		<tag k="ssr:stedsnr" v="464801" />
	</node>
	<node lat="60.09225000303401" lon="11.903938895860371" id="-18375">
		<tag k="name" v="Kloppvika" />
		<tag k="natural" v="bay" />
		<tag k="ssr:stedsnr" v="465253" />
	</node>
	<node lat="60.21185277723534" lon="11.58407499158502" id="-18378">
		<tag k="name" v="Dyståa" />
		<tag k="ssr:stedsnr" v="308746" />
		<tag k="waterway" v="river" />
	</node>
	<node lat="60.145716662599554" lon="11.824505556410392" id="-18379">
		<tag k="name" v="Broksundtjenn" />
		<tag k="natural" v="water" />
		<tag k="ssr:stedsnr" v="308620" />
	</node>
	<node lat="60.078088884475235" lon="11.822869448687078" id="-18384">
		<tag k="name" v="Brennholttjenn" />
		<tag k="natural" v="water" />
		<tag k="ssr:stedsnr" v="309535" />
	</node>
	<node lat="60.28001389165683" lon="11.586030558652224" id="-18394">
		<tag k="name" v="Gørrputten" />
		<tag k="natural" v="water" />
		<tag k="ssr:stedsnr" v="466063" />
		<tag k="water" v="pond" />
	</node>
	<node lat="60.347430560109956" lon="11.623691664226731" id="-18412">
		<tag k="name" v="Jordfeta" />
		<tag k="place" v="islet" />
		<tag k="ssr:stedsnr" v="343779" />
	</node>
	<node lat="60.3628638916547" lon="11.62033055557751" id="-18413">
		<tag k="name" v="Lomskjæret" />
		<tag k="place" v="islet" />
		<tag k="ssr:stedsnr" v="343803" />
	</node>
	<node lat="60.36437222315774" lon="11.619230552674166" id="-18414">
		<tag k="name" v="Rovøysundet" />
		<tag k="natural" v="strait" />
		<tag k="ssr:stedsnr" v="343812" />
	</node>
	<node lat="60.371847223391576" lon="11.752227774048613" id="-18422">
		<tag k="name" v="Halsdammen" />
		<tag k="ssr:stedsnr" v="360209" />
		<tag k="waterway" v="dam" />
	</node>
	<node lat="60.07757222678686" lon="11.910505551551147" id="-18424">
		<tag k="name" v="Vesle Godtjennet" />
		<tag k="natural" v="water" />
		<tag k="ssr:stedsnr" v="369712" />
	</node>
	<node lat="60.052763887751134" lon="11.790316658352797" id="-18426">
		<tag k="name" v="Brenntangen" />
		<tag k="natural" v="cape" />
		<tag k="ssr:stedsnr" v="369472" />
	</node>
	<node lat="60.130841667759064" lon="11.771161105620708" id="-18429">
		<tag k="name" v="Jonsoktjenn" />
		<tag k="natural" v="water" />
		<tag k="ssr:stedsnr" v="369627" />
	</node>
	<node lat="60.09360833365702" lon="11.870680560406939" id="-18432">
		<tag k="name" v="Kroktjennet" />
		<tag k="natural" v="water" />
		<tag k="ssr:stedsnr" v="369683" />
	</node>
	<node lat="60.28282499664459" lon="11.66322500589834" id="-18440">
		<tag k="name" v="Oppstadåa" />
		<tag k="ssr:stedsnr" v="370566" />
		<tag k="waterway" v="river" />
	</node>
	<node lat="60.3523749992459" lon="11.639597216782166" id="-18447">
		<tag k="name" v="Øyen" />
		<tag k="place" v="island" />
		<tag k="ssr:stedsnr" v="370913" />
	</node>
	<node lat="60.2012499977614" lon="11.87947221553019" id="-18452">
		<tag k="name" v="Storsand" />
		<tag k="place" v="islet" />
		<tag k="ssr:stedsnr" v="480147" />
	</node>
	<node lat="60.32178333652558" lon="11.865961111287923" id="-18454">
		<tag k="name" v="Nordre Brenntjennet" />
		<tag k="natural" v="water" />
		<tag k="ssr:stedsnr" v="480454" />
	</node>
	<node lat="60.233402779142956" lon="11.750699994893383" id="-18480">
		<tag k="name" v="Mangåa" />
		<tag k="ssr:stedsnr" v="483853" />
		<tag k="waterway" v="stream" />
	</node>
	<node lat="60.257658336094934" lon="11.866994445535834" id="-18485">
		<tag k="name" v="Vallsjøåa" />
		<tag k="ssr:stedsnr" v="403361" />
		<tag k="waterway" v="stream" />
	</node>
	<node lat="60.15325833297374" lon="11.717441657667136" id="-18486">
		<tag k="name" v="Trapphella" />
		<tag k="natural" v="waterfall" />
		<tag k="ssr:stedsnr" v="404213" />
	</node>
	<node lat="60.167655559149146" lon="11.700852783884331" id="-18487">
		<tag k="name" v="Djuptjennbekken" />
		<tag k="ssr:stedsnr" v="404216" />
		<tag k="waterway" v="stream" />
	</node>
	<node lat="60.31656642041115" lon="11.69551029490243" id="-18488">
		<tag k="name" v="Gruvvika" />
		<tag k="natural" v="bay" />
		<tag k="ssr:stedsnr" v="404979" />
	</node>
	<node lat="60.09429722565508" lon="11.843925003992036" id="-18490">
		<tag k="name" v="Kroksjøåa" />
		<tag k="ssr:stedsnr" v="405737" />
		<tag k="waterway" v="stream" />
	</node>
	<node lat="60.2090055555144" lon="11.872205561692423" id="-18493">
		<tag k="name" v="Bremenholmen" />
		<tag k="place" v="islet" />
		<tag k="ssr:stedsnr" v="405696" />
	</node>
	<node lat="60.16466388943717" lon="11.671261118412833" id="-18499">
		<tag k="name" v="Røysbekken" />
		<tag k="ssr:stedsnr" v="419212" />
		<tag k="waterway" v="stream" />
	</node>
	<node lat="60.07566944524299" lon="11.7853222150343" id="-18508">
		<tag k="name" v="Danielskulpen" />
		<tag k="natural" v="water" />
		<tag k="ssr:stedsnr" v="421724" />
	</node>
	<node lat="60.298074997612126" lon="11.610272218637203" id="-18510">
		<tag k="name" v="Trefta" />
		<tag k="place" v="locality" />
		<tag k="ssr:stedsnr" v="422019" />
	</node>
	<node lat="60.09293055769777" lon="11.829122214002343" id="-18528">
		<tag k="name" v="Tromhaugtjenn" />
		<tag k="natural" v="water" />
		<tag k="ssr:stedsnr" v="490751" />
	</node>
	<node lat="60.200683333118384" lon="11.73106389014328" id="-18530">
		<tag k="name" v="Gjeddetjennet" />
		<tag k="natural" v="water" />
		<tag k="ssr:stedsnr" v="490791" />
	</node>
	<node lat="60.058886108419856" lon="11.818261119358016" id="-18533">
		<tag k="name" v="Store Hundtjennet" />
		<tag k="natural" v="water" />
		<tag k="ssr:stedsnr" v="430510" />
	</node>
	<node lat="60.13952499601967" lon="11.896300006622416" id="-18534">
		<tag k="alt_name" v="Matbrunn, nordre;Nordre Matbrønn" />
		<tag k="name" v="Nordre Matbrunn" />
		<tag k="natural" v="water" />
		<tag k="ssr:stedsnr" v="430546" />
	</node>
	<node lat="60.122241662952824" lon="11.864463887278237" id="-18535">
		<tag k="name" v="Nordre Djuptjenn" />
		<tag k="natural" v="water" />
		<tag k="ssr:stedsnr" v="430553" />
	</node>
	<node lat="60.144694445461376" lon="11.700705550579672" id="-18537">
		<tag k="name" v="Gjeddevatnet" />
		<tag k="natural" v="water" />
		<tag k="ssr:stedsnr" v="430650" />
	</node>
	<node lat="60.135841663099804" lon="11.830983330174865" id="-18538">
		<tag k="name" v="Høljøren" />
		<tag k="natural" v="water" />
		<tag k="ssr:stedsnr" v="430655" />
		<tag k="water" v="lake" />
	</node>
	<node lat="60.30454722497288" lon="11.89776388314182" id="-18542">
		<tag k="name" v="Venlitjennet" />
		<tag k="natural" v="water" />
		<tag k="ssr:stedsnr" v="431489" />
	</node>
	<node lat="60.26076666361872" lon="11.879366670246299" id="-18549">
		<tag k="name" v="Vallsjøen" />
		<tag k="natural" v="water" />
		<tag k="ssr:stedsnr" v="491397" />
		<tag k="water" v="lake" />
	</node>
	<node lat="60.133841664441874" lon="11.84575000173113" id="-18557">
		<tag k="name" v="Skogtjenna" />
		<tag k="natural" v="water" />
		<tag k="ssr:stedsnr" v="491555" />
		<tag k="water" v="lake" />
	</node>
	<node lat="60.27584999622661" lon="11.790774998718" id="-18559">
		<tag k="name" v="Dølisjøen" />
		<tag k="natural" v="water" />
		<tag k="ssr:stedsnr" v="491562" />
		<tag k="water" v="lake" />
	</node>
	<node lat="60.11200833565927" lon="11.694358328595678" id="-18561">
		<tag k="name" v="Hynntjenn" />
		<tag k="natural" v="water" />
		<tag k="ssr:stedsnr" v="491699" />
	</node>
	<node lat="60.25525555436968" lon="11.619536115445333" id="-18571">
		<tag k="name" v="Botntjennet" />
		<tag k="natural" v="water" />
		<tag k="ssr:stedsnr" v="492563" />
	</node>
	<node lat="60.068016664625354" lon="11.823347227897797" id="-18585">
		<tag k="name" v="Starrtjenn" />
		<tag k="natural" v="water" />
		<tag k="ssr:stedsnr" v="673543" />
	</node>
	<node lat="60.13294722575161" lon="11.66305277886427" id="-18589">
		<tag k="name" v="Pintelhuken" />
		<tag k="ssr:stedsnr" v="673675" />
		<tag k="waterway" v="stream" />
	</node>
	<node lat="60.182783337465146" lon="11.761680551174742" id="-18593">
		<tag k="alt_name" v="Nordre Gørrputten" />
		<tag k="name" v="Gørrputten" />
		<tag k="natural" v="water" />
		<tag k="ssr:stedsnr" v="673829" />
	</node>
	<node lat="60.34380833511364" lon="11.639186119926546" id="-18603">
		<tag k="name" v="Midt-Nora" />
		<tag k="natural" v="water" />
		<tag k="ssr:stedsnr" v="464765" />
	</node>
	<node lat="60.15654167031019" lon="11.676266671432169" id="-18605">
		<tag k="name" v="Abbortjennbekken" />
		<tag k="ssr:stedsnr" v="465207" />
		<tag k="waterway" v="stream" />
	</node>
	<node lat="60.159919442658094" lon="11.746927769847108" id="-18606">
		<tag k="name" v="Svarttjennet" />
		<tag k="natural" v="water" />
		<tag k="ssr:stedsnr" v="465225" />
	</node>
	<node lat="60.314686113591925" lon="11.726688881838225" id="-18612">
		<tag k="name" v="Furuholmen" />
		<tag k="place" v="islet" />
		<tag k="ssr:stedsnr" v="465976" />
	</node>
	<node lat="60.320427782299774" lon="11.659524998765457" id="-18614">
		<tag k="name" v="Vesletjernet" />
		<tag k="natural" v="water" />
		<tag k="ssr:stedsnr" v="465986" />
	</node>
	<node lat="60.2828111078416" lon="11.572511117038415" id="-18628">
		<tag k="name" v="Grasmyrbekken" />
		<tag k="ssr:stedsnr" v="482014" />
		<tag k="waterway" v="stream" />
	</node>
	<node lat="60.20476944749035" lon="11.72040834019734" id="-18637">
		<tag k="name" v="Lillesetbekken" />
		<tag k="ssr:stedsnr" v="483213" />
		<tag k="waterway" v="stream" />
	</node>
	<node lat="60.10816388871722" lon="11.83980555936908" id="-18655">
		<tag k="name" v="Fløyttjenn" />
		<tag k="natural" v="water" />
		<tag k="ssr:stedsnr" v="491710" />
	</node>
	<node lat="60.12009166567843" lon="11.751330558721788" id="-18660">
		<tag k="name" v="Garsjøen" />
		<tag k="natural" v="water" />
		<tag k="ssr:stedsnr" v="491692" />
	</node>
	<node lat="60.33992777433715" lon="11.809566672323015" id="-18663">
		<tag k="name" v="Svarttjennet" />
		<tag k="natural" v="water" />
		<tag k="ssr:stedsnr" v="491987" />
	</node>
	<node lat="60.365641664900934" lon="11.79666945186401" id="-18687">
		<tag k="name" v="Brattfallet" />
		<tag k="natural" v="waterfall" />
		<tag k="ssr:stedsnr" v="542273" />
	</node>
	<node lat="60.187230553432606" lon="11.755455551667776" id="-18691">
		<tag k="name" v="Kvernbekken" />
		<tag k="ssr:stedsnr" v="544189" />
		<tag k="waterway" v="stream" />
	</node>
	<node lat="60.354013888624856" lon="11.636155553652026" id="-18693">
		<tag k="name" v="Øyen" />
		<tag k="place" v="island" />
		<tag k="ssr:stedsnr" v="544604" />
	</node>
	<node lat="60.11529999883457" lon="11.701874996391915" id="-18697">
		<tag k="name" v="Kyta" />
		<tag k="natural" v="water" />
		<tag k="ssr:stedsnr" v="551703" />
	</node>
	<node lat="60.266666667768675" lon="11.880569440352083" id="-18733">
		<tag k="name" v="Svartvika" />
		<tag k="natural" v="bay" />
		<tag k="ssr:stedsnr" v="603217" />
	</node>
	<node lat="60.3317999980279" lon="11.677125004051389" id="-18759">
		<tag k="name" v="Belgen" />
		<tag k="natural" v="cape" />
		<tag k="ssr:stedsnr" v="613972" />
	</node>
	<node lat="60.32687499741524" lon="11.841174999779986" id="-18760">
		<tag k="name" v="Mjøgsjøen" />
		<tag k="natural" v="water" />
		<tag k="ssr:stedsnr" v="613976" />
	</node>
	<node lat="60.11936944537068" lon="11.693972225302883" id="-18761">
		<tag k="name" v="Vesle Butjenna" />
		<tag k="natural" v="water" />
		<tag k="ssr:stedsnr" v="707261" />
	</node>
	<node lat="60.191969443858184" lon="11.725211103103971" id="-18796">
		<tag k="name" v="Bjørtjennsåa" />
		<tag k="ssr:stedsnr" v="665210" />
		<tag k="waterway" v="stream" />
	</node>
	<node lat="60.07325555985995" lon="11.81955278339102" id="-18798">
		<tag k="name" v="Vesle Hvitvatn" />
		<tag k="natural" v="water" />
		<tag k="ssr:stedsnr" v="665587" />
	</node>
	<node lat="60.12252500139082" lon="11.698166659139556" id="-18807">
		<tag k="name" v="Lomholttjennet" />
		<tag k="natural" v="water" />
		<tag k="ssr:stedsnr" v="890254" />
	</node>
	<node lat="60.10224167052679" lon="11.800805555611653" id="-18812">
		<tag k="name" v="Storokstjennet" />
		<tag k="natural" v="water" />
		<tag k="ssr:stedsnr" v="672717" />
	</node>
	<node lat="60.233038890775326" lon="11.85187500618187" id="-18830">
		<tag k="name" v="Sageråa" />
		<tag k="ssr:stedsnr" v="891463" />
		<tag k="waterway" v="stream" />
	</node>
	<node lat="60.305136109013695" lon="11.725547216900795" id="-18843">
		<tag k="name" v="Breivika" />
		<tag k="natural" v="bay" />
		<tag k="ssr:stedsnr" v="707965" />
	</node>
	<node lat="60.304338884922" lon="11.829227772937871" id="-18850">
		<tag k="name" v="Siraksbekken" />
		<tag k="ssr:stedsnr" v="722444" />
		<tag k="waterway" v="stream" />
	</node>
	<node lat="60.17048611440631" lon="11.864266664629104" id="-18854">
		<tag k="name" v="Galttjennsbekken" />
		<tag k="ssr:stedsnr" v="724621" />
		<tag k="waterway" v="stream" />
	</node>
	<node lat="60.17116111281346" lon="11.76819444532061" id="-18855">
		<tag k="name" v="Høgmyrbekken" />
		<tag k="ssr:stedsnr" v="724627" />
		<tag k="waterway" v="stream" />
	</node>
	<node lat="60.3311805573739" lon="11.68946667293619" id="-18856">
		<tag k="name" v="Langneset" />
		<tag k="natural" v="cape" />
		<tag k="ssr:stedsnr" v="724574" />
	</node>
	<node lat="60.34344444126044" lon="11.656544452691136" id="-18857">
		<tag k="name" v="Beinneset" />
		<tag k="natural" v="cape" />
		<tag k="ssr:stedsnr" v="724581" />
	</node>
	<node lat="60.10444721895454" lon="11.753227784499874" id="-18870">
		<tag k="name" v="Kjella" />
		<tag k="natural" v="water" />
		<tag k="ssr:stedsnr" v="733687" />
	</node>
	<node lat="60.20142499602822" lon="11.651677783710232" id="-18877">
		<tag k="name" v="Sæteråa" />
		<tag k="ssr:stedsnr" v="733788" />
		<tag k="waterway" v="river" />
	</node>
	<node lat="60.16806110685958" lon="11.771266668182164" id="-18882">
		<tag k="name" v="Langtjennet" />
		<tag k="natural" v="water" />
		<tag k="ssr:stedsnr" v="734840" />
	</node>
	<node lat="60.10752222283546" lon="11.7108305553683" id="-18893">
		<tag k="name" v="Kvernbekken" />
		<tag k="ssr:stedsnr" v="907029" />
		<tag k="waterway" v="stream" />
	</node>
	<node lat="60.12292778184313" lon="11.874725000549414" id="-18904">
		<tag k="name" v="Kulpen" />
		<tag k="natural" v="water" />
		<tag k="ssr:stedsnr" v="768248" />
	</node>
	<node lat="60.17448889089519" lon="11.875775000780274" id="-18918">
		<tag k="name" v="Galtbekken" />
		<tag k="ssr:stedsnr" v="770166" />
		<tag k="waterway" v="stream" />
	</node>
	<node lat="60.20061388901868" lon="11.874258334950149" id="-18924">
		<tag k="name" v="Mellandsåa" />
		<tag k="ssr:stedsnr" v="783157" />
		<tag k="waterway" v="stream" />
	</node>
	<node lat="60.227227779700314" lon="11.891738886238315" id="-18934">
		<tag k="name" v="Svarttjennbekken" />
		<tag k="ssr:stedsnr" v="787189" />
		<tag k="waterway" v="stream" />
	</node>
	<node lat="60.1844277763945" lon="11.741725005298733" id="-18936">
		<tag k="name" v="Frautjennet" />
		<tag k="natural" v="water" />
		<tag k="ssr:stedsnr" v="787192" />
	</node>
	<node lat="60.329197223304895" lon="11.808091669171901" id="-18938">
		<tag k="name" v="Hedenhøgdtjennet" />
		<tag k="natural" v="water" />
		<tag k="ssr:stedsnr" v="787309" />
	</node>
	<node lat="60.06581111034724" lon="11.827677771379124" id="-18948">
		<tag k="name" v="Otertjenn" />
		<tag k="natural" v="water" />
		<tag k="ssr:stedsnr" v="794513" />
	</node>
	<node lat="60.1116416671139" lon="11.86119999172846" id="-18959">
		<tag k="name" v="Andtjennet" />
		<tag k="natural" v="water" />
		<tag k="ssr:stedsnr" v="915486" />
	</node>
	<node lat="60.28673333658073" lon="11.91897222209366" id="-18965">
		<tag k="name" v="Elgstjennet" />
		<tag k="natural" v="water" />
		<tag k="ssr:stedsnr" v="916506" />
	</node>
	<node lat="60.35040555748598" lon="11.616258325964631" id="-18967">
		<tag k="name" v="Songnessjøen" />
		<tag k="natural" v="water" />
		<tag k="ssr:stedsnr" v="916892" />
		<tag k="water" v="lake" />
	</node>
	<node lat="60.099258330295726" lon="11.862052782621484" id="-18968">
		<tag k="alt_name" v="Gørputt, vestre" />
		<tag k="name" v="Vestre Gørputten" />
		<tag k="natural" v="water" />
		<tag k="ssr:stedsnr" v="916539" />
	</node>
	<node lat="60.05971111424333" lon="11.790111107447128" id="-18969">
		<tag k="name" v="Sundtangen" />
		<tag k="natural" v="cape" />
		<tag k="ssr:stedsnr" v="916542" />
	</node>
	<node lat="60.278708337067116" lon="11.703902778533259" id="-18975">
		<tag k="name" v="Igletjennet" />
		<tag k="natural" v="water" />
		<tag k="ssr:stedsnr" v="916585" />
	</node>
	<node lat="60.27656666453606" lon="11.661036115877568" id="-18976">
		<tag k="name" v="Nusttjennet" />
		<tag k="natural" v="water" />
		<tag k="ssr:stedsnr" v="916588" />
	</node>
	<node lat="60.1541388923945" lon="11.752491669171507" id="-18987">
		<tag k="name" v="Gamledammen" />
		<tag k="ssr:stedsnr" v="829218" />
		<tag k="waterway" v="dam" />
	</node>
	<node lat="60.148747226417065" lon="11.731330551030732" id="-18988">
		<tag k="name" v="Styggdalsbekken" />
		<tag k="ssr:stedsnr" v="829223" />
		<tag k="waterway" v="stream" />
	</node>
	<node lat="60.355980558084596" lon="11.626827776085008" id="-18991">
		<tag k="name" v="Bredsvika" />
		<tag k="natural" v="bay" />
		<tag k="ssr:stedsnr" v="829777" />
	</node>
	<node lat="60.316286110653515" lon="11.66499721634457" id="-18993">
		<tag k="name" v="Grønntua" />
		<tag k="place" v="islet" />
		<tag k="ssr:stedsnr" v="829982" />
	</node>
	<node lat="60.340805551957104" lon="11.646255553941735" id="-19015">
		<tag k="name" v="Sø-Nora" />
		<tag k="natural" v="water" />
		<tag k="ssr:stedsnr" v="846579" />
	</node>
	<node lat="60.07192222230536" lon="11.816797215559099" id="-19027">
		<tag k="alt_name" v="Store Hvitvatn" />
		<tag k="name" v="Hvitvatn" />
		<tag k="natural" v="water" />
		<tag k="ssr:stedsnr" v="855484" />
	</node>
	<node lat="60.14713333369746" lon="11.861944439841613" id="-19028">
		<tag k="alt_name" v="Gørbutten, s" />
		<tag k="name" v="Gørbutten" />
		<tag k="natural" v="water" />
		<tag k="ssr:stedsnr" v="855592" />
	</node>
	<node lat="60.122324829065015" lon="11.692515476218555" id="-19029">
		<tag k="name" v="Butjenna" />
		<tag k="natural" v="water" />
		<tag k="ssr:stedsnr" v="855703" />
		<tag k="water" v="lake" />
	</node>
	<node lat="60.31750351859554" lon="11.88071518539894" id="-19037">
		<tag k="name" v="Svarttjennet" />
		<tag k="natural" v="water" />
		<tag k="ssr:stedsnr" v="870635" />
		<tag k="water" v="lake" />
	</node>
	<node lat="60.27387222622098" lon="11.608008342045968" id="-19040">
		<tag k="name" v="Lidalsbekken" />
		<tag k="ssr:stedsnr" v="891068" />
		<tag k="waterway" v="stream" />
	</node>
	<node lat="60.11570833188022" lon="11.762297229020872" id="-19042">
		<tag k="name" v="Dammen" />
		<tag k="ssr:stedsnr" v="891714" />
		<tag k="waterway" v="dam" />
	</node>
	<node lat="60.33935277682321" lon="11.662691665869245" id="-19045">
		<tag k="name" v="Strøkneset" />
		<tag k="natural" v="cape" />
		<tag k="ssr:stedsnr" v="906617" />
	</node>
	<node lat="60.27625555163855" lon="11.889694442968027" id="-19056">
		<tag k="name" v="Venlibekken" />
		<tag k="ssr:stedsnr" v="908261" />
		<tag k="waterway" v="stream" />
	</node>
	<node lat="60.3021666637552" lon="11.721638886837564" id="-19063">
		<tag k="name" v="Vøskjulvika" />
		<tag k="natural" v="bay" />
		<tag k="ssr:stedsnr" v="909758" />
	</node>
	<node lat="60.16763333658046" lon="11.858661102395835" id="-19065">
		<tag k="name" v="Galttjennet" />
		<tag k="natural" v="water" />
		<tag k="ssr:stedsnr" v="915586" />
	</node>
	<node lat="60.09141388644732" lon="11.813936102511413" id="-19066">
		<tag k="name" v="Holmtjenn" />
		<tag k="natural" v="water" />
		<tag k="ssr:stedsnr" v="915728" />
	</node>
	<node lat="60.081275002090436" lon="11.907647229652254" id="-19067">
		<tag k="name" v="Godtjennet" />
		<tag k="natural" v="water" />
		<tag k="ssr:stedsnr" v="915729" />
	</node>
	<node lat="60.15777499630214" lon="11.68756111455158" id="-19068">
		<tag k="name" v="Abbortjenn" />
		<tag k="natural" v="water" />
		<tag k="ssr:stedsnr" v="915604" />
	</node>
	<node lat="60.27050000221805" lon="11.85356388693857" id="-19071">
		<tag k="name" v="Gjøralsjøen" />
		<tag k="natural" v="water" />
		<tag k="ssr:stedsnr" v="916423" />
	</node>
	<node lat="60.17963889337499" lon="11.753791667789937" id="-19077">
		<tag k="name" v="Trolltjenn" />
		<tag k="natural" v="water" />
		<tag k="ssr:stedsnr" v="916880" />
	</node>
	<node lat="60.20308611159981" lon="11.598869439214704" id="-19081">
		<tag k="name" v="Gjersøyholmen" />
		<tag k="place" v="islet" />
		<tag k="ssr:stedsnr" v="950103" />
	</node>
	<node lat="60.24974722320761" lon="11.914105561058333" id="-19111">
		<tag k="name" v="Smørbekken" />
		<tag k="ssr:stedsnr" v="968136" />
		<tag k="waterway" v="stream" />
	</node>
	<node lat="60.1284722200479" lon="11.717149998413943" id="-19127">
		<tag k="name" v="Gørrputten" />
		<tag k="natural" v="water" />
		<tag k="ssr:stedsnr" v="5652" />
	</node>
	<node lat="60.10335833592342" lon="11.865647225377748" id="-19128">
		<tag k="name" v="Nilstjenna" />
		<tag k="natural" v="water" />
		<tag k="ssr:stedsnr" v="5506" />
		<tag k="water" v="lake" />
	</node>
	<node lat="60.2645000040879" lon="11.599822215560392" id="-19138">
		<tag k="name" v="Dysttjennet" />
		<tag k="natural" v="water" />
		<tag k="ssr:stedsnr" v="6558" />
	</node>
	<node lat="60.36730832979912" lon="11.648305556454316" id="-19141">
		<tag k="name" v="Storsjøen" />
		<tag k="natural" v="water" />
		<tag k="ssr:stedsnr" v="6928" />
		<tag k="water" v="lake" />
	</node>
	<node lat="60.334941669804955" lon="11.803119436260559" id="-19149">
		<tag k="name" v="Brattåstjennet" />
		<tag k="natural" v="water" />
		<tag k="ssr:stedsnr" v="6995" />
	</node>
	<node lat="60.34185000125297" lon="11.637880552998586" id="-19151">
		<tag k="name" v="Vesleåa" />
		<tag k="ssr:stedsnr" v="39694" />
		<tag k="waterway" v="river" />
	</node>
	<node lat="60.10568888590315" lon="11.79952222109706" id="-19153">
		<tag k="name" v="Langtjernet" />
		<tag k="natural" v="water" />
		<tag k="ssr:stedsnr" v="40739" />
	</node>
	<node lat="60.20863888796361" lon="11.759808325300144" id="-19159">
		<tag k="name" v="Krakrudvangbekken" />
		<tag k="ssr:stedsnr" v="41682" />
		<tag k="waterway" v="stream" />
	</node>
	<node lat="60.29210556014446" lon="11.84203055058908" id="-19165">
		<tag k="name" v="Legdebekken" />
		<tag k="ssr:stedsnr" v="55432" />
		<tag k="waterway" v="stream" />
	</node>
	<node lat="60.14744444280974" lon="11.881561106272697" id="-19166">
		<tag k="name" v="Heimmyrtjennet" />
		<tag k="natural" v="water" />
		<tag k="ssr:stedsnr" v="57297" />
	</node>
	<node lat="60.0721611076897" lon="11.881413885624486" id="-19171">
		<tag k="name" v="Blokktjennet" />
		<tag k="natural" v="water" />
		<tag k="ssr:stedsnr" v="57239" />
	</node>
	<node lat="60.32566944816692" lon="11.723316665694293" id="-19177">
		<tag k="name" v="Lauarvika" />
		<tag k="natural" v="bay" />
		<tag k="ssr:stedsnr" v="57562" />
	</node>
	<node lat="60.213519443449194" lon="11.699947219640727" id="-19184">
		<tag k="name" v="Vesletjennet" />
		<tag k="natural" v="water" />
		<tag k="ssr:stedsnr" v="59155" />
	</node>
	<node lat="60.200811107713655" lon="11.739258341907524" id="-19185">
		<tag k="name" v="Gørrbutten" />
		<tag k="natural" v="water" />
		<tag k="ssr:stedsnr" v="59163" />
	</node>
	<node lat="60.24216666936845" lon="11.768686105846326" id="-19189">
		<tag k="name" v="Klokkelunden" />
		<tag k="natural" v="beach" />
		<tag k="ssr:stedsnr" v="59440" />
	</node>
	<node lat="60.08224166374202" lon="11.779680549470669" id="-19196">
		<tag k="name" v="Flaåa" />
		<tag k="ssr:stedsnr" v="66736" />
		<tag k="waterway" v="river" />
	</node>
	<node lat="60.190900002480326" lon="11.711013897008378" id="-19197">
		<tag k="name" v="Meldisisjøen" />
		<tag k="natural" v="water" />
		<tag k="ssr:stedsnr" v="66813" />
		<tag k="water" v="lake" />
	</node>
	<node lat="60.192541662881226" lon="11.735061117057757" id="-19200">
		<tag k="name" v="Bjørtjennet" />
		<tag k="natural" v="water" />
		<tag k="ssr:stedsnr" v="66830" />
	</node>
	<node lat="60.19592499841767" lon="11.701130552156869" id="-19201">
		<tag k="name" v="Meldisitjenn" />
		<tag k="natural" v="water" />
		<tag k="ssr:stedsnr" v="66831" />
	</node>
	<node lat="60.29441388918356" lon="11.701636115932331" id="-19212">
		<tag k="name" v="Svarttjennet" />
		<tag k="natural" v="water" />
		<tag k="ssr:stedsnr" v="67576" />
	</node>
	<node lat="60.31990833759825" lon="11.803641667221955" id="-19218">
		<tag k="name" v="Kolltjennet" />
		<tag k="natural" v="water" />
		<tag k="ssr:stedsnr" v="67976" />
	</node>
	<node lat="60.10470277926279" lon="11.869988896883784" id="-19224">
		<tag k="name" v="Østre Nilstjennet" />
		<tag k="natural" v="water" />
		<tag k="ssr:stedsnr" v="101231" />
	</node>
	<node lat="60.104583329807966" lon="11.905944435261572" id="-19225">
		<tag k="name" v="Rådelsbekken" />
		<tag k="ssr:stedsnr" v="101234" />
		<tag k="waterway" v="stream" />
	</node>
	<node lat="60.27980833368071" lon="11.590038884399235" id="-19232">
		<tag k="name" v="Svartkulpen" />
		<tag k="natural" v="water" />
		<tag k="ssr:stedsnr" v="102041" />
		<tag k="water" v="pond" />
	</node>
	<node lat="60.3124805542497" lon="11.877758337525401" id="-19241">
		<tag k="name" v="Blektjennet" />
		<tag k="natural" v="water" />
		<tag k="ssr:stedsnr" v="103248" />
	</node>
	<node lat="60.11613888785603" lon="11.84483055055626" id="-19247">
		<tag k="name" v="Vesle Stormyrtjennet" />
		<tag k="natural" v="water" />
		<tag k="ssr:stedsnr" v="117657" />
	</node>
	<node lat="60.32374444677376" lon="11.846247225140104" id="-19269">
		<tag k="name" v="Veslemjøgsjøen" />
		<tag k="natural" v="water" />
		<tag k="ssr:stedsnr" v="120307" />
	</node>
	<node lat="60.08158611157504" lon="11.872480558754136" id="-19278">
		<tag k="name" v="Lomtjennet" />
		<tag k="natural" v="water" />
		<tag k="ssr:stedsnr" v="126706" />
	</node>
	<node lat="60.119969443166625" lon="11.681416664205683" id="-19279">
		<tag k="name" v="Klartjenna" />
		<tag k="natural" v="water" />
		<tag k="ssr:stedsnr" v="126672" />
	</node>
	<node lat="60.335377775205274" lon="11.848336104543868" id="-19286">
		<tag k="alt_name" v="Mjøgsjøbekken" />
		<tag k="name" v="Mjogsjøbekken" />
		<tag k="ssr:stedsnr" v="127330" />
		<tag k="waterway" v="stream" />
	</node>
	<node lat="60.25338333389655" lon="11.867202771742061" id="-19287">
		<tag k="name" v="Fløyta" />
		<tag k="natural" v="water" />
		<tag k="ssr:stedsnr" v="127461" />
	</node>
	<node lat="60.11723055981765" lon="11.672425007047686" id="-19294">
		<tag k="name" v="Blekketjennet" />
		<tag k="natural" v="water" />
		<tag k="ssr:stedsnr" v="127729" />
	</node>
	<node lat="60.332319440802586" lon="11.657022217970061" id="-19296">
		<tag k="name" v="Stortjennet" />
		<tag k="natural" v="water" />
		<tag k="ssr:stedsnr" v="127997" />
	</node>
	<node lat="60.08460277605474" lon="11.90258610239009" id="-19303">
		<tag k="name" v="Sjøendputten" />
		<tag k="natural" v="water" />
		<tag k="ssr:stedsnr" v="161283" />
	</node>
	<node lat="60.34298333113043" lon="11.64396111314513" id="-19308">
		<tag k="name" v="Veverneset" />
		<tag k="natural" v="cape" />
		<tag k="ssr:stedsnr" v="161727" />
	</node>
	<node lat="60.09845277943257" lon="11.802972221120028" id="-19309">
		<tag k="name" v="Vellingtjernet" />
		<tag k="natural" v="water" />
		<tag k="ssr:stedsnr" v="161677" />
	</node>
	<node lat="60.294272224710795" lon="11.861744449745153" id="-19321">
		<tag k="name" v="Granbergstjenna" />
		<tag k="natural" v="water" />
		<tag k="ssr:stedsnr" v="176422" />
		<tag k="water" v="lake" />
	</node>
	<node lat="60.3703361144116" lon="11.777611108862756" id="-19330">
		<tag k="name" v="Årbogen" />
		<tag k="natural" v="water" />
		<tag k="ssr:stedsnr" v="176631" />
		<tag k="water" v="lake" />
	</node>
	<node lat="60.335522219092496" lon="11.672269438733993" id="-19337">
		<tag k="name" v="Smallongen" />
		<tag k="place" v="locality" />
		<tag k="ssr:stedsnr" v="178576" />
	</node>
	<node lat="60.2193916676712" lon="11.880527769834966" id="-19345">
		<tag k="name" v="Kvislerbekken" />
		<tag k="ssr:stedsnr" v="180187" />
		<tag k="waterway" v="stream" />
	</node>
	<node lat="60.24066944672512" lon="11.7697222163449" id="-19351">
		<tag k="name" v="Strømsholmen" />
		<tag k="place" v="islet" />
		<tag k="ssr:stedsnr" v="180443" />
	</node>
	<node lat="60.07164722392889" lon="11.832466666722382" id="-19354">
		<tag k="name" v="Ballustjennet" />
		<tag k="natural" v="water" />
		<tag k="ssr:stedsnr" v="180521" />
	</node>
	<node lat="60.1362805526923" lon="11.895708326316907" id="-19377">
		<tag k="name" v="Matbrønnbekken" />
		<tag k="ssr:stedsnr" v="222246" />
		<tag k="waterway" v="stream" />
	</node>
	<node lat="60.35457221776358" lon="11.620355561246111" id="-19380">
		<tag k="name" v="Ørderholmen" />
		<tag k="place" v="islet" />
		<tag k="ssr:stedsnr" v="222768" />
	</node>
	<node lat="60.35728055395685" lon="11.617877770534667" id="-19381">
		<tag k="name" v="Kjellingholmen" />
		<tag k="place" v="islet" />
		<tag k="ssr:stedsnr" v="222769" />
	</node>
	<node lat="60.30819444295165" lon="11.729133339763994" id="-19383">
		<tag k="name" v="Bekkenabben" />
		<tag k="natural" v="cape" />
		<tag k="ssr:stedsnr" v="222966" />
	</node>
	<node lat="60.32634166737902" lon="11.795227777017468" id="-19388">
		<tag k="name" v="Trondsætertjennet" />
		<tag k="natural" v="water" />
		<tag k="ssr:stedsnr" v="225572" />
	</node>
	<node lat="60.29669444890338" lon="11.717602772935576" id="-19397">
		<tag k="name" v="Glomsåsvika" />
		<tag k="natural" v="bay" />
		<tag k="ssr:stedsnr" v="284819" />
	</node>
	<node lat="60.314474997076054" lon="11.682152780856587" id="-19399">
		<tag k="name" v="Dunserudbekken" />
		<tag k="ssr:stedsnr" v="283987" />
		<tag k="waterway" v="stream" />
	</node>
	<node lat="60.32695555557326" lon="11.694122231062606" id="-19408">
		<tag k="name" v="Bjørkevola" />
		<tag k="natural" v="bay" />
		<tag k="ssr:stedsnr" v="299595" />
	</node>
	<node lat="60.32813610708706" lon="11.693325008575403" id="-19409">
		<tag k="name" v="Stubbneset" />
		<tag k="natural" v="cape" />
		<tag k="ssr:stedsnr" v="299596" />
	</node>
	<node lat="60.1327666635404" lon="11.814372219483342" id="-19415">
		<tag k="name" v="Skvalabekken" />
		<tag k="ssr:stedsnr" v="299671" />
		<tag k="waterway" v="stream" />
	</node>
	<node lat="60.156944448687774" lon="11.882219437553845" id="-19422">
		<tag k="name" v="Heimmyrtjennbekken" />
		<tag k="ssr:stedsnr" v="300359" />
		<tag k="waterway" v="stream" />
	</node>
	<node lat="60.07653611308632" lon="11.834966664200346" id="-19433">
		<tag k="name" v="Hestemyrholmen" />
		<tag k="place" v="islet" />
		<tag k="ssr:stedsnr" v="302525" />
	</node>
	<node lat="60.06340277977474" lon="11.822241666794584" id="-19434">
		<tag k="name" v="Vesle Hundtjenn" />
		<tag k="natural" v="water" />
		<tag k="ssr:stedsnr" v="302533" />
	</node>
	<node lat="60.27824721940641" lon="11.866158342029113" id="-19436">
		<tag k="name" v="Smørbekken" />
		<tag k="ssr:stedsnr" v="302501" />
		<tag k="waterway" v="stream" />
	</node>
	<node lat="60.18333333684235" lon="11.823025007332156" id="-19442">
		<tag k="name" v="Saltbekken" />
		<tag k="ssr:stedsnr" v="309822" />
		<tag k="waterway" v="stream" />
	</node>
	<node lat="60.183069447519955" lon="11.712555561666727" id="-19443">
		<tag k="name" v="Igletjennet" />
		<tag k="natural" v="water" />
		<tag k="ssr:stedsnr" v="309823" />
	</node>
	<node lat="60.0865749969028" lon="11.893869443123846" id="-19457">
		<tag k="name" v="Sandtjennet" />
		<tag k="natural" v="water" />
		<tag k="ssr:stedsnr" v="343243" />
	</node>
	<node lat="60.30390277947548" lon="11.723463897222071" id="-19461">
		<tag k="name" v="Skrøvnabben" />
		<tag k="natural" v="cape" />
		<tag k="ssr:stedsnr" v="343984" />
	</node>
	<node lat="60.2642777800601" lon="11.862347225281447" id="-19462">
		<tag k="name" v="Gjøralsjøåa" />
		<tag k="ssr:stedsnr" v="344416" />
		<tag k="waterway" v="stream" />
	</node>
	<node lat="60.08733611525046" lon="11.865252781717608" id="-19463">
		<tag k="name" v="Låksåtjennet" />
		<tag k="natural" v="water" />
		<tag k="ssr:stedsnr" v="344726" />
	</node>
	<node lat="60.199177773559356" lon="11.841572213253682" id="-19474">
		<tag k="alt_name" v="Krogsrudbekken" />
		<tag k="name" v="Kroksrudbekken" />
		<tag k="ssr:stedsnr" v="369854" />
		<tag k="waterway" v="stream" />
	</node>
	<node lat="60.2020999998558" lon="11.888897224421465" id="-19484">
		<tag k="name" v="Kvislerholmen" />
		<tag k="place" v="islet" />
		<tag k="ssr:stedsnr" v="360175" />
	</node>
	<node lat="60.27415277949215" lon="11.847455560649756" id="-19500">
		<tag k="name" v="Tjernsmyrbekken" />
		<tag k="ssr:stedsnr" v="362428" />
		<tag k="waterway" v="stream" />
	</node>
	<node lat="60.197388892228865" lon="11.73231944071281" id="-19506">
		<tag k="name" v="Gåsåa" />
		<tag k="natural" v="water" />
		<tag k="ssr:stedsnr" v="362183" />
	</node>
	<node lat="60.09864999848498" lon="11.89943611537064" id="-19517">
		<tag k="name" v="Storbørja" />
		<tag k="natural" v="water" />
		<tag k="ssr:stedsnr" v="369455" />
		<tag k="water" v="lake" />
	</node>
	<node lat="60.21179444178174" lon="11.700383324247746" id="-19522">
		<tag k="name" v="Lillesettjennet" />
		<tag k="natural" v="water" />
		<tag k="ssr:stedsnr" v="369787" />
	</node>
	<node lat="60.24404444658087" lon="11.858249994244806" id="-19531">
		<tag k="name" v="Verkensåa" />
		<tag k="ssr:stedsnr" v="403364" />
		<tag k="waterway" v="stream" />
	</node>
	<node lat="60.34534167004359" lon="11.633813886765" id="-19533">
		<tag k="name" v="Motangen" />
		<tag k="natural" v="cape" />
		<tag k="ssr:stedsnr" v="403745" />
	</node>
	<node lat="60.35989166406693" lon="11.640272222003453" id="-19536">
		<tag k="name" v="Djupneset" />
		<tag k="natural" v="cape" />
		<tag k="ssr:stedsnr" v="404762" />
	</node>
	<node lat="60.10378333440947" lon="11.865013886722144" id="-19546">
		<tag k="name" v="Vestre Nilstjennet" />
		<tag k="natural" v="water" />
		<tag k="ssr:stedsnr" v="405727" />
	</node>
	<node lat="60.36656389301772" lon="11.752933337448523" id="-19559">
		<tag k="name" v="Ringfløyta" />
		<tag k="place" v="locality" />
		<tag k="ssr:stedsnr" v="421198" />
	</node>
	<node lat="60.325249997295785" lon="11.680497230734629" id="-19561">
		<tag k="name" v="Nordbekken" />
		<tag k="ssr:stedsnr" v="421588" />
		<tag k="waterway" v="stream" />
	</node>
	<node lat="60.292877778829265" lon="11.792872218420735" id="-19567">
		<tag k="name" v="Tjirubekken" />
		<tag k="ssr:stedsnr" v="421479" />
		<tag k="waterway" v="stream" />
	</node>
	<node lat="60.25768611059914" lon="11.916688889392606" id="-19575">
		<tag k="name" v="Rudsætertjennet" />
		<tag k="natural" v="water" />
		<tag k="ssr:stedsnr" v="423124" />
	</node>
	<node lat="60.204355551519505" lon="11.677925005975837" id="-19579">
		<tag k="name" v="Sjøåa" />
		<tag k="ssr:stedsnr" v="423186" />
		<tag k="waterway" v="stream" />
	</node>
	<node lat="60.93943888528743" lon="11.516244438964907" id="-19588">
		<tag k="fixme" v="multiple name tags, choose one and add the other to alt_name" />
		<tag k="name" v="Glåma;Glomma" />
		<tag k="ssr:stedsnr" v="426301" />
		<tag k="waterway" v="river" />
	</node>
	<node lat="60.05515555821898" lon="11.822505560836253" id="-19591">
		<tag k="name" v="Vasketjennet" />
		<tag k="natural" v="water" />
		<tag k="ssr:stedsnr" v="430529" />
	</node>
	<node lat="60.07706111285946" lon="11.887011114724235" id="-19593">
		<tag k="name" v="Vesle Grevlingtjennet" />
		<tag k="natural" v="water" />
		<tag k="ssr:stedsnr" v="430683" />
	</node>
	<node lat="60.07635833714413" lon="11.880599999416008" id="-19594">
		<tag k="name" v="Grevlingtjennet" />
		<tag k="natural" v="water" />
		<tag k="ssr:stedsnr" v="430684" />
	</node>
	<node lat="60.19229722434842" lon="11.755177783405115" id="-19602">
		<tag k="name" v="Lysåstjenn" />
		<tag k="natural" v="water" />
		<tag k="ssr:stedsnr" v="430835" />
	</node>
	<node lat="60.23227222093607" lon="11.851324994188548" id="-19630">
		<tag k="name" v="Garverdammen" />
		<tag k="ssr:stedsnr" v="526437" />
		<tag k="waterway" v="dam" />
	</node>
	<node lat="60.273488885725186" lon="11.601058325411353" id="-19632">
		<tag k="name" v="Mjølkebudalsbekken" />
		<tag k="ssr:stedsnr" v="527069" />
		<tag k="waterway" v="stream" />
	</node>
	<node lat="60.21188888574731" lon="11.626358337927392" id="-19635">
		<tag k="name" v="Ullerevja" />
		<tag k="natural" v="bay" />
		<tag k="ssr:stedsnr" v="540088" />
	</node>
	<node lat="60.08399166801258" lon="11.817036112361325" id="-19641">
		<tag k="name" v="Midtholmen" />
		<tag k="place" v="islet" />
		<tag k="ssr:stedsnr" v="540528" />
	</node>
	<node lat="60.16961388784719" lon="11.898141673099918" id="-19647">
		<tag k="name" v="Tollhaugbekken" />
		<tag k="ssr:stedsnr" v="542159" />
		<tag k="waterway" v="stream" />
	</node>
	<node lat="60.14531388442597" lon="11.831800002968379" id="-19652">
		<tag k="name" v="Karivika" />
		<tag k="natural" v="bay" />
		<tag k="ssr:stedsnr" v="542639" />
	</node>
	<node lat="60.13593611209351" lon="11.826175003270036" id="-19654">
		<tag k="name" v="Bjørnvika" />
		<tag k="natural" v="bay" />
		<tag k="ssr:stedsnr" v="542644" />
	</node>
	<node lat="60.261497224575564" lon="11.878491667379846" id="-19662">
		<tag k="name" v="Lutforodden" />
		<tag k="natural" v="cape" />
		<tag k="ssr:stedsnr" v="544248" />
	</node>
	<node lat="60.10671944218251" lon="11.70295832564647" id="-19671">
		<tag k="name" v="Hynntjennbekken" />
		<tag k="ssr:stedsnr" v="551721" />
		<tag k="waterway" v="stream" />
	</node>
	<node lat="60.0983916709591" lon="11.827197226242333" id="-19672">
		<tag k="name" v="Breisjøen" />
		<tag k="natural" v="water" />
		<tag k="ssr:stedsnr" v="551731" />
		<tag k="water" v="lake" />
	</node>
	<node lat="60.10945278038462" lon="11.856819447236514" id="-19673">
		<tag k="name" v="Stormyrtjennet" />
		<tag k="natural" v="water" />
		<tag k="ssr:stedsnr" v="551495" />
	</node>
	<node lat="60.17284722120727" lon="11.914755562851454" id="-19674">
		<tag k="alt_name" v="Skurudbekken" />
		<tag k="name" v="Skyrudbekken" />
		<tag k="ssr:stedsnr" v="551592" />
		<tag k="waterway" v="stream" />
	</node>
</osm>
