<?xml version="1.0" encoding="UTF-8"?>
<osm version="0.6" generator="osmapis">
	<node lat="60.233788891826904" lon="11.704738893503762" id="-18050">
		<tag k="name" v="Djupdalen" />
		<tag k="natural" v="valley" />
		<tag k="place" v="locality" />
		<tag k="ssr:stedsnr" v="5968" />
	</node>
	<node lat="60.32903333579722" lon="11.826199996625462" id="-18060">
		<tag k="name" v="Hedenhøgda" />
		<tag k="natural" v="hill" />
		<tag k="place" v="locality" />
		<tag k="ssr:stedsnr" v="6987" />
	</node>
	<node lat="60.26023888817098" lon="11.6238249997211" id="-18068">
		<tag k="name" v="Gruva" />
		<tag k="natural" v="valley" />
		<tag k="place" v="locality" />
		<tag k="ssr:stedsnr" v="41614" />
	</node>
	<node lat="60.28594166421996" lon="11.743488885995976" id="-18070">
		<tag k="name" v="Knadden" />
		<tag k="natural" v="hill" />
		<tag k="place" v="locality" />
		<tag k="ssr:stedsnr" v="41777" />
	</node>
	<node lat="60.322066669236555" lon="11.77628889461946" id="-18075">
		<tag k="name" v="Revhiet" />
		<tag k="place" v="locality" />
		<tag k="ssr:stedsnr" v="237432" />
	</node>
	<node lat="60.15078333368016" lon="11.886719442132234" id="-18087">
		<tag k="name" v="Henriksbrenna" />
		<tag k="place" v="locality" />
		<tag k="ssr:stedsnr" v="239323" />
	</node>
	<node lat="60.16644166928816" lon="11.770294444279633" id="-18090">
		<tag k="name" v="Langtjennlia" />
		<tag k="natural" v="slope" />
		<tag k="place" v="locality" />
		<tag k="ssr:stedsnr" v="239636" />
	</node>
	<node lat="60.29536111358738" lon="11.698952774528294" id="-18094">
		<tag k="name" v="Svarttjennsberget" />
		<tag k="natural" v="hill" />
		<tag k="place" v="locality" />
		<tag k="ssr:stedsnr" v="239825" />
	</node>
	<node lat="60.36131110803911" lon="11.761083328449615" id="-18098">
		<tag k="name" v="Juvberget" />
		<tag k="natural" v="hill" />
		<tag k="place" v="locality" />
		<tag k="ssr:stedsnr" v="57180" />
	</node>
	<node lat="60.29036667082615" lon="11.581333330643707" id="-18103">
		<tag k="name" v="Raskeruddalen" />
		<tag k="natural" v="valley" />
		<tag k="place" v="locality" />
		<tag k="ssr:stedsnr" v="57020" />
	</node>
	<node lat="60.346358336380604" lon="11.763361114519721" id="-18105">
		<tag k="fixme" v="consider natural=peak for the most distinct mountains in the district" />
		<tag k="name" v="Rundhaugen" />
		<tag k="natural" v="hill" />
		<tag k="place" v="locality" />
		<tag k="ssr:stedsnr" v="57224" />
	</node>
	<node lat="60.20575277694667" lon="11.701608338164991" id="-18112">
		<tag k="name" v="Knutsmyrdalen" />
		<tag k="natural" v="valley" />
		<tag k="place" v="locality" />
		<tag k="ssr:stedsnr" v="59174" />
	</node>
	<node lat="60.05827777892251" lon="11.811352780760998" id="-18127">
		<tag k="name" v="Høglia" />
		<tag k="natural" v="slope" />
		<tag k="place" v="locality" />
		<tag k="ssr:stedsnr" v="241521" />
	</node>
	<node lat="60.15058333159588" lon="11.607019446272098" id="-18134">
		<tag k="name" v="Storalmåsdalen" />
		<tag k="natural" v="valley" />
		<tag k="place" v="locality" />
		<tag k="ssr:stedsnr" v="66625" />
	</node>
	<node lat="60.15377500355267" lon="11.733725000466467" id="-18136">
		<tag k="name" v="Svartmyrberget" />
		<tag k="natural" v="hill" />
		<tag k="place" v="locality" />
		<tag k="ssr:stedsnr" v="66627" />
	</node>
	<node lat="60.18180555997658" lon="11.832291671191422" id="-18142">
		<tag k="name" v="Vardetoppen" />
		<tag k="natural" v="hill" />
		<tag k="place" v="locality" />
		<tag k="ssr:stedsnr" v="241674" />
	</node>
	<node lat="60.2880444450327" lon="11.854366671217981" id="-18146">
		<tag k="name" v="Gudsberget" />
		<tag k="natural" v="hill" />
		<tag k="place" v="locality" />
		<tag k="ssr:stedsnr" v="67518" />
	</node>
	<node lat="60.152911110420355" lon="11.898894450927173" id="-18154">
		<tag k="name" v="Austberget" />
		<tag k="natural" v="hill" />
		<tag k="place" v="locality" />
		<tag k="ssr:stedsnr" v="248578" />
	</node>
	<node lat="60.28859999990418" lon="11.858347214665155" id="-18193">
		<tag k="name" v="Blårudsdalen" />
		<tag k="natural" v="valley" />
		<tag k="place" v="locality" />
		<tag k="ssr:stedsnr" v="116475" />
	</node>
	<node lat="60.08170277837173" lon="11.815936107212535" id="-18194">
		<tag k="name" v="Bergeposten" />
		<tag k="place" v="locality" />
		<tag k="ssr:stedsnr" v="116528" />
	</node>
	<node lat="60.3394805563358" lon="11.735836112178452" id="-18195">
		<tag k="name" v="Jonsrudberg" />
		<tag k="natural" v="slope" />
		<tag k="place" v="locality" />
		<tag k="ssr:stedsnr" v="117580" />
	</node>
	<node lat="60.10695000325129" lon="11.74936388061064" id="-18196">
		<tag k="name" v="Kjellia" />
		<tag k="natural" v="slope" />
		<tag k="place" v="locality" />
		<tag k="ssr:stedsnr" v="118002" />
	</node>
	<node lat="60.2980861084645" lon="11.548583334596378" id="-18197">
		<tag k="name" v="Langmyrdalen" />
		<tag k="natural" v="valley" />
		<tag k="place" v="locality" />
		<tag k="ssr:stedsnr" v="118016" />
	</node>
	<node lat="60.359091668571594" lon="11.770672226849577" id="-18204">
		<tag k="name" v="Karilia" />
		<tag k="natural" v="slope" />
		<tag k="place" v="locality" />
		<tag k="ssr:stedsnr" v="118271" />
	</node>
	<node lat="60.23082500362841" lon="11.685230556842184" id="-18208">
		<tag k="fixme" v="consider natural=peak for the most distinct mountains in the district" />
		<tag k="name" v="Lukmohøgda" />
		<tag k="natural" v="hill" />
		<tag k="place" v="locality" />
		<tag k="ssr:stedsnr" v="119133" />
	</node>
	<node lat="60.215547222799316" lon="11.689130546984835" id="-18212">
		<tag k="name" v="Lykkjeberget" />
		<tag k="natural" v="hill" />
		<tag k="place" v="locality" />
		<tag k="ssr:stedsnr" v="119180" />
	</node>
	<node lat="60.057872222602846" lon="11.7985027803786" id="-18219">
		<tag k="name" v="Saltblekkdal" />
		<tag k="natural" v="valley" />
		<tag k="place" v="locality" />
		<tag k="ssr:stedsnr" v="120511" />
	</node>
	<node lat="60.239033332891545" lon="11.625986111089732" id="-18236">
		<tag k="name" v="Brøstberget" />
		<tag k="natural" v="hill" />
		<tag k="place" v="locality" />
		<tag k="ssr:stedsnr" v="127949" />
	</node>
	<node lat="60.098502775800625" lon="11.834136102560246" id="-18242">
		<tag k="name" v="Uggen" />
		<tag k="natural" v="hill" />
		<tag k="place" v="locality" />
		<tag k="ssr:stedsnr" v="163459" />
	</node>
	<node lat="60.15318888703087" lon="11.761716658693956" id="-18248">
		<tag k="name" v="Storhuken" />
		<tag k="place" v="locality" />
		<tag k="ssr:stedsnr" v="178613" />
	</node>
	<node lat="60.24534722274635" lon="11.608141671166061" id="-18250">
		<tag k="name" v="Tjurslien" />
		<tag k="natural" v="slope" />
		<tag k="place" v="locality" />
		<tag k="ssr:stedsnr" v="180060" />
	</node>
	<node lat="60.17468889278329" lon="11.666577785328142" id="-18262">
		<tag k="name" v="Gråbeinjakta" />
		<tag k="natural" v="hill" />
		<tag k="place" v="locality" />
		<tag k="ssr:stedsnr" v="188883" />
	</node>
	<node lat="60.12601944688532" lon="11.67693055939361" id="-18269">
		<tag k="name" v="Hanekamdalen" />
		<tag k="natural" v="valley" />
		<tag k="place" v="locality" />
		<tag k="ssr:stedsnr" v="222214" />
	</node>
	<node lat="60.17881666916909" lon="11.710941673560153" id="-18280">
		<tag k="name" v="Norddisibrenna" />
		<tag k="place" v="locality" />
		<tag k="ssr:stedsnr" v="226506" />
	</node>
	<node lat="60.18296111357491" lon="11.596294438497265" id="-18285">
		<tag k="name" v="Måruddammen" />
		<tag k="place" v="locality" />
		<tag k="ssr:stedsnr" v="239081" />
	</node>
	<node lat="60.33425555589356" lon="11.670094453072377" id="-18290">
		<tag k="name" v="Kuberget" />
		<tag k="natural" v="hill" />
		<tag k="place" v="locality" />
		<tag k="ssr:stedsnr" v="239582" />
	</node>
	<node lat="60.14830555291462" lon="11.903052779273686" id="-18311">
		<tag k="name" v="Tutjennknappen" />
		<tag k="natural" v="hill" />
		<tag k="place" v="locality" />
		<tag k="ssr:stedsnr" v="248608" />
	</node>
	<node lat="60.12168610689614" lon="11.817758338397992" id="-18315">
		<tag k="name" v="Oterlihøgda" />
		<tag k="natural" v="hill" />
		<tag k="place" v="locality" />
		<tag k="ssr:stedsnr" v="248705" />
	</node>
	<node lat="60.350825003795194" lon="11.635361105602065" id="-18336">
		<tag k="name" v="Brattberget" />
		<tag k="natural" v="hill" />
		<tag k="place" v="locality" />
		<tag k="ssr:stedsnr" v="282721" />
	</node>
	<node lat="60.26160833655741" lon="11.749180552403473" id="-18344">
		<tag k="name" v="Nøkkskjæret" />
		<tag k="natural" v="hill" />
		<tag k="place" v="locality" />
		<tag k="ssr:stedsnr" v="284810" />
	</node>
	<node lat="60.32221111271424" lon="11.762522213601999" id="-18355">
		<tag k="name" v="Fillbakka" />
		<tag k="natural" v="slope" />
		<tag k="place" v="locality" />
		<tag k="ssr:stedsnr" v="298391" />
	</node>
	<node lat="60.325541662640504" lon="11.74836388239211" id="-18356">
		<tag k="fixme" v="consider natural=peak for the most distinct mountains in the district" />
		<tag k="name" v="Våltorpberget" />
		<tag k="natural" v="hill" />
		<tag k="place" v="locality" />
		<tag k="ssr:stedsnr" v="299584" />
	</node>
	<node lat="60.29320277545359" lon="11.695886111747114" id="-18358">
		<tag k="name" v="Dråga" />
		<tag k="natural" v="valley" />
		<tag k="place" v="locality" />
		<tag k="ssr:stedsnr" v="299808" />
	</node>
	<node lat="60.29583333755878" lon="11.538488891978673" id="-18359">
		<tag k="name" v="Blinkopplia" />
		<tag k="natural" v="slope" />
		<tag k="place" v="locality" />
		<tag k="ssr:stedsnr" v="300033" />
	</node>
	<node lat="60.30050833099963" lon="11.768052777126158" id="-18364">
		<tag k="fixme" v="consider natural=peak for the most distinct mountains in the district" />
		<tag k="name" v="Høgåsen" />
		<tag k="natural" v="hill" />
		<tag k="place" v="locality" />
		<tag k="ssr:stedsnr" v="300493" />
	</node>
	<node lat="60.24896388605331" lon="11.917327785792041" id="-18365">
		<tag k="name" v="Smørbekkdalen" />
		<tag k="natural" v="valley" />
		<tag k="place" v="locality" />
		<tag k="ssr:stedsnr" v="301121" />
	</node>
	<node lat="60.20612499983136" lon="11.741405558440873" id="-18366">
		<tag k="name" v="Mørkgånga" />
		<tag k="natural" v="valley" />
		<tag k="place" v="locality" />
		<tag k="ssr:stedsnr" v="301174" />
	</node>
	<node lat="60.28056111358197" lon="11.633205553113994" id="-18395">
		<tag k="name" v="Mærradalen" />
		<tag k="natural" v="valley" />
		<tag k="place" v="locality" />
		<tag k="ssr:stedsnr" v="466041" />
	</node>
	<node lat="60.19898333101627" lon="11.774288885474872" id="-18418">
		<tag k="name" v="Lushaugen" />
		<tag k="natural" v="hill" />
		<tag k="place" v="locality" />
		<tag k="ssr:stedsnr" v="344699" />
	</node>
	<node lat="60.14201111458686" lon="11.816024993351311" id="-18428">
		<tag k="alt_name" v="Broksundberget" />
		<tag k="name" v="Broksundhøgda" />
		<tag k="natural" v="hill" />
		<tag k="place" v="locality" />
		<tag k="ssr:stedsnr" v="369613" />
	</node>
	<node lat="60.09204722064187" lon="11.848800004333386" id="-18431">
		<tag k="name" v="Jaralden" />
		<tag k="natural" v="valley" />
		<tag k="place" v="locality" />
		<tag k="ssr:stedsnr" v="369680" />
	</node>
	<node lat="60.36623055737635" lon="11.786122221304868" id="-18462">
		<tag k="name" v="Årbogen" />
		<tag k="place" v="locality" />
		<tag k="ssr:stedsnr" v="481295" />
	</node>
	<node lat="60.13104999868734" lon="11.867597223990881" id="-18463">
		<tag k="name" v="Bergalia" />
		<tag k="natural" v="slope" />
		<tag k="place" v="locality" />
		<tag k="ssr:stedsnr" v="481651" />
	</node>
	<node lat="60.28914722574049" lon="11.69549444603185" id="-18467">
		<tag k="fixme" v="consider natural=peak for the most distinct mountains in the district" />
		<tag k="name" v="Oppstadberget" />
		<tag k="natural" v="hill" />
		<tag k="place" v="locality" />
		<tag k="ssr:stedsnr" v="481781" />
	</node>
	<node lat="60.28310555966018" lon="11.607119438511665" id="-18470">
		<tag k="name" v="Sæterberget" />
		<tag k="natural" v="hill" />
		<tag k="place" v="locality" />
		<tag k="ssr:stedsnr" v="482035" />
	</node>
	<node lat="60.25074166501405" lon="11.605449993067012" id="-18473">
		<tag k="name" v="Bjørnjelre" />
		<tag k="place" v="locality" />
		<tag k="ssr:stedsnr" v="482048" />
	</node>
	<node lat="60.1951527761083" lon="11.76262777721953" id="-18489">
		<tag k="name" v="Grevlingdalen" />
		<tag k="natural" v="valley" />
		<tag k="place" v="locality" />
		<tag k="ssr:stedsnr" v="405708" />
	</node>
	<node lat="60.10239166728819" lon="11.852650001222534" id="-18491">
		<tag k="name" v="Merrabåshøgda" />
		<tag k="natural" v="hill" />
		<tag k="place" v="locality" />
		<tag k="ssr:stedsnr" v="405738" />
	</node>
	<node lat="60.2131944469231" lon="11.765058336152386" id="-18494">
		<tag k="name" v="Toppdalen" />
		<tag k="natural" v="valley" />
		<tag k="place" v="locality" />
		<tag k="ssr:stedsnr" v="405701" />
	</node>
	<node lat="60.361147226637364" lon="11.749880553367177" id="-18502">
		<tag k="name" v="Isdalen" />
		<tag k="natural" v="valley" />
		<tag k="place" v="locality" />
		<tag k="ssr:stedsnr" v="421195" />
	</node>
	<node lat="60.11049722552543" lon="11.84956389762662" id="-18509">
		<tag k="name" v="Stormyrlia" />
		<tag k="natural" v="slope" />
		<tag k="place" v="locality" />
		<tag k="ssr:stedsnr" v="421741" />
	</node>
	<node lat="60.103763892513534" lon="11.766486107077766" id="-18523">
		<tag k="name" v="Sigurdposten" />
		<tag k="place" v="locality" />
		<tag k="ssr:stedsnr" v="423744" />
	</node>
	<node lat="60.16617777526196" lon="11.764052781883263" id="-18565">
		<tag k="fixme" v="consider natural=peak for the most distinct mountains in the district" />
		<tag k="name" v="Mjøgsjøbrenna" />
		<tag k="natural" v="hill" />
		<tag k="place" v="locality" />
		<tag k="ssr:stedsnr" v="491851" />
	</node>
	<node lat="60.17750555791948" lon="11.841375002566236" id="-18566">
		<tag k="name" v="Ormhaugen" />
		<tag k="natural" v="hill" />
		<tag k="place" v="locality" />
		<tag k="ssr:stedsnr" v="491863" />
	</node>
	<node lat="60.23728055197654" lon="11.887558341211415" id="-18577">
		<tag k="fixme" v="consider natural=peak for the most distinct mountains in the district" />
		<tag k="name" v="Melbytemplet" />
		<tag k="natural" v="hill" />
		<tag k="place" v="locality" />
		<tag k="ssr:stedsnr" v="673060" />
	</node>
	<node lat="60.11912221884384" lon="11.737619437545067" id="-18590">
		<tag k="name" v="Garsjøberget" />
		<tag k="natural" v="hill" />
		<tag k="place" v="locality" />
		<tag k="ssr:stedsnr" v="673690" />
	</node>
	<node lat="60.175944446162376" lon="11.817977784220243" id="-18595">
		<tag k="name" v="Villbergsdalen" />
		<tag k="natural" v="valley" />
		<tag k="place" v="locality" />
		<tag k="ssr:stedsnr" v="673870" />
	</node>
	<node lat="60.34059999717794" lon="11.751694451266962" id="-18599">
		<tag k="name" v="Tortrudberget" />
		<tag k="natural" v="hill" />
		<tag k="place" v="locality" />
		<tag k="ssr:stedsnr" v="673992" />
	</node>
	<node lat="60.309922223099356" lon="11.754605546622027" id="-18611">
		<tag k="name" v="Moholtberget" />
		<tag k="natural" v="hill" />
		<tag k="place" v="locality" />
		<tag k="ssr:stedsnr" v="465974" />
	</node>
	<node lat="60.145516666318095" lon="11.63449167453034" id="-18616">
		<tag k="name" v="Almåslia" />
		<tag k="natural" v="slope" />
		<tag k="place" v="locality" />
		<tag k="ssr:stedsnr" v="466160" />
	</node>
	<node lat="60.109844448074696" lon="11.791711106896832" id="-18619">
		<tag k="name" v="Grasberghøgda" />
		<tag k="natural" v="hill" />
		<tag k="place" v="locality" />
		<tag k="ssr:stedsnr" v="466727" />
	</node>
	<node lat="60.31513888430028" lon="11.84292778617977" id="-18625">
		<tag k="name" v="Styggdalen" />
		<tag k="natural" v="valley" />
		<tag k="place" v="locality" />
		<tag k="ssr:stedsnr" v="480472" />
	</node>
	<node lat="60.294005552827" lon="11.572313885514712" id="-18629">
		<tag k="name" v="Veslestupen" />
		<tag k="natural" v="valley" />
		<tag k="place" v="locality" />
		<tag k="ssr:stedsnr" v="482017" />
	</node>
	<node lat="60.2842861084987" lon="11.559191666885908" id="-18630">
		<tag k="name" v="Lurhøllia" />
		<tag k="natural" v="slope" />
		<tag k="place" v="locality" />
		<tag k="ssr:stedsnr" v="482025" />
	</node>
	<node lat="60.07503055712464" lon="11.854766667662565" id="-18642">
		<tag k="name" v="Styggdalen" />
		<tag k="natural" v="valley" />
		<tag k="place" v="locality" />
		<tag k="ssr:stedsnr" v="483576" />
	</node>
	<node lat="60.1635999995086" lon="11.871083324865502" id="-18648">
		<tag k="name" v="Kjagelihøgda" />
		<tag k="natural" v="hill" />
		<tag k="place" v="locality" />
		<tag k="ssr:stedsnr" v="490587" />
	</node>
	<node lat="60.29164999888346" lon="11.876455546481735" id="-18653">
		<tag k="name" v="Venlia" />
		<tag k="natural" v="slope" />
		<tag k="place" v="locality" />
		<tag k="ssr:stedsnr" v="491515" />
	</node>
	<node lat="60.35442221845933" lon="11.805577769121827" id="-18668">
		<tag k="fixme" v="consider natural=peak for the most distinct mountains in the district" />
		<tag k="name" v="Hokjølen" />
		<tag k="natural" v="hill" />
		<tag k="place" v="locality" />
		<tag k="ssr:stedsnr" v="491880" />
	</node>
	<node lat="60.27466111002634" lon="11.605788894615165" id="-18675">
		<tag k="name" v="Lidalsåsen" />
		<tag k="natural" v="hill" />
		<tag k="place" v="locality" />
		<tag k="ssr:stedsnr" v="527070" />
	</node>
	<node lat="60.06966111435533" lon="11.796983341377942" id="-18688">
		<tag k="name" v="Dongraslia" />
		<tag k="natural" v="slope" />
		<tag k="place" v="locality" />
		<tag k="ssr:stedsnr" v="542721" />
	</node>
	<node lat="60.29558055778953" lon="11.55880833270555" id="-18689">
		<tag k="name" v="Gryta" />
		<tag k="natural" v="valley" />
		<tag k="place" v="locality" />
		<tag k="ssr:stedsnr" v="543018" />
	</node>
	<node lat="60.08099166233118" lon="11.827930554625679" id="-18698">
		<tag k="loc_name" v="Kallbråtahøgda" />
		<tag k="name" v="Kalbråtehøgda" />
		<tag k="natural" v="hill" />
		<tag k="place" v="locality" />
		<tag k="ssr:stedsnr" v="551753" />
	</node>
	<node lat="60.15885833579097" lon="11.690938883267616" id="-18709">
		<tag k="name" v="Abbortjennholen" />
		<tag k="natural" v="hill" />
		<tag k="place" v="locality" />
		<tag k="ssr:stedsnr" v="586211" />
	</node>
	<node lat="60.2915805571108" lon="11.776755562238638" id="-18722">
		<tag k="name" v="Festningsberget" />
		<tag k="natural" v="hill" />
		<tag k="place" v="locality" />
		<tag k="ssr:stedsnr" v="602497" />
	</node>
	<node lat="60.341672222720106" lon="11.66975000650914" id="-18724">
		<tag k="name" v="Kammarberget" />
		<tag k="natural" v="hill" />
		<tag k="place" v="locality" />
		<tag k="ssr:stedsnr" v="602599" />
	</node>
	<node lat="60.228205555195316" lon="11.714191674143661" id="-18736">
		<tag k="name" v="Øktnerbakka" />
		<tag k="natural" v="slope" />
		<tag k="place" v="locality" />
		<tag k="ssr:stedsnr" v="605150" />
	</node>
	<node lat="60.34480555665464" lon="11.78026388860103" id="-18738">
		<tag k="name" v="Masta" />
		<tag k="place" v="locality" />
		<tag k="ssr:stedsnr" v="605324" />
	</node>
	<node lat="60.12931666624492" lon="11.73992778158621" id="-18745">
		<tag k="name" v="Skibergheia" />
		<tag k="natural" v="hill" />
		<tag k="place" v="locality" />
		<tag k="ssr:stedsnr" v="612675" />
	</node>
	<node lat="60.219150001379205" lon="11.712522216082514" id="-18750">
		<tag k="name" v="Lillesethøgda" />
		<tag k="natural" v="hill" />
		<tag k="place" v="locality" />
		<tag k="ssr:stedsnr" v="612768" />
	</node>
	<node lat="60.17385278153539" lon="11.826897219551316" id="-18755">
		<tag k="name" v="Veslehøgda" />
		<tag k="natural" v="hill" />
		<tag k="place" v="locality" />
		<tag k="ssr:stedsnr" v="612861" />
	</node>
	<node lat="60.30474722253061" lon="11.586094436835813" id="-18757">
		<tag k="name" v="Kalvhaugen" />
		<tag k="natural" v="hill" />
		<tag k="place" v="locality" />
		<tag k="ssr:stedsnr" v="613961" />
	</node>
	<node lat="60.18000277375405" lon="11.682822217976986" id="-18762">
		<tag k="name" v="Mangsetbøtten" />
		<tag k="place" v="locality" />
		<tag k="ssr:stedsnr" v="646185" />
	</node>
	<node lat="60.259505559140756" lon="11.76806389681858" id="-18768">
		<tag k="name" v="Gullknappen" />
		<tag k="natural" v="hill" />
		<tag k="place" v="locality" />
		<tag k="ssr:stedsnr" v="648507" />
	</node>
	<node lat="60.165833331232896" lon="11.698441661069184" id="-18770">
		<tag k="name" v="Størrdalen" />
		<tag k="natural" v="valley" />
		<tag k="place" v="locality" />
		<tag k="ssr:stedsnr" v="707234" />
	</node>
	<node lat="60.124619442450594" lon="11.893513887903284" id="-18774">
		<tag k="fixme" v="consider natural=peak for the most distinct mountains in the district" />
		<tag k="name" v="Trangkleivåsen" />
		<tag k="natural" v="hill" />
		<tag k="place" v="locality" />
		<tag k="ssr:stedsnr" v="707281" />
	</node>
	<node lat="60.34399722334859" lon="11.627219445510393" id="-18777">
		<tag k="name" v="Rundberget" />
		<tag k="natural" v="hill" />
		<tag k="place" v="locality" />
		<tag k="ssr:stedsnr" v="707755" />
	</node>
	<node lat="60.29341666533172" lon="11.548972224494303" id="-18790">
		<tag k="name" v="Nysæterberget" />
		<tag k="natural" v="hill" />
		<tag k="place" v="locality" />
		<tag k="ssr:stedsnr" v="664022" />
	</node>
	<node lat="60.273975004172264" lon="11.584247226813643" id="-18791">
		<tag k="name" v="Grevlinghølet" />
		<tag k="natural" v="valley" />
		<tag k="place" v="locality" />
		<tag k="ssr:stedsnr" v="664029" />
	</node>
	<node lat="60.29444444442941" lon="11.72323054968466" id="-18799">
		<tag k="name" v="Danielsberget" />
		<tag k="natural" v="hill" />
		<tag k="place" v="locality" />
		<tag k="ssr:stedsnr" v="709750" />
	</node>
	<node lat="60.13000277510617" lon="11.678108324637007" id="-18809">
		<tag k="name" v="Jørgensenposten" />
		<tag k="natural" v="hill" />
		<tag k="place" v="locality" />
		<tag k="ssr:stedsnr" v="890257" />
	</node>
	<node lat="60.113397223401016" lon="11.891674999405547" id="-18811">
		<tag k="name" v="Saga" />
		<tag k="place" v="locality" />
		<tag k="ssr:stedsnr" v="890279" />
	</node>
	<node lat="60.172174996733276" lon="11.846972216338859" id="-18815">
		<tag k="fixme" v="consider natural=peak for the most distinct mountains in the district" />
		<tag k="name" v="Huskebrutoppen" />
		<tag k="natural" v="hill" />
		<tag k="place" v="locality" />
		<tag k="ssr:stedsnr" v="673618" />
	</node>
	<node lat="60.11198888564442" lon="11.7552249982368" id="-18817">
		<tag k="name" v="Donhaugen" />
		<tag k="natural" v="hill" />
		<tag k="place" v="locality" />
		<tag k="ssr:stedsnr" v="673706" />
	</node>
	<node lat="60.30385555222316" lon="11.69101110306618" id="-18825">
		<tag k="name" v="Hærsanberget" />
		<tag k="natural" v="hill" />
		<tag k="place" v="locality" />
		<tag k="ssr:stedsnr" v="890971" />
	</node>
	<node lat="60.174730558267086" lon="11.89414444390675" id="-18838">
		<tag k="name" v="Storbråten" />
		<tag k="natural" v="slope" />
		<tag k="place" v="locality" />
		<tag k="ssr:stedsnr" v="892182" />
	</node>
	<node lat="60.162863889854684" lon="11.716255558109944" id="-18841">
		<tag k="name" v="Tverrdalen" />
		<tag k="natural" v="valley" />
		<tag k="place" v="locality" />
		<tag k="ssr:stedsnr" v="707225" />
	</node>
	<node lat="60.097663889222545" lon="11.821425000790121" id="-18845">
		<tag k="name" v="Breisjølia" />
		<tag k="natural" v="slope" />
		<tag k="place" v="locality" />
		<tag k="ssr:stedsnr" v="709690" />
	</node>
	<node lat="60.072080555001826" lon="11.808288886910061" id="-18858">
		<tag k="name" v="Kvernmyrlia" />
		<tag k="natural" v="slope" />
		<tag k="place" v="locality" />
		<tag k="ssr:stedsnr" v="724709" />
	</node>
	<node lat="60.2948444448619" lon="11.620708333694617" id="-18860">
		<tag k="name" v="Dallia" />
		<tag k="natural" v="slope" />
		<tag k="place" v="locality" />
		<tag k="ssr:stedsnr" v="725039" />
	</node>
	<node lat="60.20941110899737" lon="11.739127771713761" id="-18865">
		<tag k="name" v="Mohøgda" />
		<tag k="natural" v="hill" />
		<tag k="place" v="locality" />
		<tag k="ssr:stedsnr" v="726185" />
	</node>
	<node lat="60.189138885844855" lon="11.746741660037284" id="-18874">
		<tag k="name" v="Fresvollia" />
		<tag k="natural" v="slope" />
		<tag k="place" v="locality" />
		<tag k="ssr:stedsnr" v="733832" />
	</node>
	<node lat="60.14332778084295" lon="11.84264166479797" id="-18895">
		<tag k="name" v="Hamnberget" />
		<tag k="natural" v="slope" />
		<tag k="place" v="locality" />
		<tag k="ssr:stedsnr" v="906674" />
	</node>
	<node lat="60.27923055832242" lon="11.695272216158514" id="-18900">
		<tag k="name" v="Karterudberget" />
		<tag k="natural" v="hill" />
		<tag k="place" v="locality" />
		<tag k="ssr:stedsnr" v="767740" />
	</node>
	<node lat="60.12653333372314" lon="11.888344452692133" id="-18903">
		<tag k="name" v="Sæterdalen" />
		<tag k="natural" v="valley" />
		<tag k="place" v="locality" />
		<tag k="ssr:stedsnr" v="768247" />
	</node>
	<node lat="60.26040278229931" lon="11.934961106951505" id="-18906">
		<tag k="name" v="Simarudvegen" />
		<tag k="natural" v="valley" />
		<tag k="place" v="locality" />
		<tag k="ssr:stedsnr" v="907140" />
	</node>
	<node lat="60.176377776598194" lon="11.764466673507386" id="-18911">
		<tag k="name" v="Snekkermohuken" />
		<tag k="place" v="locality" />
		<tag k="ssr:stedsnr" v="769704" />
	</node>
	<node lat="60.18785277357575" lon="11.75029722331056" id="-18919">
		<tag k="name" v="Fresvollberget" />
		<tag k="natural" v="hill" />
		<tag k="place" v="locality" />
		<tag k="ssr:stedsnr" v="771318" />
	</node>
	<node lat="60.33685555710375" lon="11.801266662000113" id="-18922">
		<tag k="name" v="Brattåslia" />
		<tag k="natural" v="slope" />
		<tag k="place" v="locality" />
		<tag k="ssr:stedsnr" v="909319" />
	</node>
	<node lat="60.31813888583317" lon="11.762211103388514" id="-18925">
		<tag k="name" v="Butømmerdalen" />
		<tag k="natural" v="valley" />
		<tag k="place" v="locality" />
		<tag k="ssr:stedsnr" v="783425" />
	</node>
	<node lat="60.321469442898454" lon="11.684674992500897" id="-18927">
		<tag k="name" v="Skrikarfallet" />
		<tag k="natural" v="hill" />
		<tag k="place" v="locality" />
		<tag k="ssr:stedsnr" v="783614" />
	</node>
	<node lat="60.16977777512157" lon="11.851416675386284" id="-18932">
		<tag k="name" v="Killigbutoppen" />
		<tag k="natural" v="hill" />
		<tag k="place" v="locality" />
		<tag k="ssr:stedsnr" v="785602" />
	</node>
	<node lat="60.34100000259306" lon="11.793761117815299" id="-18937">
		<tag k="name" v="Revholen" />
		<tag k="natural" v="hill" />
		<tag k="place" v="locality" />
		<tag k="ssr:stedsnr" v="787307" />
	</node>
	<node lat="60.094569442267414" lon="11.778222223437638" id="-18990">
		<tag k="fixme" v="consider natural=peak for the most distinct mountains in the district" />
		<tag k="name" v="Bessemyrberget" />
		<tag k="natural" v="hill" />
		<tag k="place" v="locality" />
		<tag k="ssr:stedsnr" v="829711" />
	</node>
	<node lat="60.3172805513514" lon="11.691663882475279" id="-18992">
		<tag k="name" v="Knadda" />
		<tag k="natural" v="hill" />
		<tag k="place" v="locality" />
		<tag k="ssr:stedsnr" v="829975" />
	</node>
	<node lat="60.10605555836028" lon="11.820355563313349" id="-18996">
		<tag k="name" v="Krokmyrbakken" />
		<tag k="natural" v="slope" />
		<tag k="place" v="locality" />
		<tag k="ssr:stedsnr" v="830725" />
	</node>
	<node lat="60.10052777797702" lon="11.8480027827979" id="-18997">
		<tag k="name" v="Kroksjøberget" />
		<tag k="natural" v="hill" />
		<tag k="place" v="locality" />
		<tag k="ssr:stedsnr" v="830733" />
	</node>
	<node lat="60.21231944831986" lon="11.77123611988306" id="-18999">
		<tag k="name" v="Sørensenmyrdalen" />
		<tag k="natural" v="valley" />
		<tag k="place" v="locality" />
		<tag k="ssr:stedsnr" v="830687" />
	</node>
	<node lat="60.20430555314974" lon="11.769861109984552" id="-19001">
		<tag k="fixme" v="consider natural=peak for the most distinct mountains in the district" />
		<tag k="name" v="Knutsbråtaberget" />
		<tag k="natural" v="hill" />
		<tag k="place" v="locality" />
		<tag k="ssr:stedsnr" v="830692" />
	</node>
	<node lat="60.32252500343118" lon="11.794113887405098" id="-19012">
		<tag k="name" v="Gustavhølet" />
		<tag k="natural" v="valley" />
		<tag k="place" v="locality" />
		<tag k="ssr:stedsnr" v="844432" />
	</node>
	<node lat="60.152669446277194" lon="11.904883337240681" id="-19013">
		<tag k="name" v="Eitjenndalen" />
		<tag k="natural" v="valley" />
		<tag k="place" v="locality" />
		<tag k="ssr:stedsnr" v="846306" />
	</node>
	<node lat="60.21726388449864" lon="11.733108334130474" id="-19031">
		<tag k="name" v="Mangsethøgda" />
		<tag k="natural" v="hill" />
		<tag k="place" v="locality" />
		<tag k="ssr:stedsnr" v="855836" />
	</node>
	<node lat="60.33650277749827" lon="11.6312500071751" id="-19038">
		<tag k="fixme" v="consider natural=peak for the most distinct mountains in the district" />
		<tag k="name" v="Ringåsberget" />
		<tag k="natural" v="hill" />
		<tag k="place" v="locality" />
		<tag k="ssr:stedsnr" v="889744" />
	</node>
	<node lat="60.27069166650178" lon="11.604650007028567" id="-19039">
		<tag k="name" v="Lidalen" />
		<tag k="natural" v="valley" />
		<tag k="place" v="locality" />
		<tag k="ssr:stedsnr" v="891067" />
	</node>
	<node lat="60.272561107671294" lon="11.621688887081604" id="-19041">
		<tag k="fixme" v="consider natural=peak for the most distinct mountains in the district" />
		<tag k="name" v="Jafjellet" />
		<tag k="natural" v="hill" />
		<tag k="old_name" v="Jofjellet" />
		<tag k="place" v="locality" />
		<tag k="ssr:stedsnr" v="891071" />
	</node>
	<node lat="60.29576666691684" lon="11.57671667116051" id="-19044">
		<tag k="name" v="Stupen" />
		<tag k="natural" v="valley" />
		<tag k="place" v="locality" />
		<tag k="ssr:stedsnr" v="893568" />
	</node>
	<node lat="60.29384444507904" lon="11.58041111446061" id="-19050">
		<tag k="fixme" v="consider natural=peak for the most distinct mountains in the district" />
		<tag k="name" v="Skjulstadsæterberget" />
		<tag k="natural" v="hill" />
		<tag k="place" v="locality" />
		<tag k="ssr:stedsnr" v="907018" />
	</node>
	<node lat="60.28697222056745" lon="11.884633330515296" id="-19058">
		<tag k="name" v="Galteryggen" />
		<tag k="natural" v="ridge" />
		<tag k="place" v="locality" />
		<tag k="ssr:stedsnr" v="909272" />
	</node>
	<node lat="60.06109722677433" lon="11.801391662306575" id="-19060">
		<tag k="name" v="Pålerudlia" />
		<tag k="natural" v="slope" />
		<tag k="place" v="locality" />
		<tag k="ssr:stedsnr" v="909540" />
	</node>
	<node lat="60.301313892619035" lon="11.721630548585585" id="-19064">
		<tag k="name" v="Ormhella" />
		<tag k="natural" v="hill" />
		<tag k="place" v="locality" />
		<tag k="ssr:stedsnr" v="909759" />
	</node>
	<node lat="60.288752778416935" lon="11.58832778477461" id="-19074">
		<tag k="fixme" v="consider natural=peak for the most distinct mountains in the district" />
		<tag k="name" v="Høgåsen" />
		<tag k="natural" v="hill" />
		<tag k="place" v="locality" />
		<tag k="ssr:stedsnr" v="916568" />
	</node>
	<node lat="60.2238916680486" lon="11.69948888005945" id="-19079">
		<tag k="name" v="Dalsrudberget" />
		<tag k="natural" v="hill" />
		<tag k="place" v="locality" />
		<tag k="ssr:stedsnr" v="916980" />
	</node>
	<node lat="60.11783889193108" lon="11.73876667346243" id="-19084">
		<tag k="name" v="Tårnet" />
		<tag k="natural" v="hill" />
		<tag k="place" v="locality" />
		<tag k="ssr:stedsnr" v="950254" />
	</node>
	<node lat="60.12236111061031" lon="11.718866665248228" id="-19085">
		<tag k="name" v="Glåmtjennhaugen" />
		<tag k="natural" v="hill" />
		<tag k="place" v="locality" />
		<tag k="ssr:stedsnr" v="950255" />
	</node>
	<node lat="60.10158333759639" lon="11.845144453124577" id="-19090">
		<tag k="name" v="Styggdalen" />
		<tag k="natural" v="valley" />
		<tag k="place" v="locality" />
		<tag k="ssr:stedsnr" v="951735" />
	</node>
	<node lat="60.30721389179467" lon="11.79560276921491" id="-19097">
		<tag k="name" v="Øfstgardslia" />
		<tag k="natural" v="slope" />
		<tag k="place" v="locality" />
		<tag k="ssr:stedsnr" v="954546" />
	</node>
	<node lat="60.296575002055846" lon="11.59552777287316" id="-19103">
		<tag k="name" v="Kjerringkleivberget" />
		<tag k="natural" v="hill" />
		<tag k="place" v="locality" />
		<tag k="ssr:stedsnr" v="967038" />
	</node>
	<node lat="60.296080556282625" lon="11.596780556206626" id="-19104">
		<tag k="name" v="Vinterdalen" />
		<tag k="natural" v="valley" />
		<tag k="place" v="locality" />
		<tag k="ssr:stedsnr" v="967041" />
	</node>
	<node lat="60.23464167002187" lon="11.883555561796571" id="-19118">
		<tag k="name" v="Hølberget" />
		<tag k="natural" v="hill" />
		<tag k="place" v="locality" />
		<tag k="ssr:stedsnr" v="969200" />
	</node>
	<node lat="60.21660277777024" lon="11.906347220028104" id="-19124">
		<tag k="fixme" v="consider natural=peak for the most distinct mountains in the district" />
		<tag k="name" v="Kvisleråsen" />
		<tag k="natural" v="hill" />
		<tag k="place" v="locality" />
		<tag k="ssr:stedsnr" v="5095" />
	</node>
	<node lat="60.20110277414947" lon="11.632355547351098" id="-19129">
		<tag k="name" v="Skøyenberget" />
		<tag k="natural" v="hill" />
		<tag k="place" v="locality" />
		<tag k="ssr:stedsnr" v="5778" />
	</node>
	<node lat="60.08602500232982" lon="11.788738897584466" id="-19130">
		<tag k="name" v="Bjørnhaugen" />
		<tag k="natural" v="hill" />
		<tag k="place" v="locality" />
		<tag k="ssr:stedsnr" v="5735" />
	</node>
	<node lat="60.311566663505346" lon="11.682211108653364" id="-19160">
		<tag k="name" v="Seimsberget" />
		<tag k="natural" v="hill" />
		<tag k="place" v="locality" />
		<tag k="ssr:stedsnr" v="41958" />
	</node>
	<node lat="60.28803055492524" lon="11.618261102015389" id="-19168">
		<tag k="name" v="Knadda" />
		<tag k="natural" v="hill" />
		<tag k="place" v="locality" />
		<tag k="ssr:stedsnr" v="57035" />
	</node>
	<node lat="60.25881110867984" lon="11.602705560889682" id="-19170">
		<tag k="name" v="Mjølkerudberget" />
		<tag k="natural" v="hill" />
		<tag k="place" v="locality" />
		<tag k="ssr:stedsnr" v="57044" />
	</node>
	<node lat="60.28494721872829" lon="11.807852771768163" id="-19172">
		<tag k="fixme" v="consider natural=peak for the most distinct mountains in the district" />
		<tag k="name" v="Vindfallholen" />
		<tag k="natural" v="hill" />
		<tag k="place" v="locality" />
		<tag k="ssr:stedsnr" v="57455" />
	</node>
	<node lat="60.330480558590175" lon="11.755272213559385" id="-19174">
		<tag k="name" v="Julidalen" />
		<tag k="natural" v="valley" />
		<tag k="place" v="locality" />
		<tag k="ssr:stedsnr" v="57541" />
	</node>
	<node lat="60.07570277963327" lon="11.85083610310189" id="-19180">
		<tag k="fixme" v="consider natural=peak for the most distinct mountains in the district" />
		<tag k="name" v="Børliåsen" />
		<tag k="natural" v="hill" />
		<tag k="place" v="locality" />
		<tag k="ssr:stedsnr" v="59536" />
	</node>
	<node lat="60.22446389277535" lon="11.702005552681117" id="-19183">
		<tag k="name" v="Lurhøldalen" />
		<tag k="natural" v="valley" />
		<tag k="place" v="locality" />
		<tag k="ssr:stedsnr" v="59108" />
	</node>
	<node lat="60.1988376337694" lon="11.774527003919752" id="-19205">
		<tag k="name" v="Skårerhøgda" />
		<tag k="natural" v="hill" />
		<tag k="place" v="locality" />
		<tag k="ssr:stedsnr" v="66790" />
	</node>
	<node lat="60.28462222616411" lon="11.550002770178017" id="-19213">
		<tag k="alt_name" v="Ertsrudhøgda" />
		<tag k="fixme" v="consider natural=peak for the most distinct mountains in the district" />
		<tag k="name" v="Ertsrudberget" />
		<tag k="natural" v="hill" />
		<tag k="place" v="locality" />
		<tag k="ssr:stedsnr" v="67583" />
	</node>
	<node lat="60.28168333581228" lon="11.632433340350598" id="-19221">
		<tag k="fixme" v="consider natural=peak for the most distinct mountains in the district" />
		<tag k="name" v="Blakkfjellet" />
		<tag k="natural" v="hill" />
		<tag k="place" v="locality" />
		<tag k="ssr:stedsnr" v="87498" />
	</node>
	<node lat="60.13372500322733" lon="11.747066666063017" id="-19222">
		<tag k="name" v="Brattfallet" />
		<tag k="natural" v="slope" />
		<tag k="place" v="locality" />
		<tag k="ssr:stedsnr" v="101210" />
	</node>
	<node lat="60.12788333166426" lon="11.70798611748981" id="-19223">
		<tag k="name" v="Vestbyposten" />
		<tag k="natural" v="hill" />
		<tag k="place" v="locality" />
		<tag k="ssr:stedsnr" v="101222" />
	</node>
	<node lat="60.16641944514694" lon="11.718308327766302" id="-19227">
		<tag k="name" v="Djuptjenndalen" />
		<tag k="natural" v="valley" />
		<tag k="place" v="locality" />
		<tag k="ssr:stedsnr" v="101188" />
	</node>
	<node lat="60.15711944832326" lon="11.724330548570354" id="-19228">
		<tag k="name" v="Linndalen" />
		<tag k="natural" v="valley" />
		<tag k="place" v="locality" />
		<tag k="ssr:stedsnr" v="101196" />
	</node>
	<node lat="60.15892500300916" lon="11.727805552167656" id="-19229">
		<tag k="name" v="Disistyggdalen" />
		<tag k="natural" v="valley" />
		<tag k="place" v="locality" />
		<tag k="ssr:stedsnr" v="101201" />
	</node>
	<node lat="60.281091670740324" lon="11.630219453752416" id="-19231">
		<tag k="name" v="Bjørnbråtaberget" />
		<tag k="natural" v="hill" />
		<tag k="place" v="locality" />
		<tag k="ssr:stedsnr" v="102037" />
	</node>
	<node lat="60.26442778139958" lon="11.623288890627324" id="-19234">
		<tag k="name" v="Hølbuttberget" />
		<tag k="natural" v="hill" />
		<tag k="place" v="locality" />
		<tag k="ssr:stedsnr" v="102064" />
	</node>
	<node lat="60.09022499822052" lon="11.828744452177858" id="-19239">
		<tag k="name" v="Tromhaugen" />
		<tag k="natural" v="hill" />
		<tag k="place" v="locality" />
		<tag k="ssr:stedsnr" v="102757" />
	</node>
	<node lat="60.29458610913512" lon="11.828624999515702" id="-19246">
		<tag k="name" v="Tauglshøgda" />
		<tag k="natural" v="hill" />
		<tag k="place" v="locality" />
		<tag k="ssr:stedsnr" v="116463" />
	</node>
	<node lat="60.29110000017274" lon="11.624783336824649" id="-19251">
		<tag k="name" v="Svartkøppet" />
		<tag k="natural" v="hill" />
		<tag k="place" v="locality" />
		<tag k="ssr:stedsnr" v="118032" />
	</node>
	<node lat="60.30015277603335" lon="11.596202770413754" id="-19253">
		<tag k="name" v="Gurikollen" />
		<tag k="natural" v="hill" />
		<tag k="place" v="locality" />
		<tag k="ssr:stedsnr" v="118038" />
	</node>
	<node lat="60.24737777534309" lon="11.609133340857094" id="-19255">
		<tag k="name" v="Sleppa" />
		<tag k="natural" v="valley" />
		<tag k="place" v="locality" />
		<tag k="ssr:stedsnr" v="118044" />
	</node>
	<node lat="60.35321666469679" lon="11.808000004611207" id="-19256">
		<tag k="name" v="Hokjølknappen" />
		<tag k="natural" v="hill" />
		<tag k="place" v="locality" />
		<tag k="ssr:stedsnr" v="118247" />
	</node>
	<node lat="60.1582388934306" lon="11.829749997856567" id="-19258">
		<tag k="fixme" v="consider natural=peak for the most distinct mountains in the district" />
		<tag k="name" v="Villberget" />
		<tag k="natural" v="hill" />
		<tag k="place" v="locality" />
		<tag k="ssr:stedsnr" v="118591" />
	</node>
	<node lat="60.13135833189363" lon="11.833597229863157" id="-19260">
		<tag k="name" v="Festningen" />
		<tag k="natural" v="hill" />
		<tag k="place" v="locality" />
		<tag k="ssr:stedsnr" v="118609" />
	</node>
	<node lat="60.1187027807387" lon="11.701505551864948" id="-19262">
		<tag k="name" v="Festningen" />
		<tag k="natural" v="hill" />
		<tag k="place" v="locality" />
		<tag k="ssr:stedsnr" v="119259" />
	</node>
	<node lat="60.32755555816749" lon="11.844583332985547" id="-19270">
		<tag k="name" v="Mjøgsjøberget" />
		<tag k="natural" v="hill" />
		<tag k="place" v="locality" />
		<tag k="ssr:stedsnr" v="120308" />
	</node>
	<node lat="60.25193888650969" lon="11.797316666572689" id="-19272">
		<tag k="fixme" v="consider natural=peak for the most distinct mountains in the district" />
		<tag k="name" v="Brennhaugen" />
		<tag k="natural" v="hill" />
		<tag k="place" v="locality" />
		<tag k="ssr:stedsnr" v="120412" />
	</node>
	<node lat="60.18745833191627" lon="11.770072223974642" id="-19283">
		<tag k="name" v="Holbråtaberget" />
		<tag k="natural" v="hill" />
		<tag k="place" v="locality" />
		<tag k="ssr:stedsnr" v="126830" />
	</node>
	<node lat="60.15904444079778" lon="11.74511667123445" id="-19298">
		<tag k="name" v="Svarttjennberget" />
		<tag k="natural" v="hill" />
		<tag k="place" v="locality" />
		<tag k="ssr:stedsnr" v="161219" />
	</node>
	<node lat="60.134188890770695" lon="11.73126111436272" id="-19300">
		<tag k="name" v="Prestbråtalia" />
		<tag k="natural" v="slope" />
		<tag k="place" v="locality" />
		<tag k="ssr:stedsnr" v="161229" />
	</node>
	<node lat="60.081636110499275" lon="11.91368610394873" id="-19320">
		<tag k="name" v="Godtjennlia" />
		<tag k="natural" v="slope" />
		<tag k="place" v="locality" />
		<tag k="ssr:stedsnr" v="164962" />
	</node>
	<node lat="60.29948333324484" lon="11.86319166940407" id="-19322">
		<tag k="name" v="Granbergskleiva" />
		<tag k="natural" v="slope" />
		<tag k="place" v="locality" />
		<tag k="ssr:stedsnr" v="176423" />
	</node>
	<node lat="60.15585277523122" lon="11.893255562127663" id="-19331">
		<tag k="name" v="Rognlia" />
		<tag k="natural" v="slope" />
		<tag k="place" v="locality" />
		<tag k="ssr:stedsnr" v="178317" />
	</node>
	<node lat="60.13945833164526" lon="11.672713892248314" id="-19333">
		<tag k="name" v="Revrompdalen" />
		<tag k="natural" v="valley" />
		<tag k="place" v="locality" />
		<tag k="ssr:stedsnr" v="178217" />
	</node>
	<node lat="60.346294448666434" lon="11.737694436781945" id="-19334">
		<tag k="name" v="Sideberget" />
		<tag k="natural" v="hill" />
		<tag k="place" v="locality" />
		<tag k="ssr:stedsnr" v="178218" />
	</node>
	<node lat="60.17388889333063" lon="11.817213882476413" id="-19349">
		<tag k="name" v="Filbakka" />
		<tag k="natural" v="slope" />
		<tag k="place" v="locality" />
		<tag k="ssr:stedsnr" v="180686" />
	</node>
	<node lat="60.079258335176284" lon="11.865225007417688" id="-19355">
		<tag k="name" v="Tiurpynten" />
		<tag k="natural" v="hill" />
		<tag k="place" v="locality" />
		<tag k="ssr:stedsnr" v="180529" />
	</node>
	<node lat="60.29517499978898" lon="11.694480554024793" id="-19370">
		<tag k="name" v="Kjølstadberget" />
		<tag k="natural" v="hill" />
		<tag k="place" v="locality" />
		<tag k="ssr:stedsnr" v="188964" />
	</node>
	<node lat="60.35056388881613" lon="11.626152783888847" id="-19374">
		<tag k="name" v="Bratthamaren" />
		<tag k="natural" v="hill" />
		<tag k="place" v="locality" />
		<tag k="ssr:stedsnr" v="222738" />
	</node>
	<node lat="60.17922222009201" lon="11.717866673188572" id="-19375">
		<tag k="name" v="Steindråga" />
		<tag k="natural" v="valley" />
		<tag k="place" v="locality" />
		<tag k="ssr:stedsnr" v="222152" />
	</node>
	<node lat="60.247688889886795" lon="11.81855834112241" id="-19378">
		<tag k="name" v="Høgåsen" />
		<tag k="natural" v="hill" />
		<tag k="place" v="locality" />
		<tag k="ssr:stedsnr" v="222364" />
	</node>
	<node lat="60.12367778190237" lon="11.757997221311758" id="-19403">
		<tag k="name" v="Soløsten" />
		<tag k="natural" v="hill" />
		<tag k="place" v="locality" />
		<tag k="ssr:stedsnr" v="284737" />
	</node>
	<node lat="60.37469999576197" lon="11.762688887086775" id="-19412">
		<tag k="name" v="Skøtthallet" />
		<tag k="natural" v="slope" />
		<tag k="place" v="locality" />
		<tag k="ssr:stedsnr" v="298640" />
	</node>
	<node lat="60.13958888779993" lon="11.66472499966842" id="-19413">
		<tag k="name" v="Hemslia" />
		<tag k="natural" v="slope" />
		<tag k="place" v="locality" />
		<tag k="ssr:stedsnr" v="299240" />
	</node>
	<node lat="60.08231944471327" lon="11.802086117287324" id="-19416">
		<tag k="name" v="Bjørnhaugen" />
		<tag k="natural" v="hill" />
		<tag k="place" v="locality" />
		<tag k="ssr:stedsnr" v="299735" />
	</node>
	<node lat="60.25038888935673" lon="11.616474994734102" id="-19420">
		<tag k="name" v="Storberget" />
		<tag k="natural" v="hill" />
		<tag k="place" v="locality" />
		<tag k="ssr:stedsnr" v="300054" />
	</node>
	<node lat="60.25748610871296" lon="11.626061108951985" id="-19421">
		<tag k="name" v="Fugldalen" />
		<tag k="natural" v="valley" />
		<tag k="place" v="locality" />
		<tag k="ssr:stedsnr" v="300057" />
	</node>
	<node lat="60.10447222363494" lon="11.774547213663716" id="-19429">
		<tag k="name" v="Vålhaugen" />
		<tag k="natural" v="hill" />
		<tag k="place" v="locality" />
		<tag k="ssr:stedsnr" v="301718" />
	</node>
	<node lat="60.13682500101633" lon="11.776516660179906" id="-19438">
		<tag k="fixme" v="consider natural=peak for the most distinct mountains in the district" />
		<tag k="name" v="Leikhøgdvarden" />
		<tag k="natural" v="hill" />
		<tag k="place" v="locality" />
		<tag k="ssr:stedsnr" v="302665" />
	</node>
	<node lat="60.14285833624226" lon="11.622425005933577" id="-19440">
		<tag k="fixme" v="consider natural=peak for the most distinct mountains in the district" />
		<tag k="name" v="Almåsen" />
		<tag k="natural" v="hill" />
		<tag k="place" v="locality" />
		<tag k="ssr:stedsnr" v="308627" />
	</node>
	<node lat="60.12246111191662" lon="11.655961103919644" id="-19458">
		<tag k="name" v="Rogndalen" />
		<tag k="natural" v="valley" />
		<tag k="place" v="locality" />
		<tag k="ssr:stedsnr" v="343224" />
	</node>
	<node lat="60.07892500371045" lon="11.842525000983894" id="-19468">
		<tag k="name" v="Nestreilia" />
		<tag k="natural" v="slope" />
		<tag k="place" v="locality" />
		<tag k="ssr:stedsnr" v="346978" />
	</node>
	<node lat="60.17327778172041" lon="11.779402777875942" id="-19475">
		<tag k="fixme" v="consider natural=peak for the most distinct mountains in the district" />
		<tag k="name" v="Grasåsen" />
		<tag k="natural" v="hill" />
		<tag k="place" v="locality" />
		<tag k="ssr:stedsnr" v="369858" />
	</node>
	<node lat="60.315088885116275" lon="11.786813889551176" id="-19477">
		<tag k="name" v="Rokkelien" />
		<tag k="place" v="locality" />
		<tag k="ssr:stedsnr" v="358416" />
	</node>
	<node lat="60.26708610689466" lon="11.61636943833962" id="-19481">
		<tag k="name" v="Langdalen" />
		<tag k="natural" v="valley" />
		<tag k="place" v="locality" />
		<tag k="ssr:stedsnr" v="360036" />
	</node>
	<node lat="60.07412777507254" lon="11.907761109083937" id="-19483">
		<tag k="name" v="Lundsdalen" />
		<tag k="natural" v="valley" />
		<tag k="place" v="locality" />
		<tag k="ssr:stedsnr" v="360239" />
	</node>
	<node lat="60.130647220580414" lon="11.891119446737783" id="-19486">
		<tag k="name" v="Matbrønnåsen" />
		<tag k="natural" v="hill" />
		<tag k="place" v="locality" />
		<tag k="ssr:stedsnr" v="360294" />
	</node>
	<node lat="60.144241668626776" lon="11.903897229270601" id="-19489">
		<tag k="name" v="Matbrønnberget" />
		<tag k="natural" v="hill" />
		<tag k="place" v="locality" />
		<tag k="ssr:stedsnr" v="360299" />
	</node>
	<node lat="60.1425666680132" lon="11.906391658085726" id="-19490">
		<tag k="name" v="Møllauglia" />
		<tag k="natural" v="slope" />
		<tag k="place" v="locality" />
		<tag k="ssr:stedsnr" v="360301" />
	</node>
	<node lat="60.33365833179784" lon="11.735255557342956" id="-19494">
		<tag k="name" v="Sætersberget" />
		<tag k="natural" v="slope" />
		<tag k="place" v="locality" />
		<tag k="ssr:stedsnr" v="360551" />
	</node>
	<node lat="60.32491388944372" lon="11.757558339521887" id="-19495">
		<tag k="name" v="Olabøtten" />
		<tag k="place" v="locality" />
		<tag k="ssr:stedsnr" v="360557" />
	</node>
	<node lat="60.29214721978956" lon="11.599913889144036" id="-19499">
		<tag k="name" v="Tørrberget" />
		<tag k="natural" v="hill" />
		<tag k="place" v="locality" />
		<tag k="ssr:stedsnr" v="361050" />
	</node>
	<node lat="60.1400499994501" lon="11.874800005413137" id="-19514">
		<tag k="name" v="Høgberget" />
		<tag k="natural" v="hill" />
		<tag k="place" v="locality" />
		<tag k="ssr:stedsnr" v="369489" />
	</node>
	<node lat="60.15682222496846" lon="11.605199995442485" id="-19515">
		<tag k="alt_name" v="Hørjudalen" />
		<tag k="name" v="Hørrjudalen" />
		<tag k="natural" v="valley" />
		<tag k="place" v="locality" />
		<tag k="ssr:stedsnr" v="369592" />
	</node>
	<node lat="60.16034999578847" lon="11.73518055019133" id="-19534">
		<tag k="fixme" v="consider natural=peak for the most distinct mountains in the district" />
		<tag k="name" v="Djuptjennberget" />
		<tag k="natural" v="hill" />
		<tag k="place" v="locality" />
		<tag k="ssr:stedsnr" v="404222" />
	</node>
	<node lat="60.09671111462976" lon="11.885583340400514" id="-19535">
		<tag k="name" v="Gamptjennåsen" />
		<tag k="natural" v="hill" />
		<tag k="place" v="locality" />
		<tag k="ssr:stedsnr" v="404249" />
	</node>
	<node lat="60.17994444848146" lon="11.760777780844556" id="-19544">
		<tag k="fixme" v="consider natural=peak for the most distinct mountains in the district" />
		<tag k="name" v="Kollsrudberget" />
		<tag k="natural" v="hill" />
		<tag k="place" v="locality" />
		<tag k="ssr:stedsnr" v="405719" />
	</node>
	<node lat="60.17898333083594" lon="11.808897229985348" id="-19545">
		<tag k="name" v="Folebakka" />
		<tag k="natural" v="slope" />
		<tag k="place" v="locality" />
		<tag k="ssr:stedsnr" v="405721" />
	</node>
	<node lat="60.06796111518065" lon="11.806213889727905" id="-19564">
		<tag k="name" v="Skurvemyrlia" />
		<tag k="natural" v="slope" />
		<tag k="place" v="locality" />
		<tag k="ssr:stedsnr" v="421727" />
	</node>
	<node lat="60.08413888937139" lon="11.779288890945804" id="-19566">
		<tag k="name" v="Foleknipa" />
		<tag k="natural" v="slope" />
		<tag k="place" v="locality" />
		<tag k="ssr:stedsnr" v="421735" />
	</node>
	<node lat="60.252930558753256" lon="11.612480553018958" id="-19574">
		<tag k="fixme" v="consider natural=peak for the most distinct mountains in the district" />
		<tag k="name" v="Hansbråtaberget" />
		<tag k="natural" v="hill" />
		<tag k="place" v="locality" />
		<tag k="ssr:stedsnr" v="422060" />
	</node>
	<node lat="60.25774722113323" lon="11.78941388528702" id="-19583">
		<tag k="fixme" v="consider natural=peak for the most distinct mountains in the district" />
		<tag k="name" v="Sauholen" />
		<tag k="natural" v="hill" />
		<tag k="place" v="locality" />
		<tag k="ssr:stedsnr" v="423473" />
	</node>
	<node lat="60.26008611336346" lon="11.781850001267099" id="-19585">
		<tag k="name" v="Djupdalen" />
		<tag k="natural" v="valley" />
		<tag k="place" v="locality" />
		<tag k="ssr:stedsnr" v="423538" />
	</node>
	<node lat="60.08001666386134" lon="11.856411112059492" id="-19587">
		<tag k="name" v="Låksålia" />
		<tag k="natural" v="slope" />
		<tag k="place" v="locality" />
		<tag k="ssr:stedsnr" v="423581" />
	</node>
	<node lat="60.132236108310416" lon="11.707811106306028" id="-19592">
		<tag k="name" v="Lønndalshøgda" />
		<tag k="natural" v="hill" />
		<tag k="place" v="locality" />
		<tag k="ssr:stedsnr" v="430661" />
	</node>
	<node lat="60.300124998366535" lon="11.567974992384492" id="-19615">
		<tag k="fixme" v="consider natural=peak for the most distinct mountains in the district" />
		<tag k="name" v="Ellingskjølen" />
		<tag k="natural" v="hill" />
		<tag k="place" v="locality" />
		<tag k="ssr:stedsnr" v="431960" />
	</node>
	<node lat="60.159247219512025" lon="11.735180557111333" id="-19621">
		<tag k="name" v="Disipynten" />
		<tag k="natural" v="hill" />
		<tag k="place" v="locality" />
		<tag k="ssr:stedsnr" v="525240" />
	</node>
	<node lat="60.08959166685597" lon="11.789761108674313" id="-19629">
		<tag k="name" v="Kubrennlia" />
		<tag k="natural" v="slope" />
		<tag k="place" v="locality" />
		<tag k="ssr:stedsnr" v="525700" />
	</node>
	<node lat="60.307613892613276" lon="11.879052781903997" id="-19633">
		<tag k="name" v="Gullhaugen" />
		<tag k="natural" v="hill" />
		<tag k="place" v="locality" />
		<tag k="ssr:stedsnr" v="527245" />
	</node>
	<node lat="60.355750002215586" lon="11.802252775774754" id="-19645">
		<tag k="name" v="Allergøttholen" />
		<tag k="natural" v="hill" />
		<tag k="place" v="locality" />
		<tag k="ssr:stedsnr" v="542280" />
	</node>
	<node lat="60.37144722378486" lon="11.758488896967114" id="-19648">
		<tag k="name" v="Bjønnryggen" />
		<tag k="natural" v="hill" />
		<tag k="place" v="locality" />
		<tag k="ssr:stedsnr" v="542238" />
	</node>
	<node lat="60.15156666752484" lon="11.819299994453894" id="-19649">
		<tag k="name" v="Masdalen" />
		<tag k="natural" v="valley" />
		<tag k="place" v="locality" />
		<tag k="ssr:stedsnr" v="542617" />
	</node>
	<node lat="60.127448945292315" lon="11.82191218725628" id="-19653">
		<tag k="alt_name" v="Hernesvanglia" />
		<tag k="name" v="Hærnesvanglia" />
		<tag k="natural" v="slope" />
		<tag k="place" v="locality" />
		<tag k="ssr:stedsnr" v="542643" />
	</node>
	<node lat="60.08475833307133" lon="11.791330549142828" id="-19655">
		<tag k="name" v="Hestebrenndråga" />
		<tag k="natural" v="valley" />
		<tag k="place" v="locality" />
		<tag k="ssr:stedsnr" v="542727" />
	</node>
	<node lat="60.283211108528235" lon="11.59410555004813" id="-19657">
		<tag k="name" v="Svartkulpdalen" />
		<tag k="natural" v="valley" />
		<tag k="place" v="locality" />
		<tag k="ssr:stedsnr" v="543030" />
	</node>
</osm>
