<?xml version="1.0" encoding="UTF-8"?>
<osm version="0.6" generator="osmapis">
	<node lat="60.197315684220975" lon="11.881141315517711" id="-26426">
		<tag k="name" v="Galterud stasjon" />
		<tag k="railway" v="station" />
		<tag k="ssr:stedsnr" v="5066" />
		<tag k="train" v="yes" />
	</node>
	<node lat="60.14615833664506" lon="11.677099996368131" id="-26484">
		<tag k="highway" v="path" />
		<tag k="name" v="Høyvegen" />
		<tag k="ssr:stedsnr" v="57183" />
	</node>
	<node lat="60.18238333004156" lon="11.58753889295827" id="-26583">
		<tag k="fixme" v="consider highway=path" />
		<tag k="highway" v="track" />
		<tag k="name" v="Gruslinna" />
		<tag k="ssr:stedsnr" v="118073" />
	</node>
	<node lat="60.295111111663815" lon="11.740700006999901" id="-26661">
		<tag k="fixme" v="consider highway=path" />
		<tag k="highway" v="track" />
		<tag k="name" v="Jensmyrvegen" />
		<tag k="ssr:stedsnr" v="223811" />
	</node>
	<node lat="60.279261110565805" lon="11.869211107969116" id="-26752">
		<tag k="highway" v="path" />
		<tag k="name" v="Høyvegen" />
		<tag k="ssr:stedsnr" v="302502" />
	</node>
	<node lat="60.20634444852526" lon="11.646908342279353" id="-26792">
		<tag k="bridge" v="yes" />
		<tag k="layer" v="1" />
		<tag k="name" v="Sæteråa" />
		<tag k="ssr:stedsnr" v="470635" />
	</node>
	<node lat="60.15963332922714" lon="11.719597214302324" id="-26793">
		<tag k="highway" v="path" />
		<tag k="name" v="Gjersøysætervegen" />
		<tag k="ssr:stedsnr" v="343206" />
	</node>
	<node lat="60.318652778297015" lon="11.767583324810156" id="-26838">
		<tag k="name" v="Krysset" />
		<tag k="place" v="locality" />
		<tag k="ssr:stedsnr" v="480442" />
	</node>
	<node lat="60.050663891076276" lon="11.7917166624463" id="-26866">
		<tag k="name" v="Velta" />
		<tag k="place" v="locality" />
		<tag k="ssr:stedsnr" v="484497" />
	</node>
	<node lat="60.22005555370901" lon="11.776811114668403" id="-26882">
		<tag k="bridge" v="yes" />
		<tag k="layer" v="1" />
		<tag k="name" v="Rønningen bru" />
		<tag k="ssr:stedsnr" v="410652" />
	</node>
	<node lat="60.25385654913971" lon="11.680454903140363" id="-26959">
		<tag k="name" v="Skarnes stasjon" />
		<tag k="railway" v="station" />
		<tag k="ssr:stedsnr" v="451670" />
		<tag k="train" v="yes" />
	</node>
	<node lat="60.18548333616112" lon="11.80777777520019" id="-27063">
		<tag k="bridge" v="yes" />
		<tag k="layer" v="1" />
		<tag k="name" v="Plankebrua" />
		<tag k="ssr:stedsnr" v="527685" />
	</node>
	<node lat="60.15975555551853" lon="11.64966111328878" id="-27102">
		<tag k="bridge" v="yes" />
		<tag k="layer" v="1" />
		<tag k="name" v="Almbekken" />
		<tag k="ssr:stedsnr" v="591613" />
	</node>
	<node lat="60.23142499711584" lon="11.813783339547294" id="-27103">
		<tag k="bridge" v="yes" />
		<tag k="layer" v="1" />
		<tag k="name" v="Sander bru" />
		<tag k="ssr:stedsnr" v="591622" />
	</node>
	<node lat="60.21626666301312" lon="11.675155556524565" id="-27163">
		<tag k="bridge" v="yes" />
		<tag k="layer" v="1" />
		<tag k="name" v="Bakkebekken" />
		<tag k="ssr:stedsnr" v="652637" />
	</node>
	<node lat="60.158508331504805" lon="11.724966659100273" id="-27190">
		<tag k="highway" v="path" />
		<tag k="name" v="Portvegen" />
		<tag k="ssr:stedsnr" v="890227" />
	</node>
	<node lat="60.33840277547216" lon="11.643688889278048" id="-27225">
		<tag k="bridge" v="yes" />
		<tag k="layer" v="1" />
		<tag k="name" v="Ringås bru" />
		<tag k="ssr:stedsnr" v="895593" />
	</node>
	<node lat="60.29322777950239" lon="11.72458055739051" id="-27232">
		<tag k="bridge" v="yes" />
		<tag k="layer" v="1" />
		<tag k="name" v="Vangen bru" />
		<tag k="ssr:stedsnr" v="713682" />
	</node>
	<node lat="60.330133332121186" lon="11.765108327616893" id="-27292">
		<tag k="junction" v="yes" />
		<tag k="name" v="Korsolderen" />
		<tag k="place" v="locality" />
		<tag k="ssr:stedsnr" v="907281" />
	</node>
	<node lat="60.292933331099874" lon="11.74000000877494" id="-27300">
		<tag k="name" v="Torvet velte" />
		<tag k="place" v="locality" />
		<tag k="ssr:stedsnr" v="769766" />
	</node>
	<node lat="60.249492197224065" lon="11.864759093922888" id="-27395">
		<tag k="bridge" v="yes" />
		<tag k="layer" v="1" />
		<tag k="name" v="Lagerå bru" />
		<tag k="ssr:stedsnr" v="835678" />
	</node>
	<node lat="60.29795297203135" lon="11.665496978042812" id="-27396">
		<tag k="alt_name" v="Opstad bru" />
		<tag k="bridge" v="yes" />
		<tag k="layer" v="1" />
		<tag k="name" v="Oppstad bru" />
		<tag k="ssr:stedsnr" v="835680" />
	</node>
	<node lat="60.11830555595212" lon="11.78232777067648" id="-27430">
		<tag k="junction" v="yes" />
		<tag k="name" v="Youngstorvet" />
		<tag k="place" v="locality" />
		<tag k="ssr:stedsnr" v="891721" />
	</node>
	<node lat="60.166669447921414" lon="11.689422228830846" id="-27486">
		<tag k="highway" v="path" />
		<tag k="name" v="Dampkjøkkenholvegen" />
		<tag k="ssr:stedsnr" v="965209" />
	</node>
	<node lat="60.25943888853931" lon="11.678008335750881" id="-27560">
		<tag k="bridge" v="yes" />
		<tag k="layer" v="1" />
		<tag k="name" v="Os Vestre" />
		<tag k="ssr:stedsnr" v="46695" />
	</node>
	<node lat="60.16381388962047" lon="11.694652773450235" id="-27622">
		<tag k="ford" v="yes" />
		<tag k="name" v="Bleikfuruvadet" />
		<tag k="place" v="locality" />
		<tag k="ssr:stedsnr" v="101185" />
	</node>
	<node lat="60.281527778464735" lon="11.770813883984538" id="-27639">
		<tag k="bridge" v="yes" />
		<tag k="layer" v="1" />
		<tag k="name" v="Slåstad bru" />
		<tag k="ssr:stedsnr" v="106632" />
	</node>
	<node lat="60.321738892031" lon="11.774597219454327" id="-27640">
		<tag k="bridge" v="yes" />
		<tag k="layer" v="1" />
		<tag k="name" v="Barbrua" />
		<tag k="ssr:stedsnr" v="116436" />
	</node>
	<node lat="60.08933610966419" lon="11.779166668989792" id="-27706">
		<tag k="junction" v="yes" />
		<tag k="name" v="Oterbekksvingen" />
		<tag k="place" v="locality" />
		<tag k="ssr:stedsnr" v="161684" />
	</node>
	<node lat="60.32654166289595" lon="11.773391668657297" id="-27725">
		<tag k="ford" v="yes" />
		<tag k="name" v="Øinsætervadet" />
		<tag k="place" v="locality" />
		<tag k="ssr:stedsnr" v="178293" />
	</node>
	<node lat="60.18789444646369" lon="11.573716674298955" id="-27737">
		<tag k="bridge" v="yes" />
		<tag k="layer" v="1" />
		<tag k="name" v="Hørjubrua" />
		<tag k="ssr:stedsnr" v="179094" />
	</node>
	<node lat="60.126122222079516" lon="11.691002775306664" id="-27788">
		<tag k="highway" v="path" />
		<tag k="name" v="Gammelsætervegen" />
		<tag k="ssr:stedsnr" v="283208" />
	</node>
	<node lat="60.230138893009176" lon="11.846719447944864" id="-27803">
		<tag k="bridge" v="yes" />
		<tag k="layer" v="1" />
		<tag k="name" v="Fulusagen" />
		<tag k="ssr:stedsnr" v="288586" />
	</node>
	<node lat="60.202132364265104" lon="11.874542683835552" id="-27866">
		<tag k="bridge" v="yes" />
		<tag k="layer" v="1" />
		<tag k="name" v="Melland bru" />
		<tag k="ssr:stedsnr" v="349686" />
	</node>
	<node lat="60.197255553966926" lon="11.576155553731194" id="-27867">
		<tag k="bridge" v="yes" />
		<tag k="layer" v="1" />
		<tag k="name" v="Dysterud" />
		<tag k="ssr:stedsnr" v="349688" />
	</node>
	<node lat="60.229419271230476" lon="11.581365644318316" id="-27868">
		<tag k="bridge" v="yes" />
		<tag k="layer" v="1" />
		<tag k="name" v="Dystå bru" />
		<tag k="ssr:stedsnr" v="349689" />
	</node>
	<node lat="60.35444166827441" lon="11.722747221372567" id="-27957">
		<tag k="junction" v="yes" />
		<tag k="name" v="Trekanten" />
		<tag k="place" v="locality" />
		<tag k="ssr:stedsnr" v="421212" />
	</node>
	<node lat="60.1101250000414" lon="11.76458611159274" id="-28101">
		<tag k="junction" v="yes" />
		<tag k="name" v="Delmyra" />
		<tag k="place" v="locality" />
		<tag k="ssr:stedsnr" v="587731" />
	</node>
	<node lat="60.149963886785685" lon="11.65450832531434" id="-28117">
		<tag k="junction" v="yes" />
		<tag k="name" v="Åkroken" />
		<tag k="place" v="locality" />
		<tag k="ssr:stedsnr" v="602230" />
	</node>
	<node lat="60.181269444811925" lon="11.879255552474007" id="-28192">
		<tag k="junction" v="yes" />
		<tag k="name" v="Brennbakken" />
		<tag k="place" v="locality" />
		<tag k="ssr:stedsnr" v="648206" />
	</node>
	<node lat="60.25590000206384" lon="11.700030558210749" id="-28198">
		<tag k="bridge" v="yes" />
		<tag k="layer" v="1" />
		<tag k="name" v="Os Østre" />
		<tag k="ssr:stedsnr" v="652632" />
	</node>
	<node lat="60.30463610982852" lon="11.781841668656993" id="-28200">
		<tag k="name" v="Åbråten" />
		<tag k="place" v="locality" />
		<tag k="ssr:stedsnr" v="662275" />
	</node>
	<node lat="60.31144444020696" lon="11.625608332544813" id="-28298">
		<tag k="bridge" v="yes" />
		<tag k="layer" v="1" />
		<tag k="name" v="Størja" />
		<tag k="ssr:stedsnr" v="774690" />
	</node>
	<node lat="60.212858336411934" lon="11.624861104305708" id="-28299">
		<tag k="bridge" v="yes" />
		<tag k="layer" v="1" />
		<tag k="name" v="Ullern bru" />
		<tag k="ssr:stedsnr" v="774692" />
	</node>
	<node lat="60.247274997691775" lon="11.747377769223215" id="-28300">
		<tag k="bridge" v="yes" />
		<tag k="layer" v="1" />
		<tag k="name" v="Sloå bru" />
		<tag k="ssr:stedsnr" v="774694" />
	</node>
	<node lat="60.31918333334482" lon="11.775455560448702" id="-28303">
		<tag k="ford" v="yes" />
		<tag k="name" v="Bringebærvadet" />
		<tag k="place" v="locality" />
		<tag k="ssr:stedsnr" v="783434" />
	</node>
	<node lat="60.29753611312806" lon="11.534336114366393" id="-28394">
		<tag k="fixme" v="consider highway=path" />
		<tag k="highway" v="track" />
		<tag k="name" v="Den Breie Stigen" />
		<tag k="ssr:stedsnr" v="847043" />
	</node>
	<node lat="60.20595000257536" lon="11.786666659546983" id="-28447">
		<tag k="junction" v="yes" />
		<tag k="name" v="Steinvadet" />
		<tag k="place" v="locality" />
		<tag k="ssr:stedsnr" v="951708" />
	</node>
	<node lat="60.2130777745928" lon="11.877955563913515" id="-28458">
		<tag k="bridge" v="yes" />
		<tag k="layer" v="1" />
		<tag k="name" v="Rønningen" />
		<tag k="ssr:stedsnr" v="956682" />
	</node>
	<node lat="60.35546734542349" lon="11.72284785823104" id="-28459">
		<tag k="bridge" v="yes" />
		<tag k="layer" v="1" />
		<tag k="name" v="Kuggerud bru" />
		<tag k="ssr:stedsnr" v="956683" />
	</node>
	<node lat="60.22940348351581" lon="11.581259204656046" id="-28460">
		<tag k="bridge" v="yes" />
		<tag k="layer" v="1" />
		<tag k="name" v="Nybrua" />
		<tag k="ssr:stedsnr" v="956815" />
	</node>
	<node lat="60.31119721880258" lon="11.797469442212682" id="-28461">
		<tag k="junction" v="yes" />
		<tag k="name" v="Nordsætersvingen" />
		<tag k="place" v="locality" />
		<tag k="ssr:stedsnr" v="965456" />
	</node>
	<node lat="60.13419999727755" lon="11.78924445059074" id="-28490">
		<tag k="highway" v="path" />
		<tag k="name" v="Kjerkevegen" />
		<tag k="ssr:stedsnr" v="969663" />
	</node>
</osm>
